"Longitude (x)","Latitude (y)","Station Name","Climate ID","Date/Time (LST)","Year","Month","Day","Time (LST)","Temp (°C)","Temp Flag","Dew Point Temp (°C)","Dew Point Temp Flag","Rel Hum (%)","Rel Hum Flag","Precip. Amount (mm)","Precip. Amount Flag","Wind Dir (10s deg)","Wind Dir Flag","Wind Spd (km/h)","Wind Spd Flag","Visibility (km)","Visibility Flag","Stn Press (kPa)","Stn Press Flag","Hmdx","Hmdx Flag","Wind Chill","Wind Chill Flag","Weather"
"-94.07","58.74","CHURCHILL A","5060605","2022-06-01 00:00","2022","06","01","00:00","0.2","","0.1","","99","","","","1","","23","","1.2","","99.47","","","","","","Fog"
"-94.07","58.74","CHURCHILL A","5060605","2022-06-01 01:00","2022","06","01","01:00","0.3","","0.2","","99","","","","1","","21","","3.2","","99.39","","","","","","Drizzle,Fog"
"-94.07","58.74","CHURCHILL A","5060605","2022-06-01 02:00","2022","06","01","02:00","0.3","","0.2","","99","","","","2","","23","","24.1","","99.35","","","","","","NA"
"-94.07","58.74","CHURCHILL A","5060605","2022-06-01 03:00","2022","06","01","03:00","0.3","","0.0","","98","","","","36","","22","","12.9","","99.23","","","","","","Rain"
"-94.07","58.74","CHURCHILL A","5060605","2022-06-01 04:00","2022","06","01","04:00","0.3","","0.2","","99","","","","1","","30","","16.1","","99.14","","","","","","Rain"
"-94.07","58.74","CHURCHILL A","5060605","2022-06-01 05:00","2022","06","01","05:00","0.5","","0.4","","99","","","","3","","32","","4.8","","99.08","","","","","","Rain,Fog"
"-94.07","58.74","CHURCHILL A","5060605","2022-06-01 06:00","2022","06","01","06:00","0.5","","0.4","","99","","","","1","","25","","4.8","","98.99","","","","","","Rain,Fog"
"-94.07","58.74","CHURCHILL A","5060605","2022-06-01 07:00","2022","06","01","07:00","0.5","","0.4","","99","","","","2","","27","","4.8","","98.94","","","","","","Rain,Fog"
"-94.07","58.74","CHURCHILL A","5060605","2022-06-01 08:00","2022","06","01","08:00","0.6","","0.5","","99","","","","2","","24","","4.8","","98.88","","","","","","Rain,Fog"
"-94.07","58.74","CHURCHILL A","5060605","2022-06-01 09:00","2022","06","01","09:00","1.3","","-0.7","","86","","","","36","","18","","9.7","","98.75","","","","","","Rain,Fog"
"-94.07","58.74","CHURCHILL A","5060605","2022-06-01 10:00","2022","06","01","10:00","1.3","","-0.5","","87","","","","36","","18","","9.7","","98.72","","","","","","Rain,Fog"
"-94.07","58.74","CHURCHILL A","5060605","2022-06-01 11:00","2022","06","01","11:00","1.3","","-0.3","","89","","","","36","","18","","3.2","","98.72","","","","","","Rain,Fog"
"-94.07","58.74","CHURCHILL A","5060605","2022-06-01 12:00","2022","06","01","12:00","2.3","","0.8","","89","","","","36","","18","","0.4","","98.69","","","","","","Fog"
"-94.07","58.74","CHURCHILL A","5060605","2022-06-01 13:00","2022","06","01","13:00","2.3","","1.2","","92","","","","5","","18","","0.2","","98.73","","","","","","Fog"
"-94.07","58.74","CHURCHILL A","5060605","2022-06-01 14:00","2022","06","01","14:00","3.4","","2.8","","95","","","","32","","9","","0.2","","98.78","","","","","","Fog"
"-94.07","58.74","CHURCHILL A","5060605","2022-06-01 15:00","2022","06","01","15:00","1.8","","1.5","","98","","","","5","","18","","0.2","","98.82","","","","","","Fog"
"-94.07","58.74","CHURCHILL A","5060605","2022-06-01 16:00","2022","06","01","16:00","1.6","","1.6","","100","","","","5","","9","","0.4","","98.95","","","","","","Fog"
"-94.07","58.74","CHURCHILL A","5060605","2022-06-01 17:00","2022","06","01","17:00","1.2","","1.2","","100","","","","5","","9","","0.4","","98.98","","","","","","Fog"
"-94.07","58.74","CHURCHILL A","5060605","2022-06-01 18:00","2022","06","01","18:00","1.2","","1.2","","100","","","","5","","9","","2.4","","99.13","","","","","","Fog"
"-94.07","58.74","CHURCHILL A","5060605","2022-06-01 19:00","2022","06","01","19:00","3.3","","3.2","","99","","","","15","","9","","24.1","","99.25","","","","","","NA"
"-94.07","58.74","CHURCHILL A","5060605","2022-06-01 20:00","2022","06","01","20:00","3.8","","3.2","","96","","","","11","","8","","24.1","","99.33","","","","","","NA"
"-94.07","58.74","CHURCHILL A","5060605","2022-06-01 21:00","2022","06","01","21:00","3.3","","2.7","","96","","","","9","","14","","24.1","","99.43","","","","","","Mostly Cloudy"
"-94.07","58.74","CHURCHILL A","5060605","2022-06-01 22:00","2022","06","01","22:00","1.8","","1.4","","97","","","","9","","14","","24.1","","99.51","","","","","","NA"
"-94.07","58.74","CHURCHILL A","5060605","2022-06-01 23:00","2022","06","01","23:00","0.7","","0.4","","98","","","","8","","14","","24.1","","99.59","","","","","","NA"
"-94.07","58.74","CHURCHILL A","5060605","2022-06-02 00:00","2022","06","02","00:00","-0.2","","-0.3","","99","","","","6","","13","","24.1","","99.64","","","","-4","","Clear"
"-94.07","58.74","CHURCHILL A","5060605","2022-06-02 01:00","2022","06","02","01:00","-0.4","","-0.5","","99","","","","5","","15","","24.1","","99.68","","","","-5","","NA"
"-94.07","58.74","CHURCHILL A","5060605","2022-06-02 02:00","2022","06","02","02:00","-0.5","","-0.8","","98","","","","4","","17","","24.1","","99.71","","","","-5","","NA"
"-94.07","58.74","CHURCHILL A","5060605","2022-06-02 03:00","2022","06","02","03:00","-0.2","","-0.5","","98","","","","3","","18","","24.1","","99.75","","","","-5","","Mostly Cloudy"
"-94.07","58.74","CHURCHILL A","5060605","2022-06-02 04:00","2022","06","02","04:00","0.1","","-0.2","","98","","","","1","","23","","24.1","","99.73","","","","","","NA"
"-94.07","58.74","CHURCHILL A","5060605","2022-06-02 05:00","2022","06","02","05:00","0.1","","-0.2","","98","","","","2","","17","","19.3","","99.82","","","","","","Rain"
"-94.07","58.74","CHURCHILL A","5060605","2022-06-02 06:00","2022","06","02","06:00","0.3","","0.2","","99","","","","2","","27","","24.1","","99.84","","","","","","Rain"
"-94.07","58.74","CHURCHILL A","5060605","2022-06-02 07:00","2022","06","02","07:00","0.6","","0.5","","99","","","","3","","24","","24.1","","99.86","","","","","","Rain"
"-94.07","58.74","CHURCHILL A","5060605","2022-06-02 08:00","2022","06","02","08:00","1.0","","0.9","","99","","","","3","","31","","24.1","","99.89","","","","","","Rain"
"-94.07","58.74","CHURCHILL A","5060605","2022-06-02 09:00","2022","06","02","09:00","1.2","","1.0","","99","","","","4","","25","","24.1","","99.93","","","","","","Cloudy"
"-94.07","58.74","CHURCHILL A","5060605","2022-06-02 10:00","2022","06","02","10:00","1.6","","1.4","","99","","","","4","","24","","24.1","","99.97","","","","","","Rain"
"-94.07","58.74","CHURCHILL A","5060605","2022-06-02 11:00","2022","06","02","11:00","1.2","","1.1","","99","","","","4","","21","","9.7","","100.02","","","","","","Rain,Fog"
"-94.07","58.74","CHURCHILL A","5060605","2022-06-02 12:00","2022","06","02","12:00","1.1","","1.1","","100","","","","2","","20","","1.6","","100.09","","","","","","Rain,Fog"
"-94.07","58.74","CHURCHILL A","5060605","2022-06-02 13:00","2022","06","02","13:00","1.3","","1.3","","100","","","","1","","21","","4.8","","100.12","","","","","","Rain,Fog"
"-94.07","58.74","CHURCHILL A","5060605","2022-06-02 14:00","2022","06","02","14:00","1.4","","1.3","","99","","","","1","","19","","9.7","","100.16","","","","","","Fog"
"-94.07","58.74","CHURCHILL A","5060605","2022-06-02 15:00","2022","06","02","15:00","1.4","","1.3","","100","","","","36","","19","","1.6","","100.17","","","","","","Fog"
"-94.07","58.74","CHURCHILL A","5060605","2022-06-02 16:00","2022","06","02","16:00","1.1","","1.0","","99","","","","1","","23","","1.2","","100.21","","","","","","Fog"
"-94.07","58.74","CHURCHILL A","5060605","2022-06-02 17:00","2022","06","02","17:00","1.0","","1.0","","100","","","","1","","21","","1.2","","100.25","","","","","","Fog"
"-94.07","58.74","CHURCHILL A","5060605","2022-06-02 18:00","2022","06","02","18:00","0.9","","0.9","","100","","","","1","","17","","0.8","","100.29","","","","","","Fog"
"-94.07","58.74","CHURCHILL A","5060605","2022-06-02 19:00","2022","06","02","19:00","0.6","","0.6","","100","","","","1","","19","","0.2","","100.28","","","","","","Fog"
"-94.07","58.74","CHURCHILL A","5060605","2022-06-02 20:00","2022","06","02","20:00","0.4","","0.4","","100","","","","36","","17","","0.2","","100.26","","","","","","Fog"
"-94.07","58.74","CHURCHILL A","5060605","2022-06-02 21:00","2022","06","02","21:00","0.2","","0.2","","100","","","","2","","15","","0.2","","100.29","","","","","","Fog"
"-94.07","58.74","CHURCHILL A","5060605","2022-06-02 22:00","2022","06","02","22:00","0.1","","0.1","","100","","","","36","","16","","0.2","","100.26","","","","","","Fog"
"-94.07","58.74","CHURCHILL A","5060605","2022-06-02 23:00","2022","06","02","23:00","0.1","","0.1","","100","","","","1","","18","","0.2","","100.27","","","","","","Fog"
"-94.07","58.74","CHURCHILL A","5060605","2022-06-03 00:00","2022","06","03","00:00","0.1","","0.1","","100","","","","1","","17","","0.2","","100.26","","","","","","Fog"
"-94.07","58.74","CHURCHILL A","5060605","2022-06-03 01:00","2022","06","03","01:00","0.2","","0.2","","100","","","","2","","16","","0.2","","100.25","","","","","","Fog"
"-94.07","58.74","CHURCHILL A","5060605","2022-06-03 02:00","2022","06","03","02:00","0.2","","0.2","","100","","","","1","","16","","0.2","","100.24","","","","","","Fog"
"-94.07","58.74","CHURCHILL A","5060605","2022-06-03 03:00","2022","06","03","03:00","0.1","","0.1","","100","","","","2","","16","","0.2","","100.22","","","","","","Fog"
"-94.07","58.74","CHURCHILL A","5060605","2022-06-03 04:00","2022","06","03","04:00","-0.2","","-0.2","","100","","","","1","","25","","0.4","","100.20","","","","-6","","Freezing Fog"
"-94.07","58.74","CHURCHILL A","5060605","2022-06-03 05:00","2022","06","03","05:00","-0.1","","-0.1","","100","","","","1","","25","","3.2","","100.25","","","","-6","","Freezing Rain,Fog"
"-94.07","58.74","CHURCHILL A","5060605","2022-06-03 06:00","2022","06","03","06:00","0.0","","0.0","","100","","","","36","","23","","19.3","","100.23","","","","-6","","Rain"
"-94.07","58.74","CHURCHILL A","5060605","2022-06-03 07:00","2022","06","03","07:00","0.4","","0.4","","100","","","","1","","25","","19.3","","100.18","","","","","","Rain"
"-94.07","58.74","CHURCHILL A","5060605","2022-06-03 08:00","2022","06","03","08:00","0.8","","0.8","","100","","","","3","","23","","19.3","","100.17","","","","","","Rain"
"-94.07","58.74","CHURCHILL A","5060605","2022-06-03 09:00","2022","06","03","09:00","1.2","","1.2","","100","","","","3","","23","","24.1","","100.13","","","","","","Cloudy"
"-94.07","58.74","CHURCHILL A","5060605","2022-06-03 10:00","2022","06","03","10:00","1.3","","1.2","","99","","","","5","","27","","19.3","","100.18","","","","","","Rain"
"-94.07","58.74","CHURCHILL A","5060605","2022-06-03 11:00","2022","06","03","11:00","1.3","","1.2","","99","","","","5","","23","","19.3","","100.22","","","","","","Rain"
"-94.07","58.74","CHURCHILL A","5060605","2022-06-03 12:00","2022","06","03","12:00","1.3","","1.2","","99","","","","5","","23","","19.3","","100.31","","","","","","Rain"
"-94.07","58.74","CHURCHILL A","5060605","2022-06-03 13:00","2022","06","03","13:00","1.0","","0.9","","99","","","","5","","19","","19.3","","100.37","","","","","","Rain"
"-94.07","58.74","CHURCHILL A","5060605","2022-06-03 14:00","2022","06","03","14:00","1.0","","0.9","","99","","","","4","","18","","12.9","","100.42","","","","","","Rain"
"-94.07","58.74","CHURCHILL A","5060605","2022-06-03 15:00","2022","06","03","15:00","0.7","","0.6","","99","","","","4","","17","","9.7","","100.47","","","","","","Rain,Fog"
"-94.07","58.74","CHURCHILL A","5060605","2022-06-03 16:00","2022","06","03","16:00","0.5","","0.5","","100","","","","3","","18","","9.7","","100.58","","","","","","Rain"
"-94.07","58.74","CHURCHILL A","5060605","2022-06-03 17:00","2022","06","03","17:00","0.5","","0.4","","100","","","","2","","16","","12.9","","100.60","","","","","","Rain"
"-94.07","58.74","CHURCHILL A","5060605","2022-06-03 18:00","2022","06","03","18:00","0.3","","0.2","","99","","","","2","","18","","12.9","","100.68","","","","","","Rain"
"-94.07","58.74","CHURCHILL A","5060605","2022-06-03 19:00","2022","06","03","19:00","0.3","","0.3","","100","","","","1","","13","","16.1","","100.70","","","","","","Rain"
"-94.07","58.74","CHURCHILL A","5060605","2022-06-03 20:00","2022","06","03","20:00","0.2","","0.2","","100","","","","1","","11","","24.1","","100.72","","","","","","Rain"
"-94.07","58.74","CHURCHILL A","5060605","2022-06-03 21:00","2022","06","03","21:00","0.2","","0.2","","100","","","","2","","10","","8.1","","100.74","","","","","","Fog"
"-94.07","58.74","CHURCHILL A","5060605","2022-06-03 22:00","2022","06","03","22:00","0.0","","0.0","","100","","","","1","","11","","1.2","","100.76","","","","-4","","Fog"
"-94.07","58.74","CHURCHILL A","5060605","2022-06-03 23:00","2022","06","03","23:00","-0.1","","-0.1","","100","","","","1","","10","","0.2","","100.77","","","","-3","","Freezing Fog"
"-94.07","58.74","CHURCHILL A","5060605","2022-06-04 00:00","2022","06","04","00:00","-0.1","","-0.1","","100","","","","1","","11","","0.2","","100.79","","","","-4","","Freezing Fog"
"-94.07","58.74","CHURCHILL A","5060605","2022-06-04 01:00","2022","06","04","01:00","-0.1","","-0.1","","100","","","","35","","10","","0.2","","100.83","","","","-3","","Freezing Fog"
"-94.07","58.74","CHURCHILL A","5060605","2022-06-04 02:00","2022","06","04","02:00","-0.3","","-0.3","","100","","","","36","","10","","0.2","","100.87","","","","-4","","Freezing Fog"
"-94.07","58.74","CHURCHILL A","5060605","2022-06-04 03:00","2022","06","04","03:00","-0.2","","-0.2","","100","","","","33","","9","","0.2","","100.90","","","","-3","","Freezing Fog"
"-94.07","58.74","CHURCHILL A","5060605","2022-06-04 04:00","2022","06","04","04:00","-0.1","","-0.1","","100","","","","33","","9","","8.1","","100.97","","","","-3","","Fog"
"-94.07","58.74","CHURCHILL A","5060605","2022-06-04 05:00","2022","06","04","05:00","0.1","","0.1","","100","","","","34","","12","","1.6","","101.01","","","","","","Fog"
"-94.07","58.74","CHURCHILL A","5060605","2022-06-04 06:00","2022","06","04","06:00","0.3","","0.3","","100","","","","33","","13","","0.4","","101.06","","","","","","Fog"
"-94.07","58.74","CHURCHILL A","5060605","2022-06-04 07:00","2022","06","04","07:00","0.7","","0.7","","100","","","","34","","10","","16.1","","101.13","","","","","","NA"
"-94.07","58.74","CHURCHILL A","5060605","2022-06-04 08:00","2022","06","04","08:00","0.9","","0.9","","100","","","","34","","14","","1.6","","101.19","","","","","","Fog"
"-94.07","58.74","CHURCHILL A","5060605","2022-06-04 09:00","2022","06","04","09:00","1.2","","1.1","","99","","","","33","","13","","2.4","","101.22","","","","","","Fog"
"-94.07","58.74","CHURCHILL A","5060605","2022-06-04 10:00","2022","06","04","10:00","1.9","","1.4","","96","","","","35","","15","","16.1","","101.27","","","","","","NA"
"-94.07","58.74","CHURCHILL A","5060605","2022-06-04 11:00","2022","06","04","11:00","1.8","","1.1","","95","","","","36","","16","","6.4","","101.32","","","","","","Fog"
"-94.07","58.74","CHURCHILL A","5060605","2022-06-04 12:00","2022","06","04","12:00","1.9","","1.2","","95","","","","36","","17","","4.8","","101.38","","","","","","Fog"
"-94.07","58.74","CHURCHILL A","5060605","2022-06-04 13:00","2022","06","04","13:00","2.6","","1.6","","93","","","","36","","14","","4.8","","101.40","","","","","","Fog"
"-94.07","58.74","CHURCHILL A","5060605","2022-06-04 14:00","2022","06","04","14:00","2.1","","1.5","","96","","","","1","","16","","1.2","","101.45","","","","","","Fog"
"-94.07","58.74","CHURCHILL A","5060605","2022-06-04 15:00","2022","06","04","15:00","2.1","","1.4","","95","","","","1","","17","","4.8","","101.50","","","","","","Fog"
"-94.07","58.74","CHURCHILL A","5060605","2022-06-04 16:00","2022","06","04","16:00","2.2","","1.5","","95","","","","2","","19","","16.1","","101.53","","","","","","NA"
"-94.07","58.74","CHURCHILL A","5060605","2022-06-04 17:00","2022","06","04","17:00","2.0","","1.1","","94","","","","1","","13","","24.1","","101.58","","","","","","NA"
"-94.07","58.74","CHURCHILL A","5060605","2022-06-04 18:00","2022","06","04","18:00","2.1","","1.5","","96","","","","32","","11","","19.3","","101.61","","","","","","Cloudy"
"-94.07","58.74","CHURCHILL A","5060605","2022-06-04 19:00","2022","06","04","19:00","1.7","","1.4","","98","","","","33","","14","","1.6","","101.62","","","","","","Fog"
"-94.07","58.74","CHURCHILL A","5060605","2022-06-04 20:00","2022","06","04","20:00","1.7","","1.6","","99","","","","34","","15","","0.8","","101.61","","","","","","Fog"
"-94.07","58.74","CHURCHILL A","5060605","2022-06-04 21:00","2022","06","04","21:00","1.5","","1.5","","100","","","","34","","14","","1.2","","101.62","","","","","","Fog"
"-94.07","58.74","CHURCHILL A","5060605","2022-06-04 22:00","2022","06","04","22:00","0.9","","0.9","","100","","","","35","","8","","1.2","","101.63","","","","","","Fog"
"-94.07","58.74","CHURCHILL A","5060605","2022-06-04 23:00","2022","06","04","23:00","0.1","","0.1","","100","","","","35","","11","","0.6","","101.62","","","","","","Fog"
"-94.07","58.74","CHURCHILL A","5060605","2022-06-05 00:00","2022","06","05","00:00","-0.9","","-0.9","","100","","","","36","","9","","0.4","","101.64","","","","-4","","Freezing Fog"
"-94.07","58.74","CHURCHILL A","5060605","2022-06-05 01:00","2022","06","05","01:00","-1.1","","-1.1","","100","","","","33","","8","","0.4","","101.65","","","","-4","","Freezing Fog"
"-94.07","58.74","CHURCHILL A","5060605","2022-06-05 02:00","2022","06","05","02:00","-1.4","","-1.4","","100","","","","34","","13","","0.4","","101.66","","","","-6","","Freezing Fog"
"-94.07","58.74","CHURCHILL A","5060605","2022-06-05 03:00","2022","06","05","03:00","-1.4","","-1.4","","100","","","","33","","9","","0.4","","101.68","","","","-5","","Freezing Fog"
"-94.07","58.74","CHURCHILL A","5060605","2022-06-05 04:00","2022","06","05","04:00","-1.7","","-1.7","","100","","","","34","","15","","0.2","","101.70","","","","-7","","Freezing Fog"
"-94.07","58.74","CHURCHILL A","5060605","2022-06-05 05:00","2022","06","05","05:00","-1.6","","-1.6","","100","","","","33","","15","","0.2","","101.70","","","","-6","","Freezing Fog"
"-94.07","58.74","CHURCHILL A","5060605","2022-06-05 06:00","2022","06","05","06:00","-1.2","","-1.2","","100","","","","33","","16","","0.4","","101.76","","","","-6","","Freezing Fog"
"-94.07","58.74","CHURCHILL A","5060605","2022-06-05 07:00","2022","06","05","07:00","-0.8","","-0.8","","100","","","","35","","17","","0.4","","101.78","","","","-6","","Freezing Fog"
"-94.07","58.74","CHURCHILL A","5060605","2022-06-05 08:00","2022","06","05","08:00","0.1","","0.1","","100","","","","34","","19","","0.4","","101.78","","","","","","Fog"
"-94.07","58.74","CHURCHILL A","5060605","2022-06-05 09:00","2022","06","05","09:00","1.1","","1.1","","100","","","","33","","18","","9.7","","101.79","","","","","","Fog"
"-94.07","58.74","CHURCHILL A","5060605","2022-06-05 10:00","2022","06","05","10:00","1.8","","1.6","","99","","","","35","","19","","24.1","","101.80","","","","","","NA"
"-94.07","58.74","CHURCHILL A","5060605","2022-06-05 11:00","2022","06","05","11:00","2.0","","1.1","","94","","","","35","","24","","24.1","","101.79","","","","","","NA"
"-94.07","58.74","CHURCHILL A","5060605","2022-06-05 12:00","2022","06","05","12:00","2.2","","1.1","","92","","","","1","","22","","24.1","","101.81","","","","","","Mostly Cloudy"
"-94.07","58.74","CHURCHILL A","5060605","2022-06-05 13:00","2022","06","05","13:00","2.4","","1.2","","92","","","","36","","24","","24.1","","101.81","","","","","","NA"
"-94.07","58.74","CHURCHILL A","5060605","2022-06-05 14:00","2022","06","05","14:00","2.3","","1.1","","92","","","","36","","21","","24.1","","101.84","","","","","","NA"
"-94.07","58.74","CHURCHILL A","5060605","2022-06-05 15:00","2022","06","05","15:00","2.9","","1.6","","91","","","","1","","20","","24.1","","101.83","","","","","","Mainly Clear"
"-94.07","58.74","CHURCHILL A","5060605","2022-06-05 16:00","2022","06","05","16:00","2.5","","1.3","","92","","","","36","","21","","24.1","","101.84","","","","","","NA"
"-94.07","58.74","CHURCHILL A","5060605","2022-06-05 17:00","2022","06","05","17:00","2.5","","1.0","","90","","","","36","","20","","24.1","","101.83","","","","","","NA"
"-94.07","58.74","CHURCHILL A","5060605","2022-06-05 18:00","2022","06","05","18:00","2.3","","0.8","","90","","","","2","","16","","24.1","","101.85","","","","","","Mainly Clear"
"-94.07","58.74","CHURCHILL A","5060605","2022-06-05 19:00","2022","06","05","19:00","1.9","","0.7","","92","","","","35","","18","","24.1","","101.84","","","","","","NA"
"-94.07","58.74","CHURCHILL A","5060605","2022-06-05 20:00","2022","06","05","20:00","1.2","","0.2","","93","","","","35","","15","","24.1","","101.83","","","","","","NA"
"-94.07","58.74","CHURCHILL A","5060605","2022-06-05 21:00","2022","06","05","21:00","0.3","","-0.3","","96","","","","36","","16","","24.1","","101.83","","","","","","Mainly Clear"
"-94.07","58.74","CHURCHILL A","5060605","2022-06-05 22:00","2022","06","05","22:00","-0.3","","-0.6","","98","","","","35","","11","","24.1","","101.80","","","","-4","","NA"
"-94.07","58.74","CHURCHILL A","5060605","2022-06-05 23:00","2022","06","05","23:00","-0.5","","-0.9","","97","","","","34","","12","","24.1","","101.78","","","","-4","","NA"
"-94.07","58.74","CHURCHILL A","5060605","2022-06-06 00:00","2022","06","06","00:00","-1.0","","-1.3","","98","","","","36","","8","","24.1","","101.78","","","","-4","","Mainly Clear"
"-94.07","58.74","CHURCHILL A","5060605","2022-06-06 01:00","2022","06","06","01:00","-1.4","","-1.7","","98","","","","35","","12","","24.1","","101.78","","","","-5","","NA"
"-94.07","58.74","CHURCHILL A","5060605","2022-06-06 02:00","2022","06","06","02:00","-1.6","","-1.9","","98","","","","35","","10","","24.1","","101.77","","","","-5","","NA"
"-94.07","58.74","CHURCHILL A","5060605","2022-06-06 03:00","2022","06","06","03:00","-1.9","","-2.2","","98","","","","35","","12","","24.1","","101.78","","","","-6","","Mainly Clear"
"-94.07","58.74","CHURCHILL A","5060605","2022-06-06 04:00","2022","06","06","04:00","-2.1","","-2.4","","98","","","","36","","14","","24.1","","101.76","","","","-7","","NA"
"-94.07","58.74","CHURCHILL A","5060605","2022-06-06 05:00","2022","06","06","05:00","-1.7","","-2.1","","97","","","","1","","12","","24.1","","101.78","","","","-6","","NA"
"-94.07","58.74","CHURCHILL A","5060605","2022-06-06 06:00","2022","06","06","06:00","-0.9","","-1.6","","95","","","","1","","17","","24.1","","101.77","","","","-6","","Mostly Cloudy"
"-94.07","58.74","CHURCHILL A","5060605","2022-06-06 07:00","2022","06","06","07:00","-0.5","","-1.4","","94","","","","35","","18","","24.1","","101.77","","","","-6","","NA"
"-94.07","58.74","CHURCHILL A","5060605","2022-06-06 08:00","2022","06","06","08:00","0.2","","-0.9","","92","","","","36","","18","","24.1","","101.75","","","","","","NA"
"-94.07","58.74","CHURCHILL A","5060605","2022-06-06 09:00","2022","06","06","09:00","0.8","","-0.4","","92","","","","36","","21","","24.1","","101.75","","","","","","Mostly Cloudy"
"-94.07","58.74","CHURCHILL A","5060605","2022-06-06 10:00","2022","06","06","10:00","1.3","","-0.2","","90","","","","35","","22","","24.1","","101.74","","","","","","NA"
"-94.07","58.74","CHURCHILL A","5060605","2022-06-06 11:00","2022","06","06","11:00","2.1","","0.5","","89","","","","36","","21","","24.1","","101.74","","","","","","NA"
"-94.07","58.74","CHURCHILL A","5060605","2022-06-06 12:00","2022","06","06","12:00","2.1","","0.3","","88","","","","1","","18","","24.1","","101.76","","","","","","Mainly Clear"
"-94.07","58.74","CHURCHILL A","5060605","2022-06-06 13:00","2022","06","06","13:00","2.6","","0.8","","88","","","","35","","22","","24.1","","101.76","","","","","","NA"
"-94.07","58.74","CHURCHILL A","5060605","2022-06-06 14:00","2022","06","06","14:00","2.6","","1.0","","89","","","","35","","25","","24.1","","101.71","","","","","","NA"
"-94.07","58.74","CHURCHILL A","5060605","2022-06-06 15:00","2022","06","06","15:00","2.9","","1.3","","89","","","","36","","21","","24.1","","101.70","","","","","","Mainly Clear"
"-94.07","58.74","CHURCHILL A","5060605","2022-06-06 16:00","2022","06","06","16:00","2.7","","1.2","","90","","","","36","","18","","24.1","","101.68","","","","","","NA"
"-94.07","58.74","CHURCHILL A","5060605","2022-06-06 17:00","2022","06","06","17:00","2.9","","1.4","","90","","","","1","","19","","24.1","","101.64","","","","","","NA"
"-94.07","58.74","CHURCHILL A","5060605","2022-06-06 18:00","2022","06","06","18:00","2.3","","0.8","","90","","","","1","","21","","24.1","","101.63","","","","","","Mainly Clear"
"-94.07","58.74","CHURCHILL A","5060605","2022-06-06 19:00","2022","06","06","19:00","1.8","","0.5","","91","","","","36","","17","","24.1","","101.63","","","","","","NA"
"-94.07","58.74","CHURCHILL A","5060605","2022-06-06 20:00","2022","06","06","20:00","0.5","","-45.7","","1","","","","36","","17","","24.1","","101.61","","","","","","NA"
"-94.07","58.74","CHURCHILL A","5060605","2022-06-06 21:00","2022","06","06","21:00","0.5","","-0.1","","96","","","","35","","15","","24.1","","101.59","","","","","","Mostly Cloudy"
"-94.07","58.74","CHURCHILL A","5060605","2022-06-06 22:00","2022","06","06","22:00","0.7","","0.1","","96","","","","1","","17","","24.1","","101.59","","","","","","NA"
"-94.07","58.74","CHURCHILL A","5060605","2022-06-06 23:00","2022","06","06","23:00","0.1","","-0.2","","98","","","","35","","14","","24.1","","101.55","","","","","","NA"
"-94.07","58.74","CHURCHILL A","5060605","2022-06-07 00:00","2022","06","07","00:00","-0.4","","-15.6","","31","","","","1","","12","","24.1","","101.54","","","","-4","","Mostly Cloudy"
"-94.07","58.74","CHURCHILL A","5060605","2022-06-07 01:00","2022","06","07","01:00","0.1","","-0.2","","98","","","","36","","15","","24.1","","101.52","","","","","","NA"
"-94.07","58.74","CHURCHILL A","5060605","2022-06-07 02:00","2022","06","07","02:00","0.1","","-0.2","","98","","","","35","","14","","24.1","","101.50","","","","","","NA"
"-94.07","58.74","CHURCHILL A","5060605","2022-06-07 03:00","2022","06","07","03:00","0.2","","-0.1","","98","","","","1","","12","","24.1","","101.51","","","","","","Mostly Cloudy"
"-94.07","58.74","CHURCHILL A","5060605","2022-06-07 04:00","2022","06","07","04:00","0.3","","0.0","","98","","","","1","","14","","24.1","","101.50","","","","","","NA"
"-94.07","58.74","CHURCHILL A","5060605","2022-06-07 05:00","2022","06","07","05:00","0.4","","0.1","","98","","","","2","","17","","24.1","","101.52","","","","","","NA"
"-94.07","58.74","CHURCHILL A","5060605","2022-06-07 06:00","2022","06","07","06:00","0.4","","0.3","","99","","","","1","","17","","24.1","","101.52","","","","","","Cloudy"
"-94.07","58.74","CHURCHILL A","5060605","2022-06-07 07:00","2022","06","07","07:00","1.2","","-0.1","","91","","","","36","","17","","24.1","","101.54","","","","","","NA"
"-94.07","58.74","CHURCHILL A","5060605","2022-06-07 08:00","2022","06","07","08:00","2.6","","0.3","","84","","","","1","","18","","24.1","","101.56","","","","","","NA"
"-94.07","58.74","CHURCHILL A","5060605","2022-06-07 09:00","2022","06","07","09:00","2.0","","0.8","","92","","","","2","","18","","24.1","","101.55","","","","","","Mostly Cloudy"
"-94.07","58.74","CHURCHILL A","5060605","2022-06-07 10:00","2022","06","07","10:00","2.1","","0.9","","92","","","","1","","20","","24.1","","101.55","","","","","","NA"
"-94.07","58.74","CHURCHILL A","5060605","2022-06-07 11:00","2022","06","07","11:00","3.0","","1.5","","90","","","","1","","16","","24.1","","101.55","","","","","","NA"
"-94.07","58.74","CHURCHILL A","5060605","2022-06-07 12:00","2022","06","07","12:00","2.2","","0.7","","90","","","","3","","17","","24.1","","101.56","","","","","","Mostly Cloudy"
"-94.07","58.74","CHURCHILL A","5060605","2022-06-07 13:00","2022","06","07","13:00","3.2","","0.4","","81","","","","1","","14","","24.1","","101.56","","","","","","NA"
"-94.07","58.74","CHURCHILL A","5060605","2022-06-07 14:00","2022","06","07","14:00","2.7","","0.5","","85","","","","1","","13","","24.1","","101.56","","","","","","NA"
"-94.07","58.74","CHURCHILL A","5060605","2022-06-07 15:00","2022","06","07","15:00","3.1","","1.4","","88","","","","1","","18","","24.1","","101.56","","","","","","Mostly Cloudy"
"-94.07","58.74","CHURCHILL A","5060605","2022-06-07 16:00","2022","06","07","16:00","2.4","","1.2","","92","","","","2","","16","","24.1","","101.56","","","","","","NA"
"-94.07","58.74","CHURCHILL A","5060605","2022-06-07 17:00","2022","06","07","17:00","2.1","","0.1","","86","","","","1","","19","","24.1","","101.54","","","","","","NA"
"-94.07","58.74","CHURCHILL A","5060605","2022-06-07 18:00","2022","06","07","18:00","1.1","","0.6","","96","","","","1","","14","","1.6","","101.53","","","","","","Fog"
"-94.07","58.74","CHURCHILL A","5060605","2022-06-07 19:00","2022","06","07","19:00","0.7","","0.7","","100","","","","1","","15","","0.4","","101.56","","","","","","Fog"
"-94.07","58.74","CHURCHILL A","5060605","2022-06-07 20:00","2022","06","07","20:00","0.5","","0.5","","100","","","","36","","14","","0.4","","101.54","","","","","","Fog"
"-94.07","58.74","CHURCHILL A","5060605","2022-06-07 21:00","2022","06","07","21:00","0.3","","0.3","","100","","","","36","","13","","0.6","","101.54","","","","","","Fog"
"-94.07","58.74","CHURCHILL A","5060605","2022-06-07 22:00","2022","06","07","22:00","0.4","","0.4","","100","","","","36","","13","","0.2","","101.51","","","","","","Fog"
"-94.07","58.74","CHURCHILL A","5060605","2022-06-07 23:00","2022","06","07","23:00","0.1","","0.1","","100","","","","1","","12","","0.6","","101.52","","","","","","Fog"
"-94.07","58.74","CHURCHILL A","5060605","2022-06-08 00:00","2022","06","08","00:00","0.0","","0.0","","100","","","","36","","10","","1.2","","101.51","","","","-3","","Fog"
"-94.07","58.74","CHURCHILL A","5060605","2022-06-08 01:00","2022","06","08","01:00","0.6","","0.6","","100","","","","35","","14","","0.4","","101.49","","","","","","Fog"
"-94.07","58.74","CHURCHILL A","5060605","2022-06-08 02:00","2022","06","08","02:00","0.4","","0.4","","100","","","","31","","11","","0.8","","101.45","","","","","","Fog"
"-94.07","58.74","CHURCHILL A","5060605","2022-06-08 03:00","2022","06","08","03:00","0.4","","0.4","","100","","","","35","","9","","0.4","","101.49","","","","","","Fog"
"-94.07","58.74","CHURCHILL A","5060605","2022-06-08 04:00","2022","06","08","04:00","0.6","","0.6","","100","","","","31","","9","","19.3","","101.46","","","","","","NA"
"-94.07","58.74","CHURCHILL A","5060605","2022-06-08 05:00","2022","06","08","05:00","1.0","","0.7","","97","","","","32","","13","","24.1","","101.45","","","","","","NA"
"-94.07","58.74","CHURCHILL A","5060605","2022-06-08 06:00","2022","06","08","06:00","1.6","","0.2","","90","","","","34","","16","","24.1","","101.46","","","","","","Mostly Cloudy"
"-94.07","58.74","CHURCHILL A","5060605","2022-06-08 07:00","2022","06","08","07:00","1.6","","0.1","","89","","","","33","","14","","24.1","","101.48","","","","","","NA"
"-94.07","58.74","CHURCHILL A","5060605","2022-06-08 08:00","2022","06","08","08:00","4.3","","-0.4","","71","","","","33","","16","","24.1","","101.48","","","","","","NA"
"-94.07","58.74","CHURCHILL A","5060605","2022-06-08 09:00","2022","06","08","09:00","3.9","","0.6","","79","","","","34","","18","","24.1","","101.49","","","","","","Mainly Clear"
"-94.07","58.74","CHURCHILL A","5060605","2022-06-08 10:00","2022","06","08","10:00","4.1","","-1.3","","67","","","","34","","16","","24.1","","101.47","","","","","","NA"
"-94.07","58.74","CHURCHILL A","5060605","2022-06-08 11:00","2022","06","08","11:00","5.1","","0.0","","69","","","","35","","15","","24.1","","101.47","","","","","","NA"
"-94.07","58.74","CHURCHILL A","5060605","2022-06-08 12:00","2022","06","08","12:00","6.6","","0.8","","66","","","","36","","14","","24.1","","101.44","","","","","","Mainly Clear"
"-94.07","58.74","CHURCHILL A","5060605","2022-06-08 13:00","2022","06","08","13:00","5.4","","-1.6","","60","","","","35","","16","","24.1","","101.45","","","","","","NA"
"-94.07","58.74","CHURCHILL A","5060605","2022-06-08 14:00","2022","06","08","14:00","5.5","","-0.8","","63","","","","36","","17","","24.1","","101.39","","","","","","NA"
"-94.07","58.74","CHURCHILL A","5060605","2022-06-08 15:00","2022","06","08","15:00","7.3","","-1.4","","54","","","","36","","12","","24.1","","101.40","","","","","","Mostly Cloudy"
"-94.07","58.74","CHURCHILL A","5060605","2022-06-08 16:00","2022","06","08","16:00","6.5","","-1.9","","55","","","","1","","12","","24.1","","101.38","","","","","","NA"
"-94.07","58.74","CHURCHILL A","5060605","2022-06-08 17:00","2022","06","08","17:00","6.5","","-0.5","","61","","","","1","","13","","24.1","","101.37","","","","","","NA"
"-94.07","58.74","CHURCHILL A","5060605","2022-06-08 18:00","2022","06","08","18:00","6.6","","-1.1","","58","","","","1","","11","","24.1","","101.33","","","","","","Mostly Cloudy"
"-94.07","58.74","CHURCHILL A","5060605","2022-06-08 19:00","2022","06","08","19:00","6.1","","-1.5","","58","","","","2","","11","","24.1","","101.32","","","","","","NA"
"-94.07","58.74","CHURCHILL A","5060605","2022-06-08 20:00","2022","06","08","20:00","5.6","","-2.0","","58","","","","1","","7","","24.1","","101.30","","","","","","NA"
"-94.07","58.74","CHURCHILL A","5060605","2022-06-08 21:00","2022","06","08","21:00","4.2","","-2.4","","62","","","","3","","9","","24.1","","101.29","","","","","","Mostly Cloudy"
"-94.07","58.74","CHURCHILL A","5060605","2022-06-08 22:00","2022","06","08","22:00","3.8","","-2.8","","62","","","","3","","12","","24.1","","101.30","","","","","","NA"
"-94.07","58.74","CHURCHILL A","5060605","2022-06-08 23:00","2022","06","08","23:00","3.3","","-2.7","","65","","","","1","","10","","24.1","","101.31","","","","","","NA"
"-94.07","58.74","CHURCHILL A","5060605","2022-06-09 00:00","2022","06","09","00:00","2.5","","-1.5","","75","","","","36","","10","","24.1","","101.31","","","","","","Mostly Cloudy"
"-94.07","58.74","CHURCHILL A","5060605","2022-06-09 01:00","2022","06","09","01:00","3.1","","-1.3","","73","","","","1","","11","","24.1","","101.31","","","","","","NA"
"-94.07","58.74","CHURCHILL A","5060605","2022-06-09 02:00","2022","06","09","02:00","1.4","","-1.0","","84","","","","36","","11","","24.1","","101.33","","","","","","NA"
"-94.07","58.74","CHURCHILL A","5060605","2022-06-09 03:00","2022","06","09","03:00","1.3","","-1.0","","85","","","","36","","14","","24.1","","101.36","","","","","","Mostly Cloudy"
"-94.07","58.74","CHURCHILL A","5060605","2022-06-09 04:00","2022","06","09","04:00","0.9","","-1.1","","86","","","","35","","11","","24.1","","101.38","","","","","","NA"
"-94.07","58.74","CHURCHILL A","5060605","2022-06-09 05:00","2022","06","09","05:00","1.8","","-1.0","","82","","","","35","","13","","24.1","","101.38","","","","","","NA"
"-94.07","58.74","CHURCHILL A","5060605","2022-06-09 06:00","2022","06","09","06:00","3.7","","-2.4","","65","","","","35","","10","","24.1","","101.42","","","","","","Cloudy"
"-94.07","58.74","CHURCHILL A","5060605","2022-06-09 07:00","2022","06","09","07:00","5.1","","-1.8","","61","","","","34","","11","","24.1","","101.46","","","","","","NA"
"-94.07","58.74","CHURCHILL A","5060605","2022-06-09 08:00","2022","06","09","08:00","7.1","","-2.2","","51","","","","34","","13","","24.1","","101.47","","","","","","NA"
"-94.07","58.74","CHURCHILL A","5060605","2022-06-09 09:00","2022","06","09","09:00","7.7","","-3.3","","46","","","","36","","16","","24.1","","101.49","","","","","","Mostly Cloudy"
"-94.07","58.74","CHURCHILL A","5060605","2022-06-09 10:00","2022","06","09","10:00","9.6","","-4.0","","38","","","","35","","16","","24.1","","101.47","","","","","","NA"
"-94.07","58.74","CHURCHILL A","5060605","2022-06-09 11:00","2022","06","09","11:00","10.1","","-1.5","","44","","","","35","","16","","24.1","","101.47","","","","","","NA"
"-94.07","58.74","CHURCHILL A","5060605","2022-06-09 12:00","2022","06","09","12:00","10.9","","1.0","","50","","","","35","","14","","24.1","","101.47","","","","","","Mostly Cloudy"
"-94.07","58.74","CHURCHILL A","5060605","2022-06-09 13:00","2022","06","09","13:00","11.2","","2.0","","53","","","","34","","15","","24.1","","101.46","","","","","","NA"
"-94.07","58.74","CHURCHILL A","5060605","2022-06-09 14:00","2022","06","09","14:00","12.7","","1.5","","46","","","","35","","16","","24.1","","101.45","","","","","","NA"
"-94.07","58.74","CHURCHILL A","5060605","2022-06-09 15:00","2022","06","09","15:00","12.8","","2.5","","49","","","","36","","18","","24.1","","101.46","","","","","","Mostly Cloudy"
"-94.07","58.74","CHURCHILL A","5060605","2022-06-09 16:00","2022","06","09","16:00","13.2","","2.8","","49","","","","36","","20","","24.1","","101.46","","","","","","NA"
"-94.07","58.74","CHURCHILL A","5060605","2022-06-09 17:00","2022","06","09","17:00","9.6","","3.5","","66","","","","3","","21","","24.1","","101.45","","","","","","NA"
"-94.07","58.74","CHURCHILL A","5060605","2022-06-09 18:00","2022","06","09","18:00","8.0","","3.5","","73","","","","7","","17","","24.1","","101.45","","","","","","Clear"
"-94.07","58.74","CHURCHILL A","5060605","2022-06-09 19:00","2022","06","09","19:00","6.7","","2.1","","73","","","","6","","14","","24.1","","101.44","","","","","","NA"
"-94.07","58.74","CHURCHILL A","5060605","2022-06-09 20:00","2022","06","09","20:00","5.2","","2.6","","83","","","","7","","16","","24.1","","101.42","","","","","","NA"
"-94.07","58.74","CHURCHILL A","5060605","2022-06-09 21:00","2022","06","09","21:00","3.3","","1.4","","87","","","","7","","16","","24.1","","101.42","","","","","","Clear"
"-94.07","58.74","CHURCHILL A","5060605","2022-06-09 22:00","2022","06","09","22:00","2.5","","1.3","","92","","","","7","","12","","24.1","","101.43","","","","","","NA"
"-94.07","58.74","CHURCHILL A","5060605","2022-06-09 23:00","2022","06","09","23:00","2.0","","0.8","","92","","","","7","","9","","24.1","","101.45","","","","","","NA"
"-94.07","58.74","CHURCHILL A","5060605","2022-06-10 00:00","2022","06","10","00:00","1.4","","0.1","","91","","","","6","","10","","24.1","","101.47","","","","","","Clear"
"-94.07","58.74","CHURCHILL A","5060605","2022-06-10 01:00","2022","06","10","01:00","0.8","","-0.4","","92","","","","5","","12","","24.1","","101.46","","","","","","NA"
"-94.07","58.74","CHURCHILL A","5060605","2022-06-10 02:00","2022","06","10","02:00","0.4","","-0.6","","93","","","","5","","13","","24.1","","101.47","","","","","","NA"
"-94.07","58.74","CHURCHILL A","5060605","2022-06-10 03:00","2022","06","10","03:00","0.1","","-0.9","","93","","","","5","","10","","24.1","","101.50","","","","","","Clear"
"-94.07","58.74","CHURCHILL A","5060605","2022-06-10 04:00","2022","06","10","04:00","0.2","","-0.9","","92","","","","5","","11","","24.1","","101.50","","","","","","NA"
"-94.07","58.74","CHURCHILL A","5060605","2022-06-10 05:00","2022","06","10","05:00","0.8","","-0.6","","90","","","","6","","10","","24.1","","101.50","","","","","","NA"
"-94.07","58.74","CHURCHILL A","5060605","2022-06-10 06:00","2022","06","10","06:00","1.6","","-0.5","","86","","","","5","","10","","24.1","","101.52","","","","","","Clear"
"-94.07","58.74","CHURCHILL A","5060605","2022-06-10 07:00","2022","06","10","07:00","2.4","","-0.5","","81","","","","6","","12","","24.1","","101.53","","","","","","NA"
"-94.07","58.74","CHURCHILL A","5060605","2022-06-10 08:00","2022","06","10","08:00","4.1","","0.4","","77","","","","4","","9","","24.1","","101.54","","","","","","NA"
"-94.07","58.74","CHURCHILL A","5060605","2022-06-10 09:00","2022","06","10","09:00","5.5","","1.0","","73","","","","6","","10","","24.1","","101.53","","","","","","Clear"
"-94.07","58.74","CHURCHILL A","5060605","2022-06-10 10:00","2022","06","10","10:00","5.4","","0.8","","72","","","","6","","15","","24.1","","101.51","","","","","","NA"
"-94.07","58.74","CHURCHILL A","5060605","2022-06-10 11:00","2022","06","10","11:00","6.8","","1.6","","69","","","","6","","18","","24.1","","101.47","","","","","","NA"
"-94.07","58.74","CHURCHILL A","5060605","2022-06-10 12:00","2022","06","10","12:00","6.4","","2.0","","73","","","","6","","18","","24.1","","101.45","","","","","","Clear"
"-94.07","58.74","CHURCHILL A","5060605","2022-06-10 13:00","2022","06","10","13:00","6.7","","2.0","","72","","","","5","","18","","24.1","","101.43","","","","","","NA"
"-94.07","58.74","CHURCHILL A","5060605","2022-06-10 14:00","2022","06","10","14:00","7.5","","1.7","","67","","","","6","","19","","24.1","","101.43","","","","","","NA"
"-94.07","58.74","CHURCHILL A","5060605","2022-06-10 15:00","2022","06","10","15:00","8.3","","2.4","","66","","","","7","","18","","24.1","","101.40","","","","","","Clear"
"-94.07","58.74","CHURCHILL A","5060605","2022-06-10 16:00","2022","06","10","16:00","8.7","","3.4","","69","","","","7","","17","","24.1","","101.38","","","","","","NA"
"-94.07","58.74","CHURCHILL A","5060605","2022-06-10 17:00","2022","06","10","17:00","8.8","","3.7","","70","","","","6","","17","","24.1","","101.36","","","","","","NA"
"-94.07","58.74","CHURCHILL A","5060605","2022-06-10 18:00","2022","06","10","18:00","5.5","","2.2","","79","","","","7","","18","","24.1","","101.33","","","","","","Clear"
"-94.07","58.74","CHURCHILL A","5060605","2022-06-10 19:00","2022","06","10","19:00","7.1","","3.3","","77","","","","7","","17","","24.1","","101.31","","","","","","NA"
"-94.07","58.74","CHURCHILL A","5060605","2022-06-10 20:00","2022","06","10","20:00","5.2","","2.9","","85","","","","8","","14","","24.1","","101.29","","","","","","NA"
"-94.07","58.74","CHURCHILL A","5060605","2022-06-10 21:00","2022","06","10","21:00","6.9","","3.9","","81","","","","12","","15","","24.1","","101.29","","","","","","Clear"
"-94.07","58.74","CHURCHILL A","5060605","2022-06-10 22:00","2022","06","10","22:00","5.4","","3.1","","85","","","","12","","14","","24.1","","101.29","","","","","","NA"
"-94.07","58.74","CHURCHILL A","5060605","2022-06-10 23:00","2022","06","10","23:00","4.0","","2.7","","91","","","","11","","13","","24.1","","101.25","","","","","","NA"
"-94.07","58.74","CHURCHILL A","5060605","2022-06-11 00:00","2022","06","11","00:00","2.9","","2.2","","95","","","","12","","12","","24.1","","101.25","","","","","","Clear"
"-94.07","58.74","CHURCHILL A","5060605","2022-06-11 01:00","2022","06","11","01:00","2.4","","2.0","","97","","","","13","","13","","0.8","","101.25","","","","","","Fog"
"-94.07","58.74","CHURCHILL A","5060605","2022-06-11 02:00","2022","06","11","02:00","2.3","","1.9","","97","","","","15","","9","","0.8","","101.28","","","","","","Fog"
"-94.07","58.74","CHURCHILL A","5060605","2022-06-11 03:00","2022","06","11","03:00","2.0","","1.7","","98","","","","14","","11","","0.4","","101.28","","","","","","Fog"
"-94.07","58.74","CHURCHILL A","5060605","2022-06-11 04:00","2022","06","11","04:00","1.9","","1.6","","98","","","","13","","8","","0.8","","101.29","","","","","","Fog"
"-94.07","58.74","CHURCHILL A","5060605","2022-06-11 05:00","2022","06","11","05:00","2.0","","1.7","","98","","","","13","","13","","0.4","","101.31","","","","","","Fog"
"-94.07","58.74","CHURCHILL A","5060605","2022-06-11 06:00","2022","06","11","06:00","2.8","","2.5","","98","","","","16","","10","","0.4","","101.33","","","","","","Fog"
"-94.07","58.74","CHURCHILL A","5060605","2022-06-11 07:00","2022","06","11","07:00","3.5","","3.2","","98","","","","18","","10","","0.2","","101.32","","","","","","Fog"
"-94.07","58.74","CHURCHILL A","5060605","2022-06-11 08:00","2022","06","11","08:00","6.3","","5.7","","96","","","","14","","9","","24.1","","101.31","","","","","","NA"
"-94.07","58.74","CHURCHILL A","5060605","2022-06-11 09:00","2022","06","11","09:00","9.6","","6.2","","79","","","","13","","4","","24.1","","101.28","","","","","","Clear"
"-94.07","58.74","CHURCHILL A","5060605","2022-06-11 10:00","2022","06","11","10:00","12.4","","6.8","","69","","","","13","","14","","24.1","","101.24","","","","","","NA"
"-94.07","58.74","CHURCHILL A","5060605","2022-06-11 11:00","2022","06","11","11:00","14.1","","6.5","","60","","","","11","","18","","24.1","","101.18","","","","","","NA"
"-94.07","58.74","CHURCHILL A","5060605","2022-06-11 12:00","2022","06","11","12:00","13.2","","7.3","","67","","","","6","","16","","24.1","","101.16","","","","","","Clear"
"-94.07","58.74","CHURCHILL A","5060605","2022-06-11 13:00","2022","06","11","13:00","15.3","","7.1","","58","","","","11","","23","","24.1","","101.11","","","","","","NA"
"-94.07","58.74","CHURCHILL A","5060605","2022-06-11 14:00","2022","06","11","14:00","15.0","","6.3","","56","","","","11","","25","","24.1","","101.09","","","","","","NA"
"-94.07","58.74","CHURCHILL A","5060605","2022-06-11 15:00","2022","06","11","15:00","15.0","","4.5","","49","","","","11","","22","","24.1","","101.07","","","","","","Mainly Clear"
"-94.07","58.74","CHURCHILL A","5060605","2022-06-11 16:00","2022","06","11","16:00","15.0","","4.5","","49","","","","12","","23","","24.1","","101.04","","","","","","NA"
"-94.07","58.74","CHURCHILL A","5060605","2022-06-11 17:00","2022","06","11","17:00","14.6","","5.2","","53","","","","13","","22","","24.1","","101.00","","","","","","NA"
"-94.07","58.74","CHURCHILL A","5060605","2022-06-11 18:00","2022","06","11","18:00","13.4","","3.2","","50","","","","13","","24","","24.1","","100.99","","","","","","Clear"
"-94.07","58.74","CHURCHILL A","5060605","2022-06-11 19:00","2022","06","11","19:00","11.7","","2.0","","51","","","","13","","23","","24.1","","100.98","","","","","","NA"
"-94.07","58.74","CHURCHILL A","5060605","2022-06-11 20:00","2022","06","11","20:00","10.1","","1.1","","53","","","","12","","21","","24.1","","100.96","","","","","","NA"
"-94.07","58.74","CHURCHILL A","5060605","2022-06-11 21:00","2022","06","11","21:00","7.8","","-0.1","","57","","","","12","","16","","24.1","","100.97","","","","","","Mainly Clear"
"-94.07","58.74","CHURCHILL A","5060605","2022-06-11 22:00","2022","06","11","22:00","5.7","","-0.4","","65","","","","13","","17","","24.1","","100.99","","","","","","NA"
"-94.07","58.74","CHURCHILL A","5060605","2022-06-11 23:00","2022","06","11","23:00","4.4","","-1.7","","65","","","","13","","17","","24.1","","100.99","","","","","","NA"
"-94.07","58.74","CHURCHILL A","5060605","2022-06-12 00:00","2022","06","12","00:00","3.4","","-2.2","","67","","","","13","","18","","24.1","","100.98","","","","","","Clear"
"-94.07","58.74","CHURCHILL A","5060605","2022-06-12 01:00","2022","06","12","01:00","3.0","","-1.6","","72","","","","13","","15","","24.1","","100.96","","","","","","NA"
"-94.07","58.74","CHURCHILL A","5060605","2022-06-12 02:00","2022","06","12","02:00","2.9","","-2.2","","69","","","","14","","19","","24.1","","100.94","","","","","","NA"
"-94.07","58.74","CHURCHILL A","5060605","2022-06-12 03:00","2022","06","12","03:00","2.3","","-1.7","","75","","","","14","","16","","24.1","","100.93","","","","","","Clear"
"-94.07","58.74","CHURCHILL A","5060605","2022-06-12 04:00","2022","06","12","04:00","2.4","","-1.0","","78","","","","13","","17","","24.1","","100.93","","","","","","NA"
"-94.07","58.74","CHURCHILL A","5060605","2022-06-12 05:00","2022","06","12","05:00","4.0","","0.0","","75","","","","13","","20","","24.1","","100.89","","","","","","NA"
"-94.07","58.74","CHURCHILL A","5060605","2022-06-12 06:00","2022","06","12","06:00","6.5","","0.8","","67","","","","15","","16","","24.1","","100.90","","","","","","Clear"
"-94.07","58.74","CHURCHILL A","5060605","2022-06-12 07:00","2022","06","12","07:00","9.1","","1.5","","59","","","","15","","15","","24.1","","100.90","","","","","","NA"
"-94.07","58.74","CHURCHILL A","5060605","2022-06-12 08:00","2022","06","12","08:00","11.1","","2.6","","56","","","","14","","15","","24.1","","100.88","","","","","","NA"
"-94.07","58.74","CHURCHILL A","5060605","2022-06-12 09:00","2022","06","12","09:00","13.6","","3.9","","52","","","","14","","20","","24.1","","100.84","","","","","","Clear"
"-94.07","58.74","CHURCHILL A","5060605","2022-06-12 10:00","2022","06","12","10:00","15.8","","5.4","","50","","","","14","","22","","24.1","","100.80","","","","","","NA"
"-94.07","58.74","CHURCHILL A","5060605","2022-06-12 11:00","2022","06","12","11:00","17.3","","6.0","","47","","","","13","","25","","24.1","","100.77","","","","","","NA"
"-94.07","58.74","CHURCHILL A","5060605","2022-06-12 12:00","2022","06","12","12:00","18.7","","4.4","","39","","","","14","","28","","24.1","","100.75","","","","","","Clear"
"-94.07","58.74","CHURCHILL A","5060605","2022-06-12 13:00","2022","06","12","13:00","19.2","","4.6","","38","","","","14","","27","","24.1","","100.73","","","","","","NA"
"-94.07","58.74","CHURCHILL A","5060605","2022-06-12 14:00","2022","06","12","14:00","19.0","","6.2","","43","","","","14","","30","","24.1","","100.72","","","","","","NA"
"-94.07","58.74","CHURCHILL A","5060605","2022-06-12 15:00","2022","06","12","15:00","19.0","","6.6","","44","","","","13","","28","","24.1","","100.69","","","","","","Mainly Clear"
"-94.07","58.74","CHURCHILL A","5060605","2022-06-12 16:00","2022","06","12","16:00","18.5","","6.9","","46","","","","14","","27","","24.1","","100.70","","","","","","NA"
"-94.07","58.74","CHURCHILL A","5060605","2022-06-12 17:00","2022","06","12","17:00","18.1","","7.0","","48","","","","15","","27","","24.1","","100.67","","","","","","NA"
"-94.07","58.74","CHURCHILL A","5060605","2022-06-12 18:00","2022","06","12","18:00","16.7","","7.7","","55","","","","14","","30","","24.1","","100.67","","","","","","Mainly Clear"
"-94.07","58.74","CHURCHILL A","5060605","2022-06-12 19:00","2022","06","12","19:00","15.1","","6.8","","58","","","","14","","35","","24.1","","100.65","","","","","","NA"
"-94.07","58.74","CHURCHILL A","5060605","2022-06-12 20:00","2022","06","12","20:00","13.2","","5.6","","60","","","","14","","32","","24.1","","100.68","","","","","","NA"
"-94.07","58.74","CHURCHILL A","5060605","2022-06-12 21:00","2022","06","12","21:00","11.0","","3.6","","60","","","","14","","27","","24.1","","100.69","","","","","","Mainly Clear"
"-94.07","58.74","CHURCHILL A","5060605","2022-06-12 22:00","2022","06","12","22:00","9.5","","3.6","","66","","","","13","","20","","24.1","","100.70","","","","","","NA"
"-94.07","58.74","CHURCHILL A","5060605","2022-06-12 23:00","2022","06","12","23:00","7.8","","3.5","","74","","","","14","","21","","24.1","","100.73","","","","","","NA"
"-94.07","58.74","CHURCHILL A","5060605","2022-06-13 00:00","2022","06","13","00:00","6.7","","3.0","","77","","","","15","","16","","24.1","","100.74","","","","","","Clear"
"-94.07","58.74","CHURCHILL A","5060605","2022-06-13 01:00","2022","06","13","01:00","5.7","","2.7","","81","","","","14","","17","","24.1","","100.76","","","","","","NA"
"-94.07","58.74","CHURCHILL A","5060605","2022-06-13 02:00","2022","06","13","02:00","5.3","","2.9","","84","","","","14","","14","","24.1","","100.77","","","","","","NA"
"-94.07","58.74","CHURCHILL A","5060605","2022-06-13 03:00","2022","06","13","03:00","5.3","","3.2","","86","","","","15","","11","","24.1","","100.78","","","","","","Clear"
"-94.07","58.74","CHURCHILL A","5060605","2022-06-13 04:00","2022","06","13","04:00","5.6","","3.5","","86","","","","14","","15","","24.1","","100.79","","","","","","NA"
"-94.07","58.74","CHURCHILL A","5060605","2022-06-13 05:00","2022","06","13","05:00","6.8","","4.0","","82","","","","14","","12","","24.1","","100.82","","","","","","NA"
"-94.07","58.74","CHURCHILL A","5060605","2022-06-13 06:00","2022","06","13","06:00","9.2","","5.0","","75","","","","17","","12","","24.1","","100.83","","","","","","Clear"
"-94.07","58.74","CHURCHILL A","5060605","2022-06-13 07:00","2022","06","13","07:00","12.0","","6.0","","67","","","","17","","11","","24.1","","100.85","","","","","","NA"
"-94.07","58.74","CHURCHILL A","5060605","2022-06-13 08:00","2022","06","13","08:00","15.0","","6.9","","58","","","","16","","10","","24.1","","100.85","","","","","","NA"
"-94.07","58.74","CHURCHILL A","5060605","2022-06-13 09:00","2022","06","13","09:00","18.2","","8.7","","54","","","","14","","12","","24.1","","100.83","","","","","","Clear"
"-94.07","58.74","CHURCHILL A","5060605","2022-06-13 10:00","2022","06","13","10:00","20.4","","8.0","","44","","","","12","","12","","24.1","","100.81","","","","","","NA"
"-94.07","58.74","CHURCHILL A","5060605","2022-06-13 11:00","2022","06","13","11:00","22.8","","7.1","","36","","","","15","","18","","24.1","","100.79","","","","","","NA"
"-94.07","58.74","CHURCHILL A","5060605","2022-06-13 12:00","2022","06","13","12:00","22.1","","7.9","","40","","","","14","","23","","24.1","","100.80","","","","","","Clear"
"-94.07","58.74","CHURCHILL A","5060605","2022-06-13 13:00","2022","06","13","13:00","23.0","","8.6","","39","","","","13","","20","","24.1","","100.80","","","","","","NA"
"-94.07","58.74","CHURCHILL A","5060605","2022-06-13 14:00","2022","06","13","14:00","22.5","","7.3","","37","","","","14","","26","","24.1","","100.79","","","","","","NA"
"-94.07","58.74","CHURCHILL A","5060605","2022-06-13 15:00","2022","06","13","15:00","22.0","","8.2","","41","","","","12","","28","","24.1","","100.81","","","","","","Clear"
"-94.07","58.74","CHURCHILL A","5060605","2022-06-13 16:00","2022","06","13","16:00","21.0","","8.3","","44","","","","11","","28","","24.1","","100.81","","","","","","NA"
"-94.07","58.74","CHURCHILL A","5060605","2022-06-13 17:00","2022","06","13","17:00","21.0","","8.7","","45","","","","12","","26","","24.1","","100.81","","","","","","NA"
"-94.07","58.74","CHURCHILL A","5060605","2022-06-13 18:00","2022","06","13","18:00","20.4","","7.8","","44","","","","13","","23","","24.1","","100.80","","","","","","Clear"
"-94.07","58.74","CHURCHILL A","5060605","2022-06-13 19:00","2022","06","13","19:00","18.9","","8.2","","49","","","","12","","21","","24.1","","100.77","","","","","","NA"
"-94.07","58.74","CHURCHILL A","5060605","2022-06-13 20:00","2022","06","13","20:00","16.9","","8.4","","57","","","","13","","22","","24.1","","100.81","","","","","","NA"
"-94.07","58.74","CHURCHILL A","5060605","2022-06-13 21:00","2022","06","13","21:00","14.1","","8.2","","67","","","","12","","14","","24.1","","100.83","","","","","","Clear"
"-94.07","58.74","CHURCHILL A","5060605","2022-06-13 22:00","2022","06","13","22:00","11.0","","7.5","","79","","","","11","","14","","24.1","","100.83","","","","","","NA"
"-94.07","58.74","CHURCHILL A","5060605","2022-06-13 23:00","2022","06","13","23:00","9.0","","6.5","","84","","","","12","","15","","24.1","","100.86","","","","","","NA"
"-94.07","58.74","CHURCHILL A","5060605","2022-06-14 00:00","2022","06","14","00:00","7.2","","5.4","","88","","","","11","","10","","24.1","","100.87","","","","","","Clear"
"-94.07","58.74","CHURCHILL A","5060605","2022-06-14 01:00","2022","06","14","01:00","5.7","","4.8","","94","","","","9","","16","","24.1","","100.83","","","","","","NA"
"-94.07","58.74","CHURCHILL A","5060605","2022-06-14 02:00","2022","06","14","02:00","5.1","","4.2","","94","","","","11","","14","","24.1","","100.82","","","","","","NA"
"-94.07","58.74","CHURCHILL A","5060605","2022-06-14 03:00","2022","06","14","03:00","4.8","","3.8","","93","","","","9","","9","","24.1","","100.83","","","","","","Clear"
"-94.07","58.74","CHURCHILL A","5060605","2022-06-14 04:00","2022","06","14","04:00","4.1","","3.2","","94","","","","7","","10","","24.1","","100.86","","","","","","NA"
"-94.07","58.74","CHURCHILL A","5060605","2022-06-14 05:00","2022","06","14","05:00","5.8","","4.3","","90","","","","10","","11","","24.1","","100.82","","","","","","NA"
"-94.07","58.74","CHURCHILL A","5060605","2022-06-14 06:00","2022","06","14","06:00","8.5","","5.4","","81","","","","14","","7","","24.1","","100.88","","","","","","Mainly Clear"
"-94.07","58.74","CHURCHILL A","5060605","2022-06-14 07:00","2022","06","14","07:00","12.1","","6.7","","69","","","","18","","5","","24.1","","100.85","","","","","","NA"
"-94.07","58.74","CHURCHILL A","5060605","2022-06-14 08:00","2022","06","14","08:00","15.0","","8.3","","64","","","","5","","4","","19.3","","100.83","","","","","","NA"
"-94.07","58.74","CHURCHILL A","5060605","2022-06-14 09:00","2022","06","14","09:00","14.1","","7.9","","66","","","","4","","10","","24.1","","100.83","","","","","","Mainly Clear"
"-94.07","58.74","CHURCHILL A","5060605","2022-06-14 10:00","2022","06","14","10:00","14.2","","8.0","","66","","","","5","","14","","24.1","","100.80","","","","","","NA"
"-94.07","58.74","CHURCHILL A","5060605","2022-06-14 11:00","2022","06","14","11:00","13.4","","7.4","","67","","","","5","","18","","24.1","","100.76","","","","","","NA"
"-94.07","58.74","CHURCHILL A","5060605","2022-06-14 12:00","2022","06","14","12:00","14.1","","8.1","","67","","","","6","","22","","24.1","","100.75","","","","","","Mainly Clear"
"-94.07","58.74","CHURCHILL A","5060605","2022-06-14 13:00","2022","06","14","13:00","17.3","","9.8","","61","","","","6","","16","","24.1","","100.70","","","","","","NA"
"-94.07","58.74","CHURCHILL A","5060605","2022-06-14 14:00","2022","06","14","14:00","22.1","","12.3","","53","","","","8","","16","","24.1","","100.65","","25","","","","NA"
"-94.07","58.74","CHURCHILL A","5060605","2022-06-14 15:00","2022","06","14","15:00","24.4","","12.1","","46","","","","9","","22","","24.1","","100.59","","27","","","","Mainly Clear"
"-94.07","58.74","CHURCHILL A","5060605","2022-06-14 16:00","2022","06","14","16:00","24.9","","10.8","","41","","","","12","","22","","24.1","","100.56","","27","","","","NA"
"-94.07","58.74","CHURCHILL A","5060605","2022-06-14 17:00","2022","06","14","17:00","24.3","","9.2","","38","","","","11","","23","","24.1","","100.55","","25","","","","NA"
"-94.07","58.74","CHURCHILL A","5060605","2022-06-14 18:00","2022","06","14","18:00","22.3","","10.0","","45","","","","10","","23","","24.1","","100.55","","","","","","Mainly Clear"
"-94.07","58.74","CHURCHILL A","5060605","2022-06-14 19:00","2022","06","14","19:00","17.7","","10.8","","64","","","","6","","12","","24.1","","100.49","","","","","","NA"
"-94.07","58.74","CHURCHILL A","5060605","2022-06-14 20:00","2022","06","14","20:00","13.8","","8.9","","72","","","","8","","14","","24.1","","100.49","","","","","","NA"
"-94.07","58.74","CHURCHILL A","5060605","2022-06-14 21:00","2022","06","14","21:00","11.5","","8.2","","80","","","","7","","16","","24.1","","100.46","","","","","","Mainly Clear"
"-94.07","58.74","CHURCHILL A","5060605","2022-06-14 22:00","2022","06","14","22:00","6.5","","4.8","","89","","","","7","","18","","24.1","","100.42","","","","","","NA"
"-94.07","58.74","CHURCHILL A","5060605","2022-06-14 23:00","2022","06","14","23:00","4.7","","2.9","","88","","","","7","","20","","24.1","","100.36","","","","","","NA"
"-94.07","58.74","CHURCHILL A","5060605","2022-06-15 00:00","2022","06","15","00:00","4.2","","2.4","","88","","","","7","","21","","24.1","","100.26","","","","","","Clear"
"-94.07","58.74","CHURCHILL A","5060605","2022-06-15 01:00","2022","06","15","01:00","4.1","","2.5","","89","","","","8","","26","","24.1","","100.20","","","","","","NA"
"-94.07","58.74","CHURCHILL A","5060605","2022-06-15 02:00","2022","06","15","02:00","5.6","","3.8","","88","","","","9","","22","","24.1","","100.15","","","","","","NA"
"-94.07","58.74","CHURCHILL A","5060605","2022-06-15 03:00","2022","06","15","03:00","4.8","","3.5","","91","","","","8","","17","","24.1","","100.12","","","","","","Mainly Clear"
"-94.07","58.74","CHURCHILL A","5060605","2022-06-15 04:00","2022","06","15","04:00","5.9","","3.9","","87","","","","9","","22","","24.1","","100.07","","","","","","NA"
"-94.07","58.74","CHURCHILL A","5060605","2022-06-15 05:00","2022","06","15","05:00","6.6","","4.4","","86","","","","9","","18","","24.1","","100.04","","","","","","NA"
"-94.07","58.74","CHURCHILL A","5060605","2022-06-15 06:00","2022","06","15","06:00","5.6","","3.5","","87","","","","7","","17","","24.1","","100.02","","","","","","Mostly Cloudy"
"-94.07","58.74","CHURCHILL A","5060605","2022-06-15 07:00","2022","06","15","07:00","4.0","","2.0","","87","","","","6","","18","","24.1","","99.97","","","","","","NA"
"-94.07","58.74","CHURCHILL A","5060605","2022-06-15 08:00","2022","06","15","08:00","3.4","","2.4","","93","","","","6","","21","","19.3","","99.95","","","","","","Rain"
"-94.07","58.74","CHURCHILL A","5060605","2022-06-15 09:00","2022","06","15","09:00","4.9","","4.3","","96","","","","6","","22","","24.1","","99.89","","","","","","Rain"
"-94.07","58.74","CHURCHILL A","5060605","2022-06-15 10:00","2022","06","15","10:00","5.8","","5.4","","97","","","","6","","29","","8.1","","99.85","","","","","","Rain,Fog"
"-94.07","58.74","CHURCHILL A","5060605","2022-06-15 11:00","2022","06","15","11:00","6.7","","6.4","","98","","","","8","","37","","4.0","","99.79","","","","","","Rain,Fog"
"-94.07","58.74","CHURCHILL A","5060605","2022-06-15 12:00","2022","06","15","12:00","9.1","","8.8","","98","","","","7","","37","","12.9","","99.71","","","","","","Rain Showers"
"-94.07","58.74","CHURCHILL A","5060605","2022-06-15 13:00","2022","06","15","13:00","9.0","","8.6","","97","","","","8","","37","","4.8","","99.68","","","","","","Rain Showers,Fog"
"-94.07","58.74","CHURCHILL A","5060605","2022-06-15 14:00","2022","06","15","14:00","9.6","","9.2","","97","","","","9","","39","","4.8","","99.67","","","","","","Rain Showers,Fog"
"-94.07","58.74","CHURCHILL A","5060605","2022-06-15 15:00","2022","06","15","15:00","5.9","","5.5","","97","","","","7","","29","","2.4","","99.69","","","","","","Rain Showers,Fog"
"-94.07","58.74","CHURCHILL A","5060605","2022-06-15 16:00","2022","06","15","16:00","4.9","","4.6","","98","","","","8","","30","","3.2","","99.68","","","","","","Rain Showers,Fog"
"-94.07","58.74","CHURCHILL A","5060605","2022-06-15 17:00","2022","06","15","17:00","5.2","","4.9","","98","","","","8","","32","","6.4","","99.70","","","","","","Rain Showers,Fog"
"-94.07","58.74","CHURCHILL A","5060605","2022-06-15 18:00","2022","06","15","18:00","4.9","","4.6","","98","","","","8","","30","","8.1","","99.73","","","","","","Rain,Fog"
"-94.07","58.74","CHURCHILL A","5060605","2022-06-15 19:00","2022","06","15","19:00","3.7","","3.4","","98","","","","7","","27","","4.8","","99.78","","","","","","Rain"
"-94.07","58.74","CHURCHILL A","5060605","2022-06-15 20:00","2022","06","15","20:00","2.8","","2.5","","98","","","","7","","21","","0.8","","99.81","","","","","","Rain,Fog"
"-94.07","58.74","CHURCHILL A","5060605","2022-06-15 21:00","2022","06","15","21:00","2.3","","2.0","","98","","","","5","","21","","1.2","","99.83","","","","","","Rain,Fog"
"-94.07","58.74","CHURCHILL A","5060605","2022-06-15 22:00","2022","06","15","22:00","2.0","","1.7","","98","","","","5","","23","","4.8","","99.87","","","","","","Rain,Fog"
"-94.07","58.74","CHURCHILL A","5060605","2022-06-15 23:00","2022","06","15","23:00","2.5","","2.2","","98","","","","6","","19","","4.8","","99.98","","","","","","Rain,Fog"
"-94.07","58.74","CHURCHILL A","5060605","2022-06-16 00:00","2022","06","16","00:00","3.1","","2.8","","98","","","","36","","17","","4.8","","99.96","","","","","","Rain,Fog"
"-94.07","58.74","CHURCHILL A","5060605","2022-06-16 01:00","2022","06","16","01:00","3.4","","3.1","","98","","","","1","","22","","4.8","","99.98","","","","","","Rain,Fog"
"-94.07","58.74","CHURCHILL A","5060605","2022-06-16 02:00","2022","06","16","02:00","2.4","","2.1","","98","","","","2","","31","","4.8","","99.93","","","","","","Rain,Fog"
"-94.07","58.74","CHURCHILL A","5060605","2022-06-16 03:00","2022","06","16","03:00","2.5","","2.2","","98","","","","2","","29","","4.8","","99.95","","","","","","Rain,Fog"
"-94.07","58.74","CHURCHILL A","5060605","2022-06-16 04:00","2022","06","16","04:00","2.6","","2.3","","98","","","","1","","26","","8.1","","99.97","","","","","","Rain,Fog"
"-94.07","58.74","CHURCHILL A","5060605","2022-06-16 05:00","2022","06","16","05:00","2.0","","1.7","","98","","","","1","","34","","8.1","","100.02","","","","","","Rain,Fog"
"-94.07","58.74","CHURCHILL A","5060605","2022-06-16 06:00","2022","06","16","06:00","1.7","","1.4","","98","","","","1","","31","","12.9","","100.09","","","","","","Rain"
"-94.07","58.74","CHURCHILL A","5060605","2022-06-16 07:00","2022","06","16","07:00","1.6","","1.2","","97","","","","2","","36","","3.2","","100.17","","","","","","Rain,Fog"
"-94.07","58.74","CHURCHILL A","5060605","2022-06-16 08:00","2022","06","16","08:00","1.7","","1.3","","97","","","","2","","43","","4.8","","100.23","","","","","","Rain,Fog"
"-94.07","58.74","CHURCHILL A","5060605","2022-06-16 09:00","2022","06","16","09:00","1.8","","1.4","","97","","","","2","","47","","6.4","","100.32","","","","","","Rain,Fog"
"-94.07","58.74","CHURCHILL A","5060605","2022-06-16 10:00","2022","06","16","10:00","1.6","","1.0","","96","","","","2","","47","","9.7","","100.47","","","","","","Rain,Fog"
"-94.07","58.74","CHURCHILL A","5060605","2022-06-16 11:00","2022","06","16","11:00","1.7","","1.0","","95","","","","2","","48","","16.1","","100.59","","","","","","Rain"
"-94.07","58.74","CHURCHILL A","5060605","2022-06-16 12:00","2022","06","16","12:00","1.4","","0.7","","95","","","","2","","44","","16.1","","100.72","","","","","","Rain"
"-94.07","58.74","CHURCHILL A","5060605","2022-06-16 13:00","2022","06","16","13:00","2.7","","1.2","","90","","","","2","","54","","24.1","","100.84","","","","","","NA"
"-94.07","58.74","CHURCHILL A","5060605","2022-06-16 14:00","2022","06","16","14:00","3.3","","0.9","","85","","","","2","","43","","24.1","","101.02","","","","","","NA"
"-94.07","58.74","CHURCHILL A","5060605","2022-06-16 15:00","2022","06","16","15:00","2.5","","0.3","","85","","","","1","","39","","24.1","","101.18","","","","","","Mostly Cloudy"
"-94.07","58.74","CHURCHILL A","5060605","2022-06-16 16:00","2022","06","16","16:00","2.6","","0.3","","85","","","","1","","36","","24.1","","101.29","","","","","","NA"
"-94.07","58.74","CHURCHILL A","5060605","2022-06-16 17:00","2022","06","16","17:00","2.6","","0.0","","83","","","","36","","30","","24.1","","101.40","","","","","","NA"
"-94.07","58.74","CHURCHILL A","5060605","2022-06-16 18:00","2022","06","16","18:00","2.3","","-0.6","","81","","","","36","","30","","24.1","","101.46","","","","","","Mainly Clear"
"-94.07","58.74","CHURCHILL A","5060605","2022-06-16 19:00","2022","06","16","19:00","2.1","","-1.1","","79","","","","36","","29","","24.1","","101.54","","","","","","NA"
"-94.07","58.74","CHURCHILL A","5060605","2022-06-16 20:00","2022","06","16","20:00","1.7","","-1.9","","77","","","","36","","24","","24.1","","101.57","","","","","","NA"
"-94.07","58.74","CHURCHILL A","5060605","2022-06-16 21:00","2022","06","16","21:00","1.3","","-2.5","","76","","","","36","","19","","24.1","","101.62","","","","","","Mainly Clear"
"-94.07","58.74","CHURCHILL A","5060605","2022-06-16 22:00","2022","06","16","22:00","1.1","","-2.0","","80","","","","34","","16","","24.1","","101.66","","","","","","NA"
"-94.07","58.74","CHURCHILL A","5060605","2022-06-16 23:00","2022","06","16","23:00","1.3","","-1.9","","79","","","","34","","17","","24.1","","101.69","","","","","","NA"
"-94.07","58.74","CHURCHILL A","5060605","2022-06-17 00:00","2022","06","17","00:00","2.0","","-2.7","","71","","","","33","","17","","24.1","","101.73","","","","","","Clear"
"-94.07","58.74","CHURCHILL A","5060605","2022-06-17 01:00","2022","06","17","01:00","2.1","","-1.4","","78","","","","30","","12","","24.1","","101.77","","","","","","NA"
"-94.07","58.74","CHURCHILL A","5060605","2022-06-17 02:00","2022","06","17","02:00","1.7","","-1.4","","80","","","","29","","12","","24.1","","101.80","","","","","","NA"
"-94.07","58.74","CHURCHILL A","5060605","2022-06-17 03:00","2022","06","17","03:00","2.2","","-0.4","","83","","","","29","","10","","24.1","","101.86","","","","","","Clear"
"-94.07","58.74","CHURCHILL A","5060605","2022-06-17 04:00","2022","06","17","04:00","2.9","","0.6","","85","","","","29","","12","","24.1","","101.88","","","","","","NA"
"-94.07","58.74","CHURCHILL A","5060605","2022-06-17 05:00","2022","06","17","05:00","5.0","","1.7","","79","","","","32","","17","","24.1","","101.91","","","","","","NA"
"-94.07","58.74","CHURCHILL A","5060605","2022-06-17 06:00","2022","06","17","06:00","5.5","","2.2","","79","","","","32","","18","","24.1","","101.96","","","","","","Mainly Clear"
"-94.07","58.74","CHURCHILL A","5060605","2022-06-17 07:00","2022","06","17","07:00","6.3","","2.1","","74","","","","33","","19","","24.1","","102.01","","","","","","NA"
"-94.07","58.74","CHURCHILL A","5060605","2022-06-17 08:00","2022","06","17","08:00","7.7","","2.4","","69","","","","33","","20","","24.1","","102.06","","","","","","NA"
"-94.07","58.74","CHURCHILL A","5060605","2022-06-17 09:00","2022","06","17","09:00","9.0","","1.9","","61","","","","34","","23","","24.1","","102.09","","","","","","Clear"
"-94.07","58.74","CHURCHILL A","5060605","2022-06-17 10:00","2022","06","17","10:00","9.7","","1.1","","55","","","","34","","18","","24.1","","102.11","","","","","","NA"
"-94.07","58.74","CHURCHILL A","5060605","2022-06-17 11:00","2022","06","17","11:00","11.3","","1.4","","50","","","","34","","15","","24.1","","102.12","","","","","","NA"
"-94.07","58.74","CHURCHILL A","5060605","2022-06-17 12:00","2022","06","17","12:00","12.3","","1.4","","47","","","","2","","10","","24.1","","102.09","","","","","","Clear"
"-94.07","58.74","CHURCHILL A","5060605","2022-06-17 13:00","2022","06","17","13:00","12.8","","0.4","","42","","","","36","","10","","24.1","","102.09","","","","","","NA"
"-94.07","58.74","CHURCHILL A","5060605","2022-06-17 14:00","2022","06","17","14:00","13.2","","0.8","","43","","","","2","","9","","24.1","","102.09","","","","","","NA"
"-94.07","58.74","CHURCHILL A","5060605","2022-06-17 15:00","2022","06","17","15:00","14.6","","1.1","","40","","","","3","","4","","24.1","","102.04","","","","","","Clear"
"-94.07","58.74","CHURCHILL A","5060605","2022-06-17 16:00","2022","06","17","16:00","15.8","","2.9","","42","","","","4","","10","","24.1","","102.00","","","","","","NA"
"-94.07","58.74","CHURCHILL A","5060605","2022-06-17 17:00","2022","06","17","17:00","15.2","","2.8","","43","","","","5","","9","","24.1","","101.96","","","","","","NA"
"-94.07","58.74","CHURCHILL A","5060605","2022-06-17 18:00","2022","06","17","18:00","15.7","","2.5","","41","","","","9","","13","","24.1","","101.93","","","","","","Clear"
"-94.07","58.74","CHURCHILL A","5060605","2022-06-17 19:00","2022","06","17","19:00","15.1","","3.3","","45","","","","8","","14","","24.1","","101.94","","","","","","NA"
"-94.07","58.74","CHURCHILL A","5060605","2022-06-17 20:00","2022","06","17","20:00","14.4","","4.0","","49","","","","11","","13","","24.1","","101.91","","","","","","NA"
"-94.07","58.74","CHURCHILL A","5060605","2022-06-17 21:00","2022","06","17","21:00","12.5","","5.7","","63","","","","14","","15","","24.1","","101.91","","","","","","Mainly Clear"
"-94.07","58.74","CHURCHILL A","5060605","2022-06-17 22:00","2022","06","17","22:00","11.0","","4.7","","65","","","","16","","18","","24.1","","101.93","","","","","","NA"
"-94.07","58.74","CHURCHILL A","5060605","2022-06-17 23:00","2022","06","17","23:00","10.2","","3.5","","63","","","","16","","18","","24.1","","101.96","","","","","","NA"
"-94.07","58.74","CHURCHILL A","5060605","2022-06-18 00:00","2022","06","18","00:00","9.5","","3.1","","64","","","","16","","19","","24.1","","101.95","","","","","","Mainly Clear"
"-94.07","58.74","CHURCHILL A","5060605","2022-06-18 01:00","2022","06","18","01:00","8.4","","3.7","","72","","","","16","","16","","24.1","","101.94","","","","","","NA"
"-94.07","58.74","CHURCHILL A","5060605","2022-06-18 02:00","2022","06","18","02:00","7.4","","4.2","","80","","","","17","","16","","24.1","","101.91","","","","","","NA"
"-94.07","58.74","CHURCHILL A","5060605","2022-06-18 03:00","2022","06","18","03:00","6.6","","4.1","","84","","","","18","","14","","24.1","","101.92","","","","","","Mainly Clear"
"-94.07","58.74","CHURCHILL A","5060605","2022-06-18 04:00","2022","06","18","04:00","6.6","","4.3","","85","","","","19","","12","","24.1","","101.93","","","","","","NA"
"-94.07","58.74","CHURCHILL A","5060605","2022-06-18 05:00","2022","06","18","05:00","7.3","","4.8","","84","","","","19","","11","","24.1","","101.88","","","","","","NA"
"-94.07","58.74","CHURCHILL A","5060605","2022-06-18 06:00","2022","06","18","06:00","10.2","","5.2","","71","","","","21","","10","","24.1","","101.87","","","","","","Mostly Cloudy"
"-94.07","58.74","CHURCHILL A","5060605","2022-06-18 07:00","2022","06","18","07:00","12.0","","5.5","","64","","","","20","","7","","24.1","","101.85","","","","","","NA"
"-94.07","58.74","CHURCHILL A","5060605","2022-06-18 08:00","2022","06","18","08:00","14.3","","5.5","","55","","","","18","","9","","24.1","","101.82","","","","","","NA"
"-94.07","58.74","CHURCHILL A","5060605","2022-06-18 09:00","2022","06","18","09:00","17.2","","3.9","","41","","","","18","","11","","24.1","","101.78","","","","","","Mostly Cloudy"
"-94.07","58.74","CHURCHILL A","5060605","2022-06-18 10:00","2022","06","18","10:00","18.0","","3.5","","38","","","","19","","13","","40.2","","101.69","","","","","","NA"
"-94.07","58.74","CHURCHILL A","5060605","2022-06-18 11:00","2022","06","18","11:00","18.9","","2.2","","33","","","","18","","17","","24.1","","101.63","","","","","","NA"
"-94.07","58.74","CHURCHILL A","5060605","2022-06-18 12:00","2022","06","18","12:00","18.1","","3.1","","37","","","","17","","17","","24.1","","101.54","","","","","","Mostly Cloudy"
"-94.07","58.74","CHURCHILL A","5060605","2022-06-18 13:00","2022","06","18","13:00","17.7","","3.6","","39","","","","17","","18","","24.1","","101.54","","","","","","NA"
"-94.07","58.74","CHURCHILL A","5060605","2022-06-18 14:00","2022","06","18","14:00","18.1","","4.2","","39","","","","18","","16","","24.1","","101.55","","","","","","NA"
"-94.07","58.74","CHURCHILL A","5060605","2022-06-18 15:00","2022","06","18","15:00","18.4","","3.7","","37","","","","16","","18","","24.1","","101.48","","","","","","Cloudy"
"-94.07","58.74","CHURCHILL A","5060605","2022-06-18 16:00","2022","06","18","16:00","17.7","","7.9","","52","","","","12","","22","","24.1","","101.41","","","","","","NA"
"-94.07","58.74","CHURCHILL A","5060605","2022-06-18 17:00","2022","06","18","17:00","16.8","","6.7","","51","","","","13","","22","","24.1","","101.38","","","","","","NA"
"-94.07","58.74","CHURCHILL A","5060605","2022-06-18 18:00","2022","06","18","18:00","15.5","","6.3","","54","","","","14","","26","","24.1","","101.33","","","","","","Cloudy"
"-94.07","58.74","CHURCHILL A","5060605","2022-06-18 19:00","2022","06","18","19:00","14.5","","4.8","","52","","","","15","","26","","24.1","","101.37","","","","","","NA"
"-94.07","58.74","CHURCHILL A","5060605","2022-06-18 20:00","2022","06","18","20:00","13.7","","5.2","","56","","","","14","","18","","24.1","","101.31","","","","","","NA"
"-94.07","58.74","CHURCHILL A","5060605","2022-06-18 21:00","2022","06","18","21:00","12.4","","4.9","","60","","","","12","","19","","24.1","","101.24","","","","","","Mostly Cloudy"
"-94.07","58.74","CHURCHILL A","5060605","2022-06-18 22:00","2022","06","18","22:00","11.4","","5.1","","65","","","","12","","18","","24.1","","101.23","","","","","","NA"
"-94.07","58.74","CHURCHILL A","5060605","2022-06-18 23:00","2022","06","18","23:00","9.8","","4.7","","70","","","","12","","22","","24.1","","101.08","","","","","","NA"
"-94.07","58.74","CHURCHILL A","5060605","2022-06-19 00:00","2022","06","19","00:00","8.9","","4.2","","72","","","","11","","20","","24.1","","100.97","","","","","","Mostly Cloudy"
"-94.07","58.74","CHURCHILL A","5060605","2022-06-19 01:00","2022","06","19","01:00","8.4","","4.1","","74","","","","11","","24","","24.1","","100.87","","","","","","NA"
"-94.07","58.74","CHURCHILL A","5060605","2022-06-19 02:00","2022","06","19","02:00","8.0","","4.0","","76","","","","13","","19","","24.1","","100.94","","","","","","NA"
"-94.07","58.74","CHURCHILL A","5060605","2022-06-19 03:00","2022","06","19","03:00","7.6","","4.4","","80","","","","12","","19","","19.3","","100.87","","","","","","Rain"
"-94.07","58.74","CHURCHILL A","5060605","2022-06-19 04:00","2022","06","19","04:00","6.8","","4.7","","86","","","","10","","22","","24.1","","100.80","","","","","","NA"
"-94.07","58.74","CHURCHILL A","5060605","2022-06-19 05:00","2022","06","19","05:00","7.2","","5.0","","86","","","","12","","15","","24.1","","100.75","","","","","","NA"
"-94.07","58.74","CHURCHILL A","5060605","2022-06-19 06:00","2022","06","19","06:00","7.3","","5.0","","85","","","","11","","19","","24.1","","100.66","","","","","","Cloudy"
"-94.07","58.74","CHURCHILL A","5060605","2022-06-19 07:00","2022","06","19","07:00","7.3","","4.6","","83","","","","10","","23","","24.1","","100.55","","","","","","NA"
"-94.07","58.74","CHURCHILL A","5060605","2022-06-19 08:00","2022","06","19","08:00","7.4","","4.5","","82","","","","11","","21","","24.1","","100.52","","","","","","NA"
"-94.07","58.74","CHURCHILL A","5060605","2022-06-19 09:00","2022","06","19","09:00","7.0","","5.3","","89","","","","9","","14","","16.1","","100.51","","","","","","Rain Showers"
"-94.07","58.74","CHURCHILL A","5060605","2022-06-19 10:00","2022","06","19","10:00","6.5","","5.6","","94","","","","9","","23","","12.9","","100.39","","","","","","Rain Showers"
"-94.07","58.74","CHURCHILL A","5060605","2022-06-19 11:00","2022","06","19","11:00","5.9","","5.0","","94","","","","5","","23","","19.3","","100.31","","","","","","Rain Showers"
"-94.07","58.74","CHURCHILL A","5060605","2022-06-19 12:00","2022","06","19","12:00","4.6","","4.2","","97","","","","9","","23","","19.3","","100.37","","","","","","Rain Showers"
"-94.07","58.74","CHURCHILL A","5060605","2022-06-19 13:00","2022","06","19","13:00","6.2","","5.8","","97","","","","10","","19","","19.3","","100.35","","","","","","Rain Showers"
"-94.07","58.74","CHURCHILL A","5060605","2022-06-19 14:00","2022","06","19","14:00","8.4","","7.3","","93","","","","12","","27","","24.1","","100.29","","","","","","NA"
"-94.07","58.74","CHURCHILL A","5060605","2022-06-19 15:00","2022","06","19","15:00","8.5","","6.8","","89","","","","13","","25","","24.1","","100.24","","","","","","Cloudy"
"-94.07","58.74","CHURCHILL A","5060605","2022-06-19 16:00","2022","06","19","16:00","9.2","","7.1","","86","","","","15","","3","","24.1","","100.30","","","","","","NA"
"-94.07","58.74","CHURCHILL A","5060605","2022-06-19 17:00","2022","06","19","17:00","9.3","","6.9","","85","","","","11","","10","","24.1","","100.27","","","","","","NA"
"-94.07","58.74","CHURCHILL A","5060605","2022-06-19 18:00","2022","06","19","18:00","5.6","","4.1","","90","","","","6","","9","","24.1","","100.34","","","","","","Cloudy"
"-94.07","58.74","CHURCHILL A","5060605","2022-06-19 19:00","2022","06","19","19:00","5.2","","3.8","","90","","","","5","","11","","24.1","","100.36","","","","","","NA"
"-94.07","58.74","CHURCHILL A","5060605","2022-06-19 20:00","2022","06","19","20:00","5.2","","3.7","","90","","","","8","","13","","24.1","","100.29","","","","","","NA"
"-94.07","58.74","CHURCHILL A","5060605","2022-06-19 21:00","2022","06","19","21:00","4.8","","3.8","","93","","","","8","","9","","24.1","","100.34","","","","","","Mostly Cloudy"
"-94.07","58.74","CHURCHILL A","5060605","2022-06-19 22:00","2022","06","19","22:00","3.0","","2.1","","94","","","","6","","8","","24.1","","100.38","","","","","","NA"
"-94.07","58.74","CHURCHILL A","5060605","2022-06-19 23:00","2022","06","19","23:00","3.1","","2.4","","95","","","","36","","1","","24.1","","100.39","","","","","","NA"
"-94.07","58.74","CHURCHILL A","5060605","2022-06-20 00:00","2022","06","20","00:00","2.3","","1.4","","94","","","","35","","11","","24.1","","100.34","","","","","","Mostly Cloudy"
"-94.07","58.74","CHURCHILL A","5060605","2022-06-20 01:00","2022","06","20","01:00","1.7","","1.1","","96","","","","35","","12","","24.1","","100.33","","","","","","NA"
"-94.07","58.74","CHURCHILL A","5060605","2022-06-20 02:00","2022","06","20","02:00","1.4","","0.8","","96","","","","34","","9","","24.1","","100.32","","","","","","NA"
"-94.07","58.74","CHURCHILL A","5060605","2022-06-20 03:00","2022","06","20","03:00","1.6","","1.0","","96","","","","33","","11","","24.1","","100.37","","","","","","Mostly Cloudy"
"-94.07","58.74","CHURCHILL A","5060605","2022-06-20 04:00","2022","06","20","04:00","1.6","","0.9","","95","","","","30","","9","","24.1","","100.37","","","","","","NA"
"-94.07","58.74","CHURCHILL A","5060605","2022-06-20 05:00","2022","06","20","05:00","2.3","","1.1","","92","","","","31","","18","","24.1","","100.40","","","","","","NA"
"-94.07","58.74","CHURCHILL A","5060605","2022-06-20 06:00","2022","06","20","06:00","3.2","","1.9","","91","","","","32","","25","","24.1","","100.41","","","","","","Mostly Cloudy"
"-94.07","58.74","CHURCHILL A","5060605","2022-06-20 07:00","2022","06","20","07:00","4.1","","2.6","","90","","","","33","","21","","24.1","","100.42","","","","","","NA"
"-94.07","58.74","CHURCHILL A","5060605","2022-06-20 08:00","2022","06","20","08:00","4.8","","2.6","","86","","","","35","","25","","24.1","","100.39","","","","","","NA"
"-94.07","58.74","CHURCHILL A","5060605","2022-06-20 09:00","2022","06","20","09:00","4.6","","2.6","","87","","","","34","","20","","24.1","","100.49","","","","","","Mostly Cloudy"
"-94.07","58.74","CHURCHILL A","5060605","2022-06-20 10:00","2022","06","20","10:00","5.0","","2.8","","86","","","","35","","18","","24.1","","100.52","","","","","","NA"
"-94.07","58.74","CHURCHILL A","5060605","2022-06-20 11:00","2022","06","20","11:00","6.1","","3.3","","82","","","","35","","15","","24.1","","100.53","","","","","","NA"
"-94.07","58.74","CHURCHILL A","5060605","2022-06-20 12:00","2022","06","20","12:00","6.6","","3.7","","82","","","","1","","18","","24.1","","100.52","","","","","","Mostly Cloudy"
"-94.07","58.74","CHURCHILL A","5060605","2022-06-20 13:00","2022","06","20","13:00","7.8","","4.3","","79","","","","1","","15","","24.1","","100.58","","","","","","NA"
"-94.07","58.74","CHURCHILL A","5060605","2022-06-20 14:00","2022","06","20","14:00","8.5","","4.8","","78","","","","1","","21","","24.1","","100.54","","","","","","NA"
"-94.07","58.74","CHURCHILL A","5060605","2022-06-20 15:00","2022","06","20","15:00","9.4","","5.1","","75","","","","1","","18","","24.1","","100.56","","","","","","Mostly Cloudy"
"-94.07","58.74","CHURCHILL A","5060605","2022-06-20 16:00","2022","06","20","16:00","7.1","","3.7","","79","","","","2","","20","","24.1","","100.60","","","","","","NA"
"-94.07","58.74","CHURCHILL A","5060605","2022-06-20 17:00","2022","06","20","17:00","7.1","","3.8","","80","","","","1","","13","","24.1","","100.61","","","","","","NA"
"-94.07","58.74","CHURCHILL A","5060605","2022-06-20 18:00","2022","06","20","18:00","7.2","","4.0","","80","","","","36","","12","","24.1","","100.62","","","","","","Cloudy"
"-94.07","58.74","CHURCHILL A","5060605","2022-06-20 19:00","2022","06","20","19:00","7.1","","3.9","","80","","","","35","","9","","24.1","","100.66","","","","","","NA"
"-94.07","58.74","CHURCHILL A","5060605","2022-06-20 20:00","2022","06","20","20:00","8.4","","5.2","","80","","","","34","","11","","24.1","","100.71","","","","","","NA"
"-94.07","58.74","CHURCHILL A","5060605","2022-06-20 21:00","2022","06","20","21:00","7.4","","4.7","","83","","","","34","","17","","24.1","","100.68","","","","","","Cloudy"
"-94.07","58.74","CHURCHILL A","5060605","2022-06-20 22:00","2022","06","20","22:00","7.2","","4.5","","83","","","","34","","13","","24.1","","100.71","","","","","","NA"
"-94.07","58.74","CHURCHILL A","5060605","2022-06-20 23:00","2022","06","20","23:00","6.8","","4.3","","84","","","","35","","11","","24.1","","100.71","","","","","","NA"
"-94.07","58.74","CHURCHILL A","5060605","2022-06-21 00:00","2022","06","21","00:00","6.9","","4.4","","84","","","","33","","11","","24.1","","100.72","","","","","","Cloudy"
"-94.07","58.74","CHURCHILL A","5060605","2022-06-21 01:00","2022","06","21","01:00","7.1","","4.6","","84","","","","33","","9","","24.1","","100.66","","","","","","NA"
"-94.07","58.74","CHURCHILL A","5060605","2022-06-21 02:00","2022","06","21","02:00","8.0","","5.2","","82","","","","29","","13","","24.1","","100.66","","","","","","NA"
"-94.07","58.74","CHURCHILL A","5060605","2022-06-21 03:00","2022","06","21","03:00","7.3","","4.1","","80","","","","33","","18","","24.1","","100.63","","","","","","Cloudy"
"-94.07","58.74","CHURCHILL A","5060605","2022-06-21 04:00","2022","06","21","04:00","7.4","","4.0","","79","","","","33","","15","","24.1","","100.65","","","","","","NA"
"-94.07","58.74","CHURCHILL A","5060605","2022-06-21 05:00","2022","06","21","05:00","7.6","","3.7","","76","","","","32","","17","","24.1","","100.61","","","","","","NA"
"-94.07","58.74","CHURCHILL A","5060605","2022-06-21 06:00","2022","06","21","06:00","7.8","","3.7","","75","","","","32","","22","","24.1","","100.62","","","","","","Cloudy"
"-94.07","58.74","CHURCHILL A","5060605","2022-06-21 07:00","2022","06","21","07:00","7.3","","3.7","","78","","","","32","","24","","24.1","","100.59","","","","","","NA"
"-94.07","58.74","CHURCHILL A","5060605","2022-06-21 08:00","2022","06","21","08:00","6.8","","3.3","","78","","","","34","","18","","24.1","","100.56","","","","","","NA"
"-94.07","58.74","CHURCHILL A","5060605","2022-06-21 09:00","2022","06","21","09:00","7.6","","3.5","","75","","","","32","","16","","24.1","","100.58","","","","","","Cloudy"
"-94.07","58.74","CHURCHILL A","5060605","2022-06-21 10:00","2022","06","21","10:00","8.2","","3.5","","72","","","","32","","20","","24.1","","100.59","","","","","","NA"
"-94.07","58.74","CHURCHILL A","5060605","2022-06-21 11:00","2022","06","21","11:00","9.8","","3.5","","65","","","","31","","32","","24.1","","100.46","","","","","","NA"
"-94.07","58.74","CHURCHILL A","5060605","2022-06-21 12:00","2022","06","21","12:00","9.7","","4.0","","67","","","","32","","30","","24.1","","100.44","","","","","","Mostly Cloudy"
"-94.07","58.74","CHURCHILL A","5060605","2022-06-21 13:00","2022","06","21","13:00","10.1","","4.2","","67","","","","32","","18","","24.1","","100.47","","","","","","NA"
"-94.07","58.74","CHURCHILL A","5060605","2022-06-21 14:00","2022","06","21","14:00","10.5","","4.1","","64","","","","33","","19","","24.1","","100.43","","","","","","NA"
"-94.07","58.74","CHURCHILL A","5060605","2022-06-21 15:00","2022","06","21","15:00","10.5","","4.3","","65","","","","32","","17","","24.1","","100.39","","","","","","Mostly Cloudy"
"-94.07","58.74","CHURCHILL A","5060605","2022-06-21 16:00","2022","06","21","16:00","10.8","","4.4","","65","","","","32","","14","","24.1","","100.43","","","","","","NA"
"-94.07","58.74","CHURCHILL A","5060605","2022-06-21 17:00","2022","06","21","17:00","10.0","","4.2","","67","","","","32","","18","","24.1","","100.37","","","","","","NA"
"-94.07","58.74","CHURCHILL A","5060605","2022-06-21 18:00","2022","06","21","18:00","9.6","","4.5","","70","","","","32","","17","","24.1","","100.35","","","","","","Cloudy"
"-94.07","58.74","CHURCHILL A","5060605","2022-06-21 19:00","2022","06","21","19:00","9.5","","4.3","","70","","","","31","","18","","24.1","","100.32","","","","","","NA"
"-94.07","58.74","CHURCHILL A","5060605","2022-06-21 20:00","2022","06","21","20:00","8.3","","4.2","","75","","","","32","","19","","24.1","","100.36","","","","","","NA"
"-94.07","58.74","CHURCHILL A","5060605","2022-06-21 21:00","2022","06","21","21:00","8.5","","4.0","","73","","","","30","","16","","24.1","","100.35","","","","","","Cloudy"
"-94.07","58.74","CHURCHILL A","5060605","2022-06-21 22:00","2022","06","21","22:00","7.7","","3.9","","77","","","","31","","14","","24.1","","100.32","","","","","","NA"
"-94.07","58.74","CHURCHILL A","5060605","2022-06-21 23:00","2022","06","21","23:00","7.9","","3.8","","75","","","","31","","20","","24.1","","100.26","","","","","","NA"
"-94.07","58.74","CHURCHILL A","5060605","2022-06-22 00:00","2022","06","22","00:00","7.3","","3.7","","78","","","","30","","22","","24.1","","100.23","","","","","","Cloudy"
"-94.07","58.74","CHURCHILL A","5060605","2022-06-22 01:00","2022","06","22","01:00","7.0","","5.0","","87","","","","29","","18","","24.1","","100.20","","","","","","NA"
"-94.07","58.74","CHURCHILL A","5060605","2022-06-22 02:00","2022","06","22","02:00","6.9","","4.2","","83","","","","29","","22","","24.1","","100.15","","","","","","NA"
"-94.07","58.74","CHURCHILL A","5060605","2022-06-22 03:00","2022","06","22","03:00","6.8","","4.3","","84","","","","30","","30","","24.1","","100.13","","","","","","Mostly Cloudy"
"-94.07","58.74","CHURCHILL A","5060605","2022-06-22 04:00","2022","06","22","04:00","7.0","","4.2","","82","","","","28","","23","","24.1","","100.09","","","","","","NA"
"-94.07","58.74","CHURCHILL A","5060605","2022-06-22 05:00","2022","06","22","05:00","7.3","","4.1","","80","","","","28","","26","","24.1","","100.03","","","","","","NA"
"-94.07","58.74","CHURCHILL A","5060605","2022-06-22 06:00","2022","06","22","06:00","7.5","","4.1","","79","","","","28","","27","","24.1","","99.99","","","","","","Cloudy"
"-94.07","58.74","CHURCHILL A","5060605","2022-06-22 07:00","2022","06","22","07:00","7.7","","4.5","","80","","","","28","","26","","24.1","","99.96","","","","","","NA"
"-94.07","58.74","CHURCHILL A","5060605","2022-06-22 08:00","2022","06","22","08:00","7.5","","5.5","","87","","","","30","","23","","24.1","","99.94","","","","","","NA"
"-94.07","58.74","CHURCHILL A","5060605","2022-06-22 09:00","2022","06","22","09:00","6.9","","6.1","","95","","","","31","","20","","24.1","","99.93","","","","","","Cloudy"
"-94.07","58.74","CHURCHILL A","5060605","2022-06-22 10:00","2022","06","22","10:00","8.1","","5.7","","85","","","","31","","30","","24.1","","99.89","","","","","","NA"
"-94.07","58.74","CHURCHILL A","5060605","2022-06-22 11:00","2022","06","22","11:00","7.1","","3.8","","80","","","","32","","24","","24.1","","99.89","","","","","","NA"
"-94.07","58.74","CHURCHILL A","5060605","2022-06-22 12:00","2022","06","22","12:00","7.4","","4.0","","79","","","","31","","28","","24.1","","99.89","","","","","","Mostly Cloudy"
"-94.07","58.74","CHURCHILL A","5060605","2022-06-22 13:00","2022","06","22","13:00","6.4","","3.4","","81","","","","32","","28","","24.1","","99.91","","","","","","NA"
"-94.07","58.74","CHURCHILL A","5060605","2022-06-22 14:00","2022","06","22","14:00","4.9","","3.6","","91","","","","32","","18","","16.1","","99.93","","","","","","Rain"
"-94.07","58.74","CHURCHILL A","5060605","2022-06-22 15:00","2022","06","22","15:00","4.7","","3.7","","93","","","","33","","28","","6.4","","99.93","","","","","","Fog"
"-94.07","58.74","CHURCHILL A","5060605","2022-06-22 16:00","2022","06","22","16:00","5.1","","4.1","","93","","","","32","","32","","9.7","","99.96","","","","","","Fog"
"-94.07","58.74","CHURCHILL A","5060605","2022-06-22 17:00","2022","06","22","17:00","3.2","","2.6","","96","","","","33","","34","","4.8","","100.00","","","","","","Fog"
"-94.07","58.74","CHURCHILL A","5060605","2022-06-22 18:00","2022","06","22","18:00","2.4","","1.7","","95","","","","33","","38","","9.7","","100.05","","","","","","Fog"
"-94.07","58.74","CHURCHILL A","5060605","2022-06-22 19:00","2022","06","22","19:00","2.3","","1.7","","96","","","","33","","29","","3.2","","100.12","","","","","","Drizzle,Fog"
"-94.07","58.74","CHURCHILL A","5060605","2022-06-22 20:00","2022","06","22","20:00","1.9","","1.5","","97","","","","34","","30","","12.9","","100.19","","","","","","Drizzle"
"-94.07","58.74","CHURCHILL A","5060605","2022-06-22 21:00","2022","06","22","21:00","2.0","","1.6","","97","","","","34","","27","","19.3","","100.22","","","","","","Drizzle"
"-94.07","58.74","CHURCHILL A","5060605","2022-06-22 22:00","2022","06","22","22:00","2.2","","1.8","","97","","","","35","","25","","24.1","","100.24","","","","","","Drizzle"
"-94.07","58.74","CHURCHILL A","5060605","2022-06-22 23:00","2022","06","22","23:00","2.3","","1.7","","96","","","","33","","23","","24.1","","100.26","","","","","","NA"
"-94.07","58.74","CHURCHILL A","5060605","2022-06-23 00:00","2022","06","23","00:00","2.9","","1.7","","92","","","","34","","24","","24.1","","100.27","","","","","","Mostly Cloudy"
"-94.07","58.74","CHURCHILL A","5060605","2022-06-23 01:00","2022","06","23","01:00","3.9","","3.0","","94","","","","33","","19","","24.1","","100.28","","","","","","NA"
"-94.07","58.74","CHURCHILL A","5060605","2022-06-23 02:00","2022","06","23","02:00","5.1","","3.9","","92","","","","33","","25","","24.1","","100.26","","","","","","NA"
"-94.07","58.74","CHURCHILL A","5060605","2022-06-23 03:00","2022","06","23","03:00","4.2","","2.2","","87","","","","33","","25","","24.1","","100.24","","","","","","Mostly Cloudy"
"-94.07","58.74","CHURCHILL A","5060605","2022-06-23 04:00","2022","06","23","04:00","4.8","","2.7","","86","","","","34","","27","","24.1","","100.27","","","","","","NA"
"-94.07","58.74","CHURCHILL A","5060605","2022-06-23 05:00","2022","06","23","05:00","5.1","","2.6","","84","","","","33","","27","","24.1","","100.28","","","","","","NA"
"-94.07","58.74","CHURCHILL A","5060605","2022-06-23 06:00","2022","06","23","06:00","5.7","","3.0","","83","","","","33","","26","","24.1","","100.29","","","","","","Cloudy"
"-94.07","58.74","CHURCHILL A","5060605","2022-06-23 07:00","2022","06","23","07:00","6.2","","3.0","","80","","","","33","","28","","24.1","","100.33","","","","","","NA"
"-94.07","58.74","CHURCHILL A","5060605","2022-06-23 08:00","2022","06","23","08:00","7.0","","3.0","","76","","","","33","","34","","24.1","","100.34","","","","","","NA"
"-94.07","58.74","CHURCHILL A","5060605","2022-06-23 09:00","2022","06","23","09:00","6.3","","2.8","","78","","","","34","","30","","24.1","","100.41","","","","","","Cloudy"
"-94.07","58.74","CHURCHILL A","5060605","2022-06-23 10:00","2022","06","23","10:00","7.0","","3.0","","76","","","","34","","27","","24.1","","100.48","","","","","","NA"
"-94.07","58.74","CHURCHILL A","5060605","2022-06-23 11:00","2022","06","23","11:00","7.3","","3.0","","74","","","","33","","34","","24.1","","100.56","","","","","","NA"
"-94.07","58.74","CHURCHILL A","5060605","2022-06-23 12:00","2022","06","23","12:00","7.5","","3.0","","73","","","","34","","33","","24.1","","100.61","","","","","","Mostly Cloudy"
"-94.07","58.74","CHURCHILL A","5060605","2022-06-23 13:00","2022","06","23","13:00","7.2","","2.8","","74","","","","35","","24","","24.1","","100.70","","","","","","NA"
"-94.07","58.74","CHURCHILL A","5060605","2022-06-23 14:00","2022","06","23","14:00","7.7","","2.7","","70","","","","35","","30","","24.1","","100.78","","","","","","NA"
"-94.07","58.74","CHURCHILL A","5060605","2022-06-23 15:00","2022","06","23","15:00","8.5","","2.7","","67","","","","34","","30","","24.1","","100.84","","","","","","Mostly Cloudy"
"-94.07","58.74","CHURCHILL A","5060605","2022-06-23 16:00","2022","06","23","16:00","8.4","","2.6","","67","","","","35","","30","","24.1","","100.89","","","","","","NA"
"-94.07","58.74","CHURCHILL A","5060605","2022-06-23 17:00","2022","06","23","17:00","8.3","","2.0","","64","","","","36","","29","","24.1","","100.92","","","","","","NA"
"-94.07","58.74","CHURCHILL A","5060605","2022-06-23 18:00","2022","06","23","18:00","7.0","","1.5","","68","","","","1","","22","","24.1","","100.97","","","","","","Mostly Cloudy"
"-94.07","58.74","CHURCHILL A","5060605","2022-06-23 19:00","2022","06","23","19:00","8.7","","1.6","","61","","","","36","","19","","24.1","","101.01","","","","","","NA"
"-94.07","58.74","CHURCHILL A","5060605","2022-06-23 20:00","2022","06","23","20:00","7.5","","2.6","","71","","","","32","","17","","24.1","","101.06","","","","","","NA"
"-94.07","58.74","CHURCHILL A","5060605","2022-06-23 21:00","2022","06","23","21:00","8.1","","3.3","","72","","","","33","","15","","24.1","","101.11","","","","","","Mostly Cloudy"
"-94.07","58.74","CHURCHILL A","5060605","2022-06-23 22:00","2022","06","23","22:00","8.1","","3.0","","70","","","","33","","19","","24.1","","101.13","","","","","","NA"
"-94.07","58.74","CHURCHILL A","5060605","2022-06-23 23:00","2022","06","23","23:00","8.4","","2.8","","68","","","","34","","18","","24.1","","101.14","","","","","","NA"
"-94.07","58.74","CHURCHILL A","5060605","2022-06-24 00:00","2022","06","24","00:00","7.8","","3.1","","72","","","","34","","16","","24.1","","101.16","","","","","","Mostly Cloudy"
"-94.07","58.74","CHURCHILL A","5060605","2022-06-24 01:00","2022","06","24","01:00","6.4","","3.0","","79","","","","33","","11","","24.1","","101.18","","","","","","NA"
"-94.07","58.74","CHURCHILL A","5060605","2022-06-24 02:00","2022","06","24","02:00","8.1","","4.0","","75","","","","29","","11","","24.1","","101.20","","","","","","NA"
"-94.07","58.74","CHURCHILL A","5060605","2022-06-24 03:00","2022","06","24","03:00","8.1","","5.0","","81","","","","29","","10","","24.1","","101.22","","","","","","Mostly Cloudy"
"-94.07","58.74","CHURCHILL A","5060605","2022-06-24 04:00","2022","06","24","04:00","7.3","","5.1","","86","","","","28","","11","","24.1","","101.26","","","","","","NA"
"-94.07","58.74","CHURCHILL A","5060605","2022-06-24 05:00","2022","06","24","05:00","7.6","","5.8","","88","","","","29","","13","","24.1","","101.29","","","","","","NA"
"-94.07","58.74","CHURCHILL A","5060605","2022-06-24 06:00","2022","06","24","06:00","9.0","","6.5","","84","","","","30","","11","","24.1","","101.33","","","","","","Mostly Cloudy"
"-94.07","58.74","CHURCHILL A","5060605","2022-06-24 07:00","2022","06","24","07:00","10.9","","6.9","","76","","","","30","","11","","24.1","","101.36","","","","","","NA"
"-94.07","58.74","CHURCHILL A","5060605","2022-06-24 08:00","2022","06","24","08:00","12.5","","7.1","","69","","","","29","","9","","24.1","","101.38","","","","","","NA"
"-94.07","58.74","CHURCHILL A","5060605","2022-06-24 09:00","2022","06","24","09:00","15.0","","7.6","","61","","","","29","","9","","24.1","","101.37","","","","","","Mainly Clear"
"-94.07","58.74","CHURCHILL A","5060605","2022-06-24 10:00","2022","06","24","10:00","17.1","","6.4","","49","","","","31","","12","","24.1","","101.37","","","","","","NA"
"-94.07","58.74","CHURCHILL A","5060605","2022-06-24 11:00","2022","06","24","11:00","18.0","","4.0","","39","","","","33","","11","","24.1","","101.35","","","","","","NA"
"-94.07","58.74","CHURCHILL A","5060605","2022-06-24 12:00","2022","06","24","12:00","19.0","","4.6","","38","","","","36","","11","","24.1","","101.33","","","","","","Mainly Clear"
"-94.07","58.74","CHURCHILL A","5060605","2022-06-24 13:00","2022","06","24","13:00","19.3","","5.2","","39","","","","2","","12","","24.1","","101.28","","","","","","NA"
"-94.07","58.74","CHURCHILL A","5060605","2022-06-24 14:00","2022","06","24","14:00","20.1","","4.4","","35","","","","1","","6","","24.1","","101.26","","","","","","NA"
"-94.07","58.74","CHURCHILL A","5060605","2022-06-24 15:00","2022","06","24","15:00","19.9","","4.7","","36","","","","8","","16","","24.1","","101.23","","","","","","Mainly Clear"
"-94.07","58.74","CHURCHILL A","5060605","2022-06-24 16:00","2022","06","24","16:00","20.3","","4.2","","34","","","","6","","12","","24.1","","101.21","","","","","","NA"
"-94.07","58.74","CHURCHILL A","5060605","2022-06-24 17:00","2022","06","24","17:00","20.8","","5.8","","37","","","","10","","13","","24.1","","101.19","","","","","","NA"
"-94.07","58.74","CHURCHILL A","5060605","2022-06-24 18:00","2022","06","24","18:00","20.0","","7.1","","43","","","","14","","21","","24.1","","101.16","","","","","","Mostly Cloudy"
"-94.07","58.74","CHURCHILL A","5060605","2022-06-24 19:00","2022","06","24","19:00","18.8","","5.8","","42","","","","14","","24","","24.1","","101.15","","","","","","NA"
"-94.07","58.74","CHURCHILL A","5060605","2022-06-24 20:00","2022","06","24","20:00","17.6","","4.3","","41","","","","15","","19","","24.1","","101.09","","","","","","NA"
"-94.07","58.74","CHURCHILL A","5060605","2022-06-24 21:00","2022","06","24","21:00","6.8","","1.8","","71","","","","3","","28","","24.1","","101.16","","","","","","Mostly Cloudy"
"-94.07","58.74","CHURCHILL A","5060605","2022-06-24 22:00","2022","06","24","22:00","9.2","","2.8","","64","","","","5","","17","","24.1","","101.25","","","","","","NA"
"-94.07","58.74","CHURCHILL A","5060605","2022-06-24 23:00","2022","06","24","23:00","7.4","","2.4","","71","","","","4","","19","","24.1","","101.26","","","","","","NA"
"-94.07","58.74","CHURCHILL A","5060605","2022-06-25 00:00","2022","06","25","00:00","8.5","","3.4","","70","","","","4","","18","","24.1","","101.30","","","","","","Mostly Cloudy"
"-94.07","58.74","CHURCHILL A","5060605","2022-06-25 01:00","2022","06","25","01:00","8.2","","3.5","","72","","","","5","","13","","24.1","","101.30","","","","","","NA"
"-94.07","58.74","CHURCHILL A","5060605","2022-06-25 02:00","2022","06","25","02:00","7.9","","3.9","","76","","","","9","","8","","24.1","","101.31","","","","","","NA"
"-94.07","58.74","CHURCHILL A","5060605","2022-06-25 03:00","2022","06","25","03:00","9.0","","5.2","","77","","","","2","","20","","24.1","","101.35","","","","","","Mostly Cloudy"
"-94.07","58.74","CHURCHILL A","5060605","2022-06-25 04:00","2022","06","25","04:00","7.5","","4.6","","82","","","","2","","16","","24.1","","101.34","","","","","","NA"
"-94.07","58.74","CHURCHILL A","5060605","2022-06-25 05:00","2022","06","25","05:00","8.0","","4.6","","79","","","","3","","14","","24.1","","101.36","","","","","","NA"
"-94.07","58.74","CHURCHILL A","5060605","2022-06-25 06:00","2022","06","25","06:00","9.8","","4.4","","69","","","","3","","8","","24.1","","101.38","","","","","","Clear"
"-94.07","58.74","CHURCHILL A","5060605","2022-06-25 07:00","2022","06","25","07:00","11.5","","3.9","","59","","","","2","","10","","24.1","","101.43","","","","","","NA"
"-94.07","58.74","CHURCHILL A","5060605","2022-06-25 08:00","2022","06","25","08:00","9.7","","4.6","","70","","","","35","","16","","24.1","","101.46","","","","","","NA"
"-94.07","58.74","CHURCHILL A","5060605","2022-06-25 09:00","2022","06","25","09:00","9.0","","3.6","","69","","","","1","","20","","24.1","","101.48","","","","","","Clear"
"-94.07","58.74","CHURCHILL A","5060605","2022-06-25 10:00","2022","06","25","10:00","8.9","","3.1","","67","","","","2","","21","","24.1","","101.51","","","","","","NA"
"-94.07","58.74","CHURCHILL A","5060605","2022-06-25 11:00","2022","06","25","11:00","9.5","","2.2","","60","","","","1","","20","","24.1","","101.47","","","","","","NA"
"-94.07","58.74","CHURCHILL A","5060605","2022-06-25 12:00","2022","06","25","12:00","11.0","","1.7","","53","","","","2","","23","","24.1","","101.41","","","","","","Mainly Clear"
"-94.07","58.74","CHURCHILL A","5060605","2022-06-25 13:00","2022","06","25","13:00","11.4","","1.2","","50","","","","2","","25","","24.1","","101.41","","","","","","NA"
"-94.07","58.74","CHURCHILL A","5060605","2022-06-25 14:00","2022","06","25","14:00","11.7","","0.1","","45","","","","4","","22","","24.1","","101.41","","","","","","NA"
"-94.07","58.74","CHURCHILL A","5060605","2022-06-25 15:00","2022","06","25","15:00","10.6","","1.0","","51","","","","4","","23","","24.1","","101.35","","","","","","Mainly Clear"
"-94.07","58.74","CHURCHILL A","5060605","2022-06-25 16:00","2022","06","25","16:00","10.9","","3.0","","58","","","","5","","22","","24.1","","101.33","","","","","","NA"
"-94.07","58.74","CHURCHILL A","5060605","2022-06-25 17:00","2022","06","25","17:00","10.3","","2.7","","59","","","","7","","19","","24.1","","101.34","","","","","","NA"
"-94.07","58.74","CHURCHILL A","5060605","2022-06-25 18:00","2022","06","25","18:00","10.3","","2.9","","60","","","","6","","19","","24.1","","101.35","","","","","","Mainly Clear"
"-94.07","58.74","CHURCHILL A","5060605","2022-06-25 19:00","2022","06","25","19:00","10.4","","1.7","","55","","","","7","","18","","24.1","","101.33","","","","","","NA"
"-94.07","58.74","CHURCHILL A","5060605","2022-06-25 20:00","2022","06","25","20:00","9.2","","2.7","","64","","","","8","","10","","24.1","","101.30","","","","","","NA"
"-94.07","58.74","CHURCHILL A","5060605","2022-06-25 21:00","2022","06","25","21:00","7.0","","2.3","","72","","","","5","","7","","24.1","","101.30","","","","","","Clear"
"-94.07","58.74","CHURCHILL A","5060605","2022-06-25 22:00","2022","06","25","22:00","6.3","","2.4","","76","","","","4","","4","","24.1","","101.31","","","","","","NA"
"-94.07","58.74","CHURCHILL A","5060605","2022-06-25 23:00","2022","06","25","23:00","4.9","","1.6","","79","","","","35","","10","","24.1","","101.28","","","","","","NA"
"-94.07","58.74","CHURCHILL A","5060605","2022-06-26 00:00","2022","06","26","00:00","5.4","","2.8","","83","","","","34","","12","","24.1","","101.26","","","","","","Clear"
"-94.07","58.74","CHURCHILL A","5060605","2022-06-26 01:00","2022","06","26","01:00","6.7","","2.6","","75","","","","32","","12","","24.1","","101.24","","","","","","NA"
"-94.07","58.74","CHURCHILL A","5060605","2022-06-26 02:00","2022","06","26","02:00","7.4","","2.9","","73","","","","32","","12","","24.1","","101.22","","","","","","NA"
"-94.07","58.74","CHURCHILL A","5060605","2022-06-26 03:00","2022","06","26","03:00","7.0","","2.7","","74","","","","31","","10","","24.1","","101.23","","","","","","Mainly Clear"
"-94.07","58.74","CHURCHILL A","5060605","2022-06-26 04:00","2022","06","26","04:00","6.5","","2.6","","76","","","","30","","12","","24.1","","101.22","","","","","","NA"
"-94.07","58.74","CHURCHILL A","5060605","2022-06-26 05:00","2022","06","26","05:00","8.1","","3.6","","73","","","","29","","10","","24.1","","101.21","","","","","","NA"
"-94.07","58.74","CHURCHILL A","5060605","2022-06-26 06:00","2022","06","26","06:00","9.9","","1.8","","57","","","","29","","12","","24.1","","101.20","","","","","","Clear"
"-94.07","58.74","CHURCHILL A","5060605","2022-06-26 07:00","2022","06","26","07:00","12.1","","2.4","","51","","","","28","","11","","24.1","","101.17","","","","","","NA"
"-94.07","58.74","CHURCHILL A","5060605","2022-06-26 08:00","2022","06","26","08:00","13.7","","3.4","","50","","","","29","","13","","24.1","","101.12","","","","","","NA"
"-94.07","58.74","CHURCHILL A","5060605","2022-06-26 09:00","2022","06","26","09:00","15.5","","3.8","","45","","","","30","","13","","24.1","","101.10","","","","","","Clear"
"-94.07","58.74","CHURCHILL A","5060605","2022-06-26 10:00","2022","06","26","10:00","16.2","","4.4","","45","","","","33","","13","","24.1","","101.09","","","","","","NA"
"-94.07","58.74","CHURCHILL A","5060605","2022-06-26 11:00","2022","06","26","11:00","17.0","","3.8","","41","","","","2","","12","","24.1","","101.07","","","","","","NA"
"-94.07","58.74","CHURCHILL A","5060605","2022-06-26 12:00","2022","06","26","12:00","17.5","","2.9","","37","","","","5","","11","","24.1","","101.05","","","","","","Mainly Clear"
"-94.07","58.74","CHURCHILL A","5060605","2022-06-26 13:00","2022","06","26","13:00","17.8","","2.2","","35","","","","5","","12","","24.1","","101.01","","","","","","NA"
"-94.07","58.74","CHURCHILL A","5060605","2022-06-26 14:00","2022","06","26","14:00","18.1","","3.2","","37","","","","5","","12","","24.1","","100.95","","","","","","NA"
"-94.07","58.74","CHURCHILL A","5060605","2022-06-26 15:00","2022","06","26","15:00","18.4","","3.2","","36","","","","7","","13","","24.1","","100.92","","","","","","Mostly Cloudy"
"-94.07","58.74","CHURCHILL A","5060605","2022-06-26 16:00","2022","06","26","16:00","18.5","","4.1","","38","","","","8","","17","","24.1","","100.88","","","","","","NA"
"-94.07","58.74","CHURCHILL A","5060605","2022-06-26 17:00","2022","06","26","17:00","18.6","","3.7","","37","","","","12","","17","","24.1","","100.83","","","","","","NA"
"-94.07","58.74","CHURCHILL A","5060605","2022-06-26 18:00","2022","06","26","18:00","18.5","","5.9","","43","","","","12","","29","","24.1","","100.79","","","","","","Mostly Cloudy"
"-94.07","58.74","CHURCHILL A","5060605","2022-06-26 19:00","2022","06","26","19:00","17.3","","5.2","","44","","","","13","","27","","24.1","","100.76","","","","","","NA"
"-94.07","58.74","CHURCHILL A","5060605","2022-06-26 20:00","2022","06","26","20:00","15.4","","4.8","","49","","","","13","","25","","24.1","","100.68","","","","","","NA"
"-94.07","58.74","CHURCHILL A","5060605","2022-06-26 21:00","2022","06","26","21:00","14.6","","4.7","","51","","","","13","","29","","24.1","","100.65","","","","","","Mostly Cloudy"
"-94.07","58.74","CHURCHILL A","5060605","2022-06-26 22:00","2022","06","26","22:00","13.1","","5.9","","61","","","","14","","23","","16.1","","100.69","","","","","","Rain Showers"
"-94.07","58.74","CHURCHILL A","5060605","2022-06-26 23:00","2022","06","26","23:00","12.1","","6.8","","70","","","","12","","27","","16.1","","100.63","","","","","","Rain Showers"
"-94.07","58.74","CHURCHILL A","5060605","2022-06-27 00:00","2022","06","27","00:00","11.5","","7.5","","76","","","","11","","26","","16.1","","100.53","","","","","","Rain Showers"
"-94.07","58.74","CHURCHILL A","5060605","2022-06-27 01:00","2022","06","27","01:00","10.5","","7.3","","80","","","","12","","22","","16.1","","100.49","","","","","","Rain Showers"
"-94.07","58.74","CHURCHILL A","5060605","2022-06-27 02:00","2022","06","27","02:00","9.3","","6.9","","85","","","","10","","19","","16.1","","100.45","","","","","","Rain Showers"
"-94.07","58.74","CHURCHILL A","5060605","2022-06-27 03:00","2022","06","27","03:00","5.1","","4.4","","95","","","","9","","28","","12.9","","100.38","","","","","","Rain Showers"
"-94.07","58.74","CHURCHILL A","5060605","2022-06-27 04:00","2022","06","27","04:00","4.2","","3.3","","94","","","","8","","30","","9.7","","100.33","","","","","","Rain Showers,Fog"
"-94.07","58.74","CHURCHILL A","5060605","2022-06-27 05:00","2022","06","27","05:00","4.0","","3.0","","93","","","","8","","36","","9.7","","100.34","","","","","","Rain Showers,Fog"
"-94.07","58.74","CHURCHILL A","5060605","2022-06-27 06:00","2022","06","27","06:00","3.2","","2.2","","93","","","","5","","30","","12.9","","100.39","","","","","","Rain Showers"
"-94.07","58.74","CHURCHILL A","5060605","2022-06-27 07:00","2022","06","27","07:00","3.3","","2.6","","95","","","","4","","34","","8.1","","100.43","","","","","","Rain Showers,Fog"
"-94.07","58.74","CHURCHILL A","5060605","2022-06-27 08:00","2022","06","27","08:00","2.3","","1.7","","96","","","","3","","34","","4.0","","100.52","","","","","","Rain Showers,Fog"
"-94.07","58.74","CHURCHILL A","5060605","2022-06-27 09:00","2022","06","27","09:00","2.6","","2.2","","97","","","","3","","28","","2.8","","100.58","","","","","","Rain Showers,Fog"
"-94.07","58.74","CHURCHILL A","5060605","2022-06-27 10:00","2022","06","27","10:00","2.7","","2.3","","97","","","","2","","24","","9.7","","100.62","","","","","","Rain,Fog"
"-94.07","58.74","CHURCHILL A","5060605","2022-06-27 11:00","2022","06","27","11:00","3.1","","2.7","","97","","","","3","","23","","9.7","","100.69","","","","","","Rain Showers,Fog"
"-94.07","58.74","CHURCHILL A","5060605","2022-06-27 12:00","2022","06","27","12:00","3.0","","2.6","","97","","","","1","","26","","12.9","","100.79","","","","","","Rain"
"-94.07","58.74","CHURCHILL A","5060605","2022-06-27 13:00","2022","06","27","13:00","3.0","","2.6","","97","","","","2","","24","","8.1","","100.84","","","","","","Rain,Fog"
"-94.07","58.74","CHURCHILL A","5060605","2022-06-27 14:00","2022","06","27","14:00","3.3","","2.9","","97","","","","2","","29","","16.1","","100.89","","","","","","Rain"
"-94.07","58.74","CHURCHILL A","5060605","2022-06-27 15:00","2022","06","27","15:00","3.8","","2.8","","93","","","","2","","22","","19.3","","100.92","","","","","","Rain"
"-94.07","58.74","CHURCHILL A","5060605","2022-06-27 16:00","2022","06","27","16:00","4.5","","2.4","","86","","","","2","","25","","24.1","","100.94","","","","","","NA"
"-94.07","58.74","CHURCHILL A","5060605","2022-06-27 17:00","2022","06","27","17:00","3.8","","2.0","","88","","","","36","","17","","24.1","","100.98","","","","","","NA"
"-94.07","58.74","CHURCHILL A","5060605","2022-06-27 18:00","2022","06","27","18:00","4.6","","2.0","","83","","","","34","","17","","24.1","","101.00","","","","","","Cloudy"
"-94.07","58.74","CHURCHILL A","5060605","2022-06-27 19:00","2022","06","27","19:00","5.0","","2.4","","83","","","","33","","16","","24.1","","101.01","","","","","","NA"
"-94.07","58.74","CHURCHILL A","5060605","2022-06-27 20:00","2022","06","27","20:00","5.3","","2.1","","80","","","","33","","18","","24.1","","101.02","","","","","","NA"
"-94.07","58.74","CHURCHILL A","5060605","2022-06-27 21:00","2022","06","27","21:00","5.8","","4.1","","89","","","","32","","17","","24.1","","101.01","","","","","","Mostly Cloudy"
"-94.07","58.74","CHURCHILL A","5060605","2022-06-27 22:00","2022","06","27","22:00","6.4","","4.2","","86","","","","32","","17","","24.1","","101.01","","","","","","NA"
"-94.07","58.74","CHURCHILL A","5060605","2022-06-27 23:00","2022","06","27","23:00","7.0","","4.8","","86","","","","31","","14","","24.1","","100.99","","","","","","NA"
"-94.07","58.74","CHURCHILL A","5060605","2022-06-28 00:00","2022","06","28","00:00","5.8","","3.3","","84","","","","30","","12","","24.1","","100.98","","","","","","Mainly Clear"
"-94.07","58.74","CHURCHILL A","5060605","2022-06-28 01:00","2022","06","28","01:00","5.5","","3.5","","87","","","","35","","15","","24.1","","100.98","","","","","","NA"
"-94.07","58.74","CHURCHILL A","5060605","2022-06-28 02:00","2022","06","28","02:00","4.6","","2.1","","84","","","","33","","17","","24.1","","100.96","","","","","","NA"
"-94.07","58.74","CHURCHILL A","5060605","2022-06-28 03:00","2022","06","28","03:00","4.8","","2.3","","84","","","","33","","21","","24.1","","100.95","","","","","","Mostly Cloudy"
"-94.07","58.74","CHURCHILL A","5060605","2022-06-28 04:00","2022","06","28","04:00","5.1","","2.5","","84","","","","33","","21","","24.1","","100.98","","","","","","NA"
"-94.07","58.74","CHURCHILL A","5060605","2022-06-28 05:00","2022","06","28","05:00","5.2","","2.2","","81","","","","35","","23","","24.1","","101.00","","","","","","NA"
"-94.07","58.74","CHURCHILL A","5060605","2022-06-28 06:00","2022","06","28","06:00","5.3","","1.8","","78","","","","34","","21","","24.1","","101.03","","","","","","Cloudy"
"-94.07","58.74","CHURCHILL A","5060605","2022-06-28 07:00","2022","06","28","07:00","5.9","","3.1","","82","","","","33","","16","","24.1","","101.04","","","","","","NA"
"-94.07","58.74","CHURCHILL A","5060605","2022-06-28 08:00","2022","06","28","08:00","8.0","","3.2","","72","","","","32","","17","","24.1","","101.04","","","","","","NA"
"-94.07","58.74","CHURCHILL A","5060605","2022-06-28 09:00","2022","06","28","09:00","9.2","","2.0","","60","","","","33","","20","","24.1","","101.02","","","","","","Cloudy"
"-94.07","58.74","CHURCHILL A","5060605","2022-06-28 10:00","2022","06","28","10:00","10.4","","2.9","","60","","","","33","","17","","24.1","","101.00","","","","","","NA"
"-94.07","58.74","CHURCHILL A","5060605","2022-06-28 11:00","2022","06","28","11:00","10.8","","3.1","","59","","","","33","","18","","24.1","","100.99","","","","","","NA"
"-94.07","58.74","CHURCHILL A","5060605","2022-06-28 12:00","2022","06","28","12:00","11.6","","4.0","","59","","","","33","","17","","24.1","","100.94","","","","","","Mostly Cloudy"
"-94.07","58.74","CHURCHILL A","5060605","2022-06-28 13:00","2022","06","28","13:00","12.9","","4.3","","56","","","","32","","17","","24.1","","100.89","","","","","","NA"
"-94.07","58.74","CHURCHILL A","5060605","2022-06-28 14:00","2022","06","28","14:00","13.8","","4.1","","52","","","","33","","10","","24.1","","100.84","","","","","","NA"
"-94.07","58.74","CHURCHILL A","5060605","2022-06-28 15:00","2022","06","28","15:00","14.7","","5.2","","53","","","","32","","8","","24.1","","100.80","","","","","","Mainly Clear"
"-94.07","58.74","CHURCHILL A","5060605","2022-06-28 16:00","2022","06","28","16:00","15.3","","4.3","","47","","","","28","","8","","24.1","","100.71","","","","","","NA"
"-94.07","58.74","CHURCHILL A","5060605","2022-06-28 17:00","2022","06","28","17:00","16.4","","5.4","","48","","","","26","","12","","24.1","","100.63","","","","","","NA"
"-94.07","58.74","CHURCHILL A","5060605","2022-06-28 18:00","2022","06","28","18:00","17.3","","5.0","","44","","","","22","","10","","24.1","","100.54","","","","","","Mostly Cloudy"
"-94.07","58.74","CHURCHILL A","5060605","2022-06-28 19:00","2022","06","28","19:00","16.6","","4.9","","46","","","","22","","17","","24.1","","100.47","","","","","","NA"
"-94.07","58.74","CHURCHILL A","5060605","2022-06-28 20:00","2022","06","28","20:00","16.1","","7.4","","56","","","","26","","12","","24.1","","100.44","","","","","","NA"
"-94.07","58.74","CHURCHILL A","5060605","2022-06-28 21:00","2022","06","28","21:00","14.5","","7.3","","62","","","","24","","12","","24.1","","100.38","","","","","","Mostly Cloudy"
"-94.07","58.74","CHURCHILL A","5060605","2022-06-28 22:00","2022","06","28","22:00","12.6","","7.9","","73","","","","21","","14","","24.1","","100.34","","","","","","NA"
"-94.07","58.74","CHURCHILL A","5060605","2022-06-28 23:00","2022","06","28","23:00","13.0","","8.0","","71","","","","23","","12","","24.1","","100.29","","","","","","NA"
"-94.07","58.74","CHURCHILL A","5060605","2022-06-29 00:00","2022","06","29","00:00","12.1","","8.2","","77","","","","22","","12","","24.1","","100.23","","","","","","Mostly Cloudy"
"-94.07","58.74","CHURCHILL A","5060605","2022-06-29 01:00","2022","06","29","01:00","11.9","","8.1","","78","","","","21","","16","","24.1","","100.15","","","","","","NA"
"-94.07","58.74","CHURCHILL A","5060605","2022-06-29 02:00","2022","06","29","02:00","12.4","","8.7","","78","","","","23","","15","","24.1","","100.08","","","","","","NA"
"-94.07","58.74","CHURCHILL A","5060605","2022-06-29 03:00","2022","06","29","03:00","12.8","","7.9","","72","","","","21","","22","","24.1","","99.95","","","","","","Mostly Cloudy"
"-94.07","58.74","CHURCHILL A","5060605","2022-06-29 04:00","2022","06","29","04:00","12.5","","7.6","","72","","","","21","","19","","24.1","","99.84","","","","","","NA"
"-94.07","58.74","CHURCHILL A","5060605","2022-06-29 05:00","2022","06","29","05:00","12.8","","7.9","","72","","","","23","","18","","24.1","","99.78","","","","","","NA"
"-94.07","58.74","CHURCHILL A","5060605","2022-06-29 06:00","2022","06","29","06:00","14.0","","7.6","","65","","","","26","","19","","24.1","","99.75","","","","","","Mostly Cloudy"
"-94.07","58.74","CHURCHILL A","5060605","2022-06-29 07:00","2022","06","29","07:00","8.4","","7.0","","91","","","","34","","23","","24.1","","99.81","","","","","","NA"
"-94.07","58.74","CHURCHILL A","5060605","2022-06-29 08:00","2022","06","29","08:00","4.8","","4.2","","96","","","","36","","27","","12.9","","99.86","","","","","","Rain"
"-94.07","58.74","CHURCHILL A","5060605","2022-06-29 09:00","2022","06","29","09:00","4.4","","4.0","","97","","","","35","","34","","16.1","","99.96","","","","","","Rain"
"-94.07","58.74","CHURCHILL A","5060605","2022-06-29 10:00","2022","06","29","10:00","4.3","","3.9","","97","","","","36","","26","","16.1","","100.08","","","","","","Rain"
"-94.07","58.74","CHURCHILL A","5060605","2022-06-29 11:00","2022","06","29","11:00","5.2","","4.6","","96","","","","36","","18","","24.1","","100.13","","","","","","NA"
"-94.07","58.74","CHURCHILL A","5060605","2022-06-29 12:00","2022","06","29","12:00","6.6","","4.6","","87","","","","35","","16","","24.1","","100.25","","","","","","Mostly Cloudy"
"-94.07","58.74","CHURCHILL A","5060605","2022-06-29 13:00","2022","06","29","13:00","9.1","","4.4","","72","","","","33","","10","","24.1","","100.26","","","","","","NA"
"-94.07","58.74","CHURCHILL A","5060605","2022-06-29 14:00","2022","06","29","14:00","10.2","","2.9","","61","","","","32","","11","","24.1","","100.26","","","","","","NA"
"-94.07","58.74","CHURCHILL A","5060605","2022-06-29 15:00","2022","06","29","15:00","11.6","","3.3","","56","","","","34","","13","","24.1","","100.23","","","","","","Mostly Cloudy"
"-94.07","58.74","CHURCHILL A","5060605","2022-06-29 16:00","2022","06","29","16:00","11.3","","2.3","","54","","","","32","","7","","24.1","","100.23","","","","","","NA"
"-94.07","58.74","CHURCHILL A","5060605","2022-06-29 17:00","2022","06","29","17:00","12.2","","2.4","","51","","","","29","","11","","24.1","","100.23","","","","","","NA"
"-94.07","58.74","CHURCHILL A","5060605","2022-06-29 18:00","2022","06","29","18:00","12.4","","1.9","","48","","","","29","","11","","24.1","","100.25","","","","","","Mainly Clear"
"-94.07","58.74","CHURCHILL A","5060605","2022-06-29 19:00","2022","06","29","19:00","12.9","","2.1","","48","","","","29","","14","","24.1","","100.24","","","","","","NA"
"-94.07","58.74","CHURCHILL A","5060605","2022-06-29 20:00","2022","06","29","20:00","11.9","","2.1","","51","","","","27","","11","","24.1","","100.22","","","","","","NA"
"-94.07","58.74","CHURCHILL A","5060605","2022-06-29 21:00","2022","06","29","21:00","10.4","","3.7","","63","","","","35","","21","","24.1","","100.25","","","","","","Mostly Cloudy"
"-94.07","58.74","CHURCHILL A","5060605","2022-06-29 22:00","2022","06","29","22:00","8.5","","3.0","","68","","","","","","0","","24.1","","100.22","","","","","","NA"
"-94.07","58.74","CHURCHILL A","5060605","2022-06-29 23:00","2022","06","29","23:00","8.9","","4.1","","72","","","","24","","6","","24.1","","100.18","","","","","","NA"
"-94.07","58.74","CHURCHILL A","5060605","2022-06-30 00:00","2022","06","30","00:00","8.4","","4.4","","76","","","","33","","10","","24.1","","100.19","","","","","","Mostly Cloudy"
"-94.07","58.74","CHURCHILL A","5060605","2022-06-30 01:00","2022","06","30","01:00","8.0","","3.6","","74","","","","32","","13","","24.1","","100.16","","","","","","NA"
"-94.07","58.74","CHURCHILL A","5060605","2022-06-30 02:00","2022","06","30","02:00","7.4","","3.8","","78","","","","31","","7","","24.1","","100.15","","","","","","NA"
"-94.07","58.74","CHURCHILL A","5060605","2022-06-30 03:00","2022","06","30","03:00","7.3","","3.5","","77","","","","31","","20","","24.1","","100.13","","","","","","Mostly Cloudy"
"-94.07","58.74","CHURCHILL A","5060605","2022-06-30 04:00","2022","06","30","04:00","6.5","","3.3","","80","","","","32","","15","","24.1","","100.12","","","","","","NA"
"-94.07","58.74","CHURCHILL A","5060605","2022-06-30 05:00","2022","06","30","05:00","6.5","","3.5","","81","","","","32","","12","","24.1","","100.12","","","","","","NA"
"-94.07","58.74","CHURCHILL A","5060605","2022-06-30 06:00","2022","06","30","06:00","6.8","","3.2","","78","","","","32","","17","","24.1","","100.10","","","","","","Mostly Cloudy"
"-94.07","58.74","CHURCHILL A","5060605","2022-06-30 07:00","2022","06","30","07:00","6.8","","3.1","","77","","","","33","","14","","24.1","","100.07","","","","","","NA"
"-94.07","58.74","CHURCHILL A","5060605","2022-06-30 08:00","2022","06","30","08:00","6.9","","3.5","","79","","","","33","","13","","24.1","","100.06","","","","","","NA"
"-94.07","58.74","CHURCHILL A","5060605","2022-06-30 09:00","2022","06","30","09:00","7.5","","3.1","","74","","","","34","","16","","24.1","","100.05","","","","","","Mostly Cloudy"
"-94.07","58.74","CHURCHILL A","5060605","2022-06-30 10:00","2022","06","30","10:00","7.7","","3.5","","74","","","","3","","14","","24.1","","100.06","","","","","","NA"
"-94.07","58.74","CHURCHILL A","5060605","2022-06-30 11:00","2022","06","30","11:00","7.5","","3.1","","74","","","","4","","16","","24.1","","100.05","","","","","","NA"
"-94.07","58.74","CHURCHILL A","5060605","2022-06-30 12:00","2022","06","30","12:00","7.9","","3.9","","76","","","","5","","18","","24.1","","100.09","","","","","","Mostly Cloudy"
"-94.07","58.74","CHURCHILL A","5060605","2022-06-30 13:00","2022","06","30","13:00","8.1","","3.8","","74","","","","5","","16","","24.1","","100.08","","","","","","NA"
"-94.07","58.74","CHURCHILL A","5060605","2022-06-30 14:00","2022","06","30","14:00","7.9","","3.4","","73","","","","4","","15","","24.1","","100.12","","","","","","NA"
"-94.07","58.74","CHURCHILL A","5060605","2022-06-30 15:00","2022","06","30","15:00","7.1","","3.7","","79","","","","4","","19","","24.1","","100.14","","","","","","Mainly Clear"
"-94.07","58.74","CHURCHILL A","5060605","2022-06-30 16:00","2022","06","30","16:00","6.6","","3.4","","80","","","","4","","20","","24.1","","100.17","","","","","","NA"
"-94.07","58.74","CHURCHILL A","5060605","2022-06-30 17:00","2022","06","30","17:00","6.9","","3.7","","80","","","","2","","14","","24.1","","100.19","","","","","","NA"
"-94.07","58.74","CHURCHILL A","5060605","2022-06-30 18:00","2022","06","30","18:00","6.2","","2.9","","79","","","","4","","16","","24.1","","100.19","","","","","","Mainly Clear"
"-94.07","58.74","CHURCHILL A","5060605","2022-06-30 19:00","2022","06","30","19:00","5.0","","3.3","","89","","","","36","","22","","24.1","","100.26","","","","","","NA"
"-94.07","58.74","CHURCHILL A","5060605","2022-06-30 20:00","2022","06","30","20:00","4.1","","3.1","","93","","","","1","","17","","24.1","","100.27","","","","","","NA"
"-94.07","58.74","CHURCHILL A","5060605","2022-06-30 21:00","2022","06","30","21:00","4.1","","2.9","","92","","","","36","","23","","24.1","","100.26","","","","","","Mostly Cloudy"
"-94.07","58.74","CHURCHILL A","5060605","2022-06-30 22:00","2022","06","30","22:00","3.9","","3.0","","94","","","","36","","20","","24.1","","100.24","","","","","","NA"
"-94.07","58.74","CHURCHILL A","5060605","2022-06-30 23:00","2022","06","30","23:00","4.0","","3.1","","94","","","","33","","17","","24.1","","100.19","","","","","","NA"
