"Longitude (x)","Latitude (y)","Station Name","Climate ID","Date/Time (LST)","Year","Month","Day","Time (LST)","Temp (°C)","Temp Flag","Dew Point Temp (°C)","Dew Point Temp Flag","Rel Hum (%)","Rel Hum Flag","Precip. Amount (mm)","Precip. Amount Flag","Wind Dir (10s deg)","Wind Dir Flag","Wind Spd (km/h)","Wind Spd Flag","Visibility (km)","Visibility Flag","Stn Press (kPa)","Stn Press Flag","Hmdx","Hmdx Flag","Wind Chill","Wind Chill Flag","Weather"
"-94.07","58.74","CHURCHILL A","5060605","2022-07-01 00:00","2022","07","01","00:00","4.7","","3.5","","92","","","","32","","21","","24.1","","100.14","","","","","","Cloudy"
"-94.07","58.74","CHURCHILL A","5060605","2022-07-01 01:00","2022","07","01","01:00","5.7","","3.7","","87","","","","33","","27","","24.1","","100.04","","","","","","NA"
"-94.07","58.74","CHURCHILL A","5060605","2022-07-01 02:00","2022","07","01","02:00","6.6","","4.6","","87","","","","33","","27","","24.1","","99.91","","","","","","NA"
"-94.07","58.74","CHURCHILL A","5060605","2022-07-01 03:00","2022","07","01","03:00","5.3","","4.6","","95","","","","33","","34","","16.1","","99.82","","","","","","Rain"
"-94.07","58.74","CHURCHILL A","5060605","2022-07-01 04:00","2022","07","01","04:00","5.8","","5.2","","96","","","","34","","39","","12.9","","99.69","","","","","","Rain"
"-94.07","58.74","CHURCHILL A","5060605","2022-07-01 05:00","2022","07","01","05:00","4.4","","3.8","","96","","","","35","","40","","4.8","","99.64","","","","","","Rain,Fog"
"-94.07","58.74","CHURCHILL A","5060605","2022-07-01 06:00","2022","07","01","06:00","3.4","","2.8","","96","","","","36","","41","","6.4","","99.67","","","","","","Rain,Fog"
"-94.07","58.74","CHURCHILL A","5060605","2022-07-01 07:00","2022","07","01","07:00","3.3","","2.7","","96","","","","1","","43","","9.7","","99.71","","","","","","Rain,Fog"
"-94.07","58.74","CHURCHILL A","5060605","2022-07-01 08:00","2022","07","01","08:00","3.5","","3.1","","97","","","","36","","43","","9.7","","99.80","","","","","","Rain,Fog"
"-94.07","58.74","CHURCHILL A","5060605","2022-07-01 09:00","2022","07","01","09:00","3.7","","3.3","","97","","","","36","","45","","1.2","","99.84","","","","","","Rain,Fog"
"-94.07","58.74","CHURCHILL A","5060605","2022-07-01 10:00","2022","07","01","10:00","4.0","","3.7","","98","","","","35","","40","","12.9","","99.91","","","","","","NA"
"-94.07","58.74","CHURCHILL A","5060605","2022-07-01 11:00","2022","07","01","11:00","4.5","","4.1","","97","","","","36","","45","","19.3","","100.02","","","","","","NA"
"-94.07","58.74","CHURCHILL A","5060605","2022-07-01 12:00","2022","07","01","12:00","5.1","","3.4","","89","","","","35","","45","","24.1","","100.11","","","","","","Cloudy"
"-94.07","58.74","CHURCHILL A","5060605","2022-07-01 13:00","2022","07","01","13:00","5.7","","2.5","","80","","","","35","","43","","24.1","","100.21","","","","","","NA"
"-94.07","58.74","CHURCHILL A","5060605","2022-07-01 14:00","2022","07","01","14:00","6.2","","3.0","","80","","","","36","","48","","24.1","","100.31","","","","","","NA"
"-94.07","58.74","CHURCHILL A","5060605","2022-07-01 15:00","2022","07","01","15:00","5.8","","3.0","","82","","","","35","","36","","24.1","","100.39","","","","","","Rain"
"-94.07","58.74","CHURCHILL A","5060605","2022-07-01 16:00","2022","07","01","16:00","6.4","","2.6","","77","","","","35","","37","","24.1","","100.47","","","","","","Rain"
"-94.07","58.74","CHURCHILL A","5060605","2022-07-01 17:00","2022","07","01","17:00","6.4","","2.1","","74","","","","36","","31","","24.1","","100.54","","","","","","NA"
"-94.07","58.74","CHURCHILL A","5060605","2022-07-01 18:00","2022","07","01","18:00","6.5","","1.2","","69","","","","1","","30","","24.1","","100.59","","","","","","Mostly Cloudy"
"-94.07","58.74","CHURCHILL A","5060605","2022-07-01 19:00","2022","07","01","19:00","6.3","","2.2","","75","","","","1","","22","","24.1","","100.63","","","","","","NA"
"-94.07","58.74","CHURCHILL A","5060605","2022-07-01 20:00","2022","07","01","20:00","5.6","","2.3","","79","","","","34","","17","","24.1","","100.67","","","","","","NA"
"-94.07","58.74","CHURCHILL A","5060605","2022-07-01 21:00","2022","07","01","21:00","5.4","","1.9","","78","","","","35","","19","","24.1","","100.70","","","","","","Mostly Cloudy"
"-94.07","58.74","CHURCHILL A","5060605","2022-07-01 22:00","2022","07","01","22:00","5.2","","2.1","","81","","","","33","","19","","24.1","","100.72","","","","","","NA"
"-94.07","58.74","CHURCHILL A","5060605","2022-07-01 23:00","2022","07","01","23:00","5.6","","2.4","","80","","","","33","","21","","24.1","","100.73","","","","","","NA"
"-94.07","58.74","CHURCHILL A","5060605","2022-07-02 00:00","2022","07","02","00:00","6.3","","2.8","","78","","","","33","","21","","24.1","","100.73","","","","","","Mostly Cloudy"
"-94.07","58.74","CHURCHILL A","5060605","2022-07-02 01:00","2022","07","02","01:00","5.8","","2.6","","80","","","","34","","21","","24.1","","100.74","","","","","","NA"
"-94.07","58.74","CHURCHILL A","5060605","2022-07-02 02:00","2022","07","02","02:00","5.3","","2.6","","83","","","","34","","19","","24.1","","100.75","","","","","","NA"
"-94.07","58.74","CHURCHILL A","5060605","2022-07-02 03:00","2022","07","02","03:00","4.7","","2.1","","83","","","","35","","19","","24.1","","100.75","","","","","","Mostly Cloudy"
"-94.07","58.74","CHURCHILL A","5060605","2022-07-02 04:00","2022","07","02","04:00","4.4","","1.9","","84","","","","34","","20","","24.1","","100.78","","","","","","NA"
"-94.07","58.74","CHURCHILL A","5060605","2022-07-02 05:00","2022","07","02","05:00","5.1","","2.1","","81","","","","36","","19","","24.1","","100.83","","","","","","NA"
"-94.07","58.74","CHURCHILL A","5060605","2022-07-02 06:00","2022","07","02","06:00","7.1","","2.6","","73","","","","36","","19","","24.1","","100.83","","","","","","Mainly Clear"
"-94.07","58.74","CHURCHILL A","5060605","2022-07-02 07:00","2022","07","02","07:00","8.4","","2.9","","68","","","","35","","15","","24.1","","100.87","","","","","","NA"
"-94.07","58.74","CHURCHILL A","5060605","2022-07-02 08:00","2022","07","02","08:00","9.0","","3.2","","67","","","","32","","12","","24.1","","100.89","","","","","","NA"
"-94.07","58.74","CHURCHILL A","5060605","2022-07-02 09:00","2022","07","02","09:00","11.1","","3.5","","59","","","","32","","8","","24.1","","100.90","","","","","","Mainly Clear"
"-94.07","58.74","CHURCHILL A","5060605","2022-07-02 10:00","2022","07","02","10:00","10.2","","3.7","","64","","","","2","","13","","24.1","","100.92","","","","","","NA"
"-94.07","58.74","CHURCHILL A","5060605","2022-07-02 11:00","2022","07","02","11:00","11.7","","3.7","","58","","","","5","","12","","24.1","","100.95","","","","","","NA"
"-94.07","58.74","CHURCHILL A","5060605","2022-07-02 12:00","2022","07","02","12:00","13.5","","4.5","","54","","","","6","","12","","24.1","","100.95","","","","","","Mainly Clear"
"-94.07","58.74","CHURCHILL A","5060605","2022-07-02 13:00","2022","07","02","13:00","14.4","","4.1","","50","","","","6","","16","","24.1","","100.97","","","","","","NA"
"-94.07","58.74","CHURCHILL A","5060605","2022-07-02 14:00","2022","07","02","14:00","13.8","","5.1","","55","","","","6","","17","","24.1","","100.97","","","","","","NA"
"-94.07","58.74","CHURCHILL A","5060605","2022-07-02 15:00","2022","07","02","15:00","13.6","","5.1","","56","","","","6","","17","","24.1","","100.97","","","","","","Mostly Cloudy"
"-94.07","58.74","CHURCHILL A","5060605","2022-07-02 16:00","2022","07","02","16:00","13.7","","4.8","","55","","","","8","","19","","24.1","","100.97","","","","","","NA"
"-94.07","58.74","CHURCHILL A","5060605","2022-07-02 17:00","2022","07","02","17:00","12.7","","3.7","","54","","","","9","","22","","24.1","","100.97","","","","","","NA"
"-94.07","58.74","CHURCHILL A","5060605","2022-07-02 18:00","2022","07","02","18:00","11.8","","4.5","","61","","","","9","","21","","24.1","","100.97","","","","","","Mostly Cloudy"
"-94.07","58.74","CHURCHILL A","5060605","2022-07-02 19:00","2022","07","02","19:00","11.5","","4.3","","61","","","","10","","14","","24.1","","100.98","","","","","","NA"
"-94.07","58.74","CHURCHILL A","5060605","2022-07-02 20:00","2022","07","02","20:00","10.9","","3.2","","59","","","","9","","11","","24.1","","100.99","","","","","","NA"
"-94.07","58.74","CHURCHILL A","5060605","2022-07-02 21:00","2022","07","02","21:00","8.4","","4.6","","77","","","","6","","9","","24.1","","101.00","","","","","","Mostly Cloudy"
"-94.07","58.74","CHURCHILL A","5060605","2022-07-02 22:00","2022","07","02","22:00","7.5","","4.6","","82","","","","8","","9","","24.1","","101.02","","","","","","NA"
"-94.07","58.74","CHURCHILL A","5060605","2022-07-02 23:00","2022","07","02","23:00","6.1","","4.6","","90","","","","9","","10","","24.1","","101.06","","","","","","NA"
"-94.07","58.74","CHURCHILL A","5060605","2022-07-03 00:00","2022","07","03","00:00","4.8","","3.5","","91","","","","7","","10","","24.1","","101.08","","","","","","Mainly Clear"
"-94.07","58.74","CHURCHILL A","5060605","2022-07-03 01:00","2022","07","03","01:00","4.4","","3.4","","93","","","","8","","11","","24.1","","101.09","","","","","","NA"
"-94.07","58.74","CHURCHILL A","5060605","2022-07-03 02:00","2022","07","03","02:00","3.7","","2.7","","93","","","","7","","16","","24.1","","101.12","","","","","","NA"
"-94.07","58.74","CHURCHILL A","5060605","2022-07-03 03:00","2022","07","03","03:00","3.5","","1.9","","89","","","","8","","14","","24.1","","101.15","","","","","","Mainly Clear"
"-94.07","58.74","CHURCHILL A","5060605","2022-07-03 04:00","2022","07","03","04:00","3.7","","2.4","","91","","","","9","","10","","24.1","","101.19","","","","","","NA"
"-94.07","58.74","CHURCHILL A","5060605","2022-07-03 05:00","2022","07","03","05:00","5.0","","3.3","","89","","","","8","","9","","24.1","","101.22","","","","","","NA"
"-94.07","58.74","CHURCHILL A","5060605","2022-07-03 06:00","2022","07","03","06:00","5.9","","3.2","","83","","","","6","","7","","24.1","","101.26","","","","","","Mainly Clear"
"-94.07","58.74","CHURCHILL A","5060605","2022-07-03 07:00","2022","07","03","07:00","6.2","","2.8","","79","","","","6","","7","","24.1","","101.31","","","","","","NA"
"-94.07","58.74","CHURCHILL A","5060605","2022-07-03 08:00","2022","07","03","08:00","7.2","","3.3","","76","","","","3","","12","","24.1","","101.34","","","","","","NA"
"-94.07","58.74","CHURCHILL A","5060605","2022-07-03 09:00","2022","07","03","09:00","7.4","","3.6","","77","","","","2","","14","","24.1","","101.37","","","","","","Mainly Clear"
"-94.07","58.74","CHURCHILL A","5060605","2022-07-03 10:00","2022","07","03","10:00","8.3","","3.5","","72","","","","2","","12","","24.1","","101.38","","","","","","NA"
"-94.07","58.74","CHURCHILL A","5060605","2022-07-03 11:00","2022","07","03","11:00","8.2","","3.3","","71","","","","3","","14","","24.1","","101.39","","","","","","NA"
"-94.07","58.74","CHURCHILL A","5060605","2022-07-03 12:00","2022","07","03","12:00","9.2","","3.5","","67","","","","4","","13","","24.1","","101.42","","","","","","Clear"
"-94.07","58.74","CHURCHILL A","5060605","2022-07-03 13:00","2022","07","03","13:00","8.4","","4.8","","78","","","","5","","16","","24.1","","101.45","","","","","","NA"
"-94.07","58.74","CHURCHILL A","5060605","2022-07-03 14:00","2022","07","03","14:00","7.4","","4.4","","81","","","","4","","20","","24.1","","101.48","","","","","","NA"
"-94.07","58.74","CHURCHILL A","5060605","2022-07-03 15:00","2022","07","03","15:00","6.5","","4.3","","86","","","","5","","20","","24.1","","101.52","","","","","","Clear"
"-94.07","58.74","CHURCHILL A","5060605","2022-07-03 16:00","2022","07","03","16:00","5.3","","3.5","","88","","","","4","","18","","24.1","","101.55","","","","","","NA"
"-94.07","58.74","CHURCHILL A","5060605","2022-07-03 17:00","2022","07","03","17:00","4.6","","2.6","","87","","","","4","","17","","1.6","","101.59","","","","","","Fog"
"-94.07","58.74","CHURCHILL A","5060605","2022-07-03 18:00","2022","07","03","18:00","2.8","","1.8","","93","","","","4","","19","","0.8","","101.61","","","","","","Fog"
"-94.07","58.74","CHURCHILL A","5060605","2022-07-03 19:00","2022","07","03","19:00","3.0","","1.7","","91","","","","4","","14","","24.1","","101.63","","","","","","NA"
"-94.07","58.74","CHURCHILL A","5060605","2022-07-03 20:00","2022","07","03","20:00","2.0","","1.3","","95","","","","3","","18","","0.4","","101.65","","","","","","Fog"
"-94.07","58.74","CHURCHILL A","5060605","2022-07-03 21:00","2022","07","03","21:00","1.3","","0.9","","97","","","","5","","12","","0.4","","101.67","","","","","","Fog"
"-94.07","58.74","CHURCHILL A","5060605","2022-07-03 22:00","2022","07","03","22:00","1.3","","0.9","","97","","","","3","","9","","0.4","","101.74","","","","","","Fog"
"-94.07","58.74","CHURCHILL A","5060605","2022-07-03 23:00","2022","07","03","23:00","1.8","","1.5","","98","","","","34","","4","","0.8","","101.76","","","","","","Fog"
"-94.07","58.74","CHURCHILL A","5060605","2022-07-04 00:00","2022","07","04","00:00","2.0","","1.7","","98","","","","36","","11","","3.2","","101.75","","","","","","Fog"
"-94.07","58.74","CHURCHILL A","5060605","2022-07-04 01:00","2022","07","04","01:00","2.5","","2.2","","98","","","","35","","12","","0.8","","101.77","","","","","","Fog"
"-94.07","58.74","CHURCHILL A","5060605","2022-07-04 02:00","2022","07","04","02:00","2.2","","1.9","","98","","","","35","","10","","0.2","","101.79","","","","","","Fog"
"-94.07","58.74","CHURCHILL A","5060605","2022-07-04 03:00","2022","07","04","03:00","3.2","","2.9","","98","","","","30","","9","","0.2","","101.80","","","","","","Fog"
"-94.07","58.74","CHURCHILL A","5060605","2022-07-04 04:00","2022","07","04","04:00","4.2","","3.9","","98","","","","29","","10","","0.2","","101.78","","","","","","Fog"
"-94.07","58.74","CHURCHILL A","5060605","2022-07-04 05:00","2022","07","04","05:00","4.9","","4.6","","98","","","","28","","14","","0.2","","101.77","","","","","","Fog"
"-94.07","58.74","CHURCHILL A","5060605","2022-07-04 06:00","2022","07","04","06:00","5.8","","5.5","","98","","","","29","","10","","1.6","","101.82","","","","","","Fog"
"-94.07","58.74","CHURCHILL A","5060605","2022-07-04 07:00","2022","07","04","07:00","7.6","","7.3","","98","","","","27","","12","","24.1","","101.83","","","","","","NA"
"-94.07","58.74","CHURCHILL A","5060605","2022-07-04 08:00","2022","07","04","08:00","11.6","","6.1","","69","","","","26","","13","","24.1","","101.84","","","","","","NA"
"-94.07","58.74","CHURCHILL A","5060605","2022-07-04 09:00","2022","07","04","09:00","14.1","","6.6","","60","","","","27","","17","","24.1","","101.82","","","","","","Mainly Clear"
"-94.07","58.74","CHURCHILL A","5060605","2022-07-04 10:00","2022","07","04","10:00","16.7","","5.8","","48","","","","30","","17","","24.1","","101.78","","","","","","NA"
"-94.07","58.74","CHURCHILL A","5060605","2022-07-04 11:00","2022","07","04","11:00","16.4","","6.1","","50","","","","32","","21","","24.1","","101.74","","","","","","NA"
"-94.07","58.74","CHURCHILL A","5060605","2022-07-04 12:00","2022","07","04","12:00","17.2","","6.3","","48","","","","34","","19","","24.1","","101.73","","","","","","Mostly Cloudy"
"-94.07","58.74","CHURCHILL A","5060605","2022-07-04 13:00","2022","07","04","13:00","18.3","","6.7","","46","","","","35","","14","","24.1","","101.70","","","","","","NA"
"-94.07","58.74","CHURCHILL A","5060605","2022-07-04 14:00","2022","07","04","14:00","18.5","","6.1","","44","","","","36","","14","","24.1","","101.68","","","","","","NA"
"-94.07","58.74","CHURCHILL A","5060605","2022-07-04 15:00","2022","07","04","15:00","16.5","","6.2","","50","","","","36","","19","","24.1","","101.70","","","","","","Mostly Cloudy"
"-94.07","58.74","CHURCHILL A","5060605","2022-07-04 16:00","2022","07","04","16:00","17.5","","6.1","","47","","","","34","","13","","24.1","","101.67","","","","","","NA"
"-94.07","58.74","CHURCHILL A","5060605","2022-07-04 17:00","2022","07","04","17:00","15.8","","7.3","","57","","","","35","","11","","24.1","","101.66","","","","","","NA"
"-94.07","58.74","CHURCHILL A","5060605","2022-07-04 18:00","2022","07","04","18:00","16.3","","6.8","","53","","","","32","","13","","24.1","","101.66","","","","","","Mostly Cloudy"
"-94.07","58.74","CHURCHILL A","5060605","2022-07-04 19:00","2022","07","04","19:00","16.2","","7.7","","57","","","","28","","12","","24.1","","101.63","","","","","","NA"
"-94.07","58.74","CHURCHILL A","5060605","2022-07-04 20:00","2022","07","04","20:00","15.9","","8.6","","61","","","","31","","5","","24.1","","101.60","","","","","","NA"
"-94.07","58.74","CHURCHILL A","5060605","2022-07-04 21:00","2022","07","04","21:00","14.6","","7.9","","64","","","","29","","5","","24.1","","101.60","","","","","","Mostly Cloudy"
"-94.07","58.74","CHURCHILL A","5060605","2022-07-04 22:00","2022","07","04","22:00","13.6","","9.1","","74","","","","25","","11","","24.1","","101.57","","","","","","NA"
"-94.07","58.74","CHURCHILL A","5060605","2022-07-04 23:00","2022","07","04","23:00","12.9","","9.4","","79","","","","27","","9","","24.1","","101.55","","","","","","NA"
"-94.07","58.74","CHURCHILL A","5060605","2022-07-05 00:00","2022","07","05","00:00","13.1","","8.7","","74","","","","26","","12","","24.1","","101.51","","","","","","Mostly Cloudy"
"-94.07","58.74","CHURCHILL A","5060605","2022-07-05 01:00","2022","07","05","01:00","13.3","","9.4","","77","","","","27","","12","","24.1","","101.51","","","","","","NA"
"-94.07","58.74","CHURCHILL A","5060605","2022-07-05 02:00","2022","07","05","02:00","11.6","","8.7","","82","","","","26","","13","","24.1","","101.50","","","","","","NA"
"-94.07","58.74","CHURCHILL A","5060605","2022-07-05 03:00","2022","07","05","03:00","11.6","","8.7","","82","","","","27","","10","","24.1","","101.50","","","","","","Mainly Clear"
"-94.07","58.74","CHURCHILL A","5060605","2022-07-05 04:00","2022","07","05","04:00","12.0","","8.7","","80","","","","27","","12","","24.1","","101.50","","","","","","NA"
"-94.07","58.74","CHURCHILL A","5060605","2022-07-05 05:00","2022","07","05","05:00","11.8","","8.3","","79","","","","29","","11","","24.1","","101.49","","","","","","NA"
"-94.07","58.74","CHURCHILL A","5060605","2022-07-05 06:00","2022","07","05","06:00","12.4","","8.5","","77","","","","29","","14","","24.1","","101.47","","","","","","Mostly Cloudy"
"-94.07","58.74","CHURCHILL A","5060605","2022-07-05 07:00","2022","07","05","07:00","14.0","","8.7","","70","","","","29","","15","","24.1","","101.47","","","","","","NA"
"-94.07","58.74","CHURCHILL A","5060605","2022-07-05 08:00","2022","07","05","08:00","16.2","","8.5","","60","","","","31","","17","","24.1","","101.46","","","","","","NA"
"-94.07","58.74","CHURCHILL A","5060605","2022-07-05 09:00","2022","07","05","09:00","17.1","","8.7","","57","","","","31","","16","","24.1","","101.44","","","","","","Mostly Cloudy"
"-94.07","58.74","CHURCHILL A","5060605","2022-07-05 10:00","2022","07","05","10:00","18.2","","8.4","","53","","","","28","","15","","24.1","","101.42","","","","","","NA"
"-94.07","58.74","CHURCHILL A","5060605","2022-07-05 11:00","2022","07","05","11:00","19.2","","8.9","","51","","","","31","","18","","24.1","","101.38","","","","","","NA"
"-94.07","58.74","CHURCHILL A","5060605","2022-07-05 12:00","2022","07","05","12:00","18.5","","8.7","","52","","","","33","","14","","24.1","","101.34","","","","","","Mostly Cloudy"
"-94.07","58.74","CHURCHILL A","5060605","2022-07-05 13:00","2022","07","05","13:00","17.6","","8.6","","55","","","","3","","15","","24.1","","101.33","","","","","","NA"
"-94.07","58.74","CHURCHILL A","5060605","2022-07-05 14:00","2022","07","05","14:00","17.3","","8.7","","57","","","","5","","10","","24.1","","101.31","","","","","","NA"
"-94.07","58.74","CHURCHILL A","5060605","2022-07-05 15:00","2022","07","05","15:00","17.8","","8.5","","54","","","","36","","1","","24.1","","101.29","","","","","","Cloudy"
"-94.07","58.74","CHURCHILL A","5060605","2022-07-05 16:00","2022","07","05","16:00","17.7","","8.5","","54","","","","6","","12","","24.1","","101.27","","","","","","NA"
"-94.07","58.74","CHURCHILL A","5060605","2022-07-05 17:00","2022","07","05","17:00","14.8","","9.2","","69","","","","9","","14","","24.1","","101.25","","","","","","NA"
"-94.07","58.74","CHURCHILL A","5060605","2022-07-05 18:00","2022","07","05","18:00","15.1","","10.5","","74","","","","10","","12","","24.1","","101.22","","","","","","Mostly Cloudy"
"-94.07","58.74","CHURCHILL A","5060605","2022-07-05 19:00","2022","07","05","19:00","15.0","","10.2","","73","","","","15","","8","","24.1","","101.21","","","","","","NA"
"-94.07","58.74","CHURCHILL A","5060605","2022-07-05 20:00","2022","07","05","20:00","14.9","","10.4","","74","","","","18","","9","","24.1","","101.18","","","","","","NA"
"-94.07","58.74","CHURCHILL A","5060605","2022-07-05 21:00","2022","07","05","21:00","14.0","","11.2","","83","","","","14","","7","","24.1","","101.18","","","","","","Mostly Cloudy"
"-94.07","58.74","CHURCHILL A","5060605","2022-07-05 22:00","2022","07","05","22:00","13.3","","11.0","","86","","","","17","","11","","24.1","","101.15","","","","","","NA"
"-94.07","58.74","CHURCHILL A","5060605","2022-07-05 23:00","2022","07","05","23:00","12.8","","10.4","","85","","","","20","","10","","24.1","","101.14","","","","","","NA"
"-94.07","58.74","CHURCHILL A","5060605","2022-07-06 00:00","2022","07","06","00:00","12.4","","10.0","","85","","","","21","","9","","24.1","","101.15","","","","","","Mostly Cloudy"
"-94.07","58.74","CHURCHILL A","5060605","2022-07-06 01:00","2022","07","06","01:00","11.7","","10.0","","89","","","","23","","9","","24.1","","101.15","","","","","","NA"
"-94.07","58.74","CHURCHILL A","5060605","2022-07-06 02:00","2022","07","06","02:00","12.0","","10.6","","91","","","","25","","9","","24.1","","101.15","","","","","","NA"
"-94.07","58.74","CHURCHILL A","5060605","2022-07-06 03:00","2022","07","06","03:00","11.6","","10.7","","94","","","","29","","9","","24.1","","101.14","","","","","","Mainly Clear"
"-94.07","58.74","CHURCHILL A","5060605","2022-07-06 04:00","2022","07","06","04:00","11.5","","10.6","","94","","","","34","","11","","24.1","","101.15","","","","","","NA"
"-94.07","58.74","CHURCHILL A","5060605","2022-07-06 05:00","2022","07","06","05:00","11.0","","10.0","","93","","","","1","","13","","24.1","","101.15","","","","","","NA"
"-94.07","58.74","CHURCHILL A","5060605","2022-07-06 06:00","2022","07","06","06:00","13.3","","8.6","","73","","","","2","","11","","24.1","","101.15","","","","","","Mainly Clear"
"-94.07","58.74","CHURCHILL A","5060605","2022-07-06 07:00","2022","07","06","07:00","13.7","","8.1","","69","","","","31","","6","","24.1","","101.17","","","","","","NA"
"-94.07","58.74","CHURCHILL A","5060605","2022-07-06 08:00","2022","07","06","08:00","15.1","","7.5","","60","","","","36","","7","","24.1","","101.16","","","","","","NA"
"-94.07","58.74","CHURCHILL A","5060605","2022-07-06 09:00","2022","07","06","09:00","15.9","","7.6","","58","","","","34","","11","","24.1","","101.15","","","","","","Clear"
"-94.07","58.74","CHURCHILL A","5060605","2022-07-06 10:00","2022","07","06","10:00","17.2","","8.5","","56","","","","34","","12","","24.1","","101.16","","","","","","NA"
"-94.07","58.74","CHURCHILL A","5060605","2022-07-06 11:00","2022","07","06","11:00","18.3","","8.4","","52","","","","34","","14","","24.1","","101.13","","","","","","NA"
"-94.07","58.74","CHURCHILL A","5060605","2022-07-06 12:00","2022","07","06","12:00","19.1","","9.1","","52","","","","34","","16","","24.1","","101.12","","","","","","Clear"
"-94.07","58.74","CHURCHILL A","5060605","2022-07-06 13:00","2022","07","06","13:00","19.0","","9.4","","53","","","","1","","13","","24.1","","101.11","","","","","","NA"
"-94.07","58.74","CHURCHILL A","5060605","2022-07-06 14:00","2022","07","06","14:00","18.4","","9.2","","55","","","","3","","9","","24.1","","101.09","","","","","","NA"
"-94.07","58.74","CHURCHILL A","5060605","2022-07-06 15:00","2022","07","06","15:00","17.4","","10.1","","62","","","","6","","11","","24.1","","101.07","","","","","","Mostly Cloudy"
"-94.07","58.74","CHURCHILL A","5060605","2022-07-06 16:00","2022","07","06","16:00","16.4","","9.6","","64","","","","7","","15","","24.1","","101.08","","","","","","NA"
"-94.07","58.74","CHURCHILL A","5060605","2022-07-06 17:00","2022","07","06","17:00","17.2","","9.7","","61","","","","7","","16","","24.1","","101.06","","","","","","NA"
"-94.07","58.74","CHURCHILL A","5060605","2022-07-06 18:00","2022","07","06","18:00","17.2","","9.9","","62","","","","9","","18","","24.1","","101.05","","","","","","Mostly Cloudy"
"-94.07","58.74","CHURCHILL A","5060605","2022-07-06 19:00","2022","07","06","19:00","16.6","","8.4","","58","","","","11","","17","","24.1","","101.06","","","","","","NA"
"-94.07","58.74","CHURCHILL A","5060605","2022-07-06 20:00","2022","07","06","20:00","15.3","","8.4","","63","","","","11","","14","","24.1","","101.09","","","","","","NA"
"-94.07","58.74","CHURCHILL A","5060605","2022-07-06 21:00","2022","07","06","21:00","14.4","","8.6","","68","","","","12","","13","","24.1","","101.13","","","","","","Mostly Cloudy"
"-94.07","58.74","CHURCHILL A","5060605","2022-07-06 22:00","2022","07","06","22:00","13.3","","7.7","","69","","","","14","","12","","24.1","","101.16","","","","","","NA"
"-94.07","58.74","CHURCHILL A","5060605","2022-07-06 23:00","2022","07","06","23:00","11.9","","6.8","","71","","","","16","","11","","24.1","","101.20","","","","","","NA"
"-94.07","58.74","CHURCHILL A","5060605","2022-07-07 00:00","2022","07","07","00:00","11.4","","8.1","","80","","","","13","","10","","24.1","","101.22","","","","","","Mostly Cloudy"
"-94.07","58.74","CHURCHILL A","5060605","2022-07-07 01:00","2022","07","07","01:00","10.6","","8.5","","87","","","","13","","10","","24.1","","101.25","","","","","","NA"
"-94.07","58.74","CHURCHILL A","5060605","2022-07-07 02:00","2022","07","07","02:00","9.7","","8.3","","91","","","","13","","12","","24.1","","101.28","","","","","","NA"
"-94.07","58.74","CHURCHILL A","5060605","2022-07-07 03:00","2022","07","07","03:00","9.0","","7.8","","92","","","","15","","10","","24.1","","101.32","","","","","","Mainly Clear"
"-94.07","58.74","CHURCHILL A","5060605","2022-07-07 04:00","2022","07","07","04:00","8.7","","7.8","","94","","","","15","","10","","24.1","","101.34","","","","","","NA"
"-94.07","58.74","CHURCHILL A","5060605","2022-07-07 05:00","2022","07","07","05:00","10.1","","8.6","","90","","","","16","","8","","24.1","","101.38","","","","","","NA"
"-94.07","58.74","CHURCHILL A","5060605","2022-07-07 06:00","2022","07","07","06:00","12.3","","8.6","","78","","","","17","","7","","24.1","","101.41","","","","","","Clear"
"-94.07","58.74","CHURCHILL A","5060605","2022-07-07 07:00","2022","07","07","07:00","14.6","","8.3","","66","","","","18","","6","","24.1","","101.45","","","","","","NA"
"-94.07","58.74","CHURCHILL A","5060605","2022-07-07 08:00","2022","07","07","08:00","16.6","","5.5","","47","","","","17","","5","","24.1","","101.46","","","","","","NA"
"-94.07","58.74","CHURCHILL A","5060605","2022-07-07 09:00","2022","07","07","09:00","17.5","","4.3","","41","","","","4","","3","","24.1","","101.49","","","","","","Mainly Clear"
"-94.07","58.74","CHURCHILL A","5060605","2022-07-07 10:00","2022","07","07","10:00","18.1","","7.6","","50","","","","35","","7","","24.1","","101.51","","","","","","NA"
"-94.07","58.74","CHURCHILL A","5060605","2022-07-07 11:00","2022","07","07","11:00","17.8","","7.2","","50","","","","1","","12","","24.1","","101.53","","","","","","NA"
"-94.07","58.74","CHURCHILL A","5060605","2022-07-07 12:00","2022","07","07","12:00","18.4","","7.9","","50","","","","5","","13","","24.1","","101.53","","","","","","Mainly Clear"
"-94.07","58.74","CHURCHILL A","5060605","2022-07-07 13:00","2022","07","07","13:00","18.9","","6.2","","43","","","","6","","12","","24.1","","101.53","","","","","","NA"
"-94.07","58.74","CHURCHILL A","5060605","2022-07-07 14:00","2022","07","07","14:00","20.3","","4.3","","35","","","","9","","10","","24.1","","101.53","","","","","","NA"
"-94.07","58.74","CHURCHILL A","5060605","2022-07-07 15:00","2022","07","07","15:00","20.7","","4.8","","35","","","","8","","12","","24.1","","101.52","","","","","","Mainly Clear"
"-94.07","58.74","CHURCHILL A","5060605","2022-07-07 16:00","2022","07","07","16:00","20.9","","6.2","","38","","","","8","","11","","24.1","","101.52","","","","","","NA"
"-94.07","58.74","CHURCHILL A","5060605","2022-07-07 17:00","2022","07","07","17:00","20.9","","6.1","","38","","","","8","","13","","24.1","","101.49","","","","","","NA"
"-94.07","58.74","CHURCHILL A","5060605","2022-07-07 18:00","2022","07","07","18:00","21.0","","7.1","","40","","","","10","","13","","24.1","","101.47","","","","","","Mainly Clear"
"-94.07","58.74","CHURCHILL A","5060605","2022-07-07 19:00","2022","07","07","19:00","20.5","","7.8","","44","","","","11","","12","","24.1","","101.47","","","","","","NA"
"-94.07","58.74","CHURCHILL A","5060605","2022-07-07 20:00","2022","07","07","20:00","19.0","","9.6","","54","","","","11","","10","","24.1","","101.46","","","","","","NA"
"-94.07","58.74","CHURCHILL A","5060605","2022-07-07 21:00","2022","07","07","21:00","17.5","","10.1","","61","","","","14","","13","","24.1","","101.48","","","","","","Mostly Cloudy"
"-94.07","58.74","CHURCHILL A","5060605","2022-07-07 22:00","2022","07","07","22:00","15.5","","9.0","","65","","","","16","","14","","24.1","","101.49","","","","","","NA"
"-94.07","58.74","CHURCHILL A","5060605","2022-07-07 23:00","2022","07","07","23:00","14.2","","9.7","","74","","","","17","","13","","24.1","","101.51","","","","","","NA"
"-94.07","58.74","CHURCHILL A","5060605","2022-07-08 00:00","2022","07","08","00:00","14.2","","8.9","","70","","","","21","","15","","24.1","","101.52","","","","","","Mainly Clear"
"-94.07","58.74","CHURCHILL A","5060605","2022-07-08 01:00","2022","07","08","01:00","13.2","","9.3","","77","","","","20","","13","","24.1","","101.52","","","","","","NA"
"-94.07","58.74","CHURCHILL A","5060605","2022-07-08 02:00","2022","07","08","02:00","12.2","","8.7","","79","","","","20","","13","","24.1","","101.53","","","","","","NA"
"-94.07","58.74","CHURCHILL A","5060605","2022-07-08 03:00","2022","07","08","03:00","11.7","","8.4","","80","","","","20","","12","","24.1","","101.52","","","","","","Mainly Clear"
"-94.07","58.74","CHURCHILL A","5060605","2022-07-08 04:00","2022","07","08","04:00","11.4","","8.3","","81","","","","20","","12","","24.1","","101.54","","","","","","NA"
"-94.07","58.74","CHURCHILL A","5060605","2022-07-08 05:00","2022","07","08","05:00","11.6","","8.8","","83","","","","20","","15","","24.1","","101.53","","","","","","NA"
"-94.07","58.74","CHURCHILL A","5060605","2022-07-08 06:00","2022","07","08","06:00","14.0","","9.9","","76","","","","22","","10","","24.1","","101.55","","","","","","Mostly Cloudy"
"-94.07","58.74","CHURCHILL A","5060605","2022-07-08 07:00","2022","07","08","07:00","16.0","","10.7","","71","","","","22","","10","","24.1","","101.53","","","","","","NA"
"-94.07","58.74","CHURCHILL A","5060605","2022-07-08 08:00","2022","07","08","08:00","18.5","","11.7","","64","","","","22","","8","","24.1","","101.51","","","","","","NA"
"-94.07","58.74","CHURCHILL A","5060605","2022-07-08 09:00","2022","07","08","09:00","21.1","","12.3","","57","","","","23","","8","","24.1","","101.51","","","","","","Mainly Clear"
"-94.07","58.74","CHURCHILL A","5060605","2022-07-08 10:00","2022","07","08","10:00","24.1","","11.7","","45","","","","24","","9","","24.1","","101.47","","26","","","","NA"
"-94.07","58.74","CHURCHILL A","5060605","2022-07-08 11:00","2022","07","08","11:00","26.0","","9.9","","36","","","","26","","15","","24.1","","101.42","","27","","","","NA"
"-94.07","58.74","CHURCHILL A","5060605","2022-07-08 12:00","2022","07","08","12:00","26.8","","10.8","","36","","","","28","","14","","24.1","","101.39","","28","","","","Mainly Clear"
"-94.07","58.74","CHURCHILL A","5060605","2022-07-08 13:00","2022","07","08","13:00","27.8","","9.1","","30","","","","29","","16","","24.1","","101.36","","29","","","","NA"
"-94.07","58.74","CHURCHILL A","5060605","2022-07-08 14:00","2022","07","08","14:00","28.0","","9.1","","30","","","","33","","14","","24.1","","101.34","","29","","","","NA"
"-94.07","58.74","CHURCHILL A","5060605","2022-07-08 15:00","2022","07","08","15:00","28.3","","10.2","","32","","","","29","","7","","24.1","","101.30","","30","","","","Mainly Clear"
"-94.07","58.74","CHURCHILL A","5060605","2022-07-08 16:00","2022","07","08","16:00","28.5","","8.9","","29","","","","33","","9","","24.1","","101.29","","29","","","","NA"
"-94.07","58.74","CHURCHILL A","5060605","2022-07-08 17:00","2022","07","08","17:00","28.4","","7.9","","27","","","","36","","1","","24.1","","101.26","","29","","","","NA"
"-94.07","58.74","CHURCHILL A","5060605","2022-07-08 18:00","2022","07","08","18:00","28.4","","9.4","","30","","","","29","","4","","24.1","","101.23","","29","","","","Mainly Clear"
"-94.07","58.74","CHURCHILL A","5060605","2022-07-08 19:00","2022","07","08","19:00","27.6","","9.0","","31","","","","36","","1","","24.1","","101.19","","28","","","","NA"
"-94.07","58.74","CHURCHILL A","5060605","2022-07-08 20:00","2022","07","08","20:00","26.4","","12.8","","42","","","","17","","7","","19.3","","101.17","","29","","","","NA"
"-94.07","58.74","CHURCHILL A","5060605","2022-07-08 21:00","2022","07","08","21:00","24.5","","10.8","","42","","","","20","","9","","24.1","","101.17","","26","","","","Mainly Clear"
"-94.07","58.74","CHURCHILL A","5060605","2022-07-08 22:00","2022","07","08","22:00","23.2","","10.4","","44","","","","22","","10","","24.1","","101.16","","25","","","","NA"
"-94.07","58.74","CHURCHILL A","5060605","2022-07-08 23:00","2022","07","08","23:00","22.2","","11.1","","49","","","","24","","10","","24.1","","101.16","","","","","","NA"
"-94.07","58.74","CHURCHILL A","5060605","2022-07-09 00:00","2022","07","09","00:00","20.5","","10.6","","53","","","","23","","8","","24.1","","101.14","","","","","","Mainly Clear"
"-94.07","58.74","CHURCHILL A","5060605","2022-07-09 01:00","2022","07","09","01:00","18.9","","11.2","","61","","","","36","","2","","24.1","","101.13","","","","","","NA"
"-94.07","58.74","CHURCHILL A","5060605","2022-07-09 02:00","2022","07","09","02:00","17.8","","11.8","","67","","","","24","","9","","24.1","","101.11","","","","","","NA"
"-94.07","58.74","CHURCHILL A","5060605","2022-07-09 03:00","2022","07","09","03:00","17.0","","10.7","","66","","","","24","","11","","19.3","","101.07","","","","","","Clear"
"-94.07","58.74","CHURCHILL A","5060605","2022-07-09 04:00","2022","07","09","04:00","16.9","","10.4","","65","","","","24","","11","","19.3","","101.06","","","","","","NA"
"-94.07","58.74","CHURCHILL A","5060605","2022-07-09 05:00","2022","07","09","05:00","16.8","","10.7","","67","","","","25","","10","","19.3","","101.04","","","","","","NA"
"-94.07","58.74","CHURCHILL A","5060605","2022-07-09 06:00","2022","07","09","06:00","17.9","","12.0","","68","","","","24","","9","","19.3","","101.03","","","","","","Clear"
"-94.07","58.74","CHURCHILL A","5060605","2022-07-09 07:00","2022","07","09","07:00","20.3","","12.7","","61","","","","36","","4","","19.3","","101.02","","","","","","NA"
"-94.07","58.74","CHURCHILL A","5060605","2022-07-09 08:00","2022","07","09","08:00","22.0","","11.8","","52","","","","7","","4","","16.1","","101.00","","","","","","NA"
"-94.07","58.74","CHURCHILL A","5060605","2022-07-09 09:00","2022","07","09","09:00","24.3","","13.6","","51","","","","8","","7","","19.3","","100.98","","27","","","","Clear"
"-94.07","58.74","CHURCHILL A","5060605","2022-07-09 10:00","2022","07","09","10:00","21.6","","13.7","","60","","","","5","","14","","19.3","","100.94","","25","","","","NA"
"-94.07","58.74","CHURCHILL A","5060605","2022-07-09 11:00","2022","07","09","11:00","24.0","","15.9","","60","","","","7","","12","","24.1","","100.89","","29","","","","NA"
"-94.07","58.74","CHURCHILL A","5060605","2022-07-09 12:00","2022","07","09","12:00","26.8","","17.4","","56","","","","7","","18","","19.3","","100.82","","32","","","","Mainly Clear"
"-94.07","58.74","CHURCHILL A","5060605","2022-07-09 13:00","2022","07","09","13:00","28.1","","13.1","","39","","","","10","","23","","24.1","","100.77","","31","","","","NA"
"-94.07","58.74","CHURCHILL A","5060605","2022-07-09 14:00","2022","07","09","14:00","28.0","","12.3","","37","","","","10","","23","","19.3","","100.73","","30","","","","NA"
"-94.07","58.74","CHURCHILL A","5060605","2022-07-09 15:00","2022","07","09","15:00","27.2","","12.7","","40","","","","9","","27","","19.3","","100.68","","30","","","","Mainly Clear"
"-94.07","58.74","CHURCHILL A","5060605","2022-07-09 16:00","2022","07","09","16:00","26.2","","12.8","","43","","","","10","","28","","19.3","","100.65","","29","","","","NA"
"-94.07","58.74","CHURCHILL A","5060605","2022-07-09 17:00","2022","07","09","17:00","24.9","","11.8","","43","","","","10","","28","","19.3","","100.61","","27","","","","NA"
"-94.07","58.74","CHURCHILL A","5060605","2022-07-09 18:00","2022","07","09","18:00","23.6","","11.5","","46","","","","11","","21","","19.3","","100.59","","26","","","","Mainly Clear"
"-94.07","58.74","CHURCHILL A","5060605","2022-07-09 19:00","2022","07","09","19:00","20.7","","11.9","","57","","","","9","","21","","24.1","","100.54","","","","","","NA"
"-94.07","58.74","CHURCHILL A","5060605","2022-07-09 20:00","2022","07","09","20:00","18.5","","10.8","","61","","","","11","","19","","24.1","","100.54","","","","","","NA"
"-94.07","58.74","CHURCHILL A","5060605","2022-07-09 21:00","2022","07","09","21:00","17.0","","10.2","","64","","","","12","","20","","19.3","","100.52","","","","","","Mostly Cloudy"
"-94.07","58.74","CHURCHILL A","5060605","2022-07-09 22:00","2022","07","09","22:00","15.1","","9.1","","67","","","","12","","26","","24.1","","100.52","","","","","","NA"
"-94.07","58.74","CHURCHILL A","5060605","2022-07-09 23:00","2022","07","09","23:00","13.7","","8.8","","72","","","","12","","25","","24.1","","100.50","","","","","","NA"
"-94.07","58.74","CHURCHILL A","5060605","2022-07-10 00:00","2022","07","10","00:00","13.3","","8.6","","73","","","","11","","16","","24.1","","100.48","","","","","","Mostly Cloudy"
"-94.07","58.74","CHURCHILL A","5060605","2022-07-10 01:00","2022","07","10","01:00","12.3","","8.8","","79","","","","12","","23","","24.1","","100.43","","","","","","NA"
"-94.07","58.74","CHURCHILL A","5060605","2022-07-10 02:00","2022","07","10","02:00","11.3","","8.2","","81","","","","10","","22","","19.3","","100.40","","","","","","NA"
"-94.07","58.74","CHURCHILL A","5060605","2022-07-10 03:00","2022","07","10","03:00","11.0","","7.8","","80","","","","10","","23","","19.3","","100.38","","","","","","Mostly Cloudy"
"-94.07","58.74","CHURCHILL A","5060605","2022-07-10 04:00","2022","07","10","04:00","10.2","","7.6","","84","","","","11","","22","","19.3","","100.40","","","","","","NA"
"-94.07","58.74","CHURCHILL A","5060605","2022-07-10 05:00","2022","07","10","05:00","9.8","","6.9","","82","","","","12","","28","","19.3","","100.42","","","","","","NA"
"-94.07","58.74","CHURCHILL A","5060605","2022-07-10 06:00","2022","07","10","06:00","10.3","","7.4","","82","","","","12","","25","","24.1","","100.45","","","","","","Mostly Cloudy"
"-94.07","58.74","CHURCHILL A","5060605","2022-07-10 07:00","2022","07","10","07:00","11.2","","7.5","","78","","","","12","","29","","24.1","","100.46","","","","","","NA"
"-94.07","58.74","CHURCHILL A","5060605","2022-07-10 08:00","2022","07","10","08:00","12.7","","8.0","","73","","","","12","","28","","24.1","","100.47","","","","","","NA"
"-94.07","58.74","CHURCHILL A","5060605","2022-07-10 09:00","2022","07","10","09:00","13.1","","7.9","","71","","","","12","","28","","24.1","","100.48","","","","","","Mostly Cloudy"
"-94.07","58.74","CHURCHILL A","5060605","2022-07-10 10:00","2022","07","10","10:00","12.9","","8.0","","72","","","","12","","25","","24.1","","100.51","","","","","","NA"
"-94.07","58.74","CHURCHILL A","5060605","2022-07-10 11:00","2022","07","10","11:00","12.8","","7.8","","72","","","","12","","27","","24.1","","100.50","","","","","","NA"
"-94.07","58.74","CHURCHILL A","5060605","2022-07-10 12:00","2022","07","10","12:00","12.4","","7.5","","72","","","","12","","28","","24.1","","100.53","","","","","","Cloudy"
"-94.07","58.74","CHURCHILL A","5060605","2022-07-10 13:00","2022","07","10","13:00","12.3","","8.5","","77","","","","11","","32","","24.1","","100.54","","","","","","NA"
"-94.07","58.74","CHURCHILL A","5060605","2022-07-10 14:00","2022","07","10","14:00","13.3","","6.4","","63","","","","11","","31","","24.1","","100.54","","","","","","NA"
"-94.07","58.74","CHURCHILL A","5060605","2022-07-10 15:00","2022","07","10","15:00","14.3","","6.4","","59","","","","11","","28","","24.1","","100.56","","","","","","Mostly Cloudy"
"-94.07","58.74","CHURCHILL A","5060605","2022-07-10 16:00","2022","07","10","16:00","13.9","","5.4","","56","","","","12","","30","","24.1","","100.59","","","","","","NA"
"-94.07","58.74","CHURCHILL A","5060605","2022-07-10 17:00","2022","07","10","17:00","6.4","","3.7","","83","","","","7","","22","","24.1","","100.63","","","","","","NA"
"-94.07","58.74","CHURCHILL A","5060605","2022-07-10 18:00","2022","07","10","18:00","8.3","","4.7","","78","","","","8","","18","","24.1","","100.66","","","","","","Mostly Cloudy"
"-94.07","58.74","CHURCHILL A","5060605","2022-07-10 19:00","2022","07","10","19:00","8.8","","5.1","","78","","","","11","","23","","24.1","","100.68","","","","","","NA"
"-94.07","58.74","CHURCHILL A","5060605","2022-07-10 20:00","2022","07","10","20:00","7.0","","5.2","","88","","","","10","","19","","19.3","","100.68","","","","","","NA"
"-94.07","58.74","CHURCHILL A","5060605","2022-07-10 21:00","2022","07","10","21:00","5.3","","4.3","","93","","","","10","","22","","24.1","","100.71","","","","","","Cloudy"
"-94.07","58.74","CHURCHILL A","5060605","2022-07-10 22:00","2022","07","10","22:00","4.8","","4.2","","96","","","","11","","21","","12.9","","100.73","","","","","","NA"
"-94.07","58.74","CHURCHILL A","5060605","2022-07-10 23:00","2022","07","10","23:00","4.3","","3.9","","97","","","","9","","14","","3.2","","100.76","","","","","","Fog"
"-94.07","58.74","CHURCHILL A","5060605","2022-07-11 00:00","2022","07","11","00:00","4.0","","3.6","","97","","","","9","","16","","3.2","","100.75","","","","","","Fog"
"-94.07","58.74","CHURCHILL A","5060605","2022-07-11 01:00","2022","07","11","01:00","3.9","","3.5","","97","","","","11","","17","","3.2","","100.75","","","","","","Fog"
"-94.07","58.74","CHURCHILL A","5060605","2022-07-11 02:00","2022","07","11","02:00","3.5","","3.1","","97","","","","8","","14","","4.8","","100.74","","","","","","Fog"
"-94.07","58.74","CHURCHILL A","5060605","2022-07-11 03:00","2022","07","11","03:00","1.9","","1.5","","97","","","","6","","13","","0.8","","100.78","","","","","","Fog"
"-94.07","58.74","CHURCHILL A","5060605","2022-07-11 04:00","2022","07","11","04:00","1.4","","1.1","","98","","","","6","","12","","0.4","","100.79","","","","","","Fog"
"-94.07","58.74","CHURCHILL A","5060605","2022-07-11 05:00","2022","07","11","05:00","2.4","","2.1","","98","","","","7","","10","","0.4","","100.82","","","","","","Fog"
"-94.07","58.74","CHURCHILL A","5060605","2022-07-11 06:00","2022","07","11","06:00","2.5","","2.2","","98","","","","7","","14","","0.6","","100.84","","","","","","Fog"
"-94.07","58.74","CHURCHILL A","5060605","2022-07-11 07:00","2022","07","11","07:00","4.3","","4.0","","98","","","","10","","16","","4.8","","100.85","","","","","","Fog"
"-94.07","58.74","CHURCHILL A","5060605","2022-07-11 08:00","2022","07","11","08:00","6.1","","4.2","","87","","","","12","","18","","24.1","","100.88","","","","","","NA"
"-94.07","58.74","CHURCHILL A","5060605","2022-07-11 09:00","2022","07","11","09:00","8.6","","4.8","","77","","","","13","","13","","24.1","","100.89","","","","","","Mainly Clear"
"-94.07","58.74","CHURCHILL A","5060605","2022-07-11 10:00","2022","07","11","10:00","10.3","","5.5","","72","","","","13","","16","","24.1","","100.89","","","","","","NA"
"-94.07","58.74","CHURCHILL A","5060605","2022-07-11 11:00","2022","07","11","11:00","11.0","","5.7","","69","","","","4","","8","","24.1","","100.90","","","","","","NA"
"-94.07","58.74","CHURCHILL A","5060605","2022-07-11 12:00","2022","07","11","12:00","10.6","","6.5","","76","","","","4","","17","","24.1","","100.90","","","","","","Mainly Clear"
"-94.07","58.74","CHURCHILL A","5060605","2022-07-11 13:00","2022","07","11","13:00","12.1","","7.2","","72","","","","5","","18","","24.1","","100.89","","","","","","NA"
"-94.07","58.74","CHURCHILL A","5060605","2022-07-11 14:00","2022","07","11","14:00","12.1","","7.3","","72","","","","5","","22","","24.1","","100.91","","","","","","NA"
"-94.07","58.74","CHURCHILL A","5060605","2022-07-11 15:00","2022","07","11","15:00","13.9","","8.1","","68","","","","10","","16","","24.1","","100.92","","","","","","Mainly Clear"
"-94.07","58.74","CHURCHILL A","5060605","2022-07-11 16:00","2022","07","11","16:00","13.9","","7.5","","65","","","","10","","20","","24.1","","100.91","","","","","","NA"
"-94.07","58.74","CHURCHILL A","5060605","2022-07-11 17:00","2022","07","11","17:00","12.0","","7.8","","75","","","","9","","16","","24.1","","100.90","","","","","","NA"
"-94.07","58.74","CHURCHILL A","5060605","2022-07-11 18:00","2022","07","11","18:00","12.9","","7.2","","68","","","","15","","20","","24.1","","100.89","","","","","","Mainly Clear"
"-94.07","58.74","CHURCHILL A","5060605","2022-07-11 19:00","2022","07","11","19:00","11.2","","6.9","","75","","","","14","","19","","24.1","","100.94","","","","","","NA"
"-94.07","58.74","CHURCHILL A","5060605","2022-07-11 20:00","2022","07","11","20:00","9.4","","6.3","","81","","","","17","","17","","24.1","","100.96","","","","","","NA"
"-94.07","58.74","CHURCHILL A","5060605","2022-07-11 21:00","2022","07","11","21:00","7.4","","5.7","","89","","","","16","","18","","24.1","","101.03","","","","","","Mainly Clear"
"-94.07","58.74","CHURCHILL A","5060605","2022-07-11 22:00","2022","07","11","22:00","7.0","","6.1","","94","","","","17","","14","","24.1","","101.02","","","","","","NA"
"-94.07","58.74","CHURCHILL A","5060605","2022-07-11 23:00","2022","07","11","23:00","6.8","","6.2","","96","","","","17","","14","","6.4","","101.02","","","","","","Fog"
"-94.07","58.74","CHURCHILL A","5060605","2022-07-12 00:00","2022","07","12","00:00","6.6","","6.2","","97","","","","18","","10","","3.2","","101.04","","","","","","Fog"
"-94.07","58.74","CHURCHILL A","5060605","2022-07-12 01:00","2022","07","12","01:00","6.1","","5.7","","97","","","","18","","9","","1.6","","101.04","","","","","","Fog"
"-94.07","58.74","CHURCHILL A","5060605","2022-07-12 02:00","2022","07","12","02:00","5.9","","5.6","","98","","","","17","","12","","2.4","","101.04","","","","","","Fog"
"-94.07","58.74","CHURCHILL A","5060605","2022-07-12 03:00","2022","07","12","03:00","5.7","","5.4","","98","","","","19","","8","","0.4","","101.05","","","","","","Fog"
"-94.07","58.74","CHURCHILL A","5060605","2022-07-12 04:00","2022","07","12","04:00","5.3","","5.0","","98","","","","20","","9","","0.4","","101.08","","","","","","Fog"
"-94.07","58.74","CHURCHILL A","5060605","2022-07-12 05:00","2022","07","12","05:00","5.1","","4.8","","98","","","","18","","10","","2.4","","101.10","","","","","","Fog"
"-94.07","58.74","CHURCHILL A","5060605","2022-07-12 06:00","2022","07","12","06:00","5.3","","5.0","","98","","","","21","","9","","2.4","","101.10","","","","","","Fog"
"-94.07","58.74","CHURCHILL A","5060605","2022-07-12 07:00","2022","07","12","07:00","6.9","","6.6","","98","","","","22","","11","","0.6","","101.11","","","","","","Fog"
"-94.07","58.74","CHURCHILL A","5060605","2022-07-12 08:00","2022","07","12","08:00","8.4","","7.7","","95","","","","23","","11","","19.3","","101.14","","","","","","NA"
"-94.07","58.74","CHURCHILL A","5060605","2022-07-12 09:00","2022","07","12","09:00","10.4","","8.1","","85","","","","21","","6","","24.1","","101.13","","","","","","Mainly Clear"
"-94.07","58.74","CHURCHILL A","5060605","2022-07-12 10:00","2022","07","12","10:00","14.2","","8.8","","70","","","","22","","7","","24.1","","101.09","","","","","","NA"
"-94.07","58.74","CHURCHILL A","5060605","2022-07-12 11:00","2022","07","12","11:00","16.7","","8.1","","56","","","","23","","8","","24.1","","101.08","","","","","","NA"
"-94.07","58.74","CHURCHILL A","5060605","2022-07-12 12:00","2022","07","12","12:00","19.0","","4.0","","37","","","","23","","9","","24.1","","101.05","","","","","","Mainly Clear"
"-94.07","58.74","CHURCHILL A","5060605","2022-07-12 13:00","2022","07","12","13:00","20.9","","3.1","","31","","","","23","","9","","24.1","","101.05","","","","","","NA"
"-94.07","58.74","CHURCHILL A","5060605","2022-07-12 14:00","2022","07","12","14:00","22.1","","6.9","","37","","","","23","","11","","24.1","","101.04","","","","","","NA"
"-94.07","58.74","CHURCHILL A","5060605","2022-07-12 15:00","2022","07","12","15:00","23.2","","5.6","","32","","","","21","","9","","24.1","","101.01","","","","","","Mainly Clear"
"-94.07","58.74","CHURCHILL A","5060605","2022-07-12 16:00","2022","07","12","16:00","24.1","","6.8","","33","","","","22","","15","","24.1","","100.98","","","","","","NA"
"-94.07","58.74","CHURCHILL A","5060605","2022-07-12 17:00","2022","07","12","17:00","24.3","","7.2","","33","","","","23","","14","","24.1","","100.95","","","","","","NA"
"-94.07","58.74","CHURCHILL A","5060605","2022-07-12 18:00","2022","07","12","18:00","24.2","","8.4","","36","","","","21","","11","","24.1","","100.94","","25","","","","Mainly Clear"
"-94.07","58.74","CHURCHILL A","5060605","2022-07-12 19:00","2022","07","12","19:00","23.6","","9.0","","39","","","","22","","13","","24.1","","100.92","","","","","","NA"
"-94.07","58.74","CHURCHILL A","5060605","2022-07-12 20:00","2022","07","12","20:00","21.3","","9.8","","47","","","","20","","9","","24.1","","100.92","","","","","","NA"
"-94.07","58.74","CHURCHILL A","5060605","2022-07-12 21:00","2022","07","12","21:00","19.3","","10.2","","55","","","","19","","12","","24.1","","100.95","","","","","","Mainly Clear"
"-94.07","58.74","CHURCHILL A","5060605","2022-07-12 22:00","2022","07","12","22:00","17.0","","11.6","","70","","","","19","","14","","24.1","","100.96","","","","","","NA"
"-94.07","58.74","CHURCHILL A","5060605","2022-07-12 23:00","2022","07","12","23:00","15.4","","11.2","","76","","","","19","","15","","24.1","","100.98","","","","","","NA"
"-94.07","58.74","CHURCHILL A","5060605","2022-07-13 00:00","2022","07","13","00:00","15.5","","10.6","","72","","","","21","","15","","24.1","","101.00","","","","","","Clear"
"-94.07","58.74","CHURCHILL A","5060605","2022-07-13 01:00","2022","07","13","01:00","15.1","","10.8","","75","","","","22","","15","","24.1","","101.02","","","","","","NA"
"-94.07","58.74","CHURCHILL A","5060605","2022-07-13 02:00","2022","07","13","02:00","15.3","","10.7","","74","","","","23","","15","","24.1","","101.04","","","","","","NA"
"-94.07","58.74","CHURCHILL A","5060605","2022-07-13 03:00","2022","07","13","03:00","14.1","","10.6","","79","","","","23","","13","","24.1","","101.07","","","","","","Clear"
"-94.07","58.74","CHURCHILL A","5060605","2022-07-13 04:00","2022","07","13","04:00","13.7","","10.2","","79","","","","23","","12","","24.1","","101.09","","","","","","NA"
"-94.07","58.74","CHURCHILL A","5060605","2022-07-13 05:00","2022","07","13","05:00","14.5","","10.8","","78","","","","23","","13","","24.1","","101.11","","","","","","NA"
"-94.07","58.74","CHURCHILL A","5060605","2022-07-13 06:00","2022","07","13","06:00","15.8","","10.6","","71","","","","23","","11","","24.1","","101.12","","","","","","Clear"
"-94.07","58.74","CHURCHILL A","5060605","2022-07-13 07:00","2022","07","13","07:00","18.3","","11.3","","64","","","","23","","12","","24.1","","101.13","","","","","","NA"
"-94.07","58.74","CHURCHILL A","5060605","2022-07-13 08:00","2022","07","13","08:00","21.0","","11.7","","55","","","","25","","10","","24.1","","101.12","","","","","","NA"
"-94.07","58.74","CHURCHILL A","5060605","2022-07-13 09:00","2022","07","13","09:00","23.3","","12.2","","49","","","","25","","11","","24.1","","101.09","","26","","","","Clear"
"-94.07","58.74","CHURCHILL A","5060605","2022-07-13 10:00","2022","07","13","10:00","24.4","","13.3","","49","","","","28","","15","","24.1","","101.04","","27","","","","NA"
"-94.07","58.74","CHURCHILL A","5060605","2022-07-13 11:00","2022","07","13","11:00","26.2","","13.3","","44","","","","24","","12","","24.1","","101.02","","29","","","","NA"
"-94.07","58.74","CHURCHILL A","5060605","2022-07-13 12:00","2022","07","13","12:00","26.8","","12.0","","39","","","","24","","22","","24.1","","100.98","","29","","","","Clear"
"-94.07","58.74","CHURCHILL A","5060605","2022-07-13 13:00","2022","07","13","13:00","27.3","","12.3","","39","","","","21","","25","","24.1","","100.96","","30","","","","NA"
"-94.07","58.74","CHURCHILL A","5060605","2022-07-13 14:00","2022","07","13","14:00","28.2","","11.6","","35","","","","23","","22","","24.1","","100.93","","30","","","","NA"
"-94.07","58.74","CHURCHILL A","5060605","2022-07-13 15:00","2022","07","13","15:00","28.5","","11.1","","33","","","","21","","21","","24.1","","100.87","","30","","","","Mainly Clear"
"-94.07","58.74","CHURCHILL A","5060605","2022-07-13 16:00","2022","07","13","16:00","28.6","","11.8","","35","","","","23","","19","","24.1","","100.82","","31","","","","NA"
"-94.07","58.74","CHURCHILL A","5060605","2022-07-13 17:00","2022","07","13","17:00","28.5","","10.9","","33","","","","21","","19","","24.1","","100.78","","30","","","","NA"
"-94.07","58.74","CHURCHILL A","5060605","2022-07-13 18:00","2022","07","13","18:00","28.3","","11.2","","34","","","","18","","21","","24.1","","100.71","","30","","","","Mainly Clear"
"-94.07","58.74","CHURCHILL A","5060605","2022-07-13 19:00","2022","07","13","19:00","27.3","","11.2","","36","","","","20","","19","","24.1","","100.68","","29","","","","NA"
"-94.07","58.74","CHURCHILL A","5060605","2022-07-13 20:00","2022","07","13","20:00","25.4","","12.1","","43","","","","19","","12","","24.1","","100.64","","28","","","","NA"
"-94.07","58.74","CHURCHILL A","5060605","2022-07-13 21:00","2022","07","13","21:00","22.9","","12.7","","52","","","","17","","15","","24.1","","100.64","","26","","","","Clear"
"-94.07","58.74","CHURCHILL A","5060605","2022-07-13 22:00","2022","07","13","22:00","21.0","","12.3","","57","","","","18","","17","","24.1","","100.65","","","","","","NA"
"-94.07","58.74","CHURCHILL A","5060605","2022-07-13 23:00","2022","07","13","23:00","19.3","","12.4","","64","","","","17","","16","","24.1","","100.64","","","","","","NA"
"-94.07","58.74","CHURCHILL A","5060605","2022-07-14 00:00","2022","07","14","00:00","18.2","","12.3","","68","","","","17","","17","","24.1","","100.60","","","","","","Clear"
"-94.07","58.74","CHURCHILL A","5060605","2022-07-14 01:00","2022","07","14","01:00","17.8","","12.2","","69","","","","17","","17","","24.1","","100.59","","","","","","NA"
"-94.07","58.74","CHURCHILL A","5060605","2022-07-14 02:00","2022","07","14","02:00","17.1","","11.9","","71","","","","18","","16","","24.1","","100.57","","","","","","NA"
"-94.07","58.74","CHURCHILL A","5060605","2022-07-14 03:00","2022","07","14","03:00","16.9","","11.8","","71","","","","18","","15","","24.1","","100.54","","","","","","Mainly Clear"
"-94.07","58.74","CHURCHILL A","5060605","2022-07-14 04:00","2022","07","14","04:00","17.4","","11.7","","69","","","","18","","18","","24.1","","100.47","","","","","","NA"
"-94.07","58.74","CHURCHILL A","5060605","2022-07-14 05:00","2022","07","14","05:00","18.3","","11.5","","64","","","","18","","18","","24.1","","100.38","","","","","","NA"
"-94.07","58.74","CHURCHILL A","5060605","2022-07-14 06:00","2022","07","14","06:00","19.8","","12.5","","62","","","","18","","20","","24.1","","100.32","","","","","","Mostly Cloudy"
"-94.07","58.74","CHURCHILL A","5060605","2022-07-14 07:00","2022","07","14","07:00","20.5","","13.3","","63","","","","17","","22","","24.1","","100.30","","","","","","NA"
"-94.07","58.74","CHURCHILL A","5060605","2022-07-14 08:00","2022","07","14","08:00","23.6","","13.6","","53","","","","19","","21","","24.1","","100.24","","27","","","","NA"
"-94.07","58.74","CHURCHILL A","5060605","2022-07-14 09:00","2022","07","14","09:00","24.9","","15.1","","54","","","","18","","25","","24.1","","100.15","","29","","","","Mostly Cloudy"
"-94.07","58.74","CHURCHILL A","5060605","2022-07-14 10:00","2022","07","14","10:00","26.4","","16.0","","52","","","","18","","27","","24.1","","100.07","","31","","","","NA"
"-94.07","58.74","CHURCHILL A","5060605","2022-07-14 11:00","2022","07","14","11:00","27.1","","16.6","","52","","","","19","","30","","24.1","","100.07","","32","","","","NA"
"-94.07","58.74","CHURCHILL A","5060605","2022-07-14 12:00","2022","07","14","12:00","25.3","","16.8","","59","","","","23","","27","","24.1","","100.07","","30","","","","Cloudy"
"-94.07","58.74","CHURCHILL A","5060605","2022-07-14 13:00","2022","07","14","13:00","23.9","","16.7","","64","","","","22","","28","","24.1","","100.06","","29","","","","NA"
"-94.07","58.74","CHURCHILL A","5060605","2022-07-14 14:00","2022","07","14","14:00","23.2","","17.1","","68","","","","22","","21","","24.1","","100.06","","29","","","","NA"
"-94.07","58.74","CHURCHILL A","5060605","2022-07-14 15:00","2022","07","14","15:00","22.7","","17.0","","70","","","","22","","21","","24.1","","100.00","","28","","","","Rain Showers"
"-94.07","58.74","CHURCHILL A","5060605","2022-07-14 16:00","2022","07","14","16:00","22.2","","17.8","","76","","","","22","","18","","24.1","","100.05","","28","","","","NA"
"-94.07","58.74","CHURCHILL A","5060605","2022-07-14 17:00","2022","07","14","17:00","21.6","","17.9","","79","","","","22","","18","","24.1","","100.06","","28","","","","NA"
"-94.07","58.74","CHURCHILL A","5060605","2022-07-14 18:00","2022","07","14","18:00","18.7","","17.6","","93","","","","16","","12","","24.1","","100.10","","","","","","Thunderstorms,Rain Showers"
"-94.07","58.74","CHURCHILL A","5060605","2022-07-14 19:00","2022","07","14","19:00","22.3","","19.2","","82","","","","22","","13","","24.1","","100.04","","29","","","","NA"
"-94.07","58.74","CHURCHILL A","5060605","2022-07-14 20:00","2022","07","14","20:00","20.9","","18.9","","88","","","","24","","11","","24.1","","100.05","","28","","","","NA"
"-94.07","58.74","CHURCHILL A","5060605","2022-07-14 21:00","2022","07","14","21:00","19.9","","18.4","","91","","","","22","","14","","24.1","","100.09","","","","","","Mainly Clear"
"-94.07","58.74","CHURCHILL A","5060605","2022-07-14 22:00","2022","07","14","22:00","19.1","","17.6","","91","","","","23","","13","","24.1","","100.11","","","","","","NA"
"-94.07","58.74","CHURCHILL A","5060605","2022-07-14 23:00","2022","07","14","23:00","19.4","","16.5","","83","","","","28","","16","","24.1","","100.14","","","","","","NA"
"-94.07","58.74","CHURCHILL A","5060605","2022-07-15 00:00","2022","07","15","00:00","17.8","","15.1","","84","","","","28","","10","","24.1","","100.17","","","","","","Mainly Clear"
"-94.07","58.74","CHURCHILL A","5060605","2022-07-15 01:00","2022","07","15","01:00","16.8","","13.1","","79","","","","29","","13","","24.1","","100.22","","","","","","NA"
"-94.07","58.74","CHURCHILL A","5060605","2022-07-15 02:00","2022","07","15","02:00","16.0","","10.5","","70","","","","34","","21","","24.1","","100.26","","","","","","NA"
"-94.07","58.74","CHURCHILL A","5060605","2022-07-15 03:00","2022","07","15","03:00","14.6","","10.7","","77","","","","30","","11","","24.1","","100.27","","","","","","Mainly Clear"
"-94.07","58.74","CHURCHILL A","5060605","2022-07-15 04:00","2022","07","15","04:00","13.9","","10.9","","82","","","","25","","11","","24.1","","100.31","","","","","","NA"
"-94.07","58.74","CHURCHILL A","5060605","2022-07-15 05:00","2022","07","15","05:00","13.6","","10.6","","82","","","","23","","9","","24.1","","100.34","","","","","","NA"
"-94.07","58.74","CHURCHILL A","5060605","2022-07-15 06:00","2022","07","15","06:00","15.6","","11.0","","74","","","","25","","12","","24.1","","100.39","","","","","","Mainly Clear"
"-94.07","58.74","CHURCHILL A","5060605","2022-07-15 07:00","2022","07","15","07:00","17.7","","11.5","","67","","","","24","","13","","24.1","","100.39","","","","","","NA"
"-94.07","58.74","CHURCHILL A","5060605","2022-07-15 08:00","2022","07","15","08:00","19.6","","11.6","","60","","","","26","","16","","24.1","","100.41","","","","","","NA"
"-94.07","58.74","CHURCHILL A","5060605","2022-07-15 09:00","2022","07","15","09:00","20.9","","11.9","","56","","","","28","","13","","24.1","","100.40","","","","","","Mainly Clear"
"-94.07","58.74","CHURCHILL A","5060605","2022-07-15 10:00","2022","07","15","10:00","22.5","","11.7","","50","","","","31","","16","","24.1","","100.40","","25","","","","NA"
"-94.07","58.74","CHURCHILL A","5060605","2022-07-15 11:00","2022","07","15","11:00","22.3","","12.0","","52","","","","33","","19","","24.1","","100.44","","25","","","","NA"
"-94.07","58.74","CHURCHILL A","5060605","2022-07-15 12:00","2022","07","15","12:00","22.6","","11.3","","48","","","","35","","20","","24.1","","100.45","","25","","","","Mainly Clear"
"-94.07","58.74","CHURCHILL A","5060605","2022-07-15 13:00","2022","07","15","13:00","23.2","","10.8","","45","","","","34","","14","","24.1","","100.43","","25","","","","NA"
"-94.07","58.74","CHURCHILL A","5060605","2022-07-15 14:00","2022","07","15","14:00","23.2","","10.4","","44","","","","1","","11","","24.1","","100.44","","25","","","","NA"
"-94.07","58.74","CHURCHILL A","5060605","2022-07-15 15:00","2022","07","15","15:00","23.1","","9.6","","42","","","","5","","8","","24.1","","100.45","","","","","","Mainly Clear"
"-94.07","58.74","CHURCHILL A","5060605","2022-07-15 16:00","2022","07","15","16:00","24.2","","9.0","","38","","","","36","","1","","24.1","","100.44","","25","","","","NA"
"-94.07","58.74","CHURCHILL A","5060605","2022-07-15 17:00","2022","07","15","17:00","24.6","","10.8","","41","","","","14","","4","","24.1","","100.42","","26","","","","NA"
"-94.07","58.74","CHURCHILL A","5060605","2022-07-15 18:00","2022","07","15","18:00","25.0","","10.7","","40","","","","36","","2","","24.1","","100.41","","27","","","","Mostly Cloudy"
"-94.07","58.74","CHURCHILL A","5060605","2022-07-15 19:00","2022","07","15","19:00","25.0","","11.5","","42","","","","29","","7","","24.1","","100.42","","27","","","","NA"
"-94.07","58.74","CHURCHILL A","5060605","2022-07-15 20:00","2022","07","15","20:00","23.6","","11.8","","47","","","","28","","7","","24.1","","100.45","","26","","","","NA"
"-94.07","58.74","CHURCHILL A","5060605","2022-07-15 21:00","2022","07","15","21:00","21.7","","11.8","","53","","","","24","","9","","24.1","","100.47","","","","","","Mainly Clear"
"-94.07","58.74","CHURCHILL A","5060605","2022-07-15 22:00","2022","07","15","22:00","19.8","","12.4","","62","","","","32","","11","","24.1","","100.50","","","","","","NA"
"-94.07","58.74","CHURCHILL A","5060605","2022-07-15 23:00","2022","07","15","23:00","17.6","","10.8","","64","","","","33","","10","","24.1","","100.54","","","","","","NA"
"-94.07","58.74","CHURCHILL A","5060605","2022-07-16 00:00","2022","07","16","00:00","16.1","","10.3","","68","","","","35","","17","","24.1","","100.60","","","","","","Clear"
"-94.07","58.74","CHURCHILL A","5060605","2022-07-16 01:00","2022","07","16","01:00","14.4","","9.9","","74","","","","35","","15","","24.1","","100.66","","","","","","NA"
"-94.07","58.74","CHURCHILL A","5060605","2022-07-16 02:00","2022","07","16","02:00","14.5","","11.1","","80","","","","36","","19","","24.1","","100.68","","","","","","NA"
"-94.07","58.74","CHURCHILL A","5060605","2022-07-16 03:00","2022","07","16","03:00","13.4","","11.3","","87","","","","35","","17","","24.1","","100.69","","","","","","Clear"
"-94.07","58.74","CHURCHILL A","5060605","2022-07-16 04:00","2022","07","16","04:00","13.3","","11.5","","89","","","","34","","13","","24.1","","100.73","","","","","","NA"
"-94.07","58.74","CHURCHILL A","5060605","2022-07-16 05:00","2022","07","16","05:00","14.1","","11.4","","84","","","","32","","13","","24.1","","100.76","","","","","","NA"
"-94.07","58.74","CHURCHILL A","5060605","2022-07-16 06:00","2022","07","16","06:00","15.4","","12.0","","80","","","","33","","14","","24.1","","100.79","","","","","","Mainly Clear"
"-94.07","58.74","CHURCHILL A","5060605","2022-07-16 07:00","2022","07","16","07:00","15.8","","11.8","","77","","","","33","","18","","24.1","","100.82","","","","","","NA"
"-94.07","58.74","CHURCHILL A","5060605","2022-07-16 08:00","2022","07","16","08:00","15.8","","11.4","","75","","","","34","","15","","24.1","","100.86","","","","","","NA"
"-94.07","58.74","CHURCHILL A","5060605","2022-07-16 09:00","2022","07","16","09:00","17.3","","11.3","","68","","","","34","","14","","24.1","","100.83","","","","","","Mainly Clear"
"-94.07","58.74","CHURCHILL A","5060605","2022-07-16 10:00","2022","07","16","10:00","17.9","","10.9","","63","","","","1","","13","","24.1","","100.81","","","","","","NA"
"-94.07","58.74","CHURCHILL A","5060605","2022-07-16 11:00","2022","07","16","11:00","18.4","","11.3","","63","","","","35","","8","","24.1","","100.83","","","","","","NA"
"-94.07","58.74","CHURCHILL A","5060605","2022-07-16 12:00","2022","07","16","12:00","20.4","","12.4","","60","","","","35","","7","","24.1","","100.80","","","","","","Mainly Clear"
"-94.07","58.74","CHURCHILL A","5060605","2022-07-16 13:00","2022","07","16","13:00","20.6","","12.7","","60","","","","1","","10","","24.1","","100.76","","","","","","NA"
"-94.07","58.74","CHURCHILL A","5060605","2022-07-16 14:00","2022","07","16","14:00","18.8","","12.1","","65","","","","7","","14","","24.1","","100.75","","","","","","NA"
"-94.07","58.74","CHURCHILL A","5060605","2022-07-16 15:00","2022","07","16","15:00","17.0","","11.5","","70","","","","7","","22","","24.1","","100.72","","","","","","Mostly Cloudy"
"-94.07","58.74","CHURCHILL A","5060605","2022-07-16 16:00","2022","07","16","16:00","17.6","","12.3","","71","","","","9","","19","","24.1","","100.71","","","","","","NA"
"-94.07","58.74","CHURCHILL A","5060605","2022-07-16 17:00","2022","07","16","17:00","17.7","","12.0","","69","","","","9","","22","","24.1","","100.67","","","","","","NA"
"-94.07","58.74","CHURCHILL A","5060605","2022-07-16 18:00","2022","07","16","18:00","17.6","","12.3","","71","","","","10","","22","","24.1","","100.65","","","","","","Mostly Cloudy"
"-94.07","58.74","CHURCHILL A","5060605","2022-07-16 19:00","2022","07","16","19:00","16.5","","12.2","","75","","","","11","","20","","24.1","","100.66","","","","","","NA"
"-94.07","58.74","CHURCHILL A","5060605","2022-07-16 20:00","2022","07","16","20:00","15.7","","11.3","","75","","","","13","","22","","24.1","","100.63","","","","","","NA"
"-94.07","58.74","CHURCHILL A","5060605","2022-07-16 21:00","2022","07","16","21:00","15.1","","11.6","","79","","","","13","","18","","24.1","","100.61","","","","","","Cloudy"
"-94.07","58.74","CHURCHILL A","5060605","2022-07-16 22:00","2022","07","16","22:00","14.5","","11.3","","81","","","","12","","18","","24.1","","100.56","","","","","","NA"
"-94.07","58.74","CHURCHILL A","5060605","2022-07-16 23:00","2022","07","16","23:00","14.1","","11.3","","83","","","","11","","16","","24.1","","100.57","","","","","","NA"
"-94.07","58.74","CHURCHILL A","5060605","2022-07-17 00:00","2022","07","17","00:00","12.8","","11.4","","91","","","","9","","16","","24.1","","100.58","","","","","","Cloudy"
"-94.07","58.74","CHURCHILL A","5060605","2022-07-17 01:00","2022","07","17","01:00","12.7","","11.6","","93","","","","12","","18","","24.1","","100.57","","","","","","Rain Showers"
"-94.07","58.74","CHURCHILL A","5060605","2022-07-17 02:00","2022","07","17","02:00","12.3","","11.1","","92","","","","13","","22","","24.1","","100.44","","","","","","Rain Showers"
"-94.07","58.74","CHURCHILL A","5060605","2022-07-17 03:00","2022","07","17","03:00","12.1","","10.8","","92","","","","11","","22","","24.1","","100.35","","","","","","Cloudy"
"-94.07","58.74","CHURCHILL A","5060605","2022-07-17 04:00","2022","07","17","04:00","11.4","","10.2","","92","","","","11","","27","","24.1","","100.26","","","","","","Rain Showers"
"-94.07","58.74","CHURCHILL A","5060605","2022-07-17 05:00","2022","07","17","05:00","10.8","","9.9","","94","","","","10","","28","","8.1","","100.25","","","","","","Rain Showers"
"-94.07","58.74","CHURCHILL A","5060605","2022-07-17 06:00","2022","07","17","06:00","10.9","","9.8","","93","","","","11","","19","","8.1","","100.29","","","","","","Rain Showers"
"-94.07","58.74","CHURCHILL A","5060605","2022-07-17 07:00","2022","07","17","07:00","10.4","","9.7","","96","","","","12","","22","","19.3","","100.27","","","","","","Rain Showers"
"-94.07","58.74","CHURCHILL A","5060605","2022-07-17 08:00","2022","07","17","08:00","10.1","","9.3","","95","","","","12","","35","","19.3","","100.23","","","","","","Rain Showers"
"-94.07","58.74","CHURCHILL A","5060605","2022-07-17 09:00","2022","07","17","09:00","10.1","","9.3","","95","","","","10","","21","","24.1","","100.32","","","","","","Cloudy"
"-94.07","58.74","CHURCHILL A","5060605","2022-07-17 10:00","2022","07","17","10:00","9.3","","8.2","","93","","","","5","","18","","24.1","","100.35","","","","","","NA"
"-94.07","58.74","CHURCHILL A","5060605","2022-07-17 11:00","2022","07","17","11:00","8.0","","7.6","","97","","","","5","","28","","19.3","","100.33","","","","","","NA"
"-94.07","58.74","CHURCHILL A","5060605","2022-07-17 12:00","2022","07","17","12:00","8.3","","8.0","","98","","","","5","","24","","19.3","","100.33","","","","","","Cloudy"
"-94.07","58.74","CHURCHILL A","5060605","2022-07-17 13:00","2022","07","17","13:00","8.8","","8.5","","98","","","","5","","21","","1.6","","100.35","","","","","","Fog"
"-94.07","58.74","CHURCHILL A","5060605","2022-07-17 14:00","2022","07","17","14:00","9.0","","8.7","","98","","","","5","","16","","2.8","","100.38","","","","","","Fog"
"-94.07","58.74","CHURCHILL A","5060605","2022-07-17 15:00","2022","07","17","15:00","9.1","","8.8","","98","","","","5","","16","","2.4","","100.44","","","","","","Fog"
"-94.07","58.74","CHURCHILL A","5060605","2022-07-17 16:00","2022","07","17","16:00","9.0","","8.7","","98","","","","4","","13","","1.6","","100.44","","","","","","Fog"
"-94.07","58.74","CHURCHILL A","5060605","2022-07-17 17:00","2022","07","17","17:00","8.7","","8.6","","99","","","","4","","15","","1.6","","100.45","","","","","","Fog"
"-94.07","58.74","CHURCHILL A","5060605","2022-07-17 18:00","2022","07","17","18:00","8.8","","8.7","","99","","","","3","","13","","1.2","","100.47","","","","","","Fog"
"-94.07","58.74","CHURCHILL A","5060605","2022-07-17 19:00","2022","07","17","19:00","9.0","","8.8","","99","","","","3","","17","","1.2","","100.49","","","","","","Fog"
"-94.07","58.74","CHURCHILL A","5060605","2022-07-17 20:00","2022","07","17","20:00","8.9","","8.8","","99","","","","3","","16","","1.0","","100.50","","","","","","Fog"
"-94.07","58.74","CHURCHILL A","5060605","2022-07-17 21:00","2022","07","17","21:00","9.0","","8.8","","99","","","","2","","16","","1.0","","100.52","","","","","","Fog"
"-94.07","58.74","CHURCHILL A","5060605","2022-07-17 22:00","2022","07","17","22:00","9.0","","8.8","","99","","","","3","","13","","1.0","","100.49","","","","","","Fog"
"-94.07","58.74","CHURCHILL A","5060605","2022-07-17 23:00","2022","07","17","23:00","8.9","","8.8","","99","","","","36","","7","","1.2","","100.50","","","","","","Fog"
"-94.07","58.74","CHURCHILL A","5060605","2022-07-18 00:00","2022","07","18","00:00","9.1","","8.9","","99","","","","34","","11","","1.6","","100.51","","","","","","Fog"
"-94.07","58.74","CHURCHILL A","5060605","2022-07-18 01:00","2022","07","18","01:00","9.1","","8.9","","99","","","","33","","9","","3.2","","100.51","","","","","","Fog"
"-94.07","58.74","CHURCHILL A","5060605","2022-07-18 02:00","2022","07","18","02:00","9.0","","8.8","","99","","","","34","","7","","12.9","","100.49","","","","","","NA"
"-94.07","58.74","CHURCHILL A","5060605","2022-07-18 03:00","2022","07","18","03:00","9.5","","9.3","","99","","","","31","","10","","24.1","","100.50","","","","","","Mostly Cloudy"
"-94.07","58.74","CHURCHILL A","5060605","2022-07-18 04:00","2022","07","18","04:00","9.9","","9.6","","98","","","","31","","8","","24.1","","100.48","","","","","","NA"
"-94.07","58.74","CHURCHILL A","5060605","2022-07-18 05:00","2022","07","18","05:00","10.1","","9.7","","97","","","","28","","7","","24.1","","100.46","","","","","","NA"
"-94.07","58.74","CHURCHILL A","5060605","2022-07-18 06:00","2022","07","18","06:00","11.2","","10.3","","94","","","","27","","9","","24.1","","100.47","","","","","","Mainly Clear"
"-94.07","58.74","CHURCHILL A","5060605","2022-07-18 07:00","2022","07","18","07:00","12.6","","11.4","","92","","","","29","","9","","24.1","","100.48","","","","","","NA"
"-94.07","58.74","CHURCHILL A","5060605","2022-07-18 08:00","2022","07","18","08:00","13.1","","11.2","","88","","","","32","","11","","24.1","","100.50","","","","","","NA"
"-94.07","58.74","CHURCHILL A","5060605","2022-07-18 09:00","2022","07","18","09:00","12.7","","9.6","","81","","","","36","","9","","24.1","","100.51","","","","","","Mostly Cloudy"
"-94.07","58.74","CHURCHILL A","5060605","2022-07-18 10:00","2022","07","18","10:00","13.8","","9.0","","73","","","","36","","8","","24.1","","100.50","","","","","","NA"
"-94.07","58.74","CHURCHILL A","5060605","2022-07-18 11:00","2022","07","18","11:00","15.0","","8.6","","65","","","","30","","4","","24.1","","100.46","","","","","","NA"
"-94.07","58.74","CHURCHILL A","5060605","2022-07-18 12:00","2022","07","18","12:00","15.8","","9.3","","65","","","","30","","5","","24.1","","100.41","","","","","","Mainly Clear"
"-94.07","58.74","CHURCHILL A","5060605","2022-07-18 13:00","2022","07","18","13:00","16.2","","9.4","","64","","","","2","","12","","24.1","","100.38","","","","","","NA"
"-94.07","58.74","CHURCHILL A","5060605","2022-07-18 14:00","2022","07","18","14:00","16.6","","9.6","","63","","","","3","","9","","24.1","","100.36","","","","","","NA"
"-94.07","58.74","CHURCHILL A","5060605","2022-07-18 15:00","2022","07","18","15:00","16.6","","9.6","","63","","","","5","","12","","24.1","","100.33","","","","","","Mainly Clear"
"-94.07","58.74","CHURCHILL A","5060605","2022-07-18 16:00","2022","07","18","16:00","17.2","","10.0","","62","","","","5","","13","","24.1","","100.29","","","","","","NA"
"-94.07","58.74","CHURCHILL A","5060605","2022-07-18 17:00","2022","07","18","17:00","17.2","","9.4","","60","","","","8","","13","","24.1","","100.24","","","","","","NA"
"-94.07","58.74","CHURCHILL A","5060605","2022-07-18 18:00","2022","07","18","18:00","17.5","","10.6","","64","","","","9","","16","","24.1","","100.23","","","","","","Mostly Cloudy"
"-94.07","58.74","CHURCHILL A","5060605","2022-07-18 19:00","2022","07","18","19:00","16.8","","10.7","","67","","","","12","","18","","24.1","","100.21","","","","","","NA"
"-94.07","58.74","CHURCHILL A","5060605","2022-07-18 20:00","2022","07","18","20:00","16.1","","10.9","","71","","","","14","","20","","24.1","","100.16","","","","","","NA"
"-94.07","58.74","CHURCHILL A","5060605","2022-07-18 21:00","2022","07","18","21:00","14.3","","10.0","","75","","","","15","","21","","24.1","","100.13","","","","","","Mostly Cloudy"
"-94.07","58.74","CHURCHILL A","5060605","2022-07-18 22:00","2022","07","18","22:00","12.7","","9.4","","80","","","","15","","20","","24.1","","100.09","","","","","","NA"
"-94.07","58.74","CHURCHILL A","5060605","2022-07-18 23:00","2022","07","18","23:00","11.9","","9.7","","86","","","","15","","18","","24.1","","100.02","","","","","","NA"
"-94.07","58.74","CHURCHILL A","5060605","2022-07-19 00:00","2022","07","19","00:00","11.4","","9.8","","90","","","","15","","19","","24.1","","99.94","","","","","","Clear"
"-94.07","58.74","CHURCHILL A","5060605","2022-07-19 01:00","2022","07","19","01:00","12.9","","11.0","","88","","","","17","","18","","24.1","","99.88","","","","","","NA"
"-94.07","58.74","CHURCHILL A","5060605","2022-07-19 02:00","2022","07","19","02:00","14.0","","11.7","","86","","","","18","","19","","24.1","","99.80","","","","","","NA"
"-94.07","58.74","CHURCHILL A","5060605","2022-07-19 03:00","2022","07","19","03:00","15.6","","12.2","","80","","","","21","","23","","24.1","","99.73","","","","","","Mostly Cloudy"
"-94.07","58.74","CHURCHILL A","5060605","2022-07-19 04:00","2022","07","19","04:00","13.2","","11.9","","92","","","","16","","19","","24.1","","99.77","","","","","","Rain Showers"
"-94.07","58.74","CHURCHILL A","5060605","2022-07-19 05:00","2022","07","19","05:00","14.6","","13.0","","90","","","","19","","21","","24.1","","99.60","","","","","","NA"
"-94.07","58.74","CHURCHILL A","5060605","2022-07-19 06:00","2022","07","19","06:00","15.2","","13.4","","89","","","","19","","18","","24.1","","99.53","","","","","","Cloudy"
"-94.07","58.74","CHURCHILL A","5060605","2022-07-19 07:00","2022","07","19","07:00","17.0","","14.1","","83","","","","19","","18","","24.1","","99.46","","","","","","NA"
"-94.07","58.74","CHURCHILL A","5060605","2022-07-19 08:00","2022","07","19","08:00","19.1","","14.9","","77","","","","22","","19","","24.1","","99.42","","","","","","NA"
"-94.07","58.74","CHURCHILL A","5060605","2022-07-19 09:00","2022","07","19","09:00","22.1","","16.3","","69","","","","24","","15","","24.1","","99.33","","27","","","","Mostly Cloudy"
"-94.07","58.74","CHURCHILL A","5060605","2022-07-19 10:00","2022","07","19","10:00","23.7","","15.9","","61","","","","26","","17","","19.3","","99.29","","28","","","","NA"
"-94.07","58.74","CHURCHILL A","5060605","2022-07-19 11:00","2022","07","19","11:00","24.2","","16.8","","63","","","","30","","11","","9.7","","99.32","","29","","","","Smoke"
"-94.07","58.74","CHURCHILL A","5060605","2022-07-19 12:00","2022","07","19","12:00","23.4","","16.9","","67","","","","36","","18","","24.1","","99.34","","29","","","","Mostly Cloudy"
"-94.07","58.74","CHURCHILL A","5060605","2022-07-19 13:00","2022","07","19","13:00","21.9","","17.1","","74","","","","36","","22","","19.3","","99.34","","27","","","","NA"
"-94.07","58.74","CHURCHILL A","5060605","2022-07-19 14:00","2022","07","19","14:00","18.3","","15.1","","81","","","","2","","26","","19.3","","99.35","","","","","","NA"
"-94.07","58.74","CHURCHILL A","5060605","2022-07-19 15:00","2022","07","19","15:00","17.7","","15.0","","84","","","","5","","12","","24.1","","99.40","","","","","","Mostly Cloudy"
"-94.07","58.74","CHURCHILL A","5060605","2022-07-19 16:00","2022","07","19","16:00","13.5","","11.6","","88","","","","5","","22","","24.1","","99.40","","","","","","NA"
"-94.07","58.74","CHURCHILL A","5060605","2022-07-19 17:00","2022","07","19","17:00","12.0","","10.5","","90","","","","5","","27","","24.1","","99.43","","","","","","NA"
"-94.07","58.74","CHURCHILL A","5060605","2022-07-19 18:00","2022","07","19","18:00","11.6","","10.0","","90","","","","6","","24","","24.1","","99.47","","","","","","Mainly Clear"
"-94.07","58.74","CHURCHILL A","5060605","2022-07-19 19:00","2022","07","19","19:00","9.9","","8.7","","92","","","","6","","28","","24.1","","99.51","","","","","","NA"
"-94.07","58.74","CHURCHILL A","5060605","2022-07-19 20:00","2022","07","19","20:00","9.3","","8.7","","96","","","","8","","17","","4.8","","99.60","","","","","","Fog"
"-94.07","58.74","CHURCHILL A","5060605","2022-07-19 21:00","2022","07","19","21:00","8.2","","7.8","","97","","","","7","","17","","3.2","","99.66","","","","","","Fog"
"-94.07","58.74","CHURCHILL A","5060605","2022-07-19 22:00","2022","07","19","22:00","7.5","","7.1","","97","","","","7","","23","","1.6","","99.65","","","","","","Fog"
"-94.07","58.74","CHURCHILL A","5060605","2022-07-19 23:00","2022","07","19","23:00","7.3","","7.0","","98","","","","9","","26","","4.8","","99.60","","","","","","Fog"
"-94.07","58.74","CHURCHILL A","5060605","2022-07-20 00:00","2022","07","20","00:00","8.1","","7.8","","98","","","","11","","23","","6.4","","99.67","","","","","","Fog"
"-94.07","58.74","CHURCHILL A","5060605","2022-07-20 01:00","2022","07","20","01:00","8.4","","8.0","","97","","","","11","","21","","9.7","","99.66","","","","","","Fog"
"-94.07","58.74","CHURCHILL A","5060605","2022-07-20 02:00","2022","07","20","02:00","8.8","","8.2","","96","","","","11","","28","","12.9","","99.60","","","","","","NA"
"-94.07","58.74","CHURCHILL A","5060605","2022-07-20 03:00","2022","07","20","03:00","8.0","","7.4","","96","","","","10","","25","","19.3","","99.67","","","","","","Thunderstorms,Rain Showers"
"-94.07","58.74","CHURCHILL A","5060605","2022-07-20 04:00","2022","07","20","04:00","6.7","","6.3","","97","","","","7","","24","","0.8","","99.68","","","","","","Fog"
"-94.07","58.74","CHURCHILL A","5060605","2022-07-20 05:00","2022","07","20","05:00","6.9","","6.6","","98","","","","9","","29","","0.8","","99.59","","","","","","Fog"
"-94.07","58.74","CHURCHILL A","5060605","2022-07-20 06:00","2022","07","20","06:00","8.1","","7.8","","98","","","","12","","32","","6.4","","99.54","","","","","","Fog"
"-94.07","58.74","CHURCHILL A","5060605","2022-07-20 07:00","2022","07","20","07:00","8.4","","8.1","","98","","","","12","","27","","19.3","","99.59","","","","","","NA"
"-94.07","58.74","CHURCHILL A","5060605","2022-07-20 08:00","2022","07","20","08:00","8.7","","8.2","","97","","","","12","","33","","19.3","","99.55","","","","","","NA"
"-94.07","58.74","CHURCHILL A","5060605","2022-07-20 09:00","2022","07","20","09:00","9.1","","8.3","","95","","","","13","","30","","24.1","","99.56","","","","","","Cloudy"
"-94.07","58.74","CHURCHILL A","5060605","2022-07-20 10:00","2022","07","20","10:00","9.3","","8.2","","93","","","","12","","28","","24.1","","99.55","","","","","","NA"
"-94.07","58.74","CHURCHILL A","5060605","2022-07-20 11:00","2022","07","20","11:00"
"-94.07","58.74","CHURCHILL A","5060605","2022-07-20 12:00","2022","07","20","12:00","8.4","","7.3","","93","","","","11","","30","","24.1","","99.52","","","","","","Cloudy"
"-94.07","58.74","CHURCHILL A","5060605","2022-07-20 13:00","2022","07","20","13:00","7.5","","6.8","","95","","","","11","","25","","19.3","","99.52","","","","","","Thunderstorms,Rain Showers"
"-94.07","58.74","CHURCHILL A","5060605","2022-07-20 14:00","2022","07","20","14:00","7.2","","6.8","","97","","","","10","","22","","19.3","","99.51","","","","","","Rain Showers"
"-94.07","58.74","CHURCHILL A","5060605","2022-07-20 15:00","2022","07","20","15:00","6.6","","6.0","","96","","","","11","","30","","4.8","","99.52","","","","","","Rain Showers,Fog"
"-94.07","58.74","CHURCHILL A","5060605","2022-07-20 16:00","2022","07","20","16:00","6.4","","6.0","","97","","","","8","","31","","4.8","","99.38","","","","","","Rain Showers,Fog"
"-94.07","58.74","CHURCHILL A","5060605","2022-07-20 17:00","2022","07","20","17:00","6.5","","6.1","","97","","","","15","","24","","9.7","","99.51","","","","","","Rain Showers,Fog"
"-94.07","58.74","CHURCHILL A","5060605","2022-07-20 18:00","2022","07","20","18:00","5.9","","5.3","","96","","","","11","","26","","24.1","","99.44","","","","","","Cloudy"
"-94.07","58.74","CHURCHILL A","5060605","2022-07-20 19:00","2022","07","20","19:00","5.7","","5.1","","96","","","","15","","17","","24.1","","99.52","","","","","","NA"
"-94.07","58.74","CHURCHILL A","5060605","2022-07-20 20:00","2022","07","20","20:00","5.5","","5.1","","97","","","","13","","16","","6.4","","99.53","","","","","","Rain Showers,Fog"
"-94.07","58.74","CHURCHILL A","5060605","2022-07-20 21:00","2022","07","20","21:00","5.4","","5.0","","97","","","","9","","28","","6.4","","99.40","","","","","","Rain,Fog"
"-94.07","58.74","CHURCHILL A","5060605","2022-07-20 22:00","2022","07","20","22:00","5.2","","4.8","","97","","","","12","","25","","9.7","","99.49","","","","","","Rain,Fog"
"-94.07","58.74","CHURCHILL A","5060605","2022-07-20 23:00","2022","07","20","23:00","5.0","","4.6","","97","","","","8","","22","","19.3","","99.39","","","","","","NA"
"-94.07","58.74","CHURCHILL A","5060605","2022-07-21 00:00","2022","07","21","00:00","4.7","","4.3","","97","","","","11","","27","","24.1","","99.40","","","","","","Cloudy"
"-94.07","58.74","CHURCHILL A","5060605","2022-07-21 01:00","2022","07","21","01:00","4.7","","4.3","","97","","","","14","","17","","24.1","","99.44","","","","","","NA"
"-94.07","58.74","CHURCHILL A","5060605","2022-07-21 02:00","2022","07","21","02:00","4.7","","4.3","","97","","","","11","","16","","16.1","","99.42","","","","","","NA"
"-94.07","58.74","CHURCHILL A","5060605","2022-07-21 03:00","2022","07","21","03:00","4.5","","4.2","","98","","","","10","","16","","4.0","","99.39","","","","","","Fog"
"-94.07","58.74","CHURCHILL A","5060605","2022-07-21 04:00","2022","07","21","04:00","4.5","","4.2","","98","","","","11","","11","","3.2","","99.39","","","","","","Fog"
"-94.07","58.74","CHURCHILL A","5060605","2022-07-21 05:00","2022","07","21","05:00","4.5","","4.2","","98","","","","9","","12","","3.2","","99.41","","","","","","Fog"
"-94.07","58.74","CHURCHILL A","5060605","2022-07-21 06:00","2022","07","21","06:00","4.6","","4.3","","98","","","","10","","9","","24.1","","99.43","","","","","","Fog"
"-94.07","58.74","CHURCHILL A","5060605","2022-07-21 07:00","2022","07","21","07:00","4.8","","4.5","","98","","","","11","","6","","3.2","","99.46","","","","","","Fog"
"-94.07","58.74","CHURCHILL A","5060605","2022-07-21 08:00","2022","07","21","08:00","4.9","","4.6","","98","","","","5","","14","","1.6","","99.46","","","","","","Fog"
"-94.07","58.74","CHURCHILL A","5060605","2022-07-21 09:00","2022","07","21","09:00","5.4","","5.1","","98","","","","6","","14","","1.6","","99.46","","","","","","Fog"
"-94.07","58.74","CHURCHILL A","5060605","2022-07-21 10:00","2022","07","21","10:00","5.5","","5.2","","98","","","","5","","15","","1.2","","99.50","","","","","","Fog"
"-94.07","58.74","CHURCHILL A","5060605","2022-07-21 11:00","2022","07","21","11:00","5.5","","5.2","","98","","","","5","","15","","1.6","","99.53","","","","","","Fog"
"-94.07","58.74","CHURCHILL A","5060605","2022-07-21 12:00","2022","07","21","12:00","5.3","","5.0","","98","","","","4","","17","","3.2","","99.54","","","","","","Fog"
"-94.07","58.74","CHURCHILL A","5060605","2022-07-21 13:00","2022","07","21","13:00","5.3","","4.9","","97","","","","6","","17","","2.4","","99.58","","","","","","Fog"
"-94.07","58.74","CHURCHILL A","5060605","2022-07-21 14:00","2022","07","21","14:00","5.7","","4.8","","94","","","","5","","16","","9.7","","99.62","","","","","","Fog"
"-94.07","58.74","CHURCHILL A","5060605","2022-07-21 15:00","2022","07","21","15:00","5.3","","4.7","","96","","","","4","","17","","4.8","","99.65","","","","","","Fog"
"-94.07","58.74","CHURCHILL A","5060605","2022-07-21 16:00","2022","07","21","16:00","5.2","","4.8","","97","","","","5","","14","","3.2","","99.69","","","","","","Fog"
"-94.07","58.74","CHURCHILL A","5060605","2022-07-21 17:00","2022","07","21","17:00","5.2","","4.9","","98","","","","4","","18","","1.2","","99.74","","","","","","Fog"
"-94.07","58.74","CHURCHILL A","5060605","2022-07-21 18:00","2022","07","21","18:00","5.4","","5.1","","98","","","","3","","16","","0.8","","99.75","","","","","","Fog"
"-94.07","58.74","CHURCHILL A","5060605","2022-07-21 19:00","2022","07","21","19:00","5.5","","5.2","","98","","","","2","","17","","0.8","","99.80","","","","","","Fog"
"-94.07","58.74","CHURCHILL A","5060605","2022-07-21 20:00","2022","07","21","20:00","5.6","","5.3","","98","","","","3","","18","","0.6","","99.84","","","","","","Fog"
"-94.07","58.74","CHURCHILL A","5060605","2022-07-21 21:00","2022","07","21","21:00","5.4","","5.2","","98","","","","2","","17","","0.6","","99.89","","","","","","Fog"
"-94.07","58.74","CHURCHILL A","5060605","2022-07-21 22:00","2022","07","21","22:00","5.2","","5.1","","99","","","","2","","17","","0.6","","99.90","","","","","","Fog"
"-94.07","58.74","CHURCHILL A","5060605","2022-07-21 23:00","2022","07","21","23:00","5.3","","5.2","","99","","","","2","","14","","1.2","","99.92","","","","","","Fog"
"-94.07","58.74","CHURCHILL A","5060605","2022-07-22 00:00","2022","07","22","00:00","5.2","","5.1","","99","","","","1","","14","","1.6","","99.93","","","","","","Fog"
"-94.07","58.74","CHURCHILL A","5060605","2022-07-22 01:00","2022","07","22","01:00","5.1","","5.0","","99","","","","2","","18","","1.6","","99.95","","","","","","Fog"
"-94.07","58.74","CHURCHILL A","5060605","2022-07-22 02:00","2022","07","22","02:00","5.0","","4.9","","99","","","","3","","15","","1.2","","99.99","","","","","","Fog"
"-94.07","58.74","CHURCHILL A","5060605","2022-07-22 03:00","2022","07","22","03:00","4.6","","4.5","","99","","","","4","","17","","1.2","","100.02","","","","","","Fog"
"-94.07","58.74","CHURCHILL A","5060605","2022-07-22 04:00","2022","07","22","04:00","4.6","","4.5","","99","","","","4","","21","","2.0","","100.08","","","","","","Fog"
"-94.07","58.74","CHURCHILL A","5060605","2022-07-22 05:00","2022","07","22","05:00","4.1","","4.0","","99","","","","6","","20","","12.9","","100.15","","","","","","NA"
"-94.07","58.74","CHURCHILL A","5060605","2022-07-22 06:00","2022","07","22","06:00","4.2","","4.1","","99","","","","6","","22","","1.2","","100.21","","","","","","Fog"
"-94.07","58.74","CHURCHILL A","5060605","2022-07-22 07:00","2022","07","22","07:00","4.3","","4.2","","99","","","","6","","19","","0.4","","100.28","","","","","","Fog"
"-94.07","58.74","CHURCHILL A","5060605","2022-07-22 08:00","2022","07","22","08:00","5.3","","5.2","","99","","","","8","","18","","2.4","","100.36","","","","","","Fog"
"-94.07","58.74","CHURCHILL A","5060605","2022-07-22 09:00","2022","07","22","09:00","6.1","","6.0","","99","","","","7","","13","","0.8","","100.45","","","","","","Fog"
"-94.07","58.74","CHURCHILL A","5060605","2022-07-22 10:00","2022","07","22","10:00","5.1","","5.0","","99","","","","6","","20","","1.6","","100.53","","","","","","Fog"
"-94.07","58.74","CHURCHILL A","5060605","2022-07-22 11:00","2022","07","22","11:00","5.7","","5.6","","99","","","","5","","15","","1.2","","100.59","","","","","","Fog"
"-94.07","58.74","CHURCHILL A","5060605","2022-07-22 12:00","2022","07","22","12:00","6.0","","5.9","","99","","","","4","","16","","1.6","","100.68","","","","","","Fog"
"-94.07","58.74","CHURCHILL A","5060605","2022-07-22 13:00","2022","07","22","13:00","6.4","","6.2","","99","","","","2","","17","","19.3","","100.75","","","","","","NA"
"-94.07","58.74","CHURCHILL A","5060605","2022-07-22 14:00","2022","07","22","14:00","6.6","","6.4","","98","","","","2","","17","","24.1","","100.80","","","","","","NA"
"-94.07","58.74","CHURCHILL A","5060605","2022-07-22 15:00","2022","07","22","15:00","7.2","","6.8","","97","","","","1","","19","","24.1","","100.81","","","","","","Cloudy"
"-94.07","58.74","CHURCHILL A","5060605","2022-07-22 16:00","2022","07","22","16:00","7.3","","6.7","","96","","","","1","","21","","24.1","","100.86","","","","","","NA"
"-94.07","58.74","CHURCHILL A","5060605","2022-07-22 17:00","2022","07","22","17:00","7.4","","6.7","","95","","","","1","","18","","24.1","","100.91","","","","","","NA"
"-94.07","58.74","CHURCHILL A","5060605","2022-07-22 18:00","2022","07","22","18:00","7.3","","6.7","","96","","","","36","","18","","24.1","","100.94","","","","","","Cloudy"
"-94.07","58.74","CHURCHILL A","5060605","2022-07-22 19:00","2022","07","22","19:00","7.3","","6.7","","96","","","","36","","19","","19.3","","100.95","","","","","","NA"
"-94.07","58.74","CHURCHILL A","5060605","2022-07-22 20:00","2022","07","22","20:00","6.9","","6.5","","97","","","","35","","13","","19.3","","100.99","","","","","","NA"
"-94.07","58.74","CHURCHILL A","5060605","2022-07-22 21:00","2022","07","22","21:00","6.8","","6.4","","97","","","","2","","13","","19.3","","101.00","","","","","","Cloudy"
"-94.07","58.74","CHURCHILL A","5060605","2022-07-22 22:00","2022","07","22","22:00","6.6","","6.2","","97","","","","1","","14","","24.1","","101.01","","","","","","NA"
"-94.07","58.74","CHURCHILL A","5060605","2022-07-22 23:00","2022","07","22","23:00","6.3","","5.7","","96","","","","3","","16","","24.1","","101.03","","","","","","NA"
"-94.07","58.74","CHURCHILL A","5060605","2022-07-23 00:00","2022","07","23","00:00","5.9","","5.3","","96","","","","4","","12","","24.1","","101.04","","","","","","Mostly Cloudy"
"-94.07","58.74","CHURCHILL A","5060605","2022-07-23 01:00","2022","07","23","01:00","5.8","","5.4","","97","","","","4","","13","","24.1","","101.06","","","","","","NA"
"-94.07","58.74","CHURCHILL A","5060605","2022-07-23 02:00","2022","07","23","02:00","5.8","","5.5","","98","","","","3","","19","","24.1","","101.06","","","","","","NA"
"-94.07","58.74","CHURCHILL A","5060605","2022-07-23 03:00","2022","07","23","03:00","5.8","","5.4","","97","","","","1","","15","","24.1","","101.08","","","","","","Mostly Cloudy"
"-94.07","58.74","CHURCHILL A","5060605","2022-07-23 04:00","2022","07","23","04:00","5.9","","5.5","","97","","","","35","","11","","19.3","","101.10","","","","","","NA"
"-94.07","58.74","CHURCHILL A","5060605","2022-07-23 05:00","2022","07","23","05:00","6.7","","6.3","","97","","","","1","","18","","24.1","","101.13","","","","","","NA"
"-94.07","58.74","CHURCHILL A","5060605","2022-07-23 06:00","2022","07","23","06:00","7.6","","6.6","","93","","","","1","","20","","24.1","","101.17","","","","","","Mostly Cloudy"
"-94.07","58.74","CHURCHILL A","5060605","2022-07-23 07:00","2022","07","23","07:00","8.1","","6.4","","89","","","","36","","17","","24.1","","101.19","","","","","","NA"
"-94.07","58.74","CHURCHILL A","5060605","2022-07-23 08:00","2022","07","23","08:00","10.1","","6.8","","80","","","","36","","18","","24.1","","101.20","","","","","","NA"
"-94.07","58.74","CHURCHILL A","5060605","2022-07-23 09:00","2022","07","23","09:00","9.2","","6.6","","84","","","","35","","22","","24.1","","101.20","","","","","","Cloudy"
"-94.07","58.74","CHURCHILL A","5060605","2022-07-23 10:00","2022","07","23","10:00","9.3","","6.6","","83","","","","35","","20","","24.1","","101.19","","","","","","NA"
"-94.07","58.74","CHURCHILL A","5060605","2022-07-23 11:00","2022","07","23","11:00","9.1","","6.6","","84","","","","36","","21","","24.1","","101.20","","","","","","NA"
"-94.07","58.74","CHURCHILL A","5060605","2022-07-23 12:00","2022","07","23","12:00","10.0","","6.6","","79","","","","36","","25","","24.1","","101.17","","","","","","Cloudy"
"-94.07","58.74","CHURCHILL A","5060605","2022-07-23 13:00","2022","07","23","13:00","9.9","","6.6","","80","","","","35","","21","","24.1","","101.21","","","","","","NA"
"-94.07","58.74","CHURCHILL A","5060605","2022-07-23 14:00","2022","07","23","14:00","10.4","","6.6","","77","","","","34","","23","","24.1","","101.21","","","","","","NA"
"-94.07","58.74","CHURCHILL A","5060605","2022-07-23 15:00","2022","07","23","15:00","10.0","","6.7","","80","","","","36","","21","","24.1","","101.22","","","","","","Cloudy"
"-94.07","58.74","CHURCHILL A","5060605","2022-07-23 16:00","2022","07","23","16:00","10.5","","6.1","","74","","","","34","","21","","24.1","","101.19","","","","","","NA"
"-94.07","58.74","CHURCHILL A","5060605","2022-07-23 17:00","2022","07","23","17:00","10.2","","5.6","","73","","","","35","","21","","24.1","","101.19","","","","","","NA"
"-94.07","58.74","CHURCHILL A","5060605","2022-07-23 18:00","2022","07","23","18:00","10.2","","6.8","","79","","","","35","","20","","24.1","","101.18","","","","","","Cloudy"
"-94.07","58.74","CHURCHILL A","5060605","2022-07-23 19:00","2022","07","23","19:00","10.9","","7.2","","78","","","","35","","23","","24.1","","101.15","","","","","","NA"
"-94.07","58.74","CHURCHILL A","5060605","2022-07-23 20:00","2022","07","23","20:00","10.2","","7.3","","82","","","","36","","17","","24.1","","101.13","","","","","","NA"
"-94.07","58.74","CHURCHILL A","5060605","2022-07-23 21:00","2022","07","23","21:00","9.7","","7.3","","85","","","","35","","19","","24.1","","101.09","","","","","","Mostly Cloudy"
"-94.07","58.74","CHURCHILL A","5060605","2022-07-23 22:00","2022","07","23","22:00","8.7","","7.0","","89","","","","36","","18","","24.1","","101.09","","","","","","NA"
"-94.07","58.74","CHURCHILL A","5060605","2022-07-23 23:00","2022","07","23","23:00","8.4","","7.0","","91","","","","36","","19","","24.1","","101.08","","","","","","NA"
"-94.07","58.74","CHURCHILL A","5060605","2022-07-24 00:00","2022","07","24","00:00","8.4","","6.5","","88","","","","36","","18","","24.1","","101.05","","","","","","Mostly Cloudy"
"-94.07","58.74","CHURCHILL A","5060605","2022-07-24 01:00","2022","07","24","01:00","8.3","","6.6","","89","","","","35","","19","","24.1","","101.04","","","","","","NA"
"-94.07","58.74","CHURCHILL A","5060605","2022-07-24 02:00","2022","07","24","02:00","8.4","","6.7","","89","","","","34","","19","","24.1","","101.05","","","","","","NA"
"-94.07","58.74","CHURCHILL A","5060605","2022-07-24 03:00","2022","07","24","03:00","8.8","","6.4","","85","","","","35","","19","","24.1","","101.05","","","","","","Mostly Cloudy"
"-94.07","58.74","CHURCHILL A","5060605","2022-07-24 04:00","2022","07","24","04:00","9.2","","6.2","","81","","","","34","","22","","24.1","","101.04","","","","","","NA"
"-94.07","58.74","CHURCHILL A","5060605","2022-07-24 05:00","2022","07","24","05:00","9.8","","6.0","","77","","","","36","","21","","24.1","","101.04","","","","","","NA"
"-94.07","58.74","CHURCHILL A","5060605","2022-07-24 06:00","2022","07","24","06:00","10.2","","5.5","","72","","","","36","","23","","24.1","","101.06","","","","","","Mostly Cloudy"
"-94.07","58.74","CHURCHILL A","5060605","2022-07-24 07:00","2022","07","24","07:00","10.1","","5.9","","75","","","","1","","19","","24.1","","101.06","","","","","","NA"
"-94.07","58.74","CHURCHILL A","5060605","2022-07-24 08:00","2022","07","24","08:00","11.2","","6.4","","72","","","","36","","21","","24.1","","101.05","","","","","","NA"
"-94.07","58.74","CHURCHILL A","5060605","2022-07-24 09:00","2022","07","24","09:00","12.5","","7.2","","70","","","","1","","19","","24.1","","101.06","","","","","","Mostly Cloudy"
"-94.07","58.74","CHURCHILL A","5060605","2022-07-24 10:00","2022","07","24","10:00","13.4","","7.1","","66","","","","36","","19","","24.1","","101.05","","","","","","NA"
"-94.07","58.74","CHURCHILL A","5060605","2022-07-24 11:00","2022","07","24","11:00","13.0","","7.5","","69","","","","35","","18","","24.1","","101.06","","","","","","NA"
"-94.07","58.74","CHURCHILL A","5060605","2022-07-24 12:00","2022","07","24","12:00","13.8","","7.9","","67","","","","36","","20","","24.1","","101.07","","","","","","Mainly Clear"
"-94.07","58.74","CHURCHILL A","5060605","2022-07-24 13:00","2022","07","24","13:00","14.0","","8.3","","69","","","","36","","21","","24.1","","101.07","","","","","","NA"
"-94.07","58.74","CHURCHILL A","5060605","2022-07-24 14:00","2022","07","24","14:00","15.1","","7.9","","62","","","","35","","19","","24.1","","101.07","","","","","","NA"
"-94.07","58.74","CHURCHILL A","5060605","2022-07-24 15:00","2022","07","24","15:00","15.0","","7.0","","59","","","","36","","18","","24.1","","101.05","","","","","","Mainly Clear"
"-94.07","58.74","CHURCHILL A","5060605","2022-07-24 16:00","2022","07","24","16:00","14.7","","7.3","","61","","","","2","","16","","24.1","","101.05","","","","","","NA"
"-94.07","58.74","CHURCHILL A","5060605","2022-07-24 17:00","2022","07","24","17:00","14.4","","7.6","","63","","","","4","","16","","24.1","","101.02","","","","","","NA"
"-94.07","58.74","CHURCHILL A","5060605","2022-07-24 18:00","2022","07","24","18:00","12.9","","8.2","","73","","","","5","","16","","24.1","","101.00","","","","","","Mainly Clear"
"-94.07","58.74","CHURCHILL A","5060605","2022-07-24 19:00","2022","07","24","19:00","13.1","","7.3","","68","","","","6","","13","","24.1","","100.96","","","","","","NA"
"-94.07","58.74","CHURCHILL A","5060605","2022-07-24 20:00","2022","07","24","20:00","10.2","","8.2","","88","","","","5","","13","","24.1","","100.95","","","","","","NA"
"-94.07","58.74","CHURCHILL A","5060605","2022-07-24 21:00","2022","07","24","21:00","8.6","","7.7","","94","","","","7","","13","","24.1","","100.94","","","","","","Mainly Clear"
"-94.07","58.74","CHURCHILL A","5060605","2022-07-24 22:00","2022","07","24","22:00","8.3","","7.5","","95","","","","5","","6","","24.1","","100.92","","","","","","NA"
"-94.07","58.74","CHURCHILL A","5060605","2022-07-24 23:00","2022","07","24","23:00","7.7","","7.3","","97","","","","5","","4","","24.1","","100.92","","","","","","NA"
"-94.07","58.74","CHURCHILL A","5060605","2022-07-25 00:00","2022","07","25","00:00","7.6","","7.2","","97","","","","6","","8","","24.1","","100.90","","","","","","Mainly Clear"
"-94.07","58.74","CHURCHILL A","5060605","2022-07-25 01:00","2022","07","25","01:00","8.1","","7.7","","97","","","","30","","4","","24.1","","100.89","","","","","","NA"
"-94.07","58.74","CHURCHILL A","5060605","2022-07-25 02:00","2022","07","25","02:00","7.7","","7.1","","96","","","","5","","7","","24.1","","100.84","","","","","","NA"
"-94.07","58.74","CHURCHILL A","5060605","2022-07-25 03:00","2022","07","25","03:00","8.2","","7.8","","97","","","","34","","10","","24.1","","100.83","","","","","","Mostly Cloudy"
"-94.07","58.74","CHURCHILL A","5060605","2022-07-25 04:00","2022","07","25","04:00","8.7","","8.2","","97","","","","36","","10","","24.1","","100.81","","","","","","NA"
"-94.07","58.74","CHURCHILL A","5060605","2022-07-25 05:00","2022","07","25","05:00","9.3","","8.6","","95","","","","3","","9","","24.1","","100.79","","","","","","NA"
"-94.07","58.74","CHURCHILL A","5060605","2022-07-25 06:00","2022","07","25","06:00","8.5","","7.8","","95","","","","4","","7","","24.1","","100.77","","","","","","Mostly Cloudy"
"-94.07","58.74","CHURCHILL A","5060605","2022-07-25 07:00","2022","07","25","07:00","8.8","","7.7","","93","","","","5","","7","","24.1","","100.75","","","","","","NA"
"-94.07","58.74","CHURCHILL A","5060605","2022-07-25 08:00","2022","07","25","08:00","10.3","","8.1","","86","","","","3","","8","","24.1","","100.75","","","","","","NA"
"-94.07","58.74","CHURCHILL A","5060605","2022-07-25 09:00","2022","07","25","09:00","11.3","","8.3","","82","","","","5","","8","","24.1","","100.75","","","","","","Mainly Clear"
"-94.07","58.74","CHURCHILL A","5060605","2022-07-25 10:00","2022","07","25","10:00","12.1","","8.6","","79","","","","2","","11","","24.1","","100.74","","","","","","NA"
"-94.07","58.74","CHURCHILL A","5060605","2022-07-25 11:00","2022","07","25","11:00","12.6","","8.9","","78","","","","4","","9","","24.1","","100.71","","","","","","NA"
"-94.07","58.74","CHURCHILL A","5060605","2022-07-25 12:00","2022","07","25","12:00","13.3","","9.7","","78","","","","3","","13","","24.1","","100.70","","","","","","Mainly Clear"
"-94.07","58.74","CHURCHILL A","5060605","2022-07-25 13:00","2022","07","25","13:00","12.9","","9.7","","81","","","","2","","16","","24.1","","100.66","","","","","","NA"
"-94.07","58.74","CHURCHILL A","5060605","2022-07-25 14:00","2022","07","25","14:00","11.6","","9.2","","85","","","","3","","17","","24.1","","100.65","","","","","","NA"
"-94.07","58.74","CHURCHILL A","5060605","2022-07-25 15:00","2022","07","25","15:00","11.8","","8.9","","82","","","","4","","17","","24.1","","100.63","","","","","","Mostly Cloudy"
"-94.07","58.74","CHURCHILL A","5060605","2022-07-25 16:00","2022","07","25","16:00","10.8","","8.6","","86","","","","5","","18","","24.1","","100.62","","","","","","NA"
"-94.07","58.74","CHURCHILL A","5060605","2022-07-25 17:00","2022","07","25","17:00","11.0","","8.7","","86","","","","6","","18","","24.1","","100.62","","","","","","NA"
"-94.07","58.74","CHURCHILL A","5060605","2022-07-25 18:00","2022","07","25","18:00","10.1","","8.1","","87","","","","8","","19","","24.1","","100.62","","","","","","Mostly Cloudy"
"-94.07","58.74","CHURCHILL A","5060605","2022-07-25 19:00","2022","07","25","19:00","10.5","","8.8","","89","","","","7","","16","","24.1","","100.59","","","","","","NA"
"-94.07","58.74","CHURCHILL A","5060605","2022-07-25 20:00","2022","07","25","20:00","10.0","","8.6","","91","","","","6","","10","","24.1","","100.56","","","","","","NA"
"-94.07","58.74","CHURCHILL A","5060605","2022-07-25 21:00","2022","07","25","21:00","8.6","","7.8","","95","","","","6","","15","","24.1","","100.56","","","","","","Mostly Cloudy"
"-94.07","58.74","CHURCHILL A","5060605","2022-07-25 22:00","2022","07","25","22:00","8.2","","7.7","","96","","","","6","","17","","6.4","","100.56","","","","","","Fog"
"-94.07","58.74","CHURCHILL A","5060605","2022-07-25 23:00","2022","07","25","23:00","8.3","","8.0","","98","","","","5","","16","","0.8","","100.55","","","","","","Fog"
"-94.07","58.74","CHURCHILL A","5060605","2022-07-26 00:00","2022","07","26","00:00","8.1","","7.7","","97","","","","6","","11","","19.3","","100.55","","","","","","Cloudy"
"-94.07","58.74","CHURCHILL A","5060605","2022-07-26 01:00","2022","07","26","01:00","8.2","","7.5","","95","","","","6","","15","","24.1","","100.52","","","","","","NA"
"-94.07","58.74","CHURCHILL A","5060605","2022-07-26 02:00","2022","07","26","02:00","8.1","","7.3","","95","","","","7","","15","","24.1","","100.52","","","","","","NA"
"-94.07","58.74","CHURCHILL A","5060605","2022-07-26 03:00","2022","07","26","03:00","8.0","","7.2","","95","","","","6","","10","","24.1","","100.52","","","","","","Cloudy"
"-94.07","58.74","CHURCHILL A","5060605","2022-07-26 04:00","2022","07","26","04:00","7.8","","7.2","","96","","","","6","","11","","16.1","","100.50","","","","","","NA"
"-94.07","58.74","CHURCHILL A","5060605","2022-07-26 05:00","2022","07","26","05:00","7.7","","7.3","","97","","","","5","","11","","12.9","","100.52","","","","","","NA"
"-94.07","58.74","CHURCHILL A","5060605","2022-07-26 06:00","2022","07","26","06:00","7.7","","7.3","","97","","","","5","","12","","24.1","","100.51","","","","","","Cloudy"
"-94.07","58.74","CHURCHILL A","5060605","2022-07-26 07:00","2022","07","26","07:00","8.0","","7.6","","97","","","","3","","14","","24.1","","100.53","","","","","","NA"
"-94.07","58.74","CHURCHILL A","5060605","2022-07-26 08:00","2022","07","26","08:00","8.0","","7.6","","97","","","","4","","16","","19.3","","100.53","","","","","","NA"
"-94.07","58.74","CHURCHILL A","5060605","2022-07-26 09:00","2022","07","26","09:00","8.2","","7.9","","98","","","","5","","17","","24.1","","100.54","","","","","","Rain"
"-94.07","58.74","CHURCHILL A","5060605","2022-07-26 10:00","2022","07","26","10:00","8.3","","8.0","","98","","","","5","","18","","19.3","","100.56","","","","","","Rain"
"-94.07","58.74","CHURCHILL A","5060605","2022-07-26 11:00","2022","07","26","11:00","8.5","","8.2","","98","","","","4","","16","","19.3","","100.58","","","","","","Rain"
"-94.07","58.74","CHURCHILL A","5060605","2022-07-26 12:00","2022","07","26","12:00","9.3","","8.8","","97","","","","4","","15","","24.1","","100.57","","","","","","Rain"
"-94.07","58.74","CHURCHILL A","5060605","2022-07-26 13:00","2022","07","26","13:00","9.7","","9.1","","96","","","","3","","19","","24.1","","100.58","","","","","","NA"
"-94.07","58.74","CHURCHILL A","5060605","2022-07-26 14:00","2022","07","26","14:00","9.7","","8.9","","95","","","","2","","18","","24.1","","100.61","","","","","","NA"
"-94.07","58.74","CHURCHILL A","5060605","2022-07-26 15:00","2022","07","26","15:00","10.1","","9.1","","93","","","","1","","21","","24.1","","100.61","","","","","","Cloudy"
"-94.07","58.74","CHURCHILL A","5060605","2022-07-26 16:00","2022","07","26","16:00","9.5","","8.7","","95","","","","3","","19","","9.7","","100.64","","","","","","Fog"
"-94.07","58.74","CHURCHILL A","5060605","2022-07-26 17:00","2022","07","26","17:00","9.5","","8.7","","95","","","","1","","13","","19.3","","100.64","","","","","","NA"
"-94.07","58.74","CHURCHILL A","5060605","2022-07-26 18:00","2022","07","26","18:00","9.7","","8.6","","93","","","","1","","17","","24.1","","100.62","","","","","","Cloudy"
"-94.07","58.74","CHURCHILL A","5060605","2022-07-26 19:00","2022","07","26","19:00","9.7","","8.7","","94","","","","1","","19","","24.1","","100.62","","","","","","NA"
"-94.07","58.74","CHURCHILL A","5060605","2022-07-26 20:00","2022","07","26","20:00","9.8","","8.9","","94","","","","36","","17","","24.1","","100.62","","","","","","NA"
"-94.07","58.74","CHURCHILL A","5060605","2022-07-26 21:00","2022","07","26","21:00","9.6","","8.8","","95","","","","35","","17","","24.1","","100.62","","","","","","Cloudy"
"-94.07","58.74","CHURCHILL A","5060605","2022-07-26 22:00","2022","07","26","22:00","9.5","","8.9","","96","","","","36","","19","","24.1","","100.63","","","","","","NA"
"-94.07","58.74","CHURCHILL A","5060605","2022-07-26 23:00","2022","07","26","23:00","9.4","","8.7","","95","","","","36","","22","","24.1","","100.61","","","","","","NA"
"-94.07","58.74","CHURCHILL A","5060605","2022-07-27 00:00","2022","07","27","00:00","9.4","","8.8","","96","","","","36","","26","","24.1","","100.57","","","","","","Cloudy"
"-94.07","58.74","CHURCHILL A","5060605","2022-07-27 01:00","2022","07","27","01:00","9.3","","8.7","","96","","","","1","","26","","24.1","","100.58","","","","","","NA"
"-94.07","58.74","CHURCHILL A","5060605","2022-07-27 02:00","2022","07","27","02:00","9.2","","8.7","","97","","","","1","","21","","24.1","","100.58","","","","","","NA"
"-94.07","58.74","CHURCHILL A","5060605","2022-07-27 03:00","2022","07","27","03:00","8.9","","8.4","","97","","","","1","","25","","16.1","","100.59","","","","","","Cloudy"
"-94.07","58.74","CHURCHILL A","5060605","2022-07-27 04:00","2022","07","27","04:00","8.8","","8.5","","98","","","","1","","22","","8.1","","100.60","","","","","","Fog"
"-94.07","58.74","CHURCHILL A","5060605","2022-07-27 05:00","2022","07","27","05:00","8.9","","8.6","","98","","","","1","","26","","9.7","","100.61","","","","","","Fog"
"-94.07","58.74","CHURCHILL A","5060605","2022-07-27 06:00","2022","07","27","06:00","9.0","","8.7","","98","","","","1","","25","","9.7","","100.66","","","","","","Rain,Fog"
"-94.07","58.74","CHURCHILL A","5060605","2022-07-27 07:00","2022","07","27","07:00","8.9","","8.6","","98","","","","1","","25","","4.0","","100.66","","","","","","Rain,Fog"
"-94.07","58.74","CHURCHILL A","5060605","2022-07-27 08:00","2022","07","27","08:00","9.1","","8.8","","98","","","","36","","27","","8.1","","100.68","","","","","","Rain,Fog"
"-94.07","58.74","CHURCHILL A","5060605","2022-07-27 09:00","2022","07","27","09:00","8.9","","8.6","","98","","","","1","","26","","1.2","","100.73","","","","","","Rain,Fog"
"-94.07","58.74","CHURCHILL A","5060605","2022-07-27 10:00","2022","07","27","10:00","9.2","","8.9","","98","","","","36","","28","","8.1","","100.75","","","","","","Rain,Fog"
"-94.07","58.74","CHURCHILL A","5060605","2022-07-27 11:00","2022","07","27","11:00","10.0","","9.8","","99","","","","36","","31","","1.6","","100.76","","","","","","Fog"
"-94.07","58.74","CHURCHILL A","5060605","2022-07-27 12:00","2022","07","27","12:00","9.9","","9.6","","98","","","","36","","27","","9.7","","100.79","","","","","","Fog"
"-94.07","58.74","CHURCHILL A","5060605","2022-07-27 13:00","2022","07","27","13:00","10.3","","10.0","","98","","","","36","","25","","24.1","","100.80","","","","","","NA"
"-94.07","58.74","CHURCHILL A","5060605","2022-07-27 14:00","2022","07","27","14:00","10.3","","9.7","","96","","","","1","","25","","24.1","","100.83","","","","","","NA"
"-94.07","58.74","CHURCHILL A","5060605","2022-07-27 15:00","2022","07","27","15:00","10.8","","9.9","","94","","","","1","","25","","24.1","","100.85","","","","","","Cloudy"
"-94.07","58.74","CHURCHILL A","5060605","2022-07-27 16:00","2022","07","27","16:00","10.4","","9.3","","93","","","","2","","27","","24.1","","100.87","","","","","","NA"
"-94.07","58.74","CHURCHILL A","5060605","2022-07-27 17:00","2022","07","27","17:00","10.4","","9.4","","93","","","","1","","29","","24.1","","100.90","","","","","","NA"
"-94.07","58.74","CHURCHILL A","5060605","2022-07-27 18:00","2022","07","27","18:00","10.3","","9.4","","94","","","","1","","24","","24.1","","100.93","","","","","","Mostly Cloudy"
"-94.07","58.74","CHURCHILL A","5060605","2022-07-27 19:00","2022","07","27","19:00","10.6","","9.5","","93","","","","1","","21","","24.1","","100.96","","","","","","NA"
"-94.07","58.74","CHURCHILL A","5060605","2022-07-27 20:00","2022","07","27","20:00","10.3","","9.1","","92","","","","1","","19","","24.1","","100.96","","","","","","NA"
"-94.07","58.74","CHURCHILL A","5060605","2022-07-27 21:00","2022","07","27","21:00","9.6","","8.8","","95","","","","35","","17","","24.1","","100.98","","","","","","Mainly Clear"
"-94.07","58.74","CHURCHILL A","5060605","2022-07-27 22:00","2022","07","27","22:00","9.6","","8.8","","95","","","","35","","17","","24.1","","100.95","","","","","","NA"
"-94.07","58.74","CHURCHILL A","5060605","2022-07-27 23:00","2022","07","27","23:00","9.5","","8.7","","95","","","","34","","17","","24.1","","100.93","","","","","","NA"
"-94.07","58.74","CHURCHILL A","5060605","2022-07-28 00:00","2022","07","28","00:00","9.5","","8.6","","94","","","","36","","16","","24.1","","100.94","","","","","","Clear"
"-94.07","58.74","CHURCHILL A","5060605","2022-07-28 01:00","2022","07","28","01:00","9.2","","8.4","","95","","","","36","","17","","24.1","","100.95","","","","","","NA"
"-94.07","58.74","CHURCHILL A","5060605","2022-07-28 02:00","2022","07","28","02:00","8.9","","8.2","","95","","","","36","","18","","24.1","","100.93","","","","","","NA"
"-94.07","58.74","CHURCHILL A","5060605","2022-07-28 03:00","2022","07","28","03:00","9.5","","8.1","","91","","","","2","","16","","24.1","","100.94","","","","","","Clear"
"-94.07","58.74","CHURCHILL A","5060605","2022-07-28 04:00","2022","07","28","04:00","8.6","","7.8","","95","","","","1","","7","","24.1","","100.97","","","","","","NA"
"-94.07","58.74","CHURCHILL A","5060605","2022-07-28 05:00","2022","07","28","05:00","8.4","","7.8","","96","","","","33","","4","","24.1","","100.97","","","","","","NA"
"-94.07","58.74","CHURCHILL A","5060605","2022-07-28 06:00","2022","07","28","06:00","10.7","","9.1","","90","","","","29","","6","","24.1","","100.97","","","","","","Clear"
"-94.07","58.74","CHURCHILL A","5060605","2022-07-28 07:00","2022","07","28","07:00","13.2","","10.6","","84","","","","29","","4","","24.1","","100.98","","","","","","NA"
"-94.07","58.74","CHURCHILL A","5060605","2022-07-28 08:00","2022","07","28","08:00","15.1","","10.9","","76","","","","28","","3","","24.1","","100.98","","","","","","NA"
"-94.07","58.74","CHURCHILL A","5060605","2022-07-28 09:00","2022","07","28","09:00","16.2","","11.1","","72","","","","29","","5","","24.1","","100.97","","","","","","Clear"
"-94.07","58.74","CHURCHILL A","5060605","2022-07-28 10:00","2022","07","28","10:00","18.9","","12.3","","65","","","","31","","7","","24.1","","100.94","","","","","","NA"
"-94.07","58.74","CHURCHILL A","5060605","2022-07-28 11:00","2022","07","28","11:00","20.6","","10.5","","52","","","","30","","8","","24.1","","100.94","","","","","","NA"
"-94.07","58.74","CHURCHILL A","5060605","2022-07-28 12:00","2022","07","28","12:00","22.0","","10.1","","46","","","","35","","7","","24.1","","100.93","","","","","","Mainly Clear"
"-94.07","58.74","CHURCHILL A","5060605","2022-07-28 13:00","2022","07","28","13:00","23.2","","9.2","","41","","","","29","","7","","24.1","","100.89","","","","","","NA"
"-94.07","58.74","CHURCHILL A","5060605","2022-07-28 14:00","2022","07","28","14:00","23.7","","6.7","","33","","","","32","","5","","24.1","","100.87","","","","","","NA"
"-94.07","58.74","CHURCHILL A","5060605","2022-07-28 15:00","2022","07","28","15:00","24.7","","6.8","","31","","","","30","","3","","24.1","","100.80","","25","","","","Mainly Clear"
"-94.07","58.74","CHURCHILL A","5060605","2022-07-28 16:00","2022","07","28","16:00","24.9","","9.8","","38","","","","34","","10","","24.1","","100.77","","26","","","","NA"
"-94.07","58.74","CHURCHILL A","5060605","2022-07-28 17:00","2022","07","28","17:00","24.8","","9.1","","37","","","","30","","5","","24.1","","100.74","","26","","","","NA"
"-94.07","58.74","CHURCHILL A","5060605","2022-07-28 18:00","2022","07","28","18:00","25.4","","9.5","","36","","","","25","","5","","24.1","","100.69","","26","","","","Mostly Cloudy"
"-94.07","58.74","CHURCHILL A","5060605","2022-07-28 19:00","2022","07","28","19:00","24.4","","11.3","","43","","","","21","","6","","24.1","","100.65","","26","","","","NA"
"-94.07","58.74","CHURCHILL A","5060605","2022-07-28 20:00","2022","07","28","20:00","22.5","","12.6","","53","","","","21","","9","","24.1","","100.61","","25","","","","NA"
"-94.07","58.74","CHURCHILL A","5060605","2022-07-28 21:00","2022","07","28","21:00","19.3","","11.6","","61","","","","19","","14","","24.1","","100.57","","","","","","Mostly Cloudy"
"-94.07","58.74","CHURCHILL A","5060605","2022-07-28 22:00","2022","07","28","22:00","18.5","","10.2","","58","","","","20","","16","","24.1","","100.49","","","","","","NA"
"-94.07","58.74","CHURCHILL A","5060605","2022-07-28 23:00","2022","07","28","23:00","18.5","","8.8","","53","","","","21","","17","","24.1","","100.41","","","","","","NA"
"-94.07","58.74","CHURCHILL A","5060605","2022-07-29 00:00","2022","07","29","00:00","18.1","","9.3","","56","","","","21","","21","","24.1","","100.33","","","","","","Mostly Cloudy"
"-94.07","58.74","CHURCHILL A","5060605","2022-07-29 01:00","2022","07","29","01:00","17.8","","9.0","","56","","","","21","","21","","24.1","","100.25","","","","","","NA"
"-94.07","58.74","CHURCHILL A","5060605","2022-07-29 02:00","2022","07","29","02:00","17.5","","9.2","","58","","","","22","","22","","24.1","","100.17","","","","","","NA"
"-94.07","58.74","CHURCHILL A","5060605","2022-07-29 03:00","2022","07","29","03:00","17.1","","9.8","","62","","","","22","","19","","24.1","","100.11","","","","","","Mostly Cloudy"
"-94.07","58.74","CHURCHILL A","5060605","2022-07-29 04:00","2022","07","29","04:00","16.4","","11.4","","72","","","","24","","16","","24.1","","100.11","","","","","","NA"
"-94.07","58.74","CHURCHILL A","5060605","2022-07-29 05:00","2022","07","29","05:00","15.4","","12.4","","82","","","","27","","10","","19.3","","100.03","","","","","","Rain"
"-94.07","58.74","CHURCHILL A","5060605","2022-07-29 06:00","2022","07","29","06:00","15.5","","12.7","","83","","","","20","","15","","24.1","","99.85","","","","","","Cloudy"
"-94.07","58.74","CHURCHILL A","5060605","2022-07-29 07:00","2022","07","29","07:00","16.6","","13.2","","80","","","","24","","16","","12.9","","99.79","","","","","","Rain"
"-94.07","58.74","CHURCHILL A","5060605","2022-07-29 08:00","2022","07","29","08:00","15.4","","13.8","","90","","","","24","","17","","12.9","","99.77","","","","","","Rain"
"-94.07","58.74","CHURCHILL A","5060605","2022-07-29 09:00","2022","07","29","09:00","15.4","","14.1","","92","","","","26","","15","","12.9","","99.76","","","","","","Rain Showers"
"-94.07","58.74","CHURCHILL A","5060605","2022-07-29 10:00","2022","07","29","10:00","16.4","","15.3","","93","","","","29","","18","","19.3","","99.81","","","","","","Rain Showers"
"-94.07","58.74","CHURCHILL A","5060605","2022-07-29 11:00","2022","07","29","11:00","13.4","","12.1","","92","","","","35","","33","","24.1","","99.90","","","","","","Rain Showers"
"-94.07","58.74","CHURCHILL A","5060605","2022-07-29 12:00","2022","07","29","12:00","14.2","","11.6","","84","","","","35","","38","","24.1","","100.03","","","","","","Mostly Cloudy"
"-94.07","58.74","CHURCHILL A","5060605","2022-07-29 13:00","2022","07","29","13:00","15.2","","11.5","","79","","","","35","","30","","24.1","","100.13","","","","","","NA"
"-94.07","58.74","CHURCHILL A","5060605","2022-07-29 14:00","2022","07","29","14:00","15.6","","10.8","","73","","","","36","","20","","24.1","","100.19","","","","","","NA"
"-94.07","58.74","CHURCHILL A","5060605","2022-07-29 15:00","2022","07","29","15:00","16.5","","10.3","","67","","","","36","","17","","24.1","","100.23","","","","","","Mainly Clear"
"-94.07","58.74","CHURCHILL A","5060605","2022-07-29 16:00","2022","07","29","16:00","17.9","","9.4","","57","","","","36","","14","","24.1","","100.26","","","","","","NA"
"-94.07","58.74","CHURCHILL A","5060605","2022-07-29 17:00","2022","07","29","17:00","17.6","","9.4","","58","","","","34","","16","","24.1","","100.32","","","","","","NA"
"-94.07","58.74","CHURCHILL A","5060605","2022-07-29 18:00","2022","07","29","18:00","16.7","","9.0","","60","","","","35","","16","","24.1","","100.38","","","","","","Mostly Cloudy"
"-94.07","58.74","CHURCHILL A","5060605","2022-07-29 19:00","2022","07","29","19:00","15.8","","9.1","","64","","","","34","","16","","24.1","","100.43","","","","","","NA"
"-94.07","58.74","CHURCHILL A","5060605","2022-07-29 20:00","2022","07","29","20:00","14.1","","9.0","","71","","","","34","","24","","24.1","","100.46","","","","","","NA"
"-94.07","58.74","CHURCHILL A","5060605","2022-07-29 21:00","2022","07","29","21:00","14.1","","7.5","","64","","","","32","","28","","24.1","","100.48","","","","","","Clear"
"-94.07","58.74","CHURCHILL A","5060605","2022-07-29 22:00","2022","07","29","22:00","13.8","","7.0","","63","","","","31","","25","","24.1","","100.51","","","","","","NA"
"-94.07","58.74","CHURCHILL A","5060605","2022-07-29 23:00","2022","07","29","23:00","12.7","","7.6","","71","","","","30","","20","","24.1","","100.53","","","","","","NA"
"-94.07","58.74","CHURCHILL A","5060605","2022-07-30 00:00","2022","07","30","00:00","11.9","","7.8","","76","","","","28","","19","","24.1","","100.54","","","","","","Clear"
"-94.07","58.74","CHURCHILL A","5060605","2022-07-30 01:00","2022","07","30","01:00","11.4","","7.3","","76","","","","29","","19","","24.1","","100.54","","","","","","NA"
"-94.07","58.74","CHURCHILL A","5060605","2022-07-30 02:00","2022","07","30","02:00","10.8","","7.9","","82","","","","29","","18","","24.1","","100.57","","","","","","NA"
"-94.07","58.74","CHURCHILL A","5060605","2022-07-30 03:00","2022","07","30","03:00","10.6","","8.2","","85","","","","29","","16","","24.1","","100.59","","","","","","Mainly Clear"
"-94.07","58.74","CHURCHILL A","5060605","2022-07-30 04:00","2022","07","30","04:00","10.4","","8.2","","86","","","","29","","19","","24.1","","100.64","","","","","","NA"
"-94.07","58.74","CHURCHILL A","5060605","2022-07-30 05:00","2022","07","30","05:00","10.3","","8.2","","87","","","","30","","19","","24.1","","100.68","","","","","","NA"
"-94.07","58.74","CHURCHILL A","5060605","2022-07-30 06:00","2022","07","30","06:00","11.1","","8.7","","85","","","","30","","21","","24.1","","100.71","","","","","","Mostly Cloudy"
"-94.07","58.74","CHURCHILL A","5060605","2022-07-30 07:00","2022","07","30","07:00","11.7","","9.0","","83","","","","31","","21","","24.1","","100.73","","","","","","NA"
"-94.07","58.74","CHURCHILL A","5060605","2022-07-30 08:00","2022","07","30","08:00","12.0","","8.9","","81","","","","30","","24","","24.1","","100.79","","","","","","NA"
"-94.07","58.74","CHURCHILL A","5060605","2022-07-30 09:00","2022","07","30","09:00","12.7","","8.6","","76","","","","32","","21","","24.1","","100.77","","","","","","Mostly Cloudy"
"-94.07","58.74","CHURCHILL A","5060605","2022-07-30 10:00","2022","07","30","10:00","13.6","","8.5","","71","","","","32","","23","","24.1","","100.80","","","","","","NA"
"-94.07","58.74","CHURCHILL A","5060605","2022-07-30 11:00","2022","07","30","11:00","12.9","","8.0","","72","","","","33","","25","","24.1","","100.83","","","","","","NA"
"-94.07","58.74","CHURCHILL A","5060605","2022-07-30 12:00","2022","07","30","12:00","14.2","","8.1","","66","","","","29","","19","","24.1","","100.86","","","","","","Mostly Cloudy"
"-94.07","58.74","CHURCHILL A","5060605","2022-07-30 13:00","2022","07","30","13:00","15.3","","6.7","","56","","","","28","","25","","24.1","","100.84","","","","","","NA"
"-94.07","58.74","CHURCHILL A","5060605","2022-07-30 14:00","2022","07","30","14:00","14.3","","7.9","","65","","","","34","","23","","24.1","","100.88","","","","","","NA"
"-94.07","58.74","CHURCHILL A","5060605","2022-07-30 15:00","2022","07","30","15:00","13.3","","8.6","","73","","","","2","","13","","24.1","","100.89","","","","","","Mostly Cloudy"
"-94.07","58.74","CHURCHILL A","5060605","2022-07-30 16:00","2022","07","30","16:00","14.3","","6.4","","59","","","","33","","7","","24.1","","100.93","","","","","","NA"
"-94.07","58.74","CHURCHILL A","5060605","2022-07-30 17:00","2022","07","30","17:00","15.3","","6.7","","56","","","","28","","16","","24.1","","100.92","","","","","","NA"
"-94.07","58.74","CHURCHILL A","5060605","2022-07-30 18:00","2022","07","30","18:00","15.5","","6.5","","55","","","","32","","13","","24.1","","100.95","","","","","","Mainly Clear"
"-94.07","58.74","CHURCHILL A","5060605","2022-07-30 19:00","2022","07","30","19:00","14.6","","6.4","","58","","","","31","","14","","24.1","","100.94","","","","","","NA"
"-94.07","58.74","CHURCHILL A","5060605","2022-07-30 20:00","2022","07","30","20:00","13.0","","7.7","","70","","","","28","","10","","24.1","","100.94","","","","","","NA"
"-94.07","58.74","CHURCHILL A","5060605","2022-07-30 21:00","2022","07","30","21:00","12.5","","9.0","","79","","","","27","","11","","24.1","","100.94","","","","","","Mostly Cloudy"
"-94.07","58.74","CHURCHILL A","5060605","2022-07-30 22:00","2022","07","30","22:00","11.6","","9.2","","85","","","","26","","13","","24.1","","100.94","","","","","","NA"
"-94.07","58.74","CHURCHILL A","5060605","2022-07-30 23:00","2022","07","30","23:00","12.6","","9.1","","79","","","","27","","11","","24.1","","100.94","","","","","","NA"
"-94.07","58.74","CHURCHILL A","5060605","2022-07-31 00:00","2022","07","31","00:00","10.7","","8.4","","86","","","","26","","13","","24.1","","100.93","","","","","","Mainly Clear"
"-94.07","58.74","CHURCHILL A","5060605","2022-07-31 01:00","2022","07","31","01:00","10.9","","7.8","","81","","","","29","","16","","24.1","","100.91","","","","","","NA"
"-94.07","58.74","CHURCHILL A","5060605","2022-07-31 02:00","2022","07","31","02:00","10.0","","7.6","","85","","","","27","","14","","24.1","","100.89","","","","","","NA"
"-94.07","58.74","CHURCHILL A","5060605","2022-07-31 03:00","2022","07","31","03:00","9.3","","7.4","","88","","","","28","","11","","24.1","","100.89","","","","","","Clear"
"-94.07","58.74","CHURCHILL A","5060605","2022-07-31 04:00","2022","07","31","04:00","8.6","","7.1","","90","","","","27","","12","","24.1","","100.87","","","","","","NA"
"-94.07","58.74","CHURCHILL A","5060605","2022-07-31 05:00","2022","07","31","05:00","8.2","","6.8","","91","","","","26","","10","","24.1","","100.87","","","","","","NA"
"-94.07","58.74","CHURCHILL A","5060605","2022-07-31 06:00","2022","07","31","06:00","9.8","","7.2","","84","","","","26","","9","","24.1","","100.84","","","","","","Mainly Clear"
"-94.07","58.74","CHURCHILL A","5060605","2022-07-31 07:00","2022","07","31","07:00","11.8","","7.5","","75","","","","27","","10","","24.1","","100.83","","","","","","NA"
"-94.07","58.74","CHURCHILL A","5060605","2022-07-31 08:00","2022","07","31","08:00","13.2","","7.4","","68","","","","26","","13","","24.1","","100.79","","","","","","NA"
"-94.07","58.74","CHURCHILL A","5060605","2022-07-31 09:00","2022","07","31","09:00","14.5","","7.6","","63","","","","27","","8","","24.1","","100.74","","","","","","Mostly Cloudy"
"-94.07","58.74","CHURCHILL A","5060605","2022-07-31 10:00","2022","07","31","10:00","16.0","","7.0","","55","","","","25","","12","","24.1","","100.67","","","","","","NA"
"-94.07","58.74","CHURCHILL A","5060605","2022-07-31 11:00","2022","07","31","11:00","17.2","","7.5","","52","","","","26","","11","","24.1","","100.60","","","","","","NA"
"-94.07","58.74","CHURCHILL A","5060605","2022-07-31 12:00","2022","07","31","12:00","19.4","","6.8","","44","","","","21","","17","","24.1","","100.51","","","","","","Mostly Cloudy"
"-94.07","58.74","CHURCHILL A","5060605","2022-07-31 13:00","2022","07","31","13:00","18.7","","8.5","","51","","","","33","","10","","24.1","","100.42","","","","","","NA"
"-94.07","58.74","CHURCHILL A","5060605","2022-07-31 14:00","2022","07","31","14:00","18.0","","7.5","","50","","","","31","","16","","24.1","","100.42","","","","","","NA"
"-94.07","58.74","CHURCHILL A","5060605","2022-07-31 15:00","2022","07","31","15:00","18.0","","8.4","","53","","","","35","","13","","24.1","","100.37","","","","","","Mostly Cloudy"
"-94.07","58.74","CHURCHILL A","5060605","2022-07-31 16:00","2022","07","31","16:00","14.2","","10.7","","79","","","","35","","22","","24.1","","100.38","","","","","","Thunderstorms,Rain Showers"
"-94.07","58.74","CHURCHILL A","5060605","2022-07-31 17:00","2022","07","31","17:00","14.7","","11.6","","81","","","","36","","12","","24.1","","100.39","","","","","","NA"
"-94.07","58.74","CHURCHILL A","5060605","2022-07-31 18:00","2022","07","31","18:00","14.6","","10.7","","77","","","","27","","10","","24.1","","100.42","","","","","","Mostly Cloudy"
"-94.07","58.74","CHURCHILL A","5060605","2022-07-31 19:00","2022","07","31","19:00","15.0","","10.8","","76","","","","29","","13","","24.1","","100.40","","","","","","NA"
"-94.07","58.74","CHURCHILL A","5060605","2022-07-31 20:00","2022","07","31","20:00","13.8","","11.2","","84","","","","29","","7","","24.1","","100.38","","","","","","Rain Showers"
"-94.07","58.74","CHURCHILL A","5060605","2022-07-31 21:00","2022","07","31","21:00","14.0","","10.7","","80","","","","31","","29","","24.1","","100.37","","","","","","Rain Showers"
"-94.07","58.74","CHURCHILL A","5060605","2022-07-31 22:00","2022","07","31","22:00","11.6","","8.5","","81","","","","35","","29","","24.1","","100.42","","","","","","Rain Showers"
"-94.07","58.74","CHURCHILL A","5060605","2022-07-31 23:00","2022","07","31","23:00","10.9","","8.5","","85","","","","35","","16","","24.1","","100.46","","","","","","NA"
