"Longitude (x)","Latitude (y)","Station Name","Climate ID","Date/Time (LST)","Year","Month","Day","Time (LST)","Temp (°C)","Temp Flag","Dew Point Temp (°C)","Dew Point Temp Flag","Rel Hum (%)","Rel Hum Flag","Precip. Amount (mm)","Precip. Amount Flag","Wind Dir (10s deg)","Wind Dir Flag","Wind Spd (km/h)","Wind Spd Flag","Visibility (km)","Visibility Flag","Stn Press (kPa)","Stn Press Flag","Hmdx","Hmdx Flag","Wind Chill","Wind Chill Flag","Weather"
"-94.07","58.74","CHURCHILL A","5060605","2022-09-01 00:00","2022","09","01","00:00","6.1","","4.4","","89","","","","10","","6","","24.1","","100.63","","","","","","Cloudy"
"-94.07","58.74","CHURCHILL A","5060605","2022-09-01 01:00","2022","09","01","01:00","5.9","","4.4","","90","","","","14","","5","","24.1","","100.61","","","","","","NA"
"-94.07","58.74","CHURCHILL A","5060605","2022-09-01 02:00","2022","09","01","02:00","5.8","","4.3","","90","","","","14","","5","","24.1","","100.60","","","","","","NA"
"-94.07","58.74","CHURCHILL A","5060605","2022-09-01 03:00","2022","09","01","03:00","5.1","","4.1","","93","","","","13","","7","","24.1","","100.56","","","","","","Mostly Cloudy"
"-94.07","58.74","CHURCHILL A","5060605","2022-09-01 04:00","2022","09","01","04:00","5.1","","4.1","","93","","","","16","","7","","24.1","","100.54","","","","","","NA"
"-94.07","58.74","CHURCHILL A","5060605","2022-09-01 05:00","2022","09","01","05:00","4.9","","4.0","","94","","","","14","","9","","24.1","","100.51","","","","","","NA"
"-94.07","58.74","CHURCHILL A","5060605","2022-09-01 06:00","2022","09","01","06:00","5.2","","4.2","","93","","","","14","","8","","24.1","","100.49","","","","","","Mostly Cloudy"
"-94.07","58.74","CHURCHILL A","5060605","2022-09-01 07:00","2022","09","01","07:00","5.8","","4.5","","91","","","","12","","9","","24.1","","100.47","","","","","","NA"
"-94.07","58.74","CHURCHILL A","5060605","2022-09-01 08:00","2022","09","01","08:00","6.3","","3.9","","84","","","","12","","12","","24.1","","100.42","","","","","","NA"
"-94.07","58.74","CHURCHILL A","5060605","2022-09-01 09:00","2022","09","01","09:00","6.6","","3.6","","81","","","","12","","15","","24.1","","100.39","","","","","","Cloudy"
"-94.07","58.74","CHURCHILL A","5060605","2022-09-01 10:00","2022","09","01","10:00","6.5","","4.7","","88","","","","10","","15","","19.3","","100.35","","","","","","NA"
"-94.07","58.74","CHURCHILL A","5060605","2022-09-01 11:00","2022","09","01","11:00","7.4","","4.5","","82","","","","10","","19","","24.1","","100.27","","","","","","NA"
"-94.07","58.74","CHURCHILL A","5060605","2022-09-01 12:00","2022","09","01","12:00","7.8","","3.3","","73","","","","11","","23","","24.1","","100.18","","","","","","Cloudy"
"-94.07","58.74","CHURCHILL A","5060605","2022-09-01 13:00","2022","09","01","13:00","8.1","","2.4","","67","","","","11","","28","","24.1","","100.12","","","","","","NA"
"-94.07","58.74","CHURCHILL A","5060605","2022-09-01 14:00","2022","09","01","14:00","7.8","","3.2","","73","","","","11","","28","","24.1","","100.02","","","","","","NA"
"-94.07","58.74","CHURCHILL A","5060605","2022-09-01 15:00","2022","09","01","15:00","7.5","","3.4","","75","","","","11","","29","","24.1","","99.98","","","","","","Cloudy"
"-94.07","58.74","CHURCHILL A","5060605","2022-09-01 16:00","2022","09","01","16:00","6.8","","3.8","","81","","","","12","","26","","24.1","","99.97","","","","","","Rain"
"-94.07","58.74","CHURCHILL A","5060605","2022-09-01 17:00","2022","09","01","17:00","6.5","","3.7","","82","","","","12","","27","","19.3","","99.89","","","","","","Rain"
"-94.07","58.74","CHURCHILL A","5060605","2022-09-01 18:00","2022","09","01","18:00","5.7","","3.8","","88","","","","11","","35","","24.1","","99.72","","","","","","Rain"
"-94.07","58.74","CHURCHILL A","5060605","2022-09-01 19:00","2022","09","01","19:00","5.9","","4.5","","91","","","","10","","35","","19.3","","99.54","","","","","","Rain"
"-94.07","58.74","CHURCHILL A","5060605","2022-09-01 20:00","2022","09","01","20:00","5.9","","4.7","","92","","","","11","","41","","16.1","","99.45","","","","","","Rain"
"-94.07","58.74","CHURCHILL A","5060605","2022-09-01 21:00","2022","09","01","21:00","5.4","","4.4","","93","","","","10","","42","","24.1","","99.34","","","","","","Rain"
"-94.07","58.74","CHURCHILL A","5060605","2022-09-01 22:00","2022","09","01","22:00","5.3","","4.3","","93","","","","9","","43","","9.7","","99.40","","","","","","Rain,Fog"
"-94.07","58.74","CHURCHILL A","5060605","2022-09-01 23:00","2022","09","01","23:00","5.2","","4.5","","95","","","","9","","47","","9.7","","99.25","","","","","","Rain,Fog"
"-94.07","58.74","CHURCHILL A","5060605","2022-09-02 00:00","2022","09","02","00:00","5.1","","4.4","","95","","","","8","","64","","9.7","","99.17","","","","","","Rain,Fog"
"-94.07","58.74","CHURCHILL A","5060605","2022-09-02 01:00","2022","09","02","01:00","5.3","","4.6","","95","","","","8","","59","","9.7","","99.18","","","","","","Rain,Fog"
"-94.07","58.74","CHURCHILL A","5060605","2022-09-02 02:00","2022","09","02","02:00","5.2","","4.3","","94","","","","8","","49","","16.1","","99.39","","","","","","Rain"
"-94.07","58.74","CHURCHILL A","5060605","2022-09-02 03:00","2022","09","02","03:00","5.2","","4.3","","94","","","","5","","49","","16.1","","99.47","","","","","","Rain"
"-94.07","58.74","CHURCHILL A","5060605","2022-09-02 04:00","2022","09","02","04:00","4.9","","3.7","","92","","","","6","","49","","24.1","","99.63","","","","","","Rain"
"-94.07","58.74","CHURCHILL A","5060605","2022-09-02 05:00","2022","09","02","05:00","4.5","","3.2","","91","","","","5","","44","","12.9","","99.82","","","","","","Rain"
"-94.07","58.74","CHURCHILL A","5060605","2022-09-02 06:00","2022","09","02","06:00","4.4","","2.9","","90","","","","4","","50","","9.7","","99.95","","","","","","Rain,Fog"
"-94.07","58.74","CHURCHILL A","5060605","2022-09-02 07:00","2022","09","02","07:00","4.5","","3.3","","92","","","","4","","40","","9.7","","100.11","","","","","","Rain,Fog"
"-94.07","58.74","CHURCHILL A","5060605","2022-09-02 08:00","2022","09","02","08:00","5.0","","3.2","","88","","","","4","","42","","12.9","","100.22","","","","","","Rain"
"-94.07","58.74","CHURCHILL A","5060605","2022-09-02 09:00","2022","09","02","09:00","5.9","","4.7","","92","","","","3","","33","","19.3","","100.31","","","","","","Rain"
"-94.07","58.74","CHURCHILL A","5060605","2022-09-02 10:00","2022","09","02","10:00","7.4","","4.9","","84","","","","2","","32","","24.1","","100.46","","","","","","NA"
"-94.07","58.74","CHURCHILL A","5060605","2022-09-02 11:00","2022","09","02","11:00","8.2","","5.0","","80","","","","1","","26","","24.1","","100.60","","","","","","NA"
"-94.07","58.74","CHURCHILL A","5060605","2022-09-02 12:00","2022","09","02","12:00","8.4","","5.2","","80","","","","1","","31","","24.1","","100.73","","","","","","Mostly Cloudy"
"-94.07","58.74","CHURCHILL A","5060605","2022-09-02 13:00","2022","09","02","13:00","9.2","","4.6","","73","","","","1","","31","","24.1","","100.83","","","","","","NA"
"-94.07","58.74","CHURCHILL A","5060605","2022-09-02 14:00","2022","09","02","14:00","9.3","","6.1","","80","","","","35","","27","","24.1","","100.98","","","","","","NA"
"-94.07","58.74","CHURCHILL A","5060605","2022-09-02 15:00","2022","09","02","15:00","9.9","","4.8","","70","","","","36","","23","","24.1","","101.03","","","","","","Mainly Clear"
"-94.07","58.74","CHURCHILL A","5060605","2022-09-02 16:00","2022","09","02","16:00","9.9","","4.7","","70","","","","35","","21","","24.1","","101.10","","","","","","NA"
"-94.07","58.74","CHURCHILL A","5060605","2022-09-02 17:00","2022","09","02","17:00","9.5","","4.4","","71","","","","35","","18","","24.1","","101.17","","","","","","NA"
"-94.07","58.74","CHURCHILL A","5060605","2022-09-02 18:00","2022","09","02","18:00","9.1","","4.5","","73","","","","35","","13","","24.1","","101.24","","","","","","Clear"
"-94.07","58.74","CHURCHILL A","5060605","2022-09-02 19:00","2022","09","02","19:00","7.9","","4.1","","77","","","","34","","9","","24.1","","101.29","","","","","","NA"
"-94.07","58.74","CHURCHILL A","5060605","2022-09-02 20:00","2022","09","02","20:00","7.2","","4.5","","83","","","","31","","8","","24.1","","101.34","","","","","","NA"
"-94.07","58.74","CHURCHILL A","5060605","2022-09-02 21:00","2022","09","02","21:00","6.6","","4.6","","87","","","","28","","9","","24.1","","101.42","","","","","","Clear"
"-94.07","58.74","CHURCHILL A","5060605","2022-09-02 22:00","2022","09","02","22:00","6.3","","5.4","","94","","","","25","","8","","24.1","","101.46","","","","","","NA"
"-94.07","58.74","CHURCHILL A","5060605","2022-09-02 23:00","2022","09","02","23:00","5.9","","4.4","","90","","","","24","","10","","24.1","","101.49","","","","","","NA"
"-94.07","58.74","CHURCHILL A","5060605","2022-09-03 00:00","2022","09","03","00:00","5.2","","4.0","","92","","","","24","","9","","24.1","","101.54","","","","","","Clear"
"-94.07","58.74","CHURCHILL A","5060605","2022-09-03 01:00","2022","09","03","01:00","5.1","","3.8","","91","","","","23","","8","","24.1","","101.56","","","","","","NA"
"-94.07","58.74","CHURCHILL A","5060605","2022-09-03 02:00","2022","09","03","02:00","4.7","","3.5","","92","","","","22","","9","","24.1","","101.59","","","","","","NA"
"-94.07","58.74","CHURCHILL A","5060605","2022-09-03 03:00","2022","09","03","03:00","3.9","","3.0","","94","","","","22","","9","","24.1","","101.61","","","","","","Clear"
"-94.07","58.74","CHURCHILL A","5060605","2022-09-03 04:00","2022","09","03","04:00","3.7","","3.1","","96","","","","21","","9","","24.1","","101.60","","","","","","NA"
"-94.07","58.74","CHURCHILL A","5060605","2022-09-03 05:00","2022","09","03","05:00","3.5","","2.6","","94","","","","20","","10","","24.1","","101.59","","","","","","NA"
"-94.07","58.74","CHURCHILL A","5060605","2022-09-03 06:00","2022","09","03","06:00","4.5","","3.0","","90","","","","20","","15","","24.1","","101.54","","","","","","Mostly Cloudy"
"-94.07","58.74","CHURCHILL A","5060605","2022-09-03 07:00","2022","09","03","07:00","4.8","","3.5","","91","","","","21","","17","","24.1","","101.53","","","","","","NA"
"-94.07","58.74","CHURCHILL A","5060605","2022-09-03 08:00","2022","09","03","08:00","6.3","","4.8","","90","","","","19","","15","","24.1","","101.45","","","","","","NA"
"-94.07","58.74","CHURCHILL A","5060605","2022-09-03 09:00","2022","09","03","09:00","8.4","","5.5","","82","","","","20","","22","","24.1","","101.35","","","","","","Cloudy"
"-94.07","58.74","CHURCHILL A","5060605","2022-09-03 10:00","2022","09","03","10:00","9.6","","5.8","","77","","","","20","","23","","24.1","","101.26","","","","","","Rain"
"-94.07","58.74","CHURCHILL A","5060605","2022-09-03 11:00","2022","09","03","11:00","9.9","","6.6","","80","","","","19","","24","","24.1","","101.12","","","","","","NA"
"-94.07","58.74","CHURCHILL A","5060605","2022-09-03 12:00","2022","09","03","12:00","12.2","","7.5","","73","","","","18","","31","","24.1","","100.99","","","","","","Mostly Cloudy"
"-94.07","58.74","CHURCHILL A","5060605","2022-09-03 13:00","2022","09","03","13:00","14.4","","8.8","","69","","","","20","","27","","24.1","","100.88","","","","","","NA"
"-94.07","58.74","CHURCHILL A","5060605","2022-09-03 14:00","2022","09","03","14:00","19.5","","10.7","","56","","","","21","","31","","24.1","","100.77","","","","","","NA"
"-94.07","58.74","CHURCHILL A","5060605","2022-09-03 15:00","2022","09","03","15:00","21.2","","11.4","","53","","","","24","","24","","24.1","","100.71","","","","","","Mainly Clear"
"-94.07","58.74","CHURCHILL A","5060605","2022-09-03 16:00","2022","09","03","16:00","22.1","","11.4","","50","","","","24","","31","","24.1","","100.67","","","","","","NA"
"-94.07","58.74","CHURCHILL A","5060605","2022-09-03 17:00","2022","09","03","17:00","22.5","","11.9","","51","","","","25","","18","","24.1","","100.67","","25","","","","NA"
"-94.07","58.74","CHURCHILL A","5060605","2022-09-03 18:00","2022","09","03","18:00","19.9","","12.3","","61","","","","30","","11","","24.1","","100.69","","","","","","Mainly Clear"
"-94.07","58.74","CHURCHILL A","5060605","2022-09-03 19:00","2022","09","03","19:00","14.9","","10.6","","75","","","","1","","13","","24.1","","100.72","","","","","","NA"
"-94.07","58.74","CHURCHILL A","5060605","2022-09-03 20:00","2022","09","03","20:00","13.1","","9.9","","81","","","","8","","10","","24.1","","100.73","","","","","","NA"
"-94.07","58.74","CHURCHILL A","5060605","2022-09-03 21:00","2022","09","03","21:00","13.4","","10.2","","81","","","","16","","14","","24.1","","100.76","","","","","","Mainly Clear"
"-94.07","58.74","CHURCHILL A","5060605","2022-09-03 22:00","2022","09","03","22:00","16.1","","10.5","","69","","","","15","","9","","24.1","","100.78","","","","","","NA"
"-94.07","58.74","CHURCHILL A","5060605","2022-09-03 23:00","2022","09","03","23:00","14.8","","10.1","","73","","","","9","","8","","24.1","","100.75","","","","","","NA"
"-94.07","58.74","CHURCHILL A","5060605","2022-09-04 00:00","2022","09","04","00:00","14.4","","9.9","","74","","","","12","","10","","24.1","","100.74","","","","","","Clear"
"-94.07","58.74","CHURCHILL A","5060605","2022-09-04 01:00","2022","09","04","01:00","13.3","","10.1","","81","","","","17","","9","","24.1","","100.76","","","","","","NA"
"-94.07","58.74","CHURCHILL A","5060605","2022-09-04 02:00","2022","09","04","02:00","11.9","","10.3","","90","","","","17","","4","","24.1","","100.77","","","","","","NA"
"-94.07","58.74","CHURCHILL A","5060605","2022-09-04 03:00","2022","09","04","03:00","11.1","","10.0","","93","","","","27","","4","","24.1","","100.80","","","","","","Clear"
"-94.07","58.74","CHURCHILL A","5060605","2022-09-04 04:00","2022","09","04","04:00","12.3","","10.4","","88","","","","36","","5","","24.1","","100.79","","","","","","NA"
"-94.07","58.74","CHURCHILL A","5060605","2022-09-04 05:00","2022","09","04","05:00","9.2","","8.5","","95","","","","8","","15","","24.1","","100.78","","","","","","NA"
"-94.07","58.74","CHURCHILL A","5060605","2022-09-04 06:00","2022","09","04","06:00","9.3","","8.4","","94","","","","9","","14","","24.1","","100.79","","","","","","Mainly Clear"
"-94.07","58.74","CHURCHILL A","5060605","2022-09-04 07:00","2022","09","04","07:00","10.4","","9.5","","94","","","","10","","14","","24.1","","100.80","","","","","","NA"
"-94.07","58.74","CHURCHILL A","5060605","2022-09-04 08:00","2022","09","04","08:00","12.0","","10.4","","90","","","","16","","14","","24.1","","100.77","","","","","","NA"
"-94.07","58.74","CHURCHILL A","5060605","2022-09-04 09:00","2022","09","04","09:00","15.2","","11.4","","78","","","","14","","12","","24.1","","100.71","","","","","","Mostly Cloudy"
"-94.07","58.74","CHURCHILL A","5060605","2022-09-04 10:00","2022","09","04","10:00","17.7","","12.2","","70","","","","13","","14","","24.1","","100.65","","","","","","NA"
"-94.07","58.74","CHURCHILL A","5060605","2022-09-04 11:00","2022","09","04","11:00","19.3","","12.9","","66","","","","13","","16","","24.1","","100.62","","","","","","NA"
"-94.07","58.74","CHURCHILL A","5060605","2022-09-04 12:00","2022","09","04","12:00","21.1","","14.1","","64","","","","13","","15","","24.1","","100.53","","25","","","","Mostly Cloudy"
"-94.07","58.74","CHURCHILL A","5060605","2022-09-04 13:00","2022","09","04","13:00","22.4","","14.8","","62","","","","15","","22","","24.1","","100.44","","26","","","","NA"
"-94.07","58.74","CHURCHILL A","5060605","2022-09-04 14:00","2022","09","04","14:00","22.6","","15.4","","63","","","","16","","19","","24.1","","100.38","","27","","","","NA"
"-94.07","58.74","CHURCHILL A","5060605","2022-09-04 15:00","2022","09","04","15:00","22.8","","16.3","","66","","","","15","","13","","24.1","","100.34","","28","","","","Mostly Cloudy"
"-94.07","58.74","CHURCHILL A","5060605","2022-09-04 16:00","2022","09","04","16:00","20.9","","16.4","","75","","","","11","","19","","24.1","","100.28","","26","","","","NA"
"-94.07","58.74","CHURCHILL A","5060605","2022-09-04 17:00","2022","09","04","17:00","20.4","","16.3","","77","","","","13","","19","","24.1","","100.24","","25","","","","NA"
"-94.07","58.74","CHURCHILL A","5060605","2022-09-04 18:00","2022","09","04","18:00","19.1","","15.8","","81","","","","12","","15","","24.1","","100.22","","","","","","Mostly Cloudy"
"-94.07","58.74","CHURCHILL A","5060605","2022-09-04 19:00","2022","09","04","19:00","17.3","","15.0","","86","","","","11","","13","","24.1","","100.20","","","","","","NA"
"-94.07","58.74","CHURCHILL A","5060605","2022-09-04 20:00","2022","09","04","20:00","16.1","","14.3","","89","","","","16","","15","","24.1","","100.19","","","","","","NA"
"-94.07","58.74","CHURCHILL A","5060605","2022-09-04 21:00","2022","09","04","21:00","16.0","","14.2","","89","","","","18","","16","","24.1","","100.15","","","","","","Mostly Cloudy"
"-94.07","58.74","CHURCHILL A","5060605","2022-09-04 22:00","2022","09","04","22:00","15.4","","14.1","","92","","","","19","","14","","24.1","","100.12","","","","","","NA"
"-94.07","58.74","CHURCHILL A","5060605","2022-09-04 23:00","2022","09","04","23:00","16.9","","14.6","","86","","","","23","","15","","24.1","","100.12","","","","","","NA"
"-94.07","58.74","CHURCHILL A","5060605","2022-09-05 00:00","2022","09","05","00:00","16.4","","14.4","","88","","","","22","","14","","24.1","","100.08","","","","","","Mainly Clear"
"-94.07","58.74","CHURCHILL A","5060605","2022-09-05 01:00","2022","09","05","01:00","16.0","","14.1","","88","","","","22","","12","","24.1","","100.10","","","","","","NA"
"-94.07","58.74","CHURCHILL A","5060605","2022-09-05 02:00","2022","09","05","02:00","15.8","","14.0","","89","","","","20","","11","","24.1","","100.11","","","","","","NA"
"-94.07","58.74","CHURCHILL A","5060605","2022-09-05 03:00","2022","09","05","03:00","15.7","","13.9","","89","","","","22","","9","","24.1","","100.13","","","","","","Mainly Clear"
"-94.07","58.74","CHURCHILL A","5060605","2022-09-05 04:00","2022","09","05","04:00","15.4","","14.0","","91","","","","22","","9","","24.1","","100.11","","","","","","NA"
"-94.07","58.74","CHURCHILL A","5060605","2022-09-05 05:00","2022","09","05","05:00","14.7","","13.6","","93","","","","21","","10","","24.1","","100.11","","","","","","NA"
"-94.07","58.74","CHURCHILL A","5060605","2022-09-05 06:00","2022","09","05","06:00","14.6","","13.7","","94","","","","20","","12","","24.1","","100.11","","","","","","Mostly Cloudy"
"-94.07","58.74","CHURCHILL A","5060605","2022-09-05 07:00","2022","09","05","07:00","15.8","","14.3","","91","","","","21","","16","","24.1","","100.09","","","","","","NA"
"-94.07","58.74","CHURCHILL A","5060605","2022-09-05 08:00","2022","09","05","08:00","16.6","","14.3","","86","","","","20","","12","","24.1","","100.05","","","","","","NA"
"-94.07","58.74","CHURCHILL A","5060605","2022-09-05 09:00","2022","09","05","09:00","18.6","","14.3","","76","","","","22","","19","","24.1","","99.98","","","","","","Mainly Clear"
"-94.07","58.74","CHURCHILL A","5060605","2022-09-05 10:00","2022","09","05","10:00","20.5","","14.9","","70","","","","22","","20","","24.1","","99.97","","","","","","NA"
"-94.07","58.74","CHURCHILL A","5060605","2022-09-05 11:00","2022","09","05","11:00","22.4","","15.4","","64","","","","20","","17","","24.1","","99.95","","27","","","","NA"
"-94.07","58.74","CHURCHILL A","5060605","2022-09-05 12:00","2022","09","05","12:00","24.1","","15.9","","60","","","","20","","19","","24.1","","99.91","","29","","","","Clear"
"-94.07","58.74","CHURCHILL A","5060605","2022-09-05 13:00","2022","09","05","13:00","25.8","","16.5","","56","","","","19","","22","","24.1","","99.83","","31","","","","NA"
"-94.07","58.74","CHURCHILL A","5060605","2022-09-05 14:00","2022","09","05","14:00","27.4","","16.8","","52","","","","19","","23","","24.1","","99.76","","33","","","","NA"
"-94.07","58.74","CHURCHILL A","5060605","2022-09-05 15:00","2022","09","05","15:00","28.3","","17.1","","50","","","","22","","23","","24.1","","99.74","","34","","","","Clear"
"-94.07","58.74","CHURCHILL A","5060605","2022-09-05 16:00","2022","09","05","16:00","28.5","","17.3","","50","","","","21","","23","","24.1","","99.71","","34","","","","NA"
"-94.07","58.74","CHURCHILL A","5060605","2022-09-05 17:00","2022","09","05","17:00","28.2","","17.0","","50","","","","20","","22","","24.1","","99.69","","33","","","","NA"
"-94.07","58.74","CHURCHILL A","5060605","2022-09-05 18:00","2022","09","05","18:00","27.0","","16.9","","53","","","","21","","20","","24.1","","99.67","","32","","","","Clear"
"-94.07","58.74","CHURCHILL A","5060605","2022-09-05 19:00","2022","09","05","19:00","24.9","","16.7","","60","","","","21","","19","","24.1","","99.69","","30","","","","NA"
"-94.07","58.74","CHURCHILL A","5060605","2022-09-05 20:00","2022","09","05","20:00","24.0","","16.4","","62","","","","22","","23","","24.1","","99.71","","29","","","","NA"
"-94.07","58.74","CHURCHILL A","5060605","2022-09-05 21:00","2022","09","05","21:00","22.4","","16.1","","67","","","","21","","21","","24.1","","99.69","","27","","","","Mainly Clear"
"-94.07","58.74","CHURCHILL A","5060605","2022-09-05 22:00","2022","09","05","22:00","21.0","","15.4","","70","","","","21","","18","","24.1","","99.65","","25","","","","NA"
"-94.07","58.74","CHURCHILL A","5060605","2022-09-05 23:00","2022","09","05","23:00","19.9","","15.4","","75","","","","20","","19","","24.1","","99.60","","","","","","NA"
"-94.07","58.74","CHURCHILL A","5060605","2022-09-06 00:00","2022","09","06","00:00","19.2","","15.1","","77","","","","20","","19","","24.1","","99.53","","","","","","Clear"
"-94.07","58.74","CHURCHILL A","5060605","2022-09-06 01:00","2022","09","06","01:00","17.7","","14.4","","81","","","","18","","19","","24.1","","99.46","","","","","","NA"
"-94.07","58.74","CHURCHILL A","5060605","2022-09-06 02:00","2022","09","06","02:00","17.1","","13.7","","80","","","","18","","19","","24.1","","99.37","","","","","","NA"
"-94.07","58.74","CHURCHILL A","5060605","2022-09-06 03:00","2022","09","06","03:00","17.2","","13.2","","77","","","","19","","18","","24.1","","99.27","","","","","","Clear"
"-94.07","58.74","CHURCHILL A","5060605","2022-09-06 04:00","2022","09","06","04:00","16.3","","12.9","","80","","","","18","","18","","24.1","","99.19","","","","","","NA"
"-94.07","58.74","CHURCHILL A","5060605","2022-09-06 05:00","2022","09","06","05:00","16.0","","12.8","","81","","","","17","","20","","24.1","","99.06","","","","","","NA"
"-94.07","58.74","CHURCHILL A","5060605","2022-09-06 06:00","2022","09","06","06:00","16.6","","13.0","","79","","","","17","","21","","24.1","","98.97","","","","","","Mostly Cloudy"
"-94.07","58.74","CHURCHILL A","5060605","2022-09-06 07:00","2022","09","06","07:00","17.2","","13.4","","78","","","","19","","21","","24.1","","98.90","","","","","","NA"
"-94.07","58.74","CHURCHILL A","5060605","2022-09-06 08:00","2022","09","06","08:00","18.6","","13.9","","74","","","","19","","21","","24.1","","98.75","","","","","","NA"
"-94.07","58.74","CHURCHILL A","5060605","2022-09-06 09:00","2022","09","06","09:00","18.6","","14.3","","76","","","","20","","22","","24.1","","98.68","","","","","","Mostly Cloudy"
"-94.07","58.74","CHURCHILL A","5060605","2022-09-06 10:00","2022","09","06","10:00","18.5","","15.2","","81","","","","23","","28","","24.1","","98.63","","","","","","NA"
"-94.07","58.74","CHURCHILL A","5060605","2022-09-06 11:00","2022","09","06","11:00","16.2","","13.9","","86","","","","25","","35","","24.1","","98.69","","","","","","Rain Showers"
"-94.07","58.74","CHURCHILL A","5060605","2022-09-06 12:00","2022","09","06","12:00","15.5","","13.5","","88","","","","27","","36","","24.1","","98.78","","","","","","Rain Showers"
"-94.07","58.74","CHURCHILL A","5060605","2022-09-06 13:00","2022","09","06","13:00","13.6","","11.9","","89","","","","30","","35","","24.1","","99.00","","","","","","NA"
"-94.07","58.74","CHURCHILL A","5060605","2022-09-06 14:00","2022","09","06","14:00","14.1","","10.6","","79","","","","30","","39","","24.1","","99.20","","","","","","NA"
"-94.07","58.74","CHURCHILL A","5060605","2022-09-06 15:00","2022","09","06","15:00","13.9","","10.6","","80","","","","28","","35","","24.1","","99.34","","","","","","Cloudy"
"-94.07","58.74","CHURCHILL A","5060605","2022-09-06 16:00","2022","09","06","16:00","13.9","","10.6","","81","","","","27","","33","","24.1","","99.46","","","","","","Rain Showers"
"-94.07","58.74","CHURCHILL A","5060605","2022-09-06 17:00","2022","09","06","17:00","14.2","","11.3","","83","","","","25","","25","","24.1","","99.50","","","","","","Rain Showers"
"-94.07","58.74","CHURCHILL A","5060605","2022-09-06 18:00","2022","09","06","18:00","14.4","","11.6","","83","","","","25","","27","","24.1","","99.53","","","","","","Mostly Cloudy"
"-94.07","58.74","CHURCHILL A","5060605","2022-09-06 19:00","2022","09","06","19:00","14.5","","11.8","","83","","","","25","","23","","24.1","","99.57","","","","","","NA"
"-94.07","58.74","CHURCHILL A","5060605","2022-09-06 20:00","2022","09","06","20:00","14.3","","10.8","","79","","","","25","","33","","24.1","","99.57","","","","","","Rain"
"-94.07","58.74","CHURCHILL A","5060605","2022-09-06 21:00","2022","09","06","21:00","14.3","","10.8","","79","","","","25","","27","","24.1","","99.59","","","","","","Cloudy"
"-94.07","58.74","CHURCHILL A","5060605","2022-09-06 22:00","2022","09","06","22:00","14.1","","10.5","","79","","","","27","","36","","24.1","","99.58","","","","","","NA"
"-94.07","58.74","CHURCHILL A","5060605","2022-09-06 23:00","2022","09","06","23:00","13.7","","10.0","","78","","","","27","","33","","24.1","","99.67","","","","","","NA"
"-94.07","58.74","CHURCHILL A","5060605","2022-09-07 00:00","2022","09","07","00:00","13.4","","9.2","","76","","","","27","","33","","24.1","","99.72","","","","","","Mostly Cloudy"
"-94.07","58.74","CHURCHILL A","5060605","2022-09-07 01:00","2022","09","07","01:00","12.7","","8.7","","76","","","","26","","32","","24.1","","99.76","","","","","","NA"
"-94.07","58.74","CHURCHILL A","5060605","2022-09-07 02:00","2022","09","07","02:00","12.8","","8.9","","77","","","","27","","32","","24.1","","99.79","","","","","","NA"
"-94.07","58.74","CHURCHILL A","5060605","2022-09-07 03:00","2022","09","07","03:00","12.2","","8.9","","80","","","","26","","28","","24.1","","99.82","","","","","","Mainly Clear"
"-94.07","58.74","CHURCHILL A","5060605","2022-09-07 04:00","2022","09","07","04:00","12.3","","8.6","","78","","","","26","","29","","24.1","","99.85","","","","","","NA"
"-94.07","58.74","CHURCHILL A","5060605","2022-09-07 05:00","2022","09","07","05:00","12.0","","8.3","","78","","","","26","","32","","24.1","","99.87","","","","","","NA"
"-94.07","58.74","CHURCHILL A","5060605","2022-09-07 06:00","2022","09","07","06:00","11.9","","7.7","","75","","","","26","","28","","24.1","","99.88","","","","","","Clear"
"-94.07","58.74","CHURCHILL A","5060605","2022-09-07 07:00","2022","09","07","07:00","12.8","","7.1","","68","","","","27","","35","","24.1","","99.91","","","","","","NA"
"-94.07","58.74","CHURCHILL A","5060605","2022-09-07 08:00","2022","09","07","08:00","13.5","","7.4","","67","","","","27","","37","","24.1","","99.90","","","","","","NA"
"-94.07","58.74","CHURCHILL A","5060605","2022-09-07 09:00","2022","09","07","09:00","14.5","","7.8","","64","","","","26","","31","","24.1","","99.88","","","","","","Mainly Clear"
"-94.07","58.74","CHURCHILL A","5060605","2022-09-07 10:00","2022","09","07","10:00","14.6","","7.5","","62","","","","28","","32","","24.1","","99.90","","","","","","NA"
"-94.07","58.74","CHURCHILL A","5060605","2022-09-07 11:00","2022","09","07","11:00","15.2","","7.1","","58","","","","28","","34","","24.1","","99.90","","","","","","NA"
"-94.07","58.74","CHURCHILL A","5060605","2022-09-07 12:00","2022","09","07","12:00","15.8","","6.9","","55","","","","26","","37","","24.1","","99.86","","","","","","Mostly Cloudy"
"-94.07","58.74","CHURCHILL A","5060605","2022-09-07 13:00","2022","09","07","13:00","15.9","","6.5","","54","","","","29","","34","","24.1","","99.91","","","","","","NA"
"-94.07","58.74","CHURCHILL A","5060605","2022-09-07 14:00","2022","09","07","14:00","17.0","","7.6","","54","","","","28","","32","","24.1","","99.89","","","","","","NA"
"-94.07","58.74","CHURCHILL A","5060605","2022-09-07 15:00","2022","09","07","15:00","17.7","","7.6","","51","","","","28","","30","","24.1","","99.88","","","","","","Mainly Clear"
"-94.07","58.74","CHURCHILL A","5060605","2022-09-07 16:00","2022","09","07","16:00","18.2","","6.8","","47","","","","28","","30","","24.1","","99.84","","","","","","NA"
"-94.07","58.74","CHURCHILL A","5060605","2022-09-07 17:00","2022","09","07","17:00","18.0","","5.6","","44","","","","28","","25","","24.1","","99.84","","","","","","NA"
"-94.07","58.74","CHURCHILL A","5060605","2022-09-07 18:00","2022","09","07","18:00","17.0","","5.2","","45","","","","27","","23","","24.1","","99.82","","","","","","Mainly Clear"
"-94.07","58.74","CHURCHILL A","5060605","2022-09-07 19:00","2022","09","07","19:00","15.6","","5.6","","51","","","","26","","17","","24.1","","99.82","","","","","","NA"
"-94.07","58.74","CHURCHILL A","5060605","2022-09-07 20:00","2022","09","07","20:00","14.2","","5.8","","57","","","","26","","16","","24.1","","99.79","","","","","","NA"
"-94.07","58.74","CHURCHILL A","5060605","2022-09-07 21:00","2022","09","07","21:00","12.3","","6.1","","66","","","","24","","17","","24.1","","99.76","","","","","","Clear"
"-94.07","58.74","CHURCHILL A","5060605","2022-09-07 22:00","2022","09","07","22:00","12.0","","5.9","","66","","","","23","","18","","24.1","","99.73","","","","","","NA"
"-94.07","58.74","CHURCHILL A","5060605","2022-09-07 23:00","2022","09","07","23:00","12.3","","6.2","","66","","","","25","","19","","24.1","","99.69","","","","","","NA"
"-94.07","58.74","CHURCHILL A","5060605","2022-09-08 00:00","2022","09","08","00:00","12.2","","6.9","","70","","","","27","","8","","24.1","","99.64","","","","","","Mostly Cloudy"
"-94.07","58.74","CHURCHILL A","5060605","2022-09-08 01:00","2022","09","08","01:00","11.5","","7.6","","77","","","","28","","14","","24.1","","99.64","","","","","","NA"
"-94.07","58.74","CHURCHILL A","5060605","2022-09-08 02:00","2022","09","08","02:00","10.8","","6.8","","76","","","","31","","12","","24.1","","99.58","","","","","","NA"
"-94.07","58.74","CHURCHILL A","5060605","2022-09-08 03:00","2022","09","08","03:00","10.2","","7.3","","82","","","","31","","7","","24.1","","99.54","","","","","","Mostly Cloudy"
"-94.07","58.74","CHURCHILL A","5060605","2022-09-08 04:00","2022","09","08","04:00","10.4","","7.8","","84","","","","34","","4","","24.1","","99.44","","","","","","NA"
"-94.07","58.74","CHURCHILL A","5060605","2022-09-08 05:00","2022","09","08","05:00","10.5","","7.9","","84","","","","32","","5","","24.1","","99.36","","","","","","NA"
"-94.07","58.74","CHURCHILL A","5060605","2022-09-08 06:00","2022","09","08","06:00","9.8","","7.6","","86","","","","30","","5","","24.1","","99.36","","","","","","Mostly Cloudy"
"-94.07","58.74","CHURCHILL A","5060605","2022-09-08 07:00","2022","09","08","07:00","10.0","","7.6","","85","","","","31","","13","","24.1","","99.35","","","","","","NA"
"-94.07","58.74","CHURCHILL A","5060605","2022-09-08 08:00","2022","09","08","08:00","9.5","","7.5","","87","","","","31","","13","","24.1","","99.31","","","","","","Rain Showers"
"-94.07","58.74","CHURCHILL A","5060605","2022-09-08 09:00","2022","09","08","09:00","10.2","","6.9","","80","","","","33","","15","","24.1","","99.26","","","","","","Mostly Cloudy"
"-94.07","58.74","CHURCHILL A","5060605","2022-09-08 10:00","2022","09","08","10:00","10.5","","7.0","","79","","","","33","","16","","24.1","","99.22","","","","","","NA"
"-94.07","58.74","CHURCHILL A","5060605","2022-09-08 11:00","2022","09","08","11:00","10.6","","6.4","","75","","","","34","","15","","24.1","","99.18","","","","","","NA"
"-94.07","58.74","CHURCHILL A","5060605","2022-09-08 12:00","2022","09","08","12:00","10.3","","7.7","","84","","","","29","","10","","24.1","","99.14","","","","","","Mostly Cloudy"
"-94.07","58.74","CHURCHILL A","5060605","2022-09-08 13:00","2022","09","08","13:00","12.4","","7.8","","74","","","","34","","17","","24.1","","99.13","","","","","","NA"
"-94.07","58.74","CHURCHILL A","5060605","2022-09-08 14:00","2022","09","08","14:00","10.3","","9.2","","93","","","","35","","20","","3.2","","99.13","","","","","","Rain Showers,Fog"
"-94.07","58.74","CHURCHILL A","5060605","2022-09-08 15:00","2022","09","08","15:00","11.8","","8.6","","81","","","","32","","15","","24.1","","99.11","","","","","","Mostly Cloudy"
"-94.07","58.74","CHURCHILL A","5060605","2022-09-08 16:00","2022","09","08","16:00","12.0","","7.5","","74","","","","31","","23","","6.4","","99.15","","","","","","Rain Showers"
"-94.07","58.74","CHURCHILL A","5060605","2022-09-08 17:00","2022","09","08","17:00","11.7","","6.9","","72","","","","29","","21","","24.1","","99.13","","","","","","NA"
"-94.07","58.74","CHURCHILL A","5060605","2022-09-08 18:00","2022","09","08","18:00","11.2","","6.0","","70","","","","29","","11","","24.1","","99.16","","","","","","Mostly Cloudy"
"-94.07","58.74","CHURCHILL A","5060605","2022-09-08 19:00","2022","09","08","19:00","11.1","","5.9","","70","","","","26","","20","","24.1","","99.13","","","","","","NA"
"-94.07","58.74","CHURCHILL A","5060605","2022-09-08 20:00","2022","09","08","20:00","10.5","","6.5","","76","","","","25","","14","","24.1","","99.12","","","","","","NA"
"-94.07","58.74","CHURCHILL A","5060605","2022-09-08 21:00","2022","09","08","21:00","10.2","","6.3","","76","","","","25","","16","","24.1","","99.08","","","","","","Mostly Cloudy"
"-94.07","58.74","CHURCHILL A","5060605","2022-09-08 22:00","2022","09","08","22:00","9.7","","6.1","","78","","","","28","","23","","24.1","","99.06","","","","","","NA"
"-94.07","58.74","CHURCHILL A","5060605","2022-09-08 23:00","2022","09","08","23:00","8.9","","4.3","","73","","","","27","","26","","24.1","","99.05","","","","","","NA"
"-94.07","58.74","CHURCHILL A","5060605","2022-09-09 00:00","2022","09","09","00:00","7.8","","4.4","","79","","","","26","","22","","24.1","","99.02","","","","","","Mainly Clear"
"-94.07","58.74","CHURCHILL A","5060605","2022-09-09 01:00","2022","09","09","01:00","7.4","","4.5","","82","","","","27","","27","","24.1","","99.01","","","","","","NA"
"-94.07","58.74","CHURCHILL A","5060605","2022-09-09 02:00","2022","09","09","02:00","6.8","","4.1","","83","","","","26","","27","","24.1","","99.03","","","","","","NA"
"-94.07","58.74","CHURCHILL A","5060605","2022-09-09 03:00","2022","09","09","03:00","6.9","","4.0","","82","","","","26","","26","","24.1","","99.01","","","","","","Cloudy"
"-94.07","58.74","CHURCHILL A","5060605","2022-09-09 04:00","2022","09","09","04:00","6.8","","4.3","","84","","","","26","","29","","24.1","","98.99","","","","","","NA"
"-94.07","58.74","CHURCHILL A","5060605","2022-09-09 05:00","2022","09","09","05:00","6.9","","4.7","","86","","","","26","","28","","24.1","","98.98","","","","","","NA"
"-94.07","58.74","CHURCHILL A","5060605","2022-09-09 06:00","2022","09","09","06:00","7.0","","5.0","","87","","","","26","","35","","24.1","","99.00","","","","","","Mostly Cloudy"
"-94.07","58.74","CHURCHILL A","5060605","2022-09-09 07:00","2022","09","09","07:00","7.0","","6.0","","93","","","","26","","30","","19.3","","99.03","","","","","","Rain Showers"
"-94.07","58.74","CHURCHILL A","5060605","2022-09-09 08:00","2022","09","09","08:00","7.9","","6.5","","91","","","","27","","31","","24.1","","99.07","","","","","","Rain Showers"
"-94.07","58.74","CHURCHILL A","5060605","2022-09-09 09:00","2022","09","09","09:00","8.0","","6.0","","87","","","","28","","32","","24.1","","99.11","","","","","","Rain Showers"
"-94.07","58.74","CHURCHILL A","5060605","2022-09-09 10:00","2022","09","09","10:00","8.6","","6.6","","87","","","","28","","31","","24.1","","99.14","","","","","","Rain Showers"
"-94.07","58.74","CHURCHILL A","5060605","2022-09-09 11:00","2022","09","09","11:00","7.5","","6.8","","95","","","","30","","30","","3.2","","99.19","","","","","","Rain Showers,Fog"
"-94.07","58.74","CHURCHILL A","5060605","2022-09-09 12:00","2022","09","09","12:00","8.3","","5.8","","84","","","","29","","34","","24.1","","99.24","","","","","","Rain Showers"
"-94.07","58.74","CHURCHILL A","5060605","2022-09-09 13:00","2022","09","09","13:00","8.5","","6.8","","89","","","","28","","22","","24.1","","99.27","","","","","","Rain Showers"
"-94.07","58.74","CHURCHILL A","5060605","2022-09-09 14:00","2022","09","09","14:00","9.6","","5.6","","76","","","","28","","37","","24.1","","99.31","","","","","","NA"
"-94.07","58.74","CHURCHILL A","5060605","2022-09-09 15:00","2022","09","09","15:00","10.0","","6.5","","79","","","","29","","25","","24.1","","99.35","","","","","","Rain Showers"
"-94.07","58.74","CHURCHILL A","5060605","2022-09-09 16:00","2022","09","09","16:00","9.4","","6.0","","79","","","","28","","30","","24.1","","99.40","","","","","","Rain Showers"
"-94.07","58.74","CHURCHILL A","5060605","2022-09-09 17:00","2022","09","09","17:00","8.5","","6.6","","88","","","","28","","23","","19.3","","99.46","","","","","","Rain Showers"
"-94.07","58.74","CHURCHILL A","5060605","2022-09-09 18:00","2022","09","09","18:00","7.3","","5.7","","90","","","","28","","35","","24.1","","99.50","","","","","","Rain Showers"
"-94.07","58.74","CHURCHILL A","5060605","2022-09-09 19:00","2022","09","09","19:00","7.8","","5.5","","85","","","","28","","30","","24.1","","99.54","","","","","","Rain Showers"
"-94.07","58.74","CHURCHILL A","5060605","2022-09-09 20:00","2022","09","09","20:00","7.6","","5.6","","87","","","","28","","29","","24.1","","99.59","","","","","","Rain Showers"
"-94.07","58.74","CHURCHILL A","5060605","2022-09-09 21:00","2022","09","09","21:00","7.4","","5.2","","86","","","","29","","33","","24.1","","99.63","","","","","","Rain Showers"
"-94.07","58.74","CHURCHILL A","5060605","2022-09-09 22:00","2022","09","09","22:00","7.4","","5.4","","87","","","","28","","33","","24.1","","99.67","","","","","","Rain Showers"
"-94.07","58.74","CHURCHILL A","5060605","2022-09-09 23:00","2022","09","09","23:00","7.1","","5.5","","90","","","","28","","26","","24.1","","99.72","","","","","","Rain Showers"
"-94.07","58.74","CHURCHILL A","5060605","2022-09-10 00:00","2022","09","10","00:00","7.1","","5.1","","87","","","","28","","24","","24.1","","99.76","","","","","","Rain Showers"
"-94.07","58.74","CHURCHILL A","5060605","2022-09-10 01:00","2022","09","10","01:00","7.1","","4.4","","83","","","","28","","32","","24.1","","99.81","","","","","","NA"
"-94.07","58.74","CHURCHILL A","5060605","2022-09-10 02:00","2022","09","10","02:00","6.9","","4.6","","85","","","","28","","21","","24.1","","99.85","","","","","","NA"
"-94.07","58.74","CHURCHILL A","5060605","2022-09-10 03:00","2022","09","10","03:00","6.7","","4.4","","85","","","","27","","23","","24.1","","99.89","","","","","","Mostly Cloudy"
"-94.07","58.74","CHURCHILL A","5060605","2022-09-10 04:00","2022","09","10","04:00","6.7","","3.9","","82","","","","28","","21","","24.1","","99.92","","","","","","NA"
"-94.07","58.74","CHURCHILL A","5060605","2022-09-10 05:00","2022","09","10","05:00","6.6","","4.3","","85","","","","27","","24","","24.1","","99.96","","","","","","NA"
"-94.07","58.74","CHURCHILL A","5060605","2022-09-10 06:00","2022","09","10","06:00","6.9","","4.4","","84","","","","28","","27","","24.1","","99.99","","","","","","Mostly Cloudy"
"-94.07","58.74","CHURCHILL A","5060605","2022-09-10 07:00","2022","09","10","07:00","7.2","","4.3","","82","","","","27","","27","","24.1","","100.04","","","","","","NA"
"-94.07","58.74","CHURCHILL A","5060605","2022-09-10 08:00","2022","09","10","08:00","7.7","","4.8","","82","","","","28","","30","","24.1","","100.07","","","","","","NA"
"-94.07","58.74","CHURCHILL A","5060605","2022-09-10 09:00","2022","09","10","09:00","9.0","","4.8","","75","","","","27","","35","","24.1","","100.11","","","","","","Mostly Cloudy"
"-94.07","58.74","CHURCHILL A","5060605","2022-09-10 10:00","2022","09","10","10:00","9.5","","4.7","","72","","","","28","","34","","24.1","","100.14","","","","","","NA"
"-94.07","58.74","CHURCHILL A","5060605","2022-09-10 11:00","2022","09","10","11:00","10.0","","5.6","","74","","","","28","","32","","24.1","","100.16","","","","","","NA"
"-94.07","58.74","CHURCHILL A","5060605","2022-09-10 12:00","2022","09","10","12:00","9.7","","4.8","","71","","","","27","","27","","24.1","","100.22","","","","","","Mostly Cloudy"
"-94.07","58.74","CHURCHILL A","5060605","2022-09-10 13:00","2022","09","10","13:00","11.6","","4.5","","61","","","","28","","30","","24.1","","100.23","","","","","","NA"
"-94.07","58.74","CHURCHILL A","5060605","2022-09-10 14:00","2022","09","10","14:00","11.0","","5.3","","68","","","","27","","22","","24.1","","100.28","","","","","","NA"
"-94.07","58.74","CHURCHILL A","5060605","2022-09-10 15:00","2022","09","10","15:00","11.2","","5.2","","67","","","","26","","23","","24.1","","100.29","","","","","","Mostly Cloudy"
"-94.07","58.74","CHURCHILL A","5060605","2022-09-10 16:00","2022","09","10","16:00","12.2","","5.0","","61","","","","28","","24","","24.1","","100.31","","","","","","NA"
"-94.07","58.74","CHURCHILL A","5060605","2022-09-10 17:00","2022","09","10","17:00","12.9","","4.4","","56","","","","28","","26","","24.1","","100.33","","","","","","NA"
"-94.07","58.74","CHURCHILL A","5060605","2022-09-10 18:00","2022","09","10","18:00","11.4","","5.1","","65","","","","25","","14","","24.1","","100.34","","","","","","Mostly Cloudy"
"-94.07","58.74","CHURCHILL A","5060605","2022-09-10 19:00","2022","09","10","19:00","9.8","","5.4","","74","","","","22","","12","","24.1","","100.36","","","","","","NA"
"-94.07","58.74","CHURCHILL A","5060605","2022-09-10 20:00","2022","09","10","20:00","9.5","","5.7","","77","","","","21","","11","","24.1","","100.37","","","","","","NA"
"-94.07","58.74","CHURCHILL A","5060605","2022-09-10 21:00","2022","09","10","21:00","9.8","","5.0","","72","","","","23","","13","","24.1","","100.37","","","","","","Mostly Cloudy"
"-94.07","58.74","CHURCHILL A","5060605","2022-09-10 22:00","2022","09","10","22:00","9.1","","5.5","","78","","","","21","","13","","24.1","","100.36","","","","","","NA"
"-94.07","58.74","CHURCHILL A","5060605","2022-09-10 23:00","2022","09","10","23:00","7.3","","4.7","","83","","","","19","","13","","24.1","","100.31","","","","","","NA"
"-94.07","58.74","CHURCHILL A","5060605","2022-09-11 00:00","2022","09","11","00:00","7.5","","5.2","","85","","","","19","","14","","24.1","","100.23","","","","","","Mostly Cloudy"
"-94.07","58.74","CHURCHILL A","5060605","2022-09-11 01:00","2022","09","11","01:00","9.4","","6.2","","80","","","","21","","17","","24.1","","100.14","","","","","","NA"
"-94.07","58.74","CHURCHILL A","5060605","2022-09-11 02:00","2022","09","11","02:00","10.0","","6.9","","81","","","","19","","15","","24.1","","100.07","","","","","","NA"
"-94.07","58.74","CHURCHILL A","5060605","2022-09-11 03:00","2022","09","11","03:00","9.9","","7.0","","82","","","","18","","16","","24.1","","99.97","","","","","","Cloudy"
"-94.07","58.74","CHURCHILL A","5060605","2022-09-11 04:00","2022","09","11","04:00","9.4","","6.8","","84","","","","19","","16","","24.1","","99.90","","","","","","NA"
"-94.07","58.74","CHURCHILL A","5060605","2022-09-11 05:00","2022","09","11","05:00","9.6","","6.7","","82","","","","18","","14","","24.1","","99.84","","","","","","NA"
"-94.07","58.74","CHURCHILL A","5060605","2022-09-11 06:00","2022","09","11","06:00","9.9","","6.6","","80","","","","20","","15","","24.1","","99.79","","","","","","Mostly Cloudy"
"-94.07","58.74","CHURCHILL A","5060605","2022-09-11 07:00","2022","09","11","07:00","11.1","","7.0","","76","","","","22","","20","","24.1","","99.72","","","","","","NA"
"-94.07","58.74","CHURCHILL A","5060605","2022-09-11 08:00","2022","09","11","08:00","12.2","","8.0","","75","","","","24","","18","","24.1","","99.66","","","","","","NA"
"-94.07","58.74","CHURCHILL A","5060605","2022-09-11 09:00","2022","09","11","09:00","14.3","","8.7","","69","","","","25","","20","","24.1","","99.63","","","","","","Mainly Clear"
"-94.07","58.74","CHURCHILL A","5060605","2022-09-11 10:00","2022","09","11","10:00","15.3","","9.5","","68","","","","27","","24","","24.1","","99.67","","","","","","NA"
"-94.07","58.74","CHURCHILL A","5060605","2022-09-11 11:00","2022","09","11","11:00","16.5","","9.3","","62","","","","29","","23","","24.1","","99.70","","","","","","NA"
"-94.07","58.74","CHURCHILL A","5060605","2022-09-11 12:00","2022","09","11","12:00","17.8","","6.8","","48","","","","28","","36","","24.1","","99.67","","","","","","Mainly Clear"
"-94.07","58.74","CHURCHILL A","5060605","2022-09-11 13:00","2022","09","11","13:00","18.5","","4.4","","39","","","","27","","36","","24.1","","99.70","","","","","","NA"
"-94.07","58.74","CHURCHILL A","5060605","2022-09-11 14:00","2022","09","11","14:00","16.3","","6.2","","51","","","","30","","22","","24.1","","99.77","","","","","","NA"
"-94.07","58.74","CHURCHILL A","5060605","2022-09-11 15:00","2022","09","11","15:00","16.5","","5.7","","48","","","","28","","26","","24.1","","99.79","","","","","","Mostly Cloudy"
"-94.07","58.74","CHURCHILL A","5060605","2022-09-11 16:00","2022","09","11","16:00","15.7","","5.8","","52","","","","30","","31","","24.1","","99.87","","","","","","NA"
"-94.07","58.74","CHURCHILL A","5060605","2022-09-11 17:00","2022","09","11","17:00","14.9","","4.9","","51","","","","29","","32","","24.1","","99.92","","","","","","NA"
"-94.07","58.74","CHURCHILL A","5060605","2022-09-11 18:00","2022","09","11","18:00","13.9","","5.3","","56","","","","29","","32","","24.1","","100.00","","","","","","Cloudy"
"-94.07","58.74","CHURCHILL A","5060605","2022-09-11 19:00","2022","09","11","19:00","12.6","","5.7","","63","","","","29","","26","","24.1","","100.06","","","","","","NA"
"-94.07","58.74","CHURCHILL A","5060605","2022-09-11 20:00","2022","09","11","20:00","11.8","","6.8","","71","","","","31","","23","","24.1","","100.12","","","","","","NA"
"-94.07","58.74","CHURCHILL A","5060605","2022-09-11 21:00","2022","09","11","21:00","11.2","","6.6","","73","","","","30","","27","","24.1","","100.13","","","","","","Mostly Cloudy"
"-94.07","58.74","CHURCHILL A","5060605","2022-09-11 22:00","2022","09","11","22:00","10.7","","6.8","","77","","","","31","","21","","24.1","","100.17","","","","","","NA"
"-94.07","58.74","CHURCHILL A","5060605","2022-09-11 23:00","2022","09","11","23:00","9.3","","6.2","","81","","","","34","","17","","24.1","","100.22","","","","","","NA"
"-94.07","58.74","CHURCHILL A","5060605","2022-09-12 00:00","2022","09","12","00:00","9.5","","5.6","","76","","","","32","","18","","24.1","","100.23","","","","","","Cloudy"
"-94.07","58.74","CHURCHILL A","5060605","2022-09-12 01:00","2022","09","12","01:00","9.3","","5.1","","75","","","","31","","24","","24.1","","100.24","","","","","","NA"
"-94.07","58.74","CHURCHILL A","5060605","2022-09-12 02:00","2022","09","12","02:00","8.9","","4.7","","75","","","","31","","21","","24.1","","100.29","","","","","","NA"
"-94.07","58.74","CHURCHILL A","5060605","2022-09-12 03:00","2022","09","12","03:00","8.5","","4.9","","78","","","","30","","22","","24.1","","100.30","","","","","","Mostly Cloudy"
"-94.07","58.74","CHURCHILL A","5060605","2022-09-12 04:00","2022","09","12","04:00","8.1","","5.4","","83","","","","29","","22","","24.1","","100.30","","","","","","NA"
"-94.07","58.74","CHURCHILL A","5060605","2022-09-12 05:00","2022","09","12","05:00","7.6","","5.1","","84","","","","29","","24","","24.1","","100.33","","","","","","NA"
"-94.07","58.74","CHURCHILL A","5060605","2022-09-12 06:00","2022","09","12","06:00","7.0","","4.5","","84","","","","29","","23","","24.1","","100.34","","","","","","Mainly Clear"
"-94.07","58.74","CHURCHILL A","5060605","2022-09-12 07:00","2022","09","12","07:00","7.4","","4.9","","84","","","","30","","26","","24.1","","100.39","","","","","","NA"
"-94.07","58.74","CHURCHILL A","5060605","2022-09-12 08:00","2022","09","12","08:00","7.8","","4.9","","82","","","","30","","25","","24.1","","100.43","","","","","","NA"
"-94.07","58.74","CHURCHILL A","5060605","2022-09-12 09:00","2022","09","12","09:00","8.2","","5.2","","81","","","","31","","25","","24.1","","100.45","","","","","","Mostly Cloudy"
"-94.07","58.74","CHURCHILL A","5060605","2022-09-12 10:00","2022","09","12","10:00","8.6","","5.5","","81","","","","31","","28","","24.1","","100.49","","","","","","Drizzle"
"-94.07","58.74","CHURCHILL A","5060605","2022-09-12 11:00","2022","09","12","11:00","8.8","","5.6","","80","","","","32","","29","","24.1","","100.53","","","","","","NA"
"-94.07","58.74","CHURCHILL A","5060605","2022-09-12 12:00","2022","09","12","12:00","9.2","","6.0","","80","","","","32","","30","","24.1","","100.58","","","","","","Cloudy"
"-94.07","58.74","CHURCHILL A","5060605","2022-09-12 13:00","2022","09","12","13:00","9.5","","5.8","","78","","","","32","","24","","24.1","","100.63","","","","","","NA"
"-94.07","58.74","CHURCHILL A","5060605","2022-09-12 14:00","2022","09","12","14:00","9.8","","5.8","","76","","","","33","","25","","24.1","","100.67","","","","","","NA"
"-94.07","58.74","CHURCHILL A","5060605","2022-09-12 15:00","2022","09","12","15:00","9.7","","6.1","","78","","","","34","","20","","24.1","","100.71","","","","","","Cloudy"
"-94.07","58.74","CHURCHILL A","5060605","2022-09-12 16:00","2022","09","12","16:00","9.4","","6.5","","82","","","","34","","20","","24.1","","100.75","","","","","","NA"
"-94.07","58.74","CHURCHILL A","5060605","2022-09-12 17:00","2022","09","12","17:00","9.4","","6.0","","79","","","","33","","21","","24.1","","100.82","","","","","","NA"
"-94.07","58.74","CHURCHILL A","5060605","2022-09-12 18:00","2022","09","12","18:00","7.8","","6.6","","92","","","","35","","24","","19.3","","100.90","","","","","","Rain Showers"
"-94.07","58.74","CHURCHILL A","5060605","2022-09-12 19:00","2022","09","12","19:00","7.7","","5.8","","88","","","","34","","33","","24.1","","100.94","","","","","","NA"
"-94.07","58.74","CHURCHILL A","5060605","2022-09-12 20:00","2022","09","12","20:00","7.6","","4.6","","81","","","","34","","27","","24.1","","100.99","","","","","","NA"
"-94.07","58.74","CHURCHILL A","5060605","2022-09-12 21:00","2022","09","12","21:00","7.7","","3.1","","73","","","","34","","28","","24.1","","100.99","","","","","","Cloudy"
"-94.07","58.74","CHURCHILL A","5060605","2022-09-12 22:00","2022","09","12","22:00","7.5","","3.3","","75","","","","34","","24","","24.1","","101.00","","","","","","NA"
"-94.07","58.74","CHURCHILL A","5060605","2022-09-12 23:00","2022","09","12","23:00","7.1","","1.9","","70","","","","34","","25","","24.1","","101.01","","","","","","NA"
"-94.07","58.74","CHURCHILL A","5060605","2022-09-13 00:00","2022","09","13","00:00","7.1","","3.9","","80","","","","33","","16","","24.1","","101.03","","","","","","Mostly Cloudy"
"-94.07","58.74","CHURCHILL A","5060605","2022-09-13 01:00","2022","09","13","01:00","6.8","","2.5","","74","","","","33","","25","","24.1","","101.05","","","","","","NA"
"-94.07","58.74","CHURCHILL A","5060605","2022-09-13 02:00","2022","09","13","02:00","6.4","","1.0","","68","","","","34","","29","","24.1","","101.11","","","","","","NA"
"-94.07","58.74","CHURCHILL A","5060605","2022-09-13 03:00","2022","09","13","03:00","5.8","","-0.3","","65","","","","33","","30","","24.1","","101.14","","","","","","Mostly Cloudy"
"-94.07","58.74","CHURCHILL A","5060605","2022-09-13 04:00","2022","09","13","04:00","5.3","","0.7","","72","","","","32","","22","","24.1","","101.18","","","","","","NA"
"-94.07","58.74","CHURCHILL A","5060605","2022-09-13 05:00","2022","09","13","05:00","5.1","","0.7","","73","","","","34","","24","","24.1","","101.22","","","","","","NA"
"-94.07","58.74","CHURCHILL A","5060605","2022-09-13 06:00","2022","09","13","06:00","4.7","","1.0","","77","","","","33","","29","","24.1","","101.27","","","","","","Mostly Cloudy"
"-94.07","58.74","CHURCHILL A","5060605","2022-09-13 07:00","2022","09","13","07:00","5.0","","1.5","","78","","","","31","","21","","24.1","","101.30","","","","","","NA"
"-94.07","58.74","CHURCHILL A","5060605","2022-09-13 08:00","2022","09","13","08:00","5.4","","2.1","","80","","","","32","","23","","24.1","","101.33","","","","","","NA"
"-94.07","58.74","CHURCHILL A","5060605","2022-09-13 09:00","2022","09","13","09:00","5.7","","1.0","","72","","","","32","","27","","24.1","","101.37","","","","","","Mainly Clear"
"-94.07","58.74","CHURCHILL A","5060605","2022-09-13 10:00","2022","09","13","10:00","6.2","","0.2","","65","","","","32","","20","","24.1","","101.41","","","","","","NA"
"-94.07","58.74","CHURCHILL A","5060605","2022-09-13 11:00","2022","09","13","11:00","7.2","","-0.7","","57","","","","33","","22","","24.1","","101.40","","","","","","NA"
"-94.07","58.74","CHURCHILL A","5060605","2022-09-13 12:00","2022","09","13","12:00","7.3","","-0.5","","58","","","","33","","19","","24.1","","101.42","","","","","","Mostly Cloudy"
"-94.07","58.74","CHURCHILL A","5060605","2022-09-13 13:00","2022","09","13","13:00","7.9","","-0.2","","56","","","","33","","16","","24.1","","101.43","","","","","","NA"
"-94.07","58.74","CHURCHILL A","5060605","2022-09-13 14:00","2022","09","13","14:00","7.7","","0.4","","60","","","","2","","13","","24.1","","101.42","","","","","","NA"
"-94.07","58.74","CHURCHILL A","5060605","2022-09-13 15:00","2022","09","13","15:00","7.4","","-0.1","","59","","","","2","","9","","24.1","","101.44","","","","","","Mostly Cloudy"
"-94.07","58.74","CHURCHILL A","5060605","2022-09-13 16:00","2022","09","13","16:00","7.5","","0.2","","60","","","","6","","9","","24.1","","101.44","","","","","","NA"
"-94.07","58.74","CHURCHILL A","5060605","2022-09-13 17:00","2022","09","13","17:00","7.4","","-0.3","","58","","","","6","","7","","24.1","","101.44","","","","","","NA"
"-94.07","58.74","CHURCHILL A","5060605","2022-09-13 18:00","2022","09","13","18:00","6.3","","0.4","","66","","","","11","","8","","24.1","","101.43","","","","","","Mainly Clear"
"-94.07","58.74","CHURCHILL A","5060605","2022-09-13 19:00","2022","09","13","19:00","6.6","","1.0","","67","","","","15","","11","","24.1","","101.41","","","","","","NA"
"-94.07","58.74","CHURCHILL A","5060605","2022-09-13 20:00","2022","09","13","20:00","5.5","","0.7","","71","","","","16","","12","","24.1","","101.41","","","","","","NA"
"-94.07","58.74","CHURCHILL A","5060605","2022-09-13 21:00","2022","09","13","21:00","5.2","","1.1","","75","","","","16","","13","","24.1","","101.42","","","","","","Mostly Cloudy"
"-94.07","58.74","CHURCHILL A","5060605","2022-09-13 22:00","2022","09","13","22:00","4.9","","1.6","","79","","","","18","","16","","24.1","","101.42","","","","","","NA"
"-94.07","58.74","CHURCHILL A","5060605","2022-09-13 23:00","2022","09","13","23:00","4.8","","2.0","","82","","","","18","","14","","24.1","","101.40","","","","","","NA"
"-94.07","58.74","CHURCHILL A","5060605","2022-09-14 00:00","2022","09","14","00:00","3.9","","1.9","","87","","","","19","","12","","24.1","","101.39","","","","","","Mainly Clear"
"-94.07","58.74","CHURCHILL A","5060605","2022-09-14 01:00","2022","09","14","01:00","3.4","","2.1","","91","","","","19","","12","","24.1","","101.40","","","","","","NA"
"-94.07","58.74","CHURCHILL A","5060605","2022-09-14 02:00","2022","09","14","02:00","2.8","","1.9","","94","","","","19","","8","","24.1","","101.41","","","","","","NA"
"-94.07","58.74","CHURCHILL A","5060605","2022-09-14 03:00","2022","09","14","03:00","2.3","","1.6","","95","","","","20","","11","","24.1","","101.39","","","","","","Clear"
"-94.07","58.74","CHURCHILL A","5060605","2022-09-14 04:00","2022","09","14","04:00","1.8","","1.2","","96","","","","22","","12","","24.1","","101.42","","","","","","NA"
"-94.07","58.74","CHURCHILL A","5060605","2022-09-14 05:00","2022","09","14","05:00","2.3","","1.6","","95","","","","21","","10","","24.1","","101.42","","","","","","NA"
"-94.07","58.74","CHURCHILL A","5060605","2022-09-14 06:00","2022","09","14","06:00","1.6","","1.0","","96","","","","20","","10","","24.1","","101.42","","","","","","Mainly Clear"
"-94.07","58.74","CHURCHILL A","5060605","2022-09-14 07:00","2022","09","14","07:00","3.1","","2.4","","95","","","","20","","11","","24.1","","101.42","","","","","","NA"
"-94.07","58.74","CHURCHILL A","5060605","2022-09-14 08:00","2022","09","14","08:00","6.4","","3.4","","81","","","","23","","9","","24.1","","101.42","","","","","","NA"
"-94.07","58.74","CHURCHILL A","5060605","2022-09-14 09:00","2022","09","14","09:00","11.4","","4.6","","62","","","","32","","9","","24.1","","101.35","","","","","","Mainly Clear"
"-94.07","58.74","CHURCHILL A","5060605","2022-09-14 10:00","2022","09","14","10:00","12.2","","5.5","","63","","","","23","","15","","24.1","","101.40","","","","","","NA"
"-94.07","58.74","CHURCHILL A","5060605","2022-09-14 11:00","2022","09","14","11:00","15.2","","5.0","","50","","","","25","","22","","24.1","","101.37","","","","","","NA"
"-94.07","58.74","CHURCHILL A","5060605","2022-09-14 12:00","2022","09","14","12:00","16.5","","5.2","","47","","","","25","","19","","24.1","","101.33","","","","","","Mainly Clear"
"-94.07","58.74","CHURCHILL A","5060605","2022-09-14 13:00","2022","09","14","13:00","17.5","","4.3","","41","","","","26","","19","","24.1","","101.32","","","","","","NA"
"-94.07","58.74","CHURCHILL A","5060605","2022-09-14 14:00","2022","09","14","14:00","18.0","","3.6","","38","","","","24","","21","","24.1","","101.30","","","","","","NA"
"-94.07","58.74","CHURCHILL A","5060605","2022-09-14 15:00","2022","09","14","15:00","17.4","","4.2","","41","","","","24","","17","","24.1","","101.30","","","","","","Mostly Cloudy"
"-94.07","58.74","CHURCHILL A","5060605","2022-09-14 16:00","2022","09","14","16:00","16.6","","4.4","","44","","","","22","","18","","32.2","","101.30","","","","","","NA"
"-94.07","58.74","CHURCHILL A","5060605","2022-09-14 17:00","2022","09","14","17:00","15.2","","5.5","","52","","","","23","","12","","24.1","","101.29","","","","","","NA"
"-94.07","58.74","CHURCHILL A","5060605","2022-09-14 18:00","2022","09","14","18:00","13.8","","5.9","","59","","","","20","","10","","24.1","","101.27","","","","","","Cloudy"
"-94.07","58.74","CHURCHILL A","5060605","2022-09-14 19:00","2022","09","14","19:00","13.1","","5.6","","60","","","","21","","14","","24.1","","101.25","","","","","","NA"
"-94.07","58.74","CHURCHILL A","5060605","2022-09-14 20:00","2022","09","14","20:00","13.2","","4.4","","55","","","","23","","12","","24.1","","101.25","","","","","","NA"
"-94.07","58.74","CHURCHILL A","5060605","2022-09-14 21:00","2022","09","14","21:00","11.9","","6.0","","67","","","","23","","12","","19.3","","101.32","","","","","","Rain"
"-94.07","58.74","CHURCHILL A","5060605","2022-09-14 22:00","2022","09","14","22:00","10.3","","7.6","","83","","","","23","","10","","19.3","","101.34","","","","","","Rain"
"-94.07","58.74","CHURCHILL A","5060605","2022-09-14 23:00","2022","09","14","23:00","9.7","","8.3","","91","","","","21","","8","","19.3","","101.34","","","","","","Rain"
"-94.07","58.74","CHURCHILL A","5060605","2022-09-15 00:00","2022","09","15","00:00","9.5","","8.9","","96","","","","19","","8","","19.3","","101.31","","","","","","Rain"
"-94.07","58.74","CHURCHILL A","5060605","2022-09-15 01:00","2022","09","15","01:00","9.6","","9.2","","97","","","","20","","12","","19.3","","101.28","","","","","","Rain"
"-94.07","58.74","CHURCHILL A","5060605","2022-09-15 02:00","2022","09","15","02:00","9.5","","9.1","","97","","","","17","","13","","19.3","","101.26","","","","","","Rain"
"-94.07","58.74","CHURCHILL A","5060605","2022-09-15 03:00","2022","09","15","03:00","9.7","","8.9","","95","","","","19","","17","","24.1","","101.22","","","","","","Rain"
"-94.07","58.74","CHURCHILL A","5060605","2022-09-15 04:00","2022","09","15","04:00","9.5","","8.7","","95","","","","18","","17","","12.9","","101.20","","","","","","Rain"
"-94.07","58.74","CHURCHILL A","5060605","2022-09-15 05:00","2022","09","15","05:00","9.2","","8.6","","96","","","","19","","13","","16.1","","101.18","","","","","","Rain"
"-94.07","58.74","CHURCHILL A","5060605","2022-09-15 06:00","2022","09","15","06:00","9.2","","8.6","","96","","","","20","","9","","24.1","","101.20","","","","","","Cloudy"
"-94.07","58.74","CHURCHILL A","5060605","2022-09-15 07:00","2022","09","15","07:00","9.4","","8.9","","97","","","","20","","6","","24.1","","101.22","","","","","","NA"
"-94.07","58.74","CHURCHILL A","5060605","2022-09-15 08:00","2022","09","15","08:00","9.8","","9.2","","96","","","","22","","7","","24.1","","101.22","","","","","","NA"
"-94.07","58.74","CHURCHILL A","5060605","2022-09-15 09:00","2022","09","15","09:00","10.3","","9.5","","95","","","","29","","7","","24.1","","101.28","","","","","","Cloudy"
"-94.07","58.74","CHURCHILL A","5060605","2022-09-15 10:00","2022","09","15","10:00","10.7","","9.6","","93","","","","33","","13","","24.1","","101.31","","","","","","NA"
"-94.07","58.74","CHURCHILL A","5060605","2022-09-15 11:00","2022","09","15","11:00","11.1","","9.7","","91","","","","33","","13","","24.1","","101.37","","","","","","NA"
"-94.07","58.74","CHURCHILL A","5060605","2022-09-15 12:00","2022","09","15","12:00","11.5","","9.8","","89","","","","34","","12","","24.1","","101.39","","","","","","Mostly Cloudy"
"-94.07","58.74","CHURCHILL A","5060605","2022-09-15 13:00","2022","09","15","13:00","12.1","","8.9","","80","","","","33","","12","","24.1","","101.40","","","","","","NA"
"-94.07","58.74","CHURCHILL A","5060605","2022-09-15 14:00","2022","09","15","14:00","12.0","","9.2","","83","","","","32","","14","","24.1","","101.44","","","","","","NA"
"-94.07","58.74","CHURCHILL A","5060605","2022-09-15 15:00","2022","09","15","15:00","13.1","","8.3","","72","","","","28","","15","","24.1","","101.46","","","","","","Mainly Clear"
"-94.07","58.74","CHURCHILL A","5060605","2022-09-15 16:00","2022","09","15","16:00","13.4","","8.4","","72","","","","28","","11","","24.1","","101.48","","","","","","NA"
"-94.07","58.74","CHURCHILL A","5060605","2022-09-15 17:00","2022","09","15","17:00","13.7","","8.7","","72","","","","28","","7","","24.1","","101.48","","","","","","NA"
"-94.07","58.74","CHURCHILL A","5060605","2022-09-15 18:00","2022","09","15","18:00","13.6","","8.9","","73","","","","23","","4","","24.1","","101.50","","","","","","Clear"
"-94.07","58.74","CHURCHILL A","5060605","2022-09-15 19:00","2022","09","15","19:00","12.4","","8.5","","77","","","","18","","5","","24.1","","101.53","","","","","","NA"
"-94.07","58.74","CHURCHILL A","5060605","2022-09-15 20:00","2022","09","15","20:00","11.2","","8.6","","84","","","","17","","8","","24.1","","101.56","","","","","","NA"
"-94.07","58.74","CHURCHILL A","5060605","2022-09-15 21:00","2022","09","15","21:00","9.9","","8.2","","89","","","","18","","8","","24.1","","101.59","","","","","","Clear"
"-94.07","58.74","CHURCHILL A","5060605","2022-09-15 22:00","2022","09","15","22:00","8.9","","7.7","","92","","","","19","","7","","24.1","","101.63","","","","","","NA"
"-94.07","58.74","CHURCHILL A","5060605","2022-09-15 23:00","2022","09","15","23:00","8.5","","7.9","","96","","","","23","","9","","24.1","","101.64","","","","","","NA"
"-94.07","58.74","CHURCHILL A","5060605","2022-09-16 00:00","2022","09","16","00:00","9.0","","8.4","","96","","","","31","","4","","24.1","","101.67","","","","","","Clear"
"-94.07","58.74","CHURCHILL A","5060605","2022-09-16 01:00","2022","09","16","01:00","8.4","","7.8","","96","","","","8","","8","","24.1","","101.67","","","","","","NA"
"-94.07","58.74","CHURCHILL A","5060605","2022-09-16 02:00","2022","09","16","02:00","8.0","","7.7","","98","","","","6","","18","","16.1","","101.72","","","","","","NA"
"-94.07","58.74","CHURCHILL A","5060605","2022-09-16 03:00","2022","09","16","03:00","7.2","","6.9","","98","","","","7","","22","","0.4","","101.75","","","","","","Fog"
"-94.07","58.74","CHURCHILL A","5060605","2022-09-16 04:00","2022","09","16","04:00","7.1","","6.8","","98","","","","7","","21","","0.4","","101.79","","","","","","Fog"
"-94.07","58.74","CHURCHILL A","5060605","2022-09-16 05:00","2022","09","16","05:00","6.5","","6.2","","98","","","","8","","17","","0.4","","101.82","","","","","","Fog"
"-94.07","58.74","CHURCHILL A","5060605","2022-09-16 06:00","2022","09","16","06:00","6.5","","6.2","","98","","","","11","","13","","0.2","","101.84","","","","","","Fog"
"-94.07","58.74","CHURCHILL A","5060605","2022-09-16 07:00","2022","09","16","07:00","6.7","","6.4","","98","","","","10","","14","","0.2","","101.86","","","","","","Fog"
"-94.07","58.74","CHURCHILL A","5060605","2022-09-16 08:00","2022","09","16","08:00","6.6","","6.3","","98","","","","11","","11","","0.2","","101.88","","","","","","Fog"
"-94.07","58.74","CHURCHILL A","5060605","2022-09-16 09:00","2022","09","16","09:00","6.9","","6.7","","99","","","","12","","10","","0.2","","101.89","","","","","","Fog"
"-94.07","58.74","CHURCHILL A","5060605","2022-09-16 10:00","2022","09","16","10:00","7.6","","7.5","","99","","","","9","","10","","0.6","","101.90","","","","","","Fog"
"-94.07","58.74","CHURCHILL A","5060605","2022-09-16 11:00","2022","09","16","11:00","8.5","","8.3","","99","","","","11","","13","","1.2","","101.88","","","","","","Fog"
"-94.07","58.74","CHURCHILL A","5060605","2022-09-16 12:00","2022","09","16","12:00","9.1","","8.9","","99","","","","13","","17","","9.7","","101.85","","","","","","Fog"
"-94.07","58.74","CHURCHILL A","5060605","2022-09-16 13:00","2022","09","16","13:00","10.0","","9.1","","94","","","","12","","13","","24.1","","101.81","","","","","","NA"
"-94.07","58.74","CHURCHILL A","5060605","2022-09-16 14:00","2022","09","16","14:00","10.8","","9.2","","90","","","","13","","11","","24.1","","101.79","","","","","","NA"
"-94.07","58.74","CHURCHILL A","5060605","2022-09-16 15:00","2022","09","16","15:00","12.9","","9.9","","82","","","","13","","13","","24.1","","101.74","","","","","","Mostly Cloudy"
"-94.07","58.74","CHURCHILL A","5060605","2022-09-16 16:00","2022","09","16","16:00","13.1","","9.8","","80","","","","12","","18","","24.1","","101.69","","","","","","NA"
"-94.07","58.74","CHURCHILL A","5060605","2022-09-16 17:00","2022","09","16","17:00","11.4","","9.2","","86","","","","11","","19","","24.1","","101.63","","","","","","NA"
"-94.07","58.74","CHURCHILL A","5060605","2022-09-16 18:00","2022","09","16","18:00","9.1","","8.1","","93","","","","12","","19","","24.1","","101.61","","","","","","Mostly Cloudy"
"-94.07","58.74","CHURCHILL A","5060605","2022-09-16 19:00","2022","09","16","19:00","8.0","","7.6","","97","","","","13","","24","","0.8","","101.61","","","","","","Fog"
"-94.07","58.74","CHURCHILL A","5060605","2022-09-16 20:00","2022","09","16","20:00","7.5","","7.2","","98","","","","13","","19","","16.1","","101.60","","","","","","NA"
"-94.07","58.74","CHURCHILL A","5060605","2022-09-16 21:00","2022","09","16","21:00","7.4","","7.1","","98","","","","14","","19","","24.1","","101.57","","","","","","Mostly Cloudy"
"-94.07","58.74","CHURCHILL A","5060605","2022-09-16 22:00","2022","09","16","22:00","7.6","","7.2","","97","","","","15","","18","","24.1","","101.55","","","","","","NA"
"-94.07","58.74","CHURCHILL A","5060605","2022-09-16 23:00","2022","09","16","23:00","7.6","","7.2","","97","","","","15","","18","","24.1","","101.54","","","","","","NA"
"-94.07","58.74","CHURCHILL A","5060605","2022-09-17 00:00","2022","09","17","00:00","7.7","","7.0","","95","","","","15","","16","","24.1","","101.53","","","","","","Clear"
"-94.07","58.74","CHURCHILL A","5060605","2022-09-17 01:00","2022","09","17","01:00","7.8","","7.2","","96","","","","16","","14","","24.1","","101.50","","","","","","NA"
"-94.07","58.74","CHURCHILL A","5060605","2022-09-17 02:00","2022","09","17","02:00","7.3","","6.9","","97","","","","16","","14","","24.1","","101.48","","","","","","NA"
"-94.07","58.74","CHURCHILL A","5060605","2022-09-17 03:00","2022","09","17","03:00","7.0","","6.6","","97","","","","15","","14","","24.1","","101.46","","","","","","Clear"
"-94.07","58.74","CHURCHILL A","5060605","2022-09-17 04:00","2022","09","17","04:00","7.0","","6.7","","98","","","","16","","16","","24.1","","101.42","","","","","","NA"
"-94.07","58.74","CHURCHILL A","5060605","2022-09-17 05:00","2022","09","17","05:00","7.1","","6.8","","98","","","","16","","14","","24.1","","101.41","","","","","","NA"
"-94.07","58.74","CHURCHILL A","5060605","2022-09-17 06:00","2022","09","17","06:00","6.7","","6.3","","97","","","","16","","13","","24.1","","101.38","","","","","","Clear"
"-94.07","58.74","CHURCHILL A","5060605","2022-09-17 07:00","2022","09","17","07:00","7.6","","7.2","","97","","","","17","","15","","24.1","","101.37","","","","","","NA"
"-94.07","58.74","CHURCHILL A","5060605","2022-09-17 08:00","2022","09","17","08:00","9.6","","8.2","","91","","","","18","","16","","24.1","","101.34","","","","","","NA"
"-94.07","58.74","CHURCHILL A","5060605","2022-09-17 09:00","2022","09","17","09:00","12.1","","9.3","","83","","","","17","","12","","24.1","","101.32","","","","","","Mainly Clear"
"-94.07","58.74","CHURCHILL A","5060605","2022-09-17 10:00","2022","09","17","10:00","14.8","","9.9","","72","","","","19","","20","","24.1","","101.29","","","","","","NA"
"-94.07","58.74","CHURCHILL A","5060605","2022-09-17 11:00","2022","09","17","11:00","17.9","","9.2","","57","","","","19","","15","","24.1","","101.24","","","","","","NA"
"-94.07","58.74","CHURCHILL A","5060605","2022-09-17 12:00","2022","09","17","12:00","19.2","","8.3","","49","","","","17","","28","","24.1","","101.18","","","","","","Mainly Clear"
"-94.07","58.74","CHURCHILL A","5060605","2022-09-17 13:00","2022","09","17","13:00","19.1","","8.6","","50","","","","18","","27","","24.1","","101.13","","","","","","NA"
"-94.07","58.74","CHURCHILL A","5060605","2022-09-17 14:00","2022","09","17","14:00","19.2","","8.1","","48","","","","16","","28","","24.1","","101.06","","","","","","NA"
"-94.07","58.74","CHURCHILL A","5060605","2022-09-17 15:00","2022","09","17","15:00","19.1","","8.3","","49","","","","17","","28","","24.1","","101.02","","","","","","Mostly Cloudy"
"-94.07","58.74","CHURCHILL A","5060605","2022-09-17 16:00","2022","09","17","16:00","18.7","","8.2","","50","","","","17","","24","","24.1","","100.97","","","","","","NA"
"-94.07","58.74","CHURCHILL A","5060605","2022-09-17 17:00","2022","09","17","17:00","18.1","","8.1","","52","","","","16","","16","","24.1","","100.93","","","","","","NA"
"-94.07","58.74","CHURCHILL A","5060605","2022-09-17 18:00","2022","09","17","18:00","15.7","","8.5","","62","","","","15","","23","","24.1","","100.90","","","","","","Mostly Cloudy"
"-94.07","58.74","CHURCHILL A","5060605","2022-09-17 19:00","2022","09","17","19:00","12.9","","8.6","","75","","","","14","","18","","24.1","","100.88","","","","","","NA"
"-94.07","58.74","CHURCHILL A","5060605","2022-09-17 20:00","2022","09","17","20:00","11.2","","8.8","","85","","","","14","","18","","24.1","","100.87","","","","","","NA"
"-94.07","58.74","CHURCHILL A","5060605","2022-09-17 21:00","2022","09","17","21:00","10.1","","8.4","","89","","","","15","","16","","24.1","","100.86","","","","","","Mainly Clear"
"-94.07","58.74","CHURCHILL A","5060605","2022-09-17 22:00","2022","09","17","22:00","9.4","","8.0","","91","","","","15","","17","","24.1","","100.83","","","","","","NA"
"-94.07","58.74","CHURCHILL A","5060605","2022-09-17 23:00","2022","09","17","23:00","9.3","","7.9","","91","","","","15","","15","","24.1","","100.80","","","","","","NA"
"-94.07","58.74","CHURCHILL A","5060605","2022-09-18 00:00","2022","09","18","00:00","9.1","","7.4","","89","","","","17","","17","","24.1","","100.77","","","","","","Mainly Clear"
"-94.07","58.74","CHURCHILL A","5060605","2022-09-18 01:00","2022","09","18","01:00","9.3","","7.1","","86","","","","17","","18","","24.1","","100.73","","","","","","NA"
"-94.07","58.74","CHURCHILL A","5060605","2022-09-18 02:00","2022","09","18","02:00","8.5","","6.6","","88","","","","17","","18","","24.1","","100.72","","","","","","NA"
"-94.07","58.74","CHURCHILL A","5060605","2022-09-18 03:00","2022","09","18","03:00","8.2","","6.5","","89","","","","17","","17","","24.1","","100.70","","","","","","Clear"
"-94.07","58.74","CHURCHILL A","5060605","2022-09-18 04:00","2022","09","18","04:00","7.9","","6.4","","90","","","","17","","17","","24.1","","100.67","","","","","","NA"
"-94.07","58.74","CHURCHILL A","5060605","2022-09-18 05:00","2022","09","18","05:00","8.1","","6.6","","90","","","","17","","17","","24.1","","100.65","","","","","","NA"
"-94.07","58.74","CHURCHILL A","5060605","2022-09-18 06:00","2022","09","18","06:00","7.7","","6.5","","92","","","","17","","14","","24.1","","100.63","","","","","","Mostly Cloudy"
"-94.07","58.74","CHURCHILL A","5060605","2022-09-18 07:00","2022","09","18","07:00","8.0","","6.8","","92","","","","17","","17","","24.1","","100.62","","","","","","NA"
"-94.07","58.74","CHURCHILL A","5060605","2022-09-18 08:00","2022","09","18","08:00","9.3","","7.6","","89","","","","17","","17","","24.1","","100.60","","","","","","NA"
"-94.07","58.74","CHURCHILL A","5060605","2022-09-18 09:00","2022","09","18","09:00","11.4","","8.6","","83","","","","17","","16","","24.1","","100.55","","","","","","Mostly Cloudy"
"-94.07","58.74","CHURCHILL A","5060605","2022-09-18 10:00","2022","09","18","10:00","13.1","","8.5","","73","","","","17","","15","","24.1","","100.51","","","","","","NA"
"-94.07","58.74","CHURCHILL A","5060605","2022-09-18 11:00","2022","09","18","11:00","13.1","","8.2","","72","","","","16","","17","","24.1","","100.48","","","","","","NA"
"-94.07","58.74","CHURCHILL A","5060605","2022-09-18 12:00","2022","09","18","12:00","14.6","","8.7","","67","","","","15","","14","","24.1","","100.42","","","","","","Cloudy"
"-94.07","58.74","CHURCHILL A","5060605","2022-09-18 13:00","2022","09","18","13:00","15.1","","9.0","","67","","","","16","","14","","24.1","","100.38","","","","","","NA"
"-94.07","58.74","CHURCHILL A","5060605","2022-09-18 14:00","2022","09","18","14:00","14.9","","9.0","","67","","","","17","","14","","24.1","","100.34","","","","","","NA"
"-94.07","58.74","CHURCHILL A","5060605","2022-09-18 15:00","2022","09","18","15:00","14.8","","10.2","","74","","","","15","","13","","24.1","","100.31","","","","","","Cloudy"
"-94.07","58.74","CHURCHILL A","5060605","2022-09-18 16:00","2022","09","18","16:00","13.8","","10.4","","80","","","","15","","16","","24.1","","100.29","","","","","","NA"
"-94.07","58.74","CHURCHILL A","5060605","2022-09-18 17:00","2022","09","18","17:00","11.8","","10.7","","93","","","","19","","8","","19.3","","100.27","","","","","","Rain"
"-94.07","58.74","CHURCHILL A","5060605","2022-09-18 18:00","2022","09","18","18:00","11.3","","10.8","","97","","","","18","","6","","16.1","","100.26","","","","","","Rain"
"-94.07","58.74","CHURCHILL A","5060605","2022-09-18 19:00","2022","09","18","19:00","11.0","","10.6","","97","","","","17","","4","","16.1","","100.24","","","","","","Rain"
"-94.07","58.74","CHURCHILL A","5060605","2022-09-18 20:00","2022","09","18","20:00","10.8","","10.5","","98","","","","11","","10","","9.7","","100.21","","","","","","Rain"
"-94.07","58.74","CHURCHILL A","5060605","2022-09-18 21:00","2022","09","18","21:00","10.3","","10.0","","98","","","","15","","13","","8.1","","100.19","","","","","","Rain,Fog"
"-94.07","58.74","CHURCHILL A","5060605","2022-09-18 22:00","2022","09","18","22:00","10.1","","9.8","","98","","","","15","","10","","4.8","","100.16","","","","","","Rain,Fog"
"-94.07","58.74","CHURCHILL A","5060605","2022-09-18 23:00","2022","09","18","23:00","10.0","","9.7","","98","","","","15","","7","","4.8","","100.14","","","","","","Rain,Fog"
"-94.07","58.74","CHURCHILL A","5060605","2022-09-19 00:00","2022","09","19","00:00","10.0","","9.7","","98","","","","17","","7","","4.0","","100.12","","","","","","Rain,Fog"
"-94.07","58.74","CHURCHILL A","5060605","2022-09-19 01:00","2022","09","19","01:00","10.0","","9.8","","99","","","","19","","4","","2.4","","100.07","","","","","","Drizzle,Fog"
"-94.07","58.74","CHURCHILL A","5060605","2022-09-19 02:00","2022","09","19","02:00","10.0","","9.8","","99","","","","19","","4","","2.4","","100.04","","","","","","Fog"
"-94.07","58.74","CHURCHILL A","5060605","2022-09-19 03:00","2022","09","19","03:00","10.0","","9.8","","99","","","","18","","4","","1.6","","100.01","","","","","","Fog"
"-94.07","58.74","CHURCHILL A","5060605","2022-09-19 04:00","2022","09","19","04:00","10.0","","9.8","","99","","","","19","","4","","0.8","","99.99","","","","","","Fog"
"-94.07","58.74","CHURCHILL A","5060605","2022-09-19 05:00","2022","09","19","05:00","9.9","","9.8","","99","","","","17","","5","","0.8","","99.99","","","","","","Fog"
"-94.07","58.74","CHURCHILL A","5060605","2022-09-19 06:00","2022","09","19","06:00","9.9","","9.8","","99","","","","36","","2","","0.8","","99.98","","","","","","Fog"
"-94.07","58.74","CHURCHILL A","5060605","2022-09-19 07:00","2022","09","19","07:00","10.0","","9.8","","99","","","","6","","7","","1.2","","99.96","","","","","","Rain,Fog"
"-94.07","58.74","CHURCHILL A","5060605","2022-09-19 08:00","2022","09","19","08:00","9.6","","9.4","","99","","","","4","","21","","1.6","","99.96","","","","","","Rain,Fog"
"-94.07","58.74","CHURCHILL A","5060605","2022-09-19 09:00","2022","09","19","09:00","9.0","","8.8","","99","","","","3","","23","","4.8","","99.97","","","","","","Rain,Fog"
"-94.07","58.74","CHURCHILL A","5060605","2022-09-19 10:00","2022","09","19","10:00","8.6","","8.4","","99","","","","3","","25","","6.4","","99.99","","","","","","Rain,Fog"
"-94.07","58.74","CHURCHILL A","5060605","2022-09-19 11:00","2022","09","19","11:00","8.4","","8.2","","99","","","","2","","24","","6.4","","100.00","","","","","","Rain,Fog"
"-94.07","58.74","CHURCHILL A","5060605","2022-09-19 12:00","2022","09","19","12:00","8.1","","7.8","","98","","","","1","","30","","4.0","","100.03","","","","","","Rain,Fog"
"-94.07","58.74","CHURCHILL A","5060605","2022-09-19 13:00","2022","09","19","13:00","8.1","","7.7","","97","","","","1","","35","","6.4","","100.07","","","","","","Rain,Fog"
"-94.07","58.74","CHURCHILL A","5060605","2022-09-19 14:00","2022","09","19","14:00","8.4","","8.0","","97","","","","36","","37","","8.1","","100.13","","","","","","Rain,Fog"
"-94.07","58.74","CHURCHILL A","5060605","2022-09-19 15:00","2022","09","19","15:00","8.3","","7.8","","97","","","","36","","36","","9.7","","100.19","","","","","","Rain,Fog"
"-94.07","58.74","CHURCHILL A","5060605","2022-09-19 16:00","2022","09","19","16:00","8.1","","7.5","","96","","","","36","","38","","16.1","","100.24","","","","","","Rain"
"-94.07","58.74","CHURCHILL A","5060605","2022-09-19 17:00","2022","09","19","17:00","8.0","","7.4","","96","","","","36","","38","","19.3","","100.33","","","","","","Rain"
"-94.07","58.74","CHURCHILL A","5060605","2022-09-19 18:00","2022","09","19","18:00","7.9","","7.3","","96","","","","36","","37","","19.3","","100.41","","","","","","Rain"
"-94.07","58.74","CHURCHILL A","5060605","2022-09-19 19:00","2022","09","19","19:00","7.8","","7.2","","96","","","","35","","37","","24.1","","100.50","","","","","","Rain"
"-94.07","58.74","CHURCHILL A","5060605","2022-09-19 20:00","2022","09","19","20:00","7.7","","7.0","","95","","","","36","","32","","24.1","","100.56","","","","","","Rain"
"-94.07","58.74","CHURCHILL A","5060605","2022-09-19 21:00","2022","09","19","21:00","7.6","","6.8","","95","","","","1","","34","","24.1","","100.60","","","","","","Rain"
"-94.07","58.74","CHURCHILL A","5060605","2022-09-19 22:00","2022","09","19","22:00","7.6","","6.4","","92","","","","36","","36","","24.1","","100.62","","","","","","NA"
"-94.07","58.74","CHURCHILL A","5060605","2022-09-19 23:00","2022","09","19","23:00","7.2","","5.4","","88","","","","1","","33","","24.1","","100.65","","","","","","NA"
"-94.07","58.74","CHURCHILL A","5060605","2022-09-20 00:00","2022","09","20","00:00","7.4","","5.4","","87","","","","36","","34","","24.1","","100.69","","","","","","Mainly Clear"
"-94.07","58.74","CHURCHILL A","5060605","2022-09-20 01:00","2022","09","20","01:00","7.1","","5.3","","88","","","","36","","32","","24.1","","100.70","","","","","","NA"
"-94.07","58.74","CHURCHILL A","5060605","2022-09-20 02:00","2022","09","20","02:00","7.0","","5.2","","88","","","","36","","34","","24.1","","100.71","","","","","","NA"
"-94.07","58.74","CHURCHILL A","5060605","2022-09-20 03:00","2022","09","20","03:00","6.7","","4.8","","88","","","","36","","33","","24.1","","100.75","","","","","","Rain"
"-94.07","58.74","CHURCHILL A","5060605","2022-09-20 04:00","2022","09","20","04:00","5.7","","3.9","","88","","","","35","","30","","24.1","","100.78","","","","","","Rain"
"-94.07","58.74","CHURCHILL A","5060605","2022-09-20 05:00","2022","09","20","05:00","5.7","","3.2","","84","","","","35","","30","","24.1","","100.81","","","","","","Rain"
"-94.07","58.74","CHURCHILL A","5060605","2022-09-20 06:00","2022","09","20","06:00","5.4","","4.7","","95","","","","33","","27","","6.4","","100.81","","","","","","Drizzle"
"-94.07","58.74","CHURCHILL A","5060605","2022-09-20 07:00","2022","09","20","07:00","5.8","","4.9","","94","","","","36","","22","","6.4","","100.83","","","","","","Drizzle"
"-94.07","58.74","CHURCHILL A","5060605","2022-09-20 08:00","2022","09","20","08:00","6.2","","3.2","","81","","","","36","","31","","24.1","","100.86","","","","","","NA"
"-94.07","58.74","CHURCHILL A","5060605","2022-09-20 09:00","2022","09","20","09:00","6.1","","2.8","","79","","","","1","","35","","24.1","","100.87","","","","","","Cloudy"
"-94.07","58.74","CHURCHILL A","5060605","2022-09-20 10:00","2022","09","20","10:00","5.8","","2.5","","79","","","","1","","30","","24.1","","100.90","","","","","","NA"
"-94.07","58.74","CHURCHILL A","5060605","2022-09-20 11:00","2022","09","20","11:00","6.1","","2.8","","79","","","","1","","30","","24.1","","100.90","","","","","","NA"
"-94.07","58.74","CHURCHILL A","5060605","2022-09-20 12:00","2022","09","20","12:00","5.9","","2.7","","80","","","","1","","32","","24.1","","100.92","","","","","","Cloudy"
"-94.07","58.74","CHURCHILL A","5060605","2022-09-20 13:00","2022","09","20","13:00","5.9","","2.4","","78","","","","36","","33","","24.1","","100.94","","","","","","NA"
"-94.07","58.74","CHURCHILL A","5060605","2022-09-20 14:00","2022","09","20","14:00","5.9","","2.2","","77","","","","1","","32","","24.1","","100.95","","","","","","NA"
"-94.07","58.74","CHURCHILL A","5060605","2022-09-20 15:00","2022","09","20","15:00","5.5","","1.6","","76","","","","1","","33","","24.1","","100.98","","","","","","Cloudy"
"-94.07","58.74","CHURCHILL A","5060605","2022-09-20 16:00","2022","09","20","16:00","5.2","","1.0","","74","","","","2","","27","","24.1","","101.02","","","","","","NA"
"-94.07","58.74","CHURCHILL A","5060605","2022-09-20 17:00","2022","09","20","17:00","5.1","","0.9","","74","","","","2","","28","","24.1","","101.07","","","","","","NA"
"-94.07","58.74","CHURCHILL A","5060605","2022-09-20 18:00","2022","09","20","18:00","4.9","","0.2","","72","","","","3","","26","","24.1","","101.11","","","","","","Mostly Cloudy"
"-94.07","58.74","CHURCHILL A","5060605","2022-09-20 19:00","2022","09","20","19:00","4.5","","-0.5","","70","","","","3","","23","","24.1","","101.14","","","","","","NA"
"-94.07","58.74","CHURCHILL A","5060605","2022-09-20 20:00","2022","09","20","20:00","4.7","","-0.3","","70","","","","2","","26","","24.1","","101.15","","","","","","NA"
"-94.07","58.74","CHURCHILL A","5060605","2022-09-20 21:00","2022","09","20","21:00","4.8","","-0.5","","69","","","","2","","27","","24.1","","101.14","","","","","","Mostly Cloudy"
"-94.07","58.74","CHURCHILL A","5060605","2022-09-20 22:00","2022","09","20","22:00","4.7","","-0.9","","67","","","","2","","27","","24.1","","101.16","","","","","","NA"
"-94.07","58.74","CHURCHILL A","5060605","2022-09-20 23:00","2022","09","20","23:00","4.9","","-0.3","","69","","","","2","","27","","24.1","","101.16","","","","","","NA"
"-94.07","58.74","CHURCHILL A","5060605","2022-09-21 00:00","2022","09","21","00:00","5.2","","-0.5","","67","","","","1","","27","","24.1","","101.17","","","","","","Mostly Cloudy"
"-94.07","58.74","CHURCHILL A","5060605","2022-09-21 01:00","2022","09","21","01:00","5.5","","0.1","","68","","","","1","","24","","24.1","","101.19","","","","","","NA"
"-94.07","58.74","CHURCHILL A","5060605","2022-09-21 02:00","2022","09","21","02:00","5.2","","-0.2","","68","","","","1","","26","","24.1","","101.20","","","","","","NA"
"-94.07","58.74","CHURCHILL A","5060605","2022-09-21 03:00","2022","09","21","03:00","4.9","","1.4","","78","","","","34","","24","","24.1","","101.21","","","","","","Mostly Cloudy"
"-94.07","58.74","CHURCHILL A","5060605","2022-09-21 04:00","2022","09","21","04:00","4.7","","1.4","","79","","","","35","","22","","24.1","","101.25","","","","","","NA"
"-94.07","58.74","CHURCHILL A","5060605","2022-09-21 05:00","2022","09","21","05:00","5.4","","0.6","","71","","","","36","","28","","24.1","","101.27","","","","","","NA"
"-94.07","58.74","CHURCHILL A","5060605","2022-09-21 06:00","2022","09","21","06:00","5.4","","1.1","","74","","","","35","","23","","24.1","","101.32","","","","","","Mostly Cloudy"
"-94.07","58.74","CHURCHILL A","5060605","2022-09-21 07:00","2022","09","21","07:00","5.7","","1.6","","75","","","","36","","21","","24.1","","101.36","","","","","","NA"
"-94.07","58.74","CHURCHILL A","5060605","2022-09-21 08:00","2022","09","21","08:00","6.5","","2.6","","76","","","","33","","16","","24.1","","101.38","","","","","","NA"
"-94.07","58.74","CHURCHILL A","5060605","2022-09-21 09:00","2022","09","21","09:00","5.8","","2.3","","78","","","","31","","17","","24.1","","101.40","","","","","","Mostly Cloudy"
"-94.07","58.74","CHURCHILL A","5060605","2022-09-21 10:00","2022","09","21","10:00","6.2","","2.4","","76","","","","30","","15","","24.1","","101.41","","","","","","NA"
"-94.07","58.74","CHURCHILL A","5060605","2022-09-21 11:00","2022","09","21","11:00","7.1","","2.2","","71","","","","30","","16","","24.1","","101.40","","","","","","NA"
"-94.07","58.74","CHURCHILL A","5060605","2022-09-21 12:00","2022","09","21","12:00","8.2","","2.8","","69","","","","29","","13","","24.1","","101.37","","","","","","Mostly Cloudy"
"-94.07","58.74","CHURCHILL A","5060605","2022-09-21 13:00","2022","09","21","13:00","9.6","","4.8","","72","","","","31","","16","","24.1","","101.39","","","","","","NA"
"-94.07","58.74","CHURCHILL A","5060605","2022-09-21 14:00","2022","09","21","14:00","10.4","","4.8","","68","","","","31","","14","","24.1","","101.37","","","","","","NA"
"-94.07","58.74","CHURCHILL A","5060605","2022-09-21 15:00","2022","09","21","15:00","10.5","","4.8","","68","","","","30","","13","","24.1","","101.35","","","","","","Mostly Cloudy"
"-94.07","58.74","CHURCHILL A","5060605","2022-09-21 16:00","2022","09","21","16:00","9.2","","5.9","","80","","","","33","","12","","24.1","","101.39","","","","","","NA"
"-94.07","58.74","CHURCHILL A","5060605","2022-09-21 17:00","2022","09","21","17:00","8.8","","5.9","","82","","","","34","","11","","24.1","","101.40","","","","","","NA"
"-94.07","58.74","CHURCHILL A","5060605","2022-09-21 18:00","2022","09","21","18:00","8.1","","6.1","","87","","","","32","","7","","24.1","","101.40","","","","","","Mostly Cloudy"
"-94.07","58.74","CHURCHILL A","5060605","2022-09-21 19:00","2022","09","21","19:00","7.3","","5.9","","91","","","","28","","4","","24.1","","101.41","","","","","","NA"
"-94.07","58.74","CHURCHILL A","5060605","2022-09-21 20:00","2022","09","21","20:00","7.0","","5.6","","91","","","","27","","5","","24.1","","101.42","","","","","","NA"
"-94.07","58.74","CHURCHILL A","5060605","2022-09-21 21:00","2022","09","21","21:00","7.5","","6.8","","95","","","","29","","8","","24.1","","101.42","","","","","","Mostly Cloudy"
"-94.07","58.74","CHURCHILL A","5060605","2022-09-21 22:00","2022","09","21","22:00","7.1","","6.4","","95","","","","25","","7","","24.1","","101.40","","","","","","NA"
"-94.07","58.74","CHURCHILL A","5060605","2022-09-21 23:00","2022","09","21","23:00","6.9","","6.0","","94","","","","25","","10","","24.1","","101.38","","","","","","NA"
"-94.07","58.74","CHURCHILL A","5060605","2022-09-22 00:00","2022","09","22","00:00","6.9","","5.8","","93","","","","26","","9","","24.1","","101.35","","","","","","Cloudy"
"-94.07","58.74","CHURCHILL A","5060605","2022-09-22 01:00","2022","09","22","01:00","6.2","","5.2","","93","","","","25","","10","","24.1","","101.33","","","","","","NA"
"-94.07","58.74","CHURCHILL A","5060605","2022-09-22 02:00","2022","09","22","02:00","5.0","","4.1","","94","","","","26","","11","","24.1","","101.31","","","","","","NA"
"-94.07","58.74","CHURCHILL A","5060605","2022-09-22 03:00","2022","09","22","03:00","4.1","","3.4","","95","","","","23","","10","","24.1","","101.27","","","","","","Mainly Clear"
"-94.07","58.74","CHURCHILL A","5060605","2022-09-22 04:00","2022","09","22","04:00","4.3","","3.4","","94","","","","23","","12","","24.1","","101.20","","","","","","NA"
"-94.07","58.74","CHURCHILL A","5060605","2022-09-22 05:00","2022","09","22","05:00","4.2","","3.2","","93","","","","22","","12","","24.1","","101.14","","","","","","NA"
"-94.07","58.74","CHURCHILL A","5060605","2022-09-22 06:00","2022","09","22","06:00","4.4","","3.2","","92","","","","23","","14","","24.1","","101.08","","","","","","Mostly Cloudy"
"-94.07","58.74","CHURCHILL A","5060605","2022-09-22 07:00","2022","09","22","07:00","5.6","","3.9","","89","","","","22","","18","","24.1","","101.00","","","","","","NA"
"-94.07","58.74","CHURCHILL A","5060605","2022-09-22 08:00","2022","09","22","08:00","6.7","","4.4","","85","","","","21","","22","","20.9","","100.87","","","","","","NA"
"-94.07","58.74","CHURCHILL A","5060605","2022-09-22 09:00","2022","09","22","09:00","8.1","","5.0","","81","","","","22","","22","","24.1","","100.76","","","","","","Mostly Cloudy"
"-94.07","58.74","CHURCHILL A","5060605","2022-09-22 10:00","2022","09","22","10:00","9.6","","5.6","","76","","","","21","","26","","24.1","","100.61","","","","","","NA"
"-94.07","58.74","CHURCHILL A","5060605","2022-09-22 11:00","2022","09","22","11:00","12.0","","5.9","","66","","","","21","","30","","24.1","","100.40","","","","","","NA"
"-94.07","58.74","CHURCHILL A","5060605","2022-09-22 12:00","2022","09","22","12:00","13.5","","6.0","","60","","","","22","","37","","24.1","","100.26","","","","","","Mostly Cloudy"
"-94.07","58.74","CHURCHILL A","5060605","2022-09-22 13:00","2022","09","22","13:00","14.8","","6.4","","57","","","","23","","39","","24.1","","100.14","","","","","","NA"
"-94.07","58.74","CHURCHILL A","5060605","2022-09-22 14:00","2022","09","22","14:00","15.0","","6.2","","55","","","","24","","34","","24.1","","100.05","","","","","","NA"
"-94.07","58.74","CHURCHILL A","5060605","2022-09-22 15:00","2022","09","22","15:00","15.5","","6.9","","56","","","","23","","26","","24.1","","99.99","","","","","","Mostly Cloudy"
"-94.07","58.74","CHURCHILL A","5060605","2022-09-22 16:00","2022","09","22","16:00","17.6","","7.1","","50","","","","24","","30","","24.1","","99.90","","","","","","NA"
"-94.07","58.74","CHURCHILL A","5060605","2022-09-22 17:00","2022","09","22","17:00","16.9","","7.6","","54","","","","24","","19","","24.1","","99.84","","","","","","NA"
"-94.07","58.74","CHURCHILL A","5060605","2022-09-22 18:00","2022","09","22","18:00","16.5","","7.0","","53","","","","24","","23","","24.1","","99.81","","","","","","Mainly Clear"
"-94.07","58.74","CHURCHILL A","5060605","2022-09-22 19:00","2022","09","22","19:00","14.9","","6.5","","57","","","","24","","17","","24.1","","99.82","","","","","","NA"
"-94.07","58.74","CHURCHILL A","5060605","2022-09-22 20:00","2022","09","22","20:00","13.9","","6.6","","61","","","","24","","22","","24.1","","99.80","","","","","","NA"
"-94.07","58.74","CHURCHILL A","5060605","2022-09-22 21:00","2022","09","22","21:00","13.3","","6.5","","63","","","","24","","19","","24.1","","99.80","","","","","","Clear"
"-94.07","58.74","CHURCHILL A","5060605","2022-09-22 22:00","2022","09","22","22:00","13.0","","6.2","","63","","","","24","","19","","24.1","","99.79","","","","","","NA"
"-94.07","58.74","CHURCHILL A","5060605","2022-09-22 23:00","2022","09","22","23:00","12.6","","5.8","","63","","","","24","","18","","24.1","","99.77","","","","","","NA"
"-94.07","58.74","CHURCHILL A","5060605","2022-09-23 00:00","2022","09","23","00:00","12.4","","5.6","","63","","","","25","","20","","24.1","","99.76","","","","","","Clear"
"-94.07","58.74","CHURCHILL A","5060605","2022-09-23 01:00","2022","09","23","01:00","11.7","","5.5","","65","","","","26","","17","","24.1","","99.76","","","","","","NA"
"-94.07","58.74","CHURCHILL A","5060605","2022-09-23 02:00","2022","09","23","02:00","11.0","","5.2","","68","","","","27","","21","","24.1","","99.77","","","","","","NA"
"-94.07","58.74","CHURCHILL A","5060605","2022-09-23 03:00","2022","09","23","03:00","10.6","","5.2","","69","","","","27","","16","","24.1","","99.79","","","","","","Clear"
"-94.07","58.74","CHURCHILL A","5060605","2022-09-23 04:00","2022","09","23","04:00","9.2","","5.2","","76","","","","27","","16","","24.1","","99.77","","","","","","NA"
"-94.07","58.74","CHURCHILL A","5060605","2022-09-23 05:00","2022","09","23","05:00","9.0","","5.0","","76","","","","28","","18","","24.1","","99.79","","","","","","NA"
"-94.07","58.74","CHURCHILL A","5060605","2022-09-23 06:00","2022","09","23","06:00","7.7","","4.8","","82","","","","25","","10","","24.1","","99.81","","","","","","Clear"
"-94.07","58.74","CHURCHILL A","5060605","2022-09-23 07:00","2022","09","23","07:00","8.0","","5.3","","83","","","","27","","9","","24.1","","99.81","","","","","","NA"
"-94.07","58.74","CHURCHILL A","5060605","2022-09-23 08:00","2022","09","23","08:00","9.7","","5.5","","75","","","","26","","11","","24.1","","99.79","","","","","","NA"
"-94.07","58.74","CHURCHILL A","5060605","2022-09-23 09:00","2022","09","23","09:00","10.9","","5.5","","69","","","","26","","12","","24.1","","99.79","","","","","","Clear"
"-94.07","58.74","CHURCHILL A","5060605","2022-09-23 10:00","2022","09","23","10:00","13.4","","6.3","","62","","","","22","","12","","24.1","","99.75","","","","","","NA"
"-94.07","58.74","CHURCHILL A","5060605","2022-09-23 11:00","2022","09","23","11:00","14.7","","6.6","","58","","","","22","","19","","24.1","","99.71","","","","","","NA"
"-94.07","58.74","CHURCHILL A","5060605","2022-09-23 12:00","2022","09","23","12:00","16.6","","7.3","","54","","","","21","","14","","24.1","","99.65","","","","","","Clear"
"-94.07","58.74","CHURCHILL A","5060605","2022-09-23 13:00","2022","09","23","13:00","18.1","","7.3","","49","","","","22","","20","","24.1","","99.61","","","","","","NA"
"-94.07","58.74","CHURCHILL A","5060605","2022-09-23 14:00","2022","09","23","14:00","19.3","","7.5","","46","","","","23","","23","","24.1","","99.54","","","","","","NA"
"-94.07","58.74","CHURCHILL A","5060605","2022-09-23 15:00","2022","09","23","15:00","20.0","","7.2","","43","","","","23","","21","","24.1","","99.49","","","","","","Mainly Clear"
"-94.07","58.74","CHURCHILL A","5060605","2022-09-23 16:00","2022","09","23","16:00","20.3","","7.0","","42","","","","22","","17","","24.1","","99.43","","","","","","NA"
"-94.07","58.74","CHURCHILL A","5060605","2022-09-23 17:00","2022","09","23","17:00","20.0","","6.9","","42","","","","22","","16","","24.1","","99.39","","","","","","NA"
"-94.07","58.74","CHURCHILL A","5060605","2022-09-23 18:00","2022","09","23","18:00","18.2","","7.4","","49","","","","19","","17","","24.1","","99.38","","","","","","Mostly Cloudy"
"-94.07","58.74","CHURCHILL A","5060605","2022-09-23 19:00","2022","09","23","19:00","17.1","","7.3","","52","","","","21","","19","","24.1","","99.39","","","","","","NA"
"-94.07","58.74","CHURCHILL A","5060605","2022-09-23 20:00","2022","09","23","20:00","16.1","","7.5","","57","","","","20","","20","","24.1","","99.39","","","","","","NA"
"-94.07","58.74","CHURCHILL A","5060605","2022-09-23 21:00","2022","09","23","21:00","14.4","","8.2","","66","","","","21","","18","","24.1","","99.38","","","","","","Clear"
"-94.07","58.74","CHURCHILL A","5060605","2022-09-23 22:00","2022","09","23","22:00","13.4","","8.1","","70","","","","21","","19","","24.1","","99.36","","","","","","NA"
"-94.07","58.74","CHURCHILL A","5060605","2022-09-23 23:00","2022","09","23","23:00","13.4","","8.1","","70","","","","23","","18","","24.1","","99.36","","","","","","NA"
"-94.07","58.74","CHURCHILL A","5060605","2022-09-24 00:00","2022","09","24","00:00","13.2","","8.7","","74","","","","23","","20","","24.1","","99.36","","","","","","Clear"
"-94.07","58.74","CHURCHILL A","5060605","2022-09-24 01:00","2022","09","24","01:00","13.2","","9.1","","76","","","","24","","17","","24.1","","99.39","","","","","","NA"
"-94.07","58.74","CHURCHILL A","5060605","2022-09-24 02:00","2022","09","24","02:00","13.0","","9.3","","78","","","","25","","12","","24.1","","99.42","","","","","","NA"
"-94.07","58.74","CHURCHILL A","5060605","2022-09-24 03:00","2022","09","24","03:00","12.0","","9.2","","83","","","","26","","12","","24.1","","99.48","","","","","","Clear"
"-94.07","58.74","CHURCHILL A","5060605","2022-09-24 04:00","2022","09","24","04:00","11.0","","9.1","","88","","","","27","","10","","24.1","","99.51","","","","","","NA"
"-94.07","58.74","CHURCHILL A","5060605","2022-09-24 05:00","2022","09","24","05:00","10.3","","8.7","","90","","","","28","","11","","24.1","","99.55","","","","","","NA"
"-94.07","58.74","CHURCHILL A","5060605","2022-09-24 06:00","2022","09","24","06:00","9.7","","8.3","","91","","","","24","","10","","24.1","","99.67","","","","","","Mostly Cloudy"
"-94.07","58.74","CHURCHILL A","5060605","2022-09-24 07:00","2022","09","24","07:00","10.0","","8.4","","90","","","","27","","9","","24.1","","99.68","","","","","","NA"
"-94.07","58.74","CHURCHILL A","5060605","2022-09-24 08:00","2022","09","24","08:00","10.4","","8.7","","89","","","","25","","9","","24.1","","99.73","","","","","","NA"
"-94.07","58.74","CHURCHILL A","5060605","2022-09-24 09:00","2022","09","24","09:00","11.5","","8.8","","83","","","","28","","11","","24.1","","99.76","","","","","","Mostly Cloudy"
"-94.07","58.74","CHURCHILL A","5060605","2022-09-24 10:00","2022","09","24","10:00","13.0","","9.0","","76","","","","28","","7","","24.1","","99.78","","","","","","NA"
"-94.07","58.74","CHURCHILL A","5060605","2022-09-24 11:00","2022","09","24","11:00","13.8","","8.8","","72","","","","29","","8","","24.1","","99.79","","","","","","NA"
"-94.07","58.74","CHURCHILL A","5060605","2022-09-24 12:00","2022","09","24","12:00","13.7","","8.6","","71","","","","27","","3","","24.1","","99.79","","","","","","Mostly Cloudy"
"-94.07","58.74","CHURCHILL A","5060605","2022-09-24 13:00","2022","09","24","13:00","15.6","","9.5","","67","","","","36","","2","","24.1","","99.79","","","","","","NA"
"-94.07","58.74","CHURCHILL A","5060605","2022-09-24 14:00","2022","09","24","14:00","16.2","","9.5","","64","","","","36","","4","","24.1","","99.81","","","","","","NA"
"-94.07","58.74","CHURCHILL A","5060605","2022-09-24 15:00","2022","09","24","15:00","16.6","","9.1","","61","","","","22","","3","","24.1","","99.82","","","","","","Mostly Cloudy"
"-94.07","58.74","CHURCHILL A","5060605","2022-09-24 16:00","2022","09","24","16:00","16.8","","8.9","","59","","","","25","","4","","24.1","","99.84","","","","","","NA"
"-94.07","58.74","CHURCHILL A","5060605","2022-09-24 17:00","2022","09","24","17:00","15.8","","10.8","","72","","","","13","","10","","24.1","","99.85","","","","","","NA"
"-94.07","58.74","CHURCHILL A","5060605","2022-09-24 18:00","2022","09","24","18:00","14.3","","10.0","","75","","","","16","","9","","24.1","","99.86","","","","","","Mostly Cloudy"
"-94.07","58.74","CHURCHILL A","5060605","2022-09-24 19:00","2022","09","24","19:00","13.6","","9.4","","76","","","","18","","9","","24.1","","99.87","","","","","","NA"
"-94.07","58.74","CHURCHILL A","5060605","2022-09-24 20:00","2022","09","24","20:00","12.7","","9.0","","78","","","","20","","10","","24.1","","99.84","","","","","","NA"
"-94.07","58.74","CHURCHILL A","5060605","2022-09-24 21:00","2022","09","24","21:00","12.2","","8.4","","77","","","","21","","11","","24.1","","99.83","","","","","","Mainly Clear"
"-94.07","58.74","CHURCHILL A","5060605","2022-09-24 22:00","2022","09","24","22:00","10.9","","8.3","","84","","","","23","","11","","24.1","","99.83","","","","","","NA"
"-94.07","58.74","CHURCHILL A","5060605","2022-09-24 23:00","2022","09","24","23:00","9.9","","7.2","","83","","","","26","","10","","24.1","","99.81","","","","","","NA"
"-94.07","58.74","CHURCHILL A","5060605","2022-09-25 00:00","2022","09","25","00:00","9.7","","5.4","","75","","","","27","","9","","24.1","","99.79","","","","","","Clear"
"-94.07","58.74","CHURCHILL A","5060605","2022-09-25 01:00","2022","09","25","01:00","9.4","","5.0","","74","","","","27","","9","","24.1","","99.82","","","","","","NA"
"-94.07","58.74","CHURCHILL A","5060605","2022-09-25 02:00","2022","09","25","02:00","8.8","","5.9","","82","","","","32","","28","","24.1","","99.92","","","","","","NA"
"-94.07","58.74","CHURCHILL A","5060605","2022-09-25 03:00","2022","09","25","03:00","8.4","","4.6","","77","","","","32","","28","","24.1","","100.04","","","","","","Clear"
"-94.07","58.74","CHURCHILL A","5060605","2022-09-25 04:00","2022","09","25","04:00","7.7","","4.1","","78","","","","34","","42","","24.1","","100.17","","","","","","NA"
"-94.07","58.74","CHURCHILL A","5060605","2022-09-25 05:00","2022","09","25","05:00","7.0","","3.6","","79","","","","34","","43","","24.1","","100.26","","","","","","NA"
"-94.07","58.74","CHURCHILL A","5060605","2022-09-25 06:00","2022","09","25","06:00","6.8","","3.8","","81","","","","35","","36","","24.1","","100.31","","","","","","Mainly Clear"
"-94.07","58.74","CHURCHILL A","5060605","2022-09-25 07:00","2022","09","25","07:00","6.5","","4.0","","84","","","","35","","41","","24.1","","100.42","","","","","","NA"
"-94.07","58.74","CHURCHILL A","5060605","2022-09-25 08:00","2022","09","25","08:00","5.3","","3.2","","86","","","","35","","47","","24.1","","100.54","","","","","","NA"
"-94.07","58.74","CHURCHILL A","5060605","2022-09-25 09:00","2022","09","25","09:00","4.6","","2.5","","86","","","","35","","51","","24.1","","100.64","","","","","","Mostly Cloudy"
"-94.07","58.74","CHURCHILL A","5060605","2022-09-25 10:00","2022","09","25","10:00","4.8","","1.5","","79","","","","36","","39","","24.1","","100.72","","","","","","NA"
"-94.07","58.74","CHURCHILL A","5060605","2022-09-25 11:00","2022","09","25","11:00","4.8","","0.6","","74","","","","36","","44","","24.1","","100.82","","","","","","NA"
"-94.07","58.74","CHURCHILL A","5060605","2022-09-25 12:00","2022","09","25","12:00","4.7","","-0.7","","68","","","","36","","39","","24.1","","100.92","","","","","","Mostly Cloudy"
"-94.07","58.74","CHURCHILL A","5060605","2022-09-25 13:00","2022","09","25","13:00","3.7","","0.3","","79","","","","36","","37","","24.1","","100.97","","","","","","Rain Showers"
"-94.07","58.74","CHURCHILL A","5060605","2022-09-25 14:00","2022","09","25","14:00","4.2","","-0.2","","73","","","","34","","35","","24.1","","101.06","","","","","","Rain Showers"
"-94.07","58.74","CHURCHILL A","5060605","2022-09-25 15:00","2022","09","25","15:00","4.1","","-1.6","","66","","","","36","","38","","24.1","","101.09","","","","","","Cloudy"
"-94.07","58.74","CHURCHILL A","5060605","2022-09-25 16:00","2022","09","25","16:00","3.5","","-0.8","","74","","","","35","","40","","24.1","","101.16","","","","","","Rain Showers"
"-94.07","58.74","CHURCHILL A","5060605","2022-09-25 17:00","2022","09","25","17:00","3.5","","-2.0","","67","","","","34","","32","","24.1","","101.24","","","","","","Rain Showers"
"-94.07","58.74","CHURCHILL A","5060605","2022-09-25 18:00","2022","09","25","18:00","3.2","","-4.0","","59","","","","34","","39","","24.1","","101.25","","","","","","Rain Showers"
"-94.07","58.74","CHURCHILL A","5060605","2022-09-25 19:00","2022","09","25","19:00","3.4","","-3.7","","60","","","","36","","37","","24.1","","101.26","","","","","","NA"
"-94.07","58.74","CHURCHILL A","5060605","2022-09-25 20:00","2022","09","25","20:00","3.2","","-4.0","","59","","","","35","","30","","24.1","","101.26","","","","","","NA"
"-94.07","58.74","CHURCHILL A","5060605","2022-09-25 21:00","2022","09","25","21:00","3.0","","-4.0","","60","","","","36","","33","","24.1","","101.25","","","","","","Cloudy"
"-94.07","58.74","CHURCHILL A","5060605","2022-09-25 22:00","2022","09","25","22:00","2.4","","-4.6","","60","","","","34","","30","","24.1","","101.29","","","","","","NA"
"-94.07","58.74","CHURCHILL A","5060605","2022-09-25 23:00","2022","09","25","23:00","2.2","","-4.8","","60","","","","34","","27","","24.1","","101.31","","","","","","NA"
"-94.07","58.74","CHURCHILL A","5060605","2022-09-26 00:00","2022","09","26","00:00","2.0","","-3.7","","66","","","","34","","22","","24.1","","101.33","","","","","","Cloudy"
"-94.07","58.74","CHURCHILL A","5060605","2022-09-26 01:00","2022","09","26","01:00","2.1","","-3.8","","65","","","","34","","25","","24.1","","101.35","","","","","","NA"
"-94.07","58.74","CHURCHILL A","5060605","2022-09-26 02:00","2022","09","26","02:00","1.9","","-4.8","","61","","","","35","","30","","24.1","","101.35","","","","","","NA"
"-94.07","58.74","CHURCHILL A","5060605","2022-09-26 03:00","2022","09","26","03:00","1.8","","-4.5","","63","","","","33","","23","","24.1","","101.39","","","","","","Cloudy"
"-94.07","58.74","CHURCHILL A","5060605","2022-09-26 04:00","2022","09","26","04:00","1.7","","-4.1","","65","","","","34","","23","","24.1","","101.42","","","","","","NA"
"-94.07","58.74","CHURCHILL A","5060605","2022-09-26 05:00","2022","09","26","05:00","1.6","","-4.1","","66","","","","36","","26","","24.1","","101.47","","","","","","NA"
"-94.07","58.74","CHURCHILL A","5060605","2022-09-26 06:00","2022","09","26","06:00","1.4","","-4.2","","66","","","","34","","24","","24.1","","101.50","","","","","","Cloudy"
"-94.07","58.74","CHURCHILL A","5060605","2022-09-26 07:00","2022","09","26","07:00","1.2","","-4.7","","65","","","","34","","28","","24.1","","101.55","","","","","","NA"
"-94.07","58.74","CHURCHILL A","5060605","2022-09-26 08:00","2022","09","26","08:00","1.3","","-4.2","","67","","","","34","","25","","24.1","","101.59","","","","","","NA"
"-94.07","58.74","CHURCHILL A","5060605","2022-09-26 09:00","2022","09","26","09:00","1.4","","-4.4","","65","","","","35","","22","","24.1","","101.66","","","","","","Cloudy"
"-94.07","58.74","CHURCHILL A","5060605","2022-09-26 10:00","2022","09","26","10:00","1.5","","-4.2","","66","","","","34","","22","","24.1","","101.70","","","","","","NA"
"-94.07","58.74","CHURCHILL A","5060605","2022-09-26 11:00","2022","09","26","11:00","1.5","","-3.8","","68","","","","33","","21","","24.1","","101.75","","","","","","NA"
"-94.07","58.74","CHURCHILL A","5060605","2022-09-26 12:00","2022","09","26","12:00","1.7","","-4.0","","66","","","","33","","24","","24.1","","101.78","","","","","","Cloudy"
"-94.07","58.74","CHURCHILL A","5060605","2022-09-26 13:00","2022","09","26","13:00","1.8","","-3.9","","66","","","","35","","22","","24.1","","101.83","","","","","","NA"
"-94.07","58.74","CHURCHILL A","5060605","2022-09-26 14:00","2022","09","26","14:00","1.9","","-4.2","","64","","","","33","","22","","24.1","","101.87","","","","","","NA"
"-94.07","58.74","CHURCHILL A","5060605","2022-09-26 15:00","2022","09","26","15:00","1.9","","-4.2","","64","","","","34","","18","","24.1","","101.91","","","","","","Cloudy"
"-94.07","58.74","CHURCHILL A","5060605","2022-09-26 16:00","2022","09","26","16:00","2.0","","-4.8","","61","","","","34","","14","","24.1","","101.95","","","","","","NA"
"-94.07","58.74","CHURCHILL A","5060605","2022-09-26 17:00","2022","09","26","17:00","2.0","","-4.6","","62","","","","35","","13","","24.1","","101.99","","","","","","NA"
"-94.07","58.74","CHURCHILL A","5060605","2022-09-26 18:00","2022","09","26","18:00","2.1","","-4.7","","61","","","","35","","13","","24.1","","102.01","","","","","","Cloudy"
"-94.07","58.74","CHURCHILL A","5060605","2022-09-26 19:00","2022","09","26","19:00","2.4","","-4.2","","62","","","","33","","14","","24.1","","102.04","","","","","","NA"
"-94.07","58.74","CHURCHILL A","5060605","2022-09-26 20:00","2022","09","26","20:00","2.5","","-4.3","","61","","","","32","","13","","24.1","","102.06","","","","","","NA"
"-94.07","58.74","CHURCHILL A","5060605","2022-09-26 21:00","2022","09","26","21:00","2.7","","-3.4","","64","","","","32","","13","","24.1","","102.09","","","","","","Cloudy"
"-94.07","58.74","CHURCHILL A","5060605","2022-09-26 22:00","2022","09","26","22:00","2.3","","-1.6","","76","","","","36","","21","","24.1","","102.09","","","","","","NA"
"-94.07","58.74","CHURCHILL A","5060605","2022-09-26 23:00","2022","09","26","23:00","2.7","","-3.4","","64","","","","34","","19","","24.1","","102.11","","","","","","NA"
"-94.07","58.74","CHURCHILL A","5060605","2022-09-27 00:00","2022","09","27","00:00","2.8","","-4.0","","61","","","","34","","16","","24.1","","102.11","","","","","","Cloudy"
"-94.07","58.74","CHURCHILL A","5060605","2022-09-27 01:00","2022","09","27","01:00","2.4","","-2.3","","71","","","","29","","8","","24.1","","102.16","","","","","","NA"
"-94.07","58.74","CHURCHILL A","5060605","2022-09-27 02:00","2022","09","27","02:00","1.9","","-2.1","","75","","","","26","","13","","24.1","","102.17","","","","","","NA"
"-94.07","58.74","CHURCHILL A","5060605","2022-09-27 03:00","2022","09","27","03:00","1.4","","-1.8","","79","","","","27","","10","","24.1","","102.20","","","","","","Mostly Cloudy"
"-94.07","58.74","CHURCHILL A","5060605","2022-09-27 04:00","2022","09","27","04:00","-0.1","","-3.0","","81","","","","27","","12","","24.1","","102.24","","","","-4","","NA"
"-94.07","58.74","CHURCHILL A","5060605","2022-09-27 05:00","2022","09","27","05:00","-0.5","","-3.5","","80","","","","27","","13","","24.1","","102.30","","","","-5","","NA"
"-94.07","58.74","CHURCHILL A","5060605","2022-09-27 06:00","2022","09","27","06:00","-1.2","","-3.7","","83","","","","26","","13","","24.1","","102.30","","","","-5","","Mostly Cloudy"
"-94.07","58.74","CHURCHILL A","5060605","2022-09-27 07:00","2022","09","27","07:00","0.2","","-2.9","","80","","","","22","","5","","24.1","","102.32","","","","","","NA"
"-94.07","58.74","CHURCHILL A","5060605","2022-09-27 08:00","2022","09","27","08:00","1.6","","-3.1","","71","","","","24","","12","","24.1","","102.32","","","","","","NA"
"-94.07","58.74","CHURCHILL A","5060605","2022-09-27 09:00","2022","09","27","09:00","3.3","","-2.5","","66","","","","23","","13","","24.1","","102.30","","","","","","Mostly Cloudy"
"-94.07","58.74","CHURCHILL A","5060605","2022-09-27 10:00","2022","09","27","10:00","4.8","","-2.7","","58","","","","23","","17","","24.1","","102.27","","","","","","NA"
"-94.07","58.74","CHURCHILL A","5060605","2022-09-27 11:00","2022","09","27","11:00","5.5","","-2.1","","58","","","","23","","17","","24.1","","102.22","","","","","","NA"
"-94.07","58.74","CHURCHILL A","5060605","2022-09-27 12:00","2022","09","27","12:00","6.2","","-2.4","","54","","","","22","","21","","24.1","","102.18","","","","","","Mostly Cloudy"
"-94.07","58.74","CHURCHILL A","5060605","2022-09-27 13:00","2022","09","27","13:00","6.8","","-1.7","","55","","","","21","","19","","24.1","","102.13","","","","","","NA"
"-94.07","58.74","CHURCHILL A","5060605","2022-09-27 14:00","2022","09","27","14:00","7.4","","-1.5","","53","","","","20","","18","","24.1","","102.06","","","","","","NA"
"-94.07","58.74","CHURCHILL A","5060605","2022-09-27 15:00","2022","09","27","15:00","7.9","","-1.9","","50","","","","20","","24","","24.1","","101.99","","","","","","Mostly Cloudy"
"-94.07","58.74","CHURCHILL A","5060605","2022-09-27 16:00","2022","09","27","16:00","7.5","","-1.2","","54","","","","19","","23","","24.1","","101.91","","","","","","NA"
"-94.07","58.74","CHURCHILL A","5060605","2022-09-27 17:00","2022","09","27","17:00","7.3","","-1.2","","55","","","","18","","24","","24.1","","101.82","","","","","","NA"
"-94.07","58.74","CHURCHILL A","5060605","2022-09-27 18:00","2022","09","27","18:00","6.9","","-0.5","","59","","","","19","","24","","24.1","","101.72","","","","","","Cloudy"
"-94.07","58.74","CHURCHILL A","5060605","2022-09-27 19:00","2022","09","27","19:00","6.9","","-0.8","","58","","","","19","","27","","24.1","","101.64","","","","","","NA"
"-94.07","58.74","CHURCHILL A","5060605","2022-09-27 20:00","2022","09","27","20:00","6.8","","-0.6","","59","","","","19","","28","","24.1","","101.52","","","","","","Rain Showers"
"-94.07","58.74","CHURCHILL A","5060605","2022-09-27 21:00","2022","09","27","21:00","7.3","","-0.5","","57","","","","19","","31","","24.1","","101.42","","","","","","Cloudy"
"-94.07","58.74","CHURCHILL A","5060605","2022-09-27 22:00","2022","09","27","22:00","7.8","","0.5","","60","","","","20","","36","","24.1","","101.25","","","","","","Rain Showers"
"-94.07","58.74","CHURCHILL A","5060605","2022-09-27 23:00","2022","09","27","23:00","6.8","","2.3","","73","","","","20","","27","","24.1","","101.20","","","","","","Rain Showers"
"-94.07","58.74","CHURCHILL A","5060605","2022-09-28 00:00","2022","09","28","00:00","6.3","","4.0","","85","","","","18","","26","","24.1","","101.12","","","","","","Rain Showers"
"-94.07","58.74","CHURCHILL A","5060605","2022-09-28 01:00","2022","09","28","01:00","6.3","","4.6","","89","","","","18","","25","","24.1","","100.96","","","","","","Rain Showers"
"-94.07","58.74","CHURCHILL A","5060605","2022-09-28 02:00","2022","09","28","02:00","7.8","","4.9","","82","","","","19","","30","","24.1","","100.81","","","","","","NA"
"-94.07","58.74","CHURCHILL A","5060605","2022-09-28 03:00","2022","09","28","03:00","9.1","","5.5","","78","","","","21","","30","","24.1","","100.66","","","","","","Cloudy"
"-94.07","58.74","CHURCHILL A","5060605","2022-09-28 04:00","2022","09","28","04:00","9.2","","5.4","","77","","","","21","","31","","24.1","","100.57","","","","","","NA"
"-94.07","58.74","CHURCHILL A","5060605","2022-09-28 05:00","2022","09","28","05:00","8.9","","5.5","","79","","","","21","","25","","24.1","","100.49","","","","","","NA"
"-94.07","58.74","CHURCHILL A","5060605","2022-09-28 06:00","2022","09","28","06:00","9.1","","5.8","","80","","","","21","","19","","24.1","","100.44","","","","","","Mainly Clear"
"-94.07","58.74","CHURCHILL A","5060605","2022-09-28 07:00","2022","09","28","07:00","10.7","","6.5","","75","","","","23","","27","","24.1","","100.36","","","","","","NA"
"-94.07","58.74","CHURCHILL A","5060605","2022-09-28 08:00","2022","09","28","08:00","12.3","","7.2","","71","","","","24","","27","","24.1","","100.31","","","","","","NA"
"-94.07","58.74","CHURCHILL A","5060605","2022-09-28 09:00","2022","09","28","09:00","14.6","","8.0","","64","","","","24","","27","","24.1","","100.28","","","","","","Mainly Clear"
"-94.07","58.74","CHURCHILL A","5060605","2022-09-28 10:00","2022","09","28","10:00","16.8","","9.0","","60","","","","26","","24","","24.1","","100.28","","","","","","NA"
"-94.07","58.74","CHURCHILL A","5060605","2022-09-28 11:00","2022","09","28","11:00","17.7","","9.6","","59","","","","27","","26","","24.1","","100.29","","","","","","NA"
"-94.07","58.74","CHURCHILL A","5060605","2022-09-28 12:00","2022","09","28","12:00","19.1","","10.2","","56","","","","26","","24","","24.1","","100.26","","","","","","Mainly Clear"
"-94.07","58.74","CHURCHILL A","5060605","2022-09-28 13:00","2022","09","28","13:00","20.1","","10.7","","54","","","","27","","25","","24.1","","100.27","","","","","","NA"
"-94.07","58.74","CHURCHILL A","5060605","2022-09-28 14:00","2022","09","28","14:00","21.2","","11.3","","53","","","","27","","22","","24.1","","100.27","","","","","","NA"
"-94.07","58.74","CHURCHILL A","5060605","2022-09-28 15:00","2022","09","28","15:00","21.7","","11.7","","53","","","","28","","19","","24.1","","100.29","","","","","","Mainly Clear"
"-94.07","58.74","CHURCHILL A","5060605","2022-09-28 16:00","2022","09","28","16:00","20.8","","11.6","","55","","","","33","","9","","24.1","","100.30","","","","","","NA"
"-94.07","58.74","CHURCHILL A","5060605","2022-09-28 17:00","2022","09","28","17:00","18.9","","11.3","","61","","","","36","","9","","24.1","","100.31","","","","","","NA"
"-94.07","58.74","CHURCHILL A","5060605","2022-09-28 18:00","2022","09","28","18:00","17.0","","10.7","","66","","","","5","","7","","24.1","","100.33","","","","","","Mostly Cloudy"
"-94.07","58.74","CHURCHILL A","5060605","2022-09-28 19:00","2022","09","28","19:00","13.4","","10.1","","80","","","","8","","14","","24.1","","100.38","","","","","","NA"
"-94.07","58.74","CHURCHILL A","5060605","2022-09-28 20:00","2022","09","28","20:00","9.8","","8.4","","91","","","","9","","20","","24.1","","100.37","","","","","","NA"
"-94.07","58.74","CHURCHILL A","5060605","2022-09-28 21:00","2022","09","28","21:00","8.9","","7.8","","93","","","","10","","20","","24.1","","100.37","","","","","","Mainly Clear"
"-94.07","58.74","CHURCHILL A","5060605","2022-09-28 22:00","2022","09","28","22:00","8.4","","7.5","","94","","","","8","","19","","24.1","","100.38","","","","","","NA"
"-94.07","58.74","CHURCHILL A","5060605","2022-09-28 23:00","2022","09","28","23:00","7.8","","7.2","","96","","","","5","","24","","12.9","","100.45","","","","","","NA"
"-94.07","58.74","CHURCHILL A","5060605","2022-09-29 00:00","2022","09","29","00:00","7.2","","6.8","","97","","","","10","","18","","19.3","","100.40","","","","","","Cloudy"
"-94.07","58.74","CHURCHILL A","5060605","2022-09-29 01:00","2022","09","29","01:00","7.4","","7.1","","98","","","","2","","20","","24.1","","100.56","","","","","","NA"
"-94.07","58.74","CHURCHILL A","5060605","2022-09-29 02:00","2022","09","29","02:00","7.5","","7.1","","97","","","","35","","17","","24.1","","100.65","","","","","","NA"
"-94.07","58.74","CHURCHILL A","5060605","2022-09-29 03:00","2022","09","29","03:00","8.1","","7.5","","96","","","","35","","19","","24.1","","100.69","","","","","","Cloudy"
"-94.07","58.74","CHURCHILL A","5060605","2022-09-29 04:00","2022","09","29","04:00","8.4","","6.2","","86","","","","36","","28","","24.1","","100.77","","","","","","NA"
"-94.07","58.74","CHURCHILL A","5060605","2022-09-29 05:00","2022","09","29","05:00","8.0","","5.8","","86","","","","36","","30","","24.1","","100.88","","","","","","NA"
"-94.07","58.74","CHURCHILL A","5060605","2022-09-29 06:00","2022","09","29","06:00","7.1","","4.7","","85","","","","36","","33","","24.1","","100.99","","","","","","Mainly Clear"
"-94.07","58.74","CHURCHILL A","5060605","2022-09-29 07:00","2022","09","29","07:00","6.8","","4.0","","82","","","","35","","34","","24.1","","101.08","","","","","","NA"
"-94.07","58.74","CHURCHILL A","5060605","2022-09-29 08:00","2022","09","29","08:00","6.9","","3.2","","77","","","","35","","32","","24.1","","101.19","","","","","","NA"
"-94.07","58.74","CHURCHILL A","5060605","2022-09-29 09:00","2022","09","29","09:00","6.1","","1.3","","71","","","","35","","39","","24.1","","101.28","","","","","","Mostly Cloudy"
"-94.07","58.74","CHURCHILL A","5060605","2022-09-29 10:00","2022","09","29","10:00","5.5","","1.2","","74","","","","35","","32","","24.1","","101.38","","","","","","NA"
"-94.07","58.74","CHURCHILL A","5060605","2022-09-29 11:00","2022","09","29","11:00","4.6","","0.5","","75","","","","34","","28","","24.1","","101.47","","","","","","NA"
"-94.07","58.74","CHURCHILL A","5060605","2022-09-29 12:00","2022","09","29","12:00","4.9","","0.5","","73","","","","33","","33","","24.1","","101.55","","","","","","Cloudy"
"-94.07","58.74","CHURCHILL A","5060605","2022-09-29 13:00","2022","09","29","13:00","4.2","","-0.7","","70","","","","33","","34","","24.1","","101.65","","","","","","NA"
"-94.07","58.74","CHURCHILL A","5060605","2022-09-29 14:00","2022","09","29","14:00","4.2","","-0.8","","70","","","","34","","35","","24.1","","101.72","","","","","","NA"
"-94.07","58.74","CHURCHILL A","5060605","2022-09-29 15:00","2022","09","29","15:00","4.0","","-2.5","","63","","","","34","","33","","24.1","","101.78","","","","","","Mostly Cloudy"
"-94.07","58.74","CHURCHILL A","5060605","2022-09-29 16:00","2022","09","29","16:00","4.5","","-2.4","","61","","","","33","","29","","24.1","","101.83","","","","","","NA"
"-94.07","58.74","CHURCHILL A","5060605","2022-09-29 17:00","2022","09","29","17:00","4.2","","-3.3","","58","","","","32","","34","","24.1","","101.88","","","","","","NA"
"-94.07","58.74","CHURCHILL A","5060605","2022-09-29 18:00","2022","09","29","18:00","4.1","","-3.8","","56","","","","34","","43","","24.1","","101.94","","","","","","Mostly Cloudy"
"-94.07","58.74","CHURCHILL A","5060605","2022-09-29 19:00","2022","09","29","19:00","4.1","","-3.7","","57","","","","33","","36","","24.1","","102.00","","","","","","NA"
"-94.07","58.74","CHURCHILL A","5060605","2022-09-29 20:00","2022","09","29","20:00","3.7","","-3.8","","58","","","","33","","35","","24.1","","102.05","","","","","","NA"
"-94.07","58.74","CHURCHILL A","5060605","2022-09-29 21:00","2022","09","29","21:00","3.5","","-3.5","","60","","","","34","","45","","24.1","","102.09","","","","","","Mostly Cloudy"
"-94.07","58.74","CHURCHILL A","5060605","2022-09-29 22:00","2022","09","29","22:00","3.4","","-3.1","","62","","","","34","","29","","24.1","","102.14","","","","","","NA"
"-94.07","58.74","CHURCHILL A","5060605","2022-09-29 23:00","2022","09","29","23:00","3.5","","-3.3","","61","","","","34","","33","","24.1","","102.20","","","","","","NA"
"-94.07","58.74","CHURCHILL A","5060605","2022-09-30 00:00","2022","09","30","00:00","3.1","","-3.9","","60","","","","34","","36","","24.1","","102.23","","","","","","Mostly Cloudy"
"-94.07","58.74","CHURCHILL A","5060605","2022-09-30 01:00","2022","09","30","01:00","2.6","","-4.0","","62","","","","33","","29","","24.1","","102.28","","","","","","NA"
"-94.07","58.74","CHURCHILL A","5060605","2022-09-30 02:00","2022","09","30","02:00","2.4","","-2.9","","68","","","","34","","25","","24.1","","102.33","","","","","","NA"
"-94.07","58.74","CHURCHILL A","5060605","2022-09-30 03:00","2022","09","30","03:00","2.0","","-2.8","","71","","","","34","","25","","24.1","","102.37","","","","","","Cloudy"
"-94.07","58.74","CHURCHILL A","5060605","2022-09-30 04:00","2022","09","30","04:00","1.5","","-2.4","","75","","","","35","","28","","24.1","","102.44","","","","","","NA"
"-94.07","58.74","CHURCHILL A","5060605","2022-09-30 05:00","2022","09","30","05:00","1.2","","-2.6","","76","","","","35","","22","","24.1","","102.49","","","","","","NA"
"-94.07","58.74","CHURCHILL A","5060605","2022-09-30 06:00","2022","09","30","06:00","1.2","","-2.7","","75","","","","35","","26","","24.1","","102.55","","","","","","Cloudy"
"-94.07","58.74","CHURCHILL A","5060605","2022-09-30 07:00","2022","09","30","07:00","1.2","","-2.5","","76","","","","34","","26","","24.1","","102.59","","","","","","NA"
"-94.07","58.74","CHURCHILL A","5060605","2022-09-30 08:00","2022","09","30","08:00","1.4","","-2.2","","77","","","","34","","25","","24.1","","102.62","","","","","","NA"
"-94.07","58.74","CHURCHILL A","5060605","2022-09-30 09:00","2022","09","30","09:00","1.4","","-2.9","","73","","","","35","","28","","24.1","","102.68","","","","","","Cloudy"
"-94.07","58.74","CHURCHILL A","5060605","2022-09-30 10:00","2022","09","30","10:00","1.4","","-2.9","","73","","","","32","","20","","24.1","","102.74","","","","","","NA"
"-94.07","58.74","CHURCHILL A","5060605","2022-09-30 11:00","2022","09","30","11:00","1.7","","-2.9","","72","","","","33","","19","","24.1","","102.77","","","","","","NA"
"-94.07","58.74","CHURCHILL A","5060605","2022-09-30 12:00","2022","09","30","12:00","1.6","","-2.8","","73","","","","32","","16","","24.1","","102.81","","","","","","Mostly Cloudy"
"-94.07","58.74","CHURCHILL A","5060605","2022-09-30 13:00","2022","09","30","13:00","2.5","","-3.0","","67","","","","31","","22","","24.1","","102.81","","","","","","NA"
"-94.07","58.74","CHURCHILL A","5060605","2022-09-30 14:00","2022","09","30","14:00","2.8","","-2.9","","66","","","","33","","19","","24.1","","102.80","","","","","","NA"
"-94.07","58.74","CHURCHILL A","5060605","2022-09-30 15:00","2022","09","30","15:00","3.2","","-2.4","","67","","","","35","","14","","24.1","","102.80","","","","","","Mainly Clear"
"-94.07","58.74","CHURCHILL A","5060605","2022-09-30 16:00","2022","09","30","16:00","3.0","","-1.9","","70","","","","1","","17","","24.1","","102.81","","","","","","NA"
"-94.07","58.74","CHURCHILL A","5060605","2022-09-30 17:00","2022","09","30","17:00","2.7","","-2.2","","70","","","","36","","11","","24.1","","102.81","","","","","","NA"
"-94.07","58.74","CHURCHILL A","5060605","2022-09-30 18:00","2022","09","30","18:00","1.4","","-2.2","","77","","","","35","","8","","24.1","","102.83","","","","","","Clear"
"-94.07","58.74","CHURCHILL A","5060605","2022-09-30 19:00","2022","09","30","19:00","1.8","","-2.2","","75","","","","36","","6","","24.1","","102.84","","","","","","NA"
"-94.07","58.74","CHURCHILL A","5060605","2022-09-30 20:00","2022","09","30","20:00","1.1","","-2.1","","79","","","","21","","4","","24.1","","102.87","","","","","","NA"
"-94.07","58.74","CHURCHILL A","5060605","2022-09-30 21:00","2022","09","30","21:00","-0.7","","-2.8","","86","","","","21","","10","","24.1","","102.88","","","","-4","","Clear"
"-94.07","58.74","CHURCHILL A","5060605","2022-09-30 22:00","2022","09","30","22:00","-0.9","","-2.5","","89","","","","23","","10","","24.1","","102.90","","","","-4","","NA"
"-94.07","58.74","CHURCHILL A","5060605","2022-09-30 23:00","2022","09","30","23:00","-0.9","","-2.5","","89","","","","23","","10","","24.1","","102.91","","","","-4","","NA"
