"Longitude (x)","Latitude (y)","Station Name","Climate ID","Date/Time (LST)","Year","Month","Day","Time (LST)","Temp (°C)","Temp Flag","Dew Point Temp (°C)","Dew Point Temp Flag","Rel Hum (%)","Rel Hum Flag","Precip. Amount (mm)","Precip. Amount Flag","Wind Dir (10s deg)","Wind Dir Flag","Wind Spd (km/h)","Wind Spd Flag","Visibility (km)","Visibility Flag","Stn Press (kPa)","Stn Press Flag","Hmdx","Hmdx Flag","Wind Chill","Wind Chill Flag","Weather"
"-68.42","58.09","KUUJJUAQ A","7113535","2020-03-01 00:00","2020","03","01","00:00","-20.1","","-22.3","","83","","","","34","","12","","24.1","","101.18","","","","-28","","NA"
"-68.42","58.09","KUUJJUAQ A","7113535","2020-03-01 01:00","2020","03","01","01:00","-20.6","","-22.8","","83","","","","34","","10","","24.1","","101.19","","","","-28","","Cloudy"
"-68.42","58.09","KUUJJUAQ A","7113535","2020-03-01 02:00","2020","03","01","02:00","-20.8","","-23.1","","83","","","","34","","10","","24.1","","101.16","","","","-28","","NA"
"-68.42","58.09","KUUJJUAQ A","7113535","2020-03-01 03:00","2020","03","01","03:00","-20.7","","-23.0","","83","","","","34","","9","","24.1","","101.16","","","","-28","","NA"
"-68.42","58.09","KUUJJUAQ A","7113535","2020-03-01 04:00","2020","03","01","04:00","-21.6","","-23.9","","82","","","","34","","10","","24.1","","101.19","","","","-29","","Cloudy"
"-68.42","58.09","KUUJJUAQ A","7113535","2020-03-01 05:00","2020","03","01","05:00","-22.5","","-24.8","","82","","","","33","","9","","24.1","","101.21","","","","-30","","NA"
"-68.42","58.09","KUUJJUAQ A","7113535","2020-03-01 06:00","2020","03","01","06:00","-24.2","","-26.5","","82","","","","34","","12","","24.1","","101.23","","","","-33","","NA"
"-68.42","58.09","KUUJJUAQ A","7113535","2020-03-01 07:00","2020","03","01","07:00","-24.7","","-27.0","","82","","","","33","","10","","24.1","","101.26","","","","-33","","Mainly Clear"
"-68.42","58.09","KUUJJUAQ A","7113535","2020-03-01 08:00","2020","03","01","08:00","-23.2","","-25.4","","82","","","","33","","8","","24.1","","101.25","","","","-30","","NA"
"-68.42","58.09","KUUJJUAQ A","7113535","2020-03-01 09:00","2020","03","01","09:00","-20.4","","-22.9","","81","","","","32","","5","","24.1","","101.25","","","","-25","","NA"
"-68.42","58.09","KUUJJUAQ A","7113535","2020-03-01 10:00","2020","03","01","10:00","-19.7","","-23.2","","74","","","","10","","4","","24.1","","101.26","","","","-23","","Mainly Clear"
"-68.42","58.09","KUUJJUAQ A","7113535","2020-03-01 11:00","2020","03","01","11:00","-18.3","","-21.3","","78","","","","8","","5","","24.1","","101.22","","","","-22","","NA"
"-68.42","58.09","KUUJJUAQ A","7113535","2020-03-01 12:00","2020","03","01","12:00","-16.3","","-19.2","","78","","","","7","","6","","24.1","","101.15","","","","-21","","NA"
"-68.42","58.09","KUUJJUAQ A","7113535","2020-03-01 13:00","2020","03","01","13:00","-14.7","","-17.7","","78","","","","7","","8","","24.1","","101.09","","","","-20","","Mainly Clear"
"-68.42","58.09","KUUJJUAQ A","7113535","2020-03-01 14:00","2020","03","01","14:00","-13.9","","-17.9","","72","","","","2","","10","","24.1","","101.07","","","","-20","","NA"
"-68.42","58.09","KUUJJUAQ A","7113535","2020-03-01 15:00","2020","03","01","15:00","-14.4","","-18.3","","72","","","","2","","11","","24.1","","101.03","","","","-21","","NA"
"-68.42","58.09","KUUJJUAQ A","7113535","2020-03-01 16:00","2020","03","01","16:00","-15.3","","-18.6","","76","","","","1","","15","","24.1","","101.03","","","","-23","","Mainly Clear"
"-68.42","58.09","KUUJJUAQ A","7113535","2020-03-01 17:00","2020","03","01","17:00","-18.3","","-20.9","","81","","","","35","","8","","24.1","","101.03","","","","-24","","NA"
"-68.42","58.09","KUUJJUAQ A","7113535","2020-03-01 18:00","2020","03","01","18:00","-20.4","","-22.4","","84","","","","34","","13","","24.1","","101.02","","","","-29","","NA"
"-68.42","58.09","KUUJJUAQ A","7113535","2020-03-01 19:00","2020","03","01","19:00","-21.3","","-23.3","","84","","","","34","","12","","24.1","","101.01","","","","-30","","Ice Crystals"
"-68.42","58.09","KUUJJUAQ A","7113535","2020-03-01 20:00","2020","03","01","20:00","-20.9","","-22.8","","86","","","","34","","13","","24.1","","100.97","","","","-30","","Ice Crystals"
"-68.42","58.09","KUUJJUAQ A","7113535","2020-03-01 21:00","2020","03","01","21:00","-21.3","","-23.4","","84","","","","33","","12","","24.1","","100.95","","","","-30","","NA"
"-68.42","58.09","KUUJJUAQ A","7113535","2020-03-01 22:00","2020","03","01","22:00","-22.1","","-24.3","","83","","","","33","","11","","24.1","","100.90","","","","-30","","Clear"
"-68.42","58.09","KUUJJUAQ A","7113535","2020-03-01 23:00","2020","03","01","23:00","-22.8","","-25.3","","81","","","","28","","4","","24.1","","100.87","","","","-27","","NA"
"-68.42","58.09","KUUJJUAQ A","7113535","2020-03-02 00:00","2020","03","02","00:00","-23.1","","-25.3","","83","","","","36","","1","","1.6","","100.80","","","","-24","","Fog"
"-68.42","58.09","KUUJJUAQ A","7113535","2020-03-02 01:00","2020","03","02","01:00","-23.6","","-25.9","","82","","","","36","","2","","1.2","","100.78","","","","-26","","Fog"
"-68.42","58.09","KUUJJUAQ A","7113535","2020-03-02 02:00","2020","03","02","02:00","-23.8","","-26.3","","80","","","","","","0","","9.7","","100.74","","","","","","Ice Crystals"
"-68.42","58.09","KUUJJUAQ A","7113535","2020-03-02 03:00","2020","03","02","03:00","-24.2","","-26.8","","79","","","","36","","1","","24.1","","100.69","","","","-25","","Ice Crystals"
"-68.42","58.09","KUUJJUAQ A","7113535","2020-03-02 04:00","2020","03","02","04:00","-25.1","","-27.8","","78","","","","0","","1","","24.1","","100.64","","","","-26","","Ice Crystals"
"-68.42","58.09","KUUJJUAQ A","7113535","2020-03-02 05:00","2020","03","02","05:00","-24.5","","-27.1","","79","","","","36","","2","","24.1","","100.61","","","","-26","","Ice Crystals"
"-68.42","58.09","KUUJJUAQ A","7113535","2020-03-02 06:00","2020","03","02","06:00","-25.7","","-28.4","","78","","","","34","","5","","24.1","","100.56","","","","-31","","Ice Crystals"
"-68.42","58.09","KUUJJUAQ A","7113535","2020-03-02 07:00","2020","03","02","07:00","-27.0","","-29.9","","77","","","","36","","2","","24.1","","100.51","","","","-29","","Ice Crystals"
"-68.42","58.09","KUUJJUAQ A","7113535","2020-03-02 08:00","2020","03","02","08:00","-24.4","","-27.2","","78","","","","36","","1","","24.1","","100.45","","","","-25","","Ice Crystals"
"-68.42","58.09","KUUJJUAQ A","7113535","2020-03-02 09:00","2020","03","02","09:00","-21.6","","-24.1","","81","","","","36","","1","","24.1","","100.37","","","","-22","","Ice Crystals"
"-68.42","58.09","KUUJJUAQ A","7113535","2020-03-02 10:00","2020","03","02","10:00","-20.3","","-22.7","","81","","","","10","","4","","24.1","","100.27","","","","-24","","Mainly Clear"
"-68.42","58.09","KUUJJUAQ A","7113535","2020-03-02 11:00","2020","03","02","11:00","-16.9","","-19.0","","84","","","","3","","3","","24.1","","100.14","","","","-19","","NA"
"-68.42","58.09","KUUJJUAQ A","7113535","2020-03-02 12:00","2020","03","02","12:00","-14.9","","-16.8","","85","","","","4","","5","","24.1","","100.00","","","","-18","","NA"
"-68.42","58.09","KUUJJUAQ A","7113535","2020-03-02 13:00","2020","03","02","13:00","-10.1","","-12.9","","80","","","","3","","10","","24.1","","99.87","","","","-15","","Mainly Clear"
"-68.42","58.09","KUUJJUAQ A","7113535","2020-03-02 14:00","2020","03","02","14:00","-7.8","","-13.0","","67","","","","5","","14","","24.1","","99.73","","","","-14","","NA"
"-68.42","58.09","KUUJJUAQ A","7113535","2020-03-02 15:00","2020","03","02","15:00","-6.4","","-11.7","","66","","","","9","","13","","24.1","","99.60","","","","-12","","NA"
"-68.42","58.09","KUUJJUAQ A","7113535","2020-03-02 16:00","2020","03","02","16:00","-7.6","","-12.5","","68","","","","6","","16","","24.1","","99.50","","","","-14","","Mostly Cloudy"
"-68.42","58.09","KUUJJUAQ A","7113535","2020-03-02 17:00","2020","03","02","17:00","-8.2","","-12.7","","70","","","","7","","14","","24.1","","99.40","","","","-14","","NA"
"-68.42","58.09","KUUJJUAQ A","7113535","2020-03-02 18:00","2020","03","02","18:00","-8.8","","-13.0","","72","","","","8","","12","","24.1","","99.32","","","","-14","","NA"
"-68.42","58.09","KUUJJUAQ A","7113535","2020-03-02 19:00","2020","03","02","19:00","-8.8","","-13.0","","72","","","","8","","14","","24.1","","99.26","","","","-15","","Mainly Clear"
"-68.42","58.09","KUUJJUAQ A","7113535","2020-03-02 20:00","2020","03","02","20:00","-8.3","","-13.1","","69","","","","12","","7","","24.1","","99.22","","","","-12","","NA"
"-68.42","58.09","KUUJJUAQ A","7113535","2020-03-02 21:00","2020","03","02","21:00","-7.9","","-11.9","","73","","","","11","","8","","16.1","","99.16","","","","-12","","Snow"
"-68.42","58.09","KUUJJUAQ A","7113535","2020-03-02 22:00","2020","03","02","22:00","-7.5","","-9.7","","84","","","","9","","9","","12.9","","99.07","","","","-12","","Snow"
"-68.42","58.09","KUUJJUAQ A","7113535","2020-03-02 23:00","2020","03","02","23:00","-6.9","","-9.2","","84","","","","8","","4","","16.1","","98.99","","","","-9","","Snow"
"-68.42","58.09","KUUJJUAQ A","7113535","2020-03-03 00:00","2020","03","03","00:00","-7.4","","-9.3","","87","","","","0","","1","","19.3","","98.92","","","","-8","","Snow"
"-68.42","58.09","KUUJJUAQ A","7113535","2020-03-03 01:00","2020","03","03","01:00","-7.2","","-9.2","","85","","","","6","","3","","24.1","","98.86","","","","-9","","Mostly Cloudy"
"-68.42","58.09","KUUJJUAQ A","7113535","2020-03-03 02:00","2020","03","03","02:00","-7.4","","-9.6","","84","","","","14","","8","","24.1","","98.81","","","","-11","","NA"
"-68.42","58.09","KUUJJUAQ A","7113535","2020-03-03 03:00","2020","03","03","03:00","-7.7","","-9.8","","85","","","","14","","3","","24.1","","98.77","","","","-9","","NA"
"-68.42","58.09","KUUJJUAQ A","7113535","2020-03-03 04:00","2020","03","03","04:00","-7.8","","-9.9","","85","","","","14","","5","","24.1","","98.75","","","","-10","","Cloudy"
"-68.42","58.09","KUUJJUAQ A","7113535","2020-03-03 05:00","2020","03","03","05:00","-7.6","","-9.8","","85","","","","36","","3","","24.1","","98.77","","","","-9","","NA"
"-68.42","58.09","KUUJJUAQ A","7113535","2020-03-03 06:00","2020","03","03","06:00","-8.7","","-10.3","","88","","","","15","","4","","24.1","","98.76","","","","-11","","Snow"
"-68.42","58.09","KUUJJUAQ A","7113535","2020-03-03 07:00","2020","03","03","07:00","-10.8","","-11.8","","92","","","","36","","2","","24.1","","98.78","","","","-12","","Snow"
"-68.42","58.09","KUUJJUAQ A","7113535","2020-03-03 08:00","2020","03","03","08:00","-9.3","","-10.7","","89","","","","36","","2","","24.1","","98.80","","","","-10","","Snow"
"-68.42","58.09","KUUJJUAQ A","7113535","2020-03-03 09:00","2020","03","03","09:00","-7.7","","-10.3","","82","","","","17","","5","","24.1","","98.83","","","","-10","","Snow"
"-68.42","58.09","KUUJJUAQ A","7113535","2020-03-03 10:00","2020","03","03","10:00","-7.3","","-10.3","","80","","","","17","","5","","24.1","","98.85","","","","-10","","Snow"
"-68.42","58.09","KUUJJUAQ A","7113535","2020-03-03 11:00","2020","03","03","11:00","-6.5","","-9.9","","77","","","","15","","4","","24.1","","98.86","","","","-8","","Snow"
"-68.42","58.09","KUUJJUAQ A","7113535","2020-03-03 12:00","2020","03","03","12:00","-5.7","","-9.5","","75","","","","36","","2","","24.1","","98.89","","","","-7","","Snow"
"-68.42","58.09","KUUJJUAQ A","7113535","2020-03-03 13:00","2020","03","03","13:00","-5.0","","-9.3","","72","","","","21","","3","","24.1","","98.94","","","","-6","","Snow"
"-68.42","58.09","KUUJJUAQ A","7113535","2020-03-03 14:00","2020","03","03","14:00","-4.9","","-9.2","","72","","","","17","","3","","24.1","","98.98","","","","-6","","Snow"
"-68.42","58.09","KUUJJUAQ A","7113535","2020-03-03 15:00","2020","03","03","15:00","-5.0","","-9.3","","72","","","","18","","3","","24.1","","99.06","","","","-6","","Snow"
"-68.42","58.09","KUUJJUAQ A","7113535","2020-03-03 16:00","2020","03","03","16:00","-4.6","","-8.5","","74","","","","24","","7","","24.1","","99.13","","","","-8","","Snow"
"-68.42","58.09","KUUJJUAQ A","7113535","2020-03-03 17:00","2020","03","03","17:00","-6.0","","-8.9","","80","","","","33","","9","","24.1","","99.22","","","","-10","","Snow"
"-68.42","58.09","KUUJJUAQ A","7113535","2020-03-03 18:00","2020","03","03","18:00","-6.8","","-9.4","","82","","","","25","","12","","9.7","","99.32","","","","-12","","Snow"
"-68.42","58.09","KUUJJUAQ A","7113535","2020-03-03 19:00","2020","03","03","19:00","-7.4","","-9.8","","83","","","","26","","7","","9.7","","99.41","","","","-11","","Snow"
"-68.42","58.09","KUUJJUAQ A","7113535","2020-03-03 20:00","2020","03","03","20:00","-8.6","","-11.3","","81","","","","26","","13","","6.4","","99.48","","","","-15","","Snow"
"-68.42","58.09","KUUJJUAQ A","7113535","2020-03-03 21:00","2020","03","03","21:00","-9.9","","-13.0","","78","","","","25","","12","","12.9","","99.52","","","","-16","","Snow"
"-68.42","58.09","KUUJJUAQ A","7113535","2020-03-03 22:00","2020","03","03","22:00","-10.8","","-14.1","","77","","","","25","","10","","24.1","","99.54","","","","-16","","Snow"
"-68.42","58.09","KUUJJUAQ A","7113535","2020-03-03 23:00","2020","03","03","23:00","-11.2","","-14.8","","76","","","","23","","14","","24.1","","99.57","","","","-18","","Snow"
"-68.42","58.09","KUUJJUAQ A","7113535","2020-03-04 00:00","2020","03","04","00:00","-11.9","","-15.6","","75","","","","24","","18","","24.1","","99.61","","","","-20","","Snow"
"-68.42","58.09","KUUJJUAQ A","7113535","2020-03-04 01:00","2020","03","04","01:00","-13.5","","-16.9","","76","","","","22","","13","","24.1","","99.66","","","","-20","","Snow"
"-68.42","58.09","KUUJJUAQ A","7113535","2020-03-04 02:00","2020","03","04","02:00","-15.2","","-18.0","","79","","","","19","","14","","24.1","","99.69","","","","-23","","NA"
"-68.42","58.09","KUUJJUAQ A","7113535","2020-03-04 03:00","2020","03","04","03:00","-16.2","","-18.8","","81","","","","21","","14","","24.1","","99.77","","","","-24","","NA"
"-68.42","58.09","KUUJJUAQ A","7113535","2020-03-04 04:00","2020","03","04","04:00","-16.8","","-19.2","","82","","","","21","","9","","24.1","","99.81","","","","-23","","Mostly Cloudy"
"-68.42","58.09","KUUJJUAQ A","7113535","2020-03-04 05:00","2020","03","04","05:00","-17.5","","-19.8","","83","","","","19","","9","","24.1","","99.84","","","","-24","","NA"
"-68.42","58.09","KUUJJUAQ A","7113535","2020-03-04 06:00","2020","03","04","06:00","-17.7","","-19.8","","84","","","","20","","8","","24.1","","99.87","","","","-24","","NA"
"-68.42","58.09","KUUJJUAQ A","7113535","2020-03-04 07:00","2020","03","04","07:00","-16.8","","-19.0","","83","","","","21","","17","","24.1","","99.89","","","","-26","","Mostly Cloudy"
"-68.42","58.09","KUUJJUAQ A","7113535","2020-03-04 08:00","2020","03","04","08:00","-15.8","","-18.8","","78","","","","22","","16","","24.1","","99.91","","","","-24","","NA"
"-68.42","58.09","KUUJJUAQ A","7113535","2020-03-04 09:00","2020","03","04","09:00","-14.6","","-19.4","","67","","","","24","","11","","24.1","","99.96","","","","-21","","NA"
"-68.42","58.09","KUUJJUAQ A","7113535","2020-03-04 10:00","2020","03","04","10:00","-13.4","","-19.3","","62","","","","24","","20","","24.1","","99.96","","","","-22","","Mainly Clear"
"-68.42","58.09","KUUJJUAQ A","7113535","2020-03-04 11:00","2020","03","04","11:00","-12.6","","-19.1","","59","","","","23","","16","","24.1","","99.95","","","","-20","","NA"
"-68.42","58.09","KUUJJUAQ A","7113535","2020-03-04 12:00","2020","03","04","12:00","-11.6","","-18.3","","58","","","","23","","13","","24.1","","99.95","","","","-18","","NA"
"-68.42","58.09","KUUJJUAQ A","7113535","2020-03-04 13:00","2020","03","04","13:00","-11.0","","-18.2","","56","","","","24","","12","","24.1","","99.94","","","","-17","","Mainly Clear"
"-68.42","58.09","KUUJJUAQ A","7113535","2020-03-04 14:00","2020","03","04","14:00","-11.3","","-18.6","","55","","","","30","","13","","24.1","","99.97","","","","-18","","NA"
"-68.42","58.09","KUUJJUAQ A","7113535","2020-03-04 15:00","2020","03","04","15:00","-11.7","","-18.8","","56","","","","27","","12","","24.1","","100.01","","","","-18","","NA"
"-68.42","58.09","KUUJJUAQ A","7113535","2020-03-04 16:00","2020","03","04","16:00","-12.5","","-18.8","","59","","","","30","","8","","24.1","","100.04","","","","-17","","Mainly Clear"
"-68.42","58.09","KUUJJUAQ A","7113535","2020-03-04 17:00","2020","03","04","17:00","-14.0","","-19.3","","65","","","","27","","8","","24.1","","100.11","","","","-19","","NA"
"-68.42","58.09","KUUJJUAQ A","7113535","2020-03-04 18:00","2020","03","04","18:00","-15.9","","-19.7","","73","","","","28","","6","","24.1","","100.15","","","","-20","","Ice Crystals"
"-68.42","58.09","KUUJJUAQ A","7113535","2020-03-04 19:00","2020","03","04","19:00","-17.0","","-20.3","","76","","","","28","","9","","24.1","","100.16","","","","-23","","Ice Crystals"
"-68.42","58.09","KUUJJUAQ A","7113535","2020-03-04 20:00","2020","03","04","20:00","-17.0","","-20.0","","78","","","","19","","3","","24.1","","100.15","","","","-19","","Ice Crystals"
"-68.42","58.09","KUUJJUAQ A","7113535","2020-03-04 21:00","2020","03","04","21:00","-18.0","","-20.7","","80","","","","25","","5","","24.1","","100.17","","","","-22","","Ice Crystals"
"-68.42","58.09","KUUJJUAQ A","7113535","2020-03-04 22:00","2020","03","04","22:00","-19.0","","-21.4","","82","","","","22","","9","","24.1","","100.15","","","","-26","","Ice Crystals"
"-68.42","58.09","KUUJJUAQ A","7113535","2020-03-04 23:00","2020","03","04","23:00","-19.5","","-21.8","","82","","","","20","","7","","24.1","","100.15","","","","-25","","Ice Crystals"
"-68.42","58.09","KUUJJUAQ A","7113535","2020-03-05 00:00","2020","03","05","00:00","-19.7","","-21.9","","82","","","","23","","6","","24.1","","100.16","","","","-25","","Ice Crystals"
"-68.42","58.09","KUUJJUAQ A","7113535","2020-03-05 01:00","2020","03","05","01:00","-19.8","","-22.1","","82","","","","36","","3","","24.1","","100.20","","","","-22","","Ice Crystals"
"-68.42","58.09","KUUJJUAQ A","7113535","2020-03-05 02:00","2020","03","05","02:00","-19.6","","-21.9","","82","","","","14","","4","","24.1","","100.19","","","","-23","","Ice Crystals"
"-68.42","58.09","KUUJJUAQ A","7113535","2020-03-05 03:00","2020","03","05","03:00","-20.2","","-22.2","","84","","","","8","","4","","24.1","","100.22","","","","-24","","Ice Crystals"
"-68.42","58.09","KUUJJUAQ A","7113535","2020-03-05 04:00","2020","03","05","04:00","-19.8","","-22.0","","83","","","","36","","2","","24.1","","100.27","","","","-22","","Ice Crystals"
"-68.42","58.09","KUUJJUAQ A","7113535","2020-03-05 05:00","2020","03","05","05:00","-18.1","","-20.7","","80","","","","29","","8","","4.8","","100.31","","","","-24","","Snow"
"-68.42","58.09","KUUJJUAQ A","7113535","2020-03-05 06:00","2020","03","05","06:00","-18.3","","-20.7","","81","","","","27","","5","","4.8","","100.37","","","","-22","","Snow"
"-68.42","58.09","KUUJJUAQ A","7113535","2020-03-05 07:00","2020","03","05","07:00","-18.2","","-20.7","","81","","","","25","","10","","3.6","","100.41","","","","-25","","Snow"
"-68.42","58.09","KUUJJUAQ A","7113535","2020-03-05 08:00","2020","03","05","08:00","-16.1","","-18.5","","82","","","","29","","9","","3.2","","100.45","","","","-22","","Snow"
"-68.42","58.09","KUUJJUAQ A","7113535","2020-03-05 09:00","2020","03","05","09:00","-13.7","","-17.1","","76","","","","31","","18","","3.6","","100.48","","","","-22","","Snow"
"-68.42","58.09","KUUJJUAQ A","7113535","2020-03-05 10:00","2020","03","05","10:00","-13.4","","-17.1","","74","","","","31","","13","","6.4","","100.52","","","","-20","","Snow"
"-68.42","58.09","KUUJJUAQ A","7113535","2020-03-05 11:00","2020","03","05","11:00","-12.9","","-17.0","","72","","","","31","","32","","6.4","","100.51","","","","-24","","Snow,Blowing Snow"
"-68.42","58.09","KUUJJUAQ A","7113535","2020-03-05 12:00","2020","03","05","12:00","-12.2","","-16.5","","71","","","","31","","16","","16.1","","100.60","","","","-20","","Snow,Blowing Snow"
"-68.42","58.09","KUUJJUAQ A","7113535","2020-03-05 13:00","2020","03","05","13:00","-12.6","","-17.0","","70","","","","32","","23","","19.3","","100.61","","","","-22","","Snow,Blowing Snow"
"-68.42","58.09","KUUJJUAQ A","7113535","2020-03-05 14:00","2020","03","05","14:00","-12.0","","-16.4","","70","","","","30","","20","","4.8","","100.63","","","","-20","","Snow,Blowing Snow"
"-68.42","58.09","KUUJJUAQ A","7113535","2020-03-05 15:00","2020","03","05","15:00","-12.8","","-16.8","","72","","","","30","","18","","6.4","","100.67","","","","-21","","Snow,Blowing Snow"
"-68.42","58.09","KUUJJUAQ A","7113535","2020-03-05 16:00","2020","03","05","16:00","-13.8","","-17.4","","75","","","","31","","21","","4.8","","100.76","","","","-23","","Snow,Blowing Snow"
"-68.42","58.09","KUUJJUAQ A","7113535","2020-03-05 17:00","2020","03","05","17:00","-14.9","","-18.4","","76","","","","30","","20","","3.6","","100.86","","","","-24","","Snow,Blowing Snow"
"-68.42","58.09","KUUJJUAQ A","7113535","2020-03-05 18:00","2020","03","05","18:00","-15.9","","-19.2","","76","","","","29","","11","","6.4","","100.93","","","","-23","","Snow"
"-68.42","58.09","KUUJJUAQ A","7113535","2020-03-05 19:00","2020","03","05","19:00","-16.9","","-20.3","","76","","","","29","","14","","6.4","","100.97","","","","-25","","Snow"
"-68.42","58.09","KUUJJUAQ A","7113535","2020-03-05 20:00","2020","03","05","20:00","-17.6","","-20.8","","76","","","","26","","6","","16.1","","101.01","","","","-22","","Snow"
"-68.42","58.09","KUUJJUAQ A","7113535","2020-03-05 21:00","2020","03","05","21:00","-18.7","","-21.4","","79","","","","25","","4","","24.1","","101.05","","","","-22","","Snow"
"-68.42","58.09","KUUJJUAQ A","7113535","2020-03-05 22:00","2020","03","05","22:00","-18.8","","-21.9","","77","","","","27","","9","","24.1","","101.05","","","","-25","","Snow"
"-68.42","58.09","KUUJJUAQ A","7113535","2020-03-05 23:00","2020","03","05","23:00","-20.1","","-23.3","","76","","","","29","","16","","24.1","","101.05","","","","-30","","NA"
"-68.42","58.09","KUUJJUAQ A","7113535","2020-03-06 00:00","2020","03","06","00:00","-21.3","","-24.2","","78","","","","28","","5","","24.1","","101.12","","","","-26","","NA"
"-68.42","58.09","KUUJJUAQ A","7113535","2020-03-06 01:00","2020","03","06","01:00","-22.3","","-25.3","","77","","","","20","","7","","24.1","","101.17","","","","-28","","Mainly Clear"
"-68.42","58.09","KUUJJUAQ A","7113535","2020-03-06 02:00","2020","03","06","02:00","-22.6","","-25.8","","76","","","","28","","12","","24.1","","101.22","","","","-31","","NA"
"-68.42","58.09","KUUJJUAQ A","7113535","2020-03-06 03:00","2020","03","06","03:00","-23.0","","-26.4","","75","","","","26","","7","","24.1","","101.33","","","","-29","","NA"
"-68.42","58.09","KUUJJUAQ A","7113535","2020-03-06 04:00","2020","03","06","04:00","-24.5","","-27.7","","75","","","","20","","8","","24.1","","101.41","","","","-32","","Mainly Clear"
"-68.42","58.09","KUUJJUAQ A","7113535","2020-03-06 05:00","2020","03","06","05:00","-25.8","","-28.9","","76","","","","24","","10","","24.1","","101.48","","","","-34","","NA"
"-68.42","58.09","KUUJJUAQ A","7113535","2020-03-06 06:00","2020","03","06","06:00","-26.0","","-29.3","","74","","","","24","","12","","24.1","","101.53","","","","-35","","NA"
"-68.42","58.09","KUUJJUAQ A","7113535","2020-03-06 07:00","2020","03","06","07:00","-26.0","","-29.5","","73","","","","21","","11","","24.1","","101.59","","","","-35","","Clear"
"-68.42","58.09","KUUJJUAQ A","7113535","2020-03-06 08:00","2020","03","06","08:00","-24.1","","-28.4","","68","","","","22","","9","","24.1","","101.67","","","","-32","","NA"
"-68.42","58.09","KUUJJUAQ A","7113535","2020-03-06 09:00","2020","03","06","09:00","-22.9","","-28.1","","63","","","","18","","10","","24.1","","101.72","","","","-31","","NA"
"-68.42","58.09","KUUJJUAQ A","7113535","2020-03-06 10:00","2020","03","06","10:00","-20.5","","-26.9","","57","","","","27","","9","","24.1","","101.75","","","","-27","","Clear"
"-68.42","58.09","KUUJJUAQ A","7113535","2020-03-06 11:00","2020","03","06","11:00","-19.7","","-26.6","","55","","","","27","","13","","24.1","","101.78","","","","-28","","NA"
"-68.42","58.09","KUUJJUAQ A","7113535","2020-03-06 12:00","2020","03","06","12:00","-18.6","","-25.9","","53","","","","25","","19","","24.1","","101.80","","","","-28","","NA"
"-68.42","58.09","KUUJJUAQ A","7113535","2020-03-06 13:00","2020","03","06","13:00","-17.9","","-25.1","","54","","","","29","","13","","24.1","","101.86","","","","-26","","Clear"
"-68.42","58.09","KUUJJUAQ A","7113535","2020-03-06 14:00","2020","03","06","14:00","-17.4","","-25.2","","52","","","","27","","21","","24.1","","101.90","","","","-27","","NA"
"-68.42","58.09","KUUJJUAQ A","7113535","2020-03-06 15:00","2020","03","06","15:00","-17.2","","-24.4","","54","","","","28","","13","","24.1","","101.93","","","","-25","","NA"
"-68.42","58.09","KUUJJUAQ A","7113535","2020-03-06 16:00","2020","03","06","16:00","-18.1","","-24.6","","58","","","","26","","17","","24.1","","102.00","","","","-27","","Mainly Clear"
"-68.42","58.09","KUUJJUAQ A","7113535","2020-03-06 17:00","2020","03","06","17:00","-19.8","","-25.0","","64","","","","25","","12","","24.1","","102.07","","","","-28","","NA"
"-68.42","58.09","KUUJJUAQ A","7113535","2020-03-06 18:00","2020","03","06","18:00","-19.6","","-24.6","","65","","","","27","","17","","24.1","","102.07","","","","-29","","NA"
"-68.42","58.09","KUUJJUAQ A","7113535","2020-03-06 19:00","2020","03","06","19:00","-19.9","","-24.7","","67","","","","23","","16","","24.1","","102.10","","","","-29","","Mostly Cloudy"
"-68.42","58.09","KUUJJUAQ A","7113535","2020-03-06 20:00","2020","03","06","20:00","-20.4","","-24.7","","69","","","","23","","21","","24.1","","102.07","","","","-31","","NA"
"-68.42","58.09","KUUJJUAQ A","7113535","2020-03-06 21:00","2020","03","06","21:00","-21.2","","-25.3","","70","","","","24","","13","","24.1","","102.06","","","","-30","","NA"
"-68.42","58.09","KUUJJUAQ A","7113535","2020-03-06 22:00","2020","03","06","22:00","-20.5","","-24.8","","69","","","","24","","14","","24.1","","102.05","","","","-29","","Mostly Cloudy"
"-68.42","58.09","KUUJJUAQ A","7113535","2020-03-06 23:00","2020","03","06","23:00","-19.4","","-23.9","","68","","","","24","","16","","24.1","","101.98","","","","-29","","Snow"
"-68.42","58.09","KUUJJUAQ A","7113535","2020-03-07 00:00","2020","03","07","00:00","-19.1","","-23.4","","69","","","","22","","14","","24.1","","101.93","","","","-28","","Snow"
"-68.42","58.09","KUUJJUAQ A","7113535","2020-03-07 01:00","2020","03","07","01:00","-18.3","","-22.8","","68","","","","21","","11","","24.1","","101.94","","","","-26","","Snow"
"-68.42","58.09","KUUJJUAQ A","7113535","2020-03-07 02:00","2020","03","07","02:00","-18.0","","-22.2","","70","","","","22","","10","","24.1","","101.89","","","","-25","","Snow"
"-68.42","58.09","KUUJJUAQ A","7113535","2020-03-07 03:00","2020","03","07","03:00","-17.3","","-21.7","","69","","","","23","","14","","24.1","","101.88","","","","-25","","Snow"
"-68.42","58.09","KUUJJUAQ A","7113535","2020-03-07 04:00","2020","03","07","04:00","-17.0","","-21.1","","71","","","","17","","9","","24.1","","101.87","","","","-23","","Snow"
"-68.42","58.09","KUUJJUAQ A","7113535","2020-03-07 05:00","2020","03","07","05:00","-16.3","","-20.6","","70","","","","18","","7","","24.1","","101.80","","","","-21","","Snow"
"-68.42","58.09","KUUJJUAQ A","7113535","2020-03-07 06:00","2020","03","07","06:00","-15.7","","-20.3","","68","","","","20","","7","","24.1","","101.73","","","","-21","","Snow"
"-68.42","58.09","KUUJJUAQ A","7113535","2020-03-07 07:00","2020","03","07","07:00","-15.0","","-19.8","","67","","","","21","","19","","24.1","","101.66","","","","-24","","Snow"
"-68.42","58.09","KUUJJUAQ A","7113535","2020-03-07 08:00","2020","03","07","08:00","-14.2","","-19.3","","66","","","","21","","29","","24.1","","101.56","","","","-25","","Snow"
"-68.42","58.09","KUUJJUAQ A","7113535","2020-03-07 09:00","2020","03","07","09:00","-13.0","","-18.5","","63","","","","21","","27","","24.1","","101.49","","","","-23","","Snow,Blowing Snow"
"-68.42","58.09","KUUJJUAQ A","7113535","2020-03-07 10:00","2020","03","07","10:00","-11.7","","-18.1","","60","","","","21","","22","","24.1","","101.40","","","","-20","","Snow,Blowing Snow"
"-68.42","58.09","KUUJJUAQ A","7113535","2020-03-07 11:00","2020","03","07","11:00","-10.6","","-18.2","","54","","","","22","","22","","24.1","","101.27","","","","-19","","Snow,Blowing Snow"
"-68.42","58.09","KUUJJUAQ A","7113535","2020-03-07 12:00","2020","03","07","12:00","-10.0","","-18.7","","50","","","","24","","18","","24.1","","101.09","","","","-17","","Snow,Blowing Snow"
"-68.42","58.09","KUUJJUAQ A","7113535","2020-03-07 13:00","2020","03","07","13:00","-8.6","","-17.2","","50","","","","19","","30","","24.1","","100.87","","","","-18","","Snow"
"-68.42","58.09","KUUJJUAQ A","7113535","2020-03-07 14:00","2020","03","07","14:00","-9.4","","-18.8","","47","","","","19","","30","","24.1","","100.71","","","","-19","","Snow,Blowing Snow"
"-68.42","58.09","KUUJJUAQ A","7113535","2020-03-07 15:00","2020","03","07","15:00","-8.8","","-18.3","","47","","","","19","","34","","24.1","","100.51","","","","-18","","Snow,Blowing Snow"
"-68.42","58.09","KUUJJUAQ A","7113535","2020-03-07 16:00","2020","03","07","16:00","-9.9","","-18.1","","52","","","","18","","25","","24.1","","100.32","","","","-19","","Mostly Cloudy"
"-68.42","58.09","KUUJJUAQ A","7113535","2020-03-07 17:00","2020","03","07","17:00","-9.2","","-17.6","","51","","","","20","","22","","24.1","","100.18","","","","-17","","NA"
"-68.42","58.09","KUUJJUAQ A","7113535","2020-03-07 18:00","2020","03","07","18:00","-9.1","","-17.1","","52","","","","19","","32","","24.1","","100.01","","","","-19","","NA"
"-68.42","58.09","KUUJJUAQ A","7113535","2020-03-07 19:00","2020","03","07","19:00","-8.5","","-15.5","","57","","","","22","","29","","19.3","","99.98","","","","-17","","Snow"
"-68.42","58.09","KUUJJUAQ A","7113535","2020-03-07 20:00","2020","03","07","20:00","-9.0","","-12.4","","76","","","","21","","18","","19.3","","99.91","","","","-16","","Snow,Blowing Snow"
"-68.42","58.09","KUUJJUAQ A","7113535","2020-03-07 21:00","2020","03","07","21:00","-9.2","","-11.6","","83","","","","20","","16","","16.1","","99.78","","","","-16","","Snow,Blowing Snow"
"-68.42","58.09","KUUJJUAQ A","7113535","2020-03-07 22:00","2020","03","07","22:00","-8.9","","-12.4","","76","","","","22","","21","","24.1","","99.65","","","","-17","","Snow,Blowing Snow"
"-68.42","58.09","KUUJJUAQ A","7113535","2020-03-07 23:00","2020","03","07","23:00","-9.4","","-12.8","","77","","","","21","","16","","24.1","","99.57","","","","-16","","Snow"
"-68.42","58.09","KUUJJUAQ A","7113535","2020-03-08 00:00","2020","03","08","00:00","-9.2","","-12.1","","80","","","","23","","16","","8.1","","99.52","","","","-16","","Snow,Blowing Snow"
"-68.42","58.09","KUUJJUAQ A","7113535","2020-03-08 01:00","2020","03","08","01:00","-15.9","","-19.5","","74","","","","30","","34","","3.6","","99.72","","","","-28","","Snow,Blowing Snow"
"-68.42","58.09","KUUJJUAQ A","7113535","2020-03-08 02:00","2020","03","08","02:00","-20.2","","-23.9","","73","","","","29","","22","","3.2","","100.02","","","","-31","","Snow,Blowing Snow"
"-68.42","58.09","KUUJJUAQ A","7113535","2020-03-08 03:00","2020","03","08","03:00","-24.1","","-27.6","","74","","","","26","","26","","4.0","","100.22","","","","-37","","Snow,Blowing Snow"
"-68.42","58.09","KUUJJUAQ A","7113535","2020-03-08 04:00","2020","03","08","04:00","-26.1","","-29.8","","72","","","","27","","34","","3.2","","100.36","","","","-41","","Snow,Blowing Snow"
"-68.42","58.09","KUUJJUAQ A","7113535","2020-03-08 05:00","2020","03","08","05:00","-27.7","","-31.5","","71","","","","26","","27","","3.2","","100.59","","","","-42","","Snow,Blowing Snow"
"-68.42","58.09","KUUJJUAQ A","7113535","2020-03-08 06:00","2020","03","08","06:00","-28.8","","-32.8","","69","","","","27","","40","","2.0","","100.68","","","","-46","","Snow,Blowing Snow"
"-68.42","58.09","KUUJJUAQ A","7113535","2020-03-08 07:00","2020","03","08","07:00","-29.0","","-33.1","","69","","","","28","","36","","2.0","","100.79","","","","-45","","Snow,Blowing Snow"
"-68.42","58.09","KUUJJUAQ A","7113535","2020-03-08 08:00","2020","03","08","08:00","-29.3","","-33.5","","67","","","","26","","33","","2.4","","101.01","","","","-45","","Snow,Blowing Snow"
"-68.42","58.09","KUUJJUAQ A","7113535","2020-03-08 09:00","2020","03","08","09:00","-29.0","","-33.4","","67","","","","26","","26","","2.4","","101.07","","","","-43","","Snow,Blowing Snow"
"-68.42","58.09","KUUJJUAQ A","7113535","2020-03-08 10:00","2020","03","08","10:00","-28.3","","-33.0","","65","","","","27","","24","","2.8","","101.11","","","","-42","","Snow,Blowing Snow"
"-68.42","58.09","KUUJJUAQ A","7113535","2020-03-08 11:00","2020","03","08","11:00","-27.7","","-32.4","","65","","","","27","","27","","2.4","","101.16","","","","-42","","Snow,Blowing Snow"
"-68.42","58.09","KUUJJUAQ A","7113535","2020-03-08 12:00","2020","03","08","12:00","-27.6","","-32.5","","64","","","","26","","30","","2.4","","101.14","","","","-42","","Snow,Blowing Snow"
"-68.42","58.09","KUUJJUAQ A","7113535","2020-03-08 13:00","2020","03","08","13:00","-27.3","","-32.3","","63","","","","27","","39","","2.4","","101.18","","","","-44","","Snow,Blowing Snow"
"-68.42","58.09","KUUJJUAQ A","7113535","2020-03-08 14:00","2020","03","08","14:00","-27.3","","-31.7","","67","","","","27","","39","","2.4","","101.21","","","","-44","","Snow,Blowing Snow"
"-68.42","58.09","KUUJJUAQ A","7113535","2020-03-08 15:00","2020","03","08","15:00","-27.7","","-32.3","","66","","","","27","","34","","2.4","","101.34","","","","-43","","Snow,Blowing Snow"
"-68.42","58.09","KUUJJUAQ A","7113535","2020-03-08 16:00","2020","03","08","16:00","-28.3","","-32.8","","66","","","","27","","48","","2.4","","101.35","","","","-46","","Snow,Blowing Snow"
"-68.42","58.09","KUUJJUAQ A","7113535","2020-03-08 17:00","2020","03","08","17:00","-28.6","","-32.8","","68","","","","27","","36","","2.4","","101.33","","","","-45","","Snow,Blowing Snow"
"-68.42","58.09","KUUJJUAQ A","7113535","2020-03-08 18:00","2020","03","08","18:00","-28.7","","-32.9","","68","","","","26","","39","","2.8","","101.39","","","","-46","","Snow,Blowing Snow"
"-68.42","58.09","KUUJJUAQ A","7113535","2020-03-08 19:00","2020","03","08","19:00","-29.0","","-32.9","","69","","","","27","","30","","3.2","","101.39","","","","-44","","Snow,Blowing Snow"
"-68.42","58.09","KUUJJUAQ A","7113535","2020-03-08 20:00","2020","03","08","20:00","-29.1","","-33.3","","68","","","","27","","29","","4.0","","101.42","","","","-44","","Snow,Blowing Snow"
"-68.42","58.09","KUUJJUAQ A","7113535","2020-03-08 21:00","2020","03","08","21:00","-29.3","","-33.5","","68","","","","28","","30","","4.0","","101.42","","","","-45","","Snow,Blowing Snow"
"-68.42","58.09","KUUJJUAQ A","7113535","2020-03-08 22:00","2020","03","08","22:00","-29.8","","-34.1","","67","","","","28","","30","","4.0","","101.41","","","","-45","","Snow,Blowing Snow"
"-68.42","58.09","KUUJJUAQ A","7113535","2020-03-08 23:00","2020","03","08","23:00","-29.9","","-34.2","","67","","","","28","","21","","4.0","","101.44","","","","-43","","Snow,Blowing Snow"
"-68.42","58.09","KUUJJUAQ A","7113535","2020-03-09 00:00","2020","03","09","00:00","-30.2","","-34.5","","67","","","","26","","27","","4.0","","101.46","","","","-45","","Snow,Blowing Snow"
"-68.42","58.09","KUUJJUAQ A","7113535","2020-03-09 01:00","2020","03","09","01:00","-30.6","","-35.0","","66","","","","25","","16","","9.7","","101.45","","","","-43","","Snow,Blowing Snow"
"-68.42","58.09","KUUJJUAQ A","7113535","2020-03-09 02:00","2020","03","09","02:00","-30.8","","-35.4","","64","","","","25","","24","","12.9","","101.44","","","","-45","","Snow,Blowing Snow"
"-68.42","58.09","KUUJJUAQ A","7113535","2020-03-09 03:00","2020","03","09","03:00","-30.9","","-35.6","","64","","","","27","","27","","24.1","","101.47","","","","-46","","Snow,Ice Crystals,Blowing Snow"
"-68.42","58.09","KUUJJUAQ A","7113535","2020-03-09 04:00","2020","03","09","04:00","-30.9","","-35.6","","64","","","","28","","22","","24.1","","101.51","","","","-45","","Ice Crystals"
"-68.42","58.09","KUUJJUAQ A","7113535","2020-03-09 05:00","2020","03","09","05:00","-31.1","","-35.6","","65","","","","27","","21","","24.1","","101.57","","","","-45","","Ice Crystals"
"-68.42","58.09","KUUJJUAQ A","7113535","2020-03-09 06:00","2020","03","09","06:00","-30.9","","-35.6","","65","","","","28","","32","","16.1","","101.57","","","","-47","","Ice Crystals,Blowing Snow"
"-68.42","58.09","KUUJJUAQ A","7113535","2020-03-09 07:00","2020","03","09","07:00","-30.5","","-35.1","","65","","","","26","","22","","16.1","","101.69","","","","-44","","Ice Crystals,Blowing Snow"
"-68.42","58.09","KUUJJUAQ A","7113535","2020-03-09 08:00","2020","03","09","08:00","-29.1","","-34.6","","60","","","","28","","21","","19.3","","101.69","","","","-42","","Ice Crystals,Blowing Snow"
"-68.42","58.09","KUUJJUAQ A","7113535","2020-03-09 09:00","2020","03","09","09:00","-28.3","","-34.2","","58","","","","29","","24","","16.1","","101.71","","","","-42","","Ice Crystals,Blowing Snow"
"-68.42","58.09","KUUJJUAQ A","7113535","2020-03-09 10:00","2020","03","09","10:00","-27.6","","-33.9","","56","","","","28","","28","","19.3","","101.79","","","","-42","","Ice Crystals,Blowing Snow"
"-68.42","58.09","KUUJJUAQ A","7113535","2020-03-09 11:00","2020","03","09","11:00","-26.7","","-33.3","","55","","","","28","","20","","19.3","","101.88","","","","-39","","Ice Crystals,Blowing Snow"
"-68.42","58.09","KUUJJUAQ A","7113535","2020-03-09 12:00","2020","03","09","12:00","-26.4","","-32.8","","56","","","","29","","36","","16.1","","101.88","","","","-42","","Ice Crystals,Blowing Snow"
"-68.42","58.09","KUUJJUAQ A","7113535","2020-03-09 13:00","2020","03","09","13:00","-25.6","","-32.3","","55","","","","27","","37","","16.1","","101.91","","","","-41","","Ice Crystals,Blowing Snow"
"-68.42","58.09","KUUJJUAQ A","7113535","2020-03-09 14:00","2020","03","09","14:00","-25.4","","-31.7","","56","","","","28","","33","","19.3","","101.97","","","","-40","","Ice Crystals,Blowing Snow"
"-68.42","58.09","KUUJJUAQ A","7113535","2020-03-09 15:00","2020","03","09","15:00","-25.1","","-31.4","","56","","","","28","","25","","19.3","","102.04","","","","-38","","Ice Crystals,Blowing Snow"
"-68.42","58.09","KUUJJUAQ A","7113535","2020-03-09 16:00","2020","03","09","16:00","-25.2","","-31.3","","58","","","","28","","19","","19.3","","102.17","","","","-37","","Ice Crystals,Blowing Snow"
"-68.42","58.09","KUUJJUAQ A","7113535","2020-03-09 17:00","2020","03","09","17:00","-26.1","","-31.4","","61","","","","28","","15","","24.1","","102.23","","","","-37","","Ice Crystals,Blowing Snow"
"-68.42","58.09","KUUJJUAQ A","7113535","2020-03-09 18:00","2020","03","09","18:00","-27.0","","-32.0","","63","","","","29","","22","","24.1","","102.21","","","","-40","","Ice Crystals,Blowing Snow"
"-68.42","58.09","KUUJJUAQ A","7113535","2020-03-09 19:00","2020","03","09","19:00","-27.5","","-32.4","","64","","","","28","","15","","24.1","","102.28","","","","-38","","Mainly Clear"
"-68.42","58.09","KUUJJUAQ A","7113535","2020-03-09 20:00","2020","03","09","20:00","-27.9","","-32.5","","65","","","","20","","5","","24.1","","102.33","","","","-33","","NA"
"-68.42","58.09","KUUJJUAQ A","7113535","2020-03-09 21:00","2020","03","09","21:00","-27.9","","-32.6","","65","","","","13","","7","","24.1","","102.38","","","","-35","","NA"
"-68.42","58.09","KUUJJUAQ A","7113535","2020-03-09 22:00","2020","03","09","22:00","-29.3","","-33.4","","68","","","","19","","14","","24.1","","102.37","","","","-40","","Clear"
"-68.42","58.09","KUUJJUAQ A","7113535","2020-03-09 23:00","2020","03","09","23:00","-29.3","","-33.3","","69","","","","27","","9","","24.1","","102.38","","","","-38","","NA"
"-68.42","58.09","KUUJJUAQ A","7113535","2020-03-10 00:00","2020","03","10","00:00","-29.8","","-34.0","","68","","","","21","","13","","24.1","","102.43","","","","-40","","NA"
"-68.42","58.09","KUUJJUAQ A","7113535","2020-03-10 01:00","2020","03","10","01:00","-30.3","","-34.2","","70","","","","21","","10","","24.1","","102.44","","","","-40","","Clear"
"-68.42","58.09","KUUJJUAQ A","7113535","2020-03-10 02:00","2020","03","10","02:00","-29.7","","-34.0","","67","","","","21","","4","","24.1","","102.43","","","","-34","","NA"
"-68.42","58.09","KUUJJUAQ A","7113535","2020-03-10 03:00","2020","03","10","03:00","-30.7","","-34.7","","69","","","","25","","10","","24.1","","102.41","","","","-40","","NA"
"-68.42","58.09","KUUJJUAQ A","7113535","2020-03-10 04:00","2020","03","10","04:00","-31.6","","-35.0","","72","","","","20","","11","","24.1","","102.44","","","","-42","","Clear"
"-68.42","58.09","KUUJJUAQ A","7113535","2020-03-10 05:00","2020","03","10","05:00","-32.0","","-35.4","","72","","","","21","","8","","24.1","","102.45","","","","-40","","NA"
"-68.42","58.09","KUUJJUAQ A","7113535","2020-03-10 06:00","2020","03","10","06:00","-31.9","","-35.6","","71","","","","22","","13","","24.1","","102.48","","","","-43","","NA"
"-68.42","58.09","KUUJJUAQ A","7113535","2020-03-10 07:00","2020","03","10","07:00","-31.1","","-35.2","","68","","","","23","","10","","24.1","","102.48","","","","-40","","Clear"
"-68.42","58.09","KUUJJUAQ A","7113535","2020-03-10 08:00","2020","03","10","08:00","-29.6","","-34.8","","62","","","","24","","7","","24.1","","102.42","","","","-37","","NA"
"-68.42","58.09","KUUJJUAQ A","7113535","2020-03-10 09:00","2020","03","10","09:00","-27.8","","-33.9","","57","","","","23","","12","","24.1","","102.40","","","","-37","","NA"
"-68.42","58.09","KUUJJUAQ A","7113535","2020-03-10 10:00","2020","03","10","10:00","-25.2","","-32.4","","52","","","","23","","9","","24.1","","102.36","","","","-33","","Clear"
"-68.42","58.09","KUUJJUAQ A","7113535","2020-03-10 11:00","2020","03","10","11:00","-23.6","","-31.3","","50","","","","24","","11","","24.1","","102.30","","","","-32","","NA"
"-68.42","58.09","KUUJJUAQ A","7113535","2020-03-10 12:00","2020","03","10","12:00","-21.5","","-30.1","","47","","","","25","","8","","24.1","","102.22","","","","-28","","NA"
"-68.42","58.09","KUUJJUAQ A","7113535","2020-03-10 13:00","2020","03","10","13:00","-20.9","","-29.2","","48","","","","31","","7","","24.1","","102.18","","","","-27","","Clear"
"-68.42","58.09","KUUJJUAQ A","7113535","2020-03-10 14:00","2020","03","10","14:00","-20.4","","-28.9","","47","","","","30","","6","","24.1","","102.15","","","","-25","","NA"
"-68.42","58.09","KUUJJUAQ A","7113535","2020-03-10 15:00","2020","03","10","15:00","-20.6","","-28.7","","49","","","","35","","8","","24.1","","102.12","","","","-27","","NA"
"-68.42","58.09","KUUJJUAQ A","7113535","2020-03-10 16:00","2020","03","10","16:00","-21.5","","-28.8","","53","","","","35","","10","","24.1","","102.10","","","","-29","","Clear"
"-68.42","58.09","KUUJJUAQ A","7113535","2020-03-10 17:00","2020","03","10","17:00","-22.7","","-29.2","","56","","","","35","","12","","24.1","","102.06","","","","-31","","NA"
"-68.42","58.09","KUUJJUAQ A","7113535","2020-03-10 18:00","2020","03","10","18:00","-24.9","","-30.2","","62","","","","36","","9","","24.1","","102.08","","","","-33","","NA"
"-68.42","58.09","KUUJJUAQ A","7113535","2020-03-10 19:00","2020","03","10","19:00","-27.2","","-31.2","","69","","","","33","","14","","24.1","","102.06","","","","-38","","Clear"
"-68.42","58.09","KUUJJUAQ A","7113535","2020-03-10 20:00","2020","03","10","20:00","-28.4","","-31.7","","74","","","","32","","16","","24.1","","102.07","","","","-40","","NA"
"-68.42","58.09","KUUJJUAQ A","7113535","2020-03-10 21:00","2020","03","10","21:00","-29.4","","-32.4","","76","","","","32","","9","","24.1","","102.09","","","","-38","","NA"
"-68.42","58.09","KUUJJUAQ A","7113535","2020-03-10 22:00","2020","03","10","22:00","-30.4","","-33.5","","75","","","","33","","8","","24.1","","102.04","","","","-38","","Clear"
"-68.42","58.09","KUUJJUAQ A","7113535","2020-03-10 23:00","2020","03","10","23:00","-31.1","","-34.0","","76","","","","36","","1","","24.1","","101.99","","","","-32","","NA"
"-68.42","58.09","KUUJJUAQ A","7113535","2020-03-11 00:00","2020","03","11","00:00","-33.4","","-36.5","","75","","","","36","","2","","24.1","","101.98","","","","-36","","NA"
"-68.42","58.09","KUUJJUAQ A","7113535","2020-03-11 01:00","2020","03","11","01:00","-33.9","","-36.9","","75","","","","36","","1","","24.1","","101.96","","","","-35","","Clear"
"-68.42","58.09","KUUJJUAQ A","7113535","2020-03-11 02:00","2020","03","11","02:00","-35.7","","-39.3","","70","","","","17","","5","","24.1","","101.95","","","","-42","","NA"
"-68.42","58.09","KUUJJUAQ A","7113535","2020-03-11 03:00","2020","03","11","03:00","-33.6","","-36.9","","74","","","","10","","4","","19.3","","101.91","","","","-38","","Snow"
"-68.42","58.09","KUUJJUAQ A","7113535","2020-03-11 04:00","2020","03","11","04:00","-32.4","","-35.7","","73","","","","10","","3","","24.1","","101.87","","","","-36","","Snow"
"-68.42","58.09","KUUJJUAQ A","7113535","2020-03-11 05:00","2020","03","11","05:00","-31.2","","-34.5","","74","","","","36","","2","","24.1","","101.86","","","","-34","","Snow"
"-68.42","58.09","KUUJJUAQ A","7113535","2020-03-11 06:00","2020","03","11","06:00","-30.7","","-34.0","","74","","","","36","","1","","19.3","","101.86","","","","-32","","Snow"
"-68.42","58.09","KUUJJUAQ A","7113535","2020-03-11 07:00","2020","03","11","07:00","-29.3","","-32.5","","74","","","","6","","3","","16.1","","101.86","","","","-33","","Snow"
"-68.42","58.09","KUUJJUAQ A","7113535","2020-03-11 08:00","2020","03","11","08:00","-27.6","","-30.8","","75","","","","36","","2","","9.7","","101.86","","","","-30","","Snow"
"-68.42","58.09","KUUJJUAQ A","7113535","2020-03-11 09:00","2020","03","11","09:00","-25.8","","-29.3","","73","","","","36","","2","","12.9","","101.86","","","","-28","","Snow"
"-68.42","58.09","KUUJJUAQ A","7113535","2020-03-11 10:00","2020","03","11","10:00","-22.9","","-27.2","","69","","","","36","","1","","16.1","","101.86","","","","-24","","Snow"
"-68.42","58.09","KUUJJUAQ A","7113535","2020-03-11 11:00","2020","03","11","11:00","-19.5","","-23.7","","70","","","","36","","3","","12.9","","101.83","","","","-22","","Snow"
"-68.42","58.09","KUUJJUAQ A","7113535","2020-03-11 12:00","2020","03","11","12:00","-17.6","","-22.1","","68","","","","35","","14","","19.3","","101.81","","","","-26","","Snow"
"-68.42","58.09","KUUJJUAQ A","7113535","2020-03-11 13:00","2020","03","11","13:00","-17.2","","-21.7","","69","","","","35","","17","","19.3","","101.78","","","","-26","","Snow"
"-68.42","58.09","KUUJJUAQ A","7113535","2020-03-11 14:00","2020","03","11","14:00","-16.9","","-21.5","","68","","","","34","","16","","19.3","","101.77","","","","-26","","Snow"
"-68.42","58.09","KUUJJUAQ A","7113535","2020-03-11 15:00","2020","03","11","15:00","-17.1","","-21.4","","70","","","","33","","16","","16.1","","101.79","","","","-26","","Snow"
"-68.42","58.09","KUUJJUAQ A","7113535","2020-03-11 16:00","2020","03","11","16:00","-17.5","","-21.4","","73","","","","33","","18","","19.3","","101.81","","","","-27","","Snow"
"-68.42","58.09","KUUJJUAQ A","7113535","2020-03-11 17:00","2020","03","11","17:00","-17.8","","-21.1","","76","","","","33","","15","","16.1","","101.83","","","","-26","","Snow,Blowing Snow"
"-68.42","58.09","KUUJJUAQ A","7113535","2020-03-11 18:00","2020","03","11","18:00","-18.1","","-21.2","","77","","","","33","","14","","24.1","","101.85","","","","-26","","Snow,Blowing Snow"
"-68.42","58.09","KUUJJUAQ A","7113535","2020-03-11 19:00","2020","03","11","19:00","-18.2","","-21.2","","77","","","","33","","16","","24.1","","101.87","","","","-27","","Snow,Blowing Snow"
"-68.42","58.09","KUUJJUAQ A","7113535","2020-03-11 20:00","2020","03","11","20:00","-18.1","","-21.1","","78","","","","33","","10","","24.1","","101.87","","","","-25","","Snow,Blowing Snow"
"-68.42","58.09","KUUJJUAQ A","7113535","2020-03-11 21:00","2020","03","11","21:00","-18.0","","-20.9","","79","","","","33","","12","","24.1","","101.91","","","","-26","","Snow"
"-68.42","58.09","KUUJJUAQ A","7113535","2020-03-11 22:00","2020","03","11","22:00","-17.9","","-20.7","","79","","","","32","","11","","24.1","","101.90","","","","-25","","Snow"
"-68.42","58.09","KUUJJUAQ A","7113535","2020-03-11 23:00","2020","03","11","23:00","-17.9","","-20.6","","79","","","","32","","8","","24.1","","101.89","","","","-24","","Snow"
"-68.42","58.09","KUUJJUAQ A","7113535","2020-03-12 00:00","2020","03","12","00:00","-17.8","","-20.6","","79","","","","31","","10","","24.1","","101.87","","","","-25","","Snow"
"-68.42","58.09","KUUJJUAQ A","7113535","2020-03-12 01:00","2020","03","12","01:00","-17.8","","-20.5","","80","","","","30","","7","","24.1","","101.88","","","","-23","","Snow"
"-68.42","58.09","KUUJJUAQ A","7113535","2020-03-12 02:00","2020","03","12","02:00","-17.7","","-20.2","","82","","","","28","","4","","24.1","","101.92","","","","-21","","Snow"
"-68.42","58.09","KUUJJUAQ A","7113535","2020-03-12 03:00","2020","03","12","03:00","-17.4","","-19.9","","81","","","","36","","2","","24.1","","101.95","","","","-19","","Snow"
"-68.42","58.09","KUUJJUAQ A","7113535","2020-03-12 04:00","2020","03","12","04:00","-17.1","","-19.9","","80","","","","33","","10","","24.1","","101.97","","","","-24","","Snow"
"-68.42","58.09","KUUJJUAQ A","7113535","2020-03-12 05:00","2020","03","12","05:00","-17.3","","-20.0","","80","","","","34","","10","","24.1","","102.02","","","","-24","","Snow"
"-68.42","58.09","KUUJJUAQ A","7113535","2020-03-12 06:00","2020","03","12","06:00","-17.1","","-19.7","","80","","","","34","","13","","19.3","","102.09","","","","-25","","Snow"
"-68.42","58.09","KUUJJUAQ A","7113535","2020-03-12 07:00","2020","03","12","07:00","-16.9","","-19.7","","80","","","","34","","14","","16.1","","102.16","","","","-25","","Snow"
"-68.42","58.09","KUUJJUAQ A","7113535","2020-03-12 08:00","2020","03","12","08:00","-16.5","","-19.6","","78","","","","35","","16","","19.3","","102.19","","","","-25","","Snow"
"-68.42","58.09","KUUJJUAQ A","7113535","2020-03-12 09:00","2020","03","12","09:00","-15.8","","-19.2","","76","","","","36","","18","","16.1","","102.22","","","","-25","","Snow"
"-68.42","58.09","KUUJJUAQ A","7113535","2020-03-12 10:00","2020","03","12","10:00","-15.2","","-18.8","","74","","","","35","","17","","16.1","","102.24","","","","-24","","Snow"
"-68.42","58.09","KUUJJUAQ A","7113535","2020-03-12 11:00","2020","03","12","11:00","-14.7","","-18.8","","72","","","","33","","15","","19.3","","102.26","","","","-23","","Snow"
"-68.42","58.09","KUUJJUAQ A","7113535","2020-03-12 12:00","2020","03","12","12:00","-14.4","","-19.5","","66","","","","36","","12","","16.1","","102.26","","","","-21","","Snow"
"-68.42","58.09","KUUJJUAQ A","7113535","2020-03-12 13:00","2020","03","12","13:00","-14.3","","-19.1","","67","","","","36","","15","","19.3","","102.29","","","","-22","","Snow"
"-68.42","58.09","KUUJJUAQ A","7113535","2020-03-12 14:00","2020","03","12","14:00","-14.2","","-19.5","","65","","","","34","","17","","19.3","","102.33","","","","-22","","Snow"
"-68.42","58.09","KUUJJUAQ A","7113535","2020-03-12 15:00","2020","03","12","15:00","-14.8","","-19.4","","69","","","","35","","18","","24.1","","102.39","","","","-23","","Snow"
"-68.42","58.09","KUUJJUAQ A","7113535","2020-03-12 16:00","2020","03","12","16:00","-15.5","","-19.6","","71","","","","34","","14","","24.1","","102.42","","","","-23","","Snow"
"-68.42","58.09","KUUJJUAQ A","7113535","2020-03-12 17:00","2020","03","12","17:00","-16.1","","-20.0","","72","","","","32","","17","","24.1","","102.48","","","","-25","","Snow"
"-68.42","58.09","KUUJJUAQ A","7113535","2020-03-12 18:00","2020","03","12","18:00","-16.8","","-20.2","","75","","","","32","","14","","24.1","","102.48","","","","-25","","Snow"
"-68.42","58.09","KUUJJUAQ A","7113535","2020-03-12 19:00","2020","03","12","19:00","-17.2","","-20.5","","76","","","","31","","14","","24.1","","102.55","","","","-25","","Snow"
"-68.42","58.09","KUUJJUAQ A","7113535","2020-03-12 20:00","2020","03","12","20:00","-17.6","","-20.8","","77","","","","36","","3","","24.1","","102.59","","","","-20","","Snow"
"-68.42","58.09","KUUJJUAQ A","7113535","2020-03-12 21:00","2020","03","12","21:00","-18.0","","-21.1","","77","","","","29","","5","","24.1","","102.60","","","","-22","","Snow"
"-68.42","58.09","KUUJJUAQ A","7113535","2020-03-12 22:00","2020","03","12","22:00","-18.2","","-21.4","","77","","","","29","","7","","24.1","","102.60","","","","-24","","Snow"
"-68.42","58.09","KUUJJUAQ A","7113535","2020-03-12 23:00","2020","03","12","23:00","-18.3","","-21.5","","76","","","","29","","8","","24.1","","102.64","","","","-24","","Snow"
"-68.42","58.09","KUUJJUAQ A","7113535","2020-03-13 00:00","2020","03","13","00:00","-18.4","","-21.5","","76","","","","32","","6","","24.1","","102.64","","","","-23","","Snow"
"-68.42","58.09","KUUJJUAQ A","7113535","2020-03-13 01:00","2020","03","13","01:00","-18.5","","-21.6","","77","","","","27","","3","","24.1","","102.70","","","","-21","","Snow"
"-68.42","58.09","KUUJJUAQ A","7113535","2020-03-13 02:00","2020","03","13","02:00","-18.4","","-21.7","","76","","","","31","","4","","24.1","","102.72","","","","-22","","Snow"
"-68.42","58.09","KUUJJUAQ A","7113535","2020-03-13 03:00","2020","03","13","03:00","-18.9","","-21.6","","79","","","","0","","1","","24.1","","102.72","","","","-20","","Snow"
"-68.42","58.09","KUUJJUAQ A","7113535","2020-03-13 04:00","2020","03","13","04:00","-19.1","","-21.9","","79","","","","0","","1","","24.1","","102.76","","","","-20","","Snow"
"-68.42","58.09","KUUJJUAQ A","7113535","2020-03-13 05:00","2020","03","13","05:00","-19.5","","-22.3","","79","","","","28","","3","","24.1","","102.78","","","","-22","","Snow"
"-68.42","58.09","KUUJJUAQ A","7113535","2020-03-13 06:00","2020","03","13","06:00","-19.4","","-22.0","","80","","","","18","","4","","24.1","","102.79","","","","-23","","Snow"
"-68.42","58.09","KUUJJUAQ A","7113535","2020-03-13 07:00","2020","03","13","07:00","-19.2","","-21.8","","80","","","","36","","3","","24.1","","102.78","","","","-22","","Snow"
"-68.42","58.09","KUUJJUAQ A","7113535","2020-03-13 08:00","2020","03","13","08:00","-18.3","","-21.6","","75","","","","36","","2","","24.1","","102.76","","","","-20","","Snow"
"-68.42","58.09","KUUJJUAQ A","7113535","2020-03-13 09:00","2020","03","13","09:00","-17.2","","-21.2","","72","","","","8","","4","","24.1","","102.73","","","","-20","","Snow"
"-68.42","58.09","KUUJJUAQ A","7113535","2020-03-13 10:00","2020","03","13","10:00","-15.3","","-20.3","","66","","","","13","","8","","24.1","","102.65","","","","-21","","Snow"
"-68.42","58.09","KUUJJUAQ A","7113535","2020-03-13 11:00","2020","03","13","11:00","-14.3","","-20.0","","63","","","","13","","14","","24.1","","102.63","","","","-22","","NA"
"-68.42","58.09","KUUJJUAQ A","7113535","2020-03-13 12:00","2020","03","13","12:00","-14.3","","-19.9","","63","","","","8","","18","","24.1","","102.54","","","","-23","","NA"
"-68.42","58.09","KUUJJUAQ A","7113535","2020-03-13 13:00","2020","03","13","13:00","-14.2","","-20.1","","62","","","","8","","21","","24.1","","102.41","","","","-23","","Mainly Clear"
"-68.42","58.09","KUUJJUAQ A","7113535","2020-03-13 14:00","2020","03","13","14:00","-14.5","","-20.2","","62","","","","8","","20","","24.1","","102.32","","","","-24","","NA"
"-68.42","58.09","KUUJJUAQ A","7113535","2020-03-13 15:00","2020","03","13","15:00","-14.3","","-20.0","","63","","","","7","","16","","24.1","","102.24","","","","-22","","NA"
"-68.42","58.09","KUUJJUAQ A","7113535","2020-03-13 16:00","2020","03","13","16:00","-14.8","","-19.6","","67","","","","6","","18","","24.1","","102.25","","","","-23","","Mostly Cloudy"
"-68.42","58.09","KUUJJUAQ A","7113535","2020-03-13 17:00","2020","03","13","17:00","-15.8","","-20.0","","71","","","","5","","21","","24.1","","102.11","","","","-25","","Blowing Snow"
"-68.42","58.09","KUUJJUAQ A","7113535","2020-03-13 18:00","2020","03","13","18:00","-16.6","","-20.4","","73","","","","5","","16","","24.1","","102.09","","","","-25","","Blowing Snow"
"-68.42","58.09","KUUJJUAQ A","7113535","2020-03-13 19:00","2020","03","13","19:00","-16.6","","-19.8","","76","","","","4","","17","","24.1","","102.01","","","","-25","","Mostly Cloudy"
"-68.42","58.09","KUUJJUAQ A","7113535","2020-03-13 20:00","2020","03","13","20:00","-16.4","","-19.1","","80","","","","6","","16","","24.1","","101.95","","","","-25","","NA"
"-68.42","58.09","KUUJJUAQ A","7113535","2020-03-13 21:00","2020","03","13","21:00","-15.1","","-18.6","","75","","","","5","","27","","24.1","","101.78","","","","-26","","NA"
"-68.42","58.09","KUUJJUAQ A","7113535","2020-03-13 22:00","2020","03","13","22:00","-14.5","","-17.5","","78","","","","5","","27","","24.1","","101.68","","","","-25","","Mostly Cloudy"
"-68.42","58.09","KUUJJUAQ A","7113535","2020-03-13 23:00","2020","03","13","23:00","-14.6","","-17.3","","80","","","","4","","30","","19.3","","101.54","","","","-26","","Snow"
"-68.42","58.09","KUUJJUAQ A","7113535","2020-03-14 00:00","2020","03","14","00:00","-14.6","","-17.2","","81","","","","3","","25","","24.1","","101.43","","","","-25","","Snow"
"-68.42","58.09","KUUJJUAQ A","7113535","2020-03-14 01:00","2020","03","14","01:00","-14.1","","-17.0","","79","","","","3","","24","","24.1","","101.40","","","","-24","","Snow,Blowing Snow"
"-68.42","58.09","KUUJJUAQ A","7113535","2020-03-14 02:00","2020","03","14","02:00","-13.4","","-16.2","","80","","","","4","","25","","24.1","","101.32","","","","-23","","Snow,Blowing Snow"
"-68.42","58.09","KUUJJUAQ A","7113535","2020-03-14 03:00","2020","03","14","03:00","-13.1","","-16.0","","79","","","","3","","31","","24.1","","101.21","","","","-24","","Snow,Blowing Snow"
"-68.42","58.09","KUUJJUAQ A","7113535","2020-03-14 04:00","2020","03","14","04:00","-13.0","","-15.5","","82","","","","3","","33","","6.4","","101.17","","","","-24","","Snow,Blowing Snow"
"-68.42","58.09","KUUJJUAQ A","7113535","2020-03-14 05:00","2020","03","14","05:00","-12.9","","-15.1","","84","","","","3","","31","","4.0","","101.14","","","","-23","","Snow,Blowing Snow"
"-68.42","58.09","KUUJJUAQ A","7113535","2020-03-14 06:00","2020","03","14","06:00","-12.7","","-14.8","","84","","","","2","","32","","1.2","","101.15","","","","-23","","Snow,Blowing Snow"
"-68.42","58.09","KUUJJUAQ A","7113535","2020-03-14 07:00","2020","03","14","07:00","-12.5","","-14.7","","84","","","","2","","29","","1.2","","101.13","","","","-23","","Snow,Blowing Snow"
"-68.42","58.09","KUUJJUAQ A","7113535","2020-03-14 08:00","2020","03","14","08:00","-12.1","","-14.4","","83","","","","2","","37","","1.2","","101.14","","","","-23","","Snow,Blowing Snow"
"-68.42","58.09","KUUJJUAQ A","7113535","2020-03-14 09:00","2020","03","14","09:00","-11.7","","-14.1","","82","","","","2","","26","","1.2","","101.17","","","","-21","","Snow,Blowing Snow"
"-68.42","58.09","KUUJJUAQ A","7113535","2020-03-14 10:00","2020","03","14","10:00","-11.1","","-13.6","","82","","","","2","","31","","1.2","","101.22","","","","-21","","Snow,Blowing Snow"
"-68.42","58.09","KUUJJUAQ A","7113535","2020-03-14 11:00","2020","03","14","11:00","-11.2","","-13.8","","82","","","","1","","35","","1.0","","101.26","","","","-22","","Snow,Blowing Snow"
"-68.42","58.09","KUUJJUAQ A","7113535","2020-03-14 12:00","2020","03","14","12:00","-11.5","","-14.2","","81","","","","1","","35","","0.8","","101.30","","","","-22","","Snow,Blowing Snow"
"-68.42","58.09","KUUJJUAQ A","7113535","2020-03-14 13:00","2020","03","14","13:00","-12.3","","-15.4","","78","","","","1","","36","","1.6","","101.38","","","","-23","","Snow,Blowing Snow"
"-68.42","58.09","KUUJJUAQ A","7113535","2020-03-14 14:00","2020","03","14","14:00","-12.8","","-15.6","","80","","","","1","","36","","1.2","","101.47","","","","-24","","Snow,Blowing Snow"
"-68.42","58.09","KUUJJUAQ A","7113535","2020-03-14 15:00","2020","03","14","15:00","-13.3","","-16.2","","79","","","","1","","31","","1.2","","101.59","","","","-24","","Snow,Blowing Snow"
"-68.42","58.09","KUUJJUAQ A","7113535","2020-03-14 16:00","2020","03","14","16:00","-14.1","","-17.3","","77","","","","1","","35","","1.6","","101.71","","","","-26","","Snow,Blowing Snow"
"-68.42","58.09","KUUJJUAQ A","7113535","2020-03-14 17:00","2020","03","14","17:00","-14.6","","-17.7","","77","","","","1","","35","","2.0","","101.83","","","","-26","","Snow,Snow Grains,Blowing Snow"
"-68.42","58.09","KUUJJUAQ A","7113535","2020-03-14 18:00","2020","03","14","18:00","-15.2","","-17.8","","80","","","","36","","34","","3.2","","101.92","","","","-27","","Snow,Blowing Snow"
"-68.42","58.09","KUUJJUAQ A","7113535","2020-03-14 19:00","2020","03","14","19:00","-15.5","","-18.5","","78","","","","36","","29","","12.9","","102.00","","","","-27","","Snow,Blowing Snow"
"-68.42","58.09","KUUJJUAQ A","7113535","2020-03-14 20:00","2020","03","14","20:00","-15.8","","-19.3","","74","","","","1","","21","","19.3","","102.08","","","","-25","","Snow,Blowing Snow"
"-68.42","58.09","KUUJJUAQ A","7113535","2020-03-14 21:00","2020","03","14","21:00","-16.1","","-19.5","","76","","","","36","","26","","24.1","","102.17","","","","-27","","Snow,Blowing Snow"
"-68.42","58.09","KUUJJUAQ A","7113535","2020-03-14 22:00","2020","03","14","22:00","-16.5","","-20.0","","75","","","","36","","19","","24.1","","102.21","","","","-26","","Snow,Blowing Snow"
"-68.42","58.09","KUUJJUAQ A","7113535","2020-03-14 23:00","2020","03","14","23:00","-16.7","","-19.9","","77","","","","34","","16","","24.1","","102.26","","","","-25","","Snow,Blowing Snow"
"-68.42","58.09","KUUJJUAQ A","7113535","2020-03-15 00:00","2020","03","15","00:00","-18.4","","-21.7","","76","","","","32","","24","","24.1","","102.33","","","","-29","","Snow,Blowing Snow"
"-68.42","58.09","KUUJJUAQ A","7113535","2020-03-15 01:00","2020","03","15","01:00","-18.9","","-22.1","","76","","","","32","","23","","24.1","","102.40","","","","-30","","Snow,Blowing Snow"
"-68.42","58.09","KUUJJUAQ A","7113535","2020-03-15 02:00","2020","03","15","02:00","-20.1","","-23.4","","75","","","","32","","19","","24.1","","102.45","","","","-30","","Snow"
"-68.42","58.09","KUUJJUAQ A","7113535","2020-03-15 03:00","2020","03","15","03:00","-21.2","","-24.2","","78","","","","31","","19","","24.1","","102.48","","","","-32","","Snow"
"-68.42","58.09","KUUJJUAQ A","7113535","2020-03-15 04:00","2020","03","15","04:00","-22.9","","-25.5","","80","","","","25","","7","","24.1","","102.52","","","","-29","","Snow"
"-68.42","58.09","KUUJJUAQ A","7113535","2020-03-15 05:00","2020","03","15","05:00","-24.5","","-27.6","","76","","","","22","","8","","24.1","","102.55","","","","-32","","NA"
"-68.42","58.09","KUUJJUAQ A","7113535","2020-03-15 06:00","2020","03","15","06:00","-25.4","","-28.8","","74","","","","24","","8","","24.1","","102.56","","","","-33","","NA"
"-68.42","58.09","KUUJJUAQ A","7113535","2020-03-15 07:00","2020","03","15","07:00","-24.5","","-28.7","","69","","","","26","","9","","24.1","","102.56","","","","-32","","Clear"
"-68.42","58.09","KUUJJUAQ A","7113535","2020-03-15 08:00","2020","03","15","08:00","-22.1","","-28.4","","57","","","","26","","12","","24.1","","102.55","","","","-31","","NA"
"-68.42","58.09","KUUJJUAQ A","7113535","2020-03-15 09:00","2020","03","15","09:00","-20.3","","-27.7","","53","","","","27","","17","","24.1","","102.58","","","","-30","","NA"
"-68.42","58.09","KUUJJUAQ A","7113535","2020-03-15 10:00","2020","03","15","10:00","-18.9","","-27.3","","48","","","","28","","17","","24.1","","102.57","","","","-28","","Clear"
"-68.42","58.09","KUUJJUAQ A","7113535","2020-03-15 11:00","2020","03","15","11:00","-18.0","","-26.4","","49","","","","27","","22","","24.1","","102.56","","","","-28","","NA"
"-68.42","58.09","KUUJJUAQ A","7113535","2020-03-15 12:00","2020","03","15","12:00","-17.7","","-27.1","","45","","","","27","","25","","24.1","","102.53","","","","-29","","NA"
"-68.42","58.09","KUUJJUAQ A","7113535","2020-03-15 13:00","2020","03","15","13:00","-17.9","","-27.4","","44","","","","27","","24","","24.1","","102.52","","","","-29","","Mostly Cloudy"
"-68.42","58.09","KUUJJUAQ A","7113535","2020-03-15 14:00","2020","03","15","14:00","-18.3","","-26.9","","48","","","","26","","30","","24.1","","102.55","","","","-30","","Blowing Snow"
"-68.42","58.09","KUUJJUAQ A","7113535","2020-03-15 15:00","2020","03","15","15:00","-18.3","","-26.7","","49","","","","26","","26","","24.1","","102.53","","","","-30","","Blowing Snow"
"-68.42","58.09","KUUJJUAQ A","7113535","2020-03-15 16:00","2020","03","15","16:00","-18.9","","-26.2","","53","","","","26","","17","","24.1","","102.51","","","","-28","","Mostly Cloudy"
"-68.42","58.09","KUUJJUAQ A","7113535","2020-03-15 17:00","2020","03","15","17:00","-18.6","","-25.8","","54","","","","25","","17","","24.1","","102.48","","","","-28","","NA"
"-68.42","58.09","KUUJJUAQ A","7113535","2020-03-15 18:00","2020","03","15","18:00","-19.7","","-26.1","","58","","","","25","","19","","24.1","","102.48","","","","-30","","Blowing Snow"
"-68.42","58.09","KUUJJUAQ A","7113535","2020-03-15 19:00","2020","03","15","19:00","-20.3","","-26.1","","61","","","","24","","14","","24.1","","102.47","","","","-29","","Mainly Clear"
"-68.42","58.09","KUUJJUAQ A","7113535","2020-03-15 20:00","2020","03","15","20:00","-20.4","","-25.9","","62","","","","25","","22","","24.1","","102.41","","","","-31","","NA"
"-68.42","58.09","KUUJJUAQ A","7113535","2020-03-15 21:00","2020","03","15","21:00","-20.6","","-26.2","","61","","","","25","","21","","24.1","","102.37","","","","-31","","NA"
"-68.42","58.09","KUUJJUAQ A","7113535","2020-03-15 22:00","2020","03","15","22:00","-20.8","","-26.7","","60","","","","23","","17","","24.1","","102.31","","","","-31","","Mainly Clear"
"-68.42","58.09","KUUJJUAQ A","7113535","2020-03-15 23:00","2020","03","15","23:00","-20.6","","-26.9","","58","","","","24","","18","","24.1","","102.25","","","","-31","","NA"
"-68.42","58.09","KUUJJUAQ A","7113535","2020-03-16 00:00","2020","03","16","00:00","-20.7","","-27.0","","58","","","","24","","15","","24.1","","102.21","","","","-30","","NA"
"-68.42","58.09","KUUJJUAQ A","7113535","2020-03-16 01:00","2020","03","16","01:00","-21.2","","-27.2","","59","","","","21","","10","","24.1","","102.16","","","","-29","","Mainly Clear"
"-68.42","58.09","KUUJJUAQ A","7113535","2020-03-16 02:00","2020","03","16","02:00","-21.2","","-27.2","","59","","","","21","","13","","24.1","","102.07","","","","-30","","NA"
"-68.42","58.09","KUUJJUAQ A","7113535","2020-03-16 03:00","2020","03","16","03:00","-20.4","","-26.4","","60","","","","24","","19","","24.1","","102.00","","","","-31","","NA"
"-68.42","58.09","KUUJJUAQ A","7113535","2020-03-16 04:00","2020","03","16","04:00","-20.6","","-26.0","","63","","","","23","","16","","24.1","","101.95","","","","-30","","Mostly Cloudy"
"-68.42","58.09","KUUJJUAQ A","7113535","2020-03-16 05:00","2020","03","16","05:00","-21.5","","-25.7","","69","","","","18","","9","","24.1","","101.88","","","","-29","","NA"
"-68.42","58.09","KUUJJUAQ A","7113535","2020-03-16 06:00","2020","03","16","06:00","-21.0","","-25.6","","67","","","","21","","9","","24.1","","101.83","","","","-28","","NA"
"-68.42","58.09","KUUJJUAQ A","7113535","2020-03-16 07:00","2020","03","16","07:00","-19.7","","-25.1","","63","","","","21","","19","","24.1","","101.77","","","","-30","","Cloudy"
"-68.42","58.09","KUUJJUAQ A","7113535","2020-03-16 08:00","2020","03","16","08:00","-18.5","","-24.7","","59","","","","22","","18","","24.1","","101.65","","","","-28","","NA"
"-68.42","58.09","KUUJJUAQ A","7113535","2020-03-16 09:00","2020","03","16","09:00","-17.2","","-24.7","","53","","","","23","","25","","24.1","","101.55","","","","-28","","NA"
"-68.42","58.09","KUUJJUAQ A","7113535","2020-03-16 10:00","2020","03","16","10:00","-15.8","","-24.2","","49","","","","22","","20","","24.1","","101.46","","","","-25","","Cloudy"
"-68.42","58.09","KUUJJUAQ A","7113535","2020-03-16 11:00","2020","03","16","11:00","-14.5","","-23.4","","48","","","","22","","31","","24.1","","101.33","","","","-26","","Blowing Snow"
"-68.42","58.09","KUUJJUAQ A","7113535","2020-03-16 12:00","2020","03","16","12:00","-13.6","","-23.0","","46","","","","21","","35","","24.1","","101.24","","","","-25","","Blowing Snow"
"-68.42","58.09","KUUJJUAQ A","7113535","2020-03-16 13:00","2020","03","16","13:00","-12.5","","-21.9","","46","","","","21","","35","","24.1","","101.13","","","","-23","","Blowing Snow"
"-68.42","58.09","KUUJJUAQ A","7113535","2020-03-16 14:00","2020","03","16","14:00","-11.7","","-20.8","","47","","","","23","","29","","24.1","","101.05","","","","-22","","Blowing Snow"
"-68.42","58.09","KUUJJUAQ A","7113535","2020-03-16 15:00","2020","03","16","15:00","-11.2","","-19.5","","51","","","","22","","35","","24.1","","100.95","","","","-22","","Blowing Snow"
"-68.42","58.09","KUUJJUAQ A","7113535","2020-03-16 16:00","2020","03","16","16:00","-10.5","","-18.4","","53","","","","22","","30","","24.1","","100.85","","","","-20","","Blowing Snow"
"-68.42","58.09","KUUJJUAQ A","7113535","2020-03-16 17:00","2020","03","16","17:00","-10.8","","-17.7","","58","","","","21","","34","","24.1","","100.78","","","","-21","","Blowing Snow"
"-68.42","58.09","KUUJJUAQ A","7113535","2020-03-16 18:00","2020","03","16","18:00","-11.3","","-16.2","","67","","","","21","","30","","24.1","","100.72","","","","-21","","Blowing Snow"
"-68.42","58.09","KUUJJUAQ A","7113535","2020-03-16 19:00","2020","03","16","19:00","-11.0","","-16.1","","66","","","","20","","32","","24.1","","100.64","","","","-21","","Blowing Snow"
"-68.42","58.09","KUUJJUAQ A","7113535","2020-03-16 20:00","2020","03","16","20:00","-10.4","","-16.5","","62","","","","20","","19","","24.1","","100.54","","","","-18","","Blowing Snow"
"-68.42","58.09","KUUJJUAQ A","7113535","2020-03-16 21:00","2020","03","16","21:00","-10.0","","-14.6","","70","","","","20","","28","","24.1","","100.41","","","","-19","","Snow,Blowing Snow"
"-68.42","58.09","KUUJJUAQ A","7113535","2020-03-16 22:00","2020","03","16","22:00","-9.9","","-14.1","","72","","","","20","","23","","24.1","","100.33","","","","-18","","Snow,Blowing Snow"
"-68.42","58.09","KUUJJUAQ A","7113535","2020-03-16 23:00","2020","03","16","23:00","-9.8","","-14.3","","70","","","","19","","20","","24.1","","100.22","","","","-18","","Snow,Blowing Snow"
"-68.42","58.09","KUUJJUAQ A","7113535","2020-03-17 00:00","2020","03","17","00:00","-9.9","","-14.8","","68","","","","19","","21","","24.1","","100.12","","","","-18","","Snow"
"-68.42","58.09","KUUJJUAQ A","7113535","2020-03-17 01:00","2020","03","17","01:00","-10.0","","-14.1","","73","","","","19","","22","","24.1","","99.99","","","","-18","","Snow"
"-68.42","58.09","KUUJJUAQ A","7113535","2020-03-17 02:00","2020","03","17","02:00","-9.8","","-14.2","","71","","","","19","","19","","24.1","","99.88","","","","-17","","NA"
"-68.42","58.09","KUUJJUAQ A","7113535","2020-03-17 03:00","2020","03","17","03:00","-9.5","","-15.4","","62","","","","20","","27","","24.1","","99.78","","","","-18","","NA"
"-68.42","58.09","KUUJJUAQ A","7113535","2020-03-17 04:00","2020","03","17","04:00","-10.0","","-14.7","","69","","","","19","","17","","24.1","","99.71","","","","-17","","Cloudy"
"-68.42","58.09","KUUJJUAQ A","7113535","2020-03-17 05:00","2020","03","17","05:00","-10.8","","-14.3","","75","","","","16","","10","","24.1","","99.66","","","","-16","","Snow"
"-68.42","58.09","KUUJJUAQ A","7113535","2020-03-17 06:00","2020","03","17","06:00","-11.4","","-14.5","","78","","","","19","","7","","24.1","","99.59","","","","-16","","NA"
"-68.42","58.09","KUUJJUAQ A","7113535","2020-03-17 07:00","2020","03","17","07:00","-10.2","","-13.9","","74","","","","21","","13","","24.1","","99.52","","","","-16","","Mostly Cloudy"
"-68.42","58.09","KUUJJUAQ A","7113535","2020-03-17 08:00","2020","03","17","08:00","-8.5","","-13.3","","69","","","","19","","16","","24.1","","99.43","","","","-15","","NA"
"-68.42","58.09","KUUJJUAQ A","7113535","2020-03-17 09:00","2020","03","17","09:00","-6.6","","-12.3","","64","","","","20","","30","","24.1","","99.36","","","","-15","","NA"
"-68.42","58.09","KUUJJUAQ A","7113535","2020-03-17 10:00","2020","03","17","10:00","-5.4","","-11.9","","61","","","","20","","36","","24.1","","99.29","","","","-14","","Blowing Snow"
"-68.42","58.09","KUUJJUAQ A","7113535","2020-03-17 11:00","2020","03","17","11:00","-4.9","","-11.4","","61","","","","21","","27","","24.1","","99.27","","","","-12","","Blowing Snow"
"-68.42","58.09","KUUJJUAQ A","7113535","2020-03-17 12:00","2020","03","17","12:00","-4.3","","-10.1","","64","","","","21","","33","","24.1","","99.27","","","","-12","","Snow Showers"
"-68.42","58.09","KUUJJUAQ A","7113535","2020-03-17 13:00","2020","03","17","13:00","-4.3","","-9.6","","67","","","","22","","21","","24.1","","99.30","","","","-11","","Snow Showers"
"-68.42","58.09","KUUJJUAQ A","7113535","2020-03-17 14:00","2020","03","17","14:00","-7.2","","-12.9","","64","","","","27","","22","","24.1","","99.41","","","","-15","","Snow"
"-68.42","58.09","KUUJJUAQ A","7113535","2020-03-17 15:00","2020","03","17","15:00","-8.4","","-14.3","","63","","","","29","","18","","24.1","","99.49","","","","-15","","Snow"
"-68.42","58.09","KUUJJUAQ A","7113535","2020-03-17 16:00","2020","03","17","16:00","-10.6","","-16.5","","62","","","","28","","22","","24.1","","99.58","","","","-19","","Snow,Blowing Snow"
"-68.42","58.09","KUUJJUAQ A","7113535","2020-03-17 17:00","2020","03","17","17:00","-11.1","","-16.2","","66","","","","28","","13","","24.1","","99.67","","","","-18","","NA"
"-68.42","58.09","KUUJJUAQ A","7113535","2020-03-17 18:00","2020","03","17","18:00","-12.0","","-17.1","","66","","","","28","","17","","24.1","","99.77","","","","-20","","NA"
"-68.42","58.09","KUUJJUAQ A","7113535","2020-03-17 19:00","2020","03","17","19:00","-12.4","","-17.7","","65","","","","27","","17","","24.1","","99.84","","","","-20","","Snow"
"-68.42","58.09","KUUJJUAQ A","7113535","2020-03-17 20:00","2020","03","17","20:00","-12.5","","-17.6","","67","","","","29","","14","","24.1","","99.92","","","","-20","","NA"
"-68.42","58.09","KUUJJUAQ A","7113535","2020-03-17 21:00","2020","03","17","21:00","-12.9","","-17.5","","69","","","","25","","7","","24.1","","99.96","","","","-17","","NA"
"-68.42","58.09","KUUJJUAQ A","7113535","2020-03-17 22:00","2020","03","17","22:00","-13.9","","-18.8","","67","","","","29","","14","","24.1","","100.01","","","","-21","","Snow"
"-68.42","58.09","KUUJJUAQ A","7113535","2020-03-17 23:00","2020","03","17","23:00","-15.1","","-19.2","","71","","","","29","","8","","24.1","","100.07","","","","-20","","NA"
"-68.42","58.09","KUUJJUAQ A","7113535","2020-03-18 00:00","2020","03","18","00:00","-15.7","","-19.6","","72","","","","30","","11","","24.1","","100.14","","","","-22","","Snow"
"-68.42","58.09","KUUJJUAQ A","7113535","2020-03-18 01:00","2020","03","18","01:00","-17.4","","-22.5","","65","","","","27","","16","","24.1","","100.26","","","","-26","","Snow"
"-68.42","58.09","KUUJJUAQ A","7113535","2020-03-18 02:00","2020","03","18","02:00","-19.2","","-23.1","","72","","","","25","","14","","24.1","","100.32","","","","-28","","Snow"
"-68.42","58.09","KUUJJUAQ A","7113535","2020-03-18 03:00","2020","03","18","03:00","-20.2","","-23.9","","73","","","","24","","12","","24.1","","100.36","","","","-28","","NA"
"-68.42","58.09","KUUJJUAQ A","7113535","2020-03-18 04:00","2020","03","18","04:00","-20.8","","-24.1","","75","","","","23","","16","","24.1","","100.41","","","","-30","","Ice Crystals"
"-68.42","58.09","KUUJJUAQ A","7113535","2020-03-18 05:00","2020","03","18","05:00","-21.9","","-24.9","","77","","","","23","","15","","24.1","","100.46","","","","-31","","Ice Crystals"
"-68.42","58.09","KUUJJUAQ A","7113535","2020-03-18 06:00","2020","03","18","06:00","-23.1","","-25.6","","80","","","","22","","10","","24.1","","100.51","","","","-31","","Ice Crystals"
"-68.42","58.09","KUUJJUAQ A","7113535","2020-03-18 07:00","2020","03","18","07:00","-22.0","","-25.6","","73","","","","22","","14","","24.1","","100.51","","","","-31","","Ice Crystals"
"-68.42","58.09","KUUJJUAQ A","7113535","2020-03-18 08:00","2020","03","18","08:00","-18.6","","-24.2","","62","","","","24","","21","","24.1","","100.50","","","","-29","","Ice Crystals,Blowing Snow"
"-68.42","58.09","KUUJJUAQ A","7113535","2020-03-18 09:00","2020","03","18","09:00","-17.9","","-23.6","","62","","","","24","","24","","24.1","","100.55","","","","-29","","Ice Crystals,Blowing Snow"
"-68.42","58.09","KUUJJUAQ A","7113535","2020-03-18 10:00","2020","03","18","10:00","-16.6","","-22.9","","59","","","","24","","24","","24.1","","100.55","","","","-27","","Ice Crystals,Blowing Snow"
"-68.42","58.09","KUUJJUAQ A","7113535","2020-03-18 11:00","2020","03","18","11:00","-15.4","","-21.3","","61","","","","25","","26","","24.1","","100.55","","","","-26","","Snow,Blowing Snow"
"-68.42","58.09","KUUJJUAQ A","7113535","2020-03-18 12:00","2020","03","18","12:00","-15.3","","-21.7","","59","","","","25","","27","","19.3","","100.59","","","","-26","","Snow,Blowing Snow"
"-68.42","58.09","KUUJJUAQ A","7113535","2020-03-18 13:00","2020","03","18","13:00","-15.2","","-21.2","","61","","","","25","","31","","16.1","","100.64","","","","-26","","Snow,Blowing Snow"
"-68.42","58.09","KUUJJUAQ A","7113535","2020-03-18 14:00","2020","03","18","14:00","-14.9","","-20.7","","62","","","","26","","22","","9.7","","100.76","","","","-24","","Snow,Blowing Snow"
"-68.42","58.09","KUUJJUAQ A","7113535","2020-03-18 15:00","2020","03","18","15:00","-16.1","","-22.0","","61","","","","26","","30","","12.9","","100.83","","","","-27","","Snow,Blowing Snow"
"-68.42","58.09","KUUJJUAQ A","7113535","2020-03-18 16:00","2020","03","18","16:00","-17.1","","-22.8","","61","","","","25","","35","","19.3","","100.91","","","","-30","","Snow Showers,Blowing Snow"
"-68.42","58.09","KUUJJUAQ A","7113535","2020-03-18 17:00","2020","03","18","17:00","-18.0","","-23.6","","62","","","","27","","26","","8.1","","101.00","","","","-29","","Snow Showers,Blowing Snow"
"-68.42","58.09","KUUJJUAQ A","7113535","2020-03-18 18:00","2020","03","18","18:00","-18.9","","-24.4","","62","","","","26","","35","","16.1","","101.09","","","","-32","","Snow Showers,Blowing Snow"
"-68.42","58.09","KUUJJUAQ A","7113535","2020-03-18 19:00","2020","03","18","19:00","-19.1","","-24.3","","64","","","","26","","30","","16.1","","101.19","","","","-31","","Snow Showers,Blowing Snow"
"-68.42","58.09","KUUJJUAQ A","7113535","2020-03-18 20:00","2020","03","18","20:00","-19.8","","-25.0","","64","","","","26","","34","","24.1","","101.21","","","","-33","","Snow,Blowing Snow"
"-68.42","58.09","KUUJJUAQ A","7113535","2020-03-18 21:00","2020","03","18","21:00","-20.5","","-25.6","","65","","","","26","","27","","24.1","","101.28","","","","-33","","Snow,Blowing Snow"
"-68.42","58.09","KUUJJUAQ A","7113535","2020-03-18 22:00","2020","03","18","22:00","-21.3","","-26.4","","64","","","","27","","30","","24.1","","101.26","","","","-34","","Snow,Blowing Snow"
"-68.42","58.09","KUUJJUAQ A","7113535","2020-03-18 23:00","2020","03","18","23:00","-22.1","","-27.3","","64","","","","27","","25","","24.1","","101.36","","","","-34","","Blowing Snow"
"-68.42","58.09","KUUJJUAQ A","7113535","2020-03-19 00:00","2020","03","19","00:00","-23.1","","-28.2","","64","","","","27","","8","","24.1","","101.46","","","","-30","","Ice Crystals"
"-68.42","58.09","KUUJJUAQ A","7113535","2020-03-19 01:00","2020","03","19","01:00","-23.7","","-28.7","","64","","","","25","","20","","24.1","","101.52","","","","-35","","Ice Crystals"
"-68.42","58.09","KUUJJUAQ A","7113535","2020-03-19 02:00","2020","03","19","02:00","-24.2","","-29.0","","66","","","","26","","18","","24.1","","101.54","","","","-35","","Ice Crystals"
"-68.42","58.09","KUUJJUAQ A","7113535","2020-03-19 03:00","2020","03","19","03:00","-24.5","","-29.2","","66","","","","25","","17","","24.1","","101.57","","","","-35","","Ice Crystals"
"-68.42","58.09","KUUJJUAQ A","7113535","2020-03-19 04:00","2020","03","19","04:00","-24.6","","-29.2","","67","","","","26","","26","","24.1","","101.62","","","","-38","","Ice Crystals"
"-68.42","58.09","KUUJJUAQ A","7113535","2020-03-19 05:00","2020","03","19","05:00","-25.1","","-29.4","","68","","","","25","","17","","24.1","","101.73","","","","-36","","Ice Crystals"
"-68.42","58.09","KUUJJUAQ A","7113535","2020-03-19 06:00","2020","03","19","06:00","-24.4","","-28.9","","67","","","","26","","24","","24.1","","101.75","","","","-37","","Ice Crystals,Blowing Snow"
"-68.42","58.09","KUUJJUAQ A","7113535","2020-03-19 07:00","2020","03","19","07:00","-23.8","","-29.1","","62","","","","26","","23","","24.1","","101.81","","","","-36","","Ice Crystals,Blowing Snow"
"-68.42","58.09","KUUJJUAQ A","7113535","2020-03-19 08:00","2020","03","19","08:00","-22.5","","-28.8","","57","","","","25","","26","","24.1","","101.83","","","","-35","","Ice Crystals,Blowing Snow"
"-68.42","58.09","KUUJJUAQ A","7113535","2020-03-19 09:00","2020","03","19","09:00","-21.7","","-28.4","","56","","","","26","","28","","24.1","","101.92","","","","-34","","Ice Crystals,Blowing Snow"
"-68.42","58.09","KUUJJUAQ A","7113535","2020-03-19 10:00","2020","03","19","10:00","-20.5","","-27.4","","55","","","","26","","29","","24.1","","101.92","","","","-33","","Blowing Snow"
"-68.42","58.09","KUUJJUAQ A","7113535","2020-03-19 11:00","2020","03","19","11:00","-19.2","","-26.5","","53","","","","26","","24","","24.1","","101.91","","","","-30","","Blowing Snow"
"-68.42","58.09","KUUJJUAQ A","7113535","2020-03-19 12:00","2020","03","19","12:00","-18.0","","-25.6","","52","","","","24","","21","","24.1","","101.96","","","","-28","","Blowing Snow"
"-68.42","58.09","KUUJJUAQ A","7113535","2020-03-19 13:00","2020","03","19","13:00","-17.8","","-25.0","","54","","","","25","","27","","24.1","","101.99","","","","-29","","Blowing Snow"
"-68.42","58.09","KUUJJUAQ A","7113535","2020-03-19 14:00","2020","03","19","14:00","-17.8","","-25.5","","51","","","","26","","27","","24.1","","102.06","","","","-29","","Blowing Snow"
"-68.42","58.09","KUUJJUAQ A","7113535","2020-03-19 15:00","2020","03","19","15:00","-17.7","","-25.2","","53","","","","24","","18","","24.1","","102.07","","","","-27","","Blowing Snow"
"-68.42","58.09","KUUJJUAQ A","7113535","2020-03-19 16:00","2020","03","19","16:00","-17.9","","-25.3","","53","","","","26","","28","","24.1","","102.05","","","","-29","","Blowing Snow"
"-68.42","58.09","KUUJJUAQ A","7113535","2020-03-19 17:00","2020","03","19","17:00","-18.7","","-25.1","","58","","","","26","","25","","24.1","","102.08","","","","-30","","Blowing Snow"
"-68.42","58.09","KUUJJUAQ A","7113535","2020-03-19 18:00","2020","03","19","18:00","-19.9","","-25.5","","62","","","","23","","18","","24.1","","102.14","","","","-30","","NA"
"-68.42","58.09","KUUJJUAQ A","7113535","2020-03-19 19:00","2020","03","19","19:00","-20.5","","-25.6","","64","","","","25","","9","","24.1","","102.18","","","","-27","","Clear"
"-68.42","58.09","KUUJJUAQ A","7113535","2020-03-19 20:00","2020","03","19","20:00","-21.0","","-25.8","","66","","","","23","","14","","24.1","","102.15","","","","-30","","NA"
"-68.42","58.09","KUUJJUAQ A","7113535","2020-03-19 21:00","2020","03","19","21:00","-21.3","","-25.7","","68","","","","25","","14","","24.1","","102.11","","","","-30","","NA"
"-68.42","58.09","KUUJJUAQ A","7113535","2020-03-19 22:00","2020","03","19","22:00","-21.6","","-26.0","","68","","","","27","","18","","24.1","","102.07","","","","-32","","Clear"
"-68.42","58.09","KUUJJUAQ A","7113535","2020-03-19 23:00","2020","03","19","23:00","-22.5","","-26.6","","70","","","","27","","4","","24.1","","102.10","","","","-26","","NA"
"-68.42","58.09","KUUJJUAQ A","7113535","2020-03-20 00:00","2020","03","20","00:00","-23.5","","-27.3","","71","","","","25","","12","","24.1","","102.09","","","","-32","","NA"
"-68.42","58.09","KUUJJUAQ A","7113535","2020-03-20 01:00","2020","03","20","01:00","-24.7","","-28.1","","74","","","","18","","5","","24.1","","102.10","","","","-30","","Clear"
"-68.42","58.09","KUUJJUAQ A","7113535","2020-03-20 02:00","2020","03","20","02:00","-25.5","","-28.3","","77","","","","21","","11","","24.1","","102.04","","","","-34","","NA"
"-68.42","58.09","KUUJJUAQ A","7113535","2020-03-20 03:00","2020","03","20","03:00","-25.5","","-28.3","","78","","","","19","","11","","24.1","","102.05","","","","-34","","NA"
"-68.42","58.09","KUUJJUAQ A","7113535","2020-03-20 04:00","2020","03","20","04:00","-26.1","","-29.0","","77","","","","23","","12","","24.1","","102.01","","","","-35","","Clear"
"-68.42","58.09","KUUJJUAQ A","7113535","2020-03-20 05:00","2020","03","20","05:00","-26.7","","-29.4","","79","","","","22","","13","","24.1","","102.01","","","","-37","","NA"
"-68.42","58.09","KUUJJUAQ A","7113535","2020-03-20 06:00","2020","03","20","06:00","-27.7","","-30.5","","78","","","","16","","4","","24.1","","101.96","","","","-32","","NA"
"-68.42","58.09","KUUJJUAQ A","7113535","2020-03-20 07:00","2020","03","20","07:00","-25.5","","-28.6","","76","","","","23","","10","","24.1","","101.91","","","","-34","","Clear"
"-68.42","58.09","KUUJJUAQ A","7113535","2020-03-20 08:00","2020","03","20","08:00","-23.0","","-27.3","","69","","","","24","","11","","24.1","","101.90","","","","-31","","NA"
"-68.42","58.09","KUUJJUAQ A","7113535","2020-03-20 09:00","2020","03","20","09:00","-22.4","","-27.3","","65","","","","17","","10","","24.1","","101.78","","","","-30","","NA"
"-68.42","58.09","KUUJJUAQ A","7113535","2020-03-20 10:00","2020","03","20","10:00","-19.3","","-25.4","","59","","","","24","","8","","24.1","","101.72","","","","-25","","Clear"
"-68.42","58.09","KUUJJUAQ A","7113535","2020-03-20 11:00","2020","03","20","11:00","-18.4","","-25.1","","57","","","","33","","9","","24.1","","101.62","","","","-25","","NA"
"-68.42","58.09","KUUJJUAQ A","7113535","2020-03-20 12:00","2020","03","20","12:00","-17.5","","-24.4","","56","","","","36","","2","","24.1","","101.52","","","","-19","","NA"
"-68.42","58.09","KUUJJUAQ A","7113535","2020-03-20 13:00","2020","03","20","13:00","-17.7","","-24.1","","58","","","","36","","12","","24.1","","101.41","","","","-25","","Mainly Clear"
"-68.42","58.09","KUUJJUAQ A","7113535","2020-03-20 14:00","2020","03","20","14:00","-17.9","","-24.1","","59","","","","36","","12","","24.1","","101.32","","","","-25","","NA"
"-68.42","58.09","KUUJJUAQ A","7113535","2020-03-20 15:00","2020","03","20","15:00","-18.4","","-24.2","","61","","","","35","","16","","24.1","","101.25","","","","-27","","NA"
"-68.42","58.09","KUUJJUAQ A","7113535","2020-03-20 16:00","2020","03","20","16:00","-19.4","","-24.5","","65","","","","35","","18","","24.1","","101.17","","","","-29","","Mainly Clear"
"-68.42","58.09","KUUJJUAQ A","7113535","2020-03-20 17:00","2020","03","20","17:00","-20.6","","-25.1","","68","","","","36","","16","","24.1","","101.10","","","","-30","","NA"
"-68.42","58.09","KUUJJUAQ A","7113535","2020-03-20 18:00","2020","03","20","18:00","-22.7","","-26.5","","72","","","","34","","10","","24.1","","101.07","","","","-30","","NA"
"-68.42","58.09","KUUJJUAQ A","7113535","2020-03-20 19:00","2020","03","20","19:00","-24.7","","-27.6","","77","","","","33","","13","","24.1","","101.00","","","","-34","","Mainly Clear"
"-68.42","58.09","KUUJJUAQ A","7113535","2020-03-20 20:00","2020","03","20","20:00","-25.6","","-28.4","","78","","","","33","","15","","24.1","","100.99","","","","-36","","NA"
"-68.42","58.09","KUUJJUAQ A","7113535","2020-03-20 21:00","2020","03","20","21:00","-25.8","","-28.6","","77","","","","33","","17","","24.1","","100.96","","","","-37","","NA"
"-68.42","58.09","KUUJJUAQ A","7113535","2020-03-20 22:00","2020","03","20","22:00","-26.3","","-29.1","","77","","","","34","","19","","24.1","","100.90","","","","-38","","Mainly Clear"
"-68.42","58.09","KUUJJUAQ A","7113535","2020-03-20 23:00","2020","03","20","23:00","-26.5","","-29.3","","78","","","","32","","17","","24.1","","100.83","","","","-38","","Ice Crystals"
"-68.42","58.09","KUUJJUAQ A","7113535","2020-03-21 00:00","2020","03","21","00:00","-26.0","","-28.8","","78","","","","33","","21","","24.1","","100.80","","","","-38","","Ice Crystals"
"-68.42","58.09","KUUJJUAQ A","7113535","2020-03-21 01:00","2020","03","21","01:00","-24.7","","-27.5","","78","","","","32","","22","","24.1","","100.79","","","","-37","","Ice Crystals"
"-68.42","58.09","KUUJJUAQ A","7113535","2020-03-21 02:00","2020","03","21","02:00","-25.4","","-28.5","","76","","","","32","","20","","24.1","","100.80","","","","-37","","Ice Crystals"
"-68.42","58.09","KUUJJUAQ A","7113535","2020-03-21 03:00","2020","03","21","03:00","-25.6","","-28.9","","74","","","","32","","24","","24.1","","100.82","","","","-39","","Ice Crystals"
"-68.42","58.09","KUUJJUAQ A","7113535","2020-03-21 04:00","2020","03","21","04:00","-26.5","","-30.1","","72","","","","31","","24","","24.1","","100.82","","","","-40","","Ice Crystals"
"-68.42","58.09","KUUJJUAQ A","7113535","2020-03-21 05:00","2020","03","21","05:00","-26.7","","-29.8","","75","","","","30","","9","","24.1","","100.83","","","","-35","","Ice Crystals"
"-68.42","58.09","KUUJJUAQ A","7113535","2020-03-21 06:00","2020","03","21","06:00","-25.2","","-27.8","","79","","","","22","","5","","24.1","","100.88","","","","-30","","Ice Crystals"
"-68.42","58.09","KUUJJUAQ A","7113535","2020-03-21 07:00","2020","03","21","07:00","-24.0","","-27.2","","75","","","","25","","7","","19.3","","100.94","","","","-30","","Snow,Blowing Snow"
"-68.42","58.09","KUUJJUAQ A","7113535","2020-03-21 08:00","2020","03","21","08:00","-22.2","","-25.7","","74","","","","36","","3","","12.9","","101.00","","","","-25","","Snow,Blowing Snow"
"-68.42","58.09","KUUJJUAQ A","7113535","2020-03-21 09:00","2020","03","21","09:00","-19.5","","-23.4","","72","","","","31","","20","","16.1","","101.04","","","","-30","","Snow,Blowing Snow"
"-68.42","58.09","KUUJJUAQ A","7113535","2020-03-21 10:00","2020","03","21","10:00","-18.6","","-22.7","","71","","","","31","","29","","16.1","","101.05","","","","-31","","Snow,Blowing Snow"
"-68.42","58.09","KUUJJUAQ A","7113535","2020-03-21 11:00","2020","03","21","11:00","-18.4","","-22.8","","69","","","","31","","31","","19.3","","101.11","","","","-31","","Snow,Blowing Snow"
"-68.42","58.09","KUUJJUAQ A","7113535","2020-03-21 12:00","2020","03","21","12:00","-18.1","","-23.2","","65","","","","30","","28","","24.1","","101.19","","","","-30","","Snow,Blowing Snow"
"-68.42","58.09","KUUJJUAQ A","7113535","2020-03-21 13:00","2020","03","21","13:00","-18.0","","-23.5","","63","","","","30","","28","","24.1","","101.30","","","","-30","","Snow,Blowing Snow"
"-68.42","58.09","KUUJJUAQ A","7113535","2020-03-21 14:00","2020","03","21","14:00","-18.5","","-24.2","","61","","","","30","","28","","16.1","","101.37","","","","-30","","Snow,Blowing Snow"
"-68.42","58.09","KUUJJUAQ A","7113535","2020-03-21 15:00","2020","03","21","15:00","-19.6","","-25.7","","59","","","","27","","18","","24.1","","101.43","","","","-29","","Snow,Blowing Snow"
"-68.42","58.09","KUUJJUAQ A","7113535","2020-03-21 16:00","2020","03","21","16:00","-20.9","","-26.5","","62","","","","28","","22","","24.1","","101.49","","","","-32","","Mostly Cloudy"
"-68.42","58.09","KUUJJUAQ A","7113535","2020-03-21 17:00","2020","03","21","17:00","-21.2","","-26.6","","62","","","","27","","22","","24.1","","101.56","","","","-32","","NA"
"-68.42","58.09","KUUJJUAQ A","7113535","2020-03-21 18:00","2020","03","21","18:00","-22.4","","-27.4","","65","","","","27","","17","","24.1","","101.62","","","","-33","","NA"
"-68.42","58.09","KUUJJUAQ A","7113535","2020-03-21 19:00","2020","03","21","19:00","-22.8","","-27.2","","68","","","","26","","18","","24.1","","101.67","","","","-33","","Mostly Cloudy"
"-68.42","58.09","KUUJJUAQ A","7113535","2020-03-21 20:00","2020","03","21","20:00","-22.3","","-26.7","","68","","","","26","","17","","24.1","","101.68","","","","-33","","NA"
"-68.42","58.09","KUUJJUAQ A","7113535","2020-03-21 21:00","2020","03","21","21:00","-21.2","","-25.7","","68","","","","27","","22","","24.1","","101.68","","","","-32","","Snow"
"-68.42","58.09","KUUJJUAQ A","7113535","2020-03-21 22:00","2020","03","21","22:00","-21.2","","-25.6","","68","","","","27","","21","","24.1","","101.75","","","","-32","","Mostly Cloudy"
"-68.42","58.09","KUUJJUAQ A","7113535","2020-03-21 23:00","2020","03","21","23:00","-21.7","","-25.9","","70","","","","27","","21","","24.1","","101.78","","","","-33","","NA"
"-68.42","58.09","KUUJJUAQ A","7113535","2020-03-22 00:00","2020","03","22","00:00","-22.1","","-26.1","","70","","","","26","","16","","24.1","","101.79","","","","-32","","NA"
"-68.42","58.09","KUUJJUAQ A","7113535","2020-03-22 01:00","2020","03","22","01:00","-22.2","","-26.5","","68","","","","25","","11","","24.1","","101.86","","","","-30","","Mainly Clear"
"-68.42","58.09","KUUJJUAQ A","7113535","2020-03-22 02:00","2020","03","22","02:00","-22.3","","-26.7","","68","","","","21","","16","","24.1","","101.91","","","","-32","","NA"
"-68.42","58.09","KUUJJUAQ A","7113535","2020-03-22 03:00","2020","03","22","03:00","-22.5","","-26.6","","70","","","","20","","7","","24.1","","101.99","","","","-29","","NA"
"-68.42","58.09","KUUJJUAQ A","7113535","2020-03-22 04:00","2020","03","22","04:00","-23.0","","-26.5","","74","","","","25","","14","","24.1","","102.03","","","","-32","","Mainly Clear"
"-68.42","58.09","KUUJJUAQ A","7113535","2020-03-22 05:00","2020","03","22","05:00","-21.9","","-25.8","","71","","","","25","","16","","24.1","","102.09","","","","-32","","NA"
"-68.42","58.09","KUUJJUAQ A","7113535","2020-03-22 06:00","2020","03","22","06:00","-22.2","","-26.5","","69","","","","25","","12","","24.1","","102.13","","","","-31","","NA"
"-68.42","58.09","KUUJJUAQ A","7113535","2020-03-22 07:00","2020","03","22","07:00","-21.3","","-26.5","","64","","","","26","","19","","24.1","","102.19","","","","-32","","Mainly Clear"
"-68.42","58.09","KUUJJUAQ A","7113535","2020-03-22 08:00","2020","03","22","08:00","-19.7","","-25.8","","59","","","","25","","17","","24.1","","102.21","","","","-29","","NA"
"-68.42","58.09","KUUJJUAQ A","7113535","2020-03-22 09:00","2020","03","22","09:00","-18.7","","-25.2","","57","","","","25","","24","","24.1","","102.21","","","","-30","","NA"
"-68.42","58.09","KUUJJUAQ A","7113535","2020-03-22 10:00","2020","03","22","10:00","-17.3","","-24.4","","55","","","","24","","18","","24.1","","102.20","","","","-27","","Mostly Cloudy"
"-68.42","58.09","KUUJJUAQ A","7113535","2020-03-22 11:00","2020","03","22","11:00","-16.3","","-23.6","","54","","","","26","","27","","24.1","","102.19","","","","-27","","NA"
"-68.42","58.09","KUUJJUAQ A","7113535","2020-03-22 12:00","2020","03","22","12:00","-15.9","","-23.3","","54","","","","26","","27","","24.1","","102.14","","","","-27","","NA"
"-68.42","58.09","KUUJJUAQ A","7113535","2020-03-22 13:00","2020","03","22","13:00","-14.6","","-22.2","","53","","","","26","","32","","24.1","","102.06","","","","-26","","Mostly Cloudy"
"-68.42","58.09","KUUJJUAQ A","7113535","2020-03-22 14:00","2020","03","22","14:00","-14.6","","-22.0","","54","","","","26","","24","","24.1","","102.11","","","","-24","","NA"
"-68.42","58.09","KUUJJUAQ A","7113535","2020-03-22 15:00","2020","03","22","15:00","-14.6","","-21.9","","54","","","","25","","39","","24.1","","102.05","","","","-27","","NA"
"-68.42","58.09","KUUJJUAQ A","7113535","2020-03-22 16:00","2020","03","22","16:00","-14.1","","-21.7","","53","","","","26","","31","","24.1","","102.01","","","","-25","","Blowing Snow"
"-68.42","58.09","KUUJJUAQ A","7113535","2020-03-22 17:00","2020","03","22","17:00","-13.3","","-20.8","","54","","","","25","","24","","24.1","","101.99","","","","-23","","Blowing Snow"
"-68.42","58.09","KUUJJUAQ A","7113535","2020-03-22 18:00","2020","03","22","18:00","-13.0","","-20.3","","55","","","","25","","28","","24.1","","101.94","","","","-23","","Blowing Snow"
"-68.42","58.09","KUUJJUAQ A","7113535","2020-03-22 19:00","2020","03","22","19:00","-13.4","","-21.0","","54","","","","23","","26","","24.1","","101.96","","","","-23","","Blowing Snow"
"-68.42","58.09","KUUJJUAQ A","7113535","2020-03-22 20:00","2020","03","22","20:00","-13.5","","-21.3","","53","","","","22","","26","","24.1","","101.96","","","","-23","","Blowing Snow"
"-68.42","58.09","KUUJJUAQ A","7113535","2020-03-22 21:00","2020","03","22","21:00","-12.9","","-21.0","","51","","","","24","","28","","24.1","","101.85","","","","-23","","Blowing Snow"
"-68.42","58.09","KUUJJUAQ A","7113535","2020-03-22 22:00","2020","03","22","22:00","-12.9","","-20.8","","52","","","","23","","28","","24.1","","101.81","","","","-23","","Mainly Clear"
"-68.42","58.09","KUUJJUAQ A","7113535","2020-03-22 23:00","2020","03","22","23:00","-12.8","","-20.4","","54","","","","24","","18","","24.1","","101.81","","","","-21","","NA"
"-68.42","58.09","KUUJJUAQ A","7113535","2020-03-23 00:00","2020","03","23","00:00","-12.6","","-20.2","","53","","","","20","","17","","24.1","","101.79","","","","-20","","NA"
"-68.42","58.09","KUUJJUAQ A","7113535","2020-03-23 01:00","2020","03","23","01:00","-13.9","","-20.4","","59","","","","17","","8","","24.1","","101.78","","","","-19","","Mainly Clear"
"-68.42","58.09","KUUJJUAQ A","7113535","2020-03-23 02:00","2020","03","23","02:00","-12.5","","-20.5","","52","","","","22","","12","","24.1","","101.76","","","","-19","","NA"
"-68.42","58.09","KUUJJUAQ A","7113535","2020-03-23 03:00","2020","03","23","03:00","-13.0","","-20.4","","54","","","","21","","16","","24.1","","101.71","","","","-21","","NA"
"-68.42","58.09","KUUJJUAQ A","7113535","2020-03-23 04:00","2020","03","23","04:00","-12.8","","-20.6","","53","","","","21","","22","","24.1","","101.62","","","","-22","","Mostly Cloudy"
"-68.42","58.09","KUUJJUAQ A","7113535","2020-03-23 05:00","2020","03","23","05:00","-12.9","","-20.5","","54","","","","21","","26","","24.1","","101.51","","","","-23","","NA"
"-68.42","58.09","KUUJJUAQ A","7113535","2020-03-23 06:00","2020","03","23","06:00","-13.1","","-20.5","","54","","","","21","","18","","24.1","","101.46","","","","-21","","NA"
"-68.42","58.09","KUUJJUAQ A","7113535","2020-03-23 07:00","2020","03","23","07:00","-12.8","","-20.3","","54","","","","20","","22","","24.1","","101.32","","","","-22","","Mostly Cloudy"
"-68.42","58.09","KUUJJUAQ A","7113535","2020-03-23 08:00","2020","03","23","08:00","-11.2","","-19.4","","51","","","","21","","29","","24.1","","101.16","","","","-21","","NA"
"-68.42","58.09","KUUJJUAQ A","7113535","2020-03-23 09:00","2020","03","23","09:00","-10.0","","-18.7","","49","","","","20","","32","","24.1","","101.08","","","","-20","","NA"
"-68.42","58.09","KUUJJUAQ A","7113535","2020-03-23 10:00","2020","03","23","10:00","-8.4","","-17.6","","48","","","","20","","31","","24.1","","100.95","","","","-18","","Mostly Cloudy"
"-68.42","58.09","KUUJJUAQ A","7113535","2020-03-23 11:00","2020","03","23","11:00","-6.9","","-16.7","","46","","","","21","","34","","24.1","","100.83","","","","-16","","NA"
"-68.42","58.09","KUUJJUAQ A","7113535","2020-03-23 12:00","2020","03","23","12:00","-5.5","","-14.9","","48","","","","21","","37","","24.1","","100.67","","","","-14","","NA"
"-68.42","58.09","KUUJJUAQ A","7113535","2020-03-23 13:00","2020","03","23","13:00","-4.2","","-13.7","","48","","","","21","","32","","24.1","","100.56","","","","-12","","Mostly Cloudy"
"-68.42","58.09","KUUJJUAQ A","7113535","2020-03-23 14:00","2020","03","23","14:00","-3.0","","-13.0","","46","","","","22","","30","","24.1","","100.45","","","","-10","","NA"
"-68.42","58.09","KUUJJUAQ A","7113535","2020-03-23 15:00","2020","03","23","15:00","-3.2","","-12.6","","48","","","","23","","25","","24.1","","100.36","","","","-10","","NA"
"-68.42","58.09","KUUJJUAQ A","7113535","2020-03-23 16:00","2020","03","23","16:00","-3.1","","-11.5","","52","","","","22","","21","","24.1","","100.28","","","","-9","","Mostly Cloudy"
"-68.42","58.09","KUUJJUAQ A","7113535","2020-03-23 17:00","2020","03","23","17:00","-3.3","","-9.9","","61","","","","21","","22","","24.1","","100.25","","","","-10","","NA"
"-68.42","58.09","KUUJJUAQ A","7113535","2020-03-23 18:00","2020","03","23","18:00","-4.2","","-7.7","","77","","","","22","","18","","19.3","","100.23","","","","-10","","Snow"
"-68.42","58.09","KUUJJUAQ A","7113535","2020-03-23 19:00","2020","03","23","19:00","-4.5","","-8.2","","76","","","","22","","22","","16.1","","100.19","","","","-11","","Snow,Blowing Snow"
"-68.42","58.09","KUUJJUAQ A","7113535","2020-03-23 20:00","2020","03","23","20:00","-4.7","","-8.1","","77","","","","22","","25","","19.3","","100.13","","","","-12","","Snow,Blowing Snow"
"-68.42","58.09","KUUJJUAQ A","7113535","2020-03-23 21:00","2020","03","23","21:00","-5.1","","-7.3","","85","","","","22","","18","","4.8","","100.06","","","","-11","","Snow,Blowing Snow"
"-68.42","58.09","KUUJJUAQ A","7113535","2020-03-23 22:00","2020","03","23","22:00","-5.4","","-7.1","","88","","","","21","","16","","9.7","","100.00","","","","-11","","Snow,Blowing Snow"
"-68.42","58.09","KUUJJUAQ A","7113535","2020-03-23 23:00","2020","03","23","23:00","-5.6","","-7.0","","90","","","","22","","14","","6.4","","99.91","","","","-11","","Snow,Blowing Snow"
"-68.42","58.09","KUUJJUAQ A","7113535","2020-03-24 00:00","2020","03","24","00:00","-5.8","","-7.6","","88","","","","22","","14","","12.9","","99.87","","","","-11","","Snow,Blowing Snow"
"-68.42","58.09","KUUJJUAQ A","7113535","2020-03-24 01:00","2020","03","24","01:00","-5.9","","-7.4","","89","","","","22","","16","","9.7","","99.84","","","","-12","","Snow,Blowing Snow"
"-68.42","58.09","KUUJJUAQ A","7113535","2020-03-24 02:00","2020","03","24","02:00","-6.3","","-8.0","","88","","","","22","","11","","12.9","","99.84","","","","-11","","Snow,Blowing Snow"
"-68.42","58.09","KUUJJUAQ A","7113535","2020-03-24 03:00","2020","03","24","03:00","-7.1","","-8.8","","88","","","","20","","14","","16.1","","99.80","","","","-13","","Snow,Blowing Snow"
"-68.42","58.09","KUUJJUAQ A","7113535","2020-03-24 04:00","2020","03","24","04:00","-7.4","","-8.8","","90","","","","22","","12","","12.9","","99.80","","","","-13","","Snow,Blowing Snow"
"-68.42","58.09","KUUJJUAQ A","7113535","2020-03-24 05:00","2020","03","24","05:00","-6.3","","-7.9","","88","","","","22","","16","","4.8","","99.80","","","","-12","","Snow,Blowing Snow"
"-68.42","58.09","KUUJJUAQ A","7113535","2020-03-24 06:00","2020","03","24","06:00","-6.3","","-7.8","","89","","","","22","","15","","4.0","","99.81","","","","-12","","Snow"
"-68.42","58.09","KUUJJUAQ A","7113535","2020-03-24 07:00","2020","03","24","07:00","-5.8","","-7.9","","85","","","","26","","18","","16.1","","99.86","","","","-12","","Snow"
"-68.42","58.09","KUUJJUAQ A","7113535","2020-03-24 08:00","2020","03","24","08:00","-7.1","","-10.9","","74","","","","27","","24","","12.9","","99.98","","","","-15","","Snow,Blowing Snow"
"-68.42","58.09","KUUJJUAQ A","7113535","2020-03-24 09:00","2020","03","24","09:00","-7.7","","-13.4","","64","","","","27","","28","","24.1","","100.11","","","","-16","","Snow,Blowing Snow"
"-68.42","58.09","KUUJJUAQ A","7113535","2020-03-24 10:00","2020","03","24","10:00","-8.6","","-14.3","","64","","","","26","","28","","24.1","","100.23","","","","-17","","Blowing Snow"
"-68.42","58.09","KUUJJUAQ A","7113535","2020-03-24 11:00","2020","03","24","11:00","-9.0","","-14.7","","64","","","","27","","29","","24.1","","100.35","","","","-18","","Blowing Snow"
"-68.42","58.09","KUUJJUAQ A","7113535","2020-03-24 12:00","2020","03","24","12:00","-8.4","","-14.1","","64","","","","27","","26","","24.1","","100.41","","","","-17","","Blowing Snow"
"-68.42","58.09","KUUJJUAQ A","7113535","2020-03-24 13:00","2020","03","24","13:00","-7.9","","-14.0","","62","","","","27","","30","","24.1","","100.50","","","","-17","","Snow,Blowing Snow"
"-68.42","58.09","KUUJJUAQ A","7113535","2020-03-24 14:00","2020","03","24","14:00","-8.7","","-13.9","","66","","","","26","","27","","24.1","","100.60","","","","-17","","Snow,Blowing Snow"
"-68.42","58.09","KUUJJUAQ A","7113535","2020-03-24 15:00","2020","03","24","15:00","-8.9","","-14.6","","64","","","","28","","30","","24.1","","100.70","","","","-18","","Snow,Blowing Snow"
"-68.42","58.09","KUUJJUAQ A","7113535","2020-03-24 16:00","2020","03","24","16:00","-9.4","","-15.2","","63","","","","27","","28","","24.1","","100.81","","","","-18","","Snow,Blowing Snow"
"-68.42","58.09","KUUJJUAQ A","7113535","2020-03-24 17:00","2020","03","24","17:00","-10.3","","-15.2","","68","","","","27","","24","","24.1","","100.88","","","","-19","","Blowing Snow"
"-68.42","58.09","KUUJJUAQ A","7113535","2020-03-24 18:00","2020","03","24","18:00","-11.2","","-15.3","","72","","","","24","","9","","24.1","","100.98","","","","-16","","NA"
"-68.42","58.09","KUUJJUAQ A","7113535","2020-03-24 19:00","2020","03","24","19:00","-10.9","","-15.2","","71","","","","25","","18","","24.1","","101.00","","","","-19","","Cloudy"
"-68.42","58.09","KUUJJUAQ A","7113535","2020-03-24 20:00","2020","03","24","20:00","-10.8","","-15.2","","70","","","","26","","13","","24.1","","101.05","","","","-17","","NA"
"-68.42","58.09","KUUJJUAQ A","7113535","2020-03-24 21:00","2020","03","24","21:00","-11.1","","-15.2","","72","","","","25","","17","","24.1","","101.03","","","","-19","","NA"
"-68.42","58.09","KUUJJUAQ A","7113535","2020-03-24 22:00","2020","03","24","22:00","-11.1","","-15.3","","71","","","","25","","10","","24.1","","101.05","","","","-17","","Cloudy"
"-68.42","58.09","KUUJJUAQ A","7113535","2020-03-24 23:00","2020","03","24","23:00","-11.2","","-15.1","","73","","","","26","","8","","24.1","","101.07","","","","-16","","NA"
"-68.42","58.09","KUUJJUAQ A","7113535","2020-03-25 00:00","2020","03","25","00:00","-11.3","","-15.3","","73","","","","27","","16","","24.1","","101.13","","","","-19","","Snow"
"-68.42","58.09","KUUJJUAQ A","7113535","2020-03-25 01:00","2020","03","25","01:00","-11.6","","-15.6","","73","","","","26","","9","","24.1","","101.14","","","","-17","","Snow"
"-68.42","58.09","KUUJJUAQ A","7113535","2020-03-25 02:00","2020","03","25","02:00","-11.9","","-15.8","","73","","","","26","","5","","24.1","","101.18","","","","-15","","Snow"
"-68.42","58.09","KUUJJUAQ A","7113535","2020-03-25 03:00","2020","03","25","03:00","-12.7","","-16.0","","77","","","","25","","9","","4.8","","101.21","","","","-18","","Snow"
"-68.42","58.09","KUUJJUAQ A","7113535","2020-03-25 04:00","2020","03","25","04:00","-13.4","","-15.6","","84","","","","24","","7","","9.7","","101.21","","","","-18","","Snow"
"-68.42","58.09","KUUJJUAQ A","7113535","2020-03-25 05:00","2020","03","25","05:00","-14.0","","-15.7","","87","","","","25","","9","","19.3","","101.23","","","","-20","","Snow"
"-68.42","58.09","KUUJJUAQ A","7113535","2020-03-25 06:00","2020","03","25","06:00","-13.8","","-15.8","","84","","","","24","","9","","19.3","","101.30","","","","-19","","NA"
"-68.42","58.09","KUUJJUAQ A","7113535","2020-03-25 07:00","2020","03","25","07:00","-13.0","","-15.4","","82","","","","24","","7","","24.1","","101.36","","","","-18","","Mostly Cloudy"
"-68.42","58.09","KUUJJUAQ A","7113535","2020-03-25 08:00","2020","03","25","08:00","-11.6","","-17.1","","64","","","","30","","13","","24.1","","101.40","","","","-18","","NA"
"-68.42","58.09","KUUJJUAQ A","7113535","2020-03-25 09:00","2020","03","25","09:00","-11.8","","-16.8","","67","","","","36","","3","","24.1","","101.42","","","","-14","","NA"
"-68.42","58.09","KUUJJUAQ A","7113535","2020-03-25 10:00","2020","03","25","10:00","-10.7","","-16.2","","64","","","","13","","10","","24.1","","101.42","","","","-16","","Mostly Cloudy"
"-68.42","58.09","KUUJJUAQ A","7113535","2020-03-25 11:00","2020","03","25","11:00","-10.2","","-16.2","","62","","","","6","","5","","24.1","","101.40","","","","-13","","NA"
"-68.42","58.09","KUUJJUAQ A","7113535","2020-03-25 12:00","2020","03","25","12:00","-10.1","","-16.1","","62","","","","6","","14","","24.1","","101.36","","","","-17","","NA"
"-68.42","58.09","KUUJJUAQ A","7113535","2020-03-25 13:00","2020","03","25","13:00","-11.2","","-16.4","","66","","","","6","","20","","24.1","","101.29","","","","-19","","Cloudy"
"-68.42","58.09","KUUJJUAQ A","7113535","2020-03-25 14:00","2020","03","25","14:00","-11.5","","-16.4","","68","","","","5","","17","","24.1","","101.22","","","","-19","","NA"
"-68.42","58.09","KUUJJUAQ A","7113535","2020-03-25 15:00","2020","03","25","15:00","-10.7","","-15.1","","70","","","","6","","20","","24.1","","101.06","","","","-19","","NA"
"-68.42","58.09","KUUJJUAQ A","7113535","2020-03-25 16:00","2020","03","25","16:00","-9.1","","-13.3","","71","","","","9","","20","","19.3","","100.94","","","","-17","","Snow"
"-68.42","58.09","KUUJJUAQ A","7113535","2020-03-25 17:00","2020","03","25","17:00","-7.6","","-10.8","","78","","","","11","","17","","4.8","","100.81","","","","-14","","Snow"
"-68.42","58.09","KUUJJUAQ A","7113535","2020-03-25 18:00","2020","03","25","18:00","-8.2","","-9.9","","87","","","","9","","17","","2.4","","100.64","","","","-15","","Snow,Blowing Snow"
"-68.42","58.09","KUUJJUAQ A","7113535","2020-03-25 19:00","2020","03","25","19:00","-7.7","","-9.8","","84","","","","10","","16","","9.7","","100.49","","","","-14","","Snow,Blowing Snow"
"-68.42","58.09","KUUJJUAQ A","7113535","2020-03-25 20:00","2020","03","25","20:00","-6.5","","-9.0","","82","","","","11","","16","","16.1","","100.31","","","","-13","","Snow,Blowing Snow"
"-68.42","58.09","KUUJJUAQ A","7113535","2020-03-25 21:00","2020","03","25","21:00","-5.4","","-7.6","","84","","","","13","","14","","19.3","","100.13","","","","-11","","Snow,Blowing Snow"
"-68.42","58.09","KUUJJUAQ A","7113535","2020-03-25 22:00","2020","03","25","22:00","-3.0","","-6.8","","75","","","","16","","10","","24.1","","99.98","","","","-7","","Snow"
"-68.42","58.09","KUUJJUAQ A","7113535","2020-03-25 23:00","2020","03","25","23:00","-0.8","","-4.4","","76","","","","18","","21","","24.1","","99.81","","","","-6","","Snow,Blowing Snow"
"-68.42","58.09","KUUJJUAQ A","7113535","2020-03-26 00:00","2020","03","26","00:00","0.0","","-3.2","","79","","","","18","","24","","24.1","","99.69","","","","-6","","Snow,Blowing Snow"
"-68.42","58.09","KUUJJUAQ A","7113535","2020-03-26 01:00","2020","03","26","01:00","0.4","","-3.2","","76","","","","18","","25","","19.3","","99.59","","","","","","Snow,Blowing Snow"
"-68.42","58.09","KUUJJUAQ A","7113535","2020-03-26 02:00","2020","03","26","02:00","-0.1","","-2.4","","85","","","","18","","22","","16.1","","99.50","","","","-6","","Snow,Blowing Snow"
"-68.42","58.09","KUUJJUAQ A","7113535","2020-03-26 03:00","2020","03","26","03:00","-0.2","","-2.0","","88","","","","19","","22","","6.4","","99.43","","","","-6","","Snow,Blowing Snow"
"-68.42","58.09","KUUJJUAQ A","7113535","2020-03-26 04:00","2020","03","26","04:00","-0.4","","-1.5","","92","","","","19","","27","","4.8","","99.35","","","","-7","","Snow,Blowing Snow"
"-68.42","58.09","KUUJJUAQ A","7113535","2020-03-26 05:00","2020","03","26","05:00","-0.4","","-1.3","","94","","","","19","","27","","4.8","","99.32","","","","-7","","Snow,Blowing Snow"
"-68.42","58.09","KUUJJUAQ A","7113535","2020-03-26 06:00","2020","03","26","06:00","-0.2","","-1.3","","92","","","","19","","29","","4.0","","99.27","","","","-7","","Snow,Blowing Snow"
"-68.42","58.09","KUUJJUAQ A","7113535","2020-03-26 07:00","2020","03","26","07:00","0.3","","-1.2","","89","","","","19","","27","","12.9","","99.22","","","","","","Snow,Blowing Snow"
"-68.42","58.09","KUUJJUAQ A","7113535","2020-03-26 08:00","2020","03","26","08:00","0.7","","-0.9","","89","","","","19","","27","","9.7","","99.16","","","","","","Snow,Blowing Snow"
"-68.42","58.09","KUUJJUAQ A","7113535","2020-03-26 09:00","2020","03","26","09:00","-3.7","","-6.7","","80","","","","27","","30","","2.4","","99.31","","","","-11","","Snow,Blowing Snow"
"-68.42","58.09","KUUJJUAQ A","7113535","2020-03-26 10:00","2020","03","26","10:00","-6.3","","-10.8","","71","","","","26","","26","","19.3","","99.49","","","","-14","","Snow,Blowing Snow"
"-68.42","58.09","KUUJJUAQ A","7113535","2020-03-26 11:00","2020","03","26","11:00","-9.1","","-15.0","","62","","","","25","","42","","24.1","","99.60","","","","-20","","Blowing Snow"
"-68.42","58.09","KUUJJUAQ A","7113535","2020-03-26 12:00","2020","03","26","12:00","-9.1","","-15.6","","60","","","","26","","38","","24.1","","99.72","","","","-19","","Blowing Snow"
"-68.42","58.09","KUUJJUAQ A","7113535","2020-03-26 13:00","2020","03","26","13:00","-9.0","","-15.4","","60","","","","24","","35","","24.1","","99.80","","","","-19","","Blowing Snow"
"-68.42","58.09","KUUJJUAQ A","7113535","2020-03-26 14:00","2020","03","26","14:00","-9.3","","-15.7","","60","","","","25","","36","","24.1","","99.91","","","","-19","","Blowing Snow"
"-68.42","58.09","KUUJJUAQ A","7113535","2020-03-26 15:00","2020","03","26","15:00","-10.5","","-15.9","","65","","","","24","","42","","24.1","","100.02","","","","-22","","Blowing Snow"
"-68.42","58.09","KUUJJUAQ A","7113535","2020-03-26 16:00","2020","03","26","16:00","-11.3","","-17.2","","62","","","","25","","37","","24.1","","100.16","","","","-22","","Blowing Snow"
"-68.42","58.09","KUUJJUAQ A","7113535","2020-03-26 17:00","2020","03","26","17:00","-12.0","","-17.2","","66","","","","24","","33","","24.1","","100.38","","","","-23","","Snow,Blowing Snow"
"-68.42","58.09","KUUJJUAQ A","7113535","2020-03-26 18:00","2020","03","26","18:00","-12.9","","-18.0","","66","","","","25","","37","","19.3","","100.44","","","","-24","","Snow,Blowing Snow"
"-68.42","58.09","KUUJJUAQ A","7113535","2020-03-26 19:00","2020","03","26","19:00","-13.2","","-17.4","","71","","","","23","","27","","19.3","","100.59","","","","-23","","Snow,Blowing Snow"
"-68.42","58.09","KUUJJUAQ A","7113535","2020-03-26 20:00","2020","03","26","20:00","-13.1","","-17.7","","69","","","","25","","24","","24.1","","100.66","","","","-23","","Snow,Blowing Snow"
"-68.42","58.09","KUUJJUAQ A","7113535","2020-03-26 21:00","2020","03","26","21:00","-13.7","","-18.1","","70","","","","26","","33","","24.1","","100.73","","","","-25","","Snow,Blowing Snow"
"-68.42","58.09","KUUJJUAQ A","7113535","2020-03-26 22:00","2020","03","26","22:00","-15.2","","-19.5","","70","","","","26","","36","","24.1","","100.84","","","","-27","","Blowing Snow"
"-68.42","58.09","KUUJJUAQ A","7113535","2020-03-26 23:00","2020","03","26","23:00","-16.1","","-20.2","","71","","","","23","","17","","24.1","","100.95","","","","-25","","Blowing Snow"
"-68.42","58.09","KUUJJUAQ A","7113535","2020-03-27 00:00","2020","03","27","00:00","-17.0","","-21.1","","71","","","","24","","15","","24.1","","101.02","","","","-25","","Blowing Snow"
"-68.42","58.09","KUUJJUAQ A","7113535","2020-03-27 01:00","2020","03","27","01:00","-17.7","","-21.6","","72","","","","22","","8","","24.1","","101.16","","","","-24","","Mainly Clear"
"-68.42","58.09","KUUJJUAQ A","7113535","2020-03-27 02:00","2020","03","27","02:00","-18.5","","-22.3","","73","","","","24","","15","","24.1","","101.20","","","","-27","","Blowing Snow"
"-68.42","58.09","KUUJJUAQ A","7113535","2020-03-27 03:00","2020","03","27","03:00","-19.0","","-22.9","","72","","","","22","","16","","24.1","","101.33","","","","-28","","Blowing Snow"
"-68.42","58.09","KUUJJUAQ A","7113535","2020-03-27 04:00","2020","03","27","04:00","-19.7","","-23.5","","73","","","","24","","15","","24.1","","101.44","","","","-29","","Clear"
"-68.42","58.09","KUUJJUAQ A","7113535","2020-03-27 05:00","2020","03","27","05:00","-20.3","","-24.0","","72","","","","22","","12","","24.1","","101.56","","","","-28","","NA"
"-68.42","58.09","KUUJJUAQ A","7113535","2020-03-27 06:00","2020","03","27","06:00","-20.4","","-24.3","","71","","","","24","","11","","24.1","","101.64","","","","-28","","NA"
"-68.42","58.09","KUUJJUAQ A","7113535","2020-03-27 07:00","2020","03","27","07:00","-18.8","","-23.7","","66","","","","22","","12","","24.1","","101.72","","","","-27","","Clear"
"-68.42","58.09","KUUJJUAQ A","7113535","2020-03-27 08:00","2020","03","27","08:00","-17.7","","-23.6","","61","","","","24","","16","","24.1","","101.81","","","","-27","","NA"
"-68.42","58.09","KUUJJUAQ A","7113535","2020-03-27 09:00","2020","03","27","09:00","-14.6","","-22.3","","52","","","","25","","9","","24.1","","101.82","","","","-20","","NA"
"-68.42","58.09","KUUJJUAQ A","7113535","2020-03-27 10:00","2020","03","27","10:00","-13.5","","-22.8","","46","","","","31","","11","","24.1","","101.87","","","","-20","","Clear"
"-68.42","58.09","KUUJJUAQ A","7113535","2020-03-27 11:00","2020","03","27","11:00","-12.8","","-23.6","","41","","","","34","","7","","24.1","","101.91","","","","-17","","NA"
"-68.42","58.09","KUUJJUAQ A","7113535","2020-03-27 12:00","2020","03","27","12:00","-12.3","","-21.4","","47","","","","16","","5","","24.1","","101.93","","","","-16","","NA"
"-68.42","58.09","KUUJJUAQ A","7113535","2020-03-27 13:00","2020","03","27","13:00","-12.2","","-22.2","","44","","","","35","","12","","24.1","","101.94","","","","-19","","Clear"
"-68.42","58.09","KUUJJUAQ A","7113535","2020-03-27 14:00","2020","03","27","14:00","-12.3","","-21.2","","48","","","","36","","17","","24.1","","101.98","","","","-20","","NA"
"-68.42","58.09","KUUJJUAQ A","7113535","2020-03-27 15:00","2020","03","27","15:00","-12.4","","-21.2","","48","","","","36","","17","","24.1","","102.00","","","","-20","","NA"
"-68.42","58.09","KUUJJUAQ A","7113535","2020-03-27 16:00","2020","03","27","16:00","-12.3","","-20.5","","51","","","","1","","9","","24.1","","102.09","","","","-18","","Clear"
"-68.42","58.09","KUUJJUAQ A","7113535","2020-03-27 17:00","2020","03","27","17:00","-13.2","","-20.9","","53","","","","2","","9","","24.1","","102.09","","","","-19","","NA"
"-68.42","58.09","KUUJJUAQ A","7113535","2020-03-27 18:00","2020","03","27","18:00","-15.5","","-21.1","","63","","","","35","","11","","24.1","","102.13","","","","-22","","NA"
"-68.42","58.09","KUUJJUAQ A","7113535","2020-03-27 19:00","2020","03","27","19:00","-18.6","","-22.6","","71","","","","33","","15","","24.1","","102.15","","","","-27","","Clear"
"-68.42","58.09","KUUJJUAQ A","7113535","2020-03-27 20:00","2020","03","27","20:00","-19.8","","-23.2","","74","","","","34","","13","","24.1","","102.14","","","","-28","","NA"
"-68.42","58.09","KUUJJUAQ A","7113535","2020-03-27 21:00","2020","03","27","21:00","-20.3","","-23.8","","74","","","","33","","17","","24.1","","102.11","","","","-30","","NA"
"-68.42","58.09","KUUJJUAQ A","7113535","2020-03-27 22:00","2020","03","27","22:00","-21.4","","-24.5","","76","","","","34","","16","","24.1","","102.06","","","","-31","","Clear"
"-68.42","58.09","KUUJJUAQ A","7113535","2020-03-27 23:00","2020","03","27","23:00","-21.9","","-24.5","","80","","","","33","","17","","24.1","","101.99","","","","-32","","NA"
"-68.42","58.09","KUUJJUAQ A","7113535","2020-03-28 00:00","2020","03","28","00:00","-22.5","","-24.8","","82","","","","33","","15","","24.1","","101.95","","","","-32","","NA"
"-68.42","58.09","KUUJJUAQ A","7113535","2020-03-28 01:00","2020","03","28","01:00","-23.0","","-25.1","","83","","","","31","","11","","24.1","","101.92","","","","-31","","Clear"
"-68.42","58.09","KUUJJUAQ A","7113535","2020-03-28 02:00","2020","03","28","02:00","-23.0","","-25.0","","84","","","","32","","5","","24.1","","101.86","","","","-28","","NA"
"-68.42","58.09","KUUJJUAQ A","7113535","2020-03-28 03:00","2020","03","28","03:00","-23.3","","-25.6","","82","","","","31","","15","","24.1","","101.83","","","","-33","","NA"
"-68.42","58.09","KUUJJUAQ A","7113535","2020-03-28 04:00","2020","03","28","04:00","-23.1","","-25.3","","82","","","","32","","6","","24.1","","101.82","","","","-29","","Ice Crystals"
"-68.42","58.09","KUUJJUAQ A","7113535","2020-03-28 05:00","2020","03","28","05:00","-24.3","","-26.7","","81","","","","29","","7","","24.1","","101.79","","","","-31","","NA"
"-68.42","58.09","KUUJJUAQ A","7113535","2020-03-28 06:00","2020","03","28","06:00","-23.4","","-25.8","","81","","","","27","","8","","24.1","","101.81","","","","-30","","NA"
"-68.42","58.09","KUUJJUAQ A","7113535","2020-03-28 07:00","2020","03","28","07:00","-21.2","","-23.6","","81","","","","36","","3","","24.1","","101.82","","","","-24","","Ice Crystals"
"-68.42","58.09","KUUJJUAQ A","7113535","2020-03-28 08:00","2020","03","28","08:00","-17.8","","-20.9","","77","","","","36","","3","","24.1","","101.78","","","","-20","","Snow"
"-68.42","58.09","KUUJJUAQ A","7113535","2020-03-28 09:00","2020","03","28","09:00","-14.9","","-19.2","","70","","","","35","","12","","19.3","","101.68","","","","-22","","Snow"
"-68.42","58.09","KUUJJUAQ A","7113535","2020-03-28 10:00","2020","03","28","10:00","-13.6","","-18.0","","70","","","","34","","13","","24.1","","101.64","","","","-21","","Snow"
"-68.42","58.09","KUUJJUAQ A","7113535","2020-03-28 11:00","2020","03","28","11:00","-11.9","","-17.3","","65","","","","33","","14","","24.1","","101.56","","","","-19","","NA"
"-68.42","58.09","KUUJJUAQ A","7113535","2020-03-28 12:00","2020","03","28","12:00","-11.2","","-16.5","","65","","","","34","","17","","24.1","","101.54","","","","-19","","NA"
"-68.42","58.09","KUUJJUAQ A","7113535","2020-03-28 13:00","2020","03","28","13:00","-10.3","","-15.7","","65","","","","33","","14","","24.1","","101.49","","","","-17","","Mainly Clear"
"-68.42","58.09","KUUJJUAQ A","7113535","2020-03-28 14:00","2020","03","28","14:00","-9.6","","-15.6","","62","","","","30","","14","","24.1","","101.48","","","","-16","","NA"
"-68.42","58.09","KUUJJUAQ A","7113535","2020-03-28 15:00","2020","03","28","15:00","-9.7","","-15.9","","61","","","","33","","11","","24.1","","101.50","","","","-15","","NA"
"-68.42","58.09","KUUJJUAQ A","7113535","2020-03-28 16:00","2020","03","28","16:00","-10.1","","-15.9","","63","","","","31","","10","","24.1","","101.54","","","","-15","","Clear"
"-68.42","58.09","KUUJJUAQ A","7113535","2020-03-28 17:00","2020","03","28","17:00","-11.7","","-17.0","","65","","","","34","","15","","24.1","","101.59","","","","-19","","NA"
"-68.42","58.09","KUUJJUAQ A","7113535","2020-03-28 18:00","2020","03","28","18:00","-13.6","","-18.5","","67","","","","31","","9","","24.1","","101.65","","","","-19","","NA"
"-68.42","58.09","KUUJJUAQ A","7113535","2020-03-28 19:00","2020","03","28","19:00","-16.0","","-19.5","","75","","","","32","","13","","24.1","","101.67","","","","-24","","Clear"
"-68.42","58.09","KUUJJUAQ A","7113535","2020-03-28 20:00","2020","03","28","20:00","-16.9","","-19.5","","80","","","","23","","5","","24.1","","101.73","","","","-21","","NA"
"-68.42","58.09","KUUJJUAQ A","7113535","2020-03-28 21:00","2020","03","28","21:00","-17.6","","-20.7","","77","","","","29","","5","","24.1","","101.72","","","","-22","","NA"
"-68.42","58.09","KUUJJUAQ A","7113535","2020-03-28 22:00","2020","03","28","22:00","-18.3","","-21.8","","74","","","","26","","6","","24.1","","101.70","","","","-23","","Clear"
"-68.42","58.09","KUUJJUAQ A","7113535","2020-03-28 23:00","2020","03","28","23:00","-19.4","","-22.9","","74","","","","36","","2","","24.1","","101.73","","","","-21","","NA"
"-68.42","58.09","KUUJJUAQ A","7113535","2020-03-29 00:00","2020","03","29","00:00","-22.4","","-25.0","","79","","","","5","","4","","24.1","","101.80","","","","-26","","NA"
"-68.42","58.09","KUUJJUAQ A","7113535","2020-03-29 01:00","2020","03","29","01:00","-23.5","","-26.2","","79","","","","12","","5","","24.1","","101.86","","","","-28","","Clear"
"-68.42","58.09","KUUJJUAQ A","7113535","2020-03-29 02:00","2020","03","29","02:00","-25.1","","-27.8","","79","","","","36","","2","","24.1","","101.94","","","","-27","","NA"
"-68.42","58.09","KUUJJUAQ A","7113535","2020-03-29 03:00","2020","03","29","03:00","-25.9","","-28.6","","79","","","","17","","5","","24.1","","101.98","","","","-31","","NA"
"-68.42","58.09","KUUJJUAQ A","7113535","2020-03-29 04:00","2020","03","29","04:00","-25.7","","-28.3","","79","","","","17","","5","","24.1","","102.06","","","","-31","","Clear"
"-68.42","58.09","KUUJJUAQ A","7113535","2020-03-29 05:00","2020","03","29","05:00","-25.7","","-28.6","","78","","","","20","","7","","24.1","","102.09","","","","-32","","NA"
"-68.42","58.09","KUUJJUAQ A","7113535","2020-03-29 06:00","2020","03","29","06:00","-25.4","","-28.2","","78","","","","20","","5","","24.1","","102.14","","","","-30","","NA"
"-68.42","58.09","KUUJJUAQ A","7113535","2020-03-29 07:00","2020","03","29","07:00","-23.6","","-26.6","","76","","","","13","","3","","24.1","","102.19","","","","-26","","Clear"
"-68.42","58.09","KUUJJUAQ A","7113535","2020-03-29 08:00","2020","03","29","08:00","-20.1","","-24.7","","67","","","","36","","3","","24.1","","102.25","","","","-23","","NA"
"-68.42","58.09","KUUJJUAQ A","7113535","2020-03-29 09:00","2020","03","29","09:00","-17.2","","-23.5","","59","","","","10","","7","","24.1","","102.20","","","","-22","","NA"
"-68.42","58.09","KUUJJUAQ A","7113535","2020-03-29 10:00","2020","03","29","10:00","-11.4","","-19.8","","50","","","","36","","5","","24.1","","102.17","","","","-15","","Clear"
"-68.42","58.09","KUUJJUAQ A","7113535","2020-03-29 11:00","2020","03","29","11:00","-6.5","","-17.4","","42","","","","12","","4","","24.1","","102.14","","","","-8","","NA"
"-68.42","58.09","KUUJJUAQ A","7113535","2020-03-29 12:00","2020","03","29","12:00","-3.9","","-17.9","","33","","","","16","","9","","24.1","","102.09","","","","-8","","NA"
"-68.42","58.09","KUUJJUAQ A","7113535","2020-03-29 13:00","2020","03","29","13:00","-2.3","","-16.2","","34","","","","16","","12","","24.1","","102.02","","","","-7","","Clear"
"-68.42","58.09","KUUJJUAQ A","7113535","2020-03-29 14:00","2020","03","29","14:00","-0.6","","-15.8","","31","","","","17","","19","","24.1","","101.94","","","","-6","","NA"
"-68.42","58.09","KUUJJUAQ A","7113535","2020-03-29 15:00","2020","03","29","15:00","-0.2","","-14.9","","32","","","","17","","21","","24.1","","101.84","","","","-6","","NA"
"-68.42","58.09","KUUJJUAQ A","7113535","2020-03-29 16:00","2020","03","29","16:00","0.0","","-13.9","","35","","","","16","","19","","24.1","","101.74","","","","-5","","Mainly Clear"
"-68.42","58.09","KUUJJUAQ A","7113535","2020-03-29 17:00","2020","03","29","17:00","-1.0","","-13.4","","39","","","","16","","14","","24.1","","101.71","","","","-5","","NA"
"-68.42","58.09","KUUJJUAQ A","7113535","2020-03-29 18:00","2020","03","29","18:00","-2.0","","-13.8","","41","","","","16","","14","","24.1","","101.71","","","","-7","","NA"
"-68.42","58.09","KUUJJUAQ A","7113535","2020-03-29 19:00","2020","03","29","19:00","-3.2","","-13.6","","45","","","","15","","14","","24.1","","101.68","","","","-8","","Mostly Cloudy"
"-68.42","58.09","KUUJJUAQ A","7113535","2020-03-29 20:00","2020","03","29","20:00","-4.2","","-13.8","","48","","","","18","","5","","24.1","","101.71","","","","-6","","NA"
"-68.42","58.09","KUUJJUAQ A","7113535","2020-03-29 21:00","2020","03","29","21:00","-3.5","","-10.9","","57","","","","22","","7","","24.1","","101.71","","","","-6","","NA"
"-68.42","58.09","KUUJJUAQ A","7113535","2020-03-29 22:00","2020","03","29","22:00","-3.2","","-9.5","","62","","","","25","","8","","24.1","","101.74","","","","-6","","Mostly Cloudy"
"-68.42","58.09","KUUJJUAQ A","7113535","2020-03-29 23:00","2020","03","29","23:00","-3.4","","-9.2","","64","","","","19","","9","","24.1","","101.76","","","","-7","","NA"
"-68.42","58.09","KUUJJUAQ A","7113535","2020-03-30 00:00","2020","03","30","00:00","-4.6","","-9.1","","71","","","","16","","11","","24.1","","101.81","","","","-9","","NA"
"-68.42","58.09","KUUJJUAQ A","7113535","2020-03-30 01:00","2020","03","30","01:00","-4.9","","-8.8","","74","","","","25","","8","","24.1","","101.92","","","","-8","","Cloudy"
"-68.42","58.09","KUUJJUAQ A","7113535","2020-03-30 02:00","2020","03","30","02:00","-4.7","","-7.9","","78","","","","36","","3","","24.1","","102.01","","","","-6","","NA"
"-68.42","58.09","KUUJJUAQ A","7113535","2020-03-30 03:00","2020","03","30","03:00","-4.2","","-8.2","","74","","","","27","","12","","24.1","","102.05","","","","-9","","NA"
"-68.42","58.09","KUUJJUAQ A","7113535","2020-03-30 04:00","2020","03","30","04:00","-5.7","","-8.7","","79","","","","25","","9","","24.1","","102.15","","","","-10","","Mostly Cloudy"
"-68.42","58.09","KUUJJUAQ A","7113535","2020-03-30 05:00","2020","03","30","05:00","-7.3","","-10.4","","79","","","","30","","18","","24.1","","102.27","","","","-14","","NA"
"-68.42","58.09","KUUJJUAQ A","7113535","2020-03-30 06:00","2020","03","30","06:00","-9.4","","-12.4","","79","","","","30","","22","","24.1","","102.39","","","","-17","","NA"
"-68.42","58.09","KUUJJUAQ A","7113535","2020-03-30 07:00","2020","03","30","07:00","-11.9","","-16.5","","69","","","","30","","20","","24.1","","102.51","","","","-20","","Mainly Clear"
"-68.42","58.09","KUUJJUAQ A","7113535","2020-03-30 08:00","2020","03","30","08:00","-11.2","","-16.4","","66","","","","30","","14","","24.1","","102.58","","","","-18","","NA"
"-68.42","58.09","KUUJJUAQ A","7113535","2020-03-30 09:00","2020","03","30","09:00","-10.4","","-15.8","","65","","","","29","","14","","24.1","","102.65","","","","-17","","NA"
"-68.42","58.09","KUUJJUAQ A","7113535","2020-03-30 10:00","2020","03","30","10:00","-10.3","","-16.1","","63","","","","29","","12","","24.1","","102.71","","","","-16","","Clear"
"-68.42","58.09","KUUJJUAQ A","7113535","2020-03-30 11:00","2020","03","30","11:00","-9.0","","-15.3","","61","","","","30","","12","","24.1","","102.74","","","","-15","","NA"
"-68.42","58.09","KUUJJUAQ A","7113535","2020-03-30 12:00","2020","03","30","12:00","-8.3","","-14.9","","60","","","","29","","9","","24.1","","102.79","","","","-13","","NA"
"-68.42","58.09","KUUJJUAQ A","7113535","2020-03-30 13:00","2020","03","30","13:00","-7.6","","-14.5","","58","","","","29","","9","","24.1","","102.85","","","","-12","","Clear"
"-68.42","58.09","KUUJJUAQ A","7113535","2020-03-30 14:00","2020","03","30","14:00","-7.5","","-14.3","","59","","","","33","","12","","24.1","","102.90","","","","-13","","NA"
"-68.42","58.09","KUUJJUAQ A","7113535","2020-03-30 15:00","2020","03","30","15:00","-7.6","","-13.8","","61","","","","35","","12","","24.1","","102.96","","","","-13","","NA"
"-68.42","58.09","KUUJJUAQ A","7113535","2020-03-30 16:00","2020","03","30","16:00","-7.8","","-13.8","","62","","","","34","","6","","24.1","","102.98","","","","-11","","Clear"
"-68.42","58.09","KUUJJUAQ A","7113535","2020-03-30 17:00","2020","03","30","17:00","-8.2","","-13.7","","65","","","","36","","10","","24.1","","103.06","","","","-13","","NA"
"-68.42","58.09","KUUJJUAQ A","7113535","2020-03-30 18:00","2020","03","30","18:00","-9.6","","-14.4","","68","","","","36","","9","","24.1","","103.13","","","","-14","","NA"
"-68.42","58.09","KUUJJUAQ A","7113535","2020-03-30 19:00","2020","03","30","19:00","-12.3","","-15.6","","77","","","","34","","9","","24.1","","103.24","","","","-18","","Clear"
"-68.42","58.09","KUUJJUAQ A","7113535","2020-03-30 20:00","2020","03","30","20:00","-14.4","","-16.7","","83","","","","34","","8","","24.1","","103.29","","","","-20","","NA"
"-68.42","58.09","KUUJJUAQ A","7113535","2020-03-30 21:00","2020","03","30","21:00","-15.9","","-17.6","","87","","","","30","","3","","24.1","","103.33","","","","-18","","NA"
"-68.42","58.09","KUUJJUAQ A","7113535","2020-03-30 22:00","2020","03","30","22:00","-15.4","","-17.4","","84","","","","30","","3","","24.1","","103.39","","","","-18","","Clear"
"-68.42","58.09","KUUJJUAQ A","7113535","2020-03-30 23:00","2020","03","30","23:00","-17.1","","-18.8","","87","","","","32","","3","","24.1","","103.41","","","","-19","","NA"
"-68.42","58.09","KUUJJUAQ A","7113535","2020-03-31 00:00","2020","03","31","00:00","-18.9","","-20.9","","85","","","","33","","14","","24.1","","103.46","","","","-27","","NA"
"-68.42","58.09","KUUJJUAQ A","7113535","2020-03-31 01:00","2020","03","31","01:00","-18.4","","-20.4","","85","","","","30","","7","","24.1","","103.53","","","","-24","","Mainly Clear"
"-68.42","58.09","KUUJJUAQ A","7113535","2020-03-31 02:00","2020","03","31","02:00","-18.3","","-20.3","","84","","","","31","","8","","24.1","","103.58","","","","-24","","NA"
"-68.42","58.09","KUUJJUAQ A","7113535","2020-03-31 03:00","2020","03","31","03:00","-16.8","","-18.9","","84","","","","36","","3","","24.1","","103.63","","","","-19","","Snow"
"-68.42","58.09","KUUJJUAQ A","7113535","2020-03-31 04:00","2020","03","31","04:00","-16.8","","-18.9","","84","","","","36","","1","","24.1","","103.68","","","","-18","","Snow"
"-68.42","58.09","KUUJJUAQ A","7113535","2020-03-31 05:00","2020","03","31","05:00","-16.1","","-18.2","","84","","","","3","","3","","24.1","","103.76","","","","-18","","Snow"
"-68.42","58.09","KUUJJUAQ A","7113535","2020-03-31 06:00","2020","03","31","06:00","-15.2","","-17.2","","85","","","","36","","3","","80.5","","103.84","","","","-17","","Snow"
"-68.42","58.09","KUUJJUAQ A","7113535","2020-03-31 07:00","2020","03","31","07:00","-14.8","","-16.8","","84","","","","11","","3","","8.1","","103.89","","","","-17","","Snow"
"-68.42","58.09","KUUJJUAQ A","7113535","2020-03-31 08:00","2020","03","31","08:00","-13.0","","-15.3","","83","","","","12","","3","","9.7","","103.91","","","","-15","","Snow"
"-68.42","58.09","KUUJJUAQ A","7113535","2020-03-31 09:00","2020","03","31","09:00","-11.0","","-13.9","","79","","","","7","","4","","8.1","","103.95","","","","-13","","Snow"
"-68.42","58.09","KUUJJUAQ A","7113535","2020-03-31 10:00","2020","03","31","10:00","-8.3","","-12.6","","71","","","","7","","14","","24.1","","103.92","","","","-14","","Snow"
"-68.42","58.09","KUUJJUAQ A","7113535","2020-03-31 11:00","2020","03","31","11:00","-7.1","","-11.6","","71","","","","6","","22","","24.1","","103.87","","","","-15","","Snow"
"-68.42","58.09","KUUJJUAQ A","7113535","2020-03-31 12:00","2020","03","31","12:00","-7.1","","-11.4","","72","","","","6","","25","","24.1","","103.86","","","","-15","","Snow"
"-68.42","58.09","KUUJJUAQ A","7113535","2020-03-31 13:00","2020","03","31","13:00","-7.1","","-12.3","","66","","","","7","","20","","24.1","","103.87","","","","-14","","Snow"
"-68.42","58.09","KUUJJUAQ A","7113535","2020-03-31 14:00","2020","03","31","14:00","-7.3","","-13.4","","62","","","","6","","26","","24.1","","103.88","","","","-15","","NA"
"-68.42","58.09","KUUJJUAQ A","7113535","2020-03-31 15:00","2020","03","31","15:00","-7.2","","-12.4","","66","","","","5","","21","","24.1","","103.85","","","","-15","","NA"
"-68.42","58.09","KUUJJUAQ A","7113535","2020-03-31 16:00","2020","03","31","16:00","-7.5","","-12.2","","69","","","","5","","23","","24.1","","103.84","","","","-15","","Mainly Clear"
"-68.42","58.09","KUUJJUAQ A","7113535","2020-03-31 17:00","2020","03","31","17:00","-7.8","","-12.2","","71","","","","4","","21","","24.1","","103.82","","","","-15","","NA"
"-68.42","58.09","KUUJJUAQ A","7113535","2020-03-31 18:00","2020","03","31","18:00","-8.8","","-12.1","","77","","","","3","","13","","24.1","","103.83","","","","-15","","NA"
"-68.42","58.09","KUUJJUAQ A","7113535","2020-03-31 19:00","2020","03","31","19:00","-8.6","","-11.4","","81","","","","4","","22","","24.1","","103.82","","","","-16","","Mostly Cloudy"
"-68.42","58.09","KUUJJUAQ A","7113535","2020-03-31 20:00","2020","03","31","20:00","-8.3","","-10.6","","83","","","","5","","20","","24.1","","103.85","","","","-16","","NA"
"-68.42","58.09","KUUJJUAQ A","7113535","2020-03-31 21:00","2020","03","31","21:00","-9.1","","-11.2","","85","","","","5","","18","","24.1","","103.84","","","","-16","","NA"
"-68.42","58.09","KUUJJUAQ A","7113535","2020-03-31 22:00","2020","03","31","22:00","-9.6","","-11.6","","86","","","","5","","21","","24.1","","103.83","","","","-18","","Mainly Clear"
"-68.42","58.09","KUUJJUAQ A","7113535","2020-03-31 23:00","2020","03","31","23:00","-10.0","","-12.3","","83","","","","6","","15","","24.1","","103.79","","","","-17","","NA"
