"Longitude (x)","Latitude (y)","Station Name","Climate ID","Date/Time (LST)","Year","Month","Day","Time (LST)","Temp (°C)","Temp Flag","Dew Point Temp (°C)","Dew Point Temp Flag","Rel Hum (%)","Rel Hum Flag","Precip. Amount (mm)","Precip. Amount Flag","Wind Dir (10s deg)","Wind Dir Flag","Wind Spd (km/h)","Wind Spd Flag","Visibility (km)","Visibility Flag","Stn Press (kPa)","Stn Press Flag","Hmdx","Hmdx Flag","Wind Chill","Wind Chill Flag","Weather"
"-79.22","44.55","LAGOON CITY","6114295","2020-09-01 00:00","2020","09","01","00:00","18.0","","14.9","","82","","","","12","","14","","","","98.71","","","","","","NA"
"-79.22","44.55","LAGOON CITY","6114295","2020-09-01 01:00","2020","09","01","01:00","17.5","","15.3","","87","","","","12","","10","","","","98.67","","","","","","NA"
"-79.22","44.55","LAGOON CITY","6114295","2020-09-01 02:00","2020","09","01","02:00","19.1","","17.5","","90","","","","15","","13","","","","98.69","","","","","","NA"
"-79.22","44.55","LAGOON CITY","6114295","2020-09-01 03:00","2020","09","01","03:00","19.9","","17.9","","88","","","","19","","19","","","","98.69","","","","","","NA"
"-79.22","44.55","LAGOON CITY","6114295","2020-09-01 04:00","2020","09","01","04:00","19.9","","18.2","","90","","","","20","","18","","","","98.71","","","","","","NA"
"-79.22","44.55","LAGOON CITY","6114295","2020-09-01 05:00","2020","09","01","05:00","19.8","","18.1","","90","","","","18","","20","","","","98.71","","","","","","NA"
"-79.22","44.55","LAGOON CITY","6114295","2020-09-01 06:00","2020","09","01","06:00","19.2","","17.9","","92","","","","16","","15","","","","98.77","","","","","","NA"
"-79.22","44.55","LAGOON CITY","6114295","2020-09-01 07:00","2020","09","01","07:00","19.2","","17.6","","91","","","","15","","9","","","","98.79","","","","","","NA"
"-79.22","44.55","LAGOON CITY","6114295","2020-09-01 08:00","2020","09","01","08:00","19.7","","18.1","","90","","","","19","","14","","","","98.79","","","","","","NA"
"-79.22","44.55","LAGOON CITY","6114295","2020-09-01 09:00","2020","09","01","09:00","20.0","","18.1","","89","","","","19","","12","","","","98.81","","26","","","","NA"
"-79.22","44.55","LAGOON CITY","6114295","2020-09-01 10:00","2020","09","01","10:00","21.1","","18.6","","86","","","","21","","12","","","","98.83","","28","","","","NA"
"-79.22","44.55","LAGOON CITY","6114295","2020-09-01 11:00","2020","09","01","11:00","21.9","","18.3","","80","","","","18","","12","","","","98.80","","28","","","","NA"
"-79.22","44.55","LAGOON CITY","6114295","2020-09-01 12:00","2020","09","01","12:00","23.3","","18.8","","76","","","","17","","3","","","","98.76","","30","","","","NA"
"-79.22","44.55","LAGOON CITY","6114295","2020-09-01 13:00","2020","09","01","13:00","24.1","","17.8","","68","","","","19","","4","","","","98.72","","30","","","","NA"
"-79.22","44.55","LAGOON CITY","6114295","2020-09-01 14:00","2020","09","01","14:00","25.9","","16.5","","56","","","","20","","22","","","","98.70","","31","","","","NA"
"-79.22","44.55","LAGOON CITY","6114295","2020-09-01 15:00","2020","09","01","15:00","24.6","","18.5","","69","","","","18","","12","","","","98.69","","31","","","","NA"
"-79.22","44.55","LAGOON CITY","6114295","2020-09-01 16:00","2020","09","01","16:00","24.3","","18.9","","72","","","","16","","21","","","","98.66","","31","","","","NA"
"-79.22","44.55","LAGOON CITY","6114295","2020-09-01 17:00","2020","09","01","17:00","24.4","","18.2","","68","","","","16","","25","","","","98.61","","31","","","","NA"
"-79.22","44.55","LAGOON CITY","6114295","2020-09-01 18:00","2020","09","01","18:00","23.5","","19.6","","79","","","","17","","26","","","","98.56","","31","","","","NA"
"-79.22","44.55","LAGOON CITY","6114295","2020-09-01 19:00","2020","09","01","19:00","23.0","","19.0","","78","","","","15","","22","","","","98.61","","30","","","","NA"
"-79.22","44.55","LAGOON CITY","6114295","2020-09-01 20:00","2020","09","01","20:00","21.9","","18.4","","80","","","","13","","21","","","","98.51","","28","","","","NA"
"-79.22","44.55","LAGOON CITY","6114295","2020-09-01 21:00","2020","09","01","21:00","22.1","","18.3","","79","","","","14","","20","","","","98.56","","28","","","","NA"
"-79.22","44.55","LAGOON CITY","6114295","2020-09-01 22:00","2020","09","01","22:00","22.1","","18.8","","82","","","","16","","24","","","","98.48","","29","","","","NA"
"-79.22","44.55","LAGOON CITY","6114295","2020-09-01 23:00","2020","09","01","23:00","22.0","","18.9","","83","","","","16","","26","","","","98.48","","29","","","","NA"
"-79.22","44.55","LAGOON CITY","6114295","2020-09-02 00:00","2020","09","02","00:00","21.3","","19.3","","88","","","","15","","19","","","","98.41","","28","","","","NA"
"-79.22","44.55","LAGOON CITY","6114295","2020-09-02 01:00","2020","09","02","01:00","21.3","","20.2","","93","","","","17","","18","","","","98.34","","29","","","","NA"
"-79.22","44.55","LAGOON CITY","6114295","2020-09-02 02:00","2020","09","02","02:00","21.4","","18.8","","85","","","","18","","37","","","","98.21","","28","","","","NA"
"-79.22","44.55","LAGOON CITY","6114295","2020-09-02 03:00","2020","09","02","03:00","21.1","","19.0","","87","","","","17","","29","","","","98.13","","28","","","","NA"
"-79.22","44.55","LAGOON CITY","6114295","2020-09-02 04:00","2020","09","02","04:00","20.8","","19.1","","90","","","","17","","35","","","","98.03","","28","","","","NA"
"-79.22","44.55","LAGOON CITY","6114295","2020-09-02 05:00","2020","09","02","05:00","21.0","","19.7","","92","","","","18","","34","","","","97.97","","28","","","","NA"
"-79.22","44.55","LAGOON CITY","6114295","2020-09-02 06:00","2020","09","02","06:00","21.1","","19.9","","93","","","","18","","33","","","","97.95","","29","","","","NA"
"-79.22","44.55","LAGOON CITY","6114295","2020-09-02 07:00","2020","09","02","07:00","21.2","","19.9","","93","","","","17","","36","","","","97.85","","29","","","","NA"
"-79.22","44.55","LAGOON CITY","6114295","2020-09-02 08:00","2020","09","02","08:00","21.4","","20.1","","92","","","","18","","38","","","","97.84","","29","","","","NA"
"-79.22","44.55","LAGOON CITY","6114295","2020-09-02 09:00","2020","09","02","09:00","21.8","","20.4","","92","","","","19","","33","","","","97.80","","30","","","","NA"
"-79.22","44.55","LAGOON CITY","6114295","2020-09-02 10:00","2020","09","02","10:00","22.5","","20.2","","87","","","","20","","34","","","","97.73","","30","","","","NA"
"-79.22","44.55","LAGOON CITY","6114295","2020-09-02 11:00","2020","09","02","11:00","22.9","","19.1","","79","","","","21","","31","","","","97.69","","30","","","","NA"
"-79.22","44.55","LAGOON CITY","6114295","2020-09-02 12:00","2020","09","02","12:00","23.3","","20.4","","84","","","","21","","24","","","","97.63","","31","","","","NA"
"-79.22","44.55","LAGOON CITY","6114295","2020-09-02 13:00","2020","09","02","13:00","23.6","","19.5","","78","","","","26","","31","","","","97.65","","31","","","","NA"
"-79.22","44.55","LAGOON CITY","6114295","2020-09-02 14:00","2020","09","02","14:00","21.0","","19.0","","88","","","","30","","27","","","","97.72","","28","","","","NA"
"-79.22","44.55","LAGOON CITY","6114295","2020-09-02 15:00","2020","09","02","15:00","21.5","","17.7","","79","","","","29","","27","","","","97.78","","27","","","","NA"
"-79.22","44.55","LAGOON CITY","6114295","2020-09-02 16:00","2020","09","02","16:00","22.2","","16.8","","71","","","","30","","23","","","","97.80","","27","","","","NA"
"-79.22","44.55","LAGOON CITY","6114295","2020-09-02 17:00","2020","09","02","17:00","22.5","","14.7","","62","","","","29","","32","","","","97.87","","26","","","","NA"
"-79.22","44.55","LAGOON CITY","6114295","2020-09-02 18:00","2020","09","02","18:00","22.0","","15.2","","65","","","","29","","24","","","","97.96","","26","","","","NA"
"-79.22","44.55","LAGOON CITY","6114295","2020-09-02 19:00","2020","09","02","19:00","21.1","","15.7","","72","","","","31","","10","","","","98.04","","26","","","","NA"
"-79.22","44.55","LAGOON CITY","6114295","2020-09-02 20:00","2020","09","02","20:00","20.5","","16.2","","76","","","","30","","4","","","","98.11","","25","","","","NA"
"-79.22","44.55","LAGOON CITY","6114295","2020-09-02 21:00","2020","09","02","21:00","19.1","","16.6","","85","","","","34","","6","","","","98.18","","","","","","NA"
"-79.22","44.55","LAGOON CITY","6114295","2020-09-02 22:00","2020","09","02","22:00","20.2","","16.8","","81","","","","30","","7","","","","98.26","","25","","","","NA"
"-79.22","44.55","LAGOON CITY","6114295","2020-09-02 23:00","2020","09","02","23:00","20.1","","17.2","","83","","","","30","","13","","","","98.30","","26","","","","NA"
"-79.22","44.55","LAGOON CITY","6114295","2020-09-03 00:00","2020","09","03","00:00","19.7","","16.7","","83","","","","29","","16","","","","98.36","","","","","","NA"
"-79.22","44.55","LAGOON CITY","6114295","2020-09-03 01:00","2020","09","03","01:00","19.1","","15.4","","79","","","","30","","14","","","","98.37","","","","","","NA"
"-79.22","44.55","LAGOON CITY","6114295","2020-09-03 02:00","2020","09","03","02:00","19.4","","14.7","","74","","","","27","","13","","","","98.34","","","","","","NA"
"-79.22","44.55","LAGOON CITY","6114295","2020-09-03 03:00","2020","09","03","03:00","19.6","","14.9","","74","","","","25","","12","","","","98.35","","","","","","NA"
"-79.22","44.55","LAGOON CITY","6114295","2020-09-03 04:00","2020","09","03","04:00","19.1","","16.5","","85","","","","25","","12","","","","98.33","","","","","","NA"
"-79.22","44.55","LAGOON CITY","6114295","2020-09-03 05:00","2020","09","03","05:00","17.6","","15.1","","85","","","","20","","6","","","","98.33","","","","","","NA"
"-79.22","44.55","LAGOON CITY","6114295","2020-09-03 06:00","2020","09","03","06:00","15.9","","15.2","","96","","","","12","","6","","","","98.33","","","","","","NA"
"-79.22","44.55","LAGOON CITY","6114295","2020-09-03 07:00","2020","09","03","07:00","17.3","","16.3","","93","","","","14","","9","","","","98.35","","","","","","NA"
"-79.22","44.55","LAGOON CITY","6114295","2020-09-03 08:00","2020","09","03","08:00","18.2","","15.4","","83","","","","18","","13","","","","98.32","","","","","","NA"
"-79.22","44.55","LAGOON CITY","6114295","2020-09-03 09:00","2020","09","03","09:00","19.5","","14.0","","71","","","","18","","14","","","","98.29","","","","","","NA"
"-79.22","44.55","LAGOON CITY","6114295","2020-09-03 10:00","2020","09","03","10:00","20.3","","13.3","","64","","","","19","","18","","","","98.22","","","","","","NA"
"-79.22","44.55","LAGOON CITY","6114295","2020-09-03 11:00","2020","09","03","11:00","21.3","","12.6","","57","","","","19","","20","","","","98.14","","","","","","NA"
"-79.22","44.55","LAGOON CITY","6114295","2020-09-03 12:00","2020","09","03","12:00","22.0","","11.7","","52","","","","19","","22","","","","98.03","","","","","","NA"
"-79.22","44.55","LAGOON CITY","6114295","2020-09-03 13:00","2020","09","03","13:00","22.6","","13.2","","55","","","","18","","24","","","","97.91","","26","","","","NA"
"-79.22","44.55","LAGOON CITY","6114295","2020-09-03 14:00","2020","09","03","14:00","23.1","","13.6","","55","","","","18","","25","","","","97.77","","26","","","","NA"
"-79.22","44.55","LAGOON CITY","6114295","2020-09-03 15:00","2020","09","03","15:00","23.7","","14.4","","56","","","","18","","27","","","","97.67","","27","","","","NA"
"-79.22","44.55","LAGOON CITY","6114295","2020-09-03 16:00","2020","09","03","16:00","24.1","","16.2","","61","","","","18","","29","","","","97.57","","29","","","","NA"
"-79.22","44.55","LAGOON CITY","6114295","2020-09-03 17:00","2020","09","03","17:00","24.1","","17.7","","68","","","","21","","28","","","","97.51","","30","","","","NA"
"-79.22","44.55","LAGOON CITY","6114295","2020-09-03 18:00","2020","09","03","18:00","24.1","","17.7","","67","","","","20","","37","","","","97.37","","30","","","","NA"
"-79.22","44.55","LAGOON CITY","6114295","2020-09-03 19:00","2020","09","03","19:00","19.8","","17.3","","85","","","","29","","42","","","","97.58","","","","","","NA"
"-79.22","44.55","LAGOON CITY","6114295","2020-09-03 20:00","2020","09","03","20:00","19.9","","16.7","","82","","","","28","","31","","","","97.63","","","","","","NA"
"-79.22","44.55","LAGOON CITY","6114295","2020-09-03 21:00","2020","09","03","21:00","19.3","","14.6","","74","","","","30","","34","","","","97.82","","","","","","NA"
"-79.22","44.55","LAGOON CITY","6114295","2020-09-03 22:00","2020","09","03","22:00","18.0","","12.8","","71","","","","30","","26","","","","97.90","","","","","","NA"
"-79.22","44.55","LAGOON CITY","6114295","2020-09-03 23:00","2020","09","03","23:00","17.0","","11.6","","70","","","","32","","20","","","","98.00","","","","","","NA"
"-79.22","44.55","LAGOON CITY","6114295","2020-09-04 00:00","2020","09","04","00:00","16.6","","10.7","","68","","","","31","","20","","","","98.07","","","","","","NA"
"-79.22","44.55","LAGOON CITY","6114295","2020-09-04 01:00","2020","09","04","01:00","16.2","","10.3","","68","","","","30","","20","","","","98.12","","","","","","NA"
"-79.22","44.55","LAGOON CITY","6114295","2020-09-04 02:00","2020","09","04","02:00","16.6","","10.4","","67","","","","30","","28","","","","98.16","","","","","","NA"
"-79.22","44.55","LAGOON CITY","6114295","2020-09-04 03:00","2020","09","04","03:00","16.6","","11.5","","72","","","","27","","25","","","","98.23","","","","","","NA"
"-79.22","44.55","LAGOON CITY","6114295","2020-09-04 04:00","2020","09","04","04:00","16.1","","12.3","","78","","","","27","","28","","","","98.30","","","","","","NA"
"-79.22","44.55","LAGOON CITY","6114295","2020-09-04 05:00","2020","09","04","05:00","16.1","","12.7","","80","","","","27","","34","","","","98.36","","","","","","NA"
"-79.22","44.55","LAGOON CITY","6114295","2020-09-04 06:00","2020","09","04","06:00","15.9","","12.0","","78","","","","26","","34","","","","98.43","","","","","","NA"
"-79.22","44.55","LAGOON CITY","6114295","2020-09-04 07:00","2020","09","04","07:00","16.2","","11.1","","72","","","","25","","36","","","","98.49","","","","","","NA"
"-79.22","44.55","LAGOON CITY","6114295","2020-09-04 08:00","2020","09","04","08:00","15.9","","10.9","","72","","","","25","","35","","","","98.55","","","","","","NA"
"-79.22","44.55","LAGOON CITY","6114295","2020-09-04 09:00","2020","09","04","09:00","16.5","","9.4","","63","","","","27","","39","","","","98.58","","","","","","NA"
"-79.22","44.55","LAGOON CITY","6114295","2020-09-04 10:00","2020","09","04","10:00","17.3","","8.9","","58","","","","27","","45","","","","98.62","","","","","","NA"
"-79.22","44.55","LAGOON CITY","6114295","2020-09-04 11:00","2020","09","04","11:00","17.7","","8.9","","57","","","","28","","40","","","","98.68","","","","","","NA"
"-79.22","44.55","LAGOON CITY","6114295","2020-09-04 12:00","2020","09","04","12:00","18.2","","9.9","","58","","","","28","","31","","","","98.66","","","","","","NA"
"-79.22","44.55","LAGOON CITY","6114295","2020-09-04 13:00","2020","09","04","13:00","18.3","","7.8","","50","","","","28","","43","","","","98.71","","","","","","NA"
"-79.22","44.55","LAGOON CITY","6114295","2020-09-04 14:00","2020","09","04","14:00","18.4","","8.8","","54","","","","29","","38","","","","98.74","","","","","","NA"
"-79.22","44.55","LAGOON CITY","6114295","2020-09-04 15:00","2020","09","04","15:00","18.5","","7.7","","49","","","","28","","39","","","","98.76","","","","","","NA"
"-79.22","44.55","LAGOON CITY","6114295","2020-09-04 16:00","2020","09","04","16:00","18.6","","8.9","","53","","","","28","","41","","","","98.80","","","","","","NA"
"-79.22","44.55","LAGOON CITY","6114295","2020-09-04 17:00","2020","09","04","17:00","15.8","","10.0","","69","","","","28","","23","","","","98.91","","","","","","NA"
"-79.22","44.55","LAGOON CITY","6114295","2020-09-04 18:00","2020","09","04","18:00","17.3","","9.9","","62","","","","28","","27","","","","98.92","","","","","","NA"
"-79.22","44.55","LAGOON CITY","6114295","2020-09-04 19:00","2020","09","04","19:00","17.5","","10.6","","64","","","","27","","26","","","","98.94","","","","","","NA"
"-79.22","44.55","LAGOON CITY","6114295","2020-09-04 20:00","2020","09","04","20:00","17.9","","11.2","","65","","","","26","","25","","","","98.98","","","","","","NA"
"-79.22","44.55","LAGOON CITY","6114295","2020-09-04 21:00","2020","09","04","21:00","18.3","","9.5","","57","","","","25","","30","","","","99.02","","","","","","NA"
"-79.22","44.55","LAGOON CITY","6114295","2020-09-04 22:00","2020","09","04","22:00","17.8","","9.0","","56","","","","25","","29","","","","99.07","","","","","","NA"
"-79.22","44.55","LAGOON CITY","6114295","2020-09-04 23:00","2020","09","04","23:00","16.6","","10.6","","68","","","","28","","22","","","","99.11","","","","","","NA"
"-79.22","44.55","LAGOON CITY","6114295","2020-09-05 00:00","2020","09","05","00:00","16.7","","10.8","","68","","","","29","","18","","","","99.14","","","","","","NA"
"-79.22","44.55","LAGOON CITY","6114295","2020-09-05 01:00","2020","09","05","01:00","16.5","","11.7","","73","","","","26","","19","","","","99.17","","","","","","NA"
"-79.22","44.55","LAGOON CITY","6114295","2020-09-05 02:00","2020","09","05","02:00","16.6","","12.2","","75","","","","25","","20","","","","99.17","","","","","","NA"
"-79.22","44.55","LAGOON CITY","6114295","2020-09-05 03:00","2020","09","05","03:00","16.8","","11.5","","71","","","","26","","24","","","","99.19","","","","","","NA"
"-79.22","44.55","LAGOON CITY","6114295","2020-09-05 04:00","2020","09","05","04:00","15.4","","10.8","","74","","","","27","","24","","","","99.22","","","","","","NA"
"-79.22","44.55","LAGOON CITY","6114295","2020-09-05 05:00","2020","09","05","05:00","15.6","","12.4","","81","","","","29","","17","","","","99.24","","","","","","NA"
"-79.22","44.55","LAGOON CITY","6114295","2020-09-05 06:00","2020","09","05","06:00","14.8","","12.1","","84","","","","32","","6","","","","99.29","","","","","","NA"
"-79.22","44.55","LAGOON CITY","6114295","2020-09-05 07:00","2020","09","05","07:00","16.3","","10.0","","67","","","","28","","15","","","","99.32","","","","","","NA"
"-79.22","44.55","LAGOON CITY","6114295","2020-09-05 08:00","2020","09","05","08:00","16.2","","10.8","","70","","","","25","","15","","","","99.33","","","","","","NA"
"-79.22","44.55","LAGOON CITY","6114295","2020-09-05 09:00","2020","09","05","09:00","16.5","","10.8","","69","","","","25","","17","","","","99.37","","","","","","NA"
"-79.22","44.55","LAGOON CITY","6114295","2020-09-05 10:00","2020","09","05","10:00","17.1","","10.9","","66","","","","24","","22","","","","99.38","","","","","","NA"
"-79.22","44.55","LAGOON CITY","6114295","2020-09-05 11:00","2020","09","05","11:00","17.9","","9.9","","60","","","","23","","19","","","","99.36","","","","","","NA"
"-79.22","44.55","LAGOON CITY","6114295","2020-09-05 12:00","2020","09","05","12:00","18.6","","7.8","","49","","","","25","","23","","","","99.32","","","","","","NA"
"-79.22","44.55","LAGOON CITY","6114295","2020-09-05 13:00","2020","09","05","13:00","19.2","","7.9","","48","","","","27","","24","","","","99.28","","","","","","NA"
"-79.22","44.55","LAGOON CITY","6114295","2020-09-05 14:00","2020","09","05","14:00","19.8","","7.5","","45","","","","26","","20","","","","99.25","","","","","","NA"
"-79.22","44.55","LAGOON CITY","6114295","2020-09-05 15:00","2020","09","05","15:00","20.3","","8.8","","48","","","","26","","22","","","","99.19","","","","","","NA"
"-79.22","44.55","LAGOON CITY","6114295","2020-09-05 16:00","2020","09","05","16:00","18.7","","10.7","","59","","","","33","","19","","","","99.23","","","","","","NA"
"-79.22","44.55","LAGOON CITY","6114295","2020-09-05 17:00","2020","09","05","17:00","19.3","","11.0","","59","","","","27","","22","","","","99.23","","","","","","NA"
"-79.22","44.55","LAGOON CITY","6114295","2020-09-05 18:00","2020","09","05","18:00","19.2","","11.8","","62","","","","28","","32","","","","99.26","","","","","","NA"
"-79.22","44.55","LAGOON CITY","6114295","2020-09-05 19:00","2020","09","05","19:00","18.5","","11.6","","64","","","","29","","24","","","","99.29","","","","","","NA"
"-79.22","44.55","LAGOON CITY","6114295","2020-09-05 20:00","2020","09","05","20:00","18.2","","11.2","","64","","","","29","","20","","","","99.35","","","","","","NA"
"-79.22","44.55","LAGOON CITY","6114295","2020-09-05 21:00","2020","09","05","21:00","17.5","","10.2","","63","","","","28","","17","","","","99.37","","","","","","NA"
"-79.22","44.55","LAGOON CITY","6114295","2020-09-05 22:00","2020","09","05","22:00","16.8","","10.8","","68","","","","31","","18","","","","99.39","","","","","","NA"
"-79.22","44.55","LAGOON CITY","6114295","2020-09-05 23:00","2020","09","05","23:00","16.1","","10.3","","68","","","","31","","17","","","","99.41","","","","","","NA"
"-79.22","44.55","LAGOON CITY","6114295","2020-09-06 00:00","2020","09","06","00:00","16.1","","10.1","","67","","","","30","","18","","","","99.43","","","","","","NA"
"-79.22","44.55","LAGOON CITY","6114295","2020-09-06 01:00","2020","09","06","01:00","15.5","","9.3","","66","","","","31","","19","","","","99.44","","","","","","NA"
"-79.22","44.55","LAGOON CITY","6114295","2020-09-06 02:00","2020","09","06","02:00","15.8","","9.3","","65","","","","29","","21","","","","99.46","","","","","","NA"
"-79.22","44.55","LAGOON CITY","6114295","2020-09-06 03:00","2020","09","06","03:00","15.1","","8.3","","64","","","","29","","15","","","","99.48","","","","","","NA"
"-79.22","44.55","LAGOON CITY","6114295","2020-09-06 04:00","2020","09","06","04:00","13.9","","9.6","","75","","","","32","","8","","","","99.53","","","","","","NA"
"-79.22","44.55","LAGOON CITY","6114295","2020-09-06 05:00","2020","09","06","05:00","12.2","","8.7","","79","","","","36","","6","","","","99.49","","","","","","NA"
"-79.22","44.55","LAGOON CITY","6114295","2020-09-06 06:00","2020","09","06","06:00","9.4","","8.4","","93","","","","5","","10","","","","99.41","","","","","","NA"
"-79.22","44.55","LAGOON CITY","6114295","2020-09-06 07:00","2020","09","06","07:00","11.8","","9.0","","83","","","","13","","8","","","","99.57","","","","","","NA"
"-79.22","44.55","LAGOON CITY","6114295","2020-09-06 08:00","2020","09","06","08:00","15.6","","7.2","","57","","","","22","","2","","","","99.68","","","","","","NA"
"-79.22","44.55","LAGOON CITY","6114295","2020-09-06 09:00","2020","09","06","09:00","16.4","","6.7","","53","","","","23","","2","","","","99.70","","","","","","NA"
"-79.22","44.55","LAGOON CITY","6114295","2020-09-06 10:00","2020","09","06","10:00","15.9","","7.9","","59","","","","24","","5","","","","99.67","","","","","","NA"
"-79.22","44.55","LAGOON CITY","6114295","2020-09-06 11:00","2020","09","06","11:00","15.9","","6.5","","54","","","","25","","5","","","","99.60","","","","","","NA"
"-79.22","44.55","LAGOON CITY","6114295","2020-09-06 12:00","2020","09","06","12:00","16.1","","8.4","","60","","","","18","","8","","","","99.57","","","","","","NA"
"-79.22","44.55","LAGOON CITY","6114295","2020-09-06 13:00","2020","09","06","13:00","16.3","","8.6","","60","","","","18","","12","","","","99.49","","","","","","NA"
"-79.22","44.55","LAGOON CITY","6114295","2020-09-06 14:00","2020","09","06","14:00","16.9","","5.9","","48","","","","17","","11","","","","99.46","","","","","","NA"
"-79.22","44.55","LAGOON CITY","6114295","2020-09-06 15:00","2020","09","06","15:00","17.7","","7.0","","49","","","","17","","9","","","","99.37","","","","","","NA"
"-79.22","44.55","LAGOON CITY","6114295","2020-09-06 16:00","2020","09","06","16:00","18.7","","8.0","","50","","","","16","","10","","","","99.26","","","","","","NA"
"-79.22","44.55","LAGOON CITY","6114295","2020-09-06 17:00","2020","09","06","17:00","19.7","","7.9","","46","","","","15","","16","","","","99.14","","","","","","NA"
"-79.22","44.55","LAGOON CITY","6114295","2020-09-06 18:00","2020","09","06","18:00","19.1","","10.8","","59","","","","16","","29","","","","99.06","","","","","","NA"
"-79.22","44.55","LAGOON CITY","6114295","2020-09-06 19:00","2020","09","06","19:00","17.1","","8.5","","57","","","","13","","19","","","","98.96","","","","","","NA"
"-79.22","44.55","LAGOON CITY","6114295","2020-09-06 20:00","2020","09","06","20:00","16.1","","8.9","","62","","","","13","","24","","","","98.90","","","","","","NA"
"-79.22","44.55","LAGOON CITY","6114295","2020-09-06 21:00","2020","09","06","21:00","15.3","","10.3","","72","","","","14","","25","","","","98.80","","","","","","NA"
"-79.22","44.55","LAGOON CITY","6114295","2020-09-06 22:00","2020","09","06","22:00","15.3","","11.7","","79","","","","15","","25","","","","98.72","","","","","","NA"
"-79.22","44.55","LAGOON CITY","6114295","2020-09-06 23:00","2020","09","06","23:00","15.8","","13.4","","85","","","","14","","30","","","","98.57","","","","","","NA"
"-79.22","44.55","LAGOON CITY","6114295","2020-09-07 00:00","2020","09","07","00:00","17.0","","14.1","","83","","","","14","","33","","","","98.33","","","","","","NA"
"-79.22","44.55","LAGOON CITY","6114295","2020-09-07 01:00","2020","09","07","01:00","18.6","","14.1","","76","","","","16","","36","","","","98.19","","","","","","NA"
"-79.22","44.55","LAGOON CITY","6114295","2020-09-07 02:00","2020","09","07","02:00","20.0","","14.8","","72","","","","18","","41","","","","98.14","","","","","","NA"
"-79.22","44.55","LAGOON CITY","6114295","2020-09-07 03:00","2020","09","07","03:00","18.7","","16.1","","85","","","","19","","46","","","","98.06","","","","","","NA"
"-79.22","44.55","LAGOON CITY","6114295","2020-09-07 04:00","2020","09","07","04:00","18.7","","17.0","","90","","","","18","","53","","","","97.76","","","","","","NA"
"-79.22","44.55","LAGOON CITY","6114295","2020-09-07 05:00","2020","09","07","05:00","19.4","","17.2","","87","","","","20","","47","","","","97.95","","","","","","NA"
"-79.22","44.55","LAGOON CITY","6114295","2020-09-07 06:00","2020","09","07","06:00","20.0","","17.2","","84","","","","20","","56","","","","97.90","","25","","","","NA"
"-79.22","44.55","LAGOON CITY","6114295","2020-09-07 07:00","2020","09","07","07:00","20.0","","17.5","","86","","","","21","","51","","","","97.89","","26","","","","NA"
"-79.22","44.55","LAGOON CITY","6114295","2020-09-07 08:00","2020","09","07","08:00","20.1","","17.6","","85","","","","21","","46","","","","97.93","","26","","","","NA"
"-79.22","44.55","LAGOON CITY","6114295","2020-09-07 09:00","2020","09","07","09:00","20.3","","17.9","","86","","","","22","","40","","","","97.92","","26","","","","NA"
"-79.22","44.55","LAGOON CITY","6114295","2020-09-07 10:00","2020","09","07","10:00","20.4","","18.4","","88","","","","21","","39","","","","97.95","","27","","","","NA"
"-79.22","44.55","LAGOON CITY","6114295","2020-09-07 11:00","2020","09","07","11:00","20.7","","18.4","","87","","","","22","","38","","","","97.97","","27","","","","NA"
"-79.22","44.55","LAGOON CITY","6114295","2020-09-07 12:00","2020","09","07","12:00","20.7","","18.6","","88","","","","21","","31","","","","98.05","","27","","","","NA"
"-79.22","44.55","LAGOON CITY","6114295","2020-09-07 13:00","2020","09","07","13:00","17.0","","13.3","","79","","","","31","","27","","","","98.19","","","","","","NA"
"-79.22","44.55","LAGOON CITY","6114295","2020-09-07 14:00","2020","09","07","14:00","17.2","","12.6","","74","","","","33","","19","","","","98.29","","","","","","NA"
"-79.22","44.55","LAGOON CITY","6114295","2020-09-07 15:00","2020","09","07","15:00","17.5","","12.2","","71","","","","32","","23","","","","98.45","","","","","","NA"
"-79.22","44.55","LAGOON CITY","6114295","2020-09-07 16:00","2020","09","07","16:00","17.6","","11.9","","69","","","","30","","24","","","","98.46","","","","","","NA"
"-79.22","44.55","LAGOON CITY","6114295","2020-09-07 17:00","2020","09","07","17:00","18.2","","11.2","","64","","","","30","","20","","","","98.50","","","","","","NA"
"-79.22","44.55","LAGOON CITY","6114295","2020-09-07 18:00","2020","09","07","18:00","17.4","","11.7","","69","","","","32","","14","","","","98.57","","","","","","NA"
"-79.22","44.55","LAGOON CITY","6114295","2020-09-07 19:00","2020","09","07","19:00","15.8","","12.0","","78","","","","32","","15","","","","98.73","","","","","","NA"
"-79.22","44.55","LAGOON CITY","6114295","2020-09-07 20:00","2020","09","07","20:00","14.7","","10.9","","78","","","","33","","14","","","","98.89","","","","","","NA"
"-79.22","44.55","LAGOON CITY","6114295","2020-09-07 21:00","2020","09","07","21:00","13.9","","10.2","","78","","","","33","","6","","","","99.00","","","","","","NA"
"-79.22","44.55","LAGOON CITY","6114295","2020-09-07 22:00","2020","09","07","22:00","14.1","","10.7","","80","","","","36","","4","","","","99.06","","","","","","NA"
"-79.22","44.55","LAGOON CITY","6114295","2020-09-07 23:00","2020","09","07","23:00","13.8","","11.2","","84","","","","3","","5","","","","99.04","","","","","","NA"
"-79.22","44.55","LAGOON CITY","6114295","2020-09-08 00:00","2020","09","08","00:00","13.0","","10.3","","83","","","","5","","4","","","","99.06","","","","","","NA"
"-79.22","44.55","LAGOON CITY","6114295","2020-09-08 01:00","2020","09","08","01:00","13.0","","10.3","","83","","","","35","","6","","","","99.16","","","","","","NA"
"-79.22","44.55","LAGOON CITY","6114295","2020-09-08 02:00","2020","09","08","02:00","11.5","","10.1","","92","","","","4","","7","","","","99.11","","","","","","NA"
"-79.22","44.55","LAGOON CITY","6114295","2020-09-08 03:00","2020","09","08","03:00","11.5","","10.2","","91","","","","6","","6","","","","99.14","","","","","","NA"
"-79.22","44.55","LAGOON CITY","6114295","2020-09-08 04:00","2020","09","08","04:00","12.1","","10.6","","91","","","","5","","6","","","","99.18","","","","","","NA"
"-79.22","44.55","LAGOON CITY","6114295","2020-09-08 05:00","2020","09","08","05:00","11.8","","10.7","","93","","","","3","","6","","","","99.27","","","","","","NA"
"-79.22","44.55","LAGOON CITY","6114295","2020-09-08 06:00","2020","09","08","06:00","11.5","","10.2","","92","","","","5","","8","","","","99.28","","","","","","NA"
"-79.22","44.55","LAGOON CITY","6114295","2020-09-08 07:00","2020","09","08","07:00","11.6","","10.1","","90","","","","1","","14","","","","99.34","","","","","","NA"
"-79.22","44.55","LAGOON CITY","6114295","2020-09-08 08:00","2020","09","08","08:00","11.6","","10.3","","92","","","","3","","10","","","","99.40","","","","","","NA"
"-79.22","44.55","LAGOON CITY","6114295","2020-09-08 09:00","2020","09","08","09:00","12.4","","10.3","","87","","","","7","","7","","","","99.43","","","","","","NA"
"-79.22","44.55","LAGOON CITY","6114295","2020-09-08 10:00","2020","09","08","10:00","12.8","","10.5","","86","","","","7","","8","","","","99.47","","","","","","NA"
"-79.22","44.55","LAGOON CITY","6114295","2020-09-08 11:00","2020","09","08","11:00","13.4","","11.0","","85","","","","2","","6","","","","99.59","","","","","","NA"
"-79.22","44.55","LAGOON CITY","6114295","2020-09-08 12:00","2020","09","08","12:00","14.2","","10.6","","79","","","","6","","9","","","","99.49","","","","","","NA"
"-79.22","44.55","LAGOON CITY","6114295","2020-09-08 13:00","2020","09","08","13:00","14.2","","9.1","","71","","","","7","","9","","","","99.50","","","","","","NA"
"-79.22","44.55","LAGOON CITY","6114295","2020-09-08 14:00","2020","09","08","14:00","14.3","","9.5","","73","","","","11","","12","","","","99.46","","","","","","NA"
"-79.22","44.55","LAGOON CITY","6114295","2020-09-08 15:00","2020","09","08","15:00","13.9","","10.1","","78","","","","5","","7","","","","99.50","","","","","","NA"
"-79.22","44.55","LAGOON CITY","6114295","2020-09-08 16:00","2020","09","08","16:00","12.5","","11.1","","91","","","","10","","9","","","","99.53","","","","","","NA"
"-79.22","44.55","LAGOON CITY","6114295","2020-09-08 17:00","2020","09","08","17:00","12.5","","11.5","","93","","","","10","","5","","","","99.56","","","","","","NA"
"-79.22","44.55","LAGOON CITY","6114295","2020-09-08 18:00","2020","09","08","18:00","12.4","","11.6","","95","","","","1","","6","","","","99.59","","","","","","NA"
"-79.22","44.55","LAGOON CITY","6114295","2020-09-08 19:00","2020","09","08","19:00","12.5","","11.6","","94","","","","6","","8","","","","99.58","","","","","","NA"
"-79.22","44.55","LAGOON CITY","6114295","2020-09-08 20:00","2020","09","08","20:00","12.6","","11.7","","94","","","","6","","8","","","","99.59","","","","","","NA"
"-79.22","44.55","LAGOON CITY","6114295","2020-09-08 21:00","2020","09","08","21:00","12.6","","11.6","","94","","","","2","","6","","","","99.63","","","","","","NA"
"-79.22","44.55","LAGOON CITY","6114295","2020-09-08 22:00","2020","09","08","22:00","12.8","","11.4","","91","","","","6","","9","","","","99.61","","","","","","NA"
"-79.22","44.55","LAGOON CITY","6114295","2020-09-08 23:00","2020","09","08","23:00","12.7","","11.6","","93","","","","7","","8","","","","99.57","","","","","","NA"
"-79.22","44.55","LAGOON CITY","6114295","2020-09-09 00:00","2020","09","09","00:00","12.8","","11.9","","94","","","","6","","3","","","","99.62","","","","","","NA"
"-79.22","44.55","LAGOON CITY","6114295","2020-09-09 01:00","2020","09","09","01:00","13.0","","12.1","","94","","","","6","","6","","","","99.61","","","","","","NA"
"-79.22","44.55","LAGOON CITY","6114295","2020-09-09 02:00","2020","09","09","02:00","12.9","","11.9","","93","","","","36","","5","","","","99.62","","","","","","NA"
"-79.22","44.55","LAGOON CITY","6114295","2020-09-09 03:00","2020","09","09","03:00","12.8","","12.2","","96","","","","4","","6","","","","99.64","","","","","","NA"
"-79.22","44.55","LAGOON CITY","6114295","2020-09-09 04:00","2020","09","09","04:00","12.6","","11.9","","96","","","","5","","10","","","","99.65","","","","","","NA"
"-79.22","44.55","LAGOON CITY","6114295","2020-09-09 05:00","2020","09","09","05:00","12.5","","11.9","","96","","","","4","","11","","","","99.70","","","","","","NA"
"-79.22","44.55","LAGOON CITY","6114295","2020-09-09 06:00","2020","09","09","06:00","12.6","","11.9","","96","","","","6","","8","","","","99.77","","","","","","NA"
"-79.22","44.55","LAGOON CITY","6114295","2020-09-09 07:00","2020","09","09","07:00","12.5","","11.7","","95","","","","1","","9","","","","99.87","","","","","","NA"
"-79.22","44.55","LAGOON CITY","6114295","2020-09-09 08:00","2020","09","09","08:00","12.7","","12.0","","95","","","","6","","11","","","","99.84","","","","","","NA"
"-79.22","44.55","LAGOON CITY","6114295","2020-09-09 09:00","2020","09","09","09:00","13.1","","12.1","","93","","","","6","","13","","","","99.87","","","","","","NA"
"-79.22","44.55","LAGOON CITY","6114295","2020-09-09 10:00","2020","09","09","10:00","13.5","","12.2","","92","","","","4","","8","","","","99.95","","","","","","NA"
"-79.22","44.55","LAGOON CITY","6114295","2020-09-09 11:00","2020","09","09","11:00","13.7","","12.3","","91","","","","5","","10","","","","99.95","","","","","","NA"
"-79.22","44.55","LAGOON CITY","6114295","2020-09-09 12:00","2020","09","09","12:00","13.6","","12.2","","91","","","","4","","10","","","","99.95","","","","","","NA"
"-79.22","44.55","LAGOON CITY","6114295","2020-09-09 13:00","2020","09","09","13:00","14.2","","12.4","","89","","","","6","","12","","","","99.90","","","","","","NA"
"-79.22","44.55","LAGOON CITY","6114295","2020-09-09 14:00","2020","09","09","14:00","14.4","","12.5","","89","","","","7","","10","","","","99.89","","","","","","NA"
"-79.22","44.55","LAGOON CITY","6114295","2020-09-09 15:00","2020","09","09","15:00","14.3","","12.5","","89","","","","5","","10","","","","99.87","","","","","","NA"
"-79.22","44.55","LAGOON CITY","6114295","2020-09-09 16:00","2020","09","09","16:00","14.3","","12.4","","88","","","","4","","10","","","","99.88","","","","","","NA"
"-79.22","44.55","LAGOON CITY","6114295","2020-09-09 17:00","2020","09","09","17:00","13.8","","12.3","","91","","","","4","","12","","","","99.87","","","","","","NA"
"-79.22","44.55","LAGOON CITY","6114295","2020-09-09 18:00","2020","09","09","18:00","13.6","","12.5","","93","","","","4","","10","","","","99.87","","","","","","NA"
"-79.22","44.55","LAGOON CITY","6114295","2020-09-09 19:00","2020","09","09","19:00","13.4","","12.3","","93","","","","8","","10","","","","99.85","","","","","","NA"
"-79.22","44.55","LAGOON CITY","6114295","2020-09-09 20:00","2020","09","09","20:00","13.4","","12.5","","94","","","","4","","6","","","","99.90","","","","","","NA"
"-79.22","44.55","LAGOON CITY","6114295","2020-09-09 21:00","2020","09","09","21:00","13.1","","12.6","","97","","","","7","","8","","","","99.90","","","","","","NA"
"-79.22","44.55","LAGOON CITY","6114295","2020-09-09 22:00","2020","09","09","22:00","13.0","","12.6","","98","","","","7","","7","","","","99.89","","","","","","NA"
"-79.22","44.55","LAGOON CITY","6114295","2020-09-09 23:00","2020","09","09","23:00","13.0","","12.7","","98","","","","10","","10","","","","99.83","","","","","","NA"
"-79.22","44.55","LAGOON CITY","6114295","2020-09-10 00:00","2020","09","10","00:00","13.2","","12.8","","97","","","","11","","10","","","","99.78","","","","","","NA"
"-79.22","44.55","LAGOON CITY","6114295","2020-09-10 01:00","2020","09","10","01:00","13.7","","13.1","","96","","","","11","","14","","","","99.70","","","","","","NA"
"-79.22","44.55","LAGOON CITY","6114295","2020-09-10 02:00","2020","09","10","02:00","13.7","","13.3","","97","","","","13","","9","","","","99.66","","","","","","NA"
"-79.22","44.55","LAGOON CITY","6114295","2020-09-10 03:00","2020","09","10","03:00","13.8","","13.6","","98","","","","14","","7","","","","99.66","","","","","","NA"
"-79.22","44.55","LAGOON CITY","6114295","2020-09-10 04:00","2020","09","10","04:00","14.4","","14.1","","98","","","","14","","11","","","","99.65","","","","","","NA"
"-79.22","44.55","LAGOON CITY","6114295","2020-09-10 05:00","2020","09","10","05:00","15.6","","15.3","","98","","","","18","","14","","","","99.66","","","","","","NA"
"-79.22","44.55","LAGOON CITY","6114295","2020-09-10 06:00","2020","09","10","06:00","17.2","","15.8","","92","","","","26","","18","","","","99.70","","","","","","NA"
"-79.22","44.55","LAGOON CITY","6114295","2020-09-10 07:00","2020","09","10","07:00","12.9","","12.1","","95","","","","35","","19","","","","99.80","","","","","","NA"
"-79.22","44.55","LAGOON CITY","6114295","2020-09-10 08:00","2020","09","10","08:00","13.2","","12.1","","93","","","","36","","7","","","","99.83","","","","","","NA"
"-79.22","44.55","LAGOON CITY","6114295","2020-09-10 09:00","2020","09","10","09:00","14.0","","12.5","","91","","","","33","","13","","","","99.88","","","","","","NA"
"-79.22","44.55","LAGOON CITY","6114295","2020-09-10 10:00","2020","09","10","10:00","13.7","","12.2","","91","","","","31","","14","","","","99.89","","","","","","NA"
"-79.22","44.55","LAGOON CITY","6114295","2020-09-10 11:00","2020","09","10","11:00","14.1","","12.4","","89","","","","30","","19","","","","99.90","","","","","","NA"
"-79.22","44.55","LAGOON CITY","6114295","2020-09-10 12:00","2020","09","10","12:00","15.0","","11.9","","81","","","","32","","15","","","","99.90","","","","","","NA"
"-79.22","44.55","LAGOON CITY","6114295","2020-09-10 13:00","2020","09","10","13:00","14.9","","11.2","","79","","","","33","","15","","","","99.91","","","","","","NA"
"-79.22","44.55","LAGOON CITY","6114295","2020-09-10 14:00","2020","09","10","14:00","14.2","","11.2","","82","","","","34","","17","","","","99.92","","","","","","NA"
"-79.22","44.55","LAGOON CITY","6114295","2020-09-10 15:00","2020","09","10","15:00","14.0","","11.0","","82","","","","35","","16","","","","99.93","","","","","","NA"
"-79.22","44.55","LAGOON CITY","6114295","2020-09-10 16:00","2020","09","10","16:00","13.6","","10.3","","80","","","","35","","12","","","","99.95","","","","","","NA"
"-79.22","44.55","LAGOON CITY","6114295","2020-09-10 17:00","2020","09","10","17:00","13.4","","10.1","","80","","","","35","","13","","","","99.94","","","","","","NA"
"-79.22","44.55","LAGOON CITY","6114295","2020-09-10 18:00","2020","09","10","18:00","13.1","","10.2","","82","","","","36","","8","","","","99.95","","","","","","NA"
"-79.22","44.55","LAGOON CITY","6114295","2020-09-10 19:00","2020","09","10","19:00","13.2","","10.7","","85","","","","35","","9","","","","99.98","","","","","","NA"
"-79.22","44.55","LAGOON CITY","6114295","2020-09-10 20:00","2020","09","10","20:00","12.8","","10.4","","85","","","","36","","9","","","","99.98","","","","","","NA"
"-79.22","44.55","LAGOON CITY","6114295","2020-09-10 21:00","2020","09","10","21:00","12.4","","10.0","","86","","","","36","","10","","","","100.00","","","","","","NA"
"-79.22","44.55","LAGOON CITY","6114295","2020-09-10 22:00","2020","09","10","22:00","12.0","","9.3","","84","","","","1","","11","","","","100.02","","","","","","NA"
"-79.22","44.55","LAGOON CITY","6114295","2020-09-10 23:00","2020","09","10","23:00","11.6","","8.9","","84","","","","1","","12","","","","99.99","","","","","","NA"
"-79.22","44.55","LAGOON CITY","6114295","2020-09-11 00:00","2020","09","11","00:00","11.3","","8.8","","84","","","","2","","8","","","","99.99","","","","","","NA"
"-79.22","44.55","LAGOON CITY","6114295","2020-09-11 01:00","2020","09","11","01:00","11.0","","8.3","","83","","","","1","","10","","","","100.02","","","","","","NA"
"-79.22","44.55","LAGOON CITY","6114295","2020-09-11 02:00","2020","09","11","02:00","10.8","","8.1","","83","","","","35","","10","","","","100.03","","","","","","NA"
"-79.22","44.55","LAGOON CITY","6114295","2020-09-11 03:00","2020","09","11","03:00","10.6","","8.0","","84","","","","36","","9","","","","100.05","","","","","","NA"
"-79.22","44.55","LAGOON CITY","6114295","2020-09-11 04:00","2020","09","11","04:00","10.5","","8.0","","84","","","","36","","8","","","","100.09","","","","","","NA"
"-79.22","44.55","LAGOON CITY","6114295","2020-09-11 05:00","2020","09","11","05:00","10.7","","7.2","","79","","","","36","","7","","","","100.11","","","","","","NA"
"-79.22","44.55","LAGOON CITY","6114295","2020-09-11 06:00","2020","09","11","06:00","10.3","","7.9","","85","","","","2","","9","","","","100.16","","","","","","NA"
"-79.22","44.55","LAGOON CITY","6114295","2020-09-11 07:00","2020","09","11","07:00","10.4","","7.7","","83","","","","1","","10","","","","100.22","","","","","","NA"
"-79.22","44.55","LAGOON CITY","6114295","2020-09-11 08:00","2020","09","11","08:00","10.6","","6.5","","76","","","","1","","12","","","","100.22","","","","","","NA"
"-79.22","44.55","LAGOON CITY","6114295","2020-09-11 09:00","2020","09","11","09:00","11.3","","5.8","","69","","","","6","","12","","","","100.23","","","","","","NA"
"-79.22","44.55","LAGOON CITY","6114295","2020-09-11 10:00","2020","09","11","10:00","12.7","","6.5","","66","","","","6","","7","","","","100.23","","","","","","NA"
"-79.22","44.55","LAGOON CITY","6114295","2020-09-11 11:00","2020","09","11","11:00","13.2","","6.2","","63","","","","4","","5","","","","100.21","","","","","","NA"
"-79.22","44.55","LAGOON CITY","6114295","2020-09-11 12:00","2020","09","11","12:00","14.4","","7.1","","62","","","","2","","6","","","","100.20","","","","","","NA"
"-79.22","44.55","LAGOON CITY","6114295","2020-09-11 13:00","2020","09","11","13:00","14.1","","8.4","","68","","","","25","","8","","","","100.16","","","","","","NA"
"-79.22","44.55","LAGOON CITY","6114295","2020-09-11 14:00","2020","09","11","14:00","14.8","","7.8","","63","","","","25","","15","","","","100.11","","","","","","NA"
"-79.22","44.55","LAGOON CITY","6114295","2020-09-11 15:00","2020","09","11","15:00","15.7","","7.7","","59","","","","25","","11","","","","100.05","","","","","","NA"
"-79.22","44.55","LAGOON CITY","6114295","2020-09-11 16:00","2020","09","11","16:00","16.5","","7.6","","56","","","","24","","13","","","","100.01","","","","","","NA"
"-79.22","44.55","LAGOON CITY","6114295","2020-09-11 17:00","2020","09","11","17:00","16.9","","7.7","","55","","","","25","","8","","","","100.00","","","","","","NA"
"-79.22","44.55","LAGOON CITY","6114295","2020-09-11 18:00","2020","09","11","18:00","17.2","","8.0","","54","","","","27","","6","","","","100.00","","","","","","NA"
"-79.22","44.55","LAGOON CITY","6114295","2020-09-11 19:00","2020","09","11","19:00","14.6","","10.0","","74","","","","1","","3","","","","100.00","","","","","","NA"
"-79.22","44.55","LAGOON CITY","6114295","2020-09-11 20:00","2020","09","11","20:00","12.4","","10.0","","85","","","","4","","13","","","","100.00","","","","","","NA"
"-79.22","44.55","LAGOON CITY","6114295","2020-09-11 21:00","2020","09","11","21:00","11.0","","10.0","","93","","","","5","","9","","","","100.00","","","","","","NA"
"-79.22","44.55","LAGOON CITY","6114295","2020-09-11 22:00","2020","09","11","22:00","10.4","","8.8","","90","","","","7","","8","","","","99.98","","","","","","NA"
"-79.22","44.55","LAGOON CITY","6114295","2020-09-11 23:00","2020","09","11","23:00","11.4","","8.5","","82","","","","9","","12","","","","99.94","","","","","","NA"
"-79.22","44.55","LAGOON CITY","6114295","2020-09-12 00:00","2020","09","12","00:00","10.7","","8.6","","87","","","","9","","9","","","","99.94","","","","","","NA"
"-79.22","44.55","LAGOON CITY","6114295","2020-09-12 01:00","2020","09","12","01:00","9.9","","8.5","","91","","","","9","","10","","","","99.93","","","","","","NA"
"-79.22","44.55","LAGOON CITY","6114295","2020-09-12 02:00","2020","09","12","02:00","9.8","","8.7","","93","","","","10","","7","","","","99.90","","","","","","NA"
"-79.22","44.55","LAGOON CITY","6114295","2020-09-12 03:00","2020","09","12","03:00","9.1","","8.3","","95","","","","9","","10","","","","99.86","","","","","","NA"
"-79.22","44.55","LAGOON CITY","6114295","2020-09-12 04:00","2020","09","12","04:00","8.9","","8.1","","95","","","","9","","11","","","","99.84","","","","","","NA"
"-79.22","44.55","LAGOON CITY","6114295","2020-09-12 05:00","2020","09","12","05:00","8.5","","7.9","","96","","","","7","","10","","","","99.80","","","","","","NA"
"-79.22","44.55","LAGOON CITY","6114295","2020-09-12 06:00","2020","09","12","06:00","7.6","","7.2","","97","","","","6","","12","","","","99.80","","","","","","NA"
"-79.22","44.55","LAGOON CITY","6114295","2020-09-12 07:00","2020","09","12","07:00","8.8","","7.9","","94","","","","7","","7","","","","99.78","","","","","","NA"
"-79.22","44.55","LAGOON CITY","6114295","2020-09-12 08:00","2020","09","12","08:00","12.2","","7.8","","75","","","","10","","14","","","","99.74","","","","","","NA"
"-79.22","44.55","LAGOON CITY","6114295","2020-09-12 09:00","2020","09","12","09:00","13.4","","8.1","","70","","","","12","","18","","","","99.69","","","","","","NA"
"-79.22","44.55","LAGOON CITY","6114295","2020-09-12 10:00","2020","09","12","10:00","14.9","","9.4","","70","","","","12","","18","","","","99.63","","","","","","NA"
"-79.22","44.55","LAGOON CITY","6114295","2020-09-12 11:00","2020","09","12","11:00","16.0","","10.3","","69","","","","12","","18","","","","99.55","","","","","","NA"
"-79.22","44.55","LAGOON CITY","6114295","2020-09-12 12:00","2020","09","12","12:00","17.4","","11.3","","67","","","","13","","19","","","","99.48","","","","","","NA"
"-79.22","44.55","LAGOON CITY","6114295","2020-09-12 13:00","2020","09","12","13:00","18.7","","10.9","","60","","","","13","","19","","","","99.39","","","","","","NA"
"-79.22","44.55","LAGOON CITY","6114295","2020-09-12 14:00","2020","09","12","14:00","19.6","","12.6","","64","","","","12","","19","","","","99.31","","","","","","NA"
"-79.22","44.55","LAGOON CITY","6114295","2020-09-12 15:00","2020","09","12","15:00","20.2","","12.9","","63","","","","14","","18","","","","99.22","","","","","","NA"
"-79.22","44.55","LAGOON CITY","6114295","2020-09-12 16:00","2020","09","12","16:00","20.1","","13.2","","65","","","","14","","21","","","","99.16","","","","","","NA"
"-79.22","44.55","LAGOON CITY","6114295","2020-09-12 17:00","2020","09","12","17:00","19.5","","13.9","","70","","","","12","","18","","","","99.10","","","","","","NA"
"-79.22","44.55","LAGOON CITY","6114295","2020-09-12 18:00","2020","09","12","18:00","18.8","","14.0","","74","","","","12","","16","","","","99.05","","","","","","NA"
"-79.22","44.55","LAGOON CITY","6114295","2020-09-12 19:00","2020","09","12","19:00","18.5","","15.0","","80","","","","12","","15","","","","98.98","","","","","","NA"
"-79.22","44.55","LAGOON CITY","6114295","2020-09-12 20:00","2020","09","12","20:00","18.3","","15.1","","81","","","","11","","18","","","","98.97","","","","","","NA"
"-79.22","44.55","LAGOON CITY","6114295","2020-09-12 21:00","2020","09","12","21:00","18.2","","15.4","","84","","","","13","","18","","","","98.92","","","","","","NA"
"-79.22","44.55","LAGOON CITY","6114295","2020-09-12 22:00","2020","09","12","22:00","18.6","","16.0","","85","","","","13","","19","","","","98.88","","","","","","NA"
"-79.22","44.55","LAGOON CITY","6114295","2020-09-12 23:00","2020","09","12","23:00","18.7","","16.2","","85","","","","14","","20","","","","98.80","","","","","","NA"
"-79.22","44.55","LAGOON CITY","6114295","2020-09-13 00:00","2020","09","13","00:00","18.6","","16.2","","86","","","","15","","14","","","","98.75","","","","","","NA"
"-79.22","44.55","LAGOON CITY","6114295","2020-09-13 01:00","2020","09","13","01:00","18.8","","17.0","","89","","","","15","","12","","","","98.70","","","","","","NA"
"-79.22","44.55","LAGOON CITY","6114295","2020-09-13 02:00","2020","09","13","02:00","19.1","","16.7","","86","","","","20","","26","","","","98.67","","","","","","NA"
"-79.22","44.55","LAGOON CITY","6114295","2020-09-13 03:00","2020","09","13","03:00","18.9","","16.8","","87","","","","18","","23","","","","98.61","","","","","","NA"
"-79.22","44.55","LAGOON CITY","6114295","2020-09-13 04:00","2020","09","13","04:00","18.9","","17.1","","90","","","","18","","20","","","","98.54","","","","","","NA"
"-79.22","44.55","LAGOON CITY","6114295","2020-09-13 05:00","2020","09","13","05:00","19.0","","17.3","","90","","","","18","","21","","","","98.47","","","","","","NA"
"-79.22","44.55","LAGOON CITY","6114295","2020-09-13 06:00","2020","09","13","06:00","19.2","","17.6","","90","","","","17","","29","","","","98.38","","","","","","NA"
"-79.22","44.55","LAGOON CITY","6114295","2020-09-13 07:00","2020","09","13","07:00","19.5","","18.0","","91","","","","20","","25","","","","98.37","","","","","","NA"
"-79.22","44.55","LAGOON CITY","6114295","2020-09-13 08:00","2020","09","13","08:00","18.6","","17.9","","96","","","","19","","24","","","","98.35","","","","","","NA"
"-79.22","44.55","LAGOON CITY","6114295","2020-09-13 09:00","2020","09","13","09:00","18.7","","18.1","","96","","","","19","","22","","","","98.34","","","","","","NA"
"-79.22","44.55","LAGOON CITY","6114295","2020-09-13 10:00","2020","09","13","10:00","19.1","","18.4","","96","","","","18","","20","","","","98.33","","","","","","NA"
"-79.22","44.55","LAGOON CITY","6114295","2020-09-13 11:00","2020","09","13","11:00","19.8","","18.0","","89","","","","23","","25","","","","98.37","","","","","","NA"
"-79.22","44.55","LAGOON CITY","6114295","2020-09-13 12:00","2020","09","13","12:00","20.3","","17.1","","82","","","","23","","25","","","","98.34","","26","","","","NA"
"-79.22","44.55","LAGOON CITY","6114295","2020-09-13 13:00","2020","09","13","13:00","20.3","","14.9","","71","","","","29","","40","","","","98.42","","","","","","NA"
"-79.22","44.55","LAGOON CITY","6114295","2020-09-13 14:00","2020","09","13","14:00","19.8","","14.4","","71","","","","28","","37","","","","98.49","","","","","","NA"
"-79.22","44.55","LAGOON CITY","6114295","2020-09-13 15:00","2020","09","13","15:00","19.8","","15.1","","75","","","","27","","30","","","","98.56","","","","","","NA"
"-79.22","44.55","LAGOON CITY","6114295","2020-09-13 16:00","2020","09","13","16:00","19.1","","14.6","","75","","","","29","","35","","","","98.62","","","","","","NA"
"-79.22","44.55","LAGOON CITY","6114295","2020-09-13 17:00","2020","09","13","17:00","18.4","","14.7","","79","","","","29","","29","","","","98.73","","","","","","NA"
"-79.22","44.55","LAGOON CITY","6114295","2020-09-13 18:00","2020","09","13","18:00","17.8","","14.4","","81","","","","29","","33","","","","98.81","","","","","","NA"
"-79.22","44.55","LAGOON CITY","6114295","2020-09-13 19:00","2020","09","13","19:00","16.8","","12.4","","75","","","","30","","29","","","","98.93","","","","","","NA"
"-79.22","44.55","LAGOON CITY","6114295","2020-09-13 20:00","2020","09","13","20:00","16.6","","12.3","","75","","","","30","","21","","","","99.01","","","","","","NA"
"-79.22","44.55","LAGOON CITY","6114295","2020-09-13 21:00","2020","09","13","21:00","16.4","","12.6","","78","","","","30","","22","","","","99.05","","","","","","NA"
"-79.22","44.55","LAGOON CITY","6114295","2020-09-13 22:00","2020","09","13","22:00","16.2","","12.1","","77","","","","31","","15","","","","99.06","","","","","","NA"
"-79.22","44.55","LAGOON CITY","6114295","2020-09-13 23:00","2020","09","13","23:00","15.5","","11.1","","75","","","","32","","14","","","","99.12","","","","","","NA"
"-79.22","44.55","LAGOON CITY","6114295","2020-09-14 00:00","2020","09","14","00:00","15.2","","11.3","","78","","","","31","","21","","","","99.20","","","","","","NA"
"-79.22","44.55","LAGOON CITY","6114295","2020-09-14 01:00","2020","09","14","01:00","14.7","","11.5","","81","","","","32","","21","","","","99.25","","","","","","NA"
"-79.22","44.55","LAGOON CITY","6114295","2020-09-14 02:00","2020","09","14","02:00","14.0","","11.2","","84","","","","33","","17","","","","99.36","","","","","","NA"
"-79.22","44.55","LAGOON CITY","6114295","2020-09-14 03:00","2020","09","14","03:00","13.1","","11.0","","87","","","","36","","8","","","","99.45","","","","","","NA"
"-79.22","44.55","LAGOON CITY","6114295","2020-09-14 04:00","2020","09","14","04:00","12.6","","9.5","","81","","","","36","","14","","","","99.55","","","","","","NA"
"-79.22","44.55","LAGOON CITY","6114295","2020-09-14 05:00","2020","09","14","05:00","11.8","","6.8","","72","","","","34","","16","","","","99.65","","","","","","NA"
"-79.22","44.55","LAGOON CITY","6114295","2020-09-14 06:00","2020","09","14","06:00","10.4","","5.9","","74","","","","34","","14","","","","99.78","","","","","","NA"
"-79.22","44.55","LAGOON CITY","6114295","2020-09-14 07:00","2020","09","14","07:00","9.6","","5.8","","78","","","","35","","14","","","","99.89","","","","","","NA"
"-79.22","44.55","LAGOON CITY","6114295","2020-09-14 08:00","2020","09","14","08:00","10.2","","5.3","","72","","","","35","","12","","","","99.96","","","","","","NA"
"-79.22","44.55","LAGOON CITY","6114295","2020-09-14 09:00","2020","09","14","09:00","10.8","","5.1","","68","","","","35","","17","","","","100.02","","","","","","NA"
"-79.22","44.55","LAGOON CITY","6114295","2020-09-14 10:00","2020","09","14","10:00","12.1","","5.5","","64","","","","35","","15","","","","100.09","","","","","","NA"
"-79.22","44.55","LAGOON CITY","6114295","2020-09-14 11:00","2020","09","14","11:00","12.3","","3.7","","56","","","","34","","19","","","","100.10","","","","","","NA"
"-79.22","44.55","LAGOON CITY","6114295","2020-09-14 12:00","2020","09","14","12:00","12.7","","4.1","","56","","","","33","","20","","","","100.08","","","","","","NA"
"-79.22","44.55","LAGOON CITY","6114295","2020-09-14 13:00","2020","09","14","13:00","13.3","","3.4","","51","","","","32","","18","","","","100.07","","","","","","NA"
"-79.22","44.55","LAGOON CITY","6114295","2020-09-14 14:00","2020","09","14","14:00","14.0","","3.7","","50","","","","32","","15","","","","100.06","","","","","","NA"
"-79.22","44.55","LAGOON CITY","6114295","2020-09-14 15:00","2020","09","14","15:00","14.4","","3.0","","46","","","","34","","14","","","","100.06","","","","","","NA"
"-79.22","44.55","LAGOON CITY","6114295","2020-09-14 16:00","2020","09","14","16:00","14.6","","3.2","","46","","","","33","","15","","","","100.04","","","","","","NA"
"-79.22","44.55","LAGOON CITY","6114295","2020-09-14 17:00","2020","09","14","17:00","13.8","","6.0","","59","","","","30","","18","","","","100.07","","","","","","NA"
"-79.22","44.55","LAGOON CITY","6114295","2020-09-14 18:00","2020","09","14","18:00","12.9","","6.9","","67","","","","31","","18","","","","100.11","","","","","","NA"
"-79.22","44.55","LAGOON CITY","6114295","2020-09-14 19:00","2020","09","14","19:00","11.9","","7.3","","74","","","","32","","17","","","","100.13","","","","","","NA"
"-79.22","44.55","LAGOON CITY","6114295","2020-09-14 20:00","2020","09","14","20:00","10.6","","7.4","","80","","","","34","","13","","","","100.14","","","","","","NA"
"-79.22","44.55","LAGOON CITY","6114295","2020-09-14 21:00","2020","09","14","21:00","10.5","","7.7","","82","","","","34","","11","","","","100.19","","","","","","NA"
"-79.22","44.55","LAGOON CITY","6114295","2020-09-14 22:00","2020","09","14","22:00","10.1","","7.3","","83","","","","33","","12","","","","100.19","","","","","","NA"
"-79.22","44.55","LAGOON CITY","6114295","2020-09-14 23:00","2020","09","14","23:00","9.2","","6.7","","84","","","","1","","8","","","","100.17","","","","","","NA"
"-79.22","44.55","LAGOON CITY","6114295","2020-09-15 00:00","2020","09","15","00:00","7.8","","6.8","","94","","","","6","","9","","","","100.16","","","","","","NA"
"-79.22","44.55","LAGOON CITY","6114295","2020-09-15 01:00","2020","09","15","01:00","7.7","","6.8","","94","","","","6","","10","","","","100.14","","","","","","NA"
"-79.22","44.55","LAGOON CITY","6114295","2020-09-15 02:00","2020","09","15","02:00","7.2","","6.4","","95","","","","7","","9","","","","100.10","","","","","","NA"
"-79.22","44.55","LAGOON CITY","6114295","2020-09-15 03:00","2020","09","15","03:00","5.8","","5.5","","98","","","","5","","10","","","","100.11","","","","","","NA"
"-79.22","44.55","LAGOON CITY","6114295","2020-09-15 04:00","2020","09","15","04:00","6.0","","5.7","","98","","","","7","","6","","","","100.13","","","","","","NA"
"-79.22","44.55","LAGOON CITY","6114295","2020-09-15 05:00","2020","09","15","05:00","5.8","","5.6","","98","","","","8","","4","","","","100.13","","","","","","NA"
"-79.22","44.55","LAGOON CITY","6114295","2020-09-15 06:00","2020","09","15","06:00","6.4","","6.1","","98","","","","10","","5","","","","100.13","","","","","","NA"
"-79.22","44.55","LAGOON CITY","6114295","2020-09-15 07:00","2020","09","15","07:00","7.7","","5.4","","86","","","","11","","8","","","","100.13","","","","","","NA"
"-79.22","44.55","LAGOON CITY","6114295","2020-09-15 08:00","2020","09","15","08:00","8.5","","5.9","","84","","","","12","","13","","","","100.10","","","","","","NA"
"-79.22","44.55","LAGOON CITY","6114295","2020-09-15 09:00","2020","09","15","09:00","11.1","","5.9","","70","","","","16","","19","","","","100.07","","","","","","NA"
"-79.22","44.55","LAGOON CITY","6114295","2020-09-15 10:00","2020","09","15","10:00","12.7","","6.2","","65","","","","19","","22","","","","99.99","","","","","","NA"
"-79.22","44.55","LAGOON CITY","6114295","2020-09-15 11:00","2020","09","15","11:00","13.5","","7.4","","66","","","","19","","29","","","","99.84","","","","","","NA"
"-79.22","44.55","LAGOON CITY","6114295","2020-09-15 12:00","2020","09","15","12:00","14.8","","6.4","","57","","","","19","","26","","","","99.79","","","","","","NA"
"-79.22","44.55","LAGOON CITY","6114295","2020-09-15 13:00","2020","09","15","13:00","15.5","","7.2","","58","","","","20","","23","","","","99.73","","","","","","NA"
"-79.22","44.55","LAGOON CITY","6114295","2020-09-15 14:00","2020","09","15","14:00","16.2","","6.3","","52","","","","19","","24","","","","99.63","","","","","","NA"
"-79.22","44.55","LAGOON CITY","6114295","2020-09-15 15:00","2020","09","15","15:00","17.1","","9.0","","59","","","","20","","27","","","","99.52","","","","","","NA"
"-79.22","44.55","LAGOON CITY","6114295","2020-09-15 16:00","2020","09","15","16:00","17.5","","10.0","","61","","","","20","","33","","","","99.44","","","","","","NA"
"-79.22","44.55","LAGOON CITY","6114295","2020-09-15 17:00","2020","09","15","17:00","17.5","","10.8","","65","","","","18","","29","","","","99.37","","","","","","NA"
"-79.22","44.55","LAGOON CITY","6114295","2020-09-15 18:00","2020","09","15","18:00","17.1","","11.3","","68","","","","18","","35","","","","99.32","","","","","","NA"
"-79.22","44.55","LAGOON CITY","6114295","2020-09-15 19:00","2020","09","15","19:00","16.7","","11.7","","72","","","","18","","35","","","","99.27","","","","","","NA"
"-79.22","44.55","LAGOON CITY","6114295","2020-09-15 20:00","2020","09","15","20:00","16.5","","11.8","","74","","","","18","","34","","","","99.25","","","","","","NA"
"-79.22","44.55","LAGOON CITY","6114295","2020-09-15 21:00","2020","09","15","21:00","16.3","","12.2","","76","","","","19","","33","","","","99.20","","","","","","NA"
"-79.22","44.55","LAGOON CITY","6114295","2020-09-15 22:00","2020","09","15","22:00","16.3","","11.5","","73","","","","19","","33","","","","99.14","","","","","","NA"
"-79.22","44.55","LAGOON CITY","6114295","2020-09-15 23:00","2020","09","15","23:00","16.0","","11.6","","75","","","","20","","34","","","","99.08","","","","","","NA"
"-79.22","44.55","LAGOON CITY","6114295","2020-09-16 00:00","2020","09","16","00:00","15.6","","11.1","","74","","","","20","","38","","","","99.04","","","","","","NA"
"-79.22","44.55","LAGOON CITY","6114295","2020-09-16 01:00","2020","09","16","01:00","15.7","","12.5","","81","","","","20","","29","","","","99.00","","","","","","NA"
"-79.22","44.55","LAGOON CITY","6114295","2020-09-16 02:00","2020","09","16","02:00","16.0","","11.7","","76","","","","21","","24","","","","98.99","","","","","","NA"
"-79.22","44.55","LAGOON CITY","6114295","2020-09-16 03:00","2020","09","16","03:00","16.1","","12.5","","79","","","","21","","25","","","","98.94","","","","","","NA"
"-79.22","44.55","LAGOON CITY","6114295","2020-09-16 04:00","2020","09","16","04:00","16.3","","12.6","","79","","","","21","","28","","","","98.91","","","","","","NA"
"-79.22","44.55","LAGOON CITY","6114295","2020-09-16 05:00","2020","09","16","05:00","16.1","","12.8","","81","","","","20","","27","","","","98.88","","","","","","NA"
"-79.22","44.55","LAGOON CITY","6114295","2020-09-16 06:00","2020","09","16","06:00","16.4","","12.7","","79","","","","21","","28","","","","98.87","","","","","","NA"
"-79.22","44.55","LAGOON CITY","6114295","2020-09-16 07:00","2020","09","16","07:00","15.7","","12.3","","80","","","","19","","26","","","","98.86","","","","","","NA"
"-79.22","44.55","LAGOON CITY","6114295","2020-09-16 08:00","2020","09","16","08:00","16.5","","12.5","","77","","","","21","","27","","","","98.83","","","","","","NA"
"-79.22","44.55","LAGOON CITY","6114295","2020-09-16 09:00","2020","09","16","09:00","17.3","","13.0","","76","","","","21","","33","","","","98.80","","","","","","NA"
"-79.22","44.55","LAGOON CITY","6114295","2020-09-16 10:00","2020","09","16","10:00","17.6","","12.7","","73","","","","22","","29","","","","98.78","","","","","","NA"
"-79.22","44.55","LAGOON CITY","6114295","2020-09-16 11:00","2020","09","16","11:00","18.3","","13.5","","73","","","","20","","26","","","","98.73","","","","","","NA"
"-79.22","44.55","LAGOON CITY","6114295","2020-09-16 12:00","2020","09","16","12:00","19.2","","14.4","","74","","","","20","","26","","","","98.67","","","","","","NA"
"-79.22","44.55","LAGOON CITY","6114295","2020-09-16 13:00","2020","09","16","13:00","19.9","","15.0","","73","","","","21","","21","","","","98.62","","","","","","NA"
"-79.22","44.55","LAGOON CITY","6114295","2020-09-16 14:00","2020","09","16","14:00","20.3","","15.2","","73","","","","21","","26","","","","98.55","","","","","","NA"
"-79.22","44.55","LAGOON CITY","6114295","2020-09-16 15:00","2020","09","16","15:00","20.8","","15.0","","69","","","","19","","30","","","","98.45","","25","","","","NA"
"-79.22","44.55","LAGOON CITY","6114295","2020-09-16 16:00","2020","09","16","16:00","20.9","","15.3","","70","","","","21","","25","","","","98.45","","25","","","","NA"
"-79.22","44.55","LAGOON CITY","6114295","2020-09-16 17:00","2020","09","16","17:00","20.5","","15.7","","74","","","","22","","24","","","","98.49","","25","","","","NA"
"-79.22","44.55","LAGOON CITY","6114295","2020-09-16 18:00","2020","09","16","18:00","20.6","","15.5","","73","","","","23","","27","","","","98.51","","25","","","","NA"
"-79.22","44.55","LAGOON CITY","6114295","2020-09-16 19:00","2020","09","16","19:00","19.7","","16.0","","79","","","","32","","24","","","","98.61","","","","","","NA"
"-79.22","44.55","LAGOON CITY","6114295","2020-09-16 20:00","2020","09","16","20:00","17.8","","15.0","","83","","","","31","","28","","","","98.73","","","","","","NA"
"-79.22","44.55","LAGOON CITY","6114295","2020-09-16 21:00","2020","09","16","21:00","17.0","","14.8","","86","","","","31","","17","","","","98.79","","","","","","NA"
"-79.22","44.55","LAGOON CITY","6114295","2020-09-16 22:00","2020","09","16","22:00","16.5","","14.2","","86","","","","31","","18","","","","98.83","","","","","","NA"
"-79.22","44.55","LAGOON CITY","6114295","2020-09-16 23:00","2020","09","16","23:00","16.3","","14.1","","87","","","","31","","16","","","","98.87","","","","","","NA"
"-79.22","44.55","LAGOON CITY","6114295","2020-09-17 00:00","2020","09","17","00:00","15.8","","14.1","","89","","","","32","","13","","","","98.89","","","","","","NA"
"-79.22","44.55","LAGOON CITY","6114295","2020-09-17 01:00","2020","09","17","01:00","15.1","","13.9","","92","","","","33","","13","","","","98.91","","","","","","NA"
"-79.22","44.55","LAGOON CITY","6114295","2020-09-17 02:00","2020","09","17","02:00","14.4","","13.5","","94","","","","35","","9","","","","98.90","","","","","","NA"
"-79.22","44.55","LAGOON CITY","6114295","2020-09-17 03:00","2020","09","17","03:00","13.5","","12.7","","95","","","","36","","5","","","","98.92","","","","","","NA"
"-79.22","44.55","LAGOON CITY","6114295","2020-09-17 04:00","2020","09","17","04:00","13.2","","12.6","","96","","","","34","","4","","","","98.97","","","","","","NA"
"-79.22","44.55","LAGOON CITY","6114295","2020-09-17 05:00","2020","09","17","05:00","12.2","","11.5","","95","","","","35","","10","","","","99.03","","","","","","NA"
"-79.22","44.55","LAGOON CITY","6114295","2020-09-17 06:00","2020","09","17","06:00","11.1","","10.5","","96","","","","36","","12","","","","99.08","","","","","","NA"
"-79.22","44.55","LAGOON CITY","6114295","2020-09-17 07:00","2020","09","17","07:00","10.4","","9.2","","92","","","","1","","15","","","","99.19","","","","","","NA"
"-79.22","44.55","LAGOON CITY","6114295","2020-09-17 08:00","2020","09","17","08:00","10.8","","8.5","","86","","","","1","","16","","","","99.26","","","","","","NA"
"-79.22","44.55","LAGOON CITY","6114295","2020-09-17 09:00","2020","09","17","09:00","11.5","","7.6","","77","","","","1","","19","","","","99.35","","","","","","NA"
"-79.22","44.55","LAGOON CITY","6114295","2020-09-17 10:00","2020","09","17","10:00","12.0","","7.9","","76","","","","35","","19","","","","99.39","","","","","","NA"
"-79.22","44.55","LAGOON CITY","6114295","2020-09-17 11:00","2020","09","17","11:00","13.0","","6.1","","63","","","","36","","20","","","","99.37","","","","","","NA"
"-79.22","44.55","LAGOON CITY","6114295","2020-09-17 12:00","2020","09","17","12:00","13.8","","5.0","","55","","","","34","","13","","","","99.34","","","","","","NA"
"-79.22","44.55","LAGOON CITY","6114295","2020-09-17 13:00","2020","09","17","13:00","14.3","","5.2","","54","","","","30","","15","","","","99.32","","","","","","NA"
"-79.22","44.55","LAGOON CITY","6114295","2020-09-17 14:00","2020","09","17","14:00","14.5","","4.8","","52","","","","33","","11","","","","99.29","","","","","","NA"
"-79.22","44.55","LAGOON CITY","6114295","2020-09-17 15:00","2020","09","17","15:00","14.8","","5.3","","53","","","","29","","16","","","","99.27","","","","","","NA"
"-79.22","44.55","LAGOON CITY","6114295","2020-09-17 16:00","2020","09","17","16:00","14.4","","6.2","","58","","","","31","","19","","","","99.25","","","","","","NA"
"-79.22","44.55","LAGOON CITY","6114295","2020-09-17 17:00","2020","09","17","17:00","13.9","","4.4","","53","","","","31","","20","","","","99.24","","","","","","NA"
"-79.22","44.55","LAGOON CITY","6114295","2020-09-17 18:00","2020","09","17","18:00","13.0","","4.8","","57","","","","31","","20","","","","99.26","","","","","","NA"
"-79.22","44.55","LAGOON CITY","6114295","2020-09-17 19:00","2020","09","17","19:00","11.8","","5.2","","64","","","","32","","17","","","","99.29","","","","","","NA"
"-79.22","44.55","LAGOON CITY","6114295","2020-09-17 20:00","2020","09","17","20:00","11.0","","5.8","","70","","","","33","","16","","","","99.32","","","","","","NA"
"-79.22","44.55","LAGOON CITY","6114295","2020-09-17 21:00","2020","09","17","21:00","9.9","","5.9","","76","","","","34","","15","","","","99.35","","","","","","NA"
"-79.22","44.55","LAGOON CITY","6114295","2020-09-17 22:00","2020","09","17","22:00","8.9","","2.9","","66","","","","35","","17","","","","99.40","","","","","","NA"
"-79.22","44.55","LAGOON CITY","6114295","2020-09-17 23:00","2020","09","17","23:00","6.7","","1.9","","72","","","","3","","10","","","","99.40","","","","","","NA"
"-79.22","44.55","LAGOON CITY","6114295","2020-09-18 00:00","2020","09","18","00:00","6.1","","1.7","","73","","","","1","","13","","","","99.41","","","","","","NA"
"-79.22","44.55","LAGOON CITY","6114295","2020-09-18 01:00","2020","09","18","01:00","5.6","","2.0","","78","","","","2","","10","","","","99.42","","","","","","NA"
"-79.22","44.55","LAGOON CITY","6114295","2020-09-18 02:00","2020","09","18","02:00","4.8","","2.1","","82","","","","2","","10","","","","99.43","","","","","","NA"
"-79.22","44.55","LAGOON CITY","6114295","2020-09-18 03:00","2020","09","18","03:00","4.3","","2.1","","85","","","","3","","8","","","","99.43","","","","","","NA"
"-79.22","44.55","LAGOON CITY","6114295","2020-09-18 04:00","2020","09","18","04:00","3.8","","2.2","","89","","","","2","","9","","","","99.48","","","","","","NA"
"-79.22","44.55","LAGOON CITY","6114295","2020-09-18 05:00","2020","09","18","05:00","3.4","","1.8","","89","","","","3","","12","","","","99.52","","","","","","NA"
"-79.22","44.55","LAGOON CITY","6114295","2020-09-18 06:00","2020","09","18","06:00","4.0","","2.2","","88","","","","5","","9","","","","99.57","","","","","","NA"
"-79.22","44.55","LAGOON CITY","6114295","2020-09-18 07:00","2020","09","18","07:00","4.6","","2.6","","87","","","","3","","8","","","","99.63","","","","","","NA"
"-79.22","44.55","LAGOON CITY","6114295","2020-09-18 08:00","2020","09","18","08:00","6.8","","2.4","","73","","","","3","","12","","","","99.68","","","","","","NA"
"-79.22","44.55","LAGOON CITY","6114295","2020-09-18 09:00","2020","09","18","09:00","9.5","","2.8","","63","","","","4","","10","","","","99.74","","","","","","NA"
"-79.22","44.55","LAGOON CITY","6114295","2020-09-18 10:00","2020","09","18","10:00","10.1","","2.1","","57","","","","35","","11","","","","99.80","","","","","","NA"
"-79.22","44.55","LAGOON CITY","6114295","2020-09-18 11:00","2020","09","18","11:00","11.1","","2.0","","54","","","","33","","14","","","","99.82","","","","","","NA"
"-79.22","44.55","LAGOON CITY","6114295","2020-09-18 12:00","2020","09","18","12:00","11.5","","-1.3","","41","","","","35","","13","","","","99.82","","","","","","NA"
"-79.22","44.55","LAGOON CITY","6114295","2020-09-18 13:00","2020","09","18","13:00","11.5","","-0.8","","42","","","","33","","16","","","","99.81","","","","","","NA"
"-79.22","44.55","LAGOON CITY","6114295","2020-09-18 14:00","2020","09","18","14:00","11.7","","-1.2","","41","","","","32","","19","","","","99.79","","","","","","NA"
"-79.22","44.55","LAGOON CITY","6114295","2020-09-18 15:00","2020","09","18","15:00","11.9","","-0.5","","42","","","","32","","16","","","","99.79","","","","","","NA"
"-79.22","44.55","LAGOON CITY","6114295","2020-09-18 16:00","2020","09","18","16:00","12.1","","-1.4","","39","","","","34","","19","","","","99.81","","","","","","NA"
"-79.22","44.55","LAGOON CITY","6114295","2020-09-18 17:00","2020","09","18","17:00","12.2","","0.0","","43","","","","33","","18","","","","99.82","","","","","","NA"
"-79.22","44.55","LAGOON CITY","6114295","2020-09-18 18:00","2020","09","18","18:00","11.1","","-0.8","","44","","","","34","","14","","","","99.86","","","","","","NA"
"-79.22","44.55","LAGOON CITY","6114295","2020-09-18 19:00","2020","09","18","19:00","9.2","","0.9","","56","","","","35","","10","","","","99.91","","","","","","NA"
"-79.22","44.55","LAGOON CITY","6114295","2020-09-18 20:00","2020","09","18","20:00","8.2","","1.2","","61","","","","35","","11","","","","99.97","","","","","","NA"
"-79.22","44.55","LAGOON CITY","6114295","2020-09-18 21:00","2020","09","18","21:00","6.6","","0.6","","66","","","","36","","11","","","","100.02","","","","","","NA"
"-79.22","44.55","LAGOON CITY","6114295","2020-09-18 22:00","2020","09","18","22:00","5.6","","0.2","","68","","","","2","","10","","","","100.08","","","","","","NA"
"-79.22","44.55","LAGOON CITY","6114295","2020-09-18 23:00","2020","09","18","23:00","4.9","","1.4","","78","","","","3","","7","","","","100.13","","","","","","NA"
"-79.22","44.55","LAGOON CITY","6114295","2020-09-19 00:00","2020","09","19","00:00","3.4","","0.6","","81","","","","5","","9","","","","100.17","","","","","","NA"
"-79.22","44.55","LAGOON CITY","6114295","2020-09-19 01:00","2020","09","19","01:00","3.3","","0.6","","83","","","","5","","10","","","","100.19","","","","","","NA"
"-79.22","44.55","LAGOON CITY","6114295","2020-09-19 02:00","2020","09","19","02:00","3.5","","1.0","","84","","","","6","","10","","","","100.22","","","","","","NA"
"-79.22","44.55","LAGOON CITY","6114295","2020-09-19 03:00","2020","09","19","03:00","3.4","","0.8","","83","","","","7","","10","","","","100.19","","","","","","NA"
"-79.22","44.55","LAGOON CITY","6114295","2020-09-19 04:00","2020","09","19","04:00","2.8","","1.4","","91","","","","6","","10","","","","100.19","","","","","","NA"
"-79.22","44.55","LAGOON CITY","6114295","2020-09-19 05:00","2020","09","19","05:00","2.1","","0.3","","88","","","","2","","5","","","","100.21","","","","","","NA"
"-79.22","44.55","LAGOON CITY","6114295","2020-09-19 06:00","2020","09","19","06:00","2.3","","1.3","","93","","","","4","","3","","","","100.25","","","","","","NA"
"-79.22","44.55","LAGOON CITY","6114295","2020-09-19 07:00","2020","09","19","07:00","3.5","","1.7","","88","","","","6","","6","","","","100.31","","","","","","NA"
"-79.22","44.55","LAGOON CITY","6114295","2020-09-19 08:00","2020","09","19","08:00","6.3","","0.5","","66","","","","12","","6","","","","100.34","","","","","","NA"
"-79.22","44.55","LAGOON CITY","6114295","2020-09-19 09:00","2020","09","19","09:00","7.7","","0.5","","60","","","","16","","8","","","","100.38","","","","","","NA"
"-79.22","44.55","LAGOON CITY","6114295","2020-09-19 10:00","2020","09","19","10:00","8.7","","1.5","","61","","","","18","","10","","","","100.40","","","","","","NA"
"-79.22","44.55","LAGOON CITY","6114295","2020-09-19 11:00","2020","09","19","11:00","9.8","","-0.7","","48","","","","20","","6","","","","100.42","","","","","","NA"
"-79.22","44.55","LAGOON CITY","6114295","2020-09-19 12:00","2020","09","19","12:00","10.3","","-2.8","","40","","","","22","","7","","","","100.37","","","","","","NA"
"-79.22","44.55","LAGOON CITY","6114295","2020-09-19 13:00","2020","09","19","13:00","10.3","","-4.4","","35","","","","23","","11","","","","100.37","","","","","","NA"
"-79.22","44.55","LAGOON CITY","6114295","2020-09-19 14:00","2020","09","19","14:00","11.1","","-4.0","","34","","","","21","","7","","","","100.33","","","","","","NA"
"-79.22","44.55","LAGOON CITY","6114295","2020-09-19 15:00","2020","09","19","15:00","11.9","","-1.7","","39","","","","23","","3","","","","100.28","","","","","","NA"
"-79.22","44.55","LAGOON CITY","6114295","2020-09-19 16:00","2020","09","19","16:00","13.7","","-0.4","","38","","","","0","","1","","","","100.24","","","","","","NA"
"-79.22","44.55","LAGOON CITY","6114295","2020-09-19 17:00","2020","09","19","17:00","12.5","","-1.0","","39","","","","20","","18","","","","100.24","","","","","","NA"
"-79.22","44.55","LAGOON CITY","6114295","2020-09-19 18:00","2020","09","19","18:00","11.8","","0.3","","45","","","","1","","5","","","","100.22","","","","","","NA"
"-79.22","44.55","LAGOON CITY","6114295","2020-09-19 19:00","2020","09","19","19:00","10.2","","4.9","","70","","","","6","","5","","","","100.24","","","","","","NA"
"-79.22","44.55","LAGOON CITY","6114295","2020-09-19 20:00","2020","09","19","20:00","10.6","","2.6","","58","","","","10","","5","","","","100.30","","","","","","NA"
"-79.22","44.55","LAGOON CITY","6114295","2020-09-19 21:00","2020","09","19","21:00","9.8","","3.5","","65","","","","10","","8","","","","100.32","","","","","","NA"
"-79.22","44.55","LAGOON CITY","6114295","2020-09-19 22:00","2020","09","19","22:00","9.7","","3.9","","67","","","","12","","8","","","","100.35","","","","","","NA"
"-79.22","44.55","LAGOON CITY","6114295","2020-09-19 23:00","2020","09","19","23:00","9.6","","4.6","","71","","","","13","","8","","","","100.40","","","","","","NA"
"-79.22","44.55","LAGOON CITY","6114295","2020-09-20 00:00","2020","09","20","00:00","9.4","","4.3","","70","","","","10","","6","","","","100.43","","","","","","NA"
"-79.22","44.55","LAGOON CITY","6114295","2020-09-20 01:00","2020","09","20","01:00","9.7","","5.3","","74","","","","10","","6","","","","100.47","","","","","","NA"
"-79.22","44.55","LAGOON CITY","6114295","2020-09-20 02:00","2020","09","20","02:00","7.6","","4.8","","82","","","","5","","11","","","","100.52","","","","","","NA"
"-79.22","44.55","LAGOON CITY","6114295","2020-09-20 03:00","2020","09","20","03:00","8.0","","4.8","","80","","","","5","","9","","","","100.54","","","","","","NA"
"-79.22","44.55","LAGOON CITY","6114295","2020-09-20 04:00","2020","09","20","04:00","8.5","","4.0","","73","","","","7","","7","","","","100.57","","","","","","NA"
"-79.22","44.55","LAGOON CITY","6114295","2020-09-20 05:00","2020","09","20","05:00","8.6","","4.8","","77","","","","9","","9","","","","100.61","","","","","","NA"
"-79.22","44.55","LAGOON CITY","6114295","2020-09-20 06:00","2020","09","20","06:00","9.0","","4.4","","73","","","","10","","11","","","","100.66","","","","","","NA"
"-79.22","44.55","LAGOON CITY","6114295","2020-09-20 07:00","2020","09","20","07:00","8.2","","5.3","","82","","","","6","","9","","","","100.74","","","","","","NA"
"-79.22","44.55","LAGOON CITY","6114295","2020-09-20 08:00","2020","09","20","08:00","11.3","","5.0","","65","","","","10","","8","","","","100.79","","","","","","NA"
"-79.22","44.55","LAGOON CITY","6114295","2020-09-20 09:00","2020","09","20","09:00","12.0","","3.8","","57","","","","11","","8","","","","100.84","","","","","","NA"
"-79.22","44.55","LAGOON CITY","6114295","2020-09-20 10:00","2020","09","20","10:00","12.9","","1.9","","47","","","","21","","6","","","","100.88","","","","","","NA"
"-79.22","44.55","LAGOON CITY","6114295","2020-09-20 11:00","2020","09","20","11:00","12.6","","1.0","","45","","","","23","","11","","","","100.88","","","","","","NA"
"-79.22","44.55","LAGOON CITY","6114295","2020-09-20 12:00","2020","09","20","12:00","13.1","","2.6","","49","","","","24","","13","","","","100.87","","","","","","NA"
"-79.22","44.55","LAGOON CITY","6114295","2020-09-20 13:00","2020","09","20","13:00","13.3","","2.1","","47","","","","25","","13","","","","100.84","","","","","","NA"
"-79.22","44.55","LAGOON CITY","6114295","2020-09-20 14:00","2020","09","20","14:00","13.7","","1.5","","44","","","","25","","8","","","","100.79","","","","","","NA"
"-79.22","44.55","LAGOON CITY","6114295","2020-09-20 15:00","2020","09","20","15:00","14.2","","2.8","","46","","","","25","","9","","","","100.76","","","","","","NA"
"-79.22","44.55","LAGOON CITY","6114295","2020-09-20 16:00","2020","09","20","16:00","14.7","","3.6","","47","","","","25","","10","","","","100.70","","","","","","NA"
"-79.22","44.55","LAGOON CITY","6114295","2020-09-20 17:00","2020","09","20","17:00","15.4","","3.8","","46","","","","27","","7","","","","100.70","","","","","","NA"
"-79.22","44.55","LAGOON CITY","6114295","2020-09-20 18:00","2020","09","20","18:00","14.7","","5.2","","53","","","","34","","5","","","","100.72","","","","","","NA"
"-79.22","44.55","LAGOON CITY","6114295","2020-09-20 19:00","2020","09","20","19:00","12.1","","6.9","","71","","","","7","","7","","","","100.70","","","","","","NA"
"-79.22","44.55","LAGOON CITY","6114295","2020-09-20 20:00","2020","09","20","20:00","13.2","","6.8","","65","","","","14","","11","","","","100.73","","","","","","NA"
"-79.22","44.55","LAGOON CITY","6114295","2020-09-20 21:00","2020","09","20","21:00","12.9","","6.6","","65","","","","17","","26","","","","100.74","","","","","","NA"
"-79.22","44.55","LAGOON CITY","6114295","2020-09-20 22:00","2020","09","20","22:00","13.1","","6.7","","65","","","","18","","26","","","","100.74","","","","","","NA"
"-79.22","44.55","LAGOON CITY","6114295","2020-09-20 23:00","2020","09","20","23:00","12.0","","7.5","","74","","","","14","","13","","","","100.72","","","","","","NA"
"-79.22","44.55","LAGOON CITY","6114295","2020-09-21 00:00","2020","09","21","00:00","10.4","","6.7","","78","","","","13","","9","","","","100.74","","","","","","NA"
"-79.22","44.55","LAGOON CITY","6114295","2020-09-21 01:00","2020","09","21","01:00","9.0","","6.2","","83","","","","10","","6","","","","100.75","","","","","","NA"
"-79.22","44.55","LAGOON CITY","6114295","2020-09-21 02:00","2020","09","21","02:00","8.2","","5.5","","83","","","","10","","6","","","","100.72","","","","","","NA"
"-79.22","44.55","LAGOON CITY","6114295","2020-09-21 03:00","2020","09","21","03:00","8.0","","5.0","","81","","","","11","","6","","","","100.71","","","","","","NA"
"-79.22","44.55","LAGOON CITY","6114295","2020-09-21 04:00","2020","09","21","04:00","9.0","","4.6","","74","","","","12","","13","","","","100.72","","","","","","NA"
"-79.22","44.55","LAGOON CITY","6114295","2020-09-21 05:00","2020","09","21","05:00","8.2","","4.3","","77","","","","11","","15","","","","100.72","","","","","","NA"
"-79.22","44.55","LAGOON CITY","6114295","2020-09-21 06:00","2020","09","21","06:00","7.8","","4.3","","79","","","","11","","13","","","","100.74","","","","","","NA"
"-79.22","44.55","LAGOON CITY","6114295","2020-09-21 07:00","2020","09","21","07:00","8.0","","4.6","","79","","","","10","","13","","","","100.77","","","","","","NA"
"-79.22","44.55","LAGOON CITY","6114295","2020-09-21 08:00","2020","09","21","08:00","10.2","","5.2","","71","","","","10","","8","","","","100.79","","","","","","NA"
"-79.22","44.55","LAGOON CITY","6114295","2020-09-21 09:00","2020","09","21","09:00","12.3","","6.6","","68","","","","13","","13","","","","100.80","","","","","","NA"
"-79.22","44.55","LAGOON CITY","6114295","2020-09-21 10:00","2020","09","21","10:00","13.7","","6.2","","60","","","","17","","14","","","","100.79","","","","","","NA"
"-79.22","44.55","LAGOON CITY","6114295","2020-09-21 11:00","2020","09","21","11:00","14.8","","6.2","","56","","","","17","","17","","","","100.75","","","","","","NA"
"-79.22","44.55","LAGOON CITY","6114295","2020-09-21 12:00","2020","09","21","12:00","15.5","","6.8","","56","","","","17","","13","","","","100.68","","","","","","NA"
"-79.22","44.55","LAGOON CITY","6114295","2020-09-21 13:00","2020","09","21","13:00","16.4","","6.9","","53","","","","20","","7","","","","100.59","","","","","","NA"
"-79.22","44.55","LAGOON CITY","6114295","2020-09-21 14:00","2020","09","21","14:00","16.3","","7.1","","55","","","","26","","4","","","","100.51","","","","","","NA"
"-79.22","44.55","LAGOON CITY","6114295","2020-09-21 15:00","2020","09","21","15:00","17.7","","5.8","","45","","","","26","","5","","","","100.43","","","","","","NA"
"-79.22","44.55","LAGOON CITY","6114295","2020-09-21 16:00","2020","09","21","16:00","18.2","","5.8","","44","","","","18","","5","","","","100.35","","","","","","NA"
"-79.22","44.55","LAGOON CITY","6114295","2020-09-21 17:00","2020","09","21","17:00","17.7","","7.2","","50","","","","16","","15","","","","100.29","","","","","","NA"
"-79.22","44.55","LAGOON CITY","6114295","2020-09-21 18:00","2020","09","21","18:00","16.5","","8.0","","57","","","","15","","21","","","","100.24","","","","","","NA"
"-79.22","44.55","LAGOON CITY","6114295","2020-09-21 19:00","2020","09","21","19:00","15.0","","6.0","","55","","","","15","","16","","","","100.23","","","","","","NA"
"-79.22","44.55","LAGOON CITY","6114295","2020-09-21 20:00","2020","09","21","20:00","13.7","","5.5","","57","","","","14","","14","","","","100.23","","","","","","NA"
"-79.22","44.55","LAGOON CITY","6114295","2020-09-21 21:00","2020","09","21","21:00","12.5","","5.6","","63","","","","14","","10","","","","100.18","","","","","","NA"
"-79.22","44.55","LAGOON CITY","6114295","2020-09-21 22:00","2020","09","21","22:00","12.1","","4.7","","61","","","","15","","12","","","","100.13","","","","","","NA"
"-79.22","44.55","LAGOON CITY","6114295","2020-09-21 23:00","2020","09","21","23:00","12.4","","6.0","","65","","","","16","","14","","","","100.10","","","","","","NA"
"-79.22","44.55","LAGOON CITY","6114295","2020-09-22 00:00","2020","09","22","00:00","12.5","","7.1","","70","","","","15","","11","","","","100.05","","","","","","NA"
"-79.22","44.55","LAGOON CITY","6114295","2020-09-22 01:00","2020","09","22","01:00","13.1","","7.4","","68","","","","19","","14","","","","100.04","","","","","","NA"
"-79.22","44.55","LAGOON CITY","6114295","2020-09-22 02:00","2020","09","22","02:00","13.2","","8.6","","74","","","","20","","13","","","","99.98","","","","","","NA"
"-79.22","44.55","LAGOON CITY","6114295","2020-09-22 03:00","2020","09","22","03:00","8.9","","6.4","","84","","","","9","","7","","","","99.92","","","","","","NA"
"-79.22","44.55","LAGOON CITY","6114295","2020-09-22 04:00","2020","09","22","04:00","8.7","","6.3","","85","","","","10","","7","","","","99.87","","","","","","NA"
"-79.22","44.55","LAGOON CITY","6114295","2020-09-22 05:00","2020","09","22","05:00","7.8","","5.8","","87","","","","8","","8","","","","99.84","","","","","","NA"
"-79.22","44.55","LAGOON CITY","6114295","2020-09-22 06:00","2020","09","22","06:00","8.7","","6.5","","86","","","","12","","10","","","","99.81","","","","","","NA"
"-79.22","44.55","LAGOON CITY","6114295","2020-09-22 07:00","2020","09","22","07:00","8.2","","6.4","","88","","","","8","","6","","","","99.79","","","","","","NA"
"-79.22","44.55","LAGOON CITY","6114295","2020-09-22 08:00","2020","09","22","08:00","10.5","","8.0","","85","","","","12","","5","","","","99.75","","","","","","NA"
"-79.22","44.55","LAGOON CITY","6114295","2020-09-22 09:00","2020","09","22","09:00","12.3","","10.0","","86","","","","16","","11","","","","99.73","","","","","","NA"
"-79.22","44.55","LAGOON CITY","6114295","2020-09-22 10:00","2020","09","22","10:00","13.2","","10.1","","82","","","","17","","10","","","","99.65","","","","","","NA"
"-79.22","44.55","LAGOON CITY","6114295","2020-09-22 11:00","2020","09","22","11:00","14.2","","9.8","","75","","","","18","","13","","","","99.56","","","","","","NA"
"-79.22","44.55","LAGOON CITY","6114295","2020-09-22 12:00","2020","09","22","12:00","15.6","","9.0","","65","","","","20","","9","","","","99.47","","","","","","NA"
"-79.22","44.55","LAGOON CITY","6114295","2020-09-22 13:00","2020","09","22","13:00","16.0","","8.5","","61","","","","23","","8","","","","99.42","","","","","","NA"
"-79.22","44.55","LAGOON CITY","6114295","2020-09-22 14:00","2020","09","22","14:00","16.5","","9.2","","62","","","","16","","6","","","","99.31","","","","","","NA"
"-79.22","44.55","LAGOON CITY","6114295","2020-09-22 15:00","2020","09","22","15:00","17.6","","8.8","","56","","","","16","","5","","","","99.18","","","","","","NA"
"-79.22","44.55","LAGOON CITY","6114295","2020-09-22 16:00","2020","09","22","16:00","18.2","","10.8","","62","","","","16","","6","","","","99.10","","","","","","NA"
"-79.22","44.55","LAGOON CITY","6114295","2020-09-22 17:00","2020","09","22","17:00","18.4","","12.5","","68","","","","18","","7","","","","99.02","","","","","","NA"
"-79.22","44.55","LAGOON CITY","6114295","2020-09-22 18:00","2020","09","22","18:00","18.3","","11.4","","64","","","","17","","4","","","","98.98","","","","","","NA"
"-79.22","44.55","LAGOON CITY","6114295","2020-09-22 19:00","2020","09","22","19:00","16.4","","14.0","","85","","","","28","","2","","","","98.93","","","","","","NA"
"-79.22","44.55","LAGOON CITY","6114295","2020-09-22 20:00","2020","09","22","20:00","16.0","","14.2","","89","","","","21","","5","","","","98.91","","","","","","NA"
"-79.22","44.55","LAGOON CITY","6114295","2020-09-22 21:00","2020","09","22","21:00","17.6","","13.2","","75","","","","25","","8","","","","98.85","","","","","","NA"
"-79.22","44.55","LAGOON CITY","6114295","2020-09-22 22:00","2020","09","22","22:00","17.1","","12.5","","74","","","","27","","9","","","","98.81","","","","","","NA"
"-79.22","44.55","LAGOON CITY","6114295","2020-09-22 23:00","2020","09","22","23:00","14.4","","11.0","","80","","","","2","","9","","","","98.78","","","","","","NA"
"-79.22","44.55","LAGOON CITY","6114295","2020-09-23 00:00","2020","09","23","00:00","13.0","","10.8","","86","","","","27","","3","","","","98.74","","","","","","NA"
"-79.22","44.55","LAGOON CITY","6114295","2020-09-23 01:00","2020","09","23","01:00","14.5","","11.7","","83","","","","27","","4","","","","98.70","","","","","","NA"
"-79.22","44.55","LAGOON CITY","6114295","2020-09-23 02:00","2020","09","23","02:00","13.4","","11.0","","86","","","","33","","4","","","","98.66","","","","","","NA"
"-79.22","44.55","LAGOON CITY","6114295","2020-09-23 03:00","2020","09","23","03:00","15.3","","13.0","","86","","","","33","","16","","","","98.65","","","","","","NA"
"-79.22","44.55","LAGOON CITY","6114295","2020-09-23 04:00","2020","09","23","04:00","15.2","","13.2","","87","","","","32","","18","","","","98.65","","","","","","NA"
"-79.22","44.55","LAGOON CITY","6114295","2020-09-23 05:00","2020","09","23","05:00","14.8","","13.0","","89","","","","32","","14","","","","98.68","","","","","","NA"
"-79.22","44.55","LAGOON CITY","6114295","2020-09-23 06:00","2020","09","23","06:00","14.4","","13.0","","91","","","","32","","9","","","","98.70","","","","","","NA"
"-79.22","44.55","LAGOON CITY","6114295","2020-09-23 07:00","2020","09","23","07:00","14.3","","13.1","","92","","","","31","","8","","","","98.73","","","","","","NA"
"-79.22","44.55","LAGOON CITY","6114295","2020-09-23 08:00","2020","09","23","08:00","15.3","","13.6","","90","","","","32","","11","","","","98.74","","","","","","NA"
"-79.22","44.55","LAGOON CITY","6114295","2020-09-23 09:00","2020","09","23","09:00","16.6","","13.8","","84","","","","32","","8","","","","98.75","","","","","","NA"
"-79.22","44.55","LAGOON CITY","6114295","2020-09-23 10:00","2020","09","23","10:00","17.3","","13.9","","80","","","","30","","13","","","","98.77","","","","","","NA"
"-79.22","44.55","LAGOON CITY","6114295","2020-09-23 11:00","2020","09","23","11:00","17.5","","14.2","","81","","","","26","","17","","","","98.75","","","","","","NA"
"-79.22","44.55","LAGOON CITY","6114295","2020-09-23 12:00","2020","09","23","12:00","18.1","","14.6","","80","","","","22","","13","","","","98.72","","","","","","NA"
"-79.22","44.55","LAGOON CITY","6114295","2020-09-23 13:00","2020","09","23","13:00","18.3","","15.3","","83","","","","21","","10","","","","98.69","","","","","","NA"
"-79.22","44.55","LAGOON CITY","6114295","2020-09-23 14:00","2020","09","23","14:00","19.5","","12.3","","63","","","","28","","20","","","","98.65","","","","","","NA"
"-79.22","44.55","LAGOON CITY","6114295","2020-09-23 15:00","2020","09","23","15:00","19.7","","12.4","","63","","","","28","","20","","","","98.63","","","","","","NA"
"-79.22","44.55","LAGOON CITY","6114295","2020-09-23 16:00","2020","09","23","16:00","19.8","","12.6","","63","","","","27","","17","","","","98.60","","","","","","NA"
"-79.22","44.55","LAGOON CITY","6114295","2020-09-23 17:00","2020","09","23","17:00","20.2","","13.6","","66","","","","31","","14","","","","98.63","","","","","","NA"
"-79.22","44.55","LAGOON CITY","6114295","2020-09-23 18:00","2020","09","23","18:00","18.7","","14.0","","74","","","","31","","11","","","","98.69","","","","","","NA"
"-79.22","44.55","LAGOON CITY","6114295","2020-09-23 19:00","2020","09","23","19:00","16.9","","12.3","","74","","","","31","","12","","","","98.71","","","","","","NA"
"-79.22","44.55","LAGOON CITY","6114295","2020-09-23 20:00","2020","09","23","20:00","15.3","","12.7","","84","","","","34","","6","","","","98.76","","","","","","NA"
"-79.22","44.55","LAGOON CITY","6114295","2020-09-23 21:00","2020","09","23","21:00","15.4","","13.3","","87","","","","29","","8","","","","98.75","","","","","","NA"
"-79.22","44.55","LAGOON CITY","6114295","2020-09-23 22:00","2020","09","23","22:00","13.9","","12.8","","93","","","","4","","27","","","","98.73","","","","","","NA"
"-79.22","44.55","LAGOON CITY","6114295","2020-09-23 23:00","2020","09","23","23:00","13.1","","12.4","","96","","","","1","","4","","","","98.70","","","","","","NA"
"-79.22","44.55","LAGOON CITY","6114295","2020-09-24 00:00","2020","09","24","00:00","12.2","","11.4","","95","","","","10","","1","","","","98.64","","","","","","NA"
"-79.22","44.55","LAGOON CITY","6114295","2020-09-24 01:00","2020","09","24","01:00","15.8","","14.1","","90","","","","24","","9","","","","98.66","","","","","","NA"
"-79.22","44.55","LAGOON CITY","6114295","2020-09-24 02:00","2020","09","24","02:00","15.8","","14.2","","90","","","","25","","8","","","","98.64","","","","","","NA"
"-79.22","44.55","LAGOON CITY","6114295","2020-09-24 03:00","2020","09","24","03:00","11.2","","10.5","","95","","","","0","","1","","","","98.65","","","","","","NA"
"-79.22","44.55","LAGOON CITY","6114295","2020-09-24 04:00","2020","09","24","04:00","10.3","","9.9","","97","","","","14","","4","","","","98.63","","","","","","NA"
"-79.22","44.55","LAGOON CITY","6114295","2020-09-24 05:00","2020","09","24","05:00","9.1","","8.5","","96","","","","7","","4","","","","98.63","","","","","","NA"
"-79.22","44.55","LAGOON CITY","6114295","2020-09-24 06:00","2020","09","24","06:00","8.6","","8.3","","98","","","","6","","4","","","","98.62","","","","","","NA"
"-79.22","44.55","LAGOON CITY","6114295","2020-09-24 07:00","2020","09","24","07:00","9.7","","9.5","","98","","","","8","","3","","","","98.71","","","","","","NA"
"-79.22","44.55","LAGOON CITY","6114295","2020-09-24 08:00","2020","09","24","08:00","11.9","","10.8","","93","","","","5","","8","","","","98.73","","","","","","NA"
"-79.22","44.55","LAGOON CITY","6114295","2020-09-24 09:00","2020","09","24","09:00","18.6","","13.4","","72","","","","7","","50","","","","98.78","","","","","","NA"
"-79.22","44.55","LAGOON CITY","6114295","2020-09-24 10:00","2020","09","24","10:00","16.7","","13.4","","81","","","","22","","8","","","","98.81","","","","","","NA"
"-79.22","44.55","LAGOON CITY","6114295","2020-09-24 11:00","2020","09","24","11:00","17.2","","13.5","","79","","","","22","","9","","","","98.79","","","","","","NA"
"-79.22","44.55","LAGOON CITY","6114295","2020-09-24 12:00","2020","09","24","12:00","17.4","","12.9","","75","","","","28","","6","","","","98.78","","","","","","NA"
"-79.22","44.55","LAGOON CITY","6114295","2020-09-24 13:00","2020","09","24","13:00","17.9","","12.1","","69","","","","26","","6","","","","98.75","","","","","","NA"
"-79.22","44.55","LAGOON CITY","6114295","2020-09-24 14:00","2020","09","24","14:00","18.3","","14.0","","76","","","","27","","5","","","","98.70","","","","","","NA"
"-79.22","44.55","LAGOON CITY","6114295","2020-09-24 15:00","2020","09","24","15:00","18.9","","12.7","","68","","","","24","","5","","","","98.69","","","","","","NA"
"-79.22","44.55","LAGOON CITY","6114295","2020-09-24 16:00","2020","09","24","16:00","19.0","","12.7","","67","","","","25","","4","","","","98.69","","","","","","NA"
"-79.22","44.55","LAGOON CITY","6114295","2020-09-24 17:00","2020","09","24","17:00","19.2","","12.9","","67","","","","1","","2","","","","98.72","","","","","","NA"
"-79.22","44.55","LAGOON CITY","6114295","2020-09-24 18:00","2020","09","24","18:00","18.6","","14.9","","79","","","","35","","4","","","","98.74","","","","","","NA"
"-79.22","44.55","LAGOON CITY","6114295","2020-09-24 19:00","2020","09","24","19:00","17.2","","15.0","","87","","","","3","","10","","","","98.76","","","","","","NA"
"-79.22","44.55","LAGOON CITY","6114295","2020-09-24 20:00","2020","09","24","20:00","16.6","","15.2","","91","","","","5","","8","","","","98.79","","","","","","NA"
"-79.22","44.55","LAGOON CITY","6114295","2020-09-24 21:00","2020","09","24","21:00","16.5","","15.2","","92","","","","34","","5","","","","98.81","","","","","","NA"
"-79.22","44.55","LAGOON CITY","6114295","2020-09-24 22:00","2020","09","24","22:00","15.7","","14.8","","94","","","","4","","5","","","","98.83","","","","","","NA"
"-79.22","44.55","LAGOON CITY","6114295","2020-09-24 23:00","2020","09","24","23:00","15.5","","14.2","","92","","","","6","","10","","","","98.89","","","","","","NA"
"-79.22","44.55","LAGOON CITY","6114295","2020-09-25 00:00","2020","09","25","00:00","15.6","","13.8","","89","","","","6","","9","","","","98.87","","","","","","NA"
"-79.22","44.55","LAGOON CITY","6114295","2020-09-25 01:00","2020","09","25","01:00","15.4","","13.3","","87","","","","8","","11","","","","98.88","","","","","","NA"
"-79.22","44.55","LAGOON CITY","6114295","2020-09-25 02:00","2020","09","25","02:00","14.8","","13.1","","89","","","","6","","7","","","","98.90","","","","","","NA"
"-79.22","44.55","LAGOON CITY","6114295","2020-09-25 03:00","2020","09","25","03:00","14.5","","12.9","","90","","","","11","","7","","","","98.89","","","","","","NA"
"-79.22","44.55","LAGOON CITY","6114295","2020-09-25 04:00","2020","09","25","04:00","13.4","","12.5","","94","","","","5","","3","","","","98.93","","","","","","NA"
"-79.22","44.55","LAGOON CITY","6114295","2020-09-25 05:00","2020","09","25","05:00","12.7","","12.0","","96","","","","2","","5","","","","98.99","","","","","","NA"
"-79.22","44.55","LAGOON CITY","6114295","2020-09-25 06:00","2020","09","25","06:00","12.4","","11.7","","96","","","","6","","3","","","","99.03","","","","","","NA"
"-79.22","44.55","LAGOON CITY","6114295","2020-09-25 07:00","2020","09","25","07:00","12.7","","11.7","","93","","","","11","","8","","","","99.09","","","","","","NA"
"-79.22","44.55","LAGOON CITY","6114295","2020-09-25 08:00","2020","09","25","08:00","12.6","","12.3","","98","","","","12","","11","","","","99.14","","","","","","NA"
"-79.22","44.55","LAGOON CITY","6114295","2020-09-25 09:00","2020","09","25","09:00","13.8","","13.5","","98","","","","14","","9","","","","99.18","","","","","","NA"
"-79.22","44.55","LAGOON CITY","6114295","2020-09-25 10:00","2020","09","25","10:00","15.3","","14.0","","92","","","","22","","8","","","","99.20","","","","","","NA"
"-79.22","44.55","LAGOON CITY","6114295","2020-09-25 11:00","2020","09","25","11:00","16.1","","13.8","","86","","","","23","","6","","","","99.18","","","","","","NA"
"-79.22","44.55","LAGOON CITY","6114295","2020-09-25 12:00","2020","09","25","12:00","16.4","","15.1","","92","","","","27","","5","","","","99.15","","","","","","NA"
"-79.22","44.55","LAGOON CITY","6114295","2020-09-25 13:00","2020","09","25","13:00","18.0","","15.4","","85","","","","25","","6","","","","99.06","","","","","","NA"
"-79.22","44.55","LAGOON CITY","6114295","2020-09-25 14:00","2020","09","25","14:00","19.1","","16.5","","85","","","","27","","2","","","","99.00","","","","","","NA"
"-79.22","44.55","LAGOON CITY","6114295","2020-09-25 15:00","2020","09","25","15:00","20.7","","16.6","","77","","","","16","","7","","","","98.97","","26","","","","NA"
"-79.22","44.55","LAGOON CITY","6114295","2020-09-25 16:00","2020","09","25","16:00","22.1","","14.8","","64","","","","16","","7","","","","98.91","","26","","","","NA"
"-79.22","44.55","LAGOON CITY","6114295","2020-09-25 17:00","2020","09","25","17:00","22.4","","14.5","","61","","","","16","","8","","","","98.90","","26","","","","NA"
"-79.22","44.55","LAGOON CITY","6114295","2020-09-25 18:00","2020","09","25","18:00","20.9","","15.8","","73","","","","16","","19","","","","98.88","","25","","","","NA"
"-79.22","44.55","LAGOON CITY","6114295","2020-09-25 19:00","2020","09","25","19:00","20.2","","14.3","","69","","","","14","","14","","","","98.91","","","","","","NA"
"-79.22","44.55","LAGOON CITY","6114295","2020-09-25 20:00","2020","09","25","20:00","19.2","","14.5","","74","","","","16","","20","","","","98.92","","","","","","NA"
"-79.22","44.55","LAGOON CITY","6114295","2020-09-25 21:00","2020","09","25","21:00","18.8","","14.8","","77","","","","16","","16","","","","98.91","","","","","","NA"
"-79.22","44.55","LAGOON CITY","6114295","2020-09-25 22:00","2020","09","25","22:00","18.3","","14.1","","76","","","","15","","12","","","","98.91","","","","","","NA"
"-79.22","44.55","LAGOON CITY","6114295","2020-09-25 23:00","2020","09","25","23:00","17.8","","14.3","","80","","","","19","","18","","","","98.88","","","","","","NA"
"-79.22","44.55","LAGOON CITY","6114295","2020-09-26 00:00","2020","09","26","00:00","17.4","","14.4","","83","","","","18","","17","","","","98.81","","","","","","NA"
"-79.22","44.55","LAGOON CITY","6114295","2020-09-26 01:00","2020","09","26","01:00","17.1","","14.3","","83","","","","18","","23","","","","98.81","","","","","","NA"
"-79.22","44.55","LAGOON CITY","6114295","2020-09-26 02:00","2020","09","26","02:00","17.4","","13.7","","79","","","","19","","14","","","","98.86","","","","","","NA"
"-79.22","44.55","LAGOON CITY","6114295","2020-09-26 03:00","2020","09","26","03:00","16.8","","13.9","","83","","","","16","","16","","","","98.85","","","","","","NA"
"-79.22","44.55","LAGOON CITY","6114295","2020-09-26 04:00","2020","09","26","04:00","14.9","","13.4","","91","","","","5","","3","","","","98.85","","","","","","NA"
"-79.22","44.55","LAGOON CITY","6114295","2020-09-26 05:00","2020","09","26","05:00","15.8","","14.0","","89","","","","13","","6","","","","98.83","","","","","","NA"
"-79.22","44.55","LAGOON CITY","6114295","2020-09-26 06:00","2020","09","26","06:00","15.9","","14.2","","90","","","","16","","9","","","","98.79","","","","","","NA"
"-79.22","44.55","LAGOON CITY","6114295","2020-09-26 07:00","2020","09","26","07:00","17.1","","14.0","","82","","","","18","","18","","","","98.79","","","","","","NA"
"-79.22","44.55","LAGOON CITY","6114295","2020-09-26 08:00","2020","09","26","08:00","17.1","","14.2","","83","","","","18","","19","","","","98.77","","","","","","NA"
"-79.22","44.55","LAGOON CITY","6114295","2020-09-26 09:00","2020","09","26","09:00","17.5","","15.0","","85","","","","19","","14","","","","98.74","","","","","","NA"
"-79.22","44.55","LAGOON CITY","6114295","2020-09-26 10:00","2020","09","26","10:00","18.4","","15.9","","86","","","","17","","20","","","","98.67","","","","","","NA"
"-79.22","44.55","LAGOON CITY","6114295","2020-09-26 11:00","2020","09","26","11:00","19.4","","16.0","","81","","","","18","","19","","","","98.65","","","","","","NA"
"-79.22","44.55","LAGOON CITY","6114295","2020-09-26 12:00","2020","09","26","12:00","20.0","","16.0","","78","","","","20","","17","","","","98.61","","25","","","","NA"
"-79.22","44.55","LAGOON CITY","6114295","2020-09-26 13:00","2020","09","26","13:00","20.5","","16.0","","75","","","","21","","12","","","","98.57","","25","","","","NA"
"-79.22","44.55","LAGOON CITY","6114295","2020-09-26 14:00","2020","09","26","14:00","20.2","","16.3","","78","","","","17","","11","","","","98.48","","25","","","","NA"
"-79.22","44.55","LAGOON CITY","6114295","2020-09-26 15:00","2020","09","26","15:00","21.3","","15.4","","69","","","","19","","22","","","","98.47","","26","","","","NA"
"-79.22","44.55","LAGOON CITY","6114295","2020-09-26 16:00","2020","09","26","16:00","21.4","","16.1","","72","","","","16","","20","","","","98.40","","26","","","","NA"
"-79.22","44.55","LAGOON CITY","6114295","2020-09-26 17:00","2020","09","26","17:00","21.4","","16.0","","71","","","","16","","24","","","","98.38","","26","","","","NA"
"-79.22","44.55","LAGOON CITY","6114295","2020-09-26 18:00","2020","09","26","18:00","20.8","","16.1","","75","","","","16","","27","","","","98.38","","25","","","","NA"
"-79.22","44.55","LAGOON CITY","6114295","2020-09-26 19:00","2020","09","26","19:00","20.2","","16.0","","77","","","","16","","30","","","","98.39","","25","","","","NA"
"-79.22","44.55","LAGOON CITY","6114295","2020-09-26 20:00","2020","09","26","20:00","19.2","","16.4","","84","","","","16","","23","","","","98.41","","","","","","NA"
"-79.22","44.55","LAGOON CITY","6114295","2020-09-26 21:00","2020","09","26","21:00","19.1","","16.3","","84","","","","16","","19","","","","98.42","","","","","","NA"
"-79.22","44.55","LAGOON CITY","6114295","2020-09-26 22:00","2020","09","26","22:00","20.0","","15.7","","77","","","","17","","27","","","","98.35","","","","","","NA"
"-79.22","44.55","LAGOON CITY","6114295","2020-09-26 23:00","2020","09","26","23:00","19.4","","16.2","","82","","","","17","","27","","","","98.29","","","","","","NA"
"-79.22","44.55","LAGOON CITY","6114295","2020-09-27 00:00","2020","09","27","00:00","19.5","","15.9","","80","","","","16","","25","","","","98.24","","","","","","NA"
"-79.22","44.55","LAGOON CITY","6114295","2020-09-27 01:00","2020","09","27","01:00","19.1","","16.3","","84","","","","17","","22","","","","98.20","","","","","","NA"
"-79.22","44.55","LAGOON CITY","6114295","2020-09-27 02:00","2020","09","27","02:00","19.1","","16.4","","84","","","","18","","22","","","","98.15","","","","","","NA"
"-79.22","44.55","LAGOON CITY","6114295","2020-09-27 03:00","2020","09","27","03:00","19.5","","16.5","","83","","","","17","","29","","","","98.11","","","","","","NA"
"-79.22","44.55","LAGOON CITY","6114295","2020-09-27 04:00","2020","09","27","04:00","19.3","","16.4","","83","","","","17","","25","","","","98.11","","","","","","NA"
"-79.22","44.55","LAGOON CITY","6114295","2020-09-27 05:00","2020","09","27","05:00","19.1","","16.6","","85","","","","17","","26","","","","98.08","","","","","","NA"
"-79.22","44.55","LAGOON CITY","6114295","2020-09-27 06:00","2020","09","27","06:00","19.0","","16.5","","85","","","","18","","32","","","","98.03","","","","","","NA"
"-79.22","44.55","LAGOON CITY","6114295","2020-09-27 07:00","2020","09","27","07:00","18.8","","16.4","","86","","","","19","","28","","","","98.05","","","","","","NA"
"-79.22","44.55","LAGOON CITY","6114295","2020-09-27 08:00","2020","09","27","08:00","18.9","","16.3","","85","","","","19","","29","","","","98.06","","","","","","NA"
"-79.22","44.55","LAGOON CITY","6114295","2020-09-27 09:00","2020","09","27","09:00","19.0","","16.4","","85","","","","18","","24","","","","98.07","","","","","","NA"
"-79.22","44.55","LAGOON CITY","6114295","2020-09-27 10:00","2020","09","27","10:00","19.3","","16.6","","84","","","","19","","20","","","","98.09","","","","","","NA"
"-79.22","44.55","LAGOON CITY","6114295","2020-09-27 11:00","2020","09","27","11:00","19.7","","16.7","","83","","","","18","","13","","","","98.05","","","","","","NA"
"-79.22","44.55","LAGOON CITY","6114295","2020-09-27 12:00","2020","09","27","12:00","20.4","","17.1","","81","","","","17","","13","","","","98.04","","26","","","","NA"
"-79.22","44.55","LAGOON CITY","6114295","2020-09-27 13:00","2020","09","27","13:00","21.1","","17.1","","78","","","","18","","12","","","","98.02","","26","","","","NA"
"-79.22","44.55","LAGOON CITY","6114295","2020-09-27 14:00","2020","09","27","14:00","22.9","","17.1","","70","","","","21","","9","","","","98.01","","28","","","","NA"
"-79.22","44.55","LAGOON CITY","6114295","2020-09-27 15:00","2020","09","27","15:00","23.4","","16.6","","66","","","","17","","6","","","","98.00","","28","","","","NA"
"-79.22","44.55","LAGOON CITY","6114295","2020-09-27 16:00","2020","09","27","16:00","21.6","","17.9","","80","","","","17","","19","","","","97.99","","28","","","","NA"
"-79.22","44.55","LAGOON CITY","6114295","2020-09-27 17:00","2020","09","27","17:00","21.1","","17.7","","81","","","","17","","20","","","","98.02","","27","","","","NA"
"-79.22","44.55","LAGOON CITY","6114295","2020-09-27 18:00","2020","09","27","18:00","21.0","","17.4","","80","","","","21","","28","","","","98.13","","27","","","","NA"
"-79.22","44.55","LAGOON CITY","6114295","2020-09-27 19:00","2020","09","27","19:00","19.6","","17.3","","86","","","","22","","22","","","","98.21","","","","","","NA"
"-79.22","44.55","LAGOON CITY","6114295","2020-09-27 20:00","2020","09","27","20:00","19.6","","17.4","","87","","","","20","","13","","","","98.23","","","","","","NA"
"-79.22","44.55","LAGOON CITY","6114295","2020-09-27 21:00","2020","09","27","21:00","19.1","","17.4","","90","","","","19","","13","","","","98.24","","","","","","NA"
"-79.22","44.55","LAGOON CITY","6114295","2020-09-27 22:00","2020","09","27","22:00","19.1","","17.5","","90","","","","19","","14","","","","98.23","","","","","","NA"
"-79.22","44.55","LAGOON CITY","6114295","2020-09-27 23:00","2020","09","27","23:00","18.9","","17.6","","92","","","","6","","6","","","","98.18","","","","","","NA"
"-79.22","44.55","LAGOON CITY","6114295","2020-09-28 00:00","2020","09","28","00:00","19.1","","17.5","","90","","","","10","","5","","","","98.14","","","","","","NA"
"-79.22","44.55","LAGOON CITY","6114295","2020-09-28 01:00","2020","09","28","01:00","19.3","","16.9","","86","","","","14","","9","","","","98.12","","","","","","NA"
"-79.22","44.55","LAGOON CITY","6114295","2020-09-28 02:00","2020","09","28","02:00","19.6","","16.5","","82","","","","12","","6","","","","98.10","","","","","","NA"
"-79.22","44.55","LAGOON CITY","6114295","2020-09-28 03:00","2020","09","28","03:00","18.9","","16.2","","85","","","","13","","13","","","","98.04","","","","","","NA"
"-79.22","44.55","LAGOON CITY","6114295","2020-09-28 04:00","2020","09","28","04:00","18.0","","16.2","","89","","","","13","","12","","","","98.01","","","","","","NA"
"-79.22","44.55","LAGOON CITY","6114295","2020-09-28 05:00","2020","09","28","05:00","18.7","","16.3","","86","","","","14","","13","","","","98.02","","","","","","NA"
"-79.22","44.55","LAGOON CITY","6114295","2020-09-28 06:00","2020","09","28","06:00","18.3","","16.3","","88","","","","16","","17","","","","98.02","","","","","","NA"
"-79.22","44.55","LAGOON CITY","6114295","2020-09-28 07:00","2020","09","28","07:00","17.9","","16.1","","89","","","","15","","21","","","","98.00","","","","","","NA"
"-79.22","44.55","LAGOON CITY","6114295","2020-09-28 08:00","2020","09","28","08:00","17.9","","16.1","","89","","","","17","","23","","","","98.00","","","","","","NA"
"-79.22","44.55","LAGOON CITY","6114295","2020-09-28 09:00","2020","09","28","09:00","18.7","","16.4","","86","","","","16","","24","","","","98.00","","","","","","NA"
"-79.22","44.55","LAGOON CITY","6114295","2020-09-28 10:00","2020","09","28","10:00","19.5","","16.5","","83","","","","15","","25","","","","97.94","","","","","","NA"
"-79.22","44.55","LAGOON CITY","6114295","2020-09-28 11:00","2020","09","28","11:00","20.7","","16.3","","76","","","","17","","26","","","","97.89","","26","","","","NA"
"-79.22","44.55","LAGOON CITY","6114295","2020-09-28 12:00","2020","09","28","12:00","21.3","","16.4","","74","","","","17","","27","","","","97.87","","26","","","","NA"
"-79.22","44.55","LAGOON CITY","6114295","2020-09-28 13:00","2020","09","28","13:00","21.2","","17.0","","77","","","","18","","19","","","","97.86","","26","","","","NA"
"-79.22","44.55","LAGOON CITY","6114295","2020-09-28 14:00","2020","09","28","14:00","21.0","","16.9","","77","","","","17","","19","","","","97.78","","26","","","","NA"
"-79.22","44.55","LAGOON CITY","6114295","2020-09-28 15:00","2020","09","28","15:00","21.4","","16.9","","76","","","","17","","28","","","","97.74","","27","","","","NA"
"-79.22","44.55","LAGOON CITY","6114295","2020-09-28 16:00","2020","09","28","16:00","22.2","","16.8","","72","","","","16","","27","","","","97.72","","27","","","","NA"
"-79.22","44.55","LAGOON CITY","6114295","2020-09-28 17:00","2020","09","28","17:00","22.2","","16.4","","70","","","","16","","36","","","","97.67","","27","","","","NA"
"-79.22","44.55","LAGOON CITY","6114295","2020-09-28 18:00","2020","09","28","18:00","21.8","","16.1","","70","","","","15","","27","","","","97.65","","26","","","","NA"
"-79.22","44.55","LAGOON CITY","6114295","2020-09-28 19:00","2020","09","28","19:00","21.8","","15.6","","68","","","","15","","25","","","","97.64","","26","","","","NA"
"-79.22","44.55","LAGOON CITY","6114295","2020-09-28 20:00","2020","09","28","20:00","21.3","","15.5","","69","","","","14","","18","","","","97.62","","26","","","","NA"
"-79.22","44.55","LAGOON CITY","6114295","2020-09-28 21:00","2020","09","28","21:00","18.6","","17.1","","91","","","","22","","26","","","","97.72","","","","","","NA"
"-79.22","44.55","LAGOON CITY","6114295","2020-09-28 22:00","2020","09","28","22:00","18.6","","17.3","","92","","","","17","","22","","","","97.61","","","","","","NA"
"-79.22","44.55","LAGOON CITY","6114295","2020-09-28 23:00","2020","09","28","23:00","16.4","","15.0","","91","","","","26","","22","","","","97.63","","","","","","NA"
"-79.22","44.55","LAGOON CITY","6114295","2020-09-29 00:00","2020","09","29","00:00","14.9","","13.8","","93","","","","31","","20","","","","97.66","","","","","","NA"
"-79.22","44.55","LAGOON CITY","6114295","2020-09-29 01:00","2020","09","29","01:00","14.7","","13.4","","92","","","","28","","26","","","","97.76","","","","","","NA"
"-79.22","44.55","LAGOON CITY","6114295","2020-09-29 02:00","2020","09","29","02:00","14.6","","12.8","","89","","","","27","","37","","","","97.86","","","","","","NA"
"-79.22","44.55","LAGOON CITY","6114295","2020-09-29 03:00","2020","09","29","03:00","14.5","","12.3","","87","","","","27","","26","","","","97.83","","","","","","NA"
"-79.22","44.55","LAGOON CITY","6114295","2020-09-29 04:00","2020","09","29","04:00","14.8","","11.8","","83","","","","26","","29","","","","97.95","","","","","","NA"
"-79.22","44.55","LAGOON CITY","6114295","2020-09-29 05:00","2020","09","29","05:00","14.8","","11.5","","81","","","","25","","32","","","","98.01","","","","","","NA"
"-79.22","44.55","LAGOON CITY","6114295","2020-09-29 06:00","2020","09","29","06:00","14.4","","11.0","","80","","","","23","","31","","","","98.07","","","","","","NA"
"-79.22","44.55","LAGOON CITY","6114295","2020-09-29 07:00","2020","09","29","07:00","14.1","","9.8","","75","","","","23","","34","","","","98.14","","","","","","NA"
"-79.22","44.55","LAGOON CITY","6114295","2020-09-29 08:00","2020","09","29","08:00","13.8","","11.4","","85","","","","20","","31","","","","98.17","","","","","","NA"
"-79.22","44.55","LAGOON CITY","6114295","2020-09-29 09:00","2020","09","29","09:00","14.4","","11.5","","83","","","","21","","30","","","","98.23","","","","","","NA"
"-79.22","44.55","LAGOON CITY","6114295","2020-09-29 10:00","2020","09","29","10:00","14.7","","10.9","","78","","","","23","","23","","","","98.25","","","","","","NA"
"-79.22","44.55","LAGOON CITY","6114295","2020-09-29 11:00","2020","09","29","11:00","15.3","","9.7","","70","","","","23","","20","","","","98.24","","","","","","NA"
"-79.22","44.55","LAGOON CITY","6114295","2020-09-29 12:00","2020","09","29","12:00","15.9","","9.7","","67","","","","23","","21","","","","98.24","","","","","","NA"
"-79.22","44.55","LAGOON CITY","6114295","2020-09-29 13:00","2020","09","29","13:00","16.4","","9.4","","63","","","","23","","14","","","","98.19","","","","","","NA"
"-79.22","44.55","LAGOON CITY","6114295","2020-09-29 14:00","2020","09","29","14:00","16.4","","9.1","","62","","","","26","","14","","","","98.20","","","","","","NA"
"-79.22","44.55","LAGOON CITY","6114295","2020-09-29 15:00","2020","09","29","15:00","16.6","","8.6","","59","","","","28","","11","","","","98.11","","","","","","NA"
"-79.22","44.55","LAGOON CITY","6114295","2020-09-29 16:00","2020","09","29","16:00","16.3","","9.5","","64","","","","30","","16","","","","98.14","","","","","","NA"
"-79.22","44.55","LAGOON CITY","6114295","2020-09-29 17:00","2020","09","29","17:00","15.9","","9.2","","64","","","","31","","10","","","","98.18","","","","","","NA"
"-79.22","44.55","LAGOON CITY","6114295","2020-09-29 18:00","2020","09","29","18:00","15.3","","9.4","","68","","","","36","","6","","","","98.13","","","","","","NA"
"-79.22","44.55","LAGOON CITY","6114295","2020-09-29 19:00","2020","09","29","19:00","14.6","","10.4","","76","","","","3","","4","","","","98.14","","","","","","NA"
"-79.22","44.55","LAGOON CITY","6114295","2020-09-29 20:00","2020","09","29","20:00","13.1","","10.8","","86","","","","5","","7","","","","98.13","","","","","","NA"
"-79.22","44.55","LAGOON CITY","6114295","2020-09-29 21:00","2020","09","29","21:00","13.3","","10.8","","85","","","","6","","6","","","","98.06","","","","","","NA"
"-79.22","44.55","LAGOON CITY","6114295","2020-09-29 22:00","2020","09","29","22:00","13.6","","10.5","","82","","","","8","","4","","","","98.00","","","","","","NA"
"-79.22","44.55","LAGOON CITY","6114295","2020-09-29 23:00","2020","09","29","23:00","14.6","","11.7","","83","","","","19","","31","","","","97.87","","","","","","NA"
"-79.22","44.55","LAGOON CITY","6114295","2020-09-30 00:00","2020","09","30","00:00","13.9","","11.0","","83","","","","20","","13","","","","97.74","","","","","","NA"
"-79.22","44.55","LAGOON CITY","6114295","2020-09-30 01:00","2020","09","30","01:00","12.4","","11.2","","92","","","","12","","14","","","","97.64","","","","","","NA"
"-79.22","44.55","LAGOON CITY","6114295","2020-09-30 02:00","2020","09","30","02:00","11.9","","10.6","","92","","","","13","","13","","","","97.51","","","","","","NA"
"-79.22","44.55","LAGOON CITY","6114295","2020-09-30 03:00","2020","09","30","03:00","12.0","","10.5","","90","","","","13","","15","","","","97.41","","","","","","NA"
"-79.22","44.55","LAGOON CITY","6114295","2020-09-30 04:00","2020","09","30","04:00","11.8","","11.0","","95","","","","13","","20","","","","97.35","","","","","","NA"
"-79.22","44.55","LAGOON CITY","6114295","2020-09-30 05:00","2020","09","30","05:00","13.5","","9.0","","74","","","","25","","25","","","","97.31","","","","","","NA"
"-79.22","44.55","LAGOON CITY","6114295","2020-09-30 06:00","2020","09","30","06:00","13.1","","9.1","","77","","","","26","","22","","","","97.27","","","","","","NA"
"-79.22","44.55","LAGOON CITY","6114295","2020-09-30 07:00","2020","09","30","07:00","13.1","","10.8","","86","","","","24","","28","","","","97.27","","","","","","NA"
"-79.22","44.55","LAGOON CITY","6114295","2020-09-30 08:00","2020","09","30","08:00","13.5","","9.0","","74","","","","23","","31","","","","97.26","","","","","","NA"
"-79.22","44.55","LAGOON CITY","6114295","2020-09-30 09:00","2020","09","30","09:00","13.3","","9.5","","78","","","","23","","37","","","","97.27","","","","","","NA"
"-79.22","44.55","LAGOON CITY","6114295","2020-09-30 10:00","2020","09","30","10:00","13.0","","8.5","","74","","","","22","","34","","","","97.26","","","","","","NA"
"-79.22","44.55","LAGOON CITY","6114295","2020-09-30 11:00","2020","09","30","11:00","12.8","","8.9","","77","","","","21","","31","","","","97.24","","","","","","NA"
"-79.22","44.55","LAGOON CITY","6114295","2020-09-30 12:00","2020","09","30","12:00","13.7","","9.2","","74","","","","22","","40","","","","97.22","","","","","","NA"
"-79.22","44.55","LAGOON CITY","6114295","2020-09-30 13:00","2020","09","30","13:00","11.1","","8.7","","85","","","","27","","39","","","","97.27","","","","","","NA"
"-79.22","44.55","LAGOON CITY","6114295","2020-09-30 14:00","2020","09","30","14:00","13.4","","9.0","","75","","","","24","","28","","","","97.22","","","","","","NA"
"-79.22","44.55","LAGOON CITY","6114295","2020-09-30 15:00","2020","09","30","15:00","14.9","","8.8","","67","","","","23","","40","","","","97.19","","","","","","NA"
"-79.22","44.55","LAGOON CITY","6114295","2020-09-30 16:00","2020","09","30","16:00","14.8","","9.3","","69","","","","28","","22","","","","97.19","","","","","","NA"
"-79.22","44.55","LAGOON CITY","6114295","2020-09-30 17:00","2020","09","30","17:00","14.1","","9.1","","72","","","","28","","12","","","","97.24","","","","","","NA"
"-79.22","44.55","LAGOON CITY","6114295","2020-09-30 18:00","2020","09","30","18:00","11.8","","9.7","","87","","","","29","","22","","","","97.37","","","","","","NA"
"-79.22","44.55","LAGOON CITY","6114295","2020-09-30 19:00","2020","09","30","19:00","12.5","","8.9","","79","","","","25","","24","","","","97.43","","","","","","NA"
"-79.22","44.55","LAGOON CITY","6114295","2020-09-30 20:00","2020","09","30","20:00","12.6","","9.5","","81","","","","26","","21","","","","97.50","","","","","","NA"
"-79.22","44.55","LAGOON CITY","6114295","2020-09-30 21:00","2020","09","30","21:00","12.6","","9.2","","80","","","","25","","30","","","","97.55","","","","","","NA"
"-79.22","44.55","LAGOON CITY","6114295","2020-09-30 22:00","2020","09","30","22:00","12.8","","8.8","","77","","","","26","","27","","","","97.56","","","","","","NA"
"-79.22","44.55","LAGOON CITY","6114295","2020-09-30 23:00","2020","09","30","23:00","13.0","","9.3","","78","","","","25","","27","","","","97.59","","","","","","NA"
