"Longitude (x)","Latitude (y)","Station Name","Climate ID","Date/Time (LST)","Year","Month","Day","Time (LST)","Temp (°C)","Temp Flag","Dew Point Temp (°C)","Dew Point Temp Flag","Rel Hum (%)","Rel Hum Flag","Precip. Amount (mm)","Precip. Amount Flag","Wind Dir (10s deg)","Wind Dir Flag","Wind Spd (km/h)","Wind Spd Flag","Visibility (km)","Visibility Flag","Stn Press (kPa)","Stn Press Flag","Hmdx","Hmdx Flag","Wind Chill","Wind Chill Flag","Weather"
"-120.45","50.70","KAMLOOPS A","1163781","2018-10-01 00:00","2018","10","01","00:00","5.0","","3.2","","88","","","","11","","13","","32.2","","97.00","","","","","","Rain"
"-120.45","50.70","KAMLOOPS A","1163781","2018-10-01 01:00","2018","10","01","01:00","4.7","","3.0","","89","","","","11","","8","","32.2","","97.02","","","","","","Rain"
"-120.45","50.70","KAMLOOPS A","1163781","2018-10-01 02:00","2018","10","01","02:00","4.9","","3.3","","90","","","","36","","2","","11.3","","97.08","","","","","","Rain"
"-120.45","50.70","KAMLOOPS A","1163781","2018-10-01 03:00","2018","10","01","03:00","4.9","","3.4","","90","","","","15","","11","","11.3","","97.07","","","","","","Rain"
"-120.45","50.70","KAMLOOPS A","1163781","2018-10-01 04:00","2018","10","01","04:00","4.9","","3.9","","93","","","","13","","9","","9.7","","97.08","","","","","","Rain"
"-120.45","50.70","KAMLOOPS A","1163781","2018-10-01 05:00","2018","10","01","05:00","4.6","","3.5","","93","","","","11","","9","","11.3","","97.09","","","","","","Rain"
"-120.45","50.70","KAMLOOPS A","1163781","2018-10-01 06:00","2018","10","01","06:00","4.5","","3.8","","95","","","","6","","8","","12.9","","97.10","","","","","","Rain"
"-120.45","50.70","KAMLOOPS A","1163781","2018-10-01 07:00","2018","10","01","07:00","4.8","","3.2","","90","","","","9","","10","","16.1","","97.13","","","","","","Rain"
"-120.45","50.70","KAMLOOPS A","1163781","2018-10-01 08:00","2018","10","01","08:00","4.6","","3.5","","93","","","","9","","12","","11.3","","97.16","","","","","","Rain"
"-120.45","50.70","KAMLOOPS A","1163781","2018-10-01 09:00","2018","10","01","09:00","5.2","","3.7","","90","","","","11","","11","","12.9","","97.17","","","","","","Rain"
"-120.45","50.70","KAMLOOPS A","1163781","2018-10-01 10:00","2018","10","01","10:00","5.4","","4.1","","91","","","","10","","12","","16.1","","97.13","","","","","","Rain"
"-120.45","50.70","KAMLOOPS A","1163781","2018-10-01 11:00","2018","10","01","11:00","5.8","","4.1","","89","","","","12","","8","","16.1","","97.14","","","","","","Rain"
"-120.45","50.70","KAMLOOPS A","1163781","2018-10-01 12:00","2018","10","01","12:00","6.4","","4.9","","90","","","","9","","7","","16.1","","97.13","","","","","","Rain"
"-120.45","50.70","KAMLOOPS A","1163781","2018-10-01 13:00","2018","10","01","13:00","6.6","","4.7","","88","","","","10","","10","","40.2","","97.09","","","","","","Rain"
"-120.45","50.70","KAMLOOPS A","1163781","2018-10-01 14:00","2018","10","01","14:00","7.3","","5.1","","86","","","","11","","11","","64.4","","97.04","","","","","","NA"
"-120.45","50.70","KAMLOOPS A","1163781","2018-10-01 15:00","2018","10","01","15:00","7.4","","4.4","","81","","","","12","","9","","48.3","","97.02","","","","","","NA"
"-120.45","50.70","KAMLOOPS A","1163781","2018-10-01 16:00","2018","10","01","16:00","7.3","","4.4","","82","","","","12","","9","","48.3","","97.01","","","","","","Rain Showers"
"-120.45","50.70","KAMLOOPS A","1163781","2018-10-01 17:00","2018","10","01","17:00","7.1","","4.7","","85","","","","9","","10","","48.3","","97.02","","","","","","NA"
"-120.45","50.70","KAMLOOPS A","1163781","2018-10-01 18:00","2018","10","01","18:00","7.0","","4.2","","82","","","","11","","11","","48.3","","97.06","","","","","","NA"
"-120.45","50.70","KAMLOOPS A","1163781","2018-10-01 19:00","2018","10","01","19:00","6.8","","4.2","","84","","","","9","","12","","48.3","","97.06","","","","","","Cloudy"
"-120.45","50.70","KAMLOOPS A","1163781","2018-10-01 20:00","2018","10","01","20:00","6.6","","4.0","","83","","","","13","","7","","40.2","","97.07","","","","","","NA"
"-120.45","50.70","KAMLOOPS A","1163781","2018-10-01 21:00","2018","10","01","21:00","6.2","","4.5","","88","","","","12","","8","","40.2","","97.08","","","","","","Rain Showers"
"-120.45","50.70","KAMLOOPS A","1163781","2018-10-01 22:00","2018","10","01","22:00","6.3","","3.2","","81","","","","27","","17","","40.2","","97.09","","","","","","Rain Showers"
"-120.45","50.70","KAMLOOPS A","1163781","2018-10-01 23:00","2018","10","01","23:00","5.6","","2.5","","81","","","","29","","14","","40.2","","97.09","","","","","","Rain Showers"
"-120.45","50.70","KAMLOOPS A","1163781","2018-10-02 00:00","2018","10","02","00:00","5.3","","1.2","","75","","","","27","","27","","32.2","","97.09","","","","","","Rain Showers"
"-120.45","50.70","KAMLOOPS A","1163781","2018-10-02 01:00","2018","10","02","01:00","4.7","","1.8","","81","","","","28","","19","","24.1","","97.10","","","","","","Rain Showers"
"-120.45","50.70","KAMLOOPS A","1163781","2018-10-02 02:00","2018","10","02","02:00","4.2","","1.7","","84","","","","28","","16","","24.1","","97.02","","","","","","Rain Showers"
"-120.45","50.70","KAMLOOPS A","1163781","2018-10-02 03:00","2018","10","02","03:00","3.8","","1.4","","84","","","","24","","11","","24.1","","96.92","","","","","","Rain Showers"
"-120.45","50.70","KAMLOOPS A","1163781","2018-10-02 04:00","2018","10","02","04:00","3.8","","1.5","","85","","","","27","","10","","24.1","","96.86","","","","","","Rain Showers"
"-120.45","50.70","KAMLOOPS A","1163781","2018-10-02 05:00","2018","10","02","05:00","3.5","","1.6","","88","","","","28","","12","","24.1","","96.83","","","","","","Rain Showers"
"-120.45","50.70","KAMLOOPS A","1163781","2018-10-02 06:00","2018","10","02","06:00","3.7","","1.1","","83","","","","28","","11","","40.2","","96.78","","","","","","Rain Showers"
"-120.45","50.70","KAMLOOPS A","1163781","2018-10-02 07:00","2018","10","02","07:00","3.8","","0.6","","79","","","","25","","19","","24.1","","96.77","","","","","","Rain Showers"
"-120.45","50.70","KAMLOOPS A","1163781","2018-10-02 08:00","2018","10","02","08:00","4.0","","0.3","","77","","","","26","","21","","40.2","","96.74","","","","","","Rain Showers"
"-120.45","50.70","KAMLOOPS A","1163781","2018-10-02 09:00","2018","10","02","09:00","3.7","","0.0","","77","","","","27","","35","","24.1","","96.78","","","","","","NA"
"-120.45","50.70","KAMLOOPS A","1163781","2018-10-02 10:00","2018","10","02","10:00","3.9","","-0.3","","74","","","","26","","31","","24.1","","96.78","","","","","","Rain Showers"
"-120.45","50.70","KAMLOOPS A","1163781","2018-10-02 11:00","2018","10","02","11:00","4.6","","-0.6","","69","","","","27","","31","","48.3","","96.75","","","","","","NA"
"-120.45","50.70","KAMLOOPS A","1163781","2018-10-02 12:00","2018","10","02","12:00","5.5","","0.0","","68","","","","28","","32","","48.3","","96.72","","","","","","NA"
"-120.45","50.70","KAMLOOPS A","1163781","2018-10-02 13:00","2018","10","02","13:00","5.0","","-2.0","","60","","","","27","","41","","24.1","","96.71","","","","","","Cloudy"
"-120.45","50.70","KAMLOOPS A","1163781","2018-10-02 14:00","2018","10","02","14:00","4.3","","-2.5","","61","","","","27","","39","","32.2","","96.85","","","","","","NA"
"-120.45","50.70","KAMLOOPS A","1163781","2018-10-02 15:00","2018","10","02","15:00","3.7","","-2.7","","63","","","","27","","41","","19.3","","96.94","","","","","","NA"
"-120.45","50.70","KAMLOOPS A","1163781","2018-10-02 16:00","2018","10","02","16:00","3.1","","-2.5","","67","","","","26","","39","","24.1","","97.01","","","","","","Rain Showers"
"-120.45","50.70","KAMLOOPS A","1163781","2018-10-02 17:00","2018","10","02","17:00","3.2","","-2.9","","64","","","","27","","33","","24.1","","97.03","","","","","","NA"
"-120.45","50.70","KAMLOOPS A","1163781","2018-10-02 18:00","2018","10","02","18:00","3.8","","-3.9","","57","","","","29","","31","","24.1","","97.18","","","","","","NA"
"-120.45","50.70","KAMLOOPS A","1163781","2018-10-02 19:00","2018","10","02","19:00","4.0","","-4.5","","54","","","","27","","35","","32.2","","97.26","","","","","","Cloudy"
"-120.45","50.70","KAMLOOPS A","1163781","2018-10-02 20:00","2018","10","02","20:00","4.3","","-5.2","","50","","","","29","","39","","64.4","","97.32","","","","","","NA"
"-120.45","50.70","KAMLOOPS A","1163781","2018-10-02 21:00","2018","10","02","21:00","4.2","","-4.8","","52","","","","28","","25","","64.4","","97.40","","","","","","NA"
"-120.45","50.70","KAMLOOPS A","1163781","2018-10-02 22:00","2018","10","02","22:00","4.2","","-5.5","","49","","","","29","","40","","64.4","","97.47","","","","","","Cloudy"
"-120.45","50.70","KAMLOOPS A","1163781","2018-10-02 23:00","2018","10","02","23:00","4.0","","-6.2","","47","","","","29","","42","","64.4","","97.57","","","","","","NA"
"-120.45","50.70","KAMLOOPS A","1163781","2018-10-03 00:00","2018","10","03","00:00","3.5","","-7.0","","47","","","","30","","44","","64.4","","97.62","","","","","","NA"
"-120.45","50.70","KAMLOOPS A","1163781","2018-10-03 01:00","2018","10","03","01:00","2.1","","-6.7","","52","","","","28","","24","","56.3","","97.74","","","","","","Mainly Clear"
"-120.45","50.70","KAMLOOPS A","1163781","2018-10-03 02:00","2018","10","03","02:00","2.0","","-7.1","","51","","","","29","","8","","64.4","","97.82","","","","","","NA"
"-120.45","50.70","KAMLOOPS A","1163781","2018-10-03 03:00","2018","10","03","03:00","1.2","","-6.7","","56","","","","23","","7","","64.4","","97.91","","","","","","NA"
"-120.45","50.70","KAMLOOPS A","1163781","2018-10-03 04:00","2018","10","03","04:00","0.5","","-5.3","","65","","","","26","","12","","64.4","","98.01","","","","","","Mainly Clear"
"-120.45","50.70","KAMLOOPS A","1163781","2018-10-03 05:00","2018","10","03","05:00","0.4","","-5.0","","67","","","","24","","13","","64.4","","98.02","","","","","","NA"
"-120.45","50.70","KAMLOOPS A","1163781","2018-10-03 06:00","2018","10","03","06:00","0.3","","-4.6","","70","","","","24","","13","","64.4","","98.11","","","","","","NA"
"-120.45","50.70","KAMLOOPS A","1163781","2018-10-03 07:00","2018","10","03","07:00","0.3","","-4.9","","68","","","","24","","15","","64.4","","98.15","","","","","","Mainly Clear"
"-120.45","50.70","KAMLOOPS A","1163781","2018-10-03 08:00","2018","10","03","08:00","2.2","","-4.1","","63","","","","26","","17","","64.4","","98.14","","","","","","NA"
"-120.45","50.70","KAMLOOPS A","1163781","2018-10-03 09:00","2018","10","03","09:00","2.8","","-2.8","","67","","","","28","","17","","64.4","","98.17","","","","","","NA"
"-120.45","50.70","KAMLOOPS A","1163781","2018-10-03 10:00","2018","10","03","10:00","3.8","","-3.6","","59","","","","28","","12","","64.4","","98.12","","","","","","Mostly Cloudy"
"-120.45","50.70","KAMLOOPS A","1163781","2018-10-03 11:00","2018","10","03","11:00","4.7","","-5.0","","50","","","","17","","7","","64.4","","98.05","","","","","","NA"
"-120.45","50.70","KAMLOOPS A","1163781","2018-10-03 12:00","2018","10","03","12:00","5.8","","-6.8","","40","","","","15","","5","","64.4","","98.00","","","","","","NA"
"-120.45","50.70","KAMLOOPS A","1163781","2018-10-03 13:00","2018","10","03","13:00","7.0","","-5.1","","42","","","","12","","8","","64.4","","97.94","","","","","","Cloudy"
"-120.45","50.70","KAMLOOPS A","1163781","2018-10-03 14:00","2018","10","03","14:00","7.0","","-4.3","","44","","","","13","","6","","64.4","","97.87","","","","","","NA"
"-120.45","50.70","KAMLOOPS A","1163781","2018-10-03 15:00","2018","10","03","15:00","7.3","","-2.9","","48","","","","15","","9","","64.4","","97.81","","","","","","NA"
"-120.45","50.70","KAMLOOPS A","1163781","2018-10-03 16:00","2018","10","03","16:00","7.8","","-1.7","","51","","","","11","","11","","64.4","","97.78","","","","","","Cloudy"
"-120.45","50.70","KAMLOOPS A","1163781","2018-10-03 17:00","2018","10","03","17:00","6.5","","-1.4","","57","","","","8","","8","","64.4","","97.72","","","","","","NA"
"-120.45","50.70","KAMLOOPS A","1163781","2018-10-03 18:00","2018","10","03","18:00","6.2","","-1.3","","58","","","","12","","4","","64.4","","97.68","","","","","","NA"
"-120.45","50.70","KAMLOOPS A","1163781","2018-10-03 19:00","2018","10","03","19:00","5.7","","-1.0","","62","","","","11","","8","","64.4","","97.65","","","","","","Cloudy"
"-120.45","50.70","KAMLOOPS A","1163781","2018-10-03 20:00","2018","10","03","20:00","5.3","","-0.8","","64","","","","17","","3","","64.4","","97.62","","","","","","NA"
"-120.45","50.70","KAMLOOPS A","1163781","2018-10-03 21:00","2018","10","03","21:00","5.0","","-0.6","","67","","","","13","","4","","64.4","","97.59","","","","","","NA"
"-120.45","50.70","KAMLOOPS A","1163781","2018-10-03 22:00","2018","10","03","22:00","4.3","","0.1","","74","","","","12","","7","","64.4","","97.57","","","","","","Cloudy"
"-120.45","50.70","KAMLOOPS A","1163781","2018-10-03 23:00","2018","10","03","23:00","3.4","","-0.1","","78","","","","10","","8","","64.4","","97.56","","","","","","NA"
"-120.45","50.70","KAMLOOPS A","1163781","2018-10-04 00:00","2018","10","04","00:00","3.0","","0.1","","81","","","","8","","9","","64.4","","97.53","","","","","","NA"
"-120.45","50.70","KAMLOOPS A","1163781","2018-10-04 01:00","2018","10","04","01:00","2.2","","0.0","","85","","","","6","","7","","64.4","","97.53","","","","","","Cloudy"
"-120.45","50.70","KAMLOOPS A","1163781","2018-10-04 02:00","2018","10","04","02:00","2.3","","-0.2","","83","","","","4","","3","","64.4","","97.53","","","","","","NA"
"-120.45","50.70","KAMLOOPS A","1163781","2018-10-04 03:00","2018","10","04","03:00","2.0","","0.0","","87","","","","29","","5","","64.4","","97.53","","","","","","NA"
"-120.45","50.70","KAMLOOPS A","1163781","2018-10-04 04:00","2018","10","04","04:00","2.5","","-0.3","","81","","","","34","","5","","64.4","","97.55","","","","","","Mostly Cloudy"
"-120.45","50.70","KAMLOOPS A","1163781","2018-10-04 05:00","2018","10","04","05:00","2.6","","-0.2","","82","","","","36","","1","","64.4","","97.54","","","","","","NA"
"-120.45","50.70","KAMLOOPS A","1163781","2018-10-04 06:00","2018","10","04","06:00","2.6","","-0.2","","82","","","","8","","3","","64.4","","97.55","","","","","","NA"
"-120.45","50.70","KAMLOOPS A","1163781","2018-10-04 07:00","2018","10","04","07:00","3.0","","0.7","","85","","","","36","","1","","64.4","","97.59","","","","","","Mostly Cloudy"
"-120.45","50.70","KAMLOOPS A","1163781","2018-10-04 08:00","2018","10","04","08:00","3.3","","0.4","","81","","","","28","","12","","64.4","","97.62","","","","","","NA"
"-120.45","50.70","KAMLOOPS A","1163781","2018-10-04 09:00","2018","10","04","09:00","5.3","","0.0","","69","","","","17","","6","","64.4","","97.65","","","","","","NA"
"-120.45","50.70","KAMLOOPS A","1163781","2018-10-04 10:00","2018","10","04","10:00","6.4","","0.1","","64","","","","20","","3","","64.4","","97.65","","","","","","Mainly Clear"
"-120.45","50.70","KAMLOOPS A","1163781","2018-10-04 11:00","2018","10","04","11:00","7.3","","0.1","","60","","","","14","","7","","64.4","","97.60","","","","","","NA"
"-120.45","50.70","KAMLOOPS A","1163781","2018-10-04 12:00","2018","10","04","12:00","8.7","","-0.4","","53","","","","25","","7","","64.4","","97.57","","","","","","NA"
"-120.45","50.70","KAMLOOPS A","1163781","2018-10-04 13:00","2018","10","04","13:00","10.2","","0.1","","49","","","","28","","5","","64.4","","97.50","","","","","","Clear"
"-120.45","50.70","KAMLOOPS A","1163781","2018-10-04 14:00","2018","10","04","14:00","10.9","","-0.5","","45","","","","24","","5","","64.4","","97.49","","","","","","NA"
"-120.45","50.70","KAMLOOPS A","1163781","2018-10-04 15:00","2018","10","04","15:00","11.7","","0.7","","47","","","","20","","4","","64.4","","97.47","","","","","","NA"
"-120.45","50.70","KAMLOOPS A","1163781","2018-10-04 16:00","2018","10","04","16:00","11.7","","0.5","","46","","","","27","","3","","64.4","","97.48","","","","","","Clear"
"-120.45","50.70","KAMLOOPS A","1163781","2018-10-04 17:00","2018","10","04","17:00","10.8","","1.9","","54","","","","18","","5","","64.4","","97.50","","","","","","NA"
"-120.45","50.70","KAMLOOPS A","1163781","2018-10-04 18:00","2018","10","04","18:00","7.1","","0.8","","64","","","","32","","7","","64.4","","97.53","","","","","","NA"
"-120.45","50.70","KAMLOOPS A","1163781","2018-10-04 19:00","2018","10","04","19:00","6.4","","0.3","","65","","","","36","","3","","64.4","","97.59","","","","","","Clear"
"-120.45","50.70","KAMLOOPS A","1163781","2018-10-04 20:00","2018","10","04","20:00","4.9","","-0.2","","70","","","","0","","1","","64.4","","97.61","","","","","","NA"
"-120.45","50.70","KAMLOOPS A","1163781","2018-10-04 21:00","2018","10","04","21:00","4.0","","0.2","","76","","","","36","","1","","64.4","","97.66","","","","","","NA"
"-120.45","50.70","KAMLOOPS A","1163781","2018-10-04 22:00","2018","10","04","22:00","1.8","","-1.0","","82","","","","29","","5","","64.4","","97.72","","","","","","Clear"
"-120.45","50.70","KAMLOOPS A","1163781","2018-10-04 23:00","2018","10","04","23:00","1.8","","-1.4","","79","","","","","","0","","64.4","","97.75","","","","","","NA"
"-120.45","50.70","KAMLOOPS A","1163781","2018-10-05 00:00","2018","10","05","00:00","0.9","","-1.6","","83","","","","8","","8","","64.4","","97.77","","","","","","NA"
"-120.45","50.70","KAMLOOPS A","1163781","2018-10-05 01:00","2018","10","05","01:00","0.8","","-0.5","","91","","","","9","","10","","64.4","","97.76","","","","","","Clear"
"-120.45","50.70","KAMLOOPS A","1163781","2018-10-05 02:00","2018","10","05","02:00","1.3","","-0.2","","90","","","","6","","7","","64.4","","97.78","","","","","","NA"
"-120.45","50.70","KAMLOOPS A","1163781","2018-10-05 03:00","2018","10","05","03:00","0.1","","-1.2","","90","","","","5","","5","","64.4","","97.80","","","","","","NA"
"-120.45","50.70","KAMLOOPS A","1163781","2018-10-05 04:00","2018","10","05","04:00","0.2","","-0.9","","92","","","","10","","8","","64.4","","97.85","","","","","","Mainly Clear"
"-120.45","50.70","KAMLOOPS A","1163781","2018-10-05 05:00","2018","10","05","05:00","-0.3","","-1.3","","93","","","","9","","7","","64.4","","97.83","","","","-3","","NA"
"-120.45","50.70","KAMLOOPS A","1163781","2018-10-05 06:00","2018","10","05","06:00","1.3","","0.2","","93","","","","10","","8","","64.4","","97.83","","","","","","NA"
"-120.45","50.70","KAMLOOPS A","1163781","2018-10-05 07:00","2018","10","05","07:00","2.0","","0.7","","91","","","","10","","10","","64.4","","97.84","","","","","","Cloudy"
"-120.45","50.70","KAMLOOPS A","1163781","2018-10-05 08:00","2018","10","05","08:00","2.4","","0.9","","90","","","","9","","12","","48.3","","97.83","","","","","","NA"
"-120.45","50.70","KAMLOOPS A","1163781","2018-10-05 09:00","2018","10","05","09:00","3.3","","1.6","","88","","","","12","","10","","48.3","","97.84","","","","","","NA"
"-120.45","50.70","KAMLOOPS A","1163781","2018-10-05 10:00","2018","10","05","10:00","4.2","","1.8","","85","","","","10","","10","","48.3","","97.80","","","","","","Cloudy"
"-120.45","50.70","KAMLOOPS A","1163781","2018-10-05 11:00","2018","10","05","11:00","5.8","","2.1","","77","","","","9","","5","","48.3","","97.77","","","","","","NA"
"-120.45","50.70","KAMLOOPS A","1163781","2018-10-05 12:00","2018","10","05","12:00","7.5","","2.4","","70","","","","11","","8","","64.4","","97.69","","","","","","NA"
"-120.45","50.70","KAMLOOPS A","1163781","2018-10-05 13:00","2018","10","05","13:00","8.2","","2.1","","65","","","","36","","1","","48.3","","97.61","","","","","","Cloudy"
"-120.45","50.70","KAMLOOPS A","1163781","2018-10-05 14:00","2018","10","05","14:00","8.4","","1.9","","64","","","","29","","6","","64.4","","97.56","","","","","","NA"
"-120.45","50.70","KAMLOOPS A","1163781","2018-10-05 15:00","2018","10","05","15:00","8.5","","2.6","","66","","","","26","","10","","64.4","","97.56","","","","","","NA"
"-120.45","50.70","KAMLOOPS A","1163781","2018-10-05 16:00","2018","10","05","16:00","8.7","","3.4","","69","","","","28","","8","","64.4","","97.55","","","","","","Cloudy"
"-120.45","50.70","KAMLOOPS A","1163781","2018-10-05 17:00","2018","10","05","17:00","8.0","","3.9","","75","","","","28","","7","","64.4","","97.56","","","","","","NA"
"-120.45","50.70","KAMLOOPS A","1163781","2018-10-05 18:00","2018","10","05","18:00","6.7","","3.3","","79","","","","24","","3","","64.4","","97.57","","","","","","NA"
"-120.45","50.70","KAMLOOPS A","1163781","2018-10-05 19:00","2018","10","05","19:00","6.1","","2.6","","78","","","","28","","4","","64.4","","97.58","","","","","","Mostly Cloudy"
"-120.45","50.70","KAMLOOPS A","1163781","2018-10-05 20:00","2018","10","05","20:00","4.9","","2.7","","86","","","","26","","9","","64.4","","97.61","","","","","","NA"
"-120.45","50.70","KAMLOOPS A","1163781","2018-10-05 21:00","2018","10","05","21:00","5.4","","2.5","","82","","","","25","","12","","64.4","","97.63","","","","","","NA"
"-120.45","50.70","KAMLOOPS A","1163781","2018-10-05 22:00","2018","10","05","22:00","4.6","","1.8","","82","","","","30","","3","","64.4","","97.65","","","","","","Mostly Cloudy"
"-120.45","50.70","KAMLOOPS A","1163781","2018-10-05 23:00","2018","10","05","23:00","3.8","","1.4","","85","","","","31","","5","","64.4","","97.67","","","","","","NA"
"-120.45","50.70","KAMLOOPS A","1163781","2018-10-06 00:00","2018","10","06","00:00","2.4","","0.0","","84","","","","36","","3","","64.4","","97.70","","","","","","NA"
"-120.45","50.70","KAMLOOPS A","1163781","2018-10-06 01:00","2018","10","06","01:00","2.5","","0.3","","86","","","","27","","7","","64.4","","97.77","","","","","","Mainly Clear"
"-120.45","50.70","KAMLOOPS A","1163781","2018-10-06 02:00","2018","10","06","02:00","1.5","","-0.1","","89","","","","36","","2","","64.4","","97.80","","","","","","NA"
"-120.45","50.70","KAMLOOPS A","1163781","2018-10-06 03:00","2018","10","06","03:00","0.5","","-0.8","","91","","","","9","","5","","64.4","","97.85","","","","","","NA"
"-120.45","50.70","KAMLOOPS A","1163781","2018-10-06 04:00","2018","10","06","04:00","1.0","","-0.4","","90","","","","36","","2","","64.4","","97.89","","","","","","Mainly Clear"
"-120.45","50.70","KAMLOOPS A","1163781","2018-10-06 05:00","2018","10","06","05:00","-0.9","","-2.5","","89","","","","36","","1","","64.4","","97.94","","","","-1","","NA"
"-120.45","50.70","KAMLOOPS A","1163781","2018-10-06 06:00","2018","10","06","06:00","-0.3","","-1.7","","90","","","","35","","3","","64.4","","97.96","","","","-1","","NA"
"-120.45","50.70","KAMLOOPS A","1163781","2018-10-06 07:00","2018","10","06","07:00","1.1","","-0.1","","92","","","","7","","10","","48.3","","98.04","","","","","","Mostly Cloudy"
"-120.45","50.70","KAMLOOPS A","1163781","2018-10-06 08:00","2018","10","06","08:00","2.2","","1.0","","92","","","","9","","9","","48.3","","98.10","","","","","","NA"
"-120.45","50.70","KAMLOOPS A","1163781","2018-10-06 09:00","2018","10","06","09:00","3.4","","1.7","","89","","","","11","","9","","64.4","","98.13","","","","","","NA"
"-120.45","50.70","KAMLOOPS A","1163781","2018-10-06 10:00","2018","10","06","10:00","5.4","","1.3","","75","","","","12","","9","","64.4","","98.11","","","","","","Mostly Cloudy"
"-120.45","50.70","KAMLOOPS A","1163781","2018-10-06 11:00","2018","10","06","11:00","6.3","","1.2","","70","","","","14","","8","","64.4","","98.08","","","","","","NA"
"-120.45","50.70","KAMLOOPS A","1163781","2018-10-06 12:00","2018","10","06","12:00","7.8","","1.9","","66","","","","12","","9","","64.4","","98.01","","","","","","NA"
"-120.45","50.70","KAMLOOPS A","1163781","2018-10-06 13:00","2018","10","06","13:00","9.5","","2.7","","62","","","","14","","6","","64.4","","97.95","","","","","","Mainly Clear"
"-120.45","50.70","KAMLOOPS A","1163781","2018-10-06 14:00","2018","10","06","14:00","10.9","","2.7","","56","","","","13","","5","","64.4","","97.91","","","","","","NA"
"-120.45","50.70","KAMLOOPS A","1163781","2018-10-06 15:00","2018","10","06","15:00","12.2","","2.4","","51","","","","36","","3","","64.4","","97.88","","","","","","NA"
"-120.45","50.70","KAMLOOPS A","1163781","2018-10-06 16:00","2018","10","06","16:00","12.9","","3.6","","53","","","","14","","4","","64.4","","97.89","","","","","","Mainly Clear"
"-120.45","50.70","KAMLOOPS A","1163781","2018-10-06 17:00","2018","10","06","17:00","11.5","","3.2","","56","","","","12","","4","","64.4","","97.88","","","","","","NA"
"-120.45","50.70","KAMLOOPS A","1163781","2018-10-06 18:00","2018","10","06","18:00","6.7","","3.3","","79","","","","36","","2","","64.4","","97.92","","","","","","NA"
"-120.45","50.70","KAMLOOPS A","1163781","2018-10-06 19:00","2018","10","06","19:00","7.7","","3.6","","75","","","","9","","14","","64.4","","97.97","","","","","","Mainly Clear"
"-120.45","50.70","KAMLOOPS A","1163781","2018-10-06 20:00","2018","10","06","20:00","6.2","","3.0","","80","","","","9","","6","","64.4","","97.97","","","","","","NA"
"-120.45","50.70","KAMLOOPS A","1163781","2018-10-06 21:00","2018","10","06","21:00","6.0","","3.0","","81","","","","11","","8","","64.4","","97.99","","","","","","NA"
"-120.45","50.70","KAMLOOPS A","1163781","2018-10-06 22:00","2018","10","06","22:00","4.8","","2.9","","87","","","","9","","9","","64.4","","98.02","","","","","","Mainly Clear"
"-120.45","50.70","KAMLOOPS A","1163781","2018-10-06 23:00","2018","10","06","23:00","4.4","","2.0","","84","","","","10","","4","","64.4","","98.02","","","","","","NA"
"-120.45","50.70","KAMLOOPS A","1163781","2018-10-07 00:00","2018","10","07","00:00","3.6","","1.9","","89","","","","9","","7","","64.4","","98.04","","","","","","NA"
"-120.45","50.70","KAMLOOPS A","1163781","2018-10-07 01:00","2018","10","07","01:00","4.2","","2.4","","88","","","","9","","9","","64.4","","98.05","","","","","","Mostly Cloudy"
"-120.45","50.70","KAMLOOPS A","1163781","2018-10-07 02:00","2018","10","07","02:00","4.2","","2.2","","86","","","","6","","5","","64.4","","98.05","","","","","","NA"
"-120.45","50.70","KAMLOOPS A","1163781","2018-10-07 03:00","2018","10","07","03:00","4.2","","2.6","","89","","","","11","","11","","64.4","","98.02","","","","","","NA"
"-120.45","50.70","KAMLOOPS A","1163781","2018-10-07 04:00","2018","10","07","04:00","4.5","","2.6","","87","","","","10","","7","","64.4","","98.08","","","","","","Cloudy"
"-120.45","50.70","KAMLOOPS A","1163781","2018-10-07 05:00","2018","10","07","05:00","4.0","","2.3","","89","","","","8","","5","","64.4","","98.05","","","","","","NA"
"-120.45","50.70","KAMLOOPS A","1163781","2018-10-07 06:00","2018","10","07","06:00","4.2","","2.2","","87","","","","4","","4","","40.2","","98.10","","","","","","NA"
"-120.45","50.70","KAMLOOPS A","1163781","2018-10-07 07:00","2018","10","07","07:00","4.5","","2.7","","88","","","","9","","4","","40.2","","98.09","","","","","","Cloudy"
"-120.45","50.70","KAMLOOPS A","1163781","2018-10-07 08:00","2018","10","07","08:00","5.0","","2.7","","85","","","","4","","4","","40.2","","98.12","","","","","","NA"
"-120.45","50.70","KAMLOOPS A","1163781","2018-10-07 09:00","2018","10","07","09:00","5.8","","2.9","","81","","","","12","","6","","40.2","","98.11","","","","","","NA"
"-120.45","50.70","KAMLOOPS A","1163781","2018-10-07 10:00","2018","10","07","10:00","6.8","","3.5","","80","","","","10","","3","","40.2","","98.09","","","","","","Cloudy"
"-120.45","50.70","KAMLOOPS A","1163781","2018-10-07 11:00","2018","10","07","11:00","7.8","","3.8","","76","","","","10","","8","","64.4","","98.05","","","","","","NA"
"-120.45","50.70","KAMLOOPS A","1163781","2018-10-07 12:00","2018","10","07","12:00","8.8","","4.2","","73","","","","9","","8","","40.2","","98.00","","","","","","NA"
"-120.45","50.70","KAMLOOPS A","1163781","2018-10-07 13:00","2018","10","07","13:00","9.0","","4.2","","72","","","","9","","10","","64.4","","97.93","","","","","","Cloudy"
"-120.45","50.70","KAMLOOPS A","1163781","2018-10-07 14:00","2018","10","07","14:00","9.6","","4.1","","68","","","","10","","3","","64.4","","97.89","","","","","","Rain"
"-120.45","50.70","KAMLOOPS A","1163781","2018-10-07 15:00","2018","10","07","15:00","9.6","","4.0","","68","","","","31","","6","","64.4","","97.85","","","","","","NA"
"-120.45","50.70","KAMLOOPS A","1163781","2018-10-07 16:00","2018","10","07","16:00","9.3","","4.4","","71","","","","32","","5","","64.4","","97.82","","","","","","Cloudy"
"-120.45","50.70","KAMLOOPS A","1163781","2018-10-07 17:00","2018","10","07","17:00","8.9","","5.4","","79","","","","29","","4","","48.3","","97.81","","","","","","NA"
"-120.45","50.70","KAMLOOPS A","1163781","2018-10-07 18:00","2018","10","07","18:00","8.6","","5.3","","80","","","","27","","4","","48.3","","97.80","","","","","","Rain"
"-120.45","50.70","KAMLOOPS A","1163781","2018-10-07 19:00","2018","10","07","19:00","8.4","","5.9","","84","","","","23","","4","","48.3","","97.82","","","","","","Cloudy"
"-120.45","50.70","KAMLOOPS A","1163781","2018-10-07 20:00","2018","10","07","20:00","7.7","","6.3","","91","","","","29","","3","","48.3","","97.84","","","","","","Rain"
"-120.45","50.70","KAMLOOPS A","1163781","2018-10-07 21:00","2018","10","07","21:00","7.7","","6.5","","92","","","","36","","1","","48.3","","97.83","","","","","","Rain"
"-120.45","50.70","KAMLOOPS A","1163781","2018-10-07 22:00","2018","10","07","22:00","7.5","","6.4","","93","","","","10","","3","","16.1","","97.83","","","","","","Rain"
"-120.45","50.70","KAMLOOPS A","1163781","2018-10-07 23:00","2018","10","07","23:00","7.5","","6.5","","94","","","","9","","5","","16.1","","97.82","","","","","","Rain"
"-120.45","50.70","KAMLOOPS A","1163781","2018-10-08 00:00","2018","10","08","00:00","7.7","","6.6","","93","","","","11","","7","","24.1","","97.83","","","","","","NA"
"-120.45","50.70","KAMLOOPS A","1163781","2018-10-08 01:00","2018","10","08","01:00","7.6","","6.5","","93","","","","7","","6","","24.1","","97.83","","","","","","Cloudy"
"-120.45","50.70","KAMLOOPS A","1163781","2018-10-08 02:00","2018","10","08","02:00","7.7","","6.5","","92","","","","13","","5","","16.1","","97.78","","","","","","NA"
"-120.45","50.70","KAMLOOPS A","1163781","2018-10-08 03:00","2018","10","08","03:00","7.9","","6.4","","90","","","","11","","10","","24.1","","97.77","","","","","","NA"
"-120.45","50.70","KAMLOOPS A","1163781","2018-10-08 04:00","2018","10","08","04:00","7.8","","6.5","","91","","","","12","","7","","64.4","","97.76","","","","","","Cloudy"
"-120.45","50.70","KAMLOOPS A","1163781","2018-10-08 05:00","2018","10","08","05:00","7.9","","6.0","","88","","","","11","","12","","64.4","","97.74","","","","","","NA"
"-120.45","50.70","KAMLOOPS A","1163781","2018-10-08 06:00","2018","10","08","06:00","7.8","","6.0","","88","","","","12","","9","","40.2","","97.74","","","","","","NA"
"-120.45","50.70","KAMLOOPS A","1163781","2018-10-08 07:00","2018","10","08","07:00","7.9","","6.4","","90","","","","11","","7","","40.2","","97.74","","","","","","Cloudy"
"-120.45","50.70","KAMLOOPS A","1163781","2018-10-08 08:00","2018","10","08","08:00","8.4","","6.0","","85","","","","10","","14","","48.3","","97.70","","","","","","NA"
"-120.45","50.70","KAMLOOPS A","1163781","2018-10-08 09:00","2018","10","08","09:00","9.3","","6.4","","82","","","","12","","10","","48.3","","97.65","","","","","","NA"
"-120.45","50.70","KAMLOOPS A","1163781","2018-10-08 10:00","2018","10","08","10:00","9.7","","6.4","","80","","","","11","","16","","48.3","","97.58","","","","","","Cloudy"
"-120.45","50.70","KAMLOOPS A","1163781","2018-10-08 11:00","2018","10","08","11:00","10.5","","5.8","","72","","","","12","","12","","48.3","","97.53","","","","","","NA"
"-120.45","50.70","KAMLOOPS A","1163781","2018-10-08 12:00","2018","10","08","12:00","11.3","","5.6","","68","","","","11","","14","","64.4","","97.46","","","","","","NA"
"-120.45","50.70","KAMLOOPS A","1163781","2018-10-08 13:00","2018","10","08","13:00","11.6","","5.5","","66","","","","12","","12","","48.3","","97.37","","","","","","Mostly Cloudy"
"-120.45","50.70","KAMLOOPS A","1163781","2018-10-08 14:00","2018","10","08","14:00","10.5","","7.3","","81","","","","9","","9","","32.2","","97.32","","","","","","Rain"
"-120.45","50.70","KAMLOOPS A","1163781","2018-10-08 15:00","2018","10","08","15:00","10.1","","8.0","","87","","","","8","","8","","19.3","","97.26","","","","","","Rain"
"-120.45","50.70","KAMLOOPS A","1163781","2018-10-08 16:00","2018","10","08","16:00","9.5","","7.8","","89","","","","9","","12","","19.3","","97.21","","","","","","Rain"
"-120.45","50.70","KAMLOOPS A","1163781","2018-10-08 17:00","2018","10","08","17:00","9.5","","8.0","","91","","","","12","","11","","16.1","","97.16","","","","","","NA"
"-120.45","50.70","KAMLOOPS A","1163781","2018-10-08 18:00","2018","10","08","18:00","9.0","","7.9","","93","","","","11","","12","","16.1","","97.11","","","","","","Rain"
"-120.45","50.70","KAMLOOPS A","1163781","2018-10-08 19:00","2018","10","08","19:00","8.8","","7.9","","94","","","","10","","13","","16.1","","97.03","","","","","","Rain"
"-120.45","50.70","KAMLOOPS A","1163781","2018-10-08 20:00","2018","10","08","20:00","8.8","","7.9","","94","","","","10","","13","","16.1","","97.00","","","","","","Rain"
"-120.45","50.70","KAMLOOPS A","1163781","2018-10-08 21:00","2018","10","08","21:00","8.6","","7.6","","93","","","","11","","14","","16.1","","97.00","","","","","","Rain"
"-120.45","50.70","KAMLOOPS A","1163781","2018-10-08 22:00","2018","10","08","22:00","8.4","","7.3","","93","","","","11","","13","","16.1","","96.99","","","","","","Rain"
"-120.45","50.70","KAMLOOPS A","1163781","2018-10-08 23:00","2018","10","08","23:00","8.2","","7.3","","94","","","","12","","7","","11.3","","97.02","","","","","","Rain"
"-120.45","50.70","KAMLOOPS A","1163781","2018-10-09 00:00","2018","10","09","00:00","8.0","","6.9","","93","","","","36","","2","","16.1","","97.06","","","","","","Rain"
"-120.45","50.70","KAMLOOPS A","1163781","2018-10-09 01:00","2018","10","09","01:00","8.1","","6.8","","92","","","","36","","3","","16.1","","97.12","","","","","","Rain"
"-120.45","50.70","KAMLOOPS A","1163781","2018-10-09 02:00","2018","10","09","02:00","7.9","","6.3","","90","","","","16","","4","","16.1","","97.16","","","","","","Rain"
"-120.45","50.70","KAMLOOPS A","1163781","2018-10-09 03:00","2018","10","09","03:00","7.2","","6.5","","95","","","","26","","5","","16.1","","97.22","","","","","","Rain"
"-120.45","50.70","KAMLOOPS A","1163781","2018-10-09 04:00","2018","10","09","04:00","7.4","","6.6","","95","","","","26","","9","","16.1","","97.28","","","","","","Rain"
"-120.45","50.70","KAMLOOPS A","1163781","2018-10-09 05:00","2018","10","09","05:00","7.5","","6.6","","94","","","","25","","12","","16.1","","97.35","","","","","","Rain"
"-120.45","50.70","KAMLOOPS A","1163781","2018-10-09 06:00","2018","10","09","06:00","7.3","","6.1","","92","","","","25","","12","","24.1","","97.41","","","","","","Rain"
"-120.45","50.70","KAMLOOPS A","1163781","2018-10-09 07:00","2018","10","09","07:00","7.8","","6.6","","92","","","","25","","11","","64.4","","97.50","","","","","","Cloudy"
"-120.45","50.70","KAMLOOPS A","1163781","2018-10-09 08:00","2018","10","09","08:00","8.2","","6.6","","89","","","","23","","8","","64.4","","97.55","","","","","","Rain Showers"
"-120.45","50.70","KAMLOOPS A","1163781","2018-10-09 09:00","2018","10","09","09:00","8.9","","6.2","","83","","","","23","","8","","64.4","","97.59","","","","","","NA"
"-120.45","50.70","KAMLOOPS A","1163781","2018-10-09 10:00","2018","10","09","10:00","9.9","","6.4","","79","","","","23","","9","","64.4","","97.64","","","","","","Mostly Cloudy"
"-120.45","50.70","KAMLOOPS A","1163781","2018-10-09 11:00","2018","10","09","11:00","11.9","","6.2","","68","","","","29","","22","","64.4","","97.63","","","","","","NA"
"-120.45","50.70","KAMLOOPS A","1163781","2018-10-09 12:00","2018","10","09","12:00","12.5","","5.6","","63","","","","28","","31","","64.4","","97.63","","","","","","NA"
"-120.45","50.70","KAMLOOPS A","1163781","2018-10-09 13:00","2018","10","09","13:00","11.8","","5.7","","66","","","","29","","30","","64.4","","97.64","","","","","","Mostly Cloudy"
"-120.45","50.70","KAMLOOPS A","1163781","2018-10-09 14:00","2018","10","09","14:00","11.4","","5.1","","65","","","","28","","30","","64.4","","97.68","","","","","","NA"
"-120.45","50.70","KAMLOOPS A","1163781","2018-10-09 15:00","2018","10","09","15:00","10.8","","4.7","","66","","","","28","","34","","64.4","","97.68","","","","","","NA"
"-120.45","50.70","KAMLOOPS A","1163781","2018-10-09 16:00","2018","10","09","16:00","10.0","","4.2","","67","","","","27","","27","","64.4","","97.70","","","","","","Mainly Clear"
"-120.45","50.70","KAMLOOPS A","1163781","2018-10-09 17:00","2018","10","09","17:00","9.4","","3.7","","67","","","","26","","26","","64.4","","97.73","","","","","","NA"
"-120.45","50.70","KAMLOOPS A","1163781","2018-10-09 18:00","2018","10","09","18:00","9.2","","3.7","","68","","","","26","","26","","64.4","","97.79","","","","","","NA"
"-120.45","50.70","KAMLOOPS A","1163781","2018-10-09 19:00","2018","10","09","19:00","9.0","","3.0","","66","","","","26","","22","","64.4","","97.81","","","","","","Mostly Cloudy"
"-120.45","50.70","KAMLOOPS A","1163781","2018-10-09 20:00","2018","10","09","20:00","8.4","","2.5","","66","","","","26","","23","","64.4","","97.84","","","","","","NA"
"-120.45","50.70","KAMLOOPS A","1163781","2018-10-09 21:00","2018","10","09","21:00","8.1","","1.9","","65","","","","27","","26","","64.4","","97.87","","","","","","NA"
"-120.45","50.70","KAMLOOPS A","1163781","2018-10-09 22:00","2018","10","09","22:00","8.0","","1.6","","64","","","","27","","25","","64.4","","97.91","","","","","","Cloudy"
"-120.45","50.70","KAMLOOPS A","1163781","2018-10-09 23:00","2018","10","09","23:00","7.8","","1.6","","65","","","","27","","16","","64.4","","97.91","","","","","","NA"
"-120.45","50.70","KAMLOOPS A","1163781","2018-10-10 00:00","2018","10","10","00:00","7.7","","1.4","","64","","","","27","","16","","64.4","","97.91","","","","","","NA"
"-120.45","50.70","KAMLOOPS A","1163781","2018-10-10 01:00","2018","10","10","01:00","7.6","","1.3","","64","","","","28","","18","","64.4","","97.91","","","","","","Cloudy"
"-120.45","50.70","KAMLOOPS A","1163781","2018-10-10 02:00","2018","10","10","02:00","7.2","","1.5","","67","","","","26","","10","","64.4","","97.91","","","","","","NA"
"-120.45","50.70","KAMLOOPS A","1163781","2018-10-10 03:00","2018","10","10","03:00","6.5","","1.7","","71","","","","27","","8","","64.4","","97.90","","","","","","NA"
"-120.45","50.70","KAMLOOPS A","1163781","2018-10-10 04:00","2018","10","10","04:00","6.7","","2.0","","72","","","","25","","9","","64.4","","97.89","","","","","","Cloudy"
"-120.45","50.70","KAMLOOPS A","1163781","2018-10-10 05:00","2018","10","10","05:00","6.0","","2.0","","75","","","","25","","9","","64.4","","97.87","","","","","","NA"
"-120.45","50.70","KAMLOOPS A","1163781","2018-10-10 06:00","2018","10","10","06:00","6.8","","1.8","","71","","","","25","","9","","64.4","","97.89","","","","","","NA"
"-120.45","50.70","KAMLOOPS A","1163781","2018-10-10 07:00","2018","10","10","07:00","7.1","","1.8","","69","","","","25","","9","","64.4","","97.90","","","","","","Mostly Cloudy"
"-120.45","50.70","KAMLOOPS A","1163781","2018-10-10 08:00","2018","10","10","08:00","7.5","","1.5","","66","","","","27","","13","","64.4","","97.91","","","","","","NA"
"-120.45","50.70","KAMLOOPS A","1163781","2018-10-10 09:00","2018","10","10","09:00","8.3","","1.5","","62","","","","28","","16","","64.4","","97.94","","","","","","NA"
"-120.45","50.70","KAMLOOPS A","1163781","2018-10-10 10:00","2018","10","10","10:00","8.8","","0.9","","57","","","","28","","21","","64.4","","97.97","","","","","","Cloudy"
"-120.45","50.70","KAMLOOPS A","1163781","2018-10-10 11:00","2018","10","10","11:00","9.4","","1.0","","56","","","","27","","26","","64.4","","97.97","","","","","","NA"
"-120.45","50.70","KAMLOOPS A","1163781","2018-10-10 12:00","2018","10","10","12:00","9.7","","1.5","","57","","","","28","","27","","64.4","","97.96","","","","","","NA"
"-120.45","50.70","KAMLOOPS A","1163781","2018-10-10 13:00","2018","10","10","13:00","10.4","","1.7","","54","","","","29","","23","","64.4","","97.94","","","","","","Mostly Cloudy"
"-120.45","50.70","KAMLOOPS A","1163781","2018-10-10 14:00","2018","10","10","14:00","10.5","","1.9","","55","","","","28","","21","","64.4","","97.94","","","","","","NA"
"-120.45","50.70","KAMLOOPS A","1163781","2018-10-10 15:00","2018","10","10","15:00","10.7","","1.6","","53","","","","27","","17","","64.4","","97.91","","","","","","NA"
"-120.45","50.70","KAMLOOPS A","1163781","2018-10-10 16:00","2018","10","10","16:00","10.5","","1.3","","53","","","","27","","14","","64.4","","97.91","","","","","","Mostly Cloudy"
"-120.45","50.70","KAMLOOPS A","1163781","2018-10-10 17:00","2018","10","10","17:00","9.7","","1.8","","58","","","","1","","7","","64.4","","97.94","","","","","","NA"
"-120.45","50.70","KAMLOOPS A","1163781","2018-10-10 18:00","2018","10","10","18:00","7.1","","1.8","","69","","","","19","","5","","64.4","","97.99","","","","","","NA"
"-120.45","50.70","KAMLOOPS A","1163781","2018-10-10 19:00","2018","10","10","19:00","8.3","","2.3","","66","","","","27","","4","","64.4","","98.01","","","","","","Mostly Cloudy"
"-120.45","50.70","KAMLOOPS A","1163781","2018-10-10 20:00","2018","10","10","20:00","8.7","","1.5","","61","","","","20","","5","","64.4","","98.03","","","","","","NA"
"-120.45","50.70","KAMLOOPS A","1163781","2018-10-10 21:00","2018","10","10","21:00","9.1","","-0.6","","51","","","","33","","11","","64.4","","98.06","","","","","","NA"
"-120.45","50.70","KAMLOOPS A","1163781","2018-10-10 22:00","2018","10","10","22:00","8.6","","-0.3","","54","","","","28","","5","","64.4","","98.04","","","","","","Mostly Cloudy"
"-120.45","50.70","KAMLOOPS A","1163781","2018-10-10 23:00","2018","10","10","23:00","7.8","","-0.2","","57","","","","25","","9","","64.4","","98.03","","","","","","NA"
"-120.45","50.70","KAMLOOPS A","1163781","2018-10-11 00:00","2018","10","11","00:00","7.9","","-1.0","","53","","","","26","","14","","64.4","","98.05","","","","","","NA"
"-120.45","50.70","KAMLOOPS A","1163781","2018-10-11 01:00","2018","10","11","01:00","7.3","","-1.6","","53","","","","26","","14","","64.4","","98.07","","","","","","Mostly Cloudy"
"-120.45","50.70","KAMLOOPS A","1163781","2018-10-11 02:00","2018","10","11","02:00","4.7","","-1.5","","64","","","","26","","12","","64.4","","98.09","","","","","","NA"
"-120.45","50.70","KAMLOOPS A","1163781","2018-10-11 03:00","2018","10","11","03:00","5.4","","-1.6","","61","","","","22","","11","","64.4","","98.12","","","","","","NA"
"-120.45","50.70","KAMLOOPS A","1163781","2018-10-11 04:00","2018","10","11","04:00","5.6","","-2.0","","58","","","","22","","11","","64.4","","98.12","","","","","","Mainly Clear"
"-120.45","50.70","KAMLOOPS A","1163781","2018-10-11 05:00","2018","10","11","05:00","3.7","","-1.6","","68","","","","30","","10","","64.4","","98.08","","","","","","NA"
"-120.45","50.70","KAMLOOPS A","1163781","2018-10-11 06:00","2018","10","11","06:00","4.3","","-2.2","","62","","","","34","","3","","64.4","","98.09","","","","","","NA"
"-120.45","50.70","KAMLOOPS A","1163781","2018-10-11 07:00","2018","10","11","07:00","2.6","","-1.7","","73","","","","32","","3","","64.4","","98.12","","","","","","Mainly Clear"
"-120.45","50.70","KAMLOOPS A","1163781","2018-10-11 08:00","2018","10","11","08:00","5.3","","-0.9","","65","","","","36","","2","","64.4","","98.14","","","","","","NA"
"-120.45","50.70","KAMLOOPS A","1163781","2018-10-11 09:00","2018","10","11","09:00","6.3","","-0.6","","61","","","","32","","4","","64.4","","98.13","","","","","","NA"
"-120.45","50.70","KAMLOOPS A","1163781","2018-10-11 10:00","2018","10","11","10:00","7.5","","0.2","","60","","","","23","","4","","64.4","","98.10","","","","","","Mostly Cloudy"
"-120.45","50.70","KAMLOOPS A","1163781","2018-10-11 11:00","2018","10","11","11:00","8.2","","-1.9","","49","","","","15","","3","","64.4","","98.06","","","","","","NA"
"-120.45","50.70","KAMLOOPS A","1163781","2018-10-11 12:00","2018","10","11","12:00","9.1","","-1.8","","46","","","","23","","4","","64.4","","98.02","","","","","","NA"
"-120.45","50.70","KAMLOOPS A","1163781","2018-10-11 13:00","2018","10","11","13:00","10.3","","-1.2","","45","","","","28","","7","","64.4","","97.93","","","","","","Mostly Cloudy"
"-120.45","50.70","KAMLOOPS A","1163781","2018-10-11 14:00","2018","10","11","14:00","10.3","","-0.4","","47","","","","32","","3","","64.4","","97.87","","","","","","NA"
"-120.45","50.70","KAMLOOPS A","1163781","2018-10-11 15:00","2018","10","11","15:00","10.9","","0.3","","48","","","","29","","5","","64.4","","97.82","","","","","","NA"
"-120.45","50.70","KAMLOOPS A","1163781","2018-10-11 16:00","2018","10","11","16:00","11.0","","0.1","","47","","","","17","","4","","64.4","","97.81","","","","","","Cloudy"
"-120.45","50.70","KAMLOOPS A","1163781","2018-10-11 17:00","2018","10","11","17:00","10.8","","0.4","","49","","","","10","","4","","64.4","","97.75","","","","","","NA"
"-120.45","50.70","KAMLOOPS A","1163781","2018-10-11 18:00","2018","10","11","18:00","10.2","","1.4","","54","","","","11","","18","","64.4","","97.73","","","","","","NA"
"-120.45","50.70","KAMLOOPS A","1163781","2018-10-11 19:00","2018","10","11","19:00","9.7","","1.1","","55","","","","12","","12","","64.4","","97.71","","","","","","Mainly Clear"
"-120.45","50.70","KAMLOOPS A","1163781","2018-10-11 20:00","2018","10","11","20:00","8.1","","1.5","","63","","","","7","","14","","64.4","","97.70","","","","","","NA"
"-120.45","50.70","KAMLOOPS A","1163781","2018-10-11 21:00","2018","10","11","21:00","6.7","","1.6","","70","","","","8","","15","","64.4","","97.68","","","","","","NA"
"-120.45","50.70","KAMLOOPS A","1163781","2018-10-11 22:00","2018","10","11","22:00","6.3","","1.3","","70","","","","9","","8","","64.4","","97.65","","","","","","Clear"
"-120.45","50.70","KAMLOOPS A","1163781","2018-10-11 23:00","2018","10","11","23:00","5.1","","2.0","","80","","","","9","","10","","64.4","","97.60","","","","","","NA"
"-120.45","50.70","KAMLOOPS A","1163781","2018-10-12 00:00","2018","10","12","00:00","6.8","","2.1","","72","","","","5","","7","","64.4","","97.52","","","","","","NA"
"-120.45","50.70","KAMLOOPS A","1163781","2018-10-12 01:00","2018","10","12","01:00","5.7","","2.1","","78","","","","35","","5","","64.4","","97.42","","","","","","Mainly Clear"
"-120.45","50.70","KAMLOOPS A","1163781","2018-10-12 02:00","2018","10","12","02:00","5.0","","1.6","","79","","","","34","","3","","64.4","","97.45","","","","","","NA"
"-120.45","50.70","KAMLOOPS A","1163781","2018-10-12 03:00","2018","10","12","03:00","2.3","","0.1","","85","","","","36","","2","","64.4","","97.41","","","","","","NA"
"-120.45","50.70","KAMLOOPS A","1163781","2018-10-12 04:00","2018","10","12","04:00","3.1","","0.5","","83","","","","36","","1","","64.4","","97.40","","","","","","Clear"
"-120.45","50.70","KAMLOOPS A","1163781","2018-10-12 05:00","2018","10","12","05:00","2.2","","0.2","","86","","","","36","","1","","64.4","","97.43","","","","","","NA"
"-120.45","50.70","KAMLOOPS A","1163781","2018-10-12 06:00","2018","10","12","06:00","1.5","","0.1","","90","","","","35","","4","","64.4","","97.49","","","","","","NA"
"-120.45","50.70","KAMLOOPS A","1163781","2018-10-12 07:00","2018","10","12","07:00","1.2","","-0.3","","90","","","","36","","2","","64.4","","97.58","","","","","","Clear"
"-120.45","50.70","KAMLOOPS A","1163781","2018-10-12 08:00","2018","10","12","08:00","4.8","","1.9","","82","","","","8","","4","","64.4","","97.60","","","","","","NA"
"-120.45","50.70","KAMLOOPS A","1163781","2018-10-12 09:00","2018","10","12","09:00","6.4","","2.7","","77","","","","15","","3","","64.4","","97.61","","","","","","NA"
"-120.45","50.70","KAMLOOPS A","1163781","2018-10-12 10:00","2018","10","12","10:00","8.3","","3.4","","71","","","","29","","9","","64.4","","97.59","","","","","","Clear"
"-120.45","50.70","KAMLOOPS A","1163781","2018-10-12 11:00","2018","10","12","11:00","10.9","","3.6","","61","","","","27","","17","","64.4","","97.54","","","","","","NA"
"-120.45","50.70","KAMLOOPS A","1163781","2018-10-12 12:00","2018","10","12","12:00","12.6","","4.6","","58","","","","25","","15","","64.4","","97.46","","","","","","NA"
"-120.45","50.70","KAMLOOPS A","1163781","2018-10-12 13:00","2018","10","12","13:00","14.4","","3.4","","47","","","","29","","6","","64.4","","97.42","","","","","","Mainly Clear"
"-120.45","50.70","KAMLOOPS A","1163781","2018-10-12 14:00","2018","10","12","14:00","18.2","","-3.4","","23","","","","31","","26","","64.4","","97.41","","","","","","NA"
"-120.45","50.70","KAMLOOPS A","1163781","2018-10-12 15:00","2018","10","12","15:00","17.2","","-3.0","","25","","","","31","","32","","64.4","","97.46","","","","","","NA"
"-120.45","50.70","KAMLOOPS A","1163781","2018-10-12 16:00","2018","10","12","16:00","15.5","","-2.6","","29","","","","33","","25","","64.4","","97.58","","","","","","Mainly Clear"
"-120.45","50.70","KAMLOOPS A","1163781","2018-10-12 17:00","2018","10","12","17:00","13.7","","-1.9","","34","","","","29","","15","","64.4","","97.66","","","","","","NA"
"-120.45","50.70","KAMLOOPS A","1163781","2018-10-12 18:00","2018","10","12","18:00","13.0","","-0.8","","38","","","","28","","23","","64.4","","97.75","","","","","","NA"
"-120.45","50.70","KAMLOOPS A","1163781","2018-10-12 19:00","2018","10","12","19:00","12.1","","-0.7","","41","","","","28","","35","","64.4","","97.84","","","","","","Mainly Clear"
"-120.45","50.70","KAMLOOPS A","1163781","2018-10-12 20:00","2018","10","12","20:00","11.0","","-0.8","","44","","","","29","","26","","64.4","","97.96","","","","","","NA"
"-120.45","50.70","KAMLOOPS A","1163781","2018-10-12 21:00","2018","10","12","21:00","9.6","","-0.3","","50","","","","28","","25","","64.4","","98.06","","","","","","NA"
"-120.45","50.70","KAMLOOPS A","1163781","2018-10-12 22:00","2018","10","12","22:00","9.7","","0.7","","53","","","","28","","32","","64.4","","98.14","","","","","","Clear"
"-120.45","50.70","KAMLOOPS A","1163781","2018-10-12 23:00","2018","10","12","23:00","8.7","","0.2","","55","","","","30","","22","","64.4","","98.22","","","","","","NA"
"-120.45","50.70","KAMLOOPS A","1163781","2018-10-13 00:00","2018","10","13","00:00","9.0","","0.6","","55","","","","28","","30","","64.4","","98.25","","","","","","NA"
"-120.45","50.70","KAMLOOPS A","1163781","2018-10-13 01:00","2018","10","13","01:00","8.9","","0.7","","56","","","","27","","16","","64.4","","98.32","","","","","","Clear"
"-120.45","50.70","KAMLOOPS A","1163781","2018-10-13 02:00","2018","10","13","02:00","7.8","","0.5","","60","","","","28","","21","","64.4","","98.34","","","","","","NA"
"-120.45","50.70","KAMLOOPS A","1163781","2018-10-13 03:00","2018","10","13","03:00","8.3","","1.9","","64","","","","24","","14","","64.4","","98.36","","","","","","NA"
"-120.45","50.70","KAMLOOPS A","1163781","2018-10-13 04:00","2018","10","13","04:00","9.3","","0.6","","54","","","","30","","20","","64.4","","98.43","","","","","","Mainly Clear"
"-120.45","50.70","KAMLOOPS A","1163781","2018-10-13 05:00","2018","10","13","05:00","4.3","","0.3","","75","","","","11","","10","","64.4","","98.51","","","","","","NA"
"-120.45","50.70","KAMLOOPS A","1163781","2018-10-13 06:00","2018","10","13","06:00","5.7","","0.0","","67","","","","26","","3","","64.4","","98.57","","","","","","NA"
"-120.45","50.70","KAMLOOPS A","1163781","2018-10-13 07:00","2018","10","13","07:00","6.2","","0.3","","65","","","","30","","7","","64.4","","98.62","","","","","","Mainly Clear"
"-120.45","50.70","KAMLOOPS A","1163781","2018-10-13 08:00","2018","10","13","08:00","9.7","","0.6","","53","","","","27","","29","","64.4","","98.65","","","","","","NA"
"-120.45","50.70","KAMLOOPS A","1163781","2018-10-13 09:00","2018","10","13","09:00","10.8","","1.6","","53","","","","29","","28","","64.4","","98.67","","","","","","NA"
"-120.45","50.70","KAMLOOPS A","1163781","2018-10-13 10:00","2018","10","13","10:00","11.9","","0.5","","45","","","","29","","22","","64.4","","98.69","","","","","","Clear"
"-120.45","50.70","KAMLOOPS A","1163781","2018-10-13 11:00","2018","10","13","11:00","12.6","","-0.6","","40","","","","27","","34","","64.4","","98.67","","","","","","NA"
"-120.45","50.70","KAMLOOPS A","1163781","2018-10-13 12:00","2018","10","13","12:00","13.8","","-0.5","","37","","","","28","","34","","64.4","","98.65","","","","","","NA"
"-120.45","50.70","KAMLOOPS A","1163781","2018-10-13 13:00","2018","10","13","13:00","14.3","","-0.8","","35","","","","27","","32","","64.4","","98.63","","","","","","Mainly Clear"
"-120.45","50.70","KAMLOOPS A","1163781","2018-10-13 14:00","2018","10","13","14:00","15.0","","-1.2","","33","","","","28","","17","","64.4","","98.63","","","","","","NA"
"-120.45","50.70","KAMLOOPS A","1163781","2018-10-13 15:00","2018","10","13","15:00","14.8","","-1.9","","32","","","","29","","27","","64.4","","98.63","","","","","","NA"
"-120.45","50.70","KAMLOOPS A","1163781","2018-10-13 16:00","2018","10","13","16:00","14.2","","-2.2","","32","","","","30","","22","","64.4","","98.64","","","","","","Mainly Clear"
"-120.45","50.70","KAMLOOPS A","1163781","2018-10-13 17:00","2018","10","13","17:00","12.4","","-3.7","","32","","","","31","","14","","64.4","","98.66","","","","","","NA"
"-120.45","50.70","KAMLOOPS A","1163781","2018-10-13 18:00","2018","10","13","18:00","9.6","","-1.1","","47","","","","24","","9","","64.4","","98.71","","","","","","NA"
"-120.45","50.70","KAMLOOPS A","1163781","2018-10-13 19:00","2018","10","13","19:00","10.6","","-2.8","","39","","","","22","","12","","64.4","","98.75","","","","","","Clear"
"-120.45","50.70","KAMLOOPS A","1163781","2018-10-13 20:00","2018","10","13","20:00","7.7","","-2.2","","49","","","","31","","12","","64.4","","98.81","","","","","","NA"
"-120.45","50.70","KAMLOOPS A","1163781","2018-10-13 21:00","2018","10","13","21:00","8.2","","-1.8","","49","","","","22","","4","","64.4","","98.87","","","","","","NA"
"-120.45","50.70","KAMLOOPS A","1163781","2018-10-13 22:00","2018","10","13","22:00","6.2","","-1.5","","58","","","","29","","3","","64.4","","98.91","","","","","","Clear"
"-120.45","50.70","KAMLOOPS A","1163781","2018-10-13 23:00","2018","10","13","23:00","5.0","","-1.9","","61","","","","33","","5","","64.4","","98.97","","","","","","NA"
"-120.45","50.70","KAMLOOPS A","1163781","2018-10-14 00:00","2018","10","14","00:00","2.7","","-2.7","","68","","","","26","","13","","64.4","","98.99","","","","","","NA"
"-120.45","50.70","KAMLOOPS A","1163781","2018-10-14 01:00","2018","10","14","01:00","2.7","","-1.8","","72","","","","28","","3","","64.4","","99.01","","","","","","Clear"
"-120.45","50.70","KAMLOOPS A","1163781","2018-10-14 02:00","2018","10","14","02:00","3.7","","-1.7","","68","","","","36","","2","","64.4","","99.07","","","","","","NA"
"-120.45","50.70","KAMLOOPS A","1163781","2018-10-14 03:00","2018","10","14","03:00","0.5","","-2.6","","80","","","","9","","5","","64.4","","99.09","","","","","","NA"
"-120.45","50.70","KAMLOOPS A","1163781","2018-10-14 04:00","2018","10","14","04:00","0.6","","-2.8","","79","","","","11","","4","","64.4","","99.12","","","","","","Clear"
"-120.45","50.70","KAMLOOPS A","1163781","2018-10-14 05:00","2018","10","14","05:00","0.9","","-1.7","","82","","","","8","","4","","64.4","","99.12","","","","","","NA"
"-120.45","50.70","KAMLOOPS A","1163781","2018-10-14 06:00","2018","10","14","06:00","0.0","","-2.7","","82","","","","36","","3","","64.4","","99.12","","","","-1","","NA"
"-120.45","50.70","KAMLOOPS A","1163781","2018-10-14 07:00","2018","10","14","07:00","0.0","","-2.2","","85","","","","6","","4","","64.4","","99.15","","","","-1","","Mostly Cloudy"
"-120.45","50.70","KAMLOOPS A","1163781","2018-10-14 08:00","2018","10","14","08:00","1.4","","-1.4","","81","","","","36","","1","","64.4","","99.18","","","","","","NA"
"-120.45","50.70","KAMLOOPS A","1163781","2018-10-14 09:00","2018","10","14","09:00","3.9","","-0.6","","72","","","","14","","8","","64.4","","99.19","","","","","","NA"
"-120.45","50.70","KAMLOOPS A","1163781","2018-10-14 10:00","2018","10","14","10:00","5.6","","-1.2","","62","","","","36","","1","","64.4","","99.14","","","","","","Mainly Clear"
"-120.45","50.70","KAMLOOPS A","1163781","2018-10-14 11:00","2018","10","14","11:00","7.0","","-1.5","","55","","","","18","","5","","64.4","","99.04","","","","","","NA"
"-120.45","50.70","KAMLOOPS A","1163781","2018-10-14 12:00","2018","10","14","12:00","8.8","","-0.5","","52","","","","18","","4","","64.4","","98.98","","","","","","NA"
"-120.45","50.70","KAMLOOPS A","1163781","2018-10-14 13:00","2018","10","14","13:00","10.5","","-0.7","","46","","","","17","","6","","64.4","","98.87","","","","","","Clear"
"-120.45","50.70","KAMLOOPS A","1163781","2018-10-14 14:00","2018","10","14","14:00","12.2","","0.0","","43","","","","10","","7","","64.4","","98.80","","","","","","NA"
"-120.45","50.70","KAMLOOPS A","1163781","2018-10-14 15:00","2018","10","14","15:00","13.1","","-0.1","","40","","","","9","","4","","64.4","","98.73","","","","","","NA"
"-120.45","50.70","KAMLOOPS A","1163781","2018-10-14 16:00","2018","10","14","16:00","12.2","","1.8","","49","","","","27","","7","","64.4","","98.69","","","","","","Mainly Clear"
"-120.45","50.70","KAMLOOPS A","1163781","2018-10-14 17:00","2018","10","14","17:00","8.8","","3.5","","69","","","","24","","7","","64.4","","98.69","","","","","","NA"
"-120.45","50.70","KAMLOOPS A","1163781","2018-10-14 18:00","2018","10","14","18:00","6.8","","1.7","","70","","","","35","","4","","64.4","","98.72","","","","","","NA"
"-120.45","50.70","KAMLOOPS A","1163781","2018-10-14 19:00","2018","10","14","19:00","5.8","","0.9","","71","","","","29","","4","","64.4","","98.74","","","","","","Mainly Clear"
"-120.45","50.70","KAMLOOPS A","1163781","2018-10-14 20:00","2018","10","14","20:00","4.0","","-0.5","","72","","","","33","","4","","64.4","","98.78","","","","","","NA"
"-120.45","50.70","KAMLOOPS A","1163781","2018-10-14 21:00","2018","10","14","21:00","4.1","","-0.5","","72","","","","36","","2","","64.4","","98.84","","","","","","NA"
"-120.45","50.70","KAMLOOPS A","1163781","2018-10-14 22:00","2018","10","14","22:00","3.6","","-0.4","","75","","","","36","","2","","64.4","","98.88","","","","","","Clear"
"-120.45","50.70","KAMLOOPS A","1163781","2018-10-14 23:00","2018","10","14","23:00","3.0","","-0.2","","79","","","","36","","2","","64.4","","98.90","","","","","","NA"
"-120.45","50.70","KAMLOOPS A","1163781","2018-10-15 00:00","2018","10","15","00:00","1.6","","-1.2","","81","","","","10","","6","","64.4","","98.93","","","","","","NA"
"-120.45","50.70","KAMLOOPS A","1163781","2018-10-15 01:00","2018","10","15","01:00","2.8","","0.6","","85","","","","36","","2","","64.4","","98.97","","","","","","Clear"
"-120.45","50.70","KAMLOOPS A","1163781","2018-10-15 02:00","2018","10","15","02:00","1.3","","-0.6","","88","","","","","","0","","64.4","","98.98","","","","","","NA"
"-120.45","50.70","KAMLOOPS A","1163781","2018-10-15 03:00","2018","10","15","03:00","0.6","","-1.1","","88","","","","10","","6","","64.4","","99.02","","","","","","NA"
"-120.45","50.70","KAMLOOPS A","1163781","2018-10-15 04:00","2018","10","15","04:00","1.3","","0.0","","91","","","","13","","4","","64.4","","99.04","","","","","","Clear"
"-120.45","50.70","KAMLOOPS A","1163781","2018-10-15 05:00","2018","10","15","05:00","-0.6","","-1.7","","92","","","","10","","8","","64.4","","99.07","","","","-3","","NA"
"-120.45","50.70","KAMLOOPS A","1163781","2018-10-15 06:00","2018","10","15","06:00","-2.2","","-3.3","","92","","","","36","","2","","64.4","","99.09","","","","-3","","NA"
"-120.45","50.70","KAMLOOPS A","1163781","2018-10-15 07:00","2018","10","15","07:00","-1.1","","-2.2","","92","","","","8","","4","","64.4","","99.15","","","","-2","","Mainly Clear"
"-120.45","50.70","KAMLOOPS A","1163781","2018-10-15 08:00","2018","10","15","08:00","2.2","","-0.1","","85","","","","6","","5","","64.4","","99.15","","","","","","NA"
"-120.45","50.70","KAMLOOPS A","1163781","2018-10-15 09:00","2018","10","15","09:00","3.9","","0.5","","78","","","","10","","5","","64.4","","99.16","","","","","","NA"
"-120.45","50.70","KAMLOOPS A","1163781","2018-10-15 10:00","2018","10","15","10:00","5.6","","0.8","","71","","","","13","","3","","64.4","","99.14","","","","","","Mainly Clear"
"-120.45","50.70","KAMLOOPS A","1163781","2018-10-15 11:00","2018","10","15","11:00","8.0","","1.1","","61","","","","10","","5","","64.4","","99.08","","","","","","NA"
"-120.45","50.70","KAMLOOPS A","1163781","2018-10-15 12:00","2018","10","15","12:00","9.5","","1.0","","55","","","","17","","5","","64.4","","98.98","","","","","","NA"
"-120.45","50.70","KAMLOOPS A","1163781","2018-10-15 13:00","2018","10","15","13:00","11.0","","0.9","","50","","","","17","","4","","64.4","","98.91","","","","","","Mainly Clear"
"-120.45","50.70","KAMLOOPS A","1163781","2018-10-15 14:00","2018","10","15","14:00","12.4","","1.1","","46","","","","18","","5","","64.4","","98.83","","","","","","NA"
"-120.45","50.70","KAMLOOPS A","1163781","2018-10-15 15:00","2018","10","15","15:00","13.4","","1.7","","45","","","","17","","4","","64.4","","98.77","","","","","","NA"
"-120.45","50.70","KAMLOOPS A","1163781","2018-10-15 16:00","2018","10","15","16:00","11.8","","4.2","","60","","","","28","","6","","64.4","","98.73","","","","","","Mainly Clear"
"-120.45","50.70","KAMLOOPS A","1163781","2018-10-15 17:00","2018","10","15","17:00","9.9","","3.7","","65","","","","25","","4","","64.4","","98.73","","","","","","NA"
"-120.45","50.70","KAMLOOPS A","1163781","2018-10-15 18:00","2018","10","15","18:00","6.5","","2.9","","78","","","","29","","5","","64.4","","98.74","","","","","","NA"
"-120.45","50.70","KAMLOOPS A","1163781","2018-10-15 19:00","2018","10","15","19:00","6.8","","2.8","","75","","","","36","","1","","64.4","","98.80","","","","","","Clear"
"-120.45","50.70","KAMLOOPS A","1163781","2018-10-15 20:00","2018","10","15","20:00","5.9","","2.9","","81","","","","36","","1","","64.4","","98.86","","","","","","NA"
"-120.45","50.70","KAMLOOPS A","1163781","2018-10-15 21:00","2018","10","15","21:00","4.7","","1.4","","79","","","","36","","2","","64.4","","98.93","","","","","","NA"
"-120.45","50.70","KAMLOOPS A","1163781","2018-10-15 22:00","2018","10","15","22:00","3.6","","0.8","","82","","","","18","","3","","64.4","","98.96","","","","","","Clear"
"-120.45","50.70","KAMLOOPS A","1163781","2018-10-15 23:00","2018","10","15","23:00","4.1","","1.4","","83","","","","14","","5","","64.4","","99.01","","","","","","NA"
"-120.45","50.70","KAMLOOPS A","1163781","2018-10-16 00:00","2018","10","16","00:00","2.5","","0.8","","88","","","","8","","5","","64.4","","99.05","","","","","","NA"
"-120.45","50.70","KAMLOOPS A","1163781","2018-10-16 01:00","2018","10","16","01:00","1.3","","-0.4","","88","","","","7","","4","","64.4","","99.10","","","","","","Clear"
"-120.45","50.70","KAMLOOPS A","1163781","2018-10-16 02:00","2018","10","16","02:00","0.9","","-0.3","","92","","","","11","","4","","64.4","","99.13","","","","","","NA"
"-120.45","50.70","KAMLOOPS A","1163781","2018-10-16 03:00","2018","10","16","03:00","0.6","","-0.4","","93","","","","7","","4","","64.4","","99.15","","","","","","NA"
"-120.45","50.70","KAMLOOPS A","1163781","2018-10-16 04:00","2018","10","16","04:00","-0.6","","-1.5","","93","","","","4","","5","","64.4","","99.16","","","","-2","","Clear"
"-120.45","50.70","KAMLOOPS A","1163781","2018-10-16 05:00","2018","10","16","05:00","-0.1","","-0.9","","94","","","","36","","2","","16.1","","99.19","","","","-1","","NA"
"-120.45","50.70","KAMLOOPS A","1163781","2018-10-16 06:00","2018","10","16","06:00","-0.5","","-1.2","","95","","","","9","","4","","48.3","","99.23","","","","-2","","NA"
"-120.45","50.70","KAMLOOPS A","1163781","2018-10-16 07:00","2018","10","16","07:00","-0.6","","-1.2","","96","","","","36","","3","","48.3","","99.25","","","","-2","","Mainly Clear"
"-120.45","50.70","KAMLOOPS A","1163781","2018-10-16 08:00","2018","10","16","08:00","2.2","","1.1","","92","","","","8","","4","","48.3","","99.28","","","","","","NA"
"-120.45","50.70","KAMLOOPS A","1163781","2018-10-16 09:00","2018","10","16","09:00","4.1","","1.1","","81","","","","8","","6","","64.4","","99.26","","","","","","NA"
"-120.45","50.70","KAMLOOPS A","1163781","2018-10-16 10:00","2018","10","16","10:00","6.1","","1.4","","72","","","","9","","8","","64.4","","99.23","","","","","","Clear"
"-120.45","50.70","KAMLOOPS A","1163781","2018-10-16 11:00","2018","10","16","11:00","8.3","","1.8","","64","","","","10","","7","","64.4","","99.16","","","","","","NA"
"-120.45","50.70","KAMLOOPS A","1163781","2018-10-16 12:00","2018","10","16","12:00","10.5","","1.9","","55","","","","9","","9","","64.4","","99.03","","","","","","NA"
"-120.45","50.70","KAMLOOPS A","1163781","2018-10-16 13:00","2018","10","16","13:00","12.2","","2.5","","51","","","","12","","10","","64.4","","98.92","","","","","","Clear"
"-120.45","50.70","KAMLOOPS A","1163781","2018-10-16 14:00","2018","10","16","14:00","13.6","","2.9","","48","","","","10","","7","","64.4","","98.82","","","","","","NA"
"-120.45","50.70","KAMLOOPS A","1163781","2018-10-16 15:00","2018","10","16","15:00","14.2","","3.3","","47","","","","9","","10","","64.4","","98.76","","","","","","NA"
"-120.45","50.70","KAMLOOPS A","1163781","2018-10-16 16:00","2018","10","16","16:00","14.4","","3.2","","47","","","","9","","9","","64.4","","98.72","","","","","","Clear"
"-120.45","50.70","KAMLOOPS A","1163781","2018-10-16 17:00","2018","10","16","17:00","9.6","","4.0","","68","","","","36","","1","","64.4","","98.69","","","","","","NA"
"-120.45","50.70","KAMLOOPS A","1163781","2018-10-16 18:00","2018","10","16","18:00","8.9","","3.3","","68","","","","13","","5","","64.4","","98.71","","","","","","NA"
"-120.45","50.70","KAMLOOPS A","1163781","2018-10-16 19:00","2018","10","16","19:00","6.5","","3.5","","81","","","","36","","3","","64.4","","98.72","","","","","","Clear"
"-120.45","50.70","KAMLOOPS A","1163781","2018-10-16 20:00","2018","10","16","20:00","5.7","","2.5","","80","","","","36","","2","","64.4","","98.74","","","","","","NA"
"-120.45","50.70","KAMLOOPS A","1163781","2018-10-16 21:00","2018","10","16","21:00","6.4","","3.6","","82","","","","14","","7","","64.4","","98.79","","","","","","NA"
"-120.45","50.70","KAMLOOPS A","1163781","2018-10-16 22:00","2018","10","16","22:00","4.5","","2.2","","85","","","","9","","3","","64.4","","98.81","","","","","","Clear"
"-120.45","50.70","KAMLOOPS A","1163781","2018-10-16 23:00","2018","10","16","23:00","3.9","","1.9","","87","","","","8","","9","","64.4","","98.84","","","","","","NA"
"-120.45","50.70","KAMLOOPS A","1163781","2018-10-17 00:00","2018","10","17","00:00","2.8","","0.9","","88","","","","10","","11","","64.4","","98.84","","","","","","NA"
"-120.45","50.70","KAMLOOPS A","1163781","2018-10-17 01:00","2018","10","17","01:00","3.3","","1.9","","91","","","","11","","14","","64.4","","98.80","","","","","","Clear"
"-120.45","50.70","KAMLOOPS A","1163781","2018-10-17 02:00","2018","10","17","02:00","2.1","","0.7","","90","","","","4","","7","","64.4","","98.78","","","","","","NA"
"-120.45","50.70","KAMLOOPS A","1163781","2018-10-17 03:00","2018","10","17","03:00","1.7","","0.6","","93","","","","10","","8","","64.4","","98.77","","","","","","NA"
"-120.45","50.70","KAMLOOPS A","1163781","2018-10-17 04:00","2018","10","17","04:00","1.2","","0.1","","93","","","","8","","5","","48.3","","98.75","","","","","","Mainly Clear"
"-120.45","50.70","KAMLOOPS A","1163781","2018-10-17 05:00","2018","10","17","05:00","0.4","","-0.6","","93","","","","7","","8","","48.3","","98.74","","","","","","NA"
"-120.45","50.70","KAMLOOPS A","1163781","2018-10-17 06:00","2018","10","17","06:00","0.7","","-0.1","","94","","","","36","","4","","48.3","","98.71","","","","","","NA"
"-120.45","50.70","KAMLOOPS A","1163781","2018-10-17 07:00","2018","10","17","07:00","0.9","","0.1","","95","","","","8","","12","","64.4","","98.69","","","","","","Mainly Clear"
"-120.45","50.70","KAMLOOPS A","1163781","2018-10-17 08:00","2018","10","17","08:00","2.1","","0.9","","92","","","","9","","5","","64.4","","98.73","","","","","","NA"
"-120.45","50.70","KAMLOOPS A","1163781","2018-10-17 09:00","2018","10","17","09:00","2.8","","1.9","","94","","","","12","","17","","16.1","","98.68","","","","","","NA"
"-120.45","50.70","KAMLOOPS A","1163781","2018-10-17 10:00","2018","10","17","10:00","4.8","","2.3","","84","","","","10","","17","","32.2","","98.63","","","","","","Mainly Clear"
"-120.45","50.70","KAMLOOPS A","1163781","2018-10-17 11:00","2018","10","17","11:00","6.6","","3.0","","78","","","","9","","19","","64.4","","98.50","","","","","","NA"
"-120.45","50.70","KAMLOOPS A","1163781","2018-10-17 12:00","2018","10","17","12:00","8.5","","3.3","","70","","","","8","","18","","64.4","","98.38","","","","","","NA"
"-120.45","50.70","KAMLOOPS A","1163781","2018-10-17 13:00","2018","10","17","13:00","10.8","","4.2","","63","","","","8","","11","","64.4","","98.23","","","","","","Mainly Clear"
"-120.45","50.70","KAMLOOPS A","1163781","2018-10-17 14:00","2018","10","17","14:00","12.3","","4.4","","58","","","","9","","14","","64.4","","98.11","","","","","","NA"
"-120.45","50.70","KAMLOOPS A","1163781","2018-10-17 15:00","2018","10","17","15:00","11.6","","4.3","","61","","","","1","","4","","64.4","","98.03","","","","","","NA"
"-120.45","50.70","KAMLOOPS A","1163781","2018-10-17 16:00","2018","10","17","16:00","12.7","","4.5","","57","","","","12","","3","","64.4","","97.95","","","","","","Mostly Cloudy"
"-120.45","50.70","KAMLOOPS A","1163781","2018-10-17 17:00","2018","10","17","17:00","9.0","","4.9","","75","","","","27","","3","","64.4","","97.94","","","","","","NA"
"-120.45","50.70","KAMLOOPS A","1163781","2018-10-17 18:00","2018","10","17","18:00","7.7","","3.8","","77","","","","18","","5","","64.4","","97.97","","","","","","NA"
"-120.45","50.70","KAMLOOPS A","1163781","2018-10-17 19:00","2018","10","17","19:00","7.0","","4.2","","82","","","","36","","2","","64.4","","97.97","","","","","","Mainly Clear"
"-120.45","50.70","KAMLOOPS A","1163781","2018-10-17 20:00","2018","10","17","20:00","5.2","","2.6","","83","","","","3","","3","","64.4","","97.97","","","","","","NA"
"-120.45","50.70","KAMLOOPS A","1163781","2018-10-17 21:00","2018","10","17","21:00","5.6","","3.4","","86","","","","11","","8","","64.4","","97.99","","","","","","NA"
"-120.45","50.70","KAMLOOPS A","1163781","2018-10-17 22:00","2018","10","17","22:00","3.9","","2.7","","92","","","","36","","1","","64.4","","98.05","","","","","","Mainly Clear"
"-120.45","50.70","KAMLOOPS A","1163781","2018-10-17 23:00","2018","10","17","23:00","3.3","","2.2","","92","","","","10","","5","","64.4","","98.05","","","","","","NA"
"-120.45","50.70","KAMLOOPS A","1163781","2018-10-18 00:00","2018","10","18","00:00","3.7","","2.2","","90","","","","6","","4","","64.4","","98.08","","","","","","NA"
"-120.45","50.70","KAMLOOPS A","1163781","2018-10-18 01:00","2018","10","18","01:00","0.9","","-0.1","","93","","","","9","","5","","64.4","","98.09","","","","","","Clear"
"-120.45","50.70","KAMLOOPS A","1163781","2018-10-18 02:00","2018","10","18","02:00","2.1","","1.2","","94","","","","1","","4","","64.4","","98.08","","","","","","NA"
"-120.45","50.70","KAMLOOPS A","1163781","2018-10-18 03:00","2018","10","18","03:00","2.1","","0.9","","92","","","","36","","2","","64.4","","98.13","","","","","","NA"
"-120.45","50.70","KAMLOOPS A","1163781","2018-10-18 04:00","2018","10","18","04:00","2.3","","1.4","","94","","","","9","","4","","64.4","","98.15","","","","","","Mostly Cloudy"
"-120.45","50.70","KAMLOOPS A","1163781","2018-10-18 05:00","2018","10","18","05:00","1.7","","0.7","","93","","","","6","","8","","64.4","","98.19","","","","","","NA"
"-120.45","50.70","KAMLOOPS A","1163781","2018-10-18 06:00","2018","10","18","06:00","2.2","","1.4","","95","","","","5","","6","","48.3","","98.21","","","","","","NA"
"-120.45","50.70","KAMLOOPS A","1163781","2018-10-18 07:00","2018","10","18","07:00","1.5","","0.7","","94","","","","5","","7","","64.4","","98.23","","","","","","Mostly Cloudy"
"-120.45","50.70","KAMLOOPS A","1163781","2018-10-18 08:00","2018","10","18","08:00","4.0","","2.4","","89","","","","7","","5","","64.4","","98.31","","","","","","NA"
"-120.45","50.70","KAMLOOPS A","1163781","2018-10-18 09:00","2018","10","18","09:00","5.0","","2.4","","83","","","","36","","2","","56.3","","98.37","","","","","","NA"
"-120.45","50.70","KAMLOOPS A","1163781","2018-10-18 10:00","2018","10","18","10:00","6.4","","3.1","","79","","","","12","","7","","32.2","","98.31","","","","","","Mostly Cloudy"
"-120.45","50.70","KAMLOOPS A","1163781","2018-10-18 11:00","2018","10","18","11:00","8.7","","4.4","","74","","","","36","","1","","64.4","","98.32","","","","","","NA"
"-120.45","50.70","KAMLOOPS A","1163781","2018-10-18 12:00","2018","10","18","12:00","10.1","","4.4","","68","","","","36","","3","","64.4","","98.29","","","","","","NA"
"-120.45","50.70","KAMLOOPS A","1163781","2018-10-18 13:00","2018","10","18","13:00","11.9","","3.6","","56","","","","8","","10","","64.4","","98.23","","","","","","Mostly Cloudy"
"-120.45","50.70","KAMLOOPS A","1163781","2018-10-18 14:00","2018","10","18","14:00","12.8","","3.7","","54","","","","12","","4","","64.4","","98.18","","","","","","NA"
"-120.45","50.70","KAMLOOPS A","1163781","2018-10-18 15:00","2018","10","18","15:00","12.8","","3.1","","51","","","","11","","3","","64.4","","98.16","","","","","","NA"
"-120.45","50.70","KAMLOOPS A","1163781","2018-10-18 16:00","2018","10","18","16:00","12.8","","3.9","","54","","","","23","","3","","64.4","","98.12","","","","","","Mostly Cloudy"
"-120.45","50.70","KAMLOOPS A","1163781","2018-10-18 17:00","2018","10","18","17:00","9.4","","4.5","","71","","","","36","","3","","64.4","","98.15","","","","","","NA"
"-120.45","50.70","KAMLOOPS A","1163781","2018-10-18 18:00","2018","10","18","18:00","8.1","","3.9","","75","","","","29","","3","","64.4","","98.23","","","","","","NA"
"-120.45","50.70","KAMLOOPS A","1163781","2018-10-18 19:00","2018","10","18","19:00","7.7","","4.7","","81","","","","16","","4","","64.4","","98.28","","","","","","Mainly Clear"
"-120.45","50.70","KAMLOOPS A","1163781","2018-10-18 20:00","2018","10","18","20:00","5.8","","3.6","","85","","","","36","","2","","64.4","","98.31","","","","","","NA"
"-120.45","50.70","KAMLOOPS A","1163781","2018-10-18 21:00","2018","10","18","21:00","4.7","","2.4","","85","","","","21","","3","","64.4","","98.37","","","","","","NA"
"-120.45","50.70","KAMLOOPS A","1163781","2018-10-18 22:00","2018","10","18","22:00","3.5","","1.9","","89","","","","36","","1","","64.4","","98.45","","","","","","Clear"
"-120.45","50.70","KAMLOOPS A","1163781","2018-10-18 23:00","2018","10","18","23:00","5.1","","3.9","","92","","","","36","","2","","64.4","","98.47","","","","","","NA"
"-120.45","50.70","KAMLOOPS A","1163781","2018-10-19 00:00","2018","10","19","00:00","2.4","","0.6","","88","","","","36","","1","","64.4","","98.53","","","","","","NA"
"-120.45","50.70","KAMLOOPS A","1163781","2018-10-19 01:00","2018","10","19","01:00","3.6","","2.4","","91","","","","36","","3","","64.4","","98.59","","","","","","Clear"
"-120.45","50.70","KAMLOOPS A","1163781","2018-10-19 02:00","2018","10","19","02:00","1.7","","0.8","","94","","","","10","","7","","64.4","","98.60","","","","","","NA"
"-120.45","50.70","KAMLOOPS A","1163781","2018-10-19 03:00","2018","10","19","03:00","1.8","","0.7","","93","","","","11","","4","","64.4","","98.66","","","","","","NA"
"-120.45","50.70","KAMLOOPS A","1163781","2018-10-19 04:00","2018","10","19","04:00","1.5","","0.8","","95","","","","5","","5","","64.4","","98.72","","","","","","Mainly Clear"
"-120.45","50.70","KAMLOOPS A","1163781","2018-10-19 05:00","2018","10","19","05:00","2.5","","1.8","","95","","","","8","","10","","32.2","","98.72","","","","","","NA"
"-120.45","50.70","KAMLOOPS A","1163781","2018-10-19 06:00","2018","10","19","06:00","2.8","","2.0","","94","","","","6","","7","","64.4","","98.77","","","","","","NA"
"-120.45","50.70","KAMLOOPS A","1163781","2018-10-19 07:00","2018","10","19","07:00","2.1","","1.2","","94","","","","9","","9","","64.4","","98.78","","","","","","Mostly Cloudy"
"-120.45","50.70","KAMLOOPS A","1163781","2018-10-19 08:00","2018","10","19","08:00","3.8","","2.5","","91","","","","36","","1","","48.3","","98.82","","","","","","NA"
"-120.45","50.70","KAMLOOPS A","1163781","2018-10-19 09:00","2018","10","19","09:00","5.3","","3.4","","87","","","","17","","4","","64.4","","98.82","","","","","","NA"
"-120.45","50.70","KAMLOOPS A","1163781","2018-10-19 10:00","2018","10","19","10:00","7.7","","3.3","","74","","","","10","","14","","64.4","","98.74","","","","","","Mostly Cloudy"
"-120.45","50.70","KAMLOOPS A","1163781","2018-10-19 11:00","2018","10","19","11:00","10.3","","3.4","","62","","","","10","","11","","48.3","","98.70","","","","","","NA"
"-120.45","50.70","KAMLOOPS A","1163781","2018-10-19 12:00","2018","10","19","12:00","12.3","","4.4","","58","","","","8","","14","","64.4","","98.57","","","","","","NA"
"-120.45","50.70","KAMLOOPS A","1163781","2018-10-19 13:00","2018","10","19","13:00","13.6","","5.1","","56","","","","11","","16","","64.4","","98.46","","","","","","Mostly Cloudy"
"-120.45","50.70","KAMLOOPS A","1163781","2018-10-19 14:00","2018","10","19","14:00","14.4","","5.3","","54","","","","11","","13","","64.4","","98.36","","","","","","NA"
"-120.45","50.70","KAMLOOPS A","1163781","2018-10-19 15:00","2018","10","19","15:00","15.5","","5.8","","52","","","","10","","11","","64.4","","98.26","","","","","","NA"
"-120.45","50.70","KAMLOOPS A","1163781","2018-10-19 16:00","2018","10","19","16:00","15.0","","5.3","","52","","","","13","","10","","64.4","","98.18","","","","","","Clear"
"-120.45","50.70","KAMLOOPS A","1163781","2018-10-19 17:00","2018","10","19","17:00","13.1","","5.3","","59","","","","5","","3","","64.4","","98.14","","","","","","NA"
"-120.45","50.70","KAMLOOPS A","1163781","2018-10-19 18:00","2018","10","19","18:00","10.4","","4.8","","68","","","","10","","3","","64.4","","98.14","","","","","","NA"
"-120.45","50.70","KAMLOOPS A","1163781","2018-10-19 19:00","2018","10","19","19:00","9.6","","4.8","","72","","","","36","","1","","64.4","","98.14","","","","","","Clear"
"-120.45","50.70","KAMLOOPS A","1163781","2018-10-19 20:00","2018","10","19","20:00","6.8","","5.2","","89","","","","28","","7","","64.4","","98.18","","","","","","NA"
"-120.45","50.70","KAMLOOPS A","1163781","2018-10-19 21:00","2018","10","19","21:00","5.1","","3.6","","90","","","","36","","3","","64.4","","98.20","","","","","","NA"
"-120.45","50.70","KAMLOOPS A","1163781","2018-10-19 22:00","2018","10","19","22:00","4.7","","2.8","","88","","","","34","","7","","64.4","","98.20","","","","","","Mainly Clear"
"-120.45","50.70","KAMLOOPS A","1163781","2018-10-19 23:00","2018","10","19","23:00","5.2","","3.7","","90","","","","36","","1","","64.4","","98.19","","","","","","NA"
"-120.45","50.70","KAMLOOPS A","1163781","2018-10-20 00:00","2018","10","20","00:00","4.0","","2.7","","91","","","","32","","4","","64.4","","98.21","","","","","","NA"
"-120.45","50.70","KAMLOOPS A","1163781","2018-10-20 01:00","2018","10","20","01:00","3.3","","2.0","","91","","","","36","","3","","64.4","","98.26","","","","","","Mainly Clear"
"-120.45","50.70","KAMLOOPS A","1163781","2018-10-20 02:00","2018","10","20","02:00","2.9","","1.9","","93","","","","11","","8","","64.4","","98.26","","","","","","NA"
"-120.45","50.70","KAMLOOPS A","1163781","2018-10-20 03:00","2018","10","20","03:00","1.1","","0.0","","92","","","","31","","10","","64.4","","98.27","","","","","","NA"
"-120.45","50.70","KAMLOOPS A","1163781","2018-10-20 04:00","2018","10","20","04:00","2.9","","2.4","","97","","","","12","","8","","64.4","","98.28","","","","","","Mainly Clear"
"-120.45","50.70","KAMLOOPS A","1163781","2018-10-20 05:00","2018","10","20","05:00","1.7","","1.1","","96","","","","8","","9","","64.4","","98.35","","","","","","NA"
"-120.45","50.70","KAMLOOPS A","1163781","2018-10-20 06:00","2018","10","20","06:00","0.9","","0.2","","95","","","","30","","4","","64.4","","98.42","","","","","","NA"
"-120.45","50.70","KAMLOOPS A","1163781","2018-10-20 07:00","2018","10","20","07:00","0.7","","0.2","","96","","","","36","","1","","48.3","","98.45","","","","","","Mainly Clear"
"-120.45","50.70","KAMLOOPS A","1163781","2018-10-20 08:00","2018","10","20","08:00","3.2","","2.6","","96","","","","36","","2","","48.3","","98.49","","","","","","NA"
"-120.45","50.70","KAMLOOPS A","1163781","2018-10-20 09:00","2018","10","20","09:00","5.7","","3.4","","85","","","","36","","2","","48.3","","98.48","","","","","","NA"
"-120.45","50.70","KAMLOOPS A","1163781","2018-10-20 10:00","2018","10","20","10:00","7.5","","4.1","","79","","","","36","","2","","64.4","","98.43","","","","","","Mainly Clear"
"-120.45","50.70","KAMLOOPS A","1163781","2018-10-20 11:00","2018","10","20","11:00","8.9","","4.0","","71","","","","29","","5","","64.4","","98.38","","","","","","NA"
"-120.45","50.70","KAMLOOPS A","1163781","2018-10-20 12:00","2018","10","20","12:00","10.7","","3.8","","62","","","","19","","7","","64.4","","98.30","","","","","","NA"
"-120.45","50.70","KAMLOOPS A","1163781","2018-10-20 13:00","2018","10","20","13:00","12.4","","4.6","","59","","","","36","","2","","64.4","","98.19","","","","","","Mainly Clear"
"-120.45","50.70","KAMLOOPS A","1163781","2018-10-20 14:00","2018","10","20","14:00","12.9","","4.0","","54","","","","36","","3","","64.4","","98.14","","","","","","NA"
"-120.45","50.70","KAMLOOPS A","1163781","2018-10-20 15:00","2018","10","20","15:00","13.9","","4.2","","52","","","","17","","4","","64.4","","98.07","","","","","","NA"
"-120.45","50.70","KAMLOOPS A","1163781","2018-10-20 16:00","2018","10","20","16:00","13.5","","4.9","","56","","","","36","","2","","64.4","","98.04","","","","","","Mostly Cloudy"
"-120.45","50.70","KAMLOOPS A","1163781","2018-10-20 17:00","2018","10","20","17:00","10.2","","5.0","","70","","","","30","","3","","64.4","","98.01","","","","","","NA"
"-120.45","50.70","KAMLOOPS A","1163781","2018-10-20 18:00","2018","10","20","18:00","8.5","","5.3","","80","","","","36","","3","","64.4","","98.04","","","","","","NA"
"-120.45","50.70","KAMLOOPS A","1163781","2018-10-20 19:00","2018","10","20","19:00","7.1","","3.7","","79","","","","36","","1","","64.4","","98.06","","","","","","Mostly Cloudy"
"-120.45","50.70","KAMLOOPS A","1163781","2018-10-20 20:00","2018","10","20","20:00","6.9","","4.2","","83","","","","36","","2","","64.4","","98.05","","","","","","NA"
"-120.45","50.70","KAMLOOPS A","1163781","2018-10-20 21:00","2018","10","20","21:00","6.6","","4.7","","88","","","","14","","6","","64.4","","98.08","","","","","","NA"
"-120.45","50.70","KAMLOOPS A","1163781","2018-10-20 22:00","2018","10","20","22:00","4.7","","2.2","","84","","","","0","","1","","64.4","","98.11","","","","","","Mainly Clear"
"-120.45","50.70","KAMLOOPS A","1163781","2018-10-20 23:00","2018","10","20","23:00","4.8","","3.7","","93","","","","36","","1","","64.4","","98.14","","","","","","NA"
"-120.45","50.70","KAMLOOPS A","1163781","2018-10-21 00:00","2018","10","21","00:00","2.7","","1.5","","92","","","","8","","7","","64.4","","98.15","","","","","","NA"
"-120.45","50.70","KAMLOOPS A","1163781","2018-10-21 01:00","2018","10","21","01:00","2.5","","1.4","","92","","","","9","","4","","64.4","","98.19","","","","","","Mainly Clear"
"-120.45","50.70","KAMLOOPS A","1163781","2018-10-21 02:00","2018","10","21","02:00","1.9","","1.1","","94","","","","36","","3","","64.4","","98.19","","","","","","NA"
"-120.45","50.70","KAMLOOPS A","1163781","2018-10-21 03:00","2018","10","21","03:00","1.4","","0.7","","95","","","","9","","4","","64.4","","98.18","","","","","","NA"
"-120.45","50.70","KAMLOOPS A","1163781","2018-10-21 04:00","2018","10","21","04:00","0.2","","-0.6","","95","","","","36","","3","","48.3","","98.22","","","","","","Mainly Clear"
"-120.45","50.70","KAMLOOPS A","1163781","2018-10-21 05:00","2018","10","21","05:00","0.0","","-0.9","","94","","","","4","","4","","0.4","","98.23","","","","-1","","Fog"
"-120.45","50.70","KAMLOOPS A","1163781","2018-10-21 06:00","2018","10","21","06:00","-0.1","","-0.8","","95","","","","36","","3","","8.1","","98.26","","","","-1","","NA"
"-120.45","50.70","KAMLOOPS A","1163781","2018-10-21 07:00","2018","10","21","07:00","-0.8","","-1.4","","96","","","","0","","1","","1.2","","98.28","","","","-1","","Fog"
"-120.45","50.70","KAMLOOPS A","1163781","2018-10-21 08:00","2018","10","21","08:00","2.6","","2.2","","97","","","","6","","5","","8.1","","98.30","","","","","","Fog"
"-120.45","50.70","KAMLOOPS A","1163781","2018-10-21 09:00","2018","10","21","09:00","4.0","","3.4","","96","","","","34","","3","","24.1","","98.28","","","","","","NA"
"-120.45","50.70","KAMLOOPS A","1163781","2018-10-21 10:00","2018","10","21","10:00","5.2","","3.3","","87","","","","18","","5","","48.3","","98.26","","","","","","Mainly Clear"
"-120.45","50.70","KAMLOOPS A","1163781","2018-10-21 11:00","2018","10","21","11:00","8.0","","4.0","","76","","","","25","","5","","64.4","","98.19","","","","","","NA"
"-120.45","50.70","KAMLOOPS A","1163781","2018-10-21 12:00","2018","10","21","12:00","9.7","","2.9","","62","","","","15","","3","","64.4","","98.09","","","","","","NA"
"-120.45","50.70","KAMLOOPS A","1163781","2018-10-21 13:00","2018","10","21","13:00","11.3","","2.5","","54","","","","14","","4","","64.4","","97.97","","","","","","Clear"
"-120.45","50.70","KAMLOOPS A","1163781","2018-10-21 14:00","2018","10","21","14:00","12.6","","3.0","","52","","","","17","","4","","64.4","","97.88","","","","","","NA"
"-120.45","50.70","KAMLOOPS A","1163781","2018-10-21 15:00","2018","10","21","15:00","13.4","","3.0","","49","","","","36","","1","","64.4","","97.81","","","","","","NA"
"-120.45","50.70","KAMLOOPS A","1163781","2018-10-21 16:00","2018","10","21","16:00","13.4","","2.9","","49","","","","36","","2","","64.4","","97.77","","","","","","Clear"
"-120.45","50.70","KAMLOOPS A","1163781","2018-10-21 17:00","2018","10","21","17:00","9.5","","2.4","","61","","","","30","","3","","64.4","","97.78","","","","","","NA"
"-120.45","50.70","KAMLOOPS A","1163781","2018-10-21 18:00","2018","10","21","18:00","8.3","","1.5","","62","","","","1","","5","","64.4","","97.81","","","","","","NA"
"-120.45","50.70","KAMLOOPS A","1163781","2018-10-21 19:00","2018","10","21","19:00","6.9","","2.4","","73","","","","10","","4","","64.4","","97.83","","","","","","Clear"
"-120.45","50.70","KAMLOOPS A","1163781","2018-10-21 20:00","2018","10","21","20:00","6.0","","2.1","","76","","","","12","","6","","64.4","","97.86","","","","","","NA"
"-120.45","50.70","KAMLOOPS A","1163781","2018-10-21 21:00","2018","10","21","21:00","4.8","","1.7","","80","","","","36","","1","","64.4","","97.88","","","","","","NA"
"-120.45","50.70","KAMLOOPS A","1163781","2018-10-21 22:00","2018","10","21","22:00","3.9","","1.2","","83","","","","11","","4","","64.4","","97.90","","","","","","Clear"
"-120.45","50.70","KAMLOOPS A","1163781","2018-10-21 23:00","2018","10","21","23:00","2.9","","0.2","","83","","","","8","","5","","64.4","","97.90","","","","","","NA"
"-120.45","50.70","KAMLOOPS A","1163781","2018-10-22 00:00","2018","10","22","00:00","2.3","","0.6","","88","","","","8","","8","","64.4","","97.94","","","","","","NA"
"-120.45","50.70","KAMLOOPS A","1163781","2018-10-22 01:00","2018","10","22","01:00","1.9","","-0.1","","86","","","","7","","6","","64.4","","97.96","","","","","","Clear"
"-120.45","50.70","KAMLOOPS A","1163781","2018-10-22 02:00","2018","10","22","02:00","1.1","","-0.9","","87","","","","8","","9","","64.4","","97.97","","","","","","NA"
"-120.45","50.70","KAMLOOPS A","1163781","2018-10-22 03:00","2018","10","22","03:00","0.8","","-0.8","","89","","","","8","","10","","64.4","","97.97","","","","","","NA"
"-120.45","50.70","KAMLOOPS A","1163781","2018-10-22 04:00","2018","10","22","04:00","0.2","","-1.5","","88","","","","10","","12","","64.4","","97.95","","","","","","Clear"
"-120.45","50.70","KAMLOOPS A","1163781","2018-10-22 05:00","2018","10","22","05:00","-0.2","","-1.2","","93","","","","9","","9","","64.4","","97.94","","","","-3","","NA"
"-120.45","50.70","KAMLOOPS A","1163781","2018-10-22 06:00","2018","10","22","06:00","-2.5","","-3.6","","92","","","","8","","8","","64.4","","97.97","","","","-6","","NA"
"-120.45","50.70","KAMLOOPS A","1163781","2018-10-22 07:00","2018","10","22","07:00","-0.8","","-1.8","","93","","","","7","","9","","64.4","","97.98","","","","-4","","Mainly Clear"
"-120.45","50.70","KAMLOOPS A","1163781","2018-10-22 08:00","2018","10","22","08:00","1.4","","-0.1","","90","","","","10","","7","","64.4","","98.01","","","","","","NA"
"-120.45","50.70","KAMLOOPS A","1163781","2018-10-22 09:00","2018","10","22","09:00","3.0","","0.6","","84","","","","10","","10","","64.4","","97.99","","","","","","NA"
"-120.45","50.70","KAMLOOPS A","1163781","2018-10-22 10:00","2018","10","22","10:00","4.8","","1.2","","78","","","","11","","13","","64.4","","97.93","","","","","","Mainly Clear"
"-120.45","50.70","KAMLOOPS A","1163781","2018-10-22 11:00","2018","10","22","11:00","7.7","","2.3","","69","","","","9","","12","","64.4","","97.85","","","","","","NA"
"-120.45","50.70","KAMLOOPS A","1163781","2018-10-22 12:00","2018","10","22","12:00","8.8","","2.8","","66","","","","9","","15","","64.4","","97.76","","","","","","NA"
"-120.45","50.70","KAMLOOPS A","1163781","2018-10-22 13:00","2018","10","22","13:00","9.8","","2.7","","61","","","","8","","18","","64.4","","97.66","","","","","","Mainly Clear"
"-120.45","50.70","KAMLOOPS A","1163781","2018-10-22 14:00","2018","10","22","14:00","11.1","","3.0","","57","","","","9","","14","","64.4","","97.58","","","","","","NA"
"-120.45","50.70","KAMLOOPS A","1163781","2018-10-22 15:00","2018","10","22","15:00","11.9","","3.3","","55","","","","8","","14","","64.4","","97.51","","","","","","NA"
"-120.45","50.70","KAMLOOPS A","1163781","2018-10-22 16:00","2018","10","22","16:00","11.1","","3.4","","59","","","","8","","14","","64.4","","97.47","","","","","","Mainly Clear"
"-120.45","50.70","KAMLOOPS A","1163781","2018-10-22 17:00","2018","10","22","17:00","8.6","","3.3","","69","","","","7","","13","","64.4","","97.47","","","","","","NA"
"-120.45","50.70","KAMLOOPS A","1163781","2018-10-22 18:00","2018","10","22","18:00","7.1","","3.7","","79","","","","17","","4","","64.4","","97.48","","","","","","NA"
"-120.45","50.70","KAMLOOPS A","1163781","2018-10-22 19:00","2018","10","22","19:00","6.5","","3.5","","81","","","","9","","8","","64.4","","97.50","","","","","","Mainly Clear"
"-120.45","50.70","KAMLOOPS A","1163781","2018-10-22 20:00","2018","10","22","20:00","4.9","","2.6","","85","","","","9","","9","","64.4","","97.52","","","","","","NA"
"-120.45","50.70","KAMLOOPS A","1163781","2018-10-22 21:00","2018","10","22","21:00","4.2","","2.4","","88","","","","8","","7","","64.4","","97.54","","","","","","NA"
"-120.45","50.70","KAMLOOPS A","1163781","2018-10-22 22:00","2018","10","22","22:00","2.9","","1.2","","88","","","","8","","5","","64.4","","97.53","","","","","","Clear"
"-120.45","50.70","KAMLOOPS A","1163781","2018-10-22 23:00","2018","10","22","23:00","2.2","","0.6","","89","","","","36","","1","","64.4","","97.55","","","","","","NA"
"-120.45","50.70","KAMLOOPS A","1163781","2018-10-23 00:00","2018","10","23","00:00","1.7","","0.6","","92","","","","8","","4","","64.4","","97.57","","","","","","NA"
"-120.45","50.70","KAMLOOPS A","1163781","2018-10-23 01:00","2018","10","23","01:00","0.8","","-0.3","","93","","","","8","","4","","64.4","","97.57","","","","","","Clear"
"-120.45","50.70","KAMLOOPS A","1163781","2018-10-23 02:00","2018","10","23","02:00","1.2","","0.2","","93","","","","9","","5","","64.4","","97.56","","","","","","NA"
"-120.45","50.70","KAMLOOPS A","1163781","2018-10-23 03:00","2018","10","23","03:00","1.1","","0.0","","93","","","","10","","7","","64.4","","97.52","","","","","","NA"
"-120.45","50.70","KAMLOOPS A","1163781","2018-10-23 04:00","2018","10","23","04:00","-0.4","","-1.2","","94","","","","9","","7","","64.4","","97.50","","","","-3","","Mainly Clear"
"-120.45","50.70","KAMLOOPS A","1163781","2018-10-23 05:00","2018","10","23","05:00","0.1","","-0.6","","96","","","","5","","5","","0.2","","97.50","","","","","","Fog"
"-120.45","50.70","KAMLOOPS A","1163781","2018-10-23 06:00","2018","10","23","06:00","0.9","","0.4","","97","","","","6","","9","","0.4","","97.49","","","","","","Fog"
"-120.45","50.70","KAMLOOPS A","1163781","2018-10-23 07:00","2018","10","23","07:00","1.6","","1.2","","97","","","","7","","8","","0.8","","97.50","","","","","","Fog"
"-120.45","50.70","KAMLOOPS A","1163781","2018-10-23 08:00","2018","10","23","08:00","2.1","","1.8","","97","","","","9","","9","","2.0","","97.50","","","","","","Fog"
"-120.45","50.70","KAMLOOPS A","1163781","2018-10-23 09:00","2018","10","23","09:00","2.3","","1.9","","97","","","","10","","12","","2.8","","97.49","","","","","","Fog"
"-120.45","50.70","KAMLOOPS A","1163781","2018-10-23 10:00","2018","10","23","10:00","3.3","","2.8","","96","","","","9","","9","","6.4","","97.45","","","","","","Fog"
"-120.45","50.70","KAMLOOPS A","1163781","2018-10-23 11:00","2018","10","23","11:00","4.6","","3.1","","90","","","","8","","5","","19.3","","97.36","","","","","","NA"
"-120.45","50.70","KAMLOOPS A","1163781","2018-10-23 12:00","2018","10","23","12:00","6.7","","3.7","","81","","","","12","","10","","64.4","","97.25","","","","","","NA"
"-120.45","50.70","KAMLOOPS A","1163781","2018-10-23 13:00","2018","10","23","13:00","8.6","","3.5","","70","","","","10","","7","","64.4","","97.17","","","","","","Clear"
"-120.45","50.70","KAMLOOPS A","1163781","2018-10-23 14:00","2018","10","23","14:00","10.1","","3.9","","65","","","","7","","9","","64.4","","97.10","","","","","","NA"
"-120.45","50.70","KAMLOOPS A","1163781","2018-10-23 15:00","2018","10","23","15:00","11.0","","3.9","","61","","","","8","","9","","64.4","","97.03","","","","","","NA"
"-120.45","50.70","KAMLOOPS A","1163781","2018-10-23 16:00","2018","10","23","16:00","9.0","","4.2","","72","","","","24","","6","","64.4","","97.01","","","","","","Mainly Clear"
"-120.45","50.70","KAMLOOPS A","1163781","2018-10-23 17:00","2018","10","23","17:00","7.0","","4.2","","82","","","","24","","7","","64.4","","97.01","","","","","","NA"
"-120.45","50.70","KAMLOOPS A","1163781","2018-10-23 18:00","2018","10","23","18:00","5.5","","3.8","","89","","","","27","","5","","64.4","","97.01","","","","","","NA"
"-120.45","50.70","KAMLOOPS A","1163781","2018-10-23 19:00","2018","10","23","19:00","5.8","","3.6","","86","","","","4","","3","","64.4","","97.04","","","","","","Mostly Cloudy"
"-120.45","50.70","KAMLOOPS A","1163781","2018-10-23 20:00","2018","10","23","20:00","6.1","","3.7","","84","","","","7","","5","","64.4","","97.09","","","","","","NA"
"-120.45","50.70","KAMLOOPS A","1163781","2018-10-23 21:00","2018","10","23","21:00","6.1","","4.0","","87","","","","3","","4","","64.4","","97.14","","","","","","NA"
"-120.45","50.70","KAMLOOPS A","1163781","2018-10-23 22:00","2018","10","23","22:00","6.3","","4.0","","85","","","","2","","4","","64.4","","97.17","","","","","","Mostly Cloudy"
"-120.45","50.70","KAMLOOPS A","1163781","2018-10-23 23:00","2018","10","23","23:00","6.3","","4.1","","86","","","","5","","3","","64.4","","97.19","","","","","","NA"
"-120.45","50.70","KAMLOOPS A","1163781","2018-10-24 00:00","2018","10","24","00:00","6.0","","4.1","","88","","","","36","","1","","64.4","","97.23","","","","","","NA"
"-120.45","50.70","KAMLOOPS A","1163781","2018-10-24 01:00","2018","10","24","01:00","6.2","","4.7","","90","","","","13","","5","","64.4","","97.23","","","","","","Mostly Cloudy"
"-120.45","50.70","KAMLOOPS A","1163781","2018-10-24 02:00","2018","10","24","02:00","6.8","","5.0","","88","","","","16","","5","","64.4","","97.25","","","","","","NA"
"-120.45","50.70","KAMLOOPS A","1163781","2018-10-24 03:00","2018","10","24","03:00","6.5","","5.0","","90","","","","22","","8","","64.4","","97.31","","","","","","NA"
"-120.45","50.70","KAMLOOPS A","1163781","2018-10-24 04:00","2018","10","24","04:00","4.7","","3.8","","94","","","","36","","3","","64.4","","97.35","","","","","","Mainly Clear"
"-120.45","50.70","KAMLOOPS A","1163781","2018-10-24 05:00","2018","10","24","05:00","2.8","","2.2","","95","","","","36","","1","","64.4","","97.39","","","","","","NA"
"-120.45","50.70","KAMLOOPS A","1163781","2018-10-24 06:00","2018","10","24","06:00","1.9","","1.3","","96","","","","27","","6","","48.3","","97.43","","","","","","NA"
"-120.45","50.70","KAMLOOPS A","1163781","2018-10-24 07:00","2018","10","24","07:00","1.9","","1.1","","94","","","","10","","7","","64.4","","97.46","","","","","","Clear"
"-120.45","50.70","KAMLOOPS A","1163781","2018-10-24 08:00","2018","10","24","08:00","4.4","","3.8","","96","","","","36","","2","","64.4","","97.47","","","","","","NA"
"-120.45","50.70","KAMLOOPS A","1163781","2018-10-24 09:00","2018","10","24","09:00","7.0","","4.8","","85","","","","36","","2","","64.4","","97.49","","","","","","NA"
"-120.45","50.70","KAMLOOPS A","1163781","2018-10-24 10:00","2018","10","24","10:00","8.8","","4.9","","76","","","","17","","3","","64.4","","97.46","","","","","","Clear"
"-120.45","50.70","KAMLOOPS A","1163781","2018-10-24 11:00","2018","10","24","11:00","10.7","","4.7","","66","","","","16","","4","","64.4","","97.37","","","","","","NA"
"-120.45","50.70","KAMLOOPS A","1163781","2018-10-24 12:00","2018","10","24","12:00","12.6","","5.7","","62","","","","25","","4","","64.4","","97.30","","","","","","NA"
"-120.45","50.70","KAMLOOPS A","1163781","2018-10-24 13:00","2018","10","24","13:00","14.1","","5.2","","55","","","","26","","8","","64.4","","97.25","","","","","","Mainly Clear"
"-120.45","50.70","KAMLOOPS A","1163781","2018-10-24 14:00","2018","10","24","14:00","15.7","","5.3","","50","","","","36","","2","","64.4","","97.19","","","","","","NA"
"-120.45","50.70","KAMLOOPS A","1163781","2018-10-24 15:00","2018","10","24","15:00","13.8","","6.1","","59","","","","30","","12","","64.4","","97.14","","","","","","NA"
"-120.45","50.70","KAMLOOPS A","1163781","2018-10-24 16:00","2018","10","24","16:00","10.2","","5.5","","73","","","","28","","11","","64.4","","97.14","","","","","","Mostly Cloudy"
"-120.45","50.70","KAMLOOPS A","1163781","2018-10-24 17:00","2018","10","24","17:00","10.0","","5.6","","74","","","","36","","1","","64.4","","97.15","","","","","","NA"
"-120.45","50.70","KAMLOOPS A","1163781","2018-10-24 18:00","2018","10","24","18:00","12.1","","0.7","","45","","","","7","","14","","64.4","","97.17","","","","","","NA"
"-120.45","50.70","KAMLOOPS A","1163781","2018-10-24 19:00","2018","10","24","19:00","11.5","","1.2","","49","","","","0","","1","","64.4","","97.22","","","","","","Mostly Cloudy"
"-120.45","50.70","KAMLOOPS A","1163781","2018-10-24 20:00","2018","10","24","20:00","9.2","","2.3","","62","","","","36","","2","","64.4","","97.27","","","","","","NA"
"-120.45","50.70","KAMLOOPS A","1163781","2018-10-24 21:00","2018","10","24","21:00","10.3","","2.4","","58","","","","17","","3","","64.4","","97.31","","","","","","NA"
"-120.45","50.70","KAMLOOPS A","1163781","2018-10-24 22:00","2018","10","24","22:00","12.6","","1.2","","45","","","","6","","5","","64.4","","97.34","","","","","","Cloudy"
"-120.45","50.70","KAMLOOPS A","1163781","2018-10-24 23:00","2018","10","24","23:00","12.0","","1.4","","48","","","","5","","14","","64.4","","97.34","","","","","","NA"
"-120.45","50.70","KAMLOOPS A","1163781","2018-10-25 00:00","2018","10","25","00:00","12.0","","2.6","","52","","","","11","","15","","64.4","","97.39","","","","","","NA"
"-120.45","50.70","KAMLOOPS A","1163781","2018-10-25 01:00","2018","10","25","01:00","10.7","","3.2","","60","","","","10","","22","","64.4","","97.37","","","","","","Mostly Cloudy"
"-120.45","50.70","KAMLOOPS A","1163781","2018-10-25 02:00","2018","10","25","02:00","9.7","","3.9","","67","","","","8","","23","","64.4","","97.46","","","","","","NA"
"-120.45","50.70","KAMLOOPS A","1163781","2018-10-25 03:00","2018","10","25","03:00","9.1","","3.8","","69","","","","9","","20","","64.4","","97.48","","","","","","NA"
"-120.45","50.70","KAMLOOPS A","1163781","2018-10-25 04:00","2018","10","25","04:00","8.6","","4.0","","73","","","","9","","25","","64.4","","97.49","","","","","","Mainly Clear"
"-120.45","50.70","KAMLOOPS A","1163781","2018-10-25 05:00","2018","10","25","05:00","9.2","","3.9","","69","","","","11","","22","","64.4","","97.49","","","","","","NA"
"-120.45","50.70","KAMLOOPS A","1163781","2018-10-25 06:00","2018","10","25","06:00","8.2","","4.2","","75","","","","10","","25","","64.4","","97.47","","","","","","NA"
"-120.45","50.70","KAMLOOPS A","1163781","2018-10-25 07:00","2018","10","25","07:00","8.1","","4.4","","78","","","","10","","27","","64.4","","97.50","","","","","","Mostly Cloudy"
"-120.45","50.70","KAMLOOPS A","1163781","2018-10-25 08:00","2018","10","25","08:00","7.8","","4.6","","80","","","","9","","18","","64.4","","97.52","","","","","","NA"
"-120.45","50.70","KAMLOOPS A","1163781","2018-10-25 09:00","2018","10","25","09:00","8.9","","5.2","","78","","","","9","","21","","64.4","","97.53","","","","","","NA"
"-120.45","50.70","KAMLOOPS A","1163781","2018-10-25 10:00","2018","10","25","10:00","10.2","","5.5","","73","","","","10","","28","","64.4","","97.45","","","","","","Mostly Cloudy"
"-120.45","50.70","KAMLOOPS A","1163781","2018-10-25 11:00","2018","10","25","11:00","11.4","","5.8","","68","","","","10","","26","","64.4","","97.42","","","","","","NA"
"-120.45","50.70","KAMLOOPS A","1163781","2018-10-25 12:00","2018","10","25","12:00","11.2","","5.7","","69","","","","10","","28","","64.4","","97.35","","","","","","NA"
"-120.45","50.70","KAMLOOPS A","1163781","2018-10-25 13:00","2018","10","25","13:00","11.7","","5.7","","66","","","","10","","33","","64.4","","97.29","","","","","","Mostly Cloudy"
"-120.45","50.70","KAMLOOPS A","1163781","2018-10-25 14:00","2018","10","25","14:00","12.4","","5.9","","64","","","","9","","24","","64.4","","97.25","","","","","","NA"
"-120.45","50.70","KAMLOOPS A","1163781","2018-10-25 15:00","2018","10","25","15:00","13.2","","6.1","","62","","","","10","","29","","64.4","","97.23","","","","","","NA"
"-120.45","50.70","KAMLOOPS A","1163781","2018-10-25 16:00","2018","10","25","16:00","11.8","","6.3","","69","","","","11","","32","","64.4","","97.23","","","","","","Mostly Cloudy"
"-120.45","50.70","KAMLOOPS A","1163781","2018-10-25 17:00","2018","10","25","17:00","10.7","","6.5","","75","","","","12","","17","","64.4","","97.26","","","","","","NA"
"-120.45","50.70","KAMLOOPS A","1163781","2018-10-25 18:00","2018","10","25","18:00","9.7","","6.6","","81","","","","10","","22","","64.4","","97.31","","","","","","NA"
"-120.45","50.70","KAMLOOPS A","1163781","2018-10-25 19:00","2018","10","25","19:00","8.9","","6.4","","84","","","","6","","9","","64.4","","97.35","","","","","","Mainly Clear"
"-120.45","50.70","KAMLOOPS A","1163781","2018-10-25 20:00","2018","10","25","20:00","7.4","","5.5","","87","","","","6","","9","","64.4","","97.43","","","","","","NA"
"-120.45","50.70","KAMLOOPS A","1163781","2018-10-25 21:00","2018","10","25","21:00","6.2","","4.7","","90","","","","8","","13","","64.4","","97.45","","","","","","NA"
"-120.45","50.70","KAMLOOPS A","1163781","2018-10-25 22:00","2018","10","25","22:00","6.5","","5.4","","92","","","","7","","13","","64.4","","97.44","","","","","","Mainly Clear"
"-120.45","50.70","KAMLOOPS A","1163781","2018-10-25 23:00","2018","10","25","23:00","6.8","","5.3","","90","","","","13","","5","","64.4","","97.43","","","","","","NA"
"-120.45","50.70","KAMLOOPS A","1163781","2018-10-26 00:00","2018","10","26","00:00","5.5","","4.2","","91","","","","12","","5","","64.4","","97.37","","","","","","NA"
"-120.45","50.70","KAMLOOPS A","1163781","2018-10-26 01:00","2018","10","26","01:00","6.3","","4.7","","89","","","","6","","5","","48.3","","97.36","","","","","","Mostly Cloudy"
"-120.45","50.70","KAMLOOPS A","1163781","2018-10-26 02:00","2018","10","26","02:00","6.2","","4.7","","91","","","","12","","5","","48.3","","97.29","","","","","","NA"
"-120.45","50.70","KAMLOOPS A","1163781","2018-10-26 03:00","2018","10","26","03:00","7.5","","5.2","","85","","","","11","","10","","64.4","","97.27","","","","","","NA"
"-120.45","50.70","KAMLOOPS A","1163781","2018-10-26 04:00","2018","10","26","04:00","7.6","","5.5","","86","","","","11","","17","","64.4","","97.19","","","","","","Rain"
"-120.45","50.70","KAMLOOPS A","1163781","2018-10-26 05:00","2018","10","26","05:00","7.5","","5.9","","90","","","","11","","16","","64.4","","97.09","","","","","","Rain"
"-120.45","50.70","KAMLOOPS A","1163781","2018-10-26 06:00","2018","10","26","06:00","7.0","","5.9","","93","","","","10","","14","","64.4","","96.99","","","","","","Rain"
"-120.45","50.70","KAMLOOPS A","1163781","2018-10-26 07:00","2018","10","26","07:00","7.0","","6.1","","94","","","","10","","16","","48.3","","96.94","","","","","","Mostly Cloudy"
"-120.45","50.70","KAMLOOPS A","1163781","2018-10-26 08:00","2018","10","26","08:00","8.2","","6.6","","89","","","","8","","14","","48.3","","96.86","","","","","","NA"
"-120.45","50.70","KAMLOOPS A","1163781","2018-10-26 09:00","2018","10","26","09:00","9.5","","7.0","","84","","","","9","","26","","64.4","","96.77","","","","","","NA"
"-120.45","50.70","KAMLOOPS A","1163781","2018-10-26 10:00","2018","10","26","10:00","12.0","","7.2","","72","","","","9","","22","","64.4","","96.71","","","","","","Mainly Clear"
"-120.45","50.70","KAMLOOPS A","1163781","2018-10-26 11:00","2018","10","26","11:00","13.9","","8.5","","70","","","","9","","19","","64.4","","96.73","","","","","","NA"
"-120.45","50.70","KAMLOOPS A","1163781","2018-10-26 12:00","2018","10","26","12:00","13.0","","7.6","","70","","","","11","","22","","64.4","","96.75","","","","","","NA"
"-120.45","50.70","KAMLOOPS A","1163781","2018-10-26 13:00","2018","10","26","13:00","14.9","","7.1","","59","","","","9","","13","","64.4","","96.74","","","","","","Mostly Cloudy"
"-120.45","50.70","KAMLOOPS A","1163781","2018-10-26 14:00","2018","10","26","14:00","13.6","","7.2","","65","","","","10","","22","","64.4","","96.78","","","","","","NA"
"-120.45","50.70","KAMLOOPS A","1163781","2018-10-26 15:00","2018","10","26","15:00","13.3","","7.4","","67","","","","9","","19","","64.4","","96.90","","","","","","NA"
"-120.45","50.70","KAMLOOPS A","1163781","2018-10-26 16:00","2018","10","26","16:00","13.7","","7.3","","65","","","","12","","18","","64.4","","96.91","","","","","","Mainly Clear"
"-120.45","50.70","KAMLOOPS A","1163781","2018-10-26 17:00","2018","10","26","17:00","14.5","","1.7","","42","","","","24","","18","","64.4","","96.96","","","","","","NA"
"-120.45","50.70","KAMLOOPS A","1163781","2018-10-26 18:00","2018","10","26","18:00","14.0","","1.6","","43","","","","26","","13","","64.4","","97.09","","","","","","NA"
"-120.45","50.70","KAMLOOPS A","1163781","2018-10-26 19:00","2018","10","26","19:00","13.1","","1.7","","46","","","","24","","16","","64.4","","97.12","","","","","","Mainly Clear"
"-120.45","50.70","KAMLOOPS A","1163781","2018-10-26 20:00","2018","10","26","20:00","11.2","","1.2","","50","","","","2","","4","","64.4","","97.25","","","","","","NA"
"-120.45","50.70","KAMLOOPS A","1163781","2018-10-26 21:00","2018","10","26","21:00","8.4","","0.5","","58","","","","27","","6","","64.4","","97.31","","","","","","NA"
"-120.45","50.70","KAMLOOPS A","1163781","2018-10-26 22:00","2018","10","26","22:00","8.6","","0.5","","57","","","","24","","13","","64.4","","97.38","","","","","","Mainly Clear"
"-120.45","50.70","KAMLOOPS A","1163781","2018-10-26 23:00","2018","10","26","23:00","7.2","","1.2","","65","","","","10","","9","","64.4","","97.48","","","","","","NA"
"-120.45","50.70","KAMLOOPS A","1163781","2018-10-27 00:00","2018","10","27","00:00","7.2","","1.1","","65","","","","13","","8","","64.4","","97.55","","","","","","NA"
"-120.45","50.70","KAMLOOPS A","1163781","2018-10-27 01:00","2018","10","27","01:00","5.6","","1.2","","73","","","","9","","6","","64.4","","97.62","","","","","","Mainly Clear"
"-120.45","50.70","KAMLOOPS A","1163781","2018-10-27 02:00","2018","10","27","02:00","3.1","","0.8","","85","","","","6","","10","","64.4","","97.72","","","","","","NA"
"-120.45","50.70","KAMLOOPS A","1163781","2018-10-27 03:00","2018","10","27","03:00","1.4","","-0.9","","85","","","","1","","3","","64.4","","97.78","","","","","","NA"
"-120.45","50.70","KAMLOOPS A","1163781","2018-10-27 04:00","2018","10","27","04:00","0.0","","-1.8","","88","","","","8","","8","","64.4","","97.83","","","","-3","","Clear"
"-120.45","50.70","KAMLOOPS A","1163781","2018-10-27 05:00","2018","10","27","05:00","0.6","","-1.3","","87","","","","11","","4","","64.4","","97.91","","","","","","NA"
"-120.45","50.70","KAMLOOPS A","1163781","2018-10-27 06:00","2018","10","27","06:00","-0.1","","-1.2","","92","","","","8","","3","","64.4","","97.99","","","","-1","","NA"
"-120.45","50.70","KAMLOOPS A","1163781","2018-10-27 07:00","2018","10","27","07:00","0.5","","-0.5","","93","","","","9","","9","","64.4","","98.07","","","","","","Clear"
"-120.45","50.70","KAMLOOPS A","1163781","2018-10-27 08:00","2018","10","27","08:00","2.4","","1.1","","91","","","","10","","6","","64.4","","98.16","","","","","","NA"
"-120.45","50.70","KAMLOOPS A","1163781","2018-10-27 09:00","2018","10","27","09:00","4.0","","1.5","","84","","","","10","","6","","64.4","","98.17","","","","","","NA"
"-120.45","50.70","KAMLOOPS A","1163781","2018-10-27 10:00","2018","10","27","10:00","5.7","","2.0","","77","","","","9","","5","","64.4","","98.13","","","","","","Mainly Clear"
"-120.45","50.70","KAMLOOPS A","1163781","2018-10-27 11:00","2018","10","27","11:00","7.1","","2.1","","71","","","","11","","5","","64.4","","98.09","","","","","","NA"
"-120.45","50.70","KAMLOOPS A","1163781","2018-10-27 12:00","2018","10","27","12:00","8.9","","2.2","","62","","","","10","","6","","64.4","","97.98","","","","","","NA"
"-120.45","50.70","KAMLOOPS A","1163781","2018-10-27 13:00","2018","10","27","13:00","10.0","","2.5","","59","","","","9","","15","","64.4","","97.90","","","","","","Mostly Cloudy"
"-120.45","50.70","KAMLOOPS A","1163781","2018-10-27 14:00","2018","10","27","14:00","9.7","","2.8","","62","","","","10","","25","","64.4","","97.80","","","","","","NA"
"-120.45","50.70","KAMLOOPS A","1163781","2018-10-27 15:00","2018","10","27","15:00","8.7","","3.8","","71","","","","10","","26","","64.4","","97.73","","","","","","NA"
"-120.45","50.70","KAMLOOPS A","1163781","2018-10-27 16:00","2018","10","27","16:00","8.9","","4.2","","72","","","","11","","23","","64.4","","97.64","","","","","","Cloudy"
"-120.45","50.70","KAMLOOPS A","1163781","2018-10-27 17:00","2018","10","27","17:00","8.4","","4.1","","74","","","","10","","17","","64.4","","97.57","","","","","","NA"
"-120.45","50.70","KAMLOOPS A","1163781","2018-10-27 18:00","2018","10","27","18:00","8.3","","4.3","","76","","","","12","","18","","64.4","","97.41","","","","","","NA"
"-120.45","50.70","KAMLOOPS A","1163781","2018-10-27 19:00","2018","10","27","19:00","7.8","","4.4","","79","","","","9","","18","","64.4","","97.33","","","","","","Cloudy"
"-120.45","50.70","KAMLOOPS A","1163781","2018-10-27 20:00","2018","10","27","20:00","8.2","","4.0","","75","","","","12","","7","","64.4","","97.29","","","","","","NA"
"-120.45","50.70","KAMLOOPS A","1163781","2018-10-27 21:00","2018","10","27","21:00","8.7","","3.5","","70","","","","12","","13","","64.4","","97.22","","","","","","NA"
"-120.45","50.70","KAMLOOPS A","1163781","2018-10-27 22:00","2018","10","27","22:00","8.8","","4.0","","72","","","","12","","15","","24.1","","97.23","","","","","","Rain Showers"
"-120.45","50.70","KAMLOOPS A","1163781","2018-10-27 23:00","2018","10","27","23:00","7.3","","5.1","","86","","","","15","","8","","19.3","","97.18","","","","","","Rain Showers"
"-120.45","50.70","KAMLOOPS A","1163781","2018-10-28 00:00","2018","10","28","00:00","6.7","","5.4","","91","","","","9","","16","","9.7","","96.95","","","","","","Rain Showers,Fog"
"-120.45","50.70","KAMLOOPS A","1163781","2018-10-28 01:00","2018","10","28","01:00","7.1","","4.8","","85","","","","9","","13","","32.2","","96.90","","","","","","Cloudy"
"-120.45","50.70","KAMLOOPS A","1163781","2018-10-28 02:00","2018","10","28","02:00","7.0","","5.0","","86","","","","10","","17","","48.3","","96.78","","","","","","NA"
"-120.45","50.70","KAMLOOPS A","1163781","2018-10-28 03:00","2018","10","28","03:00","7.6","","4.5","","81","","","","10","","18","","24.1","","96.72","","","","","","Rain Showers"
"-120.45","50.70","KAMLOOPS A","1163781","2018-10-28 04:00","2018","10","28","04:00","7.0","","5.0","","87","","","","11","","11","","24.1","","96.67","","","","","","Rain Showers"
"-120.45","50.70","KAMLOOPS A","1163781","2018-10-28 05:00","2018","10","28","05:00","6.8","","5.0","","88","","","","10","","13","","32.2","","96.65","","","","","","Rain Showers"
"-120.45","50.70","KAMLOOPS A","1163781","2018-10-28 06:00","2018","10","28","06:00","6.8","","5.0","","88","","","","10","","14","","32.2","","96.67","","","","","","NA"
"-120.45","50.70","KAMLOOPS A","1163781","2018-10-28 07:00","2018","10","28","07:00","6.8","","4.8","","87","","","","11","","19","","32.2","","96.64","","","","","","Mostly Cloudy"
"-120.45","50.70","KAMLOOPS A","1163781","2018-10-28 08:00","2018","10","28","08:00","6.9","","4.9","","87","","","","9","","18","","48.3","","96.64","","","","","","NA"
"-120.45","50.70","KAMLOOPS A","1163781","2018-10-28 09:00","2018","10","28","09:00","8.0","","5.3","","83","","","","10","","11","","64.4","","96.68","","","","","","NA"
"-120.45","50.70","KAMLOOPS A","1163781","2018-10-28 10:00","2018","10","28","10:00","8.7","","5.2","","79","","","","13","","11","","64.4","","96.78","","","","","","Mostly Cloudy"
"-120.45","50.70","KAMLOOPS A","1163781","2018-10-28 11:00","2018","10","28","11:00","9.1","","5.5","","78","","","","11","","8","","64.4","","96.79","","","","","","NA"
"-120.45","50.70","KAMLOOPS A","1163781","2018-10-28 12:00","2018","10","28","12:00","10.8","","6.1","","72","","","","10","","11","","64.4","","96.74","","","","","","NA"
"-120.45","50.70","KAMLOOPS A","1163781","2018-10-28 13:00","2018","10","28","13:00","11.6","","5.8","","67","","","","11","","10","","64.4","","96.72","","","","","","Mostly Cloudy"
"-120.45","50.70","KAMLOOPS A","1163781","2018-10-28 14:00","2018","10","28","14:00","12.9","","4.7","","57","","","","7","","8","","64.4","","96.72","","","","","","NA"
"-120.45","50.70","KAMLOOPS A","1163781","2018-10-28 15:00","2018","10","28","15:00","13.6","","5.2","","57","","","","9","","16","","64.4","","96.77","","","","","","NA"
"-120.45","50.70","KAMLOOPS A","1163781","2018-10-28 16:00","2018","10","28","16:00","13.9","","1.1","","41","","","","0","","1","","64.4","","96.81","","","","","","Mostly Cloudy"
"-120.45","50.70","KAMLOOPS A","1163781","2018-10-28 17:00","2018","10","28","17:00","11.9","","2.0","","50","","","","15","","13","","64.4","","96.87","","","","","","NA"
"-120.45","50.70","KAMLOOPS A","1163781","2018-10-28 18:00","2018","10","28","18:00","11.0","","1.4","","51","","","","25","","12","","64.4","","96.90","","","","","","NA"
"-120.45","50.70","KAMLOOPS A","1163781","2018-10-28 19:00","2018","10","28","19:00","7.7","","1.9","","67","","","","8","","9","","64.4","","96.98","","","","","","Mainly Clear"
"-120.45","50.70","KAMLOOPS A","1163781","2018-10-28 20:00","2018","10","28","20:00","7.4","","1.6","","67","","","","3","","3","","64.4","","97.03","","","","","","NA"
"-120.45","50.70","KAMLOOPS A","1163781","2018-10-28 21:00","2018","10","28","21:00","5.5","","1.5","","75","","","","20","","6","","64.4","","97.11","","","","","","NA"
"-120.45","50.70","KAMLOOPS A","1163781","2018-10-28 22:00","2018","10","28","22:00","5.2","","2.0","","80","","","","14","","4","","64.4","","97.14","","","","","","Mainly Clear"
"-120.45","50.70","KAMLOOPS A","1163781","2018-10-28 23:00","2018","10","28","23:00","5.3","","2.8","","84","","","","36","","4","","64.4","","97.19","","","","","","NA"
"-120.45","50.70","KAMLOOPS A","1163781","2018-10-29 00:00","2018","10","29","00:00","5.1","","3.1","","87","","","","10","","11","","64.4","","97.22","","","","","","NA"
"-120.45","50.70","KAMLOOPS A","1163781","2018-10-29 01:00","2018","10","29","01:00","5.4","","2.7","","83","","","","12","","15","","64.4","","97.25","","","","","","Mostly Cloudy"
"-120.45","50.70","KAMLOOPS A","1163781","2018-10-29 02:00","2018","10","29","02:00","4.4","","2.4","","87","","","","1","","5","","64.4","","97.30","","","","","","NA"
"-120.45","50.70","KAMLOOPS A","1163781","2018-10-29 03:00","2018","10","29","03:00","4.4","","2.5","","87","","","","9","","9","","64.4","","97.31","","","","","","NA"
"-120.45","50.70","KAMLOOPS A","1163781","2018-10-29 04:00","2018","10","29","04:00","3.9","","2.1","","89","","","","9","","7","","64.4","","97.35","","","","","","Mostly Cloudy"
"-120.45","50.70","KAMLOOPS A","1163781","2018-10-29 05:00","2018","10","29","05:00","4.3","","2.7","","89","","","","36","","1","","64.4","","97.40","","","","","","NA"
"-120.45","50.70","KAMLOOPS A","1163781","2018-10-29 06:00","2018","10","29","06:00","4.1","","2.5","","89","","","","36","","2","","32.2","","97.45","","","","","","Rain Showers"
"-120.45","50.70","KAMLOOPS A","1163781","2018-10-29 07:00","2018","10","29","07:00","3.8","","2.5","","91","","","","6","","3","","64.4","","97.50","","","","","","Mostly Cloudy"
"-120.45","50.70","KAMLOOPS A","1163781","2018-10-29 08:00","2018","10","29","08:00","3.6","","2.4","","92","","","","18","","3","","64.4","","97.56","","","","","","NA"
"-120.45","50.70","KAMLOOPS A","1163781","2018-10-29 09:00","2018","10","29","09:00","5.5","","3.1","","84","","","","2","","3","","64.4","","97.62","","","","","","NA"
"-120.45","50.70","KAMLOOPS A","1163781","2018-10-29 10:00","2018","10","29","10:00","7.3","","3.1","","75","","","","13","","6","","64.4","","97.65","","","","","","Mostly Cloudy"
"-120.45","50.70","KAMLOOPS A","1163781","2018-10-29 11:00","2018","10","29","11:00","8.8","","3.7","","70","","","","9","","10","","64.4","","97.64","","","","","","NA"
"-120.45","50.70","KAMLOOPS A","1163781","2018-10-29 12:00","2018","10","29","12:00","10.1","","3.5","","64","","","","13","","4","","64.4","","97.64","","","","","","NA"
"-120.45","50.70","KAMLOOPS A","1163781","2018-10-29 13:00","2018","10","29","13:00","10.0","","4.4","","68","","","","27","","13","","64.4","","97.64","","","","","","Mostly Cloudy"
"-120.45","50.70","KAMLOOPS A","1163781","2018-10-29 14:00","2018","10","29","14:00","10.9","","3.8","","62","","","","28","","9","","64.4","","97.66","","","","","","NA"
"-120.45","50.70","KAMLOOPS A","1163781","2018-10-29 15:00","2018","10","29","15:00","9.8","","4.7","","71","","","","26","","14","","64.4","","97.67","","","","","","NA"
"-120.45","50.70","KAMLOOPS A","1163781","2018-10-29 16:00","2018","10","29","16:00","10.0","","3.1","","62","","","","31","","5","","64.4","","97.69","","","","","","Mainly Clear"
"-120.45","50.70","KAMLOOPS A","1163781","2018-10-29 17:00","2018","10","29","17:00","7.4","","3.8","","78","","","","36","","1","","64.4","","97.74","","","","","","NA"
"-120.45","50.70","KAMLOOPS A","1163781","2018-10-29 18:00","2018","10","29","18:00","6.1","","2.5","","78","","","","30","","4","","64.4","","97.79","","","","","","NA"
"-120.45","50.70","KAMLOOPS A","1163781","2018-10-29 19:00","2018","10","29","19:00","5.1","","2.4","","82","","","","36","","1","","64.4","","97.84","","","","","","Mainly Clear"
"-120.45","50.70","KAMLOOPS A","1163781","2018-10-29 20:00","2018","10","29","20:00","4.0","","1.6","","85","","","","30","","6","","64.4","","97.89","","","","","","NA"
"-120.45","50.70","KAMLOOPS A","1163781","2018-10-29 21:00","2018","10","29","21:00","3.3","","1.5","","88","","","","26","","3","","64.4","","97.94","","","","","","NA"
"-120.45","50.70","KAMLOOPS A","1163781","2018-10-29 22:00","2018","10","29","22:00","3.2","","0.6","","83","","","","29","","7","","64.4","","97.98","","","","","","Mainly Clear"
"-120.45","50.70","KAMLOOPS A","1163781","2018-10-29 23:00","2018","10","29","23:00","3.6","","1.0","","83","","","","36","","2","","64.4","","98.00","","","","","","NA"
"-120.45","50.70","KAMLOOPS A","1163781","2018-10-30 00:00","2018","10","30","00:00","4.3","","1.2","","80","","","","25","","7","","64.4","","98.05","","","","","","NA"
"-120.45","50.70","KAMLOOPS A","1163781","2018-10-30 01:00","2018","10","30","01:00","3.2","","1.2","","87","","","","28","","7","","64.4","","98.12","","","","","","Mostly Cloudy"
"-120.45","50.70","KAMLOOPS A","1163781","2018-10-30 02:00","2018","10","30","02:00","3.9","","1.1","","82","","","","21","","5","","64.4","","98.16","","","","","","NA"
"-120.45","50.70","KAMLOOPS A","1163781","2018-10-30 03:00","2018","10","30","03:00","2.7","","1.2","","90","","","","36","","2","","64.4","","98.18","","","","","","NA"
"-120.45","50.70","KAMLOOPS A","1163781","2018-10-30 04:00","2018","10","30","04:00","-0.6","","-2.0","","90","","","","26","","7","","64.4","","98.20","","","","-3","","Mainly Clear"
"-120.45","50.70","KAMLOOPS A","1163781","2018-10-30 05:00","2018","10","30","05:00","0.4","","-0.8","","92","","","","36","","1","","64.4","","98.23","","","","","","NA"
"-120.45","50.70","KAMLOOPS A","1163781","2018-10-30 06:00","2018","10","30","06:00","0.9","","-0.1","","93","","","","36","","3","","64.4","","98.28","","","","","","NA"
"-120.45","50.70","KAMLOOPS A","1163781","2018-10-30 07:00","2018","10","30","07:00","-1.3","","-2.5","","91","","","","5","","5","","64.4","","98.33","","","","-3","","Mainly Clear"
"-120.45","50.70","KAMLOOPS A","1163781","2018-10-30 08:00","2018","10","30","08:00","-0.2","","-1.2","","93","","","","36","","3","","64.4","","98.38","","","","-1","","NA"
"-120.45","50.70","KAMLOOPS A","1163781","2018-10-30 09:00","2018","10","30","09:00","3.7","","1.4","","85","","","","9","","4","","64.4","","98.38","","","","","","NA"
"-120.45","50.70","KAMLOOPS A","1163781","2018-10-30 10:00","2018","10","30","10:00","4.6","","1.7","","81","","","","36","","1","","64.4","","98.36","","","","","","Mainly Clear"
"-120.45","50.70","KAMLOOPS A","1163781","2018-10-30 11:00","2018","10","30","11:00","7.0","","2.0","","70","","","","25","","7","","64.4","","98.31","","","","","","NA"
"-120.45","50.70","KAMLOOPS A","1163781","2018-10-30 12:00","2018","10","30","12:00","8.1","","2.4","","67","","","","20","","4","","64.4","","98.20","","","","","","NA"
"-120.45","50.70","KAMLOOPS A","1163781","2018-10-30 13:00","2018","10","30","13:00","8.4","","1.8","","63","","","","28","","5","","64.4","","98.15","","","","","","Mostly Cloudy"
"-120.45","50.70","KAMLOOPS A","1163781","2018-10-30 14:00","2018","10","30","14:00","8.9","","1.7","","61","","","","36","","2","","64.4","","98.07","","","","","","NA"
"-120.45","50.70","KAMLOOPS A","1163781","2018-10-30 15:00","2018","10","30","15:00","8.9","","2.5","","64","","","","25","","5","","64.4","","98.05","","","","","","NA"
"-120.45","50.70","KAMLOOPS A","1163781","2018-10-30 16:00","2018","10","30","16:00","8.0","","2.3","","67","","","","21","","3","","64.4","","98.00","","","","","","Cloudy"
"-120.45","50.70","KAMLOOPS A","1163781","2018-10-30 17:00","2018","10","30","17:00","7.3","","2.8","","73","","","","9","","4","","64.4","","97.91","","","","","","NA"
"-120.45","50.70","KAMLOOPS A","1163781","2018-10-30 18:00","2018","10","30","18:00","7.7","","2.4","","69","","","","36","","1","","64.4","","97.84","","","","","","NA"
"-120.45","50.70","KAMLOOPS A","1163781","2018-10-30 19:00","2018","10","30","19:00","8.6","","2.0","","63","","","","36","","3","","64.4","","97.79","","","","","","Cloudy"
"-120.45","50.70","KAMLOOPS A","1163781","2018-10-30 20:00","2018","10","30","20:00","8.7","","1.5","","60","","","","7","","14","","64.4","","97.75","","","","","","NA"
"-120.45","50.70","KAMLOOPS A","1163781","2018-10-30 21:00","2018","10","30","21:00","9.0","","1.5","","59","","","","19","","4","","64.4","","97.72","","","","","","NA"
"-120.45","50.70","KAMLOOPS A","1163781","2018-10-30 22:00","2018","10","30","22:00","8.0","","3.0","","70","","","","24","","10","","48.3","","97.73","","","","","","Rain"
"-120.45","50.70","KAMLOOPS A","1163781","2018-10-30 23:00","2018","10","30","23:00","6.5","","5.0","","91","","","","7","","13","","24.1","","97.70","","","","","","Rain"
"-120.45","50.70","KAMLOOPS A","1163781","2018-10-31 00:00","2018","10","31","00:00","5.7","","3.4","","85","","","","7","","25","","24.1","","97.65","","","","","","Rain"
"-120.45","50.70","KAMLOOPS A","1163781","2018-10-31 01:00","2018","10","31","01:00","6.1","","3.4","","83","","","","10","","27","","48.3","","97.57","","","","","","Rain"
"-120.45","50.70","KAMLOOPS A","1163781","2018-10-31 02:00","2018","10","31","02:00","5.6","","3.8","","88","","","","9","","22","","48.3","","97.47","","","","","","Rain"
"-120.45","50.70","KAMLOOPS A","1163781","2018-10-31 03:00","2018","10","31","03:00","6.2","","4.1","","86","","","","10","","18","","48.3","","97.36","","","","","","Rain"
"-120.45","50.70","KAMLOOPS A","1163781","2018-10-31 04:00","2018","10","31","04:00","6.0","","4.2","","88","","","","9","","19","","40.2","","97.26","","","","","","Rain"
"-120.45","50.70","KAMLOOPS A","1163781","2018-10-31 05:00","2018","10","31","05:00","6.1","","3.8","","85","","","","8","","20","","32.2","","97.16","","","","","","Rain"
"-120.45","50.70","KAMLOOPS A","1163781","2018-10-31 06:00","2018","10","31","06:00","5.9","","4.0","","88","","","","9","","13","","32.2","","97.13","","","","","","Rain"
"-120.45","50.70","KAMLOOPS A","1163781","2018-10-31 07:00","2018","10","31","07:00","6.5","","4.0","","84","","","","14","","12","","40.2","","97.16","","","","","","Rain Showers"
"-120.45","50.70","KAMLOOPS A","1163781","2018-10-31 08:00","2018","10","31","08:00","5.8","","3.9","","88","","","","12","","12","","48.3","","97.17","","","","","","NA"
"-120.45","50.70","KAMLOOPS A","1163781","2018-10-31 09:00","2018","10","31","09:00","5.8","","4.3","","90","","","","10","","11","","48.3","","97.21","","","","","","NA"
"-120.45","50.70","KAMLOOPS A","1163781","2018-10-31 10:00","2018","10","31","10:00","6.2","","3.8","","85","","","","13","","13","","48.3","","97.23","","","","","","Mostly Cloudy"
"-120.45","50.70","KAMLOOPS A","1163781","2018-10-31 11:00","2018","10","31","11:00","6.8","","4.5","","85","","","","10","","12","","48.3","","97.29","","","","","","NA"
"-120.45","50.70","KAMLOOPS A","1163781","2018-10-31 12:00","2018","10","31","12:00","7.9","","4.3","","78","","","","9","","10","","64.4","","97.28","","","","","","NA"
"-120.45","50.70","KAMLOOPS A","1163781","2018-10-31 13:00","2018","10","31","13:00","8.4","","4.5","","76","","","","10","","9","","48.3","","97.25","","","","","","Mostly Cloudy"
"-120.45","50.70","KAMLOOPS A","1163781","2018-10-31 14:00","2018","10","31","14:00","8.6","","4.3","","74","","","","23","","7","","48.3","","97.23","","","","","","NA"
"-120.45","50.70","KAMLOOPS A","1163781","2018-10-31 15:00","2018","10","31","15:00","9.5","","4.7","","72","","","","36","","2","","64.4","","97.21","","","","","","NA"
"-120.45","50.70","KAMLOOPS A","1163781","2018-10-31 16:00","2018","10","31","16:00","8.6","","4.7","","76","","","","12","","10","","64.4","","97.24","","","","","","Mostly Cloudy"
"-120.45","50.70","KAMLOOPS A","1163781","2018-10-31 17:00","2018","10","31","17:00","7.8","","4.5","","80","","","","11","","13","","48.3","","97.27","","","","","","NA"
"-120.45","50.70","KAMLOOPS A","1163781","2018-10-31 18:00","2018","10","31","18:00","7.3","","4.2","","80","","","","13","","9","","48.3","","97.35","","","","","","NA"
"-120.45","50.70","KAMLOOPS A","1163781","2018-10-31 19:00","2018","10","31","19:00","7.5","","4.1","","79","","","","12","","12","","48.3","","97.41","","","","","","Cloudy"
"-120.45","50.70","KAMLOOPS A","1163781","2018-10-31 20:00","2018","10","31","20:00","7.1","","4.2","","82","","","","7","","12","","48.3","","97.47","","","","","","NA"
"-120.45","50.70","KAMLOOPS A","1163781","2018-10-31 21:00","2018","10","31","21:00","7.2","","4.7","","84","","","","3","","4","","48.3","","97.51","","","","","","NA"
"-120.45","50.70","KAMLOOPS A","1163781","2018-10-31 22:00","2018","10","31","22:00","7.1","","4.7","","85","","","","20","","7","","48.3","","97.53","","","","","","Cloudy"
"-120.45","50.70","KAMLOOPS A","1163781","2018-10-31 23:00","2018","10","31","23:00","7.0","","4.6","","85","","","","36","","2","","48.3","","97.59","","","","","","NA"
