"Longitude (x)","Latitude (y)","Station Name","Climate ID","Date/Time (LST)","Year","Month","Day","Time (LST)","Temp (°C)","Temp Flag","Dew Point Temp (°C)","Dew Point Temp Flag","Rel Hum (%)","Rel Hum Flag","Precip. Amount (mm)","Precip. Amount Flag","Wind Dir (10s deg)","Wind Dir Flag","Wind Spd (km/h)","Wind Spd Flag","Visibility (km)","Visibility Flag","Stn Press (kPa)","Stn Press Flag","Hmdx","Hmdx Flag","Wind Chill","Wind Chill Flag","Weather"
"-107.82","69.04","CAPE PEEL WEST","2400697","2020-03-01 00:00","2020","03","01","00:00","-32.7","","-37.2","","64","","","","28","","13","","","M","99.66","","","","-44","","NA"
"-107.82","69.04","CAPE PEEL WEST","2400697","2020-03-01 01:00","2020","03","01","01:00","-33.1","","-37.6","","63","","","","26","","11","","","M","99.61","","","","-43","","NA"
"-107.82","69.04","CAPE PEEL WEST","2400697","2020-03-01 02:00","2020","03","01","02:00","-33.6","","-38.2","","63","","","","27","","13","","","M","99.53","","","","-45","","NA"
"-107.82","69.04","CAPE PEEL WEST","2400697","2020-03-01 03:00","2020","03","01","03:00","-33.8","","-38.4","","63","","","","27","","15","","","M","99.46","","","","-46","","NA"
"-107.82","69.04","CAPE PEEL WEST","2400697","2020-03-01 04:00","2020","03","01","04:00","-33.0","","-37.5","","63","","","","27","","9","","","M","99.39","","","","-42","","NA"
"-107.82","69.04","CAPE PEEL WEST","2400697","2020-03-01 05:00","2020","03","01","05:00","-31.7","","-36.1","","65","","","","27","","4","","","M","99.32","","","","-36","","NA"
"-107.82","69.04","CAPE PEEL WEST","2400697","2020-03-01 06:00","2020","03","01","06:00","-31.8","","-36.2","","65","","","","25","","5","","","M","99.27","","","","-38","","NA"
"-107.82","69.04","CAPE PEEL WEST","2400697","2020-03-01 07:00","2020","03","01","07:00","-32.3","","-36.7","","64","","","","26","","4","","","M","99.17","","","","-37","","NA"
"-107.82","69.04","CAPE PEEL WEST","2400697","2020-03-01 08:00","2020","03","01","08:00","-32.9","","-37.4","","64","","","","24","","4","","","M","99.09","","","","-38","","NA"
"-107.82","69.04","CAPE PEEL WEST","2400697","2020-03-01 09:00","2020","03","01","09:00","-32.5","","-37.0","","64","","","","23","","8","","","M","99.02","","","","-41","","NA"
"-107.82","69.04","CAPE PEEL WEST","2400697","2020-03-01 10:00","2020","03","01","10:00","-33.1","","-37.6","","64","","","","25","","5","","","M","98.94","","","","-39","","NA"
"-107.82","69.04","CAPE PEEL WEST","2400697","2020-03-01 11:00","2020","03","01","11:00","-31.0","","-35.2","","66","","","","22","","5","","","M","98.85","","","","-37","","NA"
"-107.82","69.04","CAPE PEEL WEST","2400697","2020-03-01 12:00","2020","03","01","12:00","-32.1","","-36.5","","65","","","","22","","5","","","M","98.76","","","","-38","","NA"
"-107.82","69.04","CAPE PEEL WEST","2400697","2020-03-01 13:00","2020","03","01","13:00","-31.3","","-35.6","","66","","","","22","","4","","","M","98.66","","","","-36","","NA"
"-107.82","69.04","CAPE PEEL WEST","2400697","2020-03-01 14:00","2020","03","01","14:00","-31.1","","-35.3","","66","","","","20","","4","","","M","98.60","","","","-36","","NA"
"-107.82","69.04","CAPE PEEL WEST","2400697","2020-03-01 15:00","2020","03","01","15:00","-31.9","","-36.3","","65","","","","22","","4","","","M","98.56","","","","-37","","NA"
"-107.82","69.04","CAPE PEEL WEST","2400697","2020-03-01 16:00","2020","03","01","16:00","-32.8","","-37.3","","64","","","","17","","2","","","M","98.48","","","","-35","","NA"
"-107.82","69.04","CAPE PEEL WEST","2400697","2020-03-01 17:00","2020","03","01","17:00","-33.4","","-38.0","","63","","","","8","","5","","","M","98.40","","","","-39","","NA"
"-107.82","69.04","CAPE PEEL WEST","2400697","2020-03-01 18:00","2020","03","01","18:00","-33.8","","-38.4","","63","","","","7","","8","","","M","98.34","","","","-42","","NA"
"-107.82","69.04","CAPE PEEL WEST","2400697","2020-03-01 19:00","2020","03","01","19:00","-34.8","","-39.6","","61","","","","8","","9","","","M","98.26","","","","-44","","NA"
"-107.82","69.04","CAPE PEEL WEST","2400697","2020-03-01 20:00","2020","03","01","20:00","-35.0","","-39.8","","61","","","","9","","9","","","M","98.18","","","","-45","","NA"
"-107.82","69.04","CAPE PEEL WEST","2400697","2020-03-01 21:00","2020","03","01","21:00","-34.8","","-39.5","","62","","","","8","","11","","","M","98.16","","","","-45","","NA"
"-107.82","69.04","CAPE PEEL WEST","2400697","2020-03-01 22:00","2020","03","01","22:00","-35.5","","-40.4","","61","","","","8","","9","","","M","98.11","","","","-45","","NA"
"-107.82","69.04","CAPE PEEL WEST","2400697","2020-03-01 23:00","2020","03","01","23:00","-36.0","","-40.9","","60","","","","8","","15","","","M","98.08","","","","-49","","NA"
"-107.82","69.04","CAPE PEEL WEST","2400697","2020-03-02 00:00","2020","03","02","00:00","-36.0","","-40.9","","60","","","","7","","17","","","M","98.04","","","","-50","","NA"
"-107.82","69.04","CAPE PEEL WEST","2400697","2020-03-02 01:00","2020","03","02","01:00","-36.0","","-40.9","","60","","","","7","","18","","","M","98.00","","","","-50","","NA"
"-107.82","69.04","CAPE PEEL WEST","2400697","2020-03-02 02:00","2020","03","02","02:00","-35.7","","-40.6","","60","","","","7","","18","","","M","97.98","","","","-50","","NA"
"-107.82","69.04","CAPE PEEL WEST","2400697","2020-03-02 03:00","2020","03","02","03:00","-35.6","","-40.4","","60","","","","7","","13","","","M","97.95","","","","-47","","NA"
"-107.82","69.04","CAPE PEEL WEST","2400697","2020-03-02 04:00","2020","03","02","04:00","-35.0","","-39.8","","61","","","","8","","17","","","M","97.94","","","","-48","","NA"
"-107.82","69.04","CAPE PEEL WEST","2400697","2020-03-02 05:00","2020","03","02","05:00","-34.7","","-39.4","","62","","","","7","","13","","","M","97.95","","","","-46","","NA"
"-107.82","69.04","CAPE PEEL WEST","2400697","2020-03-02 06:00","2020","03","02","06:00","-35.6","","-40.5","","61","","","","7","","18","","","M","97.95","","","","-49","","NA"
"-107.82","69.04","CAPE PEEL WEST","2400697","2020-03-02 07:00","2020","03","02","07:00","-35.0","","-39.8","","61","","","","6","","13","","","M","97.97","","","","-47","","NA"
"-107.82","69.04","CAPE PEEL WEST","2400697","2020-03-02 08:00","2020","03","02","08:00","-33.7","","-38.4","","62","","","","8","","13","","","M","97.95","","","","-45","","NA"
"-107.82","69.04","CAPE PEEL WEST","2400697","2020-03-02 09:00","2020","03","02","09:00","-32.8","","-37.3","","64","","","","7","","13","","","M","97.95","","","","-44","","NA"
"-107.82","69.04","CAPE PEEL WEST","2400697","2020-03-02 10:00","2020","03","02","10:00","-32.7","","-37.2","","64","","","","9","","17","","","M","97.94","","","","-45","","NA"
"-107.82","69.04","CAPE PEEL WEST","2400697","2020-03-02 11:00","2020","03","02","11:00","-32.5","","-37.0","","64","","","","6","","9","","","M","97.95","","","","-42","","NA"
"-107.82","69.04","CAPE PEEL WEST","2400697","2020-03-02 12:00","2020","03","02","12:00","-31.9","","-36.3","","65","","","","7","","13","","","M","97.97","","","","-43","","NA"
"-107.82","69.04","CAPE PEEL WEST","2400697","2020-03-02 13:00","2020","03","02","13:00","-31.0","","-35.3","","66","","","","8","","8","","","M","98.01","","","","-39","","NA"
"-107.82","69.04","CAPE PEEL WEST","2400697","2020-03-02 14:00","2020","03","02","14:00","-30.0","","-34.1","","67","","","","4","","8","","","M","98.02","","","","-38","","NA"
"-107.82","69.04","CAPE PEEL WEST","2400697","2020-03-02 15:00","2020","03","02","15:00","-30.0","","-34.1","","67","","","","1","","5","","","M","98.06","","","","-36","","NA"
"-107.82","69.04","CAPE PEEL WEST","2400697","2020-03-02 16:00","2020","03","02","16:00","-31.6","","-35.9","","65","","","","36","","15","","","M","98.07","","","","-43","","NA"
"-107.82","69.04","CAPE PEEL WEST","2400697","2020-03-02 17:00","2020","03","02","17:00","-33.3","","-37.8","","63","","","","36","","21","","","M","98.12","","","","-48","","NA"
"-107.82","69.04","CAPE PEEL WEST","2400697","2020-03-02 18:00","2020","03","02","18:00","-34.6","","-39.3","","62","","","","36","","15","","","M","98.18","","","","-47","","NA"
"-107.82","69.04","CAPE PEEL WEST","2400697","2020-03-02 19:00","2020","03","02","19:00","-35.5","","-40.3","","61","","","","36","","22","","","M","98.19","","","","-51","","NA"
"-107.82","69.04","CAPE PEEL WEST","2400697","2020-03-02 20:00","2020","03","02","20:00","-36.1","","-41.0","","60","","","","35","","24","","","M","98.20","","","","-52","","NA"
"-107.82","69.04","CAPE PEEL WEST","2400697","2020-03-02 21:00","2020","03","02","21:00","-36.5","","-41.5","","60","","","","35","","24","","","M","98.24","","","","-53","","NA"
"-107.82","69.04","CAPE PEEL WEST","2400697","2020-03-02 22:00","2020","03","02","22:00","-37.2","","-42.3","","59","","","","35","","28","","","M","98.24","","","","-55","","NA"
"-107.82","69.04","CAPE PEEL WEST","2400697","2020-03-02 23:00","2020","03","02","23:00","-38.0","","-43.1","","58","","","","35","","28","","","M","98.29","","","","-56","","NA"
"-107.82","69.04","CAPE PEEL WEST","2400697","2020-03-03 00:00","2020","03","03","00:00","-37.8","","-42.9","","58","","","","35","","28","","","M","98.35","","","","-55","","NA"
"-107.82","69.04","CAPE PEEL WEST","2400697","2020-03-03 01:00","2020","03","03","01:00","-38.0","","-43.1","","58","","","","35","","28","","","M","98.40","","","","-56","","NA"
"-107.82","69.04","CAPE PEEL WEST","2400697","2020-03-03 02:00","2020","03","03","02:00","-39.0","","-44.3","","57","","","","36","","26","","","M","98.44","","","","-56","","NA"
"-107.82","69.04","CAPE PEEL WEST","2400697","2020-03-03 03:00","2020","03","03","03:00","-39.6","","-44.9","","56","","","","35","","34","","","M","98.51","","","","-59","","NA"
"-107.82","69.04","CAPE PEEL WEST","2400697","2020-03-03 04:00","2020","03","03","04:00","-39.2","","-44.5","","56","","","","36","","26","","","M","98.57","","","","-57","","NA"
"-107.82","69.04","CAPE PEEL WEST","2400697","2020-03-03 05:00","2020","03","03","05:00","-40.1","","-45.6","","55","","","","35","","34","","","M","98.62","","","","-60","","NA"
"-107.82","69.04","CAPE PEEL WEST","2400697","2020-03-03 06:00","2020","03","03","06:00","-40.4","","-45.9","","55","","","","36","","31","","","M","98.67","","","","-59","","NA"
"-107.82","69.04","CAPE PEEL WEST","2400697","2020-03-03 07:00","2020","03","03","07:00","-40.5","","-46.0","","55","","","","35","","35","","","M","98.74","","","","-60","","NA"
"-107.82","69.04","CAPE PEEL WEST","2400697","2020-03-03 08:00","2020","03","03","08:00","-41.2","","","M","54","","","","36","","28","","","M","98.81","","","","-60","","NA"
"-107.82","69.04","CAPE PEEL WEST","2400697","2020-03-03 09:00","2020","03","03","09:00","-40.8","","-46.4","","54","","","","1","","21","","","M","98.87","","","","-57","","NA"
"-107.82","69.04","CAPE PEEL WEST","2400697","2020-03-03 10:00","2020","03","03","10:00","-40.3","","-45.8","","55","","","","36","","24","","","M","98.86","","","","-57","","NA"
"-107.82","69.04","CAPE PEEL WEST","2400697","2020-03-03 11:00","2020","03","03","11:00","-39.6","","-45.0","","56","","","","1","","22","","","M","98.93","","","","-56","","NA"
"-107.82","69.04","CAPE PEEL WEST","2400697","2020-03-03 12:00","2020","03","03","12:00","-38.8","","-44.2","","57","","","","3","","18","","","M","99.01","","","","-53","","NA"
"-107.82","69.04","CAPE PEEL WEST","2400697","2020-03-03 13:00","2020","03","03","13:00","-38.2","","-43.4","","57","","","","2","","17","","","M","99.10","","","","-52","","NA"
"-107.82","69.04","CAPE PEEL WEST","2400697","2020-03-03 14:00","2020","03","03","14:00","-38.2","","-43.4","","58","","","","2","","18","","","M","99.12","","","","-53","","NA"
"-107.82","69.04","CAPE PEEL WEST","2400697","2020-03-03 15:00","2020","03","03","15:00","-39.0","","-44.3","","57","","","","1","","17","","","M","99.15","","","","-53","","NA"
"-107.82","69.04","CAPE PEEL WEST","2400697","2020-03-03 16:00","2020","03","03","16:00","-39.3","","-44.7","","56","","","","1","","15","","","M","99.18","","","","-53","","NA"
"-107.82","69.04","CAPE PEEL WEST","2400697","2020-03-03 17:00","2020","03","03","17:00","-39.5","","-44.9","","56","","","","4","","22","","","M","99.18","","","","-56","","NA"
"-107.82","69.04","CAPE PEEL WEST","2400697","2020-03-03 18:00","2020","03","03","18:00","-40.5","","-46.0","","55","","","","4","","21","","","M","99.23","","","","-57","","NA"
"-107.82","69.04","CAPE PEEL WEST","2400697","2020-03-03 19:00","2020","03","03","19:00","-39.8","","-45.2","","56","","","","5","","22","","","M","99.23","","","","-56","","NA"
"-107.82","69.04","CAPE PEEL WEST","2400697","2020-03-03 20:00","2020","03","03","20:00","-38.9","","-44.3","","56","","","","6","","24","","","M","99.25","","","","-56","","NA"
"-107.82","69.04","CAPE PEEL WEST","2400697","2020-03-03 21:00","2020","03","03","21:00","-39.2","","-44.5","","56","","","","7","","22","","","M","99.27","","","","-55","","NA"
"-107.82","69.04","CAPE PEEL WEST","2400697","2020-03-03 22:00","2020","03","03","22:00","-40.2","","-45.7","","55","","","","6","","28","","","M","99.22","","","","-58","","NA"
"-107.82","69.04","CAPE PEEL WEST","2400697","2020-03-03 23:00","2020","03","03","23:00","-40.5","","-46.0","","55","","","","6","","24","","","M","99.28","","","","-58","","NA"
"-107.82","69.04","CAPE PEEL WEST","2400697","2020-03-04 00:00","2020","03","04","00:00","-40.6","","-46.2","","55","","","","6","","26","","","M","99.28","","","","-58","","NA"
"-107.82","69.04","CAPE PEEL WEST","2400697","2020-03-04 01:00","2020","03","04","01:00","-40.4","","-45.9","","55","","","","6","","26","","","M","99.26","","","","-58","","NA"
"-107.82","69.04","CAPE PEEL WEST","2400697","2020-03-04 02:00","2020","03","04","02:00","-40.4","","-45.9","","55","","","","7","","26","","","M","99.28","","","","-58","","NA"
"-107.82","69.04","CAPE PEEL WEST","2400697","2020-03-04 03:00","2020","03","04","03:00","-39.9","","-45.4","","55","","","","7","","26","","","M","99.29","","","","-57","","NA"
"-107.82","69.04","CAPE PEEL WEST","2400697","2020-03-04 04:00","2020","03","04","04:00","-40.2","","-45.7","","55","","","","7","","28","","","M","99.29","","","","-58","","NA"
"-107.82","69.04","CAPE PEEL WEST","2400697","2020-03-04 05:00","2020","03","04","05:00","-40.1","","-45.6","","55","","","","6","","30","","","M","99.27","","","","-59","","NA"
"-107.82","69.04","CAPE PEEL WEST","2400697","2020-03-04 06:00","2020","03","04","06:00","-39.6","","-45.1","","56","","","","7","","30","","","M","99.28","","","","-58","","NA"
"-107.82","69.04","CAPE PEEL WEST","2400697","2020-03-04 07:00","2020","03","04","07:00","-39.5","","-44.9","","56","","","","7","","30","","","M","99.31","","","","-58","","NA"
"-107.82","69.04","CAPE PEEL WEST","2400697","2020-03-04 08:00","2020","03","04","08:00","-39.1","","-44.5","","56","","","","7","","34","","","M","99.30","","","","-58","","NA"
"-107.82","69.04","CAPE PEEL WEST","2400697","2020-03-04 09:00","2020","03","04","09:00","-38.4","","-43.7","","57","","","","7","","31","","","M","99.33","","","","-57","","NA"
"-107.82","69.04","CAPE PEEL WEST","2400697","2020-03-04 10:00","2020","03","04","10:00","-38.2","","-43.5","","57","","","","7","","31","","","M","99.34","","","","-57","","NA"
"-107.82","69.04","CAPE PEEL WEST","2400697","2020-03-04 11:00","2020","03","04","11:00","-37.8","","-43.0","","58","","","","7","","34","","","M","99.34","","","","-57","","NA"
"-107.82","69.04","CAPE PEEL WEST","2400697","2020-03-04 12:00","2020","03","04","12:00","-37.0","","-42.2","","58","","","","6","","34","","","M","99.34","","","","-56","","NA"
"-107.82","69.04","CAPE PEEL WEST","2400697","2020-03-04 13:00","2020","03","04","13:00","-36.6","","-41.7","","59","","","","7","","35","","","M","99.37","","","","-55","","NA"
"-107.82","69.04","CAPE PEEL WEST","2400697","2020-03-04 14:00","2020","03","04","14:00","-36.4","","-41.4","","59","","","","7","","39","","","M","99.36","","","","-56","","NA"
"-107.82","69.04","CAPE PEEL WEST","2400697","2020-03-04 15:00","2020","03","04","15:00","-36.1","","-41.0","","60","","","","7","","34","","","M","99.38","","","","-54","","NA"
"-107.82","69.04","CAPE PEEL WEST","2400697","2020-03-04 16:00","2020","03","04","16:00","-35.9","","-40.9","","60","","","","8","","35","","","M","99.44","","","","-54","","NA"
"-107.82","69.04","CAPE PEEL WEST","2400697","2020-03-04 17:00","2020","03","04","17:00","-35.6","","-40.5","","60","","","","7","","34","","","M","99.46","","","","-54","","NA"
"-107.82","69.04","CAPE PEEL WEST","2400697","2020-03-04 18:00","2020","03","04","18:00","-35.5","","-40.5","","60","","","","7","","30","","","M","99.48","","","","-53","","NA"
"-107.82","69.04","CAPE PEEL WEST","2400697","2020-03-04 19:00","2020","03","04","19:00","-35.5","","-40.4","","60","","","","7","","28","","","M","99.52","","","","-52","","NA"
"-107.82","69.04","CAPE PEEL WEST","2400697","2020-03-04 20:00","2020","03","04","20:00","-36.0","","-40.9","","60","","","","6","","26","","","M","99.53","","","","-52","","NA"
"-107.82","69.04","CAPE PEEL WEST","2400697","2020-03-04 21:00","2020","03","04","21:00","-35.9","","-40.9","","60","","","","6","","24","","","M","99.57","","","","-52","","NA"
"-107.82","69.04","CAPE PEEL WEST","2400697","2020-03-04 22:00","2020","03","04","22:00","-36.0","","-41.0","","60","","","","4","","21","","","M","99.57","","","","-51","","NA"
"-107.82","69.04","CAPE PEEL WEST","2400697","2020-03-04 23:00","2020","03","04","23:00","-36.2","","-41.2","","60","","","","5","","17","","","M","99.57","","","","-50","","NA"
"-107.82","69.04","CAPE PEEL WEST","2400697","2020-03-05 00:00","2020","03","05","00:00","-36.0","","-40.9","","60","","","","3","","13","","","M","99.61","","","","-48","","NA"
"-107.82","69.04","CAPE PEEL WEST","2400697","2020-03-05 01:00","2020","03","05","01:00","-36.6","","-41.6","","59","","","","2","","15","","","M","99.64","","","","-50","","NA"
"-107.82","69.04","CAPE PEEL WEST","2400697","2020-03-05 02:00","2020","03","05","02:00","-37.7","","-42.9","","58","","","","1","","17","","","M","99.69","","","","-52","","NA"
"-107.82","69.04","CAPE PEEL WEST","2400697","2020-03-05 03:00","2020","03","05","03:00","-36.7","","-41.8","","59","","","","35","","5","","","M","99.78","","","","-43","","NA"
"-107.82","69.04","CAPE PEEL WEST","2400697","2020-03-05 04:00","2020","03","05","04:00","-37.4","","-42.5","","58","","","","26","","8","","","M","99.80","","","","-47","","NA"
"-107.82","69.04","CAPE PEEL WEST","2400697","2020-03-05 05:00","2020","03","05","05:00","-36.9","","-42.0","","59","","","","28","","15","","","M","99.81","","","","-50","","NA"
"-107.82","69.04","CAPE PEEL WEST","2400697","2020-03-05 06:00","2020","03","05","06:00","-36.5","","-41.6","","59","","","","30","","2","","","M","99.83","","","","-39","","NA"
"-107.82","69.04","CAPE PEEL WEST","2400697","2020-03-05 07:00","2020","03","05","07:00","-38.1","","-43.3","","58","","","","32","","24","","","M","99.82","","","","-55","","NA"
"-107.82","69.04","CAPE PEEL WEST","2400697","2020-03-05 08:00","2020","03","05","08:00","-37.9","","-43.1","","58","","","","33","","22","","","M","99.83","","","","-54","","NA"
"-107.82","69.04","CAPE PEEL WEST","2400697","2020-03-05 09:00","2020","03","05","09:00","-37.3","","-42.4","","58","","","","32","","18","","","M","99.85","","","","-52","","NA"
"-107.82","69.04","CAPE PEEL WEST","2400697","2020-03-05 10:00","2020","03","05","10:00","-36.2","","-41.3","","59","","","","31","","17","","","M","99.85","","","","-50","","NA"
"-107.82","69.04","CAPE PEEL WEST","2400697","2020-03-05 11:00","2020","03","05","11:00","-36.2","","-41.3","","60","","","","28","","9","","","M","99.89","","","","-46","","NA"
"-107.82","69.04","CAPE PEEL WEST","2400697","2020-03-05 12:00","2020","03","05","12:00","-36.4","","-41.4","","59","","","","30","","30","","","M","99.88","","","","-54","","NA"
"-107.82","69.04","CAPE PEEL WEST","2400697","2020-03-05 13:00","2020","03","05","13:00","-35.9","","-40.9","","60","","","","30","","34","","","M","99.90","","","","-54","","NA"
"-107.82","69.04","CAPE PEEL WEST","2400697","2020-03-05 14:00","2020","03","05","14:00","-34.7","","-39.6","","61","","","","28","","34","","","M","99.95","","","","-53","","NA"
"-107.82","69.04","CAPE PEEL WEST","2400697","2020-03-05 15:00","2020","03","05","15:00","-35.1","","-39.9","","61","","","","29","","43","","","M","99.92","","","","-55","","NA"
"-107.82","69.04","CAPE PEEL WEST","2400697","2020-03-05 16:00","2020","03","05","16:00","-35.4","","-40.3","","60","","","","29","","35","","","M","99.96","","","","-54","","NA"
"-107.82","69.04","CAPE PEEL WEST","2400697","2020-03-05 17:00","2020","03","05","17:00","-36.4","","-41.3","","59","","","","29","","30","","","M","99.94","","","","-54","","NA"
"-107.82","69.04","CAPE PEEL WEST","2400697","2020-03-05 18:00","2020","03","05","18:00","-37.1","","-42.2","","59","","","","29","","28","","","M","99.96","","","","-54","","NA"
"-107.82","69.04","CAPE PEEL WEST","2400697","2020-03-05 19:00","2020","03","05","19:00","-37.9","","-43.1","","58","","","","29","","30","","","M","99.95","","","","-56","","NA"
"-107.82","69.04","CAPE PEEL WEST","2400697","2020-03-05 20:00","2020","03","05","20:00","-38.7","","-44.0","","57","","","","29","","35","","","M","99.92","","","","-58","","NA"
"-107.82","69.04","CAPE PEEL WEST","2400697","2020-03-05 21:00","2020","03","05","21:00","-39.5","","-44.9","","56","","","","28","","35","","","M","99.96","","","","-59","","NA"
"-107.82","69.04","CAPE PEEL WEST","2400697","2020-03-05 22:00","2020","03","05","22:00","-39.9","","-45.3","","55","","","","30","","34","","","M","99.94","","","","-59","","NA"
"-107.82","69.04","CAPE PEEL WEST","2400697","2020-03-05 23:00","2020","03","05","23:00","-39.9","","-45.4","","55","","","","30","","43","","","M","99.87","","","","-61","","NA"
"-107.82","69.04","CAPE PEEL WEST","2400697","2020-03-06 00:00","2020","03","06","00:00","-40.2","","-45.6","","55","","","","31","","37","","","M","99.90","","","","-61","","NA"
"-107.82","69.04","CAPE PEEL WEST","2400697","2020-03-06 01:00","2020","03","06","01:00","-40.1","","-45.6","","55","","","","30","","43","","","M","99.88","","","","-62","","NA"
"-107.82","69.04","CAPE PEEL WEST","2400697","2020-03-06 02:00","2020","03","06","02:00","-40.5","","-46.0","","55","","","","29","","39","","","M","99.89","","","","-61","","NA"
"-107.82","69.04","CAPE PEEL WEST","2400697","2020-03-06 03:00","2020","03","06","03:00","-40.4","","-46.0","","55","","","","30","","39","","","M","99.87","","","","-61","","NA"
"-107.82","69.04","CAPE PEEL WEST","2400697","2020-03-06 04:00","2020","03","06","04:00","-40.9","","-46.5","","54","","","","30","","35","","","M","99.89","","","","-61","","NA"
"-107.82","69.04","CAPE PEEL WEST","2400697","2020-03-06 05:00","2020","03","06","05:00"
"-107.82","69.04","CAPE PEEL WEST","2400697","2020-03-06 06:00","2020","03","06","06:00","-41.7","","","M","53","","","","32","","35","","","M","99.90","","","","-62","","NA"
"-107.82","69.04","CAPE PEEL WEST","2400697","2020-03-06 07:00","2020","03","06","07:00","-42.2","","","M","53","","","","31","","35","","","M","99.94","","","","-63","","NA"
"-107.82","69.04","CAPE PEEL WEST","2400697","2020-03-06 08:00","2020","03","06","08:00","-42.8","","","M","52","","","","32","","43","","","M","99.96","","","","-65","","NA"
"-107.82","69.04","CAPE PEEL WEST","2400697","2020-03-06 09:00","2020","03","06","09:00","-43.5","","","M","52","","","","32","","43","","","M","99.99","","","","-66","","NA"
"-107.82","69.04","CAPE PEEL WEST","2400697","2020-03-06 10:00","2020","03","06","10:00","-43.1","","","M","52","","","","32","","48","","","M","100.00","","","","-67","","NA"
"-107.82","69.04","CAPE PEEL WEST","2400697","2020-03-06 11:00","2020","03","06","11:00","-42.1","","","M","53","","","","33","","43","","","M","100.09","","","","-64","","NA"
"-107.82","69.04","CAPE PEEL WEST","2400697","2020-03-06 12:00","2020","03","06","12:00","-41.3","","","M","54","","","","33","","50","","","M","100.08","","","","-64","","NA"
"-107.82","69.04","CAPE PEEL WEST","2400697","2020-03-06 13:00","2020","03","06","13:00","-41.4","","","M","54","","","","33","","54","","","M","100.16","","","","-65","","NA"
"-107.82","69.04","CAPE PEEL WEST","2400697","2020-03-06 14:00","2020","03","06","14:00","-40.8","","-46.4","","54","","","","32","","48","","","M","100.28","","","","-63","","NA"
"-107.82","69.04","CAPE PEEL WEST","2400697","2020-03-06 15:00","2020","03","06","15:00","-40.6","","-46.2","","54","","","","32","","50","","","M","100.32","","","","-63","","NA"
"-107.82","69.04","CAPE PEEL WEST","2400697","2020-03-06 16:00","2020","03","06","16:00","-40.7","","-46.3","","54","","","","32","","48","","","M","100.38","","","","-63","","NA"
"-107.82","69.04","CAPE PEEL WEST","2400697","2020-03-06 17:00","2020","03","06","17:00","-41.0","","","M","54","","","","32","","43","","","M","100.45","","","","-63","","NA"
"-107.82","69.04","CAPE PEEL WEST","2400697","2020-03-06 18:00","2020","03","06","18:00","-41.4","","","M","54","","","","32","","46","","","M","100.48","","","","-64","","NA"
"-107.82","69.04","CAPE PEEL WEST","2400697","2020-03-06 19:00","2020","03","06","19:00","-41.3","","","M","54","","","","33","","48","","","M","100.50","","","","-64","","NA"
"-107.82","69.04","CAPE PEEL WEST","2400697","2020-03-06 20:00","2020","03","06","20:00","-41.3","","","M","54","","","","33","","44","","","M","100.56","","","","-63","","NA"
"-107.82","69.04","CAPE PEEL WEST","2400697","2020-03-06 21:00","2020","03","06","21:00","-41.5","","","M","53","","","","33","","43","","","M","100.63","","","","-63","","NA"
"-107.82","69.04","CAPE PEEL WEST","2400697","2020-03-06 22:00","2020","03","06","22:00","-41.7","","","M","53","","","","33","","43","","","M","100.66","","","","-64","","NA"
"-107.82","69.04","CAPE PEEL WEST","2400697","2020-03-06 23:00","2020","03","06","23:00","-41.2","","","M","54","","","","33","","52","","","M","100.64","","","","-65","","NA"
"-107.82","69.04","CAPE PEEL WEST","2400697","2020-03-07 00:00","2020","03","07","00:00","-41.5","","","M","53","","","","33","","46","","","M","100.72","","","","-64","","NA"
"-107.82","69.04","CAPE PEEL WEST","2400697","2020-03-07 01:00","2020","03","07","01:00","-41.3","","","M","54","","","","33","","44","","","M","100.77","","","","-63","","NA"
"-107.82","69.04","CAPE PEEL WEST","2400697","2020-03-07 02:00","2020","03","07","02:00","-41.4","","","M","54","","","","32","","41","","","M","100.81","","","","-63","","NA"
"-107.82","69.04","CAPE PEEL WEST","2400697","2020-03-07 03:00","2020","03","07","03:00","-41.5","","","M","53","","","","33","","34","","","M","100.92","","","","-62","","NA"
"-107.82","69.04","CAPE PEEL WEST","2400697","2020-03-07 04:00","2020","03","07","04:00","-40.5","","-46.0","","55","","","","28","","13","","","M","100.99","","","","-53","","NA"
"-107.82","69.04","CAPE PEEL WEST","2400697","2020-03-07 05:00","2020","03","07","05:00","-41.6","","","M","54","","","","31","","5","","","M","100.99","","","","-49","","NA"
"-107.82","69.04","CAPE PEEL WEST","2400697","2020-03-07 06:00","2020","03","07","06:00","-41.2","","-46.6","","54","","","","24","","9","","","M","100.99","","","","-52","","NA"
"-107.82","69.04","CAPE PEEL WEST","2400697","2020-03-07 07:00","2020","03","07","07:00","-41.6","","","M","53","","","","33","","15","","","M","100.99","","","","-56","","NA"
"-107.82","69.04","CAPE PEEL WEST","2400697","2020-03-07 08:00","2020","03","07","08:00","-41.6","","","M","53","","","","34","","15","","","M","101.03","","","","-56","","NA"
"-107.82","69.04","CAPE PEEL WEST","2400697","2020-03-07 09:00","2020","03","07","09:00","-40.1","","-45.6","","55","","","","36","","8","","","M","101.02","","","","-50","","NA"
"-107.82","69.04","CAPE PEEL WEST","2400697","2020-03-07 10:00","2020","03","07","10:00","-37.3","","-42.6","","58","","","","27","","2","","","M","101.03","","","","-40","","NA"
"-107.82","69.04","CAPE PEEL WEST","2400697","2020-03-07 11:00","2020","03","07","11:00","-35.9","","-40.9","","60","","","","26","","4","","","M","101.05","","","","-41","","NA"
"-107.82","69.04","CAPE PEEL WEST","2400697","2020-03-07 12:00","2020","03","07","12:00","-35.6","","-40.6","","60","","","","25","","5","","","M","101.03","","","","-42","","NA"
"-107.82","69.04","CAPE PEEL WEST","2400697","2020-03-07 13:00","2020","03","07","13:00","-34.4","","-39.1","","61","","","","20","","8","","","M","101.06","","","","-43","","NA"
"-107.82","69.04","CAPE PEEL WEST","2400697","2020-03-07 14:00","2020","03","07","14:00","-35.5","","-40.5","","60","","","","25","","5","","","M","101.04","","","","-42","","NA"
"-107.82","69.04","CAPE PEEL WEST","2400697","2020-03-07 15:00","2020","03","07","15:00","-36.8","","-41.9","","59","","","","26","","9","","","M","101.00","","","","-47","","NA"
"-107.82","69.04","CAPE PEEL WEST","2400697","2020-03-07 16:00","2020","03","07","16:00","-37.5","","-42.6","","58","","","","26","","11","","","M","100.96","","","","-49","","NA"
"-107.82","69.04","CAPE PEEL WEST","2400697","2020-03-07 17:00","2020","03","07","17:00","-37.9","","-43.1","","58","","","","25","","11","","","M","100.94","","","","-49","","NA"
"-107.82","69.04","CAPE PEEL WEST","2400697","2020-03-07 18:00","2020","03","07","18:00","-38.1","","-43.4","","57","","","","24","","11","","","M","100.89","","","","-49","","NA"
"-107.82","69.04","CAPE PEEL WEST","2400697","2020-03-07 19:00","2020","03","07","19:00","-39.0","","-44.4","","56","","","","24","","8","","","M","100.86","","","","-49","","NA"
"-107.82","69.04","CAPE PEEL WEST","2400697","2020-03-07 20:00","2020","03","07","20:00","-39.2","","-44.6","","56","","","","21","","9","","","M","100.82","","","","-49","","NA"
"-107.82","69.04","CAPE PEEL WEST","2400697","2020-03-07 21:00","2020","03","07","21:00","-38.1","","-43.4","","57","","","","20","","9","","","M","100.78","","","","-48","","NA"
"-107.82","69.04","CAPE PEEL WEST","2400697","2020-03-07 22:00","2020","03","07","22:00","-39.0","","-44.4","","56","","","","17","","11","","","M","100.73","","","","-51","","NA"
"-107.82","69.04","CAPE PEEL WEST","2400697","2020-03-07 23:00","2020","03","07","23:00","-38.7","","-44.0","","57","","","","18","","15","","","M","100.70","","","","-52","","NA"
"-107.82","69.04","CAPE PEEL WEST","2400697","2020-03-08 00:00","2020","03","08","00:00","-38.9","","-44.4","","56","","","","17","","13","","","M","100.65","","","","-51","","NA"
"-107.82","69.04","CAPE PEEL WEST","2400697","2020-03-08 01:00","2020","03","08","01:00","-38.0","","-43.2","","57","","","","14","","9","","","M","100.58","","","","-48","","NA"
"-107.82","69.04","CAPE PEEL WEST","2400697","2020-03-08 02:00","2020","03","08","02:00","-37.7","","-42.9","","58","","","","16","","5","","","M","100.52","","","","-44","","NA"
"-107.82","69.04","CAPE PEEL WEST","2400697","2020-03-08 03:00","2020","03","08","03:00","-37.5","","-42.6","","58","","","","17","","13","","","M","100.46","","","","-50","","NA"
"-107.82","69.04","CAPE PEEL WEST","2400697","2020-03-08 04:00","2020","03","08","04:00","-36.8","","-42.0","","59","","","","17","","17","","","M","100.39","","","","-51","","NA"
"-107.82","69.04","CAPE PEEL WEST","2400697","2020-03-08 05:00","2020","03","08","05:00","-36.8","","-41.8","","59","","","","20","","18","","","M","100.31","","","","-51","","NA"
"-107.82","69.04","CAPE PEEL WEST","2400697","2020-03-08 06:00","2020","03","08","06:00","-36.4","","-41.5","","59","","","","20","","22","","","M","100.25","","","","-52","","NA"
"-107.82","69.04","CAPE PEEL WEST","2400697","2020-03-08 07:00","2020","03","08","07:00","-35.7","","-40.7","","60","","","","20","","18","","","M","100.21","","","","-50","","NA"
"-107.82","69.04","CAPE PEEL WEST","2400697","2020-03-08 08:00","2020","03","08","08:00","-36.0","","-41.0","","60","","","","21","","18","","","M","100.15","","","","-50","","NA"
"-107.82","69.04","CAPE PEEL WEST","2400697","2020-03-08 09:00","2020","03","08","09:00","-35.7","","-40.6","","60","","","","22","","26","","","M","100.09","","","","-52","","NA"
"-107.82","69.04","CAPE PEEL WEST","2400697","2020-03-08 10:00","2020","03","08","10:00","-34.0","","-38.8","","62","","","","20","","18","","","M","100.02","","","","-47","","NA"
"-107.82","69.04","CAPE PEEL WEST","2400697","2020-03-08 11:00","2020","03","08","11:00","-32.9","","-37.5","","63","","","","20","","21","","","M","99.95","","","","-47","","NA"
"-107.82","69.04","CAPE PEEL WEST","2400697","2020-03-08 12:00","2020","03","08","12:00","-32.2","","-36.7","","64","","","","20","","21","","","M","99.88","","","","-46","","NA"
"-107.82","69.04","CAPE PEEL WEST","2400697","2020-03-08 13:00","2020","03","08","13:00","-31.0","","-35.4","","65","","","","18","","21","","","M","99.79","","","","-45","","NA"
"-107.82","69.04","CAPE PEEL WEST","2400697","2020-03-08 14:00","2020","03","08","14:00","-30.4","","-34.7","","66","","","","17","","15","","","M","99.72","","","","-42","","NA"
"-107.82","69.04","CAPE PEEL WEST","2400697","2020-03-08 15:00","2020","03","08","15:00","-30.7","","-35.0","","66","","","","15","","11","","","M","99.60","","","","-41","","NA"
"-107.82","69.04","CAPE PEEL WEST","2400697","2020-03-08 16:00","2020","03","08","16:00","-30.0","","-34.2","","67","","","","16","","11","","","M","99.50","","","","-40","","NA"
"-107.82","69.04","CAPE PEEL WEST","2400697","2020-03-08 17:00","2020","03","08","17:00","-30.6","","-34.8","","66","","","","14","","11","","","M","99.39","","","","-40","","NA"
"-107.82","69.04","CAPE PEEL WEST","2400697","2020-03-08 18:00","2020","03","08","18:00","-31.3","","-35.6","","65","","","","11","","11","","","M","99.30","","","","-41","","NA"
"-107.82","69.04","CAPE PEEL WEST","2400697","2020-03-08 19:00","2020","03","08","19:00","-31.0","","-35.4","","65","","","","13","","18","","","M","99.20","","","","-44","","NA"
"-107.82","69.04","CAPE PEEL WEST","2400697","2020-03-08 20:00","2020","03","08","20:00","-30.9","","-35.3","","66","","","","13","","11","","","M","99.12","","","","-41","","NA"
"-107.82","69.04","CAPE PEEL WEST","2400697","2020-03-08 21:00","2020","03","08","21:00","-30.1","","-34.3","","66","","","","14","","13","","","M","99.03","","","","-41","","NA"
"-107.82","69.04","CAPE PEEL WEST","2400697","2020-03-08 22:00","2020","03","08","22:00","-29.8","","-34.0","","67","","","","14","","18","","","M","98.94","","","","-42","","NA"
"-107.82","69.04","CAPE PEEL WEST","2400697","2020-03-08 23:00","2020","03","08","23:00","-30.5","","-34.7","","66","","","","13","","15","","","M","98.86","","","","-42","","NA"
"-107.82","69.04","CAPE PEEL WEST","2400697","2020-03-09 00:00","2020","03","09","00:00"
"-107.82","69.04","CAPE PEEL WEST","2400697","2020-03-09 01:00","2020","03","09","01:00","-28.5","","-32.5","","68","","","","18","","18","","","M","98.73","","","","-41","","NA"
"-107.82","69.04","CAPE PEEL WEST","2400697","2020-03-09 02:00","2020","03","09","02:00","-28.4","","-32.4","","69","","","","10","","5","","","M","98.69","","","","-34","","NA"
"-107.82","69.04","CAPE PEEL WEST","2400697","2020-03-09 03:00","2020","03","09","03:00","-27.9","","-31.8","","69","","","","11","","5","","","M","98.66","","","","-33","","NA"
"-107.82","69.04","CAPE PEEL WEST","2400697","2020-03-09 04:00","2020","03","09","04:00","-27.8","","-31.7","","69","","","","16","","8","","","M","98.61","","","","-35","","NA"
"-107.82","69.04","CAPE PEEL WEST","2400697","2020-03-09 05:00","2020","03","09","05:00","-28.7","","-32.6","","68","","","","8","","8","","","M","98.57","","","","-36","","NA"
"-107.82","69.04","CAPE PEEL WEST","2400697","2020-03-09 06:00","2020","03","09","06:00","-27.7","","-31.5","","70","","","","13","","5","","","M","98.54","","","","-33","","NA"
"-107.82","69.04","CAPE PEEL WEST","2400697","2020-03-09 07:00","2020","03","09","07:00","-27.5","","-31.3","","70","","","","18","","8","","","M","98.53","","","","-35","","NA"
"-107.82","69.04","CAPE PEEL WEST","2400697","2020-03-09 08:00","2020","03","09","08:00","-27.2","","-31.0","","70","","","","17","","8","","","M","98.51","","","","-35","","NA"
"-107.82","69.04","CAPE PEEL WEST","2400697","2020-03-09 09:00","2020","03","09","09:00","-26.7","","-30.4","","71","","","","20","","5","","","M","98.50","","","","-32","","NA"
"-107.82","69.04","CAPE PEEL WEST","2400697","2020-03-09 10:00","2020","03","09","10:00","-26.7","","-30.4","","71","","","","27","","5","","","M","98.48","","","","-32","","NA"
"-107.82","69.04","CAPE PEEL WEST","2400697","2020-03-09 11:00","2020","03","09","11:00","-27.1","","-30.8","","70","","","","27","","9","","","M","98.50","","","","-35","","NA"
"-107.82","69.04","CAPE PEEL WEST","2400697","2020-03-09 12:00","2020","03","09","12:00","-27.3","","-31.1","","70","","","","32","","26","","","M","98.52","","","","-41","","NA"
"-107.82","69.04","CAPE PEEL WEST","2400697","2020-03-09 13:00","2020","03","09","13:00","-27.4","","-31.1","","70","","","","32","","26","","","M","98.56","","","","-41","","NA"
"-107.82","69.04","CAPE PEEL WEST","2400697","2020-03-09 14:00","2020","03","09","14:00","-27.6","","-31.4","","70","","","","32","","28","","","M","98.60","","","","-42","","NA"
"-107.82","69.04","CAPE PEEL WEST","2400697","2020-03-09 15:00","2020","03","09","15:00","-28.4","","-32.3","","69","","","","32","","18","","","M","98.65","","","","-40","","NA"
"-107.82","69.04","CAPE PEEL WEST","2400697","2020-03-09 16:00","2020","03","09","16:00","-29.9","","-33.9","","67","","","","31","","30","","","M","98.67","","","","-45","","NA"
"-107.82","69.04","CAPE PEEL WEST","2400697","2020-03-09 17:00","2020","03","09","17:00","-30.9","","-35.1","","66","","","","33","","28","","","M","98.70","","","","-46","","NA"
"-107.82","69.04","CAPE PEEL WEST","2400697","2020-03-09 18:00","2020","03","09","18:00","-31.5","","-35.8","","66","","","","33","","31","","","M","98.73","","","","-48","","NA"
"-107.82","69.04","CAPE PEEL WEST","2400697","2020-03-09 19:00","2020","03","09","19:00","-31.6","","-35.9","","65","","","","32","","31","","","M","98.78","","","","-48","","NA"
"-107.82","69.04","CAPE PEEL WEST","2400697","2020-03-09 20:00","2020","03","09","20:00","-32.1","","-36.4","","65","","","","34","","9","","","M","98.87","","","","-41","","NA"
"-107.82","69.04","CAPE PEEL WEST","2400697","2020-03-09 21:00","2020","03","09","21:00","-31.9","","-36.3","","65","","","","32","","30","","","M","98.84","","","","-48","","NA"
"-107.82","69.04","CAPE PEEL WEST","2400697","2020-03-09 22:00","2020","03","09","22:00","-31.9","","-36.2","","65","","","","32","","37","","","M","98.82","","","","-50","","NA"
"-107.82","69.04","CAPE PEEL WEST","2400697","2020-03-09 23:00","2020","03","09","23:00","-32.3","","-36.7","","65","","","","32","","34","","","M","98.88","","","","-49","","NA"
"-107.82","69.04","CAPE PEEL WEST","2400697","2020-03-10 00:00","2020","03","10","00:00","-32.5","","-36.9","","64","","","","32","","31","","","M","98.90","","","","-49","","NA"
"-107.82","69.04","CAPE PEEL WEST","2400697","2020-03-10 01:00","2020","03","10","01:00","-32.7","","-37.2","","64","","","","32","","30","","","M","98.92","","","","-49","","NA"
"-107.82","69.04","CAPE PEEL WEST","2400697","2020-03-10 02:00","2020","03","10","02:00","-33.5","","-38.0","","63","","","","33","","34","","","M","98.95","","","","-51","","NA"
"-107.82","69.04","CAPE PEEL WEST","2400697","2020-03-10 03:00","2020","03","10","03:00","-33.1","","-37.6","","64","","","","33","","34","","","M","98.98","","","","-51","","NA"
"-107.82","69.04","CAPE PEEL WEST","2400697","2020-03-10 04:00","2020","03","10","04:00","-33.4","","-37.9","","63","","","","33","","24","","","M","99.02","","","","-49","","NA"
"-107.82","69.04","CAPE PEEL WEST","2400697","2020-03-10 05:00","2020","03","10","05:00","-34.0","","-38.6","","63","","","","33","","26","","","M","99.02","","","","-50","","NA"
"-107.82","69.04","CAPE PEEL WEST","2400697","2020-03-10 06:00","2020","03","10","06:00","-33.8","","-38.4","","63","","","","33","","24","","","M","99.05","","","","-49","","NA"
"-107.82","69.04","CAPE PEEL WEST","2400697","2020-03-10 07:00","2020","03","10","07:00","-34.3","","-39.0","","62","","","","34","","24","","","M","99.09","","","","-50","","NA"
"-107.82","69.04","CAPE PEEL WEST","2400697","2020-03-10 08:00","2020","03","10","08:00","-34.7","","-39.5","","62","","","","35","","15","","","M","99.13","","","","-47","","NA"
"-107.82","69.04","CAPE PEEL WEST","2400697","2020-03-10 09:00","2020","03","10","09:00","-34.2","","-38.8","","62","","","","34","","18","","","M","99.16","","","","-48","","NA"
"-107.82","69.04","CAPE PEEL WEST","2400697","2020-03-10 10:00","2020","03","10","10:00","-33.7","","-38.3","","63","","","","35","","22","","","M","99.19","","","","-48","","NA"
"-107.82","69.04","CAPE PEEL WEST","2400697","2020-03-10 11:00","2020","03","10","11:00","-32.1","","-36.5","","64","","","","35","","21","","","M","99.20","","","","-46","","NA"
"-107.82","69.04","CAPE PEEL WEST","2400697","2020-03-10 12:00","2020","03","10","12:00","-32.6","","-37.1","","64","","","","35","","18","","","M","99.25","","","","-46","","NA"
"-107.82","69.04","CAPE PEEL WEST","2400697","2020-03-10 13:00","2020","03","10","13:00","-32.1","","-36.4","","65","","","","36","","24","","","M","99.31","","","","-47","","NA"
"-107.82","69.04","CAPE PEEL WEST","2400697","2020-03-10 14:00","2020","03","10","14:00","-32.2","","-36.6","","64","","","","36","","22","","","M","99.35","","","","-46","","NA"
"-107.82","69.04","CAPE PEEL WEST","2400697","2020-03-10 15:00","2020","03","10","15:00","-32.2","","-36.6","","65","","","","36","","21","","","M","99.41","","","","-46","","NA"
"-107.82","69.04","CAPE PEEL WEST","2400697","2020-03-10 16:00","2020","03","10","16:00","-32.7","","-37.1","","64","","","","36","","18","","","M","99.47","","","","-46","","NA"
"-107.82","69.04","CAPE PEEL WEST","2400697","2020-03-10 17:00","2020","03","10","17:00","-33.4","","-38.0","","63","","","","35","","30","","","M","99.50","","","","-50","","NA"
"-107.82","69.04","CAPE PEEL WEST","2400697","2020-03-10 18:00","2020","03","10","18:00","-34.3","","-39.0","","62","","","","35","","31","","","M","99.56","","","","-51","","NA"
"-107.82","69.04","CAPE PEEL WEST","2400697","2020-03-10 19:00","2020","03","10","19:00","-34.8","","-39.6","","62","","","","36","","28","","","M","99.61","","","","-51","","NA"
"-107.82","69.04","CAPE PEEL WEST","2400697","2020-03-10 20:00","2020","03","10","20:00","-35.1","","-39.9","","61","","","","36","","28","","","M","99.68","","","","-52","","NA"
"-107.82","69.04","CAPE PEEL WEST","2400697","2020-03-10 21:00","2020","03","10","21:00","-35.9","","-40.8","","60","","","","36","","28","","","M","99.74","","","","-53","","NA"
"-107.82","69.04","CAPE PEEL WEST","2400697","2020-03-10 22:00","2020","03","10","22:00","-36.5","","-41.5","","60","","","","1","","22","","","M","99.82","","","","-52","","NA"
"-107.82","69.04","CAPE PEEL WEST","2400697","2020-03-10 23:00","2020","03","10","23:00","-36.5","","-41.5","","60","","","","1","","21","","","M","99.87","","","","-52","","NA"
"-107.82","69.04","CAPE PEEL WEST","2400697","2020-03-11 00:00","2020","03","11","00:00","-36.7","","-41.7","","59","","","","2","","17","","","M","99.91","","","","-50","","NA"
"-107.82","69.04","CAPE PEEL WEST","2400697","2020-03-11 01:00","2020","03","11","01:00","-36.9","","-42.0","","59","","","","36","","22","","","M","99.98","","","","-52","","NA"
"-107.82","69.04","CAPE PEEL WEST","2400697","2020-03-11 02:00","2020","03","11","02:00","-37.5","","-42.6","","58","","","","35","","28","","","M","100.03","","","","-55","","NA"
"-107.82","69.04","CAPE PEEL WEST","2400697","2020-03-11 03:00","2020","03","11","03:00","-37.8","","-43.0","","58","","","","35","","24","","","M","100.09","","","","-54","","NA"
"-107.82","69.04","CAPE PEEL WEST","2400697","2020-03-11 04:00","2020","03","11","04:00","-38.1","","-43.3","","58","","","","36","","31","","","M","100.13","","","","-56","","NA"
"-107.82","69.04","CAPE PEEL WEST","2400697","2020-03-11 05:00","2020","03","11","05:00","-38.3","","-43.5","","58","","","","36","","30","","","M","100.21","","","","-56","","NA"
"-107.82","69.04","CAPE PEEL WEST","2400697","2020-03-11 06:00","2020","03","11","06:00","-38.5","","-43.8","","57","","","","36","","26","","","M","100.29","","","","-56","","NA"
"-107.82","69.04","CAPE PEEL WEST","2400697","2020-03-11 07:00","2020","03","11","07:00","-38.5","","-43.7","","57","","","","1","","22","","","M","100.37","","","","-54","","NA"
"-107.82","69.04","CAPE PEEL WEST","2400697","2020-03-11 08:00","2020","03","11","08:00","-37.5","","-42.6","","58","","","","1","","22","","","M","100.42","","","","-53","","NA"
"-107.82","69.04","CAPE PEEL WEST","2400697","2020-03-11 09:00","2020","03","11","09:00","-36.7","","-41.7","","59","","","","1","","24","","","M","100.49","","","","-53","","NA"
"-107.82","69.04","CAPE PEEL WEST","2400697","2020-03-11 10:00","2020","03","11","10:00","-36.7","","-41.7","","59","","","","1","","26","","","M","100.54","","","","-53","","NA"
"-107.82","69.04","CAPE PEEL WEST","2400697","2020-03-11 11:00","2020","03","11","11:00","-36.1","","-41.1","","60","","","","1","","17","","","M","100.61","","","","-50","","NA"
"-107.82","69.04","CAPE PEEL WEST","2400697","2020-03-11 12:00","2020","03","11","12:00","-35.3","","-40.2","","61","","","","1","","17","","","M","100.69","","","","-49","","NA"
"-107.82","69.04","CAPE PEEL WEST","2400697","2020-03-11 13:00","2020","03","11","13:00","-35.3","","-40.1","","61","","","","35","","13","","","M","100.76","","","","-47","","NA"
"-107.82","69.04","CAPE PEEL WEST","2400697","2020-03-11 14:00","2020","03","11","14:00","-35.4","","-40.2","","61","","","","34","","18","","","M","100.80","","","","-49","","NA"
"-107.82","69.04","CAPE PEEL WEST","2400697","2020-03-11 15:00","2020","03","11","15:00","-35.5","","-40.4","","61","","","","34","","21","","","M","100.87","","","","-50","","NA"
"-107.82","69.04","CAPE PEEL WEST","2400697","2020-03-11 16:00","2020","03","11","16:00","-36.0","","-41.0","","60","","","","35","","24","","","M","100.90","","","","-52","","NA"
"-107.82","69.04","CAPE PEEL WEST","2400697","2020-03-11 17:00","2020","03","11","17:00","-36.1","","-41.1","","60","","","","35","","17","","","M","100.97","","","","-50","","NA"
"-107.82","69.04","CAPE PEEL WEST","2400697","2020-03-11 18:00","2020","03","11","18:00","-36.8","","-41.9","","59","","","","35","","18","","","M","101.03","","","","-51","","NA"
"-107.82","69.04","CAPE PEEL WEST","2400697","2020-03-11 19:00","2020","03","11","19:00","-37.1","","-42.2","","59","","","","36","","22","","","M","101.09","","","","-53","","NA"
"-107.82","69.04","CAPE PEEL WEST","2400697","2020-03-11 20:00","2020","03","11","20:00","-37.6","","-42.7","","58","","","","35","","18","","","M","101.16","","","","-52","","NA"
"-107.82","69.04","CAPE PEEL WEST","2400697","2020-03-11 21:00","2020","03","11","21:00","-37.9","","-43.0","","58","","","","1","","21","","","M","101.18","","","","-53","","NA"
"-107.82","69.04","CAPE PEEL WEST","2400697","2020-03-11 22:00","2020","03","11","22:00","-37.7","","-42.9","","58","","","","35","","24","","","M","101.21","","","","-54","","NA"
"-107.82","69.04","CAPE PEEL WEST","2400697","2020-03-11 23:00","2020","03","11","23:00","-37.6","","-42.8","","58","","","","36","","24","","","M","101.25","","","","-54","","NA"
"-107.82","69.04","CAPE PEEL WEST","2400697","2020-03-12 00:00","2020","03","12","00:00","-37.6","","-42.7","","58","","","","35","","22","","","M","101.30","","","","-53","","NA"
"-107.82","69.04","CAPE PEEL WEST","2400697","2020-03-12 01:00","2020","03","12","01:00","-37.3","","-42.5","","58","","","","36","","22","","","M","101.34","","","","-53","","NA"
"-107.82","69.04","CAPE PEEL WEST","2400697","2020-03-12 02:00","2020","03","12","02:00","-37.1","","-42.2","","59","","","","1","","18","","","M","101.39","","","","-51","","NA"
"-107.82","69.04","CAPE PEEL WEST","2400697","2020-03-12 03:00","2020","03","12","03:00","-37.3","","-42.4","","58","","","","36","","21","","","M","101.42","","","","-53","","NA"
"-107.82","69.04","CAPE PEEL WEST","2400697","2020-03-12 04:00","2020","03","12","04:00","-37.0","","-42.1","","59","","","","36","","21","","","M","101.46","","","","-52","","NA"
"-107.82","69.04","CAPE PEEL WEST","2400697","2020-03-12 05:00","2020","03","12","05:00","-36.5","","-41.5","","59","","","","1","","17","","","M","101.53","","","","-50","","NA"
"-107.82","69.04","CAPE PEEL WEST","2400697","2020-03-12 06:00","2020","03","12","06:00","-35.9","","-40.8","","60","","","","3","","15","","","M","101.59","","","","-49","","NA"
"-107.82","69.04","CAPE PEEL WEST","2400697","2020-03-12 07:00","2020","03","12","07:00","-35.6","","-40.5","","60","","","","4","","9","","","M","101.61","","","","-45","","NA"
"-107.82","69.04","CAPE PEEL WEST","2400697","2020-03-12 08:00","2020","03","12","08:00","-35.7","","-40.6","","60","","","","3","","17","","","M","101.66","","","","-49","","NA"
"-107.82","69.04","CAPE PEEL WEST","2400697","2020-03-12 09:00","2020","03","12","09:00","-34.7","","-39.5","","61","","","","3","","11","","","M","101.70","","","","-45","","NA"
"-107.82","69.04","CAPE PEEL WEST","2400697","2020-03-12 10:00","2020","03","12","10:00","-33.6","","-38.2","","63","","","","3","","13","","","M","101.73","","","","-45","","NA"
"-107.82","69.04","CAPE PEEL WEST","2400697","2020-03-12 11:00","2020","03","12","11:00","-32.3","","-36.8","","64","","","","6","","5","","","M","101.79","","","","-38","","NA"
"-107.82","69.04","CAPE PEEL WEST","2400697","2020-03-12 12:00","2020","03","12","12:00","-31.3","","-35.6","","65","","","","6","","8","","","M","101.84","","","","-40","","NA"
"-107.82","69.04","CAPE PEEL WEST","2400697","2020-03-12 13:00","2020","03","12","13:00","-31.1","","-35.3","","66","","","","8","","5","","","M","101.91","","","","-37","","NA"
"-107.82","69.04","CAPE PEEL WEST","2400697","2020-03-12 14:00","2020","03","12","14:00","-31.4","","-35.7","","65","","","","11","","2","","","M","101.95","","","","-34","","NA"
"-107.82","69.04","CAPE PEEL WEST","2400697","2020-03-12 15:00","2020","03","12","15:00","-31.8","","-36.2","","65","","","","13","","4","","","M","102.01","","","","-36","","NA"
"-107.82","69.04","CAPE PEEL WEST","2400697","2020-03-12 16:00","2020","03","12","16:00","-32.1","","-36.5","","64","","","","1","","8","","","M","102.05","","","","-40","","NA"
"-107.82","69.04","CAPE PEEL WEST","2400697","2020-03-12 17:00","2020","03","12","17:00","-33.8","","-38.4","","63","","","","36","","15","","","M","102.07","","","","-46","","NA"
"-107.82","69.04","CAPE PEEL WEST","2400697","2020-03-12 18:00","2020","03","12","18:00","-34.6","","-39.3","","62","","","","1","","13","","","M","102.13","","","","-46","","NA"
"-107.82","69.04","CAPE PEEL WEST","2400697","2020-03-12 19:00","2020","03","12","19:00","-34.8","","-39.6","","61","","","","1","","11","","","M","102.16","","","","-45","","NA"
"-107.82","69.04","CAPE PEEL WEST","2400697","2020-03-12 20:00","2020","03","12","20:00","-34.1","","-38.8","","62","","","","1","","11","","","M","102.20","","","","-45","","NA"
"-107.82","69.04","CAPE PEEL WEST","2400697","2020-03-12 21:00","2020","03","12","21:00","-32.7","","-37.2","","64","","","","2","","8","","","M","102.21","","","","-41","","NA"
"-107.82","69.04","CAPE PEEL WEST","2400697","2020-03-12 22:00","2020","03","12","22:00","-31.8","","-36.2","","65","","","","36","","2","","","M","102.22","","","","-34","","NA"
"-107.82","69.04","CAPE PEEL WEST","2400697","2020-03-12 23:00","2020","03","12","23:00","-32.0","","-36.5","","64","","","","25","","4","","","M","102.27","","","","-37","","NA"
"-107.82","69.04","CAPE PEEL WEST","2400697","2020-03-13 00:00","2020","03","13","00:00","-32.7","","-37.2","","64","","","","24","","5","","","M","102.28","","","","-39","","NA"
"-107.82","69.04","CAPE PEEL WEST","2400697","2020-03-13 01:00","2020","03","13","01:00","-32.5","","-37.0","","64","","","","27","","8","","","M","102.31","","","","-41","","NA"
"-107.82","69.04","CAPE PEEL WEST","2400697","2020-03-13 02:00","2020","03","13","02:00","-33.3","","-37.9","","63","","","","28","","13","","","M","102.37","","","","-45","","NA"
"-107.82","69.04","CAPE PEEL WEST","2400697","2020-03-13 03:00","2020","03","13","03:00","-34.6","","-39.4","","62","","","","29","","18","","","M","102.37","","","","-48","","NA"
"-107.82","69.04","CAPE PEEL WEST","2400697","2020-03-13 04:00","2020","03","13","04:00","-33.6","","-38.2","","63","","","","28","","11","","","M","102.35","","","","-44","","NA"
"-107.82","69.04","CAPE PEEL WEST","2400697","2020-03-13 05:00","2020","03","13","05:00","-34.2","","-38.8","","62","","","","26","","15","","","M","102.39","","","","-47","","NA"
"-107.82","69.04","CAPE PEEL WEST","2400697","2020-03-13 06:00","2020","03","13","06:00","-35.9","","-40.7","","60","","","","26","","17","","","M","102.34","","","","-49","","NA"
"-107.82","69.04","CAPE PEEL WEST","2400697","2020-03-13 07:00","2020","03","13","07:00","-36.0","","-41.0","","60","","","","26","","18","","","M","102.30","","","","-50","","NA"
"-107.82","69.04","CAPE PEEL WEST","2400697","2020-03-13 08:00","2020","03","13","08:00","-35.7","","-40.6","","60","","","","26","","17","","","M","102.28","","","","-49","","NA"
"-107.82","69.04","CAPE PEEL WEST","2400697","2020-03-13 09:00","2020","03","13","09:00","-35.3","","-40.1","","61","","","","25","","17","","","M","102.28","","","","-49","","NA"
"-107.82","69.04","CAPE PEEL WEST","2400697","2020-03-13 10:00","2020","03","13","10:00","-34.0","","-38.7","","62","","","","25","","17","","","M","102.24","","","","-47","","NA"
"-107.82","69.04","CAPE PEEL WEST","2400697","2020-03-13 11:00","2020","03","13","11:00","-33.6","","-38.2","","63","","","","24","","15","","","M","102.20","","","","-46","","NA"
"-107.82","69.04","CAPE PEEL WEST","2400697","2020-03-13 12:00","2020","03","13","12:00","-33.2","","-37.8","","63","","","","23","","26","","","M","102.12","","","","-49","","NA"
"-107.82","69.04","CAPE PEEL WEST","2400697","2020-03-13 13:00","2020","03","13","13:00","-33.4","","-38.0","","63","","","","23","","26","","","M","102.04","","","","-49","","NA"
"-107.82","69.04","CAPE PEEL WEST","2400697","2020-03-13 14:00","2020","03","13","14:00","-32.8","","-37.3","","64","","","","22","","30","","","M","101.95","","","","-49","","NA"
"-107.82","69.04","CAPE PEEL WEST","2400697","2020-03-13 15:00","2020","03","13","15:00","-32.3","","-36.8","","64","","","","23","","26","","","M","101.94","","","","-48","","NA"
"-107.82","69.04","CAPE PEEL WEST","2400697","2020-03-13 16:00","2020","03","13","16:00","-31.6","","-35.9","","65","","","","21","","18","","","M","101.83","","","","-44","","NA"
"-107.82","69.04","CAPE PEEL WEST","2400697","2020-03-13 17:00","2020","03","13","17:00","-31.8","","-36.1","","65","","","","20","","28","","","M","101.69","","","","-48","","NA"
"-107.82","69.04","CAPE PEEL WEST","2400697","2020-03-13 18:00","2020","03","13","18:00","-32.1","","-36.5","","65","","","","21","","17","","","M","101.54","","","","-45","","NA"
"-107.82","69.04","CAPE PEEL WEST","2400697","2020-03-13 19:00","2020","03","13","19:00","-31.3","","-35.6","","65","","","","22","","24","","","M","101.34","","","","-46","","NA"
"-107.82","69.04","CAPE PEEL WEST","2400697","2020-03-13 20:00","2020","03","13","20:00","-30.7","","-34.9","","66","","","","20","","17","","","M","101.13","","","","-43","","NA"
"-107.82","69.04","CAPE PEEL WEST","2400697","2020-03-13 21:00","2020","03","13","21:00","-29.4","","-33.5","","67","","","","20","","28","","","M","100.95","","","","-44","","NA"
"-107.82","69.04","CAPE PEEL WEST","2400697","2020-03-13 22:00","2020","03","13","22:00","-27.6","","-31.4","","69","","","","20","","35","","","M","100.75","","","","-43","","NA"
"-107.82","69.04","CAPE PEEL WEST","2400697","2020-03-13 23:00","2020","03","13","23:00","-26.6","","-30.3","","71","","","","21","","46","","","M","100.50","","","","-44","","NA"
"-107.82","69.04","CAPE PEEL WEST","2400697","2020-03-14 00:00","2020","03","14","00:00","-25.6","","-29.1","","72","","","","21","","48","","","M","100.36","","","","-43","","NA"
"-107.82","69.04","CAPE PEEL WEST","2400697","2020-03-14 01:00","2020","03","14","01:00","-24.6","","-28.1","","73","","","","21","","52","","","M","100.16","","","","-42","","NA"
"-107.82","69.04","CAPE PEEL WEST","2400697","2020-03-14 02:00","2020","03","14","02:00","-23.6","","-26.9","","74","","","","20","","48","","","M","99.96","","","","-40","","NA"
"-107.82","69.04","CAPE PEEL WEST","2400697","2020-03-14 03:00","2020","03","14","03:00","-22.9","","-26.1","","75","","","","21","","46","","","M","99.73","","","","-39","","NA"
"-107.82","69.04","CAPE PEEL WEST","2400697","2020-03-14 04:00","2020","03","14","04:00","-22.2","","-25.3","","76","","","","22","","54","","","M","99.50","","","","-39","","NA"
"-107.82","69.04","CAPE PEEL WEST","2400697","2020-03-14 05:00","2020","03","14","05:00","-21.3","","-24.3","","77","","","","21","","43","","","M","99.36","","","","-36","","NA"
"-107.82","69.04","CAPE PEEL WEST","2400697","2020-03-14 06:00","2020","03","14","06:00","-20.1","","-22.9","","78","","","","22","","35","","","M","99.21","","","","-34","","NA"
"-107.82","69.04","CAPE PEEL WEST","2400697","2020-03-14 07:00","2020","03","14","07:00","-19.4","","-22.0","","79","","","","23","","37","","","M","99.04","","","","-33","","NA"
"-107.82","69.04","CAPE PEEL WEST","2400697","2020-03-14 08:00","2020","03","14","08:00","-18.9","","-21.4","","80","","","","24","","34","","","M","98.95","","","","-32","","NA"
"-107.82","69.04","CAPE PEEL WEST","2400697","2020-03-14 09:00","2020","03","14","09:00","-18.4","","-20.9","","81","","","","24","","28","","","M","98.90","","","","-30","","NA"
"-107.82","69.04","CAPE PEEL WEST","2400697","2020-03-14 10:00","2020","03","14","10:00","-16.6","","-18.8","","83","","","","24","","26","","","M","98.81","","","","-27","","NA"
"-107.82","69.04","CAPE PEEL WEST","2400697","2020-03-14 11:00","2020","03","14","11:00","-14.3","","-16.3","","85","","","","25","","28","","","M","98.77","","","","-25","","NA"
"-107.82","69.04","CAPE PEEL WEST","2400697","2020-03-14 12:00","2020","03","14","12:00","-12.6","","-14.2","","87","","","","27","","35","","","M","98.70","","","","-24","","NA"
"-107.82","69.04","CAPE PEEL WEST","2400697","2020-03-14 13:00","2020","03","14","13:00","-11.7","","-13.3","","88","","","","28","","35","","","M","98.67","","","","-22","","NA"
"-107.82","69.04","CAPE PEEL WEST","2400697","2020-03-14 14:00","2020","03","14","14:00","-10.0","","-11.3","","90","","","","30","","44","","","M","98.63","","","","-21","","NA"
"-107.82","69.04","CAPE PEEL WEST","2400697","2020-03-14 15:00","2020","03","14","15:00","-9.1","","-10.2","","92","","","","29","","48","","","M","98.62","","","","-20","","NA"
"-107.82","69.04","CAPE PEEL WEST","2400697","2020-03-14 16:00","2020","03","14","16:00","-8.8","","-9.9","","92","","","","30","","43","","","M","98.61","","","","-19","","NA"
"-107.82","69.04","CAPE PEEL WEST","2400697","2020-03-14 17:00","2020","03","14","17:00","-9.2","","-10.3","","91","","","","29","","48","","","M","98.60","","","","-20","","NA"
"-107.82","69.04","CAPE PEEL WEST","2400697","2020-03-14 18:00","2020","03","14","18:00","-8.8","","-9.8","","92","","","","29","","46","","","M","98.57","","","","-20","","NA"
"-107.82","69.04","CAPE PEEL WEST","2400697","2020-03-14 19:00","2020","03","14","19:00","-9.7","","-10.9","","91","","","","28","","48","","","M","98.52","","","","-21","","NA"
"-107.82","69.04","CAPE PEEL WEST","2400697","2020-03-14 20:00","2020","03","14","20:00","-8.5","","-9.5","","92","","","","28","","48","","","M","98.46","","","","-20","","NA"
"-107.82","69.04","CAPE PEEL WEST","2400697","2020-03-14 21:00","2020","03","14","21:00","-8.5","","-9.5","","92","","","","28","","50","","","M","98.40","","","","-20","","NA"
"-107.82","69.04","CAPE PEEL WEST","2400697","2020-03-14 22:00","2020","03","14","22:00","-8.5","","-9.5","","92","","","","28","","43","","","M","98.31","","","","-19","","NA"
"-107.82","69.04","CAPE PEEL WEST","2400697","2020-03-14 23:00","2020","03","14","23:00","-9.2","","-10.4","","92","","","","27","","41","","","M","98.21","","","","-20","","NA"
"-107.82","69.04","CAPE PEEL WEST","2400697","2020-03-15 00:00","2020","03","15","00:00","-9.5","","-10.7","","91","","","","27","","41","","","M","98.13","","","","-20","","NA"
"-107.82","69.04","CAPE PEEL WEST","2400697","2020-03-15 01:00","2020","03","15","01:00","-9.7","","-10.9","","91","","","","28","","39","","","M","98.05","","","","-20","","NA"
"-107.82","69.04","CAPE PEEL WEST","2400697","2020-03-15 02:00","2020","03","15","02:00","-9.7","","-10.9","","91","","","","29","","39","","","M","97.99","","","","-20","","NA"
"-107.82","69.04","CAPE PEEL WEST","2400697","2020-03-15 03:00","2020","03","15","03:00","-10.1","","-11.3","","91","","","","29","","43","","","M","97.91","","","","-21","","NA"
"-107.82","69.04","CAPE PEEL WEST","2400697","2020-03-15 04:00","2020","03","15","04:00","-10.6","","-11.9","","90","","","","30","","39","","","M","97.85","","","","-21","","NA"
"-107.82","69.04","CAPE PEEL WEST","2400697","2020-03-15 05:00","2020","03","15","05:00","-11.0","","-12.4","","90","","","","30","","35","","","M","97.83","","","","-22","","NA"
"-107.82","69.04","CAPE PEEL WEST","2400697","2020-03-15 06:00","2020","03","15","06:00","-10.8","","-12.2","","90","","","","31","","46","","","M","97.74","","","","-22","","NA"
"-107.82","69.04","CAPE PEEL WEST","2400697","2020-03-15 07:00","2020","03","15","07:00","-12.2","","-13.7","","88","","","","31","","54","","","M","97.69","","","","-25","","NA"
"-107.82","69.04","CAPE PEEL WEST","2400697","2020-03-15 08:00","2020","03","15","08:00","-12.6","","-14.2","","88","","","","32","","57","","","M","97.68","","","","-26","","NA"
"-107.82","69.04","CAPE PEEL WEST","2400697","2020-03-15 09:00","2020","03","15","09:00","-11.9","","-13.4","","89","","","","31","","59","","","M","97.69","","","","-25","","NA"
"-107.82","69.04","CAPE PEEL WEST","2400697","2020-03-15 10:00","2020","03","15","10:00","-12.2","","-13.8","","88","","","","32","","67","","","M","97.70","","","","-26","","NA"
"-107.82","69.04","CAPE PEEL WEST","2400697","2020-03-15 11:00","2020","03","15","11:00","-16.3","","-18.3","","84","","","","32","","87","","","M","97.67","","","","-33","","NA"
"-107.82","69.04","CAPE PEEL WEST","2400697","2020-03-15 12:00","2020","03","15","12:00","-19.4","","-21.9","","80","","","","32","","68","","","M","97.89","","","","-36","","NA"
"-107.82","69.04","CAPE PEEL WEST","2400697","2020-03-15 13:00","2020","03","15","13:00","-20.1","","-22.7","","79","","","","32","","63","","","M","98.02","","","","-37","","NA"
"-107.82","69.04","CAPE PEEL WEST","2400697","2020-03-15 14:00","2020","03","15","14:00","-19.5","","-22.1","","80","","","","33","","61","","","M","98.02","","","","-36","","NA"
"-107.82","69.04","CAPE PEEL WEST","2400697","2020-03-15 15:00","2020","03","15","15:00","-22.3","","-25.3","","77","","","","33","","65","","","M","98.12","","","","-40","","NA"
"-107.82","69.04","CAPE PEEL WEST","2400697","2020-03-15 16:00","2020","03","15","16:00","-24.0","","-27.1","","75","","","","33","","68","","","M","98.21","","","","-43","","NA"
"-107.82","69.04","CAPE PEEL WEST","2400697","2020-03-15 17:00","2020","03","15","17:00","-24.7","","-28.0","","74","","","","33","","59","","","M","98.28","","","","-43","","NA"
"-107.82","69.04","CAPE PEEL WEST","2400697","2020-03-15 18:00","2020","03","15","18:00","-25.3","","-28.6","","73","","","","34","","61","","","M","98.32","","","","-44","","NA"
"-107.82","69.04","CAPE PEEL WEST","2400697","2020-03-15 19:00","2020","03","15","19:00","-23.9","","-27.1","","75","","","","35","","54","","","M","98.46","","","","-41","","NA"
"-107.82","69.04","CAPE PEEL WEST","2400697","2020-03-15 20:00","2020","03","15","20:00","-23.2","","-26.3","","75","","","","1","","37","","","M","98.60","","","","-38","","NA"
"-107.82","69.04","CAPE PEEL WEST","2400697","2020-03-15 21:00","2020","03","15","21:00","-23.3","","-26.4","","75","","","","1","","57","","","M","98.60","","","","-41","","NA"
"-107.82","69.04","CAPE PEEL WEST","2400697","2020-03-15 22:00","2020","03","15","22:00","-24.2","","-27.5","","74","","","","1","","57","","","M","98.76","","","","-42","","NA"
"-107.82","69.04","CAPE PEEL WEST","2400697","2020-03-15 23:00","2020","03","15","23:00","-25.1","","-28.5","","73","","","","1","","55","","","M","98.93","","","","-43","","NA"
"-107.82","69.04","CAPE PEEL WEST","2400697","2020-03-16 00:00","2020","03","16","00:00","-26.0","","-29.4","","72","","","","1","","46","","","M","99.10","","","","-43","","NA"
"-107.82","69.04","CAPE PEEL WEST","2400697","2020-03-16 01:00","2020","03","16","01:00","-26.8","","-30.4","","71","","","","1","","44","","","M","99.24","","","","-44","","NA"
"-107.82","69.04","CAPE PEEL WEST","2400697","2020-03-16 02:00","2020","03","16","02:00","-27.4","","-31.1","","71","","","","1","","37","","","M","99.44","","","","-44","","NA"
"-107.82","69.04","CAPE PEEL WEST","2400697","2020-03-16 03:00","2020","03","16","03:00","-27.8","","-31.5","","70","","","","1","","43","","","M","99.54","","","","-45","","NA"
"-107.82","69.04","CAPE PEEL WEST","2400697","2020-03-16 04:00","2020","03","16","04:00","-28.6","","-32.4","","69","","","","1","","44","","","M","99.65","","","","-46","","NA"
"-107.82","69.04","CAPE PEEL WEST","2400697","2020-03-16 05:00","2020","03","16","05:00","-29.0","","-32.9","","69","","","","36","","34","","","M","99.81","","","","-45","","NA"
"-107.82","69.04","CAPE PEEL WEST","2400697","2020-03-16 06:00","2020","03","16","06:00","-29.8","","-33.8","","68","","","","36","","39","","","M","99.87","","","","-47","","NA"
"-107.82","69.04","CAPE PEEL WEST","2400697","2020-03-16 07:00","2020","03","16","07:00","-30.2","","-34.2","","67","","","","35","","50","","","M","99.92","","","","-49","","NA"
"-107.82","69.04","CAPE PEEL WEST","2400697","2020-03-16 08:00","2020","03","16","08:00","-31.1","","-35.2","","66","","","","35","","46","","","M","99.96","","","","-50","","NA"
"-107.82","69.04","CAPE PEEL WEST","2400697","2020-03-16 09:00","2020","03","16","09:00","-31.0","","-35.2","","66","","","","34","","48","","","M","100.03","","","","-50","","NA"
"-107.82","69.04","CAPE PEEL WEST","2400697","2020-03-16 10:00","2020","03","16","10:00","-30.6","","-34.7","","67","","","","35","","50","","","M","100.03","","","","-50","","NA"
"-107.82","69.04","CAPE PEEL WEST","2400697","2020-03-16 11:00","2020","03","16","11:00","-29.7","","-33.8","","68","","","","34","","43","","","M","100.12","","","","-48","","NA"
"-107.82","69.04","CAPE PEEL WEST","2400697","2020-03-16 12:00","2020","03","16","12:00","-28.7","","-32.6","","69","","","","33","","39","","","M","100.15","","","","-46","","NA"
"-107.82","69.04","CAPE PEEL WEST","2400697","2020-03-16 13:00","2020","03","16","13:00","-28.1","","-31.9","","70","","","","34","","41","","","M","100.18","","","","-45","","NA"
"-107.82","69.04","CAPE PEEL WEST","2400697","2020-03-16 14:00","2020","03","16","14:00","-27.5","","-31.2","","70","","","","34","","37","","","M","100.21","","","","-44","","NA"
"-107.82","69.04","CAPE PEEL WEST","2400697","2020-03-16 15:00","2020","03","16","15:00","-26.7","","-30.4","","71","","","","34","","48","","","M","100.21","","","","-44","","NA"
"-107.82","69.04","CAPE PEEL WEST","2400697","2020-03-16 16:00","2020","03","16","16:00","-26.6","","-30.3","","71","","","","33","","52","","","M","100.23","","","","-45","","NA"
"-107.82","69.04","CAPE PEEL WEST","2400697","2020-03-16 17:00","2020","03","16","17:00","-27.2","","-30.9","","71","","","","33","","44","","","M","100.26","","","","-44","","NA"
"-107.82","69.04","CAPE PEEL WEST","2400697","2020-03-16 18:00","2020","03","16","18:00","-28.0","","-31.8","","70","","","","33","","48","","","M","100.26","","","","-46","","NA"
"-107.82","69.04","CAPE PEEL WEST","2400697","2020-03-16 19:00","2020","03","16","19:00","-28.2","","-32.0","","70","","","","33","","44","","","M","100.26","","","","-46","","NA"
"-107.82","69.04","CAPE PEEL WEST","2400697","2020-03-16 20:00","2020","03","16","20:00","-28.2","","-32.1","","69","","","","34","","48","","","M","100.20","","","","-46","","NA"
"-107.82","69.04","CAPE PEEL WEST","2400697","2020-03-16 21:00","2020","03","16","21:00","-28.3","","-32.1","","69","","","","34","","44","","","M","100.18","","","","-46","","NA"
"-107.82","69.04","CAPE PEEL WEST","2400697","2020-03-16 22:00","2020","03","16","22:00","-28.7","","-32.6","","69","","","","33","","37","","","M","100.24","","","","-45","","NA"
"-107.82","69.04","CAPE PEEL WEST","2400697","2020-03-16 23:00","2020","03","16","23:00","-29.1","","-33.0","","69","","","","33","","43","","","M","100.25","","","","-47","","NA"
"-107.82","69.04","CAPE PEEL WEST","2400697","2020-03-17 00:00","2020","03","17","00:00","-29.5","","-33.5","","68","","","","32","","43","","","M","100.23","","","","-47","","NA"
"-107.82","69.04","CAPE PEEL WEST","2400697","2020-03-17 01:00","2020","03","17","01:00","-29.5","","-33.5","","68","","","","34","","54","","","M","100.20","","","","-49","","NA"
"-107.82","69.04","CAPE PEEL WEST","2400697","2020-03-17 02:00","2020","03","17","02:00","-29.6","","-33.7","","68","","","","34","","50","","","M","100.21","","","","-48","","NA"
"-107.82","69.04","CAPE PEEL WEST","2400697","2020-03-17 03:00","2020","03","17","03:00","-28.7","","-32.6","","69","","","","34","","46","","","M","100.23","","","","-47","","NA"
"-107.82","69.04","CAPE PEEL WEST","2400697","2020-03-17 04:00","2020","03","17","04:00","-29.0","","-32.9","","69","","","","34","","44","","","M","100.23","","","","-47","","NA"
"-107.82","69.04","CAPE PEEL WEST","2400697","2020-03-17 05:00","2020","03","17","05:00","-28.7","","-32.6","","69","","","","16","","9","","","M","100.35","","","","-37","","NA"
"-107.82","69.04","CAPE PEEL WEST","2400697","2020-03-17 06:00","2020","03","17","06:00","-30.3","","-34.4","","67","","","","33","","17","","","M","100.32","","","","-43","","NA"
"-107.82","69.04","CAPE PEEL WEST","2400697","2020-03-17 07:00","2020","03","17","07:00","-29.9","","-33.9","","68","","","","32","","22","","","M","100.31","","","","-44","","NA"
"-107.82","69.04","CAPE PEEL WEST","2400697","2020-03-17 08:00","2020","03","17","08:00","-28.2","","-32.0","","69","","","","34","","26","","","M","100.29","","","","-42","","NA"
"-107.82","69.04","CAPE PEEL WEST","2400697","2020-03-17 09:00","2020","03","17","09:00","-27.4","","-31.1","","70","","","","33","","22","","","M","100.32","","","","-40","","NA"
"-107.82","69.04","CAPE PEEL WEST","2400697","2020-03-17 10:00","2020","03","17","10:00","-25.7","","-29.2","","72","","","","34","","15","","","M","100.32","","","","-36","","NA"
"-107.82","69.04","CAPE PEEL WEST","2400697","2020-03-17 11:00","2020","03","17","11:00","-24.1","","-27.4","","74","","","","33","","13","","","M","100.31","","","","-33","","NA"
"-107.82","69.04","CAPE PEEL WEST","2400697","2020-03-17 12:00","2020","03","17","12:00","-23.6","","-26.8","","75","","","","25","","11","","","M","100.35","","","","-32","","NA"
"-107.82","69.04","CAPE PEEL WEST","2400697","2020-03-17 13:00","2020","03","17","13:00","-23.3","","-26.4","","75","","","","26","","5","","","M","100.36","","","","-28","","NA"
"-107.82","69.04","CAPE PEEL WEST","2400697","2020-03-17 14:00","2020","03","17","14:00","-22.9","","-26.1","","75","","","","28","","5","","","M","100.36","","","","-28","","NA"
"-107.82","69.04","CAPE PEEL WEST","2400697","2020-03-17 15:00","2020","03","17","15:00","-22.1","","-25.1","","76","","","","25","","5","","","M","100.37","","","","-27","","NA"
"-107.82","69.04","CAPE PEEL WEST","2400697","2020-03-17 16:00","2020","03","17","16:00","-23.4","","-25.9","","75","","","","3","","4","","","M","100.40","","","","-27","","NA"
"-107.82","69.04","CAPE PEEL WEST","2400697","2020-03-17 17:00","2020","03","17","17:00","-23.8","","-27.0","","75","","","","3","","2","","","M","100.41","","","","-26","","NA"
"-107.82","69.04","CAPE PEEL WEST","2400697","2020-03-17 18:00","2020","03","17","18:00","-25.3","","-28.7","","73","","","","5","","4","","","M","100.41","","","","-29","","NA"
"-107.82","69.04","CAPE PEEL WEST","2400697","2020-03-17 19:00","2020","03","17","19:00","-25.6","","-29.0","","73","","","","17","","4","","","M","100.44","","","","-30","","NA"
"-107.82","69.04","CAPE PEEL WEST","2400697","2020-03-17 20:00","2020","03","17","20:00","-26.5","","-30.0","","72","","","","8","","9","","","M","100.46","","","","-34","","NA"
"-107.82","69.04","CAPE PEEL WEST","2400697","2020-03-17 21:00","2020","03","17","21:00","-26.0","","-29.5","","72","","","","9","","5","","","M","100.49","","","","-31","","NA"
"-107.82","69.04","CAPE PEEL WEST","2400697","2020-03-17 22:00","2020","03","17","22:00","-27.0","","-30.6","","71","","","","8","","8","","","M","100.53","","","","-34","","NA"
"-107.82","69.04","CAPE PEEL WEST","2400697","2020-03-17 23:00","2020","03","17","23:00","-26.3","","-29.9","","72","","","","5","","9","","","M","100.53","","","","-34","","NA"
"-107.82","69.04","CAPE PEEL WEST","2400697","2020-03-18 00:00","2020","03","18","00:00","-25.6","","-29.0","","72","","","","5","","8","","","M","100.58","","","","-33","","NA"
"-107.82","69.04","CAPE PEEL WEST","2400697","2020-03-18 01:00","2020","03","18","01:00","-25.0","","-28.4","","73","","","","5","","8","","","M","100.62","","","","-32","","NA"
"-107.82","69.04","CAPE PEEL WEST","2400697","2020-03-18 02:00","2020","03","18","02:00","-26.2","","-29.8","","72","","","","5","","8","","","M","100.63","","","","-34","","NA"
"-107.82","69.04","CAPE PEEL WEST","2400697","2020-03-18 03:00","2020","03","18","03:00","-25.8","","-29.4","","72","","","","5","","9","","","M","100.64","","","","-34","","NA"
"-107.82","69.04","CAPE PEEL WEST","2400697","2020-03-18 04:00","2020","03","18","04:00","-27.0","","-30.7","","71","","","","6","","11","","","M","100.68","","","","-36","","NA"
"-107.82","69.04","CAPE PEEL WEST","2400697","2020-03-18 05:00","2020","03","18","05:00","-26.5","","-30.0","","71","","","","4","","11","","","M","100.74","","","","-35","","NA"
"-107.82","69.04","CAPE PEEL WEST","2400697","2020-03-18 06:00","2020","03","18","06:00","-25.7","","-29.2","","72","","","","3","","5","","","M","100.75","","","","-31","","NA"
"-107.82","69.04","CAPE PEEL WEST","2400697","2020-03-18 07:00","2020","03","18","07:00","-28.1","","-31.9","","70","","","","4","","11","","","M","100.80","","","","-37","","NA"
"-107.82","69.04","CAPE PEEL WEST","2400697","2020-03-18 08:00","2020","03","18","08:00","-25.3","","-28.8","","73","","","","3","","5","","","M","100.82","","","","-30","","NA"
"-107.82","69.04","CAPE PEEL WEST","2400697","2020-03-18 09:00","2020","03","18","09:00","-25.1","","-28.6","","73","","","","6","","5","","","M","100.87","","","","-30","","NA"
"-107.82","69.04","CAPE PEEL WEST","2400697","2020-03-18 10:00","2020","03","18","10:00","-24.2","","-27.5","","74","","","","7","","5","","","M","100.91","","","","-29","","NA"
"-107.82","69.04","CAPE PEEL WEST","2400697","2020-03-18 11:00","2020","03","18","11:00","-23.5","","-26.7","","74","","","","10","","4","","","M","100.93","","","","-27","","NA"
"-107.82","69.04","CAPE PEEL WEST","2400697","2020-03-18 12:00","2020","03","18","12:00","-22.8","","-25.9","","75","","","","31","","2","","","M","100.97","","","","-25","","NA"
"-107.82","69.04","CAPE PEEL WEST","2400697","2020-03-18 13:00","2020","03","18","13:00","-22.9","","-26.1","","75","","","","4","","4","","","M","100.99","","","","-27","","NA"
"-107.82","69.04","CAPE PEEL WEST","2400697","2020-03-18 14:00","2020","03","18","14:00","-22.2","","-25.3","","76","","","","27","","2","","","M","101.03","","","","-24","","NA"
"-107.82","69.04","CAPE PEEL WEST","2400697","2020-03-18 15:00","2020","03","18","15:00","-24.0","","-27.3","","74","","","","25","","4","","","M","101.00","","","","-28","","NA"
"-107.82","69.04","CAPE PEEL WEST","2400697","2020-03-18 16:00","2020","03","18","16:00","-24.3","","-27.7","","74","","","","27","","5","","","M","101.03","","","","-29","","NA"
"-107.82","69.04","CAPE PEEL WEST","2400697","2020-03-18 17:00","2020","03","18","17:00","-24.6","","-27.9","","74","","","","26","","5","","","M","101.02","","","","-29","","NA"
"-107.82","69.04","CAPE PEEL WEST","2400697","2020-03-18 18:00","2020","03","18","18:00","-24.4","","-27.7","","74","","","","28","","8","","","M","101.03","","","","-31","","NA"
"-107.82","69.04","CAPE PEEL WEST","2400697","2020-03-18 19:00","2020","03","18","19:00","-25.0","","-28.4","","73","","","","24","","8","","","M","101.02","","","","-32","","NA"
"-107.82","69.04","CAPE PEEL WEST","2400697","2020-03-18 20:00","2020","03","18","20:00","-26.6","","-30.1","","71","","","","26","","9","","","M","101.05","","","","-35","","NA"
"-107.82","69.04","CAPE PEEL WEST","2400697","2020-03-18 21:00","2020","03","18","21:00","-26.6","","-30.2","","71","","","","25","","8","","","M","101.03","","","","-34","","NA"
"-107.82","69.04","CAPE PEEL WEST","2400697","2020-03-18 22:00","2020","03","18","22:00","-28.3","","-32.2","","70","","","","24","","8","","","M","101.03","","","","-36","","NA"
"-107.82","69.04","CAPE PEEL WEST","2400697","2020-03-18 23:00","2020","03","18","23:00","-29.2","","-33.2","","69","","","","24","","13","","","M","101.00","","","","-40","","NA"
"-107.82","69.04","CAPE PEEL WEST","2400697","2020-03-19 00:00","2020","03","19","00:00","-28.7","","-32.6","","69","","","","23","","11","","","M","100.96","","","","-38","","NA"
"-107.82","69.04","CAPE PEEL WEST","2400697","2020-03-19 01:00","2020","03","19","01:00","-28.5","","-32.3","","69","","","","23","","15","","","M","100.93","","","","-40","","NA"
"-107.82","69.04","CAPE PEEL WEST","2400697","2020-03-19 02:00","2020","03","19","02:00","-28.6","","-32.5","","69","","","","24","","13","","","M","100.90","","","","-39","","NA"
"-107.82","69.04","CAPE PEEL WEST","2400697","2020-03-19 03:00","2020","03","19","03:00","-29.9","","-33.9","","68","","","","24","","13","","","M","100.85","","","","-40","","NA"
"-107.82","69.04","CAPE PEEL WEST","2400697","2020-03-19 04:00","2020","03","19","04:00","-30.8","","-35.0","","67","","","","25","","15","","","M","100.77","","","","-42","","NA"
"-107.82","69.04","CAPE PEEL WEST","2400697","2020-03-19 05:00","2020","03","19","05:00","-29.6","","-33.6","","68","","","","23","","9","","","M","100.71","","","","-38","","NA"
"-107.82","69.04","CAPE PEEL WEST","2400697","2020-03-19 06:00","2020","03","19","06:00","-29.7","","-33.7","","68","","","","21","","9","","","M","100.65","","","","-38","","NA"
"-107.82","69.04","CAPE PEEL WEST","2400697","2020-03-19 07:00","2020","03","19","07:00","-29.4","","-33.4","","68","","","","24","","9","","","M","100.63","","","","-38","","NA"
"-107.82","69.04","CAPE PEEL WEST","2400697","2020-03-19 08:00","2020","03","19","08:00","-27.0","","-30.7","","71","","","","22","","11","","","M","100.57","","","","-36","","NA"
"-107.82","69.04","CAPE PEEL WEST","2400697","2020-03-19 09:00","2020","03","19","09:00","-27.2","","-31.0","","70","","","","18","","9","","","M","100.51","","","","-35","","NA"
"-107.82","69.04","CAPE PEEL WEST","2400697","2020-03-19 10:00","2020","03","19","10:00","-26.5","","-30.1","","71","","","","20","","9","","","M","100.46","","","","-34","","NA"
"-107.82","69.04","CAPE PEEL WEST","2400697","2020-03-19 11:00","2020","03","19","11:00","-26.2","","-29.9","","71","","","","24","","11","","","M","100.41","","","","-35","","NA"
"-107.82","69.04","CAPE PEEL WEST","2400697","2020-03-19 12:00","2020","03","19","12:00","-25.3","","-28.8","","72","","","","25","","13","","","M","100.38","","","","-35","","NA"
"-107.82","69.04","CAPE PEEL WEST","2400697","2020-03-19 13:00","2020","03","19","13:00","-24.1","","-27.5","","74","","","","24","","11","","","M","100.34","","","","-33","","NA"
"-107.82","69.04","CAPE PEEL WEST","2400697","2020-03-19 14:00","2020","03","19","14:00","-24.2","","-27.5","","74","","","","25","","11","","","M","100.31","","","","-33","","NA"
"-107.82","69.04","CAPE PEEL WEST","2400697","2020-03-19 15:00","2020","03","19","15:00","-23.9","","-27.1","","74","","","","23","","9","","","M","100.24","","","","-31","","NA"
"-107.82","69.04","CAPE PEEL WEST","2400697","2020-03-19 16:00","2020","03","19","16:00","-24.0","","-27.3","","74","","","","23","","13","","","M","100.17","","","","-33","","NA"
"-107.82","69.04","CAPE PEEL WEST","2400697","2020-03-19 17:00","2020","03","19","17:00","-24.5","","-27.8","","74","","","","24","","11","","","M","100.14","","","","-33","","NA"
"-107.82","69.04","CAPE PEEL WEST","2400697","2020-03-19 18:00","2020","03","19","18:00","-24.4","","-27.7","","74","","","","24","","9","","","M","100.14","","","","-32","","NA"
"-107.82","69.04","CAPE PEEL WEST","2400697","2020-03-19 19:00","2020","03","19","19:00","-23.4","","-26.6","","75","","","","25","","5","","","M","100.11","","","","-28","","NA"
"-107.82","69.04","CAPE PEEL WEST","2400697","2020-03-19 20:00","2020","03","19","20:00","-22.7","","-25.7","","76","","","","20","","4","","","M","100.08","","","","-26","","NA"
"-107.82","69.04","CAPE PEEL WEST","2400697","2020-03-19 21:00","2020","03","19","21:00","-21.2","","-24.1","","78","","","","19","","11","","","M","100.03","","","","-29","","NA"
"-107.82","69.04","CAPE PEEL WEST","2400697","2020-03-19 22:00","2020","03","19","22:00","-20.9","","-23.8","","78","","","","19","","9","","","M","100.02","","","","-28","","NA"
"-107.82","69.04","CAPE PEEL WEST","2400697","2020-03-19 23:00","2020","03","19","23:00","-21.1","","-24.0","","78","","","","20","","15","","","M","99.97","","","","-30","","NA"
"-107.82","69.04","CAPE PEEL WEST","2400697","2020-03-20 00:00","2020","03","20","00:00","-21.2","","-24.1","","78","","","","20","","11","","","M","99.89","","","","-29","","NA"
"-107.82","69.04","CAPE PEEL WEST","2400697","2020-03-20 01:00","2020","03","20","01:00","-20.9","","-23.7","","78","","","","21","","8","","","M","99.85","","","","-27","","NA"
"-107.82","69.04","CAPE PEEL WEST","2400697","2020-03-20 02:00","2020","03","20","02:00","-20.6","","-23.4","","78","","","","21","","9","","","M","99.83","","","","-27","","NA"
"-107.82","69.04","CAPE PEEL WEST","2400697","2020-03-20 03:00","2020","03","20","03:00","-20.7","","-23.5","","78","","","","24","","9","","","M","99.82","","","","-28","","NA"
"-107.82","69.04","CAPE PEEL WEST","2400697","2020-03-20 04:00","2020","03","20","04:00"
"-107.82","69.04","CAPE PEEL WEST","2400697","2020-03-20 05:00","2020","03","20","05:00"
"-107.82","69.04","CAPE PEEL WEST","2400697","2020-03-20 06:00","2020","03","20","06:00","-20.8","","-23.6","","78","","","","20","","9","","","M","99.59","","","","-28","","NA"
"-107.82","69.04","CAPE PEEL WEST","2400697","2020-03-20 07:00","2020","03","20","07:00","-20.9","","-23.7","","78","","","","18","","11","","","M","99.52","","","","-29","","NA"
"-107.82","69.04","CAPE PEEL WEST","2400697","2020-03-20 08:00","2020","03","20","08:00","-21.0","","-23.8","","78","","","","20","","13","","","M","99.48","","","","-30","","NA"
"-107.82","69.04","CAPE PEEL WEST","2400697","2020-03-20 09:00","2020","03","20","09:00","-20.3","","-23.0","","79","","","","20","","15","","","M","99.37","","","","-29","","NA"
"-107.82","69.04","CAPE PEEL WEST","2400697","2020-03-20 10:00","2020","03","20","10:00","-21.0","","-23.8","","78","","","","18","","15","","","M","99.28","","","","-30","","NA"
"-107.82","69.04","CAPE PEEL WEST","2400697","2020-03-20 11:00","2020","03","20","11:00","-21.8","","-24.7","","77","","","","15","","11","","","M","99.16","","","","-30","","NA"
"-107.82","69.04","CAPE PEEL WEST","2400697","2020-03-20 12:00","2020","03","20","12:00","-21.1","","-24.0","","77","","","","18","","17","","","M","99.03","","","","-31","","NA"
"-107.82","69.04","CAPE PEEL WEST","2400697","2020-03-20 13:00","2020","03","20","13:00","-20.3","","-23.1","","78","","","","20","","15","","","M","98.94","","","","-29","","NA"
"-107.82","69.04","CAPE PEEL WEST","2400697","2020-03-20 14:00","2020","03","20","14:00","-17.9","","-20.4","","81","","","","18","","11","","","M","98.84","","","","-25","","NA"
"-107.82","69.04","CAPE PEEL WEST","2400697","2020-03-20 15:00","2020","03","20","15:00","-18.1","","-20.6","","81","","","","17","","11","","","M","98.71","","","","-25","","NA"
"-107.82","69.04","CAPE PEEL WEST","2400697","2020-03-20 16:00","2020","03","20","16:00","-18.2","","-20.6","","81","","","","16","","9","","","M","98.62","","","","-25","","NA"
"-107.82","69.04","CAPE PEEL WEST","2400697","2020-03-20 17:00","2020","03","20","17:00","-17.1","","-19.4","","82","","","","17","","17","","","M","98.52","","","","-26","","NA"
"-107.82","69.04","CAPE PEEL WEST","2400697","2020-03-20 18:00","2020","03","20","18:00","-16.2","","-18.3","","83","","","","14","","11","","","M","98.44","","","","-23","","NA"
"-107.82","69.04","CAPE PEEL WEST","2400697","2020-03-20 19:00","2020","03","20","19:00"
"-107.82","69.04","CAPE PEEL WEST","2400697","2020-03-20 20:00","2020","03","20","20:00"
"-107.82","69.04","CAPE PEEL WEST","2400697","2020-03-20 21:00","2020","03","20","21:00"
"-107.82","69.04","CAPE PEEL WEST","2400697","2020-03-20 22:00","2020","03","20","22:00"
"-107.82","69.04","CAPE PEEL WEST","2400697","2020-03-20 23:00","2020","03","20","23:00"
"-107.82","69.04","CAPE PEEL WEST","2400697","2020-03-21 00:00","2020","03","21","00:00"
"-107.82","69.04","CAPE PEEL WEST","2400697","2020-03-21 01:00","2020","03","21","01:00"
"-107.82","69.04","CAPE PEEL WEST","2400697","2020-03-21 02:00","2020","03","21","02:00"
"-107.82","69.04","CAPE PEEL WEST","2400697","2020-03-21 03:00","2020","03","21","03:00"
"-107.82","69.04","CAPE PEEL WEST","2400697","2020-03-21 04:00","2020","03","21","04:00"
"-107.82","69.04","CAPE PEEL WEST","2400697","2020-03-21 05:00","2020","03","21","05:00"
"-107.82","69.04","CAPE PEEL WEST","2400697","2020-03-21 06:00","2020","03","21","06:00","-13.8","","-15.6","","86","","","","33","","46","","","M","98.26","","","","-27","","NA"
"-107.82","69.04","CAPE PEEL WEST","2400697","2020-03-21 07:00","2020","03","21","07:00","-13.1","","-14.7","","87","","","","33","","43","","","M","98.31","","","","-25","","NA"
"-107.82","69.04","CAPE PEEL WEST","2400697","2020-03-21 08:00","2020","03","21","08:00","-12.8","","-14.5","","87","","","","33","","46","","","M","98.33","","","","-25","","NA"
"-107.82","69.04","CAPE PEEL WEST","2400697","2020-03-21 09:00","2020","03","21","09:00","-12.1","","-13.6","","88","","","","33","","46","","","M","98.33","","","","-24","","NA"
"-107.82","69.04","CAPE PEEL WEST","2400697","2020-03-21 10:00","2020","03","21","10:00","-11.1","","-12.6","","89","","","","28","","15","","","M","98.50","","","","-18","","NA"
"-107.82","69.04","CAPE PEEL WEST","2400697","2020-03-21 11:00","2020","03","21","11:00","-10.8","","-12.1","","90","","","","24","","18","","","M","98.47","","","","-18","","NA"
"-107.82","69.04","CAPE PEEL WEST","2400697","2020-03-21 12:00","2020","03","21","12:00","-10.6","","-12.0","","90","","","","25","","24","","","M","98.46","","","","-19","","NA"
"-107.82","69.04","CAPE PEEL WEST","2400697","2020-03-21 13:00","2020","03","21","13:00","-10.1","","-11.3","","90","","","","28","","21","","","M","98.47","","","","-18","","NA"
"-107.82","69.04","CAPE PEEL WEST","2400697","2020-03-21 14:00","2020","03","21","14:00","-8.8","","-10.0","","91","","","","31","","37","","","M","98.38","","","","-19","","NA"
"-107.82","69.04","CAPE PEEL WEST","2400697","2020-03-21 15:00","2020","03","21","15:00","-8.5","","-9.6","","92","","","","30","","30","","","M","98.40","","","","-18","","NA"
"-107.82","69.04","CAPE PEEL WEST","2400697","2020-03-21 16:00","2020","03","21","16:00","-8.9","","-9.9","","92","","","","27","","30","","","M","98.41","","","","-18","","NA"
"-107.82","69.04","CAPE PEEL WEST","2400697","2020-03-21 17:00","2020","03","21","17:00","-8.8","","-9.8","","92","","","","28","","28","","","M","98.41","","","","-18","","NA"
"-107.82","69.04","CAPE PEEL WEST","2400697","2020-03-21 18:00","2020","03","21","18:00","-8.8","","-9.8","","92","","","","28","","28","","","M","98.41","","","","-18","","NA"
"-107.82","69.04","CAPE PEEL WEST","2400697","2020-03-21 19:00","2020","03","21","19:00","-9.1","","-10.2","","92","","","","29","","28","","","M","98.39","","","","-18","","NA"
"-107.82","69.04","CAPE PEEL WEST","2400697","2020-03-21 20:00","2020","03","21","20:00","-9.3","","-10.4","","91","","","","30","","31","","","M","98.35","","","","-19","","NA"
"-107.82","69.04","CAPE PEEL WEST","2400697","2020-03-21 21:00","2020","03","21","21:00","-9.5","","-10.6","","91","","","","30","","34","","","M","98.35","","","","-19","","NA"
"-107.82","69.04","CAPE PEEL WEST","2400697","2020-03-21 22:00","2020","03","21","22:00","-9.7","","-10.9","","91","","","","31","","37","","","M","98.32","","","","-20","","NA"
"-107.82","69.04","CAPE PEEL WEST","2400697","2020-03-21 23:00","2020","03","21","23:00","-10.2","","-11.4","","91","","","","31","","35","","","M","98.33","","","","-20","","NA"
"-107.82","69.04","CAPE PEEL WEST","2400697","2020-03-22 00:00","2020","03","22","00:00","-10.9","","-12.2","","90","","","","30","","34","","","M","98.31","","","","-21","","NA"
"-107.82","69.04","CAPE PEEL WEST","2400697","2020-03-22 01:00","2020","03","22","01:00","-11.3","","-12.7","","89","","","","31","","30","","","M","98.29","","","","-21","","NA"
"-107.82","69.04","CAPE PEEL WEST","2400697","2020-03-22 02:00","2020","03","22","02:00","-12.1","","-13.6","","89","","","","31","","41","","","M","98.29","","","","-24","","NA"
"-107.82","69.04","CAPE PEEL WEST","2400697","2020-03-22 03:00","2020","03","22","03:00","-15.0","","-16.9","","85","","","","31","","37","","","M","98.30","","","","-27","","NA"
"-107.82","69.04","CAPE PEEL WEST","2400697","2020-03-22 04:00","2020","03","22","04:00","-17.6","","-19.8","","82","","","","32","","41","","","M","98.29","","","","-31","","NA"
"-107.82","69.04","CAPE PEEL WEST","2400697","2020-03-22 05:00","2020","03","22","05:00","-19.1","","-21.6","","80","","","","32","","34","","","M","98.35","","","","-32","","NA"
"-107.82","69.04","CAPE PEEL WEST","2400697","2020-03-22 06:00","2020","03","22","06:00","-19.9","","-22.4","","80","","","","32","","39","","","M","98.36","","","","-34","","NA"
"-107.82","69.04","CAPE PEEL WEST","2400697","2020-03-22 07:00","2020","03","22","07:00","-19.4","","-22.0","","80","","","","31","","46","","","M","98.33","","","","-34","","NA"
"-107.82","69.04","CAPE PEEL WEST","2400697","2020-03-22 08:00","2020","03","22","08:00","-18.8","","-21.3","","81","","","","33","","31","","","M","98.42","","","","-31","","NA"
"-107.82","69.04","CAPE PEEL WEST","2400697","2020-03-22 09:00","2020","03","22","09:00","-18.6","","-21.1","","81","","","","32","","41","","","M","98.38","","","","-32","","NA"
"-107.82","69.04","CAPE PEEL WEST","2400697","2020-03-22 10:00","2020","03","22","10:00","-18.5","","-21.0","","81","","","","32","","41","","","M","98.41","","","","-32","","NA"
"-107.82","69.04","CAPE PEEL WEST","2400697","2020-03-22 11:00","2020","03","22","11:00","-18.4","","-20.9","","81","","","","33","","44","","","M","98.38","","","","-33","","NA"
"-107.82","69.04","CAPE PEEL WEST","2400697","2020-03-22 12:00","2020","03","22","12:00","-18.2","","-20.8","","80","","","","33","","39","","","M","98.43","","","","-32","","NA"
"-107.82","69.04","CAPE PEEL WEST","2400697","2020-03-22 13:00","2020","03","22","13:00","-18.1","","-20.6","","81","","","","32","","37","","","M","98.50","","","","-31","","NA"
"-107.82","69.04","CAPE PEEL WEST","2400697","2020-03-22 14:00","2020","03","22","14:00","-17.8","","-20.3","","81","","","","32","","37","","","M","98.54","","","","-31","","NA"
"-107.82","69.04","CAPE PEEL WEST","2400697","2020-03-22 15:00","2020","03","22","15:00","-17.8","","-20.2","","81","","","","32","","30","","","M","98.56","","","","-30","","NA"
"-107.82","69.04","CAPE PEEL WEST","2400697","2020-03-22 16:00","2020","03","22","16:00","-18.1","","-20.6","","81","","","","31","","37","","","M","98.59","","","","-31","","NA"
"-107.82","69.04","CAPE PEEL WEST","2400697","2020-03-22 17:00","2020","03","22","17:00","-19.3","","-21.9","","80","","","","32","","31","","","M","98.65","","","","-32","","NA"
"-107.82","69.04","CAPE PEEL WEST","2400697","2020-03-22 18:00","2020","03","22","18:00","-20.1","","-22.7","","79","","","","32","","31","","","M","98.68","","","","-33","","NA"
"-107.82","69.04","CAPE PEEL WEST","2400697","2020-03-22 19:00","2020","03","22","19:00","-21.3","","-24.1","","78","","","","31","","35","","","M","98.72","","","","-35","","NA"
"-107.82","69.04","CAPE PEEL WEST","2400697","2020-03-22 20:00","2020","03","22","20:00","-21.6","","-24.5","","77","","","","32","","39","","","M","98.76","","","","-36","","NA"
"-107.82","69.04","CAPE PEEL WEST","2400697","2020-03-22 21:00","2020","03","22","21:00","-22.2","","-25.2","","77","","","","32","","44","","","M","98.81","","","","-38","","NA"
"-107.82","69.04","CAPE PEEL WEST","2400697","2020-03-22 22:00","2020","03","22","22:00","-23.4","","-26.5","","75","","","","32","","52","","","M","98.84","","","","-40","","NA"
"-107.82","69.04","CAPE PEEL WEST","2400697","2020-03-22 23:00","2020","03","22","23:00","-24.2","","-27.4","","74","","","","33","","57","","","M","98.85","","","","-42","","NA"
"-107.82","69.04","CAPE PEEL WEST","2400697","2020-03-23 00:00","2020","03","23","00:00","-24.9","","-28.2","","74","","","","33","","59","","","M","98.94","","","","-43","","NA"
"-107.82","69.04","CAPE PEEL WEST","2400697","2020-03-23 01:00","2020","03","23","01:00","-26.2","","-29.6","","72","","","","33","","55","","","M","98.97","","","","-44","","NA"
"-107.82","69.04","CAPE PEEL WEST","2400697","2020-03-23 02:00","2020","03","23","02:00","-27.2","","-30.8","","71","","","","32","","65","","","M","98.98","","","","-47","","NA"
"-107.82","69.04","CAPE PEEL WEST","2400697","2020-03-23 03:00","2020","03","23","03:00","-28.0","","-31.8","","70","","","","32","","50","","","M","99.14","","","","-46","","NA"
"-107.82","69.04","CAPE PEEL WEST","2400697","2020-03-23 04:00","2020","03","23","04:00","-28.7","","-32.6","","69","","","","32","","52","","","M","99.19","","","","-48","","NA"
"-107.82","69.04","CAPE PEEL WEST","2400697","2020-03-23 05:00","2020","03","23","05:00","-28.6","","-32.4","","69","","","","32","","39","","","M","99.32","","","","-45","","NA"
"-107.82","69.04","CAPE PEEL WEST","2400697","2020-03-23 06:00","2020","03","23","06:00","-28.8","","-32.7","","69","","","","31","","46","","","M","99.34","","","","-47","","NA"
"-107.82","69.04","CAPE PEEL WEST","2400697","2020-03-23 07:00","2020","03","23","07:00","-28.2","","-32.0","","70","","","","31","","43","","","M","99.35","","","","-46","","NA"
"-107.82","69.04","CAPE PEEL WEST","2400697","2020-03-23 08:00","2020","03","23","08:00","-26.7","","-30.3","","71","","","","30","","46","","","M","99.26","","","","-44","","NA"
"-107.82","69.04","CAPE PEEL WEST","2400697","2020-03-23 09:00","2020","03","23","09:00","-26.3","","-29.9","","71","","","","28","","37","","","M","99.26","","","","-42","","NA"
"-107.82","69.04","CAPE PEEL WEST","2400697","2020-03-23 10:00","2020","03","23","10:00","-25.7","","-29.4","","71","","","","29","","48","","","M","99.16","","","","-43","","NA"
"-107.82","69.04","CAPE PEEL WEST","2400697","2020-03-23 11:00","2020","03","23","11:00","-24.3","","-27.7","","73","","","","28","","59","","","M","99.10","","","","-42","","NA"
"-107.82","69.04","CAPE PEEL WEST","2400697","2020-03-23 12:00","2020","03","23","12:00","-23.0","","-26.2","","75","","","","28","","55","","","M","99.09","","","","-40","","NA"
"-107.82","69.04","CAPE PEEL WEST","2400697","2020-03-23 13:00","2020","03","23","13:00","-21.6","","-24.6","","76","","","","28","","55","","","M","99.03","","","","-38","","NA"
"-107.82","69.04","CAPE PEEL WEST","2400697","2020-03-23 14:00","2020","03","23","14:00","-21.6","","-24.6","","76","","","","29","","48","","","M","99.00","","","","-37","","NA"
"-107.82","69.04","CAPE PEEL WEST","2400697","2020-03-23 15:00","2020","03","23","15:00","-21.5","","-24.5","","76","","","","30","","52","","","M","98.98","","","","-38","","NA"
"-107.82","69.04","CAPE PEEL WEST","2400697","2020-03-23 16:00","2020","03","23","16:00","-22.0","","-25.1","","76","","","","30","","52","","","M","98.99","","","","-38","","NA"
"-107.82","69.04","CAPE PEEL WEST","2400697","2020-03-23 17:00","2020","03","23","17:00","-23.0","","-26.2","","75","","","","30","","46","","","M","98.99","","","","-39","","NA"
"-107.82","69.04","CAPE PEEL WEST","2400697","2020-03-23 18:00","2020","03","23","18:00","-23.4","","-26.5","","75","","","","30","","46","","","M","98.97","","","","-40","","NA"
"-107.82","69.04","CAPE PEEL WEST","2400697","2020-03-23 19:00","2020","03","23","19:00","-23.7","","-26.9","","75","","","","31","","43","","","M","98.99","","","","-40","","NA"
"-107.82","69.04","CAPE PEEL WEST","2400697","2020-03-23 20:00","2020","03","23","20:00","-23.8","","-27.0","","75","","","","30","","37","","","M","98.99","","","","-39","","NA"
"-107.82","69.04","CAPE PEEL WEST","2400697","2020-03-23 21:00","2020","03","23","21:00","-23.6","","-26.7","","75","","","","30","","48","","","M","98.94","","","","-40","","NA"
"-107.82","69.04","CAPE PEEL WEST","2400697","2020-03-23 22:00","2020","03","23","22:00","-23.3","","-26.4","","75","","","","30","","39","","","M","98.99","","","","-38","","NA"
"-107.82","69.04","CAPE PEEL WEST","2400697","2020-03-23 23:00","2020","03","23","23:00","-22.9","","-26.0","","76","","","","29","","43","","","M","98.98","","","","-38","","NA"
"-107.82","69.04","CAPE PEEL WEST","2400697","2020-03-24 00:00","2020","03","24","00:00","-22.4","","-25.4","","76","","","","28","","41","","","M","98.93","","","","-37","","NA"
"-107.82","69.04","CAPE PEEL WEST","2400697","2020-03-24 01:00","2020","03","24","01:00","-22.1","","-25.0","","77","","","","25","","26","","","M","98.92","","","","-35","","NA"
"-107.82","69.04","CAPE PEEL WEST","2400697","2020-03-24 02:00","2020","03","24","02:00","-21.6","","-24.5","","77","","","","29","","52","","","M","98.83","","","","-38","","NA"
"-107.82","69.04","CAPE PEEL WEST","2400697","2020-03-24 03:00","2020","03","24","03:00","-21.5","","-24.4","","77","","","","27","","39","","","M","98.80","","","","-36","","NA"
"-107.82","69.04","CAPE PEEL WEST","2400697","2020-03-24 04:00","2020","03","24","04:00","-20.2","","-22.8","","79","","","","28","","44","","","M","98.73","","","","-35","","NA"
"-107.82","69.04","CAPE PEEL WEST","2400697","2020-03-24 05:00","2020","03","24","05:00","-20.6","","-23.3","","78","","","","28","","44","","","M","98.63","","","","-35","","NA"
"-107.82","69.04","CAPE PEEL WEST","2400697","2020-03-24 06:00","2020","03","24","06:00","-20.6","","-23.3","","78","","","","28","","50","","","M","98.55","","","","-36","","NA"
"-107.82","69.04","CAPE PEEL WEST","2400697","2020-03-24 07:00","2020","03","24","07:00","-21.1","","-23.9","","78","","","","28","","37","","","M","98.50","","","","-35","","NA"
"-107.82","69.04","CAPE PEEL WEST","2400697","2020-03-24 08:00","2020","03","24","08:00","-22.8","","-25.9","","76","","","","25","","31","","","M","98.44","","","","-36","","NA"
"-107.82","69.04","CAPE PEEL WEST","2400697","2020-03-24 09:00","2020","03","24","09:00","-22.5","","-25.6","","76","","","","27","","31","","","M","98.38","","","","-36","","NA"
"-107.82","69.04","CAPE PEEL WEST","2400697","2020-03-24 10:00","2020","03","24","10:00","-21.6","","-24.7","","76","","","","28","","35","","","M","98.33","","","","-36","","NA"
"-107.82","69.04","CAPE PEEL WEST","2400697","2020-03-24 11:00","2020","03","24","11:00","-21.0","","-24.0","","76","","","","30","","37","","","M","98.29","","","","-35","","NA"
"-107.82","69.04","CAPE PEEL WEST","2400697","2020-03-24 12:00","2020","03","24","12:00","-20.8","","-23.9","","77","","","","30","","37","","","M","98.27","","","","-35","","NA"
"-107.82","69.04","CAPE PEEL WEST","2400697","2020-03-24 13:00","2020","03","24","13:00","-20.8","","-23.8","","77","","","","29","","35","","","M","98.27","","","","-34","","NA"
"-107.82","69.04","CAPE PEEL WEST","2400697","2020-03-24 14:00","2020","03","24","14:00","-20.7","","-23.7","","77","","","","31","","30","","","M","98.28","","","","-33","","NA"
"-107.82","69.04","CAPE PEEL WEST","2400697","2020-03-24 15:00","2020","03","24","15:00","-21.2","","-24.2","","77","","","","30","","26","","","M","98.27","","","","-33","","NA"
"-107.82","69.04","CAPE PEEL WEST","2400697","2020-03-24 16:00","2020","03","24","16:00","-21.7","","-24.7","","76","","","","31","","24","","","M","98.27","","","","-34","","NA"
"-107.82","69.04","CAPE PEEL WEST","2400697","2020-03-24 17:00","2020","03","24","17:00","-22.4","","-25.5","","76","","","","31","","24","","","M","98.26","","","","-34","","NA"
"-107.82","69.04","CAPE PEEL WEST","2400697","2020-03-24 18:00","2020","03","24","18:00","-23.7","","-26.9","","75","","","","32","","28","","","M","98.25","","","","-37","","NA"
"-107.82","69.04","CAPE PEEL WEST","2400697","2020-03-24 19:00","2020","03","24","19:00","-24.6","","-27.9","","74","","","","33","","35","","","M","98.25","","","","-39","","NA"
"-107.82","69.04","CAPE PEEL WEST","2400697","2020-03-24 20:00","2020","03","24","20:00","-26.1","","-29.6","","72","","","","31","","28","","","M","98.27","","","","-40","","NA"
"-107.82","69.04","CAPE PEEL WEST","2400697","2020-03-24 21:00","2020","03","24","21:00","-26.7","","-30.3","","71","","","","31","","28","","","M","98.23","","","","-41","","NA"
"-107.82","69.04","CAPE PEEL WEST","2400697","2020-03-24 22:00","2020","03","24","22:00","-26.7","","-30.3","","71","","","","32","","28","","","M","98.22","","","","-41","","NA"
"-107.82","69.04","CAPE PEEL WEST","2400697","2020-03-24 23:00","2020","03","24","23:00","-27.7","","-31.4","","70","","","","31","","28","","","M","98.21","","","","-42","","NA"
"-107.82","69.04","CAPE PEEL WEST","2400697","2020-03-25 00:00","2020","03","25","00:00","-27.4","","-31.1","","71","","","","32","","37","","","M","98.17","","","","-44","","NA"
"-107.82","69.04","CAPE PEEL WEST","2400697","2020-03-25 01:00","2020","03","25","01:00","-27.7","","-31.5","","70","","","","32","","35","","","M","98.16","","","","-44","","NA"
"-107.82","69.04","CAPE PEEL WEST","2400697","2020-03-25 02:00","2020","03","25","02:00","-27.5","","-31.2","","70","","","","31","","30","","","M","98.16","","","","-42","","NA"
"-107.82","69.04","CAPE PEEL WEST","2400697","2020-03-25 03:00","2020","03","25","03:00","-27.0","","-30.7","","71","","","","30","","22","","","M","98.12","","","","-40","","NA"
"-107.82","69.04","CAPE PEEL WEST","2400697","2020-03-25 04:00","2020","03","25","04:00","-26.4","","-29.9","","72","","","","29","","18","","","M","98.10","","","","-38","","NA"
"-107.82","69.04","CAPE PEEL WEST","2400697","2020-03-25 05:00","2020","03","25","05:00","-25.9","","-29.4","","72","","","","27","","13","","","M","98.07","","","","-36","","NA"
"-107.82","69.04","CAPE PEEL WEST","2400697","2020-03-25 06:00","2020","03","25","06:00","-26.2","","-29.7","","72","","","","31","","24","","","M","98.03","","","","-39","","NA"
"-107.82","69.04","CAPE PEEL WEST","2400697","2020-03-25 07:00","2020","03","25","07:00","-24.8","","-28.2","","73","","","","30","","18","","","M","97.98","","","","-36","","NA"
"-107.82","69.04","CAPE PEEL WEST","2400697","2020-03-25 08:00","2020","03","25","08:00","-24.1","","-27.4","","74","","","","27","","9","","","M","97.92","","","","-32","","NA"
"-107.82","69.04","CAPE PEEL WEST","2400697","2020-03-25 09:00","2020","03","25","09:00","-25.0","","-28.5","","73","","","","25","","17","","","M","97.86","","","","-36","","NA"
"-107.82","69.04","CAPE PEEL WEST","2400697","2020-03-25 10:00","2020","03","25","10:00","-25.0","","-28.5","","72","","","","24","","9","","","M","97.78","","","","-33","","NA"
"-107.82","69.04","CAPE PEEL WEST","2400697","2020-03-25 11:00","2020","03","25","11:00","-24.4","","-27.9","","73","","","","24","","9","","","M","97.69","","","","-32","","NA"
"-107.82","69.04","CAPE PEEL WEST","2400697","2020-03-25 12:00","2020","03","25","12:00","-23.7","","-27.1","","74","","","","21","","15","","","M","97.61","","","","-34","","NA"
"-107.82","69.04","CAPE PEEL WEST","2400697","2020-03-25 13:00","2020","03","25","13:00","-23.7","","-27.1","","74","","","","20","","17","","","M","97.55","","","","-34","","NA"
"-107.82","69.04","CAPE PEEL WEST","2400697","2020-03-25 14:00","2020","03","25","14:00","-22.6","","-25.8","","75","","","","16","","5","","","M","97.41","","","","-27","","NA"
"-107.82","69.04","CAPE PEEL WEST","2400697","2020-03-25 15:00","2020","03","25","15:00","-22.4","","-25.5","","75","","","","13","","17","","","M","97.33","","","","-33","","NA"
"-107.82","69.04","CAPE PEEL WEST","2400697","2020-03-25 16:00","2020","03","25","16:00","-22.3","","-25.3","","76","","","","10","","24","","","M","97.19","","","","-34","","NA"
"-107.82","69.04","CAPE PEEL WEST","2400697","2020-03-25 17:00","2020","03","25","17:00","-21.8","","-24.7","","77","","","","10","","26","","","M","97.10","","","","-34","","NA"
"-107.82","69.04","CAPE PEEL WEST","2400697","2020-03-25 18:00","2020","03","25","18:00","-22.0","","-25.0","","77","","","","10","","28","","","M","97.03","","","","-35","","NA"
"-107.82","69.04","CAPE PEEL WEST","2400697","2020-03-25 19:00","2020","03","25","19:00","-22.3","","-25.3","","76","","","","8","","34","","","M","96.93","","","","-36","","NA"
"-107.82","69.04","CAPE PEEL WEST","2400697","2020-03-25 20:00","2020","03","25","20:00"
"-107.82","69.04","CAPE PEEL WEST","2400697","2020-03-25 21:00","2020","03","25","21:00","-23.0","","-26.0","","76","","","","7","","24","","","M","96.78","","","","-35","","NA"
"-107.82","69.04","CAPE PEEL WEST","2400697","2020-03-25 22:00","2020","03","25","22:00","-23.6","","-26.7","","75","","","","6","","28","","","M","96.72","","","","-37","","NA"
"-107.82","69.04","CAPE PEEL WEST","2400697","2020-03-25 23:00","2020","03","25","23:00","-23.7","","-26.9","","75","","","","5","","31","","","M","96.69","","","","-38","","NA"
"-107.82","69.04","CAPE PEEL WEST","2400697","2020-03-26 00:00","2020","03","26","00:00","-24.3","","-27.6","","74","","","","5","","37","","","M","96.68","","","","-39","","NA"
"-107.82","69.04","CAPE PEEL WEST","2400697","2020-03-26 01:00","2020","03","26","01:00","-24.7","","-28.0","","74","","","","5","","41","","","M","96.68","","","","-41","","NA"
"-107.82","69.04","CAPE PEEL WEST","2400697","2020-03-26 02:00","2020","03","26","02:00","-25.5","","-29.0","","73","","","","5","","43","","","M","96.72","","","","-42","","NA"
"-107.82","69.04","CAPE PEEL WEST","2400697","2020-03-26 03:00","2020","03","26","03:00","-26.6","","-30.1","","71","","","","3","","43","","","M","96.75","","","","-43","","NA"
"-107.82","69.04","CAPE PEEL WEST","2400697","2020-03-26 04:00","2020","03","26","04:00","-28.0","","-31.7","","70","","","","3","","43","","","M","96.84","","","","-45","","NA"
"-107.82","69.04","CAPE PEEL WEST","2400697","2020-03-26 05:00","2020","03","26","05:00","-28.2","","-32.0","","70","","","","3","","44","","","M","96.91","","","","-46","","NA"
"-107.82","69.04","CAPE PEEL WEST","2400697","2020-03-26 06:00","2020","03","26","06:00","-28.6","","-32.4","","69","","","","2","","52","","","M","96.93","","","","-47","","NA"
"-107.82","69.04","CAPE PEEL WEST","2400697","2020-03-26 07:00","2020","03","26","07:00","-29.2","","-33.1","","68","","","","1","","50","","","M","97.02","","","","-48","","NA"
"-107.82","69.04","CAPE PEEL WEST","2400697","2020-03-26 08:00","2020","03","26","08:00","-28.7","","-32.7","","68","","","","1","","52","","","M","97.10","","","","-48","","NA"
"-107.82","69.04","CAPE PEEL WEST","2400697","2020-03-26 09:00","2020","03","26","09:00","-29.0","","-33.0","","68","","","","1","","55","","","M","97.16","","","","-48","","NA"
"-107.82","69.04","CAPE PEEL WEST","2400697","2020-03-26 10:00","2020","03","26","10:00","-28.8","","-32.9","","68","","","","36","","48","","","M","97.32","","","","-47","","NA"
"-107.82","69.04","CAPE PEEL WEST","2400697","2020-03-26 11:00","2020","03","26","11:00","-28.8","","-32.8","","68","","","","36","","43","","","M","97.44","","","","-46","","NA"
"-107.82","69.04","CAPE PEEL WEST","2400697","2020-03-26 12:00","2020","03","26","12:00","-28.0","","-32.0","","69","","","","36","","46","","","M","97.51","","","","-46","","NA"
"-107.82","69.04","CAPE PEEL WEST","2400697","2020-03-26 13:00","2020","03","26","13:00","-28.6","","-32.7","","68","","","","36","","48","","","M","97.61","","","","-47","","NA"
"-107.82","69.04","CAPE PEEL WEST","2400697","2020-03-26 14:00","2020","03","26","14:00","-28.5","","-32.6","","68","","","","36","","43","","","M","97.74","","","","-46","","NA"
"-107.82","69.04","CAPE PEEL WEST","2400697","2020-03-26 15:00","2020","03","26","15:00","-29.5","","-33.7","","67","","","","36","","48","","","M","97.83","","","","-48","","NA"
"-107.82","69.04","CAPE PEEL WEST","2400697","2020-03-26 16:00","2020","03","26","16:00","-30.6","","-34.8","","66","","","","35","","41","","","M","97.96","","","","-48","","NA"
"-107.82","69.04","CAPE PEEL WEST","2400697","2020-03-26 17:00","2020","03","26","17:00","-31.5","","-35.9","","65","","","","34","","43","","","M","98.06","","","","-50","","NA"
"-107.82","69.04","CAPE PEEL WEST","2400697","2020-03-26 18:00","2020","03","26","18:00","-32.7","","-37.1","","64","","","","34","","44","","","M","98.15","","","","-52","","NA"
"-107.82","69.04","CAPE PEEL WEST","2400697","2020-03-26 19:00","2020","03","26","19:00","-33.7","","-38.3","","63","","","","34","","41","","","M","98.24","","","","-53","","NA"
"-107.82","69.04","CAPE PEEL WEST","2400697","2020-03-26 20:00","2020","03","26","20:00","-34.7","","-39.4","","62","","","","33","","44","","","M","98.29","","","","-54","","NA"
"-107.82","69.04","CAPE PEEL WEST","2400697","2020-03-26 21:00","2020","03","26","21:00","-35.5","","-40.3","","61","","","","34","","39","","","M","98.36","","","","-55","","NA"
"-107.82","69.04","CAPE PEEL WEST","2400697","2020-03-26 22:00","2020","03","26","22:00","-36.2","","-41.1","","60","","","","33","","39","","","M","98.44","","","","-56","","NA"
"-107.82","69.04","CAPE PEEL WEST","2400697","2020-03-26 23:00","2020","03","26","23:00","-36.6","","-41.5","","60","","","","34","","39","","","M","98.48","","","","-56","","NA"
"-107.82","69.04","CAPE PEEL WEST","2400697","2020-03-27 00:00","2020","03","27","00:00","-36.9","","-41.8","","60","","","","34","","41","","","M","98.51","","","","-57","","NA"
"-107.82","69.04","CAPE PEEL WEST","2400697","2020-03-27 01:00","2020","03","27","01:00","-37.5","","-42.6","","59","","","","34","","44","","","M","98.52","","","","-58","","NA"
"-107.82","69.04","CAPE PEEL WEST","2400697","2020-03-27 02:00","2020","03","27","02:00","-37.6","","-42.6","","59","","","","34","","54","","","M","98.50","","","","-60","","NA"
"-107.82","69.04","CAPE PEEL WEST","2400697","2020-03-27 03:00","2020","03","27","03:00","-38.0","","-43.1","","58","","","","33","","46","","","M","98.62","","","","-59","","NA"
"-107.82","69.04","CAPE PEEL WEST","2400697","2020-03-27 04:00","2020","03","27","04:00","-38.0","","-43.1","","58","","","","33","","54","","","M","98.66","","","","-61","","NA"
"-107.82","69.04","CAPE PEEL WEST","2400697","2020-03-27 05:00","2020","03","27","05:00","-37.9","","-43.1","","58","","","","34","","48","","","M","98.70","","","","-59","","NA"
"-107.82","69.04","CAPE PEEL WEST","2400697","2020-03-27 06:00","2020","03","27","06:00","-37.7","","-42.7","","59","","","","33","","37","","","M","98.80","","","","-57","","NA"
"-107.82","69.04","CAPE PEEL WEST","2400697","2020-03-27 07:00","2020","03","27","07:00","-37.6","","-42.7","","58","","","","32","","30","","","M","98.86","","","","-56","","NA"
"-107.82","69.04","CAPE PEEL WEST","2400697","2020-03-27 08:00","2020","03","27","08:00","-37.0","","-42.0","","59","","","","33","","28","","","M","98.86","","","","-54","","NA"
"-107.82","69.04","CAPE PEEL WEST","2400697","2020-03-27 09:00","2020","03","27","09:00","-36.6","","-41.6","","59","","","","32","","44","","","M","98.81","","","","-57","","NA"
"-107.82","69.04","CAPE PEEL WEST","2400697","2020-03-27 10:00","2020","03","27","10:00","-34.3","","-39.1","","62","","","","31","","34","","","M","98.85","","","","-52","","NA"
"-107.82","69.04","CAPE PEEL WEST","2400697","2020-03-27 11:00","2020","03","27","11:00","-32.4","","-37.0","","63","","","","31","","30","","","M","98.86","","","","-49","","NA"
"-107.82","69.04","CAPE PEEL WEST","2400697","2020-03-27 12:00","2020","03","27","12:00","-31.4","","-35.8","","65","","","","30","","31","","","M","98.87","","","","-48","","NA"
"-107.82","69.04","CAPE PEEL WEST","2400697","2020-03-27 13:00","2020","03","27","13:00","-30.2","","-34.5","","66","","","","30","","28","","","M","98.91","","","","-45","","NA"
"-107.82","69.04","CAPE PEEL WEST","2400697","2020-03-27 14:00","2020","03","27","14:00","-29.3","","-33.5","","67","","","","30","","34","","","M","98.89","","","","-46","","NA"
"-107.82","69.04","CAPE PEEL WEST","2400697","2020-03-27 15:00","2020","03","27","15:00","-28.6","","-32.6","","68","","","","29","","35","","","M","98.85","","","","-45","","NA"
"-107.82","69.04","CAPE PEEL WEST","2400697","2020-03-27 16:00","2020","03","27","16:00","-27.7","","-31.6","","69","","","","28","","31","","","M","98.82","","","","-43","","NA"
"-107.82","69.04","CAPE PEEL WEST","2400697","2020-03-27 17:00","2020","03","27","17:00","-28.6","","-32.6","","68","","","","29","","24","","","M","98.84","","","","-42","","NA"
"-107.82","69.04","CAPE PEEL WEST","2400697","2020-03-27 18:00","2020","03","27","18:00","-30.5","","-34.6","","67","","","","31","","30","","","M","98.81","","","","-46","","NA"
"-107.82","69.04","CAPE PEEL WEST","2400697","2020-03-27 19:00","2020","03","27","19:00","-31.7","","-36.0","","65","","","","31","","43","","","M","98.77","","","","-50","","NA"
"-107.82","69.04","CAPE PEEL WEST","2400697","2020-03-27 20:00","2020","03","27","20:00","-32.9","","-37.3","","64","","","","31","","39","","","M","98.81","","","","-51","","NA"
"-107.82","69.04","CAPE PEEL WEST","2400697","2020-03-27 21:00","2020","03","27","21:00","-34.3","","-38.9","","62","","","","31","","39","","","M","98.84","","","","-53","","NA"
"-107.82","69.04","CAPE PEEL WEST","2400697","2020-03-27 22:00","2020","03","27","22:00","-35.3","","-40.1","","61","","","","31","","41","","","M","98.85","","","","-55","","NA"
"-107.82","69.04","CAPE PEEL WEST","2400697","2020-03-27 23:00","2020","03","27","23:00","-35.8","","-40.7","","61","","","","31","","43","","","M","98.86","","","","-56","","NA"
"-107.82","69.04","CAPE PEEL WEST","2400697","2020-03-28 00:00","2020","03","28","00:00","-36.2","","-41.1","","60","","","","31","","43","","","M","98.89","","","","-56","","NA"
"-107.82","69.04","CAPE PEEL WEST","2400697","2020-03-28 01:00","2020","03","28","01:00","-36.7","","-41.6","","60","","","","31","","46","","","M","98.88","","","","-58","","NA"
"-107.82","69.04","CAPE PEEL WEST","2400697","2020-03-28 02:00","2020","03","28","02:00","-36.6","","-41.6","","60","","","","31","","46","","","M","98.92","","","","-57","","NA"
"-107.82","69.04","CAPE PEEL WEST","2400697","2020-03-28 03:00","2020","03","28","03:00","-36.4","","-41.4","","60","","","","31","","46","","","M","98.93","","","","-57","","NA"
"-107.82","69.04","CAPE PEEL WEST","2400697","2020-03-28 04:00","2020","03","28","04:00","-36.0","","-40.9","","60","","","","30","","43","","","M","98.96","","","","-56","","NA"
"-107.82","69.04","CAPE PEEL WEST","2400697","2020-03-28 05:00","2020","03","28","05:00","-35.2","","-40.0","","61","","","","28","","35","","","M","99.02","","","","-53","","NA"
"-107.82","69.04","CAPE PEEL WEST","2400697","2020-03-28 06:00","2020","03","28","06:00","-35.1","","-39.9","","61","","","","27","","31","","","M","99.05","","","","-52","","NA"
"-107.82","69.04","CAPE PEEL WEST","2400697","2020-03-28 07:00","2020","03","28","07:00","-34.5","","-39.2","","62","","","","28","","37","","","M","99.04","","","","-53","","NA"
"-107.82","69.04","CAPE PEEL WEST","2400697","2020-03-28 08:00","2020","03","28","08:00","-32.8","","-37.4","","63","","","","28","","43","","","M","99.04","","","","-52","","NA"
"-107.82","69.04","CAPE PEEL WEST","2400697","2020-03-28 09:00","2020","03","28","09:00","-31.8","","-36.2","","64","","","","27","","37","","","M","99.07","","","","-49","","NA"
"-107.82","69.04","CAPE PEEL WEST","2400697","2020-03-28 10:00","2020","03","28","10:00","-30.7","","-35.1","","65","","","","27","","41","","","M","99.08","","","","-49","","NA"
"-107.82","69.04","CAPE PEEL WEST","2400697","2020-03-28 11:00","2020","03","28","11:00","-30.0","","-34.3","","66","","","","26","","43","","","M","99.09","","","","-48","","NA"
"-107.82","69.04","CAPE PEEL WEST","2400697","2020-03-28 12:00","2020","03","28","12:00","-28.8","","-33.0","","67","","","","27","","44","","","M","99.11","","","","-47","","NA"
"-107.82","69.04","CAPE PEEL WEST","2400697","2020-03-28 13:00","2020","03","28","13:00","-28.3","","-32.4","","68","","","","27","","44","","","M","99.16","","","","-46","","NA"
"-107.82","69.04","CAPE PEEL WEST","2400697","2020-03-28 14:00","2020","03","28","14:00","-27.9","","-32.0","","68","","","","27","","43","","","M","99.18","","","","-45","","NA"
"-107.82","69.04","CAPE PEEL WEST","2400697","2020-03-28 15:00","2020","03","28","15:00","-28.0","","-32.0","","68","","","","27","","43","","","M","99.17","","","","-45","","NA"
"-107.82","69.04","CAPE PEEL WEST","2400697","2020-03-28 16:00","2020","03","28","16:00","-28.2","","-32.2","","68","","","","27","","39","","","M","99.20","","","","-45","","NA"
"-107.82","69.04","CAPE PEEL WEST","2400697","2020-03-28 17:00","2020","03","28","17:00","-28.7","","-32.7","","68","","","","27","","30","","","M","99.29","","","","-44","","NA"
"-107.82","69.04","CAPE PEEL WEST","2400697","2020-03-28 18:00","2020","03","28","18:00","-29.5","","-33.5","","68","","","","26","","28","","","M","99.31","","","","-45","","NA"
"-107.82","69.04","CAPE PEEL WEST","2400697","2020-03-28 19:00","2020","03","28","19:00","-31.0","","-35.3","","66","","","","27","","28","","","M","99.34","","","","-46","","NA"
"-107.82","69.04","CAPE PEEL WEST","2400697","2020-03-28 20:00","2020","03","28","20:00","-32.2","","-36.6","","65","","","","26","","21","","","M","99.36","","","","-46","","NA"
"-107.82","69.04","CAPE PEEL WEST","2400697","2020-03-28 21:00","2020","03","28","21:00","-31.4","","-35.6","","66","","","","28","","39","","","M","99.30","","","","-49","","NA"
"-107.82","69.04","CAPE PEEL WEST","2400697","2020-03-28 22:00","2020","03","28","22:00","-31.6","","-35.9","","65","","","","28","","34","","","M","99.34","","","","-49","","NA"
"-107.82","69.04","CAPE PEEL WEST","2400697","2020-03-28 23:00","2020","03","28","23:00","-32.6","","-37.1","","64","","","","27","","28","","","M","99.39","","","","-49","","NA"
"-107.82","69.04","CAPE PEEL WEST","2400697","2020-03-29 00:00","2020","03","29","00:00","-32.6","","-37.0","","64","","","","28","","30","","","M","99.44","","","","-49","","NA"
"-107.82","69.04","CAPE PEEL WEST","2400697","2020-03-29 01:00","2020","03","29","01:00","-33.2","","-37.7","","64","","","","29","","26","","","M","99.47","","","","-49","","NA"
"-107.82","69.04","CAPE PEEL WEST","2400697","2020-03-29 02:00","2020","03","29","02:00","-32.7","","-37.1","","64","","","","30","","35","","","M","99.50","","","","-50","","NA"
"-107.82","69.04","CAPE PEEL WEST","2400697","2020-03-29 03:00","2020","03","29","03:00","-33.3","","-37.8","","63","","","","30","","34","","","M","99.53","","","","-51","","NA"
"-107.82","69.04","CAPE PEEL WEST","2400697","2020-03-29 04:00","2020","03","29","04:00","-34.2","","-38.9","","62","","","","31","","31","","","M","99.56","","","","-51","","NA"
"-107.82","69.04","CAPE PEEL WEST","2400697","2020-03-29 05:00","2020","03","29","05:00","-35.1","","-39.8","","61","","","","31","","31","","","M","99.58","","","","-52","","NA"
"-107.82","69.04","CAPE PEEL WEST","2400697","2020-03-29 06:00","2020","03","29","06:00","-35.9","","-40.5","","61","","","","33","","22","","","M","99.72","","","","-51","","NA"
"-107.82","69.04","CAPE PEEL WEST","2400697","2020-03-29 07:00","2020","03","29","07:00","-36.4","","-41.4","","60","","","","32","","22","","","M","99.78","","","","-52","","NA"
"-107.82","69.04","CAPE PEEL WEST","2400697","2020-03-29 08:00","2020","03","29","08:00","-36.2","","-41.2","","60","","","","28","","11","","","M","99.85","","","","-47","","NA"
"-107.82","69.04","CAPE PEEL WEST","2400697","2020-03-29 09:00","2020","03","29","09:00","-34.5","","-39.4","","61","","","","31","","26","","","M","99.90","","","","-51","","NA"
"-107.82","69.04","CAPE PEEL WEST","2400697","2020-03-29 10:00","2020","03","29","10:00","-34.0","","-38.9","","61","","","","32","","22","","","M","99.99","","","","-49","","NA"
"-107.82","69.04","CAPE PEEL WEST","2400697","2020-03-29 11:00","2020","03","29","11:00","-33.5","","-38.3","","62","","","","32","","24","","","M","100.06","","","","-49","","NA"
"-107.82","69.04","CAPE PEEL WEST","2400697","2020-03-29 12:00","2020","03","29","12:00","-32.4","","-37.1","","63","","","","31","","26","","","M","100.15","","","","-48","","NA"
"-107.82","69.04","CAPE PEEL WEST","2400697","2020-03-29 13:00","2020","03","29","13:00","-31.8","","-36.5","","63","","","","30","","21","","","M","100.23","","","","-46","","NA"
"-107.82","69.04","CAPE PEEL WEST","2400697","2020-03-29 14:00","2020","03","29","14:00","-31.2","","-35.7","","64","","","","29","","28","","","M","100.28","","","","-47","","NA"
"-107.82","69.04","CAPE PEEL WEST","2400697","2020-03-29 15:00","2020","03","29","15:00","-30.2","","-34.6","","66","","","","30","","30","","","M","100.31","","","","-46","","NA"
"-107.82","69.04","CAPE PEEL WEST","2400697","2020-03-29 16:00","2020","03","29","16:00","-28.8","","-32.9","","67","","","","28","","22","","","M","100.35","","","","-42","","NA"
"-107.82","69.04","CAPE PEEL WEST","2400697","2020-03-29 17:00","2020","03","29","17:00","-28.5","","-32.5","","68","","","","26","","22","","","M","100.41","","","","-42","","NA"
"-107.82","69.04","CAPE PEEL WEST","2400697","2020-03-29 18:00","2020","03","29","18:00","-27.6","","-31.5","","69","","","","28","","26","","","M","100.43","","","","-42","","NA"
"-107.82","69.04","CAPE PEEL WEST","2400697","2020-03-29 19:00","2020","03","29","19:00","-28.6","","-32.5","","69","","","","29","","17","","","M","100.44","","","","-40","","NA"
"-107.82","69.04","CAPE PEEL WEST","2400697","2020-03-29 20:00","2020","03","29","20:00","-29.0","","-33.0","","68","","","","31","","17","","","M","100.50","","","","-41","","NA"
"-107.82","69.04","CAPE PEEL WEST","2400697","2020-03-29 21:00","2020","03","29","21:00","-30.2","","-34.3","","67","","","","32","","26","","","M","100.56","","","","-45","","NA"
"-107.82","69.04","CAPE PEEL WEST","2400697","2020-03-29 22:00","2020","03","29","22:00","-30.7","","-34.9","","66","","","","32","","21","","","M","100.61","","","","-44","","NA"
"-107.82","69.04","CAPE PEEL WEST","2400697","2020-03-29 23:00","2020","03","29","23:00","-30.6","","-34.8","","66","","","","33","","21","","","M","100.66","","","","-44","","NA"
"-107.82","69.04","CAPE PEEL WEST","2400697","2020-03-30 00:00","2020","03","30","00:00","-31.3","","-35.5","","66","","","","33","","21","","","M","100.74","","","","-45","","NA"
"-107.82","69.04","CAPE PEEL WEST","2400697","2020-03-30 01:00","2020","03","30","01:00","-32.6","","-37.0","","64","","","","33","","28","","","M","100.82","","","","-49","","NA"
"-107.82","69.04","CAPE PEEL WEST","2400697","2020-03-30 02:00","2020","03","30","02:00","-33.7","","-38.3","","63","","","","35","","24","","","M","100.91","","","","-49","","NA"
"-107.82","69.04","CAPE PEEL WEST","2400697","2020-03-30 03:00","2020","03","30","03:00","-33.6","","-38.2","","64","","","","34","","13","","","M","100.97","","","","-45","","NA"
"-107.82","69.04","CAPE PEEL WEST","2400697","2020-03-30 04:00","2020","03","30","04:00","-35.3","","-40.1","","61","","","","31","","22","","","M","101.05","","","","-50","","NA"
"-107.82","69.04","CAPE PEEL WEST","2400697","2020-03-30 05:00","2020","03","30","05:00","-35.1","","-39.8","","61","","","","32","","24","","","M","101.11","","","","-51","","NA"
"-107.82","69.04","CAPE PEEL WEST","2400697","2020-03-30 06:00","2020","03","30","06:00","-35.1","","-39.9","","61","","","","31","","26","","","M","101.17","","","","-51","","NA"
"-107.82","69.04","CAPE PEEL WEST","2400697","2020-03-30 07:00","2020","03","30","07:00","-34.5","","-39.2","","62","","","","31","","24","","","M","101.19","","","","-50","","NA"
"-107.82","69.04","CAPE PEEL WEST","2400697","2020-03-30 08:00","2020","03","30","08:00","-34.0","","-38.7","","62","","","","29","","8","","","M","101.24","","","","-43","","NA"
"-107.82","69.04","CAPE PEEL WEST","2400697","2020-03-30 09:00","2020","03","30","09:00","-32.1","","-36.7","","64","","","","31","","31","","","M","101.26","","","","-49","","NA"
"-107.82","69.04","CAPE PEEL WEST","2400697","2020-03-30 10:00","2020","03","30","10:00","-30.0","","-34.4","","65","","","","31","","35","","","M","101.31","","","","-47","","NA"
"-107.82","69.04","CAPE PEEL WEST","2400697","2020-03-30 11:00","2020","03","30","11:00","-28.1","","-32.2","","67","","","","30","","28","","","M","101.34","","","","-43","","NA"
"-107.82","69.04","CAPE PEEL WEST","2400697","2020-03-30 12:00","2020","03","30","12:00","-26.0","","-29.8","","70","","","","28","","24","","","M","101.38","","","","-39","","NA"
"-107.82","69.04","CAPE PEEL WEST","2400697","2020-03-30 13:00","2020","03","30","13:00","-26.0","","-29.9","","70","","","","29","","24","","","M","101.38","","","","-39","","NA"
"-107.82","69.04","CAPE PEEL WEST","2400697","2020-03-30 14:00","2020","03","30","14:00","-25.7","","-29.5","","70","","","","27","","18","","","M","101.41","","","","-37","","NA"
"-107.82","69.04","CAPE PEEL WEST","2400697","2020-03-30 15:00","2020","03","30","15:00","-27.0","","-30.9","","69","","","","26","","24","","","M","101.40","","","","-40","","NA"
"-107.82","69.04","CAPE PEEL WEST","2400697","2020-03-30 16:00","2020","03","30","16:00","-27.1","","-31.0","","69","","","","28","","17","","","M","101.43","","","","-39","","NA"
"-107.82","69.04","CAPE PEEL WEST","2400697","2020-03-30 17:00","2020","03","30","17:00","-27.9","","-31.8","","69","","","","28","","18","","","M","101.44","","","","-40","","NA"
"-107.82","69.04","CAPE PEEL WEST","2400697","2020-03-30 18:00","2020","03","30","18:00","-29.0","","-33.0","","68","","","","29","","13","","","M","101.46","","","","-39","","NA"
"-107.82","69.04","CAPE PEEL WEST","2400697","2020-03-30 19:00","2020","03","30","19:00","-29.9","","-34.0","","67","","","","30","","21","","","M","101.46","","","","-43","","NA"
"-107.82","69.04","CAPE PEEL WEST","2400697","2020-03-30 20:00","2020","03","30","20:00","-29.9","","-34.0","","67","","","","30","","21","","","M","101.52","","","","-43","","NA"
"-107.82","69.04","CAPE PEEL WEST","2400697","2020-03-30 21:00","2020","03","30","21:00","-29.8","","-33.9","","67","","","","33","","17","","","M","101.52","","","","-42","","NA"
"-107.82","69.04","CAPE PEEL WEST","2400697","2020-03-30 22:00","2020","03","30","22:00","-31.1","","-35.3","","66","","","","32","","13","","","M","101.55","","","","-42","","NA"
"-107.82","69.04","CAPE PEEL WEST","2400697","2020-03-30 23:00","2020","03","30","23:00","-29.9","","-34.0","","67","","","","33","","28","","","M","101.55","","","","-45","","NA"
"-107.82","69.04","CAPE PEEL WEST","2400697","2020-03-31 00:00","2020","03","31","00:00","-31.2","","-35.4","","66","","","","33","","24","","","M","101.60","","","","-46","","NA"
"-107.82","69.04","CAPE PEEL WEST","2400697","2020-03-31 01:00","2020","03","31","01:00","-31.7","","-36.0","","65","","","","33","","26","","","M","101.66","","","","-47","","NA"
"-107.82","69.04","CAPE PEEL WEST","2400697","2020-03-31 02:00","2020","03","31","02:00","-31.7","","-36.0","","65","","","","33","","30","","","M","101.68","","","","-48","","NA"
"-107.82","69.04","CAPE PEEL WEST","2400697","2020-03-31 03:00","2020","03","31","03:00","-31.9","","-36.2","","65","","","","33","","28","","","M","101.74","","","","-48","","NA"
"-107.82","69.04","CAPE PEEL WEST","2400697","2020-03-31 04:00","2020","03","31","04:00","-32.1","","-36.4","","65","","","","33","","22","","","M","101.77","","","","-46","","NA"
"-107.82","69.04","CAPE PEEL WEST","2400697","2020-03-31 05:00","2020","03","31","05:00","-32.1","","-36.4","","65","","","","33","","18","","","M","101.83","","","","-45","","NA"
"-107.82","69.04","CAPE PEEL WEST","2400697","2020-03-31 06:00","2020","03","31","06:00","-32.1","","-36.6","","65","","","","34","","15","","","M","101.90","","","","-44","","NA"
"-107.82","69.04","CAPE PEEL WEST","2400697","2020-03-31 07:00","2020","03","31","07:00","-31.6","","-36.0","","65","","","","33","","13","","","M","101.96","","","","-43","","NA"
"-107.82","69.04","CAPE PEEL WEST","2400697","2020-03-31 08:00","2020","03","31","08:00","-29.7","","-34.0","","66","","","","3","","5","","","M","101.98","","","","-35","","NA"
"-107.82","69.04","CAPE PEEL WEST","2400697","2020-03-31 09:00","2020","03","31","09:00","-28.8","","-33.1","","67","","","","15","","2","","","M","102.06","","","","-31","","NA"
"-107.82","69.04","CAPE PEEL WEST","2400697","2020-03-31 10:00","2020","03","31","10:00","-27.5","","-31.6","","68","","","","22","","4","","","M","102.12","","","","-32","","NA"
"-107.82","69.04","CAPE PEEL WEST","2400697","2020-03-31 11:00","2020","03","31","11:00","-27.1","","-30.6","","69","","","","29","","4","","","M","102.16","","","","-31","","NA"
"-107.82","69.04","CAPE PEEL WEST","2400697","2020-03-31 12:00","2020","03","31","12:00","-27.5","","-31.5","","68","","","","12","","5","","","M","102.22","","","","-33","","NA"
"-107.82","69.04","CAPE PEEL WEST","2400697","2020-03-31 13:00","2020","03","31","13:00","-27.2","","-31.2","","69","","","","6","","2","","","M","102.30","","","","-29","","NA"
"-107.82","69.04","CAPE PEEL WEST","2400697","2020-03-31 14:00","2020","03","31","14:00","-28.0","","-32.0","","68","","","","9","","8","","","M","102.35","","","","-36","","NA"
"-107.82","69.04","CAPE PEEL WEST","2400697","2020-03-31 15:00","2020","03","31","15:00","-28.1","","-32.2","","68","","","","12","","5","","","M","102.42","","","","-33","","NA"
"-107.82","69.04","CAPE PEEL WEST","2400697","2020-03-31 16:00","2020","03","31","16:00","-28.7","","-32.8","","68","","","","13","","11","","","M","102.49","","","","-38","","NA"
"-107.82","69.04","CAPE PEEL WEST","2400697","2020-03-31 17:00","2020","03","31","17:00","-29.0","","-33.1","","68","","","","12","","8","","","M","102.56","","","","-37","","NA"
"-107.82","69.04","CAPE PEEL WEST","2400697","2020-03-31 18:00","2020","03","31","18:00","-29.3","","-33.4","","68","","","","10","","5","","","M","102.60","","","","-35","","NA"
"-107.82","69.04","CAPE PEEL WEST","2400697","2020-03-31 19:00","2020","03","31","19:00","-29.9","","-33.9","","67","","","","12","","8","","","M","102.67","","","","-38","","NA"
"-107.82","69.04","CAPE PEEL WEST","2400697","2020-03-31 20:00","2020","03","31","20:00","-30.7","","-34.8","","67","","","","10","","13","","","M","102.76","","","","-41","","NA"
"-107.82","69.04","CAPE PEEL WEST","2400697","2020-03-31 21:00","2020","03","31","21:00","-32.0","","-36.3","","65","","","","11","","15","","","M","102.81","","","","-44","","NA"
"-107.82","69.04","CAPE PEEL WEST","2400697","2020-03-31 22:00","2020","03","31","22:00","-30.7","","-34.9","","66","","","","13","","13","","","M","102.88","","","","-41","","NA"
"-107.82","69.04","CAPE PEEL WEST","2400697","2020-03-31 23:00","2020","03","31","23:00","-29.8","","-33.9","","67","","","","12","","15","","","M","102.95","","","","-41","","NA"
