"Longitude (x)","Latitude (y)","Station Name","Climate ID","Date/Time (LST)","Year","Month","Day","Time (LST)","Temp (°C)","Temp Flag","Dew Point Temp (°C)","Dew Point Temp Flag","Rel Hum (%)","Rel Hum Flag","Precip. Amount (mm)","Precip. Amount Flag","Wind Dir (10s deg)","Wind Dir Flag","Wind Spd (km/h)","Wind Spd Flag","Visibility (km)","Visibility Flag","Stn Press (kPa)","Stn Press Flag","Hmdx","Hmdx Flag","Wind Chill","Wind Chill Flag","Weather"
"-128.91","50.82","SARTINE ISLAND (AUT)","1037090","2018-12-01 00:00","2018","12","01","00:00","6.4","","4.7","","89","","","","2","","25","","","","99.82","","","","","","NA"
"-128.91","50.82","SARTINE ISLAND (AUT)","1037090","2018-12-01 01:00","2018","12","01","01:00","6.6","","3.8","","83","","","","35","","40","","","","99.85","","","","","","NA"
"-128.91","50.82","SARTINE ISLAND (AUT)","1037090","2018-12-01 02:00","2018","12","01","02:00","6.9","","5.0","","88","","","","2","","34","","","","99.88","","","","","","NA"
"-128.91","50.82","SARTINE ISLAND (AUT)","1037090","2018-12-01 03:00","2018","12","01","03:00","7.1","","3.9","","80","","","","36","","47","","","","99.92","","","","","","NA"
"-128.91","50.82","SARTINE ISLAND (AUT)","1037090","2018-12-01 04:00","2018","12","01","04:00","6.0","","2.6","","79","","","","33","","47","","","","99.98","","","","","","NA"
"-128.91","50.82","SARTINE ISLAND (AUT)","1037090","2018-12-01 05:00","2018","12","01","05:00","7.1","","3.1","","76","","","","35","","44","","","","100.02","","","","","","NA"
"-128.91","50.82","SARTINE ISLAND (AUT)","1037090","2018-12-01 06:00","2018","12","01","06:00","6.9","","2.3","","73","","","","34","","47","","","","100.03","","","","","","NA"
"-128.91","50.82","SARTINE ISLAND (AUT)","1037090","2018-12-01 07:00","2018","12","01","07:00","6.7","","1.9","","71","","","","33","","39","","","","100.08","","","","","","NA"
"-128.91","50.82","SARTINE ISLAND (AUT)","1037090","2018-12-01 08:00","2018","12","01","08:00","6.8","","0.7","","65","","","","33","","43","","","","100.11","","","","","","NA"
"-128.91","50.82","SARTINE ISLAND (AUT)","1037090","2018-12-01 09:00","2018","12","01","09:00","6.8","","0.6","","64","","","","33","","37","","","","100.16","","","","","","NA"
"-128.91","50.82","SARTINE ISLAND (AUT)","1037090","2018-12-01 10:00","2018","12","01","10:00","6.8","","0.8","","66","","","","35","","34","","","","100.20","","","","","","NA"
"-128.91","50.82","SARTINE ISLAND (AUT)","1037090","2018-12-01 11:00","2018","12","01","11:00","5.8","","2.3","","79","","","","33","","40","","","","100.22","","","","","","NA"
"-128.91","50.82","SARTINE ISLAND (AUT)","1037090","2018-12-01 12:00","2018","12","01","12:00","7.1","","1.6","","68","","","","32","","53","","","","100.20","","","","","","NA"
"-128.91","50.82","SARTINE ISLAND (AUT)","1037090","2018-12-01 13:00","2018","12","01","13:00","7.2","","1.6","","67","","","","34","","31","","","","100.22","","","","","","NA"
"-128.91","50.82","SARTINE ISLAND (AUT)","1037090","2018-12-01 14:00","2018","12","01","14:00","7.1","","1.3","","67","","","","32","","48","","","","100.21","","","","","","NA"
"-128.91","50.82","SARTINE ISLAND (AUT)","1037090","2018-12-01 15:00","2018","12","01","15:00","6.9","","1.5","","68","","","","34","","30","","","","100.23","","","","","","NA"
"-128.91","50.82","SARTINE ISLAND (AUT)","1037090","2018-12-01 16:00","2018","12","01","16:00","6.6","","1.1","","68","","","","35","","32","","","","100.25","","","","","","NA"
"-128.91","50.82","SARTINE ISLAND (AUT)","1037090","2018-12-01 17:00","2018","12","01","17:00","6.4","","-0.6","","61","","","","35","","32","","","","100.26","","","","","","NA"
"-128.91","50.82","SARTINE ISLAND (AUT)","1037090","2018-12-01 18:00","2018","12","01","18:00","6.2","","-0.3","","63","","","","35","","27","","","","100.27","","","","","","NA"
"-128.91","50.82","SARTINE ISLAND (AUT)","1037090","2018-12-01 19:00","2018","12","01","19:00","6.2","","0.2","","66","","","","36","","25","","","","100.29","","","","","","NA"
"-128.91","50.82","SARTINE ISLAND (AUT)","1037090","2018-12-01 20:00","2018","12","01","20:00","6.1","","0.3","","66","","","","34","","23","","","","100.30","","","","","","NA"
"-128.91","50.82","SARTINE ISLAND (AUT)","1037090","2018-12-01 21:00","2018","12","01","21:00","6.4","","1.5","","71","","","","35","","24","","","","100.33","","","","","","NA"
"-128.91","50.82","SARTINE ISLAND (AUT)","1037090","2018-12-01 22:00","2018","12","01","22:00","6.1","","2.3","","76","","","","1","","30","","","","100.35","","","","","","NA"
"-128.91","50.82","SARTINE ISLAND (AUT)","1037090","2018-12-01 23:00","2018","12","01","23:00","6.2","","3.8","","85","","","","2","","23","","","","100.41","","","","","","NA"
"-128.91","50.82","SARTINE ISLAND (AUT)","1037090","2018-12-02 00:00","2018","12","02","00:00","5.6","","3.3","","85","","","","3","","22","","","","100.46","","","","","","NA"
"-128.91","50.82","SARTINE ISLAND (AUT)","1037090","2018-12-02 01:00","2018","12","02","01:00","5.7","","3.7","","87","","","","3","","25","","","","100.46","","","","","","NA"
"-128.91","50.82","SARTINE ISLAND (AUT)","1037090","2018-12-02 02:00","2018","12","02","02:00","5.2","","3.2","","87","","","","3","","22","","","","100.49","","","","","","NA"
"-128.91","50.82","SARTINE ISLAND (AUT)","1037090","2018-12-02 03:00","2018","12","02","03:00","5.1","","3.3","","88","","","","4","","24","","","","100.49","","","","","","NA"
"-128.91","50.82","SARTINE ISLAND (AUT)","1037090","2018-12-02 04:00","2018","12","02","04:00","4.9","","3.4","","90","","","","3","","18","","","","100.53","","","","","","NA"
"-128.91","50.82","SARTINE ISLAND (AUT)","1037090","2018-12-02 05:00","2018","12","02","05:00","5.0","","3.6","","91","","","","3","","12","","","","100.57","","","","","","NA"
"-128.91","50.82","SARTINE ISLAND (AUT)","1037090","2018-12-02 06:00","2018","12","02","06:00","4.6","","3.4","","91","","","","2","","14","","","","100.61","","","","","","NA"
"-128.91","50.82","SARTINE ISLAND (AUT)","1037090","2018-12-02 07:00","2018","12","02","07:00","4.5","","3.2","","92","","","","2","","15","","","","100.65","","","","","","NA"
"-128.91","50.82","SARTINE ISLAND (AUT)","1037090","2018-12-02 08:00","2018","12","02","08:00","4.9","","3.6","","91","","","","4","","17","","","","100.68","","","","","","NA"
"-128.91","50.82","SARTINE ISLAND (AUT)","1037090","2018-12-02 09:00","2018","12","02","09:00","5.3","","3.9","","91","","","","4","","20","","","","100.71","","","","","","NA"
"-128.91","50.82","SARTINE ISLAND (AUT)","1037090","2018-12-02 10:00","2018","12","02","10:00","5.4","","3.9","","91","","","","5","","22","","","","100.76","","","","","","NA"
"-128.91","50.82","SARTINE ISLAND (AUT)","1037090","2018-12-02 11:00","2018","12","02","11:00","5.5","","4.2","","91","","","","6","","21","","","","100.81","","","","","","NA"
"-128.91","50.82","SARTINE ISLAND (AUT)","1037090","2018-12-02 12:00","2018","12","02","12:00","5.7","","4.3","","91","","","","6","","22","","","","100.81","","","","","","NA"
"-128.91","50.82","SARTINE ISLAND (AUT)","1037090","2018-12-02 13:00","2018","12","02","13:00","5.7","","4.3","","91","","","","7","","24","","","","100.82","","","","","","NA"
"-128.91","50.82","SARTINE ISLAND (AUT)","1037090","2018-12-02 14:00","2018","12","02","14:00","5.8","","4.1","","89","","","","7","","25","","","","100.84","","","","","","NA"
"-128.91","50.82","SARTINE ISLAND (AUT)","1037090","2018-12-02 15:00","2018","12","02","15:00","5.7","","3.7","","87","","","","6","","16","","","","100.90","","","","","","NA"
"-128.91","50.82","SARTINE ISLAND (AUT)","1037090","2018-12-02 16:00","2018","12","02","16:00","5.7","","4.1","","89","","","","5","","15","","","","100.95","","","","","","NA"
"-128.91","50.82","SARTINE ISLAND (AUT)","1037090","2018-12-02 17:00","2018","12","02","17:00","5.6","","4.0","","89","","","","6","","17","","","","100.96","","","","","","NA"
"-128.91","50.82","SARTINE ISLAND (AUT)","1037090","2018-12-02 18:00","2018","12","02","18:00","5.4","","3.7","","89","","","","7","","19","","","","100.97","","","","","","NA"
"-128.91","50.82","SARTINE ISLAND (AUT)","1037090","2018-12-02 19:00","2018","12","02","19:00","5.7","","4.1","","89","","","","8","","13","","","","101.01","","","","","","NA"
"-128.91","50.82","SARTINE ISLAND (AUT)","1037090","2018-12-02 20:00","2018","12","02","20:00","5.6","","3.6","","87","","","","9","","11","","","","101.04","","","","","","NA"
"-128.91","50.82","SARTINE ISLAND (AUT)","1037090","2018-12-02 21:00","2018","12","02","21:00","5.9","","3.4","","84","","","","11","","10","","","","101.07","","","","","","NA"
"-128.91","50.82","SARTINE ISLAND (AUT)","1037090","2018-12-02 22:00","2018","12","02","22:00","6.4","","3.4","","82","","","","15","","7","","","","101.13","","","","","","NA"
"-128.91","50.82","SARTINE ISLAND (AUT)","1037090","2018-12-02 23:00","2018","12","02","23:00","6.3","","3.2","","80","","","","17","","5","","","","101.18","","","","","","NA"
"-128.91","50.82","SARTINE ISLAND (AUT)","1037090","2018-12-03 00:00","2018","12","03","00:00","6.4","","3.4","","81","","","","2","","2","","","","101.24","","","","","","NA"
"-128.91","50.82","SARTINE ISLAND (AUT)","1037090","2018-12-03 01:00","2018","12","03","01:00","6.1","","3.9","","86","","","","4","","8","","","","101.26","","","","","","NA"
"-128.91","50.82","SARTINE ISLAND (AUT)","1037090","2018-12-03 02:00","2018","12","03","02:00","6.1","","4.4","","89","","","","6","","10","","","","101.28","","","","","","NA"
"-128.91","50.82","SARTINE ISLAND (AUT)","1037090","2018-12-03 03:00","2018","12","03","03:00","6.0","","4.6","","90","","","","6","","11","","","","101.31","","","","","","NA"
"-128.91","50.82","SARTINE ISLAND (AUT)","1037090","2018-12-03 04:00","2018","12","03","04:00","6.1","","4.8","","92","","","","7","","13","","","","101.31","","","","","","NA"
"-128.91","50.82","SARTINE ISLAND (AUT)","1037090","2018-12-03 05:00","2018","12","03","05:00","5.9","","4.8","","92","","","","7","","12","","","","101.32","","","","","","NA"
"-128.91","50.82","SARTINE ISLAND (AUT)","1037090","2018-12-03 06:00","2018","12","03","06:00","5.9","","4.7","","93","","","","6","","9","","","","101.35","","","","","","NA"
"-128.91","50.82","SARTINE ISLAND (AUT)","1037090","2018-12-03 07:00","2018","12","03","07:00","5.7","","4.7","","93","","","","4","","10","","","","101.36","","","","","","NA"
"-128.91","50.82","SARTINE ISLAND (AUT)","1037090","2018-12-03 08:00","2018","12","03","08:00","5.8","","4.7","","93","","","","4","","8","","","","101.39","","","","","","NA"
"-128.91","50.82","SARTINE ISLAND (AUT)","1037090","2018-12-03 09:00","2018","12","03","09:00","5.9","","4.5","","91","","","","6","","8","","","","101.43","","","","","","NA"
"-128.91","50.82","SARTINE ISLAND (AUT)","1037090","2018-12-03 10:00","2018","12","03","10:00","6.4","","5.1","","91","","","","7","","7","","","","101.48","","","","","","NA"
"-128.91","50.82","SARTINE ISLAND (AUT)","1037090","2018-12-03 11:00","2018","12","03","11:00","7.3","","5.7","","90","","","","7","","8","","","","101.50","","","","","","NA"
"-128.91","50.82","SARTINE ISLAND (AUT)","1037090","2018-12-03 12:00","2018","12","03","12:00","7.0","","4.9","","86","","","","6","","5","","","","101.50","","","","","","NA"
"-128.91","50.82","SARTINE ISLAND (AUT)","1037090","2018-12-03 13:00","2018","12","03","13:00","7.7","","5.6","","87","","","","8","","6","","","","101.50","","","","","","NA"
"-128.91","50.82","SARTINE ISLAND (AUT)","1037090","2018-12-03 14:00","2018","12","03","14:00","7.3","","5.3","","87","","","","5","","5","","","","101.47","","","","","","NA"
"-128.91","50.82","SARTINE ISLAND (AUT)","1037090","2018-12-03 15:00","2018","12","03","15:00","7.3","","5.1","","86","","","","3","","5","","","","101.50","","","","","","NA"
"-128.91","50.82","SARTINE ISLAND (AUT)","1037090","2018-12-03 16:00","2018","12","03","16:00","6.4","","4.7","","89","","","","3","","6","","","","101.52","","","","","","NA"
"-128.91","50.82","SARTINE ISLAND (AUT)","1037090","2018-12-03 17:00","2018","12","03","17:00","5.4","","4.2","","92","","","","3","","9","","","","101.52","","","","","","NA"
"-128.91","50.82","SARTINE ISLAND (AUT)","1037090","2018-12-03 18:00","2018","12","03","18:00","5.8","","4.4","","90","","","","6","","5","","","","101.50","","","","","","NA"
"-128.91","50.82","SARTINE ISLAND (AUT)","1037090","2018-12-03 19:00","2018","12","03","19:00","5.7","","3.6","","86","","","","6","","10","","","","101.48","","","","","","NA"
"-128.91","50.82","SARTINE ISLAND (AUT)","1037090","2018-12-03 20:00","2018","12","03","20:00","6.0","","3.9","","86","","","","5","","11","","","","101.49","","","","","","NA"
"-128.91","50.82","SARTINE ISLAND (AUT)","1037090","2018-12-03 21:00","2018","12","03","21:00","6.1","","3.2","","82","","","","8","","9","","","","101.49","","","","","","NA"
"-128.91","50.82","SARTINE ISLAND (AUT)","1037090","2018-12-03 22:00","2018","12","03","22:00","6.1","","3.4","","83","","","","12","","8","","","","101.52","","","","","","NA"
"-128.91","50.82","SARTINE ISLAND (AUT)","1037090","2018-12-03 23:00","2018","12","03","23:00","6.3","","3.4","","82","","","","15","","4","","","","101.56","","","","","","NA"
"-128.91","50.82","SARTINE ISLAND (AUT)","1037090","2018-12-04 00:00","2018","12","04","00:00","6.1","","3.8","","86","","","","9","","2","","","","101.57","","","","","","NA"
"-128.91","50.82","SARTINE ISLAND (AUT)","1037090","2018-12-04 01:00","2018","12","04","01:00","5.7","","4.2","","90","","","","4","","4","","","","101.59","","","","","","NA"
"-128.91","50.82","SARTINE ISLAND (AUT)","1037090","2018-12-04 02:00","2018","12","04","02:00","5.0","","3.6","","90","","","","3","","11","","","","101.57","","","","","","NA"
"-128.91","50.82","SARTINE ISLAND (AUT)","1037090","2018-12-04 03:00","2018","12","04","03:00","4.6","","2.6","","87","","","","3","","14","","","","101.60","","","","","","NA"
"-128.91","50.82","SARTINE ISLAND (AUT)","1037090","2018-12-04 04:00","2018","12","04","04:00","4.3","","1.8","","84","","","","5","","21","","","","101.56","","","","","","NA"
"-128.91","50.82","SARTINE ISLAND (AUT)","1037090","2018-12-04 05:00","2018","12","04","05:00","4.0","","2.3","","88","","","","4","","23","","","","101.55","","","","","","NA"
"-128.91","50.82","SARTINE ISLAND (AUT)","1037090","2018-12-04 06:00","2018","12","04","06:00","4.2","","1.5","","83","","","","5","","32","","","","101.49","","","","","","NA"
"-128.91","50.82","SARTINE ISLAND (AUT)","1037090","2018-12-04 07:00","2018","12","04","07:00","4.3","","1.7","","83","","","","6","","32","","","","101.50","","","","","","NA"
"-128.91","50.82","SARTINE ISLAND (AUT)","1037090","2018-12-04 08:00","2018","12","04","08:00","4.1","","1.2","","81","","","","6","","31","","","","101.47","","","","","","NA"
"-128.91","50.82","SARTINE ISLAND (AUT)","1037090","2018-12-04 09:00","2018","12","04","09:00","4.5","","1.6","","82","","","","4","","21","","","","101.51","","","","","","NA"
"-128.91","50.82","SARTINE ISLAND (AUT)","1037090","2018-12-04 10:00","2018","12","04","10:00","5.1","","2.3","","83","","","","3","","18","","","","101.54","","","","","","NA"
"-128.91","50.82","SARTINE ISLAND (AUT)","1037090","2018-12-04 11:00","2018","12","04","11:00","6.1","","2.8","","79","","","","2","","16","","","","101.55","","","","","","NA"
"-128.91","50.82","SARTINE ISLAND (AUT)","1037090","2018-12-04 12:00","2018","12","04","12:00","6.2","","1.3","","71","","","","2","","17","","","","101.53","","","","","","NA"
"-128.91","50.82","SARTINE ISLAND (AUT)","1037090","2018-12-04 13:00","2018","12","04","13:00","5.5","","0.9","","72","","","","1","","25","","","","101.50","","","","","","NA"
"-128.91","50.82","SARTINE ISLAND (AUT)","1037090","2018-12-04 14:00","2018","12","04","14:00","5.7","","1.9","","77","","","","1","","25","","","","101.45","","","","","","NA"
"-128.91","50.82","SARTINE ISLAND (AUT)","1037090","2018-12-04 15:00","2018","12","04","15:00","5.7","","2.0","","77","","","","2","","28","","","","101.42","","","","","","NA"
"-128.91","50.82","SARTINE ISLAND (AUT)","1037090","2018-12-04 16:00","2018","12","04","16:00","5.4","","1.8","","78","","","","2","","30","","","","101.38","","","","","","NA"
"-128.91","50.82","SARTINE ISLAND (AUT)","1037090","2018-12-04 17:00","2018","12","04","17:00","5.6","","2.5","","80","","","","2","","28","","","","101.35","","","","","","NA"
"-128.91","50.82","SARTINE ISLAND (AUT)","1037090","2018-12-04 18:00","2018","12","04","18:00","5.4","","2.8","","83","","","","2","","30","","","","101.28","","","","","","NA"
"-128.91","50.82","SARTINE ISLAND (AUT)","1037090","2018-12-04 19:00","2018","12","04","19:00","5.6","","2.3","","79","","","","2","","39","","","","101.25","","","","","","NA"
"-128.91","50.82","SARTINE ISLAND (AUT)","1037090","2018-12-04 20:00","2018","12","04","20:00","5.6","","2.0","","77","","","","2","","38","","","","101.21","","","","","","NA"
"-128.91","50.82","SARTINE ISLAND (AUT)","1037090","2018-12-04 21:00","2018","12","04","21:00","5.8","","2.2","","77","","","","1","","38","","","","101.18","","","","","","NA"
"-128.91","50.82","SARTINE ISLAND (AUT)","1037090","2018-12-04 22:00","2018","12","04","22:00","5.6","","1.9","","77","","","","1","","42","","","","101.14","","","","","","NA"
"-128.91","50.82","SARTINE ISLAND (AUT)","1037090","2018-12-04 23:00","2018","12","04","23:00","5.5","","2.3","","80","","","","1","","41","","","","101.14","","","","","","NA"
"-128.91","50.82","SARTINE ISLAND (AUT)","1037090","2018-12-05 00:00","2018","12","05","00:00","5.1","","2.2","","82","","","","1","","43","","","","101.12","","","","","","NA"
"-128.91","50.82","SARTINE ISLAND (AUT)","1037090","2018-12-05 01:00","2018","12","05","01:00","4.6","","1.7","","81","","","","2","","37","","","","101.07","","","","","","NA"
"-128.91","50.82","SARTINE ISLAND (AUT)","1037090","2018-12-05 02:00","2018","12","05","02:00","4.4","","2.1","","85","","","","2","","29","","","","101.06","","","","","","NA"
"-128.91","50.82","SARTINE ISLAND (AUT)","1037090","2018-12-05 03:00","2018","12","05","03:00","4.3","","2.3","","87","","","","2","","25","","","","101.06","","","","","","NA"
"-128.91","50.82","SARTINE ISLAND (AUT)","1037090","2018-12-05 04:00","2018","12","05","04:00","4.2","","2.1","","87","","","","2","","25","","","","101.03","","","","","","NA"
"-128.91","50.82","SARTINE ISLAND (AUT)","1037090","2018-12-05 05:00","2018","12","05","05:00","4.4","","2.6","","88","","","","2","","21","","","","100.98","","","","","","NA"
"-128.91","50.82","SARTINE ISLAND (AUT)","1037090","2018-12-05 06:00","2018","12","05","06:00","4.1","","2.1","","87","","","","2","","19","","","","100.97","","","","","","NA"
"-128.91","50.82","SARTINE ISLAND (AUT)","1037090","2018-12-05 07:00","2018","12","05","07:00","3.9","","1.6","","85","","","","2","","22","","","","100.96","","","","","","NA"
"-128.91","50.82","SARTINE ISLAND (AUT)","1037090","2018-12-05 08:00","2018","12","05","08:00","3.8","","0.5","","79","","","","2","","18","","","","100.93","","","","","","NA"
"-128.91","50.82","SARTINE ISLAND (AUT)","1037090","2018-12-05 09:00","2018","12","05","09:00","4.6","","1.2","","78","","","","3","","20","","","","100.95","","","","","","NA"
"-128.91","50.82","SARTINE ISLAND (AUT)","1037090","2018-12-05 10:00","2018","12","05","10:00","5.4","","1.8","","77","","","","3","","18","","","","100.97","","","","","","NA"
"-128.91","50.82","SARTINE ISLAND (AUT)","1037090","2018-12-05 11:00","2018","12","05","11:00","5.9","","2.1","","77","","","","3","","19","","","","100.98","","","","","","NA"
"-128.91","50.82","SARTINE ISLAND (AUT)","1037090","2018-12-05 12:00","2018","12","05","12:00","6.2","","2.3","","76","","","","3","","17","","","","100.95","","","","","","NA"
"-128.91","50.82","SARTINE ISLAND (AUT)","1037090","2018-12-05 13:00","2018","12","05","13:00","6.3","","1.9","","74","","","","3","","12","","","","100.95","","","","","","NA"
"-128.91","50.82","SARTINE ISLAND (AUT)","1037090","2018-12-05 14:00","2018","12","05","14:00","5.9","","1.5","","74","","","","3","","16","","","","100.88","","","","","","NA"
"-128.91","50.82","SARTINE ISLAND (AUT)","1037090","2018-12-05 15:00","2018","12","05","15:00","5.5","","1.3","","74","","","","3","","17","","","","100.87","","","","","","NA"
"-128.91","50.82","SARTINE ISLAND (AUT)","1037090","2018-12-05 16:00","2018","12","05","16:00","4.6","","2.2","","84","","","","4","","15","","","","100.83","","","","","","NA"
"-128.91","50.82","SARTINE ISLAND (AUT)","1037090","2018-12-05 17:00","2018","12","05","17:00","4.3","","2.4","","88","","","","5","","13","","","","100.84","","","","","","NA"
"-128.91","50.82","SARTINE ISLAND (AUT)","1037090","2018-12-05 18:00","2018","12","05","18:00","4.2","","2.3","","87","","","","7","","18","","","","100.80","","","","","","NA"
"-128.91","50.82","SARTINE ISLAND (AUT)","1037090","2018-12-05 19:00","2018","12","05","19:00","4.4","","0.9","","78","","","","6","","13","","","","100.82","","","","","","NA"
"-128.91","50.82","SARTINE ISLAND (AUT)","1037090","2018-12-05 20:00","2018","12","05","20:00","4.0","","1.0","","81","","","","2","","9","","","","100.83","","","","","","NA"
"-128.91","50.82","SARTINE ISLAND (AUT)","1037090","2018-12-05 21:00","2018","12","05","21:00","3.8","","0.8","","81","","","","3","","9","","","","100.80","","","","","","NA"
"-128.91","50.82","SARTINE ISLAND (AUT)","1037090","2018-12-05 22:00","2018","12","05","22:00","4.1","","1.1","","81","","","","4","","9","","","","100.83","","","","","","NA"
"-128.91","50.82","SARTINE ISLAND (AUT)","1037090","2018-12-05 23:00","2018","12","05","23:00","3.9","","1.2","","82","","","","3","","13","","","","100.81","","","","","","NA"
"-128.91","50.82","SARTINE ISLAND (AUT)","1037090","2018-12-06 00:00","2018","12","06","00:00","4.1","","1.7","","84","","","","4","","13","","","","100.79","","","","","","NA"
"-128.91","50.82","SARTINE ISLAND (AUT)","1037090","2018-12-06 01:00","2018","12","06","01:00","3.5","","1.5","","86","","","","2","","9","","","","100.75","","","","","","NA"
"-128.91","50.82","SARTINE ISLAND (AUT)","1037090","2018-12-06 02:00","2018","12","06","02:00","4.1","","1.5","","83","","","","2","","4","","","","100.74","","","","","","NA"
"-128.91","50.82","SARTINE ISLAND (AUT)","1037090","2018-12-06 03:00","2018","12","06","03:00","4.4","","1.7","","83","","","","34","","7","","","","100.74","","","","","","NA"
"-128.91","50.82","SARTINE ISLAND (AUT)","1037090","2018-12-06 04:00","2018","12","06","04:00","4.4","","1.7","","82","","","","30","","4","","","","100.71","","","","","","NA"
"-128.91","50.82","SARTINE ISLAND (AUT)","1037090","2018-12-06 05:00","2018","12","06","05:00","4.6","","1.8","","82","","","","28","","7","","","","100.67","","","","","","NA"
"-128.91","50.82","SARTINE ISLAND (AUT)","1037090","2018-12-06 06:00","2018","12","06","06:00","4.6","","2.0","","83","","","","26","","13","","","","100.67","","","","","","NA"
"-128.91","50.82","SARTINE ISLAND (AUT)","1037090","2018-12-06 07:00","2018","12","06","07:00","4.6","","1.6","","81","","","","27","","10","","","","100.65","","","","","","NA"
"-128.91","50.82","SARTINE ISLAND (AUT)","1037090","2018-12-06 08:00","2018","12","06","08:00","4.9","","1.6","","79","","","","23","","8","","","","100.64","","","","","","NA"
"-128.91","50.82","SARTINE ISLAND (AUT)","1037090","2018-12-06 09:00","2018","12","06","09:00","5.1","","1.9","","80","","","","22","","8","","","","100.69","","","","","","NA"
"-128.91","50.82","SARTINE ISLAND (AUT)","1037090","2018-12-06 10:00","2018","12","06","10:00","5.5","","1.9","","77","","","","","","0","","","","100.69","","","","","","NA"
"-128.91","50.82","SARTINE ISLAND (AUT)","1037090","2018-12-06 11:00","2018","12","06","11:00","5.8","","3.1","","83","","","","11","","9","","","","100.68","","","","","","NA"
"-128.91","50.82","SARTINE ISLAND (AUT)","1037090","2018-12-06 12:00","2018","12","06","12:00","6.0","","4.2","","88","","","","10","","11","","","","100.61","","","","","","NA"
"-128.91","50.82","SARTINE ISLAND (AUT)","1037090","2018-12-06 13:00","2018","12","06","13:00","6.9","","5.1","","88","","","","13","","19","","","","100.50","","","","","","NA"
"-128.91","50.82","SARTINE ISLAND (AUT)","1037090","2018-12-06 14:00","2018","12","06","14:00","6.9","","4.8","","87","","","","15","","30","","","","100.47","","","","","","NA"
"-128.91","50.82","SARTINE ISLAND (AUT)","1037090","2018-12-06 15:00","2018","12","06","15:00","7.3","","4.0","","80","","","","18","","28","","","","100.46","","","","","","NA"
"-128.91","50.82","SARTINE ISLAND (AUT)","1037090","2018-12-06 16:00","2018","12","06","16:00","7.0","","3.6","","79","","","","20","","24","","","","100.44","","","","","","NA"
"-128.91","50.82","SARTINE ISLAND (AUT)","1037090","2018-12-06 17:00","2018","12","06","17:00","7.1","","3.2","","77","","","","19","","24","","","","100.40","","","","","","NA"
"-128.91","50.82","SARTINE ISLAND (AUT)","1037090","2018-12-06 18:00","2018","12","06","18:00","7.2","","3.7","","78","","","","19","","22","","","","100.39","","","","","","NA"
"-128.91","50.82","SARTINE ISLAND (AUT)","1037090","2018-12-06 19:00","2018","12","06","19:00","7.1","","3.8","","79","","","","17","","15","","","","100.34","","","","","","NA"
"-128.91","50.82","SARTINE ISLAND (AUT)","1037090","2018-12-06 20:00","2018","12","06","20:00","6.6","","4.6","","87","","","","15","","26","","","","100.27","","","","","","NA"
"-128.91","50.82","SARTINE ISLAND (AUT)","1037090","2018-12-06 21:00","2018","12","06","21:00","6.3","","4.3","","87","","","","15","","33","","","","100.27","","","","","","NA"
"-128.91","50.82","SARTINE ISLAND (AUT)","1037090","2018-12-06 22:00","2018","12","06","22:00","6.3","","4.2","","87","","","","15","","28","","","","100.25","","","","","","NA"
"-128.91","50.82","SARTINE ISLAND (AUT)","1037090","2018-12-06 23:00","2018","12","06","23:00","6.1","","3.3","","82","","","","12","","30","","","","100.25","","","","","","NA"
"-128.91","50.82","SARTINE ISLAND (AUT)","1037090","2018-12-07 00:00","2018","12","07","00:00","6.0","","3.0","","81","","","","12","","24","","","","100.20","","","","","","NA"
"-128.91","50.82","SARTINE ISLAND (AUT)","1037090","2018-12-07 01:00","2018","12","07","01:00","5.8","","3.2","","83","","","","12","","37","","","","100.11","","","","","","NA"
"-128.91","50.82","SARTINE ISLAND (AUT)","1037090","2018-12-07 02:00","2018","12","07","02:00","5.8","","3.3","","84","","","","12","","34","","","","100.03","","","","","","NA"
"-128.91","50.82","SARTINE ISLAND (AUT)","1037090","2018-12-07 03:00","2018","12","07","03:00","5.4","","2.7","","83","","","","12","","34","","","","100.02","","","","","","NA"
"-128.91","50.82","SARTINE ISLAND (AUT)","1037090","2018-12-07 04:00","2018","12","07","04:00","5.8","","2.1","","77","","","","15","","44","","","","99.96","","","","","","NA"
"-128.91","50.82","SARTINE ISLAND (AUT)","1037090","2018-12-07 05:00","2018","12","07","05:00","6.2","","2.9","","80","","","","15","","66","","","","99.89","","","","","","NA"
"-128.91","50.82","SARTINE ISLAND (AUT)","1037090","2018-12-07 06:00","2018","12","07","06:00","6.4","","2.9","","78","","","","15","","65","","","","99.82","","","","","","NA"
"-128.91","50.82","SARTINE ISLAND (AUT)","1037090","2018-12-07 07:00","2018","12","07","07:00","6.6","","2.8","","77","","","","15","","69","","","","99.77","","","","","","NA"
"-128.91","50.82","SARTINE ISLAND (AUT)","1037090","2018-12-07 08:00","2018","12","07","08:00","6.8","","2.5","","74","","","","15","","74","","","","99.71","","","","","","NA"
"-128.91","50.82","SARTINE ISLAND (AUT)","1037090","2018-12-07 09:00","2018","12","07","09:00","7.1","","2.8","","74","","","","15","","68","","","","99.67","","","","","","NA"
"-128.91","50.82","SARTINE ISLAND (AUT)","1037090","2018-12-07 10:00","2018","12","07","10:00","7.3","","2.8","","73","","","","15","","81","","","","99.71","","","","","","NA"
"-128.91","50.82","SARTINE ISLAND (AUT)","1037090","2018-12-07 11:00","2018","12","07","11:00","7.5","","3.0","","73","","","","15","","79","","","","99.72","","","","","","NA"
"-128.91","50.82","SARTINE ISLAND (AUT)","1037090","2018-12-07 12:00","2018","12","07","12:00","7.4","","2.2","","69","","","","15","","74","","","","99.68","","","","","","NA"
"-128.91","50.82","SARTINE ISLAND (AUT)","1037090","2018-12-07 13:00","2018","12","07","13:00","7.7","","2.6","","70","","","","15","","72","","","","99.61","","","","","","NA"
"-128.91","50.82","SARTINE ISLAND (AUT)","1037090","2018-12-07 14:00","2018","12","07","14:00","7.9","","3.3","","73","","","","15","","83","","","","99.60","","","","","","NA"
"-128.91","50.82","SARTINE ISLAND (AUT)","1037090","2018-12-07 15:00","2018","12","07","15:00","7.8","","3.1","","72","","","","15","","76","","","","99.57","","","","","","NA"
"-128.91","50.82","SARTINE ISLAND (AUT)","1037090","2018-12-07 16:00","2018","12","07","16:00","7.8","","4.3","","79","","","","15","","80","","","","99.62","","","","","","NA"
"-128.91","50.82","SARTINE ISLAND (AUT)","1037090","2018-12-07 17:00","2018","12","07","17:00","8.2","","4.9","","79","","","","15","","75","","","","99.63","","","","","","NA"
"-128.91","50.82","SARTINE ISLAND (AUT)","1037090","2018-12-07 18:00","2018","12","07","18:00","8.3","","5.1","","81","","","","15","","79","","","","99.62","","","","","","NA"
"-128.91","50.82","SARTINE ISLAND (AUT)","1037090","2018-12-07 19:00","2018","12","07","19:00","7.9","","5.3","","83","","","","15","","89","","","","99.63","","","","","","NA"
"-128.91","50.82","SARTINE ISLAND (AUT)","1037090","2018-12-07 20:00","2018","12","07","20:00","7.1","","6.6","","96","","","","12","","54","","","","99.76","","","","","","NA"
"-128.91","50.82","SARTINE ISLAND (AUT)","1037090","2018-12-07 21:00","2018","12","07","21:00","7.5","","6.4","","93","","","","15","","91","","","","99.81","","","","","","NA"
"-128.91","50.82","SARTINE ISLAND (AUT)","1037090","2018-12-07 22:00","2018","12","07","22:00","7.8","","6.8","","93","","","","15","","84","","","","99.94","","","","","","NA"
"-128.91","50.82","SARTINE ISLAND (AUT)","1037090","2018-12-07 23:00","2018","12","07","23:00","8.0","","7.1","","94","","","","15","","80","","","","100.00","","","","","","NA"
"-128.91","50.82","SARTINE ISLAND (AUT)","1037090","2018-12-08 00:00","2018","12","08","00:00","8.1","","7.0","","93","","","","15","","79","","","","100.09","","","","","","NA"
"-128.91","50.82","SARTINE ISLAND (AUT)","1037090","2018-12-08 01:00","2018","12","08","01:00","8.1","","7.2","","94","","","","15","","76","","","","100.10","","","","","","NA"
"-128.91","50.82","SARTINE ISLAND (AUT)","1037090","2018-12-08 02:00","2018","12","08","02:00","8.4","","7.4","","93","","","","15","","68","","","","100.25","","","","","","NA"
"-128.91","50.82","SARTINE ISLAND (AUT)","1037090","2018-12-08 03:00","2018","12","08","03:00","8.6","","7.5","","93","","","","15","","60","","","","100.33","","","","","","NA"
"-128.91","50.82","SARTINE ISLAND (AUT)","1037090","2018-12-08 04:00","2018","12","08","04:00","8.7","","7.8","","94","","","","15","","63","","","","100.39","","","","","","NA"
"-128.91","50.82","SARTINE ISLAND (AUT)","1037090","2018-12-08 05:00","2018","12","08","05:00","8.5","","7.7","","95","","","","15","","64","","","","100.38","","","","","","NA"
"-128.91","50.82","SARTINE ISLAND (AUT)","1037090","2018-12-08 06:00","2018","12","08","06:00","8.5","","7.8","","95","","","","15","","63","","","","100.38","","","","","","NA"
"-128.91","50.82","SARTINE ISLAND (AUT)","1037090","2018-12-08 07:00","2018","12","08","07:00","8.6","","7.9","","95","","","","15","","62","","","","100.40","","","","","","NA"
"-128.91","50.82","SARTINE ISLAND (AUT)","1037090","2018-12-08 08:00","2018","12","08","08:00","8.6","","7.8","","94","","","","15","","63","","","","100.38","","","","","","NA"
"-128.91","50.82","SARTINE ISLAND (AUT)","1037090","2018-12-08 09:00","2018","12","08","09:00","8.3","","7.6","","96","","","","15","","48","","","","100.47","","","","","","NA"
"-128.91","50.82","SARTINE ISLAND (AUT)","1037090","2018-12-08 10:00","2018","12","08","10:00","8.5","","7.8","","95","","","","15","","56","","","","100.49","","","","","","NA"
"-128.91","50.82","SARTINE ISLAND (AUT)","1037090","2018-12-08 11:00","2018","12","08","11:00","8.6","","7.5","","93","","","","15","","65","","","","100.49","","","","","","NA"
"-128.91","50.82","SARTINE ISLAND (AUT)","1037090","2018-12-08 12:00","2018","12","08","12:00","8.8","","7.5","","92","","","","15","","69","","","","100.44","","","","","","NA"
"-128.91","50.82","SARTINE ISLAND (AUT)","1037090","2018-12-08 13:00","2018","12","08","13:00","8.6","","7.4","","92","","","","15","","69","","","","100.39","","","","","","NA"
"-128.91","50.82","SARTINE ISLAND (AUT)","1037090","2018-12-08 14:00","2018","12","08","14:00","8.8","","7.7","","93","","","","15","","73","","","","100.29","","","","","","NA"
"-128.91","50.82","SARTINE ISLAND (AUT)","1037090","2018-12-08 15:00","2018","12","08","15:00","9.1","","8.0","","93","","","","15","","81","","","","100.27","","","","","","NA"
"-128.91","50.82","SARTINE ISLAND (AUT)","1037090","2018-12-08 16:00","2018","12","08","16:00","9.2","","8.1","","93","","","","15","","80","","","","100.17","","","","","","NA"
"-128.91","50.82","SARTINE ISLAND (AUT)","1037090","2018-12-08 17:00","2018","12","08","17:00","9.2","","8.2","","94","","","","15","","84","","","","100.08","","","","","","NA"
"-128.91","50.82","SARTINE ISLAND (AUT)","1037090","2018-12-08 18:00","2018","12","08","18:00","9.0","","8.0","","93","","","","15","","67","","","","100.01","","","","","","NA"
"-128.91","50.82","SARTINE ISLAND (AUT)","1037090","2018-12-08 19:00","2018","12","08","19:00","9.2","","7.5","","89","","","","15","","77","","","","99.93","","","","","","NA"
"-128.91","50.82","SARTINE ISLAND (AUT)","1037090","2018-12-08 20:00","2018","12","08","20:00","9.1","","7.6","","90","","","","15","","92","","","","99.87","","","","","","NA"
"-128.91","50.82","SARTINE ISLAND (AUT)","1037090","2018-12-08 21:00","2018","12","08","21:00","9.3","","7.4","","88","","","","15","","92","","","","99.73","","","","","","NA"
"-128.91","50.82","SARTINE ISLAND (AUT)","1037090","2018-12-08 22:00","2018","12","08","22:00","9.7","","7.4","","85","","","","15","","95","","","","99.63","","","","","","NA"
"-128.91","50.82","SARTINE ISLAND (AUT)","1037090","2018-12-08 23:00","2018","12","08","23:00","9.8","","7.1","","83","","","","15","","88","","","","99.51","","","","","","NA"
"-128.91","50.82","SARTINE ISLAND (AUT)","1037090","2018-12-09 00:00","2018","12","09","00:00","10.5","","6.3","","75","","","","15","","84","","","","99.36","","","","","","NA"
"-128.91","50.82","SARTINE ISLAND (AUT)","1037090","2018-12-09 01:00","2018","12","09","01:00","10.3","","6.8","","79","","","","14","","73","","","","99.20","","","","","","NA"
"-128.91","50.82","SARTINE ISLAND (AUT)","1037090","2018-12-09 02:00","2018","12","09","02:00","9.3","","7.6","","90","","","","12","","66","","","","99.08","","","","","","NA"
"-128.91","50.82","SARTINE ISLAND (AUT)","1037090","2018-12-09 03:00","2018","12","09","03:00","8.7","","8.3","","98","","","","11","","62","","","","98.99","","","","","","NA"
"-128.91","50.82","SARTINE ISLAND (AUT)","1037090","2018-12-09 04:00","2018","12","09","04:00","9.3","","9.0","","98","","","","12","","73","","","","98.73","","","","","","NA"
"-128.91","50.82","SARTINE ISLAND (AUT)","1037090","2018-12-09 05:00","2018","12","09","05:00","9.2","","8.6","","96","","","","15","","114","","","","98.59","","","","","","NA"
"-128.91","50.82","SARTINE ISLAND (AUT)","1037090","2018-12-09 06:00","2018","12","09","06:00","9.5","","8.9","","96","","","","18","","51","","","","98.98","","","","","","NA"
"-128.91","50.82","SARTINE ISLAND (AUT)","1037090","2018-12-09 07:00","2018","12","09","07:00","9.7","","9.0","","95","","","","18","","49","","","","99.10","","","","","","NA"
"-128.91","50.82","SARTINE ISLAND (AUT)","1037090","2018-12-09 08:00","2018","12","09","08:00","9.8","","9.1","","96","","","","16","","58","","","","99.17","","","","","","NA"
"-128.91","50.82","SARTINE ISLAND (AUT)","1037090","2018-12-09 09:00","2018","12","09","09:00","10.1","","9.0","","93","","","","16","","63","","","","99.19","","","","","","NA"
"-128.91","50.82","SARTINE ISLAND (AUT)","1037090","2018-12-09 10:00","2018","12","09","10:00","9.6","","8.1","","90","","","","18","","73","","","","99.29","","","","","","NA"
"-128.91","50.82","SARTINE ISLAND (AUT)","1037090","2018-12-09 11:00","2018","12","09","11:00","9.4","","7.8","","90","","","","19","","54","","","","99.45","","","","","","NA"
"-128.91","50.82","SARTINE ISLAND (AUT)","1037090","2018-12-09 12:00","2018","12","09","12:00","9.3","","7.6","","89","","","","21","","49","","","","99.61","","","","","","NA"
"-128.91","50.82","SARTINE ISLAND (AUT)","1037090","2018-12-09 13:00","2018","12","09","13:00","9.7","","7.3","","85","","","","22","","44","","","","99.71","","","","","","NA"
"-128.91","50.82","SARTINE ISLAND (AUT)","1037090","2018-12-09 14:00","2018","12","09","14:00","9.3","","6.9","","85","","","","21","","39","","","","99.77","","","","","","NA"
"-128.91","50.82","SARTINE ISLAND (AUT)","1037090","2018-12-09 15:00","2018","12","09","15:00","9.5","","6.4","","81","","","","22","","35","","","","99.83","","","","","","NA"
"-128.91","50.82","SARTINE ISLAND (AUT)","1037090","2018-12-09 16:00","2018","12","09","16:00","8.9","","5.8","","81","","","","22","","34","","","","99.90","","","","","","NA"
"-128.91","50.82","SARTINE ISLAND (AUT)","1037090","2018-12-09 17:00","2018","12","09","17:00","8.8","","5.6","","80","","","","22","","30","","","","99.96","","","","","","NA"
"-128.91","50.82","SARTINE ISLAND (AUT)","1037090","2018-12-09 18:00","2018","12","09","18:00","8.8","","5.4","","79","","","","23","","29","","","","100.00","","","","","","NA"
"-128.91","50.82","SARTINE ISLAND (AUT)","1037090","2018-12-09 19:00","2018","12","09","19:00","8.7","","3.5","","70","","","","23","","29","","","","100.04","","","","","","NA"
"-128.91","50.82","SARTINE ISLAND (AUT)","1037090","2018-12-09 20:00","2018","12","09","20:00","7.1","","3.9","","80","","","","27","","25","","","","100.12","","","","","","NA"
"-128.91","50.82","SARTINE ISLAND (AUT)","1037090","2018-12-09 21:00","2018","12","09","21:00","6.7","","4.2","","84","","","","24","","36","","","","100.15","","","","","","NA"
"-128.91","50.82","SARTINE ISLAND (AUT)","1037090","2018-12-09 22:00","2018","12","09","22:00","6.4","","4.4","","87","","","","25","","19","","","","100.21","","","","","","NA"
"-128.91","50.82","SARTINE ISLAND (AUT)","1037090","2018-12-09 23:00","2018","12","09","23:00","6.8","","4.6","","86","","","","24","","22","","","","100.27","","","","","","NA"
"-128.91","50.82","SARTINE ISLAND (AUT)","1037090","2018-12-10 00:00","2018","12","10","00:00","6.9","","4.0","","82","","","","24","","30","","","","100.30","","","","","","NA"
"-128.91","50.82","SARTINE ISLAND (AUT)","1037090","2018-12-10 01:00","2018","12","10","01:00","6.9","","3.3","","78","","","","24","","31","","","","100.29","","","","","","NA"
"-128.91","50.82","SARTINE ISLAND (AUT)","1037090","2018-12-10 02:00","2018","12","10","02:00","7.2","","3.8","","79","","","","23","","27","","","","100.35","","","","","","NA"
"-128.91","50.82","SARTINE ISLAND (AUT)","1037090","2018-12-10 03:00","2018","12","10","03:00","7.1","","5.1","","87","","","","22","","26","","","","100.41","","","","","","NA"
"-128.91","50.82","SARTINE ISLAND (AUT)","1037090","2018-12-10 04:00","2018","12","10","04:00","6.8","","3.6","","80","","","","23","","33","","","","100.44","","","","","","NA"
"-128.91","50.82","SARTINE ISLAND (AUT)","1037090","2018-12-10 05:00","2018","12","10","05:00","7.2","","3.9","","79","","","","22","","25","","","","100.47","","","","","","NA"
"-128.91","50.82","SARTINE ISLAND (AUT)","1037090","2018-12-10 06:00","2018","12","10","06:00","7.2","","4.0","","80","","","","21","","26","","","","100.48","","","","","","NA"
"-128.91","50.82","SARTINE ISLAND (AUT)","1037090","2018-12-10 07:00","2018","12","10","07:00","7.4","","3.7","","78","","","","20","","27","","","","100.48","","","","","","NA"
"-128.91","50.82","SARTINE ISLAND (AUT)","1037090","2018-12-10 08:00","2018","12","10","08:00","7.7","","3.7","","76","","","","19","","30","","","","100.44","","","","","","NA"
"-128.91","50.82","SARTINE ISLAND (AUT)","1037090","2018-12-10 09:00","2018","12","10","09:00","7.9","","4.5","","79","","","","19","","34","","","","100.42","","","","","","NA"
"-128.91","50.82","SARTINE ISLAND (AUT)","1037090","2018-12-10 10:00","2018","12","10","10:00","7.4","","5.0","","85","","","","16","","42","","","","100.39","","","","","","NA"
"-128.91","50.82","SARTINE ISLAND (AUT)","1037090","2018-12-10 11:00","2018","12","10","11:00","8.0","","5.8","","86","","","","15","","61","","","","100.27","","","","","","NA"
"-128.91","50.82","SARTINE ISLAND (AUT)","1037090","2018-12-10 12:00","2018","12","10","12:00","8.2","","6.0","","86","","","","15","","64","","","","100.24","","","","","","NA"
"-128.91","50.82","SARTINE ISLAND (AUT)","1037090","2018-12-10 13:00","2018","12","10","13:00","8.7","","4.5","","75","","","","16","","73","","","","100.04","","","","","","NA"
"-128.91","50.82","SARTINE ISLAND (AUT)","1037090","2018-12-10 14:00","2018","12","10","14:00","8.7","","5.6","","80","","","","16","","76","","","","99.91","","","","","","NA"
"-128.91","50.82","SARTINE ISLAND (AUT)","1037090","2018-12-10 15:00","2018","12","10","15:00","8.9","","6.1","","82","","","","15","","84","","","","99.73","","","","","","NA"
"-128.91","50.82","SARTINE ISLAND (AUT)","1037090","2018-12-10 16:00","2018","12","10","16:00","8.2","","6.2","","88","","","","15","","96","","","","99.53","","","","","","NA"
"-128.91","50.82","SARTINE ISLAND (AUT)","1037090","2018-12-10 17:00","2018","12","10","17:00","7.7","","6.9","","95","","","","15","","95","","","","99.34","","","","","","NA"
"-128.91","50.82","SARTINE ISLAND (AUT)","1037090","2018-12-10 18:00","2018","12","10","18:00","7.8","","7.5","","98","","","","15","","98","","","","99.24","","","","","","NA"
"-128.91","50.82","SARTINE ISLAND (AUT)","1037090","2018-12-10 19:00","2018","12","10","19:00","7.7","","7.6","","99","","","","15","","104","","","","98.93","","","","","","NA"
"-128.91","50.82","SARTINE ISLAND (AUT)","1037090","2018-12-10 20:00","2018","12","10","20:00","8.0","","7.3","","96","","","","15","","114","","","","98.77","","","","","","NA"
"-128.91","50.82","SARTINE ISLAND (AUT)","1037090","2018-12-10 21:00","2018","12","10","21:00","8.1","","7.8","","98","","","","15","","119","","","","98.58","","","","","","NA"
"-128.91","50.82","SARTINE ISLAND (AUT)","1037090","2018-12-10 22:00","2018","12","10","22:00","8.1","","8.1","","100","","","","15","","116","","","","98.63","","","","","","NA"
"-128.91","50.82","SARTINE ISLAND (AUT)","1037090","2018-12-10 23:00","2018","12","10","23:00","8.2","","8.2","","100","","","","16","","111","","","","98.44","","","","","","NA"
"-128.91","50.82","SARTINE ISLAND (AUT)","1037090","2018-12-11 00:00","2018","12","11","00:00","8.8","","8.8","","100","","","","16","","103","","","","98.49","","","","","","NA"
"-128.91","50.82","SARTINE ISLAND (AUT)","1037090","2018-12-11 01:00","2018","12","11","01:00","9.8","","9.8","","100","","","","16","","76","","","","98.39","","","","","","NA"
"-128.91","50.82","SARTINE ISLAND (AUT)","1037090","2018-12-11 02:00","2018","12","11","02:00","10.2","","10.2","","100","","","","18","","53","","","","98.40","","","","","","NA"
"-128.91","50.82","SARTINE ISLAND (AUT)","1037090","2018-12-11 03:00","2018","12","11","03:00","10.2","","10.2","","100","","","","21","","55","","","","98.35","","","","","","NA"
"-128.91","50.82","SARTINE ISLAND (AUT)","1037090","2018-12-11 04:00","2018","12","11","04:00","10.0","","10.0","","100","","","","22","","54","","","","98.30","","","","","","NA"
"-128.91","50.82","SARTINE ISLAND (AUT)","1037090","2018-12-11 05:00","2018","12","11","05:00","9.4","","9.4","","100","","","","25","","52","","","","98.30","","","","","","NA"
"-128.91","50.82","SARTINE ISLAND (AUT)","1037090","2018-12-11 06:00","2018","12","11","06:00","9.1","","7.8","","92","","","","26","","42","","","","98.35","","","","","","NA"
"-128.91","50.82","SARTINE ISLAND (AUT)","1037090","2018-12-11 07:00","2018","12","11","07:00","9.3","","8.1","","92","","","","27","","33","","","","98.44","","","","","","NA"
"-128.91","50.82","SARTINE ISLAND (AUT)","1037090","2018-12-11 08:00","2018","12","11","08:00","8.3","","6.2","","86","","","","28","","45","","","","98.49","","","","","","NA"
"-128.91","50.82","SARTINE ISLAND (AUT)","1037090","2018-12-11 09:00","2018","12","11","09:00","8.9","","6.5","","85","","","","27","","27","","","","98.55","","","","","","NA"
"-128.91","50.82","SARTINE ISLAND (AUT)","1037090","2018-12-11 10:00","2018","12","11","10:00","8.7","","3.7","","71","","","","28","","39","","","","98.59","","","","","","NA"
"-128.91","50.82","SARTINE ISLAND (AUT)","1037090","2018-12-11 11:00","2018","12","11","11:00","8.4","","3.6","","72","","","","27","","35","","","","98.63","","","","","","NA"
"-128.91","50.82","SARTINE ISLAND (AUT)","1037090","2018-12-11 12:00","2018","12","11","12:00","7.7","","3.9","","77","","","","28","","42","","","","98.63","","","","","","NA"
"-128.91","50.82","SARTINE ISLAND (AUT)","1037090","2018-12-11 13:00","2018","12","11","13:00"
"-128.91","50.82","SARTINE ISLAND (AUT)","1037090","2018-12-11 14:00","2018","12","11","14:00"
"-128.91","50.82","SARTINE ISLAND (AUT)","1037090","2018-12-11 15:00","2018","12","11","15:00"
"-128.91","50.82","SARTINE ISLAND (AUT)","1037090","2018-12-11 16:00","2018","12","11","16:00","7.4","","3.8","","78","","","","28","","53","","","","98.80","","","","","","NA"
"-128.91","50.82","SARTINE ISLAND (AUT)","1037090","2018-12-11 17:00","2018","12","11","17:00","7.4","","4.7","","83","","","","28","","39","","","","98.94","","","","","","NA"
"-128.91","50.82","SARTINE ISLAND (AUT)","1037090","2018-12-11 18:00","2018","12","11","18:00","7.4","","2.9","","73","","0.2","","29","","46","","","","99.02","","","","","","NA"
"-128.91","50.82","SARTINE ISLAND (AUT)","1037090","2018-12-11 19:00","2018","12","11","19:00","8.0","","3.4","","73","","0.0","","28","","45","","","","99.09","","","","","","NA"
"-128.91","50.82","SARTINE ISLAND (AUT)","1037090","2018-12-11 20:00","2018","12","11","20:00","6.8","","2.1","","72","","0.0","","29","","57","","","","99.22","","","","","","NA"
"-128.91","50.82","SARTINE ISLAND (AUT)","1037090","2018-12-11 21:00","2018","12","11","21:00","6.9","","3.5","","79","","0.0","","29","","52","","","","99.36","","","","","","NA"
"-128.91","50.82","SARTINE ISLAND (AUT)","1037090","2018-12-11 22:00","2018","12","11","22:00","8.1","","1.6","","64","","0.0","","29","","56","","","","99.50","","","","","","NA"
"-128.91","50.82","SARTINE ISLAND (AUT)","1037090","2018-12-11 23:00","2018","12","11","23:00","8.3","","3.0","","69","","0.0","","28","","54","","","","99.61","","","","","","NA"
"-128.91","50.82","SARTINE ISLAND (AUT)","1037090","2018-12-12 00:00","2018","12","12","00:00","7.8","","1.3","","63","","0.2","","28","","60","","","","99.70","","","","","","NA"
"-128.91","50.82","SARTINE ISLAND (AUT)","1037090","2018-12-12 01:00","2018","12","12","01:00","7.9","","3.6","","74","","0.0","","28","","47","","","","99.82","","","","","","NA"
"-128.91","50.82","SARTINE ISLAND (AUT)","1037090","2018-12-12 02:00","2018","12","12","02:00","7.9","","3.7","","75","","0.0","","28","","53","","","","99.93","","","","","","NA"
"-128.91","50.82","SARTINE ISLAND (AUT)","1037090","2018-12-12 03:00","2018","12","12","03:00","8.1","","3.1","","71","","0.0","","28","","44","","","","99.95","","","","","","NA"
"-128.91","50.82","SARTINE ISLAND (AUT)","1037090","2018-12-12 04:00","2018","12","12","04:00","7.8","","3.8","","76","","0.0","","27","","32","","","","99.99","","","","","","NA"
"-128.91","50.82","SARTINE ISLAND (AUT)","1037090","2018-12-12 05:00","2018","12","12","05:00","7.8","","4.2","","78","","0.0","","25","","50","","","","99.99","","","","","","NA"
"-128.91","50.82","SARTINE ISLAND (AUT)","1037090","2018-12-12 06:00","2018","12","12","06:00","8.2","","5.3","","82","","0.0","","23","","42","","","","99.99","","","","","","NA"
"-128.91","50.82","SARTINE ISLAND (AUT)","1037090","2018-12-12 07:00","2018","12","12","07:00"
"-128.91","50.82","SARTINE ISLAND (AUT)","1037090","2018-12-12 08:00","2018","12","12","08:00","6.1","","4.6","","90","","0.6","","21","","38","","","","99.91","","","","","","NA"
"-128.91","50.82","SARTINE ISLAND (AUT)","1037090","2018-12-12 09:00","2018","12","12","09:00","6.8","","5.0","","88","","0.2","","19","","52","","","","99.77","","","","","","NA"
"-128.91","50.82","SARTINE ISLAND (AUT)","1037090","2018-12-12 10:00","2018","12","12","10:00"
"-128.91","50.82","SARTINE ISLAND (AUT)","1037090","2018-12-12 11:00","2018","12","12","11:00","7.1","","6.3","","95","","2.4","","20","","50","","","","99.58","","","","","","NA"
"-128.91","50.82","SARTINE ISLAND (AUT)","1037090","2018-12-12 12:00","2018","12","12","12:00"
"-128.91","50.82","SARTINE ISLAND (AUT)","1037090","2018-12-12 13:00","2018","12","12","13:00","8.5","","7.4","","92","","0.6","","19","","81","","","","99.13","","","","","","NA"
"-128.91","50.82","SARTINE ISLAND (AUT)","1037090","2018-12-12 14:00","2018","12","12","14:00","8.3","","7.7","","96","","1.4","","18","","90","","","","98.91","","","","","","NA"
"-128.91","50.82","SARTINE ISLAND (AUT)","1037090","2018-12-12 15:00","2018","12","12","15:00"
"-128.91","50.82","SARTINE ISLAND (AUT)","1037090","2018-12-12 16:00","2018","12","12","16:00"
"-128.91","50.82","SARTINE ISLAND (AUT)","1037090","2018-12-12 17:00","2018","12","12","17:00","10.4","","9.8","","97","","0.0","","22","","65","","","","98.76","","","","","","NA"
"-128.91","50.82","SARTINE ISLAND (AUT)","1037090","2018-12-12 18:00","2018","12","12","18:00"
"-128.91","50.82","SARTINE ISLAND (AUT)","1037090","2018-12-12 19:00","2018","12","12","19:00"
"-128.91","50.82","SARTINE ISLAND (AUT)","1037090","2018-12-12 20:00","2018","12","12","20:00"
"-128.91","50.82","SARTINE ISLAND (AUT)","1037090","2018-12-12 21:00","2018","12","12","21:00","8.3","","4.9","","79","","0.2","","24","","73","","","","98.88","","","","","","NA"
"-128.91","50.82","SARTINE ISLAND (AUT)","1037090","2018-12-12 22:00","2018","12","12","22:00"
"-128.91","50.82","SARTINE ISLAND (AUT)","1037090","2018-12-12 23:00","2018","12","12","23:00","8.0","","5.8","","86","","0.0","","24","","66","","","","99.08","","","","","","NA"
"-128.91","50.82","SARTINE ISLAND (AUT)","1037090","2018-12-13 00:00","2018","12","13","00:00","8.7","","4.3","","74","","0.0","","25","","70","","","","99.17","","","","","","NA"
"-128.91","50.82","SARTINE ISLAND (AUT)","1037090","2018-12-13 01:00","2018","12","13","01:00"
"-128.91","50.82","SARTINE ISLAND (AUT)","1037090","2018-12-13 02:00","2018","12","13","02:00"
"-128.91","50.82","SARTINE ISLAND (AUT)","1037090","2018-12-13 03:00","2018","12","13","03:00","8.3","","3.9","","74","","0.0","","26","","40","","","","99.52","","","","","","NA"
"-128.91","50.82","SARTINE ISLAND (AUT)","1037090","2018-12-13 04:00","2018","12","13","04:00"
"-128.91","50.82","SARTINE ISLAND (AUT)","1037090","2018-12-13 05:00","2018","12","13","05:00","7.9","","2.5","","69","","0.0","","28","","35","","","","99.64","","","","","","NA"
"-128.91","50.82","SARTINE ISLAND (AUT)","1037090","2018-12-13 06:00","2018","12","13","06:00","6.1","","3.6","","84","","0.2","","22","","18","","","","99.70","","","","","","NA"
"-128.91","50.82","SARTINE ISLAND (AUT)","1037090","2018-12-13 07:00","2018","12","13","07:00","6.0","","3.4","","84","","0.0","","29","","31","","","","99.75","","","","","","NA"
"-128.91","50.82","SARTINE ISLAND (AUT)","1037090","2018-12-13 08:00","2018","12","13","08:00","6.6","","3.4","","80","","0.0","","24","","14","","","","99.77","","","","","","NA"
"-128.91","50.82","SARTINE ISLAND (AUT)","1037090","2018-12-13 09:00","2018","12","13","09:00","7.0","","2.7","","74","","0.0","","30","","13","","","","99.81","","","","","","NA"
"-128.91","50.82","SARTINE ISLAND (AUT)","1037090","2018-12-13 10:00","2018","12","13","10:00","7.1","","-0.5","","58","","0.0","","21","","10","","","","99.81","","","","","","NA"
"-128.91","50.82","SARTINE ISLAND (AUT)","1037090","2018-12-13 11:00","2018","12","13","11:00","6.6","","1.1","","68","","0.0","","21","","8","","","","99.79","","","","","","NA"
"-128.91","50.82","SARTINE ISLAND (AUT)","1037090","2018-12-13 12:00","2018","12","13","12:00","6.2","","-0.2","","64","","0.0","","3","","6","","","","99.72","","","","","","NA"
"-128.91","50.82","SARTINE ISLAND (AUT)","1037090","2018-12-13 13:00","2018","12","13","13:00","5.4","","1.0","","73","","0.0","","5","","9","","","","99.63","","","","","","NA"
"-128.91","50.82","SARTINE ISLAND (AUT)","1037090","2018-12-13 14:00","2018","12","13","14:00","4.5","","2.3","","86","","0.2","","3","","10","","","","99.54","","","","","","NA"
"-128.91","50.82","SARTINE ISLAND (AUT)","1037090","2018-12-13 15:00","2018","12","13","15:00","3.9","","2.7","","92","","1.0","","3","","25","","","","99.39","","","","","","NA"
"-128.91","50.82","SARTINE ISLAND (AUT)","1037090","2018-12-13 16:00","2018","12","13","16:00","3.7","","2.9","","95","","1.4","","3","","37","","","","99.17","","","","","","NA"
"-128.91","50.82","SARTINE ISLAND (AUT)","1037090","2018-12-13 17:00","2018","12","13","17:00","3.6","","3.1","","96","","1.2","","4","","44","","","","98.98","","","","","","NA"
"-128.91","50.82","SARTINE ISLAND (AUT)","1037090","2018-12-13 18:00","2018","12","13","18:00","3.1","","2.5","","96","","2.4","","3","","52","","","","98.77","","","","","","NA"
"-128.91","50.82","SARTINE ISLAND (AUT)","1037090","2018-12-13 19:00","2018","12","13","19:00","2.9","","2.5","","97","","2.2","","3","","62","","","","98.60","","","","","","NA"
"-128.91","50.82","SARTINE ISLAND (AUT)","1037090","2018-12-13 20:00","2018","12","13","20:00","2.3","","2.0","","98","","2.8","","3","","60","","","","98.51","","","","","","NA"
"-128.91","50.82","SARTINE ISLAND (AUT)","1037090","2018-12-13 21:00","2018","12","13","21:00","2.2","","2.1","","99","","2.8","","2","","61","","","","98.35","","","","","","NA"
"-128.91","50.82","SARTINE ISLAND (AUT)","1037090","2018-12-13 22:00","2018","12","13","22:00","2.5","","2.4","","99","","1.6","","2","","50","","","","98.31","","","","","","NA"
"-128.91","50.82","SARTINE ISLAND (AUT)","1037090","2018-12-13 23:00","2018","12","13","23:00","2.9","","2.8","","100","","2.2","","2","","56","","","","98.19","","","","","","NA"
"-128.91","50.82","SARTINE ISLAND (AUT)","1037090","2018-12-14 00:00","2018","12","14","00:00","2.8","","2.8","","100","","2.0","","2","","63","","","","98.06","","","","","","NA"
"-128.91","50.82","SARTINE ISLAND (AUT)","1037090","2018-12-14 01:00","2018","12","14","01:00","2.7","","2.6","","99","","2.4","","2","","66","","","","97.95","","","","","","NA"
"-128.91","50.82","SARTINE ISLAND (AUT)","1037090","2018-12-14 02:00","2018","12","14","02:00","2.4","","2.2","","99","","2.6","","2","","60","","","","97.85","","","","","","NA"
"-128.91","50.82","SARTINE ISLAND (AUT)","1037090","2018-12-14 03:00","2018","12","14","03:00","1.6","","1.4","","99","","2.6","","1","","64","","","","97.75","","","","","","NA"
"-128.91","50.82","SARTINE ISLAND (AUT)","1037090","2018-12-14 04:00","2018","12","14","04:00","1.7","","1.6","","100","","3.8","","1","","64","","","","97.57","","","","","","NA"
"-128.91","50.82","SARTINE ISLAND (AUT)","1037090","2018-12-14 05:00","2018","12","14","05:00","0.9","","0.9","","100","","3.8","","1","","57","","","","97.43","","","","","","NA"
"-128.91","50.82","SARTINE ISLAND (AUT)","1037090","2018-12-14 06:00","2018","12","14","06:00","1.1","","1.1","","100","","4.0","","1","","57","","","","97.33","","","","","","NA"
"-128.91","50.82","SARTINE ISLAND (AUT)","1037090","2018-12-14 07:00","2018","12","14","07:00"
"-128.91","50.82","SARTINE ISLAND (AUT)","1037090","2018-12-14 08:00","2018","12","14","08:00"
"-128.91","50.82","SARTINE ISLAND (AUT)","1037090","2018-12-14 09:00","2018","12","14","09:00","2.8","","2.4","","97","","1.0","","32","","46","","","","97.49","","","","","","NA"
"-128.91","50.82","SARTINE ISLAND (AUT)","1037090","2018-12-14 10:00","2018","12","14","10:00","3.3","","2.2","","93","","0.6","","32","","50","","","","97.61","","","","","","NA"
"-128.91","50.82","SARTINE ISLAND (AUT)","1037090","2018-12-14 11:00","2018","12","14","11:00","3.2","","2.2","","93","","0.4","","32","","59","","","","97.76","","","","","","NA"
"-128.91","50.82","SARTINE ISLAND (AUT)","1037090","2018-12-14 12:00","2018","12","14","12:00","4.1","","2.7","","91","","0.2","","31","","69","","","","97.82","","","","","","NA"
"-128.91","50.82","SARTINE ISLAND (AUT)","1037090","2018-12-14 13:00","2018","12","14","13:00","4.6","","1.7","","82","","0.0","","31","","50","","","","97.99","","","","","","NA"
"-128.91","50.82","SARTINE ISLAND (AUT)","1037090","2018-12-14 14:00","2018","12","14","14:00","5.2","","0.8","","73","","0.0","","31","","46","","","","98.04","","","","","","NA"
"-128.91","50.82","SARTINE ISLAND (AUT)","1037090","2018-12-14 15:00","2018","12","14","15:00","5.1","","-0.3","","68","","0.0","","30","","37","","","","98.19","","","","","","NA"
"-128.91","50.82","SARTINE ISLAND (AUT)","1037090","2018-12-14 16:00","2018","12","14","16:00","5.2","","-0.3","","68","","0.0","","30","","30","","","","98.31","","","","","","NA"
"-128.91","50.82","SARTINE ISLAND (AUT)","1037090","2018-12-14 17:00","2018","12","14","17:00","4.2","","0.2","","75","","0.0","","29","","52","","","","98.43","","","","","","NA"
"-128.91","50.82","SARTINE ISLAND (AUT)","1037090","2018-12-14 18:00","2018","12","14","18:00","5.9","","-0.1","","65","","0.0","","30","","42","","","","98.58","","","","","","NA"
"-128.91","50.82","SARTINE ISLAND (AUT)","1037090","2018-12-14 19:00","2018","12","14","19:00","6.2","","-0.3","","63","","0.0","","30","","36","","","","98.71","","","","","","NA"
"-128.91","50.82","SARTINE ISLAND (AUT)","1037090","2018-12-14 20:00","2018","12","14","20:00","6.4","","0.4","","66","","0.0","","28","","34","","","","98.79","","","","","","NA"
"-128.91","50.82","SARTINE ISLAND (AUT)","1037090","2018-12-14 21:00","2018","12","14","21:00","6.4","","0.7","","67","","0.0","","27","","37","","","","98.93","","","","","","NA"
"-128.91","50.82","SARTINE ISLAND (AUT)","1037090","2018-12-14 22:00","2018","12","14","22:00","6.4","","1.1","","69","","0.0","","26","","29","","","","99.05","","","","","","NA"
"-128.91","50.82","SARTINE ISLAND (AUT)","1037090","2018-12-14 23:00","2018","12","14","23:00","6.6","","1.2","","68","","0.0","","22","","36","","","","99.15","","","","","","NA"
"-128.91","50.82","SARTINE ISLAND (AUT)","1037090","2018-12-15 00:00","2018","12","15","00:00","6.7","","1.1","","67","","0.0","","21","","36","","","","99.18","","","","","","NA"
"-128.91","50.82","SARTINE ISLAND (AUT)","1037090","2018-12-15 01:00","2018","12","15","01:00","6.9","","1.9","","70","","0.0","","18","","37","","","","99.20","","","","","","NA"
"-128.91","50.82","SARTINE ISLAND (AUT)","1037090","2018-12-15 02:00","2018","12","15","02:00","7.2","","1.6","","68","","0.0","","17","","54","","","","99.23","","","","","","NA"
"-128.91","50.82","SARTINE ISLAND (AUT)","1037090","2018-12-15 03:00","2018","12","15","03:00","7.6","","2.6","","71","","0.0","","16","","64","","","","99.21","","","","","","NA"
"-128.91","50.82","SARTINE ISLAND (AUT)","1037090","2018-12-15 04:00","2018","12","15","04:00","7.8","","3.2","","73","","0.0","","16","","73","","","","99.15","","","","","","NA"
"-128.91","50.82","SARTINE ISLAND (AUT)","1037090","2018-12-15 05:00","2018","12","15","05:00","7.9","","3.4","","73","","0.2","","15","","84","","","","98.94","","","","","","NA"
"-128.91","50.82","SARTINE ISLAND (AUT)","1037090","2018-12-15 06:00","2018","12","15","06:00","6.9","","3.6","","80","","0.0","","15","","90","","","","98.86","","","","","","NA"
"-128.91","50.82","SARTINE ISLAND (AUT)","1037090","2018-12-15 07:00","2018","12","15","07:00","6.7","","4.2","","84","","0.0","","15","","73","","","","98.73","","","","","","NA"
"-128.91","50.82","SARTINE ISLAND (AUT)","1037090","2018-12-15 08:00","2018","12","15","08:00","6.7","","5.1","","89","","0.2","","15","","84","","","","98.63","","","","","","NA"
"-128.91","50.82","SARTINE ISLAND (AUT)","1037090","2018-12-15 09:00","2018","12","15","09:00","6.6","","4.6","","87","","1.0","","15","","85","","","","98.39","","","","","","NA"
"-128.91","50.82","SARTINE ISLAND (AUT)","1037090","2018-12-15 10:00","2018","12","15","10:00","6.5","","4.6","","88","","1.4","","15","","93","","","","98.32","","","","","","NA"
"-128.91","50.82","SARTINE ISLAND (AUT)","1037090","2018-12-15 11:00","2018","12","15","11:00","6.7","","5.3","","91","","2.0","","14","","89","","","","98.24","","","","","","NA"
"-128.91","50.82","SARTINE ISLAND (AUT)","1037090","2018-12-15 12:00","2018","12","15","12:00","6.9","","4.9","","87","","1.6","","14","","93","","","","98.08","","","","","","NA"
"-128.91","50.82","SARTINE ISLAND (AUT)","1037090","2018-12-15 13:00","2018","12","15","13:00","6.8","","5.4","","91","","3.2","","15","","107","","","","97.83","","","","","","NA"
"-128.91","50.82","SARTINE ISLAND (AUT)","1037090","2018-12-15 14:00","2018","12","15","14:00","6.7","","5.4","","92","","5.0","","15","","105","","","","97.80","","","","","","NA"
"-128.91","50.82","SARTINE ISLAND (AUT)","1037090","2018-12-15 15:00","2018","12","15","15:00","6.3","","4.9","","90","","6.4","","15","","110","","","","97.76","","","","","","NA"
"-128.91","50.82","SARTINE ISLAND (AUT)","1037090","2018-12-15 16:00","2018","12","15","16:00","6.6","","5.5","","93","","4.8","","14","","95","","","","97.71","","","","","","NA"
"-128.91","50.82","SARTINE ISLAND (AUT)","1037090","2018-12-15 17:00","2018","12","15","17:00","5.7","","4.7","","93","","4.6","","12","","111","","","","97.53","","","","","","NA"
"-128.91","50.82","SARTINE ISLAND (AUT)","1037090","2018-12-15 18:00","2018","12","15","18:00","5.7","","5.0","","95","","6.4","","","","","M","","","97.50","","","","","","NA"
"-128.91","50.82","SARTINE ISLAND (AUT)","1037090","2018-12-15 19:00","2018","12","15","19:00","5.4","","4.5","","94","","5.6","","","","","M","","","97.35","","","","","","NA"
"-128.91","50.82","SARTINE ISLAND (AUT)","1037090","2018-12-15 20:00","2018","12","15","20:00","5.7","","4.8","","94","","6.0","","","","","M","","","97.41","","","","","","NA"
"-128.91","50.82","SARTINE ISLAND (AUT)","1037090","2018-12-15 21:00","2018","12","15","21:00","5.5","","4.3","","92","","4.6","","","","","M","","","97.47","","","","","","NA"
"-128.91","50.82","SARTINE ISLAND (AUT)","1037090","2018-12-15 22:00","2018","12","15","22:00","6.4","","5.1","","91","","6.0","","","","","M","","","97.56","","","","","","NA"
"-128.91","50.82","SARTINE ISLAND (AUT)","1037090","2018-12-15 23:00","2018","12","15","23:00","6.2","","4.9","","92","","3.6","","","","","M","","","97.60","","","","","","NA"
"-128.91","50.82","SARTINE ISLAND (AUT)","1037090","2018-12-16 00:00","2018","12","16","00:00","6.2","","5.0","","92","","3.2","","","","","M","","","97.71","","","","","","NA"
"-128.91","50.82","SARTINE ISLAND (AUT)","1037090","2018-12-16 01:00","2018","12","16","01:00","7.0","","5.5","","90","","4.6","","","","","M","","","97.50","","","","","","NA"
"-128.91","50.82","SARTINE ISLAND (AUT)","1037090","2018-12-16 02:00","2018","12","16","02:00","8.2","","6.9","","91","","1.8","","","","","M","","","97.59","","","","","","NA"
"-128.91","50.82","SARTINE ISLAND (AUT)","1037090","2018-12-16 03:00","2018","12","16","03:00","8.8","","7.1","","89","","0.2","","","","","M","","","97.64","","","","","","NA"
"-128.91","50.82","SARTINE ISLAND (AUT)","1037090","2018-12-16 04:00","2018","12","16","04:00","8.2","","7.0","","92","","0.0","","","","","M","","","97.68","","","","","","NA"
"-128.91","50.82","SARTINE ISLAND (AUT)","1037090","2018-12-16 05:00","2018","12","16","05:00","6.8","","6.5","","98","","1.0","","","","","M","","","97.72","","","","","","NA"
"-128.91","50.82","SARTINE ISLAND (AUT)","1037090","2018-12-16 06:00","2018","12","16","06:00","9.5","","8.9","","97","","0.0","","","","","M","","","97.75","","","","","","NA"
"-128.91","50.82","SARTINE ISLAND (AUT)","1037090","2018-12-16 07:00","2018","12","16","07:00","9.5","","8.9","","96","","0.0","","","","","M","","","97.85","","","","","","NA"
"-128.91","50.82","SARTINE ISLAND (AUT)","1037090","2018-12-16 08:00","2018","12","16","08:00","9.5","","9.0","","97","","0.0","","","","","M","","","97.87","","","","","","NA"
"-128.91","50.82","SARTINE ISLAND (AUT)","1037090","2018-12-16 09:00","2018","12","16","09:00","9.6","","9.1","","97","","0.0","","","","","M","","","97.94","","","","","","NA"
"-128.91","50.82","SARTINE ISLAND (AUT)","1037090","2018-12-16 10:00","2018","12","16","10:00","9.6","","9.1","","96","","0.0","","","","","M","","","98.00","","","","","","NA"
"-128.91","50.82","SARTINE ISLAND (AUT)","1037090","2018-12-16 11:00","2018","12","16","11:00","9.7","","9.0","","96","","0.0","","","","","M","","","98.05","","","","","","NA"
"-128.91","50.82","SARTINE ISLAND (AUT)","1037090","2018-12-16 12:00","2018","12","16","12:00","10.0","","8.9","","93","","0.0","","","","","M","","","98.08","","","","","","NA"
"-128.91","50.82","SARTINE ISLAND (AUT)","1037090","2018-12-16 13:00","2018","12","16","13:00","9.9","","9.0","","94","","0.0","","","","","M","","","98.08","","","","","","NA"
"-128.91","50.82","SARTINE ISLAND (AUT)","1037090","2018-12-16 14:00","2018","12","16","14:00","9.8","","9.1","","95","","0.0","","","","","M","","","98.13","","","","","","NA"
"-128.91","50.82","SARTINE ISLAND (AUT)","1037090","2018-12-16 15:00","2018","12","16","15:00","9.6","","9.1","","97","","0.0","","","","","M","","","98.12","","","","","","NA"
"-128.91","50.82","SARTINE ISLAND (AUT)","1037090","2018-12-16 16:00","2018","12","16","16:00","9.5","","9.0","","96","","0.0","","","","","M","","","98.18","","","","","","NA"
"-128.91","50.82","SARTINE ISLAND (AUT)","1037090","2018-12-16 17:00","2018","12","16","17:00","9.4","","8.8","","96","","0.0","","","","","M","","","98.20","","","","","","NA"
"-128.91","50.82","SARTINE ISLAND (AUT)","1037090","2018-12-16 18:00","2018","12","16","18:00","9.5","","8.7","","95","","0.0","","","","","M","","","98.21","","","","","","NA"
"-128.91","50.82","SARTINE ISLAND (AUT)","1037090","2018-12-16 19:00","2018","12","16","19:00","9.4","","8.7","","96","","0.0","","","","","M","","","98.26","","","","","","NA"
"-128.91","50.82","SARTINE ISLAND (AUT)","1037090","2018-12-16 20:00","2018","12","16","20:00","9.4","","8.7","","96","","0.0","","","","","M","","","98.29","","","","","","NA"
"-128.91","50.82","SARTINE ISLAND (AUT)","1037090","2018-12-16 21:00","2018","12","16","21:00","9.5","","8.4","","93","","0.0","","","","","M","","","98.32","","","","","","NA"
"-128.91","50.82","SARTINE ISLAND (AUT)","1037090","2018-12-16 22:00","2018","12","16","22:00","8.9","","7.3","","90","","0.0","","","","","M","","","98.37","","","","","","NA"
"-128.91","50.82","SARTINE ISLAND (AUT)","1037090","2018-12-16 23:00","2018","12","16","23:00","9.1","","7.7","","91","","0.0","","","","","M","","","98.42","","","","","","NA"
"-128.91","50.82","SARTINE ISLAND (AUT)","1037090","2018-12-17 00:00","2018","12","17","00:00","9.2","","6.9","","86","","0.0","","","","","M","","","98.48","","","","","","NA"
"-128.91","50.82","SARTINE ISLAND (AUT)","1037090","2018-12-17 01:00","2018","12","17","01:00","9.1","","7.5","","90","","0.0","","","","","M","","","98.58","","","","","","NA"
"-128.91","50.82","SARTINE ISLAND (AUT)","1037090","2018-12-17 02:00","2018","12","17","02:00","9.2","","7.7","","91","","0.0","","","","","M","","","98.61","","","","","","NA"
"-128.91","50.82","SARTINE ISLAND (AUT)","1037090","2018-12-17 03:00","2018","12","17","03:00","9.2","","7.8","","91","","0.0","","","","","M","","","98.66","","","","","","NA"
"-128.91","50.82","SARTINE ISLAND (AUT)","1037090","2018-12-17 04:00","2018","12","17","04:00","9.1","","7.2","","88","","0.0","","","","","M","","","98.66","","","","","","NA"
"-128.91","50.82","SARTINE ISLAND (AUT)","1037090","2018-12-17 05:00","2018","12","17","05:00","9.0","","7.6","","91","","0.0","","","M","","M","","","98.65","","","","","","NA"
"-128.91","50.82","SARTINE ISLAND (AUT)","1037090","2018-12-17 06:00","2018","12","17","06:00","9.1","","7.7","","91","","0.0","","","M","","M","","","98.63","","","","","","NA"
"-128.91","50.82","SARTINE ISLAND (AUT)","1037090","2018-12-17 07:00","2018","12","17","07:00","9.0","","7.5","","90","","0.0","","","M","","M","","","98.54","","","","","","NA"
"-128.91","50.82","SARTINE ISLAND (AUT)","1037090","2018-12-17 08:00","2018","12","17","08:00","9.1","","7.9","","92","","0.0","","14","","69","","","","98.48","","","","","","NA"
"-128.91","50.82","SARTINE ISLAND (AUT)","1037090","2018-12-17 09:00","2018","12","17","09:00","8.8","","7.8","","93","","0.0","","13","","77","","","","98.36","","","","","","NA"
"-128.91","50.82","SARTINE ISLAND (AUT)","1037090","2018-12-17 10:00","2018","12","17","10:00","9.5","","7.9","","90","","0.2","","13","","93","","","","98.16","","","","","","NA"
"-128.91","50.82","SARTINE ISLAND (AUT)","1037090","2018-12-17 11:00","2018","12","17","11:00","9.4","","7.8","","90","","0.2","","13","","100","","","","97.95","","","","","","NA"
"-128.91","50.82","SARTINE ISLAND (AUT)","1037090","2018-12-17 12:00","2018","12","17","12:00","7.8","","6.4","","91","","1.4","","13","","110","","","","97.63","","","","","","NA"
"-128.91","50.82","SARTINE ISLAND (AUT)","1037090","2018-12-17 13:00","2018","12","17","13:00","7.7","","6.7","","94","","3.6","","13","","112","","","","97.49","","","","","","NA"
"-128.91","50.82","SARTINE ISLAND (AUT)","1037090","2018-12-17 14:00","2018","12","17","14:00","7.3","","6.7","","96","","4.2","","14","","120","","","","97.38","","","","","","NA"
"-128.91","50.82","SARTINE ISLAND (AUT)","1037090","2018-12-17 15:00","2018","12","17","15:00","6.8","","5.9","","94","","4.2","","13","","129","","","","97.24","","","","","","NA"
"-128.91","50.82","SARTINE ISLAND (AUT)","1037090","2018-12-17 16:00","2018","12","17","16:00","7.0","","5.3","","89","","2.4","","13","","117","","","","97.16","","","","","","NA"
"-128.91","50.82","SARTINE ISLAND (AUT)","1037090","2018-12-17 17:00","2018","12","17","17:00","7.5","","6.7","","95","","0.8","","13","","89","","","","97.31","","","","","","NA"
"-128.91","50.82","SARTINE ISLAND (AUT)","1037090","2018-12-17 18:00","2018","12","17","18:00","9.2","","8.2","","94","","0.0","","15","","60","","","","97.42","","","","","","NA"
"-128.91","50.82","SARTINE ISLAND (AUT)","1037090","2018-12-17 19:00","2018","12","17","19:00","9.4","","7.5","","88","","0.0","","16","","59","","","","97.50","","","","","","NA"
"-128.91","50.82","SARTINE ISLAND (AUT)","1037090","2018-12-17 20:00","2018","12","17","20:00","9.3","","7.5","","88","","0.0","","16","","61","","","","97.54","","","","","","NA"
"-128.91","50.82","SARTINE ISLAND (AUT)","1037090","2018-12-17 21:00","2018","12","17","21:00","9.5","","7.9","","90","","0.0","","15","","66","","","","97.56","","","","","","NA"
"-128.91","50.82","SARTINE ISLAND (AUT)","1037090","2018-12-17 22:00","2018","12","17","22:00","9.4","","7.9","","90","","0.0","","15","","62","","","","97.56","","","","","","NA"
"-128.91","50.82","SARTINE ISLAND (AUT)","1037090","2018-12-17 23:00","2018","12","17","23:00","8.0","","5.4","","84","","1.0","","19","","58","","","","97.63","","","","","","NA"
"-128.91","50.82","SARTINE ISLAND (AUT)","1037090","2018-12-18 00:00","2018","12","18","00:00","8.2","","6.2","","87","","0.2","","15","","54","","","","97.65","","","","","","NA"
"-128.91","50.82","SARTINE ISLAND (AUT)","1037090","2018-12-18 01:00","2018","12","18","01:00","8.0","","5.0","","81","","0.2","","18","","54","","","","97.66","","","","","","NA"
"-128.91","50.82","SARTINE ISLAND (AUT)","1037090","2018-12-18 02:00","2018","12","18","02:00","8.4","","6.2","","86","","0.0","","17","","49","","","","97.69","","","","","","NA"
"-128.91","50.82","SARTINE ISLAND (AUT)","1037090","2018-12-18 03:00","2018","12","18","03:00","8.8","","6.5","","86","","0.0","","17","","47","","","","97.73","","","","","","NA"
"-128.91","50.82","SARTINE ISLAND (AUT)","1037090","2018-12-18 04:00","2018","12","18","04:00","8.8","","7.0","","88","","0.0","","18","","49","","","","97.75","","","","","","NA"
"-128.91","50.82","SARTINE ISLAND (AUT)","1037090","2018-12-18 05:00","2018","12","18","05:00","9.0","","7.1","","88","","0.0","","17","","49","","","","97.77","","","","","","NA"
"-128.91","50.82","SARTINE ISLAND (AUT)","1037090","2018-12-18 06:00","2018","12","18","06:00","8.0","","5.4","","84","","0.0","","17","","53","","","","97.76","","","","","","NA"
"-128.91","50.82","SARTINE ISLAND (AUT)","1037090","2018-12-18 07:00","2018","12","18","07:00","8.2","","5.8","","85","","0.0","","17","","55","","","","97.80","","","","","","NA"
"-128.91","50.82","SARTINE ISLAND (AUT)","1037090","2018-12-18 08:00","2018","12","18","08:00","8.6","","6.8","","89","","0.0","","16","","50","","","","97.85","","","","","","NA"
"-128.91","50.82","SARTINE ISLAND (AUT)","1037090","2018-12-18 09:00","2018","12","18","09:00","8.8","","7.7","","92","","0.0","","16","","48","","","","97.96","","","","","","NA"
"-128.91","50.82","SARTINE ISLAND (AUT)","1037090","2018-12-18 10:00","2018","12","18","10:00","6.6","","5.1","","90","","1.8","","17","","30","","","","98.05","","","","","","NA"
"-128.91","50.82","SARTINE ISLAND (AUT)","1037090","2018-12-18 11:00","2018","12","18","11:00","6.7","","5.5","","92","","0.8","","16","","47","","","","98.08","","","","","","NA"
"-128.91","50.82","SARTINE ISLAND (AUT)","1037090","2018-12-18 12:00","2018","12","18","12:00","8.5","","6.6","","88","","1.2","","17","","43","","","","98.10","","","","","","NA"
"-128.91","50.82","SARTINE ISLAND (AUT)","1037090","2018-12-18 13:00","2018","12","18","13:00","7.3","","6.0","","91","","0.4","","20","","52","","","","98.17","","","","","","NA"
"-128.91","50.82","SARTINE ISLAND (AUT)","1037090","2018-12-18 14:00","2018","12","18","14:00","8.1","","6.4","","89","","0.0","","19","","46","","","","98.27","","","","","","NA"
"-128.91","50.82","SARTINE ISLAND (AUT)","1037090","2018-12-18 15:00","2018","12","18","15:00","8.3","","6.0","","86","","0.0","","19","","48","","","","98.37","","","","","","NA"
"-128.91","50.82","SARTINE ISLAND (AUT)","1037090","2018-12-18 16:00","2018","12","18","16:00","7.4","","4.3","","81","","0.0","","18","","40","","","","98.49","","","","","","NA"
"-128.91","50.82","SARTINE ISLAND (AUT)","1037090","2018-12-18 17:00","2018","12","18","17:00","8.1","","5.5","","84","","0.8","","20","","40","","","","98.59","","","","","","NA"
"-128.91","50.82","SARTINE ISLAND (AUT)","1037090","2018-12-18 18:00","2018","12","18","18:00","7.9","","5.2","","83","","0.0","","20","","51","","","","98.68","","","","","","NA"
"-128.91","50.82","SARTINE ISLAND (AUT)","1037090","2018-12-18 19:00","2018","12","18","19:00","8.0","","5.8","","86","","0.0","","19","","44","","","","98.78","","","","","","NA"
"-128.91","50.82","SARTINE ISLAND (AUT)","1037090","2018-12-18 20:00","2018","12","18","20:00","7.8","","5.9","","88","","0.0","","18","","44","","","","98.94","","","","","","NA"
"-128.91","50.82","SARTINE ISLAND (AUT)","1037090","2018-12-18 21:00","2018","12","18","21:00","7.7","","6.3","","91","","0.0","","19","","35","","","","99.06","","","","","","NA"
"-128.91","50.82","SARTINE ISLAND (AUT)","1037090","2018-12-18 22:00","2018","12","18","22:00","6.5","","5.4","","92","","0.0","","26","","34","","","","99.26","","","","","","NA"
"-128.91","50.82","SARTINE ISLAND (AUT)","1037090","2018-12-18 23:00","2018","12","18","23:00","7.0","","5.4","","90","","0.6","","29","","45","","","","99.42","","","","","","NA"
"-128.91","50.82","SARTINE ISLAND (AUT)","1037090","2018-12-19 00:00","2018","12","19","00:00","7.3","","5.3","","87","","0.0","","28","","27","","","","99.65","","","","","","NA"
"-128.91","50.82","SARTINE ISLAND (AUT)","1037090","2018-12-19 01:00","2018","12","19","01:00","7.5","","3.6","","76","","0.0","","28","","35","","","","99.83","","","","","","NA"
"-128.91","50.82","SARTINE ISLAND (AUT)","1037090","2018-12-19 02:00","2018","12","19","02:00","7.3","","3.4","","76","","0.0","","28","","31","","","","99.95","","","","","","NA"
"-128.91","50.82","SARTINE ISLAND (AUT)","1037090","2018-12-19 03:00","2018","12","19","03:00","7.4","","1.9","","68","","0.0","","26","","35","","","","100.11","","","","","","NA"
"-128.91","50.82","SARTINE ISLAND (AUT)","1037090","2018-12-19 04:00","2018","12","19","04:00","7.4","","2.9","","73","","0.0","","27","","28","","","","100.24","","","","","","NA"
"-128.91","50.82","SARTINE ISLAND (AUT)","1037090","2018-12-19 05:00","2018","12","19","05:00","7.4","","1.7","","67","","0.0","","26","","15","","","","100.31","","","","","","NA"
"-128.91","50.82","SARTINE ISLAND (AUT)","1037090","2018-12-19 06:00","2018","12","19","06:00","6.8","","3.3","","78","","0.0","","26","","12","","","","100.34","","","","","","NA"
"-128.91","50.82","SARTINE ISLAND (AUT)","1037090","2018-12-19 07:00","2018","12","19","07:00","6.6","","3.4","","80","","0.0","","24","","12","","","","100.36","","","","","","NA"
"-128.91","50.82","SARTINE ISLAND (AUT)","1037090","2018-12-19 08:00","2018","12","19","08:00","7.2","","3.6","","78","","0.0","","18","","10","","","","100.40","","","","","","NA"
"-128.91","50.82","SARTINE ISLAND (AUT)","1037090","2018-12-19 09:00","2018","12","19","09:00","7.3","","3.8","","79","","0.0","","13","","14","","","","100.43","","","","","","NA"
"-128.91","50.82","SARTINE ISLAND (AUT)","1037090","2018-12-19 10:00","2018","12","19","10:00","6.3","","3.3","","81","","0.4","","17","","30","","","","100.46","","","","","","NA"
"-128.91","50.82","SARTINE ISLAND (AUT)","1037090","2018-12-19 11:00","2018","12","19","11:00","5.9","","4.2","","89","","0.6","","18","","29","","","","100.48","","","","","","NA"
"-128.91","50.82","SARTINE ISLAND (AUT)","1037090","2018-12-19 12:00","2018","12","19","12:00","7.0","","5.0","","87","","0.0","","18","","32","","","","100.41","","","","","","NA"
"-128.91","50.82","SARTINE ISLAND (AUT)","1037090","2018-12-19 13:00","2018","12","19","13:00","7.4","","4.9","","84","","0.0","","18","","36","","","","100.39","","","","","","NA"
"-128.91","50.82","SARTINE ISLAND (AUT)","1037090","2018-12-19 14:00","2018","12","19","14:00","7.4","","4.5","","82","","0.0","","18","","38","","","","100.35","","","","","","NA"
"-128.91","50.82","SARTINE ISLAND (AUT)","1037090","2018-12-19 15:00","2018","12","19","15:00","7.4","","4.7","","83","","0.0","","18","","35","","","","100.29","","","","","","NA"
"-128.91","50.82","SARTINE ISLAND (AUT)","1037090","2018-12-19 16:00","2018","12","19","16:00","7.5","","3.8","","78","","0.0","","18","","31","","","","100.27","","","","","","NA"
"-128.91","50.82","SARTINE ISLAND (AUT)","1037090","2018-12-19 17:00","2018","12","19","17:00","7.0","","4.9","","87","","0.0","","21","","11","","","","100.21","","","","","","NA"
"-128.91","50.82","SARTINE ISLAND (AUT)","1037090","2018-12-19 18:00","2018","12","19","18:00","6.4","","4.1","","85","","0.0","","16","","13","","","","100.14","","","","","","NA"
"-128.91","50.82","SARTINE ISLAND (AUT)","1037090","2018-12-19 19:00","2018","12","19","19:00","6.7","","4.3","","85","","0.2","","14","","19","","","","100.06","","","","","","NA"
"-128.91","50.82","SARTINE ISLAND (AUT)","1037090","2018-12-19 20:00","2018","12","19","20:00","6.7","","4.1","","83","","0.0","","12","","17","","","","99.96","","","","","","NA"
"-128.91","50.82","SARTINE ISLAND (AUT)","1037090","2018-12-19 21:00","2018","12","19","21:00","5.1","","2.9","","86","","0.0","","8","","39","","","","99.84","","","","","","NA"
"-128.91","50.82","SARTINE ISLAND (AUT)","1037090","2018-12-19 22:00","2018","12","19","22:00","5.1","","2.8","","85","","0.4","","7","","11","","","","99.71","","","","","","NA"
"-128.91","50.82","SARTINE ISLAND (AUT)","1037090","2018-12-19 23:00","2018","12","19","23:00","5.0","","2.9","","86","","0.2","","2","","16","","","","99.54","","","","","","NA"
"-128.91","50.82","SARTINE ISLAND (AUT)","1037090","2018-12-20 00:00","2018","12","20","00:00","5.0","","3.5","","90","","0.6","","1","","30","","","","99.25","","","","","","NA"
"-128.91","50.82","SARTINE ISLAND (AUT)","1037090","2018-12-20 01:00","2018","12","20","01:00","3.8","","2.7","","93","","3.0","","2","","39","","","","98.91","","","","","","NA"
"-128.91","50.82","SARTINE ISLAND (AUT)","1037090","2018-12-20 02:00","2018","12","20","02:00","3.6","","2.7","","94","","3.4","","2","","51","","","","98.60","","","","","","NA"
"-128.91","50.82","SARTINE ISLAND (AUT)","1037090","2018-12-20 03:00","2018","12","20","03:00","2.8","","2.3","","96","","5.2","","1","","54","","","","98.43","","","","","","NA"
"-128.91","50.82","SARTINE ISLAND (AUT)","1037090","2018-12-20 04:00","2018","12","20","04:00","2.8","","2.4","","97","","4.2","","1","","76","","","","98.04","","","","","","NA"
"-128.91","50.82","SARTINE ISLAND (AUT)","1037090","2018-12-20 05:00","2018","12","20","05:00","3.2","","2.9","","98","","1.4","","1","","67","","","","97.82","","","","","","NA"
"-128.91","50.82","SARTINE ISLAND (AUT)","1037090","2018-12-20 06:00","2018","12","20","06:00","3.2","","2.9","","98","","1.4","","36","","83","","","","97.62","","","","","","NA"
"-128.91","50.82","SARTINE ISLAND (AUT)","1037090","2018-12-20 07:00","2018","12","20","07:00","3.3","","3.1","","99","","2.2","","36","","85","","","","97.55","","","","","","NA"
"-128.91","50.82","SARTINE ISLAND (AUT)","1037090","2018-12-20 08:00","2018","12","20","08:00","3.5","","3.1","","97","","2.4","","35","","94","","","","97.54","","","","","","NA"
"-128.91","50.82","SARTINE ISLAND (AUT)","1037090","2018-12-20 09:00","2018","12","20","09:00","3.9","","3.2","","96","","3.0","","35","","87","","","","97.60","","","","","","NA"
"-128.91","50.82","SARTINE ISLAND (AUT)","1037090","2018-12-20 10:00","2018","12","20","10:00","3.7","","2.3","","91","","3.6","","34","","80","","","","97.75","","","","","","NA"
"-128.91","50.82","SARTINE ISLAND (AUT)","1037090","2018-12-20 11:00","2018","12","20","11:00","4.7","","2.5","","86","","3.0","","32","","72","","","","97.79","","","","","","NA"
"-128.91","50.82","SARTINE ISLAND (AUT)","1037090","2018-12-20 12:00","2018","12","20","12:00","5.6","","1.1","","73","","0.6","","30","","103","","","","97.89","","","","","","NA"
"-128.91","50.82","SARTINE ISLAND (AUT)","1037090","2018-12-20 13:00","2018","12","20","13:00","5.7","","-0.1","","66","","1.0","","30","","108","","","","98.18","","","","","","NA"
"-128.91","50.82","SARTINE ISLAND (AUT)","1037090","2018-12-20 14:00","2018","12","20","14:00","5.8","","0.9","","71","","0.0","","30","","101","","","","98.53","","","","","","NA"
"-128.91","50.82","SARTINE ISLAND (AUT)","1037090","2018-12-20 15:00","2018","12","20","15:00","5.9","","1.1","","71","","0.4","","29","","92","","","","98.85","","","","","","NA"
"-128.91","50.82","SARTINE ISLAND (AUT)","1037090","2018-12-20 16:00","2018","12","20","16:00","5.8","","-1.0","","61","","0.2","","30","","87","","","","99.15","","","","","","NA"
"-128.91","50.82","SARTINE ISLAND (AUT)","1037090","2018-12-20 17:00","2018","12","20","17:00","6.4","","-0.4","","62","","0.0","","29","","66","","","","99.40","","","","","","NA"
"-128.91","50.82","SARTINE ISLAND (AUT)","1037090","2018-12-20 18:00","2018","12","20","18:00","6.6","","0.2","","64","","0.0","","29","","65","","","","99.56","","","","","","NA"
"-128.91","50.82","SARTINE ISLAND (AUT)","1037090","2018-12-20 19:00","2018","12","20","19:00","6.2","","0.4","","66","","0.0","","28","","68","","","","99.71","","","","","","NA"
"-128.91","50.82","SARTINE ISLAND (AUT)","1037090","2018-12-20 20:00","2018","12","20","20:00","6.2","","0.6","","67","","0.0","","29","","56","","","","99.86","","","","","","NA"
"-128.91","50.82","SARTINE ISLAND (AUT)","1037090","2018-12-20 21:00","2018","12","20","21:00","6.2","","-0.7","","61","","0.0","","28","","51","","","","99.98","","","","","","NA"
"-128.91","50.82","SARTINE ISLAND (AUT)","1037090","2018-12-20 22:00","2018","12","20","22:00","5.0","","-0.1","","70","","0.0","","30","","38","","","","100.09","","","","","","NA"
"-128.91","50.82","SARTINE ISLAND (AUT)","1037090","2018-12-20 23:00","2018","12","20","23:00","5.9","","1.2","","72","","0.0","","28","","34","","","","100.16","","","","","","NA"
"-128.91","50.82","SARTINE ISLAND (AUT)","1037090","2018-12-21 00:00","2018","12","21","00:00","5.9","","0.0","","66","","0.0","","28","","29","","","","100.26","","","","","","NA"
"-128.91","50.82","SARTINE ISLAND (AUT)","1037090","2018-12-21 01:00","2018","12","21","01:00","5.9","","0.0","","66","","0.0","","29","","26","","","","100.30","","","","","","NA"
"-128.91","50.82","SARTINE ISLAND (AUT)","1037090","2018-12-21 02:00","2018","12","21","02:00","5.9","","0.6","","69","","0.0","","28","","19","","","","100.36","","","","","","NA"
"-128.91","50.82","SARTINE ISLAND (AUT)","1037090","2018-12-21 03:00","2018","12","21","03:00","6.0","","0.7","","69","","0.0","","26","","18","","","","100.43","","","","","","NA"
"-128.91","50.82","SARTINE ISLAND (AUT)","1037090","2018-12-21 04:00","2018","12","21","04:00","5.7","","0.9","","71","","0.0","","24","","12","","","","100.49","","","","","","NA"
"-128.91","50.82","SARTINE ISLAND (AUT)","1037090","2018-12-21 05:00","2018","12","21","05:00","5.6","","0.3","","69","","0.0","","22","","13","","","","100.49","","","","","","NA"
"-128.91","50.82","SARTINE ISLAND (AUT)","1037090","2018-12-21 06:00","2018","12","21","06:00","5.8","","0.2","","67","","0.0","","18","","13","","","","100.50","","","","","","NA"
"-128.91","50.82","SARTINE ISLAND (AUT)","1037090","2018-12-21 07:00","2018","12","21","07:00","5.6","","0.0","","67","","0.0","","14","","15","","","","100.48","","","","","","NA"
"-128.91","50.82","SARTINE ISLAND (AUT)","1037090","2018-12-21 08:00","2018","12","21","08:00","6.1","","0.9","","69","","0.0","","13","","17","","","","100.43","","","","","","NA"
"-128.91","50.82","SARTINE ISLAND (AUT)","1037090","2018-12-21 09:00","2018","12","21","09:00","5.4","","3.4","","87","","0.0","","12","","29","","","","100.41","","","","","","NA"
"-128.91","50.82","SARTINE ISLAND (AUT)","1037090","2018-12-21 10:00","2018","12","21","10:00","5.8","","3.0","","83","","0.0","","13","","36","","","","100.40","","","","","","NA"
"-128.91","50.82","SARTINE ISLAND (AUT)","1037090","2018-12-21 11:00","2018","12","21","11:00","5.8","","3.0","","82","","0.0","","13","","43","","","","100.36","","","","","","NA"
"-128.91","50.82","SARTINE ISLAND (AUT)","1037090","2018-12-21 12:00","2018","12","21","12:00","6.0","","3.0","","81","","0.0","","13","","54","","","","100.27","","","","","","NA"
"-128.91","50.82","SARTINE ISLAND (AUT)","1037090","2018-12-21 13:00","2018","12","21","13:00","6.0","","3.4","","83","","0.0","","11","","43","","","","100.19","","","","","","NA"
"-128.91","50.82","SARTINE ISLAND (AUT)","1037090","2018-12-21 14:00","2018","12","21","14:00","5.5","","3.1","","85","","0.0","","10","","51","","","","100.15","","","","","","NA"
"-128.91","50.82","SARTINE ISLAND (AUT)","1037090","2018-12-21 15:00","2018","12","21","15:00","5.1","","3.4","","89","","2.4","","13","","61","","","","100.12","","","","","","NA"
"-128.91","50.82","SARTINE ISLAND (AUT)","1037090","2018-12-21 16:00","2018","12","21","16:00","6.1","","4.2","","88","","0.8","","11","","50","","","","100.03","","","","","","NA"
"-128.91","50.82","SARTINE ISLAND (AUT)","1037090","2018-12-21 17:00","2018","12","21","17:00","5.0","","3.3","","89","","0.8","","13","","80","","","","100.00","","","","","","NA"
"-128.91","50.82","SARTINE ISLAND (AUT)","1037090","2018-12-21 18:00","2018","12","21","18:00","4.9","","3.3","","89","","1.2","","13","","83","","","","99.90","","","","","","NA"
"-128.91","50.82","SARTINE ISLAND (AUT)","1037090","2018-12-21 19:00","2018","12","21","19:00","5.3","","4.9","","97","","3.2","","9","","72","","","","99.84","","","","","","NA"
"-128.91","50.82","SARTINE ISLAND (AUT)","1037090","2018-12-21 20:00","2018","12","21","20:00","6.5","","6.0","","97","","1.0","","13","","75","","","","99.76","","","","","","NA"
"-128.91","50.82","SARTINE ISLAND (AUT)","1037090","2018-12-21 21:00","2018","12","21","21:00","7.6","","5.8","","88","","0.4","","17","","51","","","","99.93","","","","","","NA"
"-128.91","50.82","SARTINE ISLAND (AUT)","1037090","2018-12-21 22:00","2018","12","21","22:00","7.7","","5.8","","88","","0.0","","14","","46","","","","99.99","","","","","","NA"
"-128.91","50.82","SARTINE ISLAND (AUT)","1037090","2018-12-21 23:00","2018","12","21","23:00","7.0","","6.1","","94","","1.4","","14","","58","","","","99.96","","","","","","NA"
"-128.91","50.82","SARTINE ISLAND (AUT)","1037090","2018-12-22 00:00","2018","12","22","00:00","7.2","","5.4","","88","","1.4","","16","","44","","","","100.00","","","","","","NA"
"-128.91","50.82","SARTINE ISLAND (AUT)","1037090","2018-12-22 01:00","2018","12","22","01:00","7.2","","5.6","","90","","0.2","","13","","53","","","","99.95","","","","","","NA"
"-128.91","50.82","SARTINE ISLAND (AUT)","1037090","2018-12-22 02:00","2018","12","22","02:00","6.7","","5.7","","93","","0.8","","13","","70","","","","99.84","","","","","","NA"
"-128.91","50.82","SARTINE ISLAND (AUT)","1037090","2018-12-22 03:00","2018","12","22","03:00","6.6","","4.8","","89","","0.0","","13","","67","","","","99.81","","","","","","NA"
"-128.91","50.82","SARTINE ISLAND (AUT)","1037090","2018-12-22 04:00","2018","12","22","04:00","5.5","","4.7","","94","","0.0","","9","","46","","","","99.80","","","","","","NA"
"-128.91","50.82","SARTINE ISLAND (AUT)","1037090","2018-12-22 05:00","2018","12","22","05:00","4.4","","3.8","","96","","0.2","","9","","48","","","","99.63","","","","","","NA"
"-128.91","50.82","SARTINE ISLAND (AUT)","1037090","2018-12-22 06:00","2018","12","22","06:00","5.8","","5.2","","96","","0.2","","9","","57","","","","99.47","","","","","","NA"
"-128.91","50.82","SARTINE ISLAND (AUT)","1037090","2018-12-22 07:00","2018","12","22","07:00","7.1","","5.1","","87","","0.4","","13","","76","","","","99.23","","","","","","NA"
"-128.91","50.82","SARTINE ISLAND (AUT)","1037090","2018-12-22 08:00","2018","12","22","08:00","6.7","","5.2","","90","","1.0","","12","","61","","","","99.13","","","","","","NA"
"-128.91","50.82","SARTINE ISLAND (AUT)","1037090","2018-12-22 09:00","2018","12","22","09:00","5.1","","4.3","","94","","1.8","","8","","63","","","","99.02","","","","","","NA"
"-128.91","50.82","SARTINE ISLAND (AUT)","1037090","2018-12-22 10:00","2018","12","22","10:00","5.2","","4.2","","93","","0.8","","8","","73","","","","98.80","","","","","","NA"
"-128.91","50.82","SARTINE ISLAND (AUT)","1037090","2018-12-22 11:00","2018","12","22","11:00","5.7","","5.0","","95","","1.6","","9","","68","","","","98.62","","","","","","NA"
"-128.91","50.82","SARTINE ISLAND (AUT)","1037090","2018-12-22 12:00","2018","12","22","12:00","7.7","","6.8","","94","","2.4","","10","","98","","","","98.31","","","","","","NA"
"-128.91","50.82","SARTINE ISLAND (AUT)","1037090","2018-12-22 13:00","2018","12","22","13:00","7.9","","6.8","","93","","3.0","","10","","109","","","","98.09","","","","","","NA"
"-128.91","50.82","SARTINE ISLAND (AUT)","1037090","2018-12-22 14:00","2018","12","22","14:00","7.1","","5.7","","91","","1.8","","10","","118","","","","97.87","","","","","","NA"
"-128.91","50.82","SARTINE ISLAND (AUT)","1037090","2018-12-22 15:00","2018","12","22","15:00","8.1","","6.5","","89","","3.2","","10","","114","","","","97.81","","","","","","NA"
"-128.91","50.82","SARTINE ISLAND (AUT)","1037090","2018-12-22 16:00","2018","12","22","16:00","7.7","","6.5","","92","","1.8","","11","","72","","","","97.88","","","","","","NA"
"-128.91","50.82","SARTINE ISLAND (AUT)","1037090","2018-12-22 17:00","2018","12","22","17:00","7.5","","6.9","","96","","3.2","","10","","87","","","","97.81","","","","","","NA"
"-128.91","50.82","SARTINE ISLAND (AUT)","1037090","2018-12-22 18:00","2018","12","22","18:00","7.9","","7.1","","95","","3.8","","12","","59","","","","97.82","","","","","","NA"
"-128.91","50.82","SARTINE ISLAND (AUT)","1037090","2018-12-22 19:00","2018","12","22","19:00","7.9","","7.3","","97","","1.8","","10","","99","","","","97.60","","","","","","NA"
"-128.91","50.82","SARTINE ISLAND (AUT)","1037090","2018-12-22 20:00","2018","12","22","20:00","7.6","","7.4","","99","","3.0","","10","","117","","","","97.35","","","","","","NA"
"-128.91","50.82","SARTINE ISLAND (AUT)","1037090","2018-12-22 21:00","2018","12","22","21:00","8.7","","8.4","","98","","1.4","","13","","81","","","","97.47","","","","","","NA"
"-128.91","50.82","SARTINE ISLAND (AUT)","1037090","2018-12-22 22:00","2018","12","22","22:00","8.4","","7.8","","96","","0.8","","14","","80","","","","97.49","","","","","","NA"
"-128.91","50.82","SARTINE ISLAND (AUT)","1037090","2018-12-22 23:00","2018","12","22","23:00","8.1","","7.8","","98","","0.4","","16","","62","","","","97.58","","","","","","NA"
"-128.91","50.82","SARTINE ISLAND (AUT)","1037090","2018-12-23 00:00","2018","12","23","00:00","8.5","","8.1","","98","","0.2","","17","","64","","","","97.70","","","","","","NA"
"-128.91","50.82","SARTINE ISLAND (AUT)","1037090","2018-12-23 01:00","2018","12","23","01:00","8.4","","7.9","","97","","0.0","","16","","57","","","","97.82","","","","","","NA"
"-128.91","50.82","SARTINE ISLAND (AUT)","1037090","2018-12-23 02:00","2018","12","23","02:00","8.0","","6.8","","93","","0.2","","17","","61","","","","97.89","","","","","","NA"
"-128.91","50.82","SARTINE ISLAND (AUT)","1037090","2018-12-23 03:00","2018","12","23","03:00","7.5","","7.3","","99","","0.0","","16","","57","","","","97.95","","","","","","NA"
"-128.91","50.82","SARTINE ISLAND (AUT)","1037090","2018-12-23 04:00","2018","12","23","04:00","8.3","","7.9","","98","","0.2","","21","","54","","","","98.11","","","","","","NA"
"-128.91","50.82","SARTINE ISLAND (AUT)","1037090","2018-12-23 05:00","2018","12","23","05:00","7.9","","7.3","","96","","0.2","","21","","65","","","","98.20","","","","","","NA"
"-128.91","50.82","SARTINE ISLAND (AUT)","1037090","2018-12-23 06:00","2018","12","23","06:00","7.2","","6.6","","96","","0.2","","21","","56","","","","98.34","","","","","","NA"
"-128.91","50.82","SARTINE ISLAND (AUT)","1037090","2018-12-23 07:00","2018","12","23","07:00","7.7","","6.5","","92","","0.0","","20","","64","","","","98.45","","","","","","NA"
"-128.91","50.82","SARTINE ISLAND (AUT)","1037090","2018-12-23 08:00","2018","12","23","08:00","6.2","","5.4","","95","","1.6","","22","","71","","","","98.54","","","","","","NA"
"-128.91","50.82","SARTINE ISLAND (AUT)","1037090","2018-12-23 09:00","2018","12","23","09:00","6.9","","5.7","","93","","1.8","","21","","65","","","","98.71","","","","","","NA"
"-128.91","50.82","SARTINE ISLAND (AUT)","1037090","2018-12-23 10:00","2018","12","23","10:00","7.2","","6.2","","93","","0.8","","22","","64","","","","98.90","","","","","","NA"
"-128.91","50.82","SARTINE ISLAND (AUT)","1037090","2018-12-23 11:00","2018","12","23","11:00","7.8","","5.8","","87","","0.4","","22","","66","","","","99.03","","","","","","NA"
"-128.91","50.82","SARTINE ISLAND (AUT)","1037090","2018-12-23 12:00","2018","12","23","12:00","7.7","","6.0","","89","","0.0","","22","","62","","","","99.18","","","","","","NA"
"-128.91","50.82","SARTINE ISLAND (AUT)","1037090","2018-12-23 13:00","2018","12","23","13:00","7.5","","5.9","","89","","0.0","","22","","55","","","","99.28","","","","","","NA"
"-128.91","50.82","SARTINE ISLAND (AUT)","1037090","2018-12-23 14:00","2018","12","23","14:00","7.8","","5.6","","86","","0.0","","22","","46","","","","99.37","","","","","","NA"
"-128.91","50.82","SARTINE ISLAND (AUT)","1037090","2018-12-23 15:00","2018","12","23","15:00","7.7","","5.5","","86","","0.0","","22","","44","","","","99.49","","","","","","NA"
"-128.91","50.82","SARTINE ISLAND (AUT)","1037090","2018-12-23 16:00","2018","12","23","16:00","8.0","","5.6","","85","","0.0","","21","","37","","","","99.59","","","","","","NA"
"-128.91","50.82","SARTINE ISLAND (AUT)","1037090","2018-12-23 17:00","2018","12","23","17:00","7.6","","4.4","","80","","0.0","","23","","37","","","","99.71","","","","","","NA"
"-128.91","50.82","SARTINE ISLAND (AUT)","1037090","2018-12-23 18:00","2018","12","23","18:00","7.6","","4.8","","82","","0.0","","21","","33","","","","99.77","","","","","","NA"
"-128.91","50.82","SARTINE ISLAND (AUT)","1037090","2018-12-23 19:00","2018","12","23","19:00","7.1","","3.9","","80","","0.0","","23","","31","","","","99.85","","","","","","NA"
"-128.91","50.82","SARTINE ISLAND (AUT)","1037090","2018-12-23 20:00","2018","12","23","20:00","7.1","","4.0","","80","","0.0","","22","","29","","","","99.90","","","","","","NA"
"-128.91","50.82","SARTINE ISLAND (AUT)","1037090","2018-12-23 21:00","2018","12","23","21:00","7.1","","4.3","","82","","0.0","","22","","31","","","","99.94","","","","","","NA"
"-128.91","50.82","SARTINE ISLAND (AUT)","1037090","2018-12-23 22:00","2018","12","23","22:00","7.1","","4.4","","83","","0.0","","22","","26","","","","100.01","","","","","","NA"
"-128.91","50.82","SARTINE ISLAND (AUT)","1037090","2018-12-23 23:00","2018","12","23","23:00","7.0","","4.4","","84","","0.0","","22","","24","","","","100.07","","","","","","NA"
"-128.91","50.82","SARTINE ISLAND (AUT)","1037090","2018-12-24 00:00","2018","12","24","00:00","6.8","","3.7","","81","","0.0","","22","","24","","","","100.10","","","","","","NA"
"-128.91","50.82","SARTINE ISLAND (AUT)","1037090","2018-12-24 01:00","2018","12","24","01:00","7.2","","4.3","","82","","0.0","","21","","25","","","","100.13","","","","","","NA"
"-128.91","50.82","SARTINE ISLAND (AUT)","1037090","2018-12-24 02:00","2018","12","24","02:00","7.2","","4.1","","81","","0.0","","21","","23","","","","100.20","","","","","","NA"
"-128.91","50.82","SARTINE ISLAND (AUT)","1037090","2018-12-24 03:00","2018","12","24","03:00","7.1","","4.2","","82","","0.0","","21","","22","","","","100.25","","","","","","NA"
"-128.91","50.82","SARTINE ISLAND (AUT)","1037090","2018-12-24 04:00","2018","12","24","04:00","6.9","","3.8","","80","","0.0","","23","","21","","","","100.28","","","","","","NA"
"-128.91","50.82","SARTINE ISLAND (AUT)","1037090","2018-12-24 05:00","2018","12","24","05:00","6.8","","3.5","","80","","0.0","","22","","18","","","","100.30","","","","","","NA"
"-128.91","50.82","SARTINE ISLAND (AUT)","1037090","2018-12-24 06:00","2018","12","24","06:00","6.9","","3.0","","76","","0.0","","24","","16","","","","100.36","","","","","","NA"
"-128.91","50.82","SARTINE ISLAND (AUT)","1037090","2018-12-24 07:00","2018","12","24","07:00","6.9","","3.5","","79","","0.0","","22","","13","","","","100.37","","","","","","NA"
"-128.91","50.82","SARTINE ISLAND (AUT)","1037090","2018-12-24 08:00","2018","12","24","08:00","7.2","","3.6","","78","","0.0","","27","","14","","","","100.40","","","","","","NA"
"-128.91","50.82","SARTINE ISLAND (AUT)","1037090","2018-12-24 09:00","2018","12","24","09:00","6.4","","3.1","","80","","0.0","","17","","9","","","","100.48","","","","","","NA"
"-128.91","50.82","SARTINE ISLAND (AUT)","1037090","2018-12-24 10:00","2018","12","24","10:00","6.8","","3.3","","78","","0.0","","23","","6","","","","100.54","","","","","","NA"
"-128.91","50.82","SARTINE ISLAND (AUT)","1037090","2018-12-24 11:00","2018","12","24","11:00","8.6","","4.5","","76","","0.0","","23","","3","","","","100.58","","","","","","NA"
"-128.91","50.82","SARTINE ISLAND (AUT)","1037090","2018-12-24 12:00","2018","12","24","12:00","7.4","","4.3","","81","","0.0","","22","","4","","","","100.57","","","","","","NA"
"-128.91","50.82","SARTINE ISLAND (AUT)","1037090","2018-12-24 13:00","2018","12","24","13:00","9.0","","4.6","","74","","0.0","","28","","1","","","","100.58","","","","","","NA"
"-128.91","50.82","SARTINE ISLAND (AUT)","1037090","2018-12-24 14:00","2018","12","24","14:00","7.6","","4.8","","83","","0.0","","27","","9","","","","100.63","","","","","","NA"
"-128.91","50.82","SARTINE ISLAND (AUT)","1037090","2018-12-24 15:00","2018","12","24","15:00","7.3","","4.9","","85","","0.4","","29","","10","","","","100.69","","","","","","NA"
"-128.91","50.82","SARTINE ISLAND (AUT)","1037090","2018-12-24 16:00","2018","12","24","16:00","7.3","","4.2","","81","","0.0","","29","","23","","","","100.75","","","","","","NA"
"-128.91","50.82","SARTINE ISLAND (AUT)","1037090","2018-12-24 17:00","2018","12","24","17:00","6.2","","2.4","","76","","0.0","","32","","16","","","","100.80","","","","","","NA"
"-128.91","50.82","SARTINE ISLAND (AUT)","1037090","2018-12-24 18:00","2018","12","24","18:00","7.1","","4.4","","83","","0.0","","29","","30","","","","100.83","","","","","","NA"
"-128.91","50.82","SARTINE ISLAND (AUT)","1037090","2018-12-24 19:00","2018","12","24","19:00","7.1","","4.6","","84","","0.0","","30","","25","","","","100.87","","","","","","NA"
"-128.91","50.82","SARTINE ISLAND (AUT)","1037090","2018-12-24 20:00","2018","12","24","20:00","7.2","","4.1","","81","","0.0","","30","","25","","","","100.86","","","","","","NA"
"-128.91","50.82","SARTINE ISLAND (AUT)","1037090","2018-12-24 21:00","2018","12","24","21:00","7.1","","4.1","","81","","0.0","","31","","15","","","","100.86","","","","","","NA"
"-128.91","50.82","SARTINE ISLAND (AUT)","1037090","2018-12-24 22:00","2018","12","24","22:00","7.0","","3.0","","76","","0.0","","31","","18","","","","100.85","","","","","","NA"
"-128.91","50.82","SARTINE ISLAND (AUT)","1037090","2018-12-24 23:00","2018","12","24","23:00","6.7","","3.8","","81","","0.0","","34","","14","","","","100.92","","","","","","NA"
"-128.91","50.82","SARTINE ISLAND (AUT)","1037090","2018-12-25 00:00","2018","12","25","00:00","6.9","","3.6","","79","","0.0","","28","","20","","","","100.95","","","","","","NA"
"-128.91","50.82","SARTINE ISLAND (AUT)","1037090","2018-12-25 01:00","2018","12","25","01:00","6.8","","3.7","","81","","0.0","","28","","22","","","","100.96","","","","","","NA"
"-128.91","50.82","SARTINE ISLAND (AUT)","1037090","2018-12-25 02:00","2018","12","25","02:00","6.8","","3.7","","80","","0.0","","28","","23","","","","101.00","","","","","","NA"
"-128.91","50.82","SARTINE ISLAND (AUT)","1037090","2018-12-25 03:00","2018","12","25","03:00","6.8","","3.6","","80","","0.0","","29","","22","","","","101.02","","","","","","NA"
"-128.91","50.82","SARTINE ISLAND (AUT)","1037090","2018-12-25 04:00","2018","12","25","04:00","6.7","","3.4","","79","","0.2","","30","","16","","","","101.00","","","","","","NA"
"-128.91","50.82","SARTINE ISLAND (AUT)","1037090","2018-12-25 05:00","2018","12","25","05:00","6.7","","2.7","","75","","0.0","","32","","11","","","","100.98","","","","","","NA"
"-128.91","50.82","SARTINE ISLAND (AUT)","1037090","2018-12-25 06:00","2018","12","25","06:00","6.7","","2.6","","75","","0.0","","32","","9","","","","100.96","","","","","","NA"
"-128.91","50.82","SARTINE ISLAND (AUT)","1037090","2018-12-25 07:00","2018","12","25","07:00","6.4","","3.4","","81","","0.0","","5","","5","","","","100.94","","","","","","NA"
"-128.91","50.82","SARTINE ISLAND (AUT)","1037090","2018-12-25 08:00","2018","12","25","08:00","6.2","","3.4","","83","","0.0","","9","","7","","","","100.89","","","","","","NA"
"-128.91","50.82","SARTINE ISLAND (AUT)","1037090","2018-12-25 09:00","2018","12","25","09:00","6.4","","3.5","","82","","0.0","","15","","12","","","","100.90","","","","","","NA"
"-128.91","50.82","SARTINE ISLAND (AUT)","1037090","2018-12-25 10:00","2018","12","25","10:00","6.7","","4.3","","84","","0.0","","14","","18","","","","100.86","","","","","","NA"
"-128.91","50.82","SARTINE ISLAND (AUT)","1037090","2018-12-25 11:00","2018","12","25","11:00","7.5","","3.5","","75","","0.0","","15","","18","","","","100.82","","","","","","NA"
"-128.91","50.82","SARTINE ISLAND (AUT)","1037090","2018-12-25 12:00","2018","12","25","12:00","6.9","","3.1","","77","","0.0","","16","","26","","","","100.76","","","","","","NA"
"-128.91","50.82","SARTINE ISLAND (AUT)","1037090","2018-12-25 13:00","2018","12","25","13:00","6.9","","3.6","","79","","0.0","","16","","36","","","","100.63","","","","","","NA"
"-128.91","50.82","SARTINE ISLAND (AUT)","1037090","2018-12-25 14:00","2018","12","25","14:00","6.8","","2.9","","76","","0.0","","14","","41","","","","100.48","","","","","","NA"
"-128.91","50.82","SARTINE ISLAND (AUT)","1037090","2018-12-25 15:00","2018","12","25","15:00","6.8","","3.3","","78","","0.0","","14","","50","","","","100.37","","","","","","NA"
"-128.91","50.82","SARTINE ISLAND (AUT)","1037090","2018-12-25 16:00","2018","12","25","16:00","6.2","","4.9","","91","","0.2","","14","","53","","","","100.25","","","","","","NA"
"-128.91","50.82","SARTINE ISLAND (AUT)","1037090","2018-12-25 17:00","2018","12","25","17:00","5.8","","4.7","","92","","1.0","","14","","64","","","","100.12","","","","","","NA"
"-128.91","50.82","SARTINE ISLAND (AUT)","1037090","2018-12-25 18:00","2018","12","25","18:00","5.6","","4.5","","93","","1.2","","14","","71","","","","99.96","","","","","","NA"
"-128.91","50.82","SARTINE ISLAND (AUT)","1037090","2018-12-25 19:00","2018","12","25","19:00","6.1","","4.5","","90","","1.0","","13","","76","","","","99.82","","","","","","NA"
"-128.91","50.82","SARTINE ISLAND (AUT)","1037090","2018-12-25 20:00","2018","12","25","20:00","6.0","","4.6","","91","","0.6","","13","","83","","","","99.66","","","","","","NA"
"-128.91","50.82","SARTINE ISLAND (AUT)","1037090","2018-12-25 21:00","2018","12","25","21:00","6.2","","5.0","","92","","1.8","","13","","92","","","","99.56","","","","","","NA"
"-128.91","50.82","SARTINE ISLAND (AUT)","1037090","2018-12-25 22:00","2018","12","25","22:00","6.0","","4.9","","92","","1.8","","13","","95","","","","99.44","","","","","","NA"
"-128.91","50.82","SARTINE ISLAND (AUT)","1037090","2018-12-25 23:00","2018","12","25","23:00","5.8","","4.6","","92","","1.8","","14","","92","","","","99.41","","","","","","NA"
"-128.91","50.82","SARTINE ISLAND (AUT)","1037090","2018-12-26 00:00","2018","12","26","00:00","6.0","","5.2","","95","","0.6","","14","","101","","","","99.33","","","","","","NA"
"-128.91","50.82","SARTINE ISLAND (AUT)","1037090","2018-12-26 01:00","2018","12","26","01:00","6.3","","5.2","","93","","1.4","","13","","99","","","","99.13","","","","","","NA"
"-128.91","50.82","SARTINE ISLAND (AUT)","1037090","2018-12-26 02:00","2018","12","26","02:00","7.5","","4.5","","81","","1.4","","25","","30","","","","99.40","","","","","","NA"
"-128.91","50.82","SARTINE ISLAND (AUT)","1037090","2018-12-26 03:00","2018","12","26","03:00","6.7","","4.9","","88","","0.0","","20","","11","","","","99.53","","","","","","NA"
"-128.91","50.82","SARTINE ISLAND (AUT)","1037090","2018-12-26 04:00","2018","12","26","04:00","7.4","","6.0","","91","","0.0","","16","","11","","","","99.54","","","","","","NA"
"-128.91","50.82","SARTINE ISLAND (AUT)","1037090","2018-12-26 05:00","2018","12","26","05:00","7.4","","4.1","","79","","1.8","","25","","37","","","","99.53","","","","","","NA"
"-128.91","50.82","SARTINE ISLAND (AUT)","1037090","2018-12-26 06:00","2018","12","26","06:00","7.2","","5.4","","89","","0.0","","23","","17","","","","99.59","","","","","","NA"
"-128.91","50.82","SARTINE ISLAND (AUT)","1037090","2018-12-26 07:00","2018","12","26","07:00","6.3","","4.4","","88","","0.4","","34","","8","","","","99.66","","","","","","NA"
"-128.91","50.82","SARTINE ISLAND (AUT)","1037090","2018-12-26 08:00","2018","12","26","08:00","6.7","","4.6","","86","","0.0","","7","","3","","","","99.74","","","","","","NA"
"-128.91","50.82","SARTINE ISLAND (AUT)","1037090","2018-12-26 09:00","2018","12","26","09:00","4.5","","3.3","","92","","0.0","","1","","20","","","","99.86","","","","","","NA"
"-128.91","50.82","SARTINE ISLAND (AUT)","1037090","2018-12-26 10:00","2018","12","26","10:00","5.5","","4.0","","90","","0.4","","15","","6","","","","99.95","","","","","","NA"
"-128.91","50.82","SARTINE ISLAND (AUT)","1037090","2018-12-26 11:00","2018","12","26","11:00","5.9","","4.4","","90","","0.6","","14","","14","","","","100.03","","","","","","NA"
"-128.91","50.82","SARTINE ISLAND (AUT)","1037090","2018-12-26 12:00","2018","12","26","12:00","7.0","","5.4","","89","","0.0","","17","","19","","","","100.09","","","","","","NA"
"-128.91","50.82","SARTINE ISLAND (AUT)","1037090","2018-12-26 13:00","2018","12","26","13:00","5.5","","3.9","","90","","0.8","","2","","11","","","","100.18","","","","","","NA"
"-128.91","50.82","SARTINE ISLAND (AUT)","1037090","2018-12-26 14:00","2018","12","26","14:00","6.1","","4.6","","90","","0.2","","3","","14","","","","100.21","","","","","","NA"
"-128.91","50.82","SARTINE ISLAND (AUT)","1037090","2018-12-26 15:00","2018","12","26","15:00","6.2","","4.4","","88","","0.0","","12","","7","","","","100.32","","","","","","NA"
"-128.91","50.82","SARTINE ISLAND (AUT)","1037090","2018-12-26 16:00","2018","12","26","16:00","6.4","","4.5","","87","","0.0","","13","","16","","","","100.41","","","","","","NA"
"-128.91","50.82","SARTINE ISLAND (AUT)","1037090","2018-12-26 17:00","2018","12","26","17:00","6.6","","4.9","","89","","0.0","","15","","18","","","","100.46","","","","","","NA"
"-128.91","50.82","SARTINE ISLAND (AUT)","1037090","2018-12-26 18:00","2018","12","26","18:00","7.6","","5.6","","87","","0.0","","22","","16","","","","100.52","","","","","","NA"
"-128.91","50.82","SARTINE ISLAND (AUT)","1037090","2018-12-26 19:00","2018","12","26","19:00","7.7","","5.0","","83","","0.0","","26","","22","","","","100.58","","","","","","NA"
"-128.91","50.82","SARTINE ISLAND (AUT)","1037090","2018-12-26 20:00","2018","12","26","20:00","7.4","","5.2","","86","","0.0","","26","","21","","","","100.66","","","","","","NA"
"-128.91","50.82","SARTINE ISLAND (AUT)","1037090","2018-12-26 21:00","2018","12","26","21:00","7.4","","5.3","","87","","0.0","","27","","21","","","","100.73","","","","","","NA"
"-128.91","50.82","SARTINE ISLAND (AUT)","1037090","2018-12-26 22:00","2018","12","26","22:00","7.5","","5.0","","84","","0.0","","26","","17","","","","100.83","","","","","","NA"
"-128.91","50.82","SARTINE ISLAND (AUT)","1037090","2018-12-26 23:00","2018","12","26","23:00","7.5","","5.2","","85","","0.0","","25","","17","","","","100.85","","","","","","NA"
"-128.91","50.82","SARTINE ISLAND (AUT)","1037090","2018-12-27 00:00","2018","12","27","00:00","7.3","","5.1","","86","","0.0","","24","","15","","","","100.90","","","","","","NA"
"-128.91","50.82","SARTINE ISLAND (AUT)","1037090","2018-12-27 01:00","2018","12","27","01:00","7.2","","4.8","","85","","0.0","","23","","17","","","","100.97","","","","","","NA"
"-128.91","50.82","SARTINE ISLAND (AUT)","1037090","2018-12-27 02:00","2018","12","27","02:00","7.4","","5.3","","86","","0.0","","19","","16","","","","100.98","","","","","","NA"
"-128.91","50.82","SARTINE ISLAND (AUT)","1037090","2018-12-27 03:00","2018","12","27","03:00","7.5","","5.7","","88","","0.0","","19","","17","","","","101.01","","","","","","NA"
"-128.91","50.82","SARTINE ISLAND (AUT)","1037090","2018-12-27 04:00","2018","12","27","04:00","7.7","","6.0","","89","","0.0","","17","","19","","","","101.00","","","","","","NA"
"-128.91","50.82","SARTINE ISLAND (AUT)","1037090","2018-12-27 05:00","2018","12","27","05:00","7.7","","5.6","","86","","0.0","","17","","23","","","","100.98","","","","","","NA"
"-128.91","50.82","SARTINE ISLAND (AUT)","1037090","2018-12-27 06:00","2018","12","27","06:00","7.5","","6.4","","93","","0.2","","15","","26","","","","101.02","","","","","","NA"
"-128.91","50.82","SARTINE ISLAND (AUT)","1037090","2018-12-27 07:00","2018","12","27","07:00","7.1","","6.0","","93","","1.0","","15","","32","","","","101.02","","","","","","NA"
"-128.91","50.82","SARTINE ISLAND (AUT)","1037090","2018-12-27 08:00","2018","12","27","08:00","7.0","","6.0","","93","","0.6","","14","","40","","","","101.01","","","","","","NA"
"-128.91","50.82","SARTINE ISLAND (AUT)","1037090","2018-12-27 09:00","2018","12","27","09:00","7.0","","6.2","","95","","0.2","","14","","41","","","","101.05","","","","","","NA"
"-128.91","50.82","SARTINE ISLAND (AUT)","1037090","2018-12-27 10:00","2018","12","27","10:00","7.1","","6.8","","98","","0.2","","14","","49","","","","101.01","","","","","","NA"
"-128.91","50.82","SARTINE ISLAND (AUT)","1037090","2018-12-27 11:00","2018","12","27","11:00","6.8","","6.6","","99","","0.2","","14","","49","","","","101.03","","","","","","NA"
"-128.91","50.82","SARTINE ISLAND (AUT)","1037090","2018-12-27 12:00","2018","12","27","12:00","7.1","","7.0","","100","","0.0","","14","","51","","","","100.99","","","","","","NA"
"-128.91","50.82","SARTINE ISLAND (AUT)","1037090","2018-12-27 13:00","2018","12","27","13:00","8.1","","8.1","","100","","1.6","","22","","24","","","","101.00","","","","","","NA"
"-128.91","50.82","SARTINE ISLAND (AUT)","1037090","2018-12-27 14:00","2018","12","27","14:00","7.9","","7.9","","100","","0.2","","24","","26","","","","101.02","","","","","","NA"
"-128.91","50.82","SARTINE ISLAND (AUT)","1037090","2018-12-27 15:00","2018","12","27","15:00","8.2","","8.1","","99","","0.0","","21","","26","","","","101.02","","","","","","NA"
"-128.91","50.82","SARTINE ISLAND (AUT)","1037090","2018-12-27 16:00","2018","12","27","16:00","8.2","","8.0","","99","","0.0","","20","","25","","","","101.07","","","","","","NA"
"-128.91","50.82","SARTINE ISLAND (AUT)","1037090","2018-12-27 17:00","2018","12","27","17:00","8.2","","8.0","","99","","0.0","","20","","23","","","","101.08","","","","","","NA"
"-128.91","50.82","SARTINE ISLAND (AUT)","1037090","2018-12-27 18:00","2018","12","27","18:00","8.2","","8.0","","99","","0.0","","20","","25","","","","101.07","","","","","","NA"
"-128.91","50.82","SARTINE ISLAND (AUT)","1037090","2018-12-27 19:00","2018","12","27","19:00","8.0","","7.8","","99","","0.0","","19","","27","","","","101.04","","","","","","NA"
"-128.91","50.82","SARTINE ISLAND (AUT)","1037090","2018-12-27 20:00","2018","12","27","20:00","7.8","","7.1","","96","","0.0","","17","","30","","","","101.02","","","","","","NA"
"-128.91","50.82","SARTINE ISLAND (AUT)","1037090","2018-12-27 21:00","2018","12","27","21:00","8.0","","7.5","","97","","0.2","","15","","37","","","","100.96","","","","","","NA"
"-128.91","50.82","SARTINE ISLAND (AUT)","1037090","2018-12-27 22:00","2018","12","27","22:00","7.7","","7.3","","97","","0.0","","15","","43","","","","100.94","","","","","","NA"
"-128.91","50.82","SARTINE ISLAND (AUT)","1037090","2018-12-27 23:00","2018","12","27","23:00","7.7","","7.6","","100","","0.0","","14","","45","","","","100.88","","","","","","NA"
"-128.91","50.82","SARTINE ISLAND (AUT)","1037090","2018-12-28 00:00","2018","12","28","00:00","7.8","","7.7","","100","","0.0","","15","","51","","","","100.80","","","","","","NA"
"-128.91","50.82","SARTINE ISLAND (AUT)","1037090","2018-12-28 01:00","2018","12","28","01:00","7.4","","7.4","","100","","0.2","","14","","62","","","","100.65","","","","","","NA"
"-128.91","50.82","SARTINE ISLAND (AUT)","1037090","2018-12-28 02:00","2018","12","28","02:00","7.6","","7.6","","100","","0.0","","14","","66","","","","100.58","","","","","","NA"
"-128.91","50.82","SARTINE ISLAND (AUT)","1037090","2018-12-28 03:00","2018","12","28","03:00","7.8","","7.8","","100","","0.6","","14","","71","","","","100.50","","","","","","NA"
"-128.91","50.82","SARTINE ISLAND (AUT)","1037090","2018-12-28 04:00","2018","12","28","04:00","7.9","","7.9","","100","","0.8","","14","","75","","","","100.38","","","","","","NA"
"-128.91","50.82","SARTINE ISLAND (AUT)","1037090","2018-12-28 05:00","2018","12","28","05:00","8.0","","8.0","","100","","1.2","","14","","80","","","","100.26","","","","","","NA"
"-128.91","50.82","SARTINE ISLAND (AUT)","1037090","2018-12-28 06:00","2018","12","28","06:00","8.0","","8.0","","100","","2.0","","14","","83","","","","100.18","","","","","","NA"
"-128.91","50.82","SARTINE ISLAND (AUT)","1037090","2018-12-28 07:00","2018","12","28","07:00","8.2","","8.2","","100","","2.6","","14","","69","","","","100.18","","","","","","NA"
"-128.91","50.82","SARTINE ISLAND (AUT)","1037090","2018-12-28 08:00","2018","12","28","08:00","8.5","","8.5","","100","","1.4","","14","","68","","","","100.10","","","","","","NA"
"-128.91","50.82","SARTINE ISLAND (AUT)","1037090","2018-12-28 09:00","2018","12","28","09:00","8.8","","8.8","","100","","2.2","","15","","57","","","","100.18","","","","","","NA"
"-128.91","50.82","SARTINE ISLAND (AUT)","1037090","2018-12-28 10:00","2018","12","28","10:00","8.9","","8.9","","100","","2.2","","15","","52","","","","100.20","","","","","","NA"
"-128.91","50.82","SARTINE ISLAND (AUT)","1037090","2018-12-28 11:00","2018","12","28","11:00","9.2","","9.2","","100","","1.6","","16","","44","","","","100.15","","","","","","NA"
"-128.91","50.82","SARTINE ISLAND (AUT)","1037090","2018-12-28 12:00","2018","12","28","12:00","9.1","","9.1","","100","","1.8","","16","","37","","","","100.10","","","","","","NA"
"-128.91","50.82","SARTINE ISLAND (AUT)","1037090","2018-12-28 13:00","2018","12","28","13:00","9.1","","9.1","","100","","1.4","","18","","28","","","","100.04","","","","","","NA"
"-128.91","50.82","SARTINE ISLAND (AUT)","1037090","2018-12-28 14:00","2018","12","28","14:00","9.1","","9.1","","100","","2.2","","20","","29","","","","100.00","","","","","","NA"
"-128.91","50.82","SARTINE ISLAND (AUT)","1037090","2018-12-28 15:00","2018","12","28","15:00","9.1","","9.1","","100","","1.8","","20","","30","","","","100.00","","","","","","NA"
"-128.91","50.82","SARTINE ISLAND (AUT)","1037090","2018-12-28 16:00","2018","12","28","16:00","9.2","","9.2","","100","","1.6","","19","","31","","","","99.94","","","","","","NA"
"-128.91","50.82","SARTINE ISLAND (AUT)","1037090","2018-12-28 17:00","2018","12","28","17:00","9.1","","9.1","","100","","3.0","","19","","32","","","","99.89","","","","","","NA"
"-128.91","50.82","SARTINE ISLAND (AUT)","1037090","2018-12-28 18:00","2018","12","28","18:00","9.3","","9.3","","100","","2.4","","19","","36","","","","99.83","","","","","","NA"
"-128.91","50.82","SARTINE ISLAND (AUT)","1037090","2018-12-28 19:00","2018","12","28","19:00","9.5","","9.5","","100","","1.0","","20","","41","","","","99.73","","","","","","NA"
"-128.91","50.82","SARTINE ISLAND (AUT)","1037090","2018-12-28 20:00","2018","12","28","20:00","9.5","","9.5","","100","","1.4","","21","","51","","","","99.62","","","","","","NA"
"-128.91","50.82","SARTINE ISLAND (AUT)","1037090","2018-12-28 21:00","2018","12","28","21:00","9.6","","9.6","","100","","1.4","","21","","64","","","","99.47","","","","","","NA"
"-128.91","50.82","SARTINE ISLAND (AUT)","1037090","2018-12-28 22:00","2018","12","28","22:00","9.8","","9.8","","100","","0.8","","21","","70","","","","99.42","","","","","","NA"
"-128.91","50.82","SARTINE ISLAND (AUT)","1037090","2018-12-28 23:00","2018","12","28","23:00","9.7","","9.7","","100","","0.2","","21","","71","","","","99.33","","","","","","NA"
"-128.91","50.82","SARTINE ISLAND (AUT)","1037090","2018-12-29 00:00","2018","12","29","00:00","9.6","","9.6","","100","","0.6","","21","","71","","","","99.26","","","","","","NA"
"-128.91","50.82","SARTINE ISLAND (AUT)","1037090","2018-12-29 01:00","2018","12","29","01:00","9.7","","9.7","","100","","0.2","","21","","72","","","","99.19","","","","","","NA"
"-128.91","50.82","SARTINE ISLAND (AUT)","1037090","2018-12-29 02:00","2018","12","29","02:00","9.6","","9.6","","100","","0.0","","20","","73","","","","99.11","","","","","","NA"
"-128.91","50.82","SARTINE ISLAND (AUT)","1037090","2018-12-29 03:00","2018","12","29","03:00","9.6","","9.6","","100","","0.6","","21","","72","","","","99.08","","","","","","NA"
"-128.91","50.82","SARTINE ISLAND (AUT)","1037090","2018-12-29 04:00","2018","12","29","04:00","9.5","","9.5","","100","","0.6","","21","","73","","","","99.00","","","","","","NA"
"-128.91","50.82","SARTINE ISLAND (AUT)","1037090","2018-12-29 05:00","2018","12","29","05:00","9.1","","9.1","","100","","0.2","","22","","61","","","","99.05","","","","","","NA"
"-128.91","50.82","SARTINE ISLAND (AUT)","1037090","2018-12-29 06:00","2018","12","29","06:00","8.9","","8.4","","97","","0.0","","24","","61","","","","99.13","","","","","","NA"
"-128.91","50.82","SARTINE ISLAND (AUT)","1037090","2018-12-29 07:00","2018","12","29","07:00","8.6","","7.1","","91","","0.2","","25","","66","","","","99.28","","","","","","NA"
"-128.91","50.82","SARTINE ISLAND (AUT)","1037090","2018-12-29 08:00","2018","12","29","08:00","7.6","","6.9","","95","","0.0","","26","","57","","","","99.54","","","","","","NA"
"-128.91","50.82","SARTINE ISLAND (AUT)","1037090","2018-12-29 09:00","2018","12","29","09:00","7.5","","5.2","","86","","0.0","","28","","51","","","","99.73","","","","","","NA"
"-128.91","50.82","SARTINE ISLAND (AUT)","1037090","2018-12-29 10:00","2018","12","29","10:00","7.1","","5.1","","87","","0.0","","27","","51","","","","99.81","","","","","","NA"
"-128.91","50.82","SARTINE ISLAND (AUT)","1037090","2018-12-29 11:00","2018","12","29","11:00","7.5","","5.3","","86","","0.0","","27","","43","","","","99.92","","","","","","NA"
"-128.91","50.82","SARTINE ISLAND (AUT)","1037090","2018-12-29 12:00","2018","12","29","12:00","7.1","","4.6","","84","","0.4","","28","","47","","","","99.94","","","","","","NA"
"-128.91","50.82","SARTINE ISLAND (AUT)","1037090","2018-12-29 13:00","2018","12","29","13:00","7.4","","4.6","","82","","0.0","","27","","48","","","","99.96","","","","","","NA"
"-128.91","50.82","SARTINE ISLAND (AUT)","1037090","2018-12-29 14:00","2018","12","29","14:00","7.3","","5.0","","85","","0.0","","27","","40","","","","100.00","","","","","","NA"
"-128.91","50.82","SARTINE ISLAND (AUT)","1037090","2018-12-29 15:00","2018","12","29","15:00","6.9","","5.2","","89","","0.2","","27","","39","","","","100.09","","","","","","NA"
"-128.91","50.82","SARTINE ISLAND (AUT)","1037090","2018-12-29 16:00","2018","12","29","16:00","7.2","","5.3","","87","","0.2","","27","","41","","","","100.11","","","","","","NA"
"-128.91","50.82","SARTINE ISLAND (AUT)","1037090","2018-12-29 17:00","2018","12","29","17:00","7.2","","4.4","","83","","0.2","","27","","48","","","","100.16","","","","","","NA"
"-128.91","50.82","SARTINE ISLAND (AUT)","1037090","2018-12-29 18:00","2018","12","29","18:00","6.7","","4.6","","87","","0.0","","28","","49","","","","100.18","","","","","","NA"
"-128.91","50.82","SARTINE ISLAND (AUT)","1037090","2018-12-29 19:00","2018","12","29","19:00","5.0","","3.5","","90","","0.6","","29","","40","","","","100.25","","","","","","NA"
"-128.91","50.82","SARTINE ISLAND (AUT)","1037090","2018-12-29 20:00","2018","12","29","20:00","5.6","","2.5","","81","","0.6","","29","","56","","","","100.30","","","","","","NA"
"-128.91","50.82","SARTINE ISLAND (AUT)","1037090","2018-12-29 21:00","2018","12","29","21:00","6.9","","3.6","","80","","0.2","","28","","52","","","","100.36","","","","","","NA"
"-128.91","50.82","SARTINE ISLAND (AUT)","1037090","2018-12-29 22:00","2018","12","29","22:00","6.0","","3.7","","85","","0.0","","28","","66","","","","100.41","","","","","","NA"
"-128.91","50.82","SARTINE ISLAND (AUT)","1037090","2018-12-29 23:00","2018","12","29","23:00","6.3","","3.6","","83","","0.0","","28","","52","","","","100.49","","","","","","NA"
"-128.91","50.82","SARTINE ISLAND (AUT)","1037090","2018-12-30 00:00","2018","12","30","00:00","6.5","","3.7","","82","","0.0","","28","","48","","","","100.60","","","","","","NA"
"-128.91","50.82","SARTINE ISLAND (AUT)","1037090","2018-12-30 01:00","2018","12","30","01:00","6.6","","3.9","","83","","0.0","","29","","45","","","","100.72","","","","","","NA"
"-128.91","50.82","SARTINE ISLAND (AUT)","1037090","2018-12-30 02:00","2018","12","30","02:00","6.9","","3.3","","78","","0.0","","30","","43","","","","100.83","","","","","","NA"
"-128.91","50.82","SARTINE ISLAND (AUT)","1037090","2018-12-30 03:00","2018","12","30","03:00","7.0","","2.8","","74","","0.0","","30","","38","","","","100.91","","","","","","NA"
"-128.91","50.82","SARTINE ISLAND (AUT)","1037090","2018-12-30 04:00","2018","12","30","04:00","7.0","","2.8","","75","","0.0","","30","","31","","","","100.97","","","","","","NA"
"-128.91","50.82","SARTINE ISLAND (AUT)","1037090","2018-12-30 05:00","2018","12","30","05:00","7.1","","2.4","","72","","0.0","","31","","28","","","","100.99","","","","","","NA"
"-128.91","50.82","SARTINE ISLAND (AUT)","1037090","2018-12-30 06:00","2018","12","30","06:00","7.2","","2.9","","74","","0.0","","32","","25","","","","101.08","","","","","","NA"
"-128.91","50.82","SARTINE ISLAND (AUT)","1037090","2018-12-30 07:00","2018","12","30","07:00","6.4","","3.3","","81","","0.0","","30","","38","","","","101.16","","","","","","NA"
"-128.91","50.82","SARTINE ISLAND (AUT)","1037090","2018-12-30 08:00","2018","12","30","08:00","7.3","","3.1","","74","","0.0","","30","","39","","","","101.26","","","","","","NA"
"-128.91","50.82","SARTINE ISLAND (AUT)","1037090","2018-12-30 09:00","2018","12","30","09:00","7.2","","3.2","","75","","0.0","","31","","31","","","","101.37","","","","","","NA"
"-128.91","50.82","SARTINE ISLAND (AUT)","1037090","2018-12-30 10:00","2018","12","30","10:00","7.3","","3.1","","75","","0.0","","30","","34","","","","101.37","","","","","","NA"
"-128.91","50.82","SARTINE ISLAND (AUT)","1037090","2018-12-30 11:00","2018","12","30","11:00","7.3","","3.3","","76","","0.0","","31","","31","","","","101.37","","","","","","NA"
"-128.91","50.82","SARTINE ISLAND (AUT)","1037090","2018-12-30 12:00","2018","12","30","12:00","7.2","","2.6","","73","","0.0","","30","","39","","","","101.37","","","","","","NA"
"-128.91","50.82","SARTINE ISLAND (AUT)","1037090","2018-12-30 13:00","2018","12","30","13:00","7.1","","4.7","","85","","0.0","","33","","23","","","","101.40","","","","","","NA"
"-128.91","50.82","SARTINE ISLAND (AUT)","1037090","2018-12-30 14:00","2018","12","30","14:00","7.2","","3.7","","79","","0.0","","33","","25","","","","101.44","","","","","","NA"
"-128.91","50.82","SARTINE ISLAND (AUT)","1037090","2018-12-30 15:00","2018","12","30","15:00","6.9","","4.3","","83","","0.0","","34","","33","","","","101.48","","","","","","NA"
"-128.91","50.82","SARTINE ISLAND (AUT)","1037090","2018-12-30 16:00","2018","12","30","16:00","6.1","","4.7","","91","","0.0","","34","","29","","","","101.53","","","","","","NA"
"-128.91","50.82","SARTINE ISLAND (AUT)","1037090","2018-12-30 17:00","2018","12","30","17:00","6.3","","5.0","","91","","0.0","","33","","25","","","","101.49","","","","","","NA"
"-128.91","50.82","SARTINE ISLAND (AUT)","1037090","2018-12-30 18:00","2018","12","30","18:00","6.6","","4.4","","86","","0.0","","35","","32","","","","101.59","","","","","","NA"
"-128.91","50.82","SARTINE ISLAND (AUT)","1037090","2018-12-30 19:00","2018","12","30","19:00","6.3","","4.0","","85","","0.0","","35","","24","","","","101.57","","","","","","NA"
"-128.91","50.82","SARTINE ISLAND (AUT)","1037090","2018-12-30 20:00","2018","12","30","20:00","6.4","","4.0","","85","","0.0","","35","","22","","","","101.60","","","","","","NA"
"-128.91","50.82","SARTINE ISLAND (AUT)","1037090","2018-12-30 21:00","2018","12","30","21:00","6.4","","4.1","","85","","0.0","","35","","20","","","","101.68","","","","","","NA"
"-128.91","50.82","SARTINE ISLAND (AUT)","1037090","2018-12-30 22:00","2018","12","30","22:00","5.8","","4.0","","88","","0.0","","35","","22","","","","101.65","","","","","","NA"
"-128.91","50.82","SARTINE ISLAND (AUT)","1037090","2018-12-30 23:00","2018","12","30","23:00","5.7","","3.5","","86","","0.0","","35","","24","","","","101.71","","","","","","NA"
"-128.91","50.82","SARTINE ISLAND (AUT)","1037090","2018-12-31 00:00","2018","12","31","00:00","5.2","","2.5","","83","","0.0","","36","","15","","","","101.70","","","","","","NA"
"-128.91","50.82","SARTINE ISLAND (AUT)","1037090","2018-12-31 01:00","2018","12","31","01:00","5.4","","2.8","","83","","0.0","","2","","9","","","","101.71","","","","","","NA"
"-128.91","50.82","SARTINE ISLAND (AUT)","1037090","2018-12-31 02:00","2018","12","31","02:00","5.5","","3.5","","87","","0.0","","6","","4","","","","101.77","","","","","","NA"
"-128.91","50.82","SARTINE ISLAND (AUT)","1037090","2018-12-31 03:00","2018","12","31","03:00","5.4","","3.5","","87","","0.0","","0","","1","","","","101.79","","","","","","NA"
"-128.91","50.82","SARTINE ISLAND (AUT)","1037090","2018-12-31 04:00","2018","12","31","04:00","5.6","","3.5","","86","","0.0","","35","","2","","","","101.77","","","","","","NA"
"-128.91","50.82","SARTINE ISLAND (AUT)","1037090","2018-12-31 05:00","2018","12","31","05:00","5.7","","3.8","","88","","0.0","","34","","6","","","","101.72","","","","","","NA"
"-128.91","50.82","SARTINE ISLAND (AUT)","1037090","2018-12-31 06:00","2018","12","31","06:00","5.6","","3.7","","87","","0.0","","4","","9","","","","101.68","","","","","","NA"
"-128.91","50.82","SARTINE ISLAND (AUT)","1037090","2018-12-31 07:00","2018","12","31","07:00","5.6","","3.4","","86","","0.0","","6","","9","","","","101.69","","","","","","NA"
"-128.91","50.82","SARTINE ISLAND (AUT)","1037090","2018-12-31 08:00","2018","12","31","08:00","5.6","","3.7","","87","","0.0","","9","","11","","","","101.73","","","","","","NA"
"-128.91","50.82","SARTINE ISLAND (AUT)","1037090","2018-12-31 09:00","2018","12","31","09:00","5.9","","3.9","","87","","0.0","","13","","15","","","","101.76","","","","","","NA"
"-128.91","50.82","SARTINE ISLAND (AUT)","1037090","2018-12-31 10:00","2018","12","31","10:00","6.2","","4.2","","87","","0.0","","16","","21","","","","101.79","","","","","","NA"
"-128.91","50.82","SARTINE ISLAND (AUT)","1037090","2018-12-31 11:00","2018","12","31","11:00","6.5","","4.8","","89","","0.0","","15","","30","","","","101.71","","","","","","NA"
"-128.91","50.82","SARTINE ISLAND (AUT)","1037090","2018-12-31 12:00","2018","12","31","12:00","6.8","","4.9","","88","","0.0","","16","","31","","","","101.68","","","","","","NA"
"-128.91","50.82","SARTINE ISLAND (AUT)","1037090","2018-12-31 13:00","2018","12","31","13:00","7.0","","5.4","","90","","0.0","","16","","37","","","","101.63","","","","","","NA"
"-128.91","50.82","SARTINE ISLAND (AUT)","1037090","2018-12-31 14:00","2018","12","31","14:00","7.1","","5.4","","89","","0.0","","15","","37","","","","101.66","","","","","","NA"
"-128.91","50.82","SARTINE ISLAND (AUT)","1037090","2018-12-31 15:00","2018","12","31","15:00","7.2","","4.9","","86","","0.0","","15","","42","","","","101.65","","","","","","NA"
"-128.91","50.82","SARTINE ISLAND (AUT)","1037090","2018-12-31 16:00","2018","12","31","16:00","7.2","","5.6","","89","","0.0","","15","","43","","","","101.62","","","","","","NA"
"-128.91","50.82","SARTINE ISLAND (AUT)","1037090","2018-12-31 17:00","2018","12","31","17:00","7.1","","6.1","","93","","0.0","","16","","43","","","","101.55","","","","","","NA"
"-128.91","50.82","SARTINE ISLAND (AUT)","1037090","2018-12-31 18:00","2018","12","31","18:00","7.0","","6.2","","95","","0.0","","15","","49","","","","101.48","","","","","","NA"
"-128.91","50.82","SARTINE ISLAND (AUT)","1037090","2018-12-31 19:00","2018","12","31","19:00","6.9","","6.3","","96","","0.0","","15","","47","","","","101.47","","","","","","NA"
"-128.91","50.82","SARTINE ISLAND (AUT)","1037090","2018-12-31 20:00","2018","12","31","20:00","7.0","","6.5","","97","","0.0","","17","","50","","","","101.41","","","","","","NA"
"-128.91","50.82","SARTINE ISLAND (AUT)","1037090","2018-12-31 21:00","2018","12","31","21:00","6.9","","6.7","","98","","0.0","","16","","50","","","","101.37","","","","","","NA"
"-128.91","50.82","SARTINE ISLAND (AUT)","1037090","2018-12-31 22:00","2018","12","31","22:00","7.0","","6.5","","97","","0.2","","16","","57","","","","101.28","","","","","","NA"
"-128.91","50.82","SARTINE ISLAND (AUT)","1037090","2018-12-31 23:00","2018","12","31","23:00","6.9","","6.6","","98","","0.0","","16","","60","","","","101.28","","","","","","NA"
