"Longitude (x)","Latitude (y)","Station Name","Climate ID","Date/Time (LST)","Year","Month","Day","Time (LST)","Temp (°C)","Temp Flag","Dew Point Temp (°C)","Dew Point Temp Flag","Rel Hum (%)","Rel Hum Flag","Precip. Amount (mm)","Precip. Amount Flag","Wind Dir (10s deg)","Wind Dir Flag","Wind Spd (km/h)","Wind Spd Flag","Visibility (km)","Visibility Flag","Stn Press (kPa)","Stn Press Flag","Hmdx","Hmdx Flag","Wind Chill","Wind Chill Flag","Weather"
"-131.60","53.03","CUMSHEWA ISLAND","1062251","2022-08-01 00:00","2022","08","01","00:00","14.8","","12.1","","84","","","","32","","18","","","","101.65","","","","","","NA"
"-131.60","53.03","CUMSHEWA ISLAND","1062251","2022-08-01 01:00","2022","08","01","01:00","14.9","","11.8","","82","","","","31","","13","","","","101.65","","","","","","NA"
"-131.60","53.03","CUMSHEWA ISLAND","1062251","2022-08-01 02:00","2022","08","01","02:00","14.9","","11.6","","80","","","","29","","15","","","","101.64","","","","","","NA"
"-131.60","53.03","CUMSHEWA ISLAND","1062251","2022-08-01 03:00","2022","08","01","03:00","15.4","","11.1","","76","","","","28","","20","","","","101.63","","","","","","NA"
"-131.60","53.03","CUMSHEWA ISLAND","1062251","2022-08-01 04:00","2022","08","01","04:00","15.1","","11.0","","77","","","","29","","11","","","","101.63","","","","","","NA"
"-131.60","53.03","CUMSHEWA ISLAND","1062251","2022-08-01 05:00","2022","08","01","05:00","14.9","","10.9","","77","","","","30","","13","","","","101.62","","","","","","NA"
"-131.60","53.03","CUMSHEWA ISLAND","1062251","2022-08-01 06:00","2022","08","01","06:00","15.2","","11.2","","77","","","","29","","22","","","","101.60","","","","","","NA"
"-131.60","53.03","CUMSHEWA ISLAND","1062251","2022-08-01 07:00","2022","08","01","07:00","15.7","","11.3","","75","","","","28","","24","","","","101.61","","","","","","NA"
"-131.60","53.03","CUMSHEWA ISLAND","1062251","2022-08-01 08:00","2022","08","01","08:00","16.3","","11.3","","72","","","","29","","15","","","","101.65","","","","","","NA"
"-131.60","53.03","CUMSHEWA ISLAND","1062251","2022-08-01 09:00","2022","08","01","09:00","16.6","","11.3","","71","","","","28","","20","","","","101.65","","","","","","NA"
"-131.60","53.03","CUMSHEWA ISLAND","1062251","2022-08-01 10:00","2022","08","01","10:00","16.8","","11.0","","69","","","","27","","22","","","","101.65","","","","","","NA"
"-131.60","53.03","CUMSHEWA ISLAND","1062251","2022-08-01 11:00","2022","08","01","11:00","17.2","","11.3","","68","","","","26","","23","","","","101.67","","","","","","NA"
"-131.60","53.03","CUMSHEWA ISLAND","1062251","2022-08-01 12:00","2022","08","01","12:00","17.9","","11.4","","66","","","","26","","20","","","","101.67","","","","","","NA"
"-131.60","53.03","CUMSHEWA ISLAND","1062251","2022-08-01 13:00","2022","08","01","13:00","18.5","","11.3","","63","","","","27","","15","","","","101.66","","","","","","NA"
"-131.60","53.03","CUMSHEWA ISLAND","1062251","2022-08-01 14:00","2022","08","01","14:00","16.9","","12.4","","74","","","","5","","12","","","","101.67","","","","","","NA"
"-131.60","53.03","CUMSHEWA ISLAND","1062251","2022-08-01 15:00","2022","08","01","15:00","16.6","","12.9","","79","","","","1","","13","","","","101.71","","","","","","NA"
"-131.60","53.03","CUMSHEWA ISLAND","1062251","2022-08-01 16:00","2022","08","01","16:00","16.6","","13.3","","81","","","","4","","12","","","","101.71","","","","","","NA"
"-131.60","53.03","CUMSHEWA ISLAND","1062251","2022-08-01 17:00","2022","08","01","17:00","16.6","","13.3","","81","","","","11","","6","","","","101.69","","","","","","NA"
"-131.60","53.03","CUMSHEWA ISLAND","1062251","2022-08-01 18:00","2022","08","01","18:00","16.3","","13.4","","83","","","","15","","5","","","","101.68","","","","","","NA"
"-131.60","53.03","CUMSHEWA ISLAND","1062251","2022-08-01 19:00","2022","08","01","19:00","16.5","","13.5","","83","","","","14","","6","","","","101.67","","","","","","NA"
"-131.60","53.03","CUMSHEWA ISLAND","1062251","2022-08-01 20:00","2022","08","01","20:00","16.4","","13.5","","83","","","","17","","6","","","","101.67","","","","","","NA"
"-131.60","53.03","CUMSHEWA ISLAND","1062251","2022-08-01 21:00","2022","08","01","21:00","16.1","","13.5","","85","","","","16","","7","","","","101.65","","","","","","NA"
"-131.60","53.03","CUMSHEWA ISLAND","1062251","2022-08-01 22:00","2022","08","01","22:00","15.7","","12.5","","81","","","","26","","7","","","","101.65","","","","","","NA"
"-131.60","53.03","CUMSHEWA ISLAND","1062251","2022-08-01 23:00","2022","08","01","23:00","15.7","","11.6","","77","","","","26","","7","","","","101.65","","","","","","NA"
"-131.60","53.03","CUMSHEWA ISLAND","1062251","2022-08-02 00:00","2022","08","02","00:00","15.7","","11.5","","76","","","","29","","18","","","","101.61","","","","","","NA"
"-131.60","53.03","CUMSHEWA ISLAND","1062251","2022-08-02 01:00","2022","08","02","01:00","15.7","","11.4","","75","","","","30","","15","","","","101.59","","","","","","NA"
"-131.60","53.03","CUMSHEWA ISLAND","1062251","2022-08-02 02:00","2022","08","02","02:00","15.6","","11.6","","77","","","","29","","15","","","","101.57","","","","","","NA"
"-131.60","53.03","CUMSHEWA ISLAND","1062251","2022-08-02 03:00","2022","08","02","03:00","14.8","","12.1","","84","","","","28","","11","","","","101.53","","","","","","NA"
"-131.60","53.03","CUMSHEWA ISLAND","1062251","2022-08-02 04:00","2022","08","02","04:00","14.0","","12.4","","91","","","","25","","4","","","","101.49","","","","","","NA"
"-131.60","53.03","CUMSHEWA ISLAND","1062251","2022-08-02 05:00","2022","08","02","05:00","13.8","","12.7","","93","","","","16","","2","","","","101.44","","","","","","NA"
"-131.60","53.03","CUMSHEWA ISLAND","1062251","2022-08-02 06:00","2022","08","02","06:00","13.8","","12.7","","93","","","","16","","5","","","","101.37","","","","","","NA"
"-131.60","53.03","CUMSHEWA ISLAND","1062251","2022-08-02 07:00","2022","08","02","07:00","14.2","","12.4","","89","","","","19","","6","","","","101.33","","","","","","NA"
"-131.60","53.03","CUMSHEWA ISLAND","1062251","2022-08-02 08:00","2022","08","02","08:00","14.8","","13.0","","89","","","","19","","2","","","","101.29","","","","","","NA"
"-131.60","53.03","CUMSHEWA ISLAND","1062251","2022-08-02 09:00","2022","08","02","09:00","15.2","","13.0","","87","","","","18","","20","","","","101.25","","","","","","NA"
"-131.60","53.03","CUMSHEWA ISLAND","1062251","2022-08-02 10:00","2022","08","02","10:00","15.5","","13.1","","85","","","","21","","4","","","","101.25","","","","","","NA"
"-131.60","53.03","CUMSHEWA ISLAND","1062251","2022-08-02 11:00","2022","08","02","11:00","15.5","","13.2","","86","","","","24","","14","","","","101.28","","","","","","NA"
"-131.60","53.03","CUMSHEWA ISLAND","1062251","2022-08-02 12:00","2022","08","02","12:00","14.9","","11.9","","82","","","","29","","20","","","","101.28","","","","","","NA"
"-131.60","53.03","CUMSHEWA ISLAND","1062251","2022-08-02 13:00","2022","08","02","13:00","15.9","","10.8","","72","","","","28","","23","","","","101.30","","","","","","NA"
"-131.60","53.03","CUMSHEWA ISLAND","1062251","2022-08-02 14:00","2022","08","02","14:00","16.4","","10.2","","67","","","","26","","23","","","","101.29","","","","","","NA"
"-131.60","53.03","CUMSHEWA ISLAND","1062251","2022-08-02 15:00","2022","08","02","15:00","16.8","","10.4","","66","","","","26","","22","","","","101.28","","","","","","NA"
"-131.60","53.03","CUMSHEWA ISLAND","1062251","2022-08-02 16:00","2022","08","02","16:00","16.6","","9.7","","64","","","","26","","24","","","","101.26","","","","","","NA"
"-131.60","53.03","CUMSHEWA ISLAND","1062251","2022-08-02 17:00","2022","08","02","17:00","16.1","","10.2","","68","","","","27","","25","","","","101.24","","","","","","NA"
"-131.60","53.03","CUMSHEWA ISLAND","1062251","2022-08-02 18:00","2022","08","02","18:00","16.1","","10.5","","69","","","","28","","21","","","","101.23","","","","","","NA"
"-131.60","53.03","CUMSHEWA ISLAND","1062251","2022-08-02 19:00","2022","08","02","19:00","15.5","","10.1","","70","","","","29","","20","","","","101.21","","","","","","NA"
"-131.60","53.03","CUMSHEWA ISLAND","1062251","2022-08-02 20:00","2022","08","02","20:00","15.4","","10.2","","71","","","","28","","17","","","","101.21","","","","","","NA"
"-131.60","53.03","CUMSHEWA ISLAND","1062251","2022-08-02 21:00","2022","08","02","21:00","15.2","","10.5","","74","","","","26","","19","","","","101.21","","","","","","NA"
"-131.60","53.03","CUMSHEWA ISLAND","1062251","2022-08-02 22:00","2022","08","02","22:00","14.9","","10.2","","74","","","","28","","11","","","","101.23","","","","","","NA"
"-131.60","53.03","CUMSHEWA ISLAND","1062251","2022-08-02 23:00","2022","08","02","23:00","14.7","","10.1","","74","","","","32","","9","","","","101.20","","","","","","NA"
"-131.60","53.03","CUMSHEWA ISLAND","1062251","2022-08-03 00:00","2022","08","03","00:00","14.4","","9.9","","75","","","","32","","12","","","","101.18","","","","","","NA"
"-131.60","53.03","CUMSHEWA ISLAND","1062251","2022-08-03 01:00","2022","08","03","01:00","14.4","","9.6","","73","","","","28","","13","","","","101.16","","","","","","NA"
"-131.60","53.03","CUMSHEWA ISLAND","1062251","2022-08-03 02:00","2022","08","03","02:00","14.2","","9.8","","75","","","","29","","7","","","","101.13","","","","","","NA"
"-131.60","53.03","CUMSHEWA ISLAND","1062251","2022-08-03 03:00","2022","08","03","03:00","14.2","","9.4","","73","","","","24","","3","","","","101.07","","","","","","NA"
"-131.60","53.03","CUMSHEWA ISLAND","1062251","2022-08-03 04:00","2022","08","03","04:00","14.0","","9.4","","74","","","","27","","6","","","","101.04","","","","","","NA"
"-131.60","53.03","CUMSHEWA ISLAND","1062251","2022-08-03 05:00","2022","08","03","05:00","13.7","","9.4","","75","","","","27","","1","","","","100.99","","","","","","NA"
"-131.60","53.03","CUMSHEWA ISLAND","1062251","2022-08-03 06:00","2022","08","03","06:00"
"-131.60","53.03","CUMSHEWA ISLAND","1062251","2022-08-03 07:00","2022","08","03","07:00"
"-131.60","53.03","CUMSHEWA ISLAND","1062251","2022-08-03 08:00","2022","08","03","08:00"
"-131.60","53.03","CUMSHEWA ISLAND","1062251","2022-08-03 09:00","2022","08","03","09:00"
"-131.60","53.03","CUMSHEWA ISLAND","1062251","2022-08-03 10:00","2022","08","03","10:00"
"-131.60","53.03","CUMSHEWA ISLAND","1062251","2022-08-03 11:00","2022","08","03","11:00"
"-131.60","53.03","CUMSHEWA ISLAND","1062251","2022-08-03 12:00","2022","08","03","12:00"
"-131.60","53.03","CUMSHEWA ISLAND","1062251","2022-08-03 13:00","2022","08","03","13:00"
"-131.60","53.03","CUMSHEWA ISLAND","1062251","2022-08-03 14:00","2022","08","03","14:00"
"-131.60","53.03","CUMSHEWA ISLAND","1062251","2022-08-03 15:00","2022","08","03","15:00"
"-131.60","53.03","CUMSHEWA ISLAND","1062251","2022-08-03 16:00","2022","08","03","16:00"
"-131.60","53.03","CUMSHEWA ISLAND","1062251","2022-08-03 17:00","2022","08","03","17:00"
"-131.60","53.03","CUMSHEWA ISLAND","1062251","2022-08-03 18:00","2022","08","03","18:00"
"-131.60","53.03","CUMSHEWA ISLAND","1062251","2022-08-03 19:00","2022","08","03","19:00"
"-131.60","53.03","CUMSHEWA ISLAND","1062251","2022-08-03 20:00","2022","08","03","20:00"
"-131.60","53.03","CUMSHEWA ISLAND","1062251","2022-08-03 21:00","2022","08","03","21:00"
"-131.60","53.03","CUMSHEWA ISLAND","1062251","2022-08-03 22:00","2022","08","03","22:00"
"-131.60","53.03","CUMSHEWA ISLAND","1062251","2022-08-03 23:00","2022","08","03","23:00"
"-131.60","53.03","CUMSHEWA ISLAND","1062251","2022-08-04 00:00","2022","08","04","00:00"
"-131.60","53.03","CUMSHEWA ISLAND","1062251","2022-08-04 01:00","2022","08","04","01:00"
"-131.60","53.03","CUMSHEWA ISLAND","1062251","2022-08-04 02:00","2022","08","04","02:00"
"-131.60","53.03","CUMSHEWA ISLAND","1062251","2022-08-04 03:00","2022","08","04","03:00"
"-131.60","53.03","CUMSHEWA ISLAND","1062251","2022-08-04 04:00","2022","08","04","04:00"
"-131.60","53.03","CUMSHEWA ISLAND","1062251","2022-08-04 05:00","2022","08","04","05:00"
"-131.60","53.03","CUMSHEWA ISLAND","1062251","2022-08-04 06:00","2022","08","04","06:00","13.4","","12.1","","92","","","","27","","11","","","","101.38","","","","","","NA"
"-131.60","53.03","CUMSHEWA ISLAND","1062251","2022-08-04 07:00","2022","08","04","07:00","13.7","","11.9","","89","","","","26","","12","","","","101.41","","","","","","NA"
"-131.60","53.03","CUMSHEWA ISLAND","1062251","2022-08-04 08:00","2022","08","04","08:00","13.9","","12.3","","90","","","","25","","15","","","","101.44","","","","","","NA"
"-131.60","53.03","CUMSHEWA ISLAND","1062251","2022-08-04 09:00","2022","08","04","09:00","14.9","","11.9","","82","","","","26","","12","","","","101.50","","","","","","NA"
"-131.60","53.03","CUMSHEWA ISLAND","1062251","2022-08-04 10:00","2022","08","04","10:00","15.7","","11.7","","77","","","","26","","8","","","","101.55","","","","","","NA"
"-131.60","53.03","CUMSHEWA ISLAND","1062251","2022-08-04 11:00","2022","08","04","11:00","15.4","","12.5","","83","","","","35","","3","","","","101.60","","","","","","NA"
"-131.60","53.03","CUMSHEWA ISLAND","1062251","2022-08-04 12:00","2022","08","04","12:00","15.6","","13.1","","85","","","","18","","9","","","","101.64","","","","","","NA"
"-131.60","53.03","CUMSHEWA ISLAND","1062251","2022-08-04 13:00","2022","08","04","13:00","15.6","","12.5","","82","","","","15","","10","","","","101.69","","","","","","NA"
"-131.60","53.03","CUMSHEWA ISLAND","1062251","2022-08-04 14:00","2022","08","04","14:00","15.4","","12.9","","85","","","","12","","8","","","","101.75","","","","","","NA"
"-131.60","53.03","CUMSHEWA ISLAND","1062251","2022-08-04 15:00","2022","08","04","15:00","14.8","","12.8","","88","","","","16","","12","","","","101.78","","","","","","NA"
"-131.60","53.03","CUMSHEWA ISLAND","1062251","2022-08-04 16:00","2022","08","04","16:00","14.8","","12.8","","88","","","","18","","10","","","","101.81","","","","","","NA"
"-131.60","53.03","CUMSHEWA ISLAND","1062251","2022-08-04 17:00","2022","08","04","17:00","15.2","","13.2","","88","","","","17","","11","","","","101.81","","","","","","NA"
"-131.60","53.03","CUMSHEWA ISLAND","1062251","2022-08-04 18:00","2022","08","04","18:00","15.4","","13.0","","86","","","","17","","11","","","","101.81","","","","","","NA"
"-131.60","53.03","CUMSHEWA ISLAND","1062251","2022-08-04 19:00","2022","08","04","19:00","15.4","","12.9","","85","","","","17","","12","","","","101.84","","","","","","NA"
"-131.60","53.03","CUMSHEWA ISLAND","1062251","2022-08-04 20:00","2022","08","04","20:00","15.5","","12.8","","84","","","","18","","12","","","","101.88","","","","","","NA"
"-131.60","53.03","CUMSHEWA ISLAND","1062251","2022-08-04 21:00","2022","08","04","21:00","15.7","","12.9","","83","","","","21","","2","","","","101.93","","","","","","NA"
"-131.60","53.03","CUMSHEWA ISLAND","1062251","2022-08-04 22:00","2022","08","04","22:00","15.5","","12.9","","85","","","","35","","3","","","","101.96","","","","","","NA"
"-131.60","53.03","CUMSHEWA ISLAND","1062251","2022-08-04 23:00","2022","08","04","23:00","15.3","","12.9","","85","","","","28","","10","","","","101.99","","","","","","NA"
"-131.60","53.03","CUMSHEWA ISLAND","1062251","2022-08-05 00:00","2022","08","05","00:00","15.0","","13.0","","88","","","","3","","9","","","","102.02","","","","","","NA"
"-131.60","53.03","CUMSHEWA ISLAND","1062251","2022-08-05 01:00","2022","08","05","01:00","14.7","","12.6","","87","","","","35","","7","","","","102.03","","","","","","NA"
"-131.60","53.03","CUMSHEWA ISLAND","1062251","2022-08-05 02:00","2022","08","05","02:00","14.8","","12.9","","89","","","","28","","2","","","","102.06","","","","","","NA"
"-131.60","53.03","CUMSHEWA ISLAND","1062251","2022-08-05 03:00","2022","08","05","03:00","14.7","","12.8","","88","","","","30","","3","","","","102.08","","","","","","NA"
"-131.60","53.03","CUMSHEWA ISLAND","1062251","2022-08-05 04:00","2022","08","05","04:00","14.6","","12.6","","88","","","","26","","4","","","","102.09","","","","","","NA"
"-131.60","53.03","CUMSHEWA ISLAND","1062251","2022-08-05 05:00","2022","08","05","05:00","14.6","","12.2","","86","","","","33","","5","","","","102.10","","","","","","NA"
"-131.60","53.03","CUMSHEWA ISLAND","1062251","2022-08-05 06:00","2022","08","05","06:00","14.5","","12.1","","86","","","","30","","4","","","","102.12","","","","","","NA"
"-131.60","53.03","CUMSHEWA ISLAND","1062251","2022-08-05 07:00","2022","08","05","07:00","14.5","","11.7","","83","","","","31","","8","","","","102.16","","","","","","NA"
"-131.60","53.03","CUMSHEWA ISLAND","1062251","2022-08-05 08:00","2022","08","05","08:00","14.6","","11.6","","82","","","","32","","8","","","","102.19","","","","","","NA"
"-131.60","53.03","CUMSHEWA ISLAND","1062251","2022-08-05 09:00","2022","08","05","09:00","14.6","","11.7","","83","","","","35","","9","","","","102.20","","","","","","NA"
"-131.60","53.03","CUMSHEWA ISLAND","1062251","2022-08-05 10:00","2022","08","05","10:00","14.9","","11.4","","79","","","","36","","14","","","","102.22","","","","","","NA"
"-131.60","53.03","CUMSHEWA ISLAND","1062251","2022-08-05 11:00","2022","08","05","11:00","15.0","","11.3","","78","","","","36","","12","","","","102.27","","","","","","NA"
"-131.60","53.03","CUMSHEWA ISLAND","1062251","2022-08-05 12:00","2022","08","05","12:00","15.2","","11.4","","78","","","","2","","13","","","","102.26","","","","","","NA"
"-131.60","53.03","CUMSHEWA ISLAND","1062251","2022-08-05 13:00","2022","08","05","13:00","15.5","","11.8","","78","","","","4","","11","","","","102.27","","","","","","NA"
"-131.60","53.03","CUMSHEWA ISLAND","1062251","2022-08-05 14:00","2022","08","05","14:00","16.1","","11.3","","74","","","","7","","8","","","","102.25","","","","","","NA"
"-131.60","53.03","CUMSHEWA ISLAND","1062251","2022-08-05 15:00","2022","08","05","15:00","16.3","","11.6","","74","","","","8","","7","","","","102.24","","","","","","NA"
"-131.60","53.03","CUMSHEWA ISLAND","1062251","2022-08-05 16:00","2022","08","05","16:00","16.3","","12.4","","78","","","","13","","7","","","","102.20","","","","","","NA"
"-131.60","53.03","CUMSHEWA ISLAND","1062251","2022-08-05 17:00","2022","08","05","17:00","16.0","","12.6","","81","","","","15","","10","","","","102.15","","","","","","NA"
"-131.60","53.03","CUMSHEWA ISLAND","1062251","2022-08-05 18:00","2022","08","05","18:00","15.9","","12.8","","82","","","","16","","9","","","","102.14","","","","","","NA"
"-131.60","53.03","CUMSHEWA ISLAND","1062251","2022-08-05 19:00","2022","08","05","19:00","16.4","","12.4","","77","","","","11","","3","","","","102.14","","","","","","NA"
"-131.60","53.03","CUMSHEWA ISLAND","1062251","2022-08-05 20:00","2022","08","05","20:00","15.6","","12.5","","82","","","","2","","2","","","","102.14","","","","","","NA"
"-131.60","53.03","CUMSHEWA ISLAND","1062251","2022-08-05 21:00","2022","08","05","21:00","15.4","","12.8","","85","","","","1","","6","","","","102.17","","","","","","NA"
"-131.60","53.03","CUMSHEWA ISLAND","1062251","2022-08-05 22:00","2022","08","05","22:00","15.0","","12.8","","87","","","","25","","2","","","","102.12","","","","","","NA"
"-131.60","53.03","CUMSHEWA ISLAND","1062251","2022-08-05 23:00","2022","08","05","23:00","14.6","","12.6","","88","","","","25","","3","","","","102.13","","","","","","NA"
"-131.60","53.03","CUMSHEWA ISLAND","1062251","2022-08-06 00:00","2022","08","06","00:00","14.4","","12.7","","90","","","","28","","3","","","","102.15","","","","","","NA"
"-131.60","53.03","CUMSHEWA ISLAND","1062251","2022-08-06 01:00","2022","08","06","01:00","14.3","","12.4","","88","","","","33","","3","","","","102.16","","","","","","NA"
"-131.60","53.03","CUMSHEWA ISLAND","1062251","2022-08-06 02:00","2022","08","06","02:00","13.8","","12.3","","90","","","","25","","10","","","","102.14","","","","","","NA"
"-131.60","53.03","CUMSHEWA ISLAND","1062251","2022-08-06 03:00","2022","08","06","03:00","13.7","","12.2","","91","","","","25","","11","","","","102.11","","","","","","NA"
"-131.60","53.03","CUMSHEWA ISLAND","1062251","2022-08-06 04:00","2022","08","06","04:00","14.0","","12.2","","89","","","","26","","17","","","","102.06","","","","","","NA"
"-131.60","53.03","CUMSHEWA ISLAND","1062251","2022-08-06 05:00","2022","08","06","05:00","14.3","","12.1","","87","","","","24","","15","","","","102.05","","","","","","NA"
"-131.60","53.03","CUMSHEWA ISLAND","1062251","2022-08-06 06:00","2022","08","06","06:00","14.2","","12.2","","88","","","","30","","5","","","","102.06","","","","","","NA"
"-131.60","53.03","CUMSHEWA ISLAND","1062251","2022-08-06 07:00","2022","08","06","07:00","14.7","","12.4","","86","","","","24","","9","","","","102.05","","","","","","NA"
"-131.60","53.03","CUMSHEWA ISLAND","1062251","2022-08-06 08:00","2022","08","06","08:00","16.6","","13.6","","83","","","","29","","2","","","","102.06","","","","","","NA"
"-131.60","53.03","CUMSHEWA ISLAND","1062251","2022-08-06 09:00","2022","08","06","09:00","18.0","","13.8","","77","","","","20","","2","","","","102.08","","","","","","NA"
"-131.60","53.03","CUMSHEWA ISLAND","1062251","2022-08-06 10:00","2022","08","06","10:00","17.6","","13.9","","79","","","","16","","4","","","","102.08","","","","","","NA"
"-131.60","53.03","CUMSHEWA ISLAND","1062251","2022-08-06 11:00","2022","08","06","11:00","17.3","","14.2","","82","","","","15","","11","","","","102.07","","","","","","NA"
"-131.60","53.03","CUMSHEWA ISLAND","1062251","2022-08-06 12:00","2022","08","06","12:00","17.2","","14.6","","85","","","","17","","19","","","","102.04","","","","","","NA"
"-131.60","53.03","CUMSHEWA ISLAND","1062251","2022-08-06 13:00","2022","08","06","13:00","17.1","","14.9","","87","","","","15","","22","","","","102.03","","","","","","NA"
"-131.60","53.03","CUMSHEWA ISLAND","1062251","2022-08-06 14:00","2022","08","06","14:00","17.6","","14.8","","84","","","","14","","16","","","","102.03","","","","","","NA"
"-131.60","53.03","CUMSHEWA ISLAND","1062251","2022-08-06 15:00","2022","08","06","15:00","17.6","","14.9","","84","","","","13","","13","","","","102.04","","","","","","NA"
"-131.60","53.03","CUMSHEWA ISLAND","1062251","2022-08-06 16:00","2022","08","06","16:00","17.2","","15.1","","87","","","","14","","12","","","","102.05","","","","","","NA"
"-131.60","53.03","CUMSHEWA ISLAND","1062251","2022-08-06 17:00","2022","08","06","17:00","17.0","","15.2","","89","","","","13","","13","","","","102.04","","","","","","NA"
"-131.60","53.03","CUMSHEWA ISLAND","1062251","2022-08-06 18:00","2022","08","06","18:00","17.1","","15.3","","89","","","","16","","11","","","","102.03","","","","","","NA"
"-131.60","53.03","CUMSHEWA ISLAND","1062251","2022-08-06 19:00","2022","08","06","19:00","21.3","","14.3","","64","","","","28","","23","","","","101.99","","25","","","","NA"
"-131.60","53.03","CUMSHEWA ISLAND","1062251","2022-08-06 20:00","2022","08","06","20:00","20.6","","14.3","","67","","","","28","","21","","","","102.01","","","","","","NA"
"-131.60","53.03","CUMSHEWA ISLAND","1062251","2022-08-06 21:00","2022","08","06","21:00","19.8","","14.6","","72","","","","28","","19","","","","102.06","","","","","","NA"
"-131.60","53.03","CUMSHEWA ISLAND","1062251","2022-08-06 22:00","2022","08","06","22:00","18.8","","14.7","","77","","","","26","","14","","","","102.06","","","","","","NA"
"-131.60","53.03","CUMSHEWA ISLAND","1062251","2022-08-06 23:00","2022","08","06","23:00","18.1","","14.8","","81","","","","26","","10","","","","102.04","","","","","","NA"
"-131.60","53.03","CUMSHEWA ISLAND","1062251","2022-08-07 00:00","2022","08","07","00:00","17.7","","15.1","","85","","","","24","","6","","","","102.03","","","","","","NA"
"-131.60","53.03","CUMSHEWA ISLAND","1062251","2022-08-07 01:00","2022","08","07","01:00","18.9","","15.3","","80","","","","28","","14","","","","101.98","","","","","","NA"
"-131.60","53.03","CUMSHEWA ISLAND","1062251","2022-08-07 02:00","2022","08","07","02:00","18.4","","15.1","","81","","","","30","","12","","","","101.97","","","","","","NA"
"-131.60","53.03","CUMSHEWA ISLAND","1062251","2022-08-07 03:00","2022","08","07","03:00","17.7","","14.8","","84","","","","12","","4","","","","101.97","","","","","","NA"
"-131.60","53.03","CUMSHEWA ISLAND","1062251","2022-08-07 04:00","2022","08","07","04:00","17.3","","14.9","","86","","","","25","","3","","","","101.97","","","","","","NA"
"-131.60","53.03","CUMSHEWA ISLAND","1062251","2022-08-07 05:00","2022","08","07","05:00","17.2","","14.7","","86","","","","14","","7","","","","101.95","","","","","","NA"
"-131.60","53.03","CUMSHEWA ISLAND","1062251","2022-08-07 06:00","2022","08","07","06:00","17.1","","14.3","","83","","","","31","","5","","","","101.97","","","","","","NA"
"-131.60","53.03","CUMSHEWA ISLAND","1062251","2022-08-07 07:00","2022","08","07","07:00","17.8","","14.0","","79","","","","29","","14","","","","101.97","","","","","","NA"
"-131.60","53.03","CUMSHEWA ISLAND","1062251","2022-08-07 08:00","2022","08","07","08:00","17.7","","14.1","","80","","","","27","","14","","","","102.00","","","","","","NA"
"-131.60","53.03","CUMSHEWA ISLAND","1062251","2022-08-07 09:00","2022","08","07","09:00","17.8","","13.9","","78","","","","3","","8","","","","102.02","","","","","","NA"
"-131.60","53.03","CUMSHEWA ISLAND","1062251","2022-08-07 10:00","2022","08","07","10:00","16.9","","14.5","","86","","","","6","","16","","","","102.05","","","","","","NA"
"-131.60","53.03","CUMSHEWA ISLAND","1062251","2022-08-07 11:00","2022","08","07","11:00","17.2","","14.6","","85","","","","36","","13","","","","102.09","","","","","","NA"
"-131.60","53.03","CUMSHEWA ISLAND","1062251","2022-08-07 12:00","2022","08","07","12:00","17.2","","14.8","","86","","","","1","","11","","","","102.11","","","","","","NA"
"-131.60","53.03","CUMSHEWA ISLAND","1062251","2022-08-07 13:00","2022","08","07","13:00","15.9","","14.4","","91","","","","4","","29","","","","102.14","","","","","","NA"
"-131.60","53.03","CUMSHEWA ISLAND","1062251","2022-08-07 14:00","2022","08","07","14:00","15.5","","13.8","","90","","","","3","","25","","","","102.20","","","","","","NA"
"-131.60","53.03","CUMSHEWA ISLAND","1062251","2022-08-07 15:00","2022","08","07","15:00","15.4","","12.8","","85","","","","2","","21","","","","102.20","","","","","","NA"
"-131.60","53.03","CUMSHEWA ISLAND","1062251","2022-08-07 16:00","2022","08","07","16:00","15.6","","12.5","","82","","","","1","","19","","","","102.20","","","","","","NA"
"-131.60","53.03","CUMSHEWA ISLAND","1062251","2022-08-07 17:00","2022","08","07","17:00","15.6","","12.6","","83","","","","2","","18","","","","102.18","","","","","","NA"
"-131.60","53.03","CUMSHEWA ISLAND","1062251","2022-08-07 18:00","2022","08","07","18:00","15.5","","12.3","","81","","","","3","","20","","","","102.19","","","","","","NA"
"-131.60","53.03","CUMSHEWA ISLAND","1062251","2022-08-07 19:00","2022","08","07","19:00","15.6","","12.0","","79","","","","36","","17","","","","102.17","","","","","","NA"
"-131.60","53.03","CUMSHEWA ISLAND","1062251","2022-08-07 20:00","2022","08","07","20:00","15.8","","12.1","","79","","","","1","","15","","","","102.18","","","","","","NA"
"-131.60","53.03","CUMSHEWA ISLAND","1062251","2022-08-07 21:00","2022","08","07","21:00","16.0","","12.7","","80","","","","1","","8","","","","102.19","","","","","","NA"
"-131.60","53.03","CUMSHEWA ISLAND","1062251","2022-08-07 22:00","2022","08","07","22:00","15.6","","12.1","","80","","","","29","","9","","","","102.21","","","","","","NA"
"-131.60","53.03","CUMSHEWA ISLAND","1062251","2022-08-07 23:00","2022","08","07","23:00","15.7","","10.4","","71","","","","34","","29","","","","102.20","","","","","","NA"
"-131.60","53.03","CUMSHEWA ISLAND","1062251","2022-08-08 00:00","2022","08","08","00:00","15.3","","10.7","","74","","","","34","","30","","","","102.21","","","","","","NA"
"-131.60","53.03","CUMSHEWA ISLAND","1062251","2022-08-08 01:00","2022","08","08","01:00","15.0","","9.5","","70","","","","32","","19","","","","102.20","","","","","","NA"
"-131.60","53.03","CUMSHEWA ISLAND","1062251","2022-08-08 02:00","2022","08","08","02:00","15.0","","9.3","","69","","","","32","","20","","","","102.18","","","","","","NA"
"-131.60","53.03","CUMSHEWA ISLAND","1062251","2022-08-08 03:00","2022","08","08","03:00","14.7","","9.6","","72","","","","31","","13","","","","102.19","","","","","","NA"
"-131.60","53.03","CUMSHEWA ISLAND","1062251","2022-08-08 04:00","2022","08","08","04:00","14.6","","9.5","","72","","","","32","","20","","","","102.18","","","","","","NA"
"-131.60","53.03","CUMSHEWA ISLAND","1062251","2022-08-08 05:00","2022","08","08","05:00","14.1","","8.7","","70","","","","30","","14","","","","102.17","","","","","","NA"
"-131.60","53.03","CUMSHEWA ISLAND","1062251","2022-08-08 06:00","2022","08","08","06:00","14.0","","8.1","","67","","","","31","","19","","","","102.17","","","","","","NA"
"-131.60","53.03","CUMSHEWA ISLAND","1062251","2022-08-08 07:00","2022","08","08","07:00","14.6","","7.7","","63","","","","32","","17","","","","102.20","","","","","","NA"
"-131.60","53.03","CUMSHEWA ISLAND","1062251","2022-08-08 08:00","2022","08","08","08:00","15.2","","7.5","","60","","","","33","","26","","","","102.17","","","","","","NA"
"-131.60","53.03","CUMSHEWA ISLAND","1062251","2022-08-08 09:00","2022","08","08","09:00","15.5","","6.9","","57","","","","33","","33","","","","102.14","","","","","","NA"
"-131.60","53.03","CUMSHEWA ISLAND","1062251","2022-08-08 10:00","2022","08","08","10:00","15.4","","9.4","","67","","","","34","","32","","","","102.12","","","","","","NA"
"-131.60","53.03","CUMSHEWA ISLAND","1062251","2022-08-08 11:00","2022","08","08","11:00","15.6","","10.2","","70","","","","35","","40","","","","102.11","","","","","","NA"
"-131.60","53.03","CUMSHEWA ISLAND","1062251","2022-08-08 12:00","2022","08","08","12:00","15.9","","9.9","","67","","","","35","","35","","","","102.09","","","","","","NA"
"-131.60","53.03","CUMSHEWA ISLAND","1062251","2022-08-08 13:00","2022","08","08","13:00","16.3","","10.8","","70","","","","35","","33","","","","102.07","","","","","","NA"
"-131.60","53.03","CUMSHEWA ISLAND","1062251","2022-08-08 14:00","2022","08","08","14:00","16.2","","11.7","","75","","","","36","","30","","","","102.06","","","","","","NA"
"-131.60","53.03","CUMSHEWA ISLAND","1062251","2022-08-08 15:00","2022","08","08","15:00","16.7","","12.5","","76","","","","35","","21","","","","102.04","","","","","","NA"
"-131.60","53.03","CUMSHEWA ISLAND","1062251","2022-08-08 16:00","2022","08","08","16:00","17.0","","11.6","","71","","","","35","","26","","","","101.97","","","","","","NA"
"-131.60","53.03","CUMSHEWA ISLAND","1062251","2022-08-08 17:00","2022","08","08","17:00","17.1","","11.8","","71","","","","35","","30","","","","101.92","","","","","","NA"
"-131.60","53.03","CUMSHEWA ISLAND","1062251","2022-08-08 18:00","2022","08","08","18:00","17.3","","12.1","","71","","","","34","","25","","","","101.89","","","","","","NA"
"-131.60","53.03","CUMSHEWA ISLAND","1062251","2022-08-08 19:00","2022","08","08","19:00","17.6","","12.6","","73","","","","34","","21","","","","101.86","","","","","","NA"
"-131.60","53.03","CUMSHEWA ISLAND","1062251","2022-08-08 20:00","2022","08","08","20:00","17.3","","12.7","","74","","","","35","","33","","","","101.82","","","","","","NA"
"-131.60","53.03","CUMSHEWA ISLAND","1062251","2022-08-08 21:00","2022","08","08","21:00","17.0","","9.6","","61","","","","34","","31","","","","101.86","","","","","","NA"
"-131.60","53.03","CUMSHEWA ISLAND","1062251","2022-08-08 22:00","2022","08","08","22:00","16.4","","8.2","","59","","","","31","","16","","","","101.85","","","","","","NA"
"-131.60","53.03","CUMSHEWA ISLAND","1062251","2022-08-08 23:00","2022","08","08","23:00","16.2","","6.7","","53","","","","32","","14","","","","101.84","","","","","","NA"
"-131.60","53.03","CUMSHEWA ISLAND","1062251","2022-08-09 00:00","2022","08","09","00:00","16.1","","6.3","","52","","","","32","","18","","","","101.82","","","","","","NA"
"-131.60","53.03","CUMSHEWA ISLAND","1062251","2022-08-09 01:00","2022","08","09","01:00","15.9","","5.8","","51","","","","32","","16","","","","101.79","","","","","","NA"
"-131.60","53.03","CUMSHEWA ISLAND","1062251","2022-08-09 02:00","2022","08","09","02:00","16.0","","6.2","","52","","","","32","","20","","","","101.77","","","","","","NA"
"-131.60","53.03","CUMSHEWA ISLAND","1062251","2022-08-09 03:00","2022","08","09","03:00","15.7","","7.3","","57","","","","32","","16","","","","101.76","","","","","","NA"
"-131.60","53.03","CUMSHEWA ISLAND","1062251","2022-08-09 04:00","2022","08","09","04:00","15.6","","7.9","","60","","","","32","","19","","","","101.76","","","","","","NA"
"-131.60","53.03","CUMSHEWA ISLAND","1062251","2022-08-09 05:00","2022","08","09","05:00","15.7","","8.3","","61","","","","32","","17","","","","101.76","","","","","","NA"
"-131.60","53.03","CUMSHEWA ISLAND","1062251","2022-08-09 06:00","2022","08","09","06:00","16.1","","8.3","","60","","","","32","","17","","","","101.75","","","","","","NA"
"-131.60","53.03","CUMSHEWA ISLAND","1062251","2022-08-09 07:00","2022","08","09","07:00","15.5","","10.9","","74","","","","34","","25","","","","101.77","","","","","","NA"
"-131.60","53.03","CUMSHEWA ISLAND","1062251","2022-08-09 08:00","2022","08","09","08:00","15.7","","11.4","","76","","","","35","","24","","","","101.79","","","","","","NA"
"-131.60","53.03","CUMSHEWA ISLAND","1062251","2022-08-09 09:00","2022","08","09","09:00","16.1","","11.6","","75","","","","35","","25","","","","101.78","","","","","","NA"
"-131.60","53.03","CUMSHEWA ISLAND","1062251","2022-08-09 10:00","2022","08","09","10:00","16.8","","11.1","","69","","","","35","","32","","","","101.76","","","","","","NA"
"-131.60","53.03","CUMSHEWA ISLAND","1062251","2022-08-09 11:00","2022","08","09","11:00","16.6","","12.0","","74","","","","35","","35","","","","101.73","","","","","","NA"
"-131.60","53.03","CUMSHEWA ISLAND","1062251","2022-08-09 12:00","2022","08","09","12:00","17.1","","12.7","","76","","","","35","","30","","","","101.73","","","","","","NA"
"-131.60","53.03","CUMSHEWA ISLAND","1062251","2022-08-09 13:00","2022","08","09","13:00","17.0","","13.2","","79","","","","36","","27","","","","101.73","","","","","","NA"
"-131.60","53.03","CUMSHEWA ISLAND","1062251","2022-08-09 14:00","2022","08","09","14:00","17.2","","12.9","","75","","","","35","","23","","","","101.72","","","","","","NA"
"-131.60","53.03","CUMSHEWA ISLAND","1062251","2022-08-09 15:00","2022","08","09","15:00","17.3","","12.6","","74","","","","35","","21","","","","101.70","","","","","","NA"
"-131.60","53.03","CUMSHEWA ISLAND","1062251","2022-08-09 16:00","2022","08","09","16:00","17.4","","12.6","","73","","","","36","","27","","","","101.68","","","","","","NA"
"-131.60","53.03","CUMSHEWA ISLAND","1062251","2022-08-09 17:00","2022","08","09","17:00","17.6","","13.0","","74","","","","1","","24","","","","101.66","","","","","","NA"
"-131.60","53.03","CUMSHEWA ISLAND","1062251","2022-08-09 18:00","2022","08","09","18:00","17.7","","12.7","","72","","","","35","","26","","","","101.63","","","","","","NA"
"-131.60","53.03","CUMSHEWA ISLAND","1062251","2022-08-09 19:00","2022","08","09","19:00","18.7","","12.2","","66","","","","35","","29","","","","101.60","","","","","","NA"
"-131.60","53.03","CUMSHEWA ISLAND","1062251","2022-08-09 20:00","2022","08","09","20:00","18.0","","12.3","","69","","","","34","","26","","","","101.58","","","","","","NA"
"-131.60","53.03","CUMSHEWA ISLAND","1062251","2022-08-09 21:00","2022","08","09","21:00","17.1","","11.6","","70","","","","34","","34","","","","101.59","","","","","","NA"
"-131.60","53.03","CUMSHEWA ISLAND","1062251","2022-08-09 22:00","2022","08","09","22:00","16.0","","11.8","","76","","","","34","","30","","","","101.63","","","","","","NA"
"-131.60","53.03","CUMSHEWA ISLAND","1062251","2022-08-09 23:00","2022","08","09","23:00","15.3","","11.0","","75","","","","34","","27","","","","101.64","","","","","","NA"
"-131.60","53.03","CUMSHEWA ISLAND","1062251","2022-08-10 00:00","2022","08","10","00:00","15.0","","10.8","","76","","","","34","","20","","","","101.64","","","","","","NA"
"-131.60","53.03","CUMSHEWA ISLAND","1062251","2022-08-10 01:00","2022","08","10","01:00","14.8","","11.2","","79","","","","34","","25","","","","101.63","","","","","","NA"
"-131.60","53.03","CUMSHEWA ISLAND","1062251","2022-08-10 02:00","2022","08","10","02:00","14.7","","11.4","","80","","","","34","","27","","","","101.60","","","","","","NA"
"-131.60","53.03","CUMSHEWA ISLAND","1062251","2022-08-10 03:00","2022","08","10","03:00","14.9","","10.3","","74","","","","35","","25","","","","101.61","","","","","","NA"
"-131.60","53.03","CUMSHEWA ISLAND","1062251","2022-08-10 04:00","2022","08","10","04:00","15.5","","9.9","","69","","","","34","","19","","","","101.60","","","","","","NA"
"-131.60","53.03","CUMSHEWA ISLAND","1062251","2022-08-10 05:00","2022","08","10","05:00","15.3","","10.3","","72","","","","34","","23","","","","101.59","","","","","","NA"
"-131.60","53.03","CUMSHEWA ISLAND","1062251","2022-08-10 06:00","2022","08","10","06:00"
"-131.60","53.03","CUMSHEWA ISLAND","1062251","2022-08-10 07:00","2022","08","10","07:00"
"-131.60","53.03","CUMSHEWA ISLAND","1062251","2022-08-10 08:00","2022","08","10","08:00","17.1","","9.8","","62","","","","34","","22","","","","101.62","","","","","","NA"
"-131.60","53.03","CUMSHEWA ISLAND","1062251","2022-08-10 09:00","2022","08","10","09:00","17.2","","10.9","","67","","","","35","","29","","","","101.59","","","","","","NA"
"-131.60","53.03","CUMSHEWA ISLAND","1062251","2022-08-10 10:00","2022","08","10","10:00","17.9","","11.4","","66","","","","35","","31","","","","101.56","","","","","","NA"
"-131.60","53.03","CUMSHEWA ISLAND","1062251","2022-08-10 11:00","2022","08","10","11:00","17.3","","12.9","","75","","","","36","","30","","","","101.57","","","","","","NA"
"-131.60","53.03","CUMSHEWA ISLAND","1062251","2022-08-10 12:00","2022","08","10","12:00","18.0","","13.0","","73","","","","35","","36","","","","101.56","","","","","","NA"
"-131.60","53.03","CUMSHEWA ISLAND","1062251","2022-08-10 13:00","2022","08","10","13:00","17.5","","13.9","","80","","","","36","","28","","","","101.56","","","","","","NA"
"-131.60","53.03","CUMSHEWA ISLAND","1062251","2022-08-10 14:00","2022","08","10","14:00","18.1","","13.9","","77","","","","36","","26","","","","101.56","","","","","","NA"
"-131.60","53.03","CUMSHEWA ISLAND","1062251","2022-08-10 15:00","2022","08","10","15:00","19.3","","14.5","","74","","","","35","","25","","","","101.54","","","","","","NA"
"-131.60","53.03","CUMSHEWA ISLAND","1062251","2022-08-10 16:00","2022","08","10","16:00","19.5","","14.8","","74","","","","35","","28","","","","101.49","","","","","","NA"
"-131.60","53.03","CUMSHEWA ISLAND","1062251","2022-08-10 17:00","2022","08","10","17:00","20.7","","14.6","","68","","","","35","","24","","","","101.51","","","","","","NA"
"-131.60","53.03","CUMSHEWA ISLAND","1062251","2022-08-10 18:00","2022","08","10","18:00","20.5","","14.4","","68","","","","36","","32","","","","101.52","","","","","","NA"
"-131.60","53.03","CUMSHEWA ISLAND","1062251","2022-08-10 19:00","2022","08","10","19:00","19.8","","14.5","","71","","","","35","","33","","","","101.52","","","","","","NA"
"-131.60","53.03","CUMSHEWA ISLAND","1062251","2022-08-10 20:00","2022","08","10","20:00","19.0","","14.5","","75","","","","35","","28","","","","101.54","","","","","","NA"
"-131.60","53.03","CUMSHEWA ISLAND","1062251","2022-08-10 21:00","2022","08","10","21:00","19.2","","13.7","","70","","","","34","","25","","","","101.58","","","","","","NA"
"-131.60","53.03","CUMSHEWA ISLAND","1062251","2022-08-10 22:00","2022","08","10","22:00","18.2","","14.0","","77","","","","35","","21","","","","101.63","","","","","","NA"
"-131.60","53.03","CUMSHEWA ISLAND","1062251","2022-08-10 23:00","2022","08","10","23:00","17.1","","14.5","","85","","","","36","","23","","","","101.68","","","","","","NA"
"-131.60","53.03","CUMSHEWA ISLAND","1062251","2022-08-11 00:00","2022","08","11","00:00","16.8","","14.1","","84","","","","35","","26","","","","101.71","","","","","","NA"
"-131.60","53.03","CUMSHEWA ISLAND","1062251","2022-08-11 01:00","2022","08","11","01:00","16.5","","13.7","","84","","","","35","","15","","","","101.75","","","","","","NA"
"-131.60","53.03","CUMSHEWA ISLAND","1062251","2022-08-11 02:00","2022","08","11","02:00","16.3","","13.6","","84","","","","34","","13","","","","101.79","","","","","","NA"
"-131.60","53.03","CUMSHEWA ISLAND","1062251","2022-08-11 03:00","2022","08","11","03:00","16.1","","14.0","","87","","","","2","","21","","","","101.81","","","","","","NA"
"-131.60","53.03","CUMSHEWA ISLAND","1062251","2022-08-11 04:00","2022","08","11","04:00","15.4","","13.3","","87","","","","3","","20","","","","101.82","","","","","","NA"
"-131.60","53.03","CUMSHEWA ISLAND","1062251","2022-08-11 05:00","2022","08","11","05:00","14.9","","13.2","","89","","","","2","","9","","","","101.82","","","","","","NA"
"-131.60","53.03","CUMSHEWA ISLAND","1062251","2022-08-11 06:00","2022","08","11","06:00","14.9","","13.0","","88","","","","4","","10","","","","101.83","","","","","","NA"
"-131.60","53.03","CUMSHEWA ISLAND","1062251","2022-08-11 07:00","2022","08","11","07:00","14.7","","13.0","","89","","","","6","","12","","","","101.86","","","","","","NA"
"-131.60","53.03","CUMSHEWA ISLAND","1062251","2022-08-11 08:00","2022","08","11","08:00","14.6","","12.8","","89","","","","6","","12","","","","101.87","","","","","","NA"
"-131.60","53.03","CUMSHEWA ISLAND","1062251","2022-08-11 09:00","2022","08","11","09:00","14.7","","13.0","","89","","","","3","","9","","","","101.88","","","","","","NA"
"-131.60","53.03","CUMSHEWA ISLAND","1062251","2022-08-11 10:00","2022","08","11","10:00","15.2","","13.0","","87","","","","5","","1","","","","101.89","","","","","","NA"
"-131.60","53.03","CUMSHEWA ISLAND","1062251","2022-08-11 11:00","2022","08","11","11:00","16.0","","13.3","","84","","","","13","","3","","","","101.90","","","","","","NA"
"-131.60","53.03","CUMSHEWA ISLAND","1062251","2022-08-11 12:00","2022","08","11","12:00","16.2","","12.9","","81","","","","8","","7","","","","101.91","","","","","","NA"
"-131.60","53.03","CUMSHEWA ISLAND","1062251","2022-08-11 13:00","2022","08","11","13:00","16.1","","13.0","","82","","","","7","","11","","","","101.90","","","","","","NA"
"-131.60","53.03","CUMSHEWA ISLAND","1062251","2022-08-11 14:00","2022","08","11","14:00","16.0","","13.7","","86","","","","8","","9","","","","101.87","","","","","","NA"
"-131.60","53.03","CUMSHEWA ISLAND","1062251","2022-08-11 15:00","2022","08","11","15:00","16.2","","13.6","","85","","","","7","","10","","","","101.86","","","","","","NA"
"-131.60","53.03","CUMSHEWA ISLAND","1062251","2022-08-11 16:00","2022","08","11","16:00","16.3","","14.1","","86","","","","36","","3","","","","101.82","","","","","","NA"
"-131.60","53.03","CUMSHEWA ISLAND","1062251","2022-08-11 17:00","2022","08","11","17:00","17.1","","14.2","","83","","","","8","","5","","","","101.78","","","","","","NA"
"-131.60","53.03","CUMSHEWA ISLAND","1062251","2022-08-11 18:00","2022","08","11","18:00","16.5","","14.2","","86","","","","2","","5","","","","101.74","","","","","","NA"
"-131.60","53.03","CUMSHEWA ISLAND","1062251","2022-08-11 19:00","2022","08","11","19:00","15.7","","13.9","","89","","","","5","","12","","","","101.72","","","","","","NA"
"-131.60","53.03","CUMSHEWA ISLAND","1062251","2022-08-11 20:00","2022","08","11","20:00","15.4","","13.7","","90","","","","6","","8","","","","101.73","","","","","","NA"
"-131.60","53.03","CUMSHEWA ISLAND","1062251","2022-08-11 21:00","2022","08","11","21:00","15.0","","13.6","","91","","","","6","","8","","","","101.73","","","","","","NA"
"-131.60","53.03","CUMSHEWA ISLAND","1062251","2022-08-11 22:00","2022","08","11","22:00","15.1","","13.6","","91","","","","7","","4","","","","101.71","","","","","","NA"
"-131.60","53.03","CUMSHEWA ISLAND","1062251","2022-08-11 23:00","2022","08","11","23:00","14.9","","13.6","","92","","","","3","","3","","","","101.67","","","","","","NA"
"-131.60","53.03","CUMSHEWA ISLAND","1062251","2022-08-12 00:00","2022","08","12","00:00","14.6","","13.5","","93","","","","3","","5","","","","101.65","","","","","","NA"
"-131.60","53.03","CUMSHEWA ISLAND","1062251","2022-08-12 01:00","2022","08","12","01:00","15.1","","14.0","","93","","","","16","","2","","","","101.64","","","","","","NA"
"-131.60","53.03","CUMSHEWA ISLAND","1062251","2022-08-12 02:00","2022","08","12","02:00","14.8","","13.8","","94","","","","32","","6","","","","101.61","","","","","","NA"
"-131.60","53.03","CUMSHEWA ISLAND","1062251","2022-08-12 03:00","2022","08","12","03:00","14.7","","13.7","","94","","","","13","","1","","","","101.59","","","","","","NA"
"-131.60","53.03","CUMSHEWA ISLAND","1062251","2022-08-12 04:00","2022","08","12","04:00","14.7","","13.8","","94","","","","17","","2","","","","101.56","","","","","","NA"
"-131.60","53.03","CUMSHEWA ISLAND","1062251","2022-08-12 05:00","2022","08","12","05:00","14.6","","13.6","","94","","","","0","","1","","","","101.54","","","","","","NA"
"-131.60","53.03","CUMSHEWA ISLAND","1062251","2022-08-12 06:00","2022","08","12","06:00","14.5","","13.6","","95","","","","14","","6","","","","101.54","","","","","","NA"
"-131.60","53.03","CUMSHEWA ISLAND","1062251","2022-08-12 07:00","2022","08","12","07:00","14.5","","13.7","","95","","","","14","","7","","","","101.54","","","","","","NA"
"-131.60","53.03","CUMSHEWA ISLAND","1062251","2022-08-12 08:00","2022","08","12","08:00","14.6","","13.8","","95","","","","16","","7","","","","101.52","","","","","","NA"
"-131.60","53.03","CUMSHEWA ISLAND","1062251","2022-08-12 09:00","2022","08","12","09:00","14.5","","13.8","","95","","","","15","","11","","","","101.50","","","","","","NA"
"-131.60","53.03","CUMSHEWA ISLAND","1062251","2022-08-12 10:00","2022","08","12","10:00","14.4","","13.8","","96","","","","14","","14","","","","101.46","","","","","","NA"
"-131.60","53.03","CUMSHEWA ISLAND","1062251","2022-08-12 11:00","2022","08","12","11:00","14.9","","14.0","","94","","","","15","","12","","","","101.46","","","","","","NA"
"-131.60","53.03","CUMSHEWA ISLAND","1062251","2022-08-12 12:00","2022","08","12","12:00","15.3","","13.8","","91","","","","14","","14","","","","101.44","","","","","","NA"
"-131.60","53.03","CUMSHEWA ISLAND","1062251","2022-08-12 13:00","2022","08","12","13:00","15.3","","14.0","","92","","","","14","","18","","","","101.43","","","","","","NA"
"-131.60","53.03","CUMSHEWA ISLAND","1062251","2022-08-12 14:00","2022","08","12","14:00","15.4","","14.1","","92","","","","15","","23","","","","101.42","","","","","","NA"
"-131.60","53.03","CUMSHEWA ISLAND","1062251","2022-08-12 15:00","2022","08","12","15:00","15.7","","14.3","","91","","","","15","","23","","","","101.37","","","","","","NA"
"-131.60","53.03","CUMSHEWA ISLAND","1062251","2022-08-12 16:00","2022","08","12","16:00","16.0","","14.8","","92","","","","15","","18","","","","101.34","","","","","","NA"
"-131.60","53.03","CUMSHEWA ISLAND","1062251","2022-08-12 17:00","2022","08","12","17:00","15.9","","14.6","","92","","","","14","","17","","","","101.30","","","","","","NA"
"-131.60","53.03","CUMSHEWA ISLAND","1062251","2022-08-12 18:00","2022","08","12","18:00","16.2","","14.7","","91","","","","14","","18","","","","101.26","","","","","","NA"
"-131.60","53.03","CUMSHEWA ISLAND","1062251","2022-08-12 19:00","2022","08","12","19:00","16.7","","14.8","","89","","","","14","","6","","","","101.24","","","","","","NA"
"-131.60","53.03","CUMSHEWA ISLAND","1062251","2022-08-12 20:00","2022","08","12","20:00","16.5","","14.7","","89","","","","16","","1","","","","101.21","","","","","","NA"
"-131.60","53.03","CUMSHEWA ISLAND","1062251","2022-08-12 21:00","2022","08","12","21:00","15.9","","14.4","","91","","","","34","","8","","","","101.27","","","","","","NA"
"-131.60","53.03","CUMSHEWA ISLAND","1062251","2022-08-12 22:00","2022","08","12","22:00","15.8","","14.2","","91","","","","25","","3","","","","101.26","","","","","","NA"
"-131.60","53.03","CUMSHEWA ISLAND","1062251","2022-08-12 23:00","2022","08","12","23:00","15.4","","14.2","","93","","","","16","","8","","","","101.26","","","","","","NA"
"-131.60","53.03","CUMSHEWA ISLAND","1062251","2022-08-13 00:00","2022","08","13","00:00","15.6","","14.4","","93","","","","11","","9","","","","101.28","","","","","","NA"
"-131.60","53.03","CUMSHEWA ISLAND","1062251","2022-08-13 01:00","2022","08","13","01:00","15.1","","13.6","","91","","","","20","","7","","","","101.28","","","","","","NA"
"-131.60","53.03","CUMSHEWA ISLAND","1062251","2022-08-13 02:00","2022","08","13","02:00","15.0","","13.7","","92","","","","19","","7","","","","101.28","","","","","","NA"
"-131.60","53.03","CUMSHEWA ISLAND","1062251","2022-08-13 03:00","2022","08","13","03:00","15.1","","13.5","","90","","","","20","","4","","","","101.30","","","","","","NA"
"-131.60","53.03","CUMSHEWA ISLAND","1062251","2022-08-13 04:00","2022","08","13","04:00","14.9","","13.5","","91","","","","23","","3","","","","101.31","","","","","","NA"
"-131.60","53.03","CUMSHEWA ISLAND","1062251","2022-08-13 05:00","2022","08","13","05:00","15.3","","13.0","","86","","","","17","","17","","","","101.34","","","","","","NA"
"-131.60","53.03","CUMSHEWA ISLAND","1062251","2022-08-13 06:00","2022","08","13","06:00","15.3","","12.9","","86","","","","18","","20","","","","101.36","","","","","","NA"
"-131.60","53.03","CUMSHEWA ISLAND","1062251","2022-08-13 07:00","2022","08","13","07:00","15.7","","13.7","","88","","","","15","","26","","","","101.38","","","","","","NA"
"-131.60","53.03","CUMSHEWA ISLAND","1062251","2022-08-13 08:00","2022","08","13","08:00","15.7","","13.8","","89","","","","16","","25","","","","101.39","","","","","","NA"
"-131.60","53.03","CUMSHEWA ISLAND","1062251","2022-08-13 09:00","2022","08","13","09:00","15.6","","14.1","","91","","","","14","","27","","","","101.41","","","","","","NA"
"-131.60","53.03","CUMSHEWA ISLAND","1062251","2022-08-13 10:00","2022","08","13","10:00","15.6","","14.2","","92","","","","15","","28","","","","101.44","","","","","","NA"
"-131.60","53.03","CUMSHEWA ISLAND","1062251","2022-08-13 11:00","2022","08","13","11:00","15.7","","14.0","","90","","","","15","","32","","","","101.45","","","","","","NA"
"-131.60","53.03","CUMSHEWA ISLAND","1062251","2022-08-13 12:00","2022","08","13","12:00","15.6","","14.4","","93","","","","15","","34","","","","101.49","","","","","","NA"
"-131.60","53.03","CUMSHEWA ISLAND","1062251","2022-08-13 13:00","2022","08","13","13:00","15.5","","14.5","","94","","","","15","","35","","","","101.50","","","","","","NA"
"-131.60","53.03","CUMSHEWA ISLAND","1062251","2022-08-13 14:00","2022","08","13","14:00","15.3","","14.4","","95","","","","15","","36","","","","101.55","","","","","","NA"
"-131.60","53.03","CUMSHEWA ISLAND","1062251","2022-08-13 15:00","2022","08","13","15:00","15.4","","14.6","","95","","","","15","","31","","","","101.54","","","","","","NA"
"-131.60","53.03","CUMSHEWA ISLAND","1062251","2022-08-13 16:00","2022","08","13","16:00","15.5","","14.7","","95","","","","15","","28","","","","101.54","","","","","","NA"
"-131.60","53.03","CUMSHEWA ISLAND","1062251","2022-08-13 17:00","2022","08","13","17:00","15.6","","14.7","","95","","","","15","","30","","","","101.52","","","","","","NA"
"-131.60","53.03","CUMSHEWA ISLAND","1062251","2022-08-13 18:00","2022","08","13","18:00","15.6","","14.8","","95","","","","15","","31","","","","101.49","","","","","","NA"
"-131.60","53.03","CUMSHEWA ISLAND","1062251","2022-08-13 19:00","2022","08","13","19:00","15.6","","14.8","","95","","","","15","","37","","","","101.45","","","","","","NA"
"-131.60","53.03","CUMSHEWA ISLAND","1062251","2022-08-13 20:00","2022","08","13","20:00","15.5","","14.7","","95","","","","15","","37","","","","101.44","","","","","","NA"
"-131.60","53.03","CUMSHEWA ISLAND","1062251","2022-08-13 21:00","2022","08","13","21:00","15.4","","14.6","","95","","","","15","","39","","","","101.43","","","","","","NA"
"-131.60","53.03","CUMSHEWA ISLAND","1062251","2022-08-13 22:00","2022","08","13","22:00","15.1","","13.8","","92","","","","15","","38","","","","101.41","","","","","","NA"
"-131.60","53.03","CUMSHEWA ISLAND","1062251","2022-08-13 23:00","2022","08","13","23:00","14.7","","13.5","","92","","","","15","","46","","","","101.38","","","","","","NA"
"-131.60","53.03","CUMSHEWA ISLAND","1062251","2022-08-14 00:00","2022","08","14","00:00","14.6","","13.7","","95","","","","15","","38","","","","101.34","","","","","","NA"
"-131.60","53.03","CUMSHEWA ISLAND","1062251","2022-08-14 01:00","2022","08","14","01:00","14.5","","13.9","","96","","","","15","","43","","","","101.29","","","","","","NA"
"-131.60","53.03","CUMSHEWA ISLAND","1062251","2022-08-14 02:00","2022","08","14","02:00","14.3","","13.9","","97","","","","14","","38","","","","101.22","","","","","","NA"
"-131.60","53.03","CUMSHEWA ISLAND","1062251","2022-08-14 03:00","2022","08","14","03:00","14.7","","14.3","","97","","","","15","","38","","","","101.17","","","","","","NA"
"-131.60","53.03","CUMSHEWA ISLAND","1062251","2022-08-14 04:00","2022","08","14","04:00","14.8","","14.4","","97","","","","15","","36","","","","101.13","","","","","","NA"
"-131.60","53.03","CUMSHEWA ISLAND","1062251","2022-08-14 05:00","2022","08","14","05:00","14.8","","14.4","","98","","","","15","","27","","","","101.10","","","","","","NA"
"-131.60","53.03","CUMSHEWA ISLAND","1062251","2022-08-14 06:00","2022","08","14","06:00","14.8","","14.5","","98","","","","17","","18","","","","101.11","","","","","","NA"
"-131.60","53.03","CUMSHEWA ISLAND","1062251","2022-08-14 07:00","2022","08","14","07:00","15.1","","14.8","","98","","","","17","","16","","","","101.15","","","","","","NA"
"-131.60","53.03","CUMSHEWA ISLAND","1062251","2022-08-14 08:00","2022","08","14","08:00","15.6","","15.2","","97","","","","16","","21","","","","101.18","","","","","","NA"
"-131.60","53.03","CUMSHEWA ISLAND","1062251","2022-08-14 09:00","2022","08","14","09:00","15.6","","14.9","","96","","","","14","","28","","","","101.19","","","","","","NA"
"-131.60","53.03","CUMSHEWA ISLAND","1062251","2022-08-14 10:00","2022","08","14","10:00","15.6","","14.7","","95","","","","14","","24","","","","101.21","","","","","","NA"
"-131.60","53.03","CUMSHEWA ISLAND","1062251","2022-08-14 11:00","2022","08","14","11:00","16.2","","14.8","","92","","","","15","","22","","","","101.22","","","","","","NA"
"-131.60","53.03","CUMSHEWA ISLAND","1062251","2022-08-14 12:00","2022","08","14","12:00","16.1","","14.7","","92","","","","15","","21","","","","101.24","","","","","","NA"
"-131.60","53.03","CUMSHEWA ISLAND","1062251","2022-08-14 13:00","2022","08","14","13:00","16.7","","14.0","","84","","","","17","","18","","","","101.32","","","","","","NA"
"-131.60","53.03","CUMSHEWA ISLAND","1062251","2022-08-14 14:00","2022","08","14","14:00","17.4","","14.0","","81","","","","17","","9","","","","101.36","","","","","","NA"
"-131.60","53.03","CUMSHEWA ISLAND","1062251","2022-08-14 15:00","2022","08","14","15:00","18.8","","13.5","","71","","","","26","","13","","","","101.36","","","","","","NA"
"-131.60","53.03","CUMSHEWA ISLAND","1062251","2022-08-14 16:00","2022","08","14","16:00","17.4","","13.7","","79","","","","35","","9","","","","101.38","","","","","","NA"
"-131.60","53.03","CUMSHEWA ISLAND","1062251","2022-08-14 17:00","2022","08","14","17:00","17.4","","12.7","","74","","","","30","","11","","","","101.41","","","","","","NA"
"-131.60","53.03","CUMSHEWA ISLAND","1062251","2022-08-14 18:00","2022","08","14","18:00","17.0","","11.4","","70","","","","29","","23","","","","101.41","","","","","","NA"
"-131.60","53.03","CUMSHEWA ISLAND","1062251","2022-08-14 19:00","2022","08","14","19:00","16.9","","10.8","","67","","","","29","","16","","","","101.45","","","","","","NA"
"-131.60","53.03","CUMSHEWA ISLAND","1062251","2022-08-14 20:00","2022","08","14","20:00","16.4","","11.8","","74","","","","22","","11","","","","101.49","","","","","","NA"
"-131.60","53.03","CUMSHEWA ISLAND","1062251","2022-08-14 21:00","2022","08","14","21:00","16.3","","12.0","","76","","","","24","","3","","","","101.52","","","","","","NA"
"-131.60","53.03","CUMSHEWA ISLAND","1062251","2022-08-14 22:00","2022","08","14","22:00","15.7","","12.9","","83","","","","9","","10","","","","101.55","","","","","","NA"
"-131.60","53.03","CUMSHEWA ISLAND","1062251","2022-08-14 23:00","2022","08","14","23:00","15.0","","13.6","","91","","","","8","","15","","","","101.53","","","","","","NA"
"-131.60","53.03","CUMSHEWA ISLAND","1062251","2022-08-15 00:00","2022","08","15","00:00","14.7","","13.4","","92","","","","9","","12","","","","101.52","","","","","","NA"
"-131.60","53.03","CUMSHEWA ISLAND","1062251","2022-08-15 01:00","2022","08","15","01:00","14.5","","13.5","","94","","","","13","","3","","","","101.52","","","","","","NA"
"-131.60","53.03","CUMSHEWA ISLAND","1062251","2022-08-15 02:00","2022","08","15","02:00","14.4","","13.5","","94","","","","15","","1","","","","101.49","","","","","","NA"
"-131.60","53.03","CUMSHEWA ISLAND","1062251","2022-08-15 03:00","2022","08","15","03:00","14.4","","13.5","","94","","","","0","","1","","","","101.46","","","","","","NA"
"-131.60","53.03","CUMSHEWA ISLAND","1062251","2022-08-15 04:00","2022","08","15","04:00","14.2","","12.9","","92","","","","28","","7","","","","101.45","","","","","","NA"
"-131.60","53.03","CUMSHEWA ISLAND","1062251","2022-08-15 05:00","2022","08","15","05:00","13.7","","12.1","","90","","","","26","","7","","","","101.41","","","","","","NA"
"-131.60","53.03","CUMSHEWA ISLAND","1062251","2022-08-15 06:00","2022","08","15","06:00","13.5","","12.0","","90","","","","26","","5","","","","101.39","","","","","","NA"
"-131.60","53.03","CUMSHEWA ISLAND","1062251","2022-08-15 07:00","2022","08","15","07:00","13.8","","12.1","","89","","","","28","","6","","","","101.40","","","","","","NA"
"-131.60","53.03","CUMSHEWA ISLAND","1062251","2022-08-15 08:00","2022","08","15","08:00","14.1","","12.2","","89","","","","26","","4","","","","101.42","","","","","","NA"
"-131.60","53.03","CUMSHEWA ISLAND","1062251","2022-08-15 09:00","2022","08","15","09:00","15.1","","12.8","","86","","","","20","","2","","","","101.43","","","","","","NA"
"-131.60","53.03","CUMSHEWA ISLAND","1062251","2022-08-15 10:00","2022","08","15","10:00","15.0","","12.7","","86","","","","17","","4","","","","101.42","","","","","","NA"
"-131.60","53.03","CUMSHEWA ISLAND","1062251","2022-08-15 11:00","2022","08","15","11:00","15.1","","12.9","","87","","","","14","","9","","","","101.41","","","","","","NA"
"-131.60","53.03","CUMSHEWA ISLAND","1062251","2022-08-15 12:00","2022","08","15","12:00","15.4","","13.4","","88","","","","13","","10","","","","101.37","","","","","","NA"
"-131.60","53.03","CUMSHEWA ISLAND","1062251","2022-08-15 13:00","2022","08","15","13:00","15.2","","13.2","","87","","","","13","","11","","","","101.37","","","","","","NA"
"-131.60","53.03","CUMSHEWA ISLAND","1062251","2022-08-15 14:00","2022","08","15","14:00","14.7","","13.2","","91","","","","13","","15","","","","101.38","","","","","","NA"
"-131.60","53.03","CUMSHEWA ISLAND","1062251","2022-08-15 15:00","2022","08","15","15:00","14.6","","13.5","","93","","","","13","","13","","","","101.37","","","","","","NA"
"-131.60","53.03","CUMSHEWA ISLAND","1062251","2022-08-15 16:00","2022","08","15","16:00","14.9","","13.5","","92","","","","14","","11","","","","101.36","","","","","","NA"
"-131.60","53.03","CUMSHEWA ISLAND","1062251","2022-08-15 17:00","2022","08","15","17:00","14.7","","13.4","","92","","","","15","","10","","","","101.32","","","","","","NA"
"-131.60","53.03","CUMSHEWA ISLAND","1062251","2022-08-15 18:00","2022","08","15","18:00","14.5","","13.7","","95","","","","14","","13","","","","101.29","","","","","","NA"
"-131.60","53.03","CUMSHEWA ISLAND","1062251","2022-08-15 19:00","2022","08","15","19:00","14.6","","13.8","","95","","","","16","","8","","","","101.28","","","","","","NA"
"-131.60","53.03","CUMSHEWA ISLAND","1062251","2022-08-15 20:00","2022","08","15","20:00","14.6","","14.0","","96","","","","15","","9","","","","101.28","","","","","","NA"
"-131.60","53.03","CUMSHEWA ISLAND","1062251","2022-08-15 21:00","2022","08","15","21:00","14.5","","14.0","","97","","","","13","","12","","","","101.30","","","","","","NA"
"-131.60","53.03","CUMSHEWA ISLAND","1062251","2022-08-15 22:00","2022","08","15","22:00","14.8","","14.4","","97","","","","13","","13","","","","101.26","","","","","","NA"
"-131.60","53.03","CUMSHEWA ISLAND","1062251","2022-08-15 23:00","2022","08","15","23:00","14.8","","14.4","","98","","","","14","","12","","","","101.28","","","","","","NA"
"-131.60","53.03","CUMSHEWA ISLAND","1062251","2022-08-16 00:00","2022","08","16","00:00","14.7","","14.4","","98","","","","17","","6","","","","101.27","","","","","","NA"
"-131.60","53.03","CUMSHEWA ISLAND","1062251","2022-08-16 01:00","2022","08","16","01:00","14.7","","14.4","","98","","","","16","","15","","","","101.27","","","","","","NA"
"-131.60","53.03","CUMSHEWA ISLAND","1062251","2022-08-16 02:00","2022","08","16","02:00","14.5","","14.2","","98","","","","16","","10","","","","101.27","","","","","","NA"
"-131.60","53.03","CUMSHEWA ISLAND","1062251","2022-08-16 03:00","2022","08","16","03:00","14.5","","14.2","","98","","","","15","","14","","","","101.25","","","","","","NA"
"-131.60","53.03","CUMSHEWA ISLAND","1062251","2022-08-16 04:00","2022","08","16","04:00","14.5","","14.3","","99","","","","15","","19","","","","101.28","","","","","","NA"
"-131.60","53.03","CUMSHEWA ISLAND","1062251","2022-08-16 05:00","2022","08","16","05:00","14.7","","14.5","","99","","","","15","","21","","","","101.30","","","","","","NA"
"-131.60","53.03","CUMSHEWA ISLAND","1062251","2022-08-16 06:00","2022","08","16","06:00","14.7","","14.5","","99","","","","15","","30","","","","101.30","","","","","","NA"
"-131.60","53.03","CUMSHEWA ISLAND","1062251","2022-08-16 07:00","2022","08","16","07:00","14.9","","14.5","","98","","","","15","","37","","","","101.32","","","","","","NA"
"-131.60","53.03","CUMSHEWA ISLAND","1062251","2022-08-16 08:00","2022","08","16","08:00","14.8","","14.4","","97","","","","15","","36","","","","101.37","","","","","","NA"
"-131.60","53.03","CUMSHEWA ISLAND","1062251","2022-08-16 09:00","2022","08","16","09:00","14.8","","14.4","","97","","","","15","","35","","","","101.37","","","","","","NA"
"-131.60","53.03","CUMSHEWA ISLAND","1062251","2022-08-16 10:00","2022","08","16","10:00","14.9","","14.6","","98","","","","15","","37","","","","101.42","","","","","","NA"
"-131.60","53.03","CUMSHEWA ISLAND","1062251","2022-08-16 11:00","2022","08","16","11:00","14.8","","14.5","","98","","","","14","","32","","","","101.44","","","","","","NA"
"-131.60","53.03","CUMSHEWA ISLAND","1062251","2022-08-16 12:00","2022","08","16","12:00","14.7","","14.4","","98","","","","14","","31","","","","101.46","","","","","","NA"
"-131.60","53.03","CUMSHEWA ISLAND","1062251","2022-08-16 13:00","2022","08","16","13:00","14.8","","14.5","","98","","","","15","","39","","","","101.45","","","","","","NA"
"-131.60","53.03","CUMSHEWA ISLAND","1062251","2022-08-16 14:00","2022","08","16","14:00","14.7","","14.5","","99","","","","15","","36","","","","101.48","","","","","","NA"
"-131.60","53.03","CUMSHEWA ISLAND","1062251","2022-08-16 15:00","2022","08","16","15:00","14.7","","14.5","","99","","","","16","","38","","","","101.46","","","","","","NA"
"-131.60","53.03","CUMSHEWA ISLAND","1062251","2022-08-16 16:00","2022","08","16","16:00","14.8","","14.6","","99","","","","15","","40","","","","101.45","","","","","","NA"
"-131.60","53.03","CUMSHEWA ISLAND","1062251","2022-08-16 17:00","2022","08","16","17:00","15.0","","14.7","","99","","","","15","","34","","","","101.46","","","","","","NA"
"-131.60","53.03","CUMSHEWA ISLAND","1062251","2022-08-16 18:00","2022","08","16","18:00","15.0","","14.7","","98","","","","15","","40","","","","101.43","","","","","","NA"
"-131.60","53.03","CUMSHEWA ISLAND","1062251","2022-08-16 19:00","2022","08","16","19:00","15.0","","14.7","","98","","","","15","","46","","","","101.42","","","","","","NA"
"-131.60","53.03","CUMSHEWA ISLAND","1062251","2022-08-16 20:00","2022","08","16","20:00","15.1","","14.9","","98","","","","15","","44","","","","101.47","","","","","","NA"
"-131.60","53.03","CUMSHEWA ISLAND","1062251","2022-08-16 21:00","2022","08","16","21:00","15.1","","14.8","","98","","","","15","","43","","","","101.52","","","","","","NA"
"-131.60","53.03","CUMSHEWA ISLAND","1062251","2022-08-16 22:00","2022","08","16","22:00","15.0","","14.7","","98","","","","15","","43","","","","101.53","","","","","","NA"
"-131.60","53.03","CUMSHEWA ISLAND","1062251","2022-08-16 23:00","2022","08","16","23:00","14.8","","14.6","","99","","","","15","","43","","","","101.55","","","","","","NA"
"-131.60","53.03","CUMSHEWA ISLAND","1062251","2022-08-17 00:00","2022","08","17","00:00","14.5","","14.3","","99","","","","14","","42","","","","101.59","","","","","","NA"
"-131.60","53.03","CUMSHEWA ISLAND","1062251","2022-08-17 01:00","2022","08","17","01:00","14.4","","14.2","","99","","","","15","","42","","","","101.61","","","","","","NA"
"-131.60","53.03","CUMSHEWA ISLAND","1062251","2022-08-17 02:00","2022","08","17","02:00","14.3","","14.1","","99","","","","16","","34","","","","101.64","","","","","","NA"
"-131.60","53.03","CUMSHEWA ISLAND","1062251","2022-08-17 03:00","2022","08","17","03:00","14.2","","14.0","","99","","","","16","","33","","","","101.67","","","","","","NA"
"-131.60","53.03","CUMSHEWA ISLAND","1062251","2022-08-17 04:00","2022","08","17","04:00","14.2","","14.0","","99","","","","15","","37","","","","101.69","","","","","","NA"
"-131.60","53.03","CUMSHEWA ISLAND","1062251","2022-08-17 05:00","2022","08","17","05:00","14.3","","14.1","","99","","","","15","","35","","","","101.69","","","","","","NA"
"-131.60","53.03","CUMSHEWA ISLAND","1062251","2022-08-17 06:00","2022","08","17","06:00","14.4","","14.3","","99","","","","16","","40","","","","101.70","","","","","","NA"
"-131.60","53.03","CUMSHEWA ISLAND","1062251","2022-08-17 07:00","2022","08","17","07:00","14.4","","14.3","","99","","","","16","","34","","","","101.72","","","","","","NA"
"-131.60","53.03","CUMSHEWA ISLAND","1062251","2022-08-17 08:00","2022","08","17","08:00","15.0","","14.8","","99","","","","16","","27","","","","101.76","","","","","","NA"
"-131.60","53.03","CUMSHEWA ISLAND","1062251","2022-08-17 09:00","2022","08","17","09:00","15.4","","15.2","","99","","","","15","","15","","","","101.80","","","","","","NA"
"-131.60","53.03","CUMSHEWA ISLAND","1062251","2022-08-17 10:00","2022","08","17","10:00","15.5","","15.1","","98","","","","16","","23","","","","101.83","","","","","","NA"
"-131.60","53.03","CUMSHEWA ISLAND","1062251","2022-08-17 11:00","2022","08","17","11:00","16.0","","15.5","","97","","","","16","","25","","","","101.83","","","","","","NA"
"-131.60","53.03","CUMSHEWA ISLAND","1062251","2022-08-17 12:00","2022","08","17","12:00","16.1","","15.3","","95","","","","15","","24","","","","101.82","","","","","","NA"
"-131.60","53.03","CUMSHEWA ISLAND","1062251","2022-08-17 13:00","2022","08","17","13:00","16.1","","15.1","","94","","","","15","","25","","","","101.83","","","","","","NA"
"-131.60","53.03","CUMSHEWA ISLAND","1062251","2022-08-17 14:00","2022","08","17","14:00","16.1","","15.1","","94","","","","15","","21","","","","101.85","","","","","","NA"
"-131.60","53.03","CUMSHEWA ISLAND","1062251","2022-08-17 15:00","2022","08","17","15:00","16.2","","15.2","","94","","","","15","","23","","","","101.81","","","","","","NA"
"-131.60","53.03","CUMSHEWA ISLAND","1062251","2022-08-17 16:00","2022","08","17","16:00","16.2","","15.2","","94","","","","16","","20","","","","101.80","","","","","","NA"
"-131.60","53.03","CUMSHEWA ISLAND","1062251","2022-08-17 17:00","2022","08","17","17:00","16.9","","15.2","","89","","","","12","","8","","","","101.77","","","","","","NA"
"-131.60","53.03","CUMSHEWA ISLAND","1062251","2022-08-17 18:00","2022","08","17","18:00","16.6","","15.3","","92","","","","12","","6","","","","101.76","","","","","","NA"
"-131.60","53.03","CUMSHEWA ISLAND","1062251","2022-08-17 19:00","2022","08","17","19:00","17.8","","16.1","","90","","","","17","","3","","","","101.75","","","","","","NA"
"-131.60","53.03","CUMSHEWA ISLAND","1062251","2022-08-17 20:00","2022","08","17","20:00","16.7","","15.8","","94","","","","35","","14","","","","101.78","","","","","","NA"
"-131.60","53.03","CUMSHEWA ISLAND","1062251","2022-08-17 21:00","2022","08","17","21:00","16.4","","15.7","","96","","","","36","","7","","","","101.82","","","","","","NA"
"-131.60","53.03","CUMSHEWA ISLAND","1062251","2022-08-17 22:00","2022","08","17","22:00","19.2","","16.8","","86","","","","33","","3","","","","101.79","","","","","","NA"
"-131.60","53.03","CUMSHEWA ISLAND","1062251","2022-08-17 23:00","2022","08","17","23:00","16.9","","15.6","","93","","","","35","","2","","","","101.81","","","","","","NA"
"-131.60","53.03","CUMSHEWA ISLAND","1062251","2022-08-18 00:00","2022","08","18","00:00","17.8","","15.7","","88","","","","27","","11","","","","101.82","","","","","","NA"
"-131.60","53.03","CUMSHEWA ISLAND","1062251","2022-08-18 01:00","2022","08","18","01:00","16.8","","15.8","","94","","","","35","","13","","","","101.83","","","","","","NA"
"-131.60","53.03","CUMSHEWA ISLAND","1062251","2022-08-18 02:00","2022","08","18","02:00","16.4","","15.8","","96","","","","36","","18","","","","101.83","","","","","","NA"
"-131.60","53.03","CUMSHEWA ISLAND","1062251","2022-08-18 03:00","2022","08","18","03:00","16.4","","15.7","","95","","","","35","","17","","","","101.84","","","","","","NA"
"-131.60","53.03","CUMSHEWA ISLAND","1062251","2022-08-18 04:00","2022","08","18","04:00","16.3","","15.5","","96","","","","35","","11","","","","101.84","","","","","","NA"
"-131.60","53.03","CUMSHEWA ISLAND","1062251","2022-08-18 05:00","2022","08","18","05:00","15.2","","14.6","","96","","","","26","","5","","","","101.82","","","","","","NA"
"-131.60","53.03","CUMSHEWA ISLAND","1062251","2022-08-18 06:00","2022","08","18","06:00","15.0","","14.5","","97","","","","27","","2","","","","101.82","","","","","","NA"
"-131.60","53.03","CUMSHEWA ISLAND","1062251","2022-08-18 07:00","2022","08","18","07:00","16.4","","15.4","","94","","","","30","","6","","","","101.83","","","","","","NA"
"-131.60","53.03","CUMSHEWA ISLAND","1062251","2022-08-18 08:00","2022","08","18","08:00","17.6","","15.7","","89","","","","32","","6","","","","101.81","","","","","","NA"
"-131.60","53.03","CUMSHEWA ISLAND","1062251","2022-08-18 09:00","2022","08","18","09:00","16.6","","15.4","","92","","","","36","","16","","","","101.81","","","","","","NA"
"-131.60","53.03","CUMSHEWA ISLAND","1062251","2022-08-18 10:00","2022","08","18","10:00","16.8","","15.6","","93","","","","35","","15","","","","101.79","","","","","","NA"
"-131.60","53.03","CUMSHEWA ISLAND","1062251","2022-08-18 11:00","2022","08","18","11:00","17.0","","15.7","","92","","","","36","","15","","","","101.77","","","","","","NA"
"-131.60","53.03","CUMSHEWA ISLAND","1062251","2022-08-18 12:00","2022","08","18","12:00","16.9","","15.8","","93","","","","1","","21","","","","101.73","","","","","","NA"
"-131.60","53.03","CUMSHEWA ISLAND","1062251","2022-08-18 13:00","2022","08","18","13:00","17.3","","15.9","","92","","","","36","","26","","","","101.70","","","","","","NA"
"-131.60","53.03","CUMSHEWA ISLAND","1062251","2022-08-18 14:00","2022","08","18","14:00","17.2","","15.9","","92","","","","36","","21","","","","101.67","","","","","","NA"
"-131.60","53.03","CUMSHEWA ISLAND","1062251","2022-08-18 15:00","2022","08","18","15:00","18.0","","16.1","","89","","","","36","","26","","","","101.62","","","","","","NA"
"-131.60","53.03","CUMSHEWA ISLAND","1062251","2022-08-18 16:00","2022","08","18","16:00","18.0","","16.1","","88","","","","35","","26","","","","101.58","","","","","","NA"
"-131.60","53.03","CUMSHEWA ISLAND","1062251","2022-08-18 17:00","2022","08","18","17:00","18.5","","16.0","","85","","","","35","","24","","","","101.56","","","","","","NA"
"-131.60","53.03","CUMSHEWA ISLAND","1062251","2022-08-18 18:00","2022","08","18","18:00","18.2","","15.7","","85","","","","35","","27","","","","101.54","","","","","","NA"
"-131.60","53.03","CUMSHEWA ISLAND","1062251","2022-08-18 19:00","2022","08","18","19:00","18.0","","15.6","","86","","","","35","","27","","","","101.52","","","","","","NA"
"-131.60","53.03","CUMSHEWA ISLAND","1062251","2022-08-18 20:00","2022","08","18","20:00","17.6","","15.8","","89","","","","36","","21","","","","101.54","","","","","","NA"
"-131.60","53.03","CUMSHEWA ISLAND","1062251","2022-08-18 21:00","2022","08","18","21:00","17.3","","16.0","","92","","","","35","","14","","","","101.54","","","","","","NA"
"-131.60","53.03","CUMSHEWA ISLAND","1062251","2022-08-18 22:00","2022","08","18","22:00","17.1","","16.0","","93","","","","35","","14","","","","101.52","","","","","","NA"
"-131.60","53.03","CUMSHEWA ISLAND","1062251","2022-08-18 23:00","2022","08","18","23:00","16.9","","15.7","","93","","","","24","","2","","","","101.52","","","","","","NA"
"-131.60","53.03","CUMSHEWA ISLAND","1062251","2022-08-19 00:00","2022","08","19","00:00","17.0","","15.4","","90","","","","35","","1","","","","101.49","","","","","","NA"
"-131.60","53.03","CUMSHEWA ISLAND","1062251","2022-08-19 01:00","2022","08","19","01:00","17.2","","15.2","","88","","","","34","","16","","","","101.47","","","","","","NA"
"-131.60","53.03","CUMSHEWA ISLAND","1062251","2022-08-19 02:00","2022","08","19","02:00","16.7","","15.0","","89","","","","34","","17","","","","101.48","","","","","","NA"
"-131.60","53.03","CUMSHEWA ISLAND","1062251","2022-08-19 03:00","2022","08","19","03:00","16.4","","14.8","","90","","","","35","","20","","","","101.46","","","","","","NA"
"-131.60","53.03","CUMSHEWA ISLAND","1062251","2022-08-19 04:00","2022","08","19","04:00","16.0","","14.7","","92","","","","34","","20","","","","101.44","","","","","","NA"
"-131.60","53.03","CUMSHEWA ISLAND","1062251","2022-08-19 05:00","2022","08","19","05:00","15.5","","14.2","","92","","","","33","","6","","","","101.44","","","","","","NA"
"-131.60","53.03","CUMSHEWA ISLAND","1062251","2022-08-19 06:00","2022","08","19","06:00","15.7","","14.3","","92","","","","33","","7","","","","101.45","","","","","","NA"
"-131.60","53.03","CUMSHEWA ISLAND","1062251","2022-08-19 07:00","2022","08","19","07:00","16.2","","14.3","","89","","","","28","","6","","","","101.45","","","","","","NA"
"-131.60","53.03","CUMSHEWA ISLAND","1062251","2022-08-19 08:00","2022","08","19","08:00","16.8","","14.5","","87","","","","34","","19","","","","101.46","","","","","","NA"
"-131.60","53.03","CUMSHEWA ISLAND","1062251","2022-08-19 09:00","2022","08","19","09:00","16.6","","15.2","","91","","","","36","","24","","","","101.44","","","","","","NA"
"-131.60","53.03","CUMSHEWA ISLAND","1062251","2022-08-19 10:00","2022","08","19","10:00","17.8","","15.2","","85","","","","35","","21","","","","101.44","","","","","","NA"
"-131.60","53.03","CUMSHEWA ISLAND","1062251","2022-08-19 11:00","2022","08","19","11:00","17.6","","14.7","","83","","","","36","","28","","","","101.42","","","","","","NA"
"-131.60","53.03","CUMSHEWA ISLAND","1062251","2022-08-19 12:00","2022","08","19","12:00","17.6","","15.4","","87","","","","1","","24","","","","101.40","","","","","","NA"
"-131.60","53.03","CUMSHEWA ISLAND","1062251","2022-08-19 13:00","2022","08","19","13:00","17.6","","15.0","","85","","","","1","","27","","","","101.38","","","","","","NA"
"-131.60","53.03","CUMSHEWA ISLAND","1062251","2022-08-19 14:00","2022","08","19","14:00","17.9","","15.0","","83","","","","36","","25","","","","101.41","","","","","","NA"
"-131.60","53.03","CUMSHEWA ISLAND","1062251","2022-08-19 15:00","2022","08","19","15:00","18.1","","14.8","","81","","","","36","","27","","","","101.39","","","","","","NA"
"-131.60","53.03","CUMSHEWA ISLAND","1062251","2022-08-19 16:00","2022","08","19","16:00","17.7","","14.5","","82","","","","1","","25","","","","101.38","","","","","","NA"
"-131.60","53.03","CUMSHEWA ISLAND","1062251","2022-08-19 17:00","2022","08","19","17:00","17.8","","14.9","","83","","","","36","","17","","","","101.36","","","","","","NA"
"-131.60","53.03","CUMSHEWA ISLAND","1062251","2022-08-19 18:00","2022","08","19","18:00","18.6","","14.8","","79","","","","1","","14","","","","101.33","","","","","","NA"
"-131.60","53.03","CUMSHEWA ISLAND","1062251","2022-08-19 19:00","2022","08","19","19:00","18.7","","15.4","","81","","","","36","","11","","","","101.32","","","","","","NA"
"-131.60","53.03","CUMSHEWA ISLAND","1062251","2022-08-19 20:00","2022","08","19","20:00","19.4","","14.5","","74","","","","33","","6","","","","101.32","","","","","","NA"
"-131.60","53.03","CUMSHEWA ISLAND","1062251","2022-08-19 21:00","2022","08","19","21:00","18.3","","14.4","","78","","","","22","","1","","","","101.35","","","","","","NA"
"-131.60","53.03","CUMSHEWA ISLAND","1062251","2022-08-19 22:00","2022","08","19","22:00","17.8","","14.3","","80","","","","32","","2","","","","101.34","","","","","","NA"
"-131.60","53.03","CUMSHEWA ISLAND","1062251","2022-08-19 23:00","2022","08","19","23:00","19.3","","13.1","","67","","","","32","","14","","","","101.37","","","","","","NA"
"-131.60","53.03","CUMSHEWA ISLAND","1062251","2022-08-20 00:00","2022","08","20","00:00","19.2","","13.1","","68","","","","30","","17","","","","101.32","","","","","","NA"
"-131.60","53.03","CUMSHEWA ISLAND","1062251","2022-08-20 01:00","2022","08","20","01:00","19.3","","13.0","","67","","","","29","","16","","","","101.32","","","","","","NA"
"-131.60","53.03","CUMSHEWA ISLAND","1062251","2022-08-20 02:00","2022","08","20","02:00","19.0","","13.0","","68","","","","28","","15","","","","101.30","","","","","","NA"
"-131.60","53.03","CUMSHEWA ISLAND","1062251","2022-08-20 03:00","2022","08","20","03:00","18.9","","12.4","","66","","","","28","","14","","","","101.32","","","","","","NA"
"-131.60","53.03","CUMSHEWA ISLAND","1062251","2022-08-20 04:00","2022","08","20","04:00","18.8","","12.6","","67","","","","30","","9","","","","101.31","","","","","","NA"
"-131.60","53.03","CUMSHEWA ISLAND","1062251","2022-08-20 05:00","2022","08","20","05:00","16.3","","13.2","","82","","","","32","","5","","","","101.30","","","","","","NA"
"-131.60","53.03","CUMSHEWA ISLAND","1062251","2022-08-20 06:00","2022","08","20","06:00","16.8","","13.2","","79","","","","32","","7","","","","101.35","","","","","","NA"
"-131.60","53.03","CUMSHEWA ISLAND","1062251","2022-08-20 07:00","2022","08","20","07:00","19.0","","14.8","","77","","","","6","","3","","","","101.39","","","","","","NA"
"-131.60","53.03","CUMSHEWA ISLAND","1062251","2022-08-20 08:00","2022","08","20","08:00","16.7","","15.3","","92","","","","36","","14","","","","101.41","","","","","","NA"
"-131.60","53.03","CUMSHEWA ISLAND","1062251","2022-08-20 09:00","2022","08","20","09:00","16.9","","14.7","","87","","","","36","","26","","","","101.42","","","","","","NA"
"-131.60","53.03","CUMSHEWA ISLAND","1062251","2022-08-20 10:00","2022","08","20","10:00","16.8","","15.1","","90","","","","36","","26","","","","101.42","","","","","","NA"
"-131.60","53.03","CUMSHEWA ISLAND","1062251","2022-08-20 11:00","2022","08","20","11:00","16.6","","15.0","","91","","","","36","","23","","","","101.43","","","","","","NA"
"-131.60","53.03","CUMSHEWA ISLAND","1062251","2022-08-20 12:00","2022","08","20","12:00","16.9","","15.1","","89","","","","1","","21","","","","101.43","","","","","","NA"
"-131.60","53.03","CUMSHEWA ISLAND","1062251","2022-08-20 13:00","2022","08","20","13:00","17.2","","15.0","","87","","","","1","","21","","","","101.42","","","","","","NA"
"-131.60","53.03","CUMSHEWA ISLAND","1062251","2022-08-20 14:00","2022","08","20","14:00","17.5","","15.0","","86","","","","36","","15","","","","101.40","","","","","","NA"
"-131.60","53.03","CUMSHEWA ISLAND","1062251","2022-08-20 15:00","2022","08","20","15:00","17.6","","15.1","","86","","","","36","","18","","","","101.38","","","","","","NA"
"-131.60","53.03","CUMSHEWA ISLAND","1062251","2022-08-20 16:00","2022","08","20","16:00","18.4","","15.3","","82","","","","36","","19","","","","101.37","","","","","","NA"
"-131.60","53.03","CUMSHEWA ISLAND","1062251","2022-08-20 17:00","2022","08","20","17:00","18.9","","15.1","","79","","","","36","","21","","","","101.34","","","","","","NA"
"-131.60","53.03","CUMSHEWA ISLAND","1062251","2022-08-20 18:00","2022","08","20","18:00","19.5","","14.9","","74","","","","35","","17","","","","101.32","","","","","","NA"
"-131.60","53.03","CUMSHEWA ISLAND","1062251","2022-08-20 19:00","2022","08","20","19:00","20.0","","14.7","","71","","","","35","","13","","","","101.30","","","","","","NA"
"-131.60","53.03","CUMSHEWA ISLAND","1062251","2022-08-20 20:00","2022","08","20","20:00","19.9","","14.5","","71","","","","34","","15","","","","101.29","","","","","","NA"
"-131.60","53.03","CUMSHEWA ISLAND","1062251","2022-08-20 21:00","2022","08","20","21:00","18.7","","14.2","","75","","","","34","","8","","","","101.33","","","","","","NA"
"-131.60","53.03","CUMSHEWA ISLAND","1062251","2022-08-20 22:00","2022","08","20","22:00","18.9","","14.1","","74","","","","31","","5","","","","101.33","","","","","","NA"
"-131.60","53.03","CUMSHEWA ISLAND","1062251","2022-08-20 23:00","2022","08","20","23:00","18.8","","13.8","","73","","","","31","","9","","","","101.33","","","","","","NA"
"-131.60","53.03","CUMSHEWA ISLAND","1062251","2022-08-21 00:00","2022","08","21","00:00","18.5","","13.8","","74","","","","31","","6","","","","101.33","","","","","","NA"
"-131.60","53.03","CUMSHEWA ISLAND","1062251","2022-08-21 01:00","2022","08","21","01:00","17.7","","13.6","","77","","","","25","","1","","","","101.32","","","","","","NA"
"-131.60","53.03","CUMSHEWA ISLAND","1062251","2022-08-21 02:00","2022","08","21","02:00","17.2","","14.0","","82","","","","2","","4","","","","101.32","","","","","","NA"
"-131.60","53.03","CUMSHEWA ISLAND","1062251","2022-08-21 03:00","2022","08","21","03:00","16.8","","14.2","","85","","","","28","","5","","","","101.33","","","","","","NA"
"-131.60","53.03","CUMSHEWA ISLAND","1062251","2022-08-21 04:00","2022","08","21","04:00","16.5","","13.8","","84","","","","0","","1","","","","101.35","","","","","","NA"
"-131.60","53.03","CUMSHEWA ISLAND","1062251","2022-08-21 05:00","2022","08","21","05:00","16.5","","14.2","","87","","","","0","","1","","","","101.33","","","","","","NA"
"-131.60","53.03","CUMSHEWA ISLAND","1062251","2022-08-21 06:00","2022","08","21","06:00","16.2","","14.3","","89","","","","","","0","","","","101.34","","","","","","NA"
"-131.60","53.03","CUMSHEWA ISLAND","1062251","2022-08-21 07:00","2022","08","21","07:00","17.2","","15.3","","89","","","","1","","5","","","","101.36","","","","","","NA"
"-131.60","53.03","CUMSHEWA ISLAND","1062251","2022-08-21 08:00","2022","08","21","08:00","16.9","","15.3","","90","","","","3","","10","","","","101.38","","","","","","NA"
"-131.60","53.03","CUMSHEWA ISLAND","1062251","2022-08-21 09:00","2022","08","21","09:00","15.4","","14.0","","91","","","","8","","15","","","","101.41","","","","","","NA"
"-131.60","53.03","CUMSHEWA ISLAND","1062251","2022-08-21 10:00","2022","08","21","10:00","14.7","","13.7","","94","","","","5","","12","","","","101.42","","","","","","NA"
"-131.60","53.03","CUMSHEWA ISLAND","1062251","2022-08-21 11:00","2022","08","21","11:00","14.6","","13.6","","94","","","","7","","9","","","","101.43","","","","","","NA"
"-131.60","53.03","CUMSHEWA ISLAND","1062251","2022-08-21 12:00","2022","08","21","12:00","14.1","","13.4","","96","","","","10","","11","","","","101.43","","","","","","NA"
"-131.60","53.03","CUMSHEWA ISLAND","1062251","2022-08-21 13:00","2022","08","21","13:00","14.5","","13.7","","95","","","","13","","10","","","","101.41","","","","","","NA"
"-131.60","53.03","CUMSHEWA ISLAND","1062251","2022-08-21 14:00","2022","08","21","14:00","15.4","","14.4","","94","","","","15","","15","","","","101.44","","","","","","NA"
"-131.60","53.03","CUMSHEWA ISLAND","1062251","2022-08-21 15:00","2022","08","21","15:00","15.0","","14.1","","94","","","","13","","17","","","","101.41","","","","","","NA"
"-131.60","53.03","CUMSHEWA ISLAND","1062251","2022-08-21 16:00","2022","08","21","16:00","15.2","","14.4","","95","","","","15","","20","","","","101.41","","","","","","NA"
"-131.60","53.03","CUMSHEWA ISLAND","1062251","2022-08-21 17:00","2022","08","21","17:00","15.4","","14.5","","94","","","","15","","23","","","","101.39","","","","","","NA"
"-131.60","53.03","CUMSHEWA ISLAND","1062251","2022-08-21 18:00","2022","08","21","18:00","15.9","","14.8","","93","","","","16","","20","","","","101.36","","","","","","NA"
"-131.60","53.03","CUMSHEWA ISLAND","1062251","2022-08-21 19:00","2022","08","21","19:00","16.0","","14.9","","94","","","","15","","22","","","","101.36","","","","","","NA"
"-131.60","53.03","CUMSHEWA ISLAND","1062251","2022-08-21 20:00","2022","08","21","20:00","16.1","","15.3","","95","","","","16","","21","","","","101.37","","","","","","NA"
"-131.60","53.03","CUMSHEWA ISLAND","1062251","2022-08-21 21:00","2022","08","21","21:00","15.8","","15.2","","96","","","","16","","31","","","","101.43","","","","","","NA"
"-131.60","53.03","CUMSHEWA ISLAND","1062251","2022-08-21 22:00","2022","08","21","22:00","15.9","","15.4","","97","","","","15","","29","","","","101.42","","","","","","NA"
"-131.60","53.03","CUMSHEWA ISLAND","1062251","2022-08-21 23:00","2022","08","21","23:00","16.0","","15.5","","97","","","","16","","24","","","","101.44","","","","","","NA"
"-131.60","53.03","CUMSHEWA ISLAND","1062251","2022-08-22 00:00","2022","08","22","00:00","15.8","","15.2","","96","","","","18","","15","","","","101.46","","","","","","NA"
"-131.60","53.03","CUMSHEWA ISLAND","1062251","2022-08-22 01:00","2022","08","22","01:00","15.9","","15.2","","96","","","","17","","13","","","","101.45","","","","","","NA"
"-131.60","53.03","CUMSHEWA ISLAND","1062251","2022-08-22 02:00","2022","08","22","02:00","16.0","","15.3","","96","","","","17","","10","","","","101.47","","","","","","NA"
"-131.60","53.03","CUMSHEWA ISLAND","1062251","2022-08-22 03:00","2022","08","22","03:00","15.9","","15.1","","95","","","","32","","4","","","","101.52","","","","","","NA"
"-131.60","53.03","CUMSHEWA ISLAND","1062251","2022-08-22 04:00","2022","08","22","04:00","16.3","","15.3","","94","","","","35","","7","","","","101.54","","","","","","NA"
"-131.60","53.03","CUMSHEWA ISLAND","1062251","2022-08-22 05:00","2022","08","22","05:00","15.9","","14.9","","94","","","","26","","2","","","","101.56","","","","","","NA"
"-131.60","53.03","CUMSHEWA ISLAND","1062251","2022-08-22 06:00","2022","08","22","06:00","15.9","","14.9","","94","","","","25","","3","","","","101.62","","","","","","NA"
"-131.60","53.03","CUMSHEWA ISLAND","1062251","2022-08-22 07:00","2022","08","22","07:00","16.9","","15.9","","94","","","","9","","3","","","","101.68","","","","","","NA"
"-131.60","53.03","CUMSHEWA ISLAND","1062251","2022-08-22 08:00","2022","08","22","08:00","17.3","","15.0","","87","","","","24","","6","","","","101.73","","","","","","NA"
"-131.60","53.03","CUMSHEWA ISLAND","1062251","2022-08-22 09:00","2022","08","22","09:00","18.0","","15.7","","86","","","","18","","5","","","","101.76","","","","","","NA"
"-131.60","53.03","CUMSHEWA ISLAND","1062251","2022-08-22 10:00","2022","08","22","10:00","17.3","","14.9","","86","","","","15","","13","","","","101.79","","","","","","NA"
"-131.60","53.03","CUMSHEWA ISLAND","1062251","2022-08-22 11:00","2022","08","22","11:00","16.8","","15.0","","89","","","","15","","18","","","","101.83","","","","","","NA"
"-131.60","53.03","CUMSHEWA ISLAND","1062251","2022-08-22 12:00","2022","08","22","12:00","16.9","","15.0","","89","","","","15","","23","","","","101.85","","","","","","NA"
"-131.60","53.03","CUMSHEWA ISLAND","1062251","2022-08-22 13:00","2022","08","22","13:00","16.9","","15.3","","91","","","","14","","23","","","","101.89","","","","","","NA"
"-131.60","53.03","CUMSHEWA ISLAND","1062251","2022-08-22 14:00","2022","08","22","14:00","16.8","","15.4","","92","","","","14","","23","","","","101.91","","","","","","NA"
"-131.60","53.03","CUMSHEWA ISLAND","1062251","2022-08-22 15:00","2022","08","22","15:00","16.6","","15.4","","93","","","","15","","26","","","","101.92","","","","","","NA"
"-131.60","53.03","CUMSHEWA ISLAND","1062251","2022-08-22 16:00","2022","08","22","16:00","16.6","","15.4","","93","","","","14","","18","","","","101.93","","","","","","NA"
"-131.60","53.03","CUMSHEWA ISLAND","1062251","2022-08-22 17:00","2022","08","22","17:00","16.7","","15.5","","93","","","","11","","13","","","","101.92","","","","","","NA"
"-131.60","53.03","CUMSHEWA ISLAND","1062251","2022-08-22 18:00","2022","08","22","18:00","16.7","","15.7","","94","","","","11","","11","","","","101.93","","","","","","NA"
"-131.60","53.03","CUMSHEWA ISLAND","1062251","2022-08-22 19:00","2022","08","22","19:00","16.8","","15.4","","92","","","","7","","8","","","","101.97","","","","","","NA"
"-131.60","53.03","CUMSHEWA ISLAND","1062251","2022-08-22 20:00","2022","08","22","20:00","16.1","","15.2","","95","","","","10","","8","","","","102.00","","","","","","NA"
"-131.60","53.03","CUMSHEWA ISLAND","1062251","2022-08-22 21:00","2022","08","22","21:00","16.2","","15.4","","95","","","","35","","5","","","","102.03","","","","","","NA"
"-131.60","53.03","CUMSHEWA ISLAND","1062251","2022-08-22 22:00","2022","08","22","22:00","16.2","","15.5","","96","","","","36","","6","","","","102.02","","","","","","NA"
"-131.60","53.03","CUMSHEWA ISLAND","1062251","2022-08-22 23:00","2022","08","22","23:00","16.2","","15.5","","96","","","","2","","10","","","","102.05","","","","","","NA"
"-131.60","53.03","CUMSHEWA ISLAND","1062251","2022-08-23 00:00","2022","08","23","00:00","16.2","","15.6","","97","","","","1","","17","","","","102.04","","","","","","NA"
"-131.60","53.03","CUMSHEWA ISLAND","1062251","2022-08-23 01:00","2022","08","23","01:00","16.6","","15.9","","96","","","","35","","16","","","","102.03","","","","","","NA"
"-131.60","53.03","CUMSHEWA ISLAND","1062251","2022-08-23 02:00","2022","08","23","02:00","16.3","","15.7","","96","","","","1","","16","","","","102.03","","","","","","NA"
"-131.60","53.03","CUMSHEWA ISLAND","1062251","2022-08-23 03:00","2022","08","23","03:00","16.4","","15.8","","96","","","","1","","13","","","","102.04","","","","","","NA"
"-131.60","53.03","CUMSHEWA ISLAND","1062251","2022-08-23 04:00","2022","08","23","04:00","16.7","","16.0","","96","","","","36","","12","","","","102.04","","","","","","NA"
"-131.60","53.03","CUMSHEWA ISLAND","1062251","2022-08-23 05:00","2022","08","23","05:00","16.6","","15.9","","95","","","","36","","10","","","","102.03","","","","","","NA"
"-131.60","53.03","CUMSHEWA ISLAND","1062251","2022-08-23 06:00","2022","08","23","06:00","16.7","","15.7","","94","","","","36","","8","","","","102.03","","","","","","NA"
"-131.60","53.03","CUMSHEWA ISLAND","1062251","2022-08-23 07:00","2022","08","23","07:00","16.6","","15.5","","94","","","","2","","7","","","","102.02","","","","","","NA"
"-131.60","53.03","CUMSHEWA ISLAND","1062251","2022-08-23 08:00","2022","08","23","08:00","16.7","","15.7","","93","","","","35","","10","","","","102.03","","","","","","NA"
"-131.60","53.03","CUMSHEWA ISLAND","1062251","2022-08-23 09:00","2022","08","23","09:00","16.9","","15.9","","94","","","","36","","11","","","","102.05","","","","","","NA"
"-131.60","53.03","CUMSHEWA ISLAND","1062251","2022-08-23 10:00","2022","08","23","10:00","16.9","","16.0","","94","","","","36","","10","","","","102.06","","","","","","NA"
"-131.60","53.03","CUMSHEWA ISLAND","1062251","2022-08-23 11:00","2022","08","23","11:00","17.2","","15.8","","92","","","","4","","7","","","","102.04","","","","","","NA"
"-131.60","53.03","CUMSHEWA ISLAND","1062251","2022-08-23 12:00","2022","08","23","12:00","17.5","","15.7","","89","","","","5","","9","","","","102.04","","","","","","NA"
"-131.60","53.03","CUMSHEWA ISLAND","1062251","2022-08-23 13:00","2022","08","23","13:00","17.1","","15.8","","92","","","","2","","13","","","","102.01","","","","","","NA"
"-131.60","53.03","CUMSHEWA ISLAND","1062251","2022-08-23 14:00","2022","08","23","14:00","17.3","","15.7","","90","","","","1","","14","","","","102.00","","","","","","NA"
"-131.60","53.03","CUMSHEWA ISLAND","1062251","2022-08-23 15:00","2022","08","23","15:00","17.6","","15.6","","88","","","","2","","8","","","","102.00","","","","","","NA"
"-131.60","53.03","CUMSHEWA ISLAND","1062251","2022-08-23 16:00","2022","08","23","16:00","18.1","","15.5","","85","","","","3","","5","","","","102.00","","","","","","NA"
"-131.60","53.03","CUMSHEWA ISLAND","1062251","2022-08-23 17:00","2022","08","23","17:00","18.1","","15.9","","87","","","","1","","8","","","","101.98","","","","","","NA"
"-131.60","53.03","CUMSHEWA ISLAND","1062251","2022-08-23 18:00","2022","08","23","18:00","18.2","","15.9","","87","","","","2","","9","","","","101.97","","","","","","NA"
"-131.60","53.03","CUMSHEWA ISLAND","1062251","2022-08-23 19:00","2022","08","23","19:00","18.1","","16.0","","88","","","","1","","15","","","","101.94","","","","","","NA"
"-131.60","53.03","CUMSHEWA ISLAND","1062251","2022-08-23 20:00","2022","08","23","20:00","18.0","","16.0","","88","","","","36","","19","","","","101.91","","","","","","NA"
"-131.60","53.03","CUMSHEWA ISLAND","1062251","2022-08-23 21:00","2022","08","23","21:00","18.5","","14.3","","77","","","","33","","13","","","","101.94","","","","","","NA"
"-131.60","53.03","CUMSHEWA ISLAND","1062251","2022-08-23 22:00","2022","08","23","22:00","16.9","","14.7","","87","","","","26","","8","","","","101.94","","","","","","NA"
"-131.60","53.03","CUMSHEWA ISLAND","1062251","2022-08-23 23:00","2022","08","23","23:00","17.4","","15.1","","86","","","","27","","12","","","","101.91","","","","","","NA"
"-131.60","53.03","CUMSHEWA ISLAND","1062251","2022-08-24 00:00","2022","08","24","00:00","16.7","","15.0","","90","","","","28","","4","","","","101.88","","","","","","NA"
"-131.60","53.03","CUMSHEWA ISLAND","1062251","2022-08-24 01:00","2022","08","24","01:00","17.7","","15.2","","85","","","","29","","16","","","","101.85","","","","","","NA"
"-131.60","53.03","CUMSHEWA ISLAND","1062251","2022-08-24 02:00","2022","08","24","02:00","17.1","","15.1","","88","","","","28","","12","","","","101.85","","","","","","NA"
"-131.60","53.03","CUMSHEWA ISLAND","1062251","2022-08-24 03:00","2022","08","24","03:00","18.0","","15.2","","84","","","","29","","15","","","","101.82","","","","","","NA"
"-131.60","53.03","CUMSHEWA ISLAND","1062251","2022-08-24 04:00","2022","08","24","04:00","18.0","","14.4","","79","","","","29","","12","","","","101.79","","","","","","NA"
"-131.60","53.03","CUMSHEWA ISLAND","1062251","2022-08-24 05:00","2022","08","24","05:00","17.3","","14.3","","82","","","","30","","9","","","","101.76","","","","","","NA"
"-131.60","53.03","CUMSHEWA ISLAND","1062251","2022-08-24 06:00","2022","08","24","06:00","17.6","","14.4","","81","","","","30","","10","","","","101.75","","","","","","NA"
"-131.60","53.03","CUMSHEWA ISLAND","1062251","2022-08-24 07:00","2022","08","24","07:00","17.9","","14.5","","81","","","","28","","9","","","","101.76","","","","","","NA"
"-131.60","53.03","CUMSHEWA ISLAND","1062251","2022-08-24 08:00","2022","08","24","08:00","18.4","","14.9","","80","","","","35","","12","","","","101.74","","","","","","NA"
"-131.60","53.03","CUMSHEWA ISLAND","1062251","2022-08-24 09:00","2022","08","24","09:00","18.1","","15.5","","85","","","","35","","16","","","","101.71","","","","","","NA"
"-131.60","53.03","CUMSHEWA ISLAND","1062251","2022-08-24 10:00","2022","08","24","10:00","18.4","","15.3","","82","","","","36","","26","","","","101.65","","","","","","NA"
"-131.60","53.03","CUMSHEWA ISLAND","1062251","2022-08-24 11:00","2022","08","24","11:00","18.5","","15.4","","82","","","","36","","29","","","","101.63","","","","","","NA"
"-131.60","53.03","CUMSHEWA ISLAND","1062251","2022-08-24 12:00","2022","08","24","12:00","18.2","","15.9","","87","","","","36","","21","","","","101.62","","","","","","NA"
"-131.60","53.03","CUMSHEWA ISLAND","1062251","2022-08-24 13:00","2022","08","24","13:00","18.2","","16.3","","88","","","","1","","15","","","","101.59","","","","","","NA"
"-131.60","53.03","CUMSHEWA ISLAND","1062251","2022-08-24 14:00","2022","08","24","14:00","17.9","","16.3","","90","","","","1","","15","","","","101.55","","","","","","NA"
"-131.60","53.03","CUMSHEWA ISLAND","1062251","2022-08-24 15:00","2022","08","24","15:00","18.2","","16.5","","89","","","","36","","18","","","","101.49","","","","","","NA"
"-131.60","53.03","CUMSHEWA ISLAND","1062251","2022-08-24 16:00","2022","08","24","16:00","19.0","","16.3","","84","","","","1","","10","","","","101.47","","","","","","NA"
"-131.60","53.03","CUMSHEWA ISLAND","1062251","2022-08-24 17:00","2022","08","24","17:00","20.0","","16.6","","80","","","","5","","7","","","","101.46","","25","","","","NA"
"-131.60","53.03","CUMSHEWA ISLAND","1062251","2022-08-24 18:00","2022","08","24","18:00","19.9","","16.1","","79","","","","10","","4","","","","101.46","","","","","","NA"
"-131.60","53.03","CUMSHEWA ISLAND","1062251","2022-08-24 19:00","2022","08","24","19:00","20.0","","15.2","","74","","","","17","","2","","","","101.45","","","","","","NA"
"-131.60","53.03","CUMSHEWA ISLAND","1062251","2022-08-24 20:00","2022","08","24","20:00","18.9","","15.2","","79","","","","","","0","","","","101.48","","","","","","NA"
"-131.60","53.03","CUMSHEWA ISLAND","1062251","2022-08-24 21:00","2022","08","24","21:00","18.9","","14.9","","77","","","","23","","9","","","","101.51","","","","","","NA"
"-131.60","53.03","CUMSHEWA ISLAND","1062251","2022-08-24 22:00","2022","08","24","22:00","19.0","","14.2","","74","","","","27","","13","","","","101.51","","","","","","NA"
"-131.60","53.03","CUMSHEWA ISLAND","1062251","2022-08-24 23:00","2022","08","24","23:00","17.4","","14.4","","83","","","","28","","6","","","","101.52","","","","","","NA"
"-131.60","53.03","CUMSHEWA ISLAND","1062251","2022-08-25 00:00","2022","08","25","00:00","17.1","","15.1","","88","","","","31","","5","","","","101.57","","","","","","NA"
"-131.60","53.03","CUMSHEWA ISLAND","1062251","2022-08-25 01:00","2022","08","25","01:00","17.3","","14.5","","84","","","","22","","4","","","","101.58","","","","","","NA"
"-131.60","53.03","CUMSHEWA ISLAND","1062251","2022-08-25 02:00","2022","08","25","02:00","16.3","","14.6","","90","","","","31","","2","","","","101.61","","","","","","NA"
"-131.60","53.03","CUMSHEWA ISLAND","1062251","2022-08-25 03:00","2022","08","25","03:00","16.6","","15.2","","91","","","","2","","3","","","","101.62","","","","","","NA"
"-131.60","53.03","CUMSHEWA ISLAND","1062251","2022-08-25 04:00","2022","08","25","04:00","16.3","","15.0","","92","","","","34","","3","","","","101.64","","","","","","NA"
"-131.60","53.03","CUMSHEWA ISLAND","1062251","2022-08-25 05:00","2022","08","25","05:00","16.9","","14.6","","87","","","","27","","13","","","","101.64","","","","","","NA"
"-131.60","53.03","CUMSHEWA ISLAND","1062251","2022-08-25 06:00","2022","08","25","06:00","17.2","","14.4","","84","","","","26","","12","","","","101.65","","","","","","NA"
"-131.60","53.03","CUMSHEWA ISLAND","1062251","2022-08-25 07:00","2022","08","25","07:00","17.4","","14.7","","85","","","","26","","14","","","","101.69","","","","","","NA"
"-131.60","53.03","CUMSHEWA ISLAND","1062251","2022-08-25 08:00","2022","08","25","08:00","17.8","","15.1","","84","","","","35","","5","","","","101.70","","","","","","NA"
"-131.60","53.03","CUMSHEWA ISLAND","1062251","2022-08-25 09:00","2022","08","25","09:00","18.6","","15.3","","81","","","","27","","6","","","","101.69","","","","","","NA"
"-131.60","53.03","CUMSHEWA ISLAND","1062251","2022-08-25 10:00","2022","08","25","10:00","19.5","","15.1","","76","","","","24","","7","","","","101.68","","","","","","NA"
"-131.60","53.03","CUMSHEWA ISLAND","1062251","2022-08-25 11:00","2022","08","25","11:00","18.5","","15.5","","83","","","","17","","12","","","","101.68","","","","","","NA"
"-131.60","53.03","CUMSHEWA ISLAND","1062251","2022-08-25 12:00","2022","08","25","12:00","18.6","","15.7","","83","","","","11","","10","","","","101.68","","","","","","NA"
"-131.60","53.03","CUMSHEWA ISLAND","1062251","2022-08-25 13:00","2022","08","25","13:00","18.2","","15.7","","85","","","","7","","12","","","","101.68","","","","","","NA"
"-131.60","53.03","CUMSHEWA ISLAND","1062251","2022-08-25 14:00","2022","08","25","14:00","17.6","","16.0","","91","","","","11","","11","","","","101.69","","","","","","NA"
"-131.60","53.03","CUMSHEWA ISLAND","1062251","2022-08-25 15:00","2022","08","25","15:00","18.0","","16.4","","91","","","","15","","9","","","","101.65","","","","","","NA"
"-131.60","53.03","CUMSHEWA ISLAND","1062251","2022-08-25 16:00","2022","08","25","16:00","17.9","","16.3","","90","","","","14","","10","","","","101.63","","","","","","NA"
"-131.60","53.03","CUMSHEWA ISLAND","1062251","2022-08-25 17:00","2022","08","25","17:00","17.3","","15.9","","92","","","","11","","14","","","","101.61","","","","","","NA"
"-131.60","53.03","CUMSHEWA ISLAND","1062251","2022-08-25 18:00","2022","08","25","18:00","17.2","","16.1","","93","","","","13","","12","","","","101.61","","","","","","NA"
"-131.60","53.03","CUMSHEWA ISLAND","1062251","2022-08-25 19:00","2022","08","25","19:00","16.9","","15.8","","93","","","","9","","10","","","","101.60","","","","","","NA"
"-131.60","53.03","CUMSHEWA ISLAND","1062251","2022-08-25 20:00","2022","08","25","20:00","16.3","","15.3","","94","","","","8","","7","","","","101.63","","","","","","NA"
"-131.60","53.03","CUMSHEWA ISLAND","1062251","2022-08-25 21:00","2022","08","25","21:00","16.4","","15.5","","94","","","","8","","4","","","","101.65","","","","","","NA"
"-131.60","53.03","CUMSHEWA ISLAND","1062251","2022-08-25 22:00","2022","08","25","22:00","16.2","","15.4","","95","","","","36","","4","","","","101.64","","","","","","NA"
"-131.60","53.03","CUMSHEWA ISLAND","1062251","2022-08-25 23:00","2022","08","25","23:00","16.8","","14.5","","86","","","","31","","11","","","","101.64","","","","","","NA"
"-131.60","53.03","CUMSHEWA ISLAND","1062251","2022-08-26 00:00","2022","08","26","00:00","16.6","","12.6","","77","","","","29","","18","","","","101.64","","","","","","NA"
"-131.60","53.03","CUMSHEWA ISLAND","1062251","2022-08-26 01:00","2022","08","26","01:00","16.5","","11.5","","72","","","","29","","18","","","","101.65","","","","","","NA"
"-131.60","53.03","CUMSHEWA ISLAND","1062251","2022-08-26 02:00","2022","08","26","02:00","16.0","","10.8","","71","","","","30","","19","","","","101.66","","","","","","NA"
"-131.60","53.03","CUMSHEWA ISLAND","1062251","2022-08-26 03:00","2022","08","26","03:00","15.7","","10.6","","72","","","","29","","19","","","","101.65","","","","","","NA"
"-131.60","53.03","CUMSHEWA ISLAND","1062251","2022-08-26 04:00","2022","08","26","04:00","15.8","","10.5","","71","","","","27","","20","","","","101.63","","","","","","NA"
"-131.60","53.03","CUMSHEWA ISLAND","1062251","2022-08-26 05:00","2022","08","26","05:00","15.5","","10.3","","71","","","","29","","18","","","","101.60","","","","","","NA"
"-131.60","53.03","CUMSHEWA ISLAND","1062251","2022-08-26 06:00","2022","08","26","06:00","15.8","","10.1","","69","","","","29","","18","","","","101.61","","","","","","NA"
"-131.60","53.03","CUMSHEWA ISLAND","1062251","2022-08-26 07:00","2022","08","26","07:00","15.8","","10.0","","68","","","","28","","19","","","","101.61","","","","","","NA"
"-131.60","53.03","CUMSHEWA ISLAND","1062251","2022-08-26 08:00","2022","08","26","08:00","15.9","","10.8","","72","","","","29","","18","","","","101.64","","","","","","NA"
"-131.60","53.03","CUMSHEWA ISLAND","1062251","2022-08-26 09:00","2022","08","26","09:00","16.3","","11.1","","71","","","","29","","15","","","","101.64","","","","","","NA"
"-131.60","53.03","CUMSHEWA ISLAND","1062251","2022-08-26 10:00","2022","08","26","10:00","16.3","","11.3","","72","","","","27","","23","","","","101.67","","","","","","NA"
"-131.60","53.03","CUMSHEWA ISLAND","1062251","2022-08-26 11:00","2022","08","26","11:00","17.1","","11.0","","67","","","","29","","19","","","","101.68","","","","","","NA"
"-131.60","53.03","CUMSHEWA ISLAND","1062251","2022-08-26 12:00","2022","08","26","12:00","17.8","","11.0","","64","","","","26","","28","","","","101.68","","","","","","NA"
"-131.60","53.03","CUMSHEWA ISLAND","1062251","2022-08-26 13:00","2022","08","26","13:00","18.0","","10.8","","63","","","","26","","27","","","","101.66","","","","","","NA"
"-131.60","53.03","CUMSHEWA ISLAND","1062251","2022-08-26 14:00","2022","08","26","14:00","18.2","","11.0","","63","","","","27","","24","","","","101.68","","","","","","NA"
"-131.60","53.03","CUMSHEWA ISLAND","1062251","2022-08-26 15:00","2022","08","26","15:00","17.6","","10.8","","64","","","","27","","21","","","","101.69","","","","","","NA"
"-131.60","53.03","CUMSHEWA ISLAND","1062251","2022-08-26 16:00","2022","08","26","16:00","17.3","","11.2","","67","","","","29","","23","","","","101.70","","","","","","NA"
"-131.60","53.03","CUMSHEWA ISLAND","1062251","2022-08-26 17:00","2022","08","26","17:00","17.5","","11.0","","66","","","","29","","28","","","","101.67","","","","","","NA"
"-131.60","53.03","CUMSHEWA ISLAND","1062251","2022-08-26 18:00","2022","08","26","18:00","17.1","","10.6","","66","","","","28","","22","","","","101.65","","","","","","NA"
"-131.60","53.03","CUMSHEWA ISLAND","1062251","2022-08-26 19:00","2022","08","26","19:00","16.6","","10.4","","67","","","","28","","22","","","","101.67","","","","","","NA"
"-131.60","53.03","CUMSHEWA ISLAND","1062251","2022-08-26 20:00","2022","08","26","20:00","16.2","","10.2","","68","","","","29","","24","","","","101.64","","","","","","NA"
"-131.60","53.03","CUMSHEWA ISLAND","1062251","2022-08-26 21:00","2022","08","26","21:00","15.8","","10.1","","69","","","","29","","27","","","","101.61","","","","","","NA"
"-131.60","53.03","CUMSHEWA ISLAND","1062251","2022-08-26 22:00","2022","08","26","22:00","15.6","","10.2","","70","","","","28","","25","","","","101.62","","","","","","NA"
"-131.60","53.03","CUMSHEWA ISLAND","1062251","2022-08-26 23:00","2022","08","26","23:00","15.6","","10.1","","70","","","","29","","16","","","","101.62","","","","","","NA"
"-131.60","53.03","CUMSHEWA ISLAND","1062251","2022-08-27 00:00","2022","08","27","00:00","15.8","","9.9","","68","","","","27","","17","","","","101.54","","","","","","NA"
"-131.60","53.03","CUMSHEWA ISLAND","1062251","2022-08-27 01:00","2022","08","27","01:00","15.7","","10.5","","71","","","","29","","16","","","","101.53","","","","","","NA"
"-131.60","53.03","CUMSHEWA ISLAND","1062251","2022-08-27 02:00","2022","08","27","02:00","15.8","","11.0","","73","","","","29","","13","","","","101.52","","","","","","NA"
"-131.60","53.03","CUMSHEWA ISLAND","1062251","2022-08-27 03:00","2022","08","27","03:00","15.6","","10.9","","73","","","","29","","11","","","","101.47","","","","","","NA"
"-131.60","53.03","CUMSHEWA ISLAND","1062251","2022-08-27 04:00","2022","08","27","04:00","14.8","","12.1","","84","","","","24","","4","","","","101.43","","","","","","NA"
"-131.60","53.03","CUMSHEWA ISLAND","1062251","2022-08-27 05:00","2022","08","27","05:00","14.4","","12.6","","89","","","","27","","4","","","","101.39","","","","","","NA"
"-131.60","53.03","CUMSHEWA ISLAND","1062251","2022-08-27 06:00","2022","08","27","06:00","14.4","","12.5","","88","","","","28","","6","","","","101.32","","","","","","NA"
"-131.60","53.03","CUMSHEWA ISLAND","1062251","2022-08-27 07:00","2022","08","27","07:00","14.5","","13.0","","91","","","","24","","9","","","","101.28","","","","","","NA"
"-131.60","53.03","CUMSHEWA ISLAND","1062251","2022-08-27 08:00","2022","08","27","08:00","14.7","","12.8","","88","","","","20","","8","","","","101.25","","","","","","NA"
"-131.60","53.03","CUMSHEWA ISLAND","1062251","2022-08-27 09:00","2022","08","27","09:00","15.1","","12.6","","85","","","","19","","6","","","","101.19","","","","","","NA"
"-131.60","53.03","CUMSHEWA ISLAND","1062251","2022-08-27 10:00","2022","08","27","10:00","14.9","","13.5","","92","","","","19","","26","","","","101.14","","","","","","NA"
"-131.60","53.03","CUMSHEWA ISLAND","1062251","2022-08-27 11:00","2022","08","27","11:00","15.4","","13.9","","91","","","","18","","29","","","","101.11","","","","","","NA"
"-131.60","53.03","CUMSHEWA ISLAND","1062251","2022-08-27 12:00","2022","08","27","12:00","15.5","","14.0","","91","","","","17","","28","","","","101.04","","","","","","NA"
"-131.60","53.03","CUMSHEWA ISLAND","1062251","2022-08-27 13:00","2022","08","27","13:00","16.1","","14.5","","90","","","","18","","19","","","","101.01","","","","","","NA"
"-131.60","53.03","CUMSHEWA ISLAND","1062251","2022-08-27 14:00","2022","08","27","14:00","17.0","","14.8","","87","","","","10","","2","","","","100.99","","","","","","NA"
"-131.60","53.03","CUMSHEWA ISLAND","1062251","2022-08-27 15:00","2022","08","27","15:00","17.0","","14.8","","87","","","","22","","2","","","","100.97","","","","","","NA"
"-131.60","53.03","CUMSHEWA ISLAND","1062251","2022-08-27 16:00","2022","08","27","16:00","17.3","","14.8","","85","","","","23","","5","","","","100.92","","","","","","NA"
"-131.60","53.03","CUMSHEWA ISLAND","1062251","2022-08-27 17:00","2022","08","27","17:00","17.3","","14.4","","83","","","","23","","6","","","","100.86","","","","","","NA"
"-131.60","53.03","CUMSHEWA ISLAND","1062251","2022-08-27 18:00","2022","08","27","18:00","17.0","","14.1","","83","","","","28","","4","","","","100.81","","","","","","NA"
"-131.60","53.03","CUMSHEWA ISLAND","1062251","2022-08-27 19:00","2022","08","27","19:00","16.7","","13.8","","83","","","","27","","11","","","","100.78","","","","","","NA"
"-131.60","53.03","CUMSHEWA ISLAND","1062251","2022-08-27 20:00","2022","08","27","20:00","16.3","","13.7","","85","","","","28","","5","","","","100.78","","","","","","NA"
"-131.60","53.03","CUMSHEWA ISLAND","1062251","2022-08-27 21:00","2022","08","27","21:00","16.0","","13.8","","87","","","","26","","9","","","","100.78","","","","","","NA"
"-131.60","53.03","CUMSHEWA ISLAND","1062251","2022-08-27 22:00","2022","08","27","22:00","15.8","","13.8","","88","","","","22","","2","","","","100.75","","","","","","NA"
"-131.60","53.03","CUMSHEWA ISLAND","1062251","2022-08-27 23:00","2022","08","27","23:00","15.6","","13.7","","89","","","","25","","8","","","","100.71","","","","","","NA"
"-131.60","53.03","CUMSHEWA ISLAND","1062251","2022-08-28 00:00","2022","08","28","00:00","15.6","","14.3","","92","","","","25","","3","","","","100.70","","","","","","NA"
"-131.60","53.03","CUMSHEWA ISLAND","1062251","2022-08-28 01:00","2022","08","28","01:00","15.6","","14.0","","91","","","","20","","5","","","","100.66","","","","","","NA"
"-131.60","53.03","CUMSHEWA ISLAND","1062251","2022-08-28 02:00","2022","08","28","02:00","15.8","","13.7","","88","","","","19","","29","","","","100.65","","","","","","NA"
"-131.60","53.03","CUMSHEWA ISLAND","1062251","2022-08-28 03:00","2022","08","28","03:00","15.6","","13.6","","88","","","","19","","26","","","","100.58","","","","","","NA"
"-131.60","53.03","CUMSHEWA ISLAND","1062251","2022-08-28 04:00","2022","08","28","04:00","15.6","","13.6","","88","","","","16","","31","","","","100.51","","","","","","NA"
"-131.60","53.03","CUMSHEWA ISLAND","1062251","2022-08-28 05:00","2022","08","28","05:00","15.4","","13.4","","88","","","","16","","34","","","","100.44","","","","","","NA"
"-131.60","53.03","CUMSHEWA ISLAND","1062251","2022-08-28 06:00","2022","08","28","06:00","15.1","","14.3","","95","","","","16","","36","","","","100.41","","","","","","NA"
"-131.60","53.03","CUMSHEWA ISLAND","1062251","2022-08-28 07:00","2022","08","28","07:00","15.3","","14.6","","96","","","","17","","12","","","","100.40","","","","","","NA"
"-131.60","53.03","CUMSHEWA ISLAND","1062251","2022-08-28 08:00","2022","08","28","08:00","15.2","","14.6","","97","","","","16","","12","","","","100.35","","","","","","NA"
"-131.60","53.03","CUMSHEWA ISLAND","1062251","2022-08-28 09:00","2022","08","28","09:00","15.5","","14.6","","95","","","","17","","16","","","","100.32","","","","","","NA"
"-131.60","53.03","CUMSHEWA ISLAND","1062251","2022-08-28 10:00","2022","08","28","10:00","15.8","","14.6","","93","","","","21","","8","","","","100.32","","","","","","NA"
"-131.60","53.03","CUMSHEWA ISLAND","1062251","2022-08-28 11:00","2022","08","28","11:00","16.1","","15.0","","94","","","","16","","30","","","","100.27","","","","","","NA"
"-131.60","53.03","CUMSHEWA ISLAND","1062251","2022-08-28 12:00","2022","08","28","12:00","16.0","","15.1","","95","","","","15","","30","","","","100.26","","","","","","NA"
"-131.60","53.03","CUMSHEWA ISLAND","1062251","2022-08-28 13:00","2022","08","28","13:00","16.3","","15.2","","93","","","","15","","25","","","","100.25","","","","","","NA"
"-131.60","53.03","CUMSHEWA ISLAND","1062251","2022-08-28 14:00","2022","08","28","14:00","16.1","","15.2","","94","","","","15","","31","","","","100.25","","","","","","NA"
"-131.60","53.03","CUMSHEWA ISLAND","1062251","2022-08-28 15:00","2022","08","28","15:00","16.4","","15.3","","94","","","","15","","30","","","","100.20","","","","","","NA"
"-131.60","53.03","CUMSHEWA ISLAND","1062251","2022-08-28 16:00","2022","08","28","16:00","16.6","","15.6","","94","","","","15","","22","","","","100.13","","","","","","NA"
"-131.60","53.03","CUMSHEWA ISLAND","1062251","2022-08-28 17:00","2022","08","28","17:00","16.4","","15.5","","95","","","","15","","35","","","","100.08","","","","","","NA"
"-131.60","53.03","CUMSHEWA ISLAND","1062251","2022-08-28 18:00","2022","08","28","18:00","16.3","","15.5","","95","","","","14","","31","","","","100.04","","","","","","NA"
"-131.60","53.03","CUMSHEWA ISLAND","1062251","2022-08-28 19:00","2022","08","28","19:00","16.2","","15.5","","95","","","","16","","34","","","","100.02","","","","","","NA"
"-131.60","53.03","CUMSHEWA ISLAND","1062251","2022-08-28 20:00","2022","08","28","20:00","16.0","","15.5","","97","","","","15","","24","","","","100.03","","","","","","NA"
"-131.60","53.03","CUMSHEWA ISLAND","1062251","2022-08-28 21:00","2022","08","28","21:00","16.2","","15.7","","97","","","","16","","28","","","","100.04","","","","","","NA"
"-131.60","53.03","CUMSHEWA ISLAND","1062251","2022-08-28 22:00","2022","08","28","22:00","17.5","","15.7","","89","","","","16","","8","","","","100.10","","","","","","NA"
"-131.60","53.03","CUMSHEWA ISLAND","1062251","2022-08-28 23:00","2022","08","28","23:00","18.6","","13.8","","74","","","","24","","17","","","","100.17","","","","","","NA"
"-131.60","53.03","CUMSHEWA ISLAND","1062251","2022-08-29 00:00","2022","08","29","00:00","17.4","","13.9","","80","","","","22","","27","","","","100.23","","","","","","NA"
"-131.60","53.03","CUMSHEWA ISLAND","1062251","2022-08-29 01:00","2022","08","29","01:00","16.7","","14.5","","87","","","","20","","36","","","","100.29","","","","","","NA"
"-131.60","53.03","CUMSHEWA ISLAND","1062251","2022-08-29 02:00","2022","08","29","02:00","16.3","","14.4","","89","","","","18","","12","","","","100.38","","","","","","NA"
"-131.60","53.03","CUMSHEWA ISLAND","1062251","2022-08-29 03:00","2022","08","29","03:00","16.1","","14.6","","91","","","","17","","15","","","","100.44","","","","","","NA"
"-131.60","53.03","CUMSHEWA ISLAND","1062251","2022-08-29 04:00","2022","08","29","04:00","16.0","","14.8","","93","","","","18","","29","","","","100.45","","","","","","NA"
"-131.60","53.03","CUMSHEWA ISLAND","1062251","2022-08-29 05:00","2022","08","29","05:00","16.1","","15.0","","93","","","","18","","23","","","","100.48","","","","","","NA"
"-131.60","53.03","CUMSHEWA ISLAND","1062251","2022-08-29 06:00","2022","08","29","06:00","15.5","","14.9","","96","","","","17","","21","","","","100.52","","","","","","NA"
"-131.60","53.03","CUMSHEWA ISLAND","1062251","2022-08-29 07:00","2022","08","29","07:00","15.7","","15.3","","97","","","","15","","21","","","","100.48","","","","","","NA"
"-131.60","53.03","CUMSHEWA ISLAND","1062251","2022-08-29 08:00","2022","08","29","08:00","15.7","","15.3","","98","","","","16","","27","","","","100.50","","","","","","NA"
"-131.60","53.03","CUMSHEWA ISLAND","1062251","2022-08-29 09:00","2022","08","29","09:00","15.6","","15.3","","98","","","","15","","22","","","","100.54","","","","","","NA"
"-131.60","53.03","CUMSHEWA ISLAND","1062251","2022-08-29 10:00","2022","08","29","10:00","15.5","","15.2","","98","","","","16","","26","","","","100.57","","","","","","NA"
"-131.60","53.03","CUMSHEWA ISLAND","1062251","2022-08-29 11:00","2022","08","29","11:00","15.3","","15.0","","98","","","","16","","15","","","","100.56","","","","","","NA"
"-131.60","53.03","CUMSHEWA ISLAND","1062251","2022-08-29 12:00","2022","08","29","12:00","15.9","","15.7","","99","","","","17","","18","","","","100.54","","","","","","NA"
"-131.60","53.03","CUMSHEWA ISLAND","1062251","2022-08-29 13:00","2022","08","29","13:00","15.6","","15.1","","97","","","","15","","24","","","","100.53","","","","","","NA"
"-131.60","53.03","CUMSHEWA ISLAND","1062251","2022-08-29 14:00","2022","08","29","14:00","15.6","","15.3","","98","","","","15","","30","","","","100.55","","","","","","NA"
"-131.60","53.03","CUMSHEWA ISLAND","1062251","2022-08-29 15:00","2022","08","29","15:00","15.5","","15.2","","98","","","","16","","26","","","","100.57","","","","","","NA"
"-131.60","53.03","CUMSHEWA ISLAND","1062251","2022-08-29 16:00","2022","08","29","16:00","16.4","","16.0","","98","","","","16","","23","","","","100.57","","","","","","NA"
"-131.60","53.03","CUMSHEWA ISLAND","1062251","2022-08-29 17:00","2022","08","29","17:00","16.5","","15.8","","96","","","","17","","20","","","","100.55","","","","","","NA"
"-131.60","53.03","CUMSHEWA ISLAND","1062251","2022-08-29 18:00","2022","08","29","18:00","16.6","","15.9","","96","","","","16","","23","","","","100.56","","","","","","NA"
"-131.60","53.03","CUMSHEWA ISLAND","1062251","2022-08-29 19:00","2022","08","29","19:00","16.5","","15.8","","96","","","","16","","31","","","","100.57","","","","","","NA"
"-131.60","53.03","CUMSHEWA ISLAND","1062251","2022-08-29 20:00","2022","08","29","20:00","16.2","","15.7","","97","","","","15","","33","","","","100.54","","","","","","NA"
"-131.60","53.03","CUMSHEWA ISLAND","1062251","2022-08-29 21:00","2022","08","29","21:00","15.8","","15.4","","98","","","","15","","43","","","","100.43","","","","","","NA"
"-131.60","53.03","CUMSHEWA ISLAND","1062251","2022-08-29 22:00","2022","08","29","22:00","15.7","","15.4","","98","","","","15","","46","","","","100.41","","","","","","NA"
"-131.60","53.03","CUMSHEWA ISLAND","1062251","2022-08-29 23:00","2022","08","29","23:00","15.7","","15.5","","99","","","","15","","38","","","","100.39","","","","","","NA"
"-131.60","53.03","CUMSHEWA ISLAND","1062251","2022-08-30 00:00","2022","08","30","00:00","16.3","","15.9","","98","","","","16","","36","","","","100.43","","","","","","NA"
"-131.60","53.03","CUMSHEWA ISLAND","1062251","2022-08-30 01:00","2022","08","30","01:00","15.8","","15.5","","98","","","","16","","34","","","","100.53","","","","","","NA"
"-131.60","53.03","CUMSHEWA ISLAND","1062251","2022-08-30 02:00","2022","08","30","02:00","16.5","","16.1","","97","","","","16","","40","","","","100.62","","","","","","NA"
"-131.60","53.03","CUMSHEWA ISLAND","1062251","2022-08-30 03:00","2022","08","30","03:00","17.1","","15.4","","90","","","","19","","37","","","","100.76","","","","","","NA"
"-131.60","53.03","CUMSHEWA ISLAND","1062251","2022-08-30 04:00","2022","08","30","04:00","16.7","","15.3","","91","","","","24","","16","","","","100.90","","","","","","NA"
"-131.60","53.03","CUMSHEWA ISLAND","1062251","2022-08-30 05:00","2022","08","30","05:00","16.7","","14.7","","88","","","","29","","15","","","","101.02","","","","","","NA"
"-131.60","53.03","CUMSHEWA ISLAND","1062251","2022-08-30 06:00","2022","08","30","06:00","16.3","","14.3","","88","","","","24","","8","","","","101.12","","","","","","NA"
"-131.60","53.03","CUMSHEWA ISLAND","1062251","2022-08-30 07:00","2022","08","30","07:00","15.9","","14.4","","91","","","","27","","13","","","","101.21","","","","","","NA"
"-131.60","53.03","CUMSHEWA ISLAND","1062251","2022-08-30 08:00","2022","08","30","08:00","15.5","","14.3","","92","","","","24","","10","","","","101.32","","","","","","NA"
"-131.60","53.03","CUMSHEWA ISLAND","1062251","2022-08-30 09:00","2022","08","30","09:00","15.5","","14.3","","93","","","","24","","8","","","","101.37","","","","","","NA"
"-131.60","53.03","CUMSHEWA ISLAND","1062251","2022-08-30 10:00","2022","08","30","10:00","16.4","","14.9","","91","","","","29","","3","","","","101.43","","","","","","NA"
"-131.60","53.03","CUMSHEWA ISLAND","1062251","2022-08-30 11:00","2022","08","30","11:00","16.2","","14.4","","89","","","","23","","9","","","","101.47","","","","","","NA"
"-131.60","53.03","CUMSHEWA ISLAND","1062251","2022-08-30 12:00","2022","08","30","12:00","17.1","","14.6","","85","","","","19","","4","","","","101.53","","","","","","NA"
"-131.60","53.03","CUMSHEWA ISLAND","1062251","2022-08-30 13:00","2022","08","30","13:00","16.0","","14.3","","89","","","","9","","5","","","","101.55","","","","","","NA"
"-131.60","53.03","CUMSHEWA ISLAND","1062251","2022-08-30 14:00","2022","08","30","14:00","15.8","","14.3","","91","","","","6","","4","","","","101.54","","","","","","NA"
"-131.60","53.03","CUMSHEWA ISLAND","1062251","2022-08-30 15:00","2022","08","30","15:00","15.9","","14.5","","92","","","","10","","4","","","","101.53","","","","","","NA"
"-131.60","53.03","CUMSHEWA ISLAND","1062251","2022-08-30 16:00","2022","08","30","16:00","15.6","","14.5","","93","","","","8","","6","","","","101.50","","","","","","NA"
"-131.60","53.03","CUMSHEWA ISLAND","1062251","2022-08-30 17:00","2022","08","30","17:00","15.8","","14.9","","94","","","","5","","3","","","","101.45","","","","","","NA"
"-131.60","53.03","CUMSHEWA ISLAND","1062251","2022-08-30 18:00","2022","08","30","18:00","15.6","","14.9","","96","","","","15","","7","","","","101.44","","","","","","NA"
"-131.60","53.03","CUMSHEWA ISLAND","1062251","2022-08-30 19:00","2022","08","30","19:00","15.7","","15.1","","96","","","","15","","4","","","","101.40","","","","","","NA"
"-131.60","53.03","CUMSHEWA ISLAND","1062251","2022-08-30 20:00","2022","08","30","20:00","15.3","","14.8","","97","","","","14","","12","","","","101.37","","","","","","NA"
"-131.60","53.03","CUMSHEWA ISLAND","1062251","2022-08-30 21:00","2022","08","30","21:00","15.2","","14.8","","97","","","","14","","25","","","","101.38","","","","","","NA"
"-131.60","53.03","CUMSHEWA ISLAND","1062251","2022-08-30 22:00","2022","08","30","22:00","16.2","","15.1","","93","","","","16","","24","","","","101.37","","","","","","NA"
"-131.60","53.03","CUMSHEWA ISLAND","1062251","2022-08-30 23:00","2022","08","30","23:00","16.2","","14.7","","91","","","","15","","20","","","","101.35","","","","","","NA"
"-131.60","53.03","CUMSHEWA ISLAND","1062251","2022-08-31 00:00","2022","08","31","00:00","16.3","","14.4","","89","","","","15","","26","","","","101.32","","","","","","NA"
"-131.60","53.03","CUMSHEWA ISLAND","1062251","2022-08-31 01:00","2022","08","31","01:00","17.7","","14.7","","83","","","","19","","23","","","","101.34","","","","","","NA"
"-131.60","53.03","CUMSHEWA ISLAND","1062251","2022-08-31 02:00","2022","08","31","02:00","16.5","","14.2","","86","","","","19","","19","","","","101.29","","","","","","NA"
"-131.60","53.03","CUMSHEWA ISLAND","1062251","2022-08-31 03:00","2022","08","31","03:00","16.2","","14.5","","90","","","","17","","23","","","","101.28","","","","","","NA"
"-131.60","53.03","CUMSHEWA ISLAND","1062251","2022-08-31 04:00","2022","08","31","04:00","15.8","","14.5","","92","","","","16","","23","","","","101.26","","","","","","NA"
"-131.60","53.03","CUMSHEWA ISLAND","1062251","2022-08-31 05:00","2022","08","31","05:00","16.3","","14.8","","91","","","","17","","27","","","","101.25","","","","","","NA"
"-131.60","53.03","CUMSHEWA ISLAND","1062251","2022-08-31 06:00","2022","08","31","06:00","16.2","","14.8","","91","","","","17","","25","","","","101.24","","","","","","NA"
"-131.60","53.03","CUMSHEWA ISLAND","1062251","2022-08-31 07:00","2022","08","31","07:00","17.0","","15.2","","90","","","","17","","20","","","","101.30","","","","","","NA"
"-131.60","53.03","CUMSHEWA ISLAND","1062251","2022-08-31 08:00","2022","08","31","08:00","17.1","","15.0","","88","","","","17","","23","","","","101.28","","","","","","NA"
"-131.60","53.03","CUMSHEWA ISLAND","1062251","2022-08-31 09:00","2022","08","31","09:00","17.1","","15.0","","88","","","","16","","22","","","","101.31","","","","","","NA"
"-131.60","53.03","CUMSHEWA ISLAND","1062251","2022-08-31 10:00","2022","08","31","10:00","18.0","","15.0","","83","","","","17","","23","","","","101.34","","","","","","NA"
"-131.60","53.03","CUMSHEWA ISLAND","1062251","2022-08-31 11:00","2022","08","31","11:00","19.2","","15.3","","78","","","","21","","10","","","","101.33","","","","","","NA"
"-131.60","53.03","CUMSHEWA ISLAND","1062251","2022-08-31 12:00","2022","08","31","12:00","20.0","","14.7","","71","","","","28","","14","","","","101.33","","","","","","NA"
"-131.60","53.03","CUMSHEWA ISLAND","1062251","2022-08-31 13:00","2022","08","31","13:00","19.1","","15.2","","78","","","","16","","8","","","","101.39","","","","","","NA"
"-131.60","53.03","CUMSHEWA ISLAND","1062251","2022-08-31 14:00","2022","08","31","14:00","20.8","","15.5","","72","","","","4","","2","","","","101.40","","25","","","","NA"
"-131.60","53.03","CUMSHEWA ISLAND","1062251","2022-08-31 15:00","2022","08","31","15:00","17.1","","14.2","","83","","","","7","","6","","","","101.43","","","","","","NA"
"-131.60","53.03","CUMSHEWA ISLAND","1062251","2022-08-31 16:00","2022","08","31","16:00","17.8","","15.0","","84","","","","1","","6","","","","101.43","","","","","","NA"
"-131.60","53.03","CUMSHEWA ISLAND","1062251","2022-08-31 17:00","2022","08","31","17:00","16.7","","14.6","","87","","","","36","","26","","","","101.46","","","","","","NA"
"-131.60","53.03","CUMSHEWA ISLAND","1062251","2022-08-31 18:00","2022","08","31","18:00","16.2","","13.8","","86","","","","36","","22","","","","101.48","","","","","","NA"
"-131.60","53.03","CUMSHEWA ISLAND","1062251","2022-08-31 19:00","2022","08","31","19:00","15.7","","13.2","","85","","","","1","","11","","","","101.50","","","","","","NA"
"-131.60","53.03","CUMSHEWA ISLAND","1062251","2022-08-31 20:00","2022","08","31","20:00","15.7","","12.6","","82","","","","36","","13","","","","101.51","","","","","","NA"
"-131.60","53.03","CUMSHEWA ISLAND","1062251","2022-08-31 21:00","2022","08","31","21:00","15.6","","12.6","","82","","","","1","","11","","","","101.54","","","","","","NA"
"-131.60","53.03","CUMSHEWA ISLAND","1062251","2022-08-31 22:00","2022","08","31","22:00","15.4","","12.3","","81","","","","29","","7","","","","101.52","","","","","","NA"
"-131.60","53.03","CUMSHEWA ISLAND","1062251","2022-08-31 23:00","2022","08","31","23:00","15.6","","12.3","","81","","","","34","","9","","","","101.53","","","","","","NA"
