"Longitude (x)","Latitude (y)","Station Name","Climate ID","Date/Time (LST)","Year","Month","Day","Time (LST)","Temp (°C)","Temp Flag","Dew Point Temp (°C)","Dew Point Temp Flag","Rel Hum (%)","Rel Hum Flag","Precip. Amount (mm)","Precip. Amount Flag","Wind Dir (10s deg)","Wind Dir Flag","Wind Spd (km/h)","Wind Spd Flag","Visibility (km)","Visibility Flag","Stn Press (kPa)","Stn Press Flag","Hmdx","Hmdx Flag","Wind Chill","Wind Chill Flag","Weather"
"-80.37","45.03","WESTERN ISLAND (AUT)","6119M51","2018-05-01 00:00","2018","05","01","00:00","9.5","","-5.8","","33","","","M","16","","21","","","","99.26","","","","","","NA"
"-80.37","45.03","WESTERN ISLAND (AUT)","6119M51","2018-05-01 01:00","2018","05","01","01:00","9.0","","-5.0","","37","","","M","17","","22","","","","99.21","","","","","","NA"
"-80.37","45.03","WESTERN ISLAND (AUT)","6119M51","2018-05-01 02:00","2018","05","01","02:00","7.7","","-3.0","","47","","","M","17","","19","","","","99.17","","","","","","NA"
"-80.37","45.03","WESTERN ISLAND (AUT)","6119M51","2018-05-01 03:00","2018","05","01","03:00","8.6","","-2.0","","47","","","M","19","","18","","","","99.14","","","","","","NA"
"-80.37","45.03","WESTERN ISLAND (AUT)","6119M51","2018-05-01 04:00","2018","05","01","04:00","7.4","","-1.2","","54","","","M","18","","16","","","","99.13","","","","","","NA"
"-80.37","45.03","WESTERN ISLAND (AUT)","6119M51","2018-05-01 05:00","2018","05","01","05:00","7.2","","-1.3","","55","","","M","17","","21","","","","99.13","","","","","","NA"
"-80.37","45.03","WESTERN ISLAND (AUT)","6119M51","2018-05-01 06:00","2018","05","01","06:00","8.5","","-1.3","","50","","","M","20","","29","","","","99.11","","","","","","NA"
"-80.37","45.03","WESTERN ISLAND (AUT)","6119M51","2018-05-01 07:00","2018","05","01","07:00","9.7","","-1.1","","47","","","M","21","","28","","","","99.14","","","","","","NA"
"-80.37","45.03","WESTERN ISLAND (AUT)","6119M51","2018-05-01 08:00","2018","05","01","08:00","9.5","","-1.1","","48","","","M","21","","20","","","","99.14","","","","","","NA"
"-80.37","45.03","WESTERN ISLAND (AUT)","6119M51","2018-05-01 09:00","2018","05","01","09:00","11.5","","-1.3","","41","","","M","20","","18","","","","99.11","","","","","","NA"
"-80.37","45.03","WESTERN ISLAND (AUT)","6119M51","2018-05-01 10:00","2018","05","01","10:00","11.1","","-1.2","","42","","","M","20","","19","","","","99.08","","","","","","NA"
"-80.37","45.03","WESTERN ISLAND (AUT)","6119M51","2018-05-01 11:00","2018","05","01","11:00","12.9","","-0.8","","39","","","M","19","","15","","","","99.06","","","","","","NA"
"-80.37","45.03","WESTERN ISLAND (AUT)","6119M51","2018-05-01 12:00","2018","05","01","12:00","12.3","","-0.2","","42","","","M","19","","8","","","","99.05","","","","","","NA"
"-80.37","45.03","WESTERN ISLAND (AUT)","6119M51","2018-05-01 13:00","2018","05","01","13:00","13.2","","0.2","","41","","","M","19","","6","","","","99.00","","","","","","NA"
"-80.37","45.03","WESTERN ISLAND (AUT)","6119M51","2018-05-01 14:00","2018","05","01","14:00","14.1","","0.3","","39","","","M","15","","14","","","","98.92","","","","","","NA"
"-80.37","45.03","WESTERN ISLAND (AUT)","6119M51","2018-05-01 15:00","2018","05","01","15:00","15.1","","0.8","","38","","","M","16","","11","","","","98.85","","","","","","NA"
"-80.37","45.03","WESTERN ISLAND (AUT)","6119M51","2018-05-01 16:00","2018","05","01","16:00","15.3","","1.7","","40","","","M","17","","14","","","","98.81","","","","","","NA"
"-80.37","45.03","WESTERN ISLAND (AUT)","6119M51","2018-05-01 17:00","2018","05","01","17:00","18.6","","3.6","","37","","","M","21","","20","","","","98.76","","","","","","NA"
"-80.37","45.03","WESTERN ISLAND (AUT)","6119M51","2018-05-01 18:00","2018","05","01","18:00","16.4","","3.3","","42","","","M","23","","21","","","","98.76","","","","","","NA"
"-80.37","45.03","WESTERN ISLAND (AUT)","6119M51","2018-05-01 19:00","2018","05","01","19:00","20.1","","3.7","","34","","","M","24","","27","","","","98.75","","","","","","NA"
"-80.37","45.03","WESTERN ISLAND (AUT)","6119M51","2018-05-01 20:00","2018","05","01","20:00","19.6","","3.1","","34","","","M","23","","45","","","","98.73","","","","","","NA"
"-80.37","45.03","WESTERN ISLAND (AUT)","6119M51","2018-05-01 21:00","2018","05","01","21:00","17.7","","4.5","","42","","","M","23","","44","","","","98.76","","","","","","NA"
"-80.37","45.03","WESTERN ISLAND (AUT)","6119M51","2018-05-01 22:00","2018","05","01","22:00","13.8","","4.0","","52","","","M","24","","38","","","","98.78","","","","","","NA"
"-80.37","45.03","WESTERN ISLAND (AUT)","6119M51","2018-05-01 23:00","2018","05","01","23:00","16.3","","5.2","","48","","","M","24","","43","","","","98.77","","","","","","NA"
"-80.37","45.03","WESTERN ISLAND (AUT)","6119M51","2018-05-02 00:00","2018","05","02","00:00","18.3","","6.4","","46","","","M","25","","47","","","","98.79","","","","","","NA"
"-80.37","45.03","WESTERN ISLAND (AUT)","6119M51","2018-05-02 01:00","2018","05","02","01:00","13.2","","5.5","","59","","","M","23","","42","","","","98.77","","","","","","NA"
"-80.37","45.03","WESTERN ISLAND (AUT)","6119M51","2018-05-02 02:00","2018","05","02","02:00","16.3","","5.1","","48","","","M","22","","41","","","","98.71","","","","","","NA"
"-80.37","45.03","WESTERN ISLAND (AUT)","6119M51","2018-05-02 03:00","2018","05","02","03:00","12.6","","4.5","","58","","","M","23","","40","","","","98.71","","","","","","NA"
"-80.37","45.03","WESTERN ISLAND (AUT)","6119M51","2018-05-02 04:00","2018","05","02","04:00","11.8","","5.0","","63","","","M","24","","36","","","","98.72","","","","","","NA"
"-80.37","45.03","WESTERN ISLAND (AUT)","6119M51","2018-05-02 05:00","2018","05","02","05:00","14.3","","4.9","","53","","","M","24","","49","","","","98.72","","","","","","NA"
"-80.37","45.03","WESTERN ISLAND (AUT)","6119M51","2018-05-02 06:00","2018","05","02","06:00","11.7","","4.1","","59","","","M","24","","41","","","","98.75","","","","","","NA"
"-80.37","45.03","WESTERN ISLAND (AUT)","6119M51","2018-05-02 07:00","2018","05","02","07:00","14.7","","5.0","","52","","","M","24","","49","","","","98.71","","","","","","NA"
"-80.37","45.03","WESTERN ISLAND (AUT)","6119M51","2018-05-02 08:00","2018","05","02","08:00","8.5","","3.5","","71","","","M","22","","21","","","","98.72","","","","","","NA"
"-80.37","45.03","WESTERN ISLAND (AUT)","6119M51","2018-05-02 09:00","2018","05","02","09:00","8.5","","3.6","","71","","","M","30","","41","","","","98.82","","","","","","NA"
"-80.37","45.03","WESTERN ISLAND (AUT)","6119M51","2018-05-02 10:00","2018","05","02","10:00","15.5","","9.0","","65","","","M","23","","34","","","","98.66","","","","","","NA"
"-80.37","45.03","WESTERN ISLAND (AUT)","6119M51","2018-05-02 11:00","2018","05","02","11:00","7.8","","4.7","","81","","","M","25","","20","","","","98.75","","","","","","NA"
"-80.37","45.03","WESTERN ISLAND (AUT)","6119M51","2018-05-02 12:00","2018","05","02","12:00","11.2","","8.8","","86","","","M","22","","27","","","","98.73","","","","","","NA"
"-80.37","45.03","WESTERN ISLAND (AUT)","6119M51","2018-05-02 13:00","2018","05","02","13:00","12.2","","8.1","","76","","","M","23","","37","","","","98.65","","","","","","NA"
"-80.37","45.03","WESTERN ISLAND (AUT)","6119M51","2018-05-02 14:00","2018","05","02","14:00","11.9","","8.6","","80","","","M","24","","38","","","","98.69","","","","","","NA"
"-80.37","45.03","WESTERN ISLAND (AUT)","6119M51","2018-05-02 15:00","2018","05","02","15:00","9.8","","7.8","","87","","","M","27","","28","","","","98.78","","","","","","NA"
"-80.37","45.03","WESTERN ISLAND (AUT)","6119M51","2018-05-02 16:00","2018","05","02","16:00","11.7","","9.8","","88","","","M","30","","39","","","","98.84","","","","","","NA"
"-80.37","45.03","WESTERN ISLAND (AUT)","6119M51","2018-05-02 17:00","2018","05","02","17:00","15.1","","11.9","","81","","","M","31","","27","","","","98.83","","","","","","NA"
"-80.37","45.03","WESTERN ISLAND (AUT)","6119M51","2018-05-02 18:00","2018","05","02","18:00","13.1","","10.7","","85","","","M","30","","18","","","","98.85","","","","","","NA"
"-80.37","45.03","WESTERN ISLAND (AUT)","6119M51","2018-05-02 19:00","2018","05","02","19:00","12.1","","10.6","","90","","","M","24","","6","","","","98.82","","","","","","NA"
"-80.37","45.03","WESTERN ISLAND (AUT)","6119M51","2018-05-02 20:00","2018","05","02","20:00","8.8","","8.1","","95","","","M","14","","7","","","","98.87","","","","","","NA"
"-80.37","45.03","WESTERN ISLAND (AUT)","6119M51","2018-05-02 21:00","2018","05","02","21:00","11.3","","10.8","","97","","","M","30","","3","","","","98.91","","","","","","NA"
"-80.37","45.03","WESTERN ISLAND (AUT)","6119M51","2018-05-02 22:00","2018","05","02","22:00","8.8","","8.2","","97","","","M","3","","16","","","","98.86","","","","","","NA"
"-80.37","45.03","WESTERN ISLAND (AUT)","6119M51","2018-05-02 23:00","2018","05","02","23:00","9.9","","9.5","","97","","","M","11","","7","","","","98.89","","","","","","NA"
"-80.37","45.03","WESTERN ISLAND (AUT)","6119M51","2018-05-03 00:00","2018","05","03","00:00","9.4","","9.0","","97","","","M","11","","9","","","","98.83","","","","","","NA"
"-80.37","45.03","WESTERN ISLAND (AUT)","6119M51","2018-05-03 01:00","2018","05","03","01:00","10.1","","9.6","","97","","","M","12","","14","","","","98.76","","","","","","NA"
"-80.37","45.03","WESTERN ISLAND (AUT)","6119M51","2018-05-03 02:00","2018","05","03","02:00","12.0","","11.6","","97","","","M","16","","17","","","","98.79","","","","","","NA"
"-80.37","45.03","WESTERN ISLAND (AUT)","6119M51","2018-05-03 03:00","2018","05","03","03:00","12.5","","12.1","","97","","","M","21","","9","","","","98.80","","","","","","NA"
"-80.37","45.03","WESTERN ISLAND (AUT)","6119M51","2018-05-03 04:00","2018","05","03","04:00","12.1","","11.7","","97","","","M","19","","7","","","","98.78","","","","","","NA"
"-80.37","45.03","WESTERN ISLAND (AUT)","6119M51","2018-05-03 05:00","2018","05","03","05:00","5.4","","5.0","","98","","","M","36","","25","","","","98.82","","","","","","NA"
"-80.37","45.03","WESTERN ISLAND (AUT)","6119M51","2018-05-03 06:00","2018","05","03","06:00","6.0","","5.6","","97","","","M","1","","24","","","","98.80","","","","","","NA"
"-80.37","45.03","WESTERN ISLAND (AUT)","6119M51","2018-05-03 07:00","2018","05","03","07:00","6.0","","5.6","","97","","","M","36","","21","","","","98.86","","","","","","NA"
"-80.37","45.03","WESTERN ISLAND (AUT)","6119M51","2018-05-03 08:00","2018","05","03","08:00","4.4","","4.1","","98","","","M","29","","14","","","","98.90","","","","","","NA"
"-80.37","45.03","WESTERN ISLAND (AUT)","6119M51","2018-05-03 09:00","2018","05","03","09:00","3.2","","2.9","","98","","","M","29","","18","","","","98.91","","","","","","NA"
"-80.37","45.03","WESTERN ISLAND (AUT)","6119M51","2018-05-03 10:00","2018","05","03","10:00","2.8","","2.5","","98","","","M","29","","28","","","","99.00","","","","","","NA"
"-80.37","45.03","WESTERN ISLAND (AUT)","6119M51","2018-05-03 11:00","2018","05","03","11:00","3.6","","3.4","","98","","","M","29","","27","","","","99.10","","","","","","NA"
"-80.37","45.03","WESTERN ISLAND (AUT)","6119M51","2018-05-03 12:00","2018","05","03","12:00","5.3","","4.9","","98","","","M","27","","21","","","","99.05","","","","","","NA"
"-80.37","45.03","WESTERN ISLAND (AUT)","6119M51","2018-05-03 13:00","2018","05","03","13:00","3.8","","3.5","","98","","","M","27","","30","","","","99.12","","","","","","NA"
"-80.37","45.03","WESTERN ISLAND (AUT)","6119M51","2018-05-03 14:00","2018","05","03","14:00","3.7","","3.4","","98","","","M","26","","24","","","","99.15","","","","","","NA"
"-80.37","45.03","WESTERN ISLAND (AUT)","6119M51","2018-05-03 15:00","2018","05","03","15:00","4.0","","3.7","","98","","","M","28","","11","","","","99.10","","","","","","NA"
"-80.37","45.03","WESTERN ISLAND (AUT)","6119M51","2018-05-03 16:00","2018","05","03","16:00","3.2","","2.9","","98","","","M","32","","17","","","","99.13","","","","","","NA"
"-80.37","45.03","WESTERN ISLAND (AUT)","6119M51","2018-05-03 17:00","2018","05","03","17:00","3.7","","3.2","","97","","","M","31","","14","","","","99.14","","","","","","NA"
"-80.37","45.03","WESTERN ISLAND (AUT)","6119M51","2018-05-03 18:00","2018","05","03","18:00","3.6","","3.0","","96","","","M","33","","11","","","","99.18","","","","","","NA"
"-80.37","45.03","WESTERN ISLAND (AUT)","6119M51","2018-05-03 19:00","2018","05","03","19:00","3.5","","3.2","","97","","","M","34","","10","","","","99.21","","","","","","NA"
"-80.37","45.03","WESTERN ISLAND (AUT)","6119M51","2018-05-03 20:00","2018","05","03","20:00","4.0","","3.6","","98","","","M","32","","6","","","","99.24","","","","","","NA"
"-80.37","45.03","WESTERN ISLAND (AUT)","6119M51","2018-05-03 21:00","2018","05","03","21:00","3.5","","3.1","","98","","","M","36","","4","","","","99.30","","","","","","NA"
"-80.37","45.03","WESTERN ISLAND (AUT)","6119M51","2018-05-03 22:00","2018","05","03","22:00","2.9","","2.6","","98","","","M","5","","6","","","","99.24","","","","","","NA"
"-80.37","45.03","WESTERN ISLAND (AUT)","6119M51","2018-05-03 23:00","2018","05","03","23:00","2.9","","2.6","","98","","","M","5","","14","","","","99.17","","","","","","NA"
"-80.37","45.03","WESTERN ISLAND (AUT)","6119M51","2018-05-04 00:00","2018","05","04","00:00","2.5","","2.2","","98","","","M","9","","14","","","","99.09","","","","","","NA"
"-80.37","45.03","WESTERN ISLAND (AUT)","6119M51","2018-05-04 01:00","2018","05","04","01:00","2.1","","1.9","","98","","","M","13","","9","","","","99.16","","","","","","NA"
"-80.37","45.03","WESTERN ISLAND (AUT)","6119M51","2018-05-04 02:00","2018","05","04","02:00","5.1","","4.8","","98","","","M","15","","20","","","","99.02","","","","","","NA"
"-80.37","45.03","WESTERN ISLAND (AUT)","6119M51","2018-05-04 03:00","2018","05","04","03:00","2.8","","2.6","","98","","","M","10","","24","","","","98.82","","","","","","NA"
"-80.37","45.03","WESTERN ISLAND (AUT)","6119M51","2018-05-04 04:00","2018","05","04","04:00","4.8","","4.5","","98","","","M","11","","36","","","","98.66","","","","","","NA"
"-80.37","45.03","WESTERN ISLAND (AUT)","6119M51","2018-05-04 05:00","2018","05","04","05:00","4.8","","4.5","","98","","","M","11","","31","","","","98.61","","","","","","NA"
"-80.37","45.03","WESTERN ISLAND (AUT)","6119M51","2018-05-04 06:00","2018","05","04","06:00","5.2","","4.8","","98","","","M","10","","41","","","","98.47","","","","","","NA"
"-80.37","45.03","WESTERN ISLAND (AUT)","6119M51","2018-05-04 07:00","2018","05","04","07:00","4.7","","4.4","","98","","","M","8","","29","","","","98.45","","","","","","NA"
"-80.37","45.03","WESTERN ISLAND (AUT)","6119M51","2018-05-04 08:00","2018","05","04","08:00","5.5","","5.2","","98","","","M","11","","42","","","","98.17","","","","","","NA"
"-80.37","45.03","WESTERN ISLAND (AUT)","6119M51","2018-05-04 09:00","2018","05","04","09:00","5.6","","5.2","","98","","","M","12","","42","","","","97.96","","","","","","NA"
"-80.37","45.03","WESTERN ISLAND (AUT)","6119M51","2018-05-04 10:00","2018","05","04","10:00","7.6","","7.2","","97","","","M","14","","40","","","","97.79","","","","","","NA"
"-80.37","45.03","WESTERN ISLAND (AUT)","6119M51","2018-05-04 11:00","2018","05","04","11:00","9.0","","8.6","","97","","","M","16","","40","","","","97.67","","","","","","NA"
"-80.37","45.03","WESTERN ISLAND (AUT)","6119M51","2018-05-04 12:00","2018","05","04","12:00","11.2","","10.8","","98","","","M","17","","46","","","","97.56","","","","","","NA"
"-80.37","45.03","WESTERN ISLAND (AUT)","6119M51","2018-05-04 13:00","2018","05","04","13:00","13.3","","12.8","","97","","","M","19","","38","","","","97.36","","","","","","NA"
"-80.37","45.03","WESTERN ISLAND (AUT)","6119M51","2018-05-04 14:00","2018","05","04","14:00","13.8","","10.3","","80","","","M","20","","38","","","","97.14","","","","","","NA"
"-80.37","45.03","WESTERN ISLAND (AUT)","6119M51","2018-05-04 15:00","2018","05","04","15:00","10.6","","6.9","","78","","","M","26","","69","","","","97.06","","","","","","NA"
"-80.37","45.03","WESTERN ISLAND (AUT)","6119M51","2018-05-04 16:00","2018","05","04","16:00","5.9","","4.4","","90","","","M","26","","71","","","","97.21","","","","","","NA"
"-80.37","45.03","WESTERN ISLAND (AUT)","6119M51","2018-05-04 17:00","2018","05","04","17:00","4.1","","3.4","","96","","","M","30","","81","","","","97.90","","","","","","NA"
"-80.37","45.03","WESTERN ISLAND (AUT)","6119M51","2018-05-04 18:00","2018","05","04","18:00","4.6","","3.0","","89","","","M","30","","66","","","","98.37","","","","","","NA"
"-80.37","45.03","WESTERN ISLAND (AUT)","6119M51","2018-05-04 19:00","2018","05","04","19:00","4.3","","2.8","","90","","","M","30","","47","","","","98.58","","","","","","NA"
"-80.37","45.03","WESTERN ISLAND (AUT)","6119M51","2018-05-04 20:00","2018","05","04","20:00","4.2","","2.9","","91","","","M","29","","43","","","","98.79","","","","","","NA"
"-80.37","45.03","WESTERN ISLAND (AUT)","6119M51","2018-05-04 21:00","2018","05","04","21:00","4.7","","3.6","","92","","","M","27","","32","","","","98.90","","","","","","NA"
"-80.37","45.03","WESTERN ISLAND (AUT)","6119M51","2018-05-04 22:00","2018","05","04","22:00","4.8","","3.4","","91","","","M","26","","41","","","","98.91","","","","","","NA"
"-80.37","45.03","WESTERN ISLAND (AUT)","6119M51","2018-05-04 23:00","2018","05","04","23:00","5.0","","3.8","","92","","","M","25","","35","","","","98.91","","","","","","NA"
"-80.37","45.03","WESTERN ISLAND (AUT)","6119M51","2018-05-05 00:00","2018","05","05","00:00","5.6","","4.1","","90","","","M","26","","41","","","","98.96","","","","","","NA"
"-80.37","45.03","WESTERN ISLAND (AUT)","6119M51","2018-05-05 01:00","2018","05","05","01:00","4.8","","3.4","","91","","","M","25","","32","","","","98.99","","","","","","NA"
"-80.37","45.03","WESTERN ISLAND (AUT)","6119M51","2018-05-05 02:00","2018","05","05","02:00","5.5","","4.2","","91","","","M","24","","35","","","","98.97","","","","","","NA"
"-80.37","45.03","WESTERN ISLAND (AUT)","6119M51","2018-05-05 03:00","2018","05","05","03:00","6.1","","4.6","","90","","","M","24","","35","","","","98.96","","","","","","NA"
"-80.37","45.03","WESTERN ISLAND (AUT)","6119M51","2018-05-05 04:00","2018","05","05","04:00","6.2","","4.5","","89","","","M","24","","34","","","","98.95","","","","","","NA"
"-80.37","45.03","WESTERN ISLAND (AUT)","6119M51","2018-05-05 05:00","2018","05","05","05:00","6.9","","5.1","","88","","","M","24","","43","","","","98.95","","","","","","NA"
"-80.37","45.03","WESTERN ISLAND (AUT)","6119M51","2018-05-05 06:00","2018","05","05","06:00","6.2","","4.5","","89","","","M","23","","38","","","","98.99","","","","","","NA"
"-80.37","45.03","WESTERN ISLAND (AUT)","6119M51","2018-05-05 07:00","2018","05","05","07:00","5.7","","3.7","","87","","","M","22","","26","","","","99.03","","","","","","NA"
"-80.37","45.03","WESTERN ISLAND (AUT)","6119M51","2018-05-05 08:00","2018","05","05","08:00","6.7","","4.8","","88","","","M","24","","22","","","","99.03","","","","","","NA"
"-80.37","45.03","WESTERN ISLAND (AUT)","6119M51","2018-05-05 09:00","2018","05","05","09:00","8.5","","5.7","","82","","","M","27","","33","","","","99.08","","","","","","NA"
"-80.37","45.03","WESTERN ISLAND (AUT)","6119M51","2018-05-05 10:00","2018","05","05","10:00","9.2","","6.4","","83","","","M","29","","29","","","","99.13","","","","","","NA"
"-80.37","45.03","WESTERN ISLAND (AUT)","6119M51","2018-05-05 11:00","2018","05","05","11:00","10.3","","6.8","","79","","","M","27","","37","","","","99.13","","","","","","NA"
"-80.37","45.03","WESTERN ISLAND (AUT)","6119M51","2018-05-05 12:00","2018","05","05","12:00","6.8","","4.3","","84","","","M","28","","29","","","","99.16","","","","","","NA"
"-80.37","45.03","WESTERN ISLAND (AUT)","6119M51","2018-05-05 13:00","2018","05","05","13:00","8.1","","5.3","","83","","","M","27","","23","","","","99.14","","","","","","NA"
"-80.37","45.03","WESTERN ISLAND (AUT)","6119M51","2018-05-05 14:00","2018","05","05","14:00","11.7","","7.1","","73","","","M","26","","34","","","","99.13","","","","","","NA"
"-80.37","45.03","WESTERN ISLAND (AUT)","6119M51","2018-05-05 15:00","2018","05","05","15:00","12.2","","5.1","","62","","","M","25","","28","","","","99.15","","","","","","NA"
"-80.37","45.03","WESTERN ISLAND (AUT)","6119M51","2018-05-05 16:00","2018","05","05","16:00","13.1","","2.9","","50","","","M","26","","27","","","","99.14","","","","","","NA"
"-80.37","45.03","WESTERN ISLAND (AUT)","6119M51","2018-05-05 17:00","2018","05","05","17:00","15.3","","1.0","","38","","","M","26","","32","","","","99.11","","","","","","NA"
"-80.37","45.03","WESTERN ISLAND (AUT)","6119M51","2018-05-05 18:00","2018","05","05","18:00","15.1","","-0.1","","35","","","M","26","","28","","","","99.12","","","","","","NA"
"-80.37","45.03","WESTERN ISLAND (AUT)","6119M51","2018-05-05 19:00","2018","05","05","19:00","12.8","","0.3","","42","","","M","27","","26","","","","99.15","","","","","","NA"
"-80.37","45.03","WESTERN ISLAND (AUT)","6119M51","2018-05-05 20:00","2018","05","05","20:00","10.9","","0.7","","49","","","M","26","","29","","","","99.16","","","","","","NA"
"-80.37","45.03","WESTERN ISLAND (AUT)","6119M51","2018-05-05 21:00","2018","05","05","21:00","11.8","","-0.6","","43","","","M","26","","19","","","","99.22","","","","","","NA"
"-80.37","45.03","WESTERN ISLAND (AUT)","6119M51","2018-05-05 22:00","2018","05","05","22:00","10.2","","0.3","","50","","","M","32","","12","","","","99.27","","","","","","NA"
"-80.37","45.03","WESTERN ISLAND (AUT)","6119M51","2018-05-05 23:00","2018","05","05","23:00","11.6","","0.9","","48","","","M","28","","29","","","","99.24","","","","","","NA"
"-80.37","45.03","WESTERN ISLAND (AUT)","6119M51","2018-05-06 00:00","2018","05","06","00:00","9.2","","0.7","","55","","","M","29","","26","","","","99.24","","","","","","NA"
"-80.37","45.03","WESTERN ISLAND (AUT)","6119M51","2018-05-06 01:00","2018","05","06","01:00","5.4","","0.9","","73","","","M","2","","7","","","","99.27","","","","","","NA"
"-80.37","45.03","WESTERN ISLAND (AUT)","6119M51","2018-05-06 02:00","2018","05","06","02:00","6.6","","0.6","","65","","","M","17","","5","","","","99.23","","","","","","NA"
"-80.37","45.03","WESTERN ISLAND (AUT)","6119M51","2018-05-06 03:00","2018","05","06","03:00","6.6","","0.5","","65","","","M","14","","4","","","","99.19","","","","","","NA"
"-80.37","45.03","WESTERN ISLAND (AUT)","6119M51","2018-05-06 04:00","2018","05","06","04:00","6.0","","0.7","","69","","","M","18","","8","","","","99.21","","","","","","NA"
"-80.37","45.03","WESTERN ISLAND (AUT)","6119M51","2018-05-06 05:00","2018","05","06","05:00","4.9","","0.2","","72","","","M","36","","17","","","","99.25","","","","","","NA"
"-80.37","45.03","WESTERN ISLAND (AUT)","6119M51","2018-05-06 06:00","2018","05","06","06:00","5.4","","2.3","","80","","","M","5","","23","","","","99.30","","","","","","NA"
"-80.37","45.03","WESTERN ISLAND (AUT)","6119M51","2018-05-06 07:00","2018","05","06","07:00","6.3","","2.4","","76","","","M","8","","25","","","","99.30","","","","","","NA"
"-80.37","45.03","WESTERN ISLAND (AUT)","6119M51","2018-05-06 08:00","2018","05","06","08:00","7.6","","2.3","","69","","","M","8","","24","","","","99.29","","","","","","NA"
"-80.37","45.03","WESTERN ISLAND (AUT)","6119M51","2018-05-06 09:00","2018","05","06","09:00","8.0","","2.9","","70","","","M","8","","19","","","","99.29","","","","","","NA"
"-80.37","45.03","WESTERN ISLAND (AUT)","6119M51","2018-05-06 10:00","2018","05","06","10:00","8.8","","2.9","","67","","","M","4","","13","","","","99.29","","","","","","NA"
"-80.37","45.03","WESTERN ISLAND (AUT)","6119M51","2018-05-06 11:00","2018","05","06","11:00","9.1","","2.3","","62","","","M","5","","20","","","","99.29","","","","","","NA"
"-80.37","45.03","WESTERN ISLAND (AUT)","6119M51","2018-05-06 12:00","2018","05","06","12:00","11.8","","0.9","","47","","","M","4","","31","","","","99.30","","","","","","NA"
"-80.37","45.03","WESTERN ISLAND (AUT)","6119M51","2018-05-06 13:00","2018","05","06","13:00","9.3","","-0.5","","50","","","M","2","","22","","","","99.35","","","","","","NA"
"-80.37","45.03","WESTERN ISLAND (AUT)","6119M51","2018-05-06 14:00","2018","05","06","14:00","13.6","","0.1","","40","","","M","3","","29","","","","99.33","","","","","","NA"
"-80.37","45.03","WESTERN ISLAND (AUT)","6119M51","2018-05-06 15:00","2018","05","06","15:00","12.9","","0.6","","43","","","M","7","","21","","","","99.32","","","","","","NA"
"-80.37","45.03","WESTERN ISLAND (AUT)","6119M51","2018-05-06 16:00","2018","05","06","16:00","9.8","","1.4","","56","","","M","2","","20","","","","99.31","","","","","","NA"
"-80.37","45.03","WESTERN ISLAND (AUT)","6119M51","2018-05-06 17:00","2018","05","06","17:00","10.3","","1.0","","52","","","M","2","","23","","","","99.29","","","","","","NA"
"-80.37","45.03","WESTERN ISLAND (AUT)","6119M51","2018-05-06 18:00","2018","05","06","18:00","11.9","","0.1","","44","","","M","3","","28","","","","99.29","","","","","","NA"
"-80.37","45.03","WESTERN ISLAND (AUT)","6119M51","2018-05-06 19:00","2018","05","06","19:00","12.1","","0.3","","44","","","M","3","","17","","","","99.33","","","","","","NA"
"-80.37","45.03","WESTERN ISLAND (AUT)","6119M51","2018-05-06 20:00","2018","05","06","20:00","9.8","","1.1","","55","","","M","1","","12","","","","99.41","","","","","","NA"
"-80.37","45.03","WESTERN ISLAND (AUT)","6119M51","2018-05-06 21:00","2018","05","06","21:00","11.0","","1.7","","53","","","M","36","","25","","","","99.50","","","","","","NA"
"-80.37","45.03","WESTERN ISLAND (AUT)","6119M51","2018-05-06 22:00","2018","05","06","22:00","9.9","","0.3","","51","","","M","3","","35","","","","99.53","","","","","","NA"
"-80.37","45.03","WESTERN ISLAND (AUT)","6119M51","2018-05-06 23:00","2018","05","06","23:00","10.1","","-0.3","","48","","","M","6","","30","","","","99.54","","","","","","NA"
"-80.37","45.03","WESTERN ISLAND (AUT)","6119M51","2018-05-07 00:00","2018","05","07","00:00","9.1","","-0.3","","52","","","M","7","","31","","","","99.58","","","","","","NA"
"-80.37","45.03","WESTERN ISLAND (AUT)","6119M51","2018-05-07 01:00","2018","05","07","01:00","8.5","","-0.4","","54","","","M","6","","26","","","","99.63","","","","","","NA"
"-80.37","45.03","WESTERN ISLAND (AUT)","6119M51","2018-05-07 02:00","2018","05","07","02:00","7.8","","-1.0","","54","","","M","5","","20","","","","99.69","","","","","","NA"
"-80.37","45.03","WESTERN ISLAND (AUT)","6119M51","2018-05-07 03:00","2018","05","07","03:00","7.4","","-1.1","","55","","","M","5","","17","","","","99.75","","","","","","NA"
"-80.37","45.03","WESTERN ISLAND (AUT)","6119M51","2018-05-07 04:00","2018","05","07","04:00","6.3","","-0.8","","61","","","M","4","","16","","","","99.79","","","","","","NA"
"-80.37","45.03","WESTERN ISLAND (AUT)","6119M51","2018-05-07 05:00","2018","05","07","05:00","6.0","","-1.0","","61","","","M","5","","16","","","","99.84","","","","","","NA"
"-80.37","45.03","WESTERN ISLAND (AUT)","6119M51","2018-05-07 06:00","2018","05","07","06:00","5.9","","-0.8","","62","","","M","7","","15","","","","99.92","","","","","","NA"
"-80.37","45.03","WESTERN ISLAND (AUT)","6119M51","2018-05-07 07:00","2018","05","07","07:00","5.5","","-1.8","","59","","","M","8","","18","","","","99.97","","","","","","NA"
"-80.37","45.03","WESTERN ISLAND (AUT)","6119M51","2018-05-07 08:00","2018","05","07","08:00","6.0","","-2.7","","54","","","M","8","","16","","","","100.02","","","","","","NA"
"-80.37","45.03","WESTERN ISLAND (AUT)","6119M51","2018-05-07 09:00","2018","05","07","09:00","6.6","","-2.8","","51","","","M","9","","10","","","","100.08","","","","","","NA"
"-80.37","45.03","WESTERN ISLAND (AUT)","6119M51","2018-05-07 10:00","2018","05","07","10:00","7.7","","-2.8","","47","","","M","15","","6","","","","100.06","","","","","","NA"
"-80.37","45.03","WESTERN ISLAND (AUT)","6119M51","2018-05-07 11:00","2018","05","07","11:00","7.8","","-4.4","","42","","","M","21","","8","","","","100.04","","","","","","NA"
"-80.37","45.03","WESTERN ISLAND (AUT)","6119M51","2018-05-07 12:00","2018","05","07","12:00","8.2","","-4.3","","41","","","M","26","","14","","","","100.01","","","","","","NA"
"-80.37","45.03","WESTERN ISLAND (AUT)","6119M51","2018-05-07 13:00","2018","05","07","13:00","9.2","","-5.5","","35","","","M","25","","13","","","","99.97","","","","","","NA"
"-80.37","45.03","WESTERN ISLAND (AUT)","6119M51","2018-05-07 14:00","2018","05","07","14:00","9.0","","-5.2","","36","","","M","26","","18","","","","99.96","","","","","","NA"
"-80.37","45.03","WESTERN ISLAND (AUT)","6119M51","2018-05-07 15:00","2018","05","07","15:00","9.8","","-5.7","","33","","","M","26","","15","","","","99.94","","","","","","NA"
"-80.37","45.03","WESTERN ISLAND (AUT)","6119M51","2018-05-07 16:00","2018","05","07","16:00","11.2","","-7.5","","26","","","M","23","","8","","","","99.92","","","","","","NA"
"-80.37","45.03","WESTERN ISLAND (AUT)","6119M51","2018-05-07 17:00","2018","05","07","17:00","11.6","","-6.6","","27","","","M","0","","1","","","","99.89","","","","","","NA"
"-80.37","45.03","WESTERN ISLAND (AUT)","6119M51","2018-05-07 18:00","2018","05","07","18:00","12.0","","-7.5","","25","","","M","13","","2","","","","99.87","","","","","","NA"
"-80.37","45.03","WESTERN ISLAND (AUT)","6119M51","2018-05-07 19:00","2018","05","07","19:00","11.0","","-7.6","","26","","","M","14","","4","","","","99.86","","","","","","NA"
"-80.37","45.03","WESTERN ISLAND (AUT)","6119M51","2018-05-07 20:00","2018","05","07","20:00","11.3","","-7.2","","27","","","M","15","","14","","","","99.84","","","","","","NA"
"-80.37","45.03","WESTERN ISLAND (AUT)","6119M51","2018-05-07 21:00","2018","05","07","21:00","8.6","","-6.5","","34","","","M","18","","17","","","","99.85","","","","","","NA"
"-80.37","45.03","WESTERN ISLAND (AUT)","6119M51","2018-05-07 22:00","2018","05","07","22:00","9.9","","-4.4","","36","","","M","19","","24","","","","99.81","","","","","","NA"
"-80.37","45.03","WESTERN ISLAND (AUT)","6119M51","2018-05-07 23:00","2018","05","07","23:00","10.8","","-2.8","","39","","","M","18","","24","","","","99.80","","","","","","NA"
"-80.37","45.03","WESTERN ISLAND (AUT)","6119M51","2018-05-08 00:00","2018","05","08","00:00","8.0","","-2.7","","47","","","M","19","","29","","","","99.80","","","","","","NA"
"-80.37","45.03","WESTERN ISLAND (AUT)","6119M51","2018-05-08 01:00","2018","05","08","01:00","8.5","","0.0","","55","","","M","18","","30","","","","99.75","","","","","","NA"
"-80.37","45.03","WESTERN ISLAND (AUT)","6119M51","2018-05-08 02:00","2018","05","08","02:00","8.1","","0.4","","58","","","M","18","","31","","","","99.72","","","","","","NA"
"-80.37","45.03","WESTERN ISLAND (AUT)","6119M51","2018-05-08 03:00","2018","05","08","03:00","7.5","","0.4","","61","","","M","18","","34","","","","99.72","","","","","","NA"
"-80.37","45.03","WESTERN ISLAND (AUT)","6119M51","2018-05-08 04:00","2018","05","08","04:00","7.5","","0.6","","62","","","M","18","","36","","","","99.73","","","","","","NA"
"-80.37","45.03","WESTERN ISLAND (AUT)","6119M51","2018-05-08 05:00","2018","05","08","05:00","7.4","","1.0","","64","","","M","19","","32","","","","99.75","","","","","","NA"
"-80.37","45.03","WESTERN ISLAND (AUT)","6119M51","2018-05-08 06:00","2018","05","08","06:00","5.5","","1.2","","74","","","M","19","","23","","","","99.79","","","","","","NA"
"-80.37","45.03","WESTERN ISLAND (AUT)","6119M51","2018-05-08 07:00","2018","05","08","07:00","8.1","","1.4","","63","","","M","19","","31","","","","99.81","","","","","","NA"
"-80.37","45.03","WESTERN ISLAND (AUT)","6119M51","2018-05-08 08:00","2018","05","08","08:00","8.6","","1.3","","60","","","M","19","","32","","","","99.82","","","","","","NA"
"-80.37","45.03","WESTERN ISLAND (AUT)","6119M51","2018-05-08 09:00","2018","05","08","09:00","8.4","","1.4","","61","","","M","18","","26","","","","99.87","","","","","","NA"
"-80.37","45.03","WESTERN ISLAND (AUT)","6119M51","2018-05-08 10:00","2018","05","08","10:00","9.7","","1.4","","56","","","M","18","","18","","","","99.89","","","","","","NA"
"-80.37","45.03","WESTERN ISLAND (AUT)","6119M51","2018-05-08 11:00","2018","05","08","11:00","11.4","","1.7","","51","","","M","16","","15","","","","99.88","","","","","","NA"
"-80.37","45.03","WESTERN ISLAND (AUT)","6119M51","2018-05-08 12:00","2018","05","08","12:00","13.5","","2.5","","47","","","M","16","","11","","","","99.83","","","","","","NA"
"-80.37","45.03","WESTERN ISLAND (AUT)","6119M51","2018-05-08 13:00","2018","05","08","13:00","13.9","","3.0","","48","","","M","12","","6","","","","99.80","","","","","","NA"
"-80.37","45.03","WESTERN ISLAND (AUT)","6119M51","2018-05-08 14:00","2018","05","08","14:00","14.9","","3.0","","45","","","M","8","","9","","","","99.73","","","","","","NA"
"-80.37","45.03","WESTERN ISLAND (AUT)","6119M51","2018-05-08 15:00","2018","05","08","15:00","15.5","","3.4","","44","","","M","5","","16","","","","99.68","","","","","","NA"
"-80.37","45.03","WESTERN ISLAND (AUT)","6119M51","2018-05-08 16:00","2018","05","08","16:00","17.7","","1.6","","34","","","M","6","","10","","","","99.62","","","","","","NA"
"-80.37","45.03","WESTERN ISLAND (AUT)","6119M51","2018-05-08 17:00","2018","05","08","17:00","18.4","","0.2","","29","","","M","5","","9","","","","99.61","","","","","","NA"
"-80.37","45.03","WESTERN ISLAND (AUT)","6119M51","2018-05-08 18:00","2018","05","08","18:00","18.0","","-0.3","","29","","","M","4","","12","","","","99.58","","","","","","NA"
"-80.37","45.03","WESTERN ISLAND (AUT)","6119M51","2018-05-08 19:00","2018","05","08","19:00","14.2","","1.1","","41","","","M","1","","17","","","","99.57","","","","","","NA"
"-80.37","45.03","WESTERN ISLAND (AUT)","6119M51","2018-05-08 20:00","2018","05","08","20:00","16.7","","1.1","","35","","","M","2","","12","","","","99.57","","","","","","NA"
"-80.37","45.03","WESTERN ISLAND (AUT)","6119M51","2018-05-08 21:00","2018","05","08","21:00","17.9","","-0.1","","30","","","M","4","","8","","","","99.58","","","","","","NA"
"-80.37","45.03","WESTERN ISLAND (AUT)","6119M51","2018-05-08 22:00","2018","05","08","22:00","13.8","","1.5","","43","","","M","8","","13","","","","99.56","","","","","","NA"
"-80.37","45.03","WESTERN ISLAND (AUT)","6119M51","2018-05-08 23:00","2018","05","08","23:00","18.3","","0.3","","30","","","M","14","","15","","","","99.53","","","","","","NA"
"-80.37","45.03","WESTERN ISLAND (AUT)","6119M51","2018-05-09 00:00","2018","05","09","00:00","11.5","","2.6","","54","","","M","15","","15","","","","99.52","","","","","","NA"
"-80.37","45.03","WESTERN ISLAND (AUT)","6119M51","2018-05-09 01:00","2018","05","09","01:00","10.4","","2.5","","58","","","M","17","","23","","","","99.50","","","","","","NA"
"-80.37","45.03","WESTERN ISLAND (AUT)","6119M51","2018-05-09 02:00","2018","05","09","02:00","11.4","","2.8","","56","","","M","17","","31","","","","99.46","","","","","","NA"
"-80.37","45.03","WESTERN ISLAND (AUT)","6119M51","2018-05-09 03:00","2018","05","09","03:00","10.1","","2.7","","60","","","M","16","","26","","","","99.43","","","","","","NA"
"-80.37","45.03","WESTERN ISLAND (AUT)","6119M51","2018-05-09 04:00","2018","05","09","04:00","11.1","","3.7","","60","","","M","15","","18","","","","99.42","","","","","","NA"
"-80.37","45.03","WESTERN ISLAND (AUT)","6119M51","2018-05-09 05:00","2018","05","09","05:00","10.9","","4.2","","63","","","M","14","","14","","","","99.41","","","","","","NA"
"-80.37","45.03","WESTERN ISLAND (AUT)","6119M51","2018-05-09 06:00","2018","05","09","06:00","11.3","","4.0","","61","","","M","13","","22","","","","99.40","","","","","","NA"
"-80.37","45.03","WESTERN ISLAND (AUT)","6119M51","2018-05-09 07:00","2018","05","09","07:00","9.5","","4.6","","72","","","M","13","","29","","","","99.42","","","","","","NA"
"-80.37","45.03","WESTERN ISLAND (AUT)","6119M51","2018-05-09 08:00","2018","05","09","08:00","11.1","","5.3","","67","","","M","13","","29","","","","99.35","","","","","","NA"
"-80.37","45.03","WESTERN ISLAND (AUT)","6119M51","2018-05-09 09:00","2018","05","09","09:00","12.0","","5.7","","65","","","M","14","","22","","","","99.34","","","","","","NA"
"-80.37","45.03","WESTERN ISLAND (AUT)","6119M51","2018-05-09 10:00","2018","05","09","10:00","14.6","","5.1","","53","","","M","13","","21","","","","99.28","","","","","","NA"
"-80.37","45.03","WESTERN ISLAND (AUT)","6119M51","2018-05-09 11:00","2018","05","09","11:00","15.9","","5.2","","49","","","M","15","","22","","","","99.18","","","","","","NA"
"-80.37","45.03","WESTERN ISLAND (AUT)","6119M51","2018-05-09 12:00","2018","05","09","12:00","19.2","","5.8","","41","","","M","15","","22","","","","99.12","","","","","","NA"
"-80.37","45.03","WESTERN ISLAND (AUT)","6119M51","2018-05-09 13:00","2018","05","09","13:00","19.5","","7.3","","45","","","M","16","","22","","","","99.03","","","","","","NA"
"-80.37","45.03","WESTERN ISLAND (AUT)","6119M51","2018-05-09 14:00","2018","05","09","14:00","18.6","","5.8","","43","","","M","14","","19","","","","98.91","","","","","","NA"
"-80.37","45.03","WESTERN ISLAND (AUT)","6119M51","2018-05-09 15:00","2018","05","09","15:00","18.1","","1.7","","33","","","M","15","","23","","","","98.81","","","","","","NA"
"-80.37","45.03","WESTERN ISLAND (AUT)","6119M51","2018-05-09 16:00","2018","05","09","16:00","14.8","","0.6","","38","","","M","19","","15","","","","98.71","","","","","","NA"
"-80.37","45.03","WESTERN ISLAND (AUT)","6119M51","2018-05-09 17:00","2018","05","09","17:00","21.7","","6.3","","37","","","M","17","","33","","","","98.62","","","","","","NA"
"-80.37","45.03","WESTERN ISLAND (AUT)","6119M51","2018-05-09 18:00","2018","05","09","18:00","17.4","","6.1","","47","","","M","18","","44","","","","98.48","","","","","","NA"
"-80.37","45.03","WESTERN ISLAND (AUT)","6119M51","2018-05-09 19:00","2018","05","09","19:00","18.8","","6.6","","45","","","M","18","","47","","","","98.41","","","","","","NA"
"-80.37","45.03","WESTERN ISLAND (AUT)","6119M51","2018-05-09 20:00","2018","05","09","20:00","21.0","","7.9","","43","","","M","18","","46","","","","98.33","","","","","","NA"
"-80.37","45.03","WESTERN ISLAND (AUT)","6119M51","2018-05-09 21:00","2018","05","09","21:00","16.4","","7.2","","54","","","M","16","","48","","","","98.28","","","","","","NA"
"-80.37","45.03","WESTERN ISLAND (AUT)","6119M51","2018-05-09 22:00","2018","05","09","22:00","15.0","","7.7","","62","","","M","16","","49","","","","98.20","","","","","","NA"
"-80.37","45.03","WESTERN ISLAND (AUT)","6119M51","2018-05-09 23:00","2018","05","09","23:00","12.7","","7.5","","71","","","M","17","","51","","","","98.17","","","","","","NA"
"-80.37","45.03","WESTERN ISLAND (AUT)","6119M51","2018-05-10 00:00","2018","05","10","00:00","14.0","","8.6","","70","","","M","16","","53","","","","98.02","","","","","","NA"
"-80.37","45.03","WESTERN ISLAND (AUT)","6119M51","2018-05-10 01:00","2018","05","10","01:00","12.1","","8.6","","80","","","M","16","","51","","","","97.86","","","","","","NA"
"-80.37","45.03","WESTERN ISLAND (AUT)","6119M51","2018-05-10 02:00","2018","05","10","02:00","10.1","","9.0","","93","","","M","21","","35","","","","97.86","","","","","","NA"
"-80.37","45.03","WESTERN ISLAND (AUT)","6119M51","2018-05-10 03:00","2018","05","10","03:00","13.4","","10.8","","84","","","M","20","","47","","","","97.75","","","","","","NA"
"-80.37","45.03","WESTERN ISLAND (AUT)","6119M51","2018-05-10 04:00","2018","05","10","04:00","10.6","","9.5","","93","","","M","18","","38","","","","97.72","","","","","","NA"
"-80.37","45.03","WESTERN ISLAND (AUT)","6119M51","2018-05-10 05:00","2018","05","10","05:00","11.5","","10.2","","91","","","M","20","","37","","","","97.74","","","","","","NA"
"-80.37","45.03","WESTERN ISLAND (AUT)","6119M51","2018-05-10 06:00","2018","05","10","06:00","10.1","","9.2","","94","","","M","24","","37","","","","97.81","","","","","","NA"
"-80.37","45.03","WESTERN ISLAND (AUT)","6119M51","2018-05-10 07:00","2018","05","10","07:00","8.1","","7.5","","96","","","M","27","","34","","","","97.93","","","","","","NA"
"-80.37","45.03","WESTERN ISLAND (AUT)","6119M51","2018-05-10 08:00","2018","05","10","08:00","7.6","","7.2","","97","","","M","26","","39","","","","98.00","","","","","","NA"
"-80.37","45.03","WESTERN ISLAND (AUT)","6119M51","2018-05-10 09:00","2018","05","10","09:00","6.8","","6.3","","97","","","M","26","","35","","","","98.07","","","","","","NA"
"-80.37","45.03","WESTERN ISLAND (AUT)","6119M51","2018-05-10 10:00","2018","05","10","10:00","6.5","","6.1","","97","","","M","26","","45","","","","98.10","","","","","","NA"
"-80.37","45.03","WESTERN ISLAND (AUT)","6119M51","2018-05-10 11:00","2018","05","10","11:00","6.4","","5.9","","97","","","M","27","","56","","","","98.19","","","","","","NA"
"-80.37","45.03","WESTERN ISLAND (AUT)","6119M51","2018-05-10 12:00","2018","05","10","12:00","6.0","","5.5","","96","","","M","27","","51","","","","98.29","","","","","","NA"
"-80.37","45.03","WESTERN ISLAND (AUT)","6119M51","2018-05-10 13:00","2018","05","10","13:00","6.3","","5.6","","95","","","M","27","","53","","","","98.39","","","","","","NA"
"-80.37","45.03","WESTERN ISLAND (AUT)","6119M51","2018-05-10 14:00","2018","05","10","14:00","5.6","","4.8","","94","","","M","27","","51","","","","98.47","","","","","","NA"
"-80.37","45.03","WESTERN ISLAND (AUT)","6119M51","2018-05-10 15:00","2018","05","10","15:00","5.6","","4.0","","89","","","M","28","","47","","","","98.53","","","","","","NA"
"-80.37","45.03","WESTERN ISLAND (AUT)","6119M51","2018-05-10 16:00","2018","05","10","16:00","5.9","","2.1","","77","","","M","29","","44","","","","98.61","","","","","","NA"
"-80.37","45.03","WESTERN ISLAND (AUT)","6119M51","2018-05-10 17:00","2018","05","10","17:00","5.7","","0.9","","71","","","M","29","","50","","","","98.67","","","","","","NA"
"-80.37","45.03","WESTERN ISLAND (AUT)","6119M51","2018-05-10 18:00","2018","05","10","18:00","5.6","","-0.1","","67","","","M","29","","47","","","","98.74","","","","","","NA"
"-80.37","45.03","WESTERN ISLAND (AUT)","6119M51","2018-05-10 19:00","2018","05","10","19:00","4.6","","-0.7","","69","","","M","29","","49","","","","98.84","","","","","","NA"
"-80.37","45.03","WESTERN ISLAND (AUT)","6119M51","2018-05-10 20:00","2018","05","10","20:00","3.6","","-0.3","","76","","","M","30","","53","","","","98.92","","","","","","NA"
"-80.37","45.03","WESTERN ISLAND (AUT)","6119M51","2018-05-10 21:00","2018","05","10","21:00","3.0","","0.4","","83","","","M","30","","41","","","","99.06","","","","","","NA"
"-80.37","45.03","WESTERN ISLAND (AUT)","6119M51","2018-05-10 22:00","2018","05","10","22:00","5.2","","0.1","","69","","","M","1","","43","","","","99.18","","","","","","NA"
"-80.37","45.03","WESTERN ISLAND (AUT)","6119M51","2018-05-10 23:00","2018","05","10","23:00","5.1","","-2.5","","58","","","M","2","","28","","","","99.33","","","","","","NA"
"-80.37","45.03","WESTERN ISLAND (AUT)","6119M51","2018-05-11 00:00","2018","05","11","00:00","4.8","","-3.2","","56","","","M","1","","24","","","","99.43","","","","","","NA"
"-80.37","45.03","WESTERN ISLAND (AUT)","6119M51","2018-05-11 01:00","2018","05","11","01:00","4.2","","-2.5","","62","","","M","1","","21","","","","99.51","","","","","","NA"
"-80.37","45.03","WESTERN ISLAND (AUT)","6119M51","2018-05-11 02:00","2018","05","11","02:00","4.0","","-3.5","","58","","","M","1","","30","","","","99.54","","","","","","NA"
"-80.37","45.03","WESTERN ISLAND (AUT)","6119M51","2018-05-11 03:00","2018","05","11","03:00","3.4","","-3.4","","61","","","M","1","","26","","","","99.66","","","","","","NA"
"-80.37","45.03","WESTERN ISLAND (AUT)","6119M51","2018-05-11 04:00","2018","05","11","04:00","3.0","","-3.6","","62","","","M","36","","24","","","","99.74","","","","","","NA"
"-80.37","45.03","WESTERN ISLAND (AUT)","6119M51","2018-05-11 05:00","2018","05","11","05:00","2.6","","-4.1","","61","","","M","2","","21","","","","99.84","","","","","","NA"
"-80.37","45.03","WESTERN ISLAND (AUT)","6119M51","2018-05-11 06:00","2018","05","11","06:00","2.3","","-5.5","","56","","","M","3","","25","","","","99.90","","","","","","NA"
"-80.37","45.03","WESTERN ISLAND (AUT)","6119M51","2018-05-11 07:00","2018","05","11","07:00","2.1","","-4.1","","64","","","M","4","","22","","","","99.91","","","","","","NA"
"-80.37","45.03","WESTERN ISLAND (AUT)","6119M51","2018-05-11 08:00","2018","05","11","08:00","1.8","","-5.9","","57","","","M","1","","18","","","","99.94","","","","","","NA"
"-80.37","45.03","WESTERN ISLAND (AUT)","6119M51","2018-05-11 09:00","2018","05","11","09:00","1.8","","-4.7","","62","","","M","36","","17","","","","99.96","","","","","","NA"
"-80.37","45.03","WESTERN ISLAND (AUT)","6119M51","2018-05-11 10:00","2018","05","11","10:00","2.5","","-4.1","","62","","","M","34","","16","","","","99.99","","","","","","NA"
"-80.37","45.03","WESTERN ISLAND (AUT)","6119M51","2018-05-11 11:00","2018","05","11","11:00","2.3","","-4.3","","62","","","M","33","","20","","","","100.00","","","","","","NA"
"-80.37","45.03","WESTERN ISLAND (AUT)","6119M51","2018-05-11 12:00","2018","05","11","12:00","2.1","","-3.1","","69","","","M","31","","19","","","","100.01","","","","","","NA"
"-80.37","45.03","WESTERN ISLAND (AUT)","6119M51","2018-05-11 13:00","2018","05","11","13:00","1.8","","-2.8","","72","","","M","28","","24","","","","100.01","","","","","","NA"
"-80.37","45.03","WESTERN ISLAND (AUT)","6119M51","2018-05-11 14:00","2018","05","11","14:00","1.7","","-2.8","","72","","","M","30","","22","","","","99.93","","","","","","NA"
"-80.37","45.03","WESTERN ISLAND (AUT)","6119M51","2018-05-11 15:00","2018","05","11","15:00","1.8","","-2.0","","76","","","M","30","","15","","","","99.87","","","","","","NA"
"-80.37","45.03","WESTERN ISLAND (AUT)","6119M51","2018-05-11 16:00","2018","05","11","16:00","1.9","","-2.3","","74","","","M","32","","14","","","","99.83","","","","","","NA"
"-80.37","45.03","WESTERN ISLAND (AUT)","6119M51","2018-05-11 17:00","2018","05","11","17:00","2.1","","-1.6","","76","","","M","34","","11","","","","99.81","","","","","","NA"
"-80.37","45.03","WESTERN ISLAND (AUT)","6119M51","2018-05-11 18:00","2018","05","11","18:00","2.3","","-1.0","","79","","","M","35","","9","","","","99.80","","","","","","NA"
"-80.37","45.03","WESTERN ISLAND (AUT)","6119M51","2018-05-11 19:00","2018","05","11","19:00","2.3","","-2.6","","70","","","M","32","","12","","","","99.80","","","","","","NA"
"-80.37","45.03","WESTERN ISLAND (AUT)","6119M51","2018-05-11 20:00","2018","05","11","20:00","2.7","","-5.7","","54","","","M","36","","15","","","","99.76","","","","","","NA"
"-80.37","45.03","WESTERN ISLAND (AUT)","6119M51","2018-05-11 21:00","2018","05","11","21:00","2.3","","-1.6","","75","","","M","36","","8","","","","99.80","","","","","","NA"
"-80.37","45.03","WESTERN ISLAND (AUT)","6119M51","2018-05-11 22:00","2018","05","11","22:00","2.0","","-1.1","","80","","","M","18","","4","","","","99.80","","","","","","NA"
"-80.37","45.03","WESTERN ISLAND (AUT)","6119M51","2018-05-11 23:00","2018","05","11","23:00","1.9","","-1.8","","76","","","M","","","0","","","","99.81","","","","","","NA"
"-80.37","45.03","WESTERN ISLAND (AUT)","6119M51","2018-05-12 00:00","2018","05","12","00:00","2.0","","-1.7","","77","","","M","36","","7","","","","99.77","","","","","","NA"
"-80.37","45.03","WESTERN ISLAND (AUT)","6119M51","2018-05-12 01:00","2018","05","12","01:00","2.6","","-0.6","","79","","","M","3","","8","","","","99.70","","","","","","NA"
"-80.37","45.03","WESTERN ISLAND (AUT)","6119M51","2018-05-12 02:00","2018","05","12","02:00","3.0","","-0.6","","77","","","M","7","","7","","","","99.64","","","","","","NA"
"-80.37","45.03","WESTERN ISLAND (AUT)","6119M51","2018-05-12 03:00","2018","05","12","03:00","2.5","","-0.3","","82","","","M","4","","10","","","","99.66","","","","","","NA"
"-80.37","45.03","WESTERN ISLAND (AUT)","6119M51","2018-05-12 04:00","2018","05","12","04:00","2.6","","0.4","","85","","","M","2","","3","","","","99.68","","","","","","NA"
"-80.37","45.03","WESTERN ISLAND (AUT)","6119M51","2018-05-12 05:00","2018","05","12","05:00","3.0","","1.9","","93","","","M","3","","3","","","","99.71","","","","","","NA"
"-80.37","45.03","WESTERN ISLAND (AUT)","6119M51","2018-05-12 06:00","2018","05","12","06:00","3.1","","0.2","","81","","","M","3","","12","","","","99.73","","","","","","NA"
"-80.37","45.03","WESTERN ISLAND (AUT)","6119M51","2018-05-12 07:00","2018","05","12","07:00","3.8","","0.0","","76","","","M","4","","16","","","","99.75","","","","","","NA"
"-80.37","45.03","WESTERN ISLAND (AUT)","6119M51","2018-05-12 08:00","2018","05","12","08:00","4.4","","0.6","","76","","","M","5","","12","","","","99.75","","","","","","NA"
"-80.37","45.03","WESTERN ISLAND (AUT)","6119M51","2018-05-12 09:00","2018","05","12","09:00","4.0","","0.7","","79","","","M","2","","11","","","","99.79","","","","","","NA"
"-80.37","45.03","WESTERN ISLAND (AUT)","6119M51","2018-05-12 10:00","2018","05","12","10:00","5.2","","-1.4","","63","","","M","35","","9","","","","99.77","","","","","","NA"
"-80.37","45.03","WESTERN ISLAND (AUT)","6119M51","2018-05-12 11:00","2018","05","12","11:00","4.5","","-0.3","","71","","","M","33","","14","","","","99.76","","","","","","NA"
"-80.37","45.03","WESTERN ISLAND (AUT)","6119M51","2018-05-12 12:00","2018","05","12","12:00","4.5","","-1.6","","64","","","M","32","","23","","","","99.73","","","","","","NA"
"-80.37","45.03","WESTERN ISLAND (AUT)","6119M51","2018-05-12 13:00","2018","05","12","13:00","5.9","","-7.1","","39","","","M","31","","26","","","","99.67","","","","","","NA"
"-80.37","45.03","WESTERN ISLAND (AUT)","6119M51","2018-05-12 14:00","2018","05","12","14:00","3.7","","-1.0","","71","","","M","30","","27","","","","99.72","","","","","","NA"
"-80.37","45.03","WESTERN ISLAND (AUT)","6119M51","2018-05-12 15:00","2018","05","12","15:00","3.7","","-0.9","","72","","","M","29","","25","","","","99.67","","","","","","NA"
"-80.37","45.03","WESTERN ISLAND (AUT)","6119M51","2018-05-12 16:00","2018","05","12","16:00","4.2","","-1.3","","68","","","M","31","","27","","","","99.67","","","","","","NA"
"-80.37","45.03","WESTERN ISLAND (AUT)","6119M51","2018-05-12 17:00","2018","05","12","17:00","4.5","","-1.0","","67","","","M","34","","24","","","","99.61","","","","","","NA"
"-80.37","45.03","WESTERN ISLAND (AUT)","6119M51","2018-05-12 18:00","2018","05","12","18:00","6.1","","-3.6","","50","","","M","32","","20","","","","99.61","","","","","","NA"
"-80.37","45.03","WESTERN ISLAND (AUT)","6119M51","2018-05-12 19:00","2018","05","12","19:00","6.9","","-5.3","","41","","","M","31","","22","","","","99.62","","","","","","NA"
"-80.37","45.03","WESTERN ISLAND (AUT)","6119M51","2018-05-12 20:00","2018","05","12","20:00","5.3","","-2.0","","59","","","M","34","","28","","","","99.66","","","","","","NA"
"-80.37","45.03","WESTERN ISLAND (AUT)","6119M51","2018-05-12 21:00","2018","05","12","21:00","5.6","","-2.8","","55","","","M","34","","24","","","","99.69","","","","","","NA"
"-80.37","45.03","WESTERN ISLAND (AUT)","6119M51","2018-05-12 22:00","2018","05","12","22:00","5.9","","-2.4","","55","","","M","34","","20","","","","99.74","","","","","","NA"
"-80.37","45.03","WESTERN ISLAND (AUT)","6119M51","2018-05-12 23:00","2018","05","12","23:00","5.1","","-0.9","","65","","","M","33","","15","","","","99.72","","","","","","NA"
"-80.37","45.03","WESTERN ISLAND (AUT)","6119M51","2018-05-13 00:00","2018","05","13","00:00","4.2","","-0.5","","71","","","M","36","","5","","","","99.74","","","","","","NA"
"-80.37","45.03","WESTERN ISLAND (AUT)","6119M51","2018-05-13 01:00","2018","05","13","01:00","4.8","","-0.8","","67","","","M","5","","6","","","","99.68","","","","","","NA"
"-80.37","45.03","WESTERN ISLAND (AUT)","6119M51","2018-05-13 02:00","2018","05","13","02:00","4.8","","-0.8","","67","","","M","22","","9","","","","99.62","","","","","","NA"
"-80.37","45.03","WESTERN ISLAND (AUT)","6119M51","2018-05-13 03:00","2018","05","13","03:00","5.5","","-2.0","","58","","","M","25","","12","","","","99.57","","","","","","NA"
"-80.37","45.03","WESTERN ISLAND (AUT)","6119M51","2018-05-13 04:00","2018","05","13","04:00","6.2","","-3.2","","51","","","M","27","","14","","","","99.58","","","","","","NA"
"-80.37","45.03","WESTERN ISLAND (AUT)","6119M51","2018-05-13 05:00","2018","05","13","05:00","6.0","","-4.4","","47","","","M","28","","12","","","","99.54","","","","","","NA"
"-80.37","45.03","WESTERN ISLAND (AUT)","6119M51","2018-05-13 06:00","2018","05","13","06:00","4.6","","-2.9","","58","","","M","24","","7","","","","99.60","","","","","","NA"
"-80.37","45.03","WESTERN ISLAND (AUT)","6119M51","2018-05-13 07:00","2018","05","13","07:00","4.9","","-3.5","","54","","","M","16","","10","","","","99.66","","","","","","NA"
"-80.37","45.03","WESTERN ISLAND (AUT)","6119M51","2018-05-13 08:00","2018","05","13","08:00","5.8","","-2.5","","55","","","M","18","","12","","","","99.66","","","","","","NA"
"-80.37","45.03","WESTERN ISLAND (AUT)","6119M51","2018-05-13 09:00","2018","05","13","09:00","6.3","","-3.0","","51","","","M","7","","5","","","","99.63","","","","","","NA"
"-80.37","45.03","WESTERN ISLAND (AUT)","6119M51","2018-05-13 10:00","2018","05","13","10:00","7.2","","-1.6","","54","","","M","11","","11","","","","99.56","","","","","","NA"
"-80.37","45.03","WESTERN ISLAND (AUT)","6119M51","2018-05-13 11:00","2018","05","13","11:00","8.6","","-3.2","","43","","","M","8","","10","","","","99.50","","","","","","NA"
"-80.37","45.03","WESTERN ISLAND (AUT)","6119M51","2018-05-13 12:00","2018","05","13","12:00","9.7","","-2.6","","42","","","M","6","","11","","","","99.44","","","","","","NA"
"-80.37","45.03","WESTERN ISLAND (AUT)","6119M51","2018-05-13 13:00","2018","05","13","13:00","10.5","","-4.4","","35","","","M","3","","10","","","","99.35","","","","","","NA"
"-80.37","45.03","WESTERN ISLAND (AUT)","6119M51","2018-05-13 14:00","2018","05","13","14:00","10.6","","-5.9","","31","","","M","36","","15","","","","99.31","","","","","","NA"
"-80.37","45.03","WESTERN ISLAND (AUT)","6119M51","2018-05-13 15:00","2018","05","13","15:00","12.2","","-4.3","","31","","","M","32","","19","","","","99.22","","","","","","NA"
"-80.37","45.03","WESTERN ISLAND (AUT)","6119M51","2018-05-13 16:00","2018","05","13","16:00","13.6","","-2.7","","32","","","M","32","","14","","","","99.16","","","","","","NA"
"-80.37","45.03","WESTERN ISLAND (AUT)","6119M51","2018-05-13 17:00","2018","05","13","17:00","11.7","","-2.6","","37","","","M","32","","12","","","","99.12","","","","","","NA"
"-80.37","45.03","WESTERN ISLAND (AUT)","6119M51","2018-05-13 18:00","2018","05","13","18:00","11.8","","-3.6","","34","","","M","32","","16","","","","99.09","","","","","","NA"
"-80.37","45.03","WESTERN ISLAND (AUT)","6119M51","2018-05-13 19:00","2018","05","13","19:00","13.1","","-2.3","","34","","","M","30","","12","","","","99.06","","","","","","NA"
"-80.37","45.03","WESTERN ISLAND (AUT)","6119M51","2018-05-13 20:00","2018","05","13","20:00","11.5","","-1.0","","42","","","M","33","","20","","","","99.06","","","","","","NA"
"-80.37","45.03","WESTERN ISLAND (AUT)","6119M51","2018-05-13 21:00","2018","05","13","21:00","12.0","","-2.7","","36","","","M","34","","6","","","","99.06","","","","","","NA"
"-80.37","45.03","WESTERN ISLAND (AUT)","6119M51","2018-05-13 22:00","2018","05","13","22:00","7.2","","-1.9","","53","","","M","19","","9","","","","99.04","","","","","","NA"
"-80.37","45.03","WESTERN ISLAND (AUT)","6119M51","2018-05-13 23:00","2018","05","13","23:00","8.1","","-1.9","","49","","","M","20","","17","","","","99.02","","","","","","NA"
"-80.37","45.03","WESTERN ISLAND (AUT)","6119M51","2018-05-14 00:00","2018","05","14","00:00","8.0","","-1.1","","52","","","M","22","","16","","","","99.02","","","","","","NA"
"-80.37","45.03","WESTERN ISLAND (AUT)","6119M51","2018-05-14 01:00","2018","05","14","01:00","9.6","","-0.6","","49","","","M","22","","15","","","","98.98","","","","","","NA"
"-80.37","45.03","WESTERN ISLAND (AUT)","6119M51","2018-05-14 02:00","2018","05","14","02:00","8.8","","0.9","","57","","","M","20","","21","","","","98.94","","","","","","NA"
"-80.37","45.03","WESTERN ISLAND (AUT)","6119M51","2018-05-14 03:00","2018","05","14","03:00","8.6","","-0.1","","54","","","M","21","","17","","","","98.93","","","","","","NA"
"-80.37","45.03","WESTERN ISLAND (AUT)","6119M51","2018-05-14 04:00","2018","05","14","04:00","8.7","","0.3","","56","","","M","22","","19","","","","98.94","","","","","","NA"
"-80.37","45.03","WESTERN ISLAND (AUT)","6119M51","2018-05-14 05:00","2018","05","14","05:00","10.6","","1.4","","53","","","M","21","","24","","","","98.91","","","","","","NA"
"-80.37","45.03","WESTERN ISLAND (AUT)","6119M51","2018-05-14 06:00","2018","05","14","06:00","8.7","","3.5","","70","","","M","22","","22","","","","98.90","","","","","","NA"
"-80.37","45.03","WESTERN ISLAND (AUT)","6119M51","2018-05-14 07:00","2018","05","14","07:00","7.0","","3.8","","80","","","M","23","","23","","","","98.94","","","","","","NA"
"-80.37","45.03","WESTERN ISLAND (AUT)","6119M51","2018-05-14 08:00","2018","05","14","08:00","8.1","","5.9","","86","","","M","25","","26","","","","98.93","","","","","","NA"
"-80.37","45.03","WESTERN ISLAND (AUT)","6119M51","2018-05-14 09:00","2018","05","14","09:00","8.2","","6.5","","89","","","M","25","","23","","","","98.99","","","","","","NA"
"-80.37","45.03","WESTERN ISLAND (AUT)","6119M51","2018-05-14 10:00","2018","05","14","10:00","9.5","","7.2","","86","","","M","26","","23","","","","99.00","","","","","","NA"
"-80.37","45.03","WESTERN ISLAND (AUT)","6119M51","2018-05-14 11:00","2018","05","14","11:00","8.4","","6.0","","85","","","M","22","","12","","","","99.01","","","","","","NA"
"-80.37","45.03","WESTERN ISLAND (AUT)","6119M51","2018-05-14 12:00","2018","05","14","12:00","11.5","","8.0","","79","","","M","27","","12","","","","99.06","","","","","","NA"
"-80.37","45.03","WESTERN ISLAND (AUT)","6119M51","2018-05-14 13:00","2018","05","14","13:00","10.2","","6.8","","79","","","M","25","","7","","","","98.94","","","","","","NA"
"-80.37","45.03","WESTERN ISLAND (AUT)","6119M51","2018-05-14 14:00","2018","05","14","14:00","13.4","","6.5","","63","","","M","32","","3","","","","98.88","","","","","","NA"
"-80.37","45.03","WESTERN ISLAND (AUT)","6119M51","2018-05-14 15:00","2018","05","14","15:00","10.2","","6.4","","77","","","M","3","","8","","","","98.77","","","","","","NA"
"-80.37","45.03","WESTERN ISLAND (AUT)","6119M51","2018-05-14 16:00","2018","05","14","16:00","10.7","","7.1","","79","","","M","6","","16","","","","98.67","","","","","","NA"
"-80.37","45.03","WESTERN ISLAND (AUT)","6119M51","2018-05-14 17:00","2018","05","14","17:00","10.9","","8.6","","86","","","M","4","","17","","","","98.62","","","","","","NA"
"-80.37","45.03","WESTERN ISLAND (AUT)","6119M51","2018-05-14 18:00","2018","05","14","18:00","12.9","","9.5","","80","","","M","36","","9","","","","98.64","","","","","","NA"
"-80.37","45.03","WESTERN ISLAND (AUT)","6119M51","2018-05-14 19:00","2018","05","14","19:00","12.4","","9.6","","83","","","M","26","","9","","","","98.68","","","","","","NA"
"-80.37","45.03","WESTERN ISLAND (AUT)","6119M51","2018-05-14 20:00","2018","05","14","20:00","10.0","","8.1","","88","","","M","25","","15","","","","98.67","","","","","","NA"
"-80.37","45.03","WESTERN ISLAND (AUT)","6119M51","2018-05-14 21:00","2018","05","14","21:00","7.5","","6.4","","93","","","M","18","","12","","","","98.68","","","","","","NA"
"-80.37","45.03","WESTERN ISLAND (AUT)","6119M51","2018-05-14 22:00","2018","05","14","22:00","9.5","","8.3","","92","","","M","19","","9","","","","98.64","","","","","","NA"
"-80.37","45.03","WESTERN ISLAND (AUT)","6119M51","2018-05-14 23:00","2018","05","14","23:00","10.5","","9.7","","95","","","M","18","","20","","","","98.58","","","","","","NA"
"-80.37","45.03","WESTERN ISLAND (AUT)","6119M51","2018-05-15 00:00","2018","05","15","00:00","11.2","","9.4","","89","","","M","18","","21","","","","98.55","","","","","","NA"
"-80.37","45.03","WESTERN ISLAND (AUT)","6119M51","2018-05-15 01:00","2018","05","15","01:00","12.0","","10.2","","88","","","M","17","","19","","","","98.49","","","","","","NA"
"-80.37","45.03","WESTERN ISLAND (AUT)","6119M51","2018-05-15 02:00","2018","05","15","02:00","8.7","","6.9","","89","","","M","18","","19","","","","98.57","","","","","","NA"
"-80.37","45.03","WESTERN ISLAND (AUT)","6119M51","2018-05-15 03:00","2018","05","15","03:00","10.1","","8.4","","89","","","M","16","","12","","","","98.50","","","","","","NA"
"-80.37","45.03","WESTERN ISLAND (AUT)","6119M51","2018-05-15 04:00","2018","05","15","04:00","11.2","","10.1","","93","","","M","8","","8","","","","98.48","","","","","","NA"
"-80.37","45.03","WESTERN ISLAND (AUT)","6119M51","2018-05-15 05:00","2018","05","15","05:00","11.7","","11.0","","96","","","M","28","","12","","","","98.49","","","","","","NA"
"-80.37","45.03","WESTERN ISLAND (AUT)","6119M51","2018-05-15 06:00","2018","05","15","06:00","9.5","","9.0","","97","","","M","33","","16","","","","98.59","","","","","","NA"
"-80.37","45.03","WESTERN ISLAND (AUT)","6119M51","2018-05-15 07:00","2018","05","15","07:00","9.2","","8.7","","97","","","M","35","","19","","","","98.64","","","","","","NA"
"-80.37","45.03","WESTERN ISLAND (AUT)","6119M51","2018-05-15 08:00","2018","05","15","08:00","5.6","","5.2","","97","","","M","29","","15","","","","98.73","","","","","","NA"
"-80.37","45.03","WESTERN ISLAND (AUT)","6119M51","2018-05-15 09:00","2018","05","15","09:00","6.8","","6.4","","97","","","M","32","","16","","","","98.80","","","","","","NA"
"-80.37","45.03","WESTERN ISLAND (AUT)","6119M51","2018-05-15 10:00","2018","05","15","10:00","10.2","","7.2","","81","","","M","1","","28","","","","98.85","","","","","","NA"
"-80.37","45.03","WESTERN ISLAND (AUT)","6119M51","2018-05-15 11:00","2018","05","15","11:00","11.4","","5.1","","65","","","M","2","","25","","","","98.94","","","","","","NA"
"-80.37","45.03","WESTERN ISLAND (AUT)","6119M51","2018-05-15 12:00","2018","05","15","12:00","11.1","","4.5","","64","","","M","36","","25","","","","99.07","","","","","","NA"
"-80.37","45.03","WESTERN ISLAND (AUT)","6119M51","2018-05-15 13:00","2018","05","15","13:00","8.9","","3.0","","67","","","M","35","","30","","","","99.13","","","","","","NA"
"-80.37","45.03","WESTERN ISLAND (AUT)","6119M51","2018-05-15 14:00","2018","05","15","14:00","10.0","","1.8","","57","","","M","33","","34","","","","99.18","","","","","","NA"
"-80.37","45.03","WESTERN ISLAND (AUT)","6119M51","2018-05-15 15:00","2018","05","15","15:00","11.0","","1.2","","51","","","M","32","","36","","","","99.18","","","","","","NA"
"-80.37","45.03","WESTERN ISLAND (AUT)","6119M51","2018-05-15 16:00","2018","05","15","16:00","7.7","","1.3","","64","","","M","32","","39","","","","99.19","","","","","","NA"
"-80.37","45.03","WESTERN ISLAND (AUT)","6119M51","2018-05-15 17:00","2018","05","15","17:00","7.9","","1.4","","63","","","M","31","","28","","","","99.23","","","","","","NA"
"-80.37","45.03","WESTERN ISLAND (AUT)","6119M51","2018-05-15 18:00","2018","05","15","18:00","7.5","","1.2","","64","","","M","30","","26","","","","99.25","","","","","","NA"
"-80.37","45.03","WESTERN ISLAND (AUT)","6119M51","2018-05-15 19:00","2018","05","15","19:00","8.1","","1.2","","62","","","M","29","","24","","","","99.24","","","","","","NA"
"-80.37","45.03","WESTERN ISLAND (AUT)","6119M51","2018-05-15 20:00","2018","05","15","20:00","5.9","","1.4","","73","","","M","31","","27","","","","99.30","","","","","","NA"
"-80.37","45.03","WESTERN ISLAND (AUT)","6119M51","2018-05-15 21:00","2018","05","15","21:00","6.5","","1.4","","70","","","M","33","","27","","","","99.38","","","","","","NA"
"-80.37","45.03","WESTERN ISLAND (AUT)","6119M51","2018-05-15 22:00","2018","05","15","22:00","6.1","","1.8","","74","","","M","1","","21","","","","99.41","","","","","","NA"
"-80.37","45.03","WESTERN ISLAND (AUT)","6119M51","2018-05-15 23:00","2018","05","15","23:00","8.1","","2.6","","68","","","M","36","","25","","","","99.45","","","","","","NA"
"-80.37","45.03","WESTERN ISLAND (AUT)","6119M51","2018-05-16 00:00","2018","05","16","00:00","9.0","","1.7","","60","","","M","34","","20","","","","99.48","","","","","","NA"
"-80.37","45.03","WESTERN ISLAND (AUT)","6119M51","2018-05-16 01:00","2018","05","16","01:00","7.9","","2.1","","67","","","M","35","","17","","","","99.46","","","","","","NA"
"-80.37","45.03","WESTERN ISLAND (AUT)","6119M51","2018-05-16 02:00","2018","05","16","02:00","7.3","","3.3","","76","","","M","1","","15","","","","99.42","","","","","","NA"
"-80.37","45.03","WESTERN ISLAND (AUT)","6119M51","2018-05-16 03:00","2018","05","16","03:00","6.9","","4.9","","88","","","M","6","","12","","","","99.40","","","","","","NA"
"-80.37","45.03","WESTERN ISLAND (AUT)","6119M51","2018-05-16 04:00","2018","05","16","04:00","7.5","","5.8","","89","","","M","9","","19","","","","99.44","","","","","","NA"
"-80.37","45.03","WESTERN ISLAND (AUT)","6119M51","2018-05-16 05:00","2018","05","16","05:00","5.9","","3.6","","85","","","M","13","","25","","","","99.40","","","","","","NA"
"-80.37","45.03","WESTERN ISLAND (AUT)","6119M51","2018-05-16 06:00","2018","05","16","06:00","7.8","","6.2","","90","","","M","13","","28","","","","99.44","","","","","","NA"
"-80.37","45.03","WESTERN ISLAND (AUT)","6119M51","2018-05-16 07:00","2018","05","16","07:00"
"-80.37","45.03","WESTERN ISLAND (AUT)","6119M51","2018-05-16 08:00","2018","05","16","08:00"
"-80.37","45.03","WESTERN ISLAND (AUT)","6119M51","2018-05-16 09:00","2018","05","16","09:00"
"-80.37","45.03","WESTERN ISLAND (AUT)","6119M51","2018-05-16 10:00","2018","05","16","10:00","8.4","","3.3","","70","","","M","17","","28","","","","99.33","","","","","","NA"
"-80.37","45.03","WESTERN ISLAND (AUT)","6119M51","2018-05-16 11:00","2018","05","16","11:00","10.1","","4.3","","67","","","M","17","","26","","","","99.33","","","","","","NA"
"-80.37","45.03","WESTERN ISLAND (AUT)","6119M51","2018-05-16 12:00","2018","05","16","12:00","10.8","","4.0","","63","","","M","18","","27","","","","99.32","","","","","","NA"
"-80.37","45.03","WESTERN ISLAND (AUT)","6119M51","2018-05-16 13:00","2018","05","16","13:00","15.6","","4.7","","48","","","M","19","","9","","","","99.28","","","","","","NA"
"-80.37","45.03","WESTERN ISLAND (AUT)","6119M51","2018-05-16 14:00","2018","05","16","14:00","14.2","","5.1","","54","","","M","16","","3","","","","99.25","","","","","","NA"
"-80.37","45.03","WESTERN ISLAND (AUT)","6119M51","2018-05-16 15:00","2018","05","16","15:00","14.3","","4.5","","52","","","M","34","","6","","","","99.21","","","","","","NA"
"-80.37","45.03","WESTERN ISLAND (AUT)","6119M51","2018-05-16 16:00","2018","05","16","16:00","14.8","","0.9","","39","","","M","1","","7","","","","99.15","","","","","","NA"
"-80.37","45.03","WESTERN ISLAND (AUT)","6119M51","2018-05-16 17:00","2018","05","16","17:00","15.6","","2.7","","42","","","M","5","","5","","","","99.13","","","","","","NA"
"-80.37","45.03","WESTERN ISLAND (AUT)","6119M51","2018-05-16 18:00","2018","05","16","18:00","14.1","","1.6","","43","","","M","13","","14","","","","99.04","","","","","","NA"
"-80.37","45.03","WESTERN ISLAND (AUT)","6119M51","2018-05-16 19:00","2018","05","16","19:00","15.9","","2.4","","40","","","M","16","","23","","","","99.01","","","","","","NA"
"-80.37","45.03","WESTERN ISLAND (AUT)","6119M51","2018-05-16 20:00","2018","05","16","20:00","9.5","","2.8","","63","","","M","19","","28","","","","99.02","","","","","","NA"
"-80.37","45.03","WESTERN ISLAND (AUT)","6119M51","2018-05-16 21:00","2018","05","16","21:00","16.1","","4.1","","45","","","M","19","","29","","","","99.02","","","","","","NA"
"-80.37","45.03","WESTERN ISLAND (AUT)","6119M51","2018-05-16 22:00","2018","05","16","22:00","17.1","","5.9","","48","","","M","20","","40","","","","99.00","","","","","","NA"
"-80.37","45.03","WESTERN ISLAND (AUT)","6119M51","2018-05-16 23:00","2018","05","16","23:00","9.9","","4.3","","68","","","M","35","","13","","","","99.12","","","","","","NA"
"-80.37","45.03","WESTERN ISLAND (AUT)","6119M51","2018-05-17 00:00","2018","05","17","00:00","11.2","","5.0","","66","","","M","12","","3","","","","99.13","","","","","","NA"
"-80.37","45.03","WESTERN ISLAND (AUT)","6119M51","2018-05-17 01:00","2018","05","17","01:00","11.3","","5.5","","68","","","M","32","","14","","","","99.15","","","","","","NA"
"-80.37","45.03","WESTERN ISLAND (AUT)","6119M51","2018-05-17 02:00","2018","05","17","02:00","12.9","","7.0","","67","","","M","26","","9","","","","99.08","","","","","","NA"
"-80.37","45.03","WESTERN ISLAND (AUT)","6119M51","2018-05-17 03:00","2018","05","17","03:00","10.9","","4.4","","65","","","M","1","","25","","","","99.16","","","","","","NA"
"-80.37","45.03","WESTERN ISLAND (AUT)","6119M51","2018-05-17 04:00","2018","05","17","04:00","10.6","","6.1","","74","","","M","34","","20","","","","99.20","","","","","","NA"
"-80.37","45.03","WESTERN ISLAND (AUT)","6119M51","2018-05-17 05:00","2018","05","17","05:00","8.6","","6.2","","85","","","M","1","","25","","","","99.27","","","","","","NA"
"-80.37","45.03","WESTERN ISLAND (AUT)","6119M51","2018-05-17 06:00","2018","05","17","06:00","8.1","","4.9","","80","","","M","3","","31","","","","99.34","","","","","","NA"
"-80.37","45.03","WESTERN ISLAND (AUT)","6119M51","2018-05-17 07:00","2018","05","17","07:00","8.0","","4.1","","77","","","M","2","","24","","","","99.47","","","","","","NA"
"-80.37","45.03","WESTERN ISLAND (AUT)","6119M51","2018-05-17 08:00","2018","05","17","08:00","7.7","","3.4","","74","","","M","2","","26","","","","99.54","","","","","","NA"
"-80.37","45.03","WESTERN ISLAND (AUT)","6119M51","2018-05-17 09:00","2018","05","17","09:00","7.8","","3.2","","72","","","M","2","","24","","","","99.60","","","","","","NA"
"-80.37","45.03","WESTERN ISLAND (AUT)","6119M51","2018-05-17 10:00","2018","05","17","10:00","8.1","","3.2","","71","","","M","1","","30","","","","99.66","","","","","","NA"
"-80.37","45.03","WESTERN ISLAND (AUT)","6119M51","2018-05-17 11:00","2018","05","17","11:00","7.9","","3.1","","72","","","M","36","","34","","","","99.73","","","","","","NA"
"-80.37","45.03","WESTERN ISLAND (AUT)","6119M51","2018-05-17 12:00","2018","05","17","12:00","7.8","","2.9","","71","","","M","36","","32","","","","99.76","","","","","","NA"
"-80.37","45.03","WESTERN ISLAND (AUT)","6119M51","2018-05-17 13:00","2018","05","17","13:00","7.6","","2.3","","69","","","M","35","","36","","","","99.78","","","","","","NA"
"-80.37","45.03","WESTERN ISLAND (AUT)","6119M51","2018-05-17 14:00","2018","05","17","14:00","8.7","","1.7","","61","","","M","35","","40","","","","99.77","","","","","","NA"
"-80.37","45.03","WESTERN ISLAND (AUT)","6119M51","2018-05-17 15:00","2018","05","17","15:00","8.1","","1.5","","63","","","M","34","","38","","","","99.82","","","","","","NA"
"-80.37","45.03","WESTERN ISLAND (AUT)","6119M51","2018-05-17 16:00","2018","05","17","16:00","9.2","","-0.3","","51","","","M","35","","43","","","","99.81","","","","","","NA"
"-80.37","45.03","WESTERN ISLAND (AUT)","6119M51","2018-05-17 17:00","2018","05","17","17:00","8.7","","-0.6","","52","","","M","35","","44","","","","99.83","","","","","","NA"
"-80.37","45.03","WESTERN ISLAND (AUT)","6119M51","2018-05-17 18:00","2018","05","17","18:00","9.4","","-0.1","","52","","","M","35","","39","","","","99.86","","","","","","NA"
"-80.37","45.03","WESTERN ISLAND (AUT)","6119M51","2018-05-17 19:00","2018","05","17","19:00","10.6","","-0.8","","45","","","M","36","","36","","","","99.89","","","","","","NA"
"-80.37","45.03","WESTERN ISLAND (AUT)","6119M51","2018-05-17 20:00","2018","05","17","20:00","11.5","","-2.8","","37","","","M","2","","30","","","","99.96","","","","","","NA"
"-80.37","45.03","WESTERN ISLAND (AUT)","6119M51","2018-05-17 21:00","2018","05","17","21:00","11.3","","-3.2","","36","","","M","2","","37","","","","100.08","","","","","","NA"
"-80.37","45.03","WESTERN ISLAND (AUT)","6119M51","2018-05-17 22:00","2018","05","17","22:00","10.5","","-4.4","","35","","","M","3","","38","","","","100.15","","","","","","NA"
"-80.37","45.03","WESTERN ISLAND (AUT)","6119M51","2018-05-17 23:00","2018","05","17","23:00","9.4","","-2.9","","42","","","M","4","","34","","","","100.23","","","","","","NA"
"-80.37","45.03","WESTERN ISLAND (AUT)","6119M51","2018-05-18 00:00","2018","05","18","00:00","9.5","","-3.9","","39","","","M","6","","30","","","","100.29","","","","","","NA"
"-80.37","45.03","WESTERN ISLAND (AUT)","6119M51","2018-05-18 01:00","2018","05","18","01:00","9.2","","-4.1","","39","","","M","6","","30","","","","100.31","","","","","","NA"
"-80.37","45.03","WESTERN ISLAND (AUT)","6119M51","2018-05-18 02:00","2018","05","18","02:00","8.3","","-3.6","","43","","","M","7","","30","","","","100.30","","","","","","NA"
"-80.37","45.03","WESTERN ISLAND (AUT)","6119M51","2018-05-18 03:00","2018","05","18","03:00","7.8","","-3.1","","46","","","M","6","","32","","","","100.31","","","","","","NA"
"-80.37","45.03","WESTERN ISLAND (AUT)","6119M51","2018-05-18 04:00","2018","05","18","04:00","7.6","","-3.2","","46","","","M","7","","31","","","","100.35","","","","","","NA"
"-80.37","45.03","WESTERN ISLAND (AUT)","6119M51","2018-05-18 05:00","2018","05","18","05:00","7.1","","-3.4","","47","","","M","8","","32","","","","100.37","","","","","","NA"
"-80.37","45.03","WESTERN ISLAND (AUT)","6119M51","2018-05-18 06:00","2018","05","18","06:00","6.3","","-2.8","","52","","","M","8","","32","","","","100.39","","","","","","NA"
"-80.37","45.03","WESTERN ISLAND (AUT)","6119M51","2018-05-18 07:00","2018","05","18","07:00","6.2","","-1.8","","57","","","M","9","","26","","","","100.45","","","","","","NA"
"-80.37","45.03","WESTERN ISLAND (AUT)","6119M51","2018-05-18 08:00","2018","05","18","08:00","7.5","","-1.8","","52","","","M","10","","25","","","","100.51","","","","","","NA"
"-80.37","45.03","WESTERN ISLAND (AUT)","6119M51","2018-05-18 09:00","2018","05","18","09:00","8.7","","-2.4","","45","","","M","12","","29","","","","100.52","","","","","","NA"
"-80.37","45.03","WESTERN ISLAND (AUT)","6119M51","2018-05-18 10:00","2018","05","18","10:00","8.8","","-1.8","","47","","","M","10","","23","","","","100.56","","","","","","NA"
"-80.37","45.03","WESTERN ISLAND (AUT)","6119M51","2018-05-18 11:00","2018","05","18","11:00","10.3","","-2.7","","40","","","M","13","","28","","","","100.47","","","","","","NA"
"-80.37","45.03","WESTERN ISLAND (AUT)","6119M51","2018-05-18 12:00","2018","05","18","12:00","11.6","","-4.1","","33","","","M","12","","22","","","","100.41","","","","","","NA"
"-80.37","45.03","WESTERN ISLAND (AUT)","6119M51","2018-05-18 13:00","2018","05","18","13:00","12.8","","-4.0","","31","","","M","14","","22","","","","100.31","","","","","","NA"
"-80.37","45.03","WESTERN ISLAND (AUT)","6119M51","2018-05-18 14:00","2018","05","18","14:00","14.7","","-4.5","","26","","","M","14","","26","","","","100.26","","","","","","NA"
"-80.37","45.03","WESTERN ISLAND (AUT)","6119M51","2018-05-18 15:00","2018","05","18","15:00","14.5","","-3.7","","28","","","M","14","","25","","","","100.20","","","","","","NA"
"-80.37","45.03","WESTERN ISLAND (AUT)","6119M51","2018-05-18 16:00","2018","05","18","16:00","12.6","","-2.1","","36","","","M","21","","6","","","","100.11","","","","","","NA"
"-80.37","45.03","WESTERN ISLAND (AUT)","6119M51","2018-05-18 17:00","2018","05","18","17:00","12.7","","-1.6","","37","","","M","4","","10","","","","100.06","","","","","","NA"
"-80.37","45.03","WESTERN ISLAND (AUT)","6119M51","2018-05-18 18:00","2018","05","18","18:00","13.8","","-2.9","","31","","","M","5","","11","","","","100.03","","","","","","NA"
"-80.37","45.03","WESTERN ISLAND (AUT)","6119M51","2018-05-18 19:00","2018","05","18","19:00","14.9","","-2.6","","30","","","M","13","","26","","","","99.98","","","","","","NA"
"-80.37","45.03","WESTERN ISLAND (AUT)","6119M51","2018-05-18 20:00","2018","05","18","20:00","17.3","","-4.7","","22","","","M","13","","31","","","","99.94","","","","","","NA"
"-80.37","45.03","WESTERN ISLAND (AUT)","6119M51","2018-05-18 21:00","2018","05","18","21:00","17.0","","-3.3","","25","","","M","13","","32","","","","99.94","","","","","","NA"
"-80.37","45.03","WESTERN ISLAND (AUT)","6119M51","2018-05-18 22:00","2018","05","18","22:00","15.2","","-1.1","","33","","","M","12","","30","","","","99.92","","","","","","NA"
"-80.37","45.03","WESTERN ISLAND (AUT)","6119M51","2018-05-18 23:00","2018","05","18","23:00","10.7","","1.5","","53","","","M","12","","22","","","","99.87","","","","","","NA"
"-80.37","45.03","WESTERN ISLAND (AUT)","6119M51","2018-05-19 00:00","2018","05","19","00:00","13.3","","0.2","","41","","","M","12","","35","","","","99.83","","","","","","NA"
"-80.37","45.03","WESTERN ISLAND (AUT)","6119M51","2018-05-19 01:00","2018","05","19","01:00","12.1","","0.3","","45","","","M","12","","41","","","","99.76","","","","","","NA"
"-80.37","45.03","WESTERN ISLAND (AUT)","6119M51","2018-05-19 02:00","2018","05","19","02:00","11.8","","0.2","","45","","","M","12","","44","","","","99.67","","","","","","NA"
"-80.37","45.03","WESTERN ISLAND (AUT)","6119M51","2018-05-19 03:00","2018","05","19","03:00","10.7","","0.4","","49","","","M","12","","40","","","","99.59","","","","","","NA"
"-80.37","45.03","WESTERN ISLAND (AUT)","6119M51","2018-05-19 04:00","2018","05","19","04:00","11.1","","0.4","","47","","","M","12","","45","","","","99.51","","","","","","NA"
"-80.37","45.03","WESTERN ISLAND (AUT)","6119M51","2018-05-19 05:00","2018","05","19","05:00","10.2","","1.4","","54","","","M","12","","38","","","","99.45","","","","","","NA"
"-80.37","45.03","WESTERN ISLAND (AUT)","6119M51","2018-05-19 06:00","2018","05","19","06:00","9.3","","2.3","","62","","","M","13","","35","","","","99.39","","","","","","NA"
"-80.37","45.03","WESTERN ISLAND (AUT)","6119M51","2018-05-19 07:00","2018","05","19","07:00","10.5","","3.3","","61","","","M","12","","41","","","","99.33","","","","","","NA"
"-80.37","45.03","WESTERN ISLAND (AUT)","6119M51","2018-05-19 08:00","2018","05","19","08:00","10.6","","4.8","","67","","","M","12","","40","","","","99.28","","","","","","NA"
"-80.37","45.03","WESTERN ISLAND (AUT)","6119M51","2018-05-19 09:00","2018","05","19","09:00","10.9","","7.5","","79","","","M","12","","46","","","","99.20","","","","","","NA"
"-80.37","45.03","WESTERN ISLAND (AUT)","6119M51","2018-05-19 10:00","2018","05","19","10:00","10.0","","8.8","","92","","","M","12","","42","","","","99.11","","","","","","NA"
"-80.37","45.03","WESTERN ISLAND (AUT)","6119M51","2018-05-19 11:00","2018","05","19","11:00","10.1","","9.2","","94","","","M","12","","41","","","","99.02","","","","","","NA"
"-80.37","45.03","WESTERN ISLAND (AUT)","6119M51","2018-05-19 12:00","2018","05","19","12:00","10.7","","10.1","","96","","","M","12","","39","","","","98.95","","","","","","NA"
"-80.37","45.03","WESTERN ISLAND (AUT)","6119M51","2018-05-19 13:00","2018","05","19","13:00","9.6","","9.1","","97","","","M","13","","32","","","","98.85","","","","","","NA"
"-80.37","45.03","WESTERN ISLAND (AUT)","6119M51","2018-05-19 14:00","2018","05","19","14:00","11.3","","10.9","","97","","","M","14","","30","","","","98.78","","","","","","NA"
"-80.37","45.03","WESTERN ISLAND (AUT)","6119M51","2018-05-19 15:00","2018","05","19","15:00","9.5","","9.0","","97","","","M","13","","26","","","","98.68","","","","","","NA"
"-80.37","45.03","WESTERN ISLAND (AUT)","6119M51","2018-05-19 16:00","2018","05","19","16:00","12.3","","11.9","","97","","","M","13","","27","","","","98.59","","","","","","NA"
"-80.37","45.03","WESTERN ISLAND (AUT)","6119M51","2018-05-19 17:00","2018","05","19","17:00","11.7","","11.2","","97","","","M","14","","24","","","","98.57","","","","","","NA"
"-80.37","45.03","WESTERN ISLAND (AUT)","6119M51","2018-05-19 18:00","2018","05","19","18:00","10.8","","10.3","","97","","","M","17","","20","","","","98.55","","","","","","NA"
"-80.37","45.03","WESTERN ISLAND (AUT)","6119M51","2018-05-19 19:00","2018","05","19","19:00","11.4","","11.0","","97","","","M","17","","22","","","","98.52","","","","","","NA"
"-80.37","45.03","WESTERN ISLAND (AUT)","6119M51","2018-05-19 20:00","2018","05","19","20:00","11.7","","11.3","","97","","","M","26","","23","","","","98.55","","","","","","NA"
"-80.37","45.03","WESTERN ISLAND (AUT)","6119M51","2018-05-19 21:00","2018","05","19","21:00","9.9","","9.5","","98","","","M","28","","32","","","","98.61","","","","","","NA"
"-80.37","45.03","WESTERN ISLAND (AUT)","6119M51","2018-05-19 22:00","2018","05","19","22:00","9.9","","9.6","","98","","","M","28","","36","","","","98.67","","","","","","NA"
"-80.37","45.03","WESTERN ISLAND (AUT)","6119M51","2018-05-19 23:00","2018","05","19","23:00","6.5","","6.1","","97","","","M","29","","32","","","","98.70","","","","","","NA"
"-80.37","45.03","WESTERN ISLAND (AUT)","6119M51","2018-05-20 00:00","2018","05","20","00:00","5.5","","5.1","","98","","","M","28","","35","","","","98.77","","","","","","NA"
"-80.37","45.03","WESTERN ISLAND (AUT)","6119M51","2018-05-20 01:00","2018","05","20","01:00","5.1","","4.8","","98","","","M","30","","29","","","","98.83","","","","","","NA"
"-80.37","45.03","WESTERN ISLAND (AUT)","6119M51","2018-05-20 02:00","2018","05","20","02:00","6.2","","5.8","","97","","","M","32","","35","","","","98.90","","","","","","NA"
"-80.37","45.03","WESTERN ISLAND (AUT)","6119M51","2018-05-20 03:00","2018","05","20","03:00","6.3","","5.9","","97","","","M","32","","40","","","","98.96","","","","","","NA"
"-80.37","45.03","WESTERN ISLAND (AUT)","6119M51","2018-05-20 04:00","2018","05","20","04:00","6.2","","5.8","","98","","","M","33","","34","","","","99.04","","","","","","NA"
"-80.37","45.03","WESTERN ISLAND (AUT)","6119M51","2018-05-20 05:00","2018","05","20","05:00","9.2","","8.8","","98","","","M","1","","27","","","","99.12","","","","","","NA"
"-80.37","45.03","WESTERN ISLAND (AUT)","6119M51","2018-05-20 06:00","2018","05","20","06:00","7.3","","5.5","","89","","","M","1","","35","","","","99.29","","","","","","NA"
"-80.37","45.03","WESTERN ISLAND (AUT)","6119M51","2018-05-20 07:00","2018","05","20","07:00","6.3","","4.7","","89","","","M","36","","33","","","","99.40","","","","","","NA"
"-80.37","45.03","WESTERN ISLAND (AUT)","6119M51","2018-05-20 08:00","2018","05","20","08:00","6.5","","4.6","","88","","","M","36","","36","","","","99.47","","","","","","NA"
"-80.37","45.03","WESTERN ISLAND (AUT)","6119M51","2018-05-20 09:00","2018","05","20","09:00","6.0","","4.4","","89","","","M","36","","27","","","","99.60","","","","","","NA"
"-80.37","45.03","WESTERN ISLAND (AUT)","6119M51","2018-05-20 10:00","2018","05","20","10:00","6.3","","4.2","","86","","","M","35","","21","","","","99.68","","","","","","NA"
"-80.37","45.03","WESTERN ISLAND (AUT)","6119M51","2018-05-20 11:00","2018","05","20","11:00","5.5","","3.8","","89","","","M","33","","21","","","","99.74","","","","","","NA"
"-80.37","45.03","WESTERN ISLAND (AUT)","6119M51","2018-05-20 12:00","2018","05","20","12:00","6.0","","3.9","","86","","","M","33","","28","","","","99.78","","","","","","NA"
"-80.37","45.03","WESTERN ISLAND (AUT)","6119M51","2018-05-20 13:00","2018","05","20","13:00","4.9","","3.2","","89","","","M","31","","27","","","","99.82","","","","","","NA"
"-80.37","45.03","WESTERN ISLAND (AUT)","6119M51","2018-05-20 14:00","2018","05","20","14:00","3.9","","2.6","","91","","","M","29","","23","","","","99.81","","","","","","NA"
"-80.37","45.03","WESTERN ISLAND (AUT)","6119M51","2018-05-20 15:00","2018","05","20","15:00","3.9","","2.5","","91","","","M","29","","30","","","","99.83","","","","","","NA"
"-80.37","45.03","WESTERN ISLAND (AUT)","6119M51","2018-05-20 16:00","2018","05","20","16:00","5.4","","2.5","","82","","","M","30","","32","","","","99.80","","","","","","NA"
"-80.37","45.03","WESTERN ISLAND (AUT)","6119M51","2018-05-20 17:00","2018","05","20","17:00","6.8","","2.0","","71","","","M","31","","32","","","","99.80","","","","","","NA"
"-80.37","45.03","WESTERN ISLAND (AUT)","6119M51","2018-05-20 18:00","2018","05","20","18:00","8.1","","-0.2","","56","","","M","32","","33","","","","99.80","","","","","","NA"
"-80.37","45.03","WESTERN ISLAND (AUT)","6119M51","2018-05-20 19:00","2018","05","20","19:00","6.1","","1.6","","73","","","M","33","","28","","","","99.76","","","","","","NA"
"-80.37","45.03","WESTERN ISLAND (AUT)","6119M51","2018-05-20 20:00","2018","05","20","20:00","4.9","","2.6","","85","","","M","30","","13","","","","99.77","","","","","","NA"
"-80.37","45.03","WESTERN ISLAND (AUT)","6119M51","2018-05-20 21:00","2018","05","20","21:00","4.2","","2.3","","87","","","M","27","","11","","","","99.82","","","","","","NA"
"-80.37","45.03","WESTERN ISLAND (AUT)","6119M51","2018-05-20 22:00","2018","05","20","22:00","5.5","","2.4","","81","","","M","31","","21","","","","99.83","","","","","","NA"
"-80.37","45.03","WESTERN ISLAND (AUT)","6119M51","2018-05-20 23:00","2018","05","20","23:00","5.2","","2.3","","81","","","M","27","","15","","","","99.87","","","","","","NA"
"-80.37","45.03","WESTERN ISLAND (AUT)","6119M51","2018-05-21 00:00","2018","05","21","00:00","4.9","","1.9","","81","","","M","25","","17","","","","99.88","","","","","","NA"
"-80.37","45.03","WESTERN ISLAND (AUT)","6119M51","2018-05-21 01:00","2018","05","21","01:00","6.0","","1.7","","74","","","M","25","","27","","","","99.90","","","","","","NA"
"-80.37","45.03","WESTERN ISLAND (AUT)","6119M51","2018-05-21 02:00","2018","05","21","02:00","4.5","","2.8","","89","","","M","25","","25","","","","99.95","","","","","","NA"
"-80.37","45.03","WESTERN ISLAND (AUT)","6119M51","2018-05-21 03:00","2018","05","21","03:00","4.6","","2.7","","88","","","M","25","","25","","","","99.94","","","","","","NA"
"-80.37","45.03","WESTERN ISLAND (AUT)","6119M51","2018-05-21 04:00","2018","05","21","04:00","4.5","","2.6","","88","","","M","26","","24","","","","99.97","","","","","","NA"
"-80.37","45.03","WESTERN ISLAND (AUT)","6119M51","2018-05-21 05:00","2018","05","21","05:00","4.0","","2.6","","91","","","M","26","","21","","","","99.99","","","","","","NA"
"-80.37","45.03","WESTERN ISLAND (AUT)","6119M51","2018-05-21 06:00","2018","05","21","06:00","4.2","","2.7","","90","","","M","25","","23","","","","100.02","","","","","","NA"
"-80.37","45.03","WESTERN ISLAND (AUT)","6119M51","2018-05-21 07:00","2018","05","21","07:00","4.4","","2.7","","89","","","M","26","","18","","","","100.10","","","","","","NA"
"-80.37","45.03","WESTERN ISLAND (AUT)","6119M51","2018-05-21 08:00","2018","05","21","08:00","4.6","","2.5","","87","","","M","26","","8","","","","100.14","","","","","","NA"
"-80.37","45.03","WESTERN ISLAND (AUT)","6119M51","2018-05-21 09:00","2018","05","21","09:00","4.9","","2.6","","85","","","M","22","","12","","","","100.12","","","","","","NA"
"-80.37","45.03","WESTERN ISLAND (AUT)","6119M51","2018-05-21 10:00","2018","05","21","10:00","5.7","","2.6","","81","","","M","23","","15","","","","100.11","","","","","","NA"
"-80.37","45.03","WESTERN ISLAND (AUT)","6119M51","2018-05-21 11:00","2018","05","21","11:00","7.3","","2.6","","72","","","M","24","","14","","","","100.09","","","","","","NA"
"-80.37","45.03","WESTERN ISLAND (AUT)","6119M51","2018-05-21 12:00","2018","05","21","12:00","8.5","","2.6","","67","","","M","23","","20","","","","100.02","","","","","","NA"
"-80.37","45.03","WESTERN ISLAND (AUT)","6119M51","2018-05-21 13:00","2018","05","21","13:00","11.2","","1.5","","51","","","M","23","","17","","","","99.96","","","","","","NA"
"-80.37","45.03","WESTERN ISLAND (AUT)","6119M51","2018-05-21 14:00","2018","05","21","14:00","12.5","","-0.9","","40","","","M","23","","15","","","","99.92","","","","","","NA"
"-80.37","45.03","WESTERN ISLAND (AUT)","6119M51","2018-05-21 15:00","2018","05","21","15:00","12.5","","-1.5","","38","","","M","22","","6","","","","99.86","","","","","","NA"
"-80.37","45.03","WESTERN ISLAND (AUT)","6119M51","2018-05-21 16:00","2018","05","21","16:00","10.8","","0.5","","49","","","M","9","","5","","","","99.81","","","","","","NA"
"-80.37","45.03","WESTERN ISLAND (AUT)","6119M51","2018-05-21 17:00","2018","05","21","17:00","12.4","","-0.9","","40","","","M","6","","7","","","","99.77","","","","","","NA"
"-80.37","45.03","WESTERN ISLAND (AUT)","6119M51","2018-05-21 18:00","2018","05","21","18:00","14.5","","-1.3","","34","","","M","6","","11","","","","99.72","","","","","","NA"
"-80.37","45.03","WESTERN ISLAND (AUT)","6119M51","2018-05-21 19:00","2018","05","21","19:00","15.6","","-4.1","","26","","","M","5","","10","","","","99.72","","","","","","NA"
"-80.37","45.03","WESTERN ISLAND (AUT)","6119M51","2018-05-21 20:00","2018","05","21","20:00","16.2","","-3.8","","25","","","M","6","","14","","","","99.64","","","","","","NA"
"-80.37","45.03","WESTERN ISLAND (AUT)","6119M51","2018-05-21 21:00","2018","05","21","21:00","11.0","","-0.5","","45","","","M","30","","13","","","","99.64","","","","","","NA"
"-80.37","45.03","WESTERN ISLAND (AUT)","6119M51","2018-05-21 22:00","2018","05","21","22:00","11.1","","-0.7","","44","","","M","29","","12","","","","99.67","","","","","","NA"
"-80.37","45.03","WESTERN ISLAND (AUT)","6119M51","2018-05-21 23:00","2018","05","21","23:00","11.5","","-1.2","","41","","","M","35","","10","","","","99.63","","","","","","NA"
"-80.37","45.03","WESTERN ISLAND (AUT)","6119M51","2018-05-22 00:00","2018","05","22","00:00","9.9","","-0.9","","47","","","M","30","","6","","","","99.64","","","","","","NA"
"-80.37","45.03","WESTERN ISLAND (AUT)","6119M51","2018-05-22 01:00","2018","05","22","01:00","11.6","","0.1","","45","","","M","5","","21","","","","99.50","","","","","","NA"
"-80.37","45.03","WESTERN ISLAND (AUT)","6119M51","2018-05-22 02:00","2018","05","22","02:00","11.1","","1.7","","52","","","M","5","","30","","","","99.36","","","","","","NA"
"-80.37","45.03","WESTERN ISLAND (AUT)","6119M51","2018-05-22 03:00","2018","05","22","03:00","10.6","","5.1","","69","","","M","3","","29","","","","99.32","","","","","","NA"
"-80.37","45.03","WESTERN ISLAND (AUT)","6119M51","2018-05-22 04:00","2018","05","22","04:00","12.7","","4.3","","57","","","M","9","","6","","","","99.32","","","","","","NA"
"-80.37","45.03","WESTERN ISLAND (AUT)","6119M51","2018-05-22 05:00","2018","05","22","05:00","13.8","","5.1","","56","","","M","10","","12","","","","99.31","","","","","","NA"
"-80.37","45.03","WESTERN ISLAND (AUT)","6119M51","2018-05-22 06:00","2018","05","22","06:00","12.3","","6.0","","66","","","M","17","","15","","","","99.33","","","","","","NA"
"-80.37","45.03","WESTERN ISLAND (AUT)","6119M51","2018-05-22 07:00","2018","05","22","07:00","10.0","","6.0","","76","","","M","11","","3","","","","99.36","","","","","","NA"
"-80.37","45.03","WESTERN ISLAND (AUT)","6119M51","2018-05-22 08:00","2018","05","22","08:00","10.0","","6.6","","79","","","M","8","","12","","","","99.32","","","","","","NA"
"-80.37","45.03","WESTERN ISLAND (AUT)","6119M51","2018-05-22 09:00","2018","05","22","09:00","11.5","","8.4","","82","","","M","6","","21","","","","99.26","","","","","","NA"
"-80.37","45.03","WESTERN ISLAND (AUT)","6119M51","2018-05-22 10:00","2018","05","22","10:00","12.5","","10.5","","88","","","M","7","","23","","","","99.21","","","","","","NA"
"-80.37","45.03","WESTERN ISLAND (AUT)","6119M51","2018-05-22 11:00","2018","05","22","11:00","13.2","","10.9","","86","","","M","7","","21","","","","99.18","","","","","","NA"
"-80.37","45.03","WESTERN ISLAND (AUT)","6119M51","2018-05-22 12:00","2018","05","22","12:00","13.8","","10.6","","81","","","M","6","","26","","","","99.16","","","","","","NA"
"-80.37","45.03","WESTERN ISLAND (AUT)","6119M51","2018-05-22 13:00","2018","05","22","13:00","13.6","","11.1","","85","","","M","6","","21","","","","99.13","","","","","","NA"
"-80.37","45.03","WESTERN ISLAND (AUT)","6119M51","2018-05-22 14:00","2018","05","22","14:00","12.8","","11.0","","89","","","M","10","","17","","","","99.09","","","","","","NA"
"-80.37","45.03","WESTERN ISLAND (AUT)","6119M51","2018-05-22 15:00","2018","05","22","15:00","12.7","","11.6","","93","","","M","13","","13","","","","99.07","","","","","","NA"
"-80.37","45.03","WESTERN ISLAND (AUT)","6119M51","2018-05-22 16:00","2018","05","22","16:00","13.0","","12.2","","95","","","M","14","","12","","","","99.05","","","","","","NA"
"-80.37","45.03","WESTERN ISLAND (AUT)","6119M51","2018-05-22 17:00","2018","05","22","17:00","12.6","","11.9","","95","","","M","16","","6","","","","99.07","","","","","","NA"
"-80.37","45.03","WESTERN ISLAND (AUT)","6119M51","2018-05-22 18:00","2018","05","22","18:00","8.5","","6.7","","89","","","M","24","","13","","","","99.07","","","","","","NA"
"-80.37","45.03","WESTERN ISLAND (AUT)","6119M51","2018-05-22 19:00","2018","05","22","19:00","9.4","","8.9","","97","","","M","31","","28","","","","99.09","","","","","","NA"
"-80.37","45.03","WESTERN ISLAND (AUT)","6119M51","2018-05-22 20:00","2018","05","22","20:00","9.4","","8.9","","96","","","M","31","","24","","","","99.11","","","","","","NA"
"-80.37","45.03","WESTERN ISLAND (AUT)","6119M51","2018-05-22 21:00","2018","05","22","21:00","9.7","","9.2","","96","","","M","30","","28","","","","99.17","","","","","","NA"
"-80.37","45.03","WESTERN ISLAND (AUT)","6119M51","2018-05-22 22:00","2018","05","22","22:00","9.6","","9.1","","97","","","M","29","","24","","","","99.20","","","","","","NA"
"-80.37","45.03","WESTERN ISLAND (AUT)","6119M51","2018-05-22 23:00","2018","05","22","23:00","7.1","","6.6","","97","","","M","26","","24","","","","99.18","","","","","","NA"
"-80.37","45.03","WESTERN ISLAND (AUT)","6119M51","2018-05-23 00:00","2018","05","23","00:00","8.1","","7.7","","97","","","M","25","","28","","","","99.19","","","","","","NA"
"-80.37","45.03","WESTERN ISLAND (AUT)","6119M51","2018-05-23 01:00","2018","05","23","01:00","8.0","","7.6","","97","","","M","25","","30","","","","99.19","","","","","","NA"
"-80.37","45.03","WESTERN ISLAND (AUT)","6119M51","2018-05-23 02:00","2018","05","23","02:00","7.3","","6.7","","96","","","M","24","","35","","","","99.17","","","","","","NA"
"-80.37","45.03","WESTERN ISLAND (AUT)","6119M51","2018-05-23 03:00","2018","05","23","03:00","7.1","","5.1","","87","","","M","25","","39","","","","99.16","","","","","","NA"
"-80.37","45.03","WESTERN ISLAND (AUT)","6119M51","2018-05-23 04:00","2018","05","23","04:00","7.0","","4.7","","85","","","M","26","","39","","","","99.20","","","","","","NA"
"-80.37","45.03","WESTERN ISLAND (AUT)","6119M51","2018-05-23 05:00","2018","05","23","05:00","6.8","","4.3","","84","","","M","27","","36","","","","99.27","","","","","","NA"
"-80.37","45.03","WESTERN ISLAND (AUT)","6119M51","2018-05-23 06:00","2018","05","23","06:00","6.9","","3.7","","80","","","M","26","","33","","","","99.35","","","","","","NA"
"-80.37","45.03","WESTERN ISLAND (AUT)","6119M51","2018-05-23 07:00","2018","05","23","07:00","6.0","","3.4","","83","","","M","28","","32","","","","99.44","","","","","","NA"
"-80.37","45.03","WESTERN ISLAND (AUT)","6119M51","2018-05-23 08:00","2018","05","23","08:00","6.1","","3.2","","82","","","M","30","","28","","","","99.51","","","","","","NA"
"-80.37","45.03","WESTERN ISLAND (AUT)","6119M51","2018-05-23 09:00","2018","05","23","09:00","7.3","","4.0","","79","","","M","33","","23","","","","99.56","","","","","","NA"
"-80.37","45.03","WESTERN ISLAND (AUT)","6119M51","2018-05-23 10:00","2018","05","23","10:00","5.8","","3.3","","84","","","M","30","","15","","","","99.60","","","","","","NA"
"-80.37","45.03","WESTERN ISLAND (AUT)","6119M51","2018-05-23 11:00","2018","05","23","11:00","6.1","","3.7","","84","","","M","30","","26","","","","99.68","","","","","","NA"
"-80.37","45.03","WESTERN ISLAND (AUT)","6119M51","2018-05-23 12:00","2018","05","23","12:00","7.2","","4.1","","81","","","M","29","","32","","","","99.69","","","","","","NA"
"-80.37","45.03","WESTERN ISLAND (AUT)","6119M51","2018-05-23 13:00","2018","05","23","13:00","9.6","","5.3","","75","","","M","30","","35","","","","99.65","","","","","","NA"
"-80.37","45.03","WESTERN ISLAND (AUT)","6119M51","2018-05-23 14:00","2018","05","23","14:00","10.4","","5.9","","74","","","M","30","","35","","","","99.63","","","","","","NA"
"-80.37","45.03","WESTERN ISLAND (AUT)","6119M51","2018-05-23 15:00","2018","05","23","15:00","10.8","","5.0","","67","","","M","30","","39","","","","99.60","","","","","","NA"
"-80.37","45.03","WESTERN ISLAND (AUT)","6119M51","2018-05-23 16:00","2018","05","23","16:00","10.0","","4.6","","69","","","M","30","","30","","","","99.60","","","","","","NA"
"-80.37","45.03","WESTERN ISLAND (AUT)","6119M51","2018-05-23 17:00","2018","05","23","17:00","15.5","","5.5","","51","","","M","29","","39","","","","99.60","","","","","","NA"
"-80.37","45.03","WESTERN ISLAND (AUT)","6119M51","2018-05-23 18:00","2018","05","23","18:00","16.8","","5.6","","47","","","M","29","","33","","","","99.61","","","","","","NA"
"-80.37","45.03","WESTERN ISLAND (AUT)","6119M51","2018-05-23 19:00","2018","05","23","19:00","11.1","","5.2","","67","","","M","29","","26","","","","99.65","","","","","","NA"
"-80.37","45.03","WESTERN ISLAND (AUT)","6119M51","2018-05-23 20:00","2018","05","23","20:00","10.8","","5.2","","68","","","M","27","","30","","","","99.67","","","","","","NA"
"-80.37","45.03","WESTERN ISLAND (AUT)","6119M51","2018-05-23 21:00","2018","05","23","21:00","15.0","","6.0","","55","","","M","25","","26","","","","99.66","","","","","","NA"
"-80.37","45.03","WESTERN ISLAND (AUT)","6119M51","2018-05-23 22:00","2018","05","23","22:00","12.5","","5.1","","61","","","M","25","","32","","","","99.64","","","","","","NA"
"-80.37","45.03","WESTERN ISLAND (AUT)","6119M51","2018-05-23 23:00","2018","05","23","23:00","14.2","","6.4","","59","","","M","25","","31","","","","99.66","","","","","","NA"
"-80.37","45.03","WESTERN ISLAND (AUT)","6119M51","2018-05-24 00:00","2018","05","24","00:00","10.3","","6.0","","75","","","M","25","","24","","","","99.69","","","","","","NA"
"-80.37","45.03","WESTERN ISLAND (AUT)","6119M51","2018-05-24 01:00","2018","05","24","01:00","8.9","","4.2","","73","","","M","28","","22","","","","99.70","","","","","","NA"
"-80.37","45.03","WESTERN ISLAND (AUT)","6119M51","2018-05-24 02:00","2018","05","24","02:00","11.7","","5.5","","66","","","M","26","","29","","","","99.69","","","","","","NA"
"-80.37","45.03","WESTERN ISLAND (AUT)","6119M51","2018-05-24 03:00","2018","05","24","03:00","11.1","","5.4","","68","","","M","26","","35","","","","99.71","","","","","","NA"
"-80.37","45.03","WESTERN ISLAND (AUT)","6119M51","2018-05-24 04:00","2018","05","24","04:00","10.6","","5.1","","69","","","M","26","","31","","","","99.74","","","","","","NA"
"-80.37","45.03","WESTERN ISLAND (AUT)","6119M51","2018-05-24 05:00","2018","05","24","05:00","11.5","","4.5","","62","","","M","26","","30","","","","99.75","","","","","","NA"
"-80.37","45.03","WESTERN ISLAND (AUT)","6119M51","2018-05-24 06:00","2018","05","24","06:00","9.5","","4.3","","70","","","M","25","","28","","","","99.80","","","","","","NA"
"-80.37","45.03","WESTERN ISLAND (AUT)","6119M51","2018-05-24 07:00","2018","05","24","07:00","8.8","","4.2","","73","","","M","28","","4","","","","99.88","","","","","","NA"
"-80.37","45.03","WESTERN ISLAND (AUT)","6119M51","2018-05-24 08:00","2018","05","24","08:00","8.9","","4.7","","75","","","M","26","","8","","","","99.88","","","","","","NA"
"-80.37","45.03","WESTERN ISLAND (AUT)","6119M51","2018-05-24 09:00","2018","05","24","09:00","8.7","","4.5","","75","","","M","24","","4","","","","99.88","","","","","","NA"
"-80.37","45.03","WESTERN ISLAND (AUT)","6119M51","2018-05-24 10:00","2018","05","24","10:00","9.0","","5.0","","76","","","M","17","","3","","","","99.83","","","","","","NA"
"-80.37","45.03","WESTERN ISLAND (AUT)","6119M51","2018-05-24 11:00","2018","05","24","11:00","9.5","","5.3","","75","","","M","21","","6","","","","99.82","","","","","","NA"
"-80.37","45.03","WESTERN ISLAND (AUT)","6119M51","2018-05-24 12:00","2018","05","24","12:00","11.1","","6.9","","76","","","M","22","","8","","","","99.77","","","","","","NA"
"-80.37","45.03","WESTERN ISLAND (AUT)","6119M51","2018-05-24 13:00","2018","05","24","13:00","12.9","","8.2","","73","","","M","24","","14","","","","99.70","","","","","","NA"
"-80.37","45.03","WESTERN ISLAND (AUT)","6119M51","2018-05-24 14:00","2018","05","24","14:00","13.2","","8.0","","71","","","M","21","","13","","","","99.64","","","","","","NA"
"-80.37","45.03","WESTERN ISLAND (AUT)","6119M51","2018-05-24 15:00","2018","05","24","15:00","15.9","","8.6","","62","","","M","26","","17","","","","99.58","","","","","","NA"
"-80.37","45.03","WESTERN ISLAND (AUT)","6119M51","2018-05-24 16:00","2018","05","24","16:00","13.2","","7.7","","69","","","M","28","","25","","","","99.53","","","","","","NA"
"-80.37","45.03","WESTERN ISLAND (AUT)","6119M51","2018-05-24 17:00","2018","05","24","17:00","20.4","","7.9","","44","","","M","26","","37","","","","99.46","","","","","","NA"
"-80.37","45.03","WESTERN ISLAND (AUT)","6119M51","2018-05-24 18:00","2018","05","24","18:00","19.9","","8.1","","47","","","M","25","","38","","","","99.35","","","","","","NA"
"-80.37","45.03","WESTERN ISLAND (AUT)","6119M51","2018-05-24 19:00","2018","05","24","19:00","21.5","","8.7","","44","","","M","25","","42","","","","99.31","","","","","","NA"
"-80.37","45.03","WESTERN ISLAND (AUT)","6119M51","2018-05-24 20:00","2018","05","24","20:00","20.4","","9.4","","49","","","M","25","","38","","","","99.26","","","","","","NA"
"-80.37","45.03","WESTERN ISLAND (AUT)","6119M51","2018-05-24 21:00","2018","05","24","21:00","19.1","","8.9","","52","","","M","26","","32","","","","99.27","","","","","","NA"
"-80.37","45.03","WESTERN ISLAND (AUT)","6119M51","2018-05-24 22:00","2018","05","24","22:00","12.8","","6.2","","64","","","M","23","","18","","","","99.24","","","","","","NA"
"-80.37","45.03","WESTERN ISLAND (AUT)","6119M51","2018-05-24 23:00","2018","05","24","23:00","15.4","","9.1","","66","","","M","23","","22","","","","99.18","","","","","","NA"
"-80.37","45.03","WESTERN ISLAND (AUT)","6119M51","2018-05-25 00:00","2018","05","25","00:00","14.7","","8.4","","66","","","M","23","","30","","","","99.13","","","","","","NA"
"-80.37","45.03","WESTERN ISLAND (AUT)","6119M51","2018-05-25 01:00","2018","05","25","01:00","8.9","","5.6","","80","","","M","28","","15","","","","99.15","","","","","","NA"
"-80.37","45.03","WESTERN ISLAND (AUT)","6119M51","2018-05-25 02:00","2018","05","25","02:00","10.1","","5.9","","75","","","M","27","","22","","","","99.10","","","","","","NA"
"-80.37","45.03","WESTERN ISLAND (AUT)","6119M51","2018-05-25 03:00","2018","05","25","03:00","12.1","","6.4","","68","","","M","30","","18","","","","99.10","","","","","","NA"
"-80.37","45.03","WESTERN ISLAND (AUT)","6119M51","2018-05-25 04:00","2018","05","25","04:00","12.7","","6.2","","65","","","M","27","","18","","","","99.07","","","","","","NA"
"-80.37","45.03","WESTERN ISLAND (AUT)","6119M51","2018-05-25 05:00","2018","05","25","05:00","12.4","","6.2","","66","","","M","26","","17","","","","99.07","","","","","","NA"
"-80.37","45.03","WESTERN ISLAND (AUT)","6119M51","2018-05-25 06:00","2018","05","25","06:00","15.1","","9.3","","68","","","M","24","","26","","","","99.02","","","","","","NA"
"-80.37","45.03","WESTERN ISLAND (AUT)","6119M51","2018-05-25 07:00","2018","05","25","07:00","16.7","","9.5","","63","","","M","25","","36","","","","99.02","","","","","","NA"
"-80.37","45.03","WESTERN ISLAND (AUT)","6119M51","2018-05-25 08:00","2018","05","25","08:00","10.8","","6.6","","75","","","M","24","","19","","","","98.98","","","","","","NA"
"-80.37","45.03","WESTERN ISLAND (AUT)","6119M51","2018-05-25 09:00","2018","05","25","09:00","11.8","","7.3","","74","","","M","24","","29","","","","98.89","","","","","","NA"
"-80.37","45.03","WESTERN ISLAND (AUT)","6119M51","2018-05-25 10:00","2018","05","25","10:00","18.5","","10.8","","61","","","M","25","","44","","","","98.80","","","","","","NA"
"-80.37","45.03","WESTERN ISLAND (AUT)","6119M51","2018-05-25 11:00","2018","05","25","11:00","16.0","","8.3","","60","","","M","24","","40","","","","98.72","","","","","","NA"
"-80.37","45.03","WESTERN ISLAND (AUT)","6119M51","2018-05-25 12:00","2018","05","25","12:00","19.4","","9.7","","53","","","M","25","","37","","","","98.68","","","","","","NA"
"-80.37","45.03","WESTERN ISLAND (AUT)","6119M51","2018-05-25 13:00","2018","05","25","13:00","17.5","","10.1","","62","","","M","30","","36","","","","98.72","","","","","","NA"
"-80.37","45.03","WESTERN ISLAND (AUT)","6119M51","2018-05-25 14:00","2018","05","25","14:00","17.4","","10.3","","63","","","M","30","","28","","","","98.66","","","","","","NA"
"-80.37","45.03","WESTERN ISLAND (AUT)","6119M51","2018-05-25 15:00","2018","05","25","15:00","17.4","","9.8","","61","","","M","31","","24","","","","98.61","","","","","","NA"
"-80.37","45.03","WESTERN ISLAND (AUT)","6119M51","2018-05-25 16:00","2018","05","25","16:00","17.5","","9.4","","59","","","M","32","","20","","","","98.52","","","","","","NA"
"-80.37","45.03","WESTERN ISLAND (AUT)","6119M51","2018-05-25 17:00","2018","05","25","17:00","18.8","","9.6","","55","","","M","33","","11","","","","98.47","","","","","","NA"
"-80.37","45.03","WESTERN ISLAND (AUT)","6119M51","2018-05-25 18:00","2018","05","25","18:00","13.9","","8.8","","72","","","M","12","","12","","","","98.43","","","","","","NA"
"-80.37","45.03","WESTERN ISLAND (AUT)","6119M51","2018-05-25 19:00","2018","05","25","19:00","16.2","","9.5","","65","","","M","9","","8","","","","98.44","","","","","","NA"
"-80.37","45.03","WESTERN ISLAND (AUT)","6119M51","2018-05-25 20:00","2018","05","25","20:00","16.2","","9.1","","63","","","M","5","","12","","","","98.42","","","","","","NA"
"-80.37","45.03","WESTERN ISLAND (AUT)","6119M51","2018-05-25 21:00","2018","05","25","21:00","16.9","","9.8","","63","","","M","30","","7","","","","98.41","","","","","","NA"
"-80.37","45.03","WESTERN ISLAND (AUT)","6119M51","2018-05-25 22:00","2018","05","25","22:00","16.7","","10.4","","66","","","M","26","","15","","","","98.43","","","","","","NA"
"-80.37","45.03","WESTERN ISLAND (AUT)","6119M51","2018-05-25 23:00","2018","05","25","23:00","17.4","","11.3","","67","","","M","23","","26","","","","98.36","","","","","","NA"
"-80.37","45.03","WESTERN ISLAND (AUT)","6119M51","2018-05-26 00:00","2018","05","26","00:00","13.9","","9.4","","75","","","M","22","","20","","","","98.36","","","","","","NA"
"-80.37","45.03","WESTERN ISLAND (AUT)","6119M51","2018-05-26 01:00","2018","05","26","01:00","12.0","","9.4","","85","","","M","29","","23","","","","98.38","","","","","","NA"
"-80.37","45.03","WESTERN ISLAND (AUT)","6119M51","2018-05-26 02:00","2018","05","26","02:00","15.4","","12.9","","86","","","M","34","","34","","","","98.42","","","","","","NA"
"-80.37","45.03","WESTERN ISLAND (AUT)","6119M51","2018-05-26 03:00","2018","05","26","03:00","15.4","","13.5","","89","","","M","34","","13","","","","98.39","","","","","","NA"
"-80.37","45.03","WESTERN ISLAND (AUT)","6119M51","2018-05-26 04:00","2018","05","26","04:00","16.5","","14.6","","88","","","M","27","","11","","","","98.39","","","","","","NA"
"-80.37","45.03","WESTERN ISLAND (AUT)","6119M51","2018-05-26 05:00","2018","05","26","05:00","17.1","","14.9","","87","","","M","30","","16","","","","98.48","","","","","","NA"
"-80.37","45.03","WESTERN ISLAND (AUT)","6119M51","2018-05-26 06:00","2018","05","26","06:00","9.1","","8.1","","93","","","M","21","","7","","","","98.47","","","","","","NA"
"-80.37","45.03","WESTERN ISLAND (AUT)","6119M51","2018-05-26 07:00","2018","05","26","07:00","11.1","","10.6","","97","","","M","23","","15","","","","98.59","","","","","","NA"
"-80.37","45.03","WESTERN ISLAND (AUT)","6119M51","2018-05-26 08:00","2018","05","26","08:00","10.7","","10.1","","96","","","M","28","","6","","","","98.61","","","","","","NA"
"-80.37","45.03","WESTERN ISLAND (AUT)","6119M51","2018-05-26 09:00","2018","05","26","09:00","12.3","","11.5","","95","","","M","16","","9","","","","98.57","","","","","","NA"
"-80.37","45.03","WESTERN ISLAND (AUT)","6119M51","2018-05-26 10:00","2018","05","26","10:00","14.4","","13.8","","96","","","M","16","","15","","","","98.53","","","","","","NA"
"-80.37","45.03","WESTERN ISLAND (AUT)","6119M51","2018-05-26 11:00","2018","05","26","11:00","14.4","","13.2","","93","","","M","17","","11","","","","98.60","","","","","","NA"
"-80.37","45.03","WESTERN ISLAND (AUT)","6119M51","2018-05-26 12:00","2018","05","26","12:00","13.8","","13.3","","97","","","M","3","","29","","","","98.62","","","","","","NA"
"-80.37","45.03","WESTERN ISLAND (AUT)","6119M51","2018-05-26 13:00","2018","05","26","13:00","17.7","","16.5","","93","","","M","3","","30","","","","98.60","","","","","","NA"
"-80.37","45.03","WESTERN ISLAND (AUT)","6119M51","2018-05-26 14:00","2018","05","26","14:00","17.6","","16.8","","95","","","M","2","","26","","","","98.55","","","","","","NA"
"-80.37","45.03","WESTERN ISLAND (AUT)","6119M51","2018-05-26 15:00","2018","05","26","15:00","19.8","","17.1","","85","","","M","2","","21","","","","98.56","","","","","","NA"
"-80.37","45.03","WESTERN ISLAND (AUT)","6119M51","2018-05-26 16:00","2018","05","26","16:00","20.1","","17.2","","83","","","M","3","","19","","","","98.56","","26","","","","NA"
"-80.37","45.03","WESTERN ISLAND (AUT)","6119M51","2018-05-26 17:00","2018","05","26","17:00","15.4","","14.0","","91","","","M","20","","9","","","","98.58","","","","","","NA"
"-80.37","45.03","WESTERN ISLAND (AUT)","6119M51","2018-05-26 18:00","2018","05","26","18:00","15.4","","14.3","","93","","","M","21","","12","","","","98.60","","","","","","NA"
"-80.37","45.03","WESTERN ISLAND (AUT)","6119M51","2018-05-26 19:00","2018","05","26","19:00","13.9","","13.0","","94","","","M","19","","10","","","","98.66","","","","","","NA"
"-80.37","45.03","WESTERN ISLAND (AUT)","6119M51","2018-05-26 20:00","2018","05","26","20:00","11.9","","11.1","","95","","","M","14","","5","","","","98.71","","","","","","NA"
"-80.37","45.03","WESTERN ISLAND (AUT)","6119M51","2018-05-26 21:00","2018","05","26","21:00","16.5","","15.0","","91","","","M","13","","16","","","","98.72","","","","","","NA"
"-80.37","45.03","WESTERN ISLAND (AUT)","6119M51","2018-05-26 22:00","2018","05","26","22:00","17.3","","16.6","","96","","","M","12","","23","","","","98.78","","","","","","NA"
"-80.37","45.03","WESTERN ISLAND (AUT)","6119M51","2018-05-26 23:00","2018","05","26","23:00","17.8","","15.9","","89","","","M","14","","23","","","","98.78","","","","","","NA"
"-80.37","45.03","WESTERN ISLAND (AUT)","6119M51","2018-05-27 00:00","2018","05","27","00:00","16.2","","15.1","","93","","","M","14","","27","","","","98.76","","","","","","NA"
"-80.37","45.03","WESTERN ISLAND (AUT)","6119M51","2018-05-27 01:00","2018","05","27","01:00","16.4","","15.1","","92","","","M","14","","27","","","","98.77","","","","","","NA"
"-80.37","45.03","WESTERN ISLAND (AUT)","6119M51","2018-05-27 02:00","2018","05","27","02:00","17.1","","15.2","","88","","","M","14","","28","","","","98.76","","","","","","NA"
"-80.37","45.03","WESTERN ISLAND (AUT)","6119M51","2018-05-27 03:00","2018","05","27","03:00","17.0","","14.7","","86","","","M","14","","26","","","","98.77","","","","","","NA"
"-80.37","45.03","WESTERN ISLAND (AUT)","6119M51","2018-05-27 04:00","2018","05","27","04:00","16.9","","14.7","","87","","","M","13","","27","","","","98.79","","","","","","NA"
"-80.37","45.03","WESTERN ISLAND (AUT)","6119M51","2018-05-27 05:00","2018","05","27","05:00","16.6","","14.9","","90","","","M","13","","32","","","","98.81","","","","","","NA"
"-80.37","45.03","WESTERN ISLAND (AUT)","6119M51","2018-05-27 06:00","2018","05","27","06:00","15.9","","15.0","","94","","","M","12","","30","","","","98.89","","","","","","NA"
"-80.37","45.03","WESTERN ISLAND (AUT)","6119M51","2018-05-27 07:00","2018","05","27","07:00","16.7","","15.5","","93","","","M","13","","30","","","","98.90","","","","","","NA"
"-80.37","45.03","WESTERN ISLAND (AUT)","6119M51","2018-05-27 08:00","2018","05","27","08:00","16.7","","15.1","","90","","","M","14","","22","","","","98.96","","","","","","NA"
"-80.37","45.03","WESTERN ISLAND (AUT)","6119M51","2018-05-27 09:00","2018","05","27","09:00","14.2","","12.9","","92","","","M","16","","16","","","","98.95","","","","","","NA"
"-80.37","45.03","WESTERN ISLAND (AUT)","6119M51","2018-05-27 10:00","2018","05","27","10:00","15.6","","14.2","","92","","","M","15","","22","","","","98.93","","","","","","NA"
"-80.37","45.03","WESTERN ISLAND (AUT)","6119M51","2018-05-27 11:00","2018","05","27","11:00","18.5","","15.2","","81","","","M","13","","16","","","","98.91","","","","","","NA"
"-80.37","45.03","WESTERN ISLAND (AUT)","6119M51","2018-05-27 12:00","2018","05","27","12:00","20.8","","15.4","","71","","","M","13","","20","","","","98.85","","25","","","","NA"
"-80.37","45.03","WESTERN ISLAND (AUT)","6119M51","2018-05-27 13:00","2018","05","27","13:00","21.5","","16.0","","71","","","M","12","","16","","","","98.87","","26","","","","NA"
"-80.37","45.03","WESTERN ISLAND (AUT)","6119M51","2018-05-27 14:00","2018","05","27","14:00","22.6","","16.0","","67","","","M","14","","15","","","","98.84","","27","","","","NA"
"-80.37","45.03","WESTERN ISLAND (AUT)","6119M51","2018-05-27 15:00","2018","05","27","15:00","23.5","","15.9","","63","","","M","14","","9","","","","98.80","","28","","","","NA"
"-80.37","45.03","WESTERN ISLAND (AUT)","6119M51","2018-05-27 16:00","2018","05","27","16:00","22.9","","16.1","","66","","","M","15","","10","","","","98.73","","28","","","","NA"
"-80.37","45.03","WESTERN ISLAND (AUT)","6119M51","2018-05-27 17:00","2018","05","27","17:00","21.7","","16.1","","70","","","M","18","","20","","","","98.70","","26","","","","NA"
"-80.37","45.03","WESTERN ISLAND (AUT)","6119M51","2018-05-27 18:00","2018","05","27","18:00","21.2","","16.5","","75","","","M","25","","23","","","","98.73","","26","","","","NA"
"-80.37","45.03","WESTERN ISLAND (AUT)","6119M51","2018-05-27 19:00","2018","05","27","19:00","24.2","","16.5","","62","","","M","19","","13","","","","98.67","","29","","","","NA"
"-80.37","45.03","WESTERN ISLAND (AUT)","6119M51","2018-05-27 20:00","2018","05","27","20:00","23.9","","17.0","","65","","","M","15","","13","","","","98.70","","29","","","","NA"
"-80.37","45.03","WESTERN ISLAND (AUT)","6119M51","2018-05-27 21:00","2018","05","27","21:00","15.5","","13.9","","90","","","M","27","","12","","","","98.81","","","","","","NA"
"-80.37","45.03","WESTERN ISLAND (AUT)","6119M51","2018-05-27 22:00","2018","05","27","22:00","18.8","","16.8","","88","","","M","34","","5","","","","98.84","","","","","","NA"
"-80.37","45.03","WESTERN ISLAND (AUT)","6119M51","2018-05-27 23:00","2018","05","27","23:00","18.7","","16.4","","86","","","M","16","","15","","","","98.80","","","","","","NA"
"-80.37","45.03","WESTERN ISLAND (AUT)","6119M51","2018-05-28 00:00","2018","05","28","00:00","17.9","","16.0","","89","","","M","18","","25","","","","98.77","","","","","","NA"
"-80.37","45.03","WESTERN ISLAND (AUT)","6119M51","2018-05-28 01:00","2018","05","28","01:00","15.3","","14.8","","97","","","M","27","","16","","","","98.87","","","","","","NA"
"-80.37","45.03","WESTERN ISLAND (AUT)","6119M51","2018-05-28 02:00","2018","05","28","02:00","14.5","","14.0","","97","","","M","26","","23","","","","98.86","","","","","","NA"
"-80.37","45.03","WESTERN ISLAND (AUT)","6119M51","2018-05-28 03:00","2018","05","28","03:00","10.5","","10.0","","96","","","M","26","","27","","","","98.90","","","","","","NA"
"-80.37","45.03","WESTERN ISLAND (AUT)","6119M51","2018-05-28 04:00","2018","05","28","04:00","12.9","","12.4","","97","","","M","26","","34","","","","98.91","","","","","","NA"
"-80.37","45.03","WESTERN ISLAND (AUT)","6119M51","2018-05-28 05:00","2018","05","28","05:00","13.0","","12.3","","96","","","M","26","","36","","","","98.94","","","","","","NA"
"-80.37","45.03","WESTERN ISLAND (AUT)","6119M51","2018-05-28 06:00","2018","05","28","06:00","14.9","","12.9","","88","","","M","27","","31","","","","98.97","","","","","","NA"
"-80.37","45.03","WESTERN ISLAND (AUT)","6119M51","2018-05-28 07:00","2018","05","28","07:00","14.9","","12.4","","85","","","M","27","","25","","","","99.03","","","","","","NA"
"-80.37","45.03","WESTERN ISLAND (AUT)","6119M51","2018-05-28 08:00","2018","05","28","08:00","13.6","","12.0","","90","","","M","28","","25","","","","99.06","","","","","","NA"
"-80.37","45.03","WESTERN ISLAND (AUT)","6119M51","2018-05-28 09:00","2018","05","28","09:00","10.1","","9.0","","93","","","M","28","","18","","","","99.07","","","","","","NA"
"-80.37","45.03","WESTERN ISLAND (AUT)","6119M51","2018-05-28 10:00","2018","05","28","10:00","13.5","","12.1","","91","","","M","29","","19","","","","99.09","","","","","","NA"
"-80.37","45.03","WESTERN ISLAND (AUT)","6119M51","2018-05-28 11:00","2018","05","28","11:00","14.1","","12.2","","89","","","M","29","","23","","","","99.13","","","","","","NA"
"-80.37","45.03","WESTERN ISLAND (AUT)","6119M51","2018-05-28 12:00","2018","05","28","12:00","13.0","","11.9","","93","","","M","27","","14","","","","99.12","","","","","","NA"
"-80.37","45.03","WESTERN ISLAND (AUT)","6119M51","2018-05-28 13:00","2018","05","28","13:00","14.1","","12.5","","90","","","M","29","","9","","","","99.12","","","","","","NA"
"-80.37","45.03","WESTERN ISLAND (AUT)","6119M51","2018-05-28 14:00","2018","05","28","14:00","15.9","","13.7","","87","","","M","29","","15","","","","99.11","","","","","","NA"
"-80.37","45.03","WESTERN ISLAND (AUT)","6119M51","2018-05-28 15:00","2018","05","28","15:00","16.1","","13.9","","87","","","M","27","","14","","","","99.10","","","","","","NA"
"-80.37","45.03","WESTERN ISLAND (AUT)","6119M51","2018-05-28 16:00","2018","05","28","16:00","16.9","","13.5","","80","","","M","27","","12","","","","99.07","","","","","","NA"
"-80.37","45.03","WESTERN ISLAND (AUT)","6119M51","2018-05-28 17:00","2018","05","28","17:00","16.4","","13.4","","83","","","M","28","","22","","","","99.05","","","","","","NA"
"-80.37","45.03","WESTERN ISLAND (AUT)","6119M51","2018-05-28 18:00","2018","05","28","18:00","14.8","","11.4","","80","","","M","31","","12","","","","99.02","","","","","","NA"
"-80.37","45.03","WESTERN ISLAND (AUT)","6119M51","2018-05-28 19:00","2018","05","28","19:00","14.1","","11.9","","87","","","M","35","","6","","","","99.02","","","","","","NA"
"-80.37","45.03","WESTERN ISLAND (AUT)","6119M51","2018-05-28 20:00","2018","05","28","20:00","13.1","","10.9","","86","","","M","33","","7","","","","99.06","","","","","","NA"
"-80.37","45.03","WESTERN ISLAND (AUT)","6119M51","2018-05-28 21:00","2018","05","28","21:00","14.9","","12.2","","84","","","M","8","","9","","","","99.14","","","","","","NA"
"-80.37","45.03","WESTERN ISLAND (AUT)","6119M51","2018-05-28 22:00","2018","05","28","22:00","16.7","","13.0","","79","","","M","","","0","","","","99.14","","","","","","NA"
"-80.37","45.03","WESTERN ISLAND (AUT)","6119M51","2018-05-28 23:00","2018","05","28","23:00","15.6","","13.5","","87","","","M","24","","6","","","","99.18","","","","","","NA"
"-80.37","45.03","WESTERN ISLAND (AUT)","6119M51","2018-05-29 00:00","2018","05","29","00:00","15.8","","13.8","","88","","","M","30","","9","","","","99.21","","","","","","NA"
"-80.37","45.03","WESTERN ISLAND (AUT)","6119M51","2018-05-29 01:00","2018","05","29","01:00","13.1","","12.2","","95","","","M","36","","18","","","","99.27","","","","","","NA"
"-80.37","45.03","WESTERN ISLAND (AUT)","6119M51","2018-05-29 02:00","2018","05","29","02:00","12.8","","11.4","","91","","","M","36","","23","","","","99.27","","","","","","NA"
"-80.37","45.03","WESTERN ISLAND (AUT)","6119M51","2018-05-29 03:00","2018","05","29","03:00","13.4","","12.0","","91","","","M","2","","16","","","","99.30","","","","","","NA"
"-80.37","45.03","WESTERN ISLAND (AUT)","6119M51","2018-05-29 04:00","2018","05","29","04:00","14.8","","13.7","","93","","","M","3","","23","","","","99.36","","","","","","NA"
"-80.37","45.03","WESTERN ISLAND (AUT)","6119M51","2018-05-29 05:00","2018","05","29","05:00","16.4","","14.8","","90","","","M","5","","23","","","","99.40","","","","","","NA"
"-80.37","45.03","WESTERN ISLAND (AUT)","6119M51","2018-05-29 06:00","2018","05","29","06:00","16.8","","14.9","","89","","","M","5","","24","","","","99.46","","","","","","NA"
"-80.37","45.03","WESTERN ISLAND (AUT)","6119M51","2018-05-29 07:00","2018","05","29","07:00","17.3","","13.4","","78","","","M","6","","28","","","","99.50","","","","","","NA"
"-80.37","45.03","WESTERN ISLAND (AUT)","6119M51","2018-05-29 08:00","2018","05","29","08:00","17.6","","12.7","","73","","","M","6","","22","","","","99.56","","","","","","NA"
"-80.37","45.03","WESTERN ISLAND (AUT)","6119M51","2018-05-29 09:00","2018","05","29","09:00","18.3","","11.7","","66","","","M","5","","21","","","","99.60","","","","","","NA"
"-80.37","45.03","WESTERN ISLAND (AUT)","6119M51","2018-05-29 10:00","2018","05","29","10:00","18.0","","10.6","","62","","","M","4","","23","","","","99.61","","","","","","NA"
"-80.37","45.03","WESTERN ISLAND (AUT)","6119M51","2018-05-29 11:00","2018","05","29","11:00","19.0","","10.9","","59","","","M","4","","26","","","","99.57","","","","","","NA"
"-80.37","45.03","WESTERN ISLAND (AUT)","6119M51","2018-05-29 12:00","2018","05","29","12:00","20.7","","9.1","","48","","","M","3","","26","","","","99.53","","","","","","NA"
"-80.37","45.03","WESTERN ISLAND (AUT)","6119M51","2018-05-29 13:00","2018","05","29","13:00","21.1","","7.8","","42","","","M","2","","17","","","","99.49","","","","","","NA"
"-80.37","45.03","WESTERN ISLAND (AUT)","6119M51","2018-05-29 14:00","2018","05","29","14:00","22.0","","6.7","","37","","","M","1","","15","","","","99.47","","","","","","NA"
"-80.37","45.03","WESTERN ISLAND (AUT)","6119M51","2018-05-29 15:00","2018","05","29","15:00","21.1","","6.8","","39","","","M","36","","21","","","","99.42","","","","","","NA"
"-80.37","45.03","WESTERN ISLAND (AUT)","6119M51","2018-05-29 16:00","2018","05","29","16:00","21.5","","5.5","","35","","","M","36","","21","","","","99.38","","","","","","NA"
"-80.37","45.03","WESTERN ISLAND (AUT)","6119M51","2018-05-29 17:00","2018","05","29","17:00","22.5","","5.3","","33","","","M","36","","24","","","","99.36","","","","","","NA"
"-80.37","45.03","WESTERN ISLAND (AUT)","6119M51","2018-05-29 18:00","2018","05","29","18:00","22.9","","6.1","","34","","","M","1","","21","","","","99.33","","","","","","NA"
"-80.37","45.03","WESTERN ISLAND (AUT)","6119M51","2018-05-29 19:00","2018","05","29","19:00","22.6","","4.5","","31","","","M","2","","25","","","","99.29","","","","","","NA"
"-80.37","45.03","WESTERN ISLAND (AUT)","6119M51","2018-05-29 20:00","2018","05","29","20:00","24.1","","5.2","","29","","","M","3","","34","","","","99.28","","","","","","NA"
"-80.37","45.03","WESTERN ISLAND (AUT)","6119M51","2018-05-29 21:00","2018","05","29","21:00","24.3","","7.4","","34","","","M","6","","26","","","","99.28","","","","","","NA"
"-80.37","45.03","WESTERN ISLAND (AUT)","6119M51","2018-05-29 22:00","2018","05","29","22:00","23.1","","9.6","","42","","","M","7","","30","","","","99.26","","","","","","NA"
"-80.37","45.03","WESTERN ISLAND (AUT)","6119M51","2018-05-29 23:00","2018","05","29","23:00","20.9","","10.6","","52","","","M","10","","27","","","","99.23","","","","","","NA"
"-80.37","45.03","WESTERN ISLAND (AUT)","6119M51","2018-05-30 00:00","2018","05","30","00:00","21.2","","12.3","","57","","","M","16","","29","","","","99.30","","","","","","NA"
"-80.37","45.03","WESTERN ISLAND (AUT)","6119M51","2018-05-30 01:00","2018","05","30","01:00","19.6","","13.2","","66","","","M","15","","27","","","","99.29","","","","","","NA"
"-80.37","45.03","WESTERN ISLAND (AUT)","6119M51","2018-05-30 02:00","2018","05","30","02:00","19.5","","13.6","","68","","","M","14","","28","","","","99.32","","","","","","NA"
"-80.37","45.03","WESTERN ISLAND (AUT)","6119M51","2018-05-30 03:00","2018","05","30","03:00","18.4","","12.7","","69","","","M","13","","25","","","","99.27","","","","","","NA"
"-80.37","45.03","WESTERN ISLAND (AUT)","6119M51","2018-05-30 04:00","2018","05","30","04:00","17.5","","14.6","","83","","","M","13","","29","","","","99.24","","","","","","NA"
"-80.37","45.03","WESTERN ISLAND (AUT)","6119M51","2018-05-30 05:00","2018","05","30","05:00","17.9","","12.0","","69","","","M","12","","34","","","","99.24","","","","","","NA"
"-80.37","45.03","WESTERN ISLAND (AUT)","6119M51","2018-05-30 06:00","2018","05","30","06:00","16.2","","11.5","","73","","","M","12","","33","","","","99.24","","","","","","NA"
"-80.37","45.03","WESTERN ISLAND (AUT)","6119M51","2018-05-30 07:00","2018","05","30","07:00","15.1","","10.9","","76","","","M","11","","28","","","","99.22","","","","","","NA"
"-80.37","45.03","WESTERN ISLAND (AUT)","6119M51","2018-05-30 08:00","2018","05","30","08:00","17.0","","10.7","","66","","","M","11","","34","","","","99.19","","","","","","NA"
"-80.37","45.03","WESTERN ISLAND (AUT)","6119M51","2018-05-30 09:00","2018","05","30","09:00","18.1","","10.3","","60","","","M","11","","32","","","","99.13","","","","","","NA"
"-80.37","45.03","WESTERN ISLAND (AUT)","6119M51","2018-05-30 10:00","2018","05","30","10:00","20.2","","10.4","","53","","","M","12","","33","","","","99.06","","","","","","NA"
"-80.37","45.03","WESTERN ISLAND (AUT)","6119M51","2018-05-30 11:00","2018","05","30","11:00","21.8","","11.2","","51","","","M","12","","36","","","","99.00","","","","","","NA"
"-80.37","45.03","WESTERN ISLAND (AUT)","6119M51","2018-05-30 12:00","2018","05","30","12:00","23.0","","12.8","","52","","","M","11","","33","","","","98.95","","26","","","","NA"
"-80.37","45.03","WESTERN ISLAND (AUT)","6119M51","2018-05-30 13:00","2018","05","30","13:00","24.3","","14.5","","54","","","M","11","","34","","","","98.89","","28","","","","NA"
"-80.37","45.03","WESTERN ISLAND (AUT)","6119M51","2018-05-30 14:00","2018","05","30","14:00","25.3","","15.6","","55","","","M","12","","38","","","","98.81","","30","","","","NA"
"-80.37","45.03","WESTERN ISLAND (AUT)","6119M51","2018-05-30 15:00","2018","05","30","15:00","26.1","","16.3","","55","","","M","12","","37","","","","98.73","","31","","","","NA"
"-80.37","45.03","WESTERN ISLAND (AUT)","6119M51","2018-05-30 16:00","2018","05","30","16:00","27.5","","15.8","","49","","","M","12","","34","","","","98.66","","32","","","","NA"
"-80.37","45.03","WESTERN ISLAND (AUT)","6119M51","2018-05-30 17:00","2018","05","30","17:00","27.4","","15.8","","49","","","M","13","","38","","","","98.59","","32","","","","NA"
"-80.37","45.03","WESTERN ISLAND (AUT)","6119M51","2018-05-30 18:00","2018","05","30","18:00","28.2","","16.3","","48","","","M","16","","44","","","","98.53","","33","","","","NA"
"-80.37","45.03","WESTERN ISLAND (AUT)","6119M51","2018-05-30 19:00","2018","05","30","19:00","27.4","","16.5","","52","","","M","15","","38","","","","98.53","","32","","","","NA"
"-80.37","45.03","WESTERN ISLAND (AUT)","6119M51","2018-05-30 20:00","2018","05","30","20:00","26.6","","16.7","","55","","","M","15","","35","","","","98.52","","32","","","","NA"
"-80.37","45.03","WESTERN ISLAND (AUT)","6119M51","2018-05-30 21:00","2018","05","30","21:00","26.0","","17.1","","58","","","M","15","","29","","","","98.54","","31","","","","NA"
"-80.37","45.03","WESTERN ISLAND (AUT)","6119M51","2018-05-30 22:00","2018","05","30","22:00","23.6","","16.5","","65","","","M","15","","29","","","","98.49","","29","","","","NA"
"-80.37","45.03","WESTERN ISLAND (AUT)","6119M51","2018-05-30 23:00","2018","05","30","23:00","24.4","","16.5","","61","","","M","15","","34","","","","98.46","","29","","","","NA"
"-80.37","45.03","WESTERN ISLAND (AUT)","6119M51","2018-05-31 00:00","2018","05","31","00:00","22.0","","16.1","","69","","","M","15","","32","","","","98.39","","27","","","","NA"
"-80.37","45.03","WESTERN ISLAND (AUT)","6119M51","2018-05-31 01:00","2018","05","31","01:00","21.8","","15.8","","69","","","M","15","","42","","","","98.34","","26","","","","NA"
"-80.37","45.03","WESTERN ISLAND (AUT)","6119M51","2018-05-31 02:00","2018","05","31","02:00","22.1","","16.3","","70","","","M","15","","45","","","","98.27","","27","","","","NA"
"-80.37","45.03","WESTERN ISLAND (AUT)","6119M51","2018-05-31 03:00","2018","05","31","03:00","22.0","","16.8","","72","","","M","14","","48","","","","98.20","","27","","","","NA"
"-80.37","45.03","WESTERN ISLAND (AUT)","6119M51","2018-05-31 04:00","2018","05","31","04:00","21.6","","17.2","","76","","","M","14","","52","","","","98.14","","27","","","","NA"
"-80.37","45.03","WESTERN ISLAND (AUT)","6119M51","2018-05-31 05:00","2018","05","31","05:00","17.2","","14.5","","84","","","M","14","","34","","","","98.16","","","","","","NA"
"-80.37","45.03","WESTERN ISLAND (AUT)","6119M51","2018-05-31 06:00","2018","05","31","06:00","18.4","","15.6","","84","","","M","15","","48","","","","98.12","","","","","","NA"
"-80.37","45.03","WESTERN ISLAND (AUT)","6119M51","2018-05-31 07:00","2018","05","31","07:00","18.7","","16.0","","84","","","M","15","","48","","","","98.10","","","","","","NA"
"-80.37","45.03","WESTERN ISLAND (AUT)","6119M51","2018-05-31 08:00","2018","05","31","08:00","18.2","","15.9","","87","","","M","16","","45","","","","98.11","","","","","","NA"
"-80.37","45.03","WESTERN ISLAND (AUT)","6119M51","2018-05-31 09:00","2018","05","31","09:00","18.5","","16.9","","90","","","M","16","","42","","","","98.11","","","","","","NA"
"-80.37","45.03","WESTERN ISLAND (AUT)","6119M51","2018-05-31 10:00","2018","05","31","10:00","17.7","","16.4","","92","","","M","17","","45","","","","98.11","","","","","","NA"
"-80.37","45.03","WESTERN ISLAND (AUT)","6119M51","2018-05-31 11:00","2018","05","31","11:00","18.2","","16.1","","88","","","M","19","","42","","","","98.19","","","","","","NA"
"-80.37","45.03","WESTERN ISLAND (AUT)","6119M51","2018-05-31 12:00","2018","05","31","12:00","18.0","","16.3","","90","","","M","23","","23","","","","98.21","","","","","","NA"
"-80.37","45.03","WESTERN ISLAND (AUT)","6119M51","2018-05-31 13:00","2018","05","31","13:00","19.4","","16.7","","85","","","M","26","","23","","","","98.19","","","","","","NA"
"-80.37","45.03","WESTERN ISLAND (AUT)","6119M51","2018-05-31 14:00","2018","05","31","14:00","17.3","","15.1","","87","","","M","24","","7","","","","98.17","","","","","","NA"
"-80.37","45.03","WESTERN ISLAND (AUT)","6119M51","2018-05-31 15:00","2018","05","31","15:00","18.7","","15.6","","82","","","M","24","","13","","","","98.17","","","","","","NA"
"-80.37","45.03","WESTERN ISLAND (AUT)","6119M51","2018-05-31 16:00","2018","05","31","16:00","20.8","","16.0","","74","","","M","25","","19","","","","98.13","","25","","","","NA"
"-80.37","45.03","WESTERN ISLAND (AUT)","6119M51","2018-05-31 17:00","2018","05","31","17:00","17.7","","13.5","","77","","","M","22","","11","","","","98.11","","","","","","NA"
"-80.37","45.03","WESTERN ISLAND (AUT)","6119M51","2018-05-31 18:00","2018","05","31","18:00","19.8","","14.8","","73","","","M","20","","13","","","","98.14","","","","","","NA"
"-80.37","45.03","WESTERN ISLAND (AUT)","6119M51","2018-05-31 19:00","2018","05","31","19:00","21.9","","16.3","","71","","","M","17","","10","","","","98.19","","27","","","","NA"
"-80.37","45.03","WESTERN ISLAND (AUT)","6119M51","2018-05-31 20:00","2018","05","31","20:00","21.9","","16.2","","70","","","M","18","","13","","","","98.20","","27","","","","NA"
"-80.37","45.03","WESTERN ISLAND (AUT)","6119M51","2018-05-31 21:00","2018","05","31","21:00","22.3","","18.5","","79","","","M","17","","20","","","","98.23","","29","","","","NA"
"-80.37","45.03","WESTERN ISLAND (AUT)","6119M51","2018-05-31 22:00","2018","05","31","22:00","17.0","","14.8","","87","","","M","33","","18","","","","98.25","","","","","","NA"
"-80.37","45.03","WESTERN ISLAND (AUT)","6119M51","2018-05-31 23:00","2018","05","31","23:00","19.0","","17.4","","90","","","M","33","","16","","","","98.27","","","","","","NA"
