"Longitude (x)","Latitude (y)","Station Name","Climate ID","Date/Time (LST)","Year","Month","Day","Time (LST)","Temp (°C)","Temp Flag","Dew Point Temp (°C)","Dew Point Temp Flag","Rel Hum (%)","Rel Hum Flag","Precip. Amount (mm)","Precip. Amount Flag","Wind Dir (10s deg)","Wind Dir Flag","Wind Spd (km/h)","Wind Spd Flag","Visibility (km)","Visibility Flag","Stn Press (kPa)","Stn Press Flag","Hmdx","Hmdx Flag","Wind Chill","Wind Chill Flag","Weather"
"-75.67","45.32","OTTAWA INTL A","6106001","2020-01-01 00:00","2020","01","01","00:00","-1.1","","-2.2","","92","","","","22","","14","","24.1","","98.33","","","","-6","","NA"
"-75.67","45.32","OTTAWA INTL A","6106001","2020-01-01 01:00","2020","01","01","01:00","-1.5","","-2.6","","92","","","","21","","18","","24.1","","98.33","","","","-7","","Cloudy"
"-75.67","45.32","OTTAWA INTL A","6106001","2020-01-01 02:00","2020","01","01","02:00","-1.5","","-2.7","","91","","","","22","","11","","24.1","","98.35","","","","-5","","NA"
"-75.67","45.32","OTTAWA INTL A","6106001","2020-01-01 03:00","2020","01","01","03:00","-1.1","","-2.8","","88","","","","24","","19","","24.1","","98.41","","","","-6","","NA"
"-75.67","45.32","OTTAWA INTL A","6106001","2020-01-01 04:00","2020","01","01","04:00","-1.3","","-3.3","","87","","","","25","","18","","24.1","","98.43","","","","-7","","Cloudy"
"-75.67","45.32","OTTAWA INTL A","6106001","2020-01-01 05:00","2020","01","01","05:00","-1.1","","-2.9","","88","","","","24","","18","","24.1","","98.43","","","","-6","","NA"
"-75.67","45.32","OTTAWA INTL A","6106001","2020-01-01 06:00","2020","01","01","06:00","-0.9","","-2.7","","88","","","","24","","18","","24.1","","98.47","","","","-6","","NA"
"-75.67","45.32","OTTAWA INTL A","6106001","2020-01-01 07:00","2020","01","01","07:00","-0.9","","-2.4","","89","","","","24","","17","","24.1","","98.52","","","","-6","","Cloudy"
"-75.67","45.32","OTTAWA INTL A","6106001","2020-01-01 08:00","2020","01","01","08:00","-0.9","","-2.4","","90","","","","26","","14","","16.1","","98.56","","","","-5","","NA"
"-75.67","45.32","OTTAWA INTL A","6106001","2020-01-01 09:00","2020","01","01","09:00","-0.9","","-2.0","","92","","","","26","","14","","16.1","","98.64","","","","-5","","NA"
"-75.67","45.32","OTTAWA INTL A","6106001","2020-01-01 10:00","2020","01","01","10:00","-0.5","","-1.5","","93","","","","24","","16","","16.1","","98.71","","","","-5","","Snow"
"-75.67","45.32","OTTAWA INTL A","6106001","2020-01-01 11:00","2020","01","01","11:00","-0.1","","-1.4","","91","","","","24","","18","","16.1","","98.71","","","","-5","","Snow"
"-75.67","45.32","OTTAWA INTL A","6106001","2020-01-01 12:00","2020","01","01","12:00","0.0","","-1.4","","90","","","","25","","16","","16.1","","98.71","","","","-5","","Snow"
"-75.67","45.32","OTTAWA INTL A","6106001","2020-01-01 13:00","2020","01","01","13:00","0.3","","-1.2","","90","","","","26","","16","","16.1","","98.70","","","","","","Snow"
"-75.67","45.32","OTTAWA INTL A","6106001","2020-01-01 14:00","2020","01","01","14:00","0.7","","-0.8","","89","","","","24","","16","","16.1","","98.73","","","","","","NA"
"-75.67","45.32","OTTAWA INTL A","6106001","2020-01-01 15:00","2020","01","01","15:00","0.7","","-1.4","","86","","","","24","","13","","24.1","","98.81","","","","","","NA"
"-75.67","45.32","OTTAWA INTL A","6106001","2020-01-01 16:00","2020","01","01","16:00","0.2","","-1.5","","88","","","","26","","26","","24.1","","98.91","","","","","","Mostly Cloudy"
"-75.67","45.32","OTTAWA INTL A","6106001","2020-01-01 17:00","2020","01","01","17:00","0.3","","-1.6","","87","","","","24","","14","","24.1","","98.99","","","","","","NA"
"-75.67","45.32","OTTAWA INTL A","6106001","2020-01-01 18:00","2020","01","01","18:00","0.3","","-2.8","","80","","","","24","","18","","24.1","","99.05","","","","","","NA"
"-75.67","45.32","OTTAWA INTL A","6106001","2020-01-01 19:00","2020","01","01","19:00","-0.1","","-1.5","","91","","","","24","","22","","24.1","","99.10","","","","-6","","Snow"
"-75.67","45.32","OTTAWA INTL A","6106001","2020-01-01 20:00","2020","01","01","20:00","-0.6","","-1.8","","91","","","","25","","16","","24.1","","99.17","","","","-5","","NA"
"-75.67","45.32","OTTAWA INTL A","6106001","2020-01-01 21:00","2020","01","01","21:00","-0.6","","-2.1","","90","","","","24","","18","","24.1","","99.20","","","","-6","","NA"
"-75.67","45.32","OTTAWA INTL A","6106001","2020-01-01 22:00","2020","01","01","22:00","-0.8","","-3.2","","84","","","","23","","20","","24.1","","99.24","","","","-6","","Mostly Cloudy"
"-75.67","45.32","OTTAWA INTL A","6106001","2020-01-01 23:00","2020","01","01","23:00","-1.0","","-3.6","","83","","","","22","","17","","24.1","","99.26","","","","-6","","NA"
"-75.67","45.32","OTTAWA INTL A","6106001","2020-01-02 00:00","2020","01","02","00:00","-1.4","","-4.6","","79","","","","23","","19","","24.1","","99.26","","","","-7","","NA"
"-75.67","45.32","OTTAWA INTL A","6106001","2020-01-02 01:00","2020","01","02","01:00","-2.0","","-4.7","","82","","","","22","","13","","24.1","","99.28","","","","-6","","Mainly Clear"
"-75.67","45.32","OTTAWA INTL A","6106001","2020-01-02 02:00","2020","01","02","02:00","-2.8","","-5.5","","81","","","","22","","10","","24.1","","99.29","","","","-7","","NA"
"-75.67","45.32","OTTAWA INTL A","6106001","2020-01-02 03:00","2020","01","02","03:00","-3.5","","-5.7","","85","","","","20","","9","","24.1","","99.33","","","","-7","","NA"
"-75.67","45.32","OTTAWA INTL A","6106001","2020-01-02 04:00","2020","01","02","04:00","-3.7","","-5.9","","85","","","","18","","8","","24.1","","99.29","","","","-7","","Mostly Cloudy"
"-75.67","45.32","OTTAWA INTL A","6106001","2020-01-02 05:00","2020","01","02","05:00","-3.6","","-5.5","","86","","","","19","","5","","24.1","","99.30","","","","-6","","NA"
"-75.67","45.32","OTTAWA INTL A","6106001","2020-01-02 06:00","2020","01","02","06:00","-4.1","","-5.5","","90","","","","15","","7","","24.1","","99.26","","","","-7","","NA"
"-75.67","45.32","OTTAWA INTL A","6106001","2020-01-02 07:00","2020","01","02","07:00","-3.8","","-5.1","","91","","","","11","","6","","24.1","","99.26","","","","-6","","Mostly Cloudy"
"-75.67","45.32","OTTAWA INTL A","6106001","2020-01-02 08:00","2020","01","02","08:00","-3.1","","-4.2","","92","","","","12","","7","","16.1","","99.26","","","","-6","","Snow"
"-75.67","45.32","OTTAWA INTL A","6106001","2020-01-02 09:00","2020","01","02","09:00","-2.5","","-3.8","","91","","","","13","","7","","16.1","","99.27","","","","-5","","Snow"
"-75.67","45.32","OTTAWA INTL A","6106001","2020-01-02 10:00","2020","01","02","10:00","0.3","","-2.0","","84","","","","20","","10","","24.1","","99.26","","","","","","Cloudy"
"-75.67","45.32","OTTAWA INTL A","6106001","2020-01-02 11:00","2020","01","02","11:00","1.2","","-1.2","","84","","","","21","","11","","24.1","","99.22","","","","","","NA"
"-75.67","45.32","OTTAWA INTL A","6106001","2020-01-02 12:00","2020","01","02","12:00","2.4","","-0.6","","81","","","","20","","16","","24.1","","99.13","","","","","","NA"
"-75.67","45.32","OTTAWA INTL A","6106001","2020-01-02 13:00","2020","01","02","13:00","3.1","","-0.3","","78","","","","19","","16","","24.1","","99.02","","","","","","Mostly Cloudy"
"-75.67","45.32","OTTAWA INTL A","6106001","2020-01-02 14:00","2020","01","02","14:00","3.1","","-0.4","","77","","","","18","","13","","24.1","","98.99","","","","","","NA"
"-75.67","45.32","OTTAWA INTL A","6106001","2020-01-02 15:00","2020","01","02","15:00","3.2","","-0.6","","76","","","","19","","14","","24.1","","98.98","","","","","","NA"
"-75.67","45.32","OTTAWA INTL A","6106001","2020-01-02 16:00","2020","01","02","16:00","3.2","","-0.6","","76","","","","17","","13","","24.1","","98.98","","","","","","Mostly Cloudy"
"-75.67","45.32","OTTAWA INTL A","6106001","2020-01-02 17:00","2020","01","02","17:00","3.5","","-1.0","","73","","","","19","","17","","24.1","","98.94","","","","","","NA"
"-75.67","45.32","OTTAWA INTL A","6106001","2020-01-02 18:00","2020","01","02","18:00","3.6","","-1.2","","71","","","","19","","23","","24.1","","98.86","","","","","","NA"
"-75.67","45.32","OTTAWA INTL A","6106001","2020-01-02 19:00","2020","01","02","19:00","3.9","","-1.5","","68","","","","21","","19","","24.1","","98.90","","","","","","Cloudy"
"-75.67","45.32","OTTAWA INTL A","6106001","2020-01-02 20:00","2020","01","02","20:00","4.1","","-1.6","","66","","","","26","","7","","24.1","","98.95","","","","","","NA"
"-75.67","45.32","OTTAWA INTL A","6106001","2020-01-02 21:00","2020","01","02","21:00","3.9","","-1.6","","67","","","","22","","8","","24.1","","98.99","","","","","","NA"
"-75.67","45.32","OTTAWA INTL A","6106001","2020-01-02 22:00","2020","01","02","22:00","3.8","","-1.3","","69","","","","23","","8","","24.1","","98.97","","","","","","Cloudy"
"-75.67","45.32","OTTAWA INTL A","6106001","2020-01-02 23:00","2020","01","02","23:00","3.5","","-1.0","","72","","","","22","","8","","24.1","","98.95","","","","","","NA"
"-75.67","45.32","OTTAWA INTL A","6106001","2020-01-03 00:00","2020","01","03","00:00","3.1","","-0.6","","77","","","","22","","10","","24.1","","98.95","","","","","","NA"
"-75.67","45.32","OTTAWA INTL A","6106001","2020-01-03 01:00","2020","01","03","01:00","3.3","","-0.3","","77","","","","21","","10","","24.1","","98.95","","","","","","Cloudy"
"-75.67","45.32","OTTAWA INTL A","6106001","2020-01-03 02:00","2020","01","03","02:00","3.1","","-0.1","","79","","","","20","","8","","24.1","","98.99","","","","","","NA"
"-75.67","45.32","OTTAWA INTL A","6106001","2020-01-03 03:00","2020","01","03","03:00","3.0","","-0.2","","79","","","","20","","11","","24.1","","99.08","","","","","","NA"
"-75.67","45.32","OTTAWA INTL A","6106001","2020-01-03 04:00","2020","01","03","04:00","3.0","","0.2","","81","","","","21","","14","","24.1","","99.02","","","","","","Cloudy"
"-75.67","45.32","OTTAWA INTL A","6106001","2020-01-03 05:00","2020","01","03","05:00","3.0","","0.4","","83","","","","21","","13","","24.1","","99.03","","","","","","NA"
"-75.67","45.32","OTTAWA INTL A","6106001","2020-01-03 06:00","2020","01","03","06:00","3.4","","0.8","","83","","","","22","","11","","24.1","","99.06","","","","","","NA"
"-75.67","45.32","OTTAWA INTL A","6106001","2020-01-03 07:00","2020","01","03","07:00","3.0","","0.8","","86","","","","20","","11","","24.1","","99.03","","","","","","Cloudy"
"-75.67","45.32","OTTAWA INTL A","6106001","2020-01-03 08:00","2020","01","03","08:00","3.1","","0.9","","86","","","","23","","11","","24.1","","99.08","","","","","","NA"
"-75.67","45.32","OTTAWA INTL A","6106001","2020-01-03 09:00","2020","01","03","09:00","3.5","","1.3","","86","","","","23","","15","","16.1","","99.19","","","","","","NA"
"-75.67","45.32","OTTAWA INTL A","6106001","2020-01-03 10:00","2020","01","03","10:00","3.6","","1.1","","84","","","","23","","8","","16.1","","99.21","","","","","","Mostly Cloudy"
"-75.67","45.32","OTTAWA INTL A","6106001","2020-01-03 11:00","2020","01","03","11:00","3.9","","1.2","","83","","","","23","","14","","24.1","","99.20","","","","","","NA"
"-75.67","45.32","OTTAWA INTL A","6106001","2020-01-03 12:00","2020","01","03","12:00","4.2","","1.4","","82","","","","23","","15","","24.1","","99.14","","","","","","NA"
"-75.67","45.32","OTTAWA INTL A","6106001","2020-01-03 13:00","2020","01","03","13:00","4.5","","1.6","","81","","","","23","","17","","24.1","","99.12","","","","","","Cloudy"
"-75.67","45.32","OTTAWA INTL A","6106001","2020-01-03 14:00","2020","01","03","14:00","4.7","","1.5","","80","","","","23","","14","","24.1","","99.11","","","","","","NA"
"-75.67","45.32","OTTAWA INTL A","6106001","2020-01-03 15:00","2020","01","03","15:00","4.4","","1.4","","81","","","","22","","15","","24.1","","99.15","","","","","","NA"
"-75.67","45.32","OTTAWA INTL A","6106001","2020-01-03 16:00","2020","01","03","16:00","4.0","","0.6","","78","","","","25","","10","","24.1","","99.21","","","","","","Mostly Cloudy"
"-75.67","45.32","OTTAWA INTL A","6106001","2020-01-03 17:00","2020","01","03","17:00","3.5","","1.3","","85","","","","22","","9","","24.1","","99.25","","","","","","NA"
"-75.67","45.32","OTTAWA INTL A","6106001","2020-01-03 18:00","2020","01","03","18:00","2.9","","1.0","","87","","","","25","","10","","24.1","","99.34","","","","","","NA"
"-75.67","45.32","OTTAWA INTL A","6106001","2020-01-03 19:00","2020","01","03","19:00","2.9","","0.9","","87","","","","28","","13","","24.1","","99.41","","","","","","Cloudy"
"-75.67","45.32","OTTAWA INTL A","6106001","2020-01-03 20:00","2020","01","03","20:00","2.7","","0.3","","84","","","","25","","10","","24.1","","99.50","","","","","","NA"
"-75.67","45.32","OTTAWA INTL A","6106001","2020-01-03 21:00","2020","01","03","21:00","2.5","","-1.0","","77","","","","27","","10","","24.1","","99.57","","","","","","NA"
"-75.67","45.32","OTTAWA INTL A","6106001","2020-01-03 22:00","2020","01","03","22:00","2.3","","-1.2","","78","","","","30","","7","","24.1","","99.60","","","","","","Cloudy"
"-75.67","45.32","OTTAWA INTL A","6106001","2020-01-03 23:00","2020","01","03","23:00","1.3","","-1.2","","84","","","","31","","9","","24.1","","99.56","","","","","","NA"
"-75.67","45.32","OTTAWA INTL A","6106001","2020-01-04 00:00","2020","01","04","00:00","1.5","","-1.4","","81","","","","27","","10","","24.1","","99.55","","","","","","NA"
"-75.67","45.32","OTTAWA INTL A","6106001","2020-01-04 01:00","2020","01","04","01:00","1.3","","-1.8","","80","","","","26","","9","","24.1","","99.53","","","","","","Cloudy"
"-75.67","45.32","OTTAWA INTL A","6106001","2020-01-04 02:00","2020","01","04","02:00","1.1","","-1.9","","80","","","","27","","10","","24.1","","99.60","","","","","","NA"
"-75.67","45.32","OTTAWA INTL A","6106001","2020-01-04 03:00","2020","01","04","03:00","1.0","","-2.1","","80","","","","29","","10","","24.1","","99.55","","","","","","NA"
"-75.67","45.32","OTTAWA INTL A","6106001","2020-01-04 04:00","2020","01","04","04:00","0.7","","-2.2","","81","","","","30","","8","","24.1","","99.54","","","","","","Cloudy"
"-75.67","45.32","OTTAWA INTL A","6106001","2020-01-04 05:00","2020","01","04","05:00","0.5","","-2.1","","83","","","","33","","13","","24.1","","99.51","","","","","","NA"
"-75.67","45.32","OTTAWA INTL A","6106001","2020-01-04 06:00","2020","01","04","06:00","0.4","","-2.0","","84","","","","1","","21","","24.1","","99.45","","","","","","NA"
"-75.67","45.32","OTTAWA INTL A","6106001","2020-01-04 07:00","2020","01","04","07:00","0.2","","-2.7","","81","","","","1","","21","","24.1","","99.36","","","","","","Cloudy"
"-75.67","45.32","OTTAWA INTL A","6106001","2020-01-04 08:00","2020","01","04","08:00","0.1","","-3.4","","77","","","","1","","13","","24.1","","99.41","","","","","","NA"
"-75.67","45.32","OTTAWA INTL A","6106001","2020-01-04 09:00","2020","01","04","09:00","0.1","","-3.4","","78","","","","1","","10","","24.1","","99.43","","","","","","NA"
"-75.67","45.32","OTTAWA INTL A","6106001","2020-01-04 10:00","2020","01","04","10:00","0.1","","-3.1","","79","","","","2","","11","","24.1","","99.41","","","","","","Cloudy"
"-75.67","45.32","OTTAWA INTL A","6106001","2020-01-04 11:00","2020","01","04","11:00","-0.6","","-2.0","","91","","","","36","","13","","1.2","","99.37","","","","-5","","Snow"
"-75.67","45.32","OTTAWA INTL A","6106001","2020-01-04 12:00","2020","01","04","12:00","-0.4","","-1.4","","93","","","","1","","15","","1.6","","99.26","","","","-5","","Snow"
"-75.67","45.32","OTTAWA INTL A","6106001","2020-01-04 13:00","2020","01","04","13:00","-0.4","","-1.5","","92","","","","1","","10","","1.2","","99.17","","","","-4","","Snow"
"-75.67","45.32","OTTAWA INTL A","6106001","2020-01-04 14:00","2020","01","04","14:00","-0.5","","-1.5","","93","","","","36","","11","","1.2","","99.17","","","","-4","","Snow"
"-75.67","45.32","OTTAWA INTL A","6106001","2020-01-04 15:00","2020","01","04","15:00","-0.8","","-1.7","","93","","","","31","","10","","1.2","","99.16","","","","-4","","Snow"
"-75.67","45.32","OTTAWA INTL A","6106001","2020-01-04 16:00","2020","01","04","16:00","-0.9","","-1.6","","95","","","","29","","8","","3.2","","99.14","","","","-4","","Snow"
"-75.67","45.32","OTTAWA INTL A","6106001","2020-01-04 17:00","2020","01","04","17:00","-1.0","","-1.7","","95","","","","32","","8","","16.1","","99.17","","","","-4","","Snow"
"-75.67","45.32","OTTAWA INTL A","6106001","2020-01-04 18:00","2020","01","04","18:00","-0.8","","-1.5","","95","","","","29","","12","","24.1","","99.21","","","","-5","","NA"
"-75.67","45.32","OTTAWA INTL A","6106001","2020-01-04 19:00","2020","01","04","19:00","-1.0","","-1.7","","95","","","","30","","10","","16.1","","99.24","","","","-5","","Cloudy"
"-75.67","45.32","OTTAWA INTL A","6106001","2020-01-04 20:00","2020","01","04","20:00","-1.2","","-2.6","","90","","","","32","","18","","12.9","","99.27","","","","-6","","Snow"
"-75.67","45.32","OTTAWA INTL A","6106001","2020-01-04 21:00","2020","01","04","21:00","-1.7","","-3.7","","86","","","","31","","18","","16.1","","99.27","","","","-7","","Snow"
"-75.67","45.32","OTTAWA INTL A","6106001","2020-01-04 22:00","2020","01","04","22:00","-1.9","","-3.9","","86","","","","31","","13","","16.1","","99.25","","","","-6","","Snow"
"-75.67","45.32","OTTAWA INTL A","6106001","2020-01-04 23:00","2020","01","04","23:00","-2.1","","-3.9","","87","","","","29","","12","","24.1","","99.26","","","","-6","","Snow"
"-75.67","45.32","OTTAWA INTL A","6106001","2020-01-05 00:00","2020","01","05","00:00","-2.5","","-5.3","","82","","","","33","","22","","24.1","","99.25","","","","-9","","Snow"
"-75.67","45.32","OTTAWA INTL A","6106001","2020-01-05 01:00","2020","01","05","01:00","-3.0","","-6.2","","79","","","","33","","22","","24.1","","99.24","","","","-9","","Snow"
"-75.67","45.32","OTTAWA INTL A","6106001","2020-01-05 02:00","2020","01","05","02:00","-3.4","","-6.6","","79","","","","32","","23","","24.1","","99.31","","","","-10","","NA"
"-75.67","45.32","OTTAWA INTL A","6106001","2020-01-05 03:00","2020","01","05","03:00","-4.0","","-7.8","","75","","","","30","","27","","24.1","","99.40","","","","-11","","NA"
"-75.67","45.32","OTTAWA INTL A","6106001","2020-01-05 04:00","2020","01","05","04:00","-5.2","","-7.9","","82","","","","29","","21","","12.9","","99.48","","","","-12","","Snow Showers"
"-75.67","45.32","OTTAWA INTL A","6106001","2020-01-05 05:00","2020","01","05","05:00","-5.8","","-8.8","","79","","","","28","","22","","24.1","","99.54","","","","-13","","NA"
"-75.67","45.32","OTTAWA INTL A","6106001","2020-01-05 06:00","2020","01","05","06:00","-7.0","","-10.2","","78","","","","29","","17","","24.1","","99.60","","","","-13","","NA"
"-75.67","45.32","OTTAWA INTL A","6106001","2020-01-05 07:00","2020","01","05","07:00","-7.5","","-10.8","","78","","","","30","","24","","24.1","","99.71","","","","-15","","Mostly Cloudy"
"-75.67","45.32","OTTAWA INTL A","6106001","2020-01-05 08:00","2020","01","05","08:00","-7.5","","-10.9","","77","","","","29","","21","","24.1","","99.80","","","","-15","","NA"
"-75.67","45.32","OTTAWA INTL A","6106001","2020-01-05 09:00","2020","01","05","09:00","-7.3","","-10.7","","77","","","","29","","21","","24.1","","99.89","","","","-15","","NA"
"-75.67","45.32","OTTAWA INTL A","6106001","2020-01-05 10:00","2020","01","05","10:00","-7.1","","-11.2","","73","","","","30","","24","","24.1","","99.92","","","","-15","","Mostly Cloudy"
"-75.67","45.32","OTTAWA INTL A","6106001","2020-01-05 11:00","2020","01","05","11:00","-6.9","","-11.5","","70","","","","30","","20","","24.1","","99.95","","","","-14","","NA"
"-75.67","45.32","OTTAWA INTL A","6106001","2020-01-05 12:00","2020","01","05","12:00","-6.9","","-11.2","","72","","","","30","","25","","24.1","","99.99","","","","-15","","NA"
"-75.67","45.32","OTTAWA INTL A","6106001","2020-01-05 13:00","2020","01","05","13:00","-7.1","","-10.3","","78","","","","29","","23","","4.8","","99.92","","","","-15","","Snow Showers"
"-75.67","45.32","OTTAWA INTL A","6106001","2020-01-05 14:00","2020","01","05","14:00","-6.7","","-11.4","","70","","","","29","","23","","24.1","","99.93","","","","-14","","NA"
"-75.67","45.32","OTTAWA INTL A","6106001","2020-01-05 15:00","2020","01","05","15:00","-6.2","","-12.1","","63","","","","30","","24","","24.1","","99.98","","","","-14","","NA"
"-75.67","45.32","OTTAWA INTL A","6106001","2020-01-05 16:00","2020","01","05","16:00","-6.9","","-12.4","","65","","","","28","","18","","24.1","","100.00","","","","-14","","Mainly Clear"
"-75.67","45.32","OTTAWA INTL A","6106001","2020-01-05 17:00","2020","01","05","17:00","-8.1","","-12.8","","69","","","","28","","9","","24.1","","100.02","","","","-13","","NA"
"-75.67","45.32","OTTAWA INTL A","6106001","2020-01-05 18:00","2020","01","05","18:00","-8.4","","-12.4","","73","","","","29","","5","","24.1","","100.02","","","","-11","","NA"
"-75.67","45.32","OTTAWA INTL A","6106001","2020-01-05 19:00","2020","01","05","19:00","-7.6","","-12.2","","70","","","","36","","6","","24.1","","100.00","","","","-11","","Mostly Cloudy"
"-75.67","45.32","OTTAWA INTL A","6106001","2020-01-05 20:00","2020","01","05","20:00","-8.7","","-12.2","","77","","","","5","","7","","24.1","","99.98","","","","-13","","NA"
"-75.67","45.32","OTTAWA INTL A","6106001","2020-01-05 21:00","2020","01","05","21:00","-11.0","","-13.3","","83","","","","20","","5","","24.1","","99.99","","","","-14","","NA"
"-75.67","45.32","OTTAWA INTL A","6106001","2020-01-05 22:00","2020","01","05","22:00","-10.8","","-12.9","","85","","","","8","","3","","24.1","","99.94","","","","-13","","Mainly Clear"
"-75.67","45.32","OTTAWA INTL A","6106001","2020-01-05 23:00","2020","01","05","23:00","-11.4","","-13.3","","86","","","","11","","4","","24.1","","99.91","","","","-14","","NA"
"-75.67","45.32","OTTAWA INTL A","6106001","2020-01-06 00:00","2020","01","06","00:00","-10.9","","-13.0","","84","","","","9","","10","","24.1","","99.84","","","","-16","","NA"
"-75.67","45.32","OTTAWA INTL A","6106001","2020-01-06 01:00","2020","01","06","01:00","-11.4","","-13.5","","85","","","","9","","13","","24.1","","99.76","","","","-18","","Mainly Clear"
"-75.67","45.32","OTTAWA INTL A","6106001","2020-01-06 02:00","2020","01","06","02:00","-11.2","","-13.5","","83","","","","8","","11","","24.1","","99.76","","","","-17","","NA"
"-75.67","45.32","OTTAWA INTL A","6106001","2020-01-06 03:00","2020","01","06","03:00","-10.9","","-13.5","","81","","","","7","","19","","24.1","","99.72","","","","-19","","NA"
"-75.67","45.32","OTTAWA INTL A","6106001","2020-01-06 04:00","2020","01","06","04:00","-10.8","","-13.2","","82","","","","6","","16","","24.1","","99.66","","","","-18","","Cloudy"
"-75.67","45.32","OTTAWA INTL A","6106001","2020-01-06 05:00","2020","01","06","05:00","-10.7","","-12.9","","84","","","","7","","16","","6.4","","99.62","","","","-18","","Snow"
"-75.67","45.32","OTTAWA INTL A","6106001","2020-01-06 06:00","2020","01","06","06:00","-10.5","","-12.3","","86","","","","6","","17","","2.4","","99.56","","","","-18","","Snow"
"-75.67","45.32","OTTAWA INTL A","6106001","2020-01-06 07:00","2020","01","06","07:00","-10.8","","-12.7","","86","","","","6","","18","","4.8","","99.53","","","","-18","","Snow"
"-75.67","45.32","OTTAWA INTL A","6106001","2020-01-06 08:00","2020","01","06","08:00","-10.5","","-12.3","","87","","","","7","","18","","4.8","","99.49","","","","-18","","Snow"
"-75.67","45.32","OTTAWA INTL A","6106001","2020-01-06 09:00","2020","01","06","09:00","-9.9","","-11.9","","86","","","","8","","24","","4.0","","99.47","","","","-18","","Snow"
"-75.67","45.32","OTTAWA INTL A","6106001","2020-01-06 10:00","2020","01","06","10:00","-9.6","","-11.5","","86","","","","8","","19","","4.0","","99.40","","","","-17","","Snow"
"-75.67","45.32","OTTAWA INTL A","6106001","2020-01-06 11:00","2020","01","06","11:00","-9.3","","-11.3","","86","","","","9","","19","","2.4","","99.40","","","","-17","","Snow"
"-75.67","45.32","OTTAWA INTL A","6106001","2020-01-06 12:00","2020","01","06","12:00","-8.9","","-10.9","","86","","","","8","","9","","4.8","","99.34","","","","-14","","Snow"
"-75.67","45.32","OTTAWA INTL A","6106001","2020-01-06 13:00","2020","01","06","13:00","-8.4","","-10.4","","86","","","","7","","8","","4.0","","99.31","","","","-13","","Snow"
"-75.67","45.32","OTTAWA INTL A","6106001","2020-01-06 14:00","2020","01","06","14:00","-7.7","","-9.9","","85","","","","5","","8","","4.8","","99.35","","","","-12","","Snow"
"-75.67","45.32","OTTAWA INTL A","6106001","2020-01-06 15:00","2020","01","06","15:00","-7.6","","-9.4","","87","","","","2","","8","","0.8","","99.42","","","","-12","","Moderate Snow,Snow Grains"
"-75.67","45.32","OTTAWA INTL A","6106001","2020-01-06 16:00","2020","01","06","16:00","-7.2","","-8.7","","89","","","","7","","7","","19.3","","99.47","","","","-11","","Mostly Cloudy"
"-75.67","45.32","OTTAWA INTL A","6106001","2020-01-06 17:00","2020","01","06","17:00","-7.5","","-8.8","","90","","","","9","","4","","24.1","","99.50","","","","-10","","NA"
"-75.67","45.32","OTTAWA INTL A","6106001","2020-01-06 18:00","2020","01","06","18:00","-7.4","","-8.8","","90","","","","15","","8","","24.1","","99.50","","","","-11","","NA"
"-75.67","45.32","OTTAWA INTL A","6106001","2020-01-06 19:00","2020","01","06","19:00","-6.7","","-8.1","","90","","","","4","","7","","0.8","","99.54","","","","-10","","Moderate Snow"
"-75.67","45.32","OTTAWA INTL A","6106001","2020-01-06 20:00","2020","01","06","20:00","-7.3","","-8.4","","92","","","","6","","9","","12.9","","99.47","","","","-12","","NA"
"-75.67","45.32","OTTAWA INTL A","6106001","2020-01-06 21:00","2020","01","06","21:00","-7.7","","-8.8","","92","","","","7","","4","","16.1","","99.45","","","","-10","","NA"
"-75.67","45.32","OTTAWA INTL A","6106001","2020-01-06 22:00","2020","01","06","22:00","-8.4","","-9.6","","91","","","","36","","2","","16.1","","99.50","","","","-9","","Mostly Cloudy"
"-75.67","45.32","OTTAWA INTL A","6106001","2020-01-06 23:00","2020","01","06","23:00","-4.4","","-7.8","","77","","","","27","","25","","24.1","","99.61","","","","-12","","NA"
"-75.67","45.32","OTTAWA INTL A","6106001","2020-01-07 00:00","2020","01","07","00:00","-4.7","","-9.7","","68","","","","27","","23","","24.1","","99.70","","","","-12","","NA"
"-75.67","45.32","OTTAWA INTL A","6106001","2020-01-07 01:00","2020","01","07","01:00","-5.9","","-10.4","","70","","","","26","","14","","24.1","","99.79","","","","-11","","Mostly Cloudy"
"-75.67","45.32","OTTAWA INTL A","6106001","2020-01-07 02:00","2020","01","07","02:00","-4.4","","-10.0","","65","","","","27","","19","","24.1","","99.89","","","","-11","","NA"
"-75.67","45.32","OTTAWA INTL A","6106001","2020-01-07 03:00","2020","01","07","03:00","-5.0","","-9.3","","72","","","","26","","12","","24.1","","99.95","","","","-10","","NA"
"-75.67","45.32","OTTAWA INTL A","6106001","2020-01-07 04:00","2020","01","07","04:00","-4.5","","-9.9","","66","","","","29","","17","","24.1","","99.99","","","","-10","","Cloudy"
"-75.67","45.32","OTTAWA INTL A","6106001","2020-01-07 05:00","2020","01","07","05:00","-5.2","","-9.9","","69","","","","28","","18","","24.1","","100.04","","","","-11","","Snow Showers"
"-75.67","45.32","OTTAWA INTL A","6106001","2020-01-07 06:00","2020","01","07","06:00","-5.8","","-9.4","","76","","","","26","","9","","16.1","","100.08","","","","-10","","Snow Showers"
"-75.67","45.32","OTTAWA INTL A","6106001","2020-01-07 07:00","2020","01","07","07:00","-6.1","","-9.2","","79","","","","22","","3","","16.1","","100.12","","","","-8","","Snow"
"-75.67","45.32","OTTAWA INTL A","6106001","2020-01-07 08:00","2020","01","07","08:00","-6.6","","-9.2","","82","","","","36","","2","","16.1","","100.12","","","","-8","","Snow"
"-75.67","45.32","OTTAWA INTL A","6106001","2020-01-07 09:00","2020","01","07","09:00","-6.8","","-9.3","","82","","","","16","","5","","24.1","","100.13","","","","-9","","NA"
"-75.67","45.32","OTTAWA INTL A","6106001","2020-01-07 10:00","2020","01","07","10:00","-5.1","","-8.4","","78","","","","14","","8","","24.1","","100.11","","","","-9","","Mainly Clear"
"-75.67","45.32","OTTAWA INTL A","6106001","2020-01-07 11:00","2020","01","07","11:00","-4.7","","-7.9","","78","","","","14","","13","","24.1","","100.05","","","","-10","","NA"
"-75.67","45.32","OTTAWA INTL A","6106001","2020-01-07 12:00","2020","01","07","12:00","-3.0","","-7.7","","70","","","","17","","13","","24.1","","99.99","","","","-8","","NA"
"-75.67","45.32","OTTAWA INTL A","6106001","2020-01-07 13:00","2020","01","07","13:00","-1.4","","-6.6","","68","","","","18","","12","","24.1","","99.92","","","","-5","","Mostly Cloudy"
"-75.67","45.32","OTTAWA INTL A","6106001","2020-01-07 14:00","2020","01","07","14:00","-0.7","","-6.5","","65","","","","18","","10","","24.1","","99.87","","","","-4","","NA"
"-75.67","45.32","OTTAWA INTL A","6106001","2020-01-07 15:00","2020","01","07","15:00","-0.7","","-6.4","","65","","","","16","","9","","24.1","","99.87","","","","-4","","NA"
"-75.67","45.32","OTTAWA INTL A","6106001","2020-01-07 16:00","2020","01","07","16:00","-1.0","","-6.5","","67","","","","16","","9","","24.1","","99.87","","","","-4","","Mostly Cloudy"
"-75.67","45.32","OTTAWA INTL A","6106001","2020-01-07 17:00","2020","01","07","17:00","-1.9","","-6.5","","71","","","","13","","10","","24.1","","99.83","","","","-6","","NA"
"-75.67","45.32","OTTAWA INTL A","6106001","2020-01-07 18:00","2020","01","07","18:00","-1.5","","-6.1","","71","","","","13","","10","","24.1","","99.83","","","","-5","","NA"
"-75.67","45.32","OTTAWA INTL A","6106001","2020-01-07 19:00","2020","01","07","19:00","-1.2","","-5.3","","73","","","","15","","13","","24.1","","99.77","","","","-5","","Mostly Cloudy"
"-75.67","45.32","OTTAWA INTL A","6106001","2020-01-07 20:00","2020","01","07","20:00","-0.8","","-4.9","","74","","","","16","","11","","24.1","","99.69","","","","-5","","NA"
"-75.67","45.32","OTTAWA INTL A","6106001","2020-01-07 21:00","2020","01","07","21:00","-2.2","","-5.3","","80","","","","11","","9","","24.1","","99.62","","","","-6","","NA"
"-75.67","45.32","OTTAWA INTL A","6106001","2020-01-07 22:00","2020","01","07","22:00","-3.0","","-5.7","","81","","","","11","","8","","24.1","","99.55","","","","-6","","Mostly Cloudy"
"-75.67","45.32","OTTAWA INTL A","6106001","2020-01-07 23:00","2020","01","07","23:00","-2.6","","-5.5","","81","","","","13","","3","","24.1","","99.52","","","","-4","","NA"
"-75.67","45.32","OTTAWA INTL A","6106001","2020-01-08 00:00","2020","01","08","00:00","-2.9","","-5.4","","83","","","","11","","8","","24.1","","99.42","","","","-6","","NA"
"-75.67","45.32","OTTAWA INTL A","6106001","2020-01-08 01:00","2020","01","08","01:00","-2.1","","-4.6","","83","","","","14","","9","","24.1","","99.33","","","","-6","","Cloudy"
"-75.67","45.32","OTTAWA INTL A","6106001","2020-01-08 02:00","2020","01","08","02:00","-1.3","","-4.7","","78","","","","16","","11","","24.1","","99.28","","","","-5","","Snow"
"-75.67","45.32","OTTAWA INTL A","6106001","2020-01-08 03:00","2020","01","08","03:00","-1.5","","-3.6","","86","","","","18","","10","","24.1","","99.23","","","","-5","","Snow"
"-75.67","45.32","OTTAWA INTL A","6106001","2020-01-08 04:00","2020","01","08","04:00","-1.5","","-3.5","","86","","","","20","","9","","4.8","","99.19","","","","-5","","Snow"
"-75.67","45.32","OTTAWA INTL A","6106001","2020-01-08 05:00","2020","01","08","05:00","-2.2","","-3.0","","94","","","","19","","6","","16.1","","99.15","","","","-5","","NA"
"-75.67","45.32","OTTAWA INTL A","6106001","2020-01-08 06:00","2020","01","08","06:00","-2.5","","-3.1","","95","","","","25","","7","","16.1","","99.18","","","","-5","","NA"
"-75.67","45.32","OTTAWA INTL A","6106001","2020-01-08 07:00","2020","01","08","07:00","-2.5","","-3.3","","94","","","","25","","12","","16.1","","99.23","","","","-7","","Mostly Cloudy"
"-75.67","45.32","OTTAWA INTL A","6106001","2020-01-08 08:00","2020","01","08","08:00","-2.1","","-3.2","","92","","","","27","","12","","24.1","","99.28","","","","-6","","NA"
"-75.67","45.32","OTTAWA INTL A","6106001","2020-01-08 09:00","2020","01","08","09:00","-2.2","","-4.1","","87","","","","29","","25","","24.1","","99.35","","","","-9","","NA"
"-75.67","45.32","OTTAWA INTL A","6106001","2020-01-08 10:00","2020","01","08","10:00","-2.5","","-5.0","","83","","","","28","","26","","24.1","","99.45","","","","-9","","Mostly Cloudy"
"-75.67","45.32","OTTAWA INTL A","6106001","2020-01-08 11:00","2020","01","08","11:00","-2.6","","-5.9","","78","","","","28","","28","","24.1","","99.51","","","","-10","","NA"
"-75.67","45.32","OTTAWA INTL A","6106001","2020-01-08 12:00","2020","01","08","12:00","-2.7","","-7.0","","72","","","","28","","28","","24.1","","99.57","","","","-10","","NA"
"-75.67","45.32","OTTAWA INTL A","6106001","2020-01-08 13:00","2020","01","08","13:00","-3.0","","-8.6","","65","","","","28","","34","","24.1","","99.68","","","","-11","","Mostly Cloudy"
"-75.67","45.32","OTTAWA INTL A","6106001","2020-01-08 14:00","2020","01","08","14:00","-3.8","","-10.0","","62","","","","29","","27","","24.1","","99.85","","","","-11","","Snow"
"-75.67","45.32","OTTAWA INTL A","6106001","2020-01-08 15:00","2020","01","08","15:00","-5.4","","-11.8","","61","","","","29","","43","","24.1","","100.06","","","","-15","","NA"
"-75.67","45.32","OTTAWA INTL A","6106001","2020-01-08 16:00","2020","01","08","16:00","-7.5","","-13.4","","63","","","","29","","40","","24.1","","100.32","","","","-17","","Mainly Clear"
"-75.67","45.32","OTTAWA INTL A","6106001","2020-01-08 17:00","2020","01","08","17:00","-9.1","","-14.5","","65","","","","29","","43","","24.1","","100.50","","","","-20","","NA"
"-75.67","45.32","OTTAWA INTL A","6106001","2020-01-08 18:00","2020","01","08","18:00","-10.0","","-14.8","","68","","","","28","","39","","24.1","","100.69","","","","-21","","NA"
"-75.67","45.32","OTTAWA INTL A","6106001","2020-01-08 19:00","2020","01","08","19:00","-11.4","","-16.7","","65","","","","29","","30","","24.1","","100.91","","","","-21","","Mostly Cloudy"
"-75.67","45.32","OTTAWA INTL A","6106001","2020-01-08 20:00","2020","01","08","20:00","-12.1","","-17.0","","67","","","","27","","24","","24.1","","101.13","","","","-21","","NA"
"-75.67","45.32","OTTAWA INTL A","6106001","2020-01-08 21:00","2020","01","08","21:00","-12.9","","-17.8","","67","","","","29","","27","","24.1","","101.27","","","","-23","","NA"
"-75.67","45.32","OTTAWA INTL A","6106001","2020-01-08 22:00","2020","01","08","22:00","-13.5","","-18.3","","67","","","","29","","28","","24.1","","101.40","","","","-24","","Clear"
"-75.67","45.32","OTTAWA INTL A","6106001","2020-01-08 23:00","2020","01","08","23:00","-14.1","","-19.0","","67","","","","28","","27","","24.1","","101.59","","","","-24","","NA"
"-75.67","45.32","OTTAWA INTL A","6106001","2020-01-09 00:00","2020","01","09","00:00","-14.7","","-20.0","","64","","","","30","","23","","24.1","","101.72","","","","-24","","NA"
"-75.67","45.32","OTTAWA INTL A","6106001","2020-01-09 01:00","2020","01","09","01:00","-15.1","","-20.4","","64","","","","30","","29","","24.1","","101.87","","","","-26","","Clear"
"-75.67","45.32","OTTAWA INTL A","6106001","2020-01-09 02:00","2020","01","09","02:00","-15.5","","-20.6","","65","","","","29","","26","","24.1","","102.03","","","","-26","","NA"
"-75.67","45.32","OTTAWA INTL A","6106001","2020-01-09 03:00","2020","01","09","03:00","-16.1","","-21.2","","66","","","","29","","23","","24.1","","102.17","","","","-26","","NA"
"-75.67","45.32","OTTAWA INTL A","6106001","2020-01-09 04:00","2020","01","09","04:00","-16.4","","-21.7","","64","","","","29","","22","","16.1","","102.28","","","","-26","","Clear"
"-75.67","45.32","OTTAWA INTL A","6106001","2020-01-09 05:00","2020","01","09","05:00","-16.9","","-22.0","","65","","","","29","","17","","24.1","","102.37","","","","-26","","NA"
"-75.67","45.32","OTTAWA INTL A","6106001","2020-01-09 06:00","2020","01","09","06:00","-17.7","","-21.6","","72","","","","29","","12","","24.1","","102.46","","","","-25","","NA"
"-75.67","45.32","OTTAWA INTL A","6106001","2020-01-09 07:00","2020","01","09","07:00","-18.3","","-22.2","","72","","","","29","","9","","24.1","","102.55","","","","-25","","Clear"
"-75.67","45.32","OTTAWA INTL A","6106001","2020-01-09 08:00","2020","01","09","08:00","-18.2","","-22.3","","70","","","","33","","9","","24.1","","102.59","","","","-25","","NA"
"-75.67","45.32","OTTAWA INTL A","6106001","2020-01-09 09:00","2020","01","09","09:00","-17.5","","-22.0","","68","","","","30","","9","","24.1","","102.69","","","","-24","","NA"
"-75.67","45.32","OTTAWA INTL A","6106001","2020-01-09 10:00","2020","01","09","10:00","-16.0","","-21.4","","64","","","","3","","5","","24.1","","102.71","","","","-20","","Mainly Clear"
"-75.67","45.32","OTTAWA INTL A","6106001","2020-01-09 11:00","2020","01","09","11:00","-15.5","","-21.3","","62","","","","36","","1","","24.1","","102.71","","","","-16","","NA"
"-75.67","45.32","OTTAWA INTL A","6106001","2020-01-09 12:00","2020","01","09","12:00","-14.2","","-20.8","","58","","","","21","","10","","24.1","","102.70","","","","-20","","NA"
"-75.67","45.32","OTTAWA INTL A","6106001","2020-01-09 13:00","2020","01","09","13:00","-13.8","","-20.4","","58","","","","0","","1","","24.1","","102.56","","","","-14","","Mostly Cloudy"
"-75.67","45.32","OTTAWA INTL A","6106001","2020-01-09 14:00","2020","01","09","14:00","-13.0","","-19.5","","59","","","","10","","13","","24.1","","102.44","","","","-20","","NA"
"-75.67","45.32","OTTAWA INTL A","6106001","2020-01-09 15:00","2020","01","09","15:00","-12.6","","-19.1","","59","","","","12","","7","","24.1","","102.41","","","","-17","","NA"
"-75.67","45.32","OTTAWA INTL A","6106001","2020-01-09 16:00","2020","01","09","16:00","-13.1","","-18.6","","64","","","","10","","13","","24.1","","102.40","","","","-20","","Mostly Cloudy"
"-75.67","45.32","OTTAWA INTL A","6106001","2020-01-09 17:00","2020","01","09","17:00","-13.1","","-18.4","","64","","","","9","","10","","24.1","","102.33","","","","-19","","NA"
"-75.67","45.32","OTTAWA INTL A","6106001","2020-01-09 18:00","2020","01","09","18:00","-13.0","","-17.9","","67","","","","7","","12","","24.1","","102.24","","","","-20","","NA"
"-75.67","45.32","OTTAWA INTL A","6106001","2020-01-09 19:00","2020","01","09","19:00","-12.6","","-17.4","","67","","","","8","","22","","24.1","","102.14","","","","-22","","Cloudy"
"-75.67","45.32","OTTAWA INTL A","6106001","2020-01-09 20:00","2020","01","09","20:00","-12.7","","-17.5","","68","","","","8","","26","","24.1","","101.92","","","","-22","","NA"
"-75.67","45.32","OTTAWA INTL A","6106001","2020-01-09 21:00","2020","01","09","21:00","-12.3","","-16.2","","73","","","","9","","21","","24.1","","101.77","","","","-21","","NA"
"-75.67","45.32","OTTAWA INTL A","6106001","2020-01-09 22:00","2020","01","09","22:00","-11.6","","-15.1","","76","","","","9","","21","","24.1","","101.52","","","","-20","","Cloudy"
"-75.67","45.32","OTTAWA INTL A","6106001","2020-01-09 23:00","2020","01","09","23:00","-11.2","","-14.6","","76","","","","8","","23","","24.1","","101.30","","","","-20","","NA"
"-75.67","45.32","OTTAWA INTL A","6106001","2020-01-10 00:00","2020","01","10","00:00","-10.9","","-14.3","","76","","","","8","","15","","24.1","","101.27","","","","-18","","NA"
"-75.67","45.32","OTTAWA INTL A","6106001","2020-01-10 01:00","2020","01","10","01:00","-10.2","","-13.7","","76","","","","9","","16","","24.1","","101.07","","","","-17","","Cloudy"
"-75.67","45.32","OTTAWA INTL A","6106001","2020-01-10 02:00","2020","01","10","02:00","-9.6","","-13.2","","75","","","","9","","21","","24.1","","101.02","","","","-18","","NA"
"-75.67","45.32","OTTAWA INTL A","6106001","2020-01-10 03:00","2020","01","10","03:00","-9.0","","-12.7","","75","","","","9","","16","","24.1","","100.95","","","","-16","","NA"
"-75.67","45.32","OTTAWA INTL A","6106001","2020-01-10 04:00","2020","01","10","04:00","-8.2","","-11.9","","75","","","","9","","15","","24.1","","100.87","","","","-15","","Cloudy"
"-75.67","45.32","OTTAWA INTL A","6106001","2020-01-10 05:00","2020","01","10","05:00","-7.7","","-11.2","","76","","","","8","","10","","24.1","","100.81","","","","-13","","NA"
"-75.67","45.32","OTTAWA INTL A","6106001","2020-01-10 06:00","2020","01","10","06:00","-7.3","","-10.4","","79","","","","7","","12","","24.1","","100.79","","","","-13","","NA"
"-75.67","45.32","OTTAWA INTL A","6106001","2020-01-10 07:00","2020","01","10","07:00","-6.7","","-9.6","","80","","","","11","","14","","24.1","","100.77","","","","-12","","Cloudy"
"-75.67","45.32","OTTAWA INTL A","6106001","2020-01-10 08:00","2020","01","10","08:00","-5.7","","-8.6","","81","","","","5","","14","","24.1","","100.80","","","","-11","","NA"
"-75.67","45.32","OTTAWA INTL A","6106001","2020-01-10 09:00","2020","01","10","09:00","0.5","","-3.2","","76","","","","18","","10","","24.1","","100.85","","","","","","NA"
"-75.67","45.32","OTTAWA INTL A","6106001","2020-01-10 10:00","2020","01","10","10:00","2.5","","-1.7","","74","","","","20","","24","","24.1","","100.89","","","","","","Cloudy"
"-75.67","45.32","OTTAWA INTL A","6106001","2020-01-10 11:00","2020","01","10","11:00","2.4","","-0.2","","83","","","","20","","25","","24.1","","100.84","","","","","","NA"
"-75.67","45.32","OTTAWA INTL A","6106001","2020-01-10 12:00","2020","01","10","12:00","2.7","","-0.5","","79","","","","20","","24","","24.1","","100.80","","","","","","NA"
"-75.67","45.32","OTTAWA INTL A","6106001","2020-01-10 13:00","2020","01","10","13:00","3.2","","0.2","","81","","","","21","","23","","24.1","","100.76","","","","","","Cloudy"
"-75.67","45.32","OTTAWA INTL A","6106001","2020-01-10 14:00","2020","01","10","14:00","3.4","","0.6","","82","","","","20","","17","","24.1","","100.76","","","","","","NA"
"-75.67","45.32","OTTAWA INTL A","6106001","2020-01-10 15:00","2020","01","10","15:00","3.3","","0.8","","83","","","","22","","9","","24.1","","100.81","","","","","","NA"
"-75.67","45.32","OTTAWA INTL A","6106001","2020-01-10 16:00","2020","01","10","16:00","3.4","","1.4","","86","","","","20","","22","","24.1","","100.85","","","","","","Cloudy"
"-75.67","45.32","OTTAWA INTL A","6106001","2020-01-10 17:00","2020","01","10","17:00","3.2","","1.7","","90","","","","20","","17","","16.1","","100.91","","","","","","NA"
"-75.67","45.32","OTTAWA INTL A","6106001","2020-01-10 18:00","2020","01","10","18:00","3.1","","2.1","","93","","","","22","","9","","16.1","","100.96","","","","","","NA"
"-75.67","45.32","OTTAWA INTL A","6106001","2020-01-10 19:00","2020","01","10","19:00","3.4","","2.6","","95","","","","20","","5","","16.1","","100.98","","","","","","Cloudy"
"-75.67","45.32","OTTAWA INTL A","6106001","2020-01-10 20:00","2020","01","10","20:00","3.1","","2.5","","96","","","","19","","8","","11.3","","100.99","","","","","","NA"
"-75.67","45.32","OTTAWA INTL A","6106001","2020-01-10 21:00","2020","01","10","21:00","3.1","","2.7","","97","","","","19","","9","","4.8","","101.01","","","","","","Fog"
"-75.67","45.32","OTTAWA INTL A","6106001","2020-01-10 22:00","2020","01","10","22:00","3.1","","2.8","","98","","","","19","","8","","0.8","","101.06","","","","","","Fog"
"-75.67","45.32","OTTAWA INTL A","6106001","2020-01-10 23:00","2020","01","10","23:00","3.0","","2.8","","98","","","","19","","7","","0.4","","101.05","","","","","","Fog"
"-75.67","45.32","OTTAWA INTL A","6106001","2020-01-11 00:00","2020","01","11","00:00","3.0","","2.8","","99","","","","19","","5","","0.4","","100.96","","","","","","Fog"
"-75.67","45.32","OTTAWA INTL A","6106001","2020-01-11 01:00","2020","01","11","01:00","3.0","","2.9","","99","","","","17","","7","","0.4","","100.85","","","","","","Fog"
"-75.67","45.32","OTTAWA INTL A","6106001","2020-01-11 02:00","2020","01","11","02:00","2.7","","2.6","","99","","","","15","","8","","0.4","","100.77","","","","","","Drizzle,Fog"
"-75.67","45.32","OTTAWA INTL A","6106001","2020-01-11 03:00","2020","01","11","03:00","2.1","","1.9","","99","","","","11","","10","","0.6","","100.66","","","","","","Rain,Fog"
"-75.67","45.32","OTTAWA INTL A","6106001","2020-01-11 04:00","2020","01","11","04:00","2.3","","2.2","","99","","","","9","","9","","0.8","","100.48","","","","","","Rain,Fog"
"-75.67","45.32","OTTAWA INTL A","6106001","2020-01-11 05:00","2020","01","11","05:00","2.1","","2.0","","99","","","","11","","13","","1.0","","100.29","","","","","","Rain,Fog"
"-75.67","45.32","OTTAWA INTL A","6106001","2020-01-11 06:00","2020","01","11","06:00","2.6","","2.5","","99","","","","11","","8","","1.2","","100.19","","","","","","Rain,Fog"
"-75.67","45.32","OTTAWA INTL A","6106001","2020-01-11 07:00","2020","01","11","07:00","3.8","","3.7","","99","","","","14","","14","","1.2","","99.93","","","","","","Rain,Fog"
"-75.67","45.32","OTTAWA INTL A","6106001","2020-01-11 08:00","2020","01","11","08:00","5.5","","5.4","","99","","","","19","","14","","1.6","","99.75","","","","","","Rain,Fog"
"-75.67","45.32","OTTAWA INTL A","6106001","2020-01-11 09:00","2020","01","11","09:00","6.7","","6.6","","99","","","","19","","21","","2.4","","99.71","","","","","","Rain,Fog"
"-75.67","45.32","OTTAWA INTL A","6106001","2020-01-11 10:00","2020","01","11","10:00","7.4","","7.2","","99","","","","20","","22","","4.8","","99.66","","","","","","Moderate Rain,Fog"
"-75.67","45.32","OTTAWA INTL A","6106001","2020-01-11 11:00","2020","01","11","11:00","7.9","","7.7","","99","","","","20","","24","","9.7","","99.58","","","","","","Rain,Fog"
"-75.67","45.32","OTTAWA INTL A","6106001","2020-01-11 12:00","2020","01","11","12:00","8.3","","8.2","","99","","","","23","","19","","8.1","","99.56","","","","","","Rain,Fog"
"-75.67","45.32","OTTAWA INTL A","6106001","2020-01-11 13:00","2020","01","11","13:00","6.2","","6.1","","99","","","","30","","23","","6.4","","99.63","","","","","","Rain,Fog"
"-75.67","45.32","OTTAWA INTL A","6106001","2020-01-11 14:00","2020","01","11","14:00","2.7","","2.5","","99","","","","34","","25","","16.1","","99.73","","","","","","Rain"
"-75.67","45.32","OTTAWA INTL A","6106001","2020-01-11 15:00","2020","01","11","15:00","2.2","","2.0","","98","","","","34","","22","","6.4","","99.81","","","","","","Rain,Fog"
"-75.67","45.32","OTTAWA INTL A","6106001","2020-01-11 16:00","2020","01","11","16:00","1.8","","1.5","","98","","","","35","","21","","4.8","","99.91","","","","","","Rain,Fog"
"-75.67","45.32","OTTAWA INTL A","6106001","2020-01-11 17:00","2020","01","11","17:00","1.8","","1.4","","97","","","","36","","21","","6.4","","99.92","","","","","","Rain,Fog"
"-75.67","45.32","OTTAWA INTL A","6106001","2020-01-11 18:00","2020","01","11","18:00","1.6","","1.0","","96","","","","36","","21","","9.7","","100.04","","","","","","Moderate Rain,Fog"
"-75.67","45.32","OTTAWA INTL A","6106001","2020-01-11 19:00","2020","01","11","19:00","1.1","","0.4","","95","","","","1","","17","","9.7","","100.07","","","","","","Moderate Rain,Fog"
"-75.67","45.32","OTTAWA INTL A","6106001","2020-01-11 20:00","2020","01","11","20:00","0.8","","0.2","","96","","","","36","","18","","11.3","","100.09","","","","","","Rain"
"-75.67","45.32","OTTAWA INTL A","6106001","2020-01-11 21:00","2020","01","11","21:00","-0.2","","-0.9","","95","","","","36","","22","","4.8","","100.10","","","","-6","","Freezing Rain,Ice Pellets,Fog"
"-75.67","45.32","OTTAWA INTL A","6106001","2020-01-11 22:00","2020","01","11","22:00","-0.5","","-1.4","","94","","","","2","","25","","3.2","","100.06","","","","-7","","Freezing Rain,Fog"
"-75.67","45.32","OTTAWA INTL A","6106001","2020-01-11 23:00","2020","01","11","23:00","-1.6","","-2.5","","93","","","","4","","26","","2.4","","100.06","","","","-8","","Freezing Rain,Snow,Ice Pellets,Fog"
"-75.67","45.32","OTTAWA INTL A","6106001","2020-01-12 00:00","2020","01","12","00:00","-2.4","","-3.3","","94","","","","3","","27","","2.4","","99.98","","","","-9","","Ice Pellets,Fog"
"-75.67","45.32","OTTAWA INTL A","6106001","2020-01-12 01:00","2020","01","12","01:00","-2.4","","-3.3","","93","","","","4","","26","","2.4","","99.87","","","","-9","","Ice Pellets,Fog"
"-75.67","45.32","OTTAWA INTL A","6106001","2020-01-12 02:00","2020","01","12","02:00","-2.9","","-3.7","","94","","","","3","","23","","2.4","","99.81","","","","-9","","Ice Pellets,Fog"
"-75.67","45.32","OTTAWA INTL A","6106001","2020-01-12 03:00","2020","01","12","03:00","-3.6","","-4.5","","94","","","","3","","26","","2.4","","99.59","","","","-11","","Snow,Ice Pellets"
"-75.67","45.32","OTTAWA INTL A","6106001","2020-01-12 04:00","2020","01","12","04:00","-4.0","","-5.0","","93","","","","3","","27","","4.8","","99.51","","","","-11","","Freezing Rain,Ice Pellets,Fog"
"-75.67","45.32","OTTAWA INTL A","6106001","2020-01-12 05:00","2020","01","12","05:00","-4.5","","-5.5","","93","","","","1","","22","","1.6","","99.43","","","","-11","","Moderate Ice Pellets"
"-75.67","45.32","OTTAWA INTL A","6106001","2020-01-12 06:00","2020","01","12","06:00","-5.2","","-6.3","","92","","","","2","","21","","1.6","","99.45","","","","-12","","Snow"
"-75.67","45.32","OTTAWA INTL A","6106001","2020-01-12 07:00","2020","01","12","07:00","-5.8","","-7.2","","90","","","","4","","23","","4.8","","99.27","","","","-13","","Snow"
"-75.67","45.32","OTTAWA INTL A","6106001","2020-01-12 08:00","2020","01","12","08:00","-6.0","","-7.5","","90","","","","35","","17","","4.8","","99.44","","","","-12","","Snow,Ice Pellets"
"-75.67","45.32","OTTAWA INTL A","6106001","2020-01-12 09:00","2020","01","12","09:00","-6.6","","-8.0","","90","","","","31","","28","","1.2","","99.76","","","","-15","","Freezing Drizzle,Snow"
"-75.67","45.32","OTTAWA INTL A","6106001","2020-01-12 10:00","2020","01","12","10:00","-7.8","","-9.3","","89","","","","33","","27","","0.8","","100.05","","","","-16","","Moderate Snow"
"-75.67","45.32","OTTAWA INTL A","6106001","2020-01-12 11:00","2020","01","12","11:00","-8.6","","-10.8","","84","","","","32","","28","","4.8","","100.36","","","","-17","","Snow"
"-75.67","45.32","OTTAWA INTL A","6106001","2020-01-12 12:00","2020","01","12","12:00","-8.8","","-12.0","","78","","","","31","","23","","24.1","","100.59","","","","-17","","NA"
"-75.67","45.32","OTTAWA INTL A","6106001","2020-01-12 13:00","2020","01","12","13:00","-8.4","","-12.0","","76","","","","29","","22","","24.1","","100.81","","","","-16","","Cloudy"
"-75.67","45.32","OTTAWA INTL A","6106001","2020-01-12 14:00","2020","01","12","14:00","-8.8","","-12.7","","74","","","","30","","28","","24.1","","101.07","","","","-18","","NA"
"-75.67","45.32","OTTAWA INTL A","6106001","2020-01-12 15:00","2020","01","12","15:00","-8.6","","-12.7","","73","","","","29","","22","","24.1","","101.25","","","","-16","","NA"
"-75.67","45.32","OTTAWA INTL A","6106001","2020-01-12 16:00","2020","01","12","16:00","-8.6","","-12.5","","74","","","","32","","19","","24.1","","101.43","","","","-16","","Mostly Cloudy"
"-75.67","45.32","OTTAWA INTL A","6106001","2020-01-12 17:00","2020","01","12","17:00","-9.3","","-12.7","","76","","","","34","","17","","24.1","","101.63","","","","-16","","NA"
"-75.67","45.32","OTTAWA INTL A","6106001","2020-01-12 18:00","2020","01","12","18:00","-9.5","","-13.8","","71","","","","34","","16","","24.1","","101.81","","","","-16","","Snow"
"-75.67","45.32","OTTAWA INTL A","6106001","2020-01-12 19:00","2020","01","12","19:00","-9.7","","-13.7","","73","","","","36","","13","","24.1","","101.87","","","","-16","","Mostly Cloudy"
"-75.67","45.32","OTTAWA INTL A","6106001","2020-01-12 20:00","2020","01","12","20:00","-10.1","","-14.5","","70","","","","34","","13","","24.1","","101.88","","","","-16","","NA"
"-75.67","45.32","OTTAWA INTL A","6106001","2020-01-12 21:00","2020","01","12","21:00","-10.6","","-14.4","","74","","","","2","","10","","24.1","","101.86","","","","-16","","NA"
"-75.67","45.32","OTTAWA INTL A","6106001","2020-01-12 22:00","2020","01","12","22:00","-11.0","","-14.5","","76","","","","2","","9","","24.1","","101.82","","","","-16","","Mostly Cloudy"
"-75.67","45.32","OTTAWA INTL A","6106001","2020-01-12 23:00","2020","01","12","23:00","-11.1","","-14.1","","79","","","","4","","8","","24.1","","101.83","","","","-16","","NA"
"-75.67","45.32","OTTAWA INTL A","6106001","2020-01-13 00:00","2020","01","13","00:00","-11.1","","-14.4","","77","","","","2","","10","","24.1","","101.88","","","","-17","","NA"
"-75.67","45.32","OTTAWA INTL A","6106001","2020-01-13 01:00","2020","01","13","01:00","-11.2","","-14.4","","77","","","","3","","12","","24.1","","101.90","","","","-17","","Mostly Cloudy"
"-75.67","45.32","OTTAWA INTL A","6106001","2020-01-13 02:00","2020","01","13","02:00","-11.6","","-14.1","","82","","","","7","","10","","24.1","","101.90","","","","-17","","NA"
"-75.67","45.32","OTTAWA INTL A","6106001","2020-01-13 03:00","2020","01","13","03:00","-11.1","","-13.4","","83","","","","4","","10","","24.1","","101.95","","","","-17","","NA"
"-75.67","45.32","OTTAWA INTL A","6106001","2020-01-13 04:00","2020","01","13","04:00","-10.9","","-12.9","","85","","","","6","","14","","24.1","","101.75","","","","-18","","Cloudy"
"-75.67","45.32","OTTAWA INTL A","6106001","2020-01-13 05:00","2020","01","13","05:00","-10.3","","-12.4","","85","","","","6","","16","","24.1","","101.62","","","","-17","","NA"
"-75.67","45.32","OTTAWA INTL A","6106001","2020-01-13 06:00","2020","01","13","06:00","-9.8","","-11.7","","87","","","","6","","12","","12.9","","101.59","","","","-16","","Freezing Drizzle"
"-75.67","45.32","OTTAWA INTL A","6106001","2020-01-13 07:00","2020","01","13","07:00","-9.6","","-10.7","","92","","","","2","","8","","4.8","","101.63","","","","-14","","Freezing Drizzle,Fog"
"-75.67","45.32","OTTAWA INTL A","6106001","2020-01-13 08:00","2020","01","13","08:00","-9.8","","-10.9","","92","","","","3","","9","","3.2","","101.62","","","","-15","","Freezing Drizzle,Fog"
"-75.67","45.32","OTTAWA INTL A","6106001","2020-01-13 09:00","2020","01","13","09:00","-9.4","","-10.5","","92","","","","5","","10","","6.4","","101.59","","","","-15","","Freezing Drizzle,Fog"
"-75.67","45.32","OTTAWA INTL A","6106001","2020-01-13 10:00","2020","01","13","10:00","-8.9","","-10.1","","91","","","","7","","13","","4.8","","101.54","","","","-15","","Snow"
"-75.67","45.32","OTTAWA INTL A","6106001","2020-01-13 11:00","2020","01","13","11:00","-8.7","","-10.1","","90","","","","7","","12","","16.1","","101.50","","","","-14","","Snow"
"-75.67","45.32","OTTAWA INTL A","6106001","2020-01-13 12:00","2020","01","13","12:00","-8.4","","-9.9","","89","","","","7","","13","","16.1","","101.44","","","","-14","","NA"
"-75.67","45.32","OTTAWA INTL A","6106001","2020-01-13 13:00","2020","01","13","13:00","-8.2","","-9.5","","91","","","","7","","10","","9.7","","101.36","","","","-13","","Freezing Drizzle,Fog"
"-75.67","45.32","OTTAWA INTL A","6106001","2020-01-13 14:00","2020","01","13","14:00","-7.9","","-9.1","","92","","","","11","","10","","6.4","","101.34","","","","-13","","Freezing Drizzle,Fog"
"-75.67","45.32","OTTAWA INTL A","6106001","2020-01-13 15:00","2020","01","13","15:00","-7.6","","-8.7","","91","","","","6","","11","","12.9","","101.37","","","","-13","","Freezing Drizzle"
"-75.67","45.32","OTTAWA INTL A","6106001","2020-01-13 16:00","2020","01","13","16:00","-7.3","","-8.5","","91","","","","5","","10","","16.1","","101.38","","","","-12","","Freezing Drizzle"
"-75.67","45.32","OTTAWA INTL A","6106001","2020-01-13 17:00","2020","01","13","17:00","-7.2","","-8.4","","91","","","","2","","5","","9.7","","101.44","","","","-10","","Snow"
"-75.67","45.32","OTTAWA INTL A","6106001","2020-01-13 18:00","2020","01","13","18:00","-7.1","","-8.4","","90","","","","35","","8","","16.1","","101.53","","","","-11","","Snow"
"-75.67","45.32","OTTAWA INTL A","6106001","2020-01-13 19:00","2020","01","13","19:00","-7.1","","-8.3","","91","","","","3","","7","","12.9","","101.54","","","","-11","","Cloudy"
"-75.67","45.32","OTTAWA INTL A","6106001","2020-01-13 20:00","2020","01","13","20:00","-7.0","","-8.3","","91","","","","33","","5","","11.3","","101.56","","","","-10","","NA"
"-75.67","45.32","OTTAWA INTL A","6106001","2020-01-13 21:00","2020","01","13","21:00","-6.9","","-8.1","","91","","","","29","","4","","8.1","","101.60","","","","-9","","Fog"
"-75.67","45.32","OTTAWA INTL A","6106001","2020-01-13 22:00","2020","01","13","22:00","-6.8","","-8.1","","90","","","","29","","7","","8.1","","101.57","","","","-10","","Fog"
"-75.67","45.32","OTTAWA INTL A","6106001","2020-01-13 23:00","2020","01","13","23:00","-7.1","","-8.5","","90","","","","29","","17","","11.3","","101.61","","","","-14","","NA"
"-75.67","45.32","OTTAWA INTL A","6106001","2020-01-14 00:00","2020","01","14","00:00","-7.1","","-8.4","","91","","","","29","","11","","12.9","","101.65","","","","-12","","NA"
"-75.67","45.32","OTTAWA INTL A","6106001","2020-01-14 01:00","2020","01","14","01:00","-7.4","","-9.0","","88","","","","29","","16","","12.9","","101.65","","","","-14","","Cloudy"
"-75.67","45.32","OTTAWA INTL A","6106001","2020-01-14 02:00","2020","01","14","02:00","-7.6","","-9.3","","88","","","","31","","12","","16.1","","101.67","","","","-13","","NA"
"-75.67","45.32","OTTAWA INTL A","6106001","2020-01-14 03:00","2020","01","14","03:00","-8.1","","-9.7","","88","","","","30","","10","","16.1","","101.67","","","","-13","","NA"
"-75.67","45.32","OTTAWA INTL A","6106001","2020-01-14 04:00","2020","01","14","04:00","-8.2","","-10.2","","85","","","","33","","9","","16.1","","101.69","","","","-13","","Cloudy"
"-75.67","45.32","OTTAWA INTL A","6106001","2020-01-14 05:00","2020","01","14","05:00","-8.4","","-10.5","","85","","","","36","","8","","16.1","","101.71","","","","-13","","NA"
"-75.67","45.32","OTTAWA INTL A","6106001","2020-01-14 06:00","2020","01","14","06:00","-9.3","","-11.3","","86","","","","4","","12","","16.1","","101.52","","","","-15","","Snow"
"-75.67","45.32","OTTAWA INTL A","6106001","2020-01-14 07:00","2020","01","14","07:00","-9.2","","-10.9","","87","","","","6","","7","","24.1","","101.47","","","","-13","","Cloudy"
"-75.67","45.32","OTTAWA INTL A","6106001","2020-01-14 08:00","2020","01","14","08:00","-8.7","","-10.0","","90","","","","9","","10","","16.1","","101.41","","","","-14","","NA"
"-75.67","45.32","OTTAWA INTL A","6106001","2020-01-14 09:00","2020","01","14","09:00","-8.1","","-9.1","","93","","","","10","","12","","12.9","","101.34","","","","-14","","Snow"
"-75.67","45.32","OTTAWA INTL A","6106001","2020-01-14 10:00","2020","01","14","10:00","-7.7","","-8.7","","93","","","","13","","11","","12.9","","101.33","","","","-13","","Snow"
"-75.67","45.32","OTTAWA INTL A","6106001","2020-01-14 11:00","2020","01","14","11:00","-7.7","","-8.8","","92","","","","11","","15","","12.9","","101.35","","","","-14","","Snow"
"-75.67","45.32","OTTAWA INTL A","6106001","2020-01-14 12:00","2020","01","14","12:00","-7.2","","-8.3","","92","","","","8","","14","","16.1","","101.15","","","","-13","","Snow"
"-75.67","45.32","OTTAWA INTL A","6106001","2020-01-14 13:00","2020","01","14","13:00","-6.5","","-7.5","","93","","","","8","","15","","12.9","","100.93","","","","-12","","Cloudy"
"-75.67","45.32","OTTAWA INTL A","6106001","2020-01-14 14:00","2020","01","14","14:00","-5.8","","-6.7","","94","","","","5","","13","","12.9","","100.83","","","","-11","","NA"
"-75.67","45.32","OTTAWA INTL A","6106001","2020-01-14 15:00","2020","01","14","15:00","-6.0","","-7.1","","92","","","","5","","19","","16.1","","100.69","","","","-13","","NA"
"-75.67","45.32","OTTAWA INTL A","6106001","2020-01-14 16:00","2020","01","14","16:00","-6.1","","-7.0","","93","","","","6","","18","","6.4","","100.55","","","","-13","","Freezing Drizzle"
"-75.67","45.32","OTTAWA INTL A","6106001","2020-01-14 17:00","2020","01","14","17:00","-6.5","","-7.6","","92","","","","6","","21","","12.9","","100.51","","","","-14","","Freezing Drizzle"
"-75.67","45.32","OTTAWA INTL A","6106001","2020-01-14 18:00","2020","01","14","18:00","-6.8","","-8.3","","89","","","","6","","17","","16.1","","100.48","","","","-13","","NA"
"-75.67","45.32","OTTAWA INTL A","6106001","2020-01-14 19:00","2020","01","14","19:00","-7.1","","-8.8","","88","","","","7","","18","","16.1","","100.36","","","","-14","","Cloudy"
"-75.67","45.32","OTTAWA INTL A","6106001","2020-01-14 20:00","2020","01","14","20:00","-7.2","","-9.0","","88","","","","4","","12","","16.1","","100.36","","","","-13","","NA"
"-75.67","45.32","OTTAWA INTL A","6106001","2020-01-14 21:00","2020","01","14","21:00","-7.4","","-9.0","","89","","","","5","","9","","12.9","","100.32","","","","-12","","NA"
"-75.67","45.32","OTTAWA INTL A","6106001","2020-01-14 22:00","2020","01","14","22:00","-7.3","","-8.7","","90","","","","2","","8","","24.1","","100.32","","","","-11","","Cloudy"
"-75.67","45.32","OTTAWA INTL A","6106001","2020-01-14 23:00","2020","01","14","23:00","-7.2","","-8.5","","91","","","","7","","3","","24.1","","100.31","","","","-9","","NA"
"-75.67","45.32","OTTAWA INTL A","6106001","2020-01-15 00:00","2020","01","15","00:00","-7.0","","-8.3","","90","","","","23","","3","","24.1","","100.34","","","","-9","","NA"
"-75.67","45.32","OTTAWA INTL A","6106001","2020-01-15 01:00","2020","01","15","01:00","-6.7","","-8.1","","90","","","","23","","5","","24.1","","100.36","","","","-9","","Cloudy"
"-75.67","45.32","OTTAWA INTL A","6106001","2020-01-15 02:00","2020","01","15","02:00","-6.5","","-8.0","","89","","","","21","","9","","24.1","","100.38","","","","-11","","NA"
"-75.67","45.32","OTTAWA INTL A","6106001","2020-01-15 03:00","2020","01","15","03:00","-6.1","","-7.3","","91","","","","21","","10","","24.1","","100.42","","","","-11","","NA"
"-75.67","45.32","OTTAWA INTL A","6106001","2020-01-15 04:00","2020","01","15","04:00","-5.7","","-6.6","","93","","","","21","","8","","6.4","","100.40","","","","-9","","Fog"
"-75.67","45.32","OTTAWA INTL A","6106001","2020-01-15 05:00","2020","01","15","05:00","-5.0","","-5.7","","95","","","","22","","8","","6.4","","100.45","","","","-9","","Fog"
"-75.67","45.32","OTTAWA INTL A","6106001","2020-01-15 06:00","2020","01","15","06:00","-4.4","","-5.1","","95","","","","24","","7","","4.8","","100.51","","","","-8","","Fog"
"-75.67","45.32","OTTAWA INTL A","6106001","2020-01-15 07:00","2020","01","15","07:00","-4.0","","-4.7","","95","","","","25","","8","","4.8","","100.58","","","","-7","","Fog"
"-75.67","45.32","OTTAWA INTL A","6106001","2020-01-15 08:00","2020","01","15","08:00","-3.9","","-4.6","","95","","","","26","","8","","6.4","","100.60","","","","-7","","Fog"
"-75.67","45.32","OTTAWA INTL A","6106001","2020-01-15 09:00","2020","01","15","09:00","-3.5","","-4.3","","94","","","","24","","5","","6.4","","100.61","","","","-6","","Fog"
"-75.67","45.32","OTTAWA INTL A","6106001","2020-01-15 10:00","2020","01","15","10:00","-2.5","","-3.4","","93","","","","24","","7","","9.7","","100.66","","","","-5","","Fog"
"-75.67","45.32","OTTAWA INTL A","6106001","2020-01-15 11:00","2020","01","15","11:00","-0.8","","-2.0","","91","","","","23","","8","","12.9","","100.65","","","","-4","","NA"
"-75.67","45.32","OTTAWA INTL A","6106001","2020-01-15 12:00","2020","01","15","12:00","0.5","","-1.5","","86","","","","25","","12","","16.1","","100.58","","","","","","NA"
"-75.67","45.32","OTTAWA INTL A","6106001","2020-01-15 13:00","2020","01","15","13:00","-0.1","","-2.0","","87","","","","30","","12","","16.1","","100.60","","","","-4","","Cloudy"
"-75.67","45.32","OTTAWA INTL A","6106001","2020-01-15 14:00","2020","01","15","14:00","-0.1","","-2.5","","84","","","","28","","14","","16.1","","100.63","","","","-4","","NA"
"-75.67","45.32","OTTAWA INTL A","6106001","2020-01-15 15:00","2020","01","15","15:00","-0.4","","-2.6","","85","","","","29","","7","","12.9","","100.62","","","","-3","","NA"
"-75.67","45.32","OTTAWA INTL A","6106001","2020-01-15 16:00","2020","01","15","16:00","-0.8","","-2.7","","87","","","","30","","6","","12.9","","100.63","","","","-3","","Cloudy"
"-75.67","45.32","OTTAWA INTL A","6106001","2020-01-15 17:00","2020","01","15","17:00","-0.5","","-2.4","","87","","","","28","","6","","16.1","","100.63","","","","-3","","Snow"
"-75.67","45.32","OTTAWA INTL A","6106001","2020-01-15 18:00","2020","01","15","18:00","-0.7","","-2.3","","89","","","","36","","3","","24.1","","100.66","","","","-2","","Snow"
"-75.67","45.32","OTTAWA INTL A","6106001","2020-01-15 19:00","2020","01","15","19:00","-1.3","","-2.1","","94","","","","14","","3","","3.2","","100.58","","","","-2","","Snow"
"-75.67","45.32","OTTAWA INTL A","6106001","2020-01-15 20:00","2020","01","15","20:00","-1.6","","-2.1","","96","","","","9","","6","","4.8","","100.47","","","","-4","","Snow"
"-75.67","45.32","OTTAWA INTL A","6106001","2020-01-15 21:00","2020","01","15","21:00","-1.6","","-2.0","","97","","","","14","","4","","11.3","","100.42","","","","-3","","Snow"
"-75.67","45.32","OTTAWA INTL A","6106001","2020-01-15 22:00","2020","01","15","22:00","-1.8","","-2.3","","97","","","","9","","7","","9.7","","100.35","","","","-4","","Fog"
"-75.67","45.32","OTTAWA INTL A","6106001","2020-01-15 23:00","2020","01","15","23:00","-2.1","","-2.6","","96","","","","12","","5","","12.9","","100.28","","","","-4","","NA"
"-75.67","45.32","OTTAWA INTL A","6106001","2020-01-16 00:00","2020","01","16","00:00","-1.9","","-2.4","","96","","","","10","","6","","16.1","","100.21","","","","-4","","NA"
"-75.67","45.32","OTTAWA INTL A","6106001","2020-01-16 01:00","2020","01","16","01:00","-2.0","","-2.6","","96","","","","10","","6","","9.7","","100.10","","","","-4","","Snow"
"-75.67","45.32","OTTAWA INTL A","6106001","2020-01-16 02:00","2020","01","16","02:00","-2.1","","-2.6","","96","","","","3","","12","","8.1","","100.02","","","","-6","","Snow"
"-75.67","45.32","OTTAWA INTL A","6106001","2020-01-16 03:00","2020","01","16","03:00","-2.0","","-2.5","","96","","","","1","","12","","2.4","","99.99","","","","-6","","Snow"
"-75.67","45.32","OTTAWA INTL A","6106001","2020-01-16 04:00","2020","01","16","04:00","-2.2","","-2.8","","96","","","","2","","15","","2.4","","99.91","","","","-7","","Snow"
"-75.67","45.32","OTTAWA INTL A","6106001","2020-01-16 05:00","2020","01","16","05:00","-2.2","","-2.8","","96","","","","2","","12","","2.4","","99.89","","","","-6","","Snow"
"-75.67","45.32","OTTAWA INTL A","6106001","2020-01-16 06:00","2020","01","16","06:00","-2.2","","-2.8","","96","","","","1","","13","","2.0","","99.89","","","","-7","","Snow"
"-75.67","45.32","OTTAWA INTL A","6106001","2020-01-16 07:00","2020","01","16","07:00","-2.3","","-3.0","","95","","","","35","","11","","4.0","","99.97","","","","-6","","Snow"
"-75.67","45.32","OTTAWA INTL A","6106001","2020-01-16 08:00","2020","01","16","08:00","-2.6","","-3.4","","94","","","","31","","13","","4.8","","100.02","","","","-7","","Snow"
"-75.67","45.32","OTTAWA INTL A","6106001","2020-01-16 09:00","2020","01","16","09:00","-2.6","","-3.5","","93","","","","31","","21","","12.9","","100.09","","","","-9","","Snow"
"-75.67","45.32","OTTAWA INTL A","6106001","2020-01-16 10:00","2020","01","16","10:00","-2.3","","-3.6","","91","","","","30","","20","","24.1","","100.16","","","","-8","","Mostly Cloudy"
"-75.67","45.32","OTTAWA INTL A","6106001","2020-01-16 11:00","2020","01","16","11:00","-2.3","","-5.0","","82","","","","32","","28","","24.1","","100.22","","","","-9","","NA"
"-75.67","45.32","OTTAWA INTL A","6106001","2020-01-16 12:00","2020","01","16","12:00","-2.5","","-6.2","","76","","","","34","","22","","24.1","","100.22","","","","-9","","NA"
"-75.67","45.32","OTTAWA INTL A","6106001","2020-01-16 13:00","2020","01","16","13:00","-3.8","","-7.1","","78","","","","32","","34","","24.1","","100.31","","","","-12","","Mostly Cloudy"
"-75.67","45.32","OTTAWA INTL A","6106001","2020-01-16 14:00","2020","01","16","14:00","-4.7","","-7.4","","81","","","","32","","32","","16.1","","100.43","","","","-13","","Snow"
"-75.67","45.32","OTTAWA INTL A","6106001","2020-01-16 15:00","2020","01","16","15:00","-5.5","","-9.5","","74","","","","32","","35","","24.1","","100.55","","","","-14","","NA"
"-75.67","45.32","OTTAWA INTL A","6106001","2020-01-16 16:00","2020","01","16","16:00","-6.8","","-11.3","","71","","","","33","","29","","24.1","","100.71","","","","-15","","Mainly Clear"
"-75.67","45.32","OTTAWA INTL A","6106001","2020-01-16 17:00","2020","01","16","17:00","-7.8","","-11.6","","74","","","","32","","30","","16.1","","100.85","","","","-17","","Snow,Blowing Snow"
"-75.67","45.32","OTTAWA INTL A","6106001","2020-01-16 18:00","2020","01","16","18:00","-9.3","","-13.7","","71","","","","32","","34","","24.1","","101.04","","","","-19","","Snow,Blowing Snow"
"-75.67","45.32","OTTAWA INTL A","6106001","2020-01-16 19:00","2020","01","16","19:00","-11.2","","-15.5","","71","","","","32","","36","","24.1","","101.21","","","","-22","","Blowing Snow"
"-75.67","45.32","OTTAWA INTL A","6106001","2020-01-16 20:00","2020","01","16","20:00","-12.3","","-16.3","","72","","","","33","","39","","24.1","","101.35","","","","-24","","Blowing Snow"
"-75.67","45.32","OTTAWA INTL A","6106001","2020-01-16 21:00","2020","01","16","21:00","-13.5","","-17.8","","70","","","","31","","30","","24.1","","101.53","","","","-24","","Blowing Snow"
"-75.67","45.32","OTTAWA INTL A","6106001","2020-01-16 22:00","2020","01","16","22:00","-14.1","","-18.5","","70","","","","31","","27","","24.1","","101.65","","","","-24","","Blowing Snow"
"-75.67","45.32","OTTAWA INTL A","6106001","2020-01-16 23:00","2020","01","16","23:00","-15.2","","-19.7","","69","","","","33","","32","","24.1","","101.80","","","","-27","","Blowing Snow"
"-75.67","45.32","OTTAWA INTL A","6106001","2020-01-17 00:00","2020","01","17","00:00","-16.2","","-20.8","","68","","","","32","","36","","24.1","","101.91","","","","-29","","Blowing Snow"
"-75.67","45.32","OTTAWA INTL A","6106001","2020-01-17 01:00","2020","01","17","01:00","-17.1","","-21.9","","67","","","","32","","33","","24.1","","102.02","","","","-29","","Blowing Snow"
"-75.67","45.32","OTTAWA INTL A","6106001","2020-01-17 02:00","2020","01","17","02:00","-17.9","","-22.6","","67","","","","32","","31","","24.1","","102.23","","","","-30","","Blowing Snow"
"-75.67","45.32","OTTAWA INTL A","6106001","2020-01-17 03:00","2020","01","17","03:00","-18.6","","-23.3","","67","","","","32","","36","","24.1","","102.40","","","","-32","","Blowing Snow"
"-75.67","45.32","OTTAWA INTL A","6106001","2020-01-17 04:00","2020","01","17","04:00","-19.2","","-23.9","","67","","","","33","","27","","24.1","","102.51","","","","-31","","Clear"
"-75.67","45.32","OTTAWA INTL A","6106001","2020-01-17 05:00","2020","01","17","05:00","-19.7","","-24.2","","68","","","","32","","31","","24.1","","102.58","","","","-32","","NA"
"-75.67","45.32","OTTAWA INTL A","6106001","2020-01-17 06:00","2020","01","17","06:00","-20.2","","-24.7","","68","","","","32","","26","","24.1","","102.69","","","","-32","","NA"
"-75.67","45.32","OTTAWA INTL A","6106001","2020-01-17 07:00","2020","01","17","07:00","-20.6","","-25.0","","68","","","","31","","24","","24.1","","102.81","","","","-32","","Clear"
"-75.67","45.32","OTTAWA INTL A","6106001","2020-01-17 08:00","2020","01","17","08:00","-20.8","","-25.2","","68","","","","31","","19","","24.1","","102.90","","","","-31","","NA"
"-75.67","45.32","OTTAWA INTL A","6106001","2020-01-17 09:00","2020","01","17","09:00","-20.5","","-25.4","","66","","","","30","","19","","24.1","","102.93","","","","-31","","NA"
"-75.67","45.32","OTTAWA INTL A","6106001","2020-01-17 10:00","2020","01","17","10:00","-19.7","","-24.8","","65","","","","30","","17","","24.1","","103.00","","","","-29","","Clear"
"-75.67","45.32","OTTAWA INTL A","6106001","2020-01-17 11:00","2020","01","17","11:00","-19.1","","-24.3","","64","","","","28","","17","","24.1","","103.03","","","","-29","","NA"
"-75.67","45.32","OTTAWA INTL A","6106001","2020-01-17 12:00","2020","01","17","12:00","-18.4","","-24.0","","62","","","","27","","19","","24.1","","102.98","","","","-28","","NA"
"-75.67","45.32","OTTAWA INTL A","6106001","2020-01-17 13:00","2020","01","17","13:00","-17.4","","-23.5","","60","","","","28","","18","","24.1","","102.89","","","","-27","","Clear"
"-75.67","45.32","OTTAWA INTL A","6106001","2020-01-17 14:00","2020","01","17","14:00","-16.4","","-22.9","","58","","","","27","","18","","24.1","","102.85","","","","-25","","NA"
"-75.67","45.32","OTTAWA INTL A","6106001","2020-01-17 15:00","2020","01","17","15:00","-16.5","","-22.5","","61","","","","25","","17","","24.1","","102.85","","","","-25","","NA"
"-75.67","45.32","OTTAWA INTL A","6106001","2020-01-17 16:00","2020","01","17","16:00","-16.3","","-22.4","","60","","","","29","","9","","24.1","","102.79","","","","-22","","Mainly Clear"
"-75.67","45.32","OTTAWA INTL A","6106001","2020-01-17 17:00","2020","01","17","17:00","-17.2","","-22.4","","64","","","","27","","14","","24.1","","102.82","","","","-25","","NA"
"-75.67","45.32","OTTAWA INTL A","6106001","2020-01-17 18:00","2020","01","17","18:00","-17.9","","-22.9","","66","","","","25","","12","","24.1","","102.80","","","","-25","","NA"
"-75.67","45.32","OTTAWA INTL A","6106001","2020-01-17 19:00","2020","01","17","19:00","-18.0","","-22.7","","67","","","","26","","10","","24.1","","102.83","","","","-25","","Mainly Clear"
"-75.67","45.32","OTTAWA INTL A","6106001","2020-01-17 20:00","2020","01","17","20:00","-17.7","","-22.3","","68","","","","28","","9","","24.1","","102.82","","","","-24","","NA"
"-75.67","45.32","OTTAWA INTL A","6106001","2020-01-17 21:00","2020","01","17","21:00","-17.7","","-22.1","","69","","","","30","","11","","24.1","","102.78","","","","-25","","NA"
"-75.67","45.32","OTTAWA INTL A","6106001","2020-01-17 22:00","2020","01","17","22:00","-17.8","","-22.0","","70","","","","28","","8","","24.1","","102.80","","","","-24","","Mainly Clear"
"-75.67","45.32","OTTAWA INTL A","6106001","2020-01-17 23:00","2020","01","17","23:00","-18.8","","-22.2","","75","","","","23","","5","","24.1","","102.72","","","","-23","","NA"
"-75.67","45.32","OTTAWA INTL A","6106001","2020-01-18 00:00","2020","01","18","00:00","-18.1","","-21.4","","76","","","","22","","3","","24.1","","102.64","","","","-21","","NA"
"-75.67","45.32","OTTAWA INTL A","6106001","2020-01-18 01:00","2020","01","18","01:00","-18.9","","-22.0","","77","","","","19","","4","","24.1","","102.57","","","","-22","","Mostly Cloudy"
"-75.67","45.32","OTTAWA INTL A","6106001","2020-01-18 02:00","2020","01","18","02:00","-18.7","","-21.2","","81","","","","19","","5","","24.1","","102.59","","","","-23","","NA"
"-75.67","45.32","OTTAWA INTL A","6106001","2020-01-18 03:00","2020","01","18","03:00","-18.2","","-20.9","","80","","","","17","","7","","24.1","","102.51","","","","-24","","NA"
"-75.67","45.32","OTTAWA INTL A","6106001","2020-01-18 04:00","2020","01","18","04:00","-18.1","","-20.8","","79","","","","15","","5","","24.1","","102.39","","","","-22","","Cloudy"
"-75.67","45.32","OTTAWA INTL A","6106001","2020-01-18 05:00","2020","01","18","05:00","-17.5","","-20.4","","78","","","","11","","4","","24.1","","102.23","","","","-21","","NA"
"-75.67","45.32","OTTAWA INTL A","6106001","2020-01-18 06:00","2020","01","18","06:00","-17.0","","-20.4","","75","","","","36","","2","","24.1","","102.17","","","","-19","","NA"
"-75.67","45.32","OTTAWA INTL A","6106001","2020-01-18 07:00","2020","01","18","07:00","-16.8","","-19.7","","78","","","","8","","10","","24.1","","102.04","","","","-23","","Mostly Cloudy"
"-75.67","45.32","OTTAWA INTL A","6106001","2020-01-18 08:00","2020","01","18","08:00","-17.1","","-19.8","","80","","","","5","","16","","24.1","","101.89","","","","-26","","NA"
"-75.67","45.32","OTTAWA INTL A","6106001","2020-01-18 09:00","2020","01","18","09:00","-16.3","","-19.2","","78","","","","7","","14","","24.1","","101.79","","","","-24","","NA"
"-75.67","45.32","OTTAWA INTL A","6106001","2020-01-18 10:00","2020","01","18","10:00","-15.3","","-19.4","","72","","","","8","","12","","24.1","","101.67","","","","-22","","Cloudy"
"-75.67","45.32","OTTAWA INTL A","6106001","2020-01-18 11:00","2020","01","18","11:00","-14.9","","-19.2","","70","","","","6","","22","","24.1","","101.49","","","","-24","","NA"
"-75.67","45.32","OTTAWA INTL A","6106001","2020-01-18 12:00","2020","01","18","12:00","-14.6","","-18.6","","72","","","","6","","21","","24.1","","101.21","","","","-24","","NA"
"-75.67","45.32","OTTAWA INTL A","6106001","2020-01-18 13:00","2020","01","18","13:00","-14.2","","-18.3","","72","","","","6","","15","","24.1","","101.03","","","","-22","","Cloudy"
"-75.67","45.32","OTTAWA INTL A","6106001","2020-01-18 14:00","2020","01","18","14:00","-14.6","","-18.1","","75","","","","7","","21","","24.1","","100.73","","","","-24","","NA"
"-75.67","45.32","OTTAWA INTL A","6106001","2020-01-18 15:00","2020","01","18","15:00","-14.5","","-18.1","","74","","","","9","","31","","1.6","","100.45","","","","-26","","Snow"
"-75.67","45.32","OTTAWA INTL A","6106001","2020-01-18 16:00","2020","01","18","16:00","-14.7","","-17.4","","80","","","","7","","37","","1.2","","100.08","","","","-27","","Snow,Blowing Snow"
"-75.67","45.32","OTTAWA INTL A","6106001","2020-01-18 17:00","2020","01","18","17:00","-14.8","","-17.2","","82","","","","7","","26","","1.2","","99.88","","","","-25","","Snow,Blowing Snow"
"-75.67","45.32","OTTAWA INTL A","6106001","2020-01-18 18:00","2020","01","18","18:00","-14.8","","-17.3","","82","","","","6","","30","","1.6","","99.72","","","","-26","","Snow,Blowing Snow"
"-75.67","45.32","OTTAWA INTL A","6106001","2020-01-18 19:00","2020","01","18","19:00","-15.2","","-17.5","","83","","","","6","","30","","0.8","","99.50","","","","-26","","Moderate Snow,Blowing Snow"
"-75.67","45.32","OTTAWA INTL A","6106001","2020-01-18 20:00","2020","01","18","20:00","-15.6","","-17.8","","83","","","","6","","27","","1.6","","99.32","","","","-26","","Snow,Blowing Snow"
"-75.67","45.32","OTTAWA INTL A","6106001","2020-01-18 21:00","2020","01","18","21:00","-15.1","","-17.4","","83","","","","7","","33","","1.6","","99.10","","","","-27","","Snow,Blowing Snow"
"-75.67","45.32","OTTAWA INTL A","6106001","2020-01-18 22:00","2020","01","18","22:00","-14.9","","-17.2","","83","","","","6","","29","","1.6","","98.94","","","","-26","","Snow,Blowing Snow"
"-75.67","45.32","OTTAWA INTL A","6106001","2020-01-18 23:00","2020","01","18","23:00","-15.0","","-17.2","","83","","","","6","","27","","1.6","","98.86","","","","-26","","Snow,Blowing Snow"
"-75.67","45.32","OTTAWA INTL A","6106001","2020-01-19 00:00","2020","01","19","00:00","-14.7","","-17.0","","83","","","","6","","27","","2.4","","98.75","","","","-25","","Snow,Blowing Snow"
"-75.67","45.32","OTTAWA INTL A","6106001","2020-01-19 01:00","2020","01","19","01:00","-14.3","","-16.6","","83","","","","5","","23","","2.4","","98.66","","","","-24","","Snow,Blowing Snow"
"-75.67","45.32","OTTAWA INTL A","6106001","2020-01-19 02:00","2020","01","19","02:00","-13.6","","-15.9","","83","","","","5","","19","","1.6","","98.68","","","","-22","","Snow"
"-75.67","45.32","OTTAWA INTL A","6106001","2020-01-19 03:00","2020","01","19","03:00","-13.0","","-15.0","","85","","","","3","","12","","3.2","","98.70","","","","-20","","Snow"
"-75.67","45.32","OTTAWA INTL A","6106001","2020-01-19 04:00","2020","01","19","04:00","-12.5","","-14.4","","86","","","","35","","9","","1.6","","98.76","","","","-18","","Snow"
"-75.67","45.32","OTTAWA INTL A","6106001","2020-01-19 05:00","2020","01","19","05:00","-12.0","","-13.8","","87","","","","32","","13","","3.2","","98.83","","","","-19","","Snow"
"-75.67","45.32","OTTAWA INTL A","6106001","2020-01-19 06:00","2020","01","19","06:00","-12.2","","-14.1","","86","","","","32","","13","","8.1","","98.93","","","","-19","","Snow"
"-75.67","45.32","OTTAWA INTL A","6106001","2020-01-19 07:00","2020","01","19","07:00","-12.4","","-14.5","","84","","","","33","","17","","16.1","","99.02","","","","-20","","Snow"
"-75.67","45.32","OTTAWA INTL A","6106001","2020-01-19 08:00","2020","01","19","08:00","-12.8","","-15.1","","83","","","","32","","18","","16.1","","99.15","","","","-21","","Snow"
"-75.67","45.32","OTTAWA INTL A","6106001","2020-01-19 09:00","2020","01","19","09:00","-12.1","","-14.4","","83","","","","30","","9","","1.2","","99.26","","","","-17","","Snow"
"-75.67","45.32","OTTAWA INTL A","6106001","2020-01-19 10:00","2020","01","19","10:00","-11.7","","-14.1","","83","","","","30","","14","","1.6","","99.36","","","","-19","","Snow"
"-75.67","45.32","OTTAWA INTL A","6106001","2020-01-19 11:00","2020","01","19","11:00","-12.1","","-15.5","","76","","","","31","","18","","16.1","","99.47","","","","-20","","Snow"
"-75.67","45.32","OTTAWA INTL A","6106001","2020-01-19 12:00","2020","01","19","12:00","-11.3","","-15.4","","72","","","","31","","26","","16.1","","99.52","","","","-21","","Snow"
"-75.67","45.32","OTTAWA INTL A","6106001","2020-01-19 13:00","2020","01","19","13:00","-11.4","","-15.6","","72","","","","30","","24","","24.1","","99.59","","","","-20","","Snow"
"-75.67","45.32","OTTAWA INTL A","6106001","2020-01-19 14:00","2020","01","19","14:00","-10.6","","-15.4","","68","","","","30","","23","","24.1","","99.67","","","","-19","","NA"
"-75.67","45.32","OTTAWA INTL A","6106001","2020-01-19 15:00","2020","01","19","15:00","-10.0","","-14.8","","68","","","","31","","23","","24.1","","99.80","","","","-18","","NA"
"-75.67","45.32","OTTAWA INTL A","6106001","2020-01-19 16:00","2020","01","19","16:00","-9.8","","-14.3","","70","","","","32","","19","","24.1","","99.88","","","","-17","","Mostly Cloudy"
"-75.67","45.32","OTTAWA INTL A","6106001","2020-01-19 17:00","2020","01","19","17:00","-10.4","","-14.7","","71","","","","32","","23","","24.1","","100.03","","","","-19","","NA"
"-75.67","45.32","OTTAWA INTL A","6106001","2020-01-19 18:00","2020","01","19","18:00","-10.3","","-15.0","","69","","","","34","","18","","24.1","","100.17","","","","-18","","NA"
"-75.67","45.32","OTTAWA INTL A","6106001","2020-01-19 19:00","2020","01","19","19:00","-11.1","","-14.9","","74","","","","33","","18","","24.1","","100.32","","","","-19","","Mainly Clear"
"-75.67","45.32","OTTAWA INTL A","6106001","2020-01-19 20:00","2020","01","19","20:00","-11.5","","-15.3","","74","","","","32","","24","","24.1","","100.43","","","","-21","","NA"
"-75.67","45.32","OTTAWA INTL A","6106001","2020-01-19 21:00","2020","01","19","21:00","-11.6","","-15.8","","71","","","","33","","24","","24.1","","100.54","","","","-21","","NA"
"-75.67","45.32","OTTAWA INTL A","6106001","2020-01-19 22:00","2020","01","19","22:00","-12.5","","-16.6","","72","","","","32","","28","","24.1","","100.62","","","","-22","","Clear"
"-75.67","45.32","OTTAWA INTL A","6106001","2020-01-19 23:00","2020","01","19","23:00","-13.6","","-17.9","","70","","","","32","","23","","24.1","","100.73","","","","-23","","NA"
"-75.67","45.32","OTTAWA INTL A","6106001","2020-01-20 00:00","2020","01","20","00:00","-14.3","","-18.5","","71","","","","32","","26","","24.1","","100.79","","","","-24","","NA"
"-75.67","45.32","OTTAWA INTL A","6106001","2020-01-20 01:00","2020","01","20","01:00","-14.6","","-18.6","","72","","","","32","","31","","24.1","","100.85","","","","-26","","Clear"
"-75.67","45.32","OTTAWA INTL A","6106001","2020-01-20 02:00","2020","01","20","02:00","-15.4","","-19.6","","71","","","","32","","26","","24.1","","100.95","","","","-26","","NA"
"-75.67","45.32","OTTAWA INTL A","6106001","2020-01-20 03:00","2020","01","20","03:00","-15.6","","-19.8","","71","","","","33","","24","","24.1","","101.02","","","","-26","","NA"
"-75.67","45.32","OTTAWA INTL A","6106001","2020-01-20 04:00","2020","01","20","04:00","-17.5","","-20.9","","75","","","","30","","16","","24.1","","101.09","","","","-26","","Clear"
"-75.67","45.32","OTTAWA INTL A","6106001","2020-01-20 05:00","2020","01","20","05:00","-17.7","","-20.6","","78","","","","29","","14","","24.1","","101.14","","","","-26","","NA"
"-75.67","45.32","OTTAWA INTL A","6106001","2020-01-20 06:00","2020","01","20","06:00","-18.4","","-20.9","","82","","","","27","","11","","24.1","","101.24","","","","-26","","NA"
"-75.67","45.32","OTTAWA INTL A","6106001","2020-01-20 07:00","2020","01","20","07:00","-18.2","","-20.6","","82","","","","28","","16","","24.1","","101.33","","","","-27","","Clear"
"-75.67","45.32","OTTAWA INTL A","6106001","2020-01-20 08:00","2020","01","20","08:00","-18.1","","-20.6","","81","","","","28","","22","","24.1","","101.41","","","","-29","","NA"
"-75.67","45.32","OTTAWA INTL A","6106001","2020-01-20 09:00","2020","01","20","09:00","-17.4","","-20.2","","79","","","","28","","17","","24.1","","101.45","","","","-26","","NA"
"-75.67","45.32","OTTAWA INTL A","6106001","2020-01-20 10:00","2020","01","20","10:00","-16.4","","-20.3","","72","","","","29","","22","","24.1","","101.51","","","","-26","","Clear"
"-75.67","45.32","OTTAWA INTL A","6106001","2020-01-20 11:00","2020","01","20","11:00","-15.2","","-19.8","","68","","","","25","","19","","24.1","","101.49","","","","-24","","NA"
"-75.67","45.32","OTTAWA INTL A","6106001","2020-01-20 12:00","2020","01","20","12:00","-14.1","","-19.2","","66","","","","25","","21","","24.1","","101.45","","","","-23","","NA"
"-75.67","45.32","OTTAWA INTL A","6106001","2020-01-20 13:00","2020","01","20","13:00","-12.5","","-18.5","","61","","","","25","","17","","24.1","","101.40","","","","-20","","Clear"
"-75.67","45.32","OTTAWA INTL A","6106001","2020-01-20 14:00","2020","01","20","14:00","-11.0","","-18.0","","56","","","","25","","22","","24.1","","101.33","","","","-20","","NA"
"-75.67","45.32","OTTAWA INTL A","6106001","2020-01-20 15:00","2020","01","20","15:00","-10.2","","-18.4","","52","","","","28","","21","","24.1","","101.34","","","","-18","","NA"
"-75.67","45.32","OTTAWA INTL A","6106001","2020-01-20 16:00","2020","01","20","16:00","-10.5","","-18.7","","52","","","","29","","14","","24.1","","101.33","","","","-17","","Mainly Clear"
"-75.67","45.32","OTTAWA INTL A","6106001","2020-01-20 17:00","2020","01","20","17:00","-12.0","","-18.9","","57","","","","25","","9","","24.1","","101.34","","","","-17","","NA"
"-75.67","45.32","OTTAWA INTL A","6106001","2020-01-20 18:00","2020","01","20","18:00","-12.9","","-18.6","","63","","","","25","","9","","24.1","","101.34","","","","-18","","NA"
"-75.67","45.32","OTTAWA INTL A","6106001","2020-01-20 19:00","2020","01","20","19:00","-13.4","","-18.4","","67","","","","27","","8","","24.1","","101.40","","","","-18","","Clear"
"-75.67","45.32","OTTAWA INTL A","6106001","2020-01-20 20:00","2020","01","20","20:00","-14.1","","-18.1","","72","","","","24","","5","","24.1","","101.45","","","","-18","","NA"
"-75.67","45.32","OTTAWA INTL A","6106001","2020-01-20 21:00","2020","01","20","21:00","-17.8","","-21.0","","76","","","","21","","6","","24.1","","101.47","","","","-22","","NA"
"-75.67","45.32","OTTAWA INTL A","6106001","2020-01-20 22:00","2020","01","20","22:00","-15.0","","-18.1","","77","","","","29","","14","","24.1","","101.49","","","","-23","","Clear"
"-75.67","45.32","OTTAWA INTL A","6106001","2020-01-20 23:00","2020","01","20","23:00","-16.3","","-19.2","","78","","","","28","","10","","24.1","","101.54","","","","-23","","NA"
"-75.67","45.32","OTTAWA INTL A","6106001","2020-01-21 00:00","2020","01","21","00:00","-16.7","","-20.3","","74","","","","30","","16","","24.1","","101.53","","","","-25","","NA"
"-75.67","45.32","OTTAWA INTL A","6106001","2020-01-21 01:00","2020","01","21","01:00","-17.2","","-20.9","","73","","","","30","","16","","24.1","","101.52","","","","-26","","Clear"
"-75.67","45.32","OTTAWA INTL A","6106001","2020-01-21 02:00","2020","01","21","02:00","-16.2","","-19.6","","76","","","","28","","13","","24.1","","101.60","","","","-24","","NA"
"-75.67","45.32","OTTAWA INTL A","6106001","2020-01-21 03:00","2020","01","21","03:00","-16.6","","-19.7","","77","","","","28","","13","","24.1","","101.62","","","","-24","","NA"
"-75.67","45.32","OTTAWA INTL A","6106001","2020-01-21 04:00","2020","01","21","04:00","-18.1","","-20.7","","80","","","","29","","14","","24.1","","101.64","","","","-26","","Clear"
"-75.67","45.32","OTTAWA INTL A","6106001","2020-01-21 05:00","2020","01","21","05:00","-18.1","","-20.4","","83","","","","26","","8","","24.1","","101.67","","","","-24","","NA"
"-75.67","45.32","OTTAWA INTL A","6106001","2020-01-21 06:00","2020","01","21","06:00","-18.7","","-20.6","","85","","","","21","","7","","24.1","","101.69","","","","-24","","NA"
"-75.67","45.32","OTTAWA INTL A","6106001","2020-01-21 07:00","2020","01","21","07:00","-18.4","","-20.5","","84","","","","21","","7","","24.1","","101.71","","","","-24","","Mostly Cloudy"
"-75.67","45.32","OTTAWA INTL A","6106001","2020-01-21 08:00","2020","01","21","08:00","-18.2","","-20.3","","84","","","","22","","8","","24.1","","101.72","","","","-24","","NA"
"-75.67","45.32","OTTAWA INTL A","6106001","2020-01-21 09:00","2020","01","21","09:00","-17.0","","-19.2","","84","","","","20","","7","","24.1","","101.71","","","","-22","","NA"
"-75.67","45.32","OTTAWA INTL A","6106001","2020-01-21 10:00","2020","01","21","10:00","-14.5","","-17.7","","77","","","","20","","7","","24.1","","101.72","","","","-19","","Mainly Clear"
"-75.67","45.32","OTTAWA INTL A","6106001","2020-01-21 11:00","2020","01","21","11:00","-12.0","","-17.4","","64","","","","18","","8","","24.1","","101.67","","","","-17","","NA"
"-75.67","45.32","OTTAWA INTL A","6106001","2020-01-21 12:00","2020","01","21","12:00","-10.6","","-16.4","","63","","","","18","","11","","24.1","","101.57","","","","-16","","NA"
"-75.67","45.32","OTTAWA INTL A","6106001","2020-01-21 13:00","2020","01","21","13:00","-7.9","","-15.4","","55","","","","21","","18","","24.1","","101.47","","","","-15","","Mostly Cloudy"
"-75.67","45.32","OTTAWA INTL A","6106001","2020-01-21 14:00","2020","01","21","14:00","-7.4","","-14.4","","58","","","","20","","13","","24.1","","101.39","","","","-13","","NA"
"-75.67","45.32","OTTAWA INTL A","6106001","2020-01-21 15:00","2020","01","21","15:00","-6.9","","-13.1","","61","","","","21","","21","","24.1","","101.36","","","","-14","","NA"
"-75.67","45.32","OTTAWA INTL A","6106001","2020-01-21 16:00","2020","01","21","16:00","-6.7","","-12.8","","62","","","","20","","18","","24.1","","101.32","","","","-13","","Mostly Cloudy"
"-75.67","45.32","OTTAWA INTL A","6106001","2020-01-21 17:00","2020","01","21","17:00","-6.6","","-11.8","","67","","","","20","","15","","24.1","","101.29","","","","-13","","NA"
"-75.67","45.32","OTTAWA INTL A","6106001","2020-01-21 18:00","2020","01","21","18:00","-6.5","","-10.8","","72","","","","20","","15","","24.1","","101.26","","","","-12","","NA"
"-75.67","45.32","OTTAWA INTL A","6106001","2020-01-21 19:00","2020","01","21","19:00","-5.6","","-9.7","","73","","","","21","","19","","24.1","","101.23","","","","-12","","Mostly Cloudy"
"-75.67","45.32","OTTAWA INTL A","6106001","2020-01-21 20:00","2020","01","21","20:00","-5.4","","-8.9","","76","","","","21","","14","","24.1","","101.20","","","","-11","","NA"
"-75.67","45.32","OTTAWA INTL A","6106001","2020-01-21 21:00","2020","01","21","21:00","-5.0","","-8.7","","75","","","","20","","18","","24.1","","101.17","","","","-11","","NA"
"-75.67","45.32","OTTAWA INTL A","6106001","2020-01-21 22:00","2020","01","21","22:00","-4.7","","-8.3","","76","","","","20","","24","","24.1","","101.13","","","","-12","","Mostly Cloudy"
"-75.67","45.32","OTTAWA INTL A","6106001","2020-01-21 23:00","2020","01","21","23:00","-4.5","","-8.1","","76","","","","21","","24","","24.1","","101.10","","","","-12","","NA"
"-75.67","45.32","OTTAWA INTL A","6106001","2020-01-22 00:00","2020","01","22","00:00","-4.5","","-8.0","","77","","","","21","","23","","24.1","","101.08","","","","-11","","NA"
"-75.67","45.32","OTTAWA INTL A","6106001","2020-01-22 01:00","2020","01","22","01:00","-4.7","","-8.0","","78","","","","21","","20","","24.1","","101.04","","","","-11","","Cloudy"
"-75.67","45.32","OTTAWA INTL A","6106001","2020-01-22 02:00","2020","01","22","02:00","-4.9","","-8.1","","79","","","","20","","18","","24.1","","101.08","","","","-11","","NA"
"-75.67","45.32","OTTAWA INTL A","6106001","2020-01-22 03:00","2020","01","22","03:00","-4.6","","-7.8","","78","","","","21","","25","","24.1","","101.10","","","","-12","","NA"
"-75.67","45.32","OTTAWA INTL A","6106001","2020-01-22 04:00","2020","01","22","04:00","-4.3","","-7.6","","78","","","","21","","24","","80.5","","101.08","","","","-11","","Cloudy"
"-75.67","45.32","OTTAWA INTL A","6106001","2020-01-22 05:00","2020","01","22","05:00","-4.4","","-7.6","","78","","","","21","","25","","24.1","","101.11","","","","-12","","NA"
"-75.67","45.32","OTTAWA INTL A","6106001","2020-01-22 06:00","2020","01","22","06:00","-4.9","","-7.9","","79","","","","21","","13","","24.1","","101.13","","","","-10","","NA"
"-75.67","45.32","OTTAWA INTL A","6106001","2020-01-22 07:00","2020","01","22","07:00","-7.3","","-10.0","","82","","","","19","","14","","24.1","","101.15","","","","-13","","Mainly Clear"
"-75.67","45.32","OTTAWA INTL A","6106001","2020-01-22 08:00","2020","01","22","08:00","-7.7","","-10.2","","82","","","","21","","15","","24.1","","101.15","","","","-14","","NA"
"-75.67","45.32","OTTAWA INTL A","6106001","2020-01-22 09:00","2020","01","22","09:00","-6.4","","-9.6","","78","","","","20","","20","","24.1","","101.12","","","","-13","","NA"
"-75.67","45.32","OTTAWA INTL A","6106001","2020-01-22 10:00","2020","01","22","10:00","-5.3","","-8.9","","76","","","","22","","15","","24.1","","101.17","","","","-11","","Mainly Clear"
"-75.67","45.32","OTTAWA INTL A","6106001","2020-01-22 11:00","2020","01","22","11:00","-3.5","","-8.4","","69","","","","21","","21","","24.1","","101.14","","","","-10","","NA"
"-75.67","45.32","OTTAWA INTL A","6106001","2020-01-22 12:00","2020","01","22","12:00","-1.2","","-7.6","","62","","","","22","","17","","24.1","","101.09","","","","-6","","NA"
"-75.67","45.32","OTTAWA INTL A","6106001","2020-01-22 13:00","2020","01","22","13:00","0.8","","-6.3","","59","","","","22","","24","","24.1","","101.05","","","","","","Mainly Clear"
"-75.67","45.32","OTTAWA INTL A","6106001","2020-01-22 14:00","2020","01","22","14:00","1.2","","-4.9","","64","","","","21","","22","","24.1","","100.98","","","","","","NA"
"-75.67","45.32","OTTAWA INTL A","6106001","2020-01-22 15:00","2020","01","22","15:00","1.0","","-4.0","","69","","","","20","","30","","24.1","","100.99","","","","","","NA"
"-75.67","45.32","OTTAWA INTL A","6106001","2020-01-22 16:00","2020","01","22","16:00","-0.6","","-4.1","","77","","","","20","","18","","24.1","","101.01","","","","-6","","Mainly Clear"
"-75.67","45.32","OTTAWA INTL A","6106001","2020-01-22 17:00","2020","01","22","17:00","-1.4","","-4.6","","79","","","","20","","17","","24.1","","101.05","","","","-7","","NA"
"-75.67","45.32","OTTAWA INTL A","6106001","2020-01-22 18:00","2020","01","22","18:00","-1.9","","-4.3","","83","","","","20","","23","","24.1","","101.01","","","","-8","","NA"
"-75.67","45.32","OTTAWA INTL A","6106001","2020-01-22 19:00","2020","01","22","19:00","-2.0","","-5.4","","78","","","","21","","24","","24.1","","101.05","","","","-8","","Mainly Clear"
"-75.67","45.32","OTTAWA INTL A","6106001","2020-01-22 20:00","2020","01","22","20:00","-2.2","","-6.7","","72","","","","20","","26","","24.1","","101.02","","","","-9","","NA"
"-75.67","45.32","OTTAWA INTL A","6106001","2020-01-22 21:00","2020","01","22","21:00","-2.5","","-7.2","","70","","","","21","","19","","24.1","","101.02","","","","-8","","NA"
"-75.67","45.32","OTTAWA INTL A","6106001","2020-01-22 22:00","2020","01","22","22:00","-2.9","","-7.2","","73","","","","20","","22","","24.1","","100.98","","","","-9","","Mainly Clear"
"-75.67","45.32","OTTAWA INTL A","6106001","2020-01-22 23:00","2020","01","22","23:00","-2.8","","-6.8","","74","","","","21","","19","","24.1","","100.95","","","","-9","","NA"
"-75.67","45.32","OTTAWA INTL A","6106001","2020-01-23 00:00","2020","01","23","00:00","-2.5","","-7.9","","66","","","","22","","13","","24.1","","100.96","","","","-7","","NA"
"-75.67","45.32","OTTAWA INTL A","6106001","2020-01-23 01:00","2020","01","23","01:00","-2.4","","-8.1","","65","","","","22","","9","","24.1","","100.99","","","","-6","","Mostly Cloudy"
"-75.67","45.32","OTTAWA INTL A","6106001","2020-01-23 02:00","2020","01","23","02:00","-2.2","","-7.1","","69","","","","21","","14","","24.1","","101.04","","","","-7","","NA"
"-75.67","45.32","OTTAWA INTL A","6106001","2020-01-23 03:00","2020","01","23","03:00","-2.7","","-6.9","","73","","","","21","","17","","24.1","","101.07","","","","-8","","NA"
"-75.67","45.32","OTTAWA INTL A","6106001","2020-01-23 04:00","2020","01","23","04:00","-3.5","","-6.8","","78","","","","20","","13","","24.1","","101.10","","","","-8","","Mostly Cloudy"
"-75.67","45.32","OTTAWA INTL A","6106001","2020-01-23 05:00","2020","01","23","05:00","-3.7","","-6.9","","79","","","","20","","12","","24.1","","101.08","","","","-8","","NA"
"-75.67","45.32","OTTAWA INTL A","6106001","2020-01-23 06:00","2020","01","23","06:00","-3.7","","-6.7","","80","","","","19","","10","","24.1","","101.07","","","","-8","","NA"
"-75.67","45.32","OTTAWA INTL A","6106001","2020-01-23 07:00","2020","01","23","07:00","-4.4","","-7.0","","83","","","","18","","7","","24.1","","101.12","","","","-8","","Mainly Clear"
"-75.67","45.32","OTTAWA INTL A","6106001","2020-01-23 08:00","2020","01","23","08:00","-5.0","","-7.3","","84","","","","19","","8","","24.1","","101.14","","","","-9","","NA"
"-75.67","45.32","OTTAWA INTL A","6106001","2020-01-23 09:00","2020","01","23","09:00","-4.4","","-6.7","","84","","","","18","","9","","24.1","","101.16","","","","-8","","NA"
"-75.67","45.32","OTTAWA INTL A","6106001","2020-01-23 10:00","2020","01","23","10:00","-3.0","","-6.0","","80","","","","20","","9","","24.1","","101.21","","","","-7","","Cloudy"
"-75.67","45.32","OTTAWA INTL A","6106001","2020-01-23 11:00","2020","01","23","11:00","-1.4","","-5.1","","76","","","","22","","10","","24.1","","101.22","","","","-5","","NA"
"-75.67","45.32","OTTAWA INTL A","6106001","2020-01-23 12:00","2020","01","23","12:00","-0.3","","-5.0","","71","","","","23","","16","","24.1","","101.22","","","","-5","","NA"
"-75.67","45.32","OTTAWA INTL A","6106001","2020-01-23 13:00","2020","01","23","13:00","0.8","","-5.2","","64","","","","23","","18","","24.1","","101.18","","","","","","Cloudy"
"-75.67","45.32","OTTAWA INTL A","6106001","2020-01-23 14:00","2020","01","23","14:00","1.3","","-4.8","","64","","","","23","","13","","24.1","","101.17","","","","","","NA"
"-75.67","45.32","OTTAWA INTL A","6106001","2020-01-23 15:00","2020","01","23","15:00","1.5","","-4.1","","66","","","","22","","8","","24.1","","101.18","","","","","","NA"
"-75.67","45.32","OTTAWA INTL A","6106001","2020-01-23 16:00","2020","01","23","16:00","1.3","","-4.3","","67","","","","36","","1","","24.1","","101.19","","","","","","Cloudy"
"-75.67","45.32","OTTAWA INTL A","6106001","2020-01-23 17:00","2020","01","23","17:00","0.2","","-4.1","","72","","","","36","","2","","24.1","","101.24","","","","","","NA"
"-75.67","45.32","OTTAWA INTL A","6106001","2020-01-23 18:00","2020","01","23","18:00","-0.8","","-4.2","","78","","","","10","","5","","24.1","","101.24","","","","-2","","NA"
"-75.67","45.32","OTTAWA INTL A","6106001","2020-01-23 19:00","2020","01","23","19:00","-1.0","","-4.5","","77","","","","11","","5","","24.1","","101.32","","","","-3","","Cloudy"
"-75.67","45.32","OTTAWA INTL A","6106001","2020-01-23 20:00","2020","01","23","20:00","-1.5","","-4.3","","81","","","","5","","7","","24.1","","101.36","","","","-4","","NA"
"-75.67","45.32","OTTAWA INTL A","6106001","2020-01-23 21:00","2020","01","23","21:00","-1.4","","-5.1","","76","","","","5","","5","","24.1","","101.39","","","","-3","","NA"
"-75.67","45.32","OTTAWA INTL A","6106001","2020-01-23 22:00","2020","01","23","22:00","-2.3","","-5.5","","79","","","","6","","9","","24.1","","101.36","","","","-6","","Mostly Cloudy"
"-75.67","45.32","OTTAWA INTL A","6106001","2020-01-23 23:00","2020","01","23","23:00","-4.2","","-6.9","","81","","","","4","","12","","24.1","","101.36","","","","-9","","NA"
"-75.67","45.32","OTTAWA INTL A","6106001","2020-01-24 00:00","2020","01","24","00:00","-3.4","","-5.9","","83","","","","6","","11","","24.1","","101.36","","","","-8","","NA"
"-75.67","45.32","OTTAWA INTL A","6106001","2020-01-24 01:00","2020","01","24","01:00","-3.5","","-5.7","","84","","","","36","","2","","24.1","","101.40","","","","-4","","Cloudy"
"-75.67","45.32","OTTAWA INTL A","6106001","2020-01-24 02:00","2020","01","24","02:00","-2.5","","-4.9","","84","","","","2","","14","","24.1","","101.37","","","","-7","","NA"
"-75.67","45.32","OTTAWA INTL A","6106001","2020-01-24 03:00","2020","01","24","03:00","-3.3","","-5.5","","85","","","","4","","15","","24.1","","101.38","","","","-8","","NA"
"-75.67","45.32","OTTAWA INTL A","6106001","2020-01-24 04:00","2020","01","24","04:00","-2.6","","-5.3","","82","","","","6","","8","","24.1","","101.41","","","","-6","","Cloudy"
"-75.67","45.32","OTTAWA INTL A","6106001","2020-01-24 05:00","2020","01","24","05:00","-2.6","","-5.4","","81","","","","4","","13","","24.1","","101.42","","","","-7","","NA"
"-75.67","45.32","OTTAWA INTL A","6106001","2020-01-24 06:00","2020","01","24","06:00","-2.2","","-5.3","","80","","","","5","","19","","24.1","","101.41","","","","-8","","NA"
"-75.67","45.32","OTTAWA INTL A","6106001","2020-01-24 07:00","2020","01","24","07:00","-1.7","","-4.7","","80","","","","5","","22","","16.1","","101.45","","","","-8","","Mostly Cloudy"
"-75.67","45.32","OTTAWA INTL A","6106001","2020-01-24 08:00","2020","01","24","08:00","-1.3","","-4.5","","79","","","","7","","22","","16.1","","101.47","","","","-7","","NA"
"-75.67","45.32","OTTAWA INTL A","6106001","2020-01-24 09:00","2020","01","24","09:00","-1.4","","-4.2","","81","","","","7","","22","","20.9","","101.47","","","","-7","","NA"
"-75.67","45.32","OTTAWA INTL A","6106001","2020-01-24 10:00","2020","01","24","10:00","-0.6","","-3.7","","79","","","","9","","16","","20.9","","101.54","","","","-5","","Mostly Cloudy"
"-75.67","45.32","OTTAWA INTL A","6106001","2020-01-24 11:00","2020","01","24","11:00","0.1","","-3.6","","76","","","","8","","32","","24.1","","101.46","","","","","","NA"
"-75.67","45.32","OTTAWA INTL A","6106001","2020-01-24 12:00","2020","01","24","12:00","0.9","","-4.3","","68","","","","8","","23","","24.1","","101.41","","","","","","NA"
"-75.67","45.32","OTTAWA INTL A","6106001","2020-01-24 13:00","2020","01","24","13:00","0.9","","-4.4","","68","","","","6","","17","","24.1","","101.32","","","","","","Mostly Cloudy"
"-75.67","45.32","OTTAWA INTL A","6106001","2020-01-24 14:00","2020","01","24","14:00","1.3","","-4.2","","67","","","","6","","19","","24.1","","101.23","","","","","","NA"
"-75.67","45.32","OTTAWA INTL A","6106001","2020-01-24 15:00","2020","01","24","15:00","1.1","","-4.4","","67","","","","6","","21","","24.1","","101.21","","","","","","NA"
"-75.67","45.32","OTTAWA INTL A","6106001","2020-01-24 16:00","2020","01","24","16:00","0.8","","-4.3","","69","","","","7","","17","","24.1","","101.18","","","","","","Mostly Cloudy"
"-75.67","45.32","OTTAWA INTL A","6106001","2020-01-24 17:00","2020","01","24","17:00","-0.1","","-4.9","","70","","","","7","","17","","24.1","","101.17","","","","-5","","NA"
"-75.67","45.32","OTTAWA INTL A","6106001","2020-01-24 18:00","2020","01","24","18:00","-0.6","","-5.0","","72","","","","7","","17","","24.1","","101.14","","","","-6","","NA"
"-75.67","45.32","OTTAWA INTL A","6106001","2020-01-24 19:00","2020","01","24","19:00","-1.5","","-5.1","","76","","","","7","","14","","24.1","","101.16","","","","-6","","Mostly Cloudy"
"-75.67","45.32","OTTAWA INTL A","6106001","2020-01-24 20:00","2020","01","24","20:00","-1.5","","-5.1","","76","","","","7","","13","","24.1","","101.15","","","","-6","","NA"
"-75.67","45.32","OTTAWA INTL A","6106001","2020-01-24 21:00","2020","01","24","21:00","-1.9","","-5.3","","77","","","","6","","13","","24.1","","101.10","","","","-6","","NA"
"-75.67","45.32","OTTAWA INTL A","6106001","2020-01-24 22:00","2020","01","24","22:00","-1.9","","-5.2","","78","","","","7","","14","","24.1","","101.04","","","","-7","","Cloudy"
"-75.67","45.32","OTTAWA INTL A","6106001","2020-01-24 23:00","2020","01","24","23:00","-1.5","","-5.0","","77","","","","8","","17","","24.1","","101.01","","","","-7","","NA"
"-75.67","45.32","OTTAWA INTL A","6106001","2020-01-25 00:00","2020","01","25","00:00","-1.4","","-5.2","","76","","","","7","","16","","24.1","","100.98","","","","-6","","NA"
"-75.67","45.32","OTTAWA INTL A","6106001","2020-01-25 01:00","2020","01","25","01:00","-1.4","","-5.3","","75","","","","7","","21","","24.1","","100.87","","","","-7","","Cloudy"
"-75.67","45.32","OTTAWA INTL A","6106001","2020-01-25 02:00","2020","01","25","02:00","-1.4","","-5.4","","74","","","","7","","21","","24.1","","100.86","","","","-7","","NA"
"-75.67","45.32","OTTAWA INTL A","6106001","2020-01-25 03:00","2020","01","25","03:00","-1.7","","-5.3","","76","","","","7","","16","","24.1","","100.85","","","","-7","","NA"
"-75.67","45.32","OTTAWA INTL A","6106001","2020-01-25 04:00","2020","01","25","04:00","-1.8","","-5.6","","75","","","","6","","19","","24.1","","100.76","","","","-7","","Cloudy"
"-75.67","45.32","OTTAWA INTL A","6106001","2020-01-25 05:00","2020","01","25","05:00","-2.0","","-5.5","","77","","","","5","","19","","24.1","","100.73","","","","-8","","NA"
"-75.67","45.32","OTTAWA INTL A","6106001","2020-01-25 06:00","2020","01","25","06:00","-2.1","","-5.4","","78","","","","6","","19","","24.1","","100.69","","","","-8","","NA"
"-75.67","45.32","OTTAWA INTL A","6106001","2020-01-25 07:00","2020","01","25","07:00","-2.4","","-5.6","","78","","","","5","","18","","24.1","","100.65","","","","-8","","Cloudy"
"-75.67","45.32","OTTAWA INTL A","6106001","2020-01-25 08:00","2020","01","25","08:00","-2.5","","-5.4","","81","","","","6","","26","","24.1","","100.56","","","","-9","","NA"
"-75.67","45.32","OTTAWA INTL A","6106001","2020-01-25 09:00","2020","01","25","09:00","-2.0","","-4.9","","80","","","","6","","25","","24.1","","100.49","","","","-8","","NA"
"-75.67","45.32","OTTAWA INTL A","6106001","2020-01-25 10:00","2020","01","25","10:00","-1.4","","-4.7","","78","","","","8","","16","","24.1","","100.50","","","","-6","","Cloudy"
"-75.67","45.32","OTTAWA INTL A","6106001","2020-01-25 11:00","2020","01","25","11:00","-0.8","","-4.4","","77","","","","8","","26","","24.1","","100.43","","","","-7","","NA"
"-75.67","45.32","OTTAWA INTL A","6106001","2020-01-25 12:00","2020","01","25","12:00","-0.1","","-4.0","","75","","","","6","","17","","24.1","","100.34","","","","-5","","NA"
"-75.67","45.32","OTTAWA INTL A","6106001","2020-01-25 13:00","2020","01","25","13:00","0.1","","-3.8","","75","","","","8","","15","","24.1","","100.27","","","","","","Cloudy"
"-75.67","45.32","OTTAWA INTL A","6106001","2020-01-25 14:00","2020","01","25","14:00","-0.4","","-2.3","","87","","","","5","","22","","4.8","","100.12","","","","-6","","Freezing Rain,Ice Pellets,Fog"
"-75.67","45.32","OTTAWA INTL A","6106001","2020-01-25 15:00","2020","01","25","15:00","-0.4","","-1.7","","91","","","","10","","23","","4.8","","100.03","","","","-6","","Snow"
"-75.67","45.32","OTTAWA INTL A","6106001","2020-01-25 16:00","2020","01","25","16:00","-0.4","","-1.2","","94","","","","8","","30","","3.2","","99.91","","","","-7","","Snow,Ice Pellets"
"-75.67","45.32","OTTAWA INTL A","6106001","2020-01-25 17:00","2020","01","25","17:00","0.1","","-0.6","","95","","","","9","","22","","4.8","","99.82","","","","","","Rain,Fog"
"-75.67","45.32","OTTAWA INTL A","6106001","2020-01-25 18:00","2020","01","25","18:00","0.0","","-0.6","","96","","","","8","","24","","6.4","","99.79","","","","-6","","Snow"
"-75.67","45.32","OTTAWA INTL A","6106001","2020-01-25 19:00","2020","01","25","19:00","0.1","","-0.4","","96","","","","8","","22","","2.4","","99.71","","","","","","Snow"
"-75.67","45.32","OTTAWA INTL A","6106001","2020-01-25 20:00","2020","01","25","20:00","0.2","","-0.3","","97","","","","8","","23","","3.2","","99.63","","","","","","Snow"
"-75.67","45.32","OTTAWA INTL A","6106001","2020-01-25 21:00","2020","01","25","21:00","0.3","","-0.2","","97","","","","8","","28","","12.9","","99.50","","","","","","Rain,Snow"
"-75.67","45.32","OTTAWA INTL A","6106001","2020-01-25 22:00","2020","01","25","22:00","0.2","","-0.3","","96","","","","8","","25","","8.1","","99.39","","","","","","Rain,Fog"
"-75.67","45.32","OTTAWA INTL A","6106001","2020-01-25 23:00","2020","01","25","23:00","0.0","","-0.6","","96","","","","8","","23","","6.4","","99.32","","","","-6","","Rain,Snow,Fog"
"-75.67","45.32","OTTAWA INTL A","6106001","2020-01-26 00:00","2020","01","26","00:00","0.1","","-0.4","","97","","","","10","","18","","6.4","","99.27","","","","","","Rain,Fog"
"-75.67","45.32","OTTAWA INTL A","6106001","2020-01-26 01:00","2020","01","26","01:00","0.1","","-0.3","","97","","","","12","","11","","4.8","","99.22","","","","","","Rain,Snow,Fog"
"-75.67","45.32","OTTAWA INTL A","6106001","2020-01-26 02:00","2020","01","26","02:00","0.1","","-0.3","","97","","","","14","","9","","6.4","","99.17","","","","","","Rain,Snow,Fog"
"-75.67","45.32","OTTAWA INTL A","6106001","2020-01-26 03:00","2020","01","26","03:00","0.0","","-0.3","","98","","","","15","","8","","6.4","","99.12","","","","-3","","Snow,Fog"
"-75.67","45.32","OTTAWA INTL A","6106001","2020-01-26 04:00","2020","01","26","04:00","0.0","","-0.4","","98","","","","21","","9","","2.4","","99.06","","","","-3","","Snow,Fog"
"-75.67","45.32","OTTAWA INTL A","6106001","2020-01-26 05:00","2020","01","26","05:00","0.0","","-0.3","","98","","","","23","","10","","9.7","","99.04","","","","-3","","Snow,Fog"
"-75.67","45.32","OTTAWA INTL A","6106001","2020-01-26 06:00","2020","01","26","06:00","0.1","","-0.2","","98","","","","20","","7","","12.9","","99.01","","","","","","NA"
"-75.67","45.32","OTTAWA INTL A","6106001","2020-01-26 07:00","2020","01","26","07:00","0.0","","-0.2","","98","","","","20","","11","","1.6","","99.02","","","","-4","","Snow"
"-75.67","45.32","OTTAWA INTL A","6106001","2020-01-26 08:00","2020","01","26","08:00","0.1","","-0.2","","98","","","","22","","13","","1.2","","99.01","","","","","","Snow"
"-75.67","45.32","OTTAWA INTL A","6106001","2020-01-26 09:00","2020","01","26","09:00","0.2","","-0.1","","98","","","","21","","14","","1.2","","99.00","","","","","","Snow"
"-75.67","45.32","OTTAWA INTL A","6106001","2020-01-26 10:00","2020","01","26","10:00","0.3","","0.0","","98","","","","21","","14","","1.2","","98.98","","","","","","Snow"
"-75.67","45.32","OTTAWA INTL A","6106001","2020-01-26 11:00","2020","01","26","11:00","0.3","","0.0","","98","","","","21","","14","","1.2","","98.97","","","","","","Snow"
"-75.67","45.32","OTTAWA INTL A","6106001","2020-01-26 12:00","2020","01","26","12:00","0.3","","0.0","","98","","","","21","","16","","1.2","","98.88","","","","","","Snow"
"-75.67","45.32","OTTAWA INTL A","6106001","2020-01-26 13:00","2020","01","26","13:00","0.4","","0.0","","97","","","","21","","15","","1.2","","98.80","","","","","","Snow"
"-75.67","45.32","OTTAWA INTL A","6106001","2020-01-26 14:00","2020","01","26","14:00","0.3","","-0.1","","97","","","","21","","15","","1.2","","98.71","","","","","","Snow"
"-75.67","45.32","OTTAWA INTL A","6106001","2020-01-26 15:00","2020","01","26","15:00","0.6","","0.1","","97","","","","23","","16","","4.8","","98.68","","","","","","Snow"
"-75.67","45.32","OTTAWA INTL A","6106001","2020-01-26 16:00","2020","01","26","16:00","0.8","","0.3","","96","","","","24","","16","","12.9","","98.70","","","","","","Snow"
"-75.67","45.32","OTTAWA INTL A","6106001","2020-01-26 17:00","2020","01","26","17:00","0.9","","0.3","","96","","","","23","","16","","12.9","","98.73","","","","","","Snow"
"-75.67","45.32","OTTAWA INTL A","6106001","2020-01-26 18:00","2020","01","26","18:00","1.2","","0.5","","95","","","","23","","18","","16.1","","98.75","","","","","","Rain"
"-75.67","45.32","OTTAWA INTL A","6106001","2020-01-26 19:00","2020","01","26","19:00","1.3","","0.5","","94","","","","23","","19","","12.9","","98.77","","","","","","Rain"
"-75.67","45.32","OTTAWA INTL A","6106001","2020-01-26 20:00","2020","01","26","20:00","1.2","","0.2","","93","","","","23","","19","","11.3","","98.79","","","","","","Snow"
"-75.67","45.32","OTTAWA INTL A","6106001","2020-01-26 21:00","2020","01","26","21:00","1.0","","0.2","","94","","","","22","","17","","8.1","","98.79","","","","","","Snow,Fog"
"-75.67","45.32","OTTAWA INTL A","6106001","2020-01-26 22:00","2020","01","26","22:00","0.8","","0.1","","95","","","","23","","17","","8.1","","98.76","","","","","","Snow,Fog"
"-75.67","45.32","OTTAWA INTL A","6106001","2020-01-26 23:00","2020","01","26","23:00","0.8","","0.2","","96","","","","23","","16","","11.3","","98.76","","","","","","Snow"
"-75.67","45.32","OTTAWA INTL A","6106001","2020-01-27 00:00","2020","01","27","00:00","0.7","","0.1","","96","","","","26","","10","","11.3","","98.73","","","","","","Snow"
"-75.67","45.32","OTTAWA INTL A","6106001","2020-01-27 01:00","2020","01","27","01:00","0.7","","0.1","","96","","","","22","","16","","12.9","","98.69","","","","","","Snow"
"-75.67","45.32","OTTAWA INTL A","6106001","2020-01-27 02:00","2020","01","27","02:00","0.7","","0.1","","96","","","","25","","11","","11.3","","98.71","","","","","","Snow"
"-75.67","45.32","OTTAWA INTL A","6106001","2020-01-27 03:00","2020","01","27","03:00","0.4","","-0.1","","97","","","","29","","9","","3.2","","98.74","","","","","","Snow,Fog"
"-75.67","45.32","OTTAWA INTL A","6106001","2020-01-27 04:00","2020","01","27","04:00","0.3","","-0.1","","97","","","","28","","13","","8.1","","98.76","","","","","","Snow,Fog"
"-75.67","45.32","OTTAWA INTL A","6106001","2020-01-27 05:00","2020","01","27","05:00","0.3","","-0.1","","97","","","","28","","12","","8.1","","98.77","","","","","","Fog"
"-75.67","45.32","OTTAWA INTL A","6106001","2020-01-27 06:00","2020","01","27","06:00","0.3","","-0.1","","97","","","","29","","14","","11.3","","98.80","","","","","","Snow"
"-75.67","45.32","OTTAWA INTL A","6106001","2020-01-27 07:00","2020","01","27","07:00","0.2","","-0.2","","97","","","","28","","13","","16.1","","98.82","","","","","","Mostly Cloudy"
"-75.67","45.32","OTTAWA INTL A","6106001","2020-01-27 08:00","2020","01","27","08:00","0.3","","-0.3","","96","","","","28","","16","","16.1","","98.87","","","","","","NA"
"-75.67","45.32","OTTAWA INTL A","6106001","2020-01-27 09:00","2020","01","27","09:00","0.4","","-0.5","","93","","","","29","","16","","24.1","","98.91","","","","","","NA"
"-75.67","45.32","OTTAWA INTL A","6106001","2020-01-27 10:00","2020","01","27","10:00","0.6","","-0.4","","93","","","","29","","17","","16.1","","98.95","","","","","","Mostly Cloudy"
"-75.67","45.32","OTTAWA INTL A","6106001","2020-01-27 11:00","2020","01","27","11:00","0.8","","-0.6","","90","","","","29","","19","","24.1","","98.98","","","","","","NA"
"-75.67","45.32","OTTAWA INTL A","6106001","2020-01-27 12:00","2020","01","27","12:00","1.0","","-0.8","","88","","","","30","","22","","24.1","","98.96","","","","","","NA"
"-75.67","45.32","OTTAWA INTL A","6106001","2020-01-27 13:00","2020","01","27","13:00","1.1","","-1.2","","84","","","","29","","17","","24.1","","98.97","","","","","","Cloudy"
"-75.67","45.32","OTTAWA INTL A","6106001","2020-01-27 14:00","2020","01","27","14:00","1.1","","-1.5","","83","","","","28","","21","","24.1","","98.97","","","","","","NA"
"-75.67","45.32","OTTAWA INTL A","6106001","2020-01-27 15:00","2020","01","27","15:00","1.1","","-2.1","","79","","","","29","","22","","24.1","","99.01","","","","","","NA"
"-75.67","45.32","OTTAWA INTL A","6106001","2020-01-27 16:00","2020","01","27","16:00","0.3","","-1.7","","86","","","","32","","22","","16.1","","99.08","","","","","","Cloudy"
"-75.67","45.32","OTTAWA INTL A","6106001","2020-01-27 17:00","2020","01","27","17:00","-0.1","","-1.8","","88","","","","29","","24","","24.1","","99.15","","","","-6","","NA"
"-75.67","45.32","OTTAWA INTL A","6106001","2020-01-27 18:00","2020","01","27","18:00","-0.2","","-1.8","","89","","","","31","","16","","16.1","","99.23","","","","-5","","NA"
"-75.67","45.32","OTTAWA INTL A","6106001","2020-01-27 19:00","2020","01","27","19:00","-0.5","","-2.1","","89","","","","30","","22","","12.9","","99.28","","","","-6","","Snow"
"-75.67","45.32","OTTAWA INTL A","6106001","2020-01-27 20:00","2020","01","27","20:00","-0.5","","-2.6","","86","","","","31","","22","","12.9","","99.31","","","","-6","","NA"
"-75.67","45.32","OTTAWA INTL A","6106001","2020-01-27 21:00","2020","01","27","21:00","-0.8","","-2.8","","86","","","","30","","19","","12.9","","99.34","","","","-6","","NA"
"-75.67","45.32","OTTAWA INTL A","6106001","2020-01-27 22:00","2020","01","27","22:00","-1.1","","-2.9","","88","","","","31","","19","","12.9","","99.37","","","","-6","","Cloudy"
"-75.67","45.32","OTTAWA INTL A","6106001","2020-01-27 23:00","2020","01","27","23:00","-1.2","","-3.1","","87","","","","31","","18","","16.1","","99.38","","","","-6","","NA"
"-75.67","45.32","OTTAWA INTL A","6106001","2020-01-28 00:00","2020","01","28","00:00","-1.4","","-3.6","","85","","","","32","","25","","16.1","","99.43","","","","-8","","NA"
"-75.67","45.32","OTTAWA INTL A","6106001","2020-01-28 01:00","2020","01","28","01:00","-1.9","","-4.0","","85","","","","31","","18","","16.1","","99.42","","","","-7","","Mostly Cloudy"
"-75.67","45.32","OTTAWA INTL A","6106001","2020-01-28 02:00","2020","01","28","02:00","-1.9","","-3.8","","86","","","","31","","19","","16.1","","99.46","","","","-7","","NA"
"-75.67","45.32","OTTAWA INTL A","6106001","2020-01-28 03:00","2020","01","28","03:00","-2.0","","-3.9","","87","","","","29","","18","","16.1","","99.50","","","","-7","","NA"
"-75.67","45.32","OTTAWA INTL A","6106001","2020-01-28 04:00","2020","01","28","04:00","-2.4","","-4.0","","89","","","","29","","18","","11.3","","99.51","","","","-8","","Freezing Drizzle"
"-75.67","45.32","OTTAWA INTL A","6106001","2020-01-28 05:00","2020","01","28","05:00","-2.8","","-4.1","","90","","","","28","","20","","11.3","","99.55","","","","-9","","Freezing Drizzle"
"-75.67","45.32","OTTAWA INTL A","6106001","2020-01-28 06:00","2020","01","28","06:00","-3.2","","-4.2","","93","","","","28","","15","","4.8","","99.60","","","","-8","","Snow,Fog"
"-75.67","45.32","OTTAWA INTL A","6106001","2020-01-28 07:00","2020","01","28","07:00","-3.6","","-4.4","","94","","","","29","","16","","4.8","","99.67","","","","-9","","Freezing Drizzle,Fog"
"-75.67","45.32","OTTAWA INTL A","6106001","2020-01-28 08:00","2020","01","28","08:00","-4.2","","-5.1","","93","","","","30","","18","","3.2","","99.74","","","","-10","","Snow Grains,Fog"
"-75.67","45.32","OTTAWA INTL A","6106001","2020-01-28 09:00","2020","01","28","09:00","-4.0","","-5.0","","93","","","","29","","17","","12.9","","99.79","","","","-10","","NA"
"-75.67","45.32","OTTAWA INTL A","6106001","2020-01-28 10:00","2020","01","28","10:00","-3.7","","-5.0","","91","","","","30","","20","","24.1","","99.84","","","","-10","","Mostly Cloudy"
"-75.67","45.32","OTTAWA INTL A","6106001","2020-01-28 11:00","2020","01","28","11:00","-3.1","","-5.7","","82","","","","33","","15","","24.1","","99.85","","","","-8","","NA"
"-75.67","45.32","OTTAWA INTL A","6106001","2020-01-28 12:00","2020","01","28","12:00","-3.0","","-6.5","","77","","","","29","","21","","24.1","","99.83","","","","-9","","NA"
"-75.67","45.32","OTTAWA INTL A","6106001","2020-01-28 13:00","2020","01","28","13:00","-3.2","","-6.6","","78","","","","30","","18","","24.1","","99.81","","","","-9","","Mostly Cloudy"
"-75.67","45.32","OTTAWA INTL A","6106001","2020-01-28 14:00","2020","01","28","14:00","-3.5","","-6.4","","80","","","","32","","19","","24.1","","99.80","","","","-9","","NA"
"-75.67","45.32","OTTAWA INTL A","6106001","2020-01-28 15:00","2020","01","28","15:00","-3.7","","-6.5","","81","","","","32","","20","","24.1","","99.88","","","","-10","","NA"
"-75.67","45.32","OTTAWA INTL A","6106001","2020-01-28 16:00","2020","01","28","16:00","-3.8","","-6.4","","82","","","","33","","22","","24.1","","99.93","","","","-10","","Cloudy"
"-75.67","45.32","OTTAWA INTL A","6106001","2020-01-28 17:00","2020","01","28","17:00","-4.1","","-5.7","","89","","","","33","","17","","24.1","","99.99","","","","-10","","NA"
"-75.67","45.32","OTTAWA INTL A","6106001","2020-01-28 18:00","2020","01","28","18:00","-4.3","","-8.2","","75","","","","34","","23","","24.1","","100.09","","","","-11","","NA"
"-75.67","45.32","OTTAWA INTL A","6106001","2020-01-28 19:00","2020","01","28","19:00","-4.6","","-8.6","","73","","","","36","","21","","24.1","","100.15","","","","-11","","Mostly Cloudy"
"-75.67","45.32","OTTAWA INTL A","6106001","2020-01-28 20:00","2020","01","28","20:00","-4.6","","-8.2","","76","","","","31","","12","","24.1","","100.18","","","","-9","","NA"
"-75.67","45.32","OTTAWA INTL A","6106001","2020-01-28 21:00","2020","01","28","21:00","-4.8","","-8.4","","76","","","","32","","16","","24.1","","100.26","","","","-11","","NA"
"-75.67","45.32","OTTAWA INTL A","6106001","2020-01-28 22:00","2020","01","28","22:00","-5.5","","-8.6","","79","","","","31","","19","","24.1","","100.29","","","","-12","","Mostly Cloudy"
"-75.67","45.32","OTTAWA INTL A","6106001","2020-01-28 23:00","2020","01","28","23:00","-6.6","","-9.6","","79","","","","32","","20","","24.1","","100.33","","","","-14","","NA"
"-75.67","45.32","OTTAWA INTL A","6106001","2020-01-29 00:00","2020","01","29","00:00","-8.2","","-10.7","","82","","","","30","","16","","24.1","","100.37","","","","-15","","NA"
"-75.67","45.32","OTTAWA INTL A","6106001","2020-01-29 01:00","2020","01","29","01:00","-8.8","","-11.3","","82","","","","30","","16","","24.1","","100.42","","","","-16","","Clear"
"-75.67","45.32","OTTAWA INTL A","6106001","2020-01-29 02:00","2020","01","29","02:00","-9.5","","-11.9","","83","","","","30","","15","","24.1","","100.49","","","","-16","","NA"
"-75.67","45.32","OTTAWA INTL A","6106001","2020-01-29 03:00","2020","01","29","03:00","-9.6","","-11.9","","83","","","","29","","14","","24.1","","100.53","","","","-16","","NA"
"-75.67","45.32","OTTAWA INTL A","6106001","2020-01-29 04:00","2020","01","29","04:00","-10.8","","-13.1","","83","","","","30","","15","","24.1","","100.56","","","","-18","","Clear"
"-75.67","45.32","OTTAWA INTL A","6106001","2020-01-29 05:00","2020","01","29","05:00","-11.6","","-13.9","","83","","","","31","","16","","24.1","","100.60","","","","-19","","NA"
"-75.67","45.32","OTTAWA INTL A","6106001","2020-01-29 06:00","2020","01","29","06:00","-12.3","","-14.3","","85","","","","30","","13","","24.1","","100.67","","","","-19","","NA"
"-75.67","45.32","OTTAWA INTL A","6106001","2020-01-29 07:00","2020","01","29","07:00","-12.2","","-15.1","","80","","","","32","","16","","24.1","","100.77","","","","-20","","Clear"
"-75.67","45.32","OTTAWA INTL A","6106001","2020-01-29 08:00","2020","01","29","08:00","-12.2","","-15.5","","77","","","","33","","20","","24.1","","100.85","","","","-21","","NA"
"-75.67","45.32","OTTAWA INTL A","6106001","2020-01-29 09:00","2020","01","29","09:00","-12.2","","-16.2","","72","","","","33","","22","","24.1","","100.93","","","","-21","","NA"
"-75.67","45.32","OTTAWA INTL A","6106001","2020-01-29 10:00","2020","01","29","10:00","-11.5","","-16.1","","69","","","","33","","20","","24.1","","100.99","","","","-20","","Clear"
"-75.67","45.32","OTTAWA INTL A","6106001","2020-01-29 11:00","2020","01","29","11:00","-10.7","","-15.8","","66","","","","31","","19","","24.1","","101.03","","","","-19","","NA"
"-75.67","45.32","OTTAWA INTL A","6106001","2020-01-29 12:00","2020","01","29","12:00","-9.4","","-15.4","","62","","","","30","","11","","24.1","","101.03","","","","-15","","NA"
"-75.67","45.32","OTTAWA INTL A","6106001","2020-01-29 13:00","2020","01","29","13:00","-8.9","","-15.1","","61","","","","34","","10","","24.1","","101.00","","","","-14","","Clear"
"-75.67","45.32","OTTAWA INTL A","6106001","2020-01-29 14:00","2020","01","29","14:00","-8.3","","-14.5","","61","","","","31","","11","","24.1","","101.01","","","","-14","","NA"
"-75.67","45.32","OTTAWA INTL A","6106001","2020-01-29 15:00","2020","01","29","15:00","-8.0","","-13.8","","64","","","","31","","9","","24.1","","101.01","","","","-13","","NA"
"-75.67","45.32","OTTAWA INTL A","6106001","2020-01-29 16:00","2020","01","29","16:00","-8.0","","-13.6","","64","","","","32","","10","","24.1","","101.06","","","","-13","","Clear"
"-75.67","45.32","OTTAWA INTL A","6106001","2020-01-29 17:00","2020","01","29","17:00","-8.9","","-13.6","","69","","","","32","","17","","24.1","","101.09","","","","-16","","NA"
"-75.67","45.32","OTTAWA INTL A","6106001","2020-01-29 18:00","2020","01","29","18:00","-10.1","","-14.1","","72","","","","33","","18","","24.1","","101.14","","","","-18","","NA"
"-75.67","45.32","OTTAWA INTL A","6106001","2020-01-29 19:00","2020","01","29","19:00","-10.8","","-14.4","","75","","","","32","","14","","24.1","","101.19","","","","-17","","Clear"
"-75.67","45.32","OTTAWA INTL A","6106001","2020-01-29 20:00","2020","01","29","20:00","-11.6","","-14.7","","78","","","","32","","14","","24.1","","101.22","","","","-18","","NA"
"-75.67","45.32","OTTAWA INTL A","6106001","2020-01-29 21:00","2020","01","29","21:00","-11.2","","-14.5","","77","","","","35","","10","","24.1","","101.22","","","","-17","","NA"
"-75.67","45.32","OTTAWA INTL A","6106001","2020-01-29 22:00","2020","01","29","22:00","-12.8","","-15.2","","82","","","","34","","5","","24.1","","101.18","","","","-16","","Clear"
"-75.67","45.32","OTTAWA INTL A","6106001","2020-01-29 23:00","2020","01","29","23:00","-12.6","","-15.0","","83","","","","31","","8","","24.1","","101.21","","","","-18","","NA"
"-75.67","45.32","OTTAWA INTL A","6106001","2020-01-30 00:00","2020","01","30","00:00","-13.0","","-15.2","","84","","","","31","","7","","24.1","","101.24","","","","-18","","NA"
"-75.67","45.32","OTTAWA INTL A","6106001","2020-01-30 01:00","2020","01","30","01:00","-13.5","","-15.6","","84","","","","30","","7","","24.1","","101.28","","","","-18","","Clear"
"-75.67","45.32","OTTAWA INTL A","6106001","2020-01-30 02:00","2020","01","30","02:00","-14.7","","-16.7","","85","","","","31","","7","","24.1","","101.32","","","","-19","","NA"
"-75.67","45.32","OTTAWA INTL A","6106001","2020-01-30 03:00","2020","01","30","03:00","-14.2","","-16.1","","86","","","","31","","5","","24.1","","101.33","","","","-18","","NA"
"-75.67","45.32","OTTAWA INTL A","6106001","2020-01-30 04:00","2020","01","30","04:00","-14.5","","-16.2","","87","","","","35","","5","","24.1","","101.35","","","","-18","","Clear"
"-75.67","45.32","OTTAWA INTL A","6106001","2020-01-30 05:00","2020","01","30","05:00","-15.3","","-17.1","","86","","","","32","","7","","24.1","","101.35","","","","-20","","NA"
"-75.67","45.32","OTTAWA INTL A","6106001","2020-01-30 06:00","2020","01","30","06:00","-14.3","","-16.4","","84","","","","1","","10","","24.1","","101.34","","","","-20","","NA"
"-75.67","45.32","OTTAWA INTL A","6106001","2020-01-30 07:00","2020","01","30","07:00","-15.5","","-17.5","","85","","","","3","","15","","24.1","","101.36","","","","-24","","Mainly Clear"
"-75.67","45.32","OTTAWA INTL A","6106001","2020-01-30 08:00","2020","01","30","08:00","-14.7","","-16.9","","84","","","","4","","9","","24.1","","101.40","","","","-20","","NA"
"-75.67","45.32","OTTAWA INTL A","6106001","2020-01-30 09:00","2020","01","30","09:00","-13.3","","-15.7","","83","","","","7","","11","","24.1","","101.40","","","","-20","","NA"
"-75.67","45.32","OTTAWA INTL A","6106001","2020-01-30 10:00","2020","01","30","10:00","-11.9","","-14.8","","79","","","","7","","8","","24.1","","101.42","","","","-17","","Mainly Clear"
"-75.67","45.32","OTTAWA INTL A","6106001","2020-01-30 11:00","2020","01","30","11:00","-10.6","","-13.7","","79","","","","13","","4","","24.1","","101.45","","","","-13","","NA"
"-75.67","45.32","OTTAWA INTL A","6106001","2020-01-30 12:00","2020","01","30","12:00","-8.9","","-13.1","","72","","","","36","","4","","24.1","","101.42","","","","-11","","NA"
"-75.67","45.32","OTTAWA INTL A","6106001","2020-01-30 13:00","2020","01","30","13:00","-7.7","","-12.9","","66","","","","36","","3","","24.1","","101.38","","","","-9","","Mostly Cloudy"
"-75.67","45.32","OTTAWA INTL A","6106001","2020-01-30 14:00","2020","01","30","14:00","-6.9","","-12.6","","64","","","","36","","1","","24.1","","101.31","","","","-7","","NA"
"-75.67","45.32","OTTAWA INTL A","6106001","2020-01-30 15:00","2020","01","30","15:00","-6.7","","-12.5","","64","","","","5","","4","","24.1","","101.27","","","","-9","","NA"
"-75.67","45.32","OTTAWA INTL A","6106001","2020-01-30 16:00","2020","01","30","16:00","-6.8","","-12.8","","62","","","","8","","5","","24.1","","101.26","","","","-9","","Mostly Cloudy"
"-75.67","45.32","OTTAWA INTL A","6106001","2020-01-30 17:00","2020","01","30","17:00","-7.3","","-12.7","","66","","","","9","","8","","24.1","","101.21","","","","-11","","NA"
"-75.67","45.32","OTTAWA INTL A","6106001","2020-01-30 18:00","2020","01","30","18:00","-8.1","","-12.9","","68","","","","9","","7","","24.1","","101.22","","","","-12","","NA"
"-75.67","45.32","OTTAWA INTL A","6106001","2020-01-30 19:00","2020","01","30","19:00","-8.4","","-13.5","","67","","","","5","","7","","24.1","","101.25","","","","-12","","Mostly Cloudy"
"-75.67","45.32","OTTAWA INTL A","6106001","2020-01-30 20:00","2020","01","30","20:00","-9.2","","-13.5","","71","","","","6","","10","","24.1","","101.22","","","","-14","","NA"
"-75.67","45.32","OTTAWA INTL A","6106001","2020-01-30 21:00","2020","01","30","21:00","-9.8","","-13.7","","73","","","","1","","7","","24.1","","101.25","","","","-14","","NA"
"-75.67","45.32","OTTAWA INTL A","6106001","2020-01-30 22:00","2020","01","30","22:00","-10.4","","-14.2","","74","","","","6","","6","","24.1","","101.26","","","","-14","","Mostly Cloudy"
"-75.67","45.32","OTTAWA INTL A","6106001","2020-01-30 23:00","2020","01","30","23:00","-11.9","","-15.2","","76","","","","4","","7","","24.1","","101.22","","","","-16","","NA"
"-75.67","45.32","OTTAWA INTL A","6106001","2020-01-31 00:00","2020","01","31","00:00","-12.2","","-15.2","","78","","","","4","","7","","24.1","","101.21","","","","-17","","NA"
"-75.67","45.32","OTTAWA INTL A","6106001","2020-01-31 01:00","2020","01","31","01:00","-13.0","","-15.7","","80","","","","4","","9","","24.1","","101.20","","","","-18","","Mainly Clear"
"-75.67","45.32","OTTAWA INTL A","6106001","2020-01-31 02:00","2020","01","31","02:00","-13.3","","-15.4","","85","","","","5","","8","","24.1","","101.18","","","","-18","","NA"
"-75.67","45.32","OTTAWA INTL A","6106001","2020-01-31 03:00","2020","01","31","03:00","-15.0","","-17.2","","84","","","","2","","8","","24.1","","101.17","","","","-20","","NA"
"-75.67","45.32","OTTAWA INTL A","6106001","2020-01-31 04:00","2020","01","31","04:00","-15.1","","-16.9","","86","","","","2","","8","","24.1","","101.16","","","","-20","","Clear"
"-75.67","45.32","OTTAWA INTL A","6106001","2020-01-31 05:00","2020","01","31","05:00","-13.6","","-15.4","","86","","","","36","","6","","24.1","","101.17","","","","-18","","NA"
"-75.67","45.32","OTTAWA INTL A","6106001","2020-01-31 06:00","2020","01","31","06:00","-13.9","","-15.9","","85","","","","33","","8","","24.1","","101.18","","","","-19","","NA"
"-75.67","45.32","OTTAWA INTL A","6106001","2020-01-31 07:00","2020","01","31","07:00","-14.2","","-16.1","","85","","","","36","","10","","24.1","","101.21","","","","-20","","Mainly Clear"
"-75.67","45.32","OTTAWA INTL A","6106001","2020-01-31 08:00","2020","01","31","08:00","-13.7","","-16.0","","82","","","","1","","10","","24.1","","101.23","","","","-20","","NA"
"-75.67","45.32","OTTAWA INTL A","6106001","2020-01-31 09:00","2020","01","31","09:00","-13.7","","-16.2","","81","","","","2","","7","","24.1","","101.23","","","","-18","","NA"
"-75.67","45.32","OTTAWA INTL A","6106001","2020-01-31 10:00","2020","01","31","10:00","-11.2","","-14.2","","79","","","","3","","5","","24.1","","101.23","","","","-14","","Mostly Cloudy"
"-75.67","45.32","OTTAWA INTL A","6106001","2020-01-31 11:00","2020","01","31","11:00","-9.5","","-13.2","","75","","","","4","","5","","24.1","","101.20","","","","-12","","NA"
"-75.67","45.32","OTTAWA INTL A","6106001","2020-01-31 12:00","2020","01","31","12:00","-8.5","","-13.7","","66","","","","36","","2","","24.1","","101.16","","","","-10","","NA"
"-75.67","45.32","OTTAWA INTL A","6106001","2020-01-31 13:00","2020","01","31","13:00","-7.6","","-13.2","","65","","","","36","","1","","24.1","","101.07","","","","-8","","Cloudy"
"-75.67","45.32","OTTAWA INTL A","6106001","2020-01-31 14:00","2020","01","31","14:00","-7.0","","-13.5","","60","","","","36","","1","","24.1","","100.97","","","","-8","","NA"
"-75.67","45.32","OTTAWA INTL A","6106001","2020-01-31 15:00","2020","01","31","15:00","-6.4","","-12.6","","62","","","","31","","4","","24.1","","100.98","","","","-8","","NA"
"-75.67","45.32","OTTAWA INTL A","6106001","2020-01-31 16:00","2020","01","31","16:00","-6.2","","-12.2","","63","","","","36","","1","","24.1","","100.95","","","","-7","","Cloudy"
"-75.67","45.32","OTTAWA INTL A","6106001","2020-01-31 17:00","2020","01","31","17:00","-6.0","","-12.4","","61","","","","2","","7","","24.1","","100.90","","","","-9","","NA"
"-75.67","45.32","OTTAWA INTL A","6106001","2020-01-31 18:00","2020","01","31","18:00","-6.6","","-11.0","","71","","","","25","","3","","24.1","","100.88","","","","-8","","NA"
"-75.67","45.32","OTTAWA INTL A","6106001","2020-01-31 19:00","2020","01","31","19:00","-6.6","","-11.2","","70","","","","15","","4","","24.1","","100.87","","","","-9","","Cloudy"
"-75.67","45.32","OTTAWA INTL A","6106001","2020-01-31 20:00","2020","01","31","20:00","-6.7","","-10.6","","74","","","","23","","3","","24.1","","100.86","","","","-8","","NA"
"-75.67","45.32","OTTAWA INTL A","6106001","2020-01-31 21:00","2020","01","31","21:00","-7.0","","-10.6","","76","","","","27","","5","","16.1","","100.85","","","","-10","","Snow"
"-75.67","45.32","OTTAWA INTL A","6106001","2020-01-31 22:00","2020","01","31","22:00","-7.5","","-10.0","","83","","","","25","","5","","4.8","","100.81","","","","-10","","Snow"
"-75.67","45.32","OTTAWA INTL A","6106001","2020-01-31 23:00","2020","01","31","23:00","-8.3","","-9.8","","89","","","","24","","3","","4.8","","100.72","","","","-10","","Snow"
