"Longitude (x)","Latitude (y)","Station Name","Climate ID","Date/Time (LST)","Year","Month","Day","Time (LST)","Temp (°C)","Temp Flag","Dew Point Temp (°C)","Dew Point Temp Flag","Rel Hum (%)","Rel Hum Flag","Precip. Amount (mm)","Precip. Amount Flag","Wind Dir (10s deg)","Wind Dir Flag","Wind Spd (km/h)","Wind Spd Flag","Visibility (km)","Visibility Flag","Stn Press (kPa)","Stn Press Flag","Hmdx","Hmdx Flag","Wind Chill","Wind Chill Flag","Weather"
"-130.91","69.60","LIVERPOOL BAY","220B68C","2020-10-01 00:00","2020","10","01","00:00","-0.1","","-0.2","","99","","","","9","","35","","","M","100.77","","","","-7","","NA"
"-130.91","69.60","LIVERPOOL BAY","220B68C","2020-10-01 01:00","2020","10","01","01:00","-0.1","","-0.2","","99","","","","9","","28","","","M","100.72","","","","-6","","NA"
"-130.91","69.60","LIVERPOOL BAY","220B68C","2020-10-01 02:00","2020","10","01","02:00","0.2","","0.1","","99","","","","8","","28","","","M","100.62","","","","","","NA"
"-130.91","69.60","LIVERPOOL BAY","220B68C","2020-10-01 03:00","2020","10","01","03:00","0.6","","0.5","","99","","","","9","","30","","","M","100.57","","","","","","NA"
"-130.91","69.60","LIVERPOOL BAY","220B68C","2020-10-01 04:00","2020","10","01","04:00","0.4","","0.3","","99","","","","8","","31","","","M","100.52","","","","","","NA"
"-130.91","69.60","LIVERPOOL BAY","220B68C","2020-10-01 05:00","2020","10","01","05:00","0.9","","0.8","","99","","","","9","","34","","","M","100.46","","","","","","NA"
"-130.91","69.60","LIVERPOOL BAY","220B68C","2020-10-01 06:00","2020","10","01","06:00","1.2","","1.1","","99","","","","9","","31","","","M","100.41","","","","","","NA"
"-130.91","69.60","LIVERPOOL BAY","220B68C","2020-10-01 07:00","2020","10","01","07:00","1.2","","1.1","","99","","","","9","","31","","","M","100.37","","","","","","NA"
"-130.91","69.60","LIVERPOOL BAY","220B68C","2020-10-01 08:00","2020","10","01","08:00","1.1","","1.0","","99","","","","9","","30","","","M","100.39","","","","","","NA"
"-130.91","69.60","LIVERPOOL BAY","220B68C","2020-10-01 09:00","2020","10","01","09:00","1.0","","0.9","","99","","","","10","","22","","","M","100.39","","","","","","NA"
"-130.91","69.60","LIVERPOOL BAY","220B68C","2020-10-01 10:00","2020","10","01","10:00","1.2","","1.1","","99","","","","9","","24","","","M","100.35","","","","","","NA"
"-130.91","69.60","LIVERPOOL BAY","220B68C","2020-10-01 11:00","2020","10","01","11:00","1.8","","1.7","","99","","","","10","","24","","","M","100.35","","","","","","NA"
"-130.91","69.60","LIVERPOOL BAY","220B68C","2020-10-01 12:00","2020","10","01","12:00","2.2","","2.1","","99","","","","11","","22","","","M","100.35","","","","","","NA"
"-130.91","69.60","LIVERPOOL BAY","220B68C","2020-10-01 13:00","2020","10","01","13:00","3.0","","2.5","","97","","","","12","","28","","","M","100.34","","","","","","NA"
"-130.91","69.60","LIVERPOOL BAY","220B68C","2020-10-01 14:00","2020","10","01","14:00","3.5","","2.6","","94","","","","12","","22","","","M","100.34","","","","","","NA"
"-130.91","69.60","LIVERPOOL BAY","220B68C","2020-10-01 15:00","2020","10","01","15:00","3.8","","3.1","","95","","","","12","","21","","","M","100.33","","","","","","NA"
"-130.91","69.60","LIVERPOOL BAY","220B68C","2020-10-01 16:00","2020","10","01","16:00","4.2","","3.5","","95","","","","11","","18","","","M","100.35","","","","","","NA"
"-130.91","69.60","LIVERPOOL BAY","220B68C","2020-10-01 17:00","2020","10","01","17:00","4.3","","3.6","","95","","","","11","","17","","","M","100.35","","","","","","NA"
"-130.91","69.60","LIVERPOOL BAY","220B68C","2020-10-01 18:00","2020","10","01","18:00","4.1","","3.7","","97","","","","11","","18","","","M","100.31","","","","","","NA"
"-130.91","69.60","LIVERPOOL BAY","220B68C","2020-10-01 19:00","2020","10","01","19:00","3.9","","3.7","","98","","","","11","","21","","","M","100.30","","","","","","NA"
"-130.91","69.60","LIVERPOOL BAY","220B68C","2020-10-01 20:00","2020","10","01","20:00","3.8","","3.7","","99","","","","11","","22","","","M","100.28","","","","","","NA"
"-130.91","69.60","LIVERPOOL BAY","220B68C","2020-10-01 21:00","2020","10","01","21:00","3.7","","3.6","","99","","","","11","","22","","","M","100.28","","","","","","NA"
"-130.91","69.60","LIVERPOOL BAY","220B68C","2020-10-01 22:00","2020","10","01","22:00","3.8","","3.7","","99","","","","10","","13","","","M","100.29","","","","","","NA"
"-130.91","69.60","LIVERPOOL BAY","220B68C","2020-10-01 23:00","2020","10","01","23:00","3.8","","3.7","","99","","","","11","","17","","","M","100.28","","","","","","NA"
"-130.91","69.60","LIVERPOOL BAY","220B68C","2020-10-02 00:00","2020","10","02","00:00","3.8","","3.7","","99","","","","10","","18","","","M","100.23","","","","","","NA"
"-130.91","69.60","LIVERPOOL BAY","220B68C","2020-10-02 01:00","2020","10","02","01:00","3.9","","3.8","","99","","","","11","","22","","","M","100.21","","","","","","NA"
"-130.91","69.60","LIVERPOOL BAY","220B68C","2020-10-02 02:00","2020","10","02","02:00","4.1","","4.0","","99","","","","11","","22","","","M","100.19","","","","","","NA"
"-130.91","69.60","LIVERPOOL BAY","220B68C","2020-10-02 03:00","2020","10","02","03:00","4.0","","3.9","","99","","","","12","","22","","","M","100.17","","","","","","NA"
"-130.91","69.60","LIVERPOOL BAY","220B68C","2020-10-02 04:00","2020","10","02","04:00","4.1","","4.0","","99","","","","12","","17","","","M","100.18","","","","","","NA"
"-130.91","69.60","LIVERPOOL BAY","220B68C","2020-10-02 05:00","2020","10","02","05:00","4.1","","4.0","","99","","","","13","","18","","","M","100.13","","","","","","NA"
"-130.91","69.60","LIVERPOOL BAY","220B68C","2020-10-02 06:00","2020","10","02","06:00","3.8","","3.7","","99","","","","15","","13","","","M","100.12","","","","","","NA"
"-130.91","69.60","LIVERPOOL BAY","220B68C","2020-10-02 07:00","2020","10","02","07:00","3.6","","3.4","","99","","","","16","","9","","","M","100.13","","","","","","NA"
"-130.91","69.60","LIVERPOOL BAY","220B68C","2020-10-02 08:00","2020","10","02","08:00","3.5","","3.4","","99","","","","15","","9","","","M","100.13","","","","","","NA"
"-130.91","69.60","LIVERPOOL BAY","220B68C","2020-10-02 09:00","2020","10","02","09:00","3.2","","3.1","","99","","","","17","","9","","","M","100.07","","","","","","NA"
"-130.91","69.60","LIVERPOOL BAY","220B68C","2020-10-02 10:00","2020","10","02","10:00","3.4","","3.3","","99","","","","15","","8","","","M","100.05","","","","","","NA"
"-130.91","69.60","LIVERPOOL BAY","220B68C","2020-10-02 11:00","2020","10","02","11:00","3.3","","3.2","","99","","","","14","","15","","","M","100.04","","","","","","NA"
"-130.91","69.60","LIVERPOOL BAY","220B68C","2020-10-02 12:00","2020","10","02","12:00","2.5","","2.4","","99","","","","14","","17","","","M","100.00","","","","","","NA"
"-130.91","69.60","LIVERPOOL BAY","220B68C","2020-10-02 13:00","2020","10","02","13:00","2.5","","2.5","","99","","","","12","","17","","","M","99.98","","","","","","NA"
"-130.91","69.60","LIVERPOOL BAY","220B68C","2020-10-02 14:00","2020","10","02","14:00","3.6","","3.4","","99","","","","13","","21","","","M","99.96","","","","","","NA"
"-130.91","69.60","LIVERPOOL BAY","220B68C","2020-10-02 15:00","2020","10","02","15:00","4.3","","4.2","","99","","","","10","","17","","","M","99.89","","","","","","NA"
"-130.91","69.60","LIVERPOOL BAY","220B68C","2020-10-02 16:00","2020","10","02","16:00","4.9","","4.8","","99","","","","11","","21","","","M","99.83","","","","","","NA"
"-130.91","69.60","LIVERPOOL BAY","220B68C","2020-10-02 17:00","2020","10","02","17:00","4.6","","4.5","","99","","","","11","","21","","","M","99.76","","","","","","NA"
"-130.91","69.60","LIVERPOOL BAY","220B68C","2020-10-02 18:00","2020","10","02","18:00","4.4","","4.3","","99","","","","9","","24","","","M","99.65","","","","","","NA"
"-130.91","69.60","LIVERPOOL BAY","220B68C","2020-10-02 19:00","2020","10","02","19:00","4.2","","4.1","","99","","","","9","","26","","","M","99.56","","","","","","NA"
"-130.91","69.60","LIVERPOOL BAY","220B68C","2020-10-02 20:00","2020","10","02","20:00","4.1","","4.0","","99","","","","8","","24","","","M","99.49","","","","","","NA"
"-130.91","69.60","LIVERPOOL BAY","220B68C","2020-10-02 21:00","2020","10","02","21:00","4.1","","4.0","","99","","","","9","","24","","","M","99.44","","","","","","NA"
"-130.91","69.60","LIVERPOOL BAY","220B68C","2020-10-02 22:00","2020","10","02","22:00","3.9","","3.8","","99","","","","9","","22","","","M","99.35","","","","","","NA"
"-130.91","69.60","LIVERPOOL BAY","220B68C","2020-10-02 23:00","2020","10","02","23:00","4.3","","4.2","","99","","","","9","","22","","","M","99.26","","","","","","NA"
"-130.91","69.60","LIVERPOOL BAY","220B68C","2020-10-03 00:00","2020","10","03","00:00","4.6","","4.4","","99","","","","9","","24","","","M","99.19","","","","","","NA"
"-130.91","69.60","LIVERPOOL BAY","220B68C","2020-10-03 01:00","2020","10","03","01:00","4.7","","4.3","","97","","","","10","","22","","","M","99.11","","","","","","NA"
"-130.91","69.60","LIVERPOOL BAY","220B68C","2020-10-03 02:00","2020","10","03","02:00","4.3","","4.0","","98","","","","10","","24","","","M","99.05","","","","","","NA"
"-130.91","69.60","LIVERPOOL BAY","220B68C","2020-10-03 03:00","2020","10","03","03:00","4.3","","4.0","","98","","","","10","","21","","","M","98.94","","","","","","NA"
"-130.91","69.60","LIVERPOOL BAY","220B68C","2020-10-03 04:00","2020","10","03","04:00","4.1","","3.9","","99","","","","10","","21","","","M","98.84","","","","","","NA"
"-130.91","69.60","LIVERPOOL BAY","220B68C","2020-10-03 05:00","2020","10","03","05:00","4.5","","4.2","","98","","","","11","","24","","","M","98.77","","","","","","NA"
"-130.91","69.60","LIVERPOOL BAY","220B68C","2020-10-03 06:00","2020","10","03","06:00","4.8","","4.4","","97","","","","11","","22","","","M","98.69","","","","","","NA"
"-130.91","69.60","LIVERPOOL BAY","220B68C","2020-10-03 07:00","2020","10","03","07:00","5.1","","4.7","","97","","","","12","","22","","","M","98.65","","","","","","NA"
"-130.91","69.60","LIVERPOOL BAY","220B68C","2020-10-03 08:00","2020","10","03","08:00","5.1","","4.9","","99","","","","15","","15","","","M","98.64","","","","","","NA"
"-130.91","69.60","LIVERPOOL BAY","220B68C","2020-10-03 09:00","2020","10","03","09:00","5.4","","5.3","","99","","","","13","","18","","","M","98.59","","","","","","NA"
"-130.91","69.60","LIVERPOOL BAY","220B68C","2020-10-03 10:00","2020","10","03","10:00","5.5","","5.4","","99","","","","12","","17","","","M","98.53","","","","","","NA"
"-130.91","69.60","LIVERPOOL BAY","220B68C","2020-10-03 11:00","2020","10","03","11:00","5.7","","5.6","","99","","","","11","","13","","","M","98.53","","","","","","NA"
"-130.91","69.60","LIVERPOOL BAY","220B68C","2020-10-03 12:00","2020","10","03","12:00","6.2","","6.1","","99","","","","9","","9","","","M","98.48","","","","","","NA"
"-130.91","69.60","LIVERPOOL BAY","220B68C","2020-10-03 13:00","2020","10","03","13:00","6.1","","5.9","","99","","","","8","","8","","","M","98.44","","","","","","NA"
"-130.91","69.60","LIVERPOOL BAY","220B68C","2020-10-03 14:00","2020","10","03","14:00","7.0","","6.7","","98","","","","12","","8","","","M","98.42","","","","","","NA"
"-130.91","69.60","LIVERPOOL BAY","220B68C","2020-10-03 15:00","2020","10","03","15:00","7.3","","6.5","","95","","","","9","","2","","","M","98.43","","","","","","NA"
"-130.91","69.60","LIVERPOOL BAY","220B68C","2020-10-03 16:00","2020","10","03","16:00","7.1","","6.0","","92","","","","26","","2","","","M","98.42","","","","","","NA"
"-130.91","69.60","LIVERPOOL BAY","220B68C","2020-10-03 17:00","2020","10","03","17:00","6.6","","6.3","","98","","","","25","","2","","","M","98.43","","","","","","NA"
"-130.91","69.60","LIVERPOOL BAY","220B68C","2020-10-03 18:00","2020","10","03","18:00","6.3","","6.1","","99","","","","21","","4","","","M","98.45","","","","","","NA"
"-130.91","69.60","LIVERPOOL BAY","220B68C","2020-10-03 19:00","2020","10","03","19:00","5.6","","5.5","","99","","","","19","","11","","","M","98.42","","","","","","NA"
"-130.91","69.60","LIVERPOOL BAY","220B68C","2020-10-03 20:00","2020","10","03","20:00","5.2","","5.0","","99","","","","22","","17","","","M","98.44","","","","","","NA"
"-130.91","69.60","LIVERPOOL BAY","220B68C","2020-10-03 21:00","2020","10","03","21:00","5.3","","5.2","","99","","","","22","","17","","","M","98.42","","","","","","NA"
"-130.91","69.60","LIVERPOOL BAY","220B68C","2020-10-03 22:00","2020","10","03","22:00","5.3","","5.2","","99","","","","21","","18","","","M","84.35","","","","","","NA"
"-130.91","69.60","LIVERPOOL BAY","220B68C","2020-10-03 23:00","2020","10","03","23:00","5.5","","5.4","","99","","","","23","","17","","","M","98.40","","","","","","NA"
"-130.91","69.60","LIVERPOOL BAY","220B68C","2020-10-04 00:00","2020","10","04","00:00","5.3","","5.2","","99","","","","23","","18","","","M","98.41","","","","","","NA"
"-130.91","69.60","LIVERPOOL BAY","220B68C","2020-10-04 01:00","2020","10","04","01:00","4.5","","4.4","","99","","","","23","","18","","","M","98.41","","","","","","NA"
"-130.91","69.60","LIVERPOOL BAY","220B68C","2020-10-04 02:00","2020","10","04","02:00","3.7","","3.6","","99","","","","24","","26","","","M","98.42","","","","","","NA"
"-130.91","69.60","LIVERPOOL BAY","220B68C","2020-10-04 03:00","2020","10","04","03:00","2.4","","2.3","","99","","","","25","","26","","","M","98.45","","","","","","NA"
"-130.91","69.60","LIVERPOOL BAY","220B68C","2020-10-04 04:00","2020","10","04","04:00","1.8","","1.7","","99","","","","25","","24","","","M","98.45","","","","","","NA"
"-130.91","69.60","LIVERPOOL BAY","220B68C","2020-10-04 05:00","2020","10","04","05:00","1.0","","0.9","","99","","","","26","","30","","","M","98.46","","","","","","NA"
"-130.91","69.60","LIVERPOOL BAY","220B68C","2020-10-04 06:00","2020","10","04","06:00","0.9","","0.7","","99","","","","25","","24","","","M","98.46","","","","","","NA"
"-130.91","69.60","LIVERPOOL BAY","220B68C","2020-10-04 07:00","2020","10","04","07:00","1.1","","1.0","","99","","","","26","","28","","","M","98.49","","","","","","NA"
"-130.91","69.60","LIVERPOOL BAY","220B68C","2020-10-04 08:00","2020","10","04","08:00","0.5","","0.3","","99","","","","25","","28","","","M","98.51","","","","","","NA"
"-130.91","69.60","LIVERPOOL BAY","220B68C","2020-10-04 09:00","2020","10","04","09:00","0.5","","0.4","","99","","","","26","","31","","","M","98.55","","","","","","NA"
"-130.91","69.60","LIVERPOOL BAY","220B68C","2020-10-04 10:00","2020","10","04","10:00","1.6","","1.5","","99","","","","26","","28","","","M","98.59","","","","","","NA"
"-130.91","69.60","LIVERPOOL BAY","220B68C","2020-10-04 11:00","2020","10","04","11:00","2.2","","2.1","","99","","","","28","","28","","","M","98.63","","","","","","NA"
"-130.91","69.60","LIVERPOOL BAY","220B68C","2020-10-04 12:00","2020","10","04","12:00","2.5","","2.4","","99","","","","28","","28","","","M","98.70","","","","","","NA"
"-130.91","69.60","LIVERPOOL BAY","220B68C","2020-10-04 13:00","2020","10","04","13:00","3.0","","2.9","","99","","","","28","","28","","","M","98.73","","","","","","NA"
"-130.91","69.60","LIVERPOOL BAY","220B68C","2020-10-04 14:00","2020","10","04","14:00","2.6","","2.5","","99","","","","27","","30","","","M","98.79","","","","","","NA"
"-130.91","69.60","LIVERPOOL BAY","220B68C","2020-10-04 15:00","2020","10","04","15:00","2.4","","2.3","","99","","","","27","","28","","","M","98.85","","","","","","NA"
"-130.91","69.60","LIVERPOOL BAY","220B68C","2020-10-04 16:00","2020","10","04","16:00","2.4","","2.3","","99","","","","26","","28","","","M","98.86","","","","","","NA"
"-130.91","69.60","LIVERPOOL BAY","220B68C","2020-10-04 17:00","2020","10","04","17:00","2.2","","2.1","","99","","","","26","","28","","","M","98.87","","","","","","NA"
"-130.91","69.60","LIVERPOOL BAY","220B68C","2020-10-04 18:00","2020","10","04","18:00","2.0","","1.9","","99","","","","27","","28","","","M","98.89","","","","","","NA"
"-130.91","69.60","LIVERPOOL BAY","220B68C","2020-10-04 19:00","2020","10","04","19:00","1.8","","1.7","","99","","","","26","","26","","","M","98.91","","","","","","NA"
"-130.91","69.60","LIVERPOOL BAY","220B68C","2020-10-04 20:00","2020","10","04","20:00","1.7","","1.6","","99","","","","26","","24","","","M","98.93","","","","","","NA"
"-130.91","69.60","LIVERPOOL BAY","220B68C","2020-10-04 21:00","2020","10","04","21:00","1.5","","1.4","","99","","","","26","","24","","","M","98.91","","","","","","NA"
"-130.91","69.60","LIVERPOOL BAY","220B68C","2020-10-04 22:00","2020","10","04","22:00","1.4","","1.3","","99","","","","26","","26","","","M","98.89","","","","","","NA"
"-130.91","69.60","LIVERPOOL BAY","220B68C","2020-10-04 23:00","2020","10","04","23:00","1.4","","1.3","","99","","","","26","","24","","","M","98.88","","","","","","NA"
"-130.91","69.60","LIVERPOOL BAY","220B68C","2020-10-05 00:00","2020","10","05","00:00","1.3","","1.2","","99","","","","26","","24","","","M","98.87","","","","","","NA"
"-130.91","69.60","LIVERPOOL BAY","220B68C","2020-10-05 01:00","2020","10","05","01:00","1.1","","1.0","","99","","","","25","","30","","","M","98.88","","","","","","NA"
"-130.91","69.60","LIVERPOOL BAY","220B68C","2020-10-05 02:00","2020","10","05","02:00","1.0","","0.9","","99","","","","25","","24","","","M","98.88","","","","","","NA"
"-130.91","69.60","LIVERPOOL BAY","220B68C","2020-10-05 03:00","2020","10","05","03:00","0.8","","0.7","","99","","","","26","","24","","","M","98.88","","","","","","NA"
"-130.91","69.60","LIVERPOOL BAY","220B68C","2020-10-05 04:00","2020","10","05","04:00","0.9","","0.8","","99","","","","26","","24","","","M","98.88","","","","","","NA"
"-130.91","69.60","LIVERPOOL BAY","220B68C","2020-10-05 05:00","2020","10","05","05:00","0.8","","0.7","","99","","","","25","","24","","","M","98.88","","","","","","NA"
"-130.91","69.60","LIVERPOOL BAY","220B68C","2020-10-05 06:00","2020","10","05","06:00","0.6","","0.5","","99","","","","25","","17","","","M","98.88","","","","","","NA"
"-130.91","69.60","LIVERPOOL BAY","220B68C","2020-10-05 07:00","2020","10","05","07:00","0.5","","0.4","","99","","","","28","","17","","","M","98.90","","","","","","NA"
"-130.91","69.60","LIVERPOOL BAY","220B68C","2020-10-05 08:00","2020","10","05","08:00","0.1","","0.0","","99","","","","25","","15","","","M","98.89","","","","","","NA"
"-130.91","69.60","LIVERPOOL BAY","220B68C","2020-10-05 09:00","2020","10","05","09:00","0.0","","-0.1","","99","","","","25","","21","","","M","98.89","","","","-5","","NA"
"-130.91","69.60","LIVERPOOL BAY","220B68C","2020-10-05 10:00","2020","10","05","10:00","0.3","","0.2","","99","","","","26","","21","","","M","98.92","","","","","","NA"
"-130.91","69.60","LIVERPOOL BAY","220B68C","2020-10-05 11:00","2020","10","05","11:00","0.7","","0.6","","99","","","","25","","22","","","M","98.95","","","","","","NA"
"-130.91","69.60","LIVERPOOL BAY","220B68C","2020-10-05 12:00","2020","10","05","12:00","1.1","","0.9","","99","","","","26","","22","","","M","98.99","","","","","","NA"
"-130.91","69.60","LIVERPOOL BAY","220B68C","2020-10-05 13:00","2020","10","05","13:00","1.3","","1.2","","99","","","","26","","26","","","M","99.03","","","","","","NA"
"-130.91","69.60","LIVERPOOL BAY","220B68C","2020-10-05 14:00","2020","10","05","14:00","1.6","","1.5","","99","","","","26","","24","","","M","99.06","","","","","","NA"
"-130.91","69.60","LIVERPOOL BAY","220B68C","2020-10-05 15:00","2020","10","05","15:00","1.6","","1.5","","99","","","","26","","22","","","M","99.11","","","","","","NA"
"-130.91","69.60","LIVERPOOL BAY","220B68C","2020-10-05 16:00","2020","10","05","16:00","1.3","","1.2","","99","","","","27","","22","","","M","99.14","","","","","","NA"
"-130.91","69.60","LIVERPOOL BAY","220B68C","2020-10-05 17:00","2020","10","05","17:00","1.1","","1.0","","99","","","","27","","22","","","M","99.15","","","","","","NA"
"-130.91","69.60","LIVERPOOL BAY","220B68C","2020-10-05 18:00","2020","10","05","18:00","0.9","","0.8","","99","","","","27","","22","","","M","99.17","","","","","","NA"
"-130.91","69.60","LIVERPOOL BAY","220B68C","2020-10-05 19:00","2020","10","05","19:00","0.8","","0.7","","99","","","","27","","28","","","M","99.20","","","","","","NA"
"-130.91","69.60","LIVERPOOL BAY","220B68C","2020-10-05 20:00","2020","10","05","20:00","0.7","","0.6","","99","","","","28","","21","","","M","99.24","","","","","","NA"
"-130.91","69.60","LIVERPOOL BAY","220B68C","2020-10-05 21:00","2020","10","05","21:00","0.7","","0.6","","99","","","","28","","21","","","M","99.26","","","","","","NA"
"-130.91","69.60","LIVERPOOL BAY","220B68C","2020-10-05 22:00","2020","10","05","22:00","0.8","","0.7","","99","","","","27","","21","","","M","99.30","","","","","","NA"
"-130.91","69.60","LIVERPOOL BAY","220B68C","2020-10-05 23:00","2020","10","05","23:00","0.8","","0.7","","99","","","","27","","21","","","M","99.33","","","","","","NA"
"-130.91","69.60","LIVERPOOL BAY","220B68C","2020-10-06 00:00","2020","10","06","00:00","0.7","","0.6","","99","","","","27","","21","","","M","99.38","","","","","","NA"
"-130.91","69.60","LIVERPOOL BAY","220B68C","2020-10-06 01:00","2020","10","06","01:00","0.7","","0.6","","99","","","","27","","22","","","M","99.42","","","","","","NA"
"-130.91","69.60","LIVERPOOL BAY","220B68C","2020-10-06 02:00","2020","10","06","02:00","0.7","","0.6","","99","","","","27","","21","","","M","99.45","","","","","","NA"
"-130.91","69.60","LIVERPOOL BAY","220B68C","2020-10-06 03:00","2020","10","06","03:00","0.7","","0.6","","99","","","","27","","28","","","M","99.50","","","","","","NA"
"-130.91","69.60","LIVERPOOL BAY","220B68C","2020-10-06 04:00","2020","10","06","04:00","0.7","","0.6","","99","","","","29","","28","","","M","99.55","","","","","","NA"
"-130.91","69.60","LIVERPOOL BAY","220B68C","2020-10-06 05:00","2020","10","06","05:00","0.7","","0.6","","99","","","","28","","24","","","M","99.59","","","","","","NA"
"-130.91","69.60","LIVERPOOL BAY","220B68C","2020-10-06 06:00","2020","10","06","06:00","0.9","","0.8","","99","","","","29","","21","","","M","99.64","","","","","","NA"
"-130.91","69.60","LIVERPOOL BAY","220B68C","2020-10-06 07:00","2020","10","06","07:00","0.7","","0.6","","99","","","","31","","21","","","M","99.70","","","","","","NA"
"-130.91","69.60","LIVERPOOL BAY","220B68C","2020-10-06 08:00","2020","10","06","08:00","0.7","","0.6","","99","","","","34","","15","","","M","99.80","","","","","","NA"
"-130.91","69.60","LIVERPOOL BAY","220B68C","2020-10-06 09:00","2020","10","06","09:00","0.4","","0.3","","99","","","","1","","18","","","M","99.88","","","","","","NA"
"-130.91","69.60","LIVERPOOL BAY","220B68C","2020-10-06 10:00","2020","10","06","10:00","0.2","","0.1","","99","","","","3","","21","","","M","99.98","","","","","","NA"
"-130.91","69.60","LIVERPOOL BAY","220B68C","2020-10-06 11:00","2020","10","06","11:00","-0.2","","-0.3","","99","","","","3","","26","","","M","100.08","","","","-6","","NA"
"-130.91","69.60","LIVERPOOL BAY","220B68C","2020-10-06 12:00","2020","10","06","12:00","-0.1","","-0.2","","99","","","","3","","17","","","M","100.21","","","","-5","","NA"
"-130.91","69.60","LIVERPOOL BAY","220B68C","2020-10-06 13:00","2020","10","06","13:00","0.0","","-0.1","","99","","","","1","","13","","","M","100.29","","","","-4","","NA"
"-130.91","69.60","LIVERPOOL BAY","220B68C","2020-10-06 14:00","2020","10","06","14:00","0.2","","0.1","","99","","","","2","","9","","","M","100.39","","","","","","NA"
"-130.91","69.60","LIVERPOOL BAY","220B68C","2020-10-06 15:00","2020","10","06","15:00","0.1","","0.0","","99","","","","36","","9","","","M","100.45","","","","","","NA"
"-130.91","69.60","LIVERPOOL BAY","220B68C","2020-10-06 16:00","2020","10","06","16:00"
"-130.91","69.60","LIVERPOOL BAY","220B68C","2020-10-06 17:00","2020","10","06","17:00","-0.7","","-0.8","","99","","","","34","","17","","","M","100.54","","","","-6","","NA"
"-130.91","69.60","LIVERPOOL BAY","220B68C","2020-10-06 18:00","2020","10","06","18:00","-0.9","","-1.2","","98","","","","35","","11","","","M","100.59","","","","-5","","NA"
"-130.91","69.60","LIVERPOOL BAY","220B68C","2020-10-06 19:00","2020","10","06","19:00","-1.6","","-1.7","","99","","","","2","","9","","","M","100.63","","","","-5","","NA"
"-130.91","69.60","LIVERPOOL BAY","220B68C","2020-10-06 20:00","2020","10","06","20:00","-1.4","","-1.5","","99","","","","31","","8","","","M","100.66","","","","-4","","NA"
"-130.91","69.60","LIVERPOOL BAY","220B68C","2020-10-06 21:00","2020","10","06","21:00","-1.3","","-1.5","","99","","","","27","","5","","","M","100.66","","","","-3","","NA"
"-130.91","69.60","LIVERPOOL BAY","220B68C","2020-10-06 22:00","2020","10","06","22:00","-1.3","","-1.7","","97","","","","25","","9","","","M","100.65","","","","-5","","NA"
"-130.91","69.60","LIVERPOOL BAY","220B68C","2020-10-06 23:00","2020","10","06","23:00","-1.3","","-1.4","","99","","","","19","","9","","","M","100.65","","","","-5","","NA"
"-130.91","69.60","LIVERPOOL BAY","220B68C","2020-10-07 00:00","2020","10","07","00:00","-1.0","","-1.1","","99","","","","20","","15","","","M","100.64","","","","-6","","NA"
"-130.91","69.60","LIVERPOOL BAY","220B68C","2020-10-07 01:00","2020","10","07","01:00","-0.7","","-0.8","","99","","","","21","","18","","","M","100.64","","","","-6","","NA"
"-130.91","69.60","LIVERPOOL BAY","220B68C","2020-10-07 02:00","2020","10","07","02:00","-0.5","","-0.6","","99","","","","24","","13","","","M","100.62","","","","-5","","NA"
"-130.91","69.60","LIVERPOOL BAY","220B68C","2020-10-07 03:00","2020","10","07","03:00","-0.5","","-0.6","","99","","","","27","","13","","","M","100.61","","","","-5","","NA"
"-130.91","69.60","LIVERPOOL BAY","220B68C","2020-10-07 04:00","2020","10","07","04:00","-0.7","","-0.8","","99","","","","27","","13","","","M","100.62","","","","-5","","NA"
"-130.91","69.60","LIVERPOOL BAY","220B68C","2020-10-07 05:00","2020","10","07","05:00","-0.8","","-0.9","","99","","","","27","","13","","","M","100.62","","","","-5","","NA"
"-130.91","69.60","LIVERPOOL BAY","220B68C","2020-10-07 06:00","2020","10","07","06:00","-0.9","","-1.0","","99","","","","27","","13","","","M","100.59","","","","-5","","NA"
"-130.91","69.60","LIVERPOOL BAY","220B68C","2020-10-07 07:00","2020","10","07","07:00","-1.0","","-1.1","","99","","","","28","","11","","","M","100.55","","","","-5","","NA"
"-130.91","69.60","LIVERPOOL BAY","220B68C","2020-10-07 08:00","2020","10","07","08:00","-1.4","","-1.5","","99","","","","29","","9","","","M","100.54","","","","-5","","NA"
"-130.91","69.60","LIVERPOOL BAY","220B68C","2020-10-07 09:00","2020","10","07","09:00","-1.3","","-1.4","","99","","","","28","","8","","","M","100.53","","","","-4","","NA"
"-130.91","69.60","LIVERPOOL BAY","220B68C","2020-10-07 10:00","2020","10","07","10:00","-1.0","","-1.1","","99","","","","36","","9","","","M","100.52","","","","-4","","NA"
"-130.91","69.60","LIVERPOOL BAY","220B68C","2020-10-07 11:00","2020","10","07","11:00","-1.0","","-1.1","","99","","","","1","","8","","","M","100.50","","","","-4","","NA"
"-130.91","69.60","LIVERPOOL BAY","220B68C","2020-10-07 12:00","2020","10","07","12:00","-1.0","","-1.1","","99","","","","1","","8","","","M","100.48","","","","-4","","NA"
"-130.91","69.60","LIVERPOOL BAY","220B68C","2020-10-07 13:00","2020","10","07","13:00","-0.9","","-1.0","","99","","","","1","","8","","","M","100.47","","","","-4","","NA"
"-130.91","69.60","LIVERPOOL BAY","220B68C","2020-10-07 14:00","2020","10","07","14:00","-0.8","","-0.9","","99","","","","1","","8","","","M","100.48","","","","-4","","NA"
"-130.91","69.60","LIVERPOOL BAY","220B68C","2020-10-07 15:00","2020","10","07","15:00","-0.8","","-1.1","","98","","","","1","","8","","","M","100.46","","","","-4","","NA"
"-130.91","69.60","LIVERPOOL BAY","220B68C","2020-10-07 16:00","2020","10","07","16:00","-1.0","","-1.8","","95","","","","4","","8","","","M","100.43","","","","-4","","NA"
"-130.91","69.60","LIVERPOOL BAY","220B68C","2020-10-07 17:00","2020","10","07","17:00","-1.2","","-2.0","","94","","","","3","","9","","","M","100.38","","","","-4","","NA"
"-130.91","69.60","LIVERPOOL BAY","220B68C","2020-10-07 18:00","2020","10","07","18:00","-1.3","","-1.9","","96","","","","4","","9","","","M","100.34","","","","-5","","NA"
"-130.91","69.60","LIVERPOOL BAY","220B68C","2020-10-07 19:00","2020","10","07","19:00","-1.3","","-1.7","","97","","","","8","","11","","","M","100.33","","","","-5","","NA"
"-130.91","69.60","LIVERPOOL BAY","220B68C","2020-10-07 20:00","2020","10","07","20:00","-1.3","","-1.8","","96","","","","9","","11","","","M","100.29","","","","-5","","NA"
"-130.91","69.60","LIVERPOOL BAY","220B68C","2020-10-07 21:00","2020","10","07","21:00","-1.4","","-2.0","","95","","","","9","","13","","","M","100.27","","","","-6","","NA"
"-130.91","69.60","LIVERPOOL BAY","220B68C","2020-10-07 22:00","2020","10","07","22:00","-1.3","","-1.7","","97","","","","10","","13","","","M","100.25","","","","-6","","NA"
"-130.91","69.60","LIVERPOOL BAY","220B68C","2020-10-07 23:00","2020","10","07","23:00","-1.2","","-1.6","","97","","","","9","","13","","","M","100.21","","","","-5","","NA"
"-130.91","69.60","LIVERPOOL BAY","220B68C","2020-10-08 00:00","2020","10","08","00:00","-1.1","","-1.4","","98","","","","9","","15","","","M","100.19","","","","-6","","NA"
"-130.91","69.60","LIVERPOOL BAY","220B68C","2020-10-08 01:00","2020","10","08","01:00","-0.9","","-1.0","","99","","","","11","","13","","","M","100.17","","","","-5","","NA"
"-130.91","69.60","LIVERPOOL BAY","220B68C","2020-10-08 02:00","2020","10","08","02:00","-0.9","","-1.0","","99","","","","9","","13","","","M","100.14","","","","-5","","NA"
"-130.91","69.60","LIVERPOOL BAY","220B68C","2020-10-08 03:00","2020","10","08","03:00","-0.9","","-1.0","","99","","","","8","","15","","","M","100.13","","","","-6","","NA"
"-130.91","69.60","LIVERPOOL BAY","220B68C","2020-10-08 04:00","2020","10","08","04:00","-0.7","","-0.8","","99","","","","9","","18","","","M","100.11","","","","-6","","NA"
"-130.91","69.60","LIVERPOOL BAY","220B68C","2020-10-08 05:00","2020","10","08","05:00","-0.8","","-0.9","","99","","","","8","","17","","","M","100.09","","","","-6","","NA"
"-130.91","69.60","LIVERPOOL BAY","220B68C","2020-10-08 06:00","2020","10","08","06:00","-0.9","","-1.0","","99","","","","7","","18","","","M","100.07","","","","-6","","NA"
"-130.91","69.60","LIVERPOOL BAY","220B68C","2020-10-08 07:00","2020","10","08","07:00","-0.9","","-1.0","","99","","","","8","","17","","","M","100.05","","","","-6","","NA"
"-130.91","69.60","LIVERPOOL BAY","220B68C","2020-10-08 08:00","2020","10","08","08:00","-0.9","","-1.0","","99","","","","7","","17","","","M","100.03","","","","-6","","NA"
"-130.91","69.60","LIVERPOOL BAY","220B68C","2020-10-08 09:00","2020","10","08","09:00","-0.9","","-1.0","","99","","","","7","","17","","","M","100.01","","","","-6","","NA"
"-130.91","69.60","LIVERPOOL BAY","220B68C","2020-10-08 10:00","2020","10","08","10:00","-0.7","","-0.8","","99","","","","8","","15","","","M","99.99","","","","-5","","NA"
"-130.91","69.60","LIVERPOOL BAY","220B68C","2020-10-08 11:00","2020","10","08","11:00","-1.0","","-1.1","","99","","","","10","","11","","","M","99.97","","","","-5","","NA"
"-130.91","69.60","LIVERPOOL BAY","220B68C","2020-10-08 12:00","2020","10","08","12:00","-0.9","","-1.0","","99","","","","10","","13","","","M","99.96","","","","-5","","NA"
"-130.91","69.60","LIVERPOOL BAY","220B68C","2020-10-08 13:00","2020","10","08","13:00","-0.6","","-1.1","","96","","","","9","","13","","","M","99.95","","","","-5","","NA"
"-130.91","69.60","LIVERPOOL BAY","220B68C","2020-10-08 14:00","2020","10","08","14:00","-0.7","","-1.2","","96","","","","9","","17","","","M","99.92","","","","-6","","NA"
"-130.91","69.60","LIVERPOOL BAY","220B68C","2020-10-08 15:00","2020","10","08","15:00","-0.7","","-1.9","","91","","","","8","","13","","","M","99.91","","","","-5","","NA"
"-130.91","69.60","LIVERPOOL BAY","220B68C","2020-10-08 16:00","2020","10","08","16:00","-0.6","","-1.6","","93","","","","8","","17","","","M","99.88","","","","-6","","NA"
"-130.91","69.60","LIVERPOOL BAY","220B68C","2020-10-08 17:00","2020","10","08","17:00","-0.8","","-1.7","","94","","","","9","","15","","","M","99.87","","","","-5","","NA"
"-130.91","69.60","LIVERPOOL BAY","220B68C","2020-10-08 18:00","2020","10","08","18:00","-0.9","","-1.6","","95","","","","9","","15","","","M","99.85","","","","-6","","NA"
"-130.91","69.60","LIVERPOOL BAY","220B68C","2020-10-08 19:00","2020","10","08","19:00","-0.9","","-1.7","","95","","","","10","","17","","","M","99.84","","","","-6","","NA"
"-130.91","69.60","LIVERPOOL BAY","220B68C","2020-10-08 20:00","2020","10","08","20:00","-0.9","","-1.4","","96","","","","10","","17","","","M","99.84","","","","-6","","NA"
"-130.91","69.60","LIVERPOOL BAY","220B68C","2020-10-08 21:00","2020","10","08","21:00","-1.1","","-1.3","","98","","","","11","","15","","","M","99.80","","","","-6","","NA"
"-130.91","69.60","LIVERPOOL BAY","220B68C","2020-10-08 22:00","2020","10","08","22:00","-1.0","","-1.2","","99","","","","10","","13","","","M","99.80","","","","-5","","NA"
"-130.91","69.60","LIVERPOOL BAY","220B68C","2020-10-08 23:00","2020","10","08","23:00","-1.1","","-1.2","","99","","","","10","","15","","","M","99.78","","","","-6","","NA"
"-130.91","69.60","LIVERPOOL BAY","220B68C","2020-10-09 00:00","2020","10","09","00:00","-1.2","","-1.3","","99","","","","10","","15","","","M","99.76","","","","-6","","NA"
"-130.91","69.60","LIVERPOOL BAY","220B68C","2020-10-09 01:00","2020","10","09","01:00","-1.0","","-1.2","","99","","","","10","","13","","","M","99.76","","","","-5","","NA"
"-130.91","69.60","LIVERPOOL BAY","220B68C","2020-10-09 02:00","2020","10","09","02:00","-1.0","","-1.3","","98","","","","9","","15","","","M","99.75","","","","-6","","NA"
"-130.91","69.60","LIVERPOOL BAY","220B68C","2020-10-09 03:00","2020","10","09","03:00","-1.0","","-1.3","","98","","","","10","","13","","","M","99.75","","","","-5","","NA"
"-130.91","69.60","LIVERPOOL BAY","220B68C","2020-10-09 04:00","2020","10","09","04:00","-1.1","","-1.5","","97","","","","9","","17","","","M","99.72","","","","-6","","NA"
"-130.91","69.60","LIVERPOOL BAY","220B68C","2020-10-09 05:00","2020","10","09","05:00","-1.1","","-1.5","","97","","","","9","","18","","","M","99.70","","","","-6","","NA"
"-130.91","69.60","LIVERPOOL BAY","220B68C","2020-10-09 06:00","2020","10","09","06:00","-1.3","","-1.4","","99","","","","9","","17","","","M","99.68","","","","-6","","NA"
"-130.91","69.60","LIVERPOOL BAY","220B68C","2020-10-09 07:00","2020","10","09","07:00","-1.2","","-1.3","","99","","","","9","","21","","","M","99.66","","","","-7","","NA"
"-130.91","69.60","LIVERPOOL BAY","220B68C","2020-10-09 08:00","2020","10","09","08:00","-1.1","","-1.2","","99","","","","9","","15","","","M","99.65","","","","-6","","NA"
"-130.91","69.60","LIVERPOOL BAY","220B68C","2020-10-09 09:00","2020","10","09","09:00","-1.2","","-1.3","","99","","","","10","","15","","","M","99.64","","","","-6","","NA"
"-130.91","69.60","LIVERPOOL BAY","220B68C","2020-10-09 10:00","2020","10","09","10:00","-1.0","","-1.1","","99","","","","10","","11","","","M","99.62","","","","-5","","NA"
"-130.91","69.60","LIVERPOOL BAY","220B68C","2020-10-09 11:00","2020","10","09","11:00","-0.8","","-0.9","","99","","","","10","","11","","","M","99.61","","","","-5","","NA"
"-130.91","69.60","LIVERPOOL BAY","220B68C","2020-10-09 12:00","2020","10","09","12:00","-0.6","","-0.7","","99","","","","9","","9","","","M","99.58","","","","-4","","NA"
"-130.91","69.60","LIVERPOOL BAY","220B68C","2020-10-09 13:00","2020","10","09","13:00","-0.5","","-0.6","","99","","","","9","","11","","","M","99.56","","","","-4","","NA"
"-130.91","69.60","LIVERPOOL BAY","220B68C","2020-10-09 14:00","2020","10","09","14:00","-0.5","","-0.6","","99","","","","10","","9","","","M","99.54","","","","-4","","NA"
"-130.91","69.60","LIVERPOOL BAY","220B68C","2020-10-09 15:00","2020","10","09","15:00","-0.5","","-0.6","","99","","","","7","","13","","","M","99.50","","","","-5","","NA"
"-130.91","69.60","LIVERPOOL BAY","220B68C","2020-10-09 16:00","2020","10","09","16:00","-0.8","","-0.9","","99","","","","8","","15","","","M","99.46","","","","-5","","NA"
"-130.91","69.60","LIVERPOOL BAY","220B68C","2020-10-09 17:00","2020","10","09","17:00","-1.1","","-1.3","","99","","","","8","","15","","","M","99.43","","","","-6","","NA"
"-130.91","69.60","LIVERPOOL BAY","220B68C","2020-10-09 18:00","2020","10","09","18:00","-1.4","","-1.7","","98","","","","8","","17","","","M","99.39","","","","-7","","NA"
"-130.91","69.60","LIVERPOOL BAY","220B68C","2020-10-09 19:00","2020","10","09","19:00","-1.6","","-2.0","","97","","","","7","","15","","","M","99.36","","","","-6","","NA"
"-130.91","69.60","LIVERPOOL BAY","220B68C","2020-10-09 20:00","2020","10","09","20:00","-1.7","","-2.0","","98","","","","7","","9","","","M","99.35","","","","-5","","NA"
"-130.91","69.60","LIVERPOOL BAY","220B68C","2020-10-09 21:00","2020","10","09","21:00","-1.8","","-2.0","","99","","","","6","","11","","","M","99.31","","","","-6","","NA"
"-130.91","69.60","LIVERPOOL BAY","220B68C","2020-10-09 22:00","2020","10","09","22:00","-1.6","","-1.7","","99","","","","4","","9","","","M","99.28","","","","-5","","NA"
"-130.91","69.60","LIVERPOOL BAY","220B68C","2020-10-09 23:00","2020","10","09","23:00","-1.7","","-1.8","","99","","","","2","","9","","","M","99.26","","","","-5","","NA"
"-130.91","69.60","LIVERPOOL BAY","220B68C","2020-10-10 00:00","2020","10","10","00:00","-2.5","","-2.6","","99","","","","2","","13","","","M","99.23","","","","-7","","NA"
"-130.91","69.60","LIVERPOOL BAY","220B68C","2020-10-10 01:00","2020","10","10","01:00","-2.0","","-2.1","","99","","","","1","","9","","","M","99.21","","","","-5","","NA"
"-130.91","69.60","LIVERPOOL BAY","220B68C","2020-10-10 02:00","2020","10","10","02:00","-1.7","","-1.8","","99","","","","36","","13","","","M","99.15","","","","-6","","NA"
"-130.91","69.60","LIVERPOOL BAY","220B68C","2020-10-10 03:00","2020","10","10","03:00","-1.9","","-2.0","","99","","","","35","","13","","","M","99.13","","","","-6","","NA"
"-130.91","69.60","LIVERPOOL BAY","220B68C","2020-10-10 04:00","2020","10","10","04:00","-2.5","","-2.6","","99","","","","34","","13","","","M","99.09","","","","-7","","NA"
"-130.91","69.60","LIVERPOOL BAY","220B68C","2020-10-10 05:00","2020","10","10","05:00","-2.4","","-2.5","","99","","","","32","","13","","","M","99.06","","","","-7","","NA"
"-130.91","69.60","LIVERPOOL BAY","220B68C","2020-10-10 06:00","2020","10","10","06:00","-3.4","","-3.5","","99","","","","33","","13","","","M","99.04","","","","-8","","NA"
"-130.91","69.60","LIVERPOOL BAY","220B68C","2020-10-10 07:00","2020","10","10","07:00","-3.4","","-3.6","","99","","","","32","","13","","","M","99.01","","","","-8","","NA"
"-130.91","69.60","LIVERPOOL BAY","220B68C","2020-10-10 08:00","2020","10","10","08:00","-3.0","","-3.1","","99","","","","32","","9","","","M","98.99","","","","-7","","NA"
"-130.91","69.60","LIVERPOOL BAY","220B68C","2020-10-10 09:00","2020","10","10","09:00","-3.4","","-3.5","","99","","","","32","","8","","","M","98.98","","","","-7","","NA"
"-130.91","69.60","LIVERPOOL BAY","220B68C","2020-10-10 10:00","2020","10","10","10:00","-2.7","","-2.8","","99","","","","31","","9","","","M","98.97","","","","-6","","NA"
"-130.91","69.60","LIVERPOOL BAY","220B68C","2020-10-10 11:00","2020","10","10","11:00","-2.3","","-2.4","","99","","","","31","","5","","","M","98.98","","","","-4","","NA"
"-130.91","69.60","LIVERPOOL BAY","220B68C","2020-10-10 12:00","2020","10","10","12:00","-2.2","","-3.3","","92","","","","33","","4","","","M","98.97","","","","-4","","NA"
"-130.91","69.60","LIVERPOOL BAY","220B68C","2020-10-10 13:00","2020","10","10","13:00","-2.0","","-4.4","","83","","","","32","","9","","","M","98.97","","","","-5","","NA"
"-130.91","69.60","LIVERPOOL BAY","220B68C","2020-10-10 14:00","2020","10","10","14:00","-2.1","","-5.1","","80","","","","29","","8","","","M","98.98","","","","-5","","NA"
"-130.91","69.60","LIVERPOOL BAY","220B68C","2020-10-10 15:00","2020","10","10","15:00","-2.0","","-4.5","","83","","","","34","","8","","","M","98.97","","","","-5","","NA"
"-130.91","69.60","LIVERPOOL BAY","220B68C","2020-10-10 16:00","2020","10","10","16:00","-2.0","","-5.4","","77","","","","20","","4","","","M","98.98","","","","-3","","NA"
"-130.91","69.60","LIVERPOOL BAY","220B68C","2020-10-10 17:00","2020","10","10","17:00","-2.5","","-4.9","","83","","","","24","","9","","","M","98.98","","","","-6","","NA"
"-130.91","69.60","LIVERPOOL BAY","220B68C","2020-10-10 18:00","2020","10","10","18:00","-2.8","","-5.1","","84","","","","32","","4","","","M","98.98","","","","-4","","NA"
"-130.91","69.60","LIVERPOOL BAY","220B68C","2020-10-10 19:00","2020","10","10","19:00","-3.1","","-4.8","","88","","","","35","","5","","","M","99.00","","","","-5","","NA"
"-130.91","69.60","LIVERPOOL BAY","220B68C","2020-10-10 20:00","2020","10","10","20:00","-3.0","","-5.3","","85","","","","11","","2","","","M","99.02","","","","-4","","NA"
"-130.91","69.60","LIVERPOOL BAY","220B68C","2020-10-10 21:00","2020","10","10","21:00","-3.1","","-5.5","","83","","","","21","","5","","","M","99.02","","","","-5","","NA"
"-130.91","69.60","LIVERPOOL BAY","220B68C","2020-10-10 22:00","2020","10","10","22:00","-3.0","","-5.8","","81","","","","8","","5","","","M","99.04","","","","-5","","NA"
"-130.91","69.60","LIVERPOOL BAY","220B68C","2020-10-10 23:00","2020","10","10","23:00","-3.1","","-6.0","","81","","","","7","","4","","","M","99.05","","","","-5","","NA"
"-130.91","69.60","LIVERPOOL BAY","220B68C","2020-10-11 00:00","2020","10","11","00:00","-3.2","","-6.1","","80","","","","24","","4","","","M","99.07","","","","-5","","NA"
"-130.91","69.60","LIVERPOOL BAY","220B68C","2020-10-11 01:00","2020","10","11","01:00","-3.5","","-5.8","","84","","","","29","","9","","","M","99.09","","","","-7","","NA"
"-130.91","69.60","LIVERPOOL BAY","220B68C","2020-10-11 02:00","2020","10","11","02:00","-3.5","","-5.1","","89","","","","33","","13","","","M","99.11","","","","-8","","NA"
"-130.91","69.60","LIVERPOOL BAY","220B68C","2020-10-11 03:00","2020","10","11","03:00","-3.5","","-5.1","","88","","","","33","","13","","","M","99.12","","","","-8","","NA"
"-130.91","69.60","LIVERPOOL BAY","220B68C","2020-10-11 04:00","2020","10","11","04:00","-3.8","","-5.4","","88","","","","32","","13","","","M","99.13","","","","-9","","NA"
"-130.91","69.60","LIVERPOOL BAY","220B68C","2020-10-11 05:00","2020","10","11","05:00","-4.9","","-6.0","","92","","","","32","","13","","","M","99.13","","","","-10","","NA"
"-130.91","69.60","LIVERPOOL BAY","220B68C","2020-10-11 06:00","2020","10","11","06:00","-4.4","","-5.0","","96","","","","32","","13","","","M","99.15","","","","-9","","NA"
"-130.91","69.60","LIVERPOOL BAY","220B68C","2020-10-11 07:00","2020","10","11","07:00","-4.9","","-5.2","","98","","","","30","","9","","","M","99.18","","","","-9","","NA"
"-130.91","69.60","LIVERPOOL BAY","220B68C","2020-10-11 08:00","2020","10","11","08:00","-4.2","","-4.3","","99","","","","30","","9","","","M","99.20","","","","-8","","NA"
"-130.91","69.60","LIVERPOOL BAY","220B68C","2020-10-11 09:00","2020","10","11","09:00","-3.8","","-3.9","","99","","","","32","","8","","","M","99.23","","","","-7","","NA"
"-130.91","69.60","LIVERPOOL BAY","220B68C","2020-10-11 10:00","2020","10","11","10:00","-3.3","","-3.9","","95","","","","1","","4","","","M","99.25","","","","-5","","NA"
"-130.91","69.60","LIVERPOOL BAY","220B68C","2020-10-11 11:00","2020","10","11","11:00","-2.9","","-3.5","","96","","","","36","","5","","","M","99.27","","","","-5","","NA"
"-130.91","69.60","LIVERPOOL BAY","220B68C","2020-10-11 12:00","2020","10","11","12:00","-2.4","","-3.5","","92","","","","33","","9","","","M","99.32","","","","-6","","NA"
"-130.91","69.60","LIVERPOOL BAY","220B68C","2020-10-11 13:00","2020","10","11","13:00","-2.0","","-4.1","","85","","","","32","","11","","","M","99.35","","","","-6","","NA"
"-130.91","69.60","LIVERPOOL BAY","220B68C","2020-10-11 14:00","2020","10","11","14:00","-2.2","","-3.3","","92","","","","28","","13","","","M","99.34","","","","-7","","NA"
"-130.91","69.60","LIVERPOOL BAY","220B68C","2020-10-11 15:00","2020","10","11","15:00","-3.2","","-3.6","","97","","","","36","","30","","","M","99.41","","","","-11","","NA"
"-130.91","69.60","LIVERPOOL BAY","220B68C","2020-10-11 16:00","2020","10","11","16:00","-2.8","","-3.4","","96","","","","1","","26","","","M","99.44","","","","-10","","NA"
"-130.91","69.60","LIVERPOOL BAY","220B68C","2020-10-11 17:00","2020","10","11","17:00","-3.2","","-3.4","","99","","","","36","","24","","","M","99.48","","","","-10","","NA"
"-130.91","69.60","LIVERPOOL BAY","220B68C","2020-10-11 18:00","2020","10","11","18:00","-3.5","","-3.9","","97","","","","36","","34","","","M","99.54","","","","-11","","NA"
"-130.91","69.60","LIVERPOOL BAY","220B68C","2020-10-11 19:00","2020","10","11","19:00","-4.2","","-5.0","","94","","","","36","","30","","","M","99.64","","","","-12","","NA"
"-130.91","69.60","LIVERPOOL BAY","220B68C","2020-10-11 20:00","2020","10","11","20:00","-4.7","","-5.4","","94","","","","35","","39","","","M","99.70","","","","-14","","NA"
"-130.91","69.60","LIVERPOOL BAY","220B68C","2020-10-11 21:00","2020","10","11","21:00","-5.2","","-6.1","","93","","","","34","","39","","","M","99.78","","","","-14","","NA"
"-130.91","69.60","LIVERPOOL BAY","220B68C","2020-10-11 22:00","2020","10","11","22:00","-5.6","","-6.7","","92","","","","34","","37","","","M","99.84","","","","-15","","NA"
"-130.91","69.60","LIVERPOOL BAY","220B68C","2020-10-11 23:00","2020","10","11","23:00","-5.6","","-6.6","","93","","","","34","","28","","","M","99.89","","","","-14","","NA"
"-130.91","69.60","LIVERPOOL BAY","220B68C","2020-10-12 00:00","2020","10","12","00:00","-5.7","","-7.9","","84","","","","32","","28","","","M","99.96","","","","-14","","NA"
"-130.91","69.60","LIVERPOOL BAY","220B68C","2020-10-12 01:00","2020","10","12","01:00","-5.9","","-7.2","","91","","","","32","","37","","","M","99.99","","","","-15","","NA"
"-130.91","69.60","LIVERPOOL BAY","220B68C","2020-10-12 02:00","2020","10","12","02:00","-6.2","","-6.8","","95","","","","32","","31","","","M","100.03","","","","-15","","NA"
"-130.91","69.60","LIVERPOOL BAY","220B68C","2020-10-12 03:00","2020","10","12","03:00","-6.5","","-8.4","","86","","","","30","","28","","","M","100.06","","","","-15","","NA"
"-130.91","69.60","LIVERPOOL BAY","220B68C","2020-10-12 04:00","2020","10","12","04:00","-6.7","","-7.3","","95","","","","30","","21","","","M","100.07","","","","-14","","NA"
"-130.91","69.60","LIVERPOOL BAY","220B68C","2020-10-12 05:00","2020","10","12","05:00","-6.3","","-7.6","","90","","","","31","","26","","","M","100.10","","","","-14","","NA"
"-130.91","69.60","LIVERPOOL BAY","220B68C","2020-10-12 06:00","2020","10","12","06:00","-6.6","","-7.2","","95","","","","29","","22","","","M","100.13","","","","-14","","NA"
"-130.91","69.60","LIVERPOOL BAY","220B68C","2020-10-12 07:00","2020","10","12","07:00","-6.2","","-9.2","","79","","","","29","","35","","","M","100.16","","","","-15","","NA"
"-130.91","69.60","LIVERPOOL BAY","220B68C","2020-10-12 08:00","2020","10","12","08:00","-6.5","","-9.4","","80","","","","30","","30","","","M","100.20","","","","-15","","NA"
"-130.91","69.60","LIVERPOOL BAY","220B68C","2020-10-12 09:00","2020","10","12","09:00","-7.0","","-8.6","","88","","","","29","","24","","","M","100.23","","","","-15","","NA"
"-130.91","69.60","LIVERPOOL BAY","220B68C","2020-10-12 10:00","2020","10","12","10:00","-7.7","","-8.3","","95","","","","28","","18","","","M","100.24","","","","-15","","NA"
"-130.91","69.60","LIVERPOOL BAY","220B68C","2020-10-12 11:00","2020","10","12","11:00","-5.1","","-8.8","","75","","","","29","","28","","","M","100.26","","","","-13","","NA"
"-130.91","69.60","LIVERPOOL BAY","220B68C","2020-10-12 12:00","2020","10","12","12:00","-5.9","","-6.5","","96","","","","33","","26","","","M","100.30","","","","-14","","NA"
"-130.91","69.60","LIVERPOOL BAY","220B68C","2020-10-12 13:00","2020","10","12","13:00","-5.5","","-6.1","","95","","","","35","","24","","","M","100.35","","","","-13","","NA"
"-130.91","69.60","LIVERPOOL BAY","220B68C","2020-10-12 14:00","2020","10","12","14:00","-5.4","","-7.7","","84","","","","33","","24","","","M","100.39","","","","-13","","NA"
"-130.91","69.60","LIVERPOOL BAY","220B68C","2020-10-12 15:00","2020","10","12","15:00","-5.9","","-7.1","","91","","","","32","","30","","","M","100.45","","","","-14","","NA"
"-130.91","69.60","LIVERPOOL BAY","220B68C","2020-10-12 16:00","2020","10","12","16:00","-6.1","","-9.8","","75","","","","32","","18","","","M","100.48","","","","-13","","NA"
"-130.91","69.60","LIVERPOOL BAY","220B68C","2020-10-12 17:00","2020","10","12","17:00","-7.2","","-10.6","","77","","","","31","","21","","","M","100.50","","","","-15","","NA"
"-130.91","69.60","LIVERPOOL BAY","220B68C","2020-10-12 18:00","2020","10","12","18:00","-6.8","","-9.5","","81","","","","30","","21","","","M","100.52","","","","-14","","NA"
"-130.91","69.60","LIVERPOOL BAY","220B68C","2020-10-12 19:00","2020","10","12","19:00","-6.5","","-8.9","","83","","","","31","","22","","","M","100.54","","","","-14","","NA"
"-130.91","69.60","LIVERPOOL BAY","220B68C","2020-10-12 20:00","2020","10","12","20:00","-5.9","","-6.1","","98","","","","33","","21","","","M","100.58","","","","-13","","NA"
"-130.91","69.60","LIVERPOOL BAY","220B68C","2020-10-12 21:00","2020","10","12","21:00","-5.8","","-6.9","","92","","","","35","","22","","","M","100.60","","","","-13","","NA"
"-130.91","69.60","LIVERPOOL BAY","220B68C","2020-10-12 22:00","2020","10","12","22:00","-6.4","","-6.8","","97","","","","34","","15","","","M","100.64","","","","-12","","NA"
"-130.91","69.60","LIVERPOOL BAY","220B68C","2020-10-12 23:00","2020","10","12","23:00","-6.2","","-8.4","","84","","","","35","","17","","","M","100.65","","","","-12","","NA"
"-130.91","69.60","LIVERPOOL BAY","220B68C","2020-10-13 00:00","2020","10","13","00:00","-6.4","","-8.6","","84","","","","33","","13","","","M","100.68","","","","-12","","NA"
"-130.91","69.60","LIVERPOOL BAY","220B68C","2020-10-13 01:00","2020","10","13","01:00","-6.7","","-7.6","","93","","","","31","","9","","","M","100.72","","","","-11","","NA"
"-130.91","69.60","LIVERPOOL BAY","220B68C","2020-10-13 02:00","2020","10","13","02:00","-6.7","","-7.7","","92","","","","33","","28","","","M","100.73","","","","-15","","NA"
"-130.91","69.60","LIVERPOOL BAY","220B68C","2020-10-13 03:00","2020","10","13","03:00","-6.7","","-8.7","","86","","","","31","","21","","","M","100.74","","","","-14","","NA"
"-130.91","69.60","LIVERPOOL BAY","220B68C","2020-10-13 04:00","2020","10","13","04:00","-7.1","","-8.5","","90","","","","31","","15","","","M","100.74","","","","-13","","NA"
"-130.91","69.60","LIVERPOOL BAY","220B68C","2020-10-13 05:00","2020","10","13","05:00","-7.1","","-8.9","","87","","","","29","","13","","","M","100.72","","","","-13","","NA"
"-130.91","69.60","LIVERPOOL BAY","220B68C","2020-10-13 06:00","2020","10","13","06:00","-6.9","","-9.7","","81","","","","30","","9","","","M","100.72","","","","-11","","NA"
"-130.91","69.60","LIVERPOOL BAY","220B68C","2020-10-13 07:00","2020","10","13","07:00","-6.7","","-9.8","","78","","","","27","","22","","","M","100.70","","","","-14","","NA"
"-130.91","69.60","LIVERPOOL BAY","220B68C","2020-10-13 08:00","2020","10","13","08:00","-7.2","","-8.4","","91","","","","28","","21","","","M","100.68","","","","-15","","NA"
"-130.91","69.60","LIVERPOOL BAY","220B68C","2020-10-13 09:00","2020","10","13","09:00","-7.0","","-7.6","","96","","","","28","","18","","","M","100.66","","","","-14","","NA"
"-130.91","69.60","LIVERPOOL BAY","220B68C","2020-10-13 10:00","2020","10","13","10:00","-6.8","","-7.5","","92","","","","27","","15","","","M","","M","","","-13","","NA"
"-130.91","69.60","LIVERPOOL BAY","220B68C","2020-10-13 11:00","2020","10","13","11:00","-6.6","","-7.5","","94","","","","26","","11","","","M","100.66","","","","-12","","NA"
"-130.91","69.60","LIVERPOOL BAY","220B68C","2020-10-13 12:00","2020","10","13","12:00","-6.4","","-7.4","","93","","","","28","","13","","","M","100.64","","","","-12","","NA"
"-130.91","69.60","LIVERPOOL BAY","220B68C","2020-10-13 13:00","2020","10","13","13:00","-4.8","","-6.8","","86","","","","31","","15","","","M","100.64","","","","-10","","NA"
"-130.91","69.60","LIVERPOOL BAY","220B68C","2020-10-13 14:00","2020","10","13","14:00","-6.2","","-8.5","","84","","","","3","","11","","","M","100.67","","","","-11","","NA"
"-130.91","69.60","LIVERPOOL BAY","220B68C","2020-10-13 15:00","2020","10","13","15:00","-6.3","","-9.0","","81","","","","1","","15","","","M","100.68","","","","-12","","NA"
"-130.91","69.60","LIVERPOOL BAY","220B68C","2020-10-13 16:00","2020","10","13","16:00","-6.4","","-9.4","","79","","","","36","","11","","","M","100.73","","","","-11","","NA"
"-130.91","69.60","LIVERPOOL BAY","220B68C","2020-10-13 17:00","2020","10","13","17:00","-6.9","","-9.5","","82","","","","33","","5","","","M","100.73","","","","-9","","NA"
"-130.91","69.60","LIVERPOOL BAY","220B68C","2020-10-13 18:00","2020","10","13","18:00","-7.1","","-9.6","","82","","","","31","","9","","","M","100.78","","","","-11","","NA"
"-130.91","69.60","LIVERPOOL BAY","220B68C","2020-10-13 19:00","2020","10","13","19:00","-6.8","","-10.1","","77","","","","31","","17","","","M","100.82","","","","-13","","NA"
"-130.91","69.60","LIVERPOOL BAY","220B68C","2020-10-13 20:00","2020","10","13","20:00","-7.4","","-9.0","","88","","","","29","","9","","","M","100.85","","","","-12","","NA"
"-130.91","69.60","LIVERPOOL BAY","220B68C","2020-10-13 21:00","2020","10","13","21:00","-7.1","","-9.1","","85","","","","30","","13","","","M","100.85","","","","-13","","NA"
"-130.91","69.60","LIVERPOOL BAY","220B68C","2020-10-13 22:00","2020","10","13","22:00","-7.1","","-8.9","","87","","","","31","","11","","","M","100.86","","","","-12","","NA"
"-130.91","69.60","LIVERPOOL BAY","220B68C","2020-10-13 23:00","2020","10","13","23:00","-7.4","","-8.8","","89","","","","33","","11","","","M","100.89","","","","-12","","NA"
"-130.91","69.60","LIVERPOOL BAY","220B68C","2020-10-14 00:00","2020","10","14","00:00","-7.5","","-8.2","","94","","","","32","","9","","","M","100.95","","","","-12","","NA"
"-130.91","69.60","LIVERPOOL BAY","220B68C","2020-10-14 01:00","2020","10","14","01:00","-7.6","","-7.8","","98","","","","32","","9","","","M","100.99","","","","-12","","NA"
"-130.91","69.60","LIVERPOOL BAY","220B68C","2020-10-14 02:00","2020","10","14","02:00","-7.5","","-8.0","","96","","","","33","","8","","","M","101.05","","","","-12","","NA"
"-130.91","69.60","LIVERPOOL BAY","220B68C","2020-10-14 03:00","2020","10","14","03:00","-7.3","","-8.4","","92","","","","30","","11","","","M","101.09","","","","-12","","NA"
"-130.91","69.60","LIVERPOOL BAY","220B68C","2020-10-14 04:00","2020","10","14","04:00","-9.2","","-10.3","","91","","","","28","","11","","","M","101.14","","","","-15","","NA"
"-130.91","69.60","LIVERPOOL BAY","220B68C","2020-10-14 05:00","2020","10","14","05:00","-9.1","","-11.1","","85","","","","31","","18","","","M","101.18","","","","-16","","NA"
"-130.91","69.60","LIVERPOOL BAY","220B68C","2020-10-14 06:00","2020","10","14","06:00","-9.2","","-11.7","","82","","","","31","","17","","","M","101.21","","","","-16","","NA"
"-130.91","69.60","LIVERPOOL BAY","220B68C","2020-10-14 07:00","2020","10","14","07:00","-8.3","","-10.6","","83","","","","29","","11","","","M","101.24","","","","-14","","NA"
"-130.91","69.60","LIVERPOOL BAY","220B68C","2020-10-14 08:00","2020","10","14","08:00","-7.5","","-10.1","","82","","","","26","","8","","","M","101.27","","","","-12","","NA"
"-130.91","69.60","LIVERPOOL BAY","220B68C","2020-10-14 09:00","2020","10","14","09:00","-7.6","","-10.3","","81","","","","23","","13","","","M","101.28","","","","-13","","NA"
"-130.91","69.60","LIVERPOOL BAY","220B68C","2020-10-14 10:00","2020","10","14","10:00","-6.4","","-9.0","","82","","","","25","","18","","","M","101.28","","","","-13","","NA"
"-130.91","69.60","LIVERPOOL BAY","220B68C","2020-10-14 11:00","2020","10","14","11:00","-5.5","","-7.6","","85","","","","26","","21","","","M","101.30","","","","-12","","NA"
"-130.91","69.60","LIVERPOOL BAY","220B68C","2020-10-14 12:00","2020","10","14","12:00","-5.1","","-7.1","","86","","","","25","","26","","","M","101.32","","","","-13","","NA"
"-130.91","69.60","LIVERPOOL BAY","220B68C","2020-10-14 13:00","2020","10","14","13:00","-4.6","","-5.9","","91","","","","27","","26","","","M","101.35","","","","-12","","NA"
"-130.91","69.60","LIVERPOOL BAY","220B68C","2020-10-14 14:00","2020","10","14","14:00","-4.2","","-4.8","","96","","","","27","","28","","","M","101.35","","","","-12","","NA"
"-130.91","69.60","LIVERPOOL BAY","220B68C","2020-10-14 15:00","2020","10","14","15:00","-3.8","","-4.5","","95","","","","28","","21","","","M","101.36","","","","-10","","NA"
"-130.91","69.60","LIVERPOOL BAY","220B68C","2020-10-14 16:00","2020","10","14","16:00","-3.7","","-5.3","","88","","","","30","","21","","","M","101.42","","","","-10","","NA"
"-130.91","69.60","LIVERPOOL BAY","220B68C","2020-10-14 17:00","2020","10","14","17:00","-4.0","","-6.3","","84","","","","32","","22","","","M","101.48","","","","-11","","NA"
"-130.91","69.60","LIVERPOOL BAY","220B68C","2020-10-14 18:00","2020","10","14","18:00","-6.7","","-8.2","","89","","","","31","","22","","","M","101.52","","","","-14","","NA"
"-130.91","69.60","LIVERPOOL BAY","220B68C","2020-10-14 19:00","2020","10","14","19:00","-6.3","","-9.0","","81","","","","30","","22","","","M","101.55","","","","-14","","NA"
"-130.91","69.60","LIVERPOOL BAY","220B68C","2020-10-14 20:00","2020","10","14","20:00","-7.2","","-9.5","","84","","","","30","","21","","","M","101.56","","","","-15","","NA"
"-130.91","69.60","LIVERPOOL BAY","220B68C","2020-10-14 21:00","2020","10","14","21:00","-6.9","","-8.7","","87","","","","32","","18","","","M","101.58","","","","-14","","NA"
"-130.91","69.60","LIVERPOOL BAY","220B68C","2020-10-14 22:00","2020","10","14","22:00","-6.1","","-6.6","","97","","","","34","","21","","","M","101.61","","","","-13","","NA"
"-130.91","69.60","LIVERPOOL BAY","220B68C","2020-10-14 23:00","2020","10","14","23:00","-7.9","","-9.4","","89","","","","36","","17","","","M","101.66","","","","-15","","NA"
"-130.91","69.60","LIVERPOOL BAY","220B68C","2020-10-15 00:00","2020","10","15","00:00","-8.9","","-10.4","","89","","","","36","","15","","","M","101.73","","","","-15","","NA"
"-130.91","69.60","LIVERPOOL BAY","220B68C","2020-10-15 01:00","2020","10","15","01:00","-8.2","","-10.3","","85","","","","36","","11","","","M","101.78","","","","-13","","NA"
"-130.91","69.60","LIVERPOOL BAY","220B68C","2020-10-15 02:00","2020","10","15","02:00","-7.5","","-10.3","","80","","","","32","","11","","","M","101.81","","","","-13","","NA"
"-130.91","69.60","LIVERPOOL BAY","220B68C","2020-10-15 03:00","2020","10","15","03:00","-7.0","","-9.8","","80","","","","30","","15","","","M","101.82","","","","-13","","NA"
"-130.91","69.60","LIVERPOOL BAY","220B68C","2020-10-15 04:00","2020","10","15","04:00","-6.9","","-9.2","","84","","","","32","","9","","","M","101.84","","","","-11","","NA"
"-130.91","69.60","LIVERPOOL BAY","220B68C","2020-10-15 05:00","2020","10","15","05:00","-6.6","","-8.2","","88","","","","30","","15","","","M","101.81","","","","-13","","NA"
"-130.91","69.60","LIVERPOOL BAY","220B68C","2020-10-15 06:00","2020","10","15","06:00","-8.4","","-9.8","","89","","","","32","","24","","","M","101.81","","","","-17","","NA"
"-130.91","69.60","LIVERPOOL BAY","220B68C","2020-10-15 07:00","2020","10","15","07:00","-7.3","","-7.8","","96","","","","31","","24","","","M","101.81","","","","-15","","NA"
"-130.91","69.60","LIVERPOOL BAY","220B68C","2020-10-15 08:00","2020","10","15","08:00","-7.4","","-8.0","","95","","","","31","","30","","","M","101.78","","","","-16","","NA"
"-130.91","69.60","LIVERPOOL BAY","220B68C","2020-10-15 09:00","2020","10","15","09:00","-7.9","","-9.2","","91","","","","32","","28","","","M","101.80","","","","-17","","NA"
"-130.91","69.60","LIVERPOOL BAY","220B68C","2020-10-15 10:00","2020","10","15","10:00","-7.9","","-9.2","","90","","","","32","","24","","","M","101.81","","","","-16","","NA"
"-130.91","69.60","LIVERPOOL BAY","220B68C","2020-10-15 11:00","2020","10","15","11:00","-7.9","","-8.8","","93","","","","31","","22","","","M","101.81","","","","-16","","NA"
"-130.91","69.60","LIVERPOOL BAY","220B68C","2020-10-15 12:00","2020","10","15","12:00","-7.9","","-9.3","","89","","","","31","","24","","","M","101.83","","","","-16","","NA"
"-130.91","69.60","LIVERPOOL BAY","220B68C","2020-10-15 13:00","2020","10","15","13:00","-7.5","","-9.2","","88","","","","33","","24","","","M","101.81","","","","-15","","NA"
"-130.91","69.60","LIVERPOOL BAY","220B68C","2020-10-15 14:00","2020","10","15","14:00","-7.5","","-8.9","","90","","","","32","","22","","","M","101.82","","","","-15","","NA"
"-130.91","69.60","LIVERPOOL BAY","220B68C","2020-10-15 15:00","2020","10","15","15:00","-7.8","","-9.0","","91","","","","32","","24","","","M","101.81","","","","-16","","NA"
"-130.91","69.60","LIVERPOOL BAY","220B68C","2020-10-15 16:00","2020","10","15","16:00","-7.8","","-9.1","","91","","","","30","","24","","","M","101.78","","","","-16","","NA"
"-130.91","69.60","LIVERPOOL BAY","220B68C","2020-10-15 17:00","2020","10","15","17:00","-7.9","","-9.1","","91","","","","31","","21","","","M","101.77","","","","-15","","NA"
"-130.91","69.60","LIVERPOOL BAY","220B68C","2020-10-15 18:00","2020","10","15","18:00","-8.0","","-9.1","","91","","","","29","","26","","","M","101.73","","","","-16","","NA"
"-130.91","69.60","LIVERPOOL BAY","220B68C","2020-10-15 19:00","2020","10","15","19:00","-7.9","","-9.3","","89","","","","29","","24","","","M","101.68","","","","-16","","NA"
"-130.91","69.60","LIVERPOOL BAY","220B68C","2020-10-15 20:00","2020","10","15","20:00","-7.7","","-9.0","","90","","","","28","","22","","","M","101.65","","","","-15","","NA"
"-130.91","69.60","LIVERPOOL BAY","220B68C","2020-10-15 21:00","2020","10","15","21:00","-7.3","","-8.7","","90","","","","30","","26","","","M","101.59","","","","-15","","NA"
"-130.91","69.60","LIVERPOOL BAY","220B68C","2020-10-15 22:00","2020","10","15","22:00","-7.1","","-8.6","","89","","","","30","","24","","","M","101.59","","","","-15","","NA"
"-130.91","69.60","LIVERPOOL BAY","220B68C","2020-10-15 23:00","2020","10","15","23:00","-7.1","","-8.4","","90","","","","30","","28","","","M","101.59","","","","-15","","NA"
"-130.91","69.60","LIVERPOOL BAY","220B68C","2020-10-16 00:00","2020","10","16","00:00","-7.0","","-8.1","","92","","","","30","","28","","","M","101.55","","","","-15","","NA"
"-130.91","69.60","LIVERPOOL BAY","220B68C","2020-10-16 01:00","2020","10","16","01:00","-7.3","","-8.8","","89","","","","30","","34","","","M","101.53","","","","-16","","NA"
"-130.91","69.60","LIVERPOOL BAY","220B68C","2020-10-16 02:00","2020","10","16","02:00","-7.3","","-8.4","","92","","","","29","","28","","","M","101.52","","","","-16","","NA"
"-130.91","69.60","LIVERPOOL BAY","220B68C","2020-10-16 03:00","2020","10","16","03:00","-7.3","","-8.6","","91","","","","30","","37","","","M","101.51","","","","-17","","NA"
"-130.91","69.60","LIVERPOOL BAY","220B68C","2020-10-16 04:00","2020","10","16","04:00","-7.4","","-8.3","","93","","","","30","","37","","","M","101.50","","","","-17","","NA"
"-130.91","69.60","LIVERPOOL BAY","220B68C","2020-10-16 05:00","2020","10","16","05:00","-7.2","","-8.3","","91","","","","30","","30","","","M","101.50","","","","-16","","NA"
"-130.91","69.60","LIVERPOOL BAY","220B68C","2020-10-16 06:00","2020","10","16","06:00","-7.0","","-7.8","","94","","","","30","","35","","","M","101.51","","","","-16","","NA"
"-130.91","69.60","LIVERPOOL BAY","220B68C","2020-10-16 07:00","2020","10","16","07:00","-6.9","","-7.5","","96","","","","31","","37","","","M","101.51","","","","-16","","NA"
"-130.91","69.60","LIVERPOOL BAY","220B68C","2020-10-16 08:00","2020","10","16","08:00","-6.8","","-7.3","","96","","","","30","","35","","","M","101.53","","","","-16","","NA"
"-130.91","69.60","LIVERPOOL BAY","220B68C","2020-10-16 09:00","2020","10","16","09:00","-6.7","","-7.5","","94","","","","31","","35","","","M","101.56","","","","-16","","NA"
"-130.91","69.60","LIVERPOOL BAY","220B68C","2020-10-16 10:00","2020","10","16","10:00","-6.5","","-7.2","","94","","","","31","","34","","","M","101.59","","","","-15","","NA"
"-130.91","69.60","LIVERPOOL BAY","220B68C","2020-10-16 11:00","2020","10","16","11:00","-6.4","","-7.3","","93","","","","30","","35","","","M","101.62","","","","-15","","NA"
"-130.91","69.60","LIVERPOOL BAY","220B68C","2020-10-16 12:00","2020","10","16","12:00","-6.3","","-7.2","","93","","","","30","","41","","","M","101.66","","","","-16","","NA"
"-130.91","69.60","LIVERPOOL BAY","220B68C","2020-10-16 13:00","2020","10","16","13:00","-6.2","","-7.1","","93","","","","30","","35","","","M","101.72","","","","-15","","NA"
"-130.91","69.60","LIVERPOOL BAY","220B68C","2020-10-16 14:00","2020","10","16","14:00","-6.1","","-7.0","","93","","","","30","","35","","","M","101.75","","","","-15","","NA"
"-130.91","69.60","LIVERPOOL BAY","220B68C","2020-10-16 15:00","2020","10","16","15:00","-6.1","","-7.2","","92","","","","30","","39","","","M","101.80","","","","-15","","NA"
"-130.91","69.60","LIVERPOOL BAY","220B68C","2020-10-16 16:00","2020","10","16","16:00","-6.1","","-7.1","","93","","","","30","","39","","","M","101.83","","","","-15","","NA"
"-130.91","69.60","LIVERPOOL BAY","220B68C","2020-10-16 17:00","2020","10","16","17:00","-6.1","","-7.0","","93","","","","29","","39","","","M","101.85","","","","-15","","NA"
"-130.91","69.60","LIVERPOOL BAY","220B68C","2020-10-16 18:00","2020","10","16","18:00","-6.2","","-6.9","","95","","","","29","","30","","","M","101.86","","","","-15","","NA"
"-130.91","69.60","LIVERPOOL BAY","220B68C","2020-10-16 19:00","2020","10","16","19:00","-6.3","","-7.1","","94","","","","29","","39","","","M","101.87","","","","-16","","NA"
"-130.91","69.60","LIVERPOOL BAY","220B68C","2020-10-16 20:00","2020","10","16","20:00","-6.4","","-7.1","","95","","","","29","","41","","","M","101.86","","","","-16","","NA"
"-130.91","69.60","LIVERPOOL BAY","220B68C","2020-10-16 21:00","2020","10","16","21:00","-6.6","","-7.2","","96","","","","28","","30","","","M","101.88","","","","-15","","NA"
"-130.91","69.60","LIVERPOOL BAY","220B68C","2020-10-16 22:00","2020","10","16","22:00","-6.9","","-7.5","","95","","","","29","","34","","","M","101.86","","","","-16","","NA"
"-130.91","69.60","LIVERPOOL BAY","220B68C","2020-10-16 23:00","2020","10","16","23:00","-6.8","","-7.5","","95","","","","29","","35","","","M","101.85","","","","-16","","NA"
"-130.91","69.60","LIVERPOOL BAY","220B68C","2020-10-17 00:00","2020","10","17","00:00","-6.7","","-7.4","","94","","","","28","","30","","","M","101.85","","","","-15","","NA"
"-130.91","69.60","LIVERPOOL BAY","220B68C","2020-10-17 01:00","2020","10","17","01:00","-6.7","","-7.4","","94","","","","28","","30","","","M","101.84","","","","-15","","NA"
"-130.91","69.60","LIVERPOOL BAY","220B68C","2020-10-17 02:00","2020","10","17","02:00","-6.6","","-7.5","","93","","","","28","","24","","","M","101.83","","","","-14","","NA"
"-130.91","69.60","LIVERPOOL BAY","220B68C","2020-10-17 03:00","2020","10","17","03:00","-6.4","","-7.3","","93","","","","28","","30","","","M","101.80","","","","-15","","NA"
"-130.91","69.60","LIVERPOOL BAY","220B68C","2020-10-17 04:00","2020","10","17","04:00","-6.4","","-7.5","","92","","","","26","","24","","","M","101.78","","","","-14","","NA"
"-130.91","69.60","LIVERPOOL BAY","220B68C","2020-10-17 05:00","2020","10","17","05:00","-6.8","","-8.6","","87","","","","25","","26","","","M","101.76","","","","-15","","NA"
"-130.91","69.60","LIVERPOOL BAY","220B68C","2020-10-17 06:00","2020","10","17","06:00","-7.2","","-9.4","","84","","","","25","","22","","","M","101.75","","","","-15","","NA"
"-130.91","69.60","LIVERPOOL BAY","220B68C","2020-10-17 07:00","2020","10","17","07:00","-8.9","","-10.8","","86","","","","28","","18","","","M","101.71","","","","-16","","NA"
"-130.91","69.60","LIVERPOOL BAY","220B68C","2020-10-17 08:00","2020","10","17","08:00","-9.9","","-10.9","","93","","","","24","","15","","","M","101.69","","","","-17","","NA"
"-130.91","69.60","LIVERPOOL BAY","220B68C","2020-10-17 09:00","2020","10","17","09:00","-9.4","","-10.1","","94","","","","22","","21","","","M","101.65","","","","-17","","NA"
"-130.91","69.60","LIVERPOOL BAY","220B68C","2020-10-17 10:00","2020","10","17","10:00","-9.9","","-10.6","","95","","","","22","","15","","","M","101.65","","","","-17","","NA"
"-130.91","69.60","LIVERPOOL BAY","220B68C","2020-10-17 11:00","2020","10","17","11:00","-8.7","","-9.7","","92","","","","21","","11","","","M","101.62","","","","-14","","NA"
"-130.91","69.60","LIVERPOOL BAY","220B68C","2020-10-17 12:00","2020","10","17","12:00","-7.5","","-9.3","","87","","","","19","","9","","","M","101.61","","","","-12","","NA"
"-130.91","69.60","LIVERPOOL BAY","220B68C","2020-10-17 13:00","2020","10","17","13:00","-7.4","","-9.4","","85","","","","17","","11","","","M","101.56","","","","-12","","NA"
"-130.91","69.60","LIVERPOOL BAY","220B68C","2020-10-17 14:00","2020","10","17","14:00","-7.6","","-9.5","","86","","","","18","","15","","","M","101.52","","","","-14","","NA"
"-130.91","69.60","LIVERPOOL BAY","220B68C","2020-10-17 15:00","2020","10","17","15:00","-7.9","","-10.5","","81","","","","17","","11","","","M","101.48","","","","-13","","NA"
"-130.91","69.60","LIVERPOOL BAY","220B68C","2020-10-17 16:00","2020","10","17","16:00","-8.6","","-10.9","","84","","","","17","","13","","","M","101.45","","","","-15","","NA"
"-130.91","69.60","LIVERPOOL BAY","220B68C","2020-10-17 17:00","2020","10","17","17:00","-9.4","","-11.8","","83","","","","18","","21","","","M","101.42","","","","-17","","NA"
"-130.91","69.60","LIVERPOOL BAY","220B68C","2020-10-17 18:00","2020","10","17","18:00","-10.5","","-12.3","","86","","","","18","","17","","","M","101.39","","","","-18","","NA"
"-130.91","69.60","LIVERPOOL BAY","220B68C","2020-10-17 19:00","2020","10","17","19:00","-10.1","","-11.9","","87","","","","17","","17","","","M","101.35","","","","-17","","NA"
"-130.91","69.60","LIVERPOOL BAY","220B68C","2020-10-17 20:00","2020","10","17","20:00","-10.3","","-12.5","","84","","","","18","","18","","","M","101.32","","","","-18","","NA"
"-130.91","69.60","LIVERPOOL BAY","220B68C","2020-10-17 21:00","2020","10","17","21:00","-10.4","","-11.4","","92","","","","18","","17","","","M","101.28","","","","-18","","NA"
"-130.91","69.60","LIVERPOOL BAY","220B68C","2020-10-17 22:00","2020","10","17","22:00","-10.6","","-11.2","","95","","","","20","","17","","","M","101.22","","","","-18","","NA"
"-130.91","69.60","LIVERPOOL BAY","220B68C","2020-10-17 23:00","2020","10","17","23:00","-10.6","","-11.4","","94","","","","19","","15","","","M","101.19","","","","-17","","NA"
"-130.91","69.60","LIVERPOOL BAY","220B68C","2020-10-18 00:00","2020","10","18","00:00","-11.0","","-11.5","","96","","","","19","","15","","","M","101.15","","","","-18","","NA"
"-130.91","69.60","LIVERPOOL BAY","220B68C","2020-10-18 01:00","2020","10","18","01:00","-11.1","","-11.6","","96","","","","18","","17","","","M","101.09","","","","-19","","NA"
"-130.91","69.60","LIVERPOOL BAY","220B68C","2020-10-18 02:00","2020","10","18","02:00","-10.8","","-11.3","","96","","","","16","","9","","","M","101.08","","","","-16","","NA"
"-130.91","69.60","LIVERPOOL BAY","220B68C","2020-10-18 03:00","2020","10","18","03:00","-10.9","","-11.5","","95","","","","17","","9","","","M","101.06","","","","-16","","NA"
"-130.91","69.60","LIVERPOOL BAY","220B68C","2020-10-18 04:00","2020","10","18","04:00","-11.2","","-11.9","","95","","","","15","","13","","","M","100.99","","","","-18","","NA"
"-130.91","69.60","LIVERPOOL BAY","220B68C","2020-10-18 05:00","2020","10","18","05:00","-11.4","","-12.1","","95","","","","17","","15","","","M","100.94","","","","-18","","NA"
"-130.91","69.60","LIVERPOOL BAY","220B68C","2020-10-18 06:00","2020","10","18","06:00","-11.4","","-12.1","","95","","","","15","","15","","","M","100.88","","","","-18","","NA"
"-130.91","69.60","LIVERPOOL BAY","220B68C","2020-10-18 07:00","2020","10","18","07:00","-12.0","","-12.8","","94","","","","16","","17","","","M","100.83","","","","-20","","NA"
"-130.91","69.60","LIVERPOOL BAY","220B68C","2020-10-18 08:00","2020","10","18","08:00","-12.0","","-12.8","","94","","","","16","","17","","","M","100.77","","","","-20","","NA"
"-130.91","69.60","LIVERPOOL BAY","220B68C","2020-10-18 09:00","2020","10","18","09:00","-11.6","","-12.4","","94","","","","17","","11","","","M","100.75","","","","-18","","NA"
"-130.91","69.60","LIVERPOOL BAY","220B68C","2020-10-18 10:00","2020","10","18","10:00","-12.1","","-12.9","","94","","","","15","","15","","","M","100.71","","","","-19","","NA"
"-130.91","69.60","LIVERPOOL BAY","220B68C","2020-10-18 11:00","2020","10","18","11:00","-11.2","","-12.0","","94","","","","15","","17","","","M","100.67","","","","-19","","NA"
"-130.91","69.60","LIVERPOOL BAY","220B68C","2020-10-18 12:00","2020","10","18","12:00","-10.8","","-11.6","","94","","","","13","","15","","","M","100.61","","","","-18","","NA"
"-130.91","69.60","LIVERPOOL BAY","220B68C","2020-10-18 13:00","2020","10","18","13:00","-10.8","","-11.6","","93","","","","13","","17","","","M","100.58","","","","-18","","NA"
"-130.91","69.60","LIVERPOOL BAY","220B68C","2020-10-18 14:00","2020","10","18","14:00","-10.1","","-10.9","","94","","","","13","","11","","","M","100.52","","","","-16","","NA"
"-130.91","69.60","LIVERPOOL BAY","220B68C","2020-10-18 15:00","2020","10","18","15:00","-8.4","","-9.3","","93","","","","11","","8","","","M","100.51","","","","-13","","NA"
"-130.91","69.60","LIVERPOOL BAY","220B68C","2020-10-18 16:00","2020","10","18","16:00","-9.2","","-10.8","","88","","","","9","","11","","","M","100.45","","","","-15","","NA"
"-130.91","69.60","LIVERPOOL BAY","220B68C","2020-10-18 17:00","2020","10","18","17:00","-9.5","","-11.1","","88","","","","10","","13","","","M","100.42","","","","-16","","NA"
"-130.91","69.60","LIVERPOOL BAY","220B68C","2020-10-18 18:00","2020","10","18","18:00","-10.3","","-11.7","","89","","","","10","","11","","","M","100.38","","","","-16","","NA"
"-130.91","69.60","LIVERPOOL BAY","220B68C","2020-10-18 19:00","2020","10","18","19:00","-11.1","","-12.1","","92","","","","9","","8","","","M","100.34","","","","-16","","NA"
"-130.91","69.60","LIVERPOOL BAY","220B68C","2020-10-18 20:00","2020","10","18","20:00","-10.7","","-11.7","","92","","","","11","","8","","","M","100.32","","","","-15","","NA"
"-130.91","69.60","LIVERPOOL BAY","220B68C","2020-10-18 21:00","2020","10","18","21:00","-10.9","","-11.7","","94","","","","8","","5","","","M","100.28","","","","-14","","NA"
"-130.91","69.60","LIVERPOOL BAY","220B68C","2020-10-18 22:00","2020","10","18","22:00","-11.1","","-11.8","","95","","","","3","","4","","","M","100.22","","","","-14","","NA"
"-130.91","69.60","LIVERPOOL BAY","220B68C","2020-10-18 23:00","2020","10","18","23:00","-10.4","","-11.2","","94","","","","35","","5","","","M","100.23","","","","-13","","NA"
"-130.91","69.60","LIVERPOOL BAY","220B68C","2020-10-19 00:00","2020","10","19","00:00","-10.1","","-10.7","","95","","","","35","","9","","","M","100.20","","","","-15","","NA"
"-130.91","69.60","LIVERPOOL BAY","220B68C","2020-10-19 01:00","2020","10","19","01:00","-11.0","","-11.4","","97","","","","34","","9","","","M","100.18","","","","-16","","NA"
"-130.91","69.60","LIVERPOOL BAY","220B68C","2020-10-19 02:00","2020","10","19","02:00","-11.7","","-12.3","","95","","","","35","","11","","","M","100.18","","","","-18","","NA"
"-130.91","69.60","LIVERPOOL BAY","220B68C","2020-10-19 03:00","2020","10","19","03:00","-12.2","","-13.0","","94","","","","35","","11","","","M","100.15","","","","-18","","NA"
"-130.91","69.60","LIVERPOOL BAY","220B68C","2020-10-19 04:00","2020","10","19","04:00","-12.2","","-12.9","","94","","","","34","","11","","","M","100.14","","","","-18","","NA"
"-130.91","69.60","LIVERPOOL BAY","220B68C","2020-10-19 05:00","2020","10","19","05:00","-12.2","","-13.0","","93","","","","34","","13","","","M","100.14","","","","-19","","NA"
"-130.91","69.60","LIVERPOOL BAY","220B68C","2020-10-19 06:00","2020","10","19","06:00","-12.3","","-13.1","","94","","","","35","","13","","","M","100.17","","","","-19","","NA"
"-130.91","69.60","LIVERPOOL BAY","220B68C","2020-10-19 07:00","2020","10","19","07:00","-11.7","","-12.5","","94","","","","36","","11","","","M","100.17","","","","-18","","NA"
"-130.91","69.60","LIVERPOOL BAY","220B68C","2020-10-19 08:00","2020","10","19","08:00","-10.7","","-11.3","","95","","","","35","","11","","","M","100.17","","","","-16","","NA"
"-130.91","69.60","LIVERPOOL BAY","220B68C","2020-10-19 09:00","2020","10","19","09:00","-9.7","","-10.3","","96","","","","34","","11","","","M","100.20","","","","-15","","NA"
"-130.91","69.60","LIVERPOOL BAY","220B68C","2020-10-19 10:00","2020","10","19","10:00","-9.7","","-10.2","","96","","","","34","","13","","","M","100.21","","","","-16","","NA"
"-130.91","69.60","LIVERPOOL BAY","220B68C","2020-10-19 11:00","2020","10","19","11:00","-7.8","","-8.2","","97","","","","34","","11","","","M","100.25","","","","-13","","NA"
"-130.91","69.60","LIVERPOOL BAY","220B68C","2020-10-19 12:00","2020","10","19","12:00","-6.5","","-6.8","","98","","","","34","","11","","","M","100.27","","","","-11","","NA"
"-130.91","69.60","LIVERPOOL BAY","220B68C","2020-10-19 13:00","2020","10","19","13:00","-5.7","","-5.9","","98","","","","32","","9","","","M","100.30","","","","-10","","NA"
"-130.91","69.60","LIVERPOOL BAY","220B68C","2020-10-19 14:00","2020","10","19","14:00","-5.6","","-6.0","","97","","","","32","","11","","","M","100.35","","","","-10","","NA"
"-130.91","69.60","LIVERPOOL BAY","220B68C","2020-10-19 15:00","2020","10","19","15:00","-4.7","","-5.0","","98","","","","35","","15","","","M","100.39","","","","-10","","NA"
"-130.91","69.60","LIVERPOOL BAY","220B68C","2020-10-19 16:00","2020","10","19","16:00","-4.5","","-4.7","","99","","","","34","","18","","","M","100.42","","","","-11","","NA"
"-130.91","69.60","LIVERPOOL BAY","220B68C","2020-10-19 17:00","2020","10","19","17:00","-5.1","","-5.6","","96","","","","35","","22","","","M","100.45","","","","-12","","NA"
"-130.91","69.60","LIVERPOOL BAY","220B68C","2020-10-19 18:00","2020","10","19","18:00","-6.2","","-6.5","","98","","","","34","","21","","","M","100.47","","","","-13","","NA"
"-130.91","69.60","LIVERPOOL BAY","220B68C","2020-10-19 19:00","2020","10","19","19:00","-6.1","","-6.2","","99","","","","33","","21","","","M","100.51","","","","-13","","NA"
"-130.91","69.60","LIVERPOOL BAY","220B68C","2020-10-19 20:00","2020","10","19","20:00","-6.6","","-6.7","","99","","","","33","","18","","","M","100.55","","","","-13","","NA"
"-130.91","69.60","LIVERPOOL BAY","220B68C","2020-10-19 21:00","2020","10","19","21:00","-7.0","","-7.1","","99","","","","32","","21","","","M","100.57","","","","-14","","NA"
"-130.91","69.60","LIVERPOOL BAY","220B68C","2020-10-19 22:00","2020","10","19","22:00","-7.6","","-7.8","","99","","","","31","","24","","","M","100.59","","","","-16","","NA"
"-130.91","69.60","LIVERPOOL BAY","220B68C","2020-10-19 23:00","2020","10","19","23:00","-7.9","","-8.1","","98","","","","31","","22","","","M","100.64","","","","-16","","NA"
"-130.91","69.60","LIVERPOOL BAY","220B68C","2020-10-20 00:00","2020","10","20","00:00","-7.8","","-8.0","","98","","","","29","","26","","","M","100.65","","","","-16","","NA"
"-130.91","69.60","LIVERPOOL BAY","220B68C","2020-10-20 01:00","2020","10","20","01:00","-8.6","","-9.0","","97","","","","29","","22","","","M","100.67","","","","-16","","NA"
"-130.91","69.60","LIVERPOOL BAY","220B68C","2020-10-20 02:00","2020","10","20","02:00","-7.9","","-8.2","","98","","","","28","","21","","","M","100.70","","","","-15","","NA"
"-130.91","69.60","LIVERPOOL BAY","220B68C","2020-10-20 03:00","2020","10","20","03:00","-7.8","","-8.0","","98","","","","27","","22","","","M","100.71","","","","-15","","NA"
"-130.91","69.60","LIVERPOOL BAY","220B68C","2020-10-20 04:00","2020","10","20","04:00","-6.6","","-6.8","","99","","","","27","","26","","","M","100.72","","","","-15","","NA"
"-130.91","69.60","LIVERPOOL BAY","220B68C","2020-10-20 05:00","2020","10","20","05:00","-5.8","","-5.9","","99","","","","28","","21","","","M","100.73","","","","-13","","NA"
"-130.91","69.60","LIVERPOOL BAY","220B68C","2020-10-20 06:00","2020","10","20","06:00","-5.9","","-6.0","","99","","","","30","","21","","","M","100.76","","","","-13","","NA"
"-130.91","69.60","LIVERPOOL BAY","220B68C","2020-10-20 07:00","2020","10","20","07:00","-6.2","","-6.4","","99","","","","31","","21","","","M","100.78","","","","-13","","NA"
"-130.91","69.60","LIVERPOOL BAY","220B68C","2020-10-20 08:00","2020","10","20","08:00"
"-130.91","69.60","LIVERPOOL BAY","220B68C","2020-10-20 09:00","2020","10","20","09:00","-6.4","","-6.6","","98","","","","33","","26","","","M","100.87","","","","-14","","NA"
"-130.91","69.60","LIVERPOOL BAY","220B68C","2020-10-20 10:00","2020","10","20","10:00","-6.8","","-7.0","","98","","","","32","","24","","","M","100.92","","","","-14","","NA"
"-130.91","69.60","LIVERPOOL BAY","220B68C","2020-10-20 11:00","2020","10","20","11:00","-6.6","","-6.9","","98","","","","32","","24","","","M","100.96","","","","-14","","NA"
"-130.91","69.60","LIVERPOOL BAY","220B68C","2020-10-20 12:00","2020","10","20","12:00","-6.3","","-6.6","","98","","","","32","","28","","","M","101.02","","","","-14","","NA"
"-130.91","69.60","LIVERPOOL BAY","220B68C","2020-10-20 13:00","2020","10","20","13:00","-6.2","","-6.5","","98","","","","32","","26","","","M","101.11","","","","-14","","NA"
"-130.91","69.60","LIVERPOOL BAY","220B68C","2020-10-20 14:00","2020","10","20","14:00","-6.4","","-6.8","","97","","","","32","","31","","","M","101.17","","","","-15","","NA"
"-130.91","69.60","LIVERPOOL BAY","220B68C","2020-10-20 15:00","2020","10","20","15:00","-6.6","","-7.0","","97","","","","33","","30","","","M","101.24","","","","-15","","NA"
"-130.91","69.60","LIVERPOOL BAY","220B68C","2020-10-20 16:00","2020","10","20","16:00","-6.7","","-7.1","","97","","","","33","","31","","","M","101.32","","","","-15","","NA"
"-130.91","69.60","LIVERPOOL BAY","220B68C","2020-10-20 17:00","2020","10","20","17:00","-6.4","","-6.7","","98","","","","33","","26","","","M","101.40","","","","-14","","NA"
"-130.91","69.60","LIVERPOOL BAY","220B68C","2020-10-20 18:00","2020","10","20","18:00","-6.3","","-6.6","","97","","","","33","","37","","","M","101.46","","","","-16","","NA"
"-130.91","69.60","LIVERPOOL BAY","220B68C","2020-10-20 19:00","2020","10","20","19:00","-6.4","","-6.6","","98","","","","32","","30","","","M","101.53","","","","-15","","NA"
"-130.91","69.60","LIVERPOOL BAY","220B68C","2020-10-20 20:00","2020","10","20","20:00","-6.3","","-6.5","","98","","","","32","","31","","","M","101.61","","","","-15","","NA"
"-130.91","69.60","LIVERPOOL BAY","220B68C","2020-10-20 21:00","2020","10","20","21:00","-6.2","","-6.5","","98","","","","32","","31","","","M","101.67","","","","-15","","NA"
"-130.91","69.60","LIVERPOOL BAY","220B68C","2020-10-20 22:00","2020","10","20","22:00","-6.7","","-7.1","","97","","","","33","","34","","","M","101.75","","","","-16","","NA"
"-130.91","69.60","LIVERPOOL BAY","220B68C","2020-10-20 23:00","2020","10","20","23:00","-6.8","","-7.1","","97","","","","33","","31","","","M","101.80","","","","-15","","NA"
"-130.91","69.60","LIVERPOOL BAY","220B68C","2020-10-21 00:00","2020","10","21","00:00","-6.8","","-7.1","","98","","","","32","","26","","","M","101.86","","","","-15","","NA"
"-130.91","69.60","LIVERPOOL BAY","220B68C","2020-10-21 01:00","2020","10","21","01:00","-7.2","","-7.5","","97","","","","33","","30","","","M","101.94","","","","-16","","NA"
"-130.91","69.60","LIVERPOOL BAY","220B68C","2020-10-21 02:00","2020","10","21","02:00","-6.7","","-7.1","","97","","","","32","","26","","","M","102.01","","","","-15","","NA"
"-130.91","69.60","LIVERPOOL BAY","220B68C","2020-10-21 03:00","2020","10","21","03:00","-6.7","","-7.0","","98","","","","32","","26","","","M","102.07","","","","-15","","NA"
"-130.91","69.60","LIVERPOOL BAY","220B68C","2020-10-21 04:00","2020","10","21","04:00","-7.2","","-7.4","","98","","","","30","","22","","","M","102.11","","","","-15","","NA"
"-130.91","69.60","LIVERPOOL BAY","220B68C","2020-10-21 05:00","2020","10","21","05:00","-6.9","","-7.1","","98","","","","32","","24","","","M","102.16","","","","-15","","NA"
"-130.91","69.60","LIVERPOOL BAY","220B68C","2020-10-21 06:00","2020","10","21","06:00","-6.9","","-7.1","","98","","","","30","","18","","","M","102.20","","","","-14","","NA"
"-130.91","69.60","LIVERPOOL BAY","220B68C","2020-10-21 07:00","2020","10","21","07:00","-7.0","","-7.3","","98","","","","29","","17","","","M","102.25","","","","-13","","NA"
"-130.91","69.60","LIVERPOOL BAY","220B68C","2020-10-21 08:00","2020","10","21","08:00","-6.7","","-6.9","","99","","","","29","","11","","","M","102.28","","","","-12","","NA"
"-130.91","69.60","LIVERPOOL BAY","220B68C","2020-10-21 09:00","2020","10","21","09:00","-6.5","","-6.6","","99","","","","29","","15","","","M","102.30","","","","-12","","NA"
"-130.91","69.60","LIVERPOOL BAY","220B68C","2020-10-21 10:00","2020","10","21","10:00","-6.3","","-6.5","","99","","","","27","","13","","","M","102.33","","","","-12","","NA"
"-130.91","69.60","LIVERPOOL BAY","220B68C","2020-10-21 11:00","2020","10","21","11:00","-6.0","","-6.2","","99","","","","28","","17","","","M","102.34","","","","-12","","NA"
"-130.91","69.60","LIVERPOOL BAY","220B68C","2020-10-21 12:00","2020","10","21","12:00","-6.0","","-6.4","","97","","","","27","","24","","","M","102.37","","","","-13","","NA"
"-130.91","69.60","LIVERPOOL BAY","220B68C","2020-10-21 13:00","2020","10","21","13:00","-5.8","","-6.5","","95","","","","27","","24","","","M","102.37","","","","-13","","NA"
"-130.91","69.60","LIVERPOOL BAY","220B68C","2020-10-21 14:00","2020","10","21","14:00","-6.7","","-7.4","","95","","","","27","","28","","","M","102.39","","","","-15","","NA"
"-130.91","69.60","LIVERPOOL BAY","220B68C","2020-10-21 15:00","2020","10","21","15:00","-7.4","","-7.7","","98","","","","27","","24","","","M","102.40","","","","-15","","NA"
"-130.91","69.60","LIVERPOOL BAY","220B68C","2020-10-21 16:00","2020","10","21","16:00","-6.2","","-6.4","","99","","","","25","","18","","","M","102.37","","","","-13","","NA"
"-130.91","69.60","LIVERPOOL BAY","220B68C","2020-10-21 17:00","2020","10","21","17:00","-6.6","","-6.9","","98","","","","25","","22","","","M","102.37","","","","-14","","NA"
"-130.91","69.60","LIVERPOOL BAY","220B68C","2020-10-21 18:00","2020","10","21","18:00","-6.8","","-7.5","","95","","","","24","","24","","","M","102.36","","","","-14","","NA"
"-130.91","69.60","LIVERPOOL BAY","220B68C","2020-10-21 19:00","2020","10","21","19:00","-7.9","","-8.6","","95","","","","22","","22","","","M","102.33","","","","-16","","NA"
"-130.91","69.60","LIVERPOOL BAY","220B68C","2020-10-21 20:00","2020","10","21","20:00","-7.3","","-8.1","","94","","","","23","","24","","","M","102.30","","","","-15","","NA"
"-130.91","69.60","LIVERPOOL BAY","220B68C","2020-10-21 21:00","2020","10","21","21:00","-7.4","","-8.2","","94","","","","23","","26","","","M","102.24","","","","-16","","NA"
"-130.91","69.60","LIVERPOOL BAY","220B68C","2020-10-21 22:00","2020","10","21","22:00","-6.7","","-7.6","","94","","","","23","","26","","","M","102.20","","","","-15","","NA"
"-130.91","69.60","LIVERPOOL BAY","220B68C","2020-10-21 23:00","2020","10","21","23:00","-6.2","","-6.8","","95","","","","23","","26","","","M","102.17","","","","-14","","NA"
"-130.91","69.60","LIVERPOOL BAY","220B68C","2020-10-22 00:00","2020","10","22","00:00","-6.5","","-7.3","","94","","","","23","","30","","","M","102.15","","","","-15","","NA"
"-130.91","69.60","LIVERPOOL BAY","220B68C","2020-10-22 01:00","2020","10","22","01:00","-6.2","","-7.0","","94","","","","23","","30","","","M","102.14","","","","-15","","NA"
"-130.91","69.60","LIVERPOOL BAY","220B68C","2020-10-22 02:00","2020","10","22","02:00","-5.7","","-6.5","","94","","","","24","","30","","","M","102.10","","","","-14","","NA"
"-130.91","69.60","LIVERPOOL BAY","220B68C","2020-10-22 03:00","2020","10","22","03:00","-5.9","","-6.8","","93","","","","23","","28","","","M","102.06","","","","-14","","NA"
"-130.91","69.60","LIVERPOOL BAY","220B68C","2020-10-22 04:00","2020","10","22","04:00","-6.0","","-7.2","","92","","","","23","","26","","","M","102.01","","","","-14","","NA"
"-130.91","69.60","LIVERPOOL BAY","220B68C","2020-10-22 05:00","2020","10","22","05:00","-5.8","","-7.0","","91","","","","22","","28","","","M","101.99","","","","-14","","NA"
"-130.91","69.60","LIVERPOOL BAY","220B68C","2020-10-22 06:00","2020","10","22","06:00","-5.4","","-5.7","","97","","","","24","","26","","","M","101.94","","","","-13","","NA"
"-130.91","69.60","LIVERPOOL BAY","220B68C","2020-10-22 07:00","2020","10","22","07:00","-5.8","","-6.2","","97","","","","23","","31","","","M","101.88","","","","-14","","NA"
"-130.91","69.60","LIVERPOOL BAY","220B68C","2020-10-22 08:00","2020","10","22","08:00","-6.0","","-6.2","","98","","","","22","","30","","","M","101.83","","","","-14","","NA"
"-130.91","69.60","LIVERPOOL BAY","220B68C","2020-10-22 09:00","2020","10","22","09:00","-6.0","","-6.3","","98","","","","22","","28","","","M","101.79","","","","-14","","NA"
"-130.91","69.60","LIVERPOOL BAY","220B68C","2020-10-22 10:00","2020","10","22","10:00","-5.7","","-6.0","","98","","","","23","","30","","","M","101.76","","","","-14","","NA"
"-130.91","69.60","LIVERPOOL BAY","220B68C","2020-10-22 11:00","2020","10","22","11:00","-5.7","","-5.9","","98","","","","22","","31","","","M","101.72","","","","-14","","NA"
"-130.91","69.60","LIVERPOOL BAY","220B68C","2020-10-22 12:00","2020","10","22","12:00","-5.3","","-5.6","","98","","","","22","","30","","","M","101.67","","","","-13","","NA"
"-130.91","69.60","LIVERPOOL BAY","220B68C","2020-10-22 13:00","2020","10","22","13:00","-5.0","","-5.4","","97","","","","23","","30","","","M","101.63","","","","-13","","NA"
"-130.91","69.60","LIVERPOOL BAY","220B68C","2020-10-22 14:00","2020","10","22","14:00","-4.7","","-5.0","","97","","","","23","","34","","","M","101.58","","","","-13","","NA"
"-130.91","69.60","LIVERPOOL BAY","220B68C","2020-10-22 15:00","2020","10","22","15:00","-4.4","","-4.6","","99","","","","24","","30","","","M","101.54","","","","-12","","NA"
"-130.91","69.60","LIVERPOOL BAY","220B68C","2020-10-22 16:00","2020","10","22","16:00","-3.9","","-4.1","","99","","","","24","","37","","","M","101.49","","","","-12","","NA"
"-130.91","69.60","LIVERPOOL BAY","220B68C","2020-10-22 17:00","2020","10","22","17:00","-3.4","","-3.5","","99","","","","25","","41","","","M","101.44","","","","-12","","NA"
"-130.91","69.60","LIVERPOOL BAY","220B68C","2020-10-22 18:00","2020","10","22","18:00","-3.5","","-3.6","","99","","","","26","","43","","","M","101.40","","","","-12","","NA"
"-130.91","69.60","LIVERPOOL BAY","220B68C","2020-10-22 19:00","2020","10","22","19:00","-3.1","","-3.2","","99","","","","26","","44","","","M","101.35","","","","-12","","NA"
"-130.91","69.60","LIVERPOOL BAY","220B68C","2020-10-22 20:00","2020","10","22","20:00","-3.4","","-3.5","","99","","","","26","","48","","","M","101.34","","","","-13","","NA"
"-130.91","69.60","LIVERPOOL BAY","220B68C","2020-10-22 21:00","2020","10","22","21:00","-3.1","","-3.2","","99","","","","26","","41","","","M","101.33","","","","-12","","NA"
"-130.91","69.60","LIVERPOOL BAY","220B68C","2020-10-22 22:00","2020","10","22","22:00","-2.0","","-2.1","","99","","","","27","","43","","","M","101.33","","","","-10","","NA"
"-130.91","69.60","LIVERPOOL BAY","220B68C","2020-10-22 23:00","2020","10","22","23:00","-1.5","","-1.6","","99","","","","28","","34","","","M","101.35","","","","-9","","NA"
"-130.91","69.60","LIVERPOOL BAY","220B68C","2020-10-23 00:00","2020","10","23","00:00","-2.6","","-2.7","","99","","","","29","","41","","","M","101.41","","","","-11","","NA"
"-130.91","69.60","LIVERPOOL BAY","220B68C","2020-10-23 01:00","2020","10","23","01:00","-3.9","","-4.0","","99","","","","30","","34","","","M","101.49","","","","-12","","NA"
"-130.91","69.60","LIVERPOOL BAY","220B68C","2020-10-23 02:00","2020","10","23","02:00","-4.1","","-4.4","","98","","","","30","","46","","","M","101.54","","","","-13","","NA"
"-130.91","69.60","LIVERPOOL BAY","220B68C","2020-10-23 03:00","2020","10","23","03:00","-4.2","","-4.8","","96","","","","29","","44","","","M","101.60","","","","-13","","NA"
"-130.91","69.60","LIVERPOOL BAY","220B68C","2020-10-23 04:00","2020","10","23","04:00","-4.3","","-4.5","","99","","","","28","","34","","","M","101.61","","","","-13","","NA"
"-130.91","69.60","LIVERPOOL BAY","220B68C","2020-10-23 05:00","2020","10","23","05:00","-4.3","","-4.4","","99","","","","28","","37","","","M","101.62","","","","-13","","NA"
"-130.91","69.60","LIVERPOOL BAY","220B68C","2020-10-23 06:00","2020","10","23","06:00","-4.7","","-4.8","","99","","","","29","","37","","","M","101.66","","","","-13","","NA"
"-130.91","69.60","LIVERPOOL BAY","220B68C","2020-10-23 07:00","2020","10","23","07:00","-4.9","","-5.0","","99","","","","29","","30","","","M","101.68","","","","-13","","NA"
"-130.91","69.60","LIVERPOOL BAY","220B68C","2020-10-23 08:00","2020","10","23","08:00","-5.8","","-5.9","","99","","","","28","","30","","","M","101.71","","","","-14","","NA"
"-130.91","69.60","LIVERPOOL BAY","220B68C","2020-10-23 09:00","2020","10","23","09:00","-5.4","","-5.5","","99","","","","28","","30","","","M","101.75","","","","-14","","NA"
"-130.91","69.60","LIVERPOOL BAY","220B68C","2020-10-23 10:00","2020","10","23","10:00","-5.1","","-5.3","","99","","","","29","","22","","","M","101.77","","","","-12","","NA"
"-130.91","69.60","LIVERPOOL BAY","220B68C","2020-10-23 11:00","2020","10","23","11:00","-4.9","","-5.9","","93","","","","30","","26","","","M","101.80","","","","-12","","NA"
"-130.91","69.60","LIVERPOOL BAY","220B68C","2020-10-23 12:00","2020","10","23","12:00","-5.1","","-6.5","","90","","","","29","","28","","","M","101.83","","","","-13","","NA"
"-130.91","69.60","LIVERPOOL BAY","220B68C","2020-10-23 13:00","2020","10","23","13:00","-5.0","","-6.3","","90","","","","29","","24","","","M","101.87","","","","-12","","NA"
"-130.91","69.60","LIVERPOOL BAY","220B68C","2020-10-23 14:00","2020","10","23","14:00","-5.8","","-6.9","","92","","","","29","","21","","","M","101.85","","","","-13","","NA"
"-130.91","69.60","LIVERPOOL BAY","220B68C","2020-10-23 15:00","2020","10","23","15:00","-6.5","","-6.7","","98","","","","29","","18","","","M","101.85","","","","-13","","NA"
"-130.91","69.60","LIVERPOOL BAY","220B68C","2020-10-23 16:00","2020","10","23","16:00","-5.7","","-5.8","","99","","","","29","","21","","","M","101.85","","","","-13","","NA"
"-130.91","69.60","LIVERPOOL BAY","220B68C","2020-10-23 17:00","2020","10","23","17:00","-5.7","","-5.9","","98","","","","28","","26","","","M","101.81","","","","-13","","NA"
"-130.91","69.60","LIVERPOOL BAY","220B68C","2020-10-23 18:00","2020","10","23","18:00","-5.7","","-6.1","","97","","","","28","","15","","","M","101.80","","","","-11","","NA"
"-130.91","69.60","LIVERPOOL BAY","220B68C","2020-10-23 19:00","2020","10","23","19:00","-5.7","","-6.0","","97","","","","28","","15","","","M","101.79","","","","-11","","NA"
"-130.91","69.60","LIVERPOOL BAY","220B68C","2020-10-23 20:00","2020","10","23","20:00","-6.2","","-6.3","","99","","","","29","","13","","","M","101.75","","","","-12","","NA"
"-130.91","69.60","LIVERPOOL BAY","220B68C","2020-10-23 21:00","2020","10","23","21:00","-6.4","","-6.5","","99","","","","30","","11","","","M","101.72","","","","-11","","NA"
"-130.91","69.60","LIVERPOOL BAY","220B68C","2020-10-23 22:00","2020","10","23","22:00","-6.1","","-6.2","","99","","","","4","","4","","","M","101.65","","","","-8","","NA"
"-130.91","69.60","LIVERPOOL BAY","220B68C","2020-10-23 23:00","2020","10","23","23:00","-5.9","","-6.0","","99","","","","14","","5","","","M","101.60","","","","-8","","NA"
"-130.91","69.60","LIVERPOOL BAY","220B68C","2020-10-24 00:00","2020","10","24","00:00","-4.9","","-5.0","","99","","","","17","","13","","","M","101.55","","","","-10","","NA"
"-130.91","69.60","LIVERPOOL BAY","220B68C","2020-10-24 01:00","2020","10","24","01:00","-5.1","","-5.2","","99","","","","15","","21","","","M","101.47","","","","-12","","NA"
"-130.91","69.60","LIVERPOOL BAY","220B68C","2020-10-24 02:00","2020","10","24","02:00","-5.0","","-5.1","","99","","","","13","","18","","","M","101.40","","","","-11","","NA"
"-130.91","69.60","LIVERPOOL BAY","220B68C","2020-10-24 03:00","2020","10","24","03:00","-5.1","","-5.2","","99","","","","14","","18","","","M","101.30","","","","-11","","NA"
"-130.91","69.60","LIVERPOOL BAY","220B68C","2020-10-24 04:00","2020","10","24","04:00","-6.3","","-6.4","","99","","","","17","","15","","","M","101.21","","","","-12","","NA"
"-130.91","69.60","LIVERPOOL BAY","220B68C","2020-10-24 05:00","2020","10","24","05:00","-7.3","","-7.4","","99","","","","20","","17","","","M","101.13","","","","-14","","NA"
"-130.91","69.60","LIVERPOOL BAY","220B68C","2020-10-24 06:00","2020","10","24","06:00","-7.3","","-7.5","","98","","","","20","","22","","","M","101.05","","","","-15","","NA"
"-130.91","69.60","LIVERPOOL BAY","220B68C","2020-10-24 07:00","2020","10","24","07:00","-7.6","","-7.9","","98","","","","20","","24","","","M","100.97","","","","-16","","NA"
"-130.91","69.60","LIVERPOOL BAY","220B68C","2020-10-24 08:00","2020","10","24","08:00","-7.8","","-8.1","","98","","","","21","","21","","","M","100.94","","","","-15","","NA"
"-130.91","69.60","LIVERPOOL BAY","220B68C","2020-10-24 09:00","2020","10","24","09:00","-8.7","","-9.1","","97","","","","20","","21","","","M","100.86","","","","-16","","NA"
"-130.91","69.60","LIVERPOOL BAY","220B68C","2020-10-24 10:00","2020","10","24","10:00","-8.3","","-8.7","","97","","","","21","","22","","","M","100.79","","","","-16","","NA"
"-130.91","69.60","LIVERPOOL BAY","220B68C","2020-10-24 11:00","2020","10","24","11:00","-7.8","","-8.3","","96","","","","21","","22","","","M","100.71","","","","-15","","NA"
"-130.91","69.60","LIVERPOOL BAY","220B68C","2020-10-24 12:00","2020","10","24","12:00","-7.4","","-7.9","","96","","","","20","","22","","","M","100.68","","","","-15","","NA"
"-130.91","69.60","LIVERPOOL BAY","220B68C","2020-10-24 13:00","2020","10","24","13:00","-7.2","","-7.9","","94","","","","21","","22","","","M","100.63","","","","-15","","NA"
"-130.91","69.60","LIVERPOOL BAY","220B68C","2020-10-24 14:00","2020","10","24","14:00","-7.1","","-8.3","","91","","","","20","","21","","","M","100.55","","","","-14","","NA"
"-130.91","69.60","LIVERPOOL BAY","220B68C","2020-10-24 15:00","2020","10","24","15:00","-7.7","","-8.7","","93","","","","20","","18","","","M","100.49","","","","-15","","NA"
"-130.91","69.60","LIVERPOOL BAY","220B68C","2020-10-24 16:00","2020","10","24","16:00","-8.2","","-9.0","","94","","","","19","","18","","","M","100.42","","","","-15","","NA"
"-130.91","69.60","LIVERPOOL BAY","220B68C","2020-10-24 17:00","2020","10","24","17:00","-7.8","","-8.5","","95","","","","19","","21","","","M","100.36","","","","-15","","NA"
"-130.91","69.60","LIVERPOOL BAY","220B68C","2020-10-24 18:00","2020","10","24","18:00","-7.4","","-8.4","","93","","","","20","","24","","","M","100.27","","","","-15","","NA"
"-130.91","69.60","LIVERPOOL BAY","220B68C","2020-10-24 19:00","2020","10","24","19:00","-7.2","","-8.1","","93","","","","20","","17","","","M","100.19","","","","-14","","NA"
"-130.91","69.60","LIVERPOOL BAY","220B68C","2020-10-24 20:00","2020","10","24","20:00","-6.6","","-8.1","","89","","","","20","","24","","","M","100.08","","","","-14","","NA"
"-130.91","69.60","LIVERPOOL BAY","220B68C","2020-10-24 21:00","2020","10","24","21:00","-4.7","","-6.3","","89","","","","24","","37","","","M","99.99","","","","-13","","NA"
"-130.91","69.60","LIVERPOOL BAY","220B68C","2020-10-24 22:00","2020","10","24","22:00","-4.3","","-4.8","","96","","","","25","","48","","","M","99.94","","","","-14","","NA"
"-130.91","69.60","LIVERPOOL BAY","220B68C","2020-10-24 23:00","2020","10","24","23:00","-4.5","","-4.6","","99","","","","26","","46","","","M","99.93","","","","-14","","NA"
"-130.91","69.60","LIVERPOOL BAY","220B68C","2020-10-25 00:00","2020","10","25","00:00","-4.8","","-4.9","","99","","","","27","","39","","","M","99.93","","","","-14","","NA"
"-130.91","69.60","LIVERPOOL BAY","220B68C","2020-10-25 01:00","2020","10","25","01:00","-5.1","","-5.2","","99","","","","27","","37","","","M","99.92","","","","-14","","NA"
"-130.91","69.60","LIVERPOOL BAY","220B68C","2020-10-25 02:00","2020","10","25","02:00","-5.2","","-5.3","","99","","","","27","","37","","","M","99.96","","","","-14","","NA"
"-130.91","69.60","LIVERPOOL BAY","220B68C","2020-10-25 03:00","2020","10","25","03:00","-3.5","","-3.6","","99","","","","27","","46","","","M","99.98","","","","-13","","NA"
"-130.91","69.60","LIVERPOOL BAY","220B68C","2020-10-25 04:00","2020","10","25","04:00","-3.6","","-3.8","","99","","","","26","","41","","","M","99.97","","","","-12","","NA"
"-130.91","69.60","LIVERPOOL BAY","220B68C","2020-10-25 05:00","2020","10","25","05:00","-3.5","","-3.6","","99","","","","26","","39","","","M","99.93","","","","-12","","NA"
"-130.91","69.60","LIVERPOOL BAY","220B68C","2020-10-25 06:00","2020","10","25","06:00","-3.0","","-3.1","","99","","","","26","","44","","","M","99.89","","","","-12","","NA"
"-130.91","69.60","LIVERPOOL BAY","220B68C","2020-10-25 07:00","2020","10","25","07:00","-3.4","","-4.2","","94","","","","28","","39","","","M","99.88","","","","-12","","NA"
"-130.91","69.60","LIVERPOOL BAY","220B68C","2020-10-25 08:00","2020","10","25","08:00","-3.6","","-4.0","","97","","","","27","","39","","","M","99.88","","","","-12","","NA"
"-130.91","69.60","LIVERPOOL BAY","220B68C","2020-10-25 09:00","2020","10","25","09:00","-5.4","","-6.0","","96","","","","29","","48","","","M","99.90","","","","-15","","NA"
"-130.91","69.60","LIVERPOOL BAY","220B68C","2020-10-25 10:00","2020","10","25","10:00","-5.9","","-6.3","","96","","","","28","","52","","","M","99.91","","","","-16","","NA"
"-130.91","69.60","LIVERPOOL BAY","220B68C","2020-10-25 11:00","2020","10","25","11:00","-5.6","","-5.9","","98","","","","29","","55","","","M","99.94","","","","-16","","NA"
"-130.91","69.60","LIVERPOOL BAY","220B68C","2020-10-25 12:00","2020","10","25","12:00","-5.8","","-6.6","","94","","","","31","","52","","","M","100.06","","","","-16","","NA"
"-130.91","69.60","LIVERPOOL BAY","220B68C","2020-10-25 13:00","2020","10","25","13:00","-5.0","","-5.4","","97","","","","30","","37","","","M","100.27","","","","-14","","NA"
"-130.91","69.60","LIVERPOOL BAY","220B68C","2020-10-25 14:00","2020","10","25","14:00","-5.6","","-6.3","","95","","","","32","","44","","","M","100.40","","","","-15","","NA"
"-130.91","69.60","LIVERPOOL BAY","220B68C","2020-10-25 15:00","2020","10","25","15:00","-6.6","","-7.1","","96","","","","32","","41","","","M","100.53","","","","-16","","NA"
"-130.91","69.60","LIVERPOOL BAY","220B68C","2020-10-25 16:00","2020","10","25","16:00","-7.7","","-8.1","","97","","","","32","","37","","","M","100.65","","","","-17","","NA"
"-130.91","69.60","LIVERPOOL BAY","220B68C","2020-10-25 17:00","2020","10","25","17:00","-8.3","","-8.9","","96","","","","30","","30","","","M","100.73","","","","-17","","NA"
"-130.91","69.60","LIVERPOOL BAY","220B68C","2020-10-25 18:00","2020","10","25","18:00","-9.8","","-10.1","","98","","","","29","","39","","","M","100.77","","","","-20","","NA"
"-130.91","69.60","LIVERPOOL BAY","220B68C","2020-10-25 19:00","2020","10","25","19:00","-10.7","","-11.2","","95","","","","30","","30","","","M","100.83","","","","-20","","NA"
"-130.91","69.60","LIVERPOOL BAY","220B68C","2020-10-25 20:00","2020","10","25","20:00","-11.8","","-12.5","","94","","","","33","","24","","","M","100.88","","","","-21","","NA"
"-130.91","69.60","LIVERPOOL BAY","220B68C","2020-10-25 21:00","2020","10","25","21:00","-12.4","","-13.2","","93","","","","33","","26","","","M","100.93","","","","-22","","NA"
"-130.91","69.60","LIVERPOOL BAY","220B68C","2020-10-25 22:00","2020","10","25","22:00","-12.8","","-13.6","","93","","","","34","","24","","","M","100.94","","","","-22","","NA"
"-130.91","69.60","LIVERPOOL BAY","220B68C","2020-10-25 23:00","2020","10","25","23:00","-12.7","","-13.6","","93","","","","33","","17","","","M","100.98","","","","-21","","NA"
"-130.91","69.60","LIVERPOOL BAY","220B68C","2020-10-26 00:00","2020","10","26","00:00","-12.7","","-13.6","","93","","","","30","","5","","","M","100.96","","","","-16","","NA"
"-130.91","69.60","LIVERPOOL BAY","220B68C","2020-10-26 01:00","2020","10","26","01:00","-12.7","","-13.6","","93","","","","33","","4","","","M","100.93","","","","-15","","NA"
"-130.91","69.60","LIVERPOOL BAY","220B68C","2020-10-26 02:00","2020","10","26","02:00","-12.8","","-13.7","","93","","","","2","","4","","","M","100.83","","","","-15","","NA"
"-130.91","69.60","LIVERPOOL BAY","220B68C","2020-10-26 03:00","2020","10","26","03:00","-12.7","","-13.6","","93","","","","10","","18","","","M","100.83","","","","-21","","NA"
"-130.91","69.60","LIVERPOOL BAY","220B68C","2020-10-26 04:00","2020","10","26","04:00","-12.3","","-13.2","","93","","","","20","","11","","","M","100.79","","","","-18","","NA"
"-130.91","69.60","LIVERPOOL BAY","220B68C","2020-10-26 05:00","2020","10","26","05:00","-12.1","","-12.9","","94","","","","18","","18","","","M","100.70","","","","-20","","NA"
"-130.91","69.60","LIVERPOOL BAY","220B68C","2020-10-26 06:00","2020","10","26","06:00","-12.1","","-12.9","","94","","","","14","","13","","","M","100.56","","","","-19","","NA"
"-130.91","69.60","LIVERPOOL BAY","220B68C","2020-10-26 07:00","2020","10","26","07:00","-13.2","","-14.1","","93","","","","12","","21","","","M","100.39","","","","-22","","NA"
"-130.91","69.60","LIVERPOOL BAY","220B68C","2020-10-26 08:00","2020","10","26","08:00","-13.5","","-14.5","","92","","","","13","","21","","","M","100.36","","","","-22","","NA"
"-130.91","69.60","LIVERPOOL BAY","220B68C","2020-10-26 09:00","2020","10","26","09:00","-14.2","","-15.3","","91","","","","13","","22","","","M","100.29","","","","-24","","NA"
"-130.91","69.60","LIVERPOOL BAY","220B68C","2020-10-26 10:00","2020","10","26","10:00","-14.0","","-15.0","","92","","","","11","","21","","","M","100.17","","","","-23","","NA"
"-130.91","69.60","LIVERPOOL BAY","220B68C","2020-10-26 11:00","2020","10","26","11:00","-13.1","","-14.1","","93","","","","9","","21","","","M","100.05","","","","-22","","NA"
"-130.91","69.60","LIVERPOOL BAY","220B68C","2020-10-26 12:00","2020","10","26","12:00","-12.1","","-13.0","","93","","","","9","","30","","","M","99.90","","","","-22","","NA"
"-130.91","69.60","LIVERPOOL BAY","220B68C","2020-10-26 13:00","2020","10","26","13:00","-12.0","","-12.9","","93","","","","10","","28","","","M","99.83","","","","-22","","NA"
"-130.91","69.60","LIVERPOOL BAY","220B68C","2020-10-26 14:00","2020","10","26","14:00","-11.8","","-12.7","","93","","","","10","","31","","","M","99.79","","","","-22","","NA"
"-130.91","69.60","LIVERPOOL BAY","220B68C","2020-10-26 15:00","2020","10","26","15:00","-11.7","","-12.6","","93","","","","10","","30","","","M","99.79","","","","-22","","NA"
"-130.91","69.60","LIVERPOOL BAY","220B68C","2020-10-26 16:00","2020","10","26","16:00","-11.1","","-12.7","","88","","","","9","","34","","","M","99.72","","","","-22","","NA"
"-130.91","69.60","LIVERPOOL BAY","220B68C","2020-10-26 17:00","2020","10","26","17:00","-11.0","","-13.0","","85","","","","9","","39","","","M","99.67","","","","-22","","NA"
"-130.91","69.60","LIVERPOOL BAY","220B68C","2020-10-26 18:00","2020","10","26","18:00","-11.2","","-12.9","","87","","","","10","","30","","","M","99.67","","","","-21","","NA"
"-130.91","69.60","LIVERPOOL BAY","220B68C","2020-10-26 19:00","2020","10","26","19:00","-11.6","","-13.1","","88","","","","10","","26","","","M","99.70","","","","-21","","NA"
"-130.91","69.60","LIVERPOOL BAY","220B68C","2020-10-26 20:00","2020","10","26","20:00","-11.8","","-13.3","","89","","","","9","","26","","","M","99.71","","","","-21","","NA"
"-130.91","69.60","LIVERPOOL BAY","220B68C","2020-10-26 21:00","2020","10","26","21:00","-11.6","","-13.2","","88","","","","9","","30","","","M","99.70","","","","-22","","NA"
"-130.91","69.60","LIVERPOOL BAY","220B68C","2020-10-26 22:00","2020","10","26","22:00","-11.7","","-13.3","","88","","","","9","","30","","","M","99.73","","","","-22","","NA"
"-130.91","69.60","LIVERPOOL BAY","220B68C","2020-10-26 23:00","2020","10","26","23:00","-12.0","","-13.5","","88","","","","9","","24","","","M","99.73","","","","-21","","NA"
"-130.91","69.60","LIVERPOOL BAY","220B68C","2020-10-27 00:00","2020","10","27","00:00","-11.5","","-13.1","","87","","","","11","","22","","","M","99.75","","","","-20","","NA"
"-130.91","69.60","LIVERPOOL BAY","220B68C","2020-10-27 01:00","2020","10","27","01:00","-11.6","","-13.0","","89","","","","12","","15","","","M","99.79","","","","-19","","NA"
"-130.91","69.60","LIVERPOOL BAY","220B68C","2020-10-27 02:00","2020","10","27","02:00","-11.9","","-13.3","","89","","","","11","","9","","","M","99.81","","","","-17","","NA"
"-130.91","69.60","LIVERPOOL BAY","220B68C","2020-10-27 03:00","2020","10","27","03:00","-12.5","","-13.6","","91","","","","10","","15","","","M","99.83","","","","-20","","NA"
"-130.91","69.60","LIVERPOOL BAY","220B68C","2020-10-27 04:00","2020","10","27","04:00","-11.6","","-12.6","","93","","","","15","","8","","","M","99.85","","","","-16","","NA"
"-130.91","69.60","LIVERPOOL BAY","220B68C","2020-10-27 05:00","2020","10","27","05:00","-10.7","","-12.4","","88","","","","18","","11","","","M","99.87","","","","-16","","NA"
"-130.91","69.60","LIVERPOOL BAY","220B68C","2020-10-27 06:00","2020","10","27","06:00","-10.4","","-11.7","","90","","","","16","","11","","","M","99.87","","","","-16","","NA"
"-130.91","69.60","LIVERPOOL BAY","220B68C","2020-10-27 07:00","2020","10","27","07:00","-10.3","","-11.9","","89","","","","18","","13","","","M","99.87","","","","-17","","NA"
"-130.91","69.60","LIVERPOOL BAY","220B68C","2020-10-27 08:00","2020","10","27","08:00","-10.2","","-11.3","","92","","","","18","","13","","","M","99.87","","","","-16","","NA"
"-130.91","69.60","LIVERPOOL BAY","220B68C","2020-10-27 09:00","2020","10","27","09:00","-10.1","","-11.5","","90","","","","23","","15","","","M","99.87","","","","-17","","NA"
"-130.91","69.60","LIVERPOOL BAY","220B68C","2020-10-27 10:00","2020","10","27","10:00","-10.3","","-11.3","","93","","","","20","","11","","","M","99.86","","","","-16","","NA"
"-130.91","69.60","LIVERPOOL BAY","220B68C","2020-10-27 11:00","2020","10","27","11:00","-9.9","","-10.5","","95","","","","21","","13","","","M","99.85","","","","-16","","NA"
"-130.91","69.60","LIVERPOOL BAY","220B68C","2020-10-27 12:00","2020","10","27","12:00","-9.8","","-10.4","","96","","","","22","","22","","","M","99.85","","","","-18","","NA"
"-130.91","69.60","LIVERPOOL BAY","220B68C","2020-10-27 13:00","2020","10","27","13:00","-10.6","","-11.1","","96","","","","26","","26","","","M","99.86","","","","-20","","NA"
"-130.91","69.60","LIVERPOOL BAY","220B68C","2020-10-27 14:00","2020","10","27","14:00","-11.3","","-11.9","","95","","","","23","","28","","","M","99.83","","","","-21","","NA"
"-130.91","69.60","LIVERPOOL BAY","220B68C","2020-10-27 15:00","2020","10","27","15:00","-11.8","","-12.6","","94","","","","23","","28","","","M","99.83","","","","-22","","NA"
"-130.91","69.60","LIVERPOOL BAY","220B68C","2020-10-27 16:00","2020","10","27","16:00","-11.7","","-12.5","","94","","","","24","","22","","","M","99.83","","","","-20","","NA"
"-130.91","69.60","LIVERPOOL BAY","220B68C","2020-10-27 17:00","2020","10","27","17:00","-11.1","","-11.8","","94","","","","22","","21","","","M","99.82","","","","-19","","NA"
"-130.91","69.60","LIVERPOOL BAY","220B68C","2020-10-27 18:00","2020","10","27","18:00","-11.5","","-12.2","","94","","","","22","","24","","","M","99.76","","","","-21","","NA"
"-130.91","69.60","LIVERPOOL BAY","220B68C","2020-10-27 19:00","2020","10","27","19:00","-9.7","","-10.2","","96","","","","25","","26","","","M","99.76","","","","-19","","NA"
"-130.91","69.60","LIVERPOOL BAY","220B68C","2020-10-27 20:00","2020","10","27","20:00","-9.4","","-9.9","","96","","","","25","","30","","","M","99.74","","","","-19","","NA"
"-130.91","69.60","LIVERPOOL BAY","220B68C","2020-10-27 21:00","2020","10","27","21:00","-9.3","","-9.7","","96","","","","25","","31","","","M","99.74","","","","-19","","NA"
"-130.91","69.60","LIVERPOOL BAY","220B68C","2020-10-27 22:00","2020","10","27","22:00","-9.5","","-10.0","","96","","","","25","","34","","","M","99.73","","","","-19","","NA"
"-130.91","69.60","LIVERPOOL BAY","220B68C","2020-10-27 23:00","2020","10","27","23:00","-9.6","","-10.1","","96","","","","26","","37","","","M","99.72","","","","-20","","NA"
"-130.91","69.60","LIVERPOOL BAY","220B68C","2020-10-28 00:00","2020","10","28","00:00","-10.4","","-11.0","","95","","","","26","","31","","","M","99.72","","","","-20","","NA"
"-130.91","69.60","LIVERPOOL BAY","220B68C","2020-10-28 01:00","2020","10","28","01:00","-9.6","","-10.2","","96","","","","27","","28","","","M","99.72","","","","-19","","NA"
"-130.91","69.60","LIVERPOOL BAY","220B68C","2020-10-28 02:00","2020","10","28","02:00","-8.7","","-9.1","","97","","","","27","","28","","","M","99.73","","","","-18","","NA"
"-130.91","69.60","LIVERPOOL BAY","220B68C","2020-10-28 03:00","2020","10","28","03:00","-8.4","","-8.8","","97","","","","27","","30","","","M","99.76","","","","-17","","NA"
"-130.91","69.60","LIVERPOOL BAY","220B68C","2020-10-28 04:00","2020","10","28","04:00","-8.6","","-9.1","","96","","","","27","","26","","","M","99.78","","","","-17","","NA"
"-130.91","69.60","LIVERPOOL BAY","220B68C","2020-10-28 05:00","2020","10","28","05:00","-8.7","","-9.3","","95","","","","26","","34","","","M","99.79","","","","-18","","NA"
"-130.91","69.60","LIVERPOOL BAY","220B68C","2020-10-28 06:00","2020","10","28","06:00","-8.9","","-9.9","","92","","","","25","","28","","","M","99.79","","","","-18","","NA"
"-130.91","69.60","LIVERPOOL BAY","220B68C","2020-10-28 07:00","2020","10","28","07:00","-8.0","","-8.5","","96","","","","24","","26","","","M","99.79","","","","-16","","NA"
"-130.91","69.60","LIVERPOOL BAY","220B68C","2020-10-28 08:00","2020","10","28","08:00","-7.4","","-7.9","","97","","","","23","","28","","","M","99.77","","","","-16","","NA"
"-130.91","69.60","LIVERPOOL BAY","220B68C","2020-10-28 09:00","2020","10","28","09:00","-8.2","","-8.4","","98","","","","23","","30","","","M","99.71","","","","-17","","NA"
"-130.91","69.60","LIVERPOOL BAY","220B68C","2020-10-28 10:00","2020","10","28","10:00","-6.7","","-6.9","","99","","","","24","","30","","","M","99.71","","","","-15","","NA"
"-130.91","69.60","LIVERPOOL BAY","220B68C","2020-10-28 11:00","2020","10","28","11:00","-6.3","","-6.5","","98","","","","24","","35","","","M","99.68","","","","-15","","NA"
"-130.91","69.60","LIVERPOOL BAY","220B68C","2020-10-28 12:00","2020","10","28","12:00","-6.2","","-6.6","","96","","","","25","","43","","","M","99.68","","","","-16","","NA"
"-130.91","69.60","LIVERPOOL BAY","220B68C","2020-10-28 13:00","2020","10","28","13:00","-5.9","","-6.4","","96","","","","25","","43","","","M","99.67","","","","-16","","NA"
"-130.91","69.60","LIVERPOOL BAY","220B68C","2020-10-28 14:00","2020","10","28","14:00","-5.8","","-6.2","","97","","","","27","","39","","","M","99.71","","","","-15","","NA"
"-130.91","69.60","LIVERPOOL BAY","220B68C","2020-10-28 15:00","2020","10","28","15:00","-5.4","","-5.8","","97","","","","26","","43","","","M","99.71","","","","-15","","NA"
"-130.91","69.60","LIVERPOOL BAY","220B68C","2020-10-28 16:00","2020","10","28","16:00","-5.8","","-6.8","","93","","","","26","","44","","","M","99.71","","","","-16","","NA"
"-130.91","69.60","LIVERPOOL BAY","220B68C","2020-10-28 17:00","2020","10","28","17:00","-5.6","","-6.0","","97","","","","25","","48","","","M","99.65","","","","-16","","NA"
"-130.91","69.60","LIVERPOOL BAY","220B68C","2020-10-28 18:00","2020","10","28","18:00","-6.7","","-8.5","","87","","","","28","","44","","","M","99.68","","","","-17","","NA"
"-130.91","69.60","LIVERPOOL BAY","220B68C","2020-10-28 19:00","2020","10","28","19:00","-6.3","","-7.6","","90","","","","28","","34","","","M","99.73","","","","-15","","NA"
"-130.91","69.60","LIVERPOOL BAY","220B68C","2020-10-28 20:00","2020","10","28","20:00","-6.3","","-7.3","","92","","","","28","","43","","","M","99.74","","","","-16","","NA"
"-130.91","69.60","LIVERPOOL BAY","220B68C","2020-10-28 21:00","2020","10","28","21:00","-7.3","","-8.3","","92","","","","28","","50","","","M","99.78","","","","-18","","NA"
"-130.91","69.60","LIVERPOOL BAY","220B68C","2020-10-28 22:00","2020","10","28","22:00","-7.8","","-8.6","","93","","","","30","","55","","","M","99.84","","","","-19","","NA"
"-130.91","69.60","LIVERPOOL BAY","220B68C","2020-10-28 23:00","2020","10","28","23:00","-8.9","","-9.4","","96","","","","30","","50","","","M","99.95","","","","-20","","NA"
"-130.91","69.60","LIVERPOOL BAY","220B68C","2020-10-29 00:00","2020","10","29","00:00","-9.9","","-10.5","","96","","","","30","","41","","","M","100.06","","","","-21","","NA"
"-130.91","69.60","LIVERPOOL BAY","220B68C","2020-10-29 01:00","2020","10","29","01:00","-11.2","","-11.9","","94","","","","30","","31","","","M","100.17","","","","-21","","NA"
"-130.91","69.60","LIVERPOOL BAY","220B68C","2020-10-29 02:00","2020","10","29","02:00","-10.8","","-11.4","","95","","","","28","","22","","","M","100.27","","","","-19","","NA"
"-130.91","69.60","LIVERPOOL BAY","220B68C","2020-10-29 03:00","2020","10","29","03:00","-10.9","","-11.5","","95","","","","29","","30","","","M","100.32","","","","-21","","NA"
"-130.91","69.60","LIVERPOOL BAY","220B68C","2020-10-29 04:00","2020","10","29","04:00","-11.8","","-12.5","","94","","","","31","","26","","","M","100.36","","","","-21","","NA"
"-130.91","69.60","LIVERPOOL BAY","220B68C","2020-10-29 05:00","2020","10","29","05:00","-12.1","","-13.0","","93","","","","32","","24","","","M","100.40","","","","-21","","NA"
"-130.91","69.60","LIVERPOOL BAY","220B68C","2020-10-29 06:00","2020","10","29","06:00","-14.4","","-15.4","","91","","","","33","","28","","","M","100.45","","","","-25","","NA"
"-130.91","69.60","LIVERPOOL BAY","220B68C","2020-10-29 07:00","2020","10","29","07:00","-15.3","","-16.5","","90","","","","31","","22","","","M","100.50","","","","-25","","NA"
"-130.91","69.60","LIVERPOOL BAY","220B68C","2020-10-29 08:00","2020","10","29","08:00","-16.2","","-17.5","","89","","","","31","","22","","","M","100.55","","","","-26","","NA"
"-130.91","69.60","LIVERPOOL BAY","220B68C","2020-10-29 09:00","2020","10","29","09:00","-16.5","","-17.9","","89","","","","31","","22","","","M","100.57","","","","-27","","NA"
"-130.91","69.60","LIVERPOOL BAY","220B68C","2020-10-29 10:00","2020","10","29","10:00","","M","","M","","M","","","30","","17","","","M","","M","","","","","NA"
"-130.91","69.60","LIVERPOOL BAY","220B68C","2020-10-29 11:00","2020","10","29","11:00","","M","","M","","M","","","22","","5","","","M","","M","","","","","NA"
"-130.91","69.60","LIVERPOOL BAY","220B68C","2020-10-29 12:00","2020","10","29","12:00","","M","","M","","M","","","30","","9","","","M","","M","","","","","NA"
"-130.91","69.60","LIVERPOOL BAY","220B68C","2020-10-29 13:00","2020","10","29","13:00","","M","","M","","M","","","27","","11","","","M","","M","","","","","NA"
"-130.91","69.60","LIVERPOOL BAY","220B68C","2020-10-29 14:00","2020","10","29","14:00","","M","","M","","M","","","25","","13","","","M","","M","","","","","NA"
"-130.91","69.60","LIVERPOOL BAY","220B68C","2020-10-29 15:00","2020","10","29","15:00","","M","","M","","M","","","25","","9","","","M","","M","","","","","NA"
"-130.91","69.60","LIVERPOOL BAY","220B68C","2020-10-29 16:00","2020","10","29","16:00","","M","","M","","M","","","27","","13","","","M","","M","","","","","NA"
"-130.91","69.60","LIVERPOOL BAY","220B68C","2020-10-29 17:00","2020","10","29","17:00","","M","","M","","M","","","24","","15","","","M","","M","","","","","NA"
"-130.91","69.60","LIVERPOOL BAY","220B68C","2020-10-29 18:00","2020","10","29","18:00","","M","","M","","M","","","24","","13","","","M","","M","","","","","NA"
"-130.91","69.60","LIVERPOOL BAY","220B68C","2020-10-29 19:00","2020","10","29","19:00","","M","","M","","M","","","21","","22","","","M","","M","","","","","NA"
"-130.91","69.60","LIVERPOOL BAY","220B68C","2020-10-29 20:00","2020","10","29","20:00","","M","","M","","M","","","21","","21","","","M","","M","","","","","NA"
"-130.91","69.60","LIVERPOOL BAY","220B68C","2020-10-29 21:00","2020","10","29","21:00","","M","","M","","M","","","22","","18","","","M","","M","","","","","NA"
"-130.91","69.60","LIVERPOOL BAY","220B68C","2020-10-29 22:00","2020","10","29","22:00","","M","","M","","M","","","22","","21","","","M","","M","","","","","NA"
"-130.91","69.60","LIVERPOOL BAY","220B68C","2020-10-29 23:00","2020","10","29","23:00","","M","","M","","M","","","22","","21","","","M","","M","","","","","NA"
"-130.91","69.60","LIVERPOOL BAY","220B68C","2020-10-30 00:00","2020","10","30","00:00","","M","","M","","M","","","21","","21","","","M","","M","","","","","NA"
"-130.91","69.60","LIVERPOOL BAY","220B68C","2020-10-30 01:00","2020","10","30","01:00","","M","","M","","M","","","19","","18","","","M","","M","","","","","NA"
"-130.91","69.60","LIVERPOOL BAY","220B68C","2020-10-30 02:00","2020","10","30","02:00","","M","","M","","M","","","19","","18","","","M","","M","","","","","NA"
"-130.91","69.60","LIVERPOOL BAY","220B68C","2020-10-30 03:00","2020","10","30","03:00","","M","","M","","M","","","17","","11","","","M","","M","","","","","NA"
"-130.91","69.60","LIVERPOOL BAY","220B68C","2020-10-30 04:00","2020","10","30","04:00","","M","","M","","M","","","18","","17","","","M","","M","","","","","NA"
"-130.91","69.60","LIVERPOOL BAY","220B68C","2020-10-30 05:00","2020","10","30","05:00","","M","","M","","M","","","16","","18","","","M","","M","","","","","NA"
"-130.91","69.60","LIVERPOOL BAY","220B68C","2020-10-30 06:00","2020","10","30","06:00","","M","","M","","M","","","15","","21","","","M","","M","","","","","NA"
"-130.91","69.60","LIVERPOOL BAY","220B68C","2020-10-30 07:00","2020","10","30","07:00","","M","","M","","M","","","16","","13","","","M","","M","","","","","NA"
"-130.91","69.60","LIVERPOOL BAY","220B68C","2020-10-30 08:00","2020","10","30","08:00","","M","","M","","M","","","18","","17","","","M","","M","","","","","NA"
"-130.91","69.60","LIVERPOOL BAY","220B68C","2020-10-30 09:00","2020","10","30","09:00","","M","","M","","M","","","17","","15","","","M","","M","","","","","NA"
"-130.91","69.60","LIVERPOOL BAY","220B68C","2020-10-30 10:00","2020","10","30","10:00","","M","","M","","M","","","18","","17","","","M","","M","","","","","NA"
"-130.91","69.60","LIVERPOOL BAY","220B68C","2020-10-30 11:00","2020","10","30","11:00","","M","","M","","M","","","18","","17","","","M","","M","","","","","NA"
"-130.91","69.60","LIVERPOOL BAY","220B68C","2020-10-30 12:00","2020","10","30","12:00","","M","","M","","M","","","18","","22","","","M","","M","","","","","NA"
"-130.91","69.60","LIVERPOOL BAY","220B68C","2020-10-30 13:00","2020","10","30","13:00","","M","","M","","M","","","18","","21","","","M","","M","","","","","NA"
"-130.91","69.60","LIVERPOOL BAY","220B68C","2020-10-30 14:00","2020","10","30","14:00","","M","","M","","M","","","17","","17","","","M","","M","","","","","NA"
"-130.91","69.60","LIVERPOOL BAY","220B68C","2020-10-30 15:00","2020","10","30","15:00","","M","","M","","M","","","17","","21","","","M","","M","","","","","NA"
"-130.91","69.60","LIVERPOOL BAY","220B68C","2020-10-30 16:00","2020","10","30","16:00","","M","","M","","M","","","17","","15","","","M","","M","","","","","NA"
"-130.91","69.60","LIVERPOOL BAY","220B68C","2020-10-30 17:00","2020","10","30","17:00","","M","","M","","M","","","17","","21","","","M","","M","","","","","NA"
"-130.91","69.60","LIVERPOOL BAY","220B68C","2020-10-30 18:00","2020","10","30","18:00","","M","","M","","M","","","18","","21","","","M","","M","","","","","NA"
"-130.91","69.60","LIVERPOOL BAY","220B68C","2020-10-30 19:00","2020","10","30","19:00","","M","","M","","M","","","17","","17","","","M","","M","","","","","NA"
"-130.91","69.60","LIVERPOOL BAY","220B68C","2020-10-30 20:00","2020","10","30","20:00","","M","","M","","M","","","17","","21","","","M","","M","","","","","NA"
"-130.91","69.60","LIVERPOOL BAY","220B68C","2020-10-30 21:00","2020","10","30","21:00","","M","","M","","M","","","17","","22","","","M","","M","","","","","NA"
"-130.91","69.60","LIVERPOOL BAY","220B68C","2020-10-30 22:00","2020","10","30","22:00","","M","","M","","M","","","17","","15","","","M","","M","","","","","NA"
"-130.91","69.60","LIVERPOOL BAY","220B68C","2020-10-30 23:00","2020","10","30","23:00","","M","","M","","M","","","17","","22","","","M","","M","","","","","NA"
"-130.91","69.60","LIVERPOOL BAY","220B68C","2020-10-31 00:00","2020","10","31","00:00","","M","","M","","M","","","16","","18","","","M","","M","","","","","NA"
"-130.91","69.60","LIVERPOOL BAY","220B68C","2020-10-31 01:00","2020","10","31","01:00","","M","","M","","M","","","17","","17","","","M","","M","","","","","NA"
"-130.91","69.60","LIVERPOOL BAY","220B68C","2020-10-31 02:00","2020","10","31","02:00","","M","","M","","M","","","19","","22","","","M","","M","","","","","NA"
"-130.91","69.60","LIVERPOOL BAY","220B68C","2020-10-31 03:00","2020","10","31","03:00","","M","","M","","M","","","18","","24","","","M","","M","","","","","NA"
"-130.91","69.60","LIVERPOOL BAY","220B68C","2020-10-31 04:00","2020","10","31","04:00","","M","","M","","M","","","17","","21","","","M","","M","","","","","NA"
"-130.91","69.60","LIVERPOOL BAY","220B68C","2020-10-31 05:00","2020","10","31","05:00","","M","","M","","M","","","18","","21","","","M","","M","","","","","NA"
"-130.91","69.60","LIVERPOOL BAY","220B68C","2020-10-31 06:00","2020","10","31","06:00","","M","","M","","M","","","19","","17","","","M","","M","","","","","NA"
"-130.91","69.60","LIVERPOOL BAY","220B68C","2020-10-31 07:00","2020","10","31","07:00","","M","","M","","M","","","18","","15","","","M","","M","","","","","NA"
"-130.91","69.60","LIVERPOOL BAY","220B68C","2020-10-31 08:00","2020","10","31","08:00","","M","","M","","M","","","18","","18","","","M","","M","","","","","NA"
"-130.91","69.60","LIVERPOOL BAY","220B68C","2020-10-31 09:00","2020","10","31","09:00","","M","","M","","M","","","16","","17","","","M","","M","","","","","NA"
"-130.91","69.60","LIVERPOOL BAY","220B68C","2020-10-31 10:00","2020","10","31","10:00","","M","","M","","M","","","18","","17","","","M","","M","","","","","NA"
"-130.91","69.60","LIVERPOOL BAY","220B68C","2020-10-31 11:00","2020","10","31","11:00","","M","","M","","M","","","18","","15","","","M","","M","","","","","NA"
"-130.91","69.60","LIVERPOOL BAY","220B68C","2020-10-31 12:00","2020","10","31","12:00","","M","","M","","M","","","17","","13","","","M","","M","","","","","NA"
"-130.91","69.60","LIVERPOOL BAY","220B68C","2020-10-31 13:00","2020","10","31","13:00","","M","","M","","M","","","20","","15","","","M","","M","","","","","NA"
"-130.91","69.60","LIVERPOOL BAY","220B68C","2020-10-31 14:00","2020","10","31","14:00","","M","","M","","M","","","21","","13","","","M","","M","","","","","NA"
"-130.91","69.60","LIVERPOOL BAY","220B68C","2020-10-31 15:00","2020","10","31","15:00","","M","","M","","M","","","20","","9","","","M","","M","","","","","NA"
"-130.91","69.60","LIVERPOOL BAY","220B68C","2020-10-31 16:00","2020","10","31","16:00","","M","","M","","M","","","22","","8","","","M","","M","","","","","NA"
"-130.91","69.60","LIVERPOOL BAY","220B68C","2020-10-31 17:00","2020","10","31","17:00","","M","","M","","M","","","22","","9","","","M","","M","","","","","NA"
"-130.91","69.60","LIVERPOOL BAY","220B68C","2020-10-31 18:00","2020","10","31","18:00","","M","","M","","M","","","24","","8","","","M","","M","","","","","NA"
"-130.91","69.60","LIVERPOOL BAY","220B68C","2020-10-31 19:00","2020","10","31","19:00","","M","","M","","M","","","24","","11","","","M","","M","","","","","NA"
"-130.91","69.60","LIVERPOOL BAY","220B68C","2020-10-31 20:00","2020","10","31","20:00","","M","","M","","M","","","20","","11","","","M","","M","","","","","NA"
"-130.91","69.60","LIVERPOOL BAY","220B68C","2020-10-31 21:00","2020","10","31","21:00","","M","","M","","M","","","22","","13","","","M","","M","","","","","NA"
"-130.91","69.60","LIVERPOOL BAY","220B68C","2020-10-31 22:00","2020","10","31","22:00","","M","","M","","M","","","24","","15","","","M","","M","","","","","NA"
"-130.91","69.60","LIVERPOOL BAY","220B68C","2020-10-31 23:00","2020","10","31","23:00","","M","","M","","M","","","24","","11","","","M","","M","","","","","NA"
