"Longitude (x)","Latitude (y)","Station Name","Climate ID","Date/Time (LST)","Year","Month","Day","Time (LST)","Temp (°C)","Temp Flag","Dew Point Temp (°C)","Dew Point Temp Flag","Rel Hum (%)","Rel Hum Flag","Precip. Amount (mm)","Precip. Amount Flag","Wind Dir (10s deg)","Wind Dir Flag","Wind Spd (km/h)","Wind Spd Flag","Visibility (km)","Visibility Flag","Stn Press (kPa)","Stn Press Flag","Hmdx","Hmdx Flag","Wind Chill","Wind Chill Flag","Weather"
"-80.37","45.03","WESTERN ISLAND (AUT)","6119M51","2021-12-01 00:00","2021","12","01","00:00","3.6","","-1.3","","70","","","","35","","50","","","","98.84","","","","","","NA"
"-80.37","45.03","WESTERN ISLAND (AUT)","6119M51","2021-12-01 01:00","2021","12","01","01:00","3.3","","-4.5","","57","","","","33","","56","","","","98.95","","","","","","NA"
"-80.37","45.03","WESTERN ISLAND (AUT)","6119M51","2021-12-01 02:00","2021","12","01","02:00","2.3","","-5.2","","58","","","","34","","54","","","","99.11","","","","","","NA"
"-80.37","45.03","WESTERN ISLAND (AUT)","6119M51","2021-12-01 03:00","2021","12","01","03:00","2.2","","-5.1","","58","","","","34","","42","","","","99.22","","","","","","NA"
"-80.37","45.03","WESTERN ISLAND (AUT)","6119M51","2021-12-01 04:00","2021","12","01","04:00","1.9","","-5.7","","57","","","","34","","38","","","","99.26","","","","","","NA"
"-80.37","45.03","WESTERN ISLAND (AUT)","6119M51","2021-12-01 05:00","2021","12","01","05:00","1.6","","-5.8","","58","","","","34","","28","","","","99.30","","","","","","NA"
"-80.37","45.03","WESTERN ISLAND (AUT)","6119M51","2021-12-01 06:00","2021","12","01","06:00","1.9","","-4.9","","61","","","","34","","27","","","","99.34","","","","","","NA"
"-80.37","45.03","WESTERN ISLAND (AUT)","6119M51","2021-12-01 07:00","2021","12","01","07:00","0.5","","-4.0","","72","","","","6","","18","","","","99.40","","","","","","NA"
"-80.37","45.03","WESTERN ISLAND (AUT)","6119M51","2021-12-01 08:00","2021","12","01","08:00","0.7","","-3.9","","71","","","","7","","8","","","","99.44","","","","","","NA"
"-80.37","45.03","WESTERN ISLAND (AUT)","6119M51","2021-12-01 09:00","2021","12","01","09:00","0.4","","-3.4","","76","","","","13","","9","","","","99.47","","","","","","NA"
"-80.37","45.03","WESTERN ISLAND (AUT)","6119M51","2021-12-01 10:00","2021","12","01","10:00","0.9","","-3.3","","74","","","","15","","13","","","","99.50","","","","","","NA"
"-80.37","45.03","WESTERN ISLAND (AUT)","6119M51","2021-12-01 11:00","2021","12","01","11:00","1.9","","-2.1","","75","","","","17","","19","","","","99.44","","","","","","NA"
"-80.37","45.03","WESTERN ISLAND (AUT)","6119M51","2021-12-01 12:00","2021","12","01","12:00","3.4","","-3.1","","62","","","","26","","22","","","","99.34","","","","","","NA"
"-80.37","45.03","WESTERN ISLAND (AUT)","6119M51","2021-12-01 13:00","2021","12","01","13:00","3.3","","-3.7","","60","","","","25","","16","","","","99.28","","","","","","NA"
"-80.37","45.03","WESTERN ISLAND (AUT)","6119M51","2021-12-01 14:00","2021","12","01","14:00","4.0","","-2.1","","64","","","","23","","29","","","","99.16","","","","","","NA"
"-80.37","45.03","WESTERN ISLAND (AUT)","6119M51","2021-12-01 15:00","2021","12","01","15:00","4.1","","-3.5","","58","","","","24","","33","","","","99.13","","","","","","NA"
"-80.37","45.03","WESTERN ISLAND (AUT)","6119M51","2021-12-01 16:00","2021","12","01","16:00","4.0","","-2.9","","61","","","","22","","29","","","","99.06","","","","","","NA"
"-80.37","45.03","WESTERN ISLAND (AUT)","6119M51","2021-12-01 17:00","2021","12","01","17:00","3.7","","-1.9","","66","","","","22","","44","","","","98.98","","","","","","NA"
"-80.37","45.03","WESTERN ISLAND (AUT)","6119M51","2021-12-01 18:00","2021","12","01","18:00","4.0","","-1.2","","69","","","","22","","49","","","","98.90","","","","","","NA"
"-80.37","45.03","WESTERN ISLAND (AUT)","6119M51","2021-12-01 19:00","2021","12","01","19:00","4.4","","-0.7","","69","","","","21","","46","","","","98.81","","","","","","NA"
"-80.37","45.03","WESTERN ISLAND (AUT)","6119M51","2021-12-01 20:00","2021","12","01","20:00","4.7","","-0.2","","71","","","","19","","43","","","","98.64","","","","","","NA"
"-80.37","45.03","WESTERN ISLAND (AUT)","6119M51","2021-12-01 21:00","2021","12","01","21:00","4.8","","0.1","","72","","","","21","","46","","","","98.54","","","","","","NA"
"-80.37","45.03","WESTERN ISLAND (AUT)","6119M51","2021-12-01 22:00","2021","12","01","22:00","5.4","","0.4","","71","","","","20","","44","","","","98.37","","","","","","NA"
"-80.37","45.03","WESTERN ISLAND (AUT)","6119M51","2021-12-01 23:00","2021","12","01","23:00","5.4","","1.1","","74","","","","20","","50","","","","98.21","","","","","","NA"
"-80.37","45.03","WESTERN ISLAND (AUT)","6119M51","2021-12-02 00:00","2021","12","02","00:00","5.5","","2.5","","81","","","","21","","53","","","","98.07","","","","","","NA"
"-80.37","45.03","WESTERN ISLAND (AUT)","6119M51","2021-12-02 01:00","2021","12","02","01:00","6.0","","4.0","","87","","","","21","","46","","","","97.88","","","","","","NA"
"-80.37","45.03","WESTERN ISLAND (AUT)","6119M51","2021-12-02 02:00","2021","12","02","02:00","6.6","","4.5","","86","","","","23","","48","","","","97.73","","","","","","NA"
"-80.37","45.03","WESTERN ISLAND (AUT)","6119M51","2021-12-02 03:00","2021","12","02","03:00","6.4","","4.8","","89","","","","22","","50","","","","97.61","","","","","","NA"
"-80.37","45.03","WESTERN ISLAND (AUT)","6119M51","2021-12-02 04:00","2021","12","02","04:00","6.6","","5.0","","90","","","","20","","52","","","","97.41","","","","","","NA"
"-80.37","45.03","WESTERN ISLAND (AUT)","6119M51","2021-12-02 05:00","2021","12","02","05:00","6.6","","4.9","","89","","","","20","","48","","","","97.27","","","","","","NA"
"-80.37","45.03","WESTERN ISLAND (AUT)","6119M51","2021-12-02 06:00","2021","12","02","06:00","7.2","","4.8","","85","","","","20","","62","","","","97.05","","","","","","NA"
"-80.37","45.03","WESTERN ISLAND (AUT)","6119M51","2021-12-02 07:00","2021","12","02","07:00","7.7","","5.2","","84","","","","21","","58","","","","97.08","","","","","","NA"
"-80.37","45.03","WESTERN ISLAND (AUT)","6119M51","2021-12-02 08:00","2021","12","02","08:00","8.3","","5.6","","83","","","","22","","50","","","","97.07","","","","","","NA"
"-80.37","45.03","WESTERN ISLAND (AUT)","6119M51","2021-12-02 09:00","2021","12","02","09:00","8.3","","4.8","","79","","","","23","","53","","","","97.06","","","","","","NA"
"-80.37","45.03","WESTERN ISLAND (AUT)","6119M51","2021-12-02 10:00","2021","12","02","10:00","8.0","","4.3","","77","","","","23","","55","","","","97.09","","","","","","NA"
"-80.37","45.03","WESTERN ISLAND (AUT)","6119M51","2021-12-02 11:00","2021","12","02","11:00","6.1","","2.7","","79","","","","30","","62","","","","97.14","","","","","","NA"
"-80.37","45.03","WESTERN ISLAND (AUT)","6119M51","2021-12-02 12:00","2021","12","02","12:00","6.6","","1.4","","69","","","","30","","62","","","","97.16","","","","","","NA"
"-80.37","45.03","WESTERN ISLAND (AUT)","6119M51","2021-12-02 13:00","2021","12","02","13:00","5.9","","1.7","","75","","","","31","","66","","","","97.22","","","","","","NA"
"-80.37","45.03","WESTERN ISLAND (AUT)","6119M51","2021-12-02 14:00","2021","12","02","14:00","6.0","","0.7","","69","","","","32","","63","","","","97.32","","","","","","NA"
"-80.37","45.03","WESTERN ISLAND (AUT)","6119M51","2021-12-02 15:00","2021","12","02","15:00","4.2","","1.9","","85","","","","33","","64","","","","97.48","","","","","","NA"
"-80.37","45.03","WESTERN ISLAND (AUT)","6119M51","2021-12-02 16:00","2021","12","02","16:00","5.3","","0.4","","71","","","","34","","61","","","","97.66","","","","","","NA"
"-80.37","45.03","WESTERN ISLAND (AUT)","6119M51","2021-12-02 17:00","2021","12","02","17:00","4.0","","-0.3","","74","","","","35","","49","","","","97.91","","","","","","NA"
"-80.37","45.03","WESTERN ISLAND (AUT)","6119M51","2021-12-02 18:00","2021","12","02","18:00","2.7","","-1.8","","72","","","","36","","55","","","","98.17","","","","","","NA"
"-80.37","45.03","WESTERN ISLAND (AUT)","6119M51","2021-12-02 19:00","2021","12","02","19:00","1.8","","-2.7","","72","","","","1","","59","","","","98.36","","","","","","NA"
"-80.37","45.03","WESTERN ISLAND (AUT)","6119M51","2021-12-02 20:00","2021","12","02","20:00","0.9","","-4.3","","68","","","","1","","56","","","","98.54","","","","","","NA"
"-80.37","45.03","WESTERN ISLAND (AUT)","6119M51","2021-12-02 21:00","2021","12","02","21:00","0.5","","-4.9","","67","","","","1","","48","","","","98.69","","","","","","NA"
"-80.37","45.03","WESTERN ISLAND (AUT)","6119M51","2021-12-02 22:00","2021","12","02","22:00","0.3","","-4.4","","71","","","","36","","45","","","","98.79","","","","","","NA"
"-80.37","45.03","WESTERN ISLAND (AUT)","6119M51","2021-12-02 23:00","2021","12","02","23:00","0.3","","-4.3","","71","","","","1","","43","","","","98.86","","","","","","NA"
"-80.37","45.03","WESTERN ISLAND (AUT)","6119M51","2021-12-03 00:00","2021","12","03","00:00","-0.2","","-4.9","","71","","","","1","","44","","","","98.94","","","","-8","","NA"
"-80.37","45.03","WESTERN ISLAND (AUT)","6119M51","2021-12-03 01:00","2021","12","03","01:00","-0.7","","-5.4","","70","","","","1","","39","","","","99.06","","","","-8","","NA"
"-80.37","45.03","WESTERN ISLAND (AUT)","6119M51","2021-12-03 02:00","2021","12","03","02:00","-0.8","","-6.0","","68","","","","35","","29","","","","99.12","","","","-7","","NA"
"-80.37","45.03","WESTERN ISLAND (AUT)","6119M51","2021-12-03 03:00","2021","12","03","03:00","-0.6","","-6.2","","66","","","","35","","34","","","","99.20","","","","-8","","NA"
"-80.37","45.03","WESTERN ISLAND (AUT)","6119M51","2021-12-03 04:00","2021","12","03","04:00","-0.6","","-5.3","","70","","","","1","","36","","","","99.19","","","","-8","","NA"
"-80.37","45.03","WESTERN ISLAND (AUT)","6119M51","2021-12-03 05:00","2021","12","03","05:00","-0.5","","-6.2","","65","","","","34","","39","","","","99.24","","","","-8","","NA"
"-80.37","45.03","WESTERN ISLAND (AUT)","6119M51","2021-12-03 06:00","2021","12","03","06:00","-1.6","","-4.8","","79","","","","2","","34","","","","99.35","","","","-9","","NA"
"-80.37","45.03","WESTERN ISLAND (AUT)","6119M51","2021-12-03 07:00","2021","12","03","07:00","-2.7","","-6.1","","77","","","","3","","33","","","","99.44","","","","-10","","NA"
"-80.37","45.03","WESTERN ISLAND (AUT)","6119M51","2021-12-03 08:00","2021","12","03","08:00","-3.7","","-7.2","","77","","","","2","","34","","","","99.54","","","","-12","","NA"
"-80.37","45.03","WESTERN ISLAND (AUT)","6119M51","2021-12-03 09:00","2021","12","03","09:00","-4.0","","-8.9","","69","","","","2","","27","","","","99.60","","","","-11","","NA"
"-80.37","45.03","WESTERN ISLAND (AUT)","6119M51","2021-12-03 10:00","2021","12","03","10:00","-4.6","","-10.5","","63","","","","2","","25","","","","99.64","","","","-12","","NA"
"-80.37","45.03","WESTERN ISLAND (AUT)","6119M51","2021-12-03 11:00","2021","12","03","11:00","-4.4","","-11.0","","60","","","","1","","19","","","","99.65","","","","-11","","NA"
"-80.37","45.03","WESTERN ISLAND (AUT)","6119M51","2021-12-03 12:00","2021","12","03","12:00","-4.3","","-11.2","","59","","","","1","","22","","","","99.61","","","","-11","","NA"
"-80.37","45.03","WESTERN ISLAND (AUT)","6119M51","2021-12-03 13:00","2021","12","03","13:00","-3.9","","-10.6","","60","","","","35","","20","","","","99.58","","","","-10","","NA"
"-80.37","45.03","WESTERN ISLAND (AUT)","6119M51","2021-12-03 14:00","2021","12","03","14:00","-3.6","","-9.8","","62","","","","32","","18","","","","99.53","","","","-9","","NA"
"-80.37","45.03","WESTERN ISLAND (AUT)","6119M51","2021-12-03 15:00","2021","12","03","15:00","-3.2","","-10.5","","57","","","","33","","12","","","","99.49","","","","-8","","NA"
"-80.37","45.03","WESTERN ISLAND (AUT)","6119M51","2021-12-03 16:00","2021","12","03","16:00","-2.6","","-10.2","","56","","","","33","","20","","","","99.54","","","","-9","","NA"
"-80.37","45.03","WESTERN ISLAND (AUT)","6119M51","2021-12-03 17:00","2021","12","03","17:00","-2.2","","-9.9","","56","","","","34","","18","","","","99.49","","","","-8","","NA"
"-80.37","45.03","WESTERN ISLAND (AUT)","6119M51","2021-12-03 18:00","2021","12","03","18:00","-1.9","","-10.0","","54","","","","33","","21","","","","99.50","","","","-8","","NA"
"-80.37","45.03","WESTERN ISLAND (AUT)","6119M51","2021-12-03 19:00","2021","12","03","19:00","-1.5","","-9.2","","56","","","","34","","27","","","","99.52","","","","-8","","NA"
"-80.37","45.03","WESTERN ISLAND (AUT)","6119M51","2021-12-03 20:00","2021","12","03","20:00","-0.7","","-8.1","","57","","","","34","","22","","","","99.51","","","","-6","","NA"
"-80.37","45.03","WESTERN ISLAND (AUT)","6119M51","2021-12-03 21:00","2021","12","03","21:00","-0.1","","-7.5","","57","","","","34","","27","","","","99.53","","","","-6","","NA"
"-80.37","45.03","WESTERN ISLAND (AUT)","6119M51","2021-12-03 22:00","2021","12","03","22:00","-0.4","","-7.8","","57","","","","34","","19","","","","99.50","","","","-6","","NA"
"-80.37","45.03","WESTERN ISLAND (AUT)","6119M51","2021-12-03 23:00","2021","12","03","23:00","-0.2","","-6.8","","61","","","","34","","8","","","","99.41","","","","-3","","NA"
"-80.37","45.03","WESTERN ISLAND (AUT)","6119M51","2021-12-04 00:00","2021","12","04","00:00","0.1","","-5.9","","64","","","","30","","8","","","","99.38","","","","","","NA"
"-80.37","45.03","WESTERN ISLAND (AUT)","6119M51","2021-12-04 01:00","2021","12","04","01:00","0.5","","-4.2","","70","","","","25","","14","","","","99.34","","","","","","NA"
"-80.37","45.03","WESTERN ISLAND (AUT)","6119M51","2021-12-04 02:00","2021","12","04","02:00","0.5","","-2.5","","81","","","","22","","25","","","","99.24","","","","","","NA"
"-80.37","45.03","WESTERN ISLAND (AUT)","6119M51","2021-12-04 03:00","2021","12","04","03:00","1.4","","-2.0","","78","","","","21","","37","","","","99.10","","","","","","NA"
"-80.37","45.03","WESTERN ISLAND (AUT)","6119M51","2021-12-04 04:00","2021","12","04","04:00","2.4","","-0.7","","80","","","","23","","48","","","","98.92","","","","","","NA"
"-80.37","45.03","WESTERN ISLAND (AUT)","6119M51","2021-12-04 05:00","2021","12","04","05:00","2.7","","1.2","","90","","","","22","","60","","","","98.83","","","","","","NA"
"-80.37","45.03","WESTERN ISLAND (AUT)","6119M51","2021-12-04 06:00","2021","12","04","06:00","4.4","","0.6","","76","","","","22","","49","","","","98.82","","","","","","NA"
"-80.37","45.03","WESTERN ISLAND (AUT)","6119M51","2021-12-04 07:00","2021","12","04","07:00","2.0","","-2.5","","72","","","","32","","52","","","","98.94","","","","","","NA"
"-80.37","45.03","WESTERN ISLAND (AUT)","6119M51","2021-12-04 08:00","2021","12","04","08:00","3.2","","-1.7","","70","","","","31","","40","","","","98.92","","","","","","NA"
"-80.37","45.03","WESTERN ISLAND (AUT)","6119M51","2021-12-04 09:00","2021","12","04","09:00","1.5","","-0.2","","89","","","","34","","50","","","","98.98","","","","","","NA"
"-80.37","45.03","WESTERN ISLAND (AUT)","6119M51","2021-12-04 10:00","2021","12","04","10:00","1.6","","-0.5","","86","","","","32","","58","","","","98.98","","","","","","NA"
"-80.37","45.03","WESTERN ISLAND (AUT)","6119M51","2021-12-04 11:00","2021","12","04","11:00","1.3","","-0.6","","87","","","","31","","56","","","","98.99","","","","","","NA"
"-80.37","45.03","WESTERN ISLAND (AUT)","6119M51","2021-12-04 12:00","2021","12","04","12:00","3.3","","-3.8","","60","","","","33","","62","","","","99.00","","","","","","NA"
"-80.37","45.03","WESTERN ISLAND (AUT)","6119M51","2021-12-04 13:00","2021","12","04","13:00","2.6","","-3.0","","67","","","","33","","53","","","","99.05","","","","","","NA"
"-80.37","45.03","WESTERN ISLAND (AUT)","6119M51","2021-12-04 14:00","2021","12","04","14:00","1.9","","-2.3","","73","","","","33","","56","","","","99.14","","","","","","NA"
"-80.37","45.03","WESTERN ISLAND (AUT)","6119M51","2021-12-04 15:00","2021","12","04","15:00","2.4","","-4.0","","63","","","","32","","54","","","","99.19","","","","","","NA"
"-80.37","45.03","WESTERN ISLAND (AUT)","6119M51","2021-12-04 16:00","2021","12","04","16:00","1.0","","-2.1","","80","","","","32","","54","","","","99.32","","","","","","NA"
"-80.37","45.03","WESTERN ISLAND (AUT)","6119M51","2021-12-04 17:00","2021","12","04","17:00","2.5","","-2.5","","69","","","","31","","56","","","","99.38","","","","","","NA"
"-80.37","45.03","WESTERN ISLAND (AUT)","6119M51","2021-12-04 18:00","2021","12","04","18:00","2.4","","-3.8","","64","","","","33","","60","","","","99.45","","","","","","NA"
"-80.37","45.03","WESTERN ISLAND (AUT)","6119M51","2021-12-04 19:00","2021","12","04","19:00","2.0","","-4.3","","63","","","","33","","57","","","","99.52","","","","","","NA"
"-80.37","45.03","WESTERN ISLAND (AUT)","6119M51","2021-12-04 20:00","2021","12","04","20:00","1.8","","-5.4","","59","","","","33","","53","","","","99.57","","","","","","NA"
"-80.37","45.03","WESTERN ISLAND (AUT)","6119M51","2021-12-04 21:00","2021","12","04","21:00","1.5","","-4.8","","63","","","","34","","45","","","","99.63","","","","","","NA"
"-80.37","45.03","WESTERN ISLAND (AUT)","6119M51","2021-12-04 22:00","2021","12","04","22:00","0.9","","-5.8","","61","","","","36","","36","","","","99.71","","","","","","NA"
"-80.37","45.03","WESTERN ISLAND (AUT)","6119M51","2021-12-04 23:00","2021","12","04","23:00","0.9","","-5.5","","62","","","","35","","30","","","","99.76","","","","","","NA"
"-80.37","45.03","WESTERN ISLAND (AUT)","6119M51","2021-12-05 00:00","2021","12","05","00:00","0.7","","-5.2","","65","","","","35","","28","","","","99.88","","","","","","NA"
"-80.37","45.03","WESTERN ISLAND (AUT)","6119M51","2021-12-05 01:00","2021","12","05","01:00","-1.8","","-4.1","","84","","","","36","","35","","","","99.93","","","","-9","","NA"
"-80.37","45.03","WESTERN ISLAND (AUT)","6119M51","2021-12-05 02:00","2021","12","05","02:00","-1.7","","-5.1","","77","","","","7","","13","","","","99.95","","","","-6","","NA"
"-80.37","45.03","WESTERN ISLAND (AUT)","6119M51","2021-12-05 03:00","2021","12","05","03:00","-1.4","","-5.7","","72","","","","7","","10","","","","100.06","","","","-5","","NA"
"-80.37","45.03","WESTERN ISLAND (AUT)","6119M51","2021-12-05 04:00","2021","12","05","04:00","-2.0","","-4.6","","83","","","","7","","9","","","","100.09","","","","-5","","NA"
"-80.37","45.03","WESTERN ISLAND (AUT)","6119M51","2021-12-05 05:00","2021","12","05","05:00","-1.4","","-5.1","","76","","","","11","","11","","","","100.09","","","","-5","","NA"
"-80.37","45.03","WESTERN ISLAND (AUT)","6119M51","2021-12-05 06:00","2021","12","05","06:00","-1.0","","-6.2","","68","","","","9","","8","","","","100.18","","","","-4","","NA"
"-80.37","45.03","WESTERN ISLAND (AUT)","6119M51","2021-12-05 07:00","2021","12","05","07:00","-0.8","","-5.9","","68","","","","8","","14","","","","100.22","","","","-5","","NA"
"-80.37","45.03","WESTERN ISLAND (AUT)","6119M51","2021-12-05 08:00","2021","12","05","08:00","-1.5","","-6.7","","68","","","","10","","17","","","","100.24","","","","-7","","NA"
"-80.37","45.03","WESTERN ISLAND (AUT)","6119M51","2021-12-05 09:00","2021","12","05","09:00","-1.5","","-7.0","","66","","","","10","","17","","","","100.30","","","","-7","","NA"
"-80.37","45.03","WESTERN ISLAND (AUT)","6119M51","2021-12-05 10:00","2021","12","05","10:00","-1.1","","-6.8","","65","","","","12","","18","","","","100.31","","","","-6","","NA"
"-80.37","45.03","WESTERN ISLAND (AUT)","6119M51","2021-12-05 11:00","2021","12","05","11:00","-0.8","","-5.6","","70","","","","13","","14","","","","100.27","","","","-5","","NA"
"-80.37","45.03","WESTERN ISLAND (AUT)","6119M51","2021-12-05 12:00","2021","12","05","12:00","-0.5","","-5.4","","69","","","","13","","18","","","","100.14","","","","-6","","NA"
"-80.37","45.03","WESTERN ISLAND (AUT)","6119M51","2021-12-05 13:00","2021","12","05","13:00","0.0","","-4.2","","73","","","","15","","14","","","","100.04","","","","-4","","NA"
"-80.37","45.03","WESTERN ISLAND (AUT)","6119M51","2021-12-05 14:00","2021","12","05","14:00","0.2","","-3.9","","74","","","","14","","17","","","","99.93","","","","","","NA"
"-80.37","45.03","WESTERN ISLAND (AUT)","6119M51","2021-12-05 15:00","2021","12","05","15:00","0.0","","-3.4","","78","","","","14","","23","","","","99.84","","","","-6","","NA"
"-80.37","45.03","WESTERN ISLAND (AUT)","6119M51","2021-12-05 16:00","2021","12","05","16:00","-0.5","","-1.8","","91","","","","15","","26","","","","99.69","","","","-7","","NA"
"-80.37","45.03","WESTERN ISLAND (AUT)","6119M51","2021-12-05 17:00","2021","12","05","17:00","-0.6","","-1.5","","93","","","","13","","17","","","","99.61","","","","-6","","NA"
"-80.37","45.03","WESTERN ISLAND (AUT)","6119M51","2021-12-05 18:00","2021","12","05","18:00","-0.5","","-1.7","","91","","","","12","","20","","","","99.38","","","","-6","","NA"
"-80.37","45.03","WESTERN ISLAND (AUT)","6119M51","2021-12-05 19:00","2021","12","05","19:00","-0.4","","-1.3","","94","","","","12","","21","","","","99.09","","","","-6","","NA"
"-80.37","45.03","WESTERN ISLAND (AUT)","6119M51","2021-12-05 20:00","2021","12","05","20:00","0.2","","-0.6","","95","","","","11","","22","","","","98.88","","","","","","NA"
"-80.37","45.03","WESTERN ISLAND (AUT)","6119M51","2021-12-05 21:00","2021","12","05","21:00","0.3","","-1.1","","90","","","","10","","31","","","","98.69","","","","","","NA"
"-80.37","45.03","WESTERN ISLAND (AUT)","6119M51","2021-12-05 22:00","2021","12","05","22:00","0.1","","-1.1","","92","","","","11","","23","","","","98.54","","","","","","NA"
"-80.37","45.03","WESTERN ISLAND (AUT)","6119M51","2021-12-05 23:00","2021","12","05","23:00","0.3","","-0.7","","93","","","","11","","19","","","","98.29","","","","","","NA"
"-80.37","45.03","WESTERN ISLAND (AUT)","6119M51","2021-12-06 00:00","2021","12","06","00:00","1.0","","-0.1","","92","","","","12","","18","","","","98.16","","","","","","NA"
"-80.37","45.03","WESTERN ISLAND (AUT)","6119M51","2021-12-06 01:00","2021","12","06","01:00","2.1","","1.3","","95","","","","13","","37","","","","97.97","","","","","","NA"
"-80.37","45.03","WESTERN ISLAND (AUT)","6119M51","2021-12-06 02:00","2021","12","06","02:00","3.2","","2.4","","95","","","","14","","43","","","","97.76","","","","","","NA"
"-80.37","45.03","WESTERN ISLAND (AUT)","6119M51","2021-12-06 03:00","2021","12","06","03:00","4.2","","3.5","","95","","","","15","","41","","","","97.69","","","","","","NA"
"-80.37","45.03","WESTERN ISLAND (AUT)","6119M51","2021-12-06 04:00","2021","12","06","04:00","5.5","","4.9","","96","","","","16","","41","","","","97.52","","","","","","NA"
"-80.37","45.03","WESTERN ISLAND (AUT)","6119M51","2021-12-06 05:00","2021","12","06","05:00","6.6","","5.2","","91","","","","22","","46","","","","97.49","","","","","","NA"
"-80.37","45.03","WESTERN ISLAND (AUT)","6119M51","2021-12-06 06:00","2021","12","06","06:00","6.1","","3.9","","86","","","","22","","51","","","","97.43","","","","","","NA"
"-80.37","45.03","WESTERN ISLAND (AUT)","6119M51","2021-12-06 07:00","2021","12","06","07:00","5.6","","2.9","","83","","","","22","","46","","","","97.43","","","","","","NA"
"-80.37","45.03","WESTERN ISLAND (AUT)","6119M51","2021-12-06 08:00","2021","12","06","08:00","5.4","","2.8","","84","","","","22","","43","","","","97.39","","","","","","NA"
"-80.37","45.03","WESTERN ISLAND (AUT)","6119M51","2021-12-06 09:00","2021","12","06","09:00","4.9","","3.6","","91","","","","21","","34","","","","97.36","","","","","","NA"
"-80.37","45.03","WESTERN ISLAND (AUT)","6119M51","2021-12-06 10:00","2021","12","06","10:00","4.5","","2.9","","90","","","","22","","53","","","","97.31","","","","","","NA"
"-80.37","45.03","WESTERN ISLAND (AUT)","6119M51","2021-12-06 11:00","2021","12","06","11:00","4.6","","0.5","","75","","","","23","","57","","","","97.35","","","","","","NA"
"-80.37","45.03","WESTERN ISLAND (AUT)","6119M51","2021-12-06 12:00","2021","12","06","12:00","4.5","","-1.9","","63","","","","23","","62","","","","97.30","","","","","","NA"
"-80.37","45.03","WESTERN ISLAND (AUT)","6119M51","2021-12-06 13:00","2021","12","06","13:00","3.7","","-2.4","","64","","","","22","","66","","","","97.27","","","","","","NA"
"-80.37","45.03","WESTERN ISLAND (AUT)","6119M51","2021-12-06 14:00","2021","12","06","14:00","3.3","","-3.2","","62","","","","22","","64","","","","97.27","","","","","","NA"
"-80.37","45.03","WESTERN ISLAND (AUT)","6119M51","2021-12-06 15:00","2021","12","06","15:00","2.5","","-0.8","","79","","","","22","","58","","","","97.39","","","","","","NA"
"-80.37","45.03","WESTERN ISLAND (AUT)","6119M51","2021-12-06 16:00","2021","12","06","16:00","2.2","","-2.1","","73","","","","21","","64","","","","97.38","","","","","","NA"
"-80.37","45.03","WESTERN ISLAND (AUT)","6119M51","2021-12-06 17:00","2021","12","06","17:00","2.8","","0.0","","82","","","","21","","73","","","","97.42","","","","","","NA"
"-80.37","45.03","WESTERN ISLAND (AUT)","6119M51","2021-12-06 18:00","2021","12","06","18:00","1.8","","-0.1","","88","","","","24","","78","","","","97.59","","","","","","NA"
"-80.37","45.03","WESTERN ISLAND (AUT)","6119M51","2021-12-06 19:00","2021","12","06","19:00","1.1","","-2.5","","77","","","","32","","75","","","","97.85","","","","","","NA"
"-80.37","45.03","WESTERN ISLAND (AUT)","6119M51","2021-12-06 20:00","2021","12","06","20:00","0.1","","-4.6","","71","","","","32","","72","","","","98.13","","","","","","NA"
"-80.37","45.03","WESTERN ISLAND (AUT)","6119M51","2021-12-06 21:00","2021","12","06","21:00","0.1","","-3.1","","79","","","","34","","65","","","","98.38","","","","","","NA"
"-80.37","45.03","WESTERN ISLAND (AUT)","6119M51","2021-12-06 22:00","2021","12","06","22:00","-0.6","","-5.7","","69","","","","34","","67","","","","98.60","","","","-10","","NA"
"-80.37","45.03","WESTERN ISLAND (AUT)","6119M51","2021-12-06 23:00","2021","12","06","23:00","-0.6","","-5.6","","69","","","","33","","66","","","","98.71","","","","-10","","NA"
"-80.37","45.03","WESTERN ISLAND (AUT)","6119M51","2021-12-07 00:00","2021","12","07","00:00","-1.4","","-5.4","","74","","","","34","","53","","","","98.86","","","","-10","","NA"
"-80.37","45.03","WESTERN ISLAND (AUT)","6119M51","2021-12-07 01:00","2021","12","07","01:00","-1.8","","-4.9","","79","","","","35","","48","","","","98.96","","","","-10","","NA"
"-80.37","45.03","WESTERN ISLAND (AUT)","6119M51","2021-12-07 02:00","2021","12","07","02:00","-2.3","","-5.9","","76","","","","35","","44","","","","99.06","","","","-11","","NA"
"-80.37","45.03","WESTERN ISLAND (AUT)","6119M51","2021-12-07 03:00","2021","12","07","03:00","-2.5","","-5.1","","82","","","","35","","40","","","","99.19","","","","-11","","NA"
"-80.37","45.03","WESTERN ISLAND (AUT)","6119M51","2021-12-07 04:00","2021","12","07","04:00","-3.9","","-6.0","","85","","","","36","","32","","","","99.31","","","","-12","","NA"
"-80.37","45.03","WESTERN ISLAND (AUT)","6119M51","2021-12-07 05:00","2021","12","07","05:00","-4.4","","-7.4","","79","","","","1","","38","","","","99.38","","","","-13","","NA"
"-80.37","45.03","WESTERN ISLAND (AUT)","6119M51","2021-12-07 06:00","2021","12","07","06:00","-5.4","","-7.5","","85","","","","2","","46","","","","99.44","","","","-15","","NA"
"-80.37","45.03","WESTERN ISLAND (AUT)","6119M51","2021-12-07 07:00","2021","12","07","07:00","-6.8","","-9.8","","79","","","","2","","44","","","","99.55","","","","-17","","NA"
"-80.37","45.03","WESTERN ISLAND (AUT)","6119M51","2021-12-07 08:00","2021","12","07","08:00","-6.5","","-8.3","","87","","","","3","","37","","","","99.64","","","","-16","","NA"
"-80.37","45.03","WESTERN ISLAND (AUT)","6119M51","2021-12-07 09:00","2021","12","07","09:00","-7.8","","-10.6","","80","","","","4","","40","","","","99.69","","","","-18","","NA"
"-80.37","45.03","WESTERN ISLAND (AUT)","6119M51","2021-12-07 10:00","2021","12","07","10:00","-8.4","","-12.2","","74","","","","4","","35","","","","99.79","","","","-18","","NA"
"-80.37","45.03","WESTERN ISLAND (AUT)","6119M51","2021-12-07 11:00","2021","12","07","11:00","-8.4","","-12.1","","75","","","","4","","31","","","","99.81","","","","-18","","NA"
"-80.37","45.03","WESTERN ISLAND (AUT)","6119M51","2021-12-07 12:00","2021","12","07","12:00","-8.8","","-13.2","","70","","","","6","","23","","","","99.87","","","","-17","","NA"
"-80.37","45.03","WESTERN ISLAND (AUT)","6119M51","2021-12-07 13:00","2021","12","07","13:00","-8.7","","-12.3","","75","","","","10","","15","","","","99.82","","","","-15","","NA"
"-80.37","45.03","WESTERN ISLAND (AUT)","6119M51","2021-12-07 14:00","2021","12","07","14:00","-8.3","","-13.4","","67","","","","9","","15","","","","99.79","","","","-15","","NA"
"-80.37","45.03","WESTERN ISLAND (AUT)","6119M51","2021-12-07 15:00","2021","12","07","15:00","-7.7","","-12.9","","66","","","","14","","10","","","","99.82","","","","-13","","NA"
"-80.37","45.03","WESTERN ISLAND (AUT)","6119M51","2021-12-07 16:00","2021","12","07","16:00","-7.1","","-11.9","","68","","","","14","","11","","","","99.82","","","","-12","","NA"
"-80.37","45.03","WESTERN ISLAND (AUT)","6119M51","2021-12-07 17:00","2021","12","07","17:00","-6.0","","-9.7","","75","","","","15","","16","","","","99.77","","","","-12","","NA"
"-80.37","45.03","WESTERN ISLAND (AUT)","6119M51","2021-12-07 18:00","2021","12","07","18:00","-6.0","","-8.9","","80","","","","16","","24","","","","99.72","","","","-13","","NA"
"-80.37","45.03","WESTERN ISLAND (AUT)","6119M51","2021-12-07 19:00","2021","12","07","19:00","-5.0","","-6.4","","90","","","","16","","34","","","","99.57","","","","-13","","NA"
"-80.37","45.03","WESTERN ISLAND (AUT)","6119M51","2021-12-07 20:00","2021","12","07","20:00","-3.0","","-11.9","","51","","","","28","","36","","","","99.59","","","","-11","","NA"
"-80.37","45.03","WESTERN ISLAND (AUT)","6119M51","2021-12-07 21:00","2021","12","07","21:00","-3.1","","-10.9","","55","","","","28","","29","","","","99.61","","","","-10","","NA"
"-80.37","45.03","WESTERN ISLAND (AUT)","6119M51","2021-12-07 22:00","2021","12","07","22:00","-3.1","","-7.9","","70","","","","27","","34","","","","99.52","","","","-11","","NA"
"-80.37","45.03","WESTERN ISLAND (AUT)","6119M51","2021-12-07 23:00","2021","12","07","23:00","-3.3","","-8.4","","68","","","","26","","40","","","","99.51","","","","-12","","NA"
"-80.37","45.03","WESTERN ISLAND (AUT)","6119M51","2021-12-08 00:00","2021","12","08","00:00","-2.6","","-6.5","","74","","","","27","","28","","","","99.49","","","","-10","","NA"
"-80.37","45.03","WESTERN ISLAND (AUT)","6119M51","2021-12-08 01:00","2021","12","08","01:00","-3.3","","-7.3","","74","","","","24","","38","","","","99.42","","","","-12","","NA"
"-80.37","45.03","WESTERN ISLAND (AUT)","6119M51","2021-12-08 02:00","2021","12","08","02:00","-3.8","","-7.7","","74","","","","24","","32","","","","99.43","","","","-12","","NA"
"-80.37","45.03","WESTERN ISLAND (AUT)","6119M51","2021-12-08 03:00","2021","12","08","03:00","-3.5","","-7.3","","75","","","","23","","34","","","","99.42","","","","-11","","NA"
"-80.37","45.03","WESTERN ISLAND (AUT)","6119M51","2021-12-08 04:00","2021","12","08","04:00","-2.9","","-7.8","","69","","","","26","","24","","","","99.32","","","","-10","","NA"
"-80.37","45.03","WESTERN ISLAND (AUT)","6119M51","2021-12-08 05:00","2021","12","08","05:00","-3.1","","-7.5","","72","","","","23","","28","","","","99.26","","","","-10","","NA"
"-80.37","45.03","WESTERN ISLAND (AUT)","6119M51","2021-12-08 06:00","2021","12","08","06:00","-3.1","","-8.2","","68","","","","23","","22","","","","99.22","","","","-9","","NA"
"-80.37","45.03","WESTERN ISLAND (AUT)","6119M51","2021-12-08 07:00","2021","12","08","07:00","-2.8","","-7.8","","69","","","","22","","27","","","","99.18","","","","-10","","NA"
"-80.37","45.03","WESTERN ISLAND (AUT)","6119M51","2021-12-08 08:00","2021","12","08","08:00","-2.9","","-6.9","","74","","","","23","","39","","","","99.11","","","","-11","","NA"
"-80.37","45.03","WESTERN ISLAND (AUT)","6119M51","2021-12-08 09:00","2021","12","08","09:00","-2.9","","-7.7","","70","","","","22","","39","","","","99.09","","","","-11","","NA"
"-80.37","45.03","WESTERN ISLAND (AUT)","6119M51","2021-12-08 10:00","2021","12","08","10:00","-3.1","","-7.0","","75","","","","22","","37","","","","99.06","","","","-11","","NA"
"-80.37","45.03","WESTERN ISLAND (AUT)","6119M51","2021-12-08 11:00","2021","12","08","11:00","-2.2","","-3.9","","88","","","","23","","40","","","","99.00","","","","-10","","NA"
"-80.37","45.03","WESTERN ISLAND (AUT)","6119M51","2021-12-08 12:00","2021","12","08","12:00","-2.1","","-4.1","","86","","","","23","","38","","","","98.89","","","","-10","","NA"
"-80.37","45.03","WESTERN ISLAND (AUT)","6119M51","2021-12-08 13:00","2021","12","08","13:00","-1.3","","-3.6","","84","","","","24","","37","","","","98.81","","","","-9","","NA"
"-80.37","45.03","WESTERN ISLAND (AUT)","6119M51","2021-12-08 14:00","2021","12","08","14:00","-1.3","","-3.6","","84","","","","25","","41","","","","98.77","","","","-9","","NA"
"-80.37","45.03","WESTERN ISLAND (AUT)","6119M51","2021-12-08 15:00","2021","12","08","15:00","-0.8","","-3.8","","80","","","","27","","39","","","","98.76","","","","-8","","NA"
"-80.37","45.03","WESTERN ISLAND (AUT)","6119M51","2021-12-08 16:00","2021","12","08","16:00","-0.8","","-3.7","","81","","","","28","","38","","","","98.83","","","","-8","","NA"
"-80.37","45.03","WESTERN ISLAND (AUT)","6119M51","2021-12-08 17:00","2021","12","08","17:00","-0.4","","-7.9","","57","","","","30","","41","","","","98.87","","","","-8","","NA"
"-80.37","45.03","WESTERN ISLAND (AUT)","6119M51","2021-12-08 18:00","2021","12","08","18:00","-0.3","","-5.1","","70","","","","32","","39","","","","98.93","","","","-8","","NA"
"-80.37","45.03","WESTERN ISLAND (AUT)","6119M51","2021-12-08 19:00","2021","12","08","19:00","-0.5","","-5.8","","68","","","","34","","47","","","","99.03","","","","-9","","NA"
"-80.37","45.03","WESTERN ISLAND (AUT)","6119M51","2021-12-08 20:00","2021","12","08","20:00","-0.7","","-7.0","","62","","","","34","","43","","","","99.14","","","","-9","","NA"
"-80.37","45.03","WESTERN ISLAND (AUT)","6119M51","2021-12-08 21:00","2021","12","08","21:00","-1.3","","-10.9","","48","","","","33","","43","","","","99.19","","","","-9","","NA"
"-80.37","45.03","WESTERN ISLAND (AUT)","6119M51","2021-12-08 22:00","2021","12","08","22:00","-2.5","","-5.7","","78","","","","1","","39","","","","99.25","","","","-11","","NA"
"-80.37","45.03","WESTERN ISLAND (AUT)","6119M51","2021-12-08 23:00","2021","12","08","23:00","-2.9","","-5.7","","81","","","","2","","31","","","","99.31","","","","-10","","NA"
"-80.37","45.03","WESTERN ISLAND (AUT)","6119M51","2021-12-09 00:00","2021","12","09","00:00","-3.8","","-5.8","","86","","","","3","","36","","","","99.38","","","","-12","","NA"
"-80.37","45.03","WESTERN ISLAND (AUT)","6119M51","2021-12-09 01:00","2021","12","09","01:00","-3.8","","-6.8","","79","","","","2","","35","","","","99.45","","","","-12","","NA"
"-80.37","45.03","WESTERN ISLAND (AUT)","6119M51","2021-12-09 02:00","2021","12","09","02:00","-4.3","","-8.2","","74","","","","2","","37","","","","99.53","","","","-13","","NA"
"-80.37","45.03","WESTERN ISLAND (AUT)","6119M51","2021-12-09 03:00","2021","12","09","03:00","-4.9","","-8.5","","76","","","","3","","36","","","","99.61","","","","-14","","NA"
"-80.37","45.03","WESTERN ISLAND (AUT)","6119M51","2021-12-09 04:00","2021","12","09","04:00","-5.2","","-9.3","","73","","","","2","","21","","","","99.74","","","","-12","","NA"
"-80.37","45.03","WESTERN ISLAND (AUT)","6119M51","2021-12-09 05:00","2021","12","09","05:00","-5.3","","-9.0","","76","","","","4","","12","","","","99.76","","","","-10","","NA"
"-80.37","45.03","WESTERN ISLAND (AUT)","6119M51","2021-12-09 06:00","2021","12","09","06:00","-5.5","","-9.4","","74","","","","7","","12","","","","99.81","","","","-10","","NA"
"-80.37","45.03","WESTERN ISLAND (AUT)","6119M51","2021-12-09 07:00","2021","12","09","07:00","-5.6","","-12.4","","59","","","","8","","18","","","","99.82","","","","-12","","NA"
"-80.37","45.03","WESTERN ISLAND (AUT)","6119M51","2021-12-09 08:00","2021","12","09","08:00","-5.5","","-12.5","","58","","","","10","","16","","","","99.85","","","","-11","","NA"
"-80.37","45.03","WESTERN ISLAND (AUT)","6119M51","2021-12-09 09:00","2021","12","09","09:00","-5.4","","-11.7","","61","","","","13","","12","","","","99.88","","","","-10","","NA"
"-80.37","45.03","WESTERN ISLAND (AUT)","6119M51","2021-12-09 10:00","2021","12","09","10:00","-4.4","","-10.4","","63","","","","15","","11","","","","99.95","","","","-9","","NA"
"-80.37","45.03","WESTERN ISLAND (AUT)","6119M51","2021-12-09 11:00","2021","12","09","11:00","-4.4","","-9.5","","67","","","","14","","14","","","","99.94","","","","-10","","NA"
"-80.37","45.03","WESTERN ISLAND (AUT)","6119M51","2021-12-09 12:00","2021","12","09","12:00","-4.0","","-9.5","","65","","","","15","","19","","","","99.79","","","","-10","","NA"
"-80.37","45.03","WESTERN ISLAND (AUT)","6119M51","2021-12-09 13:00","2021","12","09","13:00","-3.9","","-11.9","","54","","","","16","","28","","","","99.76","","","","-11","","NA"
"-80.37","45.03","WESTERN ISLAND (AUT)","6119M51","2021-12-09 14:00","2021","12","09","14:00","-3.4","","-11.4","","54","","","","16","","26","","","","99.66","","","","-10","","NA"
"-80.37","45.03","WESTERN ISLAND (AUT)","6119M51","2021-12-09 15:00","2021","12","09","15:00","-2.8","","-9.8","","59","","","","16","","32","","","","99.54","","","","-10","","NA"
"-80.37","45.03","WESTERN ISLAND (AUT)","6119M51","2021-12-09 16:00","2021","12","09","16:00","-2.6","","-8.3","","65","","","","16","","39","","","","99.46","","","","-11","","NA"
"-80.37","45.03","WESTERN ISLAND (AUT)","6119M51","2021-12-09 17:00","2021","12","09","17:00","-2.3","","-8.0","","65","","","","17","","47","","","","99.35","","","","-11","","NA"
"-80.37","45.03","WESTERN ISLAND (AUT)","6119M51","2021-12-09 18:00","2021","12","09","18:00","-2.3","","-7.2","","69","","","","17","","52","","","","99.27","","","","-11","","NA"
"-80.37","45.03","WESTERN ISLAND (AUT)","6119M51","2021-12-09 19:00","2021","12","09","19:00","-2.1","","-6.7","","71","","","","16","","49","","","","99.14","","","","-11","","NA"
"-80.37","45.03","WESTERN ISLAND (AUT)","6119M51","2021-12-09 20:00","2021","12","09","20:00","-1.6","","-4.5","","80","","","","16","","53","","","","99.08","","","","-11","","NA"
"-80.37","45.03","WESTERN ISLAND (AUT)","6119M51","2021-12-09 21:00","2021","12","09","21:00","-1.3","","-2.3","","92","","","","16","","43","","","","99.04","","","","-9","","NA"
"-80.37","45.03","WESTERN ISLAND (AUT)","6119M51","2021-12-09 22:00","2021","12","09","22:00","-1.0","","-2.5","","89","","","","16","","48","","","","98.91","","","","-9","","NA"
"-80.37","45.03","WESTERN ISLAND (AUT)","6119M51","2021-12-09 23:00","2021","12","09","23:00","-0.7","","-2.0","","91","","","","16","","43","","","","98.82","","","","-9","","NA"
"-80.37","45.03","WESTERN ISLAND (AUT)","6119M51","2021-12-10 00:00","2021","12","10","00:00","0.1","","-1.7","","88","","","","16","","38","","","","98.75","","","","","","NA"
"-80.37","45.03","WESTERN ISLAND (AUT)","6119M51","2021-12-10 01:00","2021","12","10","01:00","1.0","","-1.1","","86","","","","17","","41","","","","98.71","","","","","","NA"
"-80.37","45.03","WESTERN ISLAND (AUT)","6119M51","2021-12-10 02:00","2021","12","10","02:00","2.0","","0.1","","87","","","","18","","43","","","","98.71","","","","","","NA"
"-80.37","45.03","WESTERN ISLAND (AUT)","6119M51","2021-12-10 03:00","2021","12","10","03:00","2.9","","1.1","","88","","","","18","","41","","","","98.68","","","","","","NA"
"-80.37","45.03","WESTERN ISLAND (AUT)","6119M51","2021-12-10 04:00","2021","12","10","04:00","3.5","","0.3","","80","","","","20","","32","","","","98.66","","","","","","NA"
"-80.37","45.03","WESTERN ISLAND (AUT)","6119M51","2021-12-10 05:00","2021","12","10","05:00","4.2","","-0.4","","72","","","","23","","28","","","","98.68","","","","","","NA"
"-80.37","45.03","WESTERN ISLAND (AUT)","6119M51","2021-12-10 06:00","2021","12","10","06:00","4.7","","1.1","","78","","","","25","","38","","","","98.73","","","","","","NA"
"-80.37","45.03","WESTERN ISLAND (AUT)","6119M51","2021-12-10 07:00","2021","12","10","07:00","5.1","","1.9","","80","","","","25","","29","","","","98.82","","","","","","NA"
"-80.37","45.03","WESTERN ISLAND (AUT)","6119M51","2021-12-10 08:00","2021","12","10","08:00","5.2","","2.2","","81","","","","26","","31","","","","98.90","","","","","","NA"
"-80.37","45.03","WESTERN ISLAND (AUT)","6119M51","2021-12-10 09:00","2021","12","10","09:00","5.0","","2.0","","81","","","","27","","26","","","","98.96","","","","","","NA"
"-80.37","45.03","WESTERN ISLAND (AUT)","6119M51","2021-12-10 10:00","2021","12","10","10:00","5.0","","2.2","","82","","","","27","","27","","","","99.02","","","","","","NA"
"-80.37","45.03","WESTERN ISLAND (AUT)","6119M51","2021-12-10 11:00","2021","12","10","11:00","5.0","","1.6","","78","","","","29","","26","","","","99.12","","","","","","NA"
"-80.37","45.03","WESTERN ISLAND (AUT)","6119M51","2021-12-10 12:00","2021","12","10","12:00","4.9","","1.7","","79","","","","28","","25","","","","99.11","","","","","","NA"
"-80.37","45.03","WESTERN ISLAND (AUT)","6119M51","2021-12-10 13:00","2021","12","10","13:00","4.9","","0.5","","74","","","","30","","24","","","","99.15","","","","","","NA"
"-80.37","45.03","WESTERN ISLAND (AUT)","6119M51","2021-12-10 14:00","2021","12","10","14:00","4.8","","1.0","","76","","","","31","","25","","","","99.16","","","","","","NA"
"-80.37","45.03","WESTERN ISLAND (AUT)","6119M51","2021-12-10 15:00","2021","12","10","15:00","4.9","","0.2","","71","","","","30","","19","","","","99.22","","","","","","NA"
"-80.37","45.03","WESTERN ISLAND (AUT)","6119M51","2021-12-10 16:00","2021","12","10","16:00","4.8","","0.4","","73","","","","33","","8","","","","99.26","","","","","","NA"
"-80.37","45.03","WESTERN ISLAND (AUT)","6119M51","2021-12-10 17:00","2021","12","10","17:00","4.6","","0.3","","74","","","","3","","9","","","","99.27","","","","","","NA"
"-80.37","45.03","WESTERN ISLAND (AUT)","6119M51","2021-12-10 18:00","2021","12","10","18:00","4.3","","1.3","","81","","","","6","","16","","","","99.23","","","","","","NA"
"-80.37","45.03","WESTERN ISLAND (AUT)","6119M51","2021-12-10 19:00","2021","12","10","19:00","4.1","","1.3","","82","","","","9","","15","","","","99.29","","","","","","NA"
"-80.37","45.03","WESTERN ISLAND (AUT)","6119M51","2021-12-10 20:00","2021","12","10","20:00","4.2","","1.6","","83","","","","11","","19","","","","99.15","","","","","","NA"
"-80.37","45.03","WESTERN ISLAND (AUT)","6119M51","2021-12-10 21:00","2021","12","10","21:00","4.3","","2.2","","86","","","","13","","10","","","","99.05","","","","","","NA"
"-80.37","45.03","WESTERN ISLAND (AUT)","6119M51","2021-12-10 22:00","2021","12","10","22:00","4.4","","2.2","","86","","","","15","","32","","","","98.98","","","","","","NA"
"-80.37","45.03","WESTERN ISLAND (AUT)","6119M51","2021-12-10 23:00","2021","12","10","23:00","4.3","","2.0","","85","","","","14","","17","","","","98.78","","","","","","NA"
"-80.37","45.03","WESTERN ISLAND (AUT)","6119M51","2021-12-11 00:00","2021","12","11","00:00","3.7","","1.6","","86","","","","13","","15","","","","98.55","","","","","","NA"
"-80.37","45.03","WESTERN ISLAND (AUT)","6119M51","2021-12-11 01:00","2021","12","11","01:00","3.7","","2.2","","90","","","","12","","17","","","","98.31","","","","","","NA"
"-80.37","45.03","WESTERN ISLAND (AUT)","6119M51","2021-12-11 02:00","2021","12","11","02:00","3.8","","2.5","","91","","","","12","","25","","","","97.86","","","","","","NA"
"-80.37","45.03","WESTERN ISLAND (AUT)","6119M51","2021-12-11 03:00","2021","12","11","03:00","4.3","","3.3","","93","","","","12","","18","","","","97.65","","","","","","NA"
"-80.37","45.03","WESTERN ISLAND (AUT)","6119M51","2021-12-11 04:00","2021","12","11","04:00","3.8","","3.3","","97","","","","11","","46","","","","97.33","","","","","","NA"
"-80.37","45.03","WESTERN ISLAND (AUT)","6119M51","2021-12-11 05:00","2021","12","11","05:00","4.6","","3.9","","96","","","","13","","51","","","","97.06","","","","","","NA"
"-80.37","45.03","WESTERN ISLAND (AUT)","6119M51","2021-12-11 06:00","2021","12","11","06:00","5.5","","4.5","","93","","","","13","","47","","","","96.95","","","","","","NA"
"-80.37","45.03","WESTERN ISLAND (AUT)","6119M51","2021-12-11 07:00","2021","12","11","07:00","6.7","","5.3","","91","","","","14","","48","","","","96.78","","","","","","NA"
"-80.37","45.03","WESTERN ISLAND (AUT)","6119M51","2021-12-11 08:00","2021","12","11","08:00","7.4","","6.2","","92","","","","14","","43","","","","96.70","","","","","","NA"
"-80.37","45.03","WESTERN ISLAND (AUT)","6119M51","2021-12-11 09:00","2021","12","11","09:00","8.3","","7.1","","92","","","","16","","46","","","","96.57","","","","","","NA"
"-80.37","45.03","WESTERN ISLAND (AUT)","6119M51","2021-12-11 10:00","2021","12","11","10:00","9.4","","8.2","","92","","","","15","","35","","","","96.45","","","","","","NA"
"-80.37","45.03","WESTERN ISLAND (AUT)","6119M51","2021-12-11 11:00","2021","12","11","11:00","10.5","","9.2","","92","","","","15","","44","","","","96.27","","","","","","NA"
"-80.37","45.03","WESTERN ISLAND (AUT)","6119M51","2021-12-11 12:00","2021","12","11","12:00","9.7","","8.7","","93","","","","17","","34","","","","96.09","","","","","","NA"
"-80.37","45.03","WESTERN ISLAND (AUT)","6119M51","2021-12-11 13:00","2021","12","11","13:00","12.2","","9.1","","81","","","","19","","46","","","","95.95","","","","","","NA"
"-80.37","45.03","WESTERN ISLAND (AUT)","6119M51","2021-12-11 14:00","2021","12","11","14:00","7.3","","5.0","","85","","","","22","","68","","","","95.99","","","","","","NA"
"-80.37","45.03","WESTERN ISLAND (AUT)","6119M51","2021-12-11 15:00","2021","12","11","15:00","6.6","","2.8","","77","","","","19","","71","","","","96.04","","","","","","NA"
"-80.37","45.03","WESTERN ISLAND (AUT)","6119M51","2021-12-11 16:00","2021","12","11","16:00","5.0","","2.4","","84","","","","18","","77","","","","96.16","","","","","","NA"
"-80.37","45.03","WESTERN ISLAND (AUT)","6119M51","2021-12-11 17:00","2021","12","11","17:00","3.7","","2.7","","93","","","","19","","78","","","","96.34","","","","","","NA"
"-80.37","45.03","WESTERN ISLAND (AUT)","6119M51","2021-12-11 18:00","2021","12","11","18:00","2.8","","1.0","","88","","","","20","","88","","","","96.62","","","","","","NA"
"-80.37","45.03","WESTERN ISLAND (AUT)","6119M51","2021-12-11 19:00","2021","12","11","19:00","2.0","","-1.8","","75","","","","22","","84","","","","97.11","","","","","","NA"
"-80.37","45.03","WESTERN ISLAND (AUT)","6119M51","2021-12-11 20:00","2021","12","11","20:00","2.1","","-2.1","","74","","","","22","","85","","","","97.54","","","","","","NA"
"-80.37","45.03","WESTERN ISLAND (AUT)","6119M51","2021-12-11 21:00","2021","12","11","21:00","2.6","","-3.2","","66","","","","21","","74","","","","97.88","","","","","","NA"
"-80.37","45.03","WESTERN ISLAND (AUT)","6119M51","2021-12-11 22:00","2021","12","11","22:00","2.4","","-3.6","","65","","","","22","","73","","","","98.11","","","","","","NA"
"-80.37","45.03","WESTERN ISLAND (AUT)","6119M51","2021-12-11 23:00","2021","12","11","23:00","3.5","","-3.8","","59","","","","21","","66","","","","98.28","","","","","","NA"
"-80.37","45.03","WESTERN ISLAND (AUT)","6119M51","2021-12-12 00:00","2021","12","12","00:00","3.6","","-3.0","","62","","","","20","","66","","","","98.38","","","","","","NA"
"-80.37","45.03","WESTERN ISLAND (AUT)","6119M51","2021-12-12 01:00","2021","12","12","01:00","3.8","","-2.5","","63","","","","19","","60","","","","98.48","","","","","","NA"
"-80.37","45.03","WESTERN ISLAND (AUT)","6119M51","2021-12-12 02:00","2021","12","12","02:00","3.8","","-4.0","","57","","","","19","","55","","","","98.60","","","","","","NA"
"-80.37","45.03","WESTERN ISLAND (AUT)","6119M51","2021-12-12 03:00","2021","12","12","03:00","3.9","","-2.5","","63","","","","19","","55","","","","98.72","","","","","","NA"
"-80.37","45.03","WESTERN ISLAND (AUT)","6119M51","2021-12-12 04:00","2021","12","12","04:00","3.7","","-2.4","","64","","","","18","","51","","","","98.80","","","","","","NA"
"-80.37","45.03","WESTERN ISLAND (AUT)","6119M51","2021-12-12 05:00","2021","12","12","05:00","3.6","","-2.1","","66","","","","18","","45","","","","98.90","","","","","","NA"
"-80.37","45.03","WESTERN ISLAND (AUT)","6119M51","2021-12-12 06:00","2021","12","12","06:00","3.7","","-1.5","","69","","","","16","","48","","","","98.88","","","","","","NA"
"-80.37","45.03","WESTERN ISLAND (AUT)","6119M51","2021-12-12 07:00","2021","12","12","07:00","3.8","","-1.4","","69","","","","17","","52","","","","98.90","","","","","","NA"
"-80.37","45.03","WESTERN ISLAND (AUT)","6119M51","2021-12-12 08:00","2021","12","12","08:00","4.0","","-0.4","","73","","","","16","","54","","","","98.94","","","","","","NA"
"-80.37","45.03","WESTERN ISLAND (AUT)","6119M51","2021-12-12 09:00","2021","12","12","09:00","3.9","","-0.3","","74","","","","16","","53","","","","98.95","","","","","","NA"
"-80.37","45.03","WESTERN ISLAND (AUT)","6119M51","2021-12-12 10:00","2021","12","12","10:00","4.0","","-0.6","","72","","","","15","","52","","","","98.99","","","","","","NA"
"-80.37","45.03","WESTERN ISLAND (AUT)","6119M51","2021-12-12 11:00","2021","12","12","11:00","4.4","","-0.3","","71","","","","16","","53","","","","98.98","","","","","","NA"
"-80.37","45.03","WESTERN ISLAND (AUT)","6119M51","2021-12-12 12:00","2021","12","12","12:00","4.9","","-1.2","","64","","","","16","","53","","","","98.96","","","","","","NA"
"-80.37","45.03","WESTERN ISLAND (AUT)","6119M51","2021-12-12 13:00","2021","12","12","13:00","5.5","","-1.5","","61","","","","16","","52","","","","98.93","","","","","","NA"
"-80.37","45.03","WESTERN ISLAND (AUT)","6119M51","2021-12-12 14:00","2021","12","12","14:00","5.7","","-1.1","","61","","","","16","","52","","","","98.90","","","","","","NA"
"-80.37","45.03","WESTERN ISLAND (AUT)","6119M51","2021-12-12 15:00","2021","12","12","15:00","6.0","","-1.0","","61","","","","16","","51","","","","98.91","","","","","","NA"
"-80.37","45.03","WESTERN ISLAND (AUT)","6119M51","2021-12-12 16:00","2021","12","12","16:00","6.2","","-1.0","","60","","","","15","","51","","","","98.89","","","","","","NA"
"-80.37","45.03","WESTERN ISLAND (AUT)","6119M51","2021-12-12 17:00","2021","12","12","17:00","6.3","","0.3","","66","","","","15","","50","","","","98.91","","","","","","NA"
"-80.37","45.03","WESTERN ISLAND (AUT)","6119M51","2021-12-12 18:00","2021","12","12","18:00","6.5","","-0.8","","60","","","","15","","52","","","","98.91","","","","","","NA"
"-80.37","45.03","WESTERN ISLAND (AUT)","6119M51","2021-12-12 19:00","2021","12","12","19:00","6.6","","-0.1","","62","","","","14","","53","","","","98.91","","","","","","NA"
"-80.37","45.03","WESTERN ISLAND (AUT)","6119M51","2021-12-12 20:00","2021","12","12","20:00","6.6","","0.3","","64","","","","15","","48","","","","98.98","","","","","","NA"
"-80.37","45.03","WESTERN ISLAND (AUT)","6119M51","2021-12-12 21:00","2021","12","12","21:00","6.6","","0.6","","66","","","","14","","50","","","","98.95","","","","","","NA"
"-80.37","45.03","WESTERN ISLAND (AUT)","6119M51","2021-12-12 22:00","2021","12","12","22:00","7.6","","-1.0","","54","","","","17","","58","","","","99.01","","","","","","NA"
"-80.37","45.03","WESTERN ISLAND (AUT)","6119M51","2021-12-12 23:00","2021","12","12","23:00","7.2","","0.1","","61","","","","17","","57","","","","99.09","","","","","","NA"
"-80.37","45.03","WESTERN ISLAND (AUT)","6119M51","2021-12-13 00:00","2021","12","13","00:00","7.0","","0.4","","63","","","","17","","58","","","","99.09","","","","","","NA"
"-80.37","45.03","WESTERN ISLAND (AUT)","6119M51","2021-12-13 01:00","2021","12","13","01:00","7.0","","0.1","","61","","","","16","","56","","","","99.12","","","","","","NA"
"-80.37","45.03","WESTERN ISLAND (AUT)","6119M51","2021-12-13 02:00","2021","12","13","02:00","6.8","","0.9","","66","","","","17","","52","","","","99.17","","","","","","NA"
"-80.37","45.03","WESTERN ISLAND (AUT)","6119M51","2021-12-13 03:00","2021","12","13","03:00","6.7","","0.9","","66","","","","16","","55","","","","99.22","","","","","","NA"
"-80.37","45.03","WESTERN ISLAND (AUT)","6119M51","2021-12-13 04:00","2021","12","13","04:00","6.5","","1.2","","69","","","","16","","51","","","","99.24","","","","","","NA"
"-80.37","45.03","WESTERN ISLAND (AUT)","6119M51","2021-12-13 05:00","2021","12","13","05:00","6.4","","1.3","","70","","","","16","","49","","","","99.22","","","","","","NA"
"-80.37","45.03","WESTERN ISLAND (AUT)","6119M51","2021-12-13 06:00","2021","12","13","06:00","6.4","","1.2","","69","","","","16","","50","","","","99.21","","","","","","NA"
"-80.37","45.03","WESTERN ISLAND (AUT)","6119M51","2021-12-13 07:00","2021","12","13","07:00","6.4","","1.2","","69","","","","15","","46","","","","99.23","","","","","","NA"
"-80.37","45.03","WESTERN ISLAND (AUT)","6119M51","2021-12-13 08:00","2021","12","13","08:00","6.1","","1.2","","71","","","","15","","41","","","","99.28","","","","","","NA"
"-80.37","45.03","WESTERN ISLAND (AUT)","6119M51","2021-12-13 09:00","2021","12","13","09:00","5.8","","1.1","","72","","","","15","","44","","","","99.31","","","","","","NA"
"-80.37","45.03","WESTERN ISLAND (AUT)","6119M51","2021-12-13 10:00","2021","12","13","10:00","5.7","","1.1","","73","","","","15","","45","","","","99.32","","","","","","NA"
"-80.37","45.03","WESTERN ISLAND (AUT)","6119M51","2021-12-13 11:00","2021","12","13","11:00","6.5","","1.0","","68","","","","16","","41","","","","99.32","","","","","","NA"
"-80.37","45.03","WESTERN ISLAND (AUT)","6119M51","2021-12-13 12:00","2021","12","13","12:00","6.6","","1.2","","68","","","","16","","43","","","","99.30","","","","","","NA"
"-80.37","45.03","WESTERN ISLAND (AUT)","6119M51","2021-12-13 13:00","2021","12","13","13:00","6.4","","1.5","","71","","","","16","","44","","","","99.27","","","","","","NA"
"-80.37","45.03","WESTERN ISLAND (AUT)","6119M51","2021-12-13 14:00","2021","12","13","14:00","6.5","","1.9","","72","","","","16","","43","","","","99.30","","","","","","NA"
"-80.37","45.03","WESTERN ISLAND (AUT)","6119M51","2021-12-13 15:00","2021","12","13","15:00","6.7","","1.9","","71","","","","16","","43","","","","99.36","","","","","","NA"
"-80.37","45.03","WESTERN ISLAND (AUT)","6119M51","2021-12-13 16:00","2021","12","13","16:00","6.6","","2.0","","73","","","","18","","37","","","","99.50","","","","","","NA"
"-80.37","45.03","WESTERN ISLAND (AUT)","6119M51","2021-12-13 17:00","2021","12","13","17:00","6.6","","2.5","","75","","","","17","","43","","","","99.56","","","","","","NA"
"-80.37","45.03","WESTERN ISLAND (AUT)","6119M51","2021-12-13 18:00","2021","12","13","18:00"
"-80.37","45.03","WESTERN ISLAND (AUT)","6119M51","2021-12-13 19:00","2021","12","13","19:00","6.6","","3.4","","80","","","","18","","36","","","","99.79","","","","","","NA"
"-80.37","45.03","WESTERN ISLAND (AUT)","6119M51","2021-12-13 20:00","2021","12","13","20:00","6.7","","3.6","","80","","","","19","","39","","","","99.90","","","","","","NA"
"-80.37","45.03","WESTERN ISLAND (AUT)","6119M51","2021-12-13 21:00","2021","12","13","21:00","6.6","","2.9","","77","","","","22","","44","","","","100.03","","","","","","NA"
"-80.37","45.03","WESTERN ISLAND (AUT)","6119M51","2021-12-13 22:00","2021","12","13","22:00","6.2","","1.0","","69","","","","24","","51","","","","100.12","","","","","","NA"
"-80.37","45.03","WESTERN ISLAND (AUT)","6119M51","2021-12-13 23:00","2021","12","13","23:00","5.5","","1.7","","77","","","","24","","43","","","","100.26","","","","","","NA"
"-80.37","45.03","WESTERN ISLAND (AUT)","6119M51","2021-12-14 00:00","2021","12","14","00:00","5.5","","0.8","","72","","","","25","","34","","","","100.36","","","","","","NA"
"-80.37","45.03","WESTERN ISLAND (AUT)","6119M51","2021-12-14 01:00","2021","12","14","01:00","5.1","","0.2","","70","","","","27","","40","","","","100.44","","","","","","NA"
"-80.37","45.03","WESTERN ISLAND (AUT)","6119M51","2021-12-14 02:00","2021","12","14","02:00","4.1","","-1.0","","70","","","","30","","37","","","","100.58","","","","","","NA"
"-80.37","45.03","WESTERN ISLAND (AUT)","6119M51","2021-12-14 03:00","2021","12","14","03:00","3.2","","-1.5","","71","","","","31","","37","","","","100.73","","","","","","NA"
"-80.37","45.03","WESTERN ISLAND (AUT)","6119M51","2021-12-14 04:00","2021","12","14","04:00","2.6","","-2.1","","71","","","","33","","34","","","","100.79","","","","","","NA"
"-80.37","45.03","WESTERN ISLAND (AUT)","6119M51","2021-12-14 05:00","2021","12","14","05:00","2.1","","-2.0","","74","","","","33","","27","","","","100.89","","","","","","NA"
"-80.37","45.03","WESTERN ISLAND (AUT)","6119M51","2021-12-14 06:00","2021","12","14","06:00","2.0","","-2.2","","74","","","","34","","19","","","","101.01","","","","","","NA"
"-80.37","45.03","WESTERN ISLAND (AUT)","6119M51","2021-12-14 07:00","2021","12","14","07:00","1.7","","-2.2","","76","","","","35","","18","","","","101.06","","","","","","NA"
"-80.37","45.03","WESTERN ISLAND (AUT)","6119M51","2021-12-14 08:00","2021","12","14","08:00","1.5","","-2.8","","73","","","","36","","24","","","","101.15","","","","","","NA"
"-80.37","45.03","WESTERN ISLAND (AUT)","6119M51","2021-12-14 09:00","2021","12","14","09:00","1.4","","-2.1","","77","","","","36","","20","","","","101.23","","","","","","NA"
"-80.37","45.03","WESTERN ISLAND (AUT)","6119M51","2021-12-14 10:00","2021","12","14","10:00","1.4","","-2.2","","77","","","","1","","17","","","","101.28","","","","","","NA"
"-80.37","45.03","WESTERN ISLAND (AUT)","6119M51","2021-12-14 11:00","2021","12","14","11:00","1.7","","-2.0","","76","","","","3","","11","","","","101.33","","","","","","NA"
"-80.37","45.03","WESTERN ISLAND (AUT)","6119M51","2021-12-14 12:00","2021","12","14","12:00","2.6","","-2.1","","71","","","","6","","6","","","","101.29","","","","","","NA"
"-80.37","45.03","WESTERN ISLAND (AUT)","6119M51","2021-12-14 13:00","2021","12","14","13:00","2.2","","-3.1","","68","","","","1","","12","","","","101.28","","","","","","NA"
"-80.37","45.03","WESTERN ISLAND (AUT)","6119M51","2021-12-14 14:00","2021","12","14","14:00","2.5","","-3.3","","66","","","","4","","10","","","","101.24","","","","","","NA"
"-80.37","45.03","WESTERN ISLAND (AUT)","6119M51","2021-12-14 15:00","2021","12","14","15:00","2.7","","-2.4","","69","","","","1","","12","","","","101.23","","","","","","NA"
"-80.37","45.03","WESTERN ISLAND (AUT)","6119M51","2021-12-14 16:00","2021","12","14","16:00","3.5","","-3.2","","61","","","","4","","13","","","","101.21","","","","","","NA"
"-80.37","45.03","WESTERN ISLAND (AUT)","6119M51","2021-12-14 17:00","2021","12","14","17:00","4.2","","-3.1","","59","","","","5","","12","","","","101.23","","","","","","NA"
"-80.37","45.03","WESTERN ISLAND (AUT)","6119M51","2021-12-14 18:00","2021","12","14","18:00","4.0","","-4.2","","55","","","","6","","11","","","","101.19","","","","","","NA"
"-80.37","45.03","WESTERN ISLAND (AUT)","6119M51","2021-12-14 19:00","2021","12","14","19:00","4.2","","-3.4","","58","","","","6","","11","","","","101.15","","","","","","NA"
"-80.37","45.03","WESTERN ISLAND (AUT)","6119M51","2021-12-14 20:00","2021","12","14","20:00","4.3","","-2.4","","62","","","","7","","19","","","","101.12","","","","","","NA"
"-80.37","45.03","WESTERN ISLAND (AUT)","6119M51","2021-12-14 21:00","2021","12","14","21:00","4.1","","-2.6","","62","","","","9","","38","","","","101.09","","","","","","NA"
"-80.37","45.03","WESTERN ISLAND (AUT)","6119M51","2021-12-14 22:00","2021","12","14","22:00","3.8","","-2.3","","65","","","","9","","36","","","","101.03","","","","","","NA"
"-80.37","45.03","WESTERN ISLAND (AUT)","6119M51","2021-12-14 23:00","2021","12","14","23:00","4.0","","-1.9","","66","","","","9","","39","","","","100.97","","","","","","NA"
"-80.37","45.03","WESTERN ISLAND (AUT)","6119M51","2021-12-15 00:00","2021","12","15","00:00","3.2","","-2.0","","69","","","","9","","38","","","","100.89","","","","","","NA"
"-80.37","45.03","WESTERN ISLAND (AUT)","6119M51","2021-12-15 01:00","2021","12","15","01:00","3.5","","-3.4","","61","","","","10","","46","","","","100.84","","","","","","NA"
"-80.37","45.03","WESTERN ISLAND (AUT)","6119M51","2021-12-15 02:00","2021","12","15","02:00","3.4","","-2.5","","65","","","","11","","49","","","","100.71","","","","","","NA"
"-80.37","45.03","WESTERN ISLAND (AUT)","6119M51","2021-12-15 03:00","2021","12","15","03:00","3.1","","-1.7","","71","","","","10","","39","","","","100.68","","","","","","NA"
"-80.37","45.03","WESTERN ISLAND (AUT)","6119M51","2021-12-15 04:00","2021","12","15","04:00","2.9","","-2.1","","70","","","","10","","36","","","","100.62","","","","","","NA"
"-80.37","45.03","WESTERN ISLAND (AUT)","6119M51","2021-12-15 05:00","2021","12","15","05:00","2.7","","-1.4","","75","","","","10","","38","","","","100.44","","","","","","NA"
"-80.37","45.03","WESTERN ISLAND (AUT)","6119M51","2021-12-15 06:00","2021","12","15","06:00","3.6","","-1.7","","68","","","","10","","40","","","","100.33","","","","","","NA"
"-80.37","45.03","WESTERN ISLAND (AUT)","6119M51","2021-12-15 07:00","2021","12","15","07:00","3.9","","-0.7","","72","","","","11","","39","","","","100.34","","","","","","NA"
"-80.37","45.03","WESTERN ISLAND (AUT)","6119M51","2021-12-15 08:00","2021","12","15","08:00","3.9","","-0.5","","73","","","","12","","50","","","","100.25","","","","","","NA"
"-80.37","45.03","WESTERN ISLAND (AUT)","6119M51","2021-12-15 09:00","2021","12","15","09:00","3.3","","0.9","","84","","","","11","","44","","","","100.07","","","","","","NA"
"-80.37","45.03","WESTERN ISLAND (AUT)","6119M51","2021-12-15 10:00","2021","12","15","10:00","4.4","","1.6","","82","","","","12","","44","","","","99.98","","","","","","NA"
"-80.37","45.03","WESTERN ISLAND (AUT)","6119M51","2021-12-15 11:00","2021","12","15","11:00","4.1","","1.5","","83","","","","11","","42","","","","99.88","","","","","","NA"
"-80.37","45.03","WESTERN ISLAND (AUT)","6119M51","2021-12-15 12:00","2021","12","15","12:00","4.7","","1.4","","80","","","","12","","50","","","","99.64","","","","","","NA"
"-80.37","45.03","WESTERN ISLAND (AUT)","6119M51","2021-12-15 13:00","2021","12","15","13:00","5.1","","2.1","","81","","","","12","","48","","","","99.48","","","","","","NA"
"-80.37","45.03","WESTERN ISLAND (AUT)","6119M51","2021-12-15 14:00","2021","12","15","14:00","5.8","","3.1","","83","","","","13","","42","","","","99.35","","","","","","NA"
"-80.37","45.03","WESTERN ISLAND (AUT)","6119M51","2021-12-15 15:00","2021","12","15","15:00","6.6","","4.2","","85","","","","13","","36","","","","99.32","","","","","","NA"
"-80.37","45.03","WESTERN ISLAND (AUT)","6119M51","2021-12-15 16:00","2021","12","15","16:00","7.0","","4.7","","85","","","","13","","31","","","","99.24","","","","","","NA"
"-80.37","45.03","WESTERN ISLAND (AUT)","6119M51","2021-12-15 17:00","2021","12","15","17:00","7.1","","4.6","","84","","","","13","","34","","","","99.20","","","","","","NA"
"-80.37","45.03","WESTERN ISLAND (AUT)","6119M51","2021-12-15 18:00","2021","12","15","18:00","7.2","","4.7","","84","","","","14","","34","","","","99.13","","","","","","NA"
"-80.37","45.03","WESTERN ISLAND (AUT)","6119M51","2021-12-15 19:00","2021","12","15","19:00","7.8","","5.3","","84","","","","14","","31","","","","99.03","","","","","","NA"
"-80.37","45.03","WESTERN ISLAND (AUT)","6119M51","2021-12-15 20:00","2021","12","15","20:00","8.2","","5.5","","83","","","","15","","27","","","","99.00","","","","","","NA"
"-80.37","45.03","WESTERN ISLAND (AUT)","6119M51","2021-12-15 21:00","2021","12","15","21:00","8.6","","5.8","","83","","","","14","","29","","","","98.86","","","","","","NA"
"-80.37","45.03","WESTERN ISLAND (AUT)","6119M51","2021-12-15 22:00","2021","12","15","22:00","9.0","","5.9","","81","","","","15","","37","","","","98.77","","","","","","NA"
"-80.37","45.03","WESTERN ISLAND (AUT)","6119M51","2021-12-15 23:00","2021","12","15","23:00","8.9","","5.9","","82","","","","15","","32","","","","98.74","","","","","","NA"
"-80.37","45.03","WESTERN ISLAND (AUT)","6119M51","2021-12-16 00:00","2021","12","16","00:00","9.4","","6.4","","82","","","","16","","38","","","","98.63","","","","","","NA"
"-80.37","45.03","WESTERN ISLAND (AUT)","6119M51","2021-12-16 01:00","2021","12","16","01:00","9.2","","7.6","","89","","","","17","","38","","","","98.58","","","","","","NA"
"-80.37","45.03","WESTERN ISLAND (AUT)","6119M51","2021-12-16 02:00","2021","12","16","02:00","8.8","","6.6","","86","","","","15","","29","","","","98.55","","","","","","NA"
"-80.37","45.03","WESTERN ISLAND (AUT)","6119M51","2021-12-16 03:00","2021","12","16","03:00","10.2","","5.5","","73","","","","14","","43","","","","98.37","","","","","","NA"
"-80.37","45.03","WESTERN ISLAND (AUT)","6119M51","2021-12-16 04:00","2021","12","16","04:00","10.7","","4.5","","66","","","","16","","45","","","","98.23","","","","","","NA"
"-80.37","45.03","WESTERN ISLAND (AUT)","6119M51","2021-12-16 05:00","2021","12","16","05:00","10.7","","4.4","","65","","","","16","","42","","","","98.11","","","","","","NA"
"-80.37","45.03","WESTERN ISLAND (AUT)","6119M51","2021-12-16 06:00","2021","12","16","06:00","11.1","","4.7","","65","","","","15","","41","","","","98.04","","","","","","NA"
"-80.37","45.03","WESTERN ISLAND (AUT)","6119M51","2021-12-16 07:00","2021","12","16","07:00","11.1","","5.3","","68","","","","14","","51","","","","97.84","","","","","","NA"
"-80.37","45.03","WESTERN ISLAND (AUT)","6119M51","2021-12-16 08:00","2021","12","16","08:00","10.6","","6.0","","73","","","","15","","39","","","","97.79","","","","","","NA"
"-80.37","45.03","WESTERN ISLAND (AUT)","6119M51","2021-12-16 09:00","2021","12","16","09:00","12.1","","7.0","","71","","","","16","","51","","","","97.70","","","","","","NA"
"-80.37","45.03","WESTERN ISLAND (AUT)","6119M51","2021-12-16 10:00","2021","12","16","10:00","11.8","","7.1","","73","","","","14","","39","","","","97.74","","","","","","NA"
"-80.37","45.03","WESTERN ISLAND (AUT)","6119M51","2021-12-16 11:00","2021","12","16","11:00","13.6","","7.8","","68","","","","17","","43","","","","97.66","","","","","","NA"
"-80.37","45.03","WESTERN ISLAND (AUT)","6119M51","2021-12-16 12:00","2021","12","16","12:00","13.8","","8.1","","69","","","","18","","61","","","","97.55","","","","","","NA"
"-80.37","45.03","WESTERN ISLAND (AUT)","6119M51","2021-12-16 13:00","2021","12","16","13:00","12.8","","8.0","","73","","","","18","","53","","","","97.50","","","","","","NA"
"-80.37","45.03","WESTERN ISLAND (AUT)","6119M51","2021-12-16 14:00","2021","12","16","14:00","12.5","","8.4","","76","","","","18","","45","","","","97.46","","","","","","NA"
"-80.37","45.03","WESTERN ISLAND (AUT)","6119M51","2021-12-16 15:00","2021","12","16","15:00","11.7","","8.6","","81","","","","19","","47","","","","97.43","","","","","","NA"
"-80.37","45.03","WESTERN ISLAND (AUT)","6119M51","2021-12-16 16:00","2021","12","16","16:00","11.2","","6.6","","73","","","","19","","37","","","","97.44","","","","","","NA"
"-80.37","45.03","WESTERN ISLAND (AUT)","6119M51","2021-12-16 17:00","2021","12","16","17:00","9.2","","5.3","","76","","","","20","","54","","","","97.54","","","","","","NA"
"-80.37","45.03","WESTERN ISLAND (AUT)","6119M51","2021-12-16 18:00","2021","12","16","18:00","8.0","","2.4","","68","","","","21","","73","","","","97.61","","","","","","NA"
"-80.37","45.03","WESTERN ISLAND (AUT)","6119M51","2021-12-16 19:00","2021","12","16","19:00","5.7","","2.8","","82","","","","19","","76","","","","97.79","","","","","","NA"
"-80.37","45.03","WESTERN ISLAND (AUT)","6119M51","2021-12-16 20:00","2021","12","16","20:00","4.2","","2.0","","85","","","","19","","77","","","","97.87","","","","","","NA"
"-80.37","45.03","WESTERN ISLAND (AUT)","6119M51","2021-12-16 21:00","2021","12","16","21:00","4.0","","0.3","","77","","","","19","","73","","","","97.97","","","","","","NA"
"-80.37","45.03","WESTERN ISLAND (AUT)","6119M51","2021-12-16 22:00","2021","12","16","22:00","4.4","","-0.8","","69","","","","20","","69","","","","98.18","","","","","","NA"
"-80.37","45.03","WESTERN ISLAND (AUT)","6119M51","2021-12-16 23:00","2021","12","16","23:00","3.9","","-1.6","","68","","","","19","","70","","","","98.34","","","","","","NA"
"-80.37","45.03","WESTERN ISLAND (AUT)","6119M51","2021-12-17 00:00","2021","12","17","00:00","4.6","","-1.1","","66","","","","19","","62","","","","98.43","","","","","","NA"
"-80.37","45.03","WESTERN ISLAND (AUT)","6119M51","2021-12-17 01:00","2021","12","17","01:00","4.3","","-0.7","","70","","","","19","","57","","","","98.57","","","","","","NA"
"-80.37","45.03","WESTERN ISLAND (AUT)","6119M51","2021-12-17 02:00","2021","12","17","02:00","4.3","","-1.6","","65","","","","19","","61","","","","98.70","","","","","","NA"
"-80.37","45.03","WESTERN ISLAND (AUT)","6119M51","2021-12-17 03:00","2021","12","17","03:00","4.1","","-1.9","","65","","","","20","","57","","","","98.86","","","","","","NA"
"-80.37","45.03","WESTERN ISLAND (AUT)","6119M51","2021-12-17 04:00","2021","12","17","04:00","3.3","","-3.7","","60","","","","19","","61","","","","98.90","","","","","","NA"
"-80.37","45.03","WESTERN ISLAND (AUT)","6119M51","2021-12-17 05:00","2021","12","17","05:00","2.8","","-2.7","","67","","","","20","","60","","","","99.01","","","","","","NA"
"-80.37","45.03","WESTERN ISLAND (AUT)","6119M51","2021-12-17 06:00","2021","12","17","06:00","2.7","","-3.4","","64","","","","19","","57","","","","99.14","","","","","","NA"
"-80.37","45.03","WESTERN ISLAND (AUT)","6119M51","2021-12-17 07:00","2021","12","17","07:00","2.5","","-3.6","","64","","","","21","","54","","","","99.26","","","","","","NA"
"-80.37","45.03","WESTERN ISLAND (AUT)","6119M51","2021-12-17 08:00","2021","12","17","08:00","2.0","","-3.7","","66","","","","21","","50","","","","99.37","","","","","","NA"
"-80.37","45.03","WESTERN ISLAND (AUT)","6119M51","2021-12-17 09:00","2021","12","17","09:00","2.1","","-2.9","","69","","","","21","","50","","","","99.46","","","","","","NA"
"-80.37","45.03","WESTERN ISLAND (AUT)","6119M51","2021-12-17 10:00","2021","12","17","10:00","1.5","","-3.2","","71","","","","21","","58","","","","99.60","","","","","","NA"
"-80.37","45.03","WESTERN ISLAND (AUT)","6119M51","2021-12-17 11:00","2021","12","17","11:00","0.6","","-3.4","","75","","","","22","","54","","","","99.78","","","","","","NA"
"-80.37","45.03","WESTERN ISLAND (AUT)","6119M51","2021-12-17 12:00","2021","12","17","12:00","0.3","","-4.8","","69","","","","21","","48","","","","99.77","","","","","","NA"
"-80.37","45.03","WESTERN ISLAND (AUT)","6119M51","2021-12-17 13:00","2021","12","17","13:00","0.4","","-4.9","","68","","","","21","","45","","","","99.80","","","","","","NA"
"-80.37","45.03","WESTERN ISLAND (AUT)","6119M51","2021-12-17 14:00","2021","12","17","14:00","0.7","","-3.4","","74","","","","24","","42","","","","99.86","","","","","","NA"
"-80.37","45.03","WESTERN ISLAND (AUT)","6119M51","2021-12-17 15:00","2021","12","17","15:00","0.2","","-4.8","","69","","","","24","","42","","","","99.94","","","","","","NA"
"-80.37","45.03","WESTERN ISLAND (AUT)","6119M51","2021-12-17 16:00","2021","12","17","16:00","0.0","","-5.6","","66","","","","23","","38","","","","100.02","","","","-7","","NA"
"-80.37","45.03","WESTERN ISLAND (AUT)","6119M51","2021-12-17 17:00","2021","12","17","17:00","0.0","","-5.3","","68","","","","23","","33","","","","100.06","","","","-7","","NA"
"-80.37","45.03","WESTERN ISLAND (AUT)","6119M51","2021-12-17 18:00","2021","12","17","18:00","0.0","","-4.7","","70","","","","24","","28","","","","100.14","","","","-6","","NA"
"-80.37","45.03","WESTERN ISLAND (AUT)","6119M51","2021-12-17 19:00","2021","12","17","19:00","0.0","","-4.9","","69","","","","25","","24","","","","100.18","","","","-6","","NA"
"-80.37","45.03","WESTERN ISLAND (AUT)","6119M51","2021-12-17 20:00","2021","12","17","20:00","-0.1","","-5.4","","68","","","","28","","24","","","","100.17","","","","-6","","NA"
"-80.37","45.03","WESTERN ISLAND (AUT)","6119M51","2021-12-17 21:00","2021","12","17","21:00","-0.6","","-6.7","","63","","","","30","","20","","","","100.20","","","","-6","","NA"
"-80.37","45.03","WESTERN ISLAND (AUT)","6119M51","2021-12-17 22:00","2021","12","17","22:00","-0.8","","-7.3","","61","","","","31","","22","","","","100.21","","","","-7","","NA"
"-80.37","45.03","WESTERN ISLAND (AUT)","6119M51","2021-12-17 23:00","2021","12","17","23:00","-1.0","","-7.8","","60","","","","34","","17","","","","100.20","","","","-6","","NA"
"-80.37","45.03","WESTERN ISLAND (AUT)","6119M51","2021-12-18 00:00","2021","12","18","00:00","-1.1","","-8.5","","57","","","","36","","20","","","","100.15","","","","-7","","NA"
"-80.37","45.03","WESTERN ISLAND (AUT)","6119M51","2021-12-18 01:00","2021","12","18","01:00","-1.1","","-8.1","","59","","","","1","","15","","","","100.19","","","","-6","","NA"
"-80.37","45.03","WESTERN ISLAND (AUT)","6119M51","2021-12-18 02:00","2021","12","18","02:00","-1.0","","-7.2","","63","","","","36","","19","","","","100.13","","","","-6","","NA"
"-80.37","45.03","WESTERN ISLAND (AUT)","6119M51","2021-12-18 03:00","2021","12","18","03:00","-1.1","","-7.1","","64","","","","36","","20","","","","100.08","","","","-7","","NA"
"-80.37","45.03","WESTERN ISLAND (AUT)","6119M51","2021-12-18 04:00","2021","12","18","04:00","-1.2","","-6.8","","66","","","","36","","21","","","","100.04","","","","-7","","NA"
"-80.37","45.03","WESTERN ISLAND (AUT)","6119M51","2021-12-18 05:00","2021","12","18","05:00","-1.4","","-7.1","","65","","","","1","","26","","","","99.95","","","","-8","","NA"
"-80.37","45.03","WESTERN ISLAND (AUT)","6119M51","2021-12-18 06:00","2021","12","18","06:00","-1.5","","-6.6","","68","","","","1","","31","","","","99.83","","","","-9","","NA"
"-80.37","45.03","WESTERN ISLAND (AUT)","6119M51","2021-12-18 07:00","2021","12","18","07:00","-1.4","","-6.1","","71","","","","2","","25","","","","99.84","","","","-8","","NA"
"-80.37","45.03","WESTERN ISLAND (AUT)","6119M51","2021-12-18 08:00","2021","12","18","08:00","-1.6","","-6.2","","71","","","","1","","28","","","","99.78","","","","-8","","NA"
"-80.37","45.03","WESTERN ISLAND (AUT)","6119M51","2021-12-18 09:00","2021","12","18","09:00","-1.4","","-5.3","","74","","","","1","","28","","","","99.72","","","","-8","","NA"
"-80.37","45.03","WESTERN ISLAND (AUT)","6119M51","2021-12-18 10:00","2021","12","18","10:00","-1.4","","-5.7","","73","","","","1","","28","","","","99.70","","","","-8","","NA"
"-80.37","45.03","WESTERN ISLAND (AUT)","6119M51","2021-12-18 11:00","2021","12","18","11:00","-1.9","","-5.4","","77","","","","2","","27","","","","99.58","","","","-9","","NA"
"-80.37","45.03","WESTERN ISLAND (AUT)","6119M51","2021-12-18 12:00","2021","12","18","12:00","-1.9","","-4.0","","86","","","","1","","27","","","","99.48","","","","-9","","NA"
"-80.37","45.03","WESTERN ISLAND (AUT)","6119M51","2021-12-18 13:00","2021","12","18","13:00","-2.4","","-4.5","","85","","","","36","","30","","","","99.37","","","","-10","","NA"
"-80.37","45.03","WESTERN ISLAND (AUT)","6119M51","2021-12-18 14:00","2021","12","18","14:00","-2.5","","-4.2","","88","","","","35","","28","","","","99.34","","","","-10","","NA"
"-80.37","45.03","WESTERN ISLAND (AUT)","6119M51","2021-12-18 15:00","2021","12","18","15:00","-2.8","","-5.0","","85","","","","36","","31","","","","99.24","","","","-10","","NA"
"-80.37","45.03","WESTERN ISLAND (AUT)","6119M51","2021-12-18 16:00","2021","12","18","16:00","-2.8","","-5.1","","84","","","","35","","26","","","","99.28","","","","-10","","NA"
"-80.37","45.03","WESTERN ISLAND (AUT)","6119M51","2021-12-18 17:00","2021","12","18","17:00","-2.7","","-5.1","","84","","","","34","","25","","","","99.29","","","","-9","","NA"
"-80.37","45.03","WESTERN ISLAND (AUT)","6119M51","2021-12-18 18:00","2021","12","18","18:00","-3.0","","-5.2","","85","","","","33","","24","","","","99.36","","","","-10","","NA"
"-80.37","45.03","WESTERN ISLAND (AUT)","6119M51","2021-12-18 19:00","2021","12","18","19:00","-3.4","","-6.1","","82","","","","33","","25","","","","99.41","","","","-10","","NA"
"-80.37","45.03","WESTERN ISLAND (AUT)","6119M51","2021-12-18 20:00","2021","12","18","20:00","-3.5","","-5.6","","86","","","","31","","28","","","","99.47","","","","-11","","NA"
"-80.37","45.03","WESTERN ISLAND (AUT)","6119M51","2021-12-18 21:00","2021","12","18","21:00","-4.3","","-7.0","","81","","","","32","","26","","","","99.49","","","","-12","","NA"
"-80.37","45.03","WESTERN ISLAND (AUT)","6119M51","2021-12-18 22:00","2021","12","18","22:00","-4.4","","-6.9","","82","","","","31","","25","","","","99.57","","","","-12","","NA"
"-80.37","45.03","WESTERN ISLAND (AUT)","6119M51","2021-12-18 23:00","2021","12","18","23:00","-4.5","","-7.5","","79","","","","31","","30","","","","99.63","","","","-12","","NA"
"-80.37","45.03","WESTERN ISLAND (AUT)","6119M51","2021-12-19 00:00","2021","12","19","00:00","-4.3","","-6.5","","84","","","","30","","27","","","","99.71","","","","-12","","NA"
"-80.37","45.03","WESTERN ISLAND (AUT)","6119M51","2021-12-19 01:00","2021","12","19","01:00","-5.4","","-8.5","","78","","","","29","","28","","","","99.73","","","","-13","","NA"
"-80.37","45.03","WESTERN ISLAND (AUT)","6119M51","2021-12-19 02:00","2021","12","19","02:00","-5.0","","-7.1","","85","","","","31","","31","","","","99.80","","","","-13","","NA"
"-80.37","45.03","WESTERN ISLAND (AUT)","6119M51","2021-12-19 03:00","2021","12","19","03:00","-5.8","","-8.4","","82","","","","32","","33","","","","99.91","","","","-14","","NA"
"-80.37","45.03","WESTERN ISLAND (AUT)","6119M51","2021-12-19 04:00","2021","12","19","04:00","-6.1","","-9.1","","79","","","","33","","31","","","","99.98","","","","-15","","NA"
"-80.37","45.03","WESTERN ISLAND (AUT)","6119M51","2021-12-19 05:00","2021","12","19","05:00","-6.7","","-9.7","","80","","","","32","","33","","","","100.02","","","","-16","","NA"
"-80.37","45.03","WESTERN ISLAND (AUT)","6119M51","2021-12-19 06:00","2021","12","19","06:00","-7.4","","-9.4","","86","","","","33","","35","","","","100.12","","","","-17","","NA"
"-80.37","45.03","WESTERN ISLAND (AUT)","6119M51","2021-12-19 07:00","2021","12","19","07:00","-8.1","","-11.2","","78","","","","34","","33","","","","100.22","","","","-17","","NA"
"-80.37","45.03","WESTERN ISLAND (AUT)","6119M51","2021-12-19 08:00","2021","12","19","08:00","-9.0","","-11.4","","83","","","","34","","30","","","","100.33","","","","-18","","NA"
"-80.37","45.03","WESTERN ISLAND (AUT)","6119M51","2021-12-19 09:00","2021","12","19","09:00","-9.3","","-11.8","","82","","","","35","","23","","","","100.39","","","","-18","","NA"
"-80.37","45.03","WESTERN ISLAND (AUT)","6119M51","2021-12-19 10:00","2021","12","19","10:00","-9.1","","-11.9","","80","","","","33","","19","","","","100.45","","","","-17","","NA"
"-80.37","45.03","WESTERN ISLAND (AUT)","6119M51","2021-12-19 11:00","2021","12","19","11:00","-8.6","","-11.5","","79","","","","34","","11","","","","100.47","","","","-14","","NA"
"-80.37","45.03","WESTERN ISLAND (AUT)","6119M51","2021-12-19 12:00","2021","12","19","12:00","-8.5","","-11.8","","77","","","","31","","14","","","","100.48","","","","-15","","NA"
"-80.37","45.03","WESTERN ISLAND (AUT)","6119M51","2021-12-19 13:00","2021","12","19","13:00","-8.2","","-11.0","","80","","","","31","","16","","","","100.43","","","","-15","","NA"
"-80.37","45.03","WESTERN ISLAND (AUT)","6119M51","2021-12-19 14:00","2021","12","19","14:00","-6.9","","-8.8","","86","","","","31","","16","","","","100.38","","","","-13","","NA"
"-80.37","45.03","WESTERN ISLAND (AUT)","6119M51","2021-12-19 15:00","2021","12","19","15:00","-7.4","","-9.9","","82","","","","29","","16","","","","100.40","","","","-14","","NA"
"-80.37","45.03","WESTERN ISLAND (AUT)","6119M51","2021-12-19 16:00","2021","12","19","16:00","-6.7","","-9.2","","83","","","","30","","18","","","","100.45","","","","-13","","NA"
"-80.37","45.03","WESTERN ISLAND (AUT)","6119M51","2021-12-19 17:00","2021","12","19","17:00","-6.4","","-9.3","","80","","","","32","","12","","","","100.39","","","","-12","","NA"
"-80.37","45.03","WESTERN ISLAND (AUT)","6119M51","2021-12-19 18:00","2021","12","19","18:00","-6.3","","-9.8","","76","","","","30","","8","","","","100.43","","","","-10","","NA"
"-80.37","45.03","WESTERN ISLAND (AUT)","6119M51","2021-12-19 19:00","2021","12","19","19:00","-5.6","","-8.9","","78","","","","28","","9","","","","100.45","","","","-10","","NA"
"-80.37","45.03","WESTERN ISLAND (AUT)","6119M51","2021-12-19 20:00","2021","12","19","20:00","-5.1","","-8.9","","75","","","","19","","6","","","","100.37","","","","-8","","NA"
"-80.37","45.03","WESTERN ISLAND (AUT)","6119M51","2021-12-19 21:00","2021","12","19","21:00","-4.2","","-8.9","","70","","","","16","","12","","","","100.27","","","","-9","","NA"
"-80.37","45.03","WESTERN ISLAND (AUT)","6119M51","2021-12-19 22:00","2021","12","19","22:00","-3.3","","-8.9","","65","","","","18","","17","","","","100.24","","","","-9","","NA"
"-80.37","45.03","WESTERN ISLAND (AUT)","6119M51","2021-12-19 23:00","2021","12","19","23:00","-3.1","","-7.5","","72","","","","18","","24","","","","100.18","","","","-10","","NA"
"-80.37","45.03","WESTERN ISLAND (AUT)","6119M51","2021-12-20 00:00","2021","12","20","00:00","-3.1","","-8.1","","68","","","","17","","31","","","","100.10","","","","-11","","NA"
"-80.37","45.03","WESTERN ISLAND (AUT)","6119M51","2021-12-20 01:00","2021","12","20","01:00","-1.6","","-6.5","","69","","","","18","","31","","","","100.05","","","","-9","","NA"
"-80.37","45.03","WESTERN ISLAND (AUT)","6119M51","2021-12-20 02:00","2021","12","20","02:00","-1.6","","-5.8","","73","","","","18","","41","","","","99.92","","","","-10","","NA"
"-80.37","45.03","WESTERN ISLAND (AUT)","6119M51","2021-12-20 03:00","2021","12","20","03:00","-1.2","","-4.9","","76","","","","18","","48","","","","99.88","","","","-10","","NA"
"-80.37","45.03","WESTERN ISLAND (AUT)","6119M51","2021-12-20 04:00","2021","12","20","04:00","0.1","","-3.4","","77","","","","18","","46","","","","99.79","","","","","","NA"
"-80.37","45.03","WESTERN ISLAND (AUT)","6119M51","2021-12-20 05:00","2021","12","20","05:00","0.4","","-3.6","","75","","","","18","","51","","","","99.66","","","","","","NA"
"-80.37","45.03","WESTERN ISLAND (AUT)","6119M51","2021-12-20 06:00","2021","12","20","06:00","0.6","","-2.8","","78","","","","19","","55","","","","99.58","","","","","","NA"
"-80.37","45.03","WESTERN ISLAND (AUT)","6119M51","2021-12-20 07:00","2021","12","20","07:00","1.0","","-2.4","","78","","","","18","","55","","","","99.56","","","","","","NA"
"-80.37","45.03","WESTERN ISLAND (AUT)","6119M51","2021-12-20 08:00","2021","12","20","08:00","1.1","","-2.8","","75","","","","18","","57","","","","99.48","","","","","","NA"
"-80.37","45.03","WESTERN ISLAND (AUT)","6119M51","2021-12-20 09:00","2021","12","20","09:00","1.1","","-1.9","","80","","","","23","","60","","","","99.41","","","","","","NA"
"-80.37","45.03","WESTERN ISLAND (AUT)","6119M51","2021-12-20 10:00","2021","12","20","10:00","1.1","","-2.5","","77","","","","18","","58","","","","99.40","","","","","","NA"
"-80.37","45.03","WESTERN ISLAND (AUT)","6119M51","2021-12-20 11:00","2021","12","20","11:00","1.4","","-2.0","","78","","","","18","","52","","","","99.38","","","","","","NA"
"-80.37","45.03","WESTERN ISLAND (AUT)","6119M51","2021-12-20 12:00","2021","12","20","12:00","1.6","","-1.8","","79","","","","18","","46","","","","99.25","","","","","","NA"
"-80.37","45.03","WESTERN ISLAND (AUT)","6119M51","2021-12-20 13:00","2021","12","20","13:00","2.5","","-1.0","","78","","","","19","","46","","","","99.14","","","","","","NA"
"-80.37","45.03","WESTERN ISLAND (AUT)","6119M51","2021-12-20 14:00","2021","12","20","14:00","2.6","","-1.3","","76","","","","20","","55","","","","99.09","","","","","","NA"
"-80.37","45.03","WESTERN ISLAND (AUT)","6119M51","2021-12-20 15:00","2021","12","20","15:00","2.8","","-0.7","","77","","","","19","","54","","","","99.03","","","","","","NA"
"-80.37","45.03","WESTERN ISLAND (AUT)","6119M51","2021-12-20 16:00","2021","12","20","16:00","2.6","","-1.7","","74","","","","19","","49","","","","99.03","","","","","","NA"
"-80.37","45.03","WESTERN ISLAND (AUT)","6119M51","2021-12-20 17:00","2021","12","20","17:00","3.0","","-1.4","","73","","","","19","","47","","","","98.99","","","","","","NA"
"-80.37","45.03","WESTERN ISLAND (AUT)","6119M51","2021-12-20 18:00","2021","12","20","18:00","3.1","","-0.5","","77","","","","18","","46","","","","98.97","","","","","","NA"
"-80.37","45.03","WESTERN ISLAND (AUT)","6119M51","2021-12-20 19:00","2021","12","20","19:00","3.2","","0.3","","81","","","","20","","53","","","","98.94","","","","","","NA"
"-80.37","45.03","WESTERN ISLAND (AUT)","6119M51","2021-12-20 20:00","2021","12","20","20:00","3.5","","0.9","","83","","","","21","","51","","","","98.92","","","","","","NA"
"-80.37","45.03","WESTERN ISLAND (AUT)","6119M51","2021-12-20 21:00","2021","12","20","21:00","4.0","","0.3","","77","","","","21","","51","","","","98.93","","","","","","NA"
"-80.37","45.03","WESTERN ISLAND (AUT)","6119M51","2021-12-20 22:00","2021","12","20","22:00","3.4","","-0.4","","76","","","","24","","58","","","","98.97","","","","","","NA"
"-80.37","45.03","WESTERN ISLAND (AUT)","6119M51","2021-12-20 23:00","2021","12","20","23:00","2.8","","-1.4","","74","","","","29","","55","","","","99.03","","","","","","NA"
"-80.37","45.03","WESTERN ISLAND (AUT)","6119M51","2021-12-21 00:00","2021","12","21","00:00","2.0","","-2.4","","72","","","","33","","53","","","","99.15","","","","","","NA"
"-80.37","45.03","WESTERN ISLAND (AUT)","6119M51","2021-12-21 01:00","2021","12","21","01:00","1.3","","-3.6","","70","","","","33","","55","","","","99.21","","","","","","NA"
"-80.37","45.03","WESTERN ISLAND (AUT)","6119M51","2021-12-21 02:00","2021","12","21","02:00","0.8","","-3.6","","72","","","","33","","52","","","","99.26","","","","","","NA"
"-80.37","45.03","WESTERN ISLAND (AUT)","6119M51","2021-12-21 03:00","2021","12","21","03:00","0.4","","-4.7","","69","","","","33","","51","","","","99.34","","","","","","NA"
"-80.37","45.03","WESTERN ISLAND (AUT)","6119M51","2021-12-21 04:00","2021","12","21","04:00","-0.5","","-7.3","","60","","","","33","","51","","","","99.42","","","","-9","","NA"
"-80.37","45.03","WESTERN ISLAND (AUT)","6119M51","2021-12-21 05:00","2021","12","21","05:00","-1.1","","-6.4","","67","","","","33","","43","","","","99.43","","","","-9","","NA"
"-80.37","45.03","WESTERN ISLAND (AUT)","6119M51","2021-12-21 06:00","2021","12","21","06:00","-1.3","","-6.1","","70","","","","35","","29","","","","99.48","","","","-8","","NA"
"-80.37","45.03","WESTERN ISLAND (AUT)","6119M51","2021-12-21 07:00","2021","12","21","07:00","-2.3","","-8.0","","65","","","","35","","26","","","","99.57","","","","-9","","NA"
"-80.37","45.03","WESTERN ISLAND (AUT)","6119M51","2021-12-21 08:00","2021","12","21","08:00","-2.7","","-8.6","","64","","","","35","","25","","","","99.54","","","","-9","","NA"
"-80.37","45.03","WESTERN ISLAND (AUT)","6119M51","2021-12-21 09:00","2021","12","21","09:00","-3.5","","-8.1","","70","","","","5","","20","","","","99.54","","","","-10","","NA"
"-80.37","45.03","WESTERN ISLAND (AUT)","6119M51","2021-12-21 10:00","2021","12","21","10:00","-3.8","","-8.3","","71","","","","8","","15","","","","99.52","","","","-9","","NA"
"-80.37","45.03","WESTERN ISLAND (AUT)","6119M51","2021-12-21 11:00","2021","12","21","11:00","-3.9","","-9.0","","68","","","","9","","17","","","","99.45","","","","-10","","NA"
"-80.37","45.03","WESTERN ISLAND (AUT)","6119M51","2021-12-21 12:00","2021","12","21","12:00","-3.2","","-8.0","","70","","","","12","","12","","","","99.27","","","","-8","","NA"
"-80.37","45.03","WESTERN ISLAND (AUT)","6119M51","2021-12-21 13:00","2021","12","21","13:00","-2.1","","-6.6","","72","","","","13","","12","","","","99.11","","","","-6","","NA"
"-80.37","45.03","WESTERN ISLAND (AUT)","6119M51","2021-12-21 14:00","2021","12","21","14:00","-1.2","","-5.9","","70","","","","16","","23","","","","99.01","","","","-7","","NA"
"-80.37","45.03","WESTERN ISLAND (AUT)","6119M51","2021-12-21 15:00","2021","12","21","15:00","0.0","","-5.9","","65","","","","18","","25","","","","98.83","","","","-6","","NA"
"-80.37","45.03","WESTERN ISLAND (AUT)","6119M51","2021-12-21 16:00","2021","12","21","16:00","0.3","","-5.6","","65","","","","17","","27","","","","98.71","","","","","","NA"
"-80.37","45.03","WESTERN ISLAND (AUT)","6119M51","2021-12-21 17:00","2021","12","21","17:00","0.9","","-5.0","","65","","","","16","","34","","","","98.49","","","","","","NA"
"-80.37","45.03","WESTERN ISLAND (AUT)","6119M51","2021-12-21 18:00","2021","12","21","18:00","1.6","","-3.6","","68","","","","17","","41","","","","98.30","","","","","","NA"
"-80.37","45.03","WESTERN ISLAND (AUT)","6119M51","2021-12-21 19:00","2021","12","21","19:00","1.3","","-3.6","","70","","","","18","","42","","","","98.22","","","","","","NA"
"-80.37","45.03","WESTERN ISLAND (AUT)","6119M51","2021-12-21 20:00","2021","12","21","20:00","1.1","","-2.4","","77","","","","18","","46","","","","98.05","","","","","","NA"
"-80.37","45.03","WESTERN ISLAND (AUT)","6119M51","2021-12-21 21:00","2021","12","21","21:00","1.6","","-1.9","","77","","","","18","","53","","","","97.87","","","","","","NA"
"-80.37","45.03","WESTERN ISLAND (AUT)","6119M51","2021-12-21 22:00","2021","12","21","22:00","2.1","","-0.3","","84","","","","18","","49","","","","97.64","","","","","","NA"
"-80.37","45.03","WESTERN ISLAND (AUT)","6119M51","2021-12-21 23:00","2021","12","21","23:00","3.3","","0.0","","79","","","","21","","46","","","","97.47","","","","","","NA"
"-80.37","45.03","WESTERN ISLAND (AUT)","6119M51","2021-12-22 00:00","2021","12","22","00:00","2.9","","0.0","","81","","","","22","","50","","","","97.35","","","","","","NA"
"-80.37","45.03","WESTERN ISLAND (AUT)","6119M51","2021-12-22 01:00","2021","12","22","01:00","2.7","","1.0","","89","","","","21","","45","","","","97.26","","","","","","NA"
"-80.37","45.03","WESTERN ISLAND (AUT)","6119M51","2021-12-22 02:00","2021","12","22","02:00","1.2","","-2.6","","76","","","","29","","63","","","","97.34","","","","","","NA"
"-80.37","45.03","WESTERN ISLAND (AUT)","6119M51","2021-12-22 03:00","2021","12","22","03:00","0.1","","-3.9","","74","","","","26","","58","","","","97.49","","","","","","NA"
"-80.37","45.03","WESTERN ISLAND (AUT)","6119M51","2021-12-22 04:00","2021","12","22","04:00","-1.4","","-6.7","","67","","","","24","","56","","","","97.58","","","","-10","","NA"
"-80.37","45.03","WESTERN ISLAND (AUT)","6119M51","2021-12-22 05:00","2021","12","22","05:00","-1.0","","-6.1","","68","","","","24","","56","","","","97.59","","","","-10","","NA"
"-80.37","45.03","WESTERN ISLAND (AUT)","6119M51","2021-12-22 06:00","2021","12","22","06:00","-1.5","","-5.0","","77","","","","23","","57","","","","97.60","","","","-11","","NA"
"-80.37","45.03","WESTERN ISLAND (AUT)","6119M51","2021-12-22 07:00","2021","12","22","07:00","-0.5","","-5.1","","71","","","","22","","57","","","","97.60","","","","-9","","NA"
"-80.37","45.03","WESTERN ISLAND (AUT)","6119M51","2021-12-22 08:00","2021","12","22","08:00","-0.8","","-2.1","","91","","","","28","","63","","","","97.61","","","","-10","","NA"
"-80.37","45.03","WESTERN ISLAND (AUT)","6119M51","2021-12-22 09:00","2021","12","22","09:00","-1.5","","-4.3","","81","","","","28","","54","","","","","M","","","-10","","NA"
"-80.37","45.03","WESTERN ISLAND (AUT)","6119M51","2021-12-22 10:00","2021","12","22","10:00","-2.8","","-5.9","","80","","","","27","","53","","","","98.07","","","","-12","","NA"
"-80.37","45.03","WESTERN ISLAND (AUT)","6119M51","2021-12-22 11:00","2021","12","22","11:00","-3.9","","-6.9","","80","","","","28","","54","","","","98.24","","","","-14","","NA"
"-80.37","45.03","WESTERN ISLAND (AUT)","6119M51","2021-12-22 12:00","2021","12","22","12:00","-4.5","","-6.3","","87","","","","29","","47","","","","98.35","","","","-14","","NA"
"-80.37","45.03","WESTERN ISLAND (AUT)","6119M51","2021-12-22 13:00","2021","12","22","13:00","-5.5","","-9.0","","77","","","","29","","43","","","","98.45","","","","-15","","NA"
"-80.37","45.03","WESTERN ISLAND (AUT)","6119M51","2021-12-22 14:00","2021","12","22","14:00","-5.1","","-8.1","","79","","","","29","","40","","","","98.57","","","","-14","","NA"
"-80.37","45.03","WESTERN ISLAND (AUT)","6119M51","2021-12-22 15:00","2021","12","22","15:00","-3.9","","-6.5","","82","","","","28","","37","","","","98.69","","","","-12","","NA"
"-80.37","45.03","WESTERN ISLAND (AUT)","6119M51","2021-12-22 16:00","2021","12","22","16:00","-4.0","","-8.7","","70","","","","28","","41","","","","98.78","","","","-13","","NA"
"-80.37","45.03","WESTERN ISLAND (AUT)","6119M51","2021-12-22 17:00","2021","12","22","17:00","-4.4","","-7.5","","79","","","","27","","36","","","","98.87","","","","-13","","NA"
"-80.37","45.03","WESTERN ISLAND (AUT)","6119M51","2021-12-22 18:00","2021","12","22","18:00","-4.0","","-10.2","","62","","","","26","","48","","","","98.98","","","","-13","","NA"
"-80.37","45.03","WESTERN ISLAND (AUT)","6119M51","2021-12-22 19:00","2021","12","22","19:00","-3.8","","-9.6","","64","","","","27","","49","","","","99.04","","","","-13","","NA"
"-80.37","45.03","WESTERN ISLAND (AUT)","6119M51","2021-12-22 20:00","2021","12","22","20:00","-4.3","","-9.9","","65","","","","28","","45","","","","99.12","","","","-14","","NA"
"-80.37","45.03","WESTERN ISLAND (AUT)","6119M51","2021-12-22 21:00","2021","12","22","21:00","-4.7","","-10.3","","65","","","","30","","45","","","","99.22","","","","-14","","NA"
"-80.37","45.03","WESTERN ISLAND (AUT)","6119M51","2021-12-22 22:00","2021","12","22","22:00","-5.9","","-8.2","","84","","","","33","","40","","","","99.28","","","","-15","","NA"
"-80.37","45.03","WESTERN ISLAND (AUT)","6119M51","2021-12-22 23:00","2021","12","22","23:00","-7.2","","-9.5","","84","","","","34","","31","","","","99.35","","","","-16","","NA"
"-80.37","45.03","WESTERN ISLAND (AUT)","6119M51","2021-12-23 00:00","2021","12","23","00:00","-8.1","","-10.7","","81","","","","35","","27","","","","99.41","","","","-17","","NA"
"-80.37","45.03","WESTERN ISLAND (AUT)","6119M51","2021-12-23 01:00","2021","12","23","01:00","-8.4","","-11.0","","82","","","","35","","28","","","","99.46","","","","-17","","NA"
"-80.37","45.03","WESTERN ISLAND (AUT)","6119M51","2021-12-23 02:00","2021","12","23","02:00","-8.5","","-11.1","","82","","","","36","","27","","","","99.53","","","","-17","","NA"
"-80.37","45.03","WESTERN ISLAND (AUT)","6119M51","2021-12-23 03:00","2021","12","23","03:00","-8.8","","-11.1","","83","","","","1","","19","","","","99.62","","","","-16","","NA"
"-80.37","45.03","WESTERN ISLAND (AUT)","6119M51","2021-12-23 04:00","2021","12","23","04:00","-9.0","","-11.1","","85","","","","3","","16","","","","99.65","","","","-16","","NA"
"-80.37","45.03","WESTERN ISLAND (AUT)","6119M51","2021-12-23 05:00","2021","12","23","05:00","-8.7","","-10.6","","86","","","","5","","12","","","","99.65","","","","-14","","NA"
"-80.37","45.03","WESTERN ISLAND (AUT)","6119M51","2021-12-23 06:00","2021","12","23","06:00","-7.3","","-10.2","","79","","","","8","","8","","","","99.68","","","","-11","","NA"
"-80.37","45.03","WESTERN ISLAND (AUT)","6119M51","2021-12-23 07:00","2021","12","23","07:00","-6.5","","-9.1","","82","","","","11","","16","","","","99.75","","","","-13","","NA"
"-80.37","45.03","WESTERN ISLAND (AUT)","6119M51","2021-12-23 08:00","2021","12","23","08:00","-5.3","","-7.5","","85","","","","12","","22","","","","99.70","","","","-12","","NA"
"-80.37","45.03","WESTERN ISLAND (AUT)","6119M51","2021-12-23 09:00","2021","12","23","09:00","-4.1","","-7.3","","78","","","","11","","35","","","","99.67","","","","-12","","NA"
"-80.37","45.03","WESTERN ISLAND (AUT)","6119M51","2021-12-23 10:00","2021","12","23","10:00","-3.4","","-7.2","","75","","","","13","","36","","","","99.71","","","","-12","","NA"
"-80.37","45.03","WESTERN ISLAND (AUT)","6119M51","2021-12-23 11:00","2021","12","23","11:00","-3.0","","-7.1","","73","","","","15","","29","","","","99.66","","","","-10","","NA"
"-80.37","45.03","WESTERN ISLAND (AUT)","6119M51","2021-12-23 12:00","2021","12","23","12:00","-2.6","","-7.0","","72","","","","14","","26","","","","99.57","","","","-9","","NA"
"-80.37","45.03","WESTERN ISLAND (AUT)","6119M51","2021-12-23 13:00","2021","12","23","13:00","-2.5","","-7.3","","70","","","","13","","29","","","","99.51","","","","-10","","NA"
"-80.37","45.03","WESTERN ISLAND (AUT)","6119M51","2021-12-23 14:00","2021","12","23","14:00","-2.0","","-8.5","","61","","","","14","","25","","","","99.44","","","","-8","","NA"
"-80.37","45.03","WESTERN ISLAND (AUT)","6119M51","2021-12-23 15:00","2021","12","23","15:00","-1.6","","-6.2","","70","","","","11","","32","","","","99.37","","","","-9","","NA"
"-80.37","45.03","WESTERN ISLAND (AUT)","6119M51","2021-12-23 16:00","2021","12","23","16:00","-1.5","","-7.7","","62","","","","11","","38","","","","99.28","","","","-9","","NA"
"-80.37","45.03","WESTERN ISLAND (AUT)","6119M51","2021-12-23 17:00","2021","12","23","17:00","-1.8","","-8.0","","63","","","","11","","35","","","","99.22","","","","-9","","NA"
"-80.37","45.03","WESTERN ISLAND (AUT)","6119M51","2021-12-23 18:00","2021","12","23","18:00","-1.6","","-7.8","","63","","","","11","","38","","","","99.22","","","","-9","","NA"
"-80.37","45.03","WESTERN ISLAND (AUT)","6119M51","2021-12-23 19:00","2021","12","23","19:00","-1.7","","-7.1","","66","","","","11","","43","","","","99.16","","","","-10","","NA"
"-80.37","45.03","WESTERN ISLAND (AUT)","6119M51","2021-12-23 20:00","2021","12","23","20:00","-2.0","","-6.2","","73","","","","11","","46","","","","99.13","","","","-11","","NA"
"-80.37","45.03","WESTERN ISLAND (AUT)","6119M51","2021-12-23 21:00","2021","12","23","21:00","-1.5","","-4.7","","79","","","","12","","44","","","","99.10","","","","-10","","NA"
"-80.37","45.03","WESTERN ISLAND (AUT)","6119M51","2021-12-23 22:00","2021","12","23","22:00","-1.7","","-3.5","","88","","","","11","","41","","","","99.07","","","","-10","","NA"
"-80.37","45.03","WESTERN ISLAND (AUT)","6119M51","2021-12-23 23:00","2021","12","23","23:00","-1.8","","-3.5","","88","","","","9","","22","","","","99.03","","","","-8","","NA"
"-80.37","45.03","WESTERN ISLAND (AUT)","6119M51","2021-12-24 00:00","2021","12","24","00:00","-2.2","","-3.9","","88","","","","8","","13","","","","99.03","","","","-7","","NA"
"-80.37","45.03","WESTERN ISLAND (AUT)","6119M51","2021-12-24 01:00","2021","12","24","01:00","-2.4","","-4.1","","88","","","","9","","24","","","","98.95","","","","-9","","NA"
"-80.37","45.03","WESTERN ISLAND (AUT)","6119M51","2021-12-24 02:00","2021","12","24","02:00","-2.0","","-3.5","","90","","","","10","","35","","","","98.95","","","","-10","","NA"
"-80.37","45.03","WESTERN ISLAND (AUT)","6119M51","2021-12-24 03:00","2021","12","24","03:00","-1.6","","-3.5","","87","","","","10","","27","","","","99.07","","","","-8","","NA"
"-80.37","45.03","WESTERN ISLAND (AUT)","6119M51","2021-12-24 04:00","2021","12","24","04:00","-1.4","","-2.9","","89","","","","9","","15","","","","99.05","","","","-6","","NA"
"-80.37","45.03","WESTERN ISLAND (AUT)","6119M51","2021-12-24 05:00","2021","12","24","05:00","-1.3","","-2.6","","91","","","","8","","19","","","","99.07","","","","-7","","NA"
"-80.37","45.03","WESTERN ISLAND (AUT)","6119M51","2021-12-24 06:00","2021","12","24","06:00","-1.2","","-2.5","","91","","","","9","","29","","","","99.12","","","","-8","","NA"
"-80.37","45.03","WESTERN ISLAND (AUT)","6119M51","2021-12-24 07:00","2021","12","24","07:00","-0.8","","-2.2","","90","","","","10","","26","","","","99.16","","","","-7","","NA"
"-80.37","45.03","WESTERN ISLAND (AUT)","6119M51","2021-12-24 08:00","2021","12","24","08:00","-0.7","","-2.2","","89","","","","10","","29","","","","99.06","","","","-7","","NA"
"-80.37","45.03","WESTERN ISLAND (AUT)","6119M51","2021-12-24 09:00","2021","12","24","09:00","-0.6","","-1.9","","91","","","","8","","21","","","","99.02","","","","-6","","NA"
"-80.37","45.03","WESTERN ISLAND (AUT)","6119M51","2021-12-24 10:00","2021","12","24","10:00","0.0","","-1.6","","89","","","","12","","34","","","","99.11","","","","-7","","NA"
"-80.37","45.03","WESTERN ISLAND (AUT)","6119M51","2021-12-24 11:00","2021","12","24","11:00","0.2","","-1.5","","88","","","","11","","33","","","","99.12","","","","","","NA"
"-80.37","45.03","WESTERN ISLAND (AUT)","6119M51","2021-12-24 12:00","2021","12","24","12:00","0.6","","-1.1","","88","","","","11","","35","","","","99.00","","","","","","NA"
"-80.37","45.03","WESTERN ISLAND (AUT)","6119M51","2021-12-24 13:00","2021","12","24","13:00","0.9","","-1.1","","86","","","","11","","45","","","","98.80","","","","","","NA"
"-80.37","45.03","WESTERN ISLAND (AUT)","6119M51","2021-12-24 14:00","2021","12","24","14:00","1.1","","-0.8","","87","","","","11","","41","","","","98.68","","","","","","NA"
"-80.37","45.03","WESTERN ISLAND (AUT)","6119M51","2021-12-24 15:00","2021","12","24","15:00","0.9","","-0.6","","90","","","","9","","28","","","","98.63","","","","","","NA"
"-80.37","45.03","WESTERN ISLAND (AUT)","6119M51","2021-12-24 16:00","2021","12","24","16:00","1.0","","-0.6","","89","","","","10","","34","","","","98.67","","","","","","NA"
"-80.37","45.03","WESTERN ISLAND (AUT)","6119M51","2021-12-24 17:00","2021","12","24","17:00","0.9","","-0.8","","89","","","","9","","21","","","","98.52","","","","","","NA"
"-80.37","45.03","WESTERN ISLAND (AUT)","6119M51","2021-12-24 18:00","2021","12","24","18:00","0.9","","-0.5","","90","","","","11","","31","","","","98.49","","","","","","NA"
"-80.37","45.03","WESTERN ISLAND (AUT)","6119M51","2021-12-24 19:00","2021","12","24","19:00","0.6","","-0.8","","90","","","","11","","27","","","","98.43","","","","","","NA"
"-80.37","45.03","WESTERN ISLAND (AUT)","6119M51","2021-12-24 20:00","2021","12","24","20:00","0.5","","-0.5","","92","","","","11","","24","","","","98.36","","","","","","NA"
"-80.37","45.03","WESTERN ISLAND (AUT)","6119M51","2021-12-24 21:00","2021","12","24","21:00","0.6","","-0.7","","91","","","","11","","29","","","","98.22","","","","","","NA"
"-80.37","45.03","WESTERN ISLAND (AUT)","6119M51","2021-12-24 22:00","2021","12","24","22:00","0.7","","-0.7","","91","","","","12","","34","","","","98.08","","","","","","NA"
"-80.37","45.03","WESTERN ISLAND (AUT)","6119M51","2021-12-24 23:00","2021","12","24","23:00","1.5","","-0.2","","88","","","","12","","36","","","","97.99","","","","","","NA"
"-80.37","45.03","WESTERN ISLAND (AUT)","6119M51","2021-12-25 00:00","2021","12","25","00:00","1.9","","-0.2","","86","","","","13","","44","","","","97.87","","","","","","NA"
"-80.37","45.03","WESTERN ISLAND (AUT)","6119M51","2021-12-25 01:00","2021","12","25","01:00","2.3","","0.3","","87","","","","13","","43","","","","97.76","","","","","","NA"
"-80.37","45.03","WESTERN ISLAND (AUT)","6119M51","2021-12-25 02:00","2021","12","25","02:00","2.1","","1.2","","93","","","","13","","40","","","","97.70","","","","","","NA"
"-80.37","45.03","WESTERN ISLAND (AUT)","6119M51","2021-12-25 03:00","2021","12","25","03:00","2.4","","1.4","","93","","","","13","","34","","","","97.57","","","","","","NA"
"-80.37","45.03","WESTERN ISLAND (AUT)","6119M51","2021-12-25 04:00","2021","12","25","04:00","1.7","","1.1","","96","","","","10","","10","","","","97.55","","","","","","NA"
"-80.37","45.03","WESTERN ISLAND (AUT)","6119M51","2021-12-25 05:00","2021","12","25","05:00","1.8","","1.3","","97","","","","12","","31","","","","97.50","","","","","","NA"
"-80.37","45.03","WESTERN ISLAND (AUT)","6119M51","2021-12-25 06:00","2021","12","25","06:00","2.1","","1.4","","96","","","","12","","24","","","","97.46","","","","","","NA"
"-80.37","45.03","WESTERN ISLAND (AUT)","6119M51","2021-12-25 07:00","2021","12","25","07:00","2.2","","1.6","","96","","","","11","","17","","","","97.43","","","","","","NA"
"-80.37","45.03","WESTERN ISLAND (AUT)","6119M51","2021-12-25 08:00","2021","12","25","08:00","2.5","","1.8","","95","","","","12","","15","","","","97.42","","","","","","NA"
"-80.37","45.03","WESTERN ISLAND (AUT)","6119M51","2021-12-25 09:00","2021","12","25","09:00","2.7","","2.0","","96","","","","10","","7","","","","97.46","","","","","","NA"
"-80.37","45.03","WESTERN ISLAND (AUT)","6119M51","2021-12-25 10:00","2021","12","25","10:00","2.8","","2.3","","97","","","","9","","4","","","","97.57","","","","","","NA"
"-80.37","45.03","WESTERN ISLAND (AUT)","6119M51","2021-12-25 11:00","2021","12","25","11:00","2.9","","2.6","","98","","","","11","","8","","","","97.60","","","","","","NA"
"-80.37","45.03","WESTERN ISLAND (AUT)","6119M51","2021-12-25 12:00","2021","12","25","12:00","3.1","","2.9","","98","","","","8","","6","","","","97.64","","","","","","NA"
"-80.37","45.03","WESTERN ISLAND (AUT)","6119M51","2021-12-25 13:00","2021","12","25","13:00","3.1","","2.8","","98","","","","5","","6","","","","97.69","","","","","","NA"
"-80.37","45.03","WESTERN ISLAND (AUT)","6119M51","2021-12-25 14:00","2021","12","25","14:00","3.2","","2.9","","98","","","","32","","29","","","","97.77","","","","","","NA"
"-80.37","45.03","WESTERN ISLAND (AUT)","6119M51","2021-12-25 15:00","2021","12","25","15:00","3.9","","2.9","","93","","","","31","","32","","","","97.85","","","","","","NA"
"-80.37","45.03","WESTERN ISLAND (AUT)","6119M51","2021-12-25 16:00","2021","12","25","16:00","3.9","","2.1","","88","","","","33","","34","","","","97.93","","","","","","NA"
"-80.37","45.03","WESTERN ISLAND (AUT)","6119M51","2021-12-25 17:00","2021","12","25","17:00","3.6","","1.7","","88","","","","34","","38","","","","98.06","","","","","","NA"
"-80.37","45.03","WESTERN ISLAND (AUT)","6119M51","2021-12-25 18:00","2021","12","25","18:00","3.6","","1.8","","88","","","","35","","33","","","","98.18","","","","","","NA"
"-80.37","45.03","WESTERN ISLAND (AUT)","6119M51","2021-12-25 19:00","2021","12","25","19:00","3.8","","1.6","","85","","","","35","","26","","","","98.31","","","","","","NA"
"-80.37","45.03","WESTERN ISLAND (AUT)","6119M51","2021-12-25 20:00","2021","12","25","20:00","4.3","","0.4","","76","","","","34","","33","","","","98.40","","","","","","NA"
"-80.37","45.03","WESTERN ISLAND (AUT)","6119M51","2021-12-25 21:00","2021","12","25","21:00","4.1","","-0.7","","71","","","","35","","35","","","","98.48","","","","","","NA"
"-80.37","45.03","WESTERN ISLAND (AUT)","6119M51","2021-12-25 22:00","2021","12","25","22:00","3.9","","1.0","","81","","","","33","","28","","","","98.59","","","","","","NA"
"-80.37","45.03","WESTERN ISLAND (AUT)","6119M51","2021-12-25 23:00","2021","12","25","23:00","3.4","","0.9","","84","","","","33","","27","","","","98.63","","","","","","NA"
"-80.37","45.03","WESTERN ISLAND (AUT)","6119M51","2021-12-26 00:00","2021","12","26","00:00","3.5","","1.0","","84","","","","33","","25","","","","98.70","","","","","","NA"
"-80.37","45.03","WESTERN ISLAND (AUT)","6119M51","2021-12-26 01:00","2021","12","26","01:00","3.3","","0.2","","80","","","","34","","27","","","","98.76","","","","","","NA"
"-80.37","45.03","WESTERN ISLAND (AUT)","6119M51","2021-12-26 02:00","2021","12","26","02:00","2.7","","-1.7","","73","","","","35","","28","","","","98.85","","","","","","NA"
"-80.37","45.03","WESTERN ISLAND (AUT)","6119M51","2021-12-26 03:00","2021","12","26","03:00","2.0","","-2.6","","72","","","","2","","27","","","","98.87","","","","","","NA"
"-80.37","45.03","WESTERN ISLAND (AUT)","6119M51","2021-12-26 04:00","2021","12","26","04:00","1.0","","-3.4","","72","","","","2","","27","","","","98.92","","","","","","NA"
"-80.37","45.03","WESTERN ISLAND (AUT)","6119M51","2021-12-26 05:00","2021","12","26","05:00","0.5","","-2.7","","79","","","","1","","25","","","","99.01","","","","","","NA"
"-80.37","45.03","WESTERN ISLAND (AUT)","6119M51","2021-12-26 06:00","2021","12","26","06:00","0.0","","-2.9","","81","","","","1","","21","","","","99.09","","","","-5","","NA"
"-80.37","45.03","WESTERN ISLAND (AUT)","6119M51","2021-12-26 07:00","2021","12","26","07:00","-0.8","","-4.0","","79","","","","2","","26","","","","99.15","","","","-7","","NA"
"-80.37","45.03","WESTERN ISLAND (AUT)","6119M51","2021-12-26 08:00","2021","12","26","08:00","-1.3","","-4.8","","77","","","","2","","27","","","","99.27","","","","-8","","NA"
"-80.37","45.03","WESTERN ISLAND (AUT)","6119M51","2021-12-26 09:00","2021","12","26","09:00","-1.8","","-5.0","","79","","","","2","","30","","","","99.36","","","","-9","","NA"
"-80.37","45.03","WESTERN ISLAND (AUT)","6119M51","2021-12-26 10:00","2021","12","26","10:00","-2.8","","-5.8","","79","","","","4","","29","","","","99.45","","","","-10","","NA"
"-80.37","45.03","WESTERN ISLAND (AUT)","6119M51","2021-12-26 11:00","2021","12","26","11:00","-3.4","","-7.1","","75","","","","3","","25","","","","99.52","","","","-10","","NA"
"-80.37","45.03","WESTERN ISLAND (AUT)","6119M51","2021-12-26 12:00","2021","12","26","12:00","-3.5","","-7.8","","73","","","","2","","26","","","","99.52","","","","-11","","NA"
"-80.37","45.03","WESTERN ISLAND (AUT)","6119M51","2021-12-26 13:00","2021","12","26","13:00","-3.2","","-7.1","","74","","","","1","","30","","","","99.55","","","","-11","","NA"
"-80.37","45.03","WESTERN ISLAND (AUT)","6119M51","2021-12-26 14:00","2021","12","26","14:00","-2.8","","-7.8","","69","","","","36","","27","","","","99.64","","","","-10","","NA"
"-80.37","45.03","WESTERN ISLAND (AUT)","6119M51","2021-12-26 15:00","2021","12","26","15:00","-2.5","","-6.6","","73","","","","35","","37","","","","99.71","","","","-10","","NA"
"-80.37","45.03","WESTERN ISLAND (AUT)","6119M51","2021-12-26 16:00","2021","12","26","16:00","-3.1","","-8.3","","67","","","","1","","25","","","","99.75","","","","-10","","NA"
"-80.37","45.03","WESTERN ISLAND (AUT)","6119M51","2021-12-26 17:00","2021","12","26","17:00","-3.3","","-8.3","","68","","","","1","","21","","","","99.90","","","","-10","","NA"
"-80.37","45.03","WESTERN ISLAND (AUT)","6119M51","2021-12-26 18:00","2021","12","26","18:00","-3.6","","-8.4","","69","","","","2","","20","","","","100.02","","","","-10","","NA"
"-80.37","45.03","WESTERN ISLAND (AUT)","6119M51","2021-12-26 19:00","2021","12","26","19:00","-4.1","","-8.5","","71","","","","3","","25","","","","100.04","","","","-11","","NA"
"-80.37","45.03","WESTERN ISLAND (AUT)","6119M51","2021-12-26 20:00","2021","12","26","20:00","-4.6","","-8.7","","73","","","","3","","20","","","","100.10","","","","-11","","NA"
"-80.37","45.03","WESTERN ISLAND (AUT)","6119M51","2021-12-26 21:00","2021","12","26","21:00","-5.0","","-9.3","","72","","","","3","","21","","","","100.14","","","","-12","","NA"
"-80.37","45.03","WESTERN ISLAND (AUT)","6119M51","2021-12-26 22:00","2021","12","26","22:00","-5.2","","-8.7","","77","","","","3","","28","","","","100.10","","","","-13","","NA"
"-80.37","45.03","WESTERN ISLAND (AUT)","6119M51","2021-12-26 23:00","2021","12","26","23:00","-5.8","","-9.4","","76","","","","5","","33","","","","100.07","","","","-14","","NA"
"-80.37","45.03","WESTERN ISLAND (AUT)","6119M51","2021-12-27 00:00","2021","12","27","00:00","-6.4","","-11.2","","69","","","","7","","37","","","","100.01","","","","-16","","NA"
"-80.37","45.03","WESTERN ISLAND (AUT)","6119M51","2021-12-27 01:00","2021","12","27","01:00","-6.8","","-10.7","","74","","","","8","","34","","","","99.94","","","","-16","","NA"
"-80.37","45.03","WESTERN ISLAND (AUT)","6119M51","2021-12-27 02:00","2021","12","27","02:00","-6.9","","-10.0","","79","","","","8","","27","","","","99.91","","","","-15","","NA"
"-80.37","45.03","WESTERN ISLAND (AUT)","6119M51","2021-12-27 03:00","2021","12","27","03:00","-6.7","","-9.9","","78","","","","10","","23","","","","99.92","","","","-14","","NA"
"-80.37","45.03","WESTERN ISLAND (AUT)","6119M51","2021-12-27 04:00","2021","12","27","04:00","-6.7","","-9.7","","79","","","","10","","25","","","","99.71","","","","-15","","NA"
"-80.37","45.03","WESTERN ISLAND (AUT)","6119M51","2021-12-27 05:00","2021","12","27","05:00","-6.6","","-9.7","","79","","","","12","","15","","","","99.86","","","","-13","","NA"
"-80.37","45.03","WESTERN ISLAND (AUT)","6119M51","2021-12-27 06:00","2021","12","27","06:00","-6.3","","-9.3","","79","","","","12","","15","","","","99.64","","","","-12","","NA"
"-80.37","45.03","WESTERN ISLAND (AUT)","6119M51","2021-12-27 07:00","2021","12","27","07:00","-6.2","","-9.0","","80","","","","12","","16","","","","99.53","","","","-12","","NA"
"-80.37","45.03","WESTERN ISLAND (AUT)","6119M51","2021-12-27 08:00","2021","12","27","08:00","-6.2","","-9.3","","79","","","","11","","16","","","","99.40","","","","-12","","NA"
"-80.37","45.03","WESTERN ISLAND (AUT)","6119M51","2021-12-27 09:00","2021","12","27","09:00","-5.9","","-8.5","","82","","","","11","","17","","","","99.39","","","","-12","","NA"
"-80.37","45.03","WESTERN ISLAND (AUT)","6119M51","2021-12-27 10:00","2021","12","27","10:00","-6.1","","-8.9","","81","","","","9","","35","","","","99.37","","","","-15","","NA"
"-80.37","45.03","WESTERN ISLAND (AUT)","6119M51","2021-12-27 11:00","2021","12","27","11:00","-5.8","","-7.3","","90","","","","9","","31","","","","99.32","","","","-14","","NA"
"-80.37","45.03","WESTERN ISLAND (AUT)","6119M51","2021-12-27 12:00","2021","12","27","12:00","-5.3","","-6.9","","88","","","","8","","44","","","","99.11","","","","-15","","NA"
"-80.37","45.03","WESTERN ISLAND (AUT)","6119M51","2021-12-27 13:00","2021","12","27","13:00","-4.5","","-6.0","","90","","","","9","","36","","","","98.88","","","","-13","","NA"
"-80.37","45.03","WESTERN ISLAND (AUT)","6119M51","2021-12-27 14:00","2021","12","27","14:00","-3.8","","-5.4","","89","","","","11","","20","","","","98.65","","","","-10","","NA"
"-80.37","45.03","WESTERN ISLAND (AUT)","6119M51","2021-12-27 15:00","2021","12","27","15:00","-2.8","","-4.2","","90","","","","10","","17","","","","98.53","","","","-8","","NA"
"-80.37","45.03","WESTERN ISLAND (AUT)","6119M51","2021-12-27 16:00","2021","12","27","16:00","-2.5","","-4.1","","89","","","","11","","16","","","","98.44","","","","-8","","NA"
"-80.37","45.03","WESTERN ISLAND (AUT)","6119M51","2021-12-27 17:00","2021","12","27","17:00","-2.5","","-3.9","","90","","","","12","","30","","","","98.48","","","","-10","","NA"
"-80.37","45.03","WESTERN ISLAND (AUT)","6119M51","2021-12-27 18:00","2021","12","27","18:00","-2.7","","-4.3","","88","","","","13","","40","","","","98.36","","","","-11","","NA"
"-80.37","45.03","WESTERN ISLAND (AUT)","6119M51","2021-12-27 19:00","2021","12","27","19:00","-2.7","","-4.0","","91","","","","13","","35","","","","98.27","","","","-11","","NA"
"-80.37","45.03","WESTERN ISLAND (AUT)","6119M51","2021-12-27 20:00","2021","12","27","20:00","-2.9","","-4.2","","91","","","","12","","37","","","","98.15","","","","-11","","NA"
"-80.37","45.03","WESTERN ISLAND (AUT)","6119M51","2021-12-27 21:00","2021","12","27","21:00","-2.4","","-3.7","","91","","","","13","","36","","","","98.10","","","","-10","","NA"
"-80.37","45.03","WESTERN ISLAND (AUT)","6119M51","2021-12-27 22:00","2021","12","27","22:00","-2.0","","-3.0","","93","","","","14","","33","","","","98.09","","","","-9","","NA"
"-80.37","45.03","WESTERN ISLAND (AUT)","6119M51","2021-12-27 23:00","2021","12","27","23:00","-1.5","","-2.5","","93","","","","14","","33","","","","98.02","","","","-9","","NA"
"-80.37","45.03","WESTERN ISLAND (AUT)","6119M51","2021-12-28 00:00","2021","12","28","00:00","0.3","","-0.1","","97","","","","16","","22","","","","98.00","","","","","","NA"
"-80.37","45.03","WESTERN ISLAND (AUT)","6119M51","2021-12-28 01:00","2021","12","28","01:00","3.5","","1.5","","87","","","","23","","42","","","","97.95","","","","","","NA"
"-80.37","45.03","WESTERN ISLAND (AUT)","6119M51","2021-12-28 02:00","2021","12","28","02:00","4.0","","-1.7","","67","","","","23","","55","","","","97.92","","","","","","NA"
"-80.37","45.03","WESTERN ISLAND (AUT)","6119M51","2021-12-28 03:00","2021","12","28","03:00","3.9","","-0.9","","71","","","","22","","50","","","","98.04","","","","","","NA"
"-80.37","45.03","WESTERN ISLAND (AUT)","6119M51","2021-12-28 04:00","2021","12","28","04:00","3.7","","-0.8","","72","","","","22","","46","","","","98.07","","","","","","NA"
"-80.37","45.03","WESTERN ISLAND (AUT)","6119M51","2021-12-28 05:00","2021","12","28","05:00","3.1","","-2.6","","66","","","","23","","57","","","","98.14","","","","","","NA"
"-80.37","45.03","WESTERN ISLAND (AUT)","6119M51","2021-12-28 06:00","2021","12","28","06:00","2.4","","-2.7","","69","","","","22","","54","","","","98.31","","","","","","NA"
"-80.37","45.03","WESTERN ISLAND (AUT)","6119M51","2021-12-28 07:00","2021","12","28","07:00","1.4","","-3.4","","71","","","","24","","57","","","","98.46","","","","","","NA"
"-80.37","45.03","WESTERN ISLAND (AUT)","6119M51","2021-12-28 08:00","2021","12","28","08:00","0.8","","-3.6","","72","","","","31","","53","","","","98.56","","","","","","NA"
"-80.37","45.03","WESTERN ISLAND (AUT)","6119M51","2021-12-28 09:00","2021","12","28","09:00","1.1","","-3.3","","72","","","","28","","48","","","","98.65","","","","","","NA"
"-80.37","45.03","WESTERN ISLAND (AUT)","6119M51","2021-12-28 10:00","2021","12","28","10:00","0.9","","-5.5","","62","","","","29","","46","","","","98.74","","","","","","NA"
"-80.37","45.03","WESTERN ISLAND (AUT)","6119M51","2021-12-28 11:00","2021","12","28","11:00","1.4","","-3.4","","71","","","","30","","40","","","","98.75","","","","","","NA"
"-80.37","45.03","WESTERN ISLAND (AUT)","6119M51","2021-12-28 12:00","2021","12","28","12:00","1.8","","-3.8","","66","","","","30","","35","","","","98.73","","","","","","NA"
"-80.37","45.03","WESTERN ISLAND (AUT)","6119M51","2021-12-28 13:00","2021","12","28","13:00","1.8","","-1.9","","76","","","","32","","29","","","","98.56","","","","","","NA"
"-80.37","45.03","WESTERN ISLAND (AUT)","6119M51","2021-12-28 14:00","2021","12","28","14:00","1.2","","-1.6","","82","","","","36","","26","","","","98.58","","","","","","NA"
"-80.37","45.03","WESTERN ISLAND (AUT)","6119M51","2021-12-28 15:00","2021","12","28","15:00","1.8","","-1.9","","77","","","","33","","17","","","","98.66","","","","","","NA"
"-80.37","45.03","WESTERN ISLAND (AUT)","6119M51","2021-12-28 16:00","2021","12","28","16:00","1.3","","-0.3","","90","","","","34","","12","","","","98.80","","","","","","NA"
"-80.37","45.03","WESTERN ISLAND (AUT)","6119M51","2021-12-28 17:00","2021","12","28","17:00","1.8","","-3.0","","70","","","","27","","16","","","","98.79","","","","","","NA"
"-80.37","45.03","WESTERN ISLAND (AUT)","6119M51","2021-12-28 18:00","2021","12","28","18:00","1.6","","-2.5","","74","","","","24","","22","","","","98.74","","","","","","NA"
"-80.37","45.03","WESTERN ISLAND (AUT)","6119M51","2021-12-28 19:00","2021","12","28","19:00","1.4","","-3.3","","71","","","","25","","16","","","","98.72","","","","","","NA"
"-80.37","45.03","WESTERN ISLAND (AUT)","6119M51","2021-12-28 20:00","2021","12","28","20:00","1.5","","-3.3","","71","","","","26","","10","","","","98.73","","","","","","NA"
"-80.37","45.03","WESTERN ISLAND (AUT)","6119M51","2021-12-28 21:00","2021","12","28","21:00","0.7","","-1.5","","85","","","","6","","19","","","","98.70","","","","","","NA"
"-80.37","45.03","WESTERN ISLAND (AUT)","6119M51","2021-12-28 22:00","2021","12","28","22:00","0.6","","-2.0","","83","","","","8","","14","","","","98.69","","","","","","NA"
"-80.37","45.03","WESTERN ISLAND (AUT)","6119M51","2021-12-28 23:00","2021","12","28","23:00","1.1","","-1.8","","81","","","","11","","12","","","","98.67","","","","","","NA"
"-80.37","45.03","WESTERN ISLAND (AUT)","6119M51","2021-12-29 00:00","2021","12","29","00:00","1.2","","-1.9","","80","","","","11","","9","","","","98.66","","","","","","NA"
"-80.37","45.03","WESTERN ISLAND (AUT)","6119M51","2021-12-29 01:00","2021","12","29","01:00","1.2","","-1.6","","81","","","","10","","14","","","","98.63","","","","","","NA"
"-80.37","45.03","WESTERN ISLAND (AUT)","6119M51","2021-12-29 02:00","2021","12","29","02:00","0.9","","-1.3","","85","","","","9","","18","","","","98.62","","","","","","NA"
"-80.37","45.03","WESTERN ISLAND (AUT)","6119M51","2021-12-29 03:00","2021","12","29","03:00","0.5","","-1.8","","84","","","","9","","22","","","","98.65","","","","","","NA"
"-80.37","45.03","WESTERN ISLAND (AUT)","6119M51","2021-12-29 04:00","2021","12","29","04:00","0.7","","-2.4","","80","","","","9","","22","","","","98.66","","","","","","NA"
"-80.37","45.03","WESTERN ISLAND (AUT)","6119M51","2021-12-29 05:00","2021","12","29","05:00","0.7","","-2.0","","82","","","","12","","11","","","","98.70","","","","","","NA"
"-80.37","45.03","WESTERN ISLAND (AUT)","6119M51","2021-12-29 06:00","2021","12","29","06:00","0.9","","-1.6","","84","","","","13","","9","","","","98.67","","","","","","NA"
"-80.37","45.03","WESTERN ISLAND (AUT)","6119M51","2021-12-29 07:00","2021","12","29","07:00","0.9","","-2.4","","79","","","","14","","21","","","","98.77","","","","","","NA"
"-80.37","45.03","WESTERN ISLAND (AUT)","6119M51","2021-12-29 08:00","2021","12","29","08:00","1.0","","-2.4","","78","","","","15","","29","","","","98.78","","","","","","NA"
"-80.37","45.03","WESTERN ISLAND (AUT)","6119M51","2021-12-29 09:00","2021","12","29","09:00","0.9","","-2.6","","77","","","","14","","28","","","","98.79","","","","","","NA"
"-80.37","45.03","WESTERN ISLAND (AUT)","6119M51","2021-12-29 10:00","2021","12","29","10:00","0.7","","-3.0","","76","","","","16","","31","","","","98.84","","","","","","NA"
"-80.37","45.03","WESTERN ISLAND (AUT)","6119M51","2021-12-29 11:00","2021","12","29","11:00","0.9","","-1.9","","81","","","","17","","31","","","","98.88","","","","","","NA"
"-80.37","45.03","WESTERN ISLAND (AUT)","6119M51","2021-12-29 12:00","2021","12","29","12:00","1.3","","-0.2","","90","","","","19","","26","","","","98.80","","","","","","NA"
"-80.37","45.03","WESTERN ISLAND (AUT)","6119M51","2021-12-29 13:00","2021","12","29","13:00","1.6","","0.2","","91","","","","18","","28","","","","98.77","","","","","","NA"
"-80.37","45.03","WESTERN ISLAND (AUT)","6119M51","2021-12-29 14:00","2021","12","29","14:00","2.2","","0.9","","91","","","","18","","30","","","","98.70","","","","","","NA"
"-80.37","45.03","WESTERN ISLAND (AUT)","6119M51","2021-12-29 15:00","2021","12","29","15:00","2.6","","1.1","","90","","","","18","","31","","","","98.71","","","","","","NA"
"-80.37","45.03","WESTERN ISLAND (AUT)","6119M51","2021-12-29 16:00","2021","12","29","16:00","2.2","","1.2","","93","","","","18","","35","","","","98.75","","","","","","NA"
"-80.37","45.03","WESTERN ISLAND (AUT)","6119M51","2021-12-29 17:00","2021","12","29","17:00","3.7","","2.4","","91","","","","20","","32","","","","98.75","","","","","","NA"
"-80.37","45.03","WESTERN ISLAND (AUT)","6119M51","2021-12-29 18:00","2021","12","29","18:00","3.3","","1.3","","87","","","","24","","37","","","","98.76","","","","","","NA"
"-80.37","45.03","WESTERN ISLAND (AUT)","6119M51","2021-12-29 19:00","2021","12","29","19:00","3.2","","1.4","","88","","","","24","","30","","","","98.81","","","","","","NA"
"-80.37","45.03","WESTERN ISLAND (AUT)","6119M51","2021-12-29 20:00","2021","12","29","20:00","3.4","","1.0","","84","","","","27","","33","","","","98.82","","","","","","NA"
"-80.37","45.03","WESTERN ISLAND (AUT)","6119M51","2021-12-29 21:00","2021","12","29","21:00","3.2","","1.2","","87","","","","28","","25","","","","98.85","","","","","","NA"
"-80.37","45.03","WESTERN ISLAND (AUT)","6119M51","2021-12-29 22:00","2021","12","29","22:00","3.5","","-0.4","","76","","","","29","","28","","","","98.86","","","","","","NA"
"-80.37","45.03","WESTERN ISLAND (AUT)","6119M51","2021-12-29 23:00","2021","12","29","23:00","2.8","","-3.1","","65","","","","30","","40","","","","98.90","","","","","","NA"
"-80.37","45.03","WESTERN ISLAND (AUT)","6119M51","2021-12-30 00:00","2021","12","30","00:00","2.6","","-2.1","","71","","","","30","","35","","","","98.92","","","","","","NA"
"-80.37","45.03","WESTERN ISLAND (AUT)","6119M51","2021-12-30 01:00","2021","12","30","01:00","1.7","","-1.9","","77","","","","32","","28","","","","98.92","","","","","","NA"
"-80.37","45.03","WESTERN ISLAND (AUT)","6119M51","2021-12-30 02:00","2021","12","30","02:00","1.2","","-2.7","","75","","","","32","","33","","","","98.96","","","","","","NA"
"-80.37","45.03","WESTERN ISLAND (AUT)","6119M51","2021-12-30 03:00","2021","12","30","03:00","0.7","","-3.3","","75","","","","32","","34","","","","99.03","","","","","","NA"
"-80.37","45.03","WESTERN ISLAND (AUT)","6119M51","2021-12-30 04:00","2021","12","30","04:00","0.4","","-3.8","","73","","","","33","","30","","","","99.02","","","","","","NA"
"-80.37","45.03","WESTERN ISLAND (AUT)","6119M51","2021-12-30 05:00","2021","12","30","05:00","-0.2","","-5.5","","67","","","","33","","23","","","","99.01","","","","-6","","NA"
"-80.37","45.03","WESTERN ISLAND (AUT)","6119M51","2021-12-30 06:00","2021","12","30","06:00","-0.2","","-5.0","","70","","","","33","","22","","","","99.09","","","","-6","","NA"
"-80.37","45.03","WESTERN ISLAND (AUT)","6119M51","2021-12-30 07:00","2021","12","30","07:00","-1.0","","-4.4","","78","","","","1","","20","","","","99.09","","","","-7","","NA"
"-80.37","45.03","WESTERN ISLAND (AUT)","6119M51","2021-12-30 08:00","2021","12","30","08:00","-1.1","","-4.8","","76","","","","3","","21","","","","99.20","","","","-7","","NA"
"-80.37","45.03","WESTERN ISLAND (AUT)","6119M51","2021-12-30 09:00","2021","12","30","09:00","-1.5","","-5.7","","73","","","","3","","21","","","","99.26","","","","-7","","NA"
"-80.37","45.03","WESTERN ISLAND (AUT)","6119M51","2021-12-30 10:00","2021","12","30","10:00","-1.8","","-5.9","","73","","","","5","","15","","","","99.25","","","","-7","","NA"
"-80.37","45.03","WESTERN ISLAND (AUT)","6119M51","2021-12-30 11:00","2021","12","30","11:00","-2.1","","-6.2","","74","","","","5","","14","","","","99.19","","","","-7","","NA"
"-80.37","45.03","WESTERN ISLAND (AUT)","6119M51","2021-12-30 12:00","2021","12","30","12:00","-2.2","","-5.9","","76","","","","4","","10","","","","99.15","","","","-6","","NA"
"-80.37","45.03","WESTERN ISLAND (AUT)","6119M51","2021-12-30 13:00","2021","12","30","13:00","-1.9","","-6.0","","73","","","","2","","16","","","","99.02","","","","-7","","NA"
"-80.37","45.03","WESTERN ISLAND (AUT)","6119M51","2021-12-30 14:00","2021","12","30","14:00","-2.1","","-5.6","","77","","","","36","","14","","","","99.05","","","","-7","","NA"
"-80.37","45.03","WESTERN ISLAND (AUT)","6119M51","2021-12-30 15:00","2021","12","30","15:00","-1.6","","-5.4","","75","","","","34","","13","","","","99.11","","","","-6","","NA"
"-80.37","45.03","WESTERN ISLAND (AUT)","6119M51","2021-12-30 16:00","2021","12","30","16:00","-1.9","","-7.1","","67","","","","36","","12","","","","99.06","","","","-6","","NA"
"-80.37","45.03","WESTERN ISLAND (AUT)","6119M51","2021-12-30 17:00","2021","12","30","17:00","-1.9","","-6.8","","69","","","","6","","7","","","","99.04","","","","-5","","NA"
"-80.37","45.03","WESTERN ISLAND (AUT)","6119M51","2021-12-30 18:00","2021","12","30","18:00","-1.8","","-6.5","","71","","","","0","","1","","","","99.06","","","","-2","","NA"
"-80.37","45.03","WESTERN ISLAND (AUT)","6119M51","2021-12-30 19:00","2021","12","30","19:00","-1.4","","-6.7","","67","","","","32","","4","","","","99.07","","","","-3","","NA"
"-80.37","45.03","WESTERN ISLAND (AUT)","6119M51","2021-12-30 20:00","2021","12","30","20:00","-1.1","","-5.7","","71","","","","12","","1","","","","99.06","","","","-1","","NA"
"-80.37","45.03","WESTERN ISLAND (AUT)","6119M51","2021-12-30 21:00","2021","12","30","21:00","-0.9","","-5.3","","72","","","","15","","3","","","","98.99","","","","-2","","NA"
"-80.37","45.03","WESTERN ISLAND (AUT)","6119M51","2021-12-30 22:00","2021","12","30","22:00","-0.5","","-4.9","","72","","","","18","","9","","","","99.02","","","","-4","","NA"
"-80.37","45.03","WESTERN ISLAND (AUT)","6119M51","2021-12-30 23:00","2021","12","30","23:00","0.2","","-3.6","","76","","","","19","","15","","","","98.95","","","","","","NA"
"-80.37","45.03","WESTERN ISLAND (AUT)","6119M51","2021-12-31 00:00","2021","12","31","00:00","0.2","","-2.5","","82","","","","18","","24","","","","98.91","","","","","","NA"
"-80.37","45.03","WESTERN ISLAND (AUT)","6119M51","2021-12-31 01:00","2021","12","31","01:00","-0.1","","-3.0","","81","","","","17","","23","","","","98.89","","","","-6","","NA"
"-80.37","45.03","WESTERN ISLAND (AUT)","6119M51","2021-12-31 02:00","2021","12","31","02:00","0.1","","-2.3","","84","","","","15","","16","","","","98.89","","","","","","NA"
"-80.37","45.03","WESTERN ISLAND (AUT)","6119M51","2021-12-31 03:00","2021","12","31","03:00","0.5","","-1.4","","87","","","","15","","22","","","","98.84","","","","","","NA"
"-80.37","45.03","WESTERN ISLAND (AUT)","6119M51","2021-12-31 04:00","2021","12","31","04:00","0.7","","-1.4","","86","","","","16","","25","","","","98.74","","","","","","NA"
"-80.37","45.03","WESTERN ISLAND (AUT)","6119M51","2021-12-31 05:00","2021","12","31","05:00","0.6","","-1.6","","85","","","","16","","20","","","","98.72","","","","","","NA"
"-80.37","45.03","WESTERN ISLAND (AUT)","6119M51","2021-12-31 06:00","2021","12","31","06:00","0.9","","-1.1","","86","","","","16","","22","","","","98.70","","","","","","NA"
"-80.37","45.03","WESTERN ISLAND (AUT)","6119M51","2021-12-31 07:00","2021","12","31","07:00","1.8","","0.5","","91","","","","17","","29","","","","98.66","","","","","","NA"
"-80.37","45.03","WESTERN ISLAND (AUT)","6119M51","2021-12-31 08:00","2021","12","31","08:00","2.0","","1.0","","93","","","","18","","36","","","","98.65","","","","","","NA"
"-80.37","45.03","WESTERN ISLAND (AUT)","6119M51","2021-12-31 09:00","2021","12","31","09:00","3.4","","1.5","","88","","","","20","","34","","","","98.63","","","","","","NA"
"-80.37","45.03","WESTERN ISLAND (AUT)","6119M51","2021-12-31 10:00","2021","12","31","10:00","3.7","","1.9","","88","","","","22","","32","","","","98.63","","","","","","NA"
"-80.37","45.03","WESTERN ISLAND (AUT)","6119M51","2021-12-31 11:00","2021","12","31","11:00","3.7","","1.8","","88","","","","23","","32","","","","98.63","","","","","","NA"
"-80.37","45.03","WESTERN ISLAND (AUT)","6119M51","2021-12-31 12:00","2021","12","31","12:00","3.9","","1.7","","86","","","","24","","30","","","","98.58","","","","","","NA"
"-80.37","45.03","WESTERN ISLAND (AUT)","6119M51","2021-12-31 13:00","2021","12","31","13:00","4.0","","1.7","","85","","","","25","","33","","","","98.57","","","","","","NA"
"-80.37","45.03","WESTERN ISLAND (AUT)","6119M51","2021-12-31 14:00","2021","12","31","14:00","4.3","","1.3","","81","","","","25","","22","","","","98.53","","","","","","NA"
"-80.37","45.03","WESTERN ISLAND (AUT)","6119M51","2021-12-31 15:00","2021","12","31","15:00","4.4","","1.5","","81","","","","24","","25","","","","98.58","","","","","","NA"
"-80.37","45.03","WESTERN ISLAND (AUT)","6119M51","2021-12-31 16:00","2021","12","31","16:00","4.6","","0.7","","76","","","","25","","24","","","","98.62","","","","","","NA"
"-80.37","45.03","WESTERN ISLAND (AUT)","6119M51","2021-12-31 17:00","2021","12","31","17:00","4.3","","0.7","","77","","","","24","","26","","","","98.64","","","","","","NA"
"-80.37","45.03","WESTERN ISLAND (AUT)","6119M51","2021-12-31 18:00","2021","12","31","18:00","4.1","","0.8","","79","","","","25","","23","","","","98.67","","","","","","NA"
"-80.37","45.03","WESTERN ISLAND (AUT)","6119M51","2021-12-31 19:00","2021","12","31","19:00","4.1","","0.3","","76","","","","22","","20","","","","98.58","","","","","","NA"
"-80.37","45.03","WESTERN ISLAND (AUT)","6119M51","2021-12-31 20:00","2021","12","31","20:00","4.0","","-1.5","","67","","","","19","","16","","","","98.57","","","","","","NA"
"-80.37","45.03","WESTERN ISLAND (AUT)","6119M51","2021-12-31 21:00","2021","12","31","21:00","4.1","","-0.8","","71","","","","21","","21","","","","98.59","","","","","","NA"
"-80.37","45.03","WESTERN ISLAND (AUT)","6119M51","2021-12-31 22:00","2021","12","31","22:00","4.1","","-0.6","","72","","","","26","","19","","","","98.59","","","","","","NA"
"-80.37","45.03","WESTERN ISLAND (AUT)","6119M51","2021-12-31 23:00","2021","12","31","23:00","3.8","","-0.4","","74","","","","25","","19","","","","98.55","","","","","","NA"
