"Longitude (x)","Latitude (y)","Station Name","Climate ID","Date/Time (LST)","Year","Month","Day","Time (LST)","Temp (°C)","Temp Flag","Dew Point Temp (°C)","Dew Point Temp Flag","Rel Hum (%)","Rel Hum Flag","Precip. Amount (mm)","Precip. Amount Flag","Wind Dir (10s deg)","Wind Dir Flag","Wind Spd (km/h)","Wind Spd Flag","Visibility (km)","Visibility Flag","Stn Press (kPa)","Stn Press Flag","Hmdx","Hmdx Flag","Wind Chill","Wind Chill Flag","Weather"
"-63.51","44.88","HALIFAX STANFIELD INT'L A","8202251","2021-02-01 00:00","2021","02","01","00:00","-3.7","","-4.8","","92","","","","34","","18","","24.1","","100.65","","","","-10","","NA"
"-63.51","44.88","HALIFAX STANFIELD INT'L A","8202251","2021-02-01 01:00","2021","02","01","01:00","-3.8","","-4.9","","92","","","","36","","13","","24.1","","100.67","","","","-9","","NA"
"-63.51","44.88","HALIFAX STANFIELD INT'L A","8202251","2021-02-01 02:00","2021","02","01","02:00","-4.0","","-5.1","","92","","","","1","","19","","24.1","","100.70","","","","-10","","Cloudy"
"-63.51","44.88","HALIFAX STANFIELD INT'L A","8202251","2021-02-01 03:00","2021","02","01","03:00","-4.1","","-5.1","","93","","","","35","","16","","24.1","","100.74","","","","-10","","NA"
"-63.51","44.88","HALIFAX STANFIELD INT'L A","8202251","2021-02-01 04:00","2021","02","01","04:00","-4.2","","-5.0","","94","","","","36","","11","","24.1","","100.76","","","","-9","","NA"
"-63.51","44.88","HALIFAX STANFIELD INT'L A","8202251","2021-02-01 05:00","2021","02","01","05:00","-4.3","","-5.4","","92","","","","1","","13","","24.1","","100.76","","","","-9","","Cloudy"
"-63.51","44.88","HALIFAX STANFIELD INT'L A","8202251","2021-02-01 06:00","2021","02","01","06:00","-4.5","","-5.2","","95","","","","36","","12","","24.1","","100.79","","","","-9","","NA"
"-63.51","44.88","HALIFAX STANFIELD INT'L A","8202251","2021-02-01 07:00","2021","02","01","07:00","-4.5","","-5.5","","93","","","","2","","15","","24.1","","100.85","","","","-10","","NA"
"-63.51","44.88","HALIFAX STANFIELD INT'L A","8202251","2021-02-01 08:00","2021","02","01","08:00","-4.5","","-5.9","","90","","","","2","","15","","24.1","","100.90","","","","-10","","Cloudy"
"-63.51","44.88","HALIFAX STANFIELD INT'L A","8202251","2021-02-01 09:00","2021","02","01","09:00","-4.1","","-5.6","","89","","","","2","","12","","24.1","","100.91","","","","-9","","NA"
"-63.51","44.88","HALIFAX STANFIELD INT'L A","8202251","2021-02-01 10:00","2021","02","01","10:00","-3.6","","-5.8","","85","","","","7","","13","","24.1","","100.97","","","","-8","","NA"
"-63.51","44.88","HALIFAX STANFIELD INT'L A","8202251","2021-02-01 11:00","2021","02","01","11:00","-3.2","","-5.8","","83","","","","1","","12","","24.1","","100.99","","","","-8","","Cloudy"
"-63.51","44.88","HALIFAX STANFIELD INT'L A","8202251","2021-02-01 12:00","2021","02","01","12:00","-2.2","","-6.0","","75","","","","4","","13","","24.1","","100.92","","","","-7","","NA"
"-63.51","44.88","HALIFAX STANFIELD INT'L A","8202251","2021-02-01 13:00","2021","02","01","13:00","-1.8","","-5.8","","74","","","","2","","12","","24.1","","100.95","","","","-6","","NA"
"-63.51","44.88","HALIFAX STANFIELD INT'L A","8202251","2021-02-01 14:00","2021","02","01","14:00","-1.0","","-5.7","","70","","","","8","","4","","24.1","","100.93","","","","-2","","Mostly Cloudy"
"-63.51","44.88","HALIFAX STANFIELD INT'L A","8202251","2021-02-01 15:00","2021","02","01","15:00","-0.8","","-5.7","","70","","","","1","","14","","24.1","","100.85","","","","-5","","NA"
"-63.51","44.88","HALIFAX STANFIELD INT'L A","8202251","2021-02-01 16:00","2021","02","01","16:00","-1.0","","-5.4","","72","","","","1","","13","","24.1","","100.88","","","","-5","","NA"
"-63.51","44.88","HALIFAX STANFIELD INT'L A","8202251","2021-02-01 17:00","2021","02","01","17:00","-1.9","","-5.6","","76","","","","3","","14","","24.1","","100.86","","","","-7","","Mostly Cloudy"
"-63.51","44.88","HALIFAX STANFIELD INT'L A","8202251","2021-02-01 18:00","2021","02","01","18:00","-3.0","","-6.0","","80","","","","8","","5","","24.1","","100.91","","","","-5","","NA"
"-63.51","44.88","HALIFAX STANFIELD INT'L A","8202251","2021-02-01 19:00","2021","02","01","19:00","-3.4","","-6.2","","81","","","","7","","11","","24.1","","100.92","","","","-8","","NA"
"-63.51","44.88","HALIFAX STANFIELD INT'L A","8202251","2021-02-01 20:00","2021","02","01","20:00","-3.3","","-6.1","","81","","","","7","","14","","24.1","","100.92","","","","-8","","Cloudy"
"-63.51","44.88","HALIFAX STANFIELD INT'L A","8202251","2021-02-01 21:00","2021","02","01","21:00","-3.7","","-6.2","","83","","","","6","","20","","24.1","","100.83","","","","-10","","NA"
"-63.51","44.88","HALIFAX STANFIELD INT'L A","8202251","2021-02-01 22:00","2021","02","01","22:00","-4.1","","-6.3","","85","","","","7","","20","","24.1","","100.79","","","","-10","","NA"
"-63.51","44.88","HALIFAX STANFIELD INT'L A","8202251","2021-02-01 23:00","2021","02","01","23:00","-4.3","","-6.6","","84","","","","8","","20","","24.1","","100.76","","","","-11","","Cloudy"
"-63.51","44.88","HALIFAX STANFIELD INT'L A","8202251","2021-02-02 00:00","2021","02","02","00:00","-4.3","","-6.5","","85","","","","7","","14","","24.1","","100.74","","","","-9","","NA"
"-63.51","44.88","HALIFAX STANFIELD INT'L A","8202251","2021-02-02 01:00","2021","02","02","01:00","-4.1","","-6.2","","86","","","","7","","21","","24.1","","100.59","","","","-11","","NA"
"-63.51","44.88","HALIFAX STANFIELD INT'L A","8202251","2021-02-02 02:00","2021","02","02","02:00","-3.8","","-5.7","","87","","","","7","","18","","24.1","","100.54","","","","-10","","Cloudy"
"-63.51","44.88","HALIFAX STANFIELD INT'L A","8202251","2021-02-02 03:00","2021","02","02","03:00","-3.1","","-4.7","","89","","","","9","","20","","24.1","","100.46","","","","-9","","NA"
"-63.51","44.88","HALIFAX STANFIELD INT'L A","8202251","2021-02-02 04:00","2021","02","02","04:00","-2.6","","-3.9","","91","","","","9","","20","","24.1","","100.36","","","","-9","","Snow"
"-63.51","44.88","HALIFAX STANFIELD INT'L A","8202251","2021-02-02 05:00","2021","02","02","05:00"
"-63.51","44.88","HALIFAX STANFIELD INT'L A","8202251","2021-02-02 06:00","2021","02","02","06:00","-1.3","","-1.6","","98","","","","8","","23","","4.8","","100.11","","","","-7","","Snow,Blowing Snow"
"-63.51","44.88","HALIFAX STANFIELD INT'L A","8202251","2021-02-02 07:00","2021","02","02","07:00","-1.4","","-1.4","","100","","","","8","","27","","1.6","","100.08","","","","-8","","Snow,Blowing Snow"
"-63.51","44.88","HALIFAX STANFIELD INT'L A","8202251","2021-02-02 08:00","2021","02","02","08:00","-1.2","","-1.2","","100","","","","6","","35","","0.8","","99.88","","","","-9","","Moderate Snow,Blowing Snow"
"-63.51","44.88","HALIFAX STANFIELD INT'L A","8202251","2021-02-02 09:00","2021","02","02","09:00","-0.9","","-0.9","","100","","","","8","","34","","0.8","","99.76","","","","-8","","Moderate Snow,Blowing Snow"
"-63.51","44.88","HALIFAX STANFIELD INT'L A","8202251","2021-02-02 10:00","2021","02","02","10:00","-0.2","","-0.2","","100","","","","9","","40","","0.8","","99.55","","","","-8","","Moderate Snow,Blowing Snow"
"-63.51","44.88","HALIFAX STANFIELD INT'L A","8202251","2021-02-02 11:00","2021","02","02","11:00","0.6","","0.6","","100","","","","9","","43","","6.4","","99.45","","","","","","Rain,Ice Pellets"
"-63.51","44.88","HALIFAX STANFIELD INT'L A","8202251","2021-02-02 12:00","2021","02","02","12:00","1.1","","1.1","","100","","","","9","","55","","8.1","","99.13","","","","","","Rain"
"-63.51","44.88","HALIFAX STANFIELD INT'L A","8202251","2021-02-02 13:00","2021","02","02","13:00","1.9","","1.9","","100","","","","10","","62","","9.7","","98.86","","","","","","Rain"
"-63.51","44.88","HALIFAX STANFIELD INT'L A","8202251","2021-02-02 14:00","2021","02","02","14:00","2.4","","2.4","","100","","","","10","","55","","9.7","","98.61","","","","","","Rain"
"-63.51","44.88","HALIFAX STANFIELD INT'L A","8202251","2021-02-02 15:00","2021","02","02","15:00","2.5","","2.5","","100","","","","10","","54","","6.4","","98.44","","","","","","Rain"
"-63.51","44.88","HALIFAX STANFIELD INT'L A","8202251","2021-02-02 16:00","2021","02","02","16:00","2.9","","2.9","","100","","","","10","","64","","2.4","","98.26","","","","","","Rain,Fog"
"-63.51","44.88","HALIFAX STANFIELD INT'L A","8202251","2021-02-02 17:00","2021","02","02","17:00","4.3","","4.3","","100","","","","11","","46","","2.4","","98.15","","","","","","Rain,Fog"
"-63.51","44.88","HALIFAX STANFIELD INT'L A","8202251","2021-02-02 18:00","2021","02","02","18:00","4.8","","4.8","","100","","","","11","","49","","2.4","","98.06","","","","","","Rain,Fog"
"-63.51","44.88","HALIFAX STANFIELD INT'L A","8202251","2021-02-02 19:00","2021","02","02","19:00","5.1","","5.1","","100","","","","12","","40","","2.4","","97.97","","","","","","Moderate Rain,Fog"
"-63.51","44.88","HALIFAX STANFIELD INT'L A","8202251","2021-02-02 20:00","2021","02","02","20:00","6.9","","6.9","","100","","","","13","","32","","2.4","","97.86","","","","","","Moderate Rain,Fog"
"-63.51","44.88","HALIFAX STANFIELD INT'L A","8202251","2021-02-02 21:00","2021","02","02","21:00","8.3","","8.3","","100","","","","14","","30","","0.2","","97.76","","","","","","Drizzle,Fog"
"-63.51","44.88","HALIFAX STANFIELD INT'L A","8202251","2021-02-02 22:00","2021","02","02","22:00","9.4","","9.4","","100","","","","14","","34","","0.2","","97.67","","","","","","Fog"
"-63.51","44.88","HALIFAX STANFIELD INT'L A","8202251","2021-02-02 23:00","2021","02","02","23:00","9.6","","9.6","","100","","","","14","","28","","0.2","","97.60","","","","","","Fog"
"-63.51","44.88","HALIFAX STANFIELD INT'L A","8202251","2021-02-03 00:00","2021","02","03","00:00","10.6","","10.6","","100","","","","16","","19","","0.2","","97.56","","","","","","Fog"
"-63.51","44.88","HALIFAX STANFIELD INT'L A","8202251","2021-02-03 01:00","2021","02","03","01:00","10.7","","10.7","","100","","","","15","","26","","3.2","","97.47","","","","","","Heavy Rain Showers,Fog"
"-63.51","44.88","HALIFAX STANFIELD INT'L A","8202251","2021-02-03 02:00","2021","02","03","02:00","9.3","","9.3","","100","","","","14","","16","","3.2","","97.37","","","","","","Rain Showers,Fog"
"-63.51","44.88","HALIFAX STANFIELD INT'L A","8202251","2021-02-03 03:00","2021","02","03","03:00","7.9","","7.9","","100","","","","12","","16","","0.4","","97.26","","","","","","Rain Showers,Fog"
"-63.51","44.88","HALIFAX STANFIELD INT'L A","8202251","2021-02-03 04:00","2021","02","03","04:00","8.5","","8.5","","100","","","","14","","14","","1.6","","97.24","","","","","","Rain Showers,Fog"
"-63.51","44.88","HALIFAX STANFIELD INT'L A","8202251","2021-02-03 05:00","2021","02","03","05:00","8.3","","8.3","","100","","","","12","","16","","0.8","","97.04","","","","","","Rain Showers,Fog"
"-63.51","44.88","HALIFAX STANFIELD INT'L A","8202251","2021-02-03 06:00","2021","02","03","06:00","8.8","","8.8","","100","","","","15","","18","","0.4","","97.09","","","","","","Rain Showers,Fog"
"-63.51","44.88","HALIFAX STANFIELD INT'L A","8202251","2021-02-03 07:00","2021","02","03","07:00","8.6","","8.6","","100","","","","16","","14","","0.8","","97.04","","","","","","Rain Showers,Fog"
"-63.51","44.88","HALIFAX STANFIELD INT'L A","8202251","2021-02-03 08:00","2021","02","03","08:00","8.9","","8.9","","100","","","","19","","24","","0.8","","97.13","","","","","","Rain Showers,Fog"
"-63.51","44.88","HALIFAX STANFIELD INT'L A","8202251","2021-02-03 09:00","2021","02","03","09:00","8.5","","8.5","","100","","","","19","","17","","0.6","","97.20","","","","","","Fog"
"-63.51","44.88","HALIFAX STANFIELD INT'L A","8202251","2021-02-03 10:00","2021","02","03","10:00","8.5","","8.5","","100","","","","20","","18","","0.8","","97.28","","","","","","Fog"
"-63.51","44.88","HALIFAX STANFIELD INT'L A","8202251","2021-02-03 11:00","2021","02","03","11:00","8.9","","8.9","","100","","","","19","","22","","19.3","","97.37","","","","","","Mostly Cloudy"
"-63.51","44.88","HALIFAX STANFIELD INT'L A","8202251","2021-02-03 12:00","2021","02","03","12:00","10.7","","8.7","","87","","","","20","","27","","24.1","","97.37","","","","","","NA"
"-63.51","44.88","HALIFAX STANFIELD INT'L A","8202251","2021-02-03 13:00","2021","02","03","13:00","9.0","","7.0","","87","","","","21","","39","","24.1","","97.38","","","","","","NA"
"-63.51","44.88","HALIFAX STANFIELD INT'L A","8202251","2021-02-03 14:00","2021","02","03","14:00","7.1","","5.9","","92","","","","21","","27","","24.1","","97.41","","","","","","Mostly Cloudy"
"-63.51","44.88","HALIFAX STANFIELD INT'L A","8202251","2021-02-03 15:00","2021","02","03","15:00","7.7","","5.7","","87","","","","19","","23","","24.1","","97.49","","","","","","NA"
"-63.51","44.88","HALIFAX STANFIELD INT'L A","8202251","2021-02-03 16:00","2021","02","03","16:00","7.5","","5.1","","85","","","","19","","18","","24.1","","97.59","","","","","","NA"
"-63.51","44.88","HALIFAX STANFIELD INT'L A","8202251","2021-02-03 17:00","2021","02","03","17:00","6.1","","4.6","","90","","","","17","","17","","24.1","","97.68","","","","","","Mostly Cloudy"
"-63.51","44.88","HALIFAX STANFIELD INT'L A","8202251","2021-02-03 18:00","2021","02","03","18:00","4.5","","4.2","","98","","","","17","","13","","24.1","","97.66","","","","","","NA"
"-63.51","44.88","HALIFAX STANFIELD INT'L A","8202251","2021-02-03 19:00","2021","02","03","19:00","2.4","","2.4","","100","","","","15","","21","","0.8","","97.74","","","","","","Fog"
"-63.51","44.88","HALIFAX STANFIELD INT'L A","8202251","2021-02-03 20:00","2021","02","03","20:00","2.4","","2.4","","100","","","","16","","18","","0.4","","97.82","","","","","","Fog"
"-63.51","44.88","HALIFAX STANFIELD INT'L A","8202251","2021-02-03 21:00","2021","02","03","21:00","2.9","","2.9","","100","","","","15","","14","","1.2","","97.84","","","","","","Rain Showers,Fog"
"-63.51","44.88","HALIFAX STANFIELD INT'L A","8202251","2021-02-03 22:00","2021","02","03","22:00","2.3","","2.3","","100","","","","28","","4","","0.6","","97.82","","","","","","Rain Showers,Fog"
"-63.51","44.88","HALIFAX STANFIELD INT'L A","8202251","2021-02-03 23:00","2021","02","03","23:00","3.4","","3.4","","100","","","","36","","2","","2.4","","97.87","","","","","","Rain Showers,Fog"
"-63.51","44.88","HALIFAX STANFIELD INT'L A","8202251","2021-02-04 00:00","2021","02","04","00:00","3.7","","3.7","","100","","","","16","","9","","19.3","","97.87","","","","","","Rain Showers"
"-63.51","44.88","HALIFAX STANFIELD INT'L A","8202251","2021-02-04 01:00","2021","02","04","01:00","3.1","","3.1","","100","","","","27","","7","","3.2","","97.95","","","","","","Fog"
"-63.51","44.88","HALIFAX STANFIELD INT'L A","8202251","2021-02-04 02:00","2021","02","04","02:00","2.9","","2.9","","100","","","","21","","12","","0.6","","98.06","","","","","","Fog"
"-63.51","44.88","HALIFAX STANFIELD INT'L A","8202251","2021-02-04 03:00","2021","02","04","03:00","3.0","","3.0","","100","","","","23","","14","","2.0","","98.12","","","","","","Fog"
"-63.51","44.88","HALIFAX STANFIELD INT'L A","8202251","2021-02-04 04:00","2021","02","04","04:00","2.4","","2.4","","100","","","","26","","19","","4.8","","98.12","","","","","","Fog"
"-63.51","44.88","HALIFAX STANFIELD INT'L A","8202251","2021-02-04 05:00","2021","02","04","05:00","1.8","","1.8","","100","","","","25","","12","","12.9","","98.23","","","","","","Mostly Cloudy"
"-63.51","44.88","HALIFAX STANFIELD INT'L A","8202251","2021-02-04 06:00","2021","02","04","06:00","0.8","","0.8","","100","","","","23","","8","","4.0","","98.28","","","","","","Fog"
"-63.51","44.88","HALIFAX STANFIELD INT'L A","8202251","2021-02-04 07:00","2021","02","04","07:00","0.5","","0.5","","100","","","","24","","8","","4.0","","98.32","","","","","","Fog"
"-63.51","44.88","HALIFAX STANFIELD INT'L A","8202251","2021-02-04 08:00","2021","02","04","08:00","0.3","","0.3","","100","","","","23","","8","","2.0","","98.44","","","","","","Fog"
"-63.51","44.88","HALIFAX STANFIELD INT'L A","8202251","2021-02-04 09:00","2021","02","04","09:00","0.3","","0.3","","100","","","","23","","7","","2.4","","98.50","","","","","","Fog"
"-63.51","44.88","HALIFAX STANFIELD INT'L A","8202251","2021-02-04 10:00","2021","02","04","10:00","0.7","","0.7","","100","","","","35","","4","","4.0","","98.49","","","","","","Fog"
"-63.51","44.88","HALIFAX STANFIELD INT'L A","8202251","2021-02-04 11:00","2021","02","04","11:00","1.5","","-1.0","","83","","","","34","","7","","24.1","","98.47","","","","","","Cloudy"
"-63.51","44.88","HALIFAX STANFIELD INT'L A","8202251","2021-02-04 12:00","2021","02","04","12:00","1.9","","-0.5","","84","","","","36","","3","","24.1","","98.49","","","","","","NA"
"-63.51","44.88","HALIFAX STANFIELD INT'L A","8202251","2021-02-04 13:00","2021","02","04","13:00","2.1","","-0.1","","85","","","","36","","8","","24.1","","98.42","","","","","","NA"
"-63.51","44.88","HALIFAX STANFIELD INT'L A","8202251","2021-02-04 14:00","2021","02","04","14:00","2.2","","2.1","","99","","","","36","","2","","24.1","","98.42","","","","","","Cloudy"
"-63.51","44.88","HALIFAX STANFIELD INT'L A","8202251","2021-02-04 15:00","2021","02","04","15:00","2.4","","2.2","","98","","","","36","","7","","24.1","","98.42","","","","","","Rain"
"-63.51","44.88","HALIFAX STANFIELD INT'L A","8202251","2021-02-04 16:00","2021","02","04","16:00","2.1","","2.1","","100","","","","4","","7","","24.1","","98.44","","","","","","Rain"
"-63.51","44.88","HALIFAX STANFIELD INT'L A","8202251","2021-02-04 17:00","2021","02","04","17:00","1.8","","1.8","","100","","","","1","","7","","24.1","","98.48","","","","","","Cloudy"
"-63.51","44.88","HALIFAX STANFIELD INT'L A","8202251","2021-02-04 18:00","2021","02","04","18:00","1.6","","1.6","","100","","","","5","","4","","4.8","","98.53","","","","","","Drizzle,Fog"
"-63.51","44.88","HALIFAX STANFIELD INT'L A","8202251","2021-02-04 19:00","2021","02","04","19:00","1.5","","1.5","","100","","","","36","","3","","24.1","","98.53","","","","","","NA"
"-63.51","44.88","HALIFAX STANFIELD INT'L A","8202251","2021-02-04 20:00","2021","02","04","20:00","1.4","","1.4","","100","","","","32","","9","","16.1","","98.59","","","","","","Cloudy"
"-63.51","44.88","HALIFAX STANFIELD INT'L A","8202251","2021-02-04 21:00","2021","02","04","21:00","0.9","","0.9","","100","","","","36","","6","","2.4","","98.62","","","","","","Fog"
"-63.51","44.88","HALIFAX STANFIELD INT'L A","8202251","2021-02-04 22:00","2021","02","04","22:00","0.7","","0.7","","100","","","","1","","7","","2.4","","98.62","","","","","","Rain,Snow,Fog"
"-63.51","44.88","HALIFAX STANFIELD INT'L A","8202251","2021-02-04 23:00","2021","02","04","23:00","0.4","","0.4","","100","","","","36","","8","","0.8","","98.63","","","","","","Snow,Fog"
"-63.51","44.88","HALIFAX STANFIELD INT'L A","8202251","2021-02-05 00:00","2021","02","05","00:00","0.2","","0.2","","100","","","","1","","5","","1.2","","98.63","","","","","","Snow,Fog"
"-63.51","44.88","HALIFAX STANFIELD INT'L A","8202251","2021-02-05 01:00","2021","02","05","01:00","0.0","","0.0","","100","","","","36","","7","","12.9","","98.62","","","","-2","","Snow"
"-63.51","44.88","HALIFAX STANFIELD INT'L A","8202251","2021-02-05 02:00","2021","02","05","02:00","-0.2","","-0.2","","100","","","","6","","5","","12.9","","98.65","","","","-2","","Snow"
"-63.51","44.88","HALIFAX STANFIELD INT'L A","8202251","2021-02-05 03:00","2021","02","05","03:00","-0.3","","-0.3","","100","","","","36","","6","","4.8","","98.68","","","","-2","","Snow"
"-63.51","44.88","HALIFAX STANFIELD INT'L A","8202251","2021-02-05 04:00","2021","02","05","04:00","-0.4","","-0.4","","100","","","","36","","2","","2.4","","98.71","","","","-1","","Snow"
"-63.51","44.88","HALIFAX STANFIELD INT'L A","8202251","2021-02-05 05:00","2021","02","05","05:00","-0.4","","-0.4","","100","","","","36","","1","","1.6","","98.75","","","","-1","","Snow"
"-63.51","44.88","HALIFAX STANFIELD INT'L A","8202251","2021-02-05 06:00","2021","02","05","06:00","-0.3","","-0.3","","100","","","","22","","5","","1.6","","98.76","","","","-2","","Snow"
"-63.51","44.88","HALIFAX STANFIELD INT'L A","8202251","2021-02-05 07:00","2021","02","05","07:00","-0.4","","-0.4","","100","","","","29","","14","","3.2","","98.82","","","","-5","","Snow"
"-63.51","44.88","HALIFAX STANFIELD INT'L A","8202251","2021-02-05 08:00","2021","02","05","08:00","-0.4","","-0.4","","100","","","","28","","12","","4.8","","98.91","","","","-4","","Snow"
"-63.51","44.88","HALIFAX STANFIELD INT'L A","8202251","2021-02-05 09:00","2021","02","05","09:00","-0.7","","-0.7","","100","","","","25","","16","","24.1","","98.98","","","","-5","","NA"
"-63.51","44.88","HALIFAX STANFIELD INT'L A","8202251","2021-02-05 10:00","2021","02","05","10:00","-0.5","","-1.2","","95","","","","24","","21","","24.1","","99.01","","","","-6","","NA"
"-63.51","44.88","HALIFAX STANFIELD INT'L A","8202251","2021-02-05 11:00","2021","02","05","11:00","-0.1","","-0.5","","97","","","","25","","21","","24.1","","99.09","","","","-6","","Cloudy"
"-63.51","44.88","HALIFAX STANFIELD INT'L A","8202251","2021-02-05 12:00","2021","02","05","12:00","0.0","","-0.6","","96","","","","25","","21","","24.1","","99.13","","","","-5","","NA"
"-63.51","44.88","HALIFAX STANFIELD INT'L A","8202251","2021-02-05 13:00","2021","02","05","13:00","0.4","","-0.3","","95","","","","26","","17","","24.1","","99.14","","","","","","NA"
"-63.51","44.88","HALIFAX STANFIELD INT'L A","8202251","2021-02-05 14:00","2021","02","05","14:00","0.4","","-0.4","","94","","","","26","","17","","24.1","","99.17","","","","","","Mostly Cloudy"
"-63.51","44.88","HALIFAX STANFIELD INT'L A","8202251","2021-02-05 15:00","2021","02","05","15:00","1.1","","-1.0","","86","","","","25","","16","","24.1","","99.26","","","","","","NA"
"-63.51","44.88","HALIFAX STANFIELD INT'L A","8202251","2021-02-05 16:00","2021","02","05","16:00","1.3","","-1.3","","83","","","","23","","12","","24.1","","99.28","","","","","","NA"
"-63.51","44.88","HALIFAX STANFIELD INT'L A","8202251","2021-02-05 17:00","2021","02","05","17:00","1.1","","-0.9","","87","","","","22","","13","","24.1","","99.35","","","","","","Mostly Cloudy"
"-63.51","44.88","HALIFAX STANFIELD INT'L A","8202251","2021-02-05 18:00","2021","02","05","18:00","0.7","","-1.6","","85","","","","20","","9","","24.1","","99.39","","","","","","NA"
"-63.51","44.88","HALIFAX STANFIELD INT'L A","8202251","2021-02-05 19:00","2021","02","05","19:00","0.4","","-1.0","","90","","","","17","","9","","24.1","","99.42","","","","","","NA"
"-63.51","44.88","HALIFAX STANFIELD INT'L A","8202251","2021-02-05 20:00","2021","02","05","20:00","0.2","","-0.2","","97","","","","16","","11","","24.1","","99.45","","","","","","Cloudy"
"-63.51","44.88","HALIFAX STANFIELD INT'L A","8202251","2021-02-05 21:00","2021","02","05","21:00","0.3","","0.3","","100","","","","15","","13","","24.1","","99.42","","","","","","NA"
"-63.51","44.88","HALIFAX STANFIELD INT'L A","8202251","2021-02-05 22:00","2021","02","05","22:00","0.6","","0.6","","100","","","","14","","14","","24.1","","99.37","","","","","","NA"
"-63.51","44.88","HALIFAX STANFIELD INT'L A","8202251","2021-02-05 23:00","2021","02","05","23:00","0.7","","0.7","","100","","","","15","","17","","24.1","","99.30","","","","","","Rain Showers,Snow Showers"
"-63.51","44.88","HALIFAX STANFIELD INT'L A","8202251","2021-02-06 00:00","2021","02","06","00:00","1.3","","1.3","","100","","","","13","","17","","16.1","","99.18","","","","","","Rain"
"-63.51","44.88","HALIFAX STANFIELD INT'L A","8202251","2021-02-06 01:00","2021","02","06","01:00","2.2","","2.2","","100","","","","13","","24","","16.1","","99.03","","","","","","Rain"
"-63.51","44.88","HALIFAX STANFIELD INT'L A","8202251","2021-02-06 02:00","2021","02","06","02:00","3.1","","3.1","","100","","","","12","","29","","4.8","","98.83","","","","","","Moderate Rain,Fog"
"-63.51","44.88","HALIFAX STANFIELD INT'L A","8202251","2021-02-06 03:00","2021","02","06","03:00","4.7","","4.7","","100","","","","13","","36","","3.2","","98.59","","","","","","Moderate Rain,Fog"
"-63.51","44.88","HALIFAX STANFIELD INT'L A","8202251","2021-02-06 04:00","2021","02","06","04:00","5.9","","5.9","","100","","","","14","","27","","3.2","","98.40","","","","","","Moderate Rain,Fog"
"-63.51","44.88","HALIFAX STANFIELD INT'L A","8202251","2021-02-06 05:00","2021","02","06","05:00","6.9","","6.9","","100","","","","16","","22","","2.0","","98.34","","","","","","Rain,Fog"
"-63.51","44.88","HALIFAX STANFIELD INT'L A","8202251","2021-02-06 06:00","2021","02","06","06:00","7.4","","7.4","","100","","","","23","","27","","0.4","","98.26","","","","","","Fog"
"-63.51","44.88","HALIFAX STANFIELD INT'L A","8202251","2021-02-06 07:00","2021","02","06","07:00","6.8","","6.8","","100","","","","24","","26","","24.1","","98.38","","","","","","NA"
"-63.51","44.88","HALIFAX STANFIELD INT'L A","8202251","2021-02-06 08:00","2021","02","06","08:00","6.1","","6.0","","99","","","","24","","26","","24.1","","98.50","","","","","","Cloudy"
"-63.51","44.88","HALIFAX STANFIELD INT'L A","8202251","2021-02-06 09:00","2021","02","06","09:00","5.8","","5.7","","99","","","","23","","22","","24.1","","98.59","","","","","","NA"
"-63.51","44.88","HALIFAX STANFIELD INT'L A","8202251","2021-02-06 10:00","2021","02","06","10:00","5.6","","3.8","","88","","","","24","","32","","24.1","","98.62","","","","","","NA"
"-63.51","44.88","HALIFAX STANFIELD INT'L A","8202251","2021-02-06 11:00","2021","02","06","11:00","5.7","","2.9","","82","","","","25","","30","","24.1","","98.71","","","","","","Mostly Cloudy"
"-63.51","44.88","HALIFAX STANFIELD INT'L A","8202251","2021-02-06 12:00","2021","02","06","12:00","5.4","","1.7","","77","","","","24","","36","","24.1","","98.74","","","","","","NA"
"-63.51","44.88","HALIFAX STANFIELD INT'L A","8202251","2021-02-06 13:00","2021","02","06","13:00","4.8","","0.4","","73","","","","25","","36","","24.1","","98.77","","","","","","NA"
"-63.51","44.88","HALIFAX STANFIELD INT'L A","8202251","2021-02-06 14:00","2021","02","06","14:00","5.7","","0.9","","71","","","","25","","21","","24.1","","98.75","","","","","","Mostly Cloudy"
"-63.51","44.88","HALIFAX STANFIELD INT'L A","8202251","2021-02-06 15:00","2021","02","06","15:00","5.1","","0.5","","72","","","","26","","32","","24.1","","98.80","","","","","","NA"
"-63.51","44.88","HALIFAX STANFIELD INT'L A","8202251","2021-02-06 16:00","2021","02","06","16:00","5.1","","-2.7","","57","","","","25","","49","","24.1","","98.87","","","","","","NA"
"-63.51","44.88","HALIFAX STANFIELD INT'L A","8202251","2021-02-06 17:00","2021","02","06","17:00","2.9","","-2.2","","69","","","","25","","52","","4.8","","99.03","","","","","","Snow Showers"
"-63.51","44.88","HALIFAX STANFIELD INT'L A","8202251","2021-02-06 18:00","2021","02","06","18:00","-0.3","","-1.3","","93","","","","31","","22","","24.1","","99.27","","","","-6","","NA"
"-63.51","44.88","HALIFAX STANFIELD INT'L A","8202251","2021-02-06 19:00","2021","02","06","19:00","-0.5","","-2.1","","89","","","","26","","17","","24.1","","99.43","","","","-5","","Snow Showers"
"-63.51","44.88","HALIFAX STANFIELD INT'L A","8202251","2021-02-06 20:00","2021","02","06","20:00","-0.5","","-1.6","","92","","","","26","","17","","4.8","","99.53","","","","-5","","Snow Showers"
"-63.51","44.88","HALIFAX STANFIELD INT'L A","8202251","2021-02-06 21:00","2021","02","06","21:00","-1.3","","-1.7","","97","","","","25","","14","","24.1","","99.65","","","","-6","","Snow Showers"
"-63.51","44.88","HALIFAX STANFIELD INT'L A","8202251","2021-02-06 22:00","2021","02","06","22:00","-1.3","","-2.8","","89","","","","24","","23","","24.1","","99.70","","","","-7","","NA"
"-63.51","44.88","HALIFAX STANFIELD INT'L A","8202251","2021-02-06 23:00","2021","02","06","23:00","-1.3","","-2.7","","90","","","","22","","16","","24.1","","99.72","","","","-6","","Cloudy"
"-63.51","44.88","HALIFAX STANFIELD INT'L A","8202251","2021-02-07 00:00","2021","02","07","00:00","-1.1","","-3.7","","82","","","","24","","29","","24.1","","99.74","","","","-8","","NA"
"-63.51","44.88","HALIFAX STANFIELD INT'L A","8202251","2021-02-07 01:00","2021","02","07","01:00","-1.2","","-3.2","","86","","","","24","","26","","24.1","","99.86","","","","-8","","NA"
"-63.51","44.88","HALIFAX STANFIELD INT'L A","8202251","2021-02-07 02:00","2021","02","07","02:00","-1.6","","-2.9","","91","","","","27","","15","","24.1","","99.94","","","","-6","","Mostly Cloudy"
"-63.51","44.88","HALIFAX STANFIELD INT'L A","8202251","2021-02-07 03:00","2021","02","07","03:00","-2.4","","-2.8","","97","","","","29","","16","","24.1","","100.05","","","","-8","","NA"
"-63.51","44.88","HALIFAX STANFIELD INT'L A","8202251","2021-02-07 04:00","2021","02","07","04:00","-2.8","","-5.1","","84","","","","29","","19","","24.1","","100.18","","","","-9","","NA"
"-63.51","44.88","HALIFAX STANFIELD INT'L A","8202251","2021-02-07 05:00","2021","02","07","05:00","-3.4","","-6.0","","82","","","","31","","17","","24.1","","100.25","","","","-9","","Mainly Clear"
"-63.51","44.88","HALIFAX STANFIELD INT'L A","8202251","2021-02-07 06:00","2021","02","07","06:00","-3.7","","-7.2","","77","","","","31","","25","","24.1","","100.32","","","","-11","","NA"
"-63.51","44.88","HALIFAX STANFIELD INT'L A","8202251","2021-02-07 07:00","2021","02","07","07:00","-4.0","","-8.4","","71","","","","30","","26","","24.1","","100.43","","","","-11","","NA"
"-63.51","44.88","HALIFAX STANFIELD INT'L A","8202251","2021-02-07 08:00","2021","02","07","08:00","-4.2","","-8.6","","72","","","","30","","14","","24.1","","100.55","","","","-9","","Mostly Cloudy"
"-63.51","44.88","HALIFAX STANFIELD INT'L A","8202251","2021-02-07 09:00","2021","02","07","09:00","-3.9","","-8.9","","68","","","","28","","13","","24.1","","100.59","","","","-9","","NA"
"-63.51","44.88","HALIFAX STANFIELD INT'L A","8202251","2021-02-07 10:00","2021","02","07","10:00","-3.6","","-9.9","","62","","","","33","","10","","24.1","","100.56","","","","-8","","NA"
"-63.51","44.88","HALIFAX STANFIELD INT'L A","8202251","2021-02-07 11:00","2021","02","07","11:00","-3.2","","-10.2","","59","","","","31","","7","","24.1","","100.60","","","","-6","","Cloudy"
"-63.51","44.88","HALIFAX STANFIELD INT'L A","8202251","2021-02-07 12:00","2021","02","07","12:00","-2.7","","-10.6","","55","","","","21","","5","","24.1","","100.49","","","","-5","","NA"
"-63.51","44.88","HALIFAX STANFIELD INT'L A","8202251","2021-02-07 13:00","2021","02","07","13:00","-2.1","","-10.6","","52","","","","19","","9","","24.1","","100.45","","","","-6","","NA"
"-63.51","44.88","HALIFAX STANFIELD INT'L A","8202251","2021-02-07 14:00","2021","02","07","14:00","-2.0","","-9.9","","55","","","","14","","10","","24.1","","100.27","","","","-6","","Cloudy"
"-63.51","44.88","HALIFAX STANFIELD INT'L A","8202251","2021-02-07 15:00","2021","02","07","15:00","-2.0","","-9.3","","58","","","","10","","10","","24.1","","100.19","","","","-6","","NA"
"-63.51","44.88","HALIFAX STANFIELD INT'L A","8202251","2021-02-07 16:00","2021","02","07","16:00","-2.0","","-8.0","","64","","","","9","","14","","24.1","","100.12","","","","-7","","NA"
"-63.51","44.88","HALIFAX STANFIELD INT'L A","8202251","2021-02-07 17:00","2021","02","07","17:00","-2.2","","-8.9","","60","","","","12","","17","","24.1","","100.02","","","","-8","","Cloudy"
"-63.51","44.88","HALIFAX STANFIELD INT'L A","8202251","2021-02-07 18:00","2021","02","07","18:00","-2.4","","-7.7","","67","","","","13","","17","","24.1","","99.97","","","","-8","","NA"
"-63.51","44.88","HALIFAX STANFIELD INT'L A","8202251","2021-02-07 19:00","2021","02","07","19:00","-3.9","","-4.0","","99","","","","11","","22","","3.2","","99.74","","","","-10","","Snow"
"-63.51","44.88","HALIFAX STANFIELD INT'L A","8202251","2021-02-07 20:00","2021","02","07","20:00","-4.0","","-4.0","","100","","","","6","","14","","0.8","","99.55","","","","-9","","Moderate Snow"
"-63.51","44.88","HALIFAX STANFIELD INT'L A","8202251","2021-02-07 21:00","2021","02","07","21:00","-4.4","","-4.4","","100","","","","7","","21","","1.0","","99.20","","","","-11","","Snow"
"-63.51","44.88","HALIFAX STANFIELD INT'L A","8202251","2021-02-07 22:00","2021","02","07","22:00","-4.3","","-4.3","","100","","","","5","","28","","0.8","","98.81","","","","-12","","Moderate Snow,Blowing Snow"
"-63.51","44.88","HALIFAX STANFIELD INT'L A","8202251","2021-02-07 23:00","2021","02","07","23:00","-3.9","","-3.9","","100","","","","6","","23","","0.8","","98.50","","","","-11","","Moderate Snow,Blowing Snow"
"-63.51","44.88","HALIFAX STANFIELD INT'L A","8202251","2021-02-08 00:00","2021","02","08","00:00","-3.3","","-3.3","","100","","","","4","","31","","0.4","","98.23","","","","-11","","Moderate Snow,Blowing Snow"
"-63.51","44.88","HALIFAX STANFIELD INT'L A","8202251","2021-02-08 01:00","2021","02","08","01:00","-3.6","","-3.6","","100","","","","2","","41","","0.6","","97.91","","","","-12","","Moderate Snow,Blowing Snow"
"-63.51","44.88","HALIFAX STANFIELD INT'L A","8202251","2021-02-08 02:00","2021","02","08","02:00","-3.4","","-3.4","","100","","","","2","","46","","0.6","","97.65","","","","-12","","Moderate Snow,Blowing Snow"
"-63.51","44.88","HALIFAX STANFIELD INT'L A","8202251","2021-02-08 03:00","2021","02","08","03:00","-3.4","","-3.4","","100","","","","1","","51","","0.4","","97.36","","","","-13","","Moderate Snow,Blowing Snow"
"-63.51","44.88","HALIFAX STANFIELD INT'L A","8202251","2021-02-08 04:00","2021","02","08","04:00","-3.1","","-3.1","","100","","","","35","","45","","0.4","","97.38","","","","-12","","Moderate Snow,Blowing Snow"
"-63.51","44.88","HALIFAX STANFIELD INT'L A","8202251","2021-02-08 05:00","2021","02","08","05:00","-2.6","","-2.6","","100","","","","34","","55","","0.4","","97.59","","","","-12","","Moderate Snow,Blowing Snow"
"-63.51","44.88","HALIFAX STANFIELD INT'L A","8202251","2021-02-08 06:00","2021","02","08","06:00","-2.7","","-2.7","","100","","","","34","","42","","1.0","","97.90","","","","-11","","Snow,Blowing Snow"
"-63.51","44.88","HALIFAX STANFIELD INT'L A","8202251","2021-02-08 07:00","2021","02","08","07:00","-3.4","","-3.4","","100","","","","32","","44","","2.4","","98.14","","","","-12","","Snow,Blowing Snow"
"-63.51","44.88","HALIFAX STANFIELD INT'L A","8202251","2021-02-08 08:00","2021","02","08","08:00","-3.4","","-3.9","","96","","","","32","","52","","4.8","","98.43","","","","-13","","Snow,Blowing Snow"
"-63.51","44.88","HALIFAX STANFIELD INT'L A","8202251","2021-02-08 09:00","2021","02","08","09:00","-3.8","","-3.8","","100","","","","31","","47","","0.4","","98.70","","","","-13","","Moderate Snow,Blowing Snow"
"-63.51","44.88","HALIFAX STANFIELD INT'L A","8202251","2021-02-08 10:00","2021","02","08","10:00","-4.0","","-4.3","","98","","","","31","","45","","2.0","","98.86","","","","-13","","Snow,Blowing Snow"
"-63.51","44.88","HALIFAX STANFIELD INT'L A","8202251","2021-02-08 11:00","2021","02","08","11:00","-3.3","","-3.7","","97","","","","32","","43","","2.4","","99.03","","","","-12","","Snow,Blowing Snow"
"-63.51","44.88","HALIFAX STANFIELD INT'L A","8202251","2021-02-08 12:00","2021","02","08","12:00","-2.0","","-3.0","","93","","","","31","","35","","24.1","","99.16","","","","-10","","Blowing Snow"
"-63.51","44.88","HALIFAX STANFIELD INT'L A","8202251","2021-02-08 13:00","2021","02","08","13:00","-1.7","","-3.1","","90","","","","31","","37","","19.3","","99.25","","","","-9","","Snow"
"-63.51","44.88","HALIFAX STANFIELD INT'L A","8202251","2021-02-08 14:00","2021","02","08","14:00","-1.8","","-3.3","","89","","","","30","","35","","24.1","","99.33","","","","-9","","Snow"
"-63.51","44.88","HALIFAX STANFIELD INT'L A","8202251","2021-02-08 15:00","2021","02","08","15:00","-2.3","","-3.8","","90","","","","29","","35","","19.3","","99.48","","","","-10","","Snow"
"-63.51","44.88","HALIFAX STANFIELD INT'L A","8202251","2021-02-08 16:00","2021","02","08","16:00","-2.6","","-4.1","","89","","","","30","","34","","19.3","","99.59","","","","-10","","Snow"
"-63.51","44.88","HALIFAX STANFIELD INT'L A","8202251","2021-02-08 17:00","2021","02","08","17:00","-3.0","","-5.2","","85","","","","31","","37","","24.1","","99.69","","","","-11","","Cloudy"
"-63.51","44.88","HALIFAX STANFIELD INT'L A","8202251","2021-02-08 18:00","2021","02","08","18:00","-3.3","","-5.2","","87","","","","30","","34","","19.3","","99.77","","","","-11","","Snow"
"-63.51","44.88","HALIFAX STANFIELD INT'L A","8202251","2021-02-08 19:00","2021","02","08","19:00","-3.7","","-5.8","","86","","","","30","","35","","12.9","","99.91","","","","-12","","Snow"
"-63.51","44.88","HALIFAX STANFIELD INT'L A","8202251","2021-02-08 20:00","2021","02","08","20:00","-4.8","","-7.5","","81","","","","30","","39","","8.1","","100.01","","","","-14","","Snow,Blowing Snow"
"-63.51","44.88","HALIFAX STANFIELD INT'L A","8202251","2021-02-08 21:00","2021","02","08","21:00","-5.8","","-8.6","","81","","","","30","","33","","24.1","","100.10","","","","-14","","NA"
"-63.51","44.88","HALIFAX STANFIELD INT'L A","8202251","2021-02-08 22:00","2021","02","08","22:00","-6.9","","-9.6","","81","","","","30","","33","","24.1","","100.13","","","","-16","","NA"
"-63.51","44.88","HALIFAX STANFIELD INT'L A","8202251","2021-02-08 23:00","2021","02","08","23:00","-7.7","","-10.6","","80","","","","30","","30","","24.1","","100.19","","","","-17","","Mainly Clear"
"-63.51","44.88","HALIFAX STANFIELD INT'L A","8202251","2021-02-09 00:00","2021","02","09","00:00","-8.5","","-11.2","","81","","","","30","","34","","24.1","","100.27","","","","-18","","NA"
"-63.51","44.88","HALIFAX STANFIELD INT'L A","8202251","2021-02-09 01:00","2021","02","09","01:00","-9.4","","-13.1","","75","","","","31","","45","","24.1","","100.29","","","","-20","","NA"
"-63.51","44.88","HALIFAX STANFIELD INT'L A","8202251","2021-02-09 02:00","2021","02","09","02:00","-10.0","","-13.5","","76","","","","31","","37","","24.1","","100.37","","","","-20","","Clear"
"-63.51","44.88","HALIFAX STANFIELD INT'L A","8202251","2021-02-09 03:00","2021","02","09","03:00","-10.5","","-14.2","","75","","","","30","","32","","24.1","","100.40","","","","-20","","NA"
"-63.51","44.88","HALIFAX STANFIELD INT'L A","8202251","2021-02-09 04:00","2021","02","09","04:00","-10.9","","-14.2","","77","","","","30","","33","","24.1","","100.37","","","","-21","","NA"
"-63.51","44.88","HALIFAX STANFIELD INT'L A","8202251","2021-02-09 05:00","2021","02","09","05:00","-10.8","","-14.7","","73","","","","30","","31","","24.1","","100.49","","","","-21","","Clear"
"-63.51","44.88","HALIFAX STANFIELD INT'L A","8202251","2021-02-09 06:00","2021","02","09","06:00","-10.9","","-15.0","","72","","","","30","","28","","24.1","","100.53","","","","-20","","NA"
"-63.51","44.88","HALIFAX STANFIELD INT'L A","8202251","2021-02-09 07:00","2021","02","09","07:00","-10.6","","-15.3","","68","","","","29","","35","","24.1","","100.54","","","","-21","","NA"
"-63.51","44.88","HALIFAX STANFIELD INT'L A","8202251","2021-02-09 08:00","2021","02","09","08:00","-11.0","","-15.1","","72","","","","30","","21","","24.1","","100.60","","","","-19","","Clear"
"-63.51","44.88","HALIFAX STANFIELD INT'L A","8202251","2021-02-09 09:00","2021","02","09","09:00","-10.0","","-14.6","","70","","","","29","","22","","24.1","","100.60","","","","-18","","NA"
"-63.51","44.88","HALIFAX STANFIELD INT'L A","8202251","2021-02-09 10:00","2021","02","09","10:00","-8.7","","-13.3","","70","","","","29","","22","","24.1","","100.61","","","","-17","","NA"
"-63.51","44.88","HALIFAX STANFIELD INT'L A","8202251","2021-02-09 11:00","2021","02","09","11:00","-7.6","","-13.0","","65","","","","30","","24","","24.1","","100.58","","","","-16","","Mainly Clear"
"-63.51","44.88","HALIFAX STANFIELD INT'L A","8202251","2021-02-09 12:00","2021","02","09","12:00","-6.6","","-13.4","","59","","","","31","","20","","24.1","","100.47","","","","-14","","NA"
"-63.51","44.88","HALIFAX STANFIELD INT'L A","8202251","2021-02-09 13:00","2021","02","09","13:00","-5.3","","-13.3","","54","","","","28","","25","","24.1","","100.48","","","","-13","","NA"
"-63.51","44.88","HALIFAX STANFIELD INT'L A","8202251","2021-02-09 14:00","2021","02","09","14:00","-4.7","","-13.2","","52","","","","29","","21","","24.1","","100.45","","","","-11","","Mainly Clear"
"-63.51","44.88","HALIFAX STANFIELD INT'L A","8202251","2021-02-09 15:00","2021","02","09","15:00","-4.5","","-13.8","","49","","","","30","","23","","24.1","","100.43","","","","-11","","NA"
"-63.51","44.88","HALIFAX STANFIELD INT'L A","8202251","2021-02-09 16:00","2021","02","09","16:00","-5.1","","-14.1","","50","","","","31","","23","","24.1","","100.46","","","","-12","","NA"
"-63.51","44.88","HALIFAX STANFIELD INT'L A","8202251","2021-02-09 17:00","2021","02","09","17:00","-6.0","","-14.1","","53","","","","31","","24","","24.1","","100.42","","","","-13","","Mostly Cloudy"
"-63.51","44.88","HALIFAX STANFIELD INT'L A","8202251","2021-02-09 18:00","2021","02","09","18:00","-6.7","","-12.8","","62","","","","29","","18","","24.1","","100.38","","","","-13","","NA"
"-63.51","44.88","HALIFAX STANFIELD INT'L A","8202251","2021-02-09 19:00","2021","02","09","19:00","-6.8","","-11.8","","68","","","","26","","12","","24.1","","100.42","","","","-12","","NA"
"-63.51","44.88","HALIFAX STANFIELD INT'L A","8202251","2021-02-09 20:00","2021","02","09","20:00","-7.3","","-11.7","","71","","","","26","","14","","24.1","","100.36","","","","-13","","Mostly Cloudy"
"-63.51","44.88","HALIFAX STANFIELD INT'L A","8202251","2021-02-09 21:00","2021","02","09","21:00","-7.3","","-11.2","","74","","","","27","","13","","24.1","","100.32","","","","-13","","NA"
"-63.51","44.88","HALIFAX STANFIELD INT'L A","8202251","2021-02-09 22:00","2021","02","09","22:00","-8.2","","-11.6","","77","","","","27","","13","","24.1","","100.21","","","","-14","","NA"
"-63.51","44.88","HALIFAX STANFIELD INT'L A","8202251","2021-02-09 23:00","2021","02","09","23:00","-8.4","","-11.1","","81","","","","31","","15","","24.1","","100.16","","","","-15","","Cloudy"
"-63.51","44.88","HALIFAX STANFIELD INT'L A","8202251","2021-02-10 00:00","2021","02","10","00:00","-8.1","","-12.5","","71","","","","32","","17","","24.1","","100.14","","","","-15","","NA"
"-63.51","44.88","HALIFAX STANFIELD INT'L A","8202251","2021-02-10 01:00","2021","02","10","01:00","-8.5","","-13.0","","70","","","","33","","14","","24.1","","100.06","","","","-15","","NA"
"-63.51","44.88","HALIFAX STANFIELD INT'L A","8202251","2021-02-10 02:00","2021","02","10","02:00","-9.0","","-12.7","","75","","","","35","","10","","24.1","","99.98","","","","-14","","Cloudy"
"-63.51","44.88","HALIFAX STANFIELD INT'L A","8202251","2021-02-10 03:00","2021","02","10","03:00","-10.1","","-13.2","","78","","","","33","","11","","24.1","","99.99","","","","-16","","NA"
"-63.51","44.88","HALIFAX STANFIELD INT'L A","8202251","2021-02-10 04:00","2021","02","10","04:00","-11.0","","-14.4","","76","","","","34","","15","","24.1","","99.93","","","","-18","","NA"
"-63.51","44.88","HALIFAX STANFIELD INT'L A","8202251","2021-02-10 05:00","2021","02","10","05:00","-12.1","","-15.8","","74","","","","34","","15","","24.1","","99.90","","","","-19","","Mainly Clear"
"-63.51","44.88","HALIFAX STANFIELD INT'L A","8202251","2021-02-10 06:00","2021","02","10","06:00","-13.2","","-16.3","","78","","","","33","","18","","24.1","","99.86","","","","-21","","NA"
"-63.51","44.88","HALIFAX STANFIELD INT'L A","8202251","2021-02-10 07:00","2021","02","10","07:00","-13.2","","-16.1","","79","","","","33","","21","","24.1","","99.90","","","","-22","","NA"
"-63.51","44.88","HALIFAX STANFIELD INT'L A","8202251","2021-02-10 08:00","2021","02","10","08:00","-13.7","","-16.0","","83","","","","33","","17","","24.1","","99.93","","","","-22","","Mainly Clear"
"-63.51","44.88","HALIFAX STANFIELD INT'L A","8202251","2021-02-10 09:00","2021","02","10","09:00","-11.9","","-14.8","","79","","","","32","","15","","24.1","","99.95","","","","-19","","NA"
"-63.51","44.88","HALIFAX STANFIELD INT'L A","8202251","2021-02-10 10:00","2021","02","10","10:00","-10.1","","-13.7","","75","","","","33","","21","","24.1","","99.96","","","","-18","","NA"
"-63.51","44.88","HALIFAX STANFIELD INT'L A","8202251","2021-02-10 11:00","2021","02","10","11:00","-8.9","","-13.4","","70","","","","32","","23","","24.1","","99.93","","","","-17","","Clear"
"-63.51","44.88","HALIFAX STANFIELD INT'L A","8202251","2021-02-10 12:00","2021","02","10","12:00","-7.8","","-14.9","","57","","","","33","","31","","24.1","","99.91","","","","-17","","NA"
"-63.51","44.88","HALIFAX STANFIELD INT'L A","8202251","2021-02-10 13:00","2021","02","10","13:00","-7.5","","-15.3","","54","","","","31","","30","","24.1","","99.88","","","","-16","","NA"
"-63.51","44.88","HALIFAX STANFIELD INT'L A","8202251","2021-02-10 14:00","2021","02","10","14:00","-6.9","","-14.7","","54","","","","32","","31","","24.1","","99.82","","","","-16","","Clear"
"-63.51","44.88","HALIFAX STANFIELD INT'L A","8202251","2021-02-10 15:00","2021","02","10","15:00","-6.4","","-16.2","","46","","","","31","","28","","24.1","","99.82","","","","-15","","NA"
"-63.51","44.88","HALIFAX STANFIELD INT'L A","8202251","2021-02-10 16:00","2021","02","10","16:00","-6.4","","-15.4","","49","","","","32","","22","","24.1","","99.84","","","","-14","","NA"
"-63.51","44.88","HALIFAX STANFIELD INT'L A","8202251","2021-02-10 17:00","2021","02","10","17:00","-7.0","","-15.1","","53","","","","31","","21","","24.1","","99.83","","","","-14","","Mainly Clear"
"-63.51","44.88","HALIFAX STANFIELD INT'L A","8202251","2021-02-10 18:00","2021","02","10","18:00","-7.7","","-14.4","","59","","","","28","","19","","24.1","","99.91","","","","-15","","NA"
"-63.51","44.88","HALIFAX STANFIELD INT'L A","8202251","2021-02-10 19:00","2021","02","10","19:00","-8.6","","-13.9","","66","","","","27","","18","","24.1","","99.94","","","","-16","","NA"
"-63.51","44.88","HALIFAX STANFIELD INT'L A","8202251","2021-02-10 20:00","2021","02","10","20:00","-8.6","","-11.2","","82","","","","28","","17","","8.1","","99.97","","","","-15","","Snow Showers"
"-63.51","44.88","HALIFAX STANFIELD INT'L A","8202251","2021-02-10 21:00","2021","02","10","21:00","-9.8","","-11.1","","90","","","","26","","19","","24.1","","99.96","","","","-17","","NA"
"-63.51","44.88","HALIFAX STANFIELD INT'L A","8202251","2021-02-10 22:00","2021","02","10","22:00","-9.1","","-10.9","","87","","","","26","","16","","24.1","","99.92","","","","-16","","NA"
"-63.51","44.88","HALIFAX STANFIELD INT'L A","8202251","2021-02-10 23:00","2021","02","10","23:00","-9.1","","-11.3","","84","","","","27","","13","","24.1","","99.92","","","","-15","","Snow Showers"
"-63.51","44.88","HALIFAX STANFIELD INT'L A","8202251","2021-02-11 00:00","2021","02","11","00:00","-9.8","","-12.1","","83","","","","28","","13","","24.1","","99.95","","","","-16","","NA"
"-63.51","44.88","HALIFAX STANFIELD INT'L A","8202251","2021-02-11 01:00","2021","02","11","01:00","-9.5","","-13.3","","74","","","","28","","17","","24.1","","99.96","","","","-17","","NA"
"-63.51","44.88","HALIFAX STANFIELD INT'L A","8202251","2021-02-11 02:00","2021","02","11","02:00","-11.2","","-14.3","","78","","","","27","","18","","24.1","","99.99","","","","-19","","Mainly Clear"
"-63.51","44.88","HALIFAX STANFIELD INT'L A","8202251","2021-02-11 03:00","2021","02","11","03:00","-10.9","","-15.2","","71","","","","28","","18","","24.1","","99.96","","","","-19","","NA"
"-63.51","44.88","HALIFAX STANFIELD INT'L A","8202251","2021-02-11 04:00","2021","02","11","04:00","-12.0","","-16.1","","72","","","","27","","15","","24.1","","99.91","","","","-19","","NA"
"-63.51","44.88","HALIFAX STANFIELD INT'L A","8202251","2021-02-11 05:00","2021","02","11","05:00","-12.0","","-16.3","","71","","","","28","","15","","24.1","","99.90","","","","-19","","Clear"
"-63.51","44.88","HALIFAX STANFIELD INT'L A","8202251","2021-02-11 06:00","2021","02","11","06:00","-11.5","","-16.7","","66","","","","29","","22","","24.1","","99.91","","","","-20","","NA"
"-63.51","44.88","HALIFAX STANFIELD INT'L A","8202251","2021-02-11 07:00","2021","02","11","07:00","-12.5","","-16.6","","72","","","","27","","18","","24.1","","99.92","","","","-21","","NA"
"-63.51","44.88","HALIFAX STANFIELD INT'L A","8202251","2021-02-11 08:00","2021","02","11","08:00","-13.2","","-16.7","","75","","","","27","","17","","24.1","","99.95","","","","-21","","Mainly Clear"
"-63.51","44.88","HALIFAX STANFIELD INT'L A","8202251","2021-02-11 09:00","2021","02","11","09:00","-11.4","","-16.6","","66","","","","27","","21","","24.1","","99.95","","","","-20","","NA"
"-63.51","44.88","HALIFAX STANFIELD INT'L A","8202251","2021-02-11 10:00","2021","02","11","10:00","-10.1","","-16.9","","58","","","","30","","35","","24.1","","99.92","","","","-20","","NA"
"-63.51","44.88","HALIFAX STANFIELD INT'L A","8202251","2021-02-11 11:00","2021","02","11","11:00","-9.5","","-16.9","","55","","","","31","","35","","24.1","","99.89","","","","-20","","Mainly Clear"
"-63.51","44.88","HALIFAX STANFIELD INT'L A","8202251","2021-02-11 12:00","2021","02","11","12:00","-8.5","","-15.7","","57","","","","29","","30","","24.1","","99.78","","","","-18","","NA"
"-63.51","44.88","HALIFAX STANFIELD INT'L A","8202251","2021-02-11 13:00","2021","02","11","13:00","-7.8","","-17.3","","47","","","","28","","30","","24.1","","99.70","","","","-17","","NA"
"-63.51","44.88","HALIFAX STANFIELD INT'L A","8202251","2021-02-11 14:00","2021","02","11","14:00","-7.8","","-16.4","","50","","","","29","","28","","24.1","","99.65","","","","-16","","Mainly Clear"
"-63.51","44.88","HALIFAX STANFIELD INT'L A","8202251","2021-02-11 15:00","2021","02","11","15:00","-7.5","","-15.5","","53","","","","28","","30","","24.1","","99.60","","","","-16","","NA"
"-63.51","44.88","HALIFAX STANFIELD INT'L A","8202251","2021-02-11 16:00","2021","02","11","16:00","-7.5","","-14.9","","56","","","","29","","31","","24.1","","99.60","","","","-16","","NA"
"-63.51","44.88","HALIFAX STANFIELD INT'L A","8202251","2021-02-11 17:00","2021","02","11","17:00","-7.6","","-15.6","","53","","","","28","","35","","24.1","","99.54","","","","-17","","Mainly Clear"
"-63.51","44.88","HALIFAX STANFIELD INT'L A","8202251","2021-02-11 18:00","2021","02","11","18:00","-8.7","","-14.5","","63","","","","26","","22","","24.1","","99.54","","","","-17","","NA"
"-63.51","44.88","HALIFAX STANFIELD INT'L A","8202251","2021-02-11 19:00","2021","02","11","19:00","-9.2","","-13.9","","69","","","","26","","20","","24.1","","99.57","","","","-17","","NA"
"-63.51","44.88","HALIFAX STANFIELD INT'L A","8202251","2021-02-11 20:00","2021","02","11","20:00","-10.0","","-13.5","","76","","","","25","","18","","24.1","","99.58","","","","-17","","Mainly Clear"
"-63.51","44.88","HALIFAX STANFIELD INT'L A","8202251","2021-02-11 21:00","2021","02","11","21:00","-10.5","","-13.5","","79","","","","25","","19","","24.1","","99.56","","","","-18","","NA"
"-63.51","44.88","HALIFAX STANFIELD INT'L A","8202251","2021-02-11 22:00","2021","02","11","22:00","-10.3","","-13.8","","76","","","","26","","13","","24.1","","99.53","","","","-17","","NA"
"-63.51","44.88","HALIFAX STANFIELD INT'L A","8202251","2021-02-11 23:00","2021","02","11","23:00","-11.7","","-14.5","","80","","","","24","","16","","24.1","","99.52","","","","-19","","Mostly Cloudy"
"-63.51","44.88","HALIFAX STANFIELD INT'L A","8202251","2021-02-12 00:00","2021","02","12","00:00","-10.5","","-12.4","","86","","","","31","","18","","6.4","","99.53","","","","-18","","Snow"
"-63.51","44.88","HALIFAX STANFIELD INT'L A","8202251","2021-02-12 01:00","2021","02","12","01:00","-10.8","","-12.8","","86","","","","31","","15","","4.0","","99.54","","","","-18","","Snow"
"-63.51","44.88","HALIFAX STANFIELD INT'L A","8202251","2021-02-12 02:00","2021","02","12","02:00","-11.1","","-11.9","","94","","","","29","","8","","1.6","","99.54","","","","-16","","Snow"
"-63.51","44.88","HALIFAX STANFIELD INT'L A","8202251","2021-02-12 03:00","2021","02","12","03:00","-12.3","","-13.7","","90","","","","27","","19","","24.1","","99.50","","","","-21","","Snow"
"-63.51","44.88","HALIFAX STANFIELD INT'L A","8202251","2021-02-12 04:00","2021","02","12","04:00","-13.0","","-14.3","","90","","","","27","","18","","4.8","","99.50","","","","-21","","Snow"
"-63.51","44.88","HALIFAX STANFIELD INT'L A","8202251","2021-02-12 05:00","2021","02","12","05:00","-13.6","","-14.8","","91","","","","26","","18","","6.4","","99.49","","","","-22","","Snow"
"-63.51","44.88","HALIFAX STANFIELD INT'L A","8202251","2021-02-12 06:00","2021","02","12","06:00","-13.7","","-14.7","","92","","","","27","","15","","3.2","","99.51","","","","-21","","Snow"
"-63.51","44.88","HALIFAX STANFIELD INT'L A","8202251","2021-02-12 07:00","2021","02","12","07:00","-13.1","","-14.4","","90","","","","31","","18","","8.1","","99.52","","","","-21","","Snow"
"-63.51","44.88","HALIFAX STANFIELD INT'L A","8202251","2021-02-12 08:00","2021","02","12","08:00","-12.9","","-14.9","","85","","","","30","","22","","8.1","","99.61","","","","-22","","Snow"
"-63.51","44.88","HALIFAX STANFIELD INT'L A","8202251","2021-02-12 09:00","2021","02","12","09:00","-12.3","","-14.2","","86","","","","31","","26","","8.1","","99.66","","","","-22","","Snow"
"-63.51","44.88","HALIFAX STANFIELD INT'L A","8202251","2021-02-12 10:00","2021","02","12","10:00","-11.0","","-13.1","","85","","","","32","","28","","8.1","","99.73","","","","-21","","Snow"
"-63.51","44.88","HALIFAX STANFIELD INT'L A","8202251","2021-02-12 11:00","2021","02","12","11:00","-9.2","","-11.1","","87","","","","32","","26","","24.1","","99.78","","","","-18","","Snow"
"-63.51","44.88","HALIFAX STANFIELD INT'L A","8202251","2021-02-12 12:00","2021","02","12","12:00","-7.9","","-9.5","","88","","","","31","","24","","24.1","","99.87","","","","-16","","Snow"
"-63.51","44.88","HALIFAX STANFIELD INT'L A","8202251","2021-02-12 13:00","2021","02","12","13:00","-6.5","","-8.0","","89","","","","32","","24","","24.1","","99.90","","","","-14","","NA"
"-63.51","44.88","HALIFAX STANFIELD INT'L A","8202251","2021-02-12 14:00","2021","02","12","14:00","-5.3","","-7.3","","86","","","","33","","31","","24.1","","99.88","","","","-14","","Cloudy"
"-63.51","44.88","HALIFAX STANFIELD INT'L A","8202251","2021-02-12 15:00","2021","02","12","15:00","-4.4","","-6.6","","85","","","","33","","27","","24.1","","99.98","","","","-12","","NA"
"-63.51","44.88","HALIFAX STANFIELD INT'L A","8202251","2021-02-12 16:00","2021","02","12","16:00","-4.2","","-6.3","","86","","","","33","","30","","24.1","","100.05","","","","-12","","NA"
"-63.51","44.88","HALIFAX STANFIELD INT'L A","8202251","2021-02-12 17:00","2021","02","12","17:00","-4.0","","-6.6","","82","","","","31","","24","","24.1","","100.20","","","","-11","","Cloudy"
"-63.51","44.88","HALIFAX STANFIELD INT'L A","8202251","2021-02-12 18:00","2021","02","12","18:00","-4.7","","-6.2","","89","","","","30","","17","","24.1","","100.23","","","","-11","","NA"
"-63.51","44.88","HALIFAX STANFIELD INT'L A","8202251","2021-02-12 19:00","2021","02","12","19:00","-4.8","","-6.2","","90","","","","31","","12","","24.1","","100.30","","","","-10","","NA"
"-63.51","44.88","HALIFAX STANFIELD INT'L A","8202251","2021-02-12 20:00","2021","02","12","20:00","-5.0","","-6.4","","90","","","","28","","10","","24.1","","100.37","","","","-9","","Cloudy"
"-63.51","44.88","HALIFAX STANFIELD INT'L A","8202251","2021-02-12 21:00","2021","02","12","21:00","-6.0","","-6.8","","94","","","","34","","4","","24.1","","100.28","","","","-8","","NA"
"-63.51","44.88","HALIFAX STANFIELD INT'L A","8202251","2021-02-12 22:00","2021","02","12","22:00","-6.6","","-7.3","","95","","","","24","","5","","24.1","","100.23","","","","-9","","NA"
"-63.51","44.88","HALIFAX STANFIELD INT'L A","8202251","2021-02-12 23:00","2021","02","12","23:00","-7.0","","-7.8","","94","","","","22","","14","","24.1","","100.25","","","","-13","","Mostly Cloudy"
"-63.51","44.88","HALIFAX STANFIELD INT'L A","8202251","2021-02-13 00:00","2021","02","13","00:00","-7.4","","-7.9","","96","","","","21","","17","","24.1","","100.28","","","","-14","","NA"
"-63.51","44.88","HALIFAX STANFIELD INT'L A","8202251","2021-02-13 01:00","2021","02","13","01:00","-6.9","","-7.6","","95","","","","23","","16","","24.1","","100.27","","","","-13","","NA"
"-63.51","44.88","HALIFAX STANFIELD INT'L A","8202251","2021-02-13 02:00","2021","02","13","02:00","-6.6","","-7.2","","95","","","","21","","15","","24.1","","100.24","","","","-13","","Cloudy"
"-63.51","44.88","HALIFAX STANFIELD INT'L A","8202251","2021-02-13 03:00","2021","02","13","03:00","-6.3","","-6.6","","98","","","","22","","16","","24.1","","100.26","","","","-12","","NA"
"-63.51","44.88","HALIFAX STANFIELD INT'L A","8202251","2021-02-13 04:00","2021","02","13","04:00","-5.9","","-6.8","","93","","","","25","","15","","24.1","","100.23","","","","-12","","NA"
"-63.51","44.88","HALIFAX STANFIELD INT'L A","8202251","2021-02-13 05:00","2021","02","13","05:00","-6.0","","-7.0","","93","","","","25","","13","","24.1","","100.20","","","","-11","","Cloudy"
"-63.51","44.88","HALIFAX STANFIELD INT'L A","8202251","2021-02-13 06:00","2021","02","13","06:00","-6.1","","-7.0","","93","","","","27","","15","","24.1","","100.19","","","","-12","","NA"
"-63.51","44.88","HALIFAX STANFIELD INT'L A","8202251","2021-02-13 07:00","2021","02","13","07:00","-6.6","","-7.5","","93","","","","27","","12","","24.1","","100.17","","","","-12","","NA"
"-63.51","44.88","HALIFAX STANFIELD INT'L A","8202251","2021-02-13 08:00","2021","02","13","08:00","-6.9","","-7.8","","93","","","","28","","18","","24.1","","100.25","","","","-14","","Mainly Clear"
"-63.51","44.88","HALIFAX STANFIELD INT'L A","8202251","2021-02-13 09:00","2021","02","13","09:00","-6.0","","-8.9","","80","","","","28","","19","","24.1","","100.32","","","","-13","","NA"
"-63.51","44.88","HALIFAX STANFIELD INT'L A","8202251","2021-02-13 10:00","2021","02","13","10:00","-5.7","","-7.7","","86","","","","32","","28","","3.2","","100.32","","","","-14","","Snow Showers"
"-63.51","44.88","HALIFAX STANFIELD INT'L A","8202251","2021-02-13 11:00","2021","02","13","11:00","-5.8","","-9.2","","77","","","","30","","25","","24.1","","100.35","","","","-13","","Snow Showers"
"-63.51","44.88","HALIFAX STANFIELD INT'L A","8202251","2021-02-13 12:00","2021","02","13","12:00","-5.3","","-9.2","","74","","","","32","","27","","24.1","","100.35","","","","-13","","Snow Showers"
"-63.51","44.88","HALIFAX STANFIELD INT'L A","8202251","2021-02-13 13:00","2021","02","13","13:00","-5.1","","-10.0","","69","","","","31","","22","","24.1","","100.33","","","","-12","","NA"
"-63.51","44.88","HALIFAX STANFIELD INT'L A","8202251","2021-02-13 14:00","2021","02","13","14:00","-4.6","","-10.0","","66","","","","30","","16","","24.1","","100.35","","","","-10","","Mostly Cloudy"
"-63.51","44.88","HALIFAX STANFIELD INT'L A","8202251","2021-02-13 15:00","2021","02","13","15:00","-4.6","","-10.0","","66","","","","33","","25","","24.1","","100.37","","","","-12","","NA"
"-63.51","44.88","HALIFAX STANFIELD INT'L A","8202251","2021-02-13 16:00","2021","02","13","16:00","-4.5","","-9.9","","66","","","","31","","18","","24.1","","100.40","","","","-11","","NA"
"-63.51","44.88","HALIFAX STANFIELD INT'L A","8202251","2021-02-13 17:00","2021","02","13","17:00","-5.5","","-10.0","","71","","","","31","","18","","24.1","","100.45","","","","-12","","Mostly Cloudy"
"-63.51","44.88","HALIFAX STANFIELD INT'L A","8202251","2021-02-13 18:00","2021","02","13","18:00","-7.2","","-10.4","","78","","","","32","","16","","24.1","","100.52","","","","-14","","NA"
"-63.51","44.88","HALIFAX STANFIELD INT'L A","8202251","2021-02-13 19:00","2021","02","13","19:00","-7.2","","-10.5","","77","","","","29","","11","","24.1","","100.61","","","","-12","","NA"
"-63.51","44.88","HALIFAX STANFIELD INT'L A","8202251","2021-02-13 20:00","2021","02","13","20:00","-8.0","","-10.7","","81","","","","27","","9","","24.1","","100.67","","","","-13","","Mainly Clear"
"-63.51","44.88","HALIFAX STANFIELD INT'L A","8202251","2021-02-13 21:00","2021","02","13","21:00","-8.3","","-11.5","","78","","","","23","","10","","24.1","","100.72","","","","-13","","NA"
"-63.51","44.88","HALIFAX STANFIELD INT'L A","8202251","2021-02-13 22:00","2021","02","13","22:00","-8.2","","-11.6","","77","","","","26","","13","","24.1","","100.72","","","","-14","","NA"
"-63.51","44.88","HALIFAX STANFIELD INT'L A","8202251","2021-02-13 23:00","2021","02","13","23:00","-8.8","","-11.7","","80","","","","29","","8","","24.1","","100.71","","","","-13","","Mainly Clear"
"-63.51","44.88","HALIFAX STANFIELD INT'L A","8202251","2021-02-14 00:00","2021","02","14","00:00","-8.8","","-11.3","","82","","","","31","","3","","24.1","","100.69","","","","-10","","NA"
"-63.51","44.88","HALIFAX STANFIELD INT'L A","8202251","2021-02-14 01:00","2021","02","14","01:00","-9.0","","-11.2","","84","","","","36","","6","","24.1","","100.72","","","","-12","","NA"
"-63.51","44.88","HALIFAX STANFIELD INT'L A","8202251","2021-02-14 02:00","2021","02","14","02:00","-9.4","","-11.4","","85","","","","36","","2","","24.1","","100.73","","","","-11","","Cloudy"
"-63.51","44.88","HALIFAX STANFIELD INT'L A","8202251","2021-02-14 03:00","2021","02","14","03:00","-9.3","","-11.3","","85","","","","36","","3","","24.1","","100.72","","","","-11","","NA"
"-63.51","44.88","HALIFAX STANFIELD INT'L A","8202251","2021-02-14 04:00","2021","02","14","04:00","-9.1","","-11.2","","85","","","","36","","1","","24.1","","100.72","","","","-10","","NA"
"-63.51","44.88","HALIFAX STANFIELD INT'L A","8202251","2021-02-14 05:00","2021","02","14","05:00","-8.7","","-10.9","","84","","","","9","","9","","24.1","","100.63","","","","-13","","Mostly Cloudy"
"-63.51","44.88","HALIFAX STANFIELD INT'L A","8202251","2021-02-14 06:00","2021","02","14","06:00","-10.0","","-11.7","","88","","","","12","","9","","24.1","","100.64","","","","-15","","NA"
"-63.51","44.88","HALIFAX STANFIELD INT'L A","8202251","2021-02-14 07:00","2021","02","14","07:00","-9.7","","-11.6","","86","","","","10","","9","","24.1","","100.65","","","","-15","","NA"
"-63.51","44.88","HALIFAX STANFIELD INT'L A","8202251","2021-02-14 08:00","2021","02","14","08:00","-8.3","","-11.7","","77","","","","10","","9","","24.1","","100.67","","","","-13","","Mostly Cloudy"
"-63.51","44.88","HALIFAX STANFIELD INT'L A","8202251","2021-02-14 09:00","2021","02","14","09:00","-7.8","","-11.2","","77","","","","11","","12","","24.1","","100.68","","","","-13","","NA"
"-63.51","44.88","HALIFAX STANFIELD INT'L A","8202251","2021-02-14 10:00","2021","02","14","10:00","-5.3","","-9.8","","71","","","","9","","5","","24.1","","100.72","","","","-8","","NA"
"-63.51","44.88","HALIFAX STANFIELD INT'L A","8202251","2021-02-14 11:00","2021","02","14","11:00","-3.8","","-8.0","","73","","","","14","","6","","24.1","","100.69","","","","-6","","Cloudy"
"-63.51","44.88","HALIFAX STANFIELD INT'L A","8202251","2021-02-14 12:00","2021","02","14","12:00","-2.8","","-6.7","","75","","","","13","","13","","24.1","","100.61","","","","-7","","NA"
"-63.51","44.88","HALIFAX STANFIELD INT'L A","8202251","2021-02-14 13:00","2021","02","14","13:00","-2.4","","-6.2","","75","","","","15","","11","","24.1","","100.52","","","","-6","","NA"
"-63.51","44.88","HALIFAX STANFIELD INT'L A","8202251","2021-02-14 14:00","2021","02","14","14:00","-2.1","","-6.0","","75","","","","13","","7","","24.1","","100.44","","","","-5","","Cloudy"
"-63.51","44.88","HALIFAX STANFIELD INT'L A","8202251","2021-02-14 15:00","2021","02","14","15:00","-1.9","","-5.7","","76","","","","17","","7","","24.1","","100.44","","","","-5","","NA"
"-63.51","44.88","HALIFAX STANFIELD INT'L A","8202251","2021-02-14 16:00","2021","02","14","16:00","-2.0","","-5.4","","77","","","","18","","6","","24.1","","100.44","","","","-4","","NA"
"-63.51","44.88","HALIFAX STANFIELD INT'L A","8202251","2021-02-14 17:00","2021","02","14","17:00","-2.2","","-5.5","","78","","","","19","","9","","24.1","","100.44","","","","-6","","Cloudy"
"-63.51","44.88","HALIFAX STANFIELD INT'L A","8202251","2021-02-14 18:00","2021","02","14","18:00","-2.5","","-5.2","","82","","","","21","","5","","24.1","","100.48","","","","-4","","NA"
"-63.51","44.88","HALIFAX STANFIELD INT'L A","8202251","2021-02-14 19:00","2021","02","14","19:00","-2.6","","-4.9","","84","","","","20","","7","","24.1","","100.54","","","","-5","","Snow"
"-63.51","44.88","HALIFAX STANFIELD INT'L A","8202251","2021-02-14 20:00","2021","02","14","20:00","-2.9","","-4.5","","89","","","","24","","9","","24.1","","100.57","","","","-6","","Snow"
"-63.51","44.88","HALIFAX STANFIELD INT'L A","8202251","2021-02-14 21:00","2021","02","14","21:00","-2.9","","-4.6","","88","","","","24","","7","","16.1","","100.59","","","","-6","","Snow"
"-63.51","44.88","HALIFAX STANFIELD INT'L A","8202251","2021-02-14 22:00","2021","02","14","22:00","-3.0","","-5.1","","86","","","","24","","7","","24.1","","100.58","","","","-6","","NA"
"-63.51","44.88","HALIFAX STANFIELD INT'L A","8202251","2021-02-14 23:00","2021","02","14","23:00","-3.0","","-5.5","","83","","","","27","","8","","24.1","","100.54","","","","-6","","Cloudy"
"-63.51","44.88","HALIFAX STANFIELD INT'L A","8202251","2021-02-15 00:00","2021","02","15","00:00","-3.2","","-5.4","","85","","","","30","","9","","24.1","","100.53","","","","-7","","NA"
"-63.51","44.88","HALIFAX STANFIELD INT'L A","8202251","2021-02-15 01:00","2021","02","15","01:00","-3.2","","-5.7","","83","","","","31","","10","","24.1","","100.52","","","","-7","","NA"
"-63.51","44.88","HALIFAX STANFIELD INT'L A","8202251","2021-02-15 02:00","2021","02","15","02:00","-3.2","","-5.2","","86","","","","30","","11","","24.1","","100.52","","","","-7","","Snow"
"-63.51","44.88","HALIFAX STANFIELD INT'L A","8202251","2021-02-15 03:00","2021","02","15","03:00","-4.4","","-5.5","","92","","","","33","","14","","24.1","","100.51","","","","-10","","NA"
"-63.51","44.88","HALIFAX STANFIELD INT'L A","8202251","2021-02-15 04:00","2021","02","15","04:00","-4.5","","-6.2","","88","","","","33","","20","","24.1","","100.51","","","","-11","","NA"
"-63.51","44.88","HALIFAX STANFIELD INT'L A","8202251","2021-02-15 05:00","2021","02","15","05:00","-5.9","","-9.2","","78","","","","34","","17","","24.1","","100.56","","","","-12","","Mostly Cloudy"
"-63.51","44.88","HALIFAX STANFIELD INT'L A","8202251","2021-02-15 06:00","2021","02","15","06:00","-6.5","","-9.6","","79","","","","35","","10","","24.1","","100.61","","","","-11","","NA"
"-63.51","44.88","HALIFAX STANFIELD INT'L A","8202251","2021-02-15 07:00","2021","02","15","07:00","-7.0","","-9.9","","80","","","","36","","15","","24.1","","100.53","","","","-13","","NA"
"-63.51","44.88","HALIFAX STANFIELD INT'L A","8202251","2021-02-15 08:00","2021","02","15","08:00","-7.0","","-10.3","","77","","","","36","","9","","24.1","","100.60","","","","-11","","Mostly Cloudy"
"-63.51","44.88","HALIFAX STANFIELD INT'L A","8202251","2021-02-15 09:00","2021","02","15","09:00","-6.7","","-10.2","","76","","","","36","","16","","24.1","","100.66","","","","-13","","NA"
"-63.51","44.88","HALIFAX STANFIELD INT'L A","8202251","2021-02-15 10:00","2021","02","15","10:00","-6.0","","-9.7","","75","","","","3","","10","","24.1","","100.58","","","","-10","","NA"
"-63.51","44.88","HALIFAX STANFIELD INT'L A","8202251","2021-02-15 11:00","2021","02","15","11:00","-5.0","","-9.5","","71","","","","35","","4","","24.1","","100.60","","","","-7","","Mainly Clear"
"-63.51","44.88","HALIFAX STANFIELD INT'L A","8202251","2021-02-15 12:00","2021","02","15","12:00","-3.7","","-9.5","","65","","","","34","","3","","24.1","","100.59","","","","-5","","NA"
"-63.51","44.88","HALIFAX STANFIELD INT'L A","8202251","2021-02-15 13:00","2021","02","15","13:00","-2.5","","-9.3","","60","","","","33","","11","","24.1","","100.52","","","","-7","","NA"
"-63.51","44.88","HALIFAX STANFIELD INT'L A","8202251","2021-02-15 14:00","2021","02","15","14:00","-1.5","","-9.2","","56","","","","2","","12","","24.1","","100.43","","","","-6","","Mostly Cloudy"
"-63.51","44.88","HALIFAX STANFIELD INT'L A","8202251","2021-02-15 15:00","2021","02","15","15:00","-0.9","","-9.9","","51","","","","0","","1","","24.1","","100.43","","","","-1","","NA"
"-63.51","44.88","HALIFAX STANFIELD INT'L A","8202251","2021-02-15 16:00","2021","02","15","16:00","-0.6","","-9.3","","52","","","","2","","4","","24.1","","100.38","","","","-2","","NA"
"-63.51","44.88","HALIFAX STANFIELD INT'L A","8202251","2021-02-15 17:00","2021","02","15","17:00","-1.4","","-9.7","","54","","","","2","","7","","24.1","","100.43","","","","-4","","Cloudy"
"-63.51","44.88","HALIFAX STANFIELD INT'L A","8202251","2021-02-15 18:00","2021","02","15","18:00","-1.4","","-9.5","","54","","","","6","","5","","24.1","","100.47","","","","-3","","NA"
"-63.51","44.88","HALIFAX STANFIELD INT'L A","8202251","2021-02-15 19:00","2021","02","15","19:00","-1.5","","-9.4","","55","","","","2","","5","","24.1","","100.47","","","","-3","","NA"
"-63.51","44.88","HALIFAX STANFIELD INT'L A","8202251","2021-02-15 20:00","2021","02","15","20:00","-2.0","","-8.6","","61","","","","1","","17","","24.1","","100.56","","","","-7","","Cloudy"
"-63.51","44.88","HALIFAX STANFIELD INT'L A","8202251","2021-02-15 21:00","2021","02","15","21:00","-2.6","","-8.4","","64","","","","4","","13","","24.1","","100.54","","","","-7","","Snow"
"-63.51","44.88","HALIFAX STANFIELD INT'L A","8202251","2021-02-15 22:00","2021","02","15","22:00","-2.9","","-8.1","","67","","","","3","","9","","24.1","","100.58","","","","-6","","Snow"
"-63.51","44.88","HALIFAX STANFIELD INT'L A","8202251","2021-02-15 23:00","2021","02","15","23:00","-3.3","","-7.5","","73","","","","8","","10","","24.1","","100.53","","","","-7","","Snow"
"-63.51","44.88","HALIFAX STANFIELD INT'L A","8202251","2021-02-16 00:00","2021","02","16","00:00","-3.5","","-8.0","","71","","","","8","","7","","24.1","","100.52","","","","-6","","Snow"
"-63.51","44.88","HALIFAX STANFIELD INT'L A","8202251","2021-02-16 01:00","2021","02","16","01:00","-3.5","","-8.4","","69","","","","7","","4","","24.1","","100.49","","","","-5","","Snow"
"-63.51","44.88","HALIFAX STANFIELD INT'L A","8202251","2021-02-16 02:00","2021","02","16","02:00","-3.5","","-8.7","","68","","","","4","","9","","24.1","","100.50","","","","-7","","Snow"
"-63.51","44.88","HALIFAX STANFIELD INT'L A","8202251","2021-02-16 03:00","2021","02","16","03:00","-3.8","","-8.7","","69","","","","5","","11","","24.1","","100.45","","","","-8","","Freezing Rain,Snow"
"-63.51","44.88","HALIFAX STANFIELD INT'L A","8202251","2021-02-16 04:00","2021","02","16","04:00","-4.0","","-8.7","","70","","","","10","","9","","24.1","","100.35","","","","-8","","Ice Pellets"
"-63.51","44.88","HALIFAX STANFIELD INT'L A","8202251","2021-02-16 05:00","2021","02","16","05:00","-4.0","","-7.7","","75","","","","6","","6","","24.1","","100.36","","","","-7","","Freezing Rain"
"-63.51","44.88","HALIFAX STANFIELD INT'L A","8202251","2021-02-16 06:00","2021","02","16","06:00","-4.2","","-7.7","","77","","","","8","","9","","24.1","","100.33","","","","-8","","NA"
"-63.51","44.88","HALIFAX STANFIELD INT'L A","8202251","2021-02-16 07:00","2021","02","16","07:00","-4.2","","-7.8","","76","","","","10","","13","","24.1","","100.23","","","","-9","","NA"
"-63.51","44.88","HALIFAX STANFIELD INT'L A","8202251","2021-02-16 08:00","2021","02","16","08:00","-4.0","","-7.1","","79","","","","10","","17","","24.1","","100.15","","","","-10","","Cloudy"
"-63.51","44.88","HALIFAX STANFIELD INT'L A","8202251","2021-02-16 09:00","2021","02","16","09:00","-3.8","","-3.8","","100","","","","11","","25","","4.8","","100.03","","","","-11","","Freezing Drizzle,Fog"
"-63.51","44.88","HALIFAX STANFIELD INT'L A","8202251","2021-02-16 10:00","2021","02","16","10:00","-3.7","","-3.7","","100","","","","10","","18","","4.8","","100.03","","","","-10","","Freezing Drizzle,Fog"
"-63.51","44.88","HALIFAX STANFIELD INT'L A","8202251","2021-02-16 11:00","2021","02","16","11:00","-2.9","","-2.9","","100","","","","5","","15","","2.4","","99.99","","","","-8","","Freezing Rain,Ice Pellets,Fog"
"-63.51","44.88","HALIFAX STANFIELD INT'L A","8202251","2021-02-16 12:00","2021","02","16","12:00","-2.7","","-2.7","","100","","","","7","","16","","3.2","","99.81","","","","-8","","Freezing Rain,Ice Pellets,Fog"
"-63.51","44.88","HALIFAX STANFIELD INT'L A","8202251","2021-02-16 13:00","2021","02","16","13:00","-2.2","","-2.2","","100","","","","10","","27","","1.6","","99.42","","","","-9","","Freezing Rain,Ice Pellets,Fog"
"-63.51","44.88","HALIFAX STANFIELD INT'L A","8202251","2021-02-16 14:00","2021","02","16","14:00","-1.4","","-1.4","","100","","","","11","","29","","3.2","","99.18","","","","-8","","Freezing Rain,Ice Pellets,Fog"
"-63.51","44.88","HALIFAX STANFIELD INT'L A","8202251","2021-02-16 15:00","2021","02","16","15:00","-0.3","","-0.3","","100","","","","12","","40","","2.4","","98.87","","","","-8","","Freezing Rain,Fog"
"-63.51","44.88","HALIFAX STANFIELD INT'L A","8202251","2021-02-16 16:00","2021","02","16","16:00","0.5","","0.5","","100","","","","13","","34","","1.6","","98.72","","","","","","Rain,Fog"
"-63.51","44.88","HALIFAX STANFIELD INT'L A","8202251","2021-02-16 17:00","2021","02","16","17:00","1.0","","1.0","","100","","","","14","","22","","2.4","","98.54","","","","","","Rain,Fog"
"-63.51","44.88","HALIFAX STANFIELD INT'L A","8202251","2021-02-16 18:00","2021","02","16","18:00","1.7","","1.7","","100","","","","14","","28","","1.6","","98.32","","","","","","Rain,Fog"
"-63.51","44.88","HALIFAX STANFIELD INT'L A","8202251","2021-02-16 19:00","2021","02","16","19:00","3.1","","3.1","","100","","","","14","","23","","1.2","","98.22","","","","","","Rain,Fog"
"-63.51","44.88","HALIFAX STANFIELD INT'L A","8202251","2021-02-16 20:00","2021","02","16","20:00","5.5","","5.5","","100","","","","18","","19","","0.2","","98.07","","","","","","Drizzle,Fog"
"-63.51","44.88","HALIFAX STANFIELD INT'L A","8202251","2021-02-16 21:00","2021","02","16","21:00","6.7","","6.7","","100","","","","19","","23","","0.2","","97.99","","","","","","Fog"
"-63.51","44.88","HALIFAX STANFIELD INT'L A","8202251","2021-02-16 22:00","2021","02","16","22:00","6.8","","6.8","","100","","","","19","","23","","0.2","","97.86","","","","","","Fog"
"-63.51","44.88","HALIFAX STANFIELD INT'L A","8202251","2021-02-16 23:00","2021","02","16","23:00","6.4","","6.4","","100","","","","20","","26","","0.2","","97.78","","","","","","Fog"
"-63.51","44.88","HALIFAX STANFIELD INT'L A","8202251","2021-02-17 00:00","2021","02","17","00:00","6.6","","6.6","","100","","","","22","","32","","1.2","","97.72","","","","","","Drizzle,Fog"
"-63.51","44.88","HALIFAX STANFIELD INT'L A","8202251","2021-02-17 01:00","2021","02","17","01:00","6.2","","6.2","","100","","","","23","","28","","24.1","","97.70","","","","","","NA"
"-63.51","44.88","HALIFAX STANFIELD INT'L A","8202251","2021-02-17 02:00","2021","02","17","02:00","6.1","","6.1","","100","","","","26","","37","","24.1","","97.86","","","","","","Cloudy"
"-63.51","44.88","HALIFAX STANFIELD INT'L A","8202251","2021-02-17 03:00","2021","02","17","03:00","4.9","","4.6","","98","","","","26","","35","","24.1","","97.97","","","","","","NA"
"-63.51","44.88","HALIFAX STANFIELD INT'L A","8202251","2021-02-17 04:00","2021","02","17","04:00","2.1","","1.5","","96","","","","28","","24","","24.1","","98.14","","","","","","NA"
"-63.51","44.88","HALIFAX STANFIELD INT'L A","8202251","2021-02-17 05:00","2021","02","17","05:00","0.8","","-0.5","","91","","","","29","","26","","24.1","","98.33","","","","","","Cloudy"
"-63.51","44.88","HALIFAX STANFIELD INT'L A","8202251","2021-02-17 06:00","2021","02","17","06:00","-0.2","","-2.4","","85","","","","30","","36","","24.1","","98.52","","","","-7","","NA"
"-63.51","44.88","HALIFAX STANFIELD INT'L A","8202251","2021-02-17 07:00","2021","02","17","07:00","-1.2","","-3.6","","84","","","","29","","38","","24.1","","98.62","","","","-9","","NA"
"-63.51","44.88","HALIFAX STANFIELD INT'L A","8202251","2021-02-17 08:00","2021","02","17","08:00","-1.6","","-4.1","","83","","","","29","","34","","24.1","","98.86","","","","-9","","Mostly Cloudy"
"-63.51","44.88","HALIFAX STANFIELD INT'L A","8202251","2021-02-17 09:00","2021","02","17","09:00","-2.6","","-5.4","","81","","","","29","","33","","24.1","","99.02","","","","-10","","NA"
"-63.51","44.88","HALIFAX STANFIELD INT'L A","8202251","2021-02-17 10:00","2021","02","17","10:00","-3.2","","-6.0","","81","","","","28","","41","","24.1","","99.16","","","","-12","","NA"
"-63.51","44.88","HALIFAX STANFIELD INT'L A","8202251","2021-02-17 11:00","2021","02","17","11:00","-3.4","","-6.8","","78","","","","28","","35","","24.1","","99.31","","","","-11","","Cloudy"
"-63.51","44.88","HALIFAX STANFIELD INT'L A","8202251","2021-02-17 12:00","2021","02","17","12:00","-3.3","","-7.2","","75","","","","30","","30","","24.1","","99.39","","","","-11","","NA"
"-63.51","44.88","HALIFAX STANFIELD INT'L A","8202251","2021-02-17 13:00","2021","02","17","13:00","-3.1","","-7.7","","71","","","","31","","29","","24.1","","99.45","","","","-10","","NA"
"-63.51","44.88","HALIFAX STANFIELD INT'L A","8202251","2021-02-17 14:00","2021","02","17","14:00","-2.5","","-8.0","","66","","","","30","","36","","24.1","","99.56","","","","-10","","Mostly Cloudy"
"-63.51","44.88","HALIFAX STANFIELD INT'L A","8202251","2021-02-17 15:00","2021","02","17","15:00","-2.6","","-7.6","","69","","","","32","","33","","24.1","","99.65","","","","-10","","NA"
"-63.51","44.88","HALIFAX STANFIELD INT'L A","8202251","2021-02-17 16:00","2021","02","17","16:00","-3.1","","-6.9","","75","","","","29","","22","","24.1","","99.77","","","","-9","","Snow"
"-63.51","44.88","HALIFAX STANFIELD INT'L A","8202251","2021-02-17 17:00","2021","02","17","17:00","-3.4","","-7.0","","76","","","","29","","30","","24.1","","99.89","","","","-11","","Snow"
"-63.51","44.88","HALIFAX STANFIELD INT'L A","8202251","2021-02-17 18:00","2021","02","17","18:00","-4.1","","-7.2","","79","","","","30","","22","","24.1","","100.01","","","","-11","","Snow"
"-63.51","44.88","HALIFAX STANFIELD INT'L A","8202251","2021-02-17 19:00","2021","02","17","19:00","-4.2","","-7.5","","78","","","","28","","21","","16.1","","100.21","","","","-11","","Snow"
"-63.51","44.88","HALIFAX STANFIELD INT'L A","8202251","2021-02-17 20:00","2021","02","17","20:00","-4.4","","-7.8","","77","","","","30","","24","","19.3","","100.28","","","","-11","","Snow"
"-63.51","44.88","HALIFAX STANFIELD INT'L A","8202251","2021-02-17 21:00","2021","02","17","21:00","-4.8","","-8.5","","75","","","","31","","24","","24.1","","100.41","","","","-12","","Snow"
"-63.51","44.88","HALIFAX STANFIELD INT'L A","8202251","2021-02-17 22:00","2021","02","17","22:00","-5.5","","-9.8","","72","","","","30","","30","","24.1","","100.48","","","","-14","","Snow"
"-63.51","44.88","HALIFAX STANFIELD INT'L A","8202251","2021-02-17 23:00","2021","02","17","23:00","-6.3","","-10.1","","75","","","","31","","26","","24.1","","100.56","","","","-14","","Snow"
"-63.51","44.88","HALIFAX STANFIELD INT'L A","8202251","2021-02-18 00:00","2021","02","18","00:00","-6.7","","-10.5","","75","","","","32","","30","","24.1","","100.57","","","","-15","","Snow"
"-63.51","44.88","HALIFAX STANFIELD INT'L A","8202251","2021-02-18 01:00","2021","02","18","01:00","-7.5","","-11.5","","73","","","","32","","21","","24.1","","100.67","","","","-15","","NA"
"-63.51","44.88","HALIFAX STANFIELD INT'L A","8202251","2021-02-18 02:00","2021","02","18","02:00","-8.0","","-12.0","","73","","","","30","","18","","24.1","","100.73","","","","-15","","Mostly Cloudy"
"-63.51","44.88","HALIFAX STANFIELD INT'L A","8202251","2021-02-18 03:00","2021","02","18","03:00","-8.3","","-12.7","","71","","","","30","","23","","24.1","","100.80","","","","-16","","NA"
"-63.51","44.88","HALIFAX STANFIELD INT'L A","8202251","2021-02-18 04:00","2021","02","18","04:00","-8.4","","-12.4","","73","","","","32","","22","","24.1","","100.78","","","","-16","","NA"
"-63.51","44.88","HALIFAX STANFIELD INT'L A","8202251","2021-02-18 05:00","2021","02","18","05:00","-8.9","","-12.9","","73","","","","31","","18","","24.1","","100.81","","","","-16","","Cloudy"
"-63.51","44.88","HALIFAX STANFIELD INT'L A","8202251","2021-02-18 06:00","2021","02","18","06:00","-9.1","","-12.8","","75","","","","32","","21","","24.1","","100.78","","","","-17","","NA"
"-63.51","44.88","HALIFAX STANFIELD INT'L A","8202251","2021-02-18 07:00","2021","02","18","07:00","-9.7","","-13.6","","73","","","","31","","25","","24.1","","100.87","","","","-18","","NA"
"-63.51","44.88","HALIFAX STANFIELD INT'L A","8202251","2021-02-18 08:00","2021","02","18","08:00","-9.7","","-14.0","","71","","","","31","","21","","24.1","","100.97","","","","-18","","Mainly Clear"
"-63.51","44.88","HALIFAX STANFIELD INT'L A","8202251","2021-02-18 09:00","2021","02","18","09:00","-9.0","","-13.3","","71","","","","31","","28","","24.1","","101.03","","","","-18","","NA"
"-63.51","44.88","HALIFAX STANFIELD INT'L A","8202251","2021-02-18 10:00","2021","02","18","10:00","-8.2","","-13.2","","67","","","","31","","27","","24.1","","101.03","","","","-17","","NA"
"-63.51","44.88","HALIFAX STANFIELD INT'L A","8202251","2021-02-18 11:00","2021","02","18","11:00","-7.5","","-13.5","","63","","","","30","","25","","24.1","","101.01","","","","-16","","Mostly Cloudy"
"-63.51","44.88","HALIFAX STANFIELD INT'L A","8202251","2021-02-18 12:00","2021","02","18","12:00","-7.2","","-14.0","","59","","","","29","","33","","24.1","","100.99","","","","-16","","NA"
"-63.51","44.88","HALIFAX STANFIELD INT'L A","8202251","2021-02-18 13:00","2021","02","18","13:00","-6.7","","-13.1","","61","","","","30","","22","","24.1","","100.91","","","","-14","","NA"
"-63.51","44.88","HALIFAX STANFIELD INT'L A","8202251","2021-02-18 14:00","2021","02","18","14:00","-5.9","","-13.6","","55","","","","32","","23","","24.1","","100.87","","","","-13","","Mostly Cloudy"
"-63.51","44.88","HALIFAX STANFIELD INT'L A","8202251","2021-02-18 15:00","2021","02","18","15:00","-5.6","","-13.7","","53","","","","31","","22","","24.1","","100.84","","","","-13","","NA"
"-63.51","44.88","HALIFAX STANFIELD INT'L A","8202251","2021-02-18 16:00","2021","02","18","16:00","-5.8","","-13.8","","53","","","","31","","22","","24.1","","100.79","","","","-13","","NA"
"-63.51","44.88","HALIFAX STANFIELD INT'L A","8202251","2021-02-18 17:00","2021","02","18","17:00","-6.3","","-13.1","","59","","","","30","","21","","24.1","","100.90","","","","-13","","Cloudy"
"-63.51","44.88","HALIFAX STANFIELD INT'L A","8202251","2021-02-18 18:00","2021","02","18","18:00","-6.7","","-12.8","","62","","","","31","","15","","24.1","","100.88","","","","-13","","NA"
"-63.51","44.88","HALIFAX STANFIELD INT'L A","8202251","2021-02-18 19:00","2021","02","18","19:00","-7.0","","-12.5","","65","","","","32","","14","","24.1","","100.96","","","","-13","","NA"
"-63.51","44.88","HALIFAX STANFIELD INT'L A","8202251","2021-02-18 20:00","2021","02","18","20:00","-7.1","","-12.6","","65","","","","28","","13","","24.1","","101.02","","","","-13","","Mostly Cloudy"
"-63.51","44.88","HALIFAX STANFIELD INT'L A","8202251","2021-02-18 21:00","2021","02","18","21:00","-7.5","","-12.5","","68","","","","27","","8","","24.1","","101.08","","","","-12","","NA"
"-63.51","44.88","HALIFAX STANFIELD INT'L A","8202251","2021-02-18 22:00","2021","02","18","22:00","-7.7","","-12.1","","71","","","","31","","6","","24.1","","101.00","","","","-11","","NA"
"-63.51","44.88","HALIFAX STANFIELD INT'L A","8202251","2021-02-18 23:00","2021","02","18","23:00","-8.6","","-12.2","","76","","","","32","","5","","24.1","","101.01","","","","-11","","Mainly Clear"
"-63.51","44.88","HALIFAX STANFIELD INT'L A","8202251","2021-02-19 00:00","2021","02","19","00:00","-8.1","","-12.1","","73","","","","32","","4","","24.1","","100.93","","","","-10","","NA"
"-63.51","44.88","HALIFAX STANFIELD INT'L A","8202251","2021-02-19 01:00","2021","02","19","01:00","-7.9","","-12.4","","70","","","","36","","5","","24.1","","100.91","","","","-11","","NA"
"-63.51","44.88","HALIFAX STANFIELD INT'L A","8202251","2021-02-19 02:00","2021","02","19","02:00","-8.1","","-12.8","","69","","","","33","","4","","24.1","","100.89","","","","-10","","Cloudy"
"-63.51","44.88","HALIFAX STANFIELD INT'L A","8202251","2021-02-19 03:00","2021","02","19","03:00","-8.0","","-13.5","","65","","","","1","","7","","24.1","","100.85","","","","-12","","NA"
"-63.51","44.88","HALIFAX STANFIELD INT'L A","8202251","2021-02-19 04:00","2021","02","19","04:00","-8.3","","-13.7","","66","","","","33","","4","","24.1","","100.86","","","","-10","","NA"
"-63.51","44.88","HALIFAX STANFIELD INT'L A","8202251","2021-02-19 05:00","2021","02","19","05:00","-8.2","","-13.2","","68","","","","32","","5","","24.1","","100.89","","","","-11","","Cloudy"
"-63.51","44.88","HALIFAX STANFIELD INT'L A","8202251","2021-02-19 06:00","2021","02","19","06:00","-8.4","","-13.5","","67","","","","2","","3","","24.1","","100.79","","","","-10","","NA"
"-63.51","44.88","HALIFAX STANFIELD INT'L A","8202251","2021-02-19 07:00","2021","02","19","07:00","-8.7","","-13.3","","70","","","","4","","3","","24.1","","100.75","","","","-10","","NA"
"-63.51","44.88","HALIFAX STANFIELD INT'L A","8202251","2021-02-19 08:00","2021","02","19","08:00","-8.4","","-13.2","","69","","","","35","","5","","24.1","","100.77","","","","-11","","Mostly Cloudy"
"-63.51","44.88","HALIFAX STANFIELD INT'L A","8202251","2021-02-19 09:00","2021","02","19","09:00","-7.7","","-13.0","","66","","","","3","","5","","24.1","","100.77","","","","-10","","NA"
"-63.51","44.88","HALIFAX STANFIELD INT'L A","8202251","2021-02-19 10:00","2021","02","19","10:00","-6.4","","-13.9","","56","","","","6","","4","","24.1","","100.69","","","","-8","","NA"
"-63.51","44.88","HALIFAX STANFIELD INT'L A","8202251","2021-02-19 11:00","2021","02","19","11:00","-5.4","","-14.3","","50","","","","22","","4","","24.1","","100.72","","","","-7","","Mostly Cloudy"
"-63.51","44.88","HALIFAX STANFIELD INT'L A","8202251","2021-02-19 12:00","2021","02","19","12:00","-4.8","","-14.3","","48","","","","31","","4","","24.1","","100.62","","","","-7","","NA"
"-63.51","44.88","HALIFAX STANFIELD INT'L A","8202251","2021-02-19 13:00","2021","02","19","13:00","-3.8","","-14.6","","43","","","","27","","3","","24.1","","100.57","","","","-5","","NA"
"-63.51","44.88","HALIFAX STANFIELD INT'L A","8202251","2021-02-19 14:00","2021","02","19","14:00","-3.0","","-15.8","","37","","","","32","","8","","24.1","","100.41","","","","-6","","Mostly Cloudy"
"-63.51","44.88","HALIFAX STANFIELD INT'L A","8202251","2021-02-19 15:00","2021","02","19","15:00","-3.1","","-12.7","","48","","","","3","","12","","24.1","","100.34","","","","-8","","NA"
"-63.51","44.88","HALIFAX STANFIELD INT'L A","8202251","2021-02-19 16:00","2021","02","19","16:00","-3.3","","-12.7","","49","","","","3","","9","","24.1","","100.29","","","","-7","","NA"
"-63.51","44.88","HALIFAX STANFIELD INT'L A","8202251","2021-02-19 17:00","2021","02","19","17:00","-3.4","","-13.9","","44","","","","1","","8","","24.1","","100.33","","","","-7","","Cloudy"
"-63.51","44.88","HALIFAX STANFIELD INT'L A","8202251","2021-02-19 18:00","2021","02","19","18:00","-3.8","","-13.9","","46","","","","3","","9","","24.1","","100.28","","","","-8","","NA"
"-63.51","44.88","HALIFAX STANFIELD INT'L A","8202251","2021-02-19 19:00","2021","02","19","19:00","-4.2","","-13.8","","48","","","","3","","4","","24.1","","100.25","","","","-6","","NA"
"-63.51","44.88","HALIFAX STANFIELD INT'L A","8202251","2021-02-19 20:00","2021","02","19","20:00","-4.6","","-13.9","","49","","","","4","","9","","24.1","","100.18","","","","-8","","Cloudy"
"-63.51","44.88","HALIFAX STANFIELD INT'L A","8202251","2021-02-19 21:00","2021","02","19","21:00","-5.2","","-11.7","","61","","","","4","","10","","24.1","","100.06","","","","-10","","NA"
"-63.51","44.88","HALIFAX STANFIELD INT'L A","8202251","2021-02-19 22:00","2021","02","19","22:00","-6.1","","-11.1","","68","","","","4","","16","","24.1","","100.00","","","","-12","","NA"
"-63.51","44.88","HALIFAX STANFIELD INT'L A","8202251","2021-02-19 23:00","2021","02","19","23:00","-6.4","","-12.8","","61","","","","5","","13","","24.1","","99.98","","","","-12","","Cloudy"
"-63.51","44.88","HALIFAX STANFIELD INT'L A","8202251","2021-02-20 00:00","2021","02","20","00:00","-6.8","","-13.8","","58","","","","4","","12","","24.1","","99.86","","","","-12","","NA"
"-63.51","44.88","HALIFAX STANFIELD INT'L A","8202251","2021-02-20 01:00","2021","02","20","01:00","-7.1","","-13.5","","61","","","","5","","11","","24.1","","99.82","","","","-12","","NA"
"-63.51","44.88","HALIFAX STANFIELD INT'L A","8202251","2021-02-20 02:00","2021","02","20","02:00","-7.2","","-13.5","","61","","","","4","","14","","24.1","","99.77","","","","-13","","Cloudy"
"-63.51","44.88","HALIFAX STANFIELD INT'L A","8202251","2021-02-20 03:00","2021","02","20","03:00","-7.4","","-12.5","","67","","","","4","","16","","24.1","","99.61","","","","-14","","NA"
"-63.51","44.88","HALIFAX STANFIELD INT'L A","8202251","2021-02-20 04:00","2021","02","20","04:00","-7.5","","-11.3","","74","","","","3","","12","","24.1","","99.54","","","","-13","","NA"
"-63.51","44.88","HALIFAX STANFIELD INT'L A","8202251","2021-02-20 05:00","2021","02","20","05:00","-7.6","","-10.5","","80","","","","2","","13","","24.1","","99.43","","","","-13","","Cloudy"
"-63.51","44.88","HALIFAX STANFIELD INT'L A","8202251","2021-02-20 06:00","2021","02","20","06:00","-7.7","","-9.6","","86","","","","3","","13","","4.8","","99.38","","","","-13","","Snow"
"-63.51","44.88","HALIFAX STANFIELD INT'L A","8202251","2021-02-20 07:00","2021","02","20","07:00","-7.8","","-8.7","","93","","","","2","","16","","2.4","","99.24","","","","-14","","Snow"
"-63.51","44.88","HALIFAX STANFIELD INT'L A","8202251","2021-02-20 08:00","2021","02","20","08:00","-7.7","","-7.8","","99","","","","36","","16","","2.0","","99.23","","","","-14","","Snow"
"-63.51","44.88","HALIFAX STANFIELD INT'L A","8202251","2021-02-20 09:00","2021","02","20","09:00","-7.3","","-7.4","","99","","","","1","","16","","1.6","","99.23","","","","-14","","Snow"
"-63.51","44.88","HALIFAX STANFIELD INT'L A","8202251","2021-02-20 10:00","2021","02","20","10:00","-6.6","","-6.9","","98","","","","3","","19","","1.2","","99.13","","","","-13","","Snow"
"-63.51","44.88","HALIFAX STANFIELD INT'L A","8202251","2021-02-20 11:00","2021","02","20","11:00","-5.8","","-6.2","","97","","","","2","","22","","1.6","","99.06","","","","-13","","Snow"
"-63.51","44.88","HALIFAX STANFIELD INT'L A","8202251","2021-02-20 12:00","2021","02","20","12:00","-5.4","","-5.9","","96","","","","36","","22","","1.2","","99.06","","","","-12","","Snow"
"-63.51","44.88","HALIFAX STANFIELD INT'L A","8202251","2021-02-20 13:00","2021","02","20","13:00","-5.2","","-5.9","","95","","","","1","","26","","1.0","","98.95","","","","-13","","Snow"
"-63.51","44.88","HALIFAX STANFIELD INT'L A","8202251","2021-02-20 14:00","2021","02","20","14:00","-4.8","","-5.3","","97","","","","34","","19","","1.2","","99.01","","","","-11","","Snow"
"-63.51","44.88","HALIFAX STANFIELD INT'L A","8202251","2021-02-20 15:00","2021","02","20","15:00","-4.9","","-5.5","","96","","","","36","","25","","1.0","","98.98","","","","-12","","Snow"
"-63.51","44.88","HALIFAX STANFIELD INT'L A","8202251","2021-02-20 16:00","2021","02","20","16:00","-4.9","","-5.7","","94","","","","36","","26","","1.6","","99.03","","","","-12","","Snow,Fog"
"-63.51","44.88","HALIFAX STANFIELD INT'L A","8202251","2021-02-20 17:00","2021","02","20","17:00","-5.2","","-5.6","","97","","","","35","","24","","4.0","","99.09","","","","-12","","Snow,Fog"
"-63.51","44.88","HALIFAX STANFIELD INT'L A","8202251","2021-02-20 18:00","2021","02","20","18:00","-5.4","","-5.4","","100","","","","34","","18","","2.0","","99.13","","","","-12","","Snow,Fog"
"-63.51","44.88","HALIFAX STANFIELD INT'L A","8202251","2021-02-20 19:00","2021","02","20","19:00","-5.6","","-5.6","","100","","","","35","","17","","4.0","","99.20","","","","-12","","Snow,Fog"
"-63.51","44.88","HALIFAX STANFIELD INT'L A","8202251","2021-02-20 20:00","2021","02","20","20:00","-5.8","","-5.8","","100","","","","34","","20","","4.8","","99.24","","","","-13","","Snow,Fog"
"-63.51","44.88","HALIFAX STANFIELD INT'L A","8202251","2021-02-20 21:00","2021","02","20","21:00","-6.2","","-6.2","","100","","","","34","","17","","6.4","","99.26","","","","-12","","Snow,Fog"
"-63.51","44.88","HALIFAX STANFIELD INT'L A","8202251","2021-02-20 22:00","2021","02","20","22:00","-7.7","","-7.7","","100","","","","32","","17","","19.3","","99.33","","","","-14","","Snow"
"-63.51","44.88","HALIFAX STANFIELD INT'L A","8202251","2021-02-20 23:00","2021","02","20","23:00","-7.2","","-7.2","","100","","","","33","","17","","24.1","","99.38","","","","-14","","Snow"
"-63.51","44.88","HALIFAX STANFIELD INT'L A","8202251","2021-02-21 00:00","2021","02","21","00:00","-6.6","","-6.6","","100","","","","33","","21","","2.4","","99.37","","","","-14","","Snow"
"-63.51","44.88","HALIFAX STANFIELD INT'L A","8202251","2021-02-21 01:00","2021","02","21","01:00","-6.3","","-6.3","","100","","","","33","","17","","2.4","","99.44","","","","-13","","Snow Showers"
"-63.51","44.88","HALIFAX STANFIELD INT'L A","8202251","2021-02-21 02:00","2021","02","21","02:00","-6.4","","-6.4","","100","","","","34","","22","","24.1","","99.52","","","","-14","","Snow Showers"
"-63.51","44.88","HALIFAX STANFIELD INT'L A","8202251","2021-02-21 03:00","2021","02","21","03:00","-6.7","","-6.8","","99","","","","34","","17","","24.1","","99.57","","","","-13","","Snow Showers"
"-63.51","44.88","HALIFAX STANFIELD INT'L A","8202251","2021-02-21 04:00","2021","02","21","04:00","-7.4","","-7.5","","99","","","","34","","20","","24.1","","99.63","","","","-15","","NA"
"-63.51","44.88","HALIFAX STANFIELD INT'L A","8202251","2021-02-21 05:00","2021","02","21","05:00","-7.3","","-7.7","","97","","","","33","","22","","24.1","","99.73","","","","-15","","Snow Showers"
"-63.51","44.88","HALIFAX STANFIELD INT'L A","8202251","2021-02-21 06:00","2021","02","21","06:00","-7.7","","-8.1","","97","","","","34","","23","","24.1","","99.80","","","","-15","","NA"
"-63.51","44.88","HALIFAX STANFIELD INT'L A","8202251","2021-02-21 07:00","2021","02","21","07:00","-8.6","","-9.1","","96","","","","33","","24","","24.1","","99.85","","","","-17","","NA"
"-63.51","44.88","HALIFAX STANFIELD INT'L A","8202251","2021-02-21 08:00","2021","02","21","08:00","-8.5","","-9.6","","92","","","","33","","24","","24.1","","99.97","","","","-17","","Mainly Clear"
"-63.51","44.88","HALIFAX STANFIELD INT'L A","8202251","2021-02-21 09:00","2021","02","21","09:00","-7.6","","-9.8","","84","","","","33","","24","","24.1","","100.04","","","","-16","","Blowing Snow"
"-63.51","44.88","HALIFAX STANFIELD INT'L A","8202251","2021-02-21 10:00","2021","02","21","10:00","-6.7","","-9.1","","83","","","","33","","32","","24.1","","100.09","","","","-15","","Blowing Snow"
"-63.51","44.88","HALIFAX STANFIELD INT'L A","8202251","2021-02-21 11:00","2021","02","21","11:00","-5.6","","-8.7","","79","","","","33","","30","","24.1","","100.14","","","","-14","","Blowing Snow"
"-63.51","44.88","HALIFAX STANFIELD INT'L A","8202251","2021-02-21 12:00","2021","02","21","12:00","-4.4","","-9.3","","69","","","","34","","26","","24.1","","100.19","","","","-12","","NA"
"-63.51","44.88","HALIFAX STANFIELD INT'L A","8202251","2021-02-21 13:00","2021","02","21","13:00","-4.2","","-10.2","","63","","","","33","","31","","24.1","","100.18","","","","-12","","NA"
"-63.51","44.88","HALIFAX STANFIELD INT'L A","8202251","2021-02-21 14:00","2021","02","21","14:00","-4.0","","-9.1","","68","","","","32","","26","","24.1","","100.23","","","","-11","","Mostly Cloudy"
"-63.51","44.88","HALIFAX STANFIELD INT'L A","8202251","2021-02-21 15:00","2021","02","21","15:00","-3.9","","-9.9","","63","","","","33","","32","","24.1","","100.28","","","","-12","","NA"
"-63.51","44.88","HALIFAX STANFIELD INT'L A","8202251","2021-02-21 16:00","2021","02","21","16:00","-3.4","","-9.0","","65","","","","32","","23","","24.1","","100.33","","","","-10","","NA"
"-63.51","44.88","HALIFAX STANFIELD INT'L A","8202251","2021-02-21 17:00","2021","02","21","17:00","-4.1","","-10.2","","63","","","","32","","32","","24.1","","100.39","","","","-12","","Mainly Clear"
"-63.51","44.88","HALIFAX STANFIELD INT'L A","8202251","2021-02-21 18:00","2021","02","21","18:00","-5.4","","-10.8","","66","","","","31","","17","","24.1","","100.50","","","","-11","","NA"
"-63.51","44.88","HALIFAX STANFIELD INT'L A","8202251","2021-02-21 19:00","2021","02","21","19:00","-5.9","","-11.4","","65","","","","29","","14","","24.1","","100.59","","","","-11","","NA"
"-63.51","44.88","HALIFAX STANFIELD INT'L A","8202251","2021-02-21 20:00","2021","02","21","20:00","-6.6","","-11.1","","71","","","","26","","14","","24.1","","100.59","","","","-12","","Clear"
"-63.51","44.88","HALIFAX STANFIELD INT'L A","8202251","2021-02-21 21:00","2021","02","21","21:00","-6.9","","-10.8","","74","","","","25","","17","","24.1","","100.59","","","","-13","","NA"
"-63.51","44.88","HALIFAX STANFIELD INT'L A","8202251","2021-02-21 22:00","2021","02","21","22:00","-6.4","","-10.7","","72","","","","25","","21","","24.1","","100.59","","","","-13","","NA"
"-63.51","44.88","HALIFAX STANFIELD INT'L A","8202251","2021-02-21 23:00","2021","02","21","23:00","-6.8","","-11.1","","72","","","","27","","16","","24.1","","100.60","","","","-13","","Clear"
"-63.51","44.88","HALIFAX STANFIELD INT'L A","8202251","2021-02-22 00:00","2021","02","22","00:00","-7.0","","-11.4","","71","","","","27","","16","","24.1","","100.59","","","","-13","","NA"
"-63.51","44.88","HALIFAX STANFIELD INT'L A","8202251","2021-02-22 01:00","2021","02","22","01:00","-6.3","","-10.9","","70","","","","29","","13","","24.1","","100.61","","","","-12","","NA"
"-63.51","44.88","HALIFAX STANFIELD INT'L A","8202251","2021-02-22 02:00","2021","02","22","02:00","-7.0","","-11.3","","72","","","","26","","10","","24.1","","100.62","","","","-12","","Clear"
"-63.51","44.88","HALIFAX STANFIELD INT'L A","8202251","2021-02-22 03:00","2021","02","22","03:00","-6.5","","-11.4","","68","","","","27","","13","","24.1","","100.61","","","","-12","","NA"
"-63.51","44.88","HALIFAX STANFIELD INT'L A","8202251","2021-02-22 04:00","2021","02","22","04:00","-6.9","","-11.9","","68","","","","27","","13","","24.1","","100.57","","","","-12","","NA"
"-63.51","44.88","HALIFAX STANFIELD INT'L A","8202251","2021-02-22 05:00","2021","02","22","05:00","-6.8","","-11.4","","70","","","","27","","14","","24.1","","100.56","","","","-13","","Clear"
"-63.51","44.88","HALIFAX STANFIELD INT'L A","8202251","2021-02-22 06:00","2021","02","22","06:00","-6.7","","-10.9","","72","","","","27","","18","","24.1","","100.62","","","","-13","","NA"
"-63.51","44.88","HALIFAX STANFIELD INT'L A","8202251","2021-02-22 07:00","2021","02","22","07:00","-7.3","","-10.8","","76","","","","28","","17","","24.1","","100.65","","","","-14","","NA"
"-63.51","44.88","HALIFAX STANFIELD INT'L A","8202251","2021-02-22 08:00","2021","02","22","08:00","-7.3","","-10.5","","78","","","","27","","13","","24.1","","100.64","","","","-13","","Mainly Clear"
"-63.51","44.88","HALIFAX STANFIELD INT'L A","8202251","2021-02-22 09:00","2021","02","22","09:00","-5.6","","-9.5","","74","","","","26","","18","","24.1","","100.63","","","","-12","","NA"
"-63.51","44.88","HALIFAX STANFIELD INT'L A","8202251","2021-02-22 10:00","2021","02","22","10:00","-4.0","","-8.4","","72","","","","25","","21","","24.1","","100.59","","","","-10","","NA"
"-63.51","44.88","HALIFAX STANFIELD INT'L A","8202251","2021-02-22 11:00","2021","02","22","11:00","-2.7","","-10.0","","58","","","","26","","23","","24.1","","100.56","","","","-9","","Mostly Cloudy"
"-63.51","44.88","HALIFAX STANFIELD INT'L A","8202251","2021-02-22 12:00","2021","02","22","12:00","-1.8","","-9.7","","55","","","","26","","23","","24.1","","100.49","","","","-8","","NA"
"-63.51","44.88","HALIFAX STANFIELD INT'L A","8202251","2021-02-22 13:00","2021","02","22","13:00","-1.0","","-9.0","","55","","","","24","","25","","24.1","","100.42","","","","-7","","NA"
"-63.51","44.88","HALIFAX STANFIELD INT'L A","8202251","2021-02-22 14:00","2021","02","22","14:00","-1.0","","-8.5","","57","","","","27","","24","","24.1","","100.35","","","","-7","","Cloudy"
"-63.51","44.88","HALIFAX STANFIELD INT'L A","8202251","2021-02-22 15:00","2021","02","22","15:00","-0.8","","-7.2","","62","","","","25","","25","","24.1","","100.29","","","","-7","","NA"
"-63.51","44.88","HALIFAX STANFIELD INT'L A","8202251","2021-02-22 16:00","2021","02","22","16:00","-1.0","","-6.2","","68","","","","21","","15","","24.1","","100.14","","","","-6","","NA"
"-63.51","44.88","HALIFAX STANFIELD INT'L A","8202251","2021-02-22 17:00","2021","02","22","17:00","-1.4","","-5.0","","77","","","","20","","18","","24.1","","100.06","","","","-7","","Cloudy"
"-63.51","44.88","HALIFAX STANFIELD INT'L A","8202251","2021-02-22 18:00","2021","02","22","18:00","-1.5","","-4.0","","83","","","","20","","13","","24.1","","100.09","","","","-6","","NA"
"-63.51","44.88","HALIFAX STANFIELD INT'L A","8202251","2021-02-22 19:00","2021","02","22","19:00","-1.7","","-3.1","","90","","","","20","","17","","24.1","","100.00","","","","-7","","NA"
"-63.51","44.88","HALIFAX STANFIELD INT'L A","8202251","2021-02-22 20:00","2021","02","22","20:00","-1.9","","-2.5","","96","","","","19","","14","","24.1","","99.89","","","","-7","","Cloudy"
"-63.51","44.88","HALIFAX STANFIELD INT'L A","8202251","2021-02-22 21:00","2021","02","22","21:00","-1.1","","-3.0","","87","","","","20","","22","","24.1","","99.81","","","","-7","","NA"
"-63.51","44.88","HALIFAX STANFIELD INT'L A","8202251","2021-02-22 22:00","2021","02","22","22:00","-1.0","","-3.2","","85","","","","17","","13","","24.1","","99.72","","","","-5","","NA"
"-63.51","44.88","HALIFAX STANFIELD INT'L A","8202251","2021-02-22 23:00","2021","02","22","23:00","-1.3","","-2.7","","90","","","","14","","16","","24.1","","99.55","","","","-6","","Cloudy"
"-63.51","44.88","HALIFAX STANFIELD INT'L A","8202251","2021-02-23 00:00","2021","02","23","00:00","-0.8","","-1.8","","93","","","","14","","19","","24.1","","99.31","","","","-6","","NA"
"-63.51","44.88","HALIFAX STANFIELD INT'L A","8202251","2021-02-23 01:00","2021","02","23","01:00","-0.6","","-0.9","","98","","","","14","","21","","3.2","","99.18","","","","-6","","Snow"
"-63.51","44.88","HALIFAX STANFIELD INT'L A","8202251","2021-02-23 02:00","2021","02","23","02:00","0.0","","0.0","","100","","","","14","","28","","3.2","","98.98","","","","-6","","Snow"
"-63.51","44.88","HALIFAX STANFIELD INT'L A","8202251","2021-02-23 03:00","2021","02","23","03:00","0.1","","0.1","","100","","","","13","","31","","3.2","","98.70","","","","","","Snow"
"-63.51","44.88","HALIFAX STANFIELD INT'L A","8202251","2021-02-23 04:00","2021","02","23","04:00","0.6","","0.6","","100","","","","14","","35","","6.4","","98.40","","","","","","Snow"
"-63.51","44.88","HALIFAX STANFIELD INT'L A","8202251","2021-02-23 05:00","2021","02","23","05:00","1.5","","1.5","","100","","","","12","","42","","9.7","","97.97","","","","","","Rain,Fog"
"-63.51","44.88","HALIFAX STANFIELD INT'L A","8202251","2021-02-23 06:00","2021","02","23","06:00","2.8","","2.8","","100","","","","17","","23","","9.7","","97.81","","","","","","Rain,Fog"
"-63.51","44.88","HALIFAX STANFIELD INT'L A","8202251","2021-02-23 07:00","2021","02","23","07:00","4.0","","4.0","","100","","","","19","","25","","4.8","","97.71","","","","","","Rain,Fog"
"-63.51","44.88","HALIFAX STANFIELD INT'L A","8202251","2021-02-23 08:00","2021","02","23","08:00","3.6","","3.6","","100","","","","20","","23","","12.9","","97.63","","","","","","Cloudy"
"-63.51","44.88","HALIFAX STANFIELD INT'L A","8202251","2021-02-23 09:00","2021","02","23","09:00","3.1","","3.1","","100","","","","22","","22","","24.1","","97.58","","","","","","NA"
"-63.51","44.88","HALIFAX STANFIELD INT'L A","8202251","2021-02-23 10:00","2021","02","23","10:00","2.4","","2.4","","100","","","","22","","17","","4.8","","97.56","","","","","","Drizzle,Fog"
"-63.51","44.88","HALIFAX STANFIELD INT'L A","8202251","2021-02-23 11:00","2021","02","23","11:00","2.6","","2.6","","100","","","","22","","25","","2.4","","97.55","","","","","","Drizzle,Fog"
"-63.51","44.88","HALIFAX STANFIELD INT'L A","8202251","2021-02-23 12:00","2021","02","23","12:00","2.8","","2.8","","100","","","","25","","22","","24.1","","97.51","","","","","","Drizzle"
"-63.51","44.88","HALIFAX STANFIELD INT'L A","8202251","2021-02-23 13:00","2021","02","23","13:00","3.4","","2.2","","92","","","","28","","20","","24.1","","97.50","","","","","","NA"
"-63.51","44.88","HALIFAX STANFIELD INT'L A","8202251","2021-02-23 14:00","2021","02","23","14:00","2.6","","0.0","","83","","","","28","","29","","24.1","","97.56","","","","","","Cloudy"
"-63.51","44.88","HALIFAX STANFIELD INT'L A","8202251","2021-02-23 15:00","2021","02","23","15:00","2.6","","0.1","","84","","","","30","","35","","24.1","","97.54","","","","","","NA"
"-63.51","44.88","HALIFAX STANFIELD INT'L A","8202251","2021-02-23 16:00","2021","02","23","16:00","1.5","","-0.3","","88","","","","30","","30","","19.3","","97.61","","","","","","Snow Showers"
"-63.51","44.88","HALIFAX STANFIELD INT'L A","8202251","2021-02-23 17:00","2021","02","23","17:00","1.4","","-0.7","","86","","","","28","","22","","24.1","","97.69","","","","","","Cloudy"
"-63.51","44.88","HALIFAX STANFIELD INT'L A","8202251","2021-02-23 18:00","2021","02","23","18:00","1.2","","-0.8","","86","","","","29","","23","","24.1","","97.77","","","","","","NA"
"-63.51","44.88","HALIFAX STANFIELD INT'L A","8202251","2021-02-23 19:00","2021","02","23","19:00","0.5","","0.4","","99","","","","31","","19","","9.7","","97.84","","","","","","Snow Showers"
"-63.51","44.88","HALIFAX STANFIELD INT'L A","8202251","2021-02-23 20:00","2021","02","23","20:00","0.4","","0.4","","100","","","","29","","19","","19.3","","97.88","","","","","","Snow Showers"
"-63.51","44.88","HALIFAX STANFIELD INT'L A","8202251","2021-02-23 21:00","2021","02","23","21:00","0.2","","0.2","","100","","","","31","","22","","6.4","","97.94","","","","","","Snow Showers"
"-63.51","44.88","HALIFAX STANFIELD INT'L A","8202251","2021-02-23 22:00","2021","02","23","22:00","-0.2","","-0.2","","100","","","","31","","26","","24.1","","97.94","","","","-6","","NA"
"-63.51","44.88","HALIFAX STANFIELD INT'L A","8202251","2021-02-23 23:00","2021","02","23","23:00","-1.1","","-1.1","","100","","","","33","","22","","24.1","","97.99","","","","-7","","Mostly Cloudy"
"-63.51","44.88","HALIFAX STANFIELD INT'L A","8202251","2021-02-24 00:00","2021","02","24","00:00","-0.9","","-1.3","","97","","","","31","","18","","24.1","","98.02","","","","-6","","NA"
"-63.51","44.88","HALIFAX STANFIELD INT'L A","8202251","2021-02-24 01:00","2021","02","24","01:00","-1.3","","-1.4","","99","","","","33","","17","","24.1","","98.05","","","","-6","","NA"
"-63.51","44.88","HALIFAX STANFIELD INT'L A","8202251","2021-02-24 02:00","2021","02","24","02:00","-0.9","","-1.2","","98","","","","31","","18","","24.1","","98.11","","","","-6","","Cloudy"
"-63.51","44.88","HALIFAX STANFIELD INT'L A","8202251","2021-02-24 03:00","2021","02","24","03:00","-0.7","","-1.1","","97","","","","32","","18","","24.1","","98.14","","","","-6","","NA"
"-63.51","44.88","HALIFAX STANFIELD INT'L A","8202251","2021-02-24 04:00","2021","02","24","04:00","-1.2","","-1.3","","99","","","","30","","19","","24.1","","98.22","","","","-7","","NA"
"-63.51","44.88","HALIFAX STANFIELD INT'L A","8202251","2021-02-24 05:00","2021","02","24","05:00","-1.1","","-1.1","","100","","","","31","","22","","24.1","","98.33","","","","-7","","Cloudy"
"-63.51","44.88","HALIFAX STANFIELD INT'L A","8202251","2021-02-24 06:00","2021","02","24","06:00","-1.0","","-1.1","","99","","","","31","","21","","24.1","","98.45","","","","-7","","NA"
"-63.51","44.88","HALIFAX STANFIELD INT'L A","8202251","2021-02-24 07:00","2021","02","24","07:00","-0.8","","-1.1","","98","","","","30","","13","","24.1","","98.51","","","","-5","","NA"
"-63.51","44.88","HALIFAX STANFIELD INT'L A","8202251","2021-02-24 08:00","2021","02","24","08:00","-0.6","","-0.7","","99","","","","29","","11","","24.1","","98.61","","","","-4","","Cloudy"
"-63.51","44.88","HALIFAX STANFIELD INT'L A","8202251","2021-02-24 09:00","2021","02","24","09:00","0.0","","-0.4","","97","","","","28","","12","","24.1","","98.71","","","","-4","","NA"
"-63.51","44.88","HALIFAX STANFIELD INT'L A","8202251","2021-02-24 10:00","2021","02","24","10:00","1.1","","-0.4","","89","","","","30","","24","","24.1","","98.76","","","","","","NA"
"-63.51","44.88","HALIFAX STANFIELD INT'L A","8202251","2021-02-24 11:00","2021","02","24","11:00","2.0","","-1.4","","78","","","","28","","26","","24.1","","98.79","","","","","","Mostly Cloudy"
"-63.51","44.88","HALIFAX STANFIELD INT'L A","8202251","2021-02-24 12:00","2021","02","24","12:00","2.7","","-1.0","","76","","","","31","","27","","24.1","","98.84","","","","","","NA"
"-63.51","44.88","HALIFAX STANFIELD INT'L A","8202251","2021-02-24 13:00","2021","02","24","13:00","2.7","","-1.3","","75","","","","28","","31","","24.1","","98.84","","","","","","NA"
"-63.51","44.88","HALIFAX STANFIELD INT'L A","8202251","2021-02-24 14:00","2021","02","24","14:00","2.9","","-2.0","","70","","","","31","","39","","24.1","","98.90","","","","","","Mostly Cloudy"
"-63.51","44.88","HALIFAX STANFIELD INT'L A","8202251","2021-02-24 15:00","2021","02","24","15:00","3.3","","-2.4","","66","","","","29","","34","","24.1","","98.95","","","","","","NA"
"-63.51","44.88","HALIFAX STANFIELD INT'L A","8202251","2021-02-24 16:00","2021","02","24","16:00","3.1","","-1.8","","70","","","","30","","25","","24.1","","99.03","","","","","","NA"
"-63.51","44.88","HALIFAX STANFIELD INT'L A","8202251","2021-02-24 17:00","2021","02","24","17:00","3.2","","-1.5","","71","","","","29","","23","","24.1","","99.06","","","","","","Mostly Cloudy"
"-63.51","44.88","HALIFAX STANFIELD INT'L A","8202251","2021-02-24 18:00","2021","02","24","18:00","3.1","","-1.8","","70","","","","27","","16","","24.1","","99.13","","","","","","NA"
"-63.51","44.88","HALIFAX STANFIELD INT'L A","8202251","2021-02-24 19:00","2021","02","24","19:00","1.8","","-1.6","","78","","","","24","","16","","24.1","","99.17","","","","","","NA"
"-63.51","44.88","HALIFAX STANFIELD INT'L A","8202251","2021-02-24 20:00","2021","02","24","20:00","2.4","","-1.7","","74","","","","25","","17","","24.1","","99.16","","","","","","Mostly Cloudy"
"-63.51","44.88","HALIFAX STANFIELD INT'L A","8202251","2021-02-24 21:00","2021","02","24","21:00","1.3","","-2.1","","78","","","","20","","12","","24.1","","99.10","","","","","","NA"
"-63.51","44.88","HALIFAX STANFIELD INT'L A","8202251","2021-02-24 22:00","2021","02","24","22:00","1.5","","-1.8","","79","","","","21","","16","","24.1","","99.08","","","","","","NA"
"-63.51","44.88","HALIFAX STANFIELD INT'L A","8202251","2021-02-24 23:00","2021","02","24","23:00","1.8","","-1.3","","80","","","","20","","16","","24.1","","99.01","","","","","","Cloudy"
"-63.51","44.88","HALIFAX STANFIELD INT'L A","8202251","2021-02-25 00:00","2021","02","25","00:00","1.8","","-0.5","","85","","","","21","","18","","24.1","","99.02","","","","","","NA"
"-63.51","44.88","HALIFAX STANFIELD INT'L A","8202251","2021-02-25 01:00","2021","02","25","01:00","1.6","","0.3","","91","","","","21","","16","","24.1","","98.99","","","","","","NA"
"-63.51","44.88","HALIFAX STANFIELD INT'L A","8202251","2021-02-25 02:00","2021","02","25","02:00","1.6","","1.3","","98","","","","19","","17","","24.1","","98.85","","","","","","Cloudy"
"-63.51","44.88","HALIFAX STANFIELD INT'L A","8202251","2021-02-25 03:00","2021","02","25","03:00","2.0","","2.0","","100","","","","20","","20","","16.1","","98.68","","","","","","Rain"
"-63.51","44.88","HALIFAX STANFIELD INT'L A","8202251","2021-02-25 04:00","2021","02","25","04:00","1.5","","1.5","","100","","","","18","","26","","8.1","","98.42","","","","","","Rain,Fog"
"-63.51","44.88","HALIFAX STANFIELD INT'L A","8202251","2021-02-25 05:00","2021","02","25","05:00","2.0","","2.0","","100","","","","19","","24","","9.7","","98.20","","","","","","Rain,Fog"
"-63.51","44.88","HALIFAX STANFIELD INT'L A","8202251","2021-02-25 06:00","2021","02","25","06:00","2.7","","2.7","","100","","","","20","","24","","8.1","","98.03","","","","","","Rain,Fog"
"-63.51","44.88","HALIFAX STANFIELD INT'L A","8202251","2021-02-25 07:00","2021","02","25","07:00","3.2","","3.2","","100","","","","21","","28","","9.7","","97.88","","","","","","Rain,Fog"
"-63.51","44.88","HALIFAX STANFIELD INT'L A","8202251","2021-02-25 08:00","2021","02","25","08:00","3.8","","3.8","","100","","","","22","","23","","24.1","","97.80","","","","","","Cloudy"
"-63.51","44.88","HALIFAX STANFIELD INT'L A","8202251","2021-02-25 09:00","2021","02","25","09:00","4.2","","4.2","","100","","","","24","","31","","19.3","","97.74","","","","","","NA"
"-63.51","44.88","HALIFAX STANFIELD INT'L A","8202251","2021-02-25 10:00","2021","02","25","10:00","5.2","","5.1","","99","","","","24","","27","","24.1","","97.69","","","","","","NA"
"-63.51","44.88","HALIFAX STANFIELD INT'L A","8202251","2021-02-25 11:00","2021","02","25","11:00","6.0","","3.7","","85","","","","25","","30","","24.1","","97.65","","","","","","Mostly Cloudy"
"-63.51","44.88","HALIFAX STANFIELD INT'L A","8202251","2021-02-25 12:00","2021","02","25","12:00","4.9","","2.4","","84","","","","26","","39","","24.1","","97.64","","","","","","Rain Showers"
"-63.51","44.88","HALIFAX STANFIELD INT'L A","8202251","2021-02-25 13:00","2021","02","25","13:00","2.0","","1.7","","98","","","","29","","33","","12.9","","97.76","","","","","","Rain Showers"
"-63.51","44.88","HALIFAX STANFIELD INT'L A","8202251","2021-02-25 14:00","2021","02","25","14:00","0.4","","-0.2","","96","","","","31","","35","","11.3","","97.98","","","","","","Snow Showers"
"-63.51","44.88","HALIFAX STANFIELD INT'L A","8202251","2021-02-25 15:00","2021","02","25","15:00","-0.2","","-1.3","","92","","","","30","","43","","4.8","","98.17","","","","-8","","Snow Showers"
"-63.51","44.88","HALIFAX STANFIELD INT'L A","8202251","2021-02-25 16:00","2021","02","25","16:00","-1.0","","-3.4","","84","","","","30","","32","","19.3","","98.33","","","","-8","","Snow Showers"
"-63.51","44.88","HALIFAX STANFIELD INT'L A","8202251","2021-02-25 17:00","2021","02","25","17:00","-1.7","","-5.3","","77","","","","29","","48","","24.1","","98.49","","","","-10","","Mostly Cloudy"
"-63.51","44.88","HALIFAX STANFIELD INT'L A","8202251","2021-02-25 18:00","2021","02","25","18:00","-1.9","","-7.6","","65","","","","30","","36","","24.1","","98.64","","","","-10","","NA"
"-63.51","44.88","HALIFAX STANFIELD INT'L A","8202251","2021-02-25 19:00","2021","02","25","19:00","-2.4","","-7.9","","66","","","","30","","35","","24.1","","98.74","","","","-10","","NA"
"-63.51","44.88","HALIFAX STANFIELD INT'L A","8202251","2021-02-25 20:00","2021","02","25","20:00","-2.3","","-7.4","","68","","","","30","","34","","24.1","","98.85","","","","-10","","Mostly Cloudy"
"-63.51","44.88","HALIFAX STANFIELD INT'L A","8202251","2021-02-25 21:00","2021","02","25","21:00","-3.3","","-10.8","","57","","","","31","","48","","24.1","","98.98","","","","-12","","NA"
"-63.51","44.88","HALIFAX STANFIELD INT'L A","8202251","2021-02-25 22:00","2021","02","25","22:00","-4.4","","-10.7","","62","","","","30","","36","","24.1","","99.10","","","","-13","","NA"
"-63.51","44.88","HALIFAX STANFIELD INT'L A","8202251","2021-02-25 23:00","2021","02","25","23:00","-5.1","","-11.6","","61","","","","30","","45","","24.1","","99.18","","","","-15","","Mainly Clear"
"-63.51","44.88","HALIFAX STANFIELD INT'L A","8202251","2021-02-26 00:00","2021","02","26","00:00","-5.7","","-11.6","","63","","","","31","","24","","24.1","","99.32","","","","-13","","NA"
"-63.51","44.88","HALIFAX STANFIELD INT'L A","8202251","2021-02-26 01:00","2021","02","26","01:00","-6.5","","-12.6","","62","","","","29","","38","","24.1","","99.38","","","","-16","","NA"
"-63.51","44.88","HALIFAX STANFIELD INT'L A","8202251","2021-02-26 02:00","2021","02","26","02:00","-7.8","","-13.4","","64","","","","31","","34","","24.1","","99.50","","","","-17","","Mainly Clear"
"-63.51","44.88","HALIFAX STANFIELD INT'L A","8202251","2021-02-26 03:00","2021","02","26","03:00","-8.6","","-13.9","","66","","","","30","","36","","24.1","","99.56","","","","-18","","NA"
"-63.51","44.88","HALIFAX STANFIELD INT'L A","8202251","2021-02-26 04:00","2021","02","26","04:00","-9.0","","-14.3","","66","","","","30","","33","","24.1","","99.64","","","","-19","","NA"
"-63.51","44.88","HALIFAX STANFIELD INT'L A","8202251","2021-02-26 05:00","2021","02","26","05:00","-9.3","","-14.0","","69","","","","30","","34","","24.1","","99.76","","","","-19","","Mainly Clear"
"-63.51","44.88","HALIFAX STANFIELD INT'L A","8202251","2021-02-26 06:00","2021","02","26","06:00","-9.9","","-14.9","","67","","","","30","","34","","24.1","","99.84","","","","-20","","NA"
"-63.51","44.88","HALIFAX STANFIELD INT'L A","8202251","2021-02-26 07:00","2021","02","26","07:00","-10.3","","-16.2","","63","","","","30","","34","","24.1","","99.92","","","","-20","","NA"
"-63.51","44.88","HALIFAX STANFIELD INT'L A","8202251","2021-02-26 08:00","2021","02","26","08:00","-10.0","","-15.7","","63","","","","30","","27","","24.1","","100.04","","","","-19","","Mainly Clear"
"-63.51","44.88","HALIFAX STANFIELD INT'L A","8202251","2021-02-26 09:00","2021","02","26","09:00","-9.8","","-16.6","","58","","","","31","","37","","24.1","","100.13","","","","-20","","NA"
"-63.51","44.88","HALIFAX STANFIELD INT'L A","8202251","2021-02-26 10:00","2021","02","26","10:00","-9.0","","-16.0","","57","","","","30","","44","","24.1","","100.18","","","","-20","","NA"
"-63.51","44.88","HALIFAX STANFIELD INT'L A","8202251","2021-02-26 11:00","2021","02","26","11:00","-8.2","","-14.6","","60","","","","31","","34","","24.1","","100.25","","","","-18","","Mainly Clear"
"-63.51","44.88","HALIFAX STANFIELD INT'L A","8202251","2021-02-26 12:00","2021","02","26","12:00","-7.7","","-14.8","","57","","","","32","","35","","24.1","","100.30","","","","-17","","NA"
"-63.51","44.88","HALIFAX STANFIELD INT'L A","8202251","2021-02-26 13:00","2021","02","26","13:00","-6.9","","-14.3","","56","","","","31","","37","","24.1","","100.35","","","","-16","","NA"
"-63.51","44.88","HALIFAX STANFIELD INT'L A","8202251","2021-02-26 14:00","2021","02","26","14:00","-7.0","","-16.2","","48","","","","30","","43","","24.1","","100.41","","","","-17","","Clear"
"-63.51","44.88","HALIFAX STANFIELD INT'L A","8202251","2021-02-26 15:00","2021","02","26","15:00","-6.6","","-16.1","","47","","","","30","","29","","24.1","","100.50","","","","-15","","NA"
"-63.51","44.88","HALIFAX STANFIELD INT'L A","8202251","2021-02-26 16:00","2021","02","26","16:00","-6.3","","-16.4","","45","","","","31","","31","","24.1","","100.59","","","","-15","","NA"
"-63.51","44.88","HALIFAX STANFIELD INT'L A","8202251","2021-02-26 17:00","2021","02","26","17:00","-6.4","","-16.4","","45","","","","31","","30","","24.1","","100.70","","","","-15","","Clear"
"-63.51","44.88","HALIFAX STANFIELD INT'L A","8202251","2021-02-26 18:00","2021","02","26","18:00","-7.5","","-15.1","","55","","","","30","","27","","24.1","","100.83","","","","-16","","NA"
"-63.51","44.88","HALIFAX STANFIELD INT'L A","8202251","2021-02-26 19:00","2021","02","26","19:00","-7.8","","-15.1","","56","","","","30","","20","","24.1","","101.04","","","","-15","","NA"
"-63.51","44.88","HALIFAX STANFIELD INT'L A","8202251","2021-02-26 20:00","2021","02","26","20:00","-8.2","","-14.8","","60","","","","29","","21","","24.1","","101.15","","","","-16","","Clear"
"-63.51","44.88","HALIFAX STANFIELD INT'L A","8202251","2021-02-26 21:00","2021","02","26","21:00","-8.7","","-14.4","","64","","","","31","","17","","24.1","","101.24","","","","-16","","NA"
"-63.51","44.88","HALIFAX STANFIELD INT'L A","8202251","2021-02-26 22:00","2021","02","26","22:00","-9.1","","-14.5","","65","","","","30","","13","","24.1","","101.34","","","","-15","","NA"
"-63.51","44.88","HALIFAX STANFIELD INT'L A","8202251","2021-02-26 23:00","2021","02","26","23:00","-9.5","","-14.5","","67","","","","28","","5","","24.1","","101.32","","","","-12","","Clear"
"-63.51","44.88","HALIFAX STANFIELD INT'L A","8202251","2021-02-27 00:00","2021","02","27","00:00","-10.2","","-15.3","","66","","","","22","","14","","24.1","","101.43","","","","-17","","NA"
"-63.51","44.88","HALIFAX STANFIELD INT'L A","8202251","2021-02-27 01:00","2021","02","27","01:00","-10.1","","-15.5","","65","","","","25","","11","","24.1","","101.44","","","","-16","","NA"
"-63.51","44.88","HALIFAX STANFIELD INT'L A","8202251","2021-02-27 02:00","2021","02","27","02:00","-9.5","","-15.5","","62","","","","27","","6","","24.1","","101.33","","","","-13","","Clear"
"-63.51","44.88","HALIFAX STANFIELD INT'L A","8202251","2021-02-27 03:00","2021","02","27","03:00","-10.9","","-16.2","","65","","","","19","","9","","24.1","","101.35","","","","-16","","NA"
"-63.51","44.88","HALIFAX STANFIELD INT'L A","8202251","2021-02-27 04:00","2021","02","27","04:00","-10.3","","-15.9","","64","","","","22","","8","","24.1","","101.40","","","","-15","","NA"
"-63.51","44.88","HALIFAX STANFIELD INT'L A","8202251","2021-02-27 05:00","2021","02","27","05:00","-9.2","","-15.5","","60","","","","25","","8","","24.1","","101.52","","","","-14","","Clear"
"-63.51","44.88","HALIFAX STANFIELD INT'L A","8202251","2021-02-27 06:00","2021","02","27","06:00","-10.6","","-15.2","","69","","","","22","","12","","24.1","","101.56","","","","-17","","NA"
"-63.51","44.88","HALIFAX STANFIELD INT'L A","8202251","2021-02-27 07:00","2021","02","27","07:00","-10.7","","-15.3","","69","","","","20","","16","","24.1","","101.51","","","","-18","","NA"
"-63.51","44.88","HALIFAX STANFIELD INT'L A","8202251","2021-02-27 08:00","2021","02","27","08:00","-8.3","","-14.0","","64","","","","18","","14","","24.1","","101.54","","","","-14","","Mainly Clear"
"-63.51","44.88","HALIFAX STANFIELD INT'L A","8202251","2021-02-27 09:00","2021","02","27","09:00","-5.2","","-12.6","","57","","","","20","","12","","24.1","","101.57","","","","-10","","NA"
"-63.51","44.88","HALIFAX STANFIELD INT'L A","8202251","2021-02-27 10:00","2021","02","27","10:00","-2.8","","-11.1","","53","","","","21","","17","","24.1","","101.56","","","","-8","","NA"
"-63.51","44.88","HALIFAX STANFIELD INT'L A","8202251","2021-02-27 11:00","2021","02","27","11:00","-1.2","","-9.9","","52","","","","21","","21","","24.1","","101.41","","","","-7","","Mostly Cloudy"
"-63.51","44.88","HALIFAX STANFIELD INT'L A","8202251","2021-02-27 12:00","2021","02","27","12:00","0.2","","-8.5","","52","","","","21","","20","","24.1","","101.36","","","","","","NA"
"-63.51","44.88","HALIFAX STANFIELD INT'L A","8202251","2021-02-27 13:00","2021","02","27","13:00","1.0","","-7.7","","52","","","","20","","28","","24.1","","101.30","","","","","","NA"
"-63.51","44.88","HALIFAX STANFIELD INT'L A","8202251","2021-02-27 14:00","2021","02","27","14:00","0.5","","-7.5","","55","","","","17","","24","","24.1","","101.24","","","","","","Mostly Cloudy"
"-63.51","44.88","HALIFAX STANFIELD INT'L A","8202251","2021-02-27 15:00","2021","02","27","15:00","0.7","","-6.3","","60","","","","18","","28","","24.1","","101.12","","","","","","NA"
"-63.51","44.88","HALIFAX STANFIELD INT'L A","8202251","2021-02-27 16:00","2021","02","27","16:00","0.1","","-4.6","","71","","","","16","","22","","24.1","","101.04","","","","","","NA"
"-63.51","44.88","HALIFAX STANFIELD INT'L A","8202251","2021-02-27 17:00","2021","02","27","17:00","-0.8","","-4.2","","78","","","","17","","29","","24.1","","100.88","","","","-7","","Cloudy"
"-63.51","44.88","HALIFAX STANFIELD INT'L A","8202251","2021-02-27 18:00","2021","02","27","18:00","-0.7","","-3.1","","84","","","","16","","27","","24.1","","100.62","","","","-7","","NA"
"-63.51","44.88","HALIFAX STANFIELD INT'L A","8202251","2021-02-27 19:00","2021","02","27","19:00","0.2","","-2.1","","84","","","","17","","24","","24.1","","100.55","","","","","","NA"
"-63.51","44.88","HALIFAX STANFIELD INT'L A","8202251","2021-02-27 20:00","2021","02","27","20:00","0.8","","-0.1","","94","","","","16","","27","","2.0","","100.37","","","","","","Snow"
"-63.51","44.88","HALIFAX STANFIELD INT'L A","8202251","2021-02-27 21:00","2021","02","27","21:00","0.5","","0.5","","100","","","","16","","31","","2.4","","100.14","","","","","","Snow"
"-63.51","44.88","HALIFAX STANFIELD INT'L A","8202251","2021-02-27 22:00","2021","02","27","22:00","2.1","","2.1","","100","","","","16","","32","","4.8","","99.84","","","","","","Rain"
"-63.51","44.88","HALIFAX STANFIELD INT'L A","8202251","2021-02-27 23:00","2021","02","27","23:00","2.7","","2.7","","100","","","","16","","23","","4.8","","99.56","","","","","","Rain"
"-63.51","44.88","HALIFAX STANFIELD INT'L A","8202251","2021-02-28 00:00","2021","02","28","00:00","3.7","","3.7","","100","","","","15","","32","","4.8","","99.19","","","","","","Rain,Fog"
"-63.51","44.88","HALIFAX STANFIELD INT'L A","8202251","2021-02-28 01:00","2021","02","28","01:00","4.2","","4.2","","100","","","","17","","27","","4.8","","99.02","","","","","","Rain,Fog"
"-63.51","44.88","HALIFAX STANFIELD INT'L A","8202251","2021-02-28 02:00","2021","02","28","02:00","5.3","","5.3","","100","","","","23","","34","","9.7","","98.89","","","","","","Drizzle,Fog"
"-63.51","44.88","HALIFAX STANFIELD INT'L A","8202251","2021-02-28 03:00","2021","02","28","03:00","4.5","","4.2","","98","","","","27","","33","","24.1","","98.97","","","","","","NA"
"-63.51","44.88","HALIFAX STANFIELD INT'L A","8202251","2021-02-28 04:00","2021","02","28","04:00","3.5","","2.9","","96","","","","28","","28","","24.1","","99.09","","","","","","NA"
"-63.51","44.88","HALIFAX STANFIELD INT'L A","8202251","2021-02-28 05:00","2021","02","28","05:00","2.3","","0.3","","87","","","","29","","38","","24.1","","99.26","","","","","","Cloudy"
"-63.51","44.88","HALIFAX STANFIELD INT'L A","8202251","2021-02-28 06:00","2021","02","28","06:00","2.0","","-0.3","","85","","","","29","","37","","24.1","","99.36","","","","","","NA"
"-63.51","44.88","HALIFAX STANFIELD INT'L A","8202251","2021-02-28 07:00","2021","02","28","07:00","1.6","","-0.7","","85","","","","30","","32","","24.1","","99.49","","","","","","NA"
"-63.51","44.88","HALIFAX STANFIELD INT'L A","8202251","2021-02-28 08:00","2021","02","28","08:00","1.5","","-1.4","","81","","","","30","","36","","24.1","","99.70","","","","","","Mostly Cloudy"
"-63.51","44.88","HALIFAX STANFIELD INT'L A","8202251","2021-02-28 09:00","2021","02","28","09:00","1.5","","-2.2","","77","","","","32","","37","","24.1","","99.86","","","","","","NA"
"-63.51","44.88","HALIFAX STANFIELD INT'L A","8202251","2021-02-28 10:00","2021","02","28","10:00","1.8","","-3.1","","70","","","","33","","45","","24.1","","99.95","","","","","","NA"
"-63.51","44.88","HALIFAX STANFIELD INT'L A","8202251","2021-02-28 11:00","2021","02","28","11:00","2.4","","-2.4","","71","","","","33","","39","","24.1","","100.02","","","","","","Mostly Cloudy"
"-63.51","44.88","HALIFAX STANFIELD INT'L A","8202251","2021-02-28 12:00","2021","02","28","12:00","3.0","","-2.3","","68","","","","33","","36","","24.1","","100.07","","","","","","NA"
"-63.51","44.88","HALIFAX STANFIELD INT'L A","8202251","2021-02-28 13:00","2021","02","28","13:00","3.4","","-2.9","","63","","","","33","","34","","24.1","","100.09","","","","","","NA"
"-63.51","44.88","HALIFAX STANFIELD INT'L A","8202251","2021-02-28 14:00","2021","02","28","14:00","4.3","","-2.6","","61","","","","33","","34","","24.1","","100.08","","","","","","Mainly Clear"
"-63.51","44.88","HALIFAX STANFIELD INT'L A","8202251","2021-02-28 15:00","2021","02","28","15:00","4.7","","-3.3","","56","","","","33","","34","","24.1","","100.17","","","","","","NA"
"-63.51","44.88","HALIFAX STANFIELD INT'L A","8202251","2021-02-28 16:00","2021","02","28","16:00","4.6","","-3.0","","58","","","","32","","26","","24.1","","100.26","","","","","","NA"
"-63.51","44.88","HALIFAX STANFIELD INT'L A","8202251","2021-02-28 17:00","2021","02","28","17:00","4.1","","-3.5","","58","","","","33","","23","","24.1","","100.34","","","","","","Mainly Clear"
"-63.51","44.88","HALIFAX STANFIELD INT'L A","8202251","2021-02-28 18:00","2021","02","28","18:00","2.4","","-2.9","","68","","","","32","","17","","24.1","","100.43","","","","","","NA"
"-63.51","44.88","HALIFAX STANFIELD INT'L A","8202251","2021-02-28 19:00","2021","02","28","19:00","1.7","","-2.4","","74","","","","31","","16","","24.1","","100.49","","","","","","NA"
"-63.51","44.88","HALIFAX STANFIELD INT'L A","8202251","2021-02-28 20:00","2021","02","28","20:00","0.6","","-3.3","","75","","","","6","","9","","24.1","","100.55","","","","","","Mostly Cloudy"
"-63.51","44.88","HALIFAX STANFIELD INT'L A","8202251","2021-02-28 21:00","2021","02","28","21:00","-0.4","","-3.8","","78","","","","2","","3","","24.1","","100.61","","","","-1","","NA"
"-63.51","44.88","HALIFAX STANFIELD INT'L A","8202251","2021-02-28 22:00","2021","02","28","22:00","-1.0","","-3.6","","82","","","","1","","10","","24.1","","100.57","","","","-5","","NA"
"-63.51","44.88","HALIFAX STANFIELD INT'L A","8202251","2021-02-28 23:00","2021","02","28","23:00","-2.0","","-3.6","","89","","","","1","","8","","24.1","","100.50","","","","-5","","Clear"
