"Longitude (x)","Latitude (y)","Station Name","Climate ID","Date/Time (LST)","Year","Month","Day","Time (LST)","Temp (°C)","Temp Flag","Dew Point Temp (°C)","Dew Point Temp Flag","Rel Hum (%)","Rel Hum Flag","Precip. Amount (mm)","Precip. Amount Flag","Wind Dir (10s deg)","Wind Dir Flag","Wind Spd (km/h)","Wind Spd Flag","Visibility (km)","Visibility Flag","Stn Press (kPa)","Stn Press Flag","Hmdx","Hmdx Flag","Wind Chill","Wind Chill Flag","Weather"
"-63.51","44.88","HALIFAX STANFIELD INT'L A","8202251","2022-01-01 00:00","2022","01","01","00:00","1.7","","1.7","","100","","","","14","","10","","0.2","","99.83","","","","","","Rain,Drizzle,Fog"
"-63.51","44.88","HALIFAX STANFIELD INT'L A","8202251","2022-01-01 01:00","2022","01","01","01:00","1.9","","1.9","","100","","","","13","","10","","0.2","","99.83","","","","","","Drizzle,Fog"
"-63.51","44.88","HALIFAX STANFIELD INT'L A","8202251","2022-01-01 02:00","2022","01","01","02:00","2.0","","2.0","","100","","","","14","","11","","0.2","","99.86","","","","","","Drizzle,Fog"
"-63.51","44.88","HALIFAX STANFIELD INT'L A","8202251","2022-01-01 03:00","2022","01","01","03:00","2.0","","2.0","","100","","","","12","","10","","0.2","","99.87","","","","","","Fog"
"-63.51","44.88","HALIFAX STANFIELD INT'L A","8202251","2022-01-01 04:00","2022","01","01","04:00","2.4","","2.4","","100","","","","14","","13","","0.2","","99.84","","","","","","Fog"
"-63.51","44.88","HALIFAX STANFIELD INT'L A","8202251","2022-01-01 05:00","2022","01","01","05:00","2.9","","2.8","","100","","","","16","","13","","0.2","","99.80","","","","","","Fog"
"-63.51","44.88","HALIFAX STANFIELD INT'L A","8202251","2022-01-01 06:00","2022","01","01","06:00","3.1","","3.1","","100","","","","16","","14","","0.2","","99.80","","","","","","Rain,Drizzle,Fog"
"-63.51","44.88","HALIFAX STANFIELD INT'L A","8202251","2022-01-01 07:00","2022","01","01","07:00","3.3","","3.3","","100","","","","18","","13","","0.2","","99.85","","","","","","Fog"
"-63.51","44.88","HALIFAX STANFIELD INT'L A","8202251","2022-01-01 08:00","2022","01","01","08:00","3.5","","3.5","","100","","","","15","","13","","0.4","","99.83","","","","","","Drizzle,Fog"
"-63.51","44.88","HALIFAX STANFIELD INT'L A","8202251","2022-01-01 09:00","2022","01","01","09:00","3.8","","3.8","","100","","","","17","","12","","0.2","","99.87","","","","","","Drizzle,Fog"
"-63.51","44.88","HALIFAX STANFIELD INT'L A","8202251","2022-01-01 10:00","2022","01","01","10:00","4.2","","4.2","","100","","","","17","","15","","0.2","","99.90","","","","","","Drizzle,Fog"
"-63.51","44.88","HALIFAX STANFIELD INT'L A","8202251","2022-01-01 11:00","2022","01","01","11:00","4.7","","4.7","","100","","","","17","","13","","0.2","","99.82","","","","","","Drizzle,Fog"
"-63.51","44.88","HALIFAX STANFIELD INT'L A","8202251","2022-01-01 12:00","2022","01","01","12:00","5.0","","5.0","","100","","","","20","","11","","0.2","","99.80","","","","","","Drizzle,Fog"
"-63.51","44.88","HALIFAX STANFIELD INT'L A","8202251","2022-01-01 13:00","2022","01","01","13:00","5.4","","5.4","","100","","","","18","","10","","0.6","","99.68","","","","","","Rain,Drizzle,Fog"
"-63.51","44.88","HALIFAX STANFIELD INT'L A","8202251","2022-01-01 14:00","2022","01","01","14:00","5.7","","5.7","","100","","","","16","","11","","0.8","","99.64","","","","","","Fog"
"-63.51","44.88","HALIFAX STANFIELD INT'L A","8202251","2022-01-01 15:00","2022","01","01","15:00","5.4","","5.4","","100","","","","16","","17","","4.0","","99.57","","","","","","Fog"
"-63.51","44.88","HALIFAX STANFIELD INT'L A","8202251","2022-01-01 16:00","2022","01","01","16:00","4.9","","4.9","","100","","","","16","","14","","0.4","","99.59","","","","","","Fog"
"-63.51","44.88","HALIFAX STANFIELD INT'L A","8202251","2022-01-01 17:00","2022","01","01","17:00","4.6","","4.6","","100","","","","15","","15","","0.4","","99.58","","","","","","Rain,Fog"
"-63.51","44.88","HALIFAX STANFIELD INT'L A","8202251","2022-01-01 18:00","2022","01","01","18:00","4.2","","4.2","","100","","","","14","","16","","0.4","","99.47","","","","","","Rain,Fog"
"-63.51","44.88","HALIFAX STANFIELD INT'L A","8202251","2022-01-01 19:00","2022","01","01","19:00","4.4","","4.4","","100","","","","14","","18","","0.4","","99.43","","","","","","Rain,Fog"
"-63.51","44.88","HALIFAX STANFIELD INT'L A","8202251","2022-01-01 20:00","2022","01","01","20:00","4.7","","4.7","","100","","","","14","","17","","1.6","","99.37","","","","","","Rain,Fog"
"-63.51","44.88","HALIFAX STANFIELD INT'L A","8202251","2022-01-01 21:00","2022","01","01","21:00","5.1","","5.1","","100","","","","13","","21","","1.2","","99.23","","","","","","Rain,Fog"
"-63.51","44.88","HALIFAX STANFIELD INT'L A","8202251","2022-01-01 22:00","2022","01","01","22:00","6.3","","6.3","","100","","","","15","","21","","2.4","","99.10","","","","","","Rain,Fog"
"-63.51","44.88","HALIFAX STANFIELD INT'L A","8202251","2022-01-01 23:00","2022","01","01","23:00","6.8","","6.8","","100","","","","18","","20","","2.4","","99.04","","","","","","Rain,Fog"
"-63.51","44.88","HALIFAX STANFIELD INT'L A","8202251","2022-01-02 00:00","2022","01","02","00:00","6.6","","6.6","","100","","","","17","","17","","0.8","","98.94","","","","","","Drizzle,Fog"
"-63.51","44.88","HALIFAX STANFIELD INT'L A","8202251","2022-01-02 01:00","2022","01","02","01:00","6.5","","6.5","","100","","","","16","","16","","0.2","","98.90","","","","","","Rain,Drizzle,Fog"
"-63.51","44.88","HALIFAX STANFIELD INT'L A","8202251","2022-01-02 02:00","2022","01","02","02:00","6.8","","6.8","","100","","","","18","","14","","2.0","","98.85","","","","","","Rain,Fog"
"-63.51","44.88","HALIFAX STANFIELD INT'L A","8202251","2022-01-02 03:00","2022","01","02","03:00","7.0","","7.0","","100","","","","16","","12","","0.8","","98.75","","","","","","Rain,Fog"
"-63.51","44.88","HALIFAX STANFIELD INT'L A","8202251","2022-01-02 04:00","2022","01","02","04:00","7.2","","7.2","","100","","","","14","","13","","1.2","","98.64","","","","","","Rain,Fog"
"-63.51","44.88","HALIFAX STANFIELD INT'L A","8202251","2022-01-02 05:00","2022","01","02","05:00","6.8","","6.8","","100","","","","10","","12","","0.4","","98.47","","","","","","Rain,Drizzle,Fog"
"-63.51","44.88","HALIFAX STANFIELD INT'L A","8202251","2022-01-02 06:00","2022","01","02","06:00","6.8","","6.8","","100","","","","12","","13","","0.8","","98.42","","","","","","Rain,Drizzle,Fog"
"-63.51","44.88","HALIFAX STANFIELD INT'L A","8202251","2022-01-02 07:00","2022","01","02","07:00","6.8","","6.8","","100","","","","10","","10","","0.8","","98.34","","","","","","Drizzle,Fog"
"-63.51","44.88","HALIFAX STANFIELD INT'L A","8202251","2022-01-02 08:00","2022","01","02","08:00","6.8","","6.8","","100","","","","9","","7","","0.4","","98.25","","","","","","Drizzle,Fog"
"-63.51","44.88","HALIFAX STANFIELD INT'L A","8202251","2022-01-02 09:00","2022","01","02","09:00","6.4","","6.4","","100","","","","36","","7","","0.4","","98.20","","","","","","Drizzle,Fog"
"-63.51","44.88","HALIFAX STANFIELD INT'L A","8202251","2022-01-02 10:00","2022","01","02","10:00","7.0","","7.0","","100","","","","34","","6","","0.2","","98.19","","","","","","Drizzle,Fog"
"-63.51","44.88","HALIFAX STANFIELD INT'L A","8202251","2022-01-02 11:00","2022","01","02","11:00","7.5","","7.5","","100","","","","35","","5","","0.4","","98.11","","","","","","Drizzle,Fog"
"-63.51","44.88","HALIFAX STANFIELD INT'L A","8202251","2022-01-02 12:00","2022","01","02","12:00","7.5","","7.5","","100","","","","35","","12","","0.2","","97.98","","","","","","Drizzle,Fog"
"-63.51","44.88","HALIFAX STANFIELD INT'L A","8202251","2022-01-02 13:00","2022","01","02","13:00","7.8","","7.8","","100","","","","1","","8","","0.8","","97.87","","","","","","Fog"
"-63.51","44.88","HALIFAX STANFIELD INT'L A","8202251","2022-01-02 14:00","2022","01","02","14:00","7.9","","7.9","","100","","","","36","","13","","0.4","","97.80","","","","","","Rain,Fog"
"-63.51","44.88","HALIFAX STANFIELD INT'L A","8202251","2022-01-02 15:00","2022","01","02","15:00","6.9","","6.9","","100","","","","1","","21","","0.8","","97.77","","","","","","Rain,Drizzle,Fog"
"-63.51","44.88","HALIFAX STANFIELD INT'L A","8202251","2022-01-02 16:00","2022","01","02","16:00","3.7","","3.7","","100","","","","35","","28","","2.4","","97.93","","","","","","Rain,Fog"
"-63.51","44.88","HALIFAX STANFIELD INT'L A","8202251","2022-01-02 17:00","2022","01","02","17:00","1.6","","1.6","","100","","","","1","","25","","3.2","","97.97","","","","","","Rain,Fog"
"-63.51","44.88","HALIFAX STANFIELD INT'L A","8202251","2022-01-02 18:00","2022","01","02","18:00","0.9","","0.9","","100","","","","36","","28","","19.3","","97.94","","","","","","Drizzle"
"-63.51","44.88","HALIFAX STANFIELD INT'L A","8202251","2022-01-02 19:00","2022","01","02","19:00","0.4","","0.4","","100","","","","36","","23","","3.6","","97.99","","","","","","Drizzle,Fog"
"-63.51","44.88","HALIFAX STANFIELD INT'L A","8202251","2022-01-02 20:00","2022","01","02","20:00","0.0","","0.0","","100","","","","35","","19","","2.8","","98.09","","","","-5","","Rain,Drizzle,Fog"
"-63.51","44.88","HALIFAX STANFIELD INT'L A","8202251","2022-01-02 21:00","2022","01","02","21:00","0.0","","0.0","","100","","","","34","","21","","2.8","","98.16","","","","-5","","Rain,Drizzle,Fog"
"-63.51","44.88","HALIFAX STANFIELD INT'L A","8202251","2022-01-02 22:00","2022","01","02","22:00","-0.4","","-0.4","","100","","","","34","","27","","4.0","","98.28","","","","-7","","Freezing Drizzle,Fog"
"-63.51","44.88","HALIFAX STANFIELD INT'L A","8202251","2022-01-02 23:00","2022","01","02","23:00","-0.7","","-0.8","","99","","","","34","","24","","4.0","","98.38","","","","-7","","Ice Pellets,Snow Showers,Fog"
"-63.51","44.88","HALIFAX STANFIELD INT'L A","8202251","2022-01-03 00:00","2022","01","03","00:00","-1.2","","-1.6","","97","","","","33","","28","","4.8","","98.59","","","","-8","","Snow Showers,Fog"
"-63.51","44.88","HALIFAX STANFIELD INT'L A","8202251","2022-01-03 01:00","2022","01","03","01:00","-1.8","","-2.8","","93","","","","34","","24","","16.1","","98.65","","","","-8","","NA"
"-63.51","44.88","HALIFAX STANFIELD INT'L A","8202251","2022-01-03 02:00","2022","01","03","02:00","-2.3","","-3.5","","91","","","","34","","26","","19.3","","98.81","","","","-9","","Mostly Cloudy"
"-63.51","44.88","HALIFAX STANFIELD INT'L A","8202251","2022-01-03 03:00","2022","01","03","03:00","-2.6","","-3.8","","92","","","","34","","19","","24.1","","98.99","","","","-8","","NA"
"-63.51","44.88","HALIFAX STANFIELD INT'L A","8202251","2022-01-03 04:00","2022","01","03","04:00","-2.7","","-4.1","","91","","","","34","","18","","24.1","","99.09","","","","-8","","Snow Showers"
"-63.51","44.88","HALIFAX STANFIELD INT'L A","8202251","2022-01-03 05:00","2022","01","03","05:00","-3.4","","-5.0","","89","","","","34","","19","","24.1","","99.31","","","","-9","","Mostly Cloudy"
"-63.51","44.88","HALIFAX STANFIELD INT'L A","8202251","2022-01-03 06:00","2022","01","03","06:00","-4.2","","-6.5","","84","","","","33","","25","","24.1","","99.45","","","","-11","","NA"
"-63.51","44.88","HALIFAX STANFIELD INT'L A","8202251","2022-01-03 07:00","2022","01","03","07:00","-5.2","","-7.6","","84","","","","33","","23","","24.1","","99.59","","","","-12","","NA"
"-63.51","44.88","HALIFAX STANFIELD INT'L A","8202251","2022-01-03 08:00","2022","01","03","08:00","-6.8","","-9.3","","82","","","","34","","26","","24.1","","99.83","","","","-15","","Snow Showers"
"-63.51","44.88","HALIFAX STANFIELD INT'L A","8202251","2022-01-03 09:00","2022","01","03","09:00","-8.0","","-10.8","","80","","","","35","","27","","24.1","","99.92","","","","-16","","NA"
"-63.51","44.88","HALIFAX STANFIELD INT'L A","8202251","2022-01-03 10:00","2022","01","03","10:00","-7.5","","-10.4","","80","","","","35","","23","","24.1","","100.01","","","","-15","","Snow"
"-63.51","44.88","HALIFAX STANFIELD INT'L A","8202251","2022-01-03 11:00","2022","01","03","11:00","-7.3","","-10.5","","78","","","","35","","22","","24.1","","100.06","","","","-15","","Mostly Cloudy"
"-63.51","44.88","HALIFAX STANFIELD INT'L A","8202251","2022-01-03 12:00","2022","01","03","12:00","-6.8","","-10.5","","75","","","","33","","18","","24.1","","100.04","","","","-13","","NA"
"-63.51","44.88","HALIFAX STANFIELD INT'L A","8202251","2022-01-03 13:00","2022","01","03","13:00","-6.7","","-10.3","","76","","","","34","","16","","24.1","","100.00","","","","-13","","NA"
"-63.51","44.88","HALIFAX STANFIELD INT'L A","8202251","2022-01-03 14:00","2022","01","03","14:00","-6.7","","-10.9","","72","","","","34","","16","","24.1","","100.04","","","","-13","","Cloudy"
"-63.51","44.88","HALIFAX STANFIELD INT'L A","8202251","2022-01-03 15:00","2022","01","03","15:00","-6.4","","-10.0","","75","","","","35","","15","","24.1","","100.05","","","","-12","","NA"
"-63.51","44.88","HALIFAX STANFIELD INT'L A","8202251","2022-01-03 16:00","2022","01","03","16:00","-6.6","","-10.1","","76","","","","35","","18","","24.1","","100.02","","","","-13","","NA"
"-63.51","44.88","HALIFAX STANFIELD INT'L A","8202251","2022-01-03 17:00","2022","01","03","17:00","-6.9","","-9.8","","80","","","","1","","12","","24.1","","100.03","","","","-12","","Cloudy"
"-63.51","44.88","HALIFAX STANFIELD INT'L A","8202251","2022-01-03 18:00","2022","01","03","18:00","-7.3","","-10.0","","81","","","","3","","16","","24.1","","100.04","","","","-14","","NA"
"-63.51","44.88","HALIFAX STANFIELD INT'L A","8202251","2022-01-03 19:00","2022","01","03","19:00","-7.5","","-10.1","","81","","","","3","","14","","24.1","","100.07","","","","-13","","NA"
"-63.51","44.88","HALIFAX STANFIELD INT'L A","8202251","2022-01-03 20:00","2022","01","03","20:00","-7.8","","-9.9","","85","","","","2","","21","","24.1","","99.98","","","","-15","","Cloudy"
"-63.51","44.88","HALIFAX STANFIELD INT'L A","8202251","2022-01-03 21:00","2022","01","03","21:00","-8.1","","-10.2","","85","","","","36","","22","","24.1","","99.99","","","","-16","","NA"
"-63.51","44.88","HALIFAX STANFIELD INT'L A","8202251","2022-01-03 22:00","2022","01","03","22:00","-8.3","","-10.2","","86","","","","1","","16","","24.1","","99.95","","","","-15","","NA"
"-63.51","44.88","HALIFAX STANFIELD INT'L A","8202251","2022-01-03 23:00","2022","01","03","23:00","-8.4","","-10.2","","87","","","","1","","16","","24.1","","99.90","","","","-15","","Cloudy"
"-63.51","44.88","HALIFAX STANFIELD INT'L A","8202251","2022-01-04 00:00","2022","01","04","00:00","-8.2","","-10.0","","87","","","","1","","18","","24.1","","99.86","","","","-15","","Snow Showers"
"-63.51","44.88","HALIFAX STANFIELD INT'L A","8202251","2022-01-04 01:00","2022","01","04","01:00","-8.2","","-10.0","","87","","","","36","","21","","24.1","","99.85","","","","-16","","Snow Showers"
"-63.51","44.88","HALIFAX STANFIELD INT'L A","8202251","2022-01-04 02:00","2022","01","04","02:00","-8.8","","-11.0","","84","","","","36","","25","","24.1","","99.74","","","","-17","","Cloudy"
"-63.51","44.88","HALIFAX STANFIELD INT'L A","8202251","2022-01-04 03:00","2022","01","04","03:00","-8.6","","-10.8","","84","","","","35","","23","","24.1","","99.69","","","","-17","","NA"
"-63.51","44.88","HALIFAX STANFIELD INT'L A","8202251","2022-01-04 04:00","2022","01","04","04:00","-8.5","","-10.4","","86","","","","35","","25","","24.1","","99.60","","","","-17","","Snow"
"-63.51","44.88","HALIFAX STANFIELD INT'L A","8202251","2022-01-04 05:00","2022","01","04","05:00","-8.5","","-10.6","","85","","","","35","","28","","24.1","","99.60","","","","-17","","Snow"
"-63.51","44.88","HALIFAX STANFIELD INT'L A","8202251","2022-01-04 06:00","2022","01","04","06:00","-8.6","","-10.8","","84","","","","35","","20","","24.1","","99.61","","","","-16","","NA"
"-63.51","44.88","HALIFAX STANFIELD INT'L A","8202251","2022-01-04 07:00","2022","01","04","07:00","-9.6","","-11.4","","87","","","","34","","27","","24.1","","99.67","","","","-19","","NA"
"-63.51","44.88","HALIFAX STANFIELD INT'L A","8202251","2022-01-04 08:00","2022","01","04","08:00","-10.0","","-11.5","","89","","","","33","","25","","24.1","","99.75","","","","-19","","Snow Showers"
"-63.51","44.88","HALIFAX STANFIELD INT'L A","8202251","2022-01-04 09:00","2022","01","04","09:00","-8.9","","-10.8","","86","","","","32","","27","","19.3","","99.85","","","","-18","","Snow Showers"
"-63.51","44.88","HALIFAX STANFIELD INT'L A","8202251","2022-01-04 10:00","2022","01","04","10:00","-8.7","","-10.6","","86","","","","32","","27","","19.3","","99.98","","","","-17","","Snow Showers"
"-63.51","44.88","HALIFAX STANFIELD INT'L A","8202251","2022-01-04 11:00","2022","01","04","11:00","-8.3","","-11.0","","81","","","","33","","27","","19.3","","100.08","","","","-17","","Snow Showers"
"-63.51","44.88","HALIFAX STANFIELD INT'L A","8202251","2022-01-04 12:00","2022","01","04","12:00","-7.7","","-11.2","","76","","","","33","","25","","24.1","","100.05","","","","-16","","Snow Showers"
"-63.51","44.88","HALIFAX STANFIELD INT'L A","8202251","2022-01-04 13:00","2022","01","04","13:00","-7.0","","-12.0","","68","","","","32","","36","","24.1","","100.08","","","","-16","","NA"
"-63.51","44.88","HALIFAX STANFIELD INT'L A","8202251","2022-01-04 14:00","2022","01","04","14:00","-6.9","","-12.8","","63","","","","34","","30","","24.1","","100.17","","","","-15","","Snow Showers"
"-63.51","44.88","HALIFAX STANFIELD INT'L A","8202251","2022-01-04 15:00","2022","01","04","15:00","-7.3","","-12.6","","66","","","","30","","20","","24.1","","100.28","","","","-14","","Snow Showers"
"-63.51","44.88","HALIFAX STANFIELD INT'L A","8202251","2022-01-04 16:00","2022","01","04","16:00","-8.2","","-12.7","","71","","","","30","","23","","24.1","","100.35","","","","-16","","Snow Showers"
"-63.51","44.88","HALIFAX STANFIELD INT'L A","8202251","2022-01-04 17:00","2022","01","04","17:00","-8.8","","-12.8","","73","","","","29","","15","","24.1","","100.43","","","","-15","","Mainly Clear"
"-63.51","44.88","HALIFAX STANFIELD INT'L A","8202251","2022-01-04 18:00","2022","01","04","18:00","-9.5","","-12.8","","77","","","","25","","7","","24.1","","100.54","","","","-13","","NA"
"-63.51","44.88","HALIFAX STANFIELD INT'L A","8202251","2022-01-04 19:00","2022","01","04","19:00","-9.6","","-13.4","","74","","","","24","","11","","24.1","","100.60","","","","-15","","NA"
"-63.51","44.88","HALIFAX STANFIELD INT'L A","8202251","2022-01-04 20:00","2022","01","04","20:00","-9.1","","-13.4","","71","","","","23","","17","","24.1","","100.65","","","","-16","","Clear"
"-63.51","44.88","HALIFAX STANFIELD INT'L A","8202251","2022-01-04 21:00","2022","01","04","21:00","-9.2","","-12.8","","75","","","","22","","19","","24.1","","100.67","","","","-17","","NA"
"-63.51","44.88","HALIFAX STANFIELD INT'L A","8202251","2022-01-04 22:00","2022","01","04","22:00","-8.6","","-11.9","","77","","","","23","","25","","24.1","","100.69","","","","-17","","NA"
"-63.51","44.88","HALIFAX STANFIELD INT'L A","8202251","2022-01-04 23:00","2022","01","04","23:00","-7.9","","-11.8","","74","","","","24","","25","","24.1","","100.73","","","","-16","","Snow Showers"
"-63.51","44.88","HALIFAX STANFIELD INT'L A","8202251","2022-01-05 00:00","2022","01","05","00:00","-7.0","","-10.9","","74","","","","24","","23","","24.1","","100.77","","","","-15","","Snow Showers"
"-63.51","44.88","HALIFAX STANFIELD INT'L A","8202251","2022-01-05 01:00","2022","01","05","01:00","-7.7","","-10.6","","80","","","","23","","18","","24.1","","100.77","","","","-15","","Snow Showers"
"-63.51","44.88","HALIFAX STANFIELD INT'L A","8202251","2022-01-05 02:00","2022","01","05","02:00","-7.7","","-10.3","","82","","","","22","","21","","24.1","","100.79","","","","-15","","Mainly Clear"
"-63.51","44.88","HALIFAX STANFIELD INT'L A","8202251","2022-01-05 03:00","2022","01","05","03:00","-6.5","","-9.2","","81","","","","22","","20","","24.1","","100.85","","","","-13","","NA"
"-63.51","44.88","HALIFAX STANFIELD INT'L A","8202251","2022-01-05 04:00","2022","01","05","04:00","-6.1","","-8.1","","86","","","","20","","17","","24.1","","100.85","","","","-12","","NA"
"-63.51","44.88","HALIFAX STANFIELD INT'L A","8202251","2022-01-05 05:00","2022","01","05","05:00","-4.6","","-7.3","","81","","","","22","","21","","24.1","","100.83","","","","-11","","Mostly Cloudy"
"-63.51","44.88","HALIFAX STANFIELD INT'L A","8202251","2022-01-05 06:00","2022","01","05","06:00","-2.8","","-6.5","","76","","","","21","","16","","24.1","","100.84","","","","-8","","NA"
"-63.51","44.88","HALIFAX STANFIELD INT'L A","8202251","2022-01-05 07:00","2022","01","05","07:00","-1.8","","-5.8","","75","","","","19","","17","","24.1","","100.80","","","","-7","","NA"
"-63.51","44.88","HALIFAX STANFIELD INT'L A","8202251","2022-01-05 08:00","2022","01","05","08:00","-2.2","","-5.4","","79","","","","15","","13","","24.1","","100.73","","","","-7","","Cloudy"
"-63.51","44.88","HALIFAX STANFIELD INT'L A","8202251","2022-01-05 09:00","2022","01","05","09:00","-1.1","","-3.7","","82","","","","15","","17","","24.1","","100.65","","","","-6","","NA"
"-63.51","44.88","HALIFAX STANFIELD INT'L A","8202251","2022-01-05 10:00","2022","01","05","10:00","0.8","","-1.5","","84","","","","18","","27","","9.7","","100.65","","","","","","Snow"
"-63.51","44.88","HALIFAX STANFIELD INT'L A","8202251","2022-01-05 11:00","2022","01","05","11:00","1.5","","0.1","","90","","","","18","","27","","19.3","","100.58","","","","","","Rain,Snow"
"-63.51","44.88","HALIFAX STANFIELD INT'L A","8202251","2022-01-05 12:00","2022","01","05","12:00","2.2","","-0.2","","84","","","","18","","26","","24.1","","100.45","","","","","","NA"
"-63.51","44.88","HALIFAX STANFIELD INT'L A","8202251","2022-01-05 13:00","2022","01","05","13:00","2.6","","0.4","","85","","","","18","","29","","24.1","","100.31","","","","","","NA"
"-63.51","44.88","HALIFAX STANFIELD INT'L A","8202251","2022-01-05 14:00","2022","01","05","14:00","3.2","","1.3","","87","","","","19","","32","","24.1","","100.25","","","","","","Cloudy"
"-63.51","44.88","HALIFAX STANFIELD INT'L A","8202251","2022-01-05 15:00","2022","01","05","15:00","4.1","","2.5","","89","","","","19","","25","","24.1","","100.18","","","","","","NA"
"-63.51","44.88","HALIFAX STANFIELD INT'L A","8202251","2022-01-05 16:00","2022","01","05","16:00","4.5","","2.5","","87","","","","17","","28","","24.1","","100.09","","","","","","NA"
"-63.51","44.88","HALIFAX STANFIELD INT'L A","8202251","2022-01-05 17:00","2022","01","05","17:00","4.5","","2.3","","86","","","","19","","28","","24.1","","100.03","","","","","","Cloudy"
"-63.51","44.88","HALIFAX STANFIELD INT'L A","8202251","2022-01-05 18:00","2022","01","05","18:00","5.0","","2.4","","83","","","","18","","21","","24.1","","99.94","","","","","","NA"
"-63.51","44.88","HALIFAX STANFIELD INT'L A","8202251","2022-01-05 19:00","2022","01","05","19:00","5.5","","2.8","","83","","","","19","","22","","24.1","","99.90","","","","","","Rain"
"-63.51","44.88","HALIFAX STANFIELD INT'L A","8202251","2022-01-05 20:00","2022","01","05","20:00","6.4","","3.9","","84","","","","18","","31","","24.1","","99.72","","","","","","Cloudy"
"-63.51","44.88","HALIFAX STANFIELD INT'L A","8202251","2022-01-05 21:00","2022","01","05","21:00","6.9","","5.1","","88","","","","18","","40","","24.1","","99.53","","","","","","NA"
"-63.51","44.88","HALIFAX STANFIELD INT'L A","8202251","2022-01-05 22:00","2022","01","05","22:00","7.4","","5.7","","89","","","","18","","41","","24.1","","99.39","","","","","","NA"
"-63.51","44.88","HALIFAX STANFIELD INT'L A","8202251","2022-01-05 23:00","2022","01","05","23:00","8.6","","6.5","","86","","","","19","","37","","9.7","","99.33","","","","","","Rain,Fog"
"-63.51","44.88","HALIFAX STANFIELD INT'L A","8202251","2022-01-06 00:00","2022","01","06","00:00","8.4","","7.4","","94","","","","19","","34","","4.0","","99.19","","","","","","Rain,Fog"
"-63.51","44.88","HALIFAX STANFIELD INT'L A","8202251","2022-01-06 01:00","2022","01","06","01:00","9.0","","8.3","","95","","","","19","","39","","4.8","","99.01","","","","","","Rain,Fog"
"-63.51","44.88","HALIFAX STANFIELD INT'L A","8202251","2022-01-06 02:00","2022","01","06","02:00","9.5","","9.1","","97","","","","19","","39","","8.1","","98.83","","","","","","Rain Showers,Fog"
"-63.51","44.88","HALIFAX STANFIELD INT'L A","8202251","2022-01-06 03:00","2022","01","06","03:00","9.7","","9.2","","97","","","","20","","34","","2.4","","98.75","","","","","","Heavy Rain,Fog"
"-63.51","44.88","HALIFAX STANFIELD INT'L A","8202251","2022-01-06 04:00","2022","01","06","04:00","9.4","","8.9","","97","","","","17","","39","","2.4","","98.46","","","","","","Heavy Rain,Fog"
"-63.51","44.88","HALIFAX STANFIELD INT'L A","8202251","2022-01-06 05:00","2022","01","06","05:00","10.4","","9.9","","97","","","","19","","37","","2.4","","98.36","","","","","","Moderate Rain,Fog"
"-63.51","44.88","HALIFAX STANFIELD INT'L A","8202251","2022-01-06 06:00","2022","01","06","06:00","9.8","","9.1","","96","","","","22","","35","","2.0","","98.26","","","","","","Heavy Rain,Fog"
"-63.51","44.88","HALIFAX STANFIELD INT'L A","8202251","2022-01-06 07:00","2022","01","06","07:00","8.6","","8.1","","97","","","","20","","30","","2.8","","98.18","","","","","","Moderate Rain,Fog"
"-63.51","44.88","HALIFAX STANFIELD INT'L A","8202251","2022-01-06 08:00","2022","01","06","08:00","9.1","","8.7","","97","","","","19","","22","","6.4","","98.03","","","","","","Rain,Fog"
"-63.51","44.88","HALIFAX STANFIELD INT'L A","8202251","2022-01-06 09:00","2022","01","06","09:00","9.1","","8.7","","98","","","","22","","27","","1.2","","98.02","","","","","","Rain,Fog"
"-63.51","44.88","HALIFAX STANFIELD INT'L A","8202251","2022-01-06 10:00","2022","01","06","10:00","7.8","","7.1","","96","","","","27","","19","","24.1","","98.15","","","","","","NA"
"-63.51","44.88","HALIFAX STANFIELD INT'L A","8202251","2022-01-06 11:00","2022","01","06","11:00","6.2","","4.1","","86","","","","28","","23","","24.1","","98.19","","","","","","Mostly Cloudy"
"-63.51","44.88","HALIFAX STANFIELD INT'L A","8202251","2022-01-06 12:00","2022","01","06","12:00","7.0","","2.5","","73","","","","28","","27","","24.1","","98.28","","","","","","NA"
"-63.51","44.88","HALIFAX STANFIELD INT'L A","8202251","2022-01-06 13:00","2022","01","06","13:00","7.5","","1.6","","66","","","","29","","20","","24.1","","98.30","","","","","","NA"
"-63.51","44.88","HALIFAX STANFIELD INT'L A","8202251","2022-01-06 14:00","2022","01","06","14:00","6.3","","0.8","","68","","","","27","","22","","24.1","","98.37","","","","","","Mostly Cloudy"
"-63.51","44.88","HALIFAX STANFIELD INT'L A","8202251","2022-01-06 15:00","2022","01","06","15:00","4.6","","1.2","","78","","","","30","","26","","24.1","","98.54","","","","","","NA"
"-63.51","44.88","HALIFAX STANFIELD INT'L A","8202251","2022-01-06 16:00","2022","01","06","16:00","3.9","","0.2","","77","","","","30","","13","","24.1","","98.68","","","","","","NA"
"-63.51","44.88","HALIFAX STANFIELD INT'L A","8202251","2022-01-06 17:00","2022","01","06","17:00","2.3","","-0.7","","81","","","","29","","12","","24.1","","98.87","","","","","","Mainly Clear"
"-63.51","44.88","HALIFAX STANFIELD INT'L A","8202251","2022-01-06 18:00","2022","01","06","18:00","1.5","","-1.1","","83","","","","30","","14","","24.1","","98.97","","","","","","NA"
"-63.51","44.88","HALIFAX STANFIELD INT'L A","8202251","2022-01-06 19:00","2022","01","06","19:00","0.7","","-1.5","","85","","","","30","","13","","24.1","","99.12","","","","","","NA"
"-63.51","44.88","HALIFAX STANFIELD INT'L A","8202251","2022-01-06 20:00","2022","01","06","20:00","0.0","","-1.8","","88","","","","29","","10","","24.1","","99.16","","","","-3","","Clear"
"-63.51","44.88","HALIFAX STANFIELD INT'L A","8202251","2022-01-06 21:00","2022","01","06","21:00","0.8","","-1.4","","85","","","","27","","10","","24.1","","99.28","","","","","","NA"
"-63.51","44.88","HALIFAX STANFIELD INT'L A","8202251","2022-01-06 22:00","2022","01","06","22:00","1.0","","-1.8","","82","","","","30","","8","","24.1","","99.39","","","","","","NA"
"-63.51","44.88","HALIFAX STANFIELD INT'L A","8202251","2022-01-06 23:00","2022","01","06","23:00","0.4","","-2.0","","83","","","","34","","5","","24.1","","99.50","","","","","","Mainly Clear"
"-63.51","44.88","HALIFAX STANFIELD INT'L A","8202251","2022-01-07 00:00","2022","01","07","00:00","0.0","","-2.4","","84","","","","2","","9","","24.1","","99.52","","","","-3","","NA"
"-63.51","44.88","HALIFAX STANFIELD INT'L A","8202251","2022-01-07 01:00","2022","01","07","01:00","-0.1","","-3.5","","78","","","","5","","8","","24.1","","99.53","","","","-3","","NA"
"-63.51","44.88","HALIFAX STANFIELD INT'L A","8202251","2022-01-07 02:00","2022","01","07","02:00","-0.2","","-2.7","","84","","","","5","","5","","24.1","","99.58","","","","-2","","Mostly Cloudy"
"-63.51","44.88","HALIFAX STANFIELD INT'L A","8202251","2022-01-07 03:00","2022","01","07","03:00","-0.2","","-3.4","","79","","","","8","","9","","24.1","","99.56","","","","-3","","NA"
"-63.51","44.88","HALIFAX STANFIELD INT'L A","8202251","2022-01-07 04:00","2022","01","07","04:00","-0.3","","-3.4","","80","","","","7","","9","","24.1","","99.64","","","","-3","","NA"
"-63.51","44.88","HALIFAX STANFIELD INT'L A","8202251","2022-01-07 05:00","2022","01","07","05:00","-0.5","","-3.3","","81","","","","11","","11","","24.1","","99.73","","","","-4","","Mostly Cloudy"
"-63.51","44.88","HALIFAX STANFIELD INT'L A","8202251","2022-01-07 06:00","2022","01","07","06:00","-0.4","","-3.5","","79","","","","7","","11","","24.1","","99.78","","","","-4","","NA"
"-63.51","44.88","HALIFAX STANFIELD INT'L A","8202251","2022-01-07 07:00","2022","01","07","07:00","-0.5","","-3.6","","80","","","","8","","18","","24.1","","99.67","","","","-6","","NA"
"-63.51","44.88","HALIFAX STANFIELD INT'L A","8202251","2022-01-07 08:00","2022","01","07","08:00","-0.7","","-3.4","","82","","","","10","","19","","24.1","","99.51","","","","-6","","Cloudy"
"-63.51","44.88","HALIFAX STANFIELD INT'L A","8202251","2022-01-07 09:00","2022","01","07","09:00","-0.7","","-3.3","","83","","","","9","","21","","9.7","","99.36","","","","-6","","Snow,Fog"
"-63.51","44.88","HALIFAX STANFIELD INT'L A","8202251","2022-01-07 10:00","2022","01","07","10:00","-0.1","","-2.7","","83","","","","9","","19","","16.1","","99.18","","","","-5","","Snow"
"-63.51","44.88","HALIFAX STANFIELD INT'L A","8202251","2022-01-07 11:00","2022","01","07","11:00","-0.2","","-0.9","","95","","","","8","","21","","2.4","","99.11","","","","-6","","Snow,Fog"
"-63.51","44.88","HALIFAX STANFIELD INT'L A","8202251","2022-01-07 12:00","2022","01","07","12:00","0.2","","-0.2","","97","","","","9","","31","","1.6","","98.66","","","","","","Snow,Fog"
"-63.51","44.88","HALIFAX STANFIELD INT'L A","8202251","2022-01-07 13:00","2022","01","07","13:00","0.5","","0.2","","98","","","","8","","30","","1.0","","98.19","","","","","","Snow,Fog"
"-63.51","44.88","HALIFAX STANFIELD INT'L A","8202251","2022-01-07 14:00","2022","01","07","14:00","0.2","","-0.1","","98","","","","9","","34","","0.4","","97.87","","","","","","Heavy Snow,Fog"
"-63.51","44.88","HALIFAX STANFIELD INT'L A","8202251","2022-01-07 15:00","2022","01","07","15:00","0.2","","-0.2","","98","","","","9","","39","","0.4","","97.52","","","","","","Heavy Snow,Fog,Blowing Snow"
"-63.51","44.88","HALIFAX STANFIELD INT'L A","8202251","2022-01-07 16:00","2022","01","07","16:00","0.2","","-0.5","","95","","","","9","","46","","0.8","","97.15","","","","","","Snow,Fog"
"-63.51","44.88","HALIFAX STANFIELD INT'L A","8202251","2022-01-07 17:00","2022","01","07","17:00","0.4","","-0.3","","95","","","","9","","38","","4.8","","96.82","","","","","","Freezing Rain,Fog"
"-63.51","44.88","HALIFAX STANFIELD INT'L A","8202251","2022-01-07 18:00","2022","01","07","18:00","0.6","","0.2","","97","","","","8","","39","","8.1","","96.46","","","","","","Freezing Rain,Fog"
"-63.51","44.88","HALIFAX STANFIELD INT'L A","8202251","2022-01-07 19:00","2022","01","07","19:00","1.7","","1.3","","98","","","","9","","18","","6.4","","96.20","","","","","","Rain,Fog"
"-63.51","44.88","HALIFAX STANFIELD INT'L A","8202251","2022-01-07 20:00","2022","01","07","20:00","2.1","","1.9","","99","","","","9","","16","","9.7","","95.91","","","","","","Drizzle,Fog"
"-63.51","44.88","HALIFAX STANFIELD INT'L A","8202251","2022-01-07 21:00","2022","01","07","21:00","-0.2","","-0.4","","99","","","","36","","31","","1.6","","95.85","","","","-7","","Drizzle,Fog"
"-63.51","44.88","HALIFAX STANFIELD INT'L A","8202251","2022-01-07 22:00","2022","01","07","22:00","-1.1","","-1.6","","97","","","","34","","52","","1.6","","96.08","","","","-10","","Snow,Fog,Blowing Snow"
"-63.51","44.88","HALIFAX STANFIELD INT'L A","8202251","2022-01-07 23:00","2022","01","07","23:00","-2.5","","-3.4","","93","","","","32","","62","","1.2","","96.60","","","","-12","","Snow,Fog,Blowing Snow"
"-63.51","44.88","HALIFAX STANFIELD INT'L A","8202251","2022-01-08 00:00","2022","01","08","00:00","-3.0","","-3.8","","95","","","","31","","50","","1.2","","97.07","","","","-12","","Snow,Fog,Blowing Snow"
"-63.51","44.88","HALIFAX STANFIELD INT'L A","8202251","2022-01-08 01:00","2022","01","08","01:00","-3.6","","-5.0","","90","","","","30","","58","","1.2","","97.41","","","","-14","","Snow,Fog,Blowing Snow"
"-63.51","44.88","HALIFAX STANFIELD INT'L A","8202251","2022-01-08 02:00","2022","01","08","02:00","-5.8","","-7.9","","85","","","","30","","53","","1.2","","97.81","","","","-16","","Snow,Fog,Blowing Snow"
"-63.51","44.88","HALIFAX STANFIELD INT'L A","8202251","2022-01-08 03:00","2022","01","08","03:00","-6.3","","-7.8","","89","","","","31","","50","","0.4","","98.12","","","","-17","","Snow,Blowing Snow,Freezing Fog"
"-63.51","44.88","HALIFAX STANFIELD INT'L A","8202251","2022-01-08 04:00","2022","01","08","04:00","-6.7","","-8.1","","90","","","","31","","34","","0.4","","98.38","","","","-16","","Snow,Blowing Snow,Freezing Fog"
"-63.51","44.88","HALIFAX STANFIELD INT'L A","8202251","2022-01-08 05:00","2022","01","08","05:00","-6.9","","-8.4","","89","","","","30","","35","","0.4","","98.62","","","","-16","","Snow,Blowing Snow,Freezing Fog"
"-63.51","44.88","HALIFAX STANFIELD INT'L A","8202251","2022-01-08 06:00","2022","01","08","06:00","-6.7","","-8.5","","87","","","","31","","35","","1.6","","98.82","","","","-16","","Snow,Fog,Blowing Snow"
"-63.51","44.88","HALIFAX STANFIELD INT'L A","8202251","2022-01-08 07:00","2022","01","08","07:00","-6.9","","-8.7","","87","","","","31","","40","","1.6","","99.03","","","","-17","","Snow,Fog,Blowing Snow"
"-63.51","44.88","HALIFAX STANFIELD INT'L A","8202251","2022-01-08 08:00","2022","01","08","08:00","-6.9","","-9.5","","82","","","","31","","32","","24.1","","99.24","","","","-16","","Mostly Cloudy"
"-63.51","44.88","HALIFAX STANFIELD INT'L A","8202251","2022-01-08 09:00","2022","01","08","09:00","-6.6","","-9.8","","78","","","","31","","38","","24.1","","99.41","","","","-16","","NA"
"-63.51","44.88","HALIFAX STANFIELD INT'L A","8202251","2022-01-08 10:00","2022","01","08","10:00","-7.0","","-10.5","","76","","","","32","","34","","24.1","","99.65","","","","-16","","NA"
"-63.51","44.88","HALIFAX STANFIELD INT'L A","8202251","2022-01-08 11:00","2022","01","08","11:00","-7.0","","-11.2","","72","","","","34","","42","","24.1","","99.82","","","","-17","","Mostly Cloudy"
"-63.51","44.88","HALIFAX STANFIELD INT'L A","8202251","2022-01-08 12:00","2022","01","08","12:00","-7.1","","-11.2","","72","","","","33","","35","","24.1","","99.96","","","","-16","","NA"
"-63.51","44.88","HALIFAX STANFIELD INT'L A","8202251","2022-01-08 13:00","2022","01","08","13:00","-7.2","","-11.4","","72","","","","32","","39","","24.1","","100.07","","","","-17","","NA"
"-63.51","44.88","HALIFAX STANFIELD INT'L A","8202251","2022-01-08 14:00","2022","01","08","14:00","-6.9","","-11.4","","70","","","","34","","30","","24.1","","100.22","","","","-15","","Mainly Clear"
"-63.51","44.88","HALIFAX STANFIELD INT'L A","8202251","2022-01-08 15:00","2022","01","08","15:00","-7.0","","-11.5","","70","","","","33","","32","","24.1","","100.44","","","","-16","","NA"
"-63.51","44.88","HALIFAX STANFIELD INT'L A","8202251","2022-01-08 16:00","2022","01","08","16:00","-7.2","","-11.8","","70","","","","32","","26","","24.1","","100.66","","","","-15","","NA"
"-63.51","44.88","HALIFAX STANFIELD INT'L A","8202251","2022-01-08 17:00","2022","01","08","17:00","-8.1","","-11.8","","75","","","","32","","20","","24.1","","100.85","","","","-15","","Mainly Clear"
"-63.51","44.88","HALIFAX STANFIELD INT'L A","8202251","2022-01-08 18:00","2022","01","08","18:00","-9.1","","-11.9","","80","","","","32","","20","","24.1","","101.04","","","","-17","","NA"
"-63.51","44.88","HALIFAX STANFIELD INT'L A","8202251","2022-01-08 19:00","2022","01","08","19:00","-9.2","","-12.5","","77","","","","33","","14","","24.1","","101.14","","","","-16","","NA"
"-63.51","44.88","HALIFAX STANFIELD INT'L A","8202251","2022-01-08 20:00","2022","01","08","20:00","-10.4","","-13.0","","81","","","","31","","9","","24.1","","101.23","","","","-15","","Clear"
"-63.51","44.88","HALIFAX STANFIELD INT'L A","8202251","2022-01-08 21:00","2022","01","08","21:00","-9.4","","-12.7","","77","","","","30","","14","","24.1","","101.31","","","","-16","","NA"
"-63.51","44.88","HALIFAX STANFIELD INT'L A","8202251","2022-01-08 22:00","2022","01","08","22:00","-9.1","","-12.7","","75","","","","30","","13","","24.1","","101.35","","","","-15","","NA"
"-63.51","44.88","HALIFAX STANFIELD INT'L A","8202251","2022-01-08 23:00","2022","01","08","23:00","-10.5","","-13.6","","78","","","","32","","12","","24.1","","101.33","","","","-17","","Clear"
"-63.51","44.88","HALIFAX STANFIELD INT'L A","8202251","2022-01-09 00:00","2022","01","09","00:00","-9.6","","-12.5","","80","","","","29","","15","","24.1","","101.35","","","","-16","","NA"
"-63.51","44.88","HALIFAX STANFIELD INT'L A","8202251","2022-01-09 01:00","2022","01","09","01:00","-10.9","","-13.3","","82","","","","19","","4","","24.1","","101.36","","","","-13","","NA"
"-63.51","44.88","HALIFAX STANFIELD INT'L A","8202251","2022-01-09 02:00","2022","01","09","02:00","-10.8","","-13.9","","78","","","","25","","10","","24.1","","101.39","","","","-16","","Clear"
"-63.51","44.88","HALIFAX STANFIELD INT'L A","8202251","2022-01-09 03:00","2022","01","09","03:00","-10.8","","-13.0","","84","","","","22","","10","","24.1","","101.35","","","","-16","","NA"
"-63.51","44.88","HALIFAX STANFIELD INT'L A","8202251","2022-01-09 04:00","2022","01","09","04:00","-10.3","","-12.8","","83","","","","21","","13","","24.1","","101.32","","","","-17","","NA"
"-63.51","44.88","HALIFAX STANFIELD INT'L A","8202251","2022-01-09 05:00","2022","01","09","05:00","-8.8","","-11.3","","82","","","","21","","10","","24.1","","101.33","","","","-14","","Mainly Clear"
"-63.51","44.88","HALIFAX STANFIELD INT'L A","8202251","2022-01-09 06:00","2022","01","09","06:00","-8.2","","-10.8","","81","","","","19","","12","","24.1","","101.31","","","","-14","","NA"
"-63.51","44.88","HALIFAX STANFIELD INT'L A","8202251","2022-01-09 07:00","2022","01","09","07:00","-7.4","","-10.5","","79","","","","17","","10","","24.1","","101.26","","","","-12","","NA"
"-63.51","44.88","HALIFAX STANFIELD INT'L A","8202251","2022-01-09 08:00","2022","01","09","08:00","-6.7","","-8.7","","86","","","","15","","11","","24.1","","101.15","","","","-12","","Cloudy"
"-63.51","44.88","HALIFAX STANFIELD INT'L A","8202251","2022-01-09 09:00","2022","01","09","09:00","-6.1","","-8.3","","84","","","","16","","11","","24.1","","101.10","","","","-11","","NA"
"-63.51","44.88","HALIFAX STANFIELD INT'L A","8202251","2022-01-09 10:00","2022","01","09","10:00","-4.7","","-6.9","","85","","","","16","","14","","24.1","","100.97","","","","-10","","NA"
"-63.51","44.88","HALIFAX STANFIELD INT'L A","8202251","2022-01-09 11:00","2022","01","09","11:00","-2.3","","-4.9","","82","","","","17","","20","","24.1","","100.77","","","","-8","","Cloudy"
"-63.51","44.88","HALIFAX STANFIELD INT'L A","8202251","2022-01-09 12:00","2022","01","09","12:00","-0.2","","-2.5","","84","","","","17","","23","","24.1","","100.50","","","","-6","","NA"
"-63.51","44.88","HALIFAX STANFIELD INT'L A","8202251","2022-01-09 13:00","2022","01","09","13:00","0.7","","-1.8","","83","","","","19","","25","","24.1","","100.35","","","","","","NA"
"-63.51","44.88","HALIFAX STANFIELD INT'L A","8202251","2022-01-09 14:00","2022","01","09","14:00","0.9","","-1.4","","85","","","","19","","24","","24.1","","100.17","","","","","","Cloudy"
"-63.51","44.88","HALIFAX STANFIELD INT'L A","8202251","2022-01-09 15:00","2022","01","09","15:00","1.4","","-1.0","","84","","","","19","","29","","24.1","","99.98","","","","","","NA"
"-63.51","44.88","HALIFAX STANFIELD INT'L A","8202251","2022-01-09 16:00","2022","01","09","16:00","1.8","","0.2","","90","","","","20","","28","","12.9","","99.79","","","","","","Rain"
"-63.51","44.88","HALIFAX STANFIELD INT'L A","8202251","2022-01-09 17:00","2022","01","09","17:00","2.1","","1.1","","93","","","","19","","35","","4.0","","99.55","","","","","","Rain,Fog"
"-63.51","44.88","HALIFAX STANFIELD INT'L A","8202251","2022-01-09 18:00","2022","01","09","18:00","2.8","","1.9","","94","","","","20","","36","","4.0","","99.39","","","","","","Rain,Fog"
"-63.51","44.88","HALIFAX STANFIELD INT'L A","8202251","2022-01-09 19:00","2022","01","09","19:00","3.7","","2.9","","95","","","","20","","48","","4.0","","99.21","","","","","","Rain,Fog"
"-63.51","44.88","HALIFAX STANFIELD INT'L A","8202251","2022-01-09 20:00","2022","01","09","20:00","4.2","","3.5","","95","","","","21","","42","","4.8","","99.05","","","","","","Drizzle,Fog"
"-63.51","44.88","HALIFAX STANFIELD INT'L A","8202251","2022-01-09 21:00","2022","01","09","21:00","4.7","","4.1","","96","","","","21","","44","","4.8","","98.91","","","","","","Drizzle,Fog"
"-63.51","44.88","HALIFAX STANFIELD INT'L A","8202251","2022-01-09 22:00","2022","01","09","22:00","4.8","","4.3","","96","","","","21","","37","","4.8","","98.80","","","","","","Drizzle,Fog"
"-63.51","44.88","HALIFAX STANFIELD INT'L A","8202251","2022-01-09 23:00","2022","01","09","23:00","4.9","","4.5","","97","","","","22","","29","","4.8","","98.65","","","","","","Drizzle,Fog"
"-63.51","44.88","HALIFAX STANFIELD INT'L A","8202251","2022-01-10 00:00","2022","01","10","00:00","4.9","","4.6","","98","","","","22","","27","","4.8","","98.56","","","","","","Drizzle,Fog"
"-63.51","44.88","HALIFAX STANFIELD INT'L A","8202251","2022-01-10 01:00","2022","01","10","01:00","5.0","","4.6","","98","","","","24","","26","","4.8","","98.51","","","","","","Drizzle,Fog"
"-63.51","44.88","HALIFAX STANFIELD INT'L A","8202251","2022-01-10 02:00","2022","01","10","02:00","4.7","","3.9","","94","","","","26","","23","","4.8","","98.48","","","","","","Drizzle,Fog"
"-63.51","44.88","HALIFAX STANFIELD INT'L A","8202251","2022-01-10 03:00","2022","01","10","03:00","3.8","","2.9","","94","","","","25","","18","","6.4","","98.43","","","","","","Drizzle,Fog"
"-63.51","44.88","HALIFAX STANFIELD INT'L A","8202251","2022-01-10 04:00","2022","01","10","04:00","3.4","","2.8","","96","","","","23","","17","","6.4","","98.42","","","","","","Drizzle,Fog"
"-63.51","44.88","HALIFAX STANFIELD INT'L A","8202251","2022-01-10 05:00","2022","01","10","05:00","3.3","","2.9","","97","","","","22","","19","","6.4","","98.36","","","","","","Drizzle,Fog"
"-63.51","44.88","HALIFAX STANFIELD INT'L A","8202251","2022-01-10 06:00","2022","01","10","06:00","2.3","","1.2","","92","","","","30","","39","","6.4","","98.40","","","","","","Drizzle,Fog"
"-63.51","44.88","HALIFAX STANFIELD INT'L A","8202251","2022-01-10 07:00","2022","01","10","07:00","1.4","","0.1","","91","","","","30","","25","","6.4","","98.48","","","","","","Fog"
"-63.51","44.88","HALIFAX STANFIELD INT'L A","8202251","2022-01-10 08:00","2022","01","10","08:00","0.6","","-1.7","","84","","","","30","","23","","24.1","","98.54","","","","","","Mostly Cloudy"
"-63.51","44.88","HALIFAX STANFIELD INT'L A","8202251","2022-01-10 09:00","2022","01","10","09:00","-0.2","","-3.5","","78","","","","29","","30","","16.1","","98.66","","","","-7","","NA"
"-63.51","44.88","HALIFAX STANFIELD INT'L A","8202251","2022-01-10 10:00","2022","01","10","10:00","-1.0","","-6.5","","66","","","","31","","32","","24.1","","98.78","","","","-8","","NA"
"-63.51","44.88","HALIFAX STANFIELD INT'L A","8202251","2022-01-10 11:00","2022","01","10","11:00","-1.9","","-8.0","","64","","","","31","","35","","24.1","","98.88","","","","-9","","Mostly Cloudy"
"-63.51","44.88","HALIFAX STANFIELD INT'L A","8202251","2022-01-10 12:00","2022","01","10","12:00","-2.5","","-8.5","","64","","","","31","","32","","24.1","","98.85","","","","-10","","NA"
"-63.51","44.88","HALIFAX STANFIELD INT'L A","8202251","2022-01-10 13:00","2022","01","10","13:00","-3.4","","-11.7","","53","","","","29","","28","","24.1","","98.82","","","","-11","","NA"
"-63.51","44.88","HALIFAX STANFIELD INT'L A","8202251","2022-01-10 14:00","2022","01","10","14:00","-4.1","","-10.8","","60","","","","30","","28","","24.1","","98.82","","","","-12","","Cloudy"
"-63.51","44.88","HALIFAX STANFIELD INT'L A","8202251","2022-01-10 15:00","2022","01","10","15:00","-5.2","","-11.6","","61","","","","30","","32","","24.1","","98.93","","","","-13","","NA"
"-63.51","44.88","HALIFAX STANFIELD INT'L A","8202251","2022-01-10 16:00","2022","01","10","16:00","-5.8","","-15.0","","49","","","","32","","31","","24.1","","99.01","","","","-14","","NA"
"-63.51","44.88","HALIFAX STANFIELD INT'L A","8202251","2022-01-10 17:00","2022","01","10","17:00","-6.2","","-15.1","","50","","","","31","","21","","24.1","","99.10","","","","-13","","Mostly Cloudy"
"-63.51","44.88","HALIFAX STANFIELD INT'L A","8202251","2022-01-10 18:00","2022","01","10","18:00","-6.9","","-15.4","","51","","","","31","","22","","24.1","","99.17","","","","-14","","NA"
"-63.51","44.88","HALIFAX STANFIELD INT'L A","8202251","2022-01-10 19:00","2022","01","10","19:00","-7.5","","-14.0","","60","","","","30","","16","","24.1","","99.23","","","","-14","","NA"
"-63.51","44.88","HALIFAX STANFIELD INT'L A","8202251","2022-01-10 20:00","2022","01","10","20:00","-7.9","","-12.2","","72","","","","32","","26","","9.7","","99.28","","","","-16","","Snow,Fog"
"-63.51","44.88","HALIFAX STANFIELD INT'L A","8202251","2022-01-10 21:00","2022","01","10","21:00","-8.7","","-14.2","","65","","","","33","","28","","19.3","","99.38","","","","-18","","Snow"
"-63.51","44.88","HALIFAX STANFIELD INT'L A","8202251","2022-01-10 22:00","2022","01","10","22:00","-10.1","","-17.1","","57","","","","33","","24","","24.1","","99.43","","","","-19","","NA"
"-63.51","44.88","HALIFAX STANFIELD INT'L A","8202251","2022-01-10 23:00","2022","01","10","23:00","-10.9","","-17.5","","59","","","","31","","23","","24.1","","99.46","","","","-20","","Mainly Clear"
"-63.51","44.88","HALIFAX STANFIELD INT'L A","8202251","2022-01-11 00:00","2022","01","11","00:00","-11.1","","-17.4","","60","","","","33","","23","","24.1","","99.52","","","","-20","","NA"
"-63.51","44.88","HALIFAX STANFIELD INT'L A","8202251","2022-01-11 01:00","2022","01","11","01:00","-11.7","","-16.5","","68","","","","33","","24","","9.7","","99.54","","","","-21","","Snow,Fog"
"-63.51","44.88","HALIFAX STANFIELD INT'L A","8202251","2022-01-11 02:00","2022","01","11","02:00","-12.4","","-17.4","","67","","","","33","","22","","24.1","","99.59","","","","-21","","Mainly Clear"
"-63.51","44.88","HALIFAX STANFIELD INT'L A","8202251","2022-01-11 03:00","2022","01","11","03:00","-13.0","","-16.8","","74","","","","32","","21","","24.1","","99.71","","","","-22","","Snow"
"-63.51","44.88","HALIFAX STANFIELD INT'L A","8202251","2022-01-11 04:00","2022","01","11","04:00","-13.3","","-18.3","","67","","","","33","","18","","24.1","","99.72","","","","-22","","NA"
"-63.51","44.88","HALIFAX STANFIELD INT'L A","8202251","2022-01-11 05:00","2022","01","11","05:00","-15.0","","-18.8","","73","","","","36","","17","","24.1","","99.79","","","","-23","","Mostly Cloudy"
"-63.51","44.88","HALIFAX STANFIELD INT'L A","8202251","2022-01-11 06:00","2022","01","11","06:00","-15.8","","-18.8","","78","","","","36","","16","","24.1","","99.78","","","","-24","","NA"
"-63.51","44.88","HALIFAX STANFIELD INT'L A","8202251","2022-01-11 07:00","2022","01","11","07:00","-16.4","","-19.5","","78","","","","35","","17","","24.1","","99.83","","","","-25","","NA"
"-63.51","44.88","HALIFAX STANFIELD INT'L A","8202251","2022-01-11 08:00","2022","01","11","08:00","-16.4","","-20.0","","74","","","","31","","19","","24.1","","100.00","","","","-26","","Mostly Cloudy"
"-63.51","44.88","HALIFAX STANFIELD INT'L A","8202251","2022-01-11 09:00","2022","01","11","09:00","-16.3","","-20.8","","69","","","","33","","25","","4.8","","100.11","","","","-27","","Snow Showers,Fog"
"-63.51","44.88","HALIFAX STANFIELD INT'L A","8202251","2022-01-11 10:00","2022","01","11","10:00","-17.0","","-20.6","","74","","","","34","","14","","8.1","","100.19","","","","-25","","Fog"
"-63.51","44.88","HALIFAX STANFIELD INT'L A","8202251","2022-01-11 11:00","2022","01","11","11:00","-16.9","","-20.8","","73","","","","34","","21","","6.4","","100.26","","","","-27","","Fog"
"-63.51","44.88","HALIFAX STANFIELD INT'L A","8202251","2022-01-11 12:00","2022","01","11","12:00","-15.9","","-22.1","","59","","","","31","","24","","6.4","","100.23","","","","-26","","Fog"
"-63.51","44.88","HALIFAX STANFIELD INT'L A","8202251","2022-01-11 13:00","2022","01","11","13:00","-15.0","","-20.6","","63","","","","33","","26","","9.7","","100.21","","","","-25","","Fog"
"-63.51","44.88","HALIFAX STANFIELD INT'L A","8202251","2022-01-11 14:00","2022","01","11","14:00","-15.6","","-20.6","","65","","","","30","","26","","9.7","","100.24","","","","-26","","Fog"
"-63.51","44.88","HALIFAX STANFIELD INT'L A","8202251","2022-01-11 15:00","2022","01","11","15:00","-15.3","","-22.3","","56","","","","31","","32","","24.1","","100.26","","","","-27","","NA"
"-63.51","44.88","HALIFAX STANFIELD INT'L A","8202251","2022-01-11 16:00","2022","01","11","16:00","-15.4","","-21.3","","61","","","","32","","26","","24.1","","100.41","","","","-26","","NA"
"-63.51","44.88","HALIFAX STANFIELD INT'L A","8202251","2022-01-11 17:00","2022","01","11","17:00","-16.1","","-21.1","","66","","","","31","","27","","24.1","","100.55","","","","-27","","Mainly Clear"
"-63.51","44.88","HALIFAX STANFIELD INT'L A","8202251","2022-01-11 18:00","2022","01","11","18:00","-16.6","","-21.2","","68","","","","33","","20","","24.1","","100.65","","","","-26","","NA"
"-63.51","44.88","HALIFAX STANFIELD INT'L A","8202251","2022-01-11 19:00","2022","01","11","19:00","-16.8","","-21.1","","70","","","","32","","20","","24.1","","100.73","","","","-26","","NA"
"-63.51","44.88","HALIFAX STANFIELD INT'L A","8202251","2022-01-11 20:00","2022","01","11","20:00","-17.0","","-21.6","","68","","","","32","","17","","24.1","","100.83","","","","-26","","Clear"
"-63.51","44.88","HALIFAX STANFIELD INT'L A","8202251","2022-01-11 21:00","2022","01","11","21:00","-17.5","","-21.6","","71","","","","32","","12","","24.1","","100.90","","","","-25","","NA"
"-63.51","44.88","HALIFAX STANFIELD INT'L A","8202251","2022-01-11 22:00","2022","01","11","22:00","-17.5","","-21.3","","73","","","","32","","16","","24.1","","100.96","","","","-26","","NA"
"-63.51","44.88","HALIFAX STANFIELD INT'L A","8202251","2022-01-11 23:00","2022","01","11","23:00","-17.9","","-21.2","","75","","","","33","","15","","24.1","","101.02","","","","-26","","Mainly Clear"
"-63.51","44.88","HALIFAX STANFIELD INT'L A","8202251","2022-01-12 00:00","2022","01","12","00:00","-17.9","","-21.2","","76","","","","34","","10","","24.1","","101.05","","","","-25","","NA"
"-63.51","44.88","HALIFAX STANFIELD INT'L A","8202251","2022-01-12 01:00","2022","01","12","01:00","-18.3","","-21.2","","78","","","","34","","11","","24.1","","101.07","","","","-26","","NA"
"-63.51","44.88","HALIFAX STANFIELD INT'L A","8202251","2022-01-12 02:00","2022","01","12","02:00","-19.4","","-22.1","","79","","","","1","","9","","24.1","","101.06","","","","-26","","Clear"
"-63.51","44.88","HALIFAX STANFIELD INT'L A","8202251","2022-01-12 03:00","2022","01","12","03:00","-19.6","","-22.7","","77","","","","6","","4","","24.1","","101.11","","","","-23","","NA"
"-63.51","44.88","HALIFAX STANFIELD INT'L A","8202251","2022-01-12 04:00","2022","01","12","04:00","-19.5","","-22.6","","77","","","","13","","5","","24.1","","101.10","","","","-24","","NA"
"-63.51","44.88","HALIFAX STANFIELD INT'L A","8202251","2022-01-12 05:00","2022","01","12","05:00","-19.7","","-22.8","","77","","","","18","","9","","24.1","","101.11","","","","-26","","Clear"
"-63.51","44.88","HALIFAX STANFIELD INT'L A","8202251","2022-01-12 06:00","2022","01","12","06:00","-18.8","","-21.5","","80","","","","19","","11","","24.1","","101.09","","","","-26","","NA"
"-63.51","44.88","HALIFAX STANFIELD INT'L A","8202251","2022-01-12 07:00","2022","01","12","07:00","-19.4","","-21.7","","83","","","","18","","14","","24.1","","101.10","","","","-28","","NA"
"-63.51","44.88","HALIFAX STANFIELD INT'L A","8202251","2022-01-12 08:00","2022","01","12","08:00","-18.6","","-20.7","","84","","","","17","","14","","24.1","","101.08","","","","-27","","Mainly Clear"
"-63.51","44.88","HALIFAX STANFIELD INT'L A","8202251","2022-01-12 09:00","2022","01","12","09:00","-15.5","","-18.2","","80","","","","18","","13","","24.1","","101.07","","","","-23","","NA"
"-63.51","44.88","HALIFAX STANFIELD INT'L A","8202251","2022-01-12 10:00","2022","01","12","10:00","-14.3","","-16.6","","83","","","","14","","18","","24.1","","100.95","","","","-23","","NA"
"-63.51","44.88","HALIFAX STANFIELD INT'L A","8202251","2022-01-12 11:00","2022","01","12","11:00","-10.9","","-13.8","","79","","","","16","","21","","24.1","","100.89","","","","-19","","Mostly Cloudy"
"-63.51","44.88","HALIFAX STANFIELD INT'L A","8202251","2022-01-12 12:00","2022","01","12","12:00","-8.3","","-11.3","","79","","","","17","","17","","4.8","","100.74","","","","-15","","Snow,Fog"
"-63.51","44.88","HALIFAX STANFIELD INT'L A","8202251","2022-01-12 13:00","2022","01","12","13:00","-7.1","","-9.7","","82","","","","18","","23","","1.2","","100.57","","","","-15","","Snow,Fog"
"-63.51","44.88","HALIFAX STANFIELD INT'L A","8202251","2022-01-12 14:00","2022","01","12","14:00","-5.8","","-8.3","","83","","","","17","","21","","8.1","","100.46","","","","-13","","Snow,Fog"
"-63.51","44.88","HALIFAX STANFIELD INT'L A","8202251","2022-01-12 15:00","2022","01","12","15:00","-5.1","","-7.3","","84","","","","18","","22","","8.1","","100.41","","","","-12","","Snow,Fog,Blowing Snow"
"-63.51","44.88","HALIFAX STANFIELD INT'L A","8202251","2022-01-12 16:00","2022","01","12","16:00","-4.5","","-5.9","","90","","","","18","","26","","0.6","","100.34","","","","-12","","Snow,Blowing Snow,Freezing Fog"
"-63.51","44.88","HALIFAX STANFIELD INT'L A","8202251","2022-01-12 17:00","2022","01","12","17:00","-3.4","","-5.8","","84","","","","19","","22","","1.6","","100.29","","","","-10","","Snow,Fog,Blowing Snow"
"-63.51","44.88","HALIFAX STANFIELD INT'L A","8202251","2022-01-12 18:00","2022","01","12","18:00","-3.1","","-4.3","","91","","","","18","","23","","2.4","","100.23","","","","-10","","Snow,Fog"
"-63.51","44.88","HALIFAX STANFIELD INT'L A","8202251","2022-01-12 19:00","2022","01","12","19:00","-1.8","","-3.2","","90","","","","18","","25","","4.8","","100.14","","","","-8","","Snow,Fog"
"-63.51","44.88","HALIFAX STANFIELD INT'L A","8202251","2022-01-12 20:00","2022","01","12","20:00","-0.9","","-2.2","","91","","","","17","","22","","4.8","","100.11","","","","-7","","Snow,Fog"
"-63.51","44.88","HALIFAX STANFIELD INT'L A","8202251","2022-01-12 21:00","2022","01","12","21:00","-0.6","","-1.2","","95","","","","17","","29","","4.8","","100.03","","","","-7","","Snow,Fog"
"-63.51","44.88","HALIFAX STANFIELD INT'L A","8202251","2022-01-12 22:00","2022","01","12","22:00","0.3","","-0.3","","96","","","","17","","23","","4.8","","99.96","","","","","","Snow,Fog"
"-63.51","44.88","HALIFAX STANFIELD INT'L A","8202251","2022-01-12 23:00","2022","01","12","23:00","0.8","","0.3","","96","","","","19","","26","","4.8","","99.94","","","","","","Snow,Fog"
"-63.51","44.88","HALIFAX STANFIELD INT'L A","8202251","2022-01-13 00:00","2022","01","13","00:00","1.6","","1.0","","96","","","","20","","22","","4.8","","99.92","","","","","","Rain,Snow,Fog"
"-63.51","44.88","HALIFAX STANFIELD INT'L A","8202251","2022-01-13 01:00","2022","01","13","01:00","1.9","","1.4","","97","","","","21","","18","","4.8","","99.88","","","","","","Rain,Fog"
"-63.51","44.88","HALIFAX STANFIELD INT'L A","8202251","2022-01-13 02:00","2022","01","13","02:00","1.6","","1.3","","98","","","","25","","19","","6.4","","99.91","","","","","","Rain,Fog"
"-63.51","44.88","HALIFAX STANFIELD INT'L A","8202251","2022-01-13 03:00","2022","01","13","03:00","0.2","","-0.1","","98","","","","33","","11","","4.8","","99.97","","","","","","Fog"
"-63.51","44.88","HALIFAX STANFIELD INT'L A","8202251","2022-01-13 04:00","2022","01","13","04:00","0.4","","-0.2","","96","","","","18","","8","","9.7","","99.93","","","","","","Fog"
"-63.51","44.88","HALIFAX STANFIELD INT'L A","8202251","2022-01-13 05:00","2022","01","13","05:00","0.6","","-0.4","","93","","","","26","","8","","12.9","","99.92","","","","","","Cloudy"
"-63.51","44.88","HALIFAX STANFIELD INT'L A","8202251","2022-01-13 06:00","2022","01","13","06:00","0.4","","-0.6","","93","","","","21","","8","","12.9","","99.99","","","","","","NA"
"-63.51","44.88","HALIFAX STANFIELD INT'L A","8202251","2022-01-13 07:00","2022","01","13","07:00","0.2","","-0.6","","94","","","","22","","7","","12.9","","100.02","","","","","","NA"
"-63.51","44.88","HALIFAX STANFIELD INT'L A","8202251","2022-01-13 08:00","2022","01","13","08:00","0.1","","-0.7","","95","","","","26","","5","","12.9","","100.01","","","","","","Cloudy"
"-63.51","44.88","HALIFAX STANFIELD INT'L A","8202251","2022-01-13 09:00","2022","01","13","09:00","-0.3","","-0.6","","98","","","","3","","7","","2.0","","100.08","","","","-3","","Fog"
"-63.51","44.88","HALIFAX STANFIELD INT'L A","8202251","2022-01-13 10:00","2022","01","13","10:00","-0.8","","-1.2","","97","","","","36","","10","","8.1","","100.15","","","","-4","","Fog"
"-63.51","44.88","HALIFAX STANFIELD INT'L A","8202251","2022-01-13 11:00","2022","01","13","11:00","-0.9","","-2.0","","92","","","","36","","12","","16.1","","100.14","","","","-5","","Cloudy"
"-63.51","44.88","HALIFAX STANFIELD INT'L A","8202251","2022-01-13 12:00","2022","01","13","12:00","-0.6","","-1.7","","92","","","","1","","6","","16.1","","100.08","","","","-3","","NA"
"-63.51","44.88","HALIFAX STANFIELD INT'L A","8202251","2022-01-13 13:00","2022","01","13","13:00","-0.3","","-1.7","","90","","","","32","","10","","16.1","","100.05","","","","-4","","NA"
"-63.51","44.88","HALIFAX STANFIELD INT'L A","8202251","2022-01-13 14:00","2022","01","13","14:00","-0.1","","-1.9","","88","","","","36","","7","","16.1","","100.04","","","","-3","","Cloudy"
"-63.51","44.88","HALIFAX STANFIELD INT'L A","8202251","2022-01-13 15:00","2022","01","13","15:00","-0.5","","-1.9","","90","","","","36","","11","","16.1","","100.07","","","","-4","","NA"
"-63.51","44.88","HALIFAX STANFIELD INT'L A","8202251","2022-01-13 16:00","2022","01","13","16:00","-0.8","","-2.2","","90","","","","3","","10","","16.1","","100.10","","","","-4","","NA"
"-63.51","44.88","HALIFAX STANFIELD INT'L A","8202251","2022-01-13 17:00","2022","01","13","17:00","-1.5","","-2.5","","93","","","","3","","12","","12.9","","100.08","","","","-6","","Mostly Cloudy"
"-63.51","44.88","HALIFAX STANFIELD INT'L A","8202251","2022-01-13 18:00","2022","01","13","18:00","-1.8","","-2.6","","94","","","","9","","10","","16.1","","100.13","","","","-5","","NA"
"-63.51","44.88","HALIFAX STANFIELD INT'L A","8202251","2022-01-13 19:00","2022","01","13","19:00","-2.4","","-2.9","","96","","","","4","","3","","19.3","","100.17","","","","-4","","NA"
"-63.51","44.88","HALIFAX STANFIELD INT'L A","8202251","2022-01-13 20:00","2022","01","13","20:00","-2.8","","-3.1","","98","","","","8","","7","","19.3","","100.18","","","","-6","","Mostly Cloudy"
"-63.51","44.88","HALIFAX STANFIELD INT'L A","8202251","2022-01-13 21:00","2022","01","13","21:00","-2.5","","-2.8","","98","","","","12","","13","","2.0","","100.18","","","","-7","","Fog"
"-63.51","44.88","HALIFAX STANFIELD INT'L A","8202251","2022-01-13 22:00","2022","01","13","22:00","-1.8","","-2.0","","99","","","","13","","14","","0.4","","100.15","","","","-6","","Freezing Fog"
"-63.51","44.88","HALIFAX STANFIELD INT'L A","8202251","2022-01-13 23:00","2022","01","13","23:00","-1.3","","-1.4","","99","","","","12","","15","","0.4","","100.12","","","","-6","","Freezing Fog"
"-63.51","44.88","HALIFAX STANFIELD INT'L A","8202251","2022-01-14 00:00","2022","01","14","00:00","-1.3","","-1.4","","99","","","","12","","13","","0.4","","100.10","","","","-6","","Freezing Fog"
"-63.51","44.88","HALIFAX STANFIELD INT'L A","8202251","2022-01-14 01:00","2022","01","14","01:00","-1.3","","-1.4","","99","","","","11","","13","","0.4","","100.05","","","","-6","","Freezing Fog"
"-63.51","44.88","HALIFAX STANFIELD INT'L A","8202251","2022-01-14 02:00","2022","01","14","02:00","-1.5","","-1.6","","99","","","","11","","14","","0.4","","100.00","","","","-6","","Freezing Fog"
"-63.51","44.88","HALIFAX STANFIELD INT'L A","8202251","2022-01-14 03:00","2022","01","14","03:00","-1.8","","-1.9","","99","","","","12","","16","","0.6","","99.94","","","","-7","","Freezing Fog"
"-63.51","44.88","HALIFAX STANFIELD INT'L A","8202251","2022-01-14 04:00","2022","01","14","04:00","-1.4","","-1.5","","100","","","","9","","9","","0.4","","99.84","","","","-5","","Freezing Fog"
"-63.51","44.88","HALIFAX STANFIELD INT'L A","8202251","2022-01-14 05:00","2022","01","14","05:00","-1.1","","-1.2","","99","","","","7","","9","","0.4","","99.79","","","","-4","","Freezing Fog"
"-63.51","44.88","HALIFAX STANFIELD INT'L A","8202251","2022-01-14 06:00","2022","01","14","06:00","-0.8","","-0.8","","100","","","","8","","10","","0.4","","99.68","","","","-4","","Freezing Fog"
"-63.51","44.88","HALIFAX STANFIELD INT'L A","8202251","2022-01-14 07:00","2022","01","14","07:00","-0.5","","-0.6","","100","","","","8","","6","","1.0","","99.66","","","","-3","","Fog"
"-63.51","44.88","HALIFAX STANFIELD INT'L A","8202251","2022-01-14 08:00","2022","01","14","08:00","-0.2","","-0.2","","100","","","","9","","12","","0.4","","99.59","","","","-4","","Freezing Fog"
"-63.51","44.88","HALIFAX STANFIELD INT'L A","8202251","2022-01-14 09:00","2022","01","14","09:00","0.2","","0.2","","100","","","","9","","10","","0.4","","99.56","","","","","","Fog"
"-63.51","44.88","HALIFAX STANFIELD INT'L A","8202251","2022-01-14 10:00","2022","01","14","10:00","0.5","","0.4","","100","","","","1","","7","","0.2","","99.53","","","","","","Fog"
"-63.51","44.88","HALIFAX STANFIELD INT'L A","8202251","2022-01-14 11:00","2022","01","14","11:00","1.0","","0.9","","100","","","","1","","7","","0.2","","99.42","","","","","","Fog"
"-63.51","44.88","HALIFAX STANFIELD INT'L A","8202251","2022-01-14 12:00","2022","01","14","12:00","0.5","","0.5","","100","","","","1","","8","","0.2","","99.28","","","","","","Fog"
"-63.51","44.88","HALIFAX STANFIELD INT'L A","8202251","2022-01-14 13:00","2022","01","14","13:00","0.7","","0.7","","100","","","","1","","11","","0.2","","99.13","","","","","","Fog"
"-63.51","44.88","HALIFAX STANFIELD INT'L A","8202251","2022-01-14 14:00","2022","01","14","14:00","1.1","","1.1","","100","","","","2","","10","","0.2","","99.03","","","","","","Rain Showers,Fog"
"-63.51","44.88","HALIFAX STANFIELD INT'L A","8202251","2022-01-14 15:00","2022","01","14","15:00","1.1","","1.1","","100","","","","2","","14","","0.2","","98.99","","","","","","Rain,Fog"
"-63.51","44.88","HALIFAX STANFIELD INT'L A","8202251","2022-01-14 16:00","2022","01","14","16:00","1.3","","1.3","","100","","","","1","","21","","0.2","","98.87","","","","","","Rain,Fog"
"-63.51","44.88","HALIFAX STANFIELD INT'L A","8202251","2022-01-14 17:00","2022","01","14","17:00","1.9","","1.9","","100","","","","36","","28","","0.2","","98.70","","","","","","Drizzle,Fog"
"-63.51","44.88","HALIFAX STANFIELD INT'L A","8202251","2022-01-14 18:00","2022","01","14","18:00","0.8","","0.8","","100","","","","2","","31","","1.2","","98.62","","","","","","Rain,Fog"
"-63.51","44.88","HALIFAX STANFIELD INT'L A","8202251","2022-01-14 19:00","2022","01","14","19:00","0.5","","0.5","","100","","","","1","","42","","2.4","","98.39","","","","","","Moderate Rain,Fog"
"-63.51","44.88","HALIFAX STANFIELD INT'L A","8202251","2022-01-14 20:00","2022","01","14","20:00","0.0","","0.0","","100","","","","36","","29","","3.6","","98.18","","","","-6","","Moderate Rain,Fog"
"-63.51","44.88","HALIFAX STANFIELD INT'L A","8202251","2022-01-14 21:00","2022","01","14","21:00","-0.1","","-0.1","","100","","","","1","","48","","4.0","","97.84","","","","-8","","Moderate Freezing Rain,Fog"
"-63.51","44.88","HALIFAX STANFIELD INT'L A","8202251","2022-01-14 22:00","2022","01","14","22:00","-0.3","","-0.4","","99","","","","1","","56","","2.4","","97.56","","","","-9","","Snow,Ice Pellets"
"-63.51","44.88","HALIFAX STANFIELD INT'L A","8202251","2022-01-14 23:00","2022","01","14","23:00","-2.1","","-2.4","","98","","","","1","","61","","0.8","","97.37","","","","-12","","Snow,Ice Pellets,Blowing Snow"
"-63.51","44.88","HALIFAX STANFIELD INT'L A","8202251","2022-01-15 00:00","2022","01","15","00:00","-3.2","","-4.0","","94","","","","1","","63","","2.4","","97.15","","","","-13","","Snow,Ice Pellets,Blowing Snow"
"-63.51","44.88","HALIFAX STANFIELD INT'L A","8202251","2022-01-15 01:00","2022","01","15","01:00","-4.1","","-5.5","","90","","","","1","","64","","4.0","","96.92","","","","-15","","Snow,Ice Pellets,Blowing Snow"
"-63.51","44.88","HALIFAX STANFIELD INT'L A","8202251","2022-01-15 02:00","2022","01","15","02:00","-4.9","","-6.4","","89","","","","36","","62","","4.0","","96.85","","","","-16","","Snow,Ice Pellets,Blowing Snow"
"-63.51","44.88","HALIFAX STANFIELD INT'L A","8202251","2022-01-15 03:00","2022","01","15","03:00","-5.3","","-6.5","","91","","","","36","","56","","2.0","","96.87","","","","-16","","Snow,Ice Pellets,Blowing Snow"
"-63.51","44.88","HALIFAX STANFIELD INT'L A","8202251","2022-01-15 04:00","2022","01","15","04:00","-5.5","","-6.6","","92","","","","35","","57","","1.2","","96.70","","","","-16","","Snow,Ice Pellets,Blowing Snow"
"-63.51","44.88","HALIFAX STANFIELD INT'L A","8202251","2022-01-15 05:00","2022","01","15","05:00","-5.9","","-7.0","","92","","","","35","","64","","0.8","","96.71","","","","-17","","Snow,Blowing Snow"
"-63.51","44.88","HALIFAX STANFIELD INT'L A","8202251","2022-01-15 06:00","2022","01","15","06:00","-7.1","","-8.4","","90","","","","35","","68","","0.8","","96.78","","","","-19","","Moderate Snow,Blowing Snow"
"-63.51","44.88","HALIFAX STANFIELD INT'L A","8202251","2022-01-15 07:00","2022","01","15","07:00","-8.4","","-9.8","","90","","","","34","","58","","0.8","","96.90","","","","-20","","Snow,Moderate Ice Pellets,Blowing Snow"
"-63.51","44.88","HALIFAX STANFIELD INT'L A","8202251","2022-01-15 08:00","2022","01","15","08:00","-9.0","","-10.3","","90","","","","34","","49","","0.4","","97.03","","","","-20","","Moderate Snow,Ice Pellets,Blowing Snow"
"-63.51","44.88","HALIFAX STANFIELD INT'L A","8202251","2022-01-15 09:00","2022","01","15","09:00","-9.7","","-11.1","","90","","","","33","","56","","0.2","","97.20","","","","-22","","Snow,Ice Pellets,Blowing Snow"
"-63.51","44.88","HALIFAX STANFIELD INT'L A","8202251","2022-01-15 10:00","2022","01","15","10:00","-11.5","","-13.2","","87","","","","33","","61","","0.2","","97.29","","","","-25","","Snow,Blowing Snow"
"-63.51","44.88","HALIFAX STANFIELD INT'L A","8202251","2022-01-15 11:00","2022","01","15","11:00","-12.8","","-15.2","","82","","","","32","","59","","1.2","","97.52","","","","-26","","Blowing Snow"
"-63.51","44.88","HALIFAX STANFIELD INT'L A","8202251","2022-01-15 12:00","2022","01","15","12:00","-12.6","","-15.4","","80","","","","32","","57","","2.0","","97.66","","","","-26","","Blowing Snow"
"-63.51","44.88","HALIFAX STANFIELD INT'L A","8202251","2022-01-15 13:00","2022","01","15","13:00","-13.2","","-15.9","","80","","","","31","","49","","2.0","","97.78","","","","-26","","Snow,Blowing Snow"
"-63.51","44.88","HALIFAX STANFIELD INT'L A","8202251","2022-01-15 14:00","2022","01","15","14:00","-13.8","","-16.8","","79","","","","32","","60","","2.0","","97.91","","","","-28","","Snow,Blowing Snow"
"-63.51","44.88","HALIFAX STANFIELD INT'L A","8202251","2022-01-15 15:00","2022","01","15","15:00","-13.6","","-16.6","","78","","","","31","","33","","4.8","","98.13","","","","-25","","Snow,Blowing Snow"
"-63.51","44.88","HALIFAX STANFIELD INT'L A","8202251","2022-01-15 16:00","2022","01","15","16:00","-13.7","","-16.6","","79","","","","33","","29","","4.8","","98.24","","","","-24","","Snow,Blowing Snow"
"-63.51","44.88","HALIFAX STANFIELD INT'L A","8202251","2022-01-15 17:00","2022","01","15","17:00","-14.1","","-16.5","","82","","","","33","","26","","2.0","","98.36","","","","-24","","Snow"
"-63.51","44.88","HALIFAX STANFIELD INT'L A","8202251","2022-01-15 18:00","2022","01","15","18:00","-15.2","","-17.6","","82","","","","34","","24","","2.4","","98.52","","","","-25","","Snow"
"-63.51","44.88","HALIFAX STANFIELD INT'L A","8202251","2022-01-15 19:00","2022","01","15","19:00","-16.6","","-20.1","","75","","","","32","","41","","4.8","","98.68","","","","-30","","Blowing Snow"
"-63.51","44.88","HALIFAX STANFIELD INT'L A","8202251","2022-01-15 20:00","2022","01","15","20:00","-17.3","","-20.5","","77","","","","32","","35","","9.7","","98.81","","","","-30","","Snow Showers,Blowing Snow"
"-63.51","44.88","HALIFAX STANFIELD INT'L A","8202251","2022-01-15 21:00","2022","01","15","21:00","-17.4","","-21.0","","74","","","","31","","42","","4.8","","98.90","","","","-31","","Blowing Snow"
"-63.51","44.88","HALIFAX STANFIELD INT'L A","8202251","2022-01-15 22:00","2022","01","15","22:00","-17.2","","-19.9","","80","","","","30","","33","","2.4","","99.02","","","","-29","","Snow Showers,Blowing Snow"
"-63.51","44.88","HALIFAX STANFIELD INT'L A","8202251","2022-01-15 23:00","2022","01","15","23:00","-17.0","","-19.7","","80","","","","30","","32","","2.4","","99.13","","","","-29","","Snow Showers,Blowing Snow"
"-63.51","44.88","HALIFAX STANFIELD INT'L A","8202251","2022-01-16 00:00","2022","01","16","00:00","-16.8","","-19.2","","82","","","","30","","28","","2.4","","99.28","","","","-28","","Snow Showers,Blowing Snow"
"-63.51","44.88","HALIFAX STANFIELD INT'L A","8202251","2022-01-16 01:00","2022","01","16","01:00","-16.6","","-19.1","","81","","","","30","","25","","3.6","","99.29","","","","-27","","Blowing Snow"
"-63.51","44.88","HALIFAX STANFIELD INT'L A","8202251","2022-01-16 02:00","2022","01","16","02:00","-16.1","","-18.7","","80","","","","30","","29","","4.8","","99.48","","","","-27","","Blowing Snow"
"-63.51","44.88","HALIFAX STANFIELD INT'L A","8202251","2022-01-16 03:00","2022","01","16","03:00","-15.9","","-19.3","","76","","","","31","","25","","24.1","","99.59","","","","-26","","NA"
"-63.51","44.88","HALIFAX STANFIELD INT'L A","8202251","2022-01-16 04:00","2022","01","16","04:00","-16.0","","-19.1","","78","","","","30","","29","","24.1","","99.67","","","","-27","","NA"
"-63.51","44.88","HALIFAX STANFIELD INT'L A","8202251","2022-01-16 05:00","2022","01","16","05:00","-16.2","","-19.1","","79","","","","30","","28","","24.1","","99.75","","","","-27","","Mainly Clear"
"-63.51","44.88","HALIFAX STANFIELD INT'L A","8202251","2022-01-16 06:00","2022","01","16","06:00","-15.7","","-18.5","","80","","","","29","","24","","24.1","","99.87","","","","-26","","NA"
"-63.51","44.88","HALIFAX STANFIELD INT'L A","8202251","2022-01-16 07:00","2022","01","16","07:00","-14.8","","-16.9","","84","","","","29","","30","","24.1","","99.99","","","","-26","","NA"
"-63.51","44.88","HALIFAX STANFIELD INT'L A","8202251","2022-01-16 08:00","2022","01","16","08:00","-14.2","","-16.7","","82","","","","30","","32","","24.1","","100.08","","","","-25","","Mainly Clear"
"-63.51","44.88","HALIFAX STANFIELD INT'L A","8202251","2022-01-16 09:00","2022","01","16","09:00","-13.8","","-17.1","","77","","","","29","","30","","24.1","","100.19","","","","-24","","NA"
"-63.51","44.88","HALIFAX STANFIELD INT'L A","8202251","2022-01-16 10:00","2022","01","16","10:00","-13.0","","-16.8","","74","","","","30","","27","","24.1","","100.28","","","","-23","","NA"
"-63.51","44.88","HALIFAX STANFIELD INT'L A","8202251","2022-01-16 11:00","2022","01","16","11:00","-11.8","","-16.0","","71","","","","31","","27","","24.1","","100.37","","","","-21","","Clear"
"-63.51","44.88","HALIFAX STANFIELD INT'L A","8202251","2022-01-16 12:00","2022","01","16","12:00","-10.4","","-15.9","","64","","","","29","","26","","24.1","","100.43","","","","-19","","NA"
"-63.51","44.88","HALIFAX STANFIELD INT'L A","8202251","2022-01-16 13:00","2022","01","16","13:00","-9.3","","-14.2","","68","","","","30","","22","","24.1","","100.40","","","","-17","","NA"
"-63.51","44.88","HALIFAX STANFIELD INT'L A","8202251","2022-01-16 14:00","2022","01","16","14:00","-8.9","","-14.3","","65","","","","28","","23","","24.1","","100.41","","","","-17","","Clear"
"-63.51","44.88","HALIFAX STANFIELD INT'L A","8202251","2022-01-16 15:00","2022","01","16","15:00","-8.7","","-15.4","","59","","","","29","","21","","24.1","","100.53","","","","-16","","NA"
"-63.51","44.88","HALIFAX STANFIELD INT'L A","8202251","2022-01-16 16:00","2022","01","16","16:00","-8.8","","-15.5","","59","","","","28","","26","","24.1","","100.65","","","","-17","","NA"
"-63.51","44.88","HALIFAX STANFIELD INT'L A","8202251","2022-01-16 17:00","2022","01","16","17:00","-9.6","","-14.4","","68","","","","29","","19","","24.1","","100.70","","","","-17","","Clear"
"-63.51","44.88","HALIFAX STANFIELD INT'L A","8202251","2022-01-16 18:00","2022","01","16","18:00","-10.3","","-14.2","","73","","","","29","","12","","24.1","","100.78","","","","-16","","NA"
"-63.51","44.88","HALIFAX STANFIELD INT'L A","8202251","2022-01-16 19:00","2022","01","16","19:00","-10.3","","-14.1","","74","","","","28","","13","","24.1","","100.77","","","","-17","","NA"
"-63.51","44.88","HALIFAX STANFIELD INT'L A","8202251","2022-01-16 20:00","2022","01","16","20:00","-10.4","","-14.1","","75","","","","30","","12","","24.1","","100.75","","","","-16","","Clear"
"-63.51","44.88","HALIFAX STANFIELD INT'L A","8202251","2022-01-16 21:00","2022","01","16","21:00","-11.8","","-14.3","","82","","","","22","","8","","24.1","","100.69","","","","-17","","NA"
"-63.51","44.88","HALIFAX STANFIELD INT'L A","8202251","2022-01-16 22:00","2022","01","16","22:00","-10.7","","-13.8","","78","","","","26","","6","","24.1","","100.69","","","","-14","","NA"
"-63.51","44.88","HALIFAX STANFIELD INT'L A","8202251","2022-01-16 23:00","2022","01","16","23:00","-12.9","","-14.9","","85","","","","22","","21","","24.1","","100.87","","","","-22","","Mainly Clear"
"-63.51","44.88","HALIFAX STANFIELD INT'L A","8202251","2022-01-17 00:00","2022","01","17","00:00","-12.7","","-14.8","","84","","","","22","","12","","24.1","","100.87","","","","-19","","NA"
"-63.51","44.88","HALIFAX STANFIELD INT'L A","8202251","2022-01-17 01:00","2022","01","17","01:00","-13.0","","-14.7","","87","","","","22","","12","","24.1","","100.78","","","","-20","","NA"
"-63.51","44.88","HALIFAX STANFIELD INT'L A","8202251","2022-01-17 02:00","2022","01","17","02:00","-12.7","","-14.5","","86","","","","22","","9","","24.1","","100.78","","","","-18","","Mainly Clear"
"-63.51","44.88","HALIFAX STANFIELD INT'L A","8202251","2022-01-17 03:00","2022","01","17","03:00","-13.0","","-14.8","","87","","","","13","","5","","24.1","","100.74","","","","-16","","NA"
"-63.51","44.88","HALIFAX STANFIELD INT'L A","8202251","2022-01-17 04:00","2022","01","17","04:00","-13.6","","-15.1","","88","","","","12","","14","","24.1","","100.68","","","","-21","","NA"
"-63.51","44.88","HALIFAX STANFIELD INT'L A","8202251","2022-01-17 05:00","2022","01","17","05:00","-12.1","","-14.0","","85","","","","12","","12","","24.1","","100.60","","","","-18","","Mainly Clear"
"-63.51","44.88","HALIFAX STANFIELD INT'L A","8202251","2022-01-17 06:00","2022","01","17","06:00","-10.4","","-12.8","","82","","","","12","","13","","24.1","","100.53","","","","-17","","NA"
"-63.51","44.88","HALIFAX STANFIELD INT'L A","8202251","2022-01-17 07:00","2022","01","17","07:00","-11.0","","-13.4","","82","","","","11","","13","","24.1","","100.45","","","","-17","","NA"
"-63.51","44.88","HALIFAX STANFIELD INT'L A","8202251","2022-01-17 08:00","2022","01","17","08:00","-10.9","","-13.1","","84","","","","12","","17","","24.1","","100.37","","","","-18","","Mostly Cloudy"
"-63.51","44.88","HALIFAX STANFIELD INT'L A","8202251","2022-01-17 09:00","2022","01","17","09:00","-9.7","","-10.9","","91","","","","12","","19","","24.1","","100.29","","","","-17","","NA"
"-63.51","44.88","HALIFAX STANFIELD INT'L A","8202251","2022-01-17 10:00","2022","01","17","10:00","-7.4","","-8.4","","92","","","","13","","14","","24.1","","100.20","","","","-13","","NA"
"-63.51","44.88","HALIFAX STANFIELD INT'L A","8202251","2022-01-17 11:00","2022","01","17","11:00","-4.0","","-5.3","","91","","","","13","","21","","24.1","","99.97","","","","-10","","Cloudy"
"-63.51","44.88","HALIFAX STANFIELD INT'L A","8202251","2022-01-17 12:00","2022","01","17","12:00","-0.9","","-3.8","","80","","","","13","","36","","24.1","","99.66","","","","-8","","NA"
"-63.51","44.88","HALIFAX STANFIELD INT'L A","8202251","2022-01-17 13:00","2022","01","17","13:00","0.0","","-2.2","","85","","","","13","","42","","24.1","","99.35","","","","-8","","NA"
"-63.51","44.88","HALIFAX STANFIELD INT'L A","8202251","2022-01-17 14:00","2022","01","17","14:00","0.0","","-1.1","","92","","","","13","","54","","0.6","","99.01","","","","-8","","Moderate Snow,Ice Pellets"
"-63.51","44.88","HALIFAX STANFIELD INT'L A","8202251","2022-01-17 15:00","2022","01","17","15:00","0.4","","-0.2","","96","","","","13","","43","","1.0","","98.82","","","","","","Snow,Blowing Snow"
"-63.51","44.88","HALIFAX STANFIELD INT'L A","8202251","2022-01-17 16:00","2022","01","17","16:00","0.8","","0.2","","96","","","","13","","55","","1.6","","98.44","","","","","","Snow,Moderate Ice Pellets,Blowing Snow"
"-63.51","44.88","HALIFAX STANFIELD INT'L A","8202251","2022-01-17 17:00","2022","01","17","17:00","2.2","","1.8","","97","","","","13","","63","","2.4","","98.12","","","","","","Moderate Rain,Fog"
"-63.51","44.88","HALIFAX STANFIELD INT'L A","8202251","2022-01-17 18:00","2022","01","17","18:00","3.5","","3.0","","97","","","","13","","64","","2.4","","97.85","","","","","","Heavy Rain,Fog"
"-63.51","44.88","HALIFAX STANFIELD INT'L A","8202251","2022-01-17 19:00","2022","01","17","19:00","4.7","","4.3","","97","","","","14","","63","","2.4","","97.66","","","","","","Heavy Rain,Fog"
"-63.51","44.88","HALIFAX STANFIELD INT'L A","8202251","2022-01-17 20:00","2022","01","17","20:00","5.7","","5.4","","98","","","","14","","55","","3.2","","97.44","","","","","","Moderate Rain,Fog"
"-63.51","44.88","HALIFAX STANFIELD INT'L A","8202251","2022-01-17 21:00","2022","01","17","21:00","6.4","","6.1","","98","","","","16","","39","","3.2","","97.49","","","","","","Moderate Rain,Fog"
"-63.51","44.88","HALIFAX STANFIELD INT'L A","8202251","2022-01-17 22:00","2022","01","17","22:00","6.4","","6.2","","98","","","","16","","27","","3.6","","97.45","","","","","","Rain Showers,Fog"
"-63.51","44.88","HALIFAX STANFIELD INT'L A","8202251","2022-01-17 23:00","2022","01","17","23:00","6.1","","6.0","","99","","","","15","","21","","0.6","","97.36","","","","","","Rain Showers,Fog"
"-63.51","44.88","HALIFAX STANFIELD INT'L A","8202251","2022-01-18 00:00","2022","01","18","00:00","6.3","","6.1","","99","","","","17","","17","","9.7","","97.28","","","","","","Rain,Fog"
"-63.51","44.88","HALIFAX STANFIELD INT'L A","8202251","2022-01-18 01:00","2022","01","18","01:00","5.8","","5.5","","98","","","","16","","15","","9.7","","97.22","","","","","","Rain,Fog"
"-63.51","44.88","HALIFAX STANFIELD INT'L A","8202251","2022-01-18 02:00","2022","01","18","02:00","5.5","","5.0","","97","","","","17","","11","","9.7","","97.24","","","","","","Fog"
"-63.51","44.88","HALIFAX STANFIELD INT'L A","8202251","2022-01-18 03:00","2022","01","18","03:00","4.8","","4.5","","98","","","","18","","15","","8.1","","97.21","","","","","","Rain Showers,Fog"
"-63.51","44.88","HALIFAX STANFIELD INT'L A","8202251","2022-01-18 04:00","2022","01","18","04:00","4.5","","4.3","","99","","","","18","","10","","4.8","","97.06","","","","","","Rain Showers,Fog"
"-63.51","44.88","HALIFAX STANFIELD INT'L A","8202251","2022-01-18 05:00","2022","01","18","05:00","4.4","","4.2","","99","","","","15","","14","","4.0","","97.13","","","","","","Rain Showers,Fog"
"-63.51","44.88","HALIFAX STANFIELD INT'L A","8202251","2022-01-18 06:00","2022","01","18","06:00","3.9","","3.7","","98","","","","15","","14","","9.7","","97.10","","","","","","Fog"
"-63.51","44.88","HALIFAX STANFIELD INT'L A","8202251","2022-01-18 07:00","2022","01","18","07:00","3.3","","3.1","","99","","","","16","","12","","1.0","","97.01","","","","","","Rain Showers,Fog"
"-63.51","44.88","HALIFAX STANFIELD INT'L A","8202251","2022-01-18 08:00","2022","01","18","08:00","3.7","","2.7","","93","","","","20","","23","","8.1","","97.05","","","","","","Rain Showers,Fog"
"-63.51","44.88","HALIFAX STANFIELD INT'L A","8202251","2022-01-18 09:00","2022","01","18","09:00","3.2","","2.2","","93","","","","22","","17","","12.9","","97.01","","","","","","NA"
"-63.51","44.88","HALIFAX STANFIELD INT'L A","8202251","2022-01-18 10:00","2022","01","18","10:00","3.3","","2.1","","91","","","","23","","19","","16.1","","96.96","","","","","","NA"
"-63.51","44.88","HALIFAX STANFIELD INT'L A","8202251","2022-01-18 11:00","2022","01","18","11:00","3.0","","1.3","","88","","","","24","","18","","24.1","","97.01","","","","","","Mostly Cloudy"
"-63.51","44.88","HALIFAX STANFIELD INT'L A","8202251","2022-01-18 12:00","2022","01","18","12:00","2.8","","1.2","","90","","","","22","","15","","24.1","","96.96","","","","","","NA"
"-63.51","44.88","HALIFAX STANFIELD INT'L A","8202251","2022-01-18 13:00","2022","01","18","13:00","2.6","","1.4","","92","","","","24","","17","","24.1","","96.93","","","","","","NA"
"-63.51","44.88","HALIFAX STANFIELD INT'L A","8202251","2022-01-18 14:00","2022","01","18","14:00","2.4","","1.5","","94","","","","25","","18","","9.7","","96.97","","","","","","Rain Showers,Fog"
"-63.51","44.88","HALIFAX STANFIELD INT'L A","8202251","2022-01-18 15:00","2022","01","18","15:00","0.4","","-0.8","","92","","","","30","","22","","4.0","","97.14","","","","","","Snow Showers,Fog"
"-63.51","44.88","HALIFAX STANFIELD INT'L A","8202251","2022-01-18 16:00","2022","01","18","16:00","-1.0","","-2.9","","87","","","","29","","35","","4.0","","97.31","","","","-8","","Snow Showers"
"-63.51","44.88","HALIFAX STANFIELD INT'L A","8202251","2022-01-18 17:00","2022","01","18","17:00","-2.7","","-5.4","","82","","","","29","","30","","4.8","","97.48","","","","-10","","Snow Showers"
"-63.51","44.88","HALIFAX STANFIELD INT'L A","8202251","2022-01-18 18:00","2022","01","18","18:00","-3.6","","-6.5","","80","","","","29","","28","","19.3","","97.63","","","","-11","","Snow Showers"
"-63.51","44.88","HALIFAX STANFIELD INT'L A","8202251","2022-01-18 19:00","2022","01","18","19:00","-4.0","","-8.6","","70","","","","29","","37","","16.1","","97.81","","","","-12","","Snow Showers"
"-63.51","44.88","HALIFAX STANFIELD INT'L A","8202251","2022-01-18 20:00","2022","01","18","20:00","-5.1","","-10.2","","68","","","","29","","46","","19.3","","97.96","","","","-15","","Snow Showers"
"-63.51","44.88","HALIFAX STANFIELD INT'L A","8202251","2022-01-18 21:00","2022","01","18","21:00","-6.1","","-10.7","","70","","","","30","","38","","19.3","","98.13","","","","-15","","Snow Showers"
"-63.51","44.88","HALIFAX STANFIELD INT'L A","8202251","2022-01-18 22:00","2022","01","18","22:00","-6.5","","-11.4","","69","","","","29","","29","","24.1","","98.26","","","","-15","","Snow Showers"
"-63.51","44.88","HALIFAX STANFIELD INT'L A","8202251","2022-01-18 23:00","2022","01","18","23:00","-7.1","","-12.4","","66","","","","30","","31","","24.1","","98.39","","","","-16","","Snow Showers"
"-63.51","44.88","HALIFAX STANFIELD INT'L A","8202251","2022-01-19 00:00","2022","01","19","00:00","-8.5","","-13.7","","66","","","","28","","36","","24.1","","98.51","","","","-18","","NA"
"-63.51","44.88","HALIFAX STANFIELD INT'L A","8202251","2022-01-19 01:00","2022","01","19","01:00","-9.4","","-14.0","","69","","","","30","","39","","24.1","","98.65","","","","-20","","NA"
"-63.51","44.88","HALIFAX STANFIELD INT'L A","8202251","2022-01-19 02:00","2022","01","19","02:00","-10.8","","-15.2","","70","","","","29","","39","","24.1","","98.78","","","","-22","","Mainly Clear"
"-63.51","44.88","HALIFAX STANFIELD INT'L A","8202251","2022-01-19 03:00","2022","01","19","03:00","-11.9","","-16.1","","72","","","","29","","48","","24.1","","98.91","","","","-24","","NA"
"-63.51","44.88","HALIFAX STANFIELD INT'L A","8202251","2022-01-19 04:00","2022","01","19","04:00","-12.4","","-16.5","","72","","","","29","","44","","24.1","","99.12","","","","-24","","Snow Showers"
"-63.51","44.88","HALIFAX STANFIELD INT'L A","8202251","2022-01-19 05:00","2022","01","19","05:00","-12.8","","-16.7","","73","","","","29","","37","","24.1","","99.28","","","","-24","","Mainly Clear"
"-63.51","44.88","HALIFAX STANFIELD INT'L A","8202251","2022-01-19 06:00","2022","01","19","06:00","-13.2","","-17.6","","70","","","","29","","39","","24.1","","99.46","","","","-25","","NA"
"-63.51","44.88","HALIFAX STANFIELD INT'L A","8202251","2022-01-19 07:00","2022","01","19","07:00","-13.3","","-17.6","","71","","","","29","","34","","24.1","","99.63","","","","-24","","NA"
"-63.51","44.88","HALIFAX STANFIELD INT'L A","8202251","2022-01-19 08:00","2022","01","19","08:00","-13.2","","-17.4","","71","","","","30","","32","","24.1","","99.79","","","","-24","","Clear"
"-63.51","44.88","HALIFAX STANFIELD INT'L A","8202251","2022-01-19 09:00","2022","01","19","09:00","-12.6","","-16.7","","72","","","","30","","29","","24.1","","99.89","","","","-23","","NA"
"-63.51","44.88","HALIFAX STANFIELD INT'L A","8202251","2022-01-19 10:00","2022","01","19","10:00","-11.7","","-16.4","","68","","","","30","","29","","24.1","","99.98","","","","-22","","NA"
"-63.51","44.88","HALIFAX STANFIELD INT'L A","8202251","2022-01-19 11:00","2022","01","19","11:00","-10.6","","-16.4","","63","","","","31","","24","","24.1","","100.04","","","","-19","","Clear"
"-63.51","44.88","HALIFAX STANFIELD INT'L A","8202251","2022-01-19 12:00","2022","01","19","12:00","-8.7","","-16.0","","56","","","","29","","16","","24.1","","100.08","","","","-15","","NA"
"-63.51","44.88","HALIFAX STANFIELD INT'L A","8202251","2022-01-19 13:00","2022","01","19","13:00","-7.1","","-16.5","","48","","","","30","","14","","24.1","","100.05","","","","-13","","NA"
"-63.51","44.88","HALIFAX STANFIELD INT'L A","8202251","2022-01-19 14:00","2022","01","19","14:00","-5.6","","-16.2","","43","","","","26","","13","","24.1","","100.00","","","","-11","","Mostly Cloudy"
"-63.51","44.88","HALIFAX STANFIELD INT'L A","8202251","2022-01-19 15:00","2022","01","19","15:00","-5.2","","-15.2","","46","","","","22","","15","","24.1","","100.03","","","","-11","","NA"
"-63.51","44.88","HALIFAX STANFIELD INT'L A","8202251","2022-01-19 16:00","2022","01","19","16:00","-5.6","","-14.3","","50","","","","20","","16","","24.1","","100.08","","","","-12","","NA"
"-63.51","44.88","HALIFAX STANFIELD INT'L A","8202251","2022-01-19 17:00","2022","01","19","17:00","-5.7","","-11.6","","63","","","","19","","12","","24.1","","100.08","","","","-11","","Cloudy"
"-63.51","44.88","HALIFAX STANFIELD INT'L A","8202251","2022-01-19 18:00","2022","01","19","18:00","-5.4","","-10.3","","69","","","","14","","9","","24.1","","100.01","","","","-9","","NA"
"-63.51","44.88","HALIFAX STANFIELD INT'L A","8202251","2022-01-19 19:00","2022","01","19","19:00","-5.2","","-9.3","","73","","","","14","","12","","24.1","","99.98","","","","-10","","NA"
"-63.51","44.88","HALIFAX STANFIELD INT'L A","8202251","2022-01-19 20:00","2022","01","19","20:00","-4.7","","-7.8","","79","","","","13","","15","","24.1","","99.92","","","","-10","","Snow"
"-63.51","44.88","HALIFAX STANFIELD INT'L A","8202251","2022-01-19 21:00","2022","01","19","21:00","-1.7","","-3.1","","90","","","","16","","16","","4.0","","99.79","","","","-7","","Snow"
"-63.51","44.88","HALIFAX STANFIELD INT'L A","8202251","2022-01-19 22:00","2022","01","19","22:00","0.8","","-0.4","","92","","","","18","","22","","19.3","","99.69","","","","","","Rain,Snow"
"-63.51","44.88","HALIFAX STANFIELD INT'L A","8202251","2022-01-19 23:00","2022","01","19","23:00","1.9","","0.4","","90","","","","19","","22","","19.3","","99.62","","","","","","Rain"
"-63.51","44.88","HALIFAX STANFIELD INT'L A","8202251","2022-01-20 00:00","2022","01","20","00:00","3.0","","1.8","","92","","","","20","","22","","6.4","","99.56","","","","","","Drizzle,Fog"
"-63.51","44.88","HALIFAX STANFIELD INT'L A","8202251","2022-01-20 01:00","2022","01","20","01:00","3.9","","3.1","","95","","","","21","","31","","4.8","","99.50","","","","","","Drizzle,Fog"
"-63.51","44.88","HALIFAX STANFIELD INT'L A","8202251","2022-01-20 02:00","2022","01","20","02:00","4.5","","3.5","","94","","","","21","","26","","4.8","","99.47","","","","","","Drizzle,Fog"
"-63.51","44.88","HALIFAX STANFIELD INT'L A","8202251","2022-01-20 03:00","2022","01","20","03:00","4.0","","3.4","","95","","","","22","","23","","4.8","","99.49","","","","","","Drizzle,Fog"
"-63.51","44.88","HALIFAX STANFIELD INT'L A","8202251","2022-01-20 04:00","2022","01","20","04:00","4.0","","3.4","","96","","","","21","","18","","16.1","","99.51","","","","","","NA"
"-63.51","44.88","HALIFAX STANFIELD INT'L A","8202251","2022-01-20 05:00","2022","01","20","05:00","3.8","","3.1","","96","","","","20","","15","","9.7","","99.52","","","","","","Fog"
"-63.51","44.88","HALIFAX STANFIELD INT'L A","8202251","2022-01-20 06:00","2022","01","20","06:00","3.5","","3.0","","96","","","","20","","18","","9.7","","99.49","","","","","","Fog"
"-63.51","44.88","HALIFAX STANFIELD INT'L A","8202251","2022-01-20 07:00","2022","01","20","07:00","3.5","","3.0","","97","","","","21","","16","","9.7","","99.55","","","","","","Fog"
"-63.51","44.88","HALIFAX STANFIELD INT'L A","8202251","2022-01-20 08:00","2022","01","20","08:00","3.2","","2.9","","98","","","","21","","14","","6.4","","99.60","","","","","","Fog"
"-63.51","44.88","HALIFAX STANFIELD INT'L A","8202251","2022-01-20 09:00","2022","01","20","09:00","3.6","","3.4","","98","","","","21","","16","","6.4","","99.58","","","","","","Fog"
"-63.51","44.88","HALIFAX STANFIELD INT'L A","8202251","2022-01-20 10:00","2022","01","20","10:00","3.7","","3.5","","98","","","","20","","14","","6.4","","99.62","","","","","","Fog"
"-63.51","44.88","HALIFAX STANFIELD INT'L A","8202251","2022-01-20 11:00","2022","01","20","11:00","3.9","","3.4","","96","","","","20","","17","","8.1","","99.62","","","","","","Fog"
"-63.51","44.88","HALIFAX STANFIELD INT'L A","8202251","2022-01-20 12:00","2022","01","20","12:00","3.8","","2.9","","94","","","","22","","16","","9.7","","99.57","","","","","","Drizzle,Fog"
"-63.51","44.88","HALIFAX STANFIELD INT'L A","8202251","2022-01-20 13:00","2022","01","20","13:00","1.4","","0.8","","96","","","","30","","13","","9.7","","99.56","","","","","","Drizzle,Fog"
"-63.51","44.88","HALIFAX STANFIELD INT'L A","8202251","2022-01-20 14:00","2022","01","20","14:00","0.3","","0.0","","98","","","","34","","16","","4.0","","99.55","","","","","","Drizzle,Fog"
"-63.51","44.88","HALIFAX STANFIELD INT'L A","8202251","2022-01-20 15:00","2022","01","20","15:00","-0.3","","-0.5","","99","","","","34","","19","","1.2","","99.61","","","","-5","","Snow,Fog"
"-63.51","44.88","HALIFAX STANFIELD INT'L A","8202251","2022-01-20 16:00","2022","01","20","16:00","-0.8","","-1.0","","99","","","","36","","17","","2.4","","99.72","","","","-6","","Snow,Fog"
"-63.51","44.88","HALIFAX STANFIELD INT'L A","8202251","2022-01-20 17:00","2022","01","20","17:00","-1.2","","-1.6","","98","","","","36","","15","","1.6","","99.80","","","","-6","","Snow,Fog"
"-63.51","44.88","HALIFAX STANFIELD INT'L A","8202251","2022-01-20 18:00","2022","01","20","18:00","-2.1","","-2.7","","95","","","","35","","15","","1.6","","99.91","","","","-7","","Snow,Fog"
"-63.51","44.88","HALIFAX STANFIELD INT'L A","8202251","2022-01-20 19:00","2022","01","20","19:00","-2.5","","-3.2","","95","","","","33","","11","","12.9","","99.99","","","","-7","","NA"
"-63.51","44.88","HALIFAX STANFIELD INT'L A","8202251","2022-01-20 20:00","2022","01","20","20:00","-2.6","","-3.4","","94","","","","33","","17","","24.1","","100.06","","","","-8","","Cloudy"
"-63.51","44.88","HALIFAX STANFIELD INT'L A","8202251","2022-01-20 21:00","2022","01","20","21:00","-3.8","","-5.7","","87","","","","33","","18","","24.1","","100.13","","","","-10","","NA"
"-63.51","44.88","HALIFAX STANFIELD INT'L A","8202251","2022-01-20 22:00","2022","01","20","22:00","-4.5","","-6.2","","88","","","","35","","22","","24.1","","100.23","","","","-11","","NA"
"-63.51","44.88","HALIFAX STANFIELD INT'L A","8202251","2022-01-20 23:00","2022","01","20","23:00","-5.8","","-7.3","","89","","","","1","","25","","24.1","","100.28","","","","-13","","Cloudy"
"-63.51","44.88","HALIFAX STANFIELD INT'L A","8202251","2022-01-21 00:00","2022","01","21","00:00","-6.3","","-7.7","","90","","","","35","","22","","12.9","","100.34","","","","-14","","Snow"
"-63.51","44.88","HALIFAX STANFIELD INT'L A","8202251","2022-01-21 01:00","2022","01","21","01:00","-8.7","","-10.8","","85","","","","36","","22","","12.9","","100.38","","","","-17","","Snow"
"-63.51","44.88","HALIFAX STANFIELD INT'L A","8202251","2022-01-21 02:00","2022","01","21","02:00","-10.0","","-11.8","","87","","","","36","","23","","19.3","","100.49","","","","-18","","Snow"
"-63.51","44.88","HALIFAX STANFIELD INT'L A","8202251","2022-01-21 03:00","2022","01","21","03:00","-11.9","","-14.0","","84","","","","34","","27","","24.1","","100.60","","","","-22","","NA"
"-63.51","44.88","HALIFAX STANFIELD INT'L A","8202251","2022-01-21 04:00","2022","01","21","04:00","-12.8","","-14.8","","85","","","","35","","27","","24.1","","100.66","","","","-23","","NA"
"-63.51","44.88","HALIFAX STANFIELD INT'L A","8202251","2022-01-21 05:00","2022","01","21","05:00","-13.6","","-15.7","","85","","","","35","","23","","24.1","","100.70","","","","-23","","Mostly Cloudy"
"-63.51","44.88","HALIFAX STANFIELD INT'L A","8202251","2022-01-21 06:00","2022","01","21","06:00","-14.1","","-16.2","","85","","","","35","","21","","24.1","","100.77","","","","-23","","NA"
"-63.51","44.88","HALIFAX STANFIELD INT'L A","8202251","2022-01-21 07:00","2022","01","21","07:00","-14.6","","-16.5","","85","","","","34","","25","","24.1","","100.85","","","","-25","","NA"
"-63.51","44.88","HALIFAX STANFIELD INT'L A","8202251","2022-01-21 08:00","2022","01","21","08:00","-15.3","","-17.4","","84","","","","35","","31","","24.1","","100.90","","","","-27","","Mainly Clear"
"-63.51","44.88","HALIFAX STANFIELD INT'L A","8202251","2022-01-21 09:00","2022","01","21","09:00","-15.6","","-17.8","","83","","","","35","","29","","24.1","","101.04","","","","-27","","NA"
"-63.51","44.88","HALIFAX STANFIELD INT'L A","8202251","2022-01-21 10:00","2022","01","21","10:00","-15.5","","-17.9","","82","","","","35","","18","","24.1","","101.11","","","","-24","","NA"
"-63.51","44.88","HALIFAX STANFIELD INT'L A","8202251","2022-01-21 11:00","2022","01","21","11:00","-14.8","","-17.3","","82","","","","35","","19","","24.1","","101.15","","","","-24","","Mostly Cloudy"
"-63.51","44.88","HALIFAX STANFIELD INT'L A","8202251","2022-01-21 12:00","2022","01","21","12:00","-13.0","","-16.0","","79","","","","35","","22","","24.1","","101.07","","","","-22","","NA"
"-63.51","44.88","HALIFAX STANFIELD INT'L A","8202251","2022-01-21 13:00","2022","01","21","13:00","-13.2","","-16.1","","79","","","","36","","24","","24.1","","101.07","","","","-23","","NA"
"-63.51","44.88","HALIFAX STANFIELD INT'L A","8202251","2022-01-21 14:00","2022","01","21","14:00","-12.4","","-15.6","","78","","","","35","","23","","24.1","","101.03","","","","-21","","Mostly Cloudy"
"-63.51","44.88","HALIFAX STANFIELD INT'L A","8202251","2022-01-21 15:00","2022","01","21","15:00","-12.3","","-15.6","","76","","","","1","","25","","24.1","","101.10","","","","-22","","NA"
"-63.51","44.88","HALIFAX STANFIELD INT'L A","8202251","2022-01-21 16:00","2022","01","21","16:00","-12.4","","-15.7","","77","","","","36","","17","","24.1","","101.14","","","","-20","","NA"
"-63.51","44.88","HALIFAX STANFIELD INT'L A","8202251","2022-01-21 17:00","2022","01","21","17:00","-13.3","","-16.2","","79","","","","36","","17","","24.1","","101.24","","","","-21","","Mostly Cloudy"
"-63.51","44.88","HALIFAX STANFIELD INT'L A","8202251","2022-01-21 18:00","2022","01","21","18:00","-14.2","","-16.5","","83","","","","36","","14","","24.1","","101.28","","","","-22","","NA"
"-63.51","44.88","HALIFAX STANFIELD INT'L A","8202251","2022-01-21 19:00","2022","01","21","19:00","-15.0","","-17.2","","84","","","","35","","13","","24.1","","101.36","","","","-22","","NA"
"-63.51","44.88","HALIFAX STANFIELD INT'L A","8202251","2022-01-21 20:00","2022","01","21","20:00","-15.7","","-17.6","","85","","","","35","","10","","24.1","","101.41","","","","-22","","Clear"
"-63.51","44.88","HALIFAX STANFIELD INT'L A","8202251","2022-01-21 21:00","2022","01","21","21:00","-16.3","","-18.2","","86","","","","35","","10","","24.1","","101.48","","","","-23","","NA"
"-63.51","44.88","HALIFAX STANFIELD INT'L A","8202251","2022-01-21 22:00","2022","01","21","22:00","-16.7","","-18.6","","86","","","","35","","11","","24.1","","101.46","","","","-24","","NA"
"-63.51","44.88","HALIFAX STANFIELD INT'L A","8202251","2022-01-21 23:00","2022","01","21","23:00","-16.8","","-18.7","","86","","","","34","","9","","24.1","","101.48","","","","-23","","Clear"
"-63.51","44.88","HALIFAX STANFIELD INT'L A","8202251","2022-01-22 00:00","2022","01","22","00:00","-16.8","","-18.7","","85","","","","35","","9","","24.1","","101.52","","","","-23","","NA"
"-63.51","44.88","HALIFAX STANFIELD INT'L A","8202251","2022-01-22 01:00","2022","01","22","01:00","-17.0","","-18.8","","86","","","","35","","7","","24.1","","101.50","","","","-22","","NA"
"-63.51","44.88","HALIFAX STANFIELD INT'L A","8202251","2022-01-22 02:00","2022","01","22","02:00","-17.0","","-18.8","","86","","","","2","","7","","24.1","","101.50","","","","-22","","Clear"
"-63.51","44.88","HALIFAX STANFIELD INT'L A","8202251","2022-01-22 03:00","2022","01","22","03:00","-17.2","","-18.9","","87","","","","3","","10","","24.1","","101.50","","","","-24","","NA"
"-63.51","44.88","HALIFAX STANFIELD INT'L A","8202251","2022-01-22 04:00","2022","01","22","04:00","-16.9","","-18.8","","86","","","","3","","9","","24.1","","101.44","","","","-23","","NA"
"-63.51","44.88","HALIFAX STANFIELD INT'L A","8202251","2022-01-22 05:00","2022","01","22","05:00","-16.6","","-18.6","","85","","","","4","","7","","24.1","","101.43","","","","-22","","Mostly Cloudy"
"-63.51","44.88","HALIFAX STANFIELD INT'L A","8202251","2022-01-22 06:00","2022","01","22","06:00","-17.2","","-18.9","","87","","","","2","","9","","24.1","","101.38","","","","-23","","NA"
"-63.51","44.88","HALIFAX STANFIELD INT'L A","8202251","2022-01-22 07:00","2022","01","22","07:00","-17.3","","-18.9","","87","","","","3","","12","","24.1","","101.34","","","","-25","","NA"
"-63.51","44.88","HALIFAX STANFIELD INT'L A","8202251","2022-01-22 08:00","2022","01","22","08:00","-17.2","","-18.8","","87","","","","3","","13","","24.1","","101.30","","","","-25","","Mainly Clear"
"-63.51","44.88","HALIFAX STANFIELD INT'L A","8202251","2022-01-22 09:00","2022","01","22","09:00","-15.9","","-17.7","","86","","","","3","","11","","24.1","","101.35","","","","-23","","NA"
"-63.51","44.88","HALIFAX STANFIELD INT'L A","8202251","2022-01-22 10:00","2022","01","22","10:00","-15.3","","-17.1","","87","","","","1","","14","","24.1","","101.31","","","","-23","","NA"
"-63.51","44.88","HALIFAX STANFIELD INT'L A","8202251","2022-01-22 11:00","2022","01","22","11:00","-13.5","","-15.1","","88","","","","3","","15","","24.1","","101.11","","","","-21","","Mostly Cloudy"
"-63.51","44.88","HALIFAX STANFIELD INT'L A","8202251","2022-01-22 12:00","2022","01","22","12:00","-12.3","","-13.9","","88","","","","1","","11","","24.1","","101.05","","","","-18","","NA"
"-63.51","44.88","HALIFAX STANFIELD INT'L A","8202251","2022-01-22 13:00","2022","01","22","13:00","-11.6","","-13.1","","89","","","","33","","7","","24.1","","100.97","","","","-16","","NA"
"-63.51","44.88","HALIFAX STANFIELD INT'L A","8202251","2022-01-22 14:00","2022","01","22","14:00","-10.4","","-12.0","","88","","","","36","","12","","24.1","","100.79","","","","-16","","Mostly Cloudy"
"-63.51","44.88","HALIFAX STANFIELD INT'L A","8202251","2022-01-22 15:00","2022","01","22","15:00","-9.7","","-11.6","","86","","","","1","","14","","24.1","","100.75","","","","-16","","NA"
"-63.51","44.88","HALIFAX STANFIELD INT'L A","8202251","2022-01-22 16:00","2022","01","22","16:00","-9.1","","-11.0","","86","","","","36","","17","","24.1","","100.65","","","","-16","","NA"
"-63.51","44.88","HALIFAX STANFIELD INT'L A","8202251","2022-01-22 17:00","2022","01","22","17:00","-8.9","","-10.8","","86","","","","36","","15","","24.1","","100.64","","","","-15","","Cloudy"
"-63.51","44.88","HALIFAX STANFIELD INT'L A","8202251","2022-01-22 18:00","2022","01","22","18:00","-9.0","","-10.8","","87","","","","1","","13","","24.1","","100.58","","","","-15","","NA"
"-63.51","44.88","HALIFAX STANFIELD INT'L A","8202251","2022-01-22 19:00","2022","01","22","19:00","-9.2","","-10.8","","88","","","","3","","17","","24.1","","100.47","","","","-16","","NA"
"-63.51","44.88","HALIFAX STANFIELD INT'L A","8202251","2022-01-22 20:00","2022","01","22","20:00","-9.4","","-10.8","","90","","","","3","","15","","24.1","","100.25","","","","-16","","Mostly Cloudy"
"-63.51","44.88","HALIFAX STANFIELD INT'L A","8202251","2022-01-22 21:00","2022","01","22","21:00","-9.5","","-10.8","","91","","","","1","","12","","24.1","","100.16","","","","-15","","NA"
"-63.51","44.88","HALIFAX STANFIELD INT'L A","8202251","2022-01-22 22:00","2022","01","22","22:00","-10.4","","-11.4","","93","","","","1","","12","","24.1","","99.98","","","","-16","","NA"
"-63.51","44.88","HALIFAX STANFIELD INT'L A","8202251","2022-01-22 23:00","2022","01","22","23:00","-9.7","","-10.7","","92","","","","1","","11","","24.1","","99.88","","","","-15","","Mostly Cloudy"
"-63.51","44.88","HALIFAX STANFIELD INT'L A","8202251","2022-01-23 00:00","2022","01","23","00:00","-9.3","","-10.2","","93","","","","2","","14","","24.1","","99.82","","","","-16","","NA"
"-63.51","44.88","HALIFAX STANFIELD INT'L A","8202251","2022-01-23 01:00","2022","01","23","01:00","-9.1","","-10.0","","93","","","","1","","10","","24.1","","99.75","","","","-14","","NA"
"-63.51","44.88","HALIFAX STANFIELD INT'L A","8202251","2022-01-23 02:00","2022","01","23","02:00","-8.8","","-9.8","","93","","","","36","","11","","3.2","","99.67","","","","-14","","Snow,Fog"
"-63.51","44.88","HALIFAX STANFIELD INT'L A","8202251","2022-01-23 03:00","2022","01","23","03:00","-8.7","","-9.7","","93","","","","35","","7","","3.2","","99.63","","","","-13","","Snow,Fog"
"-63.51","44.88","HALIFAX STANFIELD INT'L A","8202251","2022-01-23 04:00","2022","01","23","04:00","-8.7","","-9.7","","93","","","","1","","5","","24.1","","99.59","","","","-11","","NA"
"-63.51","44.88","HALIFAX STANFIELD INT'L A","8202251","2022-01-23 05:00","2022","01","23","05:00","-8.4","","-9.4","","92","","","","10","","9","","24.1","","99.48","","","","-13","","Snow"
"-63.51","44.88","HALIFAX STANFIELD INT'L A","8202251","2022-01-23 06:00","2022","01","23","06:00","-8.0","","-9.0","","93","","","","22","","8","","4.0","","99.47","","","","-12","","Snow,Fog"
"-63.51","44.88","HALIFAX STANFIELD INT'L A","8202251","2022-01-23 07:00","2022","01","23","07:00","-8.1","","-9.2","","92","","","","24","","7","","12.9","","99.47","","","","-12","","Snow"
"-63.51","44.88","HALIFAX STANFIELD INT'L A","8202251","2022-01-23 08:00","2022","01","23","08:00","-8.7","","-9.8","","92","","","","17","","4","","24.1","","99.44","","","","-11","","Mostly Cloudy"
"-63.51","44.88","HALIFAX STANFIELD INT'L A","8202251","2022-01-23 09:00","2022","01","23","09:00","-7.2","","-8.5","","90","","","","17","","10","","24.1","","99.39","","","","-12","","NA"
"-63.51","44.88","HALIFAX STANFIELD INT'L A","8202251","2022-01-23 10:00","2022","01","23","10:00","-4.8","","-7.4","","82","","","","18","","13","","24.1","","99.36","","","","-10","","NA"
"-63.51","44.88","HALIFAX STANFIELD INT'L A","8202251","2022-01-23 11:00","2022","01","23","11:00","-3.1","","-8.0","","69","","","","21","","17","","24.1","","99.34","","","","-9","","Mostly Cloudy"
"-63.51","44.88","HALIFAX STANFIELD INT'L A","8202251","2022-01-23 12:00","2022","01","23","12:00","-2.2","","-6.5","","73","","","","22","","22","","24.1","","99.25","","","","-8","","NA"
"-63.51","44.88","HALIFAX STANFIELD INT'L A","8202251","2022-01-23 13:00","2022","01","23","13:00","-1.1","","-8.6","","57","","","","21","","23","","24.1","","99.12","","","","-7","","NA"
"-63.51","44.88","HALIFAX STANFIELD INT'L A","8202251","2022-01-23 14:00","2022","01","23","14:00","-1.2","","-8.0","","60","","","","20","","23","","24.1","","99.05","","","","-7","","Mostly Cloudy"
"-63.51","44.88","HALIFAX STANFIELD INT'L A","8202251","2022-01-23 15:00","2022","01","23","15:00","-0.9","","-6.6","","65","","","","21","","25","","24.1","","99.03","","","","-7","","NA"
"-63.51","44.88","HALIFAX STANFIELD INT'L A","8202251","2022-01-23 16:00","2022","01","23","16:00","-0.9","","-5.5","","71","","","","20","","21","","24.1","","98.98","","","","-7","","NA"
"-63.51","44.88","HALIFAX STANFIELD INT'L A","8202251","2022-01-23 17:00","2022","01","23","17:00","-0.9","","-5.4","","72","","","","20","","26","","24.1","","98.97","","","","-7","","Mostly Cloudy"
"-63.51","44.88","HALIFAX STANFIELD INT'L A","8202251","2022-01-23 18:00","2022","01","23","18:00","-0.8","","-4.7","","75","","","","19","","20","","24.1","","98.98","","","","-6","","NA"
"-63.51","44.88","HALIFAX STANFIELD INT'L A","8202251","2022-01-23 19:00","2022","01","23","19:00","-0.6","","-3.8","","79","","","","20","","19","","19.3","","98.99","","","","-6","","Snow"
"-63.51","44.88","HALIFAX STANFIELD INT'L A","8202251","2022-01-23 20:00","2022","01","23","20:00","-0.4","","-3.3","","81","","","","19","","28","","6.4","","98.97","","","","-7","","Snow,Fog"
"-63.51","44.88","HALIFAX STANFIELD INT'L A","8202251","2022-01-23 21:00","2022","01","23","21:00","-1.0","","-1.6","","96","","","","20","","16","","4.0","","99.03","","","","-6","","Snow,Fog"
"-63.51","44.88","HALIFAX STANFIELD INT'L A","8202251","2022-01-23 22:00","2022","01","23","22:00","-0.7","","-1.3","","96","","","","18","","14","","24.1","","98.99","","","","-5","","NA"
"-63.51","44.88","HALIFAX STANFIELD INT'L A","8202251","2022-01-23 23:00","2022","01","23","23:00","-0.6","","-1.6","","93","","","","20","","17","","24.1","","98.99","","","","-6","","Cloudy"
"-63.51","44.88","HALIFAX STANFIELD INT'L A","8202251","2022-01-24 00:00","2022","01","24","00:00","-0.5","","-2.2","","88","","","","20","","14","","24.1","","99.00","","","","-5","","NA"
"-63.51","44.88","HALIFAX STANFIELD INT'L A","8202251","2022-01-24 01:00","2022","01","24","01:00","-1.1","","-2.7","","89","","","","20","","9","","24.1","","98.98","","","","-4","","NA"
"-63.51","44.88","HALIFAX STANFIELD INT'L A","8202251","2022-01-24 02:00","2022","01","24","02:00","-1.5","","-2.9","","91","","","","18","","7","","24.1","","98.95","","","","-4","","Cloudy"
"-63.51","44.88","HALIFAX STANFIELD INT'L A","8202251","2022-01-24 03:00","2022","01","24","03:00","-3.4","","-4.1","","95","","","","36","","19","","1.6","","98.96","","","","-9","","Snow,Fog"
"-63.51","44.88","HALIFAX STANFIELD INT'L A","8202251","2022-01-24 04:00","2022","01","24","04:00","-3.9","","-4.7","","94","","","","36","","17","","1.2","","98.96","","","","-10","","Snow,Fog"
"-63.51","44.88","HALIFAX STANFIELD INT'L A","8202251","2022-01-24 05:00","2022","01","24","05:00","-4.6","","-5.5","","93","","","","36","","19","","24.1","","98.92","","","","-11","","Mostly Cloudy"
"-63.51","44.88","HALIFAX STANFIELD INT'L A","8202251","2022-01-24 06:00","2022","01","24","06:00","-4.8","","-6.2","","90","","","","36","","25","","24.1","","99.01","","","","-12","","NA"
"-63.51","44.88","HALIFAX STANFIELD INT'L A","8202251","2022-01-24 07:00","2022","01","24","07:00","-5.1","","-6.6","","89","","","","1","","19","","2.4","","99.08","","","","-12","","Snow,Fog"
"-63.51","44.88","HALIFAX STANFIELD INT'L A","8202251","2022-01-24 08:00","2022","01","24","08:00","-5.5","","-6.4","","93","","","","1","","22","","1.2","","99.09","","","","-13","","Snow,Fog"
"-63.51","44.88","HALIFAX STANFIELD INT'L A","8202251","2022-01-24 09:00","2022","01","24","09:00","-5.6","","-6.6","","92","","","","1","","22","","4.0","","99.09","","","","-13","","Snow,Fog"
"-63.51","44.88","HALIFAX STANFIELD INT'L A","8202251","2022-01-24 10:00","2022","01","24","10:00","-5.6","","-6.7","","92","","","","1","","21","","4.0","","99.10","","","","-12","","Snow,Fog"
"-63.51","44.88","HALIFAX STANFIELD INT'L A","8202251","2022-01-24 11:00","2022","01","24","11:00","-5.6","","-6.8","","91","","","","36","","21","","4.0","","99.14","","","","-12","","Snow,Fog"
"-63.51","44.88","HALIFAX STANFIELD INT'L A","8202251","2022-01-24 12:00","2022","01","24","12:00","-5.1","","-6.5","","90","","","","36","","18","","4.8","","99.13","","","","-11","","Snow,Fog"
"-63.51","44.88","HALIFAX STANFIELD INT'L A","8202251","2022-01-24 13:00","2022","01","24","13:00","-4.5","","-6.8","","84","","","","1","","26","","24.1","","99.07","","","","-12","","Fog"
"-63.51","44.88","HALIFAX STANFIELD INT'L A","8202251","2022-01-24 14:00","2022","01","24","14:00","-4.1","","-6.6","","83","","","","2","","20","","24.1","","99.08","","","","-10","","Mostly Cloudy"
"-63.51","44.88","HALIFAX STANFIELD INT'L A","8202251","2022-01-24 15:00","2022","01","24","15:00","-4.0","","-6.5","","83","","","","35","","17","","24.1","","99.11","","","","-10","","NA"
"-63.51","44.88","HALIFAX STANFIELD INT'L A","8202251","2022-01-24 16:00","2022","01","24","16:00","-4.7","","-7.4","","81","","","","34","","18","","24.1","","99.21","","","","-11","","NA"
"-63.51","44.88","HALIFAX STANFIELD INT'L A","8202251","2022-01-24 17:00","2022","01","24","17:00","-5.2","","-7.5","","84","","","","36","","14","","24.1","","99.30","","","","-11","","Cloudy"
"-63.51","44.88","HALIFAX STANFIELD INT'L A","8202251","2022-01-24 18:00","2022","01","24","18:00","-6.2","","-8.1","","86","","","","1","","14","","24.1","","99.43","","","","-12","","NA"
"-63.51","44.88","HALIFAX STANFIELD INT'L A","8202251","2022-01-24 19:00","2022","01","24","19:00","-6.8","","-8.9","","85","","","","2","","13","","24.1","","99.51","","","","-12","","NA"
"-63.51","44.88","HALIFAX STANFIELD INT'L A","8202251","2022-01-24 20:00","2022","01","24","20:00","-7.2","","-9.2","","86","","","","4","","9","","24.1","","99.57","","","","-12","","Cloudy"
"-63.51","44.88","HALIFAX STANFIELD INT'L A","8202251","2022-01-24 21:00","2022","01","24","21:00","-8.0","","-9.4","","90","","","","36","","3","","24.1","","99.63","","","","-10","","NA"
"-63.51","44.88","HALIFAX STANFIELD INT'L A","8202251","2022-01-24 22:00","2022","01","24","22:00","-9.1","","-10.3","","91","","","","7","","7","","24.1","","99.65","","","","-13","","NA"
"-63.51","44.88","HALIFAX STANFIELD INT'L A","8202251","2022-01-24 23:00","2022","01","24","23:00","-8.7","","-10.0","","90","","","","10","","5","","24.1","","99.70","","","","-11","","Clear"
"-63.51","44.88","HALIFAX STANFIELD INT'L A","8202251","2022-01-25 00:00","2022","01","25","00:00","-8.8","","-10.1","","90","","","","17","","6","","24.1","","99.75","","","","-12","","NA"
"-63.51","44.88","HALIFAX STANFIELD INT'L A","8202251","2022-01-25 01:00","2022","01","25","01:00","-9.1","","-10.4","","90","","","","16","","11","","24.1","","99.81","","","","-15","","NA"
"-63.51","44.88","HALIFAX STANFIELD INT'L A","8202251","2022-01-25 02:00","2022","01","25","02:00","-8.9","","-10.2","","90","","","","14","","15","","24.1","","99.81","","","","-15","","Cloudy"
"-63.51","44.88","HALIFAX STANFIELD INT'L A","8202251","2022-01-25 03:00","2022","01","25","03:00","-8.7","","-10.1","","90","","","","12","","10","","24.1","","99.80","","","","-14","","NA"
"-63.51","44.88","HALIFAX STANFIELD INT'L A","8202251","2022-01-25 04:00","2022","01","25","04:00","-8.0","","-9.3","","91","","","","15","","13","","24.1","","99.84","","","","-14","","NA"
"-63.51","44.88","HALIFAX STANFIELD INT'L A","8202251","2022-01-25 05:00","2022","01","25","05:00","-8.8","","-10.0","","91","","","","12","","13","","24.1","","99.84","","","","-15","","Cloudy"
"-63.51","44.88","HALIFAX STANFIELD INT'L A","8202251","2022-01-25 06:00","2022","01","25","06:00","-8.4","","-9.7","","90","","","","15","","14","","16.1","","99.90","","","","-15","","Snow"
"-63.51","44.88","HALIFAX STANFIELD INT'L A","8202251","2022-01-25 07:00","2022","01","25","07:00","-8.1","","-9.2","","92","","","","12","","14","","3.6","","99.95","","","","-14","","Snow,Fog"
"-63.51","44.88","HALIFAX STANFIELD INT'L A","8202251","2022-01-25 08:00","2022","01","25","08:00","-6.9","","-8.0","","92","","","","13","","18","","9.7","","99.93","","","","-14","","Fog"
"-63.51","44.88","HALIFAX STANFIELD INT'L A","8202251","2022-01-25 09:00","2022","01","25","09:00","-5.6","","-6.7","","93","","","","14","","14","","9.7","","99.93","","","","-11","","Snow,Fog"
"-63.51","44.88","HALIFAX STANFIELD INT'L A","8202251","2022-01-25 10:00","2022","01","25","10:00","-3.5","","-4.3","","94","","","","13","","21","","12.9","","99.88","","","","-10","","NA"
"-63.51","44.88","HALIFAX STANFIELD INT'L A","8202251","2022-01-25 11:00","2022","01","25","11:00","-2.0","","-2.9","","93","","","","14","","26","","3.2","","99.84","","","","-9","","Fog"
"-63.51","44.88","HALIFAX STANFIELD INT'L A","8202251","2022-01-25 12:00","2022","01","25","12:00","-0.6","","-1.2","","96","","","","15","","20","","1.6","","99.77","","","","-6","","Snow,Fog"
"-63.51","44.88","HALIFAX STANFIELD INT'L A","8202251","2022-01-25 13:00","2022","01","25","13:00","0.3","","-0.1","","97","","","","15","","24","","1.6","","99.66","","","","","","Snow,Fog"
"-63.51","44.88","HALIFAX STANFIELD INT'L A","8202251","2022-01-25 14:00","2022","01","25","14:00","0.4","","0.0","","98","","","","15","","21","","0.8","","99.58","","","","","","Snow,Fog,Blowing Snow"
"-63.51","44.88","HALIFAX STANFIELD INT'L A","8202251","2022-01-25 15:00","2022","01","25","15:00","0.2","","0.0","","98","","","","15","","18","","0.8","","99.52","","","","","","Snow,Fog"
"-63.51","44.88","HALIFAX STANFIELD INT'L A","8202251","2022-01-25 16:00","2022","01","25","16:00","1.2","","1.0","","99","","","","16","","17","","3.2","","99.45","","","","","","Rain,Fog"
"-63.51","44.88","HALIFAX STANFIELD INT'L A","8202251","2022-01-25 17:00","2022","01","25","17:00","2.3","","2.0","","98","","","","17","","17","","3.2","","99.43","","","","","","Fog"
"-63.51","44.88","HALIFAX STANFIELD INT'L A","8202251","2022-01-25 18:00","2022","01","25","18:00","2.1","","1.8","","97","","","","20","","18","","3.2","","99.42","","","","","","Fog"
"-63.51","44.88","HALIFAX STANFIELD INT'L A","8202251","2022-01-25 19:00","2022","01","25","19:00","2.0","","1.7","","97","","","","20","","18","","4.8","","99.44","","","","","","Fog"
"-63.51","44.88","HALIFAX STANFIELD INT'L A","8202251","2022-01-25 20:00","2022","01","25","20:00","1.8","","1.1","","95","","","","21","","18","","24.1","","99.44","","","","","","Cloudy"
"-63.51","44.88","HALIFAX STANFIELD INT'L A","8202251","2022-01-25 21:00","2022","01","25","21:00","1.6","","1.0","","96","","","","21","","17","","24.1","","99.45","","","","","","NA"
"-63.51","44.88","HALIFAX STANFIELD INT'L A","8202251","2022-01-25 22:00","2022","01","25","22:00","1.4","","1.0","","97","","","","23","","17","","16.1","","99.50","","","","","","NA"
"-63.51","44.88","HALIFAX STANFIELD INT'L A","8202251","2022-01-25 23:00","2022","01","25","23:00","1.5","","0.9","","96","","","","26","","17","","24.1","","99.52","","","","","","Cloudy"
"-63.51","44.88","HALIFAX STANFIELD INT'L A","8202251","2022-01-26 00:00","2022","01","26","00:00","0.2","","-1.6","","88","","","","29","","21","","24.1","","99.57","","","","","","NA"
"-63.51","44.88","HALIFAX STANFIELD INT'L A","8202251","2022-01-26 01:00","2022","01","26","01:00","-1.3","","-2.8","","89","","","","31","","22","","24.1","","99.63","","","","-7","","NA"
"-63.51","44.88","HALIFAX STANFIELD INT'L A","8202251","2022-01-26 02:00","2022","01","26","02:00","-2.8","","-3.9","","92","","","","31","","17","","24.1","","99.65","","","","-8","","Mainly Clear"
"-63.51","44.88","HALIFAX STANFIELD INT'L A","8202251","2022-01-26 03:00","2022","01","26","03:00","-3.6","","-4.8","","91","","","","30","","15","","24.1","","99.74","","","","-9","","NA"
"-63.51","44.88","HALIFAX STANFIELD INT'L A","8202251","2022-01-26 04:00","2022","01","26","04:00","-4.1","","-5.6","","89","","","","36","","21","","24.1","","99.80","","","","-11","","NA"
"-63.51","44.88","HALIFAX STANFIELD INT'L A","8202251","2022-01-26 05:00","2022","01","26","05:00","-6.2","","-9.2","","79","","","","35","","18","","24.1","","99.87","","","","-13","","Mostly Cloudy"
"-63.51","44.88","HALIFAX STANFIELD INT'L A","8202251","2022-01-26 06:00","2022","01","26","06:00","-7.4","","-10.5","","79","","","","1","","10","","24.1","","99.88","","","","-12","","NA"
"-63.51","44.88","HALIFAX STANFIELD INT'L A","8202251","2022-01-26 07:00","2022","01","26","07:00","-8.1","","-9.8","","87","","","","34","","12","","24.1","","99.94","","","","-14","","NA"
"-63.51","44.88","HALIFAX STANFIELD INT'L A","8202251","2022-01-26 08:00","2022","01","26","08:00","-8.5","","-10.6","","85","","","","35","","8","","24.1","","100.02","","","","-13","","Mostly Cloudy"
"-63.51","44.88","HALIFAX STANFIELD INT'L A","8202251","2022-01-26 09:00","2022","01","26","09:00","-7.8","","-11.1","","78","","","","35","","13","","24.1","","100.08","","","","-14","","NA"
"-63.51","44.88","HALIFAX STANFIELD INT'L A","8202251","2022-01-26 10:00","2022","01","26","10:00","-7.3","","-11.1","","74","","","","2","","10","","24.1","","100.08","","","","-12","","NA"
"-63.51","44.88","HALIFAX STANFIELD INT'L A","8202251","2022-01-26 11:00","2022","01","26","11:00","-5.9","","-11.3","","66","","","","2","","13","","24.1","","100.05","","","","-11","","Mainly Clear"
"-63.51","44.88","HALIFAX STANFIELD INT'L A","8202251","2022-01-26 12:00","2022","01","26","12:00","-5.7","","-11.4","","64","","","","35","","20","","24.1","","100.00","","","","-12","","NA"
"-63.51","44.88","HALIFAX STANFIELD INT'L A","8202251","2022-01-26 13:00","2022","01","26","13:00","-5.0","","-10.7","","64","","","","35","","20","","24.1","","99.98","","","","-12","","NA"
"-63.51","44.88","HALIFAX STANFIELD INT'L A","8202251","2022-01-26 14:00","2022","01","26","14:00","-4.7","","-10.1","","67","","","","35","","16","","24.1","","99.98","","","","-10","","Mostly Cloudy"
"-63.51","44.88","HALIFAX STANFIELD INT'L A","8202251","2022-01-26 15:00","2022","01","26","15:00","-4.6","","-10.7","","63","","","","34","","15","","24.1","","100.01","","","","-10","","NA"
"-63.51","44.88","HALIFAX STANFIELD INT'L A","8202251","2022-01-26 16:00","2022","01","26","16:00","-5.1","","-10.4","","67","","","","34","","16","","24.1","","100.04","","","","-11","","NA"
"-63.51","44.88","HALIFAX STANFIELD INT'L A","8202251","2022-01-26 17:00","2022","01","26","17:00","-6.3","","-9.7","","77","","","","1","","20","","24.1","","100.09","","","","-13","","Mostly Cloudy"
"-63.51","44.88","HALIFAX STANFIELD INT'L A","8202251","2022-01-26 18:00","2022","01","26","18:00","-8.1","","-10.6","","82","","","","1","","25","","19.3","","100.20","","","","-16","","Snow"
"-63.51","44.88","HALIFAX STANFIELD INT'L A","8202251","2022-01-26 19:00","2022","01","26","19:00","-10.4","","-13.4","","79","","","","36","","23","","19.3","","100.31","","","","-19","","Snow"
"-63.51","44.88","HALIFAX STANFIELD INT'L A","8202251","2022-01-26 20:00","2022","01","26","20:00","-11.9","","-15.5","","75","","","","36","","26","","24.1","","100.40","","","","-21","","Mainly Clear"
"-63.51","44.88","HALIFAX STANFIELD INT'L A","8202251","2022-01-26 21:00","2022","01","26","21:00","-12.7","","-15.7","","78","","","","36","","27","","24.1","","100.44","","","","-23","","NA"
"-63.51","44.88","HALIFAX STANFIELD INT'L A","8202251","2022-01-26 22:00","2022","01","26","22:00","-13.6","","-16.8","","77","","","","35","","26","","24.1","","100.50","","","","-24","","NA"
"-63.51","44.88","HALIFAX STANFIELD INT'L A","8202251","2022-01-26 23:00","2022","01","26","23:00","-14.6","","-17.2","","81","","","","35","","22","","24.1","","100.53","","","","-24","","Clear"
"-63.51","44.88","HALIFAX STANFIELD INT'L A","8202251","2022-01-27 00:00","2022","01","27","00:00","-15.2","","-18.7","","75","","","","36","","23","","24.1","","100.56","","","","-25","","NA"
"-63.51","44.88","HALIFAX STANFIELD INT'L A","8202251","2022-01-27 01:00","2022","01","27","01:00","-16.2","","-18.8","","80","","","","34","","25","","24.1","","100.60","","","","-27","","NA"
"-63.51","44.88","HALIFAX STANFIELD INT'L A","8202251","2022-01-27 02:00","2022","01","27","02:00","-17.3","","-20.2","","78","","","","34","","19","","24.1","","100.65","","","","-27","","Clear"
"-63.51","44.88","HALIFAX STANFIELD INT'L A","8202251","2022-01-27 03:00","2022","01","27","03:00","-18.3","","-21.0","","80","","","","33","","18","","24.1","","100.69","","","","-28","","NA"
"-63.51","44.88","HALIFAX STANFIELD INT'L A","8202251","2022-01-27 04:00","2022","01","27","04:00","-18.7","","-21.1","","82","","","","34","","17","","24.1","","100.76","","","","-28","","NA"
"-63.51","44.88","HALIFAX STANFIELD INT'L A","8202251","2022-01-27 05:00","2022","01","27","05:00","-19.1","","-21.3","","83","","","","32","","19","","24.1","","100.83","","","","-29","","Clear"
"-63.51","44.88","HALIFAX STANFIELD INT'L A","8202251","2022-01-27 06:00","2022","01","27","06:00","-19.7","","-21.6","","85","","","","34","","12","","24.1","","100.89","","","","-28","","NA"
"-63.51","44.88","HALIFAX STANFIELD INT'L A","8202251","2022-01-27 07:00","2022","01","27","07:00","-19.5","","-21.3","","86","","","","33","","14","","24.1","","100.99","","","","-28","","NA"
"-63.51","44.88","HALIFAX STANFIELD INT'L A","8202251","2022-01-27 08:00","2022","01","27","08:00","-19.3","","-21.2","","85","","","","32","","19","","24.1","","101.10","","","","-29","","Mainly Clear"
"-63.51","44.88","HALIFAX STANFIELD INT'L A","8202251","2022-01-27 09:00","2022","01","27","09:00","-18.4","","-20.5","","84","","","","33","","17","","24.1","","101.15","","","","-28","","NA"
"-63.51","44.88","HALIFAX STANFIELD INT'L A","8202251","2022-01-27 10:00","2022","01","27","10:00","-16.9","","-19.2","","83","","","","33","","17","","24.1","","101.17","","","","-26","","NA"
"-63.51","44.88","HALIFAX STANFIELD INT'L A","8202251","2022-01-27 11:00","2022","01","27","11:00","-14.7","","-18.4","","74","","","","36","","14","","24.1","","101.15","","","","-22","","Clear"
"-63.51","44.88","HALIFAX STANFIELD INT'L A","8202251","2022-01-27 12:00","2022","01","27","12:00","-12.9","","-18.3","","64","","","","36","","13","","24.1","","101.10","","","","-20","","NA"
"-63.51","44.88","HALIFAX STANFIELD INT'L A","8202251","2022-01-27 13:00","2022","01","27","13:00","-11.7","","-18.9","","56","","","","33","","5","","24.1","","101.04","","","","-15","","NA"
"-63.51","44.88","HALIFAX STANFIELD INT'L A","8202251","2022-01-27 14:00","2022","01","27","14:00","-10.7","","-19.3","","50","","","","36","","2","","24.1","","100.95","","","","-12","","Mainly Clear"
"-63.51","44.88","HALIFAX STANFIELD INT'L A","8202251","2022-01-27 15:00","2022","01","27","15:00","-9.2","","-20.6","","39","","","","36","","2","","24.1","","100.93","","","","-10","","NA"
"-63.51","44.88","HALIFAX STANFIELD INT'L A","8202251","2022-01-27 16:00","2022","01","27","16:00","-9.7","","-19.0","","47","","","","36","","1","","24.1","","100.92","","","","-10","","NA"
"-63.51","44.88","HALIFAX STANFIELD INT'L A","8202251","2022-01-27 17:00","2022","01","27","17:00","-9.6","","-19.4","","45","","","","20","","8","","24.1","","100.92","","","","-14","","Mainly Clear"
"-63.51","44.88","HALIFAX STANFIELD INT'L A","8202251","2022-01-27 18:00","2022","01","27","18:00","-10.4","","-19.5","","48","","","","19","","7","","24.1","","100.97","","","","-14","","NA"
"-63.51","44.88","HALIFAX STANFIELD INT'L A","8202251","2022-01-27 19:00","2022","01","27","19:00","-12.5","","-18.8","","60","","","","20","","9","","24.1","","100.95","","","","-18","","NA"
"-63.51","44.88","HALIFAX STANFIELD INT'L A","8202251","2022-01-27 20:00","2022","01","27","20:00","-12.7","","-16.7","","72","","","","17","","12","","24.1","","100.91","","","","-19","","Mainly Clear"
"-63.51","44.88","HALIFAX STANFIELD INT'L A","8202251","2022-01-27 21:00","2022","01","27","21:00","-13.3","","-16.2","","80","","","","19","","11","","24.1","","100.93","","","","-20","","NA"
"-63.51","44.88","HALIFAX STANFIELD INT'L A","8202251","2022-01-27 22:00","2022","01","27","22:00","-11.8","","-15.4","","75","","","","16","","13","","24.1","","100.88","","","","-18","","NA"
"-63.51","44.88","HALIFAX STANFIELD INT'L A","8202251","2022-01-27 23:00","2022","01","27","23:00","-11.8","","-14.4","","81","","","","16","","14","","24.1","","100.83","","","","-19","","Mainly Clear"
"-63.51","44.88","HALIFAX STANFIELD INT'L A","8202251","2022-01-28 00:00","2022","01","28","00:00","-12.4","","-14.5","","85","","","","15","","13","","24.1","","100.80","","","","-19","","NA"
"-63.51","44.88","HALIFAX STANFIELD INT'L A","8202251","2022-01-28 01:00","2022","01","28","01:00","-12.7","","-14.8","","84","","","","23","","14","","24.1","","100.76","","","","-20","","NA"
"-63.51","44.88","HALIFAX STANFIELD INT'L A","8202251","2022-01-28 02:00","2022","01","28","02:00","-10.8","","-14.3","","76","","","","22","","13","","19.3","","100.74","","","","-17","","Snow"
"-63.51","44.88","HALIFAX STANFIELD INT'L A","8202251","2022-01-28 03:00","2022","01","28","03:00","-10.6","","-13.7","","78","","","","20","","10","","16.1","","100.68","","","","-16","","Snow"
"-63.51","44.88","HALIFAX STANFIELD INT'L A","8202251","2022-01-28 04:00","2022","01","28","04:00","-9.8","","-12.9","","78","","","","20","","8","","19.3","","100.63","","","","-14","","Snow"
"-63.51","44.88","HALIFAX STANFIELD INT'L A","8202251","2022-01-28 05:00","2022","01","28","05:00","-9.3","","-11.7","","82","","","","16","","10","","16.1","","100.60","","","","-14","","Snow"
"-63.51","44.88","HALIFAX STANFIELD INT'L A","8202251","2022-01-28 06:00","2022","01","28","06:00","-8.8","","-11.3","","82","","","","14","","22","","16.1","","100.50","","","","-17","","Snow"
"-63.51","44.88","HALIFAX STANFIELD INT'L A","8202251","2022-01-28 07:00","2022","01","28","07:00","-8.1","","-10.1","","86","","","","16","","16","","24.1","","100.46","","","","-15","","NA"
"-63.51","44.88","HALIFAX STANFIELD INT'L A","8202251","2022-01-28 08:00","2022","01","28","08:00","-7.0","","-9.3","","84","","","","15","","22","","19.3","","100.39","","","","-14","","Snow"
"-63.51","44.88","HALIFAX STANFIELD INT'L A","8202251","2022-01-28 09:00","2022","01","28","09:00","-5.3","","-8.2","","80","","","","16","","17","","24.1","","100.41","","","","-11","","NA"
"-63.51","44.88","HALIFAX STANFIELD INT'L A","8202251","2022-01-28 10:00","2022","01","28","10:00","-3.1","","-6.4","","78","","","","16","","20","","24.1","","100.39","","","","-9","","NA"
"-63.51","44.88","HALIFAX STANFIELD INT'L A","8202251","2022-01-28 11:00","2022","01","28","11:00","-2.1","","-5.2","","79","","","","16","","24","","24.1","","100.40","","","","-8","","Snow Showers"
"-63.51","44.88","HALIFAX STANFIELD INT'L A","8202251","2022-01-28 12:00","2022","01","28","12:00","-1.4","","-5.0","","76","","","","19","","18","","24.1","","100.30","","","","-7","","NA"
"-63.51","44.88","HALIFAX STANFIELD INT'L A","8202251","2022-01-28 13:00","2022","01","28","13:00","-1.1","","-5.2","","74","","","","19","","25","","24.1","","100.25","","","","-7","","NA"
"-63.51","44.88","HALIFAX STANFIELD INT'L A","8202251","2022-01-28 14:00","2022","01","28","14:00","-0.4","","-4.2","","75","","","","17","","18","","19.3","","100.19","","","","-5","","Snow"
"-63.51","44.88","HALIFAX STANFIELD INT'L A","8202251","2022-01-28 15:00","2022","01","28","15:00","-0.2","","-2.4","","85","","","","18","","17","","4.0","","100.17","","","","-5","","Snow"
"-63.51","44.88","HALIFAX STANFIELD INT'L A","8202251","2022-01-28 16:00","2022","01","28","16:00","-0.7","","-1.8","","92","","","","17","","15","","3.6","","100.19","","","","-5","","Snow"
"-63.51","44.88","HALIFAX STANFIELD INT'L A","8202251","2022-01-28 17:00","2022","01","28","17:00","-0.6","","-1.2","","96","","","","17","","14","","2.0","","100.17","","","","-5","","Snow,Fog"
"-63.51","44.88","HALIFAX STANFIELD INT'L A","8202251","2022-01-28 18:00","2022","01","28","18:00","-0.4","","-0.8","","97","","","","16","","15","","2.4","","100.15","","","","-5","","Snow,Fog"
"-63.51","44.88","HALIFAX STANFIELD INT'L A","8202251","2022-01-28 19:00","2022","01","28","19:00","0.1","","-0.3","","97","","","","15","","17","","3.6","","100.15","","","","","","Snow,Fog"
"-63.51","44.88","HALIFAX STANFIELD INT'L A","8202251","2022-01-28 20:00","2022","01","28","20:00","0.2","","-0.1","","98","","","","18","","12","","4.0","","100.18","","","","","","Snow,Fog"
"-63.51","44.88","HALIFAX STANFIELD INT'L A","8202251","2022-01-28 21:00","2022","01","28","21:00","0.4","","0.1","","98","","","","21","","8","","4.8","","100.21","","","","","","Fog"
"-63.51","44.88","HALIFAX STANFIELD INT'L A","8202251","2022-01-28 22:00","2022","01","28","22:00","0.1","","-0.6","","96","","","","27","","12","","3.2","","100.23","","","","","","Snow,Fog"
"-63.51","44.88","HALIFAX STANFIELD INT'L A","8202251","2022-01-28 23:00","2022","01","28","23:00","-2.1","","-2.5","","97","","","","33","","18","","2.4","","100.25","","","","-8","","Snow,Fog"
"-63.51","44.88","HALIFAX STANFIELD INT'L A","8202251","2022-01-29 00:00","2022","01","29","00:00","-2.5","","-3.0","","96","","","","35","","15","","3.2","","100.23","","","","-7","","Snow,Fog"
"-63.51","44.88","HALIFAX STANFIELD INT'L A","8202251","2022-01-29 01:00","2022","01","29","01:00","-2.9","","-3.3","","97","","","","1","","25","","3.6","","100.21","","","","-10","","Snow,Fog"
"-63.51","44.88","HALIFAX STANFIELD INT'L A","8202251","2022-01-29 02:00","2022","01","29","02:00","-4.2","","-5.1","","94","","","","36","","23","","16.1","","100.25","","","","-11","","Snow"
"-63.51","44.88","HALIFAX STANFIELD INT'L A","8202251","2022-01-29 03:00","2022","01","29","03:00","-4.4","","-5.2","","94","","","","2","","24","","19.3","","100.22","","","","-11","","Snow"
"-63.51","44.88","HALIFAX STANFIELD INT'L A","8202251","2022-01-29 04:00","2022","01","29","04:00","-4.6","","-5.5","","94","","","","2","","28","","19.3","","100.19","","","","-12","","Snow"
"-63.51","44.88","HALIFAX STANFIELD INT'L A","8202251","2022-01-29 05:00","2022","01","29","05:00","-4.7","","-6.0","","91","","","","2","","28","","19.3","","100.15","","","","-12","","Snow"
"-63.51","44.88","HALIFAX STANFIELD INT'L A","8202251","2022-01-29 06:00","2022","01","29","06:00","-5.0","","-6.2","","91","","","","2","","30","","3.6","","100.08","","","","-13","","Snow"
"-63.51","44.88","HALIFAX STANFIELD INT'L A","8202251","2022-01-29 07:00","2022","01","29","07:00","-5.3","","-6.4","","92","","","","3","","23","","2.4","","99.96","","","","-12","","Snow"
"-63.51","44.88","HALIFAX STANFIELD INT'L A","8202251","2022-01-29 08:00","2022","01","29","08:00","-5.1","","-6.0","","93","","","","3","","23","","0.8","","99.85","","","","-12","","Moderate Snow"
"-63.51","44.88","HALIFAX STANFIELD INT'L A","8202251","2022-01-29 09:00","2022","01","29","09:00","-4.5","","-5.4","","93","","","","4","","28","","0.8","","99.64","","","","-12","","Moderate Snow"
"-63.51","44.88","HALIFAX STANFIELD INT'L A","8202251","2022-01-29 10:00","2022","01","29","10:00","-3.9","","-4.9","","93","","","","4","","32","","0.8","","99.34","","","","-12","","Moderate Snow,Blowing Snow"
"-63.51","44.88","HALIFAX STANFIELD INT'L A","8202251","2022-01-29 11:00","2022","01","29","11:00","-3.6","","-4.5","","93","","","","3","","37","","0.4","","99.08","","","","-12","","Heavy Snow,Blowing Snow"
"-63.51","44.88","HALIFAX STANFIELD INT'L A","8202251","2022-01-29 12:00","2022","01","29","12:00","-3.8","","-4.6","","94","","","","3","","34","","0.2","","98.64","","","","-12","","Heavy Snow,Blowing Snow"
"-63.51","44.88","HALIFAX STANFIELD INT'L A","8202251","2022-01-29 13:00","2022","01","29","13:00","-3.2","","-3.9","","95","","","","3","","43","","0.2","","98.11","","","","-12","","Heavy Snow,Blowing Snow"
"-63.51","44.88","HALIFAX STANFIELD INT'L A","8202251","2022-01-29 14:00","2022","01","29","14:00","-2.5","","-3.2","","95","","","","3","","45","","0.2","","97.55","","","","-11","","Moderate Snow,Moderate Ice Pellets,Blowing Snow"
"-63.51","44.88","HALIFAX STANFIELD INT'L A","8202251","2022-01-29 15:00","2022","01","29","15:00","-1.0","","-1.7","","95","","","","3","","33","","3.6","","97.29","","","","-8","","Freezing Rain,Fog"
"-63.51","44.88","HALIFAX STANFIELD INT'L A","8202251","2022-01-29 16:00","2022","01","29","16:00","-0.2","","-0.6","","97","","","","2","","28","","4.0","","97.10","","","","-7","","Rain,Snow,Fog"
"-63.51","44.88","HALIFAX STANFIELD INT'L A","8202251","2022-01-29 17:00","2022","01","29","17:00","-0.7","","-1.0","","98","","","","2","","33","","1.0","","96.81","","","","-8","","Drizzle,Fog"
"-63.51","44.88","HALIFAX STANFIELD INT'L A","8202251","2022-01-29 18:00","2022","01","29","18:00","-0.7","","-0.8","","99","","","","36","","30","","3.6","","96.77","","","","-7","","Rain,Fog"
"-63.51","44.88","HALIFAX STANFIELD INT'L A","8202251","2022-01-29 19:00","2022","01","29","19:00","-0.5","","-0.7","","99","","","","35","","18","","3.6","","96.85","","","","-6","","Freezing Rain,Fog"
"-63.51","44.88","HALIFAX STANFIELD INT'L A","8202251","2022-01-29 20:00","2022","01","29","20:00","-1.3","","-1.5","","99","","","","35","","28","","0.8","","96.75","","","","-8","","Freezing Fog"
"-63.51","44.88","HALIFAX STANFIELD INT'L A","8202251","2022-01-29 21:00","2022","01","29","21:00","-1.3","","-1.4","","99","","","","1","","22","","1.2","","96.71","","","","-7","","Freezing Rain,Fog"
"-63.51","44.88","HALIFAX STANFIELD INT'L A","8202251","2022-01-29 22:00","2022","01","29","22:00","-1.1","","-1.2","","99","","","","1","","15","","0.4","","96.63","","","","-6","","Freezing Fog"
"-63.51","44.88","HALIFAX STANFIELD INT'L A","8202251","2022-01-29 23:00","2022","01","29","23:00","-0.9","","-1.0","","99","","","","3","","14","","0.2","","96.51","","","","-5","","Freezing Fog"
"-63.51","44.88","HALIFAX STANFIELD INT'L A","8202251","2022-01-30 00:00","2022","01","30","00:00","-0.2","","-0.3","","100","","","","7","","9","","0.2","","96.39","","","","-3","","Freezing Fog"
"-63.51","44.88","HALIFAX STANFIELD INT'L A","8202251","2022-01-30 01:00","2022","01","30","01:00","0.4","","0.4","","100","","","","14","","13","","0.2","","96.28","","","","","","Drizzle,Fog"
"-63.51","44.88","HALIFAX STANFIELD INT'L A","8202251","2022-01-30 02:00","2022","01","30","02:00","2.2","","2.1","","99","","","","19","","29","","8.1","","96.23","","","","","","Fog"
"-63.51","44.88","HALIFAX STANFIELD INT'L A","8202251","2022-01-30 03:00","2022","01","30","03:00","1.8","","0.2","","89","","","","20","","32","","12.9","","96.20","","","","","","NA"
"-63.51","44.88","HALIFAX STANFIELD INT'L A","8202251","2022-01-30 04:00","2022","01","30","04:00","-0.3","","-2.8","","83","","","","20","","53","","12.9","","96.16","","","","-9","","Snow"
"-63.51","44.88","HALIFAX STANFIELD INT'L A","8202251","2022-01-30 05:00","2022","01","30","05:00","-2.4","","-5.0","","82","","","","20","","60","","4.0","","96.19","","","","-12","","Snow"
"-63.51","44.88","HALIFAX STANFIELD INT'L A","8202251","2022-01-30 06:00","2022","01","30","06:00","-3.1","","-4.8","","88","","","","20","","49","","3.2","","96.08","","","","-12","","Snow,Ice Pellets"
"-63.51","44.88","HALIFAX STANFIELD INT'L A","8202251","2022-01-30 07:00","2022","01","30","07:00","-2.7","","-4.3","","89","","","","22","","50","","4.8","","96.31","","","","-12","","Snow"
"-63.51","44.88","HALIFAX STANFIELD INT'L A","8202251","2022-01-30 08:00","2022","01","30","08:00","-2.6","","-3.8","","91","","","","23","","43","","4.8","","96.66","","","","-11","","Snow"
"-63.51","44.88","HALIFAX STANFIELD INT'L A","8202251","2022-01-30 09:00","2022","01","30","09:00","-4.4","","-7.3","","80","","","","25","","40","","24.1","","97.09","","","","-13","","Snow Showers"
"-63.51","44.88","HALIFAX STANFIELD INT'L A","8202251","2022-01-30 10:00","2022","01","30","10:00","-5.7","","-9.2","","76","","","","25","","45","","12.9","","97.44","","","","-15","","Snow Showers"
"-63.51","44.88","HALIFAX STANFIELD INT'L A","8202251","2022-01-30 11:00","2022","01","30","11:00","-6.0","","-10.0","","74","","","","25","","39","","9.7","","97.68","","","","-15","","Snow Showers"
"-63.51","44.88","HALIFAX STANFIELD INT'L A","8202251","2022-01-30 12:00","2022","01","30","12:00","-6.4","","-10.5","","73","","","","26","","39","","9.7","","97.87","","","","-16","","Snow"
"-63.51","44.88","HALIFAX STANFIELD INT'L A","8202251","2022-01-30 13:00","2022","01","30","13:00","-5.8","","-10.1","","72","","","","25","","31","","24.1","","97.96","","","","-14","","Snow Showers"
"-63.51","44.88","HALIFAX STANFIELD INT'L A","8202251","2022-01-30 14:00","2022","01","30","14:00","-5.4","","-10.7","","66","","","","24","","40","","24.1","","98.14","","","","-15","","Snow Showers"
"-63.51","44.88","HALIFAX STANFIELD INT'L A","8202251","2022-01-30 15:00","2022","01","30","15:00","-5.8","","-10.4","","70","","","","24","","28","","24.1","","98.34","","","","-14","","Snow Showers"
"-63.51","44.88","HALIFAX STANFIELD INT'L A","8202251","2022-01-30 16:00","2022","01","30","16:00","-6.2","","-10.1","","74","","","","26","","21","","24.1","","98.45","","","","-13","","Snow Showers"
"-63.51","44.88","HALIFAX STANFIELD INT'L A","8202251","2022-01-30 17:00","2022","01","30","17:00","-6.5","","-10.1","","76","","","","25","","20","","24.1","","98.61","","","","-13","","Snow Showers"
"-63.51","44.88","HALIFAX STANFIELD INT'L A","8202251","2022-01-30 18:00","2022","01","30","18:00","-7.4","","-10.8","","77","","","","23","","14","","24.1","","98.77","","","","-13","","NA"
"-63.51","44.88","HALIFAX STANFIELD INT'L A","8202251","2022-01-30 19:00","2022","01","30","19:00","-7.2","","-10.5","","78","","","","24","","20","","24.1","","98.96","","","","-14","","NA"
"-63.51","44.88","HALIFAX STANFIELD INT'L A","8202251","2022-01-30 20:00","2022","01","30","20:00","-6.4","","-9.9","","76","","","","25","","25","","24.1","","99.10","","","","-14","","Snow Showers"
"-63.51","44.88","HALIFAX STANFIELD INT'L A","8202251","2022-01-30 21:00","2022","01","30","21:00","-6.3","","-9.9","","76","","","","25","","23","","19.3","","99.21","","","","-14","","Snow"
"-63.51","44.88","HALIFAX STANFIELD INT'L A","8202251","2022-01-30 22:00","2022","01","30","22:00","-6.5","","-11.1","","70","","","","24","","26","","24.1","","99.29","","","","-14","","Snow"
"-63.51","44.88","HALIFAX STANFIELD INT'L A","8202251","2022-01-30 23:00","2022","01","30","23:00","-7.2","","-11.3","","73","","","","24","","18","","24.1","","99.35","","","","-14","","Mainly Clear"
"-63.51","44.88","HALIFAX STANFIELD INT'L A","8202251","2022-01-31 00:00","2022","01","31","00:00","-7.9","","-11.5","","76","","","","24","","19","","24.1","","99.46","","","","-15","","Snow Showers"
"-63.51","44.88","HALIFAX STANFIELD INT'L A","8202251","2022-01-31 01:00","2022","01","31","01:00","-8.8","","-11.6","","81","","","","26","","17","","24.1","","99.56","","","","-16","","NA"
"-63.51","44.88","HALIFAX STANFIELD INT'L A","8202251","2022-01-31 02:00","2022","01","31","02:00","-9.8","","-11.8","","86","","","","27","","10","","24.1","","99.64","","","","-15","","Clear"
"-63.51","44.88","HALIFAX STANFIELD INT'L A","8202251","2022-01-31 03:00","2022","01","31","03:00","-10.4","","-12.9","","82","","","","26","","11","","24.1","","99.74","","","","-16","","NA"
"-63.51","44.88","HALIFAX STANFIELD INT'L A","8202251","2022-01-31 04:00","2022","01","31","04:00","-11.4","","-13.8","","82","","","","27","","10","","24.1","","99.80","","","","-17","","NA"
"-63.51","44.88","HALIFAX STANFIELD INT'L A","8202251","2022-01-31 05:00","2022","01","31","05:00","-11.7","","-15.1","","76","","","","24","","15","","24.1","","99.98","","","","-19","","Clear"
"-63.51","44.88","HALIFAX STANFIELD INT'L A","8202251","2022-01-31 06:00","2022","01","31","06:00","-12.0","","-15.0","","79","","","","26","","17","","24.1","","100.10","","","","-20","","NA"
"-63.51","44.88","HALIFAX STANFIELD INT'L A","8202251","2022-01-31 07:00","2022","01","31","07:00","-12.7","","-16.0","","76","","","","26","","16","","24.1","","100.21","","","","-20","","NA"
"-63.51","44.88","HALIFAX STANFIELD INT'L A","8202251","2022-01-31 08:00","2022","01","31","08:00","-12.5","","-16.6","","72","","","","26","","17","","24.1","","100.32","","","","-20","","Mainly Clear"
"-63.51","44.88","HALIFAX STANFIELD INT'L A","8202251","2022-01-31 09:00","2022","01","31","09:00","-11.6","","-16.4","","68","","","","27","","13","","24.1","","100.44","","","","-18","","NA"
"-63.51","44.88","HALIFAX STANFIELD INT'L A","8202251","2022-01-31 10:00","2022","01","31","10:00","-10.3","","-15.5","","66","","","","25","","16","","24.1","","100.53","","","","-17","","NA"
"-63.51","44.88","HALIFAX STANFIELD INT'L A","8202251","2022-01-31 11:00","2022","01","31","11:00","-9.0","","-14.6","","64","","","","28","","24","","24.1","","100.61","","","","-17","","Mainly Clear"
"-63.51","44.88","HALIFAX STANFIELD INT'L A","8202251","2022-01-31 12:00","2022","01","31","12:00","-7.8","","-14.1","","61","","","","27","","18","","24.1","","100.58","","","","-15","","NA"
"-63.51","44.88","HALIFAX STANFIELD INT'L A","8202251","2022-01-31 13:00","2022","01","31","13:00","-6.8","","-13.7","","59","","","","27","","21","","24.1","","100.58","","","","-14","","NA"
"-63.51","44.88","HALIFAX STANFIELD INT'L A","8202251","2022-01-31 14:00","2022","01","31","14:00","-6.5","","-14.2","","55","","","","26","","22","","24.1","","100.59","","","","-14","","Mainly Clear"
"-63.51","44.88","HALIFAX STANFIELD INT'L A","8202251","2022-01-31 15:00","2022","01","31","15:00","-6.4","","-15.0","","51","","","","28","","22","","24.1","","100.68","","","","-14","","NA"
"-63.51","44.88","HALIFAX STANFIELD INT'L A","8202251","2022-01-31 16:00","2022","01","31","16:00","-6.3","","-14.4","","53","","","","29","","13","","24.1","","100.76","","","","-12","","NA"
"-63.51","44.88","HALIFAX STANFIELD INT'L A","8202251","2022-01-31 17:00","2022","01","31","17:00","-6.9","","-14.3","","56","","","","29","","11","","24.1","","100.85","","","","-12","","Mainly Clear"
"-63.51","44.88","HALIFAX STANFIELD INT'L A","8202251","2022-01-31 18:00","2022","01","31","18:00","-7.7","","-14.7","","57","","","","29","","7","","24.1","","100.96","","","","-11","","NA"
"-63.51","44.88","HALIFAX STANFIELD INT'L A","8202251","2022-01-31 19:00","2022","01","31","19:00","-8.5","","-14.3","","63","","","","27","","12","","24.1","","101.03","","","","-14","","NA"
"-63.51","44.88","HALIFAX STANFIELD INT'L A","8202251","2022-01-31 20:00","2022","01","31","20:00","-8.8","","-14.0","","66","","","","24","","12","","24.1","","101.12","","","","-14","","Clear"
"-63.51","44.88","HALIFAX STANFIELD INT'L A","8202251","2022-01-31 21:00","2022","01","31","21:00","-9.9","","-14.6","","68","","","","24","","15","","24.1","","101.20","","","","-17","","NA"
"-63.51","44.88","HALIFAX STANFIELD INT'L A","8202251","2022-01-31 22:00","2022","01","31","22:00","-8.3","","-13.5","","67","","","","25","","17","","24.1","","101.27","","","","-15","","Snow"
"-63.51","44.88","HALIFAX STANFIELD INT'L A","8202251","2022-01-31 23:00","2022","01","31","23:00","-10.6","","-14.4","","73","","","","27","","10","","24.1","","101.37","","","","-16","","Mainly Clear"
