"Longitude (x)","Latitude (y)","Station Name","Climate ID","Date/Time (LST)","Year","Month","Day","Time (LST)","Temp (°C)","Temp Flag","Dew Point Temp (°C)","Dew Point Temp Flag","Rel Hum (%)","Rel Hum Flag","Precip. Amount (mm)","Precip. Amount Flag","Wind Dir (10s deg)","Wind Dir Flag","Wind Spd (km/h)","Wind Spd Flag","Visibility (km)","Visibility Flag","Stn Press (kPa)","Stn Press Flag","Hmdx","Hmdx Flag","Wind Chill","Wind Chill Flag","Weather"
"-66.27","50.22","SEPT-ILES A","7047911","2020-11-01 00:00","2020","11","01","00:00","-9.2","","-11.2","","86","","","","2","","11","","24.1","","101.69","","","","-15","","NA"
"-66.27","50.22","SEPT-ILES A","7047911","2020-11-01 01:00","2020","11","01","01:00","-7.8","","-10.9","","79","","","","5","","6","","24.1","","101.62","","","","-11","","Mostly Cloudy"
"-66.27","50.22","SEPT-ILES A","7047911","2020-11-01 02:00","2020","11","01","02:00","-6.8","","-10.9","","73","","","","4","","4","","24.1","","101.58","","","","-9","","NA"
"-66.27","50.22","SEPT-ILES A","7047911","2020-11-01 03:00","2020","11","01","03:00","-6.1","","-10.0","","74","","","","6","","14","","24.1","","101.46","","","","-12","","NA"
"-66.27","50.22","SEPT-ILES A","7047911","2020-11-01 04:00","2020","11","01","04:00","-6.8","","-9.7","","79","","","","6","","14","","24.1","","101.39","","","","-13","","Mostly Cloudy"
"-66.27","50.22","SEPT-ILES A","7047911","2020-11-01 05:00","2020","11","01","05:00","-6.8","","-8.9","","85","","","","5","","12","","24.1","","101.30","","","","-12","","NA"
"-66.27","50.22","SEPT-ILES A","7047911","2020-11-01 06:00","2020","11","01","06:00","-7.7","","-9.1","","90","","","","6","","6","","32.2","","101.21","","","","-11","","NA"
"-66.27","50.22","SEPT-ILES A","7047911","2020-11-01 07:00","2020","11","01","07:00","-7.4","","-9.7","","84","","","","19","","5","","48.3","","101.12","","","","-10","","Mostly Cloudy"
"-66.27","50.22","SEPT-ILES A","7047911","2020-11-01 08:00","2020","11","01","08:00","1.8","","-5.1","","60","","","","19","","18","","48.3","","101.09","","","","","","NA"
"-66.27","50.22","SEPT-ILES A","7047911","2020-11-01 09:00","2020","11","01","09:00","1.8","","-5.6","","58","","","","21","","16","","48.3","","100.99","","","","","","NA"
"-66.27","50.22","SEPT-ILES A","7047911","2020-11-01 10:00","2020","11","01","10:00","1.8","","-6.0","","56","","","","20","","18","","48.3","","100.92","","","","","","Mostly Cloudy"
"-66.27","50.22","SEPT-ILES A","7047911","2020-11-01 11:00","2020","11","01","11:00","1.6","","-6.3","","56","","","","19","","19","","48.3","","100.80","","","","","","NA"
"-66.27","50.22","SEPT-ILES A","7047911","2020-11-01 12:00","2020","11","01","12:00","1.9","","-5.9","","56","","","","19","","23","","48.3","","100.68","","","","","","NA"
"-66.27","50.22","SEPT-ILES A","7047911","2020-11-01 13:00","2020","11","01","13:00","3.0","","-4.8","","56","","","","18","","16","","48.3","","100.60","","","","","","Mostly Cloudy"
"-66.27","50.22","SEPT-ILES A","7047911","2020-11-01 14:00","2020","11","01","14:00","1.9","","-4.0","","65","","","","15","","20","","48.3","","100.50","","","","","","NA"
"-66.27","50.22","SEPT-ILES A","7047911","2020-11-01 15:00","2020","11","01","15:00","1.6","","-5.6","","59","","","","11","","21","","48.3","","100.36","","","","","","NA"
"-66.27","50.22","SEPT-ILES A","7047911","2020-11-01 16:00","2020","11","01","16:00","2.1","","-3.6","","66","","","","9","","14","","48.3","","100.22","","","","","","Cloudy"
"-66.27","50.22","SEPT-ILES A","7047911","2020-11-01 17:00","2020","11","01","17:00","2.4","","-2.6","","69","","","","9","","17","","24.1","","100.10","","","","","","NA"
"-66.27","50.22","SEPT-ILES A","7047911","2020-11-01 18:00","2020","11","01","18:00","2.3","","0.0","","85","","","","8","","15","","24.1","","99.97","","","","","","Rain"
"-66.27","50.22","SEPT-ILES A","7047911","2020-11-01 19:00","2020","11","01","19:00","3.2","","1.6","","89","","","","12","","19","","24.1","","99.86","","","","","","Rain"
"-66.27","50.22","SEPT-ILES A","7047911","2020-11-01 20:00","2020","11","01","20:00","3.4","","1.4","","87","","","","12","","25","","24.1","","99.73","","","","","","Rain"
"-66.27","50.22","SEPT-ILES A","7047911","2020-11-01 21:00","2020","11","01","21:00","3.5","","1.6","","88","","","","12","","27","","24.1","","99.60","","","","","","NA"
"-66.27","50.22","SEPT-ILES A","7047911","2020-11-01 22:00","2020","11","01","22:00","3.8","","2.6","","92","","","","11","","17","","24.1","","99.47","","","","","","Rain"
"-66.27","50.22","SEPT-ILES A","7047911","2020-11-01 23:00","2020","11","01","23:00","3.8","","3.2","","96","","","","6","","7","","19.3","","99.34","","","","","","Rain"
"-66.27","50.22","SEPT-ILES A","7047911","2020-11-02 00:00","2020","11","02","00:00","2.6","","2.6","","100","","","","2","","5","","16.1","","99.23","","","","","","Rain"
"-66.27","50.22","SEPT-ILES A","7047911","2020-11-02 01:00","2020","11","02","01:00","2.8","","2.8","","100","","","","7","","9","","24.1","","99.09","","","","","","Rain"
"-66.27","50.22","SEPT-ILES A","7047911","2020-11-02 02:00","2020","11","02","02:00","2.4","","2.4","","100","","","","5","","8","","24.1","","98.97","","","","","","Rain"
"-66.27","50.22","SEPT-ILES A","7047911","2020-11-02 03:00","2020","11","02","03:00","2.8","","2.8","","100","","","","6","","12","","3.2","","98.84","","","","","","Rain,Fog"
"-66.27","50.22","SEPT-ILES A","7047911","2020-11-02 04:00","2020","11","02","04:00","2.8","","2.7","","100","","","","5","","12","","1.2","","98.69","","","","","","Rain,Fog"
"-66.27","50.22","SEPT-ILES A","7047911","2020-11-02 05:00","2020","11","02","05:00","2.9","","2.9","","99","","","","5","","11","","1.6","","98.55","","","","","","Rain,Fog"
"-66.27","50.22","SEPT-ILES A","7047911","2020-11-02 06:00","2020","11","02","06:00","3.0","","2.9","","99","","","","3","","9","","16.1","","98.41","","","","","","Rain"
"-66.27","50.22","SEPT-ILES A","7047911","2020-11-02 07:00","2020","11","02","07:00","3.0","","2.9","","99","","","","4","","9","","16.1","","98.21","","","","","","Rain"
"-66.27","50.22","SEPT-ILES A","7047911","2020-11-02 08:00","2020","11","02","08:00","3.2","","3.1","","100","","","","36","","13","","8.1","","98.05","","","","","","Rain,Fog"
"-66.27","50.22","SEPT-ILES A","7047911","2020-11-02 09:00","2020","11","02","09:00","3.6","","3.5","","99","","","","34","","11","","16.1","","97.82","","","","","","Rain"
"-66.27","50.22","SEPT-ILES A","7047911","2020-11-02 10:00","2020","11","02","10:00","3.4","","2.6","","95","","","","36","","13","","16.1","","97.62","","","","","","Rain"
"-66.27","50.22","SEPT-ILES A","7047911","2020-11-02 11:00","2020","11","02","11:00","3.5","","2.5","","94","","","","36","","17","","16.1","","97.43","","","","","","Rain"
"-66.27","50.22","SEPT-ILES A","7047911","2020-11-02 12:00","2020","11","02","12:00","3.2","","2.5","","95","","","","35","","16","","8.1","","97.31","","","","","","Moderate Rain,Fog"
"-66.27","50.22","SEPT-ILES A","7047911","2020-11-02 13:00","2020","11","02","13:00","3.2","","2.1","","93","","","","36","","19","","32.2","","97.00","","","","","","Rain"
"-66.27","50.22","SEPT-ILES A","7047911","2020-11-02 14:00","2020","11","02","14:00","3.6","","1.1","","84","","","","35","","24","","48.3","","96.87","","","","","","NA"
"-66.27","50.22","SEPT-ILES A","7047911","2020-11-02 15:00","2020","11","02","15:00","3.2","","-0.2","","78","","","","34","","21","","48.3","","96.82","","","","","","NA"
"-66.27","50.22","SEPT-ILES A","7047911","2020-11-02 16:00","2020","11","02","16:00","1.2","","-2.5","","76","","","","33","","30","","24.1","","96.76","","","","","","Rain"
"-66.27","50.22","SEPT-ILES A","7047911","2020-11-02 17:00","2020","11","02","17:00","-0.4","","-3.7","","78","","","","32","","25","","8.1","","96.79","","","","-6","","Rain,Snow"
"-66.27","50.22","SEPT-ILES A","7047911","2020-11-02 18:00","2020","11","02","18:00","-1.8","","-5.2","","77","","","","32","","32","","16.1","","96.91","","","","-9","","Snow"
"-66.27","50.22","SEPT-ILES A","7047911","2020-11-02 19:00","2020","11","02","19:00","-2.5","","-6.4","","75","","","","33","","32","","16.1","","97.00","","","","-10","","Snow"
"-66.27","50.22","SEPT-ILES A","7047911","2020-11-02 20:00","2020","11","02","20:00","-2.9","","-7.6","","70","","","","33","","30","","24.1","","97.10","","","","-10","","Snow"
"-66.27","50.22","SEPT-ILES A","7047911","2020-11-02 21:00","2020","11","02","21:00","-3.6","","-8.8","","67","","","","32","","32","","24.1","","97.26","","","","-11","","Snow"
"-66.27","50.22","SEPT-ILES A","7047911","2020-11-02 22:00","2020","11","02","22:00","-3.8","","-9.8","","63","","","","31","","27","","24.1","","97.47","","","","-11","","Mostly Cloudy"
"-66.27","50.22","SEPT-ILES A","7047911","2020-11-02 23:00","2020","11","02","23:00","-3.8","","-10.7","","59","","","","31","","34","","24.1","","97.70","","","","-12","","NA"
"-66.27","50.22","SEPT-ILES A","7047911","2020-11-03 00:00","2020","11","03","00:00","-4.5","","-10.6","","63","","","","29","","24","","24.1","","97.95","","","","-12","","NA"
"-66.27","50.22","SEPT-ILES A","7047911","2020-11-03 01:00","2020","11","03","01:00","-4.5","","-11.2","","60","","","","33","","23","","24.1","","98.12","","","","-11","","Mostly Cloudy"
"-66.27","50.22","SEPT-ILES A","7047911","2020-11-03 02:00","2020","11","03","02:00","-4.8","","-12.5","","55","","","","33","","27","","24.1","","98.31","","","","-12","","NA"
"-66.27","50.22","SEPT-ILES A","7047911","2020-11-03 03:00","2020","11","03","03:00","-5.7","","-12.8","","58","","","","30","","10","","24.1","","98.63","","","","-10","","NA"
"-66.27","50.22","SEPT-ILES A","7047911","2020-11-03 04:00","2020","11","03","04:00","-6.4","","-14.3","","54","","","","32","","16","","24.1","","98.86","","","","-13","","Mainly Clear"
"-66.27","50.22","SEPT-ILES A","7047911","2020-11-03 05:00","2020","11","03","05:00","-7.0","","-14.9","","54","","","","34","","16","","24.1","","99.08","","","","-13","","NA"
"-66.27","50.22","SEPT-ILES A","7047911","2020-11-03 06:00","2020","11","03","06:00","-7.8","","-14.3","","60","","","","31","","12","","48.3","","99.23","","","","-13","","NA"
"-66.27","50.22","SEPT-ILES A","7047911","2020-11-03 07:00","2020","11","03","07:00","-7.7","","-13.5","","64","","","","30","","13","","48.3","","99.39","","","","-13","","Mainly Clear"
"-66.27","50.22","SEPT-ILES A","7047911","2020-11-03 08:00","2020","11","03","08:00","-6.1","","-13.3","","57","","","","28","","14","","24.1","","99.54","","","","-12","","NA"
"-66.27","50.22","SEPT-ILES A","7047911","2020-11-03 09:00","2020","11","03","09:00","-4.3","","-13.4","","49","","","","31","","24","","48.3","","99.69","","","","-11","","NA"
"-66.27","50.22","SEPT-ILES A","7047911","2020-11-03 10:00","2020","11","03","10:00","-3.9","","-13.8","","47","","","","32","","17","","48.3","","99.80","","","","-10","","Mostly Cloudy"
"-66.27","50.22","SEPT-ILES A","7047911","2020-11-03 11:00","2020","11","03","11:00","-3.6","","-14.1","","44","","","","34","","25","","48.3","","99.90","","","","-11","","NA"
"-66.27","50.22","SEPT-ILES A","7047911","2020-11-03 12:00","2020","11","03","12:00","-3.6","","-14.3","","44","","","","31","","23","","48.3","","100.02","","","","-10","","NA"
"-66.27","50.22","SEPT-ILES A","7047911","2020-11-03 13:00","2020","11","03","13:00","-3.7","","-14.3","","44","","","","32","","23","","48.3","","100.13","","","","-10","","Mostly Cloudy"
"-66.27","50.22","SEPT-ILES A","7047911","2020-11-03 14:00","2020","11","03","14:00","-4.0","","-14.3","","45","","","","33","","21","","48.3","","100.26","","","","-10","","NA"
"-66.27","50.22","SEPT-ILES A","7047911","2020-11-03 15:00","2020","11","03","15:00","-4.3","","-12.8","","52","","","","32","","10","","48.3","","100.43","","","","-8","","NA"
"-66.27","50.22","SEPT-ILES A","7047911","2020-11-03 16:00","2020","11","03","16:00","-4.8","","-13.1","","53","","","","32","","10","","48.3","","100.62","","","","-9","","Mainly Clear"
"-66.27","50.22","SEPT-ILES A","7047911","2020-11-03 17:00","2020","11","03","17:00","-6.2","","-13.8","","55","","","","32","","10","","24.1","","100.80","","","","-11","","NA"
"-66.27","50.22","SEPT-ILES A","7047911","2020-11-03 18:00","2020","11","03","18:00","-7.0","","-13.8","","59","","","","31","","12","","24.1","","100.97","","","","-12","","NA"
"-66.27","50.22","SEPT-ILES A","7047911","2020-11-03 19:00","2020","11","03","19:00","-8.4","","-13.8","","65","","","","35","","5","","24.1","","101.14","","","","-11","","Clear"
"-66.27","50.22","SEPT-ILES A","7047911","2020-11-03 20:00","2020","11","03","20:00","-9.3","","-14.2","","68","","","","31","","12","","24.1","","101.26","","","","-15","","NA"
"-66.27","50.22","SEPT-ILES A","7047911","2020-11-03 21:00","2020","11","03","21:00","-10.6","","-14.4","","74","","","","32","","6","","24.1","","101.35","","","","-14","","NA"
"-66.27","50.22","SEPT-ILES A","7047911","2020-11-03 22:00","2020","11","03","22:00","-12.3","","-15.3","","78","","","","35","","6","","24.1","","101.40","","","","-16","","Clear"
"-66.27","50.22","SEPT-ILES A","7047911","2020-11-03 23:00","2020","11","03","23:00","-12.6","","-15.4","","80","","","","32","","9","","24.1","","101.46","","","","-18","","NA"
"-66.27","50.22","SEPT-ILES A","7047911","2020-11-04 00:00","2020","11","04","00:00","-10.9","","-16.1","","66","","","","17","","4","","24.1","","101.56","","","","-13","","NA"
"-66.27","50.22","SEPT-ILES A","7047911","2020-11-04 01:00","2020","11","04","01:00","-14.0","","-16.6","","81","","","","36","","2","","24.1","","101.63","","","","-15","","Clear"
"-66.27","50.22","SEPT-ILES A","7047911","2020-11-04 02:00","2020","11","04","02:00","-15.3","","-17.7","","82","","","","36","","1","","24.1","","101.69","","","","-16","","NA"
"-66.27","50.22","SEPT-ILES A","7047911","2020-11-04 03:00","2020","11","04","03:00","-14.8","","-16.6","","86","","","","33","","8","","24.1","","101.76","","","","-20","","NA"
"-66.27","50.22","SEPT-ILES A","7047911","2020-11-04 04:00","2020","11","04","04:00","-15.2","","-17.3","","84","","","","36","","3","","24.1","","101.85","","","","-17","","Mainly Clear"
"-66.27","50.22","SEPT-ILES A","7047911","2020-11-04 05:00","2020","11","04","05:00","-15.5","","-17.6","","84","","","","30","","5","","24.1","","101.92","","","","-19","","NA"
"-66.27","50.22","SEPT-ILES A","7047911","2020-11-04 06:00","2020","11","04","06:00","-14.1","","-17.2","","77","","","","33","","8","","48.3","","101.98","","","","-19","","NA"
"-66.27","50.22","SEPT-ILES A","7047911","2020-11-04 07:00","2020","11","04","07:00","-13.3","","-15.6","","83","","","","15","","4","","48.3","","102.10","","","","-16","","Mainly Clear"
"-66.27","50.22","SEPT-ILES A","7047911","2020-11-04 08:00","2020","11","04","08:00","-7.6","","-11.0","","77","","","","18","","3","","48.3","","102.19","","","","-9","","NA"
"-66.27","50.22","SEPT-ILES A","7047911","2020-11-04 09:00","2020","11","04","09:00","-4.4","","-11.5","","58","","","","31","","14","","48.3","","102.20","","","","-10","","NA"
"-66.27","50.22","SEPT-ILES A","7047911","2020-11-04 10:00","2020","11","04","10:00","-3.3","","-11.1","","55","","","","23","","13","","48.3","","102.23","","","","-8","","Clear"
"-66.27","50.22","SEPT-ILES A","7047911","2020-11-04 11:00","2020","11","04","11:00","-2.5","","-9.7","","58","","","","24","","20","","48.3","","102.24","","","","-8","","NA"
"-66.27","50.22","SEPT-ILES A","7047911","2020-11-04 12:00","2020","11","04","12:00","-2.1","","-9.7","","56","","","","23","","19","","48.3","","102.22","","","","-8","","NA"
"-66.27","50.22","SEPT-ILES A","7047911","2020-11-04 13:00","2020","11","04","13:00","-1.6","","-8.9","","58","","","","21","","16","","48.3","","102.23","","","","-7","","Clear"
"-66.27","50.22","SEPT-ILES A","7047911","2020-11-04 14:00","2020","11","04","14:00","-0.7","","-8.9","","54","","","","21","","12","","48.3","","102.24","","","","-5","","NA"
"-66.27","50.22","SEPT-ILES A","7047911","2020-11-04 15:00","2020","11","04","15:00","-0.5","","-9.6","","51","","","","22","","14","","48.3","","102.27","","","","-5","","NA"
"-66.27","50.22","SEPT-ILES A","7047911","2020-11-04 16:00","2020","11","04","16:00","-1.5","","-9.8","","53","","","","23","","9","","48.3","","102.29","","","","-5","","Clear"
"-66.27","50.22","SEPT-ILES A","7047911","2020-11-04 17:00","2020","11","04","17:00","-2.7","","-11.2","","52","","","","24","","5","","24.1","","102.31","","","","-5","","NA"
"-66.27","50.22","SEPT-ILES A","7047911","2020-11-04 18:00","2020","11","04","18:00","-4.4","","-11.1","","60","","","","0","","1","","24.1","","102.36","","","","-5","","NA"
"-66.27","50.22","SEPT-ILES A","7047911","2020-11-04 19:00","2020","11","04","19:00","-2.2","","-7.0","","70","","","","21","","10","","24.1","","102.42","","","","-6","","Mainly Clear"
"-66.27","50.22","SEPT-ILES A","7047911","2020-11-04 20:00","2020","11","04","20:00","-3.9","","-8.2","","72","","","","28","","10","","24.1","","102.44","","","","-8","","NA"
"-66.27","50.22","SEPT-ILES A","7047911","2020-11-04 21:00","2020","11","04","21:00","-8.8","","-10.4","","88","","","","34","","4","","24.1","","102.49","","","","-11","","NA"
"-66.27","50.22","SEPT-ILES A","7047911","2020-11-04 22:00","2020","11","04","22:00","-9.5","","-11.1","","88","","","","4","","7","","24.1","","102.47","","","","-13","","Mainly Clear"
"-66.27","50.22","SEPT-ILES A","7047911","2020-11-04 23:00","2020","11","04","23:00","-8.4","","-10.8","","83","","","","4","","8","","24.1","","102.45","","","","-13","","NA"
"-66.27","50.22","SEPT-ILES A","7047911","2020-11-05 00:00","2020","11","05","00:00","-6.8","","-9.7","","80","","","","5","","13","","24.1","","102.41","","","","-12","","NA"
"-66.27","50.22","SEPT-ILES A","7047911","2020-11-05 01:00","2020","11","05","01:00","-5.8","","-9.0","","78","","","","5","","13","","24.1","","102.39","","","","-11","","Mostly Cloudy"
"-66.27","50.22","SEPT-ILES A","7047911","2020-11-05 02:00","2020","11","05","02:00","-5.1","","-8.2","","79","","","","5","","12","","24.1","","102.30","","","","-10","","NA"
"-66.27","50.22","SEPT-ILES A","7047911","2020-11-05 03:00","2020","11","05","03:00","-4.5","","-7.8","","78","","","","6","","14","","24.1","","102.25","","","","-10","","NA"
"-66.27","50.22","SEPT-ILES A","7047911","2020-11-05 04:00","2020","11","05","04:00","-4.1","","-7.3","","78","","","","6","","14","","24.1","","102.17","","","","-9","","Cloudy"
"-66.27","50.22","SEPT-ILES A","7047911","2020-11-05 05:00","2020","11","05","05:00","-3.9","","-7.3","","77","","","","5","","12","","24.1","","102.11","","","","-9","","NA"
"-66.27","50.22","SEPT-ILES A","7047911","2020-11-05 06:00","2020","11","05","06:00","-3.4","","-6.9","","77","","","","4","","13","","48.3","","102.00","","","","-8","","NA"
"-66.27","50.22","SEPT-ILES A","7047911","2020-11-05 07:00","2020","11","05","07:00","-2.4","","-5.7","","78","","","","6","","13","","48.3","","101.93","","","","-7","","Cloudy"
"-66.27","50.22","SEPT-ILES A","7047911","2020-11-05 08:00","2020","11","05","08:00","-1.8","","-5.2","","77","","","","6","","12","","48.3","","101.81","","","","-6","","NA"
"-66.27","50.22","SEPT-ILES A","7047911","2020-11-05 09:00","2020","11","05","09:00","-1.1","","-4.1","","81","","","","8","","10","","48.3","","101.72","","","","-5","","NA"
"-66.27","50.22","SEPT-ILES A","7047911","2020-11-05 10:00","2020","11","05","10:00","0.2","","-2.5","","82","","","","10","","17","","48.3","","101.61","","","","","","Mostly Cloudy"
"-66.27","50.22","SEPT-ILES A","7047911","2020-11-05 11:00","2020","11","05","11:00","0.7","","-2.0","","83","","","","11","","17","","48.3","","101.48","","","","","","NA"
"-66.27","50.22","SEPT-ILES A","7047911","2020-11-05 12:00","2020","11","05","12:00","1.2","","-1.3","","83","","","","10","","14","","48.3","","101.34","","","","","","NA"
"-66.27","50.22","SEPT-ILES A","7047911","2020-11-05 13:00","2020","11","05","13:00","0.8","","-1.0","","88","","","","8","","9","","48.3","","101.20","","","","","","Mostly Cloudy"
"-66.27","50.22","SEPT-ILES A","7047911","2020-11-05 14:00","2020","11","05","14:00","1.3","","0.0","","91","","","","9","","11","","48.3","","101.12","","","","","","NA"
"-66.27","50.22","SEPT-ILES A","7047911","2020-11-05 15:00","2020","11","05","15:00","1.7","","0.4","","91","","","","9","","9","","48.3","","101.03","","","","","","NA"
"-66.27","50.22","SEPT-ILES A","7047911","2020-11-05 16:00","2020","11","05","16:00","1.6","","0.6","","93","","","","7","","8","","48.3","","100.99","","","","","","Mostly Cloudy"
"-66.27","50.22","SEPT-ILES A","7047911","2020-11-05 17:00","2020","11","05","17:00","1.7","","0.8","","94","","","","7","","5","","24.1","","100.97","","","","","","NA"
"-66.27","50.22","SEPT-ILES A","7047911","2020-11-05 18:00","2020","11","05","18:00","1.2","","0.2","","93","","","","5","","9","","24.1","","100.96","","","","","","NA"
"-66.27","50.22","SEPT-ILES A","7047911","2020-11-05 19:00","2020","11","05","19:00","0.7","","0.0","","95","","","","1","","8","","24.1","","100.95","","","","","","Mostly Cloudy"
"-66.27","50.22","SEPT-ILES A","7047911","2020-11-05 20:00","2020","11","05","20:00","-1.0","","-1.2","","99","","","","6","","3","","24.1","","100.90","","","","-2","","NA"
"-66.27","50.22","SEPT-ILES A","7047911","2020-11-05 21:00","2020","11","05","21:00","-2.1","","-2.3","","99","","","","1","","3","","24.1","","100.91","","","","-3","","NA"
"-66.27","50.22","SEPT-ILES A","7047911","2020-11-05 22:00","2020","11","05","22:00","-2.6","","-2.8","","99","","","","34","","5","","24.1","","100.90","","","","-5","","Mostly Cloudy"
"-66.27","50.22","SEPT-ILES A","7047911","2020-11-05 23:00","2020","11","05","23:00","-2.9","","-3.0","","99","","","","36","","1","","24.1","","100.92","","","","-3","","NA"
"-66.27","50.22","SEPT-ILES A","7047911","2020-11-06 00:00","2020","11","06","00:00","-2.5","","-2.8","","99","","","","36","","2","","24.1","","100.91","","","","-3","","NA"
"-66.27","50.22","SEPT-ILES A","7047911","2020-11-06 01:00","2020","11","06","01:00","-0.9","","-1.1","","99","","","","36","","2","","24.1","","100.93","","","","-2","","Cloudy"
"-66.27","50.22","SEPT-ILES A","7047911","2020-11-06 02:00","2020","11","06","02:00","-0.6","","-0.9","","98","","","","29","","5","","24.1","","100.94","","","","-2","","NA"
"-66.27","50.22","SEPT-ILES A","7047911","2020-11-06 03:00","2020","11","06","03:00","-2.1","","-2.2","","99","","","","32","","4","","24.1","","100.96","","","","-4","","NA"
"-66.27","50.22","SEPT-ILES A","7047911","2020-11-06 04:00","2020","11","06","04:00","-1.8","","-1.9","","100","","","","36","","3","","24.1","","101.01","","","","-3","","Mainly Clear"
"-66.27","50.22","SEPT-ILES A","7047911","2020-11-06 05:00","2020","11","06","05:00","-4.7","","-4.9","","99","","","","30","","5","","24.1","","101.03","","","","-7","","NA"
"-66.27","50.22","SEPT-ILES A","7047911","2020-11-06 06:00","2020","11","06","06:00","-4.1","","-4.3","","98","","","","36","","6","","32.2","","101.07","","","","-7","","NA"
"-66.27","50.22","SEPT-ILES A","7047911","2020-11-06 07:00","2020","11","06","07:00","-4.1","","-4.4","","98","","","","1","","4","","48.3","","101.11","","","","-6","","Mainly Clear"
"-66.27","50.22","SEPT-ILES A","7047911","2020-11-06 08:00","2020","11","06","08:00","-4.4","","-4.8","","97","","","","36","","3","","48.3","","101.11","","","","-6","","NA"
"-66.27","50.22","SEPT-ILES A","7047911","2020-11-06 09:00","2020","11","06","09:00","0.9","","0.3","","96","","","","31","","4","","48.3","","101.09","","","","","","NA"
"-66.27","50.22","SEPT-ILES A","7047911","2020-11-06 10:00","2020","11","06","10:00","5.7","","0.3","","68","","","","35","","8","","48.3","","100.96","","","","","","Mostly Cloudy"
"-66.27","50.22","SEPT-ILES A","7047911","2020-11-06 11:00","2020","11","06","11:00","7.0","","-0.3","","59","","","","0","","1","","48.3","","100.85","","","","","","NA"
"-66.27","50.22","SEPT-ILES A","7047911","2020-11-06 12:00","2020","11","06","12:00","4.9","","0.4","","73","","","","15","","7","","48.3","","100.73","","","","","","NA"
"-66.27","50.22","SEPT-ILES A","7047911","2020-11-06 13:00","2020","11","06","13:00","4.7","","-0.2","","70","","","","15","","11","","48.3","","100.60","","","","","","Mostly Cloudy"
"-66.27","50.22","SEPT-ILES A","7047911","2020-11-06 14:00","2020","11","06","14:00","3.6","","-0.6","","74","","","","13","","9","","48.3","","100.53","","","","","","NA"
"-66.27","50.22","SEPT-ILES A","7047911","2020-11-06 15:00","2020","11","06","15:00","2.9","","-0.1","","80","","","","13","","8","","48.3","","100.42","","","","","","NA"
"-66.27","50.22","SEPT-ILES A","7047911","2020-11-06 16:00","2020","11","06","16:00","2.8","","-0.5","","79","","","","9","","4","","48.3","","100.35","","","","","","Cloudy"
"-66.27","50.22","SEPT-ILES A","7047911","2020-11-06 17:00","2020","11","06","17:00","2.1","","0.2","","87","","","","6","","8","","24.1","","100.19","","","","","","NA"
"-66.27","50.22","SEPT-ILES A","7047911","2020-11-06 18:00","2020","11","06","18:00","1.6","","1.2","","97","","","","9","","11","","16.1","","100.03","","","","","","Moderate Rain"
"-66.27","50.22","SEPT-ILES A","7047911","2020-11-06 19:00","2020","11","06","19:00","1.5","","1.4","","100","","","","7","","9","","16.1","","99.87","","","","","","Rain"
"-66.27","50.22","SEPT-ILES A","7047911","2020-11-06 20:00","2020","11","06","20:00","1.4","","1.4","","100","","","","7","","5","","16.1","","99.76","","","","","","Rain"
"-66.27","50.22","SEPT-ILES A","7047911","2020-11-06 21:00","2020","11","06","21:00","1.5","","1.5","","100","","","","5","","3","","3.2","","99.65","","","","","","Rain,Fog"
"-66.27","50.22","SEPT-ILES A","7047911","2020-11-06 22:00","2020","11","06","22:00","1.1","","1.1","","100","","","","29","","5","","1.2","","99.61","","","","","","Fog"
"-66.27","50.22","SEPT-ILES A","7047911","2020-11-06 23:00","2020","11","06","23:00","1.1","","1.1","","100","","","","25","","4","","0.4","","99.55","","","","","","Fog"
"-66.27","50.22","SEPT-ILES A","7047911","2020-11-07 00:00","2020","11","07","00:00","1.2","","1.1","","99","","","","28","","3","","0.4","","99.58","","","","","","Fog"
"-66.27","50.22","SEPT-ILES A","7047911","2020-11-07 01:00","2020","11","07","01:00","1.2","","1.1","","99","","","","34","","3","","1.6","","99.67","","","","","","Fog"
"-66.27","50.22","SEPT-ILES A","7047911","2020-11-07 02:00","2020","11","07","02:00","2.0","","1.9","","99","","","","32","","11","","8.1","","99.82","","","","","","Rain,Fog"
"-66.27","50.22","SEPT-ILES A","7047911","2020-11-07 03:00","2020","11","07","03:00","4.4","","1.8","","83","","","","31","","24","","24.1","","99.90","","","","","","NA"
"-66.27","50.22","SEPT-ILES A","7047911","2020-11-07 04:00","2020","11","07","04:00","3.8","","0.4","","78","","","","30","","9","","24.1","","100.16","","","","","","Mostly Cloudy"
"-66.27","50.22","SEPT-ILES A","7047911","2020-11-07 05:00","2020","11","07","05:00","2.7","","0.0","","83","","","","29","","9","","24.1","","100.39","","","","","","NA"
"-66.27","50.22","SEPT-ILES A","7047911","2020-11-07 06:00","2020","11","07","06:00","2.2","","-2.5","","71","","","","34","","15","","48.3","","100.63","","","","","","NA"
"-66.27","50.22","SEPT-ILES A","7047911","2020-11-07 07:00","2020","11","07","07:00","1.2","","-3.8","","69","","","","35","","16","","48.3","","100.88","","","","","","Mostly Cloudy"
"-66.27","50.22","SEPT-ILES A","7047911","2020-11-07 08:00","2020","11","07","08:00","1.3","","-5.1","","62","","","","34","","20","","48.3","","101.06","","","","","","NA"
"-66.27","50.22","SEPT-ILES A","7047911","2020-11-07 09:00","2020","11","07","09:00","1.2","","-6.4","","57","","","","36","","22","","48.3","","101.18","","","","","","NA"
"-66.27","50.22","SEPT-ILES A","7047911","2020-11-07 10:00","2020","11","07","10:00","1.6","","-6.1","","57","","","","36","","17","","48.3","","101.29","","","","","","Mostly Cloudy"
"-66.27","50.22","SEPT-ILES A","7047911","2020-11-07 11:00","2020","11","07","11:00","0.9","","-6.7","","57","","","","32","","23","","48.3","","101.32","","","","","","NA"
"-66.27","50.22","SEPT-ILES A","7047911","2020-11-07 12:00","2020","11","07","12:00","1.2","","-7.2","","54","","","","36","","17","","48.3","","101.34","","","","","","NA"
"-66.27","50.22","SEPT-ILES A","7047911","2020-11-07 13:00","2020","11","07","13:00","1.2","","-8.0","","50","","","","34","","15","","48.3","","101.44","","","","","","Mostly Cloudy"
"-66.27","50.22","SEPT-ILES A","7047911","2020-11-07 14:00","2020","11","07","14:00","0.7","","-8.2","","51","","","","33","","11","","48.3","","101.50","","","","","","NA"
"-66.27","50.22","SEPT-ILES A","7047911","2020-11-07 15:00","2020","11","07","15:00","-0.6","","-8.3","","56","","","","31","","7","","48.3","","101.59","","","","-3","","NA"
"-66.27","50.22","SEPT-ILES A","7047911","2020-11-07 16:00","2020","11","07","16:00","-2.0","","-7.7","","65","","","","31","","7","","48.3","","101.70","","","","-5","","Mainly Clear"
"-66.27","50.22","SEPT-ILES A","7047911","2020-11-07 17:00","2020","11","07","17:00","-2.3","","-8.4","","63","","","","35","","7","","24.1","","101.79","","","","-5","","NA"
"-66.27","50.22","SEPT-ILES A","7047911","2020-11-07 18:00","2020","11","07","18:00","-2.2","","-8.3","","63","","","","3","","18","","24.1","","101.89","","","","-8","","NA"
"-66.27","50.22","SEPT-ILES A","7047911","2020-11-07 19:00","2020","11","07","19:00","-3.1","","-9.2","","63","","","","4","","9","","24.1","","101.98","","","","-7","","Clear"
"-66.27","50.22","SEPT-ILES A","7047911","2020-11-07 20:00","2020","11","07","20:00","-4.5","","-9.3","","70","","","","1","","7","","24.1","","102.04","","","","-8","","NA"
"-66.27","50.22","SEPT-ILES A","7047911","2020-11-07 21:00","2020","11","07","21:00","-7.6","","-9.7","","85","","","","23","","6","","24.1","","102.10","","","","-11","","NA"
"-66.27","50.22","SEPT-ILES A","7047911","2020-11-07 22:00","2020","11","07","22:00","-8.2","","-9.7","","89","","","","30","","3","","24.1","","102.15","","","","-10","","Clear"
"-66.27","50.22","SEPT-ILES A","7047911","2020-11-07 23:00","2020","11","07","23:00","-8.8","","-10.0","","91","","","","3","","5","","24.1","","102.19","","","","-12","","NA"
"-66.27","50.22","SEPT-ILES A","7047911","2020-11-08 00:00","2020","11","08","00:00","-10.0","","-11.4","","89","","","","36","","3","","24.1","","102.20","","","","-12","","NA"
"-66.27","50.22","SEPT-ILES A","7047911","2020-11-08 01:00","2020","11","08","01:00","-9.0","","-10.8","","87","","","","2","","8","","24.1","","102.24","","","","-13","","Clear"
"-66.27","50.22","SEPT-ILES A","7047911","2020-11-08 02:00","2020","11","08","02:00","-9.8","","-11.1","","90","","","","3","","9","","24.1","","102.28","","","","-15","","NA"
"-66.27","50.22","SEPT-ILES A","7047911","2020-11-08 03:00","2020","11","08","03:00","-7.8","","-10.0","","84","","","","3","","11","","24.1","","102.26","","","","-13","","NA"
"-66.27","50.22","SEPT-ILES A","7047911","2020-11-08 04:00","2020","11","08","04:00","-10.1","","-11.8","","87","","","","36","","2","","24.1","","102.31","","","","-11","","Mainly Clear"
"-66.27","50.22","SEPT-ILES A","7047911","2020-11-08 05:00","2020","11","08","05:00","-9.2","","-11.0","","87","","","","5","","5","","24.1","","102.33","","","","-12","","NA"
"-66.27","50.22","SEPT-ILES A","7047911","2020-11-08 06:00","2020","11","08","06:00","-8.4","","-10.3","","86","","","","3","","7","","48.3","","102.42","","","","-12","","NA"
"-66.27","50.22","SEPT-ILES A","7047911","2020-11-08 07:00","2020","11","08","07:00","-7.8","","-9.9","","85","","","","3","","10","","48.3","","102.49","","","","-13","","Mostly Cloudy"
"-66.27","50.22","SEPT-ILES A","7047911","2020-11-08 08:00","2020","11","08","08:00","-5.7","","-8.6","","80","","","","4","","13","","48.3","","102.56","","","","-11","","NA"
"-66.27","50.22","SEPT-ILES A","7047911","2020-11-08 09:00","2020","11","08","09:00","-3.8","","-7.5","","75","","","","3","","11","","48.3","","102.52","","","","-8","","NA"
"-66.27","50.22","SEPT-ILES A","7047911","2020-11-08 10:00","2020","11","08","10:00","-2.1","","-8.4","","62","","","","9","","5","","48.3","","102.50","","","","-4","","Mostly Cloudy"
"-66.27","50.22","SEPT-ILES A","7047911","2020-11-08 11:00","2020","11","08","11:00","-1.5","","-6.4","","70","","","","14","","5","","48.3","","102.46","","","","-3","","NA"
"-66.27","50.22","SEPT-ILES A","7047911","2020-11-08 12:00","2020","11","08","12:00","-1.2","","-5.7","","71","","","","15","","9","","48.3","","102.39","","","","-4","","NA"
"-66.27","50.22","SEPT-ILES A","7047911","2020-11-08 13:00","2020","11","08","13:00","-0.8","","-6.0","","68","","","","0","","1","","48.3","","102.33","","","","-1","","Mostly Cloudy"
"-66.27","50.22","SEPT-ILES A","7047911","2020-11-08 14:00","2020","11","08","14:00","-0.9","","-6.0","","68","","","","16","","9","","48.3","","102.25","","","","-4","","NA"
"-66.27","50.22","SEPT-ILES A","7047911","2020-11-08 15:00","2020","11","08","15:00","-1.5","","-5.8","","73","","","","17","","9","","48.3","","102.21","","","","-5","","NA"
"-66.27","50.22","SEPT-ILES A","7047911","2020-11-08 16:00","2020","11","08","16:00","-2.6","","-5.3","","82","","","","15","","7","","48.3","","102.20","","","","-5","","Mostly Cloudy"
"-66.27","50.22","SEPT-ILES A","7047911","2020-11-08 17:00","2020","11","08","17:00","-1.4","","-5.0","","77","","","","15","","7","","24.1","","102.19","","","","-4","","NA"
"-66.27","50.22","SEPT-ILES A","7047911","2020-11-08 18:00","2020","11","08","18:00","-1.7","","-5.1","","78","","","","9","","3","","24.1","","102.11","","","","-3","","NA"
"-66.27","50.22","SEPT-ILES A","7047911","2020-11-08 19:00","2020","11","08","19:00","-1.5","","-4.7","","79","","","","12","","5","","24.1","","102.04","","","","-3","","Cloudy"
"-66.27","50.22","SEPT-ILES A","7047911","2020-11-08 20:00","2020","11","08","20:00","-1.8","","-4.8","","80","","","","4","","5","","24.1","","102.00","","","","-4","","NA"
"-66.27","50.22","SEPT-ILES A","7047911","2020-11-08 21:00","2020","11","08","21:00","-2.0","","-3.6","","89","","","","5","","6","","24.1","","101.89","","","","-4","","Freezing Rain"
"-66.27","50.22","SEPT-ILES A","7047911","2020-11-08 22:00","2020","11","08","22:00","-1.8","","-2.6","","94","","","","5","","5","","24.1","","101.81","","","","-4","","Freezing Rain"
"-66.27","50.22","SEPT-ILES A","7047911","2020-11-08 23:00","2020","11","08","23:00","-1.8","","-2.3","","97","","","","9","","3","","16.1","","101.69","","","","-3","","Freezing Rain"
"-66.27","50.22","SEPT-ILES A","7047911","2020-11-09 00:00","2020","11","09","00:00","-1.8","","-2.1","","98","","","","36","","1","","16.1","","101.65","","","","-2","","Freezing Drizzle"
"-66.27","50.22","SEPT-ILES A","7047911","2020-11-09 01:00","2020","11","09","01:00","-1.5","","-1.8","","98","","","","36","","2","","16.1","","101.57","","","","-2","","Freezing Drizzle"
"-66.27","50.22","SEPT-ILES A","7047911","2020-11-09 02:00","2020","11","09","02:00","-1.6","","-1.6","","99","","","","36","","2","","4.8","","101.47","","","","-2","","Freezing Drizzle"
"-66.27","50.22","SEPT-ILES A","7047911","2020-11-09 03:00","2020","11","09","03:00","-1.4","","-1.5","","100","","","","36","","3","","4.8","","101.45","","","","-2","","Freezing Drizzle"
"-66.27","50.22","SEPT-ILES A","7047911","2020-11-09 04:00","2020","11","09","04:00","-1.4","","-1.4","","100","","","","28","","5","","4.8","","101.38","","","","-3","","Freezing Drizzle"
"-66.27","50.22","SEPT-ILES A","7047911","2020-11-09 05:00","2020","11","09","05:00","-1.5","","-1.6","","99","","","","36","","2","","8.1","","101.31","","","","-2","","Freezing Drizzle"
"-66.27","50.22","SEPT-ILES A","7047911","2020-11-09 06:00","2020","11","09","06:00","-1.5","","-1.6","","99","","","","36","","3","","24.1","","101.31","","","","-3","","NA"
"-66.27","50.22","SEPT-ILES A","7047911","2020-11-09 07:00","2020","11","09","07:00","-1.4","","-1.5","","99","","","","36","","2","","48.3","","101.31","","","","-2","","Cloudy"
"-66.27","50.22","SEPT-ILES A","7047911","2020-11-09 08:00","2020","11","09","08:00","-1.0","","-1.2","","99","","","","36","","3","","48.3","","101.31","","","","-2","","NA"
"-66.27","50.22","SEPT-ILES A","7047911","2020-11-09 09:00","2020","11","09","09:00","-0.5","","-0.9","","97","","","","27","","4","","48.3","","101.28","","","","-2","","NA"
"-66.27","50.22","SEPT-ILES A","7047911","2020-11-09 10:00","2020","11","09","10:00","0.3","","-0.4","","95","","","","28","","5","","48.3","","101.24","","","","","","Cloudy"
"-66.27","50.22","SEPT-ILES A","7047911","2020-11-09 11:00","2020","11","09","11:00","1.0","","-0.2","","92","","","","28","","6","","48.3","","101.15","","","","","","NA"
"-66.27","50.22","SEPT-ILES A","7047911","2020-11-09 12:00","2020","11","09","12:00","1.5","","0.8","","95","","","","25","","5","","48.3","","101.05","","","","","","NA"
"-66.27","50.22","SEPT-ILES A","7047911","2020-11-09 13:00","2020","11","09","13:00","2.1","","1.4","","95","","","","36","","2","","48.3","","100.98","","","","","","Mostly Cloudy"
"-66.27","50.22","SEPT-ILES A","7047911","2020-11-09 14:00","2020","11","09","14:00","2.0","","0.8","","91","","","","17","","8","","48.3","","100.95","","","","","","NA"
"-66.27","50.22","SEPT-ILES A","7047911","2020-11-09 15:00","2020","11","09","15:00","0.9","","0.3","","95","","","","36","","2","","48.3","","100.91","","","","","","NA"
"-66.27","50.22","SEPT-ILES A","7047911","2020-11-09 16:00","2020","11","09","16:00","1.2","","0.5","","95","","","","36","","2","","48.3","","100.89","","","","","","Cloudy"
"-66.27","50.22","SEPT-ILES A","7047911","2020-11-09 17:00","2020","11","09","17:00","1.2","","0.7","","97","","","","36","","3","","24.1","","100.87","","","","","","NA"
"-66.27","50.22","SEPT-ILES A","7047911","2020-11-09 18:00","2020","11","09","18:00","1.6","","1.3","","97","","","","36","","3","","24.1","","100.86","","","","","","NA"
"-66.27","50.22","SEPT-ILES A","7047911","2020-11-09 19:00","2020","11","09","19:00","2.2","","1.8","","98","","","","3","","3","","24.1","","100.79","","","","","","Cloudy"
"-66.27","50.22","SEPT-ILES A","7047911","2020-11-09 20:00","2020","11","09","20:00","2.1","","1.7","","97","","","","21","","4","","24.1","","100.76","","","","","","NA"
"-66.27","50.22","SEPT-ILES A","7047911","2020-11-09 21:00","2020","11","09","21:00","2.1","","1.7","","97","","","","33","","6","","24.1","","100.73","","","","","","NA"
"-66.27","50.22","SEPT-ILES A","7047911","2020-11-09 22:00","2020","11","09","22:00","2.1","","1.8","","98","","","","35","","5","","24.1","","100.65","","","","","","Cloudy"
"-66.27","50.22","SEPT-ILES A","7047911","2020-11-09 23:00","2020","11","09","23:00","0.9","","0.8","","100","","","","2","","5","","24.1","","100.58","","","","","","NA"
"-66.27","50.22","SEPT-ILES A","7047911","2020-11-10 00:00","2020","11","10","00:00","0.3","","0.3","","100","","","","23","","5","","24.1","","100.49","","","","","","NA"
"-66.27","50.22","SEPT-ILES A","7047911","2020-11-10 01:00","2020","11","10","01:00","-1.2","","-1.2","","100","","","","31","","5","","24.1","","100.47","","","","-3","","Mainly Clear"
"-66.27","50.22","SEPT-ILES A","7047911","2020-11-10 02:00","2020","11","10","02:00","-0.3","","-0.4","","100","","","","2","","5","","24.1","","100.40","","","","-2","","NA"
"-66.27","50.22","SEPT-ILES A","7047911","2020-11-10 03:00","2020","11","10","03:00","0.6","","0.6","","100","","","","7","","3","","24.1","","100.30","","","","","","NA"
"-66.27","50.22","SEPT-ILES A","7047911","2020-11-10 04:00","2020","11","10","04:00","0.1","","0.1","","100","","","","8","","6","","8.1","","100.23","","","","","","Fog"
"-66.27","50.22","SEPT-ILES A","7047911","2020-11-10 05:00","2020","11","10","05:00","0.1","","0.0","","100","","","","5","","5","","80.5","","100.20","","","","","","Fog"
"-66.27","50.22","SEPT-ILES A","7047911","2020-11-10 06:00","2020","11","10","06:00","-0.6","","-0.6","","100","","","","2","","5","","24.1","","100.15","","","","-2","","NA"
"-66.27","50.22","SEPT-ILES A","7047911","2020-11-10 07:00","2020","11","10","07:00","0.3","","0.2","","100","","","","3","","5","","48.3","","100.09","","","","","","Clear"
"-66.27","50.22","SEPT-ILES A","7047911","2020-11-10 08:00","2020","11","10","08:00","3.0","","3.0","","100","","","","36","","3","","48.3","","100.02","","","","","","NA"
"-66.27","50.22","SEPT-ILES A","7047911","2020-11-10 09:00","2020","11","10","09:00","6.0","","4.2","","89","","","","36","","3","","48.3","","99.98","","","","","","NA"
"-66.27","50.22","SEPT-ILES A","7047911","2020-11-10 10:00","2020","11","10","10:00","8.4","","5.8","","83","","","","24","","10","","48.3","","99.91","","","","","","Clear"
"-66.27","50.22","SEPT-ILES A","7047911","2020-11-10 11:00","2020","11","10","11:00","10.6","","6.4","","75","","","","22","","8","","48.3","","99.80","","","","","","NA"
"-66.27","50.22","SEPT-ILES A","7047911","2020-11-10 12:00","2020","11","10","12:00","12.4","","7.0","","69","","","","25","","12","","48.3","","99.71","","","","","","NA"
"-66.27","50.22","SEPT-ILES A","7047911","2020-11-10 13:00","2020","11","10","13:00","12.5","","7.0","","69","","","","29","","14","","48.3","","99.66","","","","","","Mainly Clear"
"-66.27","50.22","SEPT-ILES A","7047911","2020-11-10 14:00","2020","11","10","14:00","12.5","","6.9","","69","","","","27","","15","","48.3","","99.68","","","","","","NA"
"-66.27","50.22","SEPT-ILES A","7047911","2020-11-10 15:00","2020","11","10","15:00","11.2","","6.4","","73","","","","35","","9","","48.3","","99.76","","","","","","NA"
"-66.27","50.22","SEPT-ILES A","7047911","2020-11-10 16:00","2020","11","10","16:00","10.6","","6.5","","76","","","","27","","8","","24.1","","99.83","","","","","","Cloudy"
"-66.27","50.22","SEPT-ILES A","7047911","2020-11-10 17:00","2020","11","10","17:00","14.7","","9.9","","73","","","","26","","16","","24.1","","99.89","","","","","","NA"
"-66.27","50.22","SEPT-ILES A","7047911","2020-11-10 18:00","2020","11","10","18:00","14.8","","9.8","","72","","","","27","","14","","24.1","","99.98","","","","","","NA"
"-66.27","50.22","SEPT-ILES A","7047911","2020-11-10 19:00","2020","11","10","19:00","13.8","","9.6","","75","","","","27","","13","","24.1","","100.04","","","","","","Cloudy"
"-66.27","50.22","SEPT-ILES A","7047911","2020-11-10 20:00","2020","11","10","20:00","13.4","","9.5","","77","","","","36","","3","","24.1","","100.06","","","","","","NA"
"-66.27","50.22","SEPT-ILES A","7047911","2020-11-10 21:00","2020","11","10","21:00","9.3","","7.2","","86","","","","32","","4","","24.1","","100.01","","","","","","NA"
"-66.27","50.22","SEPT-ILES A","7047911","2020-11-10 22:00","2020","11","10","22:00","9.2","","8.2","","93","","","","23","","7","","24.1","","100.06","","","","","","Cloudy"
"-66.27","50.22","SEPT-ILES A","7047911","2020-11-10 23:00","2020","11","10","23:00","11.0","","8.7","","86","","","","31","","8","","24.1","","100.11","","","","","","NA"
"-66.27","50.22","SEPT-ILES A","7047911","2020-11-11 00:00","2020","11","11","00:00","10.2","","8.3","","88","","","","25","","5","","24.1","","100.13","","","","","","NA"
"-66.27","50.22","SEPT-ILES A","7047911","2020-11-11 01:00","2020","11","11","01:00","9.8","","8.2","","90","","","","1","","7","","24.1","","100.14","","","","","","Cloudy"
"-66.27","50.22","SEPT-ILES A","7047911","2020-11-11 02:00","2020","11","11","02:00","9.1","","7.8","","91","","","","11","","5","","24.1","","100.13","","","","","","NA"
"-66.27","50.22","SEPT-ILES A","7047911","2020-11-11 03:00","2020","11","11","03:00","7.9","","7.3","","96","","","","11","","12","","24.1","","100.14","","","","","","NA"
"-66.27","50.22","SEPT-ILES A","7047911","2020-11-11 04:00","2020","11","11","04:00","8.3","","7.5","","95","","","","11","","7","","24.1","","100.14","","","","","","Cloudy"
"-66.27","50.22","SEPT-ILES A","7047911","2020-11-11 05:00","2020","11","11","05:00","8.4","","7.4","","93","","","","13","","7","","24.1","","100.17","","","","","","NA"
"-66.27","50.22","SEPT-ILES A","7047911","2020-11-11 06:00","2020","11","11","06:00","6.8","","6.5","","98","","","","8","","20","","8.1","","100.14","","","","","","Fog"
"-66.27","50.22","SEPT-ILES A","7047911","2020-11-11 07:00","2020","11","11","07:00","6.4","","5.7","","95","","","","9","","25","","16.1","","100.13","","","","","","Cloudy"
"-66.27","50.22","SEPT-ILES A","7047911","2020-11-11 08:00","2020","11","11","08:00","6.5","","4.0","","84","","","","9","","28","","48.3","","100.12","","","","","","NA"
"-66.27","50.22","SEPT-ILES A","7047911","2020-11-11 09:00","2020","11","11","09:00","6.0","","4.3","","89","","","","9","","21","","32.2","","100.06","","","","","","NA"
"-66.27","50.22","SEPT-ILES A","7047911","2020-11-11 10:00","2020","11","11","10:00","6.3","","4.9","","91","","","","10","","22","","32.2","","100.00","","","","","","Cloudy"
"-66.27","50.22","SEPT-ILES A","7047911","2020-11-11 11:00","2020","11","11","11:00","6.0","","4.4","","89","","","","8","","25","","24.1","","99.82","","","","","","Rain"
"-66.27","50.22","SEPT-ILES A","7047911","2020-11-11 12:00","2020","11","11","12:00","6.8","","4.8","","87","","","","10","","19","","24.1","","99.72","","","","","","NA"
"-66.27","50.22","SEPT-ILES A","7047911","2020-11-11 13:00","2020","11","11","13:00","6.4","","4.7","","89","","","","9","","18","","32.2","","99.56","","","","","","Rain"
"-66.27","50.22","SEPT-ILES A","7047911","2020-11-11 14:00","2020","11","11","14:00","5.5","","4.8","","95","","","","10","","22","","16.1","","99.49","","","","","","Rain"
"-66.27","50.22","SEPT-ILES A","7047911","2020-11-11 15:00","2020","11","11","15:00","5.3","","4.4","","94","","","","9","","21","","16.1","","99.39","","","","","","Rain"
"-66.27","50.22","SEPT-ILES A","7047911","2020-11-11 16:00","2020","11","11","16:00","5.0","","4.2","","95","","","","9","","18","","16.1","","99.30","","","","","","Rain"
"-66.27","50.22","SEPT-ILES A","7047911","2020-11-11 17:00","2020","11","11","17:00","4.9","","3.9","","93","","","","11","","15","","24.1","","99.25","","","","","","NA"
"-66.27","50.22","SEPT-ILES A","7047911","2020-11-11 18:00","2020","11","11","18:00","5.0","","4.1","","93","","","","10","","8","","24.1","","99.14","","","","","","NA"
"-66.27","50.22","SEPT-ILES A","7047911","2020-11-11 19:00","2020","11","11","19:00","3.8","","3.2","","96","","","","32","","6","","24.1","","99.09","","","","","","Mostly Cloudy"
"-66.27","50.22","SEPT-ILES A","7047911","2020-11-11 20:00","2020","11","11","20:00","3.6","","3.3","","98","","","","5","","5","","24.1","","99.02","","","","","","NA"
"-66.27","50.22","SEPT-ILES A","7047911","2020-11-11 21:00","2020","11","11","21:00","3.5","","3.4","","99","","","","36","","2","","24.1","","98.99","","","","","","NA"
"-66.27","50.22","SEPT-ILES A","7047911","2020-11-11 22:00","2020","11","11","22:00","4.5","","4.4","","99","","","","28","","9","","24.1","","99.19","","","","","","Mostly Cloudy"
"-66.27","50.22","SEPT-ILES A","7047911","2020-11-11 23:00","2020","11","11","23:00","5.4","","3.5","","88","","","","29","","24","","24.1","","99.24","","","","","","NA"
"-66.27","50.22","SEPT-ILES A","7047911","2020-11-12 00:00","2020","11","12","00:00","7.5","","1.4","","65","","","","28","","24","","24.1","","99.39","","","","","","NA"
"-66.27","50.22","SEPT-ILES A","7047911","2020-11-12 01:00","2020","11","12","01:00","6.4","","0.2","","64","","","","28","","27","","24.1","","99.47","","","","","","Mainly Clear"
"-66.27","50.22","SEPT-ILES A","7047911","2020-11-12 02:00","2020","11","12","02:00","5.4","","0.0","","68","","","","29","","16","","24.1","","99.62","","","","","","NA"
"-66.27","50.22","SEPT-ILES A","7047911","2020-11-12 03:00","2020","11","12","03:00","4.3","","-0.4","","71","","","","33","","14","","24.1","","99.76","","","","","","NA"
"-66.27","50.22","SEPT-ILES A","7047911","2020-11-12 04:00","2020","11","12","04:00","3.9","","-1.7","","66","","","","30","","18","","24.1","","99.90","","","","","","Clear"
"-66.27","50.22","SEPT-ILES A","7047911","2020-11-12 05:00","2020","11","12","05:00","3.1","","-2.2","","68","","","","29","","13","","24.1","","100.00","","","","","","NA"
"-66.27","50.22","SEPT-ILES A","7047911","2020-11-12 06:00","2020","11","12","06:00","2.7","","-2.5","","69","","","","30","","16","","32.2","","100.12","","","","","","NA"
"-66.27","50.22","SEPT-ILES A","7047911","2020-11-12 07:00","2020","11","12","07:00","2.9","","-2.8","","66","","","","32","","13","","48.3","","100.20","","","","","","Mainly Clear"
"-66.27","50.22","SEPT-ILES A","7047911","2020-11-12 08:00","2020","11","12","08:00","4.0","","-3.3","","59","","","","29","","18","","48.3","","100.29","","","","","","NA"
"-66.27","50.22","SEPT-ILES A","7047911","2020-11-12 09:00","2020","11","12","09:00","4.8","","-3.8","","54","","","","29","","21","","48.3","","100.40","","","","","","NA"
"-66.27","50.22","SEPT-ILES A","7047911","2020-11-12 10:00","2020","11","12","10:00","5.4","","-3.7","","52","","","","32","","22","","48.3","","100.36","","","","","","Mostly Cloudy"
"-66.27","50.22","SEPT-ILES A","7047911","2020-11-12 11:00","2020","11","12","11:00","5.6","","-2.9","","54","","","","32","","11","","48.3","","100.37","","","","","","NA"
"-66.27","50.22","SEPT-ILES A","7047911","2020-11-12 12:00","2020","11","12","12:00","5.3","","-3.7","","52","","","","31","","15","","48.3","","100.41","","","","","","NA"
"-66.27","50.22","SEPT-ILES A","7047911","2020-11-12 13:00","2020","11","12","13:00","5.1","","-3.6","","53","","","","26","","17","","48.3","","100.43","","","","","","Mostly Cloudy"
"-66.27","50.22","SEPT-ILES A","7047911","2020-11-12 14:00","2020","11","12","14:00","4.8","","-3.1","","56","","","","29","","14","","48.3","","100.46","","","","","","NA"
"-66.27","50.22","SEPT-ILES A","7047911","2020-11-12 15:00","2020","11","12","15:00","4.6","","-3.6","","55","","","","30","","8","","48.3","","100.51","","","","","","NA"
"-66.27","50.22","SEPT-ILES A","7047911","2020-11-12 16:00","2020","11","12","16:00","3.8","","-3.5","","59","","","","28","","15","","32.2","","100.58","","","","","","Mostly Cloudy"
"-66.27","50.22","SEPT-ILES A","7047911","2020-11-12 17:00","2020","11","12","17:00","3.2","","-4.0","","59","","","","30","","18","","24.1","","100.68","","","","","","NA"
"-66.27","50.22","SEPT-ILES A","7047911","2020-11-12 18:00","2020","11","12","18:00","0.9","","-4.2","","68","","","","29","","10","","24.1","","100.76","","","","","","NA"
"-66.27","50.22","SEPT-ILES A","7047911","2020-11-12 19:00","2020","11","12","19:00","-0.6","","-5.1","","72","","","","26","","8","","24.1","","100.84","","","","-3","","Mainly Clear"
"-66.27","50.22","SEPT-ILES A","7047911","2020-11-12 20:00","2020","11","12","20:00","0.5","","-3.9","","72","","","","26","","13","","24.1","","100.85","","","","","","NA"
"-66.27","50.22","SEPT-ILES A","7047911","2020-11-12 21:00","2020","11","12","21:00","0.5","","-4.0","","72","","","","27","","11","","24.1","","100.87","","","","","","NA"
"-66.27","50.22","SEPT-ILES A","7047911","2020-11-12 22:00","2020","11","12","22:00","-0.8","","-4.4","","76","","","","31","","7","","24.1","","100.90","","","","-3","","Mainly Clear"
"-66.27","50.22","SEPT-ILES A","7047911","2020-11-12 23:00","2020","11","12","23:00","-2.6","","-4.9","","84","","","","28","","7","","24.1","","100.97","","","","-5","","NA"
"-66.27","50.22","SEPT-ILES A","7047911","2020-11-13 00:00","2020","11","13","00:00","-1.0","","-5.4","","72","","","","29","","9","","24.1","","100.98","","","","-4","","NA"
"-66.27","50.22","SEPT-ILES A","7047911","2020-11-13 01:00","2020","11","13","01:00","-0.5","","-5.1","","71","","","","27","","3","","24.1","","101.05","","","","-1","","Clear"
"-66.27","50.22","SEPT-ILES A","7047911","2020-11-13 02:00","2020","11","13","02:00","-4.5","","-6.2","","88","","","","25","","12","","24.1","","101.12","","","","-9","","NA"
"-66.27","50.22","SEPT-ILES A","7047911","2020-11-13 03:00","2020","11","13","03:00","-5.6","","-6.8","","91","","","","27","","8","","24.1","","101.10","","","","-9","","NA"
"-66.27","50.22","SEPT-ILES A","7047911","2020-11-13 04:00","2020","11","13","04:00","-5.5","","-7.2","","88","","","","23","","9","","24.1","","101.08","","","","-10","","Clear"
"-66.27","50.22","SEPT-ILES A","7047911","2020-11-13 05:00","2020","11","13","05:00","-5.5","","-6.4","","93","","","","5","","5","","24.1","","101.11","","","","-8","","NA"
"-66.27","50.22","SEPT-ILES A","7047911","2020-11-13 06:00","2020","11","13","06:00","-7.2","","-8.4","","91","","","","28","","7","","24.1","","101.19","","","","-11","","NA"
"-66.27","50.22","SEPT-ILES A","7047911","2020-11-13 07:00","2020","11","13","07:00","-5.6","","-7.0","","89","","","","31","","8","","48.3","","101.25","","","","-9","","Mainly Clear"
"-66.27","50.22","SEPT-ILES A","7047911","2020-11-13 08:00","2020","11","13","08:00","-0.4","","-4.4","","74","","","","29","","9","","48.3","","101.32","","","","-4","","NA"
"-66.27","50.22","SEPT-ILES A","7047911","2020-11-13 09:00","2020","11","13","09:00","1.1","","-3.4","","72","","","","27","","9","","48.3","","101.34","","","","","","NA"
"-66.27","50.22","SEPT-ILES A","7047911","2020-11-13 10:00","2020","11","13","10:00","2.8","","-3.9","","62","","","","34","","5","","48.3","","101.31","","","","","","Mostly Cloudy"
"-66.27","50.22","SEPT-ILES A","7047911","2020-11-13 11:00","2020","11","13","11:00","5.3","","-3.0","","55","","","","7","","4","","48.3","","101.19","","","","","","NA"
"-66.27","50.22","SEPT-ILES A","7047911","2020-11-13 12:00","2020","11","13","12:00","4.6","","-3.2","","57","","","","20","","16","","48.3","","101.15","","","","","","NA"
"-66.27","50.22","SEPT-ILES A","7047911","2020-11-13 13:00","2020","11","13","13:00","3.8","","-2.5","","64","","","","19","","14","","48.3","","101.15","","","","","","Mostly Cloudy"
"-66.27","50.22","SEPT-ILES A","7047911","2020-11-13 14:00","2020","11","13","14:00","3.7","","-1.8","","67","","","","25","","7","","48.3","","101.13","","","","","","NA"
"-66.27","50.22","SEPT-ILES A","7047911","2020-11-13 15:00","2020","11","13","15:00","1.8","","-1.1","","81","","","","21","","4","","48.3","","101.14","","","","","","NA"
"-66.27","50.22","SEPT-ILES A","7047911","2020-11-13 16:00","2020","11","13","16:00","-0.8","","-2.6","","88","","","","35","","4","","32.2","","101.11","","","","-2","","Mostly Cloudy"
"-66.27","50.22","SEPT-ILES A","7047911","2020-11-13 17:00","2020","11","13","17:00","-0.4","","-2.5","","86","","","","2","","5","","24.1","","101.08","","","","-2","","NA"
"-66.27","50.22","SEPT-ILES A","7047911","2020-11-13 18:00","2020","11","13","18:00","-0.7","","-2.7","","87","","","","7","","4","","24.1","","101.06","","","","-2","","NA"
"-66.27","50.22","SEPT-ILES A","7047911","2020-11-13 19:00","2020","11","13","19:00","0.0","","-2.8","","82","","","","5","","9","","24.1","","100.97","","","","-3","","Mostly Cloudy"
"-66.27","50.22","SEPT-ILES A","7047911","2020-11-13 20:00","2020","11","13","20:00","-0.3","","-2.9","","83","","","","4","","12","","24.1","","100.91","","","","-4","","NA"
"-66.27","50.22","SEPT-ILES A","7047911","2020-11-13 21:00","2020","11","13","21:00","-0.1","","-2.1","","86","","","","11","","11","","24.1","","100.88","","","","-4","","NA"
"-66.27","50.22","SEPT-ILES A","7047911","2020-11-13 22:00","2020","11","13","22:00","0.5","","-0.9","","91","","","","6","","11","","24.1","","100.79","","","","","","Mostly Cloudy"
"-66.27","50.22","SEPT-ILES A","7047911","2020-11-13 23:00","2020","11","13","23:00","0.4","","-1.2","","89","","","","6","","12","","24.1","","100.70","","","","","","NA"
"-66.27","50.22","SEPT-ILES A","7047911","2020-11-14 00:00","2020","11","14","00:00","0.8","","-0.3","","92","","","","10","","9","","24.1","","100.78","","","","","","NA"
"-66.27","50.22","SEPT-ILES A","7047911","2020-11-14 01:00","2020","11","14","01:00","0.8","","-0.4","","92","","","","7","","13","","24.1","","100.73","","","","","","Cloudy"
"-66.27","50.22","SEPT-ILES A","7047911","2020-11-14 02:00","2020","11","14","02:00","0.2","","-0.2","","98","","","","6","","15","","3.2","","100.68","","","","","","Snow"
"-66.27","50.22","SEPT-ILES A","7047911","2020-11-14 03:00","2020","11","14","03:00","0.1","","-0.4","","97","","","","5","","20","","24.1","","100.54","","","","","","Snow"
"-66.27","50.22","SEPT-ILES A","7047911","2020-11-14 04:00","2020","11","14","04:00","0.3","","-0.1","","97","","","","8","","14","","16.1","","100.56","","","","","","Snow"
"-66.27","50.22","SEPT-ILES A","7047911","2020-11-14 05:00","2020","11","14","05:00","0.3","","0.1","","99","","","","8","","16","","4.0","","100.50","","","","","","Snow"
"-66.27","50.22","SEPT-ILES A","7047911","2020-11-14 06:00","2020","11","14","06:00","0.2","","0.0","","99","","","","10","","15","","4.0","","100.51","","","","","","Snow"
"-66.27","50.22","SEPT-ILES A","7047911","2020-11-14 07:00","2020","11","14","07:00","0.2","","0.1","","99","","","","9","","14","","1.6","","100.50","","","","","","Snow"
"-66.27","50.22","SEPT-ILES A","7047911","2020-11-14 08:00","2020","11","14","08:00","0.2","","0.1","","99","","","","8","","14","","1.6","","100.47","","","","","","Snow"
"-66.27","50.22","SEPT-ILES A","7047911","2020-11-14 09:00","2020","11","14","09:00","0.4","","0.2","","99","","","","8","","18","","3.2","","100.46","","","","","","Snow"
"-66.27","50.22","SEPT-ILES A","7047911","2020-11-14 10:00","2020","11","14","10:00","0.3","","0.2","","99","","","","10","","16","","3.2","","100.47","","","","","","Snow"
"-66.27","50.22","SEPT-ILES A","7047911","2020-11-14 11:00","2020","11","14","11:00","0.4","","0.4","","100","","","","10","","12","","6.4","","100.43","","","","","","Snow"
"-66.27","50.22","SEPT-ILES A","7047911","2020-11-14 12:00","2020","11","14","12:00","0.6","","0.5","","99","","","","8","","9","","3.2","","100.42","","","","","","Snow"
"-66.27","50.22","SEPT-ILES A","7047911","2020-11-14 13:00","2020","11","14","13:00","0.5","","0.4","","99","","","","8","","9","","6.4","","100.44","","","","","","Snow"
"-66.27","50.22","SEPT-ILES A","7047911","2020-11-14 14:00","2020","11","14","14:00","0.6","","0.5","","99","","","","9","","7","","6.4","","100.48","","","","","","Snow"
"-66.27","50.22","SEPT-ILES A","7047911","2020-11-14 15:00","2020","11","14","15:00","0.5","","0.4","","100","","","","8","","5","","4.8","","100.51","","","","","","Snow"
"-66.27","50.22","SEPT-ILES A","7047911","2020-11-14 16:00","2020","11","14","16:00","0.3","","0.3","","100","","","","36","","3","","8.1","","100.56","","","","","","Snow"
"-66.27","50.22","SEPT-ILES A","7047911","2020-11-14 17:00","2020","11","14","17:00","0.2","","0.2","","100","","","","1","","3","","8.1","","100.60","","","","","","Snow"
"-66.27","50.22","SEPT-ILES A","7047911","2020-11-14 18:00","2020","11","14","18:00","0.2","","0.2","","100","","","","36","","3","","1.2","","100.63","","","","","","Snow,Fog"
"-66.27","50.22","SEPT-ILES A","7047911","2020-11-14 19:00","2020","11","14","19:00","0.1","","0.1","","100","","","","6","","3","","0.8","","100.65","","","","","","Moderate Snow,Fog"
"-66.27","50.22","SEPT-ILES A","7047911","2020-11-14 20:00","2020","11","14","20:00","0.0","","0.0","","100","","","","36","","2","","0.8","","100.69","","","","-1","","Moderate Snow,Fog"
"-66.27","50.22","SEPT-ILES A","7047911","2020-11-14 21:00","2020","11","14","21:00","0.0","","0.0","","100","","","","30","","8","","4.8","","100.72","","","","-3","","Snow,Fog"
"-66.27","50.22","SEPT-ILES A","7047911","2020-11-14 22:00","2020","11","14","22:00","-0.3","","-1.9","","89","","","","31","","19","","24.1","","100.73","","","","-5","","Snow"
"-66.27","50.22","SEPT-ILES A","7047911","2020-11-14 23:00","2020","11","14","23:00","-1.3","","-3.2","","87","","","","31","","15","","24.1","","100.75","","","","-6","","Snow"
"-66.27","50.22","SEPT-ILES A","7047911","2020-11-15 00:00","2020","11","15","00:00","-2.0","","-4.6","","82","","","","31","","12","","24.1","","100.81","","","","-6","","NA"
"-66.27","50.22","SEPT-ILES A","7047911","2020-11-15 01:00","2020","11","15","01:00","-2.4","","-6.3","","75","","","","32","","17","","24.1","","100.90","","","","-8","","Mostly Cloudy"
"-66.27","50.22","SEPT-ILES A","7047911","2020-11-15 02:00","2020","11","15","02:00","-3.0","","-6.5","","77","","","","31","","19","","24.1","","101.00","","","","-9","","NA"
"-66.27","50.22","SEPT-ILES A","7047911","2020-11-15 03:00","2020","11","15","03:00","-3.3","","-7.1","","75","","","","31","","16","","24.1","","101.08","","","","-9","","NA"
"-66.27","50.22","SEPT-ILES A","7047911","2020-11-15 04:00","2020","11","15","04:00","-3.2","","-8.2","","69","","","","33","","24","","24.1","","101.15","","","","-10","","Mostly Cloudy"
"-66.27","50.22","SEPT-ILES A","7047911","2020-11-15 05:00","2020","11","15","05:00","-4.4","","-8.3","","74","","","","33","","14","","24.1","","101.22","","","","-10","","NA"
"-66.27","50.22","SEPT-ILES A","7047911","2020-11-15 06:00","2020","11","15","06:00","-4.7","","-8.6","","75","","","","35","","8","","48.3","","101.34","","","","-8","","NA"
"-66.27","50.22","SEPT-ILES A","7047911","2020-11-15 07:00","2020","11","15","07:00","-5.9","","-8.7","","81","","","","30","","10","","48.3","","101.45","","","","-10","","Mainly Clear"
"-66.27","50.22","SEPT-ILES A","7047911","2020-11-15 08:00","2020","11","15","08:00","-4.0","","-8.1","","73","","","","1","","11","","48.3","","101.48","","","","-8","","NA"
"-66.27","50.22","SEPT-ILES A","7047911","2020-11-15 09:00","2020","11","15","09:00","-2.6","","-7.1","","72","","","","1","","10","","48.3","","101.53","","","","-6","","NA"
"-66.27","50.22","SEPT-ILES A","7047911","2020-11-15 10:00","2020","11","15","10:00","-1.9","","-6.6","","71","","","","1","","13","","48.3","","101.57","","","","-6","","Mainly Clear"
"-66.27","50.22","SEPT-ILES A","7047911","2020-11-15 11:00","2020","11","15","11:00","-1.1","","-6.0","","69","","","","36","","7","","48.3","","101.59","","","","-4","","NA"
"-66.27","50.22","SEPT-ILES A","7047911","2020-11-15 12:00","2020","11","15","12:00","-0.6","","-5.3","","70","","","","9","","7","","48.3","","101.60","","","","-3","","NA"
"-66.27","50.22","SEPT-ILES A","7047911","2020-11-15 13:00","2020","11","15","13:00","-1.0","","-5.4","","72","","","","14","","7","","48.3","","101.57","","","","-4","","Mostly Cloudy"
"-66.27","50.22","SEPT-ILES A","7047911","2020-11-15 14:00","2020","11","15","14:00","-1.7","","-5.1","","78","","","","14","","16","","48.3","","101.47","","","","-7","","NA"
"-66.27","50.22","SEPT-ILES A","7047911","2020-11-15 15:00","2020","11","15","15:00","-2.2","","-5.1","","81","","","","14","","12","","48.3","","101.51","","","","-6","","NA"
"-66.27","50.22","SEPT-ILES A","7047911","2020-11-15 16:00","2020","11","15","16:00","-2.9","","-4.8","","86","","","","6","","8","","48.3","","101.44","","","","-6","","Cloudy"
"-66.27","50.22","SEPT-ILES A","7047911","2020-11-15 17:00","2020","11","15","17:00","-2.1","","-3.9","","87","","","","12","","12","","24.1","","101.44","","","","-6","","NA"
"-66.27","50.22","SEPT-ILES A","7047911","2020-11-15 18:00","2020","11","15","18:00","-1.6","","-3.7","","86","","","","10","","9","","24.1","","101.34","","","","-5","","NA"
"-66.27","50.22","SEPT-ILES A","7047911","2020-11-15 19:00","2020","11","15","19:00","-0.7","","-2.6","","87","","","","10","","21","","24.1","","101.17","","","","-6","","Cloudy"
"-66.27","50.22","SEPT-ILES A","7047911","2020-11-15 20:00","2020","11","15","20:00","-0.2","","-2.9","","82","","","","11","","22","","24.1","","101.08","","","","-6","","NA"
"-66.27","50.22","SEPT-ILES A","7047911","2020-11-15 21:00","2020","11","15","21:00","0.0","","-2.6","","82","","","","11","","28","","24.1","","100.89","","","","-6","","NA"
"-66.27","50.22","SEPT-ILES A","7047911","2020-11-15 22:00","2020","11","15","22:00","0.2","","-2.3","","83","","","","12","","36","","24.1","","100.85","","","","","","Cloudy"
"-66.27","50.22","SEPT-ILES A","7047911","2020-11-15 23:00","2020","11","15","23:00","0.4","","-1.9","","84","","","","12","","39","","24.1","","100.76","","","","","","NA"
"-66.27","50.22","SEPT-ILES A","7047911","2020-11-16 00:00","2020","11","16","00:00","-0.2","","-0.4","","99","","","","14","","40","","1.2","","100.70","","","","-8","","Snow"
"-66.27","50.22","SEPT-ILES A","7047911","2020-11-16 01:00","2020","11","16","01:00","-0.9","","-1.0","","99","","","","14","","36","","1.2","","100.57","","","","-8","","Snow"
"-66.27","50.22","SEPT-ILES A","7047911","2020-11-16 02:00","2020","11","16","02:00","-0.6","","-0.7","","99","","","","13","","35","","1.6","","100.47","","","","-8","","Snow"
"-66.27","50.22","SEPT-ILES A","7047911","2020-11-16 03:00","2020","11","16","03:00","-0.7","","-0.8","","99","","","","12","","39","","1.2","","100.25","","","","-8","","Snow"
"-66.27","50.22","SEPT-ILES A","7047911","2020-11-16 04:00","2020","11","16","04:00","-0.2","","-0.6","","97","","","","11","","35","","8.1","","100.07","","","","-7","","Snow"
"-66.27","50.22","SEPT-ILES A","7047911","2020-11-16 05:00","2020","11","16","05:00","0.2","","0.0","","99","","","","11","","40","","1.2","","99.81","","","","","","Snow"
"-66.27","50.22","SEPT-ILES A","7047911","2020-11-16 06:00","2020","11","16","06:00","0.2","","0.0","","99","","","","10","","39","","0.8","","99.62","","","","","","Moderate Snow"
"-66.27","50.22","SEPT-ILES A","7047911","2020-11-16 07:00","2020","11","16","07:00","0.5","","0.4","","99","","","","10","","38","","3.2","","99.39","","","","","","Snow"
"-66.27","50.22","SEPT-ILES A","7047911","2020-11-16 08:00","2020","11","16","08:00","0.6","","0.4","","99","","","","11","","29","","3.2","","99.28","","","","","","Snow"
"-66.27","50.22","SEPT-ILES A","7047911","2020-11-16 09:00","2020","11","16","09:00","1.2","","1.0","","99","","","","12","","36","","8.1","","99.13","","","","","","Rain"
"-66.27","50.22","SEPT-ILES A","7047911","2020-11-16 10:00","2020","11","16","10:00","1.6","","1.3","","98","","","","11","","23","","8.1","","98.98","","","","","","Rain"
"-66.27","50.22","SEPT-ILES A","7047911","2020-11-16 11:00","2020","11","16","11:00","2.1","","1.8","","98","","","","9","","15","","16.1","","98.84","","","","","","NA"
"-66.27","50.22","SEPT-ILES A","7047911","2020-11-16 12:00","2020","11","16","12:00","1.7","","1.6","","100","","","","8","","10","","8.1","","98.74","","","","","","Fog"
"-66.27","50.22","SEPT-ILES A","7047911","2020-11-16 13:00","2020","11","16","13:00","1.8","","1.7","","99","","","","15","","8","","16.1","","98.68","","","","","","Rain"
"-66.27","50.22","SEPT-ILES A","7047911","2020-11-16 14:00","2020","11","16","14:00","2.1","","1.2","","93","","","","19","","8","","24.1","","98.63","","","","","","NA"
"-66.27","50.22","SEPT-ILES A","7047911","2020-11-16 15:00","2020","11","16","15:00","2.2","","1.2","","93","","","","21","","10","","24.1","","98.60","","","","","","NA"
"-66.27","50.22","SEPT-ILES A","7047911","2020-11-16 16:00","2020","11","16","16:00","2.5","","1.4","","93","","","","22","","14","","24.1","","98.56","","","","","","Cloudy"
"-66.27","50.22","SEPT-ILES A","7047911","2020-11-16 17:00","2020","11","16","17:00","2.2","","1.4","","94","","","","23","","17","","24.1","","98.57","","","","","","NA"
"-66.27","50.22","SEPT-ILES A","7047911","2020-11-16 18:00","2020","11","16","18:00","1.7","","1.1","","96","","","","23","","17","","24.1","","98.59","","","","","","NA"
"-66.27","50.22","SEPT-ILES A","7047911","2020-11-16 19:00","2020","11","16","19:00","1.8","","0.2","","89","","","","23","","14","","24.1","","98.65","","","","","","Mostly Cloudy"
"-66.27","50.22","SEPT-ILES A","7047911","2020-11-16 20:00","2020","11","16","20:00","1.3","","0.7","","96","","","","23","","17","","24.1","","98.67","","","","","","NA"
"-66.27","50.22","SEPT-ILES A","7047911","2020-11-16 21:00","2020","11","16","21:00","1.5","","-0.1","","89","","","","25","","16","","24.1","","98.73","","","","","","NA"
"-66.27","50.22","SEPT-ILES A","7047911","2020-11-16 22:00","2020","11","16","22:00","0.5","","-1.2","","88","","","","26","","18","","24.1","","98.80","","","","","","Mainly Clear"
"-66.27","50.22","SEPT-ILES A","7047911","2020-11-16 23:00","2020","11","16","23:00","-0.2","","-2.8","","83","","","","28","","14","","24.1","","98.90","","","","-4","","NA"
"-66.27","50.22","SEPT-ILES A","7047911","2020-11-17 00:00","2020","11","17","00:00","-1.0","","-3.8","","81","","","","27","","15","","24.1","","99.00","","","","-6","","NA"
"-66.27","50.22","SEPT-ILES A","7047911","2020-11-17 01:00","2020","11","17","01:00","-1.9","","-4.2","","85","","","","27","","11","","24.1","","99.04","","","","-6","","Mainly Clear"
"-66.27","50.22","SEPT-ILES A","7047911","2020-11-17 02:00","2020","11","17","02:00","-2.8","","-4.4","","89","","","","27","","13","","24.1","","99.08","","","","-7","","NA"
"-66.27","50.22","SEPT-ILES A","7047911","2020-11-17 03:00","2020","11","17","03:00","-2.3","","-5.7","","78","","","","28","","17","","24.1","","99.11","","","","-8","","NA"
"-66.27","50.22","SEPT-ILES A","7047911","2020-11-17 04:00","2020","11","17","04:00","-2.7","","-6.5","","75","","","","27","","19","","24.1","","99.13","","","","-8","","Mainly Clear"
"-66.27","50.22","SEPT-ILES A","7047911","2020-11-17 05:00","2020","11","17","05:00","-3.1","","-6.5","","77","","","","28","","14","","24.1","","99.16","","","","-8","","NA"
"-66.27","50.22","SEPT-ILES A","7047911","2020-11-17 06:00","2020","11","17","06:00","-3.7","","-7.0","","78","","","","28","","7","","24.1","","99.25","","","","-7","","NA"
"-66.27","50.22","SEPT-ILES A","7047911","2020-11-17 07:00","2020","11","17","07:00","-4.5","","-7.3","","80","","","","28","","14","","48.3","","99.32","","","","-10","","Mainly Clear"
"-66.27","50.22","SEPT-ILES A","7047911","2020-11-17 08:00","2020","11","17","08:00","-2.9","","-7.5","","71","","","","27","","16","","48.3","","99.36","","","","-8","","NA"
"-66.27","50.22","SEPT-ILES A","7047911","2020-11-17 09:00","2020","11","17","09:00","-2.1","","-7.7","","66","","","","26","","22","","48.3","","99.39","","","","-8","","NA"
"-66.27","50.22","SEPT-ILES A","7047911","2020-11-17 10:00","2020","11","17","10:00","-2.2","","-7.5","","67","","","","26","","20","","48.3","","99.39","","","","-8","","Mostly Cloudy"
"-66.27","50.22","SEPT-ILES A","7047911","2020-11-17 11:00","2020","11","17","11:00","-2.0","","-8.5","","61","","","","29","","20","","48.3","","99.38","","","","-8","","NA"
"-66.27","50.22","SEPT-ILES A","7047911","2020-11-17 12:00","2020","11","17","12:00","-2.0","","-8.4","","62","","","","30","","18","","48.3","","99.39","","","","-7","","NA"
"-66.27","50.22","SEPT-ILES A","7047911","2020-11-17 13:00","2020","11","17","13:00","-2.2","","-8.4","","63","","","","29","","22","","48.3","","99.45","","","","-8","","Cloudy"
"-66.27","50.22","SEPT-ILES A","7047911","2020-11-17 14:00","2020","11","17","14:00","-2.4","","-8.7","","62","","","","29","","22","","48.3","","99.50","","","","-9","","NA"
"-66.27","50.22","SEPT-ILES A","7047911","2020-11-17 15:00","2020","11","17","15:00","-2.6","","-8.2","","66","","","","26","","10","","48.3","","99.57","","","","-6","","NA"
"-66.27","50.22","SEPT-ILES A","7047911","2020-11-17 16:00","2020","11","17","16:00","-3.0","","-8.5","","66","","","","28","","17","","48.3","","99.66","","","","-9","","Cloudy"
"-66.27","50.22","SEPT-ILES A","7047911","2020-11-17 17:00","2020","11","17","17:00","-3.2","","-8.4","","67","","","","28","","20","","24.1","","99.72","","","","-9","","NA"
"-66.27","50.22","SEPT-ILES A","7047911","2020-11-17 18:00","2020","11","17","18:00","-3.7","","-8.4","","70","","","","28","","5","","24.1","","99.78","","","","-6","","NA"
"-66.27","50.22","SEPT-ILES A","7047911","2020-11-17 19:00","2020","11","17","19:00","-3.7","","-9.0","","67","","","","29","","16","","24.1","","99.82","","","","-9","","Cloudy"
"-66.27","50.22","SEPT-ILES A","7047911","2020-11-17 20:00","2020","11","17","20:00","-3.6","","-9.1","","66","","","","29","","21","","24.1","","99.86","","","","-10","","NA"
"-66.27","50.22","SEPT-ILES A","7047911","2020-11-17 21:00","2020","11","17","21:00","-3.7","","-9.1","","66","","","","32","","13","","24.1","","99.94","","","","-9","","NA"
"-66.27","50.22","SEPT-ILES A","7047911","2020-11-17 22:00","2020","11","17","22:00","-3.8","","-8.9","","68","","","","29","","16","","24.1","","99.96","","","","-9","","Cloudy"
"-66.27","50.22","SEPT-ILES A","7047911","2020-11-17 23:00","2020","11","17","23:00","-3.7","","-9.0","","67","","","","30","","15","","24.1","","100.00","","","","-9","","NA"
"-66.27","50.22","SEPT-ILES A","7047911","2020-11-18 00:00","2020","11","18","00:00","-3.7","","-8.9","","67","","","","31","","14","","24.1","","100.06","","","","-9","","NA"
"-66.27","50.22","SEPT-ILES A","7047911","2020-11-18 01:00","2020","11","18","01:00","-4.3","","-8.8","","71","","","","27","","14","","24.1","","100.12","","","","-9","","Cloudy"
"-66.27","50.22","SEPT-ILES A","7047911","2020-11-18 02:00","2020","11","18","02:00","-5.0","","-9.1","","73","","","","30","","13","","24.1","","100.20","","","","-10","","NA"
"-66.27","50.22","SEPT-ILES A","7047911","2020-11-18 03:00","2020","11","18","03:00","-5.5","","-9.3","","75","","","","29","","14","","24.1","","100.27","","","","-11","","NA"
"-66.27","50.22","SEPT-ILES A","7047911","2020-11-18 04:00","2020","11","18","04:00","-5.7","","-9.3","","76","","","","28","","19","","24.1","","100.37","","","","-12","","Mostly Cloudy"
"-66.27","50.22","SEPT-ILES A","7047911","2020-11-18 05:00","2020","11","18","05:00","-6.0","","-9.6","","76","","","","28","","19","","24.1","","100.47","","","","-13","","NA"
"-66.27","50.22","SEPT-ILES A","7047911","2020-11-18 06:00","2020","11","18","06:00","-7.3","","-9.7","","83","","","","29","","9","","24.1","","100.55","","","","-12","","NA"
"-66.27","50.22","SEPT-ILES A","7047911","2020-11-18 07:00","2020","11","18","07:00","-5.7","","-8.8","","79","","","","29","","13","","48.3","","100.64","","","","-11","","Mainly Clear"
"-66.27","50.22","SEPT-ILES A","7047911","2020-11-18 08:00","2020","11","18","08:00","-4.9","","-9.6","","70","","","","27","","20","","48.3","","100.68","","","","-11","","NA"
"-66.27","50.22","SEPT-ILES A","7047911","2020-11-18 09:00","2020","11","18","09:00","-4.2","","-9.2","","68","","","","27","","26","","48.3","","100.75","","","","-11","","NA"
"-66.27","50.22","SEPT-ILES A","7047911","2020-11-18 10:00","2020","11","18","10:00","-2.9","","-9.2","","62","","","","29","","20","","48.3","","100.78","","","","-9","","Snow"
"-66.27","50.22","SEPT-ILES A","7047911","2020-11-18 11:00","2020","11","18","11:00","-2.7","","-10.3","","56","","","","30","","26","","48.3","","100.80","","","","-10","","Snow"
"-66.27","50.22","SEPT-ILES A","7047911","2020-11-18 12:00","2020","11","18","12:00","-2.1","","-10.3","","53","","","","31","","27","","48.3","","100.80","","","","-9","","Snow"
"-66.27","50.22","SEPT-ILES A","7047911","2020-11-18 13:00","2020","11","18","13:00","-3.0","","-9.4","","62","","","","29","","30","","48.3","","100.86","","","","-10","","Snow"
"-66.27","50.22","SEPT-ILES A","7047911","2020-11-18 14:00","2020","11","18","14:00","-2.8","","-9.4","","60","","","","30","","23","","48.3","","100.92","","","","-9","","NA"
"-66.27","50.22","SEPT-ILES A","7047911","2020-11-18 15:00","2020","11","18","15:00","-4.0","","-9.5","","66","","","","29","","21","","48.3","","101.02","","","","-10","","NA"
"-66.27","50.22","SEPT-ILES A","7047911","2020-11-18 16:00","2020","11","18","16:00","-5.1","","-9.2","","73","","","","29","","13","","48.3","","101.11","","","","-10","","Mainly Clear"
"-66.27","50.22","SEPT-ILES A","7047911","2020-11-18 17:00","2020","11","18","17:00","-5.8","","-9.6","","75","","","","29","","9","","24.1","","101.17","","","","-10","","NA"
"-66.27","50.22","SEPT-ILES A","7047911","2020-11-18 18:00","2020","11","18","18:00","-6.3","","-9.5","","78","","","","27","","10","","24.1","","101.24","","","","-11","","NA"
"-66.27","50.22","SEPT-ILES A","7047911","2020-11-18 19:00","2020","11","18","19:00","-7.0","","-10.0","","79","","","","27","","15","","48.3","","101.27","","","","-13","","Clear"
"-66.27","50.22","SEPT-ILES A","7047911","2020-11-18 20:00","2020","11","18","20:00","-8.2","","-10.9","","81","","","","29","","12","","48.3","","101.33","","","","-14","","NA"
"-66.27","50.22","SEPT-ILES A","7047911","2020-11-18 21:00","2020","11","18","21:00","-7.5","","-10.9","","77","","","","26","","16","","24.1","","101.38","","","","-14","","NA"
"-66.27","50.22","SEPT-ILES A","7047911","2020-11-18 22:00","2020","11","18","22:00","-7.8","","-11.3","","76","","","","27","","15","","24.1","","101.41","","","","-14","","Mainly Clear"
"-66.27","50.22","SEPT-ILES A","7047911","2020-11-18 23:00","2020","11","18","23:00","-8.0","","-11.4","","77","","","","26","","14","","24.1","","101.46","","","","-14","","NA"
"-66.27","50.22","SEPT-ILES A","7047911","2020-11-19 00:00","2020","11","19","00:00","-8.8","","-11.7","","80","","","","28","","13","","24.1","","101.50","","","","-15","","NA"
"-66.27","50.22","SEPT-ILES A","7047911","2020-11-19 01:00","2020","11","19","01:00","-8.8","","-11.4","","81","","","","28","","16","","24.1","","101.55","","","","-16","","Mainly Clear"
"-66.27","50.22","SEPT-ILES A","7047911","2020-11-19 02:00","2020","11","19","02:00","-8.3","","-11.3","","79","","","","32","","13","","24.1","","101.62","","","","-14","","NA"
"-66.27","50.22","SEPT-ILES A","7047911","2020-11-19 03:00","2020","11","19","03:00","-7.3","","-10.1","","80","","","","29","","18","","24.1","","101.67","","","","-14","","NA"
"-66.27","50.22","SEPT-ILES A","7047911","2020-11-19 04:00","2020","11","19","04:00","-8.1","","-10.5","","83","","","","28","","12","","24.1","","101.74","","","","-14","","Mostly Cloudy"
"-66.27","50.22","SEPT-ILES A","7047911","2020-11-19 05:00","2020","11","19","05:00","-6.2","","-10.3","","73","","","","28","","13","","24.1","","101.80","","","","-12","","Snow"
"-66.27","50.22","SEPT-ILES A","7047911","2020-11-19 06:00","2020","11","19","06:00","-6.4","","-10.7","","72","","","","27","","15","","24.1","","101.82","","","","-12","","Snow"
"-66.27","50.22","SEPT-ILES A","7047911","2020-11-19 07:00","2020","11","19","07:00","-6.6","","-11.1","","70","","","","26","","10","","48.3","","101.83","","","","-11","","Mostly Cloudy"
"-66.27","50.22","SEPT-ILES A","7047911","2020-11-19 08:00","2020","11","19","08:00","-6.4","","-11.7","","66","","","","30","","12","","48.3","","101.85","","","","-12","","NA"
"-66.27","50.22","SEPT-ILES A","7047911","2020-11-19 09:00","2020","11","19","09:00","-4.4","","-11.6","","58","","","","27","","23","","48.3","","101.88","","","","-11","","NA"
"-66.27","50.22","SEPT-ILES A","7047911","2020-11-19 10:00","2020","11","19","10:00","-3.7","","-12.0","","53","","","","28","","16","","48.3","","101.88","","","","-9","","Mostly Cloudy"
"-66.27","50.22","SEPT-ILES A","7047911","2020-11-19 11:00","2020","11","19","11:00","-4.1","","-12.3","","53","","","","27","","18","","48.3","","101.78","","","","-10","","NA"
"-66.27","50.22","SEPT-ILES A","7047911","2020-11-19 12:00","2020","11","19","12:00","-4.8","","-12.9","","53","","","","27","","16","","48.3","","101.77","","","","-11","","NA"
"-66.27","50.22","SEPT-ILES A","7047911","2020-11-19 13:00","2020","11","19","13:00","-4.9","","-12.6","","55","","","","24","","14","","48.3","","101.71","","","","-10","","Cloudy"
"-66.27","50.22","SEPT-ILES A","7047911","2020-11-19 14:00","2020","11","19","14:00","-5.2","","-11.9","","60","","","","30","","8","","48.3","","101.65","","","","-9","","Snow"
"-66.27","50.22","SEPT-ILES A","7047911","2020-11-19 15:00","2020","11","19","15:00","-5.3","","-11.8","","61","","","","28","","4","","48.3","","101.61","","","","-7","","Snow"
"-66.27","50.22","SEPT-ILES A","7047911","2020-11-19 16:00","2020","11","19","16:00","-5.5","","-11.3","","64","","","","33","","4","","48.3","","101.60","","","","-7","","Snow"
"-66.27","50.22","SEPT-ILES A","7047911","2020-11-19 17:00","2020","11","19","17:00","-6.3","","-10.7","","71","","","","4","","5","","24.1","","101.58","","","","-9","","Snow"
"-66.27","50.22","SEPT-ILES A","7047911","2020-11-19 18:00","2020","11","19","18:00","-6.8","","-9.3","","82","","","","4","","3","","16.1","","101.59","","","","-8","","Snow"
"-66.27","50.22","SEPT-ILES A","7047911","2020-11-19 19:00","2020","11","19","19:00","-7.3","","-9.4","","85","","","","5","","8","","16.1","","101.57","","","","-11","","Snow"
"-66.27","50.22","SEPT-ILES A","7047911","2020-11-19 20:00","2020","11","19","20:00","-6.9","","-8.7","","87","","","","4","","8","","16.1","","101.55","","","","-11","","Snow"
"-66.27","50.22","SEPT-ILES A","7047911","2020-11-19 21:00","2020","11","19","21:00","-6.7","","-8.6","","87","","","","4","","10","","24.1","","101.50","","","","-11","","Snow"
"-66.27","50.22","SEPT-ILES A","7047911","2020-11-19 22:00","2020","11","19","22:00","-6.6","","-8.6","","86","","","","5","","12","","24.1","","101.44","","","","-12","","Cloudy"
"-66.27","50.22","SEPT-ILES A","7047911","2020-11-19 23:00","2020","11","19","23:00","-6.5","","-8.3","","87","","","","5","","12","","24.1","","101.37","","","","-12","","Snow"
"-66.27","50.22","SEPT-ILES A","7047911","2020-11-20 00:00","2020","11","20","00:00","-6.3","","-7.9","","88","","","","6","","11","","24.1","","101.32","","","","-11","","Snow"
"-66.27","50.22","SEPT-ILES A","7047911","2020-11-20 01:00","2020","11","20","01:00","-6.0","","-7.4","","89","","","","6","","11","","24.1","","101.28","","","","-11","","Snow"
"-66.27","50.22","SEPT-ILES A","7047911","2020-11-20 02:00","2020","11","20","02:00","-5.6","","-6.9","","90","","","","5","","11","","24.1","","101.23","","","","-10","","Snow"
"-66.27","50.22","SEPT-ILES A","7047911","2020-11-20 03:00","2020","11","20","03:00","-5.1","","-6.5","","90","","","","5","","10","","24.1","","101.16","","","","-9","","Snow"
"-66.27","50.22","SEPT-ILES A","7047911","2020-11-20 04:00","2020","11","20","04:00","-4.8","","-6.2","","90","","","","3","","8","","16.1","","101.11","","","","-8","","Snow"
"-66.27","50.22","SEPT-ILES A","7047911","2020-11-20 05:00","2020","11","20","05:00","-3.5","","-4.8","","91","","","","21","","5","","1.2","","101.13","","","","-6","","Snow"
"-66.27","50.22","SEPT-ILES A","7047911","2020-11-20 06:00","2020","11","20","06:00","-3.2","","-3.7","","97","","","","18","","12","","1.2","","101.06","","","","-8","","Snow"
"-66.27","50.22","SEPT-ILES A","7047911","2020-11-20 07:00","2020","11","20","07:00","-3.2","","-3.6","","96","","","","17","","16","","1.2","","101.06","","","","-9","","Snow"
"-66.27","50.22","SEPT-ILES A","7047911","2020-11-20 08:00","2020","11","20","08:00","-3.0","","-3.6","","96","","","","19","","11","","1.6","","101.05","","","","-7","","Snow"
"-66.27","50.22","SEPT-ILES A","7047911","2020-11-20 09:00","2020","11","20","09:00","-2.5","","-3.4","","94","","","","19","","9","","24.1","","101.02","","","","-6","","Snow"
"-66.27","50.22","SEPT-ILES A","7047911","2020-11-20 10:00","2020","11","20","10:00","-2.2","","-3.5","","91","","","","19","","6","","24.1","","101.00","","","","-5","","Cloudy"
"-66.27","50.22","SEPT-ILES A","7047911","2020-11-20 11:00","2020","11","20","11:00","-1.9","","-2.5","","95","","","","22","","5","","24.1","","100.96","","","","-4","","Snow"
"-66.27","50.22","SEPT-ILES A","7047911","2020-11-20 12:00","2020","11","20","12:00","-1.6","","-2.5","","93","","","","34","","3","","24.1","","100.90","","","","-3","","Snow"
"-66.27","50.22","SEPT-ILES A","7047911","2020-11-20 13:00","2020","11","20","13:00","-1.5","","-2.7","","92","","","","36","","2","","24.1","","100.87","","","","-2","","Cloudy"
"-66.27","50.22","SEPT-ILES A","7047911","2020-11-20 14:00","2020","11","20","14:00","-1.5","","-2.5","","92","","","","36","","3","","24.1","","100.87","","","","-3","","NA"
"-66.27","50.22","SEPT-ILES A","7047911","2020-11-20 15:00","2020","11","20","15:00","-1.4","","-2.4","","93","","","","","","0","","24.1","","100.85","","","","","","NA"
"-66.27","50.22","SEPT-ILES A","7047911","2020-11-20 16:00","2020","11","20","16:00","-1.6","","-2.2","","96","","","","2","","4","","24.1","","100.84","","","","-3","","Cloudy"
"-66.27","50.22","SEPT-ILES A","7047911","2020-11-20 17:00","2020","11","20","17:00","-1.7","","-2.2","","97","","","","9","","4","","24.1","","100.84","","","","-3","","NA"
"-66.27","50.22","SEPT-ILES A","7047911","2020-11-20 18:00","2020","11","20","18:00","-1.8","","-2.0","","98","","","","5","","7","","24.1","","100.82","","","","-4","","Snow"
"-66.27","50.22","SEPT-ILES A","7047911","2020-11-20 19:00","2020","11","20","19:00","-1.9","","-2.2","","98","","","","5","","11","","24.1","","100.72","","","","-6","","Snow"
"-66.27","50.22","SEPT-ILES A","7047911","2020-11-20 20:00","2020","11","20","20:00","-1.8","","-2.0","","99","","","","5","","10","","8.1","","100.64","","","","-5","","Snow"
"-66.27","50.22","SEPT-ILES A","7047911","2020-11-20 21:00","2020","11","20","21:00","-1.8","","-1.9","","99","","","","8","","9","","8.1","","100.54","","","","-5","","Freezing Drizzle,Snow"
"-66.27","50.22","SEPT-ILES A","7047911","2020-11-20 22:00","2020","11","20","22:00","-1.7","","-1.9","","99","","","","8","","11","","1.6","","100.39","","","","-6","","Snow"
"-66.27","50.22","SEPT-ILES A","7047911","2020-11-20 23:00","2020","11","20","23:00","-1.0","","-1.1","","99","","","","8","","14","","4.8","","100.23","","","","-5","","Snow"
"-66.27","50.22","SEPT-ILES A","7047911","2020-11-21 00:00","2020","11","21","00:00","-0.3","","-0.4","","100","","","","10","","14","","1.6","","100.10","","","","-5","","Snow"
"-66.27","50.22","SEPT-ILES A","7047911","2020-11-21 01:00","2020","11","21","01:00","-0.8","","-0.9","","99","","","","8","","13","","3.2","","100.00","","","","-5","","Snow"
"-66.27","50.22","SEPT-ILES A","7047911","2020-11-21 02:00","2020","11","21","02:00","-0.9","","-1.1","","99","","","","5","","6","","8.1","","99.96","","","","-3","","Snow"
"-66.27","50.22","SEPT-ILES A","7047911","2020-11-21 03:00","2020","11","21","03:00","-1.0","","-1.2","","99","","","","33","","4","","24.1","","99.95","","","","-2","","Snow"
"-66.27","50.22","SEPT-ILES A","7047911","2020-11-21 04:00","2020","11","21","04:00","-1.0","","-1.3","","98","","","","25","","3","","24.1","","99.98","","","","-2","","Snow"
"-66.27","50.22","SEPT-ILES A","7047911","2020-11-21 05:00","2020","11","21","05:00","-1.1","","-1.2","","99","","","","29","","5","","24.1","","100.06","","","","-3","","NA"
"-66.27","50.22","SEPT-ILES A","7047911","2020-11-21 06:00","2020","11","21","06:00","-0.8","","-1.1","","98","","","","25","","11","","24.1","","100.13","","","","-5","","Snow"
"-66.27","50.22","SEPT-ILES A","7047911","2020-11-21 07:00","2020","11","21","07:00","-0.2","","-2.2","","87","","","","27","","24","","24.1","","100.24","","","","-6","","Mostly Cloudy"
"-66.27","50.22","SEPT-ILES A","7047911","2020-11-21 08:00","2020","11","21","08:00","-0.4","","-3.4","","80","","","","26","","21","","48.3","","100.39","","","","-6","","NA"
"-66.27","50.22","SEPT-ILES A","7047911","2020-11-21 09:00","2020","11","21","09:00","-0.1","","-3.1","","80","","","","27","","25","","48.3","","100.47","","","","-6","","NA"
"-66.27","50.22","SEPT-ILES A","7047911","2020-11-21 10:00","2020","11","21","10:00","0.5","","-2.3","","82","","","","31","","18","","8.1","","100.64","","","","","","Snow"
"-66.27","50.22","SEPT-ILES A","7047911","2020-11-21 11:00","2020","11","21","11:00","1.2","","-3.6","","70","","","","30","","27","","48.3","","100.74","","","","","","NA"
"-66.27","50.22","SEPT-ILES A","7047911","2020-11-21 12:00","2020","11","21","12:00","1.1","","-5.0","","64","","","","30","","28","","24.1","","100.88","","","","","","NA"
"-66.27","50.22","SEPT-ILES A","7047911","2020-11-21 13:00","2020","11","21","13:00","0.5","","-6.2","","61","","","","32","","26","","48.3","","101.02","","","","","","Mostly Cloudy"
"-66.27","50.22","SEPT-ILES A","7047911","2020-11-21 14:00","2020","11","21","14:00","-1.2","","-8.0","","60","","","","32","","20","","48.3","","101.23","","","","-7","","Blowing Snow"
"-66.27","50.22","SEPT-ILES A","7047911","2020-11-21 15:00","2020","11","21","15:00","-1.9","","-8.3","","61","","","","33","","22","","48.3","","101.44","","","","-8","","Blowing Snow"
"-66.27","50.22","SEPT-ILES A","7047911","2020-11-21 16:00","2020","11","21","16:00","-3.0","","-9.8","","60","","","","34","","11","","48.3","","101.65","","","","-7","","Mostly Cloudy"
"-66.27","50.22","SEPT-ILES A","7047911","2020-11-21 17:00","2020","11","21","17:00","-3.7","","-9.9","","62","","","","31","","10","","24.1","","101.77","","","","-8","","NA"
"-66.27","50.22","SEPT-ILES A","7047911","2020-11-21 18:00","2020","11","21","18:00","-4.5","","-9.7","","67","","","","29","","10","","24.1","","101.88","","","","-9","","NA"
"-66.27","50.22","SEPT-ILES A","7047911","2020-11-21 19:00","2020","11","21","19:00","-6.2","","-10.7","","71","","","","29","","13","","24.1","","101.95","","","","-12","","Mainly Clear"
"-66.27","50.22","SEPT-ILES A","7047911","2020-11-21 20:00","2020","11","21","20:00","-7.6","","-10.1","","82","","","","27","","3","","24.1","","102.04","","","","-9","","NA"
"-66.27","50.22","SEPT-ILES A","7047911","2020-11-21 21:00","2020","11","21","21:00","-8.1","","-10.9","","80","","","","28","","12","","24.1","","102.08","","","","-14","","NA"
"-66.27","50.22","SEPT-ILES A","7047911","2020-11-21 22:00","2020","11","21","22:00","-7.6","","-11.6","","73","","","","30","","12","","24.1","","102.16","","","","-13","","Mainly Clear"
"-66.27","50.22","SEPT-ILES A","7047911","2020-11-21 23:00","2020","11","21","23:00","-8.2","","-11.9","","75","","","","31","","7","","24.1","","102.24","","","","-12","","NA"
"-66.27","50.22","SEPT-ILES A","7047911","2020-11-22 00:00","2020","11","22","00:00","-8.3","","-12.1","","74","","","","29","","11","","24.1","","102.29","","","","-14","","NA"
"-66.27","50.22","SEPT-ILES A","7047911","2020-11-22 01:00","2020","11","22","01:00","-8.0","","-12.4","","71","","","","30","","11","","24.1","","102.36","","","","-13","","Mostly Cloudy"
"-66.27","50.22","SEPT-ILES A","7047911","2020-11-22 02:00","2020","11","22","02:00","-9.2","","-12.7","","76","","","","29","","11","","24.1","","102.43","","","","-15","","NA"
"-66.27","50.22","SEPT-ILES A","7047911","2020-11-22 03:00","2020","11","22","03:00","-12.2","","-13.7","","89","","","","29","","7","","24.1","","102.48","","","","-17","","NA"
"-66.27","50.22","SEPT-ILES A","7047911","2020-11-22 04:00","2020","11","22","04:00","-8.2","","-12.3","","73","","","","31","","10","","24.1","","102.53","","","","-13","","Mostly Cloudy"
"-66.27","50.22","SEPT-ILES A","7047911","2020-11-22 05:00","2020","11","22","05:00","-8.0","","-12.3","","71","","","","30","","9","","24.1","","102.59","","","","-13","","NA"
"-66.27","50.22","SEPT-ILES A","7047911","2020-11-22 06:00","2020","11","22","06:00","-8.7","","-12.1","","76","","","","33","","9","","24.1","","102.64","","","","-13","","NA"
"-66.27","50.22","SEPT-ILES A","7047911","2020-11-22 07:00","2020","11","22","07:00","-12.5","","-14.9","","82","","","","32","","9","","48.3","","102.71","","","","-18","","Mainly Clear"
"-66.27","50.22","SEPT-ILES A","7047911","2020-11-22 08:00","2020","11","22","08:00","-11.9","","-14.4","","81","","","","34","","5","","48.3","","102.79","","","","-15","","NA"
"-66.27","50.22","SEPT-ILES A","7047911","2020-11-22 09:00","2020","11","22","09:00","-6.2","","-12.1","","63","","","","29","","9","","48.3","","102.82","","","","-10","","NA"
"-66.27","50.22","SEPT-ILES A","7047911","2020-11-22 10:00","2020","11","22","10:00","-5.5","","-12.8","","56","","","","33","","5","","48.3","","102.83","","","","-8","","Mostly Cloudy"
"-66.27","50.22","SEPT-ILES A","7047911","2020-11-22 11:00","2020","11","22","11:00","-5.0","","-12.6","","56","","","","29","","10","","48.3","","102.80","","","","-9","","Snow"
"-66.27","50.22","SEPT-ILES A","7047911","2020-11-22 12:00","2020","11","22","12:00","-5.2","","-12.5","","57","","","","29","","11","","48.3","","102.74","","","","-10","","Snow"
"-66.27","50.22","SEPT-ILES A","7047911","2020-11-22 13:00","2020","11","22","13:00","-4.5","","-11.6","","58","","","","28","","9","","48.3","","102.70","","","","-8","","Snow"
"-66.27","50.22","SEPT-ILES A","7047911","2020-11-22 14:00","2020","11","22","14:00","-4.8","","-11.2","","61","","","","36","","3","","48.3","","102.68","","","","-6","","Snow"
"-66.27","50.22","SEPT-ILES A","7047911","2020-11-22 15:00","2020","11","22","15:00","-5.0","","-11.1","","63","","","","27","","11","","48.3","","102.69","","","","-10","","NA"
"-66.27","50.22","SEPT-ILES A","7047911","2020-11-22 16:00","2020","11","22","16:00","-5.6","","-11.0","","66","","","","26","","3","","48.3","","102.70","","","","-7","","Mostly Cloudy"
"-66.27","50.22","SEPT-ILES A","7047911","2020-11-22 17:00","2020","11","22","17:00","-7.1","","-11.3","","72","","","","29","","4","","24.1","","102.74","","","","-9","","NA"
"-66.27","50.22","SEPT-ILES A","7047911","2020-11-22 18:00","2020","11","22","18:00","-7.1","","-10.7","","76","","","","2","","5","","24.1","","102.75","","","","-10","","NA"
"-66.27","50.22","SEPT-ILES A","7047911","2020-11-22 19:00","2020","11","22","19:00","-7.7","","-10.1","","83","","","","3","","4","","24.1","","102.75","","","","-10","","Snow"
"-66.27","50.22","SEPT-ILES A","7047911","2020-11-22 20:00","2020","11","22","20:00","-7.5","","-10.4","","80","","","","4","","5","","24.1","","102.74","","","","-10","","NA"
"-66.27","50.22","SEPT-ILES A","7047911","2020-11-22 21:00","2020","11","22","21:00","-11.9","","-13.8","","86","","","","3","","7","","24.1","","102.68","","","","-16","","NA"
"-66.27","50.22","SEPT-ILES A","7047911","2020-11-22 22:00","2020","11","22","22:00","-11.1","","-12.6","","89","","","","5","","7","","24.1","","102.61","","","","-15","","Mostly Cloudy"
"-66.27","50.22","SEPT-ILES A","7047911","2020-11-22 23:00","2020","11","22","23:00","-10.7","","-12.1","","89","","","","4","","6","","24.1","","102.58","","","","-14","","NA"
"-66.27","50.22","SEPT-ILES A","7047911","2020-11-23 00:00","2020","11","23","00:00","-9.0","","-11.0","","85","","","","5","","12","","24.1","","102.52","","","","-15","","NA"
"-66.27","50.22","SEPT-ILES A","7047911","2020-11-23 01:00","2020","11","23","01:00","-8.5","","-11.0","","82","","","","4","","12","","24.1","","102.47","","","","-14","","Cloudy"
"-66.27","50.22","SEPT-ILES A","7047911","2020-11-23 02:00","2020","11","23","02:00","-7.5","","-10.5","","79","","","","5","","16","","24.1","","102.37","","","","-14","","NA"
"-66.27","50.22","SEPT-ILES A","7047911","2020-11-23 03:00","2020","11","23","03:00","-7.3","","-9.6","","83","","","","6","","17","","24.1","","102.25","","","","-14","","NA"
"-66.27","50.22","SEPT-ILES A","7047911","2020-11-23 04:00","2020","11","23","04:00","-6.0","","-8.4","","84","","","","6","","17","","16.1","","102.17","","","","-12","","Snow"
"-66.27","50.22","SEPT-ILES A","7047911","2020-11-23 05:00","2020","11","23","05:00","-5.2","","-6.5","","90","","","","6","","17","","8.1","","102.06","","","","-11","","Snow"
"-66.27","50.22","SEPT-ILES A","7047911","2020-11-23 06:00","2020","11","23","06:00","-4.3","","-5.3","","92","","","","8","","20","","1.6","","101.97","","","","-11","","Snow,Blowing Snow"
"-66.27","50.22","SEPT-ILES A","7047911","2020-11-23 07:00","2020","11","23","07:00","-3.9","","-4.7","","94","","","","8","","21","","1.2","","101.83","","","","-10","","Snow,Blowing Snow"
"-66.27","50.22","SEPT-ILES A","7047911","2020-11-23 08:00","2020","11","23","08:00","-3.7","","-4.4","","95","","","","7","","17","","4.8","","101.69","","","","-9","","Snow,Blowing Snow"
"-66.27","50.22","SEPT-ILES A","7047911","2020-11-23 09:00","2020","11","23","09:00","-1.3","","-1.8","","96","","","","12","","24","","1.2","","101.55","","","","-7","","Snow"
"-66.27","50.22","SEPT-ILES A","7047911","2020-11-23 10:00","2020","11","23","10:00","-0.6","","-1.2","","96","","","","12","","30","","3.2","","101.38","","","","-7","","Snow,Blowing Snow"
"-66.27","50.22","SEPT-ILES A","7047911","2020-11-23 11:00","2020","11","23","11:00","-0.6","","-0.9","","98","","","","12","","32","","0.8","","101.17","","","","-7","","Moderate Snow,Blowing Snow"
"-66.27","50.22","SEPT-ILES A","7047911","2020-11-23 12:00","2020","11","23","12:00","-0.2","","-0.5","","98","","","","10","","29","","0.8","","100.90","","","","-7","","Moderate Snow,Blowing Snow"
"-66.27","50.22","SEPT-ILES A","7047911","2020-11-23 13:00","2020","11","23","13:00","0.1","","-0.2","","98","","","","11","","32","","0.8","","100.69","","","","","","Moderate Snow,Blowing Snow"
"-66.27","50.22","SEPT-ILES A","7047911","2020-11-23 14:00","2020","11","23","14:00","0.1","","-0.2","","98","","","","10","","29","","0.8","","100.50","","","","","","Moderate Snow,Blowing Snow"
"-66.27","50.22","SEPT-ILES A","7047911","2020-11-23 15:00","2020","11","23","15:00","0.0","","-0.3","","98","","","","9","","34","","0.8","","100.27","","","","-7","","Moderate Snow,Blowing Snow"
"-66.27","50.22","SEPT-ILES A","7047911","2020-11-23 16:00","2020","11","23","16:00","0.1","","-0.2","","98","","","","9","","31","","0.8","","100.10","","","","","","Moderate Snow,Blowing Snow"
"-66.27","50.22","SEPT-ILES A","7047911","2020-11-23 17:00","2020","11","23","17:00","0.1","","-0.2","","98","","","","9","","32","","0.8","","99.93","","","","","","Moderate Snow,Blowing Snow"
"-66.27","50.22","SEPT-ILES A","7047911","2020-11-23 18:00","2020","11","23","18:00","0.1","","-0.2","","98","","","","9","","28","","1.2","","99.76","","","","","","Snow,Blowing Snow"
"-66.27","50.22","SEPT-ILES A","7047911","2020-11-23 19:00","2020","11","23","19:00","0.4","","0.0","","97","","","","9","","32","","3.2","","99.54","","","","","","Snow,Blowing Snow"
"-66.27","50.22","SEPT-ILES A","7047911","2020-11-23 20:00","2020","11","23","20:00","0.4","","0.2","","99","","","","4","","18","","1.6","","99.44","","","","","","Snow"
"-66.27","50.22","SEPT-ILES A","7047911","2020-11-23 21:00","2020","11","23","21:00","0.2","","0.2","","100","","","","35","","14","","1.2","","99.29","","","","","","Snow"
"-66.27","50.22","SEPT-ILES A","7047911","2020-11-23 22:00","2020","11","23","22:00","0.3","","0.1","","99","","","","35","","15","","1.6","","99.14","","","","","","Snow"
"-66.27","50.22","SEPT-ILES A","7047911","2020-11-23 23:00","2020","11","23","23:00","0.1","","-0.6","","95","","","","35","","21","","3.2","","99.04","","","","","","Snow"
"-66.27","50.22","SEPT-ILES A","7047911","2020-11-24 00:00","2020","11","24","00:00","-0.2","","-1.6","","90","","","","35","","17","","16.1","","98.95","","","","-5","","Snow"
"-66.27","50.22","SEPT-ILES A","7047911","2020-11-24 01:00","2020","11","24","01:00","-0.3","","-3.3","","80","","","","34","","23","","24.1","","98.95","","","","-6","","Cloudy"
"-66.27","50.22","SEPT-ILES A","7047911","2020-11-24 02:00","2020","11","24","02:00","-0.7","","-3.7","","81","","","","32","","16","","24.1","","98.95","","","","-5","","NA"
"-66.27","50.22","SEPT-ILES A","7047911","2020-11-24 03:00","2020","11","24","03:00","-1.4","","-4.9","","77","","","","32","","30","","24.1","","98.93","","","","-8","","NA"
"-66.27","50.22","SEPT-ILES A","7047911","2020-11-24 04:00","2020","11","24","04:00","-2.1","","-6.1","","74","","","","31","","27","","24.1","","99.00","","","","-9","","Cloudy"
"-66.27","50.22","SEPT-ILES A","7047911","2020-11-24 05:00","2020","11","24","05:00","-3.2","","-7.0","","75","","","","33","","29","","24.1","","99.12","","","","-11","","NA"
"-66.27","50.22","SEPT-ILES A","7047911","2020-11-24 06:00","2020","11","24","06:00","-3.8","","-8.2","","72","","","","33","","28","","24.1","","99.25","","","","-11","","Blowing Snow"
"-66.27","50.22","SEPT-ILES A","7047911","2020-11-24 07:00","2020","11","24","07:00","-4.2","","-8.9","","70","","","","33","","26","","32.2","","99.40","","","","-11","","Blowing Snow"
"-66.27","50.22","SEPT-ILES A","7047911","2020-11-24 08:00","2020","11","24","08:00","-4.9","","-9.9","","68","","","","33","","30","","48.3","","99.55","","","","-13","","Blowing Snow"
"-66.27","50.22","SEPT-ILES A","7047911","2020-11-24 09:00","2020","11","24","09:00","-5.7","","-11.1","","66","","","","34","","32","","48.3","","99.72","","","","-14","","Blowing Snow"
"-66.27","50.22","SEPT-ILES A","7047911","2020-11-24 10:00","2020","11","24","10:00","-6.3","","-12.6","","62","","","","34","","42","","48.3","","99.83","","","","-16","","Blowing Snow"
"-66.27","50.22","SEPT-ILES A","7047911","2020-11-24 11:00","2020","11","24","11:00","-6.7","","-13.8","","57","","","","34","","35","","48.3","","100.01","","","","-16","","Blowing Snow"
"-66.27","50.22","SEPT-ILES A","7047911","2020-11-24 12:00","2020","11","24","12:00","-7.3","","-15.5","","52","","","","33","","25","","48.3","","100.18","","","","-15","","Blowing Snow"
"-66.27","50.22","SEPT-ILES A","7047911","2020-11-24 13:00","2020","11","24","13:00","-6.6","","-16.6","","46","","","","33","","33","","48.3","","100.36","","","","-15","","Blowing Snow"
"-66.27","50.22","SEPT-ILES A","7047911","2020-11-24 14:00","2020","11","24","14:00","-7.0","","-16.4","","48","","","","34","","31","","48.3","","100.66","","","","-16","","Blowing Snow"
"-66.27","50.22","SEPT-ILES A","7047911","2020-11-24 15:00","2020","11","24","15:00","-7.3","","-16.2","","49","","","","33","","20","","48.3","","100.91","","","","-14","","Blowing Snow"
"-66.27","50.22","SEPT-ILES A","7047911","2020-11-24 16:00","2020","11","24","16:00","-8.3","","-15.8","","55","","","","31","","17","","48.3","","101.17","","","","-15","","Clear"
"-66.27","50.22","SEPT-ILES A","7047911","2020-11-24 17:00","2020","11","24","17:00","-8.8","","-15.8","","57","","","","31","","18","","24.1","","101.36","","","","-16","","NA"
"-66.27","50.22","SEPT-ILES A","7047911","2020-11-24 18:00","2020","11","24","18:00","-9.3","","-15.7","","60","","","","31","","25","","24.1","","101.52","","","","-18","","NA"
"-66.27","50.22","SEPT-ILES A","7047911","2020-11-24 19:00","2020","11","24","19:00","-10.0","","-16.1","","62","","","","31","","18","","24.1","","101.72","","","","-17","","Clear"
"-66.27","50.22","SEPT-ILES A","7047911","2020-11-24 20:00","2020","11","24","20:00","-9.8","","-16.5","","59","","","","30","","21","","24.1","","101.87","","","","-18","","NA"
"-66.27","50.22","SEPT-ILES A","7047911","2020-11-24 21:00","2020","11","24","21:00","-9.1","","-16.3","","57","","","","31","","24","","24.1","","101.91","","","","-17","","NA"
"-66.27","50.22","SEPT-ILES A","7047911","2020-11-24 22:00","2020","11","24","22:00","-9.4","","-15.9","","60","","","","32","","13","","24.1","","101.94","","","","-15","","Mainly Clear"
"-66.27","50.22","SEPT-ILES A","7047911","2020-11-24 23:00","2020","11","24","23:00","-10.0","","-15.7","","64","","","","27","","10","","24.1","","101.96","","","","-15","","NA"
"-66.27","50.22","SEPT-ILES A","7047911","2020-11-25 00:00","2020","11","25","00:00","-10.1","","-16.0","","62","","","","32","","19","","24.1","","101.98","","","","-18","","NA"
"-66.27","50.22","SEPT-ILES A","7047911","2020-11-25 01:00","2020","11","25","01:00","-10.2","","-16.1","","62","","","","31","","15","","24.1","","102.09","","","","-17","","Clear"
"-66.27","50.22","SEPT-ILES A","7047911","2020-11-25 02:00","2020","11","25","02:00","-10.5","","-16.1","","64","","","","28","","14","","24.1","","102.22","","","","-17","","NA"
"-66.27","50.22","SEPT-ILES A","7047911","2020-11-25 03:00","2020","11","25","03:00","-10.1","","-14.2","","72","","","","26","","11","","24.1","","102.28","","","","-16","","NA"
"-66.27","50.22","SEPT-ILES A","7047911","2020-11-25 04:00","2020","11","25","04:00","-11.2","","-14.3","","78","","","","31","","11","","24.1","","102.32","","","","-17","","Mainly Clear"
"-66.27","50.22","SEPT-ILES A","7047911","2020-11-25 05:00","2020","11","25","05:00","-13.4","","-16.4","","78","","","","33","","8","","24.1","","102.28","","","","-18","","NA"
"-66.27","50.22","SEPT-ILES A","7047911","2020-11-25 06:00","2020","11","25","06:00","-15.7","","-17.9","","84","","","","32","","6","","24.1","","102.31","","","","-20","","NA"
"-66.27","50.22","SEPT-ILES A","7047911","2020-11-25 07:00","2020","11","25","07:00","-17.1","","-19.3","","83","","","","33","","8","","48.3","","102.37","","","","-23","","Mostly Cloudy"
"-66.27","50.22","SEPT-ILES A","7047911","2020-11-25 08:00","2020","11","25","08:00","-15.1","","-17.5","","82","","","","32","","4","","48.3","","102.36","","","","-18","","NA"
"-66.27","50.22","SEPT-ILES A","7047911","2020-11-25 09:00","2020","11","25","09:00","-12.0","","-15.3","","77","","","","4","","3","","48.3","","102.32","","","","-14","","NA"
"-66.27","50.22","SEPT-ILES A","7047911","2020-11-25 10:00","2020","11","25","10:00","-10.2","","-14.2","","73","","","","18","","3","","48.3","","102.29","","","","-12","","Cloudy"
"-66.27","50.22","SEPT-ILES A","7047911","2020-11-25 11:00","2020","11","25","11:00","-9.0","","-15.1","","62","","","","36","","1","","48.3","","102.23","","","","-10","","NA"
"-66.27","50.22","SEPT-ILES A","7047911","2020-11-25 12:00","2020","11","25","12:00","-7.9","","-13.7","","63","","","","36","","3","","48.3","","102.14","","","","-9","","NA"
"-66.27","50.22","SEPT-ILES A","7047911","2020-11-25 13:00","2020","11","25","13:00","-7.6","","-13.7","","62","","","","36","","1","","48.3","","102.10","","","","-8","","Cloudy"
"-66.27","50.22","SEPT-ILES A","7047911","2020-11-25 14:00","2020","11","25","14:00","-6.5","","-10.4","","74","","","","36","","3","","4.0","","102.03","","","","-8","","Snow"
"-66.27","50.22","SEPT-ILES A","7047911","2020-11-25 15:00","2020","11","25","15:00","-7.7","","-9.6","","87","","","","6","","9","","4.8","","101.97","","","","-12","","Snow"
"-66.27","50.22","SEPT-ILES A","7047911","2020-11-25 16:00","2020","11","25","16:00","-7.8","","-9.1","","91","","","","5","","9","","1.6","","101.92","","","","-12","","Snow"
"-66.27","50.22","SEPT-ILES A","7047911","2020-11-25 17:00","2020","11","25","17:00","-7.5","","-8.8","","90","","","","6","","10","","8.1","","101.85","","","","-12","","Snow"
"-66.27","50.22","SEPT-ILES A","7047911","2020-11-25 18:00","2020","11","25","18:00","-7.6","","-8.8","","91","","","","4","","10","","8.1","","101.81","","","","-12","","Snow"
"-66.27","50.22","SEPT-ILES A","7047911","2020-11-25 19:00","2020","11","25","19:00","-7.4","","-8.5","","92","","","","4","","10","","1.6","","101.79","","","","-12","","Snow"
"-66.27","50.22","SEPT-ILES A","7047911","2020-11-25 20:00","2020","11","25","20:00","-7.5","","-8.8","","91","","","","2","","11","","24.1","","101.77","","","","-13","","Snow"
"-66.27","50.22","SEPT-ILES A","7047911","2020-11-25 21:00","2020","11","25","21:00","-8.2","","-9.4","","91","","","","1","","8","","24.1","","101.77","","","","-12","","Snow"
"-66.27","50.22","SEPT-ILES A","7047911","2020-11-25 22:00","2020","11","25","22:00","-8.6","","-9.8","","91","","","","36","","5","","24.1","","101.76","","","","-11","","Snow"
"-66.27","50.22","SEPT-ILES A","7047911","2020-11-25 23:00","2020","11","25","23:00","-11.1","","-12.3","","91","","","","2","","8","","24.1","","101.77","","","","-16","","NA"
"-66.27","50.22","SEPT-ILES A","7047911","2020-11-26 00:00","2020","11","26","00:00","-13.0","","-14.1","","92","","","","1","","6","","24.1","","101.76","","","","-17","","NA"
"-66.27","50.22","SEPT-ILES A","7047911","2020-11-26 01:00","2020","11","26","01:00","-14.8","","-16.2","","89","","","","2","","4","","24.1","","101.81","","","","-18","","Clear"
"-66.27","50.22","SEPT-ILES A","7047911","2020-11-26 02:00","2020","11","26","02:00","-14.4","","-16.0","","88","","","","36","","3","","24.1","","101.82","","","","-17","","NA"
"-66.27","50.22","SEPT-ILES A","7047911","2020-11-26 03:00","2020","11","26","03:00","-12.8","","-14.2","","89","","","","3","","16","","24.1","","101.79","","","","-20","","NA"
"-66.27","50.22","SEPT-ILES A","7047911","2020-11-26 04:00","2020","11","26","04:00","-17.6","","-19.7","","85","","","","31","","4","","24.1","","101.93","","","","-21","","Clear"
"-66.27","50.22","SEPT-ILES A","7047911","2020-11-26 05:00","2020","11","26","05:00","-15.7","","-17.6","","86","","","","35","","7","","24.1","","101.94","","","","-21","","NA"
"-66.27","50.22","SEPT-ILES A","7047911","2020-11-26 06:00","2020","11","26","06:00","-17.4","","-19.6","","84","","","","30","","4","","24.1","","102.07","","","","-21","","NA"
"-66.27","50.22","SEPT-ILES A","7047911","2020-11-26 07:00","2020","11","26","07:00","-19.0","","-21.2","","82","","","","3","","5","","48.3","","102.09","","","","-23","","Mainly Clear"
"-66.27","50.22","SEPT-ILES A","7047911","2020-11-26 08:00","2020","11","26","08:00","-13.9","","-15.8","","86","","","","3","","7","","48.3","","102.10","","","","-19","","NA"
"-66.27","50.22","SEPT-ILES A","7047911","2020-11-26 09:00","2020","11","26","09:00","-10.4","","-12.0","","88","","","","4","","14","","48.3","","102.03","","","","-17","","NA"
"-66.27","50.22","SEPT-ILES A","7047911","2020-11-26 10:00","2020","11","26","10:00","-8.2","","-10.6","","83","","","","4","","14","","48.3","","101.97","","","","-14","","Mostly Cloudy"
"-66.27","50.22","SEPT-ILES A","7047911","2020-11-26 11:00","2020","11","26","11:00","-7.3","","-10.4","","79","","","","36","","2","","48.3","","102.01","","","","-8","","NA"
"-66.27","50.22","SEPT-ILES A","7047911","2020-11-26 12:00","2020","11","26","12:00","-6.3","","-9.1","","81","","","","3","","7","","32.2","","101.96","","","","-10","","Snow"
"-66.27","50.22","SEPT-ILES A","7047911","2020-11-26 13:00","2020","11","26","13:00","-5.4","","-7.9","","82","","","","5","","11","","24.1","","101.88","","","","-10","","Snow"
"-66.27","50.22","SEPT-ILES A","7047911","2020-11-26 14:00","2020","11","26","14:00","-5.2","","-7.1","","86","","","","5","","11","","48.3","","101.81","","","","-10","","NA"
"-66.27","50.22","SEPT-ILES A","7047911","2020-11-26 15:00","2020","11","26","15:00","-5.1","","-7.0","","86","","","","5","","13","","48.3","","101.84","","","","-10","","NA"
"-66.27","50.22","SEPT-ILES A","7047911","2020-11-26 16:00","2020","11","26","16:00","-5.2","","-7.0","","87","","","","5","","14","","24.1","","101.74","","","","-11","","Snow"
"-66.27","50.22","SEPT-ILES A","7047911","2020-11-26 17:00","2020","11","26","17:00","-5.2","","-6.9","","88","","","","5","","15","","24.1","","101.74","","","","-11","","Snow"
"-66.27","50.22","SEPT-ILES A","7047911","2020-11-26 18:00","2020","11","26","18:00","-5.0","","-6.0","","92","","","","6","","17","","3.2","","101.58","","","","-11","","Snow"
"-66.27","50.22","SEPT-ILES A","7047911","2020-11-26 19:00","2020","11","26","19:00","-4.1","","-4.9","","94","","","","8","","18","","2.4","","101.47","","","","-10","","Snow"
"-66.27","50.22","SEPT-ILES A","7047911","2020-11-26 20:00","2020","11","26","20:00","-3.9","","-4.7","","94","","","","7","","17","","0.8","","101.40","","","","-10","","Moderate Snow"
"-66.27","50.22","SEPT-ILES A","7047911","2020-11-26 21:00","2020","11","26","21:00","-3.5","","-4.1","","96","","","","7","","16","","1.2","","101.30","","","","-9","","Snow"
"-66.27","50.22","SEPT-ILES A","7047911","2020-11-26 22:00","2020","11","26","22:00","-2.0","","-2.2","","98","","","","10","","17","","3.2","","101.17","","","","-7","","Freezing Drizzle"
"-66.27","50.22","SEPT-ILES A","7047911","2020-11-26 23:00","2020","11","26","23:00","-0.6","","-0.9","","98","","","","11","","28","","4.8","","101.02","","","","-7","","Freezing Drizzle"
"-66.27","50.22","SEPT-ILES A","7047911","2020-11-27 00:00","2020","11","27","00:00","-1.6","","-1.7","","99","","","","8","","18","","8.1","","100.93","","","","-7","","Freezing Drizzle"
"-66.27","50.22","SEPT-ILES A","7047911","2020-11-27 01:00","2020","11","27","01:00","-0.1","","-0.2","","100","","","","10","","16","","3.2","","100.82","","","","-5","","Freezing Drizzle"
"-66.27","50.22","SEPT-ILES A","7047911","2020-11-27 02:00","2020","11","27","02:00","0.2","","0.1","","100","","","","11","","20","","3.2","","100.75","","","","","","Drizzle"
"-66.27","50.22","SEPT-ILES A","7047911","2020-11-27 03:00","2020","11","27","03:00","-0.1","","-0.2","","100","","","","9","","17","","4.8","","100.64","","","","-5","","Drizzle"
"-66.27","50.22","SEPT-ILES A","7047911","2020-11-27 04:00","2020","11","27","04:00","0.0","","0.0","","100","","","","9","","12","","4.8","","100.57","","","","-4","","Drizzle"
"-66.27","50.22","SEPT-ILES A","7047911","2020-11-27 05:00","2020","11","27","05:00","0.0","","0.0","","100","","","","9","","14","","3.2","","100.51","","","","-4","","Freezing Drizzle"
"-66.27","50.22","SEPT-ILES A","7047911","2020-11-27 06:00","2020","11","27","06:00","0.0","","0.0","","100","","","","8","","12","","1.2","","100.53","","","","-4","","Fog"
"-66.27","50.22","SEPT-ILES A","7047911","2020-11-27 07:00","2020","11","27","07:00","0.1","","0.0","","100","","","","10","","4","","1.2","","100.53","","","","","","Drizzle,Fog"
"-66.27","50.22","SEPT-ILES A","7047911","2020-11-27 08:00","2020","11","27","08:00","0.1","","0.0","","100","","","","36","","2","","0.8","","100.53","","","","","","Drizzle,Fog"
"-66.27","50.22","SEPT-ILES A","7047911","2020-11-27 09:00","2020","11","27","09:00","0.2","","0.1","","100","","","","36","","3","","0.4","","100.54","","","","","","Fog"
"-66.27","50.22","SEPT-ILES A","7047911","2020-11-27 10:00","2020","11","27","10:00","0.3","","0.2","","100","","","","25","","10","","1.6","","100.54","","","","","","Fog"
"-66.27","50.22","SEPT-ILES A","7047911","2020-11-27 11:00","2020","11","27","11:00","0.3","","0.2","","100","","","","27","","11","","1.6","","100.49","","","","","","Fog"
"-66.27","50.22","SEPT-ILES A","7047911","2020-11-27 12:00","2020","11","27","12:00","0.4","","0.4","","100","","","","25","","6","","8.1","","100.44","","","","","","Fog"
"-66.27","50.22","SEPT-ILES A","7047911","2020-11-27 13:00","2020","11","27","13:00","1.0","","0.7","","98","","","","24","","3","","24.1","","100.47","","","","","","Fog"
"-66.27","50.22","SEPT-ILES A","7047911","2020-11-27 14:00","2020","11","27","14:00","0.9","","0.3","","96","","","","28","","8","","24.1","","100.50","","","","","","Fog"
"-66.27","50.22","SEPT-ILES A","7047911","2020-11-27 15:00","2020","11","27","15:00","0.4","","0.3","","99","","","","29","","8","","24.1","","100.54","","","","","","Fog"
"-66.27","50.22","SEPT-ILES A","7047911","2020-11-27 16:00","2020","11","27","16:00","0.2","","0.2","","100","","","","31","","6","","24.1","","100.56","","","","","","Cloudy"
"-66.27","50.22","SEPT-ILES A","7047911","2020-11-27 17:00","2020","11","27","17:00","-0.9","","-0.9","","100","","","","36","","2","","24.1","","100.56","","","","-2","","NA"
"-66.27","50.22","SEPT-ILES A","7047911","2020-11-27 18:00","2020","11","27","18:00","-1.1","","-1.1","","100","","","","32","","6","","1.2","","100.59","","","","-3","","Fog"
"-66.27","50.22","SEPT-ILES A","7047911","2020-11-27 19:00","2020","11","27","19:00","-1.0","","-1.1","","100","","","","36","","3","","3.2","","100.56","","","","-2","","Fog"
"-66.27","50.22","SEPT-ILES A","7047911","2020-11-27 20:00","2020","11","27","20:00","-0.6","","-0.7","","100","","","","27","","3","","24.1","","100.53","","","","-2","","NA"
"-66.27","50.22","SEPT-ILES A","7047911","2020-11-27 21:00","2020","11","27","21:00","-1.5","","-1.6","","99","","","","36","","3","","24.1","","100.50","","","","-3","","NA"
"-66.27","50.22","SEPT-ILES A","7047911","2020-11-27 22:00","2020","11","27","22:00","-0.3","","-0.4","","100","","","","32","","9","","24.1","","100.44","","","","-3","","Mostly Cloudy"
"-66.27","50.22","SEPT-ILES A","7047911","2020-11-27 23:00","2020","11","27","23:00","-0.4","","-0.5","","99","","","","33","","5","","24.1","","100.48","","","","-2","","NA"
"-66.27","50.22","SEPT-ILES A","7047911","2020-11-28 00:00","2020","11","28","00:00","-1.0","","-1.1","","99","","","","1","","3","","24.1","","100.45","","","","-2","","NA"
"-66.27","50.22","SEPT-ILES A","7047911","2020-11-28 01:00","2020","11","28","01:00","-1.2","","-1.2","","99","","","","36","","2","","24.1","","100.44","","","","-2","","Cloudy"
"-66.27","50.22","SEPT-ILES A","7047911","2020-11-28 02:00","2020","11","28","02:00","-1.4","","-1.4","","99","","","","36","","1","","24.1","","100.45","","","","-2","","NA"
"-66.27","50.22","SEPT-ILES A","7047911","2020-11-28 03:00","2020","11","28","03:00","-1.2","","-1.3","","100","","","","36","","5","","24.1","","100.41","","","","-3","","NA"
"-66.27","50.22","SEPT-ILES A","7047911","2020-11-28 04:00","2020","11","28","04:00","-1.2","","-1.3","","100","","","","32","","3","","24.1","","100.37","","","","-2","","Cloudy"
"-66.27","50.22","SEPT-ILES A","7047911","2020-11-28 05:00","2020","11","28","05:00","-1.0","","-1.0","","100","","","","36","","7","","24.1","","100.38","","","","-4","","NA"
"-66.27","50.22","SEPT-ILES A","7047911","2020-11-28 06:00","2020","11","28","06:00","-0.7","","-1.2","","97","","","","36","","2","","24.1","","100.39","","","","-1","","NA"
"-66.27","50.22","SEPT-ILES A","7047911","2020-11-28 07:00","2020","11","28","07:00","-1.2","","-1.3","","100","","","","36","","3","","48.3","","100.40","","","","-2","","Cloudy"
"-66.27","50.22","SEPT-ILES A","7047911","2020-11-28 08:00","2020","11","28","08:00","-1.4","","-1.4","","100","","","","0","","1","","48.3","","100.41","","","","-2","","NA"
"-66.27","50.22","SEPT-ILES A","7047911","2020-11-28 09:00","2020","11","28","09:00","-0.6","","-0.7","","99","","","","3","","15","","48.3","","100.37","","","","-5","","NA"
"-66.27","50.22","SEPT-ILES A","7047911","2020-11-28 10:00","2020","11","28","10:00","0.3","","-0.6","","94","","","","1","","4","","48.3","","100.38","","","","","","Cloudy"
"-66.27","50.22","SEPT-ILES A","7047911","2020-11-28 11:00","2020","11","28","11:00","0.4","","-0.5","","94","","","","34","","4","","48.3","","100.36","","","","","","NA"
"-66.27","50.22","SEPT-ILES A","7047911","2020-11-28 12:00","2020","11","28","12:00","0.5","","-0.2","","95","","","","35","","7","","48.3","","100.31","","","","","","Snow"
"-66.27","50.22","SEPT-ILES A","7047911","2020-11-28 13:00","2020","11","28","13:00","0.8","","-1.0","","88","","","","7","","13","","48.3","","100.22","","","","","","Mostly Cloudy"
"-66.27","50.22","SEPT-ILES A","7047911","2020-11-28 14:00","2020","11","28","14:00","0.8","","-0.5","","91","","","","24","","4","","48.3","","100.29","","","","","","NA"
"-66.27","50.22","SEPT-ILES A","7047911","2020-11-28 15:00","2020","11","28","15:00","0.0","","-0.5","","96","","","","7","","4","","48.3","","100.30","","","","-1","","NA"
"-66.27","50.22","SEPT-ILES A","7047911","2020-11-28 16:00","2020","11","28","16:00","-2.1","","-2.2","","100","","","","10","","3","","32.2","","100.28","","","","-3","","Mostly Cloudy"
"-66.27","50.22","SEPT-ILES A","7047911","2020-11-28 17:00","2020","11","28","17:00","-2.2","","-2.3","","100","","","","0","","1","","24.1","","100.34","","","","-3","","NA"
"-66.27","50.22","SEPT-ILES A","7047911","2020-11-28 18:00","2020","11","28","18:00","-2.2","","-2.2","","100","","","","4","","5","","24.1","","100.31","","","","-4","","NA"
"-66.27","50.22","SEPT-ILES A","7047911","2020-11-28 19:00","2020","11","28","19:00","-2.2","","-2.2","","100","","","","6","","9","","24.1","","100.28","","","","-6","","Mostly Cloudy"
"-66.27","50.22","SEPT-ILES A","7047911","2020-11-28 20:00","2020","11","28","20:00","-2.9","","-3.0","","99","","","","6","","9","","24.1","","100.23","","","","-6","","NA"
"-66.27","50.22","SEPT-ILES A","7047911","2020-11-28 21:00","2020","11","28","21:00","-2.9","","-3.1","","98","","","","4","","9","","24.1","","100.18","","","","-6","","NA"
"-66.27","50.22","SEPT-ILES A","7047911","2020-11-28 22:00","2020","11","28","22:00","-3.1","","-3.4","","98","","","","2","","5","","24.1","","100.18","","","","-5","","Cloudy"
"-66.27","50.22","SEPT-ILES A","7047911","2020-11-28 23:00","2020","11","28","23:00","-2.4","","-2.6","","99","","","","4","","10","","3.2","","100.17","","","","-6","","Snow"
"-66.27","50.22","SEPT-ILES A","7047911","2020-11-29 00:00","2020","11","29","00:00","-2.2","","-2.4","","99","","","","4","","10","","4.8","","100.15","","","","-6","","Snow"
"-66.27","50.22","SEPT-ILES A","7047911","2020-11-29 01:00","2020","11","29","01:00","-2.5","","-2.6","","99","","","","4","","8","","6.4","","100.12","","","","-6","","Snow"
"-66.27","50.22","SEPT-ILES A","7047911","2020-11-29 02:00","2020","11","29","02:00","-2.2","","-2.4","","99","","","","3","","5","","4.8","","100.12","","","","-4","","Snow"
"-66.27","50.22","SEPT-ILES A","7047911","2020-11-29 03:00","2020","11","29","03:00","-2.1","","-2.3","","99","","","","5","","3","","8.1","","100.11","","","","-3","","Snow"
"-66.27","50.22","SEPT-ILES A","7047911","2020-11-29 04:00","2020","11","29","04:00","-2.2","","-2.4","","99","","","","33","","3","","24.1","","100.10","","","","-3","","Snow"
"-66.27","50.22","SEPT-ILES A","7047911","2020-11-29 05:00","2020","11","29","05:00","-2.4","","-2.5","","99","","","","36","","2","","24.1","","100.13","","","","-3","","Snow"
"-66.27","50.22","SEPT-ILES A","7047911","2020-11-29 06:00","2020","11","29","06:00","-2.1","","-2.2","","99","","","","34","","4","","24.1","","100.17","","","","-4","","NA"
"-66.27","50.22","SEPT-ILES A","7047911","2020-11-29 07:00","2020","11","29","07:00","-2.2","","-2.3","","99","","","","19","","4","","8.1","","100.21","","","","-4","","Fog"
"-66.27","50.22","SEPT-ILES A","7047911","2020-11-29 08:00","2020","11","29","08:00","-2.1","","-2.2","","99","","","","0","","1","","6.4","","100.27","","","","-2","","Fog"
"-66.27","50.22","SEPT-ILES A","7047911","2020-11-29 09:00","2020","11","29","09:00","-1.9","","-2.0","","100","","","","26","","7","","3.2","","100.27","","","","-5","","Snow,Fog"
"-66.27","50.22","SEPT-ILES A","7047911","2020-11-29 10:00","2020","11","29","10:00","-1.6","","-1.7","","99","","","","25","","8","","8.1","","100.27","","","","-5","","Fog"
"-66.27","50.22","SEPT-ILES A","7047911","2020-11-29 11:00","2020","11","29","11:00","-1.6","","-1.9","","98","","","","29","","9","","24.1","","100.22","","","","-5","","NA"
"-66.27","50.22","SEPT-ILES A","7047911","2020-11-29 12:00","2020","11","29","12:00","-1.0","","-2.2","","92","","","","28","","11","","48.3","","100.24","","","","-5","","NA"
"-66.27","50.22","SEPT-ILES A","7047911","2020-11-29 13:00","2020","11","29","13:00","-0.8","","-1.9","","92","","","","28","","10","","48.3","","100.26","","","","-4","","Mostly Cloudy"
"-66.27","50.22","SEPT-ILES A","7047911","2020-11-29 14:00","2020","11","29","14:00","-0.6","","-1.2","","96","","","","24","","7","","48.3","","100.31","","","","-3","","NA"
"-66.27","50.22","SEPT-ILES A","7047911","2020-11-29 15:00","2020","11","29","15:00","-1.2","","-4.0","","81","","","","28","","11","","48.3","","100.43","","","","-5","","NA"
"-66.27","50.22","SEPT-ILES A","7047911","2020-11-29 16:00","2020","11","29","16:00","-1.5","","-5.2","","76","","","","29","","17","","48.3","","100.57","","","","-7","","Mainly Clear"
"-66.27","50.22","SEPT-ILES A","7047911","2020-11-29 17:00","2020","11","29","17:00","-2.6","","-6.4","","75","","","","29","","13","","24.1","","100.67","","","","-7","","NA"
"-66.27","50.22","SEPT-ILES A","7047911","2020-11-29 18:00","2020","11","29","18:00","-3.9","","-7.9","","74","","","","29","","16","","24.1","","100.81","","","","-9","","NA"
"-66.27","50.22","SEPT-ILES A","7047911","2020-11-29 19:00","2020","11","29","19:00","-3.9","","-8.0","","73","","","","27","","13","","24.1","","100.91","","","","-9","","Clear"
"-66.27","50.22","SEPT-ILES A","7047911","2020-11-29 20:00","2020","11","29","20:00","-6.1","","-8.6","","82","","","","23","","4","","24.1","","101.01","","","","-8","","NA"
"-66.27","50.22","SEPT-ILES A","7047911","2020-11-29 21:00","2020","11","29","21:00","-6.0","","-8.6","","82","","","","29","","10","","24.1","","101.10","","","","-10","","NA"
"-66.27","50.22","SEPT-ILES A","7047911","2020-11-29 22:00","2020","11","29","22:00","-6.3","","-7.9","","89","","","","29","","10","","24.1","","101.19","","","","-11","","Clear"
"-66.27","50.22","SEPT-ILES A","7047911","2020-11-29 23:00","2020","11","29","23:00","-7.9","","-9.5","","88","","","","28","","12","","24.1","","101.26","","","","-13","","NA"
"-66.27","50.22","SEPT-ILES A","7047911","2020-11-30 00:00","2020","11","30","00:00","-8.2","","-9.5","","91","","","","30","","8","","24.1","","101.30","","","","-12","","NA"
"-66.27","50.22","SEPT-ILES A","7047911","2020-11-30 01:00","2020","11","30","01:00","-8.0","","-9.6","","88","","","","30","","7","","24.1","","101.41","","","","-12","","Clear"
"-66.27","50.22","SEPT-ILES A","7047911","2020-11-30 02:00","2020","11","30","02:00","-11.6","","-12.3","","95","","","","35","","4","","24.1","","101.46","","","","-14","","NA"
"-66.27","50.22","SEPT-ILES A","7047911","2020-11-30 03:00","2020","11","30","03:00","-13.3","","-14.6","","90","","","","36","","4","","24.1","","101.50","","","","-16","","NA"
"-66.27","50.22","SEPT-ILES A","7047911","2020-11-30 04:00","2020","11","30","04:00","-13.7","","-15.2","","89","","","","32","","4","","24.1","","101.61","","","","-16","","Clear"
"-66.27","50.22","SEPT-ILES A","7047911","2020-11-30 05:00","2020","11","30","05:00","-12.6","","-14.2","","89","","","","35","","5","","24.1","","101.68","","","","-16","","NA"
"-66.27","50.22","SEPT-ILES A","7047911","2020-11-30 06:00","2020","11","30","06:00","-10.9","","-12.4","","89","","","","36","","7","","24.1","","101.72","","","","-15","","NA"
"-66.27","50.22","SEPT-ILES A","7047911","2020-11-30 07:00","2020","11","30","07:00","-9.7","","-11.2","","89","","","","3","","9","","48.3","","101.74","","","","-15","","Mostly Cloudy"
"-66.27","50.22","SEPT-ILES A","7047911","2020-11-30 08:00","2020","11","30","08:00","-10.2","","-11.9","","87","","","","31","","4","","48.3","","101.85","","","","-13","","NA"
"-66.27","50.22","SEPT-ILES A","7047911","2020-11-30 09:00","2020","11","30","09:00","-6.9","","-8.8","","86","","","","4","","10","","48.3","","101.88","","","","-12","","NA"
"-66.27","50.22","SEPT-ILES A","7047911","2020-11-30 10:00","2020","11","30","10:00","-5.4","","-7.7","","84","","","","5","","9","","48.3","","101.86","","","","-9","","Mostly Cloudy"
"-66.27","50.22","SEPT-ILES A","7047911","2020-11-30 11:00","2020","11","30","11:00","-4.2","","-6.8","","82","","","","6","","11","","48.3","","101.85","","","","-9","","NA"
"-66.27","50.22","SEPT-ILES A","7047911","2020-11-30 12:00","2020","11","30","12:00","-3.4","","-5.5","","86","","","","7","","13","","48.3","","101.84","","","","-8","","NA"
"-66.27","50.22","SEPT-ILES A","7047911","2020-11-30 13:00","2020","11","30","13:00","-3.2","","-5.1","","86","","","","6","","12","","48.3","","101.83","","","","-8","","Cloudy"
"-66.27","50.22","SEPT-ILES A","7047911","2020-11-30 14:00","2020","11","30","14:00","-3.0","","-4.8","","88","","","","6","","12","","48.3","","101.82","","","","-7","","NA"
"-66.27","50.22","SEPT-ILES A","7047911","2020-11-30 15:00","2020","11","30","15:00","-2.6","","-4.3","","88","","","","7","","18","","48.3","","101.79","","","","-8","","Snow"
"-66.27","50.22","SEPT-ILES A","7047911","2020-11-30 16:00","2020","11","30","16:00","-2.1","","-3.8","","88","","","","7","","22","","32.2","","101.76","","","","-8","","Snow"
"-66.27","50.22","SEPT-ILES A","7047911","2020-11-30 17:00","2020","11","30","17:00","-1.8","","-3.3","","89","","","","7","","20","","24.1","","101.74","","","","-8","","Snow"
"-66.27","50.22","SEPT-ILES A","7047911","2020-11-30 18:00","2020","11","30","18:00","-1.4","","-2.5","","92","","","","8","","23","","16.1","","101.76","","","","-7","","Snow"
"-66.27","50.22","SEPT-ILES A","7047911","2020-11-30 19:00","2020","11","30","19:00","-0.9","","-1.9","","92","","","","8","","28","","24.1","","101.71","","","","-7","","Snow"
"-66.27","50.22","SEPT-ILES A","7047911","2020-11-30 20:00","2020","11","30","20:00","-0.4","","-1.2","","94","","","","8","","24","","24.1","","101.60","","","","-6","","Snow"
"-66.27","50.22","SEPT-ILES A","7047911","2020-11-30 21:00","2020","11","30","21:00","0.3","","-0.1","","97","","","","9","","32","","8.1","","101.51","","","","","","Snow"
"-66.27","50.22","SEPT-ILES A","7047911","2020-11-30 22:00","2020","11","30","22:00","0.4","","0.3","","99","","","","9","","26","","6.4","","101.45","","","","","","Snow"
"-66.27","50.22","SEPT-ILES A","7047911","2020-11-30 23:00","2020","11","30","23:00","0.7","","0.6","","99","","","","9","","31","","16.1","","101.35","","","","","","Snow"
