"Longitude (x)","Latitude (y)","Station Name","Climate ID","Date/Time (LST)","Year","Month","Day","Time (LST)","Temp (°C)","Temp Flag","Dew Point Temp (°C)","Dew Point Temp Flag","Rel Hum (%)","Rel Hum Flag","Precip. Amount (mm)","Precip. Amount Flag","Wind Dir (10s deg)","Wind Dir Flag","Wind Spd (km/h)","Wind Spd Flag","Visibility (km)","Visibility Flag","Stn Press (kPa)","Stn Press Flag","Hmdx","Hmdx Flag","Wind Chill","Wind Chill Flag","Weather"
"-97.24","49.91","WINNIPEG INTL A","5023227","2021-10-01 00:00","2021","10","01","00:00","10.7","","10.7","","100","","","","36","","2","","24.1","","99.21","","","","","","Clear"
"-97.24","49.91","WINNIPEG INTL A","5023227","2021-10-01 01:00","2021","10","01","01:00","8.2","","8.2","","100","","","","36","","10","","24.1","","99.20","","","","","","NA"
"-97.24","49.91","WINNIPEG INTL A","5023227","2021-10-01 02:00","2021","10","01","02:00","7.3","","7.3","","100","","","","34","","9","","24.1","","99.21","","","","","","NA"
"-97.24","49.91","WINNIPEG INTL A","5023227","2021-10-01 03:00","2021","10","01","03:00","6.1","","6.1","","100","","","","35","","9","","4.8","","99.19","","","","","","Fog"
"-97.24","49.91","WINNIPEG INTL A","5023227","2021-10-01 04:00","2021","10","01","04:00","6.7","","6.7","","100","","","","1","","6","","24.1","","99.20","","","","","","NA"
"-97.24","49.91","WINNIPEG INTL A","5023227","2021-10-01 05:00","2021","10","01","05:00","8.1","","8.1","","100","","","","2","","9","","24.1","","99.22","","","","","","NA"
"-97.24","49.91","WINNIPEG INTL A","5023227","2021-10-01 06:00","2021","10","01","06:00","7.3","","7.3","","100","","","","2","","7","","0.8","","99.21","","","","","","Fog"
"-97.24","49.91","WINNIPEG INTL A","5023227","2021-10-01 07:00","2021","10","01","07:00","9.6","","9.6","","100","","","","1","","9","","0.2","","99.19","","","","","","Fog"
"-97.24","49.91","WINNIPEG INTL A","5023227","2021-10-01 08:00","2021","10","01","08:00","11.3","","11.3","","100","","","","4","","7","","0.2","","99.17","","","","","","Drizzle,Fog"
"-97.24","49.91","WINNIPEG INTL A","5023227","2021-10-01 09:00","2021","10","01","09:00","12.0","","12.0","","100","","","","4","","11","","0.4","","99.15","","","","","","Drizzle,Fog"
"-97.24","49.91","WINNIPEG INTL A","5023227","2021-10-01 10:00","2021","10","01","10:00","13.1","","13.1","","100","","","","5","","16","","6.4","","99.14","","","","","","Fog"
"-97.24","49.91","WINNIPEG INTL A","5023227","2021-10-01 11:00","2021","10","01","11:00","14.1","","14.1","","100","","","","5","","7","","16.1","","99.16","","","","","","NA"
"-97.24","49.91","WINNIPEG INTL A","5023227","2021-10-01 12:00","2021","10","01","12:00","16.3","","13.8","","85","","","","3","","5","","19.3","","99.11","","","","","","Mostly Cloudy"
"-97.24","49.91","WINNIPEG INTL A","5023227","2021-10-01 13:00","2021","10","01","13:00","18.9","","13.0","","68","","","","33","","13","","24.1","","99.03","","","","","","NA"
"-97.24","49.91","WINNIPEG INTL A","5023227","2021-10-01 14:00","2021","10","01","14:00","20.2","","11.9","","59","","","","2","","12","","24.1","","98.99","","","","","","NA"
"-97.24","49.91","WINNIPEG INTL A","5023227","2021-10-01 15:00","2021","10","01","15:00","19.2","","11.3","","60","","","","1","","17","","24.1","","98.98","","","","","","Mostly Cloudy"
"-97.24","49.91","WINNIPEG INTL A","5023227","2021-10-01 16:00","2021","10","01","16:00","18.2","","9.8","","57","","","","36","","13","","24.1","","98.99","","","","","","NA"
"-97.24","49.91","WINNIPEG INTL A","5023227","2021-10-01 17:00","2021","10","01","17:00","16.8","","11.3","","70","","","","36","","8","","24.1","","98.97","","","","","","NA"
"-97.24","49.91","WINNIPEG INTL A","5023227","2021-10-01 18:00","2021","10","01","18:00","14.8","","10.9","","77","","","","1","","8","","24.1","","98.96","","","","","","Mostly Cloudy"
"-97.24","49.91","WINNIPEG INTL A","5023227","2021-10-01 19:00","2021","10","01","19:00","13.1","","10.7","","85","","","","2","","6","","24.1","","98.96","","","","","","NA"
"-97.24","49.91","WINNIPEG INTL A","5023227","2021-10-01 20:00","2021","10","01","20:00","11.1","","9.6","","90","","","","36","","4","","24.1","","98.96","","","","","","NA"
"-97.24","49.91","WINNIPEG INTL A","5023227","2021-10-01 21:00","2021","10","01","21:00","11.0","","9.7","","91","","","","27","","9","","24.1","","98.98","","","","","","Mostly Cloudy"
"-97.24","49.91","WINNIPEG INTL A","5023227","2021-10-01 22:00","2021","10","01","22:00","9.1","","8.3","","94","","","","32","","9","","24.1","","98.94","","","","","","NA"
"-97.24","49.91","WINNIPEG INTL A","5023227","2021-10-01 23:00","2021","10","01","23:00","10.4","","10.4","","100","","","","31","","10","","24.1","","98.95","","","","","","NA"
"-97.24","49.91","WINNIPEG INTL A","5023227","2021-10-02 00:00","2021","10","02","00:00","7.8","","7.8","","100","","","","32","","10","","24.1","","98.92","","","","","","Mostly Cloudy"
"-97.24","49.91","WINNIPEG INTL A","5023227","2021-10-02 01:00","2021","10","02","01:00","7.2","","7.2","","100","","","","32","","10","","1.2","","98.92","","","","","","Fog"
"-97.24","49.91","WINNIPEG INTL A","5023227","2021-10-02 02:00","2021","10","02","02:00","5.9","","5.9","","100","","","","32","","8","","4.8","","98.89","","","","","","Fog"
"-97.24","49.91","WINNIPEG INTL A","5023227","2021-10-02 03:00","2021","10","02","03:00","5.2","","5.2","","100","","","","31","","5","","4.8","","98.90","","","","","","Fog"
"-97.24","49.91","WINNIPEG INTL A","5023227","2021-10-02 04:00","2021","10","02","04:00","6.4","","6.4","","100","","","","30","","5","","24.1","","98.89","","","","","","NA"
"-97.24","49.91","WINNIPEG INTL A","5023227","2021-10-02 05:00","2021","10","02","05:00","4.0","","4.0","","100","","","","29","","10","","1.2","","98.90","","","","","","Fog"
"-97.24","49.91","WINNIPEG INTL A","5023227","2021-10-02 06:00","2021","10","02","06:00","3.4","","3.4","","100","","","","28","","5","","0.2","","98.90","","","","","","Fog"
"-97.24","49.91","WINNIPEG INTL A","5023227","2021-10-02 07:00","2021","10","02","07:00","3.4","","3.4","","100","","","","28","","4","","16.1","","98.89","","","","","","Fog"
"-97.24","49.91","WINNIPEG INTL A","5023227","2021-10-02 08:00","2021","10","02","08:00","7.2","","7.2","","100","","","","36","","2","","16.1","","98.87","","","","","","NA"
"-97.24","49.91","WINNIPEG INTL A","5023227","2021-10-02 09:00","2021","10","02","09:00","11.8","","11.8","","100","","","","5","","4","","24.1","","98.86","","","","","","Clear"
"-97.24","49.91","WINNIPEG INTL A","5023227","2021-10-02 10:00","2021","10","02","10:00","16.4","","11.1","","71","","","","36","","2","","24.1","","98.85","","","","","","NA"
"-97.24","49.91","WINNIPEG INTL A","5023227","2021-10-02 11:00","2021","10","02","11:00","17.9","","10.7","","63","","","","11","","5","","24.1","","98.80","","","","","","NA"
"-97.24","49.91","WINNIPEG INTL A","5023227","2021-10-02 12:00","2021","10","02","12:00","20.0","","8.4","","47","","","","36","","1","","24.1","","98.76","","","","","","Clear"
"-97.24","49.91","WINNIPEG INTL A","5023227","2021-10-02 13:00","2021","10","02","13:00","21.3","","8.7","","44","","","","36","","3","","24.1","","98.69","","","","","","NA"
"-97.24","49.91","WINNIPEG INTL A","5023227","2021-10-02 14:00","2021","10","02","14:00","21.9","","7.9","","40","","","","2","","7","","24.1","","98.63","","","","","","NA"
"-97.24","49.91","WINNIPEG INTL A","5023227","2021-10-02 15:00","2021","10","02","15:00","22.4","","7.7","","39","","","","9","","7","","24.1","","98.60","","","","","","Mainly Clear"
"-97.24","49.91","WINNIPEG INTL A","5023227","2021-10-02 16:00","2021","10","02","16:00","22.6","","6.9","","36","","","","3","","9","","24.1","","98.57","","","","","","NA"
"-97.24","49.91","WINNIPEG INTL A","5023227","2021-10-02 17:00","2021","10","02","17:00","20.8","","9.2","","47","","","","7","","8","","24.1","","98.56","","","","","","NA"
"-97.24","49.91","WINNIPEG INTL A","5023227","2021-10-02 18:00","2021","10","02","18:00","17.9","","8.5","","54","","","","10","","5","","24.1","","98.57","","","","","","Mostly Cloudy"
"-97.24","49.91","WINNIPEG INTL A","5023227","2021-10-02 19:00","2021","10","02","19:00","11.8","","6.6","","70","","","","30","","14","","24.1","","98.59","","","","","","NA"
"-97.24","49.91","WINNIPEG INTL A","5023227","2021-10-02 20:00","2021","10","02","20:00","11.2","","4.9","","65","","","","5","","4","","24.1","","98.61","","","","","","NA"
"-97.24","49.91","WINNIPEG INTL A","5023227","2021-10-02 21:00","2021","10","02","21:00","11.1","","5.7","","70","","","","34","","6","","24.1","","98.63","","","","","","Mainly Clear"
"-97.24","49.91","WINNIPEG INTL A","5023227","2021-10-02 22:00","2021","10","02","22:00","9.8","","5.3","","73","","","","0","","1","","24.1","","98.65","","","","","","NA"
"-97.24","49.91","WINNIPEG INTL A","5023227","2021-10-02 23:00","2021","10","02","23:00","10.6","","5.9","","72","","","","33","","5","","24.1","","98.62","","","","","","NA"
"-97.24","49.91","WINNIPEG INTL A","5023227","2021-10-03 00:00","2021","10","03","00:00","9.0","","5.9","","80","","","","29","","8","","24.1","","98.62","","","","","","Mainly Clear"
"-97.24","49.91","WINNIPEG INTL A","5023227","2021-10-03 01:00","2021","10","03","01:00","6.6","","4.7","","87","","","","36","","2","","24.1","","98.62","","","","","","NA"
"-97.24","49.91","WINNIPEG INTL A","5023227","2021-10-03 02:00","2021","10","03","02:00","5.4","","4.6","","94","","","","29","","13","","24.1","","98.64","","","","","","NA"
"-97.24","49.91","WINNIPEG INTL A","5023227","2021-10-03 03:00","2021","10","03","03:00","5.5","","5.5","","100","","","","28","","7","","24.1","","98.61","","","","","","Mainly Clear"
"-97.24","49.91","WINNIPEG INTL A","5023227","2021-10-03 04:00","2021","10","03","04:00","8.1","","8.1","","100","","","","30","","6","","24.1","","98.61","","","","","","NA"
"-97.24","49.91","WINNIPEG INTL A","5023227","2021-10-03 05:00","2021","10","03","05:00","5.2","","5.2","","100","","","","29","","6","","24.1","","98.62","","","","","","NA"
"-97.24","49.91","WINNIPEG INTL A","5023227","2021-10-03 06:00","2021","10","03","06:00","4.2","","4.2","","100","","","","26","","5","","16.1","","98.61","","","","","","Mainly Clear"
"-97.24","49.91","WINNIPEG INTL A","5023227","2021-10-03 07:00","2021","10","03","07:00","3.2","","3.2","","100","","","","26","","8","","12.9","","98.64","","","","","","NA"
"-97.24","49.91","WINNIPEG INTL A","5023227","2021-10-03 08:00","2021","10","03","08:00","8.0","","8.0","","100","","","","16","","4","","16.1","","98.64","","","","","","NA"
"-97.24","49.91","WINNIPEG INTL A","5023227","2021-10-03 09:00","2021","10","03","09:00","11.3","","8.7","","84","","","","15","","5","","19.3","","98.64","","","","","","Mainly Clear"
"-97.24","49.91","WINNIPEG INTL A","5023227","2021-10-03 10:00","2021","10","03","10:00","15.3","","9.0","","66","","","","16","","7","","19.3","","98.66","","","","","","NA"
"-97.24","49.91","WINNIPEG INTL A","5023227","2021-10-03 11:00","2021","10","03","11:00","17.7","","9.3","","57","","","","19","","8","","19.3","","98.63","","","","","","NA"
"-97.24","49.91","WINNIPEG INTL A","5023227","2021-10-03 12:00","2021","10","03","12:00","19.8","","8.8","","49","","","","17","","14","","24.1","","98.53","","","","","","Mostly Cloudy"
"-97.24","49.91","WINNIPEG INTL A","5023227","2021-10-03 13:00","2021","10","03","13:00","21.8","","7.4","","39","","","","18","","14","","24.1","","98.47","","","","","","NA"
"-97.24","49.91","WINNIPEG INTL A","5023227","2021-10-03 14:00","2021","10","03","14:00","23.2","","6.9","","35","","","","19","","21","","16.1","","98.38","","","","","","NA"
"-97.24","49.91","WINNIPEG INTL A","5023227","2021-10-03 15:00","2021","10","03","15:00","23.9","","5.8","","30","","","","18","","20","","16.1","","98.33","","","","","","Mainly Clear"
"-97.24","49.91","WINNIPEG INTL A","5023227","2021-10-03 16:00","2021","10","03","16:00","23.9","","5.4","","30","","","","19","","19","","19.3","","98.30","","","","","","NA"
"-97.24","49.91","WINNIPEG INTL A","5023227","2021-10-03 17:00","2021","10","03","17:00","23.1","","4.8","","30","","","","19","","18","","19.3","","98.29","","","","","","NA"
"-97.24","49.91","WINNIPEG INTL A","5023227","2021-10-03 18:00","2021","10","03","18:00","18.1","","5.5","","43","","","","17","","16","","19.3","","98.29","","","","","","Mainly Clear"
"-97.24","49.91","WINNIPEG INTL A","5023227","2021-10-03 19:00","2021","10","03","19:00","16.5","","5.3","","47","","","","17","","16","","19.3","","98.30","","","","","","NA"
"-97.24","49.91","WINNIPEG INTL A","5023227","2021-10-03 20:00","2021","10","03","20:00","16.0","","5.3","","49","","","","17","","17","","19.3","","98.32","","","","","","NA"
"-97.24","49.91","WINNIPEG INTL A","5023227","2021-10-03 21:00","2021","10","03","21:00","17.5","","5.0","","43","","","","18","","21","","19.3","","98.35","","","","","","Clear"
"-97.24","49.91","WINNIPEG INTL A","5023227","2021-10-03 22:00","2021","10","03","22:00","15.9","","4.8","","48","","","","18","","20","","24.1","","98.35","","","","","","NA"
"-97.24","49.91","WINNIPEG INTL A","5023227","2021-10-03 23:00","2021","10","03","23:00","14.0","","4.9","","54","","","","19","","16","","24.1","","98.39","","","","","","NA"
"-97.24","49.91","WINNIPEG INTL A","5023227","2021-10-04 00:00","2021","10","04","00:00","14.1","","5.3","","55","","","","20","","17","","24.1","","98.42","","","","","","Clear"
"-97.24","49.91","WINNIPEG INTL A","5023227","2021-10-04 01:00","2021","10","04","01:00","12.2","","5.1","","62","","","","20","","8","","24.1","","98.46","","","","","","NA"
"-97.24","49.91","WINNIPEG INTL A","5023227","2021-10-04 02:00","2021","10","04","02:00","8.4","","4.1","","74","","","","17","","7","","24.1","","98.51","","","","","","NA"
"-97.24","49.91","WINNIPEG INTL A","5023227","2021-10-04 03:00","2021","10","04","03:00","7.7","","4.7","","81","","","","25","","4","","24.1","","98.54","","","","","","Clear"
"-97.24","49.91","WINNIPEG INTL A","5023227","2021-10-04 04:00","2021","10","04","04:00","5.5","","4.0","","90","","","","26","","7","","24.1","","98.58","","","","","","NA"
"-97.24","49.91","WINNIPEG INTL A","5023227","2021-10-04 05:00","2021","10","04","05:00","4.2","","2.8","","91","","","","28","","11","","24.1","","98.64","","","","","","NA"
"-97.24","49.91","WINNIPEG INTL A","5023227","2021-10-04 06:00","2021","10","04","06:00","3.8","","2.4","","90","","","","31","","9","","24.1","","98.71","","","","","","Mainly Clear"
"-97.24","49.91","WINNIPEG INTL A","5023227","2021-10-04 07:00","2021","10","04","07:00","3.6","","3.0","","96","","","","28","","9","","12.9","","98.79","","","","","","NA"
"-97.24","49.91","WINNIPEG INTL A","5023227","2021-10-04 08:00","2021","10","04","08:00","8.3","","6.1","","85","","","","29","","5","","12.9","","98.86","","","","","","NA"
"-97.24","49.91","WINNIPEG INTL A","5023227","2021-10-04 09:00","2021","10","04","09:00","14.1","","7.4","","64","","","","35","","5","","16.1","","98.91","","","","","","Mainly Clear"
"-97.24","49.91","WINNIPEG INTL A","5023227","2021-10-04 10:00","2021","10","04","10:00","17.8","","8.0","","52","","","","36","","2","","12.9","","98.95","","","","","","NA"
"-97.24","49.91","WINNIPEG INTL A","5023227","2021-10-04 11:00","2021","10","04","11:00","20.6","","7.8","","43","","","","17","","4","","12.9","","98.96","","","","","","NA"
"-97.24","49.91","WINNIPEG INTL A","5023227","2021-10-04 12:00","2021","10","04","12:00","23.1","","4.9","","30","","","","18","","3","","12.9","","98.95","","","","","","Mainly Clear"
"-97.24","49.91","WINNIPEG INTL A","5023227","2021-10-04 13:00","2021","10","04","13:00","24.0","","4.5","","28","","","","15","","4","","19.3","","98.90","","","","","","NA"
"-97.24","49.91","WINNIPEG INTL A","5023227","2021-10-04 14:00","2021","10","04","14:00","25.1","","1.7","","21","","","","16","","7","","24.1","","98.88","","","","","","NA"
"-97.24","49.91","WINNIPEG INTL A","5023227","2021-10-04 15:00","2021","10","04","15:00","25.2","","2.7","","23","","","","13","","7","","24.1","","98.87","","","","","","Mostly Cloudy"
"-97.24","49.91","WINNIPEG INTL A","5023227","2021-10-04 16:00","2021","10","04","16:00","25.4","","4.9","","26","","","","13","","7","","24.1","","98.86","","25","","","","NA"
"-97.24","49.91","WINNIPEG INTL A","5023227","2021-10-04 17:00","2021","10","04","17:00","23.5","","5.2","","30","","","","15","","8","","24.1","","98.86","","","","","","NA"
"-97.24","49.91","WINNIPEG INTL A","5023227","2021-10-04 18:00","2021","10","04","18:00","19.2","","4.4","","37","","","","14","","11","","24.1","","98.85","","","","","","Mostly Cloudy"
"-97.24","49.91","WINNIPEG INTL A","5023227","2021-10-04 19:00","2021","10","04","19:00","19.2","","3.5","","35","","","","15","","12","","24.1","","98.88","","","","","","NA"
"-97.24","49.91","WINNIPEG INTL A","5023227","2021-10-04 20:00","2021","10","04","20:00","16.8","","3.7","","41","","","","17","","11","","24.1","","98.89","","","","","","NA"
"-97.24","49.91","WINNIPEG INTL A","5023227","2021-10-04 21:00","2021","10","04","21:00","15.7","","3.6","","44","","","","15","","16","","24.1","","98.90","","","","","","Clear"
"-97.24","49.91","WINNIPEG INTL A","5023227","2021-10-04 22:00","2021","10","04","22:00","14.8","","3.6","","46","","","","15","","14","","24.1","","98.93","","","","","","NA"
"-97.24","49.91","WINNIPEG INTL A","5023227","2021-10-04 23:00","2021","10","04","23:00","13.0","","3.5","","52","","","","16","","15","","24.1","","98.93","","","","","","NA"
"-97.24","49.91","WINNIPEG INTL A","5023227","2021-10-05 00:00","2021","10","05","00:00","16.8","","4.3","","43","","","","17","","22","","24.1","","98.95","","","","","","Clear"
"-97.24","49.91","WINNIPEG INTL A","5023227","2021-10-05 01:00","2021","10","05","01:00","16.0","","4.5","","46","","","","18","","21","","24.1","","98.97","","","","","","NA"
"-97.24","49.91","WINNIPEG INTL A","5023227","2021-10-05 02:00","2021","10","05","02:00","15.1","","4.9","","50","","","","18","","22","","24.1","","98.99","","","","","","NA"
"-97.24","49.91","WINNIPEG INTL A","5023227","2021-10-05 03:00","2021","10","05","03:00","14.3","","4.9","","53","","","","18","","21","","24.1","","98.98","","","","","","Clear"
"-97.24","49.91","WINNIPEG INTL A","5023227","2021-10-05 04:00","2021","10","05","04:00","14.7","","5.1","","52","","","","18","","25","","24.1","","98.96","","","","","","NA"
"-97.24","49.91","WINNIPEG INTL A","5023227","2021-10-05 05:00","2021","10","05","05:00","14.1","","5.2","","55","","","","17","","24","","24.1","","98.97","","","","","","NA"
"-97.24","49.91","WINNIPEG INTL A","5023227","2021-10-05 06:00","2021","10","05","06:00","14.0","","5.5","","56","","","","17","","19","","24.1","","98.94","","","","","","Mainly Clear"
"-97.24","49.91","WINNIPEG INTL A","5023227","2021-10-05 07:00","2021","10","05","07:00","14.5","","5.6","","55","","","","17","","21","","24.1","","98.95","","","","","","NA"
"-97.24","49.91","WINNIPEG INTL A","5023227","2021-10-05 08:00","2021","10","05","08:00","15.9","","6.2","","52","","","","17","","25","","24.1","","98.97","","","","","","NA"
"-97.24","49.91","WINNIPEG INTL A","5023227","2021-10-05 09:00","2021","10","05","09:00","18.5","","7.4","","48","","","","17","","31","","24.1","","98.98","","","","","","Mainly Clear"
"-97.24","49.91","WINNIPEG INTL A","5023227","2021-10-05 10:00","2021","10","05","10:00","21.4","","8.5","","43","","","","16","","31","","24.1","","98.96","","","","","","NA"
"-97.24","49.91","WINNIPEG INTL A","5023227","2021-10-05 11:00","2021","10","05","11:00","25.0","","8.9","","36","","","","16","","31","","24.1","","98.93","","26","","","","NA"
"-97.24","49.91","WINNIPEG INTL A","5023227","2021-10-05 12:00","2021","10","05","12:00","27.3","","8.1","","29","","","","17","","36","","24.1","","98.86","","28","","","","Mostly Cloudy"
"-97.24","49.91","WINNIPEG INTL A","5023227","2021-10-05 13:00","2021","10","05","13:00","28.8","","8.0","","27","","","","18","","41","","24.1","","98.78","","29","","","","NA"
"-97.24","49.91","WINNIPEG INTL A","5023227","2021-10-05 14:00","2021","10","05","14:00","29.5","","7.7","","25","","","","17","","40","","16.1","","98.69","","30","","","","NA"
"-97.24","49.91","WINNIPEG INTL A","5023227","2021-10-05 15:00","2021","10","05","15:00","29.4","","7.6","","25","","","","17","","36","","16.1","","98.65","","30","","","","Mainly Clear"
"-97.24","49.91","WINNIPEG INTL A","5023227","2021-10-05 16:00","2021","10","05","16:00","28.7","","7.2","","25","","","","18","","48","","16.1","","98.57","","29","","","","NA"
"-97.24","49.91","WINNIPEG INTL A","5023227","2021-10-05 17:00","2021","10","05","17:00","27.2","","7.8","","29","","","","17","","36","","19.3","","98.57","","28","","","","NA"
"-97.24","49.91","WINNIPEG INTL A","5023227","2021-10-05 18:00","2021","10","05","18:00","25.6","","7.5","","31","","","","17","","33","","19.3","","98.58","","26","","","","Mainly Clear"
"-97.24","49.91","WINNIPEG INTL A","5023227","2021-10-05 19:00","2021","10","05","19:00","24.5","","7.7","","34","","","","17","","35","","19.3","","98.65","","25","","","","NA"
"-97.24","49.91","WINNIPEG INTL A","5023227","2021-10-05 20:00","2021","10","05","20:00","23.4","","7.9","","37","","","","17","","36","","19.3","","98.61","","","","","","NA"
"-97.24","49.91","WINNIPEG INTL A","5023227","2021-10-05 21:00","2021","10","05","21:00","22.8","","8.1","","39","","","","18","","40","","19.3","","98.62","","","","","","Clear"
"-97.24","49.91","WINNIPEG INTL A","5023227","2021-10-05 22:00","2021","10","05","22:00","21.6","","8.3","","42","","","","18","","34","","24.1","","98.63","","","","","","NA"
"-97.24","49.91","WINNIPEG INTL A","5023227","2021-10-05 23:00","2021","10","05","23:00","20.6","","8.5","","45","","","","18","","39","","24.1","","98.63","","","","","","NA"
"-97.24","49.91","WINNIPEG INTL A","5023227","2021-10-06 00:00","2021","10","06","00:00","19.5","","8.5","","49","","","","18","","34","","24.1","","98.62","","","","","","Clear"
"-97.24","49.91","WINNIPEG INTL A","5023227","2021-10-06 01:00","2021","10","06","01:00","18.6","","8.7","","52","","","","18","","35","","24.1","","98.64","","","","","","NA"
"-97.24","49.91","WINNIPEG INTL A","5023227","2021-10-06 02:00","2021","10","06","02:00","17.6","","8.9","","56","","","","18","","31","","24.1","","98.64","","","","","","NA"
"-97.24","49.91","WINNIPEG INTL A","5023227","2021-10-06 03:00","2021","10","06","03:00","16.8","","9.1","","60","","","","18","","29","","24.1","","98.64","","","","","","Clear"
"-97.24","49.91","WINNIPEG INTL A","5023227","2021-10-06 04:00","2021","10","06","04:00","16.1","","9.2","","64","","","","18","","31","","24.1","","98.67","","","","","","NA"
"-97.24","49.91","WINNIPEG INTL A","5023227","2021-10-06 05:00","2021","10","06","05:00","15.4","","9.3","","67","","","","18","","27","","24.1","","98.67","","","","","","NA"
"-97.24","49.91","WINNIPEG INTL A","5023227","2021-10-06 06:00","2021","10","06","06:00","14.9","","9.3","","69","","","","18","","27","","24.1","","98.68","","","","","","Mainly Clear"
"-97.24","49.91","WINNIPEG INTL A","5023227","2021-10-06 07:00","2021","10","06","07:00","15.0","","9.3","","69","","","","18","","31","","24.1","","98.70","","","","","","NA"
"-97.24","49.91","WINNIPEG INTL A","5023227","2021-10-06 08:00","2021","10","06","08:00","15.9","","9.7","","66","","","","18","","25","","24.1","","98.72","","","","","","NA"
"-97.24","49.91","WINNIPEG INTL A","5023227","2021-10-06 09:00","2021","10","06","09:00","17.7","","10.0","","61","","","","19","","33","","24.1","","98.71","","","","","","Mainly Clear"
"-97.24","49.91","WINNIPEG INTL A","5023227","2021-10-06 10:00","2021","10","06","10:00","20.1","","10.8","","55","","","","18","","29","","24.1","","98.70","","","","","","NA"
"-97.24","49.91","WINNIPEG INTL A","5023227","2021-10-06 11:00","2021","10","06","11:00","22.3","","10.7","","47","","","","18","","34","","24.1","","98.68","","","","","","NA"
"-97.24","49.91","WINNIPEG INTL A","5023227","2021-10-06 12:00","2021","10","06","12:00","24.9","","11.1","","42","","","","18","","29","","24.1","","98.66","","27","","","","Mainly Clear"
"-97.24","49.91","WINNIPEG INTL A","5023227","2021-10-06 13:00","2021","10","06","13:00","26.7","","10.6","","36","","","","18","","32","","24.1","","98.61","","28","","","","NA"
"-97.24","49.91","WINNIPEG INTL A","5023227","2021-10-06 14:00","2021","10","06","14:00","27.9","","10.3","","33","","","","18","","35","","24.1","","98.57","","29","","","","NA"
"-97.24","49.91","WINNIPEG INTL A","5023227","2021-10-06 15:00","2021","10","06","15:00","28.1","","9.9","","31","","","","19","","39","","24.1","","98.54","","29","","","","Mainly Clear"
"-97.24","49.91","WINNIPEG INTL A","5023227","2021-10-06 16:00","2021","10","06","16:00","27.7","","10.0","","33","","","","18","","42","","24.1","","98.51","","29","","","","NA"
"-97.24","49.91","WINNIPEG INTL A","5023227","2021-10-06 17:00","2021","10","06","17:00","26.0","","10.7","","38","","","","17","","32","","24.1","","98.51","","28","","","","NA"
"-97.24","49.91","WINNIPEG INTL A","5023227","2021-10-06 18:00","2021","10","06","18:00","23.9","","10.5","","42","","","","17","","28","","24.1","","98.54","","25","","","","Mainly Clear"
"-97.24","49.91","WINNIPEG INTL A","5023227","2021-10-06 19:00","2021","10","06","19:00","22.9","","10.8","","46","","","","17","","32","","24.1","","98.57","","25","","","","NA"
"-97.24","49.91","WINNIPEG INTL A","5023227","2021-10-06 20:00","2021","10","06","20:00","21.8","","11.3","","51","","","","17","","34","","24.1","","98.59","","","","","","NA"
"-97.24","49.91","WINNIPEG INTL A","5023227","2021-10-06 21:00","2021","10","06","21:00","20.7","","11.8","","56","","","","17","","28","","24.1","","98.62","","","","","","Clear"
"-97.24","49.91","WINNIPEG INTL A","5023227","2021-10-06 22:00","2021","10","06","22:00","19.6","","11.9","","61","","","","17","","28","","24.1","","98.64","","","","","","NA"
"-97.24","49.91","WINNIPEG INTL A","5023227","2021-10-06 23:00","2021","10","06","23:00","19.1","","11.7","","62","","","","17","","28","","24.1","","98.63","","","","","","NA"
"-97.24","49.91","WINNIPEG INTL A","5023227","2021-10-07 00:00","2021","10","07","00:00","18.3","","11.4","","64","","","","17","","28","","24.1","","98.61","","","","","","Clear"
"-97.24","49.91","WINNIPEG INTL A","5023227","2021-10-07 01:00","2021","10","07","01:00","17.7","","11.3","","66","","","","17","","31","","24.1","","98.59","","","","","","NA"
"-97.24","49.91","WINNIPEG INTL A","5023227","2021-10-07 02:00","2021","10","07","02:00","16.9","","11.1","","68","","","","18","","28","","24.1","","98.57","","","","","","NA"
"-97.24","49.91","WINNIPEG INTL A","5023227","2021-10-07 03:00","2021","10","07","03:00","16.5","","11.2","","71","","","","18","","31","","24.1","","98.56","","","","","","Clear"
"-97.24","49.91","WINNIPEG INTL A","5023227","2021-10-07 04:00","2021","10","07","04:00","16.2","","11.4","","73","","","","18","","28","","24.1","","98.54","","","","","","NA"
"-97.24","49.91","WINNIPEG INTL A","5023227","2021-10-07 05:00","2021","10","07","05:00","15.6","","11.8","","78","","","","17","","30","","24.1","","98.54","","","","","","NA"
"-97.24","49.91","WINNIPEG INTL A","5023227","2021-10-07 06:00","2021","10","07","06:00","15.3","","12.0","","80","","","","17","","25","","24.1","","98.51","","","","","","Mainly Clear"
"-97.24","49.91","WINNIPEG INTL A","5023227","2021-10-07 07:00","2021","10","07","07:00","14.9","","12.1","","83","","","","17","","28","","24.1","","98.52","","","","","","NA"
"-97.24","49.91","WINNIPEG INTL A","5023227","2021-10-07 08:00","2021","10","07","08:00","16.4","","12.6","","78","","","","17","","29","","24.1","","98.52","","","","","","NA"
"-97.24","49.91","WINNIPEG INTL A","5023227","2021-10-07 09:00","2021","10","07","09:00","18.4","","12.8","","70","","","","18","","31","","24.1","","98.51","","","","","","Mainly Clear"
"-97.24","49.91","WINNIPEG INTL A","5023227","2021-10-07 10:00","2021","10","07","10:00","20.2","","13.0","","63","","","","19","","32","","24.1","","98.49","","","","","","NA"
"-97.24","49.91","WINNIPEG INTL A","5023227","2021-10-07 11:00","2021","10","07","11:00","21.7","","13.3","","58","","","","20","","27","","24.1","","98.47","","25","","","","NA"
"-97.24","49.91","WINNIPEG INTL A","5023227","2021-10-07 12:00","2021","10","07","12:00","23.1","","13.2","","53","","","","19","","32","","24.1","","98.41","","26","","","","Mainly Clear"
"-97.24","49.91","WINNIPEG INTL A","5023227","2021-10-07 13:00","2021","10","07","13:00","24.1","","13.4","","51","","","","19","","32","","24.1","","98.36","","27","","","","NA"
"-97.24","49.91","WINNIPEG INTL A","5023227","2021-10-07 14:00","2021","10","07","14:00","25.4","","13.5","","47","","","","18","","34","","24.1","","98.30","","28","","","","NA"
"-97.24","49.91","WINNIPEG INTL A","5023227","2021-10-07 15:00","2021","10","07","15:00","25.8","","13.6","","46","","","","21","","30","","24.1","","98.33","","29","","","","Mainly Clear"
"-97.24","49.91","WINNIPEG INTL A","5023227","2021-10-07 16:00","2021","10","07","16:00","25.0","","13.3","","48","","","","19","","24","","24.1","","98.30","","28","","","","NA"
"-97.24","49.91","WINNIPEG INTL A","5023227","2021-10-07 17:00","2021","10","07","17:00","24.5","","13.4","","50","","","","20","","18","","24.1","","98.31","","28","","","","NA"
"-97.24","49.91","WINNIPEG INTL A","5023227","2021-10-07 18:00","2021","10","07","18:00","22.1","","13.3","","57","","","","27","","10","","24.1","","98.36","","25","","","","Mostly Cloudy"
"-97.24","49.91","WINNIPEG INTL A","5023227","2021-10-07 19:00","2021","10","07","19:00","20.2","","12.7","","62","","","","28","","7","","24.1","","98.39","","","","","","NA"
"-97.24","49.91","WINNIPEG INTL A","5023227","2021-10-07 20:00","2021","10","07","20:00","19.2","","12.1","","63","","","","30","","5","","24.1","","98.42","","","","","","NA"
"-97.24","49.91","WINNIPEG INTL A","5023227","2021-10-07 21:00","2021","10","07","21:00","17.0","","12.3","","73","","","","36","","2","","24.1","","98.43","","","","","","Mostly Cloudy"
"-97.24","49.91","WINNIPEG INTL A","5023227","2021-10-07 22:00","2021","10","07","22:00","16.6","","12.4","","76","","","","33","","11","","24.1","","98.43","","","","","","NA"
"-97.24","49.91","WINNIPEG INTL A","5023227","2021-10-07 23:00","2021","10","07","23:00","18.6","","12.9","","69","","","","3","","15","","24.1","","98.43","","","","","","NA"
"-97.24","49.91","WINNIPEG INTL A","5023227","2021-10-08 00:00","2021","10","08","00:00","17.7","","12.6","","72","","","","3","","15","","24.1","","98.44","","","","","","Mostly Cloudy"
"-97.24","49.91","WINNIPEG INTL A","5023227","2021-10-08 01:00","2021","10","08","01:00","16.4","","12.6","","78","","","","4","","21","","12.9","","98.44","","","","","","NA"
"-97.24","49.91","WINNIPEG INTL A","5023227","2021-10-08 02:00","2021","10","08","02:00","14.6","","11.3","","81","","","","1","","14","","6.4","","98.48","","","","","","Rain Showers,Smoke"
"-97.24","49.91","WINNIPEG INTL A","5023227","2021-10-08 03:00","2021","10","08","03:00","13.7","","11.6","","87","","","","1","","19","","8.1","","98.50","","","","","","Smoke"
"-97.24","49.91","WINNIPEG INTL A","5023227","2021-10-08 04:00","2021","10","08","04:00","13.2","","11.6","","90","","","","34","","17","","9.7","","98.54","","","","","","Rain Showers,Smoke"
"-97.24","49.91","WINNIPEG INTL A","5023227","2021-10-08 05:00","2021","10","08","05:00","12.8","","11.9","","94","","","","1","","14","","9.7","","98.52","","","","","","Rain Showers,Smoke"
"-97.24","49.91","WINNIPEG INTL A","5023227","2021-10-08 06:00","2021","10","08","06:00","12.5","","12.0","","96","","","","35","","11","","12.9","","98.57","","","","","","Rain Showers"
"-97.24","49.91","WINNIPEG INTL A","5023227","2021-10-08 07:00","2021","10","08","07:00","12.1","","12.0","","99","","","","1","","11","","9.7","","98.56","","","","","","Rain Showers,Smoke"
"-97.24","49.91","WINNIPEG INTL A","5023227","2021-10-08 08:00","2021","10","08","08:00","12.2","","11.6","","96","","","","36","","16","","9.7","","98.60","","","","","","Smoke"
"-97.24","49.91","WINNIPEG INTL A","5023227","2021-10-08 09:00","2021","10","08","09:00","12.4","","11.2","","92","","","","4","","11","","9.7","","98.65","","","","","","Smoke"
"-97.24","49.91","WINNIPEG INTL A","5023227","2021-10-08 10:00","2021","10","08","10:00","12.7","","11.3","","91","","","","35","","12","","9.7","","98.66","","","","","","Smoke"
"-97.24","49.91","WINNIPEG INTL A","5023227","2021-10-08 11:00","2021","10","08","11:00","13.2","","11.8","","91","","","","35","","18","","9.7","","98.57","","","","","","Smoke"
"-97.24","49.91","WINNIPEG INTL A","5023227","2021-10-08 12:00","2021","10","08","12:00","13.8","","11.9","","88","","","","34","","17","","9.7","","98.56","","","","","","Smoke"
"-97.24","49.91","WINNIPEG INTL A","5023227","2021-10-08 13:00","2021","10","08","13:00","13.9","","11.9","","88","","","","34","","15","","9.7","","98.61","","","","","","Smoke"
"-97.24","49.91","WINNIPEG INTL A","5023227","2021-10-08 14:00","2021","10","08","14:00","13.7","","12.0","","89","","","","34","","16","","8.1","","98.58","","","","","","Smoke"
"-97.24","49.91","WINNIPEG INTL A","5023227","2021-10-08 15:00","2021","10","08","15:00","13.7","","11.6","","87","","","","1","","17","","8.1","","98.54","","","","","","Smoke"
"-97.24","49.91","WINNIPEG INTL A","5023227","2021-10-08 16:00","2021","10","08","16:00","14.0","","11.7","","86","","","","3","","12","","8.1","","98.55","","","","","","Smoke"
"-97.24","49.91","WINNIPEG INTL A","5023227","2021-10-08 17:00","2021","10","08","17:00","14.0","","11.3","","84","","","","35","","16","","8.1","","98.54","","","","","","Smoke"
"-97.24","49.91","WINNIPEG INTL A","5023227","2021-10-08 18:00","2021","10","08","18:00","13.2","","11.0","","87","","","","35","","17","","8.1","","98.54","","","","","","Smoke"
"-97.24","49.91","WINNIPEG INTL A","5023227","2021-10-08 19:00","2021","10","08","19:00","12.6","","11.0","","90","","","","3","","11","","8.1","","98.61","","","","","","Smoke"
"-97.24","49.91","WINNIPEG INTL A","5023227","2021-10-08 20:00","2021","10","08","20:00","12.5","","10.9","","90","","","","1","","15","","16.1","","98.59","","","","","","NA"
"-97.24","49.91","WINNIPEG INTL A","5023227","2021-10-08 21:00","2021","10","08","21:00","11.7","","9.8","","88","","","","3","","17","","16.1","","98.61","","","","","","Mostly Cloudy"
"-97.24","49.91","WINNIPEG INTL A","5023227","2021-10-08 22:00","2021","10","08","22:00","10.3","","7.9","","85","","","","36","","14","","19.3","","98.58","","","","","","NA"
"-97.24","49.91","WINNIPEG INTL A","5023227","2021-10-08 23:00","2021","10","08","23:00","9.8","","8.0","","88","","","","36","","13","","19.3","","98.59","","","","","","NA"
"-97.24","49.91","WINNIPEG INTL A","5023227","2021-10-09 00:00","2021","10","09","00:00","9.6","","7.8","","88","","","","36","","14","","24.1","","98.58","","","","","","Mostly Cloudy"
"-97.24","49.91","WINNIPEG INTL A","5023227","2021-10-09 01:00","2021","10","09","01:00","9.8","","8.1","","89","","","","35","","15","","24.1","","98.52","","","","","","NA"
"-97.24","49.91","WINNIPEG INTL A","5023227","2021-10-09 02:00","2021","10","09","02:00","10.1","","8.6","","91","","","","35","","13","","24.1","","98.53","","","","","","NA"
"-97.24","49.91","WINNIPEG INTL A","5023227","2021-10-09 03:00","2021","10","09","03:00","10.3","","8.9","","91","","","","36","","17","","24.1","","98.48","","","","","","Cloudy"
"-97.24","49.91","WINNIPEG INTL A","5023227","2021-10-09 04:00","2021","10","09","04:00","10.1","","8.7","","91","","","","1","","15","","24.1","","98.44","","","","","","NA"
"-97.24","49.91","WINNIPEG INTL A","5023227","2021-10-09 05:00","2021","10","09","05:00","8.6","","7.8","","94","","","","36","","12","","24.1","","98.45","","","","","","NA"
"-97.24","49.91","WINNIPEG INTL A","5023227","2021-10-09 06:00","2021","10","09","06:00","9.5","","8.3","","92","","","","1","","14","","24.1","","98.47","","","","","","Mostly Cloudy"
"-97.24","49.91","WINNIPEG INTL A","5023227","2021-10-09 07:00","2021","10","09","07:00","9.2","","8.1","","93","","","","2","","12","","24.1","","98.40","","","","","","NA"
"-97.24","49.91","WINNIPEG INTL A","5023227","2021-10-09 08:00","2021","10","09","08:00","9.2","","7.9","","92","","","","3","","15","","24.1","","98.38","","","","","","NA"
"-97.24","49.91","WINNIPEG INTL A","5023227","2021-10-09 09:00","2021","10","09","09:00","10.1","","8.4","","90","","","","3","","12","","24.1","","98.37","","","","","","Cloudy"
"-97.24","49.91","WINNIPEG INTL A","5023227","2021-10-09 10:00","2021","10","09","10:00","10.8","","8.5","","85","","","","6","","12","","24.1","","98.38","","","","","","NA"
"-97.24","49.91","WINNIPEG INTL A","5023227","2021-10-09 11:00","2021","10","09","11:00","11.1","","8.3","","83","","","","4","","15","","24.1","","98.35","","","","","","NA"
"-97.24","49.91","WINNIPEG INTL A","5023227","2021-10-09 12:00","2021","10","09","12:00","11.9","","8.6","","80","","","","4","","14","","24.1","","98.28","","","","","","Cloudy"
"-97.24","49.91","WINNIPEG INTL A","5023227","2021-10-09 13:00","2021","10","09","13:00","13.0","","9.4","","78","","","","4","","19","","24.1","","98.17","","","","","","NA"
"-97.24","49.91","WINNIPEG INTL A","5023227","2021-10-09 14:00","2021","10","09","14:00","13.4","","9.4","","77","","","","2","","18","","24.1","","98.12","","","","","","NA"
"-97.24","49.91","WINNIPEG INTL A","5023227","2021-10-09 15:00","2021","10","09","15:00","13.1","","9.0","","76","","","","3","","19","","24.1","","98.05","","","","","","Mostly Cloudy"
"-97.24","49.91","WINNIPEG INTL A","5023227","2021-10-09 16:00","2021","10","09","16:00","12.4","","8.7","","78","","","","4","","21","","24.1","","98.01","","","","","","NA"
"-97.24","49.91","WINNIPEG INTL A","5023227","2021-10-09 17:00","2021","10","09","17:00","12.3","","9.0","","80","","","","5","","19","","24.1","","98.02","","","","","","NA"
"-97.24","49.91","WINNIPEG INTL A","5023227","2021-10-09 18:00","2021","10","09","18:00","12.3","","9.2","","81","","","","3","","19","","24.1","","97.98","","","","","","Mostly Cloudy"
"-97.24","49.91","WINNIPEG INTL A","5023227","2021-10-09 19:00","2021","10","09","19:00","12.2","","9.6","","84","","","","3","","22","","24.1","","97.94","","","","","","NA"
"-97.24","49.91","WINNIPEG INTL A","5023227","2021-10-09 20:00","2021","10","09","20:00","11.3","","9.3","","88","","","","2","","21","","24.1","","97.88","","","","","","Rain"
"-97.24","49.91","WINNIPEG INTL A","5023227","2021-10-09 21:00","2021","10","09","21:00","11.8","","9.7","","87","","","","4","","18","","8.1","","97.87","","","","","","Rain"
"-97.24","49.91","WINNIPEG INTL A","5023227","2021-10-09 22:00","2021","10","09","22:00","11.3","","10.5","","95","","","","3","","22","","8.1","","97.77","","","","","","Rain"
"-97.24","49.91","WINNIPEG INTL A","5023227","2021-10-09 23:00","2021","10","09","23:00","11.7","","10.5","","92","","","","3","","22","","19.3","","97.73","","","","","","NA"
"-97.24","49.91","WINNIPEG INTL A","5023227","2021-10-10 00:00","2021","10","10","00:00","11.8","","10.3","","90","","","","4","","23","","8.1","","97.63","","","","","","Rain"
"-97.24","49.91","WINNIPEG INTL A","5023227","2021-10-10 01:00","2021","10","10","01:00","11.7","","10.1","","90","","","","3","","22","","16.1","","97.55","","","","","","Rain"
"-97.24","49.91","WINNIPEG INTL A","5023227","2021-10-10 02:00","2021","10","10","02:00","11.5","","10.2","","92","","","","3","","25","","9.7","","97.48","","","","","","Rain"
"-97.24","49.91","WINNIPEG INTL A","5023227","2021-10-10 03:00","2021","10","10","03:00","11.4","","10.8","","96","","","","3","","34","","8.1","","97.37","","","","","","Rain"
"-97.24","49.91","WINNIPEG INTL A","5023227","2021-10-10 04:00","2021","10","10","04:00","11.5","","11.1","","97","","","","3","","34","","8.1","","97.26","","","","","","Rain"
"-97.24","49.91","WINNIPEG INTL A","5023227","2021-10-10 05:00","2021","10","10","05:00","11.5","","11.3","","99","","","","3","","34","","8.1","","97.22","","","","","","Moderate Rain"
"-97.24","49.91","WINNIPEG INTL A","5023227","2021-10-10 06:00","2021","10","10","06:00","11.5","","11.4","","100","","","","2","","35","","12.9","","97.14","","","","","","Rain"
"-97.24","49.91","WINNIPEG INTL A","5023227","2021-10-10 07:00","2021","10","10","07:00","11.5","","11.4","","100","","","","3","","36","","8.1","","97.14","","","","","","Rain,Fog"
"-97.24","49.91","WINNIPEG INTL A","5023227","2021-10-10 08:00","2021","10","10","08:00","11.4","","11.4","","100","","","","1","","37","","3.2","","97.07","","","","","","Rain,Fog"
"-97.24","49.91","WINNIPEG INTL A","5023227","2021-10-10 09:00","2021","10","10","09:00","11.6","","11.6","","100","","","","3","","29","","3.2","","97.07","","","","","","Rain,Fog"
"-97.24","49.91","WINNIPEG INTL A","5023227","2021-10-10 10:00","2021","10","10","10:00","11.8","","11.8","","100","","","","3","","29","","6.4","","97.01","","","","","","Rain,Fog"
"-97.24","49.91","WINNIPEG INTL A","5023227","2021-10-10 11:00","2021","10","10","11:00","12.3","","12.3","","100","","","","2","","25","","4.8","","96.99","","","","","","Rain,Fog"
"-97.24","49.91","WINNIPEG INTL A","5023227","2021-10-10 12:00","2021","10","10","12:00","12.3","","12.3","","100","","","","3","","29","","8.1","","96.98","","","","","","Rain,Fog"
"-97.24","49.91","WINNIPEG INTL A","5023227","2021-10-10 13:00","2021","10","10","13:00","12.5","","12.5","","100","","","","2","","23","","6.4","","96.93","","","","","","Drizzle,Fog"
"-97.24","49.91","WINNIPEG INTL A","5023227","2021-10-10 14:00","2021","10","10","14:00","12.7","","12.7","","100","","","","1","","18","","4.0","","96.91","","","","","","Drizzle,Fog"
"-97.24","49.91","WINNIPEG INTL A","5023227","2021-10-10 15:00","2021","10","10","15:00","12.4","","12.4","","100","","","","35","","24","","2.0","","96.89","","","","","","Drizzle,Fog"
"-97.24","49.91","WINNIPEG INTL A","5023227","2021-10-10 16:00","2021","10","10","16:00","11.8","","11.8","","100","","","","33","","23","","2.0","","96.91","","","","","","Drizzle,Fog"
"-97.24","49.91","WINNIPEG INTL A","5023227","2021-10-10 17:00","2021","10","10","17:00","11.3","","11.3","","100","","","","33","","18","","3.6","","96.93","","","","","","Drizzle,Fog"
"-97.24","49.91","WINNIPEG INTL A","5023227","2021-10-10 18:00","2021","10","10","18:00","10.9","","10.9","","100","","","","33","","16","","4.8","","96.98","","","","","","Drizzle,Fog"
"-97.24","49.91","WINNIPEG INTL A","5023227","2021-10-10 19:00","2021","10","10","19:00","10.6","","10.6","","100","","","","32","","22","","4.8","","96.97","","","","","","Drizzle,Fog"
"-97.24","49.91","WINNIPEG INTL A","5023227","2021-10-10 20:00","2021","10","10","20:00","10.4","","10.4","","100","","","","32","","22","","12.9","","96.98","","","","","","NA"
"-97.24","49.91","WINNIPEG INTL A","5023227","2021-10-10 21:00","2021","10","10","21:00","10.3","","10.3","","100","","","","33","","17","","12.9","","96.99","","","","","","Cloudy"
"-97.24","49.91","WINNIPEG INTL A","5023227","2021-10-10 22:00","2021","10","10","22:00","10.3","","10.3","","100","","","","31","","19","","4.8","","97.01","","","","","","Drizzle,Fog"
"-97.24","49.91","WINNIPEG INTL A","5023227","2021-10-10 23:00","2021","10","10","23:00","10.3","","10.3","","100","","","","31","","17","","1.6","","97.01","","","","","","Drizzle,Fog"
"-97.24","49.91","WINNIPEG INTL A","5023227","2021-10-11 00:00","2021","10","11","00:00"
"-97.24","49.91","WINNIPEG INTL A","5023227","2021-10-11 01:00","2021","10","11","01:00","10.0","","10.0","","100","","","","30","","18","","19.3","","97.06","","","","","","NA"
"-97.24","49.91","WINNIPEG INTL A","5023227","2021-10-11 02:00","2021","10","11","02:00","10.2","","10.2","","100","","","","31","","13","","9.7","","97.10","","","","","","Drizzle"
"-97.24","49.91","WINNIPEG INTL A","5023227","2021-10-11 03:00","2021","10","11","03:00","10.3","","10.3","","100","","","","29","","14","","24.1","","97.13","","","","","","Cloudy"
"-97.24","49.91","WINNIPEG INTL A","5023227","2021-10-11 04:00","2021","10","11","04:00","9.9","","9.9","","100","","","","29","","22","","16.1","","97.21","","","","","","NA"
"-97.24","49.91","WINNIPEG INTL A","5023227","2021-10-11 05:00","2021","10","11","05:00","10.1","","10.1","","100","","","","30","","23","","24.1","","97.26","","","","","","NA"
"-97.24","49.91","WINNIPEG INTL A","5023227","2021-10-11 06:00","2021","10","11","06:00","9.4","","9.4","","100","","","","29","","14","","24.1","","97.36","","","","","","Cloudy"
"-97.24","49.91","WINNIPEG INTL A","5023227","2021-10-11 07:00","2021","10","11","07:00","8.1","","8.1","","100","","","","28","","16","","0.8","","97.42","","","","","","Fog"
"-97.24","49.91","WINNIPEG INTL A","5023227","2021-10-11 08:00","2021","10","11","08:00","8.4","","8.4","","100","","","","27","","15","","0.6","","97.49","","","","","","Fog"
"-97.24","49.91","WINNIPEG INTL A","5023227","2021-10-11 09:00","2021","10","11","09:00","8.2","","8.2","","100","","","","28","","10","","0.4","","97.56","","","","","","Fog"
"-97.24","49.91","WINNIPEG INTL A","5023227","2021-10-11 10:00","2021","10","11","10:00","10.2","","10.2","","100","","","","27","","13","","24.1","","97.62","","","","","","NA"
"-97.24","49.91","WINNIPEG INTL A","5023227","2021-10-11 11:00","2021","10","11","11:00","13.2","","7.6","","68","","","","29","","19","","24.1","","97.68","","","","","","NA"
"-97.24","49.91","WINNIPEG INTL A","5023227","2021-10-11 12:00","2021","10","11","12:00","14.7","","7.0","","60","","","","29","","27","","24.1","","97.73","","","","","","Clear"
"-97.24","49.91","WINNIPEG INTL A","5023227","2021-10-11 13:00","2021","10","11","13:00","16.2","","7.2","","55","","","","29","","26","","24.1","","97.79","","","","","","NA"
"-97.24","49.91","WINNIPEG INTL A","5023227","2021-10-11 14:00","2021","10","11","14:00","16.3","","5.9","","50","","","","29","","25","","24.1","","97.87","","","","","","NA"
"-97.24","49.91","WINNIPEG INTL A","5023227","2021-10-11 15:00","2021","10","11","15:00","16.4","","5.9","","50","","","","30","","27","","24.1","","97.92","","","","","","Clear"
"-97.24","49.91","WINNIPEG INTL A","5023227","2021-10-11 16:00","2021","10","11","16:00","15.9","","5.3","","49","","","","29","","24","","24.1","","97.96","","","","","","NA"
"-97.24","49.91","WINNIPEG INTL A","5023227","2021-10-11 17:00","2021","10","11","17:00","14.3","","4.9","","53","","","","29","","17","","24.1","","98.06","","","","","","NA"
"-97.24","49.91","WINNIPEG INTL A","5023227","2021-10-11 18:00","2021","10","11","18:00","10.3","","4.5","","67","","","","27","","12","","24.1","","98.20","","","","","","Clear"
"-97.24","49.91","WINNIPEG INTL A","5023227","2021-10-11 19:00","2021","10","11","19:00","7.4","","3.1","","74","","","","27","","13","","24.1","","98.31","","","","","","NA"
"-97.24","49.91","WINNIPEG INTL A","5023227","2021-10-11 20:00","2021","10","11","20:00","6.7","","3.1","","77","","","","28","","10","","24.1","","98.39","","","","","","NA"
"-97.24","49.91","WINNIPEG INTL A","5023227","2021-10-11 21:00","2021","10","11","21:00","3.9","","1.2","","82","","","","28","","13","","24.1","","98.49","","","","","","Clear"
"-97.24","49.91","WINNIPEG INTL A","5023227","2021-10-11 22:00","2021","10","11","22:00","3.0","","1.1","","88","","","","28","","12","","24.1","","98.56","","","","","","NA"
"-97.24","49.91","WINNIPEG INTL A","5023227","2021-10-11 23:00","2021","10","11","23:00","3.9","","1.4","","84","","","","29","","17","","24.1","","98.62","","","","","","NA"
"-97.24","49.91","WINNIPEG INTL A","5023227","2021-10-12 00:00","2021","10","12","00:00","1.9","","0.0","","87","","","","29","","11","","24.1","","98.67","","","","","","Clear"
"-97.24","49.91","WINNIPEG INTL A","5023227","2021-10-12 01:00","2021","10","12","01:00","1.4","","0.4","","93","","","","28","","13","","24.1","","98.75","","","","","","NA"
"-97.24","49.91","WINNIPEG INTL A","5023227","2021-10-12 02:00","2021","10","12","02:00","3.2","","0.8","","84","","","","26","","11","","24.1","","98.85","","","","","","NA"
"-97.24","49.91","WINNIPEG INTL A","5023227","2021-10-12 03:00","2021","10","12","03:00","1.8","","0.2","","89","","","","26","","12","","24.1","","98.88","","","","","","Clear"
"-97.24","49.91","WINNIPEG INTL A","5023227","2021-10-12 04:00","2021","10","12","04:00","1.4","","-0.1","","90","","","","26","","15","","24.1","","98.92","","","","","","NA"
"-97.24","49.91","WINNIPEG INTL A","5023227","2021-10-12 05:00","2021","10","12","05:00","0.5","","-0.8","","91","","","","28","","10","","24.1","","98.99","","","","","","NA"
"-97.24","49.91","WINNIPEG INTL A","5023227","2021-10-12 06:00","2021","10","12","06:00","-0.2","","-1.1","","93","","","","28","","10","","24.1","","99.04","","","","-4","","Clear"
"-97.24","49.91","WINNIPEG INTL A","5023227","2021-10-12 07:00","2021","10","12","07:00","0.3","","-0.9","","91","","","","29","","9","","24.1","","99.09","","","","","","NA"
"-97.24","49.91","WINNIPEG INTL A","5023227","2021-10-12 08:00","2021","10","12","08:00","2.7","","0.9","","88","","","","29","","12","","24.1","","99.13","","","","","","NA"
"-97.24","49.91","WINNIPEG INTL A","5023227","2021-10-12 09:00","2021","10","12","09:00","5.7","","3.0","","83","","","","29","","10","","24.1","","99.15","","","","","","Mostly Cloudy"
"-97.24","49.91","WINNIPEG INTL A","5023227","2021-10-12 10:00","2021","10","12","10:00","8.3","","4.4","","77","","","","30","","14","","24.1","","99.15","","","","","","NA"
"-97.24","49.91","WINNIPEG INTL A","5023227","2021-10-12 11:00","2021","10","12","11:00","8.6","","4.8","","77","","","","31","","14","","24.1","","99.16","","","","","","NA"
"-97.24","49.91","WINNIPEG INTL A","5023227","2021-10-12 12:00","2021","10","12","12:00","9.8","","4.7","","71","","","","31","","14","","24.1","","99.16","","","","","","Mostly Cloudy"
"-97.24","49.91","WINNIPEG INTL A","5023227","2021-10-12 13:00","2021","10","12","13:00","11.1","","4.9","","65","","","","33","","13","","24.1","","99.13","","","","","","NA"
"-97.24","49.91","WINNIPEG INTL A","5023227","2021-10-12 14:00","2021","10","12","14:00","10.6","","3.7","","62","","","","32","","19","","24.1","","99.06","","","","","","NA"
"-97.24","49.91","WINNIPEG INTL A","5023227","2021-10-12 15:00","2021","10","12","15:00","10.1","","3.8","","65","","","","32","","15","","24.1","","99.01","","","","","","Cloudy"
"-97.24","49.91","WINNIPEG INTL A","5023227","2021-10-12 16:00","2021","10","12","16:00","10.4","","3.0","","60","","","","32","","21","","24.1","","99.03","","","","","","NA"
"-97.24","49.91","WINNIPEG INTL A","5023227","2021-10-12 17:00","2021","10","12","17:00","8.5","","3.0","","68","","","","34","","17","","24.1","","99.02","","","","","","NA"
"-97.24","49.91","WINNIPEG INTL A","5023227","2021-10-12 18:00","2021","10","12","18:00","5.0","","2.5","","84","","","","35","","12","","24.1","","98.99","","","","","","Mostly Cloudy"
"-97.24","49.91","WINNIPEG INTL A","5023227","2021-10-12 19:00","2021","10","12","19:00","4.2","","2.5","","88","","","","35","","13","","24.1","","99.00","","","","","","NA"
"-97.24","49.91","WINNIPEG INTL A","5023227","2021-10-12 20:00","2021","10","12","20:00","2.8","","1.3","","90","","","","34","","9","","24.1","","99.08","","","","","","NA"
"-97.24","49.91","WINNIPEG INTL A","5023227","2021-10-12 21:00","2021","10","12","21:00","1.1","","0.1","","93","","","","33","","12","","24.1","","99.09","","","","","","Mainly Clear"
"-97.24","49.91","WINNIPEG INTL A","5023227","2021-10-12 22:00","2021","10","12","22:00","1.4","","0.2","","92","","","","35","","11","","24.1","","99.07","","","","","","NA"
"-97.24","49.91","WINNIPEG INTL A","5023227","2021-10-12 23:00","2021","10","12","23:00","4.3","","2.2","","86","","","","2","","12","","24.1","","99.08","","","","","","NA"
"-97.24","49.91","WINNIPEG INTL A","5023227","2021-10-13 00:00","2021","10","13","00:00","3.8","","2.2","","89","","","","2","","14","","24.1","","99.03","","","","","","Mostly Cloudy"
"-97.24","49.91","WINNIPEG INTL A","5023227","2021-10-13 01:00","2021","10","13","01:00","3.8","","2.3","","90","","","","3","","23","","24.1","","98.93","","","","","","NA"
"-97.24","49.91","WINNIPEG INTL A","5023227","2021-10-13 02:00","2021","10","13","02:00","3.8","","2.5","","91","","","","3","","22","","24.1","","98.91","","","","","","NA"
"-97.24","49.91","WINNIPEG INTL A","5023227","2021-10-13 03:00","2021","10","13","03:00","3.9","","2.8","","92","","","","2","","21","","24.1","","98.83","","","","","","Cloudy"
"-97.24","49.91","WINNIPEG INTL A","5023227","2021-10-13 04:00","2021","10","13","04:00","4.2","","3.3","","94","","","","3","","18","","24.1","","98.79","","","","","","NA"
"-97.24","49.91","WINNIPEG INTL A","5023227","2021-10-13 05:00","2021","10","13","05:00","4.1","","3.5","","96","","","","4","","18","","24.1","","98.69","","","","","","NA"
"-97.24","49.91","WINNIPEG INTL A","5023227","2021-10-13 06:00","2021","10","13","06:00","5.1","","4.8","","98","","","","3","","22","","24.1","","98.48","","","","","","Mostly Cloudy"
"-97.24","49.91","WINNIPEG INTL A","5023227","2021-10-13 07:00","2021","10","13","07:00","5.3","","4.5","","94","","","","4","","21","","24.1","","98.42","","","","","","NA"
"-97.24","49.91","WINNIPEG INTL A","5023227","2021-10-13 08:00","2021","10","13","08:00","6.3","","5.2","","93","","","","6","","19","","8.1","","98.40","","","","","","Smoke"
"-97.24","49.91","WINNIPEG INTL A","5023227","2021-10-13 09:00","2021","10","13","09:00","7.2","","5.8","","91","","","","7","","19","","8.1","","98.38","","","","","","Smoke"
"-97.24","49.91","WINNIPEG INTL A","5023227","2021-10-13 10:00","2021","10","13","10:00","8.1","","6.7","","91","","","","7","","23","","8.1","","98.25","","","","","","Rain,Smoke"
"-97.24","49.91","WINNIPEG INTL A","5023227","2021-10-13 11:00","2021","10","13","11:00","8.5","","7.4","","93","","","","5","","19","","8.1","","98.03","","","","","","Rain,Smoke"
"-97.24","49.91","WINNIPEG INTL A","5023227","2021-10-13 12:00","2021","10","13","12:00","9.2","","7.4","","89","","","","6","","26","","8.1","","97.91","","","","","","Rain,Smoke"
"-97.24","49.91","WINNIPEG INTL A","5023227","2021-10-13 13:00","2021","10","13","13:00","10.4","","7.6","","83","","","","6","","31","","8.1","","97.67","","","","","","Smoke"
"-97.24","49.91","WINNIPEG INTL A","5023227","2021-10-13 14:00","2021","10","13","14:00","10.8","","7.4","","79","","","","7","","31","","19.3","","97.54","","","","","","Rain"
"-97.24","49.91","WINNIPEG INTL A","5023227","2021-10-13 15:00","2021","10","13","15:00","10.8","","7.8","","81","","","","7","","37","","19.3","","97.40","","","","","","Rain"
"-97.24","49.91","WINNIPEG INTL A","5023227","2021-10-13 16:00","2021","10","13","16:00","10.6","","7.8","","83","","","","7","","28","","16.1","","97.36","","","","","","Rain"
"-97.24","49.91","WINNIPEG INTL A","5023227","2021-10-13 17:00","2021","10","13","17:00","9.5","","8.9","","96","","","","7","","29","","6.4","","97.22","","","","","","Rain,Fog"
"-97.24","49.91","WINNIPEG INTL A","5023227","2021-10-13 18:00","2021","10","13","18:00","9.5","","9.3","","99","","","","6","","26","","8.1","","97.08","","","","","","Moderate Rain,Fog"
"-97.24","49.91","WINNIPEG INTL A","5023227","2021-10-13 19:00","2021","10","13","19:00","9.9","","9.7","","99","","","","6","","34","","4.8","","96.95","","","","","","Rain,Fog"
"-97.24","49.91","WINNIPEG INTL A","5023227","2021-10-13 20:00","2021","10","13","20:00","10.2","","10.1","","99","","","","6","","32","","6.4","","96.76","","","","","","Rain,Fog"
"-97.24","49.91","WINNIPEG INTL A","5023227","2021-10-13 21:00","2021","10","13","21:00","10.6","","10.2","","98","","","","7","","30","","8.1","","96.67","","","","","","Drizzle,Fog"
"-97.24","49.91","WINNIPEG INTL A","5023227","2021-10-13 22:00","2021","10","13","22:00","11.1","","10.8","","98","","","","8","","22","","9.7","","96.59","","","","","","Drizzle,Fog"
"-97.24","49.91","WINNIPEG INTL A","5023227","2021-10-13 23:00","2021","10","13","23:00","11.5","","11.1","","97","","","","6","","16","","19.3","","96.49","","","","","","NA"
"-97.24","49.91","WINNIPEG INTL A","5023227","2021-10-14 00:00","2021","10","14","00:00","11.4","","11.2","","98","","","","6","","13","","24.1","","96.41","","","","","","Cloudy"
"-97.24","49.91","WINNIPEG INTL A","5023227","2021-10-14 01:00","2021","10","14","01:00","11.5","","11.4","","99","","","","9","","12","","19.3","","96.40","","","","","","NA"
"-97.24","49.91","WINNIPEG INTL A","5023227","2021-10-14 02:00","2021","10","14","02:00","11.0","","10.8","","98","","","","12","","14","","9.7","","96.42","","","","","","Rain"
"-97.24","49.91","WINNIPEG INTL A","5023227","2021-10-14 03:00","2021","10","14","03:00","10.7","","10.7","","100","","","","15","","9","","16.1","","96.40","","","","","","Rain"
"-97.24","49.91","WINNIPEG INTL A","5023227","2021-10-14 04:00","2021","10","14","04:00","10.0","","10.0","","100","","","","16","","12","","19.3","","96.43","","","","","","Rain"
"-97.24","49.91","WINNIPEG INTL A","5023227","2021-10-14 05:00","2021","10","14","05:00","9.7","","9.7","","100","","","","16","","10","","19.3","","96.45","","","","","","Drizzle"
"-97.24","49.91","WINNIPEG INTL A","5023227","2021-10-14 06:00","2021","10","14","06:00","9.7","","9.7","","100","","","","14","","4","","3.2","","96.45","","","","","","Fog"
"-97.24","49.91","WINNIPEG INTL A","5023227","2021-10-14 07:00","2021","10","14","07:00","10.1","","10.1","","100","","","","19","","10","","0.8","","96.52","","","","","","Fog"
"-97.24","49.91","WINNIPEG INTL A","5023227","2021-10-14 08:00","2021","10","14","08:00","9.8","","9.8","","100","","","","25","","22","","3.2","","96.61","","","","","","Drizzle,Fog"
"-97.24","49.91","WINNIPEG INTL A","5023227","2021-10-14 09:00","2021","10","14","09:00","9.6","","9.6","","100","","","","27","","30","","4.8","","96.67","","","","","","Fog"
"-97.24","49.91","WINNIPEG INTL A","5023227","2021-10-14 10:00","2021","10","14","10:00","10.0","","10.0","","100","","","","27","","27","","16.1","","96.75","","","","","","NA"
"-97.24","49.91","WINNIPEG INTL A","5023227","2021-10-14 11:00","2021","10","14","11:00","10.0","","9.0","","93","","","","26","","26","","6.4","","96.84","","","","","","Drizzle,Fog"
"-97.24","49.91","WINNIPEG INTL A","5023227","2021-10-14 12:00","2021","10","14","12:00","10.6","","10.1","","96","","","","27","","24","","4.8","","96.92","","","","","","Drizzle,Fog"
"-97.24","49.91","WINNIPEG INTL A","5023227","2021-10-14 13:00","2021","10","14","13:00","10.4","","9.9","","97","","","","27","","23","","6.4","","96.97","","","","","","Drizzle,Fog"
"-97.24","49.91","WINNIPEG INTL A","5023227","2021-10-14 14:00","2021","10","14","14:00","10.2","","9.6","","96","","","","29","","26","","4.8","","97.02","","","","","","Drizzle,Fog"
"-97.24","49.91","WINNIPEG INTL A","5023227","2021-10-14 15:00","2021","10","14","15:00","10.3","","8.4","","88","","","","29","","27","","19.3","","97.12","","","","","","Cloudy"
"-97.24","49.91","WINNIPEG INTL A","5023227","2021-10-14 16:00","2021","10","14","16:00","9.2","","8.0","","92","","","","31","","24","","9.7","","97.24","","","","","","Drizzle,Fog"
"-97.24","49.91","WINNIPEG INTL A","5023227","2021-10-14 17:00","2021","10","14","17:00","8.8","","7.3","","90","","","","30","","18","","24.1","","97.33","","","","","","NA"
"-97.24","49.91","WINNIPEG INTL A","5023227","2021-10-14 18:00","2021","10","14","18:00","8.2","","6.3","","88","","","","29","","18","","24.1","","97.42","","","","","","Cloudy"
"-97.24","49.91","WINNIPEG INTL A","5023227","2021-10-14 19:00","2021","10","14","19:00","7.7","","5.9","","89","","","","27","","15","","24.1","","97.50","","","","","","NA"
"-97.24","49.91","WINNIPEG INTL A","5023227","2021-10-14 20:00","2021","10","14","20:00","7.4","","5.6","","88","","","","31","","17","","24.1","","97.57","","","","","","NA"
"-97.24","49.91","WINNIPEG INTL A","5023227","2021-10-14 21:00","2021","10","14","21:00","6.8","","5.5","","91","","","","29","","23","","9.7","","97.65","","","","","","Drizzle,Fog"
"-97.24","49.91","WINNIPEG INTL A","5023227","2021-10-14 22:00","2021","10","14","22:00","6.7","","5.5","","92","","","","26","","15","","24.1","","97.67","","","","","","NA"
"-97.24","49.91","WINNIPEG INTL A","5023227","2021-10-14 23:00","2021","10","14","23:00","6.6","","5.1","","90","","","","27","","16","","24.1","","97.71","","","","","","Drizzle"
"-97.24","49.91","WINNIPEG INTL A","5023227","2021-10-15 00:00","2021","10","15","00:00","6.2","","4.9","","91","","","","26","","19","","24.1","","97.73","","","","","","Mostly Cloudy"
"-97.24","49.91","WINNIPEG INTL A","5023227","2021-10-15 01:00","2021","10","15","01:00","5.8","","4.5","","91","","","","26","","19","","24.1","","97.78","","","","","","NA"
"-97.24","49.91","WINNIPEG INTL A","5023227","2021-10-15 02:00","2021","10","15","02:00","5.7","","4.7","","93","","","","26","","20","","24.1","","97.80","","","","","","NA"
"-97.24","49.91","WINNIPEG INTL A","5023227","2021-10-15 03:00","2021","10","15","03:00","5.4","","4.2","","92","","","","26","","18","","24.1","","97.83","","","","","","Mostly Cloudy"
"-97.24","49.91","WINNIPEG INTL A","5023227","2021-10-15 04:00","2021","10","15","04:00","5.3","","4.4","","94","","","","26","","18","","24.1","","97.84","","","","","","Drizzle"
"-97.24","49.91","WINNIPEG INTL A","5023227","2021-10-15 05:00","2021","10","15","05:00","5.2","","4.7","","96","","","","26","","15","","24.1","","97.86","","","","","","Drizzle"
"-97.24","49.91","WINNIPEG INTL A","5023227","2021-10-15 06:00","2021","10","15","06:00","5.4","","4.8","","96","","","","27","","18","","19.3","","97.88","","","","","","Rain"
"-97.24","49.91","WINNIPEG INTL A","5023227","2021-10-15 07:00","2021","10","15","07:00","5.3","","4.5","","94","","","","26","","21","","19.3","","97.92","","","","","","Rain"
"-97.24","49.91","WINNIPEG INTL A","5023227","2021-10-15 08:00","2021","10","15","08:00","5.5","","4.7","","95","","","","26","","19","","19.3","","97.95","","","","","","Rain"
"-97.24","49.91","WINNIPEG INTL A","5023227","2021-10-15 09:00","2021","10","15","09:00","6.2","","4.9","","91","","","","27","","21","","24.1","","97.96","","","","","","Cloudy"
"-97.24","49.91","WINNIPEG INTL A","5023227","2021-10-15 10:00","2021","10","15","10:00","6.5","","4.6","","88","","","","27","","24","","24.1","","97.99","","","","","","NA"
"-97.24","49.91","WINNIPEG INTL A","5023227","2021-10-15 11:00","2021","10","15","11:00","7.5","","4.7","","82","","","","28","","22","","24.1","","98.02","","","","","","Rain Showers"
"-97.24","49.91","WINNIPEG INTL A","5023227","2021-10-15 12:00","2021","10","15","12:00","7.5","","4.3","","80","","","","28","","21","","24.1","","98.03","","","","","","Rain Showers"
"-97.24","49.91","WINNIPEG INTL A","5023227","2021-10-15 13:00","2021","10","15","13:00","7.3","","3.4","","76","","","","28","","27","","24.1","","98.03","","","","","","NA"
"-97.24","49.91","WINNIPEG INTL A","5023227","2021-10-15 14:00","2021","10","15","14:00","7.6","","3.3","","74","","","","27","","19","","24.1","","98.05","","","","","","NA"
"-97.24","49.91","WINNIPEG INTL A","5023227","2021-10-15 15:00","2021","10","15","15:00","8.6","","3.0","","68","","","","29","","25","","24.1","","98.07","","","","","","Mostly Cloudy"
"-97.24","49.91","WINNIPEG INTL A","5023227","2021-10-15 16:00","2021","10","15","16:00","9.2","","2.6","","63","","","","28","","28","","24.1","","98.08","","","","","","NA"
"-97.24","49.91","WINNIPEG INTL A","5023227","2021-10-15 17:00","2021","10","15","17:00","8.3","","2.9","","69","","","","31","","15","","24.1","","98.12","","","","","","NA"
"-97.24","49.91","WINNIPEG INTL A","5023227","2021-10-15 18:00","2021","10","15","18:00","6.1","","2.5","","77","","","","26","","10","","24.1","","98.13","","","","","","Mainly Clear"
"-97.24","49.91","WINNIPEG INTL A","5023227","2021-10-15 19:00","2021","10","15","19:00","5.0","","1.3","","77","","","","25","","13","","24.1","","98.14","","","","","","NA"
"-97.24","49.91","WINNIPEG INTL A","5023227","2021-10-15 20:00","2021","10","15","20:00","5.1","","1.3","","76","","","","23","","13","","24.1","","98.15","","","","","","NA"
"-97.24","49.91","WINNIPEG INTL A","5023227","2021-10-15 21:00","2021","10","15","21:00","5.3","","0.9","","73","","","","25","","15","","24.1","","98.15","","","","","","Clear"
"-97.24","49.91","WINNIPEG INTL A","5023227","2021-10-15 22:00","2021","10","15","22:00","4.3","","0.6","","77","","","","26","","17","","24.1","","98.15","","","","","","NA"
"-97.24","49.91","WINNIPEG INTL A","5023227","2021-10-15 23:00","2021","10","15","23:00","3.1","","0.4","","82","","","","26","","17","","24.1","","98.17","","","","","","NA"
"-97.24","49.91","WINNIPEG INTL A","5023227","2021-10-16 00:00","2021","10","16","00:00","2.5","","0.2","","85","","","","26","","16","","24.1","","98.19","","","","","","Clear"
"-97.24","49.91","WINNIPEG INTL A","5023227","2021-10-16 01:00","2021","10","16","01:00","1.7","","-0.3","","87","","","","26","","14","","24.1","","98.23","","","","","","NA"
"-97.24","49.91","WINNIPEG INTL A","5023227","2021-10-16 02:00","2021","10","16","02:00","1.4","","-0.3","","88","","","","27","","16","","24.1","","98.26","","","","","","NA"
"-97.24","49.91","WINNIPEG INTL A","5023227","2021-10-16 03:00","2021","10","16","03:00","1.4","","-0.4","","88","","","","26","","16","","24.1","","98.26","","","","","","Clear"
"-97.24","49.91","WINNIPEG INTL A","5023227","2021-10-16 04:00","2021","10","16","04:00","1.2","","-0.5","","88","","","","26","","17","","24.1","","98.30","","","","","","NA"
"-97.24","49.91","WINNIPEG INTL A","5023227","2021-10-16 05:00","2021","10","16","05:00","1.4","","-0.5","","87","","","","26","","16","","24.1","","98.34","","","","","","NA"
"-97.24","49.91","WINNIPEG INTL A","5023227","2021-10-16 06:00","2021","10","16","06:00","1.0","","-0.8","","88","","","","26","","17","","24.1","","98.39","","","","","","Clear"
"-97.24","49.91","WINNIPEG INTL A","5023227","2021-10-16 07:00","2021","10","16","07:00","0.9","","-0.8","","89","","","","26","","17","","24.1","","98.42","","","","","","NA"
"-97.24","49.91","WINNIPEG INTL A","5023227","2021-10-16 08:00","2021","10","16","08:00","2.3","","0.0","","85","","","","27","","16","","24.1","","98.46","","","","","","NA"
"-97.24","49.91","WINNIPEG INTL A","5023227","2021-10-16 09:00","2021","10","16","09:00","5.4","","1.2","","74","","","","27","","17","","24.1","","98.45","","","","","","Clear"
"-97.24","49.91","WINNIPEG INTL A","5023227","2021-10-16 10:00","2021","10","16","10:00","8.2","","2.5","","67","","","","27","","20","","24.1","","98.48","","","","","","NA"
"-97.24","49.91","WINNIPEG INTL A","5023227","2021-10-16 11:00","2021","10","16","11:00","11.4","","3.7","","59","","","","26","","21","","24.1","","98.50","","","","","","NA"
"-97.24","49.91","WINNIPEG INTL A","5023227","2021-10-16 12:00","2021","10","16","12:00","13.4","","3.4","","50","","","","28","","23","","24.1","","98.51","","","","","","Clear"
"-97.24","49.91","WINNIPEG INTL A","5023227","2021-10-16 13:00","2021","10","16","13:00","15.1","","2.1","","41","","","","27","","26","","24.1","","98.50","","","","","","NA"
"-97.24","49.91","WINNIPEG INTL A","5023227","2021-10-16 14:00","2021","10","16","14:00","15.8","","1.3","","37","","","","28","","27","","19.3","","98.50","","","","","","NA"
"-97.24","49.91","WINNIPEG INTL A","5023227","2021-10-16 15:00","2021","10","16","15:00","16.3","","1.1","","36","","","","27","","24","","24.1","","98.50","","","","","","Clear"
"-97.24","49.91","WINNIPEG INTL A","5023227","2021-10-16 16:00","2021","10","16","16:00","15.9","","1.7","","38","","","","27","","19","","24.1","","98.53","","","","","","NA"
"-97.24","49.91","WINNIPEG INTL A","5023227","2021-10-16 17:00","2021","10","16","17:00","13.4","","2.3","","47","","","","26","","17","","24.1","","98.53","","","","","","NA"
"-97.24","49.91","WINNIPEG INTL A","5023227","2021-10-16 18:00","2021","10","16","18:00","10.8","","1.8","","54","","","","25","","14","","24.1","","98.55","","","","","","Clear"
"-97.24","49.91","WINNIPEG INTL A","5023227","2021-10-16 19:00","2021","10","16","19:00","9.3","","1.7","","59","","","","25","","14","","24.1","","98.59","","","","","","NA"
"-97.24","49.91","WINNIPEG INTL A","5023227","2021-10-16 20:00","2021","10","16","20:00","8.3","","1.4","","61","","","","25","","15","","24.1","","98.61","","","","","","NA"
"-97.24","49.91","WINNIPEG INTL A","5023227","2021-10-16 21:00","2021","10","16","21:00","7.3","","0.6","","63","","","","25","","13","","24.1","","98.64","","","","","","Clear"
"-97.24","49.91","WINNIPEG INTL A","5023227","2021-10-16 22:00","2021","10","16","22:00","3.7","","0.0","","77","","","","30","","5","","24.1","","98.65","","","","","","NA"
"-97.24","49.91","WINNIPEG INTL A","5023227","2021-10-16 23:00","2021","10","16","23:00","3.7","","0.6","","80","","","","26","","14","","24.1","","98.68","","","","","","NA"
"-97.24","49.91","WINNIPEG INTL A","5023227","2021-10-17 00:00","2021","10","17","00:00","4.5","","1.4","","80","","","","27","","16","","24.1","","98.69","","","","","","Clear"
"-97.24","49.91","WINNIPEG INTL A","5023227","2021-10-17 01:00","2021","10","17","01:00","2.6","","0.3","","85","","","","28","","9","","24.1","","98.72","","","","","","NA"
"-97.24","49.91","WINNIPEG INTL A","5023227","2021-10-17 02:00","2021","10","17","02:00","2.7","","0.3","","84","","","","26","","9","","24.1","","98.72","","","","","","NA"
"-97.24","49.91","WINNIPEG INTL A","5023227","2021-10-17 03:00","2021","10","17","03:00","3.8","","0.8","","80","","","","22","","6","","24.1","","98.68","","","","","","Clear"
"-97.24","49.91","WINNIPEG INTL A","5023227","2021-10-17 04:00","2021","10","17","04:00","3.0","","-0.3","","79","","","","21","","7","","24.1","","98.71","","","","","","NA"
"-97.24","49.91","WINNIPEG INTL A","5023227","2021-10-17 05:00","2021","10","17","05:00","1.9","","-0.2","","86","","","","21","","7","","24.1","","98.71","","","","","","NA"
"-97.24","49.91","WINNIPEG INTL A","5023227","2021-10-17 06:00","2021","10","17","06:00","0.6","","-0.9","","89","","","","18","","8","","24.1","","98.74","","","","","","Clear"
"-97.24","49.91","WINNIPEG INTL A","5023227","2021-10-17 07:00","2021","10","17","07:00","1.2","","-0.2","","90","","","","17","","14","","24.1","","98.72","","","","","","NA"
"-97.24","49.91","WINNIPEG INTL A","5023227","2021-10-17 08:00","2021","10","17","08:00","3.4","","1.3","","86","","","","15","","9","","24.1","","98.72","","","","","","NA"
"-97.24","49.91","WINNIPEG INTL A","5023227","2021-10-17 09:00","2021","10","17","09:00","7.8","","2.1","","67","","","","17","","13","","24.1","","98.72","","","","","","Clear"
"-97.24","49.91","WINNIPEG INTL A","5023227","2021-10-17 10:00","2021","10","17","10:00","11.4","","3.2","","57","","","","17","","15","","24.1","","98.70","","","","","","NA"
"-97.24","49.91","WINNIPEG INTL A","5023227","2021-10-17 11:00","2021","10","17","11:00","14.5","","4.1","","50","","","","16","","18","","24.1","","98.66","","","","","","NA"
"-97.24","49.91","WINNIPEG INTL A","5023227","2021-10-17 12:00","2021","10","17","12:00","17.1","","4.6","","43","","","","17","","23","","24.1","","98.62","","","","","","Clear"
"-97.24","49.91","WINNIPEG INTL A","5023227","2021-10-17 13:00","2021","10","17","13:00","18.4","","3.9","","38","","","","19","","32","","24.1","","98.53","","","","","","NA"
"-97.24","49.91","WINNIPEG INTL A","5023227","2021-10-17 14:00","2021","10","17","14:00","18.9","","4.8","","39","","","","17","","31","","24.1","","98.44","","","","","","NA"
"-97.24","49.91","WINNIPEG INTL A","5023227","2021-10-17 15:00","2021","10","17","15:00","18.7","","5.1","","40","","","","19","","35","","24.1","","98.39","","","","","","Mainly Clear"
"-97.24","49.91","WINNIPEG INTL A","5023227","2021-10-17 16:00","2021","10","17","16:00","18.2","","6.0","","44","","","","17","","34","","24.1","","98.33","","","","","","NA"
"-97.24","49.91","WINNIPEG INTL A","5023227","2021-10-17 17:00","2021","10","17","17:00","16.7","","7.0","","52","","","","18","","21","","24.1","","98.30","","","","","","NA"
"-97.24","49.91","WINNIPEG INTL A","5023227","2021-10-17 18:00","2021","10","17","18:00","15.2","","6.9","","57","","","","18","","25","","24.1","","98.28","","","","","","Mainly Clear"
"-97.24","49.91","WINNIPEG INTL A","5023227","2021-10-17 19:00","2021","10","17","19:00","14.4","","6.7","","60","","","","18","","24","","24.1","","98.26","","","","","","NA"
"-97.24","49.91","WINNIPEG INTL A","5023227","2021-10-17 20:00","2021","10","17","20:00","14.0","","7.0","","62","","","","18","","28","","24.1","","98.22","","","","","","NA"
"-97.24","49.91","WINNIPEG INTL A","5023227","2021-10-17 21:00","2021","10","17","21:00","13.3","","6.8","","64","","","","18","","27","","24.1","","98.19","","","","","","Clear"
"-97.24","49.91","WINNIPEG INTL A","5023227","2021-10-17 22:00","2021","10","17","22:00","12.0","","6.7","","70","","","","18","","25","","24.1","","98.17","","","","","","NA"
"-97.24","49.91","WINNIPEG INTL A","5023227","2021-10-17 23:00","2021","10","17","23:00","11.0","","6.8","","75","","","","19","","22","","24.1","","98.14","","","","","","NA"
"-97.24","49.91","WINNIPEG INTL A","5023227","2021-10-18 00:00","2021","10","18","00:00","10.6","","6.4","","75","","","","18","","22","","24.1","","98.14","","","","","","Clear"
"-97.24","49.91","WINNIPEG INTL A","5023227","2021-10-18 01:00","2021","10","18","01:00","9.6","","6.2","","79","","","","18","","18","","24.1","","98.16","","","","","","NA"
"-97.24","49.91","WINNIPEG INTL A","5023227","2021-10-18 02:00","2021","10","18","02:00","9.0","","6.1","","82","","","","18","","22","","24.1","","98.12","","","","","","NA"
"-97.24","49.91","WINNIPEG INTL A","5023227","2021-10-18 03:00","2021","10","18","03:00","8.5","","5.8","","83","","","","17","","19","","24.1","","98.11","","","","","","Clear"
"-97.24","49.91","WINNIPEG INTL A","5023227","2021-10-18 04:00","2021","10","18","04:00","8.0","","5.5","","84","","","","17","","19","","24.1","","98.08","","","","","","NA"
"-97.24","49.91","WINNIPEG INTL A","5023227","2021-10-18 05:00","2021","10","18","05:00","6.9","","5.0","","88","","","","17","","15","","24.1","","98.06","","","","","","NA"
"-97.24","49.91","WINNIPEG INTL A","5023227","2021-10-18 06:00","2021","10","18","06:00","8.7","","5.2","","79","","","","17","","20","","24.1","","97.99","","","","","","Clear"
"-97.24","49.91","WINNIPEG INTL A","5023227","2021-10-18 07:00","2021","10","18","07:00","8.7","","5.1","","78","","","","17","","20","","24.1","","97.96","","","","","","NA"
"-97.24","49.91","WINNIPEG INTL A","5023227","2021-10-18 08:00","2021","10","18","08:00","10.7","","5.4","","70","","","","17","","22","","24.1","","97.94","","","","","","NA"
"-97.24","49.91","WINNIPEG INTL A","5023227","2021-10-18 09:00","2021","10","18","09:00","13.0","","5.7","","61","","","","17","","25","","24.1","","97.91","","","","","","Mainly Clear"
"-97.24","49.91","WINNIPEG INTL A","5023227","2021-10-18 10:00","2021","10","18","10:00","15.6","","6.2","","53","","","","16","","27","","24.1","","97.86","","","","","","NA"
"-97.24","49.91","WINNIPEG INTL A","5023227","2021-10-18 11:00","2021","10","18","11:00","17.4","","6.6","","49","","","","17","","25","","24.1","","97.82","","","","","","NA"
"-97.24","49.91","WINNIPEG INTL A","5023227","2021-10-18 12:00","2021","10","18","12:00","19.1","","7.5","","47","","","","16","","24","","24.1","","97.73","","","","","","Mostly Cloudy"
"-97.24","49.91","WINNIPEG INTL A","5023227","2021-10-18 13:00","2021","10","18","13:00","20.6","","7.6","","43","","","","17","","30","","24.1","","97.64","","","","","","NA"
"-97.24","49.91","WINNIPEG INTL A","5023227","2021-10-18 14:00","2021","10","18","14:00","21.1","","8.4","","44","","","","17","","35","","24.1","","97.59","","","","","","NA"
"-97.24","49.91","WINNIPEG INTL A","5023227","2021-10-18 15:00","2021","10","18","15:00","21.4","","8.1","","42","","","","18","","37","","24.1","","97.54","","","","","","Mainly Clear"
"-97.24","49.91","WINNIPEG INTL A","5023227","2021-10-18 16:00","2021","10","18","16:00","20.9","","8.4","","44","","","","18","","33","","24.1","","97.50","","","","","","NA"
"-97.24","49.91","WINNIPEG INTL A","5023227","2021-10-18 17:00","2021","10","18","17:00","19.6","","8.2","","47","","","","18","","27","","24.1","","97.52","","","","","","NA"
"-97.24","49.91","WINNIPEG INTL A","5023227","2021-10-18 18:00","2021","10","18","18:00","17.1","","8.3","","56","","","","18","","15","","24.1","","97.55","","","","","","Mostly Cloudy"
"-97.24","49.91","WINNIPEG INTL A","5023227","2021-10-18 19:00","2021","10","18","19:00","14.9","","8.3","","64","","","","18","","12","","24.1","","97.59","","","","","","NA"
"-97.24","49.91","WINNIPEG INTL A","5023227","2021-10-18 20:00","2021","10","18","20:00","14.5","","8.2","","65","","","","19","","13","","24.1","","97.59","","","","","","NA"
"-97.24","49.91","WINNIPEG INTL A","5023227","2021-10-18 21:00","2021","10","18","21:00","11.2","","7.3","","77","","","","17","","14","","24.1","","97.62","","","","","","Mainly Clear"
"-97.24","49.91","WINNIPEG INTL A","5023227","2021-10-18 22:00","2021","10","18","22:00","10.4","","7.1","","80","","","","25","","4","","24.1","","97.68","","","","","","NA"
"-97.24","49.91","WINNIPEG INTL A","5023227","2021-10-18 23:00","2021","10","18","23:00","8.7","","5.8","","82","","","","25","","8","","24.1","","97.72","","","","","","NA"
"-97.24","49.91","WINNIPEG INTL A","5023227","2021-10-19 00:00","2021","10","19","00:00","8.6","","7.0","","90","","","","32","","15","","24.1","","97.79","","","","","","Mainly Clear"
"-97.24","49.91","WINNIPEG INTL A","5023227","2021-10-19 01:00","2021","10","19","01:00","10.6","","7.8","","83","","","","36","","26","","24.1","","98.00","","","","","","NA"
"-97.24","49.91","WINNIPEG INTL A","5023227","2021-10-19 02:00","2021","10","19","02:00","9.7","","7.0","","83","","","","36","","35","","24.1","","98.14","","","","","","NA"
"-97.24","49.91","WINNIPEG INTL A","5023227","2021-10-19 03:00","2021","10","19","03:00","9.3","","6.3","","82","","","","36","","30","","24.1","","98.25","","","","","","Cloudy"
"-97.24","49.91","WINNIPEG INTL A","5023227","2021-10-19 04:00","2021","10","19","04:00","8.3","","5.4","","82","","","","35","","41","","24.1","","98.38","","","","","","NA"
"-97.24","49.91","WINNIPEG INTL A","5023227","2021-10-19 05:00","2021","10","19","05:00","8.0","","4.8","","80","","","","35","","43","","24.1","","98.50","","","","","","NA"
"-97.24","49.91","WINNIPEG INTL A","5023227","2021-10-19 06:00","2021","10","19","06:00","7.6","","4.5","","81","","","","35","","30","","24.1","","98.61","","","","","","Cloudy"
"-97.24","49.91","WINNIPEG INTL A","5023227","2021-10-19 07:00","2021","10","19","07:00","7.4","","3.9","","78","","","","36","","34","","24.1","","98.69","","","","","","NA"
"-97.24","49.91","WINNIPEG INTL A","5023227","2021-10-19 08:00","2021","10","19","08:00","6.6","","3.0","","77","","","","35","","35","","24.1","","98.82","","","","","","NA"
"-97.24","49.91","WINNIPEG INTL A","5023227","2021-10-19 09:00","2021","10","19","09:00","6.2","","2.5","","77","","","","36","","33","","24.1","","98.95","","","","","","Cloudy"
"-97.24","49.91","WINNIPEG INTL A","5023227","2021-10-19 10:00","2021","10","19","10:00","5.9","","1.1","","71","","","","36","","38","","24.1","","99.06","","","","","","NA"
"-97.24","49.91","WINNIPEG INTL A","5023227","2021-10-19 11:00","2021","10","19","11:00","6.5","","1.3","","70","","","","1","","32","","24.1","","99.08","","","","","","NA"
"-97.24","49.91","WINNIPEG INTL A","5023227","2021-10-19 12:00","2021","10","19","12:00","7.0","","1.0","","66","","","","1","","43","","24.1","","99.13","","","","","","Mostly Cloudy"
"-97.24","49.91","WINNIPEG INTL A","5023227","2021-10-19 13:00","2021","10","19","13:00","7.5","","1.1","","64","","","","1","","36","","24.1","","99.20","","","","","","NA"
"-97.24","49.91","WINNIPEG INTL A","5023227","2021-10-19 14:00","2021","10","19","14:00","7.8","","0.8","","61","","","","2","","40","","24.1","","99.24","","","","","","NA"
"-97.24","49.91","WINNIPEG INTL A","5023227","2021-10-19 15:00","2021","10","19","15:00","7.9","","0.2","","58","","","","2","","38","","24.1","","99.33","","","","","","Mostly Cloudy"
"-97.24","49.91","WINNIPEG INTL A","5023227","2021-10-19 16:00","2021","10","19","16:00","7.8","","0.0","","58","","","","3","","30","","24.1","","99.37","","","","","","NA"
"-97.24","49.91","WINNIPEG INTL A","5023227","2021-10-19 17:00","2021","10","19","17:00","6.6","","-0.5","","61","","","","1","","28","","24.1","","99.45","","","","","","NA"
"-97.24","49.91","WINNIPEG INTL A","5023227","2021-10-19 18:00","2021","10","19","18:00","5.3","","-1.5","","61","","","","1","","25","","24.1","","99.52","","","","","","Mostly Cloudy"
"-97.24","49.91","WINNIPEG INTL A","5023227","2021-10-19 19:00","2021","10","19","19:00","4.5","","-1.1","","67","","","","1","","25","","24.1","","99.58","","","","","","NA"
"-97.24","49.91","WINNIPEG INTL A","5023227","2021-10-19 20:00","2021","10","19","20:00","3.4","","-1.8","","68","","","","1","","24","","24.1","","99.65","","","","","","NA"
"-97.24","49.91","WINNIPEG INTL A","5023227","2021-10-19 21:00","2021","10","19","21:00","2.4","","-2.1","","73","","","","2","","21","","24.1","","99.71","","","","","","Mainly Clear"
"-97.24","49.91","WINNIPEG INTL A","5023227","2021-10-19 22:00","2021","10","19","22:00","1.4","","-2.2","","77","","","","2","","18","","24.1","","99.74","","","","","","NA"
"-97.24","49.91","WINNIPEG INTL A","5023227","2021-10-19 23:00","2021","10","19","23:00","0.0","","-2.5","","83","","","","1","","11","","24.1","","99.77","","","","-4","","NA"
"-97.24","49.91","WINNIPEG INTL A","5023227","2021-10-20 00:00","2021","10","20","00:00","-0.6","","-2.6","","86","","","","1","","14","","24.1","","99.77","","","","-5","","Clear"
"-97.24","49.91","WINNIPEG INTL A","5023227","2021-10-20 01:00","2021","10","20","01:00","-1.5","","-3.3","","87","","","","4","","8","","24.1","","99.79","","","","-5","","NA"
"-97.24","49.91","WINNIPEG INTL A","5023227","2021-10-20 02:00","2021","10","20","02:00","-1.4","","-3.3","","87","","","","2","","12","","24.1","","99.80","","","","-5","","NA"
"-97.24","49.91","WINNIPEG INTL A","5023227","2021-10-20 03:00","2021","10","20","03:00","-2.2","","-3.8","","89","","","","2","","8","","24.1","","99.82","","","","-5","","Clear"
"-97.24","49.91","WINNIPEG INTL A","5023227","2021-10-20 04:00","2021","10","20","04:00","-3.8","","-4.9","","92","","","","36","","11","","24.1","","99.87","","","","-8","","NA"
"-97.24","49.91","WINNIPEG INTL A","5023227","2021-10-20 05:00","2021","10","20","05:00","-1.9","","-4.2","","85","","","","3","","16","","24.1","","99.86","","","","-7","","NA"
"-97.24","49.91","WINNIPEG INTL A","5023227","2021-10-20 06:00","2021","10","20","06:00","-3.1","","-4.9","","87","","","","3","","7","","24.1","","99.83","","","","-6","","Mainly Clear"
"-97.24","49.91","WINNIPEG INTL A","5023227","2021-10-20 07:00","2021","10","20","07:00","-3.7","","-5.0","","90","","","","36","","10","","24.1","","99.83","","","","-8","","NA"
"-97.24","49.91","WINNIPEG INTL A","5023227","2021-10-20 08:00","2021","10","20","08:00","-2.6","","-4.2","","89","","","","36","","8","","24.1","","99.83","","","","-6","","NA"
"-97.24","49.91","WINNIPEG INTL A","5023227","2021-10-20 09:00","2021","10","20","09:00","1.0","","-2.9","","75","","","","4","","14","","24.1","","99.81","","","","","","Mostly Cloudy"
"-97.24","49.91","WINNIPEG INTL A","5023227","2021-10-20 10:00","2021","10","20","10:00","3.9","","-3.0","","61","","","","5","","20","","24.1","","99.81","","","","","","NA"
"-97.24","49.91","WINNIPEG INTL A","5023227","2021-10-20 11:00","2021","10","20","11:00","5.6","","-1.3","","61","","","","36","","22","","24.1","","99.78","","","","","","NA"
"-97.24","49.91","WINNIPEG INTL A","5023227","2021-10-20 12:00","2021","10","20","12:00","5.5","","-1.4","","61","","","","1","","26","","24.1","","99.73","","","","","","Mostly Cloudy"
"-97.24","49.91","WINNIPEG INTL A","5023227","2021-10-20 13:00","2021","10","20","13:00","5.8","","-2.5","","55","","","","4","","30","","24.1","","99.64","","","","","","NA"
"-97.24","49.91","WINNIPEG INTL A","5023227","2021-10-20 14:00","2021","10","20","14:00","5.9","","-3.1","","52","","","","3","","29","","24.1","","99.58","","","","","","NA"
"-97.24","49.91","WINNIPEG INTL A","5023227","2021-10-20 15:00","2021","10","20","15:00","5.9","","-3.3","","51","","","","2","","25","","24.1","","99.53","","","","","","Mainly Clear"
"-97.24","49.91","WINNIPEG INTL A","5023227","2021-10-20 16:00","2021","10","20","16:00","5.2","","-3.5","","53","","","","3","","27","","24.1","","99.49","","","","","","NA"
"-97.24","49.91","WINNIPEG INTL A","5023227","2021-10-20 17:00","2021","10","20","17:00","3.9","","-2.9","","61","","","","3","","16","","24.1","","99.49","","","","","","NA"
"-97.24","49.91","WINNIPEG INTL A","5023227","2021-10-20 18:00","2021","10","20","18:00","2.3","","-2.5","","70","","","","3","","17","","24.1","","99.48","","","","","","Mainly Clear"
"-97.24","49.91","WINNIPEG INTL A","5023227","2021-10-20 19:00","2021","10","20","19:00","0.9","","-3.4","","73","","","","1","","16","","24.1","","99.48","","","","","","NA"
"-97.24","49.91","WINNIPEG INTL A","5023227","2021-10-20 20:00","2021","10","20","20:00","1.0","","-3.0","","75","","","","1","","18","","24.1","","99.49","","","","","","NA"
"-97.24","49.91","WINNIPEG INTL A","5023227","2021-10-20 21:00","2021","10","20","21:00","-0.2","","-3.2","","80","","","","34","","12","","24.1","","99.53","","","","-4","","Mostly Cloudy"
"-97.24","49.91","WINNIPEG INTL A","5023227","2021-10-20 22:00","2021","10","20","22:00","0.4","","-2.6","","80","","","","33","","14","","24.1","","99.53","","","","","","NA"
"-97.24","49.91","WINNIPEG INTL A","5023227","2021-10-20 23:00","2021","10","20","23:00","0.3","","-2.9","","79","","","","33","","17","","24.1","","99.49","","","","","","NA"
"-97.24","49.91","WINNIPEG INTL A","5023227","2021-10-21 00:00","2021","10","21","00:00","-0.5","","-3.2","","82","","","","36","","12","","24.1","","99.49","","","","-4","","Mainly Clear"
"-97.24","49.91","WINNIPEG INTL A","5023227","2021-10-21 01:00","2021","10","21","01:00","-2.4","","-3.9","","89","","","","36","","9","","24.1","","99.49","","","","-6","","NA"
"-97.24","49.91","WINNIPEG INTL A","5023227","2021-10-21 02:00","2021","10","21","02:00","-3.8","","-5.1","","91","","","","36","","7","","24.1","","99.50","","","","-7","","NA"
"-97.24","49.91","WINNIPEG INTL A","5023227","2021-10-21 03:00","2021","10","21","03:00","-5.8","","-6.6","","94","","","","32","","9","","24.1","","99.52","","","","-10","","Clear"
"-97.24","49.91","WINNIPEG INTL A","5023227","2021-10-21 04:00","2021","10","21","04:00","-7.0","","-7.9","","93","","","","31","","9","","24.1","","99.55","","","","-11","","NA"
"-97.24","49.91","WINNIPEG INTL A","5023227","2021-10-21 05:00","2021","10","21","05:00","-7.0","","-7.9","","93","","","","32","","9","","24.1","","99.57","","","","-11","","NA"
"-97.24","49.91","WINNIPEG INTL A","5023227","2021-10-21 06:00","2021","10","21","06:00","-6.5","","-7.2","","95","","","","30","","9","","24.1","","99.56","","","","-11","","Clear"
"-97.24","49.91","WINNIPEG INTL A","5023227","2021-10-21 07:00","2021","10","21","07:00","-6.4","","-7.5","","92","","","","28","","9","","24.1","","99.57","","","","-11","","NA"
"-97.24","49.91","WINNIPEG INTL A","5023227","2021-10-21 08:00","2021","10","21","08:00","-4.7","","-5.2","","96","","","","29","","11","","24.1","","99.59","","","","-9","","NA"
"-97.24","49.91","WINNIPEG INTL A","5023227","2021-10-21 09:00","2021","10","21","09:00","-1.8","","-2.7","","94","","","","28","","5","","24.1","","99.63","","","","-4","","Mainly Clear"
"-97.24","49.91","WINNIPEG INTL A","5023227","2021-10-21 10:00","2021","10","21","10:00","3.3","","-1.3","","72","","","","29","","8","","24.1","","99.62","","","","","","NA"
"-97.24","49.91","WINNIPEG INTL A","5023227","2021-10-21 11:00","2021","10","21","11:00","5.1","","-4.4","","50","","","","1","","16","","24.1","","99.59","","","","","","NA"
"-97.24","49.91","WINNIPEG INTL A","5023227","2021-10-21 12:00","2021","10","21","12:00","5.7","","-3.6","","51","","","","2","","15","","24.1","","99.56","","","","","","Mostly Cloudy"
"-97.24","49.91","WINNIPEG INTL A","5023227","2021-10-21 13:00","2021","10","21","13:00","6.3","","-4.1","","47","","","","2","","13","","24.1","","99.50","","","","","","NA"
"-97.24","49.91","WINNIPEG INTL A","5023227","2021-10-21 14:00","2021","10","21","14:00","6.9","","-4.1","","45","","","","32","","8","","24.1","","99.47","","","","","","NA"
"-97.24","49.91","WINNIPEG INTL A","5023227","2021-10-21 15:00","2021","10","21","15:00","7.3","","-4.4","","43","","","","36","","5","","24.1","","99.42","","","","","","Mainly Clear"
"-97.24","49.91","WINNIPEG INTL A","5023227","2021-10-21 16:00","2021","10","21","16:00","7.2","","-3.9","","45","","","","33","","16","","24.1","","99.42","","","","","","NA"
"-97.24","49.91","WINNIPEG INTL A","5023227","2021-10-21 17:00","2021","10","21","17:00","4.9","","-3.6","","54","","","","33","","9","","24.1","","99.41","","","","","","NA"
"-97.24","49.91","WINNIPEG INTL A","5023227","2021-10-21 18:00","2021","10","21","18:00","2.1","","-2.4","","72","","","","3","","14","","24.1","","99.41","","","","","","Mainly Clear"
"-97.24","49.91","WINNIPEG INTL A","5023227","2021-10-21 19:00","2021","10","21","19:00","0.7","","-2.8","","77","","","","4","","13","","24.1","","99.41","","","","","","NA"
"-97.24","49.91","WINNIPEG INTL A","5023227","2021-10-21 20:00","2021","10","21","20:00","-0.5","","-2.8","","85","","","","5","","6","","24.1","","99.38","","","","-3","","NA"
"-97.24","49.91","WINNIPEG INTL A","5023227","2021-10-21 21:00","2021","10","21","21:00","-2.5","","-3.8","","91","","","","1","","4","","24.1","","99.38","","","","-4","","Mainly Clear"
"-97.24","49.91","WINNIPEG INTL A","5023227","2021-10-21 22:00","2021","10","21","22:00","-4.3","","-5.1","","94","","","","36","","5","","24.1","","99.38","","","","-6","","NA"
"-97.24","49.91","WINNIPEG INTL A","5023227","2021-10-21 23:00","2021","10","21","23:00","-4.7","","-5.1","","97","","","","2","","7","","24.1","","99.38","","","","-8","","NA"
"-97.24","49.91","WINNIPEG INTL A","5023227","2021-10-22 00:00","2021","10","22","00:00","-3.8","","-4.5","","95","","","","33","","7","","24.1","","99.38","","","","-7","","Mostly Cloudy"
"-97.24","49.91","WINNIPEG INTL A","5023227","2021-10-22 01:00","2021","10","22","01:00","-3.5","","-4.0","","96","","","","32","","6","","24.1","","99.37","","","","-6","","NA"
"-97.24","49.91","WINNIPEG INTL A","5023227","2021-10-22 02:00","2021","10","22","02:00","-4.6","","-4.8","","99","","","","4","","3","","24.1","","99.34","","","","-6","","NA"
"-97.24","49.91","WINNIPEG INTL A","5023227","2021-10-22 03:00","2021","10","22","03:00","-4.5","","-5.1","","96","","","","33","","7","","24.1","","99.33","","","","-8","","Mostly Cloudy"
"-97.24","49.91","WINNIPEG INTL A","5023227","2021-10-22 04:00","2021","10","22","04:00","-3.0","","-3.8","","94","","","","35","","7","","24.1","","99.34","","","","-6","","NA"
"-97.24","49.91","WINNIPEG INTL A","5023227","2021-10-22 05:00","2021","10","22","05:00","-2.4","","-3.2","","94","","","","35","","5","","24.1","","99.37","","","","-4","","NA"
"-97.24","49.91","WINNIPEG INTL A","5023227","2021-10-22 06:00","2021","10","22","06:00","-1.4","","-2.5","","92","","","","35","","3","","24.1","","99.33","","","","-2","","Cloudy"
"-97.24","49.91","WINNIPEG INTL A","5023227","2021-10-22 07:00","2021","10","22","07:00","-0.8","","-1.6","","95","","","","32","","7","","24.1","","99.32","","","","-3","","NA"
"-97.24","49.91","WINNIPEG INTL A","5023227","2021-10-22 08:00","2021","10","22","08:00","0.1","","-0.5","","96","","","","32","","7","","24.1","","99.34","","","","","","NA"
"-97.24","49.91","WINNIPEG INTL A","5023227","2021-10-22 09:00","2021","10","22","09:00","1.7","","-0.2","","88","","","","31","","4","","24.1","","99.39","","","","","","Cloudy"
"-97.24","49.91","WINNIPEG INTL A","5023227","2021-10-22 10:00","2021","10","22","10:00","2.8","","0.5","","85","","","","35","","5","","24.1","","99.40","","","","","","NA"
"-97.24","49.91","WINNIPEG INTL A","5023227","2021-10-22 11:00","2021","10","22","11:00","3.4","","0.7","","83","","","","2","","7","","24.1","","99.39","","","","","","NA"
"-97.24","49.91","WINNIPEG INTL A","5023227","2021-10-22 12:00","2021","10","22","12:00","3.4","","0.0","","78","","","","5","","10","","24.1","","99.36","","","","","","Rain"
"-97.24","49.91","WINNIPEG INTL A","5023227","2021-10-22 13:00","2021","10","22","13:00","4.5","","0.4","","75","","","","34","","8","","24.1","","99.31","","","","","","NA"
"-97.24","49.91","WINNIPEG INTL A","5023227","2021-10-22 14:00","2021","10","22","14:00","4.9","","0.0","","71","","","","3","","12","","24.1","","99.28","","","","","","NA"
"-97.24","49.91","WINNIPEG INTL A","5023227","2021-10-22 15:00","2021","10","22","15:00","4.6","","0.4","","74","","","","1","","16","","24.1","","99.27","","","","","","Cloudy"
"-97.24","49.91","WINNIPEG INTL A","5023227","2021-10-22 16:00","2021","10","22","16:00","4.4","","1.2","","79","","","","2","","18","","24.1","","99.26","","","","","","NA"
"-97.24","49.91","WINNIPEG INTL A","5023227","2021-10-22 17:00","2021","10","22","17:00","4.4","","1.4","","81","","","","2","","16","","24.1","","99.27","","","","","","NA"
"-97.24","49.91","WINNIPEG INTL A","5023227","2021-10-22 18:00","2021","10","22","18:00","4.4","","1.1","","79","","","","3","","15","","24.1","","99.28","","","","","","Cloudy"
"-97.24","49.91","WINNIPEG INTL A","5023227","2021-10-22 19:00","2021","10","22","19:00","4.2","","1.0","","80","","","","2","","14","","24.1","","99.28","","","","","","NA"
"-97.24","49.91","WINNIPEG INTL A","5023227","2021-10-22 20:00","2021","10","22","20:00","4.0","","0.3","","77","","","","5","","10","","24.1","","99.26","","","","","","NA"
"-97.24","49.91","WINNIPEG INTL A","5023227","2021-10-22 21:00","2021","10","22","21:00","3.8","","-0.1","","75","","","","5","","13","","24.1","","99.29","","","","","","Cloudy"
"-97.24","49.91","WINNIPEG INTL A","5023227","2021-10-22 22:00","2021","10","22","22:00","3.5","","-0.4","","75","","","","7","","7","","24.1","","99.30","","","","","","NA"
"-97.24","49.91","WINNIPEG INTL A","5023227","2021-10-22 23:00","2021","10","22","23:00","3.6","","-0.6","","74","","","","8","","4","","24.1","","99.28","","","","","","NA"
"-97.24","49.91","WINNIPEG INTL A","5023227","2021-10-23 00:00","2021","10","23","00:00","3.5","","-0.2","","77","","","","12","","7","","24.1","","99.25","","","","","","Cloudy"
"-97.24","49.91","WINNIPEG INTL A","5023227","2021-10-23 01:00","2021","10","23","01:00","3.1","","0.3","","81","","","","36","","4","","24.1","","99.26","","","","","","NA"
"-97.24","49.91","WINNIPEG INTL A","5023227","2021-10-23 02:00","2021","10","23","02:00","2.9","","0.4","","83","","","","32","","4","","24.1","","99.26","","","","","","NA"
"-97.24","49.91","WINNIPEG INTL A","5023227","2021-10-23 03:00","2021","10","23","03:00","3.0","","0.5","","84","","","","2","","4","","24.1","","99.24","","","","","","Cloudy"
"-97.24","49.91","WINNIPEG INTL A","5023227","2021-10-23 04:00","2021","10","23","04:00","3.2","","0.3","","81","","","","5","","5","","24.1","","99.24","","","","","","NA"
"-97.24","49.91","WINNIPEG INTL A","5023227","2021-10-23 05:00","2021","10","23","05:00","3.2","","0.4","","81","","","","5","","5","","24.1","","99.24","","","","","","NA"
"-97.24","49.91","WINNIPEG INTL A","5023227","2021-10-23 06:00","2021","10","23","06:00","3.7","","-0.2","","75","","","","5","","8","","24.1","","99.23","","","","","","Mostly Cloudy"
"-97.24","49.91","WINNIPEG INTL A","5023227","2021-10-23 07:00","2021","10","23","07:00","3.5","","0.8","","82","","","","12","","7","","24.1","","99.24","","","","","","NA"
"-97.24","49.91","WINNIPEG INTL A","5023227","2021-10-23 08:00","2021","10","23","08:00","3.8","","0.7","","81","","","","12","","7","","24.1","","99.25","","","","","","NA"
"-97.24","49.91","WINNIPEG INTL A","5023227","2021-10-23 09:00","2021","10","23","09:00","3.9","","0.2","","77","","","","14","","12","","24.1","","99.27","","","","","","Cloudy"
"-97.24","49.91","WINNIPEG INTL A","5023227","2021-10-23 10:00","2021","10","23","10:00","4.1","","-0.5","","72","","","","13","","10","","24.1","","99.26","","","","","","NA"
"-97.24","49.91","WINNIPEG INTL A","5023227","2021-10-23 11:00","2021","10","23","11:00","4.0","","-0.8","","71","","","","10","","10","","24.1","","99.22","","","","","","NA"
"-97.24","49.91","WINNIPEG INTL A","5023227","2021-10-23 12:00","2021","10","23","12:00","5.0","","-0.1","","70","","","","8","","10","","24.1","","99.19","","","","","","Mostly Cloudy"
"-97.24","49.91","WINNIPEG INTL A","5023227","2021-10-23 13:00","2021","10","23","13:00","4.9","","-0.8","","67","","","","8","","10","","24.1","","99.15","","","","","","NA"
"-97.24","49.91","WINNIPEG INTL A","5023227","2021-10-23 14:00","2021","10","23","14:00","5.6","","-0.5","","65","","","","8","","11","","24.1","","99.09","","","","","","NA"
"-97.24","49.91","WINNIPEG INTL A","5023227","2021-10-23 15:00","2021","10","23","15:00","5.4","","-1.3","","62","","","","13","","4","","24.1","","99.05","","","","","","Cloudy"
"-97.24","49.91","WINNIPEG INTL A","5023227","2021-10-23 16:00","2021","10","23","16:00","5.5","","-1.2","","62","","","","7","","11","","24.1","","99.02","","","","","","NA"
"-97.24","49.91","WINNIPEG INTL A","5023227","2021-10-23 17:00","2021","10","23","17:00","5.4","","-0.9","","64","","","","8","","10","","24.1","","98.99","","","","","","NA"
"-97.24","49.91","WINNIPEG INTL A","5023227","2021-10-23 18:00","2021","10","23","18:00","4.8","","-0.3","","69","","","","8","","9","","24.1","","99.00","","","","","","Cloudy"
"-97.24","49.91","WINNIPEG INTL A","5023227","2021-10-23 19:00","2021","10","23","19:00","4.2","","-0.9","","69","","","","7","","13","","24.1","","98.99","","","","","","NA"
"-97.24","49.91","WINNIPEG INTL A","5023227","2021-10-23 20:00","2021","10","23","20:00","3.8","","-0.9","","71","","","","7","","11","","24.1","","98.99","","","","","","NA"
"-97.24","49.91","WINNIPEG INTL A","5023227","2021-10-23 21:00","2021","10","23","21:00","1.5","","-2.1","","77","","","","7","","9","","24.1","","99.00","","","","","","Mainly Clear"
"-97.24","49.91","WINNIPEG INTL A","5023227","2021-10-23 22:00","2021","10","23","22:00","0.3","","-2.8","","80","","","","6","","10","","24.1","","99.02","","","","","","NA"
"-97.24","49.91","WINNIPEG INTL A","5023227","2021-10-23 23:00","2021","10","23","23:00","-0.6","","-3.0","","84","","","","8","","10","","24.1","","99.03","","","","-4","","NA"
"-97.24","49.91","WINNIPEG INTL A","5023227","2021-10-24 00:00","2021","10","24","00:00","-0.5","","-2.6","","85","","","","10","","9","","24.1","","99.03","","","","-4","","Clear"
"-97.24","49.91","WINNIPEG INTL A","5023227","2021-10-24 01:00","2021","10","24","01:00","-0.9","","-3.1","","85","","","","9","","12","","24.1","","99.01","","","","-5","","NA"
"-97.24","49.91","WINNIPEG INTL A","5023227","2021-10-24 02:00","2021","10","24","02:00","-1.0","","-3.1","","86","","","","9","","13","","24.1","","98.99","","","","-5","","NA"
"-97.24","49.91","WINNIPEG INTL A","5023227","2021-10-24 03:00","2021","10","24","03:00","-1.4","","-3.2","","87","","","","9","","13","","24.1","","98.97","","","","-6","","Clear"
"-97.24","49.91","WINNIPEG INTL A","5023227","2021-10-24 04:00","2021","10","24","04:00","-1.9","","-3.6","","88","","","","8","","10","","24.1","","98.97","","","","-6","","NA"
"-97.24","49.91","WINNIPEG INTL A","5023227","2021-10-24 05:00","2021","10","24","05:00","-3.0","","-4.2","","92","","","","7","","11","","24.1","","98.96","","","","-7","","NA"
"-97.24","49.91","WINNIPEG INTL A","5023227","2021-10-24 06:00","2021","10","24","06:00","-3.2","","-3.8","","95","","","","6","","10","","24.1","","98.98","","","","-7","","Mainly Clear"
"-97.24","49.91","WINNIPEG INTL A","5023227","2021-10-24 07:00","2021","10","24","07:00","-3.5","","-4.1","","95","","","","5","","10","","24.1","","99.00","","","","-7","","NA"
"-97.24","49.91","WINNIPEG INTL A","5023227","2021-10-24 08:00","2021","10","24","08:00","-2.0","","-2.7","","95","","","","7","","6","","24.1","","99.05","","","","-4","","NA"
"-97.24","49.91","WINNIPEG INTL A","5023227","2021-10-24 09:00","2021","10","24","09:00","1.7","","-0.2","","87","","","","7","","8","","24.1","","99.09","","","","","","Mostly Cloudy"
"-97.24","49.91","WINNIPEG INTL A","5023227","2021-10-24 10:00","2021","10","24","10:00","4.3","","0.4","","76","","","","12","","8","","24.1","","99.12","","","","","","NA"
"-97.24","49.91","WINNIPEG INTL A","5023227","2021-10-24 11:00","2021","10","24","11:00","5.3","","0.2","","70","","","","13","","11","","24.1","","99.17","","","","","","NA"
"-97.24","49.91","WINNIPEG INTL A","5023227","2021-10-24 12:00","2021","10","24","12:00","5.4","","-0.9","","64","","","","10","","7","","24.1","","99.15","","","","","","Cloudy"
"-97.24","49.91","WINNIPEG INTL A","5023227","2021-10-24 13:00","2021","10","24","13:00","5.5","","-0.9","","63","","","","11","","4","","24.1","","99.13","","","","","","NA"
"-97.24","49.91","WINNIPEG INTL A","5023227","2021-10-24 14:00","2021","10","24","14:00","5.8","","-0.9","","62","","","","10","","9","","24.1","","99.11","","","","","","NA"
"-97.24","49.91","WINNIPEG INTL A","5023227","2021-10-24 15:00","2021","10","24","15:00","6.2","","-0.6","","62","","","","11","","9","","24.1","","99.13","","","","","","Cloudy"
"-97.24","49.91","WINNIPEG INTL A","5023227","2021-10-24 16:00","2021","10","24","16:00","6.0","","-0.1","","65","","","","13","","9","","24.1","","99.16","","","","","","NA"
"-97.24","49.91","WINNIPEG INTL A","5023227","2021-10-24 17:00","2021","10","24","17:00","5.7","","0.2","","67","","","","12","","13","","24.1","","99.17","","","","","","NA"
"-97.24","49.91","WINNIPEG INTL A","5023227","2021-10-24 18:00","2021","10","24","18:00","5.3","","0.0","","69","","","","8","","12","","24.1","","99.18","","","","","","Cloudy"
"-97.24","49.91","WINNIPEG INTL A","5023227","2021-10-24 19:00","2021","10","24","19:00","5.1","","0.1","","70","","","","8","","14","","24.1","","99.18","","","","","","NA"
"-97.24","49.91","WINNIPEG INTL A","5023227","2021-10-24 20:00","2021","10","24","20:00","4.3","","-0.4","","71","","","","10","","13","","24.1","","99.19","","","","","","NA"
"-97.24","49.91","WINNIPEG INTL A","5023227","2021-10-24 21:00","2021","10","24","21:00","3.5","","-1.1","","72","","","","9","","13","","24.1","","99.25","","","","","","Cloudy"
"-97.24","49.91","WINNIPEG INTL A","5023227","2021-10-24 22:00","2021","10","24","22:00","1.1","","-2.5","","77","","","","10","","11","","24.1","","99.28","","","","","","NA"
"-97.24","49.91","WINNIPEG INTL A","5023227","2021-10-24 23:00","2021","10","24","23:00","-0.4","","-3.1","","82","","","","11","","12","","24.1","","99.30","","","","-4","","NA"
"-97.24","49.91","WINNIPEG INTL A","5023227","2021-10-25 00:00","2021","10","25","00:00","-1.9","","-3.8","","87","","","","8","","10","","24.1","","99.31","","","","-6","","Clear"
"-97.24","49.91","WINNIPEG INTL A","5023227","2021-10-25 01:00","2021","10","25","01:00","0.9","","-1.8","","82","","","","13","","13","","24.1","","99.35","","","","","","NA"
"-97.24","49.91","WINNIPEG INTL A","5023227","2021-10-25 02:00","2021","10","25","02:00","0.0","","-1.8","","88","","","","13","","13","","24.1","","99.38","","","","-4","","NA"
"-97.24","49.91","WINNIPEG INTL A","5023227","2021-10-25 03:00","2021","10","25","03:00","0.5","","-1.8","","84","","","","13","","16","","24.1","","99.30","","","","","","Clear"
"-97.24","49.91","WINNIPEG INTL A","5023227","2021-10-25 04:00","2021","10","25","04:00","0.4","","-2.0","","84","","","","14","","18","","24.1","","99.29","","","","","","NA"
"-97.24","49.91","WINNIPEG INTL A","5023227","2021-10-25 05:00","2021","10","25","05:00","-0.6","","-2.5","","87","","","","15","","11","","24.1","","99.31","","","","-4","","NA"
"-97.24","49.91","WINNIPEG INTL A","5023227","2021-10-25 06:00","2021","10","25","06:00","-1.0","","-2.9","","87","","","","16","","11","","24.1","","99.32","","","","-5","","Clear"
"-97.24","49.91","WINNIPEG INTL A","5023227","2021-10-25 07:00","2021","10","25","07:00","-1.5","","-3.1","","89","","","","14","","11","","24.1","","99.32","","","","-5","","NA"
"-97.24","49.91","WINNIPEG INTL A","5023227","2021-10-25 08:00","2021","10","25","08:00","0.7","","-1.8","","83","","","","14","","15","","24.1","","99.34","","","","","","NA"
"-97.24","49.91","WINNIPEG INTL A","5023227","2021-10-25 09:00","2021","10","25","09:00","3.2","","-0.8","","75","","","","15","","22","","24.1","","99.33","","","","","","Mainly Clear"
"-97.24","49.91","WINNIPEG INTL A","5023227","2021-10-25 10:00","2021","10","25","10:00","5.0","","0.2","","71","","","","15","","25","","24.1","","99.34","","","","","","NA"
"-97.24","49.91","WINNIPEG INTL A","5023227","2021-10-25 11:00","2021","10","25","11:00","7.7","","0.7","","61","","","","15","","24","","24.1","","99.26","","","","","","NA"
"-97.24","49.91","WINNIPEG INTL A","5023227","2021-10-25 12:00","2021","10","25","12:00","8.7","","0.5","","56","","","","16","","30","","24.1","","99.23","","","","","","Mostly Cloudy"
"-97.24","49.91","WINNIPEG INTL A","5023227","2021-10-25 13:00","2021","10","25","13:00","9.0","","0.1","","54","","","","16","","30","","24.1","","99.15","","","","","","NA"
"-97.24","49.91","WINNIPEG INTL A","5023227","2021-10-25 14:00","2021","10","25","14:00","9.3","","0.0","","52","","","","15","","31","","24.1","","99.08","","","","","","NA"
"-97.24","49.91","WINNIPEG INTL A","5023227","2021-10-25 15:00","2021","10","25","15:00","10.3","","-0.3","","47","","","","14","","33","","24.1","","98.97","","","","","","Mostly Cloudy"
"-97.24","49.91","WINNIPEG INTL A","5023227","2021-10-25 16:00","2021","10","25","16:00","9.3","","-0.7","","49","","","","14","","27","","24.1","","98.98","","","","","","NA"
"-97.24","49.91","WINNIPEG INTL A","5023227","2021-10-25 17:00","2021","10","25","17:00","8.4","","-0.8","","52","","","","13","","21","","24.1","","98.94","","","","","","NA"
"-97.24","49.91","WINNIPEG INTL A","5023227","2021-10-25 18:00","2021","10","25","18:00","7.2","","-0.9","","56","","","","12","","21","","24.1","","98.90","","","","","","Mostly Cloudy"
"-97.24","49.91","WINNIPEG INTL A","5023227","2021-10-25 19:00","2021","10","25","19:00","6.3","","0.1","","65","","","","13","","29","","24.1","","98.89","","","","","","NA"
"-97.24","49.91","WINNIPEG INTL A","5023227","2021-10-25 20:00","2021","10","25","20:00","5.9","","0.0","","66","","","","13","","26","","24.1","","98.86","","","","","","NA"
"-97.24","49.91","WINNIPEG INTL A","5023227","2021-10-25 21:00","2021","10","25","21:00","5.9","","-0.3","","64","","","","14","","27","","24.1","","98.86","","","","","","Mostly Cloudy"
"-97.24","49.91","WINNIPEG INTL A","5023227","2021-10-25 22:00","2021","10","25","22:00","5.4","","-0.5","","66","","","","14","","21","","24.1","","98.86","","","","","","NA"
"-97.24","49.91","WINNIPEG INTL A","5023227","2021-10-25 23:00","2021","10","25","23:00","4.9","","-0.5","","68","","","","13","","21","","24.1","","98.79","","","","","","NA"
"-97.24","49.91","WINNIPEG INTL A","5023227","2021-10-26 00:00","2021","10","26","00:00","5.0","","-0.5","","67","","","","13","","24","","24.1","","98.75","","","","","","Mostly Cloudy"
"-97.24","49.91","WINNIPEG INTL A","5023227","2021-10-26 01:00","2021","10","26","01:00","5.0","","-0.4","","68","","","","14","","28","","24.1","","98.69","","","","","","NA"
"-97.24","49.91","WINNIPEG INTL A","5023227","2021-10-26 02:00","2021","10","26","02:00","5.0","","0.0","","70","","","","14","","28","","24.1","","98.64","","","","","","NA"
"-97.24","49.91","WINNIPEG INTL A","5023227","2021-10-26 03:00","2021","10","26","03:00","5.0","","0.2","","71","","","","14","","27","","24.1","","98.51","","","","","","Cloudy"
"-97.24","49.91","WINNIPEG INTL A","5023227","2021-10-26 04:00","2021","10","26","04:00","5.5","","0.3","","69","","","","14","","32","","24.1","","98.46","","","","","","NA"
"-97.24","49.91","WINNIPEG INTL A","5023227","2021-10-26 05:00","2021","10","26","05:00","5.8","","0.2","","68","","","","13","","29","","24.1","","98.41","","","","","","NA"
"-97.24","49.91","WINNIPEG INTL A","5023227","2021-10-26 06:00","2021","10","26","06:00","5.6","","0.2","","68","","","","13","","32","","24.1","","98.29","","","","","","Mostly Cloudy"
"-97.24","49.91","WINNIPEG INTL A","5023227","2021-10-26 07:00","2021","10","26","07:00","5.9","","-0.1","","65","","","","13","","42","","24.1","","98.24","","","","","","NA"
"-97.24","49.91","WINNIPEG INTL A","5023227","2021-10-26 08:00","2021","10","26","08:00","6.0","","0.0","","65","","","","14","","35","","24.1","","98.21","","","","","","NA"
"-97.24","49.91","WINNIPEG INTL A","5023227","2021-10-26 09:00","2021","10","26","09:00","6.8","","0.3","","63","","","","15","","44","","24.1","","98.20","","","","","","Mostly Cloudy"
"-97.24","49.91","WINNIPEG INTL A","5023227","2021-10-26 10:00","2021","10","26","10:00","7.7","","0.6","","61","","","","14","","37","","24.1","","98.18","","","","","","NA"
"-97.24","49.91","WINNIPEG INTL A","5023227","2021-10-26 11:00","2021","10","26","11:00","8.6","","0.9","","58","","","","15","","43","","24.1","","98.15","","","","","","NA"
"-97.24","49.91","WINNIPEG INTL A","5023227","2021-10-26 12:00","2021","10","26","12:00","10.1","","0.8","","52","","","","15","","37","","24.1","","98.12","","","","","","Clear"
"-97.24","49.91","WINNIPEG INTL A","5023227","2021-10-26 13:00","2021","10","26","13:00","10.6","","0.6","","50","","","","14","","36","","24.1","","98.09","","","","","","NA"
"-97.24","49.91","WINNIPEG INTL A","5023227","2021-10-26 14:00","2021","10","26","14:00","11.1","","0.5","","48","","","","14","","32","","24.1","","97.98","","","","","","NA"
"-97.24","49.91","WINNIPEG INTL A","5023227","2021-10-26 15:00","2021","10","26","15:00","11.4","","0.0","","45","","","","15","","40","","24.1","","97.95","","","","","","Cloudy"
"-97.24","49.91","WINNIPEG INTL A","5023227","2021-10-26 16:00","2021","10","26","16:00","11.4","","0.0","","45","","","","13","","30","","24.1","","97.92","","","","","","NA"
"-97.24","49.91","WINNIPEG INTL A","5023227","2021-10-26 17:00","2021","10","26","17:00","11.6","","-0.7","","42","","","","14","","35","","24.1","","97.94","","","","","","NA"
"-97.24","49.91","WINNIPEG INTL A","5023227","2021-10-26 18:00","2021","10","26","18:00","11.1","","-0.6","","44","","","","14","","33","","24.1","","97.96","","","","","","Cloudy"
"-97.24","49.91","WINNIPEG INTL A","5023227","2021-10-26 19:00","2021","10","26","19:00","10.7","","-0.9","","44","","","","14","","36","","24.1","","97.95","","","","","","NA"
"-97.24","49.91","WINNIPEG INTL A","5023227","2021-10-26 20:00","2021","10","26","20:00","10.3","","-1.2","","44","","","","14","","34","","24.1","","97.95","","","","","","NA"
"-97.24","49.91","WINNIPEG INTL A","5023227","2021-10-26 21:00","2021","10","26","21:00","9.9","","-1.5","","45","","","","14","","34","","24.1","","97.96","","","","","","Cloudy"
"-97.24","49.91","WINNIPEG INTL A","5023227","2021-10-26 22:00","2021","10","26","22:00","9.7","","-1.5","","46","","","","14","","34","","24.1","","97.94","","","","","","NA"
"-97.24","49.91","WINNIPEG INTL A","5023227","2021-10-26 23:00","2021","10","26","23:00","9.5","","-1.1","","48","","","","14","","30","","24.1","","97.88","","","","","","NA"
"-97.24","49.91","WINNIPEG INTL A","5023227","2021-10-27 00:00","2021","10","27","00:00","9.5","","-0.7","","49","","","","14","","39","","24.1","","97.88","","","","","","Cloudy"
"-97.24","49.91","WINNIPEG INTL A","5023227","2021-10-27 01:00","2021","10","27","01:00","9.2","","-0.2","","52","","","","14","","37","","24.1","","97.83","","","","","","NA"
"-97.24","49.91","WINNIPEG INTL A","5023227","2021-10-27 02:00","2021","10","27","02:00","9.1","","0.3","","54","","","","15","","33","","24.1","","97.85","","","","","","NA"
"-97.24","49.91","WINNIPEG INTL A","5023227","2021-10-27 03:00","2021","10","27","03:00","8.8","","0.7","","57","","","","15","","32","","24.1","","97.83","","","","","","Cloudy"
"-97.24","49.91","WINNIPEG INTL A","5023227","2021-10-27 04:00","2021","10","27","04:00","8.6","","0.8","","58","","","","15","","29","","24.1","","97.81","","","","","","NA"
"-97.24","49.91","WINNIPEG INTL A","5023227","2021-10-27 05:00","2021","10","27","05:00","8.5","","1.0","","59","","","","15","","25","","24.1","","97.76","","","","","","NA"
"-97.24","49.91","WINNIPEG INTL A","5023227","2021-10-27 06:00","2021","10","27","06:00","8.2","","1.2","","61","","","","15","","24","","24.1","","97.72","","","","","","Mostly Cloudy"
"-97.24","49.91","WINNIPEG INTL A","5023227","2021-10-27 07:00","2021","10","27","07:00","8.2","","1.5","","63","","","","15","","21","","24.1","","97.77","","","","","","NA"
"-97.24","49.91","WINNIPEG INTL A","5023227","2021-10-27 08:00","2021","10","27","08:00","8.0","","3.1","","71","","","","16","","25","","24.1","","97.77","","","","","","Rain Showers"
"-97.24","49.91","WINNIPEG INTL A","5023227","2021-10-27 09:00","2021","10","27","09:00","7.0","","5.2","","88","","","","16","","20","","16.1","","97.79","","","","","","Rain Showers"
"-97.24","49.91","WINNIPEG INTL A","5023227","2021-10-27 10:00","2021","10","27","10:00","7.0","","5.3","","89","","","","16","","25","","24.1","","97.77","","","","","","NA"
"-97.24","49.91","WINNIPEG INTL A","5023227","2021-10-27 11:00","2021","10","27","11:00","7.1","","6.3","","94","","","","16","","21","","8.1","","97.74","","","","","","Rain Showers"
"-97.24","49.91","WINNIPEG INTL A","5023227","2021-10-27 12:00","2021","10","27","12:00","7.3","","6.7","","96","","","","17","","23","","9.7","","97.72","","","","","","Rain Showers"
"-97.24","49.91","WINNIPEG INTL A","5023227","2021-10-27 13:00","2021","10","27","13:00","7.5","","7.5","","100","","","","17","","21","","9.7","","97.70","","","","","","Rain Showers"
"-97.24","49.91","WINNIPEG INTL A","5023227","2021-10-27 14:00","2021","10","27","14:00","7.7","","7.7","","100","","","","16","","19","","9.7","","97.65","","","","","","Rain Showers"
"-97.24","49.91","WINNIPEG INTL A","5023227","2021-10-27 15:00","2021","10","27","15:00","7.8","","7.8","","100","","","","16","","18","","9.7","","97.61","","","","","","Rain Showers"
"-97.24","49.91","WINNIPEG INTL A","5023227","2021-10-27 16:00","2021","10","27","16:00","8.1","","8.1","","100","","","","16","","16","","14.5","","97.62","","","","","","Rain"
"-97.24","49.91","WINNIPEG INTL A","5023227","2021-10-27 17:00","2021","10","27","17:00","8.1","","8.1","","100","","","","16","","14","","4.8","","97.71","","","","","","Rain,Fog"
"-97.24","49.91","WINNIPEG INTL A","5023227","2021-10-27 18:00","2021","10","27","18:00","8.2","","8.2","","100","","","","17","","17","","19.3","","97.73","","","","","","Rain"
"-97.24","49.91","WINNIPEG INTL A","5023227","2021-10-27 19:00","2021","10","27","19:00","8.2","","8.2","","100","","","","17","","20","","24.1","","97.72","","","","","","NA"
"-97.24","49.91","WINNIPEG INTL A","5023227","2021-10-27 20:00","2021","10","27","20:00","8.1","","8.1","","100","","","","18","","20","","24.1","","97.72","","","","","","NA"
"-97.24","49.91","WINNIPEG INTL A","5023227","2021-10-27 21:00","2021","10","27","21:00","8.0","","8.0","","100","","","","19","","16","","4.8","","97.74","","","","","","Fog"
"-97.24","49.91","WINNIPEG INTL A","5023227","2021-10-27 22:00","2021","10","27","22:00","8.0","","8.0","","100","","","","19","","14","","2.0","","97.73","","","","","","Fog"
"-97.24","49.91","WINNIPEG INTL A","5023227","2021-10-27 23:00","2021","10","27","23:00","7.8","","7.8","","100","","","","18","","9","","0.8","","97.73","","","","","","Fog"
"-97.24","49.91","WINNIPEG INTL A","5023227","2021-10-28 00:00","2021","10","28","00:00","7.6","","7.6","","100","","","","18","","13","","0.4","","97.73","","","","","","Fog"
"-97.24","49.91","WINNIPEG INTL A","5023227","2021-10-28 01:00","2021","10","28","01:00","7.4","","7.4","","100","","","","17","","10","","0.8","","97.73","","","","","","Fog"
"-97.24","49.91","WINNIPEG INTL A","5023227","2021-10-28 02:00","2021","10","28","02:00","7.1","","7.1","","100","","","","17","","10","","0.8","","97.74","","","","","","Fog"
"-97.24","49.91","WINNIPEG INTL A","5023227","2021-10-28 03:00","2021","10","28","03:00","6.8","","6.8","","100","","","","19","","9","","0.6","","97.79","","","","","","Fog"
"-97.24","49.91","WINNIPEG INTL A","5023227","2021-10-28 04:00","2021","10","28","04:00","6.6","","6.6","","100","","","","17","","9","","1.0","","97.85","","","","","","Fog"
"-97.24","49.91","WINNIPEG INTL A","5023227","2021-10-28 05:00","2021","10","28","05:00","6.3","","6.3","","100","","","","17","","6","","1.6","","97.91","","","","","","Fog"
"-97.24","49.91","WINNIPEG INTL A","5023227","2021-10-28 06:00","2021","10","28","06:00","6.2","","6.2","","100","","","","18","","5","","1.6","","97.94","","","","","","Fog"
"-97.24","49.91","WINNIPEG INTL A","5023227","2021-10-28 07:00","2021","10","28","07:00","5.6","","5.6","","100","","","","27","","13","","1.6","","98.02","","","","","","Fog"
"-97.24","49.91","WINNIPEG INTL A","5023227","2021-10-28 08:00","2021","10","28","08:00","5.0","","5.0","","100","","","","32","","8","","0.8","","98.08","","","","","","Fog"
"-97.24","49.91","WINNIPEG INTL A","5023227","2021-10-28 09:00","2021","10","28","09:00","5.7","","5.7","","100","","","","32","","10","","0.8","","98.11","","","","","","Fog"
"-97.24","49.91","WINNIPEG INTL A","5023227","2021-10-28 10:00","2021","10","28","10:00","5.8","","5.8","","100","","","","30","","16","","0.4","","98.20","","","","","","Fog"
"-97.24","49.91","WINNIPEG INTL A","5023227","2021-10-28 11:00","2021","10","28","11:00","6.8","","6.8","","100","","","","33","","19","","3.2","","98.28","","","","","","Fog"
"-97.24","49.91","WINNIPEG INTL A","5023227","2021-10-28 12:00","2021","10","28","12:00","8.4","","8.4","","100","","","","33","","22","","9.7","","98.30","","","","","","Fog"
"-97.24","49.91","WINNIPEG INTL A","5023227","2021-10-28 13:00","2021","10","28","13:00","9.2","","7.0","","86","","","","30","","23","","16.1","","98.35","","","","","","NA"
"-97.24","49.91","WINNIPEG INTL A","5023227","2021-10-28 14:00","2021","10","28","14:00","8.4","","4.9","","79","","","","30","","24","","24.1","","98.40","","","","","","NA"
"-97.24","49.91","WINNIPEG INTL A","5023227","2021-10-28 15:00","2021","10","28","15:00","7.6","","4.5","","80","","","","31","","19","","24.1","","98.47","","","","","","Mostly Cloudy"
"-97.24","49.91","WINNIPEG INTL A","5023227","2021-10-28 16:00","2021","10","28","16:00","8.3","","4.4","","76","","","","30","","16","","24.1","","98.54","","","","","","NA"
"-97.24","49.91","WINNIPEG INTL A","5023227","2021-10-28 17:00","2021","10","28","17:00","6.2","","4.5","","89","","","","27","","7","","24.1","","98.57","","","","","","NA"
"-97.24","49.91","WINNIPEG INTL A","5023227","2021-10-28 18:00","2021","10","28","18:00","5.0","","3.6","","91","","","","23","","9","","24.1","","98.59","","","","","","Clear"
"-97.24","49.91","WINNIPEG INTL A","5023227","2021-10-28 19:00","2021","10","28","19:00","2.8","","1.8","","93","","","","18","","10","","24.1","","98.57","","","","","","NA"
"-97.24","49.91","WINNIPEG INTL A","5023227","2021-10-28 20:00","2021","10","28","20:00","3.0","","3.0","","100","","","","19","","14","","24.1","","98.57","","","","","","NA"
"-97.24","49.91","WINNIPEG INTL A","5023227","2021-10-28 21:00","2021","10","28","21:00","3.3","","3.1","","99","","","","21","","11","","24.1","","98.58","","","","","","Clear"
"-97.24","49.91","WINNIPEG INTL A","5023227","2021-10-28 22:00","2021","10","28","22:00","2.1","","1.4","","95","","","","24","","7","","24.1","","98.59","","","","","","NA"
"-97.24","49.91","WINNIPEG INTL A","5023227","2021-10-28 23:00","2021","10","28","23:00","0.1","","-1.4","","90","","","","28","","12","","24.1","","98.69","","","","","","NA"
"-97.24","49.91","WINNIPEG INTL A","5023227","2021-10-29 00:00","2021","10","29","00:00","0.0","","-1.5","","89","","","","27","","16","","24.1","","98.71","","","","-5","","Clear"
"-97.24","49.91","WINNIPEG INTL A","5023227","2021-10-29 01:00","2021","10","29","01:00","-0.2","","-1.9","","88","","","","27","","12","","24.1","","98.70","","","","-4","","NA"
"-97.24","49.91","WINNIPEG INTL A","5023227","2021-10-29 02:00","2021","10","29","02:00","-0.6","","-2.3","","89","","","","26","","14","","24.1","","98.74","","","","-5","","NA"
"-97.24","49.91","WINNIPEG INTL A","5023227","2021-10-29 03:00","2021","10","29","03:00","0.0","","-2.5","","84","","","","26","","15","","24.1","","98.71","","","","-4","","Clear"
"-97.24","49.91","WINNIPEG INTL A","5023227","2021-10-29 04:00","2021","10","29","04:00","-1.4","","-3.6","","85","","","","26","","14","","24.1","","98.72","","","","-6","","NA"
"-97.24","49.91","WINNIPEG INTL A","5023227","2021-10-29 05:00","2021","10","29","05:00","-1.4","","-3.3","","87","","","","26","","17","","24.1","","98.75","","","","-7","","NA"
"-97.24","49.91","WINNIPEG INTL A","5023227","2021-10-29 06:00","2021","10","29","06:00","-1.9","","-3.5","","89","","","","23","","3","","24.1","","98.73","","","","-3","","Clear"
"-97.24","49.91","WINNIPEG INTL A","5023227","2021-10-29 07:00","2021","10","29","07:00","-2.7","","-3.9","","91","","","","19","","7","","24.1","","98.68","","","","-6","","NA"
"-97.24","49.91","WINNIPEG INTL A","5023227","2021-10-29 08:00","2021","10","29","08:00","-1.5","","-2.8","","90","","","","17","","8","","24.1","","98.66","","","","-5","","NA"
"-97.24","49.91","WINNIPEG INTL A","5023227","2021-10-29 09:00","2021","10","29","09:00","1.9","","-0.8","","82","","","","16","","9","","24.1","","98.64","","","","","","Mostly Cloudy"
"-97.24","49.91","WINNIPEG INTL A","5023227","2021-10-29 10:00","2021","10","29","10:00","2.5","","-0.8","","79","","","","17","","12","","24.1","","98.63","","","","","","NA"
"-97.24","49.91","WINNIPEG INTL A","5023227","2021-10-29 11:00","2021","10","29","11:00","5.0","","0.0","","70","","","","17","","13","","24.1","","98.63","","","","","","NA"
"-97.24","49.91","WINNIPEG INTL A","5023227","2021-10-29 12:00","2021","10","29","12:00","6.4","","1.2","","69","","","","18","","17","","24.1","","98.52","","","","","","Mostly Cloudy"
"-97.24","49.91","WINNIPEG INTL A","5023227","2021-10-29 13:00","2021","10","29","13:00","8.0","","1.1","","61","","","","17","","24","","24.1","","98.39","","","","","","NA"
"-97.24","49.91","WINNIPEG INTL A","5023227","2021-10-29 14:00","2021","10","29","14:00","9.5","","2.7","","62","","","","16","","26","","24.1","","98.26","","","","","","NA"
"-97.24","49.91","WINNIPEG INTL A","5023227","2021-10-29 15:00","2021","10","29","15:00","10.0","","3.1","","62","","","","17","","24","","24.1","","98.16","","","","","","Mostly Cloudy"
"-97.24","49.91","WINNIPEG INTL A","5023227","2021-10-29 16:00","2021","10","29","16:00","10.0","","2.2","","58","","","","16","","30","","24.1","","98.05","","","","","","NA"
"-97.24","49.91","WINNIPEG INTL A","5023227","2021-10-29 17:00","2021","10","29","17:00","10.4","","2.1","","56","","","","17","","36","","24.1","","97.95","","","","","","Rain Showers"
"-97.24","49.91","WINNIPEG INTL A","5023227","2021-10-29 18:00","2021","10","29","18:00","10.3","","2.9","","60","","","","17","","33","","24.1","","97.91","","","","","","Mostly Cloudy"
"-97.24","49.91","WINNIPEG INTL A","5023227","2021-10-29 19:00","2021","10","29","19:00","9.9","","3.6","","65","","","","17","","34","","24.1","","97.91","","","","","","NA"
"-97.24","49.91","WINNIPEG INTL A","5023227","2021-10-29 20:00","2021","10","29","20:00","9.3","","4.0","","70","","","","18","","35","","24.1","","97.84","","","","","","NA"
"-97.24","49.91","WINNIPEG INTL A","5023227","2021-10-29 21:00","2021","10","29","21:00","8.8","","3.9","","71","","","","17","","31","","24.1","","97.77","","","","","","Mostly Cloudy"
"-97.24","49.91","WINNIPEG INTL A","5023227","2021-10-29 22:00","2021","10","29","22:00","8.4","","3.9","","73","","","","17","","31","","24.1","","97.67","","","","","","NA"
"-97.24","49.91","WINNIPEG INTL A","5023227","2021-10-29 23:00","2021","10","29","23:00","8.3","","4.0","","74","","","","18","","28","","24.1","","97.61","","","","","","NA"
"-97.24","49.91","WINNIPEG INTL A","5023227","2021-10-30 00:00","2021","10","30","00:00","8.1","","4.0","","76","","","","18","","26","","24.1","","97.56","","","","","","Mostly Cloudy"
"-97.24","49.91","WINNIPEG INTL A","5023227","2021-10-30 01:00","2021","10","30","01:00","8.1","","3.9","","75","","","","18","","25","","24.1","","97.53","","","","","","NA"
"-97.24","49.91","WINNIPEG INTL A","5023227","2021-10-30 02:00","2021","10","30","02:00","7.9","","4.0","","76","","","","18","","25","","24.1","","97.49","","","","","","NA"
"-97.24","49.91","WINNIPEG INTL A","5023227","2021-10-30 03:00","2021","10","30","03:00","7.6","","4.0","","78","","","","19","","21","","24.1","","97.49","","","","","","Mostly Cloudy"
"-97.24","49.91","WINNIPEG INTL A","5023227","2021-10-30 04:00","2021","10","30","04:00","7.2","","4.0","","80","","","","23","","12","","24.1","","97.51","","","","","","NA"
"-97.24","49.91","WINNIPEG INTL A","5023227","2021-10-30 05:00","2021","10","30","05:00","6.0","","4.4","","89","","","","33","","8","","24.1","","97.58","","","","","","NA"
"-97.24","49.91","WINNIPEG INTL A","5023227","2021-10-30 06:00","2021","10","30","06:00","6.5","","5.2","","91","","","","35","","25","","24.1","","97.66","","","","","","Drizzle"
"-97.24","49.91","WINNIPEG INTL A","5023227","2021-10-30 07:00","2021","10","30","07:00","5.8","","4.8","","93","","","","34","","32","","24.1","","97.84","","","","","","NA"
"-97.24","49.91","WINNIPEG INTL A","5023227","2021-10-30 08:00","2021","10","30","08:00","5.0","","4.3","","96","","","","34","","22","","12.9","","98.00","","","","","","Rain"
"-97.24","49.91","WINNIPEG INTL A","5023227","2021-10-30 09:00","2021","10","30","09:00","5.5","","3.2","","85","","","","34","","27","","24.1","","98.09","","","","","","Cloudy"
"-97.24","49.91","WINNIPEG INTL A","5023227","2021-10-30 10:00","2021","10","30","10:00","6.7","","3.8","","82","","","","33","","29","","24.1","","98.19","","","","","","NA"
"-97.24","49.91","WINNIPEG INTL A","5023227","2021-10-30 11:00","2021","10","30","11:00","7.2","","3.9","","80","","","","33","","26","","24.1","","98.29","","","","","","NA"
"-97.24","49.91","WINNIPEG INTL A","5023227","2021-10-30 12:00","2021","10","30","12:00","8.5","","3.9","","72","","","","33","","26","","24.1","","98.32","","","","","","Mostly Cloudy"
"-97.24","49.91","WINNIPEG INTL A","5023227","2021-10-30 13:00","2021","10","30","13:00","10.2","","2.5","","59","","","","32","","29","","24.1","","98.37","","","","","","NA"
"-97.24","49.91","WINNIPEG INTL A","5023227","2021-10-30 14:00","2021","10","30","14:00","9.6","","2.1","","60","","","","32","","28","","24.1","","98.44","","","","","","NA"
"-97.24","49.91","WINNIPEG INTL A","5023227","2021-10-30 15:00","2021","10","30","15:00","9.6","","-1.6","","45","","","","34","","31","","24.1","","98.50","","","","","","Mostly Cloudy"
"-97.24","49.91","WINNIPEG INTL A","5023227","2021-10-30 16:00","2021","10","30","16:00","8.6","","-3.1","","44","","","","33","","32","","24.1","","98.57","","","","","","NA"
"-97.24","49.91","WINNIPEG INTL A","5023227","2021-10-30 17:00","2021","10","30","17:00","5.4","","-2.4","","57","","","","32","","21","","24.1","","98.66","","","","","","NA"
"-97.24","49.91","WINNIPEG INTL A","5023227","2021-10-30 18:00","2021","10","30","18:00","0.9","","-3.2","","74","","","","31","","13","","24.1","","98.71","","","","","","Clear"
"-97.24","49.91","WINNIPEG INTL A","5023227","2021-10-30 19:00","2021","10","30","19:00","-0.7","","-2.6","","87","","","","27","","16","","24.1","","98.75","","","","-5","","NA"
"-97.24","49.91","WINNIPEG INTL A","5023227","2021-10-30 20:00","2021","10","30","20:00","-1.2","","-3.0","","87","","","","29","","14","","24.1","","98.77","","","","-6","","NA"
"-97.24","49.91","WINNIPEG INTL A","5023227","2021-10-30 21:00","2021","10","30","21:00","0.3","","-1.6","","87","","","","29","","13","","24.1","","98.79","","","","","","Mostly Cloudy"
"-97.24","49.91","WINNIPEG INTL A","5023227","2021-10-30 22:00","2021","10","30","22:00","1.5","","-1.0","","83","","","","30","","13","","24.1","","98.82","","","","","","NA"
"-97.24","49.91","WINNIPEG INTL A","5023227","2021-10-30 23:00","2021","10","30","23:00","1.4","","-0.8","","85","","","","29","","10","","24.1","","98.85","","","","","","NA"
"-97.24","49.91","WINNIPEG INTL A","5023227","2021-10-31 00:00","2021","10","31","00:00","1.5","","-0.7","","85","","","","30","","8","","24.1","","98.86","","","","","","Mostly Cloudy"
"-97.24","49.91","WINNIPEG INTL A","5023227","2021-10-31 01:00","2021","10","31","01:00","1.2","","-0.7","","87","","","","26","","10","","24.1","","98.86","","","","","","NA"
"-97.24","49.91","WINNIPEG INTL A","5023227","2021-10-31 02:00","2021","10","31","02:00","2.2","","0.3","","87","","","","27","","13","","24.1","","98.85","","","","","","NA"
"-97.24","49.91","WINNIPEG INTL A","5023227","2021-10-31 03:00","2021","10","31","03:00","1.8","","-0.4","","85","","","","29","","13","","24.1","","98.86","","","","","","Cloudy"
"-97.24","49.91","WINNIPEG INTL A","5023227","2021-10-31 04:00","2021","10","31","04:00","1.6","","-0.7","","85","","","","29","","17","","24.1","","98.88","","","","","","NA"
"-97.24","49.91","WINNIPEG INTL A","5023227","2021-10-31 05:00","2021","10","31","05:00","1.0","","0.1","","94","","","","31","","14","","24.1","","98.91","","","","","","Rain Showers"
"-97.24","49.91","WINNIPEG INTL A","5023227","2021-10-31 06:00","2021","10","31","06:00","1.0","","0.1","","94","","","","28","","11","","24.1","","98.92","","","","","","Mostly Cloudy"
"-97.24","49.91","WINNIPEG INTL A","5023227","2021-10-31 07:00","2021","10","31","07:00","0.7","","-0.5","","92","","","","28","","17","","24.1","","98.93","","","","","","NA"
"-97.24","49.91","WINNIPEG INTL A","5023227","2021-10-31 08:00","2021","10","31","08:00","0.4","","-1.4","","88","","","","28","","21","","24.1","","98.97","","","","","","NA"
"-97.24","49.91","WINNIPEG INTL A","5023227","2021-10-31 09:00","2021","10","31","09:00","1.2","","-1.1","","85","","","","28","","22","","24.1","","98.99","","","","","","Mostly Cloudy"
"-97.24","49.91","WINNIPEG INTL A","5023227","2021-10-31 10:00","2021","10","31","10:00","2.1","","-0.6","","82","","","","29","","20","","24.1","","99.02","","","","","","NA"
"-97.24","49.91","WINNIPEG INTL A","5023227","2021-10-31 11:00","2021","10","31","11:00","2.8","","-0.1","","81","","","","30","","20","","24.1","","99.03","","","","","","NA"
"-97.24","49.91","WINNIPEG INTL A","5023227","2021-10-31 12:00","2021","10","31","12:00","2.2","","0.8","","90","","","","29","","18","","24.1","","99.04","","","","","","Cloudy"
"-97.24","49.91","WINNIPEG INTL A","5023227","2021-10-31 13:00","2021","10","31","13:00","3.8","","-0.8","","72","","","","31","","29","","24.1","","99.01","","","","","","NA"
"-97.24","49.91","WINNIPEG INTL A","5023227","2021-10-31 14:00","2021","10","31","14:00","3.7","","-2.0","","66","","","","31","","37","","24.1","","99.03","","","","","","NA"
"-97.24","49.91","WINNIPEG INTL A","5023227","2021-10-31 15:00","2021","10","31","15:00","3.3","","-1.7","","70","","","","31","","29","","24.1","","99.06","","","","","","Snow Showers"
"-97.24","49.91","WINNIPEG INTL A","5023227","2021-10-31 16:00","2021","10","31","16:00","3.2","","-2.2","","68","","","","31","","30","","24.1","","99.09","","","","","","NA"
"-97.24","49.91","WINNIPEG INTL A","5023227","2021-10-31 17:00","2021","10","31","17:00","2.8","","-1.8","","71","","","","31","","27","","24.1","","99.11","","","","","","NA"
"-97.24","49.91","WINNIPEG INTL A","5023227","2021-10-31 18:00","2021","10","31","18:00","2.0","","-1.2","","80","","","","31","","25","","24.1","","99.16","","","","","","Mostly Cloudy"
"-97.24","49.91","WINNIPEG INTL A","5023227","2021-10-31 19:00","2021","10","31","19:00","1.7","","-1.4","","80","","","","32","","28","","24.1","","99.21","","","","","","NA"
"-97.24","49.91","WINNIPEG INTL A","5023227","2021-10-31 20:00","2021","10","31","20:00","1.4","","-1.3","","82","","","","32","","23","","24.1","","99.23","","","","","","NA"
"-97.24","49.91","WINNIPEG INTL A","5023227","2021-10-31 21:00","2021","10","31","21:00","1.1","","-1.1","","85","","","","31","","17","","24.1","","99.27","","","","","","Mostly Cloudy"
"-97.24","49.91","WINNIPEG INTL A","5023227","2021-10-31 22:00","2021","10","31","22:00","1.2","","-1.0","","85","","","","31","","17","","24.1","","99.29","","","","","","NA"
"-97.24","49.91","WINNIPEG INTL A","5023227","2021-10-31 23:00","2021","10","31","23:00","1.2","","-1.6","","81","","","","33","","17","","24.1","","99.32","","","","","","NA"
