"Longitude (x)","Latitude (y)","Station Name","Climate ID","Date/Time (LST)","Year","Month","Day","Time (LST)","Temp (°C)","Temp Flag","Dew Point Temp (°C)","Dew Point Temp Flag","Rel Hum (%)","Rel Hum Flag","Precip. Amount (mm)","Precip. Amount Flag","Wind Dir (10s deg)","Wind Dir Flag","Wind Spd (km/h)","Wind Spd Flag","Visibility (km)","Visibility Flag","Stn Press (kPa)","Stn Press Flag","Hmdx","Hmdx Flag","Wind Chill","Wind Chill Flag","Weather"
"-133.50","68.75","TRAIL VALLEY","220N005","2022-03-01 00:00","2022","03","01","00:00","-23.4","","-26.2","","78","","0.0","","16","","7","","","","101.25","","","","-30","","NA"
"-133.50","68.75","TRAIL VALLEY","220N005","2022-03-01 01:00","2022","03","01","01:00","-25.1","","-27.6","","79","","0.0","","15","","8","","","","101.27","","","","-32","","NA"
"-133.50","68.75","TRAIL VALLEY","220N005","2022-03-01 02:00","2022","03","01","02:00","-23.4","","-26.4","","76","","0.0","","14","","4","","","","101.27","","","","-27","","NA"
"-133.50","68.75","TRAIL VALLEY","220N005","2022-03-01 03:00","2022","03","01","03:00","-25.1","","-27.8","","79","","0.0","","14","","10","","","","101.29","","","","-33","","NA"
"-133.50","68.75","TRAIL VALLEY","220N005","2022-03-01 04:00","2022","03","01","04:00","-27.4","","-29.3","","83","","0.0","","13","","6","","","","101.29","","","","-34","","NA"
"-133.50","68.75","TRAIL VALLEY","220N005","2022-03-01 05:00","2022","03","01","05:00","-24.6","","-26.9","","81","","0.0","","15","","5","","","","101.29","","","","-29","","NA"
"-133.50","68.75","TRAIL VALLEY","220N005","2022-03-01 06:00","2022","03","01","06:00","-24.4","","-27.1","","79","","0.0","","16","","8","","","","101.29","","","","-31","","NA"
"-133.50","68.75","TRAIL VALLEY","220N005","2022-03-01 07:00","2022","03","01","07:00","-25.3","","-27.8","","79","","0.0","","18","","12","","","","101.26","","","","-34","","NA"
"-133.50","68.75","TRAIL VALLEY","220N005","2022-03-01 08:00","2022","03","01","08:00","-25.9","","-28.8","","76","","0.0","","20","","14","","","","101.30","","","","-36","","NA"
"-133.50","68.75","TRAIL VALLEY","220N005","2022-03-01 09:00","2022","03","01","09:00","-25.4","","-28.2","","78","","0.0","","20","","16","","","","101.31","","","","-36","","NA"
"-133.50","68.75","TRAIL VALLEY","220N005","2022-03-01 10:00","2022","03","01","10:00","-26.3","","-29.5","","74","","0.0","","20","","11","","","","101.31","","","","-35","","NA"
"-133.50","68.75","TRAIL VALLEY","220N005","2022-03-01 11:00","2022","03","01","11:00","-23.2","","-26.5","","74","","0.0","","18","","6","","","","101.33","","","","-29","","NA"
"-133.50","68.75","TRAIL VALLEY","220N005","2022-03-01 12:00","2022","03","01","12:00","-23.7","","-28.0","","68","","0.0","","18","","5","","","","101.31","","","","-28","","NA"
"-133.50","68.75","TRAIL VALLEY","220N005","2022-03-01 13:00","2022","03","01","13:00","-22.4","","-26.8","","67","","0.0","","18","","15","","","","101.31","","","","-32","","NA"
"-133.50","68.75","TRAIL VALLEY","220N005","2022-03-01 14:00","2022","03","01","14:00","-21.6","","-26.0","","68","","0.0","","17","","17","","","","101.31","","","","-32","","NA"
"-133.50","68.75","TRAIL VALLEY","220N005","2022-03-01 15:00","2022","03","01","15:00","-21.5","","-26.2","","66","","0.0","","15","","10","","","","101.30","","","","-29","","NA"
"-133.50","68.75","TRAIL VALLEY","220N005","2022-03-01 16:00","2022","03","01","16:00","-21.2","","-26.0","","65","","0.0","","17","","12","","","","101.28","","","","-29","","NA"
"-133.50","68.75","TRAIL VALLEY","220N005","2022-03-01 17:00","2022","03","01","17:00","-21.5","","-26.1","","66","","0.0","","17","","14","","","","101.24","","","","-31","","NA"
"-133.50","68.75","TRAIL VALLEY","220N005","2022-03-01 18:00","2022","03","01","18:00","-22.3","","-26.7","","67","","0.0","","15","","6","","","","101.19","","","","-28","","NA"
"-133.50","68.75","TRAIL VALLEY","220N005","2022-03-01 19:00","2022","03","01","19:00","-22.4","","-25.9","","73","","0.0","","17","","25","","","","101.17","","","","-35","","NA"
"-133.50","68.75","TRAIL VALLEY","220N005","2022-03-01 20:00","2022","03","01","20:00","-23.9","","-27.0","","75","","0.0","","17","","16","","","","101.12","","","","-34","","NA"
"-133.50","68.75","TRAIL VALLEY","220N005","2022-03-01 21:00","2022","03","01","21:00","-21.2","","-25.0","","71","","0.0","","18","","22","","","","101.09","","","","-32","","NA"
"-133.50","68.75","TRAIL VALLEY","220N005","2022-03-01 22:00","2022","03","01","22:00","-20.4","","-24.4","","71","","0.0","","18","","32","","","","101.05","","","","-33","","NA"
"-133.50","68.75","TRAIL VALLEY","220N005","2022-03-01 23:00","2022","03","01","23:00","-21.1","","-24.8","","72","","0.0","","18","","30","","","","101.03","","","","-34","","NA"
"-133.50","68.75","TRAIL VALLEY","220N005","2022-03-02 00:00","2022","03","02","00:00","-22.5","","-25.3","","78","","0.0","","18","","26","","","","101.00","","","","-35","","NA"
"-133.50","68.75","TRAIL VALLEY","220N005","2022-03-02 01:00","2022","03","02","01:00","-21.3","","-24.7","","74","","0.0","","18","","28","","","","100.99","","","","-34","","NA"
"-133.50","68.75","TRAIL VALLEY","220N005","2022-03-02 02:00","2022","03","02","02:00","-21.4","","-24.7","","75","","0.0","","17","","29","","","","100.97","","","","-34","","NA"
"-133.50","68.75","TRAIL VALLEY","220N005","2022-03-02 03:00","2022","03","02","03:00","-22.1","","-25.5","","74","","0.0","","17","","21","","","","100.94","","","","-33","","NA"
"-133.50","68.75","TRAIL VALLEY","220N005","2022-03-02 04:00","2022","03","02","04:00","-21.9","","-25.3","","74","","0.0","","18","","31","","","","100.88","","","","-35","","NA"
"-133.50","68.75","TRAIL VALLEY","220N005","2022-03-02 05:00","2022","03","02","05:00","-21.0","","-24.4","","74","","0.0","","18","","24","","","","100.84","","","","-33","","NA"
"-133.50","68.75","TRAIL VALLEY","220N005","2022-03-02 06:00","2022","03","02","06:00","-19.8","","-23.4","","73","","0.0","","18","","21","","","","100.79","","","","-30","","NA"
"-133.50","68.75","TRAIL VALLEY","220N005","2022-03-02 07:00","2022","03","02","07:00","-19.4","","-23.0","","73","","0.0","","18","","24","","","","100.74","","","","-31","","NA"
"-133.50","68.75","TRAIL VALLEY","220N005","2022-03-02 08:00","2022","03","02","08:00","-20.3","","-23.7","","74","","0.0","","18","","22","","","","100.70","","","","-31","","NA"
"-133.50","68.75","TRAIL VALLEY","220N005","2022-03-02 09:00","2022","03","02","09:00","-19.6","","-23.0","","74","","0.0","","19","","22","","","","100.64","","","","-30","","NA"
"-133.50","68.75","TRAIL VALLEY","220N005","2022-03-02 10:00","2022","03","02","10:00","-20.1","","-23.6","","74","","0.0","","9","","6","","","","100.65","","","","-25","","NA"
"-133.50","68.75","TRAIL VALLEY","220N005","2022-03-02 11:00","2022","03","02","11:00","-19.7","","-23.5","","71","","0.0","","19","","12","","","","100.65","","","","-28","","NA"
"-133.50","68.75","TRAIL VALLEY","220N005","2022-03-02 12:00","2022","03","02","12:00","-19.4","","-23.1","","73","","0.0","","20","","18","","","","100.62","","","","-29","","NA"
"-133.50","68.75","TRAIL VALLEY","220N005","2022-03-02 13:00","2022","03","02","13:00","-18.0","","-21.9","","71","","0.0","","19","","20","","","","100.60","","","","-28","","NA"
"-133.50","68.75","TRAIL VALLEY","220N005","2022-03-02 14:00","2022","03","02","14:00","-17.5","","-21.6","","70","","0.0","","19","","24","","","","100.60","","","","-28","","NA"
"-133.50","68.75","TRAIL VALLEY","220N005","2022-03-02 15:00","2022","03","02","15:00","-17.1","","-21.3","","70","","0.0","","19","","32","","","","100.57","","","","-29","","NA"
"-133.50","68.75","TRAIL VALLEY","220N005","2022-03-02 16:00","2022","03","02","16:00","-16.8","","-21.1","","69","","0.0","","20","","33","","","","100.58","","","","-29","","NA"
"-133.50","68.75","TRAIL VALLEY","220N005","2022-03-02 17:00","2022","03","02","17:00","-16.7","","-20.8","","70","","0.0","","20","","33","","","","100.56","","","","-29","","NA"
"-133.50","68.75","TRAIL VALLEY","220N005","2022-03-02 18:00","2022","03","02","18:00","-16.7","","-20.7","","71","","0.0","","20","","37","","","","100.54","","","","-29","","NA"
"-133.50","68.75","TRAIL VALLEY","220N005","2022-03-02 19:00","2022","03","02","19:00","-16.6","","-20.5","","72","","0.0","","20","","37","","","","100.51","","","","-29","","NA"
"-133.50","68.75","TRAIL VALLEY","220N005","2022-03-02 20:00","2022","03","02","20:00","-16.7","","-20.5","","73","","0.0","","20","","41","","","","100.49","","","","-30","","NA"
"-133.50","68.75","TRAIL VALLEY","220N005","2022-03-02 21:00","2022","03","02","21:00","-17.3","","-20.8","","74","","0.0","","21","","34","","","","100.50","","","","-30","","NA"
"-133.50","68.75","TRAIL VALLEY","220N005","2022-03-02 22:00","2022","03","02","22:00","-17.0","","-20.4","","75","","0.0","","21","","31","","","","100.50","","","","-29","","NA"
"-133.50","68.75","TRAIL VALLEY","220N005","2022-03-02 23:00","2022","03","02","23:00","-17.4","","-20.7","","75","","0.0","","21","","34","","","","100.48","","","","-30","","NA"
"-133.50","68.75","TRAIL VALLEY","220N005","2022-03-03 00:00","2022","03","03","00:00","-17.4","","-20.8","","75","","0.0","","20","","34","","","","100.46","","","","-30","","NA"
"-133.50","68.75","TRAIL VALLEY","220N005","2022-03-03 01:00","2022","03","03","01:00","-17.5","","-20.9","","74","","0.0","","20","","34","","","","100.43","","","","-30","","NA"
"-133.50","68.75","TRAIL VALLEY","220N005","2022-03-03 02:00","2022","03","03","02:00","-17.2","","-20.8","","74","","0.0","","21","","28","","","","100.42","","","","-29","","NA"
"-133.50","68.75","TRAIL VALLEY","220N005","2022-03-03 03:00","2022","03","03","03:00","-17.5","","-21.2","","73","","0.0","","23","","23","","","","100.44","","","","-28","","NA"
"-133.50","68.75","TRAIL VALLEY","220N005","2022-03-03 04:00","2022","03","03","04:00","-17.3","","-20.8","","74","","0.0","","33","","19","","","","100.43","","","","-27","","NA"
"-133.50","68.75","TRAIL VALLEY","220N005","2022-03-03 05:00","2022","03","03","05:00","-17.0","","-20.8","","72","","0.0","","24","","18","","","","100.41","","","","-26","","NA"
"-133.50","68.75","TRAIL VALLEY","220N005","2022-03-03 06:00","2022","03","03","06:00","-16.8","","-19.9","","76","","0.0","","3","","9","","","","100.37","","","","-23","","NA"
"-133.50","68.75","TRAIL VALLEY","220N005","2022-03-03 07:00","2022","03","03","07:00","-16.6","","-20.1","","74","","0.0","","21","","14","","","","100.37","","","","-25","","NA"
"-133.50","68.75","TRAIL VALLEY","220N005","2022-03-03 08:00","2022","03","03","08:00","-16.9","","-20.2","","75","","0.0","","19","","13","","","","100.35","","","","-25","","NA"
"-133.50","68.75","TRAIL VALLEY","220N005","2022-03-03 09:00","2022","03","03","09:00","-18.7","","-21.2","","80","","0.0","","14","","3","","","","100.33","","","","-21","","NA"
"-133.50","68.75","TRAIL VALLEY","220N005","2022-03-03 10:00","2022","03","03","10:00","-17.1","","-20.5","","75","","0.0","","21","","12","","","","100.29","","","","-25","","NA"
"-133.50","68.75","TRAIL VALLEY","220N005","2022-03-03 11:00","2022","03","03","11:00","-16.5","","-20.0","","75","","0.0","","24","","21","","","","100.26","","","","-26","","NA"
"-133.50","68.75","TRAIL VALLEY","220N005","2022-03-03 12:00","2022","03","03","12:00","-15.5","","-19.3","","73","","0.0","","21","","27","","","","100.24","","","","-26","","NA"
"-133.50","68.75","TRAIL VALLEY","220N005","2022-03-03 13:00","2022","03","03","13:00","-14.9","","-18.4","","75","","0.0","","21","","32","","","","100.25","","","","-26","","NA"
"-133.50","68.75","TRAIL VALLEY","220N005","2022-03-03 14:00","2022","03","03","14:00","-13.0","","-16.5","","75","","0.0","","22","","23","","","","100.26","","","","-22","","NA"
"-133.50","68.75","TRAIL VALLEY","220N005","2022-03-03 15:00","2022","03","03","15:00","-12.5","","-15.9","","76","","0.0","","19","","11","","","","100.29","","","","-19","","NA"
"-133.50","68.75","TRAIL VALLEY","220N005","2022-03-03 16:00","2022","03","03","16:00","-12.2","","-15.9","","74","","0.0","","22","","19","","","","100.28","","","","-20","","NA"
"-133.50","68.75","TRAIL VALLEY","220N005","2022-03-03 17:00","2022","03","03","17:00","-11.7","","-15.3","","75","","0.0","","22","","19","","","","100.31","","","","-20","","NA"
"-133.50","68.75","TRAIL VALLEY","220N005","2022-03-03 18:00","2022","03","03","18:00","-11.5","","-15.3","","74","","0.0","","22","","21","","","","100.31","","","","-20","","NA"
"-133.50","68.75","TRAIL VALLEY","220N005","2022-03-03 19:00","2022","03","03","19:00","-12.9","","-16.3","","76","","0.0","","21","","21","","","","100.29","","","","-22","","NA"
"-133.50","68.75","TRAIL VALLEY","220N005","2022-03-03 20:00","2022","03","03","20:00","-13.6","","-16.9","","76","","0.0","","23","","13","","","","100.32","","","","-21","","NA"
"-133.50","68.75","TRAIL VALLEY","220N005","2022-03-03 21:00","2022","03","03","21:00","-11.9","","-15.8","","73","","0.0","","20","","30","","","","100.31","","","","-22","","NA"
"-133.50","68.75","TRAIL VALLEY","220N005","2022-03-03 22:00","2022","03","03","22:00","-13.0","","-16.1","","77","","0.0","","22","","26","","","","100.35","","","","-23","","NA"
"-133.50","68.75","TRAIL VALLEY","220N005","2022-03-03 23:00","2022","03","03","23:00","-10.9","","-15.1","","71","","0.0","","21","","29","","","","100.32","","","","-21","","NA"
"-133.50","68.75","TRAIL VALLEY","220N005","2022-03-04 00:00","2022","03","04","00:00","-11.7","","-15.8","","72","","0.0","","21","","26","","","","100.34","","","","-21","","NA"
"-133.50","68.75","TRAIL VALLEY","220N005","2022-03-04 01:00","2022","03","04","01:00","-11.5","","-15.2","","74","","0.0","","25","","16","","","","100.34","","","","-19","","NA"
"-133.50","68.75","TRAIL VALLEY","220N005","2022-03-04 02:00","2022","03","04","02:00","-12.7","","-16.2","","75","","0.0","","24","","17","","","","100.36","","","","-21","","NA"
"-133.50","68.75","TRAIL VALLEY","220N005","2022-03-04 03:00","2022","03","04","03:00","-12.4","","-15.9","","76","","0.0","","23","","18","","","","100.37","","","","-20","","NA"
"-133.50","68.75","TRAIL VALLEY","220N005","2022-03-04 04:00","2022","03","04","04:00","-11.6","","-15.3","","74","","0.0","","23","","17","","","","100.39","","","","-19","","NA"
"-133.50","68.75","TRAIL VALLEY","220N005","2022-03-04 05:00","2022","03","04","05:00","-12.3","","-15.5","","77","","0.0","","23","","16","","","","100.35","","","","-20","","NA"
"-133.50","68.75","TRAIL VALLEY","220N005","2022-03-04 06:00","2022","03","04","06:00","-10.7","","-14.6","","73","","0.0","","25","","15","","","","100.35","","","","-18","","NA"
"-133.50","68.75","TRAIL VALLEY","220N005","2022-03-04 07:00","2022","03","04","07:00","-10.4","","-14.5","","72","","0.0","","22","","17","","","","100.36","","","","-18","","NA"
"-133.50","68.75","TRAIL VALLEY","220N005","2022-03-04 08:00","2022","03","04","08:00","-11.4","","-15.3","","73","","0.0","","20","","14","","","","100.36","","","","-18","","NA"
"-133.50","68.75","TRAIL VALLEY","220N005","2022-03-04 09:00","2022","03","04","09:00","-10.9","","-14.8","","73","","0.0","","20","","21","","","","100.35","","","","-19","","NA"
"-133.50","68.75","TRAIL VALLEY","220N005","2022-03-04 10:00","2022","03","04","10:00","-11.4","","-15.1","","74","","0.0","","23","","17","","","","100.35","","","","-19","","NA"
"-133.50","68.75","TRAIL VALLEY","220N005","2022-03-04 11:00","2022","03","04","11:00","-10.2","","-14.5","","71","","0.0","","22","","17","","","","100.36","","","","-17","","NA"
"-133.50","68.75","TRAIL VALLEY","220N005","2022-03-04 12:00","2022","03","04","12:00","-11.4","","-15.6","","71","","0.0","","24","","11","","","","100.36","","","","-17","","NA"
"-133.50","68.75","TRAIL VALLEY","220N005","2022-03-04 13:00","2022","03","04","13:00","-10.0","","-14.1","","72","","0.0","","24","","11","","","","100.38","","","","-16","","NA"
"-133.50","68.75","TRAIL VALLEY","220N005","2022-03-04 14:00","2022","03","04","14:00","-9.4","","-13.9","","70","","0.0","","24","","13","","","","100.39","","","","-15","","NA"
"-133.50","68.75","TRAIL VALLEY","220N005","2022-03-04 15:00","2022","03","04","15:00","-8.4","","-13.8","","65","","0.0","","28","","2","","","","100.40","","","","-9","","NA"
"-133.50","68.75","TRAIL VALLEY","220N005","2022-03-04 16:00","2022","03","04","16:00","-9.4","","-14.4","","67","","0.3","","24","","2","","","","100.42","","","","-11","","NA"
"-133.50","68.75","TRAIL VALLEY","220N005","2022-03-04 17:00","2022","03","04","17:00","-9.9","","-14.8","","67","","0.0","","25","","7","","","","100.41","","","","-14","","NA"
"-133.50","68.75","TRAIL VALLEY","220N005","2022-03-04 18:00","2022","03","04","18:00","-10.4","","-14.8","","70","","0.0","","22","","5","","","","100.41","","","","-13","","NA"
"-133.50","68.75","TRAIL VALLEY","220N005","2022-03-04 19:00","2022","03","04","19:00","-10.4","","-14.3","","73","","0.0","","21","","5","","","","100.38","","","","-13","","NA"
"-133.50","68.75","TRAIL VALLEY","220N005","2022-03-04 20:00","2022","03","04","20:00","-10.9","","-14.9","","73","","0.0","","24","","7","","","","100.36","","","","-15","","NA"
"-133.50","68.75","TRAIL VALLEY","220N005","2022-03-04 21:00","2022","03","04","21:00","-9.5","","-14.1","","69","","0.0","","16","","1","","","","100.34","","","","-10","","NA"
"-133.50","68.75","TRAIL VALLEY","220N005","2022-03-04 22:00","2022","03","04","22:00","-7.7","","-12.9","","66","","0.0","","20","","19","","","","100.33","","","","-15","","NA"
"-133.50","68.75","TRAIL VALLEY","220N005","2022-03-04 23:00","2022","03","04","23:00","-7.9","","-13.3","","65","","0.0","","19","","14","","","","100.32","","","","-14","","NA"
"-133.50","68.75","TRAIL VALLEY","220N005","2022-03-05 00:00","2022","03","05","00:00","-9.1","","-13.5","","70","","0.0","","20","","9","","","","100.31","","","","-14","","NA"
"-133.50","68.75","TRAIL VALLEY","220N005","2022-03-05 01:00","2022","03","05","01:00","-8.8","","-14.2","","65","","0.0","","14","","4","","","","100.27","","","","-11","","NA"
"-133.50","68.75","TRAIL VALLEY","220N005","2022-03-05 02:00","2022","03","05","02:00","-7.8","","-12.8","","67","","0.0","","18","","10","","","","100.25","","","","-13","","NA"
"-133.50","68.75","TRAIL VALLEY","220N005","2022-03-05 03:00","2022","03","05","03:00","-9.2","","-13.7","","70","","0.0","","18","","10","","","","100.21","","","","-14","","NA"
"-133.50","68.75","TRAIL VALLEY","220N005","2022-03-05 04:00","2022","03","05","04:00","-9.3","","-13.9","","69","","0.0","","26","","10","","","","100.23","","","","-14","","NA"
"-133.50","68.75","TRAIL VALLEY","220N005","2022-03-05 05:00","2022","03","05","05:00","-9.4","","-13.5","","72","","0.0","","20","","36","","","","100.13","","","","-20","","NA"
"-133.50","68.75","TRAIL VALLEY","220N005","2022-03-05 06:00","2022","03","05","06:00","-9.8","","-13.9","","72","","0.0","","24","","24","","","","100.13","","","","-18","","NA"
"-133.50","68.75","TRAIL VALLEY","220N005","2022-03-05 07:00","2022","03","05","07:00","-9.9","","-14.3","","71","","0.0","","20","","31","","","","100.13","","","","-20","","NA"
"-133.50","68.75","TRAIL VALLEY","220N005","2022-03-05 08:00","2022","03","05","08:00","-8.5","","-13.1","","70","","0.0","","20","","33","","","","100.05","","","","-18","","NA"
"-133.50","68.75","TRAIL VALLEY","220N005","2022-03-05 09:00","2022","03","05","09:00","-10.4","","-14.1","","74","","0.0","","20","","36","","","","100.04","","","","-21","","NA"
"-133.50","68.75","TRAIL VALLEY","220N005","2022-03-05 10:00","2022","03","05","10:00","-7.3","","-12.2","","68","","0.0","","20","","42","","","","99.99","","","","-17","","NA"
"-133.50","68.75","TRAIL VALLEY","220N005","2022-03-05 11:00","2022","03","05","11:00","-6.7","","-11.9","","67","","0.0","","21","","41","","","","100.04","","","","-16","","NA"
"-133.50","68.75","TRAIL VALLEY","220N005","2022-03-05 12:00","2022","03","05","12:00","-5.5","","-11.2","","64","","0.0","","21","","40","","","","100.05","","","","-15","","NA"
"-133.50","68.75","TRAIL VALLEY","220N005","2022-03-05 13:00","2022","03","05","13:00","-5.3","","-10.8","","65","","0.0","","20","","40","","","","100.04","","","","-14","","NA"
"-133.50","68.75","TRAIL VALLEY","220N005","2022-03-05 14:00","2022","03","05","14:00","-3.7","","-9.6","","64","","0.0","","20","","37","","","","100.08","","","","-12","","NA"
"-133.50","68.75","TRAIL VALLEY","220N005","2022-03-05 15:00","2022","03","05","15:00","-3.2","","-9.0","","64","","0.0","","20","","38","","","","100.08","","","","-11","","NA"
"-133.50","68.75","TRAIL VALLEY","220N005","2022-03-05 16:00","2022","03","05","16:00","-2.2","","-8.6","","61","","0.0","","20","","34","","","","100.12","","","","-10","","NA"
"-133.50","68.75","TRAIL VALLEY","220N005","2022-03-05 17:00","2022","03","05","17:00","-2.1","","-9.0","","59","","0.0","","20","","32","","","","100.14","","","","-9","","NA"
"-133.50","68.75","TRAIL VALLEY","220N005","2022-03-05 18:00","2022","03","05","18:00","-4.3","","-9.6","","67","","0.2","","20","","22","","","","100.15","","","","-11","","NA"
"-133.50","68.75","TRAIL VALLEY","220N005","2022-03-05 19:00","2022","03","05","19:00","-5.0","","-10.1","","67","","0.0","","25","","19","","","","100.16","","","","-11","","NA"
"-133.50","68.75","TRAIL VALLEY","220N005","2022-03-05 20:00","2022","03","05","20:00","-6.3","","-10.5","","73","","0.0","","28","","25","","","","100.19","","","","-14","","NA"
"-133.50","68.75","TRAIL VALLEY","220N005","2022-03-05 21:00","2022","03","05","21:00","-5.3","","-9.9","","70","","0.0","","24","","17","","","","100.21","","","","-11","","NA"
"-133.50","68.75","TRAIL VALLEY","220N005","2022-03-05 22:00","2022","03","05","22:00","-5.4","","-9.8","","71","","0.0","","30","","25","","","","100.20","","","","-13","","NA"
"-133.50","68.75","TRAIL VALLEY","220N005","2022-03-05 23:00","2022","03","05","23:00","-5.3","","-10.0","","70","","0.0","","32","","26","","","","100.15","","","","-13","","NA"
"-133.50","68.75","TRAIL VALLEY","220N005","2022-03-06 00:00","2022","03","06","00:00","-5.9","","-10.2","","72","","0.0","","31","","25","","","","100.16","","","","-13","","NA"
"-133.50","68.75","TRAIL VALLEY","220N005","2022-03-06 01:00","2022","03","06","01:00","-6.4","","-10.5","","73","","0.0","","28","","13","","","","100.16","","","","-12","","NA"
"-133.50","68.75","TRAIL VALLEY","220N005","2022-03-06 02:00","2022","03","06","02:00","-6.6","","-10.7","","73","","0.0","","27","","17","","","","100.18","","","","-13","","NA"
"-133.50","68.75","TRAIL VALLEY","220N005","2022-03-06 03:00","2022","03","06","03:00","-6.2","","-10.7","","70","","0.0","","31","","25","","","","100.19","","","","-14","","NA"
"-133.50","68.75","TRAIL VALLEY","220N005","2022-03-06 04:00","2022","03","06","04:00","-7.2","","-11.2","","73","","0.0","","31","","21","","","","100.21","","","","-15","","NA"
"-133.50","68.75","TRAIL VALLEY","220N005","2022-03-06 05:00","2022","03","06","05:00","-7.7","","-11.3","","75","","0.0","","29","","16","","","","100.27","","","","-14","","NA"
"-133.50","68.75","TRAIL VALLEY","220N005","2022-03-06 06:00","2022","03","06","06:00","-8.1","","-11.7","","75","","0.0","","31","","18","","","","100.28","","","","-15","","NA"
"-133.50","68.75","TRAIL VALLEY","220N005","2022-03-06 07:00","2022","03","06","07:00","-9.3","","-11.4","","85","","0.0","","33","","14","","","","100.36","","","","-16","","NA"
"-133.50","68.75","TRAIL VALLEY","220N005","2022-03-06 08:00","2022","03","06","08:00","-9.3","","-10.8","","89","","0.0","","35","","26","","","","100.43","","","","-18","","NA"
"-133.50","68.75","TRAIL VALLEY","220N005","2022-03-06 09:00","2022","03","06","09:00","-10.6","","-12.3","","87","","0.0","","34","","16","","","","100.55","","","","-18","","NA"
"-133.50","68.75","TRAIL VALLEY","220N005","2022-03-06 10:00","2022","03","06","10:00","-12.4","","-14.1","","87","","0.0","","1","","15","","","","100.70","","","","-20","","NA"
"-133.50","68.75","TRAIL VALLEY","220N005","2022-03-06 11:00","2022","03","06","11:00","-13.1","","-15.0","","86","","0.0","","35","","26","","","","100.83","","","","-23","","NA"
"-133.50","68.75","TRAIL VALLEY","220N005","2022-03-06 12:00","2022","03","06","12:00","-12.5","","-14.9","","83","","0.0","","34","","20","","","","100.98","","","","-21","","NA"
"-133.50","68.75","TRAIL VALLEY","220N005","2022-03-06 13:00","2022","03","06","13:00","-11.5","","-13.9","","82","","0.0","","28","","12","","","","101.11","","","","-18","","NA"
"-133.50","68.75","TRAIL VALLEY","220N005","2022-03-06 14:00","2022","03","06","14:00","-9.9","","-12.1","","84","","0.0","","31","","18","","","","101.25","","","","-17","","NA"
"-133.50","68.75","TRAIL VALLEY","220N005","2022-03-06 15:00","2022","03","06","15:00","-9.1","","-11.2","","85","","0.0","","31","","18","","","","101.40","","","","-16","","NA"
"-133.50","68.75","TRAIL VALLEY","220N005","2022-03-06 16:00","2022","03","06","16:00","-8.3","","-10.1","","87","","0.0","","33","","35","","","","101.52","","","","-18","","NA"
"-133.50","68.75","TRAIL VALLEY","220N005","2022-03-06 17:00","2022","03","06","17:00","-8.4","","-10.3","","86","","0.0","","33","","39","","","","101.64","","","","-19","","NA"
"-133.50","68.75","TRAIL VALLEY","220N005","2022-03-06 18:00","2022","03","06","18:00","-9.3","","-10.9","","88","","0.0","","33","","45","","","","101.75","","","","-20","","NA"
"-133.50","68.75","TRAIL VALLEY","220N005","2022-03-06 19:00","2022","03","06","19:00","-9.9","","-11.4","","89","","0.0","","33","","49","","","","101.89","","","","-22","","NA"
"-133.50","68.75","TRAIL VALLEY","220N005","2022-03-06 20:00","2022","03","06","20:00","-10.3","","-11.8","","89","","0.0","","34","","43","","","","101.98","","","","-21","","NA"
"-133.50","68.75","TRAIL VALLEY","220N005","2022-03-06 21:00","2022","03","06","21:00","-10.6","","-12.0","","89","","0.0","","33","","49","","","","102.10","","","","-22","","NA"
"-133.50","68.75","TRAIL VALLEY","220N005","2022-03-06 22:00","2022","03","06","22:00","-11.6","","-13.2","","88","","0.0","","32","","53","","","","102.19","","","","-24","","NA"
"-133.50","68.75","TRAIL VALLEY","220N005","2022-03-06 23:00","2022","03","06","23:00","-12.4","","-14.0","","88","","0.0","","34","","51","","","","102.35","","","","-25","","NA"
"-133.50","68.75","TRAIL VALLEY","220N005","2022-03-07 00:00","2022","03","07","00:00","-13.0","","-14.7","","87","","0.2","","35","","43","","","","102.55","","","","-25","","NA"
"-133.50","68.75","TRAIL VALLEY","220N005","2022-03-07 01:00","2022","03","07","01:00","-13.3","","-15.0","","87","","0.0","","35","","38","","","","102.69","","","","-25","","NA"
"-133.50","68.75","TRAIL VALLEY","220N005","2022-03-07 02:00","2022","03","07","02:00","-13.2","","-15.1","","86","","0.0","","34","","27","","","","102.83","","","","-23","","NA"
"-133.50","68.75","TRAIL VALLEY","220N005","2022-03-07 03:00","2022","03","07","03:00","-13.6","","-15.6","","84","","0.0","","35","","40","","","","102.90","","","","-26","","NA"
"-133.50","68.75","TRAIL VALLEY","220N005","2022-03-07 04:00","2022","03","07","04:00","-14.2","","-16.5","","83","","0.0","","35","","32","","","","103.03","","","","-25","","NA"
"-133.50","68.75","TRAIL VALLEY","220N005","2022-03-07 05:00","2022","03","07","05:00","-14.7","","-17.0","","82","","0.0","","34","","30","","","","103.12","","","","-26","","NA"
"-133.50","68.75","TRAIL VALLEY","220N005","2022-03-07 06:00","2022","03","07","06:00","-14.9","","-17.3","","82","","0.0","","35","","31","","","","103.19","","","","-26","","NA"
"-133.50","68.75","TRAIL VALLEY","220N005","2022-03-07 07:00","2022","03","07","07:00","-15.2","","-17.2","","84","","0.0","","34","","30","","","","103.24","","","","-26","","NA"
"-133.50","68.75","TRAIL VALLEY","220N005","2022-03-07 08:00","2022","03","07","08:00","-16.9","","-19.7","","79","","0.0","","33","","26","","","","103.28","","","","-28","","NA"
"-133.50","68.75","TRAIL VALLEY","220N005","2022-03-07 09:00","2022","03","07","09:00","-17.3","","-19.7","","82","","0.0","","32","","28","","","","103.27","","","","-29","","NA"
"-133.50","68.75","TRAIL VALLEY","220N005","2022-03-07 10:00","2022","03","07","10:00","-16.9","","-19.4","","81","","0.0","","33","","26","","","","103.31","","","","-28","","NA"
"-133.50","68.75","TRAIL VALLEY","220N005","2022-03-07 11:00","2022","03","07","11:00","-17.0","","-19.6","","80","","0.0","","32","","18","","","","103.35","","","","-26","","NA"
"-133.50","68.75","TRAIL VALLEY","220N005","2022-03-07 12:00","2022","03","07","12:00","-16.8","","-19.6","","79","","0.0","","33","","16","","","","103.38","","","","-25","","NA"
"-133.50","68.75","TRAIL VALLEY","220N005","2022-03-07 13:00","2022","03","07","13:00","-16.1","","-19.1","","78","","0.0","","33","","14","","","","103.40","","","","-24","","NA"
"-133.50","68.75","TRAIL VALLEY","220N005","2022-03-07 14:00","2022","03","07","14:00","-15.8","","-18.8","","78","","0.0","","33","","11","","","","103.40","","","","-23","","NA"
"-133.50","68.75","TRAIL VALLEY","220N005","2022-03-07 15:00","2022","03","07","15:00","-15.9","","-19.1","","76","","0.3","","27","","18","","","","103.36","","","","-25","","NA"
"-133.50","68.75","TRAIL VALLEY","220N005","2022-03-07 16:00","2022","03","07","16:00","-16.2","","-19.6","","75","","0.0","","21","","7","","","","103.39","","","","-21","","NA"
"-133.50","68.75","TRAIL VALLEY","220N005","2022-03-07 17:00","2022","03","07","17:00","-15.3","","-18.0","","80","","0.0","","24","","17","","","","103.35","","","","-24","","NA"
"-133.50","68.75","TRAIL VALLEY","220N005","2022-03-07 18:00","2022","03","07","18:00","-15.0","","-17.7","","80","","0.0","","23","","21","","","","103.35","","","","-24","","NA"
"-133.50","68.75","TRAIL VALLEY","220N005","2022-03-07 19:00","2022","03","07","19:00","-15.7","","-18.1","","82","","0.0","","23","","17","","","","103.33","","","","-24","","NA"
"-133.50","68.75","TRAIL VALLEY","220N005","2022-03-07 20:00","2022","03","07","20:00","-15.4","","-17.8","","82","","0.0","","23","","18","","","","103.29","","","","-24","","NA"
"-133.50","68.75","TRAIL VALLEY","220N005","2022-03-07 21:00","2022","03","07","21:00","-16.4","","-18.7","","83","","0.0","","23","","13","","","","103.32","","","","-24","","NA"
"-133.50","68.75","TRAIL VALLEY","220N005","2022-03-07 22:00","2022","03","07","22:00","-15.5","","-18.1","","80","","0.0","","23","","15","","","","103.34","","","","-24","","NA"
"-133.50","68.75","TRAIL VALLEY","220N005","2022-03-07 23:00","2022","03","07","23:00","-14.7","","-17.7","","78","","0.0","","23","","17","","","","103.35","","","","-23","","NA"
"-133.50","68.75","TRAIL VALLEY","220N005","2022-03-08 00:00","2022","03","08","00:00","-14.8","","-17.7","","78","","0.0","","24","","16","","","","103.35","","","","-23","","NA"
"-133.50","68.75","TRAIL VALLEY","220N005","2022-03-08 01:00","2022","03","08","01:00","-15.3","","-18.3","","77","","0.0","","23","","17","","","","103.37","","","","-24","","NA"
"-133.50","68.75","TRAIL VALLEY","220N005","2022-03-08 02:00","2022","03","08","02:00","-16.6","","-19.2","","81","","0.0","","23","","18","","","","103.36","","","","-26","","NA"
"-133.50","68.75","TRAIL VALLEY","220N005","2022-03-08 03:00","2022","03","08","03:00","-15.9","","-18.6","","79","","0.0","","23","","20","","","","103.35","","","","-25","","NA"
"-133.50","68.75","TRAIL VALLEY","220N005","2022-03-08 04:00","2022","03","08","04:00","-16.0","","-18.4","","82","","0.0","","21","","19","","","","103.32","","","","-25","","NA"
"-133.50","68.75","TRAIL VALLEY","220N005","2022-03-08 05:00","2022","03","08","05:00","-17.6","","-19.6","","84","","0.0","","20","","17","","","","103.31","","","","-27","","NA"
"-133.50","68.75","TRAIL VALLEY","220N005","2022-03-08 06:00","2022","03","08","06:00","-17.9","","-19.9","","85","","0.0","","22","","20","","","","103.24","","","","-28","","NA"
"-133.50","68.75","TRAIL VALLEY","220N005","2022-03-08 07:00","2022","03","08","07:00","-18.5","","-20.5","","84","","0.0","","24","","16","","","","103.20","","","","-28","","NA"
"-133.50","68.75","TRAIL VALLEY","220N005","2022-03-08 08:00","2022","03","08","08:00","-18.8","","-20.8","","85","","0.0","","24","","21","","","","103.16","","","","-29","","NA"
"-133.50","68.75","TRAIL VALLEY","220N005","2022-03-08 09:00","2022","03","08","09:00","-18.3","","-20.3","","84","","0.0","","19","","21","","","","103.07","","","","-29","","NA"
"-133.50","68.75","TRAIL VALLEY","220N005","2022-03-08 10:00","2022","03","08","10:00","-17.9","","-20.0","","84","","0.0","","21","","13","","","","103.00","","","","-26","","NA"
"-133.50","68.75","TRAIL VALLEY","220N005","2022-03-08 11:00","2022","03","08","11:00","-18.5","","-20.8","","83","","0.0","","22","","13","","","","102.96","","","","-27","","NA"
"-133.50","68.75","TRAIL VALLEY","220N005","2022-03-08 12:00","2022","03","08","12:00","-18.3","","-20.8","","81","","0.0","","21","","14","","","","102.85","","","","-27","","NA"
"-133.50","68.75","TRAIL VALLEY","220N005","2022-03-08 13:00","2022","03","08","13:00","-18.3","","-20.7","","81","","0.0","","19","","20","","","","102.75","","","","-28","","NA"
"-133.50","68.75","TRAIL VALLEY","220N005","2022-03-08 14:00","2022","03","08","14:00","-16.3","","-18.5","","83","","0.0","","27","","6","","","","102.67","","","","-21","","NA"
"-133.50","68.75","TRAIL VALLEY","220N005","2022-03-08 15:00","2022","03","08","15:00","-16.6","","-18.8","","83","","0.2","","17","","8","","","","102.58","","","","-22","","NA"
"-133.50","68.75","TRAIL VALLEY","220N005","2022-03-08 16:00","2022","03","08","16:00","-15.8","","-18.0","","83","","0.2","","14","","2","","","","102.47","","","","-17","","NA"
"-133.50","68.75","TRAIL VALLEY","220N005","2022-03-08 17:00","2022","03","08","17:00","-17.2","","-19.5","","82","","0.0","","8","","4","","","","102.35","","","","-20","","NA"
"-133.50","68.75","TRAIL VALLEY","220N005","2022-03-08 18:00","2022","03","08","18:00","-16.9","","-19.1","","83","","0.0","","5","","5","","","","102.26","","","","-21","","NA"
"-133.50","68.75","TRAIL VALLEY","220N005","2022-03-08 19:00","2022","03","08","19:00","-20.6","","-22.9","","82","","0.0","","36","","10","","","","102.19","","","","-28","","NA"
"-133.50","68.75","TRAIL VALLEY","220N005","2022-03-08 20:00","2022","03","08","20:00"
"-133.50","68.75","TRAIL VALLEY","220N005","2022-03-08 21:00","2022","03","08","21:00"
"-133.50","68.75","TRAIL VALLEY","220N005","2022-03-08 22:00","2022","03","08","22:00","-23.9","","-26.4","","80","","0.0","","31","","6","","","","101.92","","","","-30","","NA"
"-133.50","68.75","TRAIL VALLEY","220N005","2022-03-08 23:00","2022","03","08","23:00","-25.1","","-27.7","","79","","0.0","","33","","9","","","","101.90","","","","-33","","NA"
"-133.50","68.75","TRAIL VALLEY","220N005","2022-03-09 00:00","2022","03","09","00:00","-25.5","","-28.1","","79","","0.0","","31","","7","","","","101.88","","","","-32","","NA"
"-133.50","68.75","TRAIL VALLEY","220N005","2022-03-09 01:00","2022","03","09","01:00","-24.1","","-26.7","","80","","0.5","","36","","8","","","","101.87","","","","-31","","NA"
"-133.50","68.75","TRAIL VALLEY","220N005","2022-03-09 02:00","2022","03","09","02:00","-23.2","","-25.6","","80","","0.0","","36","","7","","","","101.89","","","","-29","","NA"
"-133.50","68.75","TRAIL VALLEY","220N005","2022-03-09 03:00","2022","03","09","03:00","-23.3","","-25.8","","80","","0.0","","1","","19","","","","101.87","","","","-34","","NA"
"-133.50","68.75","TRAIL VALLEY","220N005","2022-03-09 04:00","2022","03","09","04:00","-24.0","","-26.5","","80","","0.0","","1","","14","","","","101.91","","","","-34","","NA"
"-133.50","68.75","TRAIL VALLEY","220N005","2022-03-09 05:00","2022","03","09","05:00","-23.4","","-25.9","","80","","0.0","","36","","12","","","","101.93","","","","-32","","NA"
"-133.50","68.75","TRAIL VALLEY","220N005","2022-03-09 06:00","2022","03","09","06:00","-23.1","","-25.5","","80","","0.0","","35","","10","","","","101.93","","","","-31","","NA"
"-133.50","68.75","TRAIL VALLEY","220N005","2022-03-09 07:00","2022","03","09","07:00","-22.6","","-25.0","","81","","0.0","","32","","13","","","","101.99","","","","-32","","NA"
"-133.50","68.75","TRAIL VALLEY","220N005","2022-03-09 08:00","2022","03","09","08:00","-22.0","","-24.4","","81","","0.0","","34","","14","","","","102.04","","","","-31","","NA"
"-133.50","68.75","TRAIL VALLEY","220N005","2022-03-09 09:00","2022","03","09","09:00","-22.4","","-24.9","","81","","0.0","","33","","15","","","","102.08","","","","-32","","NA"
"-133.50","68.75","TRAIL VALLEY","220N005","2022-03-09 10:00","2022","03","09","10:00","-22.5","","-25.0","","80","","0.0","","34","","12","","","","102.12","","","","-31","","NA"
"-133.50","68.75","TRAIL VALLEY","220N005","2022-03-09 11:00","2022","03","09","11:00","-23.2","","-25.7","","79","","0.0","","35","","12","","","","102.16","","","","-32","","NA"
"-133.50","68.75","TRAIL VALLEY","220N005","2022-03-09 12:00","2022","03","09","12:00","-23.5","","-26.1","","79","","0.0","","34","","10","","","","102.22","","","","-31","","NA"
"-133.50","68.75","TRAIL VALLEY","220N005","2022-03-09 13:00","2022","03","09","13:00","-23.7","","-26.5","","78","","0.2","","35","","10","","","","102.29","","","","-32","","NA"
"-133.50","68.75","TRAIL VALLEY","220N005","2022-03-09 14:00","2022","03","09","14:00","-23.8","","-26.5","","78","","0.0","","1","","8","","","","102.35","","","","-31","","NA"
"-133.50","68.75","TRAIL VALLEY","220N005","2022-03-09 15:00","2022","03","09","15:00","-23.8","","-26.5","","78","","0.0","","33","","6","","","","102.38","","","","-29","","NA"
"-133.50","68.75","TRAIL VALLEY","220N005","2022-03-09 16:00","2022","03","09","16:00","-23.6","","-26.2","","79","","0.0","","32","","6","","","","102.40","","","","-29","","NA"
"-133.50","68.75","TRAIL VALLEY","220N005","2022-03-09 17:00","2022","03","09","17:00","-23.6","","-26.1","","79","","0.0","","32","","7","","","","102.43","","","","-30","","NA"
"-133.50","68.75","TRAIL VALLEY","220N005","2022-03-09 18:00","2022","03","09","18:00","-24.9","","-27.6","","78","","0.0","","35","","9","","","","102.44","","","","-33","","NA"
"-133.50","68.75","TRAIL VALLEY","220N005","2022-03-09 19:00","2022","03","09","19:00","-26.4","","-29.2","","78","","0.0","","32","","8","","","","102.45","","","","-34","","NA"
"-133.50","68.75","TRAIL VALLEY","220N005","2022-03-09 20:00","2022","03","09","20:00","-27.0","","-29.7","","78","","0.0","","33","","8","","","","102.42","","","","-34","","NA"
"-133.50","68.75","TRAIL VALLEY","220N005","2022-03-09 21:00","2022","03","09","21:00","-27.6","","-30.4","","77","","0.0","","33","","9","","","","102.42","","","","-36","","NA"
"-133.50","68.75","TRAIL VALLEY","220N005","2022-03-09 22:00","2022","03","09","22:00","-28.2","","-31.1","","77","","0.0","","32","","10","","","","102.44","","","","-37","","NA"
"-133.50","68.75","TRAIL VALLEY","220N005","2022-03-09 23:00","2022","03","09","23:00","-28.1","","-30.9","","77","","0.0","","31","","8","","","","102.44","","","","-36","","NA"
"-133.50","68.75","TRAIL VALLEY","220N005","2022-03-10 00:00","2022","03","10","00:00","-27.5","","-30.2","","77","","0.0","","28","","4","","","","102.45","","","","-32","","NA"
"-133.50","68.75","TRAIL VALLEY","220N005","2022-03-10 01:00","2022","03","10","01:00","-28.7","","-31.6","","76","","0.0","","28","","5","","","","102.44","","","","-34","","NA"
"-133.50","68.75","TRAIL VALLEY","220N005","2022-03-10 02:00","2022","03","10","02:00","-28.6","","-31.5","","76","","0.0","","28","","4","","","","102.43","","","","-33","","NA"
"-133.50","68.75","TRAIL VALLEY","220N005","2022-03-10 03:00","2022","03","10","03:00","-28.8","","-31.6","","76","","0.0","","27","","6","","","","102.41","","","","-35","","NA"
"-133.50","68.75","TRAIL VALLEY","220N005","2022-03-10 04:00","2022","03","10","04:00","-28.4","","-31.2","","77","","0.0","","26","","5","","","","102.38","","","","-34","","NA"
"-133.50","68.75","TRAIL VALLEY","220N005","2022-03-10 05:00","2022","03","10","05:00","-29.2","","-32.1","","76","","0.0","","25","","6","","","","102.32","","","","-36","","NA"
"-133.50","68.75","TRAIL VALLEY","220N005","2022-03-10 06:00","2022","03","10","06:00","-28.7","","-31.5","","77","","0.0","","27","","4","","","","102.30","","","","-33","","NA"
"-133.50","68.75","TRAIL VALLEY","220N005","2022-03-10 07:00","2022","03","10","07:00","-29.2","","-32.1","","76","","0.0","","27","","4","","","","102.29","","","","-34","","NA"
"-133.50","68.75","TRAIL VALLEY","220N005","2022-03-10 08:00","2022","03","10","08:00","-28.3","","-31.2","","77","","0.0","","27","","4","","","","102.24","","","","-33","","NA"
"-133.50","68.75","TRAIL VALLEY","220N005","2022-03-10 09:00","2022","03","10","09:00","-28.9","","-31.9","","76","","0.0","","26","","5","","","","102.19","","","","-34","","NA"
"-133.50","68.75","TRAIL VALLEY","220N005","2022-03-10 10:00","2022","03","10","10:00","-28.1","","-31.1","","75","","0.0","","26","","4","","","","102.17","","","","-32","","NA"
"-133.50","68.75","TRAIL VALLEY","220N005","2022-03-10 11:00","2022","03","10","11:00","-26.8","","-29.7","","76","","0.3","","27","","4","","","","102.14","","","","-31","","NA"
"-133.50","68.75","TRAIL VALLEY","220N005","2022-03-10 12:00","2022","03","10","12:00","-25.5","","-28.5","","76","","0.0","","28","","4","","","","102.12","","","","-30","","NA"
"-133.50","68.75","TRAIL VALLEY","220N005","2022-03-10 13:00","2022","03","10","13:00","-24.9","","-27.8","","76","","0.2","","29","","3","","","","102.12","","","","-28","","NA"
"-133.50","68.75","TRAIL VALLEY","220N005","2022-03-10 14:00","2022","03","10","14:00","-25.3","","-28.2","","77","","0.0","","30","","3","","","","102.12","","","","-28","","NA"
"-133.50","68.75","TRAIL VALLEY","220N005","2022-03-10 15:00","2022","03","10","15:00","-25.2","","-28.2","","76","","0.0","","30","","6","","","","102.06","","","","-31","","NA"
"-133.50","68.75","TRAIL VALLEY","220N005","2022-03-10 16:00","2022","03","10","16:00","-25.7","","-28.6","","77","","0.0","","26","","6","","","","102.01","","","","-32","","NA"
"-133.50","68.75","TRAIL VALLEY","220N005","2022-03-10 17:00","2022","03","10","17:00","-25.9","","-28.7","","77","","0.0","","26","","8","","","","101.96","","","","-33","","NA"
"-133.50","68.75","TRAIL VALLEY","220N005","2022-03-10 18:00","2022","03","10","18:00","-26.6","","-29.6","","76","","0.0","","27","","8","","","","101.90","","","","-34","","NA"
"-133.50","68.75","TRAIL VALLEY","220N005","2022-03-10 19:00","2022","03","10","19:00","-27.4","","-30.3","","77","","0.0","","27","","6","","","","101.84","","","","-34","","NA"
"-133.50","68.75","TRAIL VALLEY","220N005","2022-03-10 20:00","2022","03","10","20:00","-29.7","","-32.7","","75","","0.0","","26","","7","","","","101.77","","","","-37","","NA"
"-133.50","68.75","TRAIL VALLEY","220N005","2022-03-10 21:00","2022","03","10","21:00","-29.6","","-32.5","","76","","0.0","","28","","7","","","","101.73","","","","-37","","NA"
"-133.50","68.75","TRAIL VALLEY","220N005","2022-03-10 22:00","2022","03","10","22:00","-30.0","","-33.0","","75","","0.2","","27","","7","","","","101.65","","","","-37","","NA"
"-133.50","68.75","TRAIL VALLEY","220N005","2022-03-10 23:00","2022","03","10","23:00","-30.0","","-32.9","","75","","0.0","","28","","6","","","","101.59","","","","-37","","NA"
"-133.50","68.75","TRAIL VALLEY","220N005","2022-03-11 00:00","2022","03","11","00:00","-30.5","","-33.5","","75","","0.0","","25","","9","","","","101.52","","","","-39","","NA"
"-133.50","68.75","TRAIL VALLEY","220N005","2022-03-11 01:00","2022","03","11","01:00","-29.6","","-32.6","","76","","0.2","","26","","9","","","","101.46","","","","-38","","NA"
"-133.50","68.75","TRAIL VALLEY","220N005","2022-03-11 02:00","2022","03","11","02:00","-29.5","","-32.4","","76","","0.0","","26","","10","","","","101.40","","","","-39","","NA"
"-133.50","68.75","TRAIL VALLEY","220N005","2022-03-11 03:00","2022","03","11","03:00","-29.0","","-31.9","","76","","0.3","","25","","10","","","","101.33","","","","-38","","NA"
"-133.50","68.75","TRAIL VALLEY","220N005","2022-03-11 04:00","2022","03","11","04:00","-27.4","","-30.2","","77","","0.0","","26","","9","","","","101.25","","","","-36","","NA"
"-133.50","68.75","TRAIL VALLEY","220N005","2022-03-11 05:00","2022","03","11","05:00","-25.5","","-28.2","","78","","0.2","","26","","10","","","","101.18","","","","-34","","NA"
"-133.50","68.75","TRAIL VALLEY","220N005","2022-03-11 06:00","2022","03","11","06:00","-25.2","","-27.8","","78","","0.0","","26","","10","","","","101.10","","","","-33","","NA"
"-133.50","68.75","TRAIL VALLEY","220N005","2022-03-11 07:00","2022","03","11","07:00","-24.8","","-27.4","","79","","0.0","","26","","14","","","","101.00","","","","-35","","NA"
"-133.50","68.75","TRAIL VALLEY","220N005","2022-03-11 08:00","2022","03","11","08:00","-24.0","","-26.6","","79","","0.0","","26","","13","","","","100.91","","","","-33","","NA"
"-133.50","68.75","TRAIL VALLEY","220N005","2022-03-11 09:00","2022","03","11","09:00","-23.8","","-26.4","","79","","0.0","","26","","15","","","","100.87","","","","-34","","NA"
"-133.50","68.75","TRAIL VALLEY","220N005","2022-03-11 10:00","2022","03","11","10:00","-23.3","","-25.9","","79","","0.0","","24","","17","","","","100.79","","","","-34","","NA"
"-133.50","68.75","TRAIL VALLEY","220N005","2022-03-11 11:00","2022","03","11","11:00","-23.1","","-25.7","","79","","0.0","","24","","21","","","","100.73","","","","-35","","NA"
"-133.50","68.75","TRAIL VALLEY","220N005","2022-03-11 12:00","2022","03","11","12:00","-22.2","","-24.7","","80","","0.0","","24","","22","","","","100.67","","","","-34","","NA"
"-133.50","68.75","TRAIL VALLEY","220N005","2022-03-11 13:00","2022","03","11","13:00","-22.1","","-24.7","","80","","0.0","","24","","19","","","","100.65","","","","-33","","NA"
"-133.50","68.75","TRAIL VALLEY","220N005","2022-03-11 14:00","2022","03","11","14:00","-21.9","","-24.6","","79","","0.0","","24","","19","","","","100.60","","","","-33","","NA"
"-133.50","68.75","TRAIL VALLEY","220N005","2022-03-11 15:00","2022","03","11","15:00","-20.5","","-22.9","","81","","0.0","","24","","19","","","","100.56","","","","-31","","NA"
"-133.50","68.75","TRAIL VALLEY","220N005","2022-03-11 16:00","2022","03","11","16:00","-20.0","","-22.4","","81","","0.0","","25","","19","","","","100.50","","","","-30","","NA"
"-133.50","68.75","TRAIL VALLEY","220N005","2022-03-11 17:00","2022","03","11","17:00","-20.0","","-22.3","","82","","0.0","","24","","20","","","","100.49","","","","-30","","NA"
"-133.50","68.75","TRAIL VALLEY","220N005","2022-03-11 18:00","2022","03","11","18:00","-19.9","","-22.1","","82","","0.0","","25","","10","","","","100.50","","","","-27","","NA"
"-133.50","68.75","TRAIL VALLEY","220N005","2022-03-11 19:00","2022","03","11","19:00","-21.1","","-23.5","","81","","0.0","","30","","14","","","","100.53","","","","-30","","NA"
"-133.50","68.75","TRAIL VALLEY","220N005","2022-03-11 20:00","2022","03","11","20:00","-20.7","","-23.0","","82","","0.0","","32","","20","","","","100.52","","","","-31","","NA"
"-133.50","68.75","TRAIL VALLEY","220N005","2022-03-11 21:00","2022","03","11","21:00","-20.1","","-22.3","","83","","0.0","","31","","21","","","","100.52","","","","-31","","NA"
"-133.50","68.75","TRAIL VALLEY","220N005","2022-03-11 22:00","2022","03","11","22:00","-20.5","","-22.8","","82","","0.0","","29","","14","","","","100.57","","","","-29","","NA"
"-133.50","68.75","TRAIL VALLEY","220N005","2022-03-11 23:00","2022","03","11","23:00","-20.2","","-22.5","","82","","0.0","","33","","26","","","","100.61","","","","-32","","NA"
"-133.50","68.75","TRAIL VALLEY","220N005","2022-03-12 00:00","2022","03","12","00:00","-22.0","","-24.4","","81","","0.0","","35","","28","","","","100.70","","","","-35","","NA"
"-133.50","68.75","TRAIL VALLEY","220N005","2022-03-12 01:00","2022","03","12","01:00","-23.4","","-25.9","","80","","0.0","","34","","31","","","","100.79","","","","-37","","NA"
"-133.50","68.75","TRAIL VALLEY","220N005","2022-03-12 02:00","2022","03","12","02:00","-24.8","","-27.4","","79","","0.0","","34","","29","","","","100.88","","","","-39","","NA"
"-133.50","68.75","TRAIL VALLEY","220N005","2022-03-12 03:00","2022","03","12","03:00","-25.3","","-27.9","","79","","0.0","","34","","27","","","","100.94","","","","-39","","NA"
"-133.50","68.75","TRAIL VALLEY","220N005","2022-03-12 04:00","2022","03","12","04:00","-25.5","","-28.1","","79","","0.0","","34","","27","","","","101.02","","","","-39","","NA"
"-133.50","68.75","TRAIL VALLEY","220N005","2022-03-12 05:00","2022","03","12","05:00","-25.2","","-27.8","","79","","0.0","","35","","28","","","","101.08","","","","-39","","NA"
"-133.50","68.75","TRAIL VALLEY","220N005","2022-03-12 06:00","2022","03","12","06:00","-26.3","","-29.0","","78","","0.0","","35","","31","","","","101.15","","","","-41","","NA"
"-133.50","68.75","TRAIL VALLEY","220N005","2022-03-12 07:00","2022","03","12","07:00","-27.1","","-29.8","","78","","0.0","","36","","24","","","","101.23","","","","-40","","NA"
"-133.50","68.75","TRAIL VALLEY","220N005","2022-03-12 08:00","2022","03","12","08:00","-27.1","","-29.8","","77","","0.0","","34","","21","","","","101.31","","","","-40","","NA"
"-133.50","68.75","TRAIL VALLEY","220N005","2022-03-12 09:00","2022","03","12","09:00","-27.1","","-29.8","","77","","0.0","","34","","18","","","","101.38","","","","-39","","NA"
"-133.50","68.75","TRAIL VALLEY","220N005","2022-03-12 10:00","2022","03","12","10:00","-26.7","","-29.5","","77","","0.0","","33","","17","","","","101.43","","","","-38","","NA"
"-133.50","68.75","TRAIL VALLEY","220N005","2022-03-12 11:00","2022","03","12","11:00","-25.8","","-28.6","","77","","0.0","","36","","22","","","","101.47","","","","-38","","NA"
"-133.50","68.75","TRAIL VALLEY","220N005","2022-03-12 12:00","2022","03","12","12:00","-25.5","","-28.4","","77","","0.0","","35","","30","","","","101.51","","","","-40","","NA"
"-133.50","68.75","TRAIL VALLEY","220N005","2022-03-12 13:00","2022","03","12","13:00","-25.1","","-28.1","","76","","0.0","","35","","21","","","","101.62","","","","-37","","NA"
"-133.50","68.75","TRAIL VALLEY","220N005","2022-03-12 14:00","2022","03","12","14:00","-24.7","","-27.7","","76","","0.0","","34","","18","","","","101.67","","","","-36","","NA"
"-133.50","68.75","TRAIL VALLEY","220N005","2022-03-12 15:00","2022","03","12","15:00","-24.5","","-27.3","","77","","0.0","","32","","14","","","","101.76","","","","-34","","NA"
"-133.50","68.75","TRAIL VALLEY","220N005","2022-03-12 16:00","2022","03","12","16:00","-25.1","","-28.0","","77","","0.0","","31","","18","","","","101.76","","","","-36","","NA"
"-133.50","68.75","TRAIL VALLEY","220N005","2022-03-12 17:00","2022","03","12","17:00","-25.0","","-27.9","","77","","0.0","","30","","16","","","","101.79","","","","-36","","NA"
"-133.50","68.75","TRAIL VALLEY","220N005","2022-03-12 18:00","2022","03","12","18:00","-25.7","","-28.5","","77","","0.0","","33","","24","","","","101.77","","","","-39","","NA"
"-133.50","68.75","TRAIL VALLEY","220N005","2022-03-12 19:00","2022","03","12","19:00","-26.3","","-29.1","","77","","0.0","","31","","18","","","","101.78","","","","-38","","NA"
"-133.50","68.75","TRAIL VALLEY","220N005","2022-03-12 20:00","2022","03","12","20:00","-26.7","","-29.4","","78","","0.0","","29","","18","","","","101.78","","","","-38","","NA"
"-133.50","68.75","TRAIL VALLEY","220N005","2022-03-12 21:00","2022","03","12","21:00","-26.4","","-29.1","","78","","0.0","","29","","22","","","","101.78","","","","-39","","NA"
"-133.50","68.75","TRAIL VALLEY","220N005","2022-03-12 22:00","2022","03","12","22:00","-26.0","","-28.7","","78","","0.0","","30","","23","","","","101.75","","","","-39","","NA"
"-133.50","68.75","TRAIL VALLEY","220N005","2022-03-12 23:00","2022","03","12","23:00","-25.3","","-27.9","","79","","0.0","","28","","18","","","","101.75","","","","-37","","NA"
"-133.50","68.75","TRAIL VALLEY","220N005","2022-03-13 00:00","2022","03","13","00:00","-25.3","","-27.9","","79","","0.0","","30","","21","","","","101.73","","","","-37","","NA"
"-133.50","68.75","TRAIL VALLEY","220N005","2022-03-13 01:00","2022","03","13","01:00","-25.7","","-28.4","","78","","0.0","","31","","23","","","","101.70","","","","-38","","NA"
"-133.50","68.75","TRAIL VALLEY","220N005","2022-03-13 02:00","2022","03","13","02:00","-26.0","","-28.7","","78","","0.0","","29","","19","","","","101.66","","","","-38","","NA"
"-133.50","68.75","TRAIL VALLEY","220N005","2022-03-13 03:00","2022","03","13","03:00","-26.3","","-29.1","","78","","0.0","","29","","19","","","","101.62","","","","-38","","NA"
"-133.50","68.75","TRAIL VALLEY","220N005","2022-03-13 04:00","2022","03","13","04:00","-25.9","","-28.5","","78","","0.0","","30","","19","","","","101.59","","","","-38","","NA"
"-133.50","68.75","TRAIL VALLEY","220N005","2022-03-13 05:00","2022","03","13","05:00","-27.2","","-30.0","","77","","0.0","","28","","21","","","","101.51","","","","-40","","NA"
"-133.50","68.75","TRAIL VALLEY","220N005","2022-03-13 06:00","2022","03","13","06:00","-26.6","","-29.4","","77","","0.0","","29","","24","","","","101.45","","","","-40","","NA"
"-133.50","68.75","TRAIL VALLEY","220N005","2022-03-13 07:00","2022","03","13","07:00","-26.1","","-28.8","","78","","0.0","","25","","22","","","","101.38","","","","-39","","NA"
"-133.50","68.75","TRAIL VALLEY","220N005","2022-03-13 08:00","2022","03","13","08:00","-26.3","","-29.1","","78","","0.0","","22","","22","","","","101.27","","","","-39","","NA"
"-133.50","68.75","TRAIL VALLEY","220N005","2022-03-13 09:00","2022","03","13","09:00","-26.7","","-29.6","","77","","0.0","","24","","14","","","","101.21","","","","-37","","NA"
"-133.50","68.75","TRAIL VALLEY","220N005","2022-03-13 10:00","2022","03","13","10:00","-25.3","","-28.2","","77","","0.0","","19","","30","","","","101.09","","","","-39","","NA"
"-133.50","68.75","TRAIL VALLEY","220N005","2022-03-13 11:00","2022","03","13","11:00","-24.0","","-26.8","","78","","0.0","","20","","30","","","","101.00","","","","-38","","NA"
"-133.50","68.75","TRAIL VALLEY","220N005","2022-03-13 12:00","2022","03","13","12:00","-24.0","","-26.9","","77","","0.0","","20","","32","","","","100.86","","","","-38","","NA"
"-133.50","68.75","TRAIL VALLEY","220N005","2022-03-13 13:00","2022","03","13","13:00","-23.4","","-26.3","","77","","0.0","","20","","36","","","","100.74","","","","-38","","NA"
"-133.50","68.75","TRAIL VALLEY","220N005","2022-03-13 14:00","2022","03","13","14:00","-22.0","","-24.8","","78","","0.0","","20","","34","","","","100.64","","","","-36","","NA"
"-133.50","68.75","TRAIL VALLEY","220N005","2022-03-13 15:00","2022","03","13","15:00","-21.0","","-23.7","","79","","0.0","","19","","30","","","","100.52","","","","-34","","NA"
"-133.50","68.75","TRAIL VALLEY","220N005","2022-03-13 16:00","2022","03","13","16:00","-20.4","","-23.0","","80","","0.0","","20","","31","","","","100.40","","","","-33","","NA"
"-133.50","68.75","TRAIL VALLEY","220N005","2022-03-13 17:00","2022","03","13","17:00","-20.1","","-22.7","","80","","0.0","","20","","36","","","","100.25","","","","-34","","NA"
"-133.50","68.75","TRAIL VALLEY","220N005","2022-03-13 18:00","2022","03","13","18:00","-20.1","","-22.6","","80","","0.0","","19","","30","","","","100.17","","","","-33","","NA"
"-133.50","68.75","TRAIL VALLEY","220N005","2022-03-13 19:00","2022","03","13","19:00","-20.5","","-23.2","","79","","0.0","","21","","21","","","","100.07","","","","-31","","NA"
"-133.50","68.75","TRAIL VALLEY","220N005","2022-03-13 20:00","2022","03","13","20:00","-20.5","","-23.4","","77","","0.0","","20","","32","","","","99.93","","","","-34","","NA"
"-133.50","68.75","TRAIL VALLEY","220N005","2022-03-13 21:00","2022","03","13","21:00","-20.3","","-23.7","","74","","0.0","","20","","30","","","","99.80","","","","-33","","NA"
"-133.50","68.75","TRAIL VALLEY","220N005","2022-03-13 22:00","2022","03","13","22:00","-19.8","","-23.9","","70","","0.0","","21","","40","","","","99.69","","","","-34","","NA"
"-133.50","68.75","TRAIL VALLEY","220N005","2022-03-13 23:00","2022","03","13","23:00","-20.2","","-24.4","","69","","0.0","","20","","36","","","","99.59","","","","-34","","NA"
"-133.50","68.75","TRAIL VALLEY","220N005","2022-03-14 00:00","2022","03","14","00:00","-20.3","","-24.4","","70","","0.0","","21","","32","","","","99.51","","","","-33","","NA"
"-133.50","68.75","TRAIL VALLEY","220N005","2022-03-14 01:00","2022","03","14","01:00","-19.7","","-24.2","","68","","0.0","","21","","31","","","","99.46","","","","-32","","NA"
"-133.50","68.75","TRAIL VALLEY","220N005","2022-03-14 02:00","2022","03","14","02:00","-19.7","","-24.3","","67","","0.0","","23","","27","","","","99.42","","","","-32","","NA"
"-133.50","68.75","TRAIL VALLEY","220N005","2022-03-14 03:00","2022","03","14","03:00","-19.8","","-24.7","","65","","0.0","","24","","23","","","","99.39","","","","-31","","NA"
"-133.50","68.75","TRAIL VALLEY","220N005","2022-03-14 04:00","2022","03","14","04:00","-20.1","","-24.6","","67","","0.0","","24","","24","","","","99.35","","","","-32","","NA"
"-133.50","68.75","TRAIL VALLEY","220N005","2022-03-14 05:00","2022","03","14","05:00","-18.8","","-23.0","","69","","0.0","","31","","37","","","","99.29","","","","-32","","NA"
"-133.50","68.75","TRAIL VALLEY","220N005","2022-03-14 06:00","2022","03","14","06:00","-17.7","","-21.9","","70","","0.0","","33","","42","","","","99.25","","","","-31","","NA"
"-133.50","68.75","TRAIL VALLEY","220N005","2022-03-14 07:00","2022","03","14","07:00","-17.7","","-22.0","","69","","0.0","","32","","31","","","","99.23","","","","-30","","NA"
"-133.50","68.75","TRAIL VALLEY","220N005","2022-03-14 08:00","2022","03","14","08:00","-17.6","","-20.7","","77","","0.0","","33","","35","","","","99.24","","","","-30","","NA"
"-133.50","68.75","TRAIL VALLEY","220N005","2022-03-14 09:00","2022","03","14","09:00","-18.0","","-20.6","","80","","0.0","","33","","19","","","","99.33","","","","-28","","NA"
"-133.50","68.75","TRAIL VALLEY","220N005","2022-03-14 10:00","2022","03","14","10:00","-18.1","","-20.5","","81","","0.0","","33","","25","","","","99.28","","","","-29","","NA"
"-133.50","68.75","TRAIL VALLEY","220N005","2022-03-14 11:00","2022","03","14","11:00","-17.8","","-20.4","","80","","0.0","","33","","27","","","","99.27","","","","-29","","NA"
"-133.50","68.75","TRAIL VALLEY","220N005","2022-03-14 12:00","2022","03","14","12:00","-17.5","","-20.3","","79","","0.0","","35","","15","","","","99.31","","","","-26","","NA"
"-133.50","68.75","TRAIL VALLEY","220N005","2022-03-14 13:00","2022","03","14","13:00","-17.4","","-20.3","","78","","0.0","","34","","20","","","","99.35","","","","-27","","NA"
"-133.50","68.75","TRAIL VALLEY","220N005","2022-03-14 14:00","2022","03","14","14:00","-17.6","","-20.4","","79","","0.0","","33","","19","","","","99.40","","","","-27","","NA"
"-133.50","68.75","TRAIL VALLEY","220N005","2022-03-14 15:00","2022","03","14","15:00","-17.7","","-20.5","","79","","0.0","","33","","13","","","","99.42","","","","-26","","NA"
"-133.50","68.75","TRAIL VALLEY","220N005","2022-03-14 16:00","2022","03","14","16:00","-18.0","","-20.8","","79","","0.0","","32","","18","","","","99.45","","","","-27","","NA"
"-133.50","68.75","TRAIL VALLEY","220N005","2022-03-14 17:00","2022","03","14","17:00","-18.8","","-21.6","","78","","0.0","","34","","18","","","","99.46","","","","-28","","NA"
"-133.50","68.75","TRAIL VALLEY","220N005","2022-03-14 18:00","2022","03","14","18:00","-19.6","","-22.2","","80","","0.0","","36","","11","","","","99.48","","","","-27","","NA"
"-133.50","68.75","TRAIL VALLEY","220N005","2022-03-14 19:00","2022","03","14","19:00","-22.2","","-24.3","","83","","0.0","","34","","15","","","","99.54","","","","-32","","NA"
"-133.50","68.75","TRAIL VALLEY","220N005","2022-03-14 20:00","2022","03","14","20:00","-22.3","","-24.1","","85","","0.0","","35","","11","","","","99.56","","","","-30","","NA"
"-133.50","68.75","TRAIL VALLEY","220N005","2022-03-14 21:00","2022","03","14","21:00","-22.6","","-24.6","","84","","0.0","","33","","7","","","","99.59","","","","-29","","NA"
"-133.50","68.75","TRAIL VALLEY","220N005","2022-03-14 22:00","2022","03","14","22:00","-22.2","","-24.4","","82","","0.0","","33","","11","","","","99.61","","","","-30","","NA"
"-133.50","68.75","TRAIL VALLEY","220N005","2022-03-14 23:00","2022","03","14","23:00","-21.2","","-23.4","","83","","0.0","","29","","8","","","","99.64","","","","-28","","NA"
"-133.50","68.75","TRAIL VALLEY","220N005","2022-03-15 00:00","2022","03","15","00:00","-20.9","","-23.1","","82","","0.0","","28","","7","","","","99.69","","","","-27","","NA"
"-133.50","68.75","TRAIL VALLEY","220N005","2022-03-15 01:00","2022","03","15","01:00","-20.3","","-22.5","","82","","0.0","","30","","8","","","","99.70","","","","-27","","NA"
"-133.50","68.75","TRAIL VALLEY","220N005","2022-03-15 02:00","2022","03","15","02:00","-20.2","","-22.5","","82","","0.0","","33","","13","","","","99.75","","","","-29","","NA"
"-133.50","68.75","TRAIL VALLEY","220N005","2022-03-15 03:00","2022","03","15","03:00","-20.3","","-22.6","","82","","0.0","","35","","19","","","","99.79","","","","-31","","NA"
"-133.50","68.75","TRAIL VALLEY","220N005","2022-03-15 04:00","2022","03","15","04:00","-21.7","","-24.1","","81","","0.0","","36","","15","","","","99.83","","","","-31","","NA"
"-133.50","68.75","TRAIL VALLEY","220N005","2022-03-15 05:00","2022","03","15","05:00","-24.6","","-27.0","","80","","0.0","","34","","12","","","","99.88","","","","-34","","NA"
"-133.50","68.75","TRAIL VALLEY","220N005","2022-03-15 06:00","2022","03","15","06:00","-25.9","","-28.5","","79","","0.0","","33","","19","","","","99.89","","","","-38","","NA"
"-133.50","68.75","TRAIL VALLEY","220N005","2022-03-15 07:00","2022","03","15","07:00","-26.4","","-29.2","","78","","0.0","","34","","18","","","","99.94","","","","-38","","NA"
"-133.50","68.75","TRAIL VALLEY","220N005","2022-03-15 08:00","2022","03","15","08:00","-27.3","","-29.9","","78","","0.0","","33","","15","","","","99.95","","","","-38","","NA"
"-133.50","68.75","TRAIL VALLEY","220N005","2022-03-15 09:00","2022","03","15","09:00","-27.2","","-29.9","","78","","0.0","","30","","11","","","","100.00","","","","-36","","NA"
"-133.50","68.75","TRAIL VALLEY","220N005","2022-03-15 10:00","2022","03","15","10:00"
"-133.50","68.75","TRAIL VALLEY","220N005","2022-03-15 11:00","2022","03","15","11:00"
"-133.50","68.75","TRAIL VALLEY","220N005","2022-03-15 12:00","2022","03","15","12:00"
"-133.50","68.75","TRAIL VALLEY","220N005","2022-03-15 13:00","2022","03","15","13:00"
"-133.50","68.75","TRAIL VALLEY","220N005","2022-03-15 14:00","2022","03","15","14:00"
"-133.50","68.75","TRAIL VALLEY","220N005","2022-03-15 15:00","2022","03","15","15:00"
"-133.50","68.75","TRAIL VALLEY","220N005","2022-03-15 16:00","2022","03","15","16:00"
"-133.50","68.75","TRAIL VALLEY","220N005","2022-03-15 17:00","2022","03","15","17:00"
"-133.50","68.75","TRAIL VALLEY","220N005","2022-03-15 18:00","2022","03","15","18:00"
"-133.50","68.75","TRAIL VALLEY","220N005","2022-03-15 19:00","2022","03","15","19:00"
"-133.50","68.75","TRAIL VALLEY","220N005","2022-03-15 20:00","2022","03","15","20:00"
"-133.50","68.75","TRAIL VALLEY","220N005","2022-03-15 21:00","2022","03","15","21:00"
"-133.50","68.75","TRAIL VALLEY","220N005","2022-03-15 22:00","2022","03","15","22:00"
"-133.50","68.75","TRAIL VALLEY","220N005","2022-03-15 23:00","2022","03","15","23:00"
"-133.50","68.75","TRAIL VALLEY","220N005","2022-03-16 00:00","2022","03","16","00:00"
"-133.50","68.75","TRAIL VALLEY","220N005","2022-03-16 01:00","2022","03","16","01:00"
"-133.50","68.75","TRAIL VALLEY","220N005","2022-03-16 02:00","2022","03","16","02:00"
"-133.50","68.75","TRAIL VALLEY","220N005","2022-03-16 03:00","2022","03","16","03:00"
"-133.50","68.75","TRAIL VALLEY","220N005","2022-03-16 04:00","2022","03","16","04:00"
"-133.50","68.75","TRAIL VALLEY","220N005","2022-03-16 05:00","2022","03","16","05:00"
"-133.50","68.75","TRAIL VALLEY","220N005","2022-03-16 06:00","2022","03","16","06:00","-29.3","","-32.6","","73","","0.0","","29","","17","","","","100.12","","","","-41","","NA"
"-133.50","68.75","TRAIL VALLEY","220N005","2022-03-16 07:00","2022","03","16","07:00","-28.4","","-31.8","","73","","0.0","","28","","16","","","","100.10","","","","-40","","NA"
"-133.50","68.75","TRAIL VALLEY","220N005","2022-03-16 08:00","2022","03","16","08:00","-28.4","","-32.0","","71","","0.0","","29","","19","","","","100.12","","","","-41","","NA"
"-133.50","68.75","TRAIL VALLEY","220N005","2022-03-16 09:00","2022","03","16","09:00","-28.1","","-32.1","","69","","0.0","","27","","14","","","","100.12","","","","-39","","NA"
"-133.50","68.75","TRAIL VALLEY","220N005","2022-03-16 10:00","2022","03","16","10:00","-26.3","","-30.9","","66","","0.0","","27","","18","","","","100.11","","","","-38","","NA"
"-133.50","68.75","TRAIL VALLEY","220N005","2022-03-16 11:00","2022","03","16","11:00","-26.0","","-30.2","","67","","0.0","","26","","14","","","","100.10","","","","-36","","NA"
"-133.50","68.75","TRAIL VALLEY","220N005","2022-03-16 12:00","2022","03","16","12:00","-24.1","","-29.1","","63","","0.0","","29","","19","","","","100.10","","","","-35","","NA"
"-133.50","68.75","TRAIL VALLEY","220N005","2022-03-16 13:00","2022","03","16","13:00","-23.9","","-29.1","","62","","0.0","","26","","13","","","","100.10","","","","-33","","NA"
"-133.50","68.75","TRAIL VALLEY","220N005","2022-03-16 14:00","2022","03","16","14:00","-23.1","","-28.6","","61","","0.0","","26","","18","","","","100.10","","","","-34","","NA"
"-133.50","68.75","TRAIL VALLEY","220N005","2022-03-16 15:00","2022","03","16","15:00","-22.8","","-28.2","","61","","0.0","","26","","20","","","","100.08","","","","-34","","NA"
"-133.50","68.75","TRAIL VALLEY","220N005","2022-03-16 16:00","2022","03","16","16:00","-22.5","","-28.0","","61","","0.0","","24","","19","","","","100.08","","","","-33","","NA"
"-133.50","68.75","TRAIL VALLEY","220N005","2022-03-16 17:00","2022","03","16","17:00","-21.6","","-27.0","","61","","0.0","","25","","16","","","","100.02","","","","-31","","NA"
"-133.50","68.75","TRAIL VALLEY","220N005","2022-03-16 18:00","2022","03","16","18:00","-22.2","","-27.1","","64","","0.0","","24","","17","","","","100.00","","","","-32","","NA"
"-133.50","68.75","TRAIL VALLEY","220N005","2022-03-16 19:00","2022","03","16","19:00","-21.9","","-27.0","","63","","0.0","","24","","13","","","","99.99","","","","-31","","NA"
"-133.50","68.75","TRAIL VALLEY","220N005","2022-03-16 20:00","2022","03","16","20:00","-23.6","","-28.1","","66","","0.0","","27","","22","","","","99.95","","","","-36","","NA"
"-133.50","68.75","TRAIL VALLEY","220N005","2022-03-16 21:00","2022","03","16","21:00","-21.9","","-27.0","","63","","0.0","","29","","29","","","","99.92","","","","-35","","NA"
"-133.50","68.75","TRAIL VALLEY","220N005","2022-03-16 22:00","2022","03","16","22:00"
"-133.50","68.75","TRAIL VALLEY","220N005","2022-03-16 23:00","2022","03","16","23:00"
"-133.50","68.75","TRAIL VALLEY","220N005","2022-03-17 00:00","2022","03","17","00:00"
"-133.50","68.75","TRAIL VALLEY","220N005","2022-03-17 01:00","2022","03","17","01:00"
"-133.50","68.75","TRAIL VALLEY","220N005","2022-03-17 02:00","2022","03","17","02:00"
"-133.50","68.75","TRAIL VALLEY","220N005","2022-03-17 03:00","2022","03","17","03:00"
"-133.50","68.75","TRAIL VALLEY","220N005","2022-03-17 04:00","2022","03","17","04:00"
"-133.50","68.75","TRAIL VALLEY","220N005","2022-03-17 05:00","2022","03","17","05:00","-20.9","","-23.4","","80","","0.0","","32","","11","","","","99.90","","","","-29","","NA"
"-133.50","68.75","TRAIL VALLEY","220N005","2022-03-17 06:00","2022","03","17","06:00","-21.0","","-23.5","","80","","0.0","","30","","10","","","","99.90","","","","-28","","NA"
"-133.50","68.75","TRAIL VALLEY","220N005","2022-03-17 07:00","2022","03","17","07:00","-20.9","","-23.5","","80","","0.0","","31","","16","","","","99.89","","","","-31","","NA"
"-133.50","68.75","TRAIL VALLEY","220N005","2022-03-17 08:00","2022","03","17","08:00","-21.3","","-23.9","","80","","0.0","","30","","17","","","","99.90","","","","-31","","NA"
"-133.50","68.75","TRAIL VALLEY","220N005","2022-03-17 09:00","2022","03","17","09:00","-22.9","","-25.4","","80","","0.0","","30","","15","","","","99.92","","","","-33","","NA"
"-133.50","68.75","TRAIL VALLEY","220N005","2022-03-17 10:00","2022","03","17","10:00","-23.7","","-26.5","","78","","0.0","","27","","14","","","","99.89","","","","-33","","NA"
"-133.50","68.75","TRAIL VALLEY","220N005","2022-03-17 11:00","2022","03","17","11:00","-22.5","","-25.6","","76","","0.0","","26","","12","","","","99.91","","","","-31","","NA"
"-133.50","68.75","TRAIL VALLEY","220N005","2022-03-17 12:00","2022","03","17","12:00","-21.0","","-24.4","","74","","0.0","","26","","12","","","","99.93","","","","-29","","NA"
"-133.50","68.75","TRAIL VALLEY","220N005","2022-03-17 13:00","2022","03","17","13:00","-20.6","","-23.8","","75","","0.0","","28","","12","","","","99.93","","","","-29","","NA"
"-133.50","68.75","TRAIL VALLEY","220N005","2022-03-17 14:00","2022","03","17","14:00","-20.1","","-23.3","","76","","0.0","","28","","12","","","","99.95","","","","-28","","NA"
"-133.50","68.75","TRAIL VALLEY","220N005","2022-03-17 15:00","2022","03","17","15:00","-20.1","","-23.1","","77","","0.0","","28","","9","","","","99.96","","","","-27","","NA"
"-133.50","68.75","TRAIL VALLEY","220N005","2022-03-17 16:00","2022","03","17","16:00","-20.1","","-22.8","","79","","0.0","","29","","8","","","","99.95","","","","-26","","NA"
"-133.50","68.75","TRAIL VALLEY","220N005","2022-03-17 17:00","2022","03","17","17:00","-19.7","","-23.0","","75","","0.0","","30","","5","","","","99.93","","","","-24","","NA"
"-133.50","68.75","TRAIL VALLEY","220N005","2022-03-17 18:00","2022","03","17","18:00","-18.3","","-22.3","","71","","0.0","","","","0","","","","99.94","","","","","","NA"
"-133.50","68.75","TRAIL VALLEY","220N005","2022-03-17 19:00","2022","03","17","19:00","-20.9","","-23.7","","78","","0.0","","18","","6","","","","99.92","","","","-26","","NA"
"-133.50","68.75","TRAIL VALLEY","220N005","2022-03-17 20:00","2022","03","17","20:00","-21.8","","-24.3","","80","","0.0","","14","","4","","","","99.89","","","","-25","","NA"
"-133.50","68.75","TRAIL VALLEY","220N005","2022-03-17 21:00","2022","03","17","21:00","-23.4","","-25.9","","79","","0.0","","16","","7","","","","99.89","","","","-30","","NA"
"-133.50","68.75","TRAIL VALLEY","220N005","2022-03-17 22:00","2022","03","17","22:00","-22.9","","-25.5","","79","","0.2","","18","","11","","","","99.88","","","","-31","","NA"
"-133.50","68.75","TRAIL VALLEY","220N005","2022-03-17 23:00","2022","03","17","23:00","-23.6","","-26.0","","81","","0.0","","20","","8","","","","99.87","","","","-30","","NA"
"-133.50","68.75","TRAIL VALLEY","220N005","2022-03-18 00:00","2022","03","18","00:00","-22.8","","-25.7","","77","","0.0","","19","","7","","","","99.86","","","","-29","","NA"
"-133.50","68.75","TRAIL VALLEY","220N005","2022-03-18 01:00","2022","03","18","01:00","-21.5","","-24.4","","77","","0.0","","21","","6","","","","99.86","","","","-27","","NA"
"-133.50","68.75","TRAIL VALLEY","220N005","2022-03-18 02:00","2022","03","18","02:00","-21.5","","-24.5","","77","","0.0","","23","","8","","","","99.86","","","","-28","","NA"
"-133.50","68.75","TRAIL VALLEY","220N005","2022-03-18 03:00","2022","03","18","03:00","-20.6","","-23.8","","76","","0.0","","22","","10","","","","99.88","","","","-28","","NA"
"-133.50","68.75","TRAIL VALLEY","220N005","2022-03-18 04:00","2022","03","18","04:00","-22.4","","-25.1","","79","","0.0","","22","","9","","","","99.87","","","","-30","","NA"
"-133.50","68.75","TRAIL VALLEY","220N005","2022-03-18 05:00","2022","03","18","05:00","-24.4","","-26.2","","85","","0.0","","11","","2","","","","99.90","","","","-26","","NA"
"-133.50","68.75","TRAIL VALLEY","220N005","2022-03-18 06:00","2022","03","18","06:00","-24.2","","-26.1","","84","","0.0","","23","","6","","","","99.94","","","","-30","","NA"
"-133.50","68.75","TRAIL VALLEY","220N005","2022-03-18 07:00","2022","03","18","07:00","-26.8","","-28.9","","82","","0.0","","25","","7","","","","99.93","","","","-34","","NA"
"-133.50","68.75","TRAIL VALLEY","220N005","2022-03-18 08:00","2022","03","18","08:00","-24.9","","-27.0","","82","","0.0","","25","","9","","","","99.98","","","","-33","","NA"
"-133.50","68.75","TRAIL VALLEY","220N005","2022-03-18 09:00","2022","03","18","09:00","-24.9","","-27.4","","80","","0.3","","24","","8","","","","99.97","","","","-32","","NA"
"-133.50","68.75","TRAIL VALLEY","220N005","2022-03-18 10:00","2022","03","18","10:00","-24.4","","-27.1","","78","","0.0","","26","","11","","","","99.98","","","","-33","","NA"
"-133.50","68.75","TRAIL VALLEY","220N005","2022-03-18 11:00","2022","03","18","11:00","-23.7","","-26.5","","78","","0.0","","25","","13","","","","100.01","","","","-33","","NA"
"-133.50","68.75","TRAIL VALLEY","220N005","2022-03-18 12:00","2022","03","18","12:00","-21.5","","-24.1","","79","","0.6","","24","","5","","","","100.01","","","","-26","","NA"
"-133.50","68.75","TRAIL VALLEY","220N005","2022-03-18 13:00","2022","03","18","13:00","-22.4","","-25.2","","78","","0.0","","34","","6","","","","100.08","","","","-28","","NA"
"-133.50","68.75","TRAIL VALLEY","220N005","2022-03-18 14:00","2022","03","18","14:00","-22.4","","-25.2","","78","","0.0","","30","","12","","","","100.12","","","","-31","","NA"
"-133.50","68.75","TRAIL VALLEY","220N005","2022-03-18 15:00","2022","03","18","15:00","-21.3","","-24.0","","78","","0.0","","31","","7","","","","100.15","","","","-27","","NA"
"-133.50","68.75","TRAIL VALLEY","220N005","2022-03-18 16:00","2022","03","18","16:00","-21.6","","-24.4","","79","","0.0","","33","","13","","","","100.20","","","","-30","","NA"
"-133.50","68.75","TRAIL VALLEY","220N005","2022-03-18 17:00","2022","03","18","17:00","-21.5","","-24.1","","79","","0.0","","30","","12","","","","100.18","","","","-30","","NA"
"-133.50","68.75","TRAIL VALLEY","220N005","2022-03-18 18:00","2022","03","18","18:00","-21.7","","-24.5","","77","","0.0","","31","","20","","","","100.19","","","","-33","","NA"
"-133.50","68.75","TRAIL VALLEY","220N005","2022-03-18 19:00","2022","03","18","19:00","-21.9","","-24.9","","77","","0.0","","32","","22","","","","100.18","","","","-33","","NA"
"-133.50","68.75","TRAIL VALLEY","220N005","2022-03-18 20:00","2022","03","18","20:00","-23.6","","-26.4","","77","","0.0","","32","","18","","","","100.21","","","","-34","","NA"
"-133.50","68.75","TRAIL VALLEY","220N005","2022-03-18 21:00","2022","03","18","21:00","-24.2","","-27.1","","77","","0.0","","29","","13","","","","100.25","","","","-34","","NA"
"-133.50","68.75","TRAIL VALLEY","220N005","2022-03-18 22:00","2022","03","18","22:00","-24.8","","-27.6","","78","","0.0","","31","","16","","","","100.25","","","","-35","","NA"
"-133.50","68.75","TRAIL VALLEY","220N005","2022-03-18 23:00","2022","03","18","23:00","-24.9","","-27.6","","78","","0.0","","31","","18","","","","100.28","","","","-36","","NA"
"-133.50","68.75","TRAIL VALLEY","220N005","2022-03-19 00:00","2022","03","19","00:00","-24.9","","-27.6","","78","","0.0","","33","","12","","","","100.34","","","","-34","","NA"
"-133.50","68.75","TRAIL VALLEY","220N005","2022-03-19 01:00","2022","03","19","01:00","-24.6","","-27.4","","78","","0.0","","32","","14","","","","100.37","","","","-34","","NA"
"-133.50","68.75","TRAIL VALLEY","220N005","2022-03-19 02:00","2022","03","19","02:00","-24.5","","-27.3","","78","","0.0","","34","","19","","","","100.38","","","","-36","","NA"
"-133.50","68.75","TRAIL VALLEY","220N005","2022-03-19 03:00","2022","03","19","03:00","-24.4","","-27.3","","77","","0.0","","34","","16","","","","100.44","","","","-35","","NA"
"-133.50","68.75","TRAIL VALLEY","220N005","2022-03-19 04:00","2022","03","19","04:00","-24.6","","-27.6","","76","","0.0","","34","","23","","","","100.49","","","","-37","","NA"
"-133.50","68.75","TRAIL VALLEY","220N005","2022-03-19 05:00","2022","03","19","05:00","-24.2","","-27.0","","77","","0.0","","34","","21","","","","100.48","","","","-36","","NA"
"-133.50","68.75","TRAIL VALLEY","220N005","2022-03-19 06:00","2022","03","19","06:00","-24.1","","-27.0","","77","","0.0","","34","","22","","","","100.50","","","","-36","","NA"
"-133.50","68.75","TRAIL VALLEY","220N005","2022-03-19 07:00","2022","03","19","07:00","-24.1","","-27.0","","77","","0.0","","35","","28","","","","100.51","","","","-38","","NA"
"-133.50","68.75","TRAIL VALLEY","220N005","2022-03-19 08:00","2022","03","19","08:00","-24.1","","-27.1","","76","","0.0","","35","","22","","","","100.56","","","","-36","","NA"
"-133.50","68.75","TRAIL VALLEY","220N005","2022-03-19 09:00","2022","03","19","09:00","-24.0","","-26.9","","77","","0.0","","34","","21","","","","100.59","","","","-36","","NA"
"-133.50","68.75","TRAIL VALLEY","220N005","2022-03-19 10:00","2022","03","19","10:00","-23.8","","-26.8","","76","","0.0","","34","","21","","","","100.65","","","","-36","","NA"
"-133.50","68.75","TRAIL VALLEY","220N005","2022-03-19 11:00","2022","03","19","11:00","-23.8","","-26.8","","76","","0.0","","34","","25","","","","100.68","","","","-36","","NA"
"-133.50","68.75","TRAIL VALLEY","220N005","2022-03-19 12:00","2022","03","19","12:00","-23.6","","-26.8","","74","","0.0","","34","","22","","","","100.74","","","","-36","","NA"
"-133.50","68.75","TRAIL VALLEY","220N005","2022-03-19 13:00","2022","03","19","13:00","-23.5","","-26.6","","75","","0.0","","34","","16","","","","100.77","","","","-34","","NA"
"-133.50","68.75","TRAIL VALLEY","220N005","2022-03-19 14:00","2022","03","19","14:00","-23.9","","-27.2","","74","","0.0","","34","","11","","","","100.81","","","","-32","","NA"
"-133.50","68.75","TRAIL VALLEY","220N005","2022-03-19 15:00","2022","03","19","15:00","-23.4","","-26.9","","73","","0.0","","33","","9","","","","100.83","","","","-31","","NA"
"-133.50","68.75","TRAIL VALLEY","220N005","2022-03-19 16:00","2022","03","19","16:00","-23.1","","-27.2","","69","","0.0","","6","","3","","","","100.86","","","","-26","","NA"
"-133.50","68.75","TRAIL VALLEY","220N005","2022-03-19 17:00","2022","03","19","17:00","-21.6","","-26.2","","67","","0.0","","8","","2","","","","100.86","","","","-23","","NA"
"-133.50","68.75","TRAIL VALLEY","220N005","2022-03-19 18:00","2022","03","19","18:00","-24.2","","-27.6","","74","","0.0","","2","","9","","","","100.88","","","","-32","","NA"
"-133.50","68.75","TRAIL VALLEY","220N005","2022-03-19 19:00","2022","03","19","19:00","-24.9","","-27.8","","77","","0.2","","32","","6","","","","100.90","","","","-31","","NA"
"-133.50","68.75","TRAIL VALLEY","220N005","2022-03-19 20:00","2022","03","19","20:00","-26.5","","-29.3","","77","","0.0","","30","","6","","","","100.93","","","","-32","","NA"
"-133.50","68.75","TRAIL VALLEY","220N005","2022-03-19 21:00","2022","03","19","21:00","-26.8","","-29.4","","78","","0.0","","29","","8","","","","100.95","","","","-34","","NA"
"-133.50","68.75","TRAIL VALLEY","220N005","2022-03-19 22:00","2022","03","19","22:00","-26.9","","-29.6","","78","","0.0","","28","","9","","","","100.98","","","","-35","","NA"
"-133.50","68.75","TRAIL VALLEY","220N005","2022-03-19 23:00","2022","03","19","23:00","-26.6","","-28.8","","81","","0.0","","29","","7","","","","101.00","","","","-33","","NA"
"-133.50","68.75","TRAIL VALLEY","220N005","2022-03-20 00:00","2022","03","20","00:00","-26.6","","-29.0","","80","","0.0","","32","","4","","","","101.03","","","","-31","","NA"
"-133.50","68.75","TRAIL VALLEY","220N005","2022-03-20 01:00","2022","03","20","01:00","-27.2","","-29.8","","79","","0.0","","29","","7","","","","101.05","","","","-34","","NA"
"-133.50","68.75","TRAIL VALLEY","220N005","2022-03-20 02:00","2022","03","20","02:00","-27.1","","-29.6","","79","","0.0","","29","","5","","","","101.06","","","","-32","","NA"
"-133.50","68.75","TRAIL VALLEY","220N005","2022-03-20 03:00","2022","03","20","03:00","-26.1","","-28.5","","80","","0.0","","32","","6","","","","101.08","","","","-32","","NA"
"-133.50","68.75","TRAIL VALLEY","220N005","2022-03-20 04:00","2022","03","20","04:00","-25.8","","-28.2","","80","","0.0","","31","","5","","","","101.08","","","","-31","","NA"
"-133.50","68.75","TRAIL VALLEY","220N005","2022-03-20 05:00","2022","03","20","05:00","-25.2","","-27.8","","79","","0.2","","34","","8","","","","101.09","","","","-32","","NA"
"-133.50","68.75","TRAIL VALLEY","220N005","2022-03-20 06:00","2022","03","20","06:00","-25.3","","-27.8","","79","","0.2","","33","","8","","","","101.10","","","","-32","","NA"
"-133.50","68.75","TRAIL VALLEY","220N005","2022-03-20 07:00","2022","03","20","07:00","-25.3","","-27.9","","79","","0.0","","32","","5","","","","101.11","","","","-30","","NA"
"-133.50","68.75","TRAIL VALLEY","220N005","2022-03-20 08:00","2022","03","20","08:00","-24.5","","-27.1","","79","","0.0","","36","","5","","","","101.15","","","","-29","","NA"
"-133.50","68.75","TRAIL VALLEY","220N005","2022-03-20 09:00","2022","03","20","09:00","-24.3","","-27.1","","78","","0.2","","32","","4","","","","101.15","","","","-28","","NA"
"-133.50","68.75","TRAIL VALLEY","220N005","2022-03-20 10:00","2022","03","20","10:00","-23.8","","-26.6","","78","","0.0","","28","","7","","","","101.21","","","","-30","","NA"
"-133.50","68.75","TRAIL VALLEY","220N005","2022-03-20 11:00","2022","03","20","11:00","-22.9","","-26.0","","76","","0.0","","32","","7","","","","101.21","","","","-29","","NA"
"-133.50","68.75","TRAIL VALLEY","220N005","2022-03-20 12:00","2022","03","20","12:00","-22.8","","-26.0","","75","","0.0","","1","","6","","","","101.25","","","","-28","","NA"
"-133.50","68.75","TRAIL VALLEY","220N005","2022-03-20 13:00","2022","03","20","13:00","-22.1","","-25.4","","74","","0.2","","32","","5","","","","101.27","","","","-27","","NA"
"-133.50","68.75","TRAIL VALLEY","220N005","2022-03-20 14:00","2022","03","20","14:00","-21.4","","-24.8","","74","","0.0","","35","","9","","","","101.29","","","","-28","","NA"
"-133.50","68.75","TRAIL VALLEY","220N005","2022-03-20 15:00","2022","03","20","15:00","-21.1","","-24.4","","74","","0.0","","36","","14","","","","101.30","","","","-30","","NA"
"-133.50","68.75","TRAIL VALLEY","220N005","2022-03-20 16:00","2022","03","20","16:00","-21.3","","-24.4","","76","","0.0","","36","","18","","","","101.32","","","","-32","","NA"
"-133.50","68.75","TRAIL VALLEY","220N005","2022-03-20 17:00","2022","03","20","17:00","-21.7","","-24.9","","75","","0.0","","36","","16","","","","101.34","","","","-31","","NA"
"-133.50","68.75","TRAIL VALLEY","220N005","2022-03-20 18:00","2022","03","20","18:00","-22.1","","-25.2","","76","","0.0","","35","","16","","","","101.37","","","","-32","","NA"
"-133.50","68.75","TRAIL VALLEY","220N005","2022-03-20 19:00","2022","03","20","19:00","-22.9","","-25.8","","77","","0.0","","35","","16","","","","101.39","","","","-33","","NA"
"-133.50","68.75","TRAIL VALLEY","220N005","2022-03-20 20:00","2022","03","20","20:00","-23.2","","-26.0","","78","","0.0","","35","","14","","","","101.42","","","","-33","","NA"
"-133.50","68.75","TRAIL VALLEY","220N005","2022-03-20 21:00","2022","03","20","21:00","-23.1","","-25.9","","78","","0.0","","35","","16","","","","101.46","","","","-33","","NA"
"-133.50","68.75","TRAIL VALLEY","220N005","2022-03-20 22:00","2022","03","20","22:00","-23.2","","-26.0","","78","","0.0","","36","","18","","","","101.46","","","","-34","","NA"
"-133.50","68.75","TRAIL VALLEY","220N005","2022-03-20 23:00","2022","03","20","23:00","-23.5","","-26.3","","78","","0.0","","36","","17","","","","101.49","","","","-34","","NA"
"-133.50","68.75","TRAIL VALLEY","220N005","2022-03-21 00:00","2022","03","21","00:00","-23.9","","-26.7","","77","","0.0","","34","","10","","","","101.53","","","","-32","","NA"
"-133.50","68.75","TRAIL VALLEY","220N005","2022-03-21 01:00","2022","03","21","01:00","-23.7","","-26.4","","79","","0.0","","35","","8","","","","101.55","","","","-31","","NA"
"-133.50","68.75","TRAIL VALLEY","220N005","2022-03-21 02:00","2022","03","21","02:00","-25.5","","-28.1","","79","","0.0","","1","","6","","","","101.56","","","","-31","","NA"
"-133.50","68.75","TRAIL VALLEY","220N005","2022-03-21 03:00","2022","03","21","03:00","-25.4","","-27.9","","80","","0.0","","32","","5","","","","101.57","","","","-30","","NA"
"-133.50","68.75","TRAIL VALLEY","220N005","2022-03-21 04:00","2022","03","21","04:00","-25.5","","-28.0","","80","","0.0","","24","","6","","","","101.59","","","","-31","","NA"
"-133.50","68.75","TRAIL VALLEY","220N005","2022-03-21 05:00","2022","03","21","05:00","-26.1","","-28.6","","79","","0.0","","27","","5","","","","101.57","","","","-31","","NA"
"-133.50","68.75","TRAIL VALLEY","220N005","2022-03-21 06:00","2022","03","21","06:00","-27.2","","-29.6","","80","","0.0","","29","","4","","","","101.58","","","","-31","","NA"
"-133.50","68.75","TRAIL VALLEY","220N005","2022-03-21 07:00","2022","03","21","07:00","-26.5","","-29.0","","80","","0.0","","26","","6","","","","101.58","","","","-32","","NA"
"-133.50","68.75","TRAIL VALLEY","220N005","2022-03-21 08:00","2022","03","21","08:00","-27.8","","-30.4","","78","","0.0","","27","","8","","","","101.61","","","","-35","","NA"
"-133.50","68.75","TRAIL VALLEY","220N005","2022-03-21 09:00","2022","03","21","09:00","-27.1","","-29.7","","78","","0.0","","28","","8","","","","101.60","","","","-35","","NA"
"-133.50","68.75","TRAIL VALLEY","220N005","2022-03-21 10:00","2022","03","21","10:00","-26.0","","-28.9","","77","","0.4","","28","","4","","","","101.60","","","","-30","","NA"
"-133.50","68.75","TRAIL VALLEY","220N005","2022-03-21 11:00","2022","03","21","11:00","-22.6","","-25.3","","78","","0.0","","0","","1","","","","101.61","","","","-24","","NA"
"-133.50","68.75","TRAIL VALLEY","220N005","2022-03-21 12:00","2022","03","21","12:00","-25.4","","-28.6","","74","","0.6","","27","","2","","","","101.63","","","","-27","","NA"
"-133.50","68.75","TRAIL VALLEY","220N005","2022-03-21 13:00","2022","03","21","13:00","-23.4","","-26.6","","74","","0.0","","","","0","","","","101.64","","","","","","NA"
"-133.50","68.75","TRAIL VALLEY","220N005","2022-03-21 14:00","2022","03","21","14:00","-20.3","","-24.0","","72","","0.0","","","","0","","","","101.67","","","","","","NA"
"-133.50","68.75","TRAIL VALLEY","220N005","2022-03-21 15:00","2022","03","21","15:00","-21.7","","-26.0","","68","","0.0","","","","0","","","","101.68","","","","","","NA"
"-133.50","68.75","TRAIL VALLEY","220N005","2022-03-21 16:00","2022","03","21","16:00","-21.8","","-26.2","","68","","0.0","","8","","2","","","","101.69","","","","-24","","NA"
"-133.50","68.75","TRAIL VALLEY","220N005","2022-03-21 17:00","2022","03","21","17:00","-23.6","","-26.9","","74","","0.0","","3","","3","","","","101.68","","","","-26","","NA"
"-133.50","68.75","TRAIL VALLEY","220N005","2022-03-21 18:00","2022","03","21","18:00","-24.6","","-27.8","","74","","0.0","","1","","5","","","","101.71","","","","-29","","NA"
"-133.50","68.75","TRAIL VALLEY","220N005","2022-03-21 19:00","2022","03","21","19:00","-24.7","","-27.6","","77","","0.0","","33","","2","","","","101.73","","","","-27","","NA"
"-133.50","68.75","TRAIL VALLEY","220N005","2022-03-21 20:00","2022","03","21","20:00","-25.0","","-27.7","","78","","0.0","","0","","1","","","","101.76","","","","-26","","NA"
"-133.50","68.75","TRAIL VALLEY","220N005","2022-03-21 21:00","2022","03","21","21:00","-25.1","","-27.6","","79","","0.0","","24","","2","","","","101.77","","","","-27","","NA"
"-133.50","68.75","TRAIL VALLEY","220N005","2022-03-21 22:00","2022","03","21","22:00","-25.1","","-27.6","","79","","0.0","","3","","3","","","","101.76","","","","-28","","NA"
"-133.50","68.75","TRAIL VALLEY","220N005","2022-03-21 23:00","2022","03","21","23:00","-25.7","","-28.3","","79","","0.0","","3","","3","","","","101.79","","","","-29","","NA"
"-133.50","68.75","TRAIL VALLEY","220N005","2022-03-22 00:00","2022","03","22","00:00","-25.7","","-28.2","","80","","0.0","","4","","3","","","","101.82","","","","-29","","NA"
"-133.50","68.75","TRAIL VALLEY","220N005","2022-03-22 01:00","2022","03","22","01:00","-25.4","","-28.0","","79","","0.0","","4","","4","","","","101.83","","","","-29","","NA"
"-133.50","68.75","TRAIL VALLEY","220N005","2022-03-22 02:00","2022","03","22","02:00","-25.5","","-28.1","","79","","0.0","","32","","2","","","","101.84","","","","-28","","NA"
"-133.50","68.75","TRAIL VALLEY","220N005","2022-03-22 03:00","2022","03","22","03:00","-25.2","","-27.9","","78","","0.0","","36","","4","","","","101.84","","","","-29","","NA"
"-133.50","68.75","TRAIL VALLEY","220N005","2022-03-22 04:00","2022","03","22","04:00","-26.5","","-29.1","","78","","0.0","","3","","8","","","","101.81","","","","-34","","NA"
"-133.50","68.75","TRAIL VALLEY","220N005","2022-03-22 05:00","2022","03","22","05:00","-26.7","","-29.4","","78","","0.0","","1","","6","","","","101.80","","","","-33","","NA"
"-133.50","68.75","TRAIL VALLEY","220N005","2022-03-22 06:00","2022","03","22","06:00","-26.3","","-28.9","","78","","0.0","","36","","5","","","","101.79","","","","-31","","NA"
"-133.50","68.75","TRAIL VALLEY","220N005","2022-03-22 07:00","2022","03","22","07:00","-26.1","","-28.7","","79","","0.0","","4","","7","","","","101.76","","","","-33","","NA"
"-133.50","68.75","TRAIL VALLEY","220N005","2022-03-22 08:00","2022","03","22","08:00","-26.3","","-29.0","","78","","0.2","","1","","8","","","","101.75","","","","-34","","NA"
"-133.50","68.75","TRAIL VALLEY","220N005","2022-03-22 09:00","2022","03","22","09:00","-26.2","","-28.9","","78","","0.0","","6","","8","","","","101.71","","","","-34","","NA"
"-133.50","68.75","TRAIL VALLEY","220N005","2022-03-22 10:00","2022","03","22","10:00","-25.9","","-28.6","","78","","0.0","","5","","13","","","","101.68","","","","-36","","NA"
"-133.50","68.75","TRAIL VALLEY","220N005","2022-03-22 11:00","2022","03","22","11:00","-25.2","","-28.0","","78","","0.0","","3","","17","","","","101.62","","","","-36","","NA"
"-133.50","68.75","TRAIL VALLEY","220N005","2022-03-22 12:00","2022","03","22","12:00","-24.1","","-26.9","","77","","0.0","","3","","16","","","","101.58","","","","-34","","NA"
"-133.50","68.75","TRAIL VALLEY","220N005","2022-03-22 13:00","2022","03","22","13:00","-23.2","","-26.1","","77","","0.0","","3","","15","","","","101.56","","","","-33","","NA"
"-133.50","68.75","TRAIL VALLEY","220N005","2022-03-22 14:00","2022","03","22","14:00","-22.4","","-25.5","","76","","0.0","","4","","19","","","","101.48","","","","-33","","NA"
"-133.50","68.75","TRAIL VALLEY","220N005","2022-03-22 15:00","2022","03","22","15:00","-21.9","","-24.8","","77","","0.0","","4","","19","","","","101.42","","","","-33","","NA"
"-133.50","68.75","TRAIL VALLEY","220N005","2022-03-22 16:00","2022","03","22","16:00","-21.8","","-24.9","","76","","0.0","","4","","24","","","","101.30","","","","-34","","NA"
"-133.50","68.75","TRAIL VALLEY","220N005","2022-03-22 17:00","2022","03","22","17:00","-21.9","","-24.8","","77","","0.0","","4","","24","","","","101.22","","","","-34","","NA"
"-133.50","68.75","TRAIL VALLEY","220N005","2022-03-22 18:00","2022","03","22","18:00","-22.4","","-25.0","","79","","0.0","","4","","22","","","","101.24","","","","-34","","NA"
"-133.50","68.75","TRAIL VALLEY","220N005","2022-03-22 19:00","2022","03","22","19:00","-23.2","","-25.7","","80","","0.0","","3","","23","","","","101.25","","","","-35","","NA"
"-133.50","68.75","TRAIL VALLEY","220N005","2022-03-22 20:00","2022","03","22","20:00","-23.2","","-25.7","","80","","0.0","","3","","23","","","","101.23","","","","-35","","NA"
"-133.50","68.75","TRAIL VALLEY","220N005","2022-03-22 21:00","2022","03","22","21:00","-23.3","","-25.8","","80","","0.0","","1","","23","","","","101.19","","","","-35","","NA"
"-133.50","68.75","TRAIL VALLEY","220N005","2022-03-22 22:00","2022","03","22","22:00","-23.1","","-25.6","","80","","0.0","","2","","27","","","","101.16","","","","-36","","NA"
"-133.50","68.75","TRAIL VALLEY","220N005","2022-03-22 23:00","2022","03","22","23:00","-24.0","","-26.6","","79","","0.0","","1","","24","","","","101.17","","","","-37","","NA"
"-133.50","68.75","TRAIL VALLEY","220N005","2022-03-23 00:00","2022","03","23","00:00","-24.7","","-27.2","","79","","0.0","","1","","24","","","","101.16","","","","-37","","NA"
"-133.50","68.75","TRAIL VALLEY","220N005","2022-03-23 01:00","2022","03","23","01:00","-25.2","","-27.8","","79","","0.0","","2","","21","","","","101.19","","","","-37","","NA"
"-133.50","68.75","TRAIL VALLEY","220N005","2022-03-23 02:00","2022","03","23","02:00","-25.7","","-28.4","","78","","0.0","","3","","15","","","","101.20","","","","-36","","NA"
"-133.50","68.75","TRAIL VALLEY","220N005","2022-03-23 03:00","2022","03","23","03:00","-25.9","","-28.5","","78","","0.0","","2","","33","","","","101.14","","","","-41","","NA"
"-133.50","68.75","TRAIL VALLEY","220N005","2022-03-23 04:00","2022","03","23","04:00","-25.8","","-28.4","","78","","0.0","","2","","27","","","","101.20","","","","-40","","NA"
"-133.50","68.75","TRAIL VALLEY","220N005","2022-03-23 05:00","2022","03","23","05:00","-26.1","","-28.9","","78","","0.0","","2","","30","","","","101.18","","","","-41","","NA"
"-133.50","68.75","TRAIL VALLEY","220N005","2022-03-23 06:00","2022","03","23","06:00","-26.6","","-29.4","","78","","0.0","","1","","26","","","","101.21","","","","-40","","NA"
"-133.50","68.75","TRAIL VALLEY","220N005","2022-03-23 07:00","2022","03","23","07:00","-27.4","","-30.1","","77","","0.0","","1","","26","","","","101.24","","","","-41","","NA"
"-133.50","68.75","TRAIL VALLEY","220N005","2022-03-23 08:00","2022","03","23","08:00","-27.7","","-30.5","","77","","0.0","","2","","27","","","","101.29","","","","-42","","NA"
"-133.50","68.75","TRAIL VALLEY","220N005","2022-03-23 09:00","2022","03","23","09:00","-28.2","","-31.1","","76","","0.0","","1","","22","","","","101.34","","","","-41","","NA"
"-133.50","68.75","TRAIL VALLEY","220N005","2022-03-23 10:00","2022","03","23","10:00","-28.0","","-31.1","","75","","0.0","","1","","20","","","","101.37","","","","-41","","NA"
"-133.50","68.75","TRAIL VALLEY","220N005","2022-03-23 11:00","2022","03","23","11:00","-27.5","","-30.6","","75","","0.0","","1","","16","","","","101.43","","","","-39","","NA"
"-133.50","68.75","TRAIL VALLEY","220N005","2022-03-23 12:00","2022","03","23","12:00","-27.2","","-30.4","","74","","0.0","","2","","28","","","","101.44","","","","-42","","NA"
"-133.50","68.75","TRAIL VALLEY","220N005","2022-03-23 13:00","2022","03","23","13:00","-26.5","","-29.9","","73","","0.0","","2","","24","","","","101.50","","","","-40","","NA"
"-133.50","68.75","TRAIL VALLEY","220N005","2022-03-23 14:00","2022","03","23","14:00","-25.7","","-29.2","","73","","0.0","","2","","22","","","","101.53","","","","-38","","NA"
"-133.50","68.75","TRAIL VALLEY","220N005","2022-03-23 15:00","2022","03","23","15:00","-25.5","","-28.9","","73","","0.0","","2","","22","","","","101.58","","","","-38","","NA"
"-133.50","68.75","TRAIL VALLEY","220N005","2022-03-23 16:00","2022","03","23","16:00","-25.6","","-28.8","","74","","0.0","","2","","23","","","","101.60","","","","-38","","NA"
"-133.50","68.75","TRAIL VALLEY","220N005","2022-03-23 17:00","2022","03","23","17:00","-24.7","","-28.0","","73","","0.0","","2","","23","","","","101.67","","","","-37","","NA"
"-133.50","68.75","TRAIL VALLEY","220N005","2022-03-23 18:00","2022","03","23","18:00","-25.0","","-28.2","","74","","0.0","","2","","19","","","","101.71","","","","-37","","NA"
"-133.50","68.75","TRAIL VALLEY","220N005","2022-03-23 19:00","2022","03","23","19:00","-25.5","","-28.6","","75","","0.0","","2","","18","","","","101.77","","","","-37","","NA"
"-133.50","68.75","TRAIL VALLEY","220N005","2022-03-23 20:00","2022","03","23","20:00","-27.5","","-30.3","","77","","0.0","","36","","15","","","","101.86","","","","-38","","NA"
"-133.50","68.75","TRAIL VALLEY","220N005","2022-03-23 21:00","2022","03","23","21:00","-27.7","","-30.3","","79","","0.0","","1","","22","","","","101.92","","","","-41","","NA"
"-133.50","68.75","TRAIL VALLEY","220N005","2022-03-23 22:00","2022","03","23","22:00","-28.8","","-31.5","","78","","0.0","","1","","18","","","","101.97","","","","-41","","NA"
"-133.50","68.75","TRAIL VALLEY","220N005","2022-03-23 23:00","2022","03","23","23:00","-28.8","","-31.5","","77","","0.0","","36","","13","","","","102.02","","","","-39","","NA"
"-133.50","68.75","TRAIL VALLEY","220N005","2022-03-24 00:00","2022","03","24","00:00","-29.2","","-31.9","","77","","0.0","","36","","16","","","","102.07","","","","-41","","NA"
"-133.50","68.75","TRAIL VALLEY","220N005","2022-03-24 01:00","2022","03","24","01:00","-29.4","","-32.2","","77","","0.0","","36","","19","","","","102.11","","","","-42","","NA"
"-133.50","68.75","TRAIL VALLEY","220N005","2022-03-24 02:00","2022","03","24","02:00","-30.1","","-33.0","","76","","0.0","","36","","11","","","","102.19","","","","-40","","NA"
"-133.50","68.75","TRAIL VALLEY","220N005","2022-03-24 03:00","2022","03","24","03:00","-31.6","","-34.5","","76","","0.0","","27","","5","","","","102.22","","","","-37","","NA"
"-133.50","68.75","TRAIL VALLEY","220N005","2022-03-24 04:00","2022","03","24","04:00","-30.3","","-33.2","","76","","0.0","","36","","8","","","","102.24","","","","-38","","NA"
"-133.50","68.75","TRAIL VALLEY","220N005","2022-03-24 05:00","2022","03","24","05:00","-31.0","","-33.9","","75","","0.0","","36","","10","","","","102.29","","","","-40","","NA"
"-133.50","68.75","TRAIL VALLEY","220N005","2022-03-24 06:00","2022","03","24","06:00","-31.3","","-34.3","","75","","0.0","","36","","5","","","","102.33","","","","-37","","NA"
"-133.50","68.75","TRAIL VALLEY","220N005","2022-03-24 07:00","2022","03","24","07:00","-32.6","","-35.7","","74","","0.0","","35","","7","","","","102.35","","","","-40","","NA"
"-133.50","68.75","TRAIL VALLEY","220N005","2022-03-24 08:00","2022","03","24","08:00","-32.2","","-35.3","","74","","0.0","","36","","7","","","","102.38","","","","-40","","NA"
"-133.50","68.75","TRAIL VALLEY","220N005","2022-03-24 09:00","2022","03","24","09:00","-31.4","","-34.7","","73","","0.3","","36","","8","","","","102.42","","","","-40","","NA"
"-133.50","68.75","TRAIL VALLEY","220N005","2022-03-24 10:00","2022","03","24","10:00","-31.4","","-34.8","","72","","0.0","","32","","5","","","","102.44","","","","-37","","NA"
"-133.50","68.75","TRAIL VALLEY","220N005","2022-03-24 11:00","2022","03","24","11:00","-30.9","","-34.3","","72","","0.0","","29","","5","","","","102.44","","","","-37","","NA"
"-133.50","68.75","TRAIL VALLEY","220N005","2022-03-24 12:00","2022","03","24","12:00","-29.5","","-33.0","","71","","0.3","","27","","4","","","","102.44","","","","-34","","NA"
"-133.50","68.75","TRAIL VALLEY","220N005","2022-03-24 13:00","2022","03","24","13:00","-28.3","","-31.9","","71","","0.5","","27","","3","","","","102.43","","","","-32","","NA"
"-133.50","68.75","TRAIL VALLEY","220N005","2022-03-24 14:00","2022","03","24","14:00","-25.9","","-29.4","","73","","0.0","","30","","2","","","","102.42","","","","-28","","NA"
"-133.50","68.75","TRAIL VALLEY","220N005","2022-03-24 15:00","2022","03","24","15:00","-21.8","","-25.1","","75","","0.0","","","","0","","","","102.42","","","","","","NA"
"-133.50","68.75","TRAIL VALLEY","220N005","2022-03-24 16:00","2022","03","24","16:00","-23.5","","-26.7","","75","","0.0","","6","","1","","","","102.40","","","","-24","","NA"
"-133.50","68.75","TRAIL VALLEY","220N005","2022-03-24 17:00","2022","03","24","17:00","-22.7","","-26.1","","74","","0.4","","3","","4","","","","102.36","","","","-26","","NA"
"-133.50","68.75","TRAIL VALLEY","220N005","2022-03-24 18:00","2022","03","24","18:00","-22.5","","-25.9","","74","","0.0","","3","","4","","","","102.33","","","","-26","","NA"
"-133.50","68.75","TRAIL VALLEY","220N005","2022-03-24 19:00","2022","03","24","19:00","-24.8","","-28.1","","74","","0.0","","29","","3","","","","102.32","","","","-28","","NA"
"-133.50","68.75","TRAIL VALLEY","220N005","2022-03-24 20:00","2022","03","24","20:00","-22.5","","-25.4","","78","","0.0","","7","","5","","","","102.28","","","","-27","","NA"
"-133.50","68.75","TRAIL VALLEY","220N005","2022-03-24 21:00","2022","03","24","21:00","-23.7","","-26.5","","78","","0.0","","2","","6","","","","102.29","","","","-29","","NA"
"-133.50","68.75","TRAIL VALLEY","220N005","2022-03-24 22:00","2022","03","24","22:00","-23.7","","-26.2","","80","","0.0","","0","","1","","","","102.23","","","","-25","","NA"
"-133.50","68.75","TRAIL VALLEY","220N005","2022-03-24 23:00","2022","03","24","23:00","-22.7","","-25.9","","75","","0.0","","13","","5","","","","102.20","","","","-27","","NA"
"-133.50","68.75","TRAIL VALLEY","220N005","2022-03-25 00:00","2022","03","25","00:00","-22.8","","-26.6","","71","","0.0","","9","","8","","","","102.19","","","","-30","","NA"
"-133.50","68.75","TRAIL VALLEY","220N005","2022-03-25 01:00","2022","03","25","01:00","-23.0","","-27.0","","70","","0.0","","9","","6","","","","102.14","","","","-28","","NA"
"-133.50","68.75","TRAIL VALLEY","220N005","2022-03-25 02:00","2022","03","25","02:00","-23.2","","-27.0","","71","","0.0","","11","","8","","","","102.12","","","","-30","","NA"
"-133.50","68.75","TRAIL VALLEY","220N005","2022-03-25 03:00","2022","03","25","03:00","-24.3","","-28.0","","71","","0.0","","8","","9","","","","102.10","","","","-32","","NA"
"-133.50","68.75","TRAIL VALLEY","220N005","2022-03-25 04:00","2022","03","25","04:00","-24.4","","-27.7","","74","","0.0","","10","","6","","","","102.05","","","","-30","","NA"
"-133.50","68.75","TRAIL VALLEY","220N005","2022-03-25 05:00","2022","03","25","05:00","-25.9","","-28.8","","76","","0.0","","12","","4","","","","102.03","","","","-30","","NA"
"-133.50","68.75","TRAIL VALLEY","220N005","2022-03-25 06:00","2022","03","25","06:00","-25.0","","-28.3","","74","","0.0","","9","","8","","","","102.00","","","","-32","","NA"
"-133.50","68.75","TRAIL VALLEY","220N005","2022-03-25 07:00","2022","03","25","07:00","-26.0","","-28.9","","77","","0.0","","11","","8","","","","101.98","","","","-33","","NA"
"-133.50","68.75","TRAIL VALLEY","220N005","2022-03-25 08:00","2022","03","25","08:00","-25.9","","-28.6","","78","","0.0","","8","","10","","","","101.97","","","","-34","","NA"
"-133.50","68.75","TRAIL VALLEY","220N005","2022-03-25 09:00","2022","03","25","09:00","-24.3","","-27.2","","77","","","M","11","","8","","","","","M","","","-31","","NA"
"-133.50","68.75","TRAIL VALLEY","220N005","2022-03-25 10:00","2022","03","25","10:00","-25.9","","-29.1","","74","","0.0","","8","","9","","","","101.88","","","","-34","","NA"
"-133.50","68.75","TRAIL VALLEY","220N005","2022-03-25 11:00","2022","03","25","11:00","-24.7","","-28.2","","73","","0.0","","8","","11","","","","101.87","","","","-33","","NA"
"-133.50","68.75","TRAIL VALLEY","220N005","2022-03-25 12:00","2022","03","25","12:00","-23.4","","-27.6","","69","","0.0","","8","","12","","","","101.85","","","","-32","","NA"
"-133.50","68.75","TRAIL VALLEY","220N005","2022-03-25 13:00","2022","03","25","13:00","-20.4","","-26.0","","61","","0.0","","13","","15","","","","101.80","","","","-30","","NA"
"-133.50","68.75","TRAIL VALLEY","220N005","2022-03-25 14:00","2022","03","25","14:00","-19.8","","-25.1","","62","","0.0","","10","","13","","","","101.78","","","","-28","","NA"
"-133.50","68.75","TRAIL VALLEY","220N005","2022-03-25 15:00","2022","03","25","15:00","-19.8","","-25.0","","63","","0.0","","9","","18","","","","101.77","","","","-30","","NA"
"-133.50","68.75","TRAIL VALLEY","220N005","2022-03-25 16:00","2022","03","25","16:00","-19.0","","-24.3","","63","","0.0","","8","","15","","","","101.73","","","","-28","","NA"
"-133.50","68.75","TRAIL VALLEY","220N005","2022-03-25 17:00","2022","03","25","17:00"
"-133.50","68.75","TRAIL VALLEY","220N005","2022-03-25 18:00","2022","03","25","18:00","-19.9","","-24.7","","66","","0.0","","5","","11","","","","101.66","","","","-28","","NA"
"-133.50","68.75","TRAIL VALLEY","220N005","2022-03-25 19:00","2022","03","25","19:00","-19.7","","-25.2","","61","","0.0","","9","","9","","","","101.62","","","","-26","","NA"
"-133.50","68.75","TRAIL VALLEY","220N005","2022-03-25 20:00","2022","03","25","20:00","-20.2","","-25.3","","64","","0.0","","10","","9","","","","101.61","","","","-27","","NA"
"-133.50","68.75","TRAIL VALLEY","220N005","2022-03-25 21:00","2022","03","25","21:00","-20.9","","-25.4","","67","","0.0","","12","","5","","","","101.58","","","","-25","","NA"
"-133.50","68.75","TRAIL VALLEY","220N005","2022-03-25 22:00","2022","03","25","22:00","-21.6","","-25.5","","70","","0.0","","7","","8","","","","101.58","","","","-28","","NA"
"-133.50","68.75","TRAIL VALLEY","220N005","2022-03-25 23:00","2022","03","25","23:00","-22.1","","-26.1","","70","","0.0","","10","","6","","","","101.57","","","","-27","","NA"
"-133.50","68.75","TRAIL VALLEY","220N005","2022-03-26 00:00","2022","03","26","00:00","-22.8","","-26.8","","70","","0.0","","11","","7","","","","101.54","","","","-29","","NA"
"-133.50","68.75","TRAIL VALLEY","220N005","2022-03-26 01:00","2022","03","26","01:00","-21.9","","-26.0","","70","","0.0","","10","","7","","","","101.52","","","","-28","","NA"
"-133.50","68.75","TRAIL VALLEY","220N005","2022-03-26 02:00","2022","03","26","02:00","-22.6","","-26.4","","71","","0.0","","11","","10","","","","101.49","","","","-30","","NA"
"-133.50","68.75","TRAIL VALLEY","220N005","2022-03-26 03:00","2022","03","26","03:00","-23.4","","-26.6","","75","","0.0","","9","","7","","","","101.48","","","","-30","","NA"
"-133.50","68.75","TRAIL VALLEY","220N005","2022-03-26 04:00","2022","03","26","04:00","-24.3","","-27.3","","76","","0.0","","7","","5","","","","101.46","","","","-29","","NA"
"-133.50","68.75","TRAIL VALLEY","220N005","2022-03-26 05:00","2022","03","26","05:00","-25.1","","-27.8","","78","","0.0","","10","","5","","","","101.45","","","","-30","","NA"
"-133.50","68.75","TRAIL VALLEY","220N005","2022-03-26 06:00","2022","03","26","06:00","-25.4","","-28.1","","78","","0.0","","10","","8","","","","101.42","","","","-33","","NA"
"-133.50","68.75","TRAIL VALLEY","220N005","2022-03-26 07:00","2022","03","26","07:00","-26.2","","-28.6","","80","","0.0","","9","","8","","","","101.39","","","","-34","","NA"
"-133.50","68.75","TRAIL VALLEY","220N005","2022-03-26 08:00","2022","03","26","08:00","-26.6","","-29.2","","79","","0.0","","7","","5","","","","101.40","","","","-32","","NA"
"-133.50","68.75","TRAIL VALLEY","220N005","2022-03-26 09:00","2022","03","26","09:00","-25.8","","-29.3","","73","","0.0","","10","","6","","","","101.37","","","","-32","","NA"
"-133.50","68.75","TRAIL VALLEY","220N005","2022-03-26 10:00","2022","03","26","10:00","-24.8","","-29.0","","68","","0.0","","12","","8","","","","101.32","","","","-32","","NA"
"-133.50","68.75","TRAIL VALLEY","220N005","2022-03-26 11:00","2022","03","26","11:00","-25.5","","-29.5","","69","","0.2","","4","","7","","","","101.33","","","","-32","","NA"
"-133.50","68.75","TRAIL VALLEY","220N005","2022-03-26 12:00","2022","03","26","12:00","-23.3","","-28.1","","65","","0.0","","9","","6","","","","101.33","","","","-29","","NA"
"-133.50","68.75","TRAIL VALLEY","220N005","2022-03-26 13:00","2022","03","26","13:00","-21.9","","-26.7","","65","","0.0","","8","","9","","","","101.31","","","","-29","","NA"
"-133.50","68.75","TRAIL VALLEY","220N005","2022-03-26 14:00","2022","03","26","14:00","-21.0","","-25.6","","66","","0.0","","8","","15","","","","101.29","","","","-30","","NA"
"-133.50","68.75","TRAIL VALLEY","220N005","2022-03-26 15:00","2022","03","26","15:00","-19.6","","-25.0","","62","","0.0","","8","","11","","","","101.28","","","","-27","","NA"
"-133.50","68.75","TRAIL VALLEY","220N005","2022-03-26 16:00","2022","03","26","16:00","-19.5","","-24.7","","63","","0.0","","4","","7","","","","101.26","","","","-25","","NA"
"-133.50","68.75","TRAIL VALLEY","220N005","2022-03-26 17:00","2022","03","26","17:00","-19.3","","-24.2","","65","","0.0","","4","","10","","","","101.24","","","","-26","","NA"
"-133.50","68.75","TRAIL VALLEY","220N005","2022-03-26 18:00","2022","03","26","18:00","-18.6","","-24.2","","61","","0.0","","5","","6","","","","101.22","","","","-23","","NA"
"-133.50","68.75","TRAIL VALLEY","220N005","2022-03-26 19:00","2022","03","26","19:00","-19.1","","-24.3","","64","","0.0","","3","","5","","","","101.20","","","","-23","","NA"
"-133.50","68.75","TRAIL VALLEY","220N005","2022-03-26 20:00","2022","03","26","20:00","-21.2","","-24.7","","73","","0.0","","2","","10","","","","101.19","","","","-29","","NA"
"-133.50","68.75","TRAIL VALLEY","220N005","2022-03-26 21:00","2022","03","26","21:00","-23.0","","-25.8","","78","","0.0","","1","","7","","","","101.18","","","","-29","","NA"
"-133.50","68.75","TRAIL VALLEY","220N005","2022-03-26 22:00","2022","03","26","22:00","-23.8","","-26.6","","78","","0.0","","31","","1","","","","101.17","","","","-25","","NA"
"-133.50","68.75","TRAIL VALLEY","220N005","2022-03-26 23:00","2022","03","26","23:00","-23.4","","-26.2","","77","","0.0","","3","","2","","","","101.16","","","","-25","","NA"
"-133.50","68.75","TRAIL VALLEY","220N005","2022-03-27 00:00","2022","03","27","00:00","-26.1","","-28.4","","81","","0.0","","0","","1","","","","101.16","","","","-27","","NA"
"-133.50","68.75","TRAIL VALLEY","220N005","2022-03-27 01:00","2022","03","27","01:00","-25.2","","-26.9","","85","","0.0","","29","","5","","","","101.14","","","","-30","","NA"
"-133.50","68.75","TRAIL VALLEY","220N005","2022-03-27 02:00","2022","03","27","02:00","-26.4","","-28.8","","80","","0.0","","34","","2","","","","101.11","","","","-28","","NA"
"-133.50","68.75","TRAIL VALLEY","220N005","2022-03-27 03:00","2022","03","27","03:00","-26.8","","-29.1","","81","","0.0","","29","","5","","","","101.11","","","","-32","","NA"
"-133.50","68.75","TRAIL VALLEY","220N005","2022-03-27 04:00","2022","03","27","04:00","-26.6","","-28.8","","81","","0.0","","30","","6","","","","101.08","","","","-33","","NA"
"-133.50","68.75","TRAIL VALLEY","220N005","2022-03-27 05:00","2022","03","27","05:00","-26.4","","-28.6","","81","","0.0","","34","","5","","","","101.05","","","","-32","","NA"
"-133.50","68.75","TRAIL VALLEY","220N005","2022-03-27 06:00","2022","03","27","06:00","-26.9","","-29.2","","81","","0.0","","33","","5","","","","101.03","","","","-32","","NA"
"-133.50","68.75","TRAIL VALLEY","220N005","2022-03-27 07:00","2022","03","27","07:00","-27.4","","-29.9","","80","","0.0","","27","","6","","","","101.02","","","","-34","","NA"
"-133.50","68.75","TRAIL VALLEY","220N005","2022-03-27 08:00","2022","03","27","08:00","-26.9","","-29.4","","79","","0.0","","26","","6","","","","100.96","","","","-33","","NA"
"-133.50","68.75","TRAIL VALLEY","220N005","2022-03-27 09:00","2022","03","27","09:00","-25.5","","-28.4","","77","","0.0","","33","","3","","","","100.92","","","","-29","","NA"
"-133.50","68.75","TRAIL VALLEY","220N005","2022-03-27 10:00","2022","03","27","10:00","-25.8","","-28.8","","76","","0.0","","","","0","","","","100.90","","","","","","NA"
"-133.50","68.75","TRAIL VALLEY","220N005","2022-03-27 11:00","2022","03","27","11:00","-22.7","","-25.6","","77","","0.0","","2","","2","","","","100.87","","","","-25","","NA"
"-133.50","68.75","TRAIL VALLEY","220N005","2022-03-27 12:00","2022","03","27","12:00","-21.6","","-24.6","","76","","0.0","","0","","1","","","","100.86","","","","-22","","NA"
"-133.50","68.75","TRAIL VALLEY","220N005","2022-03-27 13:00","2022","03","27","13:00","-22.7","","-25.9","","75","","0.0","","2","","3","","","","100.83","","","","-25","","NA"
"-133.50","68.75","TRAIL VALLEY","220N005","2022-03-27 14:00","2022","03","27","14:00","-22.6","","-25.7","","76","","0.0","","29","","4","","","","100.81","","","","-26","","NA"
"-133.50","68.75","TRAIL VALLEY","220N005","2022-03-27 15:00","2022","03","27","15:00","-24.2","","-27.5","","74","","0.0","","3","","11","","","","100.83","","","","-33","","NA"
"-133.50","68.75","TRAIL VALLEY","220N005","2022-03-27 16:00","2022","03","27","16:00","-24.1","","-27.6","","73","","0.0","","36","","3","","","","100.79","","","","-27","","NA"
"-133.50","68.75","TRAIL VALLEY","220N005","2022-03-27 17:00","2022","03","27","17:00","-23.9","","-27.3","","73","","0.0","","34","","6","","","","100.79","","","","-30","","NA"
"-133.50","68.75","TRAIL VALLEY","220N005","2022-03-27 18:00","2022","03","27","18:00","-24.0","","-27.5","","72","","0.0","","30","","10","","","","100.79","","","","-32","","NA"
"-133.50","68.75","TRAIL VALLEY","220N005","2022-03-27 19:00","2022","03","27","19:00","-25.1","","-28.4","","74","","0.0","","33","","13","","","","100.79","","","","-35","","NA"
"-133.50","68.75","TRAIL VALLEY","220N005","2022-03-27 20:00","2022","03","27","20:00","-25.8","","-28.8","","76","","0.0","","34","","9","","","","100.79","","","","-34","","NA"
"-133.50","68.75","TRAIL VALLEY","220N005","2022-03-27 21:00","2022","03","27","21:00","-26.2","","-29.0","","77","","0.0","","1","","13","","","","100.78","","","","-36","","NA"
"-133.50","68.75","TRAIL VALLEY","220N005","2022-03-27 22:00","2022","03","27","22:00","-25.3","","-28.1","","77","","0.0","","1","","9","","","","100.78","","","","-33","","NA"
"-133.50","68.75","TRAIL VALLEY","220N005","2022-03-27 23:00","2022","03","27","23:00","-26.8","","-29.2","","80","","0.0","","36","","12","","","","100.77","","","","-36","","NA"
"-133.50","68.75","TRAIL VALLEY","220N005","2022-03-28 00:00","2022","03","28","00:00","-27.4","","-29.8","","80","","0.0","","36","","14","","","","100.77","","","","-38","","NA"
"-133.50","68.75","TRAIL VALLEY","220N005","2022-03-28 01:00","2022","03","28","01:00","-28.1","","-30.7","","79","","0.0","","36","","14","","","","100.79","","","","-39","","NA"
"-133.50","68.75","TRAIL VALLEY","220N005","2022-03-28 02:00","2022","03","28","02:00","-30.2","","-32.9","","77","","0.0","","35","","8","","","","100.80","","","","-38","","NA"
"-133.50","68.75","TRAIL VALLEY","220N005","2022-03-28 03:00","2022","03","28","03:00","-29.8","","-32.5","","78","","0.0","","34","","11","","","","100.79","","","","-39","","NA"
"-133.50","68.75","TRAIL VALLEY","220N005","2022-03-28 04:00","2022","03","28","04:00","-30.0","","-32.7","","77","","0.0","","33","","8","","","","100.78","","","","-38","","NA"
"-133.50","68.75","TRAIL VALLEY","220N005","2022-03-28 05:00","2022","03","28","05:00","-30.9","","-33.6","","77","","0.0","","31","","9","","","","100.80","","","","-40","","NA"
"-133.50","68.75","TRAIL VALLEY","220N005","2022-03-28 06:00","2022","03","28","06:00","-31.6","","-34.4","","76","","0.0","","28","","9","","","","100.80","","","","-40","","NA"
"-133.50","68.75","TRAIL VALLEY","220N005","2022-03-28 07:00","2022","03","28","07:00","-31.2","","-33.9","","76","","0.0","","28","","8","","","","100.83","","","","-39","","NA"
"-133.50","68.75","TRAIL VALLEY","220N005","2022-03-28 08:00","2022","03","28","08:00","-30.5","","-33.4","","76","","0.0","","28","","5","","","","100.83","","","","-36","","NA"
"-133.50","68.75","TRAIL VALLEY","220N005","2022-03-28 09:00","2022","03","28","09:00","-29.4","","-32.5","","75","","0.0","","35","","6","","","","100.84","","","","-36","","NA"
"-133.50","68.75","TRAIL VALLEY","220N005","2022-03-28 10:00","2022","03","28","10:00","-30.0","","-33.3","","73","","0.0","","33","","4","","","","100.82","","","","-35","","NA"
"-133.50","68.75","TRAIL VALLEY","220N005","2022-03-28 11:00","2022","03","28","11:00","-29.5","","-32.8","","73","","0.0","","27","","6","","","","100.81","","","","-36","","NA"
"-133.50","68.75","TRAIL VALLEY","220N005","2022-03-28 12:00","2022","03","28","12:00","-26.3","","-29.6","","73","","0.0","","2","","3","","","","100.80","","","","-29","","NA"
"-133.50","68.75","TRAIL VALLEY","220N005","2022-03-28 13:00","2022","03","28","13:00","-27.0","","-30.4","","73","","0.0","","1","","6","","","","100.79","","","","-33","","NA"
"-133.50","68.75","TRAIL VALLEY","220N005","2022-03-28 14:00","2022","03","28","14:00","-25.8","","-29.2","","73","","0.0","","34","","6","","","","100.80","","","","-32","","NA"
"-133.50","68.75","TRAIL VALLEY","220N005","2022-03-28 15:00","2022","03","28","15:00","-24.5","","-27.9","","73","","0.0","","34","","3","","","","100.78","","","","-27","","NA"
"-133.50","68.75","TRAIL VALLEY","220N005","2022-03-28 16:00","2022","03","28","16:00","-24.5","","-27.8","","74","","0.0","","36","","4","","","","100.75","","","","-28","","NA"
"-133.50","68.75","TRAIL VALLEY","220N005","2022-03-28 17:00","2022","03","28","17:00","-23.7","","-27.0","","74","","0.0","","31","","4","","","","100.71","","","","-28","","NA"
"-133.50","68.75","TRAIL VALLEY","220N005","2022-03-28 18:00","2022","03","28","18:00","-24.2","","-27.4","","75","","0.0","","34","","8","","","","100.68","","","","-31","","NA"
"-133.50","68.75","TRAIL VALLEY","220N005","2022-03-28 19:00","2022","03","28","19:00","-24.6","","-27.8","","75","","0.0","","33","","5","","","","100.65","","","","-29","","NA"
"-133.50","68.75","TRAIL VALLEY","220N005","2022-03-28 20:00","2022","03","28","20:00","-25.8","","-28.8","","76","","0.0","","36","","10","","","","100.63","","","","-34","","NA"
"-133.50","68.75","TRAIL VALLEY","220N005","2022-03-28 21:00","2022","03","28","21:00","-26.2","","-28.8","","78","","0.0","","1","","11","","","","100.61","","","","-35","","NA"
"-133.50","68.75","TRAIL VALLEY","220N005","2022-03-28 22:00","2022","03","28","22:00","-27.2","","-29.9","","78","","0.0","","35","","7","","","","100.60","","","","-34","","NA"
"-133.50","68.75","TRAIL VALLEY","220N005","2022-03-28 23:00","2022","03","28","23:00","-27.5","","-30.0","","79","","0.0","","32","","4","","","","100.56","","","","-32","","NA"
"-133.50","68.75","TRAIL VALLEY","220N005","2022-03-29 00:00","2022","03","29","00:00","-28.9","","-31.7","","77","","0.0","","31","","3","","","","100.55","","","","-32","","NA"
"-133.50","68.75","TRAIL VALLEY","220N005","2022-03-29 01:00","2022","03","29","01:00","-30.0","","-33.0","","75","","0.0","","1","","9","","","","100.51","","","","-39","","NA"
"-133.50","68.75","TRAIL VALLEY","220N005","2022-03-29 02:00","2022","03","29","02:00","-30.6","","-33.5","","75","","0.0","","34","","7","","","","100.51","","","","-38","","NA"
"-133.50","68.75","TRAIL VALLEY","220N005","2022-03-29 03:00","2022","03","29","03:00","-30.1","","-33.0","","76","","0.0","","33","","8","","","","100.47","","","","-38","","NA"
"-133.50","68.75","TRAIL VALLEY","220N005","2022-03-29 04:00","2022","03","29","04:00","-30.5","","-33.3","","76","","0.0","","29","","6","","","","100.46","","","","-37","","NA"
"-133.50","68.75","TRAIL VALLEY","220N005","2022-03-29 05:00","2022","03","29","05:00","-30.8","","-33.7","","76","","0.0","","30","","6","","","","100.48","","","","-37","","NA"
"-133.50","68.75","TRAIL VALLEY","220N005","2022-03-29 06:00","2022","03","29","06:00","-30.9","","-33.9","","75","","0.0","","36","","8","","","","100.47","","","","-39","","NA"
"-133.50","68.75","TRAIL VALLEY","220N005","2022-03-29 07:00","2022","03","29","07:00","-33.0","","-36.1","","74","","0.0","","31","","6","","","","100.47","","","","-40","","NA"
"-133.50","68.75","TRAIL VALLEY","220N005","2022-03-29 08:00","2022","03","29","08:00","-33.4","","-36.6","","72","","0.0","","30","","7","","","","100.47","","","","-41","","NA"
"-133.50","68.75","TRAIL VALLEY","220N005","2022-03-29 09:00","2022","03","29","09:00","-32.9","","-36.3","","72","","0.0","","31","","9","","","","100.46","","","","-42","","NA"
"-133.50","68.75","TRAIL VALLEY","220N005","2022-03-29 10:00","2022","03","29","10:00","-31.3","","-34.7","","72","","0.0","","31","","8","","","","100.45","","","","-40","","NA"
"-133.50","68.75","TRAIL VALLEY","220N005","2022-03-29 11:00","2022","03","29","11:00","-29.7","","-33.1","","72","","0.0","","30","","8","","","","100.48","","","","-38","","NA"
"-133.50","68.75","TRAIL VALLEY","220N005","2022-03-29 12:00","2022","03","29","12:00","-28.6","","-32.1","","72","","0.0","","30","","9","","","","100.52","","","","-37","","NA"
"-133.50","68.75","TRAIL VALLEY","220N005","2022-03-29 13:00","2022","03","29","13:00","-27.1","","-30.5","","72","","0.0","","30","","7","","","","100.55","","","","-34","","NA"
"-133.50","68.75","TRAIL VALLEY","220N005","2022-03-29 14:00","2022","03","29","14:00","-26.8","","-30.3","","72","","0.3","","30","","7","","","","100.57","","","","-34","","NA"
"-133.50","68.75","TRAIL VALLEY","220N005","2022-03-29 15:00","2022","03","29","15:00","-26.0","","-29.4","","73","","0.0","","33","","9","","","","100.60","","","","-34","","NA"
"-133.50","68.75","TRAIL VALLEY","220N005","2022-03-29 16:00","2022","03","29","16:00","-25.2","","-28.5","","74","","0.0","","31","","8","","","","100.64","","","","-32","","NA"
"-133.50","68.75","TRAIL VALLEY","220N005","2022-03-29 17:00","2022","03","29","17:00","-25.0","","-28.3","","74","","0.0","","36","","11","","","","100.66","","","","-34","","NA"
"-133.50","68.75","TRAIL VALLEY","220N005","2022-03-29 18:00","2022","03","29","18:00","-25.2","","-28.5","","74","","0.0","","33","","9","","","","100.69","","","","-33","","NA"
"-133.50","68.75","TRAIL VALLEY","220N005","2022-03-29 19:00","2022","03","29","19:00","-26.7","","-29.9","","74","","0.0","","33","","14","","","","100.74","","","","-37","","NA"
"-133.50","68.75","TRAIL VALLEY","220N005","2022-03-29 20:00","2022","03","29","20:00","-28.8","","-32.0","","74","","0.0","","32","","13","","","","100.77","","","","-39","","NA"
"-133.50","68.75","TRAIL VALLEY","220N005","2022-03-29 21:00","2022","03","29","21:00","-29.8","","-32.8","","75","","0.0","","33","","14","","","","100.80","","","","-41","","NA"
"-133.50","68.75","TRAIL VALLEY","220N005","2022-03-29 22:00","2022","03","29","22:00","-31.2","","-34.2","","75","","0.0","","33","","12","","","","100.83","","","","-42","","NA"
"-133.50","68.75","TRAIL VALLEY","220N005","2022-03-29 23:00","2022","03","29","23:00","-29.5","","-32.4","","76","","0.0","","32","","17","","","","100.85","","","","-42","","NA"
"-133.50","68.75","TRAIL VALLEY","220N005","2022-03-30 00:00","2022","03","30","00:00","-31.3","","-34.4","","74","","0.0","","31","","10","","","","100.89","","","","-41","","NA"
"-133.50","68.75","TRAIL VALLEY","220N005","2022-03-30 01:00","2022","03","30","01:00","-32.2","","-35.2","","75","","0.0","","31","","11","","","","100.92","","","","-42","","NA"
"-133.50","68.75","TRAIL VALLEY","220N005","2022-03-30 02:00","2022","03","30","02:00","-29.6","","-32.5","","76","","0.0","","32","","17","","","","100.93","","","","-42","","NA"
"-133.50","68.75","TRAIL VALLEY","220N005","2022-03-30 03:00","2022","03","30","03:00","-29.5","","-32.4","","76","","0.0","","32","","10","","","","100.96","","","","-39","","NA"
"-133.50","68.75","TRAIL VALLEY","220N005","2022-03-30 04:00","2022","03","30","04:00","-29.8","","-32.7","","76","","0.0","","25","","8","","","","100.97","","","","-38","","NA"
"-133.50","68.75","TRAIL VALLEY","220N005","2022-03-30 05:00","2022","03","30","05:00","-32.6","","-35.7","","73","","0.0","","25","","8","","","","100.97","","","","-41","","NA"
"-133.50","68.75","TRAIL VALLEY","220N005","2022-03-30 06:00","2022","03","30","06:00","-31.1","","-34.2","","74","","0.2","","27","","10","","","","100.96","","","","-40","","NA"
"-133.50","68.75","TRAIL VALLEY","220N005","2022-03-30 07:00","2022","03","30","07:00","-31.1","","-34.1","","75","","0.0","","30","","11","","","","100.96","","","","-41","","NA"
"-133.50","68.75","TRAIL VALLEY","220N005","2022-03-30 08:00","2022","03","30","08:00","-33.0","","-36.2","","73","","0.0","","30","","14","","","","100.98","","","","-45","","NA"
"-133.50","68.75","TRAIL VALLEY","220N005","2022-03-30 09:00","2022","03","30","09:00","-31.7","","-35.1","","72","","0.0","","30","","13","","","","100.99","","","","-43","","NA"
"-133.50","68.75","TRAIL VALLEY","220N005","2022-03-30 10:00","2022","03","30","10:00","-30.8","","-34.2","","72","","0.0","","30","","13","","","","100.99","","","","-42","","NA"
"-133.50","68.75","TRAIL VALLEY","220N005","2022-03-30 11:00","2022","03","30","11:00","-29.5","","-32.9","","72","","0.0","","27","","9","","","","101.03","","","","-38","","NA"
"-133.50","68.75","TRAIL VALLEY","220N005","2022-03-30 12:00","2022","03","30","12:00","-28.9","","-32.4","","72","","0.2","","28","","10","","","","101.04","","","","-38","","NA"
"-133.50","68.75","TRAIL VALLEY","220N005","2022-03-30 13:00","2022","03","30","13:00","-28.3","","-31.8","","72","","0.0","","30","","16","","","","101.07","","","","-40","","NA"
"-133.50","68.75","TRAIL VALLEY","220N005","2022-03-30 14:00","2022","03","30","14:00","-27.5","","-30.9","","73","","0.0","","34","","18","","","","101.09","","","","-39","","NA"
"-133.50","68.75","TRAIL VALLEY","220N005","2022-03-30 15:00","2022","03","30","15:00","-27.1","","-30.4","","73","","0.0","","33","","23","","","","101.14","","","","-40","","NA"
"-133.50","68.75","TRAIL VALLEY","220N005","2022-03-30 16:00","2022","03","30","16:00","-26.5","","-29.8","","74","","0.0","","32","","18","","","","101.19","","","","-38","","NA"
"-133.50","68.75","TRAIL VALLEY","220N005","2022-03-30 17:00","2022","03","30","17:00","-26.6","","-29.9","","74","","0.0","","34","","21","","","","101.22","","","","-39","","NA"
"-133.50","68.75","TRAIL VALLEY","220N005","2022-03-30 18:00","2022","03","30","18:00","-27.2","","-30.3","","75","","0.0","","34","","17","","","","101.30","","","","-39","","NA"
"-133.50","68.75","TRAIL VALLEY","220N005","2022-03-30 19:00","2022","03","30","19:00","-28.1","","-31.4","","74","","0.0","","34","","13","","","","101.37","","","","-38","","NA"
"-133.50","68.75","TRAIL VALLEY","220N005","2022-03-30 20:00","2022","03","30","20:00","-30.1","","-33.3","","74","","0.0","","32","","14","","","","101.42","","","","-41","","NA"
"-133.50","68.75","TRAIL VALLEY","220N005","2022-03-30 21:00","2022","03","30","21:00","-32.0","","-35.1","","74","","0.0","","31","","17","","","","101.47","","","","-45","","NA"
"-133.50","68.75","TRAIL VALLEY","220N005","2022-03-30 22:00","2022","03","30","22:00","-32.4","","-35.6","","74","","0.0","","31","","18","","","","101.52","","","","-45","","NA"
"-133.50","68.75","TRAIL VALLEY","220N005","2022-03-30 23:00","2022","03","30","23:00","-32.7","","-35.8","","73","","0.0","","31","","18","","","","101.56","","","","-46","","NA"
"-133.50","68.75","TRAIL VALLEY","220N005","2022-03-31 00:00","2022","03","31","00:00","-32.6","","-35.8","","73","","0.0","","31","","21","","","","101.59","","","","-47","","NA"
"-133.50","68.75","TRAIL VALLEY","220N005","2022-03-31 01:00","2022","03","31","01:00","-32.8","","-36.0","","73","","0.0","","31","","23","","","","101.63","","","","-48","","NA"
"-133.50","68.75","TRAIL VALLEY","220N005","2022-03-31 02:00","2022","03","31","02:00","-33.1","","-36.3","","73","","0.0","","32","","21","","","","101.67","","","","-47","","NA"
"-133.50","68.75","TRAIL VALLEY","220N005","2022-03-31 03:00","2022","03","31","03:00","-33.2","","-36.4","","73","","0.0","","32","","17","","","","101.70","","","","-46","","NA"
"-133.50","68.75","TRAIL VALLEY","220N005","2022-03-31 04:00","2022","03","31","04:00","-33.0","","-36.2","","73","","0.0","","32","","14","","","","101.74","","","","-45","","NA"
"-133.50","68.75","TRAIL VALLEY","220N005","2022-03-31 05:00","2022","03","31","05:00","-33.3","","-36.5","","73","","0.0","","31","","14","","","","101.76","","","","-45","","NA"
"-133.50","68.75","TRAIL VALLEY","220N005","2022-03-31 06:00","2022","03","31","06:00","-33.5","","-36.8","","73","","0.0","","31","","19","","","","101.78","","","","-47","","NA"
"-133.50","68.75","TRAIL VALLEY","220N005","2022-03-31 07:00","2022","03","31","07:00","-32.7","","-35.8","","73","","0.0","","32","","17","","","","101.82","","","","-45","","NA"
"-133.50","68.75","TRAIL VALLEY","220N005","2022-03-31 08:00","2022","03","31","08:00","-32.2","","-35.5","","73","","0.0","","33","","13","","","","101.85","","","","-43","","NA"
"-133.50","68.75","TRAIL VALLEY","220N005","2022-03-31 09:00","2022","03","31","09:00","-32.6","","-36.0","","71","","0.0","","27","","11","","","","101.87","","","","-43","","NA"
"-133.50","68.75","TRAIL VALLEY","220N005","2022-03-31 10:00","2022","03","31","10:00","-31.0","","-34.4","","72","","0.0","","27","","14","","","","101.88","","","","-42","","NA"
"-133.50","68.75","TRAIL VALLEY","220N005","2022-03-31 11:00","2022","03","31","11:00","-30.0","","-33.4","","72","","0.0","","28","","11","","","","101.89","","","","-40","","NA"
"-133.50","68.75","TRAIL VALLEY","220N005","2022-03-31 12:00","2022","03","31","12:00","-28.9","","-32.4","","72","","0.0","","27","","11","","","","101.92","","","","-38","","NA"
"-133.50","68.75","TRAIL VALLEY","220N005","2022-03-31 13:00","2022","03","31","13:00","-27.6","","-31.1","","72","","0.4","","31","","9","","","","101.95","","","","-36","","NA"
"-133.50","68.75","TRAIL VALLEY","220N005","2022-03-31 14:00","2022","03","31","14:00","-27.5","","-31.0","","72","","0.0","","30","","9","","","","101.97","","","","-36","","NA"
"-133.50","68.75","TRAIL VALLEY","220N005","2022-03-31 15:00","2022","03","31","15:00","-27.5","","-31.0","","72","","0.0","","29","","14","","","","101.98","","","","-38","","NA"
"-133.50","68.75","TRAIL VALLEY","220N005","2022-03-31 16:00","2022","03","31","16:00","-27.3","","-30.7","","73","","0.0","","29","","10","","","","101.98","","","","-36","","NA"
"-133.50","68.75","TRAIL VALLEY","220N005","2022-03-31 17:00","2022","03","31","17:00","-26.9","","-30.2","","73","","0.0","","27","","8","","","","101.97","","","","-34","","NA"
"-133.50","68.75","TRAIL VALLEY","220N005","2022-03-31 18:00","2022","03","31","18:00","-27.2","","-30.5","","74","","0.0","","31","","8","","","","101.99","","","","-35","","NA"
"-133.50","68.75","TRAIL VALLEY","220N005","2022-03-31 19:00","2022","03","31","19:00","-26.8","","-30.0","","74","","0.0","","2","","3","","","","101.99","","","","-30","","NA"
"-133.50","68.75","TRAIL VALLEY","220N005","2022-03-31 20:00","2022","03","31","20:00","-30.4","","-33.6","","73","","0.0","","26","","6","","","","101.95","","","","-37","","NA"
"-133.50","68.75","TRAIL VALLEY","220N005","2022-03-31 21:00","2022","03","31","21:00","-30.0","","-33.0","","75","","0.0","","27","","7","","","","101.96","","","","-37","","NA"
"-133.50","68.75","TRAIL VALLEY","220N005","2022-03-31 22:00","2022","03","31","22:00","-31.7","","-34.8","","74","","0.0","","25","","8","","","","101.94","","","","-40","","NA"
"-133.50","68.75","TRAIL VALLEY","220N005","2022-03-31 23:00","2022","03","31","23:00","-33.0","","-36.1","","73","","0.0","","26","","8","","","","101.92","","","","-41","","NA"
