"Longitude (x)","Latitude (y)","Station Name","Climate ID","Date/Time (LST)","Year","Month","Day","Time (LST)","Temp (°C)","Temp Flag","Dew Point Temp (°C)","Dew Point Temp Flag","Rel Hum (%)","Rel Hum Flag","Precip. Amount (mm)","Precip. Amount Flag","Wind Dir (10s deg)","Wind Dir Flag","Wind Spd (km/h)","Wind Spd Flag","Visibility (km)","Visibility Flag","Stn Press (kPa)","Stn Press Flag","Hmdx","Hmdx Flag","Wind Chill","Wind Chill Flag","Weather"
"-83.36","64.19","CORAL HARBOUR A","2301002","2022-01-01 00:00","2022","01","01","00:00","-15.2","","-16.8","","88","","","","7","","31","","4.8","","98.69","","","","-26","","Snow,Blowing Snow"
"-83.36","64.19","CORAL HARBOUR A","2301002","2022-01-01 01:00","2022","01","01","01:00","-15.2","","-17.0","","86","","","","7","","29","","16.1","","98.69","","","","-26","","Snow,Blowing Snow"
"-83.36","64.19","CORAL HARBOUR A","2301002","2022-01-01 02:00","2022","01","01","02:00","-17.1","","-18.8","","87","","","","8","","30","","19.3","","98.70","","","","-29","","Snow,Blowing Snow"
"-83.36","64.19","CORAL HARBOUR A","2301002","2022-01-01 03:00","2022","01","01","03:00","-16.7","","-18.2","","88","","","","9","","30","","4.8","","98.75","","","","-28","","Snow,Blowing Snow"
"-83.36","64.19","CORAL HARBOUR A","2301002","2022-01-01 04:00","2022","01","01","04:00","-17.7","","-19.3","","88","","","","9","","31","","4.8","","98.79","","","","-30","","Snow,Blowing Snow"
"-83.36","64.19","CORAL HARBOUR A","2301002","2022-01-01 05:00","2022","01","01","05:00","-18.2","","-19.9","","87","","","","9","","32","","4.8","","98.85","","","","-31","","Snow,Blowing Snow"
"-83.36","64.19","CORAL HARBOUR A","2301002","2022-01-01 06:00","2022","01","01","06:00","-18.2","","-19.9","","87","","","","9","","27","","4.8","","98.87","","","","-30","","Snow,Blowing Snow"
"-83.36","64.19","CORAL HARBOUR A","2301002","2022-01-01 07:00","2022","01","01","07:00","-17.1","","-18.6","","88","","","","12","","30","","3.2","","98.95","","","","-29","","Snow,Blowing Snow"
"-83.36","64.19","CORAL HARBOUR A","2301002","2022-01-01 08:00","2022","01","01","08:00","-17.5","","-19.2","","87","","","","12","","27","","3.2","","99.03","","","","-29","","Snow,Blowing Snow"
"-83.36","64.19","CORAL HARBOUR A","2301002","2022-01-01 09:00","2022","01","01","09:00","-17.8","","-19.6","","86","","","","11","","19","","12.9","","99.05","","","","-27","","Snow"
"-83.36","64.19","CORAL HARBOUR A","2301002","2022-01-01 10:00","2022","01","01","10:00","-17.1","","-18.7","","88","","","","11","","23","","4.8","","99.11","","","","-27","","Snow"
"-83.36","64.19","CORAL HARBOUR A","2301002","2022-01-01 11:00","2022","01","01","11:00","-17.9","","-19.6","","87","","","","9","","33","","1.6","","99.17","","","","-30","","Snow,Blowing Snow"
"-83.36","64.19","CORAL HARBOUR A","2301002","2022-01-01 12:00","2022","01","01","12:00","-18.6","","-20.4","","86","","","","9","","32","","2.4","","99.21","","","","-31","","Snow,Blowing Snow"
"-83.36","64.19","CORAL HARBOUR A","2301002","2022-01-01 13:00","2022","01","01","13:00","-19.4","","-21.2","","86","","","","9","","29","","4.8","","99.24","","","","-32","","Snow,Blowing Snow"
"-83.36","64.19","CORAL HARBOUR A","2301002","2022-01-01 14:00","2022","01","01","14:00","-19.7","","-21.5","","86","","","","8","","26","","2.4","","99.28","","","","-31","","Snow,Blowing Snow"
"-83.36","64.19","CORAL HARBOUR A","2301002","2022-01-01 15:00","2022","01","01","15:00","-18.6","","-20.5","","85","","","","7","","27","","8.1","","99.34","","","","-30","","Snow,Blowing Snow"
"-83.36","64.19","CORAL HARBOUR A","2301002","2022-01-01 16:00","2022","01","01","16:00","-19.4","","-21.5","","84","","","","5","","29","","8.1","","99.40","","","","-32","","Snow,Blowing Snow"
"-83.36","64.19","CORAL HARBOUR A","2301002","2022-01-01 17:00","2022","01","01","17:00","-18.0","","-20.1","","83","","","","5","","27","","4.8","","99.42","","","","-29","","Snow,Blowing Snow"
"-83.36","64.19","CORAL HARBOUR A","2301002","2022-01-01 18:00","2022","01","01","18:00","-17.0","","-19.4","","82","","","","5","","25","","19.3","","99.40","","","","-28","","Snow"
"-83.36","64.19","CORAL HARBOUR A","2301002","2022-01-01 19:00","2022","01","01","19:00","-15.7","","-18.2","","81","","","","5","","28","","19.3","","99.39","","","","-27","","Snow"
"-83.36","64.19","CORAL HARBOUR A","2301002","2022-01-01 20:00","2022","01","01","20:00","-15.2","","-17.5","","83","","","","5","","32","","9.7","","99.33","","","","-27","","Snow,Blowing Snow"
"-83.36","64.19","CORAL HARBOUR A","2301002","2022-01-01 21:00","2022","01","01","21:00","-14.8","","-16.6","","86","","","","5","","37","","6.4","","99.33","","","","-27","","Snow,Blowing Snow"
"-83.36","64.19","CORAL HARBOUR A","2301002","2022-01-01 22:00","2022","01","01","22:00","-14.6","","-16.2","","88","","","","6","","41","","1.6","","99.35","","","","-27","","Snow,Blowing Snow"
"-83.36","64.19","CORAL HARBOUR A","2301002","2022-01-01 23:00","2022","01","01","23:00","-15.3","","-17.7","","83","","","","6","","43","","4.8","","99.39","","","","-28","","Snow,Blowing Snow"
"-83.36","64.19","CORAL HARBOUR A","2301002","2022-01-02 00:00","2022","01","02","00:00","-15.2","","-17.3","","84","","","","6","","36","","4.8","","99.42","","","","-27","","Snow,Blowing Snow"
"-83.36","64.19","CORAL HARBOUR A","2301002","2022-01-02 01:00","2022","01","02","01:00","-15.8","","-17.9","","84","","","","6","","31","","4.8","","99.43","","","","-27","","Snow,Blowing Snow"
"-83.36","64.19","CORAL HARBOUR A","2301002","2022-01-02 02:00","2022","01","02","02:00","-16.9","","-19.6","","79","","","","4","","28","","8.1","","99.44","","","","-28","","Snow,Blowing Snow"
"-83.36","64.19","CORAL HARBOUR A","2301002","2022-01-02 03:00","2022","01","02","03:00","-17.1","","-19.7","","80","","","","4","","16","","8.1","","99.45","","","","-26","","Snow,Blowing Snow"
"-83.36","64.19","CORAL HARBOUR A","2301002","2022-01-02 04:00","2022","01","02","04:00","-16.2","","-18.8","","80","","","","5","","34","","8.1","","99.42","","","","-28","","Snow,Blowing Snow"
"-83.36","64.19","CORAL HARBOUR A","2301002","2022-01-02 05:00","2022","01","02","05:00","-15.6","","-18.2","","81","","","","4","","32","","8.1","","99.41","","","","-27","","Snow,Blowing Snow"
"-83.36","64.19","CORAL HARBOUR A","2301002","2022-01-02 06:00","2022","01","02","06:00","-16.6","","-19.5","","79","","","","3","","14","","24.1","","99.47","","","","-25","","Snow,Blowing Snow"
"-83.36","64.19","CORAL HARBOUR A","2301002","2022-01-02 07:00","2022","01","02","07:00","-15.1","","-18.1","","78","","","","2","","18","","16.1","","99.46","","","","-24","","Snow,Blowing Snow"
"-83.36","64.19","CORAL HARBOUR A","2301002","2022-01-02 08:00","2022","01","02","08:00","-15.4","","-18.1","","80","","","","2","","26","","4.8","","99.44","","","","-26","","Snow,Blowing Snow"
"-83.36","64.19","CORAL HARBOUR A","2301002","2022-01-02 09:00","2022","01","02","09:00","-16.0","","-18.1","","84","","","","1","","17","","4.8","","99.42","","","","-25","","Snow"
"-83.36","64.19","CORAL HARBOUR A","2301002","2022-01-02 10:00","2022","01","02","10:00","-16.0","","-17.9","","86","","","","36","","16","","4.8","","99.40","","","","-24","","Snow"
"-83.36","64.19","CORAL HARBOUR A","2301002","2022-01-02 11:00","2022","01","02","11:00","-15.8","","-18.2","","83","","","","36","","21","","4.8","","99.37","","","","-25","","Snow"
"-83.36","64.19","CORAL HARBOUR A","2301002","2022-01-02 12:00","2022","01","02","12:00","-15.8","","-18.0","","84","","","","36","","21","","3.2","","99.33","","","","-25","","Snow"
"-83.36","64.19","CORAL HARBOUR A","2301002","2022-01-02 13:00","2022","01","02","13:00","-15.7","","-18.0","","83","","","","36","","33","","1.6","","99.26","","","","-27","","Snow,Blowing Snow"
"-83.36","64.19","CORAL HARBOUR A","2301002","2022-01-02 14:00","2022","01","02","14:00","-15.4","","-18.5","","78","","","","35","","21","","4.8","","99.24","","","","-25","","Snow,Blowing Snow"
"-83.36","64.19","CORAL HARBOUR A","2301002","2022-01-02 15:00","2022","01","02","15:00","-16.2","","-18.7","","82","","","","32","","26","","12.9","","99.23","","","","-27","","Snow,Blowing Snow"
"-83.36","64.19","CORAL HARBOUR A","2301002","2022-01-02 16:00","2022","01","02","16:00","-17.1","","-19.9","","80","","","","34","","27","","12.9","","99.20","","","","-28","","Snow,Blowing Snow"
"-83.36","64.19","CORAL HARBOUR A","2301002","2022-01-02 17:00","2022","01","02","17:00","-18.1","","-20.7","","80","","","","34","","15","","19.3","","99.19","","","","-27","","Snow,Blowing Snow"
"-83.36","64.19","CORAL HARBOUR A","2301002","2022-01-02 18:00","2022","01","02","18:00","-17.6","","-20.1","","81","","","","32","","16","","24.1","","99.15","","","","-26","","Snow,Blowing Snow"
"-83.36","64.19","CORAL HARBOUR A","2301002","2022-01-02 19:00","2022","01","02","19:00","-15.3","","-18.3","","78","","","","36","","14","","24.1","","99.11","","","","-23","","Snow"
"-83.36","64.19","CORAL HARBOUR A","2301002","2022-01-02 20:00","2022","01","02","20:00","-14.9","","-17.7","","79","","","","1","","16","","19.3","","99.07","","","","-23","","Snow"
"-83.36","64.19","CORAL HARBOUR A","2301002","2022-01-02 21:00","2022","01","02","21:00","-15.2","","-17.9","","80","","","","34","","16","","19.3","","99.06","","","","-23","","Snow"
"-83.36","64.19","CORAL HARBOUR A","2301002","2022-01-02 22:00","2022","01","02","22:00","-14.5","","-16.8","","83","","","","35","","14","","3.2","","99.05","","","","-22","","Snow"
"-83.36","64.19","CORAL HARBOUR A","2301002","2022-01-02 23:00","2022","01","02","23:00","-14.4","","-16.1","","87","","","","34","","13","","3.2","","99.04","","","","-22","","Snow"
"-83.36","64.19","CORAL HARBOUR A","2301002","2022-01-03 00:00","2022","01","03","00:00","-14.0","","-15.9","","86","","","","36","","18","","3.2","","99.01","","","","-22","","Snow"
"-83.36","64.19","CORAL HARBOUR A","2301002","2022-01-03 01:00","2022","01","03","01:00","-13.9","","-16.2","","83","","","","1","","21","","3.2","","99.00","","","","-23","","Snow"
"-83.36","64.19","CORAL HARBOUR A","2301002","2022-01-03 02:00","2022","01","03","02:00","-14.6","","-16.5","","86","","","","7","","18","","12.9","","99.02","","","","-23","","Snow"
"-83.36","64.19","CORAL HARBOUR A","2301002","2022-01-03 03:00","2022","01","03","03:00","-15.0","","-17.5","","81","","","","5","","8","","16.1","","99.05","","","","-20","","Snow"
"-83.36","64.19","CORAL HARBOUR A","2301002","2022-01-03 04:00","2022","01","03","04:00","-17.4","","-19.2","","86","","","","2","","16","","19.3","","99.07","","","","-26","","Snow"
"-83.36","64.19","CORAL HARBOUR A","2301002","2022-01-03 05:00","2022","01","03","05:00","-19.7","","-22.0","","82","","","","1","","20","","19.3","","99.11","","","","-30","","Snow"
"-83.36","64.19","CORAL HARBOUR A","2301002","2022-01-03 06:00","2022","01","03","06:00","-18.9","","-21.4","","81","","","","1","","18","","24.1","","99.13","","","","-29","","Snow"
"-83.36","64.19","CORAL HARBOUR A","2301002","2022-01-03 07:00","2022","01","03","07:00","-16.8","","-19.6","","79","","","","1","","17","","19.3","","99.17","","","","-26","","Snow"
"-83.36","64.19","CORAL HARBOUR A","2301002","2022-01-03 08:00","2022","01","03","08:00","-16.5","","-20.0","","75","","","","4","","16","","19.3","","99.20","","","","-25","","Snow"
"-83.36","64.19","CORAL HARBOUR A","2301002","2022-01-03 09:00","2022","01","03","09:00","-16.6","","-19.6","","78","","","","6","","19","","19.3","","99.24","","","","-26","","Snow"
"-83.36","64.19","CORAL HARBOUR A","2301002","2022-01-03 10:00","2022","01","03","10:00","-16.5","","-19.5","","78","","","","6","","11","","19.3","","99.30","","","","-23","","Snow"
"-83.36","64.19","CORAL HARBOUR A","2301002","2022-01-03 11:00","2022","01","03","11:00","-16.3","","-19.2","","78","","","","7","","13","","19.3","","99.33","","","","-24","","Snow"
"-83.36","64.19","CORAL HARBOUR A","2301002","2022-01-03 12:00","2022","01","03","12:00","-17.1","","-19.6","","81","","","","5","","12","","19.3","","99.37","","","","-25","","Snow"
"-83.36","64.19","CORAL HARBOUR A","2301002","2022-01-03 13:00","2022","01","03","13:00","-17.6","","-19.9","","83","","","","6","","11","","19.3","","99.40","","","","-25","","Snow"
"-83.36","64.19","CORAL HARBOUR A","2301002","2022-01-03 14:00","2022","01","03","14:00","-18.4","","-20.5","","84","","","","3","","15","","19.3","","99.42","","","","-27","","Snow"
"-83.36","64.19","CORAL HARBOUR A","2301002","2022-01-03 15:00","2022","01","03","15:00","-21.0","","-23.2","","83","","","","1","","17","","24.1","","99.46","","","","-31","","Snow"
"-83.36","64.19","CORAL HARBOUR A","2301002","2022-01-03 16:00","2022","01","03","16:00","-23.8","","-26.3","","80","","","","36","","22","","24.1","","99.52","","","","-36","","Snow"
"-83.36","64.19","CORAL HARBOUR A","2301002","2022-01-03 17:00","2022","01","03","17:00","-24.3","","-26.9","","80","","","","34","","15","","24.1","","99.56","","","","-34","","NA"
"-83.36","64.19","CORAL HARBOUR A","2301002","2022-01-03 18:00","2022","01","03","18:00","-25.9","","-28.5","","79","","","","35","","19","","24.1","","99.59","","","","-38","","NA"
"-83.36","64.19","CORAL HARBOUR A","2301002","2022-01-03 19:00","2022","01","03","19:00","-25.4","","-28.1","","79","","","","36","","17","","24.1","","99.55","","","","-36","","Mainly Clear"
"-83.36","64.19","CORAL HARBOUR A","2301002","2022-01-03 20:00","2022","01","03","20:00","-23.2","","-25.9","","79","","","","36","","23","","24.1","","99.54","","","","-35","","NA"
"-83.36","64.19","CORAL HARBOUR A","2301002","2022-01-03 21:00","2022","01","03","21:00","-22.7","","-25.4","","80","","","","34","","12","","19.3","","99.56","","","","-31","","Snow,Blowing Snow"
"-83.36","64.19","CORAL HARBOUR A","2301002","2022-01-03 22:00","2022","01","03","22:00"
"-83.36","64.19","CORAL HARBOUR A","2301002","2022-01-03 23:00","2022","01","03","23:00"
"-83.36","64.19","CORAL HARBOUR A","2301002","2022-01-04 00:00","2022","01","04","00:00"
"-83.36","64.19","CORAL HARBOUR A","2301002","2022-01-04 01:00","2022","01","04","01:00"
"-83.36","64.19","CORAL HARBOUR A","2301002","2022-01-04 02:00","2022","01","04","02:00"
"-83.36","64.19","CORAL HARBOUR A","2301002","2022-01-04 03:00","2022","01","04","03:00"
"-83.36","64.19","CORAL HARBOUR A","2301002","2022-01-04 04:00","2022","01","04","04:00"
"-83.36","64.19","CORAL HARBOUR A","2301002","2022-01-04 05:00","2022","01","04","05:00"
"-83.36","64.19","CORAL HARBOUR A","2301002","2022-01-04 06:00","2022","01","04","06:00"
"-83.36","64.19","CORAL HARBOUR A","2301002","2022-01-04 07:00","2022","01","04","07:00"
"-83.36","64.19","CORAL HARBOUR A","2301002","2022-01-04 08:00","2022","01","04","08:00"
"-83.36","64.19","CORAL HARBOUR A","2301002","2022-01-04 09:00","2022","01","04","09:00","-14.0","","-15.7","","87","","","","36","","49","","1.2","","99.58","","","","-27","","Snow,Blowing Snow"
"-83.36","64.19","CORAL HARBOUR A","2301002","2022-01-04 10:00","2022","01","04","10:00","-16.2","","-18.2","","85","","","","36","","49","","1.2","","99.57","","","","-30","","Blowing Snow"
"-83.36","64.19","CORAL HARBOUR A","2301002","2022-01-04 11:00","2022","01","04","11:00","-18.5","","-20.4","","85","","","","1","","69","","0.0","","99.42","","","","-35","","Blowing Snow"
"-83.36","64.19","CORAL HARBOUR A","2301002","2022-01-04 12:00","2022","01","04","12:00"
"-83.36","64.19","CORAL HARBOUR A","2301002","2022-01-04 13:00","2022","01","04","13:00"
"-83.36","64.19","CORAL HARBOUR A","2301002","2022-01-04 14:00","2022","01","04","14:00"
"-83.36","64.19","CORAL HARBOUR A","2301002","2022-01-04 15:00","2022","01","04","15:00"
"-83.36","64.19","CORAL HARBOUR A","2301002","2022-01-04 16:00","2022","01","04","16:00"
"-83.36","64.19","CORAL HARBOUR A","2301002","2022-01-04 17:00","2022","01","04","17:00"
"-83.36","64.19","CORAL HARBOUR A","2301002","2022-01-04 18:00","2022","01","04","18:00"
"-83.36","64.19","CORAL HARBOUR A","2301002","2022-01-04 19:00","2022","01","04","19:00"
"-83.36","64.19","CORAL HARBOUR A","2301002","2022-01-04 20:00","2022","01","04","20:00"
"-83.36","64.19","CORAL HARBOUR A","2301002","2022-01-04 21:00","2022","01","04","21:00"
"-83.36","64.19","CORAL HARBOUR A","2301002","2022-01-04 22:00","2022","01","04","22:00"
"-83.36","64.19","CORAL HARBOUR A","2301002","2022-01-04 23:00","2022","01","04","23:00","-21.3","","-24.0","","79","","","","34","","31","","12.9","","99.71","","","","-34","","Snow,Blowing Snow"
"-83.36","64.19","CORAL HARBOUR A","2301002","2022-01-05 00:00","2022","01","05","00:00","-21.9","","-24.5","","79","","","","1","","30","","12.9","","99.63","","","","-35","","Snow,Blowing Snow"
"-83.36","64.19","CORAL HARBOUR A","2301002","2022-01-05 01:00","2022","01","05","01:00","-22.4","","-25.1","","79","","","","35","","35","","12.9","","99.69","","","","-37","","Snow,Blowing Snow"
"-83.36","64.19","CORAL HARBOUR A","2301002","2022-01-05 02:00","2022","01","05","02:00","-22.9","","-25.6","","79","","","","34","","44","","6.4","","99.67","","","","-39","","Snow,Blowing Snow"
"-83.36","64.19","CORAL HARBOUR A","2301002","2022-01-05 03:00","2022","01","05","03:00","-25.0","","-27.7","","79","","","","33","","42","","6.4","","99.72","","","","-41","","Snow,Blowing Snow"
"-83.36","64.19","CORAL HARBOUR A","2301002","2022-01-05 04:00","2022","01","05","04:00","-25.6","","-28.6","","76","","","","34","","53","","6.4","","99.69","","","","-43","","Snow,Blowing Snow"
"-83.36","64.19","CORAL HARBOUR A","2301002","2022-01-05 05:00","2022","01","05","05:00","-26.0","","-28.7","","78","","","","34","","46","","4.8","","99.65","","","","-43","","Snow,Blowing Snow"
"-83.36","64.19","CORAL HARBOUR A","2301002","2022-01-05 06:00","2022","01","05","06:00","-26.1","","-29.0","","77","","","","36","","36","","4.8","","99.69","","","","-42","","Snow,Blowing Snow"
"-83.36","64.19","CORAL HARBOUR A","2301002","2022-01-05 07:00","2022","01","05","07:00","-27.2","","-29.9","","78","","","","31","","43","","3.2","","99.68","","","","-44","","Snow,Blowing Snow"
"-83.36","64.19","CORAL HARBOUR A","2301002","2022-01-05 08:00","2022","01","05","08:00","-27.2","","-30.1","","77","","","","33","","46","","2.8","","99.71","","","","-45","","Snow,Blowing Snow"
"-83.36","64.19","CORAL HARBOUR A","2301002","2022-01-05 09:00","2022","01","05","09:00","-27.0","","-29.9","","77","","","","34","","40","","4.0","","99.75","","","","-43","","Snow,Blowing Snow"
"-83.36","64.19","CORAL HARBOUR A","2301002","2022-01-05 10:00","2022","01","05","10:00","-27.4","","-30.4","","76","","","","34","","47","","4.0","","99.70","","","","-45","","Snow,Blowing Snow"
"-83.36","64.19","CORAL HARBOUR A","2301002","2022-01-05 11:00","2022","01","05","11:00","-27.7","","-30.6","","77","","","","33","","22","","4.0","","99.82","","","","-41","","Snow,Fog"
"-83.36","64.19","CORAL HARBOUR A","2301002","2022-01-05 12:00","2022","01","05","12:00","-27.3","","-30.6","","74","","","","32","","44","","4.8","","99.71","","","","-45","","Snow,Blowing Snow"
"-83.36","64.19","CORAL HARBOUR A","2301002","2022-01-05 13:00","2022","01","05","13:00","-27.8","","-30.9","","75","","","","33","","43","","1.6","","99.75","","","","-45","","Snow,Blowing Snow"
"-83.36","64.19","CORAL HARBOUR A","2301002","2022-01-05 14:00","2022","01","05","14:00","-28.3","","-31.5","","74","","","","35","","37","","2.4","","99.76","","","","-45","","Snow,Blowing Snow"
"-83.36","64.19","CORAL HARBOUR A","2301002","2022-01-05 15:00","2022","01","05","15:00","-28.1","","-31.4","","74","","","","33","","52","","2.4","","99.71","","","","-47","","Blowing Snow"
"-83.36","64.19","CORAL HARBOUR A","2301002","2022-01-05 16:00","2022","01","05","16:00","-28.6","","-32.2","","72","","","","34","","31","","12.9","","99.79","","","","-44","","Blowing Snow"
"-83.36","64.19","CORAL HARBOUR A","2301002","2022-01-05 17:00","2022","01","05","17:00","-28.9","","-32.5","","72","","","","34","","27","","24.1","","99.81","","","","-44","","Blowing Snow"
"-83.36","64.19","CORAL HARBOUR A","2301002","2022-01-05 18:00","2022","01","05","18:00","-28.3","","-32.0","","71","","","","32","","31","","24.1","","99.78","","","","-44","","Blowing Snow"
"-83.36","64.19","CORAL HARBOUR A","2301002","2022-01-05 19:00","2022","01","05","19:00","-29.6","","-33.2","","72","","","","35","","26","","24.1","","99.82","","","","-44","","Blowing Snow"
"-83.36","64.19","CORAL HARBOUR A","2301002","2022-01-05 20:00","2022","01","05","20:00","-29.2","","-32.7","","72","","","","35","","28","","24.1","","99.79","","","","-44","","Blowing Snow"
"-83.36","64.19","CORAL HARBOUR A","2301002","2022-01-05 21:00","2022","01","05","21:00","-29.8","","-33.3","","72","","","","32","","28","","24.1","","99.81","","","","-45","","Blowing Snow"
"-83.36","64.19","CORAL HARBOUR A","2301002","2022-01-05 22:00","2022","01","05","22:00","-30.9","","-34.1","","74","","","","32","","23","","24.1","","99.78","","","","-45","","Clear"
"-83.36","64.19","CORAL HARBOUR A","2301002","2022-01-05 23:00","2022","01","05","23:00","-32.0","","-35.1","","75","","","","28","","13","","24.1","","99.77","","","","-43","","NA"
"-83.36","64.19","CORAL HARBOUR A","2301002","2022-01-06 00:00","2022","01","06","00:00","-32.4","","-35.7","","73","","","","31","","13","","24.1","","99.74","","","","-44","","NA"
"-83.36","64.19","CORAL HARBOUR A","2301002","2022-01-06 01:00","2022","01","06","01:00","-31.9","","-35.4","","72","","","","31","","12","","24.1","","99.70","","","","-42","","Clear"
"-83.36","64.19","CORAL HARBOUR A","2301002","2022-01-06 02:00","2022","01","06","02:00","-32.0","","-35.2","","74","","","","28","","7","","24.1","","99.69","","","","-40","","NA"
"-83.36","64.19","CORAL HARBOUR A","2301002","2022-01-06 03:00","2022","01","06","03:00","-31.6","","-34.8","","74","","","","28","","27","","24.1","","99.66","","","","-47","","NA"
"-83.36","64.19","CORAL HARBOUR A","2301002","2022-01-06 04:00","2022","01","06","04:00","-32.2","","-35.5","","73","","","","29","","22","","24.1","","99.64","","","","-46","","Clear"
"-83.36","64.19","CORAL HARBOUR A","2301002","2022-01-06 05:00","2022","01","06","05:00","-32.3","","-35.6","","73","","","","29","","21","","24.1","","99.65","","","","-46","","NA"
"-83.36","64.19","CORAL HARBOUR A","2301002","2022-01-06 06:00","2022","01","06","06:00","-33.1","","-36.3","","74","","","","27","","23","","24.1","","99.61","","","","-48","","NA"
"-83.36","64.19","CORAL HARBOUR A","2301002","2022-01-06 07:00","2022","01","06","07:00","-32.9","","-36.3","","73","","","","28","","27","","24.1","","99.58","","","","-49","","Ice Crystals"
"-83.36","64.19","CORAL HARBOUR A","2301002","2022-01-06 08:00","2022","01","06","08:00","-32.8","","-36.0","","74","","","","32","","23","","3.2","","99.54","","","","-48","","Ice Crystals"
"-83.36","64.19","CORAL HARBOUR A","2301002","2022-01-06 09:00","2022","01","06","09:00","-32.9","","-36.1","","74","","","","31","","22","","19.3","","99.52","","","","-47","","Ice Crystals"
"-83.36","64.19","CORAL HARBOUR A","2301002","2022-01-06 10:00","2022","01","06","10:00","-33.2","","-36.6","","72","","","","31","","20","","24.1","","99.50","","","","-47","","Mainly Clear"
"-83.36","64.19","CORAL HARBOUR A","2301002","2022-01-06 11:00","2022","01","06","11:00","-34.3","","-37.6","","73","","","","31","","17","","24.1","","99.50","","","","-47","","Ice Crystals"
"-83.36","64.19","CORAL HARBOUR A","2301002","2022-01-06 12:00","2022","01","06","12:00","-34.6","","-38.0","","72","","","","31","","14","","24.1","","99.44","","","","-47","","Ice Crystals"
"-83.36","64.19","CORAL HARBOUR A","2301002","2022-01-06 13:00","2022","01","06","13:00","-36.0","","-39.3","","72","","","","24","","8","","24.1","","99.43","","","","-45","","Ice Crystals"
"-83.36","64.19","CORAL HARBOUR A","2301002","2022-01-06 14:00","2022","01","06","14:00","-34.1","","-37.4","","73","","","","30","","6","","24.1","","99.43","","","","-41","","Ice Crystals"
"-83.36","64.19","CORAL HARBOUR A","2301002","2022-01-06 15:00","2022","01","06","15:00","-36.4","","-39.9","","71","","","","27","","7","","24.1","","99.42","","","","-45","","Ice Crystals"
"-83.36","64.19","CORAL HARBOUR A","2301002","2022-01-06 16:00","2022","01","06","16:00","-35.8","","-39.2","","72","","","","30","","8","","24.1","","99.40","","","","-45","","Ice Crystals"
"-83.36","64.19","CORAL HARBOUR A","2301002","2022-01-06 17:00","2022","01","06","17:00","-37.5","","-40.9","","71","","","","34","","10","","24.1","","99.40","","","","-48","","Ice Crystals"
"-83.36","64.19","CORAL HARBOUR A","2301002","2022-01-06 18:00","2022","01","06","18:00","-36.5","","-40.0","","71","","","","35","","11","","24.1","","99.37","","","","-47","","Ice Crystals"
"-83.36","64.19","CORAL HARBOUR A","2301002","2022-01-06 19:00","2022","01","06","19:00","-35.3","","-38.7","","72","","","","34","","12","","24.1","","99.35","","","","-47","","Ice Crystals"
"-83.36","64.19","CORAL HARBOUR A","2301002","2022-01-06 20:00","2022","01","06","20:00","-37.1","","-40.6","","71","","","","36","","17","","24.1","","99.28","","","","-51","","Ice Crystals"
"-83.36","64.19","CORAL HARBOUR A","2301002","2022-01-06 21:00","2022","01","06","21:00","-36.6","","-40.0","","71","","","","36","","13","","24.1","","99.25","","","","-49","","Ice Crystals"
"-83.36","64.19","CORAL HARBOUR A","2301002","2022-01-06 22:00","2022","01","06","22:00","-37.8","","-41.3","","71","","","","36","","11","","24.1","","99.23","","","","-49","","Ice Crystals"
"-83.36","64.19","CORAL HARBOUR A","2301002","2022-01-06 23:00","2022","01","06","23:00","-36.6","","-40.1","","71","","","","36","","2","","24.1","","99.21","","","","-39","","Ice Crystals"
"-83.36","64.19","CORAL HARBOUR A","2301002","2022-01-07 00:00","2022","01","07","00:00","-35.4","","-38.8","","72","","","","36","","2","","24.1","","99.21","","","","-38","","Ice Crystals"
"-83.36","64.19","CORAL HARBOUR A","2301002","2022-01-07 01:00","2022","01","07","01:00","-38.7","","-42.2","","71","","","","34","","13","","24.1","","99.19","","","","-51","","Ice Crystals"
"-83.36","64.19","CORAL HARBOUR A","2301002","2022-01-07 02:00","2022","01","07","02:00","-35.9","","-39.3","","72","","","","33","","17","","24.1","","99.19","","","","-49","","Ice Crystals"
"-83.36","64.19","CORAL HARBOUR A","2301002","2022-01-07 03:00","2022","01","07","03:00","-34.9","","-38.3","","72","","","","34","","18","","24.1","","99.18","","","","-49","","Ice Crystals"
"-83.36","64.19","CORAL HARBOUR A","2301002","2022-01-07 04:00","2022","01","07","04:00","-35.0","","-38.4","","73","","","","35","","17","","24.1","","99.15","","","","-48","","Ice Crystals"
"-83.36","64.19","CORAL HARBOUR A","2301002","2022-01-07 05:00","2022","01","07","05:00","-34.9","","-38.2","","73","","","","2","","13","","24.1","","99.17","","","","-47","","Ice Crystals"
"-83.36","64.19","CORAL HARBOUR A","2301002","2022-01-07 06:00","2022","01","07","06:00","-37.1","","-40.6","","71","","","","5","","5","","24.1","","99.19","","","","-44","","Ice Crystals"
"-83.36","64.19","CORAL HARBOUR A","2301002","2022-01-07 07:00","2022","01","07","07:00","-37.6","","-41.0","","71","","","","0","","1","","24.1","","99.17","","","","-39","","Ice Crystals"
"-83.36","64.19","CORAL HARBOUR A","2301002","2022-01-07 08:00","2022","01","07","08:00","-36.0","","-39.3","","72","","","","7","","8","","24.1","","99.18","","","","-45","","Ice Crystals"
"-83.36","64.19","CORAL HARBOUR A","2301002","2022-01-07 09:00","2022","01","07","09:00","-35.0","","-38.3","","73","","","","5","","15","","24.1","","99.16","","","","-48","","Ice Crystals"
"-83.36","64.19","CORAL HARBOUR A","2301002","2022-01-07 10:00","2022","01","07","10:00","-35.6","","-38.9","","72","","","","4","","14","","24.1","","99.20","","","","-48","","Ice Crystals"
"-83.36","64.19","CORAL HARBOUR A","2301002","2022-01-07 11:00","2022","01","07","11:00","-34.8","","-38.1","","72","","","","5","","13","","24.1","","99.23","","","","-46","","Ice Crystals"
"-83.36","64.19","CORAL HARBOUR A","2301002","2022-01-07 12:00","2022","01","07","12:00","-36.8","","-40.2","","72","","","","3","","9","","24.1","","99.21","","","","-47","","Ice Crystals"
"-83.36","64.19","CORAL HARBOUR A","2301002","2022-01-07 13:00","2022","01","07","13:00","-35.9","","-39.4","","72","","","","33","","13","","24.1","","99.21","","","","-48","","Ice Crystals"
"-83.36","64.19","CORAL HARBOUR A","2301002","2022-01-07 14:00","2022","01","07","14:00","-34.0","","-37.3","","73","","","","35","","8","","24.1","","99.23","","","","-43","","Ice Crystals"
"-83.36","64.19","CORAL HARBOUR A","2301002","2022-01-07 15:00","2022","01","07","15:00","-32.1","","-35.3","","74","","","","6","","24","","24.1","","99.26","","","","-47","","Ice Crystals"
"-83.36","64.19","CORAL HARBOUR A","2301002","2022-01-07 16:00","2022","01","07","16:00","-30.4","","-33.4","","75","","","","6","","22","","24.1","","99.28","","","","-44","","Ice Crystals"
"-83.36","64.19","CORAL HARBOUR A","2301002","2022-01-07 17:00","2022","01","07","17:00","-31.4","","-34.4","","75","","","","6","","21","","24.1","","99.31","","","","-45","","Ice Crystals"
"-83.36","64.19","CORAL HARBOUR A","2301002","2022-01-07 18:00","2022","01","07","18:00","-30.6","","-33.5","","76","","","","6","","23","","24.1","","99.32","","","","-45","","Ice Crystals"
"-83.36","64.19","CORAL HARBOUR A","2301002","2022-01-07 19:00","2022","01","07","19:00","-30.7","","-33.7","","76","","","","6","","26","","24.1","","99.34","","","","-46","","Ice Crystals"
"-83.36","64.19","CORAL HARBOUR A","2301002","2022-01-07 20:00","2022","01","07","20:00","-30.7","","-33.7","","76","","","","7","","22","","24.1","","99.38","","","","-45","","Ice Crystals"
"-83.36","64.19","CORAL HARBOUR A","2301002","2022-01-07 21:00","2022","01","07","21:00","-29.2","","-32.1","","77","","","","7","","22","","24.1","","99.39","","","","-43","","Ice Crystals"
"-83.36","64.19","CORAL HARBOUR A","2301002","2022-01-07 22:00","2022","01","07","22:00","-29.9","","-32.8","","77","","","","7","","21","","24.1","","99.40","","","","-43","","Ice Crystals"
"-83.36","64.19","CORAL HARBOUR A","2301002","2022-01-07 23:00","2022","01","07","23:00","-30.0","","-32.9","","76","","","","6","","24","","24.1","","99.42","","","","-44","","Ice Crystals"
"-83.36","64.19","CORAL HARBOUR A","2301002","2022-01-08 00:00","2022","01","08","00:00","-29.5","","-32.4","","77","","","","7","","24","","24.1","","99.47","","","","-44","","NA"
"-83.36","64.19","CORAL HARBOUR A","2301002","2022-01-08 01:00","2022","01","08","01:00","-29.6","","-32.4","","77","","","","7","","23","","24.1","","99.50","","","","-43","","Ice Crystals"
"-83.36","64.19","CORAL HARBOUR A","2301002","2022-01-08 02:00","2022","01","08","02:00","-28.9","","-31.7","","77","","","","6","","25","","24.1","","99.51","","","","-43","","Ice Crystals"
"-83.36","64.19","CORAL HARBOUR A","2301002","2022-01-08 03:00","2022","01","08","03:00","-28.9","","-31.7","","78","","","","7","","21","","24.1","","99.56","","","","-42","","Ice Crystals"
"-83.36","64.19","CORAL HARBOUR A","2301002","2022-01-08 04:00","2022","01","08","04:00","-28.4","","-31.1","","78","","","","7","","24","","24.1","","99.60","","","","-42","","Ice Crystals"
"-83.36","64.19","CORAL HARBOUR A","2301002","2022-01-08 05:00","2022","01","08","05:00","-27.4","","-30.0","","79","","","","7","","25","","24.1","","99.64","","","","-41","","Ice Crystals"
"-83.36","64.19","CORAL HARBOUR A","2301002","2022-01-08 06:00","2022","01","08","06:00","-27.2","","-29.8","","79","","","","7","","18","","19.3","","99.66","","","","-39","","Snow"
"-83.36","64.19","CORAL HARBOUR A","2301002","2022-01-08 07:00","2022","01","08","07:00","-27.6","","-30.1","","79","","","","7","","18","","12.9","","99.70","","","","-39","","Mainly Clear"
"-83.36","64.19","CORAL HARBOUR A","2301002","2022-01-08 08:00","2022","01","08","08:00","-27.9","","-30.5","","79","","","","7","","17","","19.3","","99.74","","","","-40","","Ice Crystals"
"-83.36","64.19","CORAL HARBOUR A","2301002","2022-01-08 09:00","2022","01","08","09:00","-28.2","","-30.9","","78","","","","7","","16","","24.1","","99.74","","","","-40","","Ice Crystals"
"-83.36","64.19","CORAL HARBOUR A","2301002","2022-01-08 10:00","2022","01","08","10:00","-28.0","","-30.6","","79","","","","5","","13","","19.3","","99.78","","","","-38","","Ice Crystals"
"-83.36","64.19","CORAL HARBOUR A","2301002","2022-01-08 11:00","2022","01","08","11:00","-28.4","","-31.1","","78","","","","3","","10","","24.1","","99.82","","","","-37","","Ice Crystals"
"-83.36","64.19","CORAL HARBOUR A","2301002","2022-01-08 12:00","2022","01","08","12:00","-31.8","","-34.8","","75","","","","1","","12","","19.3","","99.82","","","","-42","","Ice Crystals"
"-83.36","64.19","CORAL HARBOUR A","2301002","2022-01-08 13:00","2022","01","08","13:00","-31.9","","-35.0","","75","","","","3","","11","","24.1","","99.82","","","","-42","","Ice Crystals"
"-83.36","64.19","CORAL HARBOUR A","2301002","2022-01-08 14:00","2022","01","08","14:00","-32.9","","-36.0","","74","","","","34","","17","","24.1","","99.84","","","","-46","","Ice Crystals"
"-83.36","64.19","CORAL HARBOUR A","2301002","2022-01-08 15:00","2022","01","08","15:00","-33.2","","-36.3","","74","","","","35","","14","","24.1","","99.84","","","","-45","","Ice Crystals"
"-83.36","64.19","CORAL HARBOUR A","2301002","2022-01-08 16:00","2022","01","08","16:00","-32.9","","-36.0","","74","","","","1","","10","","24.1","","99.86","","","","-43","","Ice Crystals"
"-83.36","64.19","CORAL HARBOUR A","2301002","2022-01-08 17:00","2022","01","08","17:00","-32.4","","-35.5","","75","","","","4","","9","","24.1","","99.85","","","","-41","","Ice Crystals"
"-83.36","64.19","CORAL HARBOUR A","2301002","2022-01-08 18:00","2022","01","08","18:00","-32.4","","-35.5","","75","","","","4","","12","","24.1","","99.85","","","","-43","","Ice Crystals"
"-83.36","64.19","CORAL HARBOUR A","2301002","2022-01-08 19:00","2022","01","08","19:00","-32.5","","-35.6","","75","","","","33","","15","","24.1","","99.84","","","","-44","","Ice Crystals"
"-83.36","64.19","CORAL HARBOUR A","2301002","2022-01-08 20:00","2022","01","08","20:00","-32.2","","-35.3","","75","","","","35","","16","","19.3","","99.82","","","","-45","","Snow"
"-83.36","64.19","CORAL HARBOUR A","2301002","2022-01-08 21:00","2022","01","08","21:00","-31.1","","-34.1","","76","","","","36","","12","","19.3","","99.78","","","","-41","","Snow"
"-83.36","64.19","CORAL HARBOUR A","2301002","2022-01-08 22:00","2022","01","08","22:00","-30.2","","-33.1","","77","","","","34","","14","","24.1","","99.73","","","","-41","","Ice Crystals"
"-83.36","64.19","CORAL HARBOUR A","2301002","2022-01-08 23:00","2022","01","08","23:00","-28.9","","-31.7","","77","","","","1","","12","","19.3","","99.69","","","","-39","","Ice Crystals"
"-83.36","64.19","CORAL HARBOUR A","2301002","2022-01-09 00:00","2022","01","09","00:00","-27.6","","-30.2","","79","","","","1","","10","","24.1","","99.68","","","","-36","","Ice Crystals"
"-83.36","64.19","CORAL HARBOUR A","2301002","2022-01-09 01:00","2022","01","09","01:00","-29.9","","-32.7","","77","","","","36","","13","","24.1","","99.66","","","","-40","","Ice Crystals"
"-83.36","64.19","CORAL HARBOUR A","2301002","2022-01-09 02:00","2022","01","09","02:00","-29.9","","-32.7","","77","","","","33","","16","","24.1","","99.60","","","","-42","","Ice Crystals"
"-83.36","64.19","CORAL HARBOUR A","2301002","2022-01-09 03:00","2022","01","09","03:00","-30.8","","-33.7","","76","","","","34","","15","","24.1","","99.57","","","","-42","","NA"
"-83.36","64.19","CORAL HARBOUR A","2301002","2022-01-09 04:00","2022","01","09","04:00","-30.7","","-33.6","","76","","","","34","","18","","24.1","","99.55","","","","-43","","Ice Crystals"
"-83.36","64.19","CORAL HARBOUR A","2301002","2022-01-09 05:00","2022","01","09","05:00","-30.0","","-32.9","","77","","","","2","","13","","24.1","","99.52","","","","-41","","Ice Crystals"
"-83.36","64.19","CORAL HARBOUR A","2301002","2022-01-09 06:00","2022","01","09","06:00","-30.0","","-32.8","","77","","","","36","","21","","24.1","","99.44","","","","-43","","Ice Crystals"
"-83.36","64.19","CORAL HARBOUR A","2301002","2022-01-09 07:00","2022","01","09","07:00","-31.3","","-34.2","","76","","","","34","","21","","24.1","","99.45","","","","-45","","Ice Crystals"
"-83.36","64.19","CORAL HARBOUR A","2301002","2022-01-09 08:00","2022","01","09","08:00","-31.3","","-34.3","","76","","","","33","","19","","19.3","","99.43","","","","-44","","Ice Crystals"
"-83.36","64.19","CORAL HARBOUR A","2301002","2022-01-09 09:00","2022","01","09","09:00","-31.2","","-34.1","","76","","","","34","","21","","12.9","","99.39","","","","-45","","Ice Crystals"
"-83.36","64.19","CORAL HARBOUR A","2301002","2022-01-09 10:00","2022","01","09","10:00","-32.1","","-35.1","","75","","","","34","","20","","19.3","","99.34","","","","-46","","Ice Crystals"
"-83.36","64.19","CORAL HARBOUR A","2301002","2022-01-09 11:00","2022","01","09","11:00","-31.7","","-34.8","","75","","","","34","","23","","19.3","","99.33","","","","-46","","Ice Crystals"
"-83.36","64.19","CORAL HARBOUR A","2301002","2022-01-09 12:00","2022","01","09","12:00","-31.9","","-35.0","","75","","","","34","","22","","19.3","","99.30","","","","-46","","Ice Crystals"
"-83.36","64.19","CORAL HARBOUR A","2301002","2022-01-09 13:00","2022","01","09","13:00","-32.0","","-35.1","","75","","","","33","","25","","19.3","","99.26","","","","-47","","Ice Crystals"
"-83.36","64.19","CORAL HARBOUR A","2301002","2022-01-09 14:00","2022","01","09","14:00","-31.4","","-34.5","","75","","","","34","","24","","19.3","","99.28","","","","-46","","Ice Crystals"
"-83.36","64.19","CORAL HARBOUR A","2301002","2022-01-09 15:00","2022","01","09","15:00","-30.9","","-33.9","","76","","","","34","","26","","24.1","","99.26","","","","-46","","Ice Crystals"
"-83.36","64.19","CORAL HARBOUR A","2301002","2022-01-09 16:00","2022","01","09","16:00","-31.7","","-34.7","","75","","","","34","","24","","24.1","","99.27","","","","-46","","Ice Crystals"
"-83.36","64.19","CORAL HARBOUR A","2301002","2022-01-09 17:00","2022","01","09","17:00","-30.9","","-33.9","","76","","","","34","","31","","19.3","","99.28","","","","-47","","NA"
"-83.36","64.19","CORAL HARBOUR A","2301002","2022-01-09 18:00","2022","01","09","18:00","-31.1","","-34.1","","76","","","","34","","24","","19.3","","99.31","","","","-46","","Ice Crystals"
"-83.36","64.19","CORAL HARBOUR A","2301002","2022-01-09 19:00","2022","01","09","19:00","-31.1","","-34.1","","76","","","","34","","26","","19.3","","99.29","","","","-46","","Ice Crystals"
"-83.36","64.19","CORAL HARBOUR A","2301002","2022-01-09 20:00","2022","01","09","20:00","-31.6","","-34.6","","75","","","","34","","23","","19.3","","99.28","","","","-46","","Ice Crystals"
"-83.36","64.19","CORAL HARBOUR A","2301002","2022-01-09 21:00","2022","01","09","21:00","-30.9","","-33.8","","76","","","","35","","24","","24.1","","99.26","","","","-45","","Ice Crystals"
"-83.36","64.19","CORAL HARBOUR A","2301002","2022-01-09 22:00","2022","01","09","22:00","-30.2","","-33.1","","76","","","","35","","34","","24.1","","99.25","","","","-47","","Ice Crystals"
"-83.36","64.19","CORAL HARBOUR A","2301002","2022-01-09 23:00","2022","01","09","23:00","-30.8","","-33.8","","76","","","","35","","32","","24.1","","99.24","","","","-47","","Ice Crystals"
"-83.36","64.19","CORAL HARBOUR A","2301002","2022-01-10 00:00","2022","01","10","00:00","-30.6","","-33.6","","76","","","","35","","29","","24.1","","99.23","","","","-46","","Ice Crystals"
"-83.36","64.19","CORAL HARBOUR A","2301002","2022-01-10 01:00","2022","01","10","01:00","-30.3","","-33.1","","76","","","","34","","36","","24.1","","99.18","","","","-47","","Ice Crystals"
"-83.36","64.19","CORAL HARBOUR A","2301002","2022-01-10 02:00","2022","01","10","02:00","-30.8","","-33.7","","76","","","","34","","32","","24.1","","99.17","","","","-47","","Ice Crystals"
"-83.36","64.19","CORAL HARBOUR A","2301002","2022-01-10 03:00","2022","01","10","03:00","-30.1","","-33.0","","77","","","","35","","33","","24.1","","99.17","","","","-46","","Ice Crystals,Blowing Snow"
"-83.36","64.19","CORAL HARBOUR A","2301002","2022-01-10 04:00","2022","01","10","04:00","-29.8","","-32.7","","77","","","","35","","35","","24.1","","99.18","","","","-46","","Ice Crystals,Blowing Snow"
"-83.36","64.19","CORAL HARBOUR A","2301002","2022-01-10 05:00","2022","01","10","05:00","-30.4","","-33.3","","76","","","","34","","36","","19.3","","99.20","","","","-47","","Ice Crystals,Blowing Snow"
"-83.36","64.19","CORAL HARBOUR A","2301002","2022-01-10 06:00","2022","01","10","06:00","-30.6","","-33.5","","76","","","","35","","35","","24.1","","99.22","","","","-47","","Ice Crystals,Blowing Snow"
"-83.36","64.19","CORAL HARBOUR A","2301002","2022-01-10 07:00","2022","01","10","07:00","-30.7","","-33.6","","76","","","","35","","32","","24.1","","99.26","","","","-47","","Ice Crystals,Blowing Snow"
"-83.36","64.19","CORAL HARBOUR A","2301002","2022-01-10 08:00","2022","01","10","08:00","-30.5","","-33.5","","76","","","","34","","44","","9.7","","99.17","","","","-49","","Ice Crystals,Blowing Snow"
"-83.36","64.19","CORAL HARBOUR A","2301002","2022-01-10 09:00","2022","01","10","09:00","-30.7","","-33.6","","76","","","","35","","40","","19.3","","99.14","","","","-48","","Ice Crystals,Blowing Snow"
"-83.36","64.19","CORAL HARBOUR A","2301002","2022-01-10 10:00","2022","01","10","10:00","-31.1","","-34.1","","76","","","","34","","21","","24.1","","99.19","","","","-45","","Ice Crystals,Blowing Snow"
"-83.36","64.19","CORAL HARBOUR A","2301002","2022-01-10 11:00","2022","01","10","11:00","-30.8","","-33.8","","76","","","","35","","32","","24.1","","99.16","","","","-47","","Ice Crystals,Blowing Snow"
"-83.36","64.19","CORAL HARBOUR A","2301002","2022-01-10 12:00","2022","01","10","12:00","-30.7","","-33.6","","76","","","","26","","10","","24.1","","99.26","","","","-40","","Ice Crystals,Blowing Snow"
"-83.36","64.19","CORAL HARBOUR A","2301002","2022-01-10 13:00","2022","01","10","13:00","-30.6","","-33.6","","76","","","","34","","36","","24.1","","99.20","","","","-48","","Ice Crystals,Blowing Snow"
"-83.36","64.19","CORAL HARBOUR A","2301002","2022-01-10 14:00","2022","01","10","14:00","-31.0","","-33.9","","76","","","","32","","23","","24.1","","99.21","","","","-45","","Ice Crystals,Blowing Snow"
"-83.36","64.19","CORAL HARBOUR A","2301002","2022-01-10 15:00","2022","01","10","15:00","-31.1","","-34.0","","76","","","","33","","29","","24.1","","99.22","","","","-47","","Ice Crystals,Blowing Snow"
"-83.36","64.19","CORAL HARBOUR A","2301002","2022-01-10 16:00","2022","01","10","16:00","-31.4","","-34.3","","76","","","","34","","30","","24.1","","99.23","","","","-47","","Ice Crystals,Blowing Snow"
"-83.36","64.19","CORAL HARBOUR A","2301002","2022-01-10 17:00","2022","01","10","17:00","-31.7","","-34.7","","76","","","","35","","25","","24.1","","99.25","","","","-47","","Ice Crystals,Blowing Snow"
"-83.36","64.19","CORAL HARBOUR A","2301002","2022-01-10 18:00","2022","01","10","18:00","-32.4","","-35.4","","75","","","","33","","23","","24.1","","99.23","","","","-47","","Ice Crystals"
"-83.36","64.19","CORAL HARBOUR A","2301002","2022-01-10 19:00","2022","01","10","19:00","-33.0","","-36.1","","74","","","","32","","29","","24.1","","99.21","","","","-49","","Ice Crystals"
"-83.36","64.19","CORAL HARBOUR A","2301002","2022-01-10 20:00","2022","01","10","20:00","-31.8","","-34.8","","75","","","","33","","17","","24.1","","99.19","","","","-44","","Ice Crystals"
"-83.36","64.19","CORAL HARBOUR A","2301002","2022-01-10 21:00","2022","01","10","21:00","-34.0","","-37.2","","74","","","","29","","8","","24.1","","99.13","","","","-43","","Ice Crystals"
"-83.36","64.19","CORAL HARBOUR A","2301002","2022-01-10 22:00","2022","01","10","22:00","-33.8","","-37.0","","74","","","","29","","12","","24.1","","99.12","","","","-45","","Ice Crystals"
"-83.36","64.19","CORAL HARBOUR A","2301002","2022-01-10 23:00","2022","01","10","23:00","-35.0","","-38.3","","73","","","","29","","11","","24.1","","99.06","","","","-46","","Ice Crystals"
"-83.36","64.19","CORAL HARBOUR A","2301002","2022-01-11 00:00","2022","01","11","00:00","-33.7","","-36.9","","74","","","","33","","12","","24.1","","99.01","","","","-45","","Ice Crystals"
"-83.36","64.19","CORAL HARBOUR A","2301002","2022-01-11 01:00","2022","01","11","01:00","-32.7","","-35.8","","74","","","","30","","3","","24.1","","98.97","","","","-36","","Ice Crystals"
"-83.36","64.19","CORAL HARBOUR A","2301002","2022-01-11 02:00","2022","01","11","02:00","-33.0","","-36.1","","74","","","","25","","14","","24.1","","98.94","","","","-45","","Ice Crystals"
"-83.36","64.19","CORAL HARBOUR A","2301002","2022-01-11 03:00","2022","01","11","03:00","-32.4","","-35.5","","75","","","","27","","7","","24.1","","98.87","","","","-40","","Ice Crystals"
"-83.36","64.19","CORAL HARBOUR A","2301002","2022-01-11 04:00","2022","01","11","04:00","-31.7","","-34.8","","75","","","","16","","3","","24.1","","98.87","","","","-35","","Ice Crystals"
"-83.36","64.19","CORAL HARBOUR A","2301002","2022-01-11 05:00","2022","01","11","05:00","-30.5","","-33.4","","76","","","","27","","9","","19.3","","98.81","","","","-39","","Snow"
"-83.36","64.19","CORAL HARBOUR A","2301002","2022-01-11 06:00","2022","01","11","06:00","-30.1","","-32.9","","77","","","","29","","9","","19.3","","98.74","","","","-39","","Snow"
"-83.36","64.19","CORAL HARBOUR A","2301002","2022-01-11 07:00","2022","01","11","07:00","-30.3","","-33.2","","77","","","","36","","1","","19.3","","98.70","","","","-31","","Snow"
"-83.36","64.19","CORAL HARBOUR A","2301002","2022-01-11 08:00","2022","01","11","08:00","-30.2","","-33.1","","77","","","","24","","18","","19.3","","98.67","","","","-43","","Snow"
"-83.36","64.19","CORAL HARBOUR A","2301002","2022-01-11 09:00","2022","01","11","09:00","-29.8","","-32.6","","77","","","","26","","10","","16.1","","98.58","","","","-39","","Snow"
"-83.36","64.19","CORAL HARBOUR A","2301002","2022-01-11 10:00","2022","01","11","10:00","-29.7","","-32.5","","77","","","","36","","1","","16.1","","98.55","","","","-31","","Snow"
"-83.36","64.19","CORAL HARBOUR A","2301002","2022-01-11 11:00","2022","01","11","11:00","-29.6","","-32.4","","77","","","","36","","1","","16.1","","98.54","","","","-31","","Snow"
"-83.36","64.19","CORAL HARBOUR A","2301002","2022-01-11 12:00","2022","01","11","12:00","-29.3","","-32.1","","78","","","","20","","4","","19.3","","98.49","","","","-34","","NA"
"-83.36","64.19","CORAL HARBOUR A","2301002","2022-01-11 13:00","2022","01","11","13:00","-29.1","","-31.8","","78","","","","36","","2","","9.7","","98.42","","","","-31","","Snow"
"-83.36","64.19","CORAL HARBOUR A","2301002","2022-01-11 14:00","2022","01","11","14:00","-28.9","","-31.6","","78","","","","36","","5","","9.7","","98.40","","","","-34","","Snow"
"-83.36","64.19","CORAL HARBOUR A","2301002","2022-01-11 15:00","2022","01","11","15:00","-29.1","","-31.8","","78","","","","31","","3","","12.9","","98.40","","","","-32","","Snow"
"-83.36","64.19","CORAL HARBOUR A","2301002","2022-01-11 16:00","2022","01","11","16:00","-29.4","","-32.2","","78","","","","8","","3","","9.7","","98.41","","","","-33","","Snow"
"-83.36","64.19","CORAL HARBOUR A","2301002","2022-01-11 17:00","2022","01","11","17:00","-30.3","","-33.2","","77","","","","8","","4","","9.7","","98.43","","","","-35","","Snow"
"-83.36","64.19","CORAL HARBOUR A","2301002","2022-01-11 18:00","2022","01","11","18:00","-30.2","","-33.0","","77","","","","12","","4","","9.7","","98.43","","","","-35","","Snow"
"-83.36","64.19","CORAL HARBOUR A","2301002","2022-01-11 19:00","2022","01","11","19:00","-31.1","","-34.0","","76","","","","35","","8","","9.7","","98.45","","","","-39","","Snow"
"-83.36","64.19","CORAL HARBOUR A","2301002","2022-01-11 20:00","2022","01","11","20:00","-31.5","","-34.5","","76","","","","3","","10","","9.7","","98.46","","","","-41","","Snow"
"-83.36","64.19","CORAL HARBOUR A","2301002","2022-01-11 21:00","2022","01","11","21:00","-31.8","","-34.8","","75","","","","4","","15","","9.7","","98.46","","","","-44","","Snow"
"-83.36","64.19","CORAL HARBOUR A","2301002","2022-01-11 22:00","2022","01","11","22:00","-31.3","","-34.2","","76","","","","7","","14","","9.7","","98.48","","","","-43","","Snow"
"-83.36","64.19","CORAL HARBOUR A","2301002","2022-01-11 23:00","2022","01","11","23:00","-31.4","","-34.4","","76","","","","6","","14","","9.7","","98.49","","","","-43","","Snow"
"-83.36","64.19","CORAL HARBOUR A","2301002","2022-01-12 00:00","2022","01","12","00:00","-31.3","","-34.3","","76","","","","6","","14","","9.7","","98.51","","","","-43","","Snow"
"-83.36","64.19","CORAL HARBOUR A","2301002","2022-01-12 01:00","2022","01","12","01:00","-33.0","","-36.1","","74","","","","4","","14","","19.3","","98.53","","","","-45","","Snow,Ice Crystals"
"-83.36","64.19","CORAL HARBOUR A","2301002","2022-01-12 02:00","2022","01","12","02:00","-33.0","","-36.1","","74","","","","3","","17","","24.1","","98.58","","","","-46","","Ice Crystals"
"-83.36","64.19","CORAL HARBOUR A","2301002","2022-01-12 03:00","2022","01","12","03:00","-33.1","","-36.1","","75","","","","4","","18","","24.1","","98.59","","","","-46","","Ice Crystals"
"-83.36","64.19","CORAL HARBOUR A","2301002","2022-01-12 04:00","2022","01","12","04:00","-31.2","","-34.2","","76","","","","5","","25","","24.1","","98.63","","","","-46","","Ice Crystals"
"-83.36","64.19","CORAL HARBOUR A","2301002","2022-01-12 05:00","2022","01","12","05:00","-30.9","","-33.8","","76","","","","5","","27","","24.1","","98.67","","","","-46","","Ice Crystals"
"-83.36","64.19","CORAL HARBOUR A","2301002","2022-01-12 06:00","2022","01","12","06:00","-31.0","","-33.9","","76","","","","4","","27","","24.1","","98.73","","","","-46","","Ice Crystals"
"-83.36","64.19","CORAL HARBOUR A","2301002","2022-01-12 07:00","2022","01","12","07:00","-30.7","","-33.6","","76","","","","4","","28","","24.1","","98.77","","","","-46","","Ice Crystals"
"-83.36","64.19","CORAL HARBOUR A","2301002","2022-01-12 08:00","2022","01","12","08:00","-30.6","","-33.5","","76","","","","4","","30","","24.1","","98.80","","","","-46","","Ice Crystals"
"-83.36","64.19","CORAL HARBOUR A","2301002","2022-01-12 09:00","2022","01","12","09:00","-30.4","","-33.3","","76","","","","4","","30","","24.1","","98.85","","","","-46","","Ice Crystals"
"-83.36","64.19","CORAL HARBOUR A","2301002","2022-01-12 10:00","2022","01","12","10:00","-30.4","","-33.3","","76","","","","4","","34","","24.1","","98.90","","","","-47","","Ice Crystals"
"-83.36","64.19","CORAL HARBOUR A","2301002","2022-01-12 11:00","2022","01","12","11:00","-30.2","","-33.3","","75","","","","4","","33","","24.1","","98.97","","","","-46","","Ice Crystals,Blowing Snow"
"-83.36","64.19","CORAL HARBOUR A","2301002","2022-01-12 12:00","2022","01","12","12:00","-29.7","","-32.9","","75","","","","4","","34","","24.1","","99.04","","","","-46","","Ice Crystals,Blowing Snow"
"-83.36","64.19","CORAL HARBOUR A","2301002","2022-01-12 13:00","2022","01","12","13:00","-29.8","","-33.3","","72","","","","4","","33","","24.1","","99.10","","","","-46","","Ice Crystals,Blowing Snow"
"-83.36","64.19","CORAL HARBOUR A","2301002","2022-01-12 14:00","2022","01","12","14:00","-29.6","","-33.3","","71","","","","4","","35","","24.1","","99.19","","","","-46","","Ice Crystals,Blowing Snow"
"-83.36","64.19","CORAL HARBOUR A","2301002","2022-01-12 15:00","2022","01","12","15:00","-29.7","","-33.4","","71","","","","4","","38","","24.1","","99.31","","","","-47","","Ice Crystals,Blowing Snow"
"-83.36","64.19","CORAL HARBOUR A","2301002","2022-01-12 16:00","2022","01","12","16:00","-29.8","","-33.5","","71","","","","3","","40","","24.1","","99.44","","","","-47","","Ice Crystals,Blowing Snow"
"-83.36","64.19","CORAL HARBOUR A","2301002","2022-01-12 17:00","2022","01","12","17:00","-30.5","","-34.1","","71","","","","2","","35","","24.1","","99.59","","","","-47","","Ice Crystals,Blowing Snow"
"-83.36","64.19","CORAL HARBOUR A","2301002","2022-01-12 18:00","2022","01","12","18:00","-29.9","","-33.8","","70","","","","3","","35","","24.1","","99.73","","","","-46","","Ice Crystals,Blowing Snow"
"-83.36","64.19","CORAL HARBOUR A","2301002","2022-01-12 19:00","2022","01","12","19:00","-29.4","","-33.2","","70","","","","3","","36","","12.9","","99.83","","","","-46","","Ice Crystals,Blowing Snow"
"-83.36","64.19","CORAL HARBOUR A","2301002","2022-01-12 20:00","2022","01","12","20:00","-29.9","","-33.7","","70","","","","3","","33","","19.3","","99.94","","","","-46","","Ice Crystals"
"-83.36","64.19","CORAL HARBOUR A","2301002","2022-01-12 21:00","2022","01","12","21:00","-29.1","","-32.7","","72","","","","3","","38","","12.9","","100.02","","","","-46","","Ice Crystals,Blowing Snow"
"-83.36","64.19","CORAL HARBOUR A","2301002","2022-01-12 22:00","2022","01","12","22:00","-29.0","","-32.6","","72","","","","2","","37","","12.9","","100.11","","","","-46","","Ice Crystals,Blowing Snow"
"-83.36","64.19","CORAL HARBOUR A","2301002","2022-01-12 23:00","2022","01","12","23:00","-29.5","","-33.0","","72","","","","1","","34","","24.1","","100.24","","","","-46","","Ice Crystals,Blowing Snow"
"-83.36","64.19","CORAL HARBOUR A","2301002","2022-01-13 00:00","2022","01","13","00:00","-29.5","","-33.3","","70","","","","1","","41","","24.1","","100.35","","","","-47","","Ice Crystals,Blowing Snow"
"-83.36","64.19","CORAL HARBOUR A","2301002","2022-01-13 01:00","2022","01","13","01:00","-28.5","","-32.3","","71","","","","2","","37","","24.1","","100.46","","","","-45","","Ice Crystals"
"-83.36","64.19","CORAL HARBOUR A","2301002","2022-01-13 02:00","2022","01","13","02:00","-29.2","","-33.5","","67","","","","1","","27","","24.1","","100.61","","","","-44","","Ice Crystals,Blowing Snow"
"-83.36","64.19","CORAL HARBOUR A","2301002","2022-01-13 03:00","2022","01","13","03:00","-28.6","","-32.7","","68","","","","36","","31","","24.1","","100.67","","","","-44","","Ice Crystals,Blowing Snow"
"-83.36","64.19","CORAL HARBOUR A","2301002","2022-01-13 04:00","2022","01","13","04:00","-28.7","","-32.7","","69","","","","36","","33","","24.1","","100.79","","","","-45","","Ice Crystals"
"-83.36","64.19","CORAL HARBOUR A","2301002","2022-01-13 05:00","2022","01","13","05:00","-28.0","","-32.4","","66","","","","35","","19","","24.1","","100.92","","","","-40","","Ice Crystals"
"-83.36","64.19","CORAL HARBOUR A","2301002","2022-01-13 06:00","2022","01","13","06:00","-28.3","","-32.5","","68","","","","36","","20","","24.1","","100.97","","","","-41","","Ice Crystals"
"-83.36","64.19","CORAL HARBOUR A","2301002","2022-01-13 07:00","2022","01","13","07:00","-27.6","","-32.2","","66","","","","1","","31","","24.1","","101.02","","","","-43","","Ice Crystals"
"-83.36","64.19","CORAL HARBOUR A","2301002","2022-01-13 08:00","2022","01","13","08:00","-28.2","","-32.7","","66","","","","36","","22","","24.1","","101.08","","","","-41","","Ice Crystals"
"-83.36","64.19","CORAL HARBOUR A","2301002","2022-01-13 09:00","2022","01","13","09:00","-29.6","","-33.6","","69","","","","36","","23","","24.1","","101.16","","","","-43","","Ice Crystals"
"-83.36","64.19","CORAL HARBOUR A","2301002","2022-01-13 10:00","2022","01","13","10:00","-30.4","","-34.2","","70","","","","35","","24","","24.1","","101.24","","","","-45","","Ice Crystals"
"-83.36","64.19","CORAL HARBOUR A","2301002","2022-01-13 11:00","2022","01","13","11:00","-31.1","","-35.1","","69","","","","31","","18","","24.1","","101.24","","","","-44","","Ice Crystals"
"-83.36","64.19","CORAL HARBOUR A","2301002","2022-01-13 12:00","2022","01","13","12:00","-31.7","","-35.8","","68","","","","33","","19","","24.1","","101.25","","","","-45","","Ice Crystals"
"-83.36","64.19","CORAL HARBOUR A","2301002","2022-01-13 13:00","2022","01","13","13:00","-32.6","","-36.7","","68","","","","33","","7","","24.1","","101.26","","","","-40","","Ice Crystals"
"-83.36","64.19","CORAL HARBOUR A","2301002","2022-01-13 14:00","2022","01","13","14:00","-33.2","","-37.1","","68","","","","36","","3","","24.1","","101.33","","","","-37","","Ice Crystals"
"-83.36","64.19","CORAL HARBOUR A","2301002","2022-01-13 15:00","2022","01","13","15:00","-33.7","","-37.6","","68","","","","33","","19","","24.1","","101.34","","","","-47","","Ice Crystals"
"-83.36","64.19","CORAL HARBOUR A","2301002","2022-01-13 16:00","2022","01","13","16:00","-34.9","","-38.6","","70","","","","32","","19","","24.1","","101.38","","","","-49","","Clear"
"-83.36","64.19","CORAL HARBOUR A","2301002","2022-01-13 17:00","2022","01","13","17:00","-32.1","","-35.9","","70","","","","34","","25","","24.1","","101.35","","","","-47","","Ice Crystals"
"-83.36","64.19","CORAL HARBOUR A","2301002","2022-01-13 18:00","2022","01","13","18:00","-32.2","","-36.3","","68","","","","34","","26","","24.1","","101.36","","","","-48","","Ice Crystals"
"-83.36","64.19","CORAL HARBOUR A","2301002","2022-01-13 19:00","2022","01","13","19:00","-33.4","","-37.5","","67","","","","1","","22","","24.1","","101.38","","","","-48","","Ice Crystals"
"-83.36","64.19","CORAL HARBOUR A","2301002","2022-01-13 20:00","2022","01","13","20:00","-33.9","","-37.9","","68","","","","1","","22","","24.1","","101.37","","","","-49","","Ice Crystals"
"-83.36","64.19","CORAL HARBOUR A","2301002","2022-01-13 21:00","2022","01","13","21:00","-33.2","","-37.4","","67","","","","36","","23","","24.1","","101.34","","","","-48","","Ice Crystals"
"-83.36","64.19","CORAL HARBOUR A","2301002","2022-01-13 22:00","2022","01","13","22:00","-34.3","","-38.5","","67","","","","33","","24","","24.1","","101.29","","","","-50","","Ice Crystals"
"-83.36","64.19","CORAL HARBOUR A","2301002","2022-01-13 23:00","2022","01","13","23:00","-34.2","","-38.4","","67","","","","35","","26","","24.1","","101.26","","","","-50","","Ice Crystals"
"-83.36","64.19","CORAL HARBOUR A","2301002","2022-01-14 00:00","2022","01","14","00:00","-34.6","","-38.8","","67","","","","34","","22","","24.1","","101.29","","","","-50","","Ice Crystals"
"-83.36","64.19","CORAL HARBOUR A","2301002","2022-01-14 01:00","2022","01","14","01:00","-35.4","","-39.4","","68","","","","34","","25","","24.1","","101.30","","","","-51","","Ice Crystals"
"-83.36","64.19","CORAL HARBOUR A","2301002","2022-01-14 02:00","2022","01","14","02:00","-35.8","","-39.9","","67","","","","34","","20","","24.1","","101.31","","","","-50","","Ice Crystals"
"-83.36","64.19","CORAL HARBOUR A","2301002","2022-01-14 03:00","2022","01","14","03:00","-34.8","","-39.1","","66","","","","34","","18","","24.1","","101.28","","","","-48","","Ice Crystals"
"-83.36","64.19","CORAL HARBOUR A","2301002","2022-01-14 04:00","2022","01","14","04:00","-36.7","","-40.7","","67","","","","32","","19","","24.1","","101.27","","","","-51","","Ice Crystals"
"-83.36","64.19","CORAL HARBOUR A","2301002","2022-01-14 05:00","2022","01","14","05:00","-36.2","","-40.3","","67","","","","33","","21","","24.1","","101.27","","","","-51","","Ice Crystals"
"-83.36","64.19","CORAL HARBOUR A","2301002","2022-01-14 06:00","2022","01","14","06:00","-33.1","","-37.1","","69","","","","33","","20","","24.1","","101.24","","","","-47","","Ice Crystals"
"-83.36","64.19","CORAL HARBOUR A","2301002","2022-01-14 07:00","2022","01","14","07:00"
"-83.36","64.19","CORAL HARBOUR A","2301002","2022-01-14 08:00","2022","01","14","08:00","-33.3","","-36.9","","71","","","","32","","10","","19.3","","101.25","","","","-43","","Ice Crystals"
"-83.36","64.19","CORAL HARBOUR A","2301002","2022-01-14 09:00","2022","01","14","09:00","-31.6","","-34.9","","74","","","","26","","5","","24.1","","101.25","","","","-37","","Ice Crystals"
"-83.36","64.19","CORAL HARBOUR A","2301002","2022-01-14 10:00","2022","01","14","10:00","-31.8","","-34.5","","77","","","","27","","6","","24.1","","101.22","","","","-39","","Ice Crystals"
"-83.36","64.19","CORAL HARBOUR A","2301002","2022-01-14 11:00","2022","01","14","11:00","-31.9","","-34.9","","76","","","","29","","4","","24.1","","101.21","","","","-37","","Ice Crystals"
"-83.36","64.19","CORAL HARBOUR A","2301002","2022-01-14 12:00","2022","01","14","12:00","-30.3","","-33.1","","77","","","","31","","8","","24.1","","101.19","","","","-38","","Ice Crystals"
"-83.36","64.19","CORAL HARBOUR A","2301002","2022-01-14 13:00","2022","01","14","13:00","-29.1","","-31.8","","78","","","","36","","1","","24.1","","101.12","","","","-30","","Ice Crystals"
"-83.36","64.19","CORAL HARBOUR A","2301002","2022-01-14 14:00","2022","01","14","14:00","-28.9","","-31.5","","79","","","","28","","3","","24.1","","101.09","","","","-32","","Ice Crystals"
"-83.36","64.19","CORAL HARBOUR A","2301002","2022-01-14 15:00","2022","01","14","15:00","-29.0","","-31.6","","79","","","","34","","6","","12.9","","101.04","","","","-35","","Snow"
"-83.36","64.19","CORAL HARBOUR A","2301002","2022-01-14 16:00","2022","01","14","16:00","-28.1","","-30.6","","80","","","","4","","5","","16.1","","100.99","","","","-33","","Snow"
"-83.36","64.19","CORAL HARBOUR A","2301002","2022-01-14 17:00","2022","01","14","17:00","-27.7","","-30.0","","81","","","","11","","3","","3.2","","100.93","","","","-31","","Snow"
"-83.36","64.19","CORAL HARBOUR A","2301002","2022-01-14 18:00","2022","01","14","18:00","-27.8","","-30.1","","81","","","","8","","5","","16.1","","100.88","","","","-33","","Snow"
"-83.36","64.19","CORAL HARBOUR A","2301002","2022-01-14 19:00","2022","01","14","19:00","-27.0","","-29.1","","83","","","","10","","5","","16.1","","100.80","","","","-32","","Snow"
"-83.36","64.19","CORAL HARBOUR A","2301002","2022-01-14 20:00","2022","01","14","20:00"
"-83.36","64.19","CORAL HARBOUR A","2301002","2022-01-14 21:00","2022","01","14","21:00","-25.5","","-27.3","","85","","","","10","","8","","12.9","","100.67","","","","-33","","Snow"
"-83.36","64.19","CORAL HARBOUR A","2301002","2022-01-14 22:00","2022","01","14","22:00","-25.9","","-27.7","","85","","","","8","","8","","16.1","","100.59","","","","-33","","Snow"
"-83.36","64.19","CORAL HARBOUR A","2301002","2022-01-14 23:00","2022","01","14","23:00","-25.0","","-26.7","","86","","","","23","","5","","16.1","","100.50","","","","-30","","Snow"
"-83.36","64.19","CORAL HARBOUR A","2301002","2022-01-15 00:00","2022","01","15","00:00"
"-83.36","64.19","CORAL HARBOUR A","2301002","2022-01-15 01:00","2022","01","15","01:00"
"-83.36","64.19","CORAL HARBOUR A","2301002","2022-01-15 02:00","2022","01","15","02:00"
"-83.36","64.19","CORAL HARBOUR A","2301002","2022-01-15 03:00","2022","01","15","03:00"
"-83.36","64.19","CORAL HARBOUR A","2301002","2022-01-15 04:00","2022","01","15","04:00"
"-83.36","64.19","CORAL HARBOUR A","2301002","2022-01-15 05:00","2022","01","15","05:00"
"-83.36","64.19","CORAL HARBOUR A","2301002","2022-01-15 06:00","2022","01","15","06:00"
"-83.36","64.19","CORAL HARBOUR A","2301002","2022-01-15 07:00","2022","01","15","07:00"
"-83.36","64.19","CORAL HARBOUR A","2301002","2022-01-15 08:00","2022","01","15","08:00"
"-83.36","64.19","CORAL HARBOUR A","2301002","2022-01-15 09:00","2022","01","15","09:00","-21.4","","-22.4","","92","","","","12","","22","","9.7","","99.74","","","","-33","","Snow"
"-83.36","64.19","CORAL HARBOUR A","2301002","2022-01-15 10:00","2022","01","15","10:00","-21.0","","-21.8","","93","","","","14","","25","","9.7","","99.74","","","","-33","","Snow"
"-83.36","64.19","CORAL HARBOUR A","2301002","2022-01-15 11:00","2022","01","15","11:00","-20.8","","-21.5","","94","","","","14","","26","","9.7","","99.60","","","","-33","","Snow"
"-83.36","64.19","CORAL HARBOUR A","2301002","2022-01-15 12:00","2022","01","15","12:00","-20.6","","-21.2","","95","","","","13","","25","","2.4","","99.48","","","","-32","","Snow,Blowing Snow"
"-83.36","64.19","CORAL HARBOUR A","2301002","2022-01-15 13:00","2022","01","15","13:00","-21.1","","-21.7","","95","","","","12","","36","","1.6","","99.46","","","","-35","","Snow,Blowing Snow"
"-83.36","64.19","CORAL HARBOUR A","2301002","2022-01-15 14:00","2022","01","15","14:00","-21.4","","-21.9","","96","","","","11","","32","","0.8","","99.32","","","","-35","","Snow,Blowing Snow"
"-83.36","64.19","CORAL HARBOUR A","2301002","2022-01-15 15:00","2022","01","15","15:00","-21.4","","-21.8","","96","","","","11","","36","","1.2","","99.26","","","","-35","","Snow,Blowing Snow"
"-83.36","64.19","CORAL HARBOUR A","2301002","2022-01-15 16:00","2022","01","15","16:00","-21.2","","-22.1","","93","","","","10","","37","","0.8","","99.19","","","","-35","","Snow,Blowing Snow"
"-83.36","64.19","CORAL HARBOUR A","2301002","2022-01-15 17:00","2022","01","15","17:00","-21.3","","-22.9","","87","","","","10","","41","","0.4","","99.08","","","","-36","","Snow,Blowing Snow"
"-83.36","64.19","CORAL HARBOUR A","2301002","2022-01-15 18:00","2022","01","15","18:00","-21.0","","-22.6","","87","","","","10","","36","","0.4","","99.05","","","","-35","","Snow,Blowing Snow"
"-83.36","64.19","CORAL HARBOUR A","2301002","2022-01-15 19:00","2022","01","15","19:00"
"-83.36","64.19","CORAL HARBOUR A","2301002","2022-01-15 20:00","2022","01","15","20:00"
"-83.36","64.19","CORAL HARBOUR A","2301002","2022-01-15 21:00","2022","01","15","21:00"
"-83.36","64.19","CORAL HARBOUR A","2301002","2022-01-15 22:00","2022","01","15","22:00"
"-83.36","64.19","CORAL HARBOUR A","2301002","2022-01-15 23:00","2022","01","15","23:00"
"-83.36","64.19","CORAL HARBOUR A","2301002","2022-01-16 00:00","2022","01","16","00:00"
"-83.36","64.19","CORAL HARBOUR A","2301002","2022-01-16 01:00","2022","01","16","01:00"
"-83.36","64.19","CORAL HARBOUR A","2301002","2022-01-16 02:00","2022","01","16","02:00"
"-83.36","64.19","CORAL HARBOUR A","2301002","2022-01-16 03:00","2022","01","16","03:00"
"-83.36","64.19","CORAL HARBOUR A","2301002","2022-01-16 04:00","2022","01","16","04:00"
"-83.36","64.19","CORAL HARBOUR A","2301002","2022-01-16 05:00","2022","01","16","05:00"
"-83.36","64.19","CORAL HARBOUR A","2301002","2022-01-16 06:00","2022","01","16","06:00"
"-83.36","64.19","CORAL HARBOUR A","2301002","2022-01-16 07:00","2022","01","16","07:00"
"-83.36","64.19","CORAL HARBOUR A","2301002","2022-01-16 08:00","2022","01","16","08:00"
"-83.36","64.19","CORAL HARBOUR A","2301002","2022-01-16 09:00","2022","01","16","09:00"
"-83.36","64.19","CORAL HARBOUR A","2301002","2022-01-16 10:00","2022","01","16","10:00"
"-83.36","64.19","CORAL HARBOUR A","2301002","2022-01-16 11:00","2022","01","16","11:00"
"-83.36","64.19","CORAL HARBOUR A","2301002","2022-01-16 12:00","2022","01","16","12:00"
"-83.36","64.19","CORAL HARBOUR A","2301002","2022-01-16 13:00","2022","01","16","13:00"
"-83.36","64.19","CORAL HARBOUR A","2301002","2022-01-16 14:00","2022","01","16","14:00"
"-83.36","64.19","CORAL HARBOUR A","2301002","2022-01-16 15:00","2022","01","16","15:00","-18.8","","-20.6","","86","","","","6","","49","","0.8","","98.37","","","","-34","","Snow,Blowing Snow"
"-83.36","64.19","CORAL HARBOUR A","2301002","2022-01-16 16:00","2022","01","16","16:00","-19.3","","-21.0","","87","","","","5","","45","","0.8","","98.39","","","","-34","","Snow,Blowing Snow"
"-83.36","64.19","CORAL HARBOUR A","2301002","2022-01-16 17:00","2022","01","16","17:00","-19.7","","-21.4","","86","","","","5","","45","","0.8","","98.41","","","","-34","","Snow,Blowing Snow"
"-83.36","64.19","CORAL HARBOUR A","2301002","2022-01-16 18:00","2022","01","16","18:00","-19.7","","-21.5","","86","","","","5","","48","","0.8","","98.47","","","","-35","","Snow,Blowing Snow"
"-83.36","64.19","CORAL HARBOUR A","2301002","2022-01-16 19:00","2022","01","16","19:00","-19.8","","-21.8","","84","","","","5","","50","","0.8","","98.50","","","","-35","","Snow,Blowing Snow"
"-83.36","64.19","CORAL HARBOUR A","2301002","2022-01-16 20:00","2022","01","16","20:00","-19.9","","-21.9","","84","","","","5","","54","","0.8","","98.51","","","","-36","","Snow,Blowing Snow"
"-83.36","64.19","CORAL HARBOUR A","2301002","2022-01-16 21:00","2022","01","16","21:00","-20.1","","-22.1","","85","","","","5","","54","","0.8","","98.52","","","","-36","","Snow,Blowing Snow"
"-83.36","64.19","CORAL HARBOUR A","2301002","2022-01-16 22:00","2022","01","16","22:00","-20.6","","-22.8","","83","","","","4","","47","","0.8","","98.57","","","","-36","","Snow,Blowing Snow"
"-83.36","64.19","CORAL HARBOUR A","2301002","2022-01-16 23:00","2022","01","16","23:00","-20.9","","-23.4","","81","","","","4","","45","","2.4","","98.61","","","","-36","","Snow,Blowing Snow"
"-83.36","64.19","CORAL HARBOUR A","2301002","2022-01-17 00:00","2022","01","17","00:00","-22.4","","-24.3","","84","","","","2","","48","","1.2","","98.65","","","","-38","","Snow,Blowing Snow"
"-83.36","64.19","CORAL HARBOUR A","2301002","2022-01-17 01:00","2022","01","17","01:00","-23.1","","-25.3","","83","","","","2","","53","","1.2","","98.68","","","","-40","","Snow"
"-83.36","64.19","CORAL HARBOUR A","2301002","2022-01-17 02:00","2022","01","17","02:00","-23.4","","-25.5","","83","","","","3","","56","","1.2","","98.68","","","","-41","","Snow,Blowing Snow"
"-83.36","64.19","CORAL HARBOUR A","2301002","2022-01-17 03:00","2022","01","17","03:00","-23.6","","-25.7","","83","","","","2","","50","","1.2","","98.73","","","","-40","","Snow,Blowing Snow"
"-83.36","64.19","CORAL HARBOUR A","2301002","2022-01-17 04:00","2022","01","17","04:00","-24.2","","-26.2","","84","","","","2","","50","","1.2","","98.74","","","","-41","","Snow,Blowing Snow"
"-83.36","64.19","CORAL HARBOUR A","2301002","2022-01-17 05:00","2022","01","17","05:00","-24.6","","-26.8","","83","","","","1","","40","","1.6","","98.79","","","","-40","","Snow,Blowing Snow"
"-83.36","64.19","CORAL HARBOUR A","2301002","2022-01-17 06:00","2022","01","17","06:00","-24.4","","-26.8","","81","","","","35","","34","","3.2","","98.84","","","","-39","","Snow,Blowing Snow"
"-83.36","64.19","CORAL HARBOUR A","2301002","2022-01-17 07:00","2022","01","17","07:00","-23.7","","-26.2","","81","","","","1","","37","","3.2","","98.86","","","","-39","","Snow,Blowing Snow"
"-83.36","64.19","CORAL HARBOUR A","2301002","2022-01-17 08:00","2022","01","17","08:00","-23.6","","-25.9","","82","","","","36","","39","","3.2","","98.90","","","","-39","","Snow,Blowing Snow"
"-83.36","64.19","CORAL HARBOUR A","2301002","2022-01-17 09:00","2022","01","17","09:00","-24.1","","-26.4","","82","","","","35","","38","","9.7","","98.91","","","","-39","","Snow,Blowing Snow"
"-83.36","64.19","CORAL HARBOUR A","2301002","2022-01-17 10:00","2022","01","17","10:00","-25.1","","-28.2","","76","","","","1","","38","","4.8","","98.94","","","","-41","","Snow,Blowing Snow"
"-83.36","64.19","CORAL HARBOUR A","2301002","2022-01-17 11:00","2022","01","17","11:00","-25.9","","-29.0","","76","","","","35","","28","","12.9","","99.00","","","","-40","","Blowing Snow"
"-83.36","64.19","CORAL HARBOUR A","2301002","2022-01-17 12:00","2022","01","17","12:00","-26.9","","-30.1","","75","","","","33","","34","","9.7","","98.98","","","","-42","","Blowing Snow"
"-83.36","64.19","CORAL HARBOUR A","2301002","2022-01-17 13:00","2022","01","17","13:00","-26.6","","-30.1","","73","","","","35","","30","","19.3","","99.03","","","","-41","","Blowing Snow"
"-83.36","64.19","CORAL HARBOUR A","2301002","2022-01-17 14:00","2022","01","17","14:00","-26.6","","-30.1","","73","","","","34","","29","","19.3","","99.03","","","","-41","","Blowing Snow"
"-83.36","64.19","CORAL HARBOUR A","2301002","2022-01-17 15:00","2022","01","17","15:00","-29.1","","-32.6","","73","","","","34","","24","","24.1","","99.07","","","","-43","","NA"
"-83.36","64.19","CORAL HARBOUR A","2301002","2022-01-17 16:00","2022","01","17","16:00","-29.7","","-33.3","","72","","","","35","","27","","24.1","","99.14","","","","-45","","Mainly Clear"
"-83.36","64.19","CORAL HARBOUR A","2301002","2022-01-17 17:00","2022","01","17","17:00","-30.9","","-34.5","","72","","","","33","","22","","24.1","","99.11","","","","-45","","NA"
"-83.36","64.19","CORAL HARBOUR A","2301002","2022-01-17 18:00","2022","01","17","18:00","-32.1","","-35.6","","72","","","","33","","25","","24.1","","99.16","","","","-47","","NA"
"-83.36","64.19","CORAL HARBOUR A","2301002","2022-01-17 19:00","2022","01","17","19:00","-32.6","","-36.1","","71","","","","33","","19","","24.1","","99.21","","","","-46","","Mainly Clear"
"-83.36","64.19","CORAL HARBOUR A","2301002","2022-01-17 20:00","2022","01","17","20:00","-33.8","","-37.1","","73","","","","34","","10","","24.1","","99.24","","","","-44","","Ice Crystals"
"-83.36","64.19","CORAL HARBOUR A","2301002","2022-01-17 21:00","2022","01","17","21:00","-33.5","","-36.6","","74","","","","1","","17","","22.5","","99.23","","","","-46","","Ice Crystals"
"-83.36","64.19","CORAL HARBOUR A","2301002","2022-01-17 22:00","2022","01","17","22:00","-33.4","","-36.5","","74","","","","4","","13","","24.1","","99.25","","","","-45","","Ice Crystals"
"-83.36","64.19","CORAL HARBOUR A","2301002","2022-01-17 23:00","2022","01","17","23:00","-31.6","","-34.3","","78","","","","36","","3","","24.1","","99.24","","","","-35","","Ice Crystals"
"-83.36","64.19","CORAL HARBOUR A","2301002","2022-01-18 00:00","2022","01","18","00:00","-34.4","","-37.5","","74","","","","1","","17","","22.5","","99.22","","","","-48","","Ice Crystals"
"-83.36","64.19","CORAL HARBOUR A","2301002","2022-01-18 01:00","2022","01","18","01:00","-33.0","","-36.2","","74","","","","1","","17","","24.1","","99.22","","","","-46","","Ice Crystals"
"-83.36","64.19","CORAL HARBOUR A","2301002","2022-01-18 02:00","2022","01","18","02:00","-35.9","","-39.0","","73","","","","35","","19","","24.1","","99.25","","","","-50","","Ice Crystals"
"-83.36","64.19","CORAL HARBOUR A","2301002","2022-01-18 03:00","2022","01","18","03:00"
"-83.36","64.19","CORAL HARBOUR A","2301002","2022-01-18 04:00","2022","01","18","04:00","-34.7","","-37.9","","73","","","","35","","21","","24.1","","99.30","","","","-49","","Ice Crystals"
"-83.36","64.19","CORAL HARBOUR A","2301002","2022-01-18 05:00","2022","01","18","05:00","-34.2","","-37.5","","73","","","","33","","15","","24.1","","99.36","","","","-47","","Ice Crystals"
"-83.36","64.19","CORAL HARBOUR A","2301002","2022-01-18 06:00","2022","01","18","06:00","-35.6","","-38.9","","73","","","","34","","18","","24.1","","99.35","","","","-49","","Ice Crystals"
"-83.36","64.19","CORAL HARBOUR A","2301002","2022-01-18 07:00","2022","01","18","07:00","-34.6","","-37.9","","73","","","","35","","23","","24.1","","99.37","","","","-50","","Ice Crystals"
"-83.36","64.19","CORAL HARBOUR A","2301002","2022-01-18 08:00","2022","01","18","08:00","-34.7","","-37.9","","73","","","","34","","21","","24.1","","99.38","","","","-49","","Ice Crystals"
"-83.36","64.19","CORAL HARBOUR A","2301002","2022-01-18 09:00","2022","01","18","09:00","-35.5","","-38.7","","73","","","","35","","19","","24.1","","99.36","","","","-50","","Ice Crystals"
"-83.36","64.19","CORAL HARBOUR A","2301002","2022-01-18 10:00","2022","01","18","10:00","-34.8","","-38.0","","73","","","","35","","20","","24.1","","99.40","","","","-49","","Ice Crystals"
"-83.36","64.19","CORAL HARBOUR A","2301002","2022-01-18 11:00","2022","01","18","11:00","-34.7","","-38.1","","72","","","","34","","22","","24.1","","99.45","","","","-50","","Ice Crystals"
"-83.36","64.19","CORAL HARBOUR A","2301002","2022-01-18 12:00","2022","01","18","12:00","-33.6","","-37.0","","72","","","","1","","14","","24.1","","99.47","","","","-45","","Ice Crystals"
"-83.36","64.19","CORAL HARBOUR A","2301002","2022-01-18 13:00","2022","01","18","13:00","-32.8","","-36.4","","71","","","","36","","18","","24.1","","99.49","","","","-46","","Ice Crystals"
"-83.36","64.19","CORAL HARBOUR A","2301002","2022-01-18 14:00","2022","01","18","14:00","-34.6","","-38.1","","72","","","","32","","19","","24.1","","99.52","","","","-49","","Ice Crystals"
"-83.36","64.19","CORAL HARBOUR A","2301002","2022-01-18 15:00","2022","01","18","15:00","-33.1","","-36.4","","73","","","","33","","12","","24.1","","99.54","","","","-44","","Ice Crystals"
"-83.36","64.19","CORAL HARBOUR A","2301002","2022-01-18 16:00","2022","01","18","16:00","-34.3","","-37.8","","71","","","","35","","21","","24.1","","99.56","","","","-49","","Ice Crystals"
"-83.36","64.19","CORAL HARBOUR A","2301002","2022-01-18 17:00","2022","01","18","17:00","-32.1","","-35.7","","71","","","","1","","28","","24.1","","99.59","","","","-48","","Ice Crystals"
"-83.36","64.19","CORAL HARBOUR A","2301002","2022-01-18 18:00","2022","01","18","18:00","-34.0","","-37.7","","70","","","","36","","27","","24.1","","99.61","","","","-50","","Ice Crystals"
"-83.36","64.19","CORAL HARBOUR A","2301002","2022-01-18 19:00","2022","01","18","19:00","-34.5","","-38.2","","70","","","","1","","23","","24.1","","99.66","","","","-50","","Ice Crystals"
"-83.36","64.19","CORAL HARBOUR A","2301002","2022-01-18 20:00","2022","01","18","20:00","-34.9","","-38.4","","71","","","","35","","22","","24.1","","99.68","","","","-50","","Ice Crystals"
"-83.36","64.19","CORAL HARBOUR A","2301002","2022-01-18 21:00","2022","01","18","21:00","-35.8","","-39.3","","71","","","","34","","22","","24.1","","99.67","","","","-51","","Ice Crystals"
"-83.36","64.19","CORAL HARBOUR A","2301002","2022-01-18 22:00","2022","01","18","22:00","-34.7","","-38.0","","72","","","","31","","12","","24.1","","99.69","","","","-46","","Ice Crystals"
"-83.36","64.19","CORAL HARBOUR A","2301002","2022-01-18 23:00","2022","01","18","23:00","-34.0","","-37.4","","72","","","","34","","27","","24.1","","99.66","","","","-50","","Ice Crystals"
"-83.36","64.19","CORAL HARBOUR A","2301002","2022-01-19 00:00","2022","01","19","00:00","-34.2","","-37.5","","72","","","","35","","23","","24.1","","99.63","","","","-49","","Ice Crystals"
"-83.36","64.19","CORAL HARBOUR A","2301002","2022-01-19 01:00","2022","01","19","01:00","-33.4","","-36.9","","71","","","","32","","20","","24.1","","99.64","","","","-47","","Ice Crystals"
"-83.36","64.19","CORAL HARBOUR A","2301002","2022-01-19 02:00","2022","01","19","02:00","-34.5","","-38.1","","71","","","","33","","22","","24.1","","99.63","","","","-49","","Ice Crystals"
"-83.36","64.19","CORAL HARBOUR A","2301002","2022-01-19 03:00","2022","01","19","03:00","-33.7","","-37.2","","71","","","","34","","25","","24.1","","99.63","","","","-49","","Ice Crystals"
"-83.36","64.19","CORAL HARBOUR A","2301002","2022-01-19 04:00","2022","01","19","04:00","-34.1","","-37.6","","72","","","","36","","24","","24.1","","99.62","","","","-49","","Ice Crystals"
"-83.36","64.19","CORAL HARBOUR A","2301002","2022-01-19 05:00","2022","01","19","05:00","-34.1","","-37.6","","71","","","","34","","20","","24.1","","99.63","","","","-48","","Ice Crystals"
"-83.36","64.19","CORAL HARBOUR A","2301002","2022-01-19 06:00","2022","01","19","06:00","-33.4","","-36.9","","72","","","","36","","23","","24.1","","99.58","","","","-48","","Ice Crystals"
"-83.36","64.19","CORAL HARBOUR A","2301002","2022-01-19 07:00","2022","01","19","07:00","-33.3","","-36.8","","71","","","","34","","30","","24.1","","99.54","","","","-50","","Ice Crystals"
"-83.36","64.19","CORAL HARBOUR A","2301002","2022-01-19 08:00","2022","01","19","08:00","-33.0","","-36.5","","72","","","","35","","32","","24.1","","99.53","","","","-50","","Ice Crystals"
"-83.36","64.19","CORAL HARBOUR A","2301002","2022-01-19 09:00","2022","01","19","09:00","-33.7","","-37.1","","72","","","","36","","25","","24.1","","99.53","","","","-49","","Ice Crystals"
"-83.36","64.19","CORAL HARBOUR A","2301002","2022-01-19 10:00","2022","01","19","10:00","-33.0","","-36.4","","72","","","","35","","26","","24.1","","99.55","","","","-49","","Ice Crystals"
"-83.36","64.19","CORAL HARBOUR A","2301002","2022-01-19 11:00","2022","01","19","11:00","-32.5","","-35.9","","72","","","","36","","27","","24.1","","99.49","","","","-48","","Ice Crystals"
"-83.36","64.19","CORAL HARBOUR A","2301002","2022-01-19 12:00","2022","01","19","12:00","-30.7","","-34.2","","72","","","","36","","29","","24.1","","99.43","","","","-46","","Ice Crystals"
"-83.36","64.19","CORAL HARBOUR A","2301002","2022-01-19 13:00","2022","01","19","13:00","-30.1","","-33.9","","70","","","","34","","23","","24.1","","99.41","","","","-44","","Ice Crystals"
"-83.36","64.19","CORAL HARBOUR A","2301002","2022-01-19 14:00","2022","01","19","14:00","-29.9","","-33.7","","71","","","","34","","29","","24.1","","99.35","","","","-45","","Ice Crystals"
"-83.36","64.19","CORAL HARBOUR A","2301002","2022-01-19 15:00","2022","01","19","15:00","-29.9","","-33.1","","74","","","","34","","37","","19.3","","99.31","","","","-47","","Ice Crystals,Blowing Snow"
"-83.36","64.19","CORAL HARBOUR A","2301002","2022-01-19 16:00","2022","01","19","16:00","-30.5","","-33.5","","75","","","","34","","34","","8.1","","99.33","","","","-47","","Ice Crystals,Blowing Snow"
"-83.36","64.19","CORAL HARBOUR A","2301002","2022-01-19 17:00","2022","01","19","17:00","-29.4","","-32.7","","74","","","","34","","44","","8.1","","99.25","","","","-47","","Ice Crystals,Blowing Snow"
"-83.36","64.19","CORAL HARBOUR A","2301002","2022-01-19 18:00","2022","01","19","18:00","-30.2","","-33.5","","73","","","","36","","23","","16.1","","99.29","","","","-44","","Ice Crystals,Blowing Snow"
"-83.36","64.19","CORAL HARBOUR A","2301002","2022-01-19 19:00","2022","01","19","19:00","-28.8","","-32.2","","73","","","","33","","29","","19.3","","99.24","","","","-44","","Snow,Ice Crystals"
"-83.36","64.19","CORAL HARBOUR A","2301002","2022-01-19 20:00","2022","01","19","20:00","-28.4","","-31.4","","76","","","","33","","30","","19.3","","99.14","","","","-44","","Ice Crystals"
"-83.36","64.19","CORAL HARBOUR A","2301002","2022-01-19 21:00","2022","01","19","21:00","-29.2","","-32.1","","77","","","","35","","26","","19.3","","99.12","","","","-44","","Ice Crystals"
"-83.36","64.19","CORAL HARBOUR A","2301002","2022-01-19 22:00","2022","01","19","22:00","-29.7","","-33.0","","74","","","","34","","34","","19.3","","99.05","","","","-46","","Ice Crystals"
"-83.36","64.19","CORAL HARBOUR A","2301002","2022-01-19 23:00","2022","01","19","23:00","-30.3","","-33.9","","72","","","","33","","19","","24.1","","99.05","","","","-43","","Ice Crystals"
"-83.36","64.19","CORAL HARBOUR A","2301002","2022-01-20 00:00","2022","01","20","00:00","-28.3","","-31.9","","72","","","","33","","20","","19.3","","99.00","","","","-41","","Ice Crystals"
"-83.36","64.19","CORAL HARBOUR A","2301002","2022-01-20 01:00","2022","01","20","01:00","-26.9","","-29.8","","77","","","","32","","18","","19.3","","98.95","","","","-39","","Ice Crystals"
"-83.36","64.19","CORAL HARBOUR A","2301002","2022-01-20 02:00","2022","01","20","02:00","-27.1","","-30.0","","77","","","","32","","40","","19.3","","98.83","","","","-44","","Ice Crystals"
"-83.36","64.19","CORAL HARBOUR A","2301002","2022-01-20 03:00","2022","01","20","03:00","-27.6","","-30.8","","75","","","","31","","35","","0.0","","98.83","","","","-43","","Ice Crystals"
"-83.36","64.19","CORAL HARBOUR A","2301002","2022-01-20 04:00","2022","01","20","04:00","-26.3","","-29.7","","73","","","","29","","9","","19.3","","98.88","","","","-34","","Ice Crystals"
"-83.36","64.19","CORAL HARBOUR A","2301002","2022-01-20 05:00","2022","01","20","05:00","-25.7","","-28.9","","75","","","","30","","24","","19.3","","98.82","","","","-39","","Ice Crystals"
"-83.36","64.19","CORAL HARBOUR A","2301002","2022-01-20 06:00","2022","01","20","06:00","-25.3","","-28.2","","77","","","","31","","20","","19.3","","98.82","","","","-37","","Ice Crystals"
"-83.36","64.19","CORAL HARBOUR A","2301002","2022-01-20 07:00","2022","01","20","07:00","-25.2","","-28.2","","76","","","","31","","18","","19.3","","98.82","","","","-36","","Ice Crystals"
"-83.36","64.19","CORAL HARBOUR A","2301002","2022-01-20 08:00","2022","01","20","08:00","-25.2","","-28.4","","75","","","","31","","14","","19.3","","98.83","","","","-35","","Snow"
"-83.36","64.19","CORAL HARBOUR A","2301002","2022-01-20 09:00","2022","01","20","09:00","-26.1","","-28.9","","78","","","","32","","11","","19.3","","98.83","","","","-35","","Snow"
"-83.36","64.19","CORAL HARBOUR A","2301002","2022-01-20 10:00","2022","01","20","10:00","-27.1","","-29.8","","78","","","","32","","16","","19.3","","98.85","","","","-38","","Snow"
"-83.36","64.19","CORAL HARBOUR A","2301002","2022-01-20 11:00","2022","01","20","11:00","-27.8","","-30.6","","78","","","","35","","17","","19.3","","98.81","","","","-39","","Snow"
"-83.36","64.19","CORAL HARBOUR A","2301002","2022-01-20 12:00","2022","01","20","12:00","-28.3","","-31.1","","77","","","","34","","14","","19.3","","98.84","","","","-39","","Ice Crystals"
"-83.36","64.19","CORAL HARBOUR A","2301002","2022-01-20 13:00","2022","01","20","13:00","-26.0","","-29.0","","76","","","","6","","4","","24.1","","98.88","","","","-30","","Ice Crystals"
"-83.36","64.19","CORAL HARBOUR A","2301002","2022-01-20 14:00","2022","01","20","14:00","-26.5","","-29.2","","79","","","","3","","4","","24.1","","98.90","","","","-31","","Ice Crystals"
"-83.36","64.19","CORAL HARBOUR A","2301002","2022-01-20 15:00","2022","01","20","15:00","-25.8","","-28.4","","79","","","","32","","8","","24.1","","98.93","","","","-33","","Ice Crystals"
"-83.36","64.19","CORAL HARBOUR A","2301002","2022-01-20 16:00","2022","01","20","16:00","-21.6","","-24.4","","78","","","","2","","11","","24.1","","98.95","","","","-30","","Ice Crystals"
"-83.36","64.19","CORAL HARBOUR A","2301002","2022-01-20 17:00","2022","01","20","17:00","-20.0","","-23.1","","76","","","","30","","12","","24.1","","99.00","","","","-28","","Snow"
"-83.36","64.19","CORAL HARBOUR A","2301002","2022-01-20 18:00","2022","01","20","18:00","-23.4","","-25.6","","83","","","","36","","1","","24.1","","98.97","","","","-24","","Snow"
"-83.36","64.19","CORAL HARBOUR A","2301002","2022-01-20 19:00","2022","01","20","19:00","-23.8","","-25.9","","83","","","","22","","10","","24.1","","98.94","","","","-32","","Snow"
"-83.36","64.19","CORAL HARBOUR A","2301002","2022-01-20 20:00","2022","01","20","20:00","-25.3","","-27.4","","83","","","","12","","6","","24.1","","98.94","","","","-31","","Snow"
"-83.36","64.19","CORAL HARBOUR A","2301002","2022-01-20 21:00","2022","01","20","21:00","-26.4","","-28.9","","80","","","","0","","1","","24.1","","98.90","","","","-27","","Snow"
"-83.36","64.19","CORAL HARBOUR A","2301002","2022-01-20 22:00","2022","01","20","22:00","-25.7","","-28.2","","80","","","","8","","8","","24.1","","98.87","","","","-33","","Snow"
"-83.36","64.19","CORAL HARBOUR A","2301002","2022-01-20 23:00","2022","01","20","23:00","-24.4","","-27.0","","80","","","","5","","7","","24.1","","98.85","","","","-31","","Snow"
"-83.36","64.19","CORAL HARBOUR A","2301002","2022-01-21 00:00","2022","01","21","00:00","-25.1","","-27.4","","81","","","","15","","5","","24.1","","98.81","","","","-30","","Snow"
"-83.36","64.19","CORAL HARBOUR A","2301002","2022-01-21 01:00","2022","01","21","01:00","-24.9","","-27.0","","83","","","","13","","3","","24.1","","98.76","","","","-28","","Snow"
"-83.36","64.19","CORAL HARBOUR A","2301002","2022-01-21 02:00","2022","01","21","02:00","-23.1","","-24.7","","87","","","","29","","4","","24.1","","98.72","","","","-27","","Snow"
"-83.36","64.19","CORAL HARBOUR A","2301002","2022-01-21 03:00","2022","01","21","03:00","-21.8","","-22.6","","94","","","","11","","8","","24.1","","98.66","","","","-28","","Snow"
"-83.36","64.19","CORAL HARBOUR A","2301002","2022-01-21 04:00","2022","01","21","04:00","-22.3","","-23.1","","94","","","","11","","6","","24.1","","98.66","","","","-28","","Snow"
"-83.36","64.19","CORAL HARBOUR A","2301002","2022-01-21 05:00","2022","01","21","05:00","-22.6","","-23.5","","93","","","","9","","17","","24.1","","98.57","","","","-33","","Snow"
"-83.36","64.19","CORAL HARBOUR A","2301002","2022-01-21 06:00","2022","01","21","06:00","-21.9","","-22.6","","94","","","","8","","19","","24.1","","98.45","","","","-33","","Snow"
"-83.36","64.19","CORAL HARBOUR A","2301002","2022-01-21 07:00","2022","01","21","07:00"
"-83.36","64.19","CORAL HARBOUR A","2301002","2022-01-21 08:00","2022","01","21","08:00","-19.9","","-20.1","","98","","","","13","","25","","24.1","","98.27","","","","-31","","Snow"
"-83.36","64.19","CORAL HARBOUR A","2301002","2022-01-21 09:00","2022","01","21","09:00","-19.6","","-19.8","","99","","","","13","","22","","24.1","","98.18","","","","-30","","Snow"
"-83.36","64.19","CORAL HARBOUR A","2301002","2022-01-21 10:00","2022","01","21","10:00","-19.5","","-19.5","","99","","","","13","","25","","8.1","","98.07","","","","-31","","Snow"
"-83.36","64.19","CORAL HARBOUR A","2301002","2022-01-21 11:00","2022","01","21","11:00","-19.4","","-19.4","","100","","","","14","","25","","4.8","","97.97","","","","-31","","Snow"
"-83.36","64.19","CORAL HARBOUR A","2301002","2022-01-21 12:00","2022","01","21","12:00","-20.2","","-20.4","","98","","","","17","","26","","4.8","","97.89","","","","-32","","Snow"
"-83.36","64.19","CORAL HARBOUR A","2301002","2022-01-21 13:00","2022","01","21","13:00","-20.6","","-20.9","","97","","","","15","","23","","3.2","","97.78","","","","-32","","Snow"
"-83.36","64.19","CORAL HARBOUR A","2301002","2022-01-21 14:00","2022","01","21","14:00","-20.6","","-20.9","","97","","","","14","","20","","8.1","","97.65","","","","-31","","Snow"
"-83.36","64.19","CORAL HARBOUR A","2301002","2022-01-21 15:00","2022","01","21","15:00","-20.3","","-20.6","","98","","","","14","","14","","8.1","","97.61","","","","-29","","Snow"
"-83.36","64.19","CORAL HARBOUR A","2301002","2022-01-21 16:00","2022","01","21","16:00","-20.5","","-20.7","","98","","","","12","","13","","8.1","","97.51","","","","-29","","Snow"
"-83.36","64.19","CORAL HARBOUR A","2301002","2022-01-21 17:00","2022","01","21","17:00","-20.5","","-20.7","","98","","","","10","","11","","4.8","","97.43","","","","-28","","Snow"
"-83.36","64.19","CORAL HARBOUR A","2301002","2022-01-21 18:00","2022","01","21","18:00","-20.9","","-21.3","","97","","","","7","","17","","3.2","","97.37","","","","-31","","Snow"
"-83.36","64.19","CORAL HARBOUR A","2301002","2022-01-21 19:00","2022","01","21","19:00","-21.0","","-21.4","","97","","","","6","","18","","1.6","","97.32","","","","-31","","Snow"
"-83.36","64.19","CORAL HARBOUR A","2301002","2022-01-21 20:00","2022","01","21","20:00","-21.2","","-21.7","","96","","","","5","","18","","1.6","","97.23","","","","-31","","Snow"
"-83.36","64.19","CORAL HARBOUR A","2301002","2022-01-21 21:00","2022","01","21","21:00","-21.5","","-22.0","","96","","","","2","","16","","1.6","","97.13","","","","-31","","Snow"
"-83.36","64.19","CORAL HARBOUR A","2301002","2022-01-21 22:00","2022","01","21","22:00","-21.6","","-22.2","","96","","","","1","","17","","1.6","","97.08","","","","-32","","Snow"
"-83.36","64.19","CORAL HARBOUR A","2301002","2022-01-21 23:00","2022","01","21","23:00"
"-83.36","64.19","CORAL HARBOUR A","2301002","2022-01-22 00:00","2022","01","22","00:00"
"-83.36","64.19","CORAL HARBOUR A","2301002","2022-01-22 01:00","2022","01","22","01:00"
"-83.36","64.19","CORAL HARBOUR A","2301002","2022-01-22 02:00","2022","01","22","02:00"
"-83.36","64.19","CORAL HARBOUR A","2301002","2022-01-22 03:00","2022","01","22","03:00"
"-83.36","64.19","CORAL HARBOUR A","2301002","2022-01-22 04:00","2022","01","22","04:00"
"-83.36","64.19","CORAL HARBOUR A","2301002","2022-01-22 05:00","2022","01","22","05:00"
"-83.36","64.19","CORAL HARBOUR A","2301002","2022-01-22 06:00","2022","01","22","06:00"
"-83.36","64.19","CORAL HARBOUR A","2301002","2022-01-22 07:00","2022","01","22","07:00"
"-83.36","64.19","CORAL HARBOUR A","2301002","2022-01-22 08:00","2022","01","22","08:00"
"-83.36","64.19","CORAL HARBOUR A","2301002","2022-01-22 09:00","2022","01","22","09:00"
"-83.36","64.19","CORAL HARBOUR A","2301002","2022-01-22 10:00","2022","01","22","10:00","-19.2","","-19.7","","96","","","","2","","39","","4.8","","97.24","","","","-33","","Snow"
"-83.36","64.19","CORAL HARBOUR A","2301002","2022-01-22 11:00","2022","01","22","11:00","-19.8","","-20.6","","94","","","","2","","40","","1.2","","97.31","","","","-34","","Snow,Blowing Snow"
"-83.36","64.19","CORAL HARBOUR A","2301002","2022-01-22 12:00","2022","01","22","12:00","-20.3","","-21.4","","91","","","","1","","41","","1.2","","97.35","","","","-35","","Snow,Blowing Snow"
"-83.36","64.19","CORAL HARBOUR A","2301002","2022-01-22 13:00","2022","01","22","13:00","-20.3","","-20.6","","98","","","","1","","44","","1.2","","97.42","","","","-35","","Snow,Blowing Snow"
"-83.36","64.19","CORAL HARBOUR A","2301002","2022-01-22 14:00","2022","01","22","14:00","-20.6","","-21.5","","93","","","","1","","45","","1.2","","97.45","","","","-36","","Snow,Blowing Snow"
"-83.36","64.19","CORAL HARBOUR A","2301002","2022-01-22 15:00","2022","01","22","15:00","-21.0","","-22.2","","91","","","","1","","49","","0.8","","97.51","","","","-37","","Snow,Blowing Snow"
"-83.36","64.19","CORAL HARBOUR A","2301002","2022-01-22 16:00","2022","01","22","16:00","-21.2","","-22.3","","91","","","","1","","41","","2.4","","97.58","","","","-36","","Snow,Blowing Snow"
"-83.36","64.19","CORAL HARBOUR A","2301002","2022-01-22 17:00","2022","01","22","17:00","-21.4","","-22.4","","92","","","","36","","45","","0.4","","97.62","","","","-37","","Snow,Blowing Snow"
"-83.36","64.19","CORAL HARBOUR A","2301002","2022-01-22 18:00","2022","01","22","18:00"
"-83.36","64.19","CORAL HARBOUR A","2301002","2022-01-22 19:00","2022","01","22","19:00"
"-83.36","64.19","CORAL HARBOUR A","2301002","2022-01-22 20:00","2022","01","22","20:00"
"-83.36","64.19","CORAL HARBOUR A","2301002","2022-01-22 21:00","2022","01","22","21:00"
"-83.36","64.19","CORAL HARBOUR A","2301002","2022-01-22 22:00","2022","01","22","22:00"
"-83.36","64.19","CORAL HARBOUR A","2301002","2022-01-22 23:00","2022","01","22","23:00"
"-83.36","64.19","CORAL HARBOUR A","2301002","2022-01-23 00:00","2022","01","23","00:00"
"-83.36","64.19","CORAL HARBOUR A","2301002","2022-01-23 01:00","2022","01","23","01:00"
"-83.36","64.19","CORAL HARBOUR A","2301002","2022-01-23 02:00","2022","01","23","02:00"
"-83.36","64.19","CORAL HARBOUR A","2301002","2022-01-23 03:00","2022","01","23","03:00"
"-83.36","64.19","CORAL HARBOUR A","2301002","2022-01-23 04:00","2022","01","23","04:00"
"-83.36","64.19","CORAL HARBOUR A","2301002","2022-01-23 05:00","2022","01","23","05:00"
"-83.36","64.19","CORAL HARBOUR A","2301002","2022-01-23 06:00","2022","01","23","06:00"
"-83.36","64.19","CORAL HARBOUR A","2301002","2022-01-23 07:00","2022","01","23","07:00"
"-83.36","64.19","CORAL HARBOUR A","2301002","2022-01-23 08:00","2022","01","23","08:00"
"-83.36","64.19","CORAL HARBOUR A","2301002","2022-01-23 09:00","2022","01","23","09:00"
"-83.36","64.19","CORAL HARBOUR A","2301002","2022-01-23 10:00","2022","01","23","10:00","-24.9","","-27.2","","81","","","","2","","31","","19.3","","98.12","","","","-39","","Ice Crystals,Blowing Snow"
"-83.36","64.19","CORAL HARBOUR A","2301002","2022-01-23 11:00","2022","01","23","11:00","-24.6","","-27.7","","76","","","","2","","27","","24.1","","98.19","","","","-38","","Ice Crystals,Blowing Snow"
"-83.36","64.19","CORAL HARBOUR A","2301002","2022-01-23 12:00","2022","01","23","12:00","-25.5","","-28.8","","74","","","","3","","29","","24.1","","98.26","","","","-40","","Ice Crystals,Blowing Snow"
"-83.36","64.19","CORAL HARBOUR A","2301002","2022-01-23 13:00","2022","01","23","13:00","-25.2","","-27.5","","82","","","","4","","38","","24.1","","98.30","","","","-41","","Ice Crystals,Blowing Snow"
"-83.36","64.19","CORAL HARBOUR A","2301002","2022-01-23 14:00","2022","01","23","14:00","-25.8","","-28.1","","81","","","","5","","37","","19.3","","98.38","","","","-41","","Ice Crystals,Blowing Snow"
"-83.36","64.19","CORAL HARBOUR A","2301002","2022-01-23 15:00","2022","01","23","15:00","-26.1","","-28.8","","78","","","","4","","30","","19.3","","98.48","","","","-41","","Ice Crystals,Blowing Snow"
"-83.36","64.19","CORAL HARBOUR A","2301002","2022-01-23 16:00","2022","01","23","16:00","-26.4","","-29.0","","79","","","","3","","39","","12.9","","98.54","","","","-43","","Ice Crystals,Blowing Snow"
"-83.36","64.19","CORAL HARBOUR A","2301002","2022-01-23 17:00","2022","01","23","17:00","-25.7","","-28.5","","78","","","","2","","39","","12.9","","98.59","","","","-42","","Ice Crystals,Blowing Snow"
"-83.36","64.19","CORAL HARBOUR A","2301002","2022-01-23 18:00","2022","01","23","18:00","-25.9","","-28.2","","81","","","","3","","37","","12.9","","98.65","","","","-42","","Ice Crystals,Blowing Snow"
"-83.36","64.19","CORAL HARBOUR A","2301002","2022-01-23 19:00","2022","01","23","19:00","-26.6","","-29.3","","79","","","","2","","32","","19.3","","98.72","","","","-42","","Ice Crystals,Blowing Snow"
"-83.36","64.19","CORAL HARBOUR A","2301002","2022-01-23 20:00","2022","01","23","20:00","-27.2","","-29.6","","81","","","","1","","32","","19.3","","98.78","","","","-42","","Ice Crystals,Blowing Snow"
"-83.36","64.19","CORAL HARBOUR A","2301002","2022-01-23 21:00","2022","01","23","21:00","-27.8","","-30.6","","78","","","","36","","34","","19.3","","98.82","","","","-44","","Ice Crystals,Blowing Snow"
"-83.36","64.19","CORAL HARBOUR A","2301002","2022-01-23 22:00","2022","01","23","22:00","-27.4","","-30.2","","78","","","","1","","30","","24.1","","98.84","","","","-42","","Ice Crystals,Blowing Snow"
"-83.36","64.19","CORAL HARBOUR A","2301002","2022-01-23 23:00","2022","01","23","23:00","-27.0","","-30.0","","76","","","","1","","18","","24.1","","98.87","","","","-39","","Ice Crystals"
"-83.36","64.19","CORAL HARBOUR A","2301002","2022-01-24 00:00","2022","01","24","00:00","-28.2","","-31.1","","76","","","","34","","14","","24.1","","98.90","","","","-39","","Ice Crystals"
"-83.36","64.19","CORAL HARBOUR A","2301002","2022-01-24 01:00","2022","01","24","01:00","-25.9","","-29.1","","75","","","","3","","28","","19.3","","98.92","","","","-40","","Ice Crystals,Blowing Snow"
"-83.36","64.19","CORAL HARBOUR A","2301002","2022-01-24 02:00","2022","01","24","02:00","-29.3","","-32.1","","78","","","","36","","18","","24.1","","98.98","","","","-42","","Ice Crystals"
"-83.36","64.19","CORAL HARBOUR A","2301002","2022-01-24 03:00","2022","01","24","03:00","-28.6","","-31.4","","77","","","","36","","31","","24.1","","98.97","","","","-44","","Ice Crystals"
"-83.36","64.19","CORAL HARBOUR A","2301002","2022-01-24 04:00","2022","01","24","04:00","-29.4","","-32.0","","79","","","","33","","23","","24.1","","98.99","","","","-43","","Ice Crystals"
"-83.36","64.19","CORAL HARBOUR A","2301002","2022-01-24 05:00","2022","01","24","05:00","-27.0","","-29.2","","82","","","","3","","29","","24.1","","99.05","","","","-41","","Ice Crystals"
"-83.36","64.19","CORAL HARBOUR A","2301002","2022-01-24 06:00","2022","01","24","06:00","-27.9","","-30.6","","78","","","","3","","28","","24.1","","99.11","","","","-42","","Ice Crystals,Blowing Snow"
"-83.36","64.19","CORAL HARBOUR A","2301002","2022-01-24 07:00","2022","01","24","07:00","-30.1","","-33.1","","76","","","","2","","26","","24.1","","99.19","","","","-45","","Ice Crystals,Blowing Snow"
"-83.36","64.19","CORAL HARBOUR A","2301002","2022-01-24 08:00","2022","01","24","08:00","-30.1","","-33.1","","76","","","","2","","28","","24.1","","99.23","","","","-45","","Ice Crystals,Blowing Snow"
"-83.36","64.19","CORAL HARBOUR A","2301002","2022-01-24 09:00","2022","01","24","09:00","-28.4","","-31.9","","72","","","","3","","28","","24.1","","99.27","","","","-43","","Ice Crystals,Blowing Snow"
"-83.36","64.19","CORAL HARBOUR A","2301002","2022-01-24 10:00","2022","01","24","10:00","-28.2","","-31.4","","75","","","","1","","25","","24.1","","99.34","","","","-42","","Ice Crystals"
"-83.36","64.19","CORAL HARBOUR A","2301002","2022-01-24 11:00","2022","01","24","11:00","-28.0","","-31.6","","72","","","","2","","19","","24.1","","99.35","","","","-40","","Ice Crystals"
"-83.36","64.19","CORAL HARBOUR A","2301002","2022-01-24 12:00","2022","01","24","12:00","-28.0","","-30.9","","77","","","","1","","25","","24.1","","99.37","","","","-42","","Ice Crystals"
"-83.36","64.19","CORAL HARBOUR A","2301002","2022-01-24 13:00","2022","01","24","13:00","-27.6","","-30.5","","77","","","","36","","27","","24.1","","99.39","","","","-42","","Ice Crystals"
"-83.36","64.19","CORAL HARBOUR A","2301002","2022-01-24 14:00","2022","01","24","14:00","-25.5","","-28.1","","79","","","","34","","32","","19.3","","99.37","","","","-40","","Ice Crystals,Blowing Snow"
"-83.36","64.19","CORAL HARBOUR A","2301002","2022-01-24 15:00","2022","01","24","15:00","-23.7","","-25.9","","83","","","","34","","34","","12.9","","99.35","","","","-38","","Ice Crystals,Blowing Snow"
"-83.36","64.19","CORAL HARBOUR A","2301002","2022-01-24 16:00","2022","01","24","16:00","-22.8","","-25.1","","82","","","","32","","25","","19.3","","99.34","","","","-35","","Ice Crystals,Blowing Snow"
"-83.36","64.19","CORAL HARBOUR A","2301002","2022-01-24 17:00","2022","01","24","17:00","-22.1","","-23.5","","89","","","","35","","39","","12.9","","99.28","","","","-37","","Ice Crystals,Blowing Snow"
"-83.36","64.19","CORAL HARBOUR A","2301002","2022-01-24 18:00","2022","01","24","18:00","-21.9","","-22.8","","92","","","","31","","23","","12.9","","99.31","","","","-34","","Ice Crystals,Blowing Snow"
"-83.36","64.19","CORAL HARBOUR A","2301002","2022-01-24 19:00","2022","01","24","19:00","-21.4","","-22.7","","89","","","","33","","29","","19.3","","99.31","","","","-34","","Ice Crystals,Blowing Snow"
"-83.36","64.19","CORAL HARBOUR A","2301002","2022-01-24 20:00","2022","01","24","20:00","-21.6","","-23.0","","89","","","","32","","38","","19.3","","99.19","","","","-36","","Ice Crystals,Blowing Snow"
"-83.36","64.19","CORAL HARBOUR A","2301002","2022-01-24 21:00","2022","01","24","21:00","-22.1","","-23.4","","89","","","","33","","30","","16.1","","99.16","","","","-35","","Ice Crystals,Blowing Snow"
"-83.36","64.19","CORAL HARBOUR A","2301002","2022-01-24 22:00","2022","01","24","22:00","-21.2","","-22.7","","88","","","","35","","36","","16.1","","99.12","","","","-35","","Ice Crystals,Blowing Snow"
"-83.36","64.19","CORAL HARBOUR A","2301002","2022-01-24 23:00","2022","01","24","23:00","-21.6","","-22.6","","91","","","","34","","50","","1.6","","99.01","","","","-38","","Snow,Blowing Snow"
"-83.36","64.19","CORAL HARBOUR A","2301002","2022-01-25 00:00","2022","01","25","00:00","-21.4","","-22.7","","90","","","","35","","37","","1.6","","99.05","","","","-36","","Snow,Blowing Snow"
"-83.36","64.19","CORAL HARBOUR A","2301002","2022-01-25 01:00","2022","01","25","01:00","-22.1","","-23.5","","89","","","","33","","36","","9.7","","99.04","","","","-36","","Snow,Blowing Snow"
"-83.36","64.19","CORAL HARBOUR A","2301002","2022-01-25 02:00","2022","01","25","02:00","-21.9","","-23.5","","87","","","","36","","40","","1.6","","99.06","","","","-37","","Snow,Blowing Snow"
"-83.36","64.19","CORAL HARBOUR A","2301002","2022-01-25 03:00","2022","01","25","03:00","-21.6","","-23.0","","88","","","","35","","52","","1.2","","98.96","","","","-38","","Snow,Blowing Snow"
"-83.36","64.19","CORAL HARBOUR A","2301002","2022-01-25 04:00","2022","01","25","04:00","-21.9","","-23.2","","89","","","","34","","39","","0.8","","99.01","","","","-37","","Snow,Blowing Snow"
"-83.36","64.19","CORAL HARBOUR A","2301002","2022-01-25 05:00","2022","01","25","05:00","-21.8","","-23.0","","90","","","","35","","38","","9.7","","99.02","","","","-36","","Snow,Blowing Snow"
"-83.36","64.19","CORAL HARBOUR A","2301002","2022-01-25 06:00","2022","01","25","06:00","-21.7","","-23.2","","87","","","","35","","34","","12.9","","99.05","","","","-35","","Snow,Blowing Snow"
"-83.36","64.19","CORAL HARBOUR A","2301002","2022-01-25 07:00","2022","01","25","07:00","-20.6","","-22.6","","84","","","","36","","34","","12.9","","99.03","","","","-34","","Snow,Blowing Snow"
"-83.36","64.19","CORAL HARBOUR A","2301002","2022-01-25 08:00","2022","01","25","08:00","-20.5","","-22.4","","85","","","","36","","24","","19.3","","99.02","","","","-32","","Snow,Blowing Snow"
"-83.36","64.19","CORAL HARBOUR A","2301002","2022-01-25 09:00","2022","01","25","09:00","-21.6","","-23.6","","84","","","","35","","21","","24.1","","99.01","","","","-33","","Snow,Blowing Snow"
"-83.36","64.19","CORAL HARBOUR A","2301002","2022-01-25 10:00","2022","01","25","10:00","-22.4","","-24.4","","84","","","","32","","25","","24.1","","99.02","","","","-35","","Mostly Cloudy"
"-83.36","64.19","CORAL HARBOUR A","2301002","2022-01-25 11:00","2022","01","25","11:00","-21.4","","-23.3","","84","","","","35","","28","","19.3","","98.94","","","","-34","","Ice Crystals,Blowing Snow"
"-83.36","64.19","CORAL HARBOUR A","2301002","2022-01-25 12:00","2022","01","25","12:00","-20.8","","-22.2","","89","","","","2","","22","","1.6","","98.94","","","","-32","","Snow,Blowing Snow"
"-83.36","64.19","CORAL HARBOUR A","2301002","2022-01-25 13:00","2022","01","25","13:00","-20.9","","-21.8","","93","","","","35","","15","","1.6","","98.92","","","","-30","","Snow,Blowing Snow"
"-83.36","64.19","CORAL HARBOUR A","2301002","2022-01-25 14:00","2022","01","25","14:00","-20.7","","-21.4","","94","","","","1","","12","","4.8","","98.90","","","","-29","","Snow"
"-83.36","64.19","CORAL HARBOUR A","2301002","2022-01-25 15:00","2022","01","25","15:00","-20.9","","-21.2","","97","","","","13","","12","","4.8","","98.88","","","","-29","","Snow"
"-83.36","64.19","CORAL HARBOUR A","2301002","2022-01-25 16:00","2022","01","25","16:00","-21.8","","-22.2","","96","","","","11","","7","","4.8","","98.87","","","","-28","","Snow"
"-83.36","64.19","CORAL HARBOUR A","2301002","2022-01-25 17:00","2022","01","25","17:00","-23.8","","-24.9","","91","","","","7","","10","","4.8","","98.87","","","","-32","","Snow"
"-83.36","64.19","CORAL HARBOUR A","2301002","2022-01-25 18:00","2022","01","25","18:00","-25.1","","-26.5","","88","","","","7","","16","","9.7","","98.85","","","","-36","","Snow"
"-83.36","64.19","CORAL HARBOUR A","2301002","2022-01-25 19:00","2022","01","25","19:00","-24.5","","-26.1","","87","","","","6","","21","","19.3","","98.84","","","","-36","","Snow"
"-83.36","64.19","CORAL HARBOUR A","2301002","2022-01-25 20:00","2022","01","25","20:00","-23.4","","-24.9","","88","","","","7","","21","","19.3","","98.81","","","","-35","","Snow"
"-83.36","64.19","CORAL HARBOUR A","2301002","2022-01-25 21:00","2022","01","25","21:00","-24.1","","-25.6","","87","","","","6","","26","","16.1","","98.74","","","","-37","","Snow"
"-83.36","64.19","CORAL HARBOUR A","2301002","2022-01-25 22:00","2022","01","25","22:00","-26.1","","-27.7","","87","","","","6","","27","","19.3","","98.71","","","","-40","","Ice Crystals"
"-83.36","64.19","CORAL HARBOUR A","2301002","2022-01-25 23:00","2022","01","25","23:00","-27.1","","-28.8","","86","","","","6","","35","","19.3","","98.68","","","","-43","","Ice Crystals"
"-83.36","64.19","CORAL HARBOUR A","2301002","2022-01-26 00:00","2022","01","26","00:00","-26.8","","-28.4","","86","","","","6","","33","","19.3","","98.66","","","","-42","","Ice Crystals"
"-83.36","64.19","CORAL HARBOUR A","2301002","2022-01-26 01:00","2022","01","26","01:00","-27.8","","-29.5","","85","","","","7","","31","","12.9","","98.70","","","","-43","","Snow"
"-83.36","64.19","CORAL HARBOUR A","2301002","2022-01-26 02:00","2022","01","26","02:00","-27.8","","-29.6","","85","","","","7","","30","","12.9","","98.73","","","","-43","","Snow"
"-83.36","64.19","CORAL HARBOUR A","2301002","2022-01-26 03:00","2022","01","26","03:00","-28.4","","-30.3","","84","","","","7","","31","","16.1","","98.74","","","","-44","","Snow"
"-83.36","64.19","CORAL HARBOUR A","2301002","2022-01-26 04:00","2022","01","26","04:00","-28.4","","-30.3","","84","","","","7","","31","","16.1","","98.76","","","","-44","","Snow"
"-83.36","64.19","CORAL HARBOUR A","2301002","2022-01-26 05:00","2022","01","26","05:00"
"-83.36","64.19","CORAL HARBOUR A","2301002","2022-01-26 06:00","2022","01","26","06:00","-29.9","","-32.1","","82","","","","7","","32","","16.1","","98.83","","","","-46","","Ice Crystals"
"-83.36","64.19","CORAL HARBOUR A","2301002","2022-01-26 07:00","2022","01","26","07:00","-29.8","","-32.0","","82","","","","7","","35","","16.1","","98.88","","","","-46","","Ice Crystals,Blowing Snow"
"-83.36","64.19","CORAL HARBOUR A","2301002","2022-01-26 08:00","2022","01","26","08:00","-29.9","","-32.1","","82","","","","7","","33","","9.7","","98.94","","","","-46","","Ice Crystals,Blowing Snow"
"-83.36","64.19","CORAL HARBOUR A","2301002","2022-01-26 09:00","2022","01","26","09:00","-29.9","","-32.1","","81","","","","7","","35","","9.7","","98.99","","","","-46","","Ice Crystals,Blowing Snow"
"-83.36","64.19","CORAL HARBOUR A","2301002","2022-01-26 10:00","2022","01","26","10:00","-29.7","","-31.9","","81","","","","6","","36","","9.7","","99.05","","","","-46","","Ice Crystals,Blowing Snow"
"-83.36","64.19","CORAL HARBOUR A","2301002","2022-01-26 11:00","2022","01","26","11:00","-29.4","","-31.8","","81","","","","6","","33","","9.7","","99.10","","","","-45","","Ice Crystals,Blowing Snow"
"-83.36","64.19","CORAL HARBOUR A","2301002","2022-01-26 12:00","2022","01","26","12:00","-28.8","","-31.2","","80","","","","6","","36","","9.7","","99.11","","","","-45","","Ice Crystals,Blowing Snow"
"-83.36","64.19","CORAL HARBOUR A","2301002","2022-01-26 13:00","2022","01","26","13:00","-29.1","","-31.9","","77","","","","5","","32","","19.3","","99.17","","","","-45","","Ice Crystals,Blowing Snow"
"-83.36","64.19","CORAL HARBOUR A","2301002","2022-01-26 14:00","2022","01","26","14:00","-28.2","","-30.9","","78","","","","5","","36","","24.1","","99.17","","","","-44","","Ice Crystals,Blowing Snow"
"-83.36","64.19","CORAL HARBOUR A","2301002","2022-01-26 15:00","2022","01","26","15:00","-28.5","","-31.2","","78","","","","4","","39","","19.3","","99.22","","","","-45","","Ice Crystals,Blowing Snow"
"-83.36","64.19","CORAL HARBOUR A","2301002","2022-01-26 16:00","2022","01","26","16:00","-29.2","","-32.0","","77","","","","4","","34","","24.1","","99.31","","","","-45","","Ice Crystals,Blowing Snow"
"-83.36","64.19","CORAL HARBOUR A","2301002","2022-01-26 17:00","2022","01","26","17:00","-31.5","","-34.2","","77","","","","1","","27","","24.1","","99.36","","","","-47","","Ice Crystals,Blowing Snow"
"-83.36","64.19","CORAL HARBOUR A","2301002","2022-01-26 18:00","2022","01","26","18:00","-30.4","","-33.4","","75","","","","2","","30","","24.1","","99.42","","","","-46","","Ice Crystals,Blowing Snow"
"-83.36","64.19","CORAL HARBOUR A","2301002","2022-01-26 19:00","2022","01","26","19:00","-30.6","","-34.0","","73","","","","2","","28","","24.1","","99.43","","","","-46","","Ice Crystals,Blowing Snow"
"-83.36","64.19","CORAL HARBOUR A","2301002","2022-01-26 20:00","2022","01","26","20:00","-30.1","","-33.8","","71","","","","36","","26","","24.1","","99.46","","","","-45","","Ice Crystals"
"-83.36","64.19","CORAL HARBOUR A","2301002","2022-01-26 21:00","2022","01","26","21:00","-29.9","","-32.9","","76","","","","2","","33","","24.1","","99.42","","","","-46","","Ice Crystals"
"-83.36","64.19","CORAL HARBOUR A","2301002","2022-01-26 22:00","2022","01","26","22:00","-29.4","","-33.0","","72","","","","4","","30","","19.3","","99.41","","","","-45","","Ice Crystals"
"-83.36","64.19","CORAL HARBOUR A","2301002","2022-01-26 23:00","2022","01","26","23:00","-30.3","","-33.7","","73","","","","35","","23","","24.1","","99.43","","","","-44","","Ice Crystals"
"-83.36","64.19","CORAL HARBOUR A","2301002","2022-01-27 00:00","2022","01","27","00:00","-31.0","","-33.8","","77","","","","31","","13","","24.1","","99.41","","","","-42","","Ice Crystals"
"-83.36","64.19","CORAL HARBOUR A","2301002","2022-01-27 01:00","2022","01","27","01:00","-29.7","","-32.7","","76","","","","1","","23","","24.1","","99.40","","","","-44","","Ice Crystals"
"-83.36","64.19","CORAL HARBOUR A","2301002","2022-01-27 02:00","2022","01","27","02:00","-27.4","","-30.7","","74","","","","35","","18","","24.1","","99.38","","","","-39","","Ice Crystals"
"-83.36","64.19","CORAL HARBOUR A","2301002","2022-01-27 03:00","2022","01","27","03:00","-28.7","","-31.5","","78","","","","35","","32","","24.1","","99.34","","","","-44","","Ice Crystals"
"-83.36","64.19","CORAL HARBOUR A","2301002","2022-01-27 04:00","2022","01","27","04:00","-26.5","","-29.9","","73","","","","34","","13","","24.1","","99.33","","","","-36","","Ice Crystals"
"-83.36","64.19","CORAL HARBOUR A","2301002","2022-01-27 05:00","2022","01","27","05:00","-29.1","","-31.7","","79","","","","35","","22","","24.1","","99.27","","","","-43","","Ice Crystals"
"-83.36","64.19","CORAL HARBOUR A","2301002","2022-01-27 06:00","2022","01","27","06:00","-29.4","","-32.4","","76","","","","34","","27","","24.1","","99.24","","","","-44","","Ice Crystals"
"-83.36","64.19","CORAL HARBOUR A","2301002","2022-01-27 07:00","2022","01","27","07:00","-29.2","","-32.4","","75","","","","1","","23","","24.1","","99.28","","","","-43","","Ice Crystals"
"-83.36","64.19","CORAL HARBOUR A","2301002","2022-01-27 08:00","2022","01","27","08:00","-27.6","","-31.2","","72","","","","3","","8","","24.1","","99.32","","","","-35","","Ice Crystals"
"-83.36","64.19","CORAL HARBOUR A","2301002","2022-01-27 09:00","2022","01","27","09:00","-28.0","","-31.4","","73","","","","12","","4","","24.1","","99.28","","","","-32","","Ice Crystals"
"-83.36","64.19","CORAL HARBOUR A","2301002","2022-01-27 10:00","2022","01","27","10:00","-27.7","","-31.0","","74","","","","25","","6","","24.1","","99.26","","","","-34","","Ice Crystals"
"-83.36","64.19","CORAL HARBOUR A","2301002","2022-01-27 11:00","2022","01","27","11:00","-26.8","","-30.0","","74","","","","29","","9","","24.1","","99.26","","","","-35","","Ice Crystals"
"-83.36","64.19","CORAL HARBOUR A","2301002","2022-01-27 12:00","2022","01","27","12:00","-29.4","","-32.2","","77","","","","32","","24","","24.1","","99.22","","","","-43","","Ice Crystals"
"-83.36","64.19","CORAL HARBOUR A","2301002","2022-01-27 13:00","2022","01","27","13:00","-28.8","","-31.9","","75","","","","33","","21","","24.1","","99.18","","","","-42","","Ice Crystals"
"-83.36","64.19","CORAL HARBOUR A","2301002","2022-01-27 14:00","2022","01","27","14:00","-27.2","","-30.1","","77","","","","34","","31","","24.1","","99.14","","","","-42","","Ice Crystals"
"-83.36","64.19","CORAL HARBOUR A","2301002","2022-01-27 15:00","2022","01","27","15:00","-26.2","","-29.2","","77","","","","35","","25","","24.1","","99.12","","","","-40","","Ice Crystals"
"-83.36","64.19","CORAL HARBOUR A","2301002","2022-01-27 16:00","2022","01","27","16:00","-28.5","","-31.3","","77","","","","36","","23","","24.1","","99.16","","","","-42","","Ice Crystals"
"-83.36","64.19","CORAL HARBOUR A","2301002","2022-01-27 17:00","2022","01","27","17:00","-27.3","","-30.1","","78","","","","29","","10","","24.1","","99.21","","","","-36","","Ice Crystals"
"-83.36","64.19","CORAL HARBOUR A","2301002","2022-01-27 18:00","2022","01","27","18:00","-28.9","","-31.5","","78","","","","36","","25","","24.1","","99.25","","","","-43","","Ice Crystals"
"-83.36","64.19","CORAL HARBOUR A","2301002","2022-01-27 19:00","2022","01","27","19:00","-26.1","","-28.6","","80","","","","36","","39","","24.1","","99.25","","","","-42","","Ice Crystals,Blowing Snow"
"-83.36","64.19","CORAL HARBOUR A","2301002","2022-01-27 20:00","2022","01","27","20:00","-29.2","","-32.1","","77","","","","36","","35","","24.1","","99.34","","","","-46","","Ice Crystals,Blowing Snow"
"-83.36","64.19","CORAL HARBOUR A","2301002","2022-01-27 21:00","2022","01","27","21:00","-28.3","","-31.2","","77","","","","1","","27","","24.1","","99.42","","","","-43","","Ice Crystals,Blowing Snow"
"-83.36","64.19","CORAL HARBOUR A","2301002","2022-01-27 22:00","2022","01","27","22:00","-26.6","","-29.7","","75","","","","4","","26","","24.1","","99.44","","","","-40","","Ice Crystals,Blowing Snow"
"-83.36","64.19","CORAL HARBOUR A","2301002","2022-01-27 23:00","2022","01","27","23:00","-28.2","","-31.1","","77","","","","3","","12","","24.1","","99.50","","","","-38","","Ice Crystals"
"-83.36","64.19","CORAL HARBOUR A","2301002","2022-01-28 00:00","2022","01","28","00:00","-28.8","","-32.4","","72","","","","31","","12","","24.1","","99.53","","","","-39","","Ice Crystals"
"-83.36","64.19","CORAL HARBOUR A","2301002","2022-01-28 01:00","2022","01","28","01:00","-29.0","","-32.4","","73","","","","36","","16","","24.1","","99.52","","","","-41","","Ice Crystals"
"-83.36","64.19","CORAL HARBOUR A","2301002","2022-01-28 02:00","2022","01","28","02:00","-30.5","","-33.8","","74","","","","34","","29","","24.1","","99.50","","","","-46","","Ice Crystals"
"-83.36","64.19","CORAL HARBOUR A","2301002","2022-01-28 03:00","2022","01","28","03:00","-31.6","","-34.8","","74","","","","35","","19","","24.1","","99.55","","","","-45","","Ice Crystals"
"-83.36","64.19","CORAL HARBOUR A","2301002","2022-01-28 04:00","2022","01","28","04:00","-31.8","","-35.1","","74","","","","33","","26","","24.1","","99.54","","","","-47","","Ice Crystals"
"-83.36","64.19","CORAL HARBOUR A","2301002","2022-01-28 05:00","2022","01","28","05:00","-30.3","","-33.6","","74","","","","33","","20","","24.1","","99.56","","","","-43","","Ice Crystals"
"-83.36","64.19","CORAL HARBOUR A","2301002","2022-01-28 06:00","2022","01","28","06:00","-32.3","","-35.4","","75","","","","31","","5","","24.1","","99.52","","","","-38","","Ice Crystals"
"-83.36","64.19","CORAL HARBOUR A","2301002","2022-01-28 07:00","2022","01","28","07:00","-28.7","","-31.8","","76","","","","1","","20","","24.1","","99.51","","","","-41","","Ice Crystals"
"-83.36","64.19","CORAL HARBOUR A","2301002","2022-01-28 08:00","2022","01","28","08:00","-31.8","","-33.8","","82","","","","31","","9","","24.1","","99.53","","","","-41","","Ice Crystals"
"-83.36","64.19","CORAL HARBOUR A","2301002","2022-01-28 09:00","2022","01","28","09:00","-30.3","","-32.5","","81","","","","16","","4","","24.1","","99.53","","","","-35","","Ice Crystals"
"-83.36","64.19","CORAL HARBOUR A","2301002","2022-01-28 10:00","2022","01","28","10:00","-30.7","","-32.9","","81","","","","31","","14","","24.1","","99.51","","","","-42","","Ice Crystals"
"-83.36","64.19","CORAL HARBOUR A","2301002","2022-01-28 11:00","2022","01","28","11:00","-30.7","","-33.4","","78","","","","31","","19","","24.1","","99.49","","","","-44","","Ice Crystals"
"-83.36","64.19","CORAL HARBOUR A","2301002","2022-01-28 12:00","2022","01","28","12:00","-28.2","","-31.4","","75","","","","32","","26","","24.1","","99.48","","","","-42","","Ice Crystals"
"-83.36","64.19","CORAL HARBOUR A","2301002","2022-01-28 13:00","2022","01","28","13:00","-26.5","","-30.4","","71","","","","36","","32","","24.1","","99.42","","","","-41","","Ice Crystals"
"-83.36","64.19","CORAL HARBOUR A","2301002","2022-01-28 14:00","2022","01","28","14:00","-28.1","","-31.8","","72","","","","32","","22","","24.1","","99.40","","","","-41","","Ice Crystals"
"-83.36","64.19","CORAL HARBOUR A","2301002","2022-01-28 15:00","2022","01","28","15:00","-28.9","","-32.5","","72","","","","33","","20","","24.1","","99.38","","","","-42","","Ice Crystals"
"-83.36","64.19","CORAL HARBOUR A","2301002","2022-01-28 16:00","2022","01","28","16:00","-27.2","","-30.8","","72","","","","32","","25","","24.1","","99.35","","","","-41","","Ice Crystals"
"-83.36","64.19","CORAL HARBOUR A","2301002","2022-01-28 17:00","2022","01","28","17:00","-27.9","","-31.6","","71","","","","34","","8","","24.1","","99.36","","","","-36","","Ice Crystals"
"-83.36","64.19","CORAL HARBOUR A","2301002","2022-01-28 18:00","2022","01","28","18:00","-27.1","","-30.4","","74","","","","33","","28","","24.1","","99.33","","","","-41","","Ice Crystals"
"-83.36","64.19","CORAL HARBOUR A","2301002","2022-01-28 19:00","2022","01","28","19:00","-28.7","","-32.2","","73","","","","32","","29","","24.1","","99.31","","","","-44","","Ice Crystals"
"-83.36","64.19","CORAL HARBOUR A","2301002","2022-01-28 20:00","2022","01","28","20:00","-30.6","","-33.7","","75","","","","32","","21","","24.1","","99.29","","","","-44","","Ice Crystals"
"-83.36","64.19","CORAL HARBOUR A","2301002","2022-01-28 21:00","2022","01","28","21:00","-30.1","","-33.4","","74","","","","32","","37","","24.1","","99.20","","","","-47","","Ice Crystals"
"-83.36","64.19","CORAL HARBOUR A","2301002","2022-01-28 22:00","2022","01","28","22:00","-30.9","","-34.3","","72","","","","32","","30","","24.1","","99.20","","","","-47","","Ice Crystals"
"-83.36","64.19","CORAL HARBOUR A","2301002","2022-01-28 23:00","2022","01","28","23:00","-33.0","","-36.3","","73","","","","33","","22","","24.1","","99.17","","","","-47","","Ice Crystals"
"-83.36","64.19","CORAL HARBOUR A","2301002","2022-01-29 00:00","2022","01","29","00:00","-32.1","","-35.4","","73","","","","33","","13","","24.1","","99.18","","","","-43","","Ice Crystals"
"-83.36","64.19","CORAL HARBOUR A","2301002","2022-01-29 01:00","2022","01","29","01:00","-33.2","","-36.6","","72","","","","34","","16","","24.1","","99.17","","","","-46","","Ice Crystals"
"-83.36","64.19","CORAL HARBOUR A","2301002","2022-01-29 02:00","2022","01","29","02:00","-31.9","","-35.3","","72","","","","33","","39","","24.1","","99.09","","","","-50","","Ice Crystals"
"-83.36","64.19","CORAL HARBOUR A","2301002","2022-01-29 03:00","2022","01","29","03:00","-31.8","","-35.6","","70","","","","31","","14","","24.1","","99.17","","","","-43","","Ice Crystals"
"-83.36","64.19","CORAL HARBOUR A","2301002","2022-01-29 04:00","2022","01","29","04:00","-32.2","","-35.8","","72","","","","33","","43","","24.1","","99.13","","","","-51","","Ice Crystals"
"-83.36","64.19","CORAL HARBOUR A","2301002","2022-01-29 05:00","2022","01","29","05:00","-33.0","","-36.5","","72","","","","32","","29","","24.1","","99.18","","","","-49","","Ice Crystals"
"-83.36","64.19","CORAL HARBOUR A","2301002","2022-01-29 06:00","2022","01","29","06:00","-32.5","","-35.8","","73","","","","35","","32","","24.1","","99.18","","","","-49","","Ice Crystals"
"-83.36","64.19","CORAL HARBOUR A","2301002","2022-01-29 07:00","2022","01","29","07:00","-32.4","","-35.7","","73","","","","36","","27","","24.1","","99.23","","","","-48","","Ice Crystals"
"-83.36","64.19","CORAL HARBOUR A","2301002","2022-01-29 08:00","2022","01","29","08:00","-32.8","","-36.4","","71","","","","36","","24","","24.1","","99.27","","","","-48","","Ice Crystals"
"-83.36","64.19","CORAL HARBOUR A","2301002","2022-01-29 09:00","2022","01","29","09:00","-34.3","","-37.6","","72","","","","34","","20","","24.1","","99.30","","","","-49","","Ice Crystals"
"-83.36","64.19","CORAL HARBOUR A","2301002","2022-01-29 10:00","2022","01","29","10:00","-33.5","","-37.0","","72","","","","35","","24","","24.1","","99.38","","","","-49","","Ice Crystals"
"-83.36","64.19","CORAL HARBOUR A","2301002","2022-01-29 11:00","2022","01","29","11:00","-30.4","","-34.0","","71","","","","35","","30","","24.1","","99.38","","","","-46","","Ice Crystals"
"-83.36","64.19","CORAL HARBOUR A","2301002","2022-01-29 12:00","2022","01","29","12:00","-29.5","","-33.3","","71","","","","34","","44","","24.1","","99.35","","","","-47","","Ice Crystals,Blowing Snow"
"-83.36","64.19","CORAL HARBOUR A","2301002","2022-01-29 13:00","2022","01","29","13:00","-30.1","","-34.0","","70","","","","34","","23","","24.1","","99.49","","","","-44","","Ice Crystals"
"-83.36","64.19","CORAL HARBOUR A","2301002","2022-01-29 14:00","2022","01","29","14:00","-29.7","","-33.5","","70","","","","36","","28","","24.1","","99.49","","","","-45","","Ice Crystals"
"-83.36","64.19","CORAL HARBOUR A","2301002","2022-01-29 15:00","2022","01","29","15:00","-29.4","","-33.0","","72","","","","35","","29","","24.1","","99.53","","","","-45","","Ice Crystals"
"-83.36","64.19","CORAL HARBOUR A","2301002","2022-01-29 16:00","2022","01","29","16:00","-29.6","","-33.3","","71","","","","34","","23","","24.1","","99.65","","","","-43","","Ice Crystals"
"-83.36","64.19","CORAL HARBOUR A","2301002","2022-01-29 17:00","2022","01","29","17:00","-29.5","","-33.1","","71","","","","32","","23","","24.1","","99.72","","","","-43","","Ice Crystals"
"-83.36","64.19","CORAL HARBOUR A","2301002","2022-01-29 18:00","2022","01","29","18:00","-29.9","","-33.5","","71","","","","1","","19","","24.1","","99.76","","","","-43","","Ice Crystals"
"-83.36","64.19","CORAL HARBOUR A","2301002","2022-01-29 19:00","2022","01","29","19:00","-31.1","","-34.7","","71","","","","34","","25","","24.1","","99.75","","","","-46","","Ice Crystals"
"-83.36","64.19","CORAL HARBOUR A","2301002","2022-01-29 20:00","2022","01","29","20:00","-33.4","","-36.7","","73","","","","31","","15","","24.1","","99.81","","","","-46","","Ice Crystals"
"-83.36","64.19","CORAL HARBOUR A","2301002","2022-01-29 21:00","2022","01","29","21:00","-33.3","","-36.6","","73","","","","32","","14","","24.1","","99.91","","","","-45","","Ice Crystals"
"-83.36","64.19","CORAL HARBOUR A","2301002","2022-01-29 22:00","2022","01","29","22:00","-33.8","","-37.2","","73","","","","31","","17","","24.1","","99.90","","","","-47","","Ice Crystals"
"-83.36","64.19","CORAL HARBOUR A","2301002","2022-01-29 23:00","2022","01","29","23:00","-33.4","","-36.5","","74","","","","35","","17","","24.1","","99.91","","","","-46","","Ice Crystals"
"-83.36","64.19","CORAL HARBOUR A","2301002","2022-01-30 00:00","2022","01","30","00:00","-33.1","","-36.3","","74","","","","1","","14","","24.1","","99.97","","","","-45","","Ice Crystals"
"-83.36","64.19","CORAL HARBOUR A","2301002","2022-01-30 01:00","2022","01","30","01:00","-34.2","","-37.5","","73","","","","33","","22","","24.1","","99.94","","","","-49","","Ice Crystals"
"-83.36","64.19","CORAL HARBOUR A","2301002","2022-01-30 02:00","2022","01","30","02:00","-33.6","","-37.0","","72","","","","33","","25","","24.1","","100.00","","","","-49","","Ice Crystals"
"-83.36","64.19","CORAL HARBOUR A","2301002","2022-01-30 03:00","2022","01","30","03:00","-32.7","","-36.1","","72","","","","35","","23","","24.1","","100.01","","","","-47","","Ice Crystals"
"-83.36","64.19","CORAL HARBOUR A","2301002","2022-01-30 04:00","2022","01","30","04:00","-34.0","","-37.5","","71","","","","34","","27","","24.1","","100.02","","","","-50","","Ice Crystals"
"-83.36","64.19","CORAL HARBOUR A","2301002","2022-01-30 05:00","2022","01","30","05:00","-34.8","","-38.0","","73","","","","34","","21","","24.1","","100.07","","","","-49","","Ice Crystals"
"-83.36","64.19","CORAL HARBOUR A","2301002","2022-01-30 06:00","2022","01","30","06:00","-34.7","","-38.1","","72","","","","36","","26","","24.1","","100.09","","","","-51","","Ice Crystals"
"-83.36","64.19","CORAL HARBOUR A","2301002","2022-01-30 07:00","2022","01","30","07:00","-35.0","","-38.5","","71","","","","36","","20","","24.1","","100.13","","","","-49","","Ice Crystals"
"-83.36","64.19","CORAL HARBOUR A","2301002","2022-01-30 08:00","2022","01","30","08:00","-36.2","","-39.6","","72","","","","1","","15","","24.1","","100.18","","","","-49","","Ice Crystals"
"-83.36","64.19","CORAL HARBOUR A","2301002","2022-01-30 09:00","2022","01","30","09:00","-33.6","","-36.2","","78","","","","2","","13","","24.1","","100.21","","","","-45","","Ice Crystals"
"-83.36","64.19","CORAL HARBOUR A","2301002","2022-01-30 10:00","2022","01","30","10:00","-35.9","","-38.8","","75","","","","1","","11","","24.1","","100.22","","","","-47","","Ice Crystals"
"-83.36","64.19","CORAL HARBOUR A","2301002","2022-01-30 11:00","2022","01","30","11:00","-35.6","","-38.9","","72","","","","1","","16","","24.1","","100.24","","","","-49","","Ice Crystals"
"-83.36","64.19","CORAL HARBOUR A","2301002","2022-01-30 12:00","2022","01","30","12:00","-34.6","","-37.8","","74","","","","2","","12","","24.1","","100.21","","","","-46","","Ice Crystals"
"-83.36","64.19","CORAL HARBOUR A","2301002","2022-01-30 13:00","2022","01","30","13:00","-35.0","","-38.4","","72","","","","36","","12","","24.1","","100.23","","","","-46","","Ice Crystals"
"-83.36","64.19","CORAL HARBOUR A","2301002","2022-01-30 14:00","2022","01","30","14:00","-34.5","","-38.0","","71","","","","36","","19","","24.1","","100.21","","","","-48","","Ice Crystals"
"-83.36","64.19","CORAL HARBOUR A","2301002","2022-01-30 15:00","2022","01","30","15:00","-34.1","","-37.2","","74","","","","36","","14","","24.1","","100.20","","","","-46","","Ice Crystals"
"-83.36","64.19","CORAL HARBOUR A","2301002","2022-01-30 16:00","2022","01","30","16:00","-35.6","","-39.0","","72","","","","34","","21","","24.1","","100.23","","","","-50","","Ice Crystals"
"-83.36","64.19","CORAL HARBOUR A","2301002","2022-01-30 17:00","2022","01","30","17:00","-36.6","","-39.7","","74","","","","33","","18","","24.1","","100.25","","","","-51","","Ice Crystals"
"-83.36","64.19","CORAL HARBOUR A","2301002","2022-01-30 18:00","2022","01","30","18:00","-36.4","","-39.4","","74","","","","34","","18","","24.1","","100.24","","","","-50","","Ice Crystals"
"-83.36","64.19","CORAL HARBOUR A","2301002","2022-01-30 19:00","2022","01","30","19:00","-37.5","","-40.5","","74","","","","33","","16","","24.1","","100.28","","","","-51","","Ice Crystals"
"-83.36","64.19","CORAL HARBOUR A","2301002","2022-01-30 20:00","2022","01","30","20:00","-37.1","","-40.0","","75","","","","33","","18","","24.1","","100.25","","","","-51","","Ice Crystals"
"-83.36","64.19","CORAL HARBOUR A","2301002","2022-01-30 21:00","2022","01","30","21:00","-37.2","","-40.3","","74","","","","34","","21","","24.1","","100.17","","","","-53","","Ice Crystals"
"-83.36","64.19","CORAL HARBOUR A","2301002","2022-01-30 22:00","2022","01","30","22:00","-37.0","","-40.0","","75","","","","36","","24","","24.1","","100.10","","","","-53","","Ice Crystals"
"-83.36","64.19","CORAL HARBOUR A","2301002","2022-01-30 23:00","2022","01","30","23:00","-38.0","","-41.3","","72","","","","34","","23","","24.1","","100.09","","","","-54","","Ice Crystals"
"-83.36","64.19","CORAL HARBOUR A","2301002","2022-01-31 00:00","2022","01","31","00:00","-37.4","","-40.5","","74","","","","35","","19","","24.1","","100.06","","","","-52","","Ice Crystals"
"-83.36","64.19","CORAL HARBOUR A","2301002","2022-01-31 01:00","2022","01","31","01:00","-37.2","","-40.2","","74","","","","35","","22","","24.1","","100.03","","","","-53","","Ice Crystals"
"-83.36","64.19","CORAL HARBOUR A","2301002","2022-01-31 02:00","2022","01","31","02:00","-38.0","","-41.2","","72","","","","34","","22","","24.1","","100.01","","","","-54","","Ice Crystals"
"-83.36","64.19","CORAL HARBOUR A","2301002","2022-01-31 03:00","2022","01","31","03:00","-37.1","","-40.2","","74","","","","34","","22","","24.1","","100.00","","","","-53","","Ice Crystals"
"-83.36","64.19","CORAL HARBOUR A","2301002","2022-01-31 04:00","2022","01","31","04:00","-37.3","","-40.5","","73","","","","34","","22","","24.1","","100.00","","","","-53","","Ice Crystals"
"-83.36","64.19","CORAL HARBOUR A","2301002","2022-01-31 05:00","2022","01","31","05:00","-38.3","","-41.6","","72","","","","32","","14","","24.1","","99.99","","","","-51","","Ice Crystals"
"-83.36","64.19","CORAL HARBOUR A","2301002","2022-01-31 06:00","2022","01","31","06:00","-38.6","","-42.0","","71","","","","34","","16","","24.1","","99.98","","","","-52","","Ice Crystals"
"-83.36","64.19","CORAL HARBOUR A","2301002","2022-01-31 07:00","2022","01","31","07:00","-36.4","","-39.6","","73","","","","34","","16","","24.1","","99.98","","","","-50","","Ice Crystals"
"-83.36","64.19","CORAL HARBOUR A","2301002","2022-01-31 08:00","2022","01","31","08:00","-35.8","","-39.0","","73","","","","34","","14","","16.1","","99.98","","","","-48","","Snow"
"-83.36","64.19","CORAL HARBOUR A","2301002","2022-01-31 09:00","2022","01","31","09:00","-35.7","","-38.8","","74","","","","33","","9","","19.3","","99.95","","","","-45","","Snow"
"-83.36","64.19","CORAL HARBOUR A","2301002","2022-01-31 10:00","2022","01","31","10:00","-37.0","","-40.3","","72","","","","34","","8","","19.3","","99.97","","","","-46","","Ice Crystals"
"-83.36","64.19","CORAL HARBOUR A","2301002","2022-01-31 11:00","2022","01","31","11:00","-35.4","","-38.5","","74","","","","34","","10","","19.3","","99.99","","","","-46","","Ice Crystals"
"-83.36","64.19","CORAL HARBOUR A","2301002","2022-01-31 12:00","2022","01","31","12:00","-34.2","","-37.2","","75","","","","33","","7","","3.2","","99.99","","","","-42","","Snow"
"-83.36","64.19","CORAL HARBOUR A","2301002","2022-01-31 13:00","2022","01","31","13:00","-33.9","","-36.8","","76","","","","12","","4","","9.7","","100.03","","","","-39","","Snow"
"-83.36","64.19","CORAL HARBOUR A","2301002","2022-01-31 14:00","2022","01","31","14:00","-31.0","","-33.6","","78","","","","34","","9","","9.7","","100.04","","","","-40","","Snow"
"-83.36","64.19","CORAL HARBOUR A","2301002","2022-01-31 15:00","2022","01","31","15:00","-30.4","","-33.0","","79","","","","35","","8","","9.7","","100.05","","","","-38","","Snow"
"-83.36","64.19","CORAL HARBOUR A","2301002","2022-01-31 16:00","2022","01","31","16:00","-31.8","","-34.3","","79","","","","13","","4","","9.7","","100.09","","","","-36","","Snow"
"-83.36","64.19","CORAL HARBOUR A","2301002","2022-01-31 17:00","2022","01","31","17:00","-31.8","","-34.4","","78","","","","3","","3","","16.1","","100.12","","","","-35","","Snow"
"-83.36","64.19","CORAL HARBOUR A","2301002","2022-01-31 18:00","2022","01","31","18:00","-30.5","","-32.9","","80","","","","11","","3","","16.1","","100.15","","","","-34","","Snow"
"-83.36","64.19","CORAL HARBOUR A","2301002","2022-01-31 19:00","2022","01","31","19:00","-30.7","","-33.1","","80","","","","8","","5","","16.1","","100.18","","","","-36","","Snow"
"-83.36","64.19","CORAL HARBOUR A","2301002","2022-01-31 20:00","2022","01","31","20:00","-30.3","","-32.5","","81","","","","10","","10","","12.9","","100.24","","","","-40","","Snow"
"-83.36","64.19","CORAL HARBOUR A","2301002","2022-01-31 21:00","2022","01","31","21:00","-28.9","","-31.0","","82","","","","9","","11","","9.7","","100.24","","","","-38","","Snow"
"-83.36","64.19","CORAL HARBOUR A","2301002","2022-01-31 22:00","2022","01","31","22:00","-27.5","","-29.4","","84","","","","9","","10","","9.7","","100.26","","","","-36","","Snow"
"-83.36","64.19","CORAL HARBOUR A","2301002","2022-01-31 23:00","2022","01","31","23:00","-27.9","","-29.8","","84","","","","7","","14","","4.8","","100.28","","","","-38","","Snow"
