"Longitude (x)","Latitude (y)","Station Name","Climate ID","Date/Time (LST)","Year","Month","Day","Time (LST)","Temp (°C)","Temp Flag","Dew Point Temp (°C)","Dew Point Temp Flag","Rel Hum (%)","Rel Hum Flag","Precip. Amount (mm)","Precip. Amount Flag","Wind Dir (10s deg)","Wind Dir Flag","Wind Spd (km/h)","Wind Spd Flag","Visibility (km)","Visibility Flag","Stn Press (kPa)","Stn Press Flag","Hmdx","Hmdx Flag","Wind Chill","Wind Chill Flag","Weather"
"-85.05","73.01","ARCTIC BAY","2400399","2022-12-01 00:00","2022","12","01","00:00","-29.0","","-35.2","","56","","","M","12","","21","","","M","101.87","","","","-42","","NA"
"-85.05","73.01","ARCTIC BAY","2400399","2022-12-01 01:00","2022","12","01","01:00","-29.4","","-36.0","","54","","","M","13","","17","","","M","101.90","","","","-41","","NA"
"-85.05","73.01","ARCTIC BAY","2400399","2022-12-01 02:00","2022","12","01","02:00","-28.8","","-35.4","","54","","","M","13","","18","","","M","101.90","","","","-41","","NA"
"-85.05","73.01","ARCTIC BAY","2400399","2022-12-01 03:00","2022","12","01","03:00","-28.5","","-34.7","","56","","","M","12","","28","","","M","101.98","","","","-43","","NA"
"-85.05","73.01","ARCTIC BAY","2400399","2022-12-01 04:00","2022","12","01","04:00","-28.4","","-34.8","","55","","","M","12","","32","","","M","102.04","","","","-44","","NA"
"-85.05","73.01","ARCTIC BAY","2400399","2022-12-01 05:00","2022","12","01","05:00","-28.3","","-34.7","","55","","","M","12","","28","","","M","102.07","","","","-43","","NA"
"-85.05","73.01","ARCTIC BAY","2400399","2022-12-01 06:00","2022","12","01","06:00","-28.7","","-34.9","","56","","","M","13","","26","","","M","102.10","","","","-43","","NA"
"-85.05","73.01","ARCTIC BAY","2400399","2022-12-01 07:00","2022","12","01","07:00","-29.0","","-35.4","","55","","","M","12","","22","","","M","102.15","","","","-42","","NA"
"-85.05","73.01","ARCTIC BAY","2400399","2022-12-01 08:00","2022","12","01","08:00","-29.4","","-34.8","","61","","","M","6","","32","","","M","102.17","","","","-45","","NA"
"-85.05","73.01","ARCTIC BAY","2400399","2022-12-01 09:00","2022","12","01","09:00","-28.9","","-34.6","","59","","","M","6","","28","","","M","102.18","","","","-44","","NA"
"-85.05","73.01","ARCTIC BAY","2400399","2022-12-01 10:00","2022","12","01","10:00","-28.7","","-34.7","","58","","","M","7","","24","","","M","102.22","","","","-43","","NA"
"-85.05","73.01","ARCTIC BAY","2400399","2022-12-01 11:00","2022","12","01","11:00","-28.9","","-35.0","","57","","","M","6","","17","","","M","102.25","","","","-41","","NA"
"-85.05","73.01","ARCTIC BAY","2400399","2022-12-01 12:00","2022","12","01","12:00","-30.3","","-35.5","","62","","","M","31","","15","","","M","102.26","","","","-42","","NA"
"-85.05","73.01","ARCTIC BAY","2400399","2022-12-01 13:00","2022","12","01","13:00","-27.9","","-34.0","","57","","","M","10","","5","","","M","102.32","","","","-33","","NA"
"-85.05","73.01","ARCTIC BAY","2400399","2022-12-01 14:00","2022","12","01","14:00","-28.2","","-33.9","","59","","","M","","M","5","","","M","102.32","","","","-34","","NA"
"-85.05","73.01","ARCTIC BAY","2400399","2022-12-01 15:00","2022","12","01","15:00","-26.1","","-31.6","","61","","","M","8","","24","","","M","102.31","","","","-39","","NA"
"-85.05","73.01","ARCTIC BAY","2400399","2022-12-01 16:00","2022","12","01","16:00","-25.4","","-30.8","","61","","","M","6","","28","","","M","102.30","","","","-39","","NA"
"-85.05","73.01","ARCTIC BAY","2400399","2022-12-01 17:00","2022","12","01","17:00","-24.0","","-30.5","","56","","","M","8","","13","","","M","102.29","","","","-33","","NA"
"-85.05","73.01","ARCTIC BAY","2400399","2022-12-01 18:00","2022","12","01","18:00","-24.0","","-30.1","","58","","","M","5","","15","","","M","102.30","","","","-34","","NA"
"-85.05","73.01","ARCTIC BAY","2400399","2022-12-01 19:00","2022","12","01","19:00","-23.5","","-29.9","","56","","","M","13","","11","","","M","102.30","","","","-32","","NA"
"-85.05","73.01","ARCTIC BAY","2400399","2022-12-01 20:00","2022","12","01","20:00","-23.6","","-29.0","","62","","","M","7","","22","","","M","102.28","","","","-36","","NA"
"-85.05","73.01","ARCTIC BAY","2400399","2022-12-01 21:00","2022","12","01","21:00","-23.5","","-29.1","","61","","","M","6","","30","","","M","102.25","","","","-37","","NA"
"-85.05","73.01","ARCTIC BAY","2400399","2022-12-01 22:00","2022","12","01","22:00","-23.5","","-29.1","","61","","","M","13","","11","","","M","102.18","","","","-32","","NA"
"-85.05","73.01","ARCTIC BAY","2400399","2022-12-01 23:00","2022","12","01","23:00","-24.9","","-29.6","","66","","","M","","","0","","","M","102.14","","","","","","NA"
"-85.05","73.01","ARCTIC BAY","2400399","2022-12-02 00:00","2022","12","02","00:00","-24.5","","-29.3","","65","","","M","31","","8","","","M","102.07","","","","-32","","NA"
"-85.05","73.01","ARCTIC BAY","2400399","2022-12-02 01:00","2022","12","02","01:00","-23.6","","-28.5","","65","","","M","27","","9","","","M","101.98","","","","-31","","NA"
"-85.05","73.01","ARCTIC BAY","2400399","2022-12-02 02:00","2022","12","02","02:00","-23.0","","-28.4","","62","","","M","29","","5","","","M","101.89","","","","-28","","NA"
"-85.05","73.01","ARCTIC BAY","2400399","2022-12-02 03:00","2022","12","02","03:00","-22.8","","-27.9","","64","","","M","34","","5","","","M","101.82","","","","-27","","NA"
"-85.05","73.01","ARCTIC BAY","2400399","2022-12-02 04:00","2022","12","02","04:00","-22.2","","-27.9","","61","","","M","","M","8","","","M","101.74","","","","-29","","NA"
"-85.05","73.01","ARCTIC BAY","2400399","2022-12-02 05:00","2022","12","02","05:00","-22.0","","-27.3","","63","","","M","31","","5","","","M","101.61","","","","-27","","NA"
"-85.05","73.01","ARCTIC BAY","2400399","2022-12-02 06:00","2022","12","02","06:00","-20.2","","-26.5","","58","","","M","","","0","","","M","101.49","","","","","","NA"
"-85.05","73.01","ARCTIC BAY","2400399","2022-12-02 07:00","2022","12","02","07:00","-21.0","","-26.3","","63","","","M","","M","4","","","M","101.39","","","","-25","","NA"
"-85.05","73.01","ARCTIC BAY","2400399","2022-12-02 08:00","2022","12","02","08:00","-19.7","","-26.0","","58","","","M","","","0","","","M","101.27","","","","","","NA"
"-85.05","73.01","ARCTIC BAY","2400399","2022-12-02 09:00","2022","12","02","09:00","-20.8","","-25.9","","64","","","M","34","","13","","","M","101.14","","","","-29","","NA"
"-85.05","73.01","ARCTIC BAY","2400399","2022-12-02 10:00","2022","12","02","10:00","-19.2","","-26.2","","55","","","M","29","","5","","","M","100.93","","","","-23","","NA"
"-85.05","73.01","ARCTIC BAY","2400399","2022-12-02 11:00","2022","12","02","11:00","-20.2","","-26.5","","58","","","M","2","","5","","","M","100.76","","","","-25","","NA"
"-85.05","73.01","ARCTIC BAY","2400399","2022-12-02 12:00","2022","12","02","12:00","-21.3","","-26.0","","67","","","M","29","","18","","","M","100.61","","","","-32","","NA"
"-85.05","73.01","ARCTIC BAY","2400399","2022-12-02 13:00","2022","12","02","13:00","-20.7","","-25.5","","66","","","M","31","","17","","","M","100.35","","","","-31","","NA"
"-85.05","73.01","ARCTIC BAY","2400399","2022-12-02 14:00","2022","12","02","14:00","-20.5","","-25.5","","65","","","M","30","","15","","","M","100.17","","","","-30","","NA"
"-85.05","73.01","ARCTIC BAY","2400399","2022-12-02 15:00","2022","12","02","15:00","-19.2","","-26.1","","55","","","M","4","","11","","","M","100.01","","","","-27","","NA"
"-85.05","73.01","ARCTIC BAY","2400399","2022-12-02 16:00","2022","12","02","16:00","-19.1","","-25.6","","57","","","M","","M","17","","","M","99.83","","","","-29","","NA"
"-85.05","73.01","ARCTIC BAY","2400399","2022-12-02 17:00","2022","12","02","17:00","-19.4","","-26.3","","55","","","M","","M","4","","","M","99.67","","","","-23","","NA"
"-85.05","73.01","ARCTIC BAY","2400399","2022-12-02 18:00","2022","12","02","18:00","-19.7","","-24.7","","65","","","M","35","","9","","","M","99.47","","","","-26","","NA"
"-85.05","73.01","ARCTIC BAY","2400399","2022-12-02 19:00","2022","12","02","19:00","-19.3","","-24.3","","65","","","M","7","","15","","","M","99.21","","","","-28","","NA"
"-85.05","73.01","ARCTIC BAY","2400399","2022-12-02 20:00","2022","12","02","20:00","-19.9","","-23.3","","75","","","M","","M","5","","","M","99.07","","","","-24","","NA"
"-85.05","73.01","ARCTIC BAY","2400399","2022-12-02 21:00","2022","12","02","21:00","-20.6","","-23.1","","81","","","M","31","","17","","","M","98.92","","","","-30","","NA"
"-85.05","73.01","ARCTIC BAY","2400399","2022-12-02 22:00","2022","12","02","22:00","-20.3","","-22.9","","80","","","M","","M","4","","","M","98.77","","","","-24","","NA"
"-85.05","73.01","ARCTIC BAY","2400399","2022-12-02 23:00","2022","12","02","23:00","-20.2","","-22.5","","82","","","M","","","0","","","M","98.63","","","","","","NA"
"-85.05","73.01","ARCTIC BAY","2400399","2022-12-03 00:00","2022","12","03","00:00","-19.4","","-22.7","","76","","","M","31","","11","","","M","98.51","","","","-27","","NA"
"-85.05","73.01","ARCTIC BAY","2400399","2022-12-03 01:00","2022","12","03","01:00","-19.4","","-22.9","","74","","","M","31","","15","","","M","98.47","","","","-28","","NA"
"-85.05","73.01","ARCTIC BAY","2400399","2022-12-03 02:00","2022","12","03","02:00","-19.8","","-22.6","","79","","","M","8","","9","","","M","98.45","","","","-27","","NA"
"-85.05","73.01","ARCTIC BAY","2400399","2022-12-03 03:00","2022","12","03","03:00","-19.9","","-22.7","","79","","","M","32","","8","","","M","98.43","","","","-26","","NA"
"-85.05","73.01","ARCTIC BAY","2400399","2022-12-03 04:00","2022","12","03","04:00","-20.0","","-22.9","","78","","","M","32","","17","","","M","98.45","","","","-30","","NA"
"-85.05","73.01","ARCTIC BAY","2400399","2022-12-03 05:00","2022","12","03","05:00","-20.0","","-22.6","","80","","","M","","M","4","","","M","98.51","","","","-23","","NA"
"-85.05","73.01","ARCTIC BAY","2400399","2022-12-03 06:00","2022","12","03","06:00","-20.5","","-23.3","","79","","","M","31","","5","","","M","98.53","","","","-25","","NA"
"-85.05","73.01","ARCTIC BAY","2400399","2022-12-03 07:00","2022","12","03","07:00","-20.5","","-23.2","","80","","","M","9","","8","","","M","98.60","","","","-27","","NA"
"-85.05","73.01","ARCTIC BAY","2400399","2022-12-03 08:00","2022","12","03","08:00","-19.9","","-22.6","","80","","","M","9","","13","","","M","98.69","","","","-28","","NA"
"-85.05","73.01","ARCTIC BAY","2400399","2022-12-03 09:00","2022","12","03","09:00","-20.5","","-23.3","","79","","","M","9","","9","","","M","98.80","","","","-27","","NA"
"-85.05","73.01","ARCTIC BAY","2400399","2022-12-03 10:00","2022","12","03","10:00","-21.7","","-25.0","","75","","","M","","","0","","","M","98.88","","","","","","NA"
"-85.05","73.01","ARCTIC BAY","2400399","2022-12-03 11:00","2022","12","03","11:00","-20.9","","-24.6","","73","","","M","17","","18","","","M","99.01","","","","-31","","NA"
"-85.05","73.01","ARCTIC BAY","2400399","2022-12-03 12:00","2022","12","03","12:00","-20.4","","-24.7","","69","","","M","12","","22","","","M","99.12","","","","-31","","NA"
"-85.05","73.01","ARCTIC BAY","2400399","2022-12-03 13:00","2022","12","03","13:00","-20.6","","-24.5","","72","","","M","12","","30","","","M","99.23","","","","-33","","NA"
"-85.05","73.01","ARCTIC BAY","2400399","2022-12-03 14:00","2022","12","03","14:00","-21.2","","-26.0","","66","","","M","13","","24","","","M","99.37","","","","-33","","NA"
"-85.05","73.01","ARCTIC BAY","2400399","2022-12-03 15:00","2022","12","03","15:00","-21.0","","-26.0","","65","","","M","14","","17","","","M","99.56","","","","-31","","NA"
"-85.05","73.01","ARCTIC BAY","2400399","2022-12-03 16:00","2022","12","03","16:00","-21.0","","-26.3","","63","","","M","12","","26","","","M","99.68","","","","-33","","NA"
"-85.05","73.01","ARCTIC BAY","2400399","2022-12-03 17:00","2022","12","03","17:00","-21.0","","-26.1","","64","","","M","12","","21","","","M","99.84","","","","-32","","NA"
"-85.05","73.01","ARCTIC BAY","2400399","2022-12-03 18:00","2022","12","03","18:00","-21.3","","-26.8","","62","","","M","12","","24","","","M","99.98","","","","-33","","NA"
"-85.05","73.01","ARCTIC BAY","2400399","2022-12-03 19:00","2022","12","03","19:00","-21.6","","-26.9","","63","","","M","14","","24","","","M","100.18","","","","-33","","NA"
"-85.05","73.01","ARCTIC BAY","2400399","2022-12-03 20:00","2022","12","03","20:00","-22.1","","-27.5","","62","","","M","12","","26","","","M","100.35","","","","-35","","NA"
"-85.05","73.01","ARCTIC BAY","2400399","2022-12-03 21:00","2022","12","03","21:00","-22.3","","-27.9","","61","","","M","12","","35","","","M","100.50","","","","-36","","NA"
"-85.05","73.01","ARCTIC BAY","2400399","2022-12-03 22:00","2022","12","03","22:00","-22.7","","-28.6","","60","","","M","11","","22","","","M","100.70","","","","-34","","NA"
"-85.05","73.01","ARCTIC BAY","2400399","2022-12-03 23:00","2022","12","03","23:00","-24.1","","-29.5","","62","","","M","6","","24","","","M","100.86","","","","-37","","NA"
"-85.05","73.01","ARCTIC BAY","2400399","2022-12-04 00:00","2022","12","04","00:00","-24.1","","-29.5","","62","","","M","8","","21","","","M","101.03","","","","-36","","NA"
"-85.05","73.01","ARCTIC BAY","2400399","2022-12-04 01:00","2022","12","04","01:00","-24.1","","-29.8","","60","","","M","8","","13","","","M","101.21","","","","-33","","NA"
"-85.05","73.01","ARCTIC BAY","2400399","2022-12-04 02:00","2022","12","04","02:00","-24.4","","-30.1","","60","","","M","8","","17","","","M","101.38","","","","-35","","NA"
"-85.05","73.01","ARCTIC BAY","2400399","2022-12-04 03:00","2022","12","04","03:00","-24.7","","-30.3","","61","","","M","7","","24","","","M","101.54","","","","-37","","NA"
"-85.05","73.01","ARCTIC BAY","2400399","2022-12-04 04:00","2022","12","04","04:00","-25.2","","-31.4","","57","","","M","7","","13","","","M","101.71","","","","-35","","NA"
"-85.05","73.01","ARCTIC BAY","2400399","2022-12-04 05:00","2022","12","04","05:00","-25.8","","-32.0","","57","","","M","6","","13","","","M","101.80","","","","-35","","NA"
"-85.05","73.01","ARCTIC BAY","2400399","2022-12-04 06:00","2022","12","04","06:00","-28.6","","-32.8","","68","","","M","32","","9","","","M","101.90","","","","-37","","NA"
"-85.05","73.01","ARCTIC BAY","2400399","2022-12-04 07:00","2022","12","04","07:00","-28.7","","-32.9","","68","","","M","31","","9","","","M","101.97","","","","-37","","NA"
"-85.05","73.01","ARCTIC BAY","2400399","2022-12-04 08:00","2022","12","04","08:00","-29.8","","-33.3","","72","","","M","","M","4","","","M","102.04","","","","-34","","NA"
"-85.05","73.01","ARCTIC BAY","2400399","2022-12-04 09:00","2022","12","04","09:00","-29.1","","-33.4","","67","","","M","30","","18","","","M","102.09","","","","-41","","NA"
"-85.05","73.01","ARCTIC BAY","2400399","2022-12-04 10:00","2022","12","04","10:00","-28.4","","-33.0","","66","","","M","33","","13","","","M","102.08","","","","-39","","NA"
"-85.05","73.01","ARCTIC BAY","2400399","2022-12-04 11:00","2022","12","04","11:00","-29.4","","-34.2","","64","","","M","6","","5","","","M","102.09","","","","-35","","NA"
"-85.05","73.01","ARCTIC BAY","2400399","2022-12-04 12:00","2022","12","04","12:00","-28.2","","-32.9","","65","","","M","11","","9","","","M","102.07","","","","-36","","NA"
"-85.05","73.01","ARCTIC BAY","2400399","2022-12-04 13:00","2022","12","04","13:00","-28.6","","-33.0","","67","","","M","29","","4","","","M","102.04","","","","-33","","NA"
"-85.05","73.01","ARCTIC BAY","2400399","2022-12-04 14:00","2022","12","04","14:00","-29.5","","-34.1","","65","","","M","7","","5","","","M","102.02","","","","-35","","NA"
"-85.05","73.01","ARCTIC BAY","2400399","2022-12-04 15:00","2022","12","04","15:00","-28.2","","-32.9","","65","","","M","","","0","","","M","101.97","","","","","","NA"
"-85.05","73.01","ARCTIC BAY","2400399","2022-12-04 16:00","2022","12","04","16:00","-28.8","","-33.4","","66","","","M","9","","5","","","M","101.93","","","","-34","","NA"
"-85.05","73.01","ARCTIC BAY","2400399","2022-12-04 17:00","2022","12","04","17:00","-28.4","","-33.0","","65","","","M","12","","5","","","M","101.94","","","","-34","","NA"
"-85.05","73.01","ARCTIC BAY","2400399","2022-12-04 18:00","2022","12","04","18:00","-28.1","","-32.5","","67","","","M","","M","4","","","M","101.91","","","","-32","","NA"
"-85.05","73.01","ARCTIC BAY","2400399","2022-12-04 19:00","2022","12","04","19:00","-27.5","","-32.1","","66","","","M","10","","8","","","M","101.83","","","","-35","","NA"
"-85.05","73.01","ARCTIC BAY","2400399","2022-12-04 20:00","2022","12","04","20:00","-26.8","","-31.4","","66","","","M","","M","5","","","M","101.80","","","","-32","","NA"
"-85.05","73.01","ARCTIC BAY","2400399","2022-12-04 21:00","2022","12","04","21:00","-25.6","","-30.1","","67","","","M","","","0","","","M","101.73","","","","","","NA"
"-85.05","73.01","ARCTIC BAY","2400399","2022-12-04 22:00","2022","12","04","22:00","-25.5","","-29.6","","69","","","M","","","0","","","M","101.68","","","","","","NA"
"-85.05","73.01","ARCTIC BAY","2400399","2022-12-04 23:00","2022","12","04","23:00","-25.3","","-29.5","","69","","","M","","M","4","","","M","101.63","","","","-29","","NA"
"-85.05","73.01","ARCTIC BAY","2400399","2022-12-05 00:00","2022","12","05","00:00","-24.2","","-28.2","","70","","","M","","M","4","","","M","101.61","","","","-28","","NA"
"-85.05","73.01","ARCTIC BAY","2400399","2022-12-05 01:00","2022","12","05","01:00","-22.8","","-26.8","","70","","","M","","M","4","","","M","101.52","","","","-27","","NA"
"-85.05","73.01","ARCTIC BAY","2400399","2022-12-05 02:00","2022","12","05","02:00","-24.7","","-27.7","","77","","","M","","M","9","","","M","101.48","","","","-32","","NA"
"-85.05","73.01","ARCTIC BAY","2400399","2022-12-05 03:00","2022","12","05","03:00","-23.5","","-26.6","","76","","","M","8","","5","","","M","101.46","","","","-28","","NA"
"-85.05","73.01","ARCTIC BAY","2400399","2022-12-05 04:00","2022","12","05","04:00","-22.4","","-25.6","","76","","","M","","M","4","","","M","101.37","","","","-26","","NA"
"-85.05","73.01","ARCTIC BAY","2400399","2022-12-05 05:00","2022","12","05","05:00","-21.8","","-24.9","","77","","","M","","","0","","","M","101.33","","","","","","NA"
"-85.05","73.01","ARCTIC BAY","2400399","2022-12-05 06:00","2022","12","05","06:00","-20.8","","-23.8","","77","","","M","9","","5","","","M","101.25","","","","-25","","NA"
"-85.05","73.01","ARCTIC BAY","2400399","2022-12-05 07:00","2022","12","05","07:00","-20.1","","-23.3","","76","","","M","9","","8","","","M","101.18","","","","-26","","NA"
"-85.05","73.01","ARCTIC BAY","2400399","2022-12-05 08:00","2022","12","05","08:00","-18.9","","-22.2","","75","","","M","","","0","","","M","101.09","","","","","","NA"
"-85.05","73.01","ARCTIC BAY","2400399","2022-12-05 09:00","2022","12","05","09:00","-17.3","","-21.2","","72","","","M","","M","5","","","M","101.03","","","","-21","","NA"
"-85.05","73.01","ARCTIC BAY","2400399","2022-12-05 10:00","2022","12","05","10:00","-15.5","","-18.6","","77","","","M","","M","4","","","M","100.92","","","","-18","","NA"
"-85.05","73.01","ARCTIC BAY","2400399","2022-12-05 11:00","2022","12","05","11:00","-16.0","","-18.7","","80","","","M","11","","9","","","M","100.83","","","","-22","","NA"
"-85.05","73.01","ARCTIC BAY","2400399","2022-12-05 12:00","2022","12","05","12:00","-13.8","","-16.8","","78","","","M","","M","9","","","M","100.78","","","","-19","","NA"
"-85.05","73.01","ARCTIC BAY","2400399","2022-12-05 13:00","2022","12","05","13:00","-13.3","","-15.8","","82","","","M","17","","13","","","M","100.73","","","","-20","","NA"
"-85.05","73.01","ARCTIC BAY","2400399","2022-12-05 14:00","2022","12","05","14:00","-13.7","","-15.9","","83","","","M","7","","5","","","M","100.72","","","","-17","","NA"
"-85.05","73.01","ARCTIC BAY","2400399","2022-12-05 15:00","2022","12","05","15:00","-12.6","","-16.0","","76","","","M","","M","9","","","M","100.72","","","","-18","","NA"
"-85.05","73.01","ARCTIC BAY","2400399","2022-12-05 16:00","2022","12","05","16:00","-5.5","","-9.4","","74","","","M","8","","30","","","M","100.80","","","","-14","","NA"
"-85.05","73.01","ARCTIC BAY","2400399","2022-12-05 17:00","2022","12","05","17:00","-4.6","","-8.0","","77","","","M","7","","37","","","M","100.87","","","","-13","","NA"
"-85.05","73.01","ARCTIC BAY","2400399","2022-12-05 18:00","2022","12","05","18:00","-3.7","","-7.5","","75","","","M","7","","32","","","M","100.98","","","","-12","","NA"
"-85.05","73.01","ARCTIC BAY","2400399","2022-12-05 19:00","2022","12","05","19:00","-3.3","","-6.4","","80","","","M","6","","41","","","M","101.01","","","","-12","","NA"
"-85.05","73.01","ARCTIC BAY","2400399","2022-12-05 20:00","2022","12","05","20:00","-3.5","","-7.1","","76","","","M","7","","39","","","M","101.11","","","","-12","","NA"
"-85.05","73.01","ARCTIC BAY","2400399","2022-12-05 21:00","2022","12","05","21:00","-3.7","","-7.2","","77","","","M","8","","34","","","M","101.24","","","","-12","","NA"
"-85.05","73.01","ARCTIC BAY","2400399","2022-12-05 22:00","2022","12","05","22:00","-4.2","","-7.8","","76","","","M","8","","30","","","M","101.35","","","","-12","","NA"
"-85.05","73.01","ARCTIC BAY","2400399","2022-12-05 23:00","2022","12","05","23:00","-5.6","","-9.4","","75","","","M","8","","46","","","M","101.39","","","","-15","","NA"
"-85.05","73.01","ARCTIC BAY","2400399","2022-12-06 00:00","2022","12","06","00:00","-6.8","","-12.0","","67","","","M","8","","22","","","M","101.48","","","","-14","","NA"
"-85.05","73.01","ARCTIC BAY","2400399","2022-12-06 01:00","2022","12","06","01:00","-8.1","","-12.6","","71","","","M","7","","9","","","M","101.57","","","","-13","","NA"
"-85.05","73.01","ARCTIC BAY","2400399","2022-12-06 02:00","2022","12","06","02:00","-7.8","","-13.1","","66","","","M","10","","15","","","M","101.55","","","","-14","","NA"
"-85.05","73.01","ARCTIC BAY","2400399","2022-12-06 03:00","2022","12","06","03:00","-9.6","","-13.6","","73","","","M","29","","8","","","M","101.55","","","","-14","","NA"
"-85.05","73.01","ARCTIC BAY","2400399","2022-12-06 04:00","2022","12","06","04:00","-10.3","","-12.1","","87","","","M","25","","5","","","M","101.55","","","","-13","","NA"
"-85.05","73.01","ARCTIC BAY","2400399","2022-12-06 05:00","2022","12","06","05:00","-10.7","","-11.8","","92","","","M","27","","8","","","M","101.54","","","","-15","","NA"
"-85.05","73.01","ARCTIC BAY","2400399","2022-12-06 06:00","2022","12","06","06:00","-11.2","","-12.5","","90","","","M","28","","15","","","M","101.50","","","","-18","","NA"
"-85.05","73.01","ARCTIC BAY","2400399","2022-12-06 07:00","2022","12","06","07:00","-11.1","","-12.4","","90","","","M","29","","11","","","M","101.51","","","","-17","","NA"
"-85.05","73.01","ARCTIC BAY","2400399","2022-12-06 08:00","2022","12","06","08:00","-11.1","","-12.6","","89","","","M","30","","11","","","M","101.52","","","","-17","","NA"
"-85.05","73.01","ARCTIC BAY","2400399","2022-12-06 09:00","2022","12","06","09:00","-11.2","","-12.7","","89","","","M","33","","8","","","M","101.52","","","","-16","","NA"
"-85.05","73.01","ARCTIC BAY","2400399","2022-12-06 10:00","2022","12","06","10:00","-11.0","","-12.6","","88","","","M","30","","4","","","M","101.51","","","","-13","","NA"
"-85.05","73.01","ARCTIC BAY","2400399","2022-12-06 11:00","2022","12","06","11:00","-11.3","","-13.5","","84","","","M","","M","4","","","M","101.52","","","","-14","","NA"
"-85.05","73.01","ARCTIC BAY","2400399","2022-12-06 12:00","2022","12","06","12:00","-12.6","","-14.1","","89","","","M","","","0","","","M","101.51","","","","","","NA"
"-85.05","73.01","ARCTIC BAY","2400399","2022-12-06 13:00","2022","12","06","13:00","-14.1","","-16.0","","86","","","M","8","","4","","","M","101.53","","","","-17","","NA"
"-85.05","73.01","ARCTIC BAY","2400399","2022-12-06 14:00","2022","12","06","14:00","-14.1","","-16.2","","84","","","M","","M","4","","","M","101.50","","","","-17","","NA"
"-85.05","73.01","ARCTIC BAY","2400399","2022-12-06 15:00","2022","12","06","15:00","-15.5","","-17.4","","86","","","M","8","","9","","","M","101.53","","","","-21","","NA"
"-85.05","73.01","ARCTIC BAY","2400399","2022-12-06 16:00","2022","12","06","16:00","-14.7","","-16.9","","84","","","M","9","","5","","","M","101.51","","","","-18","","NA"
"-85.05","73.01","ARCTIC BAY","2400399","2022-12-06 17:00","2022","12","06","17:00","-15.6","","-17.4","","86","","","M","","M","5","","","M","101.53","","","","-19","","NA"
"-85.05","73.01","ARCTIC BAY","2400399","2022-12-06 18:00","2022","12","06","18:00","-14.9","","-16.7","","86","","","M","30","","5","","","M","101.52","","","","-18","","NA"
"-85.05","73.01","ARCTIC BAY","2400399","2022-12-06 19:00","2022","12","06","19:00","-14.5","","-16.6","","84","","","M","","M","4","","","M","101.53","","","","-17","","NA"
"-85.05","73.01","ARCTIC BAY","2400399","2022-12-06 20:00","2022","12","06","20:00","-15.1","","-17.3","","84","","","M","","M","4","","","M","101.53","","","","-18","","NA"
"-85.05","73.01","ARCTIC BAY","2400399","2022-12-06 21:00","2022","12","06","21:00","-15.6","","-17.9","","83","","","M","","","0","","","M","101.52","","","","","","NA"
"-85.05","73.01","ARCTIC BAY","2400399","2022-12-06 22:00","2022","12","06","22:00","-16.3","","-18.1","","86","","","M","","","0","","","M","101.52","","","","","","NA"
"-85.05","73.01","ARCTIC BAY","2400399","2022-12-06 23:00","2022","12","06","23:00","-16.1","","-18.1","","85","","","M","","M","4","","","M","101.49","","","","-19","","NA"
"-85.05","73.01","ARCTIC BAY","2400399","2022-12-07 00:00","2022","12","07","00:00","-17.9","","-19.6","","87","","","M","","M","4","","","M","101.51","","","","-21","","NA"
"-85.05","73.01","ARCTIC BAY","2400399","2022-12-07 01:00","2022","12","07","01:00","-18.1","","-20.0","","85","","","M","","M","4","","","M","101.52","","","","-21","","NA"
"-85.05","73.01","ARCTIC BAY","2400399","2022-12-07 02:00","2022","12","07","02:00","-18.0","","-19.9","","85","","","M","26","","5","","","M","101.49","","","","-22","","NA"
"-85.05","73.01","ARCTIC BAY","2400399","2022-12-07 03:00","2022","12","07","03:00","-17.3","","-19.8","","81","","","M","11","","5","","","M","101.47","","","","-21","","NA"
"-85.05","73.01","ARCTIC BAY","2400399","2022-12-07 04:00","2022","12","07","04:00","-16.4","","-19.3","","78","","","M","","M","8","","","M","101.51","","","","-22","","NA"
"-85.05","73.01","ARCTIC BAY","2400399","2022-12-07 05:00","2022","12","07","05:00","-10.8","","-14.9","","72","","","M","5","","22","","","M","101.56","","","","-19","","NA"
"-85.05","73.01","ARCTIC BAY","2400399","2022-12-07 06:00","2022","12","07","06:00","-11.1","","-14.9","","74","","","M","9","","30","","","M","101.61","","","","-21","","NA"
"-85.05","73.01","ARCTIC BAY","2400399","2022-12-07 07:00","2022","12","07","07:00","-11.4","","-15.0","","75","","","M","10","","35","","","M","101.67","","","","-22","","NA"
"-85.05","73.01","ARCTIC BAY","2400399","2022-12-07 08:00","2022","12","07","08:00","-12.1","","-16.2","","72","","","M","9","","30","","","M","101.73","","","","-22","","NA"
"-85.05","73.01","ARCTIC BAY","2400399","2022-12-07 09:00","2022","12","07","09:00","-12.8","","-17.0","","71","","","M","9","","34","","","M","101.74","","","","-24","","NA"
"-85.05","73.01","ARCTIC BAY","2400399","2022-12-07 10:00","2022","12","07","10:00","-12.9","","-17.0","","72","","","M","9","","28","","","M","101.75","","","","-23","","NA"
"-85.05","73.01","ARCTIC BAY","2400399","2022-12-07 11:00","2022","12","07","11:00","-12.6","","-15.8","","77","","","M","9","","43","","","M","101.80","","","","-25","","NA"
"-85.05","73.01","ARCTIC BAY","2400399","2022-12-07 12:00","2022","12","07","12:00","-13.0","","-16.8","","74","","","M","10","","34","","","M","101.82","","","","-24","","NA"
"-85.05","73.01","ARCTIC BAY","2400399","2022-12-07 13:00","2022","12","07","13:00","-15.1","","-19.1","","72","","","M","10","","35","","","M","102.01","","","","-27","","NA"
"-85.05","73.01","ARCTIC BAY","2400399","2022-12-07 14:00","2022","12","07","14:00","-16.6","","-20.7","","71","","","M","11","","46","","","M","102.06","","","","-30","","NA"
"-85.05","73.01","ARCTIC BAY","2400399","2022-12-07 15:00","2022","12","07","15:00","-16.3","","-22.2","","61","","","M","13","","46","","","M","102.20","","","","-30","","NA"
"-85.05","73.01","ARCTIC BAY","2400399","2022-12-07 16:00","2022","12","07","16:00","-17.3","","-23.1","","62","","","M","12","","45","","","M","102.28","","","","-31","","NA"
"-85.05","73.01","ARCTIC BAY","2400399","2022-12-07 17:00","2022","12","07","17:00","-18.3","","-23.4","","65","","","M","11","","34","","","M","102.38","","","","-31","","NA"
"-85.05","73.01","ARCTIC BAY","2400399","2022-12-07 18:00","2022","12","07","18:00","-18.2","","-24.4","","59","","","M","9","","21","","","M","102.45","","","","-28","","NA"
"-85.05","73.01","ARCTIC BAY","2400399","2022-12-07 19:00","2022","12","07","19:00","-18.7","","-24.3","","62","","","M","10","","13","","","M","102.51","","","","-27","","NA"
"-85.05","73.01","ARCTIC BAY","2400399","2022-12-07 20:00","2022","12","07","20:00","-18.6","","-23.2","","67","","","M","10","","18","","","M","102.51","","","","-28","","NA"
"-85.05","73.01","ARCTIC BAY","2400399","2022-12-07 21:00","2022","12","07","21:00","-18.2","","-23.1","","66","","","M","10","","18","","","M","102.48","","","","-28","","NA"
"-85.05","73.01","ARCTIC BAY","2400399","2022-12-07 22:00","2022","12","07","22:00","-17.5","","-22.2","","68","","","M","10","","30","","","M","102.52","","","","-29","","NA"
"-85.05","73.01","ARCTIC BAY","2400399","2022-12-07 23:00","2022","12","07","23:00","-18.1","","-22.5","","69","","","M","11","","21","","","M","102.69","","","","-28","","NA"
"-85.05","73.01","ARCTIC BAY","2400399","2022-12-08 00:00","2022","12","08","00:00","-18.2","","-23.9","","62","","","M","12","","32","","","M","102.76","","","","-31","","NA"
"-85.05","73.01","ARCTIC BAY","2400399","2022-12-08 01:00","2022","12","08","01:00","-17.9","","-23.7","","61","","","M","12","","32","","","M","102.82","","","","-30","","NA"
"-85.05","73.01","ARCTIC BAY","2400399","2022-12-08 02:00","2022","12","08","02:00","-18.6","","-23.7","","65","","","M","11","","26","","","M","102.82","","","","-30","","NA"
"-85.05","73.01","ARCTIC BAY","2400399","2022-12-08 03:00","2022","12","08","03:00","-17.6","","-23.8","","59","","","M","7","","34","","","M","102.85","","","","-30","","NA"
"-85.05","73.01","ARCTIC BAY","2400399","2022-12-08 04:00","2022","12","08","04:00","-17.9","","-24.8","","56","","","M","8","","22","","","M","102.87","","","","-28","","NA"
"-85.05","73.01","ARCTIC BAY","2400399","2022-12-08 05:00","2022","12","08","05:00","-20.0","","-26.0","","60","","","M","","M","9","","","M","102.83","","","","-27","","NA"
"-85.05","73.01","ARCTIC BAY","2400399","2022-12-08 06:00","2022","12","08","06:00","-17.9","","-24.7","","56","","","M","4","","22","","","M","102.69","","","","-28","","NA"
"-85.05","73.01","ARCTIC BAY","2400399","2022-12-08 07:00","2022","12","08","07:00","-15.9","","-23.9","","51","","","M","5","","18","","","M","102.59","","","","-25","","NA"
"-85.05","73.01","ARCTIC BAY","2400399","2022-12-08 08:00","2022","12","08","08:00","-18.7","","-24.7","","60","","","M","19","","8","","","M","102.42","","","","-25","","NA"
"-85.05","73.01","ARCTIC BAY","2400399","2022-12-08 09:00","2022","12","08","09:00","-18.0","","-24.4","","58","","","M","","","0","","","M","102.19","","","","","","NA"
"-85.05","73.01","ARCTIC BAY","2400399","2022-12-08 10:00","2022","12","08","10:00","-17.4","","-23.6","","59","","","M","","M","11","","","M","102.02","","","","-25","","NA"
"-85.05","73.01","ARCTIC BAY","2400399","2022-12-08 11:00","2022","12","08","11:00","-15.1","","-21.5","","59","","","M","","M","4","","","M","101.83","","","","-18","","NA"
"-85.05","73.01","ARCTIC BAY","2400399","2022-12-08 12:00","2022","12","08","12:00","-14.3","","-19.4","","66","","","M","35","","11","","","M","101.61","","","","-21","","NA"
"-85.05","73.01","ARCTIC BAY","2400399","2022-12-08 13:00","2022","12","08","13:00","-14.7","","-18.4","","74","","","M","36","","5","","","M","101.47","","","","-18","","NA"
"-85.05","73.01","ARCTIC BAY","2400399","2022-12-08 14:00","2022","12","08","14:00","-14.4","","-18.4","","72","","","M","14","","8","","","M","101.29","","","","-20","","NA"
"-85.05","73.01","ARCTIC BAY","2400399","2022-12-08 15:00","2022","12","08","15:00","-14.3","","-17.8","","75","","","M","","M","4","","","M","101.12","","","","-17","","NA"
"-85.05","73.01","ARCTIC BAY","2400399","2022-12-08 16:00","2022","12","08","16:00","-14.8","","-17.3","","81","","","M","17","","8","","","M","101.03","","","","-20","","NA"
"-85.05","73.01","ARCTIC BAY","2400399","2022-12-08 17:00","2022","12","08","17:00","-15.1","","-18.1","","78","","","M","","","0","","","M","100.90","","","","","","NA"
"-85.05","73.01","ARCTIC BAY","2400399","2022-12-08 18:00","2022","12","08","18:00","-13.3","","-18.2","","67","","","M","8","","22","","","M","100.76","","","","-22","","NA"
"-85.05","73.01","ARCTIC BAY","2400399","2022-12-08 19:00","2022","12","08","19:00","-12.6","","-17.5","","67","","","M","9","","22","","","M","100.73","","","","-22","","NA"
"-85.05","73.01","ARCTIC BAY","2400399","2022-12-08 20:00","2022","12","08","20:00","-13.7","","-17.1","","76","","","M","9","","11","","","M","100.70","","","","-20","","NA"
"-85.05","73.01","ARCTIC BAY","2400399","2022-12-08 21:00","2022","12","08","21:00","-12.6","","-15.4","","80","","","M","12","","26","","","M","100.67","","","","-22","","NA"
"-85.05","73.01","ARCTIC BAY","2400399","2022-12-08 22:00","2022","12","08","22:00","-12.7","","-15.3","","81","","","M","9","","35","","","M","100.70","","","","-24","","NA"
"-85.05","73.01","ARCTIC BAY","2400399","2022-12-08 23:00","2022","12","08","23:00","-13.6","","-16.6","","79","","","M","10","","46","","","M","100.74","","","","-26","","NA"
"-85.05","73.01","ARCTIC BAY","2400399","2022-12-09 00:00","2022","12","09","00:00","-13.7","","-17.1","","76","","","M","10","","54","","","M","100.75","","","","-27","","NA"
"-85.05","73.01","ARCTIC BAY","2400399","2022-12-09 01:00","2022","12","09","01:00","-14.0","","-17.5","","75","","","M","11","","45","","","M","100.91","","","","-27","","NA"
"-85.05","73.01","ARCTIC BAY","2400399","2022-12-09 02:00","2022","12","09","02:00","-14.3","","-18.0","","74","","","M","13","","55","","","M","101.05","","","","-28","","NA"
"-85.05","73.01","ARCTIC BAY","2400399","2022-12-09 03:00","2022","12","09","03:00","-14.7","","-19.0","","71","","","M","12","","50","","","M","101.27","","","","-28","","NA"
"-85.05","73.01","ARCTIC BAY","2400399","2022-12-09 04:00","2022","12","09","04:00","-16.0","","-19.4","","75","","","M","10","","35","","","M","101.44","","","","-28","","NA"
"-85.05","73.01","ARCTIC BAY","2400399","2022-12-09 05:00","2022","12","09","05:00","-15.2","","-21.2","","61","","","M","13","","30","","","M","101.65","","","","-26","","NA"
"-85.05","73.01","ARCTIC BAY","2400399","2022-12-09 06:00","2022","12","09","06:00","-16.5","","-21.3","","67","","","M","11","","28","","","M","101.79","","","","-28","","NA"
"-85.05","73.01","ARCTIC BAY","2400399","2022-12-09 07:00","2022","12","09","07:00","-17.5","","-22.3","","67","","","M","9","","26","","","M","101.92","","","","-29","","NA"
"-85.05","73.01","ARCTIC BAY","2400399","2022-12-09 08:00","2022","12","09","08:00","-17.8","","-22.3","","69","","","M","12","","39","","","M","101.95","","","","-31","","NA"
"-85.05","73.01","ARCTIC BAY","2400399","2022-12-09 09:00","2022","12","09","09:00","-18.3","","-23.6","","64","","","M","10","","24","","","M","102.12","","","","-29","","NA"
"-85.05","73.01","ARCTIC BAY","2400399","2022-12-09 10:00","2022","12","09","10:00","-18.3","","-23.6","","64","","","M","11","","35","","","M","102.14","","","","-31","","NA"
"-85.05","73.01","ARCTIC BAY","2400399","2022-12-09 11:00","2022","12","09","11:00","-18.3","","-24.4","","59","","","M","12","","32","","","M","102.27","","","","-31","","NA"
"-85.05","73.01","ARCTIC BAY","2400399","2022-12-09 12:00","2022","12","09","12:00","-18.2","","-24.5","","59","","","M","","M","4","","","M","102.34","","","","-21","","NA"
"-85.05","73.01","ARCTIC BAY","2400399","2022-12-09 13:00","2022","12","09","13:00","-20.2","","-25.3","","64","","","M","4","","28","","","M","102.42","","","","-32","","NA"
"-85.05","73.01","ARCTIC BAY","2400399","2022-12-09 14:00","2022","12","09","14:00","-19.1","","-25.1","","60","","","M","11","","26","","","M","102.48","","","","-31","","NA"
"-85.05","73.01","ARCTIC BAY","2400399","2022-12-09 15:00","2022","12","09","15:00","-19.8","","-25.5","","61","","","M","10","","24","","","M","102.55","","","","-31","","NA"
"-85.05","73.01","ARCTIC BAY","2400399","2022-12-09 16:00","2022","12","09","16:00","-20.5","","-25.5","","65","","","M","11","","30","","","M","102.59","","","","-33","","NA"
"-85.05","73.01","ARCTIC BAY","2400399","2022-12-09 17:00","2022","12","09","17:00","-20.0","","-26.0","","60","","","M","10","","21","","","M","102.60","","","","-31","","NA"
"-85.05","73.01","ARCTIC BAY","2400399","2022-12-09 18:00","2022","12","09","18:00","-20.7","","-26.4","","61","","","M","5","","24","","","M","102.65","","","","-32","","NA"
"-85.05","73.01","ARCTIC BAY","2400399","2022-12-09 19:00","2022","12","09","19:00","-20.3","","-25.8","","62","","","M","6","","24","","","M","102.67","","","","-32","","NA"
"-85.05","73.01","ARCTIC BAY","2400399","2022-12-09 20:00","2022","12","09","20:00","-20.2","","-26.1","","60","","","M","7","","13","","","M","102.72","","","","-29","","NA"
"-85.05","73.01","ARCTIC BAY","2400399","2022-12-09 21:00","2022","12","09","21:00","-20.8","","-26.3","","62","","","M","4","","22","","","M","102.79","","","","-32","","NA"
"-85.05","73.01","ARCTIC BAY","2400399","2022-12-09 22:00","2022","12","09","22:00","-21.7","","-27.0","","63","","","M","5","","17","","","M","102.83","","","","-32","","NA"
"-85.05","73.01","ARCTIC BAY","2400399","2022-12-09 23:00","2022","12","09","23:00","-21.3","","-26.8","","62","","","M","6","","15","","","M","102.86","","","","-31","","NA"
"-85.05","73.01","ARCTIC BAY","2400399","2022-12-10 00:00","2022","12","10","00:00","-20.8","","-26.6","","61","","","M","","","0","","","M","102.93","","","","","","NA"
"-85.05","73.01","ARCTIC BAY","2400399","2022-12-10 01:00","2022","12","10","01:00","-22.4","","-27.7","","63","","","M","7","","11","","","M","102.97","","","","-31","","NA"
"-85.05","73.01","ARCTIC BAY","2400399","2022-12-10 02:00","2022","12","10","02:00","-21.9","","-27.6","","61","","","M","","M","4","","","M","103.01","","","","-26","","NA"
"-85.05","73.01","ARCTIC BAY","2400399","2022-12-10 03:00","2022","12","10","03:00","-22.4","","-27.8","","62","","","M","6","","11","","","M","103.03","","","","-31","","NA"
"-85.05","73.01","ARCTIC BAY","2400399","2022-12-10 04:00","2022","12","10","04:00","-23.3","","-28.5","","63","","","M","5","","21","","","M","103.13","","","","-35","","NA"
"-85.05","73.01","ARCTIC BAY","2400399","2022-12-10 05:00","2022","12","10","05:00","-22.5","","-28.0","","61","","","M","6","","15","","","M","103.19","","","","-32","","NA"
"-85.05","73.01","ARCTIC BAY","2400399","2022-12-10 06:00","2022","12","10","06:00","-23.6","","-28.5","","65","","","M","","M","4","","","M","103.22","","","","-27","","NA"
"-85.05","73.01","ARCTIC BAY","2400399","2022-12-10 07:00","2022","12","10","07:00","-23.5","","-28.9","","62","","","M","5","","21","","","M","103.27","","","","-35","","NA"
"-85.05","73.01","ARCTIC BAY","2400399","2022-12-10 08:00","2022","12","10","08:00","-23.9","","-29.5","","61","","","M","6","","26","","","M","103.33","","","","-37","","NA"
"-85.05","73.01","ARCTIC BAY","2400399","2022-12-10 09:00","2022","12","10","09:00","-23.7","","-29.3","","61","","","M","5","","18","","","M","103.41","","","","-35","","NA"
"-85.05","73.01","ARCTIC BAY","2400399","2022-12-10 10:00","2022","12","10","10:00","-23.5","","-29.1","","61","","","M","7","","11","","","M","103.47","","","","-32","","NA"
"-85.05","73.01","ARCTIC BAY","2400399","2022-12-10 11:00","2022","12","10","11:00","-23.7","","-28.6","","65","","","M","","M","4","","","M","103.50","","","","-28","","NA"
"-85.05","73.01","ARCTIC BAY","2400399","2022-12-10 12:00","2022","12","10","12:00","-24.6","","-29.5","","64","","","M","28","","8","","","M","103.54","","","","-32","","NA"
"-85.05","73.01","ARCTIC BAY","2400399","2022-12-10 13:00","2022","12","10","13:00","-23.8","","-28.7","","65","","","M","31","","17","","","M","103.55","","","","-34","","NA"
"-85.05","73.01","ARCTIC BAY","2400399","2022-12-10 14:00","2022","12","10","14:00","-23.8","","-28.4","","67","","","M","32","","13","","","M","103.58","","","","-33","","NA"
"-85.05","73.01","ARCTIC BAY","2400399","2022-12-10 15:00","2022","12","10","15:00","-21.8","","-26.6","","66","","","M","31","","5","","","M","103.60","","","","-26","","NA"
"-85.05","73.01","ARCTIC BAY","2400399","2022-12-10 16:00","2022","12","10","16:00","-21.6","","-26.2","","67","","","M","30","","11","","","M","103.66","","","","-30","","NA"
"-85.05","73.01","ARCTIC BAY","2400399","2022-12-10 17:00","2022","12","10","17:00","-19.9","","-25.3","","63","","","M","","","0","","","M","103.74","","","","","","NA"
"-85.05","73.01","ARCTIC BAY","2400399","2022-12-10 18:00","2022","12","10","18:00","-18.9","","-23.8","","66","","","M","9","","17","","","M","103.80","","","","-28","","NA"
"-85.05","73.01","ARCTIC BAY","2400399","2022-12-10 19:00","2022","12","10","19:00","-18.9","","-24.0","","65","","","M","6","","22","","","M","103.85","","","","-30","","NA"
"-85.05","73.01","ARCTIC BAY","2400399","2022-12-10 20:00","2022","12","10","20:00","-19.1","","-24.1","","65","","","M","9","","17","","","M","103.89","","","","-29","","NA"
"-85.05","73.01","ARCTIC BAY","2400399","2022-12-10 21:00","2022","12","10","21:00","-19.7","","-24.9","","64","","","M","6","","22","","","M","103.92","","","","-31","","NA"
"-85.05","73.01","ARCTIC BAY","2400399","2022-12-10 22:00","2022","12","10","22:00","-20.5","","-25.8","","63","","","M","5","","22","","","M","103.97","","","","-32","","NA"
"-85.05","73.01","ARCTIC BAY","2400399","2022-12-10 23:00","2022","12","10","23:00","-20.5","","-26.0","","62","","","M","6","","24","","","M","104.01","","","","-32","","NA"
"-85.05","73.01","ARCTIC BAY","2400399","2022-12-11 00:00","2022","12","11","00:00","-21.2","","-26.3","","64","","","M","4","","15","","","M","104.06","","","","-31","","NA"
"-85.05","73.01","ARCTIC BAY","2400399","2022-12-11 01:00","2022","12","11","01:00","-20.9","","-26.3","","63","","","M","6","","21","","","M","104.06","","","","-32","","NA"
"-85.05","73.01","ARCTIC BAY","2400399","2022-12-11 02:00","2022","12","11","02:00","-21.0","","-26.4","","63","","","M","10","","15","","","M","104.12","","","","-30","","NA"
"-85.05","73.01","ARCTIC BAY","2400399","2022-12-11 03:00","2022","12","11","03:00","-23.0","","-27.4","","68","","","M","10","","8","","","M","104.15","","","","-30","","NA"
"-85.05","73.01","ARCTIC BAY","2400399","2022-12-11 04:00","2022","12","11","04:00","-23.5","","-27.7","","69","","","M","14","","9","","","M","104.18","","","","-31","","NA"
"-85.05","73.01","ARCTIC BAY","2400399","2022-12-11 05:00","2022","12","11","05:00","-23.3","","-27.3","","70","","","M","","M","4","","","M","104.22","","","","-27","","NA"
"-85.05","73.01","ARCTIC BAY","2400399","2022-12-11 06:00","2022","12","11","06:00","-22.7","","-26.8","","70","","","M","","M","4","","","M","104.24","","","","-26","","NA"
"-85.05","73.01","ARCTIC BAY","2400399","2022-12-11 07:00","2022","12","11","07:00","-23.3","","-27.6","","68","","","M","31","","11","","","M","104.25","","","","-32","","NA"
"-85.05","73.01","ARCTIC BAY","2400399","2022-12-11 08:00","2022","12","11","08:00","-23.0","","-26.9","","71","","","M","28","","5","","","M","104.26","","","","-28","","NA"
"-85.05","73.01","ARCTIC BAY","2400399","2022-12-11 09:00","2022","12","11","09:00","-23.5","","-27.3","","72","","","M","34","","5","","","M","104.30","","","","-28","","NA"
"-85.05","73.01","ARCTIC BAY","2400399","2022-12-11 10:00","2022","12","11","10:00","-23.0","","-27.1","","70","","","M","31","","5","","","M","104.28","","","","-28","","NA"
"-85.05","73.01","ARCTIC BAY","2400399","2022-12-11 11:00","2022","12","11","11:00","-24.2","","-28.4","","69","","","M","","M","5","","","M","104.26","","","","-29","","NA"
"-85.05","73.01","ARCTIC BAY","2400399","2022-12-11 12:00","2022","12","11","12:00","-23.6","","-26.9","","75","","","M","","M","4","","","M","104.23","","","","-27","","NA"
"-85.05","73.01","ARCTIC BAY","2400399","2022-12-11 13:00","2022","12","11","13:00","-23.0","","-26.7","","72","","","M","26","","5","","","M","104.23","","","","-28","","NA"
"-85.05","73.01","ARCTIC BAY","2400399","2022-12-11 14:00","2022","12","11","14:00","-23.5","","-27.6","","70","","","M","26","","5","","","M","104.18","","","","-28","","NA"
"-85.05","73.01","ARCTIC BAY","2400399","2022-12-11 15:00","2022","12","11","15:00","-24.3","","-28.1","","72","","","M","","M","8","","","M","104.12","","","","-31","","NA"
"-85.05","73.01","ARCTIC BAY","2400399","2022-12-11 16:00","2022","12","11","16:00","-22.0","","-26.3","","69","","","M","","M","5","","","M","104.08","","","","-27","","NA"
"-85.05","73.01","ARCTIC BAY","2400399","2022-12-11 17:00","2022","12","11","17:00","-22.0","","-26.2","","70","","","M","","M","4","","","M","104.04","","","","-26","","NA"
"-85.05","73.01","ARCTIC BAY","2400399","2022-12-11 18:00","2022","12","11","18:00","-21.6","","-25.8","","69","","","M","","","0","","","M","103.99","","","","","","NA"
"-85.05","73.01","ARCTIC BAY","2400399","2022-12-11 19:00","2022","12","11","19:00","-17.1","","-23.5","","58","","","M","7","","21","","","M","103.93","","","","-27","","NA"
"-85.05","73.01","ARCTIC BAY","2400399","2022-12-11 20:00","2022","12","11","20:00","-15.7","","-22.4","","57","","","M","7","","34","","","M","103.82","","","","-28","","NA"
"-85.05","73.01","ARCTIC BAY","2400399","2022-12-11 21:00","2022","12","11","21:00","-18.1","","-23.6","","63","","","M","","","0","","","M","103.78","","","","","","NA"
"-85.05","73.01","ARCTIC BAY","2400399","2022-12-11 22:00","2022","12","11","22:00","-14.9","","-21.9","","56","","","M","7","","34","","","M","103.65","","","","-27","","NA"
"-85.05","73.01","ARCTIC BAY","2400399","2022-12-11 23:00","2022","12","11","23:00","-14.9","","-20.1","","65","","","M","6","","26","","","M","103.59","","","","-25","","NA"
"-85.05","73.01","ARCTIC BAY","2400399","2022-12-12 00:00","2022","12","12","00:00","-14.9","","-20.1","","65","","","M","7","","28","","","M","103.50","","","","-26","","NA"
"-85.05","73.01","ARCTIC BAY","2400399","2022-12-12 01:00","2022","12","12","01:00","-14.6","","-19.6","","66","","","M","8","","28","","","M","103.41","","","","-25","","NA"
"-85.05","73.01","ARCTIC BAY","2400399","2022-12-12 02:00","2022","12","12","02:00","-14.5","","-19.0","","69","","","M","8","","24","","","M","103.33","","","","-24","","NA"
"-85.05","73.01","ARCTIC BAY","2400399","2022-12-12 03:00","2022","12","12","03:00","-14.4","","-18.7","","70","","","M","6","","15","","","M","103.28","","","","-22","","NA"
"-85.05","73.01","ARCTIC BAY","2400399","2022-12-12 04:00","2022","12","12","04:00","-14.5","","-17.7","","77","","","M","7","","32","","","M","103.18","","","","-26","","NA"
"-85.05","73.01","ARCTIC BAY","2400399","2022-12-12 05:00","2022","12","12","05:00","-14.1","","-18.0","","73","","","M","6","","30","","","M","103.15","","","","-25","","NA"
"-85.05","73.01","ARCTIC BAY","2400399","2022-12-12 06:00","2022","12","12","06:00","-14.2","","-18.4","","71","","","M","6","","26","","","M","103.10","","","","-24","","NA"
"-85.05","73.01","ARCTIC BAY","2400399","2022-12-12 07:00","2022","12","12","07:00","-14.2","","-18.5","","70","","","M","8","","26","","","M","103.02","","","","-24","","NA"
"-85.05","73.01","ARCTIC BAY","2400399","2022-12-12 08:00","2022","12","12","08:00","-14.2","","-19.1","","67","","","M","8","","30","","","M","102.94","","","","-25","","NA"
"-85.05","73.01","ARCTIC BAY","2400399","2022-12-12 09:00","2022","12","12","09:00","-14.3","","-19.1","","67","","","M","7","","24","","","M","102.91","","","","-24","","NA"
"-85.05","73.01","ARCTIC BAY","2400399","2022-12-12 10:00","2022","12","12","10:00","-14.1","","-19.3","","66","","","M","7","","34","","","M","102.83","","","","-25","","NA"
"-85.05","73.01","ARCTIC BAY","2400399","2022-12-12 11:00","2022","12","12","11:00","-14.0","","-19.2","","65","","","M","6","","30","","","M","102.76","","","","-25","","NA"
"-85.05","73.01","ARCTIC BAY","2400399","2022-12-12 12:00","2022","12","12","12:00","-13.7","","-19.0","","65","","","M","6","","28","","","M","102.71","","","","-24","","NA"
"-85.05","73.01","ARCTIC BAY","2400399","2022-12-12 13:00","2022","12","12","13:00","-13.9","","-19.4","","64","","","M","6","","30","","","M","102.62","","","","-25","","NA"
"-85.05","73.01","ARCTIC BAY","2400399","2022-12-12 14:00","2022","12","12","14:00","-14.2","","-19.5","","65","","","M","6","","28","","","M","102.59","","","","-25","","NA"
"-85.05","73.01","ARCTIC BAY","2400399","2022-12-12 15:00","2022","12","12","15:00","-14.1","","-19.5","","64","","","M","5","","24","","","M","102.55","","","","-24","","NA"
"-85.05","73.01","ARCTIC BAY","2400399","2022-12-12 16:00","2022","12","12","16:00","-14.0","","-19.4","","64","","","M","6","","21","","","M","102.53","","","","-23","","NA"
"-85.05","73.01","ARCTIC BAY","2400399","2022-12-12 17:00","2022","12","12","17:00","-15.5","","-19.5","","72","","","M","","M","4","","","M","102.54","","","","-18","","NA"
"-85.05","73.01","ARCTIC BAY","2400399","2022-12-12 18:00","2022","12","12","18:00","-16.4","","-20.3","","72","","","M","","M","4","","","M","102.52","","","","-19","","NA"
"-85.05","73.01","ARCTIC BAY","2400399","2022-12-12 19:00","2022","12","12","19:00","-17.0","","-20.5","","75","","","M","","","0","","","M","102.51","","","","","","NA"
"-85.05","73.01","ARCTIC BAY","2400399","2022-12-12 20:00","2022","12","12","20:00","-16.3","","-19.9","","74","","","M","","","0","","","M","102.48","","","","","","NA"
"-85.05","73.01","ARCTIC BAY","2400399","2022-12-12 21:00","2022","12","12","21:00","-17.0","","-20.3","","76","","","M","","","0","","","M","102.47","","","","","","NA"
"-85.05","73.01","ARCTIC BAY","2400399","2022-12-12 22:00","2022","12","12","22:00","-16.2","","-19.8","","74","","","M","","M","4","","","M","102.46","","","","-19","","NA"
"-85.05","73.01","ARCTIC BAY","2400399","2022-12-12 23:00","2022","12","12","23:00","-16.6","","-19.7","","77","","","M","","M","4","","","M","102.45","","","","-20","","NA"
"-85.05","73.01","ARCTIC BAY","2400399","2022-12-13 00:00","2022","12","13","00:00","-16.0","","-19.5","","75","","","M","","","0","","","M","102.45","","","","","","NA"
"-85.05","73.01","ARCTIC BAY","2400399","2022-12-13 01:00","2022","12","13","01:00","-16.4","","-19.4","","78","","","M","","","0","","","M","102.46","","","","","","NA"
"-85.05","73.01","ARCTIC BAY","2400399","2022-12-13 02:00","2022","12","13","02:00","-16.3","","-19.0","","80","","","M","30","","15","","","M","102.47","","","","-25","","NA"
"-85.05","73.01","ARCTIC BAY","2400399","2022-12-13 03:00","2022","12","13","03:00","-15.9","","-18.8","","79","","","M","32","","9","","","M","102.51","","","","-22","","NA"
"-85.05","73.01","ARCTIC BAY","2400399","2022-12-13 04:00","2022","12","13","04:00","-15.8","","-18.7","","79","","","M","","","0","","","M","102.54","","","","","","NA"
"-85.05","73.01","ARCTIC BAY","2400399","2022-12-13 05:00","2022","12","13","05:00","-15.5","","-18.2","","80","","","M","","","0","","","M","102.56","","","","","","NA"
"-85.05","73.01","ARCTIC BAY","2400399","2022-12-13 06:00","2022","12","13","06:00","-15.9","","-18.5","","81","","","M","35","","5","","","M","102.59","","","","-20","","NA"
"-85.05","73.01","ARCTIC BAY","2400399","2022-12-13 07:00","2022","12","13","07:00","-15.4","","-18.1","","80","","","M","","M","4","","","M","102.59","","","","-18","","NA"
"-85.05","73.01","ARCTIC BAY","2400399","2022-12-13 08:00","2022","12","13","08:00","-15.5","","-17.8","","83","","","M","","M","4","","","M","102.61","","","","-18","","NA"
"-85.05","73.01","ARCTIC BAY","2400399","2022-12-13 09:00","2022","12","13","09:00","-15.4","","-19.5","","71","","","M","6","","22","","","M","102.62","","","","-25","","NA"
"-85.05","73.01","ARCTIC BAY","2400399","2022-12-13 10:00","2022","12","13","10:00","-15.0","","-19.4","","70","","","M","9","","13","","","M","102.65","","","","-22","","NA"
"-85.05","73.01","ARCTIC BAY","2400399","2022-12-13 11:00","2022","12","13","11:00","-15.4","","-19.7","","70","","","M","7","","22","","","M","102.63","","","","-25","","NA"
"-85.05","73.01","ARCTIC BAY","2400399","2022-12-13 12:00","2022","12","13","12:00","-16.0","","-20.0","","72","","","M","7","","32","","","M","102.60","","","","-28","","NA"
"-85.05","73.01","ARCTIC BAY","2400399","2022-12-13 13:00","2022","12","13","13:00","-16.0","","-20.3","","70","","","M","6","","32","","","M","102.61","","","","-28","","NA"
"-85.05","73.01","ARCTIC BAY","2400399","2022-12-13 14:00","2022","12","13","14:00","-15.6","","-19.8","","71","","","M","7","","24","","","M","102.59","","","","-26","","NA"
"-85.05","73.01","ARCTIC BAY","2400399","2022-12-13 15:00","2022","12","13","15:00","-16.0","","-20.6","","68","","","M","7","","28","","","M","102.59","","","","-27","","NA"
"-85.05","73.01","ARCTIC BAY","2400399","2022-12-13 16:00","2022","12","13","16:00","-15.8","","-20.3","","69","","","M","6","","22","","","M","102.54","","","","-26","","NA"
"-85.05","73.01","ARCTIC BAY","2400399","2022-12-13 17:00","2022","12","13","17:00","-15.1","","-19.7","","69","","","M","7","","24","","","M","102.47","","","","-25","","NA"
"-85.05","73.01","ARCTIC BAY","2400399","2022-12-13 18:00","2022","12","13","18:00","-14.5","","-18.7","","71","","","M","9","","30","","","M","102.39","","","","-25","","NA"
"-85.05","73.01","ARCTIC BAY","2400399","2022-12-13 19:00","2022","12","13","19:00","-13.9","","-18.3","","70","","","M","8","","34","","","M","102.31","","","","-25","","NA"
"-85.05","73.01","ARCTIC BAY","2400399","2022-12-13 20:00","2022","12","13","20:00","-13.7","","-17.1","","76","","","M","7","","41","","","M","102.19","","","","-26","","NA"
"-85.05","73.01","ARCTIC BAY","2400399","2022-12-13 21:00","2022","12","13","21:00","-12.8","","-16.5","","74","","","M","8","","39","","","M","102.10","","","","-24","","NA"
"-85.05","73.01","ARCTIC BAY","2400399","2022-12-13 22:00","2022","12","13","22:00","-12.3","","-17.0","","68","","","M","10","","39","","","M","102.00","","","","-24","","NA"
"-85.05","73.01","ARCTIC BAY","2400399","2022-12-13 23:00","2022","12","13","23:00","-12.2","","-17.0","","68","","","M","8","","34","","","M","101.98","","","","-23","","NA"
"-85.05","73.01","ARCTIC BAY","2400399","2022-12-14 00:00","2022","12","14","00:00","-12.2","","-16.9","","69","","","M","7","","35","","","M","101.85","","","","-23","","NA"
"-85.05","73.01","ARCTIC BAY","2400399","2022-12-14 01:00","2022","12","14","01:00","-12.1","","-16.0","","73","","","M","7","","43","","","M","101.73","","","","-24","","NA"
"-85.05","73.01","ARCTIC BAY","2400399","2022-12-14 02:00","2022","12","14","02:00","-11.9","","-16.2","","71","","","M","7","","39","","","M","101.65","","","","-23","","NA"
"-85.05","73.01","ARCTIC BAY","2400399","2022-12-14 03:00","2022","12","14","03:00","-12.1","","-15.5","","76","","","M","6","","50","","","M","101.54","","","","-25","","NA"
"-85.05","73.01","ARCTIC BAY","2400399","2022-12-14 04:00","2022","12","14","04:00","-11.4","","-15.0","","75","","","M","6","","52","","","M","101.46","","","","-24","","NA"
"-85.05","73.01","ARCTIC BAY","2400399","2022-12-14 05:00","2022","12","14","05:00","-11.1","","-15.2","","72","","","M","6","","45","","","M","101.38","","","","-23","","NA"
"-85.05","73.01","ARCTIC BAY","2400399","2022-12-14 06:00","2022","12","14","06:00","-10.6","","-14.6","","73","","","M","7","","46","","","M","101.29","","","","-22","","NA"
"-85.05","73.01","ARCTIC BAY","2400399","2022-12-14 07:00","2022","12","14","07:00","-10.5","","-14.3","","74","","","M","6","","43","","","M","101.16","","","","-22","","NA"
"-85.05","73.01","ARCTIC BAY","2400399","2022-12-14 08:00","2022","12","14","08:00","-10.2","","-14.2","","73","","","M","6","","39","","","M","101.07","","","","-21","","NA"
"-85.05","73.01","ARCTIC BAY","2400399","2022-12-14 09:00","2022","12","14","09:00","-10.2","","-14.0","","74","","","M","8","","32","","","M","100.99","","","","-20","","NA"
"-85.05","73.01","ARCTIC BAY","2400399","2022-12-14 10:00","2022","12","14","10:00","-10.0","","-13.8","","74","","","M","7","","35","","","M","100.90","","","","-20","","NA"
"-85.05","73.01","ARCTIC BAY","2400399","2022-12-14 11:00","2022","12","14","11:00","-9.8","","-13.6","","74","","","M","9","","34","","","M","100.81","","","","-20","","NA"
"-85.05","73.01","ARCTIC BAY","2400399","2022-12-14 12:00","2022","12","14","12:00","-9.7","","-13.4","","75","","","M","8","","39","","","M","100.72","","","","-20","","NA"
"-85.05","73.01","ARCTIC BAY","2400399","2022-12-14 13:00","2022","12","14","13:00","-9.5","","-13.0","","76","","","M","8","","50","","","M","100.61","","","","-21","","NA"
"-85.05","73.01","ARCTIC BAY","2400399","2022-12-14 14:00","2022","12","14","14:00","-9.3","","-13.1","","74","","","M","8","","43","","","M","100.60","","","","-20","","NA"
"-85.05","73.01","ARCTIC BAY","2400399","2022-12-14 15:00","2022","12","14","15:00","-9.0","","-13.0","","73","","","M","10","","34","","","M","100.59","","","","-19","","NA"
"-85.05","73.01","ARCTIC BAY","2400399","2022-12-14 16:00","2022","12","14","16:00","-9.1","","-12.6","","76","","","M","7","","34","","","M","100.55","","","","-19","","NA"
"-85.05","73.01","ARCTIC BAY","2400399","2022-12-14 17:00","2022","12","14","17:00","-9.2","","-12.4","","78","","","M","8","","37","","","M","100.49","","","","-19","","NA"
"-85.05","73.01","ARCTIC BAY","2400399","2022-12-14 18:00","2022","12","14","18:00","-9.4","","-12.4","","79","","","M","7","","37","","","M","100.46","","","","-20","","NA"
"-85.05","73.01","ARCTIC BAY","2400399","2022-12-14 19:00","2022","12","14","19:00","-9.2","","-12.5","","77","","","M","8","","30","","","M","100.44","","","","-18","","NA"
"-85.05","73.01","ARCTIC BAY","2400399","2022-12-14 20:00","2022","12","14","20:00","-9.1","","-12.6","","76","","","M","10","","34","","","M","100.39","","","","-19","","NA"
"-85.05","73.01","ARCTIC BAY","2400399","2022-12-14 21:00","2022","12","14","21:00","-8.8","","-13.1","","72","","","M","9","","28","","","M","100.31","","","","-18","","NA"
"-85.05","73.01","ARCTIC BAY","2400399","2022-12-14 22:00","2022","12","14","22:00","-8.9","","-13.3","","71","","","M","9","","22","","","M","100.24","","","","-17","","NA"
"-85.05","73.01","ARCTIC BAY","2400399","2022-12-14 23:00","2022","12","14","23:00","-9.0","","-13.0","","73","","","M","8","","26","","","M","100.20","","","","-18","","NA"
"-85.05","73.01","ARCTIC BAY","2400399","2022-12-15 00:00","2022","12","15","00:00","-10.2","","-14.9","","69","","","M","13","","32","","","M","100.22","","","","-20","","NA"
"-85.05","73.01","ARCTIC BAY","2400399","2022-12-15 01:00","2022","12","15","01:00","-11.4","","-16.0","","69","","","M","15","","18","","","M","100.31","","","","-19","","NA"
"-85.05","73.01","ARCTIC BAY","2400399","2022-12-15 02:00","2022","12","15","02:00","-13.3","","-17.9","","69","","","M","16","","18","","","M","100.39","","","","-22","","NA"
"-85.05","73.01","ARCTIC BAY","2400399","2022-12-15 03:00","2022","12","15","03:00","-15.1","","-20.1","","66","","","M","15","","21","","","M","100.48","","","","-25","","NA"
"-85.05","73.01","ARCTIC BAY","2400399","2022-12-15 04:00","2022","12","15","04:00","-16.5","","-21.8","","64","","","M","13","","26","","","M","100.55","","","","-27","","NA"
"-85.05","73.01","ARCTIC BAY","2400399","2022-12-15 05:00","2022","12","15","05:00","-17.9","","-23.6","","62","","","M","12","","24","","","M","100.60","","","","-29","","NA"
"-85.05","73.01","ARCTIC BAY","2400399","2022-12-15 06:00","2022","12","15","06:00","-18.3","","-23.7","","63","","","M","13","","17","","","M","100.67","","","","-28","","NA"
"-85.05","73.01","ARCTIC BAY","2400399","2022-12-15 07:00","2022","12","15","07:00","-18.4","","-22.4","","71","","","M","9","","11","","","M","100.70","","","","-26","","NA"
"-85.05","73.01","ARCTIC BAY","2400399","2022-12-15 08:00","2022","12","15","08:00","-18.6","","-23.1","","69","","","M","9","","11","","","M","100.73","","","","-26","","NA"
"-85.05","73.01","ARCTIC BAY","2400399","2022-12-15 09:00","2022","12","15","09:00","-19.2","","-24.8","","62","","","M","11","","15","","","M","100.76","","","","-28","","NA"
"-85.05","73.01","ARCTIC BAY","2400399","2022-12-15 10:00","2022","12","15","10:00","-19.8","","-24.9","","64","","","M","","M","4","","","M","100.86","","","","-23","","NA"
"-85.05","73.01","ARCTIC BAY","2400399","2022-12-15 11:00","2022","12","15","11:00","-20.5","","-25.0","","68","","","M","","","0","","","M","100.93","","","","","","NA"
"-85.05","73.01","ARCTIC BAY","2400399","2022-12-15 12:00","2022","12","15","12:00","-20.4","","-24.9","","68","","","M","","","0","","","M","100.99","","","","","","NA"
"-85.05","73.01","ARCTIC BAY","2400399","2022-12-15 13:00","2022","12","15","13:00","-20.4","","-26.4","","59","","","M","5","","11","","","M","101.06","","","","-28","","NA"
"-85.05","73.01","ARCTIC BAY","2400399","2022-12-15 14:00","2022","12","15","14:00","-20.8","","-26.4","","61","","","M","6","","17","","","M","101.13","","","","-31","","NA"
"-85.05","73.01","ARCTIC BAY","2400399","2022-12-15 15:00","2022","12","15","15:00","-20.2","","-26.0","","61","","","M","7","","13","","","M","101.19","","","","-29","","NA"
"-85.05","73.01","ARCTIC BAY","2400399","2022-12-15 16:00","2022","12","15","16:00","-19.8","","-25.9","","59","","","M","21","","5","","","M","101.27","","","","-24","","NA"
"-85.05","73.01","ARCTIC BAY","2400399","2022-12-15 17:00","2022","12","15","17:00","-21.3","","-25.9","","67","","","M","30","","9","","","M","101.40","","","","-28","","NA"
"-85.05","73.01","ARCTIC BAY","2400399","2022-12-15 18:00","2022","12","15","18:00","-21.0","","-26.0","","65","","","M","","M","4","","","M","101.46","","","","-25","","NA"
"-85.05","73.01","ARCTIC BAY","2400399","2022-12-15 19:00","2022","12","15","19:00","-19.9","","-25.6","","61","","","M","7","","15","","","M","101.52","","","","-29","","NA"
"-85.05","73.01","ARCTIC BAY","2400399","2022-12-15 20:00","2022","12","15","20:00","-20.8","","-25.1","","69","","","M","16","","9","","","M","101.58","","","","-28","","NA"
"-85.05","73.01","ARCTIC BAY","2400399","2022-12-15 21:00","2022","12","15","21:00","-20.3","","-24.5","","70","","","M","","","0","","","M","101.63","","","","","","NA"
"-85.05","73.01","ARCTIC BAY","2400399","2022-12-15 22:00","2022","12","15","22:00","-21.1","","-24.7","","74","","","M","5","","5","","","M","101.70","","","","-26","","NA"
"-85.05","73.01","ARCTIC BAY","2400399","2022-12-15 23:00","2022","12","15","23:00","-21.0","","-24.8","","72","","","M","23","","5","","","M","101.76","","","","-25","","NA"
"-85.05","73.01","ARCTIC BAY","2400399","2022-12-16 00:00","2022","12","16","00:00","-20.5","","-24.0","","74","","","M","","M","4","","","M","101.80","","","","-24","","NA"
"-85.05","73.01","ARCTIC BAY","2400399","2022-12-16 01:00","2022","12","16","01:00","-20.4","","-23.6","","76","","","M","","M","4","","","M","101.89","","","","-24","","NA"
"-85.05","73.01","ARCTIC BAY","2400399","2022-12-16 02:00","2022","12","16","02:00","-20.0","","-23.4","","75","","","M","31","","8","","","M","101.95","","","","-26","","NA"
"-85.05","73.01","ARCTIC BAY","2400399","2022-12-16 03:00","2022","12","16","03:00","-19.4","","-22.8","","75","","","M","31","","15","","","M","102.01","","","","-28","","NA"
"-85.05","73.01","ARCTIC BAY","2400399","2022-12-16 04:00","2022","12","16","04:00","-19.0","","-22.4","","75","","","M","33","","4","","","M","102.03","","","","-22","","NA"
"-85.05","73.01","ARCTIC BAY","2400399","2022-12-16 05:00","2022","12","16","05:00","-18.4","","-22.3","","72","","","M","9","","11","","","M","102.08","","","","-26","","NA"
"-85.05","73.01","ARCTIC BAY","2400399","2022-12-16 06:00","2022","12","16","06:00","-18.1","","-21.7","","74","","","M","10","","4","","","M","102.14","","","","-21","","NA"
"-85.05","73.01","ARCTIC BAY","2400399","2022-12-16 07:00","2022","12","16","07:00","-17.1","","-20.5","","75","","","M","23","","5","","","M","102.16","","","","-21","","NA"
"-85.05","73.01","ARCTIC BAY","2400399","2022-12-16 08:00","2022","12","16","08:00","-18.4","","-21.3","","78","","","M","33","","5","","","M","102.18","","","","-22","","NA"
"-85.05","73.01","ARCTIC BAY","2400399","2022-12-16 09:00","2022","12","16","09:00","-18.4","","-21.2","","79","","","M","31","","5","","","M","102.21","","","","-22","","NA"
"-85.05","73.01","ARCTIC BAY","2400399","2022-12-16 10:00","2022","12","16","10:00","-18.0","","-21.0","","78","","","M","32","","4","","","M","102.27","","","","-21","","NA"
"-85.05","73.01","ARCTIC BAY","2400399","2022-12-16 11:00","2022","12","16","11:00","-18.6","","-21.3","","79","","","M","31","","13","","","M","102.26","","","","-27","","NA"
"-85.05","73.01","ARCTIC BAY","2400399","2022-12-16 12:00","2022","12","16","12:00","-18.2","","-21.3","","77","","","M","","","0","","","M","102.29","","","","","","NA"
"-85.05","73.01","ARCTIC BAY","2400399","2022-12-16 13:00","2022","12","16","13:00","-18.3","","-21.3","","78","","","M","30","","4","","","M","102.30","","","","-22","","NA"
"-85.05","73.01","ARCTIC BAY","2400399","2022-12-16 14:00","2022","12","16","14:00","-18.3","","-21.5","","77","","","M","28","","5","","","M","102.33","","","","-22","","NA"
"-85.05","73.01","ARCTIC BAY","2400399","2022-12-16 15:00","2022","12","16","15:00","-18.2","","-21.3","","77","","","M","","","0","","","M","102.35","","","","","","NA"
"-85.05","73.01","ARCTIC BAY","2400399","2022-12-16 16:00","2022","12","16","16:00","-18.1","","-21.5","","75","","","M","","","0","","","M","102.37","","","","","","NA"
"-85.05","73.01","ARCTIC BAY","2400399","2022-12-16 17:00","2022","12","16","17:00","-18.4","","-21.5","","77","","","M","30","","8","","","M","102.35","","","","-24","","NA"
"-85.05","73.01","ARCTIC BAY","2400399","2022-12-16 18:00","2022","12","16","18:00","-18.4","","-21.5","","77","","","M","29","","8","","","M","102.32","","","","-24","","NA"
"-85.05","73.01","ARCTIC BAY","2400399","2022-12-16 19:00","2022","12","16","19:00","-18.6","","-21.4","","79","","","M","31","","11","","","M","102.26","","","","-26","","NA"
"-85.05","73.01","ARCTIC BAY","2400399","2022-12-16 20:00","2022","12","16","20:00","-18.9","","-21.4","","81","","","M","31","","21","","","M","102.23","","","","-29","","NA"
"-85.05","73.01","ARCTIC BAY","2400399","2022-12-16 21:00","2022","12","16","21:00","-18.9","","-21.5","","80","","","M","32","","17","","","M","102.18","","","","-28","","NA"
"-85.05","73.01","ARCTIC BAY","2400399","2022-12-16 22:00","2022","12","16","22:00","-18.6","","-21.4","","79","","","M","9","","5","","","M","102.08","","","","-23","","NA"
"-85.05","73.01","ARCTIC BAY","2400399","2022-12-16 23:00","2022","12","16","23:00","-18.3","","-21.7","","75","","","M","6","","13","","","M","102.01","","","","-26","","NA"
"-85.05","73.01","ARCTIC BAY","2400399","2022-12-17 00:00","2022","12","17","00:00","-18.5","","-21.4","","78","","","M","","","0","","","M","101.92","","","","","","NA"
"-85.05","73.01","ARCTIC BAY","2400399","2022-12-17 01:00","2022","12","17","01:00","-17.9","","-21.5","","74","","","M","","M","11","","","M","101.79","","","","-25","","NA"
"-85.05","73.01","ARCTIC BAY","2400399","2022-12-17 02:00","2022","12","17","02:00","-16.8","","-20.9","","71","","","M","7","","18","","","M","101.70","","","","-26","","NA"
"-85.05","73.01","ARCTIC BAY","2400399","2022-12-17 03:00","2022","12","17","03:00","-17.3","","-20.3","","78","","","M","","M","9","","","M","101.63","","","","-24","","NA"
"-85.05","73.01","ARCTIC BAY","2400399","2022-12-17 04:00","2022","12","17","04:00","-15.2","","-19.1","","72","","","M","4","","39","","","M","101.49","","","","-28","","NA"
"-85.05","73.01","ARCTIC BAY","2400399","2022-12-17 05:00","2022","12","17","05:00","-15.0","","-18.7","","74","","","M","7","","26","","","M","101.43","","","","-25","","NA"
"-85.05","73.01","ARCTIC BAY","2400399","2022-12-17 06:00","2022","12","17","06:00","-14.3","","-18.1","","73","","","M","5","","34","","","M","101.31","","","","-26","","NA"
"-85.05","73.01","ARCTIC BAY","2400399","2022-12-17 07:00","2022","12","17","07:00","-13.8","","-17.8","","72","","","M","6","","30","","","M","101.25","","","","-24","","NA"
"-85.05","73.01","ARCTIC BAY","2400399","2022-12-17 08:00","2022","12","17","08:00","-13.2","","-17.2","","72","","","M","6","","32","","","M","101.17","","","","-24","","NA"
"-85.05","73.01","ARCTIC BAY","2400399","2022-12-17 09:00","2022","12","17","09:00","-13.2","","-16.8","","75","","","M","8","","24","","","M","101.10","","","","-23","","NA"
"-85.05","73.01","ARCTIC BAY","2400399","2022-12-17 10:00","2022","12","17","10:00","-12.6","","-16.6","","72","","","M","6","","32","","","M","101.05","","","","-23","","NA"
"-85.05","73.01","ARCTIC BAY","2400399","2022-12-17 11:00","2022","12","17","11:00","-12.6","","-16.3","","74","","","M","10","","13","","","M","101.04","","","","-19","","NA"
"-85.05","73.01","ARCTIC BAY","2400399","2022-12-17 12:00","2022","12","17","12:00","-12.3","","-16.2","","73","","","M","3","","15","","","M","101.00","","","","-20","","NA"
"-85.05","73.01","ARCTIC BAY","2400399","2022-12-17 13:00","2022","12","17","13:00","-12.1","","-16.0","","73","","","M","11","","15","","","M","100.99","","","","-19","","NA"
"-85.05","73.01","ARCTIC BAY","2400399","2022-12-17 14:00","2022","12","17","14:00","-12.2","","-15.6","","76","","","M","11","","13","","","M","100.99","","","","-19","","NA"
"-85.05","73.01","ARCTIC BAY","2400399","2022-12-17 15:00","2022","12","17","15:00","-11.4","","-15.7","","71","","","M","8","","24","","","M","100.98","","","","-20","","NA"
"-85.05","73.01","ARCTIC BAY","2400399","2022-12-17 16:00","2022","12","17","16:00","-11.2","","-14.9","","74","","","M","9","","15","","","M","101.01","","","","-18","","NA"
"-85.05","73.01","ARCTIC BAY","2400399","2022-12-17 17:00","2022","12","17","17:00","-11.7","","-14.2","","82","","","M","","","0","","","M","101.05","","","","","","NA"
"-85.05","73.01","ARCTIC BAY","2400399","2022-12-17 18:00","2022","12","17","18:00","-10.9","","-14.3","","76","","","M","12","","15","","","M","101.10","","","","-18","","NA"
"-85.05","73.01","ARCTIC BAY","2400399","2022-12-17 19:00","2022","12","17","19:00","-10.9","","-14.3","","76","","","M","14","","22","","","M","101.18","","","","-19","","NA"
"-85.05","73.01","ARCTIC BAY","2400399","2022-12-17 20:00","2022","12","17","20:00","-11.4","","-15.2","","74","","","M","13","","21","","","M","101.27","","","","-20","","NA"
"-85.05","73.01","ARCTIC BAY","2400399","2022-12-17 21:00","2022","12","17","21:00","-12.0","","-15.9","","73","","","M","14","","22","","","M","101.35","","","","-21","","NA"
"-85.05","73.01","ARCTIC BAY","2400399","2022-12-17 22:00","2022","12","17","22:00","-13.0","","-16.9","","73","","","M","12","","18","","","M","101.42","","","","-21","","NA"
"-85.05","73.01","ARCTIC BAY","2400399","2022-12-17 23:00","2022","12","17","23:00","-14.2","","-18.3","","72","","","M","13","","15","","","M","101.50","","","","-22","","NA"
"-85.05","73.01","ARCTIC BAY","2400399","2022-12-18 00:00","2022","12","18","00:00","-16.2","","-19.2","","78","","","M","20","","9","","","M","101.57","","","","-22","","NA"
"-85.05","73.01","ARCTIC BAY","2400399","2022-12-18 01:00","2022","12","18","01:00","-17.8","","-20.6","","79","","","M","","","0","","","M","101.67","","","","","","NA"
"-85.05","73.01","ARCTIC BAY","2400399","2022-12-18 02:00","2022","12","18","02:00","-19.3","","-22.1","","79","","","M","11","","8","","","M","101.70","","","","-25","","NA"
"-85.05","73.01","ARCTIC BAY","2400399","2022-12-18 03:00","2022","12","18","03:00","-21.4","","-24.1","","79","","","M","9","","9","","","M","101.76","","","","-28","","NA"
"-85.05","73.01","ARCTIC BAY","2400399","2022-12-18 04:00","2022","12","18","04:00","-20.8","","-24.1","","75","","","M","","M","4","","","M","101.84","","","","-24","","NA"
"-85.05","73.01","ARCTIC BAY","2400399","2022-12-18 05:00","2022","12","18","05:00","-22.1","","-24.8","","79","","","M","","M","4","","","M","101.90","","","","-26","","NA"
"-85.05","73.01","ARCTIC BAY","2400399","2022-12-18 06:00","2022","12","18","06:00","-23.5","","-26.1","","80","","","M","9","","8","","","M","101.93","","","","-30","","NA"
"-85.05","73.01","ARCTIC BAY","2400399","2022-12-18 07:00","2022","12","18","07:00","-24.1","","-26.8","","79","","","M","","M","9","","","M","101.97","","","","-32","","NA"
"-85.05","73.01","ARCTIC BAY","2400399","2022-12-18 08:00","2022","12","18","08:00","-23.7","","-26.4","","79","","","M","27","","13","","","M","101.98","","","","-33","","NA"
"-85.05","73.01","ARCTIC BAY","2400399","2022-12-18 09:00","2022","12","18","09:00","-23.1","","-25.5","","81","","","M","23","","9","","","M","101.99","","","","-30","","NA"
"-85.05","73.01","ARCTIC BAY","2400399","2022-12-18 10:00","2022","12","18","10:00","-22.7","","-25.0","","82","","","M","25","","17","","","M","101.97","","","","-33","","NA"
"-85.05","73.01","ARCTIC BAY","2400399","2022-12-18 11:00","2022","12","18","11:00","-22.7","","-25.0","","82","","","M","23","","9","","","M","101.97","","","","-30","","NA"
"-85.05","73.01","ARCTIC BAY","2400399","2022-12-18 12:00","2022","12","18","12:00","-22.5","","-24.7","","83","","","M","23","","5","","","M","101.95","","","","-27","","NA"
"-85.05","73.01","ARCTIC BAY","2400399","2022-12-18 13:00","2022","12","18","13:00","-22.4","","-24.7","","82","","","M","","M","4","","","M","101.92","","","","-26","","NA"
"-85.05","73.01","ARCTIC BAY","2400399","2022-12-18 14:00","2022","12","18","14:00","-22.2","","-24.5","","82","","","M","","","0","","","M","101.87","","","","","","NA"
"-85.05","73.01","ARCTIC BAY","2400399","2022-12-18 15:00","2022","12","18","15:00","-22.1","","-24.5","","81","","","M","","","0","","","M","101.83","","","","","","NA"
"-85.05","73.01","ARCTIC BAY","2400399","2022-12-18 16:00","2022","12","18","16:00","-21.9","","-24.3","","81","","","M","","","0","","","M","101.85","","","","","","NA"
"-85.05","73.01","ARCTIC BAY","2400399","2022-12-18 17:00","2022","12","18","17:00","-21.6","","-24.0","","81","","","M","","M","4","","","M","101.83","","","","-25","","NA"
"-85.05","73.01","ARCTIC BAY","2400399","2022-12-18 18:00","2022","12","18","18:00","-21.7","","-24.1","","81","","","M","","","0","","","M","101.80","","","","","","NA"
"-85.05","73.01","ARCTIC BAY","2400399","2022-12-18 19:00","2022","12","18","19:00","-21.6","","-24.0","","81","","","M","","","0","","","M","101.82","","","","","","NA"
"-85.05","73.01","ARCTIC BAY","2400399","2022-12-18 20:00","2022","12","18","20:00","-21.5","","-23.9","","81","","","M","","","0","","","M","101.80","","","","","","NA"
"-85.05","73.01","ARCTIC BAY","2400399","2022-12-18 21:00","2022","12","18","21:00","-21.6","","-23.9","","82","","","M","","","0","","","M","101.85","","","","","","NA"
"-85.05","73.01","ARCTIC BAY","2400399","2022-12-18 22:00","2022","12","18","22:00","-21.4","","-24.1","","79","","","M","8","","4","","","M","101.88","","","","-25","","NA"
"-85.05","73.01","ARCTIC BAY","2400399","2022-12-18 23:00","2022","12","18","23:00","-20.1","","-23.4","","75","","","M","10","","5","","","M","101.93","","","","-24","","NA"
"-85.05","73.01","ARCTIC BAY","2400399","2022-12-19 00:00","2022","12","19","00:00","-21.7","","-24.7","","77","","","M","24","","8","","","M","102.08","","","","-28","","NA"
"-85.05","73.01","ARCTIC BAY","2400399","2022-12-19 01:00","2022","12","19","01:00","-22.1","","-25.6","","74","","","M","","M","4","","","M","102.18","","","","-26","","NA"
"-85.05","73.01","ARCTIC BAY","2400399","2022-12-19 02:00","2022","12","19","02:00","-22.4","","-27.7","","63","","","M","","M","21","","","M","102.29","","","","-34","","NA"
"-85.05","73.01","ARCTIC BAY","2400399","2022-12-19 03:00","2022","12","19","03:00","-23.4","","-27.6","","69","","","M","","M","26","","","M","102.39","","","","-36","","NA"
"-85.05","73.01","ARCTIC BAY","2400399","2022-12-19 04:00","2022","12","19","04:00","-24.0","","-28.7","","66","","","M","12","","34","","","M","102.52","","","","-39","","NA"
"-85.05","73.01","ARCTIC BAY","2400399","2022-12-19 05:00","2022","12","19","05:00","-24.6","","-29.6","","64","","","M","13","","26","","","M","102.67","","","","-38","","NA"
"-85.05","73.01","ARCTIC BAY","2400399","2022-12-19 06:00","2022","12","19","06:00","-25.2","","-31.1","","59","","","M","11","","26","","","M","102.73","","","","-39","","NA"
"-85.05","73.01","ARCTIC BAY","2400399","2022-12-19 07:00","2022","12","19","07:00","-26.1","","-31.2","","63","","","M","11","","21","","","M","102.84","","","","-38","","NA"
"-85.05","73.01","ARCTIC BAY","2400399","2022-12-19 08:00","2022","12","19","08:00","-26.5","","-30.9","","67","","","M","12","","30","","","M","102.91","","","","-41","","NA"
"-85.05","73.01","ARCTIC BAY","2400399","2022-12-19 09:00","2022","12","19","09:00","-26.7","","-31.3","","66","","","M","13","","37","","","M","102.99","","","","-43","","NA"
"-85.05","73.01","ARCTIC BAY","2400399","2022-12-19 10:00","2022","12","19","10:00","-26.7","","-32.0","","62","","","M","12","","22","","","M","103.09","","","","-39","","NA"
"-85.05","73.01","ARCTIC BAY","2400399","2022-12-19 11:00","2022","12","19","11:00","-27.2","","-32.1","","64","","","M","13","","32","","","M","103.16","","","","-42","","NA"
"-85.05","73.01","ARCTIC BAY","2400399","2022-12-19 12:00","2022","12","19","12:00","-26.7","","-31.6","","64","","","M","12","","35","","","M","103.24","","","","-42","","NA"
"-85.05","73.01","ARCTIC BAY","2400399","2022-12-19 13:00","2022","12","19","13:00","-26.6","","-31.5","","64","","","M","12","","32","","","M","103.29","","","","-42","","NA"
"-85.05","73.01","ARCTIC BAY","2400399","2022-12-19 14:00","2022","12","19","14:00","-26.3","","-31.3","","64","","","M","11","","26","","","M","103.40","","","","-40","","NA"
"-85.05","73.01","ARCTIC BAY","2400399","2022-12-19 15:00","2022","12","19","15:00","-26.3","","-30.6","","68","","","M","12","","37","","","M","103.45","","","","-42","","NA"
"-85.05","73.01","ARCTIC BAY","2400399","2022-12-19 16:00","2022","12","19","16:00","-25.7","","-30.8","","63","","","M","12","","30","","","M","103.50","","","","-40","","NA"
"-85.05","73.01","ARCTIC BAY","2400399","2022-12-19 17:00","2022","12","19","17:00","-25.7","","-30.7","","64","","","M","12","","30","","","M","103.55","","","","-40","","NA"
"-85.05","73.01","ARCTIC BAY","2400399","2022-12-19 18:00","2022","12","19","18:00","-25.3","","-30.5","","63","","","M","13","","34","","","M","103.57","","","","-40","","NA"
"-85.05","73.01","ARCTIC BAY","2400399","2022-12-19 19:00","2022","12","19","19:00","-25.2","","-30.7","","61","","","M","12","","37","","","M","103.57","","","","-41","","NA"
"-85.05","73.01","ARCTIC BAY","2400399","2022-12-19 20:00","2022","12","19","20:00","-25.1","","-31.3","","57","","","M","14","","22","","","M","103.58","","","","-37","","NA"
"-85.05","73.01","ARCTIC BAY","2400399","2022-12-19 21:00","2022","12","19","21:00","-24.6","","-30.7","","58","","","M","11","","26","","","M","103.59","","","","-38","","NA"
"-85.05","73.01","ARCTIC BAY","2400399","2022-12-19 22:00","2022","12","19","22:00","-24.7","","-30.9","","57","","","M","14","","30","","","M","103.66","","","","-39","","NA"
"-85.05","73.01","ARCTIC BAY","2400399","2022-12-19 23:00","2022","12","19","23:00","-26.3","","-31.9","","60","","","M","13","","21","","","M","103.71","","","","-39","","NA"
"-85.05","73.01","ARCTIC BAY","2400399","2022-12-20 00:00","2022","12","20","00:00","-26.1","","-32.2","","57","","","M","8","","17","","","M","103.71","","","","-37","","NA"
"-85.05","73.01","ARCTIC BAY","2400399","2022-12-20 01:00","2022","12","20","01:00","-25.7","","-31.9","","57","","","M","10","","17","","","M","103.67","","","","-37","","NA"
"-85.05","73.01","ARCTIC BAY","2400399","2022-12-20 02:00","2022","12","20","02:00","-25.6","","-31.3","","60","","","M","13","","13","","","M","103.68","","","","-35","","NA"
"-85.05","73.01","ARCTIC BAY","2400399","2022-12-20 03:00","2022","12","20","03:00","-25.9","","-31.5","","60","","","M","9","","11","","","M","103.68","","","","-35","","NA"
"-85.05","73.01","ARCTIC BAY","2400399","2022-12-20 04:00","2022","12","20","04:00","-26.3","","-30.6","","68","","","M","15","","30","","","M","103.72","","","","-41","","NA"
"-85.05","73.01","ARCTIC BAY","2400399","2022-12-20 05:00","2022","12","20","05:00","-26.2","","-32.0","","59","","","M","14","","21","","","M","103.75","","","","-39","","NA"
"-85.05","73.01","ARCTIC BAY","2400399","2022-12-20 06:00","2022","12","20","06:00","-26.2","","-31.5","","62","","","M","13","","22","","","M","103.73","","","","-39","","NA"
"-85.05","73.01","ARCTIC BAY","2400399","2022-12-20 07:00","2022","12","20","07:00","-27.3","","-32.7","","61","","","M","14","","18","","","M","103.75","","","","-39","","NA"
"-85.05","73.01","ARCTIC BAY","2400399","2022-12-20 08:00","2022","12","20","08:00","-28.5","","-33.3","","64","","","M","28","","8","","","M","103.77","","","","-36","","NA"
"-85.05","73.01","ARCTIC BAY","2400399","2022-12-20 09:00","2022","12","20","09:00","-28.8","","-34.1","","62","","","M","","M","4","","","M","103.77","","","","-33","","NA"
"-85.05","73.01","ARCTIC BAY","2400399","2022-12-20 10:00","2022","12","20","10:00","-29.2","","-34.2","","63","","","M","","","0","","","M","103.78","","","","","","NA"
"-85.05","73.01","ARCTIC BAY","2400399","2022-12-20 11:00","2022","12","20","11:00","-29.5","","-34.1","","65","","","M","","","0","","","M","103.77","","","","","","NA"
"-85.05","73.01","ARCTIC BAY","2400399","2022-12-20 12:00","2022","12","20","12:00","-30.4","","-35.2","","64","","","M","","M","4","","","M","103.78","","","","-35","","NA"
"-85.05","73.01","ARCTIC BAY","2400399","2022-12-20 13:00","2022","12","20","13:00","-29.0","","-32.9","","70","","","M","","","0","","","M","103.77","","","","","","NA"
"-85.05","73.01","ARCTIC BAY","2400399","2022-12-20 14:00","2022","12","20","14:00","-29.7","","-33.4","","71","","","M","","M","4","","","M","103.78","","","","-34","","NA"
"-85.05","73.01","ARCTIC BAY","2400399","2022-12-20 15:00","2022","12","20","15:00","-30.3","","-34.1","","70","","","M","26","","5","","","M","103.80","","","","-36","","NA"
"-85.05","73.01","ARCTIC BAY","2400399","2022-12-20 16:00","2022","12","20","16:00","-30.6","","-34.1","","72","","","M","","","0","","","M","103.82","","","","","","NA"
"-85.05","73.01","ARCTIC BAY","2400399","2022-12-20 17:00","2022","12","20","17:00","-31.0","","-34.9","","69","","","M","28","","9","","","M","103.84","","","","-40","","NA"
"-85.05","73.01","ARCTIC BAY","2400399","2022-12-20 18:00","2022","12","20","18:00","-31.8","","-35.7","","69","","","M","28","","8","","","M","103.88","","","","-40","","NA"
"-85.05","73.01","ARCTIC BAY","2400399","2022-12-20 19:00","2022","12","20","19:00","-32.5","","-36.4","","69","","","M","","M","8","","","M","103.86","","","","-41","","NA"
"-85.05","73.01","ARCTIC BAY","2400399","2022-12-20 20:00","2022","12","20","20:00","-32.4","","-36.3","","69","","","M","13","","8","","","M","103.85","","","","-41","","NA"
"-85.05","73.01","ARCTIC BAY","2400399","2022-12-20 21:00","2022","12","20","21:00","-32.9","","-37.1","","67","","","M","3","","5","","","M","103.86","","","","-39","","NA"
"-85.05","73.01","ARCTIC BAY","2400399","2022-12-20 22:00","2022","12","20","22:00","-32.2","","-36.4","","67","","","M","","","0","","","M","103.85","","","","","","NA"
"-85.05","73.01","ARCTIC BAY","2400399","2022-12-20 23:00","2022","12","20","23:00","-32.7","","-37.3","","65","","","M","1","","4","","","M","103.84","","","","-37","","NA"
"-85.05","73.01","ARCTIC BAY","2400399","2022-12-21 00:00","2022","12","21","00:00","-32.6","","-36.4","","70","","","M","","M","4","","","M","103.87","","","","-37","","NA"
"-85.05","73.01","ARCTIC BAY","2400399","2022-12-21 01:00","2022","12","21","01:00","-32.0","","-36.1","","68","","","M","","","0","","","M","103.92","","","","","","NA"
"-85.05","73.01","ARCTIC BAY","2400399","2022-12-21 02:00","2022","12","21","02:00","-31.4","","-35.5","","68","","","M","","","0","","","M","103.92","","","","","","NA"
"-85.05","73.01","ARCTIC BAY","2400399","2022-12-21 03:00","2022","12","21","03:00","-33.2","","-37.4","","67","","","M","6","","4","","","M","103.93","","","","-38","","NA"
"-85.05","73.01","ARCTIC BAY","2400399","2022-12-21 04:00","2022","12","21","04:00","-33.6","","-38.1","","65","","","M","6","","5","","","M","103.94","","","","-40","","NA"
"-85.05","73.01","ARCTIC BAY","2400399","2022-12-21 05:00","2022","12","21","05:00","-32.6","","-36.8","","67","","","M","","","0","","","M","103.97","","","","","","NA"
"-85.05","73.01","ARCTIC BAY","2400399","2022-12-21 06:00","2022","12","21","06:00","-33.5","","-37.7","","67","","","M","7","","5","","","M","103.95","","","","-40","","NA"
"-85.05","73.01","ARCTIC BAY","2400399","2022-12-21 07:00","2022","12","21","07:00","-33.3","","-37.5","","67","","","M","","M","4","","","M","103.97","","","","-38","","NA"
"-85.05","73.01","ARCTIC BAY","2400399","2022-12-21 08:00","2022","12","21","08:00","-32.6","","-36.8","","67","","","M","","","0","","","M","103.99","","","","","","NA"
"-85.05","73.01","ARCTIC BAY","2400399","2022-12-21 09:00","2022","12","21","09:00","-33.4","","-37.3","","69","","","M","11","","5","","","M","103.98","","","","-39","","NA"
"-85.05","73.01","ARCTIC BAY","2400399","2022-12-21 10:00","2022","12","21","10:00","-33.0","","-36.9","","69","","","M","11","","4","","","M","104.00","","","","-38","","NA"
"-85.05","73.01","ARCTIC BAY","2400399","2022-12-21 11:00","2022","12","21","11:00","-33.4","","-37.4","","68","","","M","","","0","","","M","104.03","","","","","","NA"
"-85.05","73.01","ARCTIC BAY","2400399","2022-12-21 12:00","2022","12","21","12:00","-33.7","","-37.7","","68","","","M","8","","9","","","M","104.01","","","","-43","","NA"
"-85.05","73.01","ARCTIC BAY","2400399","2022-12-21 13:00","2022","12","21","13:00","-34.9","","-38.9","","68","","","M","7","","8","","","M","104.02","","","","-44","","NA"
"-85.05","73.01","ARCTIC BAY","2400399","2022-12-21 14:00","2022","12","21","14:00","-33.3","","-37.2","","69","","","M","","","0","","","M","104.05","","","","","","NA"
"-85.05","73.01","ARCTIC BAY","2400399","2022-12-21 15:00","2022","12","21","15:00","-33.5","","-37.2","","70","","","M","","","0","","","M","104.06","","","","","","NA"
"-85.05","73.01","ARCTIC BAY","2400399","2022-12-21 16:00","2022","12","21","16:00","-34.3","","-38.2","","68","","","M","7","","4","","","M","104.05","","","","-39","","NA"
"-85.05","73.01","ARCTIC BAY","2400399","2022-12-21 17:00","2022","12","21","17:00","-33.2","","-37.4","","67","","","M","","","0","","","M","104.06","","","","","","NA"
"-85.05","73.01","ARCTIC BAY","2400399","2022-12-21 18:00","2022","12","21","18:00","-34.0","","-38.0","","68","","","M","9","","5","","","M","104.03","","","","-40","","NA"
"-85.05","73.01","ARCTIC BAY","2400399","2022-12-21 19:00","2022","12","21","19:00","-33.8","","-38.0","","67","","","M","","M","4","","","M","104.03","","","","-39","","NA"
"-85.05","73.01","ARCTIC BAY","2400399","2022-12-21 20:00","2022","12","21","20:00","-33.3","","-37.6","","66","","","M","","","0","","","M","104.02","","","","","","NA"
"-85.05","73.01","ARCTIC BAY","2400399","2022-12-21 21:00","2022","12","21","21:00","-33.3","","-37.8","","65","","","M","","","0","","","M","103.99","","","","","","NA"
"-85.05","73.01","ARCTIC BAY","2400399","2022-12-21 22:00","2022","12","21","22:00","-33.2","","-37.7","","65","","","M","","","0","","","M","103.99","","","","","","NA"
"-85.05","73.01","ARCTIC BAY","2400399","2022-12-21 23:00","2022","12","21","23:00","-33.6","","-37.9","","66","","","M","30","","5","","","M","104.00","","","","-40","","NA"
"-85.05","73.01","ARCTIC BAY","2400399","2022-12-22 00:00","2022","12","22","00:00","-33.4","","-37.6","","67","","","M","","M","4","","","M","104.00","","","","-38","","NA"
"-85.05","73.01","ARCTIC BAY","2400399","2022-12-22 01:00","2022","12","22","01:00","-33.3","","-37.5","","67","","","M","","","0","","","M","103.98","","","","","","NA"
"-85.05","73.01","ARCTIC BAY","2400399","2022-12-22 02:00","2022","12","22","02:00","-32.7","","-36.9","","67","","","M","","","0","","","M","103.98","","","","","","NA"
"-85.05","73.01","ARCTIC BAY","2400399","2022-12-22 03:00","2022","12","22","03:00","-33.4","","-37.4","","68","","","M","10","","5","","","M","103.97","","","","-39","","NA"
"-85.05","73.01","ARCTIC BAY","2400399","2022-12-22 04:00","2022","12","22","04:00","-33.4","","-37.7","","66","","","M","26","","4","","","M","103.99","","","","-38","","NA"
"-85.05","73.01","ARCTIC BAY","2400399","2022-12-22 05:00","2022","12","22","05:00","-32.7","","-36.8","","68","","","M","","","0","","","M","103.99","","","","","","NA"
"-85.05","73.01","ARCTIC BAY","2400399","2022-12-22 06:00","2022","12","22","06:00","-32.6","","-36.8","","67","","","M","","","0","","","M","104.02","","","","","","NA"
"-85.05","73.01","ARCTIC BAY","2400399","2022-12-22 07:00","2022","12","22","07:00","-32.7","","-36.9","","67","","","M","","","0","","","M","104.04","","","","","","NA"
"-85.05","73.01","ARCTIC BAY","2400399","2022-12-22 08:00","2022","12","22","08:00","-32.4","","-36.8","","66","","","M","","","0","","","M","104.03","","","","","","NA"
"-85.05","73.01","ARCTIC BAY","2400399","2022-12-22 09:00","2022","12","22","09:00","-32.4","","-36.7","","67","","","M","","","0","","","M","104.03","","","","","","NA"
"-85.05","73.01","ARCTIC BAY","2400399","2022-12-22 10:00","2022","12","22","10:00","-32.2","","-36.6","","66","","","M","9","","4","","","M","104.04","","","","-37","","NA"
"-85.05","73.01","ARCTIC BAY","2400399","2022-12-22 11:00","2022","12","22","11:00","-32.0","","-36.3","","67","","","M","","","0","","","M","104.05","","","","","","NA"
"-85.05","73.01","ARCTIC BAY","2400399","2022-12-22 12:00","2022","12","22","12:00","-31.5","","-35.9","","66","","","M","","","0","","","M","104.09","","","","","","NA"
"-85.05","73.01","ARCTIC BAY","2400399","2022-12-22 13:00","2022","12","22","13:00","-32.1","","-36.3","","67","","","M","","","0","","","M","104.10","","","","","","NA"
"-85.05","73.01","ARCTIC BAY","2400399","2022-12-22 14:00","2022","12","22","14:00","-31.9","","-36.1","","67","","","M","","","0","","","M","104.10","","","","","","NA"
"-85.05","73.01","ARCTIC BAY","2400399","2022-12-22 15:00","2022","12","22","15:00","-31.2","","-35.6","","66","","","M","","","0","","","M","104.13","","","","","","NA"
"-85.05","73.01","ARCTIC BAY","2400399","2022-12-22 16:00","2022","12","22","16:00","-32.2","","-36.3","","68","","","M","","","0","","","M","104.16","","","","","","NA"
"-85.05","73.01","ARCTIC BAY","2400399","2022-12-22 17:00","2022","12","22","17:00","-31.5","","-35.6","","68","","","M","","","0","","","M","104.17","","","","","","NA"
"-85.05","73.01","ARCTIC BAY","2400399","2022-12-22 18:00","2022","12","22","18:00","-31.2","","-35.5","","67","","","M","","","0","","","M","104.17","","","","","","NA"
"-85.05","73.01","ARCTIC BAY","2400399","2022-12-22 19:00","2022","12","22","19:00","-31.4","","-35.5","","68","","","M","","","0","","","M","104.19","","","","","","NA"
"-85.05","73.01","ARCTIC BAY","2400399","2022-12-22 20:00","2022","12","22","20:00","-30.7","","-35.1","","66","","","M","","","0","","","M","104.21","","","","","","NA"
"-85.05","73.01","ARCTIC BAY","2400399","2022-12-22 21:00","2022","12","22","21:00","-31.1","","-35.6","","66","","","M","","","0","","","M","104.22","","","","","","NA"
"-85.05","73.01","ARCTIC BAY","2400399","2022-12-22 22:00","2022","12","22","22:00","-30.4","","-35.0","","65","","","M","","","0","","","M","104.25","","","","","","NA"
"-85.05","73.01","ARCTIC BAY","2400399","2022-12-22 23:00","2022","12","22","23:00","-29.7","","-34.5","","64","","","M","","","0","","","M","104.27","","","","","","NA"
"-85.05","73.01","ARCTIC BAY","2400399","2022-12-23 00:00","2022","12","23","00:00","-30.8","","-35.3","","65","","","M","","","0","","","M","104.27","","","","","","NA"
"-85.05","73.01","ARCTIC BAY","2400399","2022-12-23 01:00","2022","12","23","01:00","-29.6","","-34.4","","64","","","M","","","0","","","M","104.29","","","","","","NA"
"-85.05","73.01","ARCTIC BAY","2400399","2022-12-23 02:00","2022","12","23","02:00","-31.2","","-35.3","","68","","","M","11","","4","","","M","104.30","","","","-36","","NA"
"-85.05","73.01","ARCTIC BAY","2400399","2022-12-23 03:00","2022","12","23","03:00","-30.0","","-34.6","","65","","","M","","","0","","","M","104.30","","","","","","NA"
"-85.05","73.01","ARCTIC BAY","2400399","2022-12-23 04:00","2022","12","23","04:00","-29.8","","-34.5","","65","","","M","","","0","","","M","104.30","","","","","","NA"
"-85.05","73.01","ARCTIC BAY","2400399","2022-12-23 05:00","2022","12","23","05:00","-30.6","","-35.3","","64","","","M","","","0","","","M","104.27","","","","","","NA"
"-85.05","73.01","ARCTIC BAY","2400399","2022-12-23 06:00","2022","12","23","06:00","-30.1","","-34.6","","66","","","M","","M","4","","","M","104.26","","","","-35","","NA"
"-85.05","73.01","ARCTIC BAY","2400399","2022-12-23 07:00","2022","12","23","07:00","-29.3","","-34.4","","62","","","M","11","","4","","","M","104.26","","","","-34","","NA"
"-85.05","73.01","ARCTIC BAY","2400399","2022-12-23 08:00","2022","12","23","08:00","-29.4","","-34.0","","65","","","M","","","0","","","M","104.26","","","","","","NA"
"-85.05","73.01","ARCTIC BAY","2400399","2022-12-23 09:00","2022","12","23","09:00","-30.0","","-34.5","","66","","","M","8","","4","","","M","104.25","","","","-35","","NA"
"-85.05","73.01","ARCTIC BAY","2400399","2022-12-23 10:00","2022","12","23","10:00","-30.7","","-36.0","","61","","","M","","","0","","","M","104.23","","","","","","NA"
"-85.05","73.01","ARCTIC BAY","2400399","2022-12-23 11:00","2022","12","23","11:00","-29.7","","-34.5","","64","","","M","","","0","","","M","104.21","","","","","","NA"
"-85.05","73.01","ARCTIC BAY","2400399","2022-12-23 12:00","2022","12","23","12:00","-29.1","","-34.1","","63","","","M","11","","4","","","M","104.17","","","","-34","","NA"
"-85.05","73.01","ARCTIC BAY","2400399","2022-12-23 13:00","2022","12","23","13:00","-28.8","","-34.0","","62","","","M","","","0","","","M","104.13","","","","","","NA"
"-85.05","73.01","ARCTIC BAY","2400399","2022-12-23 14:00","2022","12","23","14:00","-29.6","","-34.4","","64","","","M","11","","4","","","M","104.11","","","","-34","","NA"
"-85.05","73.01","ARCTIC BAY","2400399","2022-12-23 15:00","2022","12","23","15:00","-28.6","","-33.8","","62","","","M","","","0","","","M","104.08","","","","","","NA"
"-85.05","73.01","ARCTIC BAY","2400399","2022-12-23 16:00","2022","12","23","16:00","-28.6","","-33.8","","62","","","M","","","0","","","M","104.04","","","","","","NA"
"-85.05","73.01","ARCTIC BAY","2400399","2022-12-23 17:00","2022","12","23","17:00","-29.1","","-34.1","","63","","","M","","","0","","","M","104.01","","","","","","NA"
"-85.05","73.01","ARCTIC BAY","2400399","2022-12-23 18:00","2022","12","23","18:00","-28.8","","-34.3","","60","","","M","9","","4","","","M","104.01","","","","-33","","NA"
"-85.05","73.01","ARCTIC BAY","2400399","2022-12-23 19:00","2022","12","23","19:00","-28.5","","-33.7","","62","","","M","","","0","","","M","103.97","","","","","","NA"
"-85.05","73.01","ARCTIC BAY","2400399","2022-12-23 20:00","2022","12","23","20:00","-27.7","","-33.5","","59","","","M","","","0","","","M","103.93","","","","","","NA"
"-85.05","73.01","ARCTIC BAY","2400399","2022-12-23 21:00","2022","12","23","21:00","-28.7","","-33.9","","62","","","M","","","0","","","M","103.89","","","","","","NA"
"-85.05","73.01","ARCTIC BAY","2400399","2022-12-23 22:00","2022","12","23","22:00","-29.8","","-34.4","","65","","","M","11","","5","","","M","103.85","","","","-35","","NA"
"-85.05","73.01","ARCTIC BAY","2400399","2022-12-23 23:00","2022","12","23","23:00","-28.0","","-33.6","","60","","","M","","","0","","","M","103.80","","","","","","NA"
"-85.05","73.01","ARCTIC BAY","2400399","2022-12-24 00:00","2022","12","24","00:00","-27.4","","-33.2","","59","","","M","","","0","","","M","103.77","","","","","","NA"
"-85.05","73.01","ARCTIC BAY","2400399","2022-12-24 01:00","2022","12","24","01:00","-28.4","","-33.7","","61","","","M","7","","5","","","M","103.71","","","","-34","","NA"
"-85.05","73.01","ARCTIC BAY","2400399","2022-12-24 02:00","2022","12","24","02:00","-29.0","","-33.8","","64","","","M","","","0","","","M","103.68","","","","","","NA"
"-85.05","73.01","ARCTIC BAY","2400399","2022-12-24 03:00","2022","12","24","03:00","-27.7","","-33.1","","61","","","M","","","0","","","M","103.64","","","","","","NA"
"-85.05","73.01","ARCTIC BAY","2400399","2022-12-24 04:00","2022","12","24","04:00","-28.2","","-33.1","","64","","","M","","","0","","","M","103.62","","","","","","NA"
"-85.05","73.01","ARCTIC BAY","2400399","2022-12-24 05:00","2022","12","24","05:00","-27.9","","-32.9","","63","","","M","30","","4","","","M","103.60","","","","-32","","NA"
"-85.05","73.01","ARCTIC BAY","2400399","2022-12-24 06:00","2022","12","24","06:00","-27.7","","-32.4","","65","","","M","","","0","","","M","103.57","","","","","","NA"
"-85.05","73.01","ARCTIC BAY","2400399","2022-12-24 07:00","2022","12","24","07:00","-27.9","","-32.0","","69","","","M","","","0","","","M","103.53","","","","","","NA"
"-85.05","73.01","ARCTIC BAY","2400399","2022-12-24 08:00","2022","12","24","08:00","-27.5","","-32.8","","62","","","M","","","0","","","M","103.52","","","","","","NA"
"-85.05","73.01","ARCTIC BAY","2400399","2022-12-24 09:00","2022","12","24","09:00","-27.1","","-32.5","","61","","","M","","M","4","","","M","103.48","","","","-31","","NA"
"-85.05","73.01","ARCTIC BAY","2400399","2022-12-24 10:00","2022","12","24","10:00","-26.8","","-32.2","","61","","","M","","","0","","","M","103.45","","","","","","NA"
"-85.05","73.01","ARCTIC BAY","2400399","2022-12-24 11:00","2022","12","24","11:00","-27.4","","-32.3","","64","","","M","","M","4","","","M","103.41","","","","-32","","NA"
"-85.05","73.01","ARCTIC BAY","2400399","2022-12-24 12:00","2022","12","24","12:00","-26.8","","-32.1","","62","","","M","10","","4","","","M","103.37","","","","-31","","NA"
"-85.05","73.01","ARCTIC BAY","2400399","2022-12-24 13:00","2022","12","24","13:00","-26.8","","-31.9","","63","","","M","","","0","","","M","103.31","","","","","","NA"
"-85.05","73.01","ARCTIC BAY","2400399","2022-12-24 14:00","2022","12","24","14:00","-26.3","","-31.8","","61","","","M","","","0","","","M","103.28","","","","","","NA"
"-85.05","73.01","ARCTIC BAY","2400399","2022-12-24 15:00","2022","12","24","15:00","-26.3","","-31.6","","62","","","M","","","0","","","M","103.23","","","","","","NA"
"-85.05","73.01","ARCTIC BAY","2400399","2022-12-24 16:00","2022","12","24","16:00","-26.1","","-31.2","","63","","","M","","","0","","","M","103.18","","","","","","NA"
"-85.05","73.01","ARCTIC BAY","2400399","2022-12-24 17:00","2022","12","24","17:00","-26.1","","-31.4","","62","","","M","","M","4","","","M","103.15","","","","-30","","NA"
"-85.05","73.01","ARCTIC BAY","2400399","2022-12-24 18:00","2022","12","24","18:00","-26.5","","-31.3","","65","","","M","","","0","","","M","103.14","","","","","","NA"
"-85.05","73.01","ARCTIC BAY","2400399","2022-12-24 19:00","2022","12","24","19:00","-26.4","","-30.7","","68","","","M","","","0","","","M","103.09","","","","","","NA"
"-85.05","73.01","ARCTIC BAY","2400399","2022-12-24 20:00","2022","12","24","20:00","-26.8","","-31.1","","68","","","M","","","0","","","M","103.04","","","","","","NA"
"-85.05","73.01","ARCTIC BAY","2400399","2022-12-24 21:00","2022","12","24","21:00","-26.7","","-31.3","","66","","","M","10","","5","","","M","102.99","","","","-32","","NA"
"-85.05","73.01","ARCTIC BAY","2400399","2022-12-24 22:00","2022","12","24","22:00","-26.6","","-31.0","","67","","","M","29","","4","","","M","102.94","","","","-31","","NA"
"-85.05","73.01","ARCTIC BAY","2400399","2022-12-24 23:00","2022","12","24","23:00","-26.2","","-31.0","","65","","","M","","","0","","","M","102.91","","","","","","NA"
"-85.05","73.01","ARCTIC BAY","2400399","2022-12-25 00:00","2022","12","25","00:00","-26.6","","-31.6","","63","","","M","10","","5","","","M","102.89","","","","-32","","NA"
"-85.05","73.01","ARCTIC BAY","2400399","2022-12-25 01:00","2022","12","25","01:00","-27.1","","-32.0","","64","","","M","","","0","","","M","102.87","","","","","","NA"
"-85.05","73.01","ARCTIC BAY","2400399","2022-12-25 02:00","2022","12","25","02:00","-27.0","","-31.7","","65","","","M","","","0","","","M","102.81","","","","","","NA"
"-85.05","73.01","ARCTIC BAY","2400399","2022-12-25 03:00","2022","12","25","03:00","-27.4","","-32.0","","66","","","M","","M","4","","","M","102.77","","","","-32","","NA"
"-85.05","73.01","ARCTIC BAY","2400399","2022-12-25 04:00","2022","12","25","04:00","-28.2","","-32.3","","69","","","M","","M","4","","","M","102.78","","","","-33","","NA"
"-85.05","73.01","ARCTIC BAY","2400399","2022-12-25 05:00","2022","12","25","05:00","-27.3","","-31.9","","66","","","M","","","0","","","M","102.74","","","","","","NA"
"-85.05","73.01","ARCTIC BAY","2400399","2022-12-25 06:00","2022","12","25","06:00","-27.0","","-32.1","","63","","","M","","","0","","","M","102.72","","","","","","NA"
"-85.05","73.01","ARCTIC BAY","2400399","2022-12-25 07:00","2022","12","25","07:00","-27.7","","-32.6","","64","","","M","","","0","","","M","102.67","","","","","","NA"
"-85.05","73.01","ARCTIC BAY","2400399","2022-12-25 08:00","2022","12","25","08:00","-28.3","","-33.0","","65","","","M","","","0","","","M","102.67","","","","","","NA"
"-85.05","73.01","ARCTIC BAY","2400399","2022-12-25 09:00","2022","12","25","09:00","-28.6","","-33.0","","67","","","M","","M","4","","","M","102.62","","","","-33","","NA"
"-85.05","73.01","ARCTIC BAY","2400399","2022-12-25 10:00","2022","12","25","10:00","-28.9","","-32.9","","69","","","M","11","","5","","","M","102.64","","","","-34","","NA"
"-85.05","73.01","ARCTIC BAY","2400399","2022-12-25 11:00","2022","12","25","11:00","-28.5","","-32.9","","67","","","M","28","","4","","","M","102.62","","","","-33","","NA"
"-85.05","73.01","ARCTIC BAY","2400399","2022-12-25 12:00","2022","12","25","12:00","-28.1","","-32.3","","68","","","M","","","0","","","M","102.57","","","","","","NA"
"-85.05","73.01","ARCTIC BAY","2400399","2022-12-25 13:00","2022","12","25","13:00","-29.3","","-33.8","","66","","","M","28","","5","","","M","102.56","","","","-35","","NA"
"-85.05","73.01","ARCTIC BAY","2400399","2022-12-25 14:00","2022","12","25","14:00","-29.5","","-34.0","","66","","","M","","M","4","","","M","102.58","","","","-34","","NA"
"-85.05","73.01","ARCTIC BAY","2400399","2022-12-25 15:00","2022","12","25","15:00","-29.3","","-33.7","","66","","","M","6","","4","","","M","102.55","","","","-34","","NA"
"-85.05","73.01","ARCTIC BAY","2400399","2022-12-25 16:00","2022","12","25","16:00","-28.3","","-32.4","","69","","","M","","","0","","","M","102.47","","","","","","NA"
"-85.05","73.01","ARCTIC BAY","2400399","2022-12-25 17:00","2022","12","25","17:00","-29.0","","-33.2","","68","","","M","","M","4","","","M","102.48","","","","-33","","NA"
"-85.05","73.01","ARCTIC BAY","2400399","2022-12-25 18:00","2022","12","25","18:00","-29.6","","-33.7","","69","","","M","11","","11","","","M","102.42","","","","-39","","NA"
"-85.05","73.01","ARCTIC BAY","2400399","2022-12-25 19:00","2022","12","25","19:00","-28.3","","-32.7","","67","","","M","","M","4","","","M","102.34","","","","-33","","NA"
"-85.05","73.01","ARCTIC BAY","2400399","2022-12-25 20:00","2022","12","25","20:00","-28.1","","-32.3","","68","","","M","9","","4","","","M","102.33","","","","-32","","NA"
"-85.05","73.01","ARCTIC BAY","2400399","2022-12-25 21:00","2022","12","25","21:00","-28.0","","-32.2","","68","","","M","","","0","","","M","102.31","","","","","","NA"
"-85.05","73.01","ARCTIC BAY","2400399","2022-12-25 22:00","2022","12","25","22:00","-28.5","","-32.4","","70","","","M","","M","4","","","M","102.27","","","","-33","","NA"
"-85.05","73.01","ARCTIC BAY","2400399","2022-12-25 23:00","2022","12","25","23:00","-27.8","","-32.0","","68","","","M","10","","5","","","M","102.21","","","","-33","","NA"
"-85.05","73.01","ARCTIC BAY","2400399","2022-12-26 00:00","2022","12","26","00:00","-28.2","","-32.1","","70","","","M","7","","4","","","M","102.15","","","","-33","","NA"
"-85.05","73.01","ARCTIC BAY","2400399","2022-12-26 01:00","2022","12","26","01:00","-27.7","","-31.6","","70","","","M","","","0","","","M","102.11","","","","","","NA"
"-85.05","73.01","ARCTIC BAY","2400399","2022-12-26 02:00","2022","12","26","02:00","-27.5","","-31.5","","69","","","M","","","0","","","M","102.05","","","","","","NA"
"-85.05","73.01","ARCTIC BAY","2400399","2022-12-26 03:00","2022","12","26","03:00","-26.7","","-30.5","","71","","","M","","M","5","","","M","102.00","","","","-32","","NA"
"-85.05","73.01","ARCTIC BAY","2400399","2022-12-26 04:00","2022","12","26","04:00","-27.4","","-31.0","","72","","","M","9","","4","","","M","101.97","","","","-32","","NA"
"-85.05","73.01","ARCTIC BAY","2400399","2022-12-26 05:00","2022","12","26","05:00","-27.1","","-30.7","","72","","","M","","","0","","","M","101.97","","","","","","NA"
"-85.05","73.01","ARCTIC BAY","2400399","2022-12-26 06:00","2022","12","26","06:00","-26.4","","-29.9","","73","","","M","","M","4","","","M","101.89","","","","-31","","NA"
"-85.05","73.01","ARCTIC BAY","2400399","2022-12-26 07:00","2022","12","26","07:00","-26.9","","-30.5","","72","","","M","9","","9","","","M","101.87","","","","-35","","NA"
"-85.05","73.01","ARCTIC BAY","2400399","2022-12-26 08:00","2022","12","26","08:00","-26.4","","-30.0","","72","","","M","11","","8","","","M","101.81","","","","-34","","NA"
"-85.05","73.01","ARCTIC BAY","2400399","2022-12-26 09:00","2022","12","26","09:00","-26.3","","-30.0","","72","","","M","","M","4","","","M","101.80","","","","-30","","NA"
"-85.05","73.01","ARCTIC BAY","2400399","2022-12-26 10:00","2022","12","26","10:00","-26.8","","-30.4","","72","","","M","11","","5","","","M","101.75","","","","-32","","NA"
"-85.05","73.01","ARCTIC BAY","2400399","2022-12-26 11:00","2022","12","26","11:00","-27.0","","-30.6","","72","","","M","","M","4","","","M","101.67","","","","-31","","NA"
"-85.05","73.01","ARCTIC BAY","2400399","2022-12-26 12:00","2022","12","26","12:00","-26.7","","-30.4","","72","","","M","","","0","","","M","101.59","","","","","","NA"
"-85.05","73.01","ARCTIC BAY","2400399","2022-12-26 13:00","2022","12","26","13:00","-26.7","","-30.2","","73","","","M","","","0","","","M","101.55","","","","","","NA"
"-85.05","73.01","ARCTIC BAY","2400399","2022-12-26 14:00","2022","12","26","14:00","-27.8","","-31.4","","72","","","M","6","","4","","","M","101.53","","","","-32","","NA"
"-85.05","73.01","ARCTIC BAY","2400399","2022-12-26 15:00","2022","12","26","15:00","-26.9","","-30.5","","72","","","M","","","0","","","M","101.51","","","","","","NA"
"-85.05","73.01","ARCTIC BAY","2400399","2022-12-26 16:00","2022","12","26","16:00","-26.5","","-30.0","","73","","","M","","","0","","","M","101.46","","","","","","NA"
"-85.05","73.01","ARCTIC BAY","2400399","2022-12-26 17:00","2022","12","26","17:00","-26.8","","-30.3","","73","","","M","","","0","","","M","101.45","","","","","","NA"
"-85.05","73.01","ARCTIC BAY","2400399","2022-12-26 18:00","2022","12","26","18:00","-26.4","","-29.9","","73","","","M","","","0","","","M","101.40","","","","","","NA"
"-85.05","73.01","ARCTIC BAY","2400399","2022-12-26 19:00","2022","12","26","19:00","-26.5","","-30.1","","72","","","M","","","0","","","M","101.40","","","","","","NA"
"-85.05","73.01","ARCTIC BAY","2400399","2022-12-26 20:00","2022","12","26","20:00","-26.1","","-29.6","","73","","","M","","","0","","","M","101.34","","","","","","NA"
"-85.05","73.01","ARCTIC BAY","2400399","2022-12-26 21:00","2022","12","26","21:00","-26.5","","-30.1","","72","","","M","","M","4","","","M","101.30","","","","-31","","NA"
"-85.05","73.01","ARCTIC BAY","2400399","2022-12-26 22:00","2022","12","26","22:00","-26.3","","-30.0","","72","","","M","10","","5","","","M","101.24","","","","-31","","NA"
"-85.05","73.01","ARCTIC BAY","2400399","2022-12-26 23:00","2022","12","26","23:00","-25.7","","-29.4","","72","","","M","13","","4","","","M","101.21","","","","-30","","NA"
"-85.05","73.01","ARCTIC BAY","2400399","2022-12-27 00:00","2022","12","27","00:00","-25.8","","-29.3","","73","","","M","7","","4","","","M","101.16","","","","-30","","NA"
"-85.05","73.01","ARCTIC BAY","2400399","2022-12-27 01:00","2022","12","27","01:00","-26.0","","-29.5","","73","","","M","","","0","","","M","101.14","","","","","","NA"
"-85.05","73.01","ARCTIC BAY","2400399","2022-12-27 02:00","2022","12","27","02:00","-26.3","","-29.6","","74","","","M","9","","5","","","M","101.14","","","","-31","","NA"
"-85.05","73.01","ARCTIC BAY","2400399","2022-12-27 03:00","2022","12","27","03:00","-25.5","","-28.9","","74","","","M","","M","4","","","M","101.13","","","","-30","","NA"
"-85.05","73.01","ARCTIC BAY","2400399","2022-12-27 04:00","2022","12","27","04:00","-25.7","","-29.1","","74","","","M","9","","9","","","M","101.09","","","","-33","","NA"
"-85.05","73.01","ARCTIC BAY","2400399","2022-12-27 05:00","2022","12","27","05:00","-25.5","","-28.9","","74","","","M","","","0","","","M","101.07","","","","","","NA"
"-85.05","73.01","ARCTIC BAY","2400399","2022-12-27 06:00","2022","12","27","06:00","-25.1","","-29.0","","71","","","M","9","","4","","","M","101.06","","","","-29","","NA"
"-85.05","73.01","ARCTIC BAY","2400399","2022-12-27 07:00","2022","12","27","07:00","-26.0","","-29.3","","75","","","M","9","","4","","","M","101.02","","","","-30","","NA"
"-85.05","73.01","ARCTIC BAY","2400399","2022-12-27 08:00","2022","12","27","08:00","-25.1","","-28.3","","75","","","M","","","0","","","M","101.00","","","","","","NA"
"-85.05","73.01","ARCTIC BAY","2400399","2022-12-27 09:00","2022","12","27","09:00","-25.0","","-28.4","","74","","","M","","","0","","","M","101.02","","","","","","NA"
"-85.05","73.01","ARCTIC BAY","2400399","2022-12-27 10:00","2022","12","27","10:00","-25.1","","-28.5","","74","","","M","","","0","","","M","101.03","","","","","","NA"
"-85.05","73.01","ARCTIC BAY","2400399","2022-12-27 11:00","2022","12","27","11:00","-25.6","","-29.0","","74","","","M","","M","4","","","M","101.00","","","","-30","","NA"
"-85.05","73.01","ARCTIC BAY","2400399","2022-12-27 12:00","2022","12","27","12:00","-26.4","","-29.9","","73","","","M","1","","4","","","M","101.00","","","","-31","","NA"
"-85.05","73.01","ARCTIC BAY","2400399","2022-12-27 13:00","2022","12","27","13:00","-25.4","","-28.8","","74","","","M","","","0","","","M","100.98","","","","","","NA"
"-85.05","73.01","ARCTIC BAY","2400399","2022-12-27 14:00","2022","12","27","14:00","-25.0","","-28.5","","73","","","M","","M","4","","","M","100.98","","","","-29","","NA"
"-85.05","73.01","ARCTIC BAY","2400399","2022-12-27 15:00","2022","12","27","15:00","-26.4","","-29.5","","76","","","M","","","0","","","M","101.03","","","","","","NA"
"-85.05","73.01","ARCTIC BAY","2400399","2022-12-27 16:00","2022","12","27","16:00","-26.1","","-29.2","","76","","","M","","","0","","","M","101.05","","","","","","NA"
"-85.05","73.01","ARCTIC BAY","2400399","2022-12-27 17:00","2022","12","27","17:00","-27.0","","-29.9","","77","","","M","","","0","","","M","101.07","","","","","","NA"
"-85.05","73.01","ARCTIC BAY","2400399","2022-12-27 18:00","2022","12","27","18:00","-27.1","","-30.3","","75","","","M","","M","4","","","M","101.09","","","","-31","","NA"
"-85.05","73.01","ARCTIC BAY","2400399","2022-12-27 19:00","2022","12","27","19:00","-27.4","","-30.5","","75","","","M","","M","4","","","M","101.10","","","","-32","","NA"
"-85.05","73.01","ARCTIC BAY","2400399","2022-12-27 20:00","2022","12","27","20:00","-27.4","","-30.4","","76","","","M","","","0","","","M","101.12","","","","","","NA"
"-85.05","73.01","ARCTIC BAY","2400399","2022-12-27 21:00","2022","12","27","21:00","-27.5","","-30.5","","76","","","M","13","","5","","","M","101.12","","","","-33","","NA"
"-85.05","73.01","ARCTIC BAY","2400399","2022-12-27 22:00","2022","12","27","22:00","-28.1","","-31.4","","74","","","M","32","","5","","","M","101.14","","","","-33","","NA"
"-85.05","73.01","ARCTIC BAY","2400399","2022-12-27 23:00","2022","12","27","23:00","-29.3","","-32.5","","75","","","M","","","0","","","M","101.13","","","","","","NA"
"-85.05","73.01","ARCTIC BAY","2400399","2022-12-28 00:00","2022","12","28","00:00","-27.7","","-31.0","","74","","","M","","","0","","","M","101.13","","","","","","NA"
"-85.05","73.01","ARCTIC BAY","2400399","2022-12-28 01:00","2022","12","28","01:00","-28.9","","-32.0","","75","","","M","","M","4","","","M","101.17","","","","-33","","NA"
"-85.05","73.01","ARCTIC BAY","2400399","2022-12-28 02:00","2022","12","28","02:00","-28.2","","-31.6","","73","","","M","","","0","","","M","101.20","","","","","","NA"
"-85.05","73.01","ARCTIC BAY","2400399","2022-12-28 03:00","2022","12","28","03:00","-29.1","","-32.3","","74","","","M","7","","4","","","M","101.25","","","","-34","","NA"
"-85.05","73.01","ARCTIC BAY","2400399","2022-12-28 04:00","2022","12","28","04:00","-29.4","","-32.8","","73","","","M","","","0","","","M","101.28","","","","","","NA"
"-85.05","73.01","ARCTIC BAY","2400399","2022-12-28 05:00","2022","12","28","05:00","-29.2","","-32.5","","74","","","M","","","0","","","M","101.31","","","","","","NA"
"-85.05","73.01","ARCTIC BAY","2400399","2022-12-28 06:00","2022","12","28","06:00","-29.4","","-32.5","","75","","","M","","M","4","","","M","101.33","","","","-34","","NA"
"-85.05","73.01","ARCTIC BAY","2400399","2022-12-28 07:00","2022","12","28","07:00","-30.6","","-34.1","","72","","","M","6","","5","","","M","101.32","","","","-36","","NA"
"-85.05","73.01","ARCTIC BAY","2400399","2022-12-28 08:00","2022","12","28","08:00","-30.4","","-34.2","","70","","","M","","M","5","","","M","101.34","","","","-36","","NA"
"-85.05","73.01","ARCTIC BAY","2400399","2022-12-28 09:00","2022","12","28","09:00","-30.0","","-34.1","","69","","","M","","","0","","","M","101.36","","","","","","NA"
"-85.05","73.01","ARCTIC BAY","2400399","2022-12-28 10:00","2022","12","28","10:00","-30.4","","-34.4","","69","","","M","5","","8","","","M","101.36","","","","-38","","NA"
"-85.05","73.01","ARCTIC BAY","2400399","2022-12-28 11:00","2022","12","28","11:00","-29.7","","-34.0","","67","","","M","33","","8","","","M","101.39","","","","-38","","NA"
"-85.05","73.01","ARCTIC BAY","2400399","2022-12-28 12:00","2022","12","28","12:00","-30.1","","-34.3","","68","","","M","","M","4","","","M","101.42","","","","-35","","NA"
"-85.05","73.01","ARCTIC BAY","2400399","2022-12-28 13:00","2022","12","28","13:00","-30.0","","-33.9","","70","","","M","","M","4","","","M","101.47","","","","-35","","NA"
"-85.05","73.01","ARCTIC BAY","2400399","2022-12-28 14:00","2022","12","28","14:00","-30.9","","-35.0","","68","","","M","4","","9","","","M","101.49","","","","-40","","NA"
"-85.05","73.01","ARCTIC BAY","2400399","2022-12-28 15:00","2022","12","28","15:00","-30.1","","-34.6","","66","","","M","","","0","","","M","101.54","","","","","","NA"
"-85.05","73.01","ARCTIC BAY","2400399","2022-12-28 16:00","2022","12","28","16:00","-30.5","","-34.9","","66","","","M","4","","9","","","M","101.60","","","","-39","","NA"
"-85.05","73.01","ARCTIC BAY","2400399","2022-12-28 17:00","2022","12","28","17:00","-29.5","","-34.0","","66","","","M","2","","5","","","M","101.62","","","","-35","","NA"
"-85.05","73.01","ARCTIC BAY","2400399","2022-12-28 18:00","2022","12","28","18:00","-31.4","","-35.7","","67","","","M","5","","9","","","M","101.62","","","","-40","","NA"
"-85.05","73.01","ARCTIC BAY","2400399","2022-12-28 19:00","2022","12","28","19:00","-31.1","","-35.2","","68","","","M","3","","5","","","M","101.66","","","","-37","","NA"
"-85.05","73.01","ARCTIC BAY","2400399","2022-12-28 20:00","2022","12","28","20:00","-30.7","","-35.1","","66","","","M","4","","8","","","M","101.67","","","","-39","","NA"
"-85.05","73.01","ARCTIC BAY","2400399","2022-12-28 21:00","2022","12","28","21:00","-30.2","","-34.3","","68","","","M","","","0","","","M","101.68","","","","","","NA"
"-85.05","73.01","ARCTIC BAY","2400399","2022-12-28 22:00","2022","12","28","22:00","-31.2","","-35.7","","66","","","M","14","","5","","","M","101.67","","","","-37","","NA"
"-85.05","73.01","ARCTIC BAY","2400399","2022-12-28 23:00","2022","12","28","23:00","-31.2","","-35.3","","68","","","M","","","0","","","M","101.68","","","","","","NA"
"-85.05","73.01","ARCTIC BAY","2400399","2022-12-29 00:00","2022","12","29","00:00","-30.6","","-34.9","","67","","","M","","","0","","","M","101.72","","","","","","NA"
"-85.05","73.01","ARCTIC BAY","2400399","2022-12-29 01:00","2022","12","29","01:00","-31.3","","-35.4","","68","","","M","","","0","","","M","101.75","","","","","","NA"
"-85.05","73.01","ARCTIC BAY","2400399","2022-12-29 02:00","2022","12","29","02:00","-31.0","","-35.2","","68","","","M","","M","4","","","M","101.80","","","","-36","","NA"
"-85.05","73.01","ARCTIC BAY","2400399","2022-12-29 03:00","2022","12","29","03:00","-30.7","","-35.0","","67","","","M","","","0","","","M","101.81","","","","","","NA"
"-85.05","73.01","ARCTIC BAY","2400399","2022-12-29 04:00","2022","12","29","04:00","-31.0","","-35.6","","65","","","M","27","","8","","","M","101.84","","","","-39","","NA"
"-85.05","73.01","ARCTIC BAY","2400399","2022-12-29 05:00","2022","12","29","05:00","-30.9","","-35.2","","67","","","M","13","","5","","","M","101.88","","","","-37","","NA"
"-85.05","73.01","ARCTIC BAY","2400399","2022-12-29 06:00","2022","12","29","06:00","-31.6","","-35.9","","67","","","M","","M","4","","","M","101.88","","","","-36","","NA"
"-85.05","73.01","ARCTIC BAY","2400399","2022-12-29 07:00","2022","12","29","07:00","-30.7","","-35.2","","66","","","M","3","","5","","","M","101.86","","","","-36","","NA"
"-85.05","73.01","ARCTIC BAY","2400399","2022-12-29 08:00","2022","12","29","08:00","-30.4","","-35.2","","64","","","M","","M","4","","","M","101.86","","","","-35","","NA"
"-85.05","73.01","ARCTIC BAY","2400399","2022-12-29 09:00","2022","12","29","09:00","-30.9","","-35.2","","67","","","M","18","","5","","","M","101.85","","","","-37","","NA"
"-85.05","73.01","ARCTIC BAY","2400399","2022-12-29 10:00","2022","12","29","10:00","-30.8","","-34.9","","68","","","M","","","0","","","M","101.83","","","","","","NA"
"-85.05","73.01","ARCTIC BAY","2400399","2022-12-29 11:00","2022","12","29","11:00","-29.9","","-34.4","","66","","","M","","M","4","","","M","101.83","","","","-34","","NA"
"-85.05","73.01","ARCTIC BAY","2400399","2022-12-29 12:00","2022","12","29","12:00","-30.4","","-34.6","","67","","","M","","","0","","","M","101.78","","","","","","NA"
"-85.05","73.01","ARCTIC BAY","2400399","2022-12-29 13:00","2022","12","29","13:00","-31.7","","-35.3","","71","","","M","14","","5","","","M","101.82","","","","-38","","NA"
"-85.05","73.01","ARCTIC BAY","2400399","2022-12-29 14:00","2022","12","29","14:00","-30.4","","-34.2","","70","","","M","","M","4","","","M","101.82","","","","-35","","NA"
"-85.05","73.01","ARCTIC BAY","2400399","2022-12-29 15:00","2022","12","29","15:00","-30.2","","-34.5","","67","","","M","","M","4","","","M","101.82","","","","-35","","NA"
"-85.05","73.01","ARCTIC BAY","2400399","2022-12-29 16:00","2022","12","29","16:00","-30.8","","-34.6","","70","","","M","4","","4","","","M","101.83","","","","-35","","NA"
"-85.05","73.01","ARCTIC BAY","2400399","2022-12-29 17:00","2022","12","29","17:00","-30.0","","-34.3","","67","","","M","","","0","","","M","101.84","","","","","","NA"
"-85.05","73.01","ARCTIC BAY","2400399","2022-12-29 18:00","2022","12","29","18:00","-30.2","","-34.3","","69","","","M","","","0","","","M","101.83","","","","","","NA"
"-85.05","73.01","ARCTIC BAY","2400399","2022-12-29 19:00","2022","12","29","19:00","-31.6","","-36.0","","66","","","M","7","","5","","","M","101.81","","","","-37","","NA"
"-85.05","73.01","ARCTIC BAY","2400399","2022-12-29 20:00","2022","12","29","20:00","-31.2","","-35.2","","69","","","M","","","0","","","M","101.77","","","","","","NA"
"-85.05","73.01","ARCTIC BAY","2400399","2022-12-29 21:00","2022","12","29","21:00","-31.2","","-35.5","","67","","","M","4","","4","","","M","101.72","","","","-36","","NA"
"-85.05","73.01","ARCTIC BAY","2400399","2022-12-29 22:00","2022","12","29","22:00","-30.7","","-34.5","","70","","","M","","","0","","","M","101.72","","","","","","NA"
"-85.05","73.01","ARCTIC BAY","2400399","2022-12-29 23:00","2022","12","29","23:00","-30.6","","-34.7","","68","","","M","","M","4","","","M","101.68","","","","-35","","NA"
"-85.05","73.01","ARCTIC BAY","2400399","2022-12-30 00:00","2022","12","30","00:00","-29.9","","-34.2","","67","","","M","","","0","","","M","101.70","","","","","","NA"
"-85.05","73.01","ARCTIC BAY","2400399","2022-12-30 01:00","2022","12","30","01:00","-31.2","","-35.1","","70","","","M","","M","4","","","M","101.70","","","","-36","","NA"
"-85.05","73.01","ARCTIC BAY","2400399","2022-12-30 02:00","2022","12","30","02:00","-30.1","","-34.1","","69","","","M","","","0","","","M","101.68","","","","","","NA"
"-85.05","73.01","ARCTIC BAY","2400399","2022-12-30 03:00","2022","12","30","03:00","-30.3","","-34.7","","66","","","M","7","","5","","","M","101.68","","","","-36","","NA"
"-85.05","73.01","ARCTIC BAY","2400399","2022-12-30 04:00","2022","12","30","04:00","-30.2","","-34.5","","67","","","M","10","","5","","","M","101.68","","","","-36","","NA"
"-85.05","73.01","ARCTIC BAY","2400399","2022-12-30 05:00","2022","12","30","05:00","-30.8","","-35.1","","67","","","M","7","","4","","","M","101.65","","","","-35","","NA"
"-85.05","73.01","ARCTIC BAY","2400399","2022-12-30 06:00","2022","12","30","06:00","-29.7","","-34.0","","67","","","M","","","0","","","M","101.63","","","","","","NA"
"-85.05","73.01","ARCTIC BAY","2400399","2022-12-30 07:00","2022","12","30","07:00","-29.8","","-34.0","","68","","","M","13","","4","","","M","101.59","","","","-34","","NA"
"-85.05","73.01","ARCTIC BAY","2400399","2022-12-30 08:00","2022","12","30","08:00","-29.6","","-33.6","","69","","","M","11","","9","","","M","101.54","","","","-38","","NA"
"-85.05","73.01","ARCTIC BAY","2400399","2022-12-30 09:00","2022","12","30","09:00","-29.6","","-33.8","","68","","","M","10","","5","","","M","101.52","","","","-35","","NA"
"-85.05","73.01","ARCTIC BAY","2400399","2022-12-30 10:00","2022","12","30","10:00","-30.0","","-33.7","","71","","","M","","","0","","","M","101.49","","","","","","NA"
"-85.05","73.01","ARCTIC BAY","2400399","2022-12-30 11:00","2022","12","30","11:00","-29.9","","-33.5","","72","","","M","","","0","","","M","101.47","","","","","","NA"
"-85.05","73.01","ARCTIC BAY","2400399","2022-12-30 12:00","2022","12","30","12:00","-29.8","","-33.6","","70","","","M","","","0","","","M","101.48","","","","","","NA"
"-85.05","73.01","ARCTIC BAY","2400399","2022-12-30 13:00","2022","12","30","13:00","-31.2","","-35.1","","69","","","M","8","","4","","","M","101.47","","","","-36","","NA"
"-85.05","73.01","ARCTIC BAY","2400399","2022-12-30 14:00","2022","12","30","14:00","-31.8","","-36.2","","66","","","M","","M","4","","","M","101.49","","","","-36","","NA"
"-85.05","73.01","ARCTIC BAY","2400399","2022-12-30 15:00","2022","12","30","15:00","-31.6","","-36.0","","66","","","M","5","","5","","","M","101.46","","","","-37","","NA"
"-85.05","73.01","ARCTIC BAY","2400399","2022-12-30 16:00","2022","12","30","16:00","-30.7","","-35.6","","63","","","M","","M","4","","","M","101.44","","","","-35","","NA"
"-85.05","73.01","ARCTIC BAY","2400399","2022-12-30 17:00","2022","12","30","17:00","-31.5","","-35.8","","67","","","M","34","","5","","","M","101.45","","","","-37","","NA"
"-85.05","73.01","ARCTIC BAY","2400399","2022-12-30 18:00","2022","12","30","18:00","-30.6","","-34.8","","67","","","M","","","0","","","M","101.42","","","","","","NA"
"-85.05","73.01","ARCTIC BAY","2400399","2022-12-30 19:00","2022","12","30","19:00","-32.3","","-36.4","","68","","","M","","M","4","","","M","101.41","","","","-37","","NA"
"-85.05","73.01","ARCTIC BAY","2400399","2022-12-30 20:00","2022","12","30","20:00","-31.4","","-35.7","","67","","","M","","","0","","","M","101.39","","","","","","NA"
"-85.05","73.01","ARCTIC BAY","2400399","2022-12-30 21:00","2022","12","30","21:00","-32.4","","-36.3","","69","","","M","6","","4","","","M","101.38","","","","-37","","NA"
"-85.05","73.01","ARCTIC BAY","2400399","2022-12-30 22:00","2022","12","30","22:00","-31.8","","-35.9","","68","","","M","","M","4","","","M","101.38","","","","-36","","NA"
"-85.05","73.01","ARCTIC BAY","2400399","2022-12-30 23:00","2022","12","30","23:00","-32.1","","-36.2","","68","","","M","","","0","","","M","101.37","","","","","","NA"
"-85.05","73.01","ARCTIC BAY","2400399","2022-12-31 00:00","2022","12","31","00:00","-32.6","","-36.7","","68","","","M","30","","5","","","M","101.33","","","","-39","","NA"
"-85.05","73.01","ARCTIC BAY","2400399","2022-12-31 01:00","2022","12","31","01:00","-33.0","","-36.7","","70","","","M","","","0","","","M","101.34","","","","","","NA"
"-85.05","73.01","ARCTIC BAY","2400399","2022-12-31 02:00","2022","12","31","02:00","-32.0","","-36.2","","68","","","M","","","0","","","M","101.33","","","","","","NA"
"-85.05","73.01","ARCTIC BAY","2400399","2022-12-31 03:00","2022","12","31","03:00","-32.8","","-36.8","","69","","","M","12","","5","","","M","101.35","","","","-39","","NA"
"-85.05","73.01","ARCTIC BAY","2400399","2022-12-31 04:00","2022","12","31","04:00","-31.5","","-35.6","","68","","","M","","M","4","","","M","101.32","","","","-36","","NA"
"-85.05","73.01","ARCTIC BAY","2400399","2022-12-31 05:00","2022","12","31","05:00","-32.0","","-36.2","","68","","","M","","M","4","","","M","101.32","","","","-37","","NA"
"-85.05","73.01","ARCTIC BAY","2400399","2022-12-31 06:00","2022","12","31","06:00","-32.1","","-36.3","","68","","","M","","","0","","","M","101.31","","","","","","NA"
"-85.05","73.01","ARCTIC BAY","2400399","2022-12-31 07:00","2022","12","31","07:00","-33.0","","-37.1","","68","","","M","8","","4","","","M","101.29","","","","-38","","NA"
"-85.05","73.01","ARCTIC BAY","2400399","2022-12-31 08:00","2022","12","31","08:00","-33.5","","-37.2","","70","","","M","11","","8","","","M","101.26","","","","-42","","NA"
"-85.05","73.01","ARCTIC BAY","2400399","2022-12-31 09:00","2022","12","31","09:00","-32.3","","-36.8","","66","","","M","","M","4","","","M","101.27","","","","-37","","NA"
"-85.05","73.01","ARCTIC BAY","2400399","2022-12-31 10:00","2022","12","31","10:00","-32.5","","-36.6","","68","","","M","","","0","","","M","101.24","","","","","","NA"
"-85.05","73.01","ARCTIC BAY","2400399","2022-12-31 11:00","2022","12","31","11:00","-33.7","","-37.3","","71","","","M","11","","5","","","M","101.21","","","","-40","","NA"
"-85.05","73.01","ARCTIC BAY","2400399","2022-12-31 12:00","2022","12","31","12:00","-32.5","","-36.6","","68","","","M","","M","4","","","M","101.22","","","","-37","","NA"
"-85.05","73.01","ARCTIC BAY","2400399","2022-12-31 13:00","2022","12","31","13:00","-32.6","","-36.5","","69","","","M","","","0","","","M","101.21","","","","","","NA"
"-85.05","73.01","ARCTIC BAY","2400399","2022-12-31 14:00","2022","12","31","14:00","-32.6","","-36.5","","69","","","M","9","","4","","","M","101.17","","","","-37","","NA"
"-85.05","73.01","ARCTIC BAY","2400399","2022-12-31 15:00","2022","12","31","15:00","-32.5","","-36.7","","67","","","M","","","0","","","M","101.15","","","","","","NA"
"-85.05","73.01","ARCTIC BAY","2400399","2022-12-31 16:00","2022","12","31","16:00","-33.9","","-38.3","","65","","","M","","M","5","","","M","101.14","","","","-40","","NA"
"-85.05","73.01","ARCTIC BAY","2400399","2022-12-31 17:00","2022","12","31","17:00","-32.8","","-37.0","","67","","","M","","M","4","","","M","101.10","","","","-38","","NA"
"-85.05","73.01","ARCTIC BAY","2400399","2022-12-31 18:00","2022","12","31","18:00","-32.2","","-36.1","","69","","","M","","","0","","","M","101.08","","","","","","NA"
"-85.05","73.01","ARCTIC BAY","2400399","2022-12-31 19:00","2022","12","31","19:00","-33.0","","-37.1","","67","","","M","","M","8","","","M","101.08","","","","-41","","NA"
"-85.05","73.01","ARCTIC BAY","2400399","2022-12-31 20:00","2022","12","31","20:00","-32.0","","-36.1","","68","","","M","30","","4","","","M","101.06","","","","-37","","NA"
"-85.05","73.01","ARCTIC BAY","2400399","2022-12-31 21:00","2022","12","31","21:00","-31.7","","-36.1","","66","","","M","25","","5","","","M","101.01","","","","-38","","NA"
"-85.05","73.01","ARCTIC BAY","2400399","2022-12-31 22:00","2022","12","31","22:00","-31.7","","-35.9","","67","","","M","","","0","","","M","100.98","","","","","","NA"
"-85.05","73.01","ARCTIC BAY","2400399","2022-12-31 23:00","2022","12","31","23:00","-30.9","","-35.4","","66","","","M","","","0","","","M","100.95","","","","","","NA"
