"Longitude (x)","Latitude (y)","Station Name","Climate ID","Date/Time (LST)","Year","Month","Day","Time (LST)","Temp (°C)","Temp Flag","Dew Point Temp (°C)","Dew Point Temp Flag","Rel Hum (%)","Rel Hum Flag","Precip. Amount (mm)","Precip. Amount Flag","Wind Dir (10s deg)","Wind Dir Flag","Wind Spd (km/h)","Wind Spd Flag","Visibility (km)","Visibility Flag","Stn Press (kPa)","Stn Press Flag","Hmdx","Hmdx Flag","Wind Chill","Wind Chill Flag","Weather"
"-81.90","42.25","ERIEAU (AUT)","613KLLM","2021-11-01 00:00","2021","11","01","00:00","","M","","M","72","","","","28","","14","","","","99.49","","","","","","NA"
"-81.90","42.25","ERIEAU (AUT)","613KLLM","2021-11-01 01:00","2021","11","01","01:00","","M","","M","69","","","","27","","13","","","","99.55","","","","","","NA"
"-81.90","42.25","ERIEAU (AUT)","613KLLM","2021-11-01 02:00","2021","11","01","02:00","","M","","M","73","","","","26","","13","","","","99.63","","","","","","NA"
"-81.90","42.25","ERIEAU (AUT)","613KLLM","2021-11-01 03:00","2021","11","01","03:00","","M","","M","75","","","","26","","14","","","","99.69","","","","","","NA"
"-81.90","42.25","ERIEAU (AUT)","613KLLM","2021-11-01 04:00","2021","11","01","04:00","","M","","M","70","","","","27","","13","","","","99.76","","","","","","NA"
"-81.90","42.25","ERIEAU (AUT)","613KLLM","2021-11-01 05:00","2021","11","01","05:00","","M","","M","74","","","","27","","12","","","","99.84","","","","","","NA"
"-81.90","42.25","ERIEAU (AUT)","613KLLM","2021-11-01 06:00","2021","11","01","06:00","","M","","M","70","","","","27","","13","","","","99.92","","","","","","NA"
"-81.90","42.25","ERIEAU (AUT)","613KLLM","2021-11-01 07:00","2021","11","01","07:00","","M","","M","70","","","","27","","11","","","","99.98","","","","","","NA"
"-81.90","42.25","ERIEAU (AUT)","613KLLM","2021-11-01 08:00","2021","11","01","08:00","","M","","M","65","","","","26","","12","","","","100.06","","","","","","NA"
"-81.90","42.25","ERIEAU (AUT)","613KLLM","2021-11-01 09:00","2021","11","01","09:00","","M","","M","62","","","","27","","14","","","","100.11","","","","","","NA"
"-81.90","42.25","ERIEAU (AUT)","613KLLM","2021-11-01 10:00","2021","11","01","10:00","","M","","M","59","","","","27","","16","","","","100.13","","","","","","NA"
"-81.90","42.25","ERIEAU (AUT)","613KLLM","2021-11-01 11:00","2021","11","01","11:00","","M","","M","57","","","","26","","14","","","","100.15","","","","","","NA"
"-81.90","42.25","ERIEAU (AUT)","613KLLM","2021-11-01 12:00","2021","11","01","12:00","","M","","M","54","","","","26","","16","","","","100.12","","","","","","NA"
"-81.90","42.25","ERIEAU (AUT)","613KLLM","2021-11-01 13:00","2021","11","01","13:00","","M","","M","52","","","","25","","17","","","","100.07","","","","","","NA"
"-81.90","42.25","ERIEAU (AUT)","613KLLM","2021-11-01 14:00","2021","11","01","14:00","","M","","M","52","","","","27","","13","","","","100.04","","","","","","NA"
"-81.90","42.25","ERIEAU (AUT)","613KLLM","2021-11-01 15:00","2021","11","01","15:00","","M","","M","54","","","","27","","12","","","","100.02","","","","","","NA"
"-81.90","42.25","ERIEAU (AUT)","613KLLM","2021-11-01 16:00","2021","11","01","16:00","","M","","M","55","","","","28","","11","","","","100.00","","","","","","NA"
"-81.90","42.25","ERIEAU (AUT)","613KLLM","2021-11-01 17:00","2021","11","01","17:00","","M","","M","56","","","","27","","10","","","","100.00","","","","","","NA"
"-81.90","42.25","ERIEAU (AUT)","613KLLM","2021-11-01 18:00","2021","11","01","18:00","","M","","M","56","","","","27","","9","","","","100.04","","","","","","NA"
"-81.90","42.25","ERIEAU (AUT)","613KLLM","2021-11-01 19:00","2021","11","01","19:00","","M","","M","55","","","","27","","15","","","","100.07","","","","","","NA"
"-81.90","42.25","ERIEAU (AUT)","613KLLM","2021-11-01 20:00","2021","11","01","20:00","","M","","M","56","","","","27","","13","","","","100.10","","","","","","NA"
"-81.90","42.25","ERIEAU (AUT)","613KLLM","2021-11-01 21:00","2021","11","01","21:00","","M","","M","53","","","","27","","15","","","","100.14","","","","","","NA"
"-81.90","42.25","ERIEAU (AUT)","613KLLM","2021-11-01 22:00","2021","11","01","22:00","","M","","M","51","","","","27","","11","","","","100.15","","","","","","NA"
"-81.90","42.25","ERIEAU (AUT)","613KLLM","2021-11-01 23:00","2021","11","01","23:00","","M","","M","57","","","","27","","10","","","","100.13","","","","","","NA"
"-81.90","42.25","ERIEAU (AUT)","613KLLM","2021-11-02 00:00","2021","11","02","00:00","","M","","M","57","","","","25","","13","","","","100.11","","","","","","NA"
"-81.90","42.25","ERIEAU (AUT)","613KLLM","2021-11-02 01:00","2021","11","02","01:00","","M","","M","59","","","","25","","17","","","","100.07","","","","","","NA"
"-81.90","42.25","ERIEAU (AUT)","613KLLM","2021-11-02 02:00","2021","11","02","02:00","","M","","M","61","","","","27","","16","","","","100.07","","","","","","NA"
"-81.90","42.25","ERIEAU (AUT)","613KLLM","2021-11-02 03:00","2021","11","02","03:00","","M","","M","69","","","","27","","12","","","","100.08","","","","","","NA"
"-81.90","42.25","ERIEAU (AUT)","613KLLM","2021-11-02 04:00","2021","11","02","04:00","","M","","M","74","","","","27","","10","","","","100.08","","","","","","NA"
"-81.90","42.25","ERIEAU (AUT)","613KLLM","2021-11-02 05:00","2021","11","02","05:00","","M","","M","71","","","","27","","14","","","","100.12","","","","","","NA"
"-81.90","42.25","ERIEAU (AUT)","613KLLM","2021-11-02 06:00","2021","11","02","06:00","","M","","M","71","","","","26","","12","","","","100.13","","","","","","NA"
"-81.90","42.25","ERIEAU (AUT)","613KLLM","2021-11-02 07:00","2021","11","02","07:00","","M","","M","68","","","","26","","14","","","","100.14","","","","","","NA"
"-81.90","42.25","ERIEAU (AUT)","613KLLM","2021-11-02 08:00","2021","11","02","08:00","","M","","M","65","","","","26","","14","","","","100.17","","","","","","NA"
"-81.90","42.25","ERIEAU (AUT)","613KLLM","2021-11-02 09:00","2021","11","02","09:00","","M","","M","68","","","","28","","13","","","","100.22","","","","","","NA"
"-81.90","42.25","ERIEAU (AUT)","613KLLM","2021-11-02 10:00","2021","11","02","10:00","","M","","M","66","","","","27","","12","","","","100.23","","","","","","NA"
"-81.90","42.25","ERIEAU (AUT)","613KLLM","2021-11-02 11:00","2021","11","02","11:00","","M","","M","60","","","","28","","16","","","","100.24","","","","","","NA"
"-81.90","42.25","ERIEAU (AUT)","613KLLM","2021-11-02 12:00","2021","11","02","12:00","","M","","M","56","","","","27","","15","","","","100.22","","","","","","NA"
"-81.90","42.25","ERIEAU (AUT)","613KLLM","2021-11-02 13:00","2021","11","02","13:00","","M","","M","51","","","","26","","14","","","","100.14","","","","","","NA"
"-81.90","42.25","ERIEAU (AUT)","613KLLM","2021-11-02 14:00","2021","11","02","14:00","","M","","M","50","","","","27","","16","","","","100.13","","","","","","NA"
"-81.90","42.25","ERIEAU (AUT)","613KLLM","2021-11-02 15:00","2021","11","02","15:00","","M","","M","51","","","","24","","16","","","","100.12","","","","","","NA"
"-81.90","42.25","ERIEAU (AUT)","613KLLM","2021-11-02 16:00","2021","11","02","16:00","","M","","M","49","","","","25","","17","","","","100.12","","","","","","NA"
"-81.90","42.25","ERIEAU (AUT)","613KLLM","2021-11-02 17:00","2021","11","02","17:00","","M","","M","55","","","","25","","14","","","","100.13","","","","","","NA"
"-81.90","42.25","ERIEAU (AUT)","613KLLM","2021-11-02 18:00","2021","11","02","18:00","","M","","M","58","","","","27","","19","","","","100.18","","","","","","NA"
"-81.90","42.25","ERIEAU (AUT)","613KLLM","2021-11-02 19:00","2021","11","02","19:00","","M","","M","64","","","","27","","18","","","","100.25","","","","","","NA"
"-81.90","42.25","ERIEAU (AUT)","613KLLM","2021-11-02 20:00","2021","11","02","20:00","","M","","M","63","","","","27","","16","","","","100.20","","","","","","NA"
"-81.90","42.25","ERIEAU (AUT)","613KLLM","2021-11-02 21:00","2021","11","02","21:00","","M","","M","64","","","","27","","15","","","","100.26","","","","","","NA"
"-81.90","42.25","ERIEAU (AUT)","613KLLM","2021-11-02 22:00","2021","11","02","22:00","","M","","M","61","","","","27","","11","","","","100.30","","","","","","NA"
"-81.90","42.25","ERIEAU (AUT)","613KLLM","2021-11-02 23:00","2021","11","02","23:00","","M","","M","64","","","","28","","14","","","","100.32","","","","","","NA"
"-81.90","42.25","ERIEAU (AUT)","613KLLM","2021-11-03 00:00","2021","11","03","00:00","","M","","M","68","","","","27","","13","","","","100.34","","","","","","NA"
"-81.90","42.25","ERIEAU (AUT)","613KLLM","2021-11-03 01:00","2021","11","03","01:00","","M","","M","73","","","","28","","11","","","","100.38","","","","","","NA"
"-81.90","42.25","ERIEAU (AUT)","613KLLM","2021-11-03 02:00","2021","11","03","02:00","","M","","M","72","","","","29","","11","","","","100.41","","","","","","NA"
"-81.90","42.25","ERIEAU (AUT)","613KLLM","2021-11-03 03:00","2021","11","03","03:00","","M","","M","75","","","","28","","10","","","","100.44","","","","","","NA"
"-81.90","42.25","ERIEAU (AUT)","613KLLM","2021-11-03 04:00","2021","11","03","04:00","","M","","M","77","","","","28","","10","","","","100.45","","","","","","NA"
"-81.90","42.25","ERIEAU (AUT)","613KLLM","2021-11-03 05:00","2021","11","03","05:00","","M","","M","79","","","","28","","7","","","","100.47","","","","","","NA"
"-81.90","42.25","ERIEAU (AUT)","613KLLM","2021-11-03 06:00","2021","11","03","06:00","","M","","M","81","","","","29","","8","","","","100.48","","","","","","NA"
"-81.90","42.25","ERIEAU (AUT)","613KLLM","2021-11-03 07:00","2021","11","03","07:00","","M","","M","81","","","","28","","8","","","","100.53","","","","","","NA"
"-81.90","42.25","ERIEAU (AUT)","613KLLM","2021-11-03 08:00","2021","11","03","08:00","","M","","M","78","","","","28","","9","","","","100.60","","","","","","NA"
"-81.90","42.25","ERIEAU (AUT)","613KLLM","2021-11-03 09:00","2021","11","03","09:00","","M","","M","74","","","","27","","10","","","","100.64","","","","","","NA"
"-81.90","42.25","ERIEAU (AUT)","613KLLM","2021-11-03 10:00","2021","11","03","10:00","","M","","M","68","","","","28","","10","","","","100.66","","","","","","NA"
"-81.90","42.25","ERIEAU (AUT)","613KLLM","2021-11-03 11:00","2021","11","03","11:00","","M","","M","59","","","","29","","11","","","","100.67","","","","","","NA"
"-81.90","42.25","ERIEAU (AUT)","613KLLM","2021-11-03 12:00","2021","11","03","12:00","","M","","M","53","","","","27","","12","","","","100.65","","","","","","NA"
"-81.90","42.25","ERIEAU (AUT)","613KLLM","2021-11-03 13:00","2021","11","03","13:00","","M","","M","51","","","","29","","15","","","","100.60","","","","","","NA"
"-81.90","42.25","ERIEAU (AUT)","613KLLM","2021-11-03 14:00","2021","11","03","14:00","","M","","M","45","","","","27","","14","","","","100.56","","","","","","NA"
"-81.90","42.25","ERIEAU (AUT)","613KLLM","2021-11-03 15:00","2021","11","03","15:00","","M","","M","48","","","","28","","10","","","","100.52","","","","","","NA"
"-81.90","42.25","ERIEAU (AUT)","613KLLM","2021-11-03 16:00","2021","11","03","16:00","","M","","M","46","","","","28","","10","","","","100.52","","","","","","NA"
"-81.90","42.25","ERIEAU (AUT)","613KLLM","2021-11-03 17:00","2021","11","03","17:00","","M","","M","49","","","","28","","7","","","","100.51","","","","","","NA"
"-81.90","42.25","ERIEAU (AUT)","613KLLM","2021-11-03 18:00","2021","11","03","18:00","","M","","M","56","","","","29","","3","","","","100.53","","","","","","NA"
"-81.90","42.25","ERIEAU (AUT)","613KLLM","2021-11-03 19:00","2021","11","03","19:00","","M","","M","57","","","","29","","2","","","","100.58","","","","","","NA"
"-81.90","42.25","ERIEAU (AUT)","613KLLM","2021-11-03 20:00","2021","11","03","20:00","","M","","M","53","","","","29","","2","","","","100.57","","","","","","NA"
"-81.90","42.25","ERIEAU (AUT)","613KLLM","2021-11-03 21:00","2021","11","03","21:00","","M","","M","53","","","","29","","4","","","","100.57","","","","","","NA"
"-81.90","42.25","ERIEAU (AUT)","613KLLM","2021-11-03 22:00","2021","11","03","22:00","","M","","M","62","","","","31","","3","","","","100.57","","","","","","NA"
"-81.90","42.25","ERIEAU (AUT)","613KLLM","2021-11-03 23:00","2021","11","03","23:00","","M","","M","60","","","","32","","4","","","","100.55","","","","","","NA"
"-81.90","42.25","ERIEAU (AUT)","613KLLM","2021-11-04 00:00","2021","11","04","00:00","","M","","M","60","","","","32","","4","","","","100.55","","","","","","NA"
"-81.90","42.25","ERIEAU (AUT)","613KLLM","2021-11-04 01:00","2021","11","04","01:00","","M","","M","58","","","","31","","3","","","","100.53","","","","","","NA"
"-81.90","42.25","ERIEAU (AUT)","613KLLM","2021-11-04 02:00","2021","11","04","02:00","","M","","M","55","","","","28","","7","","","","100.53","","","","","","NA"
"-81.90","42.25","ERIEAU (AUT)","613KLLM","2021-11-04 03:00","2021","11","04","03:00","","M","","M","70","","","","30","","4","","","","100.53","","","","","","NA"
"-81.90","42.25","ERIEAU (AUT)","613KLLM","2021-11-04 04:00","2021","11","04","04:00","","M","","M","76","","","","31","","3","","","","100.50","","","","","","NA"
"-81.90","42.25","ERIEAU (AUT)","613KLLM","2021-11-04 05:00","2021","11","04","05:00","","M","","M","79","","","","34","","9","","","","100.47","","","","","","NA"
"-81.90","42.25","ERIEAU (AUT)","613KLLM","2021-11-04 06:00","2021","11","04","06:00","","M","","M","81","","","","35","","7","","","","100.46","","","","","","NA"
"-81.90","42.25","ERIEAU (AUT)","613KLLM","2021-11-04 07:00","2021","11","04","07:00","","M","","M","84","","","","35","","6","","","","100.44","","","","","","NA"
"-81.90","42.25","ERIEAU (AUT)","613KLLM","2021-11-04 08:00","2021","11","04","08:00","","M","","M","82","","","","31","","3","","","","100.45","","","","","","NA"
"-81.90","42.25","ERIEAU (AUT)","613KLLM","2021-11-04 09:00","2021","11","04","09:00","","M","","M","82","","","","27","","4","","","","100.47","","","","","","NA"
"-81.90","42.25","ERIEAU (AUT)","613KLLM","2021-11-04 10:00","2021","11","04","10:00","","M","","M","68","","","","27","","9","","","","100.47","","","","","","NA"
"-81.90","42.25","ERIEAU (AUT)","613KLLM","2021-11-04 11:00","2021","11","04","11:00","","M","","M","73","","","","31","","6","","","","100.51","","","","","","NA"
"-81.90","42.25","ERIEAU (AUT)","613KLLM","2021-11-04 12:00","2021","11","04","12:00","","M","","M","66","","","","29","","7","","","","100.49","","","","","","NA"
"-81.90","42.25","ERIEAU (AUT)","613KLLM","2021-11-04 13:00","2021","11","04","13:00","","M","","M","60","","","","29","","5","","","","100.44","","","","","","NA"
"-81.90","42.25","ERIEAU (AUT)","613KLLM","2021-11-04 14:00","2021","11","04","14:00","","M","","M","56","","","","31","","7","","","","100.42","","","","","","NA"
"-81.90","42.25","ERIEAU (AUT)","613KLLM","2021-11-04 15:00","2021","11","04","15:00","","M","","M","47","","","","29","","8","","","","100.40","","","","","","NA"
"-81.90","42.25","ERIEAU (AUT)","613KLLM","2021-11-04 16:00","2021","11","04","16:00","","M","","M","52","","","","29","","12","","","","100.40","","","","","","NA"
"-81.90","42.25","ERIEAU (AUT)","613KLLM","2021-11-04 17:00","2021","11","04","17:00","","M","","M","59","","","","28","","6","","","","100.41","","","","","","NA"
"-81.90","42.25","ERIEAU (AUT)","613KLLM","2021-11-04 18:00","2021","11","04","18:00","","M","","M","62","","","","28","","4","","","","100.44","","","","","","NA"
"-81.90","42.25","ERIEAU (AUT)","613KLLM","2021-11-04 19:00","2021","11","04","19:00","","M","","M","68","","","","27","","4","","","","100.46","","","","","","NA"
"-81.90","42.25","ERIEAU (AUT)","613KLLM","2021-11-04 20:00","2021","11","04","20:00","","M","","M","70","","","","28","","6","","","","100.45","","","","","","NA"
"-81.90","42.25","ERIEAU (AUT)","613KLLM","2021-11-04 21:00","2021","11","04","21:00","","M","","M","69","","","","31","","3","","","","100.47","","","","","","NA"
"-81.90","42.25","ERIEAU (AUT)","613KLLM","2021-11-04 22:00","2021","11","04","22:00","","M","","M","65","","","","31","","3","","","","100.52","","","","","","NA"
"-81.90","42.25","ERIEAU (AUT)","613KLLM","2021-11-04 23:00","2021","11","04","23:00","","M","","M","70","","","","29","","4","","","","100.51","","","","","","NA"
"-81.90","42.25","ERIEAU (AUT)","613KLLM","2021-11-05 00:00","2021","11","05","00:00","","M","","M","73","","","","30","","3","","","","100.52","","","","","","NA"
"-81.90","42.25","ERIEAU (AUT)","613KLLM","2021-11-05 01:00","2021","11","05","01:00","","M","","M","72","","","","30","","3","","","","100.55","","","","","","NA"
"-81.90","42.25","ERIEAU (AUT)","613KLLM","2021-11-05 02:00","2021","11","05","02:00","","M","","M","72","","","","30","","3","","","","100.57","","","","","","NA"
"-81.90","42.25","ERIEAU (AUT)","613KLLM","2021-11-05 03:00","2021","11","05","03:00","","M","","M","74","","","","30","","3","","","","100.60","","","","","","NA"
"-81.90","42.25","ERIEAU (AUT)","613KLLM","2021-11-05 04:00","2021","11","05","04:00","","M","","M","75","","","","31","","3","","","","100.64","","","","","","NA"
"-81.90","42.25","ERIEAU (AUT)","613KLLM","2021-11-05 05:00","2021","11","05","05:00","","M","","M","76","","","","31","","3","","","","100.66","","","","","","NA"
"-81.90","42.25","ERIEAU (AUT)","613KLLM","2021-11-05 06:00","2021","11","05","06:00","","M","","M","74","","","","31","","3","","","","100.70","","","","","","NA"
"-81.90","42.25","ERIEAU (AUT)","613KLLM","2021-11-05 07:00","2021","11","05","07:00","","M","","M","72","","","","31","","2","","","","100.76","","","","","","NA"
"-81.90","42.25","ERIEAU (AUT)","613KLLM","2021-11-05 08:00","2021","11","05","08:00","","M","","M","67","","","","31","","3","","","","100.85","","","","","","NA"
"-81.90","42.25","ERIEAU (AUT)","613KLLM","2021-11-05 09:00","2021","11","05","09:00","","M","","M","51","","","","29","","1","","","","100.88","","","","","","NA"
"-81.90","42.25","ERIEAU (AUT)","613KLLM","2021-11-05 10:00","2021","11","05","10:00","","M","","M","46","","","","25","","5","","","","100.89","","","","","","NA"
"-81.90","42.25","ERIEAU (AUT)","613KLLM","2021-11-05 11:00","2021","11","05","11:00","","M","","M","44","","","","24","","5","","","","100.90","","","","","","NA"
"-81.90","42.25","ERIEAU (AUT)","613KLLM","2021-11-05 12:00","2021","11","05","12:00","","M","","M","42","","","","21","","5","","","","100.85","","","","","","NA"
"-81.90","42.25","ERIEAU (AUT)","613KLLM","2021-11-05 13:00","2021","11","05","13:00","","M","","M","42","","","","19","","7","","","","100.80","","","","","","NA"
"-81.90","42.25","ERIEAU (AUT)","613KLLM","2021-11-05 14:00","2021","11","05","14:00","","M","","M","45","","","","19","","8","","","","100.73","","","","","","NA"
"-81.90","42.25","ERIEAU (AUT)","613KLLM","2021-11-05 15:00","2021","11","05","15:00","","M","","M","48","","","","17","","9","","","","100.70","","","","","","NA"
"-81.90","42.25","ERIEAU (AUT)","613KLLM","2021-11-05 16:00","2021","11","05","16:00","","M","","M","50","","","","19","","10","","","","100.72","","","","","","NA"
"-81.90","42.25","ERIEAU (AUT)","613KLLM","2021-11-05 17:00","2021","11","05","17:00","","M","","M","52","","","","20","","9","","","","100.70","","","","","","NA"
"-81.90","42.25","ERIEAU (AUT)","613KLLM","2021-11-05 18:00","2021","11","05","18:00","","M","","M","51","","","","20","","9","","","","100.67","","","","","","NA"
"-81.90","42.25","ERIEAU (AUT)","613KLLM","2021-11-05 19:00","2021","11","05","19:00","","M","","M","53","","","","17","","7","","","","100.66","","","","","","NA"
"-81.90","42.25","ERIEAU (AUT)","613KLLM","2021-11-05 20:00","2021","11","05","20:00","","M","","M","52","","","","17","","9","","","","100.62","","","","","","NA"
"-81.90","42.25","ERIEAU (AUT)","613KLLM","2021-11-05 21:00","2021","11","05","21:00","","M","","M","55","","","","17","","8","","","","100.60","","","","","","NA"
"-81.90","42.25","ERIEAU (AUT)","613KLLM","2021-11-05 22:00","2021","11","05","22:00","","M","","M","53","","","","15","","15","","","","100.59","","","","","","NA"
"-81.90","42.25","ERIEAU (AUT)","613KLLM","2021-11-05 23:00","2021","11","05","23:00","","M","","M","55","","","","16","","17","","","","100.57","","","","","","NA"
"-81.90","42.25","ERIEAU (AUT)","613KLLM","2021-11-06 00:00","2021","11","06","00:00","","M","","M","54","","","","17","","17","","","","100.53","","","","","","NA"
"-81.90","42.25","ERIEAU (AUT)","613KLLM","2021-11-06 01:00","2021","11","06","01:00","","M","","M","58","","","","18","","16","","","","100.55","","","","","","NA"
"-81.90","42.25","ERIEAU (AUT)","613KLLM","2021-11-06 02:00","2021","11","06","02:00","","M","","M","55","","","","19","","19","","","","100.56","","","","","","NA"
"-81.90","42.25","ERIEAU (AUT)","613KLLM","2021-11-06 03:00","2021","11","06","03:00","","M","","M","58","","","","19","","18","","","","100.55","","","","","","NA"
"-81.90","42.25","ERIEAU (AUT)","613KLLM","2021-11-06 04:00","2021","11","06","04:00","","M","","M","58","","","","20","","18","","","","100.55","","","","","","NA"
"-81.90","42.25","ERIEAU (AUT)","613KLLM","2021-11-06 05:00","2021","11","06","05:00","","M","","M","57","","","","20","","16","","","","100.55","","","","","","NA"
"-81.90","42.25","ERIEAU (AUT)","613KLLM","2021-11-06 06:00","2021","11","06","06:00","","M","","M","60","","","","19","","17","","","","100.55","","","","","","NA"
"-81.90","42.25","ERIEAU (AUT)","613KLLM","2021-11-06 07:00","2021","11","06","07:00","","M","","M","61","","","","20","","16","","","","100.52","","","","","","NA"
"-81.90","42.25","ERIEAU (AUT)","613KLLM","2021-11-06 08:00","2021","11","06","08:00","","M","","M","63","","","","20","","15","","","","100.52","","","","","","NA"
"-81.90","42.25","ERIEAU (AUT)","613KLLM","2021-11-06 09:00","2021","11","06","09:00","","M","","M","64","","","","18","","18","","","","100.54","","","","","","NA"
"-81.90","42.25","ERIEAU (AUT)","613KLLM","2021-11-06 10:00","2021","11","06","10:00","","M","","M","57","","","","20","","18","","","","100.49","","","","","","NA"
"-81.90","42.25","ERIEAU (AUT)","613KLLM","2021-11-06 11:00","2021","11","06","11:00","","M","","M","55","","","","20","","15","","","","100.45","","","","","","NA"
"-81.90","42.25","ERIEAU (AUT)","613KLLM","2021-11-06 12:00","2021","11","06","12:00","","M","","M","56","","","","21","","14","","","","100.40","","","","","","NA"
"-81.90","42.25","ERIEAU (AUT)","613KLLM","2021-11-06 13:00","2021","11","06","13:00","","M","","M","58","","","","21","","14","","","","100.30","","","","","","NA"
"-81.90","42.25","ERIEAU (AUT)","613KLLM","2021-11-06 14:00","2021","11","06","14:00","","M","","M","56","","","","19","","18","","","","100.22","","","","","","NA"
"-81.90","42.25","ERIEAU (AUT)","613KLLM","2021-11-06 15:00","2021","11","06","15:00","","M","","M","54","","","","19","","19","","","","100.20","","","","","","NA"
"-81.90","42.25","ERIEAU (AUT)","613KLLM","2021-11-06 16:00","2021","11","06","16:00","","M","","M","54","","","","19","","18","","","","100.19","","","","","","NA"
"-81.90","42.25","ERIEAU (AUT)","613KLLM","2021-11-06 17:00","2021","11","06","17:00","","M","","M","57","","","","21","","14","","","","100.17","","","","","","NA"
"-81.90","42.25","ERIEAU (AUT)","613KLLM","2021-11-06 18:00","2021","11","06","18:00","","M","","M","57","","","","19","","16","","","","100.13","","","","","","NA"
"-81.90","42.25","ERIEAU (AUT)","613KLLM","2021-11-06 19:00","2021","11","06","19:00","","M","","M","57","","","","19","","18","","","","100.13","","","","","","NA"
"-81.90","42.25","ERIEAU (AUT)","613KLLM","2021-11-06 20:00","2021","11","06","20:00","","M","","M","57","","","","19","","23","","","","100.09","","","","","","NA"
"-81.90","42.25","ERIEAU (AUT)","613KLLM","2021-11-06 21:00","2021","11","06","21:00","","M","","M","51","","","","20","","22","","","","100.10","","","","","","NA"
"-81.90","42.25","ERIEAU (AUT)","613KLLM","2021-11-06 22:00","2021","11","06","22:00","","M","","M","51","","","","21","","15","","","","100.06","","","","","","NA"
"-81.90","42.25","ERIEAU (AUT)","613KLLM","2021-11-06 23:00","2021","11","06","23:00","","M","","M","54","","","","22","","13","","","","100.04","","","","","","NA"
"-81.90","42.25","ERIEAU (AUT)","613KLLM","2021-11-07 00:00","2021","11","07","00:00","","M","","M","59","","","","21","","13","","","","100.03","","","","","","NA"
"-81.90","42.25","ERIEAU (AUT)","613KLLM","2021-11-07 01:00","2021","11","07","01:00","","M","","M","55","","","","23","","15","","","","100.02","","","","","","NA"
"-81.90","42.25","ERIEAU (AUT)","613KLLM","2021-11-07 02:00","2021","11","07","02:00","","M","","M","59","","","","23","","16","","","","99.97","","","","","","NA"
"-81.90","42.25","ERIEAU (AUT)","613KLLM","2021-11-07 03:00","2021","11","07","03:00","","M","","M","61","","","","23","","12","","","","99.96","","","","","","NA"
"-81.90","42.25","ERIEAU (AUT)","613KLLM","2021-11-07 04:00","2021","11","07","04:00","","M","","M","64","","","","23","","11","","","","99.95","","","","","","NA"
"-81.90","42.25","ERIEAU (AUT)","613KLLM","2021-11-07 05:00","2021","11","07","05:00","","M","","M","62","","","","22","","10","","","","99.99","","","","","","NA"
"-81.90","42.25","ERIEAU (AUT)","613KLLM","2021-11-07 06:00","2021","11","07","06:00","","M","","M","69","","","","21","","12","","","","100.00","","","","","","NA"
"-81.90","42.25","ERIEAU (AUT)","613KLLM","2021-11-07 07:00","2021","11","07","07:00","","M","","M","70","","","","21","","13","","","","100.00","","","","","","NA"
"-81.90","42.25","ERIEAU (AUT)","613KLLM","2021-11-07 08:00","2021","11","07","08:00","","M","","M","70","","","","22","","11","","","","100.03","","","","","","NA"
"-81.90","42.25","ERIEAU (AUT)","613KLLM","2021-11-07 09:00","2021","11","07","09:00","","M","","M","69","","","","23","","14","","","","100.07","","","","","","NA"
"-81.90","42.25","ERIEAU (AUT)","613KLLM","2021-11-07 10:00","2021","11","07","10:00","","M","","M","71","","","","22","","15","","","","100.06","","","","","","NA"
"-81.90","42.25","ERIEAU (AUT)","613KLLM","2021-11-07 11:00","2021","11","07","11:00","","M","","M","71","","","","22","","13","","","","100.09","","","","","","NA"
"-81.90","42.25","ERIEAU (AUT)","613KLLM","2021-11-07 12:00","2021","11","07","12:00","","M","","M","72","","","","22","","12","","","","100.02","","","","","","NA"
"-81.90","42.25","ERIEAU (AUT)","613KLLM","2021-11-07 13:00","2021","11","07","13:00","","M","","M","73","","","","22","","12","","","","99.98","","","","","","NA"
"-81.90","42.25","ERIEAU (AUT)","613KLLM","2021-11-07 14:00","2021","11","07","14:00","","M","","M","76","","","","21","","15","","","","99.97","","","","","","NA"
"-81.90","42.25","ERIEAU (AUT)","613KLLM","2021-11-07 15:00","2021","11","07","15:00","","M","","M","74","","","","21","","12","","","","99.94","","","","","","NA"
"-81.90","42.25","ERIEAU (AUT)","613KLLM","2021-11-07 16:00","2021","11","07","16:00","","M","","M","73","","","","22","","10","","","","99.93","","","","","","NA"
"-81.90","42.25","ERIEAU (AUT)","613KLLM","2021-11-07 17:00","2021","11","07","17:00","","M","","M","74","","","","23","","11","","","","99.93","","","","","","NA"
"-81.90","42.25","ERIEAU (AUT)","613KLLM","2021-11-07 18:00","2021","11","07","18:00","","M","","M","75","","","","24","","13","","","","99.95","","","","","","NA"
"-81.90","42.25","ERIEAU (AUT)","613KLLM","2021-11-07 19:00","2021","11","07","19:00","","M","","M","80","","","","23","","12","","","","99.98","","","","","","NA"
"-81.90","42.25","ERIEAU (AUT)","613KLLM","2021-11-07 20:00","2021","11","07","20:00","","M","","M","81","","","","23","","10","","","","99.98","","","","","","NA"
"-81.90","42.25","ERIEAU (AUT)","613KLLM","2021-11-07 21:00","2021","11","07","21:00","","M","","M","84","","","","22","","5","","","","99.97","","","","","","NA"
"-81.90","42.25","ERIEAU (AUT)","613KLLM","2021-11-07 22:00","2021","11","07","22:00","","M","","M","84","","","","22","","6","","","","99.97","","","","","","NA"
"-81.90","42.25","ERIEAU (AUT)","613KLLM","2021-11-07 23:00","2021","11","07","23:00","","M","","M","80","","","","23","","12","","","","99.96","","","","","","NA"
"-81.90","42.25","ERIEAU (AUT)","613KLLM","2021-11-08 00:00","2021","11","08","00:00","","M","","M","82","","","","23","","10","","","","99.97","","","","","","NA"
"-81.90","42.25","ERIEAU (AUT)","613KLLM","2021-11-08 01:00","2021","11","08","01:00","","M","","M","82","","","","23","","14","","","","99.97","","","","","","NA"
"-81.90","42.25","ERIEAU (AUT)","613KLLM","2021-11-08 02:00","2021","11","08","02:00","","M","","M","84","","","","23","","11","","","","99.98","","","","","","NA"
"-81.90","42.25","ERIEAU (AUT)","613KLLM","2021-11-08 03:00","2021","11","08","03:00","","M","","M","83","","","","23","","12","","","","100.01","","","","","","NA"
"-81.90","42.25","ERIEAU (AUT)","613KLLM","2021-11-08 04:00","2021","11","08","04:00","","M","","M","81","","","","23","","9","","","","100.02","","","","","","NA"
"-81.90","42.25","ERIEAU (AUT)","613KLLM","2021-11-08 05:00","2021","11","08","05:00","","M","","M","79","","","","23","","10","","","","100.04","","","","","","NA"
"-81.90","42.25","ERIEAU (AUT)","613KLLM","2021-11-08 06:00","2021","11","08","06:00","","M","","M","76","","","","22","","10","","","","100.05","","","","","","NA"
"-81.90","42.25","ERIEAU (AUT)","613KLLM","2021-11-08 07:00","2021","11","08","07:00","","M","","M","78","","","","21","","13","","","","100.05","","","","","","NA"
"-81.90","42.25","ERIEAU (AUT)","613KLLM","2021-11-08 08:00","2021","11","08","08:00","","M","","M","76","","","","19","","18","","","","100.05","","","","","","NA"
"-81.90","42.25","ERIEAU (AUT)","613KLLM","2021-11-08 09:00","2021","11","08","09:00","","M","","M","71","","","","20","","21","","","","100.06","","","","","","NA"
"-81.90","42.25","ERIEAU (AUT)","613KLLM","2021-11-08 10:00","2021","11","08","10:00","","M","","M","69","","","","20","","25","","","","100.05","","","","","","NA"
"-81.90","42.25","ERIEAU (AUT)","613KLLM","2021-11-08 11:00","2021","11","08","11:00","","M","","M","68","","","","20","","26","","","","100.05","","","","","","NA"
"-81.90","42.25","ERIEAU (AUT)","613KLLM","2021-11-08 12:00","2021","11","08","12:00","","M","","M","66","","","","21","","23","","","","99.99","","","","","","NA"
"-81.90","42.25","ERIEAU (AUT)","613KLLM","2021-11-08 13:00","2021","11","08","13:00","","M","","M","67","","","","19","","21","","","","99.86","","","","","","NA"
"-81.90","42.25","ERIEAU (AUT)","613KLLM","2021-11-08 14:00","2021","11","08","14:00","","M","","M","70","","","","20","","25","","","","99.80","","","","","","NA"
"-81.90","42.25","ERIEAU (AUT)","613KLLM","2021-11-08 15:00","2021","11","08","15:00","","M","","M","68","","","","20","","22","","","","99.79","","","","","","NA"
"-81.90","42.25","ERIEAU (AUT)","613KLLM","2021-11-08 16:00","2021","11","08","16:00","","M","","M","74","","","","20","","21","","","","99.76","","","","","","NA"
"-81.90","42.25","ERIEAU (AUT)","613KLLM","2021-11-08 17:00","2021","11","08","17:00","","M","","M","77","","","","21","","12","","","","99.77","","","","","","NA"
"-81.90","42.25","ERIEAU (AUT)","613KLLM","2021-11-08 18:00","2021","11","08","18:00","","M","","M","85","","","","24","","9","","","","99.84","","","","","","NA"
"-81.90","42.25","ERIEAU (AUT)","613KLLM","2021-11-08 19:00","2021","11","08","19:00","","M","","M","86","","","","26","","7","","","","99.86","","","","","","NA"
"-81.90","42.25","ERIEAU (AUT)","613KLLM","2021-11-08 20:00","2021","11","08","20:00","","M","","M","76","","","","23","","12","","","","99.86","","","","","","NA"
"-81.90","42.25","ERIEAU (AUT)","613KLLM","2021-11-08 21:00","2021","11","08","21:00","","M","","M","79","","","","24","","14","","","","99.87","","","","","","NA"
"-81.90","42.25","ERIEAU (AUT)","613KLLM","2021-11-08 22:00","2021","11","08","22:00","","M","","M","81","","","","22","","7","","","","99.86","","","","","","NA"
"-81.90","42.25","ERIEAU (AUT)","613KLLM","2021-11-08 23:00","2021","11","08","23:00","","M","","M","80","","","","22","","9","","","","99.85","","","","","","NA"
"-81.90","42.25","ERIEAU (AUT)","613KLLM","2021-11-09 00:00","2021","11","09","00:00","","M","","M","81","","","","24","","11","","","","99.87","","","","","","NA"
"-81.90","42.25","ERIEAU (AUT)","613KLLM","2021-11-09 01:00","2021","11","09","01:00","","M","","M","81","","","","24","","9","","","","99.87","","","","","","NA"
"-81.90","42.25","ERIEAU (AUT)","613KLLM","2021-11-09 02:00","2021","11","09","02:00","","M","","M","79","","","","25","","5","","","","99.88","","","","","","NA"
"-81.90","42.25","ERIEAU (AUT)","613KLLM","2021-11-09 03:00","2021","11","09","03:00","","M","","M","77","","","","27","","5","","","","99.91","","","","","","NA"
"-81.90","42.25","ERIEAU (AUT)","613KLLM","2021-11-09 04:00","2021","11","09","04:00","","M","","M","76","","","","27","","2","","","","99.93","","","","","","NA"
"-81.90","42.25","ERIEAU (AUT)","613KLLM","2021-11-09 05:00","2021","11","09","05:00","","M","","M","80","","","","30","","3","","","","99.96","","","","","","NA"
"-81.90","42.25","ERIEAU (AUT)","613KLLM","2021-11-09 06:00","2021","11","09","06:00","","M","","M","81","","","","29","","4","","","","99.95","","","","","","NA"
"-81.90","42.25","ERIEAU (AUT)","613KLLM","2021-11-09 07:00","2021","11","09","07:00","","M","","M","85","","","","32","","5","","","","99.98","","","","","","NA"
"-81.90","42.25","ERIEAU (AUT)","613KLLM","2021-11-09 08:00","2021","11","09","08:00","","M","","M","89","","","","33","","7","","","","100.05","","","","","","NA"
"-81.90","42.25","ERIEAU (AUT)","613KLLM","2021-11-09 09:00","2021","11","09","09:00","","M","","M","90","","","","35","","7","","","","100.00","","","","","","NA"
"-81.90","42.25","ERIEAU (AUT)","613KLLM","2021-11-09 10:00","2021","11","09","10:00","","M","","M","79","","","","36","","5","","","","99.97","","","","","","NA"
"-81.90","42.25","ERIEAU (AUT)","613KLLM","2021-11-09 11:00","2021","11","09","11:00","","M","","M","75","","","","5","","7","","","","99.96","","","","","","NA"
"-81.90","42.25","ERIEAU (AUT)","613KLLM","2021-11-09 12:00","2021","11","09","12:00","","M","","M","78","","","","6","","8","","","","99.88","","","","","","NA"
"-81.90","42.25","ERIEAU (AUT)","613KLLM","2021-11-09 13:00","2021","11","09","13:00","","M","","M","80","","","","5","","4","","","","99.82","","","","","","NA"
"-81.90","42.25","ERIEAU (AUT)","613KLLM","2021-11-09 14:00","2021","11","09","14:00","","M","","M","77","","","","2","","6","","","","99.76","","","","","","NA"
"-81.90","42.25","ERIEAU (AUT)","613KLLM","2021-11-09 15:00","2021","11","09","15:00","","M","","M","79","","","","1","","3","","","","99.75","","","","","","NA"
"-81.90","42.25","ERIEAU (AUT)","613KLLM","2021-11-09 16:00","2021","11","09","16:00","","M","","M","81","","","","1","","8","","","","99.74","","","","","","NA"
"-81.90","42.25","ERIEAU (AUT)","613KLLM","2021-11-09 17:00","2021","11","09","17:00","","M","","M","83","","","","1","","6","","","","99.73","","","","","","NA"
"-81.90","42.25","ERIEAU (AUT)","613KLLM","2021-11-09 18:00","2021","11","09","18:00","","M","","M","68","","","","34","","8","","","","99.76","","","","","","NA"
"-81.90","42.25","ERIEAU (AUT)","613KLLM","2021-11-09 19:00","2021","11","09","19:00","","M","","M","80","","","","31","","7","","","","99.85","","","","","","NA"
"-81.90","42.25","ERIEAU (AUT)","613KLLM","2021-11-09 20:00","2021","11","09","20:00","","M","","M","75","","","","34","","19","","","","99.88","","","","","","NA"
"-81.90","42.25","ERIEAU (AUT)","613KLLM","2021-11-09 21:00","2021","11","09","21:00","","M","","M","89","","","","1","","16","","","","99.82","","","","","","NA"
"-81.90","42.25","ERIEAU (AUT)","613KLLM","2021-11-09 22:00","2021","11","09","22:00","","M","","M","85","","","","4","","11","","","","99.81","","","","","","NA"
"-81.90","42.25","ERIEAU (AUT)","613KLLM","2021-11-09 23:00","2021","11","09","23:00","","M","","M","88","","","","31","","7","","","","99.82","","","","","","NA"
"-81.90","42.25","ERIEAU (AUT)","613KLLM","2021-11-10 00:00","2021","11","10","00:00","","M","","M","87","","","","30","","4","","","","99.86","","","","","","NA"
"-81.90","42.25","ERIEAU (AUT)","613KLLM","2021-11-10 01:00","2021","11","10","01:00","","M","","M","87","","","","29","","5","","","","99.89","","","","","","NA"
"-81.90","42.25","ERIEAU (AUT)","613KLLM","2021-11-10 02:00","2021","11","10","02:00","","M","","M","88","","","","30","","4","","","","99.96","","","","","","NA"
"-81.90","42.25","ERIEAU (AUT)","613KLLM","2021-11-10 03:00","2021","11","10","03:00","","M","","M","89","","","","29","","4","","","","99.95","","","","","","NA"
"-81.90","42.25","ERIEAU (AUT)","613KLLM","2021-11-10 04:00","2021","11","10","04:00","","M","","M","91","","","","29","","3","","","","99.95","","","","","","NA"
"-81.90","42.25","ERIEAU (AUT)","613KLLM","2021-11-10 05:00","2021","11","10","05:00","","M","","M","93","","","","30","","5","","","","100.08","","","","","","NA"
"-81.90","42.25","ERIEAU (AUT)","613KLLM","2021-11-10 06:00","2021","11","10","06:00","","M","","M","95","","","","29","","5","","","","100.15","","","","","","NA"
"-81.90","42.25","ERIEAU (AUT)","613KLLM","2021-11-10 07:00","2021","11","10","07:00","","M","","M","96","","","","35","","7","","","","100.07","","","","","","NA"
"-81.90","42.25","ERIEAU (AUT)","613KLLM","2021-11-10 08:00","2021","11","10","08:00","","M","","M","97","","","","29","","4","","","","100.20","","","","","","NA"
"-81.90","42.25","ERIEAU (AUT)","613KLLM","2021-11-10 09:00","2021","11","10","09:00","","M","","M","96","","","","34","","8","","","","100.23","","","","","","NA"
"-81.90","42.25","ERIEAU (AUT)","613KLLM","2021-11-10 10:00","2021","11","10","10:00","","M","","M","91","","","","34","","6","","","","100.27","","","","","","NA"
"-81.90","42.25","ERIEAU (AUT)","613KLLM","2021-11-10 11:00","2021","11","10","11:00","","M","","M","83","","","","35","","5","","","","100.24","","","","","","NA"
"-81.90","42.25","ERIEAU (AUT)","613KLLM","2021-11-10 12:00","2021","11","10","12:00","","M","","M","73","","","","10","","4","","","","100.24","","","","","","NA"
"-81.90","42.25","ERIEAU (AUT)","613KLLM","2021-11-10 13:00","2021","11","10","13:00","","M","","M","67","","","","8","","9","","","","100.18","","","","","","NA"
"-81.90","42.25","ERIEAU (AUT)","613KLLM","2021-11-10 14:00","2021","11","10","14:00","","M","","M","67","","","","9","","8","","","","100.16","","","","","","NA"
"-81.90","42.25","ERIEAU (AUT)","613KLLM","2021-11-10 15:00","2021","11","10","15:00","","M","","M","73","","","","7","","12","","","","100.14","","","","","","NA"
"-81.90","42.25","ERIEAU (AUT)","613KLLM","2021-11-10 16:00","2021","11","10","16:00","","M","","M","73","","","","8","","13","","","","100.14","","","","","","NA"
"-81.90","42.25","ERIEAU (AUT)","613KLLM","2021-11-10 17:00","2021","11","10","17:00","","M","","M","67","","","","7","","15","","","","100.08","","","","","","NA"
"-81.90","42.25","ERIEAU (AUT)","613KLLM","2021-11-10 18:00","2021","11","10","18:00","","M","","M","69","","","","5","","11","","","","100.06","","","","","","NA"
"-81.90","42.25","ERIEAU (AUT)","613KLLM","2021-11-10 19:00","2021","11","10","19:00","","M","","M","66","","","","5","","13","","","","100.05","","","","","","NA"
"-81.90","42.25","ERIEAU (AUT)","613KLLM","2021-11-10 20:00","2021","11","10","20:00","","M","","M","65","","","","6","","16","","","","100.03","","","","","","NA"
"-81.90","42.25","ERIEAU (AUT)","613KLLM","2021-11-10 21:00","2021","11","10","21:00","","M","","M","60","","","","7","","22","","","","99.98","","","","","","NA"
"-81.90","42.25","ERIEAU (AUT)","613KLLM","2021-11-10 22:00","2021","11","10","22:00","","M","","M","58","","","","7","","28","","","","99.90","","","","","","NA"
"-81.90","42.25","ERIEAU (AUT)","613KLLM","2021-11-10 23:00","2021","11","10","23:00","","M","","M","60","","","","8","","30","","","","99.80","","","","","","NA"
"-81.90","42.25","ERIEAU (AUT)","613KLLM","2021-11-11 00:00","2021","11","11","00:00","","M","","M","59","","","","8","","28","","","","99.82","","","","","","NA"
"-81.90","42.25","ERIEAU (AUT)","613KLLM","2021-11-11 01:00","2021","11","11","01:00","","M","","M","62","","","","7","","27","","","","99.77","","","","","","NA"
"-81.90","42.25","ERIEAU (AUT)","613KLLM","2021-11-11 02:00","2021","11","11","02:00","","M","","M","66","","","","8","","28","","","","99.69","","","","","","NA"
"-81.90","42.25","ERIEAU (AUT)","613KLLM","2021-11-11 03:00","2021","11","11","03:00","","M","","M","68","","","","8","","29","","","","99.60","","","","","","NA"
"-81.90","42.25","ERIEAU (AUT)","613KLLM","2021-11-11 04:00","2021","11","11","04:00","","M","","M","67","","","","9","","25","","","","99.48","","","","","","NA"
"-81.90","42.25","ERIEAU (AUT)","613KLLM","2021-11-11 05:00","2021","11","11","05:00","","M","","M","66","","","","10","","22","","","","99.45","","","","","","NA"
"-81.90","42.25","ERIEAU (AUT)","613KLLM","2021-11-11 06:00","2021","11","11","06:00","","M","","M","66","","","","10","","19","","","","99.36","","","","","","NA"
"-81.90","42.25","ERIEAU (AUT)","613KLLM","2021-11-11 07:00","2021","11","11","07:00","","M","","M","70","","","","9","","18","","","","99.28","","","","","","NA"
"-81.90","42.25","ERIEAU (AUT)","613KLLM","2021-11-11 08:00","2021","11","11","08:00","","M","","M","72","","","","10","","19","","","","99.22","","","","","","NA"
"-81.90","42.25","ERIEAU (AUT)","613KLLM","2021-11-11 09:00","2021","11","11","09:00","","M","","M","72","","","","11","","25","","","","99.14","","","","","","NA"
"-81.90","42.25","ERIEAU (AUT)","613KLLM","2021-11-11 10:00","2021","11","11","10:00","","M","","M","74","","","","14","","25","","","","99.08","","","","","","NA"
"-81.90","42.25","ERIEAU (AUT)","613KLLM","2021-11-11 11:00","2021","11","11","11:00","","M","","M","74","","","","15","","29","","","","98.99","","","","","","NA"
"-81.90","42.25","ERIEAU (AUT)","613KLLM","2021-11-11 12:00","2021","11","11","12:00","","M","","M","72","","","","14","","32","","","","98.85","","","","","","NA"
"-81.90","42.25","ERIEAU (AUT)","613KLLM","2021-11-11 13:00","2021","11","11","13:00","","M","","M","73","","","","13","","29","","","","98.72","","","","","","NA"
"-81.90","42.25","ERIEAU (AUT)","613KLLM","2021-11-11 14:00","2021","11","11","14:00","","M","","M","74","","","","12","","28","","","","98.62","","","","","","NA"
"-81.90","42.25","ERIEAU (AUT)","613KLLM","2021-11-11 15:00","2021","11","11","15:00","","M","","M","77","","","","12","","26","","","","98.54","","","","","","NA"
"-81.90","42.25","ERIEAU (AUT)","613KLLM","2021-11-11 16:00","2021","11","11","16:00","","M","","M","73","","","","14","","28","","","","98.51","","","","","","NA"
"-81.90","42.25","ERIEAU (AUT)","613KLLM","2021-11-11 17:00","2021","11","11","17:00","","M","","M","70","","","","14","","29","","","","98.45","","","","","","NA"
"-81.90","42.25","ERIEAU (AUT)","613KLLM","2021-11-11 18:00","2021","11","11","18:00","","M","","M","91","","","","21","","13","","","","98.58","","","","","","NA"
"-81.90","42.25","ERIEAU (AUT)","613KLLM","2021-11-11 19:00","2021","11","11","19:00","","M","","M","94","","","","22","","11","","","","98.49","","","","","","NA"
"-81.90","42.25","ERIEAU (AUT)","613KLLM","2021-11-11 20:00","2021","11","11","20:00","","M","","M","96","","","","21","","15","","","","98.47","","","","","","NA"
"-81.90","42.25","ERIEAU (AUT)","613KLLM","2021-11-11 21:00","2021","11","11","21:00","","M","","M","93","","","","19","","25","","","","98.47","","","","","","NA"
"-81.90","42.25","ERIEAU (AUT)","613KLLM","2021-11-11 22:00","2021","11","11","22:00","","M","","M","93","","","","24","","18","","","","98.51","","","","","","NA"
"-81.90","42.25","ERIEAU (AUT)","613KLLM","2021-11-11 23:00","2021","11","11","23:00","","M","","M","90","","","","26","","11","","","","98.58","","","","","","NA"
"-81.90","42.25","ERIEAU (AUT)","613KLLM","2021-11-12 00:00","2021","11","12","00:00","","M","","M","84","","","","24","","27","","","","98.67","","","","","","NA"
"-81.90","42.25","ERIEAU (AUT)","613KLLM","2021-11-12 01:00","2021","11","12","01:00","","M","","M","79","","","","24","","33","","","","98.75","","","","","","NA"
"-81.90","42.25","ERIEAU (AUT)","613KLLM","2021-11-12 02:00","2021","11","12","02:00","","M","","M","75","","","","24","","26","","","","98.83","","","","","","NA"
"-81.90","42.25","ERIEAU (AUT)","613KLLM","2021-11-12 03:00","2021","11","12","03:00","","M","","M","69","","","","23","","32","","","","98.88","","","","","","NA"
"-81.90","42.25","ERIEAU (AUT)","613KLLM","2021-11-12 04:00","2021","11","12","04:00","","M","","M","72","","","","23","","23","","","","98.91","","","","","","NA"
"-81.90","42.25","ERIEAU (AUT)","613KLLM","2021-11-12 05:00","2021","11","12","05:00","","M","","M","72","","","","22","","16","","","","98.93","","","","","","NA"
"-81.90","42.25","ERIEAU (AUT)","613KLLM","2021-11-12 06:00","2021","11","12","06:00","","M","","M","68","","","","21","","20","","","","98.93","","","","","","NA"
"-81.90","42.25","ERIEAU (AUT)","613KLLM","2021-11-12 07:00","2021","11","12","07:00","","M","","M","68","","","","19","","27","","","","98.93","","","","","","NA"
"-81.90","42.25","ERIEAU (AUT)","613KLLM","2021-11-12 08:00","2021","11","12","08:00","","M","","M","76","","","","19","","31","","","","98.96","","","","","","NA"
"-81.90","42.25","ERIEAU (AUT)","613KLLM","2021-11-12 09:00","2021","11","12","09:00","","M","","M","74","","","","19","","27","","","","98.95","","","","","","NA"
"-81.90","42.25","ERIEAU (AUT)","613KLLM","2021-11-12 10:00","2021","11","12","10:00","","M","","M","72","","","","19","","30","","","","98.94","","","","","","NA"
"-81.90","42.25","ERIEAU (AUT)","613KLLM","2021-11-12 11:00","2021","11","12","11:00","","M","","M","68","","","","18","","31","","","","98.93","","","","","","NA"
"-81.90","42.25","ERIEAU (AUT)","613KLLM","2021-11-12 12:00","2021","11","12","12:00","","M","","M","68","","","","18","","29","","","","98.82","","","","","","NA"
"-81.90","42.25","ERIEAU (AUT)","613KLLM","2021-11-12 13:00","2021","11","12","13:00","","M","","M","57","","","","19","","40","","","","98.74","","","","","","NA"
"-81.90","42.25","ERIEAU (AUT)","613KLLM","2021-11-12 14:00","2021","11","12","14:00","","M","","M","53","","","","19","","36","","","","98.67","","","","","","NA"
"-81.90","42.25","ERIEAU (AUT)","613KLLM","2021-11-12 15:00","2021","11","12","15:00","","M","","M","56","","","","19","","37","","","","98.60","","","","","","NA"
"-81.90","42.25","ERIEAU (AUT)","613KLLM","2021-11-12 16:00","2021","11","12","16:00","","M","","M","59","","","","22","","42","","","","98.60","","","","","","NA"
"-81.90","42.25","ERIEAU (AUT)","613KLLM","2021-11-12 17:00","2021","11","12","17:00","","M","","M","60","","","","23","","33","","","","98.64","","","","","","NA"
"-81.90","42.25","ERIEAU (AUT)","613KLLM","2021-11-12 18:00","2021","11","12","18:00","","M","","M","60","","","","23","","34","","","","98.72","","","","","","NA"
"-81.90","42.25","ERIEAU (AUT)","613KLLM","2021-11-12 19:00","2021","11","12","19:00","","M","","M","64","","","","24","","28","","","","98.82","","","","","","NA"
"-81.90","42.25","ERIEAU (AUT)","613KLLM","2021-11-12 20:00","2021","11","12","20:00","","M","","M","66","","","","24","","30","","","","98.80","","","","","","NA"
"-81.90","42.25","ERIEAU (AUT)","613KLLM","2021-11-12 21:00","2021","11","12","21:00","","M","","M","63","","","","23","","28","","","","98.81","","","","","","NA"
"-81.90","42.25","ERIEAU (AUT)","613KLLM","2021-11-12 22:00","2021","11","12","22:00","","M","","M","67","","","","24","","32","","","","98.81","","","","","","NA"
"-81.90","42.25","ERIEAU (AUT)","613KLLM","2021-11-12 23:00","2021","11","12","23:00","","M","","M","70","","","","25","","23","","","","98.80","","","","","","NA"
"-81.90","42.25","ERIEAU (AUT)","613KLLM","2021-11-13 00:00","2021","11","13","00:00","","M","","M","74","","","","24","","24","","","","98.78","","","","","","NA"
"-81.90","42.25","ERIEAU (AUT)","613KLLM","2021-11-13 01:00","2021","11","13","01:00","","M","","M","80","","","","24","","23","","","","98.74","","","","","","NA"
"-81.90","42.25","ERIEAU (AUT)","613KLLM","2021-11-13 02:00","2021","11","13","02:00","","M","","M","79","","","","24","","25","","","","98.74","","","","","","NA"
"-81.90","42.25","ERIEAU (AUT)","613KLLM","2021-11-13 03:00","2021","11","13","03:00","","M","","M","74","","","","23","","29","","","","98.70","","","","","","NA"
"-81.90","42.25","ERIEAU (AUT)","613KLLM","2021-11-13 04:00","2021","11","13","04:00","","M","","M","80","","","","25","","17","","","","98.64","","","","","","NA"
"-81.90","42.25","ERIEAU (AUT)","613KLLM","2021-11-13 05:00","2021","11","13","05:00","","M","","M","76","","","","26","","18","","","","98.67","","","","","","NA"
"-81.90","42.25","ERIEAU (AUT)","613KLLM","2021-11-13 06:00","2021","11","13","06:00","","M","","M","75","","","","26","","17","","","","98.69","","","","","","NA"
"-81.90","42.25","ERIEAU (AUT)","613KLLM","2021-11-13 07:00","2021","11","13","07:00","","M","","M","77","","","","25","","19","","","","98.69","","","","","","NA"
"-81.90","42.25","ERIEAU (AUT)","613KLLM","2021-11-13 08:00","2021","11","13","08:00","","M","","M","79","","","","24","","24","","","","98.72","","","","","","NA"
"-81.90","42.25","ERIEAU (AUT)","613KLLM","2021-11-13 09:00","2021","11","13","09:00","","M","","M","79","","","","25","","21","","","","98.74","","","","","","NA"
"-81.90","42.25","ERIEAU (AUT)","613KLLM","2021-11-13 10:00","2021","11","13","10:00","","M","","M","78","","","","25","","18","","","","98.75","","","","","","NA"
"-81.90","42.25","ERIEAU (AUT)","613KLLM","2021-11-13 11:00","2021","11","13","11:00","","M","","M","75","","","","25","","16","","","","98.79","","","","","","NA"
"-81.90","42.25","ERIEAU (AUT)","613KLLM","2021-11-13 12:00","2021","11","13","12:00","","M","","M","75","","","","25","","19","","","","98.78","","","","","","NA"
"-81.90","42.25","ERIEAU (AUT)","613KLLM","2021-11-13 13:00","2021","11","13","13:00","","M","","M","76","","","","25","","21","","","","98.76","","","","","","NA"
"-81.90","42.25","ERIEAU (AUT)","613KLLM","2021-11-13 14:00","2021","11","13","14:00","","M","","M","70","","","","24","","26","","","","98.76","","","","","","NA"
"-81.90","42.25","ERIEAU (AUT)","613KLLM","2021-11-13 15:00","2021","11","13","15:00","","M","","M","78","","","","25","","20","","","","98.79","","","","","","NA"
"-81.90","42.25","ERIEAU (AUT)","613KLLM","2021-11-13 16:00","2021","11","13","16:00","","M","","M","73","","","","25","","20","","","","98.82","","","","","","NA"
"-81.90","42.25","ERIEAU (AUT)","613KLLM","2021-11-13 17:00","2021","11","13","17:00","","M","","M","76","","","","25","","20","","","","98.86","","","","","","NA"
"-81.90","42.25","ERIEAU (AUT)","613KLLM","2021-11-13 18:00","2021","11","13","18:00","","M","","M","74","","","","25","","20","","","","98.95","","","","","","NA"
"-81.90","42.25","ERIEAU (AUT)","613KLLM","2021-11-13 19:00","2021","11","13","19:00","","M","","M","73","","","","25","","20","","","","99.02","","","","","","NA"
"-81.90","42.25","ERIEAU (AUT)","613KLLM","2021-11-13 20:00","2021","11","13","20:00","","M","","M","78","","","","25","","19","","","","99.04","","","","","","NA"
"-81.90","42.25","ERIEAU (AUT)","613KLLM","2021-11-13 21:00","2021","11","13","21:00","","M","","M","79","","","","26","","18","","","","99.05","","","","","","NA"
"-81.90","42.25","ERIEAU (AUT)","613KLLM","2021-11-13 22:00","2021","11","13","22:00","","M","","M","78","","","","25","","17","","","","99.10","","","","","","NA"
"-81.90","42.25","ERIEAU (AUT)","613KLLM","2021-11-13 23:00","2021","11","13","23:00","","M","","M","76","","","","26","","16","","","","99.09","","","","","","NA"
"-81.90","42.25","ERIEAU (AUT)","613KLLM","2021-11-14 00:00","2021","11","14","00:00","","M","","M","79","","","","25","","17","","","","99.13","","","","","","NA"
"-81.90","42.25","ERIEAU (AUT)","613KLLM","2021-11-14 01:00","2021","11","14","01:00","","M","","M","77","","","","26","","17","","","","99.08","","","","","","NA"
"-81.90","42.25","ERIEAU (AUT)","613KLLM","2021-11-14 02:00","2021","11","14","02:00","","M","","M","76","","","","25","","17","","","","99.04","","","","","","NA"
"-81.90","42.25","ERIEAU (AUT)","613KLLM","2021-11-14 03:00","2021","11","14","03:00","","M","","M","75","","","","25","","18","","","","99.02","","","","","","NA"
"-81.90","42.25","ERIEAU (AUT)","613KLLM","2021-11-14 04:00","2021","11","14","04:00","","M","","M","75","","","","25","","21","","","","98.98","","","","","","NA"
"-81.90","42.25","ERIEAU (AUT)","613KLLM","2021-11-14 05:00","2021","11","14","05:00","","M","","M","82","","","","26","","15","","","","98.98","","","","","","NA"
"-81.90","42.25","ERIEAU (AUT)","613KLLM","2021-11-14 06:00","2021","11","14","06:00","","M","","M","80","","","","25","","17","","","","98.94","","","","","","NA"
"-81.90","42.25","ERIEAU (AUT)","613KLLM","2021-11-14 07:00","2021","11","14","07:00","","M","","M","78","","","","22","","23","","","","98.89","","","","","","NA"
"-81.90","42.25","ERIEAU (AUT)","613KLLM","2021-11-14 08:00","2021","11","14","08:00","","M","","M","75","","","","21","","21","","","","98.83","","","","","","NA"
"-81.90","42.25","ERIEAU (AUT)","613KLLM","2021-11-14 09:00","2021","11","14","09:00","","M","","M","77","","","","19","","31","","","","98.73","","","","","","NA"
"-81.90","42.25","ERIEAU (AUT)","613KLLM","2021-11-14 10:00","2021","11","14","10:00","","M","","M","81","","","","20","","36","","","","98.72","","","","","","NA"
"-81.90","42.25","ERIEAU (AUT)","613KLLM","2021-11-14 11:00","2021","11","14","11:00","","M","","M","84","","","","20","","33","","","","98.65","","","","","","NA"
"-81.90","42.25","ERIEAU (AUT)","613KLLM","2021-11-14 12:00","2021","11","14","12:00","","M","","M","89","","","","21","","33","","","","98.53","","","","","","NA"
"-81.90","42.25","ERIEAU (AUT)","613KLLM","2021-11-14 13:00","2021","11","14","13:00","","M","","M","88","","","","20","","38","","","","98.40","","","","","","NA"
"-81.90","42.25","ERIEAU (AUT)","613KLLM","2021-11-14 14:00","2021","11","14","14:00","","M","","M","88","","","","20","","31","","","","98.31","","","","","","NA"
"-81.90","42.25","ERIEAU (AUT)","613KLLM","2021-11-14 15:00","2021","11","14","15:00","","M","","M","90","","","","20","","32","","","","98.27","","","","","","NA"
"-81.90","42.25","ERIEAU (AUT)","613KLLM","2021-11-14 16:00","2021","11","14","16:00","","M","","M","89","","","","21","","29","","","","98.25","","","","","","NA"
"-81.90","42.25","ERIEAU (AUT)","613KLLM","2021-11-14 17:00","2021","11","14","17:00","","M","","M","89","","","","22","","21","","","","98.23","","","","","","NA"
"-81.90","42.25","ERIEAU (AUT)","613KLLM","2021-11-14 18:00","2021","11","14","18:00","","M","","M","90","","","","26","","16","","","","98.23","","","","","","NA"
"-81.90","42.25","ERIEAU (AUT)","613KLLM","2021-11-14 19:00","2021","11","14","19:00","","M","","M","91","","","","28","","15","","","","98.26","","","","","","NA"
"-81.90","42.25","ERIEAU (AUT)","613KLLM","2021-11-14 20:00","2021","11","14","20:00","","M","","M","91","","","","27","","18","","","","98.28","","","","","","NA"
"-81.90","42.25","ERIEAU (AUT)","613KLLM","2021-11-14 21:00","2021","11","14","21:00","","M","","M","91","","","","28","","12","","","","98.30","","","","","","NA"
"-81.90","42.25","ERIEAU (AUT)","613KLLM","2021-11-14 22:00","2021","11","14","22:00","","M","","M","93","","","","28","","10","","","","98.35","","","","","","NA"
"-81.90","42.25","ERIEAU (AUT)","613KLLM","2021-11-14 23:00","2021","11","14","23:00","","M","","M","94","","","","29","","9","","","","98.39","","","","","","NA"
"-81.90","42.25","ERIEAU (AUT)","613KLLM","2021-11-15 00:00","2021","11","15","00:00","","M","","M","93","","","","28","","10","","","","98.48","","","","","","NA"
"-81.90","42.25","ERIEAU (AUT)","613KLLM","2021-11-15 01:00","2021","11","15","01:00","","M","","M","91","","","","28","","11","","","","98.55","","","","","","NA"
"-81.90","42.25","ERIEAU (AUT)","613KLLM","2021-11-15 02:00","2021","11","15","02:00","","M","","M","93","","","","28","","13","","","","98.63","","","","","","NA"
"-81.90","42.25","ERIEAU (AUT)","613KLLM","2021-11-15 03:00","2021","11","15","03:00","","M","","M","85","","","","29","","18","","","","98.72","","","","","","NA"
"-81.90","42.25","ERIEAU (AUT)","613KLLM","2021-11-15 04:00","2021","11","15","04:00","","M","","M","77","","","","28","","17","","","","98.79","","","","","","NA"
"-81.90","42.25","ERIEAU (AUT)","613KLLM","2021-11-15 05:00","2021","11","15","05:00","","M","","M","82","","","","28","","20","","","","98.96","","","","","","NA"
"-81.90","42.25","ERIEAU (AUT)","613KLLM","2021-11-15 06:00","2021","11","15","06:00","","M","","M","83","","","","28","","17","","","","99.06","","","","","","NA"
"-81.90","42.25","ERIEAU (AUT)","613KLLM","2021-11-15 07:00","2021","11","15","07:00","","M","","M","85","","","","27","","15","","","","99.17","","","","","","NA"
"-81.90","42.25","ERIEAU (AUT)","613KLLM","2021-11-15 08:00","2021","11","15","08:00","","M","","M","80","","","","27","","16","","","","99.28","","","","","","NA"
"-81.90","42.25","ERIEAU (AUT)","613KLLM","2021-11-15 09:00","2021","11","15","09:00","","M","","M","76","","","","27","","17","","","","99.36","","","","","","NA"
"-81.90","42.25","ERIEAU (AUT)","613KLLM","2021-11-15 10:00","2021","11","15","10:00","","M","","M","76","","","","27","","19","","","","99.43","","","","","","NA"
"-81.90","42.25","ERIEAU (AUT)","613KLLM","2021-11-15 11:00","2021","11","15","11:00","","M","","M","69","","","","27","","20","","","","99.48","","","","","","NA"
"-81.90","42.25","ERIEAU (AUT)","613KLLM","2021-11-15 12:00","2021","11","15","12:00","","M","","M","65","","","","27","","17","","","","99.48","","","","","","NA"
"-81.90","42.25","ERIEAU (AUT)","613KLLM","2021-11-15 13:00","2021","11","15","13:00","","M","","M","56","","","","26","","17","","","","99.47","","","","","","NA"
"-81.90","42.25","ERIEAU (AUT)","613KLLM","2021-11-15 14:00","2021","11","15","14:00","","M","","M","60","","","","26","","14","","","","99.48","","","","","","NA"
"-81.90","42.25","ERIEAU (AUT)","613KLLM","2021-11-15 15:00","2021","11","15","15:00","","M","","M","55","","","","26","","15","","","","99.51","","","","","","NA"
"-81.90","42.25","ERIEAU (AUT)","613KLLM","2021-11-15 16:00","2021","11","15","16:00","","M","","M","57","","","","26","","14","","","","99.56","","","","","","NA"
"-81.90","42.25","ERIEAU (AUT)","613KLLM","2021-11-15 17:00","2021","11","15","17:00","","M","","M","57","","","","26","","14","","","","99.59","","","","","","NA"
"-81.90","42.25","ERIEAU (AUT)","613KLLM","2021-11-15 18:00","2021","11","15","18:00","","M","","M","58","","","","26","","15","","","","99.62","","","","","","NA"
"-81.90","42.25","ERIEAU (AUT)","613KLLM","2021-11-15 19:00","2021","11","15","19:00","","M","","M","64","","","","25","","16","","","","99.65","","","","","","NA"
"-81.90","42.25","ERIEAU (AUT)","613KLLM","2021-11-15 20:00","2021","11","15","20:00","","M","","M","64","","","","26","","14","","","","99.66","","","","","","NA"
"-81.90","42.25","ERIEAU (AUT)","613KLLM","2021-11-15 21:00","2021","11","15","21:00","","M","","M","66","","","","27","","12","","","","99.70","","","","","","NA"
"-81.90","42.25","ERIEAU (AUT)","613KLLM","2021-11-15 22:00","2021","11","15","22:00","","M","","M","69","","","","27","","13","","","","99.74","","","","","","NA"
"-81.90","42.25","ERIEAU (AUT)","613KLLM","2021-11-15 23:00","2021","11","15","23:00","","M","","M","71","","","","27","","13","","","","99.73","","","","","","NA"
"-81.90","42.25","ERIEAU (AUT)","613KLLM","2021-11-16 00:00","2021","11","16","00:00","","M","","M","73","","","","28","","11","","","","99.75","","","","","","NA"
"-81.90","42.25","ERIEAU (AUT)","613KLLM","2021-11-16 01:00","2021","11","16","01:00","","M","","M","75","","","","27","","13","","","","99.77","","","","","","NA"
"-81.90","42.25","ERIEAU (AUT)","613KLLM","2021-11-16 02:00","2021","11","16","02:00","","M","","M","76","","","","27","","12","","","","99.79","","","","","","NA"
"-81.90","42.25","ERIEAU (AUT)","613KLLM","2021-11-16 03:00","2021","11","16","03:00","","M","","M","72","","","","27","","13","","","","99.80","","","","","","NA"
"-81.90","42.25","ERIEAU (AUT)","613KLLM","2021-11-16 04:00","2021","11","16","04:00","","M","","M","72","","","","27","","10","","","","99.79","","","","","","NA"
"-81.90","42.25","ERIEAU (AUT)","613KLLM","2021-11-16 05:00","2021","11","16","05:00","","M","","M","74","","","","27","","10","","","","99.83","","","","","","NA"
"-81.90","42.25","ERIEAU (AUT)","613KLLM","2021-11-16 06:00","2021","11","16","06:00","","M","","M","75","","","","28","","6","","","","99.86","","","","","","NA"
"-81.90","42.25","ERIEAU (AUT)","613KLLM","2021-11-16 07:00","2021","11","16","07:00","","M","","M","77","","","","29","","6","","","","99.91","","","","","","NA"
"-81.90","42.25","ERIEAU (AUT)","613KLLM","2021-11-16 08:00","2021","11","16","08:00","","M","","M","72","","","","28","","5","","","","99.97","","","","","","NA"
"-81.90","42.25","ERIEAU (AUT)","613KLLM","2021-11-16 09:00","2021","11","16","09:00","","M","","M","62","","","","29","","6","","","","100.03","","","","","","NA"
"-81.90","42.25","ERIEAU (AUT)","613KLLM","2021-11-16 10:00","2021","11","16","10:00","","M","","M","55","","","","30","","5","","","","100.03","","","","","","NA"
"-81.90","42.25","ERIEAU (AUT)","613KLLM","2021-11-16 11:00","2021","11","16","11:00","","M","","M","56","","","","25","","5","","","","100.04","","","","","","NA"
"-81.90","42.25","ERIEAU (AUT)","613KLLM","2021-11-16 12:00","2021","11","16","12:00","","M","","M","60","","","","22","","9","","","","100.01","","","","","","NA"
"-81.90","42.25","ERIEAU (AUT)","613KLLM","2021-11-16 13:00","2021","11","16","13:00","","M","","M","62","","","","25","","8","","","","99.99","","","","","","NA"
"-81.90","42.25","ERIEAU (AUT)","613KLLM","2021-11-16 14:00","2021","11","16","14:00","","M","","M","60","","","","19","","7","","","","99.95","","","","","","NA"
"-81.90","42.25","ERIEAU (AUT)","613KLLM","2021-11-16 15:00","2021","11","16","15:00","","M","","M","59","","","","19","","7","","","","99.94","","","","","","NA"
"-81.90","42.25","ERIEAU (AUT)","613KLLM","2021-11-16 16:00","2021","11","16","16:00","","M","","M","57","","","","19","","3","","","","99.94","","","","","","NA"
"-81.90","42.25","ERIEAU (AUT)","613KLLM","2021-11-16 17:00","2021","11","16","17:00","","M","","M","62","","","","10","","5","","","","99.88","","","","","","NA"
"-81.90","42.25","ERIEAU (AUT)","613KLLM","2021-11-16 18:00","2021","11","16","18:00","","M","","M","63","","","","11","","12","","","","99.85","","","","","","NA"
"-81.90","42.25","ERIEAU (AUT)","613KLLM","2021-11-16 19:00","2021","11","16","19:00","","M","","M","66","","","","12","","15","","","","99.91","","","","","","NA"
"-81.90","42.25","ERIEAU (AUT)","613KLLM","2021-11-16 20:00","2021","11","16","20:00","","M","","M","72","","","","12","","18","","","","99.86","","","","","","NA"
"-81.90","42.25","ERIEAU (AUT)","613KLLM","2021-11-16 21:00","2021","11","16","21:00","","M","","M","69","","","","13","","22","","","","99.85","","","","","","NA"
"-81.90","42.25","ERIEAU (AUT)","613KLLM","2021-11-16 22:00","2021","11","16","22:00","","M","","M","72","","","","14","","24","","","","99.77","","","","","","NA"
"-81.90","42.25","ERIEAU (AUT)","613KLLM","2021-11-16 23:00","2021","11","16","23:00","","M","","M","74","","","","13","","30","","","","99.63","","","","","","NA"
"-81.90","42.25","ERIEAU (AUT)","613KLLM","2021-11-17 00:00","2021","11","17","00:00","","M","","M","76","","","","13","","33","","","","99.59","","","","","","NA"
"-81.90","42.25","ERIEAU (AUT)","613KLLM","2021-11-17 01:00","2021","11","17","01:00","","M","","M","76","","","","13","","26","","","","99.57","","","","","","NA"
"-81.90","42.25","ERIEAU (AUT)","613KLLM","2021-11-17 02:00","2021","11","17","02:00","","M","","M","77","","","","12","","22","","","","99.55","","","","","","NA"
"-81.90","42.25","ERIEAU (AUT)","613KLLM","2021-11-17 03:00","2021","11","17","03:00","","M","","M","75","","","","13","","21","","","","99.50","","","","","","NA"
"-81.90","42.25","ERIEAU (AUT)","613KLLM","2021-11-17 04:00","2021","11","17","04:00","","M","","M","75","","","","14","","29","","","","99.39","","","","","","NA"
"-81.90","42.25","ERIEAU (AUT)","613KLLM","2021-11-17 05:00","2021","11","17","05:00","","M","","M","78","","","","14","","24","","","","99.30","","","","","","NA"
"-81.90","42.25","ERIEAU (AUT)","613KLLM","2021-11-17 06:00","2021","11","17","06:00","","M","","M","86","","","","16","","12","","","","99.23","","","","","","NA"
"-81.90","42.25","ERIEAU (AUT)","613KLLM","2021-11-17 07:00","2021","11","17","07:00","","M","","M","87","","","","17","","31","","","","99.14","","","","","","NA"
"-81.90","42.25","ERIEAU (AUT)","613KLLM","2021-11-17 08:00","2021","11","17","08:00","","M","","M","87","","","","18","","27","","","","99.13","","","","","","NA"
"-81.90","42.25","ERIEAU (AUT)","613KLLM","2021-11-17 09:00","2021","11","17","09:00","","M","","M","87","","","","18","","28","","","","99.11","","","","","","NA"
"-81.90","42.25","ERIEAU (AUT)","613KLLM","2021-11-17 10:00","2021","11","17","10:00","","M","","M","88","","","","18","","27","","","","99.10","","","","","","NA"
"-81.90","42.25","ERIEAU (AUT)","613KLLM","2021-11-17 11:00","2021","11","17","11:00","","M","","M","87","","","","18","","30","","","","99.09","","","","","","NA"
"-81.90","42.25","ERIEAU (AUT)","613KLLM","2021-11-17 12:00","2021","11","17","12:00","","M","","M","88","","","","18","","27","","","","99.00","","","","","","NA"
"-81.90","42.25","ERIEAU (AUT)","613KLLM","2021-11-17 13:00","2021","11","17","13:00","","M","","M","88","","","","19","","33","","","","98.98","","","","","","NA"
"-81.90","42.25","ERIEAU (AUT)","613KLLM","2021-11-17 14:00","2021","11","17","14:00","","M","","M","86","","","","19","","36","","","","98.94","","","","","","NA"
"-81.90","42.25","ERIEAU (AUT)","613KLLM","2021-11-17 15:00","2021","11","17","15:00","","M","","M","86","","","","19","","32","","","","98.95","","","","","","NA"
"-81.90","42.25","ERIEAU (AUT)","613KLLM","2021-11-17 16:00","2021","11","17","16:00","","M","","M","85","","","","19","","30","","","","98.97","","","","","","NA"
"-81.90","42.25","ERIEAU (AUT)","613KLLM","2021-11-17 17:00","2021","11","17","17:00","","M","","M","86","","","","19","","29","","","","98.99","","","","","","NA"
"-81.90","42.25","ERIEAU (AUT)","613KLLM","2021-11-17 18:00","2021","11","17","18:00","","M","","M","85","","","","19","","29","","","","98.99","","","","","","NA"
"-81.90","42.25","ERIEAU (AUT)","613KLLM","2021-11-17 19:00","2021","11","17","19:00","","M","","M","86","","","","19","","26","","","","98.98","","","","","","NA"
"-81.90","42.25","ERIEAU (AUT)","613KLLM","2021-11-17 20:00","2021","11","17","20:00","","M","","M","84","","","","20","","29","","","","98.96","","","","","","NA"
"-81.90","42.25","ERIEAU (AUT)","613KLLM","2021-11-17 21:00","2021","11","17","21:00","","M","","M","84","","","","20","","26","","","","98.91","","","","","","NA"
"-81.90","42.25","ERIEAU (AUT)","613KLLM","2021-11-17 22:00","2021","11","17","22:00","","M","","M","82","","","","19","","30","","","","98.90","","","","","","NA"
"-81.90","42.25","ERIEAU (AUT)","613KLLM","2021-11-17 23:00","2021","11","17","23:00","","M","","M","89","","","","21","","39","","","","98.92","","","","","","NA"
"-81.90","42.25","ERIEAU (AUT)","613KLLM","2021-11-18 00:00","2021","11","18","00:00","","M","","M","93","","","","27","","13","","","","99.00","","","","","","NA"
"-81.90","42.25","ERIEAU (AUT)","613KLLM","2021-11-18 01:00","2021","11","18","01:00","","M","","M","87","","","","28","","23","","","","99.13","","","","","","NA"
"-81.90","42.25","ERIEAU (AUT)","613KLLM","2021-11-18 02:00","2021","11","18","02:00","","M","","M","78","","","","27","","11","","","","99.19","","","","","","NA"
"-81.90","42.25","ERIEAU (AUT)","613KLLM","2021-11-18 03:00","2021","11","18","03:00","","M","","M","81","","","","26","","10","","","","99.21","","","","","","NA"
"-81.90","42.25","ERIEAU (AUT)","613KLLM","2021-11-18 04:00","2021","11","18","04:00","","M","","M","82","","","","24","","23","","","","99.31","","","","","","NA"
"-81.90","42.25","ERIEAU (AUT)","613KLLM","2021-11-18 05:00","2021","11","18","05:00","","M","","M","83","","","","24","","23","","","","99.31","","","","","","NA"
"-81.90","42.25","ERIEAU (AUT)","613KLLM","2021-11-18 06:00","2021","11","18","06:00","","M","","M","82","","","","24","","16","","","","99.31","","","","","","NA"
"-81.90","42.25","ERIEAU (AUT)","613KLLM","2021-11-18 07:00","2021","11","18","07:00","","M","","M","77","","","","24","","18","","","","99.31","","","","","","NA"
"-81.90","42.25","ERIEAU (AUT)","613KLLM","2021-11-18 08:00","2021","11","18","08:00","","M","","M","72","","","","26","","15","","","","99.41","","","","","","NA"
"-81.90","42.25","ERIEAU (AUT)","613KLLM","2021-11-18 09:00","2021","11","18","09:00","","M","","M","73","","","","27","","15","","","","99.42","","","","","","NA"
"-81.90","42.25","ERIEAU (AUT)","613KLLM","2021-11-18 10:00","2021","11","18","10:00","","M","","M","75","","","","25","","18","","","","99.46","","","","","","NA"
"-81.90","42.25","ERIEAU (AUT)","613KLLM","2021-11-18 11:00","2021","11","18","11:00","","M","","M","70","","","","24","","20","","","","99.51","","","","","","NA"
"-81.90","42.25","ERIEAU (AUT)","613KLLM","2021-11-18 12:00","2021","11","18","12:00","","M","","M","65","","","","24","","23","","","","99.49","","","","","","NA"
"-81.90","42.25","ERIEAU (AUT)","613KLLM","2021-11-18 13:00","2021","11","18","13:00","","M","","M","64","","","","24","","30","","","","99.46","","","","","","NA"
"-81.90","42.25","ERIEAU (AUT)","613KLLM","2021-11-18 14:00","2021","11","18","14:00","","M","","M","64","","","","24","","31","","","","99.46","","","","","","NA"
"-81.90","42.25","ERIEAU (AUT)","613KLLM","2021-11-18 15:00","2021","11","18","15:00","","M","","M","62","","","","25","","25","","","","99.52","","","","","","NA"
"-81.90","42.25","ERIEAU (AUT)","613KLLM","2021-11-18 16:00","2021","11","18","16:00","","M","","M","59","","","","24","","32","","","","99.59","","","","","","NA"
"-81.90","42.25","ERIEAU (AUT)","613KLLM","2021-11-18 17:00","2021","11","18","17:00","","M","","M","62","","","","25","","19","","","","99.68","","","","","","NA"
"-81.90","42.25","ERIEAU (AUT)","613KLLM","2021-11-18 18:00","2021","11","18","18:00","","M","","M","59","","","","26","","21","","","","99.81","","","","","","NA"
"-81.90","42.25","ERIEAU (AUT)","613KLLM","2021-11-18 19:00","2021","11","18","19:00","","M","","M","62","","","","27","","22","","","","99.92","","","","","","NA"
"-81.90","42.25","ERIEAU (AUT)","613KLLM","2021-11-18 20:00","2021","11","18","20:00","","M","","M","63","","","","27","","23","","","","99.97","","","","","","NA"
"-81.90","42.25","ERIEAU (AUT)","613KLLM","2021-11-18 21:00","2021","11","18","21:00","","M","","M","66","","","","26","","21","","","","100.02","","","","","","NA"
"-81.90","42.25","ERIEAU (AUT)","613KLLM","2021-11-18 22:00","2021","11","18","22:00","","M","","M","73","","","","25","","22","","","","100.06","","","","","","NA"
"-81.90","42.25","ERIEAU (AUT)","613KLLM","2021-11-18 23:00","2021","11","18","23:00","","M","","M","73","","","","24","","29","","","","100.07","","","","","","NA"
"-81.90","42.25","ERIEAU (AUT)","613KLLM","2021-11-19 00:00","2021","11","19","00:00","","M","","M","75","","","","24","","31","","","","100.12","","","","","","NA"
"-81.90","42.25","ERIEAU (AUT)","613KLLM","2021-11-19 01:00","2021","11","19","01:00","","M","","M","76","","","","24","","29","","","","100.14","","","","","","NA"
"-81.90","42.25","ERIEAU (AUT)","613KLLM","2021-11-19 02:00","2021","11","19","02:00","","M","","M","81","","","","25","","22","","","","100.17","","","","","","NA"
"-81.90","42.25","ERIEAU (AUT)","613KLLM","2021-11-19 03:00","2021","11","19","03:00","","M","","M","82","","","","25","","22","","","","100.27","","","","","","NA"
"-81.90","42.25","ERIEAU (AUT)","613KLLM","2021-11-19 04:00","2021","11","19","04:00","","M","","M","82","","","","27","","18","","","","100.34","","","","","","NA"
"-81.90","42.25","ERIEAU (AUT)","613KLLM","2021-11-19 05:00","2021","11","19","05:00","","M","","M","80","","","","26","","17","","","","100.44","","","","","","NA"
"-81.90","42.25","ERIEAU (AUT)","613KLLM","2021-11-19 06:00","2021","11","19","06:00","","M","","M","69","","","","27","","12","","","","100.54","","","","","","NA"
"-81.90","42.25","ERIEAU (AUT)","613KLLM","2021-11-19 07:00","2021","11","19","07:00","","M","","M","74","","","","27","","13","","","","100.62","","","","","","NA"
"-81.90","42.25","ERIEAU (AUT)","613KLLM","2021-11-19 08:00","2021","11","19","08:00","","M","","M","74","","","","27","","15","","","","100.73","","","","","","NA"
"-81.90","42.25","ERIEAU (AUT)","613KLLM","2021-11-19 09:00","2021","11","19","09:00","","M","","M","71","","","","25","","16","","","","100.85","","","","","","NA"
"-81.90","42.25","ERIEAU (AUT)","613KLLM","2021-11-19 10:00","2021","11","19","10:00","","M","","M","69","","","","26","","16","","","","100.93","","","","","","NA"
"-81.90","42.25","ERIEAU (AUT)","613KLLM","2021-11-19 11:00","2021","11","19","11:00","","M","","M","64","","","","27","","16","","","","100.98","","","","","","NA"
"-81.90","42.25","ERIEAU (AUT)","613KLLM","2021-11-19 12:00","2021","11","19","12:00","","M","","M","60","","","","27","","17","","","","100.98","","","","","","NA"
"-81.90","42.25","ERIEAU (AUT)","613KLLM","2021-11-19 13:00","2021","11","19","13:00","","M","","M","57","","","","27","","13","","","","100.94","","","","","","NA"
"-81.90","42.25","ERIEAU (AUT)","613KLLM","2021-11-19 14:00","2021","11","19","14:00","","M","","M","55","","","","26","","11","","","","100.92","","","","","","NA"
"-81.90","42.25","ERIEAU (AUT)","613KLLM","2021-11-19 15:00","2021","11","19","15:00","","M","","M","53","","","","26","","8","","","","100.92","","","","","","NA"
"-81.90","42.25","ERIEAU (AUT)","613KLLM","2021-11-19 16:00","2021","11","19","16:00","","M","","M","52","","","","26","","10","","","","100.94","","","","","","NA"
"-81.90","42.25","ERIEAU (AUT)","613KLLM","2021-11-19 17:00","2021","11","19","17:00","","M","","M","53","","","","27","","8","","","","100.95","","","","","","NA"
"-81.90","42.25","ERIEAU (AUT)","613KLLM","2021-11-19 18:00","2021","11","19","18:00","","M","","M","56","","","","23","","8","","","","101.01","","","","","","NA"
"-81.90","42.25","ERIEAU (AUT)","613KLLM","2021-11-19 19:00","2021","11","19","19:00","","M","","M","61","","","","29","","3","","","","101.00","","","","","","NA"
"-81.90","42.25","ERIEAU (AUT)","613KLLM","2021-11-19 20:00","2021","11","19","20:00","","M","","M","58","","","","19","","19","","","","101.00","","","","","","NA"
"-81.90","42.25","ERIEAU (AUT)","613KLLM","2021-11-19 21:00","2021","11","19","21:00","","M","","M","55","","","","18","","18","","","","100.92","","","","","","NA"
"-81.90","42.25","ERIEAU (AUT)","613KLLM","2021-11-19 22:00","2021","11","19","22:00","","M","","M","62","","","","17","","23","","","","100.90","","","","","","NA"
"-81.90","42.25","ERIEAU (AUT)","613KLLM","2021-11-19 23:00","2021","11","19","23:00","","M","","M","61","","","","17","","21","","","","100.92","","","","","","NA"
"-81.90","42.25","ERIEAU (AUT)","613KLLM","2021-11-20 00:00","2021","11","20","00:00","","M","","M","64","","","","17","","28","","","","100.92","","","","","","NA"
"-81.90","42.25","ERIEAU (AUT)","613KLLM","2021-11-20 01:00","2021","11","20","01:00","","M","","M","68","","","","18","","25","","","","100.91","","","","","","NA"
"-81.90","42.25","ERIEAU (AUT)","613KLLM","2021-11-20 02:00","2021","11","20","02:00","","M","","M","65","","","","18","","24","","","","100.90","","","","","","NA"
"-81.90","42.25","ERIEAU (AUT)","613KLLM","2021-11-20 03:00","2021","11","20","03:00","","M","","M","64","","","","16","","25","","","","100.87","","","","","","NA"
"-81.90","42.25","ERIEAU (AUT)","613KLLM","2021-11-20 04:00","2021","11","20","04:00","","M","","M","66","","","","16","","25","","","","100.82","","","","","","NA"
"-81.90","42.25","ERIEAU (AUT)","613KLLM","2021-11-20 05:00","2021","11","20","05:00","","M","","M","65","","","","18","","24","","","","100.76","","","","","","NA"
"-81.90","42.25","ERIEAU (AUT)","613KLLM","2021-11-20 06:00","2021","11","20","06:00","","M","","M","66","","","","17","","27","","","","100.71","","","","","","NA"
"-81.90","42.25","ERIEAU (AUT)","613KLLM","2021-11-20 07:00","2021","11","20","07:00","","M","","M","66","","","","16","","28","","","","100.67","","","","","","NA"
"-81.90","42.25","ERIEAU (AUT)","613KLLM","2021-11-20 08:00","2021","11","20","08:00","","M","","M","67","","","","16","","25","","","","100.62","","","","","","NA"
"-81.90","42.25","ERIEAU (AUT)","613KLLM","2021-11-20 09:00","2021","11","20","09:00","","M","","M","69","","","","16","","27","","","","100.57","","","","","","NA"
"-81.90","42.25","ERIEAU (AUT)","613KLLM","2021-11-20 10:00","2021","11","20","10:00","","M","","M","68","","","","16","","27","","","","100.50","","","","","","NA"
"-81.90","42.25","ERIEAU (AUT)","613KLLM","2021-11-20 11:00","2021","11","20","11:00","","M","","M","67","","","","18","","26","","","","100.45","","","","","","NA"
"-81.90","42.25","ERIEAU (AUT)","613KLLM","2021-11-20 12:00","2021","11","20","12:00","","M","","M","67","","","","19","","26","","","","100.33","","","","","","NA"
"-81.90","42.25","ERIEAU (AUT)","613KLLM","2021-11-20 13:00","2021","11","20","13:00","","M","","M","67","","","","21","","18","","","","100.27","","","","","","NA"
"-81.90","42.25","ERIEAU (AUT)","613KLLM","2021-11-20 14:00","2021","11","20","14:00","","M","","M","67","","","","20","","24","","","","100.21","","","","","","NA"
"-81.90","42.25","ERIEAU (AUT)","613KLLM","2021-11-20 15:00","2021","11","20","15:00","","M","","M","67","","","","20","","20","","","","100.13","","","","","","NA"
"-81.90","42.25","ERIEAU (AUT)","613KLLM","2021-11-20 16:00","2021","11","20","16:00","","M","","M","65","","","","22","","14","","","","100.19","","","","","","NA"
"-81.90","42.25","ERIEAU (AUT)","613KLLM","2021-11-20 17:00","2021","11","20","17:00","","M","","M","65","","","","19","","11","","","","100.18","","","","","","NA"
"-81.90","42.25","ERIEAU (AUT)","613KLLM","2021-11-20 18:00","2021","11","20","18:00","","M","","M","62","","","","20","","19","","","","100.13","","","","","","NA"
"-81.90","42.25","ERIEAU (AUT)","613KLLM","2021-11-20 19:00","2021","11","20","19:00","","M","","M","58","","","","19","","24","","","","100.12","","","","","","NA"
"-81.90","42.25","ERIEAU (AUT)","613KLLM","2021-11-20 20:00","2021","11","20","20:00","","M","","M","65","","","","21","","23","","","","100.12","","","","","","NA"
"-81.90","42.25","ERIEAU (AUT)","613KLLM","2021-11-20 21:00","2021","11","20","21:00","","M","","M","66","","","","22","","18","","","","100.15","","","","","","NA"
"-81.90","42.25","ERIEAU (AUT)","613KLLM","2021-11-20 22:00","2021","11","20","22:00","","M","","M","64","","","","23","","21","","","","100.18","","","","","","NA"
"-81.90","42.25","ERIEAU (AUT)","613KLLM","2021-11-20 23:00","2021","11","20","23:00","","M","","M","67","","","","23","","24","","","","100.19","","","","","","NA"
"-81.90","42.25","ERIEAU (AUT)","613KLLM","2021-11-21 00:00","2021","11","21","00:00","","M","","M","69","","","","24","","13","","","","100.16","","","","","","NA"
"-81.90","42.25","ERIEAU (AUT)","613KLLM","2021-11-21 01:00","2021","11","21","01:00","","M","","M","68","","","","24","","14","","","","100.12","","","","","","NA"
"-81.90","42.25","ERIEAU (AUT)","613KLLM","2021-11-21 02:00","2021","11","21","02:00","","M","","M","72","","","","25","","7","","","","100.13","","","","","","NA"
"-81.90","42.25","ERIEAU (AUT)","613KLLM","2021-11-21 03:00","2021","11","21","03:00","","M","","M","68","","","","25","","9","","","","100.12","","","","","","NA"
"-81.90","42.25","ERIEAU (AUT)","613KLLM","2021-11-21 04:00","2021","11","21","04:00","","M","","M","75","","","","31","","4","","","","100.05","","","","","","NA"
"-81.90","42.25","ERIEAU (AUT)","613KLLM","2021-11-21 05:00","2021","11","21","05:00","","M","","M","82","","","","1","","4","","","","99.99","","","","","","NA"
"-81.90","42.25","ERIEAU (AUT)","613KLLM","2021-11-21 06:00","2021","11","21","06:00","","M","","M","87","","","","36","","6","","","","99.98","","","","","","NA"
"-81.90","42.25","ERIEAU (AUT)","613KLLM","2021-11-21 07:00","2021","11","21","07:00","","M","","M","84","","","","36","","3","","","","99.96","","","","","","NA"
"-81.90","42.25","ERIEAU (AUT)","613KLLM","2021-11-21 08:00","2021","11","21","08:00","","M","","M","69","","","","16","","15","","","","99.85","","","","","","NA"
"-81.90","42.25","ERIEAU (AUT)","613KLLM","2021-11-21 09:00","2021","11","21","09:00","","M","","M","72","","","","16","","18","","","","99.80","","","","","","NA"
"-81.90","42.25","ERIEAU (AUT)","613KLLM","2021-11-21 10:00","2021","11","21","10:00","","M","","M","69","","","","17","","24","","","","99.70","","","","","","NA"
"-81.90","42.25","ERIEAU (AUT)","613KLLM","2021-11-21 11:00","2021","11","21","11:00","","M","","M","72","","","","17","","29","","","","99.59","","","","","","NA"
"-81.90","42.25","ERIEAU (AUT)","613KLLM","2021-11-21 12:00","2021","11","21","12:00","","M","","M","74","","","","19","","40","","","","99.51","","","","","","NA"
"-81.90","42.25","ERIEAU (AUT)","613KLLM","2021-11-21 13:00","2021","11","21","13:00","","M","","M","84","","","","21","","33","","","","99.38","","","","","","NA"
"-81.90","42.25","ERIEAU (AUT)","613KLLM","2021-11-21 14:00","2021","11","21","14:00","","M","","M","88","","","","21","","27","","","","99.23","","","","","","NA"
"-81.90","42.25","ERIEAU (AUT)","613KLLM","2021-11-21 15:00","2021","11","21","15:00","","M","","M","91","","","","20","","32","","","","99.11","","","","","","NA"
"-81.90","42.25","ERIEAU (AUT)","613KLLM","2021-11-21 16:00","2021","11","21","16:00","","M","","M","88","","","","20","","35","","","","99.04","","","","","","NA"
"-81.90","42.25","ERIEAU (AUT)","613KLLM","2021-11-21 17:00","2021","11","21","17:00","","M","","M","87","","","","21","","35","","","","98.98","","","","","","NA"
"-81.90","42.25","ERIEAU (AUT)","613KLLM","2021-11-21 18:00","2021","11","21","18:00","","M","","M","88","","","","21","","22","","","","98.98","","","","","","NA"
"-81.90","42.25","ERIEAU (AUT)","613KLLM","2021-11-21 19:00","2021","11","21","19:00","","M","","M","84","","","","21","","22","","","","98.93","","","","","","NA"
"-81.90","42.25","ERIEAU (AUT)","613KLLM","2021-11-21 20:00","2021","11","21","20:00","","M","","M","85","","","","22","","25","","","","98.93","","","","","","NA"
"-81.90","42.25","ERIEAU (AUT)","613KLLM","2021-11-21 21:00","2021","11","21","21:00","","M","","M","85","","","","22","","27","","","","98.86","","","","","","NA"
"-81.90","42.25","ERIEAU (AUT)","613KLLM","2021-11-21 22:00","2021","11","21","22:00","","M","","M","88","","","","21","","25","","","","98.81","","","","","","NA"
"-81.90","42.25","ERIEAU (AUT)","613KLLM","2021-11-21 23:00","2021","11","21","23:00","","M","","M","82","","","","28","","21","","","","98.95","","","","","","NA"
"-81.90","42.25","ERIEAU (AUT)","613KLLM","2021-11-22 00:00","2021","11","22","00:00","","M","","M","70","","","","29","","22","","","","99.03","","","","","","NA"
"-81.90","42.25","ERIEAU (AUT)","613KLLM","2021-11-22 01:00","2021","11","22","01:00","","M","","M","69","","","","30","","17","","","","99.13","","","","","","NA"
"-81.90","42.25","ERIEAU (AUT)","613KLLM","2021-11-22 02:00","2021","11","22","02:00","","M","","M","75","","","","29","","13","","","","99.21","","","","","","NA"
"-81.90","42.25","ERIEAU (AUT)","613KLLM","2021-11-22 03:00","2021","11","22","03:00","","M","","M","70","","","","28","","15","","","","99.32","","","","","","NA"
"-81.90","42.25","ERIEAU (AUT)","613KLLM","2021-11-22 04:00","2021","11","22","04:00","","M","","M","69","","","","28","","16","","","","99.38","","","","","","NA"
"-81.90","42.25","ERIEAU (AUT)","613KLLM","2021-11-22 05:00","2021","11","22","05:00","","M","","M","60","","","","29","","22","","","","99.46","","","","","","NA"
"-81.90","42.25","ERIEAU (AUT)","613KLLM","2021-11-22 06:00","2021","11","22","06:00","","M","","M","59","","","","29","","16","","","","99.52","","","","","","NA"
"-81.90","42.25","ERIEAU (AUT)","613KLLM","2021-11-22 07:00","2021","11","22","07:00","","M","","M","56","","","","29","","19","","","","99.57","","","","","","NA"
"-81.90","42.25","ERIEAU (AUT)","613KLLM","2021-11-22 08:00","2021","11","22","08:00","","M","","M","58","","","","29","","10","","","","99.60","","","","","","NA"
"-81.90","42.25","ERIEAU (AUT)","613KLLM","2021-11-22 09:00","2021","11","22","09:00","","M","","M","58","","","","28","","13","","","","99.64","","","","","","NA"
"-81.90","42.25","ERIEAU (AUT)","613KLLM","2021-11-22 10:00","2021","11","22","10:00","","M","","M","61","","","","28","","10","","","","99.66","","","","","","NA"
"-81.90","42.25","ERIEAU (AUT)","613KLLM","2021-11-22 11:00","2021","11","22","11:00","","M","","M","59","","","","28","","13","","","","99.67","","","","","","NA"
"-81.90","42.25","ERIEAU (AUT)","613KLLM","2021-11-22 12:00","2021","11","22","12:00","","M","","M","60","","","","27","","21","","","","99.66","","","","","","NA"
"-81.90","42.25","ERIEAU (AUT)","613KLLM","2021-11-22 13:00","2021","11","22","13:00","","M","","M","58","","","","28","","19","","","","99.61","","","","","","NA"
"-81.90","42.25","ERIEAU (AUT)","613KLLM","2021-11-22 14:00","2021","11","22","14:00","","M","","M","55","","","","27","","16","","","","99.59","","","","","","NA"
"-81.90","42.25","ERIEAU (AUT)","613KLLM","2021-11-22 15:00","2021","11","22","15:00","","M","","M","54","","","","28","","15","","","","99.57","","","","","","NA"
"-81.90","42.25","ERIEAU (AUT)","613KLLM","2021-11-22 16:00","2021","11","22","16:00","","M","","M","54","","","","28","","14","","","","99.60","","","","","","NA"
"-81.90","42.25","ERIEAU (AUT)","613KLLM","2021-11-22 17:00","2021","11","22","17:00","","M","","M","57","","","","27","","9","","","","99.62","","","","","","NA"
"-81.90","42.25","ERIEAU (AUT)","613KLLM","2021-11-22 18:00","2021","11","22","18:00","","M","","M","61","","","","28","","5","","","","99.67","","","","","","NA"
"-81.90","42.25","ERIEAU (AUT)","613KLLM","2021-11-22 19:00","2021","11","22","19:00","","M","","M","58","","","","28","","5","","","","99.70","","","","","","NA"
"-81.90","42.25","ERIEAU (AUT)","613KLLM","2021-11-22 20:00","2021","11","22","20:00","","M","","M","61","","","","28","","4","","","","99.69","","","","","","NA"
"-81.90","42.25","ERIEAU (AUT)","613KLLM","2021-11-22 21:00","2021","11","22","21:00","","M","","M","53","","","","29","","6","","","","99.73","","","","","","NA"
"-81.90","42.25","ERIEAU (AUT)","613KLLM","2021-11-22 22:00","2021","11","22","22:00","","M","","M","61","","","","29","","11","","","","99.77","","","","","","NA"
"-81.90","42.25","ERIEAU (AUT)","613KLLM","2021-11-22 23:00","2021","11","22","23:00","","M","","M","66","","","","28","","11","","","","99.77","","","","","","NA"
"-81.90","42.25","ERIEAU (AUT)","613KLLM","2021-11-23 00:00","2021","11","23","00:00","","M","","M","64","","","","28","","12","","","","99.79","","","","","","NA"
"-81.90","42.25","ERIEAU (AUT)","613KLLM","2021-11-23 01:00","2021","11","23","01:00","","M","","M","64","","","","28","","8","","","","99.79","","","","","","NA"
"-81.90","42.25","ERIEAU (AUT)","613KLLM","2021-11-23 02:00","2021","11","23","02:00","","M","","M","66","","","","28","","9","","","","99.80","","","","","","NA"
"-81.90","42.25","ERIEAU (AUT)","613KLLM","2021-11-23 03:00","2021","11","23","03:00","","M","","M","68","","","","28","","8","","","","99.86","","","","","","NA"
"-81.90","42.25","ERIEAU (AUT)","613KLLM","2021-11-23 04:00","2021","11","23","04:00","","M","","M","71","","","","28","","8","","","","99.89","","","","","","NA"
"-81.90","42.25","ERIEAU (AUT)","613KLLM","2021-11-23 05:00","2021","11","23","05:00","","M","","M","73","","","","30","","6","","","","99.92","","","","","","NA"
"-81.90","42.25","ERIEAU (AUT)","613KLLM","2021-11-23 06:00","2021","11","23","06:00","","M","","M","72","","","","30","","8","","","","99.96","","","","","","NA"
"-81.90","42.25","ERIEAU (AUT)","613KLLM","2021-11-23 07:00","2021","11","23","07:00","","M","","M","72","","","","28","","9","","","","100.02","","","","","","NA"
"-81.90","42.25","ERIEAU (AUT)","613KLLM","2021-11-23 08:00","2021","11","23","08:00","","M","","M","72","","","","29","","11","","","","100.07","","","","","","NA"
"-81.90","42.25","ERIEAU (AUT)","613KLLM","2021-11-23 09:00","2021","11","23","09:00","","M","","M","67","","","","30","","9","","","","100.11","","","","","","NA"
"-81.90","42.25","ERIEAU (AUT)","613KLLM","2021-11-23 10:00","2021","11","23","10:00","","M","","M","66","","","","28","","12","","","","100.11","","","","","","NA"
"-81.90","42.25","ERIEAU (AUT)","613KLLM","2021-11-23 11:00","2021","11","23","11:00","","M","","M","64","","","","28","","10","","","","100.16","","","","","","NA"
"-81.90","42.25","ERIEAU (AUT)","613KLLM","2021-11-23 12:00","2021","11","23","12:00","","M","","M","55","","","","29","","11","","","","100.14","","","","","","NA"
"-81.90","42.25","ERIEAU (AUT)","613KLLM","2021-11-23 13:00","2021","11","23","13:00","","M","","M","51","","","","27","","13","","","","100.14","","","","","","NA"
"-81.90","42.25","ERIEAU (AUT)","613KLLM","2021-11-23 14:00","2021","11","23","14:00","","M","","M","51","","","","27","","11","","","","100.16","","","","","","NA"
"-81.90","42.25","ERIEAU (AUT)","613KLLM","2021-11-23 15:00","2021","11","23","15:00","","M","","M","51","","","","26","","9","","","","100.15","","","","","","NA"
"-81.90","42.25","ERIEAU (AUT)","613KLLM","2021-11-23 16:00","2021","11","23","16:00","","M","","M","54","","","","24","","9","","","","100.16","","","","","","NA"
"-81.90","42.25","ERIEAU (AUT)","613KLLM","2021-11-23 17:00","2021","11","23","17:00","","M","","M","56","","","","23","","12","","","","100.17","","","","","","NA"
"-81.90","42.25","ERIEAU (AUT)","613KLLM","2021-11-23 18:00","2021","11","23","18:00","","M","","M","54","","","","27","","7","","","","100.20","","","","","","NA"
"-81.90","42.25","ERIEAU (AUT)","613KLLM","2021-11-23 19:00","2021","11","23","19:00","","M","","M","60","","","","27","","6","","","","100.20","","","","","","NA"
"-81.90","42.25","ERIEAU (AUT)","613KLLM","2021-11-23 20:00","2021","11","23","20:00","","M","","M","59","","","","24","","15","","","","100.19","","","","","","NA"
"-81.90","42.25","ERIEAU (AUT)","613KLLM","2021-11-23 21:00","2021","11","23","21:00","","M","","M","64","","","","21","","18","","","","100.12","","","","","","NA"
"-81.90","42.25","ERIEAU (AUT)","613KLLM","2021-11-23 22:00","2021","11","23","22:00","","M","","M","64","","","","21","","18","","","","100.08","","","","","","NA"
"-81.90","42.25","ERIEAU (AUT)","613KLLM","2021-11-23 23:00","2021","11","23","23:00","","M","","M","63","","","","22","","13","","","","100.05","","","","","","NA"
"-81.90","42.25","ERIEAU (AUT)","613KLLM","2021-11-24 00:00","2021","11","24","00:00","","M","","M","65","","","","21","","17","","","","100.09","","","","","","NA"
"-81.90","42.25","ERIEAU (AUT)","613KLLM","2021-11-24 01:00","2021","11","24","01:00","","M","","M","67","","","","21","","25","","","","100.10","","","","","","NA"
"-81.90","42.25","ERIEAU (AUT)","613KLLM","2021-11-24 02:00","2021","11","24","02:00","","M","","M","64","","","","20","","29","","","","100.08","","","","","","NA"
"-81.90","42.25","ERIEAU (AUT)","613KLLM","2021-11-24 03:00","2021","11","24","03:00","","M","","M","63","","","","21","","19","","","","100.17","","","","","","NA"
"-81.90","42.25","ERIEAU (AUT)","613KLLM","2021-11-24 04:00","2021","11","24","04:00","","M","","M","63","","","","21","","26","","","","100.18","","","","","","NA"
"-81.90","42.25","ERIEAU (AUT)","613KLLM","2021-11-24 05:00","2021","11","24","05:00","","M","","M","64","","","","20","","28","","","","100.17","","","","","","NA"
"-81.90","42.25","ERIEAU (AUT)","613KLLM","2021-11-24 06:00","2021","11","24","06:00","","M","","M","67","","","","20","","28","","","","100.20","","","","","","NA"
"-81.90","42.25","ERIEAU (AUT)","613KLLM","2021-11-24 07:00","2021","11","24","07:00","","M","","M","69","","","","20","","31","","","","100.20","","","","","","NA"
"-81.90","42.25","ERIEAU (AUT)","613KLLM","2021-11-24 08:00","2021","11","24","08:00","","M","","M","68","","","","19","","32","","","","100.17","","","","","","NA"
"-81.90","42.25","ERIEAU (AUT)","613KLLM","2021-11-24 09:00","2021","11","24","09:00","","M","","M","66","","","","19","","32","","","","100.19","","","","","","NA"
"-81.90","42.25","ERIEAU (AUT)","613KLLM","2021-11-24 10:00","2021","11","24","10:00","","M","","M","66","","","","18","","32","","","","100.14","","","","","","NA"
"-81.90","42.25","ERIEAU (AUT)","613KLLM","2021-11-24 11:00","2021","11","24","11:00","","M","","M","65","","","","18","","36","","","","100.12","","","","","","NA"
"-81.90","42.25","ERIEAU (AUT)","613KLLM","2021-11-24 12:00","2021","11","24","12:00","","M","","M","62","","","","19","","38","","","","100.05","","","","","","NA"
"-81.90","42.25","ERIEAU (AUT)","613KLLM","2021-11-24 13:00","2021","11","24","13:00","","M","","M","57","","","","19","","37","","","","99.95","","","","","","NA"
"-81.90","42.25","ERIEAU (AUT)","613KLLM","2021-11-24 14:00","2021","11","24","14:00","","M","","M","61","","","","18","","29","","","","99.91","","","","","","NA"
"-81.90","42.25","ERIEAU (AUT)","613KLLM","2021-11-24 15:00","2021","11","24","15:00","","M","","M","58","","","","18","","29","","","","99.88","","","","","","NA"
"-81.90","42.25","ERIEAU (AUT)","613KLLM","2021-11-24 16:00","2021","11","24","16:00","","M","","M","55","","","","17","","34","","","","99.85","","","","","","NA"
"-81.90","42.25","ERIEAU (AUT)","613KLLM","2021-11-24 17:00","2021","11","24","17:00","","M","","M","58","","","","16","","36","","","","99.77","","","","","","NA"
"-81.90","42.25","ERIEAU (AUT)","613KLLM","2021-11-24 18:00","2021","11","24","18:00","","M","","M","60","","","","16","","35","","","","99.76","","","","","","NA"
"-81.90","42.25","ERIEAU (AUT)","613KLLM","2021-11-24 19:00","2021","11","24","19:00","","M","","M","61","","","","16","","34","","","","99.72","","","","","","NA"
"-81.90","42.25","ERIEAU (AUT)","613KLLM","2021-11-24 20:00","2021","11","24","20:00","","M","","M","60","","","","17","","36","","","","99.78","","","","","","NA"
"-81.90","42.25","ERIEAU (AUT)","613KLLM","2021-11-24 21:00","2021","11","24","21:00","","M","","M","60","","","","18","","31","","","","99.76","","","","","","NA"
"-81.90","42.25","ERIEAU (AUT)","613KLLM","2021-11-24 22:00","2021","11","24","22:00","","M","","M","62","","","","19","","29","","","","99.80","","","","","","NA"
"-81.90","42.25","ERIEAU (AUT)","613KLLM","2021-11-24 23:00","2021","11","24","23:00","","M","","M","61","","","","18","","30","","","","99.75","","","","","","NA"
"-81.90","42.25","ERIEAU (AUT)","613KLLM","2021-11-25 00:00","2021","11","25","00:00","","M","","M","65","","","","19","","24","","","","99.71","","","","","","NA"
"-81.90","42.25","ERIEAU (AUT)","613KLLM","2021-11-25 01:00","2021","11","25","01:00","","M","","M","67","","","","20","","26","","","","99.65","","","","","","NA"
"-81.90","42.25","ERIEAU (AUT)","613KLLM","2021-11-25 02:00","2021","11","25","02:00","","M","","M","75","","","","21","","24","","","","99.61","","","","","","NA"
"-81.90","42.25","ERIEAU (AUT)","613KLLM","2021-11-25 03:00","2021","11","25","03:00","","M","","M","84","","","","21","","20","","","","99.61","","","","","","NA"
"-81.90","42.25","ERIEAU (AUT)","613KLLM","2021-11-25 04:00","2021","11","25","04:00","","M","","M","77","","","","20","","26","","","","99.53","","","","","","NA"
"-81.90","42.25","ERIEAU (AUT)","613KLLM","2021-11-25 05:00","2021","11","25","05:00","","M","","M","72","","","","20","","24","","","","99.47","","","","","","NA"
"-81.90","42.25","ERIEAU (AUT)","613KLLM","2021-11-25 06:00","2021","11","25","06:00","","M","","M","79","","","","22","","16","","","","99.43","","","","","","NA"
"-81.90","42.25","ERIEAU (AUT)","613KLLM","2021-11-25 07:00","2021","11","25","07:00","","M","","M","80","","","","22","","16","","","","99.37","","","","","","NA"
"-81.90","42.25","ERIEAU (AUT)","613KLLM","2021-11-25 08:00","2021","11","25","08:00","","M","","M","86","","","","23","","18","","","","99.39","","","","","","NA"
"-81.90","42.25","ERIEAU (AUT)","613KLLM","2021-11-25 09:00","2021","11","25","09:00","","M","","M","90","","","","21","","17","","","","99.36","","","","","","NA"
"-81.90","42.25","ERIEAU (AUT)","613KLLM","2021-11-25 10:00","2021","11","25","10:00","","M","","M","93","","","","22","","18","","","","99.30","","","","","","NA"
"-81.90","42.25","ERIEAU (AUT)","613KLLM","2021-11-25 11:00","2021","11","25","11:00","","M","","M","93","","","","23","","23","","","","99.25","","","","","","NA"
"-81.90","42.25","ERIEAU (AUT)","613KLLM","2021-11-25 12:00","2021","11","25","12:00","","M","","M","94","","","","22","","18","","","","99.13","","","","","","NA"
"-81.90","42.25","ERIEAU (AUT)","613KLLM","2021-11-25 13:00","2021","11","25","13:00","","M","","M","93","","","","23","","24","","","","99.05","","","","","","NA"
"-81.90","42.25","ERIEAU (AUT)","613KLLM","2021-11-25 14:00","2021","11","25","14:00","","M","","M","94","","","","24","","21","","","","99.01","","","","","","NA"
"-81.90","42.25","ERIEAU (AUT)","613KLLM","2021-11-25 15:00","2021","11","25","15:00","","M","","M","95","","","","24","","18","","","","98.98","","","","","","NA"
"-81.90","42.25","ERIEAU (AUT)","613KLLM","2021-11-25 16:00","2021","11","25","16:00","","M","","M","96","","","","25","","7","","","","98.99","","","","","","NA"
"-81.90","42.25","ERIEAU (AUT)","613KLLM","2021-11-25 17:00","2021","11","25","17:00","","M","","M","97","","","","27","","7","","","","98.99","","","","","","NA"
"-81.90","42.25","ERIEAU (AUT)","613KLLM","2021-11-25 18:00","2021","11","25","18:00","","M","","M","97","","","","28","","5","","","","99.00","","","","","","NA"
"-81.90","42.25","ERIEAU (AUT)","613KLLM","2021-11-25 19:00","2021","11","25","19:00","","M","","M","97","","","","32","","11","","","","99.01","","","","","","NA"
"-81.90","42.25","ERIEAU (AUT)","613KLLM","2021-11-25 20:00","2021","11","25","20:00","","M","","M","93","","","","30","","13","","","","99.05","","","","","","NA"
"-81.90","42.25","ERIEAU (AUT)","613KLLM","2021-11-25 21:00","2021","11","25","21:00","","M","","M","92","","","","29","","14","","","","99.04","","","","","","NA"
"-81.90","42.25","ERIEAU (AUT)","613KLLM","2021-11-25 22:00","2021","11","25","22:00","","M","","M","90","","","","29","","17","","","","99.05","","","","","","NA"
"-81.90","42.25","ERIEAU (AUT)","613KLLM","2021-11-25 23:00","2021","11","25","23:00","","M","","M","85","","","","28","","22","","","","99.07","","","","","","NA"
"-81.90","42.25","ERIEAU (AUT)","613KLLM","2021-11-26 00:00","2021","11","26","00:00","","M","","M","81","","","","28","","25","","","","99.12","","","","","","NA"
"-81.90","42.25","ERIEAU (AUT)","613KLLM","2021-11-26 01:00","2021","11","26","01:00","","M","","M","80","","","","29","","19","","","","99.14","","","","","","NA"
"-81.90","42.25","ERIEAU (AUT)","613KLLM","2021-11-26 02:00","2021","11","26","02:00","","M","","M","77","","","","29","","23","","","","99.16","","","","","","NA"
"-81.90","42.25","ERIEAU (AUT)","613KLLM","2021-11-26 03:00","2021","11","26","03:00","","M","","M","73","","","","28","","19","","","","99.23","","","","","","NA"
"-81.90","42.25","ERIEAU (AUT)","613KLLM","2021-11-26 04:00","2021","11","26","04:00","","M","","M","71","","","","29","","23","","","","99.25","","","","","","NA"
"-81.90","42.25","ERIEAU (AUT)","613KLLM","2021-11-26 05:00","2021","11","26","05:00","","M","","M","71","","","","28","","19","","","","99.28","","","","","","NA"
"-81.90","42.25","ERIEAU (AUT)","613KLLM","2021-11-26 06:00","2021","11","26","06:00","","M","","M","67","","","","27","","23","","","","99.30","","","","","","NA"
"-81.90","42.25","ERIEAU (AUT)","613KLLM","2021-11-26 07:00","2021","11","26","07:00","","M","","M","69","","","","27","","21","","","","99.36","","","","","","NA"
"-81.90","42.25","ERIEAU (AUT)","613KLLM","2021-11-26 08:00","2021","11","26","08:00","","M","","M","70","","","","28","","23","","","","99.39","","","","","","NA"
"-81.90","42.25","ERIEAU (AUT)","613KLLM","2021-11-26 09:00","2021","11","26","09:00","","M","","M","73","","","","28","","19","","","","99.41","","","","","","NA"
"-81.90","42.25","ERIEAU (AUT)","613KLLM","2021-11-26 10:00","2021","11","26","10:00","","M","","M","72","","","","27","","22","","","","99.48","","","","","","NA"
"-81.90","42.25","ERIEAU (AUT)","613KLLM","2021-11-26 11:00","2021","11","26","11:00","","M","","M","72","","","","27","","20","","","","99.55","","","","","","NA"
"-81.90","42.25","ERIEAU (AUT)","613KLLM","2021-11-26 12:00","2021","11","26","12:00","","M","","M","72","","","","27","","25","","","","99.54","","","","","","NA"
"-81.90","42.25","ERIEAU (AUT)","613KLLM","2021-11-26 13:00","2021","11","26","13:00","","M","","M","70","","","","29","","23","","","","99.56","","","","","","NA"
"-81.90","42.25","ERIEAU (AUT)","613KLLM","2021-11-26 14:00","2021","11","26","14:00","","M","","M","70","","","","28","","16","","","","99.52","","","","","","NA"
"-81.90","42.25","ERIEAU (AUT)","613KLLM","2021-11-26 15:00","2021","11","26","15:00","","M","","M","71","","","","28","","18","","","","99.54","","","","","","NA"
"-81.90","42.25","ERIEAU (AUT)","613KLLM","2021-11-26 16:00","2021","11","26","16:00","","M","","M","71","","","","29","","17","","","","99.57","","","","","","NA"
"-81.90","42.25","ERIEAU (AUT)","613KLLM","2021-11-26 17:00","2021","11","26","17:00","","M","","M","71","","","","28","","16","","","","99.61","","","","","","NA"
"-81.90","42.25","ERIEAU (AUT)","613KLLM","2021-11-26 18:00","2021","11","26","18:00","","M","","M","69","","","","29","","16","","","","99.65","","","","","","NA"
"-81.90","42.25","ERIEAU (AUT)","613KLLM","2021-11-26 19:00","2021","11","26","19:00","","M","","M","67","","","","30","","11","","","","99.63","","","","","","NA"
"-81.90","42.25","ERIEAU (AUT)","613KLLM","2021-11-26 20:00","2021","11","26","20:00","","M","","M","63","","","","29","","14","","","","99.60","","","","","","NA"
"-81.90","42.25","ERIEAU (AUT)","613KLLM","2021-11-26 21:00","2021","11","26","21:00","","M","","M","63","","","","30","","10","","","","99.59","","","","","","NA"
"-81.90","42.25","ERIEAU (AUT)","613KLLM","2021-11-26 22:00","2021","11","26","22:00","","M","","M","62","","","","29","","10","","","","99.62","","","","","","NA"
"-81.90","42.25","ERIEAU (AUT)","613KLLM","2021-11-26 23:00","2021","11","26","23:00","","M","","M","64","","","","31","","10","","","","99.58","","","","","","NA"
"-81.90","42.25","ERIEAU (AUT)","613KLLM","2021-11-27 00:00","2021","11","27","00:00","","M","","M","63","","","","30","","9","","","","99.61","","","","","","NA"
"-81.90","42.25","ERIEAU (AUT)","613KLLM","2021-11-27 01:00","2021","11","27","01:00","","M","","M","66","","","","30","","8","","","","99.61","","","","","","NA"
"-81.90","42.25","ERIEAU (AUT)","613KLLM","2021-11-27 02:00","2021","11","27","02:00","","M","","M","65","","","","30","","8","","","","99.65","","","","","","NA"
"-81.90","42.25","ERIEAU (AUT)","613KLLM","2021-11-27 03:00","2021","11","27","03:00","","M","","M","66","","","","30","","8","","","","99.66","","","","","","NA"
"-81.90","42.25","ERIEAU (AUT)","613KLLM","2021-11-27 04:00","2021","11","27","04:00","","M","","M","66","","","","31","","7","","","","99.60","","","","","","NA"
"-81.90","42.25","ERIEAU (AUT)","613KLLM","2021-11-27 05:00","2021","11","27","05:00","","M","","M","66","","","","29","","3","","","","99.60","","","","","","NA"
"-81.90","42.25","ERIEAU (AUT)","613KLLM","2021-11-27 06:00","2021","11","27","06:00","","M","","M","67","","","","30","","4","","","","99.63","","","","","","NA"
"-81.90","42.25","ERIEAU (AUT)","613KLLM","2021-11-27 07:00","2021","11","27","07:00","","M","","M","69","","","","30","","4","","","","99.66","","","","","","NA"
"-81.90","42.25","ERIEAU (AUT)","613KLLM","2021-11-27 08:00","2021","11","27","08:00","","M","","M","65","","","","33","","5","","","","99.66","","","","","","NA"
"-81.90","42.25","ERIEAU (AUT)","613KLLM","2021-11-27 09:00","2021","11","27","09:00","","M","","M","67","","","","2","","6","","","","99.62","","","","","","NA"
"-81.90","42.25","ERIEAU (AUT)","613KLLM","2021-11-27 10:00","2021","11","27","10:00","","M","","M","68","","","","6","","5","","","","99.58","","","","","","NA"
"-81.90","42.25","ERIEAU (AUT)","613KLLM","2021-11-27 11:00","2021","11","27","11:00","","M","","M","71","","","","14","","5","","","","99.56","","","","","","NA"
"-81.90","42.25","ERIEAU (AUT)","613KLLM","2021-11-27 12:00","2021","11","27","12:00","","M","","M","65","","","","22","","7","","","","99.44","","","","","","NA"
"-81.90","42.25","ERIEAU (AUT)","613KLLM","2021-11-27 13:00","2021","11","27","13:00","","M","","M","70","","","","19","","5","","","","99.31","","","","","","NA"
"-81.90","42.25","ERIEAU (AUT)","613KLLM","2021-11-27 14:00","2021","11","27","14:00","","M","","M","70","","","","20","","22","","","","99.25","","","","","","NA"
"-81.90","42.25","ERIEAU (AUT)","613KLLM","2021-11-27 15:00","2021","11","27","15:00","","M","","M","86","","","","19","","20","","","","99.19","","","","","","NA"
"-81.90","42.25","ERIEAU (AUT)","613KLLM","2021-11-27 16:00","2021","11","27","16:00","","M","","M","92","","","","19","","20","","","","99.18","","","","","","NA"
"-81.90","42.25","ERIEAU (AUT)","613KLLM","2021-11-27 17:00","2021","11","27","17:00","","M","","M","96","","","","17","","15","","","","99.12","","","","","","NA"
"-81.90","42.25","ERIEAU (AUT)","613KLLM","2021-11-27 18:00","2021","11","27","18:00","","M","","M","97","","","","18","","17","","","","99.06","","","","","","NA"
"-81.90","42.25","ERIEAU (AUT)","613KLLM","2021-11-27 19:00","2021","11","27","19:00","","M","","M","97","","","","16","","17","","","","99.02","","","","","","NA"
"-81.90","42.25","ERIEAU (AUT)","613KLLM","2021-11-27 20:00","2021","11","27","20:00","","M","","M","96","","","","17","","25","","","","98.94","","","","","","NA"
"-81.90","42.25","ERIEAU (AUT)","613KLLM","2021-11-27 21:00","2021","11","27","21:00","","M","","M","91","","","","17","","23","","","","98.91","","","","","","NA"
"-81.90","42.25","ERIEAU (AUT)","613KLLM","2021-11-27 22:00","2021","11","27","22:00","","M","","M","93","","","","18","","19","","","","98.87","","","","","","NA"
"-81.90","42.25","ERIEAU (AUT)","613KLLM","2021-11-27 23:00","2021","11","27","23:00","","M","","M","93","","","","18","","17","","","","98.78","","","","","","NA"
"-81.90","42.25","ERIEAU (AUT)","613KLLM","2021-11-28 00:00","2021","11","28","00:00","","M","","M","93","","","","18","","12","","","","98.71","","","","","","NA"
"-81.90","42.25","ERIEAU (AUT)","613KLLM","2021-11-28 01:00","2021","11","28","01:00","","M","","M","90","","","","26","","6","","","","98.63","","","","","","NA"
"-81.90","42.25","ERIEAU (AUT)","613KLLM","2021-11-28 02:00","2021","11","28","02:00","","M","","M","95","","","","32","","7","","","","98.61","","","","","","NA"
"-81.90","42.25","ERIEAU (AUT)","613KLLM","2021-11-28 03:00","2021","11","28","03:00","","M","","M","96","","","","31","","8","","","","98.65","","","","","","NA"
"-81.90","42.25","ERIEAU (AUT)","613KLLM","2021-11-28 04:00","2021","11","28","04:00","","M","","M","97","","","","31","","8","","","","98.67","","","","","","NA"
"-81.90","42.25","ERIEAU (AUT)","613KLLM","2021-11-28 05:00","2021","11","28","05:00","","M","","M","98","","","","31","","8","","","","98.69","","","","","","NA"
"-81.90","42.25","ERIEAU (AUT)","613KLLM","2021-11-28 06:00","2021","11","28","06:00","","M","","M","98","","","","28","","10","","","","98.75","","","","","","NA"
"-81.90","42.25","ERIEAU (AUT)","613KLLM","2021-11-28 07:00","2021","11","28","07:00","","M","","M","98","","","","28","","12","","","","98.81","","","","","","NA"
"-81.90","42.25","ERIEAU (AUT)","613KLLM","2021-11-28 08:00","2021","11","28","08:00","","M","","M","95","","","","28","","11","","","","98.87","","","","","","NA"
"-81.90","42.25","ERIEAU (AUT)","613KLLM","2021-11-28 09:00","2021","11","28","09:00","","M","","M","93","","","","27","","14","","","","98.87","","","","","","NA"
"-81.90","42.25","ERIEAU (AUT)","613KLLM","2021-11-28 10:00","2021","11","28","10:00","","M","","M","90","","","","25","","11","","","","98.83","","","","","","NA"
"-81.90","42.25","ERIEAU (AUT)","613KLLM","2021-11-28 11:00","2021","11","28","11:00","","M","","M","91","","","","24","","24","","","","98.80","","","","","","NA"
"-81.90","42.25","ERIEAU (AUT)","613KLLM","2021-11-28 12:00","2021","11","28","12:00","","M","","M","90","","","","25","","17","","","","98.73","","","","","","NA"
"-81.90","42.25","ERIEAU (AUT)","613KLLM","2021-11-28 13:00","2021","11","28","13:00","","M","","M","86","","","","26","","17","","","","98.71","","","","","","NA"
"-81.90","42.25","ERIEAU (AUT)","613KLLM","2021-11-28 14:00","2021","11","28","14:00","","M","","M","82","","","","26","","19","","","","98.69","","","","","","NA"
"-81.90","42.25","ERIEAU (AUT)","613KLLM","2021-11-28 15:00","2021","11","28","15:00","","M","","M","85","","","","26","","20","","","","98.72","","","","","","NA"
"-81.90","42.25","ERIEAU (AUT)","613KLLM","2021-11-28 16:00","2021","11","28","16:00","","M","","M","83","","","","26","","16","","","","98.80","","","","","","NA"
"-81.90","42.25","ERIEAU (AUT)","613KLLM","2021-11-28 17:00","2021","11","28","17:00","","M","","M","86","","","","26","","13","","","","98.87","","","","","","NA"
"-81.90","42.25","ERIEAU (AUT)","613KLLM","2021-11-28 18:00","2021","11","28","18:00","","M","","M","91","","","","27","","18","","","","98.93","","","","","","NA"
"-81.90","42.25","ERIEAU (AUT)","613KLLM","2021-11-28 19:00","2021","11","28","19:00","","M","","M","91","","","","27","","17","","","","98.98","","","","","","NA"
"-81.90","42.25","ERIEAU (AUT)","613KLLM","2021-11-28 20:00","2021","11","28","20:00","","M","","M","86","","","","28","","16","","","","99.03","","","","","","NA"
"-81.90","42.25","ERIEAU (AUT)","613KLLM","2021-11-28 21:00","2021","11","28","21:00","","M","","M","81","","","","29","","15","","","","99.09","","","","","","NA"
"-81.90","42.25","ERIEAU (AUT)","613KLLM","2021-11-28 22:00","2021","11","28","22:00","","M","","M","87","","","","29","","15","","","","99.14","","","","","","NA"
"-81.90","42.25","ERIEAU (AUT)","613KLLM","2021-11-28 23:00","2021","11","28","23:00","","M","","M","87","","","","29","","16","","","","99.20","","","","","","NA"
"-81.90","42.25","ERIEAU (AUT)","613KLLM","2021-11-29 00:00","2021","11","29","00:00","","M","","M","92","","","","29","","12","","","","99.28","","","","","","NA"
"-81.90","42.25","ERIEAU (AUT)","613KLLM","2021-11-29 01:00","2021","11","29","01:00","","M","","M","89","","","","29","","10","","","","99.33","","","","","","NA"
"-81.90","42.25","ERIEAU (AUT)","613KLLM","2021-11-29 02:00","2021","11","29","02:00","","M","","M","86","","","","29","","16","","","","99.36","","","","","","NA"
"-81.90","42.25","ERIEAU (AUT)","613KLLM","2021-11-29 03:00","2021","11","29","03:00","","M","","M","85","","","","29","","14","","","","99.42","","","","","","NA"
"-81.90","42.25","ERIEAU (AUT)","613KLLM","2021-11-29 04:00","2021","11","29","04:00","","M","","M","85","","","","29","","15","","","","99.44","","","","","","NA"
"-81.90","42.25","ERIEAU (AUT)","613KLLM","2021-11-29 05:00","2021","11","29","05:00","","M","","M","82","","","","28","","18","","","","99.48","","","","","","NA"
"-81.90","42.25","ERIEAU (AUT)","613KLLM","2021-11-29 06:00","2021","11","29","06:00","","M","","M","84","","","","27","","13","","","","99.55","","","","","","NA"
"-81.90","42.25","ERIEAU (AUT)","613KLLM","2021-11-29 07:00","2021","11","29","07:00","","M","","M","86","","","","27","","8","","","","99.60","","","","","","NA"
"-81.90","42.25","ERIEAU (AUT)","613KLLM","2021-11-29 08:00","2021","11","29","08:00","","M","","M","85","","","","27","","9","","","","99.66","","","","","","NA"
"-81.90","42.25","ERIEAU (AUT)","613KLLM","2021-11-29 09:00","2021","11","29","09:00","","M","","M","81","","","","27","","6","","","","99.71","","","","","","NA"
"-81.90","42.25","ERIEAU (AUT)","613KLLM","2021-11-29 10:00","2021","11","29","10:00","","M","","M","80","","","","27","","10","","","","99.73","","","","","","NA"
"-81.90","42.25","ERIEAU (AUT)","613KLLM","2021-11-29 11:00","2021","11","29","11:00","","M","","M","79","","","","28","","8","","","","99.73","","","","","","NA"
"-81.90","42.25","ERIEAU (AUT)","613KLLM","2021-11-29 12:00","2021","11","29","12:00","","M","","M","79","","","","27","","10","","","","99.67","","","","","","NA"
"-81.90","42.25","ERIEAU (AUT)","613KLLM","2021-11-29 13:00","2021","11","29","13:00","","M","","M","74","","","","25","","10","","","","99.60","","","","","","NA"
"-81.90","42.25","ERIEAU (AUT)","613KLLM","2021-11-29 14:00","2021","11","29","14:00","","M","","M","62","","","","24","","13","","","","99.55","","","","","","NA"
"-81.90","42.25","ERIEAU (AUT)","613KLLM","2021-11-29 15:00","2021","11","29","15:00","","M","","M","56","","","","23","","17","","","","99.51","","","","","","NA"
"-81.90","42.25","ERIEAU (AUT)","613KLLM","2021-11-29 16:00","2021","11","29","16:00","","M","","M","57","","","","25","","12","","","","99.50","","","","","","NA"
"-81.90","42.25","ERIEAU (AUT)","613KLLM","2021-11-29 17:00","2021","11","29","17:00","","M","","M","55","","","","25","","10","","","","99.46","","","","","","NA"
"-81.90","42.25","ERIEAU (AUT)","613KLLM","2021-11-29 18:00","2021","11","29","18:00","","M","","M","60","","","","24","","16","","","","99.44","","","","","","NA"
"-81.90","42.25","ERIEAU (AUT)","613KLLM","2021-11-29 19:00","2021","11","29","19:00","","M","","M","63","","","","22","","13","","","","99.41","","","","","","NA"
"-81.90","42.25","ERIEAU (AUT)","613KLLM","2021-11-29 20:00","2021","11","29","20:00","","M","","M","60","","","","22","","14","","","","99.38","","","","","","NA"
"-81.90","42.25","ERIEAU (AUT)","613KLLM","2021-11-29 21:00","2021","11","29","21:00","","M","","M","55","","","","23","","21","","","","99.34","","","","","","NA"
"-81.90","42.25","ERIEAU (AUT)","613KLLM","2021-11-29 22:00","2021","11","29","22:00","","M","","M","56","","","","22","","16","","","","99.33","","","","","","NA"
"-81.90","42.25","ERIEAU (AUT)","613KLLM","2021-11-29 23:00","2021","11","29","23:00","","M","","M","87","","","","25","","14","","","","99.37","","","","","","NA"
"-81.90","42.25","ERIEAU (AUT)","613KLLM","2021-11-30 00:00","2021","11","30","00:00","","M","","M","88","","","","23","","18","","","","99.32","","","","","","NA"
"-81.90","42.25","ERIEAU (AUT)","613KLLM","2021-11-30 01:00","2021","11","30","01:00","","M","","M","87","","","","21","","28","","","","99.19","","","","","","NA"
"-81.90","42.25","ERIEAU (AUT)","613KLLM","2021-11-30 02:00","2021","11","30","02:00","","M","","M","87","","","","20","","27","","","","99.09","","","","","","NA"
"-81.90","42.25","ERIEAU (AUT)","613KLLM","2021-11-30 03:00","2021","11","30","03:00","","M","","M","88","","","","20","","27","","","","99.05","","","","","","NA"
"-81.90","42.25","ERIEAU (AUT)","613KLLM","2021-11-30 04:00","2021","11","30","04:00","","M","","M","90","","","","17","","18","","","","98.93","","","","","","NA"
"-81.90","42.25","ERIEAU (AUT)","613KLLM","2021-11-30 05:00","2021","11","30","05:00","","M","","M","83","","","","17","","21","","","","98.88","","","","","","NA"
"-81.90","42.25","ERIEAU (AUT)","613KLLM","2021-11-30 06:00","2021","11","30","06:00","","M","","M","78","","","","17","","20","","","","98.87","","","","","","NA"
"-81.90","42.25","ERIEAU (AUT)","613KLLM","2021-11-30 07:00","2021","11","30","07:00","","M","","M","74","","","","18","","19","","","","98.87","","","","","","NA"
"-81.90","42.25","ERIEAU (AUT)","613KLLM","2021-11-30 08:00","2021","11","30","08:00","","M","","M","70","","","","23","","14","","","","98.89","","","","","","NA"
"-81.90","42.25","ERIEAU (AUT)","613KLLM","2021-11-30 09:00","2021","11","30","09:00","","M","","M","69","","","","28","","10","","","","98.95","","","","","","NA"
"-81.90","42.25","ERIEAU (AUT)","613KLLM","2021-11-30 10:00","2021","11","30","10:00","","M","","M","69","","","","26","","11","","","","98.97","","","","","","NA"
"-81.90","42.25","ERIEAU (AUT)","613KLLM","2021-11-30 11:00","2021","11","30","11:00","","M","","M","70","","","","28","","10","","","","98.99","","","","","","NA"
"-81.90","42.25","ERIEAU (AUT)","613KLLM","2021-11-30 12:00","2021","11","30","12:00","","M","","M","71","","","","28","","13","","","","98.98","","","","","","NA"
"-81.90","42.25","ERIEAU (AUT)","613KLLM","2021-11-30 13:00","2021","11","30","13:00","","M","","M","72","","","","25","","12","","","","98.96","","","","","","NA"
"-81.90","42.25","ERIEAU (AUT)","613KLLM","2021-11-30 14:00","2021","11","30","14:00","","M","","M","74","","","","23","","15","","","","98.94","","","","","","NA"
"-81.90","42.25","ERIEAU (AUT)","613KLLM","2021-11-30 15:00","2021","11","30","15:00","","M","","M","80","","","","22","","18","","","","98.98","","","","","","NA"
"-81.90","42.25","ERIEAU (AUT)","613KLLM","2021-11-30 16:00","2021","11","30","16:00","","M","","M","80","","","","25","","17","","","","99.07","","","","","","NA"
"-81.90","42.25","ERIEAU (AUT)","613KLLM","2021-11-30 17:00","2021","11","30","17:00","","M","","M","79","","","","27","","18","","","","99.17","","","","","","NA"
"-81.90","42.25","ERIEAU (AUT)","613KLLM","2021-11-30 18:00","2021","11","30","18:00","","M","","M","76","","","","27","","17","","","","99.29","","","","","","NA"
"-81.90","42.25","ERIEAU (AUT)","613KLLM","2021-11-30 19:00","2021","11","30","19:00","","M","","M","76","","","","27","","16","","","","99.36","","","","","","NA"
"-81.90","42.25","ERIEAU (AUT)","613KLLM","2021-11-30 20:00","2021","11","30","20:00","","M","","M","74","","","","27","","16","","","","99.45","","","","","","NA"
"-81.90","42.25","ERIEAU (AUT)","613KLLM","2021-11-30 21:00","2021","11","30","21:00","","M","","M","75","","","","27","","15","","","","99.51","","","","","","NA"
"-81.90","42.25","ERIEAU (AUT)","613KLLM","2021-11-30 22:00","2021","11","30","22:00","","M","","M","77","","","","27","","13","","","","99.55","","","","","","NA"
"-81.90","42.25","ERIEAU (AUT)","613KLLM","2021-11-30 23:00","2021","11","30","23:00","","M","","M","75","","","","27","","13","","","","99.58","","","","","","NA"
