"Longitude (x)","Latitude (y)","Station Name","Climate ID","Date/Time (LST)","Year","Month","Day","Time (LST)","Temp (°C)","Temp Flag","Dew Point Temp (°C)","Dew Point Temp Flag","Rel Hum (%)","Rel Hum Flag","Precip. Amount (mm)","Precip. Amount Flag","Wind Dir (10s deg)","Wind Dir Flag","Wind Spd (km/h)","Wind Spd Flag","Visibility (km)","Visibility Flag","Stn Press (kPa)","Stn Press Flag","Hmdx","Hmdx Flag","Wind Chill","Wind Chill Flag","Weather"
"-81.90","42.25","ERIEAU (AUT)","613KLLM","2021-09-01 00:00","2021","09","01","00:00","20.0","","15.2","","74","","","","36","","24","","","","98.93","","","","","","NA"
"-81.90","42.25","ERIEAU (AUT)","613KLLM","2021-09-01 01:00","2021","09","01","01:00","19.8","","15.1","","74","","","","2","","20","","","","98.89","","","","","","NA"
"-81.90","42.25","ERIEAU (AUT)","613KLLM","2021-09-01 02:00","2021","09","01","02:00","19.3","","14.7","","75","","","","36","","24","","","","98.86","","","","","","NA"
"-81.90","42.25","ERIEAU (AUT)","613KLLM","2021-09-01 03:00","2021","09","01","03:00","19.2","","14.1","","72","","","","2","","23","","","","98.85","","","","","","NA"
"-81.90","42.25","ERIEAU (AUT)","613KLLM","2021-09-01 04:00","2021","09","01","04:00","19.1","","14.5","","75","","","","1","","23","","","","98.85","","","","","","NA"
"-81.90","42.25","ERIEAU (AUT)","613KLLM","2021-09-01 05:00","2021","09","01","05:00","18.7","","15.0","","79","","","","36","","25","","","","98.86","","","","","","NA"
"-81.90","42.25","ERIEAU (AUT)","613KLLM","2021-09-01 06:00","2021","09","01","06:00","18.8","","15.7","","82","","","","1","","21","","","","98.86","","","","","","NA"
"-81.90","42.25","ERIEAU (AUT)","613KLLM","2021-09-01 07:00","2021","09","01","07:00","18.6","","15.4","","82","","","","36","","24","","","","98.92","","","","","","NA"
"-81.90","42.25","ERIEAU (AUT)","613KLLM","2021-09-01 08:00","2021","09","01","08:00","18.4","","14.5","","78","","","","1","","29","","","","98.94","","","","","","NA"
"-81.90","42.25","ERIEAU (AUT)","613KLLM","2021-09-01 09:00","2021","09","01","09:00","19.3","","14.5","","74","","","","2","","23","","","","99.00","","","","","","NA"
"-81.90","42.25","ERIEAU (AUT)","613KLLM","2021-09-01 10:00","2021","09","01","10:00","20.9","","16.1","","74","","","","3","","23","","","","99.06","","26","","","","NA"
"-81.90","42.25","ERIEAU (AUT)","613KLLM","2021-09-01 11:00","2021","09","01","11:00","21.2","","15.8","","71","","","","3","","25","","","","99.08","","26","","","","NA"
"-81.90","42.25","ERIEAU (AUT)","613KLLM","2021-09-01 12:00","2021","09","01","12:00","22.0","","13.7","","59","","","","3","","25","","","","99.07","","25","","","","NA"
"-81.90","42.25","ERIEAU (AUT)","613KLLM","2021-09-01 13:00","2021","09","01","13:00","22.6","","11.9","","51","","","","3","","27","","","","99.10","","25","","","","NA"
"-81.90","42.25","ERIEAU (AUT)","613KLLM","2021-09-01 14:00","2021","09","01","14:00","22.8","","13.7","","56","","","","4","","23","","","","99.08","","26","","","","NA"
"-81.90","42.25","ERIEAU (AUT)","613KLLM","2021-09-01 15:00","2021","09","01","15:00","23.5","","12.9","","52","","","","4","","21","","","","99.10","","26","","","","NA"
"-81.90","42.25","ERIEAU (AUT)","613KLLM","2021-09-01 16:00","2021","09","01","16:00","24.1","","11.1","","44","","","","36","","22","","","","99.11","","26","","","","NA"
"-81.90","42.25","ERIEAU (AUT)","613KLLM","2021-09-01 17:00","2021","09","01","17:00","24.3","","11.2","","44","","","","35","","20","","","","99.13","","26","","","","NA"
"-81.90","42.25","ERIEAU (AUT)","613KLLM","2021-09-01 18:00","2021","09","01","18:00","22.9","","13.9","","57","","","","33","","18","","","","99.18","","26","","","","NA"
"-81.90","42.25","ERIEAU (AUT)","613KLLM","2021-09-01 19:00","2021","09","01","19:00","21.2","","13.4","","61","","","","33","","16","","","","99.22","","","","","","NA"
"-81.90","42.25","ERIEAU (AUT)","613KLLM","2021-09-01 20:00","2021","09","01","20:00","20.1","","13.3","","65","","","","33","","16","","","","99.29","","","","","","NA"
"-81.90","42.25","ERIEAU (AUT)","613KLLM","2021-09-01 21:00","2021","09","01","21:00","19.3","","13.3","","68","","","","33","","19","","","","99.34","","","","","","NA"
"-81.90","42.25","ERIEAU (AUT)","613KLLM","2021-09-01 22:00","2021","09","01","22:00","18.6","","12.9","","69","","","","34","","18","","","","99.36","","","","","","NA"
"-81.90","42.25","ERIEAU (AUT)","613KLLM","2021-09-01 23:00","2021","09","01","23:00","17.8","","11.7","","68","","","","34","","16","","","","99.44","","","","","","NA"
"-81.90","42.25","ERIEAU (AUT)","613KLLM","2021-09-02 00:00","2021","09","02","00:00","17.2","","10.8","","66","","","","35","","13","","","","99.48","","","","","","NA"
"-81.90","42.25","ERIEAU (AUT)","613KLLM","2021-09-02 01:00","2021","09","02","01:00","16.8","","11.2","","70","","","","34","","11","","","","99.47","","","","","","NA"
"-81.90","42.25","ERIEAU (AUT)","613KLLM","2021-09-02 02:00","2021","09","02","02:00"
"-81.90","42.25","ERIEAU (AUT)","613KLLM","2021-09-02 03:00","2021","09","02","03:00"
"-81.90","42.25","ERIEAU (AUT)","613KLLM","2021-09-02 04:00","2021","09","02","04:00","16.6","","11.5","","72","","","","34","","12","","","","99.51","","","","","","NA"
"-81.90","42.25","ERIEAU (AUT)","613KLLM","2021-09-02 05:00","2021","09","02","05:00","16.6","","11.2","","71","","","","34","","11","","","","99.58","","","","","","NA"
"-81.90","42.25","ERIEAU (AUT)","613KLLM","2021-09-02 06:00","2021","09","02","06:00","16.3","","10.9","","70","","","","31","","6","","","","99.66","","","","","","NA"
"-81.90","42.25","ERIEAU (AUT)","613KLLM","2021-09-02 07:00","2021","09","02","07:00","18.3","","11.9","","66","","","","1","","14","","","","99.72","","","","","","NA"
"-81.90","42.25","ERIEAU (AUT)","613KLLM","2021-09-02 08:00","2021","09","02","08:00","17.2","","11.5","","69","","","","31","","5","","","","99.77","","","","","","NA"
"-81.90","42.25","ERIEAU (AUT)","613KLLM","2021-09-02 09:00","2021","09","02","09:00","18.9","","11.6","","63","","","","32","","8","","","","99.83","","","","","","NA"
"-81.90","42.25","ERIEAU (AUT)","613KLLM","2021-09-02 10:00","2021","09","02","10:00","20.5","","9.5","","49","","","","35","","9","","","","99.85","","","","","","NA"
"-81.90","42.25","ERIEAU (AUT)","613KLLM","2021-09-02 11:00","2021","09","02","11:00","21.8","","9.0","","44","","","","34","","12","","","","99.83","","","","","","NA"
"-81.90","42.25","ERIEAU (AUT)","613KLLM","2021-09-02 12:00","2021","09","02","12:00","22.8","","9.2","","42","","","","33","","9","","","","99.82","","","","","","NA"
"-81.90","42.25","ERIEAU (AUT)","613KLLM","2021-09-02 13:00","2021","09","02","13:00","23.2","","8.4","","39","","","","34","","11","","","","99.79","","","","","","NA"
"-81.90","42.25","ERIEAU (AUT)","613KLLM","2021-09-02 14:00","2021","09","02","14:00","24.6","","9.9","","39","","","","33","","6","","","","99.78","","26","","","","NA"
"-81.90","42.25","ERIEAU (AUT)","613KLLM","2021-09-02 15:00","2021","09","02","15:00","23.9","","8.4","","37","","","","34","","15","","","","99.75","","","","","","NA"
"-81.90","42.25","ERIEAU (AUT)","613KLLM","2021-09-02 16:00","2021","09","02","16:00","23.8","","7.1","","34","","","","33","","12","","","","99.76","","","","","","NA"
"-81.90","42.25","ERIEAU (AUT)","613KLLM","2021-09-02 17:00","2021","09","02","17:00","23.6","","8.5","","38","","","","31","","9","","","","99.77","","","","","","NA"
"-81.90","42.25","ERIEAU (AUT)","613KLLM","2021-09-02 18:00","2021","09","02","18:00","22.5","","10.2","","46","","","","33","","11","","","","99.81","","","","","","NA"
"-81.90","42.25","ERIEAU (AUT)","613KLLM","2021-09-02 19:00","2021","09","02","19:00","20.2","","8.6","","47","","","","34","","18","","","","99.86","","","","","","NA"
"-81.90","42.25","ERIEAU (AUT)","613KLLM","2021-09-02 20:00","2021","09","02","20:00","18.8","","9.8","","56","","","","35","","15","","","","99.90","","","","","","NA"
"-81.90","42.25","ERIEAU (AUT)","613KLLM","2021-09-02 21:00","2021","09","02","21:00","18.0","","9.9","","59","","","","36","","18","","","","99.93","","","","","","NA"
"-81.90","42.25","ERIEAU (AUT)","613KLLM","2021-09-02 22:00","2021","09","02","22:00","17.0","","10.6","","66","","","","35","","17","","","","99.94","","","","","","NA"
"-81.90","42.25","ERIEAU (AUT)","613KLLM","2021-09-02 23:00","2021","09","02","23:00","16.6","","10.0","","65","","","","35","","12","","","","99.95","","","","","","NA"
"-81.90","42.25","ERIEAU (AUT)","613KLLM","2021-09-03 00:00","2021","09","03","00:00","15.9","","9.9","","68","","","","33","","11","","","","99.95","","","","","","NA"
"-81.90","42.25","ERIEAU (AUT)","613KLLM","2021-09-03 01:00","2021","09","03","01:00","15.5","","10.8","","74","","","","36","","16","","","","99.96","","","","","","NA"
"-81.90","42.25","ERIEAU (AUT)","613KLLM","2021-09-03 02:00","2021","09","03","02:00","15.1","","11.4","","79","","","","35","","15","","","","99.94","","","","","","NA"
"-81.90","42.25","ERIEAU (AUT)","613KLLM","2021-09-03 03:00","2021","09","03","03:00","15.4","","12.5","","83","","","","36","","14","","","","99.93","","","","","","NA"
"-81.90","42.25","ERIEAU (AUT)","613KLLM","2021-09-03 04:00","2021","09","03","04:00","14.9","","12.1","","83","","","","35","","10","","","","99.97","","","","","","NA"
"-81.90","42.25","ERIEAU (AUT)","613KLLM","2021-09-03 05:00","2021","09","03","05:00","14.5","","12.0","","85","","","","35","","11","","","","100.00","","","","","","NA"
"-81.90","42.25","ERIEAU (AUT)","613KLLM","2021-09-03 06:00","2021","09","03","06:00","14.4","","12.2","","87","","","","35","","11","","","","100.01","","","","","","NA"
"-81.90","42.25","ERIEAU (AUT)","613KLLM","2021-09-03 07:00","2021","09","03","07:00","15.3","","12.9","","86","","","","35","","10","","","","100.01","","","","","","NA"
"-81.90","42.25","ERIEAU (AUT)","613KLLM","2021-09-03 08:00","2021","09","03","08:00","16.4","","13.3","","82","","","","1","","15","","","","100.03","","","","","","NA"
"-81.90","42.25","ERIEAU (AUT)","613KLLM","2021-09-03 09:00","2021","09","03","09:00","17.6","","13.4","","77","","","","35","","11","","","","100.04","","","","","","NA"
"-81.90","42.25","ERIEAU (AUT)","613KLLM","2021-09-03 10:00","2021","09","03","10:00","18.7","","14.1","","75","","","","5","","12","","","","100.07","","","","","","NA"
"-81.90","42.25","ERIEAU (AUT)","613KLLM","2021-09-03 11:00","2021","09","03","11:00","19.6","","14.2","","71","","","","6","","7","","","","100.09","","","","","","NA"
"-81.90","42.25","ERIEAU (AUT)","613KLLM","2021-09-03 12:00","2021","09","03","12:00","20.9","","14.1","","65","","","","5","","5","","","","100.06","","","","","","NA"
"-81.90","42.25","ERIEAU (AUT)","613KLLM","2021-09-03 13:00","2021","09","03","13:00","20.2","","13.5","","65","","","","10","","8","","","","100.03","","","","","","NA"
"-81.90","42.25","ERIEAU (AUT)","613KLLM","2021-09-03 14:00","2021","09","03","14:00","20.1","","12.7","","63","","","","12","","11","","","","100.02","","","","","","NA"
"-81.90","42.25","ERIEAU (AUT)","613KLLM","2021-09-03 15:00","2021","09","03","15:00","20.5","","13.3","","63","","","","10","","10","","","","99.95","","","","","","NA"
"-81.90","42.25","ERIEAU (AUT)","613KLLM","2021-09-03 16:00","2021","09","03","16:00","20.8","","13.5","","63","","","","10","","10","","","","99.90","","","","","","NA"
"-81.90","42.25","ERIEAU (AUT)","613KLLM","2021-09-03 17:00","2021","09","03","17:00","20.6","","13.5","","64","","","","10","","7","","","","99.87","","","","","","NA"
"-81.90","42.25","ERIEAU (AUT)","613KLLM","2021-09-03 18:00","2021","09","03","18:00","20.8","","13.7","","64","","","","10","","6","","","","99.82","","","","","","NA"
"-81.90","42.25","ERIEAU (AUT)","613KLLM","2021-09-03 19:00","2021","09","03","19:00","20.8","","13.2","","62","","","","10","","4","","","","99.81","","","","","","NA"
"-81.90","42.25","ERIEAU (AUT)","613KLLM","2021-09-03 20:00","2021","09","03","20:00","20.9","","13.4","","62","","","","8","","5","","","","99.82","","","","","","NA"
"-81.90","42.25","ERIEAU (AUT)","613KLLM","2021-09-03 21:00","2021","09","03","21:00","21.0","","13.3","","61","","","","9","","4","","","","99.83","","","","","","NA"
"-81.90","42.25","ERIEAU (AUT)","613KLLM","2021-09-03 22:00","2021","09","03","22:00","21.1","","13.9","","63","","","","7","","8","","","","99.77","","","","","","NA"
"-81.90","42.25","ERIEAU (AUT)","613KLLM","2021-09-03 23:00","2021","09","03","23:00","21.3","","14.2","","64","","","","8","","9","","","","99.75","","25","","","","NA"
"-81.90","42.25","ERIEAU (AUT)","613KLLM","2021-09-04 00:00","2021","09","04","00:00","21.5","","14.3","","63","","","","10","","12","","","","99.72","","25","","","","NA"
"-81.90","42.25","ERIEAU (AUT)","613KLLM","2021-09-04 01:00","2021","09","04","01:00","21.5","","14.4","","64","","","","12","","13","","","","99.74","","25","","","","NA"
"-81.90","42.25","ERIEAU (AUT)","613KLLM","2021-09-04 02:00","2021","09","04","02:00","21.5","","14.2","","63","","","","12","","14","","","","99.73","","25","","","","NA"
"-81.90","42.25","ERIEAU (AUT)","613KLLM","2021-09-04 03:00","2021","09","04","03:00","21.4","","13.2","","59","","","","15","","14","","","","99.69","","","","","","NA"
"-81.90","42.25","ERIEAU (AUT)","613KLLM","2021-09-04 04:00","2021","09","04","04:00","21.5","","12.3","","56","","","","15","","10","","","","99.66","","","","","","NA"
"-81.90","42.25","ERIEAU (AUT)","613KLLM","2021-09-04 05:00","2021","09","04","05:00","21.1","","13.9","","63","","","","16","","6","","","","99.62","","","","","","NA"
"-81.90","42.25","ERIEAU (AUT)","613KLLM","2021-09-04 06:00","2021","09","04","06:00","21.2","","14.8","","67","","","","15","","6","","","","99.60","","25","","","","NA"
"-81.90","42.25","ERIEAU (AUT)","613KLLM","2021-09-04 07:00","2021","09","04","07:00","21.6","","14.7","","65","","","","17","","8","","","","99.64","","25","","","","NA"
"-81.90","42.25","ERIEAU (AUT)","613KLLM","2021-09-04 08:00","2021","09","04","08:00","22.1","","15.2","","65","","","","16","","7","","","","99.62","","26","","","","NA"
"-81.90","42.25","ERIEAU (AUT)","613KLLM","2021-09-04 09:00","2021","09","04","09:00","22.1","","15.6","","67","","","","16","","9","","","","99.57","","26","","","","NA"
"-81.90","42.25","ERIEAU (AUT)","613KLLM","2021-09-04 10:00","2021","09","04","10:00","22.9","","15.5","","63","","","","17","","9","","","","99.52","","27","","","","NA"
"-81.90","42.25","ERIEAU (AUT)","613KLLM","2021-09-04 11:00","2021","09","04","11:00","23.0","","15.6","","63","","","","16","","9","","","","99.46","","27","","","","NA"
"-81.90","42.25","ERIEAU (AUT)","613KLLM","2021-09-04 12:00","2021","09","04","12:00","23.0","","15.6","","63","","","","16","","12","","","","99.39","","27","","","","NA"
"-81.90","42.25","ERIEAU (AUT)","613KLLM","2021-09-04 13:00","2021","09","04","13:00","22.8","","15.0","","61","","","","18","","13","","","","99.37","","27","","","","NA"
"-81.90","42.25","ERIEAU (AUT)","613KLLM","2021-09-04 14:00","2021","09","04","14:00","22.9","","14.5","","59","","","","16","","8","","","","99.26","","27","","","","NA"
"-81.90","42.25","ERIEAU (AUT)","613KLLM","2021-09-04 15:00","2021","09","04","15:00","23.3","","15.0","","60","","","","17","","11","","","","99.19","","27","","","","NA"
"-81.90","42.25","ERIEAU (AUT)","613KLLM","2021-09-04 16:00","2021","09","04","16:00","23.1","","15.6","","62","","","","18","","11","","","","99.14","","27","","","","NA"
"-81.90","42.25","ERIEAU (AUT)","613KLLM","2021-09-04 17:00","2021","09","04","17:00","23.0","","15.7","","63","","","","18","","12","","","","99.10","","27","","","","NA"
"-81.90","42.25","ERIEAU (AUT)","613KLLM","2021-09-04 18:00","2021","09","04","18:00","23.6","","15.3","","59","","","","17","","17","","","","99.03","","28","","","","NA"
"-81.90","42.25","ERIEAU (AUT)","613KLLM","2021-09-04 19:00","2021","09","04","19:00","23.9","","15.6","","60","","","","17","","17","","","","98.93","","28","","","","NA"
"-81.90","42.25","ERIEAU (AUT)","613KLLM","2021-09-04 20:00","2021","09","04","20:00","24.0","","15.8","","60","","","","17","","22","","","","98.90","","28","","","","NA"
"-81.90","42.25","ERIEAU (AUT)","613KLLM","2021-09-04 21:00","2021","09","04","21:00","24.0","","18.3","","70","","","","19","","26","","","","98.87","","30","","","","NA"
"-81.90","42.25","ERIEAU (AUT)","613KLLM","2021-09-04 22:00","2021","09","04","22:00","22.5","","18.5","","78","","","","22","","9","","","","98.83","","29","","","","NA"
"-81.90","42.25","ERIEAU (AUT)","613KLLM","2021-09-04 23:00","2021","09","04","23:00","21.7","","19.1","","85","","","","22","","12","","","","98.80","","29","","","","NA"
"-81.90","42.25","ERIEAU (AUT)","613KLLM","2021-09-05 00:00","2021","09","05","00:00","21.7","","19.5","","87","","","","21","","10","","","","98.75","","29","","","","NA"
"-81.90","42.25","ERIEAU (AUT)","613KLLM","2021-09-05 01:00","2021","09","05","01:00","21.1","","18.6","","86","","","","25","","17","","","","98.72","","28","","","","NA"
"-81.90","42.25","ERIEAU (AUT)","613KLLM","2021-09-05 02:00","2021","09","05","02:00","20.5","","18.4","","88","","","","25","","10","","","","98.68","","27","","","","NA"
"-81.90","42.25","ERIEAU (AUT)","613KLLM","2021-09-05 03:00","2021","09","05","03:00","20.2","","18.2","","89","","","","25","","10","","","","98.69","","26","","","","NA"
"-81.90","42.25","ERIEAU (AUT)","613KLLM","2021-09-05 04:00","2021","09","05","04:00","20.0","","18.1","","89","","","","26","","7","","","","98.67","","26","","","","NA"
"-81.90","42.25","ERIEAU (AUT)","613KLLM","2021-09-05 05:00","2021","09","05","05:00","19.9","","18.1","","90","","","","27","","10","","","","98.68","","","","","","NA"
"-81.90","42.25","ERIEAU (AUT)","613KLLM","2021-09-05 06:00","2021","09","05","06:00","19.2","","17.6","","91","","","","26","","8","","","","98.72","","","","","","NA"
"-81.90","42.25","ERIEAU (AUT)","613KLLM","2021-09-05 07:00","2021","09","05","07:00","19.4","","17.7","","90","","","","27","","6","","","","98.77","","","","","","NA"
"-81.90","42.25","ERIEAU (AUT)","613KLLM","2021-09-05 08:00","2021","09","05","08:00","19.8","","16.9","","84","","","","30","","7","","","","98.80","","","","","","NA"
"-81.90","42.25","ERIEAU (AUT)","613KLLM","2021-09-05 09:00","2021","09","05","09:00","21.0","","16.1","","74","","","","29","","7","","","","98.85","","26","","","","NA"
"-81.90","42.25","ERIEAU (AUT)","613KLLM","2021-09-05 10:00","2021","09","05","10:00","21.8","","15.2","","66","","","","28","","9","","","","98.87","","26","","","","NA"
"-81.90","42.25","ERIEAU (AUT)","613KLLM","2021-09-05 11:00","2021","09","05","11:00","22.7","","14.9","","62","","","","27","","8","","","","98.87","","27","","","","NA"
"-81.90","42.25","ERIEAU (AUT)","613KLLM","2021-09-05 12:00","2021","09","05","12:00","24.3","","15.4","","58","","","","25","","8","","","","98.87","","29","","","","NA"
"-81.90","42.25","ERIEAU (AUT)","613KLLM","2021-09-05 13:00","2021","09","05","13:00","24.6","","11.4","","44","","","","26","","11","","","","98.85","","27","","","","NA"
"-81.90","42.25","ERIEAU (AUT)","613KLLM","2021-09-05 14:00","2021","09","05","14:00","25.1","","13.3","","48","","","","27","","11","","","","98.80","","28","","","","NA"
"-81.90","42.25","ERIEAU (AUT)","613KLLM","2021-09-05 15:00","2021","09","05","15:00","23.9","","16.8","","64","","","","20","","13","","","","98.77","","29","","","","NA"
"-81.90","42.25","ERIEAU (AUT)","613KLLM","2021-09-05 16:00","2021","09","05","16:00","24.0","","18.3","","71","","","","21","","7","","","","98.75","","30","","","","NA"
"-81.90","42.25","ERIEAU (AUT)","613KLLM","2021-09-05 17:00","2021","09","05","17:00","25.2","","17.7","","63","","","","22","","6","","","","98.75","","31","","","","NA"
"-81.90","42.25","ERIEAU (AUT)","613KLLM","2021-09-05 18:00","2021","09","05","18:00","25.2","","17.8","","64","","","","22","","4","","","","98.76","","31","","","","NA"
"-81.90","42.25","ERIEAU (AUT)","613KLLM","2021-09-05 19:00","2021","09","05","19:00","23.9","","12.8","","50","","","","24","","7","","","","98.77","","27","","","","NA"
"-81.90","42.25","ERIEAU (AUT)","613KLLM","2021-09-05 20:00","2021","09","05","20:00","23.6","","14.5","","57","","","","24","","7","","","","98.79","","27","","","","NA"
"-81.90","42.25","ERIEAU (AUT)","613KLLM","2021-09-05 21:00","2021","09","05","21:00","22.9","","11.5","","49","","","","27","","9","","","","98.84","","25","","","","NA"
"-81.90","42.25","ERIEAU (AUT)","613KLLM","2021-09-05 22:00","2021","09","05","22:00","21.5","","10.0","","48","","","","27","","14","","","","98.87","","","","","","NA"
"-81.90","42.25","ERIEAU (AUT)","613KLLM","2021-09-05 23:00","2021","09","05","23:00","20.4","","10.1","","52","","","","27","","8","","","","98.92","","","","","","NA"
"-81.90","42.25","ERIEAU (AUT)","613KLLM","2021-09-06 00:00","2021","09","06","00:00","20.7","","12.8","","60","","","","27","","7","","","","98.90","","","","","","NA"
"-81.90","42.25","ERIEAU (AUT)","613KLLM","2021-09-06 01:00","2021","09","06","01:00","20.9","","12.7","","60","","","","25","","7","","","","98.89","","","","","","NA"
"-81.90","42.25","ERIEAU (AUT)","613KLLM","2021-09-06 02:00","2021","09","06","02:00","21.7","","12.4","","55","","","","23","","9","","","","98.86","","","","","","NA"
"-81.90","42.25","ERIEAU (AUT)","613KLLM","2021-09-06 03:00","2021","09","06","03:00","17.4","","13.6","","78","","","","27","","10","","","","98.95","","","","","","NA"
"-81.90","42.25","ERIEAU (AUT)","613KLLM","2021-09-06 04:00","2021","09","06","04:00","17.4","","13.7","","79","","","","27","","5","","","","98.87","","","","","","NA"
"-81.90","42.25","ERIEAU (AUT)","613KLLM","2021-09-06 05:00","2021","09","06","05:00","18.4","","15.2","","82","","","","26","","8","","","","98.89","","","","","","NA"
"-81.90","42.25","ERIEAU (AUT)","613KLLM","2021-09-06 06:00","2021","09","06","06:00","17.6","","14.5","","82","","","","27","","10","","","","98.96","","","","","","NA"
"-81.90","42.25","ERIEAU (AUT)","613KLLM","2021-09-06 07:00","2021","09","06","07:00","17.5","","14.5","","82","","","","27","","9","","","","99.02","","","","","","NA"
"-81.90","42.25","ERIEAU (AUT)","613KLLM","2021-09-06 08:00","2021","09","06","08:00","18.3","","13.6","","74","","","","28","","12","","","","99.07","","","","","","NA"
"-81.90","42.25","ERIEAU (AUT)","613KLLM","2021-09-06 09:00","2021","09","06","09:00","19.6","","12.3","","63","","","","28","","10","","","","99.16","","","","","","NA"
"-81.90","42.25","ERIEAU (AUT)","613KLLM","2021-09-06 10:00","2021","09","06","10:00","20.9","","11.0","","53","","","","29","","9","","","","99.20","","","","","","NA"
"-81.90","42.25","ERIEAU (AUT)","613KLLM","2021-09-06 11:00","2021","09","06","11:00","21.8","","11.0","","50","","","","29","","11","","","","99.21","","","","","","NA"
"-81.90","42.25","ERIEAU (AUT)","613KLLM","2021-09-06 12:00","2021","09","06","12:00","22.4","","9.5","","44","","","","28","","14","","","","99.20","","","","","","NA"
"-81.90","42.25","ERIEAU (AUT)","613KLLM","2021-09-06 13:00","2021","09","06","13:00","22.6","","10.1","","45","","","","26","","13","","","","99.19","","","","","","NA"
"-81.90","42.25","ERIEAU (AUT)","613KLLM","2021-09-06 14:00","2021","09","06","14:00","23.4","","10.0","","43","","","","26","","12","","","","99.19","","25","","","","NA"
"-81.90","42.25","ERIEAU (AUT)","613KLLM","2021-09-06 15:00","2021","09","06","15:00","23.8","","9.7","","41","","","","26","","10","","","","99.15","","25","","","","NA"
"-81.90","42.25","ERIEAU (AUT)","613KLLM","2021-09-06 16:00","2021","09","06","16:00","24.3","","7.8","","35","","","","28","","8","","","","99.14","","25","","","","NA"
"-81.90","42.25","ERIEAU (AUT)","613KLLM","2021-09-06 17:00","2021","09","06","17:00","24.1","","8.9","","38","","","","28","","8","","","","99.15","","25","","","","NA"
"-81.90","42.25","ERIEAU (AUT)","613KLLM","2021-09-06 18:00","2021","09","06","18:00","23.5","","9.7","","41","","","","27","","6","","","","99.15","","25","","","","NA"
"-81.90","42.25","ERIEAU (AUT)","613KLLM","2021-09-06 19:00","2021","09","06","19:00","21.0","","10.8","","52","","","","0","","1","","","","99.17","","","","","","NA"
"-81.90","42.25","ERIEAU (AUT)","613KLLM","2021-09-06 20:00","2021","09","06","20:00","20.3","","10.8","","55","","","","22","","3","","","","99.20","","","","","","NA"
"-81.90","42.25","ERIEAU (AUT)","613KLLM","2021-09-06 21:00","2021","09","06","21:00","20.0","","11.5","","58","","","","33","","4","","","","99.22","","","","","","NA"
"-81.90","42.25","ERIEAU (AUT)","613KLLM","2021-09-06 22:00","2021","09","06","22:00","19.4","","12.4","","64","","","","34","","4","","","","99.26","","","","","","NA"
"-81.90","42.25","ERIEAU (AUT)","613KLLM","2021-09-06 23:00","2021","09","06","23:00","19.8","","14.4","","71","","","","2","","6","","","","99.25","","","","","","NA"
"-81.90","42.25","ERIEAU (AUT)","613KLLM","2021-09-07 00:00","2021","09","07","00:00","19.2","","14.2","","73","","","","2","","2","","","","99.28","","","","","","NA"
"-81.90","42.25","ERIEAU (AUT)","613KLLM","2021-09-07 01:00","2021","09","07","01:00","19.4","","14.4","","73","","","","1","","1","","","","99.24","","","","","","NA"
"-81.90","42.25","ERIEAU (AUT)","613KLLM","2021-09-07 02:00","2021","09","07","02:00","20.6","","11.2","","55","","","","17","","5","","","","99.20","","","","","","NA"
"-81.90","42.25","ERIEAU (AUT)","613KLLM","2021-09-07 03:00","2021","09","07","03:00","21.6","","12.2","","55","","","","17","","8","","","","99.18","","","","","","NA"
"-81.90","42.25","ERIEAU (AUT)","613KLLM","2021-09-07 04:00","2021","09","07","04:00","21.9","","13.8","","60","","","","17","","10","","","","99.16","","25","","","","NA"
"-81.90","42.25","ERIEAU (AUT)","613KLLM","2021-09-07 05:00","2021","09","07","05:00","21.9","","15.3","","66","","","","19","","17","","","","99.17","","26","","","","NA"
"-81.90","42.25","ERIEAU (AUT)","613KLLM","2021-09-07 06:00","2021","09","07","06:00","21.6","","15.5","","68","","","","18","","14","","","","99.15","","26","","","","NA"
"-81.90","42.25","ERIEAU (AUT)","613KLLM","2021-09-07 07:00","2021","09","07","07:00","21.8","","16.3","","71","","","","19","","13","","","","99.17","","27","","","","NA"
"-81.90","42.25","ERIEAU (AUT)","613KLLM","2021-09-07 08:00","2021","09","07","08:00","22.4","","14.8","","62","","","","21","","11","","","","99.15","","26","","","","NA"
"-81.90","42.25","ERIEAU (AUT)","613KLLM","2021-09-07 09:00","2021","09","07","09:00","23.0","","17.2","","70","","","","19","","12","","","","99.12","","28","","","","NA"
"-81.90","42.25","ERIEAU (AUT)","613KLLM","2021-09-07 10:00","2021","09","07","10:00","23.2","","17.8","","72","","","","17","","11","","","","99.11","","29","","","","NA"
"-81.90","42.25","ERIEAU (AUT)","613KLLM","2021-09-07 11:00","2021","09","07","11:00","23.2","","18.6","","75","","","","17","","18","","","","99.05","","30","","","","NA"
"-81.90","42.25","ERIEAU (AUT)","613KLLM","2021-09-07 12:00","2021","09","07","12:00","23.9","","19.9","","78","","","","19","","15","","","","98.98","","31","","","","NA"
"-81.90","42.25","ERIEAU (AUT)","613KLLM","2021-09-07 13:00","2021","09","07","13:00","24.5","","20.3","","78","","","","19","","23","","","","98.85","","32","","","","NA"
"-81.90","42.25","ERIEAU (AUT)","613KLLM","2021-09-07 14:00","2021","09","07","14:00","25.1","","20.9","","78","","","","18","","19","","","","98.73","","33","","","","NA"
"-81.90","42.25","ERIEAU (AUT)","613KLLM","2021-09-07 15:00","2021","09","07","15:00","25.9","","21.2","","75","","","","18","","17","","","","98.64","","34","","","","NA"
"-81.90","42.25","ERIEAU (AUT)","613KLLM","2021-09-07 16:00","2021","09","07","16:00","25.8","","21.0","","75","","","","18","","20","","","","98.55","","34","","","","NA"
"-81.90","42.25","ERIEAU (AUT)","613KLLM","2021-09-07 17:00","2021","09","07","17:00","25.5","","20.9","","76","","","","19","","20","","","","98.55","","34","","","","NA"
"-81.90","42.25","ERIEAU (AUT)","613KLLM","2021-09-07 18:00","2021","09","07","18:00","25.4","","20.4","","74","","","","19","","22","","","","98.51","","33","","","","NA"
"-81.90","42.25","ERIEAU (AUT)","613KLLM","2021-09-07 19:00","2021","09","07","19:00","25.2","","20.3","","74","","","","18","","27","","","","98.47","","33","","","","NA"
"-81.90","42.25","ERIEAU (AUT)","613KLLM","2021-09-07 20:00","2021","09","07","20:00","25.3","","19.8","","72","","","","19","","26","","","","98.55","","33","","","","NA"
"-81.90","42.25","ERIEAU (AUT)","613KLLM","2021-09-07 21:00","2021","09","07","21:00","22.3","","18.9","","81","","","","23","","25","","","","98.66","","29","","","","NA"
"-81.90","42.25","ERIEAU (AUT)","613KLLM","2021-09-07 22:00","2021","09","07","22:00","21.6","","18.6","","83","","","","26","","8","","","","98.52","","28","","","","NA"
"-81.90","42.25","ERIEAU (AUT)","613KLLM","2021-09-07 23:00","2021","09","07","23:00","23.9","","19.2","","75","","","","19","","25","","","","98.44","","31","","","","NA"
"-81.90","42.25","ERIEAU (AUT)","613KLLM","2021-09-08 00:00","2021","09","08","00:00","24.3","","18.8","","72","","","","20","","36","","","","98.40","","31","","","","NA"
"-81.90","42.25","ERIEAU (AUT)","613KLLM","2021-09-08 01:00","2021","09","08","01:00","23.9","","18.0","","70","","","","22","","14","","","","98.38","","30","","","","NA"
"-81.90","42.25","ERIEAU (AUT)","613KLLM","2021-09-08 02:00","2021","09","08","02:00","22.6","","17.8","","74","","","","25","","16","","","","98.38","","28","","","","NA"
"-81.90","42.25","ERIEAU (AUT)","613KLLM","2021-09-08 03:00","2021","09","08","03:00","20.3","","18.3","","88","","","","26","","13","","","","98.38","","27","","","","NA"
"-81.90","42.25","ERIEAU (AUT)","613KLLM","2021-09-08 04:00","2021","09","08","04:00","19.9","","18.1","","89","","","","26","","9","","","","98.39","","","","","","NA"
"-81.90","42.25","ERIEAU (AUT)","613KLLM","2021-09-08 05:00","2021","09","08","05:00","19.3","","17.8","","91","","","","26","","8","","","","98.40","","","","","","NA"
"-81.90","42.25","ERIEAU (AUT)","613KLLM","2021-09-08 06:00","2021","09","08","06:00","19.2","","17.7","","91","","","","25","","8","","","","98.44","","","","","","NA"
"-81.90","42.25","ERIEAU (AUT)","613KLLM","2021-09-08 07:00","2021","09","08","07:00","19.6","","17.3","","87","","","","25","","8","","","","98.49","","","","","","NA"
"-81.90","42.25","ERIEAU (AUT)","613KLLM","2021-09-08 08:00","2021","09","08","08:00","19.4","","17.7","","90","","","","25","","7","","","","98.51","","","","","","NA"
"-81.90","42.25","ERIEAU (AUT)","613KLLM","2021-09-08 09:00","2021","09","08","09:00","20.5","","17.7","","84","","","","26","","9","","","","98.51","","26","","","","NA"
"-81.90","42.25","ERIEAU (AUT)","613KLLM","2021-09-08 10:00","2021","09","08","10:00","22.0","","16.8","","72","","","","24","","11","","","","98.55","","27","","","","NA"
"-81.90","42.25","ERIEAU (AUT)","613KLLM","2021-09-08 11:00","2021","09","08","11:00","23.8","","15.0","","58","","","","22","","9","","","","98.56","","28","","","","NA"
"-81.90","42.25","ERIEAU (AUT)","613KLLM","2021-09-08 12:00","2021","09","08","12:00","25.0","","16.4","","59","","","","22","","7","","","","98.54","","30","","","","NA"
"-81.90","42.25","ERIEAU (AUT)","613KLLM","2021-09-08 13:00","2021","09","08","13:00","24.9","","13.0","","48","","","","23","","9","","","","98.57","","28","","","","NA"
"-81.90","42.25","ERIEAU (AUT)","613KLLM","2021-09-08 14:00","2021","09","08","14:00","25.6","","12.7","","45","","","","24","","11","","","","98.57","","28","","","","NA"
"-81.90","42.25","ERIEAU (AUT)","613KLLM","2021-09-08 15:00","2021","09","08","15:00","23.6","","14.1","","55","","","","22","","11","","","","98.56","","27","","","","NA"
"-81.90","42.25","ERIEAU (AUT)","613KLLM","2021-09-08 16:00","2021","09","08","16:00","24.7","","14.8","","54","","","","22","","8","","","","98.55","","29","","","","NA"
"-81.90","42.25","ERIEAU (AUT)","613KLLM","2021-09-08 17:00","2021","09","08","17:00","24.5","","15.2","","56","","","","21","","8","","","","98.57","","29","","","","NA"
"-81.90","42.25","ERIEAU (AUT)","613KLLM","2021-09-08 18:00","2021","09","08","18:00","23.5","","14.3","","56","","","","23","","7","","","","98.59","","27","","","","NA"
"-81.90","42.25","ERIEAU (AUT)","613KLLM","2021-09-08 19:00","2021","09","08","19:00","23.2","","13.6","","55","","","","25","","6","","","","98.61","","26","","","","NA"
"-81.90","42.25","ERIEAU (AUT)","613KLLM","2021-09-08 20:00","2021","09","08","20:00","22.5","","12.6","","54","","","","26","","8","","","","98.67","","25","","","","NA"
"-81.90","42.25","ERIEAU (AUT)","613KLLM","2021-09-08 21:00","2021","09","08","21:00","21.1","","10.2","","50","","","","27","","12","","","","98.73","","","","","","NA"
"-81.90","42.25","ERIEAU (AUT)","613KLLM","2021-09-08 22:00","2021","09","08","22:00","19.6","","11.4","","59","","","","27","","8","","","","98.74","","","","","","NA"
"-81.90","42.25","ERIEAU (AUT)","613KLLM","2021-09-08 23:00","2021","09","08","23:00","18.7","","12.3","","66","","","","28","","7","","","","98.78","","","","","","NA"
"-81.90","42.25","ERIEAU (AUT)","613KLLM","2021-09-09 00:00","2021","09","09","00:00","17.9","","12.3","","70","","","","29","","5","","","","98.81","","","","","","NA"
"-81.90","42.25","ERIEAU (AUT)","613KLLM","2021-09-09 01:00","2021","09","09","01:00","17.1","","12.0","","72","","","","29","","6","","","","98.82","","","","","","NA"
"-81.90","42.25","ERIEAU (AUT)","613KLLM","2021-09-09 02:00","2021","09","09","02:00","16.0","","11.9","","77","","","","27","","5","","","","98.84","","","","","","NA"
"-81.90","42.25","ERIEAU (AUT)","613KLLM","2021-09-09 03:00","2021","09","09","03:00","15.5","","11.8","","79","","","","28","","6","","","","98.89","","","","","","NA"
"-81.90","42.25","ERIEAU (AUT)","613KLLM","2021-09-09 04:00","2021","09","09","04:00","14.7","","11.7","","82","","","","27","","6","","","","98.91","","","","","","NA"
"-81.90","42.25","ERIEAU (AUT)","613KLLM","2021-09-09 05:00","2021","09","09","05:00","14.5","","11.7","","84","","","","28","","7","","","","98.96","","","","","","NA"
"-81.90","42.25","ERIEAU (AUT)","613KLLM","2021-09-09 06:00","2021","09","09","06:00","14.7","","11.7","","82","","","","29","","7","","","","99.01","","","","","","NA"
"-81.90","42.25","ERIEAU (AUT)","613KLLM","2021-09-09 07:00","2021","09","09","07:00","15.0","","11.3","","79","","","","28","","7","","","","99.09","","","","","","NA"
"-81.90","42.25","ERIEAU (AUT)","613KLLM","2021-09-09 08:00","2021","09","09","08:00","15.9","","11.3","","74","","","","27","","7","","","","99.09","","","","","","NA"
"-81.90","42.25","ERIEAU (AUT)","613KLLM","2021-09-09 09:00","2021","09","09","09:00","17.4","","11.5","","68","","","","26","","10","","","","99.09","","","","","","NA"
"-81.90","42.25","ERIEAU (AUT)","613KLLM","2021-09-09 10:00","2021","09","09","10:00","18.6","","11.8","","65","","","","27","","12","","","","99.12","","","","","","NA"
"-81.90","42.25","ERIEAU (AUT)","613KLLM","2021-09-09 11:00","2021","09","09","11:00","19.0","","12.1","","64","","","","29","","10","","","","99.13","","","","","","NA"
"-81.90","42.25","ERIEAU (AUT)","613KLLM","2021-09-09 12:00","2021","09","09","12:00","19.6","","12.1","","62","","","","29","","12","","","","99.11","","","","","","NA"
"-81.90","42.25","ERIEAU (AUT)","613KLLM","2021-09-09 13:00","2021","09","09","13:00","20.7","","11.6","","56","","","","28","","10","","","","99.11","","","","","","NA"
"-81.90","42.25","ERIEAU (AUT)","613KLLM","2021-09-09 14:00","2021","09","09","14:00","18.3","","12.2","","67","","","","31","","7","","","","99.17","","","","","","NA"
"-81.90","42.25","ERIEAU (AUT)","613KLLM","2021-09-09 15:00","2021","09","09","15:00","17.8","","14.6","","82","","","","28","","8","","","","99.20","","","","","","NA"
"-81.90","42.25","ERIEAU (AUT)","613KLLM","2021-09-09 16:00","2021","09","09","16:00","18.3","","13.3","","73","","","","31","","9","","","","99.24","","","","","","NA"
"-81.90","42.25","ERIEAU (AUT)","613KLLM","2021-09-09 17:00","2021","09","09","17:00","18.4","","12.8","","70","","","","29","","6","","","","99.23","","","","","","NA"
"-81.90","42.25","ERIEAU (AUT)","613KLLM","2021-09-09 18:00","2021","09","09","18:00","19.5","","13.5","","68","","","","28","","6","","","","99.27","","","","","","NA"
"-81.90","42.25","ERIEAU (AUT)","613KLLM","2021-09-09 19:00","2021","09","09","19:00","18.1","","12.5","","70","","","","31","","5","","","","99.30","","","","","","NA"
"-81.90","42.25","ERIEAU (AUT)","613KLLM","2021-09-09 20:00","2021","09","09","20:00","17.4","","12.4","","73","","","","31","","5","","","","99.37","","","","","","NA"
"-81.90","42.25","ERIEAU (AUT)","613KLLM","2021-09-09 21:00","2021","09","09","21:00","16.4","","12.4","","77","","","","30","","3","","","","99.41","","","","","","NA"
"-81.90","42.25","ERIEAU (AUT)","613KLLM","2021-09-09 22:00","2021","09","09","22:00","16.2","","12.9","","81","","","","26","","3","","","","99.43","","","","","","NA"
"-81.90","42.25","ERIEAU (AUT)","613KLLM","2021-09-09 23:00","2021","09","09","23:00","15.8","","12.5","","81","","","","29","","4","","","","99.45","","","","","","NA"
"-81.90","42.25","ERIEAU (AUT)","613KLLM","2021-09-10 00:00","2021","09","10","00:00","15.3","","12.1","","81","","","","29","","6","","","","99.49","","","","","","NA"
"-81.90","42.25","ERIEAU (AUT)","613KLLM","2021-09-10 01:00","2021","09","10","01:00","14.8","","11.7","","81","","","","28","","6","","","","99.50","","","","","","NA"
"-81.90","42.25","ERIEAU (AUT)","613KLLM","2021-09-10 02:00","2021","09","10","02:00","14.6","","11.3","","81","","","","28","","7","","","","99.52","","","","","","NA"
"-81.90","42.25","ERIEAU (AUT)","613KLLM","2021-09-10 03:00","2021","09","10","03:00","14.6","","10.9","","79","","","","29","","7","","","","99.52","","","","","","NA"
"-81.90","42.25","ERIEAU (AUT)","613KLLM","2021-09-10 04:00","2021","09","10","04:00","14.8","","11.0","","78","","","","28","","7","","","","99.55","","","","","","NA"
"-81.90","42.25","ERIEAU (AUT)","613KLLM","2021-09-10 05:00","2021","09","10","05:00","14.5","","11.3","","81","","","","30","","3","","","","99.62","","","","","","NA"
"-81.90","42.25","ERIEAU (AUT)","613KLLM","2021-09-10 06:00","2021","09","10","06:00","14.0","","11.4","","84","","","","27","","4","","","","99.69","","","","","","NA"
"-81.90","42.25","ERIEAU (AUT)","613KLLM","2021-09-10 07:00","2021","09","10","07:00","15.0","","11.3","","79","","","","29","","4","","","","99.75","","","","","","NA"
"-81.90","42.25","ERIEAU (AUT)","613KLLM","2021-09-10 08:00","2021","09","10","08:00","16.1","","12.0","","76","","","","31","","5","","","","99.77","","","","","","NA"
"-81.90","42.25","ERIEAU (AUT)","613KLLM","2021-09-10 09:00","2021","09","10","09:00","18.2","","12.3","","68","","","","28","","6","","","","99.82","","","","","","NA"
"-81.90","42.25","ERIEAU (AUT)","613KLLM","2021-09-10 10:00","2021","09","10","10:00","20.4","","11.2","","56","","","","29","","5","","","","99.84","","","","","","NA"
"-81.90","42.25","ERIEAU (AUT)","613KLLM","2021-09-10 11:00","2021","09","10","11:00","21.5","","11.0","","51","","","","28","","7","","","","99.82","","","","","","NA"
"-81.90","42.25","ERIEAU (AUT)","613KLLM","2021-09-10 12:00","2021","09","10","12:00","22.0","","9.7","","45","","","","29","","8","","","","99.80","","","","","","NA"
"-81.90","42.25","ERIEAU (AUT)","613KLLM","2021-09-10 13:00","2021","09","10","13:00","22.6","","9.6","","44","","","","27","","6","","","","99.78","","","","","","NA"
"-81.90","42.25","ERIEAU (AUT)","613KLLM","2021-09-10 14:00","2021","09","10","14:00","22.3","","10.3","","47","","","","21","","5","","","","99.74","","","","","","NA"
"-81.90","42.25","ERIEAU (AUT)","613KLLM","2021-09-10 15:00","2021","09","10","15:00","22.9","","13.0","","54","","","","23","","8","","","","99.70","","26","","","","NA"
"-81.90","42.25","ERIEAU (AUT)","613KLLM","2021-09-10 16:00","2021","09","10","16:00","21.7","","12.9","","57","","","","21","","14","","","","99.68","","","","","","NA"
"-81.90","42.25","ERIEAU (AUT)","613KLLM","2021-09-10 17:00","2021","09","10","17:00","21.6","","10.8","","50","","","","20","","14","","","","99.67","","","","","","NA"
"-81.90","42.25","ERIEAU (AUT)","613KLLM","2021-09-10 18:00","2021","09","10","18:00","21.6","","12.2","","55","","","","19","","13","","","","99.63","","","","","","NA"
"-81.90","42.25","ERIEAU (AUT)","613KLLM","2021-09-10 19:00","2021","09","10","19:00","21.1","","11.8","","55","","","","20","","14","","","","99.66","","","","","","NA"
"-81.90","42.25","ERIEAU (AUT)","613KLLM","2021-09-10 20:00","2021","09","10","20:00","21.1","","12.6","","58","","","","19","","9","","","","99.69","","","","","","NA"
"-81.90","42.25","ERIEAU (AUT)","613KLLM","2021-09-10 21:00","2021","09","10","21:00","21.1","","14.1","","64","","","","19","","10","","","","99.70","","25","","","","NA"
"-81.90","42.25","ERIEAU (AUT)","613KLLM","2021-09-10 22:00","2021","09","10","22:00","21.2","","14.3","","65","","","","19","","9","","","","99.73","","25","","","","NA"
"-81.90","42.25","ERIEAU (AUT)","613KLLM","2021-09-10 23:00","2021","09","10","23:00","21.5","","13.5","","60","","","","19","","11","","","","99.74","","25","","","","NA"
"-81.90","42.25","ERIEAU (AUT)","613KLLM","2021-09-11 00:00","2021","09","11","00:00","21.6","","13.8","","61","","","","19","","17","","","","99.73","","25","","","","NA"
"-81.90","42.25","ERIEAU (AUT)","613KLLM","2021-09-11 01:00","2021","09","11","01:00","21.5","","15.3","","68","","","","18","","22","","","","99.73","","26","","","","NA"
"-81.90","42.25","ERIEAU (AUT)","613KLLM","2021-09-11 02:00","2021","09","11","02:00","21.4","","15.0","","67","","","","18","","24","","","","99.68","","25","","","","NA"
"-81.90","42.25","ERIEAU (AUT)","613KLLM","2021-09-11 03:00","2021","09","11","03:00","21.2","","15.9","","72","","","","19","","17","","","","99.65","","26","","","","NA"
"-81.90","42.25","ERIEAU (AUT)","613KLLM","2021-09-11 04:00","2021","09","11","04:00","21.4","","15.9","","71","","","","21","","13","","","","99.68","","26","","","","NA"
"-81.90","42.25","ERIEAU (AUT)","613KLLM","2021-09-11 05:00","2021","09","11","05:00","21.1","","15.3","","69","","","","22","","6","","","","99.70","","25","","","","NA"
"-81.90","42.25","ERIEAU (AUT)","613KLLM","2021-09-11 06:00","2021","09","11","06:00","20.9","","15.5","","71","","","","21","","7","","","","99.73","","25","","","","NA"
"-81.90","42.25","ERIEAU (AUT)","613KLLM","2021-09-11 07:00","2021","09","11","07:00","21.1","","14.6","","67","","","","21","","10","","","","99.74","","25","","","","NA"
"-81.90","42.25","ERIEAU (AUT)","613KLLM","2021-09-11 08:00","2021","09","11","08:00","21.3","","16.0","","72","","","","19","","18","","","","99.75","","26","","","","NA"
"-81.90","42.25","ERIEAU (AUT)","613KLLM","2021-09-11 09:00","2021","09","11","09:00","21.3","","15.8","","71","","","","20","","23","","","","99.72","","26","","","","NA"
"-81.90","42.25","ERIEAU (AUT)","613KLLM","2021-09-11 10:00","2021","09","11","10:00","21.6","","16.5","","72","","","","20","","27","","","","99.72","","27","","","","NA"
"-81.90","42.25","ERIEAU (AUT)","613KLLM","2021-09-11 11:00","2021","09","11","11:00","22.4","","16.7","","70","","","","19","","22","","","","99.66","","27","","","","NA"
"-81.90","42.25","ERIEAU (AUT)","613KLLM","2021-09-11 12:00","2021","09","11","12:00","22.7","","16.1","","66","","","","19","","24","","","","99.60","","27","","","","NA"
"-81.90","42.25","ERIEAU (AUT)","613KLLM","2021-09-11 13:00","2021","09","11","13:00","23.0","","16.4","","67","","","","19","","25","","","","99.53","","28","","","","NA"
"-81.90","42.25","ERIEAU (AUT)","613KLLM","2021-09-11 14:00","2021","09","11","14:00","23.8","","17.1","","66","","","","19","","22","","","","99.46","","29","","","","NA"
"-81.90","42.25","ERIEAU (AUT)","613KLLM","2021-09-11 15:00","2021","09","11","15:00","23.7","","17.4","","68","","","","18","","25","","","","99.36","","29","","","","NA"
"-81.90","42.25","ERIEAU (AUT)","613KLLM","2021-09-11 16:00","2021","09","11","16:00","23.8","","18.1","","70","","","","19","","25","","","","99.29","","30","","","","NA"
"-81.90","42.25","ERIEAU (AUT)","613KLLM","2021-09-11 17:00","2021","09","11","17:00","23.6","","18.4","","73","","","","18","","24","","","","99.24","","30","","","","NA"
"-81.90","42.25","ERIEAU (AUT)","613KLLM","2021-09-11 18:00","2021","09","11","18:00","23.5","","18.4","","73","","","","18","","28","","","","99.18","","30","","","","NA"
"-81.90","42.25","ERIEAU (AUT)","613KLLM","2021-09-11 19:00","2021","09","11","19:00","23.5","","18.4","","73","","","","19","","28","","","","99.19","","30","","","","NA"
"-81.90","42.25","ERIEAU (AUT)","613KLLM","2021-09-11 20:00","2021","09","11","20:00","23.2","","18.6","","76","","","","19","","24","","","","99.26","","30","","","","NA"
"-81.90","42.25","ERIEAU (AUT)","613KLLM","2021-09-11 21:00","2021","09","11","21:00","23.1","","18.5","","75","","","","19","","29","","","","99.27","","29","","","","NA"
"-81.90","42.25","ERIEAU (AUT)","613KLLM","2021-09-11 22:00","2021","09","11","22:00","22.8","","18.6","","77","","","","20","","22","","","","99.31","","29","","","","NA"
"-81.90","42.25","ERIEAU (AUT)","613KLLM","2021-09-11 23:00","2021","09","11","23:00","22.6","","18.6","","78","","","","20","","28","","","","99.34","","29","","","","NA"
"-81.90","42.25","ERIEAU (AUT)","613KLLM","2021-09-12 00:00","2021","09","12","00:00","22.4","","18.6","","79","","","","21","","13","","","","99.34","","29","","","","NA"
"-81.90","42.25","ERIEAU (AUT)","613KLLM","2021-09-12 01:00","2021","09","12","01:00","22.1","","18.5","","80","","","","22","","7","","","","99.34","","28","","","","NA"
"-81.90","42.25","ERIEAU (AUT)","613KLLM","2021-09-12 02:00","2021","09","12","02:00","21.8","","18.6","","82","","","","21","","8","","","","99.31","","28","","","","NA"
"-81.90","42.25","ERIEAU (AUT)","613KLLM","2021-09-12 03:00","2021","09","12","03:00","21.7","","18.8","","84","","","","21","","10","","","","99.32","","28","","","","NA"
"-81.90","42.25","ERIEAU (AUT)","613KLLM","2021-09-12 04:00","2021","09","12","04:00","21.7","","18.8","","83","","","","21","","9","","","","99.34","","28","","","","NA"
"-81.90","42.25","ERIEAU (AUT)","613KLLM","2021-09-12 05:00","2021","09","12","05:00","21.4","","18.9","","86","","","","22","","7","","","","99.35","","28","","","","NA"
"-81.90","42.25","ERIEAU (AUT)","613KLLM","2021-09-12 06:00","2021","09","12","06:00","21.3","","18.7","","86","","","","21","","8","","","","99.33","","28","","","","NA"
"-81.90","42.25","ERIEAU (AUT)","613KLLM","2021-09-12 07:00","2021","09","12","07:00","21.2","","18.8","","86","","","","22","","8","","","","99.43","","28","","","","NA"
"-81.90","42.25","ERIEAU (AUT)","613KLLM","2021-09-12 08:00","2021","09","12","08:00","21.1","","18.6","","86","","","","23","","9","","","","99.46","","28","","","","NA"
"-81.90","42.25","ERIEAU (AUT)","613KLLM","2021-09-12 09:00","2021","09","12","09:00","21.3","","19.0","","87","","","","23","","6","","","","99.46","","28","","","","NA"
"-81.90","42.25","ERIEAU (AUT)","613KLLM","2021-09-12 10:00","2021","09","12","10:00","22.8","","19.1","","80","","","","22","","5","","","","99.46","","30","","","","NA"
"-81.90","42.25","ERIEAU (AUT)","613KLLM","2021-09-12 11:00","2021","09","12","11:00","23.6","","19.4","","77","","","","21","","9","","","","99.45","","31","","","","NA"
"-81.90","42.25","ERIEAU (AUT)","613KLLM","2021-09-12 12:00","2021","09","12","12:00","23.4","","19.5","","79","","","","21","","14","","","","99.44","","31","","","","NA"
"-81.90","42.25","ERIEAU (AUT)","613KLLM","2021-09-12 13:00","2021","09","12","13:00","23.2","","19.5","","80","","","","20","","18","","","","99.47","","30","","","","NA"
"-81.90","42.25","ERIEAU (AUT)","613KLLM","2021-09-12 14:00","2021","09","12","14:00","23.2","","19.5","","80","","","","21","","12","","","","99.43","","30","","","","NA"
"-81.90","42.25","ERIEAU (AUT)","613KLLM","2021-09-12 15:00","2021","09","12","15:00","24.3","","19.5","","75","","","","21","","10","","","","99.34","","31","","","","NA"
"-81.90","42.25","ERIEAU (AUT)","613KLLM","2021-09-12 16:00","2021","09","12","16:00","24.5","","19.7","","75","","","","23","","2","","","","99.32","","32","","","","NA"
"-81.90","42.25","ERIEAU (AUT)","613KLLM","2021-09-12 17:00","2021","09","12","17:00","22.5","","18.9","","80","","","","25","","6","","","","99.37","","29","","","","NA"
"-81.90","42.25","ERIEAU (AUT)","613KLLM","2021-09-12 18:00","2021","09","12","18:00","24.9","","18.7","","69","","","","30","","3","","","","99.42","","31","","","","NA"
"-81.90","42.25","ERIEAU (AUT)","613KLLM","2021-09-12 19:00","2021","09","12","19:00","24.2","","20.1","","78","","","","35","","11","","","","99.43","","32","","","","NA"
"-81.90","42.25","ERIEAU (AUT)","613KLLM","2021-09-12 20:00","2021","09","12","20:00","20.8","","19.0","","90","","","","9","","9","","","","99.43","","28","","","","NA"
"-81.90","42.25","ERIEAU (AUT)","613KLLM","2021-09-12 21:00","2021","09","12","21:00","20.9","","19.6","","92","","","","13","","4","","","","99.47","","28","","","","NA"
"-81.90","42.25","ERIEAU (AUT)","613KLLM","2021-09-12 22:00","2021","09","12","22:00","21.7","","19.7","","89","","","","36","","10","","","","99.51","","29","","","","NA"
"-81.90","42.25","ERIEAU (AUT)","613KLLM","2021-09-12 23:00","2021","09","12","23:00","21.9","","19.2","","85","","","","32","","6","","","","99.55","","29","","","","NA"
"-81.90","42.25","ERIEAU (AUT)","613KLLM","2021-09-13 00:00","2021","09","13","00:00","21.3","","18.4","","84","","","","32","","5","","","","99.60","","28","","","","NA"
"-81.90","42.25","ERIEAU (AUT)","613KLLM","2021-09-13 01:00","2021","09","13","01:00","20.9","","18.4","","86","","","","34","","9","","","","99.65","","27","","","","NA"
"-81.90","42.25","ERIEAU (AUT)","613KLLM","2021-09-13 02:00","2021","09","13","02:00","20.3","","18.3","","89","","","","35","","7","","","","99.68","","27","","","","NA"
"-81.90","42.25","ERIEAU (AUT)","613KLLM","2021-09-13 03:00","2021","09","13","03:00","19.8","","17.4","","86","","","","35","","9","","","","99.67","","","","","","NA"
"-81.90","42.25","ERIEAU (AUT)","613KLLM","2021-09-13 04:00","2021","09","13","04:00","18.9","","16.8","","88","","","","3","","11","","","","99.69","","","","","","NA"
"-81.90","42.25","ERIEAU (AUT)","613KLLM","2021-09-13 05:00","2021","09","13","05:00","18.6","","16.9","","89","","","","3","","9","","","","99.78","","","","","","NA"
"-81.90","42.25","ERIEAU (AUT)","613KLLM","2021-09-13 06:00","2021","09","13","06:00","18.8","","16.9","","89","","","","2","","7","","","","99.80","","","","","","NA"
"-81.90","42.25","ERIEAU (AUT)","613KLLM","2021-09-13 07:00","2021","09","13","07:00","18.9","","16.5","","86","","","","2","","11","","","","99.90","","","","","","NA"
"-81.90","42.25","ERIEAU (AUT)","613KLLM","2021-09-13 08:00","2021","09","13","08:00","18.3","","15.5","","84","","","","1","","17","","","","99.94","","","","","","NA"
"-81.90","42.25","ERIEAU (AUT)","613KLLM","2021-09-13 09:00","2021","09","13","09:00","18.5","","9.8","","57","","","","3","","15","","","","99.90","","","","","","NA"
"-81.90","42.25","ERIEAU (AUT)","613KLLM","2021-09-13 10:00","2021","09","13","10:00","19.0","","14.4","","75","","","","7","","17","","","","99.81","","","","","","NA"
"-81.90","42.25","ERIEAU (AUT)","613KLLM","2021-09-13 11:00","2021","09","13","11:00","20.6","","15.6","","73","","","","7","","12","","","","99.85","","25","","","","NA"
"-81.90","42.25","ERIEAU (AUT)","613KLLM","2021-09-13 12:00","2021","09","13","12:00","20.5","","14.4","","68","","","","4","","11","","","","99.81","","","","","","NA"
"-81.90","42.25","ERIEAU (AUT)","613KLLM","2021-09-13 13:00","2021","09","13","13:00","20.6","","14.8","","69","","","","4","","9","","","","99.82","","","","","","NA"
"-81.90","42.25","ERIEAU (AUT)","613KLLM","2021-09-13 14:00","2021","09","13","14:00","19.8","","14.4","","71","","","","1","","15","","","","99.84","","","","","","NA"
"-81.90","42.25","ERIEAU (AUT)","613KLLM","2021-09-13 15:00","2021","09","13","15:00","17.8","","16.1","","90","","","","9","","16","","","","99.75","","","","","","NA"
"-81.90","42.25","ERIEAU (AUT)","613KLLM","2021-09-13 16:00","2021","09","13","16:00","18.0","","16.1","","89","","","","8","","17","","","","99.64","","","","","","NA"
"-81.90","42.25","ERIEAU (AUT)","613KLLM","2021-09-13 17:00","2021","09","13","17:00","19.1","","16.9","","87","","","","6","","13","","","","99.60","","","","","","NA"
"-81.90","42.25","ERIEAU (AUT)","613KLLM","2021-09-13 18:00","2021","09","13","18:00","19.0","","17.1","","89","","","","7","","14","","","","99.60","","","","","","NA"
"-81.90","42.25","ERIEAU (AUT)","613KLLM","2021-09-13 19:00","2021","09","13","19:00","19.2","","17.4","","90","","","","4","","9","","","","99.65","","","","","","NA"
"-81.90","42.25","ERIEAU (AUT)","613KLLM","2021-09-13 20:00","2021","09","13","20:00","19.4","","17.8","","91","","","","5","","9","","","","99.63","","","","","","NA"
"-81.90","42.25","ERIEAU (AUT)","613KLLM","2021-09-13 21:00","2021","09","13","21:00","20.3","","18.2","","88","","","","7","","13","","","","99.60","","26","","","","NA"
"-81.90","42.25","ERIEAU (AUT)","613KLLM","2021-09-13 22:00","2021","09","13","22:00","20.0","","17.5","","86","","","","5","","10","","","","99.55","","26","","","","NA"
"-81.90","42.25","ERIEAU (AUT)","613KLLM","2021-09-13 23:00","2021","09","13","23:00","20.1","","17.7","","86","","","","1","","10","","","","99.53","","26","","","","NA"
"-81.90","42.25","ERIEAU (AUT)","613KLLM","2021-09-14 00:00","2021","09","14","00:00","20.4","","17.6","","84","","","","5","","12","","","","99.51","","26","","","","NA"
"-81.90","42.25","ERIEAU (AUT)","613KLLM","2021-09-14 01:00","2021","09","14","01:00","20.9","","18.5","","86","","","","6","","12","","","","99.47","","27","","","","NA"
"-81.90","42.25","ERIEAU (AUT)","613KLLM","2021-09-14 02:00","2021","09","14","02:00","20.1","","18.5","","91","","","","5","","6","","","","99.42","","26","","","","NA"
"-81.90","42.25","ERIEAU (AUT)","613KLLM","2021-09-14 03:00","2021","09","14","03:00","21.1","","19.6","","91","","","","3","","4","","","","99.36","","28","","","","NA"
"-81.90","42.25","ERIEAU (AUT)","613KLLM","2021-09-14 04:00","2021","09","14","04:00","21.7","","20.8","","95","","","","19","","8","","","","99.32","","30","","","","NA"
"-81.90","42.25","ERIEAU (AUT)","613KLLM","2021-09-14 05:00","2021","09","14","05:00","22.0","","20.4","","91","","","","20","","11","","","","99.32","","30","","","","NA"
"-81.90","42.25","ERIEAU (AUT)","613KLLM","2021-09-14 06:00","2021","09","14","06:00","22.0","","20.6","","92","","","","21","","8","","","","99.32","","30","","","","NA"
"-81.90","42.25","ERIEAU (AUT)","613KLLM","2021-09-14 07:00","2021","09","14","07:00","22.2","","20.6","","91","","","","19","","11","","","","99.32","","30","","","","NA"
"-81.90","42.25","ERIEAU (AUT)","613KLLM","2021-09-14 08:00","2021","09","14","08:00","22.6","","20.5","","88","","","","20","","15","","","","99.29","","31","","","","NA"
"-81.90","42.25","ERIEAU (AUT)","613KLLM","2021-09-14 09:00","2021","09","14","09:00","23.0","","20.8","","88","","","","20","","16","","","","99.28","","31","","","","NA"
"-81.90","42.25","ERIEAU (AUT)","613KLLM","2021-09-14 10:00","2021","09","14","10:00","23.3","","20.9","","86","","","","19","","16","","","","99.20","","32","","","","NA"
"-81.90","42.25","ERIEAU (AUT)","613KLLM","2021-09-14 11:00","2021","09","14","11:00","23.7","","21.3","","86","","","","20","","17","","","","99.17","","32","","","","NA"
"-81.90","42.25","ERIEAU (AUT)","613KLLM","2021-09-14 12:00","2021","09","14","12:00","24.3","","21.3","","83","","","","19","","20","","","","99.10","","33","","","","NA"
"-81.90","42.25","ERIEAU (AUT)","613KLLM","2021-09-14 13:00","2021","09","14","13:00","24.9","","21.8","","83","","","","19","","16","","","","99.04","","34","","","","NA"
"-81.90","42.25","ERIEAU (AUT)","613KLLM","2021-09-14 14:00","2021","09","14","14:00","25.3","","21.9","","82","","","","18","","13","","","","98.92","","35","","","","NA"
"-81.90","42.25","ERIEAU (AUT)","613KLLM","2021-09-14 15:00","2021","09","14","15:00","25.1","","21.8","","82","","","","18","","15","","","","98.84","","34","","","","NA"
"-81.90","42.25","ERIEAU (AUT)","613KLLM","2021-09-14 16:00","2021","09","14","16:00","24.7","","20.9","","79","","","","18","","20","","","","98.78","","33","","","","NA"
"-81.90","42.25","ERIEAU (AUT)","613KLLM","2021-09-14 17:00","2021","09","14","17:00","25.0","","20.8","","78","","","","18","","21","","","","98.72","","33","","","","NA"
"-81.90","42.25","ERIEAU (AUT)","613KLLM","2021-09-14 18:00","2021","09","14","18:00","25.0","","20.5","","76","","","","19","","24","","","","98.69","","33","","","","NA"
"-81.90","42.25","ERIEAU (AUT)","613KLLM","2021-09-14 19:00","2021","09","14","19:00","24.7","","20.7","","78","","","","19","","20","","","","98.67","","33","","","","NA"
"-81.90","42.25","ERIEAU (AUT)","613KLLM","2021-09-14 20:00","2021","09","14","20:00","24.5","","20.8","","80","","","","18","","23","","","","98.68","","33","","","","NA"
"-81.90","42.25","ERIEAU (AUT)","613KLLM","2021-09-14 21:00","2021","09","14","21:00","24.2","","17.0","","64","","","","21","","22","","","","98.88","","29","","","","NA"
"-81.90","42.25","ERIEAU (AUT)","613KLLM","2021-09-14 22:00","2021","09","14","22:00","20.3","","18.4","","89","","","","23","","15","","","","98.84","","27","","","","NA"
"-81.90","42.25","ERIEAU (AUT)","613KLLM","2021-09-14 23:00","2021","09","14","23:00","20.8","","19.8","","94","","","","23","","10","","","","98.94","","28","","","","NA"
"-81.90","42.25","ERIEAU (AUT)","613KLLM","2021-09-15 00:00","2021","09","15","00:00","21.5","","20.5","","94","","","","22","","4","","","","98.90","","29","","","","NA"
"-81.90","42.25","ERIEAU (AUT)","613KLLM","2021-09-15 01:00","2021","09","15","01:00","21.3","","20.2","","94","","","","24","","13","","","","98.96","","29","","","","NA"
"-81.90","42.25","ERIEAU (AUT)","613KLLM","2021-09-15 02:00","2021","09","15","02:00","20.7","","19.6","","93","","","","27","","8","","","","98.94","","28","","","","NA"
"-81.90","42.25","ERIEAU (AUT)","613KLLM","2021-09-15 03:00","2021","09","15","03:00","19.9","","17.9","","88","","","","31","","7","","","","98.96","","","","","","NA"
"-81.90","42.25","ERIEAU (AUT)","613KLLM","2021-09-15 04:00","2021","09","15","04:00","19.2","","16.9","","87","","","","31","","7","","","","98.95","","","","","","NA"
"-81.90","42.25","ERIEAU (AUT)","613KLLM","2021-09-15 05:00","2021","09","15","05:00","18.8","","16.3","","85","","","","34","","11","","","","99.00","","","","","","NA"
"-81.90","42.25","ERIEAU (AUT)","613KLLM","2021-09-15 06:00","2021","09","15","06:00","18.4","","15.9","","86","","","","34","","10","","","","99.10","","","","","","NA"
"-81.90","42.25","ERIEAU (AUT)","613KLLM","2021-09-15 07:00","2021","09","15","07:00","18.4","","15.2","","82","","","","35","","8","","","","99.20","","","","","","NA"
"-81.90","42.25","ERIEAU (AUT)","613KLLM","2021-09-15 08:00","2021","09","15","08:00","18.7","","15.6","","82","","","","34","","9","","","","99.24","","","","","","NA"
"-81.90","42.25","ERIEAU (AUT)","613KLLM","2021-09-15 09:00","2021","09","15","09:00","19.3","","14.3","","73","","","","34","","12","","","","99.30","","","","","","NA"
"-81.90","42.25","ERIEAU (AUT)","613KLLM","2021-09-15 10:00","2021","09","15","10:00","20.4","","14.4","","68","","","","35","","8","","","","99.36","","","","","","NA"
"-81.90","42.25","ERIEAU (AUT)","613KLLM","2021-09-15 11:00","2021","09","15","11:00","22.6","","15.6","","65","","","","8","","4","","","","99.40","","27","","","","NA"
"-81.90","42.25","ERIEAU (AUT)","613KLLM","2021-09-15 12:00","2021","09","15","12:00","20.3","","15.3","","73","","","","13","","8","","","","99.41","","","","","","NA"
"-81.90","42.25","ERIEAU (AUT)","613KLLM","2021-09-15 13:00","2021","09","15","13:00","20.7","","15.5","","72","","","","15","","6","","","","99.42","","25","","","","NA"
"-81.90","42.25","ERIEAU (AUT)","613KLLM","2021-09-15 14:00","2021","09","15","14:00","21.5","","15.3","","68","","","","17","","7","","","","99.41","","26","","","","NA"
"-81.90","42.25","ERIEAU (AUT)","613KLLM","2021-09-15 15:00","2021","09","15","15:00","21.3","","15.2","","68","","","","17","","8","","","","99.42","","25","","","","NA"
"-81.90","42.25","ERIEAU (AUT)","613KLLM","2021-09-15 16:00","2021","09","15","16:00","21.9","","15.7","","68","","","","18","","9","","","","99.42","","26","","","","NA"
"-81.90","42.25","ERIEAU (AUT)","613KLLM","2021-09-15 17:00","2021","09","15","17:00","21.5","","15.8","","70","","","","19","","6","","","","99.46","","26","","","","NA"
"-81.90","42.25","ERIEAU (AUT)","613KLLM","2021-09-15 18:00","2021","09","15","18:00","21.5","","15.9","","71","","","","18","","8","","","","99.52","","26","","","","NA"
"-81.90","42.25","ERIEAU (AUT)","613KLLM","2021-09-15 19:00","2021","09","15","19:00","20.8","","15.1","","70","","","","19","","6","","","","99.59","","25","","","","NA"
"-81.90","42.25","ERIEAU (AUT)","613KLLM","2021-09-15 20:00","2021","09","15","20:00","20.9","","15.4","","71","","","","18","","6","","","","99.65","","25","","","","NA"
"-81.90","42.25","ERIEAU (AUT)","613KLLM","2021-09-15 21:00","2021","09","15","21:00","20.9","","15.9","","73","","","","16","","7","","","","99.72","","25","","","","NA"
"-81.90","42.25","ERIEAU (AUT)","613KLLM","2021-09-15 22:00","2021","09","15","22:00","20.8","","15.5","","72","","","","16","","6","","","","99.76","","25","","","","NA"
"-81.90","42.25","ERIEAU (AUT)","613KLLM","2021-09-15 23:00","2021","09","15","23:00","20.8","","15.6","","72","","","","19","","5","","","","99.81","","25","","","","NA"
"-81.90","42.25","ERIEAU (AUT)","613KLLM","2021-09-16 00:00","2021","09","16","00:00","20.1","","17.0","","82","","","","35","","4","","","","99.83","","25","","","","NA"
"-81.90","42.25","ERIEAU (AUT)","613KLLM","2021-09-16 01:00","2021","09","16","01:00","19.4","","17.0","","86","","","","5","","6","","","","99.81","","","","","","NA"
"-81.90","42.25","ERIEAU (AUT)","613KLLM","2021-09-16 02:00","2021","09","16","02:00","19.5","","16.4","","82","","","","7","","5","","","","99.84","","","","","","NA"
"-81.90","42.25","ERIEAU (AUT)","613KLLM","2021-09-16 03:00","2021","09","16","03:00","20.4","","16.8","","80","","","","9","","7","","","","99.86","","26","","","","NA"
"-81.90","42.25","ERIEAU (AUT)","613KLLM","2021-09-16 04:00","2021","09","16","04:00","19.4","","16.8","","85","","","","3","","5","","","","99.88","","","","","","NA"
"-81.90","42.25","ERIEAU (AUT)","613KLLM","2021-09-16 05:00","2021","09","16","05:00","19.2","","17.1","","88","","","","6","","8","","","","99.92","","","","","","NA"
"-81.90","42.25","ERIEAU (AUT)","613KLLM","2021-09-16 06:00","2021","09","16","06:00","19.1","","16.8","","87","","","","2","","5","","","","99.98","","","","","","NA"
"-81.90","42.25","ERIEAU (AUT)","613KLLM","2021-09-16 07:00","2021","09","16","07:00","19.7","","17.3","","86","","","","35","","6","","","","100.06","","","","","","NA"
"-81.90","42.25","ERIEAU (AUT)","613KLLM","2021-09-16 08:00","2021","09","16","08:00","20.2","","16.7","","81","","","","5","","9","","","","100.07","","25","","","","NA"
"-81.90","42.25","ERIEAU (AUT)","613KLLM","2021-09-16 09:00","2021","09","16","09:00","20.9","","16.3","","75","","","","7","","10","","","","100.10","","26","","","","NA"
"-81.90","42.25","ERIEAU (AUT)","613KLLM","2021-09-16 10:00","2021","09","16","10:00","21.4","","16.2","","72","","","","8","","16","","","","100.11","","26","","","","NA"
"-81.90","42.25","ERIEAU (AUT)","613KLLM","2021-09-16 11:00","2021","09","16","11:00","21.5","","16.3","","72","","","","8","","18","","","","100.11","","26","","","","NA"
"-81.90","42.25","ERIEAU (AUT)","613KLLM","2021-09-16 12:00","2021","09","16","12:00","21.6","","15.8","","69","","","","8","","20","","","","100.09","","26","","","","NA"
"-81.90","42.25","ERIEAU (AUT)","613KLLM","2021-09-16 13:00","2021","09","16","13:00","21.7","","15.5","","68","","","","7","","20","","","","100.06","","26","","","","NA"
"-81.90","42.25","ERIEAU (AUT)","613KLLM","2021-09-16 14:00","2021","09","16","14:00","21.6","","15.0","","66","","","","6","","21","","","","100.01","","26","","","","NA"
"-81.90","42.25","ERIEAU (AUT)","613KLLM","2021-09-16 15:00","2021","09","16","15:00","21.7","","15.2","","67","","","","6","","22","","","","99.97","","26","","","","NA"
"-81.90","42.25","ERIEAU (AUT)","613KLLM","2021-09-16 16:00","2021","09","16","16:00","21.7","","15.3","","67","","","","6","","24","","","","99.93","","26","","","","NA"
"-81.90","42.25","ERIEAU (AUT)","613KLLM","2021-09-16 17:00","2021","09","16","17:00","21.7","","16.1","","70","","","","6","","25","","","","99.90","","26","","","","NA"
"-81.90","42.25","ERIEAU (AUT)","613KLLM","2021-09-16 18:00","2021","09","16","18:00","21.7","","16.4","","72","","","","6","","21","","","","99.91","","27","","","","NA"
"-81.90","42.25","ERIEAU (AUT)","613KLLM","2021-09-16 19:00","2021","09","16","19:00","21.4","","16.0","","71","","","","6","","19","","","","99.94","","26","","","","NA"
"-81.90","42.25","ERIEAU (AUT)","613KLLM","2021-09-16 20:00","2021","09","16","20:00","21.6","","15.2","","67","","","","7","","22","","","","99.97","","26","","","","NA"
"-81.90","42.25","ERIEAU (AUT)","613KLLM","2021-09-16 21:00","2021","09","16","21:00","21.6","","15.7","","69","","","","7","","20","","","","99.98","","26","","","","NA"
"-81.90","42.25","ERIEAU (AUT)","613KLLM","2021-09-16 22:00","2021","09","16","22:00","21.8","","17.8","","78","","","","8","","22","","","","99.94","","28","","","","NA"
"-81.90","42.25","ERIEAU (AUT)","613KLLM","2021-09-16 23:00","2021","09","16","23:00","21.9","","19.1","","84","","","","10","","17","","","","99.93","","29","","","","NA"
"-81.90","42.25","ERIEAU (AUT)","613KLLM","2021-09-17 00:00","2021","09","17","00:00","21.9","","19.4","","86","","","","10","","16","","","","99.88","","29","","","","NA"
"-81.90","42.25","ERIEAU (AUT)","613KLLM","2021-09-17 01:00","2021","09","17","01:00","22.1","","19.4","","85","","","","14","","16","","","","99.86","","29","","","","NA"
"-81.90","42.25","ERIEAU (AUT)","613KLLM","2021-09-17 02:00","2021","09","17","02:00","21.4","","19.2","","87","","","","31","","3","","","","99.89","","28","","","","NA"
"-81.90","42.25","ERIEAU (AUT)","613KLLM","2021-09-17 03:00","2021","09","17","03:00","21.6","","19.9","","90","","","","13","","8","","","","99.88","","29","","","","NA"
"-81.90","42.25","ERIEAU (AUT)","613KLLM","2021-09-17 04:00","2021","09","17","04:00","21.7","","20.2","","91","","","","15","","7","","","","99.91","","29","","","","NA"
"-81.90","42.25","ERIEAU (AUT)","613KLLM","2021-09-17 05:00","2021","09","17","05:00","21.8","","20.1","","91","","","","13","","10","","","","99.90","","29","","","","NA"
"-81.90","42.25","ERIEAU (AUT)","613KLLM","2021-09-17 06:00","2021","09","17","06:00","21.8","","20.1","","90","","","","13","","14","","","","99.92","","29","","","","NA"
"-81.90","42.25","ERIEAU (AUT)","613KLLM","2021-09-17 07:00","2021","09","17","07:00","21.8","","20.1","","90","","","","14","","11","","","","99.95","","29","","","","NA"
"-81.90","42.25","ERIEAU (AUT)","613KLLM","2021-09-17 08:00","2021","09","17","08:00","22.2","","20.3","","89","","","","15","","7","","","","99.98","","30","","","","NA"
"-81.90","42.25","ERIEAU (AUT)","613KLLM","2021-09-17 09:00","2021","09","17","09:00","22.8","","20.7","","88","","","","18","","7","","","","100.01","","31","","","","NA"
"-81.90","42.25","ERIEAU (AUT)","613KLLM","2021-09-17 10:00","2021","09","17","10:00","23.9","","21.0","","84","","","","19","","6","","","","100.03","","32","","","","NA"
"-81.90","42.25","ERIEAU (AUT)","613KLLM","2021-09-17 11:00","2021","09","17","11:00","24.4","","21.5","","84","","","","17","","7","","","","100.03","","33","","","","NA"
"-81.90","42.25","ERIEAU (AUT)","613KLLM","2021-09-17 12:00","2021","09","17","12:00","24.1","","21.5","","85","","","","16","","8","","","","99.99","","33","","","","NA"
"-81.90","42.25","ERIEAU (AUT)","613KLLM","2021-09-17 13:00","2021","09","17","13:00","24.2","","21.7","","86","","","","16","","8","","","","99.93","","33","","","","NA"
"-81.90","42.25","ERIEAU (AUT)","613KLLM","2021-09-17 14:00","2021","09","17","14:00","23.5","","21.4","","88","","","","15","","12","","","","99.84","","32","","","","NA"
"-81.90","42.25","ERIEAU (AUT)","613KLLM","2021-09-17 15:00","2021","09","17","15:00","24.0","","21.7","","87","","","","16","","11","","","","99.80","","33","","","","NA"
"-81.90","42.25","ERIEAU (AUT)","613KLLM","2021-09-17 16:00","2021","09","17","16:00","24.3","","22.0","","87","","","","16","","6","","","","99.76","","34","","","","NA"
"-81.90","42.25","ERIEAU (AUT)","613KLLM","2021-09-17 17:00","2021","09","17","17:00","24.8","","22.3","","86","","","","16","","5","","","","99.72","","34","","","","NA"
"-81.90","42.25","ERIEAU (AUT)","613KLLM","2021-09-17 18:00","2021","09","17","18:00","23.8","","21.9","","89","","","","15","","7","","","","99.70","","33","","","","NA"
"-81.90","42.25","ERIEAU (AUT)","613KLLM","2021-09-17 19:00","2021","09","17","19:00","23.2","","21.6","","91","","","","15","","8","","","","99.68","","32","","","","NA"
"-81.90","42.25","ERIEAU (AUT)","613KLLM","2021-09-17 20:00","2021","09","17","20:00","23.1","","21.7","","92","","","","16","","5","","","","99.74","","32","","","","NA"
"-81.90","42.25","ERIEAU (AUT)","613KLLM","2021-09-17 21:00","2021","09","17","21:00","23.1","","21.9","","93","","","","16","","7","","","","99.76","","32","","","","NA"
"-81.90","42.25","ERIEAU (AUT)","613KLLM","2021-09-17 22:00","2021","09","17","22:00","23.0","","22.1","","95","","","","17","","7","","","","99.76","","32","","","","NA"
"-81.90","42.25","ERIEAU (AUT)","613KLLM","2021-09-17 23:00","2021","09","17","23:00","22.7","","21.5","","93","","","","22","","2","","","","99.78","","32","","","","NA"
"-81.90","42.25","ERIEAU (AUT)","613KLLM","2021-09-18 00:00","2021","09","18","00:00","22.4","","21.6","","95","","","","25","","4","","","","99.77","","31","","","","NA"
"-81.90","42.25","ERIEAU (AUT)","613KLLM","2021-09-18 01:00","2021","09","18","01:00","22.2","","21.6","","96","","","","27","","4","","","","99.76","","31","","","","NA"
"-81.90","42.25","ERIEAU (AUT)","613KLLM","2021-09-18 02:00","2021","09","18","02:00","21.2","","20.6","","96","","","","29","","2","","","","99.80","","29","","","","NA"
"-81.90","42.25","ERIEAU (AUT)","613KLLM","2021-09-18 03:00","2021","09","18","03:00","20.5","","19.9","","96","","","","30","","3","","","","99.82","","28","","","","NA"
"-81.90","42.25","ERIEAU (AUT)","613KLLM","2021-09-18 04:00","2021","09","18","04:00","20.0","","17.5","","86","","","","33","","17","","","","99.87","","26","","","","NA"
"-81.90","42.25","ERIEAU (AUT)","613KLLM","2021-09-18 05:00","2021","09","18","05:00","19.6","","16.8","","84","","","","34","","18","","","","99.92","","","","","","NA"
"-81.90","42.25","ERIEAU (AUT)","613KLLM","2021-09-18 06:00","2021","09","18","06:00","18.8","","14.6","","77","","","","34","","14","","","","99.99","","","","","","NA"
"-81.90","42.25","ERIEAU (AUT)","613KLLM","2021-09-18 07:00","2021","09","18","07:00","18.4","","13.9","","75","","","","34","","13","","","","100.06","","","","","","NA"
"-81.90","42.25","ERIEAU (AUT)","613KLLM","2021-09-18 08:00","2021","09","18","08:00","18.6","","13.1","","71","","","","34","","16","","","","100.05","","","","","","NA"
"-81.90","42.25","ERIEAU (AUT)","613KLLM","2021-09-18 09:00","2021","09","18","09:00","19.9","","13.6","","67","","","","35","","14","","","","100.08","","","","","","NA"
"-81.90","42.25","ERIEAU (AUT)","613KLLM","2021-09-18 10:00","2021","09","18","10:00","21.4","","13.0","","59","","","","35","","13","","","","100.10","","","","","","NA"
"-81.90","42.25","ERIEAU (AUT)","613KLLM","2021-09-18 11:00","2021","09","18","11:00","23.1","","13.0","","53","","","","35","","10","","","","100.12","","26","","","","NA"
"-81.90","42.25","ERIEAU (AUT)","613KLLM","2021-09-18 12:00","2021","09","18","12:00","23.4","","13.2","","53","","","","36","","11","","","","100.10","","26","","","","NA"
"-81.90","42.25","ERIEAU (AUT)","613KLLM","2021-09-18 13:00","2021","09","18","13:00","25.0","","13.4","","49","","","","7","","7","","","","100.07","","28","","","","NA"
"-81.90","42.25","ERIEAU (AUT)","613KLLM","2021-09-18 14:00","2021","09","18","14:00","23.6","","16.1","","63","","","","10","","10","","","","100.00","","28","","","","NA"
"-81.90","42.25","ERIEAU (AUT)","613KLLM","2021-09-18 15:00","2021","09","18","15:00","24.1","","16.2","","61","","","","9","","10","","","","99.99","","29","","","","NA"
"-81.90","42.25","ERIEAU (AUT)","613KLLM","2021-09-18 16:00","2021","09","18","16:00","24.5","","17.1","","63","","","","9","","6","","","","99.96","","30","","","","NA"
"-81.90","42.25","ERIEAU (AUT)","613KLLM","2021-09-18 17:00","2021","09","18","17:00","24.6","","11.7","","45","","","","33","","12","","","","99.96","","27","","","","NA"
"-81.90","42.25","ERIEAU (AUT)","613KLLM","2021-09-18 18:00","2021","09","18","18:00","22.9","","9.8","","43","","","","34","","14","","","","99.99","","","","","","NA"
"-81.90","42.25","ERIEAU (AUT)","613KLLM","2021-09-18 19:00","2021","09","18","19:00","20.9","","10.2","","51","","","","33","","10","","","","100.02","","","","","","NA"
"-81.90","42.25","ERIEAU (AUT)","613KLLM","2021-09-18 20:00","2021","09","18","20:00","19.0","","12.4","","65","","","","34","","16","","","","100.09","","","","","","NA"
"-81.90","42.25","ERIEAU (AUT)","613KLLM","2021-09-18 21:00","2021","09","18","21:00","17.9","","12.0","","69","","","","34","","15","","","","100.13","","","","","","NA"
"-81.90","42.25","ERIEAU (AUT)","613KLLM","2021-09-18 22:00","2021","09","18","22:00","17.3","","12.5","","73","","","","34","","10","","","","100.11","","","","","","NA"
"-81.90","42.25","ERIEAU (AUT)","613KLLM","2021-09-18 23:00","2021","09","18","23:00","16.9","","12.4","","75","","","","35","","11","","","","100.12","","","","","","NA"
"-81.90","42.25","ERIEAU (AUT)","613KLLM","2021-09-19 00:00","2021","09","19","00:00","17.5","","13.2","","76","","","","1","","13","","","","100.12","","","","","","NA"
"-81.90","42.25","ERIEAU (AUT)","613KLLM","2021-09-19 01:00","2021","09","19","01:00","18.5","","14.2","","76","","","","3","","13","","","","100.13","","","","","","NA"
"-81.90","42.25","ERIEAU (AUT)","613KLLM","2021-09-19 02:00","2021","09","19","02:00","19.3","","14.2","","72","","","","5","","20","","","","100.13","","","","","","NA"
"-81.90","42.25","ERIEAU (AUT)","613KLLM","2021-09-19 03:00","2021","09","19","03:00","19.3","","13.9","","71","","","","5","","15","","","","100.13","","","","","","NA"
"-81.90","42.25","ERIEAU (AUT)","613KLLM","2021-09-19 04:00","2021","09","19","04:00","19.4","","14.4","","73","","","","5","","16","","","","100.12","","","","","","NA"
"-81.90","42.25","ERIEAU (AUT)","613KLLM","2021-09-19 05:00","2021","09","19","05:00","19.3","","15.9","","81","","","","5","","14","","","","100.14","","","","","","NA"
"-81.90","42.25","ERIEAU (AUT)","613KLLM","2021-09-19 06:00","2021","09","19","06:00","19.5","","17.1","","86","","","","6","","13","","","","100.17","","","","","","NA"
"-81.90","42.25","ERIEAU (AUT)","613KLLM","2021-09-19 07:00","2021","09","19","07:00","20.0","","16.7","","82","","","","6","","14","","","","100.20","","25","","","","NA"
"-81.90","42.25","ERIEAU (AUT)","613KLLM","2021-09-19 08:00","2021","09","19","08:00","20.6","","15.4","","72","","","","7","","16","","","","100.22","","25","","","","NA"
"-81.90","42.25","ERIEAU (AUT)","613KLLM","2021-09-19 09:00","2021","09","19","09:00","20.8","","15.6","","72","","","","8","","19","","","","100.24","","25","","","","NA"
"-81.90","42.25","ERIEAU (AUT)","613KLLM","2021-09-19 10:00","2021","09","19","10:00","21.2","","15.4","","69","","","","8","","17","","","","100.27","","25","","","","NA"
"-81.90","42.25","ERIEAU (AUT)","613KLLM","2021-09-19 11:00","2021","09","19","11:00","21.3","","15.8","","71","","","","8","","19","","","","100.26","","26","","","","NA"
"-81.90","42.25","ERIEAU (AUT)","613KLLM","2021-09-19 12:00","2021","09","19","12:00","21.2","","15.5","","70","","","","7","","20","","","","100.21","","25","","","","NA"
"-81.90","42.25","ERIEAU (AUT)","613KLLM","2021-09-19 13:00","2021","09","19","13:00","21.2","","15.6","","71","","","","7","","22","","","","100.16","","26","","","","NA"
"-81.90","42.25","ERIEAU (AUT)","613KLLM","2021-09-19 14:00","2021","09","19","14:00","21.3","","16.3","","73","","","","8","","21","","","","100.08","","26","","","","NA"
"-81.90","42.25","ERIEAU (AUT)","613KLLM","2021-09-19 15:00","2021","09","19","15:00","21.2","","15.3","","69","","","","7","","23","","","","100.03","","25","","","","NA"
"-81.90","42.25","ERIEAU (AUT)","613KLLM","2021-09-19 16:00","2021","09","19","16:00","21.2","","15.2","","69","","","","7","","21","","","","99.98","","25","","","","NA"
"-81.90","42.25","ERIEAU (AUT)","613KLLM","2021-09-19 17:00","2021","09","19","17:00","21.2","","15.6","","71","","","","6","","19","","","","99.97","","26","","","","NA"
"-81.90","42.25","ERIEAU (AUT)","613KLLM","2021-09-19 18:00","2021","09","19","18:00","20.7","","15.6","","73","","","","6","","18","","","","99.95","","25","","","","NA"
"-81.90","42.25","ERIEAU (AUT)","613KLLM","2021-09-19 19:00","2021","09","19","19:00","20.6","","16.3","","77","","","","6","","17","","","","99.95","","25","","","","NA"
"-81.90","42.25","ERIEAU (AUT)","613KLLM","2021-09-19 20:00","2021","09","19","20:00","20.9","","16.8","","78","","","","7","","20","","","","99.97","","26","","","","NA"
"-81.90","42.25","ERIEAU (AUT)","613KLLM","2021-09-19 21:00","2021","09","19","21:00","21.1","","17.4","","80","","","","7","","20","","","","99.96","","27","","","","NA"
"-81.90","42.25","ERIEAU (AUT)","613KLLM","2021-09-19 22:00","2021","09","19","22:00","21.4","","18.3","","83","","","","8","","20","","","","99.95","","28","","","","NA"
"-81.90","42.25","ERIEAU (AUT)","613KLLM","2021-09-19 23:00","2021","09","19","23:00","21.5","","18.9","","85","","","","8","","17","","","","99.95","","28","","","","NA"
"-81.90","42.25","ERIEAU (AUT)","613KLLM","2021-09-20 00:00","2021","09","20","00:00","21.6","","19.4","","87","","","","8","","18","","","","99.93","","29","","","","NA"
"-81.90","42.25","ERIEAU (AUT)","613KLLM","2021-09-20 01:00","2021","09","20","01:00","21.6","","19.1","","86","","","","8","","15","","","","99.91","","28","","","","NA"
"-81.90","42.25","ERIEAU (AUT)","613KLLM","2021-09-20 02:00","2021","09","20","02:00","21.7","","18.2","","81","","","","9","","11","","","","99.89","","28","","","","NA"
"-81.90","42.25","ERIEAU (AUT)","613KLLM","2021-09-20 03:00","2021","09","20","03:00","21.7","","18.1","","80","","","","8","","11","","","","99.86","","28","","","","NA"
"-81.90","42.25","ERIEAU (AUT)","613KLLM","2021-09-20 04:00","2021","09","20","04:00","21.9","","17.7","","78","","","","10","","7","","","","99.87","","28","","","","NA"
"-81.90","42.25","ERIEAU (AUT)","613KLLM","2021-09-20 05:00","2021","09","20","05:00","21.9","","17.1","","74","","","","10","","9","","","","99.85","","27","","","","NA"
"-81.90","42.25","ERIEAU (AUT)","613KLLM","2021-09-20 06:00","2021","09","20","06:00","21.8","","18.0","","79","","","","9","","7","","","","99.84","","28","","","","NA"
"-81.90","42.25","ERIEAU (AUT)","613KLLM","2021-09-20 07:00","2021","09","20","07:00","21.7","","18.1","","80","","","","9","","9","","","","99.85","","28","","","","NA"
"-81.90","42.25","ERIEAU (AUT)","613KLLM","2021-09-20 08:00","2021","09","20","08:00","22.3","","19.0","","81","","","","11","","11","","","","99.87","","29","","","","NA"
"-81.90","42.25","ERIEAU (AUT)","613KLLM","2021-09-20 09:00","2021","09","20","09:00","22.3","","19.3","","83","","","","10","","9","","","","99.87","","29","","","","NA"
"-81.90","42.25","ERIEAU (AUT)","613KLLM","2021-09-20 10:00","2021","09","20","10:00","22.9","","20.1","","84","","","","8","","10","","","","99.86","","31","","","","NA"
"-81.90","42.25","ERIEAU (AUT)","613KLLM","2021-09-20 11:00","2021","09","20","11:00","22.8","","19.6","","82","","","","7","","14","","","","99.84","","30","","","","NA"
"-81.90","42.25","ERIEAU (AUT)","613KLLM","2021-09-20 12:00","2021","09","20","12:00","22.6","","19.2","","81","","","","7","","16","","","","99.80","","30","","","","NA"
"-81.90","42.25","ERIEAU (AUT)","613KLLM","2021-09-20 13:00","2021","09","20","13:00","23.0","","20.4","","86","","","","8","","10","","","","99.80","","31","","","","NA"
"-81.90","42.25","ERIEAU (AUT)","613KLLM","2021-09-20 14:00","2021","09","20","14:00","23.7","","19.8","","79","","","","7","","13","","","","99.78","","31","","","","NA"
"-81.90","42.25","ERIEAU (AUT)","613KLLM","2021-09-20 15:00","2021","09","20","15:00","24.0","","20.3","","80","","","","7","","12","","","","99.74","","32","","","","NA"
"-81.90","42.25","ERIEAU (AUT)","613KLLM","2021-09-20 16:00","2021","09","20","16:00","23.5","","20.6","","84","","","","6","","13","","","","99.71","","32","","","","NA"
"-81.90","42.25","ERIEAU (AUT)","613KLLM","2021-09-20 17:00","2021","09","20","17:00","23.4","","21.0","","87","","","","7","","15","","","","99.67","","32","","","","NA"
"-81.90","42.25","ERIEAU (AUT)","613KLLM","2021-09-20 18:00","2021","09","20","18:00","23.0","","21.7","","92","","","","11","","15","","","","99.68","","32","","","","NA"
"-81.90","42.25","ERIEAU (AUT)","613KLLM","2021-09-20 19:00","2021","09","20","19:00","23.5","","21.1","","87","","","","19","","6","","","","99.66","","32","","","","NA"
"-81.90","42.25","ERIEAU (AUT)","613KLLM","2021-09-20 20:00","2021","09","20","20:00","23.3","","21.0","","87","","","","18","","8","","","","99.63","","32","","","","NA"
"-81.90","42.25","ERIEAU (AUT)","613KLLM","2021-09-20 21:00","2021","09","20","21:00","23.1","","21.4","","90","","","","14","","9","","","","99.66","","32","","","","NA"
"-81.90","42.25","ERIEAU (AUT)","613KLLM","2021-09-20 22:00","2021","09","20","22:00","23.3","","21.3","","89","","","","17","","10","","","","99.64","","32","","","","NA"
"-81.90","42.25","ERIEAU (AUT)","613KLLM","2021-09-20 23:00","2021","09","20","23:00","23.1","","21.3","","90","","","","16","","10","","","","99.61","","32","","","","NA"
"-81.90","42.25","ERIEAU (AUT)","613KLLM","2021-09-21 00:00","2021","09","21","00:00","23.4","","21.1","","87","","","","15","","21","","","","99.65","","32","","","","NA"
"-81.90","42.25","ERIEAU (AUT)","613KLLM","2021-09-21 01:00","2021","09","21","01:00","23.4","","20.7","","85","","","","16","","21","","","","99.70","","32","","","","NA"
"-81.90","42.25","ERIEAU (AUT)","613KLLM","2021-09-21 02:00","2021","09","21","02:00","23.3","","20.5","","85","","","","17","","22","","","","99.70","","31","","","","NA"
"-81.90","42.25","ERIEAU (AUT)","613KLLM","2021-09-21 03:00","2021","09","21","03:00","23.0","","20.4","","85","","","","16","","20","","","","99.68","","31","","","","NA"
"-81.90","42.25","ERIEAU (AUT)","613KLLM","2021-09-21 04:00","2021","09","21","04:00","22.8","","19.4","","81","","","","18","","21","","","","99.72","","30","","","","NA"
"-81.90","42.25","ERIEAU (AUT)","613KLLM","2021-09-21 05:00","2021","09","21","05:00","21.7","","18.9","","84","","","","16","","17","","","","99.69","","28","","","","NA"
"-81.90","42.25","ERIEAU (AUT)","613KLLM","2021-09-21 06:00","2021","09","21","06:00","21.6","","19.9","","90","","","","14","","30","","","","99.69","","29","","","","NA"
"-81.90","42.25","ERIEAU (AUT)","613KLLM","2021-09-21 07:00","2021","09","21","07:00","22.1","","19.6","","86","","","","14","","40","","","","99.68","","29","","","","NA"
"-81.90","42.25","ERIEAU (AUT)","613KLLM","2021-09-21 08:00","2021","09","21","08:00","22.2","","19.2","","83","","","","16","","29","","","","99.71","","29","","","","NA"
"-81.90","42.25","ERIEAU (AUT)","613KLLM","2021-09-21 09:00","2021","09","21","09:00","22.2","","19.6","","85","","","","16","","30","","","","99.67","","29","","","","NA"
"-81.90","42.25","ERIEAU (AUT)","613KLLM","2021-09-21 10:00","2021","09","21","10:00","22.0","","19.4","","85","","","","16","","34","","","","99.68","","29","","","","NA"
"-81.90","42.25","ERIEAU (AUT)","613KLLM","2021-09-21 11:00","2021","09","21","11:00","22.2","","19.2","","83","","","","17","","34","","","","99.72","","29","","","","NA"
"-81.90","42.25","ERIEAU (AUT)","613KLLM","2021-09-21 12:00","2021","09","21","12:00"
"-81.90","42.25","ERIEAU (AUT)","613KLLM","2021-09-21 13:00","2021","09","21","13:00"
"-81.90","42.25","ERIEAU (AUT)","613KLLM","2021-09-21 14:00","2021","09","21","14:00"
"-81.90","42.25","ERIEAU (AUT)","613KLLM","2021-09-21 15:00","2021","09","21","15:00"
"-81.90","42.25","ERIEAU (AUT)","613KLLM","2021-09-21 16:00","2021","09","21","16:00","22.5","","19.7","","84","","","","18","","19","","","","99.61","","30","","","","NA"
"-81.90","42.25","ERIEAU (AUT)","613KLLM","2021-09-21 17:00","2021","09","21","17:00","22.1","","19.8","","87","","","","17","","27","","","","99.60","","30","","","","NA"
"-81.90","42.25","ERIEAU (AUT)","613KLLM","2021-09-21 18:00","2021","09","21","18:00","21.8","","19.8","","88","","","","17","","25","","","","99.59","","29","","","","NA"
"-81.90","42.25","ERIEAU (AUT)","613KLLM","2021-09-21 19:00","2021","09","21","19:00","21.3","","20.0","","92","","","","16","","22","","","","99.57","","29","","","","NA"
"-81.90","42.25","ERIEAU (AUT)","613KLLM","2021-09-21 20:00","2021","09","21","20:00","21.5","","20.1","","92","","","","16","","24","","","","99.56","","29","","","","NA"
"-81.90","42.25","ERIEAU (AUT)","613KLLM","2021-09-21 21:00","2021","09","21","21:00","21.1","","20.0","","93","","","","16","","27","","","","99.52","","29","","","","NA"
"-81.90","42.25","ERIEAU (AUT)","613KLLM","2021-09-21 22:00","2021","09","21","22:00","21.2","","19.9","","92","","","","17","","28","","","","99.48","","29","","","","NA"
"-81.90","42.25","ERIEAU (AUT)","613KLLM","2021-09-21 23:00","2021","09","21","23:00","20.9","","20.2","","95","","","","17","","29","","","","99.41","","29","","","","NA"
"-81.90","42.25","ERIEAU (AUT)","613KLLM","2021-09-22 00:00","2021","09","22","00:00","21.1","","19.6","","91","","","","17","","32","","","","99.33","","28","","","","NA"
"-81.90","42.25","ERIEAU (AUT)","613KLLM","2021-09-22 01:00","2021","09","22","01:00","21.2","","19.3","","89","","","","18","","20","","","","99.27","","28","","","","NA"
"-81.90","42.25","ERIEAU (AUT)","613KLLM","2021-09-22 02:00","2021","09","22","02:00","15.8","","14.8","","94","","","","34","","29","","","","99.29","","","","","","NA"
"-81.90","42.25","ERIEAU (AUT)","613KLLM","2021-09-22 03:00","2021","09","22","03:00","15.6","","14.6","","93","","","","34","","25","","","","99.27","","","","","","NA"
"-81.90","42.25","ERIEAU (AUT)","613KLLM","2021-09-22 04:00","2021","09","22","04:00","15.4","","13.8","","90","","","","33","","23","","","","99.23","","","","","","NA"
"-81.90","42.25","ERIEAU (AUT)","613KLLM","2021-09-22 05:00","2021","09","22","05:00","15.9","","13.9","","88","","","","35","","25","","","","99.16","","","","","","NA"
"-81.90","42.25","ERIEAU (AUT)","613KLLM","2021-09-22 06:00","2021","09","22","06:00","15.6","","13.9","","90","","","","35","","26","","","","99.12","","","","","","NA"
"-81.90","42.25","ERIEAU (AUT)","613KLLM","2021-09-22 07:00","2021","09","22","07:00","15.4","","13.9","","91","","","","35","","27","","","","99.08","","","","","","NA"
"-81.90","42.25","ERIEAU (AUT)","613KLLM","2021-09-22 08:00","2021","09","22","08:00","15.3","","14.2","","93","","","","35","","27","","","","99.00","","","","","","NA"
"-81.90","42.25","ERIEAU (AUT)","613KLLM","2021-09-22 09:00","2021","09","22","09:00","15.0","","14.3","","96","","","","33","","20","","","","99.00","","","","","","NA"
"-81.90","42.25","ERIEAU (AUT)","613KLLM","2021-09-22 10:00","2021","09","22","10:00","14.9","","14.2","","95","","","","34","","33","","","","98.92","","","","","","NA"
"-81.90","42.25","ERIEAU (AUT)","613KLLM","2021-09-22 11:00","2021","09","22","11:00","15.0","","14.0","","93","","","","34","","32","","","","98.87","","","","","","NA"
"-81.90","42.25","ERIEAU (AUT)","613KLLM","2021-09-22 12:00","2021","09","22","12:00","15.0","","14.0","","94","","","","35","","41","","","","98.77","","","","","","NA"
"-81.90","42.25","ERIEAU (AUT)","613KLLM","2021-09-22 13:00","2021","09","22","13:00","14.9","","14.2","","95","","","","35","","34","","","","98.70","","","","","","NA"
"-81.90","42.25","ERIEAU (AUT)","613KLLM","2021-09-22 14:00","2021","09","22","14:00","14.9","","14.0","","94","","","","34","","31","","","","98.59","","","","","","NA"
"-81.90","42.25","ERIEAU (AUT)","613KLLM","2021-09-22 15:00","2021","09","22","15:00","14.2","","13.4","","95","","","","33","","25","","","","98.57","","","","","","NA"
"-81.90","42.25","ERIEAU (AUT)","613KLLM","2021-09-22 16:00","2021","09","22","16:00","13.8","","12.9","","94","","","","34","","36","","","","98.53","","","","","","NA"
"-81.90","42.25","ERIEAU (AUT)","613KLLM","2021-09-22 17:00","2021","09","22","17:00","13.9","","12.8","","93","","","","34","","32","","","","98.42","","","","","","NA"
"-81.90","42.25","ERIEAU (AUT)","613KLLM","2021-09-22 18:00","2021","09","22","18:00","14.0","","12.4","","90","","","","34","","36","","","","98.32","","","","","","NA"
"-81.90","42.25","ERIEAU (AUT)","613KLLM","2021-09-22 19:00","2021","09","22","19:00","14.2","","12.6","","90","","","","36","","42","","","","98.28","","","","","","NA"
"-81.90","42.25","ERIEAU (AUT)","613KLLM","2021-09-22 20:00","2021","09","22","20:00","14.0","","12.4","","90","","","","34","","25","","","","98.43","","","","","","NA"
"-81.90","42.25","ERIEAU (AUT)","613KLLM","2021-09-22 21:00","2021","09","22","21:00","13.6","","12.2","","91","","","","33","","18","","","","98.37","","","","","","NA"
"-81.90","42.25","ERIEAU (AUT)","613KLLM","2021-09-22 22:00","2021","09","22","22:00","13.3","","12.7","","96","","","","34","","19","","","","98.31","","","","","","NA"
"-81.90","42.25","ERIEAU (AUT)","613KLLM","2021-09-22 23:00","2021","09","22","23:00","13.6","","13.2","","97","","","","1","","32","","","","98.24","","","","","","NA"
"-81.90","42.25","ERIEAU (AUT)","613KLLM","2021-09-23 00:00","2021","09","23","00:00","17.0","","16.8","","99","","","","13","","21","","","","98.16","","","","","","NA"
"-81.90","42.25","ERIEAU (AUT)","613KLLM","2021-09-23 01:00","2021","09","23","01:00","18.3","","17.0","","92","","","","12","","39","","","","98.04","","","","","","NA"
"-81.90","42.25","ERIEAU (AUT)","613KLLM","2021-09-23 02:00","2021","09","23","02:00","15.6","","14.0","","91","","","","19","","21","","","","98.16","","","","","","NA"
"-81.90","42.25","ERIEAU (AUT)","613KLLM","2021-09-23 03:00","2021","09","23","03:00","15.9","","13.9","","88","","","","17","","28","","","","98.21","","","","","","NA"
"-81.90","42.25","ERIEAU (AUT)","613KLLM","2021-09-23 04:00","2021","09","23","04:00","14.9","","13.5","","91","","","","16","","31","","","","98.21","","","","","","NA"
"-81.90","42.25","ERIEAU (AUT)","613KLLM","2021-09-23 05:00","2021","09","23","05:00","14.3","","12.2","","87","","","","16","","33","","","","98.30","","","","","","NA"
"-81.90","42.25","ERIEAU (AUT)","613KLLM","2021-09-23 06:00","2021","09","23","06:00","14.1","","12.2","","88","","","","16","","36","","","","98.34","","","","","","NA"
"-81.90","42.25","ERIEAU (AUT)","613KLLM","2021-09-23 07:00","2021","09","23","07:00","13.9","","11.9","","88","","","","16","","34","","","","98.37","","","","","","NA"
"-81.90","42.25","ERIEAU (AUT)","613KLLM","2021-09-23 08:00","2021","09","23","08:00","13.5","","10.3","","81","","","","17","","36","","","","98.40","","","","","","NA"
"-81.90","42.25","ERIEAU (AUT)","613KLLM","2021-09-23 09:00","2021","09","23","09:00","13.6","","10.7","","83","","","","17","","35","","","","98.44","","","","","","NA"
"-81.90","42.25","ERIEAU (AUT)","613KLLM","2021-09-23 10:00","2021","09","23","10:00","13.4","","10.4","","82","","","","17","","35","","","","98.48","","","","","","NA"
"-81.90","42.25","ERIEAU (AUT)","613KLLM","2021-09-23 11:00","2021","09","23","11:00","13.3","","10.1","","81","","","","18","","34","","","","98.49","","","","","","NA"
"-81.90","42.25","ERIEAU (AUT)","613KLLM","2021-09-23 12:00","2021","09","23","12:00","13.6","","9.6","","77","","","","19","","36","","","","98.53","","","","","","NA"
"-81.90","42.25","ERIEAU (AUT)","613KLLM","2021-09-23 13:00","2021","09","23","13:00","13.6","","10.1","","79","","","","19","","35","","","","98.57","","","","","","NA"
"-81.90","42.25","ERIEAU (AUT)","613KLLM","2021-09-23 14:00","2021","09","23","14:00","13.3","","10.4","","83","","","","19","","34","","","","98.57","","","","","","NA"
"-81.90","42.25","ERIEAU (AUT)","613KLLM","2021-09-23 15:00","2021","09","23","15:00","13.6","","10.9","","84","","","","19","","37","","","","98.58","","","","","","NA"
"-81.90","42.25","ERIEAU (AUT)","613KLLM","2021-09-23 16:00","2021","09","23","16:00","12.8","","11.1","","90","","","","19","","41","","","","98.64","","","","","","NA"
"-81.90","42.25","ERIEAU (AUT)","613KLLM","2021-09-23 17:00","2021","09","23","17:00","13.1","","11.8","","92","","","","20","","34","","","","98.66","","","","","","NA"
"-81.90","42.25","ERIEAU (AUT)","613KLLM","2021-09-23 18:00","2021","09","23","18:00","12.9","","10.9","","88","","","","22","","15","","","","98.72","","","","","","NA"
"-81.90","42.25","ERIEAU (AUT)","613KLLM","2021-09-23 19:00","2021","09","23","19:00","12.8","","10.1","","84","","","","24","","26","","","","98.76","","","","","","NA"
"-81.90","42.25","ERIEAU (AUT)","613KLLM","2021-09-23 20:00","2021","09","23","20:00","12.7","","10.2","","84","","","","24","","23","","","","98.81","","","","","","NA"
"-81.90","42.25","ERIEAU (AUT)","613KLLM","2021-09-23 21:00","2021","09","23","21:00","13.1","","10.4","","84","","","","24","","21","","","","98.85","","","","","","NA"
"-81.90","42.25","ERIEAU (AUT)","613KLLM","2021-09-23 22:00","2021","09","23","22:00","12.9","","10.5","","86","","","","24","","25","","","","98.88","","","","","","NA"
"-81.90","42.25","ERIEAU (AUT)","613KLLM","2021-09-23 23:00","2021","09","23","23:00","13.1","","10.3","","83","","","","25","","15","","","","98.89","","","","","","NA"
"-81.90","42.25","ERIEAU (AUT)","613KLLM","2021-09-24 00:00","2021","09","24","00:00","13.0","","10.1","","83","","","","24","","20","","","","98.90","","","","","","NA"
"-81.90","42.25","ERIEAU (AUT)","613KLLM","2021-09-24 01:00","2021","09","24","01:00","12.3","","9.2","","81","","","","25","","15","","","","98.92","","","","","","NA"
"-81.90","42.25","ERIEAU (AUT)","613KLLM","2021-09-24 02:00","2021","09","24","02:00","11.9","","9.5","","85","","","","26","","16","","","","98.98","","","","","","NA"
"-81.90","42.25","ERIEAU (AUT)","613KLLM","2021-09-24 03:00","2021","09","24","03:00","12.1","","9.5","","84","","","","25","","19","","","","99.03","","","","","","NA"
"-81.90","42.25","ERIEAU (AUT)","613KLLM","2021-09-24 04:00","2021","09","24","04:00","11.8","","9.0","","83","","","","25","","18","","","","99.11","","","","","","NA"
"-81.90","42.25","ERIEAU (AUT)","613KLLM","2021-09-24 05:00","2021","09","24","05:00","12.5","","8.8","","78","","","","24","","25","","","","99.19","","","","","","NA"
"-81.90","42.25","ERIEAU (AUT)","613KLLM","2021-09-24 06:00","2021","09","24","06:00","17.4","","12.6","","74","","","","25","","14","","","","99.22","","","","","","NA"
"-81.90","42.25","ERIEAU (AUT)","613KLLM","2021-09-24 07:00","2021","09","24","07:00","15.8","","10.9","","73","","","","26","","12","","","","99.25","","","","","","NA"
"-81.90","42.25","ERIEAU (AUT)","613KLLM","2021-09-24 08:00","2021","09","24","08:00","16.4","","11.0","","70","","","","24","","18","","","","99.26","","","","","","NA"
"-81.90","42.25","ERIEAU (AUT)","613KLLM","2021-09-24 09:00","2021","09","24","09:00","16.6","","11.2","","70","","","","23","","18","","","","99.31","","","","","","NA"
"-81.90","42.25","ERIEAU (AUT)","613KLLM","2021-09-24 10:00","2021","09","24","10:00","17.4","","11.7","","69","","","","23","","13","","","","99.35","","","","","","NA"
"-81.90","42.25","ERIEAU (AUT)","613KLLM","2021-09-24 11:00","2021","09","24","11:00","18.6","","11.7","","64","","","","23","","10","","","","99.38","","","","","","NA"
"-81.90","42.25","ERIEAU (AUT)","613KLLM","2021-09-24 12:00","2021","09","24","12:00","19.0","","13.0","","68","","","","21","","15","","","","99.38","","","","","","NA"
"-81.90","42.25","ERIEAU (AUT)","613KLLM","2021-09-24 13:00","2021","09","24","13:00","19.8","","14.2","","70","","","","21","","12","","","","99.38","","","","","","NA"
"-81.90","42.25","ERIEAU (AUT)","613KLLM","2021-09-24 14:00","2021","09","24","14:00","20.4","","14.8","","70","","","","21","","13","","","","99.37","","","","","","NA"
"-81.90","42.25","ERIEAU (AUT)","613KLLM","2021-09-24 15:00","2021","09","24","15:00","20.4","","14.0","","66","","","","20","","20","","","","99.37","","","","","","NA"
"-81.90","42.25","ERIEAU (AUT)","613KLLM","2021-09-24 16:00","2021","09","24","16:00","21.1","","15.4","","70","","","","19","","16","","","","99.38","","25","","","","NA"
"-81.90","42.25","ERIEAU (AUT)","613KLLM","2021-09-24 17:00","2021","09","24","17:00","20.8","","14.5","","67","","","","20","","20","","","","99.37","","","","","","NA"
"-81.90","42.25","ERIEAU (AUT)","613KLLM","2021-09-24 18:00","2021","09","24","18:00","20.1","","15.1","","73","","","","19","","16","","","","99.38","","","","","","NA"
"-81.90","42.25","ERIEAU (AUT)","613KLLM","2021-09-24 19:00","2021","09","24","19:00","19.7","","13.9","","69","","","","19","","10","","","","99.39","","","","","","NA"
"-81.90","42.25","ERIEAU (AUT)","613KLLM","2021-09-24 20:00","2021","09","24","20:00","19.7","","14.5","","72","","","","17","","10","","","","99.41","","","","","","NA"
"-81.90","42.25","ERIEAU (AUT)","613KLLM","2021-09-24 21:00","2021","09","24","21:00","19.8","","15.2","","75","","","","17","","17","","","","99.43","","","","","","NA"
"-81.90","42.25","ERIEAU (AUT)","613KLLM","2021-09-24 22:00","2021","09","24","22:00","19.9","","15.8","","77","","","","16","","18","","","","99.40","","","","","","NA"
"-81.90","42.25","ERIEAU (AUT)","613KLLM","2021-09-24 23:00","2021","09","24","23:00","19.9","","14.8","","73","","","","19","","24","","","","99.36","","","","","","NA"
"-81.90","42.25","ERIEAU (AUT)","613KLLM","2021-09-25 00:00","2021","09","25","00:00","19.7","","14.1","","70","","","","19","","23","","","","99.30","","","","","","NA"
"-81.90","42.25","ERIEAU (AUT)","613KLLM","2021-09-25 01:00","2021","09","25","01:00","19.3","","13.9","","71","","","","19","","24","","","","99.29","","","","","","NA"
"-81.90","42.25","ERIEAU (AUT)","613KLLM","2021-09-25 02:00","2021","09","25","02:00","19.1","","13.6","","70","","","","19","","23","","","","99.26","","","","","","NA"
"-81.90","42.25","ERIEAU (AUT)","613KLLM","2021-09-25 03:00","2021","09","25","03:00","18.9","","13.3","","70","","","","19","","24","","","","99.21","","","","","","NA"
"-81.90","42.25","ERIEAU (AUT)","613KLLM","2021-09-25 04:00","2021","09","25","04:00","18.6","","13.5","","72","","","","19","","29","","","","99.18","","","","","","NA"
"-81.90","42.25","ERIEAU (AUT)","613KLLM","2021-09-25 05:00","2021","09","25","05:00","18.4","","13.3","","72","","","","19","","30","","","","99.15","","","","","","NA"
"-81.90","42.25","ERIEAU (AUT)","613KLLM","2021-09-25 06:00","2021","09","25","06:00","18.5","","13.5","","73","","","","19","","28","","","","99.13","","","","","","NA"
"-81.90","42.25","ERIEAU (AUT)","613KLLM","2021-09-25 07:00","2021","09","25","07:00","18.5","","13.5","","73","","","","20","","26","","","","99.15","","","","","","NA"
"-81.90","42.25","ERIEAU (AUT)","613KLLM","2021-09-25 08:00","2021","09","25","08:00","18.6","","13.2","","71","","","","21","","22","","","","99.16","","","","","","NA"
"-81.90","42.25","ERIEAU (AUT)","613KLLM","2021-09-25 09:00","2021","09","25","09:00","18.2","","13.8","","75","","","","21","","15","","","","99.16","","","","","","NA"
"-81.90","42.25","ERIEAU (AUT)","613KLLM","2021-09-25 10:00","2021","09","25","10:00","17.5","","13.6","","78","","","","23","","15","","","","99.18","","","","","","NA"
"-81.90","42.25","ERIEAU (AUT)","613KLLM","2021-09-25 11:00","2021","09","25","11:00","15.6","","13.2","","85","","","","27","","11","","","","99.21","","","","","","NA"
"-81.90","42.25","ERIEAU (AUT)","613KLLM","2021-09-25 12:00","2021","09","25","12:00","15.5","","12.1","","80","","","","27","","8","","","","99.21","","","","","","NA"
"-81.90","42.25","ERIEAU (AUT)","613KLLM","2021-09-25 13:00","2021","09","25","13:00","16.7","","11.8","","72","","","","26","","13","","","","99.24","","","","","","NA"
"-81.90","42.25","ERIEAU (AUT)","613KLLM","2021-09-25 14:00","2021","09","25","14:00","17.8","","11.2","","66","","","","25","","11","","","","99.26","","","","","","NA"
"-81.90","42.25","ERIEAU (AUT)","613KLLM","2021-09-25 15:00","2021","09","25","15:00","17.8","","8.7","","55","","","","26","","14","","","","99.28","","","","","","NA"
"-81.90","42.25","ERIEAU (AUT)","613KLLM","2021-09-25 16:00","2021","09","25","16:00","17.7","","6.6","","48","","","","28","","15","","","","99.30","","","","","","NA"
"-81.90","42.25","ERIEAU (AUT)","613KLLM","2021-09-25 17:00","2021","09","25","17:00","18.2","","6.6","","47","","","","26","","11","","","","99.30","","","","","","NA"
"-81.90","42.25","ERIEAU (AUT)","613KLLM","2021-09-25 18:00","2021","09","25","18:00","17.0","","6.8","","51","","","","28","","5","","","","99.31","","","","","","NA"
"-81.90","42.25","ERIEAU (AUT)","613KLLM","2021-09-25 19:00","2021","09","25","19:00","17.0","","7.6","","54","","","","24","","13","","","","99.30","","","","","","NA"
"-81.90","42.25","ERIEAU (AUT)","613KLLM","2021-09-25 20:00","2021","09","25","20:00","17.2","","8.4","","56","","","","24","","14","","","","99.33","","","","","","NA"
"-81.90","42.25","ERIEAU (AUT)","613KLLM","2021-09-25 21:00","2021","09","25","21:00","17.2","","8.6","","57","","","","25","","10","","","","99.36","","","","","","NA"
"-81.90","42.25","ERIEAU (AUT)","613KLLM","2021-09-25 22:00","2021","09","25","22:00","16.5","","7.8","","56","","","","27","","10","","","","99.38","","","","","","NA"
"-81.90","42.25","ERIEAU (AUT)","613KLLM","2021-09-25 23:00","2021","09","25","23:00","15.4","","5.6","","52","","","","27","","10","","","","99.42","","","","","","NA"
"-81.90","42.25","ERIEAU (AUT)","613KLLM","2021-09-26 00:00","2021","09","26","00:00","15.7","","6.4","","54","","","","27","","7","","","","99.38","","","","","","NA"
"-81.90","42.25","ERIEAU (AUT)","613KLLM","2021-09-26 01:00","2021","09","26","01:00","15.9","","6.9","","55","","","","25","","8","","","","99.38","","","","","","NA"
"-81.90","42.25","ERIEAU (AUT)","613KLLM","2021-09-26 02:00","2021","09","26","02:00","16.5","","7.3","","54","","","","24","","10","","","","99.35","","","","","","NA"
"-81.90","42.25","ERIEAU (AUT)","613KLLM","2021-09-26 03:00","2021","09","26","03:00","17.4","","8.8","","57","","","","23","","12","","","","99.31","","","","","","NA"
"-81.90","42.25","ERIEAU (AUT)","613KLLM","2021-09-26 04:00","2021","09","26","04:00","17.7","","8.2","","54","","","","24","","21","","","","99.30","","","","","","NA"
"-81.90","42.25","ERIEAU (AUT)","613KLLM","2021-09-26 05:00","2021","09","26","05:00","17.2","","9.9","","62","","","","24","","22","","","","99.31","","","","","","NA"
"-81.90","42.25","ERIEAU (AUT)","613KLLM","2021-09-26 06:00","2021","09","26","06:00","16.5","","8.7","","60","","","","25","","10","","","","99.33","","","","","","NA"
"-81.90","42.25","ERIEAU (AUT)","613KLLM","2021-09-26 07:00","2021","09","26","07:00","16.6","","8.8","","60","","","","24","","12","","","","99.34","","","","","","NA"
"-81.90","42.25","ERIEAU (AUT)","613KLLM","2021-09-26 08:00","2021","09","26","08:00","16.5","","8.9","","61","","","","24","","17","","","","99.36","","","","","","NA"
"-81.90","42.25","ERIEAU (AUT)","613KLLM","2021-09-26 09:00","2021","09","26","09:00","17.8","","11.1","","65","","","","24","","15","","","","99.36","","","","","","NA"
"-81.90","42.25","ERIEAU (AUT)","613KLLM","2021-09-26 10:00","2021","09","26","10:00","18.6","","9.3","","55","","","","24","","13","","","","99.37","","","","","","NA"
"-81.90","42.25","ERIEAU (AUT)","613KLLM","2021-09-26 11:00","2021","09","26","11:00","19.2","","8.9","","51","","","","23","","12","","","","99.36","","","","","","NA"
"-81.90","42.25","ERIEAU (AUT)","613KLLM","2021-09-26 12:00","2021","09","26","12:00","20.0","","10.4","","54","","","","22","","6","","","","99.34","","","","","","NA"
"-81.90","42.25","ERIEAU (AUT)","613KLLM","2021-09-26 13:00","2021","09","26","13:00","19.4","","12.9","","66","","","","21","","14","","","","99.32","","","","","","NA"
"-81.90","42.25","ERIEAU (AUT)","613KLLM","2021-09-26 14:00","2021","09","26","14:00","18.9","","12.8","","68","","","","20","","22","","","","99.26","","","","","","NA"
"-81.90","42.25","ERIEAU (AUT)","613KLLM","2021-09-26 15:00","2021","09","26","15:00","19.1","","12.3","","65","","","","21","","9","","","","99.22","","","","","","NA"
"-81.90","42.25","ERIEAU (AUT)","613KLLM","2021-09-26 16:00","2021","09","26","16:00","19.6","","12.6","","64","","","","22","","5","","","","99.18","","","","","","NA"
"-81.90","42.25","ERIEAU (AUT)","613KLLM","2021-09-26 17:00","2021","09","26","17:00","19.6","","13.9","","69","","","","19","","8","","","","99.14","","","","","","NA"
"-81.90","42.25","ERIEAU (AUT)","613KLLM","2021-09-26 18:00","2021","09","26","18:00","19.3","","14.3","","73","","","","19","","9","","","","99.12","","","","","","NA"
"-81.90","42.25","ERIEAU (AUT)","613KLLM","2021-09-26 19:00","2021","09","26","19:00","20.2","","16.4","","79","","","","20","","16","","","","99.09","","25","","","","NA"
"-81.90","42.25","ERIEAU (AUT)","613KLLM","2021-09-26 20:00","2021","09","26","20:00","20.3","","16.1","","77","","","","22","","6","","","","99.09","","25","","","","NA"
"-81.90","42.25","ERIEAU (AUT)","613KLLM","2021-09-26 21:00","2021","09","26","21:00","20.4","","15.0","","71","","","","21","","8","","","","99.09","","","","","","NA"
"-81.90","42.25","ERIEAU (AUT)","613KLLM","2021-09-26 22:00","2021","09","26","22:00","20.4","","14.3","","68","","","","22","","10","","","","99.08","","","","","","NA"
"-81.90","42.25","ERIEAU (AUT)","613KLLM","2021-09-26 23:00","2021","09","26","23:00","20.1","","14.4","","70","","","","22","","10","","","","99.08","","","","","","NA"
"-81.90","42.25","ERIEAU (AUT)","613KLLM","2021-09-27 00:00","2021","09","27","00:00","19.8","","14.6","","72","","","","22","","10","","","","99.09","","","","","","NA"
"-81.90","42.25","ERIEAU (AUT)","613KLLM","2021-09-27 01:00","2021","09","27","01:00","19.6","","14.4","","72","","","","21","","11","","","","99.10","","","","","","NA"
"-81.90","42.25","ERIEAU (AUT)","613KLLM","2021-09-27 02:00","2021","09","27","02:00","19.6","","14.6","","73","","","","21","","12","","","","99.11","","","","","","NA"
"-81.90","42.25","ERIEAU (AUT)","613KLLM","2021-09-27 03:00","2021","09","27","03:00","19.6","","14.3","","72","","","","21","","17","","","","99.07","","","","","","NA"
"-81.90","42.25","ERIEAU (AUT)","613KLLM","2021-09-27 04:00","2021","09","27","04:00","19.5","","14.3","","72","","","","21","","23","","","","99.02","","","","","","NA"
"-81.90","42.25","ERIEAU (AUT)","613KLLM","2021-09-27 05:00","2021","09","27","05:00","19.2","","13.8","","71","","","","20","","30","","","","98.97","","","","","","NA"
"-81.90","42.25","ERIEAU (AUT)","613KLLM","2021-09-27 06:00","2021","09","27","06:00","19.2","","14.0","","72","","","","21","","25","","","","98.96","","","","","","NA"
"-81.90","42.25","ERIEAU (AUT)","613KLLM","2021-09-27 07:00","2021","09","27","07:00","19.3","","14.3","","73","","","","21","","22","","","","98.92","","","","","","NA"
"-81.90","42.25","ERIEAU (AUT)","613KLLM","2021-09-27 08:00","2021","09","27","08:00","19.8","","14.8","","73","","","","21","","14","","","","98.93","","","","","","NA"
"-81.90","42.25","ERIEAU (AUT)","613KLLM","2021-09-27 09:00","2021","09","27","09:00","20.0","","15.0","","73","","","","21","","10","","","","98.92","","","","","","NA"
"-81.90","42.25","ERIEAU (AUT)","613KLLM","2021-09-27 10:00","2021","09","27","10:00","20.8","","15.5","","71","","","","21","","12","","","","98.88","","25","","","","NA"
"-81.90","42.25","ERIEAU (AUT)","613KLLM","2021-09-27 11:00","2021","09","27","11:00","21.7","","16.5","","72","","","","22","","7","","","","98.83","","27","","","","NA"
"-81.90","42.25","ERIEAU (AUT)","613KLLM","2021-09-27 12:00","2021","09","27","12:00","22.3","","16.5","","70","","","","21","","8","","","","98.78","","27","","","","NA"
"-81.90","42.25","ERIEAU (AUT)","613KLLM","2021-09-27 13:00","2021","09","27","13:00","22.1","","17.0","","73","","","","21","","11","","","","98.75","","27","","","","NA"
"-81.90","42.25","ERIEAU (AUT)","613KLLM","2021-09-27 14:00","2021","09","27","14:00","22.0","","17.2","","74","","","","21","","13","","","","98.71","","27","","","","NA"
"-81.90","42.25","ERIEAU (AUT)","613KLLM","2021-09-27 15:00","2021","09","27","15:00","21.9","","17.8","","78","","","","20","","10","","","","98.69","","28","","","","NA"
"-81.90","42.25","ERIEAU (AUT)","613KLLM","2021-09-27 16:00","2021","09","27","16:00","22.5","","18.4","","78","","","","21","","6","","","","98.66","","29","","","","NA"
"-81.90","42.25","ERIEAU (AUT)","613KLLM","2021-09-27 17:00","2021","09","27","17:00","23.1","","18.4","","75","","","","24","","3","","","","98.67","","29","","","","NA"
"-81.90","42.25","ERIEAU (AUT)","613KLLM","2021-09-27 18:00","2021","09","27","18:00","21.9","","17.2","","75","","","","24","","6","","","","98.70","","27","","","","NA"
"-81.90","42.25","ERIEAU (AUT)","613KLLM","2021-09-27 19:00","2021","09","27","19:00","21.3","","16.9","","76","","","","29","","2","","","","98.75","","27","","","","NA"
"-81.90","42.25","ERIEAU (AUT)","613KLLM","2021-09-27 20:00","2021","09","27","20:00","20.3","","16.4","","78","","","","33","","8","","","","98.81","","25","","","","NA"
"-81.90","42.25","ERIEAU (AUT)","613KLLM","2021-09-27 21:00","2021","09","27","21:00","19.4","","16.1","","81","","","","34","","10","","","","98.85","","","","","","NA"
"-81.90","42.25","ERIEAU (AUT)","613KLLM","2021-09-27 22:00","2021","09","27","22:00","18.7","","15.3","","80","","","","34","","11","","","","98.90","","","","","","NA"
"-81.90","42.25","ERIEAU (AUT)","613KLLM","2021-09-27 23:00","2021","09","27","23:00","17.4","","14.4","","83","","","","34","","13","","","","98.95","","","","","","NA"
"-81.90","42.25","ERIEAU (AUT)","613KLLM","2021-09-28 00:00","2021","09","28","00:00","16.7","","14.8","","89","","","","34","","12","","","","98.96","","","","","","NA"
"-81.90","42.25","ERIEAU (AUT)","613KLLM","2021-09-28 01:00","2021","09","28","01:00","16.6","","14.9","","90","","","","34","","14","","","","98.96","","","","","","NA"
"-81.90","42.25","ERIEAU (AUT)","613KLLM","2021-09-28 02:00","2021","09","28","02:00","16.5","","14.6","","88","","","","34","","15","","","","98.97","","","","","","NA"
"-81.90","42.25","ERIEAU (AUT)","613KLLM","2021-09-28 03:00","2021","09","28","03:00","16.4","","14.1","","86","","","","34","","12","","","","98.98","","","","","","NA"
"-81.90","42.25","ERIEAU (AUT)","613KLLM","2021-09-28 04:00","2021","09","28","04:00","16.1","","13.5","","84","","","","34","","13","","","","99.03","","","","","","NA"
"-81.90","42.25","ERIEAU (AUT)","613KLLM","2021-09-28 05:00","2021","09","28","05:00","15.6","","12.7","","83","","","","33","","15","","","","99.09","","","","","","NA"
"-81.90","42.25","ERIEAU (AUT)","613KLLM","2021-09-28 06:00","2021","09","28","06:00","14.8","","11.9","","83","","","","34","","17","","","","99.21","","","","","","NA"
"-81.90","42.25","ERIEAU (AUT)","613KLLM","2021-09-28 07:00","2021","09","28","07:00","13.9","","11.8","","87","","","","35","","16","","","","99.30","","","","","","NA"
"-81.90","42.25","ERIEAU (AUT)","613KLLM","2021-09-28 08:00","2021","09","28","08:00","14.7","","11.4","","81","","","","36","","20","","","","99.37","","","","","","NA"
"-81.90","42.25","ERIEAU (AUT)","613KLLM","2021-09-28 09:00","2021","09","28","09:00","16.2","","10.9","","71","","","","36","","17","","","","99.42","","","","","","NA"
"-81.90","42.25","ERIEAU (AUT)","613KLLM","2021-09-28 10:00","2021","09","28","10:00","17.4","","10.8","","65","","","","2","","12","","","","99.48","","","","","","NA"
"-81.90","42.25","ERIEAU (AUT)","613KLLM","2021-09-28 11:00","2021","09","28","11:00","18.1","","10.2","","60","","","","2","","13","","","","99.49","","","","","","NA"
"-81.90","42.25","ERIEAU (AUT)","613KLLM","2021-09-28 12:00","2021","09","28","12:00","18.6","","10.5","","59","","","","4","","11","","","","99.48","","","","","","NA"
"-81.90","42.25","ERIEAU (AUT)","613KLLM","2021-09-28 13:00","2021","09","28","13:00","19.5","","11.4","","60","","","","7","","9","","","","99.49","","","","","","NA"
"-81.90","42.25","ERIEAU (AUT)","613KLLM","2021-09-28 14:00","2021","09","28","14:00","19.3","","10.8","","58","","","","9","","9","","","","99.46","","","","","","NA"
"-81.90","42.25","ERIEAU (AUT)","613KLLM","2021-09-28 15:00","2021","09","28","15:00","18.6","","10.8","","60","","","","14","","9","","","","99.45","","","","","","NA"
"-81.90","42.25","ERIEAU (AUT)","613KLLM","2021-09-28 16:00","2021","09","28","16:00","19.4","","11.1","","59","","","","17","","6","","","","99.43","","","","","","NA"
"-81.90","42.25","ERIEAU (AUT)","613KLLM","2021-09-28 17:00","2021","09","28","17:00","19.7","","12.0","","61","","","","20","","4","","","","99.44","","","","","","NA"
"-81.90","42.25","ERIEAU (AUT)","613KLLM","2021-09-28 18:00","2021","09","28","18:00","17.6","","10.2","","62","","","","32","","12","","","","99.48","","","","","","NA"
"-81.90","42.25","ERIEAU (AUT)","613KLLM","2021-09-28 19:00","2021","09","28","19:00","16.2","","10.0","","67","","","","33","","10","","","","99.51","","","","","","NA"
"-81.90","42.25","ERIEAU (AUT)","613KLLM","2021-09-28 20:00","2021","09","28","20:00","15.0","","9.0","","67","","","","34","","12","","","","99.54","","","","","","NA"
"-81.90","42.25","ERIEAU (AUT)","613KLLM","2021-09-28 21:00","2021","09","28","21:00","14.1","","9.1","","72","","","","34","","9","","","","99.57","","","","","","NA"
"-81.90","42.25","ERIEAU (AUT)","613KLLM","2021-09-28 22:00","2021","09","28","22:00","13.7","","9.5","","76","","","","34","","7","","","","99.64","","","","","","NA"
"-81.90","42.25","ERIEAU (AUT)","613KLLM","2021-09-28 23:00","2021","09","28","23:00","13.9","","9.9","","77","","","","36","","12","","","","99.63","","","","","","NA"
"-81.90","42.25","ERIEAU (AUT)","613KLLM","2021-09-29 00:00","2021","09","29","00:00","14.0","","10.3","","78","","","","36","","14","","","","99.62","","","","","","NA"
"-81.90","42.25","ERIEAU (AUT)","613KLLM","2021-09-29 01:00","2021","09","29","01:00","13.6","","10.2","","80","","","","35","","9","","","","99.63","","","","","","NA"
"-81.90","42.25","ERIEAU (AUT)","613KLLM","2021-09-29 02:00","2021","09","29","02:00","13.4","","10.7","","83","","","","33","","7","","","","99.66","","","","","","NA"
"-81.90","42.25","ERIEAU (AUT)","613KLLM","2021-09-29 03:00","2021","09","29","03:00","13.7","","11.1","","84","","","","33","","8","","","","99.66","","","","","","NA"
"-81.90","42.25","ERIEAU (AUT)","613KLLM","2021-09-29 04:00","2021","09","29","04:00","13.9","","11.5","","85","","","","35","","8","","","","99.71","","","","","","NA"
"-81.90","42.25","ERIEAU (AUT)","613KLLM","2021-09-29 05:00","2021","09","29","05:00","14.2","","12.1","","88","","","","35","","9","","","","99.74","","","","","","NA"
"-81.90","42.25","ERIEAU (AUT)","613KLLM","2021-09-29 06:00","2021","09","29","06:00","13.6","","11.8","","89","","","","33","","8","","","","99.79","","","","","","NA"
"-81.90","42.25","ERIEAU (AUT)","613KLLM","2021-09-29 07:00","2021","09","29","07:00","14.0","","11.9","","87","","","","35","","10","","","","99.82","","","","","","NA"
"-81.90","42.25","ERIEAU (AUT)","613KLLM","2021-09-29 08:00","2021","09","29","08:00","15.1","","12.2","","83","","","","36","","10","","","","99.87","","","","","","NA"
"-81.90","42.25","ERIEAU (AUT)","613KLLM","2021-09-29 09:00","2021","09","29","09:00","16.8","","12.7","","77","","","","1","","12","","","","99.89","","","","","","NA"
"-81.90","42.25","ERIEAU (AUT)","613KLLM","2021-09-29 10:00","2021","09","29","10:00","18.7","","12.7","","68","","","","8","","8","","","","99.92","","","","","","NA"
"-81.90","42.25","ERIEAU (AUT)","613KLLM","2021-09-29 11:00","2021","09","29","11:00","18.6","","12.1","","66","","","","9","","7","","","","99.90","","","","","","NA"
"-81.90","42.25","ERIEAU (AUT)","613KLLM","2021-09-29 12:00","2021","09","29","12:00","18.2","","12.1","","68","","","","11","","10","","","","99.89","","","","","","NA"
"-81.90","42.25","ERIEAU (AUT)","613KLLM","2021-09-29 13:00","2021","09","29","13:00","18.0","","11.7","","67","","","","13","","11","","","","99.85","","","","","","NA"
"-81.90","42.25","ERIEAU (AUT)","613KLLM","2021-09-29 14:00","2021","09","29","14:00","18.8","","12.2","","66","","","","17","","9","","","","99.82","","","","","","NA"
"-81.90","42.25","ERIEAU (AUT)","613KLLM","2021-09-29 15:00","2021","09","29","15:00","19.4","","12.2","","63","","","","18","","8","","","","99.81","","","","","","NA"
"-81.90","42.25","ERIEAU (AUT)","613KLLM","2021-09-29 16:00","2021","09","29","16:00","19.3","","12.5","","65","","","","18","","7","","","","99.78","","","","","","NA"
"-81.90","42.25","ERIEAU (AUT)","613KLLM","2021-09-29 17:00","2021","09","29","17:00","19.4","","13.0","","66","","","","18","","6","","","","99.80","","","","","","NA"
"-81.90","42.25","ERIEAU (AUT)","613KLLM","2021-09-29 18:00","2021","09","29","18:00","18.3","","12.5","","69","","","","23","","4","","","","99.84","","","","","","NA"
"-81.90","42.25","ERIEAU (AUT)","613KLLM","2021-09-29 19:00","2021","09","29","19:00","17.3","","11.9","","71","","","","29","","4","","","","99.87","","","","","","NA"
"-81.90","42.25","ERIEAU (AUT)","613KLLM","2021-09-29 20:00","2021","09","29","20:00","16.4","","9.7","","64","","","","35","","9","","","","99.89","","","","","","NA"
"-81.90","42.25","ERIEAU (AUT)","613KLLM","2021-09-29 21:00","2021","09","29","21:00","16.2","","10.0","","67","","","","36","","16","","","","99.90","","","","","","NA"
"-81.90","42.25","ERIEAU (AUT)","613KLLM","2021-09-29 22:00","2021","09","29","22:00","15.2","","9.5","","69","","","","34","","9","","","","99.94","","","","","","NA"
"-81.90","42.25","ERIEAU (AUT)","613KLLM","2021-09-29 23:00","2021","09","29","23:00","14.6","","10.0","","74","","","","34","","10","","","","100.01","","","","","","NA"
"-81.90","42.25","ERIEAU (AUT)","613KLLM","2021-09-30 00:00","2021","09","30","00:00","14.7","","10.3","","75","","","","36","","12","","","","100.03","","","","","","NA"
"-81.90","42.25","ERIEAU (AUT)","613KLLM","2021-09-30 01:00","2021","09","30","01:00","15.0","","11.2","","78","","","","2","","12","","","","100.03","","","","","","NA"
"-81.90","42.25","ERIEAU (AUT)","613KLLM","2021-09-30 02:00","2021","09","30","02:00","14.9","","11.7","","81","","","","1","","10","","","","100.05","","","","","","NA"
"-81.90","42.25","ERIEAU (AUT)","613KLLM","2021-09-30 03:00","2021","09","30","03:00","13.4","","10.4","","82","","","","34","","8","","","","100.08","","","","","","NA"
"-81.90","42.25","ERIEAU (AUT)","613KLLM","2021-09-30 04:00","2021","09","30","04:00","13.3","","10.3","","82","","","","35","","7","","","","100.10","","","","","","NA"
"-81.90","42.25","ERIEAU (AUT)","613KLLM","2021-09-30 05:00","2021","09","30","05:00","13.1","","10.6","","85","","","","34","","7","","","","100.14","","","","","","NA"
"-81.90","42.25","ERIEAU (AUT)","613KLLM","2021-09-30 06:00","2021","09","30","06:00","12.9","","10.8","","87","","","","33","","6","","","","100.17","","","","","","NA"
"-81.90","42.25","ERIEAU (AUT)","613KLLM","2021-09-30 07:00","2021","09","30","07:00","13.8","","12.0","","89","","","","35","","8","","","","100.20","","","","","","NA"
"-81.90","42.25","ERIEAU (AUT)","613KLLM","2021-09-30 08:00","2021","09","30","08:00","14.9","","12.4","","85","","","","33","","4","","","","100.20","","","","","","NA"
"-81.90","42.25","ERIEAU (AUT)","613KLLM","2021-09-30 09:00","2021","09","30","09:00","16.5","","13.1","","80","","","","1","","4","","","","100.23","","","","","","NA"
"-81.90","42.25","ERIEAU (AUT)","613KLLM","2021-09-30 10:00","2021","09","30","10:00","17.6","","10.7","","64","","","","36","","6","","","","100.25","","","","","","NA"
"-81.90","42.25","ERIEAU (AUT)","613KLLM","2021-09-30 11:00","2021","09","30","11:00","18.6","","10.7","","60","","","","6","","5","","","","100.23","","","","","","NA"
"-81.90","42.25","ERIEAU (AUT)","613KLLM","2021-09-30 12:00","2021","09","30","12:00","17.6","","10.9","","65","","","","11","","11","","","","100.22","","","","","","NA"
"-81.90","42.25","ERIEAU (AUT)","613KLLM","2021-09-30 13:00","2021","09","30","13:00","18.0","","11.0","","64","","","","15","","9","","","","100.22","","","","","","NA"
"-81.90","42.25","ERIEAU (AUT)","613KLLM","2021-09-30 14:00","2021","09","30","14:00","18.6","","11.6","","64","","","","16","","8","","","","100.18","","","","","","NA"
"-81.90","42.25","ERIEAU (AUT)","613KLLM","2021-09-30 15:00","2021","09","30","15:00","18.5","","11.4","","63","","","","15","","8","","","","100.17","","","","","","NA"
"-81.90","42.25","ERIEAU (AUT)","613KLLM","2021-09-30 16:00","2021","09","30","16:00","18.9","","11.6","","62","","","","17","","8","","","","100.19","","","","","","NA"
"-81.90","42.25","ERIEAU (AUT)","613KLLM","2021-09-30 17:00","2021","09","30","17:00","18.8","","11.5","","63","","","","18","","8","","","","100.21","","","","","","NA"
"-81.90","42.25","ERIEAU (AUT)","613KLLM","2021-09-30 18:00","2021","09","30","18:00","17.7","","11.2","","66","","","","18","","8","","","","100.24","","","","","","NA"
"-81.90","42.25","ERIEAU (AUT)","613KLLM","2021-09-30 19:00","2021","09","30","19:00","17.4","","11.3","","68","","","","19","","7","","","","100.26","","","","","","NA"
"-81.90","42.25","ERIEAU (AUT)","613KLLM","2021-09-30 20:00","2021","09","30","20:00","17.0","","11.4","","70","","","","23","","3","","","","100.25","","","","","","NA"
"-81.90","42.25","ERIEAU (AUT)","613KLLM","2021-09-30 21:00","2021","09","30","21:00","16.1","","12.0","","76","","","","32","","3","","","","100.30","","","","","","NA"
"-81.90","42.25","ERIEAU (AUT)","613KLLM","2021-09-30 22:00","2021","09","30","22:00","16.0","","12.8","","81","","","","33","","4","","","","100.30","","","","","","NA"
"-81.90","42.25","ERIEAU (AUT)","613KLLM","2021-09-30 23:00","2021","09","30","23:00","15.6","","12.8","","83","","","","33","","4","","","","100.30","","","","","","NA"
