"Longitude (x)","Latitude (y)","Station Name","Climate ID","Date/Time (LST)","Year","Month","Day","Time (LST)","Temp (°C)","Temp Flag","Dew Point Temp (°C)","Dew Point Temp Flag","Rel Hum (%)","Rel Hum Flag","Precip. Amount (mm)","Precip. Amount Flag","Wind Dir (10s deg)","Wind Dir Flag","Wind Spd (km/h)","Wind Spd Flag","Visibility (km)","Visibility Flag","Stn Press (kPa)","Stn Press Flag","Hmdx","Hmdx Flag","Wind Chill","Wind Chill Flag","Weather"
"-84.51","46.49","SAULT STE MARIE A","6057591","2020-11-01 00:00","2020","11","01","00:00","6.5","","5.0","","90","","","","17","","14","","24.1","","97.84","","","","","","Rain Showers"
"-84.51","46.49","SAULT STE MARIE A","6057591","2020-11-01 01:00","2020","11","01","01:00","8.2","","7.2","","94","","","","22","","21","","16.1","","97.69","","","","","","Moderate Rain Showers"
"-84.51","46.49","SAULT STE MARIE A","6057591","2020-11-01 02:00","2020","11","01","02:00","4.7","","2.8","","87","","","","30","","39","","16.1","","97.75","","","","","","Rain Showers"
"-84.51","46.49","SAULT STE MARIE A","6057591","2020-11-01 03:00","2020","11","01","03:00","3.8","","1.1","","83","","","","30","","39","","24.1","","97.69","","","","","","Rain Showers"
"-84.51","46.49","SAULT STE MARIE A","6057591","2020-11-01 04:00","2020","11","01","04:00","2.3","","0.8","","90","","","","29","","42","","16.1","","97.76","","","","","","Rain Showers"
"-84.51","46.49","SAULT STE MARIE A","6057591","2020-11-01 05:00","2020","11","01","05:00","2.2","","0.6","","89","","","","30","","32","","19.3","","97.78","","","","","","Rain Showers,Snow Showers"
"-84.51","46.49","SAULT STE MARIE A","6057591","2020-11-01 06:00","2020","11","01","06:00","1.6","","-1.7","","79","","","","29","","43","","24.1","","97.77","","","","","","Snow Showers"
"-84.51","46.49","SAULT STE MARIE A","6057591","2020-11-01 07:00","2020","11","01","07:00","0.9","","-1.5","","84","","","","29","","43","","24.1","","97.83","","","","","","Snow Showers"
"-84.51","46.49","SAULT STE MARIE A","6057591","2020-11-01 08:00","2020","11","01","08:00","0.8","","-1.9","","83","","","","30","","40","","12.9","","97.85","","","","","","Snow Showers"
"-84.51","46.49","SAULT STE MARIE A","6057591","2020-11-01 09:00","2020","11","01","09:00","0.7","","-1.6","","84","","","","28","","36","","8.1","","97.89","","","","","","Snow Showers,Snow Pellets"
"-84.51","46.49","SAULT STE MARIE A","6057591","2020-11-01 10:00","2020","11","01","10:00","1.1","","-1.9","","81","","","","27","","30","","8.1","","97.92","","","","","","Snow Showers,Snow Pellets"
"-84.51","46.49","SAULT STE MARIE A","6057591","2020-11-01 11:00","2020","11","01","11:00","1.8","","-3.0","","71","","","","29","","37","","12.9","","97.97","","","","","","Snow Showers"
"-84.51","46.49","SAULT STE MARIE A","6057591","2020-11-01 12:00","2020","11","01","12:00","0.8","","-1.7","","83","","","","32","","44","","1.2","","98.06","","","","","","Snow Showers,Snow Pellets"
"-84.51","46.49","SAULT STE MARIE A","6057591","2020-11-01 13:00","2020","11","01","13:00","1.1","","-2.3","","78","","","","33","","45","","4.0","","98.19","","","","","","Snow Showers"
"-84.51","46.49","SAULT STE MARIE A","6057591","2020-11-01 14:00","2020","11","01","14:00","0.3","","-2.7","","80","","","","33","","45","","4.0","","98.40","","","","","","Snow Showers,Snow Pellets"
"-84.51","46.49","SAULT STE MARIE A","6057591","2020-11-01 15:00","2020","11","01","15:00","-0.1","","-4.3","","73","","","","34","","46","","4.0","","98.66","","","","-8","","Snow Showers,Snow Pellets"
"-84.51","46.49","SAULT STE MARIE A","6057591","2020-11-01 16:00","2020","11","01","16:00","-0.6","","-3.5","","81","","","","33","","47","","4.0","","98.95","","","","-9","","Snow Showers,Snow Pellets"
"-84.51","46.49","SAULT STE MARIE A","6057591","2020-11-01 17:00","2020","11","01","17:00","-0.5","","-4.8","","72","","","","34","","45","","4.0","","99.16","","","","-8","","Snow Showers,Snow Pellets"
"-84.51","46.49","SAULT STE MARIE A","6057591","2020-11-01 18:00","2020","11","01","18:00","-0.2","","-5.6","","67","","","","32","","54","","9.7","","99.37","","","","-9","","Snow Showers,Snow Pellets,Blowing Snow"
"-84.51","46.49","SAULT STE MARIE A","6057591","2020-11-01 19:00","2020","11","01","19:00","-0.6","","-6.1","","66","","","","31","","52","","12.9","","99.55","","","","-9","","Snow Showers,Snow Pellets,Blowing Snow"
"-84.51","46.49","SAULT STE MARIE A","6057591","2020-11-01 20:00","2020","11","01","20:00","-1.1","","-8.9","","56","","","","33","","47","","24.1","","99.68","","","","-9","","Snow Showers,Snow Pellets,Blowing Snow"
"-84.51","46.49","SAULT STE MARIE A","6057591","2020-11-01 21:00","2020","11","01","21:00","-1.2","","-7.0","","65","","","","32","","38","","24.1","","99.74","","","","-9","","Snow Showers,Snow Pellets"
"-84.51","46.49","SAULT STE MARIE A","6057591","2020-11-01 22:00","2020","11","01","22:00","-1.4","","-7.7","","62","","","","33","","26","","24.1","","99.81","","","","-8","","Snow Showers,Blowing Snow"
"-84.51","46.49","SAULT STE MARIE A","6057591","2020-11-01 23:00","2020","11","01","23:00","","M","","M","","M","","","","","","M","32.2","","","M","","","","","Snow Showers,Blowing Snow"
"-84.51","46.49","SAULT STE MARIE A","6057591","2020-11-02 00:00","2020","11","02","00:00","-1.6","","-7.8","","63","","","","32","","30","","32.2","","99.84","","","","-9","","Snow Showers,Blowing Snow"
"-84.51","46.49","SAULT STE MARIE A","6057591","2020-11-02 01:00","2020","11","02","01:00","-1.6","","-8.1","","62","","","","32","","27","","32.2","","99.85","","","","-8","","Mostly Cloudy"
"-84.51","46.49","SAULT STE MARIE A","6057591","2020-11-02 02:00","2020","11","02","02:00","-1.7","","-8.5","","60","","","","32","","19","","32.2","","99.83","","","","-7","","NA"
"-84.51","46.49","SAULT STE MARIE A","6057591","2020-11-02 03:00","2020","11","02","03:00","-1.4","","-7.0","","66","","","","34","","14","","32.2","","99.77","","","","-6","","NA"
"-84.51","46.49","SAULT STE MARIE A","6057591","2020-11-02 04:00","2020","11","02","04:00","-0.4","","-6.4","","64","","","","29","","24","","32.2","","99.71","","","","-6","","Mostly Cloudy"
"-84.51","46.49","SAULT STE MARIE A","6057591","2020-11-02 05:00","2020","11","02","05:00","-1.1","","-6.2","","68","","","","23","","14","","32.2","","99.66","","","","-6","","NA"
"-84.51","46.49","SAULT STE MARIE A","6057591","2020-11-02 06:00","2020","11","02","06:00","-1.8","","-6.2","","72","","","","24","","22","","32.2","","99.64","","","","-8","","NA"
"-84.51","46.49","SAULT STE MARIE A","6057591","2020-11-02 07:00","2020","11","02","07:00","-1.5","","-6.3","","70","","","","24","","22","","32.2","","99.50","","","","-7","","Mostly Cloudy"
"-84.51","46.49","SAULT STE MARIE A","6057591","2020-11-02 08:00","2020","11","02","08:00","-1.8","","-6.5","","70","","","","23","","17","","32.2","","99.37","","","","-7","","NA"
"-84.51","46.49","SAULT STE MARIE A","6057591","2020-11-02 09:00","2020","11","02","09:00","-0.4","","-6.7","","63","","","","23","","23","","24.1","","99.21","","","","-6","","NA"
"-84.51","46.49","SAULT STE MARIE A","6057591","2020-11-02 10:00","2020","11","02","10:00","1.1","","-5.4","","62","","","","21","","19","","32.2","","99.05","","","","","","Cloudy"
"-84.51","46.49","SAULT STE MARIE A","6057591","2020-11-02 11:00","2020","11","02","11:00","2.3","","-4.5","","61","","","","24","","17","","32.2","","98.91","","","","","","NA"
"-84.51","46.49","SAULT STE MARIE A","6057591","2020-11-02 12:00","2020","11","02","12:00","2.9","","-5.5","","54","","","","25","","28","","32.2","","98.81","","","","","","NA"
"-84.51","46.49","SAULT STE MARIE A","6057591","2020-11-02 13:00","2020","11","02","13:00","4.3","","-4.4","","53","","","","27","","32","","40.2","","98.73","","","","","","Mostly Cloudy"
"-84.51","46.49","SAULT STE MARIE A","6057591","2020-11-02 14:00","2020","11","02","14:00","5.2","","-4.0","","51","","","","27","","29","","40.2","","98.64","","","","","","NA"
"-84.51","46.49","SAULT STE MARIE A","6057591","2020-11-02 15:00","2020","11","02","15:00","5.8","","-2.0","","57","","","","28","","32","","40.2","","98.53","","","","","","NA"
"-84.51","46.49","SAULT STE MARIE A","6057591","2020-11-02 16:00","2020","11","02","16:00","6.3","","-0.9","","60","","","","28","","28","","40.2","","98.52","","","","","","Mostly Cloudy"
"-84.51","46.49","SAULT STE MARIE A","6057591","2020-11-02 17:00","2020","11","02","17:00","5.9","","-0.5","","63","","","","27","","24","","40.2","","98.46","","","","","","NA"
"-84.51","46.49","SAULT STE MARIE A","6057591","2020-11-02 18:00","2020","11","02","18:00","6.1","","1.2","","71","","","","29","","33","","40.2","","98.51","","","","","","NA"
"-84.51","46.49","SAULT STE MARIE A","6057591","2020-11-02 19:00","2020","11","02","19:00","6.2","","1.8","","73","","","","29","","32","","40.2","","98.53","","","","","","Mostly Cloudy"
"-84.51","46.49","SAULT STE MARIE A","6057591","2020-11-02 20:00","2020","11","02","20:00","6.8","","2.0","","72","","","","29","","36","","32.2","","98.58","","","","","","NA"
"-84.51","46.49","SAULT STE MARIE A","6057591","2020-11-02 21:00","2020","11","02","21:00","7.0","","1.7","","69","","","","30","","44","","32.2","","98.62","","","","","","NA"
"-84.51","46.49","SAULT STE MARIE A","6057591","2020-11-02 22:00","2020","11","02","22:00","6.7","","1.9","","71","","","","31","","49","","32.2","","98.71","","","","","","Mostly Cloudy"
"-84.51","46.49","SAULT STE MARIE A","6057591","2020-11-02 23:00","2020","11","02","23:00","6.1","","0.8","","69","","","","31","","35","","32.2","","98.70","","","","","","NA"
"-84.51","46.49","SAULT STE MARIE A","6057591","2020-11-03 00:00","2020","11","03","00:00","5.0","","-1.4","","64","","","","33","","16","","32.2","","98.80","","","","","","NA"
"-84.51","46.49","SAULT STE MARIE A","6057591","2020-11-03 01:00","2020","11","03","01:00","3.8","","-1.4","","69","","","","35","","12","","32.2","","98.90","","","","","","Mostly Cloudy"
"-84.51","46.49","SAULT STE MARIE A","6057591","2020-11-03 02:00","2020","11","03","02:00","1.7","","-3.2","","70","","","","36","","14","","32.2","","98.99","","","","","","NA"
"-84.51","46.49","SAULT STE MARIE A","6057591","2020-11-03 03:00","2020","11","03","03:00","1.4","","-3.0","","72","","","","34","","9","","32.2","","99.04","","","","","","NA"
"-84.51","46.49","SAULT STE MARIE A","6057591","2020-11-03 04:00","2020","11","03","04:00","1.4","","-3.1","","72","","","","0","","1","","32.2","","99.09","","","","","","Mostly Cloudy"
"-84.51","46.49","SAULT STE MARIE A","6057591","2020-11-03 05:00","2020","11","03","05:00","1.2","","-2.6","","76","","","","9","","5","","40.2","","99.15","","","","","","NA"
"-84.51","46.49","SAULT STE MARIE A","6057591","2020-11-03 06:00","2020","11","03","06:00","2.0","","-4.0","","65","","","","5","","11","","40.2","","99.17","","","","","","NA"
"-84.51","46.49","SAULT STE MARIE A","6057591","2020-11-03 07:00","2020","11","03","07:00","1.8","","-4.3","","64","","","","5","","9","","32.2","","99.23","","","","","","Snow"
"-84.51","46.49","SAULT STE MARIE A","6057591","2020-11-03 08:00","2020","11","03","08:00","1.8","","-4.2","","64","","","","11","","9","","24.1","","99.31","","","","","","NA"
"-84.51","46.49","SAULT STE MARIE A","6057591","2020-11-03 09:00","2020","11","03","09:00","2.2","","-4.3","","63","","","","12","","8","","32.2","","99.35","","","","","","NA"
"-84.51","46.49","SAULT STE MARIE A","6057591","2020-11-03 10:00","2020","11","03","10:00","3.0","","-4.3","","59","","","","12","","15","","32.2","","99.42","","","","","","Mostly Cloudy"
"-84.51","46.49","SAULT STE MARIE A","6057591","2020-11-03 11:00","2020","11","03","11:00","3.5","","-3.3","","61","","","","11","","13","","32.2","","99.38","","","","","","NA"
"-84.51","46.49","SAULT STE MARIE A","6057591","2020-11-03 12:00","2020","11","03","12:00","4.7","","-2.1","","62","","","","14","","17","","32.2","","99.28","","","","","","NA"
"-84.51","46.49","SAULT STE MARIE A","6057591","2020-11-03 13:00","2020","11","03","13:00","5.6","","-1.4","","61","","","","12","","16","","32.2","","99.10","","","","","","Mostly Cloudy"
"-84.51","46.49","SAULT STE MARIE A","6057591","2020-11-03 14:00","2020","11","03","14:00","7.1","","0.9","","65","","","","14","","15","","32.2","","99.00","","","","","","NA"
"-84.51","46.49","SAULT STE MARIE A","6057591","2020-11-03 15:00","2020","11","03","15:00","8.2","","1.3","","62","","","","13","","21","","32.2","","98.96","","","","","","NA"
"-84.51","46.49","SAULT STE MARIE A","6057591","2020-11-03 16:00","2020","11","03","16:00","7.2","","1.8","","68","","","","16","","17","","32.2","","98.91","","","","","","Mostly Cloudy"
"-84.51","46.49","SAULT STE MARIE A","6057591","2020-11-03 17:00","2020","11","03","17:00","6.0","","2.1","","76","","","","12","","22","","32.2","","98.96","","","","","","NA"
"-84.51","46.49","SAULT STE MARIE A","6057591","2020-11-03 18:00","2020","11","03","18:00","5.0","","2.0","","81","","","","10","","13","","32.2","","98.97","","","","","","NA"
"-84.51","46.49","SAULT STE MARIE A","6057591","2020-11-03 19:00","2020","11","03","19:00","4.2","","2.0","","85","","","","8","","15","","32.2","","98.99","","","","","","Clear"
"-84.51","46.49","SAULT STE MARIE A","6057591","2020-11-03 20:00","2020","11","03","20:00","4.0","","2.4","","89","","","","9","","12","","24.1","","98.98","","","","","","NA"
"-84.51","46.49","SAULT STE MARIE A","6057591","2020-11-03 21:00","2020","11","03","21:00","4.2","","2.9","","91","","","","9","","13","","24.1","","98.93","","","","","","NA"
"-84.51","46.49","SAULT STE MARIE A","6057591","2020-11-03 22:00","2020","11","03","22:00","4.2","","3.1","","92","","","","8","","8","","24.1","","98.93","","","","","","Clear"
"-84.51","46.49","SAULT STE MARIE A","6057591","2020-11-03 23:00","2020","11","03","23:00","4.7","","3.9","","95","","","","5","","13","","24.1","","98.96","","","","","","NA"
"-84.51","46.49","SAULT STE MARIE A","6057591","2020-11-04 00:00","2020","11","04","00:00","3.7","","2.9","","95","","","","9","","12","","24.1","","98.90","","","","","","NA"
"-84.51","46.49","SAULT STE MARIE A","6057591","2020-11-04 01:00","2020","11","04","01:00","3.4","","2.6","","95","","","","7","","13","","24.1","","98.93","","","","","","Clear"
"-84.51","46.49","SAULT STE MARIE A","6057591","2020-11-04 02:00","2020","11","04","02:00","2.3","","1.6","","95","","","","7","","9","","24.1","","98.90","","","","","","NA"
"-84.51","46.49","SAULT STE MARIE A","6057591","2020-11-04 03:00","2020","11","04","03:00","1.7","","1.0","","95","","","","5","","8","","24.1","","98.90","","","","","","NA"
"-84.51","46.49","SAULT STE MARIE A","6057591","2020-11-04 04:00","2020","11","04","04:00","1.9","","1.3","","96","","","","6","","13","","24.1","","98.90","","","","","","Clear"
"-84.51","46.49","SAULT STE MARIE A","6057591","2020-11-04 05:00","2020","11","04","05:00","1.4","","0.9","","96","","","","8","","10","","24.1","","98.89","","","","","","NA"
"-84.51","46.49","SAULT STE MARIE A","6057591","2020-11-04 06:00","2020","11","04","06:00","1.8","","1.3","","97","","","","9","","8","","24.1","","98.91","","","","","","NA"
"-84.51","46.49","SAULT STE MARIE A","6057591","2020-11-04 07:00","2020","11","04","07:00","2.4","","1.9","","96","","","","8","","12","","24.1","","98.95","","","","","","Mainly Clear"
"-84.51","46.49","SAULT STE MARIE A","6057591","2020-11-04 08:00","2020","11","04","08:00","3.3","","2.6","","95","","","","9","","11","","16.1","","98.97","","","","","","NA"
"-84.51","46.49","SAULT STE MARIE A","6057591","2020-11-04 09:00","2020","11","04","09:00","5.5","","4.0","","90","","","","7","","10","","16.1","","98.98","","","","","","NA"
"-84.51","46.49","SAULT STE MARIE A","6057591","2020-11-04 10:00","2020","11","04","10:00","7.9","","5.4","","84","","","","7","","11","","24.1","","98.97","","","","","","Clear"
"-84.51","46.49","SAULT STE MARIE A","6057591","2020-11-04 11:00","2020","11","04","11:00","10.8","","6.7","","76","","","","8","","12","","32.2","","98.94","","","","","","NA"
"-84.51","46.49","SAULT STE MARIE A","6057591","2020-11-04 12:00","2020","11","04","12:00","15.8","","7.8","","59","","","","20","","13","","32.2","","98.91","","","","","","NA"
"-84.51","46.49","SAULT STE MARIE A","6057591","2020-11-04 13:00","2020","11","04","13:00","16.4","","7.5","","55","","","","19","","15","","32.2","","98.86","","","","","","Clear"
"-84.51","46.49","SAULT STE MARIE A","6057591","2020-11-04 14:00","2020","11","04","14:00","16.5","","7.6","","55","","","","19","","14","","32.2","","98.84","","","","","","NA"
"-84.51","46.49","SAULT STE MARIE A","6057591","2020-11-04 15:00","2020","11","04","15:00","16.1","","7.4","","56","","","","20","","15","","32.2","","98.86","","","","","","NA"
"-84.51","46.49","SAULT STE MARIE A","6057591","2020-11-04 16:00","2020","11","04","16:00","15.2","","7.0","","58","","","","21","","12","","32.2","","98.89","","","","","","Clear"
"-84.51","46.49","SAULT STE MARIE A","6057591","2020-11-04 17:00","2020","11","04","17:00","13.3","","6.5","","63","","","","36","","10","","32.2","","98.93","","","","","","NA"
"-84.51","46.49","SAULT STE MARIE A","6057591","2020-11-04 18:00","2020","11","04","18:00","11.4","","6.4","","71","","","","23","","10","","32.2","","98.98","","","","","","NA"
"-84.51","46.49","SAULT STE MARIE A","6057591","2020-11-04 19:00","2020","11","04","19:00","10.8","","6.4","","74","","","","30","","4","","32.2","","99.03","","","","","","Clear"
"-84.51","46.49","SAULT STE MARIE A","6057591","2020-11-04 20:00","2020","11","04","20:00","10.2","","6.6","","79","","","","22","","7","","24.1","","99.04","","","","","","NA"
"-84.51","46.49","SAULT STE MARIE A","6057591","2020-11-04 21:00","2020","11","04","21:00","9.7","","6.6","","81","","","","36","","3","","24.1","","99.02","","","","","","NA"
"-84.51","46.49","SAULT STE MARIE A","6057591","2020-11-04 22:00","2020","11","04","22:00","8.2","","5.9","","85","","","","36","","2","","24.1","","99.03","","","","","","Clear"
"-84.51","46.49","SAULT STE MARIE A","6057591","2020-11-04 23:00","2020","11","04","23:00","4.8","","3.9","","94","","","","36","","3","","24.1","","99.03","","","","","","NA"
"-84.51","46.49","SAULT STE MARIE A","6057591","2020-11-05 00:00","2020","11","05","00:00","3.9","","3.6","","97","","","","10","","5","","24.1","","99.01","","","","","","NA"
"-84.51","46.49","SAULT STE MARIE A","6057591","2020-11-05 01:00","2020","11","05","01:00","4.4","","4.1","","98","","","","13","","5","","24.1","","98.98","","","","","","Clear"
"-84.51","46.49","SAULT STE MARIE A","6057591","2020-11-05 02:00","2020","11","05","02:00","3.2","","2.9","","97","","","","12","","9","","24.1","","98.97","","","","","","NA"
"-84.51","46.49","SAULT STE MARIE A","6057591","2020-11-05 03:00","2020","11","05","03:00","3.6","","3.4","","98","","","","10","","8","","24.1","","98.95","","","","","","NA"
"-84.51","46.49","SAULT STE MARIE A","6057591","2020-11-05 04:00","2020","11","05","04:00","1.8","","1.5","","98","","","","9","","5","","16.1","","98.95","","","","","","Mainly Clear"
"-84.51","46.49","SAULT STE MARIE A","6057591","2020-11-05 05:00","2020","11","05","05:00","2.1","","1.8","","98","","","","9","","7","","16.1","","98.96","","","","","","NA"
"-84.51","46.49","SAULT STE MARIE A","6057591","2020-11-05 06:00","2020","11","05","06:00","0.2","","-0.2","","98","","","","9","","4","","11.3","","98.98","","","","","","NA"
"-84.51","46.49","SAULT STE MARIE A","6057591","2020-11-05 07:00","2020","11","05","07:00","0.0","","-0.2","","98","","","","5","","4","","6.4","","99.01","","","","-1","","Fog"
"-84.51","46.49","SAULT STE MARIE A","6057591","2020-11-05 08:00","2020","11","05","08:00","0.4","","0.2","","98","","","","8","","3","","0.8","","99.10","","","","","","Fog"
"-84.51","46.49","SAULT STE MARIE A","6057591","2020-11-05 09:00","2020","11","05","09:00","2.9","","2.6","","98","","","","4","","4","","2.0","","99.17","","","","","","Fog"
"-84.51","46.49","SAULT STE MARIE A","6057591","2020-11-05 10:00","2020","11","05","10:00","4.9","","4.7","","99","","","","10","","5","","4.8","","99.24","","","","","","Fog"
"-84.51","46.49","SAULT STE MARIE A","6057591","2020-11-05 11:00","2020","11","05","11:00","9.1","","8.9","","99","","","","36","","2","","9.7","","99.28","","","","","","Fog"
"-84.51","46.49","SAULT STE MARIE A","6057591","2020-11-05 12:00","2020","11","05","12:00","11.5","","6.9","","73","","","","25","","10","","16.1","","99.29","","","","","","NA"
"-84.51","46.49","SAULT STE MARIE A","6057591","2020-11-05 13:00","2020","11","05","13:00","13.4","","4.7","","55","","","","27","","10","","32.2","","99.28","","","","","","Mainly Clear"
"-84.51","46.49","SAULT STE MARIE A","6057591","2020-11-05 14:00","2020","11","05","14:00","13.3","","4.9","","57","","","","28","","5","","32.2","","99.28","","","","","","NA"
"-84.51","46.49","SAULT STE MARIE A","6057591","2020-11-05 15:00","2020","11","05","15:00","14.3","","3.1","","47","","","","30","","13","","32.2","","99.33","","","","","","NA"
"-84.51","46.49","SAULT STE MARIE A","6057591","2020-11-05 16:00","2020","11","05","16:00","13.8","","4.9","","55","","","","35","","7","","32.2","","99.32","","","","","","Clear"
"-84.51","46.49","SAULT STE MARIE A","6057591","2020-11-05 17:00","2020","11","05","17:00","10.1","","4.7","","69","","","","32","","8","","32.2","","99.44","","","","","","NA"
"-84.51","46.49","SAULT STE MARIE A","6057591","2020-11-05 18:00","2020","11","05","18:00","6.4","","3.6","","82","","","","36","","1","","32.2","","99.44","","","","","","NA"
"-84.51","46.49","SAULT STE MARIE A","6057591","2020-11-05 19:00","2020","11","05","19:00","4.7","","2.5","","85","","","","36","","3","","32.2","","99.50","","","","","","Clear"
"-84.51","46.49","SAULT STE MARIE A","6057591","2020-11-05 20:00","2020","11","05","20:00","3.2","","1.8","","91","","","","11","","4","","24.1","","99.53","","","","","","NA"
"-84.51","46.49","SAULT STE MARIE A","6057591","2020-11-05 21:00","2020","11","05","21:00","2.4","","1.8","","96","","","","36","","1","","24.1","","99.49","","","","","","NA"
"-84.51","46.49","SAULT STE MARIE A","6057591","2020-11-05 22:00","2020","11","05","22:00","0.8","","0.3","","97","","","","7","","5","","24.1","","99.48","","","","","","Clear"
"-84.51","46.49","SAULT STE MARIE A","6057591","2020-11-05 23:00","2020","11","05","23:00","0.0","","-0.4","","97","","","","4","","4","","16.1","","99.42","","","","-1","","NA"
"-84.51","46.49","SAULT STE MARIE A","6057591","2020-11-06 00:00","2020","11","06","00:00","0.5","","0.1","","98","","","","36","","1","","11.3","","99.40","","","","","","NA"
"-84.51","46.49","SAULT STE MARIE A","6057591","2020-11-06 01:00","2020","11","06","01:00","-1.2","","-1.6","","97","","","","10","","4","","19.3","","99.35","","","","-3","","Mainly Clear"
"-84.51","46.49","SAULT STE MARIE A","6057591","2020-11-06 02:00","2020","11","06","02:00","0.8","","0.5","","98","","","","8","","7","","16.1","","99.37","","","","","","NA"
"-84.51","46.49","SAULT STE MARIE A","6057591","2020-11-06 03:00","2020","11","06","03:00","2.9","","2.6","","98","","","","7","","7","","16.1","","99.35","","","","","","NA"
"-84.51","46.49","SAULT STE MARIE A","6057591","2020-11-06 04:00","2020","11","06","04:00","3.3","","3.0","","98","","","","8","","13","","12.9","","99.25","","","","","","Cloudy"
"-84.51","46.49","SAULT STE MARIE A","6057591","2020-11-06 05:00","2020","11","06","05:00","4.1","","3.8","","98","","","","9","","7","","0.6","","99.24","","","","","","Fog"
"-84.51","46.49","SAULT STE MARIE A","6057591","2020-11-06 06:00","2020","11","06","06:00","3.5","","3.2","","98","","","","8","","10","","16.1","","99.24","","","","","","NA"
"-84.51","46.49","SAULT STE MARIE A","6057591","2020-11-06 07:00","2020","11","06","07:00","3.3","","3.0","","98","","","","7","","9","","12.9","","99.22","","","","","","Mostly Cloudy"
"-84.51","46.49","SAULT STE MARIE A","6057591","2020-11-06 08:00","2020","11","06","08:00","4.3","","4.0","","98","","","","8","","11","","4.8","","99.23","","","","","","Fog"
"-84.51","46.49","SAULT STE MARIE A","6057591","2020-11-06 09:00","2020","11","06","09:00","5.3","","5.0","","98","","","","8","","13","","6.4","","99.22","","","","","","Fog"
"-84.51","46.49","SAULT STE MARIE A","6057591","2020-11-06 10:00","2020","11","06","10:00","8.5","","7.4","","93","","","","9","","9","","12.9","","99.19","","","","","","Mostly Cloudy"
"-84.51","46.49","SAULT STE MARIE A","6057591","2020-11-06 11:00","2020","11","06","11:00","12.8","","8.0","","72","","","","13","","8","","24.1","","99.19","","","","","","NA"
"-84.51","46.49","SAULT STE MARIE A","6057591","2020-11-06 12:00","2020","11","06","12:00","16.8","","7.1","","52","","","","20","","12","","24.1","","99.19","","","","","","NA"
"-84.51","46.49","SAULT STE MARIE A","6057591","2020-11-06 13:00","2020","11","06","13:00","17.9","","7.1","","49","","","","20","","13","","32.2","","99.16","","","","","","Mostly Cloudy"
"-84.51","46.49","SAULT STE MARIE A","6057591","2020-11-06 14:00","2020","11","06","14:00","18.5","","7.1","","47","","","","21","","15","","32.2","","99.16","","","","","","NA"
"-84.51","46.49","SAULT STE MARIE A","6057591","2020-11-06 15:00","2020","11","06","15:00","17.9","","6.9","","48","","","","21","","12","","32.2","","99.17","","","","","","NA"
"-84.51","46.49","SAULT STE MARIE A","6057591","2020-11-06 16:00","2020","11","06","16:00","16.8","","6.3","","50","","","","21","","11","","32.2","","99.17","","","","","","Mainly Clear"
"-84.51","46.49","SAULT STE MARIE A","6057591","2020-11-06 17:00","2020","11","06","17:00","15.3","","6.3","","55","","","","20","","14","","32.2","","99.19","","","","","","NA"
"-84.51","46.49","SAULT STE MARIE A","6057591","2020-11-06 18:00","2020","11","06","18:00","14.4","","6.4","","58","","","","22","","6","","32.2","","99.21","","","","","","NA"
"-84.51","46.49","SAULT STE MARIE A","6057591","2020-11-06 19:00","2020","11","06","19:00","12.0","","6.3","","68","","","","16","","7","","32.2","","99.23","","","","","","Mainly Clear"
"-84.51","46.49","SAULT STE MARIE A","6057591","2020-11-06 20:00","2020","11","06","20:00","9.3","","7.0","","85","","","","23","","7","","24.1","","99.22","","","","","","NA"
"-84.51","46.49","SAULT STE MARIE A","6057591","2020-11-06 21:00","2020","11","06","21:00","7.6","","5.4","","86","","","","7","","5","","24.1","","99.21","","","","","","NA"
"-84.51","46.49","SAULT STE MARIE A","6057591","2020-11-06 22:00","2020","11","06","22:00","9.0","","7.2","","88","","","","8","","11","","24.1","","99.23","","","","","","Clear"
"-84.51","46.49","SAULT STE MARIE A","6057591","2020-11-06 23:00","2020","11","06","23:00","8.5","","6.5","","87","","","","6","","9","","24.1","","99.22","","","","","","NA"
"-84.51","46.49","SAULT STE MARIE A","6057591","2020-11-07 00:00","2020","11","07","00:00","6.1","","4.1","","87","","","","8","","5","","24.1","","99.21","","","","","","NA"
"-84.51","46.49","SAULT STE MARIE A","6057591","2020-11-07 01:00","2020","11","07","01:00","12.5","","9.0","","80","","","","20","","9","","24.1","","99.22","","","","","","Mostly Cloudy"
"-84.51","46.49","SAULT STE MARIE A","6057591","2020-11-07 02:00","2020","11","07","02:00","13.0","","9.5","","79","","","","19","","12","","24.1","","99.22","","","","","","NA"
"-84.51","46.49","SAULT STE MARIE A","6057591","2020-11-07 03:00","2020","11","07","03:00","12.6","","9.4","","81","","","","17","","4","","24.1","","99.24","","","","","","NA"
"-84.51","46.49","SAULT STE MARIE A","6057591","2020-11-07 04:00","2020","11","07","04:00","12.1","","9.6","","84","","","","18","","8","","24.1","","99.21","","","","","","Mainly Clear"
"-84.51","46.49","SAULT STE MARIE A","6057591","2020-11-07 05:00","2020","11","07","05:00","9.6","","8.4","","93","","","","12","","7","","24.1","","99.23","","","","","","NA"
"-84.51","46.49","SAULT STE MARIE A","6057591","2020-11-07 06:00","2020","11","07","06:00","10.5","","8.8","","89","","","","14","","7","","24.1","","99.21","","","","","","NA"
"-84.51","46.49","SAULT STE MARIE A","6057591","2020-11-07 07:00","2020","11","07","07:00","11.3","","9.5","","89","","","","19","","14","","19.3","","99.20","","","","","","Mostly Cloudy"
"-84.51","46.49","SAULT STE MARIE A","6057591","2020-11-07 08:00","2020","11","07","08:00","11.5","","9.6","","88","","","","20","","9","","24.1","","99.23","","","","","","NA"
"-84.51","46.49","SAULT STE MARIE A","6057591","2020-11-07 09:00","2020","11","07","09:00","11.3","","9.6","","89","","","","7","","5","","24.1","","99.28","","","","","","NA"
"-84.51","46.49","SAULT STE MARIE A","6057591","2020-11-07 10:00","2020","11","07","10:00","14.5","","10.7","","78","","","","22","","23","","24.1","","99.27","","","","","","Mostly Cloudy"
"-84.51","46.49","SAULT STE MARIE A","6057591","2020-11-07 11:00","2020","11","07","11:00","16.2","","11.4","","73","","","","21","","22","","24.1","","99.27","","","","","","NA"
"-84.51","46.49","SAULT STE MARIE A","6057591","2020-11-07 12:00","2020","11","07","12:00","17.1","","11.6","","70","","","","23","","23","","32.2","","99.24","","","","","","NA"
"-84.51","46.49","SAULT STE MARIE A","6057591","2020-11-07 13:00","2020","11","07","13:00","17.0","","11.4","","69","","","","22","","25","","32.2","","99.17","","","","","","Mostly Cloudy"
"-84.51","46.49","SAULT STE MARIE A","6057591","2020-11-07 14:00","2020","11","07","14:00","17.7","","11.4","","66","","","","21","","18","","32.2","","99.17","","","","","","NA"
"-84.51","46.49","SAULT STE MARIE A","6057591","2020-11-07 15:00","2020","11","07","15:00","18.3","","11.7","","65","","","","22","","16","","32.2","","99.17","","","","","","NA"
"-84.51","46.49","SAULT STE MARIE A","6057591","2020-11-07 16:00","2020","11","07","16:00","17.1","","11.3","","68","","","","22","","16","","32.2","","99.26","","","","","","Mostly Cloudy"
"-84.51","46.49","SAULT STE MARIE A","6057591","2020-11-07 17:00","2020","11","07","17:00","15.3","","10.7","","74","","","","22","","4","","32.2","","99.35","","","","","","NA"
"-84.51","46.49","SAULT STE MARIE A","6057591","2020-11-07 18:00","2020","11","07","18:00","12.6","","10.0","","84","","","","36","","2","","40.2","","99.37","","","","","","NA"
"-84.51","46.49","SAULT STE MARIE A","6057591","2020-11-07 19:00","2020","11","07","19:00","13.8","","9.3","","74","","","","24","","8","","40.2","","99.41","","","","","","Mainly Clear"
"-84.51","46.49","SAULT STE MARIE A","6057591","2020-11-07 20:00","2020","11","07","20:00","12.4","","8.3","","76","","","","15","","4","","40.2","","99.40","","","","","","NA"
"-84.51","46.49","SAULT STE MARIE A","6057591","2020-11-07 21:00","2020","11","07","21:00","11.7","","8.1","","78","","","","18","","5","","40.2","","99.43","","","","","","NA"
"-84.51","46.49","SAULT STE MARIE A","6057591","2020-11-07 22:00","2020","11","07","22:00","10.4","","8.3","","87","","","","10","","4","","40.2","","99.48","","","","","","Mostly Cloudy"
"-84.51","46.49","SAULT STE MARIE A","6057591","2020-11-07 23:00","2020","11","07","23:00","8.3","","6.5","","88","","","","11","","5","","40.2","","99.49","","","","","","NA"
"-84.51","46.49","SAULT STE MARIE A","6057591","2020-11-08 00:00","2020","11","08","00:00","9.2","","7.2","","87","","","","14","","7","","32.2","","99.53","","","","","","NA"
"-84.51","46.49","SAULT STE MARIE A","6057591","2020-11-08 01:00","2020","11","08","01:00","8.2","","6.8","","91","","","","36","","2","","32.2","","99.55","","","","","","Mainly Clear"
"-84.51","46.49","SAULT STE MARIE A","6057591","2020-11-08 02:00","2020","11","08","02:00","13.3","","7.5","","68","","","","22","","7","","40.2","","99.61","","","","","","NA"
"-84.51","46.49","SAULT STE MARIE A","6057591","2020-11-08 03:00","2020","11","08","03:00","13.1","","7.4","","68","","","","21","","14","","40.2","","99.69","","","","","","NA"
"-84.51","46.49","SAULT STE MARIE A","6057591","2020-11-08 04:00","2020","11","08","04:00","11.5","","7.2","","75","","","","21","","7","","40.2","","99.75","","","","","","Clear"
"-84.51","46.49","SAULT STE MARIE A","6057591","2020-11-08 05:00","2020","11","08","05:00","9.8","","6.9","","82","","","","20","","8","","40.2","","99.80","","","","","","NA"
"-84.51","46.49","SAULT STE MARIE A","6057591","2020-11-08 06:00","2020","11","08","06:00","11.9","","7.9","","77","","","","15","","11","","40.2","","99.83","","","","","","NA"
"-84.51","46.49","SAULT STE MARIE A","6057591","2020-11-08 07:00","2020","11","08","07:00","6.9","","5.7","","92","","","","10","","5","","40.2","","99.85","","","","","","Clear"
"-84.51","46.49","SAULT STE MARIE A","6057591","2020-11-08 08:00","2020","11","08","08:00","10.5","","8.1","","85","","","","11","","5","","32.2","","99.90","","","","","","NA"
"-84.51","46.49","SAULT STE MARIE A","6057591","2020-11-08 09:00","2020","11","08","09:00","12.3","","8.8","","79","","","","12","","5","","32.2","","99.93","","","","","","NA"
"-84.51","46.49","SAULT STE MARIE A","6057591","2020-11-08 10:00","2020","11","08","10:00","14.4","","9.5","","72","","","","22","","12","","32.2","","99.93","","","","","","Clear"
"-84.51","46.49","SAULT STE MARIE A","6057591","2020-11-08 11:00","2020","11","08","11:00","16.7","","10.2","","65","","","","21","","13","","32.2","","99.91","","","","","","NA"
"-84.51","46.49","SAULT STE MARIE A","6057591","2020-11-08 12:00","2020","11","08","12:00","18.6","","10.6","","59","","","","22","","14","","32.2","","99.90","","","","","","NA"
"-84.51","46.49","SAULT STE MARIE A","6057591","2020-11-08 13:00","2020","11","08","13:00","19.4","","10.8","","57","","","","19","","12","","32.2","","99.86","","","","","","Clear"
"-84.51","46.49","SAULT STE MARIE A","6057591","2020-11-08 14:00","2020","11","08","14:00","19.4","","10.8","","57","","","","21","","12","","40.2","","99.86","","","","","","NA"
"-84.51","46.49","SAULT STE MARIE A","6057591","2020-11-08 15:00","2020","11","08","15:00","19.4","","11.3","","59","","","","21","","12","","40.2","","99.86","","","","","","NA"
"-84.51","46.49","SAULT STE MARIE A","6057591","2020-11-08 16:00","2020","11","08","16:00","18.8","","11.0","","60","","","","20","","8","","32.2","","99.86","","","","","","Clear"
"-84.51","46.49","SAULT STE MARIE A","6057591","2020-11-08 17:00","2020","11","08","17:00","17.7","","11.0","","64","","","","17","","6","","40.2","","99.82","","","","","","NA"
"-84.51","46.49","SAULT STE MARIE A","6057591","2020-11-08 18:00","2020","11","08","18:00","16.7","","11.0","","69","","","","14","","5","","40.2","","99.78","","","","","","NA"
"-84.51","46.49","SAULT STE MARIE A","6057591","2020-11-08 19:00","2020","11","08","19:00","16.8","","11.2","","69","","","","13","","7","","32.2","","99.76","","","","","","Mostly Cloudy"
"-84.51","46.49","SAULT STE MARIE A","6057591","2020-11-08 20:00","2020","11","08","20:00","16.5","","11.1","","70","","","","15","","4","","32.2","","99.75","","","","","","NA"
"-84.51","46.49","SAULT STE MARIE A","6057591","2020-11-08 21:00","2020","11","08","21:00","13.4","","10.3","","81","","","","8","","10","","32.2","","99.74","","","","","","NA"
"-84.51","46.49","SAULT STE MARIE A","6057591","2020-11-08 22:00","2020","11","08","22:00","12.5","","9.8","","83","","","","8","","7","","32.2","","99.74","","","","","","Mainly Clear"
"-84.51","46.49","SAULT STE MARIE A","6057591","2020-11-08 23:00","2020","11","08","23:00","12.4","","9.4","","82","","","","13","","7","","32.2","","99.72","","","","","","NA"
"-84.51","46.49","SAULT STE MARIE A","6057591","2020-11-09 00:00","2020","11","09","00:00","12.1","","9.9","","87","","","","8","","8","","32.2","","99.68","","","","","","NA"
"-84.51","46.49","SAULT STE MARIE A","6057591","2020-11-09 01:00","2020","11","09","01:00","13.2","","10.4","","83","","","","8","","11","","32.2","","99.66","","","","","","Mostly Cloudy"
"-84.51","46.49","SAULT STE MARIE A","6057591","2020-11-09 02:00","2020","11","09","02:00","12.5","","10.2","","86","","","","7","","10","","32.2","","99.66","","","","","","NA"
"-84.51","46.49","SAULT STE MARIE A","6057591","2020-11-09 03:00","2020","11","09","03:00","13.2","","10.6","","84","","","","8","","14","","32.2","","99.64","","","","","","NA"
"-84.51","46.49","SAULT STE MARIE A","6057591","2020-11-09 04:00","2020","11","09","04:00","13.9","","10.7","","80","","","","8","","9","","32.2","","99.61","","","","","","Cloudy"
"-84.51","46.49","SAULT STE MARIE A","6057591","2020-11-09 05:00","2020","11","09","05:00","13.9","","10.9","","82","","","","9","","8","","32.2","","99.58","","","","","","NA"
"-84.51","46.49","SAULT STE MARIE A","6057591","2020-11-09 06:00","2020","11","09","06:00","13.5","","10.9","","84","","","","8","","7","","19.3","","99.57","","","","","","Rain"
"-84.51","46.49","SAULT STE MARIE A","6057591","2020-11-09 07:00","2020","11","09","07:00","13.8","","10.8","","82","","","","11","","7","","24.1","","99.56","","","","","","Cloudy"
"-84.51","46.49","SAULT STE MARIE A","6057591","2020-11-09 08:00","2020","11","09","08:00","13.8","","10.8","","82","","","","10","","5","","32.2","","99.55","","","","","","NA"
"-84.51","46.49","SAULT STE MARIE A","6057591","2020-11-09 09:00","2020","11","09","09:00","14.2","","10.9","","80","","","","9","","8","","40.2","","99.51","","","","","","NA"
"-84.51","46.49","SAULT STE MARIE A","6057591","2020-11-09 10:00","2020","11","09","10:00","15.6","","11.6","","77","","","","8","","9","","40.2","","99.41","","","","","","Mostly Cloudy"
"-84.51","46.49","SAULT STE MARIE A","6057591","2020-11-09 11:00","2020","11","09","11:00","16.0","","11.6","","75","","","","6","","12","","40.2","","99.39","","","","","","NA"
"-84.51","46.49","SAULT STE MARIE A","6057591","2020-11-09 12:00","2020","11","09","12:00","17.4","","11.7","","69","","","","8","","14","","40.2","","99.33","","","","","","NA"
"-84.51","46.49","SAULT STE MARIE A","6057591","2020-11-09 13:00","2020","11","09","13:00","19.4","","13.0","","66","","","","14","","5","","40.2","","99.22","","","","","","Mostly Cloudy"
"-84.51","46.49","SAULT STE MARIE A","6057591","2020-11-09 14:00","2020","11","09","14:00","21.7","","13.5","","59","","","","19","","13","","40.2","","99.10","","25","","","","NA"
"-84.51","46.49","SAULT STE MARIE A","6057591","2020-11-09 15:00","2020","11","09","15:00","22.8","","13.8","","56","","","","21","","19","","40.2","","99.01","","26","","","","NA"
"-84.51","46.49","SAULT STE MARIE A","6057591","2020-11-09 16:00","2020","11","09","16:00","22.7","","13.3","","55","","","","20","","19","","40.2","","98.97","","26","","","","Mainly Clear"
"-84.51","46.49","SAULT STE MARIE A","6057591","2020-11-09 17:00","2020","11","09","17:00","21.5","","13.1","","58","","","","19","","17","","40.2","","98.94","","","","","","NA"
"-84.51","46.49","SAULT STE MARIE A","6057591","2020-11-09 18:00","2020","11","09","18:00","20.9","","12.7","","59","","","","19","","23","","40.2","","98.89","","","","","","NA"
"-84.51","46.49","SAULT STE MARIE A","6057591","2020-11-09 19:00","2020","11","09","19:00","20.4","","12.8","","61","","","","18","","13","","40.2","","98.84","","","","","","Mainly Clear"
"-84.51","46.49","SAULT STE MARIE A","6057591","2020-11-09 20:00","2020","11","09","20:00","20.1","","12.8","","62","","","","19","","21","","40.2","","98.77","","","","","","NA"
"-84.51","46.49","SAULT STE MARIE A","6057591","2020-11-09 21:00","2020","11","09","21:00","19.9","","13.1","","64","","","","20","","19","","40.2","","98.77","","","","","","NA"
"-84.51","46.49","SAULT STE MARIE A","6057591","2020-11-09 22:00","2020","11","09","22:00","19.4","","13.4","","68","","","","19","","22","","40.2","","98.73","","","","","","Mostly Cloudy"
"-84.51","46.49","SAULT STE MARIE A","6057591","2020-11-09 23:00","2020","11","09","23:00","19.2","","13.6","","70","","","","19","","19","","40.2","","98.66","","","","","","NA"
"-84.51","46.49","SAULT STE MARIE A","6057591","2020-11-10 00:00","2020","11","10","00:00","18.6","","13.7","","73","","","","20","","16","","40.2","","98.62","","","","","","NA"
"-84.51","46.49","SAULT STE MARIE A","6057591","2020-11-10 01:00","2020","11","10","01:00","18.8","","13.8","","72","","","","20","","17","","40.2","","98.57","","","","","","Mostly Cloudy"
"-84.51","46.49","SAULT STE MARIE A","6057591","2020-11-10 02:00","2020","11","10","02:00","18.9","","13.8","","72","","","","20","","23","","40.2","","98.52","","","","","","NA"
"-84.51","46.49","SAULT STE MARIE A","6057591","2020-11-10 03:00","2020","11","10","03:00","18.0","","13.3","","74","","","","22","","20","","40.2","","98.50","","","","","","NA"
"-84.51","46.49","SAULT STE MARIE A","6057591","2020-11-10 04:00","2020","11","10","04:00","10.4","","8.4","","87","","","","29","","19","","40.2","","98.57","","","","","","Clear"
"-84.51","46.49","SAULT STE MARIE A","6057591","2020-11-10 05:00","2020","11","10","05:00","8.8","","7.9","","94","","","","31","","13","","11.3","","98.60","","","","","","Rain"
"-84.51","46.49","SAULT STE MARIE A","6057591","2020-11-10 06:00","2020","11","10","06:00","7.9","","7.0","","94","","","","33","","15","","9.7","","98.62","","","","","","Rain,Fog"
"-84.51","46.49","SAULT STE MARIE A","6057591","2020-11-10 07:00","2020","11","10","07:00","7.0","","6.0","","93","","","","31","","23","","8.1","","98.67","","","","","","Rain,Fog"
"-84.51","46.49","SAULT STE MARIE A","6057591","2020-11-10 08:00","2020","11","10","08:00","6.7","","5.9","","95","","","","32","","9","","8.1","","98.67","","","","","","Rain,Fog"
"-84.51","46.49","SAULT STE MARIE A","6057591","2020-11-10 09:00","2020","11","10","09:00","6.2","","5.3","","94","","","","33","","19","","12.9","","98.69","","","","","","Rain"
"-84.51","46.49","SAULT STE MARIE A","6057591","2020-11-10 10:00","2020","11","10","10:00","6.3","","5.0","","92","","","","1","","4","","24.1","","98.58","","","","","","Cloudy"
"-84.51","46.49","SAULT STE MARIE A","6057591","2020-11-10 11:00","2020","11","10","11:00","6.3","","5.1","","92","","","","30","","24","","24.1","","98.73","","","","","","Rain"
"-84.51","46.49","SAULT STE MARIE A","6057591","2020-11-10 12:00","2020","11","10","12:00","5.5","","3.5","","87","","","","32","","25","","16.1","","98.65","","","","","","NA"
"-84.51","46.49","SAULT STE MARIE A","6057591","2020-11-10 13:00","2020","11","10","13:00","5.0","","3.4","","89","","","","32","","13","","24.1","","98.52","","","","","","Cloudy"
"-84.51","46.49","SAULT STE MARIE A","6057591","2020-11-10 14:00","2020","11","10","14:00","4.8","","3.6","","92","","","","34","","10","","9.7","","98.47","","","","","","Moderate Rain,Fog"
"-84.51","46.49","SAULT STE MARIE A","6057591","2020-11-10 15:00","2020","11","10","15:00","5.2","","4.3","","94","","","","33","","9","","8.1","","98.32","","","","","","Rain,Fog"
"-84.51","46.49","SAULT STE MARIE A","6057591","2020-11-10 16:00","2020","11","10","16:00","5.4","","4.5","","94","","","","32","","4","","12.9","","98.27","","","","","","Rain"
"-84.51","46.49","SAULT STE MARIE A","6057591","2020-11-10 17:00","2020","11","10","17:00","5.5","","4.8","","95","","","","35","","10","","3.6","","98.19","","","","","","Rain,Fog"
"-84.51","46.49","SAULT STE MARIE A","6057591","2020-11-10 18:00","2020","11","10","18:00","4.8","","3.8","","93","","","","3","","14","","4.0","","98.17","","","","","","Rain,Fog"
"-84.51","46.49","SAULT STE MARIE A","6057591","2020-11-10 19:00","2020","11","10","19:00","4.8","","4.2","","96","","","","33","","6","","4.0","","98.15","","","","","","Moderate Rain,Fog"
"-84.51","46.49","SAULT STE MARIE A","6057591","2020-11-10 20:00","2020","11","10","20:00","5.0","","4.5","","96","","","","32","","8","","8.1","","97.99","","","","","","Rain,Fog"
"-84.51","46.49","SAULT STE MARIE A","6057591","2020-11-10 21:00","2020","11","10","21:00","5.4","","4.8","","96","","","","36","","7","","6.4","","97.88","","","","","","Moderate Rain,Fog"
"-84.51","46.49","SAULT STE MARIE A","6057591","2020-11-10 22:00","2020","11","10","22:00","5.4","","5.0","","97","","","","16","","4","","12.9","","97.89","","","","","","Rain"
"-84.51","46.49","SAULT STE MARIE A","6057591","2020-11-10 23:00","2020","11","10","23:00","5.8","","5.4","","97","","","","8","","13","","11.3","","97.58","","","","","","Rain"
"-84.51","46.49","SAULT STE MARIE A","6057591","2020-11-11 00:00","2020","11","11","00:00","6.9","","6.6","","98","","","","10","","9","","3.2","","97.29","","","","","","Drizzle,Fog"
"-84.51","46.49","SAULT STE MARIE A","6057591","2020-11-11 01:00","2020","11","11","01:00","7.5","","7.1","","98","","","","13","","8","","3.2","","97.45","","","","","","Drizzle,Fog"
"-84.51","46.49","SAULT STE MARIE A","6057591","2020-11-11 02:00","2020","11","11","02:00","9.7","","9.4","","98","","","","16","","8","","4.0","","97.40","","","","","","Drizzle,Fog"
"-84.51","46.49","SAULT STE MARIE A","6057591","2020-11-11 03:00","2020","11","11","03:00","10.8","","7.9","","82","","","","22","","33","","19.3","","97.42","","","","","","NA"
"-84.51","46.49","SAULT STE MARIE A","6057591","2020-11-11 04:00","2020","11","11","04:00","8.3","","5.5","","83","","","","21","","31","","16.1","","97.52","","","","","","Cloudy"
"-84.51","46.49","SAULT STE MARIE A","6057591","2020-11-11 05:00","2020","11","11","05:00","5.7","","3.1","","84","","","","23","","27","","16.1","","97.71","","","","","","Rain Showers"
"-84.51","46.49","SAULT STE MARIE A","6057591","2020-11-11 06:00","2020","11","11","06:00","4.3","","1.1","","80","","","","25","","30","","24.1","","97.87","","","","","","NA"
"-84.51","46.49","SAULT STE MARIE A","6057591","2020-11-11 07:00","2020","11","11","07:00","3.8","","-0.8","","72","","","","24","","30","","24.1","","98.00","","","","","","Mostly Cloudy"
"-84.51","46.49","SAULT STE MARIE A","6057591","2020-11-11 08:00","2020","11","11","08:00","3.3","","-0.9","","74","","","","24","","24","","19.3","","98.16","","","","","","NA"
"-84.51","46.49","SAULT STE MARIE A","6057591","2020-11-11 09:00","2020","11","11","09:00","3.0","","0.4","","83","","","","28","","35","","19.3","","98.36","","","","","","Rain Showers"
"-84.51","46.49","SAULT STE MARIE A","6057591","2020-11-11 10:00","2020","11","11","10:00","2.9","","-1.1","","75","","","","28","","37","","16.1","","98.52","","","","","","Rain Showers"
"-84.51","46.49","SAULT STE MARIE A","6057591","2020-11-11 11:00","2020","11","11","11:00","3.5","","-1.6","","70","","","","25","","39","","19.3","","98.68","","","","","","NA"
"-84.51","46.49","SAULT STE MARIE A","6057591","2020-11-11 12:00","2020","11","11","12:00","3.4","","-2.9","","63","","","","27","","33","","19.3","","98.74","","","","","","NA"
"-84.51","46.49","SAULT STE MARIE A","6057591","2020-11-11 13:00","2020","11","11","13:00","2.7","","-2.8","","67","","","","26","","35","","19.3","","98.81","","","","","","Mostly Cloudy"
"-84.51","46.49","SAULT STE MARIE A","6057591","2020-11-11 14:00","2020","11","11","14:00","2.4","","-2.6","","69","","","","27","","32","","32.2","","98.90","","","","","","NA"
"-84.51","46.49","SAULT STE MARIE A","6057591","2020-11-11 15:00","2020","11","11","15:00","2.1","","-3.2","","68","","","","28","","26","","24.1","","98.98","","","","","","Snow Showers"
"-84.51","46.49","SAULT STE MARIE A","6057591","2020-11-11 16:00","2020","11","11","16:00","2.1","","-3.4","","67","","","","26","","25","","32.2","","99.07","","","","","","Snow Showers"
"-84.51","46.49","SAULT STE MARIE A","6057591","2020-11-11 17:00","2020","11","11","17:00","2.2","","-3.7","","65","","","","26","","23","","32.2","","99.15","","","","","","NA"
"-84.51","46.49","SAULT STE MARIE A","6057591","2020-11-11 18:00","2020","11","11","18:00","2.6","","-3.2","","66","","","","28","","21","","24.1","","99.20","","","","","","NA"
"-84.51","46.49","SAULT STE MARIE A","6057591","2020-11-11 19:00","2020","11","11","19:00","2.4","","-3.7","","64","","","","26","","19","","24.1","","99.27","","","","","","Cloudy"
"-84.51","46.49","SAULT STE MARIE A","6057591","2020-11-11 20:00","2020","11","11","20:00","2.2","","-3.2","","68","","","","25","","17","","32.2","","99.32","","","","","","NA"
"-84.51","46.49","SAULT STE MARIE A","6057591","2020-11-11 21:00","2020","11","11","21:00","1.2","","-4.2","","67","","","","28","","9","","32.2","","99.31","","","","","","NA"
"-84.51","46.49","SAULT STE MARIE A","6057591","2020-11-11 22:00","2020","11","11","22:00","0.3","","-3.2","","77","","","","19","","10","","32.2","","99.35","","","","","","Mainly Clear"
"-84.51","46.49","SAULT STE MARIE A","6057591","2020-11-11 23:00","2020","11","11","23:00","-0.8","","-3.6","","82","","","","18","","5","","32.2","","99.38","","","","-2","","NA"
"-84.51","46.49","SAULT STE MARIE A","6057591","2020-11-12 00:00","2020","11","12","00:00","-1.0","","-3.4","","84","","","","14","","7","","32.2","","99.38","","","","-4","","NA"
"-84.51","46.49","SAULT STE MARIE A","6057591","2020-11-12 01:00","2020","11","12","01:00","-2.5","","-4.2","","89","","","","7","","5","","32.2","","99.39","","","","-4","","Mostly Cloudy"
"-84.51","46.49","SAULT STE MARIE A","6057591","2020-11-12 02:00","2020","11","12","02:00","-3.2","","-4.5","","90","","","","8","","7","","32.2","","99.40","","","","-6","","NA"
"-84.51","46.49","SAULT STE MARIE A","6057591","2020-11-12 03:00","2020","11","12","03:00","-3.4","","-4.6","","91","","","","2","","6","","32.2","","99.41","","","","-6","","NA"
"-84.51","46.49","SAULT STE MARIE A","6057591","2020-11-12 04:00","2020","11","12","04:00","-3.6","","-4.5","","94","","","","6","","6","","32.2","","99.38","","","","-6","","Mainly Clear"
"-84.51","46.49","SAULT STE MARIE A","6057591","2020-11-12 05:00","2020","11","12","05:00","-3.3","","-4.2","","94","","","","36","","3","","32.2","","99.38","","","","-5","","NA"
"-84.51","46.49","SAULT STE MARIE A","6057591","2020-11-12 06:00","2020","11","12","06:00","1.3","","0.4","","94","","","","17","","8","","32.2","","99.37","","","","","","NA"
"-84.51","46.49","SAULT STE MARIE A","6057591","2020-11-12 07:00","2020","11","12","07:00","-1.6","","-2.5","","93","","","","5","","4","","32.2","","99.36","","","","-3","","Clear"
"-84.51","46.49","SAULT STE MARIE A","6057591","2020-11-12 08:00","2020","11","12","08:00","0.1","","-0.3","","97","","","","11","","5","","24.1","","99.40","","","","","","NA"
"-84.51","46.49","SAULT STE MARIE A","6057591","2020-11-12 09:00","2020","11","12","09:00","4.9","","2.7","","86","","","","20","","13","","32.2","","99.44","","","","","","NA"
"-84.51","46.49","SAULT STE MARIE A","6057591","2020-11-12 10:00","2020","11","12","10:00","6.8","","3.2","","78","","","","21","","17","","24.1","","99.46","","","","","","Mainly Clear"
"-84.51","46.49","SAULT STE MARIE A","6057591","2020-11-12 11:00","2020","11","12","11:00","8.3","","3.2","","70","","","","21","","15","","32.2","","99.47","","","","","","NA"
"-84.51","46.49","SAULT STE MARIE A","6057591","2020-11-12 12:00","2020","11","12","12:00","9.6","","2.2","","60","","","","21","","14","","32.2","","99.43","","","","","","NA"
"-84.51","46.49","SAULT STE MARIE A","6057591","2020-11-12 13:00","2020","11","12","13:00","10.6","","0.9","","51","","","","23","","17","","40.2","","99.36","","","","","","Mainly Clear"
"-84.51","46.49","SAULT STE MARIE A","6057591","2020-11-12 14:00","2020","11","12","14:00","10.7","","-0.5","","46","","","","21","","18","","32.2","","99.33","","","","","","NA"
"-84.51","46.49","SAULT STE MARIE A","6057591","2020-11-12 15:00","2020","11","12","15:00","10.3","","-0.8","","46","","","","21","","20","","32.2","","99.27","","","","","","NA"
"-84.51","46.49","SAULT STE MARIE A","6057591","2020-11-12 16:00","2020","11","12","16:00","8.7","","2.2","","63","","","","20","","13","","32.2","","99.29","","","","","","Mostly Cloudy"
"-84.51","46.49","SAULT STE MARIE A","6057591","2020-11-12 17:00","2020","11","12","17:00","7.9","","2.3","","67","","","","20","","11","","32.2","","99.27","","","","","","NA"
"-84.51","46.49","SAULT STE MARIE A","6057591","2020-11-12 18:00","2020","11","12","18:00","7.3","","2.7","","73","","","","19","","9","","24.1","","99.25","","","","","","NA"
"-84.51","46.49","SAULT STE MARIE A","6057591","2020-11-12 19:00","2020","11","12","19:00","7.4","","3.2","","75","","","","19","","11","","24.1","","99.22","","","","","","Mostly Cloudy"
"-84.51","46.49","SAULT STE MARIE A","6057591","2020-11-12 20:00","2020","11","12","20:00","6.2","","2.8","","79","","","","13","","7","","24.1","","99.21","","","","","","NA"
"-84.51","46.49","SAULT STE MARIE A","6057591","2020-11-12 21:00","2020","11","12","21:00","6.0","","2.6","","79","","","","13","","9","","24.1","","99.20","","","","","","NA"
"-84.51","46.49","SAULT STE MARIE A","6057591","2020-11-12 22:00","2020","11","12","22:00","5.4","","2.8","","83","","","","13","","4","","32.2","","99.18","","","","","","Cloudy"
"-84.51","46.49","SAULT STE MARIE A","6057591","2020-11-12 23:00","2020","11","12","23:00","4.7","","2.6","","86","","","","13","","7","","32.2","","99.12","","","","","","NA"
"-84.51","46.49","SAULT STE MARIE A","6057591","2020-11-13 00:00","2020","11","13","00:00","5.2","","2.9","","85","","","","15","","6","","32.2","","99.07","","","","","","NA"
"-84.51","46.49","SAULT STE MARIE A","6057591","2020-11-13 01:00","2020","11","13","01:00","5.2","","2.8","","84","","","","26","","6","","32.2","","99.05","","","","","","Mostly Cloudy"
"-84.51","46.49","SAULT STE MARIE A","6057591","2020-11-13 02:00","2020","11","13","02:00","4.3","","2.6","","88","","","","36","","2","","32.2","","98.99","","","","","","NA"
"-84.51","46.49","SAULT STE MARIE A","6057591","2020-11-13 03:00","2020","11","13","03:00","4.7","","3.4","","91","","","","31","","7","","24.1","","98.97","","","","","","Rain Showers"
"-84.51","46.49","SAULT STE MARIE A","6057591","2020-11-13 04:00","2020","11","13","04:00","3.8","","2.6","","92","","","","31","","8","","32.2","","98.91","","","","","","Cloudy"
"-84.51","46.49","SAULT STE MARIE A","6057591","2020-11-13 05:00","2020","11","13","05:00","2.0","","0.9","","92","","","","31","","23","","6.4","","98.91","","","","","","Rain Showers"
"-84.51","46.49","SAULT STE MARIE A","6057591","2020-11-13 06:00","2020","11","13","06:00","1.1","","0.1","","93","","","","31","","23","","4.8","","98.96","","","","","","Snow Showers"
"-84.51","46.49","SAULT STE MARIE A","6057591","2020-11-13 07:00","2020","11","13","07:00","1.0","","0.2","","94","","","","31","","21","","6.4","","98.96","","","","","","Rain Showers,Fog"
"-84.51","46.49","SAULT STE MARIE A","6057591","2020-11-13 08:00","2020","11","13","08:00","1.7","","-0.4","","86","","","","32","","23","","32.2","","99.01","","","","","","NA"
"-84.51","46.49","SAULT STE MARIE A","6057591","2020-11-13 09:00","2020","11","13","09:00","2.1","","-0.6","","82","","","","33","","25","","24.1","","99.05","","","","","","NA"
"-84.51","46.49","SAULT STE MARIE A","6057591","2020-11-13 10:00","2020","11","13","10:00","2.3","","-1.7","","75","","","","32","","19","","32.2","","99.10","","","","","","Cloudy"
"-84.51","46.49","SAULT STE MARIE A","6057591","2020-11-13 11:00","2020","11","13","11:00","2.6","","-2.9","","67","","","","31","","26","","19.3","","99.14","","","","","","Snow Showers"
"-84.51","46.49","SAULT STE MARIE A","6057591","2020-11-13 12:00","2020","11","13","12:00","2.7","","-3.7","","63","","","","30","","30","","19.3","","99.16","","","","","","Snow Showers"
"-84.51","46.49","SAULT STE MARIE A","6057591","2020-11-13 13:00","2020","11","13","13:00","2.2","","-2.1","","73","","","","29","","35","","16.1","","99.21","","","","","","Snow Showers,Snow Pellets"
"-84.51","46.49","SAULT STE MARIE A","6057591","2020-11-13 14:00","2020","11","13","14:00","2.2","","-2.2","","72","","","","30","","22","","24.1","","99.23","","","","","","Snow Showers"
"-84.51","46.49","SAULT STE MARIE A","6057591","2020-11-13 15:00","2020","11","13","15:00","2.2","","-3.3","","67","","","","29","","23","","32.2","","99.26","","","","","","Snow Showers"
"-84.51","46.49","SAULT STE MARIE A","6057591","2020-11-13 16:00","2020","11","13","16:00","1.7","","-3.5","","69","","","","27","","28","","32.2","","99.31","","","","","","Snow Showers,Snow Pellets"
"-84.51","46.49","SAULT STE MARIE A","6057591","2020-11-13 17:00","2020","11","13","17:00","1.5","","-5.5","","60","","","","28","","28","","24.1","","99.38","","","","","","Snow Showers"
"-84.51","46.49","SAULT STE MARIE A","6057591","2020-11-13 18:00","2020","11","13","18:00","1.4","","-5.0","","63","","","","29","","25","","24.1","","99.43","","","","","","Snow Showers,Snow Pellets"
"-84.51","46.49","SAULT STE MARIE A","6057591","2020-11-13 19:00","2020","11","13","19:00","1.3","","-6.0","","58","","","","28","","20","","24.1","","99.48","","","","","","Snow Showers"
"-84.51","46.49","SAULT STE MARIE A","6057591","2020-11-13 20:00","2020","11","13","20:00","0.7","","-3.9","","72","","","","25","","25","","32.2","","99.50","","","","","","Snow Showers"
"-84.51","46.49","SAULT STE MARIE A","6057591","2020-11-13 21:00","2020","11","13","21:00","-0.1","","-3.5","","78","","","","25","","23","","32.2","","99.55","","","","-6","","NA"
"-84.51","46.49","SAULT STE MARIE A","6057591","2020-11-13 22:00","2020","11","13","22:00","0.0","","-3.9","","75","","","","26","","25","","32.2","","99.58","","","","-6","","Cloudy"
"-84.51","46.49","SAULT STE MARIE A","6057591","2020-11-13 23:00","2020","11","13","23:00","0.4","","-4.5","","69","","","","25","","17","","32.2","","99.56","","","","","","NA"
"-84.51","46.49","SAULT STE MARIE A","6057591","2020-11-14 00:00","2020","11","14","00:00","-0.6","","-4.6","","74","","","","24","","16","","32.2","","99.56","","","","-5","","NA"
"-84.51","46.49","SAULT STE MARIE A","6057591","2020-11-14 01:00","2020","11","14","01:00","-1.1","","-4.8","","76","","","","24","","9","","32.2","","99.61","","","","-4","","Mainly Clear"
"-84.51","46.49","SAULT STE MARIE A","6057591","2020-11-14 02:00","2020","11","14","02:00","-0.6","","-5.8","","68","","","","25","","14","","32.2","","99.61","","","","-5","","NA"
"-84.51","46.49","SAULT STE MARIE A","6057591","2020-11-14 03:00","2020","11","14","03:00","-0.8","","-5.4","","71","","","","24","","10","","32.2","","99.63","","","","-4","","NA"
"-84.51","46.49","SAULT STE MARIE A","6057591","2020-11-14 04:00","2020","11","14","04:00","-0.9","","-5.4","","71","","","","26","","8","","32.2","","99.64","","","","-4","","Mostly Cloudy"
"-84.51","46.49","SAULT STE MARIE A","6057591","2020-11-14 05:00","2020","11","14","05:00","-1.8","","-4.8","","80","","","","17","","4","","32.2","","99.64","","","","-3","","NA"
"-84.51","46.49","SAULT STE MARIE A","6057591","2020-11-14 06:00","2020","11","14","06:00","-2.1","","-5.2","","79","","","","12","","4","","32.2","","99.61","","","","-4","","NA"
"-84.51","46.49","SAULT STE MARIE A","6057591","2020-11-14 07:00","2020","11","14","07:00","-4.0","","-5.4","","90","","","","8","","5","","32.2","","99.58","","","","-6","","Mainly Clear"
"-84.51","46.49","SAULT STE MARIE A","6057591","2020-11-14 08:00","2020","11","14","08:00","-1.5","","-3.9","","84","","","","12","","7","","24.1","","99.58","","","","-4","","NA"
"-84.51","46.49","SAULT STE MARIE A","6057591","2020-11-14 09:00","2020","11","14","09:00","-0.1","","-2.8","","82","","","","13","","13","","24.1","","99.56","","","","-4","","NA"
"-84.51","46.49","SAULT STE MARIE A","6057591","2020-11-14 10:00","2020","11","14","10:00","0.8","","-3.1","","75","","","","15","","14","","19.3","","99.57","","","","","","Mostly Cloudy"
"-84.51","46.49","SAULT STE MARIE A","6057591","2020-11-14 11:00","2020","11","14","11:00","1.8","","-3.5","","68","","","","14","","12","","24.1","","99.60","","","","","","NA"
"-84.51","46.49","SAULT STE MARIE A","6057591","2020-11-14 12:00","2020","11","14","12:00","3.3","","-3.3","","62","","","","13","","14","","32.2","","99.53","","","","","","NA"
"-84.51","46.49","SAULT STE MARIE A","6057591","2020-11-14 13:00","2020","11","14","13:00","3.8","","-3.2","","60","","","","14","","15","","32.2","","99.46","","","","","","Mostly Cloudy"
"-84.51","46.49","SAULT STE MARIE A","6057591","2020-11-14 14:00","2020","11","14","14:00","4.6","","-4.2","","53","","","","14","","14","","32.2","","99.42","","","","","","NA"
"-84.51","46.49","SAULT STE MARIE A","6057591","2020-11-14 15:00","2020","11","14","15:00","4.4","","-4.0","","54","","","","14","","16","","32.2","","99.35","","","","","","NA"
"-84.51","46.49","SAULT STE MARIE A","6057591","2020-11-14 16:00","2020","11","14","16:00","3.2","","-3.6","","61","","","","11","","22","","32.2","","99.20","","","","","","Mostly Cloudy"
"-84.51","46.49","SAULT STE MARIE A","6057591","2020-11-14 17:00","2020","11","14","17:00","2.4","","-4.0","","63","","","","12","","13","","32.2","","99.16","","","","","","NA"
"-84.51","46.49","SAULT STE MARIE A","6057591","2020-11-14 18:00","2020","11","14","18:00","2.2","","-3.5","","66","","","","10","","21","","24.1","","99.05","","","","","","NA"
"-84.51","46.49","SAULT STE MARIE A","6057591","2020-11-14 19:00","2020","11","14","19:00","2.7","","-1.5","","74","","","","10","","25","","24.1","","98.99","","","","","","Mostly Cloudy"
"-84.51","46.49","SAULT STE MARIE A","6057591","2020-11-14 20:00","2020","11","14","20:00","3.0","","-1.0","","75","","","","10","","22","","32.2","","98.89","","","","","","NA"
"-84.51","46.49","SAULT STE MARIE A","6057591","2020-11-14 21:00","2020","11","14","21:00","4.0","","-2.0","","65","","","","13","","23","","24.1","","98.80","","","","","","NA"
"-84.51","46.49","SAULT STE MARIE A","6057591","2020-11-14 22:00","2020","11","14","22:00","4.7","","-0.4","","70","","","","13","","25","","24.1","","98.67","","","","","","Rain Showers"
"-84.51","46.49","SAULT STE MARIE A","6057591","2020-11-14 23:00","2020","11","14","23:00","4.3","","1.0","","79","","","","11","","22","","16.1","","98.45","","","","","","Rain Showers"
"-84.51","46.49","SAULT STE MARIE A","6057591","2020-11-15 00:00","2020","11","15","00:00","4.3","","2.0","","85","","","","10","","21","","16.1","","98.25","","","","","","Rain Showers"
"-84.51","46.49","SAULT STE MARIE A","6057591","2020-11-15 01:00","2020","11","15","01:00","4.2","","1.4","","82","","","","12","","26","","9.7","","98.09","","","","","","Rain Showers,Fog"
"-84.51","46.49","SAULT STE MARIE A","6057591","2020-11-15 02:00","2020","11","15","02:00","4.4","","3.1","","91","","","","11","","23","","4.8","","97.90","","","","","","Moderate Rain Showers,Fog"
"-84.51","46.49","SAULT STE MARIE A","6057591","2020-11-15 03:00","2020","11","15","03:00","4.7","","3.3","","91","","","","11","","18","","9.7","","97.68","","","","","","Moderate Rain Showers"
"-84.51","46.49","SAULT STE MARIE A","6057591","2020-11-15 04:00","2020","11","15","04:00","4.9","","3.8","","93","","","","12","","21","","4.8","","97.46","","","","","","Rain Showers,Fog"
"-84.51","46.49","SAULT STE MARIE A","6057591","2020-11-15 05:00","2020","11","15","05:00","5.1","","4.2","","94","","","","12","","23","","4.8","","97.24","","","","","","Rain Showers,Fog"
"-84.51","46.49","SAULT STE MARIE A","6057591","2020-11-15 06:00","2020","11","15","06:00","5.6","","4.8","","94","","","","12","","18","","4.8","","96.98","","","","","","Moderate Rain Showers,Fog"
"-84.51","46.49","SAULT STE MARIE A","6057591","2020-11-15 07:00","2020","11","15","07:00","6.0","","5.2","","95","","","","12","","12","","4.8","","96.72","","","","","","Rain Showers,Fog"
"-84.51","46.49","SAULT STE MARIE A","6057591","2020-11-15 08:00","2020","11","15","08:00","6.3","","5.6","","95","","","","11","","20","","4.8","","96.58","","","","","","Moderate Rain Showers,Fog"
"-84.51","46.49","SAULT STE MARIE A","6057591","2020-11-15 09:00","2020","11","15","09:00","6.4","","5.7","","95","","","","11","","15","","4.8","","96.36","","","","","","Rain Showers,Fog"
"-84.51","46.49","SAULT STE MARIE A","6057591","2020-11-15 10:00","2020","11","15","10:00","6.6","","6.0","","96","","","","11","","10","","9.7","","96.16","","","","","","Rain Showers,Fog"
"-84.51","46.49","SAULT STE MARIE A","6057591","2020-11-15 11:00","2020","11","15","11:00","7.2","","6.6","","96","","","","14","","8","","9.7","","96.05","","","","","","Rain,Fog"
"-84.51","46.49","SAULT STE MARIE A","6057591","2020-11-15 12:00","2020","11","15","12:00","7.5","","7.0","","96","","","","14","","6","","12.9","","95.90","","","","","","Rain,Drizzle"
"-84.51","46.49","SAULT STE MARIE A","6057591","2020-11-15 13:00","2020","11","15","13:00","8.3","","7.7","","96","","","","19","","6","","12.9","","95.81","","","","","","Rain,Drizzle"
"-84.51","46.49","SAULT STE MARIE A","6057591","2020-11-15 14:00","2020","11","15","14:00","7.0","","5.5","","90","","","","29","","36","","19.3","","95.77","","","","","","Rain Showers"
"-84.51","46.49","SAULT STE MARIE A","6057591","2020-11-15 15:00","2020","11","15","15:00","5.2","","3.4","","88","","","","29","","41","","19.3","","95.89","","","","","","NA"
"-84.51","46.49","SAULT STE MARIE A","6057591","2020-11-15 16:00","2020","11","15","16:00","4.5","","3.2","","91","","","","27","","40","","11.3","","96.05","","","","","","Rain Showers"
"-84.51","46.49","SAULT STE MARIE A","6057591","2020-11-15 17:00","2020","11","15","17:00","3.0","","1.8","","92","","","","26","","39","","8.1","","96.25","","","","","","Rain Showers,Fog"
"-84.51","46.49","SAULT STE MARIE A","6057591","2020-11-15 18:00","2020","11","15","18:00","2.7","","1.8","","94","","","","26","","32","","8.1","","96.45","","","","","","Rain Showers,Fog"
"-84.51","46.49","SAULT STE MARIE A","6057591","2020-11-15 19:00","2020","11","15","19:00","3.0","","1.8","","92","","","","27","","47","","9.7","","96.64","","","","","","Rain Showers,Fog"
"-84.51","46.49","SAULT STE MARIE A","6057591","2020-11-15 20:00","2020","11","15","20:00","2.8","","1.6","","92","","","","28","","49","","8.1","","96.83","","","","","","Rain Showers,Fog"
"-84.51","46.49","SAULT STE MARIE A","6057591","2020-11-15 21:00","2020","11","15","21:00","2.5","","1.4","","92","","","","28","","49","","8.1","","97.01","","","","","","Rain Showers,Fog"
"-84.51","46.49","SAULT STE MARIE A","6057591","2020-11-15 22:00","2020","11","15","22:00","2.5","","1.0","","90","","","","29","","56","","9.7","","97.19","","","","","","Rain Showers,Fog"
"-84.51","46.49","SAULT STE MARIE A","6057591","2020-11-15 23:00","2020","11","15","23:00","2.8","","1.1","","89","","","","29","","51","","12.9","","97.35","","","","","","Rain Showers"
"-84.51","46.49","SAULT STE MARIE A","6057591","2020-11-16 00:00","2020","11","16","00:00","2.6","","1.0","","89","","","","28","","44","","16.1","","97.47","","","","","","Rain Showers,Snow Showers"
"-84.51","46.49","SAULT STE MARIE A","6057591","2020-11-16 01:00","2020","11","16","01:00","1.6","","0.0","","89","","","","28","","51","","6.4","","97.63","","","","","","Rain Showers,Snow Showers"
"-84.51","46.49","SAULT STE MARIE A","6057591","2020-11-16 02:00","2020","11","16","02:00","1.7","","-0.5","","85","","","","29","","48","","19.3","","97.78","","","","","","Snow Showers"
"-84.51","46.49","SAULT STE MARIE A","6057591","2020-11-16 03:00","2020","11","16","03:00","1.7","","-2.2","","75","","","","30","","53","","16.1","","97.93","","","","","","Snow Showers"
"-84.51","46.49","SAULT STE MARIE A","6057591","2020-11-16 04:00","2020","11","16","04:00","1.1","","-3.3","","72","","","","30","","56","","24.1","","98.06","","","","","","Snow Showers"
"-84.51","46.49","SAULT STE MARIE A","6057591","2020-11-16 05:00","2020","11","16","05:00","1.3","","-3.5","","71","","","","29","","42","","24.1","","98.17","","","","","","Snow Showers"
"-84.51","46.49","SAULT STE MARIE A","6057591","2020-11-16 06:00","2020","11","16","06:00","1.2","","-3.1","","73","","","","29","","42","","24.1","","98.25","","","","","","Snow Showers,Blowing Snow"
"-84.51","46.49","SAULT STE MARIE A","6057591","2020-11-16 07:00","2020","11","16","07:00","1.2","","-4.0","","68","","","","28","","43","","19.3","","98.32","","","","","","Snow Showers,Snow Pellets,Blowing Snow"
"-84.51","46.49","SAULT STE MARIE A","6057591","2020-11-16 08:00","2020","11","16","08:00","0.5","","-4.7","","68","","","","28","","47","","12.9","","98.42","","","","","","Snow Showers,Snow Pellets,Blowing Snow"
"-84.51","46.49","SAULT STE MARIE A","6057591","2020-11-16 09:00","2020","11","16","09:00","0.9","","-4.4","","68","","","","28","","43","","8.1","","98.52","","","","","","Snow Showers,Blowing Snow"
"-84.51","46.49","SAULT STE MARIE A","6057591","2020-11-16 10:00","2020","11","16","10:00","-0.1","","-3.0","","81","","","","27","","43","","4.8","","98.59","","","","-8","","Snow Showers,Snow Pellets,Blowing Snow"
"-84.51","46.49","SAULT STE MARIE A","6057591","2020-11-16 11:00","2020","11","16","11:00","-0.2","","-2.2","","87","","","","28","","35","","4.8","","98.70","","","","-7","","Snow Showers,Snow Pellets,Blowing Snow"
"-84.51","46.49","SAULT STE MARIE A","6057591","2020-11-16 12:00","2020","11","16","12:00","0.2","","-3.1","","78","","","","26","","28","","12.9","","98.72","","","","","","Snow Showers,Blowing Snow"
"-84.51","46.49","SAULT STE MARIE A","6057591","2020-11-16 13:00","2020","11","16","13:00","-0.1","","-3.7","","77","","","","25","","25","","16.1","","98.75","","","","-6","","Snow Showers,Blowing Snow"
"-84.51","46.49","SAULT STE MARIE A","6057591","2020-11-16 14:00","2020","11","16","14:00","-0.1","","-3.4","","78","","","","28","","20","","16.1","","98.78","","","","-5","","Snow Showers,Blowing Snow"
"-84.51","46.49","SAULT STE MARIE A","6057591","2020-11-16 15:00","2020","11","16","15:00","0.1","","-3.6","","76","","","","26","","25","","16.1","","98.80","","","","","","Snow Showers,Blowing Snow"
"-84.51","46.49","SAULT STE MARIE A","6057591","2020-11-16 16:00","2020","11","16","16:00","0.4","","-4.8","","68","","","","29","","34","","16.1","","98.86","","","","","","Snow Showers,Blowing Snow"
"-84.51","46.49","SAULT STE MARIE A","6057591","2020-11-16 17:00","2020","11","16","17:00","0.1","","-3.4","","77","","","","27","","23","","16.1","","98.91","","","","","","Snow Showers,Blowing Snow"
"-84.51","46.49","SAULT STE MARIE A","6057591","2020-11-16 18:00","2020","11","16","18:00","-0.4","","-3.2","","81","","","","24","","25","","16.1","","98.95","","","","-6","","Snow Showers,Blowing Snow"
"-84.51","46.49","SAULT STE MARIE A","6057591","2020-11-16 19:00","2020","11","16","19:00","-0.5","","-2.9","","84","","","","24","","22","","12.9","","98.97","","","","-6","","Snow Showers,Blowing Snow"
"-84.51","46.49","SAULT STE MARIE A","6057591","2020-11-16 20:00","2020","11","16","20:00","-0.6","","-2.8","","85","","","","25","","23","","19.3","","98.99","","","","-6","","Snow Showers,Snow Pellets,Blowing Snow"
"-84.51","46.49","SAULT STE MARIE A","6057591","2020-11-16 21:00","2020","11","16","21:00","-0.8","","-2.4","","89","","","","26","","25","","2.4","","99.02","","","","-7","","Snow Showers,Snow Pellets,Blowing Snow"
"-84.51","46.49","SAULT STE MARIE A","6057591","2020-11-16 22:00","2020","11","16","22:00","0.0","","-4.3","","73","","","","32","","30","","12.9","","99.04","","","","-6","","Snow Showers,Blowing Snow"
"-84.51","46.49","SAULT STE MARIE A","6057591","2020-11-16 23:00","2020","11","16","23:00","-0.4","","-5.4","","69","","","","31","","34","","16.1","","99.07","","","","-7","","Snow Showers,Blowing Snow"
"-84.51","46.49","SAULT STE MARIE A","6057591","2020-11-17 00:00","2020","11","17","00:00","-0.7","","-7.2","","61","","","","31","","41","","19.3","","99.08","","","","-8","","Snow Showers"
"-84.51","46.49","SAULT STE MARIE A","6057591","2020-11-17 01:00","2020","11","17","01:00","-1.2","","-5.8","","71","","","","33","","34","","16.1","","99.17","","","","-8","","Snow Showers,Blowing Snow"
"-84.51","46.49","SAULT STE MARIE A","6057591","2020-11-17 02:00","2020","11","17","02:00","-1.4","","-6.9","","67","","","","31","","33","","19.3","","99.21","","","","-9","","Snow Showers,Blowing Snow"
"-84.51","46.49","SAULT STE MARIE A","6057591","2020-11-17 03:00","2020","11","17","03:00","-2.6","","-7.2","","71","","","","33","","39","","9.7","","99.33","","","","-11","","Snow Showers,Blowing Snow"
"-84.51","46.49","SAULT STE MARIE A","6057591","2020-11-17 04:00","2020","11","17","04:00","-3.7","","-10.1","","61","","","","33","","49","","24.1","","99.45","","","","-13","","Snow Showers"
"-84.51","46.49","SAULT STE MARIE A","6057591","2020-11-17 05:00","2020","11","17","05:00","-4.7","","-11.3","","60","","","","32","","40","","24.1","","99.58","","","","-14","","Snow Showers,Blowing Snow"
"-84.51","46.49","SAULT STE MARIE A","6057591","2020-11-17 06:00","2020","11","17","06:00","-4.1","","-10.2","","63","","","","33","","27","","19.3","","99.67","","","","-11","","Snow Showers,Blowing Snow"
"-84.51","46.49","SAULT STE MARIE A","6057591","2020-11-17 07:00","2020","11","17","07:00","-3.8","","-10.2","","62","","","","32","","30","","24.1","","99.73","","","","-11","","Snow Showers,Blowing Snow"
"-84.51","46.49","SAULT STE MARIE A","6057591","2020-11-17 08:00","2020","11","17","08:00","-3.6","","-8.9","","67","","","","33","","28","","11.3","","99.78","","","","-11","","Snow Showers,Blowing Snow"
"-84.51","46.49","SAULT STE MARIE A","6057591","2020-11-17 09:00","2020","11","17","09:00","-4.0","","-7.3","","78","","","","34","","21","","3.2","","99.87","","","","-10","","Snow Showers,Blowing Snow"
"-84.51","46.49","SAULT STE MARIE A","6057591","2020-11-17 10:00","2020","11","17","10:00","-3.6","","-8.7","","68","","","","33","","32","","4.0","","99.97","","","","-11","","Snow Showers,Blowing Snow"
"-84.51","46.49","SAULT STE MARIE A","6057591","2020-11-17 11:00","2020","11","17","11:00","-5.0","","-10.1","","68","","","","35","","37","","12.9","","100.10","","","","-14","","Snow Showers,Blowing Snow"
"-84.51","46.49","SAULT STE MARIE A","6057591","2020-11-17 12:00","2020","11","17","12:00","-5.1","","-10.6","","65","","","","32","","41","","16.1","","100.16","","","","-14","","Snow Showers,Blowing Snow"
"-84.51","46.49","SAULT STE MARIE A","6057591","2020-11-17 13:00","2020","11","17","13:00","-4.9","","-11.6","","60","","","","33","","32","","16.1","","100.20","","","","-13","","Snow Showers,Blowing Snow"
"-84.51","46.49","SAULT STE MARIE A","6057591","2020-11-17 14:00","2020","11","17","14:00","-4.7","","-10.2","","66","","","","33","","23","","16.1","","100.25","","","","-12","","Snow Showers,Blowing Snow"
"-84.51","46.49","SAULT STE MARIE A","6057591","2020-11-17 15:00","2020","11","17","15:00","-4.1","","-10.0","","64","","","","33","","25","","12.9","","100.29","","","","-11","","Snow Showers,Blowing Snow"
"-84.51","46.49","SAULT STE MARIE A","6057591","2020-11-17 16:00","2020","11","17","16:00","-3.9","","-9.2","","67","","","","34","","20","","12.9","","100.33","","","","-10","","Snow Showers"
"-84.51","46.49","SAULT STE MARIE A","6057591","2020-11-17 17:00","2020","11","17","17:00","-4.8","","-8.9","","73","","","","36","","11","","8.1","","100.42","","","","-9","","Snow Showers"
"-84.51","46.49","SAULT STE MARIE A","6057591","2020-11-17 18:00","2020","11","17","18:00","-5.5","","-8.1","","82","","","","6","","10","","8.1","","100.44","","","","-10","","Snow Showers"
"-84.51","46.49","SAULT STE MARIE A","6057591","2020-11-17 19:00","2020","11","17","19:00","-5.9","","-8.2","","84","","","","7","","8","","9.7","","100.49","","","","-10","","Snow Showers"
"-84.51","46.49","SAULT STE MARIE A","6057591","2020-11-17 20:00","2020","11","17","20:00","-6.0","","-8.3","","83","","","","12","","7","","4.8","","100.51","","","","-9","","Snow Showers"
"-84.51","46.49","SAULT STE MARIE A","6057591","2020-11-17 21:00","2020","11","17","21:00","-6.3","","-8.5","","85","","","","13","","9","","8.1","","100.52","","","","-11","","Snow Showers"
"-84.51","46.49","SAULT STE MARIE A","6057591","2020-11-17 22:00","2020","11","17","22:00","-6.3","","-8.2","","86","","","","8","","7","","9.7","","100.53","","","","-10","","Snow Showers"
"-84.51","46.49","SAULT STE MARIE A","6057591","2020-11-17 23:00","2020","11","17","23:00","-6.3","","-8.2","","87","","","","2","","8","","19.3","","100.58","","","","-10","","Snow Showers"
"-84.51","46.49","SAULT STE MARIE A","6057591","2020-11-18 00:00","2020","11","18","00:00","-6.8","","-9.6","","80","","","","4","","17","","6.4","","100.67","","","","-13","","Snow Showers"
"-84.51","46.49","SAULT STE MARIE A","6057591","2020-11-18 01:00","2020","11","18","01:00","-6.9","","-9.9","","79","","","","11","","7","","24.1","","100.69","","","","-10","","Snow Showers"
"-84.51","46.49","SAULT STE MARIE A","6057591","2020-11-18 02:00","2020","11","18","02:00","-6.5","","-9.9","","77","","","","11","","7","","32.2","","100.71","","","","-10","","Snow Showers"
"-84.51","46.49","SAULT STE MARIE A","6057591","2020-11-18 03:00","2020","11","18","03:00","-6.5","","-10.4","","74","","","","36","","3","","24.1","","100.82","","","","-8","","Snow Showers"
"-84.51","46.49","SAULT STE MARIE A","6057591","2020-11-18 04:00","2020","11","18","04:00","-6.4","","-9.8","","77","","","","13","","3","","32.2","","100.85","","","","-8","","Snow Showers"
"-84.51","46.49","SAULT STE MARIE A","6057591","2020-11-18 05:00","2020","11","18","05:00","-6.0","","-10.0","","73","","","","11","","6","","32.2","","100.88","","","","-9","","Snow Showers"
"-84.51","46.49","SAULT STE MARIE A","6057591","2020-11-18 06:00","2020","11","18","06:00","-5.8","","-9.5","","75","","","","13","","4","","32.2","","100.90","","","","-8","","Snow Showers"
"-84.51","46.49","SAULT STE MARIE A","6057591","2020-11-18 07:00","2020","11","18","07:00","-5.8","","-9.3","","76","","","","10","","7","","32.2","","100.88","","","","-9","","Cloudy"
"-84.51","46.49","SAULT STE MARIE A","6057591","2020-11-18 08:00","2020","11","18","08:00","-5.9","","-9.2","","78","","","","10","","7","","32.2","","100.85","","","","-9","","NA"
"-84.51","46.49","SAULT STE MARIE A","6057591","2020-11-18 09:00","2020","11","18","09:00","-5.3","","-8.7","","77","","","","10","","8","","32.2","","100.85","","","","-9","","NA"
"-84.51","46.49","SAULT STE MARIE A","6057591","2020-11-18 10:00","2020","11","18","10:00","-4.1","","-8.5","","71","","","","10","","14","","40.2","","100.80","","","","-9","","Mostly Cloudy"
"-84.51","46.49","SAULT STE MARIE A","6057591","2020-11-18 11:00","2020","11","18","11:00","-2.5","","-7.6","","68","","","","12","","13","","40.2","","100.75","","","","-7","","NA"
"-84.51","46.49","SAULT STE MARIE A","6057591","2020-11-18 12:00","2020","11","18","12:00","-1.5","","-7.4","","64","","","","14","","14","","40.2","","100.67","","","","-6","","NA"
"-84.51","46.49","SAULT STE MARIE A","6057591","2020-11-18 13:00","2020","11","18","13:00","-0.8","","-6.5","","66","","","","12","","13","","40.2","","100.59","","","","-5","","Mostly Cloudy"
"-84.51","46.49","SAULT STE MARIE A","6057591","2020-11-18 14:00","2020","11","18","14:00","0.0","","-5.7","","66","","","","10","","19","","40.2","","100.41","","","","-5","","NA"
"-84.51","46.49","SAULT STE MARIE A","6057591","2020-11-18 15:00","2020","11","18","15:00","0.6","","-4.9","","67","","","","13","","18","","40.2","","100.26","","","","","","NA"
"-84.51","46.49","SAULT STE MARIE A","6057591","2020-11-18 16:00","2020","11","18","16:00","0.3","","-4.7","","69","","","","12","","18","","40.2","","100.13","","","","","","Mostly Cloudy"
"-84.51","46.49","SAULT STE MARIE A","6057591","2020-11-18 17:00","2020","11","18","17:00","0.5","","-4.1","","71","","","","10","","18","","40.2","","99.98","","","","","","NA"
"-84.51","46.49","SAULT STE MARIE A","6057591","2020-11-18 18:00","2020","11","18","18:00","0.6","","-3.7","","73","","","","11","","23","","40.2","","99.85","","","","","","NA"
"-84.51","46.49","SAULT STE MARIE A","6057591","2020-11-18 19:00","2020","11","18","19:00","1.2","","-3.0","","74","","","","11","","17","","40.2","","99.75","","","","","","Cloudy"
"-84.51","46.49","SAULT STE MARIE A","6057591","2020-11-18 20:00","2020","11","18","20:00","2.2","","-3.4","","66","","","","12","","17","","40.2","","99.59","","","","","","NA"
"-84.51","46.49","SAULT STE MARIE A","6057591","2020-11-18 21:00","2020","11","18","21:00","2.2","","-3.5","","66","","","","12","","17","","40.2","","99.50","","","","","","NA"
"-84.51","46.49","SAULT STE MARIE A","6057591","2020-11-18 22:00","2020","11","18","22:00","2.0","","-3.0","","69","","","","12","","14","","40.2","","99.42","","","","","","Mainly Clear"
"-84.51","46.49","SAULT STE MARIE A","6057591","2020-11-18 23:00","2020","11","18","23:00","1.8","","-3.2","","69","","","","11","","13","","40.2","","99.38","","","","","","NA"
"-84.51","46.49","SAULT STE MARIE A","6057591","2020-11-19 00:00","2020","11","19","00:00","1.1","","-3.5","","71","","","","10","","10","","40.2","","99.32","","","","","","NA"
"-84.51","46.49","SAULT STE MARIE A","6057591","2020-11-19 01:00","2020","11","19","01:00","2.9","","-2.9","","65","","","","11","","13","","40.2","","99.12","","","","","","Mainly Clear"
"-84.51","46.49","SAULT STE MARIE A","6057591","2020-11-19 02:00","2020","11","19","02:00","3.3","","-3.0","","63","","","","10","","8","","40.2","","98.99","","","","","","NA"
"-84.51","46.49","SAULT STE MARIE A","6057591","2020-11-19 03:00","2020","11","19","03:00","2.1","","-3.1","","68","","","","9","","8","","40.2","","98.93","","","","","","NA"
"-84.51","46.49","SAULT STE MARIE A","6057591","2020-11-19 04:00","2020","11","19","04:00","2.0","","-3.2","","69","","","","11","","5","","32.2","","98.84","","","","","","Mostly Cloudy"
"-84.51","46.49","SAULT STE MARIE A","6057591","2020-11-19 05:00","2020","11","19","05:00","1.5","","-3.2","","71","","","","9","","8","","40.2","","98.78","","","","","","NA"
"-84.51","46.49","SAULT STE MARIE A","6057591","2020-11-19 06:00","2020","11","19","06:00","1.1","","-3.2","","73","","","","12","","6","","32.2","","98.74","","","","","","NA"
"-84.51","46.49","SAULT STE MARIE A","6057591","2020-11-19 07:00","2020","11","19","07:00","2.0","","-2.6","","72","","","","9","","7","","40.2","","98.68","","","","","","Mostly Cloudy"
"-84.51","46.49","SAULT STE MARIE A","6057591","2020-11-19 08:00","2020","11","19","08:00","2.8","","-2.0","","70","","","","10","","8","","24.1","","98.61","","","","","","NA"
"-84.51","46.49","SAULT STE MARIE A","6057591","2020-11-19 09:00","2020","11","19","09:00","2.5","","-1.7","","74","","","","10","","7","","24.1","","98.66","","","","","","NA"
"-84.51","46.49","SAULT STE MARIE A","6057591","2020-11-19 10:00","2020","11","19","10:00","4.1","","-1.0","","69","","","","8","","9","","24.1","","98.60","","","","","","Mostly Cloudy"
"-84.51","46.49","SAULT STE MARIE A","6057591","2020-11-19 11:00","2020","11","19","11:00","5.1","","0.4","","72","","","","8","","10","","32.2","","98.53","","","","","","NA"
"-84.51","46.49","SAULT STE MARIE A","6057591","2020-11-19 12:00","2020","11","19","12:00","6.0","","1.1","","71","","","","8","","4","","32.2","","98.54","","","","","","NA"
"-84.51","46.49","SAULT STE MARIE A","6057591","2020-11-19 13:00","2020","11","19","13:00","8.8","","3.1","","68","","","","22","","9","","32.2","","98.54","","","","","","Mostly Cloudy"
"-84.51","46.49","SAULT STE MARIE A","6057591","2020-11-19 14:00","2020","11","19","14:00","9.1","","3.3","","67","","","","23","","14","","32.2","","98.57","","","","","","NA"
"-84.51","46.49","SAULT STE MARIE A","6057591","2020-11-19 15:00","2020","11","19","15:00","10.1","","4.0","","65","","","","21","","8","","32.2","","98.47","","","","","","NA"
"-84.51","46.49","SAULT STE MARIE A","6057591","2020-11-19 16:00","2020","11","19","16:00","9.5","","3.9","","68","","","","20","","14","","32.2","","98.47","","","","","","Mostly Cloudy"
"-84.51","46.49","SAULT STE MARIE A","6057591","2020-11-19 17:00","2020","11","19","17:00","7.9","","3.9","","76","","","","24","","12","","32.2","","98.65","","","","","","NA"
"-84.51","46.49","SAULT STE MARIE A","6057591","2020-11-19 18:00","2020","11","19","18:00","7.3","","4.0","","80","","","","23","","7","","32.2","","98.72","","","","","","NA"
"-84.51","46.49","SAULT STE MARIE A","6057591","2020-11-19 19:00","2020","11","19","19:00","4.7","","2.7","","87","","","","36","","1","","32.2","","98.71","","","","","","Cloudy"
"-84.51","46.49","SAULT STE MARIE A","6057591","2020-11-19 20:00","2020","11","19","20:00","3.2","","2.1","","93","","","","12","","7","","24.1","","98.69","","","","","","NA"
"-84.51","46.49","SAULT STE MARIE A","6057591","2020-11-19 21:00","2020","11","19","21:00","2.5","","1.6","","94","","","","2","","5","","24.1","","98.79","","","","","","NA"
"-84.51","46.49","SAULT STE MARIE A","6057591","2020-11-19 22:00","2020","11","19","22:00","0.9","","0.1","","94","","","","36","","1","","24.1","","98.81","","","","","","Mostly Cloudy"
"-84.51","46.49","SAULT STE MARIE A","6057591","2020-11-19 23:00","2020","11","19","23:00","1.2","","0.5","","95","","","","36","","3","","24.1","","98.85","","","","","","NA"
"-84.51","46.49","SAULT STE MARIE A","6057591","2020-11-20 00:00","2020","11","20","00:00","0.9","","0.3","","96","","","","4","","3","","24.1","","98.83","","","","","","NA"
"-84.51","46.49","SAULT STE MARIE A","6057591","2020-11-20 01:00","2020","11","20","01:00","-0.3","","-0.8","","96","","","","36","","3","","19.3","","98.87","","","","-1","","Mainly Clear"
"-84.51","46.49","SAULT STE MARIE A","6057591","2020-11-20 02:00","2020","11","20","02:00","-1.1","","-1.5","","97","","","","36","","1","","6.4","","98.87","","","","-1","","Fog"
"-84.51","46.49","SAULT STE MARIE A","6057591","2020-11-20 03:00","2020","11","20","03:00","-1.8","","-2.2","","97","","","","6","","4","","1.0","","98.91","","","","-3","","Fog"
"-84.51","46.49","SAULT STE MARIE A","6057591","2020-11-20 04:00","2020","11","20","04:00","-2.0","","-2.4","","97","","","","8","","4","","0.4","","98.90","","","","-3","","Freezing Fog"
"-84.51","46.49","SAULT STE MARIE A","6057591","2020-11-20 05:00","2020","11","20","05:00","0.3","","0.0","","98","","","","11","","4","","0.4","","98.91","","","","","","Fog"
"-84.51","46.49","SAULT STE MARIE A","6057591","2020-11-20 06:00","2020","11","20","06:00","-0.1","","-0.4","","98","","","","3","","3","","0.2","","98.97","","","","-1","","Freezing Fog"
"-84.51","46.49","SAULT STE MARIE A","6057591","2020-11-20 07:00","2020","11","20","07:00","0.1","","-0.2","","98","","","","36","","2","","1.2","","99.01","","","","","","Fog"
"-84.51","46.49","SAULT STE MARIE A","6057591","2020-11-20 08:00","2020","11","20","08:00","3.0","","2.8","","98","","","","32","","11","","2.4","","99.07","","","","","","Fog"
"-84.51","46.49","SAULT STE MARIE A","6057591","2020-11-20 09:00","2020","11","20","09:00","4.7","","4.5","","98","","","","29","","24","","12.9","","99.16","","","","","","NA"
"-84.51","46.49","SAULT STE MARIE A","6057591","2020-11-20 10:00","2020","11","20","10:00","4.8","","3.2","","89","","","","31","","28","","12.9","","99.20","","","","","","Rain Showers"
"-84.51","46.49","SAULT STE MARIE A","6057591","2020-11-20 11:00","2020","11","20","11:00","5.6","","3.4","","86","","","","30","","23","","24.1","","99.35","","","","","","NA"
"-84.51","46.49","SAULT STE MARIE A","6057591","2020-11-20 12:00","2020","11","20","12:00","4.7","","3.0","","88","","","","30","","26","","8.1","","99.42","","","","","","Rain Showers,Fog"
"-84.51","46.49","SAULT STE MARIE A","6057591","2020-11-20 13:00","2020","11","20","13:00","4.7","","2.7","","87","","","","28","","29","","8.1","","99.50","","","","","","Rain Showers,Fog"
"-84.51","46.49","SAULT STE MARIE A","6057591","2020-11-20 14:00","2020","11","20","14:00","4.1","","2.2","","87","","","","28","","28","","6.4","","99.59","","","","","","Rain Showers,Fog"
"-84.51","46.49","SAULT STE MARIE A","6057591","2020-11-20 15:00","2020","11","20","15:00","3.6","","1.4","","85","","","","29","","28","","24.1","","99.74","","","","","","Rain Showers"
"-84.51","46.49","SAULT STE MARIE A","6057591","2020-11-20 16:00","2020","11","20","16:00","2.2","","0.8","","90","","","","28","","36","","6.4","","99.87","","","","","","Rain Showers,Fog"
"-84.51","46.49","SAULT STE MARIE A","6057591","2020-11-20 17:00","2020","11","20","17:00","2.6","","-0.8","","78","","","","28","","43","","12.9","","100.00","","","","","","Rain Showers"
"-84.51","46.49","SAULT STE MARIE A","6057591","2020-11-20 18:00","2020","11","20","18:00","0.9","","-0.5","","90","","","","30","","48","","4.8","","100.11","","","","","","Snow Showers"
"-84.51","46.49","SAULT STE MARIE A","6057591","2020-11-20 19:00","2020","11","20","19:00","1.7","","-1.5","","79","","","","28","","33","","16.1","","100.18","","","","","","Snow Showers"
"-84.51","46.49","SAULT STE MARIE A","6057591","2020-11-20 20:00","2020","11","20","20:00","1.7","","-2.9","","72","","","","29","","35","","16.1","","100.26","","","","","","Snow Showers"
"-84.51","46.49","SAULT STE MARIE A","6057591","2020-11-20 21:00","2020","11","20","21:00","1.6","","-3.3","","70","","","","31","","30","","19.3","","100.33","","","","","","Snow Showers"
"-84.51","46.49","SAULT STE MARIE A","6057591","2020-11-20 22:00","2020","11","20","22:00","1.1","","-2.8","","75","","","","30","","38","","8.1","","100.42","","","","","","Snow Showers,Blowing Snow"
"-84.51","46.49","SAULT STE MARIE A","6057591","2020-11-20 23:00","2020","11","20","23:00","0.8","","-3.5","","73","","","","32","","34","","16.1","","100.50","","","","","","Snow Showers"
"-84.51","46.49","SAULT STE MARIE A","6057591","2020-11-21 00:00","2020","11","21","00:00","0.7","","-4.4","","68","","","","30","","31","","19.3","","100.55","","","","","","Snow Showers"
"-84.51","46.49","SAULT STE MARIE A","6057591","2020-11-21 01:00","2020","11","21","01:00","0.5","","-5.0","","67","","","","31","","35","","24.1","","100.62","","","","","","Snow Showers"
"-84.51","46.49","SAULT STE MARIE A","6057591","2020-11-21 02:00","2020","11","21","02:00","0.1","","-5.3","","67","","","","30","","36","","24.1","","100.67","","","","","","Snow Showers"
"-84.51","46.49","SAULT STE MARIE A","6057591","2020-11-21 03:00","2020","11","21","03:00","-0.1","","-5.7","","66","","","","30","","30","","24.1","","100.71","","","","-7","","Snow Showers"
"-84.51","46.49","SAULT STE MARIE A","6057591","2020-11-21 04:00","2020","11","21","04:00","-0.3","","-5.9","","66","","","","32","","26","","24.1","","100.75","","","","-6","","Snow Showers"
"-84.51","46.49","SAULT STE MARIE A","6057591","2020-11-21 05:00","2020","11","21","05:00","-0.5","","-6.2","","66","","","","33","","15","","24.1","","100.77","","","","-5","","Snow Showers"
"-84.51","46.49","SAULT STE MARIE A","6057591","2020-11-21 06:00","2020","11","21","06:00","-1.0","","-6.7","","65","","","","32","","17","","24.1","","100.84","","","","-6","","Snow Showers"
"-84.51","46.49","SAULT STE MARIE A","6057591","2020-11-21 07:00","2020","11","21","07:00","-1.1","","-7.9","","60","","","","32","","18","","24.1","","100.93","","","","-6","","Snow Showers"
"-84.51","46.49","SAULT STE MARIE A","6057591","2020-11-21 08:00","2020","11","21","08:00","-1.3","","-7.8","","61","","","","32","","17","","32.2","","100.95","","","","-6","","NA"
"-84.51","46.49","SAULT STE MARIE A","6057591","2020-11-21 09:00","2020","11","21","09:00","-1.2","","-7.1","","64","","","","32","","16","","32.2","","101.00","","","","-6","","NA"
"-84.51","46.49","SAULT STE MARIE A","6057591","2020-11-21 10:00","2020","11","21","10:00","-1.4","","-6.0","","71","","","","2","","17","","32.2","","101.04","","","","-7","","Mostly Cloudy"
"-84.51","46.49","SAULT STE MARIE A","6057591","2020-11-21 11:00","2020","11","21","11:00","-1.4","","-6.0","","71","","","","36","","12","","32.2","","101.08","","","","-5","","NA"
"-84.51","46.49","SAULT STE MARIE A","6057591","2020-11-21 12:00","2020","11","21","12:00","-1.1","","-6.7","","66","","","","1","","8","","32.2","","101.07","","","","-4","","NA"
"-84.51","46.49","SAULT STE MARIE A","6057591","2020-11-21 13:00","2020","11","21","13:00","-1.2","","-6.7","","67","","","","17","","3","","32.2","","101.01","","","","-2","","Snow Showers"
"-84.51","46.49","SAULT STE MARIE A","6057591","2020-11-21 14:00","2020","11","21","14:00","-1.0","","-6.5","","66","","","","36","","1","","32.2","","100.99","","","","-1","","Snow Showers"
"-84.51","46.49","SAULT STE MARIE A","6057591","2020-11-21 15:00","2020","11","21","15:00","-0.8","","-6.4","","66","","","","0","","1","","32.2","","100.99","","","","-1","","NA"
"-84.51","46.49","SAULT STE MARIE A","6057591","2020-11-21 16:00","2020","11","21","16:00","-0.7","","-6.1","","67","","","","36","","1","","32.2","","100.96","","","","-1","","Cloudy"
"-84.51","46.49","SAULT STE MARIE A","6057591","2020-11-21 17:00","2020","11","21","17:00","-0.7","","-5.7","","69","","","","36","","3","","32.2","","100.95","","","","-2","","NA"
"-84.51","46.49","SAULT STE MARIE A","6057591","2020-11-21 18:00","2020","11","21","18:00","-0.6","","-6.1","","67","","","","36","","3","","32.2","","100.93","","","","-2","","NA"
"-84.51","46.49","SAULT STE MARIE A","6057591","2020-11-21 19:00","2020","11","21","19:00","-1.3","","-7.7","","62","","","","24","","5","","32.2","","100.94","","","","-3","","Mainly Clear"
"-84.51","46.49","SAULT STE MARIE A","6057591","2020-11-21 20:00","2020","11","21","20:00","-2.2","","-6.5","","73","","","","17","","7","","24.1","","100.90","","","","-5","","NA"
"-84.51","46.49","SAULT STE MARIE A","6057591","2020-11-21 21:00","2020","11","21","21:00","-3.8","","-6.1","","84","","","","13","","4","","24.1","","100.87","","","","-5","","NA"
"-84.51","46.49","SAULT STE MARIE A","6057591","2020-11-21 22:00","2020","11","21","22:00","-1.6","","-5.8","","73","","","","13","","8","","24.1","","100.86","","","","-5","","Mostly Cloudy"
"-84.51","46.49","SAULT STE MARIE A","6057591","2020-11-21 23:00","2020","11","21","23:00","-1.2","","-6.1","","70","","","","12","","9","","24.1","","100.85","","","","-4","","NA"
"-84.51","46.49","SAULT STE MARIE A","6057591","2020-11-22 00:00","2020","11","22","00:00","-2.2","","-6.6","","72","","","","10","","9","","24.1","","100.83","","","","-6","","NA"
"-84.51","46.49","SAULT STE MARIE A","6057591","2020-11-22 01:00","2020","11","22","01:00","-3.0","","-6.2","","79","","","","10","","7","","24.1","","100.77","","","","-6","","Mainly Clear"
"-84.51","46.49","SAULT STE MARIE A","6057591","2020-11-22 02:00","2020","11","22","02:00","-2.3","","-5.3","","80","","","","11","","6","","24.1","","100.73","","","","-5","","NA"
"-84.51","46.49","SAULT STE MARIE A","6057591","2020-11-22 03:00","2020","11","22","03:00","-1.0","","-4.8","","76","","","","11","","9","","24.1","","100.64","","","","-4","","NA"
"-84.51","46.49","SAULT STE MARIE A","6057591","2020-11-22 04:00","2020","11","22","04:00","-0.8","","-4.1","","79","","","","8","","12","","24.1","","100.60","","","","-5","","Cloudy"
"-84.51","46.49","SAULT STE MARIE A","6057591","2020-11-22 05:00","2020","11","22","05:00","-0.6","","-3.6","","81","","","","9","","9","","24.1","","100.56","","","","-4","","NA"
"-84.51","46.49","SAULT STE MARIE A","6057591","2020-11-22 06:00","2020","11","22","06:00","0.3","","-2.9","","79","","","","13","","13","","24.1","","100.50","","","","","","NA"
"-84.51","46.49","SAULT STE MARIE A","6057591","2020-11-22 07:00","2020","11","22","07:00","0.3","","-2.8","","80","","","","11","","9","","24.1","","100.46","","","","","","Mostly Cloudy"
"-84.51","46.49","SAULT STE MARIE A","6057591","2020-11-22 08:00","2020","11","22","08:00","-0.1","","-3.0","","81","","","","9","","9","","32.2","","100.39","","","","-3","","NA"
"-84.51","46.49","SAULT STE MARIE A","6057591","2020-11-22 09:00","2020","11","22","09:00","0.2","","-2.5","","82","","","","10","","10","","32.2","","100.36","","","","","","NA"
"-84.51","46.49","SAULT STE MARIE A","6057591","2020-11-22 10:00","2020","11","22","10:00","1.4","","-2.1","","78","","","","11","","12","","32.2","","100.28","","","","","","Mainly Clear"
"-84.51","46.49","SAULT STE MARIE A","6057591","2020-11-22 11:00","2020","11","22","11:00","2.5","","-1.6","","74","","","","13","","8","","32.2","","100.23","","","","","","NA"
"-84.51","46.49","SAULT STE MARIE A","6057591","2020-11-22 12:00","2020","11","22","12:00","4.1","","-1.9","","65","","","","16","","13","","32.2","","100.12","","","","","","NA"
"-84.51","46.49","SAULT STE MARIE A","6057591","2020-11-22 13:00","2020","11","22","13:00","4.6","","-1.6","","64","","","","15","","14","","32.2","","99.99","","","","","","Mainly Clear"
"-84.51","46.49","SAULT STE MARIE A","6057591","2020-11-22 14:00","2020","11","22","14:00","4.3","","-1.9","","64","","","","14","","11","","32.2","","99.89","","","","","","NA"
"-84.51","46.49","SAULT STE MARIE A","6057591","2020-11-22 15:00","2020","11","22","15:00","4.6","","-2.7","","59","","","","14","","15","","32.2","","99.77","","","","","","NA"
"-84.51","46.49","SAULT STE MARIE A","6057591","2020-11-22 16:00","2020","11","22","16:00","3.9","","-2.8","","62","","","","15","","11","","32.2","","99.71","","","","","","Mostly Cloudy"
"-84.51","46.49","SAULT STE MARIE A","6057591","2020-11-22 17:00","2020","11","22","17:00","3.0","","-3.0","","65","","","","15","","8","","32.2","","99.66","","","","","","NA"
"-84.51","46.49","SAULT STE MARIE A","6057591","2020-11-22 18:00","2020","11","22","18:00","2.3","","-2.4","","71","","","","14","","7","","32.2","","99.63","","","","","","NA"
"-84.51","46.49","SAULT STE MARIE A","6057591","2020-11-22 19:00","2020","11","22","19:00","2.0","","-1.6","","77","","","","12","","7","","32.2","","99.59","","","","","","Cloudy"
"-84.51","46.49","SAULT STE MARIE A","6057591","2020-11-22 20:00","2020","11","22","20:00","2.1","","-1.3","","78","","","","12","","4","","24.1","","99.53","","","","","","NA"
"-84.51","46.49","SAULT STE MARIE A","6057591","2020-11-22 21:00","2020","11","22","21:00","2.1","","-1.3","","78","","","","13","","6","","24.1","","99.46","","","","","","NA"
"-84.51","46.49","SAULT STE MARIE A","6057591","2020-11-22 22:00","2020","11","22","22:00","2.2","","-1.4","","77","","","","15","","8","","24.1","","99.41","","","","","","Cloudy"
"-84.51","46.49","SAULT STE MARIE A","6057591","2020-11-22 23:00","2020","11","22","23:00","1.7","","-1.1","","82","","","","17","","9","","6.4","","99.38","","","","","","Snow Showers"
"-84.51","46.49","SAULT STE MARIE A","6057591","2020-11-23 00:00","2020","11","23","00:00","0.7","","-0.1","","94","","","","15","","6","","3.2","","99.32","","","","","","Snow Showers"
"-84.51","46.49","SAULT STE MARIE A","6057591","2020-11-23 01:00","2020","11","23","01:00","0.6","","0.0","","95","","","","11","","6","","3.2","","99.25","","","","","","Snow Showers,Fog"
"-84.51","46.49","SAULT STE MARIE A","6057591","2020-11-23 02:00","2020","11","23","02:00","0.5","","-0.1","","96","","","","8","","7","","4.8","","99.21","","","","","","Snow Showers,Fog"
"-84.51","46.49","SAULT STE MARIE A","6057591","2020-11-23 03:00","2020","11","23","03:00","0.2","","-0.3","","96","","","","1","","8","","2.4","","99.23","","","","","","Snow Showers,Fog"
"-84.51","46.49","SAULT STE MARIE A","6057591","2020-11-23 04:00","2020","11","23","04:00","0.1","","-0.4","","97","","","","36","","2","","3.2","","99.24","","","","","","Snow Showers,Fog"
"-84.51","46.49","SAULT STE MARIE A","6057591","2020-11-23 05:00","2020","11","23","05:00","0.2","","-0.2","","97","","","","36","","5","","11.3","","99.24","","","","","","Snow Showers"
"-84.51","46.49","SAULT STE MARIE A","6057591","2020-11-23 06:00","2020","11","23","06:00","2.0","","0.8","","92","","","","27","","22","","16.1","","99.29","","","","","","Rain Showers,Snow Showers"
"-84.51","46.49","SAULT STE MARIE A","6057591","2020-11-23 07:00","2020","11","23","07:00","1.3","","0.6","","95","","","","31","","10","","9.7","","99.35","","","","","","Rain Showers"
"-84.51","46.49","SAULT STE MARIE A","6057591","2020-11-23 08:00","2020","11","23","08:00","2.3","","0.8","","90","","","","30","","30","","12.9","","99.40","","","","","","Rain Showers"
"-84.51","46.49","SAULT STE MARIE A","6057591","2020-11-23 09:00","2020","11","23","09:00","0.6","","-1.6","","85","","","","29","","46","","16.1","","99.55","","","","","","Rain Showers,Snow Showers"
"-84.51","46.49","SAULT STE MARIE A","6057591","2020-11-23 10:00","2020","11","23","10:00","0.2","","-2.1","","84","","","","30","","47","","24.1","","99.68","","","","","","Snow Showers"
"-84.51","46.49","SAULT STE MARIE A","6057591","2020-11-23 11:00","2020","11","23","11:00","0.0","","-3.6","","77","","","","32","","46","","32.2","","99.77","","","","-8","","NA"
"-84.51","46.49","SAULT STE MARIE A","6057591","2020-11-23 12:00","2020","11","23","12:00","-0.4","","-4.4","","74","","","","32","","50","","32.2","","99.84","","","","-9","","NA"
"-84.51","46.49","SAULT STE MARIE A","6057591","2020-11-23 13:00","2020","11","23","13:00","-0.9","","-4.6","","76","","","","31","","41","","40.2","","99.92","","","","-9","","Mostly Cloudy"
"-84.51","46.49","SAULT STE MARIE A","6057591","2020-11-23 14:00","2020","11","23","14:00","-1.8","","-5.4","","76","","","","32","","34","","32.2","","100.01","","","","-9","","NA"
"-84.51","46.49","SAULT STE MARIE A","6057591","2020-11-23 15:00","2020","11","23","15:00","-2.5","","-6.2","","75","","","","32","","39","","32.2","","100.10","","","","-11","","NA"
"-84.51","46.49","SAULT STE MARIE A","6057591","2020-11-23 16:00","2020","11","23","16:00","-3.1","","-7.0","","75","","","","33","","26","","32.2","","100.20","","","","-10","","Cloudy"
"-84.51","46.49","SAULT STE MARIE A","6057591","2020-11-23 17:00","2020","11","23","17:00","-3.6","","-7.2","","76","","","","33","","19","","32.2","","100.26","","","","-10","","NA"
"-84.51","46.49","SAULT STE MARIE A","6057591","2020-11-23 18:00","2020","11","23","18:00","-3.7","","-7.5","","75","","","","33","","24","","32.2","","100.33","","","","-11","","Snow Showers"
"-84.51","46.49","SAULT STE MARIE A","6057591","2020-11-23 19:00","2020","11","23","19:00","-3.9","","-8.0","","73","","","","33","","14","","32.2","","100.40","","","","-9","","Cloudy"
"-84.51","46.49","SAULT STE MARIE A","6057591","2020-11-23 20:00","2020","11","23","20:00","-4.1","","-8.0","","74","","","","33","","14","","24.1","","100.45","","","","-9","","Snow Showers"
"-84.51","46.49","SAULT STE MARIE A","6057591","2020-11-23 21:00","2020","11","23","21:00","-4.3","","-8.3","","74","","","","35","","18","","24.1","","100.45","","","","-10","","Snow Showers"
"-84.51","46.49","SAULT STE MARIE A","6057591","2020-11-23 22:00","2020","11","23","22:00","-4.5","","-8.5","","74","","","","1","","11","","24.1","","100.48","","","","-9","","Snow Showers"
"-84.51","46.49","SAULT STE MARIE A","6057591","2020-11-23 23:00","2020","11","23","23:00","-5.1","","-8.6","","77","","","","4","","9","","24.1","","100.50","","","","-9","","Snow Showers"
"-84.51","46.49","SAULT STE MARIE A","6057591","2020-11-24 00:00","2020","11","24","00:00","-5.4","","-8.8","","77","","","","5","","11","","24.1","","100.51","","","","-10","","NA"
"-84.51","46.49","SAULT STE MARIE A","6057591","2020-11-24 01:00","2020","11","24","01:00","-6.2","","-9.1","","80","","","","5","","12","","24.1","","100.50","","","","-11","","Cloudy"
"-84.51","46.49","SAULT STE MARIE A","6057591","2020-11-24 02:00","2020","11","24","02:00","-6.8","","-9.6","","80","","","","7","","13","","24.1","","100.52","","","","-12","","NA"
"-84.51","46.49","SAULT STE MARIE A","6057591","2020-11-24 03:00","2020","11","24","03:00","-7.1","","-10.1","","79","","","","10","","8","","24.1","","100.54","","","","-11","","NA"
"-84.51","46.49","SAULT STE MARIE A","6057591","2020-11-24 04:00","2020","11","24","04:00","-7.0","","-10.0","","79","","","","9","","12","","24.1","","100.56","","","","-12","","Cloudy"
"-84.51","46.49","SAULT STE MARIE A","6057591","2020-11-24 05:00","2020","11","24","05:00","-7.2","","-10.0","","81","","","","9","","12","","32.2","","100.56","","","","-13","","NA"
"-84.51","46.49","SAULT STE MARIE A","6057591","2020-11-24 06:00","2020","11","24","06:00","-7.3","","-10.0","","81","","","","9","","14","","24.1","","100.54","","","","-13","","Snow"
"-84.51","46.49","SAULT STE MARIE A","6057591","2020-11-24 07:00","2020","11","24","07:00","-7.3","","-9.8","","83","","","","9","","15","","24.1","","100.54","","","","-13","","Snow"
"-84.51","46.49","SAULT STE MARIE A","6057591","2020-11-24 08:00","2020","11","24","08:00","-7.5","","-9.8","","83","","","","9","","13","","24.1","","100.51","","","","-13","","NA"
"-84.51","46.49","SAULT STE MARIE A","6057591","2020-11-24 09:00","2020","11","24","09:00","-6.8","","-9.3","","82","","","","11","","13","","24.1","","100.53","","","","-12","","NA"
"-84.51","46.49","SAULT STE MARIE A","6057591","2020-11-24 10:00","2020","11","24","10:00","-6.2","","-9.0","","81","","","","10","","14","","32.2","","100.50","","","","-12","","Mostly Cloudy"
"-84.51","46.49","SAULT STE MARIE A","6057591","2020-11-24 11:00","2020","11","24","11:00","-6.0","","-8.5","","83","","","","10","","15","","32.2","","100.43","","","","-12","","NA"
"-84.51","46.49","SAULT STE MARIE A","6057591","2020-11-24 12:00","2020","11","24","12:00","-6.1","","-8.7","","82","","","","9","","20","","32.2","","100.31","","","","-13","","NA"
"-84.51","46.49","SAULT STE MARIE A","6057591","2020-11-24 13:00","2020","11","24","13:00","-5.4","","-7.8","","83","","","","8","","25","","40.2","","100.16","","","","-13","","Cloudy"
"-84.51","46.49","SAULT STE MARIE A","6057591","2020-11-24 14:00","2020","11","24","14:00","-4.6","","-6.9","","84","","","","10","","18","","40.2","","100.09","","","","-11","","NA"
"-84.51","46.49","SAULT STE MARIE A","6057591","2020-11-24 15:00","2020","11","24","15:00","-3.6","","-5.7","","85","","","","10","","15","","32.2","","99.95","","","","-9","","NA"
"-84.51","46.49","SAULT STE MARIE A","6057591","2020-11-24 16:00","2020","11","24","16:00","-3.5","","-5.4","","86","","","","10","","17","","40.2","","99.90","","","","-9","","Cloudy"
"-84.51","46.49","SAULT STE MARIE A","6057591","2020-11-24 17:00","2020","11","24","17:00","-3.2","","-5.1","","87","","","","9","","17","","40.2","","99.84","","","","-9","","NA"
"-84.51","46.49","SAULT STE MARIE A","6057591","2020-11-24 18:00","2020","11","24","18:00","-2.2","","-3.9","","89","","","","8","","14","","32.2","","99.75","","","","-7","","Snow Showers"
"-84.51","46.49","SAULT STE MARIE A","6057591","2020-11-24 19:00","2020","11","24","19:00","-1.4","","-3.0","","89","","","","11","","10","","24.1","","99.66","","","","-5","","Snow Showers"
"-84.51","46.49","SAULT STE MARIE A","6057591","2020-11-24 20:00","2020","11","24","20:00","-1.2","","-2.3","","92","","","","10","","13","","6.4","","99.60","","","","-5","","Snow Showers"
"-84.51","46.49","SAULT STE MARIE A","6057591","2020-11-24 21:00","2020","11","24","21:00","-1.2","","-2.1","","94","","","","9","","15","","4.8","","99.50","","","","-6","","Snow Showers"
"-84.51","46.49","SAULT STE MARIE A","6057591","2020-11-24 22:00","2020","11","24","22:00","-0.6","","-1.3","","95","","","","10","","14","","4.8","","99.36","","","","-5","","Snow Showers"
"-84.51","46.49","SAULT STE MARIE A","6057591","2020-11-24 23:00","2020","11","24","23:00","-0.4","","-1.0","","96","","","","9","","10","","4.8","","99.32","","","","-4","","Snow Showers"
"-84.51","46.49","SAULT STE MARIE A","6057591","2020-11-25 00:00","2020","11","25","00:00","-0.2","","-0.8","","96","","","","8","","10","","4.0","","99.27","","","","-4","","Snow"
"-84.51","46.49","SAULT STE MARIE A","6057591","2020-11-25 01:00","2020","11","25","01:00","0.3","","-0.2","","96","","","","10","","8","","4.8","","99.16","","","","","","Snow"
"-84.51","46.49","SAULT STE MARIE A","6057591","2020-11-25 02:00","2020","11","25","02:00","0.4","","-0.1","","96","","","","12","","6","","8.1","","99.10","","","","","","Snow"
"-84.51","46.49","SAULT STE MARIE A","6057591","2020-11-25 03:00","2020","11","25","03:00","0.4","","-0.1","","96","","","","9","","8","","8.1","","99.06","","","","","","Fog"
"-84.51","46.49","SAULT STE MARIE A","6057591","2020-11-25 04:00","2020","11","25","04:00","0.6","","0.0","","96","","","","9","","9","","8.1","","99.04","","","","","","Fog"
"-84.51","46.49","SAULT STE MARIE A","6057591","2020-11-25 05:00","2020","11","25","05:00","0.5","","-0.1","","96","","","","9","","6","","8.1","","99.03","","","","","","Fog"
"-84.51","46.49","SAULT STE MARIE A","6057591","2020-11-25 06:00","2020","11","25","06:00","0.7","","0.1","","96","","","","9","","6","","6.4","","99.02","","","","","","Fog"
"-84.51","46.49","SAULT STE MARIE A","6057591","2020-11-25 07:00","2020","11","25","07:00","0.6","","0.0","","96","","","","8","","4","","8.1","","99.02","","","","","","Fog"
"-84.51","46.49","SAULT STE MARIE A","6057591","2020-11-25 08:00","2020","11","25","08:00","0.8","","0.3","","96","","","","7","","6","","9.7","","99.07","","","","","","Fog"
"-84.51","46.49","SAULT STE MARIE A","6057591","2020-11-25 09:00","2020","11","25","09:00","1.1","","0.4","","95","","","","9","","4","","12.9","","99.11","","","","","","NA"
"-84.51","46.49","SAULT STE MARIE A","6057591","2020-11-25 10:00","2020","11","25","10:00","1.1","","0.6","","96","","","","10","","5","","4.0","","99.11","","","","","","Fog"
"-84.51","46.49","SAULT STE MARIE A","6057591","2020-11-25 11:00","2020","11","25","11:00","1.7","","1.1","","96","","","","8","","4","","12.9","","99.12","","","","","","NA"
"-84.51","46.49","SAULT STE MARIE A","6057591","2020-11-25 12:00","2020","11","25","12:00","2.3","","1.4","","94","","","","6","","8","","11.3","","99.08","","","","","","NA"
"-84.51","46.49","SAULT STE MARIE A","6057591","2020-11-25 13:00","2020","11","25","13:00","3.0","","2.1","","94","","","","5","","10","","11.3","","99.07","","","","","","Mostly Cloudy"
"-84.51","46.49","SAULT STE MARIE A","6057591","2020-11-25 14:00","2020","11","25","14:00","2.9","","1.8","","93","","","","6","","14","","12.9","","99.02","","","","","","NA"
"-84.51","46.49","SAULT STE MARIE A","6057591","2020-11-25 15:00","2020","11","25","15:00","2.9","","1.9","","93","","","","7","","10","","12.9","","98.99","","","","","","NA"
"-84.51","46.49","SAULT STE MARIE A","6057591","2020-11-25 16:00","2020","11","25","16:00","2.6","","1.5","","93","","","","6","","8","","16.1","","98.98","","","","","","Mostly Cloudy"
"-84.51","46.49","SAULT STE MARIE A","6057591","2020-11-25 17:00","2020","11","25","17:00","2.7","","1.4","","91","","","","10","","9","","24.1","","99.03","","","","","","NA"
"-84.51","46.49","SAULT STE MARIE A","6057591","2020-11-25 18:00","2020","11","25","18:00","2.4","","1.2","","92","","","","8","","13","","24.1","","99.03","","","","","","NA"
"-84.51","46.49","SAULT STE MARIE A","6057591","2020-11-25 19:00","2020","11","25","19:00","2.2","","0.8","","91","","","","8","","9","","32.2","","99.04","","","","","","Cloudy"
"-84.51","46.49","SAULT STE MARIE A","6057591","2020-11-25 20:00","2020","11","25","20:00","2.0","","0.7","","91","","","","8","","8","","32.2","","99.05","","","","","","NA"
"-84.51","46.49","SAULT STE MARIE A","6057591","2020-11-25 21:00","2020","11","25","21:00","2.1","","0.5","","89","","","","7","","13","","32.2","","98.97","","","","","","NA"
"-84.51","46.49","SAULT STE MARIE A","6057591","2020-11-25 22:00","2020","11","25","22:00","2.2","","0.6","","89","","","","6","","13","","32.2","","98.92","","","","","","Cloudy"
"-84.51","46.49","SAULT STE MARIE A","6057591","2020-11-25 23:00","2020","11","25","23:00","1.8","","0.5","","91","","","","6","","11","","32.2","","98.89","","","","","","NA"
"-84.51","46.49","SAULT STE MARIE A","6057591","2020-11-26 00:00","2020","11","26","00:00","1.8","","0.1","","89","","","","5","","10","","32.2","","98.85","","","","","","NA"
"-84.51","46.49","SAULT STE MARIE A","6057591","2020-11-26 01:00","2020","11","26","01:00","1.7","","0.3","","90","","","","6","","5","","32.2","","98.80","","","","","","Cloudy"
"-84.51","46.49","SAULT STE MARIE A","6057591","2020-11-26 02:00","2020","11","26","02:00","1.5","","0.8","","95","","","","1","","3","","8.1","","98.78","","","","","","Drizzle,Fog"
"-84.51","46.49","SAULT STE MARIE A","6057591","2020-11-26 03:00","2020","11","26","03:00","1.5","","1.1","","97","","","","36","","2","","4.0","","98.77","","","","","","Drizzle,Fog"
"-84.51","46.49","SAULT STE MARIE A","6057591","2020-11-26 04:00","2020","11","26","04:00","1.4","","1.1","","97","","","","9","","3","","12.9","","98.71","","","","","","Cloudy"
"-84.51","46.49","SAULT STE MARIE A","6057591","2020-11-26 05:00","2020","11","26","05:00","1.7","","1.4","","98","","","","31","","5","","19.3","","98.71","","","","","","NA"
"-84.51","46.49","SAULT STE MARIE A","6057591","2020-11-26 06:00","2020","11","26","06:00","1.6","","1.2","","97","","","","9","","4","","19.3","","98.68","","","","","","NA"
"-84.51","46.49","SAULT STE MARIE A","6057591","2020-11-26 07:00","2020","11","26","07:00","1.8","","1.4","","98","","","","0","","1","","16.1","","98.71","","","","","","Cloudy"
"-84.51","46.49","SAULT STE MARIE A","6057591","2020-11-26 08:00","2020","11","26","08:00","1.6","","1.3","","98","","","","36","","1","","12.9","","98.75","","","","","","NA"
"-84.51","46.49","SAULT STE MARIE A","6057591","2020-11-26 09:00","2020","11","26","09:00","2.5","","2.2","","98","","","","36","","1","","16.1","","98.76","","","","","","Drizzle"
"-84.51","46.49","SAULT STE MARIE A","6057591","2020-11-26 10:00","2020","11","26","10:00","3.6","","2.7","","94","","","","27","","15","","32.2","","98.79","","","","","","Cloudy"
"-84.51","46.49","SAULT STE MARIE A","6057591","2020-11-26 11:00","2020","11","26","11:00","3.7","","1.8","","87","","","","24","","12","","40.2","","98.81","","","","","","NA"
"-84.51","46.49","SAULT STE MARIE A","6057591","2020-11-26 12:00","2020","11","26","12:00","4.0","","1.8","","86","","","","18","","8","","56.3","","98.73","","","","","","NA"
"-84.51","46.49","SAULT STE MARIE A","6057591","2020-11-26 13:00","2020","11","26","13:00","4.5","","1.6","","82","","","","15","","7","","40.2","","98.68","","","","","","Cloudy"
"-84.51","46.49","SAULT STE MARIE A","6057591","2020-11-26 14:00","2020","11","26","14:00","4.7","","1.4","","79","","","","19","","9","","24.1","","98.66","","","","","","NA"
"-84.51","46.49","SAULT STE MARIE A","6057591","2020-11-26 15:00","2020","11","26","15:00","4.5","","2.0","","84","","","","20","","8","","32.2","","98.69","","","","","","NA"
"-84.51","46.49","SAULT STE MARIE A","6057591","2020-11-26 16:00","2020","11","26","16:00","4.4","","2.7","","89","","","","14","","4","","40.2","","98.69","","","","","","Mostly Cloudy"
"-84.51","46.49","SAULT STE MARIE A","6057591","2020-11-26 17:00","2020","11","26","17:00","5.4","","2.2","","80","","","","24","","22","","40.2","","98.76","","","","","","NA"
"-84.51","46.49","SAULT STE MARIE A","6057591","2020-11-26 18:00","2020","11","26","18:00","4.8","","1.2","","78","","","","24","","20","","40.2","","98.84","","","","","","NA"
"-84.51","46.49","SAULT STE MARIE A","6057591","2020-11-26 19:00","2020","11","26","19:00","4.3","","1.0","","79","","","","24","","17","","40.2","","98.91","","","","","","Cloudy"
"-84.51","46.49","SAULT STE MARIE A","6057591","2020-11-26 20:00","2020","11","26","20:00","4.1","","0.6","","78","","","","23","","17","","40.2","","98.98","","","","","","NA"
"-84.51","46.49","SAULT STE MARIE A","6057591","2020-11-26 21:00","2020","11","26","21:00","3.6","","0.6","","81","","","","24","","20","","40.2","","99.02","","","","","","NA"
"-84.51","46.49","SAULT STE MARIE A","6057591","2020-11-26 22:00","2020","11","26","22:00","3.4","","0.1","","79","","","","25","","16","","40.2","","99.08","","","","","","Cloudy"
"-84.51","46.49","SAULT STE MARIE A","6057591","2020-11-26 23:00","2020","11","26","23:00","3.1","","-0.4","","78","","","","26","","18","","40.2","","99.09","","","","","","NA"
"-84.51","46.49","SAULT STE MARIE A","6057591","2020-11-27 00:00","2020","11","27","00:00","3.0","","0.0","","81","","","","26","","18","","32.2","","99.13","","","","","","NA"
"-84.51","46.49","SAULT STE MARIE A","6057591","2020-11-27 01:00","2020","11","27","01:00","2.8","","0.5","","84","","","","26","","16","","16.1","","99.16","","","","","","Rain Showers"
"-84.51","46.49","SAULT STE MARIE A","6057591","2020-11-27 02:00","2020","11","27","02:00","3.0","","0.5","","84","","","","27","","16","","24.1","","99.19","","","","","","NA"
"-84.51","46.49","SAULT STE MARIE A","6057591","2020-11-27 03:00","2020","11","27","03:00","2.8","","0.2","","83","","","","26","","16","","24.1","","99.22","","","","","","NA"
"-84.51","46.49","SAULT STE MARIE A","6057591","2020-11-27 04:00","2020","11","27","04:00","2.5","","-0.1","","82","","","","25","","15","","24.1","","99.23","","","","","","Cloudy"
"-84.51","46.49","SAULT STE MARIE A","6057591","2020-11-27 05:00","2020","11","27","05:00","2.4","","-0.4","","81","","","","25","","14","","24.1","","99.25","","","","","","NA"
"-84.51","46.49","SAULT STE MARIE A","6057591","2020-11-27 06:00","2020","11","27","06:00","2.4","","-0.9","","79","","","","25","","15","","24.1","","99.28","","","","","","NA"
"-84.51","46.49","SAULT STE MARIE A","6057591","2020-11-27 07:00","2020","11","27","07:00","2.3","","-1.4","","77","","","","25","","13","","24.1","","99.29","","","","","","Cloudy"
"-84.51","46.49","SAULT STE MARIE A","6057591","2020-11-27 08:00","2020","11","27","08:00","2.2","","-1.8","","75","","","","25","","13","","24.1","","99.28","","","","","","NA"
"-84.51","46.49","SAULT STE MARIE A","6057591","2020-11-27 09:00","2020","11","27","09:00","3.0","","-2.1","","69","","","","25","","9","","32.2","","99.28","","","","","","NA"
"-84.51","46.49","SAULT STE MARIE A","6057591","2020-11-27 10:00","2020","11","27","10:00","2.6","","-2.9","","67","","","","22","","11","","32.2","","99.26","","","","","","Mostly Cloudy"
"-84.51","46.49","SAULT STE MARIE A","6057591","2020-11-27 11:00","2020","11","27","11:00","3.2","","-1.9","","69","","","","24","","10","","32.2","","99.24","","","","","","NA"
"-84.51","46.49","SAULT STE MARIE A","6057591","2020-11-27 12:00","2020","11","27","12:00","3.7","","-2.2","","65","","","","24","","9","","32.2","","99.16","","","","","","NA"
"-84.51","46.49","SAULT STE MARIE A","6057591","2020-11-27 13:00","2020","11","27","13:00","4.3","","-2.2","","63","","","","23","","14","","32.2","","99.09","","","","","","Mostly Cloudy"
"-84.51","46.49","SAULT STE MARIE A","6057591","2020-11-27 14:00","2020","11","27","14:00","4.3","","-2.3","","62","","","","22","","17","","32.2","","99.05","","","","","","NA"
"-84.51","46.49","SAULT STE MARIE A","6057591","2020-11-27 15:00","2020","11","27","15:00","4.2","","-2.1","","63","","","","23","","17","","32.2","","99.04","","","","","","NA"
"-84.51","46.49","SAULT STE MARIE A","6057591","2020-11-27 16:00","2020","11","27","16:00","3.8","","-2.6","","63","","","","24","","15","","32.2","","99.04","","","","","","Cloudy"
"-84.51","46.49","SAULT STE MARIE A","6057591","2020-11-27 17:00","2020","11","27","17:00","3.2","","-2.8","","65","","","","25","","18","","32.2","","99.07","","","","","","NA"
"-84.51","46.49","SAULT STE MARIE A","6057591","2020-11-27 18:00","2020","11","27","18:00","2.8","","-2.8","","67","","","","26","","19","","24.1","","99.11","","","","","","Snow"
"-84.51","46.49","SAULT STE MARIE A","6057591","2020-11-27 19:00","2020","11","27","19:00","2.0","","-1.7","","76","","","","28","","21","","24.1","","99.14","","","","","","Rain,Snow"
"-84.51","46.49","SAULT STE MARIE A","6057591","2020-11-27 20:00","2020","11","27","20:00","1.9","","-2.2","","74","","","","26","","19","","16.1","","99.15","","","","","","Snow"
"-84.51","46.49","SAULT STE MARIE A","6057591","2020-11-27 21:00","2020","11","27","21:00","1.7","","-0.4","","86","","","","29","","20","","9.7","","99.11","","","","","","Snow"
"-84.51","46.49","SAULT STE MARIE A","6057591","2020-11-27 22:00","2020","11","27","22:00","1.0","","-1.5","","83","","","","27","","19","","24.1","","99.10","","","","","","Mostly Cloudy"
"-84.51","46.49","SAULT STE MARIE A","6057591","2020-11-27 23:00","2020","11","27","23:00","1.3","","-2.1","","78","","","","26","","22","","24.1","","99.10","","","","","","Snow Showers"
"-84.51","46.49","SAULT STE MARIE A","6057591","2020-11-28 00:00","2020","11","28","00:00","1.6","","-2.9","","72","","","","27","","30","","24.1","","99.09","","","","","","NA"
"-84.51","46.49","SAULT STE MARIE A","6057591","2020-11-28 01:00","2020","11","28","01:00","2.0","","-5.7","","57","","","","26","","31","","24.1","","99.14","","","","","","Mostly Cloudy"
"-84.51","46.49","SAULT STE MARIE A","6057591","2020-11-28 02:00","2020","11","28","02:00","0.9","","-5.2","","64","","","","25","","20","","24.1","","99.07","","","","","","NA"
"-84.51","46.49","SAULT STE MARIE A","6057591","2020-11-28 03:00","2020","11","28","03:00","-0.6","","-5.0","","72","","","","25","","17","","24.1","","99.08","","","","-6","","NA"
"-84.51","46.49","SAULT STE MARIE A","6057591","2020-11-28 04:00","2020","11","28","04:00","-0.4","","-5.3","","70","","","","25","","24","","24.1","","99.05","","","","-6","","Mainly Clear"
"-84.51","46.49","SAULT STE MARIE A","6057591","2020-11-28 05:00","2020","11","28","05:00","-1.0","","-5.6","","71","","","","24","","18","","24.1","","98.99","","","","-6","","NA"
"-84.51","46.49","SAULT STE MARIE A","6057591","2020-11-28 06:00","2020","11","28","06:00","-1.4","","-5.7","","73","","","","22","","9","","24.1","","99.02","","","","-5","","NA"
"-84.51","46.49","SAULT STE MARIE A","6057591","2020-11-28 07:00","2020","11","28","07:00","-0.6","","-5.5","","69","","","","24","","15","","32.2","","98.99","","","","-5","","Mostly Cloudy"
"-84.51","46.49","SAULT STE MARIE A","6057591","2020-11-28 08:00","2020","11","28","08:00","-0.9","","-5.1","","73","","","","36","","3","","24.1","","98.93","","","","-2","","NA"
"-84.51","46.49","SAULT STE MARIE A","6057591","2020-11-28 09:00","2020","11","28","09:00","-0.2","","-4.4","","74","","","","20","","5","","32.2","","98.90","","","","-2","","NA"
"-84.51","46.49","SAULT STE MARIE A","6057591","2020-11-28 10:00","2020","11","28","10:00","0.7","","-3.7","","73","","","","12","","4","","32.2","","98.86","","","","","","Mostly Cloudy"
"-84.51","46.49","SAULT STE MARIE A","6057591","2020-11-28 11:00","2020","11","28","11:00","3.4","","-1.9","","68","","","","25","","4","","32.2","","98.86","","","","","","NA"
"-84.51","46.49","SAULT STE MARIE A","6057591","2020-11-28 12:00","2020","11","28","12:00","5.8","","-0.1","","66","","","","25","","18","","32.2","","98.78","","","","","","NA"
"-84.51","46.49","SAULT STE MARIE A","6057591","2020-11-28 13:00","2020","11","28","13:00","5.5","","-1.0","","63","","","","30","","18","","32.2","","98.73","","","","","","Mostly Cloudy"
"-84.51","46.49","SAULT STE MARIE A","6057591","2020-11-28 14:00","2020","11","28","14:00","6.5","","-1.1","","58","","","","31","","18","","32.2","","98.66","","","","","","NA"
"-84.51","46.49","SAULT STE MARIE A","6057591","2020-11-28 15:00","2020","11","28","15:00","6.5","","-1.8","","55","","","","31","","15","","32.2","","98.68","","","","","","NA"
"-84.51","46.49","SAULT STE MARIE A","6057591","2020-11-28 16:00","2020","11","28","16:00","6.2","","-2.2","","55","","","","34","","8","","32.2","","98.72","","","","","","Mainly Clear"
"-84.51","46.49","SAULT STE MARIE A","6057591","2020-11-28 17:00","2020","11","28","17:00","2.3","","-2.7","","70","","","","31","","4","","32.2","","98.74","","","","","","NA"
"-84.51","46.49","SAULT STE MARIE A","6057591","2020-11-28 18:00","2020","11","28","18:00","-0.5","","-3.1","","82","","","","7","","5","","32.2","","98.74","","","","-2","","NA"
"-84.51","46.49","SAULT STE MARIE A","6057591","2020-11-28 19:00","2020","11","28","19:00","-2.2","","-4.3","","86","","","","36","","2","","24.1","","98.80","","","","-3","","Mainly Clear"
"-84.51","46.49","SAULT STE MARIE A","6057591","2020-11-28 20:00","2020","11","28","20:00","-2.5","","-4.2","","89","","","","8","","3","","32.2","","98.78","","","","-4","","NA"
"-84.51","46.49","SAULT STE MARIE A","6057591","2020-11-28 21:00","2020","11","28","21:00","-3.0","","-4.3","","91","","","","0","","1","","32.2","","98.79","","","","-3","","NA"
"-84.51","46.49","SAULT STE MARIE A","6057591","2020-11-28 22:00","2020","11","28","22:00","-2.9","","-3.8","","94","","","","4","","7","","32.2","","98.81","","","","-6","","Mainly Clear"
"-84.51","46.49","SAULT STE MARIE A","6057591","2020-11-28 23:00","2020","11","28","23:00","-2.9","","-3.7","","94","","","","9","","5","","32.2","","98.80","","","","-5","","NA"
"-84.51","46.49","SAULT STE MARIE A","6057591","2020-11-29 00:00","2020","11","29","00:00","-1.9","","-2.6","","95","","","","8","","7","","32.2","","98.78","","","","-5","","NA"
"-84.51","46.49","SAULT STE MARIE A","6057591","2020-11-29 01:00","2020","11","29","01:00","-0.6","","-1.5","","94","","","","8","","8","","24.1","","98.74","","","","-3","","Mostly Cloudy"
"-84.51","46.49","SAULT STE MARIE A","6057591","2020-11-29 02:00","2020","11","29","02:00","-1.4","","-2.3","","94","","","","7","","9","","24.1","","98.71","","","","-5","","NA"
"-84.51","46.49","SAULT STE MARIE A","6057591","2020-11-29 03:00","2020","11","29","03:00","-1.2","","-2.1","","94","","","","7","","8","","24.1","","98.68","","","","-4","","NA"
"-84.51","46.49","SAULT STE MARIE A","6057591","2020-11-29 04:00","2020","11","29","04:00","-1.5","","-2.1","","95","","","","6","","7","","9.7","","98.63","","","","-4","","Fog"
"-84.51","46.49","SAULT STE MARIE A","6057591","2020-11-29 05:00","2020","11","29","05:00","-1.6","","-2.2","","96","","","","36","","3","","9.7","","98.63","","","","-3","","Fog"
"-84.51","46.49","SAULT STE MARIE A","6057591","2020-11-29 06:00","2020","11","29","06:00","-1.4","","-2.0","","96","","","","9","","5","","6.4","","98.61","","","","-3","","Fog"
"-84.51","46.49","SAULT STE MARIE A","6057591","2020-11-29 07:00","2020","11","29","07:00","-2.0","","-2.5","","97","","","","7","","7","","16.1","","98.59","","","","-5","","Mainly Clear"
"-84.51","46.49","SAULT STE MARIE A","6057591","2020-11-29 08:00","2020","11","29","08:00","-3.1","","-3.5","","97","","","","7","","6","","12.9","","98.58","","","","-6","","NA"
"-84.51","46.49","SAULT STE MARIE A","6057591","2020-11-29 09:00","2020","11","29","09:00","-1.3","","-1.7","","97","","","","7","","6","","11.3","","98.60","","","","-4","","NA"
"-84.51","46.49","SAULT STE MARIE A","6057591","2020-11-29 10:00","2020","11","29","10:00","1.3","","1.0","","98","","","","7","","6","","4.8","","98.59","","","","","","Fog"
"-84.51","46.49","SAULT STE MARIE A","6057591","2020-11-29 11:00","2020","11","29","11:00","2.6","","2.3","","98","","","","8","","4","","12.9","","98.60","","","","","","NA"
"-84.51","46.49","SAULT STE MARIE A","6057591","2020-11-29 12:00","2020","11","29","12:00","4.2","","3.3","","94","","","","10","","7","","16.1","","98.52","","","","","","NA"
"-84.51","46.49","SAULT STE MARIE A","6057591","2020-11-29 13:00","2020","11","29","13:00","5.8","","3.9","","88","","","","4","","3","","19.3","","98.50","","","","","","Mostly Cloudy"
"-84.51","46.49","SAULT STE MARIE A","6057591","2020-11-29 14:00","2020","11","29","14:00","5.9","","2.0","","76","","","","31","","23","","32.2","","98.49","","","","","","NA"
"-84.51","46.49","SAULT STE MARIE A","6057591","2020-11-29 15:00","2020","11","29","15:00","5.6","","0.9","","72","","","","31","","17","","32.2","","98.54","","","","","","NA"
"-84.51","46.49","SAULT STE MARIE A","6057591","2020-11-29 16:00","2020","11","29","16:00","4.7","","-0.1","","71","","","","29","","25","","32.2","","98.58","","","","","","Cloudy"
"-84.51","46.49","SAULT STE MARIE A","6057591","2020-11-29 17:00","2020","11","29","17:00","4.4","","-0.2","","72","","","","29","","21","","24.1","","98.62","","","","","","NA"
"-84.51","46.49","SAULT STE MARIE A","6057591","2020-11-29 18:00","2020","11","29","18:00","4.2","","-0.1","","73","","","","27","","22","","24.1","","98.66","","","","","","NA"
"-84.51","46.49","SAULT STE MARIE A","6057591","2020-11-29 19:00","2020","11","29","19:00","3.8","","-0.3","","75","","","","25","","14","","24.1","","98.67","","","","","","Cloudy"
"-84.51","46.49","SAULT STE MARIE A","6057591","2020-11-29 20:00","2020","11","29","20:00","3.6","","-0.6","","74","","","","23","","10","","32.2","","98.64","","","","","","NA"
"-84.51","46.49","SAULT STE MARIE A","6057591","2020-11-29 21:00","2020","11","29","21:00","3.2","","-0.7","","76","","","","23","","12","","32.2","","98.61","","","","","","NA"
"-84.51","46.49","SAULT STE MARIE A","6057591","2020-11-29 22:00","2020","11","29","22:00","2.6","","0.6","","86","","","","25","","7","","32.2","","98.64","","","","","","Cloudy"
"-84.51","46.49","SAULT STE MARIE A","6057591","2020-11-29 23:00","2020","11","29","23:00","2.8","","1.4","","90","","","","26","","14","","32.2","","98.68","","","","","","NA"
"-84.51","46.49","SAULT STE MARIE A","6057591","2020-11-30 00:00","2020","11","30","00:00","2.8","","0.5","","85","","","","1","","21","","32.2","","98.71","","","","","","NA"
"-84.51","46.49","SAULT STE MARIE A","6057591","2020-11-30 01:00","2020","11","30","01:00","0.5","","-2.1","","83","","","","34","","19","","24.1","","98.88","","","","","","Snow"
"-84.51","46.49","SAULT STE MARIE A","6057591","2020-11-30 02:00","2020","11","30","02:00","-1.0","","-4.1","","80","","","","34","","21","","24.1","","98.94","","","","-7","","Snow"
"-84.51","46.49","SAULT STE MARIE A","6057591","2020-11-30 03:00","2020","11","30","03:00","-1.9","","-5.8","","75","","","","34","","20","","32.2","","99.05","","","","-8","","NA"
"-84.51","46.49","SAULT STE MARIE A","6057591","2020-11-30 04:00","2020","11","30","04:00","-2.5","","-7.0","","71","","","","1","","25","","32.2","","99.09","","","","-9","","Mostly Cloudy"
"-84.51","46.49","SAULT STE MARIE A","6057591","2020-11-30 05:00","2020","11","30","05:00","-3.0","","-7.3","","72","","","","36","","8","","32.2","","99.09","","","","-6","","NA"
"-84.51","46.49","SAULT STE MARIE A","6057591","2020-11-30 06:00","2020","11","30","06:00","-2.9","","-7.2","","73","","","","36","","23","","32.2","","99.10","","","","-9","","NA"
"-84.51","46.49","SAULT STE MARIE A","6057591","2020-11-30 07:00","2020","11","30","07:00","-3.5","","-8.0","","71","","","","36","","26","","32.2","","99.18","","","","-11","","Mainly Clear"
"-84.51","46.49","SAULT STE MARIE A","6057591","2020-11-30 08:00","2020","11","30","08:00","-4.1","","-8.2","","73","","","","36","","22","","32.2","","99.22","","","","-11","","NA"
"-84.51","46.49","SAULT STE MARIE A","6057591","2020-11-30 09:00","2020","11","30","09:00","-3.7","","-7.9","","73","","","","36","","19","","32.2","","99.25","","","","-10","","NA"
"-84.51","46.49","SAULT STE MARIE A","6057591","2020-11-30 10:00","2020","11","30","10:00","-3.0","","-7.7","","70","","","","35","","23","","32.2","","99.27","","","","-9","","Mostly Cloudy"
"-84.51","46.49","SAULT STE MARIE A","6057591","2020-11-30 11:00","2020","11","30","11:00","-2.8","","-7.7","","69","","","","36","","22","","32.2","","99.28","","","","-9","","NA"
"-84.51","46.49","SAULT STE MARIE A","6057591","2020-11-30 12:00","2020","11","30","12:00","-2.8","","-8.1","","67","","","","1","","26","","32.2","","99.23","","","","-10","","NA"
"-84.51","46.49","SAULT STE MARIE A","6057591","2020-11-30 13:00","2020","11","30","13:00","-2.5","","-8.0","","66","","","","35","","18","","32.2","","99.17","","","","-8","","Mostly Cloudy"
"-84.51","46.49","SAULT STE MARIE A","6057591","2020-11-30 14:00","2020","11","30","14:00","-2.4","","-8.4","","64","","","","35","","20","","32.2","","99.11","","","","-8","","NA"
"-84.51","46.49","SAULT STE MARIE A","6057591","2020-11-30 15:00","2020","11","30","15:00","-2.2","","-9.2","","59","","","","35","","23","","32.2","","99.09","","","","-8","","NA"
"-84.51","46.49","SAULT STE MARIE A","6057591","2020-11-30 16:00","2020","11","30","16:00","-3.4","","-9.1","","65","","","","36","","23","","32.2","","99.11","","","","-10","","Mainly Clear"
"-84.51","46.49","SAULT STE MARIE A","6057591","2020-11-30 17:00","2020","11","30","17:00","-4.0","","-9.3","","67","","","","35","","23","","32.2","","99.15","","","","-11","","NA"
"-84.51","46.49","SAULT STE MARIE A","6057591","2020-11-30 18:00","2020","11","30","18:00","-5.2","","-10.5","","67","","","","36","","16","","32.2","","99.16","","","","-11","","NA"
"-84.51","46.49","SAULT STE MARIE A","6057591","2020-11-30 19:00","2020","11","30","19:00","-5.5","","-10.5","","68","","","","36","","16","","24.1","","99.16","","","","-11","","Mainly Clear"
"-84.51","46.49","SAULT STE MARIE A","6057591","2020-11-30 20:00","2020","11","30","20:00","-5.3","","-10.0","","70","","","","36","","20","","32.2","","99.17","","","","-12","","NA"
"-84.51","46.49","SAULT STE MARIE A","6057591","2020-11-30 21:00","2020","11","30","21:00","-5.4","","-10.5","","68","","","","35","","15","","32.2","","99.12","","","","-11","","NA"
"-84.51","46.49","SAULT STE MARIE A","6057591","2020-11-30 22:00","2020","11","30","22:00","-5.7","","-10.4","","70","","","","36","","17","","32.2","","99.09","","","","-12","","Mainly Clear"
"-84.51","46.49","SAULT STE MARIE A","6057591","2020-11-30 23:00","2020","11","30","23:00","-5.6","","-9.8","","73","","","","35","","8","","32.2","","99.09","","","","-9","","NA"
