"Longitude (x)","Latitude (y)","Station Name","Climate ID","Date/Time (LST)","Year","Month","Day","Time (LST)","Temp (°C)","Temp Flag","Dew Point Temp (°C)","Dew Point Temp Flag","Rel Hum (%)","Rel Hum Flag","Precip. Amount (mm)","Precip. Amount Flag","Wind Dir (10s deg)","Wind Dir Flag","Wind Spd (km/h)","Wind Spd Flag","Visibility (km)","Visibility Flag","Stn Press (kPa)","Stn Press Flag","Hmdx","Hmdx Flag","Wind Chill","Wind Chill Flag","Weather"
"-117.16","58.62","HIGH LEVEL A","3073141","2020-11-01 00:00","2020","11","01","00:00"
"-117.16","58.62","HIGH LEVEL A","3073141","2020-11-01 01:00","2020","11","01","01:00"
"-117.16","58.62","HIGH LEVEL A","3073141","2020-11-01 02:00","2020","11","01","02:00"
"-117.16","58.62","HIGH LEVEL A","3073141","2020-11-01 03:00","2020","11","01","03:00"
"-117.16","58.62","HIGH LEVEL A","3073141","2020-11-01 04:00","2020","11","01","04:00"
"-117.16","58.62","HIGH LEVEL A","3073141","2020-11-01 05:00","2020","11","01","05:00"
"-117.16","58.62","HIGH LEVEL A","3073141","2020-11-01 06:00","2020","11","01","06:00"
"-117.16","58.62","HIGH LEVEL A","3073141","2020-11-01 07:00","2020","11","01","07:00","-3.9","","-4.0","","99","","","","28","","4","","24.1","","96.40","","","","-6","","NA"
"-117.16","58.62","HIGH LEVEL A","3073141","2020-11-01 08:00","2020","11","01","08:00","-3.2","","-3.2","","100","","","","35","","5","","24.1","","96.49","","","","-5","","Cloudy"
"-117.16","58.62","HIGH LEVEL A","3073141","2020-11-01 09:00","2020","11","01","09:00","-4.6","","-4.6","","100","","","","36","","2","","24.1","","96.54","","","","-5","","NA"
"-117.16","58.62","HIGH LEVEL A","3073141","2020-11-01 10:00","2020","11","01","10:00","-2.5","","-2.6","","99","","","","35","","5","","24.1","","96.59","","","","-4","","NA"
"-117.16","58.62","HIGH LEVEL A","3073141","2020-11-01 11:00","2020","11","01","11:00","-0.6","","-1.4","","94","","","","33","","4","","24.1","","96.67","","","","-2","","Mostly Cloudy"
"-117.16","58.62","HIGH LEVEL A","3073141","2020-11-01 12:00","2020","11","01","12:00","1.2","","-0.6","","88","","","","35","","9","","24.1","","96.71","","","","","","NA"
"-117.16","58.62","HIGH LEVEL A","3073141","2020-11-01 13:00","2020","11","01","13:00","1.7","","-0.4","","86","","","","35","","9","","24.1","","96.74","","","","","","NA"
"-117.16","58.62","HIGH LEVEL A","3073141","2020-11-01 14:00","2020","11","01","14:00","1.8","","-0.4","","85","","","","35","","4","","24.1","","96.76","","","","","","Mostly Cloudy"
"-117.16","58.62","HIGH LEVEL A","3073141","2020-11-01 15:00","2020","11","01","15:00","2.0","","-0.4","","84","","","","34","","14","","24.1","","96.77","","","","","","NA"
"-117.16","58.62","HIGH LEVEL A","3073141","2020-11-01 16:00","2020","11","01","16:00","0.6","","-1.2","","88","","","","35","","21","","24.1","","96.79","","","","","","NA"
"-117.16","58.62","HIGH LEVEL A","3073141","2020-11-01 17:00","2020","11","01","17:00","-1.1","","-2.7","","89","","","","36","","21","","24.1","","96.82","","","","-7","","Mostly Cloudy"
"-117.16","58.62","HIGH LEVEL A","3073141","2020-11-01 18:00","2020","11","01","18:00","-2.3","","-4.3","","86","","","","35","","18","","16.1","","96.83","","","","-8","","NA"
"-117.16","58.62","HIGH LEVEL A","3073141","2020-11-01 19:00","2020","11","01","19:00","-3.8","","-5.2","","90","","","","35","","21","","16.1","","96.88","","","","-10","","Snow"
"-117.16","58.62","HIGH LEVEL A","3073141","2020-11-01 20:00","2020","11","01","20:00","-4.7","","-5.7","","93","","","","36","","24","","4.8","","96.86","","","","-12","","Snow,Ice Pellets"
"-117.16","58.62","HIGH LEVEL A","3073141","2020-11-01 21:00","2020","11","01","21:00","-5.3","","-6.3","","93","","","","36","","31","","16.1","","96.82","","","","-14","","Snow"
"-117.16","58.62","HIGH LEVEL A","3073141","2020-11-01 22:00","2020","11","01","22:00","-6.4","","-7.9","","89","","","","36","","21","","16.1","","96.84","","","","-13","","NA"
"-117.16","58.62","HIGH LEVEL A","3073141","2020-11-01 23:00","2020","11","01","23:00"
"-117.16","58.62","HIGH LEVEL A","3073141","2020-11-02 00:00","2020","11","02","00:00"
"-117.16","58.62","HIGH LEVEL A","3073141","2020-11-02 01:00","2020","11","02","01:00"
"-117.16","58.62","HIGH LEVEL A","3073141","2020-11-02 02:00","2020","11","02","02:00"
"-117.16","58.62","HIGH LEVEL A","3073141","2020-11-02 03:00","2020","11","02","03:00"
"-117.16","58.62","HIGH LEVEL A","3073141","2020-11-02 04:00","2020","11","02","04:00"
"-117.16","58.62","HIGH LEVEL A","3073141","2020-11-02 05:00","2020","11","02","05:00"
"-117.16","58.62","HIGH LEVEL A","3073141","2020-11-02 06:00","2020","11","02","06:00"
"-117.16","58.62","HIGH LEVEL A","3073141","2020-11-02 07:00","2020","11","02","07:00","-7.9","","-8.5","","95","","","","34","","18","","9.7","","96.59","","","","-15","","Snow"
"-117.16","58.62","HIGH LEVEL A","3073141","2020-11-02 08:00","2020","11","02","08:00","-8.2","","-8.2","","100","","","","35","","13","","3.2","","96.50","","","","-14","","Snow,Ice Pellets"
"-117.16","58.62","HIGH LEVEL A","3073141","2020-11-02 09:00","2020","11","02","09:00","-8.0","","-8.0","","100","","","","34","","9","","3.2","","96.52","","","","-13","","Ice Pellets,Fog"
"-117.16","58.62","HIGH LEVEL A","3073141","2020-11-02 10:00","2020","11","02","10:00","-7.8","","-7.9","","99","","","","36","","10","","3.2","","96.44","","","","-13","","Freezing Drizzle,Fog"
"-117.16","58.62","HIGH LEVEL A","3073141","2020-11-02 11:00","2020","11","02","11:00","-7.8","","-7.9","","99","","","","36","","12","","2.4","","96.42","","","","-13","","Freezing Drizzle,Fog"
"-117.16","58.62","HIGH LEVEL A","3073141","2020-11-02 12:00","2020","11","02","12:00","-7.3","","-7.4","","99","","","","36","","9","","1.6","","96.33","","","","-12","","Ice Pellets,Fog"
"-117.16","58.62","HIGH LEVEL A","3073141","2020-11-02 13:00","2020","11","02","13:00","-7.0","","-7.1","","99","","","","34","","4","","4.0","","96.23","","","","-9","","Ice Pellets,Fog"
"-117.16","58.62","HIGH LEVEL A","3073141","2020-11-02 14:00","2020","11","02","14:00","-6.3","","-6.4","","99","","","","36","","1","","16.1","","96.08","","","","-7","","Ice Pellets"
"-117.16","58.62","HIGH LEVEL A","3073141","2020-11-02 15:00","2020","11","02","15:00","-5.7","","-5.7","","100","","","","28","","3","","16.1","","96.02","","","","-7","","NA"
"-117.16","58.62","HIGH LEVEL A","3073141","2020-11-02 16:00","2020","11","02","16:00","-5.2","","-5.3","","99","","","","35","","5","","16.1","","96.04","","","","-7","","NA"
"-117.16","58.62","HIGH LEVEL A","3073141","2020-11-02 17:00","2020","11","02","17:00","-5.2","","-5.3","","99","","","","35","","10","","14.5","","96.04","","","","-10","","Cloudy"
"-117.16","58.62","HIGH LEVEL A","3073141","2020-11-02 18:00","2020","11","02","18:00","-5.7","","-5.8","","99","","","","36","","6","","16.1","","95.91","","","","-9","","NA"
"-117.16","58.62","HIGH LEVEL A","3073141","2020-11-02 19:00","2020","11","02","19:00","-5.9","","-6.0","","99","","","","33","","7","","16.1","","95.89","","","","-9","","NA"
"-117.16","58.62","HIGH LEVEL A","3073141","2020-11-02 20:00","2020","11","02","20:00","-5.7","","-5.7","","100","","","","35","","8","","16.1","","95.93","","","","-9","","Cloudy"
"-117.16","58.62","HIGH LEVEL A","3073141","2020-11-02 21:00","2020","11","02","21:00","-5.8","","-5.8","","100","","","","36","","8","","3.2","","95.93","","","","-10","","Fog"
"-117.16","58.62","HIGH LEVEL A","3073141","2020-11-02 22:00","2020","11","02","22:00","-6.0","","-6.0","","100","","","","36","","12","","1.6","","95.95","","","","-11","","Fog"
"-117.16","58.62","HIGH LEVEL A","3073141","2020-11-02 23:00","2020","11","02","23:00"
"-117.16","58.62","HIGH LEVEL A","3073141","2020-11-03 00:00","2020","11","03","00:00"
"-117.16","58.62","HIGH LEVEL A","3073141","2020-11-03 01:00","2020","11","03","01:00"
"-117.16","58.62","HIGH LEVEL A","3073141","2020-11-03 02:00","2020","11","03","02:00"
"-117.16","58.62","HIGH LEVEL A","3073141","2020-11-03 03:00","2020","11","03","03:00"
"-117.16","58.62","HIGH LEVEL A","3073141","2020-11-03 04:00","2020","11","03","04:00"
"-117.16","58.62","HIGH LEVEL A","3073141","2020-11-03 05:00","2020","11","03","05:00"
"-117.16","58.62","HIGH LEVEL A","3073141","2020-11-03 06:00","2020","11","03","06:00"
"-117.16","58.62","HIGH LEVEL A","3073141","2020-11-03 07:00","2020","11","03","07:00","-8.6","","-9.8","","91","","","","33","","21","","16.1","","96.31","","","","-16","","NA"
"-117.16","58.62","HIGH LEVEL A","3073141","2020-11-03 08:00","2020","11","03","08:00","-9.9","","-11.1","","91","","","","30","","8","","24.1","","96.44","","","","-14","","Mainly Clear"
"-117.16","58.62","HIGH LEVEL A","3073141","2020-11-03 09:00","2020","11","03","09:00","-10.0","","-11.3","","90","","","","33","","7","","24.1","","96.46","","","","-14","","NA"
"-117.16","58.62","HIGH LEVEL A","3073141","2020-11-03 10:00","2020","11","03","10:00","-9.3","","-11.1","","87","","","","31","","8","","24.1","","96.53","","","","-14","","NA"
"-117.16","58.62","HIGH LEVEL A","3073141","2020-11-03 11:00","2020","11","03","11:00","-9.3","","-10.9","","89","","","","33","","12","","24.1","","96.58","","","","-15","","Cloudy"
"-117.16","58.62","HIGH LEVEL A","3073141","2020-11-03 12:00","2020","11","03","12:00","-8.5","","-10.4","","86","","","","33","","16","","24.1","","96.59","","","","-15","","NA"
"-117.16","58.62","HIGH LEVEL A","3073141","2020-11-03 13:00","2020","11","03","13:00","-8.3","","-9.9","","88","","","","32","","11","","24.1","","96.61","","","","-14","","NA"
"-117.16","58.62","HIGH LEVEL A","3073141","2020-11-03 14:00","2020","11","03","14:00","-7.9","","-9.7","","87","","","","35","","8","","16.1","","96.55","","","","-12","","Cloudy"
"-117.16","58.62","HIGH LEVEL A","3073141","2020-11-03 15:00","2020","11","03","15:00","-7.8","","-9.5","","88","","","","35","","13","","16.1","","96.60","","","","-14","","NA"
"-117.16","58.62","HIGH LEVEL A","3073141","2020-11-03 16:00","2020","11","03","16:00","-8.0","","-9.6","","88","","","","35","","12","","16.1","","96.58","","","","-13","","NA"
"-117.16","58.62","HIGH LEVEL A","3073141","2020-11-03 17:00","2020","11","03","17:00","-8.4","","-9.5","","92","","","","34","","17","","16.1","","96.52","","","","-15","","Cloudy"
"-117.16","58.62","HIGH LEVEL A","3073141","2020-11-03 18:00","2020","11","03","18:00","-8.5","","-9.6","","92","","","","36","","16","","16.1","","96.48","","","","-15","","NA"
"-117.16","58.62","HIGH LEVEL A","3073141","2020-11-03 19:00","2020","11","03","19:00","-9.0","","-10.1","","92","","","","36","","15","","2.4","","96.46","","","","-16","","Snow"
"-117.16","58.62","HIGH LEVEL A","3073141","2020-11-03 20:00","2020","11","03","20:00","-9.3","","-10.1","","94","","","","36","","16","","1.6","","96.43","","","","-16","","Snow"
"-117.16","58.62","HIGH LEVEL A","3073141","2020-11-03 21:00","2020","11","03","21:00","-9.3","","-10.0","","95","","","","36","","15","","1.0","","96.41","","","","-16","","Snow"
"-117.16","58.62","HIGH LEVEL A","3073141","2020-11-03 22:00","2020","11","03","22:00","-9.1","","-9.6","","96","","","","35","","14","","1.0","","96.37","","","","-15","","Snow"
"-117.16","58.62","HIGH LEVEL A","3073141","2020-11-03 23:00","2020","11","03","23:00"
"-117.16","58.62","HIGH LEVEL A","3073141","2020-11-04 00:00","2020","11","04","00:00"
"-117.16","58.62","HIGH LEVEL A","3073141","2020-11-04 01:00","2020","11","04","01:00"
"-117.16","58.62","HIGH LEVEL A","3073141","2020-11-04 02:00","2020","11","04","02:00"
"-117.16","58.62","HIGH LEVEL A","3073141","2020-11-04 03:00","2020","11","04","03:00"
"-117.16","58.62","HIGH LEVEL A","3073141","2020-11-04 04:00","2020","11","04","04:00"
"-117.16","58.62","HIGH LEVEL A","3073141","2020-11-04 05:00","2020","11","04","05:00"
"-117.16","58.62","HIGH LEVEL A","3073141","2020-11-04 06:00","2020","11","04","06:00"
"-117.16","58.62","HIGH LEVEL A","3073141","2020-11-04 07:00","2020","11","04","07:00","-12.8","","-13.7","","93","","","","33","","9","","24.1","","97.22","","","","-18","","NA"
"-117.16","58.62","HIGH LEVEL A","3073141","2020-11-04 08:00","2020","11","04","08:00","-12.8","","-13.8","","92","","","","35","","17","","24.1","","97.34","","","","-21","","Mainly Clear"
"-117.16","58.62","HIGH LEVEL A","3073141","2020-11-04 09:00","2020","11","04","09:00","-12.9","","-14.1","","91","","","","35","","12","","24.1","","97.46","","","","-19","","NA"
"-117.16","58.62","HIGH LEVEL A","3073141","2020-11-04 10:00","2020","11","04","10:00","-12.2","","-13.7","","89","","","","36","","8","","24.1","","97.49","","","","-17","","NA"
"-117.16","58.62","HIGH LEVEL A","3073141","2020-11-04 11:00","2020","11","04","11:00","-11.2","","-13.2","","86","","","","","","0","","24.1","","97.59","","","","","","Clear"
"-117.16","58.62","HIGH LEVEL A","3073141","2020-11-04 12:00","2020","11","04","12:00","-9.9","","-12.6","","81","","","","13","","7","","24.1","","97.67","","","","-14","","NA"
"-117.16","58.62","HIGH LEVEL A","3073141","2020-11-04 13:00","2020","11","04","13:00","-8.8","","-12.1","","77","","","","13","","9","","24.1","","97.70","","","","-13","","NA"
"-117.16","58.62","HIGH LEVEL A","3073141","2020-11-04 14:00","2020","11","04","14:00","-8.7","","-12.2","","76","","","","16","","8","","24.1","","97.68","","","","-13","","Mainly Clear"
"-117.16","58.62","HIGH LEVEL A","3073141","2020-11-04 15:00","2020","11","04","15:00","-8.5","","-11.7","","78","","","","14","","15","","24.1","","97.62","","","","-15","","NA"
"-117.16","58.62","HIGH LEVEL A","3073141","2020-11-04 16:00","2020","11","04","16:00","-9.5","","-11.7","","84","","","","13","","13","","24.1","","97.55","","","","-16","","NA"
"-117.16","58.62","HIGH LEVEL A","3073141","2020-11-04 17:00","2020","11","04","17:00","-9.9","","-11.4","","89","","","","13","","14","","24.1","","97.57","","","","-16","","Mostly Cloudy"
"-117.16","58.62","HIGH LEVEL A","3073141","2020-11-04 18:00","2020","11","04","18:00","-10.7","","-11.6","","93","","","","15","","10","","24.1","","97.52","","","","-16","","NA"
"-117.16","58.62","HIGH LEVEL A","3073141","2020-11-04 19:00","2020","11","04","19:00","-8.7","","-10.3","","88","","","","14","","17","","24.1","","97.45","","","","-16","","NA"
"-117.16","58.62","HIGH LEVEL A","3073141","2020-11-04 20:00","2020","11","04","20:00","-8.9","","-10.4","","89","","","","14","","18","","24.1","","97.44","","","","-16","","Mostly Cloudy"
"-117.16","58.62","HIGH LEVEL A","3073141","2020-11-04 21:00","2020","11","04","21:00","-9.1","","-10.7","","88","","","","11","","20","","24.1","","97.31","","","","-17","","NA"
"-117.16","58.62","HIGH LEVEL A","3073141","2020-11-04 22:00","2020","11","04","22:00","-8.7","","-10.6","","86","","","","12","","18","","24.1","","97.17","","","","-16","","NA"
"-117.16","58.62","HIGH LEVEL A","3073141","2020-11-04 23:00","2020","11","04","23:00"
"-117.16","58.62","HIGH LEVEL A","3073141","2020-11-05 00:00","2020","11","05","00:00"
"-117.16","58.62","HIGH LEVEL A","3073141","2020-11-05 01:00","2020","11","05","01:00"
"-117.16","58.62","HIGH LEVEL A","3073141","2020-11-05 02:00","2020","11","05","02:00"
"-117.16","58.62","HIGH LEVEL A","3073141","2020-11-05 03:00","2020","11","05","03:00"
"-117.16","58.62","HIGH LEVEL A","3073141","2020-11-05 04:00","2020","11","05","04:00"
"-117.16","58.62","HIGH LEVEL A","3073141","2020-11-05 05:00","2020","11","05","05:00"
"-117.16","58.62","HIGH LEVEL A","3073141","2020-11-05 06:00","2020","11","05","06:00"
"-117.16","58.62","HIGH LEVEL A","3073141","2020-11-05 07:00","2020","11","05","07:00","-9.4","","-11.2","","87","","","","13","","21","","12.9","","96.55","","","","-17","","Snow"
"-117.16","58.62","HIGH LEVEL A","3073141","2020-11-05 08:00","2020","11","05","08:00","-9.5","","-11.1","","88","","","","12","","19","","14.5","","96.50","","","","-17","","Snow"
"-117.16","58.62","HIGH LEVEL A","3073141","2020-11-05 09:00","2020","11","05","09:00","-9.8","","-11.1","","90","","","","14","","12","","2.0","","96.55","","","","-16","","Snow"
"-117.16","58.62","HIGH LEVEL A","3073141","2020-11-05 10:00","2020","11","05","10:00","-10.1","","-12.2","","85","","","","13","","15","","16.1","","96.57","","","","-17","","Snow"
"-117.16","58.62","HIGH LEVEL A","3073141","2020-11-05 11:00","2020","11","05","11:00","-10.4","","-12.3","","86","","","","12","","16","","2.4","","96.57","","","","-17","","Snow"
"-117.16","58.62","HIGH LEVEL A","3073141","2020-11-05 12:00","2020","11","05","12:00","-10.5","","-11.6","","91","","","","10","","9","","1.2","","96.59","","","","-15","","Snow"
"-117.16","58.62","HIGH LEVEL A","3073141","2020-11-05 13:00","2020","11","05","13:00","-10.1","","-11.3","","91","","","","0","","1","","3.2","","96.68","","","","-11","","Snow"
"-117.16","58.62","HIGH LEVEL A","3073141","2020-11-05 14:00","2020","11","05","14:00","-9.4","","-12.1","","81","","","","36","","2","","16.1","","96.73","","","","-11","","Snow"
"-117.16","58.62","HIGH LEVEL A","3073141","2020-11-05 15:00","2020","11","05","15:00","-9.2","","-11.3","","85","","","","36","","1","","6.4","","96.78","","","","-10","","Snow"
"-117.16","58.62","HIGH LEVEL A","3073141","2020-11-05 16:00","2020","11","05","16:00","-9.2","","-11.4","","84","","","","28","","5","","16.1","","96.86","","","","-12","","Snow"
"-117.16","58.62","HIGH LEVEL A","3073141","2020-11-05 17:00","2020","11","05","17:00","-9.5","","-10.8","","90","","","","30","","4","","3.2","","96.96","","","","-12","","Snow"
"-117.16","58.62","HIGH LEVEL A","3073141","2020-11-05 18:00","2020","11","05","18:00","-9.7","","-10.7","","92","","","","33","","11","","4.0","","97.02","","","","-15","","Snow"
"-117.16","58.62","HIGH LEVEL A","3073141","2020-11-05 19:00","2020","11","05","19:00","-10.8","","-12.3","","89","","","","31","","6","","16.1","","97.07","","","","-14","","Snow"
"-117.16","58.62","HIGH LEVEL A","3073141","2020-11-05 20:00","2020","11","05","20:00","-10.9","","-12.5","","88","","","","33","","16","","16.1","","97.13","","","","-18","","Snow"
"-117.16","58.62","HIGH LEVEL A","3073141","2020-11-05 21:00","2020","11","05","21:00","-11.5","","-13.0","","89","","","","33","","10","","16.1","","97.19","","","","-17","","Snow"
"-117.16","58.62","HIGH LEVEL A","3073141","2020-11-05 22:00","2020","11","05","22:00","-12.1","","-13.7","","88","","","","28","","8","","16.1","","97.26","","","","-17","","Snow"
"-117.16","58.62","HIGH LEVEL A","3073141","2020-11-05 23:00","2020","11","05","23:00"
"-117.16","58.62","HIGH LEVEL A","3073141","2020-11-06 00:00","2020","11","06","00:00"
"-117.16","58.62","HIGH LEVEL A","3073141","2020-11-06 01:00","2020","11","06","01:00"
"-117.16","58.62","HIGH LEVEL A","3073141","2020-11-06 02:00","2020","11","06","02:00"
"-117.16","58.62","HIGH LEVEL A","3073141","2020-11-06 03:00","2020","11","06","03:00"
"-117.16","58.62","HIGH LEVEL A","3073141","2020-11-06 04:00","2020","11","06","04:00"
"-117.16","58.62","HIGH LEVEL A","3073141","2020-11-06 05:00","2020","11","06","05:00"
"-117.16","58.62","HIGH LEVEL A","3073141","2020-11-06 06:00","2020","11","06","06:00"
"-117.16","58.62","HIGH LEVEL A","3073141","2020-11-06 07:00","2020","11","06","07:00","-13.0","","-15.3","","83","","","","28","","10","","16.1","","97.59","","","","-19","","Snow"
"-117.16","58.62","HIGH LEVEL A","3073141","2020-11-06 08:00","2020","11","06","08:00","-14.0","","-16.0","","85","","","","26","","6","","24.1","","97.59","","","","-18","","Snow"
"-117.16","58.62","HIGH LEVEL A","3073141","2020-11-06 09:00","2020","11","06","09:00","-15.5","","-16.9","","89","","","","29","","5","","24.1","","97.58","","","","-19","","NA"
"-117.16","58.62","HIGH LEVEL A","3073141","2020-11-06 10:00","2020","11","06","10:00","-14.6","","-17.0","","82","","","","23","","3","","24.1","","97.59","","","","-17","","NA"
"-117.16","58.62","HIGH LEVEL A","3073141","2020-11-06 11:00","2020","11","06","11:00","-13.5","","-16.4","","79","","","","19","","3","","24.1","","97.56","","","","-16","","Mainly Clear"
"-117.16","58.62","HIGH LEVEL A","3073141","2020-11-06 12:00","2020","11","06","12:00","-12.6","","-16.1","","75","","","","22","","8","","24.1","","97.52","","","","-18","","NA"
"-117.16","58.62","HIGH LEVEL A","3073141","2020-11-06 13:00","2020","11","06","13:00","-11.7","","-15.5","","74","","","","21","","8","","24.1","","97.46","","","","-16","","NA"
"-117.16","58.62","HIGH LEVEL A","3073141","2020-11-06 14:00","2020","11","06","14:00","-10.9","","-15.2","","71","","","","22","","8","","24.1","","97.43","","","","-16","","Mainly Clear"
"-117.16","58.62","HIGH LEVEL A","3073141","2020-11-06 15:00","2020","11","06","15:00","-10.6","","-15.0","","70","","","","23","","8","","24.1","","97.41","","","","-15","","NA"
"-117.16","58.62","HIGH LEVEL A","3073141","2020-11-06 16:00","2020","11","06","16:00","-11.4","","-15.4","","72","","","","18","","4","","24.1","","97.35","","","","-14","","NA"
"-117.16","58.62","HIGH LEVEL A","3073141","2020-11-06 17:00","2020","11","06","17:00","-12.7","","-15.9","","77","","","","16","","8","","24.1","","97.32","","","","-18","","Mainly Clear"
"-117.16","58.62","HIGH LEVEL A","3073141","2020-11-06 18:00","2020","11","06","18:00","-15.3","","-17.2","","86","","","","16","","8","","24.1","","97.26","","","","-21","","NA"
"-117.16","58.62","HIGH LEVEL A","3073141","2020-11-06 19:00","2020","11","06","19:00","-17.8","","-18.8","","92","","","","17","","3","","24.1","","97.22","","","","-20","","NA"
"-117.16","58.62","HIGH LEVEL A","3073141","2020-11-06 20:00","2020","11","06","20:00","-18.4","","-19.4","","92","","","","36","","2","","24.1","","97.18","","","","-20","","Clear"
"-117.16","58.62","HIGH LEVEL A","3073141","2020-11-06 21:00","2020","11","06","21:00","-18.7","","-19.8","","91","","","","36","","2","","24.1","","97.15","","","","-20","","NA"
"-117.16","58.62","HIGH LEVEL A","3073141","2020-11-06 22:00","2020","11","06","22:00","-17.1","","-18.2","","91","","","","14","","7","","24.1","","97.14","","","","-22","","NA"
"-117.16","58.62","HIGH LEVEL A","3073141","2020-11-06 23:00","2020","11","06","23:00"
"-117.16","58.62","HIGH LEVEL A","3073141","2020-11-07 00:00","2020","11","07","00:00"
"-117.16","58.62","HIGH LEVEL A","3073141","2020-11-07 01:00","2020","11","07","01:00"
"-117.16","58.62","HIGH LEVEL A","3073141","2020-11-07 02:00","2020","11","07","02:00"
"-117.16","58.62","HIGH LEVEL A","3073141","2020-11-07 03:00","2020","11","07","03:00"
"-117.16","58.62","HIGH LEVEL A","3073141","2020-11-07 04:00","2020","11","07","04:00"
"-117.16","58.62","HIGH LEVEL A","3073141","2020-11-07 05:00","2020","11","07","05:00"
"-117.16","58.62","HIGH LEVEL A","3073141","2020-11-07 06:00","2020","11","07","06:00"
"-117.16","58.62","HIGH LEVEL A","3073141","2020-11-07 07:00","2020","11","07","07:00","-19.1","","-20.6","","88","","","","36","","1","","16.1","","97.22","","","","-20","","NA"
"-117.16","58.62","HIGH LEVEL A","3073141","2020-11-07 08:00","2020","11","07","08:00","-18.8","","-20.2","","89","","","","0","","1","","24.1","","97.27","","","","-20","","Cloudy"
"-117.16","58.62","HIGH LEVEL A","3073141","2020-11-07 09:00","2020","11","07","09:00","-17.8","","-19.2","","89","","","","36","","2","","24.1","","97.37","","","","-19","","NA"
"-117.16","58.62","HIGH LEVEL A","3073141","2020-11-07 10:00","2020","11","07","10:00","-17.1","","-18.4","","90","","","","36","","3","","24.1","","97.41","","","","-19","","NA"
"-117.16","58.62","HIGH LEVEL A","3073141","2020-11-07 11:00","2020","11","07","11:00","-14.1","","-15.3","","91","","","","36","","2","","24.1","","97.49","","","","-15","","Mostly Cloudy"
"-117.16","58.62","HIGH LEVEL A","3073141","2020-11-07 12:00","2020","11","07","12:00","-11.1","","-14.3","","77","","","","34","","15","","24.1","","97.53","","","","-18","","NA"
"-117.16","58.62","HIGH LEVEL A","3073141","2020-11-07 13:00","2020","11","07","13:00","-9.5","","-13.3","","74","","","","33","","8","","24.1","","97.58","","","","-14","","NA"
"-117.16","58.62","HIGH LEVEL A","3073141","2020-11-07 14:00","2020","11","07","14:00","-8.8","","-13.0","","72","","","","34","","13","","24.1","","97.63","","","","-15","","Mostly Cloudy"
"-117.16","58.62","HIGH LEVEL A","3073141","2020-11-07 15:00","2020","11","07","15:00","-8.3","","-11.9","","75","","","","35","","5","","24.1","","97.70","","","","-11","","NA"
"-117.16","58.62","HIGH LEVEL A","3073141","2020-11-07 16:00","2020","11","07","16:00","-8.1","","-11.8","","75","","","","34","","5","","24.1","","97.78","","","","-11","","NA"
"-117.16","58.62","HIGH LEVEL A","3073141","2020-11-07 17:00","2020","11","07","17:00","-8.5","","-11.9","","77","","","","36","","1","","24.1","","97.86","","","","-9","","Cloudy"
"-117.16","58.62","HIGH LEVEL A","3073141","2020-11-07 18:00","2020","11","07","18:00","-10.2","","-12.1","","86","","","","36","","1","","24.1","","97.94","","","","-11","","NA"
"-117.16","58.62","HIGH LEVEL A","3073141","2020-11-07 19:00","2020","11","07","19:00","-10.4","","-11.7","","90","","","","36","","1","","24.1","","98.01","","","","-11","","NA"
"-117.16","58.62","HIGH LEVEL A","3073141","2020-11-07 20:00","2020","11","07","20:00","-10.8","","-12.0","","91","","","","36","","3","","24.1","","98.05","","","","-13","","Snow"
"-117.16","58.62","HIGH LEVEL A","3073141","2020-11-07 21:00","2020","11","07","21:00","-10.8","","-12.0","","91","","","","14","","3","","24.1","","98.12","","","","-13","","Snow"
"-117.16","58.62","HIGH LEVEL A","3073141","2020-11-07 22:00","2020","11","07","22:00","-10.3","","-11.4","","92","","","","36","","1","","24.1","","98.17","","","","-11","","Snow"
"-117.16","58.62","HIGH LEVEL A","3073141","2020-11-07 23:00","2020","11","07","23:00"
"-117.16","58.62","HIGH LEVEL A","3073141","2020-11-08 00:00","2020","11","08","00:00"
"-117.16","58.62","HIGH LEVEL A","3073141","2020-11-08 01:00","2020","11","08","01:00"
"-117.16","58.62","HIGH LEVEL A","3073141","2020-11-08 02:00","2020","11","08","02:00"
"-117.16","58.62","HIGH LEVEL A","3073141","2020-11-08 03:00","2020","11","08","03:00"
"-117.16","58.62","HIGH LEVEL A","3073141","2020-11-08 04:00","2020","11","08","04:00"
"-117.16","58.62","HIGH LEVEL A","3073141","2020-11-08 05:00","2020","11","08","05:00"
"-117.16","58.62","HIGH LEVEL A","3073141","2020-11-08 06:00","2020","11","08","06:00"
"-117.16","58.62","HIGH LEVEL A","3073141","2020-11-08 07:00","2020","11","08","07:00","-12.0","","-12.6","","95","","","","36","","1","","2.4","","98.41","","","","-13","","Fog,Smoke"
"-117.16","58.62","HIGH LEVEL A","3073141","2020-11-08 08:00","2020","11","08","08:00","-13.7","","-14.6","","93","","","","5","","3","","8.1","","98.44","","","","-16","","Fog,Smoke"
"-117.16","58.62","HIGH LEVEL A","3073141","2020-11-08 09:00","2020","11","08","09:00","-14.1","","-15.0","","93","","","","36","","2","","16.1","","98.45","","","","-15","","NA"
"-117.16","58.62","HIGH LEVEL A","3073141","2020-11-08 10:00","2020","11","08","10:00","-13.7","","-14.5","","94","","","","13","","3","","24.1","","98.44","","","","-16","","NA"
"-117.16","58.62","HIGH LEVEL A","3073141","2020-11-08 11:00","2020","11","08","11:00","-10.6","","-11.7","","92","","","","13","","6","","24.1","","98.36","","","","-14","","Clear"
"-117.16","58.62","HIGH LEVEL A","3073141","2020-11-08 12:00","2020","11","08","12:00","-8.8","","-11.3","","82","","","","15","","9","","24.1","","98.30","","","","-13","","NA"
"-117.16","58.62","HIGH LEVEL A","3073141","2020-11-08 13:00","2020","11","08","13:00","-7.1","","-10.5","","77","","","","14","","8","","24.1","","98.22","","","","-11","","NA"
"-117.16","58.62","HIGH LEVEL A","3073141","2020-11-08 14:00","2020","11","08","14:00","-6.6","","-10.2","","76","","","","16","","11","","24.1","","98.14","","","","-12","","Clear"
"-117.16","58.62","HIGH LEVEL A","3073141","2020-11-08 15:00","2020","11","08","15:00","-5.6","","-9.8","","73","","","","13","","10","","24.1","","98.06","","","","-10","","NA"
"-117.16","58.62","HIGH LEVEL A","3073141","2020-11-08 16:00","2020","11","08","16:00","-6.0","","-10.1","","73","","","","13","","11","","24.1","","97.95","","","","-11","","NA"
"-117.16","58.62","HIGH LEVEL A","3073141","2020-11-08 17:00","2020","11","08","17:00","-7.4","","-10.3","","80","","","","14","","9","","24.1","","97.81","","","","-12","","Mainly Clear"
"-117.16","58.62","HIGH LEVEL A","3073141","2020-11-08 18:00","2020","11","08","18:00","-7.8","","-9.9","","85","","","","14","","14","","24.1","","97.68","","","","-14","","NA"
"-117.16","58.62","HIGH LEVEL A","3073141","2020-11-08 19:00","2020","11","08","19:00","-10.0","","-11.2","","91","","","","13","","7","","24.1","","97.56","","","","-14","","NA"
"-117.16","58.62","HIGH LEVEL A","3073141","2020-11-08 20:00","2020","11","08","20:00","-12.0","","-12.5","","96","","","","36","","2","","24.1","","97.42","","","","-13","","Clear"
"-117.16","58.62","HIGH LEVEL A","3073141","2020-11-08 21:00","2020","11","08","21:00","-13.7","","-14.2","","96","","","","15","","3","","24.1","","97.27","","","","-16","","NA"
"-117.16","58.62","HIGH LEVEL A","3073141","2020-11-08 22:00","2020","11","08","22:00","-15.1","","-16.1","","92","","","","36","","2","","24.1","","97.13","","","","-17","","NA"
"-117.16","58.62","HIGH LEVEL A","3073141","2020-11-08 23:00","2020","11","08","23:00"
"-117.16","58.62","HIGH LEVEL A","3073141","2020-11-09 00:00","2020","11","09","00:00"
"-117.16","58.62","HIGH LEVEL A","3073141","2020-11-09 01:00","2020","11","09","01:00"
"-117.16","58.62","HIGH LEVEL A","3073141","2020-11-09 02:00","2020","11","09","02:00"
"-117.16","58.62","HIGH LEVEL A","3073141","2020-11-09 03:00","2020","11","09","03:00"
"-117.16","58.62","HIGH LEVEL A","3073141","2020-11-09 04:00","2020","11","09","04:00"
"-117.16","58.62","HIGH LEVEL A","3073141","2020-11-09 05:00","2020","11","09","05:00"
"-117.16","58.62","HIGH LEVEL A","3073141","2020-11-09 06:00","2020","11","09","06:00"
"-117.16","58.62","HIGH LEVEL A","3073141","2020-11-09 07:00","2020","11","09","07:00","-12.7","","-13.3","","95","","","","16","","8","","24.1","","96.07","","","","-18","","NA"
"-117.16","58.62","HIGH LEVEL A","3073141","2020-11-09 08:00","2020","11","09","08:00","-11.2","","-11.8","","95","","","","17","","7","","24.1","","96.01","","","","-15","","Mostly Cloudy"
"-117.16","58.62","HIGH LEVEL A","3073141","2020-11-09 09:00","2020","11","09","09:00","-11.9","","-12.6","","95","","","","22","","4","","24.1","","95.98","","","","-14","","NA"
"-117.16","58.62","HIGH LEVEL A","3073141","2020-11-09 10:00","2020","11","09","10:00","-9.9","","-10.3","","97","","","","18","","4","","24.1","","95.93","","","","-12","","NA"
"-117.16","58.62","HIGH LEVEL A","3073141","2020-11-09 11:00","2020","11","09","11:00","-8.8","","-9.7","","93","","","","15","","9","","24.1","","95.89","","","","-13","","Mostly Cloudy"
"-117.16","58.62","HIGH LEVEL A","3073141","2020-11-09 12:00","2020","11","09","12:00","-6.8","","-8.9","","85","","","","31","","4","","24.1","","95.83","","","","-9","","NA"
"-117.16","58.62","HIGH LEVEL A","3073141","2020-11-09 13:00","2020","11","09","13:00","-6.5","","-8.3","","87","","","","36","","3","","24.1","","95.82","","","","-8","","NA"
"-117.16","58.62","HIGH LEVEL A","3073141","2020-11-09 14:00","2020","11","09","14:00","-5.4","","-8.2","","81","","","","18","","8","","24.1","","95.78","","","","-9","","Cloudy"
"-117.16","58.62","HIGH LEVEL A","3073141","2020-11-09 15:00","2020","11","09","15:00","-5.1","","-7.4","","84","","","","18","","4","","24.1","","95.79","","","","-7","","NA"
"-117.16","58.62","HIGH LEVEL A","3073141","2020-11-09 16:00","2020","11","09","16:00","-4.7","","-7.5","","81","","","","14","","5","","24.1","","95.79","","","","-7","","NA"
"-117.16","58.62","HIGH LEVEL A","3073141","2020-11-09 17:00","2020","11","09","17:00","-4.9","","-7.0","","86","","","","24","","4","","24.1","","95.81","","","","-7","","Cloudy"
"-117.16","58.62","HIGH LEVEL A","3073141","2020-11-09 18:00","2020","11","09","18:00","-4.9","","-6.7","","87","","","","9","","8","","24.1","","95.85","","","","-8","","NA"
"-117.16","58.62","HIGH LEVEL A","3073141","2020-11-09 19:00","2020","11","09","19:00","-4.8","","-6.3","","89","","","","36","","2","","24.1","","95.92","","","","-6","","Snow"
"-117.16","58.62","HIGH LEVEL A","3073141","2020-11-09 20:00","2020","11","09","20:00","-4.9","","-5.7","","94","","","","36","","3","","2.4","","95.96","","","","-6","","Snow"
"-117.16","58.62","HIGH LEVEL A","3073141","2020-11-09 21:00","2020","11","09","21:00","-5.1","","-5.5","","97","","","","36","","2","","16.1","","96.00","","","","-6","","Snow"
"-117.16","58.62","HIGH LEVEL A","3073141","2020-11-09 22:00","2020","11","09","22:00","-4.2","","-4.6","","97","","","","33","","13","","9.7","","96.09","","","","-9","","Snow"
"-117.16","58.62","HIGH LEVEL A","3073141","2020-11-09 23:00","2020","11","09","23:00"
"-117.16","58.62","HIGH LEVEL A","3073141","2020-11-10 00:00","2020","11","10","00:00"
"-117.16","58.62","HIGH LEVEL A","3073141","2020-11-10 01:00","2020","11","10","01:00"
"-117.16","58.62","HIGH LEVEL A","3073141","2020-11-10 02:00","2020","11","10","02:00"
"-117.16","58.62","HIGH LEVEL A","3073141","2020-11-10 03:00","2020","11","10","03:00"
"-117.16","58.62","HIGH LEVEL A","3073141","2020-11-10 04:00","2020","11","10","04:00"
"-117.16","58.62","HIGH LEVEL A","3073141","2020-11-10 05:00","2020","11","10","05:00"
"-117.16","58.62","HIGH LEVEL A","3073141","2020-11-10 06:00","2020","11","10","06:00"
"-117.16","58.62","HIGH LEVEL A","3073141","2020-11-10 07:00","2020","11","10","07:00","-7.5","","-9.9","","83","","","","36","","28","","12.9","","97.25","","","","-16","","Snow"
"-117.16","58.62","HIGH LEVEL A","3073141","2020-11-10 08:00","2020","11","10","08:00","-8.8","","-12.1","","77","","","","1","","31","","16.1","","97.40","","","","-18","","Snow,Blowing Snow"
"-117.16","58.62","HIGH LEVEL A","3073141","2020-11-10 09:00","2020","11","10","09:00","-10.2","","-14.0","","74","","","","36","","41","","16.1","","97.56","","","","-21","","Snow,Blowing Snow"
"-117.16","58.62","HIGH LEVEL A","3073141","2020-11-10 10:00","2020","11","10","10:00","-12.1","","-16.2","","72","","","","36","","34","","24.1","","97.72","","","","-23","","Snow,Blowing Snow"
"-117.16","58.62","HIGH LEVEL A","3073141","2020-11-10 11:00","2020","11","10","11:00","-12.5","","-16.7","","71","","","","1","","28","","24.1","","97.81","","","","-22","","Blowing Snow"
"-117.16","58.62","HIGH LEVEL A","3073141","2020-11-10 12:00","2020","11","10","12:00","-13.3","","-18.1","","68","","","","35","","22","","24.1","","97.90","","","","-22","","Blowing Snow"
"-117.16","58.62","HIGH LEVEL A","3073141","2020-11-10 13:00","2020","11","10","13:00","-13.5","","-18.5","","66","","","","35","","29","","24.1","","98.00","","","","-24","","Blowing Snow"
"-117.16","58.62","HIGH LEVEL A","3073141","2020-11-10 14:00","2020","11","10","14:00","-13.1","","-18.9","","62","","","","35","","17","","24.1","","98.07","","","","-21","","Blowing Snow"
"-117.16","58.62","HIGH LEVEL A","3073141","2020-11-10 15:00","2020","11","10","15:00","-13.9","","-18.9","","66","","","","33","","23","","24.1","","98.12","","","","-23","","Blowing Snow"
"-117.16","58.62","HIGH LEVEL A","3073141","2020-11-10 16:00","2020","11","10","16:00","-15.1","","-19.6","","69","","","","34","","8","","24.1","","98.21","","","","-20","","NA"
"-117.16","58.62","HIGH LEVEL A","3073141","2020-11-10 17:00","2020","11","10","17:00","-15.8","","-19.4","","74","","","","31","","9","","24.1","","98.23","","","","-22","","Mainly Clear"
"-117.16","58.62","HIGH LEVEL A","3073141","2020-11-10 18:00","2020","11","10","18:00","-16.1","","-18.8","","80","","","","28","","5","","24.1","","98.27","","","","-20","","NA"
"-117.16","58.62","HIGH LEVEL A","3073141","2020-11-10 19:00","2020","11","10","19:00","-18.5","","-20.1","","87","","","","36","","2","","24.1","","98.26","","","","-20","","NA"
"-117.16","58.62","HIGH LEVEL A","3073141","2020-11-10 20:00","2020","11","10","20:00","-20.5","","-21.5","","92","","","","36","","3","","24.1","","98.25","","","","-23","","Clear"
"-117.16","58.62","HIGH LEVEL A","3073141","2020-11-10 21:00","2020","11","10","21:00","-23.3","","-25.2","","85","","","","36","","2","","24.1","","98.22","","","","-25","","NA"
"-117.16","58.62","HIGH LEVEL A","3073141","2020-11-10 22:00","2020","11","10","22:00","-23.8","","-25.6","","85","","","","36","","3","","24.1","","98.21","","","","-27","","NA"
"-117.16","58.62","HIGH LEVEL A","3073141","2020-11-10 23:00","2020","11","10","23:00"
"-117.16","58.62","HIGH LEVEL A","3073141","2020-11-11 00:00","2020","11","11","00:00"
"-117.16","58.62","HIGH LEVEL A","3073141","2020-11-11 01:00","2020","11","11","01:00"
"-117.16","58.62","HIGH LEVEL A","3073141","2020-11-11 02:00","2020","11","11","02:00"
"-117.16","58.62","HIGH LEVEL A","3073141","2020-11-11 03:00","2020","11","11","03:00"
"-117.16","58.62","HIGH LEVEL A","3073141","2020-11-11 04:00","2020","11","11","04:00"
"-117.16","58.62","HIGH LEVEL A","3073141","2020-11-11 05:00","2020","11","11","05:00"
"-117.16","58.62","HIGH LEVEL A","3073141","2020-11-11 06:00","2020","11","11","06:00"
"-117.16","58.62","HIGH LEVEL A","3073141","2020-11-11 07:00","2020","11","11","07:00","-22.5","","-24.2","","86","","","","36","","3","","16.1","","97.85","","","","-25","","NA"
"-117.16","58.62","HIGH LEVEL A","3073141","2020-11-11 08:00","2020","11","11","08:00","-24.1","","-25.8","","86","","","","36","","2","","16.1","","97.79","","","","-26","","Mainly Clear"
"-117.16","58.62","HIGH LEVEL A","3073141","2020-11-11 09:00","2020","11","11","09:00","-25.6","","-27.6","","84","","","","36","","2","","16.1","","97.76","","","","-28","","NA"
"-117.16","58.62","HIGH LEVEL A","3073141","2020-11-11 10:00","2020","11","11","10:00","-23.4","","-25.1","","86","","","","15","","6","","16.1","","97.70","","","","-29","","NA"
"-117.16","58.62","HIGH LEVEL A","3073141","2020-11-11 11:00","2020","11","11","11:00","-20.4","","-22.0","","87","","","","19","","5","","24.1","","97.65","","","","-25","","Clear"
"-117.16","58.62","HIGH LEVEL A","3073141","2020-11-11 12:00","2020","11","11","12:00","-19.4","","-21.2","","86","","","","18","","9","","24.1","","97.57","","","","-26","","NA"
"-117.16","58.62","HIGH LEVEL A","3073141","2020-11-11 13:00","2020","11","11","13:00","-18.0","","-19.9","","85","","","","16","","11","","24.1","","97.46","","","","-25","","NA"
"-117.16","58.62","HIGH LEVEL A","3073141","2020-11-11 14:00","2020","11","11","14:00","-16.4","","-19.1","","80","","","","15","","16","","24.1","","97.40","","","","-25","","Mainly Clear"
"-117.16","58.62","HIGH LEVEL A","3073141","2020-11-11 15:00","2020","11","11","15:00","-16.1","","-19.2","","77","","","","14","","14","","24.1","","97.28","","","","-24","","NA"
"-117.16","58.62","HIGH LEVEL A","3073141","2020-11-11 16:00","2020","11","11","16:00","-16.9","","-20.1","","77","","","","18","","9","","24.1","","97.21","","","","-23","","NA"
"-117.16","58.62","HIGH LEVEL A","3073141","2020-11-11 17:00","2020","11","11","17:00","-17.2","","-19.9","","80","","","","16","","9","","24.1","","97.16","","","","-23","","Mainly Clear"
"-117.16","58.62","HIGH LEVEL A","3073141","2020-11-11 18:00","2020","11","11","18:00","-17.2","","-19.8","","81","","","","13","","10","","24.1","","97.09","","","","-24","","NA"
"-117.16","58.62","HIGH LEVEL A","3073141","2020-11-11 19:00","2020","11","11","19:00","-17.3","","-19.7","","82","","","","13","","15","","24.1","","96.98","","","","-26","","NA"
"-117.16","58.62","HIGH LEVEL A","3073141","2020-11-11 20:00","2020","11","11","20:00","-16.8","","-19.4","","80","","","","14","","11","","24.1","","96.87","","","","-24","","Clear"
"-117.16","58.62","HIGH LEVEL A","3073141","2020-11-11 21:00","2020","11","11","21:00","-16.9","","-19.3","","82","","","","13","","12","","24.1","","96.74","","","","-24","","NA"
"-117.16","58.62","HIGH LEVEL A","3073141","2020-11-11 22:00","2020","11","11","22:00","-17.5","","-19.7","","83","","","","15","","12","","24.1","","96.68","","","","-25","","NA"
"-117.16","58.62","HIGH LEVEL A","3073141","2020-11-11 23:00","2020","11","11","23:00"
"-117.16","58.62","HIGH LEVEL A","3073141","2020-11-12 00:00","2020","11","12","00:00"
"-117.16","58.62","HIGH LEVEL A","3073141","2020-11-12 01:00","2020","11","12","01:00"
"-117.16","58.62","HIGH LEVEL A","3073141","2020-11-12 02:00","2020","11","12","02:00"
"-117.16","58.62","HIGH LEVEL A","3073141","2020-11-12 03:00","2020","11","12","03:00"
"-117.16","58.62","HIGH LEVEL A","3073141","2020-11-12 04:00","2020","11","12","04:00"
"-117.16","58.62","HIGH LEVEL A","3073141","2020-11-12 05:00","2020","11","12","05:00"
"-117.16","58.62","HIGH LEVEL A","3073141","2020-11-12 06:00","2020","11","12","06:00"
"-117.16","58.62","HIGH LEVEL A","3073141","2020-11-12 07:00","2020","11","12","07:00","-15.9","","-17.3","","89","","","","16","","10","","24.1","","95.89","","","","-22","","NA"
"-117.16","58.62","HIGH LEVEL A","3073141","2020-11-12 08:00","2020","11","12","08:00","-16.7","","-18.0","","90","","","","20","","5","","24.1","","95.84","","","","-21","","Mostly Cloudy"
"-117.16","58.62","HIGH LEVEL A","3073141","2020-11-12 09:00","2020","11","12","09:00","-17.5","","-18.6","","91","","","","30","","3","","24.1","","95.85","","","","-20","","NA"
"-117.16","58.62","HIGH LEVEL A","3073141","2020-11-12 10:00","2020","11","12","10:00","-16.1","","-17.4","","90","","","","20","","6","","24.1","","95.72","","","","-21","","NA"
"-117.16","58.62","HIGH LEVEL A","3073141","2020-11-12 11:00","2020","11","12","11:00","-15.6","","-17.0","","89","","","","17","","7","","24.1","","95.69","","","","-21","","Mostly Cloudy"
"-117.16","58.62","HIGH LEVEL A","3073141","2020-11-12 12:00","2020","11","12","12:00","-14.3","","-16.3","","85","","","","17","","7","","24.1","","95.60","","","","-19","","NA"
"-117.16","58.62","HIGH LEVEL A","3073141","2020-11-12 13:00","2020","11","12","13:00","-13.8","","-15.9","","84","","","","17","","10","","24.1","","95.53","","","","-20","","NA"
"-117.16","58.62","HIGH LEVEL A","3073141","2020-11-12 14:00","2020","11","12","14:00","-12.9","","-15.4","","82","","","","16","","8","","24.1","","95.42","","","","-18","","Mostly Cloudy"
"-117.16","58.62","HIGH LEVEL A","3073141","2020-11-12 15:00","2020","11","12","15:00","-12.9","","-15.1","","84","","","","16","","9","","24.1","","95.35","","","","-18","","NA"
"-117.16","58.62","HIGH LEVEL A","3073141","2020-11-12 16:00","2020","11","12","16:00","-13.5","","-15.5","","85","","","","17","","7","","24.1","","95.30","","","","-18","","NA"
"-117.16","58.62","HIGH LEVEL A","3073141","2020-11-12 17:00","2020","11","12","17:00","-13.9","","-15.5","","88","","","","23","","4","","24.1","","95.23","","","","-17","","Cloudy"
"-117.16","58.62","HIGH LEVEL A","3073141","2020-11-12 18:00","2020","11","12","18:00","-13.3","","-14.9","","88","","","","21","","5","","24.1","","95.14","","","","-17","","NA"
"-117.16","58.62","HIGH LEVEL A","3073141","2020-11-12 19:00","2020","11","12","19:00","-12.9","","-14.3","","89","","","","25","","3","","24.1","","95.08","","","","-15","","NA"
"-117.16","58.62","HIGH LEVEL A","3073141","2020-11-12 20:00","2020","11","12","20:00","-12.3","","-13.8","","89","","","","13","","6","","24.1","","94.99","","","","-16","","Cloudy"
"-117.16","58.62","HIGH LEVEL A","3073141","2020-11-12 21:00","2020","11","12","21:00","-14.7","","-16.0","","90","","","","13","","3","","24.1","","94.93","","","","-17","","NA"
"-117.16","58.62","HIGH LEVEL A","3073141","2020-11-12 22:00","2020","11","12","22:00","-15.6","","-16.5","","93","","","","36","","3","","24.1","","94.91","","","","-18","","NA"
"-117.16","58.62","HIGH LEVEL A","3073141","2020-11-12 23:00","2020","11","12","23:00"
"-117.16","58.62","HIGH LEVEL A","3073141","2020-11-13 00:00","2020","11","13","00:00"
"-117.16","58.62","HIGH LEVEL A","3073141","2020-11-13 01:00","2020","11","13","01:00"
"-117.16","58.62","HIGH LEVEL A","3073141","2020-11-13 02:00","2020","11","13","02:00"
"-117.16","58.62","HIGH LEVEL A","3073141","2020-11-13 03:00","2020","11","13","03:00"
"-117.16","58.62","HIGH LEVEL A","3073141","2020-11-13 04:00","2020","11","13","04:00"
"-117.16","58.62","HIGH LEVEL A","3073141","2020-11-13 05:00","2020","11","13","05:00"
"-117.16","58.62","HIGH LEVEL A","3073141","2020-11-13 06:00","2020","11","13","06:00"
"-117.16","58.62","HIGH LEVEL A","3073141","2020-11-13 07:00","2020","11","13","07:00","-17.7","","-18.8","","91","","","","36","","1","","0.2","","94.78","","","","-18","","Freezing Fog"
"-117.16","58.62","HIGH LEVEL A","3073141","2020-11-13 08:00","2020","11","13","08:00","-17.4","","-18.7","","90","","","","36","","2","","0.2","","94.75","","","","-19","","Freezing Fog"
"-117.16","58.62","HIGH LEVEL A","3073141","2020-11-13 09:00","2020","11","13","09:00","-16.9","","-18.0","","91","","","","36","","2","","0.8","","94.80","","","","-18","","Freezing Fog"
"-117.16","58.62","HIGH LEVEL A","3073141","2020-11-13 10:00","2020","11","13","10:00","-15.3","","-16.3","","92","","","","36","","1","","1.2","","94.82","","","","-16","","Fog"
"-117.16","58.62","HIGH LEVEL A","3073141","2020-11-13 11:00","2020","11","13","11:00","-13.0","","-13.8","","94","","","","36","","2","","4.8","","94.81","","","","-14","","Fog"
"-117.16","58.62","HIGH LEVEL A","3073141","2020-11-13 12:00","2020","11","13","12:00","-10.2","","-10.6","","97","","","","36","","10","","8.1","","94.81","","","","-15","","Fog"
"-117.16","58.62","HIGH LEVEL A","3073141","2020-11-13 13:00","2020","11","13","13:00","-6.5","","-6.6","","99","","","","36","","15","","9.7","","94.83","","","","-12","","Fog"
"-117.16","58.62","HIGH LEVEL A","3073141","2020-11-13 14:00","2020","11","13","14:00","-6.5","","-6.6","","99","","","","36","","13","","12.9","","94.88","","","","-12","","Mostly Cloudy"
"-117.16","58.62","HIGH LEVEL A","3073141","2020-11-13 15:00","2020","11","13","15:00","-6.8","","-6.9","","99","","","","35","","13","","24.1","","94.94","","","","-12","","NA"
"-117.16","58.62","HIGH LEVEL A","3073141","2020-11-13 16:00","2020","11","13","16:00","-6.5","","-6.8","","98","","","","34","","18","","24.1","","95.01","","","","-13","","NA"
"-117.16","58.62","HIGH LEVEL A","3073141","2020-11-13 17:00","2020","11","13","17:00","-7.3","","-7.8","","96","","","","35","","23","","24.1","","95.09","","","","-15","","Cloudy"
"-117.16","58.62","HIGH LEVEL A","3073141","2020-11-13 18:00","2020","11","13","18:00","-8.1","","-8.8","","95","","","","34","","26","","24.1","","95.17","","","","-16","","NA"
"-117.16","58.62","HIGH LEVEL A","3073141","2020-11-13 19:00","2020","11","13","19:00","-8.7","","-9.5","","94","","","","35","","26","","24.1","","95.24","","","","-17","","NA"
"-117.16","58.62","HIGH LEVEL A","3073141","2020-11-13 20:00","2020","11","13","20:00","-9.5","","-10.8","","90","","","","36","","26","","16.1","","95.34","","","","-18","","Cloudy"
"-117.16","58.62","HIGH LEVEL A","3073141","2020-11-13 21:00","2020","11","13","21:00","-10.3","","-11.8","","89","","","","35","","22","","16.1","","95.46","","","","-19","","Snow"
"-117.16","58.62","HIGH LEVEL A","3073141","2020-11-13 22:00","2020","11","13","22:00","-10.7","","-12.2","","89","","","","34","","26","","16.1","","95.59","","","","-20","","Snow"
"-117.16","58.62","HIGH LEVEL A","3073141","2020-11-13 23:00","2020","11","13","23:00"
"-117.16","58.62","HIGH LEVEL A","3073141","2020-11-14 00:00","2020","11","14","00:00"
"-117.16","58.62","HIGH LEVEL A","3073141","2020-11-14 01:00","2020","11","14","01:00"
"-117.16","58.62","HIGH LEVEL A","3073141","2020-11-14 02:00","2020","11","14","02:00"
"-117.16","58.62","HIGH LEVEL A","3073141","2020-11-14 03:00","2020","11","14","03:00"
"-117.16","58.62","HIGH LEVEL A","3073141","2020-11-14 04:00","2020","11","14","04:00"
"-117.16","58.62","HIGH LEVEL A","3073141","2020-11-14 05:00","2020","11","14","05:00"
"-117.16","58.62","HIGH LEVEL A","3073141","2020-11-14 06:00","2020","11","14","06:00"
"-117.16","58.62","HIGH LEVEL A","3073141","2020-11-14 07:00","2020","11","14","07:00","-13.2","","-15.1","","86","","","","34","","16","","24.1","","96.35","","","","-21","","NA"
"-117.16","58.62","HIGH LEVEL A","3073141","2020-11-14 08:00","2020","11","14","08:00","-13.0","","-14.9","","86","","","","34","","12","","24.1","","96.40","","","","-20","","Cloudy"
"-117.16","58.62","HIGH LEVEL A","3073141","2020-11-14 09:00","2020","11","14","09:00","-12.8","","-14.7","","86","","","","33","","9","","24.1","","96.47","","","","-18","","NA"
"-117.16","58.62","HIGH LEVEL A","3073141","2020-11-14 10:00","2020","11","14","10:00","-12.5","","-14.6","","85","","","","34","","7","","24.1","","96.55","","","","-17","","NA"
"-117.16","58.62","HIGH LEVEL A","3073141","2020-11-14 11:00","2020","11","14","11:00","-12.2","","-14.4","","84","","","","5","","3","","24.1","","96.59","","","","-14","","Cloudy"
"-117.16","58.62","HIGH LEVEL A","3073141","2020-11-14 12:00","2020","11","14","12:00","-11.5","","-13.8","","83","","","","13","","4","","24.1","","96.65","","","","-14","","NA"
"-117.16","58.62","HIGH LEVEL A","3073141","2020-11-14 13:00","2020","11","14","13:00","-11.4","","-13.9","","82","","","","16","","6","","24.1","","96.67","","","","-15","","NA"
"-117.16","58.62","HIGH LEVEL A","3073141","2020-11-14 14:00","2020","11","14","14:00","-11.1","","-13.6","","82","","","","15","","7","","19.3","","96.68","","","","-15","","Snow"
"-117.16","58.62","HIGH LEVEL A","3073141","2020-11-14 15:00","2020","11","14","15:00","-11.0","","-13.1","","85","","","","14","","9","","8.1","","96.68","","","","-16","","Snow"
"-117.16","58.62","HIGH LEVEL A","3073141","2020-11-14 16:00","2020","11","14","16:00","-11.0","","-12.5","","89","","","","9","","4","","4.0","","96.71","","","","-13","","Snow"
"-117.16","58.62","HIGH LEVEL A","3073141","2020-11-14 17:00","2020","11","14","17:00","-10.9","","-12.0","","92","","","","36","","3","","3.6","","96.71","","","","-13","","Snow"
"-117.16","58.62","HIGH LEVEL A","3073141","2020-11-14 18:00","2020","11","14","18:00","-10.8","","-11.7","","93","","","","36","","1","","4.0","","96.72","","","","-11","","Snow"
"-117.16","58.62","HIGH LEVEL A","3073141","2020-11-14 19:00","2020","11","14","19:00","-10.6","","-11.5","","93","","","","36","","2","","8.1","","96.70","","","","-12","","Snow"
"-117.16","58.62","HIGH LEVEL A","3073141","2020-11-14 20:00","2020","11","14","20:00","-10.4","","-11.3","","93","","","","34","","7","","8.1","","96.71","","","","-14","","Snow"
"-117.16","58.62","HIGH LEVEL A","3073141","2020-11-14 21:00","2020","11","14","21:00","-10.5","","-11.3","","94","","","","32","","4","","16.1","","96.68","","","","-13","","Snow"
"-117.16","58.62","HIGH LEVEL A","3073141","2020-11-14 22:00","2020","11","14","22:00","-10.5","","-11.3","","94","","","","35","","3","","16.1","","96.67","","","","-12","","Snow"
"-117.16","58.62","HIGH LEVEL A","3073141","2020-11-14 23:00","2020","11","14","23:00"
"-117.16","58.62","HIGH LEVEL A","3073141","2020-11-15 00:00","2020","11","15","00:00"
"-117.16","58.62","HIGH LEVEL A","3073141","2020-11-15 01:00","2020","11","15","01:00"
"-117.16","58.62","HIGH LEVEL A","3073141","2020-11-15 02:00","2020","11","15","02:00"
"-117.16","58.62","HIGH LEVEL A","3073141","2020-11-15 03:00","2020","11","15","03:00"
"-117.16","58.62","HIGH LEVEL A","3073141","2020-11-15 04:00","2020","11","15","04:00"
"-117.16","58.62","HIGH LEVEL A","3073141","2020-11-15 05:00","2020","11","15","05:00"
"-117.16","58.62","HIGH LEVEL A","3073141","2020-11-15 06:00","2020","11","15","06:00"
"-117.16","58.62","HIGH LEVEL A","3073141","2020-11-15 07:00","2020","11","15","07:00","-10.0","","-11.1","","92","","","","34","","11","","16.1","","96.71","","","","-16","","Snow"
"-117.16","58.62","HIGH LEVEL A","3073141","2020-11-15 08:00","2020","11","15","08:00","-10.1","","-11.4","","90","","","","35","","17","","16.1","","96.75","","","","-17","","Snow"
"-117.16","58.62","HIGH LEVEL A","3073141","2020-11-15 09:00","2020","11","15","09:00","-10.5","","-11.7","","91","","","","36","","19","","16.1","","96.81","","","","-18","","Snow"
"-117.16","58.62","HIGH LEVEL A","3073141","2020-11-15 10:00","2020","11","15","10:00","-10.8","","-12.4","","88","","","","35","","17","","19.3","","96.88","","","","-18","","Snow"
"-117.16","58.62","HIGH LEVEL A","3073141","2020-11-15 11:00","2020","11","15","11:00","-11.0","","-12.8","","87","","","","36","","17","","19.3","","96.96","","","","-18","","Snow,Blowing Snow"
"-117.16","58.62","HIGH LEVEL A","3073141","2020-11-15 12:00","2020","11","15","12:00","-10.8","","-13.0","","84","","","","35","","17","","24.1","","97.02","","","","-18","","Snow,Blowing Snow"
"-117.16","58.62","HIGH LEVEL A","3073141","2020-11-15 13:00","2020","11","15","13:00","-11.1","","-13.9","","80","","","","35","","18","","24.1","","97.09","","","","-19","","Blowing Snow"
"-117.16","58.62","HIGH LEVEL A","3073141","2020-11-15 14:00","2020","11","15","14:00","-10.9","","-14.0","","78","","","","36","","19","","24.1","","97.15","","","","-19","","Blowing Snow"
"-117.16","58.62","HIGH LEVEL A","3073141","2020-11-15 15:00","2020","11","15","15:00","-10.6","","-14.1","","76","","","","35","","13","","24.1","","97.23","","","","-17","","Blowing Snow"
"-117.16","58.62","HIGH LEVEL A","3073141","2020-11-15 16:00","2020","11","15","16:00","-11.7","","-14.6","","79","","","","34","","15","","24.1","","97.34","","","","-19","","NA"
"-117.16","58.62","HIGH LEVEL A","3073141","2020-11-15 17:00","2020","11","15","17:00","-12.9","","-15.0","","85","","","","36","","17","","24.1","","97.42","","","","-21","","Mainly Clear"
"-117.16","58.62","HIGH LEVEL A","3073141","2020-11-15 18:00","2020","11","15","18:00","-14.2","","-15.9","","87","","","","36","","23","","24.1","","97.50","","","","-24","","NA"
"-117.16","58.62","HIGH LEVEL A","3073141","2020-11-15 19:00","2020","11","15","19:00","-15.5","","-16.8","","90","","","","35","","17","","24.1","","97.54","","","","-24","","NA"
"-117.16","58.62","HIGH LEVEL A","3073141","2020-11-15 20:00","2020","11","15","20:00","-15.8","","-17.2","","89","","","","35","","18","","24.1","","97.63","","","","-25","","Clear"
"-117.16","58.62","HIGH LEVEL A","3073141","2020-11-15 21:00","2020","11","15","21:00","-16.1","","-17.5","","89","","","","35","","19","","24.1","","97.70","","","","-25","","NA"
"-117.16","58.62","HIGH LEVEL A","3073141","2020-11-15 22:00","2020","11","15","22:00","-16.7","","-18.2","","88","","","","35","","15","","24.1","","97.75","","","","-25","","NA"
"-117.16","58.62","HIGH LEVEL A","3073141","2020-11-15 23:00","2020","11","15","23:00"
"-117.16","58.62","HIGH LEVEL A","3073141","2020-11-16 00:00","2020","11","16","00:00"
"-117.16","58.62","HIGH LEVEL A","3073141","2020-11-16 01:00","2020","11","16","01:00"
"-117.16","58.62","HIGH LEVEL A","3073141","2020-11-16 02:00","2020","11","16","02:00"
"-117.16","58.62","HIGH LEVEL A","3073141","2020-11-16 03:00","2020","11","16","03:00"
"-117.16","58.62","HIGH LEVEL A","3073141","2020-11-16 04:00","2020","11","16","04:00"
"-117.16","58.62","HIGH LEVEL A","3073141","2020-11-16 05:00","2020","11","16","05:00"
"-117.16","58.62","HIGH LEVEL A","3073141","2020-11-16 06:00","2020","11","16","06:00"
"-117.16","58.62","HIGH LEVEL A","3073141","2020-11-16 07:00","2020","11","16","07:00","-19.3","","-20.8","","88","","","","36","","11","","9.7","","98.38","","","","-27","","Snow"
"-117.16","58.62","HIGH LEVEL A","3073141","2020-11-16 08:00","2020","11","16","08:00","-19.0","","-20.6","","87","","","","35","","9","","12.9","","98.43","","","","-26","","Snow"
"-117.16","58.62","HIGH LEVEL A","3073141","2020-11-16 09:00","2020","11","16","09:00","-18.7","","-20.4","","87","","","","1","","7","","12.9","","98.47","","","","-24","","Snow"
"-117.16","58.62","HIGH LEVEL A","3073141","2020-11-16 10:00","2020","11","16","10:00","-18.2","","-19.9","","87","","","","3","","4","","16.1","","98.51","","","","-21","","Snow"
"-117.16","58.62","HIGH LEVEL A","3073141","2020-11-16 11:00","2020","11","16","11:00","-17.7","","-19.5","","86","","","","36","","1","","16.1","","98.55","","","","-18","","Snow"
"-117.16","58.62","HIGH LEVEL A","3073141","2020-11-16 12:00","2020","11","16","12:00","-16.4","","-18.2","","86","","","","15","","3","","16.1","","98.57","","","","-19","","Snow"
"-117.16","58.62","HIGH LEVEL A","3073141","2020-11-16 13:00","2020","11","16","13:00","-15.7","","-17.5","","86","","","","15","","5","","16.1","","98.58","","","","-19","","Snow"
"-117.16","58.62","HIGH LEVEL A","3073141","2020-11-16 14:00","2020","11","16","14:00","-14.9","","-16.9","","85","","","","12","","4","","24.1","","98.56","","","","-18","","Snow"
"-117.16","58.62","HIGH LEVEL A","3073141","2020-11-16 15:00","2020","11","16","15:00","-14.2","","-16.2","","85","","","","16","","5","","24.1","","98.52","","","","-18","","Snow"
"-117.16","58.62","HIGH LEVEL A","3073141","2020-11-16 16:00","2020","11","16","16:00","-15.0","","-16.7","","87","","","","16","","5","","24.1","","98.51","","","","-19","","Snow"
"-117.16","58.62","HIGH LEVEL A","3073141","2020-11-16 17:00","2020","11","16","17:00","-15.4","","-17.1","","87","","","","13","","9","","24.1","","98.50","","","","-21","","Snow"
"-117.16","58.62","HIGH LEVEL A","3073141","2020-11-16 18:00","2020","11","16","18:00","-15.7","","-17.4","","87","","","","13","","3","","24.1","","98.44","","","","-18","","Snow"
"-117.16","58.62","HIGH LEVEL A","3073141","2020-11-16 19:00","2020","11","16","19:00","-15.6","","-17.2","","88","","","","16","","5","","24.1","","98.42","","","","-19","","NA"
"-117.16","58.62","HIGH LEVEL A","3073141","2020-11-16 20:00","2020","11","16","20:00","-15.4","","-16.8","","89","","","","0","","1","","16.1","","98.38","","","","-16","","Snow"
"-117.16","58.62","HIGH LEVEL A","3073141","2020-11-16 21:00","2020","11","16","21:00","-15.4","","-16.7","","90","","","","14","","9","","24.1","","98.38","","","","-21","","Snow"
"-117.16","58.62","HIGH LEVEL A","3073141","2020-11-16 22:00","2020","11","16","22:00","-15.5","","-16.9","","89","","","","13","","10","","16.1","","98.36","","","","-22","","Snow"
"-117.16","58.62","HIGH LEVEL A","3073141","2020-11-16 23:00","2020","11","16","23:00"
"-117.16","58.62","HIGH LEVEL A","3073141","2020-11-17 00:00","2020","11","17","00:00"
"-117.16","58.62","HIGH LEVEL A","3073141","2020-11-17 01:00","2020","11","17","01:00"
"-117.16","58.62","HIGH LEVEL A","3073141","2020-11-17 02:00","2020","11","17","02:00"
"-117.16","58.62","HIGH LEVEL A","3073141","2020-11-17 03:00","2020","11","17","03:00"
"-117.16","58.62","HIGH LEVEL A","3073141","2020-11-17 04:00","2020","11","17","04:00"
"-117.16","58.62","HIGH LEVEL A","3073141","2020-11-17 05:00","2020","11","17","05:00"
"-117.16","58.62","HIGH LEVEL A","3073141","2020-11-17 06:00","2020","11","17","06:00"
"-117.16","58.62","HIGH LEVEL A","3073141","2020-11-17 07:00","2020","11","17","07:00","-15.6","","-17.1","","89","","","","16","","6","","12.9","","97.77","","","","-20","","Snow"
"-117.16","58.62","HIGH LEVEL A","3073141","2020-11-17 08:00","2020","11","17","08:00","-15.6","","-17.2","","88","","","","12","","3","","12.9","","97.70","","","","-18","","Snow"
"-117.16","58.62","HIGH LEVEL A","3073141","2020-11-17 09:00","2020","11","17","09:00","-15.5","","-16.9","","89","","","","0","","1","","12.9","","97.62","","","","-16","","Snow"
"-117.16","58.62","HIGH LEVEL A","3073141","2020-11-17 10:00","2020","11","17","10:00","-15.1","","-16.7","","88","","","","36","","1","","12.9","","97.55","","","","-16","","Snow"
"-117.16","58.62","HIGH LEVEL A","3073141","2020-11-17 11:00","2020","11","17","11:00","-14.7","","-16.3","","88","","","","36","","4","","12.9","","97.43","","","","-18","","Snow"
"-117.16","58.62","HIGH LEVEL A","3073141","2020-11-17 12:00","2020","11","17","12:00","-14.1","","-15.6","","89","","","","4","","5","","12.9","","97.33","","","","-18","","Snow"
"-117.16","58.62","HIGH LEVEL A","3073141","2020-11-17 13:00","2020","11","17","13:00","-13.4","","-14.6","","91","","","","3","","9","","9.7","","97.19","","","","-19","","Snow"
"-117.16","58.62","HIGH LEVEL A","3073141","2020-11-17 14:00","2020","11","17","14:00","-12.9","","-13.7","","94","","","","1","","10","","9.7","","97.03","","","","-19","","Snow"
"-117.16","58.62","HIGH LEVEL A","3073141","2020-11-17 15:00","2020","11","17","15:00","-12.3","","-12.9","","95","","","","36","","12","","9.7","","96.89","","","","-19","","Snow"
"-117.16","58.62","HIGH LEVEL A","3073141","2020-11-17 16:00","2020","11","17","16:00","-12.3","","-13.2","","93","","","","35","","13","","16.1","","96.81","","","","-19","","Snow"
"-117.16","58.62","HIGH LEVEL A","3073141","2020-11-17 17:00","2020","11","17","17:00","-12.3","","-13.3","","92","","","","36","","19","","24.1","","96.64","","","","-21","","Snow"
"-117.16","58.62","HIGH LEVEL A","3073141","2020-11-17 18:00","2020","11","17","18:00","-12.3","","-13.5","","91","","","","34","","18","","16.1","","96.55","","","","-20","","Snow"
"-117.16","58.62","HIGH LEVEL A","3073141","2020-11-17 19:00","2020","11","17","19:00","-12.3","","-13.5","","91","","","","35","","17","","2.0","","96.46","","","","-20","","Snow,Blowing Snow"
"-117.16","58.62","HIGH LEVEL A","3073141","2020-11-17 20:00","2020","11","17","20:00","-12.2","","-13.4","","91","","","","35","","23","","1.6","","96.38","","","","-21","","Snow,Blowing Snow"
"-117.16","58.62","HIGH LEVEL A","3073141","2020-11-17 21:00","2020","11","17","21:00","-12.2","","-13.4","","91","","","","35","","25","","1.2","","96.34","","","","-22","","Snow,Blowing Snow"
"-117.16","58.62","HIGH LEVEL A","3073141","2020-11-17 22:00","2020","11","17","22:00","-12.2","","-13.4","","91","","","","1","","10","","24.1","","96.34","","","","-18","","Snow"
"-117.16","58.62","HIGH LEVEL A","3073141","2020-11-17 23:00","2020","11","17","23:00"
"-117.16","58.62","HIGH LEVEL A","3073141","2020-11-18 00:00","2020","11","18","00:00"
"-117.16","58.62","HIGH LEVEL A","3073141","2020-11-18 01:00","2020","11","18","01:00"
"-117.16","58.62","HIGH LEVEL A","3073141","2020-11-18 02:00","2020","11","18","02:00"
"-117.16","58.62","HIGH LEVEL A","3073141","2020-11-18 03:00","2020","11","18","03:00"
"-117.16","58.62","HIGH LEVEL A","3073141","2020-11-18 04:00","2020","11","18","04:00"
"-117.16","58.62","HIGH LEVEL A","3073141","2020-11-18 05:00","2020","11","18","05:00"
"-117.16","58.62","HIGH LEVEL A","3073141","2020-11-18 06:00","2020","11","18","06:00"
"-117.16","58.62","HIGH LEVEL A","3073141","2020-11-18 07:00","2020","11","18","07:00","-13.3","","-15.5","","84","","","","36","","21","","8.1","","96.55","","","","-22","","Snow,Blowing Snow"
"-117.16","58.62","HIGH LEVEL A","3073141","2020-11-18 08:00","2020","11","18","08:00","-13.4","","-15.1","","87","","","","34","","21","","4.8","","96.63","","","","-22","","Snow,Blowing Snow"
"-117.16","58.62","HIGH LEVEL A","3073141","2020-11-18 09:00","2020","11","18","09:00","-13.1","","-14.8","","87","","","","34","","23","","2.4","","96.74","","","","-22","","Snow,Blowing Snow"
"-117.16","58.62","HIGH LEVEL A","3073141","2020-11-18 10:00","2020","11","18","10:00","-12.8","","-14.4","","88","","","","34","","18","","1.6","","96.80","","","","-21","","Snow,Blowing Snow"
"-117.16","58.62","HIGH LEVEL A","3073141","2020-11-18 11:00","2020","11","18","11:00","-12.7","","-14.6","","86","","","","33","","14","","4.8","","96.90","","","","-20","","Snow,Blowing Snow"
"-117.16","58.62","HIGH LEVEL A","3073141","2020-11-18 12:00","2020","11","18","12:00","-13.0","","-14.9","","86","","","","32","","21","","4.8","","96.94","","","","-22","","Snow,Blowing Snow"
"-117.16","58.62","HIGH LEVEL A","3073141","2020-11-18 13:00","2020","11","18","13:00","-12.9","","-14.9","","85","","","","32","","21","","6.4","","97.00","","","","-22","","Snow,Blowing Snow"
"-117.16","58.62","HIGH LEVEL A","3073141","2020-11-18 14:00","2020","11","18","14:00","-12.5","","-14.4","","86","","","","31","","15","","4.8","","97.09","","","","-20","","Snow,Blowing Snow"
"-117.16","58.62","HIGH LEVEL A","3073141","2020-11-18 15:00","2020","11","18","15:00","-12.2","","-13.9","","87","","","","33","","16","","3.2","","97.17","","","","-20","","Snow,Blowing Snow"
"-117.16","58.62","HIGH LEVEL A","3073141","2020-11-18 16:00","2020","11","18","16:00","-11.9","","-13.5","","88","","","","33","","12","","2.8","","97.30","","","","-18","","Snow,Blowing Snow"
"-117.16","58.62","HIGH LEVEL A","3073141","2020-11-18 17:00","2020","11","18","17:00","-11.7","","-13.2","","89","","","","32","","12","","2.8","","97.40","","","","-18","","Snow,Blowing Snow"
"-117.16","58.62","HIGH LEVEL A","3073141","2020-11-18 18:00","2020","11","18","18:00","-11.6","","-13.1","","89","","","","33","","15","","3.2","","97.45","","","","-19","","Snow,Blowing Snow"
"-117.16","58.62","HIGH LEVEL A","3073141","2020-11-18 19:00","2020","11","18","19:00","-11.8","","-13.4","","88","","","","34","","20","","9.7","","97.48","","","","-20","","Snow,Blowing Snow"
"-117.16","58.62","HIGH LEVEL A","3073141","2020-11-18 20:00","2020","11","18","20:00","-12.2","","-13.8","","88","","","","34","","20","","16.1","","97.53","","","","-21","","Snow"
"-117.16","58.62","HIGH LEVEL A","3073141","2020-11-18 21:00","2020","11","18","21:00","-12.7","","-14.2","","89","","","","35","","18","","16.1","","97.56","","","","-21","","Snow,Blowing Snow"
"-117.16","58.62","HIGH LEVEL A","3073141","2020-11-18 22:00","2020","11","18","22:00","-13.2","","-14.5","","90","","","","35","","16","","24.1","","97.62","","","","-21","","Snow,Blowing Snow"
"-117.16","58.62","HIGH LEVEL A","3073141","2020-11-18 23:00","2020","11","18","23:00"
"-117.16","58.62","HIGH LEVEL A","3073141","2020-11-19 00:00","2020","11","19","00:00"
"-117.16","58.62","HIGH LEVEL A","3073141","2020-11-19 01:00","2020","11","19","01:00"
"-117.16","58.62","HIGH LEVEL A","3073141","2020-11-19 02:00","2020","11","19","02:00"
"-117.16","58.62","HIGH LEVEL A","3073141","2020-11-19 03:00","2020","11","19","03:00"
"-117.16","58.62","HIGH LEVEL A","3073141","2020-11-19 04:00","2020","11","19","04:00"
"-117.16","58.62","HIGH LEVEL A","3073141","2020-11-19 05:00","2020","11","19","05:00"
"-117.16","58.62","HIGH LEVEL A","3073141","2020-11-19 06:00","2020","11","19","06:00"
"-117.16","58.62","HIGH LEVEL A","3073141","2020-11-19 07:00","2020","11","19","07:00","-17.2","","-18.6","","89","","","","34","","12","","24.1","","98.03","","","","-25","","NA"
"-117.16","58.62","HIGH LEVEL A","3073141","2020-11-19 08:00","2020","11","19","08:00","-19.1","","-20.2","","91","","","","33","","6","","24.1","","98.07","","","","-24","","Mainly Clear"
"-117.16","58.62","HIGH LEVEL A","3073141","2020-11-19 09:00","2020","11","19","09:00","-18.8","","-20.1","","90","","","","34","","11","","24.1","","98.12","","","","-26","","NA"
"-117.16","58.62","HIGH LEVEL A","3073141","2020-11-19 10:00","2020","11","19","10:00","-18.9","","-20.4","","88","","","","36","","9","","24.1","","98.16","","","","-25","","NA"
"-117.16","58.62","HIGH LEVEL A","3073141","2020-11-19 11:00","2020","11","19","11:00","-16.9","","-18.3","","89","","","","35","","10","","24.1","","98.19","","","","-24","","Mainly Clear"
"-117.16","58.62","HIGH LEVEL A","3073141","2020-11-19 12:00","2020","11","19","12:00","-15.4","","-17.5","","84","","","","35","","7","","24.1","","98.24","","","","-20","","NA"
"-117.16","58.62","HIGH LEVEL A","3073141","2020-11-19 13:00","2020","11","19","13:00","-13.9","","-16.5","","81","","","","36","","8","","24.1","","98.26","","","","-19","","NA"
"-117.16","58.62","HIGH LEVEL A","3073141","2020-11-19 14:00","2020","11","19","14:00","-13.6","","-16.1","","82","","","","36","","1","","24.1","","98.26","","","","-14","","Mainly Clear"
"-117.16","58.62","HIGH LEVEL A","3073141","2020-11-19 15:00","2020","11","19","15:00","-13.9","","-16.6","","81","","","","16","","9","","24.1","","98.27","","","","-20","","NA"
"-117.16","58.62","HIGH LEVEL A","3073141","2020-11-19 16:00","2020","11","19","16:00","-15.0","","-17.1","","84","","","","18","","5","","24.1","","98.24","","","","-19","","NA"
"-117.16","58.62","HIGH LEVEL A","3073141","2020-11-19 17:00","2020","11","19","17:00","-17.6","","-18.5","","93","","","","19","","5","","24.1","","98.23","","","","-22","","Mainly Clear"
"-117.16","58.62","HIGH LEVEL A","3073141","2020-11-19 18:00","2020","11","19","18:00","-17.6","","-18.6","","92","","","","19","","7","","24.1","","98.24","","","","-23","","NA"
"-117.16","58.62","HIGH LEVEL A","3073141","2020-11-19 19:00","2020","11","19","19:00","-20.8","","-22.1","","89","","","","23","","4","","24.1","","98.20","","","","-24","","NA"
"-117.16","58.62","HIGH LEVEL A","3073141","2020-11-19 20:00","2020","11","19","20:00","-21.1","","-22.6","","88","","","","36","","3","","24.1","","98.18","","","","-24","","Snow"
"-117.16","58.62","HIGH LEVEL A","3073141","2020-11-19 21:00","2020","11","19","21:00","-20.7","","-22.2","","88","","","","35","","3","","24.1","","98.17","","","","-23","","Snow"
"-117.16","58.62","HIGH LEVEL A","3073141","2020-11-19 22:00","2020","11","19","22:00","-21.1","","-22.6","","88","","","","6","","4","","24.1","","98.14","","","","-25","","NA"
"-117.16","58.62","HIGH LEVEL A","3073141","2020-11-19 23:00","2020","11","19","23:00"
"-117.16","58.62","HIGH LEVEL A","3073141","2020-11-20 00:00","2020","11","20","00:00"
"-117.16","58.62","HIGH LEVEL A","3073141","2020-11-20 01:00","2020","11","20","01:00"
"-117.16","58.62","HIGH LEVEL A","3073141","2020-11-20 02:00","2020","11","20","02:00"
"-117.16","58.62","HIGH LEVEL A","3073141","2020-11-20 03:00","2020","11","20","03:00"
"-117.16","58.62","HIGH LEVEL A","3073141","2020-11-20 04:00","2020","11","20","04:00"
"-117.16","58.62","HIGH LEVEL A","3073141","2020-11-20 05:00","2020","11","20","05:00"
"-117.16","58.62","HIGH LEVEL A","3073141","2020-11-20 06:00","2020","11","20","06:00"
"-117.16","58.62","HIGH LEVEL A","3073141","2020-11-20 07:00","2020","11","20","07:00","-26.3","","-28.4","","83","","","","36","","1","","24.1","","97.80","","","","-27","","NA"
"-117.16","58.62","HIGH LEVEL A","3073141","2020-11-20 08:00","2020","11","20","08:00","-27.2","","-29.4","","82","","","","36","","2","","19.3","","97.79","","","","-29","","Mainly Clear"
"-117.16","58.62","HIGH LEVEL A","3073141","2020-11-20 09:00","2020","11","20","09:00","-27.1","","-29.4","","81","","","","31","","4","","16.1","","97.79","","","","-31","","NA"
"-117.16","58.62","HIGH LEVEL A","3073141","2020-11-20 10:00","2020","11","20","10:00","-26.3","","-28.4","","83","","","","36","","1","","24.1","","97.78","","","","-27","","NA"
"-117.16","58.62","HIGH LEVEL A","3073141","2020-11-20 11:00","2020","11","20","11:00","-23.3","","-25.0","","86","","","","15","","5","","24.1","","97.77","","","","-28","","Mainly Clear"
"-117.16","58.62","HIGH LEVEL A","3073141","2020-11-20 12:00","2020","11","20","12:00","-20.6","","-22.1","","88","","","","16","","4","","24.1","","97.73","","","","-24","","Ice Crystals"
"-117.16","58.62","HIGH LEVEL A","3073141","2020-11-20 13:00","2020","11","20","13:00","-19.0","","-20.5","","88","","","","36","","3","","24.1","","97.70","","","","-21","","Ice Crystals"
"-117.16","58.62","HIGH LEVEL A","3073141","2020-11-20 14:00","2020","11","20","14:00","-18.2","","-19.6","","89","","","","9","","5","","24.1","","97.67","","","","-22","","Mainly Clear"
"-117.16","58.62","HIGH LEVEL A","3073141","2020-11-20 15:00","2020","11","20","15:00","-17.2","","-18.5","","90","","","","15","","4","","24.1","","97.68","","","","-20","","NA"
"-117.16","58.62","HIGH LEVEL A","3073141","2020-11-20 16:00","2020","11","20","16:00","-17.8","","-19.2","","89","","","","9","","4","","24.1","","97.65","","","","-21","","NA"
"-117.16","58.62","HIGH LEVEL A","3073141","2020-11-20 17:00","2020","11","20","17:00","-20.7","","-22.2","","88","","","","10","","3","","24.1","","97.62","","","","-23","","Mainly Clear"
"-117.16","58.62","HIGH LEVEL A","3073141","2020-11-20 18:00","2020","11","20","18:00","-22.1","","-24.0","","85","","","","36","","2","","24.1","","97.60","","","","-24","","NA"
"-117.16","58.62","HIGH LEVEL A","3073141","2020-11-20 19:00","2020","11","20","19:00","-24.7","","-26.8","","83","","","","36","","3","","24.1","","97.58","","","","-28","","NA"
"-117.16","58.62","HIGH LEVEL A","3073141","2020-11-20 20:00","2020","11","20","20:00","-25.0","","-26.9","","84","","","","36","","1","","24.1","","97.57","","","","-26","","Clear"
"-117.16","58.62","HIGH LEVEL A","3073141","2020-11-20 21:00","2020","11","20","21:00","-25.6","","-27.7","","83","","","","14","","3","","24.1","","97.57","","","","-29","","NA"
"-117.16","58.62","HIGH LEVEL A","3073141","2020-11-20 22:00","2020","11","20","22:00","-26.0","","-28.2","","82","","","","36","","2","","24.1","","97.59","","","","-28","","NA"
"-117.16","58.62","HIGH LEVEL A","3073141","2020-11-20 23:00","2020","11","20","23:00"
"-117.16","58.62","HIGH LEVEL A","3073141","2020-11-21 00:00","2020","11","21","00:00"
"-117.16","58.62","HIGH LEVEL A","3073141","2020-11-21 01:00","2020","11","21","01:00"
"-117.16","58.62","HIGH LEVEL A","3073141","2020-11-21 02:00","2020","11","21","02:00"
"-117.16","58.62","HIGH LEVEL A","3073141","2020-11-21 03:00","2020","11","21","03:00"
"-117.16","58.62","HIGH LEVEL A","3073141","2020-11-21 04:00","2020","11","21","04:00"
"-117.16","58.62","HIGH LEVEL A","3073141","2020-11-21 05:00","2020","11","21","05:00"
"-117.16","58.62","HIGH LEVEL A","3073141","2020-11-21 06:00","2020","11","21","06:00"
"-117.16","58.62","HIGH LEVEL A","3073141","2020-11-21 07:00","2020","11","21","07:00","-29.3","","-31.8","","80","","","","3","","4","","16.1","","97.91","","","","-34","","NA"
"-117.16","58.62","HIGH LEVEL A","3073141","2020-11-21 08:00","2020","11","21","08:00","-29.2","","-31.8","","79","","","","36","","2","","9.7","","97.98","","","","-31","","Fog"
"-117.16","58.62","HIGH LEVEL A","3073141","2020-11-21 09:00","2020","11","21","09:00","-29.5","","-32.2","","78","","","","36","","2","","4.0","","98.06","","","","-32","","Fog"
"-117.16","58.62","HIGH LEVEL A","3073141","2020-11-21 10:00","2020","11","21","10:00","-27.8","","-30.3","","80","","","","36","","1","","24.1","","98.16","","","","-29","","NA"
"-117.16","58.62","HIGH LEVEL A","3073141","2020-11-21 11:00","2020","11","21","11:00","-25.6","","-27.8","","82","","","","36","","1","","24.1","","98.22","","","","-27","","Clear"
"-117.16","58.62","HIGH LEVEL A","3073141","2020-11-21 12:00","2020","11","21","12:00","-22.0","","-23.8","","86","","","","36","","3","","24.1","","98.30","","","","-25","","NA"
"-117.16","58.62","HIGH LEVEL A","3073141","2020-11-21 13:00","2020","11","21","13:00","-17.8","","-19.4","","87","","","","36","","2","","24.1","","98.34","","","","-19","","NA"
"-117.16","58.62","HIGH LEVEL A","3073141","2020-11-21 14:00","2020","11","21","14:00","-14.8","","-16.1","","90","","","","36","","2","","24.1","","98.39","","","","-16","","Clear"
"-117.16","58.62","HIGH LEVEL A","3073141","2020-11-21 15:00","2020","11","21","15:00","-15.5","","-16.9","","89","","","","24","","4","","24.1","","98.45","","","","-18","","NA"
"-117.16","58.62","HIGH LEVEL A","3073141","2020-11-21 16:00","2020","11","21","16:00","-13.6","","-15.6","","85","","","","19","","3","","24.1","","98.47","","","","-16","","NA"
"-117.16","58.62","HIGH LEVEL A","3073141","2020-11-21 17:00","2020","11","21","17:00","-16.0","","-16.6","","95","","","","36","","2","","24.1","","98.49","","","","-17","","Clear"
"-117.16","58.62","HIGH LEVEL A","3073141","2020-11-21 18:00","2020","11","21","18:00","-20.2","","-21.2","","92","","","","36","","2","","24.1","","98.48","","","","-22","","NA"
"-117.16","58.62","HIGH LEVEL A","3073141","2020-11-21 19:00","2020","11","21","19:00","-22.4","","-24.3","","85","","","","36","","2","","24.1","","98.44","","","","-24","","NA"
"-117.16","58.62","HIGH LEVEL A","3073141","2020-11-21 20:00","2020","11","21","20:00","-23.0","","-24.9","","85","","","","33","","3","","24.1","","98.37","","","","-26","","Clear"
"-117.16","58.62","HIGH LEVEL A","3073141","2020-11-21 21:00","2020","11","21","21:00","-23.9","","-25.8","","85","","","","36","","3","","24.1","","98.43","","","","-27","","NA"
"-117.16","58.62","HIGH LEVEL A","3073141","2020-11-21 22:00","2020","11","21","22:00","-25.5","","-27.7","","82","","","","2","","3","","24.1","","98.37","","","","-29","","NA"
"-117.16","58.62","HIGH LEVEL A","3073141","2020-11-21 23:00","2020","11","21","23:00"
"-117.16","58.62","HIGH LEVEL A","3073141","2020-11-22 00:00","2020","11","22","00:00"
"-117.16","58.62","HIGH LEVEL A","3073141","2020-11-22 01:00","2020","11","22","01:00"
"-117.16","58.62","HIGH LEVEL A","3073141","2020-11-22 02:00","2020","11","22","02:00"
"-117.16","58.62","HIGH LEVEL A","3073141","2020-11-22 03:00","2020","11","22","03:00"
"-117.16","58.62","HIGH LEVEL A","3073141","2020-11-22 04:00","2020","11","22","04:00"
"-117.16","58.62","HIGH LEVEL A","3073141","2020-11-22 05:00","2020","11","22","05:00"
"-117.16","58.62","HIGH LEVEL A","3073141","2020-11-22 06:00","2020","11","22","06:00"
"-117.16","58.62","HIGH LEVEL A","3073141","2020-11-22 07:00","2020","11","22","07:00","-16.3","","-17.5","","91","","","","14","","13","","3.6","","97.75","","","","-24","","Snow,Blowing Snow"
"-117.16","58.62","HIGH LEVEL A","3073141","2020-11-22 08:00","2020","11","22","08:00","-16.0","","-17.2","","91","","","","13","","15","","12.9","","97.64","","","","-24","","Snow"
"-117.16","58.62","HIGH LEVEL A","3073141","2020-11-22 09:00","2020","11","22","09:00","-15.8","","-17.1","","90","","","","13","","17","","4.8","","97.55","","","","-24","","Snow"
"-117.16","58.62","HIGH LEVEL A","3073141","2020-11-22 10:00","2020","11","22","10:00","-15.4","","-16.7","","90","","","","12","","16","","4.8","","97.46","","","","-24","","Snow"
"-117.16","58.62","HIGH LEVEL A","3073141","2020-11-22 11:00","2020","11","22","11:00","-14.9","","-16.3","","89","","","","14","","16","","3.2","","97.38","","","","-23","","Snow,Blowing Snow"
"-117.16","58.62","HIGH LEVEL A","3073141","2020-11-22 12:00","2020","11","22","12:00","-14.0","","-15.4","","89","","","","13","","19","","2.4","","97.28","","","","-23","","Snow,Blowing Snow"
"-117.16","58.62","HIGH LEVEL A","3073141","2020-11-22 13:00","2020","11","22","13:00","-13.4","","-14.7","","90","","","","13","","13","","1.2","","97.18","","","","-20","","Snow,Blowing Snow"
"-117.16","58.62","HIGH LEVEL A","3073141","2020-11-22 14:00","2020","11","22","14:00","-13.0","","-14.4","","90","","","","13","","17","","2.4","","97.07","","","","-21","","Snow,Blowing Snow"
"-117.16","58.62","HIGH LEVEL A","3073141","2020-11-22 15:00","2020","11","22","15:00","-12.4","","-13.9","","89","","","","13","","19","","1.6","","97.00","","","","-21","","Snow,Blowing Snow"
"-117.16","58.62","HIGH LEVEL A","3073141","2020-11-22 16:00","2020","11","22","16:00","-13.1","","-14.4","","90","","","","15","","17","","1.2","","97.00","","","","-21","","Snow,Blowing Snow"
"-117.16","58.62","HIGH LEVEL A","3073141","2020-11-22 17:00","2020","11","22","17:00","-13.7","","-15.3","","88","","","","14","","20","","2.0","","96.97","","","","-23","","Snow,Blowing Snow"
"-117.16","58.62","HIGH LEVEL A","3073141","2020-11-22 18:00","2020","11","22","18:00","-14.1","","-15.4","","90","","","","17","","13","","2.4","","96.98","","","","-21","","Snow,Blowing Snow"
"-117.16","58.62","HIGH LEVEL A","3073141","2020-11-22 19:00","2020","11","22","19:00","-14.5","","-16.1","","88","","","","15","","17","","4.8","","96.97","","","","-23","","Snow,Blowing Snow"
"-117.16","58.62","HIGH LEVEL A","3073141","2020-11-22 20:00","2020","11","22","20:00","-14.6","","-16.2","","88","","","","19","","4","","8.1","","96.94","","","","-17","","Snow"
"-117.16","58.62","HIGH LEVEL A","3073141","2020-11-22 21:00","2020","11","22","21:00","-14.7","","-16.0","","90","","","","21","","5","","4.8","","96.97","","","","-18","","Snow"
"-117.16","58.62","HIGH LEVEL A","3073141","2020-11-22 22:00","2020","11","22","22:00","-14.7","","-16.1","","89","","","","19","","4","","2.4","","96.96","","","","-18","","Snow"
"-117.16","58.62","HIGH LEVEL A","3073141","2020-11-22 23:00","2020","11","22","23:00"
"-117.16","58.62","HIGH LEVEL A","3073141","2020-11-23 00:00","2020","11","23","00:00"
"-117.16","58.62","HIGH LEVEL A","3073141","2020-11-23 01:00","2020","11","23","01:00"
"-117.16","58.62","HIGH LEVEL A","3073141","2020-11-23 02:00","2020","11","23","02:00"
"-117.16","58.62","HIGH LEVEL A","3073141","2020-11-23 03:00","2020","11","23","03:00"
"-117.16","58.62","HIGH LEVEL A","3073141","2020-11-23 04:00","2020","11","23","04:00"
"-117.16","58.62","HIGH LEVEL A","3073141","2020-11-23 05:00","2020","11","23","05:00"
"-117.16","58.62","HIGH LEVEL A","3073141","2020-11-23 06:00","2020","11","23","06:00"
"-117.16","58.62","HIGH LEVEL A","3073141","2020-11-23 07:00","2020","11","23","07:00","-26.0","","-28.2","","82","","","","36","","1","","24.1","","97.04","","","","-27","","NA"
"-117.16","58.62","HIGH LEVEL A","3073141","2020-11-23 08:00","2020","11","23","08:00","-26.8","","-29.1","","81","","","","36","","5","","24.1","","97.04","","","","-32","","Mainly Clear"
"-117.16","58.62","HIGH LEVEL A","3073141","2020-11-23 09:00","2020","11","23","09:00","-26.5","","-28.7","","82","","","","36","","1","","24.1","","97.04","","","","-28","","NA"
"-117.16","58.62","HIGH LEVEL A","3073141","2020-11-23 10:00","2020","11","23","10:00","-25.8","","-28.2","","81","","","","36","","1","","24.1","","97.02","","","","-27","","NA"
"-117.16","58.62","HIGH LEVEL A","3073141","2020-11-23 11:00","2020","11","23","11:00","-23.3","","-25.2","","85","","","","36","","2","","24.1","","97.00","","","","-25","","Mostly Cloudy"
"-117.16","58.62","HIGH LEVEL A","3073141","2020-11-23 12:00","2020","11","23","12:00","-21.0","","-22.6","","87","","","","16","","5","","24.1","","96.97","","","","-25","","NA"
"-117.16","58.62","HIGH LEVEL A","3073141","2020-11-23 13:00","2020","11","23","13:00","-18.3","","-19.6","","90","","","","11","","5","","24.1","","96.94","","","","-22","","NA"
"-117.16","58.62","HIGH LEVEL A","3073141","2020-11-23 14:00","2020","11","23","14:00","-15.7","","-16.8","","91","","","","16","","5","","24.1","","96.91","","","","-19","","Mostly Cloudy"
"-117.16","58.62","HIGH LEVEL A","3073141","2020-11-23 15:00","2020","11","23","15:00","-14.3","","-15.2","","93","","","","36","","2","","24.1","","96.84","","","","-16","","NA"
"-117.16","58.62","HIGH LEVEL A","3073141","2020-11-23 16:00","2020","11","23","16:00","-15.1","","-16.1","","92","","","","36","","2","","24.1","","96.81","","","","-17","","NA"
"-117.16","58.62","HIGH LEVEL A","3073141","2020-11-23 17:00","2020","11","23","17:00","-15.1","","-16.2","","92","","","","15","","7","","24.1","","96.75","","","","-20","","Mostly Cloudy"
"-117.16","58.62","HIGH LEVEL A","3073141","2020-11-23 18:00","2020","11","23","18:00","-15.9","","-17.1","","91","","","","36","","1","","24.1","","96.68","","","","-17","","NA"
"-117.16","58.62","HIGH LEVEL A","3073141","2020-11-23 19:00","2020","11","23","19:00","-13.8","","-14.8","","92","","","","","","0","","24.1","","96.59","","","","","","NA"
"-117.16","58.62","HIGH LEVEL A","3073141","2020-11-23 20:00","2020","11","23","20:00","-13.1","","-14.1","","92","","","","14","","13","","16.1","","96.52","","","","-20","","Snow"
"-117.16","58.62","HIGH LEVEL A","3073141","2020-11-23 21:00","2020","11","23","21:00","-12.4","","-13.6","","91","","","","36","","3","","16.1","","96.44","","","","-14","","NA"
"-117.16","58.62","HIGH LEVEL A","3073141","2020-11-23 22:00","2020","11","23","22:00","-12.0","","-13.1","","92","","","","19","","5","","16.1","","96.33","","","","-15","","NA"
"-117.16","58.62","HIGH LEVEL A","3073141","2020-11-23 23:00","2020","11","23","23:00"
"-117.16","58.62","HIGH LEVEL A","3073141","2020-11-24 00:00","2020","11","24","00:00"
"-117.16","58.62","HIGH LEVEL A","3073141","2020-11-24 01:00","2020","11","24","01:00"
"-117.16","58.62","HIGH LEVEL A","3073141","2020-11-24 02:00","2020","11","24","02:00"
"-117.16","58.62","HIGH LEVEL A","3073141","2020-11-24 03:00","2020","11","24","03:00"
"-117.16","58.62","HIGH LEVEL A","3073141","2020-11-24 04:00","2020","11","24","04:00"
"-117.16","58.62","HIGH LEVEL A","3073141","2020-11-24 05:00","2020","11","24","05:00"
"-117.16","58.62","HIGH LEVEL A","3073141","2020-11-24 06:00","2020","11","24","06:00"
"-117.16","58.62","HIGH LEVEL A","3073141","2020-11-24 07:00","2020","11","24","07:00","-12.3","","-12.9","","95","","","","30","","4","","16.1","","95.66","","","","-15","","NA"
"-117.16","58.62","HIGH LEVEL A","3073141","2020-11-24 08:00","2020","11","24","08:00","-11.2","","-11.8","","95","","","","36","","1","","16.1","","95.59","","","","-12","","Cloudy"
"-117.16","58.62","HIGH LEVEL A","3073141","2020-11-24 09:00","2020","11","24","09:00","-10.2","","-10.7","","96","","","","31","","3","","16.1","","95.55","","","","-12","","NA"
"-117.16","58.62","HIGH LEVEL A","3073141","2020-11-24 10:00","2020","11","24","10:00","-9.4","","-9.8","","97","","","","27","","4","","16.1","","95.54","","","","-12","","Snow"
"-117.16","58.62","HIGH LEVEL A","3073141","2020-11-24 11:00","2020","11","24","11:00","-8.6","","-8.9","","98","","","","30","","3","","3.6","","95.49","","","","-10","","Snow"
"-117.16","58.62","HIGH LEVEL A","3073141","2020-11-24 12:00","2020","11","24","12:00","-7.5","","-7.8","","98","","","","35","","6","","16.1","","95.52","","","","-11","","Snow"
"-117.16","58.62","HIGH LEVEL A","3073141","2020-11-24 13:00","2020","11","24","13:00","-7.3","","-7.7","","97","","","","36","","3","","16.1","","95.51","","","","-9","","Snow"
"-117.16","58.62","HIGH LEVEL A","3073141","2020-11-24 14:00","2020","11","24","14:00","-7.1","","-7.6","","96","","","","36","","12","","16.1","","95.51","","","","-12","","Cloudy"
"-117.16","58.62","HIGH LEVEL A","3073141","2020-11-24 15:00","2020","11","24","15:00","-6.7","","-7.2","","96","","","","36","","12","","16.1","","95.57","","","","-12","","NA"
"-117.16","58.62","HIGH LEVEL A","3073141","2020-11-24 16:00","2020","11","24","16:00","-7.2","","-7.7","","97","","","","36","","10","","16.1","","95.59","","","","-12","","NA"
"-117.16","58.62","HIGH LEVEL A","3073141","2020-11-24 17:00","2020","11","24","17:00","-8.0","","-8.3","","98","","","","36","","13","","9.7","","95.63","","","","-14","","Fog"
"-117.16","58.62","HIGH LEVEL A","3073141","2020-11-24 18:00","2020","11","24","18:00","-8.7","","-9.0","","98","","","","36","","7","","16.1","","95.68","","","","-13","","NA"
"-117.16","58.62","HIGH LEVEL A","3073141","2020-11-24 19:00","2020","11","24","19:00","-8.8","","-9.2","","97","","","","2","","5","","16.1","","95.71","","","","-12","","NA"
"-117.16","58.62","HIGH LEVEL A","3073141","2020-11-24 20:00","2020","11","24","20:00","-9.3","","-9.8","","96","","","","0","","1","","12.9","","95.73","","","","-10","","Snow"
"-117.16","58.62","HIGH LEVEL A","3073141","2020-11-24 21:00","2020","11","24","21:00","-9.6","","-10.0","","97","","","","36","","2","","16.1","","95.76","","","","-11","","Snow"
"-117.16","58.62","HIGH LEVEL A","3073141","2020-11-24 22:00","2020","11","24","22:00","-10.9","","-11.3","","97","","","","36","","1","","16.1","","95.81","","","","-12","","NA"
"-117.16","58.62","HIGH LEVEL A","3073141","2020-11-24 23:00","2020","11","24","23:00"
"-117.16","58.62","HIGH LEVEL A","3073141","2020-11-25 00:00","2020","11","25","00:00"
"-117.16","58.62","HIGH LEVEL A","3073141","2020-11-25 01:00","2020","11","25","01:00"
"-117.16","58.62","HIGH LEVEL A","3073141","2020-11-25 02:00","2020","11","25","02:00"
"-117.16","58.62","HIGH LEVEL A","3073141","2020-11-25 03:00","2020","11","25","03:00"
"-117.16","58.62","HIGH LEVEL A","3073141","2020-11-25 04:00","2020","11","25","04:00"
"-117.16","58.62","HIGH LEVEL A","3073141","2020-11-25 05:00","2020","11","25","05:00"
"-117.16","58.62","HIGH LEVEL A","3073141","2020-11-25 06:00","2020","11","25","06:00"
"-117.16","58.62","HIGH LEVEL A","3073141","2020-11-25 07:00","2020","11","25","07:00","-10.1","","-11.6","","89","","","","36","","2","","16.1","","96.34","","","","-11","","Snow"
"-117.16","58.62","HIGH LEVEL A","3073141","2020-11-25 08:00","2020","11","25","08:00","-10.6","","-11.7","","92","","","","36","","2","","16.1","","96.34","","","","-12","","Snow"
"-117.16","58.62","HIGH LEVEL A","3073141","2020-11-25 09:00","2020","11","25","09:00","-10.4","","-11.9","","89","","","","32","","5","","24.1","","96.38","","","","-13","","Snow"
"-117.16","58.62","HIGH LEVEL A","3073141","2020-11-25 10:00","2020","11","25","10:00","-10.6","","-11.9","","90","","","","30","","8","","24.1","","96.43","","","","-15","","Snow"
"-117.16","58.62","HIGH LEVEL A","3073141","2020-11-25 11:00","2020","11","25","11:00","-10.8","","-12.3","","89","","","","25","","4","","24.1","","96.46","","","","-13","","Snow"
"-117.16","58.62","HIGH LEVEL A","3073141","2020-11-25 12:00","2020","11","25","12:00","-9.7","","-11.9","","84","","","","14","","4","","24.1","","96.43","","","","-12","","NA"
"-117.16","58.62","HIGH LEVEL A","3073141","2020-11-25 13:00","2020","11","25","13:00","-9.2","","-11.3","","85","","","","5","","7","","24.1","","96.39","","","","-13","","NA"
"-117.16","58.62","HIGH LEVEL A","3073141","2020-11-25 14:00","2020","11","25","14:00","-8.9","","-10.8","","86","","","","6","","3","","24.1","","96.42","","","","-11","","Cloudy"
"-117.16","58.62","HIGH LEVEL A","3073141","2020-11-25 15:00","2020","11","25","15:00","-9.1","","-10.6","","89","","","","8","","5","","16.1","","96.42","","","","-12","","NA"
"-117.16","58.62","HIGH LEVEL A","3073141","2020-11-25 16:00","2020","11","25","16:00","-9.1","","-10.3","","91","","","","26","","3","","6.4","","96.43","","","","-11","","Snow"
"-117.16","58.62","HIGH LEVEL A","3073141","2020-11-25 17:00","2020","11","25","17:00","-9.3","","-10.4","","92","","","","30","","4","","4.8","","96.45","","","","-12","","Snow"
"-117.16","58.62","HIGH LEVEL A","3073141","2020-11-25 18:00","2020","11","25","18:00","-10.9","","-11.4","","96","","","","34","","10","","16.1","","96.49","","","","-16","","Snow"
"-117.16","58.62","HIGH LEVEL A","3073141","2020-11-25 19:00","2020","11","25","19:00","-11.6","","-13.1","","89","","","","34","","8","","24.1","","96.55","","","","-16","","Snow"
"-117.16","58.62","HIGH LEVEL A","3073141","2020-11-25 20:00","2020","11","25","20:00","-11.4","","-13.5","","85","","","","31","","16","","24.1","","96.68","","","","-19","","Mainly Clear"
"-117.16","58.62","HIGH LEVEL A","3073141","2020-11-25 21:00","2020","11","25","21:00","-12.2","","-14.5","","83","","","","33","","18","","24.1","","96.74","","","","-20","","NA"
"-117.16","58.62","HIGH LEVEL A","3073141","2020-11-25 22:00","2020","11","25","22:00","-12.8","","-15.6","","80","","","","33","","13","","24.1","","96.82","","","","-20","","NA"
"-117.16","58.62","HIGH LEVEL A","3073141","2020-11-25 23:00","2020","11","25","23:00"
"-117.16","58.62","HIGH LEVEL A","3073141","2020-11-26 00:00","2020","11","26","00:00"
"-117.16","58.62","HIGH LEVEL A","3073141","2020-11-26 01:00","2020","11","26","01:00"
"-117.16","58.62","HIGH LEVEL A","3073141","2020-11-26 02:00","2020","11","26","02:00"
"-117.16","58.62","HIGH LEVEL A","3073141","2020-11-26 03:00","2020","11","26","03:00"
"-117.16","58.62","HIGH LEVEL A","3073141","2020-11-26 04:00","2020","11","26","04:00"
"-117.16","58.62","HIGH LEVEL A","3073141","2020-11-26 05:00","2020","11","26","05:00"
"-117.16","58.62","HIGH LEVEL A","3073141","2020-11-26 06:00","2020","11","26","06:00"
"-117.16","58.62","HIGH LEVEL A","3073141","2020-11-26 07:00","2020","11","26","07:00","-24.1","","-26.1","","84","","","","11","","5","","16.1","","96.60","","","","-29","","NA"
"-117.16","58.62","HIGH LEVEL A","3073141","2020-11-26 08:00","2020","11","26","08:00","-22.9","","-24.8","","85","","","","36","","3","","16.1","","96.50","","","","-26","","Mostly Cloudy"
"-117.16","58.62","HIGH LEVEL A","3073141","2020-11-26 09:00","2020","11","26","09:00","-19.4","","-20.8","","89","","","","27","","4","","16.1","","96.43","","","","-23","","NA"
"-117.16","58.62","HIGH LEVEL A","3073141","2020-11-26 10:00","2020","11","26","10:00","-17.3","","-18.6","","90","","","","24","","6","","24.1","","96.32","","","","-22","","NA"
"-117.16","58.62","HIGH LEVEL A","3073141","2020-11-26 11:00","2020","11","26","11:00","-16.2","","-17.4","","91","","","","15","","10","","24.1","","96.22","","","","-23","","Cloudy"
"-117.16","58.62","HIGH LEVEL A","3073141","2020-11-26 12:00","2020","11","26","12:00","-13.9","","-14.9","","92","","","","14","","14","","24.1","","96.04","","","","-21","","NA"
"-117.16","58.62","HIGH LEVEL A","3073141","2020-11-26 13:00","2020","11","26","13:00","-12.7","","-14.0","","90","","","","16","","14","","24.1","","95.94","","","","-20","","NA"
"-117.16","58.62","HIGH LEVEL A","3073141","2020-11-26 14:00","2020","11","26","14:00","-12.0","","-13.6","","88","","","","16","","4","","24.1","","95.89","","","","-15","","Mostly Cloudy"
"-117.16","58.62","HIGH LEVEL A","3073141","2020-11-26 15:00","2020","11","26","15:00","-11.3","","-12.8","","89","","","","23","","5","","16.1","","95.80","","","","-14","","NA"
"-117.16","58.62","HIGH LEVEL A","3073141","2020-11-26 16:00","2020","11","26","16:00","-10.8","","-12.1","","90","","","","15","","9","","16.1","","95.67","","","","-16","","Snow"
"-117.16","58.62","HIGH LEVEL A","3073141","2020-11-26 17:00","2020","11","26","17:00","-11.0","","-12.2","","91","","","","20","","5","","24.1","","95.67","","","","-14","","Mostly Cloudy"
"-117.16","58.62","HIGH LEVEL A","3073141","2020-11-26 18:00","2020","11","26","18:00","-11.1","","-12.1","","92","","","","29","","9","","24.1","","95.64","","","","-16","","NA"
"-117.16","58.62","HIGH LEVEL A","3073141","2020-11-26 19:00","2020","11","26","19:00","-10.9","","-11.7","","94","","","","23","","8","","4.0","","95.60","","","","-16","","Snow"
"-117.16","58.62","HIGH LEVEL A","3073141","2020-11-26 20:00","2020","11","26","20:00","-10.8","","-11.7","","93","","","","15","","5","","16.1","","95.58","","","","-14","","Snow"
"-117.16","58.62","HIGH LEVEL A","3073141","2020-11-26 21:00","2020","11","26","21:00","-11.1","","-12.0","","93","","","","17","","8","","24.1","","95.57","","","","-16","","NA"
"-117.16","58.62","HIGH LEVEL A","3073141","2020-11-26 22:00","2020","11","26","22:00","-12.1","","-13.0","","93","","","","16","","11","","24.1","","95.55","","","","-18","","NA"
"-117.16","58.62","HIGH LEVEL A","3073141","2020-11-26 23:00","2020","11","26","23:00"
"-117.16","58.62","HIGH LEVEL A","3073141","2020-11-27 00:00","2020","11","27","00:00"
"-117.16","58.62","HIGH LEVEL A","3073141","2020-11-27 01:00","2020","11","27","01:00"
"-117.16","58.62","HIGH LEVEL A","3073141","2020-11-27 02:00","2020","11","27","02:00"
"-117.16","58.62","HIGH LEVEL A","3073141","2020-11-27 03:00","2020","11","27","03:00"
"-117.16","58.62","HIGH LEVEL A","3073141","2020-11-27 04:00","2020","11","27","04:00"
"-117.16","58.62","HIGH LEVEL A","3073141","2020-11-27 05:00","2020","11","27","05:00"
"-117.16","58.62","HIGH LEVEL A","3073141","2020-11-27 06:00","2020","11","27","06:00"
"-117.16","58.62","HIGH LEVEL A","3073141","2020-11-27 07:00","2020","11","27","07:00","-0.2","","-5.2","","69","","","","27","","11","","24.1","","95.76","","","","-4","","Snow"
"-117.16","58.62","HIGH LEVEL A","3073141","2020-11-27 08:00","2020","11","27","08:00","-0.2","","-5.1","","70","","","","27","","20","","24.1","","95.85","","","","-5","","Snow"
"-117.16","58.62","HIGH LEVEL A","3073141","2020-11-27 09:00","2020","11","27","09:00","-0.6","","-5.2","","71","","","","28","","18","","16.1","","95.99","","","","-6","","Snow"
"-117.16","58.62","HIGH LEVEL A","3073141","2020-11-27 10:00","2020","11","27","10:00","-2.1","","-4.7","","82","","","","29","","13","","24.1","","96.09","","","","-7","","Snow"
"-117.16","58.62","HIGH LEVEL A","3073141","2020-11-27 11:00","2020","11","27","11:00","-3.1","","-6.8","","76","","","","32","","15","","24.1","","96.25","","","","-8","","Snow"
"-117.16","58.62","HIGH LEVEL A","3073141","2020-11-27 12:00","2020","11","27","12:00","-3.7","","-8.8","","68","","","","32","","12","","24.1","","96.37","","","","-8","","NA"
"-117.16","58.62","HIGH LEVEL A","3073141","2020-11-27 13:00","2020","11","27","13:00","-3.6","","-9.1","","66","","","","30","","18","","24.1","","96.41","","","","-9","","NA"
"-117.16","58.62","HIGH LEVEL A","3073141","2020-11-27 14:00","2020","11","27","14:00","-4.3","","-9.2","","69","","","","32","","12","","24.1","","96.50","","","","-9","","Mostly Cloudy"
"-117.16","58.62","HIGH LEVEL A","3073141","2020-11-27 15:00","2020","11","27","15:00","-4.1","","-8.7","","70","","","","31","","10","","24.1","","96.52","","","","-8","","NA"
"-117.16","58.62","HIGH LEVEL A","3073141","2020-11-27 16:00","2020","11","27","16:00","-4.6","","-8.6","","74","","","","28","","10","","24.1","","96.56","","","","-9","","NA"
"-117.16","58.62","HIGH LEVEL A","3073141","2020-11-27 17:00","2020","11","27","17:00","-6.4","","-9.2","","81","","","","31","","7","","24.1","","96.54","","","","-10","","Mostly Cloudy"
"-117.16","58.62","HIGH LEVEL A","3073141","2020-11-27 18:00","2020","11","27","18:00","-9.3","","-10.9","","88","","","","20","","7","","24.1","","96.54","","","","-13","","NA"
"-117.16","58.62","HIGH LEVEL A","3073141","2020-11-27 19:00","2020","11","27","19:00","-10.4","","-11.7","","90","","","","28","","5","","24.1","","96.54","","","","-13","","NA"
"-117.16","58.62","HIGH LEVEL A","3073141","2020-11-27 20:00","2020","11","27","20:00","-11.0","","-11.7","","95","","","","0","","1","","24.1","","96.59","","","","-12","","Clear"
"-117.16","58.62","HIGH LEVEL A","3073141","2020-11-27 21:00","2020","11","27","21:00","-12.5","","-13.1","","95","","","","36","","3","","24.1","","96.63","","","","-14","","NA"
"-117.16","58.62","HIGH LEVEL A","3073141","2020-11-27 22:00","2020","11","27","22:00","-14.8","","-16.0","","91","","","","2","","6","","24.1","","96.70","","","","-19","","NA"
"-117.16","58.62","HIGH LEVEL A","3073141","2020-11-27 23:00","2020","11","27","23:00"
"-117.16","58.62","HIGH LEVEL A","3073141","2020-11-28 00:00","2020","11","28","00:00"
"-117.16","58.62","HIGH LEVEL A","3073141","2020-11-28 01:00","2020","11","28","01:00"
"-117.16","58.62","HIGH LEVEL A","3073141","2020-11-28 02:00","2020","11","28","02:00"
"-117.16","58.62","HIGH LEVEL A","3073141","2020-11-28 03:00","2020","11","28","03:00"
"-117.16","58.62","HIGH LEVEL A","3073141","2020-11-28 04:00","2020","11","28","04:00"
"-117.16","58.62","HIGH LEVEL A","3073141","2020-11-28 05:00","2020","11","28","05:00"
"-117.16","58.62","HIGH LEVEL A","3073141","2020-11-28 06:00","2020","11","28","06:00"
"-117.16","58.62","HIGH LEVEL A","3073141","2020-11-28 07:00","2020","11","28","07:00","-20.2","","-21.4","","90","","","","16","","3","","24.1","","97.12","","","","-23","","NA"
"-117.16","58.62","HIGH LEVEL A","3073141","2020-11-28 08:00","2020","11","28","08:00","-20.6","","-22.0","","89","","","","20","","4","","24.1","","97.15","","","","-24","","Clear"
"-117.16","58.62","HIGH LEVEL A","3073141","2020-11-28 09:00","2020","11","28","09:00","-21.7","","-23.3","","87","","","","15","","7","","24.1","","97.21","","","","-28","","NA"
"-117.16","58.62","HIGH LEVEL A","3073141","2020-11-28 10:00","2020","11","28","10:00","-18.7","","-20.1","","89","","","","16","","4","","24.1","","97.25","","","","-22","","NA"
"-117.16","58.62","HIGH LEVEL A","3073141","2020-11-28 11:00","2020","11","28","11:00","-15.9","","-17.0","","91","","","","15","","7","","24.1","","97.29","","","","-21","","Clear"
"-117.16","58.62","HIGH LEVEL A","3073141","2020-11-28 12:00","2020","11","28","12:00","-14.9","","-15.7","","94","","","","20","","10","","24.1","","97.29","","","","-21","","Ice Crystals"
"-117.16","58.62","HIGH LEVEL A","3073141","2020-11-28 13:00","2020","11","28","13:00","-14.1","","-15.0","","93","","","","15","","13","","24.1","","97.29","","","","-21","","NA"
"-117.16","58.62","HIGH LEVEL A","3073141","2020-11-28 14:00","2020","11","28","14:00","-12.2","","-12.9","","94","","","","15","","9","","24.1","","97.28","","","","-17","","Mainly Clear"
"-117.16","58.62","HIGH LEVEL A","3073141","2020-11-28 15:00","2020","11","28","15:00","-11.9","","-12.6","","95","","","","15","","11","","24.1","","97.25","","","","-18","","NA"
"-117.16","58.62","HIGH LEVEL A","3073141","2020-11-28 16:00","2020","11","28","16:00","-13.8","","-14.9","","92","","","","15","","8","","24.1","","97.26","","","","-19","","NA"
"-117.16","58.62","HIGH LEVEL A","3073141","2020-11-28 17:00","2020","11","28","17:00","-17.8","","-19.3","","88","","","","16","","4","","24.1","","97.26","","","","-21","","Mainly Clear"
"-117.16","58.62","HIGH LEVEL A","3073141","2020-11-28 18:00","2020","11","28","18:00","-18.8","","-20.0","","90","","","","16","","7","","24.1","","97.26","","","","-24","","NA"
"-117.16","58.62","HIGH LEVEL A","3073141","2020-11-28 19:00","2020","11","28","19:00","-19.7","","-21.1","","89","","","","19","","6","","24.1","","97.23","","","","-25","","NA"
"-117.16","58.62","HIGH LEVEL A","3073141","2020-11-28 20:00","2020","11","28","20:00","-22.2","","-24.0","","85","","","","12","","4","","24.1","","97.17","","","","-26","","Clear"
"-117.16","58.62","HIGH LEVEL A","3073141","2020-11-28 21:00","2020","11","28","21:00","-21.5","","-23.1","","87","","","","36","","1","","24.1","","97.11","","","","-22","","NA"
"-117.16","58.62","HIGH LEVEL A","3073141","2020-11-28 22:00","2020","11","28","22:00","-21.5","","-23.1","","87","","","","36","","1","","24.1","","97.05","","","","-22","","NA"
"-117.16","58.62","HIGH LEVEL A","3073141","2020-11-28 23:00","2020","11","28","23:00"
"-117.16","58.62","HIGH LEVEL A","3073141","2020-11-29 00:00","2020","11","29","00:00"
"-117.16","58.62","HIGH LEVEL A","3073141","2020-11-29 01:00","2020","11","29","01:00"
"-117.16","58.62","HIGH LEVEL A","3073141","2020-11-29 02:00","2020","11","29","02:00"
"-117.16","58.62","HIGH LEVEL A","3073141","2020-11-29 03:00","2020","11","29","03:00"
"-117.16","58.62","HIGH LEVEL A","3073141","2020-11-29 04:00","2020","11","29","04:00"
"-117.16","58.62","HIGH LEVEL A","3073141","2020-11-29 05:00","2020","11","29","05:00"
"-117.16","58.62","HIGH LEVEL A","3073141","2020-11-29 06:00","2020","11","29","06:00"
"-117.16","58.62","HIGH LEVEL A","3073141","2020-11-29 07:00","2020","11","29","07:00","-20.7","","-22.3","","87","","","","36","","3","","24.1","","96.49","","","","-23","","NA"
"-117.16","58.62","HIGH LEVEL A","3073141","2020-11-29 08:00","2020","11","29","08:00","-21.5","","-23.4","","85","","","","36","","2","","24.1","","96.47","","","","-23","","Mainly Clear"
"-117.16","58.62","HIGH LEVEL A","3073141","2020-11-29 09:00","2020","11","29","09:00","-20.0","","-21.5","","88","","","","36","","1","","24.1","","96.46","","","","-21","","NA"
"-117.16","58.62","HIGH LEVEL A","3073141","2020-11-29 10:00","2020","11","29","10:00","-20.8","","-22.3","","88","","","","12","","4","","24.1","","96.44","","","","-24","","NA"
"-117.16","58.62","HIGH LEVEL A","3073141","2020-11-29 11:00","2020","11","29","11:00","-19.7","","-21.2","","88","","","","13","","5","","24.1","","96.43","","","","-24","","Mainly Clear"
"-117.16","58.62","HIGH LEVEL A","3073141","2020-11-29 12:00","2020","11","29","12:00","-15.9","","-16.8","","93","","","","9","","5","","24.1","","96.40","","","","-20","","NA"
"-117.16","58.62","HIGH LEVEL A","3073141","2020-11-29 13:00","2020","11","29","13:00","-11.4","","-12.2","","94","","","","10","","7","","24.1","","96.37","","","","-16","","NA"
"-117.16","58.62","HIGH LEVEL A","3073141","2020-11-29 14:00","2020","11","29","14:00","-9.1","","-9.5","","97","","","","36","","2","","24.1","","96.35","","","","-10","","Mainly Clear"
"-117.16","58.62","HIGH LEVEL A","3073141","2020-11-29 15:00","2020","11","29","15:00","-10.7","","-11.2","","96","","","","28","","5","","24.1","","96.32","","","","-14","","NA"
"-117.16","58.62","HIGH LEVEL A","3073141","2020-11-29 16:00","2020","11","29","16:00","-10.6","","-11.2","","95","","","","36","","2","","24.1","","96.29","","","","-12","","NA"
"-117.16","58.62","HIGH LEVEL A","3073141","2020-11-29 17:00","2020","11","29","17:00","-14.8","","-15.6","","94","","","","36","","3","","24.1","","96.28","","","","-17","","Mainly Clear"
"-117.16","58.62","HIGH LEVEL A","3073141","2020-11-29 18:00","2020","11","29","18:00","-14.5","","-15.6","","92","","","","31","","6","","24.1","","96.26","","","","-19","","NA"
"-117.16","58.62","HIGH LEVEL A","3073141","2020-11-29 19:00","2020","11","29","19:00","-15.8","","-16.9","","92","","","","36","","1","","24.1","","96.20","","","","-17","","NA"
"-117.16","58.62","HIGH LEVEL A","3073141","2020-11-29 20:00","2020","11","29","20:00","-15.8","","-16.8","","92","","","","36","","1","","24.1","","96.16","","","","-17","","Clear"
"-117.16","58.62","HIGH LEVEL A","3073141","2020-11-29 21:00","2020","11","29","21:00","-15.9","","-17.1","","91","","","","36","","2","","24.1","","96.14","","","","-17","","NA"
"-117.16","58.62","HIGH LEVEL A","3073141","2020-11-29 22:00","2020","11","29","22:00","-16.2","","-17.4","","90","","","","36","","1","","24.1","","96.11","","","","-17","","NA"
"-117.16","58.62","HIGH LEVEL A","3073141","2020-11-29 23:00","2020","11","29","23:00"
"-117.16","58.62","HIGH LEVEL A","3073141","2020-11-30 00:00","2020","11","30","00:00"
"-117.16","58.62","HIGH LEVEL A","3073141","2020-11-30 01:00","2020","11","30","01:00"
"-117.16","58.62","HIGH LEVEL A","3073141","2020-11-30 02:00","2020","11","30","02:00"
"-117.16","58.62","HIGH LEVEL A","3073141","2020-11-30 03:00","2020","11","30","03:00"
"-117.16","58.62","HIGH LEVEL A","3073141","2020-11-30 04:00","2020","11","30","04:00"
"-117.16","58.62","HIGH LEVEL A","3073141","2020-11-30 05:00","2020","11","30","05:00"
"-117.16","58.62","HIGH LEVEL A","3073141","2020-11-30 06:00","2020","11","30","06:00"
"-117.16","58.62","HIGH LEVEL A","3073141","2020-11-30 07:00","2020","11","30","07:00","-15.6","","-16.6","","92","","","","31","","4","","24.1","","95.35","","","","-19","","NA"
"-117.16","58.62","HIGH LEVEL A","3073141","2020-11-30 08:00","2020","11","30","08:00","-14.8","","-15.7","","93","","","","21","","6","","24.1","","95.23","","","","-19","","Mostly Cloudy"
"-117.16","58.62","HIGH LEVEL A","3073141","2020-11-30 09:00","2020","11","30","09:00","-13.4","","-14.1","","94","","","","36","","3","","24.1","","95.13","","","","-15","","NA"
"-117.16","58.62","HIGH LEVEL A","3073141","2020-11-30 10:00","2020","11","30","10:00","-11.9","","-12.2","","98","","","","20","","4","","24.1","","95.10","","","","-14","","NA"
"-117.16","58.62","HIGH LEVEL A","3073141","2020-11-30 11:00","2020","11","30","11:00","-8.0","","-8.3","","98","","","","36","","3","","24.1","","95.06","","","","-10","","Cloudy"
"-117.16","58.62","HIGH LEVEL A","3073141","2020-11-30 12:00","2020","11","30","12:00","-4.2","","-4.7","","96","","","","19","","4","","24.1","","95.02","","","","-6","","Freezing Rain"
"-117.16","58.62","HIGH LEVEL A","3073141","2020-11-30 13:00","2020","11","30","13:00","-4.4","","-4.7","","98","","","","28","","5","","16.1","","95.06","","","","-7","","Freezing Rain"
"-117.16","58.62","HIGH LEVEL A","3073141","2020-11-30 14:00","2020","11","30","14:00","-3.8","","-4.0","","98","","","","28","","10","","16.1","","95.07","","","","-8","","Freezing Rain"
"-117.16","58.62","HIGH LEVEL A","3073141","2020-11-30 15:00","2020","11","30","15:00","-3.2","","-3.5","","98","","","","23","","7","","16.1","","95.15","","","","-6","","Freezing Rain,Snow"
"-117.16","58.62","HIGH LEVEL A","3073141","2020-11-30 16:00","2020","11","30","16:00","-2.9","","-3.0","","99","","","","22","","3","","9.7","","95.29","","","","-4","","Snow"
"-117.16","58.62","HIGH LEVEL A","3073141","2020-11-30 17:00","2020","11","30","17:00","-2.7","","-2.7","","100","","","","30","","22","","16.1","","95.46","","","","-9","","Cloudy"
"-117.16","58.62","HIGH LEVEL A","3073141","2020-11-30 18:00","2020","11","30","18:00","1.2","","-1.2","","84","","","","29","","25","","9.7","","95.69","","","","","","Snow,Blowing Snow"
"-117.16","58.62","HIGH LEVEL A","3073141","2020-11-30 19:00","2020","11","30","19:00","1.0","","-1.4","","84","","","","32","","26","","24.1","","95.93","","","","","","Blowing Snow"
"-117.16","58.62","HIGH LEVEL A","3073141","2020-11-30 20:00","2020","11","30","20:00","1.0","","-1.7","","82","","","","30","","28","","24.1","","96.20","","","","","","Blowing Snow"
"-117.16","58.62","HIGH LEVEL A","3073141","2020-11-30 21:00","2020","11","30","21:00","1.2","","-1.9","","80","","","","30","","14","","24.1","","96.45","","","","","","Blowing Snow"
"-117.16","58.62","HIGH LEVEL A","3073141","2020-11-30 22:00","2020","11","30","22:00","1.1","","-2.1","","79","","","","32","","13","","24.1","","96.64","","","","","","NA"
"-117.16","58.62","HIGH LEVEL A","3073141","2020-11-30 23:00","2020","11","30","23:00"
