"Longitude (x)","Latitude (y)","Station Name","Climate ID","Date/Time (LST)","Year","Month","Day","Time (LST)","Temp (°C)","Temp Flag","Dew Point Temp (°C)","Dew Point Temp Flag","Rel Hum (%)","Rel Hum Flag","Precip. Amount (mm)","Precip. Amount Flag","Wind Dir (10s deg)","Wind Dir Flag","Wind Spd (km/h)","Wind Spd Flag","Visibility (km)","Visibility Flag","Stn Press (kPa)","Stn Press Flag","Hmdx","Hmdx Flag","Wind Chill","Wind Chill Flag","Weather"
"-117.16","58.62","HIGH LEVEL A","3073141","2020-12-01 00:00","2020","12","01","00:00"
"-117.16","58.62","HIGH LEVEL A","3073141","2020-12-01 01:00","2020","12","01","01:00"
"-117.16","58.62","HIGH LEVEL A","3073141","2020-12-01 02:00","2020","12","01","02:00"
"-117.16","58.62","HIGH LEVEL A","3073141","2020-12-01 03:00","2020","12","01","03:00"
"-117.16","58.62","HIGH LEVEL A","3073141","2020-12-01 04:00","2020","12","01","04:00"
"-117.16","58.62","HIGH LEVEL A","3073141","2020-12-01 05:00","2020","12","01","05:00"
"-117.16","58.62","HIGH LEVEL A","3073141","2020-12-01 06:00","2020","12","01","06:00"
"-117.16","58.62","HIGH LEVEL A","3073141","2020-12-01 07:00","2020","12","01","07:00","-3.4","","-8.3","","69","","","","20","","10","","24.1","","97.69","","","","-7","","NA"
"-117.16","58.62","HIGH LEVEL A","3073141","2020-12-01 08:00","2020","12","01","08:00","-4.3","","-9.1","","69","","","","19","","9","","24.1","","97.70","","","","-8","","Mostly Cloudy"
"-117.16","58.62","HIGH LEVEL A","3073141","2020-12-01 09:00","2020","12","01","09:00","-5.4","","-9.3","","74","","","","21","","7","","24.1","","97.64","","","","-9","","NA"
"-117.16","58.62","HIGH LEVEL A","3073141","2020-12-01 10:00","2020","12","01","10:00","-5.1","","-9.6","","71","","","","17","","12","","24.1","","97.55","","","","-10","","NA"
"-117.16","58.62","HIGH LEVEL A","3073141","2020-12-01 11:00","2020","12","01","11:00","-4.1","","-9.4","","67","","","","16","","10","","24.1","","97.55","","","","-8","","Mostly Cloudy"
"-117.16","58.62","HIGH LEVEL A","3073141","2020-12-01 12:00","2020","12","01","12:00","-2.5","","-8.6","","63","","","","17","","3","","24.1","","97.46","","","","-4","","NA"
"-117.16","58.62","HIGH LEVEL A","3073141","2020-12-01 13:00","2020","12","01","13:00","-2.1","","-8.0","","64","","","","14","","7","","24.1","","97.37","","","","-5","","NA"
"-117.16","58.62","HIGH LEVEL A","3073141","2020-12-01 14:00","2020","12","01","14:00","-2.0","","-7.5","","66","","","","15","","11","","24.1","","97.33","","","","-6","","Mostly Cloudy"
"-117.16","58.62","HIGH LEVEL A","3073141","2020-12-01 15:00","2020","12","01","15:00","-2.3","","-7.4","","68","","","","14","","10","","24.1","","97.32","","","","-6","","NA"
"-117.16","58.62","HIGH LEVEL A","3073141","2020-12-01 16:00","2020","12","01","16:00","-2.8","","-7.2","","72","","","","12","","4","","24.1","","97.33","","","","-4","","NA"
"-117.16","58.62","HIGH LEVEL A","3073141","2020-12-01 17:00","2020","12","01","17:00","-6.0","","-8.5","","83","","","","31","","4","","24.1","","97.36","","","","-8","","Mostly Cloudy"
"-117.16","58.62","HIGH LEVEL A","3073141","2020-12-01 18:00","2020","12","01","18:00","-8.2","","-9.6","","90","","","","9","","5","","24.1","","97.40","","","","-11","","NA"
"-117.16","58.62","HIGH LEVEL A","3073141","2020-12-01 19:00","2020","12","01","19:00","-8.4","","-9.4","","93","","","","14","","7","","24.1","","97.38","","","","-12","","NA"
"-117.16","58.62","HIGH LEVEL A","3073141","2020-12-01 20:00","2020","12","01","20:00","-9.8","","-10.5","","94","","","","7","","3","","24.1","","97.43","","","","-12","","Mostly Cloudy"
"-117.16","58.62","HIGH LEVEL A","3073141","2020-12-01 21:00","2020","12","01","21:00","-9.2","","-10.2","","93","","","","11","","7","","24.1","","97.42","","","","-13","","NA"
"-117.16","58.62","HIGH LEVEL A","3073141","2020-12-01 22:00","2020","12","01","22:00","-8.9","","-9.7","","94","","","","14","","7","","24.1","","97.46","","","","-13","","NA"
"-117.16","58.62","HIGH LEVEL A","3073141","2020-12-01 23:00","2020","12","01","23:00"
"-117.16","58.62","HIGH LEVEL A","3073141","2020-12-02 00:00","2020","12","02","00:00"
"-117.16","58.62","HIGH LEVEL A","3073141","2020-12-02 01:00","2020","12","02","01:00"
"-117.16","58.62","HIGH LEVEL A","3073141","2020-12-02 02:00","2020","12","02","02:00"
"-117.16","58.62","HIGH LEVEL A","3073141","2020-12-02 03:00","2020","12","02","03:00"
"-117.16","58.62","HIGH LEVEL A","3073141","2020-12-02 04:00","2020","12","02","04:00"
"-117.16","58.62","HIGH LEVEL A","3073141","2020-12-02 05:00","2020","12","02","05:00"
"-117.16","58.62","HIGH LEVEL A","3073141","2020-12-02 06:00","2020","12","02","06:00"
"-117.16","58.62","HIGH LEVEL A","3073141","2020-12-02 07:00","2020","12","02","07:00","-4.9","","-5.6","","95","","","","15","","8","","24.1","","97.48","","","","-8","","NA"
"-117.16","58.62","HIGH LEVEL A","3073141","2020-12-02 08:00","2020","12","02","08:00","-3.8","","-4.5","","95","","","","10","","5","","24.1","","97.50","","","","-6","","Mostly Cloudy"
"-117.16","58.62","HIGH LEVEL A","3073141","2020-12-02 09:00","2020","12","02","09:00","-2.6","","-3.6","","93","","","","9","","6","","24.1","","97.51","","","","-5","","NA"
"-117.16","58.62","HIGH LEVEL A","3073141","2020-12-02 10:00","2020","12","02","10:00","-2.9","","-3.7","","94","","","","17","","4","","24.1","","97.52","","","","-4","","NA"
"-117.16","58.62","HIGH LEVEL A","3073141","2020-12-02 11:00","2020","12","02","11:00","-2.9","","-3.6","","95","","","","0","","1","","24.1","","97.53","","","","-3","","Mostly Cloudy"
"-117.16","58.62","HIGH LEVEL A","3073141","2020-12-02 12:00","2020","12","02","12:00","-1.6","","-3.2","","89","","","","13","","10","","24.1","","97.50","","","","-5","","NA"
"-117.16","58.62","HIGH LEVEL A","3073141","2020-12-02 13:00","2020","12","02","13:00","1.1","","-1.2","","85","","","","11","","8","","24.1","","97.56","","","","","","NA"
"-117.16","58.62","HIGH LEVEL A","3073141","2020-12-02 14:00","2020","12","02","14:00","1.3","","-1.0","","85","","","","11","","5","","24.1","","97.57","","","","","","Mostly Cloudy"
"-117.16","58.62","HIGH LEVEL A","3073141","2020-12-02 15:00","2020","12","02","15:00","-1.0","","-1.7","","95","","","","36","","3","","24.1","","97.59","","","","-2","","NA"
"-117.16","58.62","HIGH LEVEL A","3073141","2020-12-02 16:00","2020","12","02","16:00","-2.7","","-3.3","","95","","","","14","","3","","24.1","","97.56","","","","-4","","NA"
"-117.16","58.62","HIGH LEVEL A","3073141","2020-12-02 17:00","2020","12","02","17:00","-3.7","","-3.7","","100","","","","13","","4","","24.1","","97.52","","","","-5","","Mostly Cloudy"
"-117.16","58.62","HIGH LEVEL A","3073141","2020-12-02 18:00","2020","12","02","18:00","-3.9","","-3.9","","100","","","","36","","2","","24.1","","97.49","","","","-5","","NA"
"-117.16","58.62","HIGH LEVEL A","3073141","2020-12-02 19:00","2020","12","02","19:00","-5.8","","-5.9","","99","","","","16","","7","","24.1","","97.39","","","","-9","","NA"
"-117.16","58.62","HIGH LEVEL A","3073141","2020-12-02 20:00","2020","12","02","20:00","-5.4","","-5.4","","100","","","","12","","4","","24.1","","97.32","","","","-7","","Mainly Clear"
"-117.16","58.62","HIGH LEVEL A","3073141","2020-12-02 21:00","2020","12","02","21:00","-6.7","","-6.7","","100","","","","36","","2","","24.1","","97.27","","","","-8","","NA"
"-117.16","58.62","HIGH LEVEL A","3073141","2020-12-02 22:00","2020","12","02","22:00","-5.9","","-5.9","","100","","","","36","","2","","24.1","","97.24","","","","-7","","NA"
"-117.16","58.62","HIGH LEVEL A","3073141","2020-12-02 23:00","2020","12","02","23:00"
"-117.16","58.62","HIGH LEVEL A","3073141","2020-12-03 00:00","2020","12","03","00:00"
"-117.16","58.62","HIGH LEVEL A","3073141","2020-12-03 01:00","2020","12","03","01:00"
"-117.16","58.62","HIGH LEVEL A","3073141","2020-12-03 02:00","2020","12","03","02:00"
"-117.16","58.62","HIGH LEVEL A","3073141","2020-12-03 03:00","2020","12","03","03:00"
"-117.16","58.62","HIGH LEVEL A","3073141","2020-12-03 04:00","2020","12","03","04:00"
"-117.16","58.62","HIGH LEVEL A","3073141","2020-12-03 05:00","2020","12","03","05:00"
"-117.16","58.62","HIGH LEVEL A","3073141","2020-12-03 06:00","2020","12","03","06:00"
"-117.16","58.62","HIGH LEVEL A","3073141","2020-12-03 07:00","2020","12","03","07:00","-11.1","","-11.5","","97","","","","10","","3","","24.1","","96.80","","","","-13","","NA"
"-117.16","58.62","HIGH LEVEL A","3073141","2020-12-03 08:00","2020","12","03","08:00","-10.4","","-10.8","","97","","","","36","","1","","24.1","","96.84","","","","-11","","Clear"
"-117.16","58.62","HIGH LEVEL A","3073141","2020-12-03 09:00","2020","12","03","09:00","-10.4","","-11.1","","95","","","","17","","7","","24.1","","96.86","","","","-14","","NA"
"-117.16","58.62","HIGH LEVEL A","3073141","2020-12-03 10:00","2020","12","03","10:00","-9.7","","-10.1","","97","","","","36","","2","","24.1","","96.92","","","","-11","","NA"
"-117.16","58.62","HIGH LEVEL A","3073141","2020-12-03 11:00","2020","12","03","11:00","-9.2","","-9.6","","97","","","","28","","4","","24.1","","96.96","","","","-11","","Mainly Clear"
"-117.16","58.62","HIGH LEVEL A","3073141","2020-12-03 12:00","2020","12","03","12:00","-7.0","","-7.0","","100","","","","11","","5","","24.1","","96.99","","","","-10","","NA"
"-117.16","58.62","HIGH LEVEL A","3073141","2020-12-03 13:00","2020","12","03","13:00","-5.1","","-5.1","","100","","","","7","","3","","24.1","","97.07","","","","-6","","NA"
"-117.16","58.62","HIGH LEVEL A","3073141","2020-12-03 14:00","2020","12","03","14:00","-3.7","","-3.7","","100","","","","15","","3","","24.1","","97.15","","","","-5","","Mainly Clear"
"-117.16","58.62","HIGH LEVEL A","3073141","2020-12-03 15:00","2020","12","03","15:00","-3.8","","-3.8","","100","","","","36","","1","","24.1","","97.20","","","","-4","","NA"
"-117.16","58.62","HIGH LEVEL A","3073141","2020-12-03 16:00","2020","12","03","16:00","-5.2","","-5.2","","100","","","","13","","4","","24.1","","97.25","","","","-7","","NA"
"-117.16","58.62","HIGH LEVEL A","3073141","2020-12-03 17:00","2020","12","03","17:00","-7.2","","-7.3","","99","","","","22","","7","","24.1","","97.29","","","","-11","","Clear"
"-117.16","58.62","HIGH LEVEL A","3073141","2020-12-03 18:00","2020","12","03","18:00","-7.6","","-7.8","","99","","","","12","","5","","24.1","","97.28","","","","-10","","NA"
"-117.16","58.62","HIGH LEVEL A","3073141","2020-12-03 19:00","2020","12","03","19:00","-8.5","","-8.7","","98","","","","15","","5","","24.1","","97.27","","","","-11","","NA"
"-117.16","58.62","HIGH LEVEL A","3073141","2020-12-03 20:00","2020","12","03","20:00","-8.8","","-8.8","","100","","","","14","","7","","24.1","","97.22","","","","-13","","Clear"
"-117.16","58.62","HIGH LEVEL A","3073141","2020-12-03 21:00","2020","12","03","21:00","-9.1","","-9.1","","100","","","","20","","6","","24.1","","97.24","","","","-12","","NA"
"-117.16","58.62","HIGH LEVEL A","3073141","2020-12-03 22:00","2020","12","03","22:00","-3.6","","-3.6","","100","","","","16","","19","","24.1","","97.22","","","","-10","","NA"
"-117.16","58.62","HIGH LEVEL A","3073141","2020-12-03 23:00","2020","12","03","23:00"
"-117.16","58.62","HIGH LEVEL A","3073141","2020-12-04 00:00","2020","12","04","00:00"
"-117.16","58.62","HIGH LEVEL A","3073141","2020-12-04 01:00","2020","12","04","01:00"
"-117.16","58.62","HIGH LEVEL A","3073141","2020-12-04 02:00","2020","12","04","02:00"
"-117.16","58.62","HIGH LEVEL A","3073141","2020-12-04 03:00","2020","12","04","03:00"
"-117.16","58.62","HIGH LEVEL A","3073141","2020-12-04 04:00","2020","12","04","04:00"
"-117.16","58.62","HIGH LEVEL A","3073141","2020-12-04 05:00","2020","12","04","05:00"
"-117.16","58.62","HIGH LEVEL A","3073141","2020-12-04 06:00","2020","12","04","06:00"
"-117.16","58.62","HIGH LEVEL A","3073141","2020-12-04 07:00","2020","12","04","07:00","-4.1","","-4.2","","99","","","","20","","3","","24.1","","97.04","","","","-5","","NA"
"-117.16","58.62","HIGH LEVEL A","3073141","2020-12-04 08:00","2020","12","04","08:00","-4.5","","-4.5","","100","","","","36","","1","","24.1","","97.09","","","","-5","","Mainly Clear"
"-117.16","58.62","HIGH LEVEL A","3073141","2020-12-04 09:00","2020","12","04","09:00","-7.4","","-7.4","","100","","","","14","","4","","24.1","","97.15","","","","-9","","NA"
"-117.16","58.62","HIGH LEVEL A","3073141","2020-12-04 10:00","2020","12","04","10:00","-8.7","","-8.7","","100","","","","9","","3","","24.1","","97.23","","","","-10","","NA"
"-117.16","58.62","HIGH LEVEL A","3073141","2020-12-04 11:00","2020","12","04","11:00","-7.2","","-7.3","","99","","","","36","","2","","24.1","","97.25","","","","-8","","Clear"
"-117.16","58.62","HIGH LEVEL A","3073141","2020-12-04 12:00","2020","12","04","12:00","-6.2","","-6.2","","100","","","","16","","8","","24.1","","97.27","","","","-10","","NA"
"-117.16","58.62","HIGH LEVEL A","3073141","2020-12-04 13:00","2020","12","04","13:00","-2.7","","-2.7","","100","","","","12","","4","","24.1","","97.26","","","","-4","","NA"
"-117.16","58.62","HIGH LEVEL A","3073141","2020-12-04 14:00","2020","12","04","14:00","1.2","","-1.0","","85","","","","36","","3","","24.1","","97.31","","","","","","Mainly Clear"
"-117.16","58.62","HIGH LEVEL A","3073141","2020-12-04 15:00","2020","12","04","15:00","-0.7","","-1.7","","93","","","","36","","2","","24.1","","97.30","","","","-1","","NA"
"-117.16","58.62","HIGH LEVEL A","3073141","2020-12-04 16:00","2020","12","04","16:00","-4.1","","-4.2","","99","","","","0","","1","","24.1","","97.30","","","","-5","","NA"
"-117.16","58.62","HIGH LEVEL A","3073141","2020-12-04 17:00","2020","12","04","17:00","-4.9","","-4.9","","100","","","","11","","5","","24.1","","97.32","","","","-7","","Mainly Clear"
"-117.16","58.62","HIGH LEVEL A","3073141","2020-12-04 18:00","2020","12","04","18:00","-4.9","","-4.9","","100","","","","16","","5","","24.1","","97.26","","","","-7","","NA"
"-117.16","58.62","HIGH LEVEL A","3073141","2020-12-04 19:00","2020","12","04","19:00","-5.8","","-5.8","","100","","","","36","","2","","24.1","","97.24","","","","-7","","NA"
"-117.16","58.62","HIGH LEVEL A","3073141","2020-12-04 20:00","2020","12","04","20:00","-5.9","","-5.9","","100","","","","36","","1","","24.1","","97.23","","","","-6","","Mostly Cloudy"
"-117.16","58.62","HIGH LEVEL A","3073141","2020-12-04 21:00","2020","12","04","21:00","-5.6","","-5.6","","100","","","","5","","3","","24.1","","97.17","","","","-7","","NA"
"-117.16","58.62","HIGH LEVEL A","3073141","2020-12-04 22:00","2020","12","04","22:00","-5.7","","-5.7","","100","","","","8","","3","","16.1","","97.16","","","","-7","","NA"
"-117.16","58.62","HIGH LEVEL A","3073141","2020-12-04 23:00","2020","12","04","23:00"
"-117.16","58.62","HIGH LEVEL A","3073141","2020-12-05 00:00","2020","12","05","00:00"
"-117.16","58.62","HIGH LEVEL A","3073141","2020-12-05 01:00","2020","12","05","01:00"
"-117.16","58.62","HIGH LEVEL A","3073141","2020-12-05 02:00","2020","12","05","02:00"
"-117.16","58.62","HIGH LEVEL A","3073141","2020-12-05 03:00","2020","12","05","03:00"
"-117.16","58.62","HIGH LEVEL A","3073141","2020-12-05 04:00","2020","12","05","04:00"
"-117.16","58.62","HIGH LEVEL A","3073141","2020-12-05 05:00","2020","12","05","05:00"
"-117.16","58.62","HIGH LEVEL A","3073141","2020-12-05 06:00","2020","12","05","06:00"
"-117.16","58.62","HIGH LEVEL A","3073141","2020-12-05 07:00","2020","12","05","07:00","-10.7","","-11.1","","97","","","","30","","3","","24.1","","97.07","","","","-13","","NA"
"-117.16","58.62","HIGH LEVEL A","3073141","2020-12-05 08:00","2020","12","05","08:00","-10.7","","-11.2","","96","","","","36","","1","","24.1","","97.05","","","","-11","","Mainly Clear"
"-117.16","58.62","HIGH LEVEL A","3073141","2020-12-05 09:00","2020","12","05","09:00","-10.5","","-10.9","","97","","","","36","","1","","9.7","","97.02","","","","-11","","Fog"
"-117.16","58.62","HIGH LEVEL A","3073141","2020-12-05 10:00","2020","12","05","10:00","-9.6","","-9.9","","98","","","","31","","4","","24.1","","97.04","","","","-12","","NA"
"-117.16","58.62","HIGH LEVEL A","3073141","2020-12-05 11:00","2020","12","05","11:00","-8.5","","-8.8","","98","","","","36","","2","","24.1","","97.02","","","","-10","","Mostly Cloudy"
"-117.16","58.62","HIGH LEVEL A","3073141","2020-12-05 12:00","2020","12","05","12:00","-8.0","","-8.1","","99","","","","27","","4","","24.1","","96.95","","","","-10","","NA"
"-117.16","58.62","HIGH LEVEL A","3073141","2020-12-05 13:00","2020","12","05","13:00","-6.4","","-6.4","","100","","","","36","","2","","24.1","","96.87","","","","-7","","NA"
"-117.16","58.62","HIGH LEVEL A","3073141","2020-12-05 14:00","2020","12","05","14:00","-6.3","","-6.3","","100","","","","36","","2","","6.4","","96.81","","","","-7","","Fog"
"-117.16","58.62","HIGH LEVEL A","3073141","2020-12-05 15:00","2020","12","05","15:00","-5.0","","-5.0","","100","","","","36","","1","","24.1","","96.74","","","","-5","","NA"
"-117.16","58.62","HIGH LEVEL A","3073141","2020-12-05 16:00","2020","12","05","16:00","-6.5","","-6.5","","100","","","","36","","2","","0.8","","96.68","","","","-7","","Freezing Fog"
"-117.16","58.62","HIGH LEVEL A","3073141","2020-12-05 17:00","2020","12","05","17:00","-7.5","","-7.6","","99","","","","0","","1","","0.8","","96.63","","","","-8","","Freezing Fog"
"-117.16","58.62","HIGH LEVEL A","3073141","2020-12-05 18:00","2020","12","05","18:00","-7.0","","-7.1","","99","","","","28","","3","","24.1","","96.58","","","","-9","","NA"
"-117.16","58.62","HIGH LEVEL A","3073141","2020-12-05 19:00","2020","12","05","19:00","-6.7","","-6.7","","100","","","","29","","3","","24.1","","96.45","","","","-8","","NA"
"-117.16","58.62","HIGH LEVEL A","3073141","2020-12-05 20:00","2020","12","05","20:00","-6.5","","-6.5","","100","","","","27","","4","","24.1","","96.40","","","","-8","","Mostly Cloudy"
"-117.16","58.62","HIGH LEVEL A","3073141","2020-12-05 21:00","2020","12","05","21:00","-5.3","","-5.3","","100","","","","36","","2","","24.1","","96.33","","","","-6","","NA"
"-117.16","58.62","HIGH LEVEL A","3073141","2020-12-05 22:00","2020","12","05","22:00","-5.0","","-5.0","","100","","","","18","","6","","24.1","","96.28","","","","-8","","NA"
"-117.16","58.62","HIGH LEVEL A","3073141","2020-12-05 23:00","2020","12","05","23:00"
"-117.16","58.62","HIGH LEVEL A","3073141","2020-12-06 00:00","2020","12","06","00:00"
"-117.16","58.62","HIGH LEVEL A","3073141","2020-12-06 01:00","2020","12","06","01:00"
"-117.16","58.62","HIGH LEVEL A","3073141","2020-12-06 02:00","2020","12","06","02:00"
"-117.16","58.62","HIGH LEVEL A","3073141","2020-12-06 03:00","2020","12","06","03:00"
"-117.16","58.62","HIGH LEVEL A","3073141","2020-12-06 04:00","2020","12","06","04:00"
"-117.16","58.62","HIGH LEVEL A","3073141","2020-12-06 05:00","2020","12","06","05:00"
"-117.16","58.62","HIGH LEVEL A","3073141","2020-12-06 06:00","2020","12","06","06:00"
"-117.16","58.62","HIGH LEVEL A","3073141","2020-12-06 07:00","2020","12","06","07:00","-2.0","","-2.0","","100","","","","9","","3","","24.1","","96.29","","","","-3","","NA"
"-117.16","58.62","HIGH LEVEL A","3073141","2020-12-06 08:00","2020","12","06","08:00","-3.2","","-3.2","","100","","","","36","","3","","24.1","","96.32","","","","-4","","Mostly Cloudy"
"-117.16","58.62","HIGH LEVEL A","3073141","2020-12-06 09:00","2020","12","06","09:00","-4.5","","-4.5","","100","","","","17","","4","","24.1","","96.37","","","","-6","","NA"
"-117.16","58.62","HIGH LEVEL A","3073141","2020-12-06 10:00","2020","12","06","10:00","-5.8","","-5.8","","100","","","","36","","2","","24.1","","96.45","","","","-7","","NA"
"-117.16","58.62","HIGH LEVEL A","3073141","2020-12-06 11:00","2020","12","06","11:00","-3.1","","-3.1","","100","","","","17","","8","","24.1","","96.53","","","","-6","","Mainly Clear"
"-117.16","58.62","HIGH LEVEL A","3073141","2020-12-06 12:00","2020","12","06","12:00","-0.2","","-1.5","","91","","","","20","","3","","24.1","","96.54","","","","-1","","NA"
"-117.16","58.62","HIGH LEVEL A","3073141","2020-12-06 13:00","2020","12","06","13:00","1.0","","-0.9","","87","","","","36","","1","","24.1","","96.59","","","","","","NA"
"-117.16","58.62","HIGH LEVEL A","3073141","2020-12-06 14:00","2020","12","06","14:00","-0.5","","-0.9","","97","","","","36","","3","","24.1","","96.62","","","","-1","","Mostly Cloudy"
"-117.16","58.62","HIGH LEVEL A","3073141","2020-12-06 15:00","2020","12","06","15:00","-0.2","","-1.6","","91","","","","15","","7","","24.1","","96.54","","","","-3","","NA"
"-117.16","58.62","HIGH LEVEL A","3073141","2020-12-06 16:00","2020","12","06","16:00","-2.2","","-2.3","","99","","","","11","","5","","24.1","","96.53","","","","-4","","NA"
"-117.16","58.62","HIGH LEVEL A","3073141","2020-12-06 17:00","2020","12","06","17:00","-2.5","","-2.5","","100","","","","36","","2","","24.1","","96.61","","","","-3","","Snow"
"-117.16","58.62","HIGH LEVEL A","3073141","2020-12-06 18:00","2020","12","06","18:00","-3.6","","-3.6","","100","","","","22","","5","","24.1","","96.55","","","","-6","","NA"
"-117.16","58.62","HIGH LEVEL A","3073141","2020-12-06 19:00","2020","12","06","19:00","-5.2","","-5.2","","100","","","","16","","9","","24.1","","96.40","","","","-9","","NA"
"-117.16","58.62","HIGH LEVEL A","3073141","2020-12-06 20:00","2020","12","06","20:00","-1.7","","-1.7","","100","","","","17","","5","","24.1","","96.33","","","","-4","","Mainly Clear"
"-117.16","58.62","HIGH LEVEL A","3073141","2020-12-06 21:00","2020","12","06","21:00","-2.5","","-2.5","","100","","","","36","","3","","24.1","","96.23","","","","-4","","NA"
"-117.16","58.62","HIGH LEVEL A","3073141","2020-12-06 22:00","2020","12","06","22:00","0.0","","-0.7","","95","","","","14","","10","","24.1","","96.10","","","","-3","","NA"
"-117.16","58.62","HIGH LEVEL A","3073141","2020-12-06 23:00","2020","12","06","23:00"
"-117.16","58.62","HIGH LEVEL A","3073141","2020-12-07 00:00","2020","12","07","00:00"
"-117.16","58.62","HIGH LEVEL A","3073141","2020-12-07 01:00","2020","12","07","01:00"
"-117.16","58.62","HIGH LEVEL A","3073141","2020-12-07 02:00","2020","12","07","02:00"
"-117.16","58.62","HIGH LEVEL A","3073141","2020-12-07 03:00","2020","12","07","03:00"
"-117.16","58.62","HIGH LEVEL A","3073141","2020-12-07 04:00","2020","12","07","04:00"
"-117.16","58.62","HIGH LEVEL A","3073141","2020-12-07 05:00","2020","12","07","05:00"
"-117.16","58.62","HIGH LEVEL A","3073141","2020-12-07 06:00","2020","12","07","06:00"
"-117.16","58.62","HIGH LEVEL A","3073141","2020-12-07 07:00","2020","12","07","07:00","4.2","","0.7","","78","","","","20","","8","","24.1","","95.99","","","","","","NA"
"-117.16","58.62","HIGH LEVEL A","3073141","2020-12-07 08:00","2020","12","07","08:00","3.0","","0.2","","82","","","","19","","8","","24.1","","96.03","","","","","","Mostly Cloudy"
"-117.16","58.62","HIGH LEVEL A","3073141","2020-12-07 09:00","2020","12","07","09:00","3.0","","-0.1","","80","","","","19","","10","","24.1","","95.93","","","","","","NA"
"-117.16","58.62","HIGH LEVEL A","3073141","2020-12-07 10:00","2020","12","07","10:00","4.4","","0.3","","75","","","","21","","7","","24.1","","95.88","","","","","","NA"
"-117.16","58.62","HIGH LEVEL A","3073141","2020-12-07 11:00","2020","12","07","11:00","3.5","","0.2","","79","","","","28","","3","","24.1","","95.81","","","","","","Mostly Cloudy"
"-117.16","58.62","HIGH LEVEL A","3073141","2020-12-07 12:00","2020","12","07","12:00","1.0","","0.0","","93","","","","18","","9","","24.1","","95.78","","","","","","NA"
"-117.16","58.62","HIGH LEVEL A","3073141","2020-12-07 13:00","2020","12","07","13:00","4.9","","0.7","","74","","","","22","","10","","24.1","","95.69","","","","","","NA"
"-117.16","58.62","HIGH LEVEL A","3073141","2020-12-07 14:00","2020","12","07","14:00","5.2","","2.9","","85","","","","35","","7","","24.1","","95.76","","","","","","Mostly Cloudy"
"-117.16","58.62","HIGH LEVEL A","3073141","2020-12-07 15:00","2020","12","07","15:00","4.8","","3.0","","88","","","","23","","8","","24.1","","95.87","","","","","","NA"
"-117.16","58.62","HIGH LEVEL A","3073141","2020-12-07 16:00","2020","12","07","16:00","1.8","","0.8","","93","","","","28","","3","","24.1","","96.03","","","","","","NA"
"-117.16","58.62","HIGH LEVEL A","3073141","2020-12-07 17:00","2020","12","07","17:00","0.1","","0.1","","100","","","","20","","9","","24.1","","96.09","","","","","","Mostly Cloudy"
"-117.16","58.62","HIGH LEVEL A","3073141","2020-12-07 18:00","2020","12","07","18:00","3.0","","1.9","","92","","","","25","","9","","24.1","","96.16","","","","","","NA"
"-117.16","58.62","HIGH LEVEL A","3073141","2020-12-07 19:00","2020","12","07","19:00","3.9","","2.2","","89","","","","25","","12","","24.1","","96.26","","","","","","NA"
"-117.16","58.62","HIGH LEVEL A","3073141","2020-12-07 20:00","2020","12","07","20:00","3.8","","2.1","","89","","","","23","","10","","24.1","","96.28","","","","","","Cloudy"
"-117.16","58.62","HIGH LEVEL A","3073141","2020-12-07 21:00","2020","12","07","21:00","3.8","","1.5","","85","","","","26","","10","","24.1","","96.32","","","","","","NA"
"-117.16","58.62","HIGH LEVEL A","3073141","2020-12-07 22:00","2020","12","07","22:00","3.7","","0.7","","81","","","","24","","10","","24.1","","96.32","","","","","","NA"
"-117.16","58.62","HIGH LEVEL A","3073141","2020-12-07 23:00","2020","12","07","23:00"
"-117.16","58.62","HIGH LEVEL A","3073141","2020-12-08 00:00","2020","12","08","00:00"
"-117.16","58.62","HIGH LEVEL A","3073141","2020-12-08 01:00","2020","12","08","01:00"
"-117.16","58.62","HIGH LEVEL A","3073141","2020-12-08 02:00","2020","12","08","02:00"
"-117.16","58.62","HIGH LEVEL A","3073141","2020-12-08 03:00","2020","12","08","03:00"
"-117.16","58.62","HIGH LEVEL A","3073141","2020-12-08 04:00","2020","12","08","04:00"
"-117.16","58.62","HIGH LEVEL A","3073141","2020-12-08 05:00","2020","12","08","05:00"
"-117.16","58.62","HIGH LEVEL A","3073141","2020-12-08 06:00","2020","12","08","06:00"
"-117.16","58.62","HIGH LEVEL A","3073141","2020-12-08 07:00","2020","12","08","07:00","-3.4","","-4.0","","96","","","","10","","5","","24.1","","96.30","","","","-5","","NA"
"-117.16","58.62","HIGH LEVEL A","3073141","2020-12-08 08:00","2020","12","08","08:00","-4.2","","-4.7","","96","","","","11","","7","","24.1","","96.32","","","","-7","","Mainly Clear"
"-117.16","58.62","HIGH LEVEL A","3073141","2020-12-08 09:00","2020","12","08","09:00","-8.2","","-8.2","","100","","","","7","","4","","24.1","","96.36","","","","-10","","NA"
"-117.16","58.62","HIGH LEVEL A","3073141","2020-12-08 10:00","2020","12","08","10:00","-7.5","","-7.6","","100","","","","15","","4","","24.1","","96.38","","","","-10","","NA"
"-117.16","58.62","HIGH LEVEL A","3073141","2020-12-08 11:00","2020","12","08","11:00","-8.2","","-8.3","","99","","","","36","","2","","24.1","","96.44","","","","-9","","Mainly Clear"
"-117.16","58.62","HIGH LEVEL A","3073141","2020-12-08 12:00","2020","12","08","12:00","-5.2","","-5.2","","100","","","","10","","4","","24.1","","96.46","","","","-7","","NA"
"-117.16","58.62","HIGH LEVEL A","3073141","2020-12-08 13:00","2020","12","08","13:00","-4.5","","-5.0","","96","","","","4","","3","","24.1","","96.49","","","","-6","","NA"
"-117.16","58.62","HIGH LEVEL A","3073141","2020-12-08 14:00","2020","12","08","14:00","-3.1","","-4.6","","89","","","","25","","5","","24.1","","96.49","","","","-5","","Mainly Clear"
"-117.16","58.62","HIGH LEVEL A","3073141","2020-12-08 15:00","2020","12","08","15:00","1.4","","-4.4","","66","","","","24","","7","","24.1","","96.53","","","","","","NA"
"-117.16","58.62","HIGH LEVEL A","3073141","2020-12-08 16:00","2020","12","08","16:00","1.0","","-4.2","","68","","","","22","","5","","24.1","","96.56","","","","","","NA"
"-117.16","58.62","HIGH LEVEL A","3073141","2020-12-08 17:00","2020","12","08","17:00","-0.2","","-4.6","","72","","","","22","","8","","24.1","","96.59","","","","-3","","Mainly Clear"
"-117.16","58.62","HIGH LEVEL A","3073141","2020-12-08 18:00","2020","12","08","18:00","-0.3","","-4.2","","75","","","","21","","9","","24.1","","96.61","","","","-3","","NA"
"-117.16","58.62","HIGH LEVEL A","3073141","2020-12-08 19:00","2020","12","08","19:00","-1.0","","-4.7","","76","","","","20","","10","","24.1","","96.62","","","","-5","","NA"
"-117.16","58.62","HIGH LEVEL A","3073141","2020-12-08 20:00","2020","12","08","20:00","-1.7","","-5.3","","76","","","","22","","8","","24.1","","96.62","","","","-5","","Clear"
"-117.16","58.62","HIGH LEVEL A","3073141","2020-12-08 21:00","2020","12","08","21:00","-1.6","","-5.4","","75","","","","22","","4","","24.1","","96.62","","","","-3","","NA"
"-117.16","58.62","HIGH LEVEL A","3073141","2020-12-08 22:00","2020","12","08","22:00","-4.5","","-6.8","","84","","","","18","","5","","24.1","","96.66","","","","-7","","NA"
"-117.16","58.62","HIGH LEVEL A","3073141","2020-12-08 23:00","2020","12","08","23:00"
"-117.16","58.62","HIGH LEVEL A","3073141","2020-12-09 00:00","2020","12","09","00:00"
"-117.16","58.62","HIGH LEVEL A","3073141","2020-12-09 01:00","2020","12","09","01:00"
"-117.16","58.62","HIGH LEVEL A","3073141","2020-12-09 02:00","2020","12","09","02:00"
"-117.16","58.62","HIGH LEVEL A","3073141","2020-12-09 03:00","2020","12","09","03:00"
"-117.16","58.62","HIGH LEVEL A","3073141","2020-12-09 04:00","2020","12","09","04:00"
"-117.16","58.62","HIGH LEVEL A","3073141","2020-12-09 05:00","2020","12","09","05:00"
"-117.16","58.62","HIGH LEVEL A","3073141","2020-12-09 06:00","2020","12","09","06:00"
"-117.16","58.62","HIGH LEVEL A","3073141","2020-12-09 07:00","2020","12","09","07:00","-11.3","","-12.2","","93","","","","11","","3","","24.1","","96.87","","","","-13","","NA"
"-117.16","58.62","HIGH LEVEL A","3073141","2020-12-09 08:00","2020","12","09","08:00","-9.6","","-10.7","","92","","","","26","","4","","24.1","","96.90","","","","-12","","Mostly Cloudy"
"-117.16","58.62","HIGH LEVEL A","3073141","2020-12-09 09:00","2020","12","09","09:00","-7.9","","-9.3","","89","","","","31","","8","","24.1","","96.96","","","","-12","","NA"
"-117.16","58.62","HIGH LEVEL A","3073141","2020-12-09 10:00","2020","12","09","10:00","-1.2","","-5.0","","75","","","","22","","3","","24.1","","97.02","","","","-2","","NA"
"-117.16","58.62","HIGH LEVEL A","3073141","2020-12-09 11:00","2020","12","09","11:00","-2.7","","-5.4","","82","","","","25","","4","","24.1","","97.09","","","","-4","","Mostly Cloudy"
"-117.16","58.62","HIGH LEVEL A","3073141","2020-12-09 12:00","2020","12","09","12:00","-2.0","","-4.8","","81","","","","17","","7","","24.1","","97.15","","","","-5","","NA"
"-117.16","58.62","HIGH LEVEL A","3073141","2020-12-09 13:00","2020","12","09","13:00","-0.2","","-4.2","","74","","","","20","","7","","24.1","","97.18","","","","-3","","NA"
"-117.16","58.62","HIGH LEVEL A","3073141","2020-12-09 14:00","2020","12","09","14:00","1.2","","-4.1","","68","","","","26","","4","","24.1","","97.21","","","","","","Mostly Cloudy"
"-117.16","58.62","HIGH LEVEL A","3073141","2020-12-09 15:00","2020","12","09","15:00","2.4","","-4.8","","59","","","","29","","20","","24.1","","97.26","","","","","","NA"
"-117.16","58.62","HIGH LEVEL A","3073141","2020-12-09 16:00","2020","12","09","16:00","2.9","","-5.8","","53","","","","30","","17","","24.1","","97.28","","","","","","NA"
"-117.16","58.62","HIGH LEVEL A","3073141","2020-12-09 17:00","2020","12","09","17:00","2.0","","-6.3","","54","","","","30","","14","","24.1","","97.31","","","","","","Mainly Clear"
"-117.16","58.62","HIGH LEVEL A","3073141","2020-12-09 18:00","2020","12","09","18:00","-0.9","","-6.2","","67","","","","21","","12","","24.1","","97.33","","","","-5","","NA"
"-117.16","58.62","HIGH LEVEL A","3073141","2020-12-09 19:00","2020","12","09","19:00","0.3","","-5.1","","67","","","","26","","3","","24.1","","97.34","","","","","","NA"
"-117.16","58.62","HIGH LEVEL A","3073141","2020-12-09 20:00","2020","12","09","20:00","0.0","","-4.6","","71","","","","25","","5","","24.1","","97.37","","","","-2","","Mostly Cloudy"
"-117.16","58.62","HIGH LEVEL A","3073141","2020-12-09 21:00","2020","12","09","21:00","-0.5","","-4.8","","73","","","","29","","3","","24.1","","97.39","","","","-1","","NA"
"-117.16","58.62","HIGH LEVEL A","3073141","2020-12-09 22:00","2020","12","09","22:00","-1.2","","-5.2","","74","","","","24","","5","","24.1","","97.44","","","","-3","","NA"
"-117.16","58.62","HIGH LEVEL A","3073141","2020-12-09 23:00","2020","12","09","23:00"
"-117.16","58.62","HIGH LEVEL A","3073141","2020-12-10 00:00","2020","12","10","00:00"
"-117.16","58.62","HIGH LEVEL A","3073141","2020-12-10 01:00","2020","12","10","01:00"
"-117.16","58.62","HIGH LEVEL A","3073141","2020-12-10 02:00","2020","12","10","02:00"
"-117.16","58.62","HIGH LEVEL A","3073141","2020-12-10 03:00","2020","12","10","03:00"
"-117.16","58.62","HIGH LEVEL A","3073141","2020-12-10 04:00","2020","12","10","04:00"
"-117.16","58.62","HIGH LEVEL A","3073141","2020-12-10 05:00","2020","12","10","05:00"
"-117.16","58.62","HIGH LEVEL A","3073141","2020-12-10 06:00","2020","12","10","06:00"
"-117.16","58.62","HIGH LEVEL A","3073141","2020-12-10 07:00","2020","12","10","07:00","-11.8","","-12.4","","95","","","","35","","19","","16.1","","97.94","","","","-20","","Snow"
"-117.16","58.62","HIGH LEVEL A","3073141","2020-12-10 08:00","2020","12","10","08:00","-12.2","","-12.8","","95","","","","34","","20","","16.1","","98.00","","","","-21","","Snow"
"-117.16","58.62","HIGH LEVEL A","3073141","2020-12-10 09:00","2020","12","10","09:00","-11.8","","-12.4","","95","","","","34","","19","","16.1","","98.07","","","","-20","","Snow"
"-117.16","58.62","HIGH LEVEL A","3073141","2020-12-10 10:00","2020","12","10","10:00","-11.9","","-12.6","","95","","","","34","","17","","16.1","","98.15","","","","-20","","Snow"
"-117.16","58.62","HIGH LEVEL A","3073141","2020-12-10 11:00","2020","12","10","11:00","-11.7","","-12.3","","95","","","","34","","24","","24.1","","98.24","","","","-21","","Snow"
"-117.16","58.62","HIGH LEVEL A","3073141","2020-12-10 12:00","2020","12","10","12:00","-12.1","","-12.7","","95","","","","33","","16","","24.1","","98.30","","","","-20","","Snow"
"-117.16","58.62","HIGH LEVEL A","3073141","2020-12-10 13:00","2020","12","10","13:00","-11.6","","-12.2","","95","","","","35","","18","","24.1","","98.30","","","","-19","","Snow"
"-117.16","58.62","HIGH LEVEL A","3073141","2020-12-10 14:00","2020","12","10","14:00","-11.4","","-12.1","","95","","","","35","","18","","24.1","","98.29","","","","-19","","Snow"
"-117.16","58.62","HIGH LEVEL A","3073141","2020-12-10 15:00","2020","12","10","15:00","-11.4","","-12.6","","91","","","","34","","18","","19.3","","98.32","","","","-19","","Snow"
"-117.16","58.62","HIGH LEVEL A","3073141","2020-12-10 16:00","2020","12","10","16:00","-11.7","","-12.8","","92","","","","34","","8","","19.3","","98.35","","","","-16","","Snow"
"-117.16","58.62","HIGH LEVEL A","3073141","2020-12-10 17:00","2020","12","10","17:00","-12.2","","-13.2","","92","","","","35","","11","","19.3","","98.36","","","","-18","","Snow"
"-117.16","58.62","HIGH LEVEL A","3073141","2020-12-10 18:00","2020","12","10","18:00","-12.9","","-13.9","","92","","","","33","","10","","16.1","","98.40","","","","-19","","Snow"
"-117.16","58.62","HIGH LEVEL A","3073141","2020-12-10 19:00","2020","12","10","19:00","-12.6","","-13.4","","94","","","","36","","13","","16.1","","98.39","","","","-19","","Snow"
"-117.16","58.62","HIGH LEVEL A","3073141","2020-12-10 20:00","2020","12","10","20:00","-13.8","","-14.4","","95","","","","33","","7","","24.1","","98.39","","","","-18","","Snow"
"-117.16","58.62","HIGH LEVEL A","3073141","2020-12-10 21:00","2020","12","10","21:00","-15.1","","-16.0","","93","","","","1","","7","","24.1","","98.39","","","","-20","","NA"
"-117.16","58.62","HIGH LEVEL A","3073141","2020-12-10 22:00","2020","12","10","22:00","-15.5","","-16.6","","92","","","","33","","5","","24.1","","98.42","","","","-19","","NA"
"-117.16","58.62","HIGH LEVEL A","3073141","2020-12-10 23:00","2020","12","10","23:00"
"-117.16","58.62","HIGH LEVEL A","3073141","2020-12-11 00:00","2020","12","11","00:00"
"-117.16","58.62","HIGH LEVEL A","3073141","2020-12-11 01:00","2020","12","11","01:00"
"-117.16","58.62","HIGH LEVEL A","3073141","2020-12-11 02:00","2020","12","11","02:00"
"-117.16","58.62","HIGH LEVEL A","3073141","2020-12-11 03:00","2020","12","11","03:00"
"-117.16","58.62","HIGH LEVEL A","3073141","2020-12-11 04:00","2020","12","11","04:00"
"-117.16","58.62","HIGH LEVEL A","3073141","2020-12-11 05:00","2020","12","11","05:00"
"-117.16","58.62","HIGH LEVEL A","3073141","2020-12-11 06:00","2020","12","11","06:00"
"-117.16","58.62","HIGH LEVEL A","3073141","2020-12-11 07:00","2020","12","11","07:00","-14.1","","-15.0","","93","","","","36","","3","","16.1","","98.19","","","","-16","","Snow"
"-117.16","58.62","HIGH LEVEL A","3073141","2020-12-11 08:00","2020","12","11","08:00","-13.8","","-14.6","","94","","","","14","","4","","12.9","","98.12","","","","-17","","Snow"
"-117.16","58.62","HIGH LEVEL A","3073141","2020-12-11 09:00","2020","12","11","09:00","-13.1","","-13.9","","94","","","","21","","4","","12.9","","98.10","","","","-16","","Snow"
"-117.16","58.62","HIGH LEVEL A","3073141","2020-12-11 10:00","2020","12","11","10:00","-11.1","","-11.6","","96","","","","16","","12","","6.4","","98.05","","","","-17","","Snow,Fog"
"-117.16","58.62","HIGH LEVEL A","3073141","2020-12-11 11:00","2020","12","11","11:00","-10.6","","-11.1","","96","","","","14","","17","","4.0","","98.03","","","","-18","","Snow,Fog"
"-117.16","58.62","HIGH LEVEL A","3073141","2020-12-11 12:00","2020","12","11","12:00","-10.2","","-10.6","","97","","","","14","","22","","2.4","","97.92","","","","-18","","Snow,Fog"
"-117.16","58.62","HIGH LEVEL A","3073141","2020-12-11 13:00","2020","12","11","13:00","-10.1","","-10.5","","97","","","","13","","18","","3.6","","97.84","","","","-18","","Snow,Fog"
"-117.16","58.62","HIGH LEVEL A","3073141","2020-12-11 14:00","2020","12","11","14:00","-10.0","","-10.4","","97","","","","14","","23","","8.1","","97.74","","","","-18","","Snow,Fog"
"-117.16","58.62","HIGH LEVEL A","3073141","2020-12-11 15:00","2020","12","11","15:00","-10.0","","-10.4","","97","","","","14","","17","","16.1","","97.60","","","","-17","","Snow"
"-117.16","58.62","HIGH LEVEL A","3073141","2020-12-11 16:00","2020","12","11","16:00","-10.1","","-10.5","","97","","","","14","","20","","16.1","","97.54","","","","-18","","Snow"
"-117.16","58.62","HIGH LEVEL A","3073141","2020-12-11 17:00","2020","12","11","17:00","-10.1","","-10.5","","97","","","","14","","18","","16.1","","97.44","","","","-18","","Cloudy"
"-117.16","58.62","HIGH LEVEL A","3073141","2020-12-11 18:00","2020","12","11","18:00","-9.7","","-10.1","","97","","","","15","","13","","1.6","","97.40","","","","-16","","Snow"
"-117.16","58.62","HIGH LEVEL A","3073141","2020-12-11 19:00","2020","12","11","19:00","-9.4","","-9.8","","97","","","","16","","5","","1.6","","97.36","","","","-12","","Snow"
"-117.16","58.62","HIGH LEVEL A","3073141","2020-12-11 20:00","2020","12","11","20:00","-9.5","","-9.9","","97","","","","35","","5","","1.6","","97.34","","","","-12","","Snow"
"-117.16","58.62","HIGH LEVEL A","3073141","2020-12-11 21:00","2020","12","11","21:00","-9.6","","-10.0","","97","","","","32","","8","","6.4","","97.42","","","","-14","","Snow"
"-117.16","58.62","HIGH LEVEL A","3073141","2020-12-11 22:00","2020","12","11","22:00","-9.6","","-10.0","","97","","","","34","","9","","16.1","","97.46","","","","-14","","Snow"
"-117.16","58.62","HIGH LEVEL A","3073141","2020-12-11 23:00","2020","12","11","23:00"
"-117.16","58.62","HIGH LEVEL A","3073141","2020-12-12 00:00","2020","12","12","00:00"
"-117.16","58.62","HIGH LEVEL A","3073141","2020-12-12 01:00","2020","12","12","01:00"
"-117.16","58.62","HIGH LEVEL A","3073141","2020-12-12 02:00","2020","12","12","02:00"
"-117.16","58.62","HIGH LEVEL A","3073141","2020-12-12 03:00","2020","12","12","03:00"
"-117.16","58.62","HIGH LEVEL A","3073141","2020-12-12 04:00","2020","12","12","04:00"
"-117.16","58.62","HIGH LEVEL A","3073141","2020-12-12 05:00","2020","12","12","05:00"
"-117.16","58.62","HIGH LEVEL A","3073141","2020-12-12 06:00","2020","12","12","06:00"
"-117.16","58.62","HIGH LEVEL A","3073141","2020-12-12 07:00","2020","12","12","07:00","-17.2","","-19.4","","83","","","","34","","21","","8.1","","98.66","","","","-27","","Snow"
"-117.16","58.62","HIGH LEVEL A","3073141","2020-12-12 08:00","2020","12","12","08:00","-17.4","","-19.9","","81","","","","35","","25","","24.1","","98.76","","","","-28","","Snow"
"-117.16","58.62","HIGH LEVEL A","3073141","2020-12-12 09:00","2020","12","12","09:00","-18.2","","-20.8","","80","","","","34","","18","","16.1","","98.89","","","","-28","","Snow"
"-117.16","58.62","HIGH LEVEL A","3073141","2020-12-12 10:00","2020","12","12","10:00","-17.8","","-20.3","","81","","","","34","","22","","24.1","","99.03","","","","-28","","Snow,Blowing Snow"
"-117.16","58.62","HIGH LEVEL A","3073141","2020-12-12 11:00","2020","12","12","11:00","-17.8","","-20.9","","77","","","","34","","21","","24.1","","99.14","","","","-28","","Blowing Snow"
"-117.16","58.62","HIGH LEVEL A","3073141","2020-12-12 12:00","2020","12","12","12:00","-18.9","","-22.3","","75","","","","33","","22","","24.1","","99.24","","","","-30","","Blowing Snow"
"-117.16","58.62","HIGH LEVEL A","3073141","2020-12-12 13:00","2020","12","12","13:00","-19.3","","-22.4","","77","","","","34","","23","","24.1","","99.31","","","","-30","","Blowing Snow"
"-117.16","58.62","HIGH LEVEL A","3073141","2020-12-12 14:00","2020","12","12","14:00","-19.9","","-23.1","","76","","","","33","","14","","24.1","","99.39","","","","-29","","Mainly Clear"
"-117.16","58.62","HIGH LEVEL A","3073141","2020-12-12 15:00","2020","12","12","15:00","-20.0","","-22.9","","78","","","","31","","12","","24.1","","99.46","","","","-28","","NA"
"-117.16","58.62","HIGH LEVEL A","3073141","2020-12-12 16:00","2020","12","12","16:00","-21.9","","-24.4","","80","","","","33","","8","","24.1","","99.50","","","","-28","","NA"
"-117.16","58.62","HIGH LEVEL A","3073141","2020-12-12 17:00","2020","12","12","17:00","-22.4","","-24.3","","85","","","","32","","7","","24.1","","99.52","","","","-28","","Clear"
"-117.16","58.62","HIGH LEVEL A","3073141","2020-12-12 18:00","2020","12","12","18:00","-24.3","","-26.1","","86","","","","0","","1","","24.1","","99.53","","","","-25","","NA"
"-117.16","58.62","HIGH LEVEL A","3073141","2020-12-12 19:00","2020","12","12","19:00","-25.3","","-26.9","","87","","","","1","","3","","24.1","","99.49","","","","-28","","NA"
"-117.16","58.62","HIGH LEVEL A","3073141","2020-12-12 20:00","2020","12","12","20:00","-28.4","","-30.6","","82","","","","1","","4","","24.1","","99.43","","","","-33","","Clear"
"-117.16","58.62","HIGH LEVEL A","3073141","2020-12-12 21:00","2020","12","12","21:00","-30.3","","-33.4","","75","","","","1","","7","","24.1","","99.39","","","","-38","","NA"
"-117.16","58.62","HIGH LEVEL A","3073141","2020-12-12 22:00","2020","12","12","22:00","-30.1","","-32.6","","79","","","","24","","4","","24.1","","99.43","","","","-35","","NA"
"-117.16","58.62","HIGH LEVEL A","3073141","2020-12-12 23:00","2020","12","12","23:00"
"-117.16","58.62","HIGH LEVEL A","3073141","2020-12-13 00:00","2020","12","13","00:00"
"-117.16","58.62","HIGH LEVEL A","3073141","2020-12-13 01:00","2020","12","13","01:00"
"-117.16","58.62","HIGH LEVEL A","3073141","2020-12-13 02:00","2020","12","13","02:00"
"-117.16","58.62","HIGH LEVEL A","3073141","2020-12-13 03:00","2020","12","13","03:00"
"-117.16","58.62","HIGH LEVEL A","3073141","2020-12-13 04:00","2020","12","13","04:00"
"-117.16","58.62","HIGH LEVEL A","3073141","2020-12-13 05:00","2020","12","13","05:00"
"-117.16","58.62","HIGH LEVEL A","3073141","2020-12-13 06:00","2020","12","13","06:00"
"-117.16","58.62","HIGH LEVEL A","3073141","2020-12-13 07:00","2020","12","13","07:00","-35.9","","-39.1","","73","","","","0","","1","","24.1","","98.97","","","","-37","","NA"
"-117.16","58.62","HIGH LEVEL A","3073141","2020-12-13 08:00","2020","12","13","08:00","-36.8","","-40.3","","71","","","","36","","3","","24.1","","98.90","","","","-41","","Clear"
"-117.16","58.62","HIGH LEVEL A","3073141","2020-12-13 09:00","2020","12","13","09:00","-36.8","","-40.3","","71","","","","36","","3","","24.1","","98.87","","","","-41","","NA"
"-117.16","58.62","HIGH LEVEL A","3073141","2020-12-13 10:00","2020","12","13","10:00","-37.2","","-40.7","","71","","","","36","","2","","16.1","","98.88","","","","-40","","NA"
"-117.16","58.62","HIGH LEVEL A","3073141","2020-12-13 11:00","2020","12","13","11:00","-36.0","","-39.4","","72","","","","36","","2","","16.1","","98.80","","","","-39","","Mostly Cloudy"
"-117.16","58.62","HIGH LEVEL A","3073141","2020-12-13 12:00","2020","12","13","12:00","-32.9","","-35.9","","75","","","","36","","1","","19.3","","98.78","","","","-34","","NA"
"-117.16","58.62","HIGH LEVEL A","3073141","2020-12-13 13:00","2020","12","13","13:00","-31.6","","-34.5","","76","","","","36","","1","","24.1","","98.69","","","","-33","","NA"
"-117.16","58.62","HIGH LEVEL A","3073141","2020-12-13 14:00","2020","12","13","14:00","-28.9","","-31.5","","79","","","","11","","5","","24.1","","98.59","","","","-34","","Mostly Cloudy"
"-117.16","58.62","HIGH LEVEL A","3073141","2020-12-13 15:00","2020","12","13","15:00","-26.2","","-28.4","","82","","","","36","","3","","24.1","","98.54","","","","-29","","NA"
"-117.16","58.62","HIGH LEVEL A","3073141","2020-12-13 16:00","2020","12","13","16:00","-26.0","","-28.2","","82","","","","31","","3","","24.1","","98.49","","","","-29","","NA"
"-117.16","58.62","HIGH LEVEL A","3073141","2020-12-13 17:00","2020","12","13","17:00","-25.0","","-27.1","","83","","","","0","","1","","24.1","","98.42","","","","-26","","Cloudy"
"-117.16","58.62","HIGH LEVEL A","3073141","2020-12-13 18:00","2020","12","13","18:00","-24.2","","-26.2","","84","","","","27","","3","","24.1","","98.35","","","","-27","","NA"
"-117.16","58.62","HIGH LEVEL A","3073141","2020-12-13 19:00","2020","12","13","19:00","-23.4","","-25.3","","85","","","","36","","2","","24.1","","98.27","","","","-25","","NA"
"-117.16","58.62","HIGH LEVEL A","3073141","2020-12-13 20:00","2020","12","13","20:00","-22.9","","-24.8","","85","","","","20","","5","","24.1","","98.27","","","","-28","","Cloudy"
"-117.16","58.62","HIGH LEVEL A","3073141","2020-12-13 21:00","2020","12","13","21:00","-22.7","","-24.6","","85","","","","27","","3","","24.1","","98.26","","","","-25","","NA"
"-117.16","58.62","HIGH LEVEL A","3073141","2020-12-13 22:00","2020","12","13","22:00","-22.8","","-24.7","","85","","","","1","","3","","24.1","","98.24","","","","-26","","NA"
"-117.16","58.62","HIGH LEVEL A","3073141","2020-12-13 23:00","2020","12","13","23:00"
"-117.16","58.62","HIGH LEVEL A","3073141","2020-12-14 00:00","2020","12","14","00:00"
"-117.16","58.62","HIGH LEVEL A","3073141","2020-12-14 01:00","2020","12","14","01:00"
"-117.16","58.62","HIGH LEVEL A","3073141","2020-12-14 02:00","2020","12","14","02:00"
"-117.16","58.62","HIGH LEVEL A","3073141","2020-12-14 03:00","2020","12","14","03:00"
"-117.16","58.62","HIGH LEVEL A","3073141","2020-12-14 04:00","2020","12","14","04:00"
"-117.16","58.62","HIGH LEVEL A","3073141","2020-12-14 05:00","2020","12","14","05:00"
"-117.16","58.62","HIGH LEVEL A","3073141","2020-12-14 06:00","2020","12","14","06:00"
"-117.16","58.62","HIGH LEVEL A","3073141","2020-12-14 07:00","2020","12","14","07:00","-19.7","","-21.3","","87","","","","34","","7","","12.9","","98.22","","","","-25","","Snow"
"-117.16","58.62","HIGH LEVEL A","3073141","2020-12-14 08:00","2020","12","14","08:00","-19.7","","-21.3","","87","","","","36","","6","","16.1","","98.25","","","","-25","","Snow"
"-117.16","58.62","HIGH LEVEL A","3073141","2020-12-14 09:00","2020","12","14","09:00","-19.4","","-21.5","","84","","","","35","","12","","16.1","","98.25","","","","-27","","Snow"
"-117.16","58.62","HIGH LEVEL A","3073141","2020-12-14 10:00","2020","12","14","10:00","-19.9","","-22.1","","83","","","","35","","13","","24.1","","98.29","","","","-28","","Snow"
"-117.16","58.62","HIGH LEVEL A","3073141","2020-12-14 11:00","2020","12","14","11:00","-20.0","","-22.2","","83","","","","34","","11","","24.1","","98.29","","","","-28","","Snow"
"-117.16","58.62","HIGH LEVEL A","3073141","2020-12-14 12:00","2020","12","14","12:00","-20.2","","-22.5","","82","","","","33","","10","","24.1","","98.28","","","","-27","","NA"
"-117.16","58.62","HIGH LEVEL A","3073141","2020-12-14 13:00","2020","12","14","13:00","-20.1","","-22.4","","82","","","","36","","13","","24.1","","98.27","","","","-29","","NA"
"-117.16","58.62","HIGH LEVEL A","3073141","2020-12-14 14:00","2020","12","14","14:00","-20.0","","-22.5","","81","","","","1","","9","","24.1","","98.27","","","","-27","","Cloudy"
"-117.16","58.62","HIGH LEVEL A","3073141","2020-12-14 15:00","2020","12","14","15:00","-20.4","","-22.6","","83","","","","34","","8","","24.1","","98.27","","","","-27","","NA"
"-117.16","58.62","HIGH LEVEL A","3073141","2020-12-14 16:00","2020","12","14","16:00","-20.3","","-22.4","","84","","","","36","","4","","24.1","","98.23","","","","-24","","NA"
"-117.16","58.62","HIGH LEVEL A","3073141","2020-12-14 17:00","2020","12","14","17:00","-20.6","","-22.5","","85","","","","36","","2","","24.1","","98.21","","","","-22","","Mostly Cloudy"
"-117.16","58.62","HIGH LEVEL A","3073141","2020-12-14 18:00","2020","12","14","18:00","-20.5","","-22.3","","86","","","","36","","2","","8.1","","98.17","","","","-22","","Snow"
"-117.16","58.62","HIGH LEVEL A","3073141","2020-12-14 19:00","2020","12","14","19:00","-20.5","","-22.3","","86","","","","36","","2","","9.7","","98.10","","","","-22","","Snow"
"-117.16","58.62","HIGH LEVEL A","3073141","2020-12-14 20:00","2020","12","14","20:00","-20.5","","-22.3","","86","","","","15","","4","","6.4","","98.04","","","","-24","","Snow"
"-117.16","58.62","HIGH LEVEL A","3073141","2020-12-14 21:00","2020","12","14","21:00","-20.8","","-22.4","","87","","","","15","","4","","11.3","","97.97","","","","-24","","Snow"
"-117.16","58.62","HIGH LEVEL A","3073141","2020-12-14 22:00","2020","12","14","22:00","-20.8","","-22.4","","87","","","","15","","5","","16.1","","97.91","","","","-25","","Snow"
"-117.16","58.62","HIGH LEVEL A","3073141","2020-12-14 23:00","2020","12","14","23:00"
"-117.16","58.62","HIGH LEVEL A","3073141","2020-12-15 00:00","2020","12","15","00:00"
"-117.16","58.62","HIGH LEVEL A","3073141","2020-12-15 01:00","2020","12","15","01:00"
"-117.16","58.62","HIGH LEVEL A","3073141","2020-12-15 02:00","2020","12","15","02:00"
"-117.16","58.62","HIGH LEVEL A","3073141","2020-12-15 03:00","2020","12","15","03:00"
"-117.16","58.62","HIGH LEVEL A","3073141","2020-12-15 04:00","2020","12","15","04:00"
"-117.16","58.62","HIGH LEVEL A","3073141","2020-12-15 05:00","2020","12","15","05:00"
"-117.16","58.62","HIGH LEVEL A","3073141","2020-12-15 06:00","2020","12","15","06:00"
"-117.16","58.62","HIGH LEVEL A","3073141","2020-12-15 07:00","2020","12","15","07:00","-21.8","","-23.8","","84","","","","36","","3","","16.1","","97.25","","","","-25","","Snow"
"-117.16","58.62","HIGH LEVEL A","3073141","2020-12-15 08:00","2020","12","15","08:00","-21.6","","-23.6","","84","","","","1","","3","","16.1","","97.18","","","","-24","","Snow"
"-117.16","58.62","HIGH LEVEL A","3073141","2020-12-15 09:00","2020","12","15","09:00","-21.4","","-23.4","","84","","","","4","","3","","3.2","","97.07","","","","-24","","Snow"
"-117.16","58.62","HIGH LEVEL A","3073141","2020-12-15 10:00","2020","12","15","10:00","-21.2","","-23.2","","84","","","","35","","5","","3.2","","97.07","","","","-26","","Snow"
"-117.16","58.62","HIGH LEVEL A","3073141","2020-12-15 11:00","2020","12","15","11:00","-20.8","","-22.8","","84","","","","1","","3","","4.0","","97.03","","","","-23","","Snow"
"-117.16","58.62","HIGH LEVEL A","3073141","2020-12-15 12:00","2020","12","15","12:00","-20.6","","-22.6","","84","","","","36","","3","","2.4","","96.96","","","","-23","","Snow"
"-117.16","58.62","HIGH LEVEL A","3073141","2020-12-15 13:00","2020","12","15","13:00","-20.2","","-22.4","","83","","","","32","","5","","8.1","","96.95","","","","-25","","Snow"
"-117.16","58.62","HIGH LEVEL A","3073141","2020-12-15 14:00","2020","12","15","14:00","-20.0","","-22.1","","83","","","","35","","7","","16.1","","96.89","","","","-26","","Snow"
"-117.16","58.62","HIGH LEVEL A","3073141","2020-12-15 15:00","2020","12","15","15:00","-19.9","","-22.2","","82","","","","35","","9","","8.1","","96.86","","","","-27","","Snow"
"-117.16","58.62","HIGH LEVEL A","3073141","2020-12-15 16:00","2020","12","15","16:00","-19.8","","-22.0","","83","","","","34","","9","","6.4","","96.85","","","","-27","","Snow"
"-117.16","58.62","HIGH LEVEL A","3073141","2020-12-15 17:00","2020","12","15","17:00","-19.7","","-21.8","","84","","","","35","","11","","4.8","","96.84","","","","-27","","Snow"
"-117.16","58.62","HIGH LEVEL A","3073141","2020-12-15 18:00","2020","12","15","18:00","-19.6","","-21.6","","84","","","","34","","8","","4.0","","96.85","","","","-26","","Snow"
"-117.16","58.62","HIGH LEVEL A","3073141","2020-12-15 19:00","2020","12","15","19:00","-19.7","","-21.8","","84","","","","34","","7","","4.0","","96.83","","","","-25","","Snow"
"-117.16","58.62","HIGH LEVEL A","3073141","2020-12-15 20:00","2020","12","15","20:00","-19.7","","-21.9","","83","","","","35","","10","","4.0","","96.80","","","","-27","","Snow"
"-117.16","58.62","HIGH LEVEL A","3073141","2020-12-15 21:00","2020","12","15","21:00","-19.8","","-22.0","","83","","","","34","","9","","4.8","","96.80","","","","-27","","Snow,Blowing Snow"
"-117.16","58.62","HIGH LEVEL A","3073141","2020-12-15 22:00","2020","12","15","22:00","-19.8","","-22.0","","83","","","","34","","11","","4.8","","96.83","","","","-27","","Snow,Blowing Snow"
"-117.16","58.62","HIGH LEVEL A","3073141","2020-12-15 23:00","2020","12","15","23:00"
"-117.16","58.62","HIGH LEVEL A","3073141","2020-12-16 00:00","2020","12","16","00:00"
"-117.16","58.62","HIGH LEVEL A","3073141","2020-12-16 01:00","2020","12","16","01:00"
"-117.16","58.62","HIGH LEVEL A","3073141","2020-12-16 02:00","2020","12","16","02:00"
"-117.16","58.62","HIGH LEVEL A","3073141","2020-12-16 03:00","2020","12","16","03:00"
"-117.16","58.62","HIGH LEVEL A","3073141","2020-12-16 04:00","2020","12","16","04:00"
"-117.16","58.62","HIGH LEVEL A","3073141","2020-12-16 05:00","2020","12","16","05:00"
"-117.16","58.62","HIGH LEVEL A","3073141","2020-12-16 06:00","2020","12","16","06:00"
"-117.16","58.62","HIGH LEVEL A","3073141","2020-12-16 07:00","2020","12","16","07:00","-20.5","","-22.7","","83","","","","34","","12","","3.2","","97.04","","","","-29","","Snow,Blowing Snow"
"-117.16","58.62","HIGH LEVEL A","3073141","2020-12-16 08:00","2020","12","16","08:00","-20.5","","-22.7","","83","","","","34","","13","","4.0","","97.06","","","","-29","","Snow,Blowing Snow"
"-117.16","58.62","HIGH LEVEL A","3073141","2020-12-16 09:00","2020","12","16","09:00","-20.7","","-22.9","","83","","","","36","","11","","4.0","","97.05","","","","-28","","Snow,Blowing Snow"
"-117.16","58.62","HIGH LEVEL A","3073141","2020-12-16 10:00","2020","12","16","10:00","-20.9","","-23.1","","83","","","","36","","12","","6.4","","97.09","","","","-29","","Snow"
"-117.16","58.62","HIGH LEVEL A","3073141","2020-12-16 11:00","2020","12","16","11:00","-21.0","","-23.3","","82","","","","35","","13","","8.1","","97.14","","","","-30","","Snow,Blowing Snow"
"-117.16","58.62","HIGH LEVEL A","3073141","2020-12-16 12:00","2020","12","16","12:00","-20.9","","-23.4","","81","","","","36","","12","","4.0","","97.16","","","","-29","","Snow,Blowing Snow"
"-117.16","58.62","HIGH LEVEL A","3073141","2020-12-16 13:00","2020","12","16","13:00","-20.8","","-23.1","","82","","","","36","","12","","4.8","","97.09","","","","-29","","Snow,Blowing Snow"
"-117.16","58.62","HIGH LEVEL A","3073141","2020-12-16 14:00","2020","12","16","14:00","-21.0","","-23.3","","82","","","","36","","8","","4.8","","97.08","","","","-27","","Snow,Blowing Snow"
"-117.16","58.62","HIGH LEVEL A","3073141","2020-12-16 15:00","2020","12","16","15:00","-21.2","","-23.4","","83","","","","36","","9","","9.7","","97.06","","","","-28","","Snow"
"-117.16","58.62","HIGH LEVEL A","3073141","2020-12-16 16:00","2020","12","16","16:00","-21.3","","-23.5","","83","","","","36","","11","","16.1","","97.07","","","","-29","","Snow"
"-117.16","58.62","HIGH LEVEL A","3073141","2020-12-16 17:00","2020","12","16","17:00","-21.4","","-23.6","","83","","","","1","","8","","16.1","","97.04","","","","-28","","Snow"
"-117.16","58.62","HIGH LEVEL A","3073141","2020-12-16 18:00","2020","12","16","18:00","-21.4","","-23.6","","83","","","","36","","9","","9.7","","97.02","","","","-28","","Snow"
"-117.16","58.62","HIGH LEVEL A","3073141","2020-12-16 19:00","2020","12","16","19:00","-21.7","","-23.7","","84","","","","1","","11","","24.1","","96.93","","","","-30","","Snow"
"-117.16","58.62","HIGH LEVEL A","3073141","2020-12-16 20:00","2020","12","16","20:00","-22.5","","-24.8","","82","","","","35","","13","","3.2","","96.97","","","","-31","","Snow"
"-117.16","58.62","HIGH LEVEL A","3073141","2020-12-16 21:00","2020","12","16","21:00","-23.1","","-25.6","","80","","","","1","","19","","4.0","","96.93","","","","-34","","Snow"
"-117.16","58.62","HIGH LEVEL A","3073141","2020-12-16 22:00","2020","12","16","22:00","-23.8","","-26.3","","80","","","","36","","18","","16.1","","96.91","","","","-35","","Snow"
"-117.16","58.62","HIGH LEVEL A","3073141","2020-12-16 23:00","2020","12","16","23:00"
"-117.16","58.62","HIGH LEVEL A","3073141","2020-12-17 00:00","2020","12","17","00:00"
"-117.16","58.62","HIGH LEVEL A","3073141","2020-12-17 01:00","2020","12","17","01:00"
"-117.16","58.62","HIGH LEVEL A","3073141","2020-12-17 02:00","2020","12","17","02:00"
"-117.16","58.62","HIGH LEVEL A","3073141","2020-12-17 03:00","2020","12","17","03:00"
"-117.16","58.62","HIGH LEVEL A","3073141","2020-12-17 04:00","2020","12","17","04:00"
"-117.16","58.62","HIGH LEVEL A","3073141","2020-12-17 05:00","2020","12","17","05:00"
"-117.16","58.62","HIGH LEVEL A","3073141","2020-12-17 06:00","2020","12","17","06:00"
"-117.16","58.62","HIGH LEVEL A","3073141","2020-12-17 07:00","2020","12","17","07:00","-28.2","","-31.8","","72","","","","35","","27","","19.3","","97.14","","","","-43","","Snow,Blowing Snow"
"-117.16","58.62","HIGH LEVEL A","3073141","2020-12-17 08:00","2020","12","17","08:00","-28.3","","-31.7","","73","","","","34","","25","","8.1","","97.20","","","","-42","","Snow,Blowing Snow"
"-117.16","58.62","HIGH LEVEL A","3073141","2020-12-17 09:00","2020","12","17","09:00","-28.3","","-31.9","","72","","","","34","","17","","4.0","","97.25","","","","-40","","Snow,Blowing Snow"
"-117.16","58.62","HIGH LEVEL A","3073141","2020-12-17 10:00","2020","12","17","10:00","-28.3","","-32.0","","71","","","","34","","17","","6.4","","97.35","","","","-40","","Snow,Blowing Snow"
"-117.16","58.62","HIGH LEVEL A","3073141","2020-12-17 11:00","2020","12","17","11:00","-28.2","","-31.9","","71","","","","33","","16","","24.1","","97.45","","","","-40","","Snow,Blowing Snow"
"-117.16","58.62","HIGH LEVEL A","3073141","2020-12-17 12:00","2020","12","17","12:00","-28.0","","-31.5","","73","","","","33","","18","","12.9","","97.50","","","","-40","","Snow,Blowing Snow"
"-117.16","58.62","HIGH LEVEL A","3073141","2020-12-17 13:00","2020","12","17","13:00","-27.8","","-31.4","","72","","","","33","","22","","4.8","","97.54","","","","-41","","Snow,Blowing Snow"
"-117.16","58.62","HIGH LEVEL A","3073141","2020-12-17 14:00","2020","12","17","14:00","-28.1","","-32.0","","70","","","","34","","19","","24.1","","97.60","","","","-40","","Blowing Snow"
"-117.16","58.62","HIGH LEVEL A","3073141","2020-12-17 15:00","2020","12","17","15:00","-28.2","","-31.8","","72","","","","33","","11","","24.1","","97.69","","","","-38","","Blowing Snow"
"-117.16","58.62","HIGH LEVEL A","3073141","2020-12-17 16:00","2020","12","17","16:00","-28.3","","-31.9","","72","","","","33","","12","","24.1","","97.81","","","","-38","","NA"
"-117.16","58.62","HIGH LEVEL A","3073141","2020-12-17 17:00","2020","12","17","17:00","-28.0","","-31.6","","72","","","","34","","14","","24.1","","97.84","","","","-39","","Cloudy"
"-117.16","58.62","HIGH LEVEL A","3073141","2020-12-17 18:00","2020","12","17","18:00","-28.8","","-32.2","","73","","","","31","","10","","24.1","","97.90","","","","-38","","NA"
"-117.16","58.62","HIGH LEVEL A","3073141","2020-12-17 19:00","2020","12","17","19:00","-29.1","","-32.2","","75","","","","33","","10","","24.1","","97.92","","","","-38","","NA"
"-117.16","58.62","HIGH LEVEL A","3073141","2020-12-17 20:00","2020","12","17","20:00","-29.8","","-33.1","","74","","","","31","","7","","24.1","","97.92","","","","-37","","Mainly Clear"
"-117.16","58.62","HIGH LEVEL A","3073141","2020-12-17 21:00","2020","12","17","21:00","-31.3","","-34.5","","74","","","","32","","7","","24.1","","97.90","","","","-39","","NA"
"-117.16","58.62","HIGH LEVEL A","3073141","2020-12-17 22:00","2020","12","17","22:00","-30.4","","-33.6","","74","","","","34","","7","","24.1","","97.91","","","","-38","","NA"
"-117.16","58.62","HIGH LEVEL A","3073141","2020-12-17 23:00","2020","12","17","23:00"
"-117.16","58.62","HIGH LEVEL A","3073141","2020-12-18 00:00","2020","12","18","00:00"
"-117.16","58.62","HIGH LEVEL A","3073141","2020-12-18 01:00","2020","12","18","01:00"
"-117.16","58.62","HIGH LEVEL A","3073141","2020-12-18 02:00","2020","12","18","02:00"
"-117.16","58.62","HIGH LEVEL A","3073141","2020-12-18 03:00","2020","12","18","03:00"
"-117.16","58.62","HIGH LEVEL A","3073141","2020-12-18 04:00","2020","12","18","04:00"
"-117.16","58.62","HIGH LEVEL A","3073141","2020-12-18 05:00","2020","12","18","05:00"
"-117.16","58.62","HIGH LEVEL A","3073141","2020-12-18 06:00","2020","12","18","06:00"
"-117.16","58.62","HIGH LEVEL A","3073141","2020-12-18 07:00","2020","12","18","07:00","-28.9","","-32.2","","74","","","","12","","14","","1.6","","97.48","","","","-40","","Snow"
"-117.16","58.62","HIGH LEVEL A","3073141","2020-12-18 08:00","2020","12","18","08:00","-28.8","","-31.9","","75","","","","12","","10","","1.6","","97.41","","","","-38","","Snow"
"-117.16","58.62","HIGH LEVEL A","3073141","2020-12-18 09:00","2020","12","18","09:00","-28.1","","-31.3","","74","","","","12","","11","","3.2","","97.22","","","","-37","","Snow"
"-117.16","58.62","HIGH LEVEL A","3073141","2020-12-18 10:00","2020","12","18","10:00","-27.7","","-31.0","","74","","","","12","","15","","19.3","","97.15","","","","-39","","Snow"
"-117.16","58.62","HIGH LEVEL A","3073141","2020-12-18 11:00","2020","12","18","11:00","-27.6","","-31.1","","72","","","","13","","16","","19.3","","97.15","","","","-39","","Snow"
"-117.16","58.62","HIGH LEVEL A","3073141","2020-12-18 12:00","2020","12","18","12:00","-27.3","","-30.7","","73","","","","13","","14","","19.3","","97.00","","","","-38","","Snow"
"-117.16","58.62","HIGH LEVEL A","3073141","2020-12-18 13:00","2020","12","18","13:00","-27.3","","-30.8","","73","","","","14","","22","","19.3","","96.84","","","","-40","","Snow,Blowing Snow"
"-117.16","58.62","HIGH LEVEL A","3073141","2020-12-18 14:00","2020","12","18","14:00","-27.2","","-30.6","","74","","","","12","","21","","19.3","","96.67","","","","-40","","Snow,Blowing Snow"
"-117.16","58.62","HIGH LEVEL A","3073141","2020-12-18 15:00","2020","12","18","15:00","-27.1","","-30.1","","76","","","","12","","18","","16.1","","96.48","","","","-39","","Snow,Blowing Snow"
"-117.16","58.62","HIGH LEVEL A","3073141","2020-12-18 16:00","2020","12","18","16:00","-26.9","","-30.1","","75","","","","13","","17","","6.4","","96.31","","","","-38","","Snow,Blowing Snow"
"-117.16","58.62","HIGH LEVEL A","3073141","2020-12-18 17:00","2020","12","18","17:00","-26.6","","-29.6","","76","","","","13","","21","","4.8","","96.19","","","","-39","","Snow,Blowing Snow"
"-117.16","58.62","HIGH LEVEL A","3073141","2020-12-18 18:00","2020","12","18","18:00","-26.4","","-29.4","","76","","","","13","","17","","2.8","","96.05","","","","-38","","Snow,Blowing Snow"
"-117.16","58.62","HIGH LEVEL A","3073141","2020-12-18 19:00","2020","12","18","19:00","-26.2","","-29.2","","76","","","","13","","10","","2.0","","95.90","","","","-35","","Snow,Blowing Snow"
"-117.16","58.62","HIGH LEVEL A","3073141","2020-12-18 20:00","2020","12","18","20:00","-26.2","","-29.1","","77","","","","12","","8","","2.0","","95.75","","","","-34","","Snow,Blowing Snow"
"-117.16","58.62","HIGH LEVEL A","3073141","2020-12-18 21:00","2020","12","18","21:00","-26.1","","-29.3","","75","","","","11","","14","","3.2","","95.66","","","","-36","","Snow"
"-117.16","58.62","HIGH LEVEL A","3073141","2020-12-18 22:00","2020","12","18","22:00","-26.3","","-29.5","","75","","","","14","","12","","2.0","","95.58","","","","-36","","Snow"
"-117.16","58.62","HIGH LEVEL A","3073141","2020-12-18 23:00","2020","12","18","23:00"
"-117.16","58.62","HIGH LEVEL A","3073141","2020-12-19 00:00","2020","12","19","00:00"
"-117.16","58.62","HIGH LEVEL A","3073141","2020-12-19 01:00","2020","12","19","01:00"
"-117.16","58.62","HIGH LEVEL A","3073141","2020-12-19 02:00","2020","12","19","02:00"
"-117.16","58.62","HIGH LEVEL A","3073141","2020-12-19 03:00","2020","12","19","03:00"
"-117.16","58.62","HIGH LEVEL A","3073141","2020-12-19 04:00","2020","12","19","04:00"
"-117.16","58.62","HIGH LEVEL A","3073141","2020-12-19 05:00","2020","12","19","05:00"
"-117.16","58.62","HIGH LEVEL A","3073141","2020-12-19 06:00","2020","12","19","06:00"
"-117.16","58.62","HIGH LEVEL A","3073141","2020-12-19 07:00","2020","12","19","07:00","-23.5","","-26.7","","76","","","","30","","7","","6.4","","96.14","","","","-30","","Snow"
"-117.16","58.62","HIGH LEVEL A","3073141","2020-12-19 08:00","2020","12","19","08:00","-23.6","","-26.3","","79","","","","25","","4","","9.7","","96.21","","","","-27","","Snow"
"-117.16","58.62","HIGH LEVEL A","3073141","2020-12-19 09:00","2020","12","19","09:00","-23.4","","-26.1","","79","","","","25","","5","","19.3","","96.26","","","","-28","","Snow"
"-117.16","58.62","HIGH LEVEL A","3073141","2020-12-19 10:00","2020","12","19","10:00","-23.1","","-26.3","","76","","","","25","","5","","24.1","","96.34","","","","-28","","Snow"
"-117.16","58.62","HIGH LEVEL A","3073141","2020-12-19 11:00","2020","12","19","11:00","-22.9","","-26.3","","74","","","","22","","4","","24.1","","96.37","","","","-27","","Mostly Cloudy"
"-117.16","58.62","HIGH LEVEL A","3073141","2020-12-19 12:00","2020","12","19","12:00","-22.6","","-26.0","","74","","","","36","","1","","24.1","","96.40","","","","-24","","NA"
"-117.16","58.62","HIGH LEVEL A","3073141","2020-12-19 13:00","2020","12","19","13:00","-22.2","","-26.0","","72","","","","36","","3","","24.1","","96.46","","","","-25","","NA"
"-117.16","58.62","HIGH LEVEL A","3073141","2020-12-19 14:00","2020","12","19","14:00","-22.1","","-25.9","","72","","","","6","","3","","24.1","","96.44","","","","-25","","Mostly Cloudy"
"-117.16","58.62","HIGH LEVEL A","3073141","2020-12-19 15:00","2020","12","19","15:00","-21.9","","-25.4","","74","","","","36","","1","","24.1","","96.38","","","","-23","","NA"
"-117.16","58.62","HIGH LEVEL A","3073141","2020-12-19 16:00","2020","12","19","16:00","-21.9","","-25.2","","75","","","","9","","4","","24.1","","96.41","","","","-26","","NA"
"-117.16","58.62","HIGH LEVEL A","3073141","2020-12-19 17:00","2020","12","19","17:00","-21.8","","-25.1","","75","","","","9","","6","","24.1","","96.38","","","","-27","","Cloudy"
"-117.16","58.62","HIGH LEVEL A","3073141","2020-12-19 18:00","2020","12","19","18:00","-21.8","","-24.7","","78","","","","10","","7","","24.1","","96.28","","","","-28","","NA"
"-117.16","58.62","HIGH LEVEL A","3073141","2020-12-19 19:00","2020","12","19","19:00","-22.9","","-25.3","","81","","","","16","","7","","24.1","","96.15","","","","-29","","NA"
"-117.16","58.62","HIGH LEVEL A","3073141","2020-12-19 20:00","2020","12","19","20:00","-23.9","","-25.9","","84","","","","36","","1","","24.1","","96.04","","","","-25","","Clear"
"-117.16","58.62","HIGH LEVEL A","3073141","2020-12-19 21:00","2020","12","19","21:00","-24.0","","-26.2","","83","","","","12","","5","","24.1","","95.92","","","","-29","","NA"
"-117.16","58.62","HIGH LEVEL A","3073141","2020-12-19 22:00","2020","12","19","22:00","-23.4","","-25.7","","82","","","","14","","8","","24.1","","95.85","","","","-30","","NA"
"-117.16","58.62","HIGH LEVEL A","3073141","2020-12-19 23:00","2020","12","19","23:00"
"-117.16","58.62","HIGH LEVEL A","3073141","2020-12-20 00:00","2020","12","20","00:00"
"-117.16","58.62","HIGH LEVEL A","3073141","2020-12-20 01:00","2020","12","20","01:00"
"-117.16","58.62","HIGH LEVEL A","3073141","2020-12-20 02:00","2020","12","20","02:00"
"-117.16","58.62","HIGH LEVEL A","3073141","2020-12-20 03:00","2020","12","20","03:00"
"-117.16","58.62","HIGH LEVEL A","3073141","2020-12-20 04:00","2020","12","20","04:00"
"-117.16","58.62","HIGH LEVEL A","3073141","2020-12-20 05:00","2020","12","20","05:00"
"-117.16","58.62","HIGH LEVEL A","3073141","2020-12-20 06:00","2020","12","20","06:00"
"-117.16","58.62","HIGH LEVEL A","3073141","2020-12-20 07:00","2020","12","20","07:00","-23.1","","-25.8","","79","","","","35","","16","","3.2","","95.66","","","","-33","","Snow,Blowing Snow"
"-117.16","58.62","HIGH LEVEL A","3073141","2020-12-20 08:00","2020","12","20","08:00","-24.0","","-26.8","","78","","","","36","","20","","9.7","","95.70","","","","-36","","Snow,Blowing Snow"
"-117.16","58.62","HIGH LEVEL A","3073141","2020-12-20 09:00","2020","12","20","09:00","-24.0","","-26.8","","78","","","","35","","8","","12.9","","95.79","","","","-31","","Snow"
"-117.16","58.62","HIGH LEVEL A","3073141","2020-12-20 10:00","2020","12","20","10:00","-24.2","","-26.9","","79","","","","36","","5","","12.9","","95.89","","","","-29","","Snow"
"-117.16","58.62","HIGH LEVEL A","3073141","2020-12-20 11:00","2020","12","20","11:00","-23.6","","-26.1","","80","","","","1","","8","","12.9","","95.96","","","","-30","","Snow"
"-117.16","58.62","HIGH LEVEL A","3073141","2020-12-20 12:00","2020","12","20","12:00","-23.3","","-26.1","","78","","","","1","","7","","24.1","","96.03","","","","-29","","Snow"
"-117.16","58.62","HIGH LEVEL A","3073141","2020-12-20 13:00","2020","12","20","13:00","-23.0","","-26.1","","76","","","","36","","1","","24.1","","96.05","","","","-24","","NA"
"-117.16","58.62","HIGH LEVEL A","3073141","2020-12-20 14:00","2020","12","20","14:00","-22.6","","-25.9","","75","","","","12","","8","","24.1","","96.06","","","","-29","","Mainly Clear"
"-117.16","58.62","HIGH LEVEL A","3073141","2020-12-20 15:00","2020","12","20","15:00","-23.6","","-26.4","","78","","","","10","","4","","24.1","","96.15","","","","-27","","NA"
"-117.16","58.62","HIGH LEVEL A","3073141","2020-12-20 16:00","2020","12","20","16:00","-22.3","","-25.3","","77","","","","12","","6","","24.1","","96.14","","","","-28","","NA"
"-117.16","58.62","HIGH LEVEL A","3073141","2020-12-20 17:00","2020","12","20","17:00","-21.8","","-24.8","","77","","","","13","","7","","24.1","","96.15","","","","-28","","Cloudy"
"-117.16","58.62","HIGH LEVEL A","3073141","2020-12-20 18:00","2020","12","20","18:00","-21.8","","-24.8","","77","","","","16","","5","","24.1","","96.20","","","","-26","","NA"
"-117.16","58.62","HIGH LEVEL A","3073141","2020-12-20 19:00","2020","12","20","19:00","-22.5","","-24.9","","81","","","","15","","7","","24.1","","96.13","","","","-29","","NA"
"-117.16","58.62","HIGH LEVEL A","3073141","2020-12-20 20:00","2020","12","20","20:00","-24.8","","-26.8","","84","","","","13","","4","","24.1","","96.16","","","","-29","","Clear"
"-117.16","58.62","HIGH LEVEL A","3073141","2020-12-20 21:00","2020","12","20","21:00","-25.0","","-26.9","","85","","","","36","","1","","24.1","","96.17","","","","-26","","NA"
"-117.16","58.62","HIGH LEVEL A","3073141","2020-12-20 22:00","2020","12","20","22:00","-26.4","","-28.4","","84","","","","36","","2","","24.1","","96.25","","","","-28","","NA"
"-117.16","58.62","HIGH LEVEL A","3073141","2020-12-20 23:00","2020","12","20","23:00"
"-117.16","58.62","HIGH LEVEL A","3073141","2020-12-21 00:00","2020","12","21","00:00"
"-117.16","58.62","HIGH LEVEL A","3073141","2020-12-21 01:00","2020","12","21","01:00"
"-117.16","58.62","HIGH LEVEL A","3073141","2020-12-21 02:00","2020","12","21","02:00"
"-117.16","58.62","HIGH LEVEL A","3073141","2020-12-21 03:00","2020","12","21","03:00"
"-117.16","58.62","HIGH LEVEL A","3073141","2020-12-21 04:00","2020","12","21","04:00"
"-117.16","58.62","HIGH LEVEL A","3073141","2020-12-21 05:00","2020","12","21","05:00"
"-117.16","58.62","HIGH LEVEL A","3073141","2020-12-21 06:00","2020","12","21","06:00"
"-117.16","58.62","HIGH LEVEL A","3073141","2020-12-21 07:00","2020","12","21","07:00","-30.0","","-32.7","","78","","","","1","","5","","24.1","","96.62","","","","-36","","NA"
"-117.16","58.62","HIGH LEVEL A","3073141","2020-12-21 08:00","2020","12","21","08:00","-30.8","","-33.6","","77","","","","35","","5","","24.1","","96.63","","","","-37","","Clear"
"-117.16","58.62","HIGH LEVEL A","3073141","2020-12-21 09:00","2020","12","21","09:00","-30.8","","-33.6","","77","","","","36","","7","","24.1","","96.64","","","","-38","","NA"
"-117.16","58.62","HIGH LEVEL A","3073141","2020-12-21 10:00","2020","12","21","10:00","-31.0","","-33.7","","78","","","","22","","4","","24.1","","96.67","","","","-36","","NA"
"-117.16","58.62","HIGH LEVEL A","3073141","2020-12-21 11:00","2020","12","21","11:00","-30.3","","-33.0","","78","","","","34","","5","","24.1","","96.76","","","","-36","","Clear"
"-117.16","58.62","HIGH LEVEL A","3073141","2020-12-21 12:00","2020","12","21","12:00","-28.0","","-30.6","","79","","","","36","","3","","24.1","","96.79","","","","-31","","NA"
"-117.16","58.62","HIGH LEVEL A","3073141","2020-12-21 13:00","2020","12","21","13:00","-25.1","","-27.5","","81","","","","36","","2","","24.1","","96.80","","","","-27","","NA"
"-117.16","58.62","HIGH LEVEL A","3073141","2020-12-21 14:00","2020","12","21","14:00","-23.8","","-26.0","","82","","","","36","","1","","24.1","","96.84","","","","-25","","Clear"
"-117.16","58.62","HIGH LEVEL A","3073141","2020-12-21 15:00","2020","12","21","15:00","-24.1","","-26.6","","80","","","","36","","2","","24.1","","96.85","","","","-26","","NA"
"-117.16","58.62","HIGH LEVEL A","3073141","2020-12-21 16:00","2020","12","21","16:00","-25.1","","-27.2","","83","","","","1","","4","","24.1","","96.93","","","","-29","","NA"
"-117.16","58.62","HIGH LEVEL A","3073141","2020-12-21 17:00","2020","12","21","17:00","-25.5","","-27.8","","81","","","","35","","8","","24.1","","97.00","","","","-33","","Mainly Clear"
"-117.16","58.62","HIGH LEVEL A","3073141","2020-12-21 18:00","2020","12","21","18:00","-23.3","","-25.6","","82","","","","35","","11","","24.1","","97.03","","","","-32","","NA"
"-117.16","58.62","HIGH LEVEL A","3073141","2020-12-21 19:00","2020","12","21","19:00","-23.5","","-25.8","","82","","","","36","","9","","24.1","","97.10","","","","-31","","NA"
"-117.16","58.62","HIGH LEVEL A","3073141","2020-12-21 20:00","2020","12","21","20:00","-24.2","","-26.6","","81","","","","1","","14","","24.1","","97.20","","","","-34","","Mainly Clear"
"-117.16","58.62","HIGH LEVEL A","3073141","2020-12-21 21:00","2020","12","21","21:00","-25.0","","-27.5","","80","","","","36","","11","","24.1","","97.25","","","","-34","","NA"
"-117.16","58.62","HIGH LEVEL A","3073141","2020-12-21 22:00","2020","12","21","22:00","-25.9","","-28.4","","80","","","","36","","12","","24.1","","97.32","","","","-35","","Snow"
"-117.16","58.62","HIGH LEVEL A","3073141","2020-12-21 23:00","2020","12","21","23:00"
"-117.16","58.62","HIGH LEVEL A","3073141","2020-12-22 00:00","2020","12","22","00:00"
"-117.16","58.62","HIGH LEVEL A","3073141","2020-12-22 01:00","2020","12","22","01:00"
"-117.16","58.62","HIGH LEVEL A","3073141","2020-12-22 02:00","2020","12","22","02:00"
"-117.16","58.62","HIGH LEVEL A","3073141","2020-12-22 03:00","2020","12","22","03:00"
"-117.16","58.62","HIGH LEVEL A","3073141","2020-12-22 04:00","2020","12","22","04:00"
"-117.16","58.62","HIGH LEVEL A","3073141","2020-12-22 05:00","2020","12","22","05:00"
"-117.16","58.62","HIGH LEVEL A","3073141","2020-12-22 06:00","2020","12","22","06:00"
"-117.16","58.62","HIGH LEVEL A","3073141","2020-12-22 07:00","2020","12","22","07:00","-26.0","","-28.3","","81","","","","13","","4","","16.1","","97.80","","","","-30","","Snow"
"-117.16","58.62","HIGH LEVEL A","3073141","2020-12-22 08:00","2020","12","22","08:00","-25.2","","-27.4","","82","","","","12","","5","","24.1","","97.76","","","","-30","","Snow"
"-117.16","58.62","HIGH LEVEL A","3073141","2020-12-22 09:00","2020","12","22","09:00","-24.7","","-26.9","","82","","","","17","","7","","24.1","","97.84","","","","-31","","Snow"
"-117.16","58.62","HIGH LEVEL A","3073141","2020-12-22 10:00","2020","12","22","10:00","-24.4","","-26.6","","82","","","","7","","3","","24.1","","97.91","","","","-27","","NA"
"-117.16","58.62","HIGH LEVEL A","3073141","2020-12-22 11:00","2020","12","22","11:00","-23.9","","-26.2","","82","","","","14","","6","","24.1","","97.94","","","","-30","","Cloudy"
"-117.16","58.62","HIGH LEVEL A","3073141","2020-12-22 12:00","2020","12","22","12:00","-23.6","","-25.9","","82","","","","36","","1","","16.1","","97.99","","","","-25","","NA"
"-117.16","58.62","HIGH LEVEL A","3073141","2020-12-22 13:00","2020","12","22","13:00","-23.2","","-24.9","","86","","","","36","","2","","16.1","","98.00","","","","-25","","NA"
"-117.16","58.62","HIGH LEVEL A","3073141","2020-12-22 14:00","2020","12","22","14:00","-22.5","","-24.4","","85","","","","0","","1","","16.1","","98.03","","","","-23","","Cloudy"
"-117.16","58.62","HIGH LEVEL A","3073141","2020-12-22 15:00","2020","12","22","15:00","-22.8","","-24.7","","85","","","","15","","7","","12.9","","98.03","","","","-29","","NA"
"-117.16","58.62","HIGH LEVEL A","3073141","2020-12-22 16:00","2020","12","22","16:00","-23.4","","-25.3","","85","","","","19","","8","","24.1","","98.05","","","","-30","","NA"
"-117.16","58.62","HIGH LEVEL A","3073141","2020-12-22 17:00","2020","12","22","17:00","-24.0","","-26.0","","84","","","","13","","8","","16.1","","98.03","","","","-31","","Mostly Cloudy"
"-117.16","58.62","HIGH LEVEL A","3073141","2020-12-22 18:00","2020","12","22","18:00","-24.4","","-26.5","","83","","","","20","","5","","24.1","","98.12","","","","-29","","NA"
"-117.16","58.62","HIGH LEVEL A","3073141","2020-12-22 19:00","2020","12","22","19:00","-23.9","","-25.9","","84","","","","18","","5","","16.1","","98.11","","","","-29","","Snow"
"-117.16","58.62","HIGH LEVEL A","3073141","2020-12-22 20:00","2020","12","22","20:00","-23.3","","-25.2","","85","","","","17","","7","","3.2","","98.12","","","","-29","","Snow,Fog"
"-117.16","58.62","HIGH LEVEL A","3073141","2020-12-22 21:00","2020","12","22","21:00","-23.0","","-24.9","","85","","","","16","","7","","8.1","","98.03","","","","-29","","Snow,Fog"
"-117.16","58.62","HIGH LEVEL A","3073141","2020-12-22 22:00","2020","12","22","22:00","-23.0","","-24.9","","85","","","","16","","7","","9.7","","98.03","","","","-29","","Snow,Fog"
"-117.16","58.62","HIGH LEVEL A","3073141","2020-12-22 23:00","2020","12","22","23:00"
"-117.16","58.62","HIGH LEVEL A","3073141","2020-12-23 00:00","2020","12","23","00:00"
"-117.16","58.62","HIGH LEVEL A","3073141","2020-12-23 01:00","2020","12","23","01:00"
"-117.16","58.62","HIGH LEVEL A","3073141","2020-12-23 02:00","2020","12","23","02:00"
"-117.16","58.62","HIGH LEVEL A","3073141","2020-12-23 03:00","2020","12","23","03:00"
"-117.16","58.62","HIGH LEVEL A","3073141","2020-12-23 04:00","2020","12","23","04:00"
"-117.16","58.62","HIGH LEVEL A","3073141","2020-12-23 05:00","2020","12","23","05:00"
"-117.16","58.62","HIGH LEVEL A","3073141","2020-12-23 06:00","2020","12","23","06:00"
"-117.16","58.62","HIGH LEVEL A","3073141","2020-12-23 07:00","2020","12","23","07:00","-23.1","","-25.0","","85","","","","17","","7","","24.1","","97.43","","","","-29","","NA"
"-117.16","58.62","HIGH LEVEL A","3073141","2020-12-23 08:00","2020","12","23","08:00","-22.3","","-24.2","","85","","","","16","","8","","24.1","","97.32","","","","-29","","Cloudy"
"-117.16","58.62","HIGH LEVEL A","3073141","2020-12-23 09:00","2020","12","23","09:00","-21.6","","-23.4","","86","","","","36","","3","","24.1","","97.26","","","","-24","","NA"
"-117.16","58.62","HIGH LEVEL A","3073141","2020-12-23 10:00","2020","12","23","10:00","-20.8","","-22.4","","87","","","","19","","5","","24.1","","97.14","","","","-25","","NA"
"-117.16","58.62","HIGH LEVEL A","3073141","2020-12-23 11:00","2020","12","23","11:00","-20.5","","-22.1","","87","","","","19","","4","","24.1","","97.07","","","","-24","","Mostly Cloudy"
"-117.16","58.62","HIGH LEVEL A","3073141","2020-12-23 12:00","2020","12","23","12:00","-20.0","","-21.6","","87","","","","20","","6","","24.1","","96.96","","","","-25","","NA"
"-117.16","58.62","HIGH LEVEL A","3073141","2020-12-23 13:00","2020","12","23","13:00","-19.3","","-20.8","","88","","","","21","","5","","24.1","","96.89","","","","-23","","NA"
"-117.16","58.62","HIGH LEVEL A","3073141","2020-12-23 14:00","2020","12","23","14:00","-18.6","","-20.0","","89","","","","15","","8","","24.1","","96.77","","","","-25","","Cloudy"
"-117.16","58.62","HIGH LEVEL A","3073141","2020-12-23 15:00","2020","12","23","15:00","-17.4","","-18.7","","90","","","","16","","9","","24.1","","96.73","","","","-24","","NA"
"-117.16","58.62","HIGH LEVEL A","3073141","2020-12-23 16:00","2020","12","23","16:00","-16.5","","-17.7","","91","","","","17","","7","","24.1","","96.69","","","","-22","","NA"
"-117.16","58.62","HIGH LEVEL A","3073141","2020-12-23 17:00","2020","12","23","17:00","-17.1","","-18.2","","91","","","","15","","7","","24.1","","96.61","","","","-22","","Cloudy"
"-117.16","58.62","HIGH LEVEL A","3073141","2020-12-23 18:00","2020","12","23","18:00","-17.2","","-18.5","","90","","","","15","","5","","24.1","","96.50","","","","-21","","NA"
"-117.16","58.62","HIGH LEVEL A","3073141","2020-12-23 19:00","2020","12","23","19:00","-17.7","","-18.9","","91","","","","16","","5","","24.1","","96.41","","","","-22","","NA"
"-117.16","58.62","HIGH LEVEL A","3073141","2020-12-23 20:00","2020","12","23","20:00","-18.2","","-19.6","","89","","","","12","","4","","24.1","","96.37","","","","-21","","Mostly Cloudy"
"-117.16","58.62","HIGH LEVEL A","3073141","2020-12-23 21:00","2020","12","23","21:00","-17.9","","-19.2","","90","","","","22","","3","","24.1","","96.32","","","","-20","","NA"
"-117.16","58.62","HIGH LEVEL A","3073141","2020-12-23 22:00","2020","12","23","22:00","-18.2","","-19.6","","89","","","","23","","4","","24.1","","96.27","","","","-21","","NA"
"-117.16","58.62","HIGH LEVEL A","3073141","2020-12-23 23:00","2020","12","23","23:00"
"-117.16","58.62","HIGH LEVEL A","3073141","2020-12-24 00:00","2020","12","24","00:00"
"-117.16","58.62","HIGH LEVEL A","3073141","2020-12-24 01:00","2020","12","24","01:00"
"-117.16","58.62","HIGH LEVEL A","3073141","2020-12-24 02:00","2020","12","24","02:00"
"-117.16","58.62","HIGH LEVEL A","3073141","2020-12-24 03:00","2020","12","24","03:00"
"-117.16","58.62","HIGH LEVEL A","3073141","2020-12-24 04:00","2020","12","24","04:00"
"-117.16","58.62","HIGH LEVEL A","3073141","2020-12-24 05:00","2020","12","24","05:00"
"-117.16","58.62","HIGH LEVEL A","3073141","2020-12-24 06:00","2020","12","24","06:00"
"-117.16","58.62","HIGH LEVEL A","3073141","2020-12-24 07:00","2020","12","24","07:00","-6.6","","-6.7","","99","","","","20","","10","","24.1","","95.81","","","","-11","","NA"
"-117.16","58.62","HIGH LEVEL A","3073141","2020-12-24 08:00","2020","12","24","08:00","-6.9","","-7.3","","97","","","","21","","11","","24.1","","95.75","","","","-12","","Mostly Cloudy"
"-117.16","58.62","HIGH LEVEL A","3073141","2020-12-24 09:00","2020","12","24","09:00","-6.0","","-6.1","","99","","","","18","","8","","24.1","","95.73","","","","-10","","NA"
"-117.16","58.62","HIGH LEVEL A","3073141","2020-12-24 10:00","2020","12","24","10:00","-4.4","","-4.4","","100","","","","18","","9","","24.1","","95.81","","","","-8","","NA"
"-117.16","58.62","HIGH LEVEL A","3073141","2020-12-24 11:00","2020","12","24","11:00","-5.9","","-5.9","","100","","","","19","","13","","24.1","","95.84","","","","-11","","Mainly Clear"
"-117.16","58.62","HIGH LEVEL A","3073141","2020-12-24 12:00","2020","12","24","12:00","-2.3","","-2.3","","100","","","","11","","12","","24.1","","95.90","","","","-7","","NA"
"-117.16","58.62","HIGH LEVEL A","3073141","2020-12-24 13:00","2020","12","24","13:00","1.0","","1.0","","100","","","","28","","10","","24.1","","95.96","","","","","","NA"
"-117.16","58.62","HIGH LEVEL A","3073141","2020-12-24 14:00","2020","12","24","14:00","3.0","","-1.7","","71","","","","28","","10","","24.1","","96.05","","","","","","Mostly Cloudy"
"-117.16","58.62","HIGH LEVEL A","3073141","2020-12-24 15:00","2020","12","24","15:00","2.5","","-1.9","","73","","","","26","","12","","24.1","","96.12","","","","","","NA"
"-117.16","58.62","HIGH LEVEL A","3073141","2020-12-24 16:00","2020","12","24","16:00","2.4","","-1.8","","74","","","","25","","14","","24.1","","96.25","","","","","","NA"
"-117.16","58.62","HIGH LEVEL A","3073141","2020-12-24 17:00","2020","12","24","17:00","1.1","","-1.8","","81","","","","29","","11","","24.1","","96.39","","","","","","Mostly Cloudy"
"-117.16","58.62","HIGH LEVEL A","3073141","2020-12-24 18:00","2020","12","24","18:00","-0.7","","-2.8","","86","","","","31","","11","","24.1","","96.51","","","","-4","","NA"
"-117.16","58.62","HIGH LEVEL A","3073141","2020-12-24 19:00","2020","12","24","19:00","-3.7","","-4.5","","94","","","","24","","6","","24.1","","96.63","","","","-6","","NA"
"-117.16","58.62","HIGH LEVEL A","3073141","2020-12-24 20:00","2020","12","24","20:00","-2.9","","-3.5","","95","","","","31","","4","","24.1","","96.74","","","","-4","","Mainly Clear"
"-117.16","58.62","HIGH LEVEL A","3073141","2020-12-24 21:00","2020","12","24","21:00","-6.6","","-6.6","","100","","","","36","","3","","16.1","","96.81","","","","-8","","NA"
"-117.16","58.62","HIGH LEVEL A","3073141","2020-12-24 22:00","2020","12","24","22:00","-7.2","","-7.3","","99","","","","36","","3","","24.1","","96.90","","","","-9","","NA"
"-117.16","58.62","HIGH LEVEL A","3073141","2020-12-24 23:00","2020","12","24","23:00"
"-117.16","58.62","HIGH LEVEL A","3073141","2020-12-25 00:00","2020","12","25","00:00"
"-117.16","58.62","HIGH LEVEL A","3073141","2020-12-25 01:00","2020","12","25","01:00"
"-117.16","58.62","HIGH LEVEL A","3073141","2020-12-25 02:00","2020","12","25","02:00"
"-117.16","58.62","HIGH LEVEL A","3073141","2020-12-25 03:00","2020","12","25","03:00"
"-117.16","58.62","HIGH LEVEL A","3073141","2020-12-25 04:00","2020","12","25","04:00"
"-117.16","58.62","HIGH LEVEL A","3073141","2020-12-25 05:00","2020","12","25","05:00"
"-117.16","58.62","HIGH LEVEL A","3073141","2020-12-25 06:00","2020","12","25","06:00"
"-117.16","58.62","HIGH LEVEL A","3073141","2020-12-25 07:00","2020","12","25","07:00","-19.6","","-21.1","","88","","","","2","","3","","16.1","","97.31","","","","-22","","NA"
"-117.16","58.62","HIGH LEVEL A","3073141","2020-12-25 08:00","2020","12","25","08:00","-19.4","","-20.8","","89","","","","36","","3","","24.1","","97.34","","","","-22","","Mainly Clear"
"-117.16","58.62","HIGH LEVEL A","3073141","2020-12-25 09:00","2020","12","25","09:00","-19.6","","-21.1","","88","","","","21","","5","","24.1","","97.34","","","","-24","","NA"
"-117.16","58.62","HIGH LEVEL A","3073141","2020-12-25 10:00","2020","12","25","10:00","-19.1","","-20.2","","91","","","","36","","1","","24.1","","97.38","","","","-20","","NA"
"-117.16","58.62","HIGH LEVEL A","3073141","2020-12-25 11:00","2020","12","25","11:00","-18.9","","-20.4","","89","","","","36","","2","","24.1","","97.41","","","","-21","","Mainly Clear"
"-117.16","58.62","HIGH LEVEL A","3073141","2020-12-25 12:00","2020","12","25","12:00","-16.3","","-17.7","","89","","","","17","","5","","0.2","","97.44","","","","-20","","Freezing Fog"
"-117.16","58.62","HIGH LEVEL A","3073141","2020-12-25 13:00","2020","12","25","13:00","-12.0","","-12.6","","95","","","","12","","4","","0.2","","97.47","","","","-15","","Freezing Fog"
"-117.16","58.62","HIGH LEVEL A","3073141","2020-12-25 14:00","2020","12","25","14:00","-12.8","","-13.6","","94","","","","18","","3","","24.1","","97.47","","","","-15","","Mainly Clear"
"-117.16","58.62","HIGH LEVEL A","3073141","2020-12-25 15:00","2020","12","25","15:00","-13.7","","-14.7","","92","","","","36","","3","","24.1","","97.46","","","","-16","","NA"
"-117.16","58.62","HIGH LEVEL A","3073141","2020-12-25 16:00","2020","12","25","16:00","-15.4","","-16.5","","92","","","","35","","3","","24.1","","97.45","","","","-18","","NA"
"-117.16","58.62","HIGH LEVEL A","3073141","2020-12-25 17:00","2020","12","25","17:00","-17.4","","-18.3","","93","","","","36","","2","","24.1","","97.48","","","","-19","","Mainly Clear"
"-117.16","58.62","HIGH LEVEL A","3073141","2020-12-25 18:00","2020","12","25","18:00","-18.3","","-19.7","","89","","","","36","","3","","12.9","","97.48","","","","-21","","NA"
"-117.16","58.62","HIGH LEVEL A","3073141","2020-12-25 19:00","2020","12","25","19:00","-18.3","","-19.7","","89","","","","1","","4","","0.8","","97.49","","","","-22","","Freezing Fog"
"-117.16","58.62","HIGH LEVEL A","3073141","2020-12-25 20:00","2020","12","25","20:00","-18.1","","-19.3","","90","","","","36","","1","","0.4","","97.49","","","","-19","","Freezing Fog"
"-117.16","58.62","HIGH LEVEL A","3073141","2020-12-25 21:00","2020","12","25","21:00","-18.2","","-19.7","","88","","","","35","","7","","0.0","","97.50","","","","-24","","Freezing Fog"
"-117.16","58.62","HIGH LEVEL A","3073141","2020-12-25 22:00","2020","12","25","22:00","-19.6","","-21.0","","89","","","","36","","2","","0.4","","97.50","","","","-21","","Freezing Fog"
"-117.16","58.62","HIGH LEVEL A","3073141","2020-12-25 23:00","2020","12","25","23:00"
"-117.16","58.62","HIGH LEVEL A","3073141","2020-12-26 00:00","2020","12","26","00:00"
"-117.16","58.62","HIGH LEVEL A","3073141","2020-12-26 01:00","2020","12","26","01:00"
"-117.16","58.62","HIGH LEVEL A","3073141","2020-12-26 02:00","2020","12","26","02:00"
"-117.16","58.62","HIGH LEVEL A","3073141","2020-12-26 03:00","2020","12","26","03:00"
"-117.16","58.62","HIGH LEVEL A","3073141","2020-12-26 04:00","2020","12","26","04:00"
"-117.16","58.62","HIGH LEVEL A","3073141","2020-12-26 05:00","2020","12","26","05:00"
"-117.16","58.62","HIGH LEVEL A","3073141","2020-12-26 06:00","2020","12","26","06:00"
"-117.16","58.62","HIGH LEVEL A","3073141","2020-12-26 07:00","2020","12","26","07:00","-22.3","","-24.1","","86","","","","36","","2","","0.8","","97.63","","","","-24","","Freezing Fog"
"-117.16","58.62","HIGH LEVEL A","3073141","2020-12-26 08:00","2020","12","26","08:00","-22.5","","-24.2","","86","","","","36","","2","","1.2","","97.66","","","","-24","","Snow,Fog"
"-117.16","58.62","HIGH LEVEL A","3073141","2020-12-26 09:00","2020","12","26","09:00","-22.1","","-23.8","","86","","","","14","","3","","0.8","","97.69","","","","-25","","Freezing Fog"
"-117.16","58.62","HIGH LEVEL A","3073141","2020-12-26 10:00","2020","12","26","10:00","-22.3","","-24.0","","86","","","","36","","2","","0.8","","97.74","","","","-24","","Freezing Fog"
"-117.16","58.62","HIGH LEVEL A","3073141","2020-12-26 11:00","2020","12","26","11:00","-20.7","","-22.3","","87","","","","36","","1","","1.0","","97.78","","","","-22","","Fog"
"-117.16","58.62","HIGH LEVEL A","3073141","2020-12-26 12:00","2020","12","26","12:00","-20.2","","-21.7","","88","","","","16","","7","","1.2","","97.80","","","","-26","","Fog"
"-117.16","58.62","HIGH LEVEL A","3073141","2020-12-26 13:00","2020","12","26","13:00","-20.3","","-21.8","","88","","","","17","","6","","6.4","","97.80","","","","-25","","Fog"
"-117.16","58.62","HIGH LEVEL A","3073141","2020-12-26 14:00","2020","12","26","14:00","-19.9","","-21.4","","88","","","","36","","1","","12.9","","97.81","","","","-21","","Mostly Cloudy"
"-117.16","58.62","HIGH LEVEL A","3073141","2020-12-26 15:00","2020","12","26","15:00","-20.1","","-21.7","","87","","","","15","","4","","16.1","","97.83","","","","-24","","NA"
"-117.16","58.62","HIGH LEVEL A","3073141","2020-12-26 16:00","2020","12","26","16:00","-20.5","","-22.2","","86","","","","16","","7","","2.4","","97.86","","","","-26","","Fog"
"-117.16","58.62","HIGH LEVEL A","3073141","2020-12-26 17:00","2020","12","26","17:00","-20.0","","-21.5","","88","","","","17","","6","","3.2","","97.92","","","","-25","","Fog"
"-117.16","58.62","HIGH LEVEL A","3073141","2020-12-26 18:00","2020","12","26","18:00","-20.4","","-21.9","","88","","","","20","","4","","4.8","","97.96","","","","-24","","Fog"
"-117.16","58.62","HIGH LEVEL A","3073141","2020-12-26 19:00","2020","12","26","19:00","-20.3","","-21.8","","88","","","","18","","5","","1.2","","97.97","","","","-25","","Fog"
"-117.16","58.62","HIGH LEVEL A","3073141","2020-12-26 20:00","2020","12","26","20:00","-20.0","","-21.5","","88","","","","17","","5","","0.8","","97.99","","","","-24","","Freezing Fog"
"-117.16","58.62","HIGH LEVEL A","3073141","2020-12-26 21:00","2020","12","26","21:00","-19.7","","-21.2","","88","","","","16","","7","","2.4","","98.01","","","","-25","","Fog"
"-117.16","58.62","HIGH LEVEL A","3073141","2020-12-26 22:00","2020","12","26","22:00","-19.3","","-20.7","","89","","","","20","","4","","1.0","","98.03","","","","-23","","Fog"
"-117.16","58.62","HIGH LEVEL A","3073141","2020-12-26 23:00","2020","12","26","23:00"
"-117.16","58.62","HIGH LEVEL A","3073141","2020-12-27 00:00","2020","12","27","00:00"
"-117.16","58.62","HIGH LEVEL A","3073141","2020-12-27 01:00","2020","12","27","01:00"
"-117.16","58.62","HIGH LEVEL A","3073141","2020-12-27 02:00","2020","12","27","02:00"
"-117.16","58.62","HIGH LEVEL A","3073141","2020-12-27 03:00","2020","12","27","03:00"
"-117.16","58.62","HIGH LEVEL A","3073141","2020-12-27 04:00","2020","12","27","04:00"
"-117.16","58.62","HIGH LEVEL A","3073141","2020-12-27 05:00","2020","12","27","05:00"
"-117.16","58.62","HIGH LEVEL A","3073141","2020-12-27 06:00","2020","12","27","06:00"
"-117.16","58.62","HIGH LEVEL A","3073141","2020-12-27 07:00","2020","12","27","07:00","-18.7","","-20.1","","89","","","","20","","5","","2.4","","97.94","","","","-23","","Fog"
"-117.16","58.62","HIGH LEVEL A","3073141","2020-12-27 08:00","2020","12","27","08:00"
"-117.16","58.62","HIGH LEVEL A","3073141","2020-12-27 09:00","2020","12","27","09:00","-18.3","","-19.7","","89","","","","19","","7","","1.6","","97.88","","","","-24","","Snow,Fog"
"-117.16","58.62","HIGH LEVEL A","3073141","2020-12-27 10:00","2020","12","27","10:00","-17.8","","-19.1","","90","","","","21","","7","","2.8","","97.85","","","","-23","","Snow,Fog"
"-117.16","58.62","HIGH LEVEL A","3073141","2020-12-27 11:00","2020","12","27","11:00","-17.2","","-18.5","","90","","","","19","","6","","3.2","","97.81","","","","-22","","Fog"
"-117.16","58.62","HIGH LEVEL A","3073141","2020-12-27 12:00","2020","12","27","12:00","-16.5","","-17.6","","91","","","","17","","12","","3.2","","97.76","","","","-24","","Fog"
"-117.16","58.62","HIGH LEVEL A","3073141","2020-12-27 13:00","2020","12","27","13:00","-16.5","","-17.6","","91","","","","16","","17","","3.2","","97.68","","","","-25","","Snow"
"-117.16","58.62","HIGH LEVEL A","3073141","2020-12-27 14:00","2020","12","27","14:00","-16.3","","-17.4","","91","","","","17","","9","","12.9","","97.64","","","","-22","","Cloudy"
"-117.16","58.62","HIGH LEVEL A","3073141","2020-12-27 15:00","2020","12","27","15:00","-16.3","","-17.4","","91","","","","14","","9","","12.9","","97.53","","","","-22","","NA"
"-117.16","58.62","HIGH LEVEL A","3073141","2020-12-27 16:00","2020","12","27","16:00","-16.0","","-17.1","","91","","","","17","","5","","14.5","","97.49","","","","-20","","NA"
"-117.16","58.62","HIGH LEVEL A","3073141","2020-12-27 17:00","2020","12","27","17:00","-15.8","","-16.8","","92","","","","22","","3","","14.5","","97.43","","","","-18","","Cloudy"
"-117.16","58.62","HIGH LEVEL A","3073141","2020-12-27 18:00","2020","12","27","18:00","-15.3","","-16.3","","92","","","","36","","1","","14.5","","97.39","","","","-16","","NA"
"-117.16","58.62","HIGH LEVEL A","3073141","2020-12-27 19:00","2020","12","27","19:00","-15.2","","-16.2","","92","","","","16","","4","","16.1","","97.31","","","","-18","","NA"
"-117.16","58.62","HIGH LEVEL A","3073141","2020-12-27 20:00","2020","12","27","20:00","-15.1","","-16.1","","92","","","","18","","5","","14.5","","97.28","","","","-19","","Ice Crystals"
"-117.16","58.62","HIGH LEVEL A","3073141","2020-12-27 21:00","2020","12","27","21:00","-15.4","","-16.4","","92","","","","16","","6","","14.5","","97.21","","","","-20","","Snow"
"-117.16","58.62","HIGH LEVEL A","3073141","2020-12-27 22:00","2020","12","27","22:00","-15.9","","-17.0","","91","","","","16","","9","","12.9","","97.17","","","","-22","","NA"
"-117.16","58.62","HIGH LEVEL A","3073141","2020-12-27 23:00","2020","12","27","23:00"
"-117.16","58.62","HIGH LEVEL A","3073141","2020-12-28 00:00","2020","12","28","00:00"
"-117.16","58.62","HIGH LEVEL A","3073141","2020-12-28 01:00","2020","12","28","01:00"
"-117.16","58.62","HIGH LEVEL A","3073141","2020-12-28 02:00","2020","12","28","02:00"
"-117.16","58.62","HIGH LEVEL A","3073141","2020-12-28 03:00","2020","12","28","03:00"
"-117.16","58.62","HIGH LEVEL A","3073141","2020-12-28 04:00","2020","12","28","04:00"
"-117.16","58.62","HIGH LEVEL A","3073141","2020-12-28 05:00","2020","12","28","05:00"
"-117.16","58.62","HIGH LEVEL A","3073141","2020-12-28 06:00","2020","12","28","06:00"
"-117.16","58.62","HIGH LEVEL A","3073141","2020-12-28 07:00","2020","12","28","07:00","-23.5","","-25.5","","84","","","","36","","2","","16.1","","97.03","","","","-25","","NA"
"-117.16","58.62","HIGH LEVEL A","3073141","2020-12-28 08:00","2020","12","28","08:00","-23.3","","-25.2","","85","","","","36","","2","","24.1","","96.97","","","","-25","","Mostly Cloudy"
"-117.16","58.62","HIGH LEVEL A","3073141","2020-12-28 09:00","2020","12","28","09:00","-22.8","","-24.6","","86","","","","36","","3","","24.1","","96.93","","","","-26","","NA"
"-117.16","58.62","HIGH LEVEL A","3073141","2020-12-28 10:00","2020","12","28","10:00","-22.8","","-24.6","","86","","","","","","0","","24.1","","96.97","","","","","","NA"
"-117.16","58.62","HIGH LEVEL A","3073141","2020-12-28 11:00","2020","12","28","11:00","-23.5","","-25.4","","85","","","","36","","2","","24.1","","96.96","","","","-25","","Mainly Clear"
"-117.16","58.62","HIGH LEVEL A","3073141","2020-12-28 12:00","2020","12","28","12:00","-22.7","","-24.6","","85","","","","36","","1","","24.1","","96.96","","","","-24","","NA"
"-117.16","58.62","HIGH LEVEL A","3073141","2020-12-28 13:00","2020","12","28","13:00","-21.0","","-22.7","","86","","","","33","","3","","24.1","","96.96","","","","-24","","NA"
"-117.16","58.62","HIGH LEVEL A","3073141","2020-12-28 14:00","2020","12","28","14:00","-19.0","","-20.5","","88","","","","0","","1","","24.1","","96.97","","","","-20","","Clear"
"-117.16","58.62","HIGH LEVEL A","3073141","2020-12-28 15:00","2020","12","28","15:00","-18.1","","-19.6","","88","","","","18","","3","","24.1","","97.03","","","","-21","","NA"
"-117.16","58.62","HIGH LEVEL A","3073141","2020-12-28 16:00","2020","12","28","16:00","-19.6","","-21.4","","86","","","","0","","1","","24.1","","97.09","","","","-20","","NA"
"-117.16","58.62","HIGH LEVEL A","3073141","2020-12-28 17:00","2020","12","28","17:00","-21.1","","-22.6","","88","","","","0","","1","","24.1","","97.16","","","","-22","","Clear"
"-117.16","58.62","HIGH LEVEL A","3073141","2020-12-28 18:00","2020","12","28","18:00","-22.9","","-24.8","","85","","","","31","","3","","24.1","","97.19","","","","-26","","NA"
"-117.16","58.62","HIGH LEVEL A","3073141","2020-12-28 19:00","2020","12","28","19:00","-23.3","","-25.3","","84","","","","36","","5","","24.1","","97.22","","","","-28","","NA"
"-117.16","58.62","HIGH LEVEL A","3073141","2020-12-28 20:00","2020","12","28","20:00","-23.8","","-25.8","","84","","","","36","","2","","16.1","","97.27","","","","-26","","Clear"
"-117.16","58.62","HIGH LEVEL A","3073141","2020-12-28 21:00","2020","12","28","21:00","-24.3","","-26.1","","85","","","","36","","1","","24.1","","97.24","","","","-25","","NA"
"-117.16","58.62","HIGH LEVEL A","3073141","2020-12-28 22:00","2020","12","28","22:00","-24.7","","-26.5","","85","","","","","","0","","16.1","","97.28","","","","","","NA"
"-117.16","58.62","HIGH LEVEL A","3073141","2020-12-28 23:00","2020","12","28","23:00"
"-117.16","58.62","HIGH LEVEL A","3073141","2020-12-29 00:00","2020","12","29","00:00"
"-117.16","58.62","HIGH LEVEL A","3073141","2020-12-29 01:00","2020","12","29","01:00"
"-117.16","58.62","HIGH LEVEL A","3073141","2020-12-29 02:00","2020","12","29","02:00"
"-117.16","58.62","HIGH LEVEL A","3073141","2020-12-29 03:00","2020","12","29","03:00"
"-117.16","58.62","HIGH LEVEL A","3073141","2020-12-29 04:00","2020","12","29","04:00"
"-117.16","58.62","HIGH LEVEL A","3073141","2020-12-29 05:00","2020","12","29","05:00"
"-117.16","58.62","HIGH LEVEL A","3073141","2020-12-29 06:00","2020","12","29","06:00"
"-117.16","58.62","HIGH LEVEL A","3073141","2020-12-29 07:00","2020","12","29","07:00","-26.5","","-28.9","","81","","","","36","","1","","24.1","","97.26","","","","-28","","NA"
"-117.16","58.62","HIGH LEVEL A","3073141","2020-12-29 08:00","2020","12","29","08:00","-26.0","","-28.2","","82","","","","0","","1","","16.1","","97.21","","","","-27","","Cloudy"
"-117.16","58.62","HIGH LEVEL A","3073141","2020-12-29 09:00","2020","12","29","09:00","-26.8","","-29.0","","82","","","","14","","4","","16.1","","97.23","","","","-31","","NA"
"-117.16","58.62","HIGH LEVEL A","3073141","2020-12-29 10:00","2020","12","29","10:00","-25.9","","-28.1","","82","","","","36","","1","","16.1","","97.26","","","","-27","","NA"
"-117.16","58.62","HIGH LEVEL A","3073141","2020-12-29 11:00","2020","12","29","11:00","-25.6","","-27.8","","82","","","","5","","5","","16.1","","97.23","","","","-31","","Mostly Cloudy"
"-117.16","58.62","HIGH LEVEL A","3073141","2020-12-29 12:00","2020","12","29","12:00","-23.3","","-25.3","","84","","","","","","0","","16.1","","97.23","","","","","","NA"
"-117.16","58.62","HIGH LEVEL A","3073141","2020-12-29 13:00","2020","12","29","13:00","-22.6","","-24.5","","85","","","","36","","2","","24.1","","97.17","","","","-24","","NA"
"-117.16","58.62","HIGH LEVEL A","3073141","2020-12-29 14:00","2020","12","29","14:00","-20.5","","-22.1","","87","","","","36","","3","","24.1","","97.13","","","","-23","","Mostly Cloudy"
"-117.16","58.62","HIGH LEVEL A","3073141","2020-12-29 15:00","2020","12","29","15:00","-20.3","","-22.0","","87","","","","33","","3","","24.1","","97.13","","","","-23","","NA"
"-117.16","58.62","HIGH LEVEL A","3073141","2020-12-29 16:00","2020","12","29","16:00","-20.9","","-22.6","","87","","","","24","","3","","24.1","","97.12","","","","-24","","NA"
"-117.16","58.62","HIGH LEVEL A","3073141","2020-12-29 17:00","2020","12","29","17:00","-21.9","","-23.6","","86","","","","36","","1","","24.1","","97.07","","","","-23","","Mainly Clear"
"-117.16","58.62","HIGH LEVEL A","3073141","2020-12-29 18:00","2020","12","29","18:00","-22.0","","-23.6","","87","","","","36","","2","","24.1","","97.05","","","","-24","","NA"
"-117.16","58.62","HIGH LEVEL A","3073141","2020-12-29 19:00","2020","12","29","19:00","-20.9","","-22.5","","87","","","","","","0","","24.1","","97.03","","","","","","NA"
"-117.16","58.62","HIGH LEVEL A","3073141","2020-12-29 20:00","2020","12","29","20:00","-19.2","","-20.7","","88","","","","5","","3","","24.1","","97.00","","","","-22","","Mainly Clear"
"-117.16","58.62","HIGH LEVEL A","3073141","2020-12-29 21:00","2020","12","29","21:00","-17.6","","-18.7","","91","","","","36","","2","","16.1","","96.94","","","","-19","","NA"
"-117.16","58.62","HIGH LEVEL A","3073141","2020-12-29 22:00","2020","12","29","22:00","-16.3","","-17.4","","91","","","","36","","2","","16.1","","96.92","","","","-18","","NA"
"-117.16","58.62","HIGH LEVEL A","3073141","2020-12-29 23:00","2020","12","29","23:00"
"-117.16","58.62","HIGH LEVEL A","3073141","2020-12-30 00:00","2020","12","30","00:00"
"-117.16","58.62","HIGH LEVEL A","3073141","2020-12-30 01:00","2020","12","30","01:00"
"-117.16","58.62","HIGH LEVEL A","3073141","2020-12-30 02:00","2020","12","30","02:00"
"-117.16","58.62","HIGH LEVEL A","3073141","2020-12-30 03:00","2020","12","30","03:00"
"-117.16","58.62","HIGH LEVEL A","3073141","2020-12-30 04:00","2020","12","30","04:00"
"-117.16","58.62","HIGH LEVEL A","3073141","2020-12-30 05:00","2020","12","30","05:00"
"-117.16","58.62","HIGH LEVEL A","3073141","2020-12-30 06:00","2020","12","30","06:00"
"-117.16","58.62","HIGH LEVEL A","3073141","2020-12-30 07:00","2020","12","30","07:00","-17.4","","-18.5","","91","","","","20","","4","","24.1","","96.62","","","","-21","","NA"
"-117.16","58.62","HIGH LEVEL A","3073141","2020-12-30 08:00","2020","12","30","08:00","-15.4","","-16.4","","92","","","","36","","1","","24.1","","96.54","","","","-16","","Mostly Cloudy"
"-117.16","58.62","HIGH LEVEL A","3073141","2020-12-30 09:00","2020","12","30","09:00","-15.6","","-16.6","","92","","","","36","","3","","24.1","","96.57","","","","-18","","NA"
"-117.16","58.62","HIGH LEVEL A","3073141","2020-12-30 10:00","2020","12","30","10:00","-17.6","","-19.3","","87","","","","19","","4","","24.1","","96.52","","","","-21","","NA"
"-117.16","58.62","HIGH LEVEL A","3073141","2020-12-30 11:00","2020","12","30","11:00","-17.6","","-19.1","","88","","","","11","","4","","24.1","","96.51","","","","-21","","Mainly Clear"
"-117.16","58.62","HIGH LEVEL A","3073141","2020-12-30 12:00","2020","12","30","12:00","-16.0","","-17.0","","92","","","","15","","4","","24.1","","96.50","","","","-19","","NA"
"-117.16","58.62","HIGH LEVEL A","3073141","2020-12-30 13:00","2020","12","30","13:00","-15.1","","-16.1","","92","","","","18","","3","","24.1","","96.48","","","","-17","","NA"
"-117.16","58.62","HIGH LEVEL A","3073141","2020-12-30 14:00","2020","12","30","14:00","-15.5","","-16.7","","91","","","","27","","3","","24.1","","96.49","","","","-18","","Mainly Clear"
"-117.16","58.62","HIGH LEVEL A","3073141","2020-12-30 15:00","2020","12","30","15:00","-14.4","","-15.2","","94","","","","36","","1","","24.1","","96.49","","","","-15","","NA"
"-117.16","58.62","HIGH LEVEL A","3073141","2020-12-30 16:00","2020","12","30","16:00","-14.3","","-15.1","","94","","","","36","","2","","24.1","","96.52","","","","-16","","NA"
"-117.16","58.62","HIGH LEVEL A","3073141","2020-12-30 17:00","2020","12","30","17:00","-14.8","","-15.6","","94","","","","35","","12","","24.1","","96.55","","","","-22","","Mostly Cloudy"
"-117.16","58.62","HIGH LEVEL A","3073141","2020-12-30 18:00","2020","12","30","18:00","-15.5","","-16.6","","91","","","","13","","4","","24.1","","96.57","","","","-18","","NA"
"-117.16","58.62","HIGH LEVEL A","3073141","2020-12-30 19:00","2020","12","30","19:00","-10.3","","-10.8","","96","","","","33","","12","","16.1","","96.57","","","","-16","","NA"
"-117.16","58.62","HIGH LEVEL A","3073141","2020-12-30 20:00","2020","12","30","20:00","-9.7","","-10.1","","97","","","","2","","9","","16.1","","96.63","","","","-15","","Cloudy"
"-117.16","58.62","HIGH LEVEL A","3073141","2020-12-30 21:00","2020","12","30","21:00","-9.8","","-10.2","","97","","","","34","","15","","16.1","","96.69","","","","-16","","NA"
"-117.16","58.62","HIGH LEVEL A","3073141","2020-12-30 22:00","2020","12","30","22:00","-10.1","","-10.6","","96","","","","34","","12","","16.1","","96.73","","","","-16","","NA"
"-117.16","58.62","HIGH LEVEL A","3073141","2020-12-30 23:00","2020","12","30","23:00"
"-117.16","58.62","HIGH LEVEL A","3073141","2020-12-31 00:00","2020","12","31","00:00"
"-117.16","58.62","HIGH LEVEL A","3073141","2020-12-31 01:00","2020","12","31","01:00"
"-117.16","58.62","HIGH LEVEL A","3073141","2020-12-31 02:00","2020","12","31","02:00"
"-117.16","58.62","HIGH LEVEL A","3073141","2020-12-31 03:00","2020","12","31","03:00"
"-117.16","58.62","HIGH LEVEL A","3073141","2020-12-31 04:00","2020","12","31","04:00"
"-117.16","58.62","HIGH LEVEL A","3073141","2020-12-31 05:00","2020","12","31","05:00"
"-117.16","58.62","HIGH LEVEL A","3073141","2020-12-31 06:00","2020","12","31","06:00"
"-117.16","58.62","HIGH LEVEL A","3073141","2020-12-31 07:00","2020","12","31","07:00","-11.6","","-12.2","","95","","","","1","","13","","24.1","","97.10","","","","-18","","Snow"
"-117.16","58.62","HIGH LEVEL A","3073141","2020-12-31 08:00","2020","12","31","08:00","-11.6","","-12.2","","95","","","","1","","9","","16.1","","97.13","","","","-17","","Snow"
"-117.16","58.62","HIGH LEVEL A","3073141","2020-12-31 09:00","2020","12","31","09:00","-12.7","","-13.6","","93","","","","32","","4","","24.1","","97.16","","","","-15","","Snow"
"-117.16","58.62","HIGH LEVEL A","3073141","2020-12-31 10:00","2020","12","31","10:00","-14.0","","-14.8","","94","","","","36","","2","","19.3","","97.18","","","","-15","","NA"
"-117.16","58.62","HIGH LEVEL A","3073141","2020-12-31 11:00","2020","12","31","11:00","-12.9","","-13.6","","95","","","","36","","1","","24.1","","97.16","","","","-14","","Cloudy"
"-117.16","58.62","HIGH LEVEL A","3073141","2020-12-31 12:00","2020","12","31","12:00","-11.8","","-12.3","","96","","","","16","","5","","16.1","","97.15","","","","-15","","NA"
"-117.16","58.62","HIGH LEVEL A","3073141","2020-12-31 13:00","2020","12","31","13:00","-11.4","","-12.0","","95","","","","13","","7","","16.1","","97.10","","","","-16","","NA"
"-117.16","58.62","HIGH LEVEL A","3073141","2020-12-31 14:00","2020","12","31","14:00","-11.1","","-11.6","","96","","","","14","","9","","16.1","","97.09","","","","-16","","Cloudy"
"-117.16","58.62","HIGH LEVEL A","3073141","2020-12-31 15:00","2020","12","31","15:00","-11.1","","-11.6","","96","","","","13","","12","","16.1","","97.00","","","","-17","","Snow"
"-117.16","58.62","HIGH LEVEL A","3073141","2020-12-31 16:00","2020","12","31","16:00","-10.9","","-11.4","","96","","","","13","","12","","16.1","","96.94","","","","-17","","Snow"
"-117.16","58.62","HIGH LEVEL A","3073141","2020-12-31 17:00","2020","12","31","17:00","-10.9","","-11.4","","96","","","","13","","12","","16.1","","96.89","","","","-17","","Snow"
"-117.16","58.62","HIGH LEVEL A","3073141","2020-12-31 18:00","2020","12","31","18:00","-11.1","","-11.6","","96","","","","12","","15","","16.1","","96.84","","","","-18","","Snow"
"-117.16","58.62","HIGH LEVEL A","3073141","2020-12-31 19:00","2020","12","31","19:00","-10.8","","-11.3","","96","","","","13","","11","","4.8","","96.78","","","","-17","","Snow"
"-117.16","58.62","HIGH LEVEL A","3073141","2020-12-31 20:00","2020","12","31","20:00","-10.5","","-11.0","","96","","","","11","","13","","2.8","","96.75","","","","-17","","Snow"
"-117.16","58.62","HIGH LEVEL A","3073141","2020-12-31 21:00","2020","12","31","21:00","-10.3","","-10.8","","96","","","","12","","9","","1.2","","96.75","","","","-15","","Snow"
"-117.16","58.62","HIGH LEVEL A","3073141","2020-12-31 22:00","2020","12","31","22:00","-10.3","","-10.8","","96","","","","17","","3","","2.0","","96.71","","","","-12","","Snow"
"-117.16","58.62","HIGH LEVEL A","3073141","2020-12-31 23:00","2020","12","31","23:00"
