"Longitude (x)","Latitude (y)","Station Name","Climate ID","Date/Time (LST)","Year","Month","Day","Time (LST)","Temp (°C)","Temp Flag","Dew Point Temp (°C)","Dew Point Temp Flag","Rel Hum (%)","Rel Hum Flag","Precip. Amount (mm)","Precip. Amount Flag","Wind Dir (10s deg)","Wind Dir Flag","Wind Spd (km/h)","Wind Spd Flag","Visibility (km)","Visibility Flag","Stn Press (kPa)","Stn Press Flag","Hmdx","Hmdx Flag","Wind Chill","Wind Chill Flag","Weather"
"-105.27","55.15","LA RONGE A","4064155","2022-09-01 00:00","2022","09","01","00:00","16.7","","13.9","","83","","","","","","0","","24.1","","96.21","","","","","","Mainly Clear"
"-105.27","55.15","LA RONGE A","4064155","2022-09-01 01:00","2022","09","01","01:00","15.3","","13.3","","88","","","","20","","4","","24.1","","96.17","","","","","","NA"
"-105.27","55.15","LA RONGE A","4064155","2022-09-01 02:00","2022","09","01","02:00","16.9","","15.7","","93","","","","9","","11","","24.1","","96.09","","","","","","Thunderstorms,Rain Showers"
"-105.27","55.15","LA RONGE A","4064155","2022-09-01 03:00","2022","09","01","03:00","18.0","","16.3","","90","","","","7","","4","","24.1","","96.00","","","","","","Mostly Cloudy"
"-105.27","55.15","LA RONGE A","4064155","2022-09-01 04:00","2022","09","01","04:00","18.7","","16.2","","85","","","","17","","9","","24.1","","95.95","","","","","","NA"
"-105.27","55.15","LA RONGE A","4064155","2022-09-01 05:00","2022","09","01","05:00","17.7","","15.3","","86","","","","24","","3","","24.1","","95.85","","","","","","NA"
"-105.27","55.15","LA RONGE A","4064155","2022-09-01 06:00","2022","09","01","06:00","16.7","","15.4","","92","","","","20","","5","","24.1","","95.74","","","","","","Mostly Cloudy"
"-105.27","55.15","LA RONGE A","4064155","2022-09-01 07:00","2022","09","01","07:00","18.2","","15.7","","85","","","","20","","10","","24.1","","95.70","","","","","","NA"
"-105.27","55.15","LA RONGE A","4064155","2022-09-01 08:00","2022","09","01","08:00","18.1","","15.2","","83","","","","17","","8","","24.1","","95.66","","","","","","Rain"
"-105.27","55.15","LA RONGE A","4064155","2022-09-01 09:00","2022","09","01","09:00","20.1","","15.2","","73","","","","22","","14","","24.1","","95.57","","","","","","Mostly Cloudy"
"-105.27","55.15","LA RONGE A","4064155","2022-09-01 10:00","2022","09","01","10:00","24.0","","15.7","","59","","","","23","","22","","24.1","","95.53","","28","","","","NA"
"-105.27","55.15","LA RONGE A","4064155","2022-09-01 11:00","2022","09","01","11:00","25.6","","14.3","","49","","","","25","","28","","24.1","","95.49","","29","","","","NA"
"-105.27","55.15","LA RONGE A","4064155","2022-09-01 12:00","2022","09","01","12:00","25.2","","13.0","","46","","","","27","","23","","24.1","","95.47","","28","","","","Mostly Cloudy"
"-105.27","55.15","LA RONGE A","4064155","2022-09-01 13:00","2022","09","01","13:00","25.3","","7.4","","32","","","","26","","32","","24.1","","95.49","","25","","","","NA"
"-105.27","55.15","LA RONGE A","4064155","2022-09-01 14:00","2022","09","01","14:00","23.6","","7.6","","35","","","","29","","48","","24.1","","95.58","","","","","","NA"
"-105.27","55.15","LA RONGE A","4064155","2022-09-01 15:00","2022","09","01","15:00","21.0","","8.0","","43","","","","29","","40","","24.1","","95.74","","","","","","Mostly Cloudy"
"-105.27","55.15","LA RONGE A","4064155","2022-09-01 16:00","2022","09","01","16:00","18.7","","7.7","","48","","","","29","","46","","24.1","","95.82","","","","","","NA"
"-105.27","55.15","LA RONGE A","4064155","2022-09-01 17:00","2022","09","01","17:00","17.6","","7.5","","51","","","","29","","40","","24.1","","95.92","","","","","","NA"
"-105.27","55.15","LA RONGE A","4064155","2022-09-01 18:00","2022","09","01","18:00","16.4","","7.9","","57","","","","30","","41","","24.1","","96.03","","","","","","Mostly Cloudy"
"-105.27","55.15","LA RONGE A","4064155","2022-09-01 19:00","2022","09","01","19:00","15.8","","8.0","","59","","","","30","","23","","24.1","","96.15","","","","","","NA"
"-105.27","55.15","LA RONGE A","4064155","2022-09-01 20:00","2022","09","01","20:00","14.9","","8.0","","63","","","","30","","27","","24.1","","96.25","","","","","","NA"
"-105.27","55.15","LA RONGE A","4064155","2022-09-01 21:00","2022","09","01","21:00","14.3","","8.4","","67","","","","31","","35","","24.1","","96.36","","","","","","Mainly Clear"
"-105.27","55.15","LA RONGE A","4064155","2022-09-01 22:00","2022","09","01","22:00","14.4","","9.0","","70","","","","30","","31","","24.1","","96.42","","","","","","NA"
"-105.27","55.15","LA RONGE A","4064155","2022-09-01 23:00","2022","09","01","23:00","14.0","","9.7","","75","","","","30","","21","","24.1","","96.46","","","","","","NA"
"-105.27","55.15","LA RONGE A","4064155","2022-09-02 00:00","2022","09","02","00:00","13.9","","9.1","","73","","","","31","","22","","24.1","","96.50","","","","","","Mainly Clear"
"-105.27","55.15","LA RONGE A","4064155","2022-09-02 01:00","2022","09","02","01:00","14.0","","9.2","","73","","","","30","","22","","24.1","","96.55","","","","","","NA"
"-105.27","55.15","LA RONGE A","4064155","2022-09-02 02:00","2022","09","02","02:00","13.2","","9.2","","77","","","","31","","16","","24.1","","96.61","","","","","","NA"
"-105.27","55.15","LA RONGE A","4064155","2022-09-02 03:00","2022","09","02","03:00","12.5","","9.2","","80","","","","29","","13","","24.1","","96.67","","","","","","Mainly Clear"
"-105.27","55.15","LA RONGE A","4064155","2022-09-02 04:00","2022","09","02","04:00","12.2","","9.4","","83","","","","27","","16","","24.1","","96.81","","","","","","NA"
"-105.27","55.15","LA RONGE A","4064155","2022-09-02 05:00","2022","09","02","05:00","10.9","","8.9","","87","","","","28","","17","","24.1","","96.87","","","","","","NA"
"-105.27","55.15","LA RONGE A","4064155","2022-09-02 06:00","2022","09","02","06:00","10.7","","9.2","","90","","","","26","","11","","24.1","","96.95","","","","","","Mainly Clear"
"-105.27","55.15","LA RONGE A","4064155","2022-09-02 07:00","2022","09","02","07:00","11.1","","9.5","","89","","","","28","","14","","24.1","","97.03","","","","","","NA"
"-105.27","55.15","LA RONGE A","4064155","2022-09-02 08:00","2022","09","02","08:00","12.2","","10.0","","87","","","","28","","11","","24.1","","97.11","","","","","","NA"
"-105.27","55.15","LA RONGE A","4064155","2022-09-02 09:00","2022","09","02","09:00","14.8","","10.4","","75","","","","28","","17","","24.1","","97.18","","","","","","Mainly Clear"
"-105.27","55.15","LA RONGE A","4064155","2022-09-02 10:00","2022","09","02","10:00","15.8","","9.8","","67","","","","28","","18","","24.1","","97.22","","","","","","NA"
"-105.27","55.15","LA RONGE A","4064155","2022-09-02 11:00","2022","09","02","11:00","17.7","","9.9","","60","","","","31","","17","","24.1","","97.23","","","","","","NA"
"-105.27","55.15","LA RONGE A","4064155","2022-09-02 12:00","2022","09","02","12:00","19.1","","10.3","","56","","","","28","","12","","24.1","","97.22","","","","","","Mostly Cloudy"
"-105.27","55.15","LA RONGE A","4064155","2022-09-02 13:00","2022","09","02","13:00","19.9","","8.8","","48","","","","19","","14","","24.1","","97.20","","","","","","NA"
"-105.27","55.15","LA RONGE A","4064155","2022-09-02 14:00","2022","09","02","14:00","20.8","","8.9","","46","","","","26","","7","","24.1","","97.19","","","","","","NA"
"-105.27","55.15","LA RONGE A","4064155","2022-09-02 15:00","2022","09","02","15:00","20.4","","10.7","","53","","","","13","","14","","24.1","","97.16","","","","","","Mainly Clear"
"-105.27","55.15","LA RONGE A","4064155","2022-09-02 16:00","2022","09","02","16:00","20.9","","9.2","","47","","","","14","","17","","24.1","","97.15","","","","","","NA"
"-105.27","55.15","LA RONGE A","4064155","2022-09-02 17:00","2022","09","02","17:00","21.2","","9.1","","46","","","","14","","15","","24.1","","97.12","","","","","","NA"
"-105.27","55.15","LA RONGE A","4064155","2022-09-02 18:00","2022","09","02","18:00","20.6","","10.0","","50","","","","12","","15","","24.1","","97.11","","","","","","Mainly Clear"
"-105.27","55.15","LA RONGE A","4064155","2022-09-02 19:00","2022","09","02","19:00","19.5","","10.6","","56","","","","13","","13","","24.1","","97.10","","","","","","NA"
"-105.27","55.15","LA RONGE A","4064155","2022-09-02 20:00","2022","09","02","20:00","18.2","","10.5","","61","","","","17","","14","","24.1","","97.09","","","","","","NA"
"-105.27","55.15","LA RONGE A","4064155","2022-09-02 21:00","2022","09","02","21:00","17.2","","9.2","","59","","","","17","","13","","24.1","","97.12","","","","","","Mainly Clear"
"-105.27","55.15","LA RONGE A","4064155","2022-09-02 22:00","2022","09","02","22:00","16.8","","9.5","","62","","","","17","","14","","24.1","","97.14","","","","","","NA"
"-105.27","55.15","LA RONGE A","4064155","2022-09-02 23:00","2022","09","02","23:00","16.1","","10.4","","69","","","","17","","12","","24.1","","97.14","","","","","","NA"
"-105.27","55.15","LA RONGE A","4064155","2022-09-03 00:00","2022","09","03","00:00","15.8","","9.5","","66","","","","17","","13","","24.1","","97.13","","","","","","Mainly Clear"
"-105.27","55.15","LA RONGE A","4064155","2022-09-03 01:00","2022","09","03","01:00","16.1","","9.3","","64","","","","16","","15","","24.1","","97.10","","","","","","NA"
"-105.27","55.15","LA RONGE A","4064155","2022-09-03 02:00","2022","09","03","02:00","15.5","","8.5","","63","","","","18","","13","","24.1","","97.09","","","","","","NA"
"-105.27","55.15","LA RONGE A","4064155","2022-09-03 03:00","2022","09","03","03:00","14.4","","8.5","","67","","","","18","","12","","24.1","","97.08","","","","","","Mainly Clear"
"-105.27","55.15","LA RONGE A","4064155","2022-09-03 04:00","2022","09","03","04:00","13.9","","8.8","","71","","","","18","","8","","24.1","","97.06","","","","","","NA"
"-105.27","55.15","LA RONGE A","4064155","2022-09-03 05:00","2022","09","03","05:00","12.4","","8.6","","77","","","","17","","7","","24.1","","97.05","","","","","","NA"
"-105.27","55.15","LA RONGE A","4064155","2022-09-03 06:00","2022","09","03","06:00","13.5","","9.9","","79","","","","18","","9","","24.1","","97.04","","","","","","Mainly Clear"
"-105.27","55.15","LA RONGE A","4064155","2022-09-03 07:00","2022","09","03","07:00","14.1","","10.0","","76","","","","18","","10","","24.1","","97.06","","","","","","NA"
"-105.27","55.15","LA RONGE A","4064155","2022-09-03 08:00","2022","09","03","08:00","16.2","","11.0","","71","","","","17","","13","","24.1","","97.05","","","","","","NA"
"-105.27","55.15","LA RONGE A","4064155","2022-09-03 09:00","2022","09","03","09:00","18.0","","11.3","","64","","","","16","","12","","24.1","","97.01","","","","","","Mainly Clear"
"-105.27","55.15","LA RONGE A","4064155","2022-09-03 10:00","2022","09","03","10:00","19.7","","12.1","","61","","","","14","","9","","24.1","","96.98","","","","","","NA"
"-105.27","55.15","LA RONGE A","4064155","2022-09-03 11:00","2022","09","03","11:00","23.6","","13.1","","51","","","","12","","8","","24.1","","96.95","","26","","","","NA"
"-105.27","55.15","LA RONGE A","4064155","2022-09-03 12:00","2022","09","03","12:00","26.6","","13.2","","43","","","","15","","15","","24.1","","96.89","","30","","","","Mainly Clear"
"-105.27","55.15","LA RONGE A","4064155","2022-09-03 13:00","2022","09","03","13:00","28.8","","11.4","","34","","","","16","","17","","24.1","","96.85","","31","","","","NA"
"-105.27","55.15","LA RONGE A","4064155","2022-09-03 14:00","2022","09","03","14:00","31.9","","10.0","","25","","","","18","","17","","24.1","","96.81","","33","","","","NA"
"-105.27","55.15","LA RONGE A","4064155","2022-09-03 15:00","2022","09","03","15:00","31.6","","9.4","","25","","","","19","","16","","24.1","","96.77","","33","","","","Mainly Clear"
"-105.27","55.15","LA RONGE A","4064155","2022-09-03 16:00","2022","09","03","16:00","30.1","","11.3","","31","","","","17","","14","","24.1","","96.74","","32","","","","NA"
"-105.27","55.15","LA RONGE A","4064155","2022-09-03 17:00","2022","09","03","17:00","29.9","","12.0","","33","","","","18","","18","","24.1","","96.71","","32","","","","NA"
"-105.27","55.15","LA RONGE A","4064155","2022-09-03 18:00","2022","09","03","18:00","27.6","","14.8","","45","","","","17","","13","","24.1","","96.68","","31","","","","Mainly Clear"
"-105.27","55.15","LA RONGE A","4064155","2022-09-03 19:00","2022","09","03","19:00","25.4","","13.9","","48","","","","17","","12","","24.1","","96.64","","29","","","","NA"
"-105.27","55.15","LA RONGE A","4064155","2022-09-03 20:00","2022","09","03","20:00","23.0","","13.9","","56","","","","17","","13","","24.1","","96.62","","26","","","","NA"
"-105.27","55.15","LA RONGE A","4064155","2022-09-03 21:00","2022","09","03","21:00","22.6","","13.5","","56","","","","17","","13","","24.1","","96.62","","26","","","","Mainly Clear"
"-105.27","55.15","LA RONGE A","4064155","2022-09-03 22:00","2022","09","03","22:00","21.8","","12.5","","55","","","","20","","3","","24.1","","96.63","","","","","","NA"
"-105.27","55.15","LA RONGE A","4064155","2022-09-03 23:00","2022","09","03","23:00","16.1","","12.2","","78","","","","36","","2","","24.1","","96.64","","","","","","NA"
"-105.27","55.15","LA RONGE A","4064155","2022-09-04 00:00","2022","09","04","00:00","16.2","","12.4","","78","","","","17","","6","","24.1","","96.61","","","","","","Mostly Cloudy"
"-105.27","55.15","LA RONGE A","4064155","2022-09-04 01:00","2022","09","04","01:00","19.8","","12.3","","61","","","","17","","7","","24.1","","96.58","","","","","","NA"
"-105.27","55.15","LA RONGE A","4064155","2022-09-04 02:00","2022","09","04","02:00","19.1","","12.4","","65","","","","17","","4","","24.1","","96.56","","","","","","NA"
"-105.27","55.15","LA RONGE A","4064155","2022-09-04 03:00","2022","09","04","03:00","17.2","","12.4","","73","","","","16","","4","","24.1","","96.53","","","","","","Mostly Cloudy"
"-105.27","55.15","LA RONGE A","4064155","2022-09-04 04:00","2022","09","04","04:00","17.4","","12.4","","72","","","","12","","5","","24.1","","96.50","","","","","","NA"
"-105.27","55.15","LA RONGE A","4064155","2022-09-04 05:00","2022","09","04","05:00","16.7","","12.1","","74","","","","15","","7","","24.1","","96.48","","","","","","NA"
"-105.27","55.15","LA RONGE A","4064155","2022-09-04 06:00","2022","09","04","06:00","16.9","","12.2","","74","","","","16","","8","","24.1","","96.45","","","","","","Mainly Clear"
"-105.27","55.15","LA RONGE A","4064155","2022-09-04 07:00","2022","09","04","07:00","16.3","","12.0","","75","","","","13","","3","","24.1","","96.44","","","","","","NA"
"-105.27","55.15","LA RONGE A","4064155","2022-09-04 08:00","2022","09","04","08:00","17.8","","13.3","","74","","","","9","","7","","19.3","","96.42","","","","","","NA"
"-105.27","55.15","LA RONGE A","4064155","2022-09-04 09:00","2022","09","04","09:00","20.6","","13.3","","63","","","","15","","12","","19.3","","96.37","","","","","","Clear"
"-105.27","55.15","LA RONGE A","4064155","2022-09-04 10:00","2022","09","04","10:00","22.5","","13.0","","54","","","","15","","11","","24.1","","96.34","","25","","","","NA"
"-105.27","55.15","LA RONGE A","4064155","2022-09-04 11:00","2022","09","04","11:00","24.0","","12.4","","48","","","","13","","18","","24.1","","96.30","","26","","","","NA"
"-105.27","55.15","LA RONGE A","4064155","2022-09-04 12:00","2022","09","04","12:00","26.2","","13.5","","45","","","","15","","16","","24.1","","96.24","","29","","","","Mainly Clear"
"-105.27","55.15","LA RONGE A","4064155","2022-09-04 13:00","2022","09","04","13:00","29.0","","14.6","","41","","","","12","","12","","24.1","","96.18","","33","","","","NA"
"-105.27","55.15","LA RONGE A","4064155","2022-09-04 14:00","2022","09","04","14:00","29.1","","17.1","","48","","","","5","","13","","24.1","","96.11","","34","","","","NA"
"-105.27","55.15","LA RONGE A","4064155","2022-09-04 15:00","2022","09","04","15:00","32.7","","15.0","","34","","","","13","","13","","24.1","","96.03","","37","","","","Clear"
"-105.27","55.15","LA RONGE A","4064155","2022-09-04 16:00","2022","09","04","16:00","31.8","","15.0","","36","","","","14","","15","","24.1","","95.98","","36","","","","NA"
"-105.27","55.15","LA RONGE A","4064155","2022-09-04 17:00","2022","09","04","17:00","31.2","","16.2","","40","","","","16","","13","","24.1","","95.95","","36","","","","NA"
"-105.27","55.15","LA RONGE A","4064155","2022-09-04 18:00","2022","09","04","18:00","29.7","","16.1","","43","","","","16","","14","","24.1","","95.93","","34","","","","Clear"
"-105.27","55.15","LA RONGE A","4064155","2022-09-04 19:00","2022","09","04","19:00","28.2","","16.0","","47","","","","21","","8","","24.1","","95.94","","33","","","","NA"
"-105.27","55.15","LA RONGE A","4064155","2022-09-04 20:00","2022","09","04","20:00","24.6","","16.1","","59","","","","16","","5","","24.1","","95.93","","29","","","","NA"
"-105.27","55.15","LA RONGE A","4064155","2022-09-04 21:00","2022","09","04","21:00","24.0","","15.3","","58","","","","17","","13","","24.1","","95.92","","28","","","","Mainly Clear"
"-105.27","55.15","LA RONGE A","4064155","2022-09-04 22:00","2022","09","04","22:00","22.3","","15.2","","64","","","","16","","9","","24.1","","95.92","","26","","","","NA"
"-105.27","55.15","LA RONGE A","4064155","2022-09-04 23:00","2022","09","04","23:00","21.9","","15.6","","67","","","","16","","6","","24.1","","95.90","","26","","","","NA"
"-105.27","55.15","LA RONGE A","4064155","2022-09-05 00:00","2022","09","05","00:00","20.8","","15.6","","72","","","","18","","5","","24.1","","95.86","","25","","","","Clear"
"-105.27","55.15","LA RONGE A","4064155","2022-09-05 01:00","2022","09","05","01:00","19.6","","14.3","","71","","","","18","","5","","24.1","","95.84","","","","","","NA"
"-105.27","55.15","LA RONGE A","4064155","2022-09-05 02:00","2022","09","05","02:00","16.8","","13.5","","81","","","","20","","7","","24.1","","95.87","","","","","","NA"
"-105.27","55.15","LA RONGE A","4064155","2022-09-05 03:00","2022","09","05","03:00","18.2","","13.7","","74","","","","17","","7","","24.1","","95.85","","","","","","Clear"
"-105.27","55.15","LA RONGE A","4064155","2022-09-05 04:00","2022","09","05","04:00","17.9","","13.9","","77","","","","21","","9","","24.1","","95.89","","","","","","NA"
"-105.27","55.15","LA RONGE A","4064155","2022-09-05 05:00","2022","09","05","05:00","18.0","","14.0","","77","","","","19","","8","","24.1","","95.88","","","","","","NA"
"-105.27","55.15","LA RONGE A","4064155","2022-09-05 06:00","2022","09","05","06:00","16.6","","13.8","","83","","","","20","","5","","19.3","","95.90","","","","","","Mainly Clear"
"-105.27","55.15","LA RONGE A","4064155","2022-09-05 07:00","2022","09","05","07:00","16.7","","14.3","","86","","","","25","","7","","16.1","","95.92","","","","","","NA"
"-105.27","55.15","LA RONGE A","4064155","2022-09-05 08:00","2022","09","05","08:00","17.8","","15.2","","85","","","","20","","3","","16.1","","95.94","","","","","","NA"
"-105.27","55.15","LA RONGE A","4064155","2022-09-05 09:00","2022","09","05","09:00","18.9","","16.1","","83","","","","29","","9","","12.9","","95.91","","","","","","Mainly Clear"
"-105.27","55.15","LA RONGE A","4064155","2022-09-05 10:00","2022","09","05","10:00","21.9","","17.0","","73","","","","1","","9","","12.9","","95.89","","27","","","","NA"
"-105.27","55.15","LA RONGE A","4064155","2022-09-05 11:00","2022","09","05","11:00","23.6","","17.2","","67","","","","1","","9","","12.9","","95.88","","29","","","","NA"
"-105.27","55.15","LA RONGE A","4064155","2022-09-05 12:00","2022","09","05","12:00","25.0","","17.4","","62","","","","3","","9","","12.9","","95.82","","31","","","","Mainly Clear"
"-105.27","55.15","LA RONGE A","4064155","2022-09-05 13:00","2022","09","05","13:00","25.7","","16.6","","56","","","","32","","9","","12.9","","95.81","","31","","","","NA"
"-105.27","55.15","LA RONGE A","4064155","2022-09-05 14:00","2022","09","05","14:00","26.1","","14.5","","48","","","","32","","23","","12.9","","95.81","","30","","","","NA"
"-105.27","55.15","LA RONGE A","4064155","2022-09-05 15:00","2022","09","05","15:00","25.0","","12.1","","44","","","","35","","17","","16.1","","95.81","","27","","","","Mostly Cloudy"
"-105.27","55.15","LA RONGE A","4064155","2022-09-05 16:00","2022","09","05","16:00","24.9","","11.8","","43","","","","34","","21","","19.3","","95.86","","27","","","","NA"
"-105.27","55.15","LA RONGE A","4064155","2022-09-05 17:00","2022","09","05","17:00","23.6","","10.1","","42","","","","32","","21","","12.9","","95.98","","25","","","","NA"
"-105.27","55.15","LA RONGE A","4064155","2022-09-05 18:00","2022","09","05","18:00","20.5","","11.2","","55","","","","30","","30","","12.9","","96.05","","","","","","Cloudy"
"-105.27","55.15","LA RONGE A","4064155","2022-09-05 19:00","2022","09","05","19:00","19.5","","10.4","","55","","","","29","","28","","19.3","","96.15","","","","","","NA"
"-105.27","55.15","LA RONGE A","4064155","2022-09-05 20:00","2022","09","05","20:00","15.5","","11.3","","76","","","","28","","27","","12.9","","96.29","","","","","","Thunderstorms,Rain Showers"
"-105.27","55.15","LA RONGE A","4064155","2022-09-05 21:00","2022","09","05","21:00","13.7","","11.1","","84","","","","29","","18","","12.9","","96.32","","","","","","Mostly Cloudy"
"-105.27","55.15","LA RONGE A","4064155","2022-09-05 22:00","2022","09","05","22:00","13.5","","11.4","","87","","","","28","","17","","16.1","","96.34","","","","","","NA"
"-105.27","55.15","LA RONGE A","4064155","2022-09-05 23:00","2022","09","05","23:00","13.1","","10.9","","87","","","","26","","10","","16.1","","96.37","","","","","","NA"
"-105.27","55.15","LA RONGE A","4064155","2022-09-06 00:00","2022","09","06","00:00","13.2","","10.5","","83","","","","26","","15","","16.1","","96.38","","","","","","Mainly Clear"
"-105.27","55.15","LA RONGE A","4064155","2022-09-06 01:00","2022","09","06","01:00","13.4","","10.3","","82","","","","27","","19","","24.1","","96.40","","","","","","NA"
"-105.27","55.15","LA RONGE A","4064155","2022-09-06 02:00","2022","09","06","02:00","13.4","","9.1","","75","","","","27","","22","","16.1","","96.46","","","","","","NA"
"-105.27","55.15","LA RONGE A","4064155","2022-09-06 03:00","2022","09","06","03:00","13.2","","7.9","","70","","","","27","","21","","24.1","","96.52","","","","","","Clear"
"-105.27","55.15","LA RONGE A","4064155","2022-09-06 04:00","2022","09","06","04:00","12.9","","7.0","","68","","","","26","","19","","24.1","","96.57","","","","","","NA"
"-105.27","55.15","LA RONGE A","4064155","2022-09-06 05:00","2022","09","06","05:00","12.5","","6.1","","65","","","","26","","17","","24.1","","96.63","","","","","","NA"
"-105.27","55.15","LA RONGE A","4064155","2022-09-06 06:00","2022","09","06","06:00","11.7","","6.3","","69","","","","26","","16","","24.1","","96.70","","","","","","Mainly Clear"
"-105.27","55.15","LA RONGE A","4064155","2022-09-06 07:00","2022","09","06","07:00","12.0","","5.7","","65","","","","26","","20","","24.1","","96.77","","","","","","NA"
"-105.27","55.15","LA RONGE A","4064155","2022-09-06 08:00","2022","09","06","08:00","13.2","","5.9","","61","","","","28","","26","","24.1","","96.82","","","","","","NA"
"-105.27","55.15","LA RONGE A","4064155","2022-09-06 09:00","2022","09","06","09:00","14.6","","5.7","","55","","","","28","","32","","24.1","","96.87","","","","","","Mainly Clear"
"-105.27","55.15","LA RONGE A","4064155","2022-09-06 10:00","2022","09","06","10:00","16.0","","6.5","","53","","","","28","","34","","24.1","","96.93","","","","","","NA"
"-105.27","55.15","LA RONGE A","4064155","2022-09-06 11:00","2022","09","06","11:00","17.0","","7.1","","52","","","","28","","28","","24.1","","97.01","","","","","","NA"
"-105.27","55.15","LA RONGE A","4064155","2022-09-06 12:00","2022","09","06","12:00","16.4","","6.2","","51","","","","28","","34","","24.1","","97.07","","","","","","Mainly Clear"
"-105.27","55.15","LA RONGE A","4064155","2022-09-06 13:00","2022","09","06","13:00","19.0","","7.3","","46","","","","28","","28","","24.1","","97.08","","","","","","NA"
"-105.27","55.15","LA RONGE A","4064155","2022-09-06 14:00","2022","09","06","14:00","20.2","","6.6","","41","","","","27","","29","","24.1","","97.10","","","","","","NA"
"-105.27","55.15","LA RONGE A","4064155","2022-09-06 15:00","2022","09","06","15:00","20.9","","5.0","","35","","","","29","","27","","24.1","","97.11","","","","","","Mainly Clear"
"-105.27","55.15","LA RONGE A","4064155","2022-09-06 16:00","2022","09","06","16:00","20.1","","5.0","","37","","","","26","","27","","24.1","","97.12","","","","","","NA"
"-105.27","55.15","LA RONGE A","4064155","2022-09-06 17:00","2022","09","06","17:00","21.0","","5.1","","35","","","","27","","24","","24.1","","97.14","","","","","","NA"
"-105.27","55.15","LA RONGE A","4064155","2022-09-06 18:00","2022","09","06","18:00","20.7","","4.5","","34","","","","26","","19","","24.1","","97.17","","","","","","Mainly Clear"
"-105.27","55.15","LA RONGE A","4064155","2022-09-06 19:00","2022","09","06","19:00","19.2","","5.0","","39","","","","26","","12","","24.1","","97.18","","","","","","NA"
"-105.27","55.15","LA RONGE A","4064155","2022-09-06 20:00","2022","09","06","20:00","16.9","","5.8","","47","","","","25","","9","","24.1","","97.20","","","","","","NA"
"-105.27","55.15","LA RONGE A","4064155","2022-09-06 21:00","2022","09","06","21:00","15.8","","6.8","","55","","","","21","","9","","24.1","","97.23","","","","","","Mainly Clear"
"-105.27","55.15","LA RONGE A","4064155","2022-09-06 22:00","2022","09","06","22:00","15.2","","7.2","","59","","","","22","","11","","24.1","","97.24","","","","","","NA"
"-105.27","55.15","LA RONGE A","4064155","2022-09-06 23:00","2022","09","06","23:00","14.9","","7.7","","62","","","","23","","12","","24.1","","97.22","","","","","","NA"
"-105.27","55.15","LA RONGE A","4064155","2022-09-07 00:00","2022","09","07","00:00","14.2","","8.0","","66","","","","24","","9","","24.1","","97.24","","","","","","Mostly Cloudy"
"-105.27","55.15","LA RONGE A","4064155","2022-09-07 01:00","2022","09","07","01:00","13.6","","7.7","","67","","","","23","","10","","24.1","","97.24","","","","","","NA"
"-105.27","55.15","LA RONGE A","4064155","2022-09-07 02:00","2022","09","07","02:00","13.1","","7.8","","70","","","","22","","9","","24.1","","97.23","","","","","","NA"
"-105.27","55.15","LA RONGE A","4064155","2022-09-07 03:00","2022","09","07","03:00","12.5","","8.1","","75","","","","22","","10","","24.1","","97.21","","","","","","Mainly Clear"
"-105.27","55.15","LA RONGE A","4064155","2022-09-07 04:00","2022","09","07","04:00","11.3","","7.8","","79","","","","22","","10","","24.1","","97.20","","","","","","NA"
"-105.27","55.15","LA RONGE A","4064155","2022-09-07 05:00","2022","09","07","05:00","11.1","","7.5","","79","","","","23","","13","","24.1","","97.18","","","","","","NA"
"-105.27","55.15","LA RONGE A","4064155","2022-09-07 06:00","2022","09","07","06:00","10.8","","7.3","","79","","","","23","","12","","24.1","","97.14","","","","","","Mainly Clear"
"-105.27","55.15","LA RONGE A","4064155","2022-09-07 07:00","2022","09","07","07:00","7.9","","5.6","","86","","","","22","","5","","24.1","","97.13","","","","","","NA"
"-105.27","55.15","LA RONGE A","4064155","2022-09-07 08:00","2022","09","07","08:00","12.5","","5.5","","62","","","","21","","8","","24.1","","97.06","","","","","","NA"
"-105.27","55.15","LA RONGE A","4064155","2022-09-07 09:00","2022","09","07","09:00","14.9","","5.9","","55","","","","17","","5","","24.1","","96.97","","","","","","Mainly Clear"
"-105.27","55.15","LA RONGE A","4064155","2022-09-07 10:00","2022","09","07","10:00","17.6","","9.3","","58","","","","15","","8","","24.1","","96.84","","","","","","NA"
"-105.27","55.15","LA RONGE A","4064155","2022-09-07 11:00","2022","09","07","11:00","18.9","","9.1","","53","","","","14","","11","","24.1","","96.76","","","","","","NA"
"-105.27","55.15","LA RONGE A","4064155","2022-09-07 12:00","2022","09","07","12:00","20.1","","6.6","","41","","","","12","","9","","24.1","","96.62","","","","","","Mostly Cloudy"
"-105.27","55.15","LA RONGE A","4064155","2022-09-07 13:00","2022","09","07","13:00","20.9","","9.8","","49","","","","5","","18","","24.1","","96.47","","","","","","NA"
"-105.27","55.15","LA RONGE A","4064155","2022-09-07 14:00","2022","09","07","14:00","19.9","","9.6","","51","","","","5","","19","","24.1","","96.32","","","","","","NA"
"-105.27","55.15","LA RONGE A","4064155","2022-09-07 15:00","2022","09","07","15:00","20.8","","11.0","","53","","","","5","","19","","24.1","","96.13","","","","","","Mostly Cloudy"
"-105.27","55.15","LA RONGE A","4064155","2022-09-07 16:00","2022","09","07","16:00","20.8","","10.8","","53","","","","5","","14","","24.1","","96.05","","","","","","NA"
"-105.27","55.15","LA RONGE A","4064155","2022-09-07 17:00","2022","09","07","17:00","21.0","","7.9","","42","","","","7","","16","","24.1","","95.94","","","","","","NA"
"-105.27","55.15","LA RONGE A","4064155","2022-09-07 18:00","2022","09","07","18:00","19.9","","9.4","","50","","","","5","","16","","24.1","","95.88","","","","","","Mostly Cloudy"
"-105.27","55.15","LA RONGE A","4064155","2022-09-07 19:00","2022","09","07","19:00","19.5","","8.6","","49","","","","2","","13","","24.1","","95.85","","","","","","NA"
"-105.27","55.15","LA RONGE A","4064155","2022-09-07 20:00","2022","09","07","20:00","16.5","","10.1","","66","","","","34","","17","","12.9","","95.94","","","","","","Rain Showers"
"-105.27","55.15","LA RONGE A","4064155","2022-09-07 21:00","2022","09","07","21:00","14.6","","9.1","","69","","","","1","","25","","24.1","","95.94","","","","","","Mostly Cloudy"
"-105.27","55.15","LA RONGE A","4064155","2022-09-07 22:00","2022","09","07","22:00","15.0","","9.4","","69","","","","3","","17","","24.1","","95.94","","","","","","NA"
"-105.27","55.15","LA RONGE A","4064155","2022-09-07 23:00","2022","09","07","23:00","14.1","","9.3","","73","","","","30","","15","","24.1","","96.03","","","","","","NA"
"-105.27","55.15","LA RONGE A","4064155","2022-09-08 00:00","2022","09","08","00:00","13.0","","10.3","","84","","","","33","","13","","24.1","","96.07","","","","","","Mostly Cloudy"
"-105.27","55.15","LA RONGE A","4064155","2022-09-08 01:00","2022","09","08","01:00","12.3","","10.4","","88","","","","30","","8","","24.1","","96.10","","","","","","NA"
"-105.27","55.15","LA RONGE A","4064155","2022-09-08 02:00","2022","09","08","02:00","12.0","","10.3","","90","","","","30","","11","","24.1","","96.14","","","","","","NA"
"-105.27","55.15","LA RONGE A","4064155","2022-09-08 03:00","2022","09","08","03:00","11.3","","10.0","","92","","","","30","","11","","24.1","","96.15","","","","","","Mostly Cloudy"
"-105.27","55.15","LA RONGE A","4064155","2022-09-08 04:00","2022","09","08","04:00","11.5","","10.1","","91","","","","30","","12","","24.1","","96.21","","","","","","NA"
"-105.27","55.15","LA RONGE A","4064155","2022-09-08 05:00","2022","09","08","05:00","11.4","","9.7","","89","","","","30","","13","","24.1","","96.24","","","","","","NA"
"-105.27","55.15","LA RONGE A","4064155","2022-09-08 06:00","2022","09","08","06:00","11.5","","9.7","","88","","","","30","","12","","24.1","","96.28","","","","","","Mostly Cloudy"
"-105.27","55.15","LA RONGE A","4064155","2022-09-08 07:00","2022","09","08","07:00","11.4","","9.8","","90","","","","30","","12","","24.1","","96.33","","","","","","Rain Showers"
"-105.27","55.15","LA RONGE A","4064155","2022-09-08 08:00","2022","09","08","08:00","12.7","","9.7","","82","","","","30","","16","","24.1","","96.39","","","","","","NA"
"-105.27","55.15","LA RONGE A","4064155","2022-09-08 09:00","2022","09","08","09:00","12.0","","6.3","","68","","","","30","","25","","24.1","","96.41","","","","","","Mostly Cloudy"
"-105.27","55.15","LA RONGE A","4064155","2022-09-08 10:00","2022","09","08","10:00","12.7","","5.2","","60","","","","30","","37","","24.1","","96.45","","","","","","NA"
"-105.27","55.15","LA RONGE A","4064155","2022-09-08 11:00","2022","09","08","11:00","11.5","","5.7","","68","","","","29","","34","","24.1","","96.53","","","","","","NA"
"-105.27","55.15","LA RONGE A","4064155","2022-09-08 12:00","2022","09","08","12:00","11.1","","5.0","","66","","","","30","","29","","24.1","","96.58","","","","","","Mostly Cloudy"
"-105.27","55.15","LA RONGE A","4064155","2022-09-08 13:00","2022","09","08","13:00","11.3","","4.1","","61","","","","30","","30","","24.1","","96.58","","","","","","NA"
"-105.27","55.15","LA RONGE A","4064155","2022-09-08 14:00","2022","09","08","14:00","11.3","","5.3","","66","","","","29","","23","","24.1","","96.58","","","","","","NA"
"-105.27","55.15","LA RONGE A","4064155","2022-09-08 15:00","2022","09","08","15:00","12.0","","4.5","","60","","","","30","","23","","24.1","","96.57","","","","","","Mostly Cloudy"
"-105.27","55.15","LA RONGE A","4064155","2022-09-08 16:00","2022","09","08","16:00","13.7","","3.5","","50","","","","30","","26","","24.1","","96.55","","","","","","NA"
"-105.27","55.15","LA RONGE A","4064155","2022-09-08 17:00","2022","09","08","17:00","14.1","","1.8","","43","","","","30","","36","","24.1","","96.52","","","","","","NA"
"-105.27","55.15","LA RONGE A","4064155","2022-09-08 18:00","2022","09","08","18:00","14.0","","2.7","","46","","","","29","","30","","24.1","","96.54","","","","","","Mainly Clear"
"-105.27","55.15","LA RONGE A","4064155","2022-09-08 19:00","2022","09","08","19:00","13.0","","2.7","","49","","","","29","","26","","24.1","","96.52","","","","","","NA"
"-105.27","55.15","LA RONGE A","4064155","2022-09-08 20:00","2022","09","08","20:00","11.6","","3.7","","58","","","","26","","13","","24.1","","96.55","","","","","","NA"
"-105.27","55.15","LA RONGE A","4064155","2022-09-08 21:00","2022","09","08","21:00","10.6","","3.9","","63","","","","27","","13","","24.1","","96.56","","","","","","Mainly Clear"
"-105.27","55.15","LA RONGE A","4064155","2022-09-08 22:00","2022","09","08","22:00","11.2","","4.4","","63","","","","26","","12","","24.1","","96.55","","","","","","NA"
"-105.27","55.15","LA RONGE A","4064155","2022-09-08 23:00","2022","09","08","23:00","10.3","","5.1","","70","","","","27","","17","","24.1","","96.56","","","","","","NA"
"-105.27","55.15","LA RONGE A","4064155","2022-09-09 00:00","2022","09","09","00:00","9.7","","5.5","","75","","","","26","","14","","24.1","","96.59","","","","","","Mainly Clear"
"-105.27","55.15","LA RONGE A","4064155","2022-09-09 01:00","2022","09","09","01:00","9.6","","4.5","","70","","","","27","","11","","24.1","","96.63","","","","","","NA"
"-105.27","55.15","LA RONGE A","4064155","2022-09-09 02:00","2022","09","09","02:00","7.9","","4.7","","80","","","","28","","11","","24.1","","96.64","","","","","","NA"
"-105.27","55.15","LA RONGE A","4064155","2022-09-09 03:00","2022","09","09","03:00","8.4","","4.5","","76","","","","27","","10","","24.1","","96.66","","","","","","Mainly Clear"
"-105.27","55.15","LA RONGE A","4064155","2022-09-09 04:00","2022","09","09","04:00","7.7","","3.8","","76","","","","26","","14","","24.1","","96.66","","","","","","NA"
"-105.27","55.15","LA RONGE A","4064155","2022-09-09 05:00","2022","09","09","05:00","7.7","","4.3","","79","","","","27","","20","","24.1","","96.67","","","","","","NA"
"-105.27","55.15","LA RONGE A","4064155","2022-09-09 06:00","2022","09","09","06:00","7.9","","4.0","","76","","","","27","","17","","24.1","","96.67","","","","","","Mostly Cloudy"
"-105.27","55.15","LA RONGE A","4064155","2022-09-09 07:00","2022","09","09","07:00","7.4","","5.1","","85","","","","27","","18","","24.1","","96.72","","","","","","Rain"
"-105.27","55.15","LA RONGE A","4064155","2022-09-09 08:00","2022","09","09","08:00","7.8","","5.4","","84","","","","28","","15","","24.1","","96.75","","","","","","Rain"
"-105.27","55.15","LA RONGE A","4064155","2022-09-09 09:00","2022","09","09","09:00","8.4","","5.0","","79","","","","30","","25","","24.1","","96.80","","","","","","Rain"
"-105.27","55.15","LA RONGE A","4064155","2022-09-09 10:00","2022","09","09","10:00","8.6","","4.4","","75","","","","30","","28","","24.1","","96.84","","","","","","Rain"
"-105.27","55.15","LA RONGE A","4064155","2022-09-09 11:00","2022","09","09","11:00","9.4","","3.5","","67","","","","31","","22","","24.1","","96.87","","","","","","NA"
"-105.27","55.15","LA RONGE A","4064155","2022-09-09 12:00","2022","09","09","12:00","9.8","","3.8","","66","","","","30","","21","","24.1","","96.91","","","","","","Mostly Cloudy"
"-105.27","55.15","LA RONGE A","4064155","2022-09-09 13:00","2022","09","09","13:00","10.7","","4.0","","63","","","","29","","21","","24.1","","96.91","","","","","","NA"
"-105.27","55.15","LA RONGE A","4064155","2022-09-09 14:00","2022","09","09","14:00","11.0","","4.2","","63","","","","30","","23","","24.1","","96.91","","","","","","NA"
"-105.27","55.15","LA RONGE A","4064155","2022-09-09 15:00","2022","09","09","15:00","10.6","","4.3","","65","","","","28","","22","","24.1","","96.94","","","","","","Cloudy"
"-105.27","55.15","LA RONGE A","4064155","2022-09-09 16:00","2022","09","09","16:00","10.6","","4.4","","65","","","","28","","24","","24.1","","96.94","","","","","","NA"
"-105.27","55.15","LA RONGE A","4064155","2022-09-09 17:00","2022","09","09","17:00","10.3","","4.2","","66","","","","28","","22","","24.1","","96.94","","","","","","NA"
"-105.27","55.15","LA RONGE A","4064155","2022-09-09 18:00","2022","09","09","18:00","10.9","","3.7","","61","","","","29","","25","","24.1","","96.94","","","","","","Cloudy"
"-105.27","55.15","LA RONGE A","4064155","2022-09-09 19:00","2022","09","09","19:00","10.5","","3.9","","64","","","","28","","23","","24.1","","96.95","","","","","","NA"
"-105.27","55.15","LA RONGE A","4064155","2022-09-09 20:00","2022","09","09","20:00","9.6","","4.3","","69","","","","26","","12","","24.1","","96.97","","","","","","NA"
"-105.27","55.15","LA RONGE A","4064155","2022-09-09 21:00","2022","09","09","21:00","8.5","","4.5","","75","","","","25","","9","","24.1","","96.96","","","","","","Mostly Cloudy"
"-105.27","55.15","LA RONGE A","4064155","2022-09-09 22:00","2022","09","09","22:00","8.2","","4.7","","79","","","","22","","8","","24.1","","96.92","","","","","","NA"
"-105.27","55.15","LA RONGE A","4064155","2022-09-09 23:00","2022","09","09","23:00","7.3","","4.9","","84","","","","24","","7","","24.1","","96.91","","","","","","NA"
"-105.27","55.15","LA RONGE A","4064155","2022-09-10 00:00","2022","09","10","00:00","8.4","","4.4","","76","","","","26","","14","","24.1","","96.91","","","","","","Mainly Clear"
"-105.27","55.15","LA RONGE A","4064155","2022-09-10 01:00","2022","09","10","01:00","7.2","","4.2","","81","","","","26","","10","","24.1","","96.93","","","","","","NA"
"-105.27","55.15","LA RONGE A","4064155","2022-09-10 02:00","2022","09","10","02:00","6.5","","4.1","","84","","","","26","","9","","24.1","","96.96","","","","","","NA"
"-105.27","55.15","LA RONGE A","4064155","2022-09-10 03:00","2022","09","10","03:00","4.6","","3.4","","92","","","","24","","8","","24.1","","96.97","","","","","","Clear"
"-105.27","55.15","LA RONGE A","4064155","2022-09-10 04:00","2022","09","10","04:00","4.4","","2.9","","90","","","","23","","5","","24.1","","96.98","","","","","","NA"
"-105.27","55.15","LA RONGE A","4064155","2022-09-10 05:00","2022","09","10","05:00","5.5","","4.8","","95","","","","23","","10","","24.1","","96.98","","","","","","NA"
"-105.27","55.15","LA RONGE A","4064155","2022-09-10 06:00","2022","09","10","06:00","5.5","","4.8","","95","","","","22","","8","","24.1","","96.99","","","","","","Mainly Clear"
"-105.27","55.15","LA RONGE A","4064155","2022-09-10 07:00","2022","09","10","07:00","6.2","","5.2","","94","","","","23","","8","","24.1","","97.00","","","","","","NA"
"-105.27","55.15","LA RONGE A","4064155","2022-09-10 08:00","2022","09","10","08:00","8.3","","6.4","","88","","","","23","","11","","24.1","","96.98","","","","","","NA"
"-105.27","55.15","LA RONGE A","4064155","2022-09-10 09:00","2022","09","10","09:00","11.1","","7.4","","78","","","","24","","14","","24.1","","96.97","","","","","","Mainly Clear"
"-105.27","55.15","LA RONGE A","4064155","2022-09-10 10:00","2022","09","10","10:00","13.7","","6.9","","63","","","","26","","16","","24.1","","96.96","","","","","","NA"
"-105.27","55.15","LA RONGE A","4064155","2022-09-10 11:00","2022","09","10","11:00","15.7","","6.9","","56","","","","23","","16","","24.1","","96.94","","","","","","NA"
"-105.27","55.15","LA RONGE A","4064155","2022-09-10 12:00","2022","09","10","12:00","18.1","","5.1","","42","","","","24","","21","","24.1","","96.89","","","","","","Mainly Clear"
"-105.27","55.15","LA RONGE A","4064155","2022-09-10 13:00","2022","09","10","13:00","19.3","","3.5","","35","","","","24","","23","","24.1","","96.84","","","","","","NA"
"-105.27","55.15","LA RONGE A","4064155","2022-09-10 14:00","2022","09","10","14:00","20.3","","4.2","","34","","","","23","","20","","24.1","","96.79","","","","","","NA"
"-105.27","55.15","LA RONGE A","4064155","2022-09-10 15:00","2022","09","10","15:00","20.6","","3.3","","32","","","","24","","23","","24.1","","96.73","","","","","","Mostly Cloudy"
"-105.27","55.15","LA RONGE A","4064155","2022-09-10 16:00","2022","09","10","16:00","21.0","","3.4","","31","","","","21","","21","","24.1","","96.64","","","","","","NA"
"-105.27","55.15","LA RONGE A","4064155","2022-09-10 17:00","2022","09","10","17:00","21.2","","3.5","","31","","","","21","","24","","24.1","","96.59","","","","","","NA"
"-105.27","55.15","LA RONGE A","4064155","2022-09-10 18:00","2022","09","10","18:00","20.7","","4.5","","34","","","","21","","19","","24.1","","96.56","","","","","","Mainly Clear"
"-105.27","55.15","LA RONGE A","4064155","2022-09-10 19:00","2022","09","10","19:00","19.0","","5.3","","40","","","","20","","11","","24.1","","96.51","","","","","","NA"
"-105.27","55.15","LA RONGE A","4064155","2022-09-10 20:00","2022","09","10","20:00","17.0","","5.5","","46","","","","19","","10","","24.1","","96.50","","","","","","NA"
"-105.27","55.15","LA RONGE A","4064155","2022-09-10 21:00","2022","09","10","21:00","15.6","","5.8","","52","","","","19","","7","","24.1","","96.49","","","","","","Clear"
"-105.27","55.15","LA RONGE A","4064155","2022-09-10 22:00","2022","09","10","22:00","14.0","","5.7","","57","","","","20","","9","","24.1","","96.46","","","","","","NA"
"-105.27","55.15","LA RONGE A","4064155","2022-09-10 23:00","2022","09","10","23:00","13.2","","6.2","","62","","","","20","","9","","24.1","","96.44","","","","","","NA"
"-105.27","55.15","LA RONGE A","4064155","2022-09-11 00:00","2022","09","11","00:00","12.7","","6.4","","65","","","","21","","8","","24.1","","96.45","","","","","","Clear"
"-105.27","55.15","LA RONGE A","4064155","2022-09-11 01:00","2022","09","11","01:00","12.3","","6.8","","69","","","","24","","11","","24.1","","96.46","","","","","","NA"
"-105.27","55.15","LA RONGE A","4064155","2022-09-11 02:00","2022","09","11","02:00","11.2","","7.5","","78","","","","25","","10","","24.1","","96.48","","","","","","NA"
"-105.27","55.15","LA RONGE A","4064155","2022-09-11 03:00","2022","09","11","03:00","11.2","","7.7","","79","","","","25","","11","","24.1","","96.51","","","","","","Mainly Clear"
"-105.27","55.15","LA RONGE A","4064155","2022-09-11 04:00","2022","09","11","04:00","11.0","","8.0","","82","","","","26","","9","","24.1","","96.56","","","","","","NA"
"-105.27","55.15","LA RONGE A","4064155","2022-09-11 05:00","2022","09","11","05:00","10.1","","7.8","","86","","","","26","","9","","24.1","","96.63","","","","","","NA"
"-105.27","55.15","LA RONGE A","4064155","2022-09-11 06:00","2022","09","11","06:00","10.0","","7.8","","86","","","","25","","13","","24.1","","96.66","","","","","","Mostly Cloudy"
"-105.27","55.15","LA RONGE A","4064155","2022-09-11 07:00","2022","09","11","07:00","9.8","","8.0","","88","","","","25","","14","","24.1","","96.71","","","","","","NA"
"-105.27","55.15","LA RONGE A","4064155","2022-09-11 08:00","2022","09","11","08:00","11.3","","8.8","","85","","","","25","","14","","24.1","","96.73","","","","","","NA"
"-105.27","55.15","LA RONGE A","4064155","2022-09-11 09:00","2022","09","11","09:00","14.4","","9.3","","71","","","","27","","12","","24.1","","96.75","","","","","","Mainly Clear"
"-105.27","55.15","LA RONGE A","4064155","2022-09-11 10:00","2022","09","11","10:00","16.8","","9.0","","60","","","","26","","12","","24.1","","96.78","","","","","","NA"
"-105.27","55.15","LA RONGE A","4064155","2022-09-11 11:00","2022","09","11","11:00","19.2","","9.8","","54","","","","24","","8","","24.1","","96.79","","","","","","NA"
"-105.27","55.15","LA RONGE A","4064155","2022-09-11 12:00","2022","09","11","12:00","20.6","","6.6","","40","","","","26","","13","","24.1","","96.79","","","","","","Cloudy"
"-105.27","55.15","LA RONGE A","4064155","2022-09-11 13:00","2022","09","11","13:00","21.8","","6.5","","37","","","","29","","13","","24.1","","96.77","","","","","","NA"
"-105.27","55.15","LA RONGE A","4064155","2022-09-11 14:00","2022","09","11","14:00","22.6","","4.8","","31","","","","26","","12","","24.1","","96.76","","","","","","NA"
"-105.27","55.15","LA RONGE A","4064155","2022-09-11 15:00","2022","09","11","15:00","23.0","","5.8","","33","","","","28","","13","","24.1","","96.73","","","","","","Cloudy"
"-105.27","55.15","LA RONGE A","4064155","2022-09-11 16:00","2022","09","11","16:00","22.3","","8.6","","41","","","","3","","7","","24.1","","96.72","","","","","","NA"
"-105.27","55.15","LA RONGE A","4064155","2022-09-11 17:00","2022","09","11","17:00","21.4","","5.4","","35","","","","31","","12","","24.1","","96.71","","","","","","NA"
"-105.27","55.15","LA RONGE A","4064155","2022-09-11 18:00","2022","09","11","18:00","20.0","","6.2","","40","","","","35","","7","","24.1","","96.69","","","","","","Cloudy"
"-105.27","55.15","LA RONGE A","4064155","2022-09-11 19:00","2022","09","11","19:00","18.5","","6.9","","47","","","","34","","3","","24.1","","96.68","","","","","","NA"
"-105.27","55.15","LA RONGE A","4064155","2022-09-11 20:00","2022","09","11","20:00","13.1","","7.4","","68","","","","36","","2","","24.1","","96.69","","","","","","NA"
"-105.27","55.15","LA RONGE A","4064155","2022-09-11 21:00","2022","09","11","21:00","11.5","","8.2","","80","","","","25","","5","","24.1","","96.75","","","","","","Mostly Cloudy"
"-105.27","55.15","LA RONGE A","4064155","2022-09-11 22:00","2022","09","11","22:00","13.3","","7.6","","68","","","","29","","7","","24.1","","96.78","","","","","","NA"
"-105.27","55.15","LA RONGE A","4064155","2022-09-11 23:00","2022","09","11","23:00","14.2","","4.7","","52","","","","34","","10","","24.1","","96.81","","","","","","NA"
"-105.27","55.15","LA RONGE A","4064155","2022-09-12 00:00","2022","09","12","00:00","11.4","","5.1","","65","","","","8","","6","","24.1","","96.78","","","","","","Mainly Clear"
"-105.27","55.15","LA RONGE A","4064155","2022-09-12 01:00","2022","09","12","01:00","11.6","","4.8","","63","","","","1","","7","","24.1","","96.84","","","","","","NA"
"-105.27","55.15","LA RONGE A","4064155","2022-09-12 02:00","2022","09","12","02:00","13.3","","4.6","","55","","","","1","","12","","24.1","","96.88","","","","","","NA"
"-105.27","55.15","LA RONGE A","4064155","2022-09-12 03:00","2022","09","12","03:00","13.2","","4.1","","54","","","","3","","12","","24.1","","96.97","","","","","","Mostly Cloudy"
"-105.27","55.15","LA RONGE A","4064155","2022-09-12 04:00","2022","09","12","04:00","12.3","","3.0","","53","","","","36","","10","","24.1","","97.10","","","","","","NA"
"-105.27","55.15","LA RONGE A","4064155","2022-09-12 05:00","2022","09","12","05:00","10.9","","3.7","","61","","","","35","","10","","24.1","","97.14","","","","","","NA"
"-105.27","55.15","LA RONGE A","4064155","2022-09-12 06:00","2022","09","12","06:00","9.3","","3.5","","67","","","","34","","7","","24.1","","97.20","","","","","","Mostly Cloudy"
"-105.27","55.15","LA RONGE A","4064155","2022-09-12 07:00","2022","09","12","07:00","9.1","","3.0","","65","","","","34","","10","","24.1","","97.29","","","","","","NA"
"-105.27","55.15","LA RONGE A","4064155","2022-09-12 08:00","2022","09","12","08:00","10.8","","4.2","","63","","","","31","","5","","24.1","","97.33","","","","","","NA"
"-105.27","55.15","LA RONGE A","4064155","2022-09-12 09:00","2022","09","12","09:00","13.0","","3.3","","52","","","","34","","13","","24.1","","97.37","","","","","","Mainly Clear"
"-105.27","55.15","LA RONGE A","4064155","2022-09-12 10:00","2022","09","12","10:00","13.9","","2.8","","47","","","","36","","24","","24.1","","97.41","","","","","","NA"
"-105.27","55.15","LA RONGE A","4064155","2022-09-12 11:00","2022","09","12","11:00","14.7","","3.7","","47","","","","35","","16","","24.1","","97.45","","","","","","NA"
"-105.27","55.15","LA RONGE A","4064155","2022-09-12 12:00","2022","09","12","12:00","16.2","","4.1","","44","","","","35","","11","","24.1","","97.45","","","","","","Mainly Clear"
"-105.27","55.15","LA RONGE A","4064155","2022-09-12 13:00","2022","09","12","13:00","17.0","","4.6","","43","","","","32","","19","","24.1","","97.43","","","","","","NA"
"-105.27","55.15","LA RONGE A","4064155","2022-09-12 14:00","2022","09","12","14:00","16.2","","3.4","","42","","","","32","","22","","24.1","","97.43","","","","","","NA"
"-105.27","55.15","LA RONGE A","4064155","2022-09-12 15:00","2022","09","12","15:00","17.3","","2.0","","36","","","","31","","24","","24.1","","97.41","","","","","","Mostly Cloudy"
"-105.27","55.15","LA RONGE A","4064155","2022-09-12 16:00","2022","09","12","16:00","16.1","","2.8","","40","","","","29","","23","","24.1","","97.40","","","","","","NA"
"-105.27","55.15","LA RONGE A","4064155","2022-09-12 17:00","2022","09","12","17:00","16.9","","1.9","","36","","","","33","","21","","24.1","","97.39","","","","","","NA"
"-105.27","55.15","LA RONGE A","4064155","2022-09-12 18:00","2022","09","12","18:00","15.4","","1.8","","39","","","","30","","17","","24.1","","97.39","","","","","","Mainly Clear"
"-105.27","55.15","LA RONGE A","4064155","2022-09-12 19:00","2022","09","12","19:00","13.3","","2.6","","48","","","","30","","8","","24.1","","97.38","","","","","","NA"
"-105.27","55.15","LA RONGE A","4064155","2022-09-12 20:00","2022","09","12","20:00","9.3","","2.1","","61","","","","33","","7","","24.1","","97.40","","","","","","NA"
"-105.27","55.15","LA RONGE A","4064155","2022-09-12 21:00","2022","09","12","21:00","7.1","","3.1","","76","","","","36","","1","","24.1","","97.42","","","","","","Mainly Clear"
"-105.27","55.15","LA RONGE A","4064155","2022-09-12 22:00","2022","09","12","22:00","5.5","","2.9","","83","","","","36","","1","","24.1","","97.43","","","","","","NA"
"-105.27","55.15","LA RONGE A","4064155","2022-09-12 23:00","2022","09","12","23:00","6.7","","3.0","","77","","","","5","","4","","24.1","","97.45","","","","","","NA"
"-105.27","55.15","LA RONGE A","4064155","2022-09-13 00:00","2022","09","13","00:00","3.4","","2.2","","92","","","","36","","3","","24.1","","97.46","","","","","","Mainly Clear"
"-105.27","55.15","LA RONGE A","4064155","2022-09-13 01:00","2022","09","13","01:00","4.7","","3.3","","91","","","","5","","4","","24.1","","97.44","","","","","","NA"
"-105.27","55.15","LA RONGE A","4064155","2022-09-13 02:00","2022","09","13","02:00","6.6","","2.6","","76","","","","7","","4","","24.1","","97.44","","","","","","NA"
"-105.27","55.15","LA RONGE A","4064155","2022-09-13 03:00","2022","09","13","03:00","3.5","","1.3","","85","","","","0","","1","","24.1","","97.43","","","","","","Mainly Clear"
"-105.27","55.15","LA RONGE A","4064155","2022-09-13 04:00","2022","09","13","04:00","3.4","","2.5","","94","","","","36","","1","","24.1","","97.44","","","","","","NA"
"-105.27","55.15","LA RONGE A","4064155","2022-09-13 05:00","2022","09","13","05:00","2.3","","0.6","","89","","","","36","","2","","24.1","","97.44","","","","","","NA"
"-105.27","55.15","LA RONGE A","4064155","2022-09-13 06:00","2022","09","13","06:00","3.4","","0.9","","84","","","","12","","4","","24.1","","97.44","","","","","","Mainly Clear"
"-105.27","55.15","LA RONGE A","4064155","2022-09-13 07:00","2022","09","13","07:00","2.5","","0.8","","89","","","","36","","1","","24.1","","97.43","","","","","","NA"
"-105.27","55.15","LA RONGE A","4064155","2022-09-13 08:00","2022","09","13","08:00","6.9","","5.5","","91","","","","36","","3","","24.1","","97.45","","","","","","NA"
"-105.27","55.15","LA RONGE A","4064155","2022-09-13 09:00","2022","09","13","09:00","9.8","","6.9","","82","","","","36","","1","","24.1","","97.46","","","","","","Mainly Clear"
"-105.27","55.15","LA RONGE A","4064155","2022-09-13 10:00","2022","09","13","10:00","13.2","","6.3","","63","","","","16","","6","","24.1","","97.46","","","","","","NA"
"-105.27","55.15","LA RONGE A","4064155","2022-09-13 11:00","2022","09","13","11:00","13.8","","5.5","","57","","","","16","","9","","24.1","","97.42","","","","","","NA"
"-105.27","55.15","LA RONGE A","4064155","2022-09-13 12:00","2022","09","13","12:00","15.1","","5.1","","51","","","","14","","10","","24.1","","97.39","","","","","","Mainly Clear"
"-105.27","55.15","LA RONGE A","4064155","2022-09-13 13:00","2022","09","13","13:00","16.3","","3.1","","41","","","","36","","2","","24.1","","97.36","","","","","","NA"
"-105.27","55.15","LA RONGE A","4064155","2022-09-13 14:00","2022","09","13","14:00","18.0","","4.9","","42","","","","7","","8","","24.1","","97.29","","","","","","NA"
"-105.27","55.15","LA RONGE A","4064155","2022-09-13 15:00","2022","09","13","15:00","17.8","","6.4","","47","","","","5","","15","","24.1","","97.24","","","","","","Mainly Clear"
"-105.27","55.15","LA RONGE A","4064155","2022-09-13 16:00","2022","09","13","16:00","17.9","","4.3","","40","","","","18","","10","","24.1","","97.21","","","","","","NA"
"-105.27","55.15","LA RONGE A","4064155","2022-09-13 17:00","2022","09","13","17:00","17.5","","4.3","","41","","","","18","","9","","24.1","","97.17","","","","","","NA"
"-105.27","55.15","LA RONGE A","4064155","2022-09-13 18:00","2022","09","13","18:00","17.1","","6.0","","48","","","","17","","9","","24.1","","97.18","","","","","","Mostly Cloudy"
"-105.27","55.15","LA RONGE A","4064155","2022-09-13 19:00","2022","09","13","19:00","15.3","","7.3","","59","","","","17","","5","","24.1","","97.20","","","","","","NA"
"-105.27","55.15","LA RONGE A","4064155","2022-09-13 20:00","2022","09","13","20:00","13.4","","6.3","","62","","","","15","","7","","24.1","","97.18","","","","","","NA"
"-105.27","55.15","LA RONGE A","4064155","2022-09-13 21:00","2022","09","13","21:00","12.0","","6.4","","68","","","","16","","5","","24.1","","97.19","","","","","","Mainly Clear"
"-105.27","55.15","LA RONGE A","4064155","2022-09-13 22:00","2022","09","13","22:00","13.4","","6.5","","63","","","","18","","8","","24.1","","97.20","","","","","","NA"
"-105.27","55.15","LA RONGE A","4064155","2022-09-13 23:00","2022","09","13","23:00","12.3","","6.7","","69","","","","16","","12","","24.1","","97.19","","","","","","NA"
"-105.27","55.15","LA RONGE A","4064155","2022-09-14 00:00","2022","09","14","00:00","12.6","","6.7","","67","","","","17","","13","","24.1","","97.17","","","","","","Mostly Cloudy"
"-105.27","55.15","LA RONGE A","4064155","2022-09-14 01:00","2022","09","14","01:00","13.3","","6.5","","63","","","","17","","14","","24.1","","97.19","","","","","","NA"
"-105.27","55.15","LA RONGE A","4064155","2022-09-14 02:00","2022","09","14","02:00","12.3","","6.0","","65","","","","18","","14","","24.1","","97.18","","","","","","NA"
"-105.27","55.15","LA RONGE A","4064155","2022-09-14 03:00","2022","09","14","03:00","12.1","","6.0","","66","","","","17","","13","","24.1","","97.14","","","","","","Mostly Cloudy"
"-105.27","55.15","LA RONGE A","4064155","2022-09-14 04:00","2022","09","14","04:00","13.2","","6.1","","62","","","","16","","16","","24.1","","97.13","","","","","","NA"
"-105.27","55.15","LA RONGE A","4064155","2022-09-14 05:00","2022","09","14","05:00","12.8","","5.2","","60","","","","17","","21","","24.1","","97.12","","","","","","NA"
"-105.27","55.15","LA RONGE A","4064155","2022-09-14 06:00","2022","09","14","06:00","10.8","","8.4","","85","","","","14","","7","","16.1","","97.13","","","","","","Rain Showers"
"-105.27","55.15","LA RONGE A","4064155","2022-09-14 07:00","2022","09","14","07:00","10.7","","8.9","","89","","","","16","","4","","24.1","","97.14","","","","","","NA"
"-105.27","55.15","LA RONGE A","4064155","2022-09-14 08:00","2022","09","14","08:00","11.2","","8.2","","81","","","","16","","10","","24.1","","97.12","","","","","","Rain Showers"
"-105.27","55.15","LA RONGE A","4064155","2022-09-14 09:00","2022","09","14","09:00","11.6","","7.7","","76","","","","17","","13","","24.1","","97.12","","","","","","Rain Showers"
"-105.27","55.15","LA RONGE A","4064155","2022-09-14 10:00","2022","09","14","10:00","12.2","","7.5","","73","","","","15","","12","","24.1","","97.15","","","","","","Rain Showers"
"-105.27","55.15","LA RONGE A","4064155","2022-09-14 11:00","2022","09","14","11:00","13.0","","8.5","","74","","","","17","","20","","24.1","","97.14","","","","","","NA"
"-105.27","55.15","LA RONGE A","4064155","2022-09-14 12:00","2022","09","14","12:00","14.0","","8.9","","71","","","","17","","21","","24.1","","97.11","","","","","","Rain Showers"
"-105.27","55.15","LA RONGE A","4064155","2022-09-14 13:00","2022","09","14","13:00","16.4","","9.0","","61","","","","17","","23","","24.1","","97.07","","","","","","NA"
"-105.27","55.15","LA RONGE A","4064155","2022-09-14 14:00","2022","09","14","14:00","16.7","","8.9","","60","","","","16","","19","","24.1","","97.06","","","","","","NA"
"-105.27","55.15","LA RONGE A","4064155","2022-09-14 15:00","2022","09","14","15:00","17.1","","8.2","","56","","","","21","","10","","24.1","","97.02","","","","","","Mainly Clear"
"-105.27","55.15","LA RONGE A","4064155","2022-09-14 16:00","2022","09","14","16:00","17.4","","8.5","","55","","","","22","","10","","24.1","","97.00","","","","","","NA"
"-105.27","55.15","LA RONGE A","4064155","2022-09-14 17:00","2022","09","14","17:00","18.2","","8.6","","53","","","","18","","11","","24.1","","96.99","","","","","","NA"
"-105.27","55.15","LA RONGE A","4064155","2022-09-14 18:00","2022","09","14","18:00","17.5","","8.6","","56","","","","18","","13","","24.1","","97.00","","","","","","Mainly Clear"
"-105.27","55.15","LA RONGE A","4064155","2022-09-14 19:00","2022","09","14","19:00","15.7","","9.5","","66","","","","16","","8","","24.1","","97.02","","","","","","NA"
"-105.27","55.15","LA RONGE A","4064155","2022-09-14 20:00","2022","09","14","20:00","14.4","","9.3","","71","","","","17","","7","","24.1","","97.08","","","","","","NA"
"-105.27","55.15","LA RONGE A","4064155","2022-09-14 21:00","2022","09","14","21:00","13.4","","9.2","","76","","","","17","","8","","24.1","","97.12","","","","","","Clear"
"-105.27","55.15","LA RONGE A","4064155","2022-09-14 22:00","2022","09","14","22:00","13.1","","8.7","","74","","","","19","","7","","24.1","","97.16","","","","","","NA"
"-105.27","55.15","LA RONGE A","4064155","2022-09-14 23:00","2022","09","14","23:00","11.2","","7.7","","79","","","","20","","9","","24.1","","97.19","","","","","","NA"
"-105.27","55.15","LA RONGE A","4064155","2022-09-15 00:00","2022","09","15","00:00","8.8","","6.8","","87","","","","17","","8","","24.1","","97.23","","","","","","Clear"
"-105.27","55.15","LA RONGE A","4064155","2022-09-15 01:00","2022","09","15","01:00","9.9","","7.7","","86","","","","19","","8","","24.1","","97.26","","","","","","NA"
"-105.27","55.15","LA RONGE A","4064155","2022-09-15 02:00","2022","09","15","02:00","7.9","","6.5","","91","","","","25","","5","","24.1","","97.28","","","","","","NA"
"-105.27","55.15","LA RONGE A","4064155","2022-09-15 03:00","2022","09","15","03:00","5.5","","4.5","","93","","","","36","","2","","24.1","","97.31","","","","","","Clear"
"-105.27","55.15","LA RONGE A","4064155","2022-09-15 04:00","2022","09","15","04:00","5.5","","4.8","","95","","","","16","","4","","24.1","","97.34","","","","","","NA"
"-105.27","55.15","LA RONGE A","4064155","2022-09-15 05:00","2022","09","15","05:00","3.7","","2.8","","94","","","","36","","2","","24.1","","97.36","","","","","","NA"
"-105.27","55.15","LA RONGE A","4064155","2022-09-15 06:00","2022","09","15","06:00","3.3","","2.5","","95","","","","36","","1","","24.1","","97.38","","","","","","Clear"
"-105.27","55.15","LA RONGE A","4064155","2022-09-15 07:00","2022","09","15","07:00","2.7","","2.0","","95","","","","21","","3","","24.1","","97.43","","","","","","NA"
"-105.27","55.15","LA RONGE A","4064155","2022-09-15 08:00","2022","09","15","08:00","6.9","","6.2","","95","","","","36","","2","","24.1","","97.47","","","","","","NA"
"-105.27","55.15","LA RONGE A","4064155","2022-09-15 09:00","2022","09","15","09:00","11.6","","7.9","","78","","","","17","","5","","24.1","","97.49","","","","","","Clear"
"-105.27","55.15","LA RONGE A","4064155","2022-09-15 10:00","2022","09","15","10:00","13.7","","8.2","","69","","","","13","","3","","24.1","","97.51","","","","","","NA"
"-105.27","55.15","LA RONGE A","4064155","2022-09-15 11:00","2022","09","15","11:00","15.9","","8.4","","61","","","","14","","7","","24.1","","97.50","","","","","","NA"
"-105.27","55.15","LA RONGE A","4064155","2022-09-15 12:00","2022","09","15","12:00","16.6","","7.8","","56","","","","15","","14","","24.1","","97.49","","","","","","Clear"
"-105.27","55.15","LA RONGE A","4064155","2022-09-15 13:00","2022","09","15","13:00","18.6","","6.0","","43","","","","15","","12","","24.1","","97.45","","","","","","NA"
"-105.27","55.15","LA RONGE A","4064155","2022-09-15 14:00","2022","09","15","14:00","19.5","","8.5","","48","","","","14","","11","","24.1","","97.43","","","","","","NA"
"-105.27","55.15","LA RONGE A","4064155","2022-09-15 15:00","2022","09","15","15:00","20.1","","8.5","","47","","","","15","","11","","24.1","","97.40","","","","","","Mainly Clear"
"-105.27","55.15","LA RONGE A","4064155","2022-09-15 16:00","2022","09","15","16:00","20.7","","9.0","","47","","","","12","","11","","24.1","","97.37","","","","","","NA"
"-105.27","55.15","LA RONGE A","4064155","2022-09-15 17:00","2022","09","15","17:00","20.6","","9.1","","47","","","","14","","8","","24.1","","97.35","","","","","","NA"
"-105.27","55.15","LA RONGE A","4064155","2022-09-15 18:00","2022","09","15","18:00","19.2","","9.3","","52","","","","11","","10","","24.1","","97.33","","","","","","Mainly Clear"
"-105.27","55.15","LA RONGE A","4064155","2022-09-15 19:00","2022","09","15","19:00","17.3","","9.8","","61","","","","10","","7","","24.1","","97.33","","","","","","NA"
"-105.27","55.15","LA RONGE A","4064155","2022-09-15 20:00","2022","09","15","20:00","12.8","","9.1","","78","","","","0","","1","","24.1","","97.34","","","","","","NA"
"-105.27","55.15","LA RONGE A","4064155","2022-09-15 21:00","2022","09","15","21:00","10.4","","8.5","","88","","","","36","","2","","24.1","","97.36","","","","","","Clear"
"-105.27","55.15","LA RONGE A","4064155","2022-09-15 22:00","2022","09","15","22:00","10.5","","8.5","","87","","","","16","","6","","24.1","","97.37","","","","","","NA"
"-105.27","55.15","LA RONGE A","4064155","2022-09-15 23:00","2022","09","15","23:00","13.1","","10.9","","86","","","","16","","11","","24.1","","97.39","","","","","","NA"
"-105.27","55.15","LA RONGE A","4064155","2022-09-16 00:00","2022","09","16","00:00","12.5","","9.7","","83","","","","17","","12","","24.1","","97.38","","","","","","Clear"
"-105.27","55.15","LA RONGE A","4064155","2022-09-16 01:00","2022","09","16","01:00","11.7","","9.2","","85","","","","16","","8","","24.1","","97.37","","","","","","NA"
"-105.27","55.15","LA RONGE A","4064155","2022-09-16 02:00","2022","09","16","02:00","11.0","","8.7","","86","","","","16","","9","","24.1","","97.37","","","","","","NA"
"-105.27","55.15","LA RONGE A","4064155","2022-09-16 03:00","2022","09","16","03:00","11.5","","8.7","","83","","","","15","","12","","24.1","","97.38","","","","","","Mainly Clear"
"-105.27","55.15","LA RONGE A","4064155","2022-09-16 04:00","2022","09","16","04:00","11.5","","9.2","","86","","","","15","","15","","24.1","","97.35","","","","","","NA"
"-105.27","55.15","LA RONGE A","4064155","2022-09-16 05:00","2022","09","16","05:00","11.1","","8.9","","86","","","","18","","8","","24.1","","97.34","","","","","","NA"
"-105.27","55.15","LA RONGE A","4064155","2022-09-16 06:00","2022","09","16","06:00","9.9","","8.2","","89","","","","17","","10","","24.1","","97.31","","","","","","Mainly Clear"
"-105.27","55.15","LA RONGE A","4064155","2022-09-16 07:00","2022","09","16","07:00","8.3","","7.4","","94","","","","36","","1","","24.1","","97.31","","","","","","NA"
"-105.27","55.15","LA RONGE A","4064155","2022-09-16 08:00","2022","09","16","08:00","11.4","","10.0","","91","","","","13","","17","","24.1","","97.29","","","","","","NA"
"-105.27","55.15","LA RONGE A","4064155","2022-09-16 09:00","2022","09","16","09:00","11.2","","9.0","","86","","","","16","","23","","24.1","","97.29","","","","","","Mostly Cloudy"
"-105.27","55.15","LA RONGE A","4064155","2022-09-16 10:00","2022","09","16","10:00","12.4","","9.2","","81","","","","14","","23","","24.1","","97.26","","","","","","NA"
"-105.27","55.15","LA RONGE A","4064155","2022-09-16 11:00","2022","09","16","11:00","13.9","","9.7","","75","","","","14","","21","","24.1","","97.22","","","","","","NA"
"-105.27","55.15","LA RONGE A","4064155","2022-09-16 12:00","2022","09","16","12:00","14.4","","9.5","","72","","","","12","","17","","24.1","","97.15","","","","","","Mostly Cloudy"
"-105.27","55.15","LA RONGE A","4064155","2022-09-16 13:00","2022","09","16","13:00","16.2","","9.9","","66","","","","10","","21","","24.1","","97.10","","","","","","NA"
"-105.27","55.15","LA RONGE A","4064155","2022-09-16 14:00","2022","09","16","14:00","16.2","","9.7","","65","","","","11","","18","","24.1","","97.06","","","","","","NA"
"-105.27","55.15","LA RONGE A","4064155","2022-09-16 15:00","2022","09","16","15:00","16.0","","10.2","","68","","","","11","","13","","24.1","","97.03","","","","","","Cloudy"
"-105.27","55.15","LA RONGE A","4064155","2022-09-16 16:00","2022","09","16","16:00","15.8","","9.5","","66","","","","14","","19","","24.1","","97.01","","","","","","NA"
"-105.27","55.15","LA RONGE A","4064155","2022-09-16 17:00","2022","09","16","17:00","16.4","","8.8","","61","","","","16","","13","","24.1","","96.97","","","","","","NA"
"-105.27","55.15","LA RONGE A","4064155","2022-09-16 18:00","2022","09","16","18:00","15.8","","8.8","","63","","","","14","","8","","24.1","","96.94","","","","","","Cloudy"
"-105.27","55.15","LA RONGE A","4064155","2022-09-16 19:00","2022","09","16","19:00","15.1","","9.7","","70","","","","10","","6","","24.1","","96.90","","","","","","NA"
"-105.27","55.15","LA RONGE A","4064155","2022-09-16 20:00","2022","09","16","20:00","14.6","","9.3","","71","","","","9","","9","","24.1","","96.87","","","","","","NA"
"-105.27","55.15","LA RONGE A","4064155","2022-09-16 21:00","2022","09","16","21:00","15.1","","9.5","","69","","","","13","","14","","24.1","","96.87","","","","","","Cloudy"
"-105.27","55.15","LA RONGE A","4064155","2022-09-16 22:00","2022","09","16","22:00","14.2","","9.1","","71","","","","14","","12","","24.1","","96.84","","","","","","NA"
"-105.27","55.15","LA RONGE A","4064155","2022-09-16 23:00","2022","09","16","23:00","13.0","","9.1","","77","","","","14","","8","","24.1","","96.81","","","","","","NA"
"-105.27","55.15","LA RONGE A","4064155","2022-09-17 00:00","2022","09","17","00:00","12.0","","8.5","","79","","","","14","","9","","24.1","","96.78","","","","","","Mostly Cloudy"
"-105.27","55.15","LA RONGE A","4064155","2022-09-17 01:00","2022","09","17","01:00","12.1","","7.8","","74","","","","13","","18","","24.1","","96.76","","","","","","NA"
"-105.27","55.15","LA RONGE A","4064155","2022-09-17 02:00","2022","09","17","02:00","10.7","","7.4","","80","","","","12","","14","","24.1","","96.71","","","","","","NA"
"-105.27","55.15","LA RONGE A","4064155","2022-09-17 03:00","2022","09","17","03:00","10.4","","6.7","","77","","","","13","","6","","24.1","","96.69","","","","","","Mainly Clear"
"-105.27","55.15","LA RONGE A","4064155","2022-09-17 04:00","2022","09","17","04:00","7.8","","6.5","","92","","","","36","","3","","24.1","","96.66","","","","","","NA"
"-105.27","55.15","LA RONGE A","4064155","2022-09-17 05:00","2022","09","17","05:00","5.6","","4.0","","89","","","","7","","7","","24.1","","96.64","","","","","","NA"
"-105.27","55.15","LA RONGE A","4064155","2022-09-17 06:00","2022","09","17","06:00","7.3","","5.5","","89","","","","7","","5","","24.1","","96.61","","","","","","Mainly Clear"
"-105.27","55.15","LA RONGE A","4064155","2022-09-17 07:00","2022","09","17","07:00","4.1","","2.6","","89","","","","7","","7","","24.1","","96.61","","","","","","NA"
"-105.27","55.15","LA RONGE A","4064155","2022-09-17 08:00","2022","09","17","08:00","8.4","","7.3","","93","","","","6","","6","","24.1","","96.62","","","","","","NA"
"-105.27","55.15","LA RONGE A","4064155","2022-09-17 09:00","2022","09","17","09:00","13.5","","9.7","","78","","","","13","","12","","24.1","","96.62","","","","","","Mostly Cloudy"
"-105.27","55.15","LA RONGE A","4064155","2022-09-17 10:00","2022","09","17","10:00","13.3","","9.1","","75","","","","12","","13","","24.1","","96.59","","","","","","NA"
"-105.27","55.15","LA RONGE A","4064155","2022-09-17 11:00","2022","09","17","11:00","15.2","","9.2","","67","","","","12","","10","","24.1","","96.57","","","","","","NA"
"-105.27","55.15","LA RONGE A","4064155","2022-09-17 12:00","2022","09","17","12:00","16.1","","7.8","","58","","","","11","","12","","24.1","","96.53","","","","","","Mostly Cloudy"
"-105.27","55.15","LA RONGE A","4064155","2022-09-17 13:00","2022","09","17","13:00","16.8","","7.3","","53","","","","12","","9","","24.1","","96.47","","","","","","NA"
"-105.27","55.15","LA RONGE A","4064155","2022-09-17 14:00","2022","09","17","14:00","17.6","","8.8","","56","","","","7","","12","","24.1","","96.45","","","","","","NA"
"-105.27","55.15","LA RONGE A","4064155","2022-09-17 15:00","2022","09","17","15:00","18.6","","9.2","","54","","","","11","","9","","24.1","","96.42","","","","","","Mostly Cloudy"
"-105.27","55.15","LA RONGE A","4064155","2022-09-17 16:00","2022","09","17","16:00","18.5","","9.4","","55","","","","11","","12","","24.1","","96.41","","","","","","NA"
"-105.27","55.15","LA RONGE A","4064155","2022-09-17 17:00","2022","09","17","17:00","17.1","","8.4","","56","","","","8","","11","","24.1","","96.38","","","","","","NA"
"-105.27","55.15","LA RONGE A","4064155","2022-09-17 18:00","2022","09","17","18:00","16.4","","8.8","","60","","","","9","","7","","24.1","","96.36","","","","","","Mostly Cloudy"
"-105.27","55.15","LA RONGE A","4064155","2022-09-17 19:00","2022","09","17","19:00","15.4","","9.9","","70","","","","6","","7","","24.1","","96.37","","","","","","NA"
"-105.27","55.15","LA RONGE A","4064155","2022-09-17 20:00","2022","09","17","20:00","14.0","","10.0","","77","","","","36","","1","","24.1","","96.39","","","","","","NA"
"-105.27","55.15","LA RONGE A","4064155","2022-09-17 21:00","2022","09","17","21:00","12.1","","9.7","","85","","","","36","","1","","24.1","","96.39","","","","","","Mostly Cloudy"
"-105.27","55.15","LA RONGE A","4064155","2022-09-17 22:00","2022","09","17","22:00","12.4","","9.5","","82","","","","36","","1","","24.1","","96.38","","","","","","NA"
"-105.27","55.15","LA RONGE A","4064155","2022-09-17 23:00","2022","09","17","23:00","10.7","","8.8","","88","","","","36","","2","","24.1","","96.36","","","","","","NA"
"-105.27","55.15","LA RONGE A","4064155","2022-09-18 00:00","2022","09","18","00:00","9.2","","7.9","","91","","","","36","","3","","24.1","","96.36","","","","","","Mainly Clear"
"-105.27","55.15","LA RONGE A","4064155","2022-09-18 01:00","2022","09","18","01:00","9.1","","7.4","","89","","","","20","","4","","24.1","","96.36","","","","","","NA"
"-105.27","55.15","LA RONGE A","4064155","2022-09-18 02:00","2022","09","18","02:00","6.6","","5.8","","94","","","","36","","2","","24.1","","96.35","","","","","","NA"
"-105.27","55.15","LA RONGE A","4064155","2022-09-18 03:00","2022","09","18","03:00","5.9","","5.5","","97","","","","36","","2","","24.1","","96.35","","","","","","Mainly Clear"
"-105.27","55.15","LA RONGE A","4064155","2022-09-18 04:00","2022","09","18","04:00","5.7","","5.1","","96","","","","36","","2","","24.1","","96.35","","","","","","NA"
"-105.27","55.15","LA RONGE A","4064155","2022-09-18 05:00","2022","09","18","05:00","5.1","","4.2","","94","","","","36","","2","","6.4","","96.34","","","","","","Fog"
"-105.27","55.15","LA RONGE A","4064155","2022-09-18 06:00","2022","09","18","06:00","3.5","","3.0","","97","","","","23","","3","","6.4","","96.33","","","","","","Fog"
"-105.27","55.15","LA RONGE A","4064155","2022-09-18 07:00","2022","09","18","07:00","3.5","","3.1","","97","","","","36","","1","","1.0","","96.36","","","","","","Fog"
"-105.27","55.15","LA RONGE A","4064155","2022-09-18 08:00","2022","09","18","08:00","7.2","","6.6","","96","","","","27","","7","","1.6","","96.37","","","","","","Fog"
"-105.27","55.15","LA RONGE A","4064155","2022-09-18 09:00","2022","09","18","09:00","10.9","","10.4","","97","","","","25","","11","","1.2","","96.38","","","","","","Fog"
"-105.27","55.15","LA RONGE A","4064155","2022-09-18 10:00","2022","09","18","10:00","12.9","","11.6","","92","","","","27","","10","","6.4","","96.38","","","","","","Fog"
"-105.27","55.15","LA RONGE A","4064155","2022-09-18 11:00","2022","09","18","11:00","14.6","","11.6","","82","","","","24","","16","","16.1","","96.36","","","","","","NA"
"-105.27","55.15","LA RONGE A","4064155","2022-09-18 12:00","2022","09","18","12:00","14.5","","11.7","","84","","","","25","","12","","24.1","","96.32","","","","","","Cloudy"
"-105.27","55.15","LA RONGE A","4064155","2022-09-18 13:00","2022","09","18","13:00","17.1","","11.1","","67","","","","27","","11","","24.1","","96.27","","","","","","NA"
"-105.27","55.15","LA RONGE A","4064155","2022-09-18 14:00","2022","09","18","14:00","18.7","","7.3","","47","","","","26","","15","","24.1","","96.24","","","","","","NA"
"-105.27","55.15","LA RONGE A","4064155","2022-09-18 15:00","2022","09","18","15:00","18.2","","7.2","","48","","","","24","","23","","24.1","","96.23","","","","","","Mostly Cloudy"
"-105.27","55.15","LA RONGE A","4064155","2022-09-18 16:00","2022","09","18","16:00","17.1","","7.2","","52","","","","24","","19","","24.1","","96.22","","","","","","NA"
"-105.27","55.15","LA RONGE A","4064155","2022-09-18 17:00","2022","09","18","17:00","15.7","","7.0","","56","","","","25","","20","","24.1","","96.24","","","","","","NA"
"-105.27","55.15","LA RONGE A","4064155","2022-09-18 18:00","2022","09","18","18:00","15.2","","7.2","","59","","","","24","","13","","24.1","","96.22","","","","","","Mainly Clear"
"-105.27","55.15","LA RONGE A","4064155","2022-09-18 19:00","2022","09","18","19:00","13.9","","7.2","","64","","","","26","","14","","24.1","","96.22","","","","","","NA"
"-105.27","55.15","LA RONGE A","4064155","2022-09-18 20:00","2022","09","18","20:00","13.0","","7.7","","70","","","","25","","7","","24.1","","96.21","","","","","","NA"
"-105.27","55.15","LA RONGE A","4064155","2022-09-18 21:00","2022","09","18","21:00","12.6","","8.2","","75","","","","26","","11","","24.1","","96.22","","","","","","Mostly Cloudy"
"-105.27","55.15","LA RONGE A","4064155","2022-09-18 22:00","2022","09","18","22:00","10.9","","8.1","","83","","","","26","","7","","24.1","","96.24","","","","","","NA"
"-105.27","55.15","LA RONGE A","4064155","2022-09-18 23:00","2022","09","18","23:00","10.3","","8.4","","88","","","","26","","10","","24.1","","96.27","","","","","","NA"
"-105.27","55.15","LA RONGE A","4064155","2022-09-19 00:00","2022","09","19","00:00","10.5","","8.5","","87","","","","23","","5","","24.1","","96.26","","","","","","Mostly Cloudy"
"-105.27","55.15","LA RONGE A","4064155","2022-09-19 01:00","2022","09","19","01:00","11.1","","8.2","","82","","","","26","","9","","24.1","","96.26","","","","","","NA"
"-105.27","55.15","LA RONGE A","4064155","2022-09-19 02:00","2022","09","19","02:00","10.2","","8.2","","88","","","","23","","9","","24.1","","96.26","","","","","","NA"
"-105.27","55.15","LA RONGE A","4064155","2022-09-19 03:00","2022","09","19","03:00","10.4","","8.6","","88","","","","23","","8","","24.1","","96.28","","","","","","Mostly Cloudy"
"-105.27","55.15","LA RONGE A","4064155","2022-09-19 04:00","2022","09","19","04:00","10.7","","8.5","","87","","","","25","","8","","24.1","","96.28","","","","","","NA"
"-105.27","55.15","LA RONGE A","4064155","2022-09-19 05:00","2022","09","19","05:00","9.1","","7.9","","93","","","","22","","9","","24.1","","96.28","","","","","","NA"
"-105.27","55.15","LA RONGE A","4064155","2022-09-19 06:00","2022","09","19","06:00","8.2","","7.4","","95","","","","25","","8","","24.1","","96.31","","","","","","Mainly Clear"
"-105.27","55.15","LA RONGE A","4064155","2022-09-19 07:00","2022","09","19","07:00","9.2","","8.4","","95","","","","25","","8","","24.1","","96.32","","","","","","NA"
"-105.27","55.15","LA RONGE A","4064155","2022-09-19 08:00","2022","09","19","08:00","10.2","","9.5","","95","","","","27","","8","","24.1","","96.31","","","","","","NA"
"-105.27","55.15","LA RONGE A","4064155","2022-09-19 09:00","2022","09","19","09:00","11.2","","9.7","","90","","","","28","","8","","24.1","","96.32","","","","","","Mostly Cloudy"
"-105.27","55.15","LA RONGE A","4064155","2022-09-19 10:00","2022","09","19","10:00","11.9","","9.5","","85","","","","24","","9","","24.1","","96.33","","","","","","NA"
"-105.27","55.15","LA RONGE A","4064155","2022-09-19 11:00","2022","09","19","11:00","13.4","","10.5","","82","","","","25","","8","","24.1","","96.36","","","","","","NA"
"-105.27","55.15","LA RONGE A","4064155","2022-09-19 12:00","2022","09","19","12:00","13.8","","10.6","","81","","","","30","","9","","24.1","","96.33","","","","","","Cloudy"
"-105.27","55.15","LA RONGE A","4064155","2022-09-19 13:00","2022","09","19","13:00","14.0","","9.9","","76","","","","24","","6","","24.1","","96.32","","","","","","NA"
"-105.27","55.15","LA RONGE A","4064155","2022-09-19 14:00","2022","09","19","14:00","13.9","","9.8","","76","","","","30","","4","","24.1","","96.33","","","","","","NA"
"-105.27","55.15","LA RONGE A","4064155","2022-09-19 15:00","2022","09","19","15:00","14.2","","9.6","","74","","","","30","","7","","24.1","","96.34","","","","","","Cloudy"
"-105.27","55.15","LA RONGE A","4064155","2022-09-19 16:00","2022","09","19","16:00","14.2","","10.0","","76","","","","5","","5","","24.1","","96.35","","","","","","NA"
"-105.27","55.15","LA RONGE A","4064155","2022-09-19 17:00","2022","09","19","17:00","14.1","","9.8","","75","","","","14","","6","","24.1","","96.38","","","","","","NA"
"-105.27","55.15","LA RONGE A","4064155","2022-09-19 18:00","2022","09","19","18:00","13.9","","10.4","","79","","","","21","","5","","24.1","","96.39","","","","","","Cloudy"
"-105.27","55.15","LA RONGE A","4064155","2022-09-19 19:00","2022","09","19","19:00","13.2","","10.4","","83","","","","23","","6","","24.1","","96.40","","","","","","NA"
"-105.27","55.15","LA RONGE A","4064155","2022-09-19 20:00","2022","09","19","20:00","11.4","","9.6","","89","","","","36","","2","","24.1","","96.43","","","","","","NA"
"-105.27","55.15","LA RONGE A","4064155","2022-09-19 21:00","2022","09","19","21:00","8.7","","8.1","","96","","","","36","","3","","24.1","","96.44","","","","","","Mostly Cloudy"
"-105.27","55.15","LA RONGE A","4064155","2022-09-19 22:00","2022","09","19","22:00","9.2","","8.2","","94","","","","36","","2","","24.1","","96.45","","","","","","NA"
"-105.27","55.15","LA RONGE A","4064155","2022-09-19 23:00","2022","09","19","23:00","9.7","","8.8","","94","","","","29","","3","","24.1","","96.43","","","","","","NA"
"-105.27","55.15","LA RONGE A","4064155","2022-09-20 00:00","2022","09","20","00:00","10.3","","9.5","","94","","","","25","","3","","24.1","","96.44","","","","","","Cloudy"
"-105.27","55.15","LA RONGE A","4064155","2022-09-20 01:00","2022","09","20","01:00","10.8","","9.7","","93","","","","29","","5","","24.1","","96.43","","","","","","NA"
"-105.27","55.15","LA RONGE A","4064155","2022-09-20 02:00","2022","09","20","02:00","11.2","","10.2","","93","","","","30","","6","","24.1","","96.42","","","","","","NA"
"-105.27","55.15","LA RONGE A","4064155","2022-09-20 03:00","2022","09","20","03:00","11.2","","10.4","","95","","","","29","","7","","24.1","","96.43","","","","","","Cloudy"
"-105.27","55.15","LA RONGE A","4064155","2022-09-20 04:00","2022","09","20","04:00","10.9","","10.2","","95","","","","27","","4","","24.1","","96.43","","","","","","NA"
"-105.27","55.15","LA RONGE A","4064155","2022-09-20 05:00","2022","09","20","05:00","11.0","","10.6","","97","","","","32","","10","","24.1","","96.44","","","","","","NA"
"-105.27","55.15","LA RONGE A","4064155","2022-09-20 06:00","2022","09","20","06:00","11.1","","10.5","","96","","","","33","","7","","24.1","","96.46","","","","","","Rain"
"-105.27","55.15","LA RONGE A","4064155","2022-09-20 07:00","2022","09","20","07:00","10.8","","10.4","","97","","","","32","","12","","16.1","","96.49","","","","","","Rain"
"-105.27","55.15","LA RONGE A","4064155","2022-09-20 08:00","2022","09","20","08:00","10.8","","10.4","","97","","","","32","","7","","19.3","","96.52","","","","","","Rain"
"-105.27","55.15","LA RONGE A","4064155","2022-09-20 09:00","2022","09","20","09:00","11.9","","11.2","","95","","","","32","","12","","24.1","","96.58","","","","","","Cloudy"
"-105.27","55.15","LA RONGE A","4064155","2022-09-20 10:00","2022","09","20","10:00","12.4","","11.1","","91","","","","35","","13","","24.1","","96.62","","","","","","NA"
"-105.27","55.15","LA RONGE A","4064155","2022-09-20 11:00","2022","09","20","11:00","11.7","","11.2","","96","","","","31","","14","","16.1","","96.66","","","","","","Rain"
"-105.27","55.15","LA RONGE A","4064155","2022-09-20 12:00","2022","09","20","12:00","11.9","","11.2","","96","","","","31","","18","","19.3","","96.70","","","","","","Rain"
"-105.27","55.15","LA RONGE A","4064155","2022-09-20 13:00","2022","09","20","13:00","12.2","","11.0","","92","","","","32","","17","","24.1","","96.75","","","","","","NA"
"-105.27","55.15","LA RONGE A","4064155","2022-09-20 14:00","2022","09","20","14:00","11.5","","9.8","","89","","","","32","","28","","24.1","","96.80","","","","","","Rain Showers"
"-105.27","55.15","LA RONGE A","4064155","2022-09-20 15:00","2022","09","20","15:00","11.1","","8.6","","85","","","","32","","25","","19.3","","96.89","","","","","","Rain Showers"
"-105.27","55.15","LA RONGE A","4064155","2022-09-20 16:00","2022","09","20","16:00","10.4","","8.0","","85","","","","31","","33","","24.1","","96.97","","","","","","NA"
"-105.27","55.15","LA RONGE A","4064155","2022-09-20 17:00","2022","09","20","17:00","10.3","","7.1","","80","","","","33","","23","","24.1","","97.06","","","","","","NA"
"-105.27","55.15","LA RONGE A","4064155","2022-09-20 18:00","2022","09","20","18:00","10.3","","6.0","","74","","","","33","","17","","24.1","","97.13","","","","","","Mostly Cloudy"
"-105.27","55.15","LA RONGE A","4064155","2022-09-20 19:00","2022","09","20","19:00","10.2","","5.6","","73","","","","33","","16","","24.1","","97.18","","","","","","NA"
"-105.27","55.15","LA RONGE A","4064155","2022-09-20 20:00","2022","09","20","20:00","9.9","","6.0","","77","","","","33","","15","","24.1","","97.25","","","","","","Rain Showers"
"-105.27","55.15","LA RONGE A","4064155","2022-09-20 21:00","2022","09","20","21:00","9.2","","6.6","","84","","","","33","","12","","24.1","","97.30","","","","","","Mostly Cloudy"
"-105.27","55.15","LA RONGE A","4064155","2022-09-20 22:00","2022","09","20","22:00","8.0","","5.8","","86","","","","33","","14","","24.1","","97.36","","","","","","Rain Showers"
"-105.27","55.15","LA RONGE A","4064155","2022-09-20 23:00","2022","09","20","23:00","7.3","","5.5","","88","","","","32","","16","","24.1","","97.42","","","","","","NA"
"-105.27","55.15","LA RONGE A","4064155","2022-09-21 00:00","2022","09","21","00:00","6.2","","4.8","","91","","","","31","","10","","24.1","","97.49","","","","","","Mainly Clear"
"-105.27","55.15","LA RONGE A","4064155","2022-09-21 01:00","2022","09","21","01:00","4.8","","3.9","","94","","","","29","","7","","24.1","","97.57","","","","","","NA"
"-105.27","55.15","LA RONGE A","4064155","2022-09-21 02:00","2022","09","21","02:00","4.7","","3.7","","93","","","","30","","8","","24.1","","97.61","","","","","","NA"
"-105.27","55.15","LA RONGE A","4064155","2022-09-21 03:00","2022","09","21","03:00","4.2","","3.3","","94","","","","28","","8","","24.1","","97.64","","","","","","Clear"
"-105.27","55.15","LA RONGE A","4064155","2022-09-21 04:00","2022","09","21","04:00","3.6","","3.1","","96","","","","28","","10","","24.1","","97.70","","","","","","NA"
"-105.27","55.15","LA RONGE A","4064155","2022-09-21 05:00","2022","09","21","05:00","1.8","","1.4","","97","","","","26","","5","","24.1","","97.76","","","","","","NA"
"-105.27","55.15","LA RONGE A","4064155","2022-09-21 06:00","2022","09","21","06:00","0.2","","0.0","","98","","","","36","","2","","24.1","","97.81","","","","","","Clear"
"-105.27","55.15","LA RONGE A","4064155","2022-09-21 07:00","2022","09","21","07:00","1.2","","1.0","","99","","","","36","","2","","24.1","","97.89","","","","","","NA"
"-105.27","55.15","LA RONGE A","4064155","2022-09-21 08:00","2022","09","21","08:00","4.1","","3.9","","99","","","","29","","5","","24.1","","97.93","","","","","","NA"
"-105.27","55.15","LA RONGE A","4064155","2022-09-21 09:00","2022","09","21","09:00","7.7","","5.9","","89","","","","30","","8","","24.1","","97.98","","","","","","Clear"
"-105.27","55.15","LA RONGE A","4064155","2022-09-21 10:00","2022","09","21","10:00","9.7","","5.6","","76","","","","27","","7","","24.1","","98.00","","","","","","NA"
"-105.27","55.15","LA RONGE A","4064155","2022-09-21 11:00","2022","09","21","11:00","12.0","","5.4","","64","","","","30","","8","","24.1","","98.01","","","","","","NA"
"-105.27","55.15","LA RONGE A","4064155","2022-09-21 12:00","2022","09","21","12:00","12.7","","4.5","","57","","","","28","","9","","24.1","","97.99","","","","","","Mainly Clear"
"-105.27","55.15","LA RONGE A","4064155","2022-09-21 13:00","2022","09","21","13:00","13.1","","2.6","","49","","","","22","","8","","24.1","","97.99","","","","","","NA"
"-105.27","55.15","LA RONGE A","4064155","2022-09-21 14:00","2022","09","21","14:00","15.2","","3.0","","44","","","","26","","8","","24.1","","97.95","","","","","","NA"
"-105.27","55.15","LA RONGE A","4064155","2022-09-21 15:00","2022","09","21","15:00","14.9","","2.6","","44","","","","22","","5","","24.1","","97.89","","","","","","Mainly Clear"
"-105.27","55.15","LA RONGE A","4064155","2022-09-21 16:00","2022","09","21","16:00","15.2","","2.4","","42","","","","23","","13","","24.1","","97.83","","","","","","NA"
"-105.27","55.15","LA RONGE A","4064155","2022-09-21 17:00","2022","09","21","17:00","14.2","","4.2","","51","","","","13","","14","","24.1","","97.80","","","","","","NA"
"-105.27","55.15","LA RONGE A","4064155","2022-09-21 18:00","2022","09","21","18:00","13.6","","4.5","","54","","","","14","","10","","22.5","","97.75","","","","","","Mainly Clear"
"-105.27","55.15","LA RONGE A","4064155","2022-09-21 19:00","2022","09","21","19:00","11.9","","4.9","","62","","","","16","","10","","24.1","","97.71","","","","","","NA"
"-105.27","55.15","LA RONGE A","4064155","2022-09-21 20:00","2022","09","21","20:00","11.4","","5.3","","66","","","","18","","8","","24.1","","97.69","","","","","","NA"
"-105.27","55.15","LA RONGE A","4064155","2022-09-21 21:00","2022","09","21","21:00","11.3","","4.7","","64","","","","19","","13","","24.1","","97.65","","","","","","Clear"
"-105.27","55.15","LA RONGE A","4064155","2022-09-21 22:00","2022","09","21","22:00","10.5","","4.3","","65","","","","19","","14","","24.1","","97.60","","","","","","NA"
"-105.27","55.15","LA RONGE A","4064155","2022-09-21 23:00","2022","09","21","23:00","10.2","","3.9","","65","","","","19","","19","","24.1","","97.57","","","","","","NA"
"-105.27","55.15","LA RONGE A","4064155","2022-09-22 00:00","2022","09","22","00:00","9.3","","4.2","","70","","","","19","","13","","24.1","","97.55","","","","","","Clear"
"-105.27","55.15","LA RONGE A","4064155","2022-09-22 01:00","2022","09","22","01:00","8.5","","4.3","","74","","","","19","","14","","24.1","","97.51","","","","","","NA"
"-105.27","55.15","LA RONGE A","4064155","2022-09-22 02:00","2022","09","22","02:00","8.1","","3.7","","74","","","","19","","12","","24.1","","97.48","","","","","","NA"
"-105.27","55.15","LA RONGE A","4064155","2022-09-22 03:00","2022","09","22","03:00","7.6","","3.5","","75","","","","20","","13","","24.1","","97.44","","","","","","Clear"
"-105.27","55.15","LA RONGE A","4064155","2022-09-22 04:00","2022","09","22","04:00","6.9","","3.2","","77","","","","21","","10","","24.1","","97.40","","","","","","NA"
"-105.27","55.15","LA RONGE A","4064155","2022-09-22 05:00","2022","09","22","05:00","6.6","","2.9","","78","","","","21","","10","","24.1","","97.36","","","","","","NA"
"-105.27","55.15","LA RONGE A","4064155","2022-09-22 06:00","2022","09","22","06:00","6.8","","2.6","","75","","","","20","","10","","24.1","","97.29","","","","","","Clear"
"-105.27","55.15","LA RONGE A","4064155","2022-09-22 07:00","2022","09","22","07:00","6.5","","2.7","","77","","","","20","","12","","24.1","","97.23","","","","","","NA"
"-105.27","55.15","LA RONGE A","4064155","2022-09-22 08:00","2022","09","22","08:00","7.7","","3.2","","73","","","","19","","12","","24.1","","97.17","","","","","","NA"
"-105.27","55.15","LA RONGE A","4064155","2022-09-22 09:00","2022","09","22","09:00","10.6","","3.1","","60","","","","20","","19","","24.1","","97.12","","","","","","Clear"
"-105.27","55.15","LA RONGE A","4064155","2022-09-22 10:00","2022","09","22","10:00","13.1","","2.9","","50","","","","21","","21","","24.1","","97.07","","","","","","NA"
"-105.27","55.15","LA RONGE A","4064155","2022-09-22 11:00","2022","09","22","11:00","15.4","","2.6","","42","","","","21","","22","","24.1","","97.02","","","","","","NA"
"-105.27","55.15","LA RONGE A","4064155","2022-09-22 12:00","2022","09","22","12:00","16.7","","3.7","","42","","","","20","","18","","24.1","","96.92","","","","","","Mainly Clear"
"-105.27","55.15","LA RONGE A","4064155","2022-09-22 13:00","2022","09","22","13:00","18.0","","3.5","","38","","","","19","","15","","24.1","","96.83","","","","","","NA"
"-105.27","55.15","LA RONGE A","4064155","2022-09-22 14:00","2022","09","22","14:00","17.9","","3.6","","38","","","","17","","23","","24.1","","96.71","","","","","","NA"
"-105.27","55.15","LA RONGE A","4064155","2022-09-22 15:00","2022","09","22","15:00","18.2","","2.1","","34","","","","17","","27","","24.1","","96.62","","","","","","Clear"
"-105.27","55.15","LA RONGE A","4064155","2022-09-22 16:00","2022","09","22","16:00","18.2","","2.2","","34","","","","18","","25","","24.1","","96.52","","","","","","NA"
"-105.27","55.15","LA RONGE A","4064155","2022-09-22 17:00","2022","09","22","17:00","18.0","","2.3","","35","","","","18","","20","","24.1","","96.43","","","","","","NA"
"-105.27","55.15","LA RONGE A","4064155","2022-09-22 18:00","2022","09","22","18:00","17.1","","2.8","","38","","","","19","","10","","24.1","","96.38","","","","","","Clear"
"-105.27","55.15","LA RONGE A","4064155","2022-09-22 19:00","2022","09","22","19:00","14.8","","3.5","","46","","","","19","","13","","24.1","","96.35","","","","","","NA"
"-105.27","55.15","LA RONGE A","4064155","2022-09-22 20:00","2022","09","22","20:00","14.2","","2.9","","46","","","","18","","16","","24.1","","96.32","","","","","","NA"
"-105.27","55.15","LA RONGE A","4064155","2022-09-22 21:00","2022","09","22","21:00","11.7","","3.9","","59","","","","17","","11","","24.1","","96.27","","","","","","Clear"
"-105.27","55.15","LA RONGE A","4064155","2022-09-22 22:00","2022","09","22","22:00","11.1","","4.1","","62","","","","17","","16","","24.1","","96.21","","","","","","NA"
"-105.27","55.15","LA RONGE A","4064155","2022-09-22 23:00","2022","09","22","23:00","10.6","","4.1","","64","","","","17","","13","","24.1","","96.15","","","","","","NA"
"-105.27","55.15","LA RONGE A","4064155","2022-09-23 00:00","2022","09","23","00:00","10.6","","3.9","","63","","","","20","","10","","24.1","","96.12","","","","","","Clear"
"-105.27","55.15","LA RONGE A","4064155","2022-09-23 01:00","2022","09","23","01:00","9.7","","3.9","","67","","","","19","","9","","24.1","","96.12","","","","","","NA"
"-105.27","55.15","LA RONGE A","4064155","2022-09-23 02:00","2022","09","23","02:00","9.8","","4.3","","68","","","","19","","9","","24.1","","96.07","","","","","","NA"
"-105.27","55.15","LA RONGE A","4064155","2022-09-23 03:00","2022","09","23","03:00","8.5","","4.4","","75","","","","18","","9","","24.1","","96.05","","","","","","Clear"
"-105.27","55.15","LA RONGE A","4064155","2022-09-23 04:00","2022","09","23","04:00","8.9","","4.8","","76","","","","19","","7","","24.1","","96.05","","","","","","NA"
"-105.27","55.15","LA RONGE A","4064155","2022-09-23 05:00","2022","09","23","05:00","8.2","","5.4","","83","","","","17","","16","","24.1","","96.05","","","","","","NA"
"-105.27","55.15","LA RONGE A","4064155","2022-09-23 06:00","2022","09","23","06:00","8.3","","5.6","","83","","","","19","","13","","24.1","","95.99","","","","","","Mainly Clear"
"-105.27","55.15","LA RONGE A","4064155","2022-09-23 07:00","2022","09","23","07:00","7.7","","5.7","","87","","","","18","","12","","24.1","","95.97","","","","","","NA"
"-105.27","55.15","LA RONGE A","4064155","2022-09-23 08:00","2022","09","23","08:00","8.9","","6.3","","83","","","","18","","21","","24.1","","95.95","","","","","","NA"
"-105.27","55.15","LA RONGE A","4064155","2022-09-23 09:00","2022","09","23","09:00","9.8","","6.9","","82","","","","20","","13","","24.1","","95.96","","","","","","Mainly Clear"
"-105.27","55.15","LA RONGE A","4064155","2022-09-23 10:00","2022","09","23","10:00","13.2","","7.7","","69","","","","19","","16","","24.1","","95.95","","","","","","NA"
"-105.27","55.15","LA RONGE A","4064155","2022-09-23 11:00","2022","09","23","11:00","15.8","","8.4","","61","","","","18","","17","","24.1","","95.89","","","","","","NA"
"-105.27","55.15","LA RONGE A","4064155","2022-09-23 12:00","2022","09","23","12:00","17.9","","8.4","","53","","","","21","","16","","24.1","","95.88","","","","","","Mostly Cloudy"
"-105.27","55.15","LA RONGE A","4064155","2022-09-23 13:00","2022","09","23","13:00","17.4","","8.4","","55","","","","22","","16","","24.1","","95.87","","","","","","NA"
"-105.27","55.15","LA RONGE A","4064155","2022-09-23 14:00","2022","09","23","14:00","18.6","","9.2","","54","","","","24","","15","","24.1","","95.86","","","","","","NA"
"-105.27","55.15","LA RONGE A","4064155","2022-09-23 15:00","2022","09","23","15:00","20.2","","9.0","","48","","","","24","","17","","24.1","","95.82","","","","","","Mainly Clear"
"-105.27","55.15","LA RONGE A","4064155","2022-09-23 16:00","2022","09","23","16:00","20.4","","8.5","","46","","","","22","","18","","24.1","","95.83","","","","","","NA"
"-105.27","55.15","LA RONGE A","4064155","2022-09-23 17:00","2022","09","23","17:00","19.9","","8.8","","48","","","","24","","13","","24.1","","95.84","","","","","","NA"
"-105.27","55.15","LA RONGE A","4064155","2022-09-23 18:00","2022","09","23","18:00","17.2","","8.8","","57","","","","29","","8","","24.1","","95.86","","","","","","Mostly Cloudy"
"-105.27","55.15","LA RONGE A","4064155","2022-09-23 19:00","2022","09","23","19:00","15.7","","8.2","","61","","","","28","","11","","24.1","","95.92","","","","","","NA"
"-105.27","55.15","LA RONGE A","4064155","2022-09-23 20:00","2022","09","23","20:00","15.6","","7.7","","59","","","","28","","13","","24.1","","95.98","","","","","","NA"
"-105.27","55.15","LA RONGE A","4064155","2022-09-23 21:00","2022","09","23","21:00","14.4","","6.4","","58","","","","28","","11","","24.1","","96.04","","","","","","Mostly Cloudy"
"-105.27","55.15","LA RONGE A","4064155","2022-09-23 22:00","2022","09","23","22:00","12.4","","5.7","","63","","","","28","","9","","24.1","","96.09","","","","","","NA"
"-105.27","55.15","LA RONGE A","4064155","2022-09-23 23:00","2022","09","23","23:00","11.0","","5.4","","69","","","","26","","6","","24.1","","96.13","","","","","","NA"
"-105.27","55.15","LA RONGE A","4064155","2022-09-24 00:00","2022","09","24","00:00","8.3","","4.8","","79","","","","24","","5","","24.1","","96.14","","","","","","Mainly Clear"
"-105.27","55.15","LA RONGE A","4064155","2022-09-24 01:00","2022","09","24","01:00","9.4","","6.6","","83","","","","23","","10","","24.1","","96.15","","","","","","NA"
"-105.27","55.15","LA RONGE A","4064155","2022-09-24 02:00","2022","09","24","02:00","8.1","","5.8","","86","","","","24","","8","","24.1","","96.15","","","","","","NA"
"-105.27","55.15","LA RONGE A","4064155","2022-09-24 03:00","2022","09","24","03:00","8.4","","6.0","","85","","","","23","","10","","24.1","","96.17","","","","","","Mainly Clear"
"-105.27","55.15","LA RONGE A","4064155","2022-09-24 04:00","2022","09","24","04:00","7.5","","6.1","","91","","","","24","","9","","24.1","","96.18","","","","","","NA"
"-105.27","55.15","LA RONGE A","4064155","2022-09-24 05:00","2022","09","24","05:00","7.2","","6.0","","92","","","","27","","10","","24.1","","96.22","","","","","","NA"
"-105.27","55.15","LA RONGE A","4064155","2022-09-24 06:00","2022","09","24","06:00","7.3","","5.0","","85","","","","24","","12","","24.1","","96.23","","","","","","Mainly Clear"
"-105.27","55.15","LA RONGE A","4064155","2022-09-24 07:00","2022","09","24","07:00","6.9","","4.0","","81","","","","24","","9","","24.1","","96.26","","","","","","NA"
"-105.27","55.15","LA RONGE A","4064155","2022-09-24 08:00","2022","09","24","08:00","8.1","","4.5","","78","","","","25","","12","","24.1","","96.33","","","","","","NA"
"-105.27","55.15","LA RONGE A","4064155","2022-09-24 09:00","2022","09","24","09:00","10.1","","4.0","","66","","","","26","","17","","24.1","","96.37","","","","","","Clear"
"-105.27","55.15","LA RONGE A","4064155","2022-09-24 10:00","2022","09","24","10:00","12.5","","4.0","","56","","","","27","","19","","24.1","","96.39","","","","","","NA"
"-105.27","55.15","LA RONGE A","4064155","2022-09-24 11:00","2022","09","24","11:00","14.1","","5.1","","54","","","","25","","16","","24.1","","96.39","","","","","","NA"
"-105.27","55.15","LA RONGE A","4064155","2022-09-24 12:00","2022","09","24","12:00","16.0","","4.2","","45","","","","25","","20","","24.1","","96.38","","","","","","Clear"
"-105.27","55.15","LA RONGE A","4064155","2022-09-24 13:00","2022","09","24","13:00","16.8","","3.2","","40","","","","25","","25","","24.1","","96.37","","","","","","NA"
"-105.27","55.15","LA RONGE A","4064155","2022-09-24 14:00","2022","09","24","14:00","17.3","","3.5","","40","","","","26","","27","","24.1","","96.42","","","","","","NA"
"-105.27","55.15","LA RONGE A","4064155","2022-09-24 15:00","2022","09","24","15:00","16.3","","3.6","","42","","","","28","","28","","24.1","","96.47","","","","","","Mainly Clear"
"-105.27","55.15","LA RONGE A","4064155","2022-09-24 16:00","2022","09","24","16:00","17.6","","3.8","","40","","","","28","","29","","24.1","","96.55","","","","","","NA"
"-105.27","55.15","LA RONGE A","4064155","2022-09-24 17:00","2022","09","24","17:00","16.4","","3.0","","41","","","","30","","30","","24.1","","96.66","","","","","","NA"
"-105.27","55.15","LA RONGE A","4064155","2022-09-24 18:00","2022","09","24","18:00","14.9","","3.8","","47","","","","30","","22","","24.1","","96.73","","","","","","Mainly Clear"
"-105.27","55.15","LA RONGE A","4064155","2022-09-24 19:00","2022","09","24","19:00","13.2","","3.9","","53","","","","28","","14","","24.1","","96.79","","","","","","NA"
"-105.27","55.15","LA RONGE A","4064155","2022-09-24 20:00","2022","09","24","20:00","10.2","","6.3","","76","","","","28","","14","","24.1","","96.88","","","","","","NA"
"-105.27","55.15","LA RONGE A","4064155","2022-09-24 21:00","2022","09","24","21:00","11.3","","5.0","","65","","","","28","","19","","24.1","","96.97","","","","","","Mainly Clear"
"-105.27","55.15","LA RONGE A","4064155","2022-09-24 22:00","2022","09","24","22:00","10.5","","4.9","","68","","","","28","","14","","24.1","","97.08","","","","","","NA"
"-105.27","55.15","LA RONGE A","4064155","2022-09-24 23:00","2022","09","24","23:00","8.6","","4.2","","74","","","","27","","9","","24.1","","97.16","","","","","","NA"
"-105.27","55.15","LA RONGE A","4064155","2022-09-25 00:00","2022","09","25","00:00","8.4","","4.2","","75","","","","25","","9","","24.1","","97.19","","","","","","Mainly Clear"
"-105.27","55.15","LA RONGE A","4064155","2022-09-25 01:00","2022","09","25","01:00","8.0","","3.8","","75","","","","26","","10","","24.1","","97.22","","","","","","NA"
"-105.27","55.15","LA RONGE A","4064155","2022-09-25 02:00","2022","09","25","02:00","7.9","","4.2","","78","","","","26","","10","","24.1","","97.27","","","","","","NA"
"-105.27","55.15","LA RONGE A","4064155","2022-09-25 03:00","2022","09","25","03:00","7.5","","4.2","","79","","","","26","","12","","24.1","","97.33","","","","","","Clear"
"-105.27","55.15","LA RONGE A","4064155","2022-09-25 04:00","2022","09","25","04:00","6.8","","3.9","","82","","","","27","","9","","24.1","","97.38","","","","","","NA"
"-105.27","55.15","LA RONGE A","4064155","2022-09-25 05:00","2022","09","25","05:00","5.1","","3.2","","88","","","","26","","8","","24.1","","97.42","","","","","","NA"
"-105.27","55.15","LA RONGE A","4064155","2022-09-25 06:00","2022","09","25","06:00","5.0","","3.4","","89","","","","28","","9","","24.1","","97.47","","","","","","Clear"
"-105.27","55.15","LA RONGE A","4064155","2022-09-25 07:00","2022","09","25","07:00","3.9","","2.6","","91","","","","28","","7","","24.1","","97.51","","","","","","NA"
"-105.27","55.15","LA RONGE A","4064155","2022-09-25 08:00","2022","09","25","08:00","6.2","","4.5","","89","","","","28","","6","","24.1","","97.52","","","","","","NA"
"-105.27","55.15","LA RONGE A","4064155","2022-09-25 09:00","2022","09","25","09:00","8.9","","5.8","","81","","","","29","","10","","24.1","","97.56","","","","","","Mainly Clear"
"-105.27","55.15","LA RONGE A","4064155","2022-09-25 10:00","2022","09","25","10:00","11.0","","5.2","","68","","","","30","","10","","24.1","","97.58","","","","","","NA"
"-105.27","55.15","LA RONGE A","4064155","2022-09-25 11:00","2022","09","25","11:00","12.9","","4.2","","55","","","","26","","9","","24.1","","97.58","","","","","","NA"
"-105.27","55.15","LA RONGE A","4064155","2022-09-25 12:00","2022","09","25","12:00","14.5","","4.0","","49","","","","30","","7","","24.1","","97.54","","","","","","Mostly Cloudy"
"-105.27","55.15","LA RONGE A","4064155","2022-09-25 13:00","2022","09","25","13:00","15.4","","4.2","","47","","","","27","","8","","24.1","","97.49","","","","","","NA"
"-105.27","55.15","LA RONGE A","4064155","2022-09-25 14:00","2022","09","25","14:00","15.2","","6.4","","55","","","","14","","12","","24.1","","97.45","","","","","","NA"
"-105.27","55.15","LA RONGE A","4064155","2022-09-25 15:00","2022","09","25","15:00","14.8","","6.0","","55","","","","12","","12","","24.1","","97.41","","","","","","Mostly Cloudy"
"-105.27","55.15","LA RONGE A","4064155","2022-09-25 16:00","2022","09","25","16:00","15.6","","4.4","","47","","","","17","","5","","24.1","","97.35","","","","","","NA"
"-105.27","55.15","LA RONGE A","4064155","2022-09-25 17:00","2022","09","25","17:00","14.4","","5.6","","55","","","","14","","8","","24.1","","97.32","","","","","","NA"
"-105.27","55.15","LA RONGE A","4064155","2022-09-25 18:00","2022","09","25","18:00","14.1","","7.0","","62","","","","12","","7","","24.1","","97.26","","","","","","Mostly Cloudy"
"-105.27","55.15","LA RONGE A","4064155","2022-09-25 19:00","2022","09","25","19:00","12.7","","7.1","","69","","","","13","","4","","24.1","","97.23","","","","","","NA"
"-105.27","55.15","LA RONGE A","4064155","2022-09-25 20:00","2022","09","25","20:00","12.6","","7.3","","70","","","","19","","9","","24.1","","97.21","","","","","","NA"
"-105.27","55.15","LA RONGE A","4064155","2022-09-25 21:00","2022","09","25","21:00","12.4","","6.8","","68","","","","16","","11","","24.1","","97.19","","","","","","Mainly Clear"
"-105.27","55.15","LA RONGE A","4064155","2022-09-25 22:00","2022","09","25","22:00","11.6","","5.9","","68","","","","20","","8","","24.1","","97.15","","","","","","NA"
"-105.27","55.15","LA RONGE A","4064155","2022-09-25 23:00","2022","09","25","23:00","8.1","","5.5","","83","","","","21","","5","","24.1","","97.12","","","","","","NA"
"-105.27","55.15","LA RONGE A","4064155","2022-09-26 00:00","2022","09","26","00:00","6.4","","4.8","","89","","","","36","","2","","24.1","","97.11","","","","","","Clear"
"-105.27","55.15","LA RONGE A","4064155","2022-09-26 01:00","2022","09","26","01:00","4.6","","3.6","","93","","","","24","","5","","24.1","","97.10","","","","","","NA"
"-105.27","55.15","LA RONGE A","4064155","2022-09-26 02:00","2022","09","26","02:00","4.4","","3.7","","95","","","","24","","7","","24.1","","97.09","","","","","","NA"
"-105.27","55.15","LA RONGE A","4064155","2022-09-26 03:00","2022","09","26","03:00","7.9","","5.9","","87","","","","26","","9","","24.1","","97.10","","","","","","Mainly Clear"
"-105.27","55.15","LA RONGE A","4064155","2022-09-26 04:00","2022","09","26","04:00","7.4","","5.8","","90","","","","26","","7","","24.1","","97.14","","","","","","NA"
"-105.27","55.15","LA RONGE A","4064155","2022-09-26 05:00","2022","09","26","05:00","6.5","","5.4","","93","","","","28","","7","","24.1","","97.18","","","","","","NA"
"-105.27","55.15","LA RONGE A","4064155","2022-09-26 06:00","2022","09","26","06:00","4.5","","4.0","","97","","","","36","","1","","24.1","","97.16","","","","","","Mainly Clear"
"-105.27","55.15","LA RONGE A","4064155","2022-09-26 07:00","2022","09","26","07:00","3.8","","2.9","","94","","","","19","","4","","24.1","","97.23","","","","","","NA"
"-105.27","55.15","LA RONGE A","4064155","2022-09-26 08:00","2022","09","26","08:00","5.1","","4.4","","96","","","","25","","5","","24.1","","97.29","","","","","","NA"
"-105.27","55.15","LA RONGE A","4064155","2022-09-26 09:00","2022","09","26","09:00","9.9","","8.1","","88","","","","26","","12","","24.1","","97.35","","","","","","Mainly Clear"
"-105.27","55.15","LA RONGE A","4064155","2022-09-26 10:00","2022","09","26","10:00","12.1","","7.7","","74","","","","24","","14","","24.1","","97.36","","","","","","NA"
"-105.27","55.15","LA RONGE A","4064155","2022-09-26 11:00","2022","09","26","11:00","14.2","","7.1","","62","","","","24","","13","","24.1","","97.41","","","","","","NA"
"-105.27","55.15","LA RONGE A","4064155","2022-09-26 12:00","2022","09","26","12:00","17.1","","7.6","","53","","","","27","","12","","24.1","","97.39","","","","","","Mainly Clear"
"-105.27","55.15","LA RONGE A","4064155","2022-09-26 13:00","2022","09","26","13:00","18.6","","5.8","","43","","","","27","","12","","24.1","","97.38","","","","","","NA"
"-105.27","55.15","LA RONGE A","4064155","2022-09-26 14:00","2022","09","26","14:00","19.0","","5.9","","42","","","","29","","18","","24.1","","97.40","","","","","","NA"
"-105.27","55.15","LA RONGE A","4064155","2022-09-26 15:00","2022","09","26","15:00","19.5","","5.5","","40","","","","32","","25","","24.1","","97.44","","","","","","Mainly Clear"
"-105.27","55.15","LA RONGE A","4064155","2022-09-26 16:00","2022","09","26","16:00","19.3","","4.6","","38","","","","32","","20","","24.1","","97.45","","","","","","NA"
"-105.27","55.15","LA RONGE A","4064155","2022-09-26 17:00","2022","09","26","17:00","18.3","","3.7","","38","","","","33","","17","","24.1","","97.49","","","","","","NA"
"-105.27","55.15","LA RONGE A","4064155","2022-09-26 18:00","2022","09","26","18:00","16.8","","3.4","","41","","","","32","","9","","24.1","","97.53","","","","","","Mainly Clear"
"-105.27","55.15","LA RONGE A","4064155","2022-09-26 19:00","2022","09","26","19:00","12.6","","4.2","","56","","","","34","","5","","24.1","","97.57","","","","","","NA"
"-105.27","55.15","LA RONGE A","4064155","2022-09-26 20:00","2022","09","26","20:00","10.5","","4.5","","66","","","","36","","2","","24.1","","97.62","","","","","","NA"
"-105.27","55.15","LA RONGE A","4064155","2022-09-26 21:00","2022","09","26","21:00","7.2","","2.7","","73","","","","1","","5","","24.1","","97.63","","","","","","Clear"
"-105.27","55.15","LA RONGE A","4064155","2022-09-26 22:00","2022","09","26","22:00","5.6","","2.6","","81","","","","36","","5","","24.1","","97.67","","","","","","NA"
"-105.27","55.15","LA RONGE A","4064155","2022-09-26 23:00","2022","09","26","23:00","5.2","","2.8","","85","","","","36","","1","","24.1","","97.67","","","","","","NA"
"-105.27","55.15","LA RONGE A","4064155","2022-09-27 00:00","2022","09","27","00:00","3.8","","1.8","","87","","","","36","","2","","24.1","","97.69","","","","","","Clear"
"-105.27","55.15","LA RONGE A","4064155","2022-09-27 01:00","2022","09","27","01:00","2.1","","0.9","","92","","","","36","","2","","24.1","","97.67","","","","","","NA"
"-105.27","55.15","LA RONGE A","4064155","2022-09-27 02:00","2022","09","27","02:00","4.1","","2.5","","89","","","","36","","2","","24.1","","97.70","","","","","","NA"
"-105.27","55.15","LA RONGE A","4064155","2022-09-27 03:00","2022","09","27","03:00","5.5","","4.3","","92","","","","17","","5","","24.1","","97.67","","","","","","Clear"
"-105.27","55.15","LA RONGE A","4064155","2022-09-27 04:00","2022","09","27","04:00","7.7","","5.3","","85","","","","18","","7","","24.1","","97.67","","","","","","NA"
"-105.27","55.15","LA RONGE A","4064155","2022-09-27 05:00","2022","09","27","05:00","8.0","","5.3","","83","","","","16","","8","","24.1","","97.67","","","","","","NA"
"-105.27","55.15","LA RONGE A","4064155","2022-09-27 06:00","2022","09","27","06:00","8.7","","6.0","","83","","","","18","","6","","24.1","","97.71","","","","","","Mostly Cloudy"
"-105.27","55.15","LA RONGE A","4064155","2022-09-27 07:00","2022","09","27","07:00","8.9","","6.2","","83","","","","18","","10","","24.1","","97.68","","","","","","NA"
"-105.27","55.15","LA RONGE A","4064155","2022-09-27 08:00","2022","09","27","08:00","9.3","","6.2","","81","","","","16","","16","","24.1","","97.63","","","","","","NA"
"-105.27","55.15","LA RONGE A","4064155","2022-09-27 09:00","2022","09","27","09:00","11.0","","6.8","","75","","","","16","","14","","24.1","","97.64","","","","","","Mainly Clear"
"-105.27","55.15","LA RONGE A","4064155","2022-09-27 10:00","2022","09","27","10:00","11.7","","6.7","","71","","","","15","","19","","24.1","","97.62","","","","","","NA"
"-105.27","55.15","LA RONGE A","4064155","2022-09-27 11:00","2022","09","27","11:00","13.6","","7.4","","66","","","","14","","14","","24.1","","97.56","","","","","","NA"
"-105.27","55.15","LA RONGE A","4064155","2022-09-27 12:00","2022","09","27","12:00","16.6","","8.4","","58","","","","13","","13","","24.1","","97.51","","","","","","Mainly Clear"
"-105.27","55.15","LA RONGE A","4064155","2022-09-27 13:00","2022","09","27","13:00","19.4","","7.8","","47","","","","15","","19","","24.1","","97.43","","","","","","NA"
"-105.27","55.15","LA RONGE A","4064155","2022-09-27 14:00","2022","09","27","14:00","21.8","","4.8","","33","","","","19","","19","","24.1","","97.34","","","","","","NA"
"-105.27","55.15","LA RONGE A","4064155","2022-09-27 15:00","2022","09","27","15:00","22.2","","5.3","","33","","","","17","","24","","24.1","","97.28","","","","","","Mainly Clear"
"-105.27","55.15","LA RONGE A","4064155","2022-09-27 16:00","2022","09","27","16:00","22.2","","6.2","","35","","","","18","","22","","24.1","","97.24","","","","","","NA"
"-105.27","55.15","LA RONGE A","4064155","2022-09-27 17:00","2022","09","27","17:00","21.7","","7.1","","38","","","","18","","17","","24.1","","97.18","","","","","","NA"
"-105.27","55.15","LA RONGE A","4064155","2022-09-27 18:00","2022","09","27","18:00","20.5","","7.0","","41","","","","19","","15","","24.1","","97.14","","","","","","Mostly Cloudy"
"-105.27","55.15","LA RONGE A","4064155","2022-09-27 19:00","2022","09","27","19:00","19.2","","6.8","","44","","","","19","","15","","24.1","","97.11","","","","","","NA"
"-105.27","55.15","LA RONGE A","4064155","2022-09-27 20:00","2022","09","27","20:00","16.0","","7.6","","57","","","","17","","12","","24.1","","97.07","","","","","","NA"
"-105.27","55.15","LA RONGE A","4064155","2022-09-27 21:00","2022","09","27","21:00","16.2","","6.4","","52","","","","18","","13","","24.1","","97.07","","","","","","Mainly Clear"
"-105.27","55.15","LA RONGE A","4064155","2022-09-27 22:00","2022","09","27","22:00","14.7","","6.5","","58","","","","17","","10","","24.1","","97.07","","","","","","NA"
"-105.27","55.15","LA RONGE A","4064155","2022-09-27 23:00","2022","09","27","23:00","14.4","","6.3","","58","","","","17","","12","","24.1","","97.05","","","","","","NA"
"-105.27","55.15","LA RONGE A","4064155","2022-09-28 00:00","2022","09","28","00:00","13.7","","5.9","","59","","","","17","","10","","24.1","","97.03","","","","","","Mostly Cloudy"
"-105.27","55.15","LA RONGE A","4064155","2022-09-28 01:00","2022","09","28","01:00","13.6","","5.6","","58","","","","18","","9","","24.1","","97.00","","","","","","NA"
"-105.27","55.15","LA RONGE A","4064155","2022-09-28 02:00","2022","09","28","02:00","13.6","","5.9","","59","","","","18","","10","","24.1","","96.97","","","","","","NA"
"-105.27","55.15","LA RONGE A","4064155","2022-09-28 03:00","2022","09","28","03:00","12.8","","5.8","","62","","","","17","","13","","24.1","","96.91","","","","","","Clear"
"-105.27","55.15","LA RONGE A","4064155","2022-09-28 04:00","2022","09","28","04:00","12.4","","5.8","","64","","","","18","","11","","24.1","","96.90","","","","","","NA"
"-105.27","55.15","LA RONGE A","4064155","2022-09-28 05:00","2022","09","28","05:00","12.5","","5.8","","63","","","","17","","12","","24.1","","96.86","","","","","","NA"
"-105.27","55.15","LA RONGE A","4064155","2022-09-28 06:00","2022","09","28","06:00","9.3","","5.5","","77","","","","36","","3","","24.1","","96.88","","","","","","Clear"
"-105.27","55.15","LA RONGE A","4064155","2022-09-28 07:00","2022","09","28","07:00","9.1","","5.0","","75","","","","36","","3","","24.1","","96.88","","","","","","NA"
"-105.27","55.15","LA RONGE A","4064155","2022-09-28 08:00","2022","09","28","08:00","12.8","","6.2","","64","","","","18","","13","","24.1","","96.85","","","","","","NA"
"-105.27","55.15","LA RONGE A","4064155","2022-09-28 09:00","2022","09","28","09:00","13.6","","5.9","","60","","","","17","","12","","24.1","","96.85","","","","","","Mainly Clear"
"-105.27","55.15","LA RONGE A","4064155","2022-09-28 10:00","2022","09","28","10:00","15.6","","6.8","","56","","","","13","","7","","24.1","","96.84","","","","","","NA"
"-105.27","55.15","LA RONGE A","4064155","2022-09-28 11:00","2022","09","28","11:00","16.9","","7.7","","54","","","","12","","9","","24.1","","96.83","","","","","","NA"
"-105.27","55.15","LA RONGE A","4064155","2022-09-28 12:00","2022","09","28","12:00","18.1","","8.3","","52","","","","13","","11","","24.1","","96.79","","","","","","Mainly Clear"
"-105.27","55.15","LA RONGE A","4064155","2022-09-28 13:00","2022","09","28","13:00","19.4","","8.4","","48","","","","12","","10","","24.1","","96.77","","","","","","NA"
"-105.27","55.15","LA RONGE A","4064155","2022-09-28 14:00","2022","09","28","14:00","20.4","","8.2","","45","","","","17","","7","","24.1","","96.73","","","","","","NA"
"-105.27","55.15","LA RONGE A","4064155","2022-09-28 15:00","2022","09","28","15:00","21.9","","9.1","","43","","","","15","","5","","24.1","","96.71","","","","","","Mainly Clear"
"-105.27","55.15","LA RONGE A","4064155","2022-09-28 16:00","2022","09","28","16:00","23.0","","9.7","","42","","","","18","","5","","24.1","","96.70","","","","","","NA"
"-105.27","55.15","LA RONGE A","4064155","2022-09-28 17:00","2022","09","28","17:00","21.5","","10.5","","49","","","","6","","4","","24.1","","96.69","","","","","","NA"
"-105.27","55.15","LA RONGE A","4064155","2022-09-28 18:00","2022","09","28","18:00","19.1","","10.3","","56","","","","5","","4","","24.1","","96.72","","","","","","Mainly Clear"
"-105.27","55.15","LA RONGE A","4064155","2022-09-28 19:00","2022","09","28","19:00","14.7","","10.3","","75","","","","36","","2","","24.1","","96.75","","","","","","NA"
"-105.27","55.15","LA RONGE A","4064155","2022-09-28 20:00","2022","09","28","20:00","12.0","","8.6","","80","","","","19","","4","","24.1","","96.78","","","","","","NA"
"-105.27","55.15","LA RONGE A","4064155","2022-09-28 21:00","2022","09","28","21:00","10.3","","8.5","","89","","","","22","","3","","24.1","","96.81","","","","","","Clear"
"-105.27","55.15","LA RONGE A","4064155","2022-09-28 22:00","2022","09","28","22:00","10.5","","8.8","","89","","","","16","","4","","24.1","","96.82","","","","","","NA"
"-105.27","55.15","LA RONGE A","4064155","2022-09-28 23:00","2022","09","28","23:00","9.6","","8.1","","90","","","","36","","2","","24.1","","96.85","","","","","","NA"
"-105.27","55.15","LA RONGE A","4064155","2022-09-29 00:00","2022","09","29","00:00","7.9","","7.1","","95","","","","0","","1","","24.1","","96.87","","","","","","Clear"
"-105.27","55.15","LA RONGE A","4064155","2022-09-29 01:00","2022","09","29","01:00","7.2","","6.3","","93","","","","36","","1","","24.1","","96.90","","","","","","NA"
"-105.27","55.15","LA RONGE A","4064155","2022-09-29 02:00","2022","09","29","02:00","7.0","","6.2","","94","","","","36","","3","","24.1","","96.93","","","","","","NA"
"-105.27","55.15","LA RONGE A","4064155","2022-09-29 03:00","2022","09","29","03:00","7.4","","6.3","","93","","","","18","","3","","24.1","","96.92","","","","","","Clear"
"-105.27","55.15","LA RONGE A","4064155","2022-09-29 04:00","2022","09","29","04:00","6.6","","5.0","","90","","","","36","","2","","24.1","","96.94","","","","","","NA"
"-105.27","55.15","LA RONGE A","4064155","2022-09-29 05:00","2022","09","29","05:00","5.7","","5.1","","96","","","","18","","4","","24.1","","96.97","","","","","","NA"
"-105.27","55.15","LA RONGE A","4064155","2022-09-29 06:00","2022","09","29","06:00","4.9","","4.3","","96","","","","22","","3","","24.1","","97.01","","","","","","Mainly Clear"
"-105.27","55.15","LA RONGE A","4064155","2022-09-29 07:00","2022","09","29","07:00","4.7","","3.9","","95","","","","27","","4","","24.1","","97.04","","","","","","NA"
"-105.27","55.15","LA RONGE A","4064155","2022-09-29 08:00","2022","09","29","08:00","7.3","","6.4","","94","","","","36","","2","","24.1","","97.06","","","","","","NA"
"-105.27","55.15","LA RONGE A","4064155","2022-09-29 09:00","2022","09","29","09:00","13.1","","10.1","","82","","","","16","","3","","24.1","","97.12","","","","","","Mainly Clear"
"-105.27","55.15","LA RONGE A","4064155","2022-09-29 10:00","2022","09","29","10:00","16.1","","12.9","","81","","","","5","","9","","24.1","","97.19","","","","","","NA"
"-105.27","55.15","LA RONGE A","4064155","2022-09-29 11:00","2022","09","29","11:00","17.2","","12.5","","74","","","","5","","19","","24.1","","97.23","","","","","","NA"
"-105.27","55.15","LA RONGE A","4064155","2022-09-29 12:00","2022","09","29","12:00","17.9","","12.3","","70","","","","5","","20","","24.1","","97.27","","","","","","Mainly Clear"
"-105.27","55.15","LA RONGE A","4064155","2022-09-29 13:00","2022","09","29","13:00","17.8","","12.4","","70","","","","5","","22","","24.1","","97.29","","","","","","NA"
"-105.27","55.15","LA RONGE A","4064155","2022-09-29 14:00","2022","09","29","14:00","17.8","","12.3","","70","","","","5","","22","","24.1","","97.29","","","","","","NA"
"-105.27","55.15","LA RONGE A","4064155","2022-09-29 15:00","2022","09","29","15:00","18.4","","11.8","","65","","","","5","","23","","24.1","","97.33","","","","","","Mainly Clear"
"-105.27","55.15","LA RONGE A","4064155","2022-09-29 16:00","2022","09","29","16:00","18.3","","11.5","","64","","","","5","","23","","24.1","","97.36","","","","","","NA"
"-105.27","55.15","LA RONGE A","4064155","2022-09-29 17:00","2022","09","29","17:00","17.4","","11.1","","66","","","","5","","22","","24.1","","97.42","","","","","","NA"
"-105.27","55.15","LA RONGE A","4064155","2022-09-29 18:00","2022","09","29","18:00","15.4","","10.4","","72","","","","4","","21","","24.1","","97.48","","","","","","Mainly Clear"
"-105.27","55.15","LA RONGE A","4064155","2022-09-29 19:00","2022","09","29","19:00","13.9","","9.2","","73","","","","4","","24","","24.1","","97.57","","","","","","NA"
"-105.27","55.15","LA RONGE A","4064155","2022-09-29 20:00","2022","09","29","20:00","12.8","","8.4","","74","","","","5","","24","","24.1","","97.65","","","","","","NA"
"-105.27","55.15","LA RONGE A","4064155","2022-09-29 21:00","2022","09","29","21:00","12.3","","6.5","","68","","","","7","","19","","24.1","","97.73","","","","","","Mainly Clear"
"-105.27","55.15","LA RONGE A","4064155","2022-09-29 22:00","2022","09","29","22:00","11.6","","6.5","","71","","","","7","","17","","24.1","","97.78","","","","","","NA"
"-105.27","55.15","LA RONGE A","4064155","2022-09-29 23:00","2022","09","29","23:00","11.4","","5.7","","68","","","","7","","15","","24.1","","97.83","","","","","","NA"
"-105.27","55.15","LA RONGE A","4064155","2022-09-30 00:00","2022","09","30","00:00","11.4","","5.3","","66","","","","7","","17","","24.1","","97.87","","","","","","Cloudy"
"-105.27","55.15","LA RONGE A","4064155","2022-09-30 01:00","2022","09","30","01:00","11.1","","5.2","","67","","","","8","","17","","24.1","","97.88","","","","","","NA"
"-105.27","55.15","LA RONGE A","4064155","2022-09-30 02:00","2022","09","30","02:00","11.1","","5.1","","66","","","","9","","19","","24.1","","97.90","","","","","","NA"
"-105.27","55.15","LA RONGE A","4064155","2022-09-30 03:00","2022","09","30","03:00","10.5","","4.7","","67","","","","7","","18","","24.1","","97.94","","","","","","Mainly Clear"
"-105.27","55.15","LA RONGE A","4064155","2022-09-30 04:00","2022","09","30","04:00","10.5","","4.7","","67","","","","8","","21","","24.1","","97.96","","","","","","NA"
"-105.27","55.15","LA RONGE A","4064155","2022-09-30 05:00","2022","09","30","05:00","10.5","","5.4","","71","","","","8","","18","","24.1","","98.01","","","","","","NA"
"-105.27","55.15","LA RONGE A","4064155","2022-09-30 06:00","2022","09","30","06:00","10.1","","4.9","","70","","","","10","","16","","24.1","","98.06","","","","","","Cloudy"
"-105.27","55.15","LA RONGE A","4064155","2022-09-30 07:00","2022","09","30","07:00","10.0","","5.1","","71","","","","9","","18","","24.1","","98.06","","","","","","NA"
"-105.27","55.15","LA RONGE A","4064155","2022-09-30 08:00","2022","09","30","08:00","9.6","","5.2","","74","","","","8","","17","","24.1","","98.10","","","","","","NA"
"-105.27","55.15","LA RONGE A","4064155","2022-09-30 09:00","2022","09","30","09:00","9.6","","5.4","","75","","","","9","","19","","24.1","","98.13","","","","","","Rain"
"-105.27","55.15","LA RONGE A","4064155","2022-09-30 10:00","2022","09","30","10:00","9.6","","4.9","","72","","","","8","","18","","24.1","","98.19","","","","","","NA"
"-105.27","55.15","LA RONGE A","4064155","2022-09-30 11:00","2022","09","30","11:00","9.9","","5.5","","74","","","","9","","22","","24.1","","98.19","","","","","","Rain"
"-105.27","55.15","LA RONGE A","4064155","2022-09-30 12:00","2022","09","30","12:00","9.5","","5.5","","76","","","","10","","17","","24.1","","98.20","","","","","","Cloudy"
"-105.27","55.15","LA RONGE A","4064155","2022-09-30 13:00","2022","09","30","13:00","8.6","","6.7","","88","","","","9","","14","","24.1","","98.22","","","","","","Rain"
"-105.27","55.15","LA RONGE A","4064155","2022-09-30 14:00","2022","09","30","14:00","8.4","","7.0","","91","","","","10","","13","","24.1","","98.21","","","","","","Rain"
"-105.27","55.15","LA RONGE A","4064155","2022-09-30 15:00","2022","09","30","15:00","8.0","","6.7","","92","","","","9","","16","","24.1","","98.21","","","","","","Rain"
"-105.27","55.15","LA RONGE A","4064155","2022-09-30 16:00","2022","09","30","16:00","8.2","","7.2","","93","","","","8","","15","","24.1","","98.19","","","","","","Rain"
"-105.27","55.15","LA RONGE A","4064155","2022-09-30 17:00","2022","09","30","17:00","8.3","","7.5","","95","","","","9","","9","","24.1","","98.17","","","","","","Rain"
"-105.27","55.15","LA RONGE A","4064155","2022-09-30 18:00","2022","09","30","18:00","8.4","","7.4","","94","","","","9","","11","","24.1","","98.16","","","","","","Rain"
"-105.27","55.15","LA RONGE A","4064155","2022-09-30 19:00","2022","09","30","19:00","8.5","","7.6","","94","","","","10","","11","","19.3","","98.17","","","","","","Rain"
"-105.27","55.15","LA RONGE A","4064155","2022-09-30 20:00","2022","09","30","20:00","8.5","","7.5","","93","","","","10","","10","","24.1","","98.19","","","","","","NA"
"-105.27","55.15","LA RONGE A","4064155","2022-09-30 21:00","2022","09","30","21:00","8.8","","7.0","","89","","","","13","","13","","24.1","","98.22","","","","","","Cloudy"
"-105.27","55.15","LA RONGE A","4064155","2022-09-30 22:00","2022","09","30","22:00","8.6","","7.7","","94","","","","12","","7","","24.1","","98.23","","","","","","NA"
"-105.27","55.15","LA RONGE A","4064155","2022-09-30 23:00","2022","09","30","23:00","8.7","","7.0","","88","","","","12","","15","","24.1","","98.25","","","","","","NA"
