"Longitude (x)","Latitude (y)","Station Name","Climate ID","Date/Time (LST)","Year","Month","Day","Time (LST)","Temp (°C)","Temp Flag","Dew Point Temp (°C)","Dew Point Temp Flag","Rel Hum (%)","Rel Hum Flag","Precip. Amount (mm)","Precip. Amount Flag","Wind Dir (10s deg)","Wind Dir Flag","Wind Spd (km/h)","Wind Spd Flag","Visibility (km)","Visibility Flag","Stn Press (kPa)","Stn Press Flag","Hmdx","Hmdx Flag","Wind Chill","Wind Chill Flag","Weather"
"-77.53","44.12","TRENTON AWOS","6158872","2021-02-01 00:00","2021","02","01","00:00","-14.1","","-20.6","","58","","","","4","","19","","14.5","","101.28","","","","-23","","NA"
"-77.53","44.12","TRENTON AWOS","6158872","2021-02-01 01:00","2021","02","01","01:00","-14.3","","-20.6","","59","","","","4","","17","","14.5","","101.24","","","","-23","","NA"
"-77.53","44.12","TRENTON AWOS","6158872","2021-02-01 02:00","2021","02","01","02:00","-14.7","","-20.8","","60","","","","4","","17","","14.5","","101.24","","","","-23","","NA"
"-77.53","44.12","TRENTON AWOS","6158872","2021-02-01 03:00","2021","02","01","03:00","-15.5","","-21.3","","61","","","","3","","9","","14.5","","101.22","","","","-21","","NA"
"-77.53","44.12","TRENTON AWOS","6158872","2021-02-01 04:00","2021","02","01","04:00","-15.9","","-21.5","","62","","","","3","","13","","14.5","","101.18","","","","-23","","NA"
"-77.53","44.12","TRENTON AWOS","6158872","2021-02-01 05:00","2021","02","01","05:00","-16.0","","-21.6","","62","","","","4","","13","","14.5","","101.15","","","","-24","","NA"
"-77.53","44.12","TRENTON AWOS","6158872","2021-02-01 06:00","2021","02","01","06:00","-15.9","","-21.8","","61","","","","4","","11","","14.5","","101.16","","","","-23","","NA"
"-77.53","44.12","TRENTON AWOS","6158872","2021-02-01 07:00","2021","02","01","07:00","-15.8","","-21.5","","62","","","","4","","13","","14.5","","101.20","","","","-23","","NA"
"-77.53","44.12","TRENTON AWOS","6158872","2021-02-01 08:00","2021","02","01","08:00","-15.2","","-21.1","","61","","","","4","","15","","14.5","","101.21","","","","-23","","NA"
"-77.53","44.12","TRENTON AWOS","6158872","2021-02-01 09:00","2021","02","01","09:00","-14.1","","-20.2","","60","","","","5","","17","","14.5","","101.21","","","","-22","","NA"
"-77.53","44.12","TRENTON AWOS","6158872","2021-02-01 10:00","2021","02","01","10:00","-12.7","","-19.5","","57","","","","5","","20","","14.5","","101.17","","","","-21","","NA"
"-77.53","44.12","TRENTON AWOS","6158872","2021-02-01 11:00","2021","02","01","11:00","-10.8","","-18.0","","55","","","","4","","20","","14.5","","101.11","","","","-19","","NA"
"-77.53","44.12","TRENTON AWOS","6158872","2021-02-01 12:00","2021","02","01","12:00","-9.1","","-17.6","","50","","","","3","","13","","14.5","","101.01","","","","-15","","NA"
"-77.53","44.12","TRENTON AWOS","6158872","2021-02-01 13:00","2021","02","01","13:00","-7.5","","-16.6","","48","","","","2","","20","","14.5","","100.89","","","","-15","","Snow"
"-77.53","44.12","TRENTON AWOS","6158872","2021-02-01 14:00","2021","02","01","14:00","-6.3","","-16.0","","46","","","","2","","24","","14.5","","100.82","","","","-14","","NA"
"-77.53","44.12","TRENTON AWOS","6158872","2021-02-01 15:00","2021","02","01","15:00","-5.0","","-15.3","","44","","","","3","","20","","14.5","","100.81","","","","-12","","NA"
"-77.53","44.12","TRENTON AWOS","6158872","2021-02-01 16:00","2021","02","01","16:00","-4.1","","-14.8","","43","","","","3","","17","","14.5","","100.77","","","","-10","","NA"
"-77.53","44.12","TRENTON AWOS","6158872","2021-02-01 17:00","2021","02","01","17:00","-5.3","","-15.0","","46","","","","4","","13","","14.5","","100.81","","","","-10","","NA"
"-77.53","44.12","TRENTON AWOS","6158872","2021-02-01 18:00","2021","02","01","18:00","-5.5","","-15.4","","46","","","","3","","17","","14.5","","100.82","","","","-12","","NA"
"-77.53","44.12","TRENTON AWOS","6158872","2021-02-01 19:00","2021","02","01","19:00","-6.3","","-16.1","","46","","","","5","","17","","14.5","","100.83","","","","-13","","NA"
"-77.53","44.12","TRENTON AWOS","6158872","2021-02-01 20:00","2021","02","01","20:00","-6.5","","-16.0","","47","","","","3","","17","","14.5","","100.80","","","","-13","","NA"
"-77.53","44.12","TRENTON AWOS","6158872","2021-02-01 21:00","2021","02","01","21:00","-6.4","","-15.1","","50","","","","4","","20","","14.5","","100.79","","","","-13","","NA"
"-77.53","44.12","TRENTON AWOS","6158872","2021-02-01 22:00","2021","02","01","22:00","-7.9","","-15.9","","53","","","","3","","17","","14.5","","100.76","","","","-15","","NA"
"-77.53","44.12","TRENTON AWOS","6158872","2021-02-01 23:00","2021","02","01","23:00","-9.0","","-16.1","","56","","","","3","","13","","14.5","","100.72","","","","-15","","NA"
"-77.53","44.12","TRENTON AWOS","6158872","2021-02-02 00:00","2021","02","02","00:00","-8.5","","-14.9","","60","","","","3","","15","","14.5","","100.67","","","","-15","","NA"
"-77.53","44.12","TRENTON AWOS","6158872","2021-02-02 01:00","2021","02","02","01:00","-8.2","","-13.7","","65","","","","3","","20","","14.5","","100.56","","","","-16","","NA"
"-77.53","44.12","TRENTON AWOS","6158872","2021-02-02 02:00","2021","02","02","02:00","-7.8","","-13.9","","62","","","","3","","17","","14.5","","100.51","","","","-14","","NA"
"-77.53","44.12","TRENTON AWOS","6158872","2021-02-02 03:00","2021","02","02","03:00","-7.8","","-14.2","","60","","","","3","","19","","14.5","","100.49","","","","-15","","NA"
"-77.53","44.12","TRENTON AWOS","6158872","2021-02-02 04:00","2021","02","02","04:00","-7.8","","-13.9","","62","","","","2","","19","","14.5","","100.47","","","","-15","","NA"
"-77.53","44.12","TRENTON AWOS","6158872","2021-02-02 05:00","2021","02","02","05:00","-7.3","","-13.0","","64","","","","2","","24","","14.5","","100.43","","","","-15","","NA"
"-77.53","44.12","TRENTON AWOS","6158872","2021-02-02 06:00","2021","02","02","06:00","-7.1","","-11.2","","73","","","","2","","22","","14.5","","100.36","","","","-15","","NA"
"-77.53","44.12","TRENTON AWOS","6158872","2021-02-02 07:00","2021","02","02","07:00","-5.7","","-9.2","","76","","","","2","","26","","14.5","","100.28","","","","-13","","Rain"
"-77.53","44.12","TRENTON AWOS","6158872","2021-02-02 08:00","2021","02","02","08:00","-6.1","","-9.5","","77","","","","2","","20","","14.5","","100.26","","","","-13","","Snow"
"-77.53","44.12","TRENTON AWOS","6158872","2021-02-02 09:00","2021","02","02","09:00","-6.1","","-10.5","","71","","","","1","","13","","14.5","","100.20","","","","-11","","NA"
"-77.53","44.12","TRENTON AWOS","6158872","2021-02-02 10:00","2021","02","02","10:00","-5.4","","-10.2","","69","","","","36","","17","","14.5","","100.11","","","","-11","","NA"
"-77.53","44.12","TRENTON AWOS","6158872","2021-02-02 11:00","2021","02","02","11:00","-3.8","","-9.0","","67","","","","36","","17","","8.0","","99.99","","","","-10","","Snow"
"-77.53","44.12","TRENTON AWOS","6158872","2021-02-02 12:00","2021","02","02","12:00","-2.6","","-6.2","","76","","","","2","","19","","2.9","","99.88","","","","-8","","Snow"
"-77.53","44.12","TRENTON AWOS","6158872","2021-02-02 13:00","2021","02","02","13:00","-1.6","","-4.6","","80","","","","2","","24","","1.9","","99.76","","","","-8","","Snow"
"-77.53","44.12","TRENTON AWOS","6158872","2021-02-02 14:00","2021","02","02","14:00","-1.9","","-4.2","","84","","","","2","","24","","1.1","","99.75","","","","-8","","Snow"
"-77.53","44.12","TRENTON AWOS","6158872","2021-02-02 15:00","2021","02","02","15:00","-1.6","","-3.6","","86","","","","1","","20","","1.4","","99.73","","","","-7","","Snow"
"-77.53","44.12","TRENTON AWOS","6158872","2021-02-02 16:00","2021","02","02","16:00","-1.4","","-3.5","","86","","","","1","","24","","1.4","","99.69","","","","-8","","Snow"
"-77.53","44.12","TRENTON AWOS","6158872","2021-02-02 17:00","2021","02","02","17:00","-1.1","","-3.4","","84","","","","1","","24","","1.8","","99.69","","","","-7","","Snow"
"-77.53","44.12","TRENTON AWOS","6158872","2021-02-02 18:00","2021","02","02","18:00","0.8","","-7.4","","54","","","","36","","17","","14.5","","99.67","","","","","","NA"
"-77.53","44.12","TRENTON AWOS","6158872","2021-02-02 19:00","2021","02","02","19:00","1.6","","-7.3","","52","","","","1","","22","","14.5","","99.65","","","","","","Snow"
"-77.53","44.12","TRENTON AWOS","6158872","2021-02-02 20:00","2021","02","02","20:00","1.8","","-7.3","","51","","","","36","","19","","14.5","","99.62","","","","","","Snow"
"-77.53","44.12","TRENTON AWOS","6158872","2021-02-02 21:00","2021","02","02","21:00","1.9","","-8.4","","46","","","","36","","24","","14.5","","99.58","","","","","","Snow"
"-77.53","44.12","TRENTON AWOS","6158872","2021-02-02 22:00","2021","02","02","22:00","1.2","","-8.6","","48","","","","36","","22","","14.5","","99.55","","","","","","Snow"
"-77.53","44.12","TRENTON AWOS","6158872","2021-02-02 23:00","2021","02","02","23:00","0.6","","-7.6","","54","","","","1","","19","","14.5","","99.55","","","","","","Snow"
"-77.53","44.12","TRENTON AWOS","6158872","2021-02-03 00:00","2021","02","03","00:00","0.1","","-7.8","","55","","","","36","","17","","14.5","","99.54","","","","","","Snow"
"-77.53","44.12","TRENTON AWOS","6158872","2021-02-03 01:00","2021","02","03","01:00","-0.7","","-8.0","","58","","","","36","","22","","14.5","","99.53","","","","-6","","NA"
"-77.53","44.12","TRENTON AWOS","6158872","2021-02-03 02:00","2021","02","03","02:00","-1.2","","-7.8","","61","","","","36","","19","","14.5","","99.52","","","","-7","","NA"
"-77.53","44.12","TRENTON AWOS","6158872","2021-02-03 03:00","2021","02","03","03:00","-1.9","","-8.0","","63","","","","35","","20","","14.5","","99.53","","","","-8","","NA"
"-77.53","44.12","TRENTON AWOS","6158872","2021-02-03 04:00","2021","02","03","04:00","-2.4","","-9.3","","59","","","","36","","20","","14.5","","99.52","","","","-8","","Snow"
"-77.53","44.12","TRENTON AWOS","6158872","2021-02-03 05:00","2021","02","03","05:00","-3.0","","-9.6","","60","","","","36","","20","","14.5","","99.55","","","","-9","","NA"
"-77.53","44.12","TRENTON AWOS","6158872","2021-02-03 06:00","2021","02","03","06:00","-3.6","","-10.1","","61","","","","34","","13","","14.5","","99.58","","","","-8","","NA"
"-77.53","44.12","TRENTON AWOS","6158872","2021-02-03 07:00","2021","02","03","07:00","-4.0","","-10.9","","59","","","","34","","17","","14.5","","99.63","","","","-10","","NA"
"-77.53","44.12","TRENTON AWOS","6158872","2021-02-03 08:00","2021","02","03","08:00","-4.6","","-11.0","","61","","","","34","","19","","14.5","","99.68","","","","-11","","NA"
"-77.53","44.12","TRENTON AWOS","6158872","2021-02-03 09:00","2021","02","03","09:00","-4.3","","-10.5","","62","","","","35","","15","","14.5","","99.70","","","","-10","","NA"
"-77.53","44.12","TRENTON AWOS","6158872","2021-02-03 10:00","2021","02","03","10:00","-3.6","","-10.2","","60","","","","34","","24","","14.5","","99.69","","","","-10","","Snow"
"-77.53","44.12","TRENTON AWOS","6158872","2021-02-03 11:00","2021","02","03","11:00","-2.2","","-9.5","","57","","","","34","","19","","14.5","","99.67","","","","-8","","NA"
"-77.53","44.12","TRENTON AWOS","6158872","2021-02-03 12:00","2021","02","03","12:00","-0.2","","-8.6","","53","","","","32","","20","","14.5","","99.60","","","","-5","","Snow"
"-77.53","44.12","TRENTON AWOS","6158872","2021-02-03 13:00","2021","02","03","13:00","1.5","","-7.7","","50","","","","36","","24","","14.5","","99.57","","","","","","Snow"
"-77.53","44.12","TRENTON AWOS","6158872","2021-02-03 14:00","2021","02","03","14:00","2.5","","-6.5","","51","","","","36","","19","","14.5","","99.57","","","","","","Snow"
"-77.53","44.12","TRENTON AWOS","6158872","2021-02-03 15:00","2021","02","03","15:00","3.7","","-6.8","","46","","","","36","","22","","","M","99.56","","","","","","NA"
"-77.53","44.12","TRENTON AWOS","6158872","2021-02-03 16:00","2021","02","03","16:00","4.4","","-9.0","","37","","","","35","","19","","14.5","","99.61","","","","","","NA"
"-77.53","44.12","TRENTON AWOS","6158872","2021-02-03 17:00","2021","02","03","17:00","3.4","","-10.5","","35","","","","33","","19","","14.5","","99.66","","","","","","NA"
"-77.53","44.12","TRENTON AWOS","6158872","2021-02-03 18:00","2021","02","03","18:00","2.3","","-14.2","","28","","","","34","","20","","14.5","","99.71","","","","","","NA"
"-77.53","44.12","TRENTON AWOS","6158872","2021-02-03 19:00","2021","02","03","19:00","0.9","","-13.9","","32","","","","33","","17","","14.5","","99.75","","","","","","NA"
"-77.53","44.12","TRENTON AWOS","6158872","2021-02-03 20:00","2021","02","03","20:00","0.4","","-13.7","","34","","","","32","","22","","14.5","","99.77","","","","","","NA"
"-77.53","44.12","TRENTON AWOS","6158872","2021-02-03 21:00","2021","02","03","21:00","-0.7","","-13.3","","38","","","","31","","17","","14.5","","99.80","","","","-6","","NA"
"-77.53","44.12","TRENTON AWOS","6158872","2021-02-03 22:00","2021","02","03","22:00","-1.8","","-12.7","","43","","","","32","","15","","14.5","","99.86","","","","-7","","NA"
"-77.53","44.12","TRENTON AWOS","6158872","2021-02-03 23:00","2021","02","03","23:00","-2.4","","-12.2","","47","","","","32","","15","","14.5","","99.92","","","","-7","","NA"
"-77.53","44.12","TRENTON AWOS","6158872","2021-02-04 00:00","2021","02","04","00:00","-3.1","","-11.8","","51","","","","31","","15","","14.5","","100.00","","","","-8","","NA"
"-77.53","44.12","TRENTON AWOS","6158872","2021-02-04 01:00","2021","02","04","01:00","-3.3","","-11.6","","53","","","","31","","15","","14.5","","100.02","","","","-8","","NA"
"-77.53","44.12","TRENTON AWOS","6158872","2021-02-04 02:00","2021","02","04","02:00","-4.0","","-11.4","","56","","","","32","","15","","14.5","","100.07","","","","-9","","NA"
"-77.53","44.12","TRENTON AWOS","6158872","2021-02-04 03:00","2021","02","04","03:00","-4.0","","-11.1","","58","","","","32","","20","","14.5","","100.11","","","","-10","","NA"
"-77.53","44.12","TRENTON AWOS","6158872","2021-02-04 04:00","2021","02","04","04:00","-4.5","","-10.9","","61","","","","32","","17","","14.5","","100.15","","","","-10","","NA"
"-77.53","44.12","TRENTON AWOS","6158872","2021-02-04 05:00","2021","02","04","05:00","-5.0","","-10.8","","64","","","","33","","17","","14.5","","100.21","","","","-11","","NA"
"-77.53","44.12","TRENTON AWOS","6158872","2021-02-04 06:00","2021","02","04","06:00","-5.3","","-10.9","","65","","","","34","","13","","14.5","","100.23","","","","-10","","NA"
"-77.53","44.12","TRENTON AWOS","6158872","2021-02-04 07:00","2021","02","04","07:00","-5.7","","-11.2","","65","","","","35","","15","","14.5","","100.26","","","","-11","","NA"
"-77.53","44.12","TRENTON AWOS","6158872","2021-02-04 08:00","2021","02","04","08:00","-6.1","","-11.2","","67","","","","30","","7","","14.5","","100.30","","","","-9","","NA"
"-77.53","44.12","TRENTON AWOS","6158872","2021-02-04 09:00","2021","02","04","09:00","-4.2","","-10.3","","63","","","","28","","11","","14.5","","100.39","","","","-9","","NA"
"-77.53","44.12","TRENTON AWOS","6158872","2021-02-04 10:00","2021","02","04","10:00","-2.7","","-10.2","","56","","","","30","","6","","14.5","","100.39","","","","-5","","NA"
"-77.53","44.12","TRENTON AWOS","6158872","2021-02-04 11:00","2021","02","04","11:00","-0.2","","-9.3","","50","","","","25","","6","","14.5","","100.39","","","","-2","","NA"
"-77.53","44.12","TRENTON AWOS","6158872","2021-02-04 12:00","2021","02","04","12:00","0.9","","-8.4","","50","","","","18","","7","","14.5","","100.32","","","","","","NA"
"-77.53","44.12","TRENTON AWOS","6158872","2021-02-04 13:00","2021","02","04","13:00","2.2","","-7.4","","49","","","","20","","7","","14.5","","100.23","","","","","","NA"
"-77.53","44.12","TRENTON AWOS","6158872","2021-02-04 14:00","2021","02","04","14:00","2.5","","-5.7","","55","","","","20","","13","","14.5","","100.17","","","","","","NA"
"-77.53","44.12","TRENTON AWOS","6158872","2021-02-04 15:00","2021","02","04","15:00","2.3","","-5.6","","56","","","","19","","11","","14.5","","100.14","","","","","","NA"
"-77.53","44.12","TRENTON AWOS","6158872","2021-02-04 16:00","2021","02","04","16:00","1.8","","-4.9","","61","","","","21","","9","","14.5","","100.12","","","","","","NA"
"-77.53","44.12","TRENTON AWOS","6158872","2021-02-04 17:00","2021","02","04","17:00","0.5","","-3.2","","76","","","","17","","6","","14.5","","100.01","","","","","","NA"
"-77.53","44.12","TRENTON AWOS","6158872","2021-02-04 18:00","2021","02","04","18:00","-1.8","","-4.4","","82","","","","14","","6","","14.5","","99.95","","","","-4","","NA"
"-77.53","44.12","TRENTON AWOS","6158872","2021-02-04 19:00","2021","02","04","19:00","-3.5","","-5.2","","88","","","","","","0","","14.5","","99.94","","","","","","NA"
"-77.53","44.12","TRENTON AWOS","6158872","2021-02-04 20:00","2021","02","04","20:00","-4.7","","-5.3","","96","","","","","","0","","14.5","","99.89","","","","","","NA"
"-77.53","44.12","TRENTON AWOS","6158872","2021-02-04 21:00","2021","02","04","21:00","-6.1","","-7.0","","93","","","","","","0","","14.5","","99.78","","","","","","NA"
"-77.53","44.12","TRENTON AWOS","6158872","2021-02-04 22:00","2021","02","04","22:00","-3.0","","-4.5","","89","","","","9","","7","","14.5","","99.58","","","","-6","","NA"
"-77.53","44.12","TRENTON AWOS","6158872","2021-02-04 23:00","2021","02","04","23:00","-3.4","","-4.4","","93","","","","7","","7","","14.5","","99.51","","","","-6","","NA"
"-77.53","44.12","TRENTON AWOS","6158872","2021-02-05 00:00","2021","02","05","00:00","-2.9","","-3.5","","96","","","","6","","15","","14.5","","99.33","","","","-8","","NA"
"-77.53","44.12","TRENTON AWOS","6158872","2021-02-05 01:00","2021","02","05","01:00","-2.0","","-2.8","","94","","","","7","","6","","14.5","","99.24","","","","-4","","NA"
"-77.53","44.12","TRENTON AWOS","6158872","2021-02-05 02:00","2021","02","05","02:00","-2.1","","-2.8","","95","","","","8","","6","","14.5","","99.16","","","","-4","","NA"
"-77.53","44.12","TRENTON AWOS","6158872","2021-02-05 03:00","2021","02","05","03:00","2.4","","-3.1","","67","","","","16","","20","","14.5","","98.98","","","","","","NA"
"-77.53","44.12","TRENTON AWOS","6158872","2021-02-05 04:00","2021","02","05","04:00","0.3","","0.2","","99","","","","12","","13","","0.8","","98.72","","","","","","Freezing Rain"
"-77.53","44.12","TRENTON AWOS","6158872","2021-02-05 05:00","2021","02","05","05:00","0.7","","0.5","","99","","","","14","","17","","1.1","","98.62","","","","","","NA"
"-77.53","44.12","TRENTON AWOS","6158872","2021-02-05 06:00","2021","02","05","06:00","0.6","","0.5","","99","","","","16","","20","","0.8","","98.49","","","","","","NA"
"-77.53","44.12","TRENTON AWOS","6158872","2021-02-05 07:00","2021","02","05","07:00","0.9","","0.6","","98","","","","17","","22","","1.9","","98.41","","","","","","NA"
"-77.53","44.12","TRENTON AWOS","6158872","2021-02-05 08:00","2021","02","05","08:00","2.3","","1.0","","91","","","","19","","24","","14.5","","98.45","","","","","","Rain"
"-77.53","44.12","TRENTON AWOS","6158872","2021-02-05 09:00","2021","02","05","09:00","2.0","","-1.0","","81","","","","22","","39","","14.5","","98.50","","","","","","NA"
"-77.53","44.12","TRENTON AWOS","6158872","2021-02-05 10:00","2021","02","05","10:00","0.9","","-3.1","","75","","","","23","","35","","14.5","","98.61","","","","","","Snow"
"-77.53","44.12","TRENTON AWOS","6158872","2021-02-05 11:00","2021","02","05","11:00","0.6","","-4.0","","71","","","","23","","39","","14.5","","98.71","","","","","","Snow"
"-77.53","44.12","TRENTON AWOS","6158872","2021-02-05 12:00","2021","02","05","12:00","0.0","","-3.8","","76","","","","24","","44","","14.5","","98.73","","","","-8","","Snow"
"-77.53","44.12","TRENTON AWOS","6158872","2021-02-05 13:00","2021","02","05","13:00","-0.9","","-4.4","","77","","","","25","","46","","11.3","","98.80","","","","-9","","Snow"
"-77.53","44.12","TRENTON AWOS","6158872","2021-02-05 14:00","2021","02","05","14:00","-1.0","","-6.0","","69","","","","24","","43","","14.5","","98.85","","","","-9","","Snow"
"-77.53","44.12","TRENTON AWOS","6158872","2021-02-05 15:00","2021","02","05","15:00","-1.5","","-6.7","","68","","","","23","","46","","14.5","","98.96","","","","-10","","Snow"
"-77.53","44.12","TRENTON AWOS","6158872","2021-02-05 16:00","2021","02","05","16:00","-2.2","","-7.7","","66","","","","24","","59","","14.5","","99.04","","","","-12","","Snow"
"-77.53","44.12","TRENTON AWOS","6158872","2021-02-05 17:00","2021","02","05","17:00","-2.8","","-7.2","","72","","","","24","","35","","14.5","","99.14","","","","-11","","Snow"
"-77.53","44.12","TRENTON AWOS","6158872","2021-02-05 18:00","2021","02","05","18:00","-3.0","","-7.8","","69","","","","24","","33","","14.5","","99.20","","","","-11","","Snow"
"-77.53","44.12","TRENTON AWOS","6158872","2021-02-05 19:00","2021","02","05","19:00","-3.5","","-7.1","","76","","","","24","","43","","2.9","","99.24","","","","-12","","Snow"
"-77.53","44.12","TRENTON AWOS","6158872","2021-02-05 20:00","2021","02","05","20:00","-4.7","","-8.3","","76","","","","27","","24","","14.5","","99.31","","","","-12","","Rain"
"-77.53","44.12","TRENTON AWOS","6158872","2021-02-05 21:00","2021","02","05","21:00","-5.4","","-10.2","","69","","","","27","","26","","14.5","","99.41","","","","-13","","NA"
"-77.53","44.12","TRENTON AWOS","6158872","2021-02-05 22:00","2021","02","05","22:00","-5.1","","-10.7","","65","","","","25","","28","","14.5","","99.44","","","","-13","","NA"
"-77.53","44.12","TRENTON AWOS","6158872","2021-02-05 23:00","2021","02","05","23:00","-5.7","","-12.5","","59","","","","25","","20","","14.5","","99.48","","","","-12","","NA"
"-77.53","44.12","TRENTON AWOS","6158872","2021-02-06 00:00","2021","02","06","00:00","-5.8","","-12.4","","60","","","","25","","26","","14.5","","99.53","","","","-14","","Snow"
"-77.53","44.12","TRENTON AWOS","6158872","2021-02-06 01:00","2021","02","06","01:00","-7.0","","-12.7","","64","","","","25","","15","","14.5","","99.48","","","","-13","","NA"
"-77.53","44.12","TRENTON AWOS","6158872","2021-02-06 02:00","2021","02","06","02:00","-6.4","","-11.9","","65","","","","26","","7","","14.5","","99.44","","","","-10","","NA"
"-77.53","44.12","TRENTON AWOS","6158872","2021-02-06 03:00","2021","02","06","03:00","-6.2","","-10.1","","74","","","","27","","19","","2.6","","99.47","","","","-13","","Snow"
"-77.53","44.12","TRENTON AWOS","6158872","2021-02-06 04:00","2021","02","06","04:00","-6.1","","-11.9","","64","","","","28","","17","","14.5","","99.52","","","","-12","","NA"
"-77.53","44.12","TRENTON AWOS","6158872","2021-02-06 05:00","2021","02","06","05:00","-6.0","","-13.0","","58","","","","26","","22","","14.5","","99.62","","","","-13","","NA"
"-77.53","44.12","TRENTON AWOS","6158872","2021-02-06 06:00","2021","02","06","06:00","-6.1","","-13.0","","58","","","","26","","28","","14.5","","99.69","","","","-14","","NA"
"-77.53","44.12","TRENTON AWOS","6158872","2021-02-06 07:00","2021","02","06","07:00","-6.2","","-13.3","","57","","","","27","","30","","14.5","","99.78","","","","-15","","NA"
"-77.53","44.12","TRENTON AWOS","6158872","2021-02-06 08:00","2021","02","06","08:00","-6.8","","-10.2","","77","","","","27","","28","","9.7","","99.88","","","","-15","","Snow"
"-77.53","44.12","TRENTON AWOS","6158872","2021-02-06 09:00","2021","02","06","09:00","-6.1","","-12.5","","61","","","","26","","22","","14.5","","99.96","","","","-13","","NA"
"-77.53","44.12","TRENTON AWOS","6158872","2021-02-06 10:00","2021","02","06","10:00"
"-77.53","44.12","TRENTON AWOS","6158872","2021-02-06 11:00","2021","02","06","11:00","-6.1","","-12.4","","61","","","","26","","35","","14.5","","100.16","","","","-15","","Snow"
"-77.53","44.12","TRENTON AWOS","6158872","2021-02-06 12:00","2021","02","06","12:00","-5.9","","-11.5","","65","","","","27","","28","","14.5","","100.25","","","","-14","","Snow"
"-77.53","44.12","TRENTON AWOS","6158872","2021-02-06 13:00","2021","02","06","13:00","-6.0","","-12.4","","61","","","","27","","26","","14.5","","100.28","","","","-14","","Snow"
"-77.53","44.12","TRENTON AWOS","6158872","2021-02-06 14:00","2021","02","06","14:00","-5.6","","-12.9","","56","","","","25","","35","","14.5","","100.35","","","","-14","","Snow"
"-77.53","44.12","TRENTON AWOS","6158872","2021-02-06 15:00","2021","02","06","15:00","-5.7","","-11.3","","65","","","","27","","24","","14.5","","100.50","","","","-13","","Snow"
"-77.53","44.12","TRENTON AWOS","6158872","2021-02-06 16:00","2021","02","06","16:00","-5.4","","-12.2","","59","","","","26","","26","","14.5","","100.56","","","","-13","","NA"
"-77.53","44.12","TRENTON AWOS","6158872","2021-02-06 17:00","2021","02","06","17:00","-5.5","","-11.8","","61","","","","26","","24","","14.5","","100.64","","","","-13","","Snow"
"-77.53","44.12","TRENTON AWOS","6158872","2021-02-06 18:00","2021","02","06","18:00","-6.1","","-12.7","","60","","","","27","","22","","14.5","","100.68","","","","-13","","NA"
"-77.53","44.12","TRENTON AWOS","6158872","2021-02-06 19:00","2021","02","06","19:00","-7.3","","-13.3","","62","","","","27","","11","","14.5","","100.71","","","","-12","","NA"
"-77.53","44.12","TRENTON AWOS","6158872","2021-02-06 20:00","2021","02","06","20:00","-7.2","","-13.5","","61","","","","27","","15","","14.5","","100.76","","","","-13","","NA"
"-77.53","44.12","TRENTON AWOS","6158872","2021-02-06 21:00","2021","02","06","21:00","-7.2","","-13.0","","63","","","","28","","11","","14.5","","100.81","","","","-12","","NA"
"-77.53","44.12","TRENTON AWOS","6158872","2021-02-06 22:00","2021","02","06","22:00","-6.5","","-12.1","","64","","","","26","","6","","14.5","","100.81","","","","-9","","NA"
"-77.53","44.12","TRENTON AWOS","6158872","2021-02-06 23:00","2021","02","06","23:00","-6.9","","-12.1","","66","","","","11","","4","","14.5","","100.75","","","","-9","","Rain"
"-77.53","44.12","TRENTON AWOS","6158872","2021-02-07 00:00","2021","02","07","00:00","-7.9","","-11.8","","74","","","","7","","6","","14.5","","100.70","","","","-11","","NA"
"-77.53","44.12","TRENTON AWOS","6158872","2021-02-07 01:00","2021","02","07","01:00","-7.6","","-12.4","","68","","","","7","","7","","14.5","","100.65","","","","-11","","NA"
"-77.53","44.12","TRENTON AWOS","6158872","2021-02-07 02:00","2021","02","07","02:00","-7.5","","-12.3","","69","","","","7","","7","","14.5","","100.56","","","","-11","","NA"
"-77.53","44.12","TRENTON AWOS","6158872","2021-02-07 03:00","2021","02","07","03:00","-7.6","","-11.8","","72","","","","6","","6","","14.5","","100.50","","","","-11","","NA"
"-77.53","44.12","TRENTON AWOS","6158872","2021-02-07 04:00","2021","02","07","04:00","-8.9","","-12.2","","77","","","","1","","6","","14.5","","100.47","","","","-12","","NA"
"-77.53","44.12","TRENTON AWOS","6158872","2021-02-07 05:00","2021","02","07","05:00","-9.5","","-12.4","","79","","","","5","","7","","14.5","","100.38","","","","-13","","NA"
"-77.53","44.12","TRENTON AWOS","6158872","2021-02-07 06:00","2021","02","07","06:00","-9.3","","-12.3","","79","","","","6","","4","","14.5","","100.29","","","","-12","","NA"
"-77.53","44.12","TRENTON AWOS","6158872","2021-02-07 07:00","2021","02","07","07:00","-8.8","","-11.4","","81","","","","","","0","","14.5","","100.30","","","","","","Rain"
"-77.53","44.12","TRENTON AWOS","6158872","2021-02-07 08:00","2021","02","07","08:00","-8.5","","-10.3","","87","","","","4","","4","","3.2","","100.28","","","","-11","","Snow"
"-77.53","44.12","TRENTON AWOS","6158872","2021-02-07 09:00","2021","02","07","09:00","-7.9","","-9.1","","91","","","","32","","7","","1.1","","100.26","","","","-12","","Snow"
"-77.53","44.12","TRENTON AWOS","6158872","2021-02-07 10:00","2021","02","07","10:00","-6.4","","-8.3","","86","","","","30","","11","","3.1","","100.27","","","","-11","","Snow"
"-77.53","44.12","TRENTON AWOS","6158872","2021-02-07 11:00","2021","02","07","11:00","-5.5","","-8.1","","82","","","","26","","13","","6.4","","100.29","","","","-11","","Snow"
"-77.53","44.12","TRENTON AWOS","6158872","2021-02-07 12:00","2021","02","07","12:00","-5.1","","-9.9","","69","","","","26","","19","","14.5","","100.29","","","","-12","","NA"
"-77.53","44.12","TRENTON AWOS","6158872","2021-02-07 13:00","2021","02","07","13:00","-4.0","","-10.9","","59","","","","28","","20","","14.5","","100.27","","","","-10","","NA"
"-77.53","44.12","TRENTON AWOS","6158872","2021-02-07 14:00","2021","02","07","14:00","-4.0","","-12.1","","53","","","","27","","20","","14.5","","100.25","","","","-10","","NA"
"-77.53","44.12","TRENTON AWOS","6158872","2021-02-07 15:00","2021","02","07","15:00","-4.5","","-11.8","","57","","","","27","","24","","14.5","","100.28","","","","-12","","NA"
"-77.53","44.12","TRENTON AWOS","6158872","2021-02-07 16:00","2021","02","07","16:00","-5.2","","-12.1","","58","","","","28","","22","","14.5","","100.34","","","","-12","","NA"
"-77.53","44.12","TRENTON AWOS","6158872","2021-02-07 17:00","2021","02","07","17:00","-6.4","","-13.6","","57","","","","30","","28","","14.5","","100.45","","","","-15","","NA"
"-77.53","44.12","TRENTON AWOS","6158872","2021-02-07 18:00","2021","02","07","18:00","-7.8","","-15.6","","54","","","","28","","24","","14.5","","100.61","","","","-16","","NA"
"-77.53","44.12","TRENTON AWOS","6158872","2021-02-07 19:00","2021","02","07","19:00","-8.8","","-16.1","","56","","","","28","","17","","14.5","","100.76","","","","-16","","NA"
"-77.53","44.12","TRENTON AWOS","6158872","2021-02-07 20:00","2021","02","07","20:00","-9.4","","-16.0","","59","","","","27","","22","","14.5","","100.87","","","","-17","","NA"
"-77.53","44.12","TRENTON AWOS","6158872","2021-02-07 21:00","2021","02","07","21:00","-9.9","","-16.5","","59","","","","27","","24","","14.5","","100.96","","","","-18","","NA"
"-77.53","44.12","TRENTON AWOS","6158872","2021-02-07 22:00","2021","02","07","22:00","-11.0","","-16.7","","63","","","","27","","19","","14.5","","101.05","","","","-19","","NA"
"-77.53","44.12","TRENTON AWOS","6158872","2021-02-07 23:00","2021","02","07","23:00","-11.7","","-17.0","","65","","","","29","","15","","14.5","","101.11","","","","-19","","NA"
"-77.53","44.12","TRENTON AWOS","6158872","2021-02-08 00:00","2021","02","08","00:00","-12.4","","-17.2","","67","","","","29","","13","","14.5","","101.18","","","","-19","","NA"
"-77.53","44.12","TRENTON AWOS","6158872","2021-02-08 01:00","2021","02","08","01:00","-12.7","","-17.6","","67","","","","27","","9","","14.5","","101.26","","","","-18","","NA"
"-77.53","44.12","TRENTON AWOS","6158872","2021-02-08 02:00","2021","02","08","02:00","-13.7","","-17.7","","72","","","","25","","4","","14.5","","101.35","","","","-16","","NA"
"-77.53","44.12","TRENTON AWOS","6158872","2021-02-08 03:00","2021","02","08","03:00","-15.1","","-18.0","","79","","","","1","","4","","14.5","","101.39","","","","-18","","NA"
"-77.53","44.12","TRENTON AWOS","6158872","2021-02-08 04:00","2021","02","08","04:00","-17.1","","-18.2","","91","","","","","","0","","14.5","","101.41","","","","","","NA"
"-77.53","44.12","TRENTON AWOS","6158872","2021-02-08 05:00","2021","02","08","05:00","-18.7","","-19.9","","90","","","","","","0","","14.5","","101.52","","","","","","NA"
"-77.53","44.12","TRENTON AWOS","6158872","2021-02-08 06:00","2021","02","08","06:00","-19.8","","-21.0","","90","","","","","","0","","14.5","","101.57","","","","","","NA"
"-77.53","44.12","TRENTON AWOS","6158872","2021-02-08 07:00","2021","02","08","07:00","-20.4","","-21.6","","90","","","","2","","4","","14.5","","101.57","","","","-24","","NA"
"-77.53","44.12","TRENTON AWOS","6158872","2021-02-08 08:00","2021","02","08","08:00","-18.5","","-19.9","","89","","","","","","0","","14.5","","101.68","","","","","","NA"
"-77.53","44.12","TRENTON AWOS","6158872","2021-02-08 09:00","2021","02","08","09:00","-15.8","","-18.2","","82","","","","4","","6","","14.5","","101.70","","","","-20","","NA"
"-77.53","44.12","TRENTON AWOS","6158872","2021-02-08 10:00","2021","02","08","10:00","-9.9","","-15.9","","62","","","","","","0","","14.5","","101.74","","","","","","NA"
"-77.53","44.12","TRENTON AWOS","6158872","2021-02-08 11:00","2021","02","08","11:00","-8.9","","-15.6","","58","","","","17","","7","","14.5","","101.77","","","","-13","","NA"
"-77.53","44.12","TRENTON AWOS","6158872","2021-02-08 12:00","2021","02","08","12:00","-6.9","","-13.9","","57","","","","21","","7","","14.5","","101.69","","","","-10","","NA"
"-77.53","44.12","TRENTON AWOS","6158872","2021-02-08 13:00","2021","02","08","13:00","-6.1","","-12.0","","63","","","","23","","20","","14.5","","101.66","","","","-13","","NA"
"-77.53","44.12","TRENTON AWOS","6158872","2021-02-08 14:00","2021","02","08","14:00","-5.9","","-13.3","","56","","","","23","","22","","14.5","","101.60","","","","-13","","NA"
"-77.53","44.12","TRENTON AWOS","6158872","2021-02-08 15:00","2021","02","08","15:00","-5.8","","-14.4","","51","","","","22","","22","","14.5","","101.61","","","","-13","","NA"
"-77.53","44.12","TRENTON AWOS","6158872","2021-02-08 16:00","2021","02","08","16:00","-5.9","","-13.5","","55","","","","25","","19","","14.5","","101.62","","","","-13","","NA"
"-77.53","44.12","TRENTON AWOS","6158872","2021-02-08 17:00","2021","02","08","17:00","-6.3","","-13.4","","57","","","","24","","20","","14.5","","101.61","","","","-13","","NA"
"-77.53","44.12","TRENTON AWOS","6158872","2021-02-08 18:00","2021","02","08","18:00","-6.7","","-11.2","","70","","","","25","","17","","14.5","","101.64","","","","-13","","Snow"
"-77.53","44.12","TRENTON AWOS","6158872","2021-02-08 19:00","2021","02","08","19:00","-6.9","","-9.9","","79","","","","27","","7","","9.7","","101.66","","","","-10","","Snow"
"-77.53","44.12","TRENTON AWOS","6158872","2021-02-08 20:00","2021","02","08","20:00","-7.3","","-10.1","","80","","","","32","","6","","5.6","","101.69","","","","-10","","Snow"
"-77.53","44.12","TRENTON AWOS","6158872","2021-02-08 21:00","2021","02","08","21:00","-7.3","","-10.4","","79","","","","33","","4","","14.5","","101.64","","","","-9","","NA"
"-77.53","44.12","TRENTON AWOS","6158872","2021-02-08 22:00","2021","02","08","22:00","-7.4","","-10.2","","80","","","","","","0","","14.5","","101.63","","","","","","NA"
"-77.53","44.12","TRENTON AWOS","6158872","2021-02-08 23:00","2021","02","08","23:00","-7.5","","-9.6","","85","","","","","","0","","1.6","","101.62","","","","","","Snow"
"-77.53","44.12","TRENTON AWOS","6158872","2021-02-09 00:00","2021","02","09","00:00","-8.0","","-9.2","","91","","","","","","0","","1.8","","101.63","","","","","","Snow"
"-77.53","44.12","TRENTON AWOS","6158872","2021-02-09 01:00","2021","02","09","01:00","-9.2","","-9.9","","95","","","","","","0","","6.4","","101.59","","","","","","Snow"
"-77.53","44.12","TRENTON AWOS","6158872","2021-02-09 02:00","2021","02","09","02:00","-8.7","","-10.2","","89","","","","36","","4","","4.8","","101.55","","","","-11","","Snow"
"-77.53","44.12","TRENTON AWOS","6158872","2021-02-09 03:00","2021","02","09","03:00","-8.9","","-10.6","","88","","","","35","","6","","2.9","","101.53","","","","-12","","Snow"
"-77.53","44.12","TRENTON AWOS","6158872","2021-02-09 04:00","2021","02","09","04:00","-9.5","","-11.0","","89","","","","36","","6","","3.4","","101.48","","","","-13","","Snow"
"-77.53","44.12","TRENTON AWOS","6158872","2021-02-09 05:00","2021","02","09","05:00","-9.6","","-10.9","","90","","","","1","","6","","2.6","","101.42","","","","-13","","Snow"
"-77.53","44.12","TRENTON AWOS","6158872","2021-02-09 06:00","2021","02","09","06:00","-9.5","","-11.0","","89","","","","36","","6","","5.6","","101.39","","","","-13","","Snow"
"-77.53","44.12","TRENTON AWOS","6158872","2021-02-09 07:00","2021","02","09","07:00","-9.6","","-10.7","","92","","","","34","","4","","1.8","","101.41","","","","-12","","Snow"
"-77.53","44.12","TRENTON AWOS","6158872","2021-02-09 08:00","2021","02","09","08:00"
"-77.53","44.12","TRENTON AWOS","6158872","2021-02-09 09:00","2021","02","09","09:00","-8.7","","-10.5","","87","","","","3","","9","","8.0","","101.39","","","","-13","","Rain"
"-77.53","44.12","TRENTON AWOS","6158872","2021-02-09 10:00","2021","02","09","10:00","-8.1","","-10.2","","85","","","","4","","6","","14.5","","101.38","","","","-11","","Rain"
"-77.53","44.12","TRENTON AWOS","6158872","2021-02-09 11:00","2021","02","09","11:00","-6.8","","-10.1","","77","","","","33","","7","","14.5","","101.37","","","","-10","","NA"
"-77.53","44.12","TRENTON AWOS","6158872","2021-02-09 12:00","2021","02","09","12:00","-6.3","","-10.2","","74","","","","33","","9","","14.5","","101.34","","","","-11","","NA"
"-77.53","44.12","TRENTON AWOS","6158872","2021-02-09 13:00","2021","02","09","13:00","-5.0","","-10.1","","67","","","","30","","11","","14.5","","101.28","","","","-10","","NA"
"-77.53","44.12","TRENTON AWOS","6158872","2021-02-09 14:00","2021","02","09","14:00","-4.4","","-11.5","","58","","","","28","","15","","14.5","","101.20","","","","-10","","NA"
"-77.53","44.12","TRENTON AWOS","6158872","2021-02-09 15:00","2021","02","09","15:00","-3.6","","-12.4","","51","","","","31","","17","","14.5","","101.23","","","","-9","","NA"
"-77.53","44.12","TRENTON AWOS","6158872","2021-02-09 16:00","2021","02","09","16:00","-3.6","","-12.8","","49","","","","29","","9","","14.5","","101.22","","","","-7","","NA"
"-77.53","44.12","TRENTON AWOS","6158872","2021-02-09 17:00","2021","02","09","17:00","-4.1","","-12.6","","52","","","","27","","15","","14.5","","101.21","","","","-9","","NA"
"-77.53","44.12","TRENTON AWOS","6158872","2021-02-09 18:00","2021","02","09","18:00","-5.7","","-13.3","","55","","","","29","","11","","14.5","","101.29","","","","-10","","NA"
"-77.53","44.12","TRENTON AWOS","6158872","2021-02-09 19:00","2021","02","09","19:00","-5.2","","-12.9","","55","","","","29","","15","","14.5","","101.34","","","","-11","","NA"
"-77.53","44.12","TRENTON AWOS","6158872","2021-02-09 20:00","2021","02","09","20:00","-5.6","","-12.5","","58","","","","29","","11","","14.5","","101.34","","","","-10","","NA"
"-77.53","44.12","TRENTON AWOS","6158872","2021-02-09 21:00","2021","02","09","21:00","-5.5","","-13.1","","55","","","","31","","4","","14.5","","101.37","","","","-7","","NA"
"-77.53","44.12","TRENTON AWOS","6158872","2021-02-09 22:00","2021","02","09","22:00","-6.1","","-11.6","","65","","","","27","","7","","14.5","","101.39","","","","-9","","NA"
"-77.53","44.12","TRENTON AWOS","6158872","2021-02-09 23:00","2021","02","09","23:00","-5.7","","-11.5","","64","","","","29","","9","","14.5","","101.42","","","","-10","","NA"
"-77.53","44.12","TRENTON AWOS","6158872","2021-02-10 00:00","2021","02","10","00:00","-6.5","","-11.4","","68","","","","28","","11","","14.5","","101.46","","","","-11","","NA"
"-77.53","44.12","TRENTON AWOS","6158872","2021-02-10 01:00","2021","02","10","01:00","-6.6","","-12.4","","63","","","","31","","19","","14.5","","101.46","","","","-13","","NA"
"-77.53","44.12","TRENTON AWOS","6158872","2021-02-10 02:00","2021","02","10","02:00","-7.1","","-12.5","","65","","","","30","","13","","14.5","","101.49","","","","-13","","NA"
"-77.53","44.12","TRENTON AWOS","6158872","2021-02-10 03:00","2021","02","10","03:00","-9.3","","-13.6","","71","","","","30","","9","","14.5","","101.51","","","","-14","","NA"
"-77.53","44.12","TRENTON AWOS","6158872","2021-02-10 04:00","2021","02","10","04:00","-10.0","","-14.1","","72","","","","33","","6","","14.5","","101.53","","","","-14","","NA"
"-77.53","44.12","TRENTON AWOS","6158872","2021-02-10 05:00","2021","02","10","05:00","-10.6","","-14.2","","75","","","","1","","6","","14.5","","101.61","","","","-14","","NA"
"-77.53","44.12","TRENTON AWOS","6158872","2021-02-10 06:00","2021","02","10","06:00","-11.3","","-14.5","","77","","","","","","0","","14.5","","101.65","","","","","","NA"
"-77.53","44.12","TRENTON AWOS","6158872","2021-02-10 07:00","2021","02","10","07:00","-10.6","","-14.0","","76","","","","","","0","","14.5","","101.70","","","","","","NA"
"-77.53","44.12","TRENTON AWOS","6158872","2021-02-10 08:00","2021","02","10","08:00","-10.1","","-14.4","","71","","","","32","","4","","14.5","","101.74","","","","-12","","NA"
"-77.53","44.12","TRENTON AWOS","6158872","2021-02-10 09:00","2021","02","10","09:00","-9.7","","-14.4","","69","","","","","","0","","14.5","","101.74","","","","","","NA"
"-77.53","44.12","TRENTON AWOS","6158872","2021-02-10 10:00","2021","02","10","10:00","-7.7","","-14.0","","61","","","","","","0","","14.5","","101.76","","","","","","NA"
"-77.53","44.12","TRENTON AWOS","6158872","2021-02-10 11:00","2021","02","10","11:00","-6.9","","-13.2","","61","","","","21","","4","","14.5","","101.75","","","","-9","","NA"
"-77.53","44.12","TRENTON AWOS","6158872","2021-02-10 12:00","2021","02","10","12:00","-5.9","","-12.9","","58","","","","26","","6","","14.5","","101.65","","","","-9","","NA"
"-77.53","44.12","TRENTON AWOS","6158872","2021-02-10 13:00","2021","02","10","13:00","-4.6","","-13.1","","51","","","","31","","9","","14.5","","101.58","","","","-8","","NA"
"-77.53","44.12","TRENTON AWOS","6158872","2021-02-10 14:00","2021","02","10","14:00","-4.4","","-14.0","","47","","","","23","","13","","14.5","","101.55","","","","-9","","NA"
"-77.53","44.12","TRENTON AWOS","6158872","2021-02-10 15:00","2021","02","10","15:00","-4.0","","-14.8","","43","","","","24","","6","","14.5","","101.51","","","","-7","","NA"
"-77.53","44.12","TRENTON AWOS","6158872","2021-02-10 16:00","2021","02","10","16:00","-4.7","","-13.4","","51","","","","22","","19","","14.5","","101.54","","","","-11","","NA"
"-77.53","44.12","TRENTON AWOS","6158872","2021-02-10 17:00","2021","02","10","17:00","-4.9","","-13.7","","50","","","","30","","9","","14.5","","101.51","","","","-9","","NA"
"-77.53","44.12","TRENTON AWOS","6158872","2021-02-10 18:00","2021","02","10","18:00","-6.0","","-14.6","","51","","","","29","","7","","14.5","","101.53","","","","-9","","NA"
"-77.53","44.12","TRENTON AWOS","6158872","2021-02-10 19:00","2021","02","10","19:00","-6.1","","-14.4","","52","","","","28","","6","","14.5","","101.55","","","","-9","","NA"
"-77.53","44.12","TRENTON AWOS","6158872","2021-02-10 20:00","2021","02","10","20:00","-7.3","","-13.9","","59","","","","28","","6","","14.5","","101.53","","","","-10","","NA"
"-77.53","44.12","TRENTON AWOS","6158872","2021-02-10 21:00","2021","02","10","21:00","-8.2","","-13.7","","65","","","","28","","7","","14.5","","101.53","","","","-12","","NA"
"-77.53","44.12","TRENTON AWOS","6158872","2021-02-10 22:00","2021","02","10","22:00","-7.0","","-14.2","","57","","","","29","","7","","14.5","","101.54","","","","-11","","NA"
"-77.53","44.12","TRENTON AWOS","6158872","2021-02-10 23:00","2021","02","10","23:00","-9.2","","-13.6","","70","","","","","","0","","14.5","","101.52","","","","","","NA"
"-77.53","44.12","TRENTON AWOS","6158872","2021-02-11 00:00","2021","02","11","00:00","-9.8","","-14.0","","71","","","","35","","4","","14.5","","101.50","","","","-12","","NA"
"-77.53","44.12","TRENTON AWOS","6158872","2021-02-11 01:00","2021","02","11","01:00","-8.8","","-13.8","","67","","","","35","","7","","14.5","","101.48","","","","-13","","NA"
"-77.53","44.12","TRENTON AWOS","6158872","2021-02-11 02:00","2021","02","11","02:00","-7.9","","-13.6","","64","","","","34","","6","","14.5","","101.49","","","","-11","","NA"
"-77.53","44.12","TRENTON AWOS","6158872","2021-02-11 03:00","2021","02","11","03:00","-7.9","","-12.9","","67","","","","35","","9","","14.5","","101.48","","","","-12","","NA"
"-77.53","44.12","TRENTON AWOS","6158872","2021-02-11 04:00","2021","02","11","04:00","-8.3","","-11.9","","75","","","","34","","9","","14.5","","101.50","","","","-13","","NA"
"-77.53","44.12","TRENTON AWOS","6158872","2021-02-11 05:00","2021","02","11","05:00","-8.6","","-11.3","","81","","","","34","","9","","14.5","","101.55","","","","-13","","NA"
"-77.53","44.12","TRENTON AWOS","6158872","2021-02-11 06:00","2021","02","11","06:00","-8.8","","-11.1","","83","","","","36","","6","","9.7","","101.56","","","","-12","","Rain"
"-77.53","44.12","TRENTON AWOS","6158872","2021-02-11 07:00","2021","02","11","07:00","-9.0","","-10.8","","87","","","","2","","4","","6.4","","101.57","","","","-11","","Snow"
"-77.53","44.12","TRENTON AWOS","6158872","2021-02-11 08:00","2021","02","11","08:00","-8.8","","-10.5","","88","","","","36","","6","","3.2","","101.64","","","","-12","","Snow"
"-77.53","44.12","TRENTON AWOS","6158872","2021-02-11 09:00","2021","02","11","09:00","-8.5","","-10.9","","83","","","","5","","11","","11.3","","101.70","","","","-14","","NA"
"-77.53","44.12","TRENTON AWOS","6158872","2021-02-11 10:00","2021","02","11","10:00","-8.2","","-11.1","","80","","","","1","","11","","11.3","","101.76","","","","-13","","NA"
"-77.53","44.12","TRENTON AWOS","6158872","2021-02-11 11:00","2021","02","11","11:00","-6.8","","-11.7","","68","","","","6","","4","","14.5","","101.80","","","","-9","","NA"
"-77.53","44.12","TRENTON AWOS","6158872","2021-02-11 12:00","2021","02","11","12:00","-6.1","","-11.4","","66","","","","36","","9","","14.5","","101.79","","","","-10","","NA"
"-77.53","44.12","TRENTON AWOS","6158872","2021-02-11 13:00","2021","02","11","13:00","-5.3","","-12.4","","57","","","","31","","19","","14.5","","101.74","","","","-12","","NA"
"-77.53","44.12","TRENTON AWOS","6158872","2021-02-11 14:00","2021","02","11","14:00","-5.0","","-12.8","","54","","","","34","","13","","14.5","","101.72","","","","-10","","NA"
"-77.53","44.12","TRENTON AWOS","6158872","2021-02-11 15:00","2021","02","11","15:00","-5.7","","-14.4","","50","","","","33","","11","","14.5","","101.75","","","","-10","","NA"
"-77.53","44.12","TRENTON AWOS","6158872","2021-02-11 16:00","2021","02","11","16:00","-5.5","","-15.0","","47","","","","36","","15","","14.5","","101.76","","","","-11","","NA"
"-77.53","44.12","TRENTON AWOS","6158872","2021-02-11 17:00","2021","02","11","17:00","-6.1","","-15.9","","46","","","","36","","9","","14.5","","101.80","","","","-10","","NA"
"-77.53","44.12","TRENTON AWOS","6158872","2021-02-11 18:00","2021","02","11","18:00","-7.7","","-16.5","","49","","","","36","","7","","14.5","","101.84","","","","-11","","NA"
"-77.53","44.12","TRENTON AWOS","6158872","2021-02-11 19:00","2021","02","11","19:00","-10.4","","-16.5","","61","","","","3","","6","","14.5","","101.85","","","","-14","","NA"
"-77.53","44.12","TRENTON AWOS","6158872","2021-02-11 20:00","2021","02","11","20:00","-12.8","","-17.0","","71","","","","1","","9","","14.5","","101.90","","","","-18","","NA"
"-77.53","44.12","TRENTON AWOS","6158872","2021-02-11 21:00","2021","02","11","21:00","-12.2","","-18.8","","58","","","","2","","11","","14.5","","101.91","","","","-18","","NA"
"-77.53","44.12","TRENTON AWOS","6158872","2021-02-11 22:00","2021","02","11","22:00","-12.0","","-19.0","","56","","","","3","","13","","14.5","","101.96","","","","-19","","NA"
"-77.53","44.12","TRENTON AWOS","6158872","2021-02-11 23:00","2021","02","11","23:00","-13.0","","-19.6","","58","","","","5","","7","","14.5","","102.02","","","","-18","","NA"
"-77.53","44.12","TRENTON AWOS","6158872","2021-02-12 00:00","2021","02","12","00:00","-13.3","","-20.4","","55","","","","4","","19","","14.5","","102.11","","","","-22","","NA"
"-77.53","44.12","TRENTON AWOS","6158872","2021-02-12 01:00","2021","02","12","01:00","-14.0","","-21.5","","53","","","","3","","17","","14.5","","102.12","","","","-22","","NA"
"-77.53","44.12","TRENTON AWOS","6158872","2021-02-12 02:00","2021","02","12","02:00","-15.2","","-22.0","","56","","","","4","","11","","14.5","","102.14","","","","-22","","NA"
"-77.53","44.12","TRENTON AWOS","6158872","2021-02-12 03:00","2021","02","12","03:00","-15.9","","-22.9","","55","","","","4","","19","","14.5","","102.12","","","","-25","","NA"
"-77.53","44.12","TRENTON AWOS","6158872","2021-02-12 04:00","2021","02","12","04:00","-17.1","","-23.0","","60","","","","3","","13","","14.5","","102.09","","","","-25","","NA"
"-77.53","44.12","TRENTON AWOS","6158872","2021-02-12 05:00","2021","02","12","05:00","-16.5","","-22.9","","58","","","","4","","17","","14.5","","102.11","","","","-25","","NA"
"-77.53","44.12","TRENTON AWOS","6158872","2021-02-12 06:00","2021","02","12","06:00","-16.8","","-23.1","","58","","","","3","","11","","14.5","","102.16","","","","-24","","NA"
"-77.53","44.12","TRENTON AWOS","6158872","2021-02-12 07:00","2021","02","12","07:00","-16.9","","-23.5","","57","","","","4","","13","","14.5","","102.19","","","","-25","","NA"
"-77.53","44.12","TRENTON AWOS","6158872","2021-02-12 08:00","2021","02","12","08:00","-17.0","","-23.2","","59","","","","4","","13","","14.5","","102.21","","","","-25","","NA"
"-77.53","44.12","TRENTON AWOS","6158872","2021-02-12 09:00","2021","02","12","09:00","-16.6","","-22.9","","58","","","","5","","19","","14.5","","102.17","","","","-26","","NA"
"-77.53","44.12","TRENTON AWOS","6158872","2021-02-12 10:00","2021","02","12","10:00","-16.2","","-22.7","","57","","","","2","","15","","14.5","","102.11","","","","-24","","NA"
"-77.53","44.12","TRENTON AWOS","6158872","2021-02-12 11:00","2021","02","12","11:00","-15.4","","-22.3","","56","","","","4","","11","","14.5","","102.07","","","","-22","","NA"
"-77.53","44.12","TRENTON AWOS","6158872","2021-02-12 12:00","2021","02","12","12:00","-14.4","","-24.3","","43","","","","5","","11","","14.5","","102.03","","","","-21","","NA"
"-77.53","44.12","TRENTON AWOS","6158872","2021-02-12 13:00","2021","02","12","13:00","-13.2","","-22.8","","44","","","","3","","13","","14.5","","101.98","","","","-20","","NA"
"-77.53","44.12","TRENTON AWOS","6158872","2021-02-12 14:00","2021","02","12","14:00","-12.2","","-23.4","","39","","","","36","","9","","14.5","","101.90","","","","-17","","NA"
"-77.53","44.12","TRENTON AWOS","6158872","2021-02-12 15:00","2021","02","12","15:00","-11.8","","-23.7","","37","","","","17","","4","","14.5","","101.93","","","","-14","","NA"
"-77.53","44.12","TRENTON AWOS","6158872","2021-02-12 16:00","2021","02","12","16:00","-10.9","","-23.0","","36","","","","","","0","","14.5","","101.90","","","","","","NA"
"-77.53","44.12","TRENTON AWOS","6158872","2021-02-12 17:00","2021","02","12","17:00","-11.1","","-22.9","","37","","","","","","0","","14.5","","101.86","","","","","","NA"
"-77.53","44.12","TRENTON AWOS","6158872","2021-02-12 18:00","2021","02","12","18:00","-12.9","","-23.7","","40","","","","15","","4","","14.5","","101.88","","","","-16","","NA"
"-77.53","44.12","TRENTON AWOS","6158872","2021-02-12 19:00","2021","02","12","19:00","-14.3","","-23.3","","46","","","","","","0","","14.5","","101.95","","","","","","NA"
"-77.53","44.12","TRENTON AWOS","6158872","2021-02-12 20:00","2021","02","12","20:00","-14.8","","-22.1","","54","","","","","","0","","14.5","","101.95","","","","","","NA"
"-77.53","44.12","TRENTON AWOS","6158872","2021-02-12 21:00","2021","02","12","21:00","-16.0","","-21.7","","62","","","","1","","4","","14.5","","101.99","","","","-19","","NA"
"-77.53","44.12","TRENTON AWOS","6158872","2021-02-12 22:00","2021","02","12","22:00","-17.4","","-22.3","","66","","","","35","","4","","14.5","","102.04","","","","-21","","NA"
"-77.53","44.12","TRENTON AWOS","6158872","2021-02-12 23:00","2021","02","12","23:00","-18.5","","-23.5","","65","","","","5","","6","","14.5","","102.02","","","","-23","","NA"
"-77.53","44.12","TRENTON AWOS","6158872","2021-02-13 00:00","2021","02","13","00:00","-19.3","","-23.8","","68","","","","4","","4","","14.5","","102.06","","","","-23","","NA"
"-77.53","44.12","TRENTON AWOS","6158872","2021-02-13 01:00","2021","02","13","01:00","-19.1","","-24.2","","64","","","","6","","6","","14.5","","102.10","","","","-24","","NA"
"-77.53","44.12","TRENTON AWOS","6158872","2021-02-13 02:00","2021","02","13","02:00","-18.8","","-23.7","","65","","","","10","","4","","14.5","","102.12","","","","-22","","NA"
"-77.53","44.12","TRENTON AWOS","6158872","2021-02-13 03:00","2021","02","13","03:00","-19.0","","-24.2","","64","","","","5","","7","","14.5","","102.05","","","","-24","","NA"
"-77.53","44.12","TRENTON AWOS","6158872","2021-02-13 04:00","2021","02","13","04:00","-16.4","","-24.0","","52","","","","5","","11","","14.5","","102.12","","","","-23","","NA"
"-77.53","44.12","TRENTON AWOS","6158872","2021-02-13 05:00","2021","02","13","05:00","-16.7","","-24.0","","53","","","","4","","11","","14.5","","102.12","","","","-24","","NA"
"-77.53","44.12","TRENTON AWOS","6158872","2021-02-13 06:00","2021","02","13","06:00","-16.3","","-23.6","","53","","","","4","","15","","14.5","","102.12","","","","-25","","NA"
"-77.53","44.12","TRENTON AWOS","6158872","2021-02-13 07:00","2021","02","13","07:00","-16.3","","-23.3","","55","","","","4","","15","","14.5","","102.12","","","","-25","","NA"
"-77.53","44.12","TRENTON AWOS","6158872","2021-02-13 08:00","2021","02","13","08:00","-16.3","","-23.1","","56","","","","4","","13","","14.5","","102.18","","","","-24","","NA"
"-77.53","44.12","TRENTON AWOS","6158872","2021-02-13 09:00","2021","02","13","09:00","-16.0","","-23.1","","54","","","","5","","19","","14.5","","102.21","","","","-25","","NA"
"-77.53","44.12","TRENTON AWOS","6158872","2021-02-13 10:00","2021","02","13","10:00","-15.2","","-22.4","","54","","","","4","","15","","14.5","","102.16","","","","-23","","NA"
"-77.53","44.12","TRENTON AWOS","6158872","2021-02-13 11:00","2021","02","13","11:00","-14.1","","-22.2","","50","","","","5","","15","","14.5","","102.13","","","","-22","","NA"
"-77.53","44.12","TRENTON AWOS","6158872","2021-02-13 12:00","2021","02","13","12:00","-13.0","","-21.9","","47","","","","2","","17","","14.5","","102.07","","","","-21","","NA"
"-77.53","44.12","TRENTON AWOS","6158872","2021-02-13 13:00","2021","02","13","13:00","-11.9","","-21.5","","45","","","","5","","22","","14.5","","101.89","","","","-21","","NA"
"-77.53","44.12","TRENTON AWOS","6158872","2021-02-13 14:00","2021","02","13","14:00","-11.6","","-21.0","","46","","","","1","","20","","14.5","","101.77","","","","-20","","NA"
"-77.53","44.12","TRENTON AWOS","6158872","2021-02-13 15:00","2021","02","13","15:00","-10.7","","-19.6","","48","","","","3","","13","","14.5","","101.67","","","","-17","","NA"
"-77.53","44.12","TRENTON AWOS","6158872","2021-02-13 16:00","2021","02","13","16:00","-10.2","","-19.7","","46","","","","4","","17","","14.5","","101.63","","","","-17","","NA"
"-77.53","44.12","TRENTON AWOS","6158872","2021-02-13 17:00","2021","02","13","17:00","-10.1","","-20.0","","44","","","","6","","17","","14.5","","101.53","","","","-17","","NA"
"-77.53","44.12","TRENTON AWOS","6158872","2021-02-13 18:00","2021","02","13","18:00","-10.1","","-20.4","","43","","","","6","","13","","14.5","","101.48","","","","-16","","NA"
"-77.53","44.12","TRENTON AWOS","6158872","2021-02-13 19:00","2021","02","13","19:00","-10.9","","-15.7","","68","","","","5","","22","","3.7","","101.48","","","","-19","","Snow"
"-77.53","44.12","TRENTON AWOS","6158872","2021-02-13 20:00","2021","02","13","20:00","-11.6","","-13.6","","85","","","","5","","24","","1.3","","101.42","","","","-21","","Snow"
"-77.53","44.12","TRENTON AWOS","6158872","2021-02-13 21:00","2021","02","13","21:00","-12.0","","-13.7","","87","","","","6","","19","","1.4","","101.25","","","","-20","","Snow"
"-77.53","44.12","TRENTON AWOS","6158872","2021-02-13 22:00","2021","02","13","22:00","-12.4","","-13.9","","89","","","","5","","15","","1.4","","101.26","","","","-20","","Snow"
"-77.53","44.12","TRENTON AWOS","6158872","2021-02-13 23:00","2021","02","13","23:00","-12.4","","-14.5","","84","","","","5","","17","","5.6","","101.21","","","","-20","","Snow"
"-77.53","44.12","TRENTON AWOS","6158872","2021-02-14 00:00","2021","02","14","00:00","-12.5","","-14.8","","83","","","","5","","17","","14.5","","101.09","","","","-20","","Snow"
"-77.53","44.12","TRENTON AWOS","6158872","2021-02-14 01:00","2021","02","14","01:00","-12.1","","-14.6","","82","","","","2","","13","","14.5","","101.16","","","","-19","","Snow"
"-77.53","44.12","TRENTON AWOS","6158872","2021-02-14 02:00","2021","02","14","02:00"
"-77.53","44.12","TRENTON AWOS","6158872","2021-02-14 03:00","2021","02","14","03:00","-11.9","","-13.1","","91","","","","3","","11","","4.0","","101.13","","","","-18","","Snow"
"-77.53","44.12","TRENTON AWOS","6158872","2021-02-14 04:00","2021","02","14","04:00","-11.8","","-13.4","","88","","","","1","","11","","14.5","","101.14","","","","-18","","Snow"
"-77.53","44.12","TRENTON AWOS","6158872","2021-02-14 05:00","2021","02","14","05:00","-11.5","","-13.2","","87","","","","35","","7","","14.5","","101.23","","","","-16","","Snow"
"-77.53","44.12","TRENTON AWOS","6158872","2021-02-14 06:00","2021","02","14","06:00","-11.2","","-13.1","","86","","","","34","","9","","14.5","","101.32","","","","-16","","Snow"
"-77.53","44.12","TRENTON AWOS","6158872","2021-02-14 07:00","2021","02","14","07:00","-11.0","","-12.9","","86","","","","32","","6","","14.5","","101.40","","","","-15","","Snow"
"-77.53","44.12","TRENTON AWOS","6158872","2021-02-14 08:00","2021","02","14","08:00","-11.7","","-13.5","","87","","","","32","","6","","14.5","","101.45","","","","-15","","Snow"
"-77.53","44.12","TRENTON AWOS","6158872","2021-02-14 09:00","2021","02","14","09:00","-10.2","","-13.0","","80","","","","29","","11","","14.5","","101.56","","","","-16","","NA"
"-77.53","44.12","TRENTON AWOS","6158872","2021-02-14 10:00","2021","02","14","10:00","-9.6","","-12.9","","77","","","","27","","6","","14.5","","101.56","","","","-13","","NA"
"-77.53","44.12","TRENTON AWOS","6158872","2021-02-14 11:00","2021","02","14","11:00","-8.0","","-12.8","","68","","","","25","","6","","14.5","","101.62","","","","-11","","NA"
"-77.53","44.12","TRENTON AWOS","6158872","2021-02-14 12:00","2021","02","14","12:00","-6.1","","-12.5","","61","","","","25","","4","","14.5","","101.57","","","","-8","","NA"
"-77.53","44.12","TRENTON AWOS","6158872","2021-02-14 13:00","2021","02","14","13:00","-5.9","","-11.6","","64","","","","21","","7","","14.5","","101.57","","","","-9","","NA"
"-77.53","44.12","TRENTON AWOS","6158872","2021-02-14 14:00","2021","02","14","14:00","-4.4","","-12.3","","54","","","","20","","6","","14.5","","101.57","","","","-7","","NA"
"-77.53","44.12","TRENTON AWOS","6158872","2021-02-14 15:00","2021","02","14","15:00","-3.9","","-11.9","","54","","","","25","","11","","14.5","","101.56","","","","-8","","NA"
"-77.53","44.12","TRENTON AWOS","6158872","2021-02-14 16:00","2021","02","14","16:00","-4.0","","-12.7","","51","","","","29","","6","","14.5","","101.53","","","","-7","","NA"
"-77.53","44.12","TRENTON AWOS","6158872","2021-02-14 17:00","2021","02","14","17:00","-4.1","","-12.9","","50","","","","25","","4","","14.5","","101.57","","","","-6","","NA"
"-77.53","44.12","TRENTON AWOS","6158872","2021-02-14 18:00","2021","02","14","18:00","-6.6","","-13.1","","60","","","","28","","6","","14.5","","101.64","","","","-10","","NA"
"-77.53","44.12","TRENTON AWOS","6158872","2021-02-14 19:00","2021","02","14","19:00","-7.0","","-12.9","","63","","","","26","","4","","14.5","","101.67","","","","-9","","NA"
"-77.53","44.12","TRENTON AWOS","6158872","2021-02-14 20:00","2021","02","14","20:00","-8.9","","-13.5","","69","","","","","","0","","14.5","","101.69","","","","","","NA"
"-77.53","44.12","TRENTON AWOS","6158872","2021-02-14 21:00","2021","02","14","21:00","-9.7","","-13.4","","74","","","","","","0","","14.5","","101.66","","","","","","NA"
"-77.53","44.12","TRENTON AWOS","6158872","2021-02-14 22:00","2021","02","14","22:00","-10.9","","-13.8","","79","","","","","","0","","14.5","","101.64","","","","","","NA"
"-77.53","44.12","TRENTON AWOS","6158872","2021-02-14 23:00","2021","02","14","23:00","-11.4","","-13.6","","84","","","","7","","4","","14.5","","101.59","","","","-14","","NA"
"-77.53","44.12","TRENTON AWOS","6158872","2021-02-15 00:00","2021","02","15","00:00","-10.5","","-13.5","","79","","","","","","0","","14.5","","101.55","","","","","","NA"
"-77.53","44.12","TRENTON AWOS","6158872","2021-02-15 01:00","2021","02","15","01:00","-11.0","","-13.7","","80","","","","36","","4","","14.5","","101.55","","","","-13","","NA"
"-77.53","44.12","TRENTON AWOS","6158872","2021-02-15 02:00","2021","02","15","02:00","-11.9","","-14.2","","83","","","","","","0","","14.5","","101.59","","","","","","NA"
"-77.53","44.12","TRENTON AWOS","6158872","2021-02-15 03:00","2021","02","15","03:00","-10.8","","-13.3","","82","","","","","","0","","14.5","","101.51","","","","","","NA"
"-77.53","44.12","TRENTON AWOS","6158872","2021-02-15 04:00","2021","02","15","04:00","-9.2","","-11.9","","81","","","","","","0","","14.5","","101.51","","","","","","NA"
"-77.53","44.12","TRENTON AWOS","6158872","2021-02-15 05:00","2021","02","15","05:00","-8.9","","-12.0","","78","","","","8","","4","","14.5","","101.50","","","","-11","","NA"
"-77.53","44.12","TRENTON AWOS","6158872","2021-02-15 06:00","2021","02","15","06:00","-8.6","","-12.0","","76","","","","36","","4","","14.5","","101.47","","","","-11","","NA"
"-77.53","44.12","TRENTON AWOS","6158872","2021-02-15 07:00","2021","02","15","07:00","-8.1","","-11.3","","78","","","","34","","6","","14.5","","101.49","","","","-11","","NA"
"-77.53","44.12","TRENTON AWOS","6158872","2021-02-15 08:00","2021","02","15","08:00","-7.5","","-11.1","","75","","","","2","","4","","14.5","","101.52","","","","-10","","NA"
"-77.53","44.12","TRENTON AWOS","6158872","2021-02-15 09:00","2021","02","15","09:00","-6.3","","-11.3","","68","","","","36","","6","","14.5","","101.51","","","","-9","","NA"
"-77.53","44.12","TRENTON AWOS","6158872","2021-02-15 10:00","2021","02","15","10:00","-5.4","","-11.0","","65","","","","34","","4","","14.5","","101.42","","","","-7","","NA"
"-77.53","44.12","TRENTON AWOS","6158872","2021-02-15 11:00","2021","02","15","11:00","-4.8","","-9.6","","69","","","","33","","6","","8.0","","101.47","","","","-8","","Rain"
"-77.53","44.12","TRENTON AWOS","6158872","2021-02-15 12:00","2021","02","15","12:00","-5.0","","-7.7","","81","","","","","","0","","2.7","","101.46","","","","","","Snow"
"-77.53","44.12","TRENTON AWOS","6158872","2021-02-15 13:00","2021","02","15","13:00","-4.1","","-7.5","","77","","","","4","","6","","9.7","","101.34","","","","-7","","NA"
"-77.53","44.12","TRENTON AWOS","6158872","2021-02-15 14:00","2021","02","15","14:00","-2.7","","-7.8","","68","","","","","","0","","14.5","","101.28","","","","","","NA"
"-77.53","44.12","TRENTON AWOS","6158872","2021-02-15 15:00","2021","02","15","15:00","-3.3","","-8.2","","69","","","","21","","6","","14.5","","101.31","","","","-6","","NA"
"-77.53","44.12","TRENTON AWOS","6158872","2021-02-15 16:00","2021","02","15","16:00","-3.1","","-8.3","","67","","","","","","0","","14.5","","101.28","","","","","","NA"
"-77.53","44.12","TRENTON AWOS","6158872","2021-02-15 17:00","2021","02","15","17:00","-3.2","","-9.6","","61","","","","36","","7","","14.5","","101.22","","","","-6","","NA"
"-77.53","44.12","TRENTON AWOS","6158872","2021-02-15 18:00","2021","02","15","18:00","-3.4","","-8.7","","67","","","","35","","4","","14.5","","101.21","","","","-5","","NA"
"-77.53","44.12","TRENTON AWOS","6158872","2021-02-15 19:00","2021","02","15","19:00","-3.5","","-8.4","","69","","","","7","","6","","14.5","","101.16","","","","-6","","NA"
"-77.53","44.12","TRENTON AWOS","6158872","2021-02-15 20:00","2021","02","15","20:00","-3.8","","-7.9","","73","","","","6","","7","","14.5","","100.99","","","","-7","","Rain"
"-77.53","44.12","TRENTON AWOS","6158872","2021-02-15 21:00","2021","02","15","21:00","-4.5","","-7.2","","81","","","","5","","7","","14.5","","100.93","","","","-8","","NA"
"-77.53","44.12","TRENTON AWOS","6158872","2021-02-15 22:00","2021","02","15","22:00","-5.1","","-6.2","","92","","","","6","","6","","1.3","","100.83","","","","-8","","Snow"
"-77.53","44.12","TRENTON AWOS","6158872","2021-02-15 23:00","2021","02","15","23:00","-5.4","","-6.5","","92","","","","6","","9","","1.3","","100.62","","","","-9","","Snow"
"-77.53","44.12","TRENTON AWOS","6158872","2021-02-16 00:00","2021","02","16","00:00","-5.7","","-6.8","","92","","","","5","","20","","0.6","","100.41","","","","-12","","Snow"
"-77.53","44.12","TRENTON AWOS","6158872","2021-02-16 01:00","2021","02","16","01:00","-5.9","","-6.8","","93","","","","6","","13","","0.6","","100.30","","","","-11","","Snow"
"-77.53","44.12","TRENTON AWOS","6158872","2021-02-16 02:00","2021","02","16","02:00","-6.1","","-7.1","","93","","","","4","","26","","0.3","","100.16","","","","-14","","Snow"
"-77.53","44.12","TRENTON AWOS","6158872","2021-02-16 03:00","2021","02","16","03:00","-6.7","","-7.8","","92","","","","5","","30","","0.3","","99.84","","","","-15","","Snow"
"-77.53","44.12","TRENTON AWOS","6158872","2021-02-16 04:00","2021","02","16","04:00","-6.8","","-8.2","","90","","","","6","","24","","0.6","","99.65","","","","-14","","Snow"
"-77.53","44.12","TRENTON AWOS","6158872","2021-02-16 05:00","2021","02","16","05:00","-7.0","","-8.5","","89","","","","5","","30","","0.6","","99.56","","","","-16","","Snow"
"-77.53","44.12","TRENTON AWOS","6158872","2021-02-16 06:00","2021","02","16","06:00","-7.5","","-8.7","","91","","","","3","","24","","0.5","","99.51","","","","-15","","Snow"
"-77.53","44.12","TRENTON AWOS","6158872","2021-02-16 07:00","2021","02","16","07:00","-7.8","","-9.3","","89","","","","3","","26","","1.1","","99.36","","","","-16","","Snow"
"-77.53","44.12","TRENTON AWOS","6158872","2021-02-16 08:00","2021","02","16","08:00","-7.9","","-10.1","","84","","","","2","","20","","4.8","","99.33","","","","-15","","Snow"
"-77.53","44.12","TRENTON AWOS","6158872","2021-02-16 09:00","2021","02","16","09:00","-7.8","","-9.9","","85","","","","2","","22","","1.6","","99.26","","","","-15","","Snow"
"-77.53","44.12","TRENTON AWOS","6158872","2021-02-16 10:00","2021","02","16","10:00","-7.9","","-11.1","","78","","","","1","","20","","14.5","","99.29","","","","-15","","Snow"
"-77.53","44.12","TRENTON AWOS","6158872","2021-02-16 11:00","2021","02","16","11:00","-8.1","","-12.1","","73","","","","36","","22","","14.5","","99.29","","","","-16","","NA"
"-77.53","44.12","TRENTON AWOS","6158872","2021-02-16 12:00","2021","02","16","12:00","-8.7","","-12.2","","76","","","","35","","24","","14.5","","99.34","","","","-17","","Rain"
"-77.53","44.12","TRENTON AWOS","6158872","2021-02-16 13:00","2021","02","16","13:00","-8.8","","-12.9","","72","","","","32","","20","","1.3","","99.43","","","","-16","","Snow"
"-77.53","44.12","TRENTON AWOS","6158872","2021-02-16 14:00","2021","02","16","14:00","-8.9","","-13.4","","70","","","","32","","17","","14.5","","99.54","","","","-16","","Snow"
"-77.53","44.12","TRENTON AWOS","6158872","2021-02-16 15:00","2021","02","16","15:00","-8.9","","-13.6","","69","","","","31","","15","","14.5","","99.65","","","","-15","","Snow"
"-77.53","44.12","TRENTON AWOS","6158872","2021-02-16 16:00","2021","02","16","16:00","-8.4","","-13.6","","66","","","","31","","17","","14.5","","99.80","","","","-15","","Snow"
"-77.53","44.12","TRENTON AWOS","6158872","2021-02-16 17:00","2021","02","16","17:00"
"-77.53","44.12","TRENTON AWOS","6158872","2021-02-16 18:00","2021","02","16","18:00","-9.7","","-12.9","","77","","","","25","","11","","14.5","","100.11","","","","-15","","NA"
"-77.53","44.12","TRENTON AWOS","6158872","2021-02-16 19:00","2021","02","16","19:00","-10.3","","-13.7","","76","","","","26","","13","","14.5","","100.25","","","","-17","","NA"
"-77.53","44.12","TRENTON AWOS","6158872","2021-02-16 20:00","2021","02","16","20:00","-9.7","","-14.0","","71","","","","29","","15","","14.5","","100.39","","","","-16","","NA"
"-77.53","44.12","TRENTON AWOS","6158872","2021-02-16 21:00","2021","02","16","21:00","-10.4","","-14.2","","74","","","","29","","15","","14.5","","100.56","","","","-17","","NA"
"-77.53","44.12","TRENTON AWOS","6158872","2021-02-16 22:00","2021","02","16","22:00","-11.4","","-15.2","","73","","","","30","","15","","14.5","","100.70","","","","-18","","NA"
"-77.53","44.12","TRENTON AWOS","6158872","2021-02-16 23:00","2021","02","16","23:00","-12.0","","-16.5","","69","","","","30","","15","","14.5","","100.85","","","","-19","","NA"
"-77.53","44.12","TRENTON AWOS","6158872","2021-02-17 00:00","2021","02","17","00:00","-12.9","","-17.6","","68","","","","30","","11","","14.5","","101.00","","","","-19","","NA"
"-77.53","44.12","TRENTON AWOS","6158872","2021-02-17 01:00","2021","02","17","01:00","-14.0","","-19.8","","62","","","","29","","15","","14.5","","101.16","","","","-22","","NA"
"-77.53","44.12","TRENTON AWOS","6158872","2021-02-17 02:00","2021","02","17","02:00","-14.7","","-20.3","","62","","","","29","","9","","14.5","","101.29","","","","-20","","NA"
"-77.53","44.12","TRENTON AWOS","6158872","2021-02-17 03:00","2021","02","17","03:00","-17.8","","-21.8","","71","","","","31","","4","","14.5","","101.34","","","","-21","","NA"
"-77.53","44.12","TRENTON AWOS","6158872","2021-02-17 04:00","2021","02","17","04:00","-20.4","","-24.3","","71","","","","","","0","","14.5","","101.43","","","","","","NA"
"-77.53","44.12","TRENTON AWOS","6158872","2021-02-17 05:00","2021","02","17","05:00","-20.7","","-24.5","","72","","","","23","","6","","14.5","","101.59","","","","-26","","NA"
"-77.53","44.12","TRENTON AWOS","6158872","2021-02-17 06:00","2021","02","17","06:00","-22.6","","-26.7","","69","","","","","","0","","14.5","","101.73","","","","","","NA"
"-77.53","44.12","TRENTON AWOS","6158872","2021-02-17 07:00","2021","02","17","07:00","-23.5","","-28.0","","67","","","","","","0","","14.5","","101.81","","","","","","NA"
"-77.53","44.12","TRENTON AWOS","6158872","2021-02-17 08:00","2021","02","17","08:00","-22.3","","-26.8","","67","","","","4","","6","","9.7","","101.89","","","","-28","","NA"
"-77.53","44.12","TRENTON AWOS","6158872","2021-02-17 09:00","2021","02","17","09:00","-15.7","","-21.1","","63","","","","","","0","","14.5","","101.95","","","","","","NA"
"-77.53","44.12","TRENTON AWOS","6158872","2021-02-17 10:00","2021","02","17","10:00","-11.4","","-19.2","","53","","","","","","0","","14.5","","101.94","","","","","","NA"
"-77.53","44.12","TRENTON AWOS","6158872","2021-02-17 11:00","2021","02","17","11:00","-7.8","","-18.2","","43","","","","","","0","","14.5","","101.95","","","","","","NA"
"-77.53","44.12","TRENTON AWOS","6158872","2021-02-17 12:00","2021","02","17","12:00","-6.8","","-15.3","","51","","","","22","","9","","14.5","","101.94","","","","-11","","NA"
"-77.53","44.12","TRENTON AWOS","6158872","2021-02-17 13:00","2021","02","17","13:00","-6.1","","-11.9","","64","","","","21","","13","","14.5","","101.90","","","","-11","","NA"
"-77.53","44.12","TRENTON AWOS","6158872","2021-02-17 14:00","2021","02","17","14:00","-5.3","","-11.0","","64","","","","21","","11","","14.5","","101.89","","","","-10","","NA"
"-77.53","44.12","TRENTON AWOS","6158872","2021-02-17 15:00","2021","02","17","15:00","-4.7","","-10.7","","63","","","","20","","11","","14.5","","101.89","","","","-9","","NA"
"-77.53","44.12","TRENTON AWOS","6158872","2021-02-17 16:00","2021","02","17","16:00","-4.6","","-10.6","","63","","","","21","","13","","14.5","","101.97","","","","-10","","NA"
"-77.53","44.12","TRENTON AWOS","6158872","2021-02-17 17:00","2021","02","17","17:00","-4.3","","-11.5","","57","","","","26","","11","","14.5","","101.94","","","","-9","","NA"
"-77.53","44.12","TRENTON AWOS","6158872","2021-02-17 18:00","2021","02","17","18:00","-4.8","","-10.9","","62","","","","27","","7","","14.5","","101.95","","","","-8","","NA"
"-77.53","44.12","TRENTON AWOS","6158872","2021-02-17 19:00","2021","02","17","19:00","-5.7","","-10.8","","67","","","","27","","11","","14.5","","102.01","","","","-10","","NA"
"-77.53","44.12","TRENTON AWOS","6158872","2021-02-17 20:00","2021","02","17","20:00","-5.4","","-11.2","","64","","","","30","","6","","14.5","","102.01","","","","-8","","NA"
"-77.53","44.12","TRENTON AWOS","6158872","2021-02-17 21:00","2021","02","17","21:00","-7.7","","-11.9","","72","","","","","","0","","14.5","","102.03","","","","","","NA"
"-77.53","44.12","TRENTON AWOS","6158872","2021-02-17 22:00","2021","02","17","22:00","-9.0","","-11.7","","81","","","","","","0","","14.5","","102.09","","","","","","NA"
"-77.53","44.12","TRENTON AWOS","6158872","2021-02-17 23:00","2021","02","17","23:00","-10.8","","-13.1","","83","","","","","","0","","14.5","","102.09","","","","","","NA"
"-77.53","44.12","TRENTON AWOS","6158872","2021-02-18 00:00","2021","02","18","00:00","-11.3","","-13.4","","84","","","","","","0","","14.5","","102.12","","","","","","NA"
"-77.53","44.12","TRENTON AWOS","6158872","2021-02-18 01:00","2021","02","18","01:00","-11.1","","-12.7","","88","","","","","","0","","14.5","","102.14","","","","","","NA"
"-77.53","44.12","TRENTON AWOS","6158872","2021-02-18 02:00","2021","02","18","02:00","-11.7","","-13.6","","86","","","","","","0","","14.5","","102.18","","","","","","NA"
"-77.53","44.12","TRENTON AWOS","6158872","2021-02-18 03:00","2021","02","18","03:00","-10.7","","-13.0","","83","","","","","","0","","14.5","","102.20","","","","","","NA"
"-77.53","44.12","TRENTON AWOS","6158872","2021-02-18 04:00","2021","02","18","04:00","-10.6","","-12.9","","83","","","","","","0","","14.5","","102.18","","","","","","NA"
"-77.53","44.12","TRENTON AWOS","6158872","2021-02-18 05:00","2021","02","18","05:00","-12.4","","-13.9","","89","","","","","","0","","14.5","","102.19","","","","","","NA"
"-77.53","44.12","TRENTON AWOS","6158872","2021-02-18 06:00","2021","02","18","06:00","-13.2","","-14.7","","89","","","","3","","9","","14.5","","102.17","","","","-19","","NA"
"-77.53","44.12","TRENTON AWOS","6158872","2021-02-18 07:00","2021","02","18","07:00","-12.3","","-14.0","","87","","","","","","0","","14.5","","102.13","","","","","","NA"
"-77.53","44.12","TRENTON AWOS","6158872","2021-02-18 08:00","2021","02","18","08:00","-11.3","","-13.5","","84","","","","1","","6","","14.5","","102.15","","","","-15","","NA"
"-77.53","44.12","TRENTON AWOS","6158872","2021-02-18 09:00","2021","02","18","09:00","-9.0","","-11.9","","80","","","","4","","11","","14.5","","102.09","","","","-14","","NA"
"-77.53","44.12","TRENTON AWOS","6158872","2021-02-18 10:00","2021","02","18","10:00","-6.9","","-11.3","","71","","","","7","","11","","14.5","","101.97","","","","-12","","NA"
"-77.53","44.12","TRENTON AWOS","6158872","2021-02-18 11:00","2021","02","18","11:00","-5.1","","-11.0","","63","","","","8","","13","","14.5","","101.99","","","","-10","","NA"
"-77.53","44.12","TRENTON AWOS","6158872","2021-02-18 12:00","2021","02","18","12:00","-3.9","","-10.6","","60","","","","9","","11","","14.5","","101.88","","","","-8","","NA"
"-77.53","44.12","TRENTON AWOS","6158872","2021-02-18 13:00","2021","02","18","13:00","-3.7","","-11.9","","53","","","","9","","9","","14.5","","101.93","","","","-7","","NA"
"-77.53","44.12","TRENTON AWOS","6158872","2021-02-18 14:00","2021","02","18","14:00","-3.8","","-12.2","","52","","","","9","","11","","14.5","","101.86","","","","-8","","NA"
"-77.53","44.12","TRENTON AWOS","6158872","2021-02-18 15:00","2021","02","18","15:00","-3.7","","-12.5","","51","","","","9","","9","","14.5","","101.82","","","","-7","","NA"
"-77.53","44.12","TRENTON AWOS","6158872","2021-02-18 16:00","2021","02","18","16:00","-3.8","","-12.3","","52","","","","11","","7","","14.5","","101.78","","","","-7","","NA"
"-77.53","44.12","TRENTON AWOS","6158872","2021-02-18 17:00","2021","02","18","17:00","-3.9","","-12.3","","52","","","","7","","7","","14.5","","101.77","","","","-7","","NA"
"-77.53","44.12","TRENTON AWOS","6158872","2021-02-18 18:00","2021","02","18","18:00","-4.5","","-11.5","","58","","","","7","","6","","14.5","","101.72","","","","-7","","NA"
"-77.53","44.12","TRENTON AWOS","6158872","2021-02-18 19:00","2021","02","18","19:00","-4.6","","-11.1","","60","","","","9","","6","","14.5","","101.70","","","","-7","","NA"
"-77.53","44.12","TRENTON AWOS","6158872","2021-02-18 20:00","2021","02","18","20:00","-4.6","","-11.3","","59","","","","6","","7","","14.5","","101.68","","","","-8","","NA"
"-77.53","44.12","TRENTON AWOS","6158872","2021-02-18 21:00","2021","02","18","21:00","-5.0","","-11.5","","60","","","","7","","7","","14.5","","101.62","","","","-8","","NA"
"-77.53","44.12","TRENTON AWOS","6158872","2021-02-18 22:00","2021","02","18","22:00","-5.6","","-9.9","","72","","","","7","","11","","11.3","","101.58","","","","-10","","Snow"
"-77.53","44.12","TRENTON AWOS","6158872","2021-02-18 23:00","2021","02","18","23:00","-6.0","","-9.2","","78","","","","5","","9","","9.7","","101.53","","","","-10","","Snow"
"-77.53","44.12","TRENTON AWOS","6158872","2021-02-19 00:00","2021","02","19","00:00","-6.4","","-8.9","","82","","","","5","","9","","5.6","","101.50","","","","-11","","Snow"
"-77.53","44.12","TRENTON AWOS","6158872","2021-02-19 01:00","2021","02","19","01:00","-6.9","","-8.5","","88","","","","5","","13","","3.1","","101.45","","","","-12","","Snow"
"-77.53","44.12","TRENTON AWOS","6158872","2021-02-19 02:00","2021","02","19","02:00","-7.1","","-8.6","","89","","","","6","","9","","6.4","","101.40","","","","-11","","Snow"
"-77.53","44.12","TRENTON AWOS","6158872","2021-02-19 03:00","2021","02","19","03:00","-6.9","","-8.8","","86","","","","6","","11","","14.5","","101.33","","","","-12","","Rain"
"-77.53","44.12","TRENTON AWOS","6158872","2021-02-19 04:00","2021","02","19","04:00","-7.0","","-8.6","","88","","","","5","","13","","3.9","","101.25","","","","-13","","Snow"
"-77.53","44.12","TRENTON AWOS","6158872","2021-02-19 05:00","2021","02","19","05:00","-7.1","","-8.5","","90","","","","5","","11","","1.8","","101.24","","","","-12","","Snow"
"-77.53","44.12","TRENTON AWOS","6158872","2021-02-19 06:00","2021","02","19","06:00","-7.1","","-8.6","","89","","","","5","","11","","12.9","","101.19","","","","-12","","Snow"
"-77.53","44.12","TRENTON AWOS","6158872","2021-02-19 07:00","2021","02","19","07:00","-7.2","","-8.7","","89","","","","4","","13","","8.0","","101.16","","","","-13","","Snow"
"-77.53","44.12","TRENTON AWOS","6158872","2021-02-19 08:00","2021","02","19","08:00","-7.1","","-8.8","","88","","","","5","","11","","11.3","","101.15","","","","-12","","Snow"
"-77.53","44.12","TRENTON AWOS","6158872","2021-02-19 09:00","2021","02","19","09:00","-7.0","","-9.0","","86","","","","6","","13","","8.0","","101.11","","","","-13","","Snow"
"-77.53","44.12","TRENTON AWOS","6158872","2021-02-19 10:00","2021","02","19","10:00","-6.4","","-8.8","","83","","","","5","","13","","8.0","","101.07","","","","-12","","Snow"
"-77.53","44.12","TRENTON AWOS","6158872","2021-02-19 11:00","2021","02","19","11:00","-6.0","","-8.2","","84","","","","3","","13","","12.9","","101.03","","","","-11","","Snow"
"-77.53","44.12","TRENTON AWOS","6158872","2021-02-19 12:00","2021","02","19","12:00"
"-77.53","44.12","TRENTON AWOS","6158872","2021-02-19 13:00","2021","02","19","13:00","-5.3","","-7.6","","84","","","","3","","11","","5.6","","100.92","","","","-10","","Snow"
"-77.53","44.12","TRENTON AWOS","6158872","2021-02-19 14:00","2021","02","19","14:00","-4.5","","-6.7","","85","","","","3","","9","","2.4","","100.87","","","","-8","","Snow"
"-77.53","44.12","TRENTON AWOS","6158872","2021-02-19 15:00","2021","02","19","15:00","-4.1","","-6.5","","83","","","","5","","7","","9.7","","100.88","","","","-7","","Snow"
"-77.53","44.12","TRENTON AWOS","6158872","2021-02-19 16:00","2021","02","19","16:00","-3.6","","-6.8","","79","","","","1","","6","","9.7","","100.90","","","","-6","","Snow"
"-77.53","44.12","TRENTON AWOS","6158872","2021-02-19 17:00","2021","02","19","17:00","-3.8","","-6.8","","80","","","","36","","6","","14.5","","100.89","","","","-6","","NA"
"-77.53","44.12","TRENTON AWOS","6158872","2021-02-19 18:00","2021","02","19","18:00","-4.9","","-6.8","","87","","","","","","0","","14.5","","100.93","","","","","","NA"
"-77.53","44.12","TRENTON AWOS","6158872","2021-02-19 19:00","2021","02","19","19:00","-8.0","","-8.6","","95","","","","","","0","","12.9","","100.94","","","","","","NA"
"-77.53","44.12","TRENTON AWOS","6158872","2021-02-19 20:00","2021","02","19","20:00","-10.2","","-11.3","","92","","","","","","0","","1.1","","100.93","","","","","","NA"
"-77.53","44.12","TRENTON AWOS","6158872","2021-02-19 21:00","2021","02","19","21:00","-12.7","","-13.5","","94","","","","","","0","","8.0","","100.92","","","","","","NA"
"-77.53","44.12","TRENTON AWOS","6158872","2021-02-19 22:00","2021","02","19","22:00","-13.5","","-14.4","","93","","","","","","0","","1.4","","100.97","","","","","","NA"
"-77.53","44.12","TRENTON AWOS","6158872","2021-02-19 23:00","2021","02","19","23:00","-15.0","","-15.8","","94","","","","","","0","","0.2","","100.94","","","","","","NA"
"-77.53","44.12","TRENTON AWOS","6158872","2021-02-20 00:00","2021","02","20","00:00","-8.3","","","M","","M","","","31","","7","","14.5","","100.90","","","","-12","","NA"
"-77.53","44.12","TRENTON AWOS","6158872","2021-02-20 01:00","2021","02","20","01:00","-8.9","","-9.9","","92","","","","30","","6","","14.5","","100.95","","","","-12","","NA"
"-77.53","44.12","TRENTON AWOS","6158872","2021-02-20 02:00","2021","02","20","02:00","-8.6","","-9.9","","90","","","","32","","7","","14.5","","100.96","","","","-12","","NA"
"-77.53","44.12","TRENTON AWOS","6158872","2021-02-20 03:00","2021","02","20","03:00","-8.1","","-9.8","","88","","","","33","","7","","14.5","","100.94","","","","-12","","NA"
"-77.53","44.12","TRENTON AWOS","6158872","2021-02-20 04:00","2021","02","20","04:00","-8.0","","-9.7","","88","","","","27","","7","","14.5","","100.93","","","","-12","","NA"
"-77.53","44.12","TRENTON AWOS","6158872","2021-02-20 05:00","2021","02","20","05:00","-8.3","","-9.9","","88","","","","32","","6","","14.5","","100.94","","","","-12","","NA"
"-77.53","44.12","TRENTON AWOS","6158872","2021-02-20 06:00","2021","02","20","06:00","-9.7","","-10.8","","92","","","","34","","7","","14.5","","100.94","","","","-14","","NA"
"-77.53","44.12","TRENTON AWOS","6158872","2021-02-20 07:00","2021","02","20","07:00","-8.7","","-9.9","","91","","","","33","","6","","14.5","","100.97","","","","-12","","NA"
"-77.53","44.12","TRENTON AWOS","6158872","2021-02-20 08:00","2021","02","20","08:00","-8.6","","-10.1","","89","","","","32","","7","","14.5","","101.00","","","","-12","","NA"
"-77.53","44.12","TRENTON AWOS","6158872","2021-02-20 09:00","2021","02","20","09:00","-7.6","","-9.9","","84","","","","33","","15","","14.5","","101.06","","","","-14","","NA"
"-77.53","44.12","TRENTON AWOS","6158872","2021-02-20 10:00","2021","02","20","10:00","-6.1","","-9.9","","74","","","","31","","7","","14.5","","101.07","","","","-9","","NA"
"-77.53","44.12","TRENTON AWOS","6158872","2021-02-20 11:00","2021","02","20","11:00","-4.6","","-10.0","","66","","","","34","","7","","14.5","","101.08","","","","-8","","NA"
"-77.53","44.12","TRENTON AWOS","6158872","2021-02-20 12:00","2021","02","20","12:00","-3.6","","-10.9","","57","","","","34","","15","","14.5","","101.09","","","","-9","","NA"
"-77.53","44.12","TRENTON AWOS","6158872","2021-02-20 13:00","2021","02","20","13:00","-2.7","","-10.8","","54","","","","32","","9","","14.5","","101.07","","","","-6","","NA"
"-77.53","44.12","TRENTON AWOS","6158872","2021-02-20 14:00","2021","02","20","14:00","-2.5","","-9.9","","57","","","","34","","9","","14.5","","101.07","","","","-6","","NA"
"-77.53","44.12","TRENTON AWOS","6158872","2021-02-20 15:00","2021","02","20","15:00","-2.6","","-10.1","","56","","","","31","","20","","14.5","","101.10","","","","-9","","NA"
"-77.53","44.12","TRENTON AWOS","6158872","2021-02-20 16:00","2021","02","20","16:00"
"-77.53","44.12","TRENTON AWOS","6158872","2021-02-20 17:00","2021","02","20","17:00","-2.5","","-7.9","","66","","","","36","","11","","14.5","","101.21","","","","-7","","NA"
"-77.53","44.12","TRENTON AWOS","6158872","2021-02-20 18:00","2021","02","20","18:00","-3.1","","-9.3","","62","","","","30","","7","","14.5","","101.31","","","","-6","","NA"
"-77.53","44.12","TRENTON AWOS","6158872","2021-02-20 19:00","2021","02","20","19:00","-4.7","","-10.3","","65","","","","27","","7","","14.5","","101.40","","","","-8","","NA"
"-77.53","44.12","TRENTON AWOS","6158872","2021-02-20 20:00","2021","02","20","20:00","-5.5","","-10.9","","66","","","","30","","11","","14.5","","101.49","","","","-10","","NA"
"-77.53","44.12","TRENTON AWOS","6158872","2021-02-20 21:00","2021","02","20","21:00","-5.4","","-11.3","","63","","","","31","","11","","14.5","","101.56","","","","-10","","NA"
"-77.53","44.12","TRENTON AWOS","6158872","2021-02-20 22:00","2021","02","20","22:00","-6.4","","-11.1","","69","","","","30","","13","","14.5","","101.64","","","","-12","","NA"
"-77.53","44.12","TRENTON AWOS","6158872","2021-02-20 23:00","2021","02","20","23:00","-7.4","","-11.4","","73","","","","32","","9","","14.5","","101.73","","","","-12","","NA"
"-77.53","44.12","TRENTON AWOS","6158872","2021-02-21 00:00","2021","02","21","00:00","-8.1","","-11.4","","77","","","","33","","11","","14.5","","101.80","","","","-13","","NA"
"-77.53","44.12","TRENTON AWOS","6158872","2021-02-21 01:00","2021","02","21","01:00","-8.8","","-11.7","","80","","","","33","","11","","14.5","","101.90","","","","-14","","NA"
"-77.53","44.12","TRENTON AWOS","6158872","2021-02-21 02:00","2021","02","21","02:00","-9.4","","-12.1","","81","","","","32","","13","","14.5","","101.99","","","","-15","","NA"
"-77.53","44.12","TRENTON AWOS","6158872","2021-02-21 03:00","2021","02","21","03:00","-10.0","","-12.4","","83","","","","33","","13","","14.5","","102.03","","","","-16","","NA"
"-77.53","44.12","TRENTON AWOS","6158872","2021-02-21 04:00","2021","02","21","04:00","-12.8","","-14.6","","86","","","","34","","9","","14.5","","102.05","","","","-18","","NA"
"-77.53","44.12","TRENTON AWOS","6158872","2021-02-21 05:00","2021","02","21","05:00","-11.5","","-12.6","","92","","","","","","0","","14.5","","102.12","","","","","","NA"
"-77.53","44.12","TRENTON AWOS","6158872","2021-02-21 06:00","2021","02","21","06:00","-12.7","","-13.7","","92","","","","","","0","","14.5","","102.18","","","","","","NA"
"-77.53","44.12","TRENTON AWOS","6158872","2021-02-21 07:00","2021","02","21","07:00","-11.2","","-12.9","","87","","","","","","0","","14.5","","102.22","","","","","","NA"
"-77.53","44.12","TRENTON AWOS","6158872","2021-02-21 08:00","2021","02","21","08:00","-12.0","","-13.5","","89","","","","","","0","","14.5","","102.26","","","","","","NA"
"-77.53","44.12","TRENTON AWOS","6158872","2021-02-21 09:00","2021","02","21","09:00","-9.1","","-11.4","","83","","","","","","0","","14.5","","102.29","","","","","","NA"
"-77.53","44.12","TRENTON AWOS","6158872","2021-02-21 10:00","2021","02","21","10:00","-6.6","","-10.9","","72","","","","","","0","","14.5","","102.29","","","","","","NA"
"-77.53","44.12","TRENTON AWOS","6158872","2021-02-21 11:00","2021","02","21","11:00","-2.2","","-9.7","","56","","","","","","0","","14.5","","102.27","","","","","","NA"
"-77.53","44.12","TRENTON AWOS","6158872","2021-02-21 12:00","2021","02","21","12:00","-2.1","","-7.9","","65","","","","21","","11","","14.5","","102.27","","","","-6","","NA"
"-77.53","44.12","TRENTON AWOS","6158872","2021-02-21 13:00","2021","02","21","13:00","-1.8","","-5.4","","76","","","","21","","17","","14.5","","102.22","","","","-7","","NA"
"-77.53","44.12","TRENTON AWOS","6158872","2021-02-21 14:00","2021","02","21","14:00","-1.5","","-5.9","","72","","","","21","","17","","14.5","","102.11","","","","-7","","NA"
"-77.53","44.12","TRENTON AWOS","6158872","2021-02-21 15:00","2021","02","21","15:00","-1.7","","-6.9","","68","","","","21","","13","","14.5","","102.05","","","","-6","","NA"
"-77.53","44.12","TRENTON AWOS","6158872","2021-02-21 16:00","2021","02","21","16:00","-1.8","","-7.1","","67","","","","22","","17","","14.5","","102.04","","","","-7","","NA"
"-77.53","44.12","TRENTON AWOS","6158872","2021-02-21 17:00","2021","02","21","17:00","-2.0","","-6.8","","70","","","","22","","11","","14.5","","102.01","","","","-6","","NA"
"-77.53","44.12","TRENTON AWOS","6158872","2021-02-21 18:00","2021","02","21","18:00","-3.6","","-8.2","","70","","","","18","","4","","14.5","","101.92","","","","-5","","NA"
"-77.53","44.12","TRENTON AWOS","6158872","2021-02-21 19:00","2021","02","21","19:00","-6.8","","-9.4","","82","","","","7","","4","","14.5","","101.85","","","","-9","","NA"
"-77.53","44.12","TRENTON AWOS","6158872","2021-02-21 20:00","2021","02","21","20:00","-8.8","","-10.2","","90","","","","9","","4","","14.5","","101.72","","","","-11","","NA"
"-77.53","44.12","TRENTON AWOS","6158872","2021-02-21 21:00","2021","02","21","21:00","-7.4","","-9.2","","87","","","","9","","6","","14.5","","101.57","","","","-11","","NA"
"-77.53","44.12","TRENTON AWOS","6158872","2021-02-21 22:00","2021","02","21","22:00","-6.1","","-8.6","","82","","","","7","","6","","14.5","","101.48","","","","-9","","NA"
"-77.53","44.12","TRENTON AWOS","6158872","2021-02-21 23:00","2021","02","21","23:00","-6.1","","-8.8","","81","","","","8","","6","","14.5","","101.32","","","","-9","","NA"
"-77.53","44.12","TRENTON AWOS","6158872","2021-02-22 00:00","2021","02","22","00:00","-5.0","","-8.6","","76","","","","9","","7","","14.5","","101.18","","","","-8","","NA"
"-77.53","44.12","TRENTON AWOS","6158872","2021-02-22 01:00","2021","02","22","01:00","-4.3","","-7.3","","80","","","","6","","6","","14.5","","101.06","","","","-7","","NA"
"-77.53","44.12","TRENTON AWOS","6158872","2021-02-22 02:00","2021","02","22","02:00","-0.4","","-5.9","","66","","","","16","","9","","14.5","","100.89","","","","-4","","NA"
"-77.53","44.12","TRENTON AWOS","6158872","2021-02-22 03:00","2021","02","22","03:00","-0.3","","-6.7","","62","","","","16","","9","","14.5","","100.71","","","","-3","","NA"
"-77.53","44.12","TRENTON AWOS","6158872","2021-02-22 04:00","2021","02","22","04:00","-0.7","","-6.2","","66","","","","14","","6","","14.5","","100.60","","","","-3","","NA"
"-77.53","44.12","TRENTON AWOS","6158872","2021-02-22 05:00","2021","02","22","05:00","-0.3","","-6.2","","64","","","","9","","11","","14.5","","100.42","","","","-4","","NA"
"-77.53","44.12","TRENTON AWOS","6158872","2021-02-22 06:00","2021","02","22","06:00","0.0","","-5.0","","69","","","","16","","17","","14.5","","100.29","","","","-5","","NA"
"-77.53","44.12","TRENTON AWOS","6158872","2021-02-22 07:00","2021","02","22","07:00","-1.6","","-2.6","","93","","","","16","","15","","0.6","","100.13","","","","-6","","Snow"
"-77.53","44.12","TRENTON AWOS","6158872","2021-02-22 08:00","2021","02","22","08:00","-1.3","","-2.2","","94","","","","16","","15","","1.0","","99.92","","","","-6","","Snow"
"-77.53","44.12","TRENTON AWOS","6158872","2021-02-22 09:00","2021","02","22","09:00","-0.9","","-1.1","","99","","","","16","","13","","0.5","","99.82","","","","-5","","Snow"
"-77.53","44.12","TRENTON AWOS","6158872","2021-02-22 10:00","2021","02","22","10:00","-1.0","","-1.3","","98","","","","17","","17","","0.6","","99.66","","","","-6","","Snow"
"-77.53","44.12","TRENTON AWOS","6158872","2021-02-22 11:00","2021","02","22","11:00","-0.7","","-0.9","","99","","","","16","","19","","0.5","","99.49","","","","-6","","Snow"
"-77.53","44.12","TRENTON AWOS","6158872","2021-02-22 12:00","2021","02","22","12:00","-0.3","","-0.5","","99","","","","16","","13","","0.6","","99.40","","","","-4","","NA"
"-77.53","44.12","TRENTON AWOS","6158872","2021-02-22 13:00","2021","02","22","13:00","0.3","","0.1","","99","","","","18","","6","","1.1","","99.23","","","","","","NA"
"-77.53","44.12","TRENTON AWOS","6158872","2021-02-22 14:00","2021","02","22","14:00","1.2","","0.1","","92","","","","19","","11","","4.8","","99.11","","","","","","NA"
"-77.53","44.12","TRENTON AWOS","6158872","2021-02-22 15:00","2021","02","22","15:00","1.5","","0.7","","94","","","","20","","19","","6.4","","99.02","","","","","","Rain"
"-77.53","44.12","TRENTON AWOS","6158872","2021-02-22 16:00","2021","02","22","16:00","2.0","","1.1","","94","","","","22","","20","","14.5","","99.00","","","","","","Rain"
"-77.53","44.12","TRENTON AWOS","6158872","2021-02-22 17:00","2021","02","22","17:00","2.4","","1.1","","91","","","","23","","28","","14.5","","99.01","","","","","","Rain"
"-77.53","44.12","TRENTON AWOS","6158872","2021-02-22 18:00","2021","02","22","18:00","2.2","","1.0","","92","","","","24","","28","","14.5","","99.05","","","","","","Rain"
"-77.53","44.12","TRENTON AWOS","6158872","2021-02-22 19:00","2021","02","22","19:00","2.3","","0.8","","90","","","","23","","24","","14.5","","99.12","","","","","","NA"
"-77.53","44.12","TRENTON AWOS","6158872","2021-02-22 20:00","2021","02","22","20:00","2.0","","0.4","","89","","","","24","","20","","14.5","","99.15","","","","","","NA"
"-77.53","44.12","TRENTON AWOS","6158872","2021-02-22 21:00","2021","02","22","21:00","2.1","","-1.0","","80","","","","28","","19","","14.5","","99.23","","","","","","NA"
"-77.53","44.12","TRENTON AWOS","6158872","2021-02-22 22:00","2021","02","22","22:00","2.0","","-0.9","","81","","","","25","","22","","14.5","","99.29","","","","","","NA"
"-77.53","44.12","TRENTON AWOS","6158872","2021-02-22 23:00","2021","02","22","23:00","1.9","","-2.1","","75","","","","25","","19","","14.5","","99.29","","","","","","NA"
"-77.53","44.12","TRENTON AWOS","6158872","2021-02-23 00:00","2021","02","23","00:00","1.7","","-1.1","","82","","","","23","","15","","14.5","","99.26","","","","","","NA"
"-77.53","44.12","TRENTON AWOS","6158872","2021-02-23 01:00","2021","02","23","01:00","1.3","","-0.7","","87","","","","24","","24","","8.0","","99.23","","","","","","NA"
"-77.53","44.12","TRENTON AWOS","6158872","2021-02-23 02:00","2021","02","23","02:00","1.1","","-1.4","","83","","","","23","","28","","9.7","","99.19","","","","","","Snow"
"-77.53","44.12","TRENTON AWOS","6158872","2021-02-23 03:00","2021","02","23","03:00","0.6","","-2.1","","82","","","","23","","24","","11.3","","99.15","","","","","","Snow"
"-77.53","44.12","TRENTON AWOS","6158872","2021-02-23 04:00","2021","02","23","04:00","0.9","","-1.6","","83","","","","24","","24","","11.3","","99.07","","","","","","NA"
"-77.53","44.12","TRENTON AWOS","6158872","2021-02-23 05:00","2021","02","23","05:00","0.9","","-1.8","","82","","","","25","","20","","11.3","","99.00","","","","","","NA"
"-77.53","44.12","TRENTON AWOS","6158872","2021-02-23 06:00","2021","02","23","06:00","1.1","","-1.7","","82","","","","23","","9","","11.3","","98.92","","","","","","NA"
"-77.53","44.12","TRENTON AWOS","6158872","2021-02-23 07:00","2021","02","23","07:00","1.3","","-0.9","","85","","","","23","","9","","11.3","","98.86","","","","","","NA"
"-77.53","44.12","TRENTON AWOS","6158872","2021-02-23 08:00","2021","02","23","08:00","1.6","","-1.1","","82","","","","21","","13","","12.9","","98.82","","","","","","NA"
"-77.53","44.12","TRENTON AWOS","6158872","2021-02-23 09:00","2021","02","23","09:00","0.6","","0.1","","96","","","","21","","13","","3.1","","98.81","","","","","","NA"
"-77.53","44.12","TRENTON AWOS","6158872","2021-02-23 10:00","2021","02","23","10:00","0.6","","0.5","","99","","","","20","","11","","1.9","","98.74","","","","","","NA"
"-77.53","44.12","TRENTON AWOS","6158872","2021-02-23 11:00","2021","02","23","11:00","0.6","","0.6","","100","","","","21","","9","","1.8","","98.73","","","","","","NA"
"-77.53","44.12","TRENTON AWOS","6158872","2021-02-23 12:00","2021","02","23","12:00","1.1","","1.0","","99","","","","22","","11","","4.0","","98.71","","","","","","NA"
"-77.53","44.12","TRENTON AWOS","6158872","2021-02-23 13:00","2021","02","23","13:00","2.5","","1.3","","92","","","","24","","17","","9.7","","98.72","","","","","","Rain"
"-77.53","44.12","TRENTON AWOS","6158872","2021-02-23 14:00","2021","02","23","14:00","2.6","","1.1","","90","","","","28","","20","","9.7","","98.82","","","","","","Rain"
"-77.53","44.12","TRENTON AWOS","6158872","2021-02-23 15:00","2021","02","23","15:00","3.0","","1.1","","87","","","","27","","17","","14.5","","98.93","","","","","","Drizzle"
"-77.53","44.12","TRENTON AWOS","6158872","2021-02-23 16:00","2021","02","23","16:00","3.3","","0.6","","82","","","","27","","19","","14.5","","99.07","","","","","","NA"
"-77.53","44.12","TRENTON AWOS","6158872","2021-02-23 17:00","2021","02","23","17:00","3.4","","0.7","","83","","","","25","","22","","14.5","","99.17","","","","","","NA"
"-77.53","44.12","TRENTON AWOS","6158872","2021-02-23 18:00","2021","02","23","18:00","3.7","","0.7","","81","","","","26","","24","","14.5","","99.30","","","","","","NA"
"-77.53","44.12","TRENTON AWOS","6158872","2021-02-23 19:00","2021","02","23","19:00","2.8","","0.9","","87","","","","24","","17","","14.5","","99.48","","","","","","NA"
"-77.53","44.12","TRENTON AWOS","6158872","2021-02-23 20:00","2021","02","23","20:00","2.7","","1.0","","89","","","","23","","15","","14.5","","99.58","","","","","","NA"
"-77.53","44.12","TRENTON AWOS","6158872","2021-02-23 21:00","2021","02","23","21:00","2.9","","0.5","","84","","","","22","","17","","14.5","","99.73","","","","","","NA"
"-77.53","44.12","TRENTON AWOS","6158872","2021-02-23 22:00","2021","02","23","22:00","3.2","","-0.6","","76","","","","25","","19","","14.5","","99.86","","","","","","NA"
"-77.53","44.12","TRENTON AWOS","6158872","2021-02-23 23:00","2021","02","23","23:00","2.3","","-0.1","","84","","","","21","","13","","14.5","","99.93","","","","","","NA"
"-77.53","44.12","TRENTON AWOS","6158872","2021-02-24 00:00","2021","02","24","00:00","2.0","","-0.4","","84","","","","23","","17","","14.5","","99.99","","","","","","NA"
"-77.53","44.12","TRENTON AWOS","6158872","2021-02-24 01:00","2021","02","24","01:00","1.2","","-0.9","","86","","","","22","","13","","14.5","","100.08","","","","","","NA"
"-77.53","44.12","TRENTON AWOS","6158872","2021-02-24 02:00","2021","02","24","02:00","0.7","","-1.8","","83","","","","24","","15","","14.5","","100.19","","","","","","NA"
"-77.53","44.12","TRENTON AWOS","6158872","2021-02-24 03:00","2021","02","24","03:00","-0.5","","-1.9","","90","","","","24","","9","","14.5","","100.18","","","","-4","","NA"
"-77.53","44.12","TRENTON AWOS","6158872","2021-02-24 04:00","2021","02","24","04:00","-0.8","","-2.0","","92","","","","23","","6","","14.5","","100.20","","","","-3","","NA"
"-77.53","44.12","TRENTON AWOS","6158872","2021-02-24 05:00","2021","02","24","05:00","-2.1","","-2.8","","95","","","","","","0","","14.5","","100.26","","","","","","NA"
"-77.53","44.12","TRENTON AWOS","6158872","2021-02-24 06:00","2021","02","24","06:00","-3.6","","-4.0","","97","","","","3","","4","","9.7","","100.29","","","","-5","","NA"
"-77.53","44.12","TRENTON AWOS","6158872","2021-02-24 07:00","2021","02","24","07:00","-2.9","","-3.0","","99","","","","16","","4","","6.4","","100.27","","","","-4","","NA"
"-77.53","44.12","TRENTON AWOS","6158872","2021-02-24 08:00","2021","02","24","08:00","-2.3","","-2.5","","99","","","","","","0","","6.4","","100.28","","","","","","NA"
"-77.53","44.12","TRENTON AWOS","6158872","2021-02-24 09:00","2021","02","24","09:00","1.0","","0.1","","94","","","","10","","6","","8.0","","100.09","","","","","","NA"
"-77.53","44.12","TRENTON AWOS","6158872","2021-02-24 10:00","2021","02","24","10:00","2.5","","0.7","","88","","","","15","","6","","8.0","","100.04","","","","","","NA"
"-77.53","44.12","TRENTON AWOS","6158872","2021-02-24 11:00","2021","02","24","11:00","3.7","","0.3","","78","","","","14","","13","","14.5","","99.85","","","","","","NA"
"-77.53","44.12","TRENTON AWOS","6158872","2021-02-24 12:00","2021","02","24","12:00","4.6","","-0.1","","72","","","","12","","11","","14.5","","99.62","","","","","","NA"
"-77.53","44.12","TRENTON AWOS","6158872","2021-02-24 13:00","2021","02","24","13:00","4.8","","-0.3","","70","","","","13","","17","","14.5","","99.35","","","","","","NA"
"-77.53","44.12","TRENTON AWOS","6158872","2021-02-24 14:00","2021","02","24","14:00","5.5","","-0.9","","63","","","","13","","11","","14.5","","99.16","","","","","","NA"
"-77.53","44.12","TRENTON AWOS","6158872","2021-02-24 15:00","2021","02","24","15:00","5.0","","0.0","","70","","","","","","0","","14.5","","99.12","","","","","","Rain"
"-77.53","44.12","TRENTON AWOS","6158872","2021-02-24 16:00","2021","02","24","16:00","5.8","","1.7","","75","","","","17","","7","","14.5","","98.92","","","","","","NA"
"-77.53","44.12","TRENTON AWOS","6158872","2021-02-24 17:00","2021","02","24","17:00","5.5","","1.2","","74","","","","23","","9","","14.5","","98.92","","","","","","NA"
"-77.53","44.12","TRENTON AWOS","6158872","2021-02-24 18:00","2021","02","24","18:00","5.0","","0.8","","74","","","","24","","26","","14.5","","98.98","","","","","","NA"
"-77.53","44.12","TRENTON AWOS","6158872","2021-02-24 19:00","2021","02","24","19:00","5.6","","1.0","","72","","","","23","","20","","14.5","","99.06","","","","","","NA"
"-77.53","44.12","TRENTON AWOS","6158872","2021-02-24 20:00","2021","02","24","20:00","4.5","","1.2","","79","","","","23","","20","","14.5","","99.12","","","","","","Drizzle"
"-77.53","44.12","TRENTON AWOS","6158872","2021-02-24 21:00","2021","02","24","21:00","4.7","","0.2","","73","","","","27","","41","","14.5","","99.23","","","","","","NA"
"-77.53","44.12","TRENTON AWOS","6158872","2021-02-24 22:00","2021","02","24","22:00","3.7","","-0.5","","74","","","","28","","37","","14.5","","99.45","","","","","","NA"
"-77.53","44.12","TRENTON AWOS","6158872","2021-02-24 23:00","2021","02","24","23:00","2.9","","-1.8","","71","","","","32","","37","","14.5","","99.74","","","","","","Snow"
"-77.53","44.12","TRENTON AWOS","6158872","2021-02-25 00:00","2021","02","25","00:00","2.0","","-3.3","","68","","","","32","","30","","14.5","","100.04","","","","","","Snow"
"-77.53","44.12","TRENTON AWOS","6158872","2021-02-25 01:00","2021","02","25","01:00","0.9","","-3.9","","70","","","","31","","17","","14.5","","100.25","","","","","","NA"
"-77.53","44.12","TRENTON AWOS","6158872","2021-02-25 02:00","2021","02","25","02:00","0.3","","-4.9","","68","","","","31","","19","","14.5","","100.45","","","","","","NA"
"-77.53","44.12","TRENTON AWOS","6158872","2021-02-25 03:00","2021","02","25","03:00","-0.2","","-5.2","","69","","","","30","","11","","14.5","","100.56","","","","-4","","NA"
"-77.53","44.12","TRENTON AWOS","6158872","2021-02-25 04:00","2021","02","25","04:00","-2.0","","-6.0","","74","","","","26","","9","","14.5","","100.60","","","","-5","","NA"
"-77.53","44.12","TRENTON AWOS","6158872","2021-02-25 05:00","2021","02","25","05:00","-1.6","","-5.7","","74","","","","23","","9","","14.5","","100.70","","","","-5","","NA"
"-77.53","44.12","TRENTON AWOS","6158872","2021-02-25 06:00","2021","02","25","06:00","-0.9","","-4.7","","75","","","","26","","19","","14.5","","100.77","","","","-6","","NA"
"-77.53","44.12","TRENTON AWOS","6158872","2021-02-25 07:00","2021","02","25","07:00","-0.8","","-5.5","","70","","","","27","","19","","14.5","","100.78","","","","-6","","NA"
"-77.53","44.12","TRENTON AWOS","6158872","2021-02-25 08:00","2021","02","25","08:00","-0.9","","-6.5","","66","","","","28","","22","","14.5","","100.88","","","","-7","","NA"
"-77.53","44.12","TRENTON AWOS","6158872","2021-02-25 09:00","2021","02","25","09:00","-1.5","","-6.5","","69","","","","27","","20","","14.5","","101.00","","","","-7","","NA"
"-77.53","44.12","TRENTON AWOS","6158872","2021-02-25 10:00","2021","02","25","10:00","-2.2","","-6.8","","71","","","","27","","24","","14.5","","101.06","","","","-9","","NA"
"-77.53","44.12","TRENTON AWOS","6158872","2021-02-25 11:00","2021","02","25","11:00","-1.7","","-7.5","","65","","","","27","","19","","14.5","","101.12","","","","-7","","NA"
"-77.53","44.12","TRENTON AWOS","6158872","2021-02-25 12:00","2021","02","25","12:00","-1.4","","-8.0","","61","","","","28","","22","","14.5","","101.18","","","","-7","","NA"
"-77.53","44.12","TRENTON AWOS","6158872","2021-02-25 13:00","2021","02","25","13:00","-1.5","","-8.9","","57","","","","29","","20","","14.5","","101.17","","","","-7","","NA"
"-77.53","44.12","TRENTON AWOS","6158872","2021-02-25 14:00","2021","02","25","14:00","-1.9","","-10.5","","52","","","","29","","17","","14.5","","101.20","","","","-7","","NA"
"-77.53","44.12","TRENTON AWOS","6158872","2021-02-25 15:00","2021","02","25","15:00","-1.8","","-11.0","","49","","","","28","","24","","14.5","","101.23","","","","-8","","NA"
"-77.53","44.12","TRENTON AWOS","6158872","2021-02-25 16:00","2021","02","25","16:00","-2.2","","-12.4","","46","","","","29","","26","","14.5","","101.26","","","","-9","","NA"
"-77.53","44.12","TRENTON AWOS","6158872","2021-02-25 17:00","2021","02","25","17:00","-2.1","","-12.8","","44","","","","27","","22","","14.5","","101.29","","","","-8","","NA"
"-77.53","44.12","TRENTON AWOS","6158872","2021-02-25 18:00","2021","02","25","18:00","-3.2","","-10.5","","57","","","","28","","13","","14.5","","101.31","","","","-8","","NA"
"-77.53","44.12","TRENTON AWOS","6158872","2021-02-25 19:00","2021","02","25","19:00","-3.5","","-11.3","","55","","","","30","","15","","14.5","","101.34","","","","-9","","NA"
"-77.53","44.12","TRENTON AWOS","6158872","2021-02-25 20:00","2021","02","25","20:00","-4.0","","-10.7","","60","","","","32","","11","","14.5","","101.36","","","","-8","","NA"
"-77.53","44.12","TRENTON AWOS","6158872","2021-02-25 21:00","2021","02","25","21:00","-4.1","","-10.2","","63","","","","32","","9","","14.5","","101.39","","","","-8","","NA"
"-77.53","44.12","TRENTON AWOS","6158872","2021-02-25 22:00","2021","02","25","22:00","-3.8","","-10.4","","60","","","","29","","4","","14.5","","101.44","","","","-5","","NA"
"-77.53","44.12","TRENTON AWOS","6158872","2021-02-25 23:00","2021","02","25","23:00","-4.2","","-9.5","","67","","","","2","","6","","14.5","","101.45","","","","-7","","NA"
"-77.53","44.12","TRENTON AWOS","6158872","2021-02-26 00:00","2021","02","26","00:00","-4.6","","-10.1","","65","","","","","","0","","14.5","","101.44","","","","","","NA"
"-77.53","44.12","TRENTON AWOS","6158872","2021-02-26 01:00","2021","02","26","01:00","-4.6","","-10.3","","64","","","","","","0","","14.5","","101.46","","","","","","NA"
"-77.53","44.12","TRENTON AWOS","6158872","2021-02-26 02:00","2021","02","26","02:00","-5.0","","-9.0","","74","","","","","","0","","14.5","","101.51","","","","","","NA"
"-77.53","44.12","TRENTON AWOS","6158872","2021-02-26 03:00","2021","02","26","03:00","-5.1","","-8.7","","76","","","","3","","4","","14.5","","101.53","","","","-7","","NA"
"-77.53","44.12","TRENTON AWOS","6158872","2021-02-26 04:00","2021","02","26","04:00","-7.0","","-9.7","","81","","","","4","","6","","14.5","","101.63","","","","-10","","NA"
"-77.53","44.12","TRENTON AWOS","6158872","2021-02-26 05:00","2021","02","26","05:00","-7.7","","-10.3","","82","","","","","","0","","14.5","","101.71","","","","","","NA"
"-77.53","44.12","TRENTON AWOS","6158872","2021-02-26 06:00","2021","02","26","06:00","-9.7","","-11.2","","89","","","","","","0","","14.5","","101.80","","","","","","NA"
"-77.53","44.12","TRENTON AWOS","6158872","2021-02-26 07:00","2021","02","26","07:00","-10.9","","-12.6","","87","","","","4","","4","","14.5","","101.85","","","","-13","","NA"
"-77.53","44.12","TRENTON AWOS","6158872","2021-02-26 08:00","2021","02","26","08:00","-9.0","","-11.7","","81","","","","30","","4","","14.5","","101.97","","","","-11","","NA"
"-77.53","44.12","TRENTON AWOS","6158872","2021-02-26 09:00","2021","02","26","09:00","-4.9","","-10.2","","66","","","","2","","4","","14.5","","101.95","","","","-7","","NA"
"-77.53","44.12","TRENTON AWOS","6158872","2021-02-26 10:00","2021","02","26","10:00","-1.9","","-8.0","","63","","","","15","","6","","14.5","","101.88","","","","-4","","NA"
"-77.53","44.12","TRENTON AWOS","6158872","2021-02-26 11:00","2021","02","26","11:00","-0.1","","-7.2","","59","","","","19","","7","","14.5","","101.86","","","","-3","","NA"
"-77.53","44.12","TRENTON AWOS","6158872","2021-02-26 12:00","2021","02","26","12:00","-0.1","","-7.0","","60","","","","23","","13","","14.5","","101.85","","","","-4","","NA"
"-77.53","44.12","TRENTON AWOS","6158872","2021-02-26 13:00","2021","02","26","13:00","0.0","","-6.7","","61","","","","22","","17","","14.5","","101.94","","","","-5","","NA"
"-77.53","44.12","TRENTON AWOS","6158872","2021-02-26 14:00","2021","02","26","14:00","0.3","","-7.0","","58","","","","21","","17","","14.5","","101.96","","","","","","NA"
"-77.53","44.12","TRENTON AWOS","6158872","2021-02-26 15:00","2021","02","26","15:00","0.6","","-6.8","","58","","","","19","","11","","14.5","","101.93","","","","","","NA"
"-77.53","44.12","TRENTON AWOS","6158872","2021-02-26 16:00","2021","02","26","16:00","1.0","","-6.0","","60","","","","20","","11","","14.5","","101.84","","","","","","NA"
"-77.53","44.12","TRENTON AWOS","6158872","2021-02-26 17:00","2021","02","26","17:00","0.6","","-6.3","","60","","","","14","","4","","14.5","","101.65","","","","","","NA"
"-77.53","44.12","TRENTON AWOS","6158872","2021-02-26 18:00","2021","02","26","18:00","-0.5","","-6.9","","62","","","","17","","6","","14.5","","101.64","","","","-3","","NA"
"-77.53","44.12","TRENTON AWOS","6158872","2021-02-26 19:00","2021","02","26","19:00","-1.6","","-7.8","","63","","","","15","","4","","14.5","","101.64","","","","-3","","NA"
"-77.53","44.12","TRENTON AWOS","6158872","2021-02-26 20:00","2021","02","26","20:00","-3.6","","-8.5","","69","","","","4","","7","","14.5","","101.52","","","","-7","","NA"
"-77.53","44.12","TRENTON AWOS","6158872","2021-02-26 21:00","2021","02","26","21:00","-3.2","","-6.2","","80","","","","7","","7","","14.5","","101.45","","","","-6","","NA"
"-77.53","44.12","TRENTON AWOS","6158872","2021-02-26 22:00","2021","02","26","22:00","-5.4","","-7.4","","86","","","","5","","6","","14.5","","101.40","","","","-8","","NA"
"-77.53","44.12","TRENTON AWOS","6158872","2021-02-26 23:00","2021","02","26","23:00","-5.8","","-6.4","","96","","","","5","","6","","14.5","","101.25","","","","-9","","NA"
"-77.53","44.12","TRENTON AWOS","6158872","2021-02-27 00:00","2021","02","27","00:00","-5.4","","-6.3","","93","","","","6","","9","","14.5","","101.14","","","","-9","","NA"
"-77.53","44.12","TRENTON AWOS","6158872","2021-02-27 01:00","2021","02","27","01:00","-5.9","","-6.5","","96","","","","6","","7","","14.5","","101.06","","","","-9","","NA"
"-77.53","44.12","TRENTON AWOS","6158872","2021-02-27 02:00","2021","02","27","02:00","-2.4","","-5.4","","80","","","","13","","9","","14.5","","100.93","","","","-6","","NA"
"-77.53","44.12","TRENTON AWOS","6158872","2021-02-27 03:00","2021","02","27","03:00","0.5","","-4.4","","70","","","","15","","9","","14.5","","100.86","","","","","","NA"
"-77.53","44.12","TRENTON AWOS","6158872","2021-02-27 04:00","2021","02","27","04:00","-0.1","","-4.7","","71","","","","10","","7","","14.5","","100.74","","","","-3","","NA"
"-77.53","44.12","TRENTON AWOS","6158872","2021-02-27 05:00","2021","02","27","05:00","-0.4","","-4.6","","73","","","","9","","7","","14.5","","100.59","","","","-3","","NA"
"-77.53","44.12","TRENTON AWOS","6158872","2021-02-27 06:00","2021","02","27","06:00","2.5","","-1.4","","75","","","","15","","13","","14.5","","100.44","","","","","","NA"
"-77.53","44.12","TRENTON AWOS","6158872","2021-02-27 07:00","2021","02","27","07:00","2.5","","0.0","","84","","","","14","","11","","12.9","","100.34","","","","","","Rain"
"-77.53","44.12","TRENTON AWOS","6158872","2021-02-27 08:00","2021","02","27","08:00"
"-77.53","44.12","TRENTON AWOS","6158872","2021-02-27 09:00","2021","02","27","09:00","1.8","","1.3","","97","","","","16","","13","","4.0","","100.21","","","","","","Heavy Rain"
"-77.53","44.12","TRENTON AWOS","6158872","2021-02-27 10:00","2021","02","27","10:00","2.2","","1.7","","97","","","","15","","9","","9.7","","100.09","","","","","","Moderate Rain"
"-77.53","44.12","TRENTON AWOS","6158872","2021-02-27 11:00","2021","02","27","11:00","3.0","","2.4","","96","","","","19","","15","","12.9","","100.04","","","","","","Rain"
"-77.53","44.12","TRENTON AWOS","6158872","2021-02-27 12:00","2021","02","27","12:00","3.7","","2.9","","95","","","","21","","20","","14.5","","100.04","","","","","","NA"
"-77.53","44.12","TRENTON AWOS","6158872","2021-02-27 13:00","2021","02","27","13:00","3.9","","3.2","","95","","","","24","","31","","14.5","","100.10","","","","","","Drizzle"
"-77.53","44.12","TRENTON AWOS","6158872","2021-02-27 14:00","2021","02","27","14:00","4.0","","2.7","","91","","","","24","","24","","14.5","","100.19","","","","","","NA"
"-77.53","44.12","TRENTON AWOS","6158872","2021-02-27 15:00","2021","02","27","15:00","4.8","","0.6","","74","","","","27","","33","","14.5","","100.36","","","","","","NA"
"-77.53","44.12","TRENTON AWOS","6158872","2021-02-27 16:00","2021","02","27","16:00","4.1","","-0.5","","72","","","","29","","30","","14.5","","100.59","","","","","","NA"
"-77.53","44.12","TRENTON AWOS","6158872","2021-02-27 17:00","2021","02","27","17:00","4.1","","-0.4","","73","","","","28","","22","","14.5","","100.75","","","","","","NA"
"-77.53","44.12","TRENTON AWOS","6158872","2021-02-27 18:00","2021","02","27","18:00","3.6","","-0.5","","75","","","","29","","15","","14.5","","100.91","","","","","","NA"
"-77.53","44.12","TRENTON AWOS","6158872","2021-02-27 19:00","2021","02","27","19:00","2.4","","-0.4","","82","","","","24","","9","","14.5","","101.06","","","","","","NA"
"-77.53","44.12","TRENTON AWOS","6158872","2021-02-27 20:00","2021","02","27","20:00","0.9","","-0.5","","90","","","","25","","11","","14.5","","101.15","","","","","","NA"
"-77.53","44.12","TRENTON AWOS","6158872","2021-02-27 21:00","2021","02","27","21:00","0.3","","-0.6","","94","","","","27","","9","","11.3","","101.22","","","","","","NA"
"-77.53","44.12","TRENTON AWOS","6158872","2021-02-27 22:00","2021","02","27","22:00","-0.3","","-0.6","","98","","","","19","","6","","6.4","","101.26","","","","-2","","NA"
"-77.53","44.12","TRENTON AWOS","6158872","2021-02-27 23:00","2021","02","27","23:00","-1.5","","-1.5","","100","","","","","","0","","2.7","","101.37","","","","","","NA"
"-77.53","44.12","TRENTON AWOS","6158872","2021-02-28 00:00","2021","02","28","00:00","-2.8","","-2.8","","100","","","","","","0","","3.4","","101.36","","","","","","NA"
"-77.53","44.12","TRENTON AWOS","6158872","2021-02-28 01:00","2021","02","28","01:00","-4.1","","-4.5","","97","","","","4","","4","","3.2","","101.36","","","","-6","","NA"
"-77.53","44.12","TRENTON AWOS","6158872","2021-02-28 02:00","2021","02","28","02:00","-4.5","","-4.9","","97","","","","","","0","","4.8","","101.38","","","","","","NA"
"-77.53","44.12","TRENTON AWOS","6158872","2021-02-28 03:00","2021","02","28","03:00"
"-77.53","44.12","TRENTON AWOS","6158872","2021-02-28 04:00","2021","02","28","04:00","-4.5","","-5.1","","96","","","","3","","6","","0.2","","101.35","","","","-7","","NA"
"-77.53","44.12","TRENTON AWOS","6158872","2021-02-28 05:00","2021","02","28","05:00","-3.4","","-3.7","","98","","","","3","","4","","0.0","","101.42","","","","-5","","NA"
"-77.53","44.12","TRENTON AWOS","6158872","2021-02-28 06:00","2021","02","28","06:00","-2.8","","-3.1","","98","","","","7","","4","","3.5","","101.35","","","","-4","","NA"
"-77.53","44.12","TRENTON AWOS","6158872","2021-02-28 07:00","2021","02","28","07:00","-1.9","","-2.1","","99","","","","","","0","","3.7","","101.30","","","","","","NA"
"-77.53","44.12","TRENTON AWOS","6158872","2021-02-28 08:00","2021","02","28","08:00","-1.6","","-1.6","","100","","","","6","","7","","3.5","","101.22","","","","-4","","NA"
"-77.53","44.12","TRENTON AWOS","6158872","2021-02-28 09:00","2021","02","28","09:00","-0.7","","-0.7","","100","","","","10","","6","","4.0","","101.28","","","","-3","","NA"
"-77.53","44.12","TRENTON AWOS","6158872","2021-02-28 10:00","2021","02","28","10:00","0.9","","0.6","","98","","","","9","","6","","4.8","","101.19","","","","","","NA"
"-77.53","44.12","TRENTON AWOS","6158872","2021-02-28 11:00","2021","02","28","11:00","2.9","","0.9","","87","","","","9","","9","","9.7","","101.02","","","","","","NA"
"-77.53","44.12","TRENTON AWOS","6158872","2021-02-28 12:00","2021","02","28","12:00","3.7","","0.4","","79","","","","11","","11","","14.5","","100.87","","","","","","NA"
"-77.53","44.12","TRENTON AWOS","6158872","2021-02-28 13:00","2021","02","28","13:00","4.1","","0.1","","75","","","","8","","11","","14.5","","100.60","","","","","","NA"
"-77.53","44.12","TRENTON AWOS","6158872","2021-02-28 14:00","2021","02","28","14:00","3.9","","-1.0","","70","","","","12","","15","","14.5","","100.42","","","","","","NA"
"-77.53","44.12","TRENTON AWOS","6158872","2021-02-28 15:00","2021","02","28","15:00","3.4","","0.6","","82","","","","13","","13","","11.3","","100.30","","","","","","NA"
"-77.53","44.12","TRENTON AWOS","6158872","2021-02-28 16:00","2021","02","28","16:00","3.7","","0.8","","81","","","","11","","7","","14.5","","100.21","","","","","","Rain"
"-77.53","44.12","TRENTON AWOS","6158872","2021-02-28 17:00","2021","02","28","17:00","3.8","","0.6","","80","","","","9","","7","","14.5","","100.07","","","","","","NA"
"-77.53","44.12","TRENTON AWOS","6158872","2021-02-28 18:00","2021","02","28","18:00","4.4","","1.0","","79","","","","14","","13","","14.5","","99.95","","","","","","NA"
"-77.53","44.12","TRENTON AWOS","6158872","2021-02-28 19:00","2021","02","28","19:00","4.7","","2.2","","84","","","","16","","24","","14.5","","99.83","","","","","","Drizzle"
"-77.53","44.12","TRENTON AWOS","6158872","2021-02-28 20:00","2021","02","28","20:00","4.6","","2.4","","86","","","","16","","26","","14.5","","99.72","","","","","","Drizzle"
"-77.53","44.12","TRENTON AWOS","6158872","2021-02-28 21:00","2021","02","28","21:00","4.5","","2.3","","86","","","","16","","26","","14.5","","99.59","","","","","","Drizzle"
"-77.53","44.12","TRENTON AWOS","6158872","2021-02-28 22:00","2021","02","28","22:00","4.5","","2.3","","86","","","","16","","26","","14.5","","99.41","","","","","","Drizzle"
"-77.53","44.12","TRENTON AWOS","6158872","2021-02-28 23:00","2021","02","28","23:00","4.7","","2.3","","84","","","","17","","22","","14.5","","99.32","","","","","","NA"
