"Longitude (x)","Latitude (y)","Station Name","Climate ID","Date/Time (LST)","Year","Month","Day","Time (LST)","Temp (°C)","Temp Flag","Dew Point Temp (°C)","Dew Point Temp Flag","Rel Hum (%)","Rel Hum Flag","Precip. Amount (mm)","Precip. Amount Flag","Wind Dir (10s deg)","Wind Dir Flag","Wind Spd (km/h)","Wind Spd Flag","Visibility (km)","Visibility Flag","Stn Press (kPa)","Stn Press Flag","Hmdx","Hmdx Flag","Wind Chill","Wind Chill Flag","Weather"
"-66.35","44.29","BRIER ISLAND","8200604","2022-01-01 00:00","2022","01","01","00:00","5.1","","4.5","","96","","0.0","","8","","12","","","","101.31","","","","","","NA"
"-66.35","44.29","BRIER ISLAND","8200604","2022-01-01 01:00","2022","01","01","01:00","4.8","","4.7","","99","","0.0","","9","","15","","","","101.28","","","","","","NA"
"-66.35","44.29","BRIER ISLAND","8200604","2022-01-01 02:00","2022","01","01","02:00","4.7","","4.7","","100","","0.0","","11","","9","","","","101.32","","","","","","NA"
"-66.35","44.29","BRIER ISLAND","8200604","2022-01-01 03:00","2022","01","01","03:00","4.6","","4.6","","100","","0.0","","15","","8","","","","101.34","","","","","","NA"
"-66.35","44.29","BRIER ISLAND","8200604","2022-01-01 04:00","2022","01","01","04:00","4.7","","4.7","","100","","0.0","","15","","12","","","","101.34","","","","","","NA"
"-66.35","44.29","BRIER ISLAND","8200604","2022-01-01 05:00","2022","01","01","05:00","4.7","","4.7","","100","","0.0","","16","","10","","","","101.31","","","","","","NA"
"-66.35","44.29","BRIER ISLAND","8200604","2022-01-01 06:00","2022","01","01","06:00","5.0","","5.0","","100","","0.0","","12","","19","","","","101.30","","","","","","NA"
"-66.35","44.29","BRIER ISLAND","8200604","2022-01-01 07:00","2022","01","01","07:00","5.3","","5.3","","100","","0.0","","13","","18","","","","101.28","","","","","","NA"
"-66.35","44.29","BRIER ISLAND","8200604","2022-01-01 08:00","2022","01","01","08:00","5.2","","5.1","","99","","0.0","","14","","21","","","","101.28","","","","","","NA"
"-66.35","44.29","BRIER ISLAND","8200604","2022-01-01 09:00","2022","01","01","09:00","5.0","","5.0","","100","","0.0","","14","","28","","","","101.27","","","","","","NA"
"-66.35","44.29","BRIER ISLAND","8200604","2022-01-01 10:00","2022","01","01","10:00","5.6","","5.6","","100","","0.0","","15","","22","","","","101.30","","","","","","NA"
"-66.35","44.29","BRIER ISLAND","8200604","2022-01-01 11:00","2022","01","01","11:00","5.9","","5.9","","100","","0.0","","14","","21","","","","101.23","","","","","","NA"
"-66.35","44.29","BRIER ISLAND","8200604","2022-01-01 12:00","2022","01","01","12:00","6.5","","6.3","","99","","0.0","","13","","24","","","","101.15","","","","","","NA"
"-66.35","44.29","BRIER ISLAND","8200604","2022-01-01 13:00","2022","01","01","13:00","7.1","","6.6","","96","","0.0","","13","","27","","","","101.02","","","","","","NA"
"-66.35","44.29","BRIER ISLAND","8200604","2022-01-01 14:00","2022","01","01","14:00","6.9","","6.8","","99","","0.0","","13","","27","","","","100.89","","","","","","NA"
"-66.35","44.29","BRIER ISLAND","8200604","2022-01-01 15:00","2022","01","01","15:00","7.1","","7.1","","100","","0.0","","12","","28","","","","100.84","","","","","","NA"
"-66.35","44.29","BRIER ISLAND","8200604","2022-01-01 16:00","2022","01","01","16:00","7.2","","7.2","","100","","0.0","","12","","21","","","","100.81","","","","","","NA"
"-66.35","44.29","BRIER ISLAND","8200604","2022-01-01 17:00","2022","01","01","17:00","7.4","","7.4","","100","","1.4","","11","","27","","","","100.68","","","","","","NA"
"-66.35","44.29","BRIER ISLAND","8200604","2022-01-01 18:00","2022","01","01","18:00","7.9","","7.9","","100","","2.3","","13","","25","","","","100.65","","","","","","NA"
"-66.35","44.29","BRIER ISLAND","8200604","2022-01-01 19:00","2022","01","01","19:00","8.2","","8.2","","100","","0.3","","14","","31","","","","100.58","","","","","","NA"
"-66.35","44.29","BRIER ISLAND","8200604","2022-01-01 20:00","2022","01","01","20:00","8.1","","8.1","","100","","0.2","","14","","20","","","","100.52","","","","","","NA"
"-66.35","44.29","BRIER ISLAND","8200604","2022-01-01 21:00","2022","01","01","21:00","8.4","","8.4","","100","","0.0","","15","","18","","","","100.45","","","","","","NA"
"-66.35","44.29","BRIER ISLAND","8200604","2022-01-01 22:00","2022","01","01","22:00","9.1","","9.1","","100","","0.0","","17","","15","","","","100.41","","","","","","NA"
"-66.35","44.29","BRIER ISLAND","8200604","2022-01-01 23:00","2022","01","01","23:00","9.0","","9.0","","100","","0.0","","16","","11","","","","100.33","","","","","","NA"
"-66.35","44.29","BRIER ISLAND","8200604","2022-01-02 00:00","2022","01","02","00:00","8.0","","8.0","","100","","0.5","","15","","10","","","","100.30","","","","","","NA"
"-66.35","44.29","BRIER ISLAND","8200604","2022-01-02 01:00","2022","01","02","01:00","8.1","","8.1","","100","","0.6","","16","","9","","","","100.22","","","","","","NA"
"-66.35","44.29","BRIER ISLAND","8200604","2022-01-02 02:00","2022","01","02","02:00","8.0","","8.0","","100","","0.3","","15","","10","","","","100.14","","","","","","NA"
"-66.35","44.29","BRIER ISLAND","8200604","2022-01-02 03:00","2022","01","02","03:00","8.6","","8.6","","100","","0.0","","14","","10","","","","100.08","","","","","","NA"
"-66.35","44.29","BRIER ISLAND","8200604","2022-01-02 04:00","2022","01","02","04:00","8.3","","8.3","","100","","0.2","","10","","11","","","","100.01","","","","","","NA"
"-66.35","44.29","BRIER ISLAND","8200604","2022-01-02 05:00","2022","01","02","05:00","8.3","","8.3","","100","","0.0","","36","","3","","","","99.97","","","","","","NA"
"-66.35","44.29","BRIER ISLAND","8200604","2022-01-02 06:00","2022","01","02","06:00","7.7","","7.7","","100","","0.0","","12","","6","","","","99.88","","","","","","NA"
"-66.35","44.29","BRIER ISLAND","8200604","2022-01-02 07:00","2022","01","02","07:00","7.7","","7.7","","100","","0.0","","8","","10","","","","99.77","","","","","","NA"
"-66.35","44.29","BRIER ISLAND","8200604","2022-01-02 08:00","2022","01","02","08:00","7.8","","7.8","","100","","0.0","","5","","2","","","","99.75","","","","","","NA"
"-66.35","44.29","BRIER ISLAND","8200604","2022-01-02 09:00","2022","01","02","09:00","7.7","","7.7","","100","","0.2","","","","0","","","","99.76","","","","","","NA"
"-66.35","44.29","BRIER ISLAND","8200604","2022-01-02 10:00","2022","01","02","10:00","7.7","","7.7","","100","","0.0","","31","","4","","","","99.74","","","","","","NA"
"-66.35","44.29","BRIER ISLAND","8200604","2022-01-02 11:00","2022","01","02","11:00","7.8","","7.8","","100","","0.2","","9","","2","","","","99.63","","","","","","NA"
"-66.35","44.29","BRIER ISLAND","8200604","2022-01-02 12:00","2022","01","02","12:00","7.6","","7.6","","100","","0.6","","34","","8","","","","99.54","","","","","","NA"
"-66.35","44.29","BRIER ISLAND","8200604","2022-01-02 13:00","2022","01","02","13:00","7.6","","7.6","","100","","0.4","","33","","19","","","","99.45","","","","","","NA"
"-66.35","44.29","BRIER ISLAND","8200604","2022-01-02 14:00","2022","01","02","14:00","6.6","","6.6","","100","","0.3","","35","","29","","","","99.43","","","","","","NA"
"-66.35","44.29","BRIER ISLAND","8200604","2022-01-02 15:00","2022","01","02","15:00","5.4","","5.4","","100","","0.8","","34","","45","","","","99.55","","","","","","NA"
"-66.35","44.29","BRIER ISLAND","8200604","2022-01-02 16:00","2022","01","02","16:00","4.9","","4.9","","100","","0.3","","35","","39","","","","99.60","","","","","","NA"
"-66.35","44.29","BRIER ISLAND","8200604","2022-01-02 17:00","2022","01","02","17:00","4.8","","4.8","","100","","0.0","","35","","39","","","","99.63","","","","","","NA"
"-66.35","44.29","BRIER ISLAND","8200604","2022-01-02 18:00","2022","01","02","18:00","4.3","","4.3","","100","","0.0","","36","","32","","","","99.68","","","","","","NA"
"-66.35","44.29","BRIER ISLAND","8200604","2022-01-02 19:00","2022","01","02","19:00","4.0","","4.0","","100","","0.0","","35","","34","","","","99.88","","","","","","NA"
"-66.35","44.29","BRIER ISLAND","8200604","2022-01-02 20:00","2022","01","02","20:00","3.1","","3.0","","100","","0.3","","35","","39","","","","99.92","","","","","","NA"
"-66.35","44.29","BRIER ISLAND","8200604","2022-01-02 21:00","2022","01","02","21:00","3.1","","2.6","","97","","0.0","","34","","35","","","","100.08","","","","","","NA"
"-66.35","44.29","BRIER ISLAND","8200604","2022-01-02 22:00","2022","01","02","22:00","2.5","","1.7","","95","","0.0","","32","","42","","","","100.29","","","","","","NA"
"-66.35","44.29","BRIER ISLAND","8200604","2022-01-02 23:00","2022","01","02","23:00","1.2","","1.2","","100","","0.2","","31","","50","","","","100.44","","","","","","NA"
"-66.35","44.29","BRIER ISLAND","8200604","2022-01-03 00:00","2022","01","03","00:00","0.6","","0.4","","98","","0.0","","32","","45","","","","100.54","","","","","","NA"
"-66.35","44.29","BRIER ISLAND","8200604","2022-01-03 01:00","2022","01","03","01:00","-0.2","","-0.7","","97","","0.0","","32","","43","","","","100.64","","","","-8","","NA"
"-66.35","44.29","BRIER ISLAND","8200604","2022-01-03 02:00","2022","01","03","02:00","-0.8","","-1.5","","95","","0.0","","33","","42","","","","100.79","","","","-9","","NA"
"-66.35","44.29","BRIER ISLAND","8200604","2022-01-03 03:00","2022","01","03","03:00","-1.3","","-2.5","","92","","0.0","","32","","45","","","","100.95","","","","-10","","NA"
"-66.35","44.29","BRIER ISLAND","8200604","2022-01-03 04:00","2022","01","03","04:00","-2.7","","-4.5","","88","","0.0","","32","","45","","","","101.07","","","","-11","","NA"
"-66.35","44.29","BRIER ISLAND","8200604","2022-01-03 05:00","2022","01","03","05:00","-2.8","","-4.9","","85","","0.0","","32","","37","","","","101.32","","","","-11","","NA"
"-66.35","44.29","BRIER ISLAND","8200604","2022-01-03 06:00","2022","01","03","06:00","-4.0","","-6.4","","83","","0.0","","32","","37","","","","101.45","","","","-12","","NA"
"-66.35","44.29","BRIER ISLAND","8200604","2022-01-03 07:00","2022","01","03","07:00","-4.2","","-6.0","","87","","0.0","","32","","38","","","","101.55","","","","-13","","NA"
"-66.35","44.29","BRIER ISLAND","8200604","2022-01-03 08:00","2022","01","03","08:00","-4.2","","-6.7","","83","","0.0","","34","","35","","","","101.61","","","","-13","","NA"
"-66.35","44.29","BRIER ISLAND","8200604","2022-01-03 09:00","2022","01","03","09:00","-4.1","","-6.4","","84","","0.0","","33","","36","","","","101.74","","","","-12","","NA"
"-66.35","44.29","BRIER ISLAND","8200604","2022-01-03 10:00","2022","01","03","10:00","-4.2","","-7.2","","79","","0.0","","34","","31","","","","101.86","","","","-12","","NA"
"-66.35","44.29","BRIER ISLAND","8200604","2022-01-03 11:00","2022","01","03","11:00","-3.7","","-6.1","","83","","0.0","","34","","34","","","","101.84","","","","-12","","NA"
"-66.35","44.29","BRIER ISLAND","8200604","2022-01-03 12:00","2022","01","03","12:00","-3.6","","-6.1","","83","","0.0","","34","","33","","","","101.79","","","","-12","","NA"
"-66.35","44.29","BRIER ISLAND","8200604","2022-01-03 13:00","2022","01","03","13:00","-3.7","","-6.9","","78","","0.0","","35","","29","","","","101.76","","","","-11","","NA"
"-66.35","44.29","BRIER ISLAND","8200604","2022-01-03 14:00","2022","01","03","14:00","-3.9","","-7.7","","74","","0.0","","36","","27","","","","101.73","","","","-11","","NA"
"-66.35","44.29","BRIER ISLAND","8200604","2022-01-03 15:00","2022","01","03","15:00","-3.4","","-7.6","","73","","0.0","","36","","29","","","","101.72","","","","-11","","NA"
"-66.35","44.29","BRIER ISLAND","8200604","2022-01-03 16:00","2022","01","03","16:00","-3.4","","-7.3","","74","","0.0","","36","","30","","","","101.69","","","","-11","","NA"
"-66.35","44.29","BRIER ISLAND","8200604","2022-01-03 17:00","2022","01","03","17:00","-3.3","","-6.2","","80","","0.0","","36","","28","","","","101.62","","","","-11","","NA"
"-66.35","44.29","BRIER ISLAND","8200604","2022-01-03 18:00","2022","01","03","18:00","-3.4","","-6.6","","78","","0.0","","1","","32","","","","101.65","","","","-11","","NA"
"-66.35","44.29","BRIER ISLAND","8200604","2022-01-03 19:00","2022","01","03","19:00","-3.3","","-7.0","","75","","0.0","","2","","33","","","","101.58","","","","-11","","NA"
"-66.35","44.29","BRIER ISLAND","8200604","2022-01-03 20:00","2022","01","03","20:00","-3.3","","-6.3","","80","","0.0","","1","","31","","","","101.61","","","","-11","","NA"
"-66.35","44.29","BRIER ISLAND","8200604","2022-01-03 21:00","2022","01","03","21:00","-3.2","","-6.0","","81","","0.0","","36","","29","","","","101.59","","","","-11","","NA"
"-66.35","44.29","BRIER ISLAND","8200604","2022-01-03 22:00","2022","01","03","22:00","-3.3","","-5.6","","84","","0.0","","36","","33","","","","101.56","","","","-11","","NA"
"-66.35","44.29","BRIER ISLAND","8200604","2022-01-03 23:00","2022","01","03","23:00","-3.5","","-5.5","","86","","0.0","","35","","34","","","","101.42","","","","-11","","NA"
"-66.35","44.29","BRIER ISLAND","8200604","2022-01-04 00:00","2022","01","04","00:00","-2.9","","-4.7","","87","","0.0","","1","","33","","","","101.49","","","","-11","","NA"
"-66.35","44.29","BRIER ISLAND","8200604","2022-01-04 01:00","2022","01","04","01:00","-3.9","","-5.2","","90","","0.0","","34","","38","","","","101.47","","","","-12","","NA"
"-66.35","44.29","BRIER ISLAND","8200604","2022-01-04 02:00","2022","01","04","02:00","-4.3","","-5.7","","90","","0.0","","34","","41","","","","101.46","","","","-13","","NA"
"-66.35","44.29","BRIER ISLAND","8200604","2022-01-04 03:00","2022","01","04","03:00","-5.1","","-6.5","","90","","0.0","","34","","41","","","","101.48","","","","-14","","NA"
"-66.35","44.29","BRIER ISLAND","8200604","2022-01-04 04:00","2022","01","04","04:00","-6.1","","-7.7","","88","","0.2","","35","","41","","","","101.47","","","","-16","","NA"
"-66.35","44.29","BRIER ISLAND","8200604","2022-01-04 05:00","2022","01","04","05:00","-6.4","","-7.4","","92","","0.0","","35","","45","","","","101.49","","","","-16","","NA"
"-66.35","44.29","BRIER ISLAND","8200604","2022-01-04 06:00","2022","01","04","06:00","-6.9","","-8.0","","92","","0.0","","35","","38","","","","101.63","","","","-16","","NA"
"-66.35","44.29","BRIER ISLAND","8200604","2022-01-04 07:00","2022","01","04","07:00","-6.5","","-7.8","","91","","0.0","","34","","37","","","","101.74","","","","-16","","NA"
"-66.35","44.29","BRIER ISLAND","8200604","2022-01-04 08:00","2022","01","04","08:00","-7.8","","-8.7","","93","","0.0","","33","","36","","","","101.88","","","","-17","","NA"
"-66.35","44.29","BRIER ISLAND","8200604","2022-01-04 09:00","2022","01","04","09:00","-8.0","","-8.8","","94","","0.0","","33","","31","","","","102.00","","","","-17","","NA"
"-66.35","44.29","BRIER ISLAND","8200604","2022-01-04 10:00","2022","01","04","10:00","-7.3","","-8.8","","89","","0.0","","33","","31","","","","102.07","","","","-16","","NA"
"-66.35","44.29","BRIER ISLAND","8200604","2022-01-04 11:00","2022","01","04","11:00","-6.3","","-7.7","","90","","0.0","","32","","31","","","","102.09","","","","-15","","NA"
"-66.35","44.29","BRIER ISLAND","8200604","2022-01-04 12:00","2022","01","04","12:00","-5.9","","-7.9","","86","","0.0","","31","","33","","","","102.13","","","","-15","","NA"
"-66.35","44.29","BRIER ISLAND","8200604","2022-01-04 13:00","2022","01","04","13:00","-6.1","","-8.2","","85","","0.0","","31","","26","","","","102.14","","","","-14","","NA"
"-66.35","44.29","BRIER ISLAND","8200604","2022-01-04 14:00","2022","01","04","14:00","-5.7","","-7.8","","85","","0.0","","30","","32","","","","102.20","","","","-14","","NA"
"-66.35","44.29","BRIER ISLAND","8200604","2022-01-04 15:00","2022","01","04","15:00","-5.3","","-9.5","","73","","0.0","","30","","20","","","","102.23","","","","-12","","NA"
"-66.35","44.29","BRIER ISLAND","8200604","2022-01-04 16:00","2022","01","04","16:00","-5.0","","-10.9","","63","","0.0","","27","","20","","","","102.23","","","","-12","","NA"
"-66.35","44.29","BRIER ISLAND","8200604","2022-01-04 17:00","2022","01","04","17:00","-4.9","","-10.3","","66","","0.0","","26","","19","","","","102.29","","","","-11","","NA"
"-66.35","44.29","BRIER ISLAND","8200604","2022-01-04 18:00","2022","01","04","18:00","-4.0","","-8.5","","71","","0.0","","25","","17","","","","102.32","","","","-10","","NA"
"-66.35","44.29","BRIER ISLAND","8200604","2022-01-04 19:00","2022","01","04","19:00","-3.5","","-7.9","","72","","0.0","","23","","11","","","","102.38","","","","-8","","NA"
"-66.35","44.29","BRIER ISLAND","8200604","2022-01-04 20:00","2022","01","04","20:00","-2.5","","-7.0","","71","","0.0","","23","","16","","","","102.40","","","","-8","","NA"
"-66.35","44.29","BRIER ISLAND","8200604","2022-01-04 21:00","2022","01","04","21:00","-1.6","","-6.4","","70","","0.0","","24","","19","","","","102.44","","","","-7","","NA"
"-66.35","44.29","BRIER ISLAND","8200604","2022-01-04 22:00","2022","01","04","22:00","-1.1","","-5.5","","72","","0.0","","22","","16","","","","102.41","","","","-6","","NA"
"-66.35","44.29","BRIER ISLAND","8200604","2022-01-04 23:00","2022","01","04","23:00","-0.3","","-4.8","","72","","0.0","","22","","16","","","","102.43","","","","-5","","NA"
"-66.35","44.29","BRIER ISLAND","8200604","2022-01-05 00:00","2022","01","05","00:00","0.3","","-4.6","","70","","0.0","","20","","16","","","","102.42","","","","","","NA"
"-66.35","44.29","BRIER ISLAND","8200604","2022-01-05 01:00","2022","01","05","01:00","0.5","","-4.6","","69","","0.0","","20","","15","","","","102.37","","","","","","NA"
"-66.35","44.29","BRIER ISLAND","8200604","2022-01-05 02:00","2022","01","05","02:00","1.0","","-3.5","","72","","0.0","","19","","13","","","","102.34","","","","","","NA"
"-66.35","44.29","BRIER ISLAND","8200604","2022-01-05 03:00","2022","01","05","03:00","2.0","","-2.2","","74","","0.0","","19","","13","","","","102.33","","","","","","NA"
"-66.35","44.29","BRIER ISLAND","8200604","2022-01-05 04:00","2022","01","05","04:00","2.5","","-2.2","","71","","0.0","","19","","16","","","","102.29","","","","","","NA"
"-66.35","44.29","BRIER ISLAND","8200604","2022-01-05 05:00","2022","01","05","05:00","2.9","","-1.5","","73","","0.0","","19","","17","","","","102.23","","","","","","NA"
"-66.35","44.29","BRIER ISLAND","8200604","2022-01-05 06:00","2022","01","05","06:00","3.6","","-0.7","","74","","0.0","","18","","20","","","","102.16","","","","","","NA"
"-66.35","44.29","BRIER ISLAND","8200604","2022-01-05 07:00","2022","01","05","07:00","4.1","","-0.4","","72","","0.0","","18","","22","","","","102.09","","","","","","NA"
"-66.35","44.29","BRIER ISLAND","8200604","2022-01-05 08:00","2022","01","05","08:00","4.5","","0.4","","75","","0.0","","18","","22","","","","102.03","","","","","","NA"
"-66.35","44.29","BRIER ISLAND","8200604","2022-01-05 09:00","2022","01","05","09:00","5.1","","1.1","","75","","0.0","","17","","27","","","","101.98","","","","","","NA"
"-66.35","44.29","BRIER ISLAND","8200604","2022-01-05 10:00","2022","01","05","10:00","5.8","","1.4","","74","","0.0","","17","","29","","","","101.91","","","","","","NA"
"-66.35","44.29","BRIER ISLAND","8200604","2022-01-05 11:00","2022","01","05","11:00","6.7","","2.4","","74","","0.0","","16","","34","","","","101.81","","","","","","NA"
"-66.35","44.29","BRIER ISLAND","8200604","2022-01-05 12:00","2022","01","05","12:00","7.3","","3.6","","77","","0.0","","16","","34","","","","101.66","","","","","","NA"
"-66.35","44.29","BRIER ISLAND","8200604","2022-01-05 13:00","2022","01","05","13:00","6.9","","4.6","","85","","0.0","","15","","37","","","","101.47","","","","","","NA"
"-66.35","44.29","BRIER ISLAND","8200604","2022-01-05 14:00","2022","01","05","14:00","6.8","","4.8","","87","","0.0","","15","","42","","","","101.33","","","","","","NA"
"-66.35","44.29","BRIER ISLAND","8200604","2022-01-05 15:00","2022","01","05","15:00","7.5","","5.0","","84","","0.0","","15","","34","","","","101.26","","","","","","NA"
"-66.35","44.29","BRIER ISLAND","8200604","2022-01-05 16:00","2022","01","05","16:00","7.9","","5.4","","84","","0.0","","15","","37","","","","101.20","","","","","","NA"
"-66.35","44.29","BRIER ISLAND","8200604","2022-01-05 17:00","2022","01","05","17:00","7.8","","5.8","","87","","0.0","","15","","37","","","","101.11","","","","","","NA"
"-66.35","44.29","BRIER ISLAND","8200604","2022-01-05 18:00","2022","01","05","18:00","8.0","","6.3","","89","","0.0","","15","","38","","","","101.01","","","","","","NA"
"-66.35","44.29","BRIER ISLAND","8200604","2022-01-05 19:00","2022","01","05","19:00","7.7","","6.3","","91","","0.0","","15","","42","","","","100.84","","","","","","NA"
"-66.35","44.29","BRIER ISLAND","8200604","2022-01-05 20:00","2022","01","05","20:00","7.4","","7.2","","99","","0.0","","14","","41","","","","100.71","","","","","","NA"
"-66.35","44.29","BRIER ISLAND","8200604","2022-01-05 21:00","2022","01","05","21:00","7.7","","7.7","","100","","0.6","","15","","40","","","","100.65","","","","","","NA"
"-66.35","44.29","BRIER ISLAND","8200604","2022-01-05 22:00","2022","01","05","22:00","7.5","","7.5","","100","","1.1","","15","","35","","","","100.61","","","","","","NA"
"-66.35","44.29","BRIER ISLAND","8200604","2022-01-05 23:00","2022","01","05","23:00","8.3","","8.3","","100","","2.5","","15","","30","","","","100.43","","","","","","NA"
"-66.35","44.29","BRIER ISLAND","8200604","2022-01-06 00:00","2022","01","06","00:00","8.9","","8.9","","100","","0.9","","16","","29","","","","100.23","","","","","","NA"
"-66.35","44.29","BRIER ISLAND","8200604","2022-01-06 01:00","2022","01","06","01:00","9.6","","9.6","","100","","3.4","","16","","28","","","","100.13","","","","","","NA"
"-66.35","44.29","BRIER ISLAND","8200604","2022-01-06 02:00","2022","01","06","02:00","9.7","","9.7","","100","","1.6","","19","","18","","","","100.00","","","","","","NA"
"-66.35","44.29","BRIER ISLAND","8200604","2022-01-06 03:00","2022","01","06","03:00","9.5","","9.5","","100","","4.8","","20","","14","","","","99.97","","","","","","NA"
"-66.35","44.29","BRIER ISLAND","8200604","2022-01-06 04:00","2022","01","06","04:00","8.7","","8.7","","100","","1.9","","18","","14","","","","99.86","","","","","","NA"
"-66.35","44.29","BRIER ISLAND","8200604","2022-01-06 05:00","2022","01","06","05:00","7.2","","7.2","","100","","0.0","","25","","19","","","","99.76","","","","","","NA"
"-66.35","44.29","BRIER ISLAND","8200604","2022-01-06 06:00","2022","01","06","06:00","6.5","","6.5","","100","","0.0","","24","","15","","","","99.68","","","","","","NA"
"-66.35","44.29","BRIER ISLAND","8200604","2022-01-06 07:00","2022","01","06","07:00","6.4","","5.8","","96","","0.0","","26","","32","","","","99.77","","","","","","NA"
"-66.35","44.29","BRIER ISLAND","8200604","2022-01-06 08:00","2022","01","06","08:00","6.3","","5.4","","94","","0.0","","26","","33","","","","99.81","","","","","","NA"
"-66.35","44.29","BRIER ISLAND","8200604","2022-01-06 09:00","2022","01","06","09:00","6.0","","5.1","","94","","0.0","","26","","25","","","","99.87","","","","","","NA"
"-66.35","44.29","BRIER ISLAND","8200604","2022-01-06 10:00","2022","01","06","10:00","6.8","","5.2","","90","","0.0","","25","","26","","","","100.00","","","","","","NA"
"-66.35","44.29","BRIER ISLAND","8200604","2022-01-06 11:00","2022","01","06","11:00","6.6","","4.0","","83","","0.0","","26","","34","","","","100.12","","","","","","NA"
"-66.35","44.29","BRIER ISLAND","8200604","2022-01-06 12:00","2022","01","06","12:00","6.1","","2.9","","80","","0.0","","29","","38","","","","100.14","","","","","","NA"
"-66.35","44.29","BRIER ISLAND","8200604","2022-01-06 13:00","2022","01","06","13:00","5.7","","2.1","","78","","0.0","","32","","18","","","","100.17","","","","","","NA"
"-66.35","44.29","BRIER ISLAND","8200604","2022-01-06 14:00","2022","01","06","14:00","5.6","","1.3","","74","","0.0","","30","","18","","","","100.22","","","","","","NA"
"-66.35","44.29","BRIER ISLAND","8200604","2022-01-06 15:00","2022","01","06","15:00","5.7","","0.9","","71","","0.0","","29","","13","","","","100.32","","","","","","NA"
"-66.35","44.29","BRIER ISLAND","8200604","2022-01-06 16:00","2022","01","06","16:00","5.0","","0.9","","75","","0.0","","27","","17","","","","100.47","","","","","","NA"
"-66.35","44.29","BRIER ISLAND","8200604","2022-01-06 17:00","2022","01","06","17:00","4.9","","0.9","","75","","0.0","","25","","15","","","","100.57","","","","","","NA"
"-66.35","44.29","BRIER ISLAND","8200604","2022-01-06 18:00","2022","01","06","18:00","4.5","","-0.4","","71","","0.0","","27","","27","","","","100.68","","","","","","NA"
"-66.35","44.29","BRIER ISLAND","8200604","2022-01-06 19:00","2022","01","06","19:00","4.6","","-0.3","","70","","0.0","","29","","31","","","","100.73","","","","","","NA"
"-66.35","44.29","BRIER ISLAND","8200604","2022-01-06 20:00","2022","01","06","20:00","3.8","","-1.5","","69","","0.0","","31","","27","","","","100.80","","","","","","NA"
"-66.35","44.29","BRIER ISLAND","8200604","2022-01-06 21:00","2022","01","06","21:00","3.4","","-2.4","","66","","0.0","","31","","28","","","","100.97","","","","","","NA"
"-66.35","44.29","BRIER ISLAND","8200604","2022-01-06 22:00","2022","01","06","22:00","3.4","","-3.0","","63","","0.0","","30","","20","","","","101.05","","","","","","NA"
"-66.35","44.29","BRIER ISLAND","8200604","2022-01-06 23:00","2022","01","06","23:00","3.3","","-4.3","","57","","0.0","","31","","18","","","","101.08","","","","","","NA"
"-66.35","44.29","BRIER ISLAND","8200604","2022-01-07 00:00","2022","01","07","00:00","3.3","","-3.2","","62","","0.0","","31","","19","","","","101.10","","","","","","NA"
"-66.35","44.29","BRIER ISLAND","8200604","2022-01-07 01:00","2022","01","07","01:00","3.2","","-2.7","","66","","0.0","","33","","17","","","","101.09","","","","","","NA"
"-66.35","44.29","BRIER ISLAND","8200604","2022-01-07 02:00","2022","01","07","02:00","3.2","","-2.4","","67","","0.0","","36","","12","","","","101.05","","","","","","NA"
"-66.35","44.29","BRIER ISLAND","8200604","2022-01-07 03:00","2022","01","07","03:00","3.1","","-1.9","","70","","0.0","","6","","14","","","","101.12","","","","","","NA"
"-66.35","44.29","BRIER ISLAND","8200604","2022-01-07 04:00","2022","01","07","04:00","2.8","","-1.4","","74","","0.0","","9","","19","","","","101.16","","","","","","NA"
"-66.35","44.29","BRIER ISLAND","8200604","2022-01-07 05:00","2022","01","07","05:00","2.7","","-0.9","","77","","0.0","","8","","18","","","","101.20","","","","","","NA"
"-66.35","44.29","BRIER ISLAND","8200604","2022-01-07 06:00","2022","01","07","06:00","2.5","","-0.7","","79","","0.0","","7","","20","","","","101.01","","","","","","NA"
"-66.35","44.29","BRIER ISLAND","8200604","2022-01-07 07:00","2022","01","07","07:00","2.4","","-0.5","","81","","0.0","","7","","24","","","","100.85","","","","","","NA"
"-66.35","44.29","BRIER ISLAND","8200604","2022-01-07 08:00","2022","01","07","08:00","2.3","","-0.6","","81","","0.0","","7","","31","","","","100.66","","","","","","NA"
"-66.35","44.29","BRIER ISLAND","8200604","2022-01-07 09:00","2022","01","07","09:00","2.0","","0.2","","88","","0.0","","6","","31","","","","100.56","","","","","","NA"
"-66.35","44.29","BRIER ISLAND","8200604","2022-01-07 10:00","2022","01","07","10:00","0.5","","0.5","","100","","1.1","","6","","36","","","","100.25","","","","","","NA"
"-66.35","44.29","BRIER ISLAND","8200604","2022-01-07 11:00","2022","01","07","11:00","0.5","","0.5","","100","","1.6","","7","","23","","","","100.15","","","","","","NA"
"-66.35","44.29","BRIER ISLAND","8200604","2022-01-07 12:00","2022","01","07","12:00","0.6","","0.6","","100","","1.2","","4","","22","","","","99.67","","","","","","NA"
"-66.35","44.29","BRIER ISLAND","8200604","2022-01-07 13:00","2022","01","07","13:00","0.3","","","M","","M","3.0","","5","","33","","","","99.25","","","","","","NA"
"-66.35","44.29","BRIER ISLAND","8200604","2022-01-07 14:00","2022","01","07","14:00","0.7","","","M","","M","4.3","","2","","35","","","","98.95","","","","","","NA"
"-66.35","44.29","BRIER ISLAND","8200604","2022-01-07 15:00","2022","01","07","15:00","1.4","","","M","","M","5.1","","1","","47","","","","98.68","","","","","","NA"
"-66.35","44.29","BRIER ISLAND","8200604","2022-01-07 16:00","2022","01","07","16:00","1.1","","","M","","M","3.0","","34","","69","","","","98.66","","","","","","NA"
"-66.35","44.29","BRIER ISLAND","8200604","2022-01-07 17:00","2022","01","07","17:00","0.4","","","M","","M","2.1","","34","","75","","","","98.53","","","","","","NA"
"-66.35","44.29","BRIER ISLAND","8200604","2022-01-07 18:00","2022","01","07","18:00","0.4","","","M","","M","1.2","","35","","72","","","","98.53","","","","","","NA"
"-66.35","44.29","BRIER ISLAND","8200604","2022-01-07 19:00","2022","01","07","19:00","-0.1","","","M","","M","0.7","","33","","73","","","","98.86","","","","-10","","NA"
"-66.35","44.29","BRIER ISLAND","8200604","2022-01-07 20:00","2022","01","07","20:00","-0.3","","","M","","M","0.3","","32","","79","","","","99.18","","","","-10","","NA"
"-66.35","44.29","BRIER ISLAND","8200604","2022-01-07 21:00","2022","01","07","21:00","-1.2","","","M","","M","0.0","","31","","80","","","","99.43","","","","-12","","NA"
"-66.35","44.29","BRIER ISLAND","8200604","2022-01-07 22:00","2022","01","07","22:00","-1.8","","","M","","M","0.4","","31","","68","","","","99.69","","","","-12","","NA"
"-66.35","44.29","BRIER ISLAND","8200604","2022-01-07 23:00","2022","01","07","23:00","-2.3","","","M","","M","0.0","","31","","70","","","","99.91","","","","-13","","NA"
"-66.35","44.29","BRIER ISLAND","8200604","2022-01-08 00:00","2022","01","08","00:00","-2.6","","","M","","M","0.0","","30","","65","","","","100.10","","","","-13","","NA"
"-66.35","44.29","BRIER ISLAND","8200604","2022-01-08 01:00","2022","01","08","01:00","-2.6","","","M","","M","0.2","","29","","63","","","","100.24","","","","-13","","NA"
"-66.35","44.29","BRIER ISLAND","8200604","2022-01-08 02:00","2022","01","08","02:00","-2.9","","","M","","M","0.0","","29","","66","","","","100.42","","","","-13","","NA"
"-66.35","44.29","BRIER ISLAND","8200604","2022-01-08 03:00","2022","01","08","03:00","-3.3","","","M","","M","0.0","","29","","66","","","","100.61","","","","-14","","NA"
"-66.35","44.29","BRIER ISLAND","8200604","2022-01-08 04:00","2022","01","08","04:00","-3.7","","","M","","M","0.0","","30","","65","","","","100.77","","","","-14","","NA"
"-66.35","44.29","BRIER ISLAND","8200604","2022-01-08 05:00","2022","01","08","05:00","-3.9","","","M","","M","0.0","","30","","59","","","","100.95","","","","-14","","NA"
"-66.35","44.29","BRIER ISLAND","8200604","2022-01-08 06:00","2022","01","08","06:00","-4.4","","","M","","M","0.0","","30","","58","","","","101.17","","","","-15","","NA"
"-66.35","44.29","BRIER ISLAND","8200604","2022-01-08 07:00","2022","01","08","07:00","-4.5","","-4.5","","100","","0.0","","30","","57","","","","101.37","","","","-15","","NA"
"-66.35","44.29","BRIER ISLAND","8200604","2022-01-08 08:00","2022","01","08","08:00","-4.4","","-4.4","","100","","0.0","","31","","52","","","","101.56","","","","-14","","NA"
"-66.35","44.29","BRIER ISLAND","8200604","2022-01-08 09:00","2022","01","08","09:00","-4.7","","-4.7","","100","","0.0","","31","","56","","","","101.74","","","","-15","","NA"
"-66.35","44.29","BRIER ISLAND","8200604","2022-01-08 10:00","2022","01","08","10:00","-4.7","","-4.7","","100","","0.0","","30","","55","","","","101.95","","","","-15","","NA"
"-66.35","44.29","BRIER ISLAND","8200604","2022-01-08 11:00","2022","01","08","11:00","-4.9","","-4.9","","100","","0.0","","31","","52","","","","102.10","","","","-15","","NA"
"-66.35","44.29","BRIER ISLAND","8200604","2022-01-08 12:00","2022","01","08","12:00","-4.7","","-4.8","","100","","0.0","","31","","48","","","","102.19","","","","-14","","NA"
"-66.35","44.29","BRIER ISLAND","8200604","2022-01-08 13:00","2022","01","08","13:00","-4.5","","-4.6","","99","","0.0","","31","","42","","","","102.19","","","","-14","","NA"
"-66.35","44.29","BRIER ISLAND","8200604","2022-01-08 14:00","2022","01","08","14:00","-3.7","","-4.1","","98","","0.0","","31","","46","","","","102.31","","","","-13","","NA"
"-66.35","44.29","BRIER ISLAND","8200604","2022-01-08 15:00","2022","01","08","15:00","-3.2","","-3.7","","97","","0.0","","32","","48","","","","102.44","","","","-12","","NA"
"-66.35","44.29","BRIER ISLAND","8200604","2022-01-08 16:00","2022","01","08","16:00","-2.8","","-3.4","","95","","0.0","","32","","43","","","","102.59","","","","-11","","NA"
"-66.35","44.29","BRIER ISLAND","8200604","2022-01-08 17:00","2022","01","08","17:00","-3.0","","-4.1","","92","","0.0","","32","","45","","","","102.76","","","","-12","","NA"
"-66.35","44.29","BRIER ISLAND","8200604","2022-01-08 18:00","2022","01","08","18:00","-3.0","","-4.8","","87","","0.0","","33","","38","","","","102.86","","","","-11","","NA"
"-66.35","44.29","BRIER ISLAND","8200604","2022-01-08 19:00","2022","01","08","19:00","-3.4","","-5.5","","85","","0.0","","34","","27","","","","102.98","","","","-11","","NA"
"-66.35","44.29","BRIER ISLAND","8200604","2022-01-08 20:00","2022","01","08","20:00","-3.8","","-6.3","","83","","0.0","","34","","20","","","","103.14","","","","-10","","NA"
"-66.35","44.29","BRIER ISLAND","8200604","2022-01-08 21:00","2022","01","08","21:00","-4.1","","-7.3","","78","","0.0","","35","","19","","","","103.09","","","","-10","","NA"
"-66.35","44.29","BRIER ISLAND","8200604","2022-01-08 22:00","2022","01","08","22:00","-4.2","","-7.0","","81","","0.0","","34","","14","","","","103.18","","","","-9","","NA"
"-66.35","44.29","BRIER ISLAND","8200604","2022-01-08 23:00","2022","01","08","23:00","-3.9","","-6.1","","85","","0.0","","7","","15","","","","103.09","","","","-9","","NA"
"-66.35","44.29","BRIER ISLAND","8200604","2022-01-09 00:00","2022","01","09","00:00","-4.7","","-6.7","","86","","0.0","","13","","5","","","","103.13","","","","-7","","NA"
"-66.35","44.29","BRIER ISLAND","8200604","2022-01-09 01:00","2022","01","09","01:00","-4.4","","-6.4","","86","","0.0","","16","","5","","","","103.09","","","","-7","","NA"
"-66.35","44.29","BRIER ISLAND","8200604","2022-01-09 02:00","2022","01","09","02:00","-3.7","","-5.3","","89","","0.0","","16","","6","","","","103.02","","","","-6","","NA"
"-66.35","44.29","BRIER ISLAND","8200604","2022-01-09 03:00","2022","01","09","03:00","-3.2","","-5.1","","87","","0.0","","18","","14","","","","102.97","","","","-8","","NA"
"-66.35","44.29","BRIER ISLAND","8200604","2022-01-09 04:00","2022","01","09","04:00","-1.9","","-3.2","","91","","0.0","","16","","17","","","","102.92","","","","-7","","NA"
"-66.35","44.29","BRIER ISLAND","8200604","2022-01-09 05:00","2022","01","09","05:00","-1.6","","-3.6","","86","","0.0","","18","","13","","","","102.85","","","","-6","","NA"
"-66.35","44.29","BRIER ISLAND","8200604","2022-01-09 06:00","2022","01","09","06:00","-0.8","","-2.9","","86","","0.0","","18","","14","","","","102.78","","","","-5","","NA"
"-66.35","44.29","BRIER ISLAND","8200604","2022-01-09 07:00","2022","01","09","07:00","0.5","","-1.7","","85","","0.0","","18","","17","","","","102.64","","","","","","NA"
"-66.35","44.29","BRIER ISLAND","8200604","2022-01-09 08:00","2022","01","09","08:00","1.2","","-0.9","","86","","0.0","","18","","17","","","","102.51","","","","","","NA"
"-66.35","44.29","BRIER ISLAND","8200604","2022-01-09 09:00","2022","01","09","09:00","1.7","","-0.4","","86","","0.0","","18","","21","","","","102.38","","","","","","NA"
"-66.35","44.29","BRIER ISLAND","8200604","2022-01-09 10:00","2022","01","09","10:00","2.1","","-0.2","","85","","0.0","","18","","25","","","","102.22","","","","","","NA"
"-66.35","44.29","BRIER ISLAND","8200604","2022-01-09 11:00","2022","01","09","11:00","2.9","","0.4","","84","","0.0","","18","","28","","","","102.07","","","","","","NA"
"-66.35","44.29","BRIER ISLAND","8200604","2022-01-09 12:00","2022","01","09","12:00","3.3","","0.8","","84","","0.0","","18","","30","","","","101.86","","","","","","NA"
"-66.35","44.29","BRIER ISLAND","8200604","2022-01-09 13:00","2022","01","09","13:00","3.8","","1.2","","83","","0.0","","18","","28","","","","101.64","","","","","","NA"
"-66.35","44.29","BRIER ISLAND","8200604","2022-01-09 14:00","2022","01","09","14:00","4.7","","2.4","","85","","0.0","","18","","31","","","","101.47","","","","","","NA"
"-66.35","44.29","BRIER ISLAND","8200604","2022-01-09 15:00","2022","01","09","15:00","4.9","","4.4","","96","","0.9","","18","","25","","","","101.28","","","","","","NA"
"-66.35","44.29","BRIER ISLAND","8200604","2022-01-09 16:00","2022","01","09","16:00","5.3","","5.0","","98","","1.7","","17","","23","","","","101.07","","","","","","NA"
"-66.35","44.29","BRIER ISLAND","8200604","2022-01-09 17:00","2022","01","09","17:00","6.0","","5.9","","99","","1.8","","18","","26","","","","100.88","","","","","","NA"
"-66.35","44.29","BRIER ISLAND","8200604","2022-01-09 18:00","2022","01","09","18:00","6.5","","6.4","","99","","1.6","","19","","27","","","","100.78","","","","","","NA"
"-66.35","44.29","BRIER ISLAND","8200604","2022-01-09 19:00","2022","01","09","19:00","6.7","","6.5","","99","","0.3","","19","","29","","","","100.65","","","","","","NA"
"-66.35","44.29","BRIER ISLAND","8200604","2022-01-09 20:00","2022","01","09","20:00","6.9","","6.9","","100","","1.0","","20","","26","","","","100.59","","","","","","NA"
"-66.35","44.29","BRIER ISLAND","8200604","2022-01-09 21:00","2022","01","09","21:00","7.0","","7.0","","100","","1.2","","22","","27","","","","100.48","","","","","","NA"
"-66.35","44.29","BRIER ISLAND","8200604","2022-01-09 22:00","2022","01","09","22:00","7.0","","6.5","","97","","0.5","","21","","27","","","","100.32","","","","","","NA"
"-66.35","44.29","BRIER ISLAND","8200604","2022-01-09 23:00","2022","01","09","23:00","7.3","","6.2","","93","","0.0","","22","","27","","","","100.30","","","","","","NA"
"-66.35","44.29","BRIER ISLAND","8200604","2022-01-10 00:00","2022","01","10","00:00","6.8","","6.2","","96","","1.5","","23","","26","","","","100.24","","","","","","NA"
"-66.35","44.29","BRIER ISLAND","8200604","2022-01-10 01:00","2022","01","10","01:00","6.6","","6.1","","97","","1.2","","22","","28","","","","100.19","","","","","","NA"
"-66.35","44.29","BRIER ISLAND","8200604","2022-01-10 02:00","2022","01","10","02:00","6.8","","6.0","","95","","0.2","","23","","26","","","","100.10","","","","","","NA"
"-66.35","44.29","BRIER ISLAND","8200604","2022-01-10 03:00","2022","01","10","03:00","6.7","","4.3","","85","","0.0","","24","","37","","","","100.11","","","","","","NA"
"-66.35","44.29","BRIER ISLAND","8200604","2022-01-10 04:00","2022","01","10","04:00","4.9","","2.6","","85","","0.0","","28","","54","","","","100.16","","","","","","NA"
"-66.35","44.29","BRIER ISLAND","8200604","2022-01-10 05:00","2022","01","10","05:00","4.5","","0.2","","74","","0.0","","28","","52","","","","100.21","","","","","","NA"
"-66.35","44.29","BRIER ISLAND","8200604","2022-01-10 06:00","2022","01","10","06:00","2.8","","-1.7","","72","","0.0","","29","","62","","","","100.30","","","","","","NA"
"-66.35","44.29","BRIER ISLAND","8200604","2022-01-10 07:00","2022","01","10","07:00","1.3","","-3.4","","71","","0.0","","29","","61","","","","100.44","","","","","","NA"
"-66.35","44.29","BRIER ISLAND","8200604","2022-01-10 08:00","2022","01","10","08:00","0.3","","-5.5","","65","","0.0","","29","","60","","","","100.55","","","","","","NA"
"-66.35","44.29","BRIER ISLAND","8200604","2022-01-10 09:00","2022","01","10","09:00","-0.8","","-5.8","","69","","0.0","","30","","57","","","","100.69","","","","-10","","NA"
"-66.35","44.29","BRIER ISLAND","8200604","2022-01-10 10:00","2022","01","10","10:00","-2.0","","-7.5","","66","","0.0","","29","","60","","","","100.84","","","","-12","","NA"
"-66.35","44.29","BRIER ISLAND","8200604","2022-01-10 11:00","2022","01","10","11:00","-2.5","","-8.6","","63","","0.0","","29","","59","","","","100.91","","","","-12","","NA"
"-66.35","44.29","BRIER ISLAND","8200604","2022-01-10 12:00","2022","01","10","12:00","-2.9","","-9.6","","60","","0.0","","29","","43","","","","100.94","","","","-12","","NA"
"-66.35","44.29","BRIER ISLAND","8200604","2022-01-10 13:00","2022","01","10","13:00","-3.8","","-9.4","","65","","0.0","","30","","46","","","","100.85","","","","-13","","NA"
"-66.35","44.29","BRIER ISLAND","8200604","2022-01-10 14:00","2022","01","10","14:00","-3.5","","-10.7","","58","","0.0","","30","","44","","","","100.86","","","","-12","","NA"
"-66.35","44.29","BRIER ISLAND","8200604","2022-01-10 15:00","2022","01","10","15:00","-3.8","","-11.0","","58","","0.0","","29","","43","","","","100.89","","","","-13","","NA"
"-66.35","44.29","BRIER ISLAND","8200604","2022-01-10 16:00","2022","01","10","16:00","-4.6","","-12.6","","53","","0.0","","28","","46","","","","100.96","","","","-14","","NA"
"-66.35","44.29","BRIER ISLAND","8200604","2022-01-10 17:00","2022","01","10","17:00","-4.6","","-10.7","","62","","0.0","","29","","46","","","","101.02","","","","-14","","NA"
"-66.35","44.29","BRIER ISLAND","8200604","2022-01-10 18:00","2022","01","10","18:00","-4.9","","-11.3","","60","","0.0","","29","","45","","","","101.08","","","","-14","","NA"
"-66.35","44.29","BRIER ISLAND","8200604","2022-01-10 19:00","2022","01","10","19:00","-5.0","","-12.2","","57","","0.0","","29","","43","","","","101.17","","","","-14","","NA"
"-66.35","44.29","BRIER ISLAND","8200604","2022-01-10 20:00","2022","01","10","20:00","-4.8","","-11.4","","60","","0.0","","27","","43","","","","101.20","","","","-14","","NA"
"-66.35","44.29","BRIER ISLAND","8200604","2022-01-10 21:00","2022","01","10","21:00","-5.0","","-11.7","","59","","0.0","","28","","44","","","","101.22","","","","-14","","NA"
"-66.35","44.29","BRIER ISLAND","8200604","2022-01-10 22:00","2022","01","10","22:00","-5.4","","-11.6","","62","","0.0","","29","","48","","","","101.23","","","","-15","","NA"
"-66.35","44.29","BRIER ISLAND","8200604","2022-01-10 23:00","2022","01","10","23:00","-6.3","","-11.4","","67","","0.0","","30","","46","","","","101.28","","","","-16","","NA"
"-66.35","44.29","BRIER ISLAND","8200604","2022-01-11 00:00","2022","01","11","00:00","-7.9","","-13.4","","64","","0.0","","30","","38","","","","101.36","","","","-18","","NA"
"-66.35","44.29","BRIER ISLAND","8200604","2022-01-11 01:00","2022","01","11","01:00","-8.1","","-12.2","","72","","0.0","","30","","38","","","","101.40","","","","-18","","NA"
"-66.35","44.29","BRIER ISLAND","8200604","2022-01-11 02:00","2022","01","11","02:00","-8.3","","-12.1","","74","","0.0","","30","","34","","","","101.45","","","","-18","","NA"
"-66.35","44.29","BRIER ISLAND","8200604","2022-01-11 03:00","2022","01","11","03:00","-9.2","","-13.1","","73","","0.0","","30","","34","","","","101.53","","","","-19","","NA"
"-66.35","44.29","BRIER ISLAND","8200604","2022-01-11 04:00","2022","01","11","04:00","-9.0","","-12.4","","77","","0.0","","31","","42","","","","101.44","","","","-20","","NA"
"-66.35","44.29","BRIER ISLAND","8200604","2022-01-11 05:00","2022","01","11","05:00","-9.8","","-13.6","","74","","0.0","","31","","46","","","","101.55","","","","-21","","NA"
"-66.35","44.29","BRIER ISLAND","8200604","2022-01-11 06:00","2022","01","11","06:00","-10.5","","-14.1","","75","","0.0","","29","","42","","","","101.68","","","","-22","","NA"
"-66.35","44.29","BRIER ISLAND","8200604","2022-01-11 07:00","2022","01","11","07:00","-11.7","","-12.6","","92","","0.0","","33","","39","","","","101.78","","","","-23","","NA"
"-66.35","44.29","BRIER ISLAND","8200604","2022-01-11 08:00","2022","01","11","08:00","-12.1","","-13.3","","91","","0.0","","32","","38","","","","101.93","","","","-23","","NA"
"-66.35","44.29","BRIER ISLAND","8200604","2022-01-11 09:00","2022","01","11","09:00","-12.7","","-13.5","","94","","0.0","","32","","44","","","","102.06","","","","-25","","NA"
"-66.35","44.29","BRIER ISLAND","8200604","2022-01-11 10:00","2022","01","11","10:00","-13.0","","-14.0","","93","","0.0","","33","","43","","","","102.18","","","","-25","","NA"
"-66.35","44.29","BRIER ISLAND","8200604","2022-01-11 11:00","2022","01","11","11:00","-13.5","","-14.6","","92","","0.0","","33","","36","","","","102.28","","","","-25","","NA"
"-66.35","44.29","BRIER ISLAND","8200604","2022-01-11 12:00","2022","01","11","12:00","-13.6","","-14.7","","92","","0.2","","29","","39","","","","102.26","","","","-25","","NA"
"-66.35","44.29","BRIER ISLAND","8200604","2022-01-11 13:00","2022","01","11","13:00","-13.5","","-14.6","","91","","0.0","","30","","39","","","","102.24","","","","-25","","NA"
"-66.35","44.29","BRIER ISLAND","8200604","2022-01-11 14:00","2022","01","11","14:00","-12.8","","-14.0","","91","","0.0","","30","","36","","","","102.27","","","","-24","","NA"
"-66.35","44.29","BRIER ISLAND","8200604","2022-01-11 15:00","2022","01","11","15:00","-12.8","","-14.0","","91","","0.0","","30","","38","","","","102.35","","","","-24","","NA"
"-66.35","44.29","BRIER ISLAND","8200604","2022-01-11 16:00","2022","01","11","16:00","-12.4","","-13.5","","91","","0.0","","30","","41","","","","102.43","","","","-24","","NA"
"-66.35","44.29","BRIER ISLAND","8200604","2022-01-11 17:00","2022","01","11","17:00","-12.5","","-14.0","","89","","0.0","","30","","34","","","","102.54","","","","-23","","NA"
"-66.35","44.29","BRIER ISLAND","8200604","2022-01-11 18:00","2022","01","11","18:00","-12.1","","-13.8","","87","","0.0","","31","","30","","","","102.60","","","","-22","","NA"
"-66.35","44.29","BRIER ISLAND","8200604","2022-01-11 19:00","2022","01","11","19:00","-11.4","","-12.8","","89","","0.0","","29","","36","","","","102.69","","","","-22","","NA"
"-66.35","44.29","BRIER ISLAND","8200604","2022-01-11 20:00","2022","01","11","20:00","-11.6","","-13.2","","88","","0.0","","29","","35","","","","102.79","","","","-22","","NA"
"-66.35","44.29","BRIER ISLAND","8200604","2022-01-11 21:00","2022","01","11","21:00","-11.7","","-13.9","","84","","0.0","","29","","33","","","","102.85","","","","-22","","NA"
"-66.35","44.29","BRIER ISLAND","8200604","2022-01-11 22:00","2022","01","11","22:00","-11.8","","-14.4","","81","","0.0","","30","","30","","","","102.86","","","","-22","","NA"
"-66.35","44.29","BRIER ISLAND","8200604","2022-01-11 23:00","2022","01","11","23:00","-12.3","","-15.9","","75","","0.0","","32","","24","","","","102.85","","","","-22","","NA"
"-66.35","44.29","BRIER ISLAND","8200604","2022-01-12 00:00","2022","01","12","00:00","-12.4","","-16.2","","73","","0.0","","28","","16","","","","102.88","","","","-20","","NA"
"-66.35","44.29","BRIER ISLAND","8200604","2022-01-12 01:00","2022","01","12","01:00","-11.9","","-14.9","","79","","0.0","","29","","15","","","","102.84","","","","-19","","NA"
"-66.35","44.29","BRIER ISLAND","8200604","2022-01-12 02:00","2022","01","12","02:00","-11.9","","-15.1","","77","","0.0","","23","","8","","","","102.85","","","","-17","","NA"
"-66.35","44.29","BRIER ISLAND","8200604","2022-01-12 03:00","2022","01","12","03:00","-11.0","","-13.9","","79","","0.0","","22","","6","","","","102.84","","","","-15","","NA"
"-66.35","44.29","BRIER ISLAND","8200604","2022-01-12 04:00","2022","01","12","04:00","-10.1","","-13.6","","76","","0.0","","20","","9","","","","102.76","","","","-15","","NA"
"-66.35","44.29","BRIER ISLAND","8200604","2022-01-12 05:00","2022","01","12","05:00","-9.3","","-12.8","","76","","0.0","","20","","8","","","","102.66","","","","-14","","NA"
"-66.35","44.29","BRIER ISLAND","8200604","2022-01-12 06:00","2022","01","12","06:00","-7.5","","-9.2","","88","","0.0","","14","","20","","","","102.55","","","","-15","","NA"
"-66.35","44.29","BRIER ISLAND","8200604","2022-01-12 07:00","2022","01","12","07:00","-7.1","","-7.7","","96","","0.0","","12","","29","","","","102.47","","","","-16","","NA"
"-66.35","44.29","BRIER ISLAND","8200604","2022-01-12 08:00","2022","01","12","08:00","-6.3","","-6.3","","100","","0.0","","12","","41","","","","102.30","","","","-16","","NA"
"-66.35","44.29","BRIER ISLAND","8200604","2022-01-12 09:00","2022","01","12","09:00","-5.8","","-5.8","","100","","0.2","","12","","40","","","","102.20","","","","-15","","NA"
"-66.35","44.29","BRIER ISLAND","8200604","2022-01-12 10:00","2022","01","12","10:00","-2.5","","-4.7","","85","","0.0","","17","","25","","","","102.13","","","","-9","","NA"
"-66.35","44.29","BRIER ISLAND","8200604","2022-01-12 11:00","2022","01","12","11:00","-0.9","","-5.5","","71","","0.2","","18","","29","","","","102.05","","","","-8","","NA"
"-66.35","44.29","BRIER ISLAND","8200604","2022-01-12 12:00","2022","01","12","12:00","0.1","","-5.2","","67","","0.0","","18","","31","","","","101.89","","","","","","NA"
"-66.35","44.29","BRIER ISLAND","8200604","2022-01-12 13:00","2022","01","12","13:00","0.9","","-4.7","","66","","0.0","","18","","28","","","","101.76","","","","","","NA"
"-66.35","44.29","BRIER ISLAND","8200604","2022-01-12 14:00","2022","01","12","14:00","0.9","","-3.5","","72","","0.0","","19","","29","","","","101.66","","","","","","NA"
"-66.35","44.29","BRIER ISLAND","8200604","2022-01-12 15:00","2022","01","12","15:00","1.5","","-2.9","","72","","0.3","","18","","29","","","","101.57","","","","","","NA"
"-66.35","44.29","BRIER ISLAND","8200604","2022-01-12 16:00","2022","01","12","16:00","1.4","","-1.0","","84","","0.0","","18","","28","","","","101.55","","","","","","NA"
"-66.35","44.29","BRIER ISLAND","8200604","2022-01-12 17:00","2022","01","12","17:00","1.9","","1.4","","97","","0.6","","18","","24","","","","101.48","","","","","","NA"
"-66.35","44.29","BRIER ISLAND","8200604","2022-01-12 18:00","2022","01","12","18:00","2.3","","2.1","","98","","1.5","","19","","25","","","","101.43","","","","","","NA"
"-66.35","44.29","BRIER ISLAND","8200604","2022-01-12 19:00","2022","01","12","19:00","3.3","","2.4","","94","","0.4","","19","","21","","","","101.42","","","","","","NA"
"-66.35","44.29","BRIER ISLAND","8200604","2022-01-12 20:00","2022","01","12","20:00","2.6","","2.4","","99","","2.2","","26","","37","","","","101.43","","","","","","NA"
"-66.35","44.29","BRIER ISLAND","8200604","2022-01-12 21:00","2022","01","12","21:00","2.4","","1.5","","94","","0.5","","28","","33","","","","101.44","","","","","","NA"
"-66.35","44.29","BRIER ISLAND","8200604","2022-01-12 22:00","2022","01","12","22:00","1.3","","-1.1","","84","","0.0","","29","","28","","","","101.51","","","","","","NA"
"-66.35","44.29","BRIER ISLAND","8200604","2022-01-12 23:00","2022","01","12","23:00","1.0","","-2.5","","77","","0.0","","29","","24","","","","101.55","","","","","","NA"
"-66.35","44.29","BRIER ISLAND","8200604","2022-01-13 00:00","2022","01","13","00:00","1.3","","-2.2","","78","","0.0","","29","","23","","","","101.57","","","","","","NA"
"-66.35","44.29","BRIER ISLAND","8200604","2022-01-13 01:00","2022","01","13","01:00","1.0","","-3.2","","73","","0.0","","30","","19","","","","101.55","","","","","","NA"
"-66.35","44.29","BRIER ISLAND","8200604","2022-01-13 02:00","2022","01","13","02:00","1.0","","-3.1","","74","","0.0","","29","","18","","","","101.58","","","","","","NA"
"-66.35","44.29","BRIER ISLAND","8200604","2022-01-13 03:00","2022","01","13","03:00","0.8","","-3.5","","73","","0.0","","31","","16","","","","101.59","","","","","","NA"
"-66.35","44.29","BRIER ISLAND","8200604","2022-01-13 04:00","2022","01","13","04:00","0.4","","-3.9","","72","","0.0","","31","","9","","","","101.56","","","","","","NA"
"-66.35","44.29","BRIER ISLAND","8200604","2022-01-13 05:00","2022","01","13","05:00","0.1","","-3.8","","75","","0.0","","30","","7","","","","101.53","","","","","","NA"
"-66.35","44.29","BRIER ISLAND","8200604","2022-01-13 06:00","2022","01","13","06:00","0.3","","-3.8","","74","","0.0","","14","","2","","","","101.56","","","","","","NA"
"-66.35","44.29","BRIER ISLAND","8200604","2022-01-13 07:00","2022","01","13","07:00","0.3","","-3.5","","76","","0.0","","19","","4","","","","101.60","","","","","","NA"
"-66.35","44.29","BRIER ISLAND","8200604","2022-01-13 08:00","2022","01","13","08:00","0.7","","-3.1","","76","","0.0","","31","","7","","","","101.66","","","","","","NA"
"-66.35","44.29","BRIER ISLAND","8200604","2022-01-13 09:00","2022","01","13","09:00","1.0","","-2.1","","80","","0.0","","10","","11","","","","101.69","","","","","","NA"
"-66.35","44.29","BRIER ISLAND","8200604","2022-01-13 10:00","2022","01","13","10:00","1.0","","-2.2","","79","","0.0","","10","","10","","","","101.74","","","","","","NA"
"-66.35","44.29","BRIER ISLAND","8200604","2022-01-13 11:00","2022","01","13","11:00","1.5","","-2.2","","76","","0.0","","10","","12","","","","101.75","","","","","","NA"
"-66.35","44.29","BRIER ISLAND","8200604","2022-01-13 12:00","2022","01","13","12:00","1.5","","-2.2","","77","","0.0","","8","","13","","","","101.68","","","","","","NA"
"-66.35","44.29","BRIER ISLAND","8200604","2022-01-13 13:00","2022","01","13","13:00","1.8","","-2.0","","76","","0.0","","6","","12","","","","101.61","","","","","","NA"
"-66.35","44.29","BRIER ISLAND","8200604","2022-01-13 14:00","2022","01","13","14:00","2.8","","-0.8","","77","","0.0","","8","","18","","","","101.54","","","","","","NA"
"-66.35","44.29","BRIER ISLAND","8200604","2022-01-13 15:00","2022","01","13","15:00","3.3","","-0.2","","78","","0.0","","9","","16","","","","101.55","","","","","","NA"
"-66.35","44.29","BRIER ISLAND","8200604","2022-01-13 16:00","2022","01","13","16:00","3.0","","0.2","","82","","0.0","","11","","17","","","","101.52","","","","","","NA"
"-66.35","44.29","BRIER ISLAND","8200604","2022-01-13 17:00","2022","01","13","17:00","2.6","","0.5","","86","","0.0","","11","","12","","","","101.55","","","","","","NA"
"-66.35","44.29","BRIER ISLAND","8200604","2022-01-13 18:00","2022","01","13","18:00","2.4","","0.7","","89","","0.0","","12","","13","","","","101.56","","","","","","NA"
"-66.35","44.29","BRIER ISLAND","8200604","2022-01-13 19:00","2022","01","13","19:00","2.4","","1.2","","91","","0.0","","10","","22","","","","101.53","","","","","","NA"
"-66.35","44.29","BRIER ISLAND","8200604","2022-01-13 20:00","2022","01","13","20:00","2.4","","1.9","","96","","0.0","","10","","28","","","","101.51","","","","","","NA"
"-66.35","44.29","BRIER ISLAND","8200604","2022-01-13 21:00","2022","01","13","21:00","2.1","","1.7","","97","","0.0","","11","","23","","","","101.54","","","","","","NA"
"-66.35","44.29","BRIER ISLAND","8200604","2022-01-13 22:00","2022","01","13","22:00","2.2","","2.0","","99","","0.0","","10","","24","","","","101.52","","","","","","NA"
"-66.35","44.29","BRIER ISLAND","8200604","2022-01-13 23:00","2022","01","13","23:00","2.1","","2.0","","99","","0.0","","11","","25","","","","101.48","","","","","","NA"
"-66.35","44.29","BRIER ISLAND","8200604","2022-01-14 00:00","2022","01","14","00:00","2.1","","1.9","","99","","0.0","","10","","26","","","","101.44","","","","","","NA"
"-66.35","44.29","BRIER ISLAND","8200604","2022-01-14 01:00","2022","01","14","01:00","2.0","","1.8","","98","","0.0","","10","","25","","","","101.34","","","","","","NA"
"-66.35","44.29","BRIER ISLAND","8200604","2022-01-14 02:00","2022","01","14","02:00","2.0","","1.6","","97","","0.0","","11","","28","","","","101.25","","","","","","NA"
"-66.35","44.29","BRIER ISLAND","8200604","2022-01-14 03:00","2022","01","14","03:00","1.9","","1.6","","98","","0.0","","10","","26","","","","101.23","","","","","","NA"
"-66.35","44.29","BRIER ISLAND","8200604","2022-01-14 04:00","2022","01","14","04:00","2.1","","1.9","","98","","0.0","","10","","30","","","","101.15","","","","","","NA"
"-66.35","44.29","BRIER ISLAND","8200604","2022-01-14 05:00","2022","01","14","05:00","2.1","","2.0","","99","","0.0","","9","","27","","","","101.04","","","","","","NA"
"-66.35","44.29","BRIER ISLAND","8200604","2022-01-14 06:00","2022","01","14","06:00","2.3","","2.3","","100","","0.0","","10","","36","","","","100.99","","","","","","NA"
"-66.35","44.29","BRIER ISLAND","8200604","2022-01-14 07:00","2022","01","14","07:00","2.4","","2.4","","100","","0.0","","10","","32","","","","100.98","","","","","","NA"
"-66.35","44.29","BRIER ISLAND","8200604","2022-01-14 08:00","2022","01","14","08:00","2.8","","2.8","","100","","0.0","","9","","31","","","","100.91","","","","","","NA"
"-66.35","44.29","BRIER ISLAND","8200604","2022-01-14 09:00","2022","01","14","09:00","3.2","","3.2","","100","","0.0","","9","","29","","","","100.90","","","","","","NA"
"-66.35","44.29","BRIER ISLAND","8200604","2022-01-14 10:00","2022","01","14","10:00","3.6","","3.5","","99","","0.0","","8","","29","","","","100.91","","","","","","NA"
"-66.35","44.29","BRIER ISLAND","8200604","2022-01-14 11:00","2022","01","14","11:00","3.7","","3.6","","99","","0.0","","2","","18","","","","100.88","","","","","","NA"
"-66.35","44.29","BRIER ISLAND","8200604","2022-01-14 12:00","2022","01","14","12:00","4.1","","4.0","","99","","0.0","","36","","23","","","","100.75","","","","","","NA"
"-66.35","44.29","BRIER ISLAND","8200604","2022-01-14 13:00","2022","01","14","13:00","4.8","","4.7","","99","","0.0","","1","","40","","","","100.60","","","","","","NA"
"-66.35","44.29","BRIER ISLAND","8200604","2022-01-14 14:00","2022","01","14","14:00","4.3","","4.2","","99","","0.0","","1","","44","","","","100.52","","","","","","NA"
"-66.35","44.29","BRIER ISLAND","8200604","2022-01-14 15:00","2022","01","14","15:00","3.7","","3.4","","98","","1.0","","1","","45","","","","100.43","","","","","","NA"
"-66.35","44.29","BRIER ISLAND","8200604","2022-01-14 16:00","2022","01","14","16:00","3.3","","3.0","","98","","1.1","","36","","46","","","","100.43","","","","","","NA"
"-66.35","44.29","BRIER ISLAND","8200604","2022-01-14 17:00","2022","01","14","17:00","2.7","","2.6","","99","","1.7","","36","","50","","","","100.31","","","","","","NA"
"-66.35","44.29","BRIER ISLAND","8200604","2022-01-14 18:00","2022","01","14","18:00","2.1","","2.1","","100","","0.9","","35","","59","","","","100.18","","","","","","NA"
"-66.35","44.29","BRIER ISLAND","8200604","2022-01-14 19:00","2022","01","14","19:00","1.4","","1.4","","100","","1.4","","35","","64","","","","99.98","","","","","","NA"
"-66.35","44.29","BRIER ISLAND","8200604","2022-01-14 20:00","2022","01","14","20:00","-0.1","","-0.1","","100","","0.7","","35","","79","","","","99.82","","","","-10","","NA"
"-66.35","44.29","BRIER ISLAND","8200604","2022-01-14 21:00","2022","01","14","21:00","-0.6","","","M","","M","0.3","","34","","83","","","","99.61","","","","-11","","NA"
"-66.35","44.29","BRIER ISLAND","8200604","2022-01-14 22:00","2022","01","14","22:00","-1.5","","","M","","M","0.0","","34","","87","","","","99.37","","","","-12","","NA"
"-66.35","44.29","BRIER ISLAND","8200604","2022-01-14 23:00","2022","01","14","23:00","-2.2","","","M","","M","0.2","","35","","83","","","","99.38","","","","-13","","NA"
"-66.35","44.29","BRIER ISLAND","8200604","2022-01-15 00:00","2022","01","15","00:00","-3.0","","","M","","M","0.2","","35","","82","","","","99.26","","","","-14","","NA"
"-66.35","44.29","BRIER ISLAND","8200604","2022-01-15 01:00","2022","01","15","01:00","-5.1","","-5.1","","100","","0.0","","34","","86","","","","99.24","","","","-17","","NA"
"-66.35","44.29","BRIER ISLAND","8200604","2022-01-15 02:00","2022","01","15","02:00","-5.8","","-5.8","","100","","0.3","","34","","80","","","","99.24","","","","-18","","NA"
"-66.35","44.29","BRIER ISLAND","8200604","2022-01-15 03:00","2022","01","15","03:00","-6.9","","-6.9","","100","","0.3","","34","","79","","","","99.33","","","","-20","","NA"
"-66.35","44.29","BRIER ISLAND","8200604","2022-01-15 04:00","2022","01","15","04:00","-7.5","","-7.5","","100","","0.0","","33","","78","","","","99.39","","","","-20","","NA"
"-66.35","44.29","BRIER ISLAND","8200604","2022-01-15 05:00","2022","01","15","05:00","-8.4","","-8.4","","100","","0.0","","33","","79","","","","99.54","","","","-22","","NA"
"-66.35","44.29","BRIER ISLAND","8200604","2022-01-15 06:00","2022","01","15","06:00","-8.7","","-8.7","","100","","0.0","","33","","71","","","","99.68","","","","-22","","NA"
"-66.35","44.29","BRIER ISLAND","8200604","2022-01-15 07:00","2022","01","15","07:00","-9.6","","-9.8","","99","","0.0","","32","","73","","","","99.83","","","","-23","","NA"
"-66.35","44.29","BRIER ISLAND","8200604","2022-01-15 08:00","2022","01","15","08:00","-9.9","","-10.1","","99","","0.0","","32","","68","","","","100.04","","","","-23","","NA"
"-66.35","44.29","BRIER ISLAND","8200604","2022-01-15 09:00","2022","01","15","09:00","-11.0","","-11.3","","98","","0.0","","32","","68","","","","100.16","","","","-25","","NA"
"-66.35","44.29","BRIER ISLAND","8200604","2022-01-15 10:00","2022","01","15","10:00","-11.7","","-12.2","","96","","0.0","","32","","68","","","","100.25","","","","-26","","NA"
"-66.35","44.29","BRIER ISLAND","8200604","2022-01-15 11:00","2022","01","15","11:00","-11.5","","-11.8","","97","","0.2","","32","","66","","","","100.35","","","","-25","","NA"
"-66.35","44.29","BRIER ISLAND","8200604","2022-01-15 12:00","2022","01","15","12:00","-11.9","","-12.5","","96","","0.0","","31","","69","","","","100.45","","","","-26","","NA"
"-66.35","44.29","BRIER ISLAND","8200604","2022-01-15 13:00","2022","01","15","13:00","-11.5","","-11.9","","97","","0.0","","30","","62","","","","100.36","","","","-25","","NA"
"-66.35","44.29","BRIER ISLAND","8200604","2022-01-15 14:00","2022","01","15","14:00","-10.7","","-11.0","","98","","0.0","","31","","63","","","","100.41","","","","-24","","NA"
"-66.35","44.29","BRIER ISLAND","8200604","2022-01-15 15:00","2022","01","15","15:00","-10.0","","-10.2","","99","","0.0","","30","","66","","","","100.47","","","","-23","","NA"
"-66.35","44.29","BRIER ISLAND","8200604","2022-01-15 16:00","2022","01","15","16:00","-10.6","","-10.9","","97","","0.0","","29","","73","","","","100.56","","","","-24","","NA"
"-66.35","44.29","BRIER ISLAND","8200604","2022-01-15 17:00","2022","01","15","17:00","-10.3","","-10.6","","97","","0.0","","29","","76","","","","100.69","","","","-24","","NA"
"-66.35","44.29","BRIER ISLAND","8200604","2022-01-15 18:00","2022","01","15","18:00","-10.1","","-10.4","","98","","0.0","","29","","76","","","","100.89","","","","-24","","NA"
"-66.35","44.29","BRIER ISLAND","8200604","2022-01-15 19:00","2022","01","15","19:00","-10.7","","-11.0","","98","","0.0","","30","","72","","","","101.03","","","","-24","","NA"
"-66.35","44.29","BRIER ISLAND","8200604","2022-01-15 20:00","2022","01","15","20:00","-11.1","","-11.6","","96","","0.0","","30","","69","","","","101.16","","","","-25","","NA"
"-66.35","44.29","BRIER ISLAND","8200604","2022-01-15 21:00","2022","01","15","21:00","-11.2","","-11.6","","97","","0.0","","29","","65","","","","101.33","","","","-25","","NA"
"-66.35","44.29","BRIER ISLAND","8200604","2022-01-15 22:00","2022","01","15","22:00","-11.3","","-11.6","","97","","0.0","","30","","66","","","","101.38","","","","-25","","NA"
"-66.35","44.29","BRIER ISLAND","8200604","2022-01-15 23:00","2022","01","15","23:00","-11.1","","-11.4","","98","","0.0","","30","","57","","","","101.51","","","","-24","","NA"
"-66.35","44.29","BRIER ISLAND","8200604","2022-01-16 00:00","2022","01","16","00:00","-10.7","","-11.0","","98","","0.0","","29","","58","","","","101.61","","","","-23","","NA"
"-66.35","44.29","BRIER ISLAND","8200604","2022-01-16 01:00","2022","01","16","01:00","-10.7","","-11.0","","98","","0.0","","30","","61","","","","101.65","","","","-24","","NA"
"-66.35","44.29","BRIER ISLAND","8200604","2022-01-16 02:00","2022","01","16","02:00","-10.3","","-10.6","","98","","0.0","","30","","54","","","","101.84","","","","-23","","NA"
"-66.35","44.29","BRIER ISLAND","8200604","2022-01-16 03:00","2022","01","16","03:00","-9.8","","-10.0","","99","","0.0","","29","","54","","","","101.91","","","","-22","","NA"
"-66.35","44.29","BRIER ISLAND","8200604","2022-01-16 04:00","2022","01","16","04:00","-10.2","","-10.5","","98","","0.0","","30","","54","","","","101.98","","","","-22","","NA"
"-66.35","44.29","BRIER ISLAND","8200604","2022-01-16 05:00","2022","01","16","05:00","-10.5","","-10.8","","97","","0.0","","30","","52","","","","102.07","","","","-23","","NA"
"-66.35","44.29","BRIER ISLAND","8200604","2022-01-16 06:00","2022","01","16","06:00","-10.4","","-10.7","","98","","0.0","","30","","46","","","","102.16","","","","-22","","NA"
"-66.35","44.29","BRIER ISLAND","8200604","2022-01-16 07:00","2022","01","16","07:00","-11.0","","-11.3","","97","","0.0","","30","","45","","","","102.30","","","","-23","","NA"
"-66.35","44.29","BRIER ISLAND","8200604","2022-01-16 08:00","2022","01","16","08:00","-10.3","","-10.5","","98","","0.0","","31","","40","","","","102.34","","","","-21","","NA"
"-66.35","44.29","BRIER ISLAND","8200604","2022-01-16 09:00","2022","01","16","09:00","-10.6","","-10.9","","98","","0.0","","31","","39","","","","102.44","","","","-21","","NA"
"-66.35","44.29","BRIER ISLAND","8200604","2022-01-16 10:00","2022","01","16","10:00","-10.3","","-10.5","","98","","0.0","","30","","36","","","","102.56","","","","-21","","NA"
"-66.35","44.29","BRIER ISLAND","8200604","2022-01-16 11:00","2022","01","16","11:00","-10.0","","-10.2","","98","","0.0","","31","","26","","","","102.59","","","","-19","","NA"
"-66.35","44.29","BRIER ISLAND","8200604","2022-01-16 12:00","2022","01","16","12:00","-9.2","","-9.3","","99","","0.0","","31","","21","","","","102.57","","","","-17","","NA"
"-66.35","44.29","BRIER ISLAND","8200604","2022-01-16 13:00","2022","01","16","13:00","-9.1","","-9.2","","99","","0.0","","29","","19","","","","102.58","","","","-17","","NA"
"-66.35","44.29","BRIER ISLAND","8200604","2022-01-16 14:00","2022","01","16","14:00","-8.4","","-8.4","","100","","0.0","","27","","17","","","","102.54","","","","-15","","NA"
"-66.35","44.29","BRIER ISLAND","8200604","2022-01-16 15:00","2022","01","16","15:00","-7.3","","-7.3","","100","","0.0","","27","","20","","","","102.56","","","","-14","","NA"
"-66.35","44.29","BRIER ISLAND","8200604","2022-01-16 16:00","2022","01","16","16:00","-6.8","","-6.8","","100","","0.0","","25","","16","","","","102.54","","","","-13","","NA"
"-66.35","44.29","BRIER ISLAND","8200604","2022-01-16 17:00","2022","01","16","17:00","-7.1","","-7.1","","100","","0.0","","27","","13","","","","102.47","","","","-13","","NA"
"-66.35","44.29","BRIER ISLAND","8200604","2022-01-16 18:00","2022","01","16","18:00","-7.2","","-7.2","","100","","0.0","","32","","7","","","","102.41","","","","-11","","NA"
"-66.35","44.29","BRIER ISLAND","8200604","2022-01-16 19:00","2022","01","16","19:00","-6.9","","-6.9","","100","","0.0","","18","","7","","","","102.45","","","","-10","","NA"
"-66.35","44.29","BRIER ISLAND","8200604","2022-01-16 20:00","2022","01","16","20:00","-7.0","","-7.0","","100","","0.0","","16","","11","","","","102.47","","","","-12","","NA"
"-66.35","44.29","BRIER ISLAND","8200604","2022-01-16 21:00","2022","01","16","21:00","-6.2","","-6.2","","100","","0.0","","18","","13","","","","102.53","","","","-12","","NA"
"-66.35","44.29","BRIER ISLAND","8200604","2022-01-16 22:00","2022","01","16","22:00","-6.1","","-6.1","","100","","0.0","","19","","11","","","","102.52","","","","-11","","NA"
"-66.35","44.29","BRIER ISLAND","8200604","2022-01-16 23:00","2022","01","16","23:00","-5.3","","-5.3","","100","","0.0","","17","","11","","","","102.37","","","","-10","","NA"
"-66.35","44.29","BRIER ISLAND","8200604","2022-01-17 00:00","2022","01","17","00:00","-3.9","","-3.9","","100","","0.0","","12","","16","","","","102.31","","","","-9","","NA"
"-66.35","44.29","BRIER ISLAND","8200604","2022-01-17 01:00","2022","01","17","01:00","-4.3","","-4.3","","100","","0.0","","11","","20","","","","102.28","","","","-11","","NA"
"-66.35","44.29","BRIER ISLAND","8200604","2022-01-17 02:00","2022","01","17","02:00","-3.7","","","M","","M","0.0","","11","","27","","","","102.17","","","","-11","","NA"
"-66.35","44.29","BRIER ISLAND","8200604","2022-01-17 03:00","2022","01","17","03:00","-3.8","","-3.8","","100","","0.0","","11","","30","","","","102.12","","","","-11","","NA"
"-66.35","44.29","BRIER ISLAND","8200604","2022-01-17 04:00","2022","01","17","04:00","-4.0","","-4.0","","100","","0.0","","10","","29","","","","102.01","","","","-12","","NA"
"-66.35","44.29","BRIER ISLAND","8200604","2022-01-17 05:00","2022","01","17","05:00","-4.2","","-4.2","","100","","0.0","","10","","35","","","","101.79","","","","-13","","NA"
"-66.35","44.29","BRIER ISLAND","8200604","2022-01-17 06:00","2022","01","17","06:00","-3.8","","-3.8","","100","","0.2","","10","","35","","","","101.59","","","","-12","","NA"
"-66.35","44.29","BRIER ISLAND","8200604","2022-01-17 07:00","2022","01","17","07:00","-2.9","","","M","","M","0.0","","9","","44","","","","101.47","","","","-12","","NA"
"-66.35","44.29","BRIER ISLAND","8200604","2022-01-17 08:00","2022","01","17","08:00","-2.2","","","M","","M","0.0","","9","","52","","","","101.21","","","","-11","","NA"
"-66.35","44.29","BRIER ISLAND","8200604","2022-01-17 09:00","2022","01","17","09:00","-1.6","","","M","","M","0.0","","9","","55","","","","101.09","","","","-11","","NA"
"-66.35","44.29","BRIER ISLAND","8200604","2022-01-17 10:00","2022","01","17","10:00","-0.3","","","M","","M","0.0","","9","","57","","","","100.82","","","","-9","","NA"
"-66.35","44.29","BRIER ISLAND","8200604","2022-01-17 11:00","2022","01","17","11:00","0.1","","","M","","M","0.3","","9","","55","","","","100.55","","","","","","NA"
"-66.35","44.29","BRIER ISLAND","8200604","2022-01-17 12:00","2022","01","17","12:00","1.0","","","M","","M","0.8","","9","","59","","","","100.05","","","","","","NA"
"-66.35","44.29","BRIER ISLAND","8200604","2022-01-17 13:00","2022","01","17","13:00","2.3","","2.3","","100","","0.0","","10","","71","","","","99.49","","","","","","NA"
"-66.35","44.29","BRIER ISLAND","8200604","2022-01-17 14:00","2022","01","17","14:00","2.7","","2.7","","100","","2.5","","10","","77","","","","99.02","","","","","","NA"
"-66.35","44.29","BRIER ISLAND","8200604","2022-01-17 15:00","2022","01","17","15:00","3.7","","3.7","","100","","2.0","","10","","80","","","","98.61","","","","","","NA"
"-66.35","44.29","BRIER ISLAND","8200604","2022-01-17 16:00","2022","01","17","16:00","4.6","","4.6","","100","","1.6","","11","","63","","","","98.63","","","","","","NA"
"-66.35","44.29","BRIER ISLAND","8200604","2022-01-17 17:00","2022","01","17","17:00","6.1","","6.1","","100","","2.4","","11","","57","","","","98.61","","","","","","NA"
"-66.35","44.29","BRIER ISLAND","8200604","2022-01-17 18:00","2022","01","17","18:00","7.9","","7.9","","100","","0.8","","13","","49","","","","98.59","","","","","","NA"
"-66.35","44.29","BRIER ISLAND","8200604","2022-01-17 19:00","2022","01","17","19:00","7.1","","7.1","","100","","0.0","","16","","23","","","","98.65","","","","","","NA"
"-66.35","44.29","BRIER ISLAND","8200604","2022-01-17 20:00","2022","01","17","20:00","6.8","","6.5","","97","","0.0","","17","","22","","","","98.65","","","","","","NA"
"-66.35","44.29","BRIER ISLAND","8200604","2022-01-17 21:00","2022","01","17","21:00","6.7","","5.9","","94","","0.0","","17","","20","","","","98.64","","","","","","NA"
"-66.35","44.29","BRIER ISLAND","8200604","2022-01-17 22:00","2022","01","17","22:00","6.0","","5.7","","98","","0.0","","16","","19","","","","98.59","","","","","","NA"
"-66.35","44.29","BRIER ISLAND","8200604","2022-01-17 23:00","2022","01","17","23:00","6.0","","5.8","","99","","0.2","","16","","21","","","","98.55","","","","","","NA"
"-66.35","44.29","BRIER ISLAND","8200604","2022-01-18 00:00","2022","01","18","00:00","6.2","","4.5","","89","","0.0","","18","","19","","","","98.55","","","","","","NA"
"-66.35","44.29","BRIER ISLAND","8200604","2022-01-18 01:00","2022","01","18","01:00","5.9","","3.3","","83","","0.0","","19","","20","","","","98.52","","","","","","NA"
"-66.35","44.29","BRIER ISLAND","8200604","2022-01-18 02:00","2022","01","18","02:00","5.7","","2.4","","79","","0.0","","19","","21","","","","98.47","","","","","","NA"
"-66.35","44.29","BRIER ISLAND","8200604","2022-01-18 03:00","2022","01","18","03:00","5.7","","2.5","","80","","0.0","","18","","17","","","","98.41","","","","","","NA"
"-66.35","44.29","BRIER ISLAND","8200604","2022-01-18 04:00","2022","01","18","04:00","4.4","","3.0","","91","","0.5","","19","","17","","","","98.36","","","","","","NA"
"-66.35","44.29","BRIER ISLAND","8200604","2022-01-18 05:00","2022","01","18","05:00","4.4","","2.7","","89","","0.0","","21","","18","","","","98.43","","","","","","NA"
"-66.35","44.29","BRIER ISLAND","8200604","2022-01-18 06:00","2022","01","18","06:00","3.7","","3.1","","96","","0.7","","23","","16","","","","98.45","","","","","","NA"
"-66.35","44.29","BRIER ISLAND","8200604","2022-01-18 07:00","2022","01","18","07:00","4.2","","3.6","","96","","1.5","","25","","27","","","","98.51","","","","","","NA"
"-66.35","44.29","BRIER ISLAND","8200604","2022-01-18 08:00","2022","01","18","08:00","4.2","","2.8","","91","","0.7","","28","","38","","","","98.48","","","","","","NA"
"-66.35","44.29","BRIER ISLAND","8200604","2022-01-18 09:00","2022","01","18","09:00","3.4","","2.3","","92","","0.0","","29","","43","","","","98.61","","","","","","NA"
"-66.35","44.29","BRIER ISLAND","8200604","2022-01-18 10:00","2022","01","18","10:00","1.4","","-0.2","","89","","0.0","","29","","47","","","","98.77","","","","","","NA"
"-66.35","44.29","BRIER ISLAND","8200604","2022-01-18 11:00","2022","01","18","11:00","0.1","","-0.5","","95","","0.0","","28","","52","","","","98.87","","","","","","NA"
"-66.35","44.29","BRIER ISLAND","8200604","2022-01-18 12:00","2022","01","18","12:00","-1.3","","-3.4","","86","","0.0","","29","","57","","","","98.98","","","","-10","","NA"
"-66.35","44.29","BRIER ISLAND","8200604","2022-01-18 13:00","2022","01","18","13:00","-2.1","","-4.7","","83","","0.0","","28","","52","","","","99.08","","","","-11","","NA"
"-66.35","44.29","BRIER ISLAND","8200604","2022-01-18 14:00","2022","01","18","14:00","-2.5","","-6.0","","77","","0.0","","27","","47","","","","99.19","","","","-11","","NA"
"-66.35","44.29","BRIER ISLAND","8200604","2022-01-18 15:00","2022","01","18","15:00","-2.4","","-5.8","","77","","0.0","","28","","52","","","","99.33","","","","-12","","NA"
"-66.35","44.29","BRIER ISLAND","8200604","2022-01-18 16:00","2022","01","18","16:00","-2.3","","-6.1","","75","","0.0","","28","","50","","","","99.47","","","","-11","","NA"
"-66.35","44.29","BRIER ISLAND","8200604","2022-01-18 17:00","2022","01","18","17:00","-2.8","","-7.1","","72","","0.0","","28","","55","","","","99.61","","","","-12","","NA"
"-66.35","44.29","BRIER ISLAND","8200604","2022-01-18 18:00","2022","01","18","18:00","-3.6","","-8.2","","70","","0.0","","28","","60","","","","99.80","","","","-14","","NA"
"-66.35","44.29","BRIER ISLAND","8200604","2022-01-18 19:00","2022","01","18","19:00","-3.7","","-8.0","","72","","0.0","","28","","59","","","","100.01","","","","-14","","NA"
"-66.35","44.29","BRIER ISLAND","8200604","2022-01-18 20:00","2022","01","18","20:00","-4.8","","-8.9","","73","","0.0","","28","","58","","","","100.20","","","","-15","","NA"
"-66.35","44.29","BRIER ISLAND","8200604","2022-01-18 21:00","2022","01","18","21:00","-5.9","","-10.1","","72","","0.0","","29","","58","","","","100.41","","","","-17","","NA"
"-66.35","44.29","BRIER ISLAND","8200604","2022-01-18 22:00","2022","01","18","22:00","-6.5","","-9.1","","82","","0.0","","30","","58","","","","100.56","","","","-18","","NA"
"-66.35","44.29","BRIER ISLAND","8200604","2022-01-18 23:00","2022","01","18","23:00","-7.7","","-9.8","","85","","0.0","","29","","56","","","","100.75","","","","-19","","NA"
"-66.35","44.29","BRIER ISLAND","8200604","2022-01-19 00:00","2022","01","19","00:00","-8.9","","-11.5","","82","","0.0","","29","","56","","","","100.86","","","","-21","","NA"
"-66.35","44.29","BRIER ISLAND","8200604","2022-01-19 01:00","2022","01","19","01:00","-9.5","","-12.1","","81","","0.0","","30","","57","","","","100.99","","","","-22","","NA"
"-66.35","44.29","BRIER ISLAND","8200604","2022-01-19 02:00","2022","01","19","02:00","-9.6","","-12.2","","81","","0.0","","29","","49","","","","101.20","","","","-21","","NA"
"-66.35","44.29","BRIER ISLAND","8200604","2022-01-19 03:00","2022","01","19","03:00","-9.6","","-11.9","","84","","0.0","","29","","45","","","","101.39","","","","-21","","NA"
"-66.35","44.29","BRIER ISLAND","8200604","2022-01-19 04:00","2022","01","19","04:00","-9.8","","-12.1","","84","","0.0","","28","","45","","","","101.56","","","","-21","","NA"
"-66.35","44.29","BRIER ISLAND","8200604","2022-01-19 05:00","2022","01","19","05:00","-10.2","","-13.1","","79","","0.0","","28","","44","","","","101.69","","","","-21","","NA"
"-66.35","44.29","BRIER ISLAND","8200604","2022-01-19 06:00","2022","01","19","06:00","-9.8","","-13.1","","77","","0.0","","30","","41","","","","101.74","","","","-21","","NA"
"-66.35","44.29","BRIER ISLAND","8200604","2022-01-19 07:00","2022","01","19","07:00","-9.4","","-12.3","","80","","0.0","","29","","41","","","","101.82","","","","-20","","NA"
"-66.35","44.29","BRIER ISLAND","8200604","2022-01-19 08:00","2022","01","19","08:00","-8.5","","-11.3","","80","","0.0","","29","","36","","","","101.86","","","","-18","","NA"
"-66.35","44.29","BRIER ISLAND","8200604","2022-01-19 09:00","2022","01","19","09:00","-8.2","","-11.3","","78","","0.0","","29","","25","","","","101.87","","","","-16","","NA"
"-66.35","44.29","BRIER ISLAND","8200604","2022-01-19 10:00","2022","01","19","10:00","-7.4","","-10.7","","77","","0.0","","28","","18","","","","102.01","","","","-14","","NA"
"-66.35","44.29","BRIER ISLAND","8200604","2022-01-19 11:00","2022","01","19","11:00","-6.2","","-10.4","","72","","0.0","","24","","7","","","","101.93","","","","-10","","NA"
"-66.35","44.29","BRIER ISLAND","8200604","2022-01-19 12:00","2022","01","19","12:00"
"-66.35","44.29","BRIER ISLAND","8200604","2022-01-19 13:00","2022","01","19","13:00"
"-66.35","44.29","BRIER ISLAND","8200604","2022-01-19 14:00","2022","01","19","14:00","-1.9","","-5.2","","78","","0.0","","16","","25","","","","101.53","","","","-8","","NA"
"-66.35","44.29","BRIER ISLAND","8200604","2022-01-19 15:00","2022","01","19","15:00","0.4","","-2.2","","82","","0.0","","16","","29","","","","101.36","","","","","","NA"
"-66.35","44.29","BRIER ISLAND","8200604","2022-01-19 16:00","2022","01","19","16:00","2.2","","-1.9","","74","","0.0","","18","","24","","","","101.35","","","","","","NA"
"-66.35","44.29","BRIER ISLAND","8200604","2022-01-19 17:00","2022","01","19","17:00","3.1","","-1.2","","73","","0.0","","18","","23","","","","101.28","","","","","","NA"
"-66.35","44.29","BRIER ISLAND","8200604","2022-01-19 18:00","2022","01","19","18:00","4.2","","0.9","","79","","0.0","","17","","28","","","","101.19","","","","","","NA"
"-66.35","44.29","BRIER ISLAND","8200604","2022-01-19 19:00","2022","01","19","19:00","4.8","","2.9","","87","","0.0","","17","","24","","","","101.14","","","","","","NA"
"-66.35","44.29","BRIER ISLAND","8200604","2022-01-19 20:00","2022","01","19","20:00","5.9","","4.2","","89","","0.0","","18","","23","","","","101.12","","","","","","NA"
"-66.35","44.29","BRIER ISLAND","8200604","2022-01-19 21:00","2022","01","19","21:00","6.5","","4.6","","88","","0.0","","18","","20","","","","101.06","","","","","","NA"
"-66.35","44.29","BRIER ISLAND","8200604","2022-01-19 22:00","2022","01","19","22:00","6.5","","5.2","","91","","0.3","","19","","18","","","","101.03","","","","","","NA"
"-66.35","44.29","BRIER ISLAND","8200604","2022-01-19 23:00","2022","01","19","23:00","6.8","","5.0","","88","","0.0","","21","","23","","","","101.02","","","","","","NA"
"-66.35","44.29","BRIER ISLAND","8200604","2022-01-20 00:00","2022","01","20","00:00","6.8","","4.1","","83","","0.0","","22","","20","","","","101.02","","","","","","NA"
"-66.35","44.29","BRIER ISLAND","8200604","2022-01-20 01:00","2022","01","20","01:00","6.8","","3.7","","80","","0.0","","21","","20","","","","101.00","","","","","","NA"
"-66.35","44.29","BRIER ISLAND","8200604","2022-01-20 02:00","2022","01","20","02:00","6.7","","3.9","","82","","0.0","","21","","14","","","","101.00","","","","","","NA"
"-66.35","44.29","BRIER ISLAND","8200604","2022-01-20 03:00","2022","01","20","03:00","6.5","","3.7","","82","","0.0","","20","","13","","","","101.05","","","","","","NA"
"-66.35","44.29","BRIER ISLAND","8200604","2022-01-20 04:00","2022","01","20","04:00","6.5","","3.9","","83","","0.0","","20","","14","","","","101.06","","","","","","NA"
"-66.35","44.29","BRIER ISLAND","8200604","2022-01-20 05:00","2022","01","20","05:00","6.2","","3.8","","84","","0.0","","19","","12","","","","101.00","","","","","","NA"
"-66.35","44.29","BRIER ISLAND","8200604","2022-01-20 06:00","2022","01","20","06:00","6.0","","4.0","","87","","0.0","","19","","11","","","","101.01","","","","","","NA"
"-66.35","44.29","BRIER ISLAND","8200604","2022-01-20 07:00","2022","01","20","07:00","6.3","","4.2","","86","","0.0","","19","","12","","","","101.07","","","","","","NA"
"-66.35","44.29","BRIER ISLAND","8200604","2022-01-20 08:00","2022","01","20","08:00","6.5","","3.6","","82","","0.0","","22","","11","","","","101.13","","","","","","NA"
"-66.35","44.29","BRIER ISLAND","8200604","2022-01-20 09:00","2022","01","20","09:00","6.1","","1.8","","74","","0.0","","23","","19","","","","101.19","","","","","","NA"
"-66.35","44.29","BRIER ISLAND","8200604","2022-01-20 10:00","2022","01","20","10:00","2.2","","1.5","","95","","0.0","","33","","35","","","","101.24","","","","","","NA"
"-66.35","44.29","BRIER ISLAND","8200604","2022-01-20 11:00","2022","01","20","11:00","1.1","","1.1","","100","","0.6","","34","","26","","","","101.34","","","","","","NA"
"-66.35","44.29","BRIER ISLAND","8200604","2022-01-20 12:00","2022","01","20","12:00","0.4","","0.4","","100","","0.6","","32","","36","","","","101.36","","","","","","NA"
"-66.35","44.29","BRIER ISLAND","8200604","2022-01-20 13:00","2022","01","20","13:00","-0.3","","-0.3","","100","","0.2","","31","","31","","","","101.37","","","","-7","","NA"
"-66.35","44.29","BRIER ISLAND","8200604","2022-01-20 14:00","2022","01","20","14:00","-0.3","","-2.2","","87","","0.2","","32","","26","","","","101.40","","","","-6","","NA"
"-66.35","44.29","BRIER ISLAND","8200604","2022-01-20 15:00","2022","01","20","15:00","-0.5","","-1.6","","92","","0.0","","33","","30","","","","101.42","","","","-7","","NA"
"-66.35","44.29","BRIER ISLAND","8200604","2022-01-20 16:00","2022","01","20","16:00","-0.9","","-3.7","","82","","0.0","","32","","29","","","","101.52","","","","-8","","NA"
"-66.35","44.29","BRIER ISLAND","8200604","2022-01-20 17:00","2022","01","20","17:00","-0.9","","-4.7","","75","","0.0","","32","","26","","","","101.61","","","","-7","","NA"
"-66.35","44.29","BRIER ISLAND","8200604","2022-01-20 18:00","2022","01","20","18:00","-1.3","","-5.0","","76","","0.0","","32","","30","","","","101.71","","","","-8","","NA"
"-66.35","44.29","BRIER ISLAND","8200604","2022-01-20 19:00","2022","01","20","19:00","-2.2","","-6.2","","74","","0.0","","32","","33","","","","101.84","","","","-10","","NA"
"-66.35","44.29","BRIER ISLAND","8200604","2022-01-20 20:00","2022","01","20","20:00","-3.1","","-7.3","","73","","0.0","","32","","35","","","","101.91","","","","-11","","NA"
"-66.35","44.29","BRIER ISLAND","8200604","2022-01-20 21:00","2022","01","20","21:00","-4.3","","-7.7","","77","","0.0","","33","","36","","","","102.01","","","","-13","","NA"
"-66.35","44.29","BRIER ISLAND","8200604","2022-01-20 22:00","2022","01","20","22:00","-4.8","","-7.4","","82","","0.0","","34","","37","","","","102.06","","","","-14","","NA"
"-66.35","44.29","BRIER ISLAND","8200604","2022-01-20 23:00","2022","01","20","23:00","-5.6","","-8.6","","79","","0.0","","34","","37","","","","102.20","","","","-15","","NA"
"-66.35","44.29","BRIER ISLAND","8200604","2022-01-21 00:00","2022","01","21","00:00","-6.1","","-8.5","","83","","0.0","","34","","37","","","","102.27","","","","-15","","NA"
"-66.35","44.29","BRIER ISLAND","8200604","2022-01-21 01:00","2022","01","21","01:00","-6.7","","-9.2","","83","","0.0","","35","","42","","","","102.30","","","","-17","","NA"
"-66.35","44.29","BRIER ISLAND","8200604","2022-01-21 02:00","2022","01","21","02:00","-6.9","","-9.4","","82","","0.0","","35","","43","","","","102.36","","","","-17","","NA"
"-66.35","44.29","BRIER ISLAND","8200604","2022-01-21 03:00","2022","01","21","03:00","-7.1","","-9.3","","84","","0.0","","35","","41","","","","102.48","","","","-17","","NA"
"-66.35","44.29","BRIER ISLAND","8200604","2022-01-21 04:00","2022","01","21","04:00","-7.8","","-9.5","","87","","0.0","","35","","43","","","","102.51","","","","-18","","NA"
"-66.35","44.29","BRIER ISLAND","8200604","2022-01-21 05:00","2022","01","21","05:00","-7.7","","-9.0","","90","","0.0","","35","","39","","","","102.56","","","","-18","","NA"
"-66.35","44.29","BRIER ISLAND","8200604","2022-01-21 06:00","2022","01","21","06:00","-8.4","","-10.3","","86","","0.0","","35","","36","","","","102.62","","","","-18","","NA"
"-66.35","44.29","BRIER ISLAND","8200604","2022-01-21 07:00","2022","01","21","07:00","-8.8","","-10.6","","87","","0.0","","34","","40","","","","102.71","","","","-19","","NA"
"-66.35","44.29","BRIER ISLAND","8200604","2022-01-21 08:00","2022","01","21","08:00","-9.7","","-11.3","","88","","0.0","","34","","41","","","","102.79","","","","-20","","NA"
"-66.35","44.29","BRIER ISLAND","8200604","2022-01-21 09:00","2022","01","21","09:00","-9.5","","-10.9","","90","","0.0","","34","","38","","","","102.88","","","","-20","","NA"
"-66.35","44.29","BRIER ISLAND","8200604","2022-01-21 10:00","2022","01","21","10:00","-9.4","","-10.3","","93","","0.0","","34","","37","","","","102.92","","","","-20","","NA"
"-66.35","44.29","BRIER ISLAND","8200604","2022-01-21 11:00","2022","01","21","11:00","-9.5","","-10.9","","89","","0.0","","36","","32","","","","103.00","","","","-19","","NA"
"-66.35","44.29","BRIER ISLAND","8200604","2022-01-21 12:00","2022","01","21","12:00","-9.5","","-11.3","","87","","0.0","","34","","31","","","","102.99","","","","-19","","NA"
"-66.35","44.29","BRIER ISLAND","8200604","2022-01-21 13:00","2022","01","21","13:00","-9.3","","-11.7","","82","","0.0","","34","","28","","","","102.91","","","","-18","","NA"
"-66.35","44.29","BRIER ISLAND","8200604","2022-01-21 14:00","2022","01","21","14:00","-9.4","","-11.1","","87","","0.0","","35","","28","","","","102.87","","","","-18","","NA"
"-66.35","44.29","BRIER ISLAND","8200604","2022-01-21 15:00","2022","01","21","15:00","-9.0","","-11.2","","85","","0.0","","35","","30","","","","102.89","","","","-18","","NA"
"-66.35","44.29","BRIER ISLAND","8200604","2022-01-21 16:00","2022","01","21","16:00","-8.7","","-11.3","","82","","0.0","","35","","27","","","","102.98","","","","-17","","NA"
"-66.35","44.29","BRIER ISLAND","8200604","2022-01-21 17:00","2022","01","21","17:00","-8.6","","-11.8","","78","","0.0","","35","","28","","","","103.02","","","","-17","","NA"
"-66.35","44.29","BRIER ISLAND","8200604","2022-01-21 18:00","2022","01","21","18:00","-8.3","","-11.9","","75","","0.0","","35","","28","","","","103.06","","","","-17","","NA"
"-66.35","44.29","BRIER ISLAND","8200604","2022-01-21 19:00","2022","01","21","19:00","-8.1","","-12.0","","73","","0.0","","35","","29","","","","103.10","","","","-17","","NA"
"-66.35","44.29","BRIER ISLAND","8200604","2022-01-21 20:00","2022","01","21","20:00","-8.1","","-12.4","","72","","0.0","","36","","23","","","","103.20","","","","-16","","NA"
"-66.35","44.29","BRIER ISLAND","8200604","2022-01-21 21:00","2022","01","21","21:00","-7.9","","-11.4","","76","","0.0","","35","","24","","","","103.20","","","","-16","","NA"
"-66.35","44.29","BRIER ISLAND","8200604","2022-01-21 22:00","2022","01","21","22:00","-7.9","","-11.2","","77","","0.0","","35","","18","","","","103.22","","","","-15","","NA"
"-66.35","44.29","BRIER ISLAND","8200604","2022-01-21 23:00","2022","01","21","23:00","-8.2","","-11.1","","79","","0.0","","6","","19","","","","103.23","","","","-15","","NA"
"-66.35","44.29","BRIER ISLAND","8200604","2022-01-22 00:00","2022","01","22","00:00","-8.2","","-10.5","","83","","0.0","","5","","15","","","","103.23","","","","-15","","NA"
"-66.35","44.29","BRIER ISLAND","8200604","2022-01-22 01:00","2022","01","22","01:00","-8.2","","-10.4","","84","","0.0","","4","","15","","","","103.20","","","","-15","","NA"
"-66.35","44.29","BRIER ISLAND","8200604","2022-01-22 02:00","2022","01","22","02:00","-8.6","","-9.8","","91","","0.0","","7","","16","","","","103.14","","","","-15","","NA"
"-66.35","44.29","BRIER ISLAND","8200604","2022-01-22 03:00","2022","01","22","03:00","-8.2","","-9.2","","93","","0.0","","6","","20","","","","103.11","","","","-16","","NA"
"-66.35","44.29","BRIER ISLAND","8200604","2022-01-22 04:00","2022","01","22","04:00","-8.6","","-9.4","","94","","0.0","","6","","20","","","","103.08","","","","-16","","NA"
"-66.35","44.29","BRIER ISLAND","8200604","2022-01-22 05:00","2022","01","22","05:00","-8.7","","-9.4","","95","","0.0","","6","","22","","","","103.01","","","","-17","","NA"
"-66.35","44.29","BRIER ISLAND","8200604","2022-01-22 06:00","2022","01","22","06:00","-9.2","","-9.9","","95","","0.0","","7","","23","","","","102.99","","","","-17","","NA"
"-66.35","44.29","BRIER ISLAND","8200604","2022-01-22 07:00","2022","01","22","07:00","-9.7","","-10.2","","97","","0.0","","7","","27","","","","102.89","","","","-19","","NA"
"-66.35","44.29","BRIER ISLAND","8200604","2022-01-22 08:00","2022","01","22","08:00","-9.9","","-10.8","","93","","0.0","","8","","26","","","","102.97","","","","-19","","NA"
"-66.35","44.29","BRIER ISLAND","8200604","2022-01-22 09:00","2022","01","22","09:00","-10.7","","-11.8","","92","","0.0","","9","","27","","","","102.98","","","","-20","","NA"
"-66.35","44.29","BRIER ISLAND","8200604","2022-01-22 10:00","2022","01","22","10:00","-9.7","","-11.0","","90","","0.0","","7","","25","","","","102.79","","","","-18","","NA"
"-66.35","44.29","BRIER ISLAND","8200604","2022-01-22 11:00","2022","01","22","11:00","-10.2","","-12.1","","86","","0.0","","7","","21","","","","102.80","","","","-18","","NA"
"-66.35","44.29","BRIER ISLAND","8200604","2022-01-22 12:00","2022","01","22","12:00","-9.1","","-11.9","","80","","0.0","","8","","21","","","","102.71","","","","-17","","NA"
"-66.35","44.29","BRIER ISLAND","8200604","2022-01-22 13:00","2022","01","22","13:00","-8.1","","-13.0","","68","","0.0","","8","","17","","","","102.53","","","","-15","","NA"
"-66.35","44.29","BRIER ISLAND","8200604","2022-01-22 14:00","2022","01","22","14:00","-7.2","","-13.7","","60","","0.0","","6","","11","","","","102.46","","","","-12","","NA"
"-66.35","44.29","BRIER ISLAND","8200604","2022-01-22 15:00","2022","01","22","15:00","-6.4","","-11.1","","69","","0.0","","2","","14","","","","102.35","","","","-12","","NA"
"-66.35","44.29","BRIER ISLAND","8200604","2022-01-22 16:00","2022","01","22","16:00","-5.5","","-9.0","","76","","0.0","","3","","12","","","","102.28","","","","-10","","NA"
"-66.35","44.29","BRIER ISLAND","8200604","2022-01-22 17:00","2022","01","22","17:00","-6.0","","-7.9","","86","","0.0","","3","","18","","","","102.16","","","","-12","","NA"
"-66.35","44.29","BRIER ISLAND","8200604","2022-01-22 18:00","2022","01","22","18:00","-5.9","","-7.2","","91","","0.0","","4","","15","","","","102.08","","","","-12","","NA"
"-66.35","44.29","BRIER ISLAND","8200604","2022-01-22 19:00","2022","01","22","19:00","-6.3","","-7.5","","91","","0.0","","5","","19","","","","101.95","","","","-13","","NA"
"-66.35","44.29","BRIER ISLAND","8200604","2022-01-22 20:00","2022","01","22","20:00","-5.8","","-7.0","","91","","0.0","","7","","25","","","","101.84","","","","-13","","NA"
"-66.35","44.29","BRIER ISLAND","8200604","2022-01-22 21:00","2022","01","22","21:00","-5.8","","-7.0","","92","","0.0","","3","","7","","","","101.74","","","","-9","","NA"
"-66.35","44.29","BRIER ISLAND","8200604","2022-01-22 22:00","2022","01","22","22:00","-6.0","","-7.3","","91","","0.0","","6","","8","","","","101.64","","","","-10","","NA"
"-66.35","44.29","BRIER ISLAND","8200604","2022-01-22 23:00","2022","01","22","23:00","-5.9","","-7.2","","91","","0.0","","4","","8","","","","101.56","","","","-10","","NA"
"-66.35","44.29","BRIER ISLAND","8200604","2022-01-23 00:00","2022","01","23","00:00","-5.4","","-6.6","","91","","0.0","","8","","6","","","","101.48","","","","-8","","NA"
"-66.35","44.29","BRIER ISLAND","8200604","2022-01-23 01:00","2022","01","23","01:00","-5.1","","-6.1","","92","","0.0","","8","","9","","","","101.37","","","","-9","","NA"
"-66.35","44.29","BRIER ISLAND","8200604","2022-01-23 02:00","2022","01","23","02:00","-3.9","","-5.4","","89","","0.0","","12","","15","","","","101.34","","","","-9","","NA"
"-66.35","44.29","BRIER ISLAND","8200604","2022-01-23 03:00","2022","01","23","03:00","-4.4","","-5.4","","93","","0.0","","13","","19","","","","101.26","","","","-11","","NA"
"-66.35","44.29","BRIER ISLAND","8200604","2022-01-23 04:00","2022","01","23","04:00","-3.2","","-4.0","","94","","0.0","","12","","13","","","","101.20","","","","-8","","NA"
"-66.35","44.29","BRIER ISLAND","8200604","2022-01-23 05:00","2022","01","23","05:00","-2.3","","-3.2","","94","","0.2","","14","","15","","","","101.11","","","","-7","","NA"
"-66.35","44.29","BRIER ISLAND","8200604","2022-01-23 06:00","2022","01","23","06:00","-1.6","","-4.7","","79","","0.0","","21","","15","","","","101.03","","","","-6","","NA"
"-66.35","44.29","BRIER ISLAND","8200604","2022-01-23 07:00","2022","01","23","07:00","-1.1","","-5.8","","71","","0.0","","21","","15","","","","101.00","","","","-6","","NA"
"-66.35","44.29","BRIER ISLAND","8200604","2022-01-23 08:00","2022","01","23","08:00","-1.0","","-6.6","","66","","0.0","","19","","12","","","","100.97","","","","-5","","NA"
"-66.35","44.29","BRIER ISLAND","8200604","2022-01-23 09:00","2022","01","23","09:00","-0.3","","-4.7","","72","","0.0","","19","","11","","","","100.91","","","","-4","","NA"
"-66.35","44.29","BRIER ISLAND","8200604","2022-01-23 10:00","2022","01","23","10:00","-0.8","","-1.8","","93","","0.5","","18","","12","","","","100.83","","","","-5","","NA"
"-66.35","44.29","BRIER ISLAND","8200604","2022-01-23 11:00","2022","01","23","11:00","1.3","","-3.6","","70","","0.0","","20","","20","","","","100.77","","","","","","NA"
"-66.35","44.29","BRIER ISLAND","8200604","2022-01-23 12:00","2022","01","23","12:00","1.6","","-2.1","","76","","0.0","","18","","17","","","","100.65","","","","","","NA"
"-66.35","44.29","BRIER ISLAND","8200604","2022-01-23 13:00","2022","01","23","13:00","1.8","","-3.8","","66","","0.0","","21","","24","","","","100.55","","","","","","NA"
"-66.35","44.29","BRIER ISLAND","8200604","2022-01-23 14:00","2022","01","23","14:00","2.4","","-6.0","","54","","0.0","","22","","25","","","","100.49","","","","","","NA"
"-66.35","44.29","BRIER ISLAND","8200604","2022-01-23 15:00","2022","01","23","15:00","0.8","","-1.9","","82","","0.0","","25","","20","","","","100.50","","","","","","NA"
"-66.35","44.29","BRIER ISLAND","8200604","2022-01-23 16:00","2022","01","23","16:00","0.5","","-1.2","","88","","0.0","","25","","14","","","","100.48","","","","","","NA"
"-66.35","44.29","BRIER ISLAND","8200604","2022-01-23 17:00","2022","01","23","17:00","0.1","","-1.1","","92","","0.0","","25","","19","","","","100.48","","","","","","NA"
"-66.35","44.29","BRIER ISLAND","8200604","2022-01-23 18:00","2022","01","23","18:00","-0.2","","-0.3","","99","","0.9","","22","","12","","","","100.49","","","","-4","","NA"
"-66.35","44.29","BRIER ISLAND","8200604","2022-01-23 19:00","2022","01","23","19:00","0.6","","-0.9","","90","","0.2","","21","","15","","","","100.47","","","","","","NA"
"-66.35","44.29","BRIER ISLAND","8200604","2022-01-23 20:00","2022","01","23","20:00","1.2","","-3.0","","74","","0.0","","22","","17","","","","100.50","","","","","","NA"
"-66.35","44.29","BRIER ISLAND","8200604","2022-01-23 21:00","2022","01","23","21:00","-0.2","","-1.3","","93","","0.2","","22","","16","","","","100.54","","","","-5","","NA"
"-66.35","44.29","BRIER ISLAND","8200604","2022-01-23 22:00","2022","01","23","22:00","-0.1","","-0.1","","100","","0.7","","23","","23","","","","100.51","","","","-6","","NA"
"-66.35","44.29","BRIER ISLAND","8200604","2022-01-23 23:00","2022","01","23","23:00","-0.6","","-0.6","","100","","0.3","","24","","26","","","","100.54","","","","-7","","NA"
"-66.35","44.29","BRIER ISLAND","8200604","2022-01-24 00:00","2022","01","24","00:00","-0.5","","-0.6","","99","","0.0","","30","","25","","","","100.54","","","","-7","","NA"
"-66.35","44.29","BRIER ISLAND","8200604","2022-01-24 01:00","2022","01","24","01:00","-1.4","","-1.4","","100","","0.3","","29","","31","","","","100.56","","","","-8","","NA"
"-66.35","44.29","BRIER ISLAND","8200604","2022-01-24 02:00","2022","01","24","02:00","-1.9","","-3.6","","88","","0.0","","31","","28","","","","100.55","","","","-9","","NA"
"-66.35","44.29","BRIER ISLAND","8200604","2022-01-24 03:00","2022","01","24","03:00","-2.0","","-3.6","","89","","0.2","","35","","30","","","","100.53","","","","-9","","NA"
"-66.35","44.29","BRIER ISLAND","8200604","2022-01-24 04:00","2022","01","24","04:00","-2.3","","-4.4","","86","","0.0","","35","","30","","","","100.53","","","","-9","","NA"
"-66.35","44.29","BRIER ISLAND","8200604","2022-01-24 05:00","2022","01","24","05:00","-2.2","","-4.3","","86","","0.0","","35","","25","","","","100.56","","","","-9","","NA"
"-66.35","44.29","BRIER ISLAND","8200604","2022-01-24 06:00","2022","01","24","06:00","-2.8","","-3.1","","98","","0.0","","4","","18","","","","100.63","","","","-8","","NA"
"-66.35","44.29","BRIER ISLAND","8200604","2022-01-24 07:00","2022","01","24","07:00","-2.7","","-2.7","","100","","0.5","","4","","21","","","","100.71","","","","-9","","NA"
"-66.35","44.29","BRIER ISLAND","8200604","2022-01-24 08:00","2022","01","24","08:00","-3.0","","-3.0","","100","","1.3","","36","","29","","","","100.75","","","","-10","","NA"
"-66.35","44.29","BRIER ISLAND","8200604","2022-01-24 09:00","2022","01","24","09:00","-2.8","","-4.5","","88","","0.0","","36","","26","","","","100.83","","","","-10","","NA"
"-66.35","44.29","BRIER ISLAND","8200604","2022-01-24 10:00","2022","01","24","10:00","-2.8","","-4.8","","86","","0.0","","36","","26","","","","100.87","","","","-10","","NA"
"-66.35","44.29","BRIER ISLAND","8200604","2022-01-24 11:00","2022","01","24","11:00","-2.5","","-5.0","","83","","0.0","","35","","26","","","","100.89","","","","-9","","NA"
"-66.35","44.29","BRIER ISLAND","8200604","2022-01-24 12:00","2022","01","24","12:00","-2.8","","-5.4","","83","","0.0","","33","","23","","","","100.89","","","","-9","","NA"
"-66.35","44.29","BRIER ISLAND","8200604","2022-01-24 13:00","2022","01","24","13:00","-2.8","","-5.8","","79","","0.0","","33","","18","","","","100.88","","","","-8","","NA"
"-66.35","44.29","BRIER ISLAND","8200604","2022-01-24 14:00","2022","01","24","14:00","-2.9","","-5.7","","81","","0.0","","31","","24","","","","100.87","","","","-10","","NA"
"-66.35","44.29","BRIER ISLAND","8200604","2022-01-24 15:00","2022","01","24","15:00","-2.7","","-6.0","","78","","0.0","","32","","18","","","","100.92","","","","-8","","NA"
"-66.35","44.29","BRIER ISLAND","8200604","2022-01-24 16:00","2022","01","24","16:00","-3.3","","-7.2","","75","","0.0","","33","","15","","","","100.96","","","","-8","","NA"
"-66.35","44.29","BRIER ISLAND","8200604","2022-01-24 17:00","2022","01","24","17:00","-3.5","","-7.4","","74","","0.0","","32","","12","","","","101.01","","","","-8","","NA"
"-66.35","44.29","BRIER ISLAND","8200604","2022-01-24 18:00","2022","01","24","18:00","-3.6","","-7.6","","74","","0.0","","31","","8","","","","101.08","","","","-7","","NA"
"-66.35","44.29","BRIER ISLAND","8200604","2022-01-24 19:00","2022","01","24","19:00","-4.0","","-8.2","","73","","0.0","","26","","3","","","","101.18","","","","-5","","NA"
"-66.35","44.29","BRIER ISLAND","8200604","2022-01-24 20:00","2022","01","24","20:00","-4.1","","-8.3","","72","","0.0","","16","","5","","","","101.19","","","","-6","","NA"
"-66.35","44.29","BRIER ISLAND","8200604","2022-01-24 21:00","2022","01","24","21:00","-4.2","","-7.6","","77","","0.0","","15","","7","","","","101.26","","","","-7","","NA"
"-66.35","44.29","BRIER ISLAND","8200604","2022-01-24 22:00","2022","01","24","22:00","-4.0","","-7.4","","77","","0.0","","14","","6","","","","101.31","","","","-7","","NA"
"-66.35","44.29","BRIER ISLAND","8200604","2022-01-24 23:00","2022","01","24","23:00","-4.0","","-6.4","","83","","0.0","","13","","8","","","","101.35","","","","-7","","NA"
"-66.35","44.29","BRIER ISLAND","8200604","2022-01-25 00:00","2022","01","25","00:00","-2.6","","-5.7","","79","","0.0","","12","","16","","","","101.33","","","","-8","","NA"
"-66.35","44.29","BRIER ISLAND","8200604","2022-01-25 01:00","2022","01","25","01:00","-2.6","","-5.4","","81","","0.0","","11","","16","","","","101.28","","","","-8","","NA"
"-66.35","44.29","BRIER ISLAND","8200604","2022-01-25 02:00","2022","01","25","02:00","-2.8","","-4.9","","86","","0.0","","9","","19","","","","101.23","","","","-9","","NA"
"-66.35","44.29","BRIER ISLAND","8200604","2022-01-25 03:00","2022","01","25","03:00","-2.9","","-5.0","","86","","0.0","","10","","22","","","","101.26","","","","-9","","NA"
"-66.35","44.29","BRIER ISLAND","8200604","2022-01-25 04:00","2022","01","25","04:00","-3.4","","-3.5","","99","","0.0","","10","","28","","","","101.21","","","","-11","","NA"
"-66.35","44.29","BRIER ISLAND","8200604","2022-01-25 05:00","2022","01","25","05:00","-2.6","","-4.0","","90","","0.0","","9","","32","","","","101.10","","","","-10","","NA"
"-66.35","44.29","BRIER ISLAND","8200604","2022-01-25 06:00","2022","01","25","06:00","-1.5","","-1.5","","100","","0.3","","12","","37","","","","101.07","","","","-9","","NA"
"-66.35","44.29","BRIER ISLAND","8200604","2022-01-25 07:00","2022","01","25","07:00","-0.9","","-0.9","","100","","0.3","","11","","30","","","","101.07","","","","-8","","NA"
"-66.35","44.29","BRIER ISLAND","8200604","2022-01-25 08:00","2022","01","25","08:00","0.1","","0.1","","100","","0.0","","12","","29","","","","101.06","","","","","","NA"
"-66.35","44.29","BRIER ISLAND","8200604","2022-01-25 09:00","2022","01","25","09:00","2.1","","1.9","","98","","0.2","","17","","20","","","","101.08","","","","","","NA"
"-66.35","44.29","BRIER ISLAND","8200604","2022-01-25 10:00","2022","01","25","10:00","2.3","","2.3","","100","","0.3","","16","","20","","","","101.07","","","","","","NA"
"-66.35","44.29","BRIER ISLAND","8200604","2022-01-25 11:00","2022","01","25","11:00","2.7","","2.4","","98","","0.0","","17","","18","","","","101.07","","","","","","NA"
"-66.35","44.29","BRIER ISLAND","8200604","2022-01-25 12:00","2022","01","25","12:00","3.1","","2.7","","97","","0.0","","17","","14","","","","101.01","","","","","","NA"
"-66.35","44.29","BRIER ISLAND","8200604","2022-01-25 13:00","2022","01","25","13:00","3.4","","2.8","","96","","0.0","","17","","14","","","","100.95","","","","","","NA"
"-66.35","44.29","BRIER ISLAND","8200604","2022-01-25 14:00","2022","01","25","14:00","3.9","","1.6","","85","","0.0","","16","","19","","","","100.85","","","","","","NA"
"-66.35","44.29","BRIER ISLAND","8200604","2022-01-25 15:00","2022","01","25","15:00","4.2","","3.0","","91","","0.0","","15","","25","","","","100.81","","","","","","NA"
"-66.35","44.29","BRIER ISLAND","8200604","2022-01-25 16:00","2022","01","25","16:00","4.2","","2.0","","85","","0.0","","16","","23","","","","100.82","","","","","","NA"
"-66.35","44.29","BRIER ISLAND","8200604","2022-01-25 17:00","2022","01","25","17:00","2.3","","2.0","","98","","0.4","","25","","33","","","","100.93","","","","","","NA"
"-66.35","44.29","BRIER ISLAND","8200604","2022-01-25 18:00","2022","01","25","18:00","2.1","","2.1","","100","","0.7","","26","","22","","","","101.01","","","","","","NA"
"-66.35","44.29","BRIER ISLAND","8200604","2022-01-25 19:00","2022","01","25","19:00","1.8","","1.2","","96","","0.0","","29","","21","","","","101.08","","","","","","NA"
"-66.35","44.29","BRIER ISLAND","8200604","2022-01-25 20:00","2022","01","25","20:00","1.4","","-0.3","","88","","0.0","","28","","23","","","","101.19","","","","","","NA"
"-66.35","44.29","BRIER ISLAND","8200604","2022-01-25 21:00","2022","01","25","21:00","0.3","","-1.6","","87","","0.0","","29","","25","","","","101.29","","","","","","NA"
"-66.35","44.29","BRIER ISLAND","8200604","2022-01-25 22:00","2022","01","25","22:00","-0.3","","-3.1","","81","","0.0","","32","","24","","","","101.31","","","","-6","","NA"
"-66.35","44.29","BRIER ISLAND","8200604","2022-01-25 23:00","2022","01","25","23:00","-0.9","","-3.6","","82","","0.0","","33","","22","","","","101.37","","","","-7","","NA"
"-66.35","44.29","BRIER ISLAND","8200604","2022-01-26 00:00","2022","01","26","00:00","-0.8","","-4.4","","76","","0.0","","36","","18","","","","101.35","","","","-6","","NA"
"-66.35","44.29","BRIER ISLAND","8200604","2022-01-26 01:00","2022","01","26","01:00","-0.7","","-5.5","","70","","0.0","","35","","14","","","","101.39","","","","-5","","NA"
"-66.35","44.29","BRIER ISLAND","8200604","2022-01-26 02:00","2022","01","26","02:00","-1.3","","-4.4","","79","","0.0","","6","","13","","","","101.41","","","","-6","","NA"
"-66.35","44.29","BRIER ISLAND","8200604","2022-01-26 03:00","2022","01","26","03:00","-1.1","","-4.3","","79","","0.0","","5","","14","","","","101.42","","","","-6","","NA"
"-66.35","44.29","BRIER ISLAND","8200604","2022-01-26 04:00","2022","01","26","04:00","-0.8","","-6.1","","67","","0.0","","32","","18","","","","101.48","","","","-6","","NA"
"-66.35","44.29","BRIER ISLAND","8200604","2022-01-26 05:00","2022","01","26","05:00","-2.2","","-4.9","","82","","0.0","","32","","30","","","","101.55","","","","-9","","NA"
"-66.35","44.29","BRIER ISLAND","8200604","2022-01-26 06:00","2022","01","26","06:00","-3.1","","-5.2","","85","","0.0","","32","","32","","","","101.62","","","","-11","","NA"
"-66.35","44.29","BRIER ISLAND","8200604","2022-01-26 07:00","2022","01","26","07:00","-3.4","","-6.1","","82","","0.0","","30","","28","","","","101.71","","","","-11","","NA"
"-66.35","44.29","BRIER ISLAND","8200604","2022-01-26 08:00","2022","01","26","08:00","-4.3","","-6.9","","82","","0.0","","30","","29","","","","101.79","","","","-12","","NA"
"-66.35","44.29","BRIER ISLAND","8200604","2022-01-26 09:00","2022","01","26","09:00","-3.9","","-6.6","","81","","0.0","","31","","25","","","","101.82","","","","-11","","NA"
"-66.35","44.29","BRIER ISLAND","8200604","2022-01-26 10:00","2022","01","26","10:00","-4.3","","-7.3","","79","","0.0","","33","","27","","","","101.86","","","","-12","","NA"
"-66.35","44.29","BRIER ISLAND","8200604","2022-01-26 11:00","2022","01","26","11:00","-4.7","","-7.3","","82","","0.0","","33","","28","","","","101.92","","","","-12","","NA"
"-66.35","44.29","BRIER ISLAND","8200604","2022-01-26 12:00","2022","01","26","12:00","-5.2","","-8.7","","76","","0.0","","33","","24","","","","101.88","","","","-12","","NA"
"-66.35","44.29","BRIER ISLAND","8200604","2022-01-26 13:00","2022","01","26","13:00","-5.6","","-9.4","","74","","0.0","","33","","26","","","","101.87","","","","-13","","NA"
"-66.35","44.29","BRIER ISLAND","8200604","2022-01-26 14:00","2022","01","26","14:00","-5.6","","-9.7","","73","","0.0","","31","","26","","","","101.88","","","","-13","","NA"
"-66.35","44.29","BRIER ISLAND","8200604","2022-01-26 15:00","2022","01","26","15:00","-5.6","","-10.5","","69","","0.0","","31","","29","","","","101.89","","","","-14","","NA"
"-66.35","44.29","BRIER ISLAND","8200604","2022-01-26 16:00","2022","01","26","16:00","-6.5","","-10.3","","75","","0.0","","32","","33","","","","101.94","","","","-15","","NA"
"-66.35","44.29","BRIER ISLAND","8200604","2022-01-26 17:00","2022","01","26","17:00","-6.9","","-9.0","","85","","0.0","","33","","33","","","","102.03","","","","-16","","NA"
"-66.35","44.29","BRIER ISLAND","8200604","2022-01-26 18:00","2022","01","26","18:00","-7.3","","-10.9","","76","","0.0","","32","","35","","","","102.12","","","","-17","","NA"
"-66.35","44.29","BRIER ISLAND","8200604","2022-01-26 19:00","2022","01","26","19:00","-8.2","","-12.3","","72","","0.0","","33","","38","","","","102.23","","","","-18","","NA"
"-66.35","44.29","BRIER ISLAND","8200604","2022-01-26 20:00","2022","01","26","20:00","-8.5","","-12.5","","73","","0.0","","32","","40","","","","102.33","","","","-19","","NA"
"-66.35","44.29","BRIER ISLAND","8200604","2022-01-26 21:00","2022","01","26","21:00","-8.7","","-11.2","","82","","0.0","","33","","38","","","","102.40","","","","-19","","NA"
"-66.35","44.29","BRIER ISLAND","8200604","2022-01-26 22:00","2022","01","26","22:00","-9.6","","-12.6","","79","","0.0","","32","","40","","","","102.46","","","","-20","","NA"
"-66.35","44.29","BRIER ISLAND","8200604","2022-01-26 23:00","2022","01","26","23:00","-10.1","","-12.5","","82","","0.0","","33","","40","","","","102.53","","","","-21","","NA"
"-66.35","44.29","BRIER ISLAND","8200604","2022-01-27 00:00","2022","01","27","00:00","-10.4","","-12.8","","83","","0.0","","32","","38","","","","102.56","","","","-21","","NA"
"-66.35","44.29","BRIER ISLAND","8200604","2022-01-27 01:00","2022","01","27","01:00","-11.1","","-14.2","","78","","0.0","","33","","33","","","","102.60","","","","-21","","NA"
"-66.35","44.29","BRIER ISLAND","8200604","2022-01-27 02:00","2022","01","27","02:00","-11.3","","-13.0","","87","","0.0","","33","","32","","","","102.61","","","","-22","","NA"
"-66.35","44.29","BRIER ISLAND","8200604","2022-01-27 03:00","2022","01","27","03:00","-11.5","","-14.0","","82","","0.0","","33","","27","","","","102.62","","","","-21","","NA"
"-66.35","44.29","BRIER ISLAND","8200604","2022-01-27 04:00","2022","01","27","04:00","-11.7","","-14.8","","78","","0.0","","32","","30","","","","102.71","","","","-22","","NA"
"-66.35","44.29","BRIER ISLAND","8200604","2022-01-27 05:00","2022","01","27","05:00","-12.0","","-15.1","","78","","0.0","","33","","26","","","","102.73","","","","-22","","NA"
"-66.35","44.29","BRIER ISLAND","8200604","2022-01-27 06:00","2022","01","27","06:00","-11.5","","-13.6","","84","","0.0","","34","","25","","","","102.77","","","","-21","","NA"
"-66.35","44.29","BRIER ISLAND","8200604","2022-01-27 07:00","2022","01","27","07:00","-11.4","","-14.1","","80","","0.0","","36","","23","","","","102.82","","","","-20","","NA"
"-66.35","44.29","BRIER ISLAND","8200604","2022-01-27 08:00","2022","01","27","08:00","-11.1","","-13.9","","80","","0.0","","35","","20","","","","102.87","","","","-19","","NA"
"-66.35","44.29","BRIER ISLAND","8200604","2022-01-27 09:00","2022","01","27","09:00","-10.6","","-13.8","","77","","0.0","","35","","16","","","","102.94","","","","-18","","NA"
"-66.35","44.29","BRIER ISLAND","8200604","2022-01-27 10:00","2022","01","27","10:00","-10.5","","-14.0","","76","","0.0","","33","","10","","","","102.96","","","","-16","","NA"
"-66.35","44.29","BRIER ISLAND","8200604","2022-01-27 11:00","2022","01","27","11:00","-9.6","","-13.1","","75","","0.0","","36","","6","","","","102.96","","","","-13","","NA"
"-66.35","44.29","BRIER ISLAND","8200604","2022-01-27 12:00","2022","01","27","12:00","-9.0","","-14.1","","67","","0.0","","33","","6","","","","102.89","","","","-12","","NA"
"-66.35","44.29","BRIER ISLAND","8200604","2022-01-27 13:00","2022","01","27","13:00","-8.4","","-13.8","","65","","0.0","","27","","7","","","","102.77","","","","-12","","NA"
"-66.35","44.29","BRIER ISLAND","8200604","2022-01-27 14:00","2022","01","27","14:00","-8.0","","-13.5","","65","","0.0","","27","","7","","","","102.70","","","","-12","","NA"
"-66.35","44.29","BRIER ISLAND","8200604","2022-01-27 15:00","2022","01","27","15:00","-7.1","","-12.0","","68","","0.0","","18","","6","","","","102.63","","","","-10","","NA"
"-66.35","44.29","BRIER ISLAND","8200604","2022-01-27 16:00","2022","01","27","16:00","-7.8","","-12.5","","69","","0.0","","20","","9","","","","102.65","","","","-12","","NA"
"-66.35","44.29","BRIER ISLAND","8200604","2022-01-27 17:00","2022","01","27","17:00","-7.9","","-11.6","","75","","0.0","","17","","9","","","","102.63","","","","-12","","NA"
"-66.35","44.29","BRIER ISLAND","8200604","2022-01-27 18:00","2022","01","27","18:00","-7.1","","-10.4","","77","","0.0","","18","","9","","","","102.55","","","","-11","","NA"
"-66.35","44.29","BRIER ISLAND","8200604","2022-01-27 19:00","2022","01","27","19:00","-6.1","","-9.5","","76","","0.0","","18","","12","","","","102.52","","","","-11","","NA"
"-66.35","44.29","BRIER ISLAND","8200604","2022-01-27 20:00","2022","01","27","20:00","-5.2","","-8.7","","76","","0.0","","18","","13","","","","102.48","","","","-10","","NA"
"-66.35","44.29","BRIER ISLAND","8200604","2022-01-27 21:00","2022","01","27","21:00","-4.7","","-8.4","","75","","0.0","","18","","12","","","","102.41","","","","-9","","NA"
"-66.35","44.29","BRIER ISLAND","8200604","2022-01-27 22:00","2022","01","27","22:00","-3.9","","-8.1","","72","","0.0","","18","","14","","","","102.33","","","","-9","","NA"
"-66.35","44.29","BRIER ISLAND","8200604","2022-01-27 23:00","2022","01","27","23:00","-2.9","","-7.2","","72","","0.0","","18","","17","","","","102.30","","","","-8","","NA"
"-66.35","44.29","BRIER ISLAND","8200604","2022-01-28 00:00","2022","01","28","00:00","-1.8","","-5.9","","74","","0.0","","17","","17","","","","102.18","","","","-7","","NA"
"-66.35","44.29","BRIER ISLAND","8200604","2022-01-28 01:00","2022","01","28","01:00","-1.0","","-4.5","","77","","0.0","","16","","18","","","","102.07","","","","-6","","NA"
"-66.35","44.29","BRIER ISLAND","8200604","2022-01-28 02:00","2022","01","28","02:00","-0.2","","-4.6","","72","","0.0","","16","","23","","","","101.96","","","","-6","","NA"
"-66.35","44.29","BRIER ISLAND","8200604","2022-01-28 03:00","2022","01","28","03:00","0.2","","-4.4","","71","","0.0","","16","","27","","","","101.89","","","","","","NA"
"-66.35","44.29","BRIER ISLAND","8200604","2022-01-28 04:00","2022","01","28","04:00","0.1","","-3.1","","79","","0.0","","17","","23","","","","101.81","","","","","","NA"
"-66.35","44.29","BRIER ISLAND","8200604","2022-01-28 05:00","2022","01","28","05:00","1.0","","-2.9","","75","","0.3","","21","","24","","","","101.77","","","","","","NA"
"-66.35","44.29","BRIER ISLAND","8200604","2022-01-28 06:00","2022","01","28","06:00","1.4","","-4.5","","65","","0.0","","21","","23","","","","101.74","","","","","","NA"
"-66.35","44.29","BRIER ISLAND","8200604","2022-01-28 07:00","2022","01","28","07:00","1.4","","-2.0","","78","","0.0","","21","","18","","","","101.78","","","","","","NA"
"-66.35","44.29","BRIER ISLAND","8200604","2022-01-28 08:00","2022","01","28","08:00","1.3","","-2.6","","75","","0.0","","19","","14","","","","101.78","","","","","","NA"
"-66.35","44.29","BRIER ISLAND","8200604","2022-01-28 09:00","2022","01","28","09:00","1.8","","-2.9","","71","","0.0","","19","","16","","","","101.74","","","","","","NA"
"-66.35","44.29","BRIER ISLAND","8200604","2022-01-28 10:00","2022","01","28","10:00","1.5","","-0.5","","86","","0.2","","19","","18","","","","101.75","","","","","","NA"
"-66.35","44.29","BRIER ISLAND","8200604","2022-01-28 11:00","2022","01","28","11:00","2.5","","-0.9","","78","","0.0","","19","","17","","","","101.72","","","","","","NA"
"-66.35","44.29","BRIER ISLAND","8200604","2022-01-28 12:00","2022","01","28","12:00","0.9","","0.3","","96","","0.3","","24","","18","","","","101.71","","","","","","NA"
"-66.35","44.29","BRIER ISLAND","8200604","2022-01-28 13:00","2022","01","28","13:00","1.1","","1.1","","100","","1.1","","22","","14","","","","101.65","","","","","","NA"
"-66.35","44.29","BRIER ISLAND","8200604","2022-01-28 14:00","2022","01","28","14:00","0.6","","0.6","","100","","0.8","","27","","16","","","","101.63","","","","","","NA"
"-66.35","44.29","BRIER ISLAND","8200604","2022-01-28 15:00","2022","01","28","15:00","0.3","","0.3","","100","","0.6","","30","","21","","","","101.64","","","","","","NA"
"-66.35","44.29","BRIER ISLAND","8200604","2022-01-28 16:00","2022","01","28","16:00","0.3","","0.1","","98","","0.3","","31","","18","","","","101.68","","","","","","NA"
"-66.35","44.29","BRIER ISLAND","8200604","2022-01-28 17:00","2022","01","28","17:00","0.1","","-1.5","","89","","0.0","","31","","16","","","","101.70","","","","","","NA"
"-66.35","44.29","BRIER ISLAND","8200604","2022-01-28 18:00","2022","01","28","18:00","-0.9","","-1.8","","94","","0.2","","31","","19","","","","101.75","","","","-6","","NA"
"-66.35","44.29","BRIER ISLAND","8200604","2022-01-28 19:00","2022","01","28","19:00","-1.0","","-1.4","","97","","0.2","","34","","17","","","","101.79","","","","-6","","NA"
"-66.35","44.29","BRIER ISLAND","8200604","2022-01-28 20:00","2022","01","28","20:00","-1.5","","-1.7","","98","","0.3","","35","","16","","","","101.85","","","","-6","","NA"
"-66.35","44.29","BRIER ISLAND","8200604","2022-01-28 21:00","2022","01","28","21:00","-1.0","","-1.6","","95","","0.0","","36","","13","","","","101.89","","","","-5","","NA"
"-66.35","44.29","BRIER ISLAND","8200604","2022-01-28 22:00","2022","01","28","22:00","-0.7","","-1.6","","94","","0.0","","4","","12","","","","101.89","","","","-5","","NA"
"-66.35","44.29","BRIER ISLAND","8200604","2022-01-28 23:00","2022","01","28","23:00","-0.6","","-1.6","","93","","0.0","","4","","25","","","","101.79","","","","-7","","NA"
"-66.35","44.29","BRIER ISLAND","8200604","2022-01-29 00:00","2022","01","29","00:00","-0.7","","-1.8","","92","","0.0","","3","","27","","","","101.83","","","","-7","","NA"
"-66.35","44.29","BRIER ISLAND","8200604","2022-01-29 01:00","2022","01","29","01:00","-1.1","","-3.0","","87","","0.0","","4","","27","","","","101.82","","","","-8","","NA"
"-66.35","44.29","BRIER ISLAND","8200604","2022-01-29 02:00","2022","01","29","02:00","-1.0","","-2.8","","87","","0.0","","3","","32","","","","101.75","","","","-8","","NA"
"-66.35","44.29","BRIER ISLAND","8200604","2022-01-29 03:00","2022","01","29","03:00","-1.3","","-3.2","","87","","0.0","","4","","32","","","","101.67","","","","-8","","NA"
"-66.35","44.29","BRIER ISLAND","8200604","2022-01-29 04:00","2022","01","29","04:00","-1.1","","-2.9","","88","","0.0","","4","","34","","","","101.53","","","","-8","","NA"
"-66.35","44.29","BRIER ISLAND","8200604","2022-01-29 05:00","2022","01","29","05:00","-1.3","","-3.1","","88","","0.0","","4","","44","","","","101.47","","","","-9","","NA"
"-66.35","44.29","BRIER ISLAND","8200604","2022-01-29 06:00","2022","01","29","06:00","-1.9","","-3.4","","90","","0.0","","2","","44","","","","101.31","","","","-10","","NA"
"-66.35","44.29","BRIER ISLAND","8200604","2022-01-29 07:00","2022","01","29","07:00","-2.6","","-4.1","","89","","0.0","","3","","41","","","","101.29","","","","-11","","NA"
"-66.35","44.29","BRIER ISLAND","8200604","2022-01-29 08:00","2022","01","29","08:00","-3.3","","-3.3","","100","","0.2","","2","","51","","","","101.04","","","","-13","","NA"
"-66.35","44.29","BRIER ISLAND","8200604","2022-01-29 09:00","2022","01","29","09:00","-3.2","","-3.2","","100","","0.3","","3","","60","","","","100.81","","","","-13","","NA"
"-66.35","44.29","BRIER ISLAND","8200604","2022-01-29 10:00","2022","01","29","10:00","-3.3","","-3.3","","100","","0.6","","3","","61","","","","100.42","","","","-13","","NA"
"-66.35","44.29","BRIER ISLAND","8200604","2022-01-29 11:00","2022","01","29","11:00","-3.6","","-3.6","","100","","0.5","","3","","70","","","","100.04","","","","-14","","NA"
"-66.35","44.29","BRIER ISLAND","8200604","2022-01-29 12:00","2022","01","29","12:00","-2.4","","","M","","M","0.5","","2","","85","","","","99.61","","","","-13","","NA"
"-66.35","44.29","BRIER ISLAND","8200604","2022-01-29 13:00","2022","01","29","13:00","-1.7","","","M","","M","0.7","","2","","83","","","","98.91","","","","-12","","NA"
"-66.35","44.29","BRIER ISLAND","8200604","2022-01-29 14:00","2022","01","29","14:00","-2.2","","-2.2","","100","","0.5","","3","","99","","","","98.60","","","","-14","","NA"
"-66.35","44.29","BRIER ISLAND","8200604","2022-01-29 15:00","2022","01","29","15:00","-2.5","","-2.5","","100","","0.2","","2","","100","","","","98.68","","","","-14","","NA"
"-66.35","44.29","BRIER ISLAND","8200604","2022-01-29 16:00","2022","01","29","16:00","-2.1","","-2.1","","100","","0.0","","2","","86","","","","98.42","","","","-13","","NA"
"-66.35","44.29","BRIER ISLAND","8200604","2022-01-29 17:00","2022","01","29","17:00","-2.0","","-2.0","","100","","0.0","","2","","85","","","","98.28","","","","-13","","NA"
"-66.35","44.29","BRIER ISLAND","8200604","2022-01-29 18:00","2022","01","29","18:00","-1.8","","-1.8","","100","","0.5","","3","","70","","","","98.08","","","","-12","","NA"
"-66.35","44.29","BRIER ISLAND","8200604","2022-01-29 19:00","2022","01","29","19:00","-1.6","","-1.6","","100","","0.0","","3","","73","","","","97.92","","","","-12","","NA"
"-66.35","44.29","BRIER ISLAND","8200604","2022-01-29 20:00","2022","01","29","20:00","-1.0","","-1.0","","100","","0.0","","4","","53","","","","97.91","","","","-10","","NA"
"-66.35","44.29","BRIER ISLAND","8200604","2022-01-29 21:00","2022","01","29","21:00","-1.0","","-1.2","","99","","0.0","","3","","50","","","","97.75","","","","-10","","NA"
"-66.35","44.29","BRIER ISLAND","8200604","2022-01-29 22:00","2022","01","29","22:00","-1.0","","-1.1","","99","","0.0","","4","","43","","","","97.66","","","","-9","","NA"
"-66.35","44.29","BRIER ISLAND","8200604","2022-01-29 23:00","2022","01","29","23:00","-0.7","","-0.8","","100","","0.0","","4","","48","","","","97.53","","","","-9","","NA"
"-66.35","44.29","BRIER ISLAND","8200604","2022-01-30 00:00","2022","01","30","00:00","-0.2","","-0.2","","100","","0.0","","4","","37","","","","97.42","","","","-7","","NA"
"-66.35","44.29","BRIER ISLAND","8200604","2022-01-30 01:00","2022","01","30","01:00","0.3","","0.3","","100","","0.0","","3","","40","","","","97.23","","","","","","NA"
"-66.35","44.29","BRIER ISLAND","8200604","2022-01-30 02:00","2022","01","30","02:00","1.0","","1.0","","100","","0.0","","5","","27","","","","97.11","","","","","","NA"
"-66.35","44.29","BRIER ISLAND","8200604","2022-01-30 03:00","2022","01","30","03:00","-2.1","","-2.4","","98","","0.0","","32","","62","","","","97.17","","","","-12","","NA"
"-66.35","44.29","BRIER ISLAND","8200604","2022-01-30 04:00","2022","01","30","04:00","-3.6","","-3.6","","100","","0.0","","31","","77","","","","97.63","","","","-15","","NA"
"-66.35","44.29","BRIER ISLAND","8200604","2022-01-30 05:00","2022","01","30","05:00","-5.9","","-5.9","","100","","0.0","","28","","70","","","","98.15","","","","-18","","NA"
"-66.35","44.29","BRIER ISLAND","8200604","2022-01-30 06:00","2022","01","30","06:00","-6.7","","-6.7","","100","","0.0","","28","","63","","","","98.54","","","","-18","","NA"
"-66.35","44.29","BRIER ISLAND","8200604","2022-01-30 07:00","2022","01","30","07:00","-6.8","","-7.1","","98","","0.0","","28","","57","","","","98.87","","","","-18","","NA"
"-66.35","44.29","BRIER ISLAND","8200604","2022-01-30 08:00","2022","01","30","08:00","-6.4","","-7.6","","91","","0.0","","28","","54","","","","99.17","","","","-17","","NA"
"-66.35","44.29","BRIER ISLAND","8200604","2022-01-30 09:00","2022","01","30","09:00","-6.9","","-8.1","","90","","0.0","","27","","55","","","","99.44","","","","-18","","NA"
"-66.35","44.29","BRIER ISLAND","8200604","2022-01-30 10:00","2022","01","30","10:00","-7.2","","-9.0","","87","","0.0","","28","","51","","","","99.66","","","","-18","","NA"
"-66.35","44.29","BRIER ISLAND","8200604","2022-01-30 11:00","2022","01","30","11:00","-7.1","","-9.1","","85","","0.0","","27","","38","","","","99.83","","","","-17","","NA"
"-66.35","44.29","BRIER ISLAND","8200604","2022-01-30 12:00","2022","01","30","12:00","-6.4","","-9.1","","81","","0.0","","27","","30","","","","99.92","","","","-15","","NA"
"-66.35","44.29","BRIER ISLAND","8200604","2022-01-30 13:00","2022","01","30","13:00","-5.4","","-8.7","","77","","0.0","","25","","31","","","","100.01","","","","-14","","NA"
"-66.35","44.29","BRIER ISLAND","8200604","2022-01-30 14:00","2022","01","30","14:00","-4.7","","-7.7","","79","","0.0","","25","","27","","","","100.06","","","","-12","","NA"
"-66.35","44.29","BRIER ISLAND","8200604","2022-01-30 15:00","2022","01","30","15:00","-4.1","","-8.0","","74","","0.0","","25","","31","","","","100.13","","","","-12","","NA"
"-66.35","44.29","BRIER ISLAND","8200604","2022-01-30 16:00","2022","01","30","16:00","-3.6","","-8.3","","70","","0.0","","25","","31","","","","100.24","","","","-11","","NA"
"-66.35","44.29","BRIER ISLAND","8200604","2022-01-30 17:00","2022","01","30","17:00","-4.3","","-10.0","","64","","0.0","","25","","32","","","","100.35","","","","-12","","NA"
"-66.35","44.29","BRIER ISLAND","8200604","2022-01-30 18:00","2022","01","30","18:00","-4.1","","-9.7","","65","","0.0","","26","","38","","","","100.54","","","","-13","","NA"
"-66.35","44.29","BRIER ISLAND","8200604","2022-01-30 19:00","2022","01","30","19:00","-4.3","","-10.6","","62","","0.0","","26","","34","","","","100.70","","","","-13","","NA"
"-66.35","44.29","BRIER ISLAND","8200604","2022-01-30 20:00","2022","01","30","20:00","-4.4","","-11.2","","59","","0.0","","27","","35","","","","100.86","","","","-13","","NA"
"-66.35","44.29","BRIER ISLAND","8200604","2022-01-30 21:00","2022","01","30","21:00","-5.3","","-11.0","","64","","0.0","","28","","47","","","","101.00","","","","-15","","NA"
"-66.35","44.29","BRIER ISLAND","8200604","2022-01-30 22:00","2022","01","30","22:00","-6.2","","-11.8","","64","","0.0","","29","","36","","","","101.14","","","","-15","","NA"
"-66.35","44.29","BRIER ISLAND","8200604","2022-01-30 23:00","2022","01","30","23:00","-6.5","","-11.8","","66","","0.0","","29","","30","","","","101.28","","","","-15","","NA"
"-66.35","44.29","BRIER ISLAND","8200604","2022-01-31 00:00","2022","01","31","00:00","-7.1","","-12.3","","66","","0.0","","27","","24","","","","101.39","","","","-15","","NA"
"-66.35","44.29","BRIER ISLAND","8200604","2022-01-31 01:00","2022","01","31","01:00","-7.2","","-14.5","","56","","0.0","","31","","20","","","","101.46","","","","-14","","NA"
"-66.35","44.29","BRIER ISLAND","8200604","2022-01-31 02:00","2022","01","31","02:00","-6.9","","-12.7","","63","","0.0","","29","","24","","","","101.53","","","","-15","","NA"
"-66.35","44.29","BRIER ISLAND","8200604","2022-01-31 03:00","2022","01","31","03:00","-7.0","","-12.2","","67","","0.0","","27","","25","","","","101.61","","","","-15","","NA"
"-66.35","44.29","BRIER ISLAND","8200604","2022-01-31 04:00","2022","01","31","04:00","-7.1","","-12.9","","63","","0.0","","26","","26","","","","101.67","","","","-15","","NA"
"-66.35","44.29","BRIER ISLAND","8200604","2022-01-31 05:00","2022","01","31","05:00","-7.3","","-12.5","","67","","0.0","","28","","32","","","","101.80","","","","-16","","NA"
"-66.35","44.29","BRIER ISLAND","8200604","2022-01-31 06:00","2022","01","31","06:00","-6.8","","-10.7","","74","","0.0","","29","","37","","","","101.88","","","","-16","","NA"
"-66.35","44.29","BRIER ISLAND","8200604","2022-01-31 07:00","2022","01","31","07:00","-6.7","","-11.2","","70","","0.0","","29","","35","","","","102.02","","","","-16","","NA"
"-66.35","44.29","BRIER ISLAND","8200604","2022-01-31 08:00","2022","01","31","08:00","-6.3","","-10.7","","70","","0.0","","28","","33","","","","102.12","","","","-15","","NA"
"-66.35","44.29","BRIER ISLAND","8200604","2022-01-31 09:00","2022","01","31","09:00","-6.4","","-11.6","","67","","0.0","","29","","29","","","","102.24","","","","-15","","NA"
"-66.35","44.29","BRIER ISLAND","8200604","2022-01-31 10:00","2022","01","31","10:00","-6.1","","-11.9","","64","","0.0","","30","","27","","","","102.34","","","","-14","","NA"
"-66.35","44.29","BRIER ISLAND","8200604","2022-01-31 11:00","2022","01","31","11:00","-5.1","","-11.4","","61","","0.0","","29","","24","","","","102.39","","","","-12","","NA"
"-66.35","44.29","BRIER ISLAND","8200604","2022-01-31 12:00","2022","01","31","12:00","-4.8","","-11.2","","61","","0.0","","28","","20","","","","102.42","","","","-11","","NA"
"-66.35","44.29","BRIER ISLAND","8200604","2022-01-31 13:00","2022","01","31","13:00","-3.9","","-10.1","","62","","0.0","","26","","18","","","","102.41","","","","-10","","NA"
"-66.35","44.29","BRIER ISLAND","8200604","2022-01-31 14:00","2022","01","31","14:00","-4.1","","-11.6","","56","","0.0","","26","","20","","","","102.41","","","","-10","","NA"
"-66.35","44.29","BRIER ISLAND","8200604","2022-01-31 15:00","2022","01","31","15:00","-4.1","","-10.6","","60","","0.0","","27","","18","","","","102.44","","","","-10","","NA"
"-66.35","44.29","BRIER ISLAND","8200604","2022-01-31 16:00","2022","01","31","16:00","-3.7","","-11.7","","54","","0.0","","25","","18","","","","102.49","","","","-10","","NA"
"-66.35","44.29","BRIER ISLAND","8200604","2022-01-31 17:00","2022","01","31","17:00","-3.8","","-11.3","","56","","0.0","","26","","20","","","","102.57","","","","-10","","NA"
"-66.35","44.29","BRIER ISLAND","8200604","2022-01-31 18:00","2022","01","31","18:00","-3.4","","-9.2","","64","","0.0","","24","","18","","","","102.64","","","","-9","","NA"
"-66.35","44.29","BRIER ISLAND","8200604","2022-01-31 19:00","2022","01","31","19:00","-3.3","","-8.1","","70","","0.0","","25","","22","","","","102.74","","","","-10","","NA"
"-66.35","44.29","BRIER ISLAND","8200604","2022-01-31 20:00","2022","01","31","20:00","-2.9","","-7.7","","69","","0.0","","25","","22","","","","102.82","","","","-9","","NA"
"-66.35","44.29","BRIER ISLAND","8200604","2022-01-31 21:00","2022","01","31","21:00","-2.6","","-8.6","","63","","0.0","","27","","25","","","","102.89","","","","-9","","NA"
"-66.35","44.29","BRIER ISLAND","8200604","2022-01-31 22:00","2022","01","31","22:00","-3.1","","-9.8","","60","","0.0","","31","","20","","","","102.99","","","","-9","","NA"
"-66.35","44.29","BRIER ISLAND","8200604","2022-01-31 23:00","2022","01","31","23:00","-3.4","","-10.5","","58","","0.0","","31","","21","","","","103.06","","","","-10","","NA"
