"Longitude (x)","Latitude (y)","Station Name","Climate ID","Date/Time (LST)","Year","Month","Day","Time (LST)","Temp (°C)","Temp Flag","Dew Point Temp (°C)","Dew Point Temp Flag","Rel Hum (%)","Rel Hum Flag","Precip. Amount (mm)","Precip. Amount Flag","Wind Dir (10s deg)","Wind Dir Flag","Wind Spd (km/h)","Wind Spd Flag","Visibility (km)","Visibility Flag","Stn Press (kPa)","Stn Press Flag","Hmdx","Hmdx Flag","Wind Chill","Wind Chill Flag","Weather"
"-81.90","42.25","ERIEAU (AUT)","613KLLM","2022-02-01 00:00","2022","02","01","00:00","","M","","M","88","","","","9","","16","","","","100.18","","","","","","NA"
"-81.90","42.25","ERIEAU (AUT)","613KLLM","2022-02-01 01:00","2022","02","01","01:00","","M","","M","90","","","","10","","11","","","","100.22","","","","","","NA"
"-81.90","42.25","ERIEAU (AUT)","613KLLM","2022-02-01 02:00","2022","02","01","02:00","","M","","M","89","","","","10","","12","","","","100.18","","","","","","NA"
"-81.90","42.25","ERIEAU (AUT)","613KLLM","2022-02-01 03:00","2022","02","01","03:00","","M","","M","83","","","","12","","17","","","","100.17","","","","","","NA"
"-81.90","42.25","ERIEAU (AUT)","613KLLM","2022-02-01 04:00","2022","02","01","04:00","","M","","M","78","","","","12","","21","","","","100.11","","","","","","NA"
"-81.90","42.25","ERIEAU (AUT)","613KLLM","2022-02-01 05:00","2022","02","01","05:00","","M","","M","78","","","","12","","23","","","","100.12","","","","","","NA"
"-81.90","42.25","ERIEAU (AUT)","613KLLM","2022-02-01 06:00","2022","02","01","06:00","","M","","M","80","","","","13","","24","","","","100.10","","","","","","NA"
"-81.90","42.25","ERIEAU (AUT)","613KLLM","2022-02-01 07:00","2022","02","01","07:00","","M","","M","81","","","","13","","24","","","","100.09","","","","","","NA"
"-81.90","42.25","ERIEAU (AUT)","613KLLM","2022-02-01 08:00","2022","02","01","08:00","","M","","M","83","","","","13","","22","","","","100.05","","","","","","NA"
"-81.90","42.25","ERIEAU (AUT)","613KLLM","2022-02-01 09:00","2022","02","01","09:00","","M","","M","82","","","","13","","26","","","","99.98","","","","","","NA"
"-81.90","42.25","ERIEAU (AUT)","613KLLM","2022-02-01 10:00","2022","02","01","10:00","","M","","M","82","","","","13","","27","","","","99.88","","","","","","NA"
"-81.90","42.25","ERIEAU (AUT)","613KLLM","2022-02-01 11:00","2022","02","01","11:00","","M","","M","80","","","","14","","28","","","","99.82","","","","","","NA"
"-81.90","42.25","ERIEAU (AUT)","613KLLM","2022-02-01 12:00","2022","02","01","12:00","","M","","M","78","","","","14","","35","","","","99.73","","","","","","NA"
"-81.90","42.25","ERIEAU (AUT)","613KLLM","2022-02-01 13:00","2022","02","01","13:00","","M","","M","78","","","","15","","26","","","","99.64","","","","","","NA"
"-81.90","42.25","ERIEAU (AUT)","613KLLM","2022-02-01 14:00","2022","02","01","14:00","","M","","M","75","","","","15","","24","","","","99.57","","","","","","NA"
"-81.90","42.25","ERIEAU (AUT)","613KLLM","2022-02-01 15:00","2022","02","01","15:00","","M","","M","71","","","","16","","26","","","","99.55","","","","","","NA"
"-81.90","42.25","ERIEAU (AUT)","613KLLM","2022-02-01 16:00","2022","02","01","16:00","","M","","M","69","","","","15","","26","","","","99.49","","","","","","NA"
"-81.90","42.25","ERIEAU (AUT)","613KLLM","2022-02-01 17:00","2022","02","01","17:00","","M","","M","69","","","","16","","26","","","","99.52","","","","","","NA"
"-81.90","42.25","ERIEAU (AUT)","613KLLM","2022-02-01 18:00","2022","02","01","18:00","","M","","M","66","","","","16","","29","","","","99.54","","","","","","NA"
"-81.90","42.25","ERIEAU (AUT)","613KLLM","2022-02-01 19:00","2022","02","01","19:00","","M","","M","67","","","","16","","27","","","","99.59","","","","","","NA"
"-81.90","42.25","ERIEAU (AUT)","613KLLM","2022-02-01 20:00","2022","02","01","20:00","","M","","M","68","","","","16","","27","","","","99.62","","","","","","NA"
"-81.90","42.25","ERIEAU (AUT)","613KLLM","2022-02-01 21:00","2022","02","01","21:00","","M","","M","70","","","","16","","29","","","","99.60","","","","","","NA"
"-81.90","42.25","ERIEAU (AUT)","613KLLM","2022-02-01 22:00","2022","02","01","22:00","","M","","M","70","","","","16","","29","","","","99.60","","","","","","NA"
"-81.90","42.25","ERIEAU (AUT)","613KLLM","2022-02-01 23:00","2022","02","01","23:00","","M","","M","69","","","","16","","27","","","","99.62","","","","","","NA"
"-81.90","42.25","ERIEAU (AUT)","613KLLM","2022-02-02 00:00","2022","02","02","00:00","","M","","M","74","","","","17","","24","","","","99.61","","","","","","NA"
"-81.90","42.25","ERIEAU (AUT)","613KLLM","2022-02-02 01:00","2022","02","02","01:00","","M","","M","76","","","","24","","14","","","","99.69","","","","","","NA"
"-81.90","42.25","ERIEAU (AUT)","613KLLM","2022-02-02 02:00","2022","02","02","02:00","","M","","M","74","","","","19","","8","","","","99.67","","","","","","NA"
"-81.90","42.25","ERIEAU (AUT)","613KLLM","2022-02-02 03:00","2022","02","02","03:00","","M","","M","78","","","","18","","5","","","","99.71","","","","","","NA"
"-81.90","42.25","ERIEAU (AUT)","613KLLM","2022-02-02 04:00","2022","02","02","04:00","","M","","M","80","","","","13","","12","","","","99.68","","","","","","NA"
"-81.90","42.25","ERIEAU (AUT)","613KLLM","2022-02-02 05:00","2022","02","02","05:00","","M","","M","81","","","","13","","16","","","","99.63","","","","","","NA"
"-81.90","42.25","ERIEAU (AUT)","613KLLM","2022-02-02 06:00","2022","02","02","06:00","","M","","M","82","","","","14","","12","","","","99.65","","","","","","NA"
"-81.90","42.25","ERIEAU (AUT)","613KLLM","2022-02-02 07:00","2022","02","02","07:00","","M","","M","78","","","","18","","10","","","","99.71","","","","","","NA"
"-81.90","42.25","ERIEAU (AUT)","613KLLM","2022-02-02 08:00","2022","02","02","08:00","","M","","M","76","","","","20","","11","","","","99.76","","","","","","NA"
"-81.90","42.25","ERIEAU (AUT)","613KLLM","2022-02-02 09:00","2022","02","02","09:00","","M","","M","81","","","","21","","2","","","","99.79","","","","","","NA"
"-81.90","42.25","ERIEAU (AUT)","613KLLM","2022-02-02 10:00","2022","02","02","10:00","","M","","M","86","","","","18","","5","","","","99.84","","","","","","NA"
"-81.90","42.25","ERIEAU (AUT)","613KLLM","2022-02-02 11:00","2022","02","02","11:00","","M","","M","92","","","","17","","14","","","","99.89","","","","","","NA"
"-81.90","42.25","ERIEAU (AUT)","613KLLM","2022-02-02 12:00","2022","02","02","12:00","","M","","M","94","","","","20","","9","","","","99.88","","","","","","NA"
"-81.90","42.25","ERIEAU (AUT)","613KLLM","2022-02-02 13:00","2022","02","02","13:00","","M","","M","96","","","","23","","4","","","","99.78","","","","","","NA"
"-81.90","42.25","ERIEAU (AUT)","613KLLM","2022-02-02 14:00","2022","02","02","14:00","","M","","M","97","","","","22","","2","","","","99.73","","","","","","NA"
"-81.90","42.25","ERIEAU (AUT)","613KLLM","2022-02-02 15:00","2022","02","02","15:00","","M","","M","98","","","","32","","6","","","","99.71","","","","","","NA"
"-81.90","42.25","ERIEAU (AUT)","613KLLM","2022-02-02 16:00","2022","02","02","16:00","","M","","M","99","","","","36","","11","","","","99.66","","","","","","NA"
"-81.90","42.25","ERIEAU (AUT)","613KLLM","2022-02-02 17:00","2022","02","02","17:00","","M","","M","99","","","","34","","12","","","","99.68","","","","","","NA"
"-81.90","42.25","ERIEAU (AUT)","613KLLM","2022-02-02 18:00","2022","02","02","18:00","","M","","M","99","","","","34","","24","","","","99.70","","","","","","NA"
"-81.90","42.25","ERIEAU (AUT)","613KLLM","2022-02-02 19:00","2022","02","02","19:00","","M","","M","100","","","","34","","24","","","","99.76","","","","","","NA"
"-81.90","42.25","ERIEAU (AUT)","613KLLM","2022-02-02 20:00","2022","02","02","20:00","","M","","M","100","","","","34","","27","","","","99.87","","","","","","NA"
"-81.90","42.25","ERIEAU (AUT)","613KLLM","2022-02-02 21:00","2022","02","02","21:00","","M","","M","100","","","","35","","29","","","","99.93","","","","","","NA"
"-81.90","42.25","ERIEAU (AUT)","613KLLM","2022-02-02 22:00","2022","02","02","22:00","","M","","M","100","","","","34","","25","","","","100.01","","","","","","NA"
"-81.90","42.25","ERIEAU (AUT)","613KLLM","2022-02-02 23:00","2022","02","02","23:00","","M","","M","100","","","","35","","26","","","","100.06","","","","","","NA"
"-81.90","42.25","ERIEAU (AUT)","613KLLM","2022-02-03 00:00","2022","02","03","00:00","","M","","M","100","","","","35","","25","","","","100.15","","","","","","NA"
"-81.90","42.25","ERIEAU (AUT)","613KLLM","2022-02-03 01:00","2022","02","03","01:00","","M","","M","98","","","","35","","20","","","","100.19","","","","","","NA"
"-81.90","42.25","ERIEAU (AUT)","613KLLM","2022-02-03 02:00","2022","02","03","02:00","","M","","M","90","","","","35","","22","","","","100.22","","","","","","NA"
"-81.90","42.25","ERIEAU (AUT)","613KLLM","2022-02-03 03:00","2022","02","03","03:00","","M","","M","87","","","","34","","20","","","","100.29","","","","","","NA"
"-81.90","42.25","ERIEAU (AUT)","613KLLM","2022-02-03 04:00","2022","02","03","04:00","","M","","M","87","","","","35","","20","","","","100.27","","","","","","NA"
"-81.90","42.25","ERIEAU (AUT)","613KLLM","2022-02-03 05:00","2022","02","03","05:00","","M","","M","84","","","","35","","20","","","","100.36","","","","","","NA"
"-81.90","42.25","ERIEAU (AUT)","613KLLM","2022-02-03 06:00","2022","02","03","06:00","","M","","M","88","","","","35","","21","","","","100.47","","","","","","NA"
"-81.90","42.25","ERIEAU (AUT)","613KLLM","2022-02-03 07:00","2022","02","03","07:00","","M","","M","90","","","","36","","31","","","","100.49","","","","","","NA"
"-81.90","42.25","ERIEAU (AUT)","613KLLM","2022-02-03 08:00","2022","02","03","08:00","","M","","M","80","","","","36","","27","","","","100.54","","","","","","NA"
"-81.90","42.25","ERIEAU (AUT)","613KLLM","2022-02-03 09:00","2022","02","03","09:00","","M","","M","86","","","","36","","28","","","","100.58","","","","","","NA"
"-81.90","42.25","ERIEAU (AUT)","613KLLM","2022-02-03 10:00","2022","02","03","10:00","","M","","M","91","","","","36","","27","","","","100.63","","","","","","NA"
"-81.90","42.25","ERIEAU (AUT)","613KLLM","2022-02-03 11:00","2022","02","03","11:00","","M","","M","94","","","","35","","23","","","","100.64","","","","","","NA"
"-81.90","42.25","ERIEAU (AUT)","613KLLM","2022-02-03 12:00","2022","02","03","12:00","","M","","M","93","","","","35","","26","","","","100.61","","","","","","NA"
"-81.90","42.25","ERIEAU (AUT)","613KLLM","2022-02-03 13:00","2022","02","03","13:00","","M","","M","92","","","","35","","24","","","","100.49","","","","","","NA"
"-81.90","42.25","ERIEAU (AUT)","613KLLM","2022-02-03 14:00","2022","02","03","14:00","","M","","M","93","","","","35","","25","","","","100.47","","","","","","NA"
"-81.90","42.25","ERIEAU (AUT)","613KLLM","2022-02-03 15:00","2022","02","03","15:00","","M","","M","92","","","","36","","30","","","","100.38","","","","","","NA"
"-81.90","42.25","ERIEAU (AUT)","613KLLM","2022-02-03 16:00","2022","02","03","16:00","","M","","M","94","","","","35","","25","","","","100.42","","","","","","NA"
"-81.90","42.25","ERIEAU (AUT)","613KLLM","2022-02-03 17:00","2022","02","03","17:00","","M","","M","93","","","","36","","29","","","","100.40","","","","","","NA"
"-81.90","42.25","ERIEAU (AUT)","613KLLM","2022-02-03 18:00","2022","02","03","18:00","","M","","M","93","","","","36","","36","","","","100.45","","","","","","NA"
"-81.90","42.25","ERIEAU (AUT)","613KLLM","2022-02-03 19:00","2022","02","03","19:00","","M","","M","93","","","","36","","34","","","","100.49","","","","","","NA"
"-81.90","42.25","ERIEAU (AUT)","613KLLM","2022-02-03 20:00","2022","02","03","20:00","","M","","M","93","","","","36","","31","","","","100.51","","","","","","NA"
"-81.90","42.25","ERIEAU (AUT)","613KLLM","2022-02-03 21:00","2022","02","03","21:00","","M","","M","93","","","","36","","25","","","","100.46","","","","","","NA"
"-81.90","42.25","ERIEAU (AUT)","613KLLM","2022-02-03 22:00","2022","02","03","22:00","","M","","M","93","","","","35","","23","","","","100.41","","","","","","NA"
"-81.90","42.25","ERIEAU (AUT)","613KLLM","2022-02-03 23:00","2022","02","03","23:00","","M","","M","92","","","","35","","21","","","","100.38","","","","","","NA"
"-81.90","42.25","ERIEAU (AUT)","613KLLM","2022-02-04 00:00","2022","02","04","00:00","","M","","M","93","","","","35","","22","","","","100.29","","","","","","NA"
"-81.90","42.25","ERIEAU (AUT)","613KLLM","2022-02-04 01:00","2022","02","04","01:00","","M","","M","92","","","","34","","21","","","","100.25","","","","","","NA"
"-81.90","42.25","ERIEAU (AUT)","613KLLM","2022-02-04 02:00","2022","02","04","02:00","","M","","M","93","","","","34","","19","","","","100.17","","","","","","NA"
"-81.90","42.25","ERIEAU (AUT)","613KLLM","2022-02-04 03:00","2022","02","04","03:00","","M","","M","93","","","","35","","18","","","","100.15","","","","","","NA"
"-81.90","42.25","ERIEAU (AUT)","613KLLM","2022-02-04 04:00","2022","02","04","04:00","","M","","M","91","","","","35","","16","","","","100.19","","","","","","NA"
"-81.90","42.25","ERIEAU (AUT)","613KLLM","2022-02-04 05:00","2022","02","04","05:00","","M","","M","87","","","","34","","20","","","","100.17","","","","","","NA"
"-81.90","42.25","ERIEAU (AUT)","613KLLM","2022-02-04 06:00","2022","02","04","06:00","","M","","M","83","","","","35","","14","","","","100.19","","","","","","NA"
"-81.90","42.25","ERIEAU (AUT)","613KLLM","2022-02-04 07:00","2022","02","04","07:00","","M","","M","81","","","","35","","13","","","","100.21","","","","","","NA"
"-81.90","42.25","ERIEAU (AUT)","613KLLM","2022-02-04 08:00","2022","02","04","08:00","","M","","M","79","","","","33","","13","","","","100.28","","","","","","NA"
"-81.90","42.25","ERIEAU (AUT)","613KLLM","2022-02-04 09:00","2022","02","04","09:00","","M","","M","79","","","","33","","13","","","","100.26","","","","","","NA"
"-81.90","42.25","ERIEAU (AUT)","613KLLM","2022-02-04 10:00","2022","02","04","10:00","","M","","M","79","","","","34","","16","","","","100.26","","","","","","NA"
"-81.90","42.25","ERIEAU (AUT)","613KLLM","2022-02-04 11:00","2022","02","04","11:00","","M","","M","77","","","","32","","11","","","","100.29","","","","","","NA"
"-81.90","42.25","ERIEAU (AUT)","613KLLM","2022-02-04 12:00","2022","02","04","12:00","","M","","M","73","","","","33","","12","","","","100.29","","","","","","NA"
"-81.90","42.25","ERIEAU (AUT)","613KLLM","2022-02-04 13:00","2022","02","04","13:00","","M","","M","75","","","","34","","17","","","","100.13","","","","","","NA"
"-81.90","42.25","ERIEAU (AUT)","613KLLM","2022-02-04 14:00","2022","02","04","14:00","","M","","M","73","","","","34","","14","","","","100.10","","","","","","NA"
"-81.90","42.25","ERIEAU (AUT)","613KLLM","2022-02-04 15:00","2022","02","04","15:00","","M","","M","74","","","","33","","13","","","","100.10","","","","","","NA"
"-81.90","42.25","ERIEAU (AUT)","613KLLM","2022-02-04 16:00","2022","02","04","16:00","","M","","M","75","","","","34","","9","","","","100.15","","","","","","NA"
"-81.90","42.25","ERIEAU (AUT)","613KLLM","2022-02-04 17:00","2022","02","04","17:00","","M","","M","75","","","","30","","6","","","","100.20","","","","","","NA"
"-81.90","42.25","ERIEAU (AUT)","613KLLM","2022-02-04 18:00","2022","02","04","18:00","","M","","M","78","","","","27","","4","","","","100.24","","","","","","NA"
"-81.90","42.25","ERIEAU (AUT)","613KLLM","2022-02-04 19:00","2022","02","04","19:00","","M","","M","82","","","","28","","5","","","","100.30","","","","","","NA"
"-81.90","42.25","ERIEAU (AUT)","613KLLM","2022-02-04 20:00","2022","02","04","20:00","","M","","M","86","","","","27","","5","","","","100.31","","","","","","NA"
"-81.90","42.25","ERIEAU (AUT)","613KLLM","2022-02-04 21:00","2022","02","04","21:00","","M","","M","88","","","","29","","9","","","","100.32","","","","","","NA"
"-81.90","42.25","ERIEAU (AUT)","613KLLM","2022-02-04 22:00","2022","02","04","22:00","","M","","M","78","","","","31","","9","","","","100.30","","","","","","NA"
"-81.90","42.25","ERIEAU (AUT)","613KLLM","2022-02-04 23:00","2022","02","04","23:00","","M","","M","79","","","","32","","6","","","","100.28","","","","","","NA"
"-81.90","42.25","ERIEAU (AUT)","613KLLM","2022-02-05 00:00","2022","02","05","00:00","","M","","M","80","","","","31","","6","","","","100.30","","","","","","NA"
"-81.90","42.25","ERIEAU (AUT)","613KLLM","2022-02-05 01:00","2022","02","05","01:00","","M","","M","82","","","","29","","8","","","","100.35","","","","","","NA"
"-81.90","42.25","ERIEAU (AUT)","613KLLM","2022-02-05 02:00","2022","02","05","02:00","","M","","M","83","","","","29","","8","","","","100.38","","","","","","NA"
"-81.90","42.25","ERIEAU (AUT)","613KLLM","2022-02-05 03:00","2022","02","05","03:00","","M","","M","84","","","","28","","9","","","","100.41","","","","","","NA"
"-81.90","42.25","ERIEAU (AUT)","613KLLM","2022-02-05 04:00","2022","02","05","04:00","","M","","M","84","","","","28","","7","","","","100.42","","","","","","NA"
"-81.90","42.25","ERIEAU (AUT)","613KLLM","2022-02-05 05:00","2022","02","05","05:00","","M","","M","85","","","","29","","8","","","","100.52","","","","","","NA"
"-81.90","42.25","ERIEAU (AUT)","613KLLM","2022-02-05 06:00","2022","02","05","06:00","","M","","M","81","","","","29","","10","","","","100.62","","","","","","NA"
"-81.90","42.25","ERIEAU (AUT)","613KLLM","2022-02-05 07:00","2022","02","05","07:00","","M","","M","83","","","","29","","9","","","","100.73","","","","","","NA"
"-81.90","42.25","ERIEAU (AUT)","613KLLM","2022-02-05 08:00","2022","02","05","08:00","","M","","M","82","","","","29","","8","","","","100.84","","","","","","NA"
"-81.90","42.25","ERIEAU (AUT)","613KLLM","2022-02-05 09:00","2022","02","05","09:00","","M","","M","79","","","","30","","6","","","","100.93","","","","","","NA"
"-81.90","42.25","ERIEAU (AUT)","613KLLM","2022-02-05 10:00","2022","02","05","10:00","","M","","M","76","","","","30","","5","","","","101.01","","","","","","NA"
"-81.90","42.25","ERIEAU (AUT)","613KLLM","2022-02-05 11:00","2022","02","05","11:00","","M","","M","70","","","","28","","6","","","","101.09","","","","","","NA"
"-81.90","42.25","ERIEAU (AUT)","613KLLM","2022-02-05 12:00","2022","02","05","12:00","","M","","M","66","","","","36","","4","","","","101.07","","","","","","NA"
"-81.90","42.25","ERIEAU (AUT)","613KLLM","2022-02-05 13:00","2022","02","05","13:00","","M","","M","59","","","","21","","3","","","","101.01","","","","","","NA"
"-81.90","42.25","ERIEAU (AUT)","613KLLM","2022-02-05 14:00","2022","02","05","14:00","","M","","M","64","","","","17","","6","","","","101.00","","","","","","NA"
"-81.90","42.25","ERIEAU (AUT)","613KLLM","2022-02-05 15:00","2022","02","05","15:00","","M","","M","67","","","","18","","8","","","","101.00","","","","","","NA"
"-81.90","42.25","ERIEAU (AUT)","613KLLM","2022-02-05 16:00","2022","02","05","16:00","","M","","M","74","","","","17","","11","","","","100.98","","","","","","NA"
"-81.90","42.25","ERIEAU (AUT)","613KLLM","2022-02-05 17:00","2022","02","05","17:00","","M","","M","77","","","","16","","13","","","","100.98","","","","","","NA"
"-81.90","42.25","ERIEAU (AUT)","613KLLM","2022-02-05 18:00","2022","02","05","18:00","","M","","M","79","","","","17","","14","","","","100.97","","","","","","NA"
"-81.90","42.25","ERIEAU (AUT)","613KLLM","2022-02-05 19:00","2022","02","05","19:00","","M","","M","80","","","","17","","16","","","","100.97","","","","","","NA"
"-81.90","42.25","ERIEAU (AUT)","613KLLM","2022-02-05 20:00","2022","02","05","20:00","","M","","M","81","","","","16","","19","","","","100.90","","","","","","NA"
"-81.90","42.25","ERIEAU (AUT)","613KLLM","2022-02-05 21:00","2022","02","05","21:00","","M","","M","80","","","","17","","20","","","","100.90","","","","","","NA"
"-81.90","42.25","ERIEAU (AUT)","613KLLM","2022-02-05 22:00","2022","02","05","22:00","","M","","M","79","","","","17","","22","","","","100.86","","","","","","NA"
"-81.90","42.25","ERIEAU (AUT)","613KLLM","2022-02-05 23:00","2022","02","05","23:00","","M","","M","77","","","","18","","23","","","","100.80","","","","","","NA"
"-81.90","42.25","ERIEAU (AUT)","613KLLM","2022-02-06 00:00","2022","02","06","00:00","","M","","M","77","","","","17","","29","","","","100.78","","","","","","NA"
"-81.90","42.25","ERIEAU (AUT)","613KLLM","2022-02-06 01:00","2022","02","06","01:00","","M","","M","78","","","","18","","30","","","","100.76","","","","","","NA"
"-81.90","42.25","ERIEAU (AUT)","613KLLM","2022-02-06 02:00","2022","02","06","02:00","","M","","M","81","","","","17","","33","","","","100.67","","","","","","NA"
"-81.90","42.25","ERIEAU (AUT)","613KLLM","2022-02-06 03:00","2022","02","06","03:00","","M","","M","82","","","","17","","36","","","","100.62","","","","","","NA"
"-81.90","42.25","ERIEAU (AUT)","613KLLM","2022-02-06 04:00","2022","02","06","04:00","","M","","M","83","","","","17","","34","","","","100.59","","","","","","NA"
"-81.90","42.25","ERIEAU (AUT)","613KLLM","2022-02-06 05:00","2022","02","06","05:00","","M","","M","84","","","","18","","31","","","","100.56","","","","","","NA"
"-81.90","42.25","ERIEAU (AUT)","613KLLM","2022-02-06 06:00","2022","02","06","06:00","","M","","M","83","","","","17","","32","","","","100.52","","","","","","NA"
"-81.90","42.25","ERIEAU (AUT)","613KLLM","2022-02-06 07:00","2022","02","06","07:00","","M","","M","83","","","","18","","30","","","","100.47","","","","","","NA"
"-81.90","42.25","ERIEAU (AUT)","613KLLM","2022-02-06 08:00","2022","02","06","08:00","","M","","M","83","","","","18","","28","","","","100.47","","","","","","NA"
"-81.90","42.25","ERIEAU (AUT)","613KLLM","2022-02-06 09:00","2022","02","06","09:00","","M","","M","81","","","","18","","29","","","","100.47","","","","","","NA"
"-81.90","42.25","ERIEAU (AUT)","613KLLM","2022-02-06 10:00","2022","02","06","10:00","","M","","M","81","","","","19","","32","","","","100.44","","","","","","NA"
"-81.90","42.25","ERIEAU (AUT)","613KLLM","2022-02-06 11:00","2022","02","06","11:00","","M","","M","79","","","","19","","35","","","","100.45","","","","","","NA"
"-81.90","42.25","ERIEAU (AUT)","613KLLM","2022-02-06 12:00","2022","02","06","12:00","","M","","M","79","","","","18","","28","","","","100.40","","","","","","NA"
"-81.90","42.25","ERIEAU (AUT)","613KLLM","2022-02-06 13:00","2022","02","06","13:00","","M","","M","76","","","","18","","33","","","","100.30","","","","","","NA"
"-81.90","42.25","ERIEAU (AUT)","613KLLM","2022-02-06 14:00","2022","02","06","14:00","","M","","M","71","","","","19","","28","","","","100.22","","","","","","NA"
"-81.90","42.25","ERIEAU (AUT)","613KLLM","2022-02-06 15:00","2022","02","06","15:00","","M","","M","76","","","","19","","23","","","","100.20","","","","","","NA"
"-81.90","42.25","ERIEAU (AUT)","613KLLM","2022-02-06 16:00","2022","02","06","16:00","","M","","M","76","","","","18","","16","","","","100.13","","","","","","NA"
"-81.90","42.25","ERIEAU (AUT)","613KLLM","2022-02-06 17:00","2022","02","06","17:00","","M","","M","78","","","","18","","14","","","","100.12","","","","","","NA"
"-81.90","42.25","ERIEAU (AUT)","613KLLM","2022-02-06 18:00","2022","02","06","18:00","","M","","M","79","","","","17","","19","","","","100.10","","","","","","NA"
"-81.90","42.25","ERIEAU (AUT)","613KLLM","2022-02-06 19:00","2022","02","06","19:00","","M","","M","80","","","","17","","18","","","","100.11","","","","","","NA"
"-81.90","42.25","ERIEAU (AUT)","613KLLM","2022-02-06 20:00","2022","02","06","20:00","","M","","M","83","","","","16","","15","","","","100.10","","","","","","NA"
"-81.90","42.25","ERIEAU (AUT)","613KLLM","2022-02-06 21:00","2022","02","06","21:00","","M","","M","76","","","","17","","20","","","","100.11","","","","","","NA"
"-81.90","42.25","ERIEAU (AUT)","613KLLM","2022-02-06 22:00","2022","02","06","22:00","","M","","M","82","","","","18","","16","","","","100.10","","","","","","NA"
"-81.90","42.25","ERIEAU (AUT)","613KLLM","2022-02-06 23:00","2022","02","06","23:00","","M","","M","83","","","","18","","15","","","","100.11","","","","","","NA"
"-81.90","42.25","ERIEAU (AUT)","613KLLM","2022-02-07 00:00","2022","02","07","00:00","","M","","M","85","","","","17","","20","","","","100.07","","","","","","NA"
"-81.90","42.25","ERIEAU (AUT)","613KLLM","2022-02-07 01:00","2022","02","07","01:00","","M","","M","86","","","","17","","19","","","","100.00","","","","","","NA"
"-81.90","42.25","ERIEAU (AUT)","613KLLM","2022-02-07 02:00","2022","02","07","02:00","","M","","M","86","","","","18","","15","","","","99.94","","","","","","NA"
"-81.90","42.25","ERIEAU (AUT)","613KLLM","2022-02-07 03:00","2022","02","07","03:00","","M","","M","90","","","","19","","11","","","","99.93","","","","","","NA"
"-81.90","42.25","ERIEAU (AUT)","613KLLM","2022-02-07 04:00","2022","02","07","04:00","","M","","M","91","","","","18","","15","","","","99.86","","","","","","NA"
"-81.90","42.25","ERIEAU (AUT)","613KLLM","2022-02-07 05:00","2022","02","07","05:00","","M","","M","87","","","","19","","16","","","","99.85","","","","","","NA"
"-81.90","42.25","ERIEAU (AUT)","613KLLM","2022-02-07 06:00","2022","02","07","06:00","","M","","M","86","","","","20","","15","","","","99.83","","","","","","NA"
"-81.90","42.25","ERIEAU (AUT)","613KLLM","2022-02-07 07:00","2022","02","07","07:00","","M","","M","87","","","","20","","17","","","","99.82","","","","","","NA"
"-81.90","42.25","ERIEAU (AUT)","613KLLM","2022-02-07 08:00","2022","02","07","08:00","","M","","M","85","","","","19","","19","","","","99.81","","","","","","NA"
"-81.90","42.25","ERIEAU (AUT)","613KLLM","2022-02-07 09:00","2022","02","07","09:00","","M","","M","83","","","","19","","21","","","","99.78","","","","","","NA"
"-81.90","42.25","ERIEAU (AUT)","613KLLM","2022-02-07 10:00","2022","02","07","10:00","","M","","M","82","","","","20","","25","","","","99.76","","","","","","NA"
"-81.90","42.25","ERIEAU (AUT)","613KLLM","2022-02-07 11:00","2022","02","07","11:00","","M","","M","84","","","","20","","19","","","","99.75","","","","","","NA"
"-81.90","42.25","ERIEAU (AUT)","613KLLM","2022-02-07 12:00","2022","02","07","12:00","","M","","M","88","","","","20","","23","","","","99.70","","","","","","NA"
"-81.90","42.25","ERIEAU (AUT)","613KLLM","2022-02-07 13:00","2022","02","07","13:00","","M","","M","87","","","","20","","26","","","","99.63","","","","","","NA"
"-81.90","42.25","ERIEAU (AUT)","613KLLM","2022-02-07 14:00","2022","02","07","14:00","","M","","M","85","","","","21","","21","","","","99.60","","","","","","NA"
"-81.90","42.25","ERIEAU (AUT)","613KLLM","2022-02-07 15:00","2022","02","07","15:00","","M","","M","86","","","","21","","18","","","","99.61","","","","","","NA"
"-81.90","42.25","ERIEAU (AUT)","613KLLM","2022-02-07 16:00","2022","02","07","16:00","","M","","M","86","","","","22","","16","","","","99.63","","","","","","NA"
"-81.90","42.25","ERIEAU (AUT)","613KLLM","2022-02-07 17:00","2022","02","07","17:00","","M","","M","87","","","","22","","15","","","","99.67","","","","","","NA"
"-81.90","42.25","ERIEAU (AUT)","613KLLM","2022-02-07 18:00","2022","02","07","18:00","","M","","M","87","","","","22","","16","","","","99.67","","","","","","NA"
"-81.90","42.25","ERIEAU (AUT)","613KLLM","2022-02-07 19:00","2022","02","07","19:00","","M","","M","89","","","","22","","15","","","","99.70","","","","","","NA"
"-81.90","42.25","ERIEAU (AUT)","613KLLM","2022-02-07 20:00","2022","02","07","20:00","","M","","M","92","","","","22","","14","","","","99.73","","","","","","NA"
"-81.90","42.25","ERIEAU (AUT)","613KLLM","2022-02-07 21:00","2022","02","07","21:00","","M","","M","91","","","","22","","15","","","","99.71","","","","","","NA"
"-81.90","42.25","ERIEAU (AUT)","613KLLM","2022-02-07 22:00","2022","02","07","22:00","","M","","M","85","","","","24","","16","","","","99.71","","","","","","NA"
"-81.90","42.25","ERIEAU (AUT)","613KLLM","2022-02-07 23:00","2022","02","07","23:00","","M","","M","82","","","","27","","11","","","","99.67","","","","","","NA"
"-81.90","42.25","ERIEAU (AUT)","613KLLM","2022-02-08 00:00","2022","02","08","00:00","","M","","M","82","","","","27","","11","","","","99.66","","","","","","NA"
"-81.90","42.25","ERIEAU (AUT)","613KLLM","2022-02-08 01:00","2022","02","08","01:00","","M","","M","85","","","","27","","9","","","","99.64","","","","","","NA"
"-81.90","42.25","ERIEAU (AUT)","613KLLM","2022-02-08 02:00","2022","02","08","02:00","","M","","M","88","","","","25","","6","","","","99.61","","","","","","NA"
"-81.90","42.25","ERIEAU (AUT)","613KLLM","2022-02-08 03:00","2022","02","08","03:00","","M","","M","90","","","","26","","8","","","","99.61","","","","","","NA"
"-81.90","42.25","ERIEAU (AUT)","613KLLM","2022-02-08 04:00","2022","02","08","04:00","","M","","M","89","","","","26","","8","","","","99.60","","","","","","NA"
"-81.90","42.25","ERIEAU (AUT)","613KLLM","2022-02-08 05:00","2022","02","08","05:00","","M","","M","88","","","","28","","11","","","","99.61","","","","","","NA"
"-81.90","42.25","ERIEAU (AUT)","613KLLM","2022-02-08 06:00","2022","02","08","06:00","","M","","M","87","","","","26","","8","","","","99.66","","","","","","NA"
"-81.90","42.25","ERIEAU (AUT)","613KLLM","2022-02-08 07:00","2022","02","08","07:00","","M","","M","88","","","","27","","10","","","","99.71","","","","","","NA"
"-81.90","42.25","ERIEAU (AUT)","613KLLM","2022-02-08 08:00","2022","02","08","08:00","","M","","M","90","","","","26","","8","","","","99.74","","","","","","NA"
"-81.90","42.25","ERIEAU (AUT)","613KLLM","2022-02-08 09:00","2022","02","08","09:00","","M","","M","90","","","","25","","7","","","","99.77","","","","","","NA"
"-81.90","42.25","ERIEAU (AUT)","613KLLM","2022-02-08 10:00","2022","02","08","10:00","","M","","M","87","","","","25","","7","","","","99.79","","","","","","NA"
"-81.90","42.25","ERIEAU (AUT)","613KLLM","2022-02-08 11:00","2022","02","08","11:00","","M","","M","81","","","","25","","7","","","","99.79","","","","","","NA"
"-81.90","42.25","ERIEAU (AUT)","613KLLM","2022-02-08 12:00","2022","02","08","12:00","","M","","M","80","","","","22","","12","","","","99.77","","","","","","NA"
"-81.90","42.25","ERIEAU (AUT)","613KLLM","2022-02-08 13:00","2022","02","08","13:00","","M","","M","80","","","","22","","13","","","","99.69","","","","","","NA"
"-81.90","42.25","ERIEAU (AUT)","613KLLM","2022-02-08 14:00","2022","02","08","14:00","","M","","M","77","","","","23","","15","","","","99.62","","","","","","NA"
"-81.90","42.25","ERIEAU (AUT)","613KLLM","2022-02-08 15:00","2022","02","08","15:00","","M","","M","76","","","","21","","21","","","","99.57","","","","","","NA"
"-81.90","42.25","ERIEAU (AUT)","613KLLM","2022-02-08 16:00","2022","02","08","16:00","","M","","M","74","","","","20","","24","","","","99.54","","","","","","NA"
"-81.90","42.25","ERIEAU (AUT)","613KLLM","2022-02-08 17:00","2022","02","08","17:00","","M","","M","78","","","","19","","22","","","","99.47","","","","","","NA"
"-81.90","42.25","ERIEAU (AUT)","613KLLM","2022-02-08 18:00","2022","02","08","18:00","","M","","M","78","","","","18","","14","","","","99.44","","","","","","NA"
"-81.90","42.25","ERIEAU (AUT)","613KLLM","2022-02-08 19:00","2022","02","08","19:00","","M","","M","83","","","","16","","9","","","","99.41","","","","","","NA"
"-81.90","42.25","ERIEAU (AUT)","613KLLM","2022-02-08 20:00","2022","02","08","20:00","","M","","M","80","","","","16","","15","","","","99.37","","","","","","NA"
"-81.90","42.25","ERIEAU (AUT)","613KLLM","2022-02-08 21:00","2022","02","08","21:00","","M","","M","80","","","","16","","15","","","","99.28","","","","","","NA"
"-81.90","42.25","ERIEAU (AUT)","613KLLM","2022-02-08 22:00","2022","02","08","22:00","","M","","M","81","","","","15","","18","","","","99.17","","","","","","NA"
"-81.90","42.25","ERIEAU (AUT)","613KLLM","2022-02-08 23:00","2022","02","08","23:00","","M","","M","79","","","","15","","16","","","","99.05","","","","","","NA"
"-81.90","42.25","ERIEAU (AUT)","613KLLM","2022-02-09 00:00","2022","02","09","00:00","","M","","M","80","","","","16","","14","","","","98.94","","","","","","NA"
"-81.90","42.25","ERIEAU (AUT)","613KLLM","2022-02-09 01:00","2022","02","09","01:00","","M","","M","81","","","","18","","15","","","","98.86","","","","","","NA"
"-81.90","42.25","ERIEAU (AUT)","613KLLM","2022-02-09 02:00","2022","02","09","02:00","","M","","M","83","","","","20","","14","","","","98.77","","","","","","NA"
"-81.90","42.25","ERIEAU (AUT)","613KLLM","2022-02-09 03:00","2022","02","09","03:00","","M","","M","86","","","","18","","10","","","","98.71","","","","","","NA"
"-81.90","42.25","ERIEAU (AUT)","613KLLM","2022-02-09 04:00","2022","02","09","04:00","","M","","M","84","","","","19","","21","","","","98.62","","","","","","NA"
"-81.90","42.25","ERIEAU (AUT)","613KLLM","2022-02-09 05:00","2022","02","09","05:00","","M","","M","85","","","","18","","23","","","","98.60","","","","","","NA"
"-81.90","42.25","ERIEAU (AUT)","613KLLM","2022-02-09 06:00","2022","02","09","06:00","","M","","M","82","","","","18","","23","","","","98.55","","","","","","NA"
"-81.90","42.25","ERIEAU (AUT)","613KLLM","2022-02-09 07:00","2022","02","09","07:00","","M","","M","83","","","","18","","21","","","","98.57","","","","","","NA"
"-81.90","42.25","ERIEAU (AUT)","613KLLM","2022-02-09 08:00","2022","02","09","08:00","","M","","M","82","","","","19","","27","","","","98.58","","","","","","NA"
"-81.90","42.25","ERIEAU (AUT)","613KLLM","2022-02-09 09:00","2022","02","09","09:00","","M","","M","80","","","","18","","31","","","","98.58","","","","","","NA"
"-81.90","42.25","ERIEAU (AUT)","613KLLM","2022-02-09 10:00","2022","02","09","10:00","","M","","M","80","","","","19","","29","","","","98.58","","","","","","NA"
"-81.90","42.25","ERIEAU (AUT)","613KLLM","2022-02-09 11:00","2022","02","09","11:00","","M","","M","80","","","","19","","26","","","","98.59","","","","","","NA"
"-81.90","42.25","ERIEAU (AUT)","613KLLM","2022-02-09 12:00","2022","02","09","12:00","","M","","M","81","","","","19","","22","","","","98.55","","","","","","NA"
"-81.90","42.25","ERIEAU (AUT)","613KLLM","2022-02-09 13:00","2022","02","09","13:00","","M","","M","82","","","","19","","21","","","","98.48","","","","","","NA"
"-81.90","42.25","ERIEAU (AUT)","613KLLM","2022-02-09 14:00","2022","02","09","14:00","","M","","M","82","","","","19","","23","","","","98.42","","","","","","NA"
"-81.90","42.25","ERIEAU (AUT)","613KLLM","2022-02-09 15:00","2022","02","09","15:00","","M","","M","82","","","","19","","20","","","","98.38","","","","","","NA"
"-81.90","42.25","ERIEAU (AUT)","613KLLM","2022-02-09 16:00","2022","02","09","16:00","","M","","M","81","","","","20","","22","","","","98.40","","","","","","NA"
"-81.90","42.25","ERIEAU (AUT)","613KLLM","2022-02-09 17:00","2022","02","09","17:00","","M","","M","82","","","","19","","25","","","","98.39","","","","","","NA"
"-81.90","42.25","ERIEAU (AUT)","613KLLM","2022-02-09 18:00","2022","02","09","18:00","","M","","M","83","","","","19","","22","","","","98.44","","","","","","NA"
"-81.90","42.25","ERIEAU (AUT)","613KLLM","2022-02-09 19:00","2022","02","09","19:00","","M","","M","81","","","","20","","30","","","","98.51","","","","","","NA"
"-81.90","42.25","ERIEAU (AUT)","613KLLM","2022-02-09 20:00","2022","02","09","20:00","","M","","M","83","","","","21","","20","","","","98.56","","","","","","NA"
"-81.90","42.25","ERIEAU (AUT)","613KLLM","2022-02-09 21:00","2022","02","09","21:00","","M","","M","86","","","","21","","13","","","","98.56","","","","","","NA"
"-81.90","42.25","ERIEAU (AUT)","613KLLM","2022-02-09 22:00","2022","02","09","22:00","","M","","M","87","","","","22","","14","","","","98.57","","","","","","NA"
"-81.90","42.25","ERIEAU (AUT)","613KLLM","2022-02-09 23:00","2022","02","09","23:00","","M","","M","86","","","","22","","15","","","","98.57","","","","","","NA"
"-81.90","42.25","ERIEAU (AUT)","613KLLM","2022-02-10 00:00","2022","02","10","00:00","","M","","M","90","","","","21","","23","","","","98.55","","","","","","NA"
"-81.90","42.25","ERIEAU (AUT)","613KLLM","2022-02-10 01:00","2022","02","10","01:00","","M","","M","91","","","","21","","22","","","","98.54","","","","","","NA"
"-81.90","42.25","ERIEAU (AUT)","613KLLM","2022-02-10 02:00","2022","02","10","02:00","","M","","M","95","","","","21","","15","","","","98.52","","","","","","NA"
"-81.90","42.25","ERIEAU (AUT)","613KLLM","2022-02-10 03:00","2022","02","10","03:00","","M","","M","96","","","","21","","14","","","","98.52","","","","","","NA"
"-81.90","42.25","ERIEAU (AUT)","613KLLM","2022-02-10 04:00","2022","02","10","04:00","","M","","M","94","","","","22","","14","","","","98.51","","","","","","NA"
"-81.90","42.25","ERIEAU (AUT)","613KLLM","2022-02-10 05:00","2022","02","10","05:00","","M","","M","93","","","","22","","15","","","","98.53","","","","","","NA"
"-81.90","42.25","ERIEAU (AUT)","613KLLM","2022-02-10 06:00","2022","02","10","06:00","","M","","M","92","","","","22","","15","","","","98.59","","","","","","NA"
"-81.90","42.25","ERIEAU (AUT)","613KLLM","2022-02-10 07:00","2022","02","10","07:00","","M","","M","92","","","","22","","15","","","","98.65","","","","","","NA"
"-81.90","42.25","ERIEAU (AUT)","613KLLM","2022-02-10 08:00","2022","02","10","08:00","","M","","M","93","","","","23","","15","","","","98.73","","","","","","NA"
"-81.90","42.25","ERIEAU (AUT)","613KLLM","2022-02-10 09:00","2022","02","10","09:00","","M","","M","97","","","","23","","13","","","","98.81","","","","","","NA"
"-81.90","42.25","ERIEAU (AUT)","613KLLM","2022-02-10 10:00","2022","02","10","10:00","","M","","M","96","","","","23","","13","","","","98.87","","","","","","NA"
"-81.90","42.25","ERIEAU (AUT)","613KLLM","2022-02-10 11:00","2022","02","10","11:00","","M","","M","95","","","","23","","12","","","","98.91","","","","","","NA"
"-81.90","42.25","ERIEAU (AUT)","613KLLM","2022-02-10 12:00","2022","02","10","12:00","","M","","M","91","","","","23","","18","","","","98.95","","","","","","NA"
"-81.90","42.25","ERIEAU (AUT)","613KLLM","2022-02-10 13:00","2022","02","10","13:00","","M","","M","91","","","","24","","17","","","","98.94","","","","","","NA"
"-81.90","42.25","ERIEAU (AUT)","613KLLM","2022-02-10 14:00","2022","02","10","14:00","","M","","M","88","","","","26","","11","","","","98.97","","","","","","NA"
"-81.90","42.25","ERIEAU (AUT)","613KLLM","2022-02-10 15:00","2022","02","10","15:00","","M","","M","85","","","","25","","9","","","","98.98","","","","","","NA"
"-81.90","42.25","ERIEAU (AUT)","613KLLM","2022-02-10 16:00","2022","02","10","16:00","","M","","M","78","","","","24","","23","","","","99.03","","","","","","NA"
"-81.90","42.25","ERIEAU (AUT)","613KLLM","2022-02-10 17:00","2022","02","10","17:00","","M","","M","74","","","","25","","9","","","","99.10","","","","","","NA"
"-81.90","42.25","ERIEAU (AUT)","613KLLM","2022-02-10 18:00","2022","02","10","18:00","","M","","M","76","","","","23","","14","","","","99.10","","","","","","NA"
"-81.90","42.25","ERIEAU (AUT)","613KLLM","2022-02-10 19:00","2022","02","10","19:00","","M","","M","82","","","","21","","19","","","","99.09","","","","","","NA"
"-81.90","42.25","ERIEAU (AUT)","613KLLM","2022-02-10 20:00","2022","02","10","20:00","","M","","M","85","","","","21","","17","","","","99.07","","","","","","NA"
"-81.90","42.25","ERIEAU (AUT)","613KLLM","2022-02-10 21:00","2022","02","10","21:00","","M","","M","80","","","","23","","22","","","","99.06","","","","","","NA"
"-81.90","42.25","ERIEAU (AUT)","613KLLM","2022-02-10 22:00","2022","02","10","22:00","","M","","M","83","","","","22","","15","","","","99.02","","","","","","NA"
"-81.90","42.25","ERIEAU (AUT)","613KLLM","2022-02-10 23:00","2022","02","10","23:00","","M","","M","77","","","","21","","29","","","","98.95","","","","","","NA"
"-81.90","42.25","ERIEAU (AUT)","613KLLM","2022-02-11 00:00","2022","02","11","00:00","","M","","M","82","","","","21","","21","","","","98.89","","","","","","NA"
"-81.90","42.25","ERIEAU (AUT)","613KLLM","2022-02-11 01:00","2022","02","11","01:00","","M","","M","79","","","","21","","16","","","","98.85","","","","","","NA"
"-81.90","42.25","ERIEAU (AUT)","613KLLM","2022-02-11 02:00","2022","02","11","02:00","","M","","M","85","","","","18","","23","","","","98.75","","","","","","NA"
"-81.90","42.25","ERIEAU (AUT)","613KLLM","2022-02-11 03:00","2022","02","11","03:00","","M","","M","87","","","","18","","22","","","","98.70","","","","","","NA"
"-81.90","42.25","ERIEAU (AUT)","613KLLM","2022-02-11 04:00","2022","02","11","04:00","","M","","M","88","","","","17","","25","","","","98.52","","","","","","NA"
"-81.90","42.25","ERIEAU (AUT)","613KLLM","2022-02-11 05:00","2022","02","11","05:00","","M","","M","86","","","","17","","26","","","","98.42","","","","","","NA"
"-81.90","42.25","ERIEAU (AUT)","613KLLM","2022-02-11 06:00","2022","02","11","06:00","","M","","M","80","","","","16","","30","","","","98.26","","","","","","NA"
"-81.90","42.25","ERIEAU (AUT)","613KLLM","2022-02-11 07:00","2022","02","11","07:00","","M","","M","79","","","","17","","31","","","","98.23","","","","","","NA"
"-81.90","42.25","ERIEAU (AUT)","613KLLM","2022-02-11 08:00","2022","02","11","08:00","","M","","M","78","","","","18","","28","","","","98.20","","","","","","NA"
"-81.90","42.25","ERIEAU (AUT)","613KLLM","2022-02-11 09:00","2022","02","11","09:00","","M","","M","79","","","","17","","34","","","","98.10","","","","","","NA"
"-81.90","42.25","ERIEAU (AUT)","613KLLM","2022-02-11 10:00","2022","02","11","10:00","","M","","M","76","","","","18","","33","","","","98.07","","","","","","NA"
"-81.90","42.25","ERIEAU (AUT)","613KLLM","2022-02-11 11:00","2022","02","11","11:00","","M","","M","82","","","","19","","29","","","","98.07","","","","","","NA"
"-81.90","42.25","ERIEAU (AUT)","613KLLM","2022-02-11 12:00","2022","02","11","12:00","","M","","M","79","","","","20","","31","","","","98.04","","","","","","NA"
"-81.90","42.25","ERIEAU (AUT)","613KLLM","2022-02-11 13:00","2022","02","11","13:00","","M","","M","79","","","","21","","33","","","","98.00","","","","","","NA"
"-81.90","42.25","ERIEAU (AUT)","613KLLM","2022-02-11 14:00","2022","02","11","14:00","","M","","M","88","","","","21","","20","","","","97.99","","","","","","NA"
"-81.90","42.25","ERIEAU (AUT)","613KLLM","2022-02-11 15:00","2022","02","11","15:00","","M","","M","89","","","","21","","32","","","","98.01","","","","","","NA"
"-81.90","42.25","ERIEAU (AUT)","613KLLM","2022-02-11 16:00","2022","02","11","16:00","","M","","M","91","","","","20","","33","","","","98.12","","","","","","NA"
"-81.90","42.25","ERIEAU (AUT)","613KLLM","2022-02-11 17:00","2022","02","11","17:00","","M","","M","93","","","","21","","22","","","","98.21","","","","","","NA"
"-81.90","42.25","ERIEAU (AUT)","613KLLM","2022-02-11 18:00","2022","02","11","18:00","","M","","M","96","","","","21","","22","","","","98.30","","","","","","NA"
"-81.90","42.25","ERIEAU (AUT)","613KLLM","2022-02-11 19:00","2022","02","11","19:00","","M","","M","97","","","","21","","21","","","","98.39","","","","","","NA"
"-81.90","42.25","ERIEAU (AUT)","613KLLM","2022-02-11 20:00","2022","02","11","20:00","","M","","M","97","","","","21","","32","","","","98.44","","","","","","NA"
"-81.90","42.25","ERIEAU (AUT)","613KLLM","2022-02-11 21:00","2022","02","11","21:00","","M","","M","97","","","","22","","18","","","","98.47","","","","","","NA"
"-81.90","42.25","ERIEAU (AUT)","613KLLM","2022-02-11 22:00","2022","02","11","22:00","","M","","M","96","","","","22","","17","","","","98.52","","","","","","NA"
"-81.90","42.25","ERIEAU (AUT)","613KLLM","2022-02-11 23:00","2022","02","11","23:00","","M","","M","95","","","","21","","19","","","","98.56","","","","","","NA"
"-81.90","42.25","ERIEAU (AUT)","613KLLM","2022-02-12 00:00","2022","02","12","00:00","","M","","M","94","","","","21","","21","","","","98.62","","","","","","NA"
"-81.90","42.25","ERIEAU (AUT)","613KLLM","2022-02-12 01:00","2022","02","12","01:00","","M","","M","95","","","","21","","17","","","","98.64","","","","","","NA"
"-81.90","42.25","ERIEAU (AUT)","613KLLM","2022-02-12 02:00","2022","02","12","02:00","","M","","M","94","","","","22","","19","","","","98.67","","","","","","NA"
"-81.90","42.25","ERIEAU (AUT)","613KLLM","2022-02-12 03:00","2022","02","12","03:00","","M","","M","90","","","","23","","20","","","","98.76","","","","","","NA"
"-81.90","42.25","ERIEAU (AUT)","613KLLM","2022-02-12 04:00","2022","02","12","04:00","","M","","M","85","","","","28","","20","","","","98.92","","","","","","NA"
"-81.90","42.25","ERIEAU (AUT)","613KLLM","2022-02-12 05:00","2022","02","12","05:00","","M","","M","77","","","","28","","21","","","","99.13","","","","","","NA"
"-81.90","42.25","ERIEAU (AUT)","613KLLM","2022-02-12 06:00","2022","02","12","06:00","","M","","M","73","","","","27","","18","","","","99.28","","","","","","NA"
"-81.90","42.25","ERIEAU (AUT)","613KLLM","2022-02-12 07:00","2022","02","12","07:00","","M","","M","72","","","","27","","18","","","","99.45","","","","","","NA"
"-81.90","42.25","ERIEAU (AUT)","613KLLM","2022-02-12 08:00","2022","02","12","08:00","","M","","M","73","","","","29","","21","","","","99.57","","","","","","NA"
"-81.90","42.25","ERIEAU (AUT)","613KLLM","2022-02-12 09:00","2022","02","12","09:00","","M","","M","71","","","","28","","16","","","","99.72","","","","","","NA"
"-81.90","42.25","ERIEAU (AUT)","613KLLM","2022-02-12 10:00","2022","02","12","10:00","","M","","M","68","","","","27","","18","","","","99.89","","","","","","NA"
"-81.90","42.25","ERIEAU (AUT)","613KLLM","2022-02-12 11:00","2022","02","12","11:00","","M","","M","67","","","","27","","16","","","","99.99","","","","","","NA"
"-81.90","42.25","ERIEAU (AUT)","613KLLM","2022-02-12 12:00","2022","02","12","12:00","","M","","M","84","","","","32","","14","","","","100.04","","","","","","NA"
"-81.90","42.25","ERIEAU (AUT)","613KLLM","2022-02-12 13:00","2022","02","12","13:00","","M","","M","77","","","","29","","11","","","","100.09","","","","","","NA"
"-81.90","42.25","ERIEAU (AUT)","613KLLM","2022-02-12 14:00","2022","02","12","14:00","","M","","M","70","","","","31","","11","","","","100.11","","","","","","NA"
"-81.90","42.25","ERIEAU (AUT)","613KLLM","2022-02-12 15:00","2022","02","12","15:00","","M","","M","70","","","","31","","10","","","","100.15","","","","","","NA"
"-81.90","42.25","ERIEAU (AUT)","613KLLM","2022-02-12 16:00","2022","02","12","16:00","","M","","M","69","","","","32","","11","","","","100.19","","","","","","NA"
"-81.90","42.25","ERIEAU (AUT)","613KLLM","2022-02-12 17:00","2022","02","12","17:00","","M","","M","75","","","","34","","9","","","","100.26","","","","","","NA"
"-81.90","42.25","ERIEAU (AUT)","613KLLM","2022-02-12 18:00","2022","02","12","18:00","","M","","M","75","","","","34","","11","","","","100.29","","","","","","NA"
"-81.90","42.25","ERIEAU (AUT)","613KLLM","2022-02-12 19:00","2022","02","12","19:00","","M","","M","76","","","","35","","14","","","","100.32","","","","","","NA"
"-81.90","42.25","ERIEAU (AUT)","613KLLM","2022-02-12 20:00","2022","02","12","20:00","","M","","M","72","","","","36","","13","","","","100.36","","","","","","NA"
"-81.90","42.25","ERIEAU (AUT)","613KLLM","2022-02-12 21:00","2022","02","12","21:00","","M","","M","68","","","","34","","13","","","","100.37","","","","","","NA"
"-81.90","42.25","ERIEAU (AUT)","613KLLM","2022-02-12 22:00","2022","02","12","22:00","","M","","M","71","","","","34","","12","","","","100.40","","","","","","NA"
"-81.90","42.25","ERIEAU (AUT)","613KLLM","2022-02-12 23:00","2022","02","12","23:00","","M","","M","73","","","","36","","9","","","","100.39","","","","","","NA"
"-81.90","42.25","ERIEAU (AUT)","613KLLM","2022-02-13 00:00","2022","02","13","00:00","","M","","M","71","","","","36","","5","","","","100.40","","","","","","NA"
"-81.90","42.25","ERIEAU (AUT)","613KLLM","2022-02-13 01:00","2022","02","13","01:00","","M","","M","70","","","","3","","5","","","","100.38","","","","","","NA"
"-81.90","42.25","ERIEAU (AUT)","613KLLM","2022-02-13 02:00","2022","02","13","02:00","","M","","M","72","","","","1","","7","","","","100.35","","","","","","NA"
"-81.90","42.25","ERIEAU (AUT)","613KLLM","2022-02-13 03:00","2022","02","13","03:00","","M","","M","73","","","","2","","7","","","","100.31","","","","","","NA"
"-81.90","42.25","ERIEAU (AUT)","613KLLM","2022-02-13 04:00","2022","02","13","04:00","","M","","M","72","","","","6","","4","","","","100.28","","","","","","NA"
"-81.90","42.25","ERIEAU (AUT)","613KLLM","2022-02-13 05:00","2022","02","13","05:00","","M","","M","67","","","","9","","5","","","","100.25","","","","","","NA"
"-81.90","42.25","ERIEAU (AUT)","613KLLM","2022-02-13 06:00","2022","02","13","06:00","","M","","M","65","","","","0","","1","","","","100.28","","","","","","NA"
"-81.90","42.25","ERIEAU (AUT)","613KLLM","2022-02-13 07:00","2022","02","13","07:00","","M","","M","60","","","","10","","1","","","","100.26","","","","","","NA"
"-81.90","42.25","ERIEAU (AUT)","613KLLM","2022-02-13 08:00","2022","02","13","08:00","","M","","M","63","","","","29","","1","","","","100.26","","","","","","NA"
"-81.90","42.25","ERIEAU (AUT)","613KLLM","2022-02-13 09:00","2022","02","13","09:00","","M","","M","65","","","","18","","1","","","","100.27","","","","","","NA"
"-81.90","42.25","ERIEAU (AUT)","613KLLM","2022-02-13 10:00","2022","02","13","10:00","","M","","M","66","","","","10","","2","","","","100.27","","","","","","NA"
"-81.90","42.25","ERIEAU (AUT)","613KLLM","2022-02-13 11:00","2022","02","13","11:00","","M","","M","61","","","","10","","2","","","","100.27","","","","","","NA"
"-81.90","42.25","ERIEAU (AUT)","613KLLM","2022-02-13 12:00","2022","02","13","12:00","","M","","M","82","","","","32","","7","","","","100.26","","","","","","NA"
"-81.90","42.25","ERIEAU (AUT)","613KLLM","2022-02-13 13:00","2022","02","13","13:00","","M","","M","67","","","","28","","4","","","","100.17","","","","","","NA"
"-81.90","42.25","ERIEAU (AUT)","613KLLM","2022-02-13 14:00","2022","02","13","14:00","","M","","M","63","","","","29","","6","","","","100.08","","","","","","NA"
"-81.90","42.25","ERIEAU (AUT)","613KLLM","2022-02-13 15:00","2022","02","13","15:00","","M","","M","87","","","","1","","8","","","","100.05","","","","","","NA"
"-81.90","42.25","ERIEAU (AUT)","613KLLM","2022-02-13 16:00","2022","02","13","16:00","","M","","M","87","","","","6","","7","","","","100.04","","","","","","NA"
"-81.90","42.25","ERIEAU (AUT)","613KLLM","2022-02-13 17:00","2022","02","13","17:00","","M","","M","92","","","","1","","6","","","","100.05","","","","","","NA"
"-81.90","42.25","ERIEAU (AUT)","613KLLM","2022-02-13 18:00","2022","02","13","18:00","","M","","M","93","","","","2","","7","","","","100.05","","","","","","NA"
"-81.90","42.25","ERIEAU (AUT)","613KLLM","2022-02-13 19:00","2022","02","13","19:00","","M","","M","93","","","","35","","10","","","","100.09","","","","","","NA"
"-81.90","42.25","ERIEAU (AUT)","613KLLM","2022-02-13 20:00","2022","02","13","20:00","","M","","M","92","","","","35","","8","","","","100.12","","","","","","NA"
"-81.90","42.25","ERIEAU (AUT)","613KLLM","2022-02-13 21:00","2022","02","13","21:00","","M","","M","91","","","","32","","7","","","","100.15","","","","","","NA"
"-81.90","42.25","ERIEAU (AUT)","613KLLM","2022-02-13 22:00","2022","02","13","22:00","","M","","M","88","","","","31","","5","","","","100.17","","","","","","NA"
"-81.90","42.25","ERIEAU (AUT)","613KLLM","2022-02-13 23:00","2022","02","13","23:00","","M","","M","86","","","","31","","6","","","","100.18","","","","","","NA"
"-81.90","42.25","ERIEAU (AUT)","613KLLM","2022-02-14 00:00","2022","02","14","00:00","","M","","M","82","","","","30","","7","","","","100.15","","","","","","NA"
"-81.90","42.25","ERIEAU (AUT)","613KLLM","2022-02-14 01:00","2022","02","14","01:00","","M","","M","79","","","","29","","6","","","","100.12","","","","","","NA"
"-81.90","42.25","ERIEAU (AUT)","613KLLM","2022-02-14 02:00","2022","02","14","02:00","","M","","M","77","","","","29","","9","","","","100.14","","","","","","NA"
"-81.90","42.25","ERIEAU (AUT)","613KLLM","2022-02-14 03:00","2022","02","14","03:00","","M","","M","77","","","","30","","7","","","","100.15","","","","","","NA"
"-81.90","42.25","ERIEAU (AUT)","613KLLM","2022-02-14 04:00","2022","02","14","04:00","","M","","M","80","","","","29","","8","","","","100.15","","","","","","NA"
"-81.90","42.25","ERIEAU (AUT)","613KLLM","2022-02-14 05:00","2022","02","14","05:00","","M","","M","83","","","","29","","9","","","","100.17","","","","","","NA"
"-81.90","42.25","ERIEAU (AUT)","613KLLM","2022-02-14 06:00","2022","02","14","06:00","","M","","M","83","","","","29","","10","","","","100.22","","","","","","NA"
"-81.90","42.25","ERIEAU (AUT)","613KLLM","2022-02-14 07:00","2022","02","14","07:00","","M","","M","82","","","","29","","8","","","","100.26","","","","","","NA"
"-81.90","42.25","ERIEAU (AUT)","613KLLM","2022-02-14 08:00","2022","02","14","08:00","","M","","M","81","","","","30","","5","","","","100.34","","","","","","NA"
"-81.90","42.25","ERIEAU (AUT)","613KLLM","2022-02-14 09:00","2022","02","14","09:00","","M","","M","75","","","","29","","6","","","","100.40","","","","","","NA"
"-81.90","42.25","ERIEAU (AUT)","613KLLM","2022-02-14 10:00","2022","02","14","10:00","","M","","M","63","","","","30","","7","","","","100.46","","","","","","NA"
"-81.90","42.25","ERIEAU (AUT)","613KLLM","2022-02-14 11:00","2022","02","14","11:00","","M","","M","54","","","","29","","9","","","","100.50","","","","","","NA"
"-81.90","42.25","ERIEAU (AUT)","613KLLM","2022-02-14 12:00","2022","02","14","12:00","","M","","M","54","","","","26","","13","","","","100.54","","","","","","NA"
"-81.90","42.25","ERIEAU (AUT)","613KLLM","2022-02-14 13:00","2022","02","14","13:00","","M","","M","53","","","","26","","13","","","","100.51","","","","","","NA"
"-81.90","42.25","ERIEAU (AUT)","613KLLM","2022-02-14 14:00","2022","02","14","14:00","","M","","M","53","","","","24","","11","","","","100.49","","","","","","NA"
"-81.90","42.25","ERIEAU (AUT)","613KLLM","2022-02-14 15:00","2022","02","14","15:00","","M","","M","54","","","","26","","10","","","","100.48","","","","","","NA"
"-81.90","42.25","ERIEAU (AUT)","613KLLM","2022-02-14 16:00","2022","02","14","16:00","","M","","M","67","","","","20","","19","","","","100.50","","","","","","NA"
"-81.90","42.25","ERIEAU (AUT)","613KLLM","2022-02-14 17:00","2022","02","14","17:00","","M","","M","67","","","","20","","16","","","","100.55","","","","","","NA"
"-81.90","42.25","ERIEAU (AUT)","613KLLM","2022-02-14 18:00","2022","02","14","18:00","","M","","M","71","","","","19","","14","","","","100.61","","","","","","NA"
"-81.90","42.25","ERIEAU (AUT)","613KLLM","2022-02-14 19:00","2022","02","14","19:00","","M","","M","68","","","","19","","13","","","","100.70","","","","","","NA"
"-81.90","42.25","ERIEAU (AUT)","613KLLM","2022-02-14 20:00","2022","02","14","20:00","","M","","M","75","","","","17","","12","","","","100.73","","","","","","NA"
"-81.90","42.25","ERIEAU (AUT)","613KLLM","2022-02-14 21:00","2022","02","14","21:00","","M","","M","80","","","","16","","13","","","","100.76","","","","","","NA"
"-81.90","42.25","ERIEAU (AUT)","613KLLM","2022-02-14 22:00","2022","02","14","22:00","","M","","M","81","","","","17","","16","","","","100.78","","","","","","NA"
"-81.90","42.25","ERIEAU (AUT)","613KLLM","2022-02-14 23:00","2022","02","14","23:00","","M","","M","80","","","","18","","15","","","","100.83","","","","","","NA"
"-81.90","42.25","ERIEAU (AUT)","613KLLM","2022-02-15 00:00","2022","02","15","00:00","","M","","M","81","","","","17","","13","","","","100.82","","","","","","NA"
"-81.90","42.25","ERIEAU (AUT)","613KLLM","2022-02-15 01:00","2022","02","15","01:00","","M","","M","79","","","","21","","15","","","","100.84","","","","","","NA"
"-81.90","42.25","ERIEAU (AUT)","613KLLM","2022-02-15 02:00","2022","02","15","02:00","","M","","M","83","","","","22","","11","","","","100.85","","","","","","NA"
"-81.90","42.25","ERIEAU (AUT)","613KLLM","2022-02-15 03:00","2022","02","15","03:00","","M","","M","82","","","","22","","12","","","","100.91","","","","","","NA"
"-81.90","42.25","ERIEAU (AUT)","613KLLM","2022-02-15 04:00","2022","02","15","04:00","","M","","M","73","","","","26","","8","","","","100.94","","","","","","NA"
"-81.90","42.25","ERIEAU (AUT)","613KLLM","2022-02-15 05:00","2022","02","15","05:00","","M","","M","68","","","","25","","5","","","","100.99","","","","","","NA"
"-81.90","42.25","ERIEAU (AUT)","613KLLM","2022-02-15 06:00","2022","02","15","06:00","","M","","M","69","","","","26","","5","","","","101.06","","","","","","NA"
"-81.90","42.25","ERIEAU (AUT)","613KLLM","2022-02-15 07:00","2022","02","15","07:00","","M","","M","71","","","","26","","6","","","","101.16","","","","","","NA"
"-81.90","42.25","ERIEAU (AUT)","613KLLM","2022-02-15 08:00","2022","02","15","08:00","","M","","M","70","","","","25","","3","","","","101.22","","","","","","NA"
"-81.90","42.25","ERIEAU (AUT)","613KLLM","2022-02-15 09:00","2022","02","15","09:00","","M","","M","73","","","","24","","5","","","","101.29","","","","","","NA"
"-81.90","42.25","ERIEAU (AUT)","613KLLM","2022-02-15 10:00","2022","02","15","10:00","","M","","M","69","","","","13","","2","","","","101.34","","","","","","NA"
"-81.90","42.25","ERIEAU (AUT)","613KLLM","2022-02-15 11:00","2022","02","15","11:00","","M","","M","71","","","","19","","6","","","","101.40","","","","","","NA"
"-81.90","42.25","ERIEAU (AUT)","613KLLM","2022-02-15 12:00","2022","02","15","12:00","","M","","M","69","","","","17","","8","","","","101.41","","","","","","NA"
"-81.90","42.25","ERIEAU (AUT)","613KLLM","2022-02-15 13:00","2022","02","15","13:00","","M","","M","66","","","","14","","7","","","","101.35","","","","","","NA"
"-81.90","42.25","ERIEAU (AUT)","613KLLM","2022-02-15 14:00","2022","02","15","14:00","","M","","M","66","","","","9","","8","","","","101.26","","","","","","NA"
"-81.90","42.25","ERIEAU (AUT)","613KLLM","2022-02-15 15:00","2022","02","15","15:00","","M","","M","71","","","","12","","13","","","","101.21","","","","","","NA"
"-81.90","42.25","ERIEAU (AUT)","613KLLM","2022-02-15 16:00","2022","02","15","16:00","","M","","M","67","","","","12","","10","","","","101.17","","","","","","NA"
"-81.90","42.25","ERIEAU (AUT)","613KLLM","2022-02-15 17:00","2022","02","15","17:00","","M","","M","71","","","","7","","10","","","","101.14","","","","","","NA"
"-81.90","42.25","ERIEAU (AUT)","613KLLM","2022-02-15 18:00","2022","02","15","18:00","","M","","M","74","","","","7","","16","","","","101.05","","","","","","NA"
"-81.90","42.25","ERIEAU (AUT)","613KLLM","2022-02-15 19:00","2022","02","15","19:00","","M","","M","77","","","","7","","19","","","","100.99","","","","","","NA"
"-81.90","42.25","ERIEAU (AUT)","613KLLM","2022-02-15 20:00","2022","02","15","20:00","","M","","M","79","","","","8","","25","","","","100.86","","","","","","NA"
"-81.90","42.25","ERIEAU (AUT)","613KLLM","2022-02-15 21:00","2022","02","15","21:00","","M","","M","85","","","","8","","25","","","","100.75","","","","","","NA"
"-81.90","42.25","ERIEAU (AUT)","613KLLM","2022-02-15 22:00","2022","02","15","22:00","","M","","M","85","","","","8","","24","","","","100.67","","","","","","NA"
"-81.90","42.25","ERIEAU (AUT)","613KLLM","2022-02-15 23:00","2022","02","15","23:00","","M","","M","85","","","","8","","25","","","","100.52","","","","","","NA"
"-81.90","42.25","ERIEAU (AUT)","613KLLM","2022-02-16 00:00","2022","02","16","00:00","","M","","M","83","","","","8","","20","","","","100.38","","","","","","NA"
"-81.90","42.25","ERIEAU (AUT)","613KLLM","2022-02-16 01:00","2022","02","16","01:00","","M","","M","80","","","","9","","16","","","","100.25","","","","","","NA"
"-81.90","42.25","ERIEAU (AUT)","613KLLM","2022-02-16 02:00","2022","02","16","02:00","","M","","M","82","","","","8","","13","","","","100.16","","","","","","NA"
"-81.90","42.25","ERIEAU (AUT)","613KLLM","2022-02-16 03:00","2022","02","16","03:00","","M","","M","78","","","","12","","16","","","","100.05","","","","","","NA"
"-81.90","42.25","ERIEAU (AUT)","613KLLM","2022-02-16 04:00","2022","02","16","04:00","","M","","M","81","","","","15","","8","","","","99.96","","","","","","NA"
"-81.90","42.25","ERIEAU (AUT)","613KLLM","2022-02-16 05:00","2022","02","16","05:00","","M","","M","78","","","","18","","11","","","","99.89","","","","","","NA"
"-81.90","42.25","ERIEAU (AUT)","613KLLM","2022-02-16 06:00","2022","02","16","06:00","","M","","M","74","","","","17","","31","","","","99.86","","","","","","NA"
"-81.90","42.25","ERIEAU (AUT)","613KLLM","2022-02-16 07:00","2022","02","16","07:00","","M","","M","72","","","","17","","33","","","","99.83","","","","","","NA"
"-81.90","42.25","ERIEAU (AUT)","613KLLM","2022-02-16 08:00","2022","02","16","08:00","","M","","M","70","","","","17","","39","","","","99.77","","","","","","NA"
"-81.90","42.25","ERIEAU (AUT)","613KLLM","2022-02-16 09:00","2022","02","16","09:00","","M","","M","70","","","","17","","40","","","","99.75","","","","","","NA"
"-81.90","42.25","ERIEAU (AUT)","613KLLM","2022-02-16 10:00","2022","02","16","10:00","","M","","M","69","","","","17","","40","","","","99.71","","","","","","NA"
"-81.90","42.25","ERIEAU (AUT)","613KLLM","2022-02-16 11:00","2022","02","16","11:00","","M","","M","69","","","","17","","40","","","","99.67","","","","","","NA"
"-81.90","42.25","ERIEAU (AUT)","613KLLM","2022-02-16 12:00","2022","02","16","12:00","","M","","M","69","","","","17","","41","","","","99.63","","","","","","NA"
"-81.90","42.25","ERIEAU (AUT)","613KLLM","2022-02-16 13:00","2022","02","16","13:00","","M","","M","70","","","","18","","34","","","","99.51","","","","","","NA"
"-81.90","42.25","ERIEAU (AUT)","613KLLM","2022-02-16 14:00","2022","02","16","14:00","","M","","M","73","","","","19","","37","","","","99.43","","","","","","NA"
"-81.90","42.25","ERIEAU (AUT)","613KLLM","2022-02-16 15:00","2022","02","16","15:00","","M","","M","74","","","","19","","35","","","","99.36","","","","","","NA"
"-81.90","42.25","ERIEAU (AUT)","613KLLM","2022-02-16 16:00","2022","02","16","16:00","","M","","M","75","","","","18","","30","","","","99.33","","","","","","NA"
"-81.90","42.25","ERIEAU (AUT)","613KLLM","2022-02-16 17:00","2022","02","16","17:00","","M","","M","77","","","","17","","26","","","","99.30","","","","","","NA"
"-81.90","42.25","ERIEAU (AUT)","613KLLM","2022-02-16 18:00","2022","02","16","18:00","","M","","M","78","","","","18","","22","","","","99.30","","","","","","NA"
"-81.90","42.25","ERIEAU (AUT)","613KLLM","2022-02-16 19:00","2022","02","16","19:00","","M","","M","79","","","","18","","19","","","","99.34","","","","","","NA"
"-81.90","42.25","ERIEAU (AUT)","613KLLM","2022-02-16 20:00","2022","02","16","20:00","","M","","M","79","","","","18","","24","","","","99.33","","","","","","NA"
"-81.90","42.25","ERIEAU (AUT)","613KLLM","2022-02-16 21:00","2022","02","16","21:00","","M","","M","80","","","","18","","26","","","","99.31","","","","","","NA"
"-81.90","42.25","ERIEAU (AUT)","613KLLM","2022-02-16 22:00","2022","02","16","22:00","","M","","M","82","","","","18","","23","","","","99.28","","","","","","NA"
"-81.90","42.25","ERIEAU (AUT)","613KLLM","2022-02-16 23:00","2022","02","16","23:00","","M","","M","81","","","","18","","23","","","","99.20","","","","","","NA"
"-81.90","42.25","ERIEAU (AUT)","613KLLM","2022-02-17 00:00","2022","02","17","00:00","","M","","M","82","","","","17","","23","","","","99.08","","","","","","NA"
"-81.90","42.25","ERIEAU (AUT)","613KLLM","2022-02-17 01:00","2022","02","17","01:00","","M","","M","81","","","","18","","26","","","","99.03","","","","","","NA"
"-81.90","42.25","ERIEAU (AUT)","613KLLM","2022-02-17 02:00","2022","02","17","02:00","","M","","M","85","","","","24","","10","","","","98.96","","","","","","NA"
"-81.90","42.25","ERIEAU (AUT)","613KLLM","2022-02-17 03:00","2022","02","17","03:00","","M","","M","80","","","","18","","34","","","","98.83","","","","","","NA"
"-81.90","42.25","ERIEAU (AUT)","613KLLM","2022-02-17 04:00","2022","02","17","04:00","","M","","M","81","","","","18","","31","","","","98.77","","","","","","NA"
"-81.90","42.25","ERIEAU (AUT)","613KLLM","2022-02-17 05:00","2022","02","17","05:00","","M","","M","86","","","","22","","12","","","","98.76","","","","","","NA"
"-81.90","42.25","ERIEAU (AUT)","613KLLM","2022-02-17 06:00","2022","02","17","06:00","","M","","M","90","","","","27","","13","","","","98.89","","","","","","NA"
"-81.90","42.25","ERIEAU (AUT)","613KLLM","2022-02-17 07:00","2022","02","17","07:00","","M","","M","92","","","","25","","8","","","","98.91","","","","","","NA"
"-81.90","42.25","ERIEAU (AUT)","613KLLM","2022-02-17 08:00","2022","02","17","08:00","","M","","M","96","","","","22","","11","","","","98.95","","","","","","NA"
"-81.90","42.25","ERIEAU (AUT)","613KLLM","2022-02-17 09:00","2022","02","17","09:00","","M","","M","98","","","","22","","18","","","","99.00","","","","","","NA"
"-81.90","42.25","ERIEAU (AUT)","613KLLM","2022-02-17 10:00","2022","02","17","10:00","","M","","M","99","","","","33","","12","","","","98.95","","","","","","NA"
"-81.90","42.25","ERIEAU (AUT)","613KLLM","2022-02-17 11:00","2022","02","17","11:00","","M","","M","100","","","","33","","22","","","","98.98","","","","","","NA"
"-81.90","42.25","ERIEAU (AUT)","613KLLM","2022-02-17 12:00","2022","02","17","12:00","","M","","M","100","","","","34","","20","","","","98.94","","","","","","NA"
"-81.90","42.25","ERIEAU (AUT)","613KLLM","2022-02-17 13:00","2022","02","17","13:00","","M","","M","99","","","","35","","8","","","","98.80","","","","","","NA"
"-81.90","42.25","ERIEAU (AUT)","613KLLM","2022-02-17 14:00","2022","02","17","14:00","","M","","M","97","","","","35","","5","","","","98.65","","","","","","NA"
"-81.90","42.25","ERIEAU (AUT)","613KLLM","2022-02-17 15:00","2022","02","17","15:00","","M","","M","95","","","","35","","5","","","","98.59","","","","","","NA"
"-81.90","42.25","ERIEAU (AUT)","613KLLM","2022-02-17 16:00","2022","02","17","16:00","","M","","M","93","","","","34","","4","","","","98.52","","","","","","NA"
"-81.90","42.25","ERIEAU (AUT)","613KLLM","2022-02-17 17:00","2022","02","17","17:00","","M","","M","93","","","","36","","3","","","","98.38","","","","","","NA"
"-81.90","42.25","ERIEAU (AUT)","613KLLM","2022-02-17 18:00","2022","02","17","18:00","","M","","M","93","","","","34","","3","","","","98.45","","","","","","NA"
"-81.90","42.25","ERIEAU (AUT)","613KLLM","2022-02-17 19:00","2022","02","17","19:00","","M","","M","93","","","","34","","3","","","","98.39","","","","","","NA"
"-81.90","42.25","ERIEAU (AUT)","613KLLM","2022-02-17 20:00","2022","02","17","20:00","","M","","M","96","","","","1","","4","","","","98.18","","","","","","NA"
"-81.90","42.25","ERIEAU (AUT)","613KLLM","2022-02-17 21:00","2022","02","17","21:00","","M","","M","96","","","","33","","2","","","","98.25","","","","","","NA"
"-81.90","42.25","ERIEAU (AUT)","613KLLM","2022-02-17 22:00","2022","02","17","22:00","","M","","M","96","","","","34","","3","","","","98.24","","","","","","NA"
"-81.90","42.25","ERIEAU (AUT)","613KLLM","2022-02-17 23:00","2022","02","17","23:00","","M","","M","96","","","","33","","2","","","","98.33","","","","","","NA"
"-81.90","42.25","ERIEAU (AUT)","613KLLM","2022-02-18 00:00","2022","02","18","00:00","","M","","M","97","","","","33","","2","","","","98.37","","","","","","NA"
"-81.90","42.25","ERIEAU (AUT)","613KLLM","2022-02-18 01:00","2022","02","18","01:00","","M","","M","97","","","","30","","2","","","","98.57","","","","","","NA"
"-81.90","42.25","ERIEAU (AUT)","613KLLM","2022-02-18 02:00","2022","02","18","02:00","","M","","M","96","","","","29","","2","","","","98.78","","","","","","NA"
"-81.90","42.25","ERIEAU (AUT)","613KLLM","2022-02-18 03:00","2022","02","18","03:00","","M","","M","95","","","","29","","2","","","","98.94","","","","","","NA"
"-81.90","42.25","ERIEAU (AUT)","613KLLM","2022-02-18 04:00","2022","02","18","04:00","","M","","M","92","","","","29","","2","","","","99.11","","","","","","NA"
"-81.90","42.25","ERIEAU (AUT)","613KLLM","2022-02-18 05:00","2022","02","18","05:00","","M","","M","90","","","","29","","2","","","","99.31","","","","","","NA"
"-81.90","42.25","ERIEAU (AUT)","613KLLM","2022-02-18 06:00","2022","02","18","06:00","","M","","M","86","","","","28","","2","","","","99.49","","","","","","NA"
"-81.90","42.25","ERIEAU (AUT)","613KLLM","2022-02-18 07:00","2022","02","18","07:00","","M","","M","85","","","","28","","2","","","","99.65","","","","","","NA"
"-81.90","42.25","ERIEAU (AUT)","613KLLM","2022-02-18 08:00","2022","02","18","08:00","","M","","M","84","","","","28","","1","","","","99.81","","","","","","NA"
"-81.90","42.25","ERIEAU (AUT)","613KLLM","2022-02-18 09:00","2022","02","18","09:00","","M","","M","81","","","","29","","2","","","","99.91","","","","","","NA"
"-81.90","42.25","ERIEAU (AUT)","613KLLM","2022-02-18 10:00","2022","02","18","10:00","","M","","M","75","","","","0","","1","","","","99.94","","","","","","NA"
"-81.90","42.25","ERIEAU (AUT)","613KLLM","2022-02-18 11:00","2022","02","18","11:00","","M","","M","73","","","","0","","1","","","","99.96","","","","","","NA"
"-81.90","42.25","ERIEAU (AUT)","613KLLM","2022-02-18 12:00","2022","02","18","12:00","","M","","M","71","","","","0","","1","","","","99.98","","","","","","NA"
"-81.90","42.25","ERIEAU (AUT)","613KLLM","2022-02-18 13:00","2022","02","18","13:00","","M","","M","72","","","","0","","1","","","","99.93","","","","","","NA"
"-81.90","42.25","ERIEAU (AUT)","613KLLM","2022-02-18 14:00","2022","02","18","14:00","","M","","M","72","","","","0","","1","","","","99.87","","","","","","NA"
"-81.90","42.25","ERIEAU (AUT)","613KLLM","2022-02-18 15:00","2022","02","18","15:00","","M","","M","75","","","","21","","2","","","","99.85","","","","","","NA"
"-81.90","42.25","ERIEAU (AUT)","613KLLM","2022-02-18 16:00","2022","02","18","16:00","","M","","M","78","","","","21","","2","","","","99.79","","","","","","NA"
"-81.90","42.25","ERIEAU (AUT)","613KLLM","2022-02-18 17:00","2022","02","18","17:00","","M","","M","76","","","","21","","2","","","","99.71","","","","","","NA"
"-81.90","42.25","ERIEAU (AUT)","613KLLM","2022-02-18 18:00","2022","02","18","18:00","","M","","M","75","","","","20","","4","","","","99.54","","","","","","NA"
"-81.90","42.25","ERIEAU (AUT)","613KLLM","2022-02-18 19:00","2022","02","18","19:00","","M","","M","79","","","","19","","4","","","","99.46","","","","","","NA"
"-81.90","42.25","ERIEAU (AUT)","613KLLM","2022-02-18 20:00","2022","02","18","20:00","","M","","M","80","","","","19","","5","","","","99.36","","","","","","NA"
"-81.90","42.25","ERIEAU (AUT)","613KLLM","2022-02-18 21:00","2022","02","18","21:00","","M","","M","74","","","","19","","6","","","","99.16","","","","","","NA"
"-81.90","42.25","ERIEAU (AUT)","613KLLM","2022-02-18 22:00","2022","02","18","22:00","","M","","M","77","","","","19","","7","","","","98.98","","","","","","NA"
"-81.90","42.25","ERIEAU (AUT)","613KLLM","2022-02-18 23:00","2022","02","18","23:00","","M","","M","74","","","","20","","8","","","","98.92","","","","","","NA"
"-81.90","42.25","ERIEAU (AUT)","613KLLM","2022-02-19 00:00","2022","02","19","00:00","","M","","M","74","","","","20","","8","","","","98.73","","","","","","NA"
"-81.90","42.25","ERIEAU (AUT)","613KLLM","2022-02-19 01:00","2022","02","19","01:00","","M","","M","71","","","","21","","37","","","","98.63","","","","","","NA"
"-81.90","42.25","ERIEAU (AUT)","613KLLM","2022-02-19 02:00","2022","02","19","02:00","","M","","M","69","","","","22","","27","","","","98.56","","","","","","NA"
"-81.90","42.25","ERIEAU (AUT)","613KLLM","2022-02-19 03:00","2022","02","19","03:00","","M","","M","82","","","","22","","27","","","","98.51","","","","","","NA"
"-81.90","42.25","ERIEAU (AUT)","613KLLM","2022-02-19 04:00","2022","02","19","04:00","","M","","M","81","","","","23","","26","","","","98.49","","","","","","NA"
"-81.90","42.25","ERIEAU (AUT)","613KLLM","2022-02-19 05:00","2022","02","19","05:00","","M","","M","91","","","","27","","22","","","","98.65","","","","","","NA"
"-81.90","42.25","ERIEAU (AUT)","613KLLM","2022-02-19 06:00","2022","02","19","06:00","","M","","M","83","","","","28","","21","","","","98.89","","","","","","NA"
"-81.90","42.25","ERIEAU (AUT)","613KLLM","2022-02-19 07:00","2022","02","19","07:00","","M","","M","68","","","","28","","24","","","","99.19","","","","","","NA"
"-81.90","42.25","ERIEAU (AUT)","613KLLM","2022-02-19 08:00","2022","02","19","08:00","","M","","M","65","","","","27","","21","","","","99.46","","","","","","NA"
"-81.90","42.25","ERIEAU (AUT)","613KLLM","2022-02-19 09:00","2022","02","19","09:00","","M","","M","62","","","","27","","22","","","","99.70","","","","","","NA"
"-81.90","42.25","ERIEAU (AUT)","613KLLM","2022-02-19 10:00","2022","02","19","10:00","","M","","M","66","","","","27","","23","","","","99.82","","","","","","NA"
"-81.90","42.25","ERIEAU (AUT)","613KLLM","2022-02-19 11:00","2022","02","19","11:00","","M","","M","62","","","","27","","24","","","","99.95","","","","","","NA"
"-81.90","42.25","ERIEAU (AUT)","613KLLM","2022-02-19 12:00","2022","02","19","12:00","","M","","M","61","","","","27","","24","","","","100.12","","","","","","NA"
"-81.90","42.25","ERIEAU (AUT)","613KLLM","2022-02-19 13:00","2022","02","19","13:00","","M","","M","57","","","","27","","23","","","","100.24","","","","","","NA"
"-81.90","42.25","ERIEAU (AUT)","613KLLM","2022-02-19 14:00","2022","02","19","14:00","","M","","M","55","","","","27","","22","","","","100.32","","","","","","NA"
"-81.90","42.25","ERIEAU (AUT)","613KLLM","2022-02-19 15:00","2022","02","19","15:00","","M","","M","54","","","","27","","19","","","","100.40","","","","","","NA"
"-81.90","42.25","ERIEAU (AUT)","613KLLM","2022-02-19 16:00","2022","02","19","16:00","","M","","M","50","","","","27","","20","","","","100.47","","","","","","NA"
"-81.90","42.25","ERIEAU (AUT)","613KLLM","2022-02-19 17:00","2022","02","19","17:00","","M","","M","52","","","","26","","18","","","","100.56","","","","","","NA"
"-81.90","42.25","ERIEAU (AUT)","613KLLM","2022-02-19 18:00","2022","02","19","18:00","","M","","M","54","","","","27","","15","","","","100.64","","","","","","NA"
"-81.90","42.25","ERIEAU (AUT)","613KLLM","2022-02-19 19:00","2022","02","19","19:00","","M","","M","58","","","","26","","10","","","","100.68","","","","","","NA"
"-81.90","42.25","ERIEAU (AUT)","613KLLM","2022-02-19 20:00","2022","02","19","20:00","","M","","M","58","","","","25","","10","","","","100.72","","","","","","NA"
"-81.90","42.25","ERIEAU (AUT)","613KLLM","2022-02-19 21:00","2022","02","19","21:00","","M","","M","58","","","","24","","17","","","","100.72","","","","","","NA"
"-81.90","42.25","ERIEAU (AUT)","613KLLM","2022-02-19 22:00","2022","02","19","22:00","","M","","M","63","","","","25","","14","","","","100.70","","","","","","NA"
"-81.90","42.25","ERIEAU (AUT)","613KLLM","2022-02-19 23:00","2022","02","19","23:00","","M","","M","65","","","","23","","18","","","","100.63","","","","","","NA"
"-81.90","42.25","ERIEAU (AUT)","613KLLM","2022-02-20 00:00","2022","02","20","00:00","","M","","M","69","","","","20","","21","","","","100.57","","","","","","NA"
"-81.90","42.25","ERIEAU (AUT)","613KLLM","2022-02-20 01:00","2022","02","20","01:00","","M","","M","71","","","","20","","25","","","","100.47","","","","","","NA"
"-81.90","42.25","ERIEAU (AUT)","613KLLM","2022-02-20 02:00","2022","02","20","02:00","","M","","M","73","","","","20","","31","","","","100.41","","","","","","NA"
"-81.90","42.25","ERIEAU (AUT)","613KLLM","2022-02-20 03:00","2022","02","20","03:00","","M","","M","74","","","","20","","30","","","","100.35","","","","","","NA"
"-81.90","42.25","ERIEAU (AUT)","613KLLM","2022-02-20 04:00","2022","02","20","04:00","","M","","M","75","","","","20","","33","","","","100.29","","","","","","NA"
"-81.90","42.25","ERIEAU (AUT)","613KLLM","2022-02-20 05:00","2022","02","20","05:00","","M","","M","73","","","","20","","28","","","","100.23","","","","","","NA"
"-81.90","42.25","ERIEAU (AUT)","613KLLM","2022-02-20 06:00","2022","02","20","06:00","","M","","M","72","","","","19","","32","","","","100.20","","","","","","NA"
"-81.90","42.25","ERIEAU (AUT)","613KLLM","2022-02-20 07:00","2022","02","20","07:00","","M","","M","76","","","","17","","29","","","","100.12","","","","","","NA"
"-81.90","42.25","ERIEAU (AUT)","613KLLM","2022-02-20 08:00","2022","02","20","08:00","","M","","M","72","","","","18","","37","","","","100.01","","","","","","NA"
"-81.90","42.25","ERIEAU (AUT)","613KLLM","2022-02-20 09:00","2022","02","20","09:00","","M","","M","70","","","","18","","37","","","","99.99","","","","","","NA"
"-81.90","42.25","ERIEAU (AUT)","613KLLM","2022-02-20 10:00","2022","02","20","10:00","","M","","M","68","","","","18","","42","","","","99.86","","","","","","NA"
"-81.90","42.25","ERIEAU (AUT)","613KLLM","2022-02-20 11:00","2022","02","20","11:00","","M","","M","67","","","","18","","32","","","","99.77","","","","","","NA"
"-81.90","42.25","ERIEAU (AUT)","613KLLM","2022-02-20 12:00","2022","02","20","12:00","","M","","M","65","","","","19","","36","","","","99.69","","","","","","NA"
"-81.90","42.25","ERIEAU (AUT)","613KLLM","2022-02-20 13:00","2022","02","20","13:00","","M","","M","66","","","","18","","27","","","","99.50","","","","","","NA"
"-81.90","42.25","ERIEAU (AUT)","613KLLM","2022-02-20 14:00","2022","02","20","14:00","","M","","M","68","","","","19","","31","","","","99.34","","","","","","NA"
"-81.90","42.25","ERIEAU (AUT)","613KLLM","2022-02-20 15:00","2022","02","20","15:00","","M","","M","67","","","","19","","31","","","","99.20","","","","","","NA"
"-81.90","42.25","ERIEAU (AUT)","613KLLM","2022-02-20 16:00","2022","02","20","16:00","","M","","M","70","","","","20","","27","","","","99.18","","","","","","NA"
"-81.90","42.25","ERIEAU (AUT)","613KLLM","2022-02-20 17:00","2022","02","20","17:00","","M","","M","71","","","","19","","34","","","","99.10","","","","","","NA"
"-81.90","42.25","ERIEAU (AUT)","613KLLM","2022-02-20 18:00","2022","02","20","18:00","","M","","M","71","","","","19","","36","","","","99.07","","","","","","NA"
"-81.90","42.25","ERIEAU (AUT)","613KLLM","2022-02-20 19:00","2022","02","20","19:00","","M","","M","69","","","","19","","37","","","","99.15","","","","","","NA"
"-81.90","42.25","ERIEAU (AUT)","613KLLM","2022-02-20 20:00","2022","02","20","20:00","","M","","M","71","","","","19","","26","","","","99.27","","","","","","NA"
"-81.90","42.25","ERIEAU (AUT)","613KLLM","2022-02-20 21:00","2022","02","20","21:00","","M","","M","77","","","","22","","11","","","","99.38","","","","","","NA"
"-81.90","42.25","ERIEAU (AUT)","613KLLM","2022-02-20 22:00","2022","02","20","22:00","","M","","M","77","","","","23","","16","","","","99.47","","","","","","NA"
"-81.90","42.25","ERIEAU (AUT)","613KLLM","2022-02-20 23:00","2022","02","20","23:00","","M","","M","83","","","","22","","8","","","","99.50","","","","","","NA"
"-81.90","42.25","ERIEAU (AUT)","613KLLM","2022-02-21 00:00","2022","02","21","00:00","","M","","M","84","","","","21","","9","","","","99.53","","","","","","NA"
"-81.90","42.25","ERIEAU (AUT)","613KLLM","2022-02-21 01:00","2022","02","21","01:00","","M","","M","89","","","","19","","8","","","","99.57","","","","","","NA"
"-81.90","42.25","ERIEAU (AUT)","613KLLM","2022-02-21 02:00","2022","02","21","02:00","","M","","M","89","","","","20","","11","","","","99.63","","","","","","NA"
"-81.90","42.25","ERIEAU (AUT)","613KLLM","2022-02-21 03:00","2022","02","21","03:00","","M","","M","87","","","","19","","10","","","","99.64","","","","","","NA"
"-81.90","42.25","ERIEAU (AUT)","613KLLM","2022-02-21 04:00","2022","02","21","04:00","","M","","M","87","","","","20","","9","","","","99.64","","","","","","NA"
"-81.90","42.25","ERIEAU (AUT)","613KLLM","2022-02-21 05:00","2022","02","21","05:00","","M","","M","85","","","","23","","6","","","","99.68","","","","","","NA"
"-81.90","42.25","ERIEAU (AUT)","613KLLM","2022-02-21 06:00","2022","02","21","06:00","","M","","M","89","","","","20","","8","","","","99.73","","","","","","NA"
"-81.90","42.25","ERIEAU (AUT)","613KLLM","2022-02-21 07:00","2022","02","21","07:00","","M","","M","87","","","","19","","4","","","","99.78","","","","","","NA"
"-81.90","42.25","ERIEAU (AUT)","613KLLM","2022-02-21 08:00","2022","02","21","08:00","","M","","M","88","","","","11","","2","","","","99.87","","","","","","NA"
"-81.90","42.25","ERIEAU (AUT)","613KLLM","2022-02-21 09:00","2022","02","21","09:00","","M","","M","82","","","","12","","3","","","","99.92","","","","","","NA"
"-81.90","42.25","ERIEAU (AUT)","613KLLM","2022-02-21 10:00","2022","02","21","10:00","","M","","M","80","","","","11","","7","","","","99.92","","","","","","NA"
"-81.90","42.25","ERIEAU (AUT)","613KLLM","2022-02-21 11:00","2022","02","21","11:00","","M","","M","86","","","","11","","11","","","","99.93","","","","","","NA"
"-81.90","42.25","ERIEAU (AUT)","613KLLM","2022-02-21 12:00","2022","02","21","12:00","","M","","M","87","","","","10","","7","","","","99.88","","","","","","NA"
"-81.90","42.25","ERIEAU (AUT)","613KLLM","2022-02-21 13:00","2022","02","21","13:00","","M","","M","86","","","","12","","9","","","","99.78","","","","","","NA"
"-81.90","42.25","ERIEAU (AUT)","613KLLM","2022-02-21 14:00","2022","02","21","14:00","","M","","M","85","","","","10","","6","","","","99.75","","","","","","NA"
"-81.90","42.25","ERIEAU (AUT)","613KLLM","2022-02-21 15:00","2022","02","21","15:00","","M","","M","79","","","","8","","12","","","","99.69","","","","","","NA"
"-81.90","42.25","ERIEAU (AUT)","613KLLM","2022-02-21 16:00","2022","02","21","16:00","","M","","M","72","","","","4","","7","","","","99.68","","","","","","NA"
"-81.90","42.25","ERIEAU (AUT)","613KLLM","2022-02-21 17:00","2022","02","21","17:00","","M","","M","73","","","","4","","10","","","","99.71","","","","","","NA"
"-81.90","42.25","ERIEAU (AUT)","613KLLM","2022-02-21 18:00","2022","02","21","18:00","","M","","M","81","","","","4","","11","","","","99.72","","","","","","NA"
"-81.90","42.25","ERIEAU (AUT)","613KLLM","2022-02-21 19:00","2022","02","21","19:00","","M","","M","80","","","","5","","18","","","","99.72","","","","","","NA"
"-81.90","42.25","ERIEAU (AUT)","613KLLM","2022-02-21 20:00","2022","02","21","20:00","","M","","M","79","","","","7","","29","","","","99.68","","","","","","NA"
"-81.90","42.25","ERIEAU (AUT)","613KLLM","2022-02-21 21:00","2022","02","21","21:00","","M","","M","86","","","","6","","25","","","","99.67","","","","","","NA"
"-81.90","42.25","ERIEAU (AUT)","613KLLM","2022-02-21 22:00","2022","02","21","22:00","","M","","M","87","","","","6","","24","","","","99.64","","","","","","NA"
"-81.90","42.25","ERIEAU (AUT)","613KLLM","2022-02-21 23:00","2022","02","21","23:00","","M","","M","86","","","","4","","17","","","","99.56","","","","","","NA"
"-81.90","42.25","ERIEAU (AUT)","613KLLM","2022-02-22 00:00","2022","02","22","00:00","","M","","M","86","","","","5","","15","","","","99.48","","","","","","NA"
"-81.90","42.25","ERIEAU (AUT)","613KLLM","2022-02-22 01:00","2022","02","22","01:00","","M","","M","87","","","","4","","14","","","","99.48","","","","","","NA"
"-81.90","42.25","ERIEAU (AUT)","613KLLM","2022-02-22 02:00","2022","02","22","02:00","","M","","M","86","","","","5","","16","","","","99.41","","","","","","NA"
"-81.90","42.25","ERIEAU (AUT)","613KLLM","2022-02-22 03:00","2022","02","22","03:00","","M","","M","85","","","","5","","16","","","","99.34","","","","","","NA"
"-81.90","42.25","ERIEAU (AUT)","613KLLM","2022-02-22 04:00","2022","02","22","04:00","","M","","M","87","","","","5","","11","","","","99.23","","","","","","NA"
"-81.90","42.25","ERIEAU (AUT)","613KLLM","2022-02-22 05:00","2022","02","22","05:00","","M","","M","84","","","","5","","7","","","","99.29","","","","","","NA"
"-81.90","42.25","ERIEAU (AUT)","613KLLM","2022-02-22 06:00","2022","02","22","06:00","","M","","M","83","","","","17","","16","","","","99.29","","","","","","NA"
"-81.90","42.25","ERIEAU (AUT)","613KLLM","2022-02-22 07:00","2022","02","22","07:00","","M","","M","92","","","","16","","12","","","","99.22","","","","","","NA"
"-81.90","42.25","ERIEAU (AUT)","613KLLM","2022-02-22 08:00","2022","02","22","08:00","","M","","M","96","","","","4","","4","","","","99.15","","","","","","NA"
"-81.90","42.25","ERIEAU (AUT)","613KLLM","2022-02-22 09:00","2022","02","22","09:00","","M","","M","92","","","","16","","18","","","","99.16","","","","","","NA"
"-81.90","42.25","ERIEAU (AUT)","613KLLM","2022-02-22 10:00","2022","02","22","10:00","","M","","M","94","","","","10","","8","","","","98.95","","","","","","NA"
"-81.90","42.25","ERIEAU (AUT)","613KLLM","2022-02-22 11:00","2022","02","22","11:00","","M","","M","97","","","","11","","18","","","","98.82","","","","","","NA"
"-81.90","42.25","ERIEAU (AUT)","613KLLM","2022-02-22 12:00","2022","02","22","12:00","","M","","M","98","","","","16","","15","","","","98.72","","","","","","NA"
"-81.90","42.25","ERIEAU (AUT)","613KLLM","2022-02-22 13:00","2022","02","22","13:00","","M","","M","99","","","","16","","23","","","","98.51","","","","","","NA"
"-81.90","42.25","ERIEAU (AUT)","613KLLM","2022-02-22 14:00","2022","02","22","14:00","","M","","M","99","","","","16","","22","","","","98.32","","","","","","NA"
"-81.90","42.25","ERIEAU (AUT)","613KLLM","2022-02-22 15:00","2022","02","22","15:00","","M","","M","99","","","","23","","14","","","","98.35","","","","","","NA"
"-81.90","42.25","ERIEAU (AUT)","613KLLM","2022-02-22 16:00","2022","02","22","16:00","","M","","M","99","","","","23","","11","","","","98.33","","","","","","NA"
"-81.90","42.25","ERIEAU (AUT)","613KLLM","2022-02-22 17:00","2022","02","22","17:00","","M","","M","100","","","","22","","9","","","","98.32","","","","","","NA"
"-81.90","42.25","ERIEAU (AUT)","613KLLM","2022-02-22 18:00","2022","02","22","18:00","","M","","M","100","","","","22","","8","","","","98.41","","","","","","NA"
"-81.90","42.25","ERIEAU (AUT)","613KLLM","2022-02-22 19:00","2022","02","22","19:00","","M","","M","100","","","","23","","9","","","","98.46","","","","","","NA"
"-81.90","42.25","ERIEAU (AUT)","613KLLM","2022-02-22 20:00","2022","02","22","20:00","","M","","M","99","","","","23","","11","","","","98.53","","","","","","NA"
"-81.90","42.25","ERIEAU (AUT)","613KLLM","2022-02-22 21:00","2022","02","22","21:00","","M","","M","99","","","","22","","11","","","","98.54","","","","","","NA"
"-81.90","42.25","ERIEAU (AUT)","613KLLM","2022-02-22 22:00","2022","02","22","22:00","","M","","M","99","","","","20","","26","","","","98.57","","","","","","NA"
"-81.90","42.25","ERIEAU (AUT)","613KLLM","2022-02-22 23:00","2022","02","22","23:00","","M","","M","99","","","","22","","18","","","","98.74","","","","","","NA"
"-81.90","42.25","ERIEAU (AUT)","613KLLM","2022-02-23 00:00","2022","02","23","00:00","","M","","M","99","","","","24","","34","","","","98.95","","","","","","NA"
"-81.90","42.25","ERIEAU (AUT)","613KLLM","2022-02-23 01:00","2022","02","23","01:00","","M","","M","100","","","","26","","19","","","","99.19","","","","","","NA"
"-81.90","42.25","ERIEAU (AUT)","613KLLM","2022-02-23 02:00","2022","02","23","02:00","","M","","M","94","","","","26","","20","","","","99.34","","","","","","NA"
"-81.90","42.25","ERIEAU (AUT)","613KLLM","2022-02-23 03:00","2022","02","23","03:00","","M","","M","88","","","","24","","23","","","","99.48","","","","","","NA"
"-81.90","42.25","ERIEAU (AUT)","613KLLM","2022-02-23 04:00","2022","02","23","04:00","","M","","M","84","","","","26","","17","","","","99.60","","","","","","NA"
"-81.90","42.25","ERIEAU (AUT)","613KLLM","2022-02-23 05:00","2022","02","23","05:00","","M","","M","81","","","","27","","17","","","","99.75","","","","","","NA"
"-81.90","42.25","ERIEAU (AUT)","613KLLM","2022-02-23 06:00","2022","02","23","06:00","","M","","M","75","","","","27","","21","","","","99.93","","","","","","NA"
"-81.90","42.25","ERIEAU (AUT)","613KLLM","2022-02-23 07:00","2022","02","23","07:00","","M","","M","76","","","","28","","17","","","","100.02","","","","","","NA"
"-81.90","42.25","ERIEAU (AUT)","613KLLM","2022-02-23 08:00","2022","02","23","08:00","","M","","M","77","","","","28","","15","","","","100.16","","","","","","NA"
"-81.90","42.25","ERIEAU (AUT)","613KLLM","2022-02-23 09:00","2022","02","23","09:00","","M","","M","80","","","","27","","16","","","","100.27","","","","","","NA"
"-81.90","42.25","ERIEAU (AUT)","613KLLM","2022-02-23 10:00","2022","02","23","10:00","","M","","M","80","","","","29","","20","","","","100.36","","","","","","NA"
"-81.90","42.25","ERIEAU (AUT)","613KLLM","2022-02-23 11:00","2022","02","23","11:00","","M","","M","72","","","","27","","15","","","","100.47","","","","","","NA"
"-81.90","42.25","ERIEAU (AUT)","613KLLM","2022-02-23 12:00","2022","02","23","12:00","","M","","M","70","","","","28","","18","","","","100.53","","","","","","NA"
"-81.90","42.25","ERIEAU (AUT)","613KLLM","2022-02-23 13:00","2022","02","23","13:00","","M","","M","63","","","","28","","18","","","","100.61","","","","","","NA"
"-81.90","42.25","ERIEAU (AUT)","613KLLM","2022-02-23 14:00","2022","02","23","14:00","","M","","M","61","","","","29","","16","","","","100.50","","","","","","NA"
"-81.90","42.25","ERIEAU (AUT)","613KLLM","2022-02-23 15:00","2022","02","23","15:00","","M","","M","60","","","","29","","17","","","","100.71","","","","","","NA"
"-81.90","42.25","ERIEAU (AUT)","613KLLM","2022-02-23 16:00","2022","02","23","16:00","","M","","M","61","","","","31","","14","","","","100.70","","","","","","NA"
"-81.90","42.25","ERIEAU (AUT)","613KLLM","2022-02-23 17:00","2022","02","23","17:00","","M","","M","64","","","","32","","11","","","","100.81","","","","","","NA"
"-81.90","42.25","ERIEAU (AUT)","613KLLM","2022-02-23 18:00","2022","02","23","18:00","","M","","M","80","","","","34","","21","","","","100.94","","","","","","NA"
"-81.90","42.25","ERIEAU (AUT)","613KLLM","2022-02-23 19:00","2022","02","23","19:00","","M","","M","77","","","","34","","20","","","","101.05","","","","","","NA"
"-81.90","42.25","ERIEAU (AUT)","613KLLM","2022-02-23 20:00","2022","02","23","20:00","","M","","M","76","","","","34","","20","","","","101.10","","","","","","NA"
"-81.90","42.25","ERIEAU (AUT)","613KLLM","2022-02-23 21:00","2022","02","23","21:00","","M","","M","73","","","","35","","17","","","","101.10","","","","","","NA"
"-81.90","42.25","ERIEAU (AUT)","613KLLM","2022-02-23 22:00","2022","02","23","22:00","","M","","M","76","","","","36","","14","","","","101.16","","","","","","NA"
"-81.90","42.25","ERIEAU (AUT)","613KLLM","2022-02-23 23:00","2022","02","23","23:00","","M","","M","76","","","","36","","24","","","","101.06","","","","","","NA"
"-81.90","42.25","ERIEAU (AUT)","613KLLM","2022-02-24 00:00","2022","02","24","00:00","","M","","M","74","","","","1","","21","","","","101.04","","","","","","NA"
"-81.90","42.25","ERIEAU (AUT)","613KLLM","2022-02-24 01:00","2022","02","24","01:00","","M","","M","74","","","","1","","23","","","","101.01","","","","","","NA"
"-81.90","42.25","ERIEAU (AUT)","613KLLM","2022-02-24 02:00","2022","02","24","02:00","","M","","M","71","","","","1","","21","","","","101.04","","","","","","NA"
"-81.90","42.25","ERIEAU (AUT)","613KLLM","2022-02-24 03:00","2022","02","24","03:00","","M","","M","72","","","","2","","18","","","","101.00","","","","","","NA"
"-81.90","42.25","ERIEAU (AUT)","613KLLM","2022-02-24 04:00","2022","02","24","04:00","","M","","M","71","","","","4","","19","","","","101.01","","","","","","NA"
"-81.90","42.25","ERIEAU (AUT)","613KLLM","2022-02-24 05:00","2022","02","24","05:00","","M","","M","74","","","","3","","20","","","","101.01","","","","","","NA"
"-81.90","42.25","ERIEAU (AUT)","613KLLM","2022-02-24 06:00","2022","02","24","06:00","","M","","M","76","","","","4","","20","","","","101.02","","","","","","NA"
"-81.90","42.25","ERIEAU (AUT)","613KLLM","2022-02-24 07:00","2022","02","24","07:00","","M","","M","78","","","","5","","18","","","","101.08","","","","","","NA"
"-81.90","42.25","ERIEAU (AUT)","613KLLM","2022-02-24 08:00","2022","02","24","08:00","","M","","M","81","","","","5","","17","","","","101.09","","","","","","NA"
"-81.90","42.25","ERIEAU (AUT)","613KLLM","2022-02-24 09:00","2022","02","24","09:00","","M","","M","81","","","","5","","23","","","","101.11","","","","","","NA"
"-81.90","42.25","ERIEAU (AUT)","613KLLM","2022-02-24 10:00","2022","02","24","10:00","","M","","M","80","","","","5","","25","","","","101.06","","","","","","NA"
"-81.90","42.25","ERIEAU (AUT)","613KLLM","2022-02-24 11:00","2022","02","24","11:00","","M","","M","75","","","","5","","24","","","","101.02","","","","","","NA"
"-81.90","42.25","ERIEAU (AUT)","613KLLM","2022-02-24 12:00","2022","02","24","12:00","","M","","M","79","","","","6","","28","","","","100.90","","","","","","NA"
"-81.90","42.25","ERIEAU (AUT)","613KLLM","2022-02-24 13:00","2022","02","24","13:00","","M","","M","77","","","","6","","32","","","","100.87","","","","","","NA"
"-81.90","42.25","ERIEAU (AUT)","613KLLM","2022-02-24 14:00","2022","02","24","14:00","","M","","M","77","","","","4","","28","","","","100.74","","","","","","NA"
"-81.90","42.25","ERIEAU (AUT)","613KLLM","2022-02-24 15:00","2022","02","24","15:00","","M","","M","74","","","","4","","25","","","","100.70","","","","","","NA"
"-81.90","42.25","ERIEAU (AUT)","613KLLM","2022-02-24 16:00","2022","02","24","16:00","","M","","M","71","","","","4","","26","","","","100.68","","","","","","NA"
"-81.90","42.25","ERIEAU (AUT)","613KLLM","2022-02-24 17:00","2022","02","24","17:00","","M","","M","74","","","","4","","29","","","","100.53","","","","","","NA"
"-81.90","42.25","ERIEAU (AUT)","613KLLM","2022-02-24 18:00","2022","02","24","18:00","","M","","M","74","","","","5","","32","","","","100.39","","","","","","NA"
"-81.90","42.25","ERIEAU (AUT)","613KLLM","2022-02-24 19:00","2022","02","24","19:00","","M","","M","77","","","","5","","27","","","","100.50","","","","","","NA"
"-81.90","42.25","ERIEAU (AUT)","613KLLM","2022-02-24 20:00","2022","02","24","20:00","","M","","M","82","","","","5","","32","","","","100.31","","","","","","NA"
"-81.90","42.25","ERIEAU (AUT)","613KLLM","2022-02-24 21:00","2022","02","24","21:00","","M","","M","82","","","","4","","31","","","","100.19","","","","","","NA"
"-81.90","42.25","ERIEAU (AUT)","613KLLM","2022-02-24 22:00","2022","02","24","22:00","","M","","M","84","","","","4","","29","","","","100.09","","","","","","NA"
"-81.90","42.25","ERIEAU (AUT)","613KLLM","2022-02-24 23:00","2022","02","24","23:00","","M","","M","90","","","","4","","33","","","","99.96","","","","","","NA"
"-81.90","42.25","ERIEAU (AUT)","613KLLM","2022-02-25 00:00","2022","02","25","00:00","","M","","M","91","","","","4","","26","","","","99.89","","","","","","NA"
"-81.90","42.25","ERIEAU (AUT)","613KLLM","2022-02-25 01:00","2022","02","25","01:00","","M","","M","94","","","","4","","35","","","","99.57","","","","","","NA"
"-81.90","42.25","ERIEAU (AUT)","613KLLM","2022-02-25 02:00","2022","02","25","02:00","","M","","M","94","","","","5","","34","","","","99.49","","","","","","NA"
"-81.90","42.25","ERIEAU (AUT)","613KLLM","2022-02-25 03:00","2022","02","25","03:00","","M","","M","95","","","","5","","35","","","","99.21","","","","","","NA"
"-81.90","42.25","ERIEAU (AUT)","613KLLM","2022-02-25 04:00","2022","02","25","04:00","","M","","M","96","","","","5","","25","","","","99.25","","","","","","NA"
"-81.90","42.25","ERIEAU (AUT)","613KLLM","2022-02-25 05:00","2022","02","25","05:00","","M","","M","96","","","","3","","19","","","","99.26","","","","","","NA"
"-81.90","42.25","ERIEAU (AUT)","613KLLM","2022-02-25 06:00","2022","02","25","06:00","","M","","M","95","","","","29","","10","","","","99.43","","","","","","NA"
"-81.90","42.25","ERIEAU (AUT)","613KLLM","2022-02-25 07:00","2022","02","25","07:00","","M","","M","96","","","","30","","11","","","","99.55","","","","","","NA"
"-81.90","42.25","ERIEAU (AUT)","613KLLM","2022-02-25 08:00","2022","02","25","08:00","","M","","M","95","","","","32","","15","","","","99.68","","","","","","NA"
"-81.90","42.25","ERIEAU (AUT)","613KLLM","2022-02-25 09:00","2022","02","25","09:00","","M","","M","90","","","","34","","16","","","","99.88","","","","","","NA"
"-81.90","42.25","ERIEAU (AUT)","613KLLM","2022-02-25 10:00","2022","02","25","10:00","","M","","M","83","","","","31","","12","","","","100.08","","","","","","NA"
"-81.90","42.25","ERIEAU (AUT)","613KLLM","2022-02-25 11:00","2022","02","25","11:00","","M","","M","80","","","","30","","13","","","","100.26","","","","","","NA"
"-81.90","42.25","ERIEAU (AUT)","613KLLM","2022-02-25 12:00","2022","02","25","12:00","","M","","M","78","","","","30","","14","","","","100.38","","","","","","NA"
"-81.90","42.25","ERIEAU (AUT)","613KLLM","2022-02-25 13:00","2022","02","25","13:00","","M","","M","71","","","","31","","14","","","","100.42","","","","","","NA"
"-81.90","42.25","ERIEAU (AUT)","613KLLM","2022-02-25 14:00","2022","02","25","14:00","","M","","M","77","","","","29","","11","","","","100.50","","","","","","NA"
"-81.90","42.25","ERIEAU (AUT)","613KLLM","2022-02-25 15:00","2022","02","25","15:00","","M","","M","71","","","","30","","11","","","","100.59","","","","","","NA"
"-81.90","42.25","ERIEAU (AUT)","613KLLM","2022-02-25 16:00","2022","02","25","16:00","","M","","M","75","","","","30","","10","","","","100.68","","","","","","NA"
"-81.90","42.25","ERIEAU (AUT)","613KLLM","2022-02-25 17:00","2022","02","25","17:00","","M","","M","72","","","","30","","11","","","","100.81","","","","","","NA"
"-81.90","42.25","ERIEAU (AUT)","613KLLM","2022-02-25 18:00","2022","02","25","18:00","","M","","M","71","","","","31","","7","","","","100.85","","","","","","NA"
"-81.90","42.25","ERIEAU (AUT)","613KLLM","2022-02-25 19:00","2022","02","25","19:00","","M","","M","77","","","","31","","5","","","","100.92","","","","","","NA"
"-81.90","42.25","ERIEAU (AUT)","613KLLM","2022-02-25 20:00","2022","02","25","20:00","","M","","M","79","","","","30","","4","","","","100.98","","","","","","NA"
"-81.90","42.25","ERIEAU (AUT)","613KLLM","2022-02-25 21:00","2022","02","25","21:00","","M","","M","76","","","","30","","2","","","","100.99","","","","","","NA"
"-81.90","42.25","ERIEAU (AUT)","613KLLM","2022-02-25 22:00","2022","02","25","22:00","","M","","M","73","","","","30","","3","","","","101.02","","","","","","NA"
"-81.90","42.25","ERIEAU (AUT)","613KLLM","2022-02-25 23:00","2022","02","25","23:00","","M","","M","74","","","","30","","3","","","","101.01","","","","","","NA"
"-81.90","42.25","ERIEAU (AUT)","613KLLM","2022-02-26 00:00","2022","02","26","00:00","","M","","M","75","","","","29","","2","","","","100.97","","","","","","NA"
"-81.90","42.25","ERIEAU (AUT)","613KLLM","2022-02-26 01:00","2022","02","26","01:00","","M","","M","73","","","","27","","2","","","","100.98","","","","","","NA"
"-81.90","42.25","ERIEAU (AUT)","613KLLM","2022-02-26 02:00","2022","02","26","02:00","","M","","M","70","","","","23","","11","","","","101.00","","","","","","NA"
"-81.90","42.25","ERIEAU (AUT)","613KLLM","2022-02-26 03:00","2022","02","26","03:00","","M","","M","68","","","","25","","10","","","","100.96","","","","","","NA"
"-81.90","42.25","ERIEAU (AUT)","613KLLM","2022-02-26 04:00","2022","02","26","04:00","","M","","M","66","","","","27","","11","","","","100.95","","","","","","NA"
"-81.90","42.25","ERIEAU (AUT)","613KLLM","2022-02-26 05:00","2022","02","26","05:00","","M","","M","68","","","","24","","17","","","","100.98","","","","","","NA"
"-81.90","42.25","ERIEAU (AUT)","613KLLM","2022-02-26 06:00","2022","02","26","06:00","","M","","M","71","","","","24","","17","","","","100.96","","","","","","NA"
"-81.90","42.25","ERIEAU (AUT)","613KLLM","2022-02-26 07:00","2022","02","26","07:00","","M","","M","67","","","","23","","16","","","","100.97","","","","","","NA"
"-81.90","42.25","ERIEAU (AUT)","613KLLM","2022-02-26 08:00","2022","02","26","08:00","","M","","M","81","","","","23","","21","","","","100.98","","","","","","NA"
"-81.90","42.25","ERIEAU (AUT)","613KLLM","2022-02-26 09:00","2022","02","26","09:00","","M","","M","77","","","","24","","21","","","","100.98","","","","","","NA"
"-81.90","42.25","ERIEAU (AUT)","613KLLM","2022-02-26 10:00","2022","02","26","10:00","","M","","M","75","","","","23","","23","","","","100.92","","","","","","NA"
"-81.90","42.25","ERIEAU (AUT)","613KLLM","2022-02-26 11:00","2022","02","26","11:00","","M","","M","77","","","","22","","19","","","","100.88","","","","","","NA"
"-81.90","42.25","ERIEAU (AUT)","613KLLM","2022-02-26 12:00","2022","02","26","12:00","","M","","M","79","","","","22","","17","","","","100.87","","","","","","NA"
"-81.90","42.25","ERIEAU (AUT)","613KLLM","2022-02-26 13:00","2022","02","26","13:00","","M","","M","78","","","","21","","22","","","","100.78","","","","","","NA"
"-81.90","42.25","ERIEAU (AUT)","613KLLM","2022-02-26 14:00","2022","02","26","14:00","","M","","M","76","","","","22","","23","","","","100.67","","","","","","NA"
"-81.90","42.25","ERIEAU (AUT)","613KLLM","2022-02-26 15:00","2022","02","26","15:00","","M","","M","76","","","","22","","25","","","","100.61","","","","","","NA"
"-81.90","42.25","ERIEAU (AUT)","613KLLM","2022-02-26 16:00","2022","02","26","16:00","","M","","M","73","","","","21","","23","","","","100.55","","","","","","NA"
"-81.90","42.25","ERIEAU (AUT)","613KLLM","2022-02-26 17:00","2022","02","26","17:00","","M","","M","74","","","","21","","23","","","","100.50","","","","","","NA"
"-81.90","42.25","ERIEAU (AUT)","613KLLM","2022-02-26 18:00","2022","02","26","18:00","","M","","M","75","","","","21","","25","","","","100.44","","","","","","NA"
"-81.90","42.25","ERIEAU (AUT)","613KLLM","2022-02-26 19:00","2022","02","26","19:00","","M","","M","74","","","","21","","24","","","","100.42","","","","","","NA"
"-81.90","42.25","ERIEAU (AUT)","613KLLM","2022-02-26 20:00","2022","02","26","20:00","","M","","M","69","","","","22","","26","","","","100.39","","","","","","NA"
"-81.90","42.25","ERIEAU (AUT)","613KLLM","2022-02-26 21:00","2022","02","26","21:00","","M","","M","71","","","","22","","28","","","","100.33","","","","","","NA"
"-81.90","42.25","ERIEAU (AUT)","613KLLM","2022-02-26 22:00","2022","02","26","22:00","","M","","M","72","","","","22","","28","","","","100.26","","","","","","NA"
"-81.90","42.25","ERIEAU (AUT)","613KLLM","2022-02-26 23:00","2022","02","26","23:00","","M","","M","73","","","","22","","26","","","","100.17","","","","","","NA"
"-81.90","42.25","ERIEAU (AUT)","613KLLM","2022-02-27 00:00","2022","02","27","00:00","","M","","M","74","","","","23","","29","","","","100.06","","","","","","NA"
"-81.90","42.25","ERIEAU (AUT)","613KLLM","2022-02-27 01:00","2022","02","27","01:00","","M","","M","76","","","","23","","29","","","","100.03","","","","","","NA"
"-81.90","42.25","ERIEAU (AUT)","613KLLM","2022-02-27 02:00","2022","02","27","02:00","","M","","M","79","","","","23","","27","","","","99.98","","","","","","NA"
"-81.90","42.25","ERIEAU (AUT)","613KLLM","2022-02-27 03:00","2022","02","27","03:00","","M","","M","79","","","","23","","33","","","","99.91","","","","","","NA"
"-81.90","42.25","ERIEAU (AUT)","613KLLM","2022-02-27 04:00","2022","02","27","04:00","","M","","M","72","","","","24","","41","","","","99.86","","","","","","NA"
"-81.90","42.25","ERIEAU (AUT)","613KLLM","2022-02-27 05:00","2022","02","27","05:00","","M","","M","75","","","","24","","38","","","","99.83","","","","","","NA"
"-81.90","42.25","ERIEAU (AUT)","613KLLM","2022-02-27 06:00","2022","02","27","06:00","","M","","M","77","","","","24","","37","","","","99.77","","","","","","NA"
"-81.90","42.25","ERIEAU (AUT)","613KLLM","2022-02-27 07:00","2022","02","27","07:00","","M","","M","75","","","","24","","34","","","","99.71","","","","","","NA"
"-81.90","42.25","ERIEAU (AUT)","613KLLM","2022-02-27 08:00","2022","02","27","08:00","","M","","M","75","","","","24","","35","","","","99.69","","","","","","NA"
"-81.90","42.25","ERIEAU (AUT)","613KLLM","2022-02-27 09:00","2022","02","27","09:00","","M","","M","75","","","","24","","27","","","","99.70","","","","","","NA"
"-81.90","42.25","ERIEAU (AUT)","613KLLM","2022-02-27 10:00","2022","02","27","10:00","","M","","M","76","","","","24","","24","","","","99.70","","","","","","NA"
"-81.90","42.25","ERIEAU (AUT)","613KLLM","2022-02-27 11:00","2022","02","27","11:00","","M","","M","77","","","","24","","14","","","","99.70","","","","","","NA"
"-81.90","42.25","ERIEAU (AUT)","613KLLM","2022-02-27 12:00","2022","02","27","12:00","","M","","M","69","","","","26","","14","","","","99.71","","","","","","NA"
"-81.90","42.25","ERIEAU (AUT)","613KLLM","2022-02-27 13:00","2022","02","27","13:00","","M","","M","63","","","","28","","16","","","","99.66","","","","","","NA"
"-81.90","42.25","ERIEAU (AUT)","613KLLM","2022-02-27 14:00","2022","02","27","14:00","","M","","M","59","","","","28","","17","","","","99.63","","","","","","NA"
"-81.90","42.25","ERIEAU (AUT)","613KLLM","2022-02-27 15:00","2022","02","27","15:00","","M","","M","54","","","","28","","16","","","","99.61","","","","","","NA"
"-81.90","42.25","ERIEAU (AUT)","613KLLM","2022-02-27 16:00","2022","02","27","16:00","","M","","M","52","","","","29","","19","","","","99.69","","","","","","NA"
"-81.90","42.25","ERIEAU (AUT)","613KLLM","2022-02-27 17:00","2022","02","27","17:00","","M","","M","58","","","","31","","11","","","","99.70","","","","","","NA"
"-81.90","42.25","ERIEAU (AUT)","613KLLM","2022-02-27 18:00","2022","02","27","18:00","","M","","M","61","","","","31","","10","","","","99.77","","","","","","NA"
"-81.90","42.25","ERIEAU (AUT)","613KLLM","2022-02-27 19:00","2022","02","27","19:00","","M","","M","63","","","","32","","5","","","","99.84","","","","","","NA"
"-81.90","42.25","ERIEAU (AUT)","613KLLM","2022-02-27 20:00","2022","02","27","20:00","","M","","M","66","","","","32","","6","","","","99.88","","","","","","NA"
"-81.90","42.25","ERIEAU (AUT)","613KLLM","2022-02-27 21:00","2022","02","27","21:00","","M","","M","68","","","","33","","14","","","","99.97","","","","","","NA"
"-81.90","42.25","ERIEAU (AUT)","613KLLM","2022-02-27 22:00","2022","02","27","22:00","","M","","M","66","","","","34","","17","","","","100.04","","","","","","NA"
"-81.90","42.25","ERIEAU (AUT)","613KLLM","2022-02-27 23:00","2022","02","27","23:00","","M","","M","71","","","","35","","14","","","","100.09","","","","","","NA"
"-81.90","42.25","ERIEAU (AUT)","613KLLM","2022-02-28 00:00","2022","02","28","00:00","","M","","M","76","","","","1","","20","","","","100.15","","","","","","NA"
"-81.90","42.25","ERIEAU (AUT)","613KLLM","2022-02-28 01:00","2022","02","28","01:00","","M","","M","77","","","","1","","12","","","","100.20","","","","","","NA"
"-81.90","42.25","ERIEAU (AUT)","613KLLM","2022-02-28 02:00","2022","02","28","02:00","","M","","M","79","","","","34","","5","","","","100.28","","","","","","NA"
"-81.90","42.25","ERIEAU (AUT)","613KLLM","2022-02-28 03:00","2022","02","28","03:00","","M","","M","75","","","","34","","11","","","","100.30","","","","","","NA"
"-81.90","42.25","ERIEAU (AUT)","613KLLM","2022-02-28 04:00","2022","02","28","04:00","","M","","M","74","","","","36","","11","","","","100.30","","","","","","NA"
"-81.90","42.25","ERIEAU (AUT)","613KLLM","2022-02-28 05:00","2022","02","28","05:00","","M","","M","74","","","","1","","14","","","","100.31","","","","","","NA"
"-81.90","42.25","ERIEAU (AUT)","613KLLM","2022-02-28 06:00","2022","02","28","06:00","","M","","M","70","","","","36","","11","","","","100.37","","","","","","NA"
"-81.90","42.25","ERIEAU (AUT)","613KLLM","2022-02-28 07:00","2022","02","28","07:00","","M","","M","71","","","","1","","7","","","","100.41","","","","","","NA"
"-81.90","42.25","ERIEAU (AUT)","613KLLM","2022-02-28 08:00","2022","02","28","08:00","","M","","M","63","","","","35","","6","","","","100.46","","","","","","NA"
"-81.90","42.25","ERIEAU (AUT)","613KLLM","2022-02-28 09:00","2022","02","28","09:00","","M","","M","62","","","","34","","8","","","","100.51","","","","","","NA"
"-81.90","42.25","ERIEAU (AUT)","613KLLM","2022-02-28 10:00","2022","02","28","10:00","","M","","M","61","","","","3","","3","","","","100.49","","","","","","NA"
"-81.90","42.25","ERIEAU (AUT)","613KLLM","2022-02-28 11:00","2022","02","28","11:00","","M","","M","66","","","","13","","12","","","","100.48","","","","","","NA"
"-81.90","42.25","ERIEAU (AUT)","613KLLM","2022-02-28 12:00","2022","02","28","12:00","","M","","M","70","","","","13","","14","","","","100.47","","","","","","NA"
"-81.90","42.25","ERIEAU (AUT)","613KLLM","2022-02-28 13:00","2022","02","28","13:00","","M","","M","70","","","","15","","11","","","","100.36","","","","","","NA"
"-81.90","42.25","ERIEAU (AUT)","613KLLM","2022-02-28 14:00","2022","02","28","14:00","","M","","M","71","","","","14","","10","","","","100.30","","","","","","NA"
"-81.90","42.25","ERIEAU (AUT)","613KLLM","2022-02-28 15:00","2022","02","28","15:00","","M","","M","68","","","","13","","9","","","","100.20","","","","","","NA"
"-81.90","42.25","ERIEAU (AUT)","613KLLM","2022-02-28 16:00","2022","02","28","16:00","","M","","M","71","","","","9","","13","","","","100.15","","","","","","NA"
"-81.90","42.25","ERIEAU (AUT)","613KLLM","2022-02-28 17:00","2022","02","28","17:00","","M","","M","75","","","","9","","24","","","","99.99","","","","","","NA"
"-81.90","42.25","ERIEAU (AUT)","613KLLM","2022-02-28 18:00","2022","02","28","18:00","","M","","M","75","","","","8","","29","","","","99.94","","","","","","NA"
"-81.90","42.25","ERIEAU (AUT)","613KLLM","2022-02-28 19:00","2022","02","28","19:00","","M","","M","80","","","","8","","32","","","","99.82","","","","","","NA"
"-81.90","42.25","ERIEAU (AUT)","613KLLM","2022-02-28 20:00","2022","02","28","20:00","","M","","M","83","","","","8","","32","","","","99.72","","","","","","NA"
"-81.90","42.25","ERIEAU (AUT)","613KLLM","2022-02-28 21:00","2022","02","28","21:00","","M","","M","83","","","","8","","30","","","","99.70","","","","","","NA"
"-81.90","42.25","ERIEAU (AUT)","613KLLM","2022-02-28 22:00","2022","02","28","22:00","","M","","M","87","","","","8","","26","","","","99.59","","","","","","NA"
"-81.90","42.25","ERIEAU (AUT)","613KLLM","2022-02-28 23:00","2022","02","28","23:00","","M","","M","89","","","","8","","18","","","","99.50","","","","","","NA"
