"Longitude (x)","Latitude (y)","Station Name","Climate ID","Date/Time (LST)","Year","Month","Day","Time (LST)","Temp (°C)","Temp Flag","Dew Point Temp (°C)","Dew Point Temp Flag","Rel Hum (%)","Rel Hum Flag","Precip. Amount (mm)","Precip. Amount Flag","Wind Dir (10s deg)","Wind Dir Flag","Wind Spd (km/h)","Wind Spd Flag","Visibility (km)","Visibility Flag","Stn Press (kPa)","Stn Press Flag","Hmdx","Hmdx Flag","Wind Chill","Wind Chill Flag","Weather"
"-81.90","42.25","ERIEAU (AUT)","613KLLM","2022-04-01 00:00","2022","04","01","00:00","","M","","M","83","","","","24","","12","","","","98.12","","","","","","NA"
"-81.90","42.25","ERIEAU (AUT)","613KLLM","2022-04-01 01:00","2022","04","01","01:00","","M","","M","83","","","","25","","8","","","","98.13","","","","","","NA"
"-81.90","42.25","ERIEAU (AUT)","613KLLM","2022-04-01 02:00","2022","04","01","02:00","","M","","M","90","","","","25","","11","","","","98.19","","","","","","NA"
"-81.90","42.25","ERIEAU (AUT)","613KLLM","2022-04-01 03:00","2022","04","01","03:00","","M","","M","94","","","","27","","12","","","","98.23","","","","","","NA"
"-81.90","42.25","ERIEAU (AUT)","613KLLM","2022-04-01 04:00","2022","04","01","04:00","","M","","M","93","","","","27","","10","","","","98.26","","","","","","NA"
"-81.90","42.25","ERIEAU (AUT)","613KLLM","2022-04-01 05:00","2022","04","01","05:00","","M","","M","89","","","","27","","10","","","","98.33","","","","","","NA"
"-81.90","42.25","ERIEAU (AUT)","613KLLM","2022-04-01 06:00","2022","04","01","06:00","","M","","M","79","","","","27","","15","","","","98.42","","","","","","NA"
"-81.90","42.25","ERIEAU (AUT)","613KLLM","2022-04-01 07:00","2022","04","01","07:00","","M","","M","76","","","","27","","16","","","","98.52","","","","","","NA"
"-81.90","42.25","ERIEAU (AUT)","613KLLM","2022-04-01 08:00","2022","04","01","08:00","","M","","M","74","","","","27","","16","","","","98.61","","","","","","NA"
"-81.90","42.25","ERIEAU (AUT)","613KLLM","2022-04-01 09:00","2022","04","01","09:00","","M","","M","72","","","","28","","16","","","","98.71","","","","","","NA"
"-81.90","42.25","ERIEAU (AUT)","613KLLM","2022-04-01 10:00","2022","04","01","10:00","","M","","M","68","","","","27","","18","","","","98.85","","","","","","NA"
"-81.90","42.25","ERIEAU (AUT)","613KLLM","2022-04-01 11:00","2022","04","01","11:00","","M","","M","66","","","","28","","20","","","","98.94","","","","","","NA"
"-81.90","42.25","ERIEAU (AUT)","613KLLM","2022-04-01 12:00","2022","04","01","12:00","","M","","M","66","","","","27","","16","","","","99.02","","","","","","NA"
"-81.90","42.25","ERIEAU (AUT)","613KLLM","2022-04-01 13:00","2022","04","01","13:00","","M","","M","62","","","","28","","18","","","","99.12","","","","","","NA"
"-81.90","42.25","ERIEAU (AUT)","613KLLM","2022-04-01 14:00","2022","04","01","14:00","","M","","M","65","","","","29","","20","","","","99.20","","","","","","NA"
"-81.90","42.25","ERIEAU (AUT)","613KLLM","2022-04-01 15:00","2022","04","01","15:00","","M","","M","60","","","","28","","17","","","","99.31","","","","","","NA"
"-81.90","42.25","ERIEAU (AUT)","613KLLM","2022-04-01 16:00","2022","04","01","16:00","","M","","M","61","","","","28","","20","","","","99.41","","","","","","NA"
"-81.90","42.25","ERIEAU (AUT)","613KLLM","2022-04-01 17:00","2022","04","01","17:00","","M","","M","60","","","","27","","16","","","","99.52","","","","","","NA"
"-81.90","42.25","ERIEAU (AUT)","613KLLM","2022-04-01 18:00","2022","04","01","18:00","","M","","M","61","","","","29","","15","","","","99.63","","","","","","NA"
"-81.90","42.25","ERIEAU (AUT)","613KLLM","2022-04-01 19:00","2022","04","01","19:00","","M","","M","62","","","","28","","13","","","","99.73","","","","","","NA"
"-81.90","42.25","ERIEAU (AUT)","613KLLM","2022-04-01 20:00","2022","04","01","20:00","","M","","M","62","","","","28","","11","","","","99.79","","","","","","NA"
"-81.90","42.25","ERIEAU (AUT)","613KLLM","2022-04-01 21:00","2022","04","01","21:00","","M","","M","67","","","","27","","5","","","","99.87","","","","","","NA"
"-81.90","42.25","ERIEAU (AUT)","613KLLM","2022-04-01 22:00","2022","04","01","22:00","","M","","M","65","","","","28","","8","","","","99.94","","","","","","NA"
"-81.90","42.25","ERIEAU (AUT)","613KLLM","2022-04-01 23:00","2022","04","01","23:00","","M","","M","65","","","","27","","6","","","","99.98","","","","","","NA"
"-81.90","42.25","ERIEAU (AUT)","613KLLM","2022-04-02 00:00","2022","04","02","00:00","","M","","M","67","","","","29","","5","","","","99.97","","","","","","NA"
"-81.90","42.25","ERIEAU (AUT)","613KLLM","2022-04-02 01:00","2022","04","02","01:00","","M","","M","68","","","","28","","5","","","","99.96","","","","","","NA"
"-81.90","42.25","ERIEAU (AUT)","613KLLM","2022-04-02 02:00","2022","04","02","02:00","","M","","M","68","","","","28","","2","","","","99.97","","","","","","NA"
"-81.90","42.25","ERIEAU (AUT)","613KLLM","2022-04-02 03:00","2022","04","02","03:00","","M","","M","65","","","","25","","2","","","","99.98","","","","","","NA"
"-81.90","42.25","ERIEAU (AUT)","613KLLM","2022-04-02 04:00","2022","04","02","04:00","","M","","M","68","","","","0","","1","","","","99.98","","","","","","NA"
"-81.90","42.25","ERIEAU (AUT)","613KLLM","2022-04-02 05:00","2022","04","02","05:00","","M","","M","80","","","","11","","4","","","","99.99","","","","","","NA"
"-81.90","42.25","ERIEAU (AUT)","613KLLM","2022-04-02 06:00","2022","04","02","06:00","","M","","M","76","","","","10","","5","","","","100.00","","","","","","NA"
"-81.90","42.25","ERIEAU (AUT)","613KLLM","2022-04-02 07:00","2022","04","02","07:00","","M","","M","76","","","","11","","9","","","","100.03","","","","","","NA"
"-81.90","42.25","ERIEAU (AUT)","613KLLM","2022-04-02 08:00","2022","04","02","08:00","","M","","M","71","","","","12","","12","","","","100.02","","","","","","NA"
"-81.90","42.25","ERIEAU (AUT)","613KLLM","2022-04-02 09:00","2022","04","02","09:00","","M","","M","75","","","","11","","17","","","","99.92","","","","","","NA"
"-81.90","42.25","ERIEAU (AUT)","613KLLM","2022-04-02 10:00","2022","04","02","10:00","","M","","M","76","","","","12","","17","","","","99.87","","","","","","NA"
"-81.90","42.25","ERIEAU (AUT)","613KLLM","2022-04-02 11:00","2022","04","02","11:00","","M","","M","74","","","","14","","18","","","","99.83","","","","","","NA"
"-81.90","42.25","ERIEAU (AUT)","613KLLM","2022-04-02 12:00","2022","04","02","12:00","","M","","M","70","","","","14","","14","","","","99.75","","","","","","NA"
"-81.90","42.25","ERIEAU (AUT)","613KLLM","2022-04-02 13:00","2022","04","02","13:00","","M","","M","73","","","","12","","9","","","","99.63","","","","","","NA"
"-81.90","42.25","ERIEAU (AUT)","613KLLM","2022-04-02 14:00","2022","04","02","14:00","","M","","M","70","","","","10","","6","","","","99.52","","","","","","NA"
"-81.90","42.25","ERIEAU (AUT)","613KLLM","2022-04-02 15:00","2022","04","02","15:00","","M","","M","61","","","","7","","8","","","","99.36","","","","","","NA"
"-81.90","42.25","ERIEAU (AUT)","613KLLM","2022-04-02 16:00","2022","04","02","16:00","","M","","M","69","","","","7","","12","","","","99.28","","","","","","NA"
"-81.90","42.25","ERIEAU (AUT)","613KLLM","2022-04-02 17:00","2022","04","02","17:00","","M","","M","78","","","","8","","14","","","","99.24","","","","","","NA"
"-81.90","42.25","ERIEAU (AUT)","613KLLM","2022-04-02 18:00","2022","04","02","18:00","","M","","M","78","","","","7","","17","","","","99.20","","","","","","NA"
"-81.90","42.25","ERIEAU (AUT)","613KLLM","2022-04-02 19:00","2022","04","02","19:00","","M","","M","80","","","","7","","13","","","","99.20","","","","","","NA"
"-81.90","42.25","ERIEAU (AUT)","613KLLM","2022-04-02 20:00","2022","04","02","20:00","","M","","M","80","","","","7","","16","","","","99.16","","","","","","NA"
"-81.90","42.25","ERIEAU (AUT)","613KLLM","2022-04-02 21:00","2022","04","02","21:00","","M","","M","74","","","","7","","18","","","","99.08","","","","","","NA"
"-81.90","42.25","ERIEAU (AUT)","613KLLM","2022-04-02 22:00","2022","04","02","22:00","","M","","M","79","","","","7","","17","","","","99.02","","","","","","NA"
"-81.90","42.25","ERIEAU (AUT)","613KLLM","2022-04-02 23:00","2022","04","02","23:00","","M","","M","77","","","","5","","7","","","","99.03","","","","","","NA"
"-81.90","42.25","ERIEAU (AUT)","613KLLM","2022-04-03 00:00","2022","04","03","00:00","","M","","M","77","","","","36","","4","","","","99.01","","","","","","NA"
"-81.90","42.25","ERIEAU (AUT)","613KLLM","2022-04-03 01:00","2022","04","03","01:00","","M","","M","82","","","","4","","8","","","","98.94","","","","","","NA"
"-81.90","42.25","ERIEAU (AUT)","613KLLM","2022-04-03 02:00","2022","04","03","02:00","","M","","M","82","","","","1","","9","","","","98.93","","","","","","NA"
"-81.90","42.25","ERIEAU (AUT)","613KLLM","2022-04-03 03:00","2022","04","03","03:00","","M","","M","77","","","","33","","10","","","","98.94","","","","","","NA"
"-81.90","42.25","ERIEAU (AUT)","613KLLM","2022-04-03 04:00","2022","04","03","04:00","","M","","M","86","","","","31","","11","","","","98.99","","","","","","NA"
"-81.90","42.25","ERIEAU (AUT)","613KLLM","2022-04-03 05:00","2022","04","03","05:00","","M","","M","93","","","","31","","8","","","","99.07","","","","","","NA"
"-81.90","42.25","ERIEAU (AUT)","613KLLM","2022-04-03 06:00","2022","04","03","06:00","","M","","M","94","","","","28","","9","","","","99.15","","","","","","NA"
"-81.90","42.25","ERIEAU (AUT)","613KLLM","2022-04-03 07:00","2022","04","03","07:00","","M","","M","89","","","","29","","16","","","","99.21","","","","","","NA"
"-81.90","42.25","ERIEAU (AUT)","613KLLM","2022-04-03 08:00","2022","04","03","08:00","","M","","M","89","","","","29","","16","","","","99.28","","","","","","NA"
"-81.90","42.25","ERIEAU (AUT)","613KLLM","2022-04-03 09:00","2022","04","03","09:00","","M","","M","82","","","","29","","14","","","","99.33","","","","","","NA"
"-81.90","42.25","ERIEAU (AUT)","613KLLM","2022-04-03 10:00","2022","04","03","10:00","","M","","M","80","","","","29","","12","","","","99.39","","","","","","NA"
"-81.90","42.25","ERIEAU (AUT)","613KLLM","2022-04-03 11:00","2022","04","03","11:00","","M","","M","75","","","","29","","14","","","","99.43","","","","","","NA"
"-81.90","42.25","ERIEAU (AUT)","613KLLM","2022-04-03 12:00","2022","04","03","12:00","","M","","M","71","","","","30","","10","","","","99.47","","","","","","NA"
"-81.90","42.25","ERIEAU (AUT)","613KLLM","2022-04-03 13:00","2022","04","03","13:00","","M","","M","75","","","","27","","13","","","","99.51","","","","","","NA"
"-81.90","42.25","ERIEAU (AUT)","613KLLM","2022-04-03 14:00","2022","04","03","14:00","","M","","M","72","","","","29","","12","","","","99.51","","","","","","NA"
"-81.90","42.25","ERIEAU (AUT)","613KLLM","2022-04-03 15:00","2022","04","03","15:00","","M","","M","69","","","","31","","9","","","","99.53","","","","","","NA"
"-81.90","42.25","ERIEAU (AUT)","613KLLM","2022-04-03 16:00","2022","04","03","16:00","","M","","M","69","","","","30","","7","","","","99.55","","","","","","NA"
"-81.90","42.25","ERIEAU (AUT)","613KLLM","2022-04-03 17:00","2022","04","03","17:00","","M","","M","74","","","","33","","11","","","","99.58","","","","","","NA"
"-81.90","42.25","ERIEAU (AUT)","613KLLM","2022-04-03 18:00","2022","04","03","18:00","","M","","M","75","","","","33","","8","","","","99.63","","","","","","NA"
"-81.90","42.25","ERIEAU (AUT)","613KLLM","2022-04-03 19:00","2022","04","03","19:00","","M","","M","74","","","","36","","13","","","","99.63","","","","","","NA"
"-81.90","42.25","ERIEAU (AUT)","613KLLM","2022-04-03 20:00","2022","04","03","20:00","","M","","M","75","","","","35","","5","","","","99.69","","","","","","NA"
"-81.90","42.25","ERIEAU (AUT)","613KLLM","2022-04-03 21:00","2022","04","03","21:00","","M","","M","77","","","","29","","2","","","","99.75","","","","","","NA"
"-81.90","42.25","ERIEAU (AUT)","613KLLM","2022-04-03 22:00","2022","04","03","22:00","","M","","M","78","","","","24","","2","","","","99.74","","","","","","NA"
"-81.90","42.25","ERIEAU (AUT)","613KLLM","2022-04-03 23:00","2022","04","03","23:00","","M","","M","78","","","","2","","3","","","","99.72","","","","","","NA"
"-81.90","42.25","ERIEAU (AUT)","613KLLM","2022-04-04 00:00","2022","04","04","00:00","","M","","M","87","","","","18","","4","","","","99.71","","","","","","NA"
"-81.90","42.25","ERIEAU (AUT)","613KLLM","2022-04-04 01:00","2022","04","04","01:00","","M","","M","89","","","","14","","7","","","","99.67","","","","","","NA"
"-81.90","42.25","ERIEAU (AUT)","613KLLM","2022-04-04 02:00","2022","04","04","02:00","","M","","M","88","","","","15","","5","","","","99.65","","","","","","NA"
"-81.90","42.25","ERIEAU (AUT)","613KLLM","2022-04-04 03:00","2022","04","04","03:00","","M","","M","89","","","","9","","6","","","","99.59","","","","","","NA"
"-81.90","42.25","ERIEAU (AUT)","613KLLM","2022-04-04 04:00","2022","04","04","04:00","","M","","M","89","","","","9","","5","","","","99.57","","","","","","NA"
"-81.90","42.25","ERIEAU (AUT)","613KLLM","2022-04-04 05:00","2022","04","04","05:00","","M","","M","87","","","","7","","10","","","","99.54","","","","","","NA"
"-81.90","42.25","ERIEAU (AUT)","613KLLM","2022-04-04 06:00","2022","04","04","06:00","","M","","M","87","","","","8","","10","","","","99.56","","","","","","NA"
"-81.90","42.25","ERIEAU (AUT)","613KLLM","2022-04-04 07:00","2022","04","04","07:00","","M","","M","88","","","","9","","11","","","","99.57","","","","","","NA"
"-81.90","42.25","ERIEAU (AUT)","613KLLM","2022-04-04 08:00","2022","04","04","08:00","","M","","M","90","","","","11","","13","","","","99.61","","","","","","NA"
"-81.90","42.25","ERIEAU (AUT)","613KLLM","2022-04-04 09:00","2022","04","04","09:00","","M","","M","94","","","","11","","10","","","","99.65","","","","","","NA"
"-81.90","42.25","ERIEAU (AUT)","613KLLM","2022-04-04 10:00","2022","04","04","10:00","","M","","M","93","","","","15","","12","","","","99.65","","","","","","NA"
"-81.90","42.25","ERIEAU (AUT)","613KLLM","2022-04-04 11:00","2022","04","04","11:00","","M","","M","91","","","","16","","13","","","","99.65","","","","","","NA"
"-81.90","42.25","ERIEAU (AUT)","613KLLM","2022-04-04 12:00","2022","04","04","12:00","","M","","M","93","","","","14","","18","","","","99.58","","","","","","NA"
"-81.90","42.25","ERIEAU (AUT)","613KLLM","2022-04-04 13:00","2022","04","04","13:00","","M","","M","96","","","","12","","23","","","","99.47","","","","","","NA"
"-81.90","42.25","ERIEAU (AUT)","613KLLM","2022-04-04 14:00","2022","04","04","14:00","","M","","M","97","","","","11","","26","","","","99.34","","","","","","NA"
"-81.90","42.25","ERIEAU (AUT)","613KLLM","2022-04-04 15:00","2022","04","04","15:00","","M","","M","97","","","","9","","18","","","","99.21","","","","","","NA"
"-81.90","42.25","ERIEAU (AUT)","613KLLM","2022-04-04 16:00","2022","04","04","16:00","","M","","M","97","","","","9","","19","","","","99.17","","","","","","NA"
"-81.90","42.25","ERIEAU (AUT)","613KLLM","2022-04-04 17:00","2022","04","04","17:00","","M","","M","96","","","","10","","16","","","","99.16","","","","","","NA"
"-81.90","42.25","ERIEAU (AUT)","613KLLM","2022-04-04 18:00","2022","04","04","18:00","","M","","M","97","","","","10","","15","","","","99.15","","","","","","NA"
"-81.90","42.25","ERIEAU (AUT)","613KLLM","2022-04-04 19:00","2022","04","04","19:00","","M","","M","97","","","","10","","10","","","","99.09","","","","","","NA"
"-81.90","42.25","ERIEAU (AUT)","613KLLM","2022-04-04 20:00","2022","04","04","20:00","","M","","M","96","","","","8","","14","","","","99.10","","","","","","NA"
"-81.90","42.25","ERIEAU (AUT)","613KLLM","2022-04-04 21:00","2022","04","04","21:00","","M","","M","94","","","","8","","17","","","","99.09","","","","","","NA"
"-81.90","42.25","ERIEAU (AUT)","613KLLM","2022-04-04 22:00","2022","04","04","22:00","","M","","M","93","","","","8","","18","","","","99.06","","","","","","NA"
"-81.90","42.25","ERIEAU (AUT)","613KLLM","2022-04-04 23:00","2022","04","04","23:00","","M","","M","91","","","","7","","18","","","","99.04","","","","","","NA"
"-81.90","42.25","ERIEAU (AUT)","613KLLM","2022-04-05 00:00","2022","04","05","00:00","","M","","M","91","","","","7","","13","","","","99.05","","","","","","NA"
"-81.90","42.25","ERIEAU (AUT)","613KLLM","2022-04-05 01:00","2022","04","05","01:00","","M","","M","91","","","","7","","16","","","","99.02","","","","","","NA"
"-81.90","42.25","ERIEAU (AUT)","613KLLM","2022-04-05 02:00","2022","04","05","02:00","","M","","M","91","","","","8","","13","","","","98.98","","","","","","NA"
"-81.90","42.25","ERIEAU (AUT)","613KLLM","2022-04-05 03:00","2022","04","05","03:00","","M","","M","92","","","","10","","16","","","","98.91","","","","","","NA"
"-81.90","42.25","ERIEAU (AUT)","613KLLM","2022-04-05 04:00","2022","04","05","04:00","","M","","M","91","","","","13","","17","","","","98.89","","","","","","NA"
"-81.90","42.25","ERIEAU (AUT)","613KLLM","2022-04-05 05:00","2022","04","05","05:00","","M","","M","92","","","","18","","12","","","","98.93","","","","","","NA"
"-81.90","42.25","ERIEAU (AUT)","613KLLM","2022-04-05 06:00","2022","04","05","06:00","","M","","M","96","","","","23","","6","","","","99.00","","","","","","NA"
"-81.90","42.25","ERIEAU (AUT)","613KLLM","2022-04-05 07:00","2022","04","05","07:00","","M","","M","98","","","","26","","8","","","","98.99","","","","","","NA"
"-81.90","42.25","ERIEAU (AUT)","613KLLM","2022-04-05 08:00","2022","04","05","08:00","","M","","M","99","","","","27","","6","","","","99.01","","","","","","NA"
"-81.90","42.25","ERIEAU (AUT)","613KLLM","2022-04-05 09:00","2022","04","05","09:00","","M","","M","99","","","","26","","5","","","","99.08","","","","","","NA"
"-81.90","42.25","ERIEAU (AUT)","613KLLM","2022-04-05 10:00","2022","04","05","10:00","","M","","M","99","","","","19","","3","","","","99.05","","","","","","NA"
"-81.90","42.25","ERIEAU (AUT)","613KLLM","2022-04-05 11:00","2022","04","05","11:00","","M","","M","99","","","","15","","8","","","","99.04","","","","","","NA"
"-81.90","42.25","ERIEAU (AUT)","613KLLM","2022-04-05 12:00","2022","04","05","12:00","","M","","M","99","","","","15","","8","","","","98.96","","","","","","NA"
"-81.90","42.25","ERIEAU (AUT)","613KLLM","2022-04-05 13:00","2022","04","05","13:00","","M","","M","99","","","","12","","13","","","","98.99","","","","","","NA"
"-81.90","42.25","ERIEAU (AUT)","613KLLM","2022-04-05 14:00","2022","04","05","14:00","","M","","M","99","","","","10","","7","","","","98.94","","","","","","NA"
"-81.90","42.25","ERIEAU (AUT)","613KLLM","2022-04-05 15:00","2022","04","05","15:00","","M","","M","99","","","","34","","10","","","","98.82","","","","","","NA"
"-81.90","42.25","ERIEAU (AUT)","613KLLM","2022-04-05 16:00","2022","04","05","16:00","","M","","M","69","","","","1","","11","","","","98.73","","","","","","NA"
"-81.90","42.25","ERIEAU (AUT)","613KLLM","2022-04-05 17:00","2022","04","05","17:00","","M","","M","65","","","","4","","11","","","","98.66","","","","","","NA"
"-81.90","42.25","ERIEAU (AUT)","613KLLM","2022-04-05 18:00","2022","04","05","18:00","","M","","M","84","","","","7","","13","","","","98.60","","","","","","NA"
"-81.90","42.25","ERIEAU (AUT)","613KLLM","2022-04-05 19:00","2022","04","05","19:00","","M","","M","91","","","","5","","9","","","","98.59","","","","","","NA"
"-81.90","42.25","ERIEAU (AUT)","613KLLM","2022-04-05 20:00","2022","04","05","20:00","","M","","M","86","","","","5","","13","","","","98.66","","","","","","NA"
"-81.90","42.25","ERIEAU (AUT)","613KLLM","2022-04-05 21:00","2022","04","05","21:00","","M","","M","84","","","","6","","16","","","","98.63","","","","","","NA"
"-81.90","42.25","ERIEAU (AUT)","613KLLM","2022-04-05 22:00","2022","04","05","22:00","","M","","M","85","","","","6","","20","","","","98.53","","","","","","NA"
"-81.90","42.25","ERIEAU (AUT)","613KLLM","2022-04-05 23:00","2022","04","05","23:00","","M","","M","84","","","","6","","26","","","","98.51","","","","","","NA"
"-81.90","42.25","ERIEAU (AUT)","613KLLM","2022-04-06 00:00","2022","04","06","00:00","","M","","M","85","","","","3","","15","","","","98.48","","","","","","NA"
"-81.90","42.25","ERIEAU (AUT)","613KLLM","2022-04-06 01:00","2022","04","06","01:00","","M","","M","84","","","","5","","19","","","","98.43","","","","","","NA"
"-81.90","42.25","ERIEAU (AUT)","613KLLM","2022-04-06 02:00","2022","04","06","02:00","","M","","M","87","","","","7","","19","","","","98.36","","","","","","NA"
"-81.90","42.25","ERIEAU (AUT)","613KLLM","2022-04-06 03:00","2022","04","06","03:00","","M","","M","86","","","","5","","13","","","","98.34","","","","","","NA"
"-81.90","42.25","ERIEAU (AUT)","613KLLM","2022-04-06 04:00","2022","04","06","04:00","","M","","M","85","","","","6","","16","","","","98.40","","","","","","NA"
"-81.90","42.25","ERIEAU (AUT)","613KLLM","2022-04-06 05:00","2022","04","06","05:00","","M","","M","88","","","","3","","8","","","","98.40","","","","","","NA"
"-81.90","42.25","ERIEAU (AUT)","613KLLM","2022-04-06 06:00","2022","04","06","06:00","","M","","M","90","","","","6","","8","","","","98.37","","","","","","NA"
"-81.90","42.25","ERIEAU (AUT)","613KLLM","2022-04-06 07:00","2022","04","06","07:00","","M","","M","93","","","","3","","7","","","","98.46","","","","","","NA"
"-81.90","42.25","ERIEAU (AUT)","613KLLM","2022-04-06 08:00","2022","04","06","08:00","","M","","M","93","","","","7","","6","","","","98.46","","","","","","NA"
"-81.90","42.25","ERIEAU (AUT)","613KLLM","2022-04-06 09:00","2022","04","06","09:00","","M","","M","96","","","","7","","19","","","","98.36","","","","","","NA"
"-81.90","42.25","ERIEAU (AUT)","613KLLM","2022-04-06 10:00","2022","04","06","10:00","","M","","M","96","","","","8","","24","","","","98.26","","","","","","NA"
"-81.90","42.25","ERIEAU (AUT)","613KLLM","2022-04-06 11:00","2022","04","06","11:00","","M","","M","97","","","","9","","11","","","","98.35","","","","","","NA"
"-81.90","42.25","ERIEAU (AUT)","613KLLM","2022-04-06 12:00","2022","04","06","12:00","","M","","M","99","","","","8","","30","","","","98.16","","","","","","NA"
"-81.90","42.25","ERIEAU (AUT)","613KLLM","2022-04-06 13:00","2022","04","06","13:00","","M","","M","96","","","","8","","29","","","","98.04","","","","","","NA"
"-81.90","42.25","ERIEAU (AUT)","613KLLM","2022-04-06 14:00","2022","04","06","14:00","","M","","M","97","","","","9","","16","","","","98.00","","","","","","NA"
"-81.90","42.25","ERIEAU (AUT)","613KLLM","2022-04-06 15:00","2022","04","06","15:00","","M","","M","98","","","","10","","13","","","","97.91","","","","","","NA"
"-81.90","42.25","ERIEAU (AUT)","613KLLM","2022-04-06 16:00","2022","04","06","16:00","","M","","M","98","","","","10","","5","","","","97.84","","","","","","NA"
"-81.90","42.25","ERIEAU (AUT)","613KLLM","2022-04-06 17:00","2022","04","06","17:00","","M","","M","98","","","","18","","14","","","","97.93","","","","","","NA"
"-81.90","42.25","ERIEAU (AUT)","613KLLM","2022-04-06 18:00","2022","04","06","18:00","","M","","M","99","","","","20","","17","","","","97.95","","","","","","NA"
"-81.90","42.25","ERIEAU (AUT)","613KLLM","2022-04-06 19:00","2022","04","06","19:00","","M","","M","99","","","","21","","11","","","","98.01","","","","","","NA"
"-81.90","42.25","ERIEAU (AUT)","613KLLM","2022-04-06 20:00","2022","04","06","20:00","","M","","M","100","","","","22","","9","","","","98.11","","","","","","NA"
"-81.90","42.25","ERIEAU (AUT)","613KLLM","2022-04-06 21:00","2022","04","06","21:00","","M","","M","100","","","","24","","6","","","","98.15","","","","","","NA"
"-81.90","42.25","ERIEAU (AUT)","613KLLM","2022-04-06 22:00","2022","04","06","22:00","","M","","M","100","","","","20","","5","","","","98.15","","","","","","NA"
"-81.90","42.25","ERIEAU (AUT)","613KLLM","2022-04-06 23:00","2022","04","06","23:00","","M","","M","100","","","","18","","10","","","","98.20","","","","","","NA"
"-81.90","42.25","ERIEAU (AUT)","613KLLM","2022-04-07 00:00","2022","04","07","00:00","","M","","M","100","","","","19","","14","","","","98.20","","","","","","NA"
"-81.90","42.25","ERIEAU (AUT)","613KLLM","2022-04-07 01:00","2022","04","07","01:00","","M","","M","100","","","","16","","14","","","","98.16","","","","","","NA"
"-81.90","42.25","ERIEAU (AUT)","613KLLM","2022-04-07 02:00","2022","04","07","02:00","","M","","M","100","","","","19","","15","","","","98.10","","","","","","NA"
"-81.90","42.25","ERIEAU (AUT)","613KLLM","2022-04-07 03:00","2022","04","07","03:00","","M","","M","98","","","","20","","15","","","","98.08","","","","","","NA"
"-81.90","42.25","ERIEAU (AUT)","613KLLM","2022-04-07 04:00","2022","04","07","04:00","","M","","M","93","","","","19","","22","","","","98.08","","","","","","NA"
"-81.90","42.25","ERIEAU (AUT)","613KLLM","2022-04-07 05:00","2022","04","07","05:00","","M","","M","92","","","","20","","18","","","","98.05","","","","","","NA"
"-81.90","42.25","ERIEAU (AUT)","613KLLM","2022-04-07 06:00","2022","04","07","06:00","","M","","M","90","","","","19","","20","","","","98.08","","","","","","NA"
"-81.90","42.25","ERIEAU (AUT)","613KLLM","2022-04-07 07:00","2022","04","07","07:00","","M","","M","92","","","","18","","15","","","","98.12","","","","","","NA"
"-81.90","42.25","ERIEAU (AUT)","613KLLM","2022-04-07 08:00","2022","04","07","08:00","","M","","M","92","","","","18","","16","","","","98.13","","","","","","NA"
"-81.90","42.25","ERIEAU (AUT)","613KLLM","2022-04-07 09:00","2022","04","07","09:00","","M","","M","91","","","","18","","19","","","","98.12","","","","","","NA"
"-81.90","42.25","ERIEAU (AUT)","613KLLM","2022-04-07 10:00","2022","04","07","10:00","","M","","M","90","","","","19","","16","","","","98.15","","","","","","NA"
"-81.90","42.25","ERIEAU (AUT)","613KLLM","2022-04-07 11:00","2022","04","07","11:00","","M","","M","90","","","","18","","13","","","","98.14","","","","","","NA"
"-81.90","42.25","ERIEAU (AUT)","613KLLM","2022-04-07 12:00","2022","04","07","12:00","","M","","M","92","","","","19","","12","","","","98.12","","","","","","NA"
"-81.90","42.25","ERIEAU (AUT)","613KLLM","2022-04-07 13:00","2022","04","07","13:00","","M","","M","86","","","","21","","11","","","","98.11","","","","","","NA"
"-81.90","42.25","ERIEAU (AUT)","613KLLM","2022-04-07 14:00","2022","04","07","14:00","","M","","M","80","","","","19","","11","","","","98.10","","","","","","NA"
"-81.90","42.25","ERIEAU (AUT)","613KLLM","2022-04-07 15:00","2022","04","07","15:00","","M","","M","77","","","","21","","12","","","","98.13","","","","","","NA"
"-81.90","42.25","ERIEAU (AUT)","613KLLM","2022-04-07 16:00","2022","04","07","16:00","","M","","M","75","","","","22","","11","","","","98.14","","","","","","NA"
"-81.90","42.25","ERIEAU (AUT)","613KLLM","2022-04-07 17:00","2022","04","07","17:00","","M","","M","76","","","","23","","15","","","","98.22","","","","","","NA"
"-81.90","42.25","ERIEAU (AUT)","613KLLM","2022-04-07 18:00","2022","04","07","18:00","","M","","M","78","","","","21","","10","","","","98.26","","","","","","NA"
"-81.90","42.25","ERIEAU (AUT)","613KLLM","2022-04-07 19:00","2022","04","07","19:00","","M","","M","81","","","","21","","8","","","","98.29","","","","","","NA"
"-81.90","42.25","ERIEAU (AUT)","613KLLM","2022-04-07 20:00","2022","04","07","20:00","","M","","M","86","","","","19","","11","","","","98.33","","","","","","NA"
"-81.90","42.25","ERIEAU (AUT)","613KLLM","2022-04-07 21:00","2022","04","07","21:00","","M","","M","86","","","","20","","10","","","","98.34","","","","","","NA"
"-81.90","42.25","ERIEAU (AUT)","613KLLM","2022-04-07 22:00","2022","04","07","22:00","","M","","M","87","","","","19","","10","","","","98.34","","","","","","NA"
"-81.90","42.25","ERIEAU (AUT)","613KLLM","2022-04-07 23:00","2022","04","07","23:00","","M","","M","90","","","","19","","9","","","","98.31","","","","","","NA"
"-81.90","42.25","ERIEAU (AUT)","613KLLM","2022-04-08 00:00","2022","04","08","00:00","","M","","M","89","","","","23","","6","","","","98.26","","","","","","NA"
"-81.90","42.25","ERIEAU (AUT)","613KLLM","2022-04-08 01:00","2022","04","08","01:00","","M","","M","88","","","","21","","12","","","","98.23","","","","","","NA"
"-81.90","42.25","ERIEAU (AUT)","613KLLM","2022-04-08 02:00","2022","04","08","02:00","","M","","M","86","","","","20","","16","","","","98.17","","","","","","NA"
"-81.90","42.25","ERIEAU (AUT)","613KLLM","2022-04-08 03:00","2022","04","08","03:00","","M","","M","87","","","","19","","17","","","","98.15","","","","","","NA"
"-81.90","42.25","ERIEAU (AUT)","613KLLM","2022-04-08 04:00","2022","04","08","04:00","","M","","M","91","","","","19","","18","","","","98.13","","","","","","NA"
"-81.90","42.25","ERIEAU (AUT)","613KLLM","2022-04-08 05:00","2022","04","08","05:00","","M","","M","90","","","","19","","15","","","","98.11","","","","","","NA"
"-81.90","42.25","ERIEAU (AUT)","613KLLM","2022-04-08 06:00","2022","04","08","06:00","","M","","M","91","","","","19","","16","","","","98.10","","","","","","NA"
"-81.90","42.25","ERIEAU (AUT)","613KLLM","2022-04-08 07:00","2022","04","08","07:00","","M","","M","89","","","","19","","15","","","","98.12","","","","","","NA"
"-81.90","42.25","ERIEAU (AUT)","613KLLM","2022-04-08 08:00","2022","04","08","08:00","","M","","M","89","","","","19","","18","","","","98.15","","","","","","NA"
"-81.90","42.25","ERIEAU (AUT)","613KLLM","2022-04-08 09:00","2022","04","08","09:00","","M","","M","88","","","","18","","19","","","","98.14","","","","","","NA"
"-81.90","42.25","ERIEAU (AUT)","613KLLM","2022-04-08 10:00","2022","04","08","10:00","","M","","M","89","","","","18","","17","","","","98.15","","","","","","NA"
"-81.90","42.25","ERIEAU (AUT)","613KLLM","2022-04-08 11:00","2022","04","08","11:00","","M","","M","88","","","","18","","18","","","","98.17","","","","","","NA"
"-81.90","42.25","ERIEAU (AUT)","613KLLM","2022-04-08 12:00","2022","04","08","12:00","","M","","M","86","","","","19","","14","","","","98.14","","","","","","NA"
"-81.90","42.25","ERIEAU (AUT)","613KLLM","2022-04-08 13:00","2022","04","08","13:00","","M","","M","87","","","","19","","14","","","","98.12","","","","","","NA"
"-81.90","42.25","ERIEAU (AUT)","613KLLM","2022-04-08 14:00","2022","04","08","14:00","","M","","M","85","","","","18","","15","","","","98.10","","","","","","NA"
"-81.90","42.25","ERIEAU (AUT)","613KLLM","2022-04-08 15:00","2022","04","08","15:00","","M","","M","88","","","","17","","15","","","","98.09","","","","","","NA"
"-81.90","42.25","ERIEAU (AUT)","613KLLM","2022-04-08 16:00","2022","04","08","16:00","","M","","M","86","","","","17","","18","","","","98.11","","","","","","NA"
"-81.90","42.25","ERIEAU (AUT)","613KLLM","2022-04-08 17:00","2022","04","08","17:00","","M","","M","87","","","","17","","18","","","","98.11","","","","","","NA"
"-81.90","42.25","ERIEAU (AUT)","613KLLM","2022-04-08 18:00","2022","04","08","18:00","","M","","M","88","","","","19","","19","","","","98.14","","","","","","NA"
"-81.90","42.25","ERIEAU (AUT)","613KLLM","2022-04-08 19:00","2022","04","08","19:00","","M","","M","89","","","","20","","18","","","","98.13","","","","","","NA"
"-81.90","42.25","ERIEAU (AUT)","613KLLM","2022-04-08 20:00","2022","04","08","20:00","","M","","M","89","","","","21","","16","","","","98.20","","","","","","NA"
"-81.90","42.25","ERIEAU (AUT)","613KLLM","2022-04-08 21:00","2022","04","08","21:00","","M","","M","90","","","","20","","21","","","","98.20","","","","","","NA"
"-81.90","42.25","ERIEAU (AUT)","613KLLM","2022-04-08 22:00","2022","04","08","22:00","","M","","M","89","","","","23","","17","","","","98.23","","","","","","NA"
"-81.90","42.25","ERIEAU (AUT)","613KLLM","2022-04-08 23:00","2022","04","08","23:00","","M","","M","91","","","","19","","7","","","","98.20","","","","","","NA"
"-81.90","42.25","ERIEAU (AUT)","613KLLM","2022-04-09 00:00","2022","04","09","00:00","","M","","M","93","","","","20","","8","","","","98.18","","","","","","NA"
"-81.90","42.25","ERIEAU (AUT)","613KLLM","2022-04-09 01:00","2022","04","09","01:00","","M","","M","94","","","","24","","5","","","","98.16","","","","","","NA"
"-81.90","42.25","ERIEAU (AUT)","613KLLM","2022-04-09 02:00","2022","04","09","02:00","","M","","M","95","","","","23","","6","","","","98.14","","","","","","NA"
"-81.90","42.25","ERIEAU (AUT)","613KLLM","2022-04-09 03:00","2022","04","09","03:00","","M","","M","95","","","","22","","9","","","","98.15","","","","","","NA"
"-81.90","42.25","ERIEAU (AUT)","613KLLM","2022-04-09 04:00","2022","04","09","04:00","","M","","M","91","","","","27","","10","","","","98.18","","","","","","NA"
"-81.90","42.25","ERIEAU (AUT)","613KLLM","2022-04-09 05:00","2022","04","09","05:00","","M","","M","93","","","","30","","9","","","","98.23","","","","","","NA"
"-81.90","42.25","ERIEAU (AUT)","613KLLM","2022-04-09 06:00","2022","04","09","06:00","","M","","M","95","","","","30","","9","","","","98.29","","","","","","NA"
"-81.90","42.25","ERIEAU (AUT)","613KLLM","2022-04-09 07:00","2022","04","09","07:00","","M","","M","94","","","","31","","10","","","","98.38","","","","","","NA"
"-81.90","42.25","ERIEAU (AUT)","613KLLM","2022-04-09 08:00","2022","04","09","08:00","","M","","M","95","","","","30","","8","","","","98.43","","","","","","NA"
"-81.90","42.25","ERIEAU (AUT)","613KLLM","2022-04-09 09:00","2022","04","09","09:00","","M","","M","89","","","","29","","9","","","","98.47","","","","","","NA"
"-81.90","42.25","ERIEAU (AUT)","613KLLM","2022-04-09 10:00","2022","04","09","10:00","","M","","M","84","","","","28","","10","","","","98.51","","","","","","NA"
"-81.90","42.25","ERIEAU (AUT)","613KLLM","2022-04-09 11:00","2022","04","09","11:00","","M","","M","72","","","","25","","12","","","","98.54","","","","","","NA"
"-81.90","42.25","ERIEAU (AUT)","613KLLM","2022-04-09 12:00","2022","04","09","12:00","","M","","M","61","","","","28","","14","","","","98.54","","","","","","NA"
"-81.90","42.25","ERIEAU (AUT)","613KLLM","2022-04-09 13:00","2022","04","09","13:00","","M","","M","66","","","","24","","14","","","","98.57","","","","","","NA"
"-81.90","42.25","ERIEAU (AUT)","613KLLM","2022-04-09 14:00","2022","04","09","14:00","","M","","M","58","","","","26","","12","","","","98.59","","","","","","NA"
"-81.90","42.25","ERIEAU (AUT)","613KLLM","2022-04-09 15:00","2022","04","09","15:00","","M","","M","57","","","","26","","15","","","","98.59","","","","","","NA"
"-81.90","42.25","ERIEAU (AUT)","613KLLM","2022-04-09 16:00","2022","04","09","16:00","","M","","M","56","","","","28","","15","","","","98.62","","","","","","NA"
"-81.90","42.25","ERIEAU (AUT)","613KLLM","2022-04-09 17:00","2022","04","09","17:00","","M","","M","58","","","","26","","15","","","","98.67","","","","","","NA"
"-81.90","42.25","ERIEAU (AUT)","613KLLM","2022-04-09 18:00","2022","04","09","18:00","","M","","M","64","","","","27","","13","","","","98.73","","","","","","NA"
"-81.90","42.25","ERIEAU (AUT)","613KLLM","2022-04-09 19:00","2022","04","09","19:00","","M","","M","67","","","","27","","12","","","","98.77","","","","","","NA"
"-81.90","42.25","ERIEAU (AUT)","613KLLM","2022-04-09 20:00","2022","04","09","20:00","","M","","M","67","","","","27","","11","","","","98.87","","","","","","NA"
"-81.90","42.25","ERIEAU (AUT)","613KLLM","2022-04-09 21:00","2022","04","09","21:00","","M","","M","68","","","","27","","8","","","","98.93","","","","","","NA"
"-81.90","42.25","ERIEAU (AUT)","613KLLM","2022-04-09 22:00","2022","04","09","22:00","","M","","M","69","","","","26","","14","","","","98.95","","","","","","NA"
"-81.90","42.25","ERIEAU (AUT)","613KLLM","2022-04-09 23:00","2022","04","09","23:00","","M","","M","68","","","","27","","11","","","","98.98","","","","","","NA"
"-81.90","42.25","ERIEAU (AUT)","613KLLM","2022-04-10 00:00","2022","04","10","00:00","","M","","M","71","","","","26","","10","","","","98.99","","","","","","NA"
"-81.90","42.25","ERIEAU (AUT)","613KLLM","2022-04-10 01:00","2022","04","10","01:00","","M","","M","70","","","","29","","11","","","","99.03","","","","","","NA"
"-81.90","42.25","ERIEAU (AUT)","613KLLM","2022-04-10 02:00","2022","04","10","02:00","","M","","M","68","","","","29","","12","","","","99.06","","","","","","NA"
"-81.90","42.25","ERIEAU (AUT)","613KLLM","2022-04-10 03:00","2022","04","10","03:00","","M","","M","68","","","","27","","12","","","","99.10","","","","","","NA"
"-81.90","42.25","ERIEAU (AUT)","613KLLM","2022-04-10 04:00","2022","04","10","04:00","","M","","M","61","","","","27","","13","","","","99.14","","","","","","NA"
"-81.90","42.25","ERIEAU (AUT)","613KLLM","2022-04-10 05:00","2022","04","10","05:00","","M","","M","67","","","","28","","13","","","","99.21","","","","","","NA"
"-81.90","42.25","ERIEAU (AUT)","613KLLM","2022-04-10 06:00","2022","04","10","06:00","","M","","M","73","","","","28","","12","","","","99.31","","","","","","NA"
"-81.90","42.25","ERIEAU (AUT)","613KLLM","2022-04-10 07:00","2022","04","10","07:00","","M","","M","72","","","","28","","15","","","","99.39","","","","","","NA"
"-81.90","42.25","ERIEAU (AUT)","613KLLM","2022-04-10 08:00","2022","04","10","08:00","","M","","M","68","","","","29","","14","","","","99.45","","","","","","NA"
"-81.90","42.25","ERIEAU (AUT)","613KLLM","2022-04-10 09:00","2022","04","10","09:00","","M","","M","62","","","","30","","11","","","","99.47","","","","","","NA"
"-81.90","42.25","ERIEAU (AUT)","613KLLM","2022-04-10 10:00","2022","04","10","10:00","","M","","M","54","","","","29","","12","","","","99.51","","","","","","NA"
"-81.90","42.25","ERIEAU (AUT)","613KLLM","2022-04-10 11:00","2022","04","10","11:00","","M","","M","55","","","","31","","11","","","","99.53","","","","","","NA"
"-81.90","42.25","ERIEAU (AUT)","613KLLM","2022-04-10 12:00","2022","04","10","12:00","","M","","M","54","","","","31","","10","","","","99.53","","","","","","NA"
"-81.90","42.25","ERIEAU (AUT)","613KLLM","2022-04-10 13:00","2022","04","10","13:00","","M","","M","49","","","","30","","5","","","","99.52","","","","","","NA"
"-81.90","42.25","ERIEAU (AUT)","613KLLM","2022-04-10 14:00","2022","04","10","14:00","","M","","M","78","","","","19","","20","","","","99.53","","","","","","NA"
"-81.90","42.25","ERIEAU (AUT)","613KLLM","2022-04-10 15:00","2022","04","10","15:00","","M","","M","77","","","","20","","20","","","","99.48","","","","","","NA"
"-81.90","42.25","ERIEAU (AUT)","613KLLM","2022-04-10 16:00","2022","04","10","16:00","","M","","M","75","","","","19","","19","","","","99.46","","","","","","NA"
"-81.90","42.25","ERIEAU (AUT)","613KLLM","2022-04-10 17:00","2022","04","10","17:00","","M","","M","72","","","","19","","17","","","","99.44","","","","","","NA"
"-81.90","42.25","ERIEAU (AUT)","613KLLM","2022-04-10 18:00","2022","04","10","18:00","","M","","M","77","","","","16","","12","","","","99.41","","","","","","NA"
"-81.90","42.25","ERIEAU (AUT)","613KLLM","2022-04-10 19:00","2022","04","10","19:00","","M","","M","79","","","","16","","11","","","","99.41","","","","","","NA"
"-81.90","42.25","ERIEAU (AUT)","613KLLM","2022-04-10 20:00","2022","04","10","20:00","","M","","M","80","","","","14","","15","","","","99.43","","","","","","NA"
"-81.90","42.25","ERIEAU (AUT)","613KLLM","2022-04-10 21:00","2022","04","10","21:00","","M","","M","80","","","","10","","14","","","","99.40","","","","","","NA"
"-81.90","42.25","ERIEAU (AUT)","613KLLM","2022-04-10 22:00","2022","04","10","22:00","","M","","M","77","","","","12","","18","","","","99.39","","","","","","NA"
"-81.90","42.25","ERIEAU (AUT)","613KLLM","2022-04-10 23:00","2022","04","10","23:00","","M","","M","75","","","","10","","19","","","","99.38","","","","","","NA"
"-81.90","42.25","ERIEAU (AUT)","613KLLM","2022-04-11 00:00","2022","04","11","00:00","","M","","M","78","","","","11","","21","","","","99.45","","","","","","NA"
"-81.90","42.25","ERIEAU (AUT)","613KLLM","2022-04-11 01:00","2022","04","11","01:00","","M","","M","78","","","","9","","18","","","","99.39","","","","","","NA"
"-81.90","42.25","ERIEAU (AUT)","613KLLM","2022-04-11 02:00","2022","04","11","02:00","","M","","M","74","","","","10","","22","","","","99.28","","","","","","NA"
"-81.90","42.25","ERIEAU (AUT)","613KLLM","2022-04-11 03:00","2022","04","11","03:00","","M","","M","79","","","","9","","21","","","","99.19","","","","","","NA"
"-81.90","42.25","ERIEAU (AUT)","613KLLM","2022-04-11 04:00","2022","04","11","04:00","","M","","M","79","","","","9","","26","","","","99.05","","","","","","NA"
"-81.90","42.25","ERIEAU (AUT)","613KLLM","2022-04-11 05:00","2022","04","11","05:00","","M","","M","80","","","","9","","20","","","","99.02","","","","","","NA"
"-81.90","42.25","ERIEAU (AUT)","613KLLM","2022-04-11 06:00","2022","04","11","06:00","","M","","M","79","","","","9","","19","","","","98.95","","","","","","NA"
"-81.90","42.25","ERIEAU (AUT)","613KLLM","2022-04-11 07:00","2022","04","11","07:00","","M","","M","80","","","","10","","16","","","","99.05","","","","","","NA"
"-81.90","42.25","ERIEAU (AUT)","613KLLM","2022-04-11 08:00","2022","04","11","08:00","","M","","M","80","","","","9","","13","","","","98.99","","","","","","NA"
"-81.90","42.25","ERIEAU (AUT)","613KLLM","2022-04-11 09:00","2022","04","11","09:00","","M","","M","75","","","","11","","18","","","","98.91","","","","","","NA"
"-81.90","42.25","ERIEAU (AUT)","613KLLM","2022-04-11 10:00","2022","04","11","10:00","","M","","M","82","","","","12","","11","","","","98.90","","","","","","NA"
"-81.90","42.25","ERIEAU (AUT)","613KLLM","2022-04-11 11:00","2022","04","11","11:00","","M","","M","84","","","","14","","12","","","","98.84","","","","","","NA"
"-81.90","42.25","ERIEAU (AUT)","613KLLM","2022-04-11 12:00","2022","04","11","12:00","","M","","M","80","","","","16","","27","","","","98.83","","","","","","NA"
"-81.90","42.25","ERIEAU (AUT)","613KLLM","2022-04-11 13:00","2022","04","11","13:00","","M","","M","86","","","","16","","23","","","","98.80","","","","","","NA"
"-81.90","42.25","ERIEAU (AUT)","613KLLM","2022-04-11 14:00","2022","04","11","14:00","","M","","M","88","","","","15","","28","","","","98.78","","","","","","NA"
"-81.90","42.25","ERIEAU (AUT)","613KLLM","2022-04-11 15:00","2022","04","11","15:00","","M","","M","91","","","","15","","27","","","","98.78","","","","","","NA"
"-81.90","42.25","ERIEAU (AUT)","613KLLM","2022-04-11 16:00","2022","04","11","16:00","","M","","M","93","","","","19","","32","","","","98.83","","","","","","NA"
"-81.90","42.25","ERIEAU (AUT)","613KLLM","2022-04-11 17:00","2022","04","11","17:00","","M","","M","97","","","","20","","18","","","","98.87","","","","","","NA"
"-81.90","42.25","ERIEAU (AUT)","613KLLM","2022-04-11 18:00","2022","04","11","18:00","","M","","M","96","","","","21","","11","","","","98.94","","","","","","NA"
"-81.90","42.25","ERIEAU (AUT)","613KLLM","2022-04-11 19:00","2022","04","11","19:00","","M","","M","92","","","","20","","15","","","","99.00","","","","","","NA"
"-81.90","42.25","ERIEAU (AUT)","613KLLM","2022-04-11 20:00","2022","04","11","20:00","","M","","M","91","","","","21","","10","","","","99.04","","","","","","NA"
"-81.90","42.25","ERIEAU (AUT)","613KLLM","2022-04-11 21:00","2022","04","11","21:00","","M","","M","95","","","","23","","16","","","","99.10","","","","","","NA"
"-81.90","42.25","ERIEAU (AUT)","613KLLM","2022-04-11 22:00","2022","04","11","22:00","","M","","M","96","","","","22","","8","","","","99.10","","","","","","NA"
"-81.90","42.25","ERIEAU (AUT)","613KLLM","2022-04-11 23:00","2022","04","11","23:00","","M","","M","97","","","","25","","9","","","","99.19","","","","","","NA"
"-81.90","42.25","ERIEAU (AUT)","613KLLM","2022-04-12 00:00","2022","04","12","00:00","","M","","M","96","","","","24","","18","","","","99.27","","","","","","NA"
"-81.90","42.25","ERIEAU (AUT)","613KLLM","2022-04-12 01:00","2022","04","12","01:00","","M","","M","98","","","","19","","13","","","","99.27","","","","","","NA"
"-81.90","42.25","ERIEAU (AUT)","613KLLM","2022-04-12 02:00","2022","04","12","02:00","","M","","M","99","","","","23","","5","","","","99.36","","","","","","NA"
"-81.90","42.25","ERIEAU (AUT)","613KLLM","2022-04-12 03:00","2022","04","12","03:00","","M","","M","99","","","","24","","8","","","","99.40","","","","","","NA"
"-81.90","42.25","ERIEAU (AUT)","613KLLM","2022-04-12 04:00","2022","04","12","04:00","","M","","M","99","","","","23","","9","","","","99.48","","","","","","NA"
"-81.90","42.25","ERIEAU (AUT)","613KLLM","2022-04-12 05:00","2022","04","12","05:00","","M","","M","99","","","","25","","4","","","","99.55","","","","","","NA"
"-81.90","42.25","ERIEAU (AUT)","613KLLM","2022-04-12 06:00","2022","04","12","06:00","","M","","M","100","","","","28","","3","","","","99.65","","","","","","NA"
"-81.90","42.25","ERIEAU (AUT)","613KLLM","2022-04-12 07:00","2022","04","12","07:00","","M","","M","100","","","","0","","1","","","","99.75","","","","","","NA"
"-81.90","42.25","ERIEAU (AUT)","613KLLM","2022-04-12 08:00","2022","04","12","08:00","","M","","M","88","","","","36","","4","","","","99.79","","","","","","NA"
"-81.90","42.25","ERIEAU (AUT)","613KLLM","2022-04-12 09:00","2022","04","12","09:00","","M","","M","60","","","","7","","13","","","","99.79","","","","","","NA"
"-81.90","42.25","ERIEAU (AUT)","613KLLM","2022-04-12 10:00","2022","04","12","10:00","","M","","M","71","","","","8","","14","","","","99.79","","","","","","NA"
"-81.90","42.25","ERIEAU (AUT)","613KLLM","2022-04-12 11:00","2022","04","12","11:00","","M","","M","60","","","","8","","14","","","","99.86","","","","","","NA"
"-81.90","42.25","ERIEAU (AUT)","613KLLM","2022-04-12 12:00","2022","04","12","12:00","","M","","M","73","","","","10","","9","","","","99.87","","","","","","NA"
"-81.90","42.25","ERIEAU (AUT)","613KLLM","2022-04-12 13:00","2022","04","12","13:00","","M","","M","87","","","","9","","9","","","","99.85","","","","","","NA"
"-81.90","42.25","ERIEAU (AUT)","613KLLM","2022-04-12 14:00","2022","04","12","14:00","","M","","M","83","","","","9","","12","","","","99.85","","","","","","NA"
"-81.90","42.25","ERIEAU (AUT)","613KLLM","2022-04-12 15:00","2022","04","12","15:00","","M","","M","73","","","","8","","14","","","","99.79","","","","","","NA"
"-81.90","42.25","ERIEAU (AUT)","613KLLM","2022-04-12 16:00","2022","04","12","16:00","","M","","M","70","","","","7","","10","","","","99.72","","","","","","NA"
"-81.90","42.25","ERIEAU (AUT)","613KLLM","2022-04-12 17:00","2022","04","12","17:00","","M","","M","70","","","","6","","11","","","","99.67","","","","","","NA"
"-81.90","42.25","ERIEAU (AUT)","613KLLM","2022-04-12 18:00","2022","04","12","18:00","","M","","M","79","","","","7","","17","","","","99.59","","","","","","NA"
"-81.90","42.25","ERIEAU (AUT)","613KLLM","2022-04-12 19:00","2022","04","12","19:00","","M","","M","87","","","","7","","17","","","","99.56","","","","","","NA"
"-81.90","42.25","ERIEAU (AUT)","613KLLM","2022-04-12 20:00","2022","04","12","20:00","","M","","M","88","","","","8","","16","","","","99.49","","","","","","NA"
"-81.90","42.25","ERIEAU (AUT)","613KLLM","2022-04-12 21:00","2022","04","12","21:00","","M","","M","76","","","","8","","24","","","","99.36","","","","","","NA"
"-81.90","42.25","ERIEAU (AUT)","613KLLM","2022-04-12 22:00","2022","04","12","22:00","","M","","M","75","","","","8","","23","","","","99.26","","","","","","NA"
"-81.90","42.25","ERIEAU (AUT)","613KLLM","2022-04-12 23:00","2022","04","12","23:00","","M","","M","76","","","","9","","21","","","","99.23","","","","","","NA"
"-81.90","42.25","ERIEAU (AUT)","613KLLM","2022-04-13 00:00","2022","04","13","00:00","","M","","M","81","","","","9","","17","","","","99.09","","","","","","NA"
"-81.90","42.25","ERIEAU (AUT)","613KLLM","2022-04-13 01:00","2022","04","13","01:00","","M","","M","84","","","","9","","13","","","","99.11","","","","","","NA"
"-81.90","42.25","ERIEAU (AUT)","613KLLM","2022-04-13 02:00","2022","04","13","02:00","","M","","M","86","","","","9","","15","","","","99.02","","","","","","NA"
"-81.90","42.25","ERIEAU (AUT)","613KLLM","2022-04-13 03:00","2022","04","13","03:00","","M","","M","87","","","","4","","12","","","","99.02","","","","","","NA"
"-81.90","42.25","ERIEAU (AUT)","613KLLM","2022-04-13 04:00","2022","04","13","04:00","","M","","M","89","","","","6","","6","","","","99.02","","","","","","NA"
"-81.90","42.25","ERIEAU (AUT)","613KLLM","2022-04-13 05:00","2022","04","13","05:00","","M","","M","90","","","","8","","9","","","","98.94","","","","","","NA"
"-81.90","42.25","ERIEAU (AUT)","613KLLM","2022-04-13 06:00","2022","04","13","06:00","","M","","M","93","","","","16","","19","","","","98.82","","","","","","NA"
"-81.90","42.25","ERIEAU (AUT)","613KLLM","2022-04-13 07:00","2022","04","13","07:00","","M","","M","94","","","","16","","20","","","","98.83","","","","","","NA"
"-81.90","42.25","ERIEAU (AUT)","613KLLM","2022-04-13 08:00","2022","04","13","08:00","","M","","M","94","","","","17","","25","","","","98.81","","","","","","NA"
"-81.90","42.25","ERIEAU (AUT)","613KLLM","2022-04-13 09:00","2022","04","13","09:00","","M","","M","93","","","","17","","21","","","","98.76","","","","","","NA"
"-81.90","42.25","ERIEAU (AUT)","613KLLM","2022-04-13 10:00","2022","04","13","10:00","","M","","M","94","","","","17","","24","","","","98.74","","","","","","NA"
"-81.90","42.25","ERIEAU (AUT)","613KLLM","2022-04-13 11:00","2022","04","13","11:00","","M","","M","93","","","","16","","20","","","","98.68","","","","","","NA"
"-81.90","42.25","ERIEAU (AUT)","613KLLM","2022-04-13 12:00","2022","04","13","12:00","","M","","M","93","","","","16","","18","","","","98.63","","","","","","NA"
"-81.90","42.25","ERIEAU (AUT)","613KLLM","2022-04-13 13:00","2022","04","13","13:00","","M","","M","92","","","","17","","19","","","","98.57","","","","","","NA"
"-81.90","42.25","ERIEAU (AUT)","613KLLM","2022-04-13 14:00","2022","04","13","14:00","","M","","M","94","","","","19","","15","","","","98.52","","","","","","NA"
"-81.90","42.25","ERIEAU (AUT)","613KLLM","2022-04-13 15:00","2022","04","13","15:00","","M","","M","98","","","","17","","27","","","","98.39","","","","","","NA"
"-81.90","42.25","ERIEAU (AUT)","613KLLM","2022-04-13 16:00","2022","04","13","16:00","","M","","M","93","","","","17","","20","","","","98.33","","","","","","NA"
"-81.90","42.25","ERIEAU (AUT)","613KLLM","2022-04-13 17:00","2022","04","13","17:00","","M","","M","94","","","","18","","20","","","","98.34","","","","","","NA"
"-81.90","42.25","ERIEAU (AUT)","613KLLM","2022-04-13 18:00","2022","04","13","18:00","","M","","M","99","","","","18","","26","","","","98.36","","","","","","NA"
"-81.90","42.25","ERIEAU (AUT)","613KLLM","2022-04-13 19:00","2022","04","13","19:00","","M","","M","100","","","","18","","17","","","","98.32","","","","","","NA"
"-81.90","42.25","ERIEAU (AUT)","613KLLM","2022-04-13 20:00","2022","04","13","20:00","","M","","M","100","","","","15","","15","","","","98.23","","","","","","NA"
"-81.90","42.25","ERIEAU (AUT)","613KLLM","2022-04-13 21:00","2022","04","13","21:00","","M","","M","100","","","","15","","22","","","","98.20","","","","","","NA"
"-81.90","42.25","ERIEAU (AUT)","613KLLM","2022-04-13 22:00","2022","04","13","22:00","","M","","M","100","","","","17","","20","","","","98.19","","","","","","NA"
"-81.90","42.25","ERIEAU (AUT)","613KLLM","2022-04-13 23:00","2022","04","13","23:00","","M","","M","100","","","","17","","20","","","","98.15","","","","","","NA"
"-81.90","42.25","ERIEAU (AUT)","613KLLM","2022-04-14 00:00","2022","04","14","00:00","","M","","M","100","","","","16","","21","","","","98.09","","","","","","NA"
"-81.90","42.25","ERIEAU (AUT)","613KLLM","2022-04-14 01:00","2022","04","14","01:00","","M","","M","100","","","","17","","24","","","","98.01","","","","","","NA"
"-81.90","42.25","ERIEAU (AUT)","613KLLM","2022-04-14 02:00","2022","04","14","02:00","","M","","M","100","","","","16","","27","","","","97.79","","","","","","NA"
"-81.90","42.25","ERIEAU (AUT)","613KLLM","2022-04-14 03:00","2022","04","14","03:00","","M","","M","100","","","","20","","27","","","","97.89","","","","","","NA"
"-81.90","42.25","ERIEAU (AUT)","613KLLM","2022-04-14 04:00","2022","04","14","04:00","","M","","M","100","","","","19","","21","","","","97.92","","","","","","NA"
"-81.90","42.25","ERIEAU (AUT)","613KLLM","2022-04-14 05:00","2022","04","14","05:00","","M","","M","100","","","","20","","37","","","","98.01","","","","","","NA"
"-81.90","42.25","ERIEAU (AUT)","613KLLM","2022-04-14 06:00","2022","04","14","06:00","","M","","M","100","","","","27","","24","","","","98.29","","","","","","NA"
"-81.90","42.25","ERIEAU (AUT)","613KLLM","2022-04-14 07:00","2022","04","14","07:00","","M","","M","84","","","","27","","21","","","","98.54","","","","","","NA"
"-81.90","42.25","ERIEAU (AUT)","613KLLM","2022-04-14 08:00","2022","04","14","08:00","","M","","M","80","","","","26","","22","","","","98.75","","","","","","NA"
"-81.90","42.25","ERIEAU (AUT)","613KLLM","2022-04-14 09:00","2022","04","14","09:00","","M","","M","77","","","","25","","13","","","","98.90","","","","","","NA"
"-81.90","42.25","ERIEAU (AUT)","613KLLM","2022-04-14 10:00","2022","04","14","10:00","","M","","M","47","","","","26","","20","","","","98.99","","","","","","NA"
"-81.90","42.25","ERIEAU (AUT)","613KLLM","2022-04-14 11:00","2022","04","14","11:00","","M","","M","67","","","","21","","14","","","","99.09","","","","","","NA"
"-81.90","42.25","ERIEAU (AUT)","613KLLM","2022-04-14 12:00","2022","04","14","12:00","","M","","M","74","","","","20","","28","","","","99.12","","","","","","NA"
"-81.90","42.25","ERIEAU (AUT)","613KLLM","2022-04-14 13:00","2022","04","14","13:00","","M","","M","77","","","","19","","22","","","","99.18","","","","","","NA"
"-81.90","42.25","ERIEAU (AUT)","613KLLM","2022-04-14 14:00","2022","04","14","14:00","","M","","M","76","","","","18","","17","","","","99.12","","","","","","NA"
"-81.90","42.25","ERIEAU (AUT)","613KLLM","2022-04-14 15:00","2022","04","14","15:00","","M","","M","77","","","","17","","22","","","","99.06","","","","","","NA"
"-81.90","42.25","ERIEAU (AUT)","613KLLM","2022-04-14 16:00","2022","04","14","16:00","","M","","M","74","","","","18","","23","","","","99.03","","","","","","NA"
"-81.90","42.25","ERIEAU (AUT)","613KLLM","2022-04-14 17:00","2022","04","14","17:00","","M","","M","47","","","","22","","25","","","","99.02","","","","","","NA"
"-81.90","42.25","ERIEAU (AUT)","613KLLM","2022-04-14 18:00","2022","04","14","18:00","","M","","M","55","","","","21","","28","","","","99.05","","","","","","NA"
"-81.90","42.25","ERIEAU (AUT)","613KLLM","2022-04-14 19:00","2022","04","14","19:00","","M","","M","56","","","","21","","21","","","","99.08","","","","","","NA"
"-81.90","42.25","ERIEAU (AUT)","613KLLM","2022-04-14 20:00","2022","04","14","20:00","","M","","M","59","","","","21","","23","","","","99.16","","","","","","NA"
"-81.90","42.25","ERIEAU (AUT)","613KLLM","2022-04-14 21:00","2022","04","14","21:00","","M","","M","69","","","","22","","15","","","","99.23","","","","","","NA"
"-81.90","42.25","ERIEAU (AUT)","613KLLM","2022-04-14 22:00","2022","04","14","22:00","","M","","M","77","","","","20","","22","","","","99.28","","","","","","NA"
"-81.90","42.25","ERIEAU (AUT)","613KLLM","2022-04-14 23:00","2022","04","14","23:00","","M","","M","75","","","","21","","18","","","","99.31","","","","","","NA"
"-81.90","42.25","ERIEAU (AUT)","613KLLM","2022-04-15 00:00","2022","04","15","00:00","","M","","M","71","","","","24","","15","","","","99.36","","","","","","NA"
"-81.90","42.25","ERIEAU (AUT)","613KLLM","2022-04-15 01:00","2022","04","15","01:00","","M","","M","69","","","","24","","20","","","","99.39","","","","","","NA"
"-81.90","42.25","ERIEAU (AUT)","613KLLM","2022-04-15 02:00","2022","04","15","02:00","","M","","M","75","","","","19","","14","","","","99.29","","","","","","NA"
"-81.90","42.25","ERIEAU (AUT)","613KLLM","2022-04-15 03:00","2022","04","15","03:00","","M","","M","73","","","","19","","25","","","","99.26","","","","","","NA"
"-81.90","42.25","ERIEAU (AUT)","613KLLM","2022-04-15 04:00","2022","04","15","04:00","","M","","M","75","","","","18","","23","","","","99.22","","","","","","NA"
"-81.90","42.25","ERIEAU (AUT)","613KLLM","2022-04-15 05:00","2022","04","15","05:00","","M","","M","73","","","","19","","28","","","","99.22","","","","","","NA"
"-81.90","42.25","ERIEAU (AUT)","613KLLM","2022-04-15 06:00","2022","04","15","06:00","","M","","M","75","","","","19","","24","","","","99.25","","","","","","NA"
"-81.90","42.25","ERIEAU (AUT)","613KLLM","2022-04-15 07:00","2022","04","15","07:00","","M","","M","80","","","","18","","21","","","","99.22","","","","","","NA"
"-81.90","42.25","ERIEAU (AUT)","613KLLM","2022-04-15 08:00","2022","04","15","08:00","","M","","M","67","","","","20","","25","","","","99.19","","","","","","NA"
"-81.90","42.25","ERIEAU (AUT)","613KLLM","2022-04-15 09:00","2022","04","15","09:00","","M","","M","77","","","","20","","26","","","","99.25","","","","","","NA"
"-81.90","42.25","ERIEAU (AUT)","613KLLM","2022-04-15 10:00","2022","04","15","10:00","","M","","M","70","","","","25","","26","","","","99.23","","","","","","NA"
"-81.90","42.25","ERIEAU (AUT)","613KLLM","2022-04-15 11:00","2022","04","15","11:00","","M","","M","78","","","","21","","22","","","","99.33","","","","","","NA"
"-81.90","42.25","ERIEAU (AUT)","613KLLM","2022-04-15 12:00","2022","04","15","12:00","","M","","M","76","","","","22","","17","","","","99.23","","","","","","NA"
"-81.90","42.25","ERIEAU (AUT)","613KLLM","2022-04-15 13:00","2022","04","15","13:00","","M","","M","75","","","","22","","11","","","","99.12","","","","","","NA"
"-81.90","42.25","ERIEAU (AUT)","613KLLM","2022-04-15 14:00","2022","04","15","14:00","","M","","M","78","","","","22","","7","","","","99.07","","","","","","NA"
"-81.90","42.25","ERIEAU (AUT)","613KLLM","2022-04-15 15:00","2022","04","15","15:00","","M","","M","58","","","","27","","8","","","","99.00","","","","","","NA"
"-81.90","42.25","ERIEAU (AUT)","613KLLM","2022-04-15 16:00","2022","04","15","16:00","","M","","M","77","","","","23","","6","","","","99.02","","","","","","NA"
"-81.90","42.25","ERIEAU (AUT)","613KLLM","2022-04-15 17:00","2022","04","15","17:00","","M","","M","58","","","","27","","16","","","","99.01","","","","","","NA"
"-81.90","42.25","ERIEAU (AUT)","613KLLM","2022-04-15 18:00","2022","04","15","18:00","","M","","M","64","","","","27","","20","","","","98.96","","","","","","NA"
"-81.90","42.25","ERIEAU (AUT)","613KLLM","2022-04-15 19:00","2022","04","15","19:00","","M","","M","69","","","","27","","21","","","","99.03","","","","","","NA"
"-81.90","42.25","ERIEAU (AUT)","613KLLM","2022-04-15 20:00","2022","04","15","20:00","","M","","M","72","","","","27","","16","","","","99.08","","","","","","NA"
"-81.90","42.25","ERIEAU (AUT)","613KLLM","2022-04-15 21:00","2022","04","15","21:00","","M","","M","76","","","","27","","14","","","","99.15","","","","","","NA"
"-81.90","42.25","ERIEAU (AUT)","613KLLM","2022-04-15 22:00","2022","04","15","22:00","","M","","M","86","","","","21","","10","","","","99.19","","","","","","NA"
"-81.90","42.25","ERIEAU (AUT)","613KLLM","2022-04-15 23:00","2022","04","15","23:00","","M","","M","89","","","","21","","22","","","","99.22","","","","","","NA"
"-81.90","42.25","ERIEAU (AUT)","613KLLM","2022-04-16 00:00","2022","04","16","00:00","","M","","M","93","","","","24","","20","","","","99.24","","","","","","NA"
"-81.90","42.25","ERIEAU (AUT)","613KLLM","2022-04-16 01:00","2022","04","16","01:00","","M","","M","93","","","","27","","13","","","","99.25","","","","","","NA"
"-81.90","42.25","ERIEAU (AUT)","613KLLM","2022-04-16 02:00","2022","04","16","02:00","","M","","M","90","","","","24","","8","","","","99.24","","","","","","NA"
"-81.90","42.25","ERIEAU (AUT)","613KLLM","2022-04-16 03:00","2022","04","16","03:00","","M","","M","91","","","","22","","7","","","","99.21","","","","","","NA"
"-81.90","42.25","ERIEAU (AUT)","613KLLM","2022-04-16 04:00","2022","04","16","04:00","","M","","M","94","","","","23","","9","","","","99.23","","","","","","NA"
"-81.90","42.25","ERIEAU (AUT)","613KLLM","2022-04-16 05:00","2022","04","16","05:00","","M","","M","82","","","","28","","8","","","","99.25","","","","","","NA"
"-81.90","42.25","ERIEAU (AUT)","613KLLM","2022-04-16 06:00","2022","04","16","06:00","","M","","M","80","","","","29","","6","","","","99.32","","","","","","NA"
"-81.90","42.25","ERIEAU (AUT)","613KLLM","2022-04-16 07:00","2022","04","16","07:00","","M","","M","70","","","","31","","7","","","","99.40","","","","","","NA"
"-81.90","42.25","ERIEAU (AUT)","613KLLM","2022-04-16 08:00","2022","04","16","08:00","","M","","M","66","","","","30","","6","","","","99.38","","","","","","NA"
"-81.90","42.25","ERIEAU (AUT)","613KLLM","2022-04-16 09:00","2022","04","16","09:00","","M","","M","61","","","","29","","9","","","","99.39","","","","","","NA"
"-81.90","42.25","ERIEAU (AUT)","613KLLM","2022-04-16 10:00","2022","04","16","10:00","","M","","M","59","","","","29","","11","","","","99.38","","","","","","NA"
"-81.90","42.25","ERIEAU (AUT)","613KLLM","2022-04-16 11:00","2022","04","16","11:00","","M","","M","54","","","","25","","13","","","","99.38","","","","","","NA"
"-81.90","42.25","ERIEAU (AUT)","613KLLM","2022-04-16 12:00","2022","04","16","12:00","","M","","M","54","","","","26","","15","","","","99.36","","","","","","NA"
"-81.90","42.25","ERIEAU (AUT)","613KLLM","2022-04-16 13:00","2022","04","16","13:00","","M","","M","46","","","","27","","16","","","","99.34","","","","","","NA"
"-81.90","42.25","ERIEAU (AUT)","613KLLM","2022-04-16 14:00","2022","04","16","14:00","","M","","M","67","","","","20","","17","","","","99.30","","","","","","NA"
"-81.90","42.25","ERIEAU (AUT)","613KLLM","2022-04-16 15:00","2022","04","16","15:00","","M","","M","71","","","","20","","16","","","","99.27","","","","","","NA"
"-81.90","42.25","ERIEAU (AUT)","613KLLM","2022-04-16 16:00","2022","04","16","16:00","","M","","M","46","","","","28","","21","","","","99.31","","","","","","NA"
"-81.90","42.25","ERIEAU (AUT)","613KLLM","2022-04-16 17:00","2022","04","16","17:00","","M","","M","46","","","","31","","12","","","","99.35","","","","","","NA"
"-81.90","42.25","ERIEAU (AUT)","613KLLM","2022-04-16 18:00","2022","04","16","18:00","","M","","M","50","","","","31","","11","","","","99.42","","","","","","NA"
"-81.90","42.25","ERIEAU (AUT)","613KLLM","2022-04-16 19:00","2022","04","16","19:00","","M","","M","55","","","","33","","16","","","","99.52","","","","","","NA"
"-81.90","42.25","ERIEAU (AUT)","613KLLM","2022-04-16 20:00","2022","04","16","20:00","","M","","M","58","","","","30","","13","","","","99.63","","","","","","NA"
"-81.90","42.25","ERIEAU (AUT)","613KLLM","2022-04-16 21:00","2022","04","16","21:00","","M","","M","61","","","","32","","14","","","","99.73","","","","","","NA"
"-81.90","42.25","ERIEAU (AUT)","613KLLM","2022-04-16 22:00","2022","04","16","22:00","","M","","M","65","","","","31","","11","","","","99.80","","","","","","NA"
"-81.90","42.25","ERIEAU (AUT)","613KLLM","2022-04-16 23:00","2022","04","16","23:00","","M","","M","68","","","","31","","15","","","","99.85","","","","","","NA"
"-81.90","42.25","ERIEAU (AUT)","613KLLM","2022-04-17 00:00","2022","04","17","00:00","","M","","M","72","","","","31","","16","","","","99.92","","","","","","NA"
"-81.90","42.25","ERIEAU (AUT)","613KLLM","2022-04-17 01:00","2022","04","17","01:00","","M","","M","80","","","","31","","15","","","","99.99","","","","","","NA"
"-81.90","42.25","ERIEAU (AUT)","613KLLM","2022-04-17 02:00","2022","04","17","02:00","","M","","M","73","","","","31","","15","","","","100.02","","","","","","NA"
"-81.90","42.25","ERIEAU (AUT)","613KLLM","2022-04-17 03:00","2022","04","17","03:00","","M","","M","71","","","","31","","15","","","","100.07","","","","","","NA"
"-81.90","42.25","ERIEAU (AUT)","613KLLM","2022-04-17 04:00","2022","04","17","04:00","","M","","M","70","","","","31","","11","","","","100.16","","","","","","NA"
"-81.90","42.25","ERIEAU (AUT)","613KLLM","2022-04-17 05:00","2022","04","17","05:00","","M","","M","68","","","","30","","12","","","","100.24","","","","","","NA"
"-81.90","42.25","ERIEAU (AUT)","613KLLM","2022-04-17 06:00","2022","04","17","06:00","","M","","M","70","","","","31","","12","","","","100.33","","","","","","NA"
"-81.90","42.25","ERIEAU (AUT)","613KLLM","2022-04-17 07:00","2022","04","17","07:00","","M","","M","68","","","","32","","12","","","","100.43","","","","","","NA"
"-81.90","42.25","ERIEAU (AUT)","613KLLM","2022-04-17 08:00","2022","04","17","08:00","","M","","M","73","","","","34","","14","","","","100.48","","","","","","NA"
"-81.90","42.25","ERIEAU (AUT)","613KLLM","2022-04-17 09:00","2022","04","17","09:00","","M","","M","69","","","","34","","10","","","","100.54","","","","","","NA"
"-81.90","42.25","ERIEAU (AUT)","613KLLM","2022-04-17 10:00","2022","04","17","10:00","","M","","M","59","","","","33","","11","","","","100.61","","","","","","NA"
"-81.90","42.25","ERIEAU (AUT)","613KLLM","2022-04-17 11:00","2022","04","17","11:00","","M","","M","54","","","","1","","5","","","","100.59","","","","","","NA"
"-81.90","42.25","ERIEAU (AUT)","613KLLM","2022-04-17 12:00","2022","04","17","12:00","","M","","M","55","","","","13","","10","","","","100.60","","","","","","NA"
"-81.90","42.25","ERIEAU (AUT)","613KLLM","2022-04-17 13:00","2022","04","17","13:00","","M","","M","55","","","","18","","11","","","","100.63","","","","","","NA"
"-81.90","42.25","ERIEAU (AUT)","613KLLM","2022-04-17 14:00","2022","04","17","14:00","","M","","M","57","","","","17","","9","","","","100.64","","","","","","NA"
"-81.90","42.25","ERIEAU (AUT)","613KLLM","2022-04-17 15:00","2022","04","17","15:00","","M","","M","58","","","","15","","9","","","","100.62","","","","","","NA"
"-81.90","42.25","ERIEAU (AUT)","613KLLM","2022-04-17 16:00","2022","04","17","16:00","","M","","M","60","","","","16","","10","","","","100.63","","","","","","NA"
"-81.90","42.25","ERIEAU (AUT)","613KLLM","2022-04-17 17:00","2022","04","17","17:00","","M","","M","61","","","","13","","10","","","","100.61","","","","","","NA"
"-81.90","42.25","ERIEAU (AUT)","613KLLM","2022-04-17 18:00","2022","04","17","18:00","","M","","M","57","","","","10","","6","","","","100.56","","","","","","NA"
"-81.90","42.25","ERIEAU (AUT)","613KLLM","2022-04-17 19:00","2022","04","17","19:00","","M","","M","59","","","","8","","10","","","","100.51","","","","","","NA"
"-81.90","42.25","ERIEAU (AUT)","613KLLM","2022-04-17 20:00","2022","04","17","20:00","","M","","M","58","","","","7","","13","","","","100.47","","","","","","NA"
"-81.90","42.25","ERIEAU (AUT)","613KLLM","2022-04-17 21:00","2022","04","17","21:00","","M","","M","60","","","","6","","16","","","","100.48","","","","","","NA"
"-81.90","42.25","ERIEAU (AUT)","613KLLM","2022-04-17 22:00","2022","04","17","22:00","","M","","M","64","","","","6","","18","","","","100.48","","","","","","NA"
"-81.90","42.25","ERIEAU (AUT)","613KLLM","2022-04-17 23:00","2022","04","17","23:00","","M","","M","64","","","","5","","18","","","","100.46","","","","","","NA"
"-81.90","42.25","ERIEAU (AUT)","613KLLM","2022-04-18 00:00","2022","04","18","00:00","","M","","M","63","","","","5","","22","","","","100.37","","","","","","NA"
"-81.90","42.25","ERIEAU (AUT)","613KLLM","2022-04-18 01:00","2022","04","18","01:00","","M","","M","64","","","","6","","24","","","","100.30","","","","","","NA"
"-81.90","42.25","ERIEAU (AUT)","613KLLM","2022-04-18 02:00","2022","04","18","02:00","","M","","M","68","","","","7","","27","","","","100.23","","","","","","NA"
"-81.90","42.25","ERIEAU (AUT)","613KLLM","2022-04-18 03:00","2022","04","18","03:00","","M","","M","72","","","","6","","31","","","","100.07","","","","","","NA"
"-81.90","42.25","ERIEAU (AUT)","613KLLM","2022-04-18 04:00","2022","04","18","04:00","","M","","M","75","","","","7","","35","","","","99.95","","","","","","NA"
"-81.90","42.25","ERIEAU (AUT)","613KLLM","2022-04-18 05:00","2022","04","18","05:00","","M","","M","76","","","","7","","34","","","","99.87","","","","","","NA"
"-81.90","42.25","ERIEAU (AUT)","613KLLM","2022-04-18 06:00","2022","04","18","06:00","","M","","M","67","","","","7","","31","","","","99.80","","","","","","NA"
"-81.90","42.25","ERIEAU (AUT)","613KLLM","2022-04-18 07:00","2022","04","18","07:00","","M","","M","67","","","","7","","32","","","","99.77","","","","","","NA"
"-81.90","42.25","ERIEAU (AUT)","613KLLM","2022-04-18 08:00","2022","04","18","08:00","","M","","M","63","","","","6","","37","","","","99.58","","","","","","NA"
"-81.90","42.25","ERIEAU (AUT)","613KLLM","2022-04-18 09:00","2022","04","18","09:00","","M","","M","66","","","","7","","38","","","","99.52","","","","","","NA"
"-81.90","42.25","ERIEAU (AUT)","613KLLM","2022-04-18 10:00","2022","04","18","10:00","","M","","M","67","","","","7","","30","","","","99.50","","","","","","NA"
"-81.90","42.25","ERIEAU (AUT)","613KLLM","2022-04-18 11:00","2022","04","18","11:00","","M","","M","73","","","","6","","30","","","","99.42","","","","","","NA"
"-81.90","42.25","ERIEAU (AUT)","613KLLM","2022-04-18 12:00","2022","04","18","12:00","","M","","M","93","","","","12","","22","","","","99.37","","","","","","NA"
"-81.90","42.25","ERIEAU (AUT)","613KLLM","2022-04-18 13:00","2022","04","18","13:00","","M","","M","99","","","","8","","17","","","","99.21","","","","","","NA"
"-81.90","42.25","ERIEAU (AUT)","613KLLM","2022-04-18 14:00","2022","04","18","14:00","","M","","M","100","","","","7","","21","","","","99.13","","","","","","NA"
"-81.90","42.25","ERIEAU (AUT)","613KLLM","2022-04-18 15:00","2022","04","18","15:00","","M","","M","100","","","","5","","18","","","","99.05","","","","","","NA"
"-81.90","42.25","ERIEAU (AUT)","613KLLM","2022-04-18 16:00","2022","04","18","16:00","","M","","M","100","","","","5","","20","","","","98.98","","","","","","NA"
"-81.90","42.25","ERIEAU (AUT)","613KLLM","2022-04-18 17:00","2022","04","18","17:00","","M","","M","100","","","","6","","13","","","","98.94","","","","","","NA"
"-81.90","42.25","ERIEAU (AUT)","613KLLM","2022-04-18 18:00","2022","04","18","18:00","","M","","M","100","","","","27","","13","","","","98.95","","","","","","NA"
"-81.90","42.25","ERIEAU (AUT)","613KLLM","2022-04-18 19:00","2022","04","18","19:00","","M","","M","100","","","","27","","12","","","","99.01","","","","","","NA"
"-81.90","42.25","ERIEAU (AUT)","613KLLM","2022-04-18 20:00","2022","04","18","20:00","","M","","M","100","","","","27","","13","","","","99.09","","","","","","NA"
"-81.90","42.25","ERIEAU (AUT)","613KLLM","2022-04-18 21:00","2022","04","18","21:00","","M","","M","100","","","","27","","13","","","","99.12","","","","","","NA"
"-81.90","42.25","ERIEAU (AUT)","613KLLM","2022-04-18 22:00","2022","04","18","22:00","","M","","M","100","","","","28","","14","","","","99.11","","","","","","NA"
"-81.90","42.25","ERIEAU (AUT)","613KLLM","2022-04-18 23:00","2022","04","18","23:00","","M","","M","100","","","","25","","13","","","","99.09","","","","","","NA"
"-81.90","42.25","ERIEAU (AUT)","613KLLM","2022-04-19 00:00","2022","04","19","00:00","","M","","M","99","","","","27","","14","","","","99.07","","","","","","NA"
"-81.90","42.25","ERIEAU (AUT)","613KLLM","2022-04-19 01:00","2022","04","19","01:00","","M","","M","96","","","","26","","13","","","","99.06","","","","","","NA"
"-81.90","42.25","ERIEAU (AUT)","613KLLM","2022-04-19 02:00","2022","04","19","02:00","","M","","M","94","","","","26","","11","","","","99.02","","","","","","NA"
"-81.90","42.25","ERIEAU (AUT)","613KLLM","2022-04-19 03:00","2022","04","19","03:00","","M","","M","93","","","","27","","10","","","","99.00","","","","","","NA"
"-81.90","42.25","ERIEAU (AUT)","613KLLM","2022-04-19 04:00","2022","04","19","04:00","","M","","M","90","","","","27","","13","","","","98.98","","","","","","NA"
"-81.90","42.25","ERIEAU (AUT)","613KLLM","2022-04-19 05:00","2022","04","19","05:00","","M","","M","83","","","","27","","17","","","","98.98","","","","","","NA"
"-81.90","42.25","ERIEAU (AUT)","613KLLM","2022-04-19 06:00","2022","04","19","06:00","","M","","M","82","","","","27","","17","","","","99.02","","","","","","NA"
"-81.90","42.25","ERIEAU (AUT)","613KLLM","2022-04-19 07:00","2022","04","19","07:00","","M","","M","83","","","","28","","18","","","","99.07","","","","","","NA"
"-81.90","42.25","ERIEAU (AUT)","613KLLM","2022-04-19 08:00","2022","04","19","08:00","","M","","M","78","","","","28","","21","","","","99.08","","","","","","NA"
"-81.90","42.25","ERIEAU (AUT)","613KLLM","2022-04-19 09:00","2022","04","19","09:00","","M","","M","77","","","","27","","19","","","","99.11","","","","","","NA"
"-81.90","42.25","ERIEAU (AUT)","613KLLM","2022-04-19 10:00","2022","04","19","10:00","","M","","M","71","","","","27","","21","","","","99.19","","","","","","NA"
"-81.90","42.25","ERIEAU (AUT)","613KLLM","2022-04-19 11:00","2022","04","19","11:00","","M","","M","67","","","","27","","27","","","","99.24","","","","","","NA"
"-81.90","42.25","ERIEAU (AUT)","613KLLM","2022-04-19 12:00","2022","04","19","12:00","","M","","M","62","","","","27","","27","","","","99.28","","","","","","NA"
"-81.90","42.25","ERIEAU (AUT)","613KLLM","2022-04-19 13:00","2022","04","19","13:00","","M","","M","61","","","","27","","23","","","","99.33","","","","","","NA"
"-81.90","42.25","ERIEAU (AUT)","613KLLM","2022-04-19 14:00","2022","04","19","14:00","","M","","M","59","","","","27","","25","","","","99.38","","","","","","NA"
"-81.90","42.25","ERIEAU (AUT)","613KLLM","2022-04-19 15:00","2022","04","19","15:00","","M","","M","55","","","","27","","26","","","","99.44","","","","","","NA"
"-81.90","42.25","ERIEAU (AUT)","613KLLM","2022-04-19 16:00","2022","04","19","16:00","","M","","M","54","","","","27","","22","","","","99.51","","","","","","NA"
"-81.90","42.25","ERIEAU (AUT)","613KLLM","2022-04-19 17:00","2022","04","19","17:00","","M","","M","49","","","","27","","23","","","","99.58","","","","","","NA"
"-81.90","42.25","ERIEAU (AUT)","613KLLM","2022-04-19 18:00","2022","04","19","18:00","","M","","M","53","","","","27","","22","","","","99.67","","","","","","NA"
"-81.90","42.25","ERIEAU (AUT)","613KLLM","2022-04-19 19:00","2022","04","19","19:00","","M","","M","59","","","","27","","17","","","","99.77","","","","","","NA"
"-81.90","42.25","ERIEAU (AUT)","613KLLM","2022-04-19 20:00","2022","04","19","20:00","","M","","M","63","","","","27","","16","","","","99.89","","","","","","NA"
"-81.90","42.25","ERIEAU (AUT)","613KLLM","2022-04-19 21:00","2022","04","19","21:00","","M","","M","64","","","","27","","15","","","","99.99","","","","","","NA"
"-81.90","42.25","ERIEAU (AUT)","613KLLM","2022-04-19 22:00","2022","04","19","22:00","","M","","M","66","","","","27","","12","","","","100.07","","","","","","NA"
"-81.90","42.25","ERIEAU (AUT)","613KLLM","2022-04-19 23:00","2022","04","19","23:00","","M","","M","64","","","","28","","11","","","","100.16","","","","","","NA"
"-81.90","42.25","ERIEAU (AUT)","613KLLM","2022-04-20 00:00","2022","04","20","00:00","","M","","M","65","","","","28","","10","","","","100.24","","","","","","NA"
"-81.90","42.25","ERIEAU (AUT)","613KLLM","2022-04-20 01:00","2022","04","20","01:00","","M","","M","70","","","","28","","7","","","","100.29","","","","","","NA"
"-81.90","42.25","ERIEAU (AUT)","613KLLM","2022-04-20 02:00","2022","04","20","02:00","","M","","M","71","","","","28","","5","","","","100.32","","","","","","NA"
"-81.90","42.25","ERIEAU (AUT)","613KLLM","2022-04-20 03:00","2022","04","20","03:00","","M","","M","71","","","","27","","6","","","","100.39","","","","","","NA"
"-81.90","42.25","ERIEAU (AUT)","613KLLM","2022-04-20 04:00","2022","04","20","04:00","","M","","M","72","","","","27","","6","","","","100.47","","","","","","NA"
"-81.90","42.25","ERIEAU (AUT)","613KLLM","2022-04-20 05:00","2022","04","20","05:00","","M","","M","70","","","","27","","7","","","","100.50","","","","","","NA"
"-81.90","42.25","ERIEAU (AUT)","613KLLM","2022-04-20 06:00","2022","04","20","06:00","","M","","M","71","","","","29","","3","","","","100.56","","","","","","NA"
"-81.90","42.25","ERIEAU (AUT)","613KLLM","2022-04-20 07:00","2022","04","20","07:00","","M","","M","66","","","","31","","2","","","","100.62","","","","","","NA"
"-81.90","42.25","ERIEAU (AUT)","613KLLM","2022-04-20 08:00","2022","04","20","08:00","","M","","M","60","","","","2","","3","","","","100.67","","","","","","NA"
"-81.90","42.25","ERIEAU (AUT)","613KLLM","2022-04-20 09:00","2022","04","20","09:00","","M","","M","56","","","","12","","4","","","","100.73","","","","","","NA"
"-81.90","42.25","ERIEAU (AUT)","613KLLM","2022-04-20 10:00","2022","04","20","10:00","","M","","M","68","","","","12","","11","","","","100.77","","","","","","NA"
"-81.90","42.25","ERIEAU (AUT)","613KLLM","2022-04-20 11:00","2022","04","20","11:00","","M","","M","71","","","","14","","12","","","","100.78","","","","","","NA"
"-81.90","42.25","ERIEAU (AUT)","613KLLM","2022-04-20 12:00","2022","04","20","12:00","","M","","M","74","","","","15","","11","","","","100.77","","","","","","NA"
"-81.90","42.25","ERIEAU (AUT)","613KLLM","2022-04-20 13:00","2022","04","20","13:00","","M","","M","75","","","","15","","13","","","","100.76","","","","","","NA"
"-81.90","42.25","ERIEAU (AUT)","613KLLM","2022-04-20 14:00","2022","04","20","14:00","","M","","M","68","","","","10","","7","","","","100.70","","","","","","NA"
"-81.90","42.25","ERIEAU (AUT)","613KLLM","2022-04-20 15:00","2022","04","20","15:00","","M","","M","64","","","","9","","12","","","","100.60","","","","","","NA"
"-81.90","42.25","ERIEAU (AUT)","613KLLM","2022-04-20 16:00","2022","04","20","16:00","","M","","M","72","","","","9","","14","","","","100.53","","","","","","NA"
"-81.90","42.25","ERIEAU (AUT)","613KLLM","2022-04-20 17:00","2022","04","20","17:00","","M","","M","75","","","","8","","19","","","","100.47","","","","","","NA"
"-81.90","42.25","ERIEAU (AUT)","613KLLM","2022-04-20 18:00","2022","04","20","18:00","","M","","M","71","","","","7","","25","","","","100.31","","","","","","NA"
"-81.90","42.25","ERIEAU (AUT)","613KLLM","2022-04-20 19:00","2022","04","20","19:00","","M","","M","78","","","","7","","29","","","","100.27","","","","","","NA"
"-81.90","42.25","ERIEAU (AUT)","613KLLM","2022-04-20 20:00","2022","04","20","20:00","","M","","M","75","","","","8","","27","","","","100.22","","","","","","NA"
"-81.90","42.25","ERIEAU (AUT)","613KLLM","2022-04-20 21:00","2022","04","20","21:00","","M","","M","75","","","","8","","30","","","","100.14","","","","","","NA"
"-81.90","42.25","ERIEAU (AUT)","613KLLM","2022-04-20 22:00","2022","04","20","22:00","","M","","M","78","","","","8","","27","","","","100.04","","","","","","NA"
"-81.90","42.25","ERIEAU (AUT)","613KLLM","2022-04-20 23:00","2022","04","20","23:00","","M","","M","79","","","","8","","26","","","","99.90","","","","","","NA"
"-81.90","42.25","ERIEAU (AUT)","613KLLM","2022-04-21 00:00","2022","04","21","00:00","","M","","M","79","","","","8","","20","","","","99.81","","","","","","NA"
"-81.90","42.25","ERIEAU (AUT)","613KLLM","2022-04-21 01:00","2022","04","21","01:00","","M","","M","77","","","","8","","13","","","","99.72","","","","","","NA"
"-81.90","42.25","ERIEAU (AUT)","613KLLM","2022-04-21 02:00","2022","04","21","02:00","","M","","M","67","","","","14","","28","","","","99.61","","","","","","NA"
"-81.90","42.25","ERIEAU (AUT)","613KLLM","2022-04-21 03:00","2022","04","21","03:00","","M","","M","70","","","","16","","26","","","","99.59","","","","","","NA"
"-81.90","42.25","ERIEAU (AUT)","613KLLM","2022-04-21 04:00","2022","04","21","04:00","","M","","M","77","","","","15","","28","","","","99.53","","","","","","NA"
"-81.90","42.25","ERIEAU (AUT)","613KLLM","2022-04-21 05:00","2022","04","21","05:00","","M","","M","75","","","","16","","24","","","","99.50","","","","","","NA"
"-81.90","42.25","ERIEAU (AUT)","613KLLM","2022-04-21 06:00","2022","04","21","06:00","","M","","M","92","","","","18","","29","","","","99.51","","","","","","NA"
"-81.90","42.25","ERIEAU (AUT)","613KLLM","2022-04-21 07:00","2022","04","21","07:00","","M","","M","95","","","","17","","31","","","","99.48","","","","","","NA"
"-81.90","42.25","ERIEAU (AUT)","613KLLM","2022-04-21 08:00","2022","04","21","08:00","","M","","M","94","","","","18","","29","","","","99.52","","","","","","NA"
"-81.90","42.25","ERIEAU (AUT)","613KLLM","2022-04-21 09:00","2022","04","21","09:00","","M","","M","96","","","","19","","35","","","","99.52","","","","","","NA"
"-81.90","42.25","ERIEAU (AUT)","613KLLM","2022-04-21 10:00","2022","04","21","10:00","","M","","M","98","","","","20","","32","","","","99.60","","","","","","NA"
"-81.90","42.25","ERIEAU (AUT)","613KLLM","2022-04-21 11:00","2022","04","21","11:00","","M","","M","99","","","","20","","30","","","","99.67","","","","","","NA"
"-81.90","42.25","ERIEAU (AUT)","613KLLM","2022-04-21 12:00","2022","04","21","12:00","","M","","M","99","","","","20","","32","","","","99.73","","","","","","NA"
"-81.90","42.25","ERIEAU (AUT)","613KLLM","2022-04-21 13:00","2022","04","21","13:00","","M","","M","95","","","","20","","25","","","","99.79","","","","","","NA"
"-81.90","42.25","ERIEAU (AUT)","613KLLM","2022-04-21 14:00","2022","04","21","14:00","","M","","M","90","","","","20","","30","","","","99.85","","","","","","NA"
"-81.90","42.25","ERIEAU (AUT)","613KLLM","2022-04-21 15:00","2022","04","21","15:00","","M","","M","87","","","","21","","17","","","","99.94","","","","","","NA"
"-81.90","42.25","ERIEAU (AUT)","613KLLM","2022-04-21 16:00","2022","04","21","16:00","","M","","M","82","","","","22","","10","","","","100.01","","","","","","NA"
"-81.90","42.25","ERIEAU (AUT)","613KLLM","2022-04-21 17:00","2022","04","21","17:00","","M","","M","77","","","","22","","10","","","","100.08","","","","","","NA"
"-81.90","42.25","ERIEAU (AUT)","613KLLM","2022-04-21 18:00","2022","04","21","18:00","","M","","M","56","","","","23","","9","","","","100.14","","","","","","NA"
"-81.90","42.25","ERIEAU (AUT)","613KLLM","2022-04-21 19:00","2022","04","21","19:00","","M","","M","75","","","","21","","7","","","","100.21","","","","","","NA"
"-81.90","42.25","ERIEAU (AUT)","613KLLM","2022-04-21 20:00","2022","04","21","20:00","","M","","M","77","","","","26","","8","","","","100.33","","","","","","NA"
"-81.90","42.25","ERIEAU (AUT)","613KLLM","2022-04-21 21:00","2022","04","21","21:00","","M","","M","50","","","","28","","10","","","","100.43","","","","","","NA"
"-81.90","42.25","ERIEAU (AUT)","613KLLM","2022-04-21 22:00","2022","04","21","22:00","","M","","M","45","","","","28","","11","","","","100.50","","","","","","NA"
"-81.90","42.25","ERIEAU (AUT)","613KLLM","2022-04-21 23:00","2022","04","21","23:00","","M","","M","57","","","","26","","7","","","","100.51","","","","","","NA"
"-81.90","42.25","ERIEAU (AUT)","613KLLM","2022-04-22 00:00","2022","04","22","00:00","","M","","M","60","","","","32","","10","","","","100.64","","","","","","NA"
"-81.90","42.25","ERIEAU (AUT)","613KLLM","2022-04-22 01:00","2022","04","22","01:00","","M","","M","74","","","","36","","17","","","","100.75","","","","","","NA"
"-81.90","42.25","ERIEAU (AUT)","613KLLM","2022-04-22 02:00","2022","04","22","02:00","","M","","M","72","","","","1","","20","","","","100.83","","","","","","NA"
"-81.90","42.25","ERIEAU (AUT)","613KLLM","2022-04-22 03:00","2022","04","22","03:00","","M","","M","71","","","","1","","21","","","","100.90","","","","","","NA"
"-81.90","42.25","ERIEAU (AUT)","613KLLM","2022-04-22 04:00","2022","04","22","04:00","","M","","M","74","","","","3","","13","","","","100.98","","","","","","NA"
"-81.90","42.25","ERIEAU (AUT)","613KLLM","2022-04-22 05:00","2022","04","22","05:00","","M","","M","72","","","","3","","15","","","","100.99","","","","","","NA"
"-81.90","42.25","ERIEAU (AUT)","613KLLM","2022-04-22 06:00","2022","04","22","06:00","","M","","M","75","","","","2","","12","","","","101.07","","","","","","NA"
"-81.90","42.25","ERIEAU (AUT)","613KLLM","2022-04-22 07:00","2022","04","22","07:00","","M","","M","78","","","","8","","8","","","","101.22","","","","","","NA"
"-81.90","42.25","ERIEAU (AUT)","613KLLM","2022-04-22 08:00","2022","04","22","08:00","","M","","M","72","","","","5","","13","","","","101.27","","","","","","NA"
"-81.90","42.25","ERIEAU (AUT)","613KLLM","2022-04-22 09:00","2022","04","22","09:00","","M","","M","71","","","","5","","17","","","","101.29","","","","","","NA"
"-81.90","42.25","ERIEAU (AUT)","613KLLM","2022-04-22 10:00","2022","04","22","10:00","","M","","M","75","","","","9","","10","","","","101.28","","","","","","NA"
"-81.90","42.25","ERIEAU (AUT)","613KLLM","2022-04-22 11:00","2022","04","22","11:00","","M","","M","74","","","","8","","11","","","","101.28","","","","","","NA"
"-81.90","42.25","ERIEAU (AUT)","613KLLM","2022-04-22 12:00","2022","04","22","12:00","","M","","M","74","","","","10","","12","","","","101.25","","","","","","NA"
"-81.90","42.25","ERIEAU (AUT)","613KLLM","2022-04-22 13:00","2022","04","22","13:00","","M","","M","76","","","","11","","13","","","","101.19","","","","","","NA"
"-81.90","42.25","ERIEAU (AUT)","613KLLM","2022-04-22 14:00","2022","04","22","14:00","","M","","M","77","","","","10","","12","","","","101.13","","","","","","NA"
"-81.90","42.25","ERIEAU (AUT)","613KLLM","2022-04-22 15:00","2022","04","22","15:00","","M","","M","73","","","","8","","13","","","","101.02","","","","","","NA"
"-81.90","42.25","ERIEAU (AUT)","613KLLM","2022-04-22 16:00","2022","04","22","16:00","","M","","M","69","","","","8","","14","","","","100.93","","","","","","NA"
"-81.90","42.25","ERIEAU (AUT)","613KLLM","2022-04-22 17:00","2022","04","22","17:00","","M","","M","70","","","","8","","11","","","","100.91","","","","","","NA"
"-81.90","42.25","ERIEAU (AUT)","613KLLM","2022-04-22 18:00","2022","04","22","18:00","","M","","M","55","","","","3","","13","","","","100.88","","","","","","NA"
"-81.90","42.25","ERIEAU (AUT)","613KLLM","2022-04-22 19:00","2022","04","22","19:00","","M","","M","62","","","","4","","8","","","","100.90","","","","","","NA"
"-81.90","42.25","ERIEAU (AUT)","613KLLM","2022-04-22 20:00","2022","04","22","20:00","","M","","M","71","","","","4","","16","","","","100.85","","","","","","NA"
"-81.90","42.25","ERIEAU (AUT)","613KLLM","2022-04-22 21:00","2022","04","22","21:00","","M","","M","67","","","","5","","28","","","","100.71","","","","","","NA"
"-81.90","42.25","ERIEAU (AUT)","613KLLM","2022-04-22 22:00","2022","04","22","22:00","","M","","M","70","","","","6","","27","","","","100.67","","","","","","NA"
"-81.90","42.25","ERIEAU (AUT)","613KLLM","2022-04-22 23:00","2022","04","22","23:00","","M","","M","75","","","","8","","25","","","","100.57","","","","","","NA"
"-81.90","42.25","ERIEAU (AUT)","613KLLM","2022-04-23 00:00","2022","04","23","00:00","","M","","M","77","","","","8","","17","","","","100.64","","","","","","NA"
"-81.90","42.25","ERIEAU (AUT)","613KLLM","2022-04-23 01:00","2022","04","23","01:00","","M","","M","79","","","","7","","27","","","","100.45","","","","","","NA"
"-81.90","42.25","ERIEAU (AUT)","613KLLM","2022-04-23 02:00","2022","04","23","02:00","","M","","M","79","","","","8","","21","","","","100.37","","","","","","NA"
"-81.90","42.25","ERIEAU (AUT)","613KLLM","2022-04-23 03:00","2022","04","23","03:00","","M","","M","81","","","","5","","17","","","","100.37","","","","","","NA"
"-81.90","42.25","ERIEAU (AUT)","613KLLM","2022-04-23 04:00","2022","04","23","04:00","","M","","M","82","","","","7","","19","","","","100.26","","","","","","NA"
"-81.90","42.25","ERIEAU (AUT)","613KLLM","2022-04-23 05:00","2022","04","23","05:00","","M","","M","84","","","","7","","17","","","","100.24","","","","","","NA"
"-81.90","42.25","ERIEAU (AUT)","613KLLM","2022-04-23 06:00","2022","04","23","06:00","","M","","M","85","","","","7","","25","","","","100.17","","","","","","NA"
"-81.90","42.25","ERIEAU (AUT)","613KLLM","2022-04-23 07:00","2022","04","23","07:00","","M","","M","86","","","","6","","23","","","","100.17","","","","","","NA"
"-81.90","42.25","ERIEAU (AUT)","613KLLM","2022-04-23 08:00","2022","04","23","08:00","","M","","M","83","","","","8","","25","","","","100.11","","","","","","NA"
"-81.90","42.25","ERIEAU (AUT)","613KLLM","2022-04-23 09:00","2022","04","23","09:00","","M","","M","76","","","","7","","28","","","","100.06","","","","","","NA"
"-81.90","42.25","ERIEAU (AUT)","613KLLM","2022-04-23 10:00","2022","04","23","10:00","","M","","M","72","","","","7","","23","","","","100.01","","","","","","NA"
"-81.90","42.25","ERIEAU (AUT)","613KLLM","2022-04-23 11:00","2022","04","23","11:00","","M","","M","72","","","","6","","18","","","","99.97","","","","","","NA"
"-81.90","42.25","ERIEAU (AUT)","613KLLM","2022-04-23 12:00","2022","04","23","12:00","","M","","M","75","","","","5","","19","","","","99.96","","","","","","NA"
"-81.90","42.25","ERIEAU (AUT)","613KLLM","2022-04-23 13:00","2022","04","23","13:00","","M","","M","73","","","","6","","14","","","","99.87","","","","","","NA"
"-81.90","42.25","ERIEAU (AUT)","613KLLM","2022-04-23 14:00","2022","04","23","14:00","","M","","M","77","","","","6","","21","","","","99.82","","","","","","NA"
"-81.90","42.25","ERIEAU (AUT)","613KLLM","2022-04-23 15:00","2022","04","23","15:00","","M","","M","74","","","","6","","24","","","","99.72","","","","","","NA"
"-81.90","42.25","ERIEAU (AUT)","613KLLM","2022-04-23 16:00","2022","04","23","16:00","","M","","M","82","","","","7","","29","","","","99.63","","","","","","NA"
"-81.90","42.25","ERIEAU (AUT)","613KLLM","2022-04-23 17:00","2022","04","23","17:00","","M","","M","77","","","","7","","24","","","","99.57","","","","","","NA"
"-81.90","42.25","ERIEAU (AUT)","613KLLM","2022-04-23 18:00","2022","04","23","18:00","","M","","M","84","","","","8","","23","","","","99.50","","","","","","NA"
"-81.90","42.25","ERIEAU (AUT)","613KLLM","2022-04-23 19:00","2022","04","23","19:00","","M","","M","77","","","","5","","17","","","","99.52","","","","","","NA"
"-81.90","42.25","ERIEAU (AUT)","613KLLM","2022-04-23 20:00","2022","04","23","20:00","","M","","M","79","","","","5","","19","","","","99.54","","","","","","NA"
"-81.90","42.25","ERIEAU (AUT)","613KLLM","2022-04-23 21:00","2022","04","23","21:00","","M","","M","78","","","","7","","25","","","","99.54","","","","","","NA"
"-81.90","42.25","ERIEAU (AUT)","613KLLM","2022-04-23 22:00","2022","04","23","22:00","","M","","M","83","","","","7","","22","","","","99.54","","","","","","NA"
"-81.90","42.25","ERIEAU (AUT)","613KLLM","2022-04-23 23:00","2022","04","23","23:00","","M","","M","81","","","","5","","15","","","","99.52","","","","","","NA"
"-81.90","42.25","ERIEAU (AUT)","613KLLM","2022-04-24 00:00","2022","04","24","00:00","","M","","M","83","","","","7","","20","","","","99.49","","","","","","NA"
"-81.90","42.25","ERIEAU (AUT)","613KLLM","2022-04-24 01:00","2022","04","24","01:00","","M","","M","84","","","","5","","16","","","","99.47","","","","","","NA"
"-81.90","42.25","ERIEAU (AUT)","613KLLM","2022-04-24 02:00","2022","04","24","02:00","","M","","M","84","","","","6","","16","","","","99.47","","","","","","NA"
"-81.90","42.25","ERIEAU (AUT)","613KLLM","2022-04-24 03:00","2022","04","24","03:00","","M","","M","85","","","","6","","14","","","","99.46","","","","","","NA"
"-81.90","42.25","ERIEAU (AUT)","613KLLM","2022-04-24 04:00","2022","04","24","04:00","","M","","M","86","","","","5","","15","","","","99.49","","","","","","NA"
"-81.90","42.25","ERIEAU (AUT)","613KLLM","2022-04-24 05:00","2022","04","24","05:00","","M","","M","89","","","","5","","13","","","","99.51","","","","","","NA"
"-81.90","42.25","ERIEAU (AUT)","613KLLM","2022-04-24 06:00","2022","04","24","06:00","","M","","M","89","","","","4","","8","","","","99.54","","","","","","NA"
"-81.90","42.25","ERIEAU (AUT)","613KLLM","2022-04-24 07:00","2022","04","24","07:00","","M","","M","86","","","","4","","8","","","","99.55","","","","","","NA"
"-81.90","42.25","ERIEAU (AUT)","613KLLM","2022-04-24 08:00","2022","04","24","08:00","","M","","M","81","","","","4","","6","","","","99.55","","","","","","NA"
"-81.90","42.25","ERIEAU (AUT)","613KLLM","2022-04-24 09:00","2022","04","24","09:00","","M","","M","79","","","","8","","6","","","","99.52","","","","","","NA"
"-81.90","42.25","ERIEAU (AUT)","613KLLM","2022-04-24 10:00","2022","04","24","10:00","","M","","M","79","","","","17","","22","","","","99.46","","","","","","NA"
"-81.90","42.25","ERIEAU (AUT)","613KLLM","2022-04-24 11:00","2022","04","24","11:00","","M","","M","79","","","","18","","18","","","","99.44","","","","","","NA"
"-81.90","42.25","ERIEAU (AUT)","613KLLM","2022-04-24 12:00","2022","04","24","12:00","","M","","M","80","","","","17","","19","","","","99.41","","","","","","NA"
"-81.90","42.25","ERIEAU (AUT)","613KLLM","2022-04-24 13:00","2022","04","24","13:00","","M","","M","81","","","","16","","16","","","","99.38","","","","","","NA"
"-81.90","42.25","ERIEAU (AUT)","613KLLM","2022-04-24 14:00","2022","04","24","14:00","","M","","M","81","","","","17","","19","","","","99.32","","","","","","NA"
"-81.90","42.25","ERIEAU (AUT)","613KLLM","2022-04-24 15:00","2022","04","24","15:00","","M","","M","82","","","","17","","17","","","","99.25","","","","","","NA"
"-81.90","42.25","ERIEAU (AUT)","613KLLM","2022-04-24 16:00","2022","04","24","16:00","","M","","M","83","","","","16","","13","","","","99.19","","","","","","NA"
"-81.90","42.25","ERIEAU (AUT)","613KLLM","2022-04-24 17:00","2022","04","24","17:00","","M","","M","82","","","","16","","14","","","","99.14","","","","","","NA"
"-81.90","42.25","ERIEAU (AUT)","613KLLM","2022-04-24 18:00","2022","04","24","18:00","","M","","M","78","","","","18","","16","","","","99.14","","","","","","NA"
"-81.90","42.25","ERIEAU (AUT)","613KLLM","2022-04-24 19:00","2022","04","24","19:00","","M","","M","82","","","","18","","11","","","","99.13","","","","","","NA"
"-81.90","42.25","ERIEAU (AUT)","613KLLM","2022-04-24 20:00","2022","04","24","20:00","","M","","M","79","","","","18","","17","","","","99.13","","","","","","NA"
"-81.90","42.25","ERIEAU (AUT)","613KLLM","2022-04-24 21:00","2022","04","24","21:00","","M","","M","71","","","","22","","20","","","","99.17","","","","","","NA"
"-81.90","42.25","ERIEAU (AUT)","613KLLM","2022-04-24 22:00","2022","04","24","22:00","","M","","M","73","","","","25","","10","","","","99.17","","","","","","NA"
"-81.90","42.25","ERIEAU (AUT)","613KLLM","2022-04-24 23:00","2022","04","24","23:00","","M","","M","80","","","","25","","8","","","","99.19","","","","","","NA"
"-81.90","42.25","ERIEAU (AUT)","613KLLM","2022-04-25 00:00","2022","04","25","00:00","","M","","M","86","","","","18","","3","","","","99.13","","","","","","NA"
"-81.90","42.25","ERIEAU (AUT)","613KLLM","2022-04-25 01:00","2022","04","25","01:00","","M","","M","92","","","","22","","5","","","","99.11","","","","","","NA"
"-81.90","42.25","ERIEAU (AUT)","613KLLM","2022-04-25 02:00","2022","04","25","02:00","","M","","M","92","","","","21","","4","","","","99.12","","","","","","NA"
"-81.90","42.25","ERIEAU (AUT)","613KLLM","2022-04-25 03:00","2022","04","25","03:00","","M","","M","96","","","","25","","7","","","","99.17","","","","","","NA"
"-81.90","42.25","ERIEAU (AUT)","613KLLM","2022-04-25 04:00","2022","04","25","04:00","","M","","M","91","","","","21","","5","","","","99.17","","","","","","NA"
"-81.90","42.25","ERIEAU (AUT)","613KLLM","2022-04-25 05:00","2022","04","25","05:00","","M","","M","93","","","","21","","4","","","","99.17","","","","","","NA"
"-81.90","42.25","ERIEAU (AUT)","613KLLM","2022-04-25 06:00","2022","04","25","06:00","","M","","M","96","","","","23","","6","","","","99.21","","","","","","NA"
"-81.90","42.25","ERIEAU (AUT)","613KLLM","2022-04-25 07:00","2022","04","25","07:00","","M","","M","98","","","","21","","7","","","","99.27","","","","","","NA"
"-81.90","42.25","ERIEAU (AUT)","613KLLM","2022-04-25 08:00","2022","04","25","08:00","","M","","M","99","","","","24","","9","","","","99.30","","","","","","NA"
"-81.90","42.25","ERIEAU (AUT)","613KLLM","2022-04-25 09:00","2022","04","25","09:00","","M","","M","100","","","","24","","9","","","","99.34","","","","","","NA"
"-81.90","42.25","ERIEAU (AUT)","613KLLM","2022-04-25 10:00","2022","04","25","10:00","","M","","M","100","","","","24","","9","","","","99.32","","","","","","NA"
"-81.90","42.25","ERIEAU (AUT)","613KLLM","2022-04-25 11:00","2022","04","25","11:00","","M","","M","100","","","","24","","7","","","","99.38","","","","","","NA"
"-81.90","42.25","ERIEAU (AUT)","613KLLM","2022-04-25 12:00","2022","04","25","12:00","","M","","M","100","","","","25","","4","","","","99.35","","","","","","NA"
"-81.90","42.25","ERIEAU (AUT)","613KLLM","2022-04-25 13:00","2022","04","25","13:00","","M","","M","100","","","","30","","8","","","","99.26","","","","","","NA"
"-81.90","42.25","ERIEAU (AUT)","613KLLM","2022-04-25 14:00","2022","04","25","14:00","","M","","M","95","","","","31","","8","","","","99.23","","","","","","NA"
"-81.90","42.25","ERIEAU (AUT)","613KLLM","2022-04-25 15:00","2022","04","25","15:00","","M","","M","99","","","","30","","7","","","","99.26","","","","","","NA"
"-81.90","42.25","ERIEAU (AUT)","613KLLM","2022-04-25 16:00","2022","04","25","16:00","","M","","M","89","","","","27","","7","","","","99.34","","","","","","NA"
"-81.90","42.25","ERIEAU (AUT)","613KLLM","2022-04-25 17:00","2022","04","25","17:00","","M","","M","93","","","","22","","9","","","","99.43","","","","","","NA"
"-81.90","42.25","ERIEAU (AUT)","613KLLM","2022-04-25 18:00","2022","04","25","18:00","","M","","M","99","","","","18","","8","","","","99.41","","","","","","NA"
"-81.90","42.25","ERIEAU (AUT)","613KLLM","2022-04-25 19:00","2022","04","25","19:00","","M","","M","100","","","","20","","7","","","","99.50","","","","","","NA"
"-81.90","42.25","ERIEAU (AUT)","613KLLM","2022-04-25 20:00","2022","04","25","20:00","","M","","M","100","","","","23","","6","","","","99.57","","","","","","NA"
"-81.90","42.25","ERIEAU (AUT)","613KLLM","2022-04-25 21:00","2022","04","25","21:00","","M","","M","100","","","","23","","6","","","","99.64","","","","","","NA"
"-81.90","42.25","ERIEAU (AUT)","613KLLM","2022-04-25 22:00","2022","04","25","22:00","","M","","M","100","","","","24","","9","","","","99.64","","","","","","NA"
"-81.90","42.25","ERIEAU (AUT)","613KLLM","2022-04-25 23:00","2022","04","25","23:00","","M","","M","100","","","","28","","6","","","","99.68","","","","","","NA"
"-81.90","42.25","ERIEAU (AUT)","613KLLM","2022-04-26 00:00","2022","04","26","00:00","","M","","M","69","","","","28","","14","","","","99.71","","","","","","NA"
"-81.90","42.25","ERIEAU (AUT)","613KLLM","2022-04-26 01:00","2022","04","26","01:00","","M","","M","70","","","","28","","13","","","","99.74","","","","","","NA"
"-81.90","42.25","ERIEAU (AUT)","613KLLM","2022-04-26 02:00","2022","04","26","02:00","","M","","M","71","","","","28","","13","","","","99.76","","","","","","NA"
"-81.90","42.25","ERIEAU (AUT)","613KLLM","2022-04-26 03:00","2022","04","26","03:00","","M","","M","67","","","","29","","11","","","","99.79","","","","","","NA"
"-81.90","42.25","ERIEAU (AUT)","613KLLM","2022-04-26 04:00","2022","04","26","04:00","","M","","M","70","","","","30","","9","","","","99.86","","","","","","NA"
"-81.90","42.25","ERIEAU (AUT)","613KLLM","2022-04-26 05:00","2022","04","26","05:00","","M","","M","67","","","","28","","8","","","","99.93","","","","","","NA"
"-81.90","42.25","ERIEAU (AUT)","613KLLM","2022-04-26 06:00","2022","04","26","06:00","","M","","M","67","","","","27","","8","","","","99.99","","","","","","NA"
"-81.90","42.25","ERIEAU (AUT)","613KLLM","2022-04-26 07:00","2022","04","26","07:00","","M","","M","71","","","","26","","6","","","","100.01","","","","","","NA"
"-81.90","42.25","ERIEAU (AUT)","613KLLM","2022-04-26 08:00","2022","04","26","08:00","","M","","M","64","","","","28","","13","","","","99.98","","","","","","NA"
"-81.90","42.25","ERIEAU (AUT)","613KLLM","2022-04-26 09:00","2022","04","26","09:00","","M","","M","63","","","","27","","15","","","","100.00","","","","","","NA"
"-81.90","42.25","ERIEAU (AUT)","613KLLM","2022-04-26 10:00","2022","04","26","10:00","","M","","M","60","","","","25","","11","","","","99.98","","","","","","NA"
"-81.90","42.25","ERIEAU (AUT)","613KLLM","2022-04-26 11:00","2022","04","26","11:00","","M","","M","65","","","","26","","14","","","","99.97","","","","","","NA"
"-81.90","42.25","ERIEAU (AUT)","613KLLM","2022-04-26 12:00","2022","04","26","12:00","","M","","M","72","","","","23","","12","","","","99.97","","","","","","NA"
"-81.90","42.25","ERIEAU (AUT)","613KLLM","2022-04-26 13:00","2022","04","26","13:00","","M","","M","76","","","","22","","14","","","","99.94","","","","","","NA"
"-81.90","42.25","ERIEAU (AUT)","613KLLM","2022-04-26 14:00","2022","04","26","14:00","","M","","M","73","","","","23","","22","","","","99.93","","","","","","NA"
"-81.90","42.25","ERIEAU (AUT)","613KLLM","2022-04-26 15:00","2022","04","26","15:00","","M","","M","71","","","","25","","10","","","","99.90","","","","","","NA"
"-81.90","42.25","ERIEAU (AUT)","613KLLM","2022-04-26 16:00","2022","04","26","16:00","","M","","M","69","","","","25","","13","","","","99.89","","","","","","NA"
"-81.90","42.25","ERIEAU (AUT)","613KLLM","2022-04-26 17:00","2022","04","26","17:00","","M","","M","73","","","","24","","21","","","","99.91","","","","","","NA"
"-81.90","42.25","ERIEAU (AUT)","613KLLM","2022-04-26 18:00","2022","04","26","18:00","","M","","M","79","","","","24","","20","","","","99.89","","","","","","NA"
"-81.90","42.25","ERIEAU (AUT)","613KLLM","2022-04-26 19:00","2022","04","26","19:00","","M","","M","71","","","","24","","23","","","","99.90","","","","","","NA"
"-81.90","42.25","ERIEAU (AUT)","613KLLM","2022-04-26 20:00","2022","04","26","20:00","","M","","M","71","","","","25","","15","","","","99.94","","","","","","NA"
"-81.90","42.25","ERIEAU (AUT)","613KLLM","2022-04-26 21:00","2022","04","26","21:00","","M","","M","66","","","","26","","16","","","","99.99","","","","","","NA"
"-81.90","42.25","ERIEAU (AUT)","613KLLM","2022-04-26 22:00","2022","04","26","22:00","","M","","M","63","","","","27","","15","","","","100.02","","","","","","NA"
"-81.90","42.25","ERIEAU (AUT)","613KLLM","2022-04-26 23:00","2022","04","26","23:00","","M","","M","63","","","","27","","17","","","","100.01","","","","","","NA"
"-81.90","42.25","ERIEAU (AUT)","613KLLM","2022-04-27 00:00","2022","04","27","00:00","","M","","M","64","","","","28","","17","","","","100.02","","","","","","NA"
"-81.90","42.25","ERIEAU (AUT)","613KLLM","2022-04-27 01:00","2022","04","27","01:00","","M","","M","75","","","","29","","17","","","","100.04","","","","","","NA"
"-81.90","42.25","ERIEAU (AUT)","613KLLM","2022-04-27 02:00","2022","04","27","02:00","","M","","M","76","","","","30","","13","","","","100.03","","","","","","NA"
"-81.90","42.25","ERIEAU (AUT)","613KLLM","2022-04-27 03:00","2022","04","27","03:00","","M","","M","76","","","","30","","13","","","","100.04","","","","","","NA"
"-81.90","42.25","ERIEAU (AUT)","613KLLM","2022-04-27 04:00","2022","04","27","04:00","","M","","M","76","","","","30","","11","","","","100.05","","","","","","NA"
"-81.90","42.25","ERIEAU (AUT)","613KLLM","2022-04-27 05:00","2022","04","27","05:00","","M","","M","78","","","","30","","9","","","","100.06","","","","","","NA"
"-81.90","42.25","ERIEAU (AUT)","613KLLM","2022-04-27 06:00","2022","04","27","06:00","","M","","M","71","","","","30","","16","","","","100.11","","","","","","NA"
"-81.90","42.25","ERIEAU (AUT)","613KLLM","2022-04-27 07:00","2022","04","27","07:00","","M","","M","70","","","","29","","18","","","","100.16","","","","","","NA"
"-81.90","42.25","ERIEAU (AUT)","613KLLM","2022-04-27 08:00","2022","04","27","08:00","","M","","M","70","","","","30","","14","","","","100.19","","","","","","NA"
"-81.90","42.25","ERIEAU (AUT)","613KLLM","2022-04-27 09:00","2022","04","27","09:00","","M","","M","85","","","","31","","15","","","","100.22","","","","","","NA"
"-81.90","42.25","ERIEAU (AUT)","613KLLM","2022-04-27 10:00","2022","04","27","10:00","","M","","M","73","","","","30","","15","","","","100.26","","","","","","NA"
"-81.90","42.25","ERIEAU (AUT)","613KLLM","2022-04-27 11:00","2022","04","27","11:00","","M","","M","71","","","","31","","17","","","","100.28","","","","","","NA"
"-81.90","42.25","ERIEAU (AUT)","613KLLM","2022-04-27 12:00","2022","04","27","12:00","","M","","M","66","","","","31","","14","","","","100.32","","","","","","NA"
"-81.90","42.25","ERIEAU (AUT)","613KLLM","2022-04-27 13:00","2022","04","27","13:00","","M","","M","71","","","","32","","14","","","","100.34","","","","","","NA"
"-81.90","42.25","ERIEAU (AUT)","613KLLM","2022-04-27 14:00","2022","04","27","14:00","","M","","M","62","","","","30","","13","","","","100.34","","","","","","NA"
"-81.90","42.25","ERIEAU (AUT)","613KLLM","2022-04-27 15:00","2022","04","27","15:00","","M","","M","65","","","","30","","10","","","","100.35","","","","","","NA"
"-81.90","42.25","ERIEAU (AUT)","613KLLM","2022-04-27 16:00","2022","04","27","16:00","","M","","M","62","","","","31","","12","","","","100.37","","","","","","NA"
"-81.90","42.25","ERIEAU (AUT)","613KLLM","2022-04-27 17:00","2022","04","27","17:00","","M","","M","63","","","","33","","18","","","","100.38","","","","","","NA"
"-81.90","42.25","ERIEAU (AUT)","613KLLM","2022-04-27 18:00","2022","04","27","18:00","","M","","M","64","","","","30","","9","","","","100.40","","","","","","NA"
"-81.90","42.25","ERIEAU (AUT)","613KLLM","2022-04-27 19:00","2022","04","27","19:00","","M","","M","64","","","","30","","7","","","","100.41","","","","","","NA"
"-81.90","42.25","ERIEAU (AUT)","613KLLM","2022-04-27 20:00","2022","04","27","20:00","","M","","M","69","","","","32","","9","","","","100.42","","","","","","NA"
"-81.90","42.25","ERIEAU (AUT)","613KLLM","2022-04-27 21:00","2022","04","27","21:00","","M","","M","75","","","","34","","14","","","","100.48","","","","","","NA"
"-81.90","42.25","ERIEAU (AUT)","613KLLM","2022-04-27 22:00","2022","04","27","22:00","","M","","M","76","","","","33","","10","","","","100.50","","","","","","NA"
"-81.90","42.25","ERIEAU (AUT)","613KLLM","2022-04-27 23:00","2022","04","27","23:00","","M","","M","79","","","","36","","15","","","","100.55","","","","","","NA"
"-81.90","42.25","ERIEAU (AUT)","613KLLM","2022-04-28 00:00","2022","04","28","00:00","","M","","M","78","","","","35","","14","","","","100.57","","","","","","NA"
"-81.90","42.25","ERIEAU (AUT)","613KLLM","2022-04-28 01:00","2022","04","28","01:00","","M","","M","79","","","","35","","11","","","","100.58","","","","","","NA"
"-81.90","42.25","ERIEAU (AUT)","613KLLM","2022-04-28 02:00","2022","04","28","02:00","","M","","M","75","","","","33","","11","","","","100.59","","","","","","NA"
"-81.90","42.25","ERIEAU (AUT)","613KLLM","2022-04-28 03:00","2022","04","28","03:00","","M","","M","79","","","","31","","6","","","","100.58","","","","","","NA"
"-81.90","42.25","ERIEAU (AUT)","613KLLM","2022-04-28 04:00","2022","04","28","04:00","","M","","M","78","","","","31","","7","","","","100.56","","","","","","NA"
"-81.90","42.25","ERIEAU (AUT)","613KLLM","2022-04-28 05:00","2022","04","28","05:00","","M","","M","79","","","","30","","6","","","","100.56","","","","","","NA"
"-81.90","42.25","ERIEAU (AUT)","613KLLM","2022-04-28 06:00","2022","04","28","06:00","","M","","M","77","","","","32","","6","","","","100.61","","","","","","NA"
"-81.90","42.25","ERIEAU (AUT)","613KLLM","2022-04-28 07:00","2022","04","28","07:00","","M","","M","72","","","","32","","7","","","","100.66","","","","","","NA"
"-81.90","42.25","ERIEAU (AUT)","613KLLM","2022-04-28 08:00","2022","04","28","08:00","","M","","M","69","","","","35","","12","","","","100.67","","","","","","NA"
"-81.90","42.25","ERIEAU (AUT)","613KLLM","2022-04-28 09:00","2022","04","28","09:00","","M","","M","65","","","","35","","7","","","","100.66","","","","","","NA"
"-81.90","42.25","ERIEAU (AUT)","613KLLM","2022-04-28 10:00","2022","04","28","10:00","","M","","M","60","","","","15","","4","","","","100.70","","","","","","NA"
"-81.90","42.25","ERIEAU (AUT)","613KLLM","2022-04-28 11:00","2022","04","28","11:00","","M","","M","64","","","","16","","8","","","","100.71","","","","","","NA"
"-81.90","42.25","ERIEAU (AUT)","613KLLM","2022-04-28 12:00","2022","04","28","12:00","","M","","M","64","","","","16","","9","","","","100.66","","","","","","NA"
"-81.90","42.25","ERIEAU (AUT)","613KLLM","2022-04-28 13:00","2022","04","28","13:00","","M","","M","63","","","","18","","13","","","","100.60","","","","","","NA"
"-81.90","42.25","ERIEAU (AUT)","613KLLM","2022-04-28 14:00","2022","04","28","14:00","","M","","M","59","","","","18","","14","","","","100.50","","","","","","NA"
"-81.90","42.25","ERIEAU (AUT)","613KLLM","2022-04-28 15:00","2022","04","28","15:00","","M","","M","47","","","","18","","15","","","","100.46","","","","","","NA"
"-81.90","42.25","ERIEAU (AUT)","613KLLM","2022-04-28 16:00","2022","04","28","16:00","","M","","M","61","","","","20","","18","","","","100.42","","","","","","NA"
"-81.90","42.25","ERIEAU (AUT)","613KLLM","2022-04-28 17:00","2022","04","28","17:00","","M","","M","59","","","","21","","14","","","","100.41","","","","","","NA"
"-81.90","42.25","ERIEAU (AUT)","613KLLM","2022-04-28 18:00","2022","04","28","18:00","","M","","M","62","","","","21","","10","","","","100.38","","","","","","NA"
"-81.90","42.25","ERIEAU (AUT)","613KLLM","2022-04-28 19:00","2022","04","28","19:00","","M","","M","63","","","","21","","8","","","","100.37","","","","","","NA"
"-81.90","42.25","ERIEAU (AUT)","613KLLM","2022-04-28 20:00","2022","04","28","20:00","","M","","M","68","","","","24","","6","","","","100.37","","","","","","NA"
"-81.90","42.25","ERIEAU (AUT)","613KLLM","2022-04-28 21:00","2022","04","28","21:00","","M","","M","62","","","","28","","5","","","","100.41","","","","","","NA"
"-81.90","42.25","ERIEAU (AUT)","613KLLM","2022-04-28 22:00","2022","04","28","22:00","","M","","M","48","","","","34","","8","","","","100.42","","","","","","NA"
"-81.90","42.25","ERIEAU (AUT)","613KLLM","2022-04-28 23:00","2022","04","28","23:00","","M","","M","43","","","","1","","8","","","","100.40","","","","","","NA"
"-81.90","42.25","ERIEAU (AUT)","613KLLM","2022-04-29 00:00","2022","04","29","00:00","","M","","M","48","","","","31","","4","","","","100.42","","","","","","NA"
"-81.90","42.25","ERIEAU (AUT)","613KLLM","2022-04-29 01:00","2022","04","29","01:00","","M","","M","55","","","","1","","12","","","","100.36","","","","","","NA"
"-81.90","42.25","ERIEAU (AUT)","613KLLM","2022-04-29 02:00","2022","04","29","02:00","","M","","M","65","","","","3","","15","","","","100.29","","","","","","NA"
"-81.90","42.25","ERIEAU (AUT)","613KLLM","2022-04-29 03:00","2022","04","29","03:00","","M","","M","70","","","","3","","12","","","","100.34","","","","","","NA"
"-81.90","42.25","ERIEAU (AUT)","613KLLM","2022-04-29 04:00","2022","04","29","04:00","","M","","M","75","","","","4","","10","","","","100.38","","","","","","NA"
"-81.90","42.25","ERIEAU (AUT)","613KLLM","2022-04-29 05:00","2022","04","29","05:00","","M","","M","73","","","","6","","13","","","","100.40","","","","","","NA"
"-81.90","42.25","ERIEAU (AUT)","613KLLM","2022-04-29 06:00","2022","04","29","06:00","","M","","M","72","","","","6","","14","","","","100.44","","","","","","NA"
"-81.90","42.25","ERIEAU (AUT)","613KLLM","2022-04-29 07:00","2022","04","29","07:00","","M","","M","72","","","","7","","16","","","","100.50","","","","","","NA"
"-81.90","42.25","ERIEAU (AUT)","613KLLM","2022-04-29 08:00","2022","04","29","08:00","","M","","M","74","","","","8","","19","","","","100.49","","","","","","NA"
"-81.90","42.25","ERIEAU (AUT)","613KLLM","2022-04-29 09:00","2022","04","29","09:00","","M","","M","77","","","","9","","13","","","","100.50","","","","","","NA"
"-81.90","42.25","ERIEAU (AUT)","613KLLM","2022-04-29 10:00","2022","04","29","10:00","","M","","M","65","","","","8","","20","","","","100.48","","","","","","NA"
"-81.90","42.25","ERIEAU (AUT)","613KLLM","2022-04-29 11:00","2022","04","29","11:00","","M","","M","63","","","","7","","18","","","","100.45","","","","","","NA"
"-81.90","42.25","ERIEAU (AUT)","613KLLM","2022-04-29 12:00","2022","04","29","12:00","","M","","M","57","","","","6","","18","","","","100.42","","","","","","NA"
"-81.90","42.25","ERIEAU (AUT)","613KLLM","2022-04-29 13:00","2022","04","29","13:00","","M","","M","50","","","","6","","15","","","","100.43","","","","","","NA"
"-81.90","42.25","ERIEAU (AUT)","613KLLM","2022-04-29 14:00","2022","04","29","14:00","","M","","M","41","","","","7","","18","","","","100.35","","","","","","NA"
"-81.90","42.25","ERIEAU (AUT)","613KLLM","2022-04-29 15:00","2022","04","29","15:00","","M","","M","41","","","","6","","20","","","","100.26","","","","","","NA"
"-81.90","42.25","ERIEAU (AUT)","613KLLM","2022-04-29 16:00","2022","04","29","16:00","","M","","M","43","","","","7","","16","","","","100.20","","","","","","NA"
"-81.90","42.25","ERIEAU (AUT)","613KLLM","2022-04-29 17:00","2022","04","29","17:00","","M","","M","43","","","","6","","18","","","","100.15","","","","","","NA"
"-81.90","42.25","ERIEAU (AUT)","613KLLM","2022-04-29 18:00","2022","04","29","18:00","","M","","M","42","","","","5","","18","","","","100.14","","","","","","NA"
"-81.90","42.25","ERIEAU (AUT)","613KLLM","2022-04-29 19:00","2022","04","29","19:00","","M","","M","51","","","","6","","13","","","","100.13","","","","","","NA"
"-81.90","42.25","ERIEAU (AUT)","613KLLM","2022-04-29 20:00","2022","04","29","20:00","","M","","M","55","","","","6","","12","","","","100.15","","","","","","NA"
"-81.90","42.25","ERIEAU (AUT)","613KLLM","2022-04-29 21:00","2022","04","29","21:00","","M","","M","57","","","","6","","14","","","","100.15","","","","","","NA"
"-81.90","42.25","ERIEAU (AUT)","613KLLM","2022-04-29 22:00","2022","04","29","22:00","","M","","M","60","","","","7","","18","","","","100.12","","","","","","NA"
"-81.90","42.25","ERIEAU (AUT)","613KLLM","2022-04-29 23:00","2022","04","29","23:00","","M","","M","63","","","","7","","15","","","","100.09","","","","","","NA"
"-81.90","42.25","ERIEAU (AUT)","613KLLM","2022-04-30 00:00","2022","04","30","00:00","","M","","M","69","","","","5","","12","","","","100.08","","","","","","NA"
"-81.90","42.25","ERIEAU (AUT)","613KLLM","2022-04-30 01:00","2022","04","30","01:00","","M","","M","66","","","","4","","13","","","","100.05","","","","","","NA"
"-81.90","42.25","ERIEAU (AUT)","613KLLM","2022-04-30 02:00","2022","04","30","02:00","","M","","M","66","","","","5","","12","","","","100.06","","","","","","NA"
"-81.90","42.25","ERIEAU (AUT)","613KLLM","2022-04-30 03:00","2022","04","30","03:00","","M","","M","71","","","","4","","15","","","","100.04","","","","","","NA"
"-81.90","42.25","ERIEAU (AUT)","613KLLM","2022-04-30 04:00","2022","04","30","04:00","","M","","M","67","","","","5","","19","","","","100.00","","","","","","NA"
"-81.90","42.25","ERIEAU (AUT)","613KLLM","2022-04-30 05:00","2022","04","30","05:00","","M","","M","72","","","","6","","22","","","","100.02","","","","","","NA"
"-81.90","42.25","ERIEAU (AUT)","613KLLM","2022-04-30 06:00","2022","04","30","06:00","","M","","M","75","","","","6","","27","","","","100.07","","","","","","NA"
"-81.90","42.25","ERIEAU (AUT)","613KLLM","2022-04-30 07:00","2022","04","30","07:00","","M","","M","73","","","","7","","25","","","","100.08","","","","","","NA"
"-81.90","42.25","ERIEAU (AUT)","613KLLM","2022-04-30 08:00","2022","04","30","08:00","","M","","M","66","","","","7","","26","","","","100.09","","","","","","NA"
"-81.90","42.25","ERIEAU (AUT)","613KLLM","2022-04-30 09:00","2022","04","30","09:00","","M","","M","65","","","","6","","26","","","","100.08","","","","","","NA"
"-81.90","42.25","ERIEAU (AUT)","613KLLM","2022-04-30 10:00","2022","04","30","10:00","","M","","M","64","","","","6","","27","","","","100.05","","","","","","NA"
"-81.90","42.25","ERIEAU (AUT)","613KLLM","2022-04-30 11:00","2022","04","30","11:00","","M","","M","65","","","","6","","27","","","","100.02","","","","","","NA"
"-81.90","42.25","ERIEAU (AUT)","613KLLM","2022-04-30 12:00","2022","04","30","12:00","","M","","M","66","","","","6","","25","","","","99.97","","","","","","NA"
"-81.90","42.25","ERIEAU (AUT)","613KLLM","2022-04-30 13:00","2022","04","30","13:00","","M","","M","60","","","","6","","27","","","","99.89","","","","","","NA"
"-81.90","42.25","ERIEAU (AUT)","613KLLM","2022-04-30 14:00","2022","04","30","14:00","","M","","M","56","","","","6","","28","","","","99.82","","","","","","NA"
"-81.90","42.25","ERIEAU (AUT)","613KLLM","2022-04-30 15:00","2022","04","30","15:00","","M","","M","48","","","","6","","35","","","","99.73","","","","","","NA"
"-81.90","42.25","ERIEAU (AUT)","613KLLM","2022-04-30 16:00","2022","04","30","16:00","","M","","M","45","","","","7","","35","","","","99.68","","","","","","NA"
"-81.90","42.25","ERIEAU (AUT)","613KLLM","2022-04-30 17:00","2022","04","30","17:00","","M","","M","49","","","","7","","37","","","","99.61","","","","","","NA"
"-81.90","42.25","ERIEAU (AUT)","613KLLM","2022-04-30 18:00","2022","04","30","18:00","","M","","M","53","","","","6","","43","","","","99.45","","","","","","NA"
"-81.90","42.25","ERIEAU (AUT)","613KLLM","2022-04-30 19:00","2022","04","30","19:00","","M","","M","56","","","","7","","37","","","","99.47","","","","","","NA"
"-81.90","42.25","ERIEAU (AUT)","613KLLM","2022-04-30 20:00","2022","04","30","20:00","","M","","M","58","","","","7","","34","","","","99.50","","","","","","NA"
"-81.90","42.25","ERIEAU (AUT)","613KLLM","2022-04-30 21:00","2022","04","30","21:00","","M","","M","63","","","","7","","31","","","","99.48","","","","","","NA"
"-81.90","42.25","ERIEAU (AUT)","613KLLM","2022-04-30 22:00","2022","04","30","22:00","","M","","M","68","","","","8","","32","","","","99.42","","","","","","NA"
"-81.90","42.25","ERIEAU (AUT)","613KLLM","2022-04-30 23:00","2022","04","30","23:00","","M","","M","60","","","","7","","39","","","","99.34","","","","","","NA"
