"Longitude (x)","Latitude (y)","Station Name","Climate ID","Date/Time (LST)","Year","Month","Day","Time (LST)","Temp (°C)","Temp Flag","Dew Point Temp (°C)","Dew Point Temp Flag","Rel Hum (%)","Rel Hum Flag","Precip. Amount (mm)","Precip. Amount Flag","Wind Dir (10s deg)","Wind Dir Flag","Wind Spd (km/h)","Wind Spd Flag","Visibility (km)","Visibility Flag","Stn Press (kPa)","Stn Press Flag","Hmdx","Hmdx Flag","Wind Chill","Wind Chill Flag","Weather"
"-128.65","66.24","FORT GOOD HOPE A","2201406","2020-10-01 00:00","2020","10","01","00:00","4.0","","2.9","","93","","","M","7","","15","","","M","100.40","","","","","","NA"
"-128.65","66.24","FORT GOOD HOPE A","2201406","2020-10-01 01:00","2020","10","01","01:00","3.6","","2.7","","94","","","M","7","","12","","","M","100.33","","","","","","NA"
"-128.65","66.24","FORT GOOD HOPE A","2201406","2020-10-01 02:00","2020","10","01","02:00","3.2","","2.5","","95","","","M","6","","11","","","M","100.25","","","","","","NA"
"-128.65","66.24","FORT GOOD HOPE A","2201406","2020-10-01 03:00","2020","10","01","03:00","3.1","","2.4","","95","","","M","6","","10","","","M","100.21","","","","","","NA"
"-128.65","66.24","FORT GOOD HOPE A","2201406","2020-10-01 04:00","2020","10","01","04:00","3.0","","2.3","","95","","","M","6","","10","","","M","100.21","","","","","","NA"
"-128.65","66.24","FORT GOOD HOPE A","2201406","2020-10-01 05:00","2020","10","01","05:00","3.4","","2.5","","94","","","M","7","","10","","","M","100.20","","","","","","NA"
"-128.65","66.24","FORT GOOD HOPE A","2201406","2020-10-01 06:00","2020","10","01","06:00","3.1","","2.5","","96","","","M","5","","5","","","M","100.25","","","","","","NA"
"-128.65","66.24","FORT GOOD HOPE A","2201406","2020-10-01 07:00","2020","10","01","07:00","3.2","","2.5","","95","","","M","7","","8","","","M","100.27","","","","","","NA"
"-128.65","66.24","FORT GOOD HOPE A","2201406","2020-10-01 08:00","2020","10","01","08:00","2.3","","2.1","","98","","","M","8","","5","","","M","100.33","","","","","","NA"
"-128.65","66.24","FORT GOOD HOPE A","2201406","2020-10-01 09:00","2020","10","01","09:00","2.0","","1.9","","99","","","M","13","","4","","","M","100.36","","","","","","NA"
"-128.65","66.24","FORT GOOD HOPE A","2201406","2020-10-01 10:00","2020","10","01","10:00","3.1","","2.8","","98","","","M","13","","5","","","M","100.40","","","","","","NA"
"-128.65","66.24","FORT GOOD HOPE A","2201406","2020-10-01 11:00","2020","10","01","11:00","3.9","","2.8","","93","","","M","15","","2","","","M","100.45","","","","","","NA"
"-128.65","66.24","FORT GOOD HOPE A","2201406","2020-10-01 12:00","2020","10","01","12:00","4.5","","3.3","","92","","","M","14","","5","","","M","100.47","","","","","","NA"
"-128.65","66.24","FORT GOOD HOPE A","2201406","2020-10-01 13:00","2020","10","01","13:00","4.5","","4.1","","97","","","M","13","","2","","","M","100.51","","","","","","NA"
"-128.65","66.24","FORT GOOD HOPE A","2201406","2020-10-01 14:00","2020","10","01","14:00","5.3","","4.8","","96","","","M","9","","2","","","M","100.53","","","","","","NA"
"-128.65","66.24","FORT GOOD HOPE A","2201406","2020-10-01 15:00","2020","10","01","15:00","6.2","","5.1","","93","","","M","18","","4","","","M","100.58","","","","","","NA"
"-128.65","66.24","FORT GOOD HOPE A","2201406","2020-10-01 16:00","2020","10","01","16:00","6.3","","5.5","","95","","","M","16","","7","","","M","100.56","","","","","","NA"
"-128.65","66.24","FORT GOOD HOPE A","2201406","2020-10-01 17:00","2020","10","01","17:00","6.2","","5.6","","96","","","M","20","","4","","","M","100.59","","","","","","NA"
"-128.65","66.24","FORT GOOD HOPE A","2201406","2020-10-01 18:00","2020","10","01","18:00","6.4","","5.9","","97","","","M","15","","3","","","M","100.57","","","","","","NA"
"-128.65","66.24","FORT GOOD HOPE A","2201406","2020-10-01 19:00","2020","10","01","19:00","6.3","","5.9","","97","","","M","3","","4","","","M","100.59","","","","","","NA"
"-128.65","66.24","FORT GOOD HOPE A","2201406","2020-10-01 20:00","2020","10","01","20:00","5.6","","5.6","","100","","","M","12","","2","","","M","100.61","","","","","","NA"
"-128.65","66.24","FORT GOOD HOPE A","2201406","2020-10-01 21:00","2020","10","01","21:00","3.8","","3.8","","100","","","M","10","","9","","","M","100.61","","","","","","NA"
"-128.65","66.24","FORT GOOD HOPE A","2201406","2020-10-01 22:00","2020","10","01","22:00","2.9","","2.9","","100","","","M","17","","7","","","M","100.62","","","","","","NA"
"-128.65","66.24","FORT GOOD HOPE A","2201406","2020-10-01 23:00","2020","10","01","23:00","1.8","","1.8","","100","","","M","12","","4","","","M","100.65","","","","","","NA"
"-128.65","66.24","FORT GOOD HOPE A","2201406","2020-10-02 00:00","2020","10","02","00:00","1.2","","1.2","","100","","","M","11","","7","","","M","100.65","","","","","","NA"
"-128.65","66.24","FORT GOOD HOPE A","2201406","2020-10-02 01:00","2020","10","02","01:00","0.0","","0.0","","100","","","M","10","","11","","","M","100.64","","","","-4","","NA"
"-128.65","66.24","FORT GOOD HOPE A","2201406","2020-10-02 02:00","2020","10","02","02:00","1.1","","1.1","","100","","","M","12","","9","","","M","100.61","","","","","","NA"
"-128.65","66.24","FORT GOOD HOPE A","2201406","2020-10-02 03:00","2020","10","02","03:00","2.1","","2.1","","100","","","M","7","","3","","","M","100.61","","","","","","NA"
"-128.65","66.24","FORT GOOD HOPE A","2201406","2020-10-02 04:00","2020","10","02","04:00","-0.1","","-0.1","","100","","","M","10","","4","","","M","100.59","","","","-1","","NA"
"-128.65","66.24","FORT GOOD HOPE A","2201406","2020-10-02 05:00","2020","10","02","05:00","-0.3","","-0.3","","100","","","M","10","","8","","","M","100.61","","","","-3","","NA"
"-128.65","66.24","FORT GOOD HOPE A","2201406","2020-10-02 06:00","2020","10","02","06:00","-0.7","","-0.7","","100","","","M","9","","5","","","M","100.56","","","","-2","","NA"
"-128.65","66.24","FORT GOOD HOPE A","2201406","2020-10-02 07:00","2020","10","02","07:00","-1.2","","-1.2","","100","","","M","9","","7","","","M","100.53","","","","-4","","NA"
"-128.65","66.24","FORT GOOD HOPE A","2201406","2020-10-02 08:00","2020","10","02","08:00","-1.2","","-1.2","","100","","","M","10","","9","","","M","100.50","","","","-4","","NA"
"-128.65","66.24","FORT GOOD HOPE A","2201406","2020-10-02 09:00","2020","10","02","09:00","-0.2","","-0.2","","100","","","M","10","","7","","","M","100.42","","","","-3","","NA"
"-128.65","66.24","FORT GOOD HOPE A","2201406","2020-10-02 10:00","2020","10","02","10:00","1.9","","1.9","","100","","","M","6","","6","","","M","100.33","","","","","","NA"
"-128.65","66.24","FORT GOOD HOPE A","2201406","2020-10-02 11:00","2020","10","02","11:00","4.2","","3.8","","97","","","M","8","","8","","","M","100.24","","","","","","NA"
"-128.65","66.24","FORT GOOD HOPE A","2201406","2020-10-02 12:00","2020","10","02","12:00","6.8","","4.9","","88","","","M","6","","8","","","M","100.14","","","","","","NA"
"-128.65","66.24","FORT GOOD HOPE A","2201406","2020-10-02 13:00","2020","10","02","13:00","8.9","","5.9","","81","","","M","9","","5","","","M","100.11","","","","","","NA"
"-128.65","66.24","FORT GOOD HOPE A","2201406","2020-10-02 14:00","2020","10","02","14:00","9.3","","6.2","","81","","","M","5","","6","","","M","100.01","","","","","","NA"
"-128.65","66.24","FORT GOOD HOPE A","2201406","2020-10-02 15:00","2020","10","02","15:00","10.4","","6.2","","75","","","M","7","","7","","","M","99.88","","","","","","NA"
"-128.65","66.24","FORT GOOD HOPE A","2201406","2020-10-02 16:00","2020","10","02","16:00","11.1","","5.8","","70","","","M","8","","11","","","M","99.75","","","","","","NA"
"-128.65","66.24","FORT GOOD HOPE A","2201406","2020-10-02 17:00","2020","10","02","17:00","11.7","","4.6","","61","","","M","10","","17","","","M","99.67","","","","","","NA"
"-128.65","66.24","FORT GOOD HOPE A","2201406","2020-10-02 18:00","2020","10","02","18:00","11.2","","4.4","","63","","","M","8","","12","","","M","99.59","","","","","","NA"
"-128.65","66.24","FORT GOOD HOPE A","2201406","2020-10-02 19:00","2020","10","02","19:00","8.8","","4.9","","76","","","M","8","","12","","","M","99.49","","","","","","NA"
"-128.65","66.24","FORT GOOD HOPE A","2201406","2020-10-02 20:00","2020","10","02","20:00","7.5","","5.0","","84","","","M","9","","9","","","M","99.42","","","","","","NA"
"-128.65","66.24","FORT GOOD HOPE A","2201406","2020-10-02 21:00","2020","10","02","21:00","7.7","","4.9","","83","","","M","5","","6","","","M","99.37","","","","","","NA"
"-128.65","66.24","FORT GOOD HOPE A","2201406","2020-10-02 22:00","2020","10","02","22:00","7.4","","5.0","","85","","","M","7","","8","","","M","99.29","","","","","","NA"
"-128.65","66.24","FORT GOOD HOPE A","2201406","2020-10-02 23:00","2020","10","02","23:00","7.1","","5.0","","87","","","M","7","","8","","","M","99.21","","","","","","NA"
"-128.65","66.24","FORT GOOD HOPE A","2201406","2020-10-03 00:00","2020","10","03","00:00","5.7","","4.0","","89","","","M","6","","5","","","M","99.17","","","","","","NA"
"-128.65","66.24","FORT GOOD HOPE A","2201406","2020-10-03 01:00","2020","10","03","01:00","4.2","","3.9","","98","","","M","8","","9","","","M","99.14","","","","","","NA"
"-128.65","66.24","FORT GOOD HOPE A","2201406","2020-10-03 02:00","2020","10","03","02:00","4.1","","3.4","","95","","","M","9","","7","","","M","99.13","","","","","","NA"
"-128.65","66.24","FORT GOOD HOPE A","2201406","2020-10-03 03:00","2020","10","03","03:00","4.4","","3.6","","95","","","M","6","","3","","","M","99.06","","","","","","NA"
"-128.65","66.24","FORT GOOD HOPE A","2201406","2020-10-03 04:00","2020","10","03","04:00","4.8","","4.1","","95","","","M","4","","3","","","M","99.00","","","","","","NA"
"-128.65","66.24","FORT GOOD HOPE A","2201406","2020-10-03 05:00","2020","10","03","05:00","4.2","","4.2","","100","","","M","5","","6","","","M","98.96","","","","","","NA"
"-128.65","66.24","FORT GOOD HOPE A","2201406","2020-10-03 06:00","2020","10","03","06:00","3.9","","3.6","","98","","","M","36","","8","","","M","98.95","","","","","","NA"
"-128.65","66.24","FORT GOOD HOPE A","2201406","2020-10-03 07:00","2020","10","03","07:00","2.9","","2.9","","100","","","M","12","","7","","","M","98.88","","","","","","NA"
"-128.65","66.24","FORT GOOD HOPE A","2201406","2020-10-03 08:00","2020","10","03","08:00","3.1","","3.1","","100","","","M","7","","4","","","M","98.88","","","","","","NA"
"-128.65","66.24","FORT GOOD HOPE A","2201406","2020-10-03 09:00","2020","10","03","09:00","2.7","","2.7","","100","","","M","12","","9","","","M","98.87","","","","","","NA"
"-128.65","66.24","FORT GOOD HOPE A","2201406","2020-10-03 10:00","2020","10","03","10:00","5.1","","4.7","","97","","","M","33","","5","","","M","98.87","","","","","","NA"
"-128.65","66.24","FORT GOOD HOPE A","2201406","2020-10-03 11:00","2020","10","03","11:00","7.5","","5.3","","86","","","M","18","","3","","","M","98.89","","","","","","NA"
"-128.65","66.24","FORT GOOD HOPE A","2201406","2020-10-03 12:00","2020","10","03","12:00","8.8","","5.4","","80","","","M","12","","4","","","M","98.89","","","","","","NA"
"-128.65","66.24","FORT GOOD HOPE A","2201406","2020-10-03 13:00","2020","10","03","13:00","11.3","","6.1","","70","","","M","11","","5","","","M","98.87","","","","","","NA"
"-128.65","66.24","FORT GOOD HOPE A","2201406","2020-10-03 14:00","2020","10","03","14:00","11.4","","5.8","","68","","","M","14","","4","","","M","98.88","","","","","","NA"
"-128.65","66.24","FORT GOOD HOPE A","2201406","2020-10-03 15:00","2020","10","03","15:00","13.6","","6.6","","62","","","M","18","","4","","","M","98.87","","","","","","NA"
"-128.65","66.24","FORT GOOD HOPE A","2201406","2020-10-03 16:00","2020","10","03","16:00","12.5","","6.7","","68","","","M","33","","5","","","M","98.84","","","","","","NA"
"-128.65","66.24","FORT GOOD HOPE A","2201406","2020-10-03 17:00","2020","10","03","17:00","12.7","","7.0","","68","","","M","32","","4","","","M","98.84","","","","","","NA"
"-128.65","66.24","FORT GOOD HOPE A","2201406","2020-10-03 18:00","2020","10","03","18:00","12.0","","6.8","","71","","","M","18","","2","","","M","98.84","","","","","","NA"
"-128.65","66.24","FORT GOOD HOPE A","2201406","2020-10-03 19:00","2020","10","03","19:00","12.5","","5.5","","62","","","M","26","","7","","","M","98.85","","","","","","NA"
"-128.65","66.24","FORT GOOD HOPE A","2201406","2020-10-03 20:00","2020","10","03","20:00","14.0","","4.0","","51","","","M","23","","13","","","M","98.84","","","","","","NA"
"-128.65","66.24","FORT GOOD HOPE A","2201406","2020-10-03 21:00","2020","10","03","21:00","12.7","","3.5","","53","","","M","23","","9","","","M","98.82","","","","","","NA"
"-128.65","66.24","FORT GOOD HOPE A","2201406","2020-10-03 22:00","2020","10","03","22:00","10.4","","3.5","","62","","","M","22","","11","","","M","98.84","","","","","","NA"
"-128.65","66.24","FORT GOOD HOPE A","2201406","2020-10-03 23:00","2020","10","03","23:00","11.0","","3.1","","58","","","M","24","","14","","","M","98.83","","","","","","NA"
"-128.65","66.24","FORT GOOD HOPE A","2201406","2020-10-04 00:00","2020","10","04","00:00","11.3","","2.2","","53","","","M","23","","11","","","M","98.84","","","","","","NA"
"-128.65","66.24","FORT GOOD HOPE A","2201406","2020-10-04 01:00","2020","10","04","01:00","10.7","","2.1","","55","","","M","22","","14","","","M","98.83","","","","","","NA"
"-128.65","66.24","FORT GOOD HOPE A","2201406","2020-10-04 02:00","2020","10","04","02:00","10.5","","2.0","","55","","","M","23","","6","","","M","98.87","","","","","","NA"
"-128.65","66.24","FORT GOOD HOPE A","2201406","2020-10-04 03:00","2020","10","04","03:00","8.2","","2.1","","65","","","M","26","","2","","","M","98.87","","","","","","NA"
"-128.65","66.24","FORT GOOD HOPE A","2201406","2020-10-04 04:00","2020","10","04","04:00","9.5","","1.8","","58","","","M","23","","9","","","M","98.89","","","","","","NA"
"-128.65","66.24","FORT GOOD HOPE A","2201406","2020-10-04 05:00","2020","10","04","05:00","9.3","","2.2","","61","","","M","24","","16","","","M","98.91","","","","","","NA"
"-128.65","66.24","FORT GOOD HOPE A","2201406","2020-10-04 06:00","2020","10","04","06:00","9.1","","2.2","","62","","","M","27","","13","","","M","98.92","","","","","","NA"
"-128.65","66.24","FORT GOOD HOPE A","2201406","2020-10-04 07:00","2020","10","04","07:00","8.5","","2.3","","65","","","M","25","","10","","","M","98.95","","","","","","NA"
"-128.65","66.24","FORT GOOD HOPE A","2201406","2020-10-04 08:00","2020","10","04","08:00","8.5","","2.2","","64","","","M","26","","14","","","M","98.97","","","","","","NA"
"-128.65","66.24","FORT GOOD HOPE A","2201406","2020-10-04 09:00","2020","10","04","09:00","8.3","","2.6","","67","","","M","26","","13","","","M","99.02","","","","","","NA"
"-128.65","66.24","FORT GOOD HOPE A","2201406","2020-10-04 10:00","2020","10","04","10:00","9.3","","2.5","","62","","","M","27","","12","","","M","99.05","","","","","","NA"
"-128.65","66.24","FORT GOOD HOPE A","2201406","2020-10-04 11:00","2020","10","04","11:00","9.5","","2.7","","63","","","M","27","","16","","","M","99.11","","","","","","NA"
"-128.65","66.24","FORT GOOD HOPE A","2201406","2020-10-04 12:00","2020","10","04","12:00","10.2","","2.9","","60","","","M","26","","14","","","M","99.13","","","","","","NA"
"-128.65","66.24","FORT GOOD HOPE A","2201406","2020-10-04 13:00","2020","10","04","13:00","10.5","","3.2","","60","","","M","26","","11","","","M","99.20","","","","","","NA"
"-128.65","66.24","FORT GOOD HOPE A","2201406","2020-10-04 14:00","2020","10","04","14:00","11.3","","3.1","","57","","","M","27","","10","","","M","99.25","","","","","","NA"
"-128.65","66.24","FORT GOOD HOPE A","2201406","2020-10-04 15:00","2020","10","04","15:00","12.1","","3.0","","53","","","M","27","","10","","","M","99.27","","","","","","NA"
"-128.65","66.24","FORT GOOD HOPE A","2201406","2020-10-04 16:00","2020","10","04","16:00","12.6","","2.9","","51","","","M","27","","18","","","M","99.29","","","","","","NA"
"-128.65","66.24","FORT GOOD HOPE A","2201406","2020-10-04 17:00","2020","10","04","17:00","12.3","","3.2","","53","","","M","27","","24","","","M","99.28","","","","","","NA"
"-128.65","66.24","FORT GOOD HOPE A","2201406","2020-10-04 18:00","2020","10","04","18:00","10.4","","3.5","","62","","","M","26","","19","","","M","99.31","","","","","","NA"
"-128.65","66.24","FORT GOOD HOPE A","2201406","2020-10-04 19:00","2020","10","04","19:00","9.4","","3.5","","67","","","M","26","","14","","","M","99.33","","","","","","NA"
"-128.65","66.24","FORT GOOD HOPE A","2201406","2020-10-04 20:00","2020","10","04","20:00","8.5","","3.8","","72","","","M","24","","7","","","M","99.34","","","","","","NA"
"-128.65","66.24","FORT GOOD HOPE A","2201406","2020-10-04 21:00","2020","10","04","21:00","8.5","","3.3","","70","","","M","27","","3","","","M","99.31","","","","","","NA"
"-128.65","66.24","FORT GOOD HOPE A","2201406","2020-10-04 22:00","2020","10","04","22:00","7.0","","3.2","","77","","","M","20","","12","","","M","99.29","","","","","","NA"
"-128.65","66.24","FORT GOOD HOPE A","2201406","2020-10-04 23:00","2020","10","04","23:00","6.0","","2.8","","80","","","M","18","","5","","","M","99.27","","","","","","NA"
"-128.65","66.24","FORT GOOD HOPE A","2201406","2020-10-05 00:00","2020","10","05","00:00","4.8","","2.5","","85","","","M","18","","10","","","M","99.26","","","","","","NA"
"-128.65","66.24","FORT GOOD HOPE A","2201406","2020-10-05 01:00","2020","10","05","01:00","3.1","","1.8","","92","","","M","17","","5","","","M","99.27","","","","","","NA"
"-128.65","66.24","FORT GOOD HOPE A","2201406","2020-10-05 02:00","2020","10","05","02:00","1.1","","0.6","","97","","","M","11","","8","","","M","99.21","","","","","","NA"
"-128.65","66.24","FORT GOOD HOPE A","2201406","2020-10-05 03:00","2020","10","05","03:00","1.6","","1.2","","97","","","M","16","","8","","","M","99.19","","","","","","NA"
"-128.65","66.24","FORT GOOD HOPE A","2201406","2020-10-05 04:00","2020","10","05","04:00","0.8","","0.3","","97","","","M","9","","8","","","M","99.14","","","","","","NA"
"-128.65","66.24","FORT GOOD HOPE A","2201406","2020-10-05 05:00","2020","10","05","05:00","0.5","","0.4","","99","","","M","9","","6","","","M","99.11","","","","","","NA"
"-128.65","66.24","FORT GOOD HOPE A","2201406","2020-10-05 06:00","2020","10","05","06:00","0.5","","0.2","","98","","","M","12","","4","","","M","99.08","","","","","","NA"
"-128.65","66.24","FORT GOOD HOPE A","2201406","2020-10-05 07:00","2020","10","05","07:00","1.4","","1.2","","99","","","M","4","","1","","","M","99.05","","","","","","NA"
"-128.65","66.24","FORT GOOD HOPE A","2201406","2020-10-05 08:00","2020","10","05","08:00","0.1","","0.1","","100","","","M","13","","3","","","M","99.00","","","","","","NA"
"-128.65","66.24","FORT GOOD HOPE A","2201406","2020-10-05 09:00","2020","10","05","09:00","0.4","","0.4","","100","","","M","7","","3","","","M","99.01","","","","","","NA"
"-128.65","66.24","FORT GOOD HOPE A","2201406","2020-10-05 10:00","2020","10","05","10:00","1.1","","1.1","","100","","","M","6","","3","","","M","99.03","","","","","","NA"
"-128.65","66.24","FORT GOOD HOPE A","2201406","2020-10-05 11:00","2020","10","05","11:00","3.6","","2.5","","92","","","M","10","","3","","","M","99.05","","","","","","NA"
"-128.65","66.24","FORT GOOD HOPE A","2201406","2020-10-05 12:00","2020","10","05","12:00","6.3","","3.5","","82","","","M","2","","3","","","M","99.07","","","","","","NA"
"-128.65","66.24","FORT GOOD HOPE A","2201406","2020-10-05 13:00","2020","10","05","13:00","9.4","","4.0","","69","","","M","6","","7","","","M","99.09","","","","","","NA"
"-128.65","66.24","FORT GOOD HOPE A","2201406","2020-10-05 14:00","2020","10","05","14:00","10.9","","4.5","","65","","","M","4","","8","","","M","99.11","","","","","","NA"
"-128.65","66.24","FORT GOOD HOPE A","2201406","2020-10-05 15:00","2020","10","05","15:00","11.5","","4.7","","63","","","M","5","","12","","","M","99.14","","","","","","NA"
"-128.65","66.24","FORT GOOD HOPE A","2201406","2020-10-05 16:00","2020","10","05","16:00","11.3","","4.5","","63","","","M","3","","7","","","M","99.17","","","","","","NA"
"-128.65","66.24","FORT GOOD HOPE A","2201406","2020-10-05 17:00","2020","10","05","17:00","11.2","","4.9","","65","","","M","4","","4","","","M","99.20","","","","","","NA"
"-128.65","66.24","FORT GOOD HOPE A","2201406","2020-10-05 18:00","2020","10","05","18:00","9.7","","4.7","","71","","","M","36","","5","","","M","99.26","","","","","","NA"
"-128.65","66.24","FORT GOOD HOPE A","2201406","2020-10-05 19:00","2020","10","05","19:00","8.9","","4.8","","76","","","M","4","","6","","","M","99.32","","","","","","NA"
"-128.65","66.24","FORT GOOD HOPE A","2201406","2020-10-05 20:00","2020","10","05","20:00","8.4","","5.8","","84","","","M","34","","4","","","M","99.39","","","","","","NA"
"-128.65","66.24","FORT GOOD HOPE A","2201406","2020-10-05 21:00","2020","10","05","21:00","8.0","","5.6","","85","","","M","34","","5","","","M","99.43","","","","","","NA"
"-128.65","66.24","FORT GOOD HOPE A","2201406","2020-10-05 22:00","2020","10","05","22:00","7.4","","6.7","","95","","","M","34","","6","","","M","99.48","","","","","","NA"
"-128.65","66.24","FORT GOOD HOPE A","2201406","2020-10-05 23:00","2020","10","05","23:00","6.9","","6.3","","96","","","M","35","","4","","","M","99.55","","","","","","NA"
"-128.65","66.24","FORT GOOD HOPE A","2201406","2020-10-06 00:00","2020","10","06","00:00","6.7","","6.1","","96","","","M","35","","5","","","M","99.62","","","","","","NA"
"-128.65","66.24","FORT GOOD HOPE A","2201406","2020-10-06 01:00","2020","10","06","01:00","5.1","","4.2","","94","","","M","3","","6","","","M","99.68","","","","","","NA"
"-128.65","66.24","FORT GOOD HOPE A","2201406","2020-10-06 02:00","2020","10","06","02:00","4.8","","3.2","","89","","","M","35","","10","","","M","99.77","","","","","","NA"
"-128.65","66.24","FORT GOOD HOPE A","2201406","2020-10-06 03:00","2020","10","06","03:00","3.8","","2.0","","88","","","M","35","","14","","","M","99.85","","","","","","NA"
"-128.65","66.24","FORT GOOD HOPE A","2201406","2020-10-06 04:00","2020","10","06","04:00","2.7","","1.7","","93","","","M","36","","8","","","M","99.97","","","","","","NA"
"-128.65","66.24","FORT GOOD HOPE A","2201406","2020-10-06 05:00","2020","10","06","05:00","2.4","","1.8","","96","","","M","32","","9","","","M","100.06","","","","","","NA"
"-128.65","66.24","FORT GOOD HOPE A","2201406","2020-10-06 06:00","2020","10","06","06:00","2.8","","1.8","","93","","","M","32","","10","","","M","100.13","","","","","","NA"
"-128.65","66.24","FORT GOOD HOPE A","2201406","2020-10-06 07:00","2020","10","06","07:00","2.8","","1.5","","91","","","M","31","","10","","","M","100.21","","","","","","NA"
"-128.65","66.24","FORT GOOD HOPE A","2201406","2020-10-06 08:00","2020","10","06","08:00","2.2","","1.0","","92","","","M","29","","16","","","M","100.29","","","","","","NA"
"-128.65","66.24","FORT GOOD HOPE A","2201406","2020-10-06 09:00","2020","10","06","09:00","1.9","","1.3","","95","","","M","27","","15","","","M","100.37","","","","","","NA"
"-128.65","66.24","FORT GOOD HOPE A","2201406","2020-10-06 10:00","2020","10","06","10:00","2.2","","0.9","","91","","","M","30","","16","","","M","100.45","","","","","","NA"
"-128.65","66.24","FORT GOOD HOPE A","2201406","2020-10-06 11:00","2020","10","06","11:00","2.4","","0.6","","88","","","M","29","","14","","","M","100.51","","","","","","NA"
"-128.65","66.24","FORT GOOD HOPE A","2201406","2020-10-06 12:00","2020","10","06","12:00","2.6","","0.6","","87","","","M","29","","13","","","M","100.57","","","","","","NA"
"-128.65","66.24","FORT GOOD HOPE A","2201406","2020-10-06 13:00","2020","10","06","13:00","3.1","","0.4","","82","","","M","27","","15","","","M","100.63","","","","","","NA"
"-128.65","66.24","FORT GOOD HOPE A","2201406","2020-10-06 14:00","2020","10","06","14:00","3.6","","0.0","","77","","","M","31","","20","","","M","100.69","","","","","","NA"
"-128.65","66.24","FORT GOOD HOPE A","2201406","2020-10-06 15:00","2020","10","06","15:00","3.7","","-0.3","","75","","","M","29","","16","","","M","100.75","","","","","","NA"
"-128.65","66.24","FORT GOOD HOPE A","2201406","2020-10-06 16:00","2020","10","06","16:00","3.1","","-0.3","","78","","","M","28","","16","","","M","100.79","","","","","","NA"
"-128.65","66.24","FORT GOOD HOPE A","2201406","2020-10-06 17:00","2020","10","06","17:00","3.5","","-0.4","","75","","","M","29","","15","","","M","100.82","","","","","","NA"
"-128.65","66.24","FORT GOOD HOPE A","2201406","2020-10-06 18:00","2020","10","06","18:00","3.3","","-0.8","","74","","","M","28","","16","","","M","100.87","","","","","","NA"
"-128.65","66.24","FORT GOOD HOPE A","2201406","2020-10-06 19:00","2020","10","06","19:00","3.0","","-1.0","","75","","","M","28","","15","","","M","100.91","","","","","","NA"
"-128.65","66.24","FORT GOOD HOPE A","2201406","2020-10-06 20:00","2020","10","06","20:00","2.8","","-0.9","","77","","","M","28","","10","","","M","100.94","","","","","","NA"
"-128.65","66.24","FORT GOOD HOPE A","2201406","2020-10-06 21:00","2020","10","06","21:00","2.6","","-1.1","","77","","","M","27","","14","","","M","100.93","","","","","","NA"
"-128.65","66.24","FORT GOOD HOPE A","2201406","2020-10-06 22:00","2020","10","06","22:00","2.3","","-0.7","","80","","","M","28","","12","","","M","100.96","","","","","","NA"
"-128.65","66.24","FORT GOOD HOPE A","2201406","2020-10-06 23:00","2020","10","06","23:00","2.1","","-0.8","","81","","","M","28","","11","","","M","100.97","","","","","","NA"
"-128.65","66.24","FORT GOOD HOPE A","2201406","2020-10-07 00:00","2020","10","07","00:00","2.0","","-0.7","","83","","","M","29","","10","","","M","100.99","","","","","","NA"
"-128.65","66.24","FORT GOOD HOPE A","2201406","2020-10-07 01:00","2020","10","07","01:00","1.8","","-0.5","","85","","","M","29","","7","","","M","101.00","","","","","","NA"
"-128.65","66.24","FORT GOOD HOPE A","2201406","2020-10-07 02:00","2020","10","07","02:00","1.6","","-0.7","","85","","","M","28","","4","","","M","100.99","","","","","","NA"
"-128.65","66.24","FORT GOOD HOPE A","2201406","2020-10-07 03:00","2020","10","07","03:00","1.4","","-0.8","","86","","","M","26","","2","","","M","100.98","","","","","","NA"
"-128.65","66.24","FORT GOOD HOPE A","2201406","2020-10-07 04:00","2020","10","07","04:00","1.4","","-0.5","","87","","","M","28","","8","","","M","100.94","","","","","","NA"
"-128.65","66.24","FORT GOOD HOPE A","2201406","2020-10-07 05:00","2020","10","07","05:00","-0.2","","-1.2","","93","","","M","15","","4","","","M","100.94","","","","-1","","NA"
"-128.65","66.24","FORT GOOD HOPE A","2201406","2020-10-07 06:00","2020","10","07","06:00","-0.3","","-1.1","","94","","","M","14","","2","","","M","100.89","","","","-1","","NA"
"-128.65","66.24","FORT GOOD HOPE A","2201406","2020-10-07 07:00","2020","10","07","07:00","0.1","","-0.7","","94","","","M","17","","4","","","M","100.85","","","","","","NA"
"-128.65","66.24","FORT GOOD HOPE A","2201406","2020-10-07 08:00","2020","10","07","08:00","-0.4","","-0.9","","97","","","M","15","","6","","","M","100.83","","","","-2","","NA"
"-128.65","66.24","FORT GOOD HOPE A","2201406","2020-10-07 09:00","2020","10","07","09:00","-0.5","","-1.0","","96","","","M","13","","5","","","M","100.80","","","","-2","","NA"
"-128.65","66.24","FORT GOOD HOPE A","2201406","2020-10-07 10:00","2020","10","07","10:00","0.2","","-0.6","","95","","","M","10","","4","","","M","100.76","","","","","","NA"
"-128.65","66.24","FORT GOOD HOPE A","2201406","2020-10-07 11:00","2020","10","07","11:00","1.5","","-0.1","","90","","","M","9","","5","","","M","100.73","","","","","","NA"
"-128.65","66.24","FORT GOOD HOPE A","2201406","2020-10-07 12:00","2020","10","07","12:00","2.7","","0.1","","83","","","M","10","","5","","","M","100.70","","","","","","NA"
"-128.65","66.24","FORT GOOD HOPE A","2201406","2020-10-07 13:00","2020","10","07","13:00","3.5","","-0.6","","74","","","M","10","","9","","","M","100.63","","","","","","NA"
"-128.65","66.24","FORT GOOD HOPE A","2201406","2020-10-07 14:00","2020","10","07","14:00","3.8","","-0.7","","72","","","M","8","","8","","","M","100.60","","","","","","NA"
"-128.65","66.24","FORT GOOD HOPE A","2201406","2020-10-07 15:00","2020","10","07","15:00","4.0","","0.0","","75","","","M","6","","8","","","M","100.55","","","","","","NA"
"-128.65","66.24","FORT GOOD HOPE A","2201406","2020-10-07 16:00","2020","10","07","16:00","4.2","","-0.2","","73","","","M","6","","8","","","M","100.49","","","","","","NA"
"-128.65","66.24","FORT GOOD HOPE A","2201406","2020-10-07 17:00","2020","10","07","17:00","4.4","","-0.2","","72","","","M","8","","5","","","M","100.43","","","","","","NA"
"-128.65","66.24","FORT GOOD HOPE A","2201406","2020-10-07 18:00","2020","10","07","18:00","2.7","","-1.3","","75","","","M","12","","6","","","M","100.38","","","","","","NA"
"-128.65","66.24","FORT GOOD HOPE A","2201406","2020-10-07 19:00","2020","10","07","19:00","1.9","","-1.5","","78","","","M","6","","6","","","M","100.34","","","","","","NA"
"-128.65","66.24","FORT GOOD HOPE A","2201406","2020-10-07 20:00","2020","10","07","20:00","0.9","","-1.9","","81","","","M","8","","7","","","M","100.31","","","","","","NA"
"-128.65","66.24","FORT GOOD HOPE A","2201406","2020-10-07 21:00","2020","10","07","21:00","0.3","","-1.3","","89","","","M","9","","11","","","M","100.25","","","","","","NA"
"-128.65","66.24","FORT GOOD HOPE A","2201406","2020-10-07 22:00","2020","10","07","22:00","-0.4","","-1.8","","90","","","M","9","","9","","","M","100.21","","","","-4","","NA"
"-128.65","66.24","FORT GOOD HOPE A","2201406","2020-10-07 23:00","2020","10","07","23:00","-1.0","","-1.7","","95","","","M","6","","4","","","M","100.20","","","","-2","","NA"
"-128.65","66.24","FORT GOOD HOPE A","2201406","2020-10-08 00:00","2020","10","08","00:00","-1.6","","-2.0","","97","","","M","10","","7","","","M","100.16","","","","-4","","NA"
"-128.65","66.24","FORT GOOD HOPE A","2201406","2020-10-08 01:00","2020","10","08","01:00","-0.7","","-1.1","","97","","","M","8","","3","","","M","100.14","","","","-2","","NA"
"-128.65","66.24","FORT GOOD HOPE A","2201406","2020-10-08 02:00","2020","10","08","02:00","-0.3","","-0.7","","97","","","M","8","","3","","","M","100.10","","","","-1","","NA"
"-128.65","66.24","FORT GOOD HOPE A","2201406","2020-10-08 03:00","2020","10","08","03:00","0.2","","-0.3","","97","","","M","8","","7","","","M","100.10","","","","","","NA"
"-128.65","66.24","FORT GOOD HOPE A","2201406","2020-10-08 04:00","2020","10","08","04:00","0.4","","0.0","","97","","","M","6","","4","","","M","100.08","","","","","","NA"
"-128.65","66.24","FORT GOOD HOPE A","2201406","2020-10-08 05:00","2020","10","08","05:00","0.5","","0.1","","97","","","M","7","","6","","","M","100.05","","","","","","NA"
"-128.65","66.24","FORT GOOD HOPE A","2201406","2020-10-08 06:00","2020","10","08","06:00","0.5","","0.2","","98","","","M","8","","9","","","M","100.01","","","","","","NA"
"-128.65","66.24","FORT GOOD HOPE A","2201406","2020-10-08 07:00","2020","10","08","07:00","0.3","","-0.2","","97","","","M","7","","7","","","M","99.99","","","","","","NA"
"-128.65","66.24","FORT GOOD HOPE A","2201406","2020-10-08 08:00","2020","10","08","08:00","-0.1","","-0.5","","97","","","M","6","","6","","","M","99.98","","","","-2","","NA"
"-128.65","66.24","FORT GOOD HOPE A","2201406","2020-10-08 09:00","2020","10","08","09:00","0.0","","-0.4","","97","","","M","6","","7","","","M","99.96","","","","-2","","NA"
"-128.65","66.24","FORT GOOD HOPE A","2201406","2020-10-08 10:00","2020","10","08","10:00","0.3","","-0.3","","96","","","M","7","","8","","","M","99.94","","","","","","NA"
"-128.65","66.24","FORT GOOD HOPE A","2201406","2020-10-08 11:00","2020","10","08","11:00","0.7","","0.0","","95","","","M","6","","7","","","M","99.93","","","","","","NA"
"-128.65","66.24","FORT GOOD HOPE A","2201406","2020-10-08 12:00","2020","10","08","12:00","1.3","","0.4","","94","","","M","6","","5","","","M","99.92","","","","","","NA"
"-128.65","66.24","FORT GOOD HOPE A","2201406","2020-10-08 13:00","2020","10","08","13:00","2.1","","0.4","","88","","","M","4","","5","","","M","99.90","","","","","","NA"
"-128.65","66.24","FORT GOOD HOPE A","2201406","2020-10-08 14:00","2020","10","08","14:00","3.6","","0.4","","80","","","M","8","","9","","","M","99.88","","","","","","NA"
"-128.65","66.24","FORT GOOD HOPE A","2201406","2020-10-08 15:00","2020","10","08","15:00","3.7","","0.0","","77","","","M","5","","10","","","M","99.85","","","","","","NA"
"-128.65","66.24","FORT GOOD HOPE A","2201406","2020-10-08 16:00","2020","10","08","16:00","3.7","","-0.2","","76","","","M","6","","11","","","M","99.82","","","","","","NA"
"-128.65","66.24","FORT GOOD HOPE A","2201406","2020-10-08 17:00","2020","10","08","17:00","3.5","","0.0","","78","","","M","9","","12","","","M","99.81","","","","","","NA"
"-128.65","66.24","FORT GOOD HOPE A","2201406","2020-10-08 18:00","2020","10","08","18:00","3.0","","-0.3","","79","","","M","8","","14","","","M","99.80","","","","","","NA"
"-128.65","66.24","FORT GOOD HOPE A","2201406","2020-10-08 19:00","2020","10","08","19:00","2.1","","-0.7","","81","","","M","8","","15","","","M","99.79","","","","","","NA"
"-128.65","66.24","FORT GOOD HOPE A","2201406","2020-10-08 20:00","2020","10","08","20:00","-0.3","","-1.7","","91","","","M","9","","8","","","M","99.79","","","","-3","","NA"
"-128.65","66.24","FORT GOOD HOPE A","2201406","2020-10-08 21:00","2020","10","08","21:00","-0.4","","-1.3","","94","","","M","8","","10","","","M","99.77","","","","-4","","NA"
"-128.65","66.24","FORT GOOD HOPE A","2201406","2020-10-08 22:00","2020","10","08","22:00","-0.9","","-1.4","","97","","","M","8","","11","","","M","99.75","","","","-5","","NA"
"-128.65","66.24","FORT GOOD HOPE A","2201406","2020-10-08 23:00","2020","10","08","23:00","-1.6","","-1.9","","98","","","M","8","","11","","","M","99.72","","","","-5","","NA"
"-128.65","66.24","FORT GOOD HOPE A","2201406","2020-10-09 00:00","2020","10","09","00:00","-1.9","","-2.0","","100","","","M","9","","11","","","M","99.70","","","","-6","","NA"
"-128.65","66.24","FORT GOOD HOPE A","2201406","2020-10-09 01:00","2020","10","09","01:00","-1.6","","-1.7","","99","","","M","9","","12","","","M","99.67","","","","-6","","NA"
"-128.65","66.24","FORT GOOD HOPE A","2201406","2020-10-09 02:00","2020","10","09","02:00","-1.9","","-2.1","","99","","","M","9","","12","","","M","99.67","","","","-6","","NA"
"-128.65","66.24","FORT GOOD HOPE A","2201406","2020-10-09 03:00","2020","10","09","03:00","-2.2","","-2.4","","99","","","M","9","","9","","","M","99.67","","","","-6","","NA"
"-128.65","66.24","FORT GOOD HOPE A","2201406","2020-10-09 04:00","2020","10","09","04:00","-1.7","","-1.9","","99","","","M","8","","13","","","M","99.63","","","","-6","","NA"
"-128.65","66.24","FORT GOOD HOPE A","2201406","2020-10-09 05:00","2020","10","09","05:00","-1.3","","-1.4","","99","","","M","8","","14","","","M","99.59","","","","-6","","NA"
"-128.65","66.24","FORT GOOD HOPE A","2201406","2020-10-09 06:00","2020","10","09","06:00","-1.0","","-1.0","","100","","","M","8","","14","","","M","99.58","","","","-5","","NA"
"-128.65","66.24","FORT GOOD HOPE A","2201406","2020-10-09 07:00","2020","10","09","07:00","-1.0","","-1.0","","100","","","M","8","","9","","","M","99.57","","","","-4","","NA"
"-128.65","66.24","FORT GOOD HOPE A","2201406","2020-10-09 08:00","2020","10","09","08:00","-0.6","","-0.8","","99","","","M","6","","8","","","M","99.55","","","","-3","","NA"
"-128.65","66.24","FORT GOOD HOPE A","2201406","2020-10-09 09:00","2020","10","09","09:00","-0.4","","-0.5","","100","","","M","5","","5","","","M","99.54","","","","-2","","NA"
"-128.65","66.24","FORT GOOD HOPE A","2201406","2020-10-09 10:00","2020","10","09","10:00","0.0","","-0.1","","99","","","M","7","","7","","","M","99.52","","","","-2","","NA"
"-128.65","66.24","FORT GOOD HOPE A","2201406","2020-10-09 11:00","2020","10","09","11:00","0.7","","0.4","","98","","","M","8","","8","","","M","99.49","","","","","","NA"
"-128.65","66.24","FORT GOOD HOPE A","2201406","2020-10-09 12:00","2020","10","09","12:00","1.4","","0.6","","94","","","M","7","","8","","","M","99.48","","","","","","NA"
"-128.65","66.24","FORT GOOD HOPE A","2201406","2020-10-09 13:00","2020","10","09","13:00","2.1","","0.7","","90","","","M","9","","10","","","M","99.45","","","","","","NA"
"-128.65","66.24","FORT GOOD HOPE A","2201406","2020-10-09 14:00","2020","10","09","14:00","2.8","","0.8","","86","","","M","8","","10","","","M","99.43","","","","","","NA"
"-128.65","66.24","FORT GOOD HOPE A","2201406","2020-10-09 15:00","2020","10","09","15:00","3.1","","0.2","","81","","","M","8","","10","","","M","99.40","","","","","","NA"
"-128.65","66.24","FORT GOOD HOPE A","2201406","2020-10-09 16:00","2020","10","09","16:00","3.2","","-0.1","","79","","","M","8","","10","","","M","99.36","","","","","","NA"
"-128.65","66.24","FORT GOOD HOPE A","2201406","2020-10-09 17:00","2020","10","09","17:00","3.1","","0.0","","80","","","M","8","","9","","","M","99.33","","","","","","NA"
"-128.65","66.24","FORT GOOD HOPE A","2201406","2020-10-09 18:00","2020","10","09","18:00","2.5","","0.0","","83","","","M","7","","7","","","M","99.27","","","","","","NA"
"-128.65","66.24","FORT GOOD HOPE A","2201406","2020-10-09 19:00","2020","10","09","19:00","1.9","","0.0","","88","","","M","7","","7","","","M","99.26","","","","","","NA"
"-128.65","66.24","FORT GOOD HOPE A","2201406","2020-10-09 20:00","2020","10","09","20:00","1.5","","0.4","","93","","","M","8","","8","","","M","99.24","","","","","","NA"
"-128.65","66.24","FORT GOOD HOPE A","2201406","2020-10-09 21:00","2020","10","09","21:00","1.3","","0.5","","95","","","M","8","","8","","","M","99.23","","","","","","NA"
"-128.65","66.24","FORT GOOD HOPE A","2201406","2020-10-09 22:00","2020","10","09","22:00","1.0","","0.2","","95","","","M","8","","11","","","M","99.21","","","","","","NA"
"-128.65","66.24","FORT GOOD HOPE A","2201406","2020-10-09 23:00","2020","10","09","23:00","0.6","","-0.1","","95","","","M","9","","10","","","M","99.20","","","","","","NA"
"-128.65","66.24","FORT GOOD HOPE A","2201406","2020-10-10 00:00","2020","10","10","00:00","0.3","","-0.4","","95","","","M","10","","9","","","M","99.18","","","","","","NA"
"-128.65","66.24","FORT GOOD HOPE A","2201406","2020-10-10 01:00","2020","10","10","01:00","0.3","","-0.3","","96","","","M","8","","10","","","M","99.16","","","","","","NA"
"-128.65","66.24","FORT GOOD HOPE A","2201406","2020-10-10 02:00","2020","10","10","02:00","0.4","","-0.3","","96","","","M","9","","9","","","M","99.12","","","","","","NA"
"-128.65","66.24","FORT GOOD HOPE A","2201406","2020-10-10 03:00","2020","10","10","03:00","0.1","","-0.4","","96","","","M","7","","6","","","M","99.09","","","","","","NA"
"-128.65","66.24","FORT GOOD HOPE A","2201406","2020-10-10 04:00","2020","10","10","04:00","-0.3","","-0.6","","98","","","M","8","","7","","","M","99.07","","","","-3","","NA"
"-128.65","66.24","FORT GOOD HOPE A","2201406","2020-10-10 05:00","2020","10","10","05:00","-0.4","","-0.7","","98","","","M","8","","9","","","M","99.05","","","","-4","","NA"
"-128.65","66.24","FORT GOOD HOPE A","2201406","2020-10-10 06:00","2020","10","10","06:00","-0.5","","-0.9","","98","","","M","3","","4","","","M","99.04","","","","-2","","NA"
"-128.65","66.24","FORT GOOD HOPE A","2201406","2020-10-10 07:00","2020","10","10","07:00","-0.7","","-1.0","","98","","","M","1","","3","","","M","99.01","","","","-2","","NA"
"-128.65","66.24","FORT GOOD HOPE A","2201406","2020-10-10 08:00","2020","10","10","08:00","-0.8","","-1.0","","98","","","M","6","","2","","","M","99.00","","","","-1","","NA"
"-128.65","66.24","FORT GOOD HOPE A","2201406","2020-10-10 09:00","2020","10","10","09:00","-0.6","","-0.9","","98","","","M","7","","4","","","M","98.98","","","","-2","","NA"
"-128.65","66.24","FORT GOOD HOPE A","2201406","2020-10-10 10:00","2020","10","10","10:00","-0.3","","-0.7","","98","","","M","3","","3","","","M","98.97","","","","-1","","NA"
"-128.65","66.24","FORT GOOD HOPE A","2201406","2020-10-10 11:00","2020","10","10","11:00","0.4","","-0.3","","95","","","M","10","","5","","","M","98.97","","","","","","NA"
"-128.65","66.24","FORT GOOD HOPE A","2201406","2020-10-10 12:00","2020","10","10","12:00","1.2","","-0.1","","91","","","M","7","","5","","","M","98.96","","","","","","NA"
"-128.65","66.24","FORT GOOD HOPE A","2201406","2020-10-10 13:00","2020","10","10","13:00","1.6","","0.0","","89","","","M","8","","5","","","M","98.96","","","","","","NA"
"-128.65","66.24","FORT GOOD HOPE A","2201406","2020-10-10 14:00","2020","10","10","14:00","1.9","","0.1","","88","","","M","10","","5","","","M","98.96","","","","","","NA"
"-128.65","66.24","FORT GOOD HOPE A","2201406","2020-10-10 15:00","2020","10","10","15:00","2.1","","0.0","","86","","","M","3","","3","","","M","98.96","","","","","","NA"
"-128.65","66.24","FORT GOOD HOPE A","2201406","2020-10-10 16:00","2020","10","10","16:00","2.1","","0.0","","86","","","M","3","","3","","","M","98.97","","","","","","NA"
"-128.65","66.24","FORT GOOD HOPE A","2201406","2020-10-10 17:00","2020","10","10","17:00","2.0","","0.0","","87","","","M","5","","6","","","M","98.98","","","","","","NA"
"-128.65","66.24","FORT GOOD HOPE A","2201406","2020-10-10 18:00","2020","10","10","18:00","1.6","","-0.2","","88","","","M","7","","3","","","M","99.00","","","","","","NA"
"-128.65","66.24","FORT GOOD HOPE A","2201406","2020-10-10 19:00","2020","10","10","19:00","1.1","","-0.3","","90","","","M","5","","4","","","M","99.01","","","","","","NA"
"-128.65","66.24","FORT GOOD HOPE A","2201406","2020-10-10 20:00","2020","10","10","20:00","0.7","","-0.2","","94","","","M","4","","4","","","M","99.03","","","","","","NA"
"-128.65","66.24","FORT GOOD HOPE A","2201406","2020-10-10 21:00","2020","10","10","21:00","-0.1","","-1.0","","94","","","M","6","","3","","","M","99.03","","","","-1","","NA"
"-128.65","66.24","FORT GOOD HOPE A","2201406","2020-10-10 22:00","2020","10","10","22:00","0.1","","-0.9","","93","","","M","6","","4","","","M","99.07","","","","","","NA"
"-128.65","66.24","FORT GOOD HOPE A","2201406","2020-10-10 23:00","2020","10","10","23:00","0.8","","-0.4","","91","","","M","3","","5","","","M","99.06","","","","","","NA"
"-128.65","66.24","FORT GOOD HOPE A","2201406","2020-10-11 00:00","2020","10","11","00:00","0.8","","-0.5","","91","","","M","4","","4","","","M","99.10","","","","","","NA"
"-128.65","66.24","FORT GOOD HOPE A","2201406","2020-10-11 01:00","2020","10","11","01:00","0.4","","-0.1","","97","","","M","7","","8","","","M","99.10","","","","","","NA"
"-128.65","66.24","FORT GOOD HOPE A","2201406","2020-10-11 02:00","2020","10","11","02:00","0.1","","0.0","","99","","","M","4","","4","","","M","99.14","","","","","","NA"
"-128.65","66.24","FORT GOOD HOPE A","2201406","2020-10-11 03:00","2020","10","11","03:00","0.0","","-0.1","","99","","","M","36","","4","","","M","99.17","","","","-1","","NA"
"-128.65","66.24","FORT GOOD HOPE A","2201406","2020-10-11 04:00","2020","10","11","04:00","-0.2","","-0.2","","100","","","M","2","","5","","","M","99.20","","","","-2","","NA"
"-128.65","66.24","FORT GOOD HOPE A","2201406","2020-10-11 05:00","2020","10","11","05:00","-0.6","","-0.7","","99","","","M","36","","5","","","M","99.22","","","","-2","","NA"
"-128.65","66.24","FORT GOOD HOPE A","2201406","2020-10-11 06:00","2020","10","11","06:00","-1.0","","-1.3","","98","","","M","2","","8","","","M","99.26","","","","-4","","NA"
"-128.65","66.24","FORT GOOD HOPE A","2201406","2020-10-11 07:00","2020","10","11","07:00","-1.5","","-1.8","","98","","","M","2","","8","","","M","99.30","","","","-5","","NA"
"-128.65","66.24","FORT GOOD HOPE A","2201406","2020-10-11 08:00","2020","10","11","08:00","-1.8","","-2.1","","98","","","M","35","","11","","","M","99.35","","","","-6","","NA"
"-128.65","66.24","FORT GOOD HOPE A","2201406","2020-10-11 09:00","2020","10","11","09:00","-2.0","","-2.3","","98","","","M","33","","14","","","M","99.40","","","","-7","","NA"
"-128.65","66.24","FORT GOOD HOPE A","2201406","2020-10-11 10:00","2020","10","11","10:00","-2.4","","-2.7","","98","","","M","32","","20","","","M","99.45","","","","-8","","NA"
"-128.65","66.24","FORT GOOD HOPE A","2201406","2020-10-11 11:00","2020","10","11","11:00","-2.4","","-2.9","","96","","","M","32","","16","","","M","99.49","","","","-8","","NA"
"-128.65","66.24","FORT GOOD HOPE A","2201406","2020-10-11 12:00","2020","10","11","12:00","-2.5","","-2.9","","97","","","M","32","","17","","","M","99.56","","","","-8","","NA"
"-128.65","66.24","FORT GOOD HOPE A","2201406","2020-10-11 13:00","2020","10","11","13:00","-2.3","","-3.0","","95","","","M","32","","16","","","M","99.63","","","","-7","","NA"
"-128.65","66.24","FORT GOOD HOPE A","2201406","2020-10-11 14:00","2020","10","11","14:00","-2.2","","-2.8","","96","","","M","31","","11","","","M","99.69","","","","-6","","NA"
"-128.65","66.24","FORT GOOD HOPE A","2201406","2020-10-11 15:00","2020","10","11","15:00","-2.3","","-3.5","","92","","","M","30","","17","","","M","99.74","","","","-8","","NA"
"-128.65","66.24","FORT GOOD HOPE A","2201406","2020-10-11 16:00","2020","10","11","16:00","-2.5","","-3.5","","92","","","M","30","","17","","","M","99.79","","","","-8","","NA"
"-128.65","66.24","FORT GOOD HOPE A","2201406","2020-10-11 17:00","2020","10","11","17:00","-2.7","","-3.8","","92","","","M","29","","14","","","M","99.84","","","","-8","","NA"
"-128.65","66.24","FORT GOOD HOPE A","2201406","2020-10-11 18:00","2020","10","11","18:00","-2.9","","-3.7","","94","","","M","29","","12","","","M","99.92","","","","-7","","NA"
"-128.65","66.24","FORT GOOD HOPE A","2201406","2020-10-11 19:00","2020","10","11","19:00","-3.0","","-4.3","","91","","","M","29","","10","","","M","99.98","","","","-7","","NA"
"-128.65","66.24","FORT GOOD HOPE A","2201406","2020-10-11 20:00","2020","10","11","20:00","-3.1","","-4.9","","87","","","M","30","","15","","","M","100.00","","","","-8","","NA"
"-128.65","66.24","FORT GOOD HOPE A","2201406","2020-10-11 21:00","2020","10","11","21:00","-3.4","","-5.2","","87","","","M","29","","10","","","M","100.06","","","","-7","","NA"
"-128.65","66.24","FORT GOOD HOPE A","2201406","2020-10-11 22:00","2020","10","11","22:00","-4.1","","-5.6","","89","","","M","29","","12","","","M","100.11","","","","-9","","NA"
"-128.65","66.24","FORT GOOD HOPE A","2201406","2020-10-11 23:00","2020","10","11","23:00","-4.7","","-6.1","","90","","","M","28","","11","","","M","100.17","","","","-9","","NA"
"-128.65","66.24","FORT GOOD HOPE A","2201406","2020-10-12 00:00","2020","10","12","00:00","-5.9","","-7.1","","91","","","M","26","","14","","","M","100.22","","","","-11","","NA"
"-128.65","66.24","FORT GOOD HOPE A","2201406","2020-10-12 01:00","2020","10","12","01:00","-5.7","","-6.8","","91","","","M","25","","11","","","M","100.28","","","","-10","","NA"
"-128.65","66.24","FORT GOOD HOPE A","2201406","2020-10-12 02:00","2020","10","12","02:00","-5.5","","-6.6","","91","","","M","24","","11","","","M","100.32","","","","-10","","NA"
"-128.65","66.24","FORT GOOD HOPE A","2201406","2020-10-12 03:00","2020","10","12","03:00","-4.7","","-6.1","","90","","","M","26","","19","","","M","100.37","","","","-11","","NA"
"-128.65","66.24","FORT GOOD HOPE A","2201406","2020-10-12 04:00","2020","10","12","04:00","-4.8","","-6.0","","91","","","M","26","","21","","","M","100.41","","","","-11","","NA"
"-128.65","66.24","FORT GOOD HOPE A","2201406","2020-10-12 05:00","2020","10","12","05:00","-4.7","","-6.1","","90","","","M","27","","20","","","M","100.45","","","","-11","","NA"
"-128.65","66.24","FORT GOOD HOPE A","2201406","2020-10-12 06:00","2020","10","12","06:00","-4.4","","-5.9","","90","","","M","29","","17","","","M","100.53","","","","-10","","NA"
"-128.65","66.24","FORT GOOD HOPE A","2201406","2020-10-12 07:00","2020","10","12","07:00","-5.2","","-6.5","","91","","","M","28","","12","","","M","100.60","","","","-10","","NA"
"-128.65","66.24","FORT GOOD HOPE A","2201406","2020-10-12 08:00","2020","10","12","08:00","-6.4","","-7.6","","91","","","M","30","","10","","","M","100.68","","","","-11","","NA"
"-128.65","66.24","FORT GOOD HOPE A","2201406","2020-10-12 09:00","2020","10","12","09:00","-7.1","","-8.6","","89","","","M","29","","8","","","M","100.74","","","","-11","","NA"
"-128.65","66.24","FORT GOOD HOPE A","2201406","2020-10-12 10:00","2020","10","12","10:00","-6.9","","-8.5","","89","","","M","29","","7","","","M","100.79","","","","-10","","NA"
"-128.65","66.24","FORT GOOD HOPE A","2201406","2020-10-12 11:00","2020","10","12","11:00","-5.9","","-7.6","","87","","","M","21","","4","","","M","100.83","","","","-8","","NA"
"-128.65","66.24","FORT GOOD HOPE A","2201406","2020-10-12 12:00","2020","10","12","12:00","-4.8","","-8.2","","77","","","M","25","","12","","","M","100.85","","","","-10","","NA"
"-128.65","66.24","FORT GOOD HOPE A","2201406","2020-10-12 13:00","2020","10","12","13:00","-4.7","","-6.8","","85","","","M","23","","8","","","M","100.86","","","","-8","","NA"
"-128.65","66.24","FORT GOOD HOPE A","2201406","2020-10-12 14:00","2020","10","12","14:00","-4.3","","-7.0","","82","","","M","25","","10","","","M","100.88","","","","-8","","NA"
"-128.65","66.24","FORT GOOD HOPE A","2201406","2020-10-12 15:00","2020","10","12","15:00","-3.9","","-8.7","","70","","","M","27","","15","","","M","100.90","","","","-9","","NA"
"-128.65","66.24","FORT GOOD HOPE A","2201406","2020-10-12 16:00","2020","10","12","16:00","-4.0","","-8.4","","72","","","M","27","","10","","","M","100.90","","","","-8","","NA"
"-128.65","66.24","FORT GOOD HOPE A","2201406","2020-10-12 17:00","2020","10","12","17:00","-4.6","","-8.0","","77","","","M","27","","15","","","M","100.93","","","","-10","","NA"
"-128.65","66.24","FORT GOOD HOPE A","2201406","2020-10-12 18:00","2020","10","12","18:00","-4.8","","-8.3","","76","","","M","27","","12","","","M","100.93","","","","-10","","NA"
"-128.65","66.24","FORT GOOD HOPE A","2201406","2020-10-12 19:00","2020","10","12","19:00","-4.4","","-9.1","","70","","","M","29","","11","","","M","100.98","","","","-9","","NA"
"-128.65","66.24","FORT GOOD HOPE A","2201406","2020-10-12 20:00","2020","10","12","20:00","-4.7","","-9.7","","69","","","M","30","","11","","","M","100.99","","","","-9","","NA"
"-128.65","66.24","FORT GOOD HOPE A","2201406","2020-10-12 21:00","2020","10","12","21:00","-5.1","","-9.6","","71","","","M","30","","11","","","M","101.00","","","","-10","","NA"
"-128.65","66.24","FORT GOOD HOPE A","2201406","2020-10-12 22:00","2020","10","12","22:00","-5.3","","-9.0","","75","","","M","30","","10","","","M","101.01","","","","-10","","NA"
"-128.65","66.24","FORT GOOD HOPE A","2201406","2020-10-12 23:00","2020","10","12","23:00","-5.4","","-8.3","","80","","","M","32","","9","","","M","101.01","","","","-9","","NA"
"-128.65","66.24","FORT GOOD HOPE A","2201406","2020-10-13 00:00","2020","10","13","00:00","-5.6","","-9.1","","77","","","M","29","","11","","","M","101.02","","","","-10","","NA"
"-128.65","66.24","FORT GOOD HOPE A","2201406","2020-10-13 01:00","2020","10","13","01:00","-5.6","","-11.1","","65","","","M","28","","17","","","M","101.03","","","","-12","","NA"
"-128.65","66.24","FORT GOOD HOPE A","2201406","2020-10-13 02:00","2020","10","13","02:00","-5.8","","-11.5","","64","","","M","27","","10","","","M","101.02","","","","-10","","NA"
"-128.65","66.24","FORT GOOD HOPE A","2201406","2020-10-13 03:00","2020","10","13","03:00","-5.8","","-10.8","","68","","","M","29","","8","","","M","101.03","","","","-10","","NA"
"-128.65","66.24","FORT GOOD HOPE A","2201406","2020-10-13 04:00","2020","10","13","04:00","-6.0","","-9.5","","76","","","M","30","","8","","","M","101.04","","","","-10","","NA"
"-128.65","66.24","FORT GOOD HOPE A","2201406","2020-10-13 05:00","2020","10","13","05:00","-6.9","","-9.5","","82","","","M","14","","7","","","M","101.03","","","","-10","","NA"
"-128.65","66.24","FORT GOOD HOPE A","2201406","2020-10-13 06:00","2020","10","13","06:00","-7.0","","-9.3","","84","","","M","13","","8","","","M","101.03","","","","-11","","NA"
"-128.65","66.24","FORT GOOD HOPE A","2201406","2020-10-13 07:00","2020","10","13","07:00","-6.9","","-9.8","","80","","","M","22","","7","","","M","101.01","","","","-10","","NA"
"-128.65","66.24","FORT GOOD HOPE A","2201406","2020-10-13 08:00","2020","10","13","08:00","-6.0","","-11.4","","66","","","M","30","","8","","","M","100.98","","","","-10","","NA"
"-128.65","66.24","FORT GOOD HOPE A","2201406","2020-10-13 09:00","2020","10","13","09:00","-6.1","","-10.5","","71","","","M","33","","4","","","M","100.95","","","","-8","","NA"
"-128.65","66.24","FORT GOOD HOPE A","2201406","2020-10-13 10:00","2020","10","13","10:00","-6.2","","-11.1","","68","","","M","30","","5","","","M","100.95","","","","-9","","NA"
"-128.65","66.24","FORT GOOD HOPE A","2201406","2020-10-13 11:00","2020","10","13","11:00","-6.0","","-10.5","","70","","","M","26","","8","","","M","100.94","","","","-10","","NA"
"-128.65","66.24","FORT GOOD HOPE A","2201406","2020-10-13 12:00","2020","10","13","12:00","-5.6","","-11.0","","66","","","M","29","","10","","","M","100.94","","","","-10","","NA"
"-128.65","66.24","FORT GOOD HOPE A","2201406","2020-10-13 13:00","2020","10","13","13:00","-6.0","","-10.1","","73","","","M","10","","5","","","M","100.97","","","","-8","","NA"
"-128.65","66.24","FORT GOOD HOPE A","2201406","2020-10-13 14:00","2020","10","13","14:00","-5.7","","-11.4","","64","","","M","18","","7","","","M","100.97","","","","-9","","NA"
"-128.65","66.24","FORT GOOD HOPE A","2201406","2020-10-13 15:00","2020","10","13","15:00","-5.5","","-12.1","","60","","","M","18","","7","","","M","100.98","","","","-9","","NA"
"-128.65","66.24","FORT GOOD HOPE A","2201406","2020-10-13 16:00","2020","10","13","16:00","-5.5","","-11.7","","62","","","M","19","","7","","","M","101.00","","","","-9","","NA"
"-128.65","66.24","FORT GOOD HOPE A","2201406","2020-10-13 17:00","2020","10","13","17:00","-5.7","","-11.3","","65","","","M","21","","5","","","M","101.02","","","","-8","","NA"
"-128.65","66.24","FORT GOOD HOPE A","2201406","2020-10-13 18:00","2020","10","13","18:00","-6.1","","-10.5","","71","","","M","23","","5","","","M","101.05","","","","-9","","NA"
"-128.65","66.24","FORT GOOD HOPE A","2201406","2020-10-13 19:00","2020","10","13","19:00","-6.5","","-10.6","","73","","","M","24","","7","","","M","101.07","","","","-10","","NA"
"-128.65","66.24","FORT GOOD HOPE A","2201406","2020-10-13 20:00","2020","10","13","20:00","-6.2","","-9.4","","78","","","M","23","","6","","","M","101.09","","","","-9","","NA"
"-128.65","66.24","FORT GOOD HOPE A","2201406","2020-10-13 21:00","2020","10","13","21:00","-6.2","","-9.0","","81","","","M","27","","14","","","M","101.10","","","","-12","","NA"
"-128.65","66.24","FORT GOOD HOPE A","2201406","2020-10-13 22:00","2020","10","13","22:00","-6.5","","-8.1","","89","","","M","26","","15","","","M","101.13","","","","-12","","NA"
"-128.65","66.24","FORT GOOD HOPE A","2201406","2020-10-13 23:00","2020","10","13","23:00","-6.5","","-7.9","","90","","","M","28","","8","","","M","101.17","","","","-10","","NA"
"-128.65","66.24","FORT GOOD HOPE A","2201406","2020-10-14 00:00","2020","10","14","00:00","-6.4","","-7.8","","90","","","M","23","","3","","","M","101.21","","","","-8","","NA"
"-128.65","66.24","FORT GOOD HOPE A","2201406","2020-10-14 01:00","2020","10","14","01:00","-6.0","","-9.9","","75","","","M","31","","7","","","M","101.26","","","","-9","","NA"
"-128.65","66.24","FORT GOOD HOPE A","2201406","2020-10-14 02:00","2020","10","14","02:00","-6.0","","-9.3","","78","","","M","29","","8","","","M","101.32","","","","-10","","NA"
"-128.65","66.24","FORT GOOD HOPE A","2201406","2020-10-14 03:00","2020","10","14","03:00","-6.2","","-10.1","","74","","","M","29","","9","","","M","101.37","","","","-10","","NA"
"-128.65","66.24","FORT GOOD HOPE A","2201406","2020-10-14 04:00","2020","10","14","04:00","-5.8","","-11.3","","65","","","M","30","","7","","","M","101.42","","","","-9","","NA"
"-128.65","66.24","FORT GOOD HOPE A","2201406","2020-10-14 05:00","2020","10","14","05:00","-5.9","","-12.0","","62","","","M","29","","12","","","M","101.45","","","","-11","","NA"
"-128.65","66.24","FORT GOOD HOPE A","2201406","2020-10-14 06:00","2020","10","14","06:00","-5.8","","-12.3","","60","","","M","30","","12","","","M","101.48","","","","-11","","NA"
"-128.65","66.24","FORT GOOD HOPE A","2201406","2020-10-14 07:00","2020","10","14","07:00","-6.2","","-12.0","","64","","","M","30","","12","","","M","101.53","","","","-11","","NA"
"-128.65","66.24","FORT GOOD HOPE A","2201406","2020-10-14 08:00","2020","10","14","08:00","-5.9","","-11.6","","64","","","M","29","","12","","","M","101.55","","","","-11","","NA"
"-128.65","66.24","FORT GOOD HOPE A","2201406","2020-10-14 09:00","2020","10","14","09:00","-6.0","","-10.7","","70","","","M","28","","13","","","M","101.58","","","","-11","","NA"
"-128.65","66.24","FORT GOOD HOPE A","2201406","2020-10-14 10:00","2020","10","14","10:00","-6.2","","-11.4","","67","","","M","29","","12","","","M","101.63","","","","-11","","NA"
"-128.65","66.24","FORT GOOD HOPE A","2201406","2020-10-14 11:00","2020","10","14","11:00","-6.0","","-12.1","","62","","","M","27","","16","","","M","101.64","","","","-12","","NA"
"-128.65","66.24","FORT GOOD HOPE A","2201406","2020-10-14 12:00","2020","10","14","12:00","-5.9","","-10.5","","70","","","M","29","","12","","","M","101.71","","","","-11","","NA"
"-128.65","66.24","FORT GOOD HOPE A","2201406","2020-10-14 13:00","2020","10","14","13:00","-5.8","","-11.4","","65","","","M","29","","20","","","M","101.76","","","","-13","","NA"
"-128.65","66.24","FORT GOOD HOPE A","2201406","2020-10-14 14:00","2020","10","14","14:00","-5.7","","-11.2","","65","","","M","29","","18","","","M","101.81","","","","-12","","NA"
"-128.65","66.24","FORT GOOD HOPE A","2201406","2020-10-14 15:00","2020","10","14","15:00","-5.5","","-11.6","","63","","","M","28","","19","","","M","101.84","","","","-12","","NA"
"-128.65","66.24","FORT GOOD HOPE A","2201406","2020-10-14 16:00","2020","10","14","16:00","-5.6","","-11.8","","62","","","M","28","","16","","","M","101.88","","","","-12","","NA"
"-128.65","66.24","FORT GOOD HOPE A","2201406","2020-10-14 17:00","2020","10","14","17:00","-5.9","","-11.8","","63","","","M","26","","17","","","M","101.92","","","","-12","","NA"
"-128.65","66.24","FORT GOOD HOPE A","2201406","2020-10-14 18:00","2020","10","14","18:00","-5.9","","-11.6","","64","","","M","27","","21","","","M","101.94","","","","-13","","NA"
"-128.65","66.24","FORT GOOD HOPE A","2201406","2020-10-14 19:00","2020","10","14","19:00","-6.1","","-10.7","","70","","","M","27","","17","","","M","101.96","","","","-12","","NA"
"-128.65","66.24","FORT GOOD HOPE A","2201406","2020-10-14 20:00","2020","10","14","20:00","-6.2","","-10.0","","75","","","M","27","","13","","","M","102.01","","","","-12","","NA"
"-128.65","66.24","FORT GOOD HOPE A","2201406","2020-10-14 21:00","2020","10","14","21:00","-6.3","","-10.0","","75","","","M","26","","17","","","M","102.02","","","","-13","","NA"
"-128.65","66.24","FORT GOOD HOPE A","2201406","2020-10-14 22:00","2020","10","14","22:00","-6.5","","-9.9","","77","","","M","27","","20","","","M","102.01","","","","-13","","NA"
"-128.65","66.24","FORT GOOD HOPE A","2201406","2020-10-14 23:00","2020","10","14","23:00","-7.1","","-10.1","","79","","","M","26","","17","","","M","102.02","","","","-14","","NA"
"-128.65","66.24","FORT GOOD HOPE A","2201406","2020-10-15 00:00","2020","10","15","00:00","-7.1","","-10.3","","78","","","M","27","","17","","","M","102.10","","","","-14","","NA"
"-128.65","66.24","FORT GOOD HOPE A","2201406","2020-10-15 01:00","2020","10","15","01:00","-7.5","","-10.5","","79","","","M","28","","14","","","M","102.15","","","","-13","","NA"
"-128.65","66.24","FORT GOOD HOPE A","2201406","2020-10-15 02:00","2020","10","15","02:00","-7.8","","-10.8","","79","","","M","27","","13","","","M","102.17","","","","-14","","NA"
"-128.65","66.24","FORT GOOD HOPE A","2201406","2020-10-15 03:00","2020","10","15","03:00","-8.0","","-11.1","","78","","","M","26","","8","","","M","102.17","","","","-12","","NA"
"-128.65","66.24","FORT GOOD HOPE A","2201406","2020-10-15 04:00","2020","10","15","04:00","-7.7","","-11.0","","78","","","M","26","","14","","","M","102.17","","","","-14","","NA"
"-128.65","66.24","FORT GOOD HOPE A","2201406","2020-10-15 05:00","2020","10","15","05:00","-8.0","","-11.3","","77","","","M","25","","13","","","M","102.15","","","","-14","","NA"
"-128.65","66.24","FORT GOOD HOPE A","2201406","2020-10-15 06:00","2020","10","15","06:00","-7.8","","-11.3","","76","","","M","26","","9","","","M","102.15","","","","-12","","NA"
"-128.65","66.24","FORT GOOD HOPE A","2201406","2020-10-15 07:00","2020","10","15","07:00","-7.8","","-11.4","","76","","","M","21","","7","","","M","102.15","","","","-11","","NA"
"-128.65","66.24","FORT GOOD HOPE A","2201406","2020-10-15 08:00","2020","10","15","08:00","-8.7","","-11.3","","81","","","M","23","","7","","","M","102.14","","","","-13","","NA"
"-128.65","66.24","FORT GOOD HOPE A","2201406","2020-10-15 09:00","2020","10","15","09:00","-9.5","","-12.0","","82","","","M","22","","7","","","M","102.13","","","","-13","","NA"
"-128.65","66.24","FORT GOOD HOPE A","2201406","2020-10-15 10:00","2020","10","15","10:00","-9.0","","-11.8","","80","","","M","20","","5","","","M","102.13","","","","-12","","NA"
"-128.65","66.24","FORT GOOD HOPE A","2201406","2020-10-15 11:00","2020","10","15","11:00","-8.8","","-11.8","","79","","","M","21","","8","","","M","102.11","","","","-13","","NA"
"-128.65","66.24","FORT GOOD HOPE A","2201406","2020-10-15 12:00","2020","10","15","12:00","-8.1","","-11.3","","78","","","M","27","","9","","","M","102.11","","","","-13","","NA"
"-128.65","66.24","FORT GOOD HOPE A","2201406","2020-10-15 13:00","2020","10","15","13:00","-6.8","","-11.3","","70","","","M","24","","9","","","M","102.10","","","","-11","","NA"
"-128.65","66.24","FORT GOOD HOPE A","2201406","2020-10-15 14:00","2020","10","15","14:00","-6.2","","-10.6","","71","","","M","25","","13","","","M","102.07","","","","-12","","NA"
"-128.65","66.24","FORT GOOD HOPE A","2201406","2020-10-15 15:00","2020","10","15","15:00","-5.5","","-9.8","","72","","","M","25","","11","","","M","102.03","","","","-10","","NA"
"-128.65","66.24","FORT GOOD HOPE A","2201406","2020-10-15 16:00","2020","10","15","16:00","-4.7","","-11.5","","59","","","M","32","","8","","","M","101.99","","","","-8","","NA"
"-128.65","66.24","FORT GOOD HOPE A","2201406","2020-10-15 17:00","2020","10","15","17:00","-4.9","","-10.2","","67","","","M","1","","3","","","M","101.97","","","","-6","","NA"
"-128.65","66.24","FORT GOOD HOPE A","2201406","2020-10-15 18:00","2020","10","15","18:00","-5.1","","-11.2","","63","","","M","33","","10","","","M","101.93","","","","-9","","NA"
"-128.65","66.24","FORT GOOD HOPE A","2201406","2020-10-15 19:00","2020","10","15","19:00","-5.3","","-11.2","","64","","","M","31","","9","","","M","101.91","","","","-9","","NA"
"-128.65","66.24","FORT GOOD HOPE A","2201406","2020-10-15 20:00","2020","10","15","20:00","-5.6","","-10.8","","67","","","M","31","","9","","","M","101.88","","","","-10","","NA"
"-128.65","66.24","FORT GOOD HOPE A","2201406","2020-10-15 21:00","2020","10","15","21:00","-5.8","","-10.6","","69","","","M","31","","10","","","M","101.85","","","","-10","","NA"
"-128.65","66.24","FORT GOOD HOPE A","2201406","2020-10-15 22:00","2020","10","15","22:00","-5.8","","-10.6","","69","","","M","29","","11","","","M","101.85","","","","-11","","NA"
"-128.65","66.24","FORT GOOD HOPE A","2201406","2020-10-15 23:00","2020","10","15","23:00","-6.0","","-10.6","","71","","","M","30","","9","","","M","101.86","","","","-10","","NA"
"-128.65","66.24","FORT GOOD HOPE A","2201406","2020-10-16 00:00","2020","10","16","00:00","-6.2","","-11.3","","67","","","M","30","","12","","","M","101.86","","","","-11","","NA"
"-128.65","66.24","FORT GOOD HOPE A","2201406","2020-10-16 01:00","2020","10","16","01:00","-6.4","","-10.7","","72","","","M","30","","10","","","M","101.86","","","","-11","","NA"
"-128.65","66.24","FORT GOOD HOPE A","2201406","2020-10-16 02:00","2020","10","16","02:00","-6.5","","-10.7","","72","","","M","29","","11","","","M","101.88","","","","-11","","NA"
"-128.65","66.24","FORT GOOD HOPE A","2201406","2020-10-16 03:00","2020","10","16","03:00","-6.8","","-9.8","","79","","","M","29","","16","","","M","101.91","","","","-13","","NA"
"-128.65","66.24","FORT GOOD HOPE A","2201406","2020-10-16 04:00","2020","10","16","04:00","-7.0","","-9.7","","81","","","M","31","","12","","","M","101.94","","","","-12","","NA"
"-128.65","66.24","FORT GOOD HOPE A","2201406","2020-10-16 05:00","2020","10","16","05:00","-7.2","","-10.1","","80","","","M","30","","14","","","M","101.99","","","","-13","","NA"
"-128.65","66.24","FORT GOOD HOPE A","2201406","2020-10-16 06:00","2020","10","16","06:00","-7.7","","-10.9","","78","","","M","33","","15","","","M","102.05","","","","-14","","NA"
"-128.65","66.24","FORT GOOD HOPE A","2201406","2020-10-16 07:00","2020","10","16","07:00","-8.0","","-10.9","","80","","","M","30","","16","","","M","102.11","","","","-15","","NA"
"-128.65","66.24","FORT GOOD HOPE A","2201406","2020-10-16 08:00","2020","10","16","08:00","-8.2","","-12.3","","72","","","M","30","","18","","","M","102.18","","","","-15","","NA"
"-128.65","66.24","FORT GOOD HOPE A","2201406","2020-10-16 09:00","2020","10","16","09:00","-8.0","","-12.1","","73","","","M","28","","18","","","M","102.22","","","","-15","","NA"
"-128.65","66.24","FORT GOOD HOPE A","2201406","2020-10-16 10:00","2020","10","16","10:00","-8.1","","-12.2","","72","","","M","27","","20","","","M","102.25","","","","-15","","NA"
"-128.65","66.24","FORT GOOD HOPE A","2201406","2020-10-16 11:00","2020","10","16","11:00","-7.8","","-11.0","","78","","","M","27","","27","","","M","102.28","","","","-16","","NA"
"-128.65","66.24","FORT GOOD HOPE A","2201406","2020-10-16 12:00","2020","10","16","12:00","-7.6","","-10.0","","83","","","M","27","","28","","","M","102.31","","","","-16","","NA"
"-128.65","66.24","FORT GOOD HOPE A","2201406","2020-10-16 13:00","2020","10","16","13:00","-7.2","","-9.2","","85","","","M","26","","25","","","M","102.36","","","","-15","","NA"
"-128.65","66.24","FORT GOOD HOPE A","2201406","2020-10-16 14:00","2020","10","16","14:00","-6.5","","-8.7","","84","","","M","28","","27","","","M","102.35","","","","-15","","NA"
"-128.65","66.24","FORT GOOD HOPE A","2201406","2020-10-16 15:00","2020","10","16","15:00","-6.0","","-8.7","","82","","","M","27","","25","","","M","102.39","","","","-14","","NA"
"-128.65","66.24","FORT GOOD HOPE A","2201406","2020-10-16 16:00","2020","10","16","16:00","-5.7","","-8.8","","79","","","M","27","","27","","","M","102.42","","","","-14","","NA"
"-128.65","66.24","FORT GOOD HOPE A","2201406","2020-10-16 17:00","2020","10","16","17:00","-5.7","","-9.2","","77","","","M","27","","22","","","M","102.47","","","","-13","","NA"
"-128.65","66.24","FORT GOOD HOPE A","2201406","2020-10-16 18:00","2020","10","16","18:00","-5.8","","-9.4","","76","","","M","27","","27","","","M","102.49","","","","-14","","NA"
"-128.65","66.24","FORT GOOD HOPE A","2201406","2020-10-16 19:00","2020","10","16","19:00","-6.1","","-8.9","","80","","","M","27","","28","","","M","102.52","","","","-14","","NA"
"-128.65","66.24","FORT GOOD HOPE A","2201406","2020-10-16 20:00","2020","10","16","20:00","-6.1","","-9.4","","77","","","M","27","","24","","","M","102.53","","","","-14","","NA"
"-128.65","66.24","FORT GOOD HOPE A","2201406","2020-10-16 21:00","2020","10","16","21:00","-6.1","","-9.8","","75","","","M","28","","23","","","M","102.55","","","","-13","","NA"
"-128.65","66.24","FORT GOOD HOPE A","2201406","2020-10-16 22:00","2020","10","16","22:00","-6.2","","-10.6","","72","","","M","27","","23","","","M","102.56","","","","-14","","NA"
"-128.65","66.24","FORT GOOD HOPE A","2201406","2020-10-16 23:00","2020","10","16","23:00","-6.5","","-10.9","","71","","","M","27","","25","","","M","102.54","","","","-14","","NA"
"-128.65","66.24","FORT GOOD HOPE A","2201406","2020-10-17 00:00","2020","10","17","00:00","-8.1","","-11.7","","75","","","M","26","","22","","","M","102.56","","","","-16","","NA"
"-128.65","66.24","FORT GOOD HOPE A","2201406","2020-10-17 01:00","2020","10","17","01:00","-9.0","","-12.1","","79","","","M","25","","21","","","M","102.56","","","","-17","","NA"
"-128.65","66.24","FORT GOOD HOPE A","2201406","2020-10-17 02:00","2020","10","17","02:00","-9.9","","-12.9","","79","","","M","25","","13","","","M","102.54","","","","-16","","NA"
"-128.65","66.24","FORT GOOD HOPE A","2201406","2020-10-17 03:00","2020","10","17","03:00","-10.5","","-13.4","","79","","","M","24","","12","","","M","102.51","","","","-17","","NA"
"-128.65","66.24","FORT GOOD HOPE A","2201406","2020-10-17 04:00","2020","10","17","04:00","-10.4","","-14.0","","75","","","M","25","","14","","","M","102.47","","","","-17","","NA"
"-128.65","66.24","FORT GOOD HOPE A","2201406","2020-10-17 05:00","2020","10","17","05:00","-12.7","","-14.7","","85","","","M","18","","4","","","M","102.42","","","","-15","","NA"
"-128.65","66.24","FORT GOOD HOPE A","2201406","2020-10-17 06:00","2020","10","17","06:00","-14.2","","-15.8","","88","","","M","17","","8","","","M","102.38","","","","-19","","NA"
"-128.65","66.24","FORT GOOD HOPE A","2201406","2020-10-17 07:00","2020","10","17","07:00","-15.8","","-17.3","","89","","","M","18","","9","","","M","102.35","","","","-22","","NA"
"-128.65","66.24","FORT GOOD HOPE A","2201406","2020-10-17 08:00","2020","10","17","08:00","-14.9","","-16.4","","88","","","M","19","","14","","","M","102.31","","","","-22","","NA"
"-128.65","66.24","FORT GOOD HOPE A","2201406","2020-10-17 09:00","2020","10","17","09:00","-14.6","","-16.3","","87","","","M","18","","14","","","M","102.25","","","","-22","","NA"
"-128.65","66.24","FORT GOOD HOPE A","2201406","2020-10-17 10:00","2020","10","17","10:00","-13.5","","-15.3","","86","","","M","17","","14","","","M","102.21","","","","-21","","NA"
"-128.65","66.24","FORT GOOD HOPE A","2201406","2020-10-17 11:00","2020","10","17","11:00","-11.9","","-14.5","","81","","","M","19","","7","","","M","102.16","","","","-16","","NA"
"-128.65","66.24","FORT GOOD HOPE A","2201406","2020-10-17 12:00","2020","10","17","12:00","-9.7","","-13.9","","72","","","M","17","","8","","","M","102.13","","","","-14","","NA"
"-128.65","66.24","FORT GOOD HOPE A","2201406","2020-10-17 13:00","2020","10","17","13:00","-7.7","","-13.5","","64","","","M","16","","9","","","M","102.09","","","","-12","","NA"
"-128.65","66.24","FORT GOOD HOPE A","2201406","2020-10-17 14:00","2020","10","17","14:00","-6.5","","-13.5","","58","","","M","15","","14","","","M","102.00","","","","-12","","NA"
"-128.65","66.24","FORT GOOD HOPE A","2201406","2020-10-17 15:00","2020","10","17","15:00","-5.6","","-13.0","","56","","","M","13","","11","","","M","101.94","","","","-10","","NA"
"-128.65","66.24","FORT GOOD HOPE A","2201406","2020-10-17 16:00","2020","10","17","16:00","-5.3","","-13.4","","53","","","M","16","","13","","","M","101.88","","","","-10","","NA"
"-128.65","66.24","FORT GOOD HOPE A","2201406","2020-10-17 17:00","2020","10","17","17:00","-6.3","","-13.1","","59","","","M","12","","8","","","M","101.83","","","","-10","","NA"
"-128.65","66.24","FORT GOOD HOPE A","2201406","2020-10-17 18:00","2020","10","17","18:00","-7.6","","-13.7","","62","","","M","12","","9","","","M","101.79","","","","-12","","NA"
"-128.65","66.24","FORT GOOD HOPE A","2201406","2020-10-17 19:00","2020","10","17","19:00","-10.6","","-14.7","","72","","","M","12","","12","","","M","101.73","","","","-17","","NA"
"-128.65","66.24","FORT GOOD HOPE A","2201406","2020-10-17 20:00","2020","10","17","20:00","-10.3","","-14.4","","72","","","M","12","","10","","","M","101.69","","","","-16","","NA"
"-128.65","66.24","FORT GOOD HOPE A","2201406","2020-10-17 21:00","2020","10","17","21:00","-11.1","","-14.2","","78","","","M","8","","4","","","M","101.64","","","","-14","","NA"
"-128.65","66.24","FORT GOOD HOPE A","2201406","2020-10-17 22:00","2020","10","17","22:00","-12.1","","-14.7","","81","","","M","9","","6","","","M","101.59","","","","-16","","NA"
"-128.65","66.24","FORT GOOD HOPE A","2201406","2020-10-17 23:00","2020","10","17","23:00","-13.2","","-15.2","","85","","","M","10","","5","","","M","101.55","","","","-17","","NA"
"-128.65","66.24","FORT GOOD HOPE A","2201406","2020-10-18 00:00","2020","10","18","00:00","-15.0","","-16.2","","91","","","M","12","","9","","","M","101.49","","","","-21","","NA"
"-128.65","66.24","FORT GOOD HOPE A","2201406","2020-10-18 01:00","2020","10","18","01:00","-15.6","","-17.1","","89","","","M","9","","5","","","M","101.46","","","","-19","","NA"
"-128.65","66.24","FORT GOOD HOPE A","2201406","2020-10-18 02:00","2020","10","18","02:00","-16.8","","-18.1","","90","","","M","10","","8","","","M","101.42","","","","-22","","NA"
"-128.65","66.24","FORT GOOD HOPE A","2201406","2020-10-18 03:00","2020","10","18","03:00","-17.8","","-19.2","","88","","","M","11","","9","","","M","101.35","","","","-24","","NA"
"-128.65","66.24","FORT GOOD HOPE A","2201406","2020-10-18 04:00","2020","10","18","04:00","-17.4","","-18.9","","89","","","M","11","","7","","","M","101.31","","","","-23","","NA"
"-128.65","66.24","FORT GOOD HOPE A","2201406","2020-10-18 05:00","2020","10","18","05:00","-17.9","","-19.4","","88","","","M","10","","8","","","M","101.28","","","","-24","","NA"
"-128.65","66.24","FORT GOOD HOPE A","2201406","2020-10-18 06:00","2020","10","18","06:00","-18.3","","-19.8","","89","","","M","10","","3","","","M","101.23","","","","-21","","NA"
"-128.65","66.24","FORT GOOD HOPE A","2201406","2020-10-18 07:00","2020","10","18","07:00","-18.4","","-20.1","","87","","","M","10","","5","","","M","101.15","","","","-22","","NA"
"-128.65","66.24","FORT GOOD HOPE A","2201406","2020-10-18 08:00","2020","10","18","08:00","-18.1","","-19.6","","88","","","M","9","","7","","","M","101.11","","","","-23","","NA"
"-128.65","66.24","FORT GOOD HOPE A","2201406","2020-10-18 09:00","2020","10","18","09:00","-18.8","","-20.4","","87","","","M","12","","8","","","M","101.05","","","","-25","","NA"
"-128.65","66.24","FORT GOOD HOPE A","2201406","2020-10-18 10:00","2020","10","18","10:00","-17.1","","-18.7","","88","","","M","9","","9","","","M","101.00","","","","-23","","NA"
"-128.65","66.24","FORT GOOD HOPE A","2201406","2020-10-18 11:00","2020","10","18","11:00","-14.9","","-16.5","","88","","","M","8","","7","","","M","100.95","","","","-20","","NA"
"-128.65","66.24","FORT GOOD HOPE A","2201406","2020-10-18 12:00","2020","10","18","12:00","-12.4","","-14.6","","84","","","M","8","","3","","","M","100.91","","","","-14","","NA"
"-128.65","66.24","FORT GOOD HOPE A","2201406","2020-10-18 13:00","2020","10","18","13:00","-10.8","","-13.6","","80","","","M","13","","3","","","M","100.87","","","","-13","","NA"
"-128.65","66.24","FORT GOOD HOPE A","2201406","2020-10-18 14:00","2020","10","18","14:00","-8.7","","-13.1","","70","","","M","9","","4","","","M","100.81","","","","-11","","NA"
"-128.65","66.24","FORT GOOD HOPE A","2201406","2020-10-18 15:00","2020","10","18","15:00","-7.3","","-12.9","","65","","","M","11","","8","","","M","100.73","","","","-11","","NA"
"-128.65","66.24","FORT GOOD HOPE A","2201406","2020-10-18 16:00","2020","10","18","16:00","-6.5","","-12.5","","62","","","M","8","","8","","","M","100.68","","","","-10","","NA"
"-128.65","66.24","FORT GOOD HOPE A","2201406","2020-10-18 17:00","2020","10","18","17:00","-6.6","","-12.2","","65","","","M","5","","4","","","M","100.64","","","","-9","","NA"
"-128.65","66.24","FORT GOOD HOPE A","2201406","2020-10-18 18:00","2020","10","18","18:00","-8.1","","-12.2","","73","","","M","10","","7","","","M","100.59","","","","-12","","NA"
"-128.65","66.24","FORT GOOD HOPE A","2201406","2020-10-18 19:00","2020","10","18","19:00","-11.6","","-13.4","","86","","","M","15","","4","","","M","100.54","","","","-14","","NA"
"-128.65","66.24","FORT GOOD HOPE A","2201406","2020-10-18 20:00","2020","10","18","20:00","-14.7","","-16.4","","87","","","M","13","","7","","","M","100.52","","","","-19","","NA"
"-128.65","66.24","FORT GOOD HOPE A","2201406","2020-10-18 21:00","2020","10","18","21:00","-11.6","","-13.7","","85","","","M","16","","2","","","M","100.48","","","","-13","","NA"
"-128.65","66.24","FORT GOOD HOPE A","2201406","2020-10-18 22:00","2020","10","18","22:00","-13.7","","-15.2","","89","","","M","16","","11","","","M","100.43","","","","-20","","NA"
"-128.65","66.24","FORT GOOD HOPE A","2201406","2020-10-18 23:00","2020","10","18","23:00","-14.2","","-15.7","","88","","","M","17","","9","","","M","100.40","","","","-20","","NA"
"-128.65","66.24","FORT GOOD HOPE A","2201406","2020-10-19 00:00","2020","10","19","00:00","-13.7","","-15.0","","90","","","M","16","","7","","","M","100.41","","","","-18","","NA"
"-128.65","66.24","FORT GOOD HOPE A","2201406","2020-10-19 01:00","2020","10","19","01:00","-14.3","","-15.5","","91","","","M","23","","5","","","M","100.39","","","","-18","","NA"
"-128.65","66.24","FORT GOOD HOPE A","2201406","2020-10-19 02:00","2020","10","19","02:00","-16.7","","-18.3","","88","","","M","15","","8","","","M","100.41","","","","-22","","NA"
"-128.65","66.24","FORT GOOD HOPE A","2201406","2020-10-19 03:00","2020","10","19","03:00","-14.5","","-15.9","","90","","","M","16","","5","","","M","100.38","","","","-18","","NA"
"-128.65","66.24","FORT GOOD HOPE A","2201406","2020-10-19 04:00","2020","10","19","04:00","-15.5","","-16.9","","89","","","M","18","","8","","","M","100.39","","","","-21","","NA"
"-128.65","66.24","FORT GOOD HOPE A","2201406","2020-10-19 05:00","2020","10","19","05:00","-16.5","","-17.8","","89","","","M","14","","3","","","M","100.38","","","","-19","","NA"
"-128.65","66.24","FORT GOOD HOPE A","2201406","2020-10-19 06:00","2020","10","19","06:00","-15.2","","-16.4","","91","","","M","21","","12","","","M","100.38","","","","-22","","NA"
"-128.65","66.24","FORT GOOD HOPE A","2201406","2020-10-19 07:00","2020","10","19","07:00","-16.3","","-17.7","","89","","","M","21","","10","","","M","100.41","","","","-23","","NA"
"-128.65","66.24","FORT GOOD HOPE A","2201406","2020-10-19 08:00","2020","10","19","08:00","-16.1","","-17.5","","89","","","M","21","","13","","","M","100.42","","","","-24","","NA"
"-128.65","66.24","FORT GOOD HOPE A","2201406","2020-10-19 09:00","2020","10","19","09:00","-15.5","","-16.7","","90","","","M","21","","10","","","M","100.46","","","","-22","","NA"
"-128.65","66.24","FORT GOOD HOPE A","2201406","2020-10-19 10:00","2020","10","19","10:00","-13.8","","-15.1","","90","","","M","25","","11","","","M","100.48","","","","-20","","NA"
"-128.65","66.24","FORT GOOD HOPE A","2201406","2020-10-19 11:00","2020","10","19","11:00","-13.3","","-14.7","","89","","","M","25","","12","","","M","100.51","","","","-20","","NA"
"-128.65","66.24","FORT GOOD HOPE A","2201406","2020-10-19 12:00","2020","10","19","12:00","-11.9","","-13.3","","90","","","M","25","","11","","","M","100.57","","","","-18","","NA"
"-128.65","66.24","FORT GOOD HOPE A","2201406","2020-10-19 13:00","2020","10","19","13:00","-10.9","","-12.5","","88","","","M","24","","10","","","M","100.61","","","","-16","","NA"
"-128.65","66.24","FORT GOOD HOPE A","2201406","2020-10-19 14:00","2020","10","19","14:00","-9.5","","-11.9","","82","","","M","26","","14","","","M","100.64","","","","-16","","NA"
"-128.65","66.24","FORT GOOD HOPE A","2201406","2020-10-19 15:00","2020","10","19","15:00","-8.5","","-11.5","","79","","","M","28","","10","","","M","100.66","","","","-13","","NA"
"-128.65","66.24","FORT GOOD HOPE A","2201406","2020-10-19 16:00","2020","10","19","16:00","-8.9","","-11.6","","81","","","M","27","","14","","","M","100.70","","","","-15","","NA"
"-128.65","66.24","FORT GOOD HOPE A","2201406","2020-10-19 17:00","2020","10","19","17:00","-8.9","","-11.5","","82","","","M","31","","14","","","M","100.74","","","","-15","","NA"
"-128.65","66.24","FORT GOOD HOPE A","2201406","2020-10-19 18:00","2020","10","19","18:00","-8.8","","-11.2","","83","","","M","26","","15","","","M","100.79","","","","-15","","NA"
"-128.65","66.24","FORT GOOD HOPE A","2201406","2020-10-19 19:00","2020","10","19","19:00","-8.4","","-10.8","","83","","","M","27","","17","","","M","100.81","","","","-15","","NA"
"-128.65","66.24","FORT GOOD HOPE A","2201406","2020-10-19 20:00","2020","10","19","20:00","-7.9","","-9.9","","86","","","M","26","","17","","","M","100.82","","","","-15","","NA"
"-128.65","66.24","FORT GOOD HOPE A","2201406","2020-10-19 21:00","2020","10","19","21:00","-7.7","","-9.3","","88","","","M","26","","22","","","M","100.86","","","","-15","","NA"
"-128.65","66.24","FORT GOOD HOPE A","2201406","2020-10-19 22:00","2020","10","19","22:00","-7.5","","-9.2","","88","","","M","25","","19","","","M","100.88","","","","-15","","NA"
"-128.65","66.24","FORT GOOD HOPE A","2201406","2020-10-19 23:00","2020","10","19","23:00","-7.3","","-9.1","","87","","","M","26","","24","","","M","100.91","","","","-15","","NA"
"-128.65","66.24","FORT GOOD HOPE A","2201406","2020-10-20 00:00","2020","10","20","00:00","-7.4","","-9.2","","87","","","M","25","","20","","","M","100.94","","","","-15","","NA"
"-128.65","66.24","FORT GOOD HOPE A","2201406","2020-10-20 01:00","2020","10","20","01:00","-7.5","","-8.8","","90","","","M","26","","17","","","M","100.99","","","","-14","","NA"
"-128.65","66.24","FORT GOOD HOPE A","2201406","2020-10-20 02:00","2020","10","20","02:00","-7.9","","-9.3","","90","","","M","27","","23","","","M","101.04","","","","-16","","NA"
"-128.65","66.24","FORT GOOD HOPE A","2201406","2020-10-20 03:00","2020","10","20","03:00","-8.1","","-9.5","","89","","","M","27","","16","","","M","101.10","","","","-15","","NA"
"-128.65","66.24","FORT GOOD HOPE A","2201406","2020-10-20 04:00","2020","10","20","04:00","-8.0","","-9.4","","90","","","M","27","","13","","","M","101.13","","","","-14","","NA"
"-128.65","66.24","FORT GOOD HOPE A","2201406","2020-10-20 05:00","2020","10","20","05:00","-7.9","","-9.3","","90","","","M","26","","15","","","M","101.17","","","","-14","","NA"
"-128.65","66.24","FORT GOOD HOPE A","2201406","2020-10-20 06:00","2020","10","20","06:00","-7.8","","-9.1","","90","","","M","26","","17","","","M","101.23","","","","-14","","NA"
"-128.65","66.24","FORT GOOD HOPE A","2201406","2020-10-20 07:00","2020","10","20","07:00","-7.8","","-9.2","","90","","","M","27","","21","","","M","101.26","","","","-15","","NA"
"-128.65","66.24","FORT GOOD HOPE A","2201406","2020-10-20 08:00","2020","10","20","08:00","-7.8","","-9.1","","91","","","M","26","","18","","","M","101.30","","","","-15","","NA"
"-128.65","66.24","FORT GOOD HOPE A","2201406","2020-10-20 09:00","2020","10","20","09:00","-7.6","","-8.8","","91","","","M","26","","17","","","M","101.35","","","","-14","","NA"
"-128.65","66.24","FORT GOOD HOPE A","2201406","2020-10-20 10:00","2020","10","20","10:00","-7.5","","-8.7","","91","","","M","26","","18","","","M","101.40","","","","-14","","NA"
"-128.65","66.24","FORT GOOD HOPE A","2201406","2020-10-20 11:00","2020","10","20","11:00","-7.0","","-8.4","","90","","","M","25","","18","","","M","101.47","","","","-14","","NA"
"-128.65","66.24","FORT GOOD HOPE A","2201406","2020-10-20 12:00","2020","10","20","12:00","-6.5","","-8.0","","89","","","M","27","","16","","","M","101.55","","","","-13","","NA"
"-128.65","66.24","FORT GOOD HOPE A","2201406","2020-10-20 13:00","2020","10","20","13:00","-6.0","","-7.8","","87","","","M","27","","17","","","M","101.61","","","","-12","","NA"
"-128.65","66.24","FORT GOOD HOPE A","2201406","2020-10-20 14:00","2020","10","20","14:00","-5.7","","-7.9","","85","","","M","27","","22","","","M","101.64","","","","-13","","NA"
"-128.65","66.24","FORT GOOD HOPE A","2201406","2020-10-20 15:00","2020","10","20","15:00","-5.5","","-8.1","","82","","","M","28","","18","","","M","101.68","","","","-12","","NA"
"-128.65","66.24","FORT GOOD HOPE A","2201406","2020-10-20 16:00","2020","10","20","16:00","-5.1","","-6.5","","90","","","M","26","","21","","","M","101.71","","","","-12","","NA"
"-128.65","66.24","FORT GOOD HOPE A","2201406","2020-10-20 17:00","2020","10","20","17:00","-4.9","","-6.5","","89","","","M","27","","20","","","M","101.75","","","","-11","","NA"
"-128.65","66.24","FORT GOOD HOPE A","2201406","2020-10-20 18:00","2020","10","20","18:00","-5.4","","-6.9","","90","","","M","27","","23","","","M","101.80","","","","-13","","NA"
"-128.65","66.24","FORT GOOD HOPE A","2201406","2020-10-20 19:00","2020","10","20","19:00","-5.7","","-7.2","","89","","","M","27","","25","","","M","101.84","","","","-13","","NA"
"-128.65","66.24","FORT GOOD HOPE A","2201406","2020-10-20 20:00","2020","10","20","20:00","-5.7","","-7.1","","90","","","M","27","","21","","","M","101.89","","","","-13","","NA"
"-128.65","66.24","FORT GOOD HOPE A","2201406","2020-10-20 21:00","2020","10","20","21:00","-5.6","","-7.0","","90","","","M","27","","18","","","M","101.93","","","","-12","","NA"
"-128.65","66.24","FORT GOOD HOPE A","2201406","2020-10-20 22:00","2020","10","20","22:00","-5.4","","-6.7","","91","","","M","28","","19","","","M","102.00","","","","-12","","NA"
"-128.65","66.24","FORT GOOD HOPE A","2201406","2020-10-20 23:00","2020","10","20","23:00","-5.4","","-6.3","","93","","","M","27","","18","","","M","102.07","","","","-12","","NA"
"-128.65","66.24","FORT GOOD HOPE A","2201406","2020-10-21 00:00","2020","10","21","00:00","-5.5","","-6.4","","93","","","M","27","","21","","","M","102.12","","","","-12","","NA"
"-128.65","66.24","FORT GOOD HOPE A","2201406","2020-10-21 01:00","2020","10","21","01:00","-5.2","","-6.3","","92","","","M","29","","18","","","M","102.21","","","","-11","","NA"
"-128.65","66.24","FORT GOOD HOPE A","2201406","2020-10-21 02:00","2020","10","21","02:00","-5.3","","-6.5","","91","","","M","29","","13","","","M","102.29","","","","-10","","NA"
"-128.65","66.24","FORT GOOD HOPE A","2201406","2020-10-21 03:00","2020","10","21","03:00","-5.3","","-6.5","","91","","","M","28","","19","","","M","102.35","","","","-12","","NA"
"-128.65","66.24","FORT GOOD HOPE A","2201406","2020-10-21 04:00","2020","10","21","04:00","-5.3","","-6.4","","92","","","M","28","","21","","","M","102.39","","","","-12","","NA"
"-128.65","66.24","FORT GOOD HOPE A","2201406","2020-10-21 05:00","2020","10","21","05:00","-5.6","","-6.9","","91","","","M","28","","22","","","M","102.45","","","","-13","","NA"
"-128.65","66.24","FORT GOOD HOPE A","2201406","2020-10-21 06:00","2020","10","21","06:00","-5.7","","-7.2","","90","","","M","28","","22","","","M","102.49","","","","-13","","NA"
"-128.65","66.24","FORT GOOD HOPE A","2201406","2020-10-21 07:00","2020","10","21","07:00","-5.9","","-7.2","","90","","","M","28","","19","","","M","102.55","","","","-13","","NA"
"-128.65","66.24","FORT GOOD HOPE A","2201406","2020-10-21 08:00","2020","10","21","08:00","-5.8","","-7.4","","89","","","M","29","","17","","","M","102.63","","","","-12","","NA"
"-128.65","66.24","FORT GOOD HOPE A","2201406","2020-10-21 09:00","2020","10","21","09:00","-6.0","","-7.7","","88","","","M","29","","16","","","M","102.66","","","","-12","","NA"
"-128.65","66.24","FORT GOOD HOPE A","2201406","2020-10-21 10:00","2020","10","21","10:00","-5.9","","-7.4","","89","","","M","28","","16","","","M","102.71","","","","-12","","NA"
"-128.65","66.24","FORT GOOD HOPE A","2201406","2020-10-21 11:00","2020","10","21","11:00","-6.2","","-7.7","","89","","","M","27","","18","","","M","102.76","","","","-13","","NA"
"-128.65","66.24","FORT GOOD HOPE A","2201406","2020-10-21 12:00","2020","10","21","12:00","-6.3","","-7.8","","89","","","M","27","","12","","","M","102.81","","","","-11","","NA"
"-128.65","66.24","FORT GOOD HOPE A","2201406","2020-10-21 13:00","2020","10","21","13:00","-6.3","","-7.8","","89","","","M","27","","16","","","M","102.83","","","","-12","","NA"
"-128.65","66.24","FORT GOOD HOPE A","2201406","2020-10-21 14:00","2020","10","21","14:00","-5.8","","-7.4","","89","","","M","26","","13","","","M","102.85","","","","-11","","NA"
"-128.65","66.24","FORT GOOD HOPE A","2201406","2020-10-21 15:00","2020","10","21","15:00","-6.1","","-7.7","","89","","","M","26","","17","","","M","102.87","","","","-12","","NA"
"-128.65","66.24","FORT GOOD HOPE A","2201406","2020-10-21 16:00","2020","10","21","16:00","-6.4","","-8.1","","88","","","M","26","","16","","","M","102.88","","","","-13","","NA"
"-128.65","66.24","FORT GOOD HOPE A","2201406","2020-10-21 17:00","2020","10","21","17:00","-6.4","","-8.6","","85","","","M","27","","11","","","M","102.89","","","","-11","","NA"
"-128.65","66.24","FORT GOOD HOPE A","2201406","2020-10-21 18:00","2020","10","21","18:00","-6.2","","-9.0","","80","","","M","26","","14","","","M","102.90","","","","-12","","NA"
"-128.65","66.24","FORT GOOD HOPE A","2201406","2020-10-21 19:00","2020","10","21","19:00","-6.5","","-9.6","","79","","","M","27","","10","","","M","102.89","","","","-11","","NA"
"-128.65","66.24","FORT GOOD HOPE A","2201406","2020-10-21 20:00","2020","10","21","20:00","-6.7","","-9.6","","80","","","M","28","","9","","","M","102.88","","","","-11","","NA"
"-128.65","66.24","FORT GOOD HOPE A","2201406","2020-10-21 21:00","2020","10","21","21:00","-7.8","","-10.1","","84","","","M","21","","6","","","M","102.88","","","","-11","","NA"
"-128.65","66.24","FORT GOOD HOPE A","2201406","2020-10-21 22:00","2020","10","21","22:00","-9.9","","-10.9","","92","","","M","20","","9","","","M","102.87","","","","-15","","NA"
"-128.65","66.24","FORT GOOD HOPE A","2201406","2020-10-21 23:00","2020","10","21","23:00","-9.9","","-10.8","","93","","","M","21","","9","","","M","102.87","","","","-15","","NA"
"-128.65","66.24","FORT GOOD HOPE A","2201406","2020-10-22 00:00","2020","10","22","00:00","-10.7","","-11.7","","93","","","M","21","","8","","","M","102.86","","","","-15","","NA"
"-128.65","66.24","FORT GOOD HOPE A","2201406","2020-10-22 01:00","2020","10","22","01:00","-10.4","","-11.2","","94","","","M","20","","10","","","M","102.86","","","","-16","","NA"
"-128.65","66.24","FORT GOOD HOPE A","2201406","2020-10-22 02:00","2020","10","22","02:00","-11.1","","-11.8","","95","","","M","20","","14","","","M","102.85","","","","-18","","NA"
"-128.65","66.24","FORT GOOD HOPE A","2201406","2020-10-22 03:00","2020","10","22","03:00","-11.9","","-12.9","","92","","","M","19","","11","","","M","102.82","","","","-18","","NA"
"-128.65","66.24","FORT GOOD HOPE A","2201406","2020-10-22 04:00","2020","10","22","04:00","-11.8","","-13.0","","91","","","M","19","","13","","","M","102.78","","","","-18","","NA"
"-128.65","66.24","FORT GOOD HOPE A","2201406","2020-10-22 05:00","2020","10","22","05:00","-11.8","","-13.0","","91","","","M","19","","11","","","M","102.77","","","","-18","","NA"
"-128.65","66.24","FORT GOOD HOPE A","2201406","2020-10-22 06:00","2020","10","22","06:00","-12.3","","-13.6","","90","","","M","20","","15","","","M","102.73","","","","-20","","NA"
"-128.65","66.24","FORT GOOD HOPE A","2201406","2020-10-22 07:00","2020","10","22","07:00","-12.4","","-13.5","","91","","","M","19","","16","","","M","102.68","","","","-20","","NA"
"-128.65","66.24","FORT GOOD HOPE A","2201406","2020-10-22 08:00","2020","10","22","08:00","-12.5","","-13.7","","91","","","M","19","","13","","","M","102.66","","","","-19","","NA"
"-128.65","66.24","FORT GOOD HOPE A","2201406","2020-10-22 09:00","2020","10","22","09:00","-12.9","","-13.8","","93","","","M","19","","17","","","M","102.64","","","","-21","","NA"
"-128.65","66.24","FORT GOOD HOPE A","2201406","2020-10-22 10:00","2020","10","22","10:00","-13.5","","-14.5","","92","","","M","19","","12","","","M","102.62","","","","-20","","NA"
"-128.65","66.24","FORT GOOD HOPE A","2201406","2020-10-22 11:00","2020","10","22","11:00","-11.7","","-12.7","","93","","","M","19","","13","","","M","102.56","","","","-18","","NA"
"-128.65","66.24","FORT GOOD HOPE A","2201406","2020-10-22 12:00","2020","10","22","12:00","-9.2","","-10.4","","91","","","M","20","","11","","","M","102.55","","","","-15","","NA"
"-128.65","66.24","FORT GOOD HOPE A","2201406","2020-10-22 13:00","2020","10","22","13:00","-8.3","","-10.1","","87","","","M","20","","15","","","M","102.54","","","","-15","","NA"
"-128.65","66.24","FORT GOOD HOPE A","2201406","2020-10-22 14:00","2020","10","22","14:00","-6.7","","-9.5","","81","","","M","19","","14","","","M","102.50","","","","-12","","NA"
"-128.65","66.24","FORT GOOD HOPE A","2201406","2020-10-22 15:00","2020","10","22","15:00","-6.3","","-9.3","","79","","","M","19","","13","","","M","102.46","","","","-12","","NA"
"-128.65","66.24","FORT GOOD HOPE A","2201406","2020-10-22 16:00","2020","10","22","16:00","-5.8","","-9.1","","78","","","M","19","","11","","","M","102.41","","","","-11","","NA"
"-128.65","66.24","FORT GOOD HOPE A","2201406","2020-10-22 17:00","2020","10","22","17:00","-6.9","","-9.8","","80","","","M","19","","12","","","M","102.37","","","","-12","","NA"
"-128.65","66.24","FORT GOOD HOPE A","2201406","2020-10-22 18:00","2020","10","22","18:00","-7.7","","-10.4","","81","","","M","19","","10","","","M","102.32","","","","-13","","NA"
"-128.65","66.24","FORT GOOD HOPE A","2201406","2020-10-22 19:00","2020","10","22","19:00","-8.3","","-10.9","","82","","","M","19","","8","","","M","102.31","","","","-12","","NA"
"-128.65","66.24","FORT GOOD HOPE A","2201406","2020-10-22 20:00","2020","10","22","20:00","-8.3","","-10.3","","85","","","M","22","","12","","","M","102.32","","","","-14","","NA"
"-128.65","66.24","FORT GOOD HOPE A","2201406","2020-10-22 21:00","2020","10","22","21:00","-7.6","","-9.7","","85","","","M","20","","8","","","M","102.30","","","","-12","","NA"
"-128.65","66.24","FORT GOOD HOPE A","2201406","2020-10-22 22:00","2020","10","22","22:00","-6.9","","-8.8","","86","","","M","20","","9","","","M","102.28","","","","-11","","NA"
"-128.65","66.24","FORT GOOD HOPE A","2201406","2020-10-22 23:00","2020","10","22","23:00","-4.5","","-5.6","","92","","","M","24","","12","","","M","102.27","","","","-9","","NA"
"-128.65","66.24","FORT GOOD HOPE A","2201406","2020-10-23 00:00","2020","10","23","00:00","-3.9","","-4.9","","93","","","M","26","","16","","","M","102.25","","","","-9","","NA"
"-128.65","66.24","FORT GOOD HOPE A","2201406","2020-10-23 01:00","2020","10","23","01:00","-3.7","","-4.5","","94","","","M","27","","18","","","M","102.26","","","","-10","","NA"
"-128.65","66.24","FORT GOOD HOPE A","2201406","2020-10-23 02:00","2020","10","23","02:00","-3.5","","-4.3","","94","","","M","26","","13","","","M","102.25","","","","-8","","NA"
"-128.65","66.24","FORT GOOD HOPE A","2201406","2020-10-23 03:00","2020","10","23","03:00","-3.3","","-4.1","","94","","","M","26","","14","","","M","102.26","","","","-8","","NA"
"-128.65","66.24","FORT GOOD HOPE A","2201406","2020-10-23 04:00","2020","10","23","04:00","-2.8","","-4.2","","91","","","M","28","","13","","","M","102.23","","","","-7","","NA"
"-128.65","66.24","FORT GOOD HOPE A","2201406","2020-10-23 05:00","2020","10","23","05:00","-2.7","","-5.1","","84","","","M","27","","16","","","M","102.22","","","","-8","","NA"
"-128.65","66.24","FORT GOOD HOPE A","2201406","2020-10-23 06:00","2020","10","23","06:00","-2.6","","-5.7","","79","","","M","26","","19","","","M","102.24","","","","-8","","NA"
"-128.65","66.24","FORT GOOD HOPE A","2201406","2020-10-23 07:00","2020","10","23","07:00","-2.9","","-5.2","","84","","","M","27","","18","","","M","102.26","","","","-9","","NA"
"-128.65","66.24","FORT GOOD HOPE A","2201406","2020-10-23 08:00","2020","10","23","08:00","-3.6","","-4.7","","92","","","M","26","","17","","","M","102.27","","","","-9","","NA"
"-128.65","66.24","FORT GOOD HOPE A","2201406","2020-10-23 09:00","2020","10","23","09:00","-3.1","","-4.5","","90","","","M","26","","18","","","M","102.31","","","","-9","","NA"
"-128.65","66.24","FORT GOOD HOPE A","2201406","2020-10-23 10:00","2020","10","23","10:00","-3.1","","-4.3","","91","","","M","26","","14","","","M","102.33","","","","-8","","NA"
"-128.65","66.24","FORT GOOD HOPE A","2201406","2020-10-23 11:00","2020","10","23","11:00","-2.7","","-3.5","","94","","","M","26","","18","","","M","102.31","","","","-8","","NA"
"-128.65","66.24","FORT GOOD HOPE A","2201406","2020-10-23 12:00","2020","10","23","12:00","-2.3","","-3.6","","91","","","M","26","","18","","","M","102.29","","","","-8","","NA"
"-128.65","66.24","FORT GOOD HOPE A","2201406","2020-10-23 13:00","2020","10","23","13:00","-2.2","","-3.5","","90","","","M","25","","16","","","M","102.28","","","","-7","","NA"
"-128.65","66.24","FORT GOOD HOPE A","2201406","2020-10-23 14:00","2020","10","23","14:00","-1.9","","-3.4","","90","","","M","25","","16","","","M","102.29","","","","-7","","NA"
"-128.65","66.24","FORT GOOD HOPE A","2201406","2020-10-23 15:00","2020","10","23","15:00","-1.8","","-3.2","","90","","","M","26","","16","","","M","102.29","","","","-7","","NA"
"-128.65","66.24","FORT GOOD HOPE A","2201406","2020-10-23 16:00","2020","10","23","16:00","-1.7","","-3.0","","91","","","M","26","","15","","","M","102.30","","","","-7","","NA"
"-128.65","66.24","FORT GOOD HOPE A","2201406","2020-10-23 17:00","2020","10","23","17:00","-1.8","","-3.2","","90","","","M","24","","9","","","M","102.29","","","","-5","","NA"
"-128.65","66.24","FORT GOOD HOPE A","2201406","2020-10-23 18:00","2020","10","23","18:00","-2.0","","-4.1","","86","","","M","24","","10","","","M","102.27","","","","-6","","NA"
"-128.65","66.24","FORT GOOD HOPE A","2201406","2020-10-23 19:00","2020","10","23","19:00","-2.0","","-5.2","","79","","","M","27","","9","","","M","102.26","","","","-5","","NA"
"-128.65","66.24","FORT GOOD HOPE A","2201406","2020-10-23 20:00","2020","10","23","20:00","-2.2","","-5.5","","79","","","M","21","","9","","","M","102.24","","","","-6","","NA"
"-128.65","66.24","FORT GOOD HOPE A","2201406","2020-10-23 21:00","2020","10","23","21:00","-3.2","","-5.8","","82","","","M","19","","10","","","M","102.24","","","","-7","","NA"
"-128.65","66.24","FORT GOOD HOPE A","2201406","2020-10-23 22:00","2020","10","23","22:00","-6.1","","-6.9","","94","","","M","19","","12","","","M","102.20","","","","-11","","NA"
"-128.65","66.24","FORT GOOD HOPE A","2201406","2020-10-23 23:00","2020","10","23","23:00","-7.6","","-8.1","","96","","","M","17","","12","","","M","102.15","","","","-13","","NA"
"-128.65","66.24","FORT GOOD HOPE A","2201406","2020-10-24 00:00","2020","10","24","00:00","-7.8","","-8.9","","92","","","M","18","","12","","","M","102.10","","","","-13","","NA"
"-128.65","66.24","FORT GOOD HOPE A","2201406","2020-10-24 01:00","2020","10","24","01:00","-7.8","","-8.3","","96","","","M","16","","11","","","M","102.07","","","","-13","","NA"
"-128.65","66.24","FORT GOOD HOPE A","2201406","2020-10-24 02:00","2020","10","24","02:00","-8.4","","-9.0","","96","","","M","17","","14","","","M","102.01","","","","-15","","NA"
"-128.65","66.24","FORT GOOD HOPE A","2201406","2020-10-24 03:00","2020","10","24","03:00","-9.0","","-9.6","","95","","","M","16","","13","","","M","101.96","","","","-15","","NA"
"-128.65","66.24","FORT GOOD HOPE A","2201406","2020-10-24 04:00","2020","10","24","04:00","-9.2","","-9.8","","95","","","M","15","","13","","","M","101.91","","","","-15","","NA"
"-128.65","66.24","FORT GOOD HOPE A","2201406","2020-10-24 05:00","2020","10","24","05:00","-9.5","","-10.2","","95","","","M","14","","10","","","M","101.83","","","","-15","","NA"
"-128.65","66.24","FORT GOOD HOPE A","2201406","2020-10-24 06:00","2020","10","24","06:00","-9.6","","-10.4","","94","","","M","13","","4","","","M","101.78","","","","-12","","NA"
"-128.65","66.24","FORT GOOD HOPE A","2201406","2020-10-24 07:00","2020","10","24","07:00","-9.7","","-10.6","","94","","","M","15","","6","","","M","101.74","","","","-13","","NA"
"-128.65","66.24","FORT GOOD HOPE A","2201406","2020-10-24 08:00","2020","10","24","08:00","-9.3","","-10.1","","94","","","M","11","","6","","","M","101.65","","","","-13","","NA"
"-128.65","66.24","FORT GOOD HOPE A","2201406","2020-10-24 09:00","2020","10","24","09:00","-14.0","","-15.3","","90","","","M","11","","10","","","M","101.56","","","","-20","","NA"
"-128.65","66.24","FORT GOOD HOPE A","2201406","2020-10-24 10:00","2020","10","24","10:00","-9.9","","-10.8","","93","","","M","13","","1","","","M","101.47","","","","-10","","NA"
"-128.65","66.24","FORT GOOD HOPE A","2201406","2020-10-24 11:00","2020","10","24","11:00","-12.8","","-13.9","","91","","","M","9","","5","","","M","101.43","","","","-16","","NA"
"-128.65","66.24","FORT GOOD HOPE A","2201406","2020-10-24 12:00","2020","10","24","12:00","-9.2","","-10.1","","93","","","M","10","","5","","","M","101.36","","","","-12","","NA"
"-128.65","66.24","FORT GOOD HOPE A","2201406","2020-10-24 13:00","2020","10","24","13:00","-8.7","","-9.4","","94","","","M","10","","5","","","M","101.33","","","","-11","","NA"
"-128.65","66.24","FORT GOOD HOPE A","2201406","2020-10-24 14:00","2020","10","24","14:00","-6.5","","-7.1","","96","","","M","11","","6","","","M","101.23","","","","-9","","NA"
"-128.65","66.24","FORT GOOD HOPE A","2201406","2020-10-24 15:00","2020","10","24","15:00","-5.9","","-6.8","","93","","","M","10","","2","","","M","101.18","","","","-7","","NA"
"-128.65","66.24","FORT GOOD HOPE A","2201406","2020-10-24 16:00","2020","10","24","16:00","-6.3","","-8.1","","87","","","M","16","","2","","","M","101.11","","","","-7","","NA"
"-128.65","66.24","FORT GOOD HOPE A","2201406","2020-10-24 17:00","2020","10","24","17:00","-7.6","","-8.3","","94","","","M","11","","4","","","M","101.08","","","","-10","","NA"
"-128.65","66.24","FORT GOOD HOPE A","2201406","2020-10-24 18:00","2020","10","24","18:00","-8.3","","-8.9","","96","","","M","19","","7","","","M","101.05","","","","-12","","NA"
"-128.65","66.24","FORT GOOD HOPE A","2201406","2020-10-24 19:00","2020","10","24","19:00","-5.6","","-6.8","","91","","","M","19","","8","","","M","100.97","","","","-9","","NA"
"-128.65","66.24","FORT GOOD HOPE A","2201406","2020-10-24 20:00","2020","10","24","20:00","-5.2","","-7.0","","87","","","M","19","","13","","","M","100.95","","","","-10","","NA"
"-128.65","66.24","FORT GOOD HOPE A","2201406","2020-10-24 21:00","2020","10","24","21:00","-5.5","","-7.3","","87","","","M","20","","9","","","M","100.93","","","","-10","","NA"
"-128.65","66.24","FORT GOOD HOPE A","2201406","2020-10-24 22:00","2020","10","24","22:00","-5.6","","-8.0","","83","","","M","20","","12","","","M","100.89","","","","-11","","NA"
"-128.65","66.24","FORT GOOD HOPE A","2201406","2020-10-24 23:00","2020","10","24","23:00","-7.4","","-9.2","","87","","","M","19","","10","","","M","100.85","","","","-12","","NA"
"-128.65","66.24","FORT GOOD HOPE A","2201406","2020-10-25 00:00","2020","10","25","00:00","-5.5","","-8.4","","81","","","M","21","","19","","","M","100.81","","","","-12","","NA"
"-128.65","66.24","FORT GOOD HOPE A","2201406","2020-10-25 01:00","2020","10","25","01:00","-4.4","","-8.9","","71","","","M","22","","16","","","M","100.74","","","","-10","","NA"
"-128.65","66.24","FORT GOOD HOPE A","2201406","2020-10-25 02:00","2020","10","25","02:00","-3.9","","-8.8","","69","","","M","23","","20","","","M","100.75","","","","-10","","NA"
"-128.65","66.24","FORT GOOD HOPE A","2201406","2020-10-25 03:00","2020","10","25","03:00","-2.9","","-9.1","","63","","","M","23","","13","","","M","100.72","","","","-8","","NA"
"-128.65","66.24","FORT GOOD HOPE A","2201406","2020-10-25 04:00","2020","10","25","04:00","-4.4","","-8.6","","73","","","M","16","","4","","","M","100.70","","","","-6","","NA"
"-128.65","66.24","FORT GOOD HOPE A","2201406","2020-10-25 05:00","2020","10","25","05:00","-3.8","","-8.4","","71","","","M","20","","5","","","M","100.69","","","","-6","","NA"
"-128.65","66.24","FORT GOOD HOPE A","2201406","2020-10-25 06:00","2020","10","25","06:00","-4.2","","-7.9","","75","","","M","24","","8","","","M","100.67","","","","-8","","NA"
"-128.65","66.24","FORT GOOD HOPE A","2201406","2020-10-25 07:00","2020","10","25","07:00","-2.6","","-4.1","","89","","","M","26","","23","","","M","100.73","","","","-9","","NA"
"-128.65","66.24","FORT GOOD HOPE A","2201406","2020-10-25 08:00","2020","10","25","08:00","-2.6","","-3.5","","93","","","M","22","","9","","","M","100.69","","","","-6","","NA"
"-128.65","66.24","FORT GOOD HOPE A","2201406","2020-10-25 09:00","2020","10","25","09:00","-1.7","","-2.4","","95","","","M","26","","17","","","M","100.69","","","","-7","","NA"
"-128.65","66.24","FORT GOOD HOPE A","2201406","2020-10-25 10:00","2020","10","25","10:00","-1.4","","-2.2","","94","","","M","25","","21","","","M","100.69","","","","-7","","NA"
"-128.65","66.24","FORT GOOD HOPE A","2201406","2020-10-25 11:00","2020","10","25","11:00","-0.9","","-1.8","","94","","","M","27","","18","","","M","100.73","","","","-6","","NA"
"-128.65","66.24","FORT GOOD HOPE A","2201406","2020-10-25 12:00","2020","10","25","12:00","-0.3","","-0.9","","95","","","M","27","","19","","","M","100.74","","","","-5","","NA"
"-128.65","66.24","FORT GOOD HOPE A","2201406","2020-10-25 13:00","2020","10","25","13:00","-0.3","","-1.3","","93","","","M","29","","13","","","M","100.81","","","","-4","","NA"
"-128.65","66.24","FORT GOOD HOPE A","2201406","2020-10-25 14:00","2020","10","25","14:00","-1.5","","-4.2","","82","","","M","32","","13","","","M","100.90","","","","-6","","NA"
"-128.65","66.24","FORT GOOD HOPE A","2201406","2020-10-25 15:00","2020","10","25","15:00","-1.5","","-4.3","","81","","","M","30","","13","","","M","100.95","","","","-6","","NA"
"-128.65","66.24","FORT GOOD HOPE A","2201406","2020-10-25 16:00","2020","10","25","16:00","-1.3","","-4.2","","80","","","M","29","","22","","","M","100.99","","","","-7","","NA"
"-128.65","66.24","FORT GOOD HOPE A","2201406","2020-10-25 17:00","2020","10","25","17:00","-1.6","","-4.7","","79","","","M","29","","12","","","M","101.05","","","","-6","","NA"
"-128.65","66.24","FORT GOOD HOPE A","2201406","2020-10-25 18:00","2020","10","25","18:00","-1.9","","-3.9","","86","","","M","32","","9","","","M","101.11","","","","-5","","NA"
"-128.65","66.24","FORT GOOD HOPE A","2201406","2020-10-25 19:00","2020","10","25","19:00","-3.2","","-6.4","","79","","","M","32","","11","","","M","101.12","","","","-7","","NA"
"-128.65","66.24","FORT GOOD HOPE A","2201406","2020-10-25 20:00","2020","10","25","20:00","-3.5","","-6.7","","78","","","M","31","","12","","","M","101.16","","","","-8","","NA"
"-128.65","66.24","FORT GOOD HOPE A","2201406","2020-10-25 21:00","2020","10","25","21:00","-3.8","","-7.3","","77","","","M","32","","8","","","M","101.17","","","","-7","","NA"
"-128.65","66.24","FORT GOOD HOPE A","2201406","2020-10-25 22:00","2020","10","25","22:00","-4.2","","-7.5","","78","","","M","32","","6","","","M","101.17","","","","-7","","NA"
"-128.65","66.24","FORT GOOD HOPE A","2201406","2020-10-25 23:00","2020","10","25","23:00","-4.5","","-7.8","","78","","","M","29","","8","","","M","101.16","","","","-8","","NA"
"-128.65","66.24","FORT GOOD HOPE A","2201406","2020-10-26 00:00","2020","10","26","00:00","-4.7","","-7.8","","79","","","M","29","","4","","","M","101.11","","","","-6","","NA"
"-128.65","66.24","FORT GOOD HOPE A","2201406","2020-10-26 01:00","2020","10","26","01:00","-5.0","","-7.7","","81","","","M","30","","10","","","M","101.06","","","","-9","","NA"
"-128.65","66.24","FORT GOOD HOPE A","2201406","2020-10-26 02:00","2020","10","26","02:00","-5.3","","-7.8","","83","","","M","34","","7","","","M","100.99","","","","-9","","NA"
"-128.65","66.24","FORT GOOD HOPE A","2201406","2020-10-26 03:00","2020","10","26","03:00","-5.5","","-8.2","","81","","","M","6","","5","","","M","100.92","","","","-8","","NA"
"-128.65","66.24","FORT GOOD HOPE A","2201406","2020-10-26 04:00","2020","10","26","04:00","-5.7","","-8.4","","82","","","M","8","","8","","","M","100.82","","","","-9","","NA"
"-128.65","66.24","FORT GOOD HOPE A","2201406","2020-10-26 05:00","2020","10","26","05:00","-5.9","","-8.6","","82","","","M","10","","10","","","M","100.71","","","","-10","","NA"
"-128.65","66.24","FORT GOOD HOPE A","2201406","2020-10-26 06:00","2020","10","26","06:00","-6.2","","-9.2","","80","","","M","11","","16","","","M","100.57","","","","-12","","NA"
"-128.65","66.24","FORT GOOD HOPE A","2201406","2020-10-26 07:00","2020","10","26","07:00","-6.4","","-8.9","","82","","","M","10","","22","","","M","100.33","","","","-14","","NA"
"-128.65","66.24","FORT GOOD HOPE A","2201406","2020-10-26 08:00","2020","10","26","08:00","-6.5","","-9.1","","82","","","M","11","","25","","","M","100.15","","","","-14","","NA"
"-128.65","66.24","FORT GOOD HOPE A","2201406","2020-10-26 09:00","2020","10","26","09:00","-6.5","","-9.1","","82","","","M","10","","20","","","M","99.97","","","","-13","","NA"
"-128.65","66.24","FORT GOOD HOPE A","2201406","2020-10-26 10:00","2020","10","26","10:00","-6.8","","-9.5","","81","","","M","8","","22","","","M","99.70","","","","-14","","NA"
"-128.65","66.24","FORT GOOD HOPE A","2201406","2020-10-26 11:00","2020","10","26","11:00","-6.8","","-9.6","","81","","","M","8","","18","","","M","99.56","","","","-13","","NA"
"-128.65","66.24","FORT GOOD HOPE A","2201406","2020-10-26 12:00","2020","10","26","12:00","-5.9","","-9.1","","78","","","M","9","","28","","","M","99.36","","","","-14","","NA"
"-128.65","66.24","FORT GOOD HOPE A","2201406","2020-10-26 13:00","2020","10","26","13:00","-5.7","","-9.0","","77","","","M","8","","22","","","M","99.13","","","","-13","","NA"
"-128.65","66.24","FORT GOOD HOPE A","2201406","2020-10-26 14:00","2020","10","26","14:00","-5.5","","-8.8","","78","","","M","8","","22","","","M","99.04","","","","-13","","NA"
"-128.65","66.24","FORT GOOD HOPE A","2201406","2020-10-26 15:00","2020","10","26","15:00","-4.9","","-8.6","","75","","","M","8","","20","","","M","98.94","","","","-11","","NA"
"-128.65","66.24","FORT GOOD HOPE A","2201406","2020-10-26 16:00","2020","10","26","16:00","-4.6","","-8.2","","76","","","M","8","","21","","","M","98.88","","","","-11","","NA"
"-128.65","66.24","FORT GOOD HOPE A","2201406","2020-10-26 17:00","2020","10","26","17:00","-4.8","","-7.5","","81","","","M","8","","18","","","M","98.88","","","","-11","","NA"
"-128.65","66.24","FORT GOOD HOPE A","2201406","2020-10-26 18:00","2020","10","26","18:00","-4.5","","-7.4","","81","","","M","8","","25","","","M","98.92","","","","-12","","NA"
"-128.65","66.24","FORT GOOD HOPE A","2201406","2020-10-26 19:00","2020","10","26","19:00","-4.4","","-6.9","","83","","","M","8","","17","","","M","98.99","","","","-10","","NA"
"-128.65","66.24","FORT GOOD HOPE A","2201406","2020-10-26 20:00","2020","10","26","20:00","-4.4","","-6.5","","85","","","M","8","","18","","","M","99.03","","","","-10","","NA"
"-128.65","66.24","FORT GOOD HOPE A","2201406","2020-10-26 21:00","2020","10","26","21:00","-4.5","","-6.3","","88","","","M","6","","14","","","M","99.12","","","","-10","","NA"
"-128.65","66.24","FORT GOOD HOPE A","2201406","2020-10-26 22:00","2020","10","26","22:00","-4.6","","-5.5","","93","","","M","7","","10","","","M","99.19","","","","-9","","NA"
"-128.65","66.24","FORT GOOD HOPE A","2201406","2020-10-26 23:00","2020","10","26","23:00","-4.6","","-5.3","","94","","","M","6","","13","","","M","99.28","","","","-10","","NA"
"-128.65","66.24","FORT GOOD HOPE A","2201406","2020-10-27 00:00","2020","10","27","00:00","-4.4","","-5.5","","93","","","M","7","","10","","","M","99.39","","","","-9","","NA"
"-128.65","66.24","FORT GOOD HOPE A","2201406","2020-10-27 01:00","2020","10","27","01:00","-5.1","","-5.9","","94","","","M","6","","12","","","M","99.49","","","","-10","","NA"
"-128.65","66.24","FORT GOOD HOPE A","2201406","2020-10-27 02:00","2020","10","27","02:00","-5.3","","-6.1","","94","","","M","7","","10","","","M","99.56","","","","-10","","NA"
"-128.65","66.24","FORT GOOD HOPE A","2201406","2020-10-27 03:00","2020","10","27","03:00","-5.6","","-6.5","","93","","","M","8","","8","","","M","99.65","","","","-9","","NA"
"-128.65","66.24","FORT GOOD HOPE A","2201406","2020-10-27 04:00","2020","10","27","04:00","-5.9","","-6.9","","93","","","M","1","","3","","","M","99.75","","","","-7","","NA"
"-128.65","66.24","FORT GOOD HOPE A","2201406","2020-10-27 05:00","2020","10","27","05:00","-6.5","","-7.5","","93","","","M","34","","3","","","M","99.83","","","","-8","","NA"
"-128.65","66.24","FORT GOOD HOPE A","2201406","2020-10-27 06:00","2020","10","27","06:00","-6.7","","-7.8","","92","","","M","7","","1","","","M","99.93","","","","-7","","NA"
"-128.65","66.24","FORT GOOD HOPE A","2201406","2020-10-27 07:00","2020","10","27","07:00","-7.5","","-8.2","","94","","","M","11","","1","","","M","99.99","","","","-8","","NA"
"-128.65","66.24","FORT GOOD HOPE A","2201406","2020-10-27 08:00","2020","10","27","08:00","-7.1","","-7.8","","95","","","M","2","","3","","","M","100.08","","","","-9","","NA"
"-128.65","66.24","FORT GOOD HOPE A","2201406","2020-10-27 09:00","2020","10","27","09:00","-6.6","","-7.6","","93","","","M","26","","8","","","M","100.14","","","","-10","","NA"
"-128.65","66.24","FORT GOOD HOPE A","2201406","2020-10-27 10:00","2020","10","27","10:00","-8.0","","-8.7","","94","","","M","26","","21","","","M","100.22","","","","-16","","NA"
"-128.65","66.24","FORT GOOD HOPE A","2201406","2020-10-27 11:00","2020","10","27","11:00","-8.4","","-9.3","","93","","","M","26","","17","","","M","100.28","","","","-15","","NA"
"-128.65","66.24","FORT GOOD HOPE A","2201406","2020-10-27 12:00","2020","10","27","12:00","-8.4","","-9.8","","90","","","M","25","","13","","","M","100.32","","","","-14","","NA"
"-128.65","66.24","FORT GOOD HOPE A","2201406","2020-10-27 13:00","2020","10","27","13:00","-8.4","","-9.7","","90","","","M","25","","16","","","M","100.36","","","","-15","","NA"
"-128.65","66.24","FORT GOOD HOPE A","2201406","2020-10-27 14:00","2020","10","27","14:00","-8.3","","-9.4","","92","","","M","24","","12","","","M","100.39","","","","-14","","NA"
"-128.65","66.24","FORT GOOD HOPE A","2201406","2020-10-27 15:00","2020","10","27","15:00","-8.1","","-10.0","","86","","","M","25","","10","","","M","100.39","","","","-13","","NA"
"-128.65","66.24","FORT GOOD HOPE A","2201406","2020-10-27 16:00","2020","10","27","16:00","-8.8","","-10.6","","86","","","M","21","","9","","","M","100.40","","","","-13","","NA"
"-128.65","66.24","FORT GOOD HOPE A","2201406","2020-10-27 17:00","2020","10","27","17:00","-8.8","","-10.8","","86","","","M","21","","10","","","M","100.39","","","","-14","","NA"
"-128.65","66.24","FORT GOOD HOPE A","2201406","2020-10-27 18:00","2020","10","27","18:00","-10.2","","-11.5","","90","","","M","19","","12","","","M","100.41","","","","-16","","NA"
"-128.65","66.24","FORT GOOD HOPE A","2201406","2020-10-27 19:00","2020","10","27","19:00","-11.6","","-12.7","","92","","","M","16","","10","","","M","100.36","","","","-17","","NA"
"-128.65","66.24","FORT GOOD HOPE A","2201406","2020-10-27 20:00","2020","10","27","20:00","-11.8","","-13.2","","89","","","M","18","","12","","","M","100.31","","","","-18","","NA"
"-128.65","66.24","FORT GOOD HOPE A","2201406","2020-10-27 21:00","2020","10","27","21:00","-11.0","","-12.7","","87","","","M","18","","14","","","M","100.32","","","","-18","","NA"
"-128.65","66.24","FORT GOOD HOPE A","2201406","2020-10-27 22:00","2020","10","27","22:00","-10.1","","-11.7","","88","","","M","18","","13","","","M","100.31","","","","-16","","NA"
"-128.65","66.24","FORT GOOD HOPE A","2201406","2020-10-27 23:00","2020","10","27","23:00","-11.6","","-12.9","","90","","","M","18","","13","","","M","100.30","","","","-18","","NA"
"-128.65","66.24","FORT GOOD HOPE A","2201406","2020-10-28 00:00","2020","10","28","00:00","-11.6","","-12.8","","91","","","M","18","","12","","","M","100.28","","","","-18","","NA"
"-128.65","66.24","FORT GOOD HOPE A","2201406","2020-10-28 01:00","2020","10","28","01:00","-10.6","","-12.1","","89","","","M","19","","9","","","M","100.26","","","","-16","","NA"
"-128.65","66.24","FORT GOOD HOPE A","2201406","2020-10-28 02:00","2020","10","28","02:00","-10.1","","-11.6","","89","","","M","18","","9","","","M","100.23","","","","-15","","NA"
"-128.65","66.24","FORT GOOD HOPE A","2201406","2020-10-28 03:00","2020","10","28","03:00","-9.4","","-11.1","","87","","","M","22","","13","","","M","100.26","","","","-15","","NA"
"-128.65","66.24","FORT GOOD HOPE A","2201406","2020-10-28 04:00","2020","10","28","04:00","-9.0","","-10.8","","87","","","M","22","","11","","","M","100.29","","","","-14","","NA"
"-128.65","66.24","FORT GOOD HOPE A","2201406","2020-10-28 05:00","2020","10","28","05:00","-9.7","","-11.1","","89","","","M","18","","5","","","M","100.28","","","","-13","","NA"
"-128.65","66.24","FORT GOOD HOPE A","2201406","2020-10-28 06:00","2020","10","28","06:00","-11.7","","-12.8","","91","","","M","19","","4","","","M","100.32","","","","-14","","NA"
"-128.65","66.24","FORT GOOD HOPE A","2201406","2020-10-28 07:00","2020","10","28","07:00","-9.4","","-11.3","","86","","","M","30","","7","","","M","100.35","","","","-13","","NA"
"-128.65","66.24","FORT GOOD HOPE A","2201406","2020-10-28 08:00","2020","10","28","08:00","-11.3","","-12.2","","93","","","M","21","","9","","","M","100.37","","","","-16","","NA"
"-128.65","66.24","FORT GOOD HOPE A","2201406","2020-10-28 09:00","2020","10","28","09:00","-12.4","","-13.4","","92","","","M","22","","8","","","M","100.38","","","","-17","","NA"
"-128.65","66.24","FORT GOOD HOPE A","2201406","2020-10-28 10:00","2020","10","28","10:00","-11.4","","-12.3","","92","","","M","28","","7","","","M","100.41","","","","-16","","NA"
"-128.65","66.24","FORT GOOD HOPE A","2201406","2020-10-28 11:00","2020","10","28","11:00","-10.7","","-11.6","","94","","","M","28","","10","","","M","100.45","","","","-16","","NA"
"-128.65","66.24","FORT GOOD HOPE A","2201406","2020-10-28 12:00","2020","10","28","12:00","-10.2","","-11.2","","92","","","M","32","","8","","","M","100.51","","","","-15","","NA"
"-128.65","66.24","FORT GOOD HOPE A","2201406","2020-10-28 13:00","2020","10","28","13:00","-9.9","","-10.9","","92","","","M","32","","5","","","M","100.56","","","","-13","","NA"
"-128.65","66.24","FORT GOOD HOPE A","2201406","2020-10-28 14:00","2020","10","28","14:00","-8.7","","-10.8","","85","","","M","3","","3","","","M","100.62","","","","-10","","NA"
"-128.65","66.24","FORT GOOD HOPE A","2201406","2020-10-28 15:00","2020","10","28","15:00","-10.3","","-11.9","","88","","","M","10","","4","","","M","100.65","","","","-13","","NA"
"-128.65","66.24","FORT GOOD HOPE A","2201406","2020-10-28 16:00","2020","10","28","16:00","-10.9","","-12.6","","88","","","M","11","","8","","","M","100.67","","","","-16","","NA"
"-128.65","66.24","FORT GOOD HOPE A","2201406","2020-10-28 17:00","2020","10","28","17:00","-11.8","","-13.0","","91","","","M","16","","10","","","M","100.67","","","","-17","","NA"
"-128.65","66.24","FORT GOOD HOPE A","2201406","2020-10-28 18:00","2020","10","28","18:00","-13.7","","-14.8","","92","","","M","18","","8","","","M","100.71","","","","-19","","NA"
"-128.65","66.24","FORT GOOD HOPE A","2201406","2020-10-28 19:00","2020","10","28","19:00","-13.1","","-14.2","","91","","","M","17","","8","","","M","100.73","","","","-18","","NA"
"-128.65","66.24","FORT GOOD HOPE A","2201406","2020-10-28 20:00","2020","10","28","20:00","-12.8","","-13.7","","93","","","M","19","","12","","","M","100.74","","","","-19","","NA"
"-128.65","66.24","FORT GOOD HOPE A","2201406","2020-10-28 21:00","2020","10","28","21:00","-13.2","","-14.2","","92","","","M","18","","8","","","M","100.73","","","","-18","","NA"
"-128.65","66.24","FORT GOOD HOPE A","2201406","2020-10-28 22:00","2020","10","28","22:00","-13.8","","-14.9","","91","","","M","14","","9","","","M","100.75","","","","-19","","NA"
"-128.65","66.24","FORT GOOD HOPE A","2201406","2020-10-28 23:00","2020","10","28","23:00","-12.5","","-13.3","","93","","","M","18","","12","","","M","100.74","","","","-19","","NA"
"-128.65","66.24","FORT GOOD HOPE A","2201406","2020-10-29 00:00","2020","10","29","00:00","-12.1","","-13.2","","91","","","M","17","","5","","","M","100.79","","","","-15","","NA"
"-128.65","66.24","FORT GOOD HOPE A","2201406","2020-10-29 01:00","2020","10","29","01:00","-11.4","","-12.5","","91","","","M","19","","9","","","M","100.79","","","","-17","","NA"
"-128.65","66.24","FORT GOOD HOPE A","2201406","2020-10-29 02:00","2020","10","29","02:00","-11.4","","-12.5","","91","","","M","16","","1","","","M","100.81","","","","-12","","NA"
"-128.65","66.24","FORT GOOD HOPE A","2201406","2020-10-29 03:00","2020","10","29","03:00","-12.2","","-13.3","","91","","","M","13","","3","","","M","100.82","","","","-14","","NA"
"-128.65","66.24","FORT GOOD HOPE A","2201406","2020-10-29 04:00","2020","10","29","04:00","-11.0","","-12.1","","91","","","M","29","","4","","","M","100.86","","","","-13","","NA"
"-128.65","66.24","FORT GOOD HOPE A","2201406","2020-10-29 05:00","2020","10","29","05:00","-10.5","","-11.4","","93","","","M","14","","4","","","M","100.86","","","","-13","","NA"
"-128.65","66.24","FORT GOOD HOPE A","2201406","2020-10-29 06:00","2020","10","29","06:00","-9.3","","-10.1","","94","","","M","28","","9","","","M","100.88","","","","-14","","NA"
"-128.65","66.24","FORT GOOD HOPE A","2201406","2020-10-29 07:00","2020","10","29","07:00","-9.6","","-10.5","","93","","","M","28","","10","","","M","100.91","","","","-15","","NA"
"-128.65","66.24","FORT GOOD HOPE A","2201406","2020-10-29 08:00","2020","10","29","08:00","-10.4","","-11.4","","93","","","M","24","","8","","","M","100.93","","","","-15","","NA"
"-128.65","66.24","FORT GOOD HOPE A","2201406","2020-10-29 09:00","2020","10","29","09:00","-11.0","","-12.1","","91","","","M","20","","8","","","M","100.95","","","","-16","","NA"
"-128.65","66.24","FORT GOOD HOPE A","2201406","2020-10-29 10:00","2020","10","29","10:00","-10.8","","-11.8","","92","","","M","25","","6","","","M","100.97","","","","-14","","NA"
"-128.65","66.24","FORT GOOD HOPE A","2201406","2020-10-29 11:00","2020","10","29","11:00","-10.3","","-11.5","","91","","","M","23","","7","","","M","100.97","","","","-14","","NA"
"-128.65","66.24","FORT GOOD HOPE A","2201406","2020-10-29 12:00","2020","10","29","12:00","-10.0","","-11.1","","92","","","M","24","","7","","","M","100.99","","","","-14","","NA"
"-128.65","66.24","FORT GOOD HOPE A","2201406","2020-10-29 13:00","2020","10","29","13:00","-9.9","","-11.0","","92","","","M","19","","5","","","M","100.98","","","","-13","","NA"
"-128.65","66.24","FORT GOOD HOPE A","2201406","2020-10-29 14:00","2020","10","29","14:00","-10.1","","-11.3","","91","","","M","22","","8","","","M","100.98","","","","-15","","NA"
"-128.65","66.24","FORT GOOD HOPE A","2201406","2020-10-29 15:00","2020","10","29","15:00","-10.0","","-11.2","","91","","","M","23","","8","","","M","100.95","","","","-14","","NA"
"-128.65","66.24","FORT GOOD HOPE A","2201406","2020-10-29 16:00","2020","10","29","16:00","-10.0","","-11.1","","92","","","M","21","","5","","","M","100.94","","","","-13","","NA"
"-128.65","66.24","FORT GOOD HOPE A","2201406","2020-10-29 17:00","2020","10","29","17:00","-10.6","","-11.6","","92","","","M","20","","5","","","M","100.91","","","","-14","","NA"
"-128.65","66.24","FORT GOOD HOPE A","2201406","2020-10-29 18:00","2020","10","29","18:00","-10.8","","-11.8","","93","","","M","18","","8","","","M","100.89","","","","-15","","NA"
"-128.65","66.24","FORT GOOD HOPE A","2201406","2020-10-29 19:00","2020","10","29","19:00","-11.1","","-12.0","","93","","","M","17","","3","","","M","100.88","","","","-13","","NA"
"-128.65","66.24","FORT GOOD HOPE A","2201406","2020-10-29 20:00","2020","10","29","20:00","-11.6","","-12.6","","92","","","M","17","","5","","","M","100.84","","","","-15","","NA"
"-128.65","66.24","FORT GOOD HOPE A","2201406","2020-10-29 21:00","2020","10","29","21:00","-11.9","","-13.0","","92","","","M","16","","7","","","M","100.82","","","","-16","","NA"
"-128.65","66.24","FORT GOOD HOPE A","2201406","2020-10-29 22:00","2020","10","29","22:00","-12.5","","-13.6","","92","","","M","17","","5","","","M","100.78","","","","-16","","NA"
"-128.65","66.24","FORT GOOD HOPE A","2201406","2020-10-29 23:00","2020","10","29","23:00","-12.7","","-13.7","","93","","","M","18","","4","","","M","100.73","","","","-15","","NA"
"-128.65","66.24","FORT GOOD HOPE A","2201406","2020-10-30 00:00","2020","10","30","00:00","-12.7","","-13.8","","91","","","M","6","","6","","","M","100.67","","","","-17","","NA"
"-128.65","66.24","FORT GOOD HOPE A","2201406","2020-10-30 01:00","2020","10","30","01:00","-13.1","","-14.3","","90","","","M","6","","6","","","M","100.66","","","","-17","","NA"
"-128.65","66.24","FORT GOOD HOPE A","2201406","2020-10-30 02:00","2020","10","30","02:00","-14.0","","-15.2","","91","","","M","7","","9","","","M","100.63","","","","-20","","NA"
"-128.65","66.24","FORT GOOD HOPE A","2201406","2020-10-30 03:00","2020","10","30","03:00","-14.3","","-15.5","","91","","","M","6","","9","","","M","100.58","","","","-20","","NA"
"-128.65","66.24","FORT GOOD HOPE A","2201406","2020-10-30 04:00","2020","10","30","04:00","-15.3","","-16.5","","90","","","M","8","","6","","","M","100.52","","","","-20","","NA"
"-128.65","66.24","FORT GOOD HOPE A","2201406","2020-10-30 05:00","2020","10","30","05:00","-17.5","","-18.8","","90","","","M","9","","7","","","M","100.48","","","","-23","","NA"
"-128.65","66.24","FORT GOOD HOPE A","2201406","2020-10-30 06:00","2020","10","30","06:00","-17.1","","-18.5","","88","","","M","7","","8","","","M","100.46","","","","-23","","NA"
"-128.65","66.24","FORT GOOD HOPE A","2201406","2020-10-30 07:00","2020","10","30","07:00","-18.5","","-19.9","","89","","","M","9","","3","","","M","100.42","","","","-21","","NA"
"-128.65","66.24","FORT GOOD HOPE A","2201406","2020-10-30 08:00","2020","10","30","08:00","-17.2","","-18.7","","88","","","M","8","","7","","","M","100.41","","","","-22","","NA"
"-128.65","66.24","FORT GOOD HOPE A","2201406","2020-10-30 09:00","2020","10","30","09:00","-17.6","","-19.1","","88","","","M","6","","3","","","M","100.38","","","","-20","","NA"
"-128.65","66.24","FORT GOOD HOPE A","2201406","2020-10-30 10:00","2020","10","30","10:00","-16.0","","-17.4","","88","","","M","2","","5","","","M","100.34","","","","-20","","NA"
"-128.65","66.24","FORT GOOD HOPE A","2201406","2020-10-30 11:00","2020","10","30","11:00","-15.2","","-16.7","","88","","","M","5","","7","","","M","100.30","","","","-20","","NA"
"-128.65","66.24","FORT GOOD HOPE A","2201406","2020-10-30 12:00","2020","10","30","12:00","-14.8","","-16.4","","88","","","M","6","","8","","","M","100.27","","","","-20","","NA"
"-128.65","66.24","FORT GOOD HOPE A","2201406","2020-10-30 13:00","2020","10","30","13:00","-14.4","","-15.9","","88","","","M","6","","7","","","M","100.26","","","","-19","","NA"
"-128.65","66.24","FORT GOOD HOPE A","2201406","2020-10-30 14:00","2020","10","30","14:00","-14.1","","-15.7","","88","","","M","5","","8","","","M","100.24","","","","-19","","NA"
"-128.65","66.24","FORT GOOD HOPE A","2201406","2020-10-30 15:00","2020","10","30","15:00","-13.7","","-15.2","","88","","","M","4","","5","","","M","100.24","","","","-17","","NA"
"-128.65","66.24","FORT GOOD HOPE A","2201406","2020-10-30 16:00","2020","10","30","16:00","-13.4","","-14.8","","89","","","M","4","","9","","","M","100.23","","","","-19","","NA"
"-128.65","66.24","FORT GOOD HOPE A","2201406","2020-10-30 17:00","2020","10","30","17:00","-13.6","","-15.1","","89","","","M","3","","7","","","M","100.24","","","","-18","","NA"
"-128.65","66.24","FORT GOOD HOPE A","2201406","2020-10-30 18:00","2020","10","30","18:00","-13.5","","-15.0","","89","","","M","4","","4","","","M","100.26","","","","-16","","NA"
"-128.65","66.24","FORT GOOD HOPE A","2201406","2020-10-30 19:00","2020","10","30","19:00","-13.6","","-15.1","","89","","","M","2","","3","","","M","100.26","","","","-16","","NA"
"-128.65","66.24","FORT GOOD HOPE A","2201406","2020-10-30 20:00","2020","10","30","20:00","-13.8","","-15.3","","89","","","M","2","","2","","","M","100.24","","","","-15","","NA"
"-128.65","66.24","FORT GOOD HOPE A","2201406","2020-10-30 21:00","2020","10","30","21:00","-13.5","","-15.0","","89","","","M","3","","2","","","M","100.26","","","","-15","","NA"
"-128.65","66.24","FORT GOOD HOPE A","2201406","2020-10-30 22:00","2020","10","30","22:00","-13.8","","-15.2","","90","","","M","33","","1","","","M","100.29","","","","-14","","NA"
"-128.65","66.24","FORT GOOD HOPE A","2201406","2020-10-30 23:00","2020","10","30","23:00","-14.0","","-15.4","","89","","","M","19","","3","","","M","100.29","","","","-16","","NA"
"-128.65","66.24","FORT GOOD HOPE A","2201406","2020-10-31 00:00","2020","10","31","00:00","-14.5","","-15.9","","89","","","M","24","","5","","","M","100.29","","","","-18","","NA"
"-128.65","66.24","FORT GOOD HOPE A","2201406","2020-10-31 01:00","2020","10","31","01:00","-15.5","","-17.0","","88","","","M","24","","8","","","M","100.32","","","","-21","","NA"
"-128.65","66.24","FORT GOOD HOPE A","2201406","2020-10-31 02:00","2020","10","31","02:00","-16.4","","-18.1","","87","","","M","23","","9","","","M","100.35","","","","-22","","NA"
"-128.65","66.24","FORT GOOD HOPE A","2201406","2020-10-31 03:00","2020","10","31","03:00","-16.4","","-18.1","","87","","","M","24","","12","","","M","100.35","","","","-24","","NA"
"-128.65","66.24","FORT GOOD HOPE A","2201406","2020-10-31 04:00","2020","10","31","04:00","-18.1","","-19.9","","86","","","M","23","","8","","","M","100.37","","","","-24","","NA"
"-128.65","66.24","FORT GOOD HOPE A","2201406","2020-10-31 05:00","2020","10","31","05:00","-19.0","","-20.7","","87","","","M","23","","8","","","M","100.38","","","","-25","","NA"
"-128.65","66.24","FORT GOOD HOPE A","2201406","2020-10-31 06:00","2020","10","31","06:00","-19.4","","-21.1","","87","","","M","23","","9","","","M","100.38","","","","-26","","NA"
"-128.65","66.24","FORT GOOD HOPE A","2201406","2020-10-31 07:00","2020","10","31","07:00","-19.9","","-21.4","","88","","","M","18","","1","","","M","100.39","","","","-21","","NA"
"-128.65","66.24","FORT GOOD HOPE A","2201406","2020-10-31 08:00","2020","10","31","08:00","-22.7","","-24.7","","84","","","M","16","","9","","","M","100.41","","","","-30","","NA"
"-128.65","66.24","FORT GOOD HOPE A","2201406","2020-10-31 09:00","2020","10","31","09:00","-22.1","","-23.8","","86","","","M","19","","12","","","M","100.39","","","","-31","","NA"
"-128.65","66.24","FORT GOOD HOPE A","2201406","2020-10-31 10:00","2020","10","31","10:00","-22.2","","-24.0","","85","","","M","20","","10","","","M","100.37","","","","-30","","NA"
"-128.65","66.24","FORT GOOD HOPE A","2201406","2020-10-31 11:00","2020","10","31","11:00","-20.8","","-22.5","","86","","","M","20","","12","","","M","100.38","","","","-29","","NA"
"-128.65","66.24","FORT GOOD HOPE A","2201406","2020-10-31 12:00","2020","10","31","12:00","-19.2","","-20.9","","87","","","M","19","","8","","","M","100.38","","","","-25","","NA"
"-128.65","66.24","FORT GOOD HOPE A","2201406","2020-10-31 13:00","2020","10","31","13:00","-17.4","","-19.1","","87","","","M","21","","11","","","M","100.39","","","","-25","","NA"
"-128.65","66.24","FORT GOOD HOPE A","2201406","2020-10-31 14:00","2020","10","31","14:00","-16.8","","-18.5","","87","","","M","21","","7","","","M","100.37","","","","-22","","NA"
"-128.65","66.24","FORT GOOD HOPE A","2201406","2020-10-31 15:00","2020","10","31","15:00","-16.6","","-18.2","","87","","","M","24","","8","","","M","100.34","","","","-22","","NA"
"-128.65","66.24","FORT GOOD HOPE A","2201406","2020-10-31 16:00","2020","10","31","16:00","-16.3","","-18.1","","86","","","M","21","","5","","","M","100.32","","","","-20","","NA"
"-128.65","66.24","FORT GOOD HOPE A","2201406","2020-10-31 17:00","2020","10","31","17:00","-16.6","","-18.8","","84","","","M","27","","8","","","M","100.27","","","","-22","","NA"
"-128.65","66.24","FORT GOOD HOPE A","2201406","2020-10-31 18:00","2020","10","31","18:00","-20.3","","-22.0","","86","","","M","19","","9","","","M","100.28","","","","-27","","NA"
"-128.65","66.24","FORT GOOD HOPE A","2201406","2020-10-31 19:00","2020","10","31","19:00","-20.6","","-22.2","","87","","","M","20","","12","","","M","100.28","","","","-29","","NA"
"-128.65","66.24","FORT GOOD HOPE A","2201406","2020-10-31 20:00","2020","10","31","20:00","-20.9","","-22.5","","87","","","M","22","","8","","","M","100.31","","","","-27","","NA"
"-128.65","66.24","FORT GOOD HOPE A","2201406","2020-10-31 21:00","2020","10","31","21:00","-21.4","","-23.1","","86","","","M","21","","8","","","M","100.32","","","","-28","","NA"
"-128.65","66.24","FORT GOOD HOPE A","2201406","2020-10-31 22:00","2020","10","31","22:00","-22.4","","-24.4","","84","","","M","20","","14","","","M","100.34","","","","-32","","NA"
"-128.65","66.24","FORT GOOD HOPE A","2201406","2020-10-31 23:00","2020","10","31","23:00","-22.5","","-24.4","","85","","","M","24","","10","","","M","100.36","","","","-30","","NA"
