"Longitude (x)","Latitude (y)","Station Name","Climate ID","Date/Time (LST)","Year","Month","Day","Time (LST)","Temp (°C)","Temp Flag","Dew Point Temp (°C)","Dew Point Temp Flag","Rel Hum (%)","Rel Hum Flag","Precip. Amount (mm)","Precip. Amount Flag","Wind Dir (10s deg)","Wind Dir Flag","Wind Spd (km/h)","Wind Spd Flag","Visibility (km)","Visibility Flag","Stn Press (kPa)","Stn Press Flag","Hmdx","Hmdx Flag","Wind Chill","Wind Chill Flag","Weather"
"-140.15","69.16","IVVAVIK NAT. PARK","2100660","2022-01-01 00:00","2022","01","01","00:00","-27.5","","-32.4","","63","","0.0","","3","","13","","","","99.03","","","","-38","","NA"
"-140.15","69.16","IVVAVIK NAT. PARK","2100660","2022-01-01 01:00","2022","01","01","01:00","-27.8","","-33.2","","60","","0.0","","5","","14","","","","99.08","","","","-38","","NA"
"-140.15","69.16","IVVAVIK NAT. PARK","2100660","2022-01-01 02:00","2022","01","01","02:00","-27.8","","-33.3","","59","","0.0","","4","","11","","","","99.12","","","","-37","","NA"
"-140.15","69.16","IVVAVIK NAT. PARK","2100660","2022-01-01 03:00","2022","01","01","03:00","-27.6","","-33.0","","60","","0.0","","4","","13","","","","99.13","","","","-38","","NA"
"-140.15","69.16","IVVAVIK NAT. PARK","2100660","2022-01-01 04:00","2022","01","01","04:00","-27.3","","-32.2","","63","","0.0","","3","","15","","","","99.17","","","","-38","","NA"
"-140.15","69.16","IVVAVIK NAT. PARK","2100660","2022-01-01 05:00","2022","01","01","05:00","-27.9","","-32.9","","62","","0.0","","3","","23","","","","99.21","","","","-41","","NA"
"-140.15","69.16","IVVAVIK NAT. PARK","2100660","2022-01-01 06:00","2022","01","01","06:00","-27.6","","-32.7","","62","","0.0","","2","","15","","","","99.27","","","","-38","","NA"
"-140.15","69.16","IVVAVIK NAT. PARK","2100660","2022-01-01 07:00","2022","01","01","07:00","-27.1","","-32.3","","61","","0.0","","3","","15","","","","99.31","","","","-38","","NA"
"-140.15","69.16","IVVAVIK NAT. PARK","2100660","2022-01-01 08:00","2022","01","01","08:00","-26.8","","-31.8","","63","","0.0","","2","","15","","","","99.38","","","","-37","","NA"
"-140.15","69.16","IVVAVIK NAT. PARK","2100660","2022-01-01 09:00","2022","01","01","09:00","-27.2","","-32.2","","63","","0.0","","2","","17","","","","99.47","","","","-39","","NA"
"-140.15","69.16","IVVAVIK NAT. PARK","2100660","2022-01-01 10:00","2022","01","01","10:00","-27.1","","-32.0","","63","","0.0","","3","","20","","","","99.53","","","","-39","","NA"
"-140.15","69.16","IVVAVIK NAT. PARK","2100660","2022-01-01 11:00","2022","01","01","11:00","-27.2","","-32.2","","62","","0.0","","5","","17","","","","99.60","","","","-39","","NA"
"-140.15","69.16","IVVAVIK NAT. PARK","2100660","2022-01-01 12:00","2022","01","01","12:00","-26.8","","-31.9","","62","","0.0","","3","","10","","","","99.69","","","","-35","","NA"
"-140.15","69.16","IVVAVIK NAT. PARK","2100660","2022-01-01 13:00","2022","01","01","13:00","-26.5","","-31.8","","61","","0.0","","2","","15","","","","99.77","","","","-37","","NA"
"-140.15","69.16","IVVAVIK NAT. PARK","2100660","2022-01-01 14:00","2022","01","01","14:00","-26.4","","-31.2","","63","","0.0","","5","","6","","","","99.86","","","","-32","","NA"
"-140.15","69.16","IVVAVIK NAT. PARK","2100660","2022-01-01 15:00","2022","01","01","15:00","-25.4","","-30.6","","62","","0.0","","1","","23","","","","99.94","","","","-38","","NA"
"-140.15","69.16","IVVAVIK NAT. PARK","2100660","2022-01-01 16:00","2022","01","01","16:00","-25.7","","-31.1","","60","","0.0","","1","","24","","","","100.03","","","","-39","","NA"
"-140.15","69.16","IVVAVIK NAT. PARK","2100660","2022-01-01 17:00","2022","01","01","17:00","-25.6","","-31.0","","61","","0.0","","36","","21","","","","100.08","","","","-38","","NA"
"-140.15","69.16","IVVAVIK NAT. PARK","2100660","2022-01-01 18:00","2022","01","01","18:00","-25.6","","-31.5","","58","","0.0","","2","","16","","","","100.21","","","","-36","","NA"
"-140.15","69.16","IVVAVIK NAT. PARK","2100660","2022-01-01 19:00","2022","01","01","19:00","-25.7","","-31.2","","60","","0.0","","36","","16","","","","100.30","","","","-36","","NA"
"-140.15","69.16","IVVAVIK NAT. PARK","2100660","2022-01-01 20:00","2022","01","01","20:00","-25.5","","-31.0","","60","","0.0","","2","","16","","","","100.39","","","","-36","","NA"
"-140.15","69.16","IVVAVIK NAT. PARK","2100660","2022-01-01 21:00","2022","01","01","21:00","-25.5","","-30.6","","62","","0.0","","1","","23","","","","100.44","","","","-38","","NA"
"-140.15","69.16","IVVAVIK NAT. PARK","2100660","2022-01-01 22:00","2022","01","01","22:00","-25.1","","-30.7","","60","","0.0","","1","","31","","","","100.49","","","","-39","","NA"
"-140.15","69.16","IVVAVIK NAT. PARK","2100660","2022-01-01 23:00","2022","01","01","23:00","-24.7","","-30.5","","59","","0.0","","36","","25","","","","100.59","","","","-38","","NA"
"-140.15","69.16","IVVAVIK NAT. PARK","2100660","2022-01-02 00:00","2022","01","02","00:00","-25.4","","-30.6","","62","","0.0","","1","","26","","","","100.69","","","","-39","","NA"
"-140.15","69.16","IVVAVIK NAT. PARK","2100660","2022-01-02 01:00","2022","01","02","01:00","-25.1","","-30.5","","60","","0.0","","1","","26","","","","100.77","","","","-38","","NA"
"-140.15","69.16","IVVAVIK NAT. PARK","2100660","2022-01-02 02:00","2022","01","02","02:00","-25.0","","-30.7","","59","","0.0","","36","","16","","","","100.89","","","","-36","","NA"
"-140.15","69.16","IVVAVIK NAT. PARK","2100660","2022-01-02 03:00","2022","01","02","03:00","-25.2","","-30.8","","59","","0.0","","1","","22","","","","100.97","","","","-38","","NA"
"-140.15","69.16","IVVAVIK NAT. PARK","2100660","2022-01-02 04:00","2022","01","02","04:00","-25.0","","-30.8","","58","","0.0","","36","","22","","","","101.01","","","","-37","","NA"
"-140.15","69.16","IVVAVIK NAT. PARK","2100660","2022-01-02 05:00","2022","01","02","05:00","-25.0","","-30.6","","60","","0.0","","1","","24","","","","101.02","","","","-38","","NA"
"-140.15","69.16","IVVAVIK NAT. PARK","2100660","2022-01-02 06:00","2022","01","02","06:00","-24.6","","-30.5","","58","","0.0","","36","","25","","","","101.09","","","","-38","","NA"
"-140.15","69.16","IVVAVIK NAT. PARK","2100660","2022-01-02 07:00","2022","01","02","07:00","-25.6","","-30.7","","62","","0.0","","1","","17","","","","101.17","","","","-37","","NA"
"-140.15","69.16","IVVAVIK NAT. PARK","2100660","2022-01-02 08:00","2022","01","02","08:00","-25.1","","-30.2","","63","","0.0","","1","","15","","","","101.23","","","","-35","","NA"
"-140.15","69.16","IVVAVIK NAT. PARK","2100660","2022-01-02 09:00","2022","01","02","09:00","-24.7","","-30.1","","61","","0.0","","3","","22","","","","101.24","","","","-37","","NA"
"-140.15","69.16","IVVAVIK NAT. PARK","2100660","2022-01-02 10:00","2022","01","02","10:00","-24.2","","-29.8","","60","","0.0","","36","","17","","","","101.30","","","","-35","","NA"
"-140.15","69.16","IVVAVIK NAT. PARK","2100660","2022-01-02 11:00","2022","01","02","11:00","-24.1","","-30.3","","57","","0.1","","1","","22","","","","101.28","","","","-36","","NA"
"-140.15","69.16","IVVAVIK NAT. PARK","2100660","2022-01-02 12:00","2022","01","02","12:00","-24.1","","-29.8","","59","","0.0","","1","","16","","","","101.32","","","","-34","","NA"
"-140.15","69.16","IVVAVIK NAT. PARK","2100660","2022-01-02 13:00","2022","01","02","13:00","-24.0","","-30.2","","57","","0.0","","1","","19","","","","101.37","","","","-35","","NA"
"-140.15","69.16","IVVAVIK NAT. PARK","2100660","2022-01-02 14:00","2022","01","02","14:00","-23.9","","-29.7","","58","","0.0","","1","","9","","","","101.39","","","","-31","","NA"
"-140.15","69.16","IVVAVIK NAT. PARK","2100660","2022-01-02 15:00","2022","01","02","15:00","-24.0","","-29.8","","59","","0.0","","4","","11","","","","101.44","","","","-32","","NA"
"-140.15","69.16","IVVAVIK NAT. PARK","2100660","2022-01-02 16:00","2022","01","02","16:00","-24.0","","-29.7","","59","","0.0","","2","","12","","","","101.46","","","","-33","","NA"
"-140.15","69.16","IVVAVIK NAT. PARK","2100660","2022-01-02 17:00","2022","01","02","17:00","-23.8","","-29.9","","57","","0.0","","3","","12","","","","101.47","","","","-33","","NA"
"-140.15","69.16","IVVAVIK NAT. PARK","2100660","2022-01-02 18:00","2022","01","02","18:00","-23.8","","-29.7","","58","","0.0","","3","","13","","","","101.48","","","","-33","","NA"
"-140.15","69.16","IVVAVIK NAT. PARK","2100660","2022-01-02 19:00","2022","01","02","19:00","-23.7","","-29.8","","57","","0.0","","3","","16","","","","101.51","","","","-34","","NA"
"-140.15","69.16","IVVAVIK NAT. PARK","2100660","2022-01-02 20:00","2022","01","02","20:00","-23.4","","-28.8","","61","","0.0","","4","","10","","","","101.50","","","","-31","","NA"
"-140.15","69.16","IVVAVIK NAT. PARK","2100660","2022-01-02 21:00","2022","01","02","21:00","-23.1","","-28.2","","63","","0.0","","1","","12","","","","101.52","","","","-32","","NA"
"-140.15","69.16","IVVAVIK NAT. PARK","2100660","2022-01-02 22:00","2022","01","02","22:00","-23.4","","-27.8","","67","","0.0","","3","","12","","","","101.52","","","","-32","","NA"
"-140.15","69.16","IVVAVIK NAT. PARK","2100660","2022-01-02 23:00","2022","01","02","23:00","-23.4","","-28.0","","66","","0.0","","1","","12","","","","101.52","","","","-32","","NA"
"-140.15","69.16","IVVAVIK NAT. PARK","2100660","2022-01-03 00:00","2022","01","03","00:00","-23.0","","-27.2","","68","","0.0","","36","","13","","","","101.55","","","","-32","","NA"
"-140.15","69.16","IVVAVIK NAT. PARK","2100660","2022-01-03 01:00","2022","01","03","01:00","-23.2","","-27.2","","70","","0.0","","36","","12","","","","101.57","","","","-32","","NA"
"-140.15","69.16","IVVAVIK NAT. PARK","2100660","2022-01-03 02:00","2022","01","03","02:00","-22.9","","-27.3","","67","","0.0","","1","","11","","","","101.60","","","","-31","","NA"
"-140.15","69.16","IVVAVIK NAT. PARK","2100660","2022-01-03 03:00","2022","01","03","03:00","-23.5","","-27.7","","68","","0.0","","2","","8","","","","101.59","","","","-30","","NA"
"-140.15","69.16","IVVAVIK NAT. PARK","2100660","2022-01-03 04:00","2022","01","03","04:00","-23.1","","-27.8","","65","","0.0","","34","","6","","","","101.59","","","","-29","","NA"
"-140.15","69.16","IVVAVIK NAT. PARK","2100660","2022-01-03 05:00","2022","01","03","05:00","-23.1","","-28.0","","64","","0.0","","35","","5","","","","101.60","","","","-28","","NA"
"-140.15","69.16","IVVAVIK NAT. PARK","2100660","2022-01-03 06:00","2022","01","03","06:00","-23.3","","-28.1","","65","","0.0","","36","","8","","","","101.61","","","","-30","","NA"
"-140.15","69.16","IVVAVIK NAT. PARK","2100660","2022-01-03 07:00","2022","01","03","07:00","-24.1","","-28.5","","67","","0.0","","1","","10","","","","101.65","","","","-32","","NA"
"-140.15","69.16","IVVAVIK NAT. PARK","2100660","2022-01-03 08:00","2022","01","03","08:00","-24.9","","-28.5","","72","","0.0","","4","","8","","","","101.66","","","","-32","","NA"
"-140.15","69.16","IVVAVIK NAT. PARK","2100660","2022-01-03 09:00","2022","01","03","09:00","-25.6","","-29.4","","70","","0.0","","1","","3","","","","101.68","","","","-29","","NA"
"-140.15","69.16","IVVAVIK NAT. PARK","2100660","2022-01-03 10:00","2022","01","03","10:00","-27.0","","-30.4","","73","","0.0","","","","0","","","","101.70","","","","","","NA"
"-140.15","69.16","IVVAVIK NAT. PARK","2100660","2022-01-03 11:00","2022","01","03","11:00","-29.1","","-32.4","","73","","0.0","","0","","1","","","","101.70","","","","-30","","NA"
"-140.15","69.16","IVVAVIK NAT. PARK","2100660","2022-01-03 12:00","2022","01","03","12:00","-29.7","","-33.1","","73","","0.0","","20","","4","","","","101.74","","","","-34","","NA"
"-140.15","69.16","IVVAVIK NAT. PARK","2100660","2022-01-03 13:00","2022","01","03","13:00","-30.1","","-33.6","","71","","0.0","","20","","3","","","","101.76","","","","-33","","NA"
"-140.15","69.16","IVVAVIK NAT. PARK","2100660","2022-01-03 14:00","2022","01","03","14:00","-31.3","","-35.0","","70","","0.0","","20","","4","","","","101.78","","","","-36","","NA"
"-140.15","69.16","IVVAVIK NAT. PARK","2100660","2022-01-03 15:00","2022","01","03","15:00","-31.5","","-35.3","","70","","0.0","","19","","4","","","","101.80","","","","-36","","NA"
"-140.15","69.16","IVVAVIK NAT. PARK","2100660","2022-01-03 16:00","2022","01","03","16:00","-32.4","","-36.2","","69","","0.0","","19","","7","","","","101.80","","","","-40","","NA"
"-140.15","69.16","IVVAVIK NAT. PARK","2100660","2022-01-03 17:00","2022","01","03","17:00","-33.1","","-37.1","","68","","0.0","","19","","8","","","","101.80","","","","-42","","NA"
"-140.15","69.16","IVVAVIK NAT. PARK","2100660","2022-01-03 18:00","2022","01","03","18:00","-33.6","","-37.5","","68","","0.0","","19","","6","","","","101.82","","","","-41","","NA"
"-140.15","69.16","IVVAVIK NAT. PARK","2100660","2022-01-03 19:00","2022","01","03","19:00","-32.9","","-36.8","","68","","0.0","","19","","6","","","","101.80","","","","-40","","NA"
"-140.15","69.16","IVVAVIK NAT. PARK","2100660","2022-01-03 20:00","2022","01","03","20:00","-33.0","","-37.0","","67","","0.0","","17","","8","","","","101.80","","","","-41","","NA"
"-140.15","69.16","IVVAVIK NAT. PARK","2100660","2022-01-03 21:00","2022","01","03","21:00","-33.9","","-37.8","","67","","0.0","","20","","7","","","","101.79","","","","-42","","NA"
"-140.15","69.16","IVVAVIK NAT. PARK","2100660","2022-01-03 22:00","2022","01","03","22:00","-33.7","","-37.7","","67","","0.0","","19","","9","","","","101.77","","","","-43","","NA"
"-140.15","69.16","IVVAVIK NAT. PARK","2100660","2022-01-03 23:00","2022","01","03","23:00","-34.0","","-37.9","","67","","0.0","","20","","9","","","","101.75","","","","-43","","NA"
"-140.15","69.16","IVVAVIK NAT. PARK","2100660","2022-01-04 00:00","2022","01","04","00:00","-33.4","","-37.5","","67","","0.0","","17","","11","","","","101.74","","","","-44","","NA"
"-140.15","69.16","IVVAVIK NAT. PARK","2100660","2022-01-04 01:00","2022","01","04","01:00","-33.0","","-37.1","","67","","0.0","","17","","13","","","","101.73","","","","-44","","NA"
"-140.15","69.16","IVVAVIK NAT. PARK","2100660","2022-01-04 02:00","2022","01","04","02:00","-33.9","","-37.8","","68","","0.0","","18","","11","","","","101.71","","","","-44","","NA"
"-140.15","69.16","IVVAVIK NAT. PARK","2100660","2022-01-04 03:00","2022","01","04","03:00","-34.0","","-38.0","","67","","0.0","","19","","10","","","","101.72","","","","-44","","NA"
"-140.15","69.16","IVVAVIK NAT. PARK","2100660","2022-01-04 04:00","2022","01","04","04:00","-33.1","","-37.1","","67","","0.0","","16","","15","","","","101.67","","","","-45","","NA"
"-140.15","69.16","IVVAVIK NAT. PARK","2100660","2022-01-04 05:00","2022","01","04","05:00","-33.1","","-37.2","","67","","0.0","","18","","14","","","","101.61","","","","-45","","NA"
"-140.15","69.16","IVVAVIK NAT. PARK","2100660","2022-01-04 06:00","2022","01","04","06:00","-33.6","","-37.5","","68","","0.0","","18","","11","","","","101.56","","","","-44","","NA"
"-140.15","69.16","IVVAVIK NAT. PARK","2100660","2022-01-04 07:00","2022","01","04","07:00","-33.8","","-37.7","","68","","0.0","","19","","11","","","","101.52","","","","-44","","NA"
"-140.15","69.16","IVVAVIK NAT. PARK","2100660","2022-01-04 08:00","2022","01","04","08:00","-33.9","","-37.9","","67","","0.0","","20","","10","","","","101.42","","","","-44","","NA"
"-140.15","69.16","IVVAVIK NAT. PARK","2100660","2022-01-04 09:00","2022","01","04","09:00","-32.5","","-36.4","","68","","0.0","","19","","10","","","","101.38","","","","-42","","NA"
"-140.15","69.16","IVVAVIK NAT. PARK","2100660","2022-01-04 10:00","2022","01","04","10:00","-32.0","","-35.9","","69","","0.0","","18","","11","","","","101.30","","","","-42","","NA"
"-140.15","69.16","IVVAVIK NAT. PARK","2100660","2022-01-04 11:00","2022","01","04","11:00","-31.2","","-35.0","","69","","0.0","","19","","8","","","","101.19","","","","-39","","NA"
"-140.15","69.16","IVVAVIK NAT. PARK","2100660","2022-01-04 12:00","2022","01","04","12:00","-30.6","","-34.6","","68","","0.0","","19","","9","","","","101.14","","","","-39","","NA"
"-140.15","69.16","IVVAVIK NAT. PARK","2100660","2022-01-04 13:00","2022","01","04","13:00","-28.3","","-32.6","","67","","0.0","","16","","15","","","","101.06","","","","-39","","NA"
"-140.15","69.16","IVVAVIK NAT. PARK","2100660","2022-01-04 14:00","2022","01","04","14:00","-27.5","","-31.9","","66","","0.0","","19","","18","","","","101.00","","","","-39","","NA"
"-140.15","69.16","IVVAVIK NAT. PARK","2100660","2022-01-04 15:00","2022","01","04","15:00","-27.0","","-31.5","","66","","0.0","","18","","19","","","","100.93","","","","-39","","NA"
"-140.15","69.16","IVVAVIK NAT. PARK","2100660","2022-01-04 16:00","2022","01","04","16:00","-26.9","","-31.6","","64","","0.0","","17","","16","","","","100.87","","","","-38","","NA"
"-140.15","69.16","IVVAVIK NAT. PARK","2100660","2022-01-04 17:00","2022","01","04","17:00","-26.8","","-31.5","","64","","0.0","","20","","10","","","","100.85","","","","-35","","NA"
"-140.15","69.16","IVVAVIK NAT. PARK","2100660","2022-01-04 18:00","2022","01","04","18:00","-26.1","","-30.8","","64","","0.0","","19","","11","","","","100.79","","","","-35","","NA"
"-140.15","69.16","IVVAVIK NAT. PARK","2100660","2022-01-04 19:00","2022","01","04","19:00","-25.9","","-30.9","","63","","0.0","","20","","16","","","","100.74","","","","-37","","NA"
"-140.15","69.16","IVVAVIK NAT. PARK","2100660","2022-01-04 20:00","2022","01","04","20:00","-26.1","","-31.0","","63","","0.0","","22","","15","","","","100.68","","","","-37","","NA"
"-140.15","69.16","IVVAVIK NAT. PARK","2100660","2022-01-04 21:00","2022","01","04","21:00","-26.3","","-31.2","","64","","0.0","","21","","20","","","","100.64","","","","-38","","NA"
"-140.15","69.16","IVVAVIK NAT. PARK","2100660","2022-01-04 22:00","2022","01","04","22:00","-25.1","","-30.3","","62","","0.0","","20","","16","","","","100.57","","","","-36","","NA"
"-140.15","69.16","IVVAVIK NAT. PARK","2100660","2022-01-04 23:00","2022","01","04","23:00","-25.2","","-30.2","","63","","0.0","","21","","20","","","","100.53","","","","-37","","NA"
"-140.15","69.16","IVVAVIK NAT. PARK","2100660","2022-01-05 00:00","2022","01","05","00:00","-24.2","","-29.5","","61","","0.1","","22","","24","","","","100.50","","","","-37","","NA"
"-140.15","69.16","IVVAVIK NAT. PARK","2100660","2022-01-05 01:00","2022","01","05","01:00","-24.2","","-29.7","","61","","0.0","","22","","20","","","","100.43","","","","-36","","NA"
"-140.15","69.16","IVVAVIK NAT. PARK","2100660","2022-01-05 02:00","2022","01","05","02:00","-24.1","","-29.4","","62","","0.1","","20","","34","","","","100.37","","","","-39","","NA"
"-140.15","69.16","IVVAVIK NAT. PARK","2100660","2022-01-05 03:00","2022","01","05","03:00","-23.7","","-29.0","","62","","0.1","","20","","33","","","","100.29","","","","-38","","NA"
"-140.15","69.16","IVVAVIK NAT. PARK","2100660","2022-01-05 04:00","2022","01","05","04:00","-23.3","","-28.8","","61","","0.0","","20","","32","","","","100.19","","","","-37","","NA"
"-140.15","69.16","IVVAVIK NAT. PARK","2100660","2022-01-05 05:00","2022","01","05","05:00","-23.8","","-28.7","","64","","0.0","","20","","37","","","","100.12","","","","-39","","NA"
"-140.15","69.16","IVVAVIK NAT. PARK","2100660","2022-01-05 06:00","2022","01","05","06:00","-23.5","","-28.8","","62","","0.0","","21","","37","","","","100.02","","","","-38","","NA"
"-140.15","69.16","IVVAVIK NAT. PARK","2100660","2022-01-05 07:00","2022","01","05","07:00","-23.2","","-28.4","","63","","0.0","","20","","39","","","","99.93","","","","-38","","NA"
"-140.15","69.16","IVVAVIK NAT. PARK","2100660","2022-01-05 08:00","2022","01","05","08:00","-23.6","","-28.8","","62","","0.0","","20","","30","","","","99.94","","","","-37","","NA"
"-140.15","69.16","IVVAVIK NAT. PARK","2100660","2022-01-05 09:00","2022","01","05","09:00","-22.2","","-27.6","","62","","0.0","","20","","35","","","","99.83","","","","-36","","NA"
"-140.15","69.16","IVVAVIK NAT. PARK","2100660","2022-01-05 10:00","2022","01","05","10:00","-23.1","","-28.2","","63","","0.0","","20","","31","","","","99.79","","","","-37","","NA"
"-140.15","69.16","IVVAVIK NAT. PARK","2100660","2022-01-05 11:00","2022","01","05","11:00","-23.0","","-28.3","","62","","0.0","","19","","30","","","","99.73","","","","-36","","NA"
"-140.15","69.16","IVVAVIK NAT. PARK","2100660","2022-01-05 12:00","2022","01","05","12:00"
"-140.15","69.16","IVVAVIK NAT. PARK","2100660","2022-01-05 13:00","2022","01","05","13:00","-22.6","","-28.0","","61","","0.0","","19","","35","","","","99.57","","","","-37","","NA"
"-140.15","69.16","IVVAVIK NAT. PARK","2100660","2022-01-05 14:00","2022","01","05","14:00","-22.4","","-27.4","","63","","0.0","","20","","38","","","","99.50","","","","-37","","NA"
"-140.15","69.16","IVVAVIK NAT. PARK","2100660","2022-01-05 15:00","2022","01","05","15:00","-22.1","","-27.3","","62","","0.0","","20","","39","","","","99.44","","","","-37","","NA"
"-140.15","69.16","IVVAVIK NAT. PARK","2100660","2022-01-05 16:00","2022","01","05","16:00","-21.7","","-26.8","","63","","0.0","","21","","35","","","","99.39","","","","-36","","NA"
"-140.15","69.16","IVVAVIK NAT. PARK","2100660","2022-01-05 17:00","2022","01","05","17:00","-21.8","","-26.6","","65","","0.0","","21","","32","","","","99.33","","","","-35","","NA"
"-140.15","69.16","IVVAVIK NAT. PARK","2100660","2022-01-05 18:00","2022","01","05","18:00","-21.8","","-26.4","","66","","0.1","","21","","22","","","","99.33","","","","-33","","NA"
"-140.15","69.16","IVVAVIK NAT. PARK","2100660","2022-01-05 19:00","2022","01","05","19:00","-21.8","","-26.0","","69","","0.1","","20","","22","","","","99.33","","","","-33","","NA"
"-140.15","69.16","IVVAVIK NAT. PARK","2100660","2022-01-05 20:00","2022","01","05","20:00","-21.8","","-25.6","","71","","0.2","","19","","18","","","","99.29","","","","-32","","NA"
"-140.15","69.16","IVVAVIK NAT. PARK","2100660","2022-01-05 21:00","2022","01","05","21:00","-21.4","","-25.3","","71","","0.2","","20","","24","","","","99.23","","","","-33","","NA"
"-140.15","69.16","IVVAVIK NAT. PARK","2100660","2022-01-05 22:00","2022","01","05","22:00","-21.2","","-24.7","","73","","0.1","","17","","15","","","","99.23","","","","-31","","NA"
"-140.15","69.16","IVVAVIK NAT. PARK","2100660","2022-01-05 23:00","2022","01","05","23:00","-20.9","","-24.3","","74","","0.1","","18","","15","","","","99.16","","","","-30","","NA"
"-140.15","69.16","IVVAVIK NAT. PARK","2100660","2022-01-06 00:00","2022","01","06","00:00","-20.2","","-23.6","","74","","0.1","","19","","19","","","","99.12","","","","-30","","NA"
"-140.15","69.16","IVVAVIK NAT. PARK","2100660","2022-01-06 01:00","2022","01","06","01:00","-19.9","","-23.1","","75","","0.1","","17","","14","","","","99.12","","","","-29","","NA"
"-140.15","69.16","IVVAVIK NAT. PARK","2100660","2022-01-06 02:00","2022","01","06","02:00","-20.9","","-24.2","","75","","0.0","","16","","12","","","","99.08","","","","-29","","NA"
"-140.15","69.16","IVVAVIK NAT. PARK","2100660","2022-01-06 03:00","2022","01","06","03:00","-20.4","","-23.6","","75","","0.0","","17","","10","","","","99.05","","","","-28","","NA"
"-140.15","69.16","IVVAVIK NAT. PARK","2100660","2022-01-06 04:00","2022","01","06","04:00","-20.8","","-24.1","","75","","0.0","","20","","11","","","","99.01","","","","-29","","NA"
"-140.15","69.16","IVVAVIK NAT. PARK","2100660","2022-01-06 05:00","2022","01","06","05:00"
"-140.15","69.16","IVVAVIK NAT. PARK","2100660","2022-01-06 06:00","2022","01","06","06:00"
"-140.15","69.16","IVVAVIK NAT. PARK","2100660","2022-01-06 07:00","2022","01","06","07:00"
"-140.15","69.16","IVVAVIK NAT. PARK","2100660","2022-01-06 08:00","2022","01","06","08:00","-20.5","","-23.8","","75","","0.0","","25","","5","","","","98.89","","","","-25","","NA"
"-140.15","69.16","IVVAVIK NAT. PARK","2100660","2022-01-06 09:00","2022","01","06","09:00","-15.0","","-20.6","","62","","0.0","","34","","14","","","","98.92","","","","-23","","NA"
"-140.15","69.16","IVVAVIK NAT. PARK","2100660","2022-01-06 10:00","2022","01","06","10:00","-15.5","","-20.8","","64","","0.0","","34","","11","","","","98.93","","","","-22","","NA"
"-140.15","69.16","IVVAVIK NAT. PARK","2100660","2022-01-06 11:00","2022","01","06","11:00","-16.4","","-21.2","","66","","0.1","","34","","21","","","","98.94","","","","-26","","NA"
"-140.15","69.16","IVVAVIK NAT. PARK","2100660","2022-01-06 12:00","2022","01","06","12:00","-16.9","","-21.5","","68","","0.1","","33","","23","","","","98.95","","","","-27","","NA"
"-140.15","69.16","IVVAVIK NAT. PARK","2100660","2022-01-06 13:00","2022","01","06","13:00","-16.6","","-21.7","","65","","0.0","","34","","21","","","","98.93","","","","-26","","NA"
"-140.15","69.16","IVVAVIK NAT. PARK","2100660","2022-01-06 14:00","2022","01","06","14:00","-16.9","","-22.2","","64","","0.2","","34","","23","","","","98.95","","","","-27","","NA"
"-140.15","69.16","IVVAVIK NAT. PARK","2100660","2022-01-06 15:00","2022","01","06","15:00","-16.8","","-21.7","","66","","0.0","","35","","24","","","","98.96","","","","-27","","NA"
"-140.15","69.16","IVVAVIK NAT. PARK","2100660","2022-01-06 16:00","2022","01","06","16:00","-16.9","","-22.2","","63","","0.0","","1","","23","","","","98.94","","","","-27","","NA"
"-140.15","69.16","IVVAVIK NAT. PARK","2100660","2022-01-06 17:00","2022","01","06","17:00","-17.2","","-22.2","","65","","0.0","","36","","23","","","","98.91","","","","-28","","NA"
"-140.15","69.16","IVVAVIK NAT. PARK","2100660","2022-01-06 18:00","2022","01","06","18:00","-17.8","","-22.6","","66","","0.0","","36","","25","","","","98.92","","","","-29","","NA"
"-140.15","69.16","IVVAVIK NAT. PARK","2100660","2022-01-06 19:00","2022","01","06","19:00","-17.9","","-22.8","","65","","0.0","","35","","29","","","","98.97","","","","-30","","NA"
"-140.15","69.16","IVVAVIK NAT. PARK","2100660","2022-01-06 20:00","2022","01","06","20:00","-18.0","","-22.7","","66","","0.0","","34","","23","","","","98.98","","","","-29","","NA"
"-140.15","69.16","IVVAVIK NAT. PARK","2100660","2022-01-06 21:00","2022","01","06","21:00","-17.8","","-22.5","","67","","0.2","","34","","37","","","","98.92","","","","-31","","NA"
"-140.15","69.16","IVVAVIK NAT. PARK","2100660","2022-01-06 22:00","2022","01","06","22:00","-17.7","","-23.0","","63","","0.0","","34","","21","","","","98.87","","","","-28","","NA"
"-140.15","69.16","IVVAVIK NAT. PARK","2100660","2022-01-06 23:00","2022","01","06","23:00","-17.9","","-23.6","","61","","0.1","","34","","30","","","","98.83","","","","-30","","NA"
"-140.15","69.16","IVVAVIK NAT. PARK","2100660","2022-01-07 00:00","2022","01","07","00:00","-18.4","","-23.2","","66","","0.0","","35","","27","","","","98.87","","","","-30","","NA"
"-140.15","69.16","IVVAVIK NAT. PARK","2100660","2022-01-07 01:00","2022","01","07","01:00","-18.2","","-23.4","","64","","0.1","","36","","23","","","","98.85","","","","-29","","NA"
"-140.15","69.16","IVVAVIK NAT. PARK","2100660","2022-01-07 02:00","2022","01","07","02:00","-18.8","","-23.1","","69","","0.1","","35","","23","","","","98.90","","","","-30","","NA"
"-140.15","69.16","IVVAVIK NAT. PARK","2100660","2022-01-07 03:00","2022","01","07","03:00","-18.6","","-24.2","","62","","0.0","","36","","21","","","","98.85","","","","-29","","NA"
"-140.15","69.16","IVVAVIK NAT. PARK","2100660","2022-01-07 04:00","2022","01","07","04:00","-19.4","","-24.1","","66","","0.1","","36","","22","","","","98.92","","","","-30","","NA"
"-140.15","69.16","IVVAVIK NAT. PARK","2100660","2022-01-07 05:00","2022","01","07","05:00","-19.6","","-24.4","","66","","0.0","","35","","19","","","","98.96","","","","-30","","NA"
"-140.15","69.16","IVVAVIK NAT. PARK","2100660","2022-01-07 06:00","2022","01","07","06:00","-19.9","","-25.0","","64","","0.0","","1","","20","","","","99.02","","","","-30","","NA"
"-140.15","69.16","IVVAVIK NAT. PARK","2100660","2022-01-07 07:00","2022","01","07","07:00","-20.0","","-25.6","","61","","0.0","","2","","26","","","","99.03","","","","-32","","NA"
"-140.15","69.16","IVVAVIK NAT. PARK","2100660","2022-01-07 08:00","2022","01","07","08:00","-20.0","","-26.0","","59","","0.0","","2","","23","","","","99.08","","","","-31","","NA"
"-140.15","69.16","IVVAVIK NAT. PARK","2100660","2022-01-07 09:00","2022","01","07","09:00","-20.1","","-26.2","","58","","0.0","","1","","19","","","","99.12","","","","-30","","NA"
"-140.15","69.16","IVVAVIK NAT. PARK","2100660","2022-01-07 10:00","2022","01","07","10:00","-19.7","","-26.7","","54","","0.0","","2","","20","","","","99.13","","","","-30","","NA"
"-140.15","69.16","IVVAVIK NAT. PARK","2100660","2022-01-07 11:00","2022","01","07","11:00","-19.6","","-26.4","","55","","0.0","","34","","15","","","","99.12","","","","-29","","NA"
"-140.15","69.16","IVVAVIK NAT. PARK","2100660","2022-01-07 12:00","2022","01","07","12:00","-19.4","","-26.1","","55","","0.0","","36","","23","","","","99.15","","","","-30","","NA"
"-140.15","69.16","IVVAVIK NAT. PARK","2100660","2022-01-07 13:00","2022","01","07","13:00","-19.1","","-26.2","","53","","0.0","","35","","19","","","","99.23","","","","-29","","NA"
"-140.15","69.16","IVVAVIK NAT. PARK","2100660","2022-01-07 14:00","2022","01","07","14:00","-19.1","","-26.0","","54","","0.0","","36","","20","","","","99.24","","","","-29","","NA"
"-140.15","69.16","IVVAVIK NAT. PARK","2100660","2022-01-07 15:00","2022","01","07","15:00","-19.4","","-26.0","","56","","0.0","","36","","24","","","","99.27","","","","-31","","NA"
"-140.15","69.16","IVVAVIK NAT. PARK","2100660","2022-01-07 16:00","2022","01","07","16:00","-19.1","","-25.7","","56","","0.1","","1","","16","","","","99.28","","","","-28","","NA"
"-140.15","69.16","IVVAVIK NAT. PARK","2100660","2022-01-07 17:00","2022","01","07","17:00","-19.5","","-25.9","","57","","0.0","","3","","17","","","","99.29","","","","-29","","NA"
"-140.15","69.16","IVVAVIK NAT. PARK","2100660","2022-01-07 18:00","2022","01","07","18:00","-20.0","","-26.5","","56","","0.0","","3","","15","","","","99.31","","","","-29","","NA"
"-140.15","69.16","IVVAVIK NAT. PARK","2100660","2022-01-07 19:00","2022","01","07","19:00","-18.6","","-25.5","","55","","0.0","","35","","21","","","","99.32","","","","-29","","NA"
"-140.15","69.16","IVVAVIK NAT. PARK","2100660","2022-01-07 20:00","2022","01","07","20:00","-18.8","","-25.6","","55","","0.0","","34","","11","","","","99.34","","","","-26","","NA"
"-140.15","69.16","IVVAVIK NAT. PARK","2100660","2022-01-07 21:00","2022","01","07","21:00","-19.4","","-26.2","","55","","0.0","","1","","18","","","","99.39","","","","-29","","NA"
"-140.15","69.16","IVVAVIK NAT. PARK","2100660","2022-01-07 22:00","2022","01","07","22:00","-19.2","","-26.1","","54","","0.1","","36","","20","","","","99.42","","","","-29","","NA"
"-140.15","69.16","IVVAVIK NAT. PARK","2100660","2022-01-07 23:00","2022","01","07","23:00","-19.0","","-26.2","","53","","0.0","","34","","17","","","","99.47","","","","-28","","NA"
"-140.15","69.16","IVVAVIK NAT. PARK","2100660","2022-01-08 00:00","2022","01","08","00:00","-19.6","","-26.4","","55","","0.0","","36","","17","","","","99.55","","","","-29","","NA"
"-140.15","69.16","IVVAVIK NAT. PARK","2100660","2022-01-08 01:00","2022","01","08","01:00","-19.6","","-26.4","","55","","0.0","","35","","19","","","","99.63","","","","-30","","NA"
"-140.15","69.16","IVVAVIK NAT. PARK","2100660","2022-01-08 02:00","2022","01","08","02:00","-19.7","","-26.8","","53","","0.1","","35","","22","","","","99.65","","","","-31","","NA"
"-140.15","69.16","IVVAVIK NAT. PARK","2100660","2022-01-08 03:00","2022","01","08","03:00","-20.2","","-26.4","","58","","0.0","","2","","9","","","","99.66","","","","-27","","NA"
"-140.15","69.16","IVVAVIK NAT. PARK","2100660","2022-01-08 04:00","2022","01","08","04:00","-20.5","","-26.7","","58","","0.0","","1","","14","","","","99.68","","","","-29","","NA"
"-140.15","69.16","IVVAVIK NAT. PARK","2100660","2022-01-08 05:00","2022","01","08","05:00","-20.2","","-27.0","","55","","0.0","","36","","23","","","","99.72","","","","-31","","NA"
"-140.15","69.16","IVVAVIK NAT. PARK","2100660","2022-01-08 06:00","2022","01","08","06:00","-20.7","","-27.6","","54","","0.0","","35","","13","","","","99.74","","","","-29","","NA"
"-140.15","69.16","IVVAVIK NAT. PARK","2100660","2022-01-08 07:00","2022","01","08","07:00","-20.0","","-27.3","","52","","0.0","","36","","18","","","","99.73","","","","-30","","NA"
"-140.15","69.16","IVVAVIK NAT. PARK","2100660","2022-01-08 08:00","2022","01","08","08:00","-20.4","","-27.3","","54","","0.0","","1","","21","","","","99.73","","","","-31","","NA"
"-140.15","69.16","IVVAVIK NAT. PARK","2100660","2022-01-08 09:00","2022","01","08","09:00","-20.9","","-27.1","","58","","0.0","","36","","22","","","","99.78","","","","-32","","NA"
"-140.15","69.16","IVVAVIK NAT. PARK","2100660","2022-01-08 10:00","2022","01","08","10:00","-21.5","","-27.5","","58","","0.0","","36","","16","","","","99.85","","","","-31","","NA"
"-140.15","69.16","IVVAVIK NAT. PARK","2100660","2022-01-08 11:00","2022","01","08","11:00","-21.7","","-27.6","","59","","0.0","","36","","13","","","","99.88","","","","-30","","NA"
"-140.15","69.16","IVVAVIK NAT. PARK","2100660","2022-01-08 12:00","2022","01","08","12:00","-20.9","","-27.3","","57","","0.0","","2","","16","","","","99.86","","","","-31","","NA"
"-140.15","69.16","IVVAVIK NAT. PARK","2100660","2022-01-08 13:00","2022","01","08","13:00","-20.2","","-27.2","","54","","0.0","","36","","16","","","","99.83","","","","-30","","NA"
"-140.15","69.16","IVVAVIK NAT. PARK","2100660","2022-01-08 14:00","2022","01","08","14:00","-20.9","","-27.3","","56","","0.0","","2","","16","","","","99.87","","","","-31","","NA"
"-140.15","69.16","IVVAVIK NAT. PARK","2100660","2022-01-08 15:00","2022","01","08","15:00","-22.4","","-28.0","","60","","0.0","","36","","7","","","","99.94","","","","-28","","NA"
"-140.15","69.16","IVVAVIK NAT. PARK","2100660","2022-01-08 16:00","2022","01","08","16:00","-23.1","","-28.4","","62","","0.0","","2","","6","","","","99.97","","","","-29","","NA"
"-140.15","69.16","IVVAVIK NAT. PARK","2100660","2022-01-08 17:00","2022","01","08","17:00","-22.5","","-27.9","","61","","0.0","","36","","10","","","","99.97","","","","-30","","NA"
"-140.15","69.16","IVVAVIK NAT. PARK","2100660","2022-01-08 18:00","2022","01","08","18:00"
"-140.15","69.16","IVVAVIK NAT. PARK","2100660","2022-01-08 19:00","2022","01","08","19:00","-23.9","","-29.2","","62","","0.0","","7","","4","","","","100.00","","","","-28","","NA"
"-140.15","69.16","IVVAVIK NAT. PARK","2100660","2022-01-08 20:00","2022","01","08","20:00","-23.4","","-28.8","","61","","0.0","","32","","10","","","","100.01","","","","-31","","NA"
"-140.15","69.16","IVVAVIK NAT. PARK","2100660","2022-01-08 21:00","2022","01","08","21:00","-23.0","","-28.5","","60","","0.0","","4","","7","","","","100.01","","","","-29","","NA"
"-140.15","69.16","IVVAVIK NAT. PARK","2100660","2022-01-08 22:00","2022","01","08","22:00","-24.7","","-29.6","","64","","0.0","","29","","2","","","","100.04","","","","-27","","NA"
"-140.15","69.16","IVVAVIK NAT. PARK","2100660","2022-01-08 23:00","2022","01","08","23:00","-23.1","","-29.1","","58","","0.0","","34","","12","","","","100.06","","","","-32","","NA"
"-140.15","69.16","IVVAVIK NAT. PARK","2100660","2022-01-09 00:00","2022","01","09","00:00","-26.7","","-31.3","","65","","0.0","","21","","3","","","","100.05","","","","-30","","NA"
"-140.15","69.16","IVVAVIK NAT. PARK","2100660","2022-01-09 01:00","2022","01","09","01:00","-29.2","","-33.1","","69","","0.0","","19","","2","","","","100.07","","","","-31","","NA"
"-140.15","69.16","IVVAVIK NAT. PARK","2100660","2022-01-09 02:00","2022","01","09","02:00","-28.5","","-32.0","","72","","0.0","","0","","1","","","","100.04","","","","-30","","NA"
"-140.15","69.16","IVVAVIK NAT. PARK","2100660","2022-01-09 03:00","2022","01","09","03:00","-31.1","","-34.6","","71","","0.0","","0","","1","","","","100.05","","","","-32","","NA"
"-140.15","69.16","IVVAVIK NAT. PARK","2100660","2022-01-09 04:00","2022","01","09","04:00","-31.7","","-35.3","","71","","0.0","","0","","1","","","","100.06","","","","-33","","NA"
"-140.15","69.16","IVVAVIK NAT. PARK","2100660","2022-01-09 05:00","2022","01","09","05:00","-30.6","","-33.9","","73","","0.0","","20","","8","","","","100.04","","","","-39","","NA"
"-140.15","69.16","IVVAVIK NAT. PARK","2100660","2022-01-09 06:00","2022","01","09","06:00","-31.3","","-34.9","","71","","0.0","","18","","9","","","","100.04","","","","-40","","NA"
"-140.15","69.16","IVVAVIK NAT. PARK","2100660","2022-01-09 07:00","2022","01","09","07:00","-32.4","","-36.1","","70","","0.0","","19","","10","","","","100.01","","","","-42","","NA"
"-140.15","69.16","IVVAVIK NAT. PARK","2100660","2022-01-09 08:00","2022","01","09","08:00","-32.5","","-36.1","","70","","0.0","","20","","9","","","","100.00","","","","-42","","NA"
"-140.15","69.16","IVVAVIK NAT. PARK","2100660","2022-01-09 09:00","2022","01","09","09:00","-33.6","","-37.3","","69","","0.0","","19","","8","","","","99.96","","","","-42","","NA"
"-140.15","69.16","IVVAVIK NAT. PARK","2100660","2022-01-09 10:00","2022","01","09","10:00","-33.8","","-37.5","","69","","0.0","","19","","4","","","","99.94","","","","-39","","NA"
"-140.15","69.16","IVVAVIK NAT. PARK","2100660","2022-01-09 11:00","2022","01","09","11:00","-33.9","","-37.6","","69","","0.0","","19","","9","","","","99.87","","","","-43","","NA"
"-140.15","69.16","IVVAVIK NAT. PARK","2100660","2022-01-09 12:00","2022","01","09","12:00","-34.3","","-38.1","","68","","0.0","","19","","9","","","","99.81","","","","-44","","NA"
"-140.15","69.16","IVVAVIK NAT. PARK","2100660","2022-01-09 13:00","2022","01","09","13:00","-33.6","","-37.4","","69","","0.0","","20","","10","","","","99.73","","","","-43","","NA"
"-140.15","69.16","IVVAVIK NAT. PARK","2100660","2022-01-09 14:00","2022","01","09","14:00","-33.9","","-37.7","","69","","0.0","","20","","8","","","","99.65","","","","-43","","NA"
"-140.15","69.16","IVVAVIK NAT. PARK","2100660","2022-01-09 15:00","2022","01","09","15:00","-35.3","","-39.1","","68","","0.0","","19","","8","","","","99.57","","","","-44","","NA"
"-140.15","69.16","IVVAVIK NAT. PARK","2100660","2022-01-09 16:00","2022","01","09","16:00","-35.3","","-39.2","","68","","0.0","","20","","7","","","","99.51","","","","-43","","NA"
"-140.15","69.16","IVVAVIK NAT. PARK","2100660","2022-01-09 17:00","2022","01","09","17:00","-35.8","","-39.7","","68","","0.0","","19","","9","","","","99.46","","","","-45","","NA"
"-140.15","69.16","IVVAVIK NAT. PARK","2100660","2022-01-09 18:00","2022","01","09","18:00","-35.0","","-38.8","","68","","0.0","","21","","6","","","","99.39","","","","-42","","NA"
"-140.15","69.16","IVVAVIK NAT. PARK","2100660","2022-01-09 19:00","2022","01","09","19:00","-35.8","","-39.7","","68","","0.0","","18","","6","","","","99.34","","","","-43","","NA"
"-140.15","69.16","IVVAVIK NAT. PARK","2100660","2022-01-09 20:00","2022","01","09","20:00","-36.1","","-40.1","","67","","0.0","","18","","9","","","","99.28","","","","-46","","NA"
"-140.15","69.16","IVVAVIK NAT. PARK","2100660","2022-01-09 21:00","2022","01","09","21:00","-35.7","","-39.6","","67","","0.0","","18","","9","","","","99.23","","","","-45","","NA"
"-140.15","69.16","IVVAVIK NAT. PARK","2100660","2022-01-09 22:00","2022","01","09","22:00","-35.8","","-39.7","","67","","0.0","","18","","7","","","","99.15","","","","-44","","NA"
"-140.15","69.16","IVVAVIK NAT. PARK","2100660","2022-01-09 23:00","2022","01","09","23:00","-36.4","","-40.3","","67","","0.0","","18","","6","","","","99.11","","","","-44","","NA"
"-140.15","69.16","IVVAVIK NAT. PARK","2100660","2022-01-10 00:00","2022","01","10","00:00","-35.8","","-39.8","","67","","0.0","","19","","8","","","","99.11","","","","-45","","NA"
"-140.15","69.16","IVVAVIK NAT. PARK","2100660","2022-01-10 01:00","2022","01","10","01:00","-35.5","","-39.5","","67","","0.0","","18","","10","","","","99.10","","","","-46","","NA"
"-140.15","69.16","IVVAVIK NAT. PARK","2100660","2022-01-10 02:00","2022","01","10","02:00","-34.6","","-38.7","","67","","0.0","","20","","7","","","","99.07","","","","-43","","NA"
"-140.15","69.16","IVVAVIK NAT. PARK","2100660","2022-01-10 03:00","2022","01","10","03:00","-34.4","","-38.4","","67","","0.0","","19","","7","","","","99.03","","","","-42","","NA"
"-140.15","69.16","IVVAVIK NAT. PARK","2100660","2022-01-10 04:00","2022","01","10","04:00","-33.7","","-37.7","","67","","0.0","","18","","9","","","","99.02","","","","-43","","NA"
"-140.15","69.16","IVVAVIK NAT. PARK","2100660","2022-01-10 05:00","2022","01","10","05:00","-34.2","","-38.2","","67","","0.0","","19","","9","","","","98.92","","","","-44","","NA"
"-140.15","69.16","IVVAVIK NAT. PARK","2100660","2022-01-10 06:00","2022","01","10","06:00","-32.9","","-37.1","","67","","0.0","","18","","13","","","","98.89","","","","-44","","NA"
"-140.15","69.16","IVVAVIK NAT. PARK","2100660","2022-01-10 07:00","2022","01","10","07:00","-32.8","","-36.9","","67","","0.0","","20","","11","","","","98.82","","","","-43","","NA"
"-140.15","69.16","IVVAVIK NAT. PARK","2100660","2022-01-10 08:00","2022","01","10","08:00","-32.5","","-36.5","","67","","0.0","","19","","8","","","","98.79","","","","-41","","NA"
"-140.15","69.16","IVVAVIK NAT. PARK","2100660","2022-01-10 09:00","2022","01","10","09:00","-33.3","","-37.3","","67","","0.0","","18","","10","","","","98.75","","","","-43","","NA"
"-140.15","69.16","IVVAVIK NAT. PARK","2100660","2022-01-10 10:00","2022","01","10","10:00","-32.9","","-36.9","","67","","0.0","","18","","9","","","","98.70","","","","-42","","NA"
"-140.15","69.16","IVVAVIK NAT. PARK","2100660","2022-01-10 11:00","2022","01","10","11:00","-32.3","","-36.4","","67","","0.0","","19","","10","","","","98.68","","","","-42","","NA"
"-140.15","69.16","IVVAVIK NAT. PARK","2100660","2022-01-10 12:00","2022","01","10","12:00","-30.7","","-34.8","","68","","0.0","","16","","13","","","","98.63","","","","-41","","NA"
"-140.15","69.16","IVVAVIK NAT. PARK","2100660","2022-01-10 13:00","2022","01","10","13:00","-32.8","","-37.0","","66","","0.0","","19","","9","","","","98.55","","","","-42","","NA"
"-140.15","69.16","IVVAVIK NAT. PARK","2100660","2022-01-10 14:00","2022","01","10","14:00","-30.9","","-35.0","","67","","0.0","","19","","11","","","","98.46","","","","-41","","NA"
"-140.15","69.16","IVVAVIK NAT. PARK","2100660","2022-01-10 15:00","2022","01","10","15:00","-31.3","","-35.3","","68","","0.0","","20","","8","","","","98.36","","","","-40","","NA"
"-140.15","69.16","IVVAVIK NAT. PARK","2100660","2022-01-10 16:00","2022","01","10","16:00","-29.8","","-33.9","","67","","0.0","","22","","10","","","","98.25","","","","-39","","NA"
"-140.15","69.16","IVVAVIK NAT. PARK","2100660","2022-01-10 17:00","2022","01","10","17:00","-29.7","","-33.7","","68","","0.0","","20","","10","","","","98.18","","","","-39","","NA"
"-140.15","69.16","IVVAVIK NAT. PARK","2100660","2022-01-10 18:00","2022","01","10","18:00","-29.0","","-33.1","","68","","0.0","","20","","9","","","","98.08","","","","-37","","NA"
"-140.15","69.16","IVVAVIK NAT. PARK","2100660","2022-01-10 19:00","2022","01","10","19:00","-28.3","","-32.4","","68","","0.0","","19","","9","","","","98.03","","","","-37","","NA"
"-140.15","69.16","IVVAVIK NAT. PARK","2100660","2022-01-10 20:00","2022","01","10","20:00","-28.3","","-32.2","","69","","0.0","","18","","9","","","","97.95","","","","-37","","NA"
"-140.15","69.16","IVVAVIK NAT. PARK","2100660","2022-01-10 21:00","2022","01","10","21:00","-26.7","","-31.0","","67","","0.0","","19","","9","","","","97.85","","","","-35","","NA"
"-140.15","69.16","IVVAVIK NAT. PARK","2100660","2022-01-10 22:00","2022","01","10","22:00","-25.0","","-29.3","","67","","0.0","","20","","9","","","","97.75","","","","-33","","NA"
"-140.15","69.16","IVVAVIK NAT. PARK","2100660","2022-01-10 23:00","2022","01","10","23:00","-24.3","","-28.8","","66","","0.0","","20","","9","","","","97.64","","","","-32","","NA"
"-140.15","69.16","IVVAVIK NAT. PARK","2100660","2022-01-11 00:00","2022","01","11","00:00","-23.2","","-28.1","","64","","0.0","","19","","13","","","","97.54","","","","-32","","NA"
"-140.15","69.16","IVVAVIK NAT. PARK","2100660","2022-01-11 01:00","2022","01","11","01:00","-23.0","","-28.3","","62","","0.0","","18","","13","","","","97.45","","","","-32","","NA"
"-140.15","69.16","IVVAVIK NAT. PARK","2100660","2022-01-11 02:00","2022","01","11","02:00","-21.8","","-27.5","","60","","0.0","","20","","11","","","","97.34","","","","-30","","NA"
"-140.15","69.16","IVVAVIK NAT. PARK","2100660","2022-01-11 03:00","2022","01","11","03:00","-21.2","","-26.5","","62","","0.0","","19","","9","","","","97.23","","","","-28","","NA"
"-140.15","69.16","IVVAVIK NAT. PARK","2100660","2022-01-11 04:00","2022","01","11","04:00","-21.1","","-26.3","","63","","0.0","","19","","9","","","","97.15","","","","-28","","NA"
"-140.15","69.16","IVVAVIK NAT. PARK","2100660","2022-01-11 05:00","2022","01","11","05:00","-19.7","","-26.3","","56","","0.0","","21","","12","","","","97.05","","","","-28","","NA"
"-140.15","69.16","IVVAVIK NAT. PARK","2100660","2022-01-11 06:00","2022","01","11","06:00","-21.1","","-26.5","","62","","0.0","","21","","3","","","","96.94","","","","-24","","NA"
"-140.15","69.16","IVVAVIK NAT. PARK","2100660","2022-01-11 07:00","2022","01","11","07:00","-20.5","","-27.0","","56","","0.0","","20","","5","","","","96.88","","","","-25","","NA"
"-140.15","69.16","IVVAVIK NAT. PARK","2100660","2022-01-11 08:00","2022","01","11","08:00","-20.6","","-26.4","","60","","0.0","","21","","4","","","","96.86","","","","-24","","NA"
"-140.15","69.16","IVVAVIK NAT. PARK","2100660","2022-01-11 09:00","2022","01","11","09:00","-27.9","","-31.6","","70","","0.3","","1","","16","","","","96.86","","","","-39","","NA"
"-140.15","69.16","IVVAVIK NAT. PARK","2100660","2022-01-11 10:00","2022","01","11","10:00","-27.6","","-31.4","","70","","0.0","","36","","17","","","","96.83","","","","-39","","NA"
"-140.15","69.16","IVVAVIK NAT. PARK","2100660","2022-01-11 11:00","2022","01","11","11:00","-27.5","","-31.4","","70","","0.0","","1","","17","","","","96.89","","","","-39","","NA"
"-140.15","69.16","IVVAVIK NAT. PARK","2100660","2022-01-11 12:00","2022","01","11","12:00","-27.5","","-31.6","","68","","0.0","","1","","13","","","","96.95","","","","-38","","NA"
"-140.15","69.16","IVVAVIK NAT. PARK","2100660","2022-01-11 13:00","2022","01","11","13:00","-27.8","","-31.9","","68","","0.0","","7","","10","","","","97.01","","","","-37","","NA"
"-140.15","69.16","IVVAVIK NAT. PARK","2100660","2022-01-11 14:00","2022","01","11","14:00","-27.6","","-31.8","","67","","0.0","","4","","3","","","","97.07","","","","-31","","NA"
"-140.15","69.16","IVVAVIK NAT. PARK","2100660","2022-01-11 15:00","2022","01","11","15:00","-27.3","","-31.6","","67","","0.0","","","","0","","","","97.10","","","","","","NA"
"-140.15","69.16","IVVAVIK NAT. PARK","2100660","2022-01-11 16:00","2022","01","11","16:00","-27.6","","-31.8","","68","","0.0","","0","","1","","","","97.09","","","","-29","","NA"
"-140.15","69.16","IVVAVIK NAT. PARK","2100660","2022-01-11 17:00","2022","01","11","17:00","-28.4","","-32.3","","69","","0.0","","13","","2","","","","97.10","","","","-31","","NA"
"-140.15","69.16","IVVAVIK NAT. PARK","2100660","2022-01-11 18:00","2022","01","11","18:00","-28.7","","-32.3","","71","","0.0","","0","","1","","","","97.07","","","","-30","","NA"
"-140.15","69.16","IVVAVIK NAT. PARK","2100660","2022-01-11 19:00","2022","01","11","19:00","-28.8","","-32.7","","69","","0.0","","","","0","","","","97.10","","","","","","NA"
"-140.15","69.16","IVVAVIK NAT. PARK","2100660","2022-01-11 20:00","2022","01","11","20:00","-28.0","","-31.9","","69","","0.0","","1","","4","","","","97.18","","","","-32","","NA"
"-140.15","69.16","IVVAVIK NAT. PARK","2100660","2022-01-11 21:00","2022","01","11","21:00","-29.8","","-33.4","","71","","0.0","","10","","1","","","","97.19","","","","-31","","NA"
"-140.15","69.16","IVVAVIK NAT. PARK","2100660","2022-01-11 22:00","2022","01","11","22:00","-30.7","","-34.2","","72","","0.0","","21","","3","","","","97.24","","","","-34","","NA"
"-140.15","69.16","IVVAVIK NAT. PARK","2100660","2022-01-11 23:00","2022","01","11","23:00","-30.0","","-33.6","","71","","0.0","","20","","4","","","","97.30","","","","-35","","NA"
"-140.15","69.16","IVVAVIK NAT. PARK","2100660","2022-01-12 00:00","2022","01","12","00:00","-29.0","","-32.4","","72","","0.0","","18","","5","","","","97.37","","","","-34","","NA"
"-140.15","69.16","IVVAVIK NAT. PARK","2100660","2022-01-12 01:00","2022","01","12","01:00","-27.6","","-31.2","","71","","0.0","","20","","9","","","","97.41","","","","-36","","NA"
"-140.15","69.16","IVVAVIK NAT. PARK","2100660","2022-01-12 02:00","2022","01","12","02:00","-26.9","","-30.7","","70","","0.0","","18","","7","","","","97.44","","","","-34","","NA"
"-140.15","69.16","IVVAVIK NAT. PARK","2100660","2022-01-12 03:00","2022","01","12","03:00","-25.9","","-30.1","","68","","0.0","","20","","9","","","","97.50","","","","-34","","NA"
"-140.15","69.16","IVVAVIK NAT. PARK","2100660","2022-01-12 04:00","2022","01","12","04:00","-25.9","","-30.0","","69","","0.0","","20","","5","","","","97.58","","","","-31","","NA"
"-140.15","69.16","IVVAVIK NAT. PARK","2100660","2022-01-12 05:00","2022","01","12","05:00","-25.6","","-29.3","","71","","0.0","","19","","3","","","","97.63","","","","-29","","NA"
"-140.15","69.16","IVVAVIK NAT. PARK","2100660","2022-01-12 06:00","2022","01","12","06:00","-24.9","","-28.4","","72","","0.0","","16","","5","","","","97.65","","","","-30","","NA"
"-140.15","69.16","IVVAVIK NAT. PARK","2100660","2022-01-12 07:00","2022","01","12","07:00","-24.5","","-28.0","","72","","0.1","","17","","3","","","","97.70","","","","-27","","NA"
"-140.15","69.16","IVVAVIK NAT. PARK","2100660","2022-01-12 08:00","2022","01","12","08:00","-24.5","","-27.9","","74","","0.0","","19","","5","","","","97.75","","","","-29","","NA"
"-140.15","69.16","IVVAVIK NAT. PARK","2100660","2022-01-12 09:00","2022","01","12","09:00","-24.4","","-27.6","","75","","0.0","","19","","4","","","","97.83","","","","-28","","NA"
"-140.15","69.16","IVVAVIK NAT. PARK","2100660","2022-01-12 10:00","2022","01","12","10:00","-24.3","","-27.6","","74","","0.1","","15","","2","","","","97.93","","","","-26","","NA"
"-140.15","69.16","IVVAVIK NAT. PARK","2100660","2022-01-12 11:00","2022","01","12","11:00","-24.9","","-28.0","","75","","0.1","","19","","5","","","","97.99","","","","-30","","NA"
"-140.15","69.16","IVVAVIK NAT. PARK","2100660","2022-01-12 12:00","2022","01","12","12:00","-24.1","","-27.5","","73","","0.0","","19","","2","","","","98.03","","","","-26","","NA"
"-140.15","69.16","IVVAVIK NAT. PARK","2100660","2022-01-12 13:00","2022","01","12","13:00","-24.5","","-27.8","","74","","0.0","","0","","1","","","","98.08","","","","-25","","NA"
"-140.15","69.16","IVVAVIK NAT. PARK","2100660","2022-01-12 14:00","2022","01","12","14:00","-24.9","","-28.0","","75","","0.0","","21","","3","","","","98.13","","","","-28","","NA"
"-140.15","69.16","IVVAVIK NAT. PARK","2100660","2022-01-12 15:00","2022","01","12","15:00","-24.8","","-28.0","","75","","0.0","","1","","1","","","","98.17","","","","-26","","NA"
"-140.15","69.16","IVVAVIK NAT. PARK","2100660","2022-01-12 16:00","2022","01","12","16:00","-24.8","","-28.0","","75","","0.0","","10","","3","","","","98.24","","","","-28","","NA"
"-140.15","69.16","IVVAVIK NAT. PARK","2100660","2022-01-12 17:00","2022","01","12","17:00","-23.2","","-27.5","","67","","0.0","","1","","4","","","","98.30","","","","-27","","NA"
"-140.15","69.16","IVVAVIK NAT. PARK","2100660","2022-01-12 18:00","2022","01","12","18:00","-23.3","","-27.0","","72","","0.0","","1","","6","","","","98.36","","","","-29","","NA"
"-140.15","69.16","IVVAVIK NAT. PARK","2100660","2022-01-12 19:00","2022","01","12","19:00","-23.4","","-27.3","","71","","0.0","","","","0","","","","98.43","","","","","","NA"
"-140.15","69.16","IVVAVIK NAT. PARK","2100660","2022-01-12 20:00","2022","01","12","20:00","-27.0","","-30.3","","73","","0.0","","17","","2","","","","98.50","","","","-29","","NA"
"-140.15","69.16","IVVAVIK NAT. PARK","2100660","2022-01-12 21:00","2022","01","12","21:00","-28.1","","-31.3","","74","","0.0","","17","","1","","","","98.57","","","","-29","","NA"
"-140.15","69.16","IVVAVIK NAT. PARK","2100660","2022-01-12 22:00","2022","01","12","22:00","-29.5","","-32.9","","72","","0.0","","0","","1","","","","98.64","","","","-31","","NA"
"-140.15","69.16","IVVAVIK NAT. PARK","2100660","2022-01-12 23:00","2022","01","12","23:00","-30.7","","-34.1","","73","","0.0","","18","","1","","","","98.72","","","","-32","","NA"
"-140.15","69.16","IVVAVIK NAT. PARK","2100660","2022-01-13 00:00","2022","01","13","00:00","-30.4","","-33.7","","73","","0.0","","18","","3","","","","98.77","","","","-34","","NA"
"-140.15","69.16","IVVAVIK NAT. PARK","2100660","2022-01-13 01:00","2022","01","13","01:00","-30.3","","-33.6","","73","","0.0","","19","","3","","","","98.81","","","","-34","","NA"
"-140.15","69.16","IVVAVIK NAT. PARK","2100660","2022-01-13 02:00","2022","01","13","02:00","-31.4","","-34.9","","72","","0.0","","19","","3","","","","98.88","","","","-35","","NA"
"-140.15","69.16","IVVAVIK NAT. PARK","2100660","2022-01-13 03:00","2022","01","13","03:00","-33.2","","-36.6","","71","","0.0","","21","","4","","","","98.91","","","","-38","","NA"
"-140.15","69.16","IVVAVIK NAT. PARK","2100660","2022-01-13 04:00","2022","01","13","04:00","-33.9","","-37.4","","71","","0.0","","19","","10","","","","98.95","","","","-44","","NA"
"-140.15","69.16","IVVAVIK NAT. PARK","2100660","2022-01-13 05:00","2022","01","13","05:00","-31.7","","-35.2","","71","","0.0","","19","","10","","","","99.00","","","","-41","","NA"
"-140.15","69.16","IVVAVIK NAT. PARK","2100660","2022-01-13 06:00","2022","01","13","06:00","-32.3","","-35.8","","71","","0.0","","19","","11","","","","99.03","","","","-42","","NA"
"-140.15","69.16","IVVAVIK NAT. PARK","2100660","2022-01-13 07:00","2022","01","13","07:00","-32.2","","-35.7","","71","","0.0","","19","","9","","","","99.07","","","","-41","","NA"
"-140.15","69.16","IVVAVIK NAT. PARK","2100660","2022-01-13 08:00","2022","01","13","08:00","-31.8","","-35.5","","70","","0.0","","19","","8","","","","99.07","","","","-40","","NA"
"-140.15","69.16","IVVAVIK NAT. PARK","2100660","2022-01-13 09:00","2022","01","13","09:00","-31.7","","-35.3","","70","","0.0","","20","","9","","","","99.09","","","","-41","","NA"
"-140.15","69.16","IVVAVIK NAT. PARK","2100660","2022-01-13 10:00","2022","01","13","10:00","-32.1","","-35.8","","70","","0.0","","19","","11","","","","99.10","","","","-42","","NA"
"-140.15","69.16","IVVAVIK NAT. PARK","2100660","2022-01-13 11:00","2022","01","13","11:00","-32.1","","-35.7","","70","","0.0","","20","","6","","","","99.13","","","","-39","","NA"
"-140.15","69.16","IVVAVIK NAT. PARK","2100660","2022-01-13 12:00","2022","01","13","12:00","-32.0","","-35.7","","70","","0.0","","20","","5","","","","99.17","","","","-38","","NA"
"-140.15","69.16","IVVAVIK NAT. PARK","2100660","2022-01-13 13:00","2022","01","13","13:00","-32.7","","-36.3","","70","","0.0","","21","","6","","","","99.18","","","","-40","","NA"
"-140.15","69.16","IVVAVIK NAT. PARK","2100660","2022-01-13 14:00","2022","01","13","14:00","-34.4","","-38.1","","69","","0.0","","19","","6","","","","99.14","","","","-42","","NA"
"-140.15","69.16","IVVAVIK NAT. PARK","2100660","2022-01-13 15:00","2022","01","13","15:00","-33.7","","-37.4","","69","","0.0","","21","","6","","","","99.14","","","","-41","","NA"
"-140.15","69.16","IVVAVIK NAT. PARK","2100660","2022-01-13 16:00","2022","01","13","16:00","-34.7","","-38.4","","69","","0.0","","19","","6","","","","99.12","","","","-42","","NA"
"-140.15","69.16","IVVAVIK NAT. PARK","2100660","2022-01-13 17:00","2022","01","13","17:00","-35.6","","-39.5","","67","","0.0","","0","","1","","","","99.10","","","","-37","","NA"
"-140.15","69.16","IVVAVIK NAT. PARK","2100660","2022-01-13 18:00","2022","01","13","18:00","-35.2","","-38.9","","69","","0.0","","19","","7","","","","99.02","","","","-43","","NA"
"-140.15","69.16","IVVAVIK NAT. PARK","2100660","2022-01-13 19:00","2022","01","13","19:00","-35.7","","-39.4","","68","","0.0","","","","0","","","","98.96","","","","","","NA"
"-140.15","69.16","IVVAVIK NAT. PARK","2100660","2022-01-13 20:00","2022","01","13","20:00","-35.5","","-39.2","","69","","0.0","","","","0","","","","98.89","","","","","","NA"
"-140.15","69.16","IVVAVIK NAT. PARK","2100660","2022-01-13 21:00","2022","01","13","21:00","-35.7","","-39.4","","69","","0.0","","","","0","","","","98.86","","","","","","NA"
"-140.15","69.16","IVVAVIK NAT. PARK","2100660","2022-01-13 22:00","2022","01","13","22:00","-36.2","","-39.9","","68","","0.0","","0","","1","","","","98.82","","","","-37","","NA"
"-140.15","69.16","IVVAVIK NAT. PARK","2100660","2022-01-13 23:00","2022","01","13","23:00","-33.8","","-37.2","","71","","0.0","","33","","2","","","","98.78","","","","-36","","NA"
"-140.15","69.16","IVVAVIK NAT. PARK","2100660","2022-01-14 00:00","2022","01","14","00:00","-33.3","","-37.0","","70","","0.0","","0","","1","","","","98.76","","","","-35","","NA"
"-140.15","69.16","IVVAVIK NAT. PARK","2100660","2022-01-14 01:00","2022","01","14","01:00","-31.7","","-35.3","","71","","0.0","","2","","1","","","","98.72","","","","-33","","NA"
"-140.15","69.16","IVVAVIK NAT. PARK","2100660","2022-01-14 02:00","2022","01","14","02:00","-30.3","","-33.9","","71","","0.0","","5","","2","","","","98.72","","","","-33","","NA"
"-140.15","69.16","IVVAVIK NAT. PARK","2100660","2022-01-14 03:00","2022","01","14","03:00","-30.1","","-33.6","","71","","0.0","","17","","2","","","","98.72","","","","-32","","NA"
"-140.15","69.16","IVVAVIK NAT. PARK","2100660","2022-01-14 04:00","2022","01","14","04:00","-31.0","","-34.6","","71","","0.0","","","","0","","","","98.71","","","","","","NA"
"-140.15","69.16","IVVAVIK NAT. PARK","2100660","2022-01-14 05:00","2022","01","14","05:00","-32.4","","-35.9","","70","","0.0","","","","0","","","","98.69","","","","","","NA"
"-140.15","69.16","IVVAVIK NAT. PARK","2100660","2022-01-14 06:00","2022","01","14","06:00","-32.8","","-36.5","","69","","0.0","","0","","1","","","","98.71","","","","-34","","NA"
"-140.15","69.16","IVVAVIK NAT. PARK","2100660","2022-01-14 07:00","2022","01","14","07:00","-32.8","","-36.4","","70","","0.0","","","","0","","","","98.75","","","","","","NA"
"-140.15","69.16","IVVAVIK NAT. PARK","2100660","2022-01-14 08:00","2022","01","14","08:00","-32.9","","-36.4","","71","","0.0","","0","","1","","","","98.72","","","","-34","","NA"
"-140.15","69.16","IVVAVIK NAT. PARK","2100660","2022-01-14 09:00","2022","01","14","09:00","-33.7","","-37.4","","70","","0.0","","20","","3","","","","98.73","","","","-37","","NA"
"-140.15","69.16","IVVAVIK NAT. PARK","2100660","2022-01-14 10:00","2022","01","14","10:00","-32.9","","-36.4","","71","","0.0","","","","0","","","","98.73","","","","","","NA"
"-140.15","69.16","IVVAVIK NAT. PARK","2100660","2022-01-14 11:00","2022","01","14","11:00","-33.6","","-37.3","","69","","0.0","","","","0","","","","98.74","","","","","","NA"
"-140.15","69.16","IVVAVIK NAT. PARK","2100660","2022-01-14 12:00","2022","01","14","12:00","-32.0","","-35.6","","70","","0.0","","22","","2","","","","98.75","","","","-34","","NA"
"-140.15","69.16","IVVAVIK NAT. PARK","2100660","2022-01-14 13:00","2022","01","14","13:00","-31.1","","-34.7","","71","","0.0","","4","","1","","","","98.75","","","","-32","","NA"
"-140.15","69.16","IVVAVIK NAT. PARK","2100660","2022-01-14 14:00","2022","01","14","14:00","-31.1","","-34.7","","70","","0.0","","","","0","","","","98.73","","","","","","NA"
"-140.15","69.16","IVVAVIK NAT. PARK","2100660","2022-01-14 15:00","2022","01","14","15:00","-31.6","","-35.2","","71","","0.0","","","","0","","","","98.73","","","","","","NA"
"-140.15","69.16","IVVAVIK NAT. PARK","2100660","2022-01-14 16:00","2022","01","14","16:00","-32.4","","-35.9","","71","","0.0","","","","0","","","","98.73","","","","","","NA"
"-140.15","69.16","IVVAVIK NAT. PARK","2100660","2022-01-14 17:00","2022","01","14","17:00","-34.7","","-38.4","","69","","0.0","","","","0","","","","98.76","","","","","","NA"
"-140.15","69.16","IVVAVIK NAT. PARK","2100660","2022-01-14 18:00","2022","01","14","18:00","-35.4","","-39.1","","68","","0.0","","20","","4","","","","98.77","","","","-40","","NA"
"-140.15","69.16","IVVAVIK NAT. PARK","2100660","2022-01-14 19:00","2022","01","14","19:00","-35.2","","-38.9","","69","","0.0","","20","","4","","","","98.77","","","","-40","","NA"
"-140.15","69.16","IVVAVIK NAT. PARK","2100660","2022-01-14 20:00","2022","01","14","20:00","-35.2","","-38.9","","69","","0.0","","19","","5","","","","98.77","","","","-42","","NA"
"-140.15","69.16","IVVAVIK NAT. PARK","2100660","2022-01-14 21:00","2022","01","14","21:00","-36.3","","-40.1","","68","","0.0","","19","","4","","","","98.77","","","","-41","","NA"
"-140.15","69.16","IVVAVIK NAT. PARK","2100660","2022-01-14 22:00","2022","01","14","22:00","-34.6","","-38.1","","70","","0.0","","21","","1","","","","98.79","","","","-36","","NA"
"-140.15","69.16","IVVAVIK NAT. PARK","2100660","2022-01-14 23:00","2022","01","14","23:00","-35.5","","-39.2","","69","","0.0","","20","","3","","","","98.81","","","","-39","","NA"
"-140.15","69.16","IVVAVIK NAT. PARK","2100660","2022-01-15 00:00","2022","01","15","00:00","-36.2","","-39.9","","69","","0.0","","19","","5","","","","98.83","","","","-43","","NA"
"-140.15","69.16","IVVAVIK NAT. PARK","2100660","2022-01-15 01:00","2022","01","15","01:00","-36.6","","-40.4","","68","","0.0","","20","","6","","","","98.87","","","","-44","","NA"
"-140.15","69.16","IVVAVIK NAT. PARK","2100660","2022-01-15 02:00","2022","01","15","02:00","-37.1","","-41.0","","67","","0.0","","20","","4","","","","98.87","","","","-42","","NA"
"-140.15","69.16","IVVAVIK NAT. PARK","2100660","2022-01-15 03:00","2022","01","15","03:00","-37.2","","-41.0","","68","","0.0","","20","","5","","","","98.90","","","","-44","","NA"
"-140.15","69.16","IVVAVIK NAT. PARK","2100660","2022-01-15 04:00","2022","01","15","04:00","-37.7","","-41.6","","67","","0.0","","19","","4","","","","98.90","","","","-43","","NA"
"-140.15","69.16","IVVAVIK NAT. PARK","2100660","2022-01-15 05:00","2022","01","15","05:00","-37.1","","-40.9","","68","","0.0","","20","","3","","","","98.87","","","","-41","","NA"
"-140.15","69.16","IVVAVIK NAT. PARK","2100660","2022-01-15 06:00","2022","01","15","06:00","-36.1","","-39.9","","69","","0.0","","20","","7","","","","98.91","","","","-44","","NA"
"-140.15","69.16","IVVAVIK NAT. PARK","2100660","2022-01-15 07:00","2022","01","15","07:00","-37.1","","-40.9","","68","","0.0","","21","","5","","","","98.96","","","","-44","","NA"
"-140.15","69.16","IVVAVIK NAT. PARK","2100660","2022-01-15 08:00","2022","01","15","08:00","-38.0","","-41.8","","67","","0.0","","20","","5","","","","99.00","","","","-45","","NA"
"-140.15","69.16","IVVAVIK NAT. PARK","2100660","2022-01-15 09:00","2022","01","15","09:00","-36.4","","-40.2","","68","","0.0","","20","","7","","","","99.00","","","","-45","","NA"
"-140.15","69.16","IVVAVIK NAT. PARK","2100660","2022-01-15 10:00","2022","01","15","10:00","-36.3","","-40.1","","68","","0.0","","19","","9","","","","99.05","","","","-46","","NA"
"-140.15","69.16","IVVAVIK NAT. PARK","2100660","2022-01-15 11:00","2022","01","15","11:00","-35.5","","-39.3","","68","","0.0","","19","","9","","","","99.07","","","","-45","","NA"
"-140.15","69.16","IVVAVIK NAT. PARK","2100660","2022-01-15 12:00","2022","01","15","12:00","-37.2","","-41.1","","67","","0.0","","19","","6","","","","99.10","","","","-45","","NA"
"-140.15","69.16","IVVAVIK NAT. PARK","2100660","2022-01-15 13:00","2022","01","15","13:00","-34.9","","-38.7","","68","","0.0","","19","","10","","","","99.13","","","","-45","","NA"
"-140.15","69.16","IVVAVIK NAT. PARK","2100660","2022-01-15 14:00","2022","01","15","14:00","-33.2","","-36.8","","70","","0.0","","21","","9","","","","99.14","","","","-42","","NA"
"-140.15","69.16","IVVAVIK NAT. PARK","2100660","2022-01-15 15:00","2022","01","15","15:00","-33.2","","-37.0","","69","","0.0","","20","","10","","","","99.15","","","","-43","","NA"
"-140.15","69.16","IVVAVIK NAT. PARK","2100660","2022-01-15 16:00","2022","01","15","16:00","-33.6","","-37.3","","69","","0.0","","21","","8","","","","99.15","","","","-42","","NA"
"-140.15","69.16","IVVAVIK NAT. PARK","2100660","2022-01-15 17:00","2022","01","15","17:00","-34.7","","-38.4","","69","","","M","19","","8","","","","99.16","","","","-43","","NA"
"-140.15","69.16","IVVAVIK NAT. PARK","2100660","2022-01-15 18:00","2022","01","15","18:00","-35.1","","-38.9","","68","","0.0","","20","","9","","","","99.16","","","","-45","","NA"
"-140.15","69.16","IVVAVIK NAT. PARK","2100660","2022-01-15 19:00","2022","01","15","19:00","-34.2","","-37.9","","69","","0.0","","20","","9","","","","99.19","","","","-44","","NA"
"-140.15","69.16","IVVAVIK NAT. PARK","2100660","2022-01-15 20:00","2022","01","15","20:00","-35.1","","-39.0","","68","","0.0","","18","","9","","","","99.19","","","","-45","","NA"
"-140.15","69.16","IVVAVIK NAT. PARK","2100660","2022-01-15 21:00","2022","01","15","21:00","-36.5","","-40.4","","67","","0.0","","18","","1","","","","99.19","","","","-38","","NA"
"-140.15","69.16","IVVAVIK NAT. PARK","2100660","2022-01-15 22:00","2022","01","15","22:00","-35.8","","-39.6","","68","","0.0","","22","","5","","","","99.24","","","","-42","","NA"
"-140.15","69.16","IVVAVIK NAT. PARK","2100660","2022-01-15 23:00","2022","01","15","23:00","-35.5","","-39.3","","68","","0.0","","19","","3","","","","99.16","","","","-39","","NA"
"-140.15","69.16","IVVAVIK NAT. PARK","2100660","2022-01-16 00:00","2022","01","16","00:00","-33.0","","-36.7","","69","","0.0","","21","","13","","","","99.17","","","","-44","","NA"
"-140.15","69.16","IVVAVIK NAT. PARK","2100660","2022-01-16 01:00","2022","01","16","01:00","-34.4","","-38.2","","69","","0.0","","20","","10","","","","99.16","","","","-44","","NA"
"-140.15","69.16","IVVAVIK NAT. PARK","2100660","2022-01-16 02:00","2022","01","16","02:00","-34.2","","-37.8","","70","","0.0","","20","","11","","","","99.12","","","","-45","","NA"
"-140.15","69.16","IVVAVIK NAT. PARK","2100660","2022-01-16 03:00","2022","01","16","03:00","-34.0","","-37.8","","69","","0.0","","20","","10","","","","99.13","","","","-44","","NA"
"-140.15","69.16","IVVAVIK NAT. PARK","2100660","2022-01-16 04:00","2022","01","16","04:00","-33.6","","-37.4","","69","","0.0","","20","","7","","","","99.13","","","","-41","","NA"
"-140.15","69.16","IVVAVIK NAT. PARK","2100660","2022-01-16 05:00","2022","01","16","05:00","-32.3","","-35.9","","70","","0.0","","20","","11","","","","99.10","","","","-42","","NA"
"-140.15","69.16","IVVAVIK NAT. PARK","2100660","2022-01-16 06:00","2022","01","16","06:00","-34.0","","-37.9","","68","","0.0","","20","","8","","","","99.09","","","","-43","","NA"
"-140.15","69.16","IVVAVIK NAT. PARK","2100660","2022-01-16 07:00","2022","01","16","07:00","-34.7","","-38.5","","68","","0.0","","20","","9","","","","99.09","","","","-44","","NA"
"-140.15","69.16","IVVAVIK NAT. PARK","2100660","2022-01-16 08:00","2022","01","16","08:00","-34.4","","-38.2","","68","","0.0","","19","","9","","","","99.10","","","","-44","","NA"
"-140.15","69.16","IVVAVIK NAT. PARK","2100660","2022-01-16 09:00","2022","01","16","09:00","-34.7","","-38.5","","68","","0.0","","20","","9","","","","99.11","","","","-44","","NA"
"-140.15","69.16","IVVAVIK NAT. PARK","2100660","2022-01-16 10:00","2022","01","16","10:00","-34.5","","-38.3","","68","","0.0","","19","","8","","","","99.12","","","","-43","","NA"
"-140.15","69.16","IVVAVIK NAT. PARK","2100660","2022-01-16 11:00","2022","01","16","11:00","-34.1","","-37.9","","69","","0.0","","20","","9","","","","99.17","","","","-43","","NA"
"-140.15","69.16","IVVAVIK NAT. PARK","2100660","2022-01-16 12:00","2022","01","16","12:00","-34.6","","-38.5","","68","","0.0","","19","","8","","","","99.19","","","","-43","","NA"
"-140.15","69.16","IVVAVIK NAT. PARK","2100660","2022-01-16 13:00","2022","01","16","13:00","-34.4","","-38.3","","68","","0.0","","20","","9","","","","99.21","","","","-44","","NA"
"-140.15","69.16","IVVAVIK NAT. PARK","2100660","2022-01-16 14:00","2022","01","16","14:00","-34.9","","-38.7","","68","","0.0","","20","","5","","","","99.22","","","","-41","","NA"
"-140.15","69.16","IVVAVIK NAT. PARK","2100660","2022-01-16 15:00","2022","01","16","15:00","-35.2","","-39.0","","68","","0.0","","20","","9","","","","99.20","","","","-45","","NA"
"-140.15","69.16","IVVAVIK NAT. PARK","2100660","2022-01-16 16:00","2022","01","16","16:00","-34.9","","-38.7","","68","","0.0","","19","","8","","","","99.20","","","","-44","","NA"
"-140.15","69.16","IVVAVIK NAT. PARK","2100660","2022-01-16 17:00","2022","01","16","17:00","-35.0","","-38.9","","68","","0.0","","19","","7","","","","99.24","","","","-43","","NA"
"-140.15","69.16","IVVAVIK NAT. PARK","2100660","2022-01-16 18:00","2022","01","16","18:00"
"-140.15","69.16","IVVAVIK NAT. PARK","2100660","2022-01-16 19:00","2022","01","16","19:00","-35.6","","-39.6","","67","","0.0","","19","","9","","","","99.22","","","","-45","","NA"
"-140.15","69.16","IVVAVIK NAT. PARK","2100660","2022-01-16 20:00","2022","01","16","20:00","-36.5","","-40.4","","68","","0.0","","35","","1","","","","99.19","","","","-38","","NA"
"-140.15","69.16","IVVAVIK NAT. PARK","2100660","2022-01-16 21:00","2022","01","16","21:00","-36.8","","-40.6","","68","","0.0","","","","0","","","","99.18","","","","","","NA"
"-140.15","69.16","IVVAVIK NAT. PARK","2100660","2022-01-16 22:00","2022","01","16","22:00","-37.6","","-41.6","","67","","0.0","","","","0","","","","99.14","","","","","","NA"
"-140.15","69.16","IVVAVIK NAT. PARK","2100660","2022-01-16 23:00","2022","01","16","23:00","-37.0","","-40.9","","67","","0.0","","1","","3","","","","99.11","","","","-41","","NA"
"-140.15","69.16","IVVAVIK NAT. PARK","2100660","2022-01-17 00:00","2022","01","17","00:00","-35.8","","-39.6","","68","","0.0","","1","","6","","","","99.05","","","","-43","","NA"
"-140.15","69.16","IVVAVIK NAT. PARK","2100660","2022-01-17 01:00","2022","01","17","01:00","-33.7","","-37.4","","69","","0.0","","1","","18","","","","99.04","","","","-47","","NA"
"-140.15","69.16","IVVAVIK NAT. PARK","2100660","2022-01-17 02:00","2022","01","17","02:00","-35.8","","-39.5","","68","","0.0","","2","","17","","","","98.98","","","","-49","","NA"
"-140.15","69.16","IVVAVIK NAT. PARK","2100660","2022-01-17 03:00","2022","01","17","03:00","-35.9","","-39.5","","69","","0.0","","1","","12","","","","98.91","","","","-47","","NA"
"-140.15","69.16","IVVAVIK NAT. PARK","2100660","2022-01-17 04:00","2022","01","17","04:00","-21.2","","-26.1","","64","","0.0","","23","","23","","","","98.82","","","","-33","","NA"
"-140.15","69.16","IVVAVIK NAT. PARK","2100660","2022-01-17 05:00","2022","01","17","05:00","-22.6","","-27.4","","65","","0.0","","22","","24","","","","98.85","","","","-35","","NA"
"-140.15","69.16","IVVAVIK NAT. PARK","2100660","2022-01-17 06:00","2022","01","17","06:00","-20.8","","-25.9","","63","","0.0","","21","","25","","","","98.82","","","","-33","","NA"
"-140.15","69.16","IVVAVIK NAT. PARK","2100660","2022-01-17 07:00","2022","01","17","07:00","-34.5","","-38.2","","69","","0.5","","3","","20","","","","98.83","","","","-49","","NA"
"-140.15","69.16","IVVAVIK NAT. PARK","2100660","2022-01-17 08:00","2022","01","17","08:00","-35.3","","-39.1","","68","","0.0","","2","","19","","","","98.82","","","","-49","","NA"
"-140.15","69.16","IVVAVIK NAT. PARK","2100660","2022-01-17 09:00","2022","01","17","09:00","-34.7","","-38.5","","68","","0.0","","1","","13","","","","98.86","","","","-46","","NA"
"-140.15","69.16","IVVAVIK NAT. PARK","2100660","2022-01-17 10:00","2022","01","17","10:00","-33.8","","-37.5","","69","","0.0","","2","","14","","","","98.84","","","","-46","","NA"
"-140.15","69.16","IVVAVIK NAT. PARK","2100660","2022-01-17 11:00","2022","01","17","11:00","-31.1","","-34.8","","70","","0.0","","1","","12","","","","98.85","","","","-41","","NA"
"-140.15","69.16","IVVAVIK NAT. PARK","2100660","2022-01-17 12:00","2022","01","17","12:00","-32.9","","-36.6","","70","","0.0","","2","","17","","","","98.89","","","","-46","","NA"
"-140.15","69.16","IVVAVIK NAT. PARK","2100660","2022-01-17 13:00","2022","01","17","13:00","-31.2","","-34.8","","71","","0.0","","36","","22","","","","98.89","","","","-45","","NA"
"-140.15","69.16","IVVAVIK NAT. PARK","2100660","2022-01-17 14:00","2022","01","17","14:00","-32.1","","-35.8","","70","","0.0","","1","","19","","","","98.87","","","","-45","","NA"
"-140.15","69.16","IVVAVIK NAT. PARK","2100660","2022-01-17 15:00","2022","01","17","15:00","-31.3","","-35.0","","70","","0.0","","1","","20","","","","98.86","","","","-45","","NA"
"-140.15","69.16","IVVAVIK NAT. PARK","2100660","2022-01-17 16:00","2022","01","17","16:00","-30.8","","-34.4","","71","","0.0","","35","","14","","","","98.89","","","","-42","","NA"
"-140.15","69.16","IVVAVIK NAT. PARK","2100660","2022-01-17 17:00","2022","01","17","17:00","-29.9","","-33.5","","71","","0.0","","35","","13","","","","98.90","","","","-40","","NA"
"-140.15","69.16","IVVAVIK NAT. PARK","2100660","2022-01-17 18:00","2022","01","17","18:00","-29.4","","-33.3","","69","","0.0","","36","","18","","","","98.90","","","","-42","","NA"
"-140.15","69.16","IVVAVIK NAT. PARK","2100660","2022-01-17 19:00","2022","01","17","19:00","-28.3","","-32.6","","66","","0.0","","35","","20","","","","98.92","","","","-41","","NA"
"-140.15","69.16","IVVAVIK NAT. PARK","2100660","2022-01-17 20:00","2022","01","17","20:00","-28.0","","-32.2","","67","","0.0","","36","","14","","","","98.91","","","","-39","","NA"
"-140.15","69.16","IVVAVIK NAT. PARK","2100660","2022-01-17 21:00","2022","01","17","21:00","-27.5","","-31.7","","68","","0.0","","36","","12","","","","98.93","","","","-37","","NA"
"-140.15","69.16","IVVAVIK NAT. PARK","2100660","2022-01-17 22:00","2022","01","17","22:00","-27.7","","-31.6","","69","","0.0","","2","","5","","","","98.95","","","","-33","","NA"
"-140.15","69.16","IVVAVIK NAT. PARK","2100660","2022-01-17 23:00","2022","01","17","23:00","-27.2","","-31.1","","69","","0.0","","36","","6","","","","98.96","","","","-33","","NA"
"-140.15","69.16","IVVAVIK NAT. PARK","2100660","2022-01-18 00:00","2022","01","18","00:00","-27.0","","-30.8","","70","","0.0","","0","","1","","","","99.01","","","","-28","","NA"
"-140.15","69.16","IVVAVIK NAT. PARK","2100660","2022-01-18 01:00","2022","01","18","01:00","-26.7","","-30.3","","71","","0.1","","0","","1","","","","98.99","","","","-28","","NA"
"-140.15","69.16","IVVAVIK NAT. PARK","2100660","2022-01-18 02:00","2022","01","18","02:00","-26.6","","-30.1","","72","","0.2","","","","0","","","","98.98","","","","","","NA"
"-140.15","69.16","IVVAVIK NAT. PARK","2100660","2022-01-18 03:00","2022","01","18","03:00","-26.4","","-29.9","","72","","0.1","","","","0","","","","98.99","","","","","","NA"
"-140.15","69.16","IVVAVIK NAT. PARK","2100660","2022-01-18 04:00","2022","01","18","04:00","-27.7","","-31.0","","73","","0.0","","36","","1","","","","98.96","","","","-29","","NA"
"-140.15","69.16","IVVAVIK NAT. PARK","2100660","2022-01-18 05:00","2022","01","18","05:00","-28.6","","-32.0","","72","","0.0","","","","0","","","","98.99","","","","","","NA"
"-140.15","69.16","IVVAVIK NAT. PARK","2100660","2022-01-18 06:00","2022","01","18","06:00","-27.2","","-30.6","","73","","0.0","","14","","2","","","","98.97","","","","-29","","NA"
"-140.15","69.16","IVVAVIK NAT. PARK","2100660","2022-01-18 07:00","2022","01","18","07:00","-26.5","","-30.0","","72","","0.0","","","","0","","","","98.98","","","","","","NA"
"-140.15","69.16","IVVAVIK NAT. PARK","2100660","2022-01-18 08:00","2022","01","18","08:00","-26.3","","-29.8","","72","","0.0","","","","0","","","","98.95","","","","","","NA"
"-140.15","69.16","IVVAVIK NAT. PARK","2100660","2022-01-18 09:00","2022","01","18","09:00","-26.0","","-29.6","","71","","0.0","","17","","4","","","","98.95","","","","-30","","NA"
"-140.15","69.16","IVVAVIK NAT. PARK","2100660","2022-01-18 10:00","2022","01","18","10:00","-25.7","","-29.3","","72","","0.0","","","","0","","","","98.93","","","","","","NA"
"-140.15","69.16","IVVAVIK NAT. PARK","2100660","2022-01-18 11:00","2022","01","18","11:00","-25.7","","-29.3","","72","","0.0","","2","","4","","","","98.95","","","","-30","","NA"
"-140.15","69.16","IVVAVIK NAT. PARK","2100660","2022-01-18 12:00","2022","01","18","12:00","-25.5","","-29.1","","72","","0.0","","3","","2","","","","98.95","","","","-28","","NA"
"-140.15","69.16","IVVAVIK NAT. PARK","2100660","2022-01-18 13:00","2022","01","18","13:00","-25.4","","-29.0","","72","","0.0","","1","","2","","","","98.95","","","","-27","","NA"
"-140.15","69.16","IVVAVIK NAT. PARK","2100660","2022-01-18 14:00","2022","01","18","14:00","-25.2","","-28.8","","72","","0.0","","","","0","","","","98.92","","","","","","NA"
"-140.15","69.16","IVVAVIK NAT. PARK","2100660","2022-01-18 15:00","2022","01","18","15:00","-25.1","","-28.6","","72","","0.0","","0","","1","","","","98.90","","","","-26","","NA"
"-140.15","69.16","IVVAVIK NAT. PARK","2100660","2022-01-18 16:00","2022","01","18","16:00","-25.2","","-28.7","","73","","0.0","","","","0","","","","98.87","","","","","","NA"
"-140.15","69.16","IVVAVIK NAT. PARK","2100660","2022-01-18 17:00","2022","01","18","17:00","-25.2","","-28.6","","73","","0.0","","35","","4","","","","98.83","","","","-29","","NA"
"-140.15","69.16","IVVAVIK NAT. PARK","2100660","2022-01-18 18:00","2022","01","18","18:00","-25.0","","-28.6","","72","","0.0","","0","","1","","","","98.82","","","","-26","","NA"
"-140.15","69.16","IVVAVIK NAT. PARK","2100660","2022-01-18 19:00","2022","01","18","19:00","-24.7","","-28.2","","72","","0.0","","20","","4","","","","98.78","","","","-29","","NA"
"-140.15","69.16","IVVAVIK NAT. PARK","2100660","2022-01-18 20:00","2022","01","18","20:00","-24.4","","-28.3","","71","","0.0","","24","","2","","","","98.75","","","","-26","","NA"
"-140.15","69.16","IVVAVIK NAT. PARK","2100660","2022-01-18 21:00","2022","01","18","21:00","-24.7","","-28.1","","73","","0.0","","2","","4","","","","98.75","","","","-29","","NA"
"-140.15","69.16","IVVAVIK NAT. PARK","2100660","2022-01-18 22:00","2022","01","18","22:00","-24.6","","-28.1","","73","","0.0","","1","","2","","","","98.74","","","","-27","","NA"
"-140.15","69.16","IVVAVIK NAT. PARK","2100660","2022-01-18 23:00","2022","01","18","23:00","-24.5","","-27.9","","74","","0.0","","34","","3","","","","98.78","","","","-27","","NA"
"-140.15","69.16","IVVAVIK NAT. PARK","2100660","2022-01-19 00:00","2022","01","19","00:00","-24.5","","-27.9","","74","","0.0","","1","","5","","","","98.77","","","","-29","","NA"
"-140.15","69.16","IVVAVIK NAT. PARK","2100660","2022-01-19 01:00","2022","01","19","01:00","-24.4","","-27.9","","73","","0.0","","1","","6","","","","98.79","","","","-30","","NA"
"-140.15","69.16","IVVAVIK NAT. PARK","2100660","2022-01-19 02:00","2022","01","19","02:00","-24.5","","-27.8","","74","","0.0","","1","","6","","","","98.78","","","","-30","","NA"
"-140.15","69.16","IVVAVIK NAT. PARK","2100660","2022-01-19 03:00","2022","01","19","03:00","-25.2","","-28.5","","74","","0.0","","36","","4","","","","98.79","","","","-29","","NA"
"-140.15","69.16","IVVAVIK NAT. PARK","2100660","2022-01-19 04:00","2022","01","19","04:00","-26.9","","-30.3","","73","","0.0","","0","","1","","","","98.75","","","","-28","","NA"
"-140.15","69.16","IVVAVIK NAT. PARK","2100660","2022-01-19 05:00","2022","01","19","05:00","-28.6","","-32.0","","73","","0.0","","0","","1","","","","98.77","","","","-30","","NA"
"-140.15","69.16","IVVAVIK NAT. PARK","2100660","2022-01-19 06:00","2022","01","19","06:00","-29.4","","-32.9","","72","","0.0","","","","0","","","","98.74","","","","","","NA"
"-140.15","69.16","IVVAVIK NAT. PARK","2100660","2022-01-19 07:00","2022","01","19","07:00","-30.2","","-33.6","","72","","0.0","","19","","3","","","","98.72","","","","-34","","NA"
"-140.15","69.16","IVVAVIK NAT. PARK","2100660","2022-01-19 08:00","2022","01","19","08:00","-31.6","","-35.1","","71","","0.0","","","","0","","","","98.74","","","","","","NA"
"-140.15","69.16","IVVAVIK NAT. PARK","2100660","2022-01-19 09:00","2022","01","19","09:00","-32.9","","-36.5","","70","","0.0","","3","","6","","","","98.74","","","","-40","","NA"
"-140.15","69.16","IVVAVIK NAT. PARK","2100660","2022-01-19 10:00","2022","01","19","10:00","-34.5","","-38.1","","69","","0.0","","","","0","","","","98.75","","","","","","NA"
"-140.15","69.16","IVVAVIK NAT. PARK","2100660","2022-01-19 11:00","2022","01","19","11:00","-35.1","","-38.9","","69","","0.0","","20","","1","","","","98.77","","","","-36","","NA"
"-140.15","69.16","IVVAVIK NAT. PARK","2100660","2022-01-19 12:00","2022","01","19","12:00","-35.9","","-39.6","","69","","0.0","","19","","2","","","","98.80","","","","-38","","NA"
"-140.15","69.16","IVVAVIK NAT. PARK","2100660","2022-01-19 13:00","2022","01","19","13:00","-35.6","","-39.3","","69","","0.0","","0","","1","","","","98.78","","","","-37","","NA"
"-140.15","69.16","IVVAVIK NAT. PARK","2100660","2022-01-19 14:00","2022","01","19","14:00","-36.0","","-39.7","","69","","0.0","","","","0","","","","98.76","","","","","","NA"
"-140.15","69.16","IVVAVIK NAT. PARK","2100660","2022-01-19 15:00","2022","01","19","15:00","-37.6","","-41.4","","67","","0.0","","19","","3","","","","98.76","","","","-42","","NA"
"-140.15","69.16","IVVAVIK NAT. PARK","2100660","2022-01-19 16:00","2022","01","19","16:00","-37.7","","-41.5","","68","","0.0","","","","0","","","","98.74","","","","","","NA"
"-140.15","69.16","IVVAVIK NAT. PARK","2100660","2022-01-19 17:00","2022","01","19","17:00","-36.5","","-40.4","","68","","0.0","","22","","2","","","","98.76","","","","-39","","NA"
"-140.15","69.16","IVVAVIK NAT. PARK","2100660","2022-01-19 18:00","2022","01","19","18:00","-35.2","","-39.0","","68","","0.0","","18","","3","","","","98.73","","","","-39","","NA"
"-140.15","69.16","IVVAVIK NAT. PARK","2100660","2022-01-19 19:00","2022","01","19","19:00","-34.8","","-38.5","","69","","0.0","","32","","1","","","","98.70","","","","-36","","NA"
"-140.15","69.16","IVVAVIK NAT. PARK","2100660","2022-01-19 20:00","2022","01","19","20:00","-34.8","","-38.5","","69","","0.0","","22","","2","","","","98.68","","","","-37","","NA"
"-140.15","69.16","IVVAVIK NAT. PARK","2100660","2022-01-19 21:00","2022","01","19","21:00","-34.4","","-38.1","","69","","0.0","","0","","1","","","","98.67","","","","-36","","NA"
"-140.15","69.16","IVVAVIK NAT. PARK","2100660","2022-01-19 22:00","2022","01","19","22:00","-33.9","","-37.6","","70","","0.0","","36","","4","","","","98.65","","","","-39","","NA"
"-140.15","69.16","IVVAVIK NAT. PARK","2100660","2022-01-19 23:00","2022","01","19","23:00","-33.0","","-36.6","","71","","0.0","","26","","2","","","","98.64","","","","-35","","NA"
"-140.15","69.16","IVVAVIK NAT. PARK","2100660","2022-01-20 00:00","2022","01","20","00:00","-33.5","","-37.2","","69","","0.0","","21","","3","","","","98.66","","","","-37","","NA"
"-140.15","69.16","IVVAVIK NAT. PARK","2100660","2022-01-20 01:00","2022","01","20","01:00","-32.1","","-35.7","","70","","0.0","","","","0","","","","98.65","","","","","","NA"
"-140.15","69.16","IVVAVIK NAT. PARK","2100660","2022-01-20 02:00","2022","01","20","02:00","-31.5","","-35.0","","71","","0.0","","20","","5","","","","98.68","","","","-37","","NA"
"-140.15","69.16","IVVAVIK NAT. PARK","2100660","2022-01-20 03:00","2022","01","20","03:00","-31.5","","-35.1","","70","","0.0","","33","","3","","","","98.70","","","","-35","","NA"
"-140.15","69.16","IVVAVIK NAT. PARK","2100660","2022-01-20 04:00","2022","01","20","04:00","-27.7","","-31.2","","72","","0.0","","2","","3","","","","98.72","","","","-31","","NA"
"-140.15","69.16","IVVAVIK NAT. PARK","2100660","2022-01-20 05:00","2022","01","20","05:00","-25.8","","-29.6","","70","","0.0","","19","","5","","","","98.73","","","","-31","","NA"
"-140.15","69.16","IVVAVIK NAT. PARK","2100660","2022-01-20 06:00","2022","01","20","06:00","-26.8","","-30.4","","72","","0.0","","21","","5","","","","98.75","","","","-32","","NA"
"-140.15","69.16","IVVAVIK NAT. PARK","2100660","2022-01-20 07:00","2022","01","20","07:00","-28.9","","-32.5","","71","","0.0","","20","","10","","","","98.81","","","","-38","","NA"
"-140.15","69.16","IVVAVIK NAT. PARK","2100660","2022-01-20 08:00","2022","01","20","08:00","-32.1","","-35.9","","69","","0.0","","18","","6","","","","98.89","","","","-39","","NA"
"-140.15","69.16","IVVAVIK NAT. PARK","2100660","2022-01-20 09:00","2022","01","20","09:00","-31.8","","-35.6","","69","","0.0","","18","","8","","","","98.93","","","","-40","","NA"
"-140.15","69.16","IVVAVIK NAT. PARK","2100660","2022-01-20 10:00","2022","01","20","10:00","-31.2","","-35.2","","68","","0.0","","15","","16","","","","98.99","","","","-43","","NA"
"-140.15","69.16","IVVAVIK NAT. PARK","2100660","2022-01-20 11:00","2022","01","20","11:00","-31.2","","-35.3","","67","","0.0","","16","","16","","","","99.02","","","","-43","","NA"
"-140.15","69.16","IVVAVIK NAT. PARK","2100660","2022-01-20 12:00","2022","01","20","12:00","-31.8","","-35.8","","67","","0.0","","17","","15","","","","99.17","","","","-44","","NA"
"-140.15","69.16","IVVAVIK NAT. PARK","2100660","2022-01-20 13:00","2022","01","20","13:00","-31.6","","-35.7","","67","","0.0","","16","","13","","","","99.18","","","","-43","","NA"
"-140.15","69.16","IVVAVIK NAT. PARK","2100660","2022-01-20 14:00","2022","01","20","14:00","-31.3","","-35.5","","66","","0.0","","18","","14","","","","99.23","","","","-43","","NA"
"-140.15","69.16","IVVAVIK NAT. PARK","2100660","2022-01-20 15:00","2022","01","20","15:00","-31.8","","-36.1","","66","","0.0","","16","","12","","","","99.28","","","","-42","","NA"
"-140.15","69.16","IVVAVIK NAT. PARK","2100660","2022-01-20 16:00","2022","01","20","16:00","-32.0","","-36.3","","66","","0.0","","17","","12","","","","99.26","","","","-43","","NA"
"-140.15","69.16","IVVAVIK NAT. PARK","2100660","2022-01-20 17:00","2022","01","20","17:00","-32.5","","-36.6","","67","","0.0","","19","","7","","","","99.23","","","","-40","","NA"
"-140.15","69.16","IVVAVIK NAT. PARK","2100660","2022-01-20 18:00","2022","01","20","18:00","-32.3","","-36.4","","67","","0.0","","18","","8","","","","99.23","","","","-41","","NA"
"-140.15","69.16","IVVAVIK NAT. PARK","2100660","2022-01-20 19:00","2022","01","20","19:00","-31.7","","-35.7","","67","","0.0","","20","","7","","","","99.21","","","","-39","","NA"
"-140.15","69.16","IVVAVIK NAT. PARK","2100660","2022-01-20 20:00","2022","01","20","20:00","-31.6","","-35.9","","66","","0.0","","17","","10","","","","99.22","","","","-41","","NA"
"-140.15","69.16","IVVAVIK NAT. PARK","2100660","2022-01-20 21:00","2022","01","20","21:00","-31.2","","-35.3","","67","","0.0","","18","","6","","","","99.20","","","","-38","","NA"
"-140.15","69.16","IVVAVIK NAT. PARK","2100660","2022-01-20 22:00","2022","01","20","22:00","-31.0","","-35.1","","67","","0.0","","17","","12","","","","99.19","","","","-41","","NA"
"-140.15","69.16","IVVAVIK NAT. PARK","2100660","2022-01-20 23:00","2022","01","20","23:00","-31.2","","-35.3","","68","","0.0","","18","","6","","","","99.17","","","","-38","","NA"
"-140.15","69.16","IVVAVIK NAT. PARK","2100660","2022-01-21 00:00","2022","01","21","00:00","-32.3","","-36.4","","67","","0.0","","20","","6","","","","99.16","","","","-39","","NA"
"-140.15","69.16","IVVAVIK NAT. PARK","2100660","2022-01-21 01:00","2022","01","21","01:00","-32.0","","-35.6","","71","","0.0","","22","","8","","","","99.15","","","","-40","","NA"
"-140.15","69.16","IVVAVIK NAT. PARK","2100660","2022-01-21 02:00","2022","01","21","02:00","-33.8","","-38.1","","66","","0.0","","20","","8","","","","99.12","","","","-42","","NA"
"-140.15","69.16","IVVAVIK NAT. PARK","2100660","2022-01-21 03:00","2022","01","21","03:00","-32.7","","-36.8","","67","","0.0","","20","","8","","","","99.12","","","","-41","","NA"
"-140.15","69.16","IVVAVIK NAT. PARK","2100660","2022-01-21 04:00","2022","01","21","04:00","-34.5","","-38.5","","67","","0.0","","19","","9","","","","99.07","","","","-44","","NA"
"-140.15","69.16","IVVAVIK NAT. PARK","2100660","2022-01-21 05:00","2022","01","21","05:00","-34.5","","-38.4","","68","","0.0","","19","","10","","","","99.02","","","","-45","","NA"
"-140.15","69.16","IVVAVIK NAT. PARK","2100660","2022-01-21 06:00","2022","01","21","06:00","-33.7","","-37.7","","67","","0.0","","20","","10","","","","98.95","","","","-44","","NA"
"-140.15","69.16","IVVAVIK NAT. PARK","2100660","2022-01-21 07:00","2022","01","21","07:00","-34.9","","-38.9","","67","","0.0","","20","","9","","","","98.91","","","","-44","","NA"
"-140.15","69.16","IVVAVIK NAT. PARK","2100660","2022-01-21 08:00","2022","01","21","08:00","-34.1","","-37.9","","68","","0.0","","19","","9","","","","98.84","","","","-43","","NA"
"-140.15","69.16","IVVAVIK NAT. PARK","2100660","2022-01-21 09:00","2022","01","21","09:00","-34.0","","-37.9","","68","","0.0","","20","","11","","","","98.74","","","","-44","","NA"
"-140.15","69.16","IVVAVIK NAT. PARK","2100660","2022-01-21 10:00","2022","01","21","10:00","-33.6","","-37.6","","67","","0.0","","20","","10","","","","98.69","","","","-43","","NA"
"-140.15","69.16","IVVAVIK NAT. PARK","2100660","2022-01-21 11:00","2022","01","21","11:00","-34.8","","-38.6","","68","","0.0","","","","0","","","","98.59","","","","","","NA"
"-140.15","69.16","IVVAVIK NAT. PARK","2100660","2022-01-21 12:00","2022","01","21","12:00","-31.9","","-35.6","","69","","0.0","","21","","9","","","","98.54","","","","-41","","NA"
"-140.15","69.16","IVVAVIK NAT. PARK","2100660","2022-01-21 13:00","2022","01","21","13:00","-30.5","","-34.5","","68","","0.0","","20","","10","","","","98.50","","","","-40","","NA"
"-140.15","69.16","IVVAVIK NAT. PARK","2100660","2022-01-21 14:00","2022","01","21","14:00","-32.4","","-36.3","","68","","0.0","","0","","1","","","","98.43","","","","-34","","NA"
"-140.15","69.16","IVVAVIK NAT. PARK","2100660","2022-01-21 15:00","2022","01","21","15:00","-30.6","","-34.3","","71","","0.0","","20","","10","","","","98.33","","","","-40","","NA"
"-140.15","69.16","IVVAVIK NAT. PARK","2100660","2022-01-21 16:00","2022","01","21","16:00","-30.3","","-34.1","","69","","0.0","","20","","7","","","","98.22","","","","-38","","NA"
"-140.15","69.16","IVVAVIK NAT. PARK","2100660","2022-01-21 17:00","2022","01","21","17:00","-30.8","","-35.0","","67","","0.0","","19","","8","","","","98.16","","","","-39","","NA"
"-140.15","69.16","IVVAVIK NAT. PARK","2100660","2022-01-21 18:00","2022","01","21","18:00","-29.0","","-33.1","","67","","0.0","","21","","9","","","","98.05","","","","-37","","NA"
"-140.15","69.16","IVVAVIK NAT. PARK","2100660","2022-01-21 19:00","2022","01","21","19:00","-27.4","","-31.5","","67","","0.0","","21","","11","","","","97.95","","","","-37","","NA"
"-140.15","69.16","IVVAVIK NAT. PARK","2100660","2022-01-21 20:00","2022","01","21","20:00","-25.5","","-30.1","","65","","0.0","","21","","9","","","","97.83","","","","-33","","NA"
"-140.15","69.16","IVVAVIK NAT. PARK","2100660","2022-01-21 21:00","2022","01","21","21:00","-27.0","","-31.8","","64","","0.0","","2","","7","","","","97.77","","","","-34","","NA"
"-140.15","69.16","IVVAVIK NAT. PARK","2100660","2022-01-21 22:00","2022","01","21","22:00","-26.4","","-30.7","","67","","0.0","","2","","7","","","","97.67","","","","-33","","NA"
"-140.15","69.16","IVVAVIK NAT. PARK","2100660","2022-01-21 23:00","2022","01","21","23:00","-25.5","","-29.6","","68","","0.0","","21","","2","","","","97.62","","","","-28","","NA"
"-140.15","69.16","IVVAVIK NAT. PARK","2100660","2022-01-22 00:00","2022","01","22","00:00","-24.1","","-28.4","","68","","0.0","","1","","12","","","","97.57","","","","-33","","NA"
"-140.15","69.16","IVVAVIK NAT. PARK","2100660","2022-01-22 01:00","2022","01","22","01:00","-25.0","","-29.5","","67","","0.0","","1","","15","","","","97.53","","","","-35","","NA"
"-140.15","69.16","IVVAVIK NAT. PARK","2100660","2022-01-22 02:00","2022","01","22","02:00","-24.3","","-28.5","","68","","0.0","","1","","11","","","","97.52","","","","-33","","NA"
"-140.15","69.16","IVVAVIK NAT. PARK","2100660","2022-01-22 03:00","2022","01","22","03:00","-23.9","","-28.0","","69","","0.0","","1","","7","","","","97.45","","","","-30","","NA"
"-140.15","69.16","IVVAVIK NAT. PARK","2100660","2022-01-22 04:00","2022","01","22","04:00","-23.6","","-28.1","","67","","0.0","","36","","12","","","","97.37","","","","-32","","NA"
"-140.15","69.16","IVVAVIK NAT. PARK","2100660","2022-01-22 05:00","2022","01","22","05:00","-23.9","","-28.0","","69","","0.0","","2","","12","","","","97.33","","","","-33","","NA"
"-140.15","69.16","IVVAVIK NAT. PARK","2100660","2022-01-22 06:00","2022","01","22","06:00","-23.1","","-27.2","","69","","0.0","","35","","12","","","","97.28","","","","-32","","NA"
"-140.15","69.16","IVVAVIK NAT. PARK","2100660","2022-01-22 07:00","2022","01","22","07:00","-23.0","","-27.2","","68","","0.0","","2","","13","","","","97.21","","","","-32","","NA"
"-140.15","69.16","IVVAVIK NAT. PARK","2100660","2022-01-22 08:00","2022","01","22","08:00","-22.7","","-26.9","","69","","0.0","","1","","13","","","","97.13","","","","-32","","NA"
"-140.15","69.16","IVVAVIK NAT. PARK","2100660","2022-01-22 09:00","2022","01","22","09:00","-22.1","","-26.4","","68","","0.0","","1","","13","","","","97.08","","","","-31","","NA"
"-140.15","69.16","IVVAVIK NAT. PARK","2100660","2022-01-22 10:00","2022","01","22","10:00","-20.7","","-24.9","","69","","0.0","","36","","15","","","","97.03","","","","-30","","NA"
"-140.15","69.16","IVVAVIK NAT. PARK","2100660","2022-01-22 11:00","2022","01","22","11:00","-13.7","","-17.9","","71","","0.0","","19","","9","","","","96.98","","","","-19","","NA"
"-140.15","69.16","IVVAVIK NAT. PARK","2100660","2022-01-22 12:00","2022","01","22","12:00","-13.1","","-17.8","","68","","0.0","","20","","37","","","","96.87","","","","-25","","NA"
"-140.15","69.16","IVVAVIK NAT. PARK","2100660","2022-01-22 13:00","2022","01","22","13:00","-12.8","","-17.8","","66","","0.3","","20","","34","","","","96.90","","","","-24","","NA"
"-140.15","69.16","IVVAVIK NAT. PARK","2100660","2022-01-22 14:00","2022","01","22","14:00","-14.9","","-19.2","","70","","0.0","","19","","37","","","","96.89","","","","-27","","NA"
"-140.15","69.16","IVVAVIK NAT. PARK","2100660","2022-01-22 15:00","2022","01","22","15:00","-15.3","","-19.5","","70","","0.0","","20","","38","","","","96.89","","","","-28","","NA"
"-140.15","69.16","IVVAVIK NAT. PARK","2100660","2022-01-22 16:00","2022","01","22","16:00","-15.7","","-20.0","","70","","0.0","","20","","29","","","","96.90","","","","-27","","NA"
"-140.15","69.16","IVVAVIK NAT. PARK","2100660","2022-01-22 17:00","2022","01","22","17:00","-13.7","","-18.9","","65","","0.0","","22","","26","","","","96.89","","","","-24","","NA"
"-140.15","69.16","IVVAVIK NAT. PARK","2100660","2022-01-22 18:00","2022","01","22","18:00","-14.4","","-19.4","","66","","0.0","","21","","35","","","","96.87","","","","-26","","NA"
"-140.15","69.16","IVVAVIK NAT. PARK","2100660","2022-01-22 19:00","2022","01","22","19:00","-15.1","","-19.9","","67","","0.0","","22","","30","","","","96.97","","","","-26","","NA"
"-140.15","69.16","IVVAVIK NAT. PARK","2100660","2022-01-22 20:00","2022","01","22","20:00","-14.6","","-19.5","","67","","0.0","","21","","32","","","","96.98","","","","-26","","NA"
"-140.15","69.16","IVVAVIK NAT. PARK","2100660","2022-01-22 21:00","2022","01","22","21:00","-14.0","","-19.0","","66","","0.0","","22","","25","","","","97.01","","","","-24","","NA"
"-140.15","69.16","IVVAVIK NAT. PARK","2100660","2022-01-22 22:00","2022","01","22","22:00","-13.9","","-18.8","","66","","0.0","","21","","32","","","","97.07","","","","-25","","NA"
"-140.15","69.16","IVVAVIK NAT. PARK","2100660","2022-01-22 23:00","2022","01","22","23:00","-14.0","","-18.9","","66","","0.0","","21","","31","","","","97.11","","","","-25","","NA"
"-140.15","69.16","IVVAVIK NAT. PARK","2100660","2022-01-23 00:00","2022","01","23","00:00","-14.1","","-19.2","","66","","0.0","","21","","24","","","","97.17","","","","-24","","NA"
"-140.15","69.16","IVVAVIK NAT. PARK","2100660","2022-01-23 01:00","2022","01","23","01:00","-13.6","","-18.9","","64","","0.0","","23","","20","","","","97.22","","","","-22","","NA"
"-140.15","69.16","IVVAVIK NAT. PARK","2100660","2022-01-23 02:00","2022","01","23","02:00","-14.0","","-19.4","","64","","0.0","","21","","20","","","","97.29","","","","-23","","NA"
"-140.15","69.16","IVVAVIK NAT. PARK","2100660","2022-01-23 03:00","2022","01","23","03:00","-14.2","","-19.5","","65","","0.0","","22","","16","","","","97.37","","","","-22","","NA"
"-140.15","69.16","IVVAVIK NAT. PARK","2100660","2022-01-23 04:00","2022","01","23","04:00","-14.4","","-19.5","","65","","0.0","","20","","13","","","","97.47","","","","-22","","NA"
"-140.15","69.16","IVVAVIK NAT. PARK","2100660","2022-01-23 05:00","2022","01","23","05:00","-14.9","","-19.7","","66","","0.0","","18","","13","","","","97.55","","","","-22","","NA"
"-140.15","69.16","IVVAVIK NAT. PARK","2100660","2022-01-23 06:00","2022","01","23","06:00","-15.4","","-20.2","","67","","0.0","","17","","14","","","","97.66","","","","-23","","NA"
"-140.15","69.16","IVVAVIK NAT. PARK","2100660","2022-01-23 07:00","2022","01","23","07:00","-14.9","","-19.8","","66","","0.0","","19","","16","","","","97.74","","","","-23","","NA"
"-140.15","69.16","IVVAVIK NAT. PARK","2100660","2022-01-23 08:00","2022","01","23","08:00","-14.8","","-19.7","","66","","0.0","","16","","18","","","","97.83","","","","-23","","NA"
"-140.15","69.16","IVVAVIK NAT. PARK","2100660","2022-01-23 09:00","2022","01","23","09:00","-15.0","","-19.9","","66","","0.0","","16","","15","","","","97.91","","","","-23","","NA"
"-140.15","69.16","IVVAVIK NAT. PARK","2100660","2022-01-23 10:00","2022","01","23","10:00","-15.0","","-20.0","","66","","0.0","","17","","19","","","","97.99","","","","-24","","NA"
"-140.15","69.16","IVVAVIK NAT. PARK","2100660","2022-01-23 11:00","2022","01","23","11:00","-15.6","","-20.4","","66","","0.0","","19","","14","","","","98.06","","","","-23","","NA"
"-140.15","69.16","IVVAVIK NAT. PARK","2100660","2022-01-23 12:00","2022","01","23","12:00","-15.5","","-20.5","","65","","0.0","","15","","17","","","","98.15","","","","-24","","NA"
"-140.15","69.16","IVVAVIK NAT. PARK","2100660","2022-01-23 13:00","2022","01","23","13:00","-15.5","","-20.6","","65","","0.0","","19","","10","","","","98.22","","","","-22","","NA"
"-140.15","69.16","IVVAVIK NAT. PARK","2100660","2022-01-23 14:00","2022","01","23","14:00","-14.6","","-19.7","","65","","0.0","","19","","13","","","","98.24","","","","-22","","NA"
"-140.15","69.16","IVVAVIK NAT. PARK","2100660","2022-01-23 15:00","2022","01","23","15:00","-14.3","","-19.4","","65","","0.0","","20","","16","","","","98.27","","","","-22","","NA"
"-140.15","69.16","IVVAVIK NAT. PARK","2100660","2022-01-23 16:00","2022","01","23","16:00","-14.6","","-19.8","","65","","0.0","","24","","16","","","","98.32","","","","-23","","NA"
"-140.15","69.16","IVVAVIK NAT. PARK","2100660","2022-01-23 17:00","2022","01","23","17:00","-13.1","","-18.3","","65","","0.0","","22","","15","","","","98.34","","","","-21","","NA"
"-140.15","69.16","IVVAVIK NAT. PARK","2100660","2022-01-23 18:00","2022","01","23","18:00","-14.3","","-19.3","","66","","0.0","","22","","11","","","","98.32","","","","-21","","NA"
"-140.15","69.16","IVVAVIK NAT. PARK","2100660","2022-01-23 19:00","2022","01","23","19:00","-15.1","","-19.6","","68","","0.0","","20","","9","","","","98.35","","","","-21","","NA"
"-140.15","69.16","IVVAVIK NAT. PARK","2100660","2022-01-23 20:00","2022","01","23","20:00","-13.2","","-18.1","","67","","0.0","","25","","20","","","","98.30","","","","-22","","NA"
"-140.15","69.16","IVVAVIK NAT. PARK","2100660","2022-01-23 21:00","2022","01","23","21:00","-13.7","","-18.5","","67","","0.0","","26","","19","","","","98.30","","","","-22","","NA"
"-140.15","69.16","IVVAVIK NAT. PARK","2100660","2022-01-23 22:00","2022","01","23","22:00","-13.4","","-17.9","","69","","0.0","","26","","12","","","","98.24","","","","-20","","NA"
"-140.15","69.16","IVVAVIK NAT. PARK","2100660","2022-01-23 23:00","2022","01","23","23:00","-12.8","","-17.4","","69","","0.0","","25","","25","","","","98.17","","","","-22","","NA"
"-140.15","69.16","IVVAVIK NAT. PARK","2100660","2022-01-24 00:00","2022","01","24","00:00","-13.3","","-17.5","","71","","0.1","","16","","5","","","","98.12","","","","-17","","NA"
"-140.15","69.16","IVVAVIK NAT. PARK","2100660","2022-01-24 01:00","2022","01","24","01:00","-10.1","","-15.0","","67","","0.0","","19","","26","","","","97.99","","","","-19","","NA"
"-140.15","69.16","IVVAVIK NAT. PARK","2100660","2022-01-24 02:00","2022","01","24","02:00","-7.7","","-12.8","","67","","0.3","","21","","42","","","","97.89","","","","-18","","NA"
"-140.15","69.16","IVVAVIK NAT. PARK","2100660","2022-01-24 03:00","2022","01","24","03:00","-9.4","","-13.7","","71","","0.0","","19","","34","","","","97.75","","","","-19","","NA"
"-140.15","69.16","IVVAVIK NAT. PARK","2100660","2022-01-24 04:00","2022","01","24","04:00","-5.4","","-10.3","","69","","0.0","","22","","35","","","","97.61","","","","-14","","NA"
"-140.15","69.16","IVVAVIK NAT. PARK","2100660","2022-01-24 05:00","2022","01","24","05:00","-8.4","","-12.8","","71","","0.0","","22","","38","","","","97.57","","","","-18","","NA"
"-140.15","69.16","IVVAVIK NAT. PARK","2100660","2022-01-24 06:00","2022","01","24","06:00","-10.1","","-14.3","","72","","0.3","","23","","42","","","","97.37","","","","-21","","NA"
"-140.15","69.16","IVVAVIK NAT. PARK","2100660","2022-01-24 07:00","2022","01","24","07:00","-8.0","","-11.8","","74","","0.0","","22","","28","","","","97.35","","","","-17","","NA"
"-140.15","69.16","IVVAVIK NAT. PARK","2100660","2022-01-24 08:00","2022","01","24","08:00","-5.4","","-9.9","","71","","0.2","","25","","28","","","","97.21","","","","-13","","NA"
"-140.15","69.16","IVVAVIK NAT. PARK","2100660","2022-01-24 09:00","2022","01","24","09:00","-4.7","","-8.6","","74","","0.0","","22","","22","","","","97.10","","","","-12","","NA"
"-140.15","69.16","IVVAVIK NAT. PARK","2100660","2022-01-24 10:00","2022","01","24","10:00","-7.5","","-11.5","","73","","0.0","","21","","28","","","","96.92","","","","-16","","NA"
"-140.15","69.16","IVVAVIK NAT. PARK","2100660","2022-01-24 11:00","2022","01","24","11:00","-4.0","","-8.7","","70","","0.2","","21","","25","","","","96.78","","","","-11","","NA"
"-140.15","69.16","IVVAVIK NAT. PARK","2100660","2022-01-24 12:00","2022","01","24","12:00","-3.2","","-9.0","","64","","0.0","","20","","26","","","","96.63","","","","-10","","NA"
"-140.15","69.16","IVVAVIK NAT. PARK","2100660","2022-01-24 13:00","2022","01","24","13:00","-5.6","","-10.4","","69","","0.0","","23","","36","","","","96.63","","","","-14","","NA"
"-140.15","69.16","IVVAVIK NAT. PARK","2100660","2022-01-24 14:00","2022","01","24","14:00","-4.4","","-9.3","","69","","0.2","","22","","34","","","","96.52","","","","-13","","NA"
"-140.15","69.16","IVVAVIK NAT. PARK","2100660","2022-01-24 15:00","2022","01","24","15:00","-5.3","","-9.8","","71","","0.0","","21","","32","","","","96.35","","","","-14","","NA"
"-140.15","69.16","IVVAVIK NAT. PARK","2100660","2022-01-24 16:00","2022","01","24","16:00","-6.3","","-10.3","","73","","0.0","","22","","29","","","","96.23","","","","-15","","NA"
"-140.15","69.16","IVVAVIK NAT. PARK","2100660","2022-01-24 17:00","2022","01","24","17:00","-5.0","","-9.8","","69","","0.0","","21","","35","","","","96.12","","","","-14","","NA"
"-140.15","69.16","IVVAVIK NAT. PARK","2100660","2022-01-24 18:00","2022","01","24","18:00","-4.8","","-9.6","","69","","0.0","","22","","27","","","","96.07","","","","-12","","NA"
"-140.15","69.16","IVVAVIK NAT. PARK","2100660","2022-01-24 19:00","2022","01","24","19:00","-4.4","","-9.1","","69","","0.0","","21","","34","","","","96.04","","","","-13","","NA"
"-140.15","69.16","IVVAVIK NAT. PARK","2100660","2022-01-24 20:00","2022","01","24","20:00","-3.5","","-8.1","","70","","0.0","","22","","10","","","","96.01","","","","-7","","NA"
"-140.15","69.16","IVVAVIK NAT. PARK","2100660","2022-01-24 21:00","2022","01","24","21:00","-3.0","","-7.5","","71","","0.0","","19","","27","","","","95.93","","","","-10","","NA"
"-140.15","69.16","IVVAVIK NAT. PARK","2100660","2022-01-24 22:00","2022","01","24","22:00","-3.2","","-7.4","","73","","0.0","","21","","32","","","","95.94","","","","-11","","NA"
"-140.15","69.16","IVVAVIK NAT. PARK","2100660","2022-01-24 23:00","2022","01","24","23:00","-3.9","","-7.9","","74","","0.0","","21","","31","","","","95.99","","","","-12","","NA"
"-140.15","69.16","IVVAVIK NAT. PARK","2100660","2022-01-25 00:00","2022","01","25","00:00","-3.8","","-7.2","","78","","0.0","","21","","24","","","","96.07","","","","-11","","NA"
"-140.15","69.16","IVVAVIK NAT. PARK","2100660","2022-01-25 01:00","2022","01","25","01:00","-3.6","","-7.3","","75","","0.0","","22","","30","","","","96.10","","","","-11","","NA"
"-140.15","69.16","IVVAVIK NAT. PARK","2100660","2022-01-25 02:00","2022","01","25","02:00","-3.7","","-7.6","","74","","0.0","","20","","30","","","","96.12","","","","-11","","NA"
"-140.15","69.16","IVVAVIK NAT. PARK","2100660","2022-01-25 03:00","2022","01","25","03:00","-3.1","","-7.1","","74","","0.0","","19","","26","","","","96.15","","","","-10","","NA"
"-140.15","69.16","IVVAVIK NAT. PARK","2100660","2022-01-25 04:00","2022","01","25","04:00","-3.0","","-7.1","","73","","0.0","","22","","23","","","","96.12","","","","-9","","NA"
"-140.15","69.16","IVVAVIK NAT. PARK","2100660","2022-01-25 05:00","2022","01","25","05:00","-2.9","","-7.2","","72","","0.0","","21","","27","","","","96.15","","","","-10","","NA"
"-140.15","69.16","IVVAVIK NAT. PARK","2100660","2022-01-25 06:00","2022","01","25","06:00","-3.6","","-7.9","","72","","0.0","","20","","27","","","","96.22","","","","-11","","NA"
"-140.15","69.16","IVVAVIK NAT. PARK","2100660","2022-01-25 07:00","2022","01","25","07:00","-2.9","","-7.4","","71","","0.0","","20","","15","","","","96.36","","","","-8","","NA"
"-140.15","69.16","IVVAVIK NAT. PARK","2100660","2022-01-25 08:00","2022","01","25","08:00","-3.4","","-7.6","","72","","0.0","","19","","14","","","","96.50","","","","-8","","NA"
"-140.15","69.16","IVVAVIK NAT. PARK","2100660","2022-01-25 09:00","2022","01","25","09:00","-3.3","","-7.6","","72","","0.0","","20","","9","","","","96.61","","","","-7","","NA"
"-140.15","69.16","IVVAVIK NAT. PARK","2100660","2022-01-25 10:00","2022","01","25","10:00","-3.8","","-8.1","","72","","0.0","","20","","12","","","","96.70","","","","-8","","NA"
"-140.15","69.16","IVVAVIK NAT. PARK","2100660","2022-01-25 11:00","2022","01","25","11:00","-3.4","","-7.6","","72","","0.0","","34","","11","","","","96.81","","","","-8","","NA"
"-140.15","69.16","IVVAVIK NAT. PARK","2100660","2022-01-25 12:00","2022","01","25","12:00","-3.8","","-8.0","","73","","0.0","","26","","8","","","","97.00","","","","-7","","NA"
"-140.15","69.16","IVVAVIK NAT. PARK","2100660","2022-01-25 13:00","2022","01","25","13:00","-4.9","","-10.0","","67","","0.0","","4","","21","","","","97.19","","","","-12","","NA"
"-140.15","69.16","IVVAVIK NAT. PARK","2100660","2022-01-25 14:00","2022","01","25","14:00","-6.7","","-11.8","","67","","0.0","","2","","16","","","","97.37","","","","-13","","NA"
"-140.15","69.16","IVVAVIK NAT. PARK","2100660","2022-01-25 15:00","2022","01","25","15:00","-8.7","","-13.7","","67","","0.0","","34","","17","","","","97.63","","","","-16","","NA"
"-140.15","69.16","IVVAVIK NAT. PARK","2100660","2022-01-25 16:00","2022","01","25","16:00","-10.9","","-15.7","","67","","0.0","","1","","23","","","","97.87","","","","-20","","NA"
"-140.15","69.16","IVVAVIK NAT. PARK","2100660","2022-01-25 17:00","2022","01","25","17:00","-11.3","","-14.8","","75","","0.0","","34","","7","","","","98.03","","","","-16","","NA"
"-140.15","69.16","IVVAVIK NAT. PARK","2100660","2022-01-25 18:00","2022","01","25","18:00","-10.7","","-14.5","","74","","0.0","","35","","2","","","","98.12","","","","-12","","NA"
"-140.15","69.16","IVVAVIK NAT. PARK","2100660","2022-01-25 19:00","2022","01","25","19:00","-10.6","","-15.8","","66","","0.0","","3","","13","","","","98.24","","","","-17","","NA"
"-140.15","69.16","IVVAVIK NAT. PARK","2100660","2022-01-25 20:00","2022","01","25","20:00","-11.8","","-16.5","","68","","0.0","","5","","14","","","","98.35","","","","-19","","NA"
"-140.15","69.16","IVVAVIK NAT. PARK","2100660","2022-01-25 21:00","2022","01","25","21:00","-12.0","","-17.1","","66","","0.0","","2","","13","","","","98.48","","","","-19","","NA"
"-140.15","69.16","IVVAVIK NAT. PARK","2100660","2022-01-25 22:00","2022","01","25","22:00","-12.3","","-17.0","","68","","0.0","","2","","13","","","","98.55","","","","-19","","NA"
"-140.15","69.16","IVVAVIK NAT. PARK","2100660","2022-01-25 23:00","2022","01","25","23:00","-13.1","","-17.6","","69","","0.0","","3","","14","","","","98.66","","","","-20","","NA"
"-140.15","69.16","IVVAVIK NAT. PARK","2100660","2022-01-26 00:00","2022","01","26","00:00","-14.8","","-19.6","","66","","0.0","","36","","18","","","","98.76","","","","-23","","NA"
"-140.15","69.16","IVVAVIK NAT. PARK","2100660","2022-01-26 01:00","2022","01","26","01:00","-14.7","","-19.3","","68","","0.0","","4","","10","","","","98.87","","","","-21","","NA"
"-140.15","69.16","IVVAVIK NAT. PARK","2100660","2022-01-26 02:00","2022","01","26","02:00","-14.9","","-20.5","","63","","0.0","","34","","8","","","","98.95","","","","-20","","NA"
"-140.15","69.16","IVVAVIK NAT. PARK","2100660","2022-01-26 03:00","2022","01","26","03:00","-15.3","","-20.8","","63","","0.0","","34","","13","","","","99.05","","","","-23","","NA"
"-140.15","69.16","IVVAVIK NAT. PARK","2100660","2022-01-26 04:00","2022","01","26","04:00","-16.1","","-20.9","","66","","0.0","","2","","12","","","","99.12","","","","-23","","NA"
"-140.15","69.16","IVVAVIK NAT. PARK","2100660","2022-01-26 05:00","2022","01","26","05:00","-16.3","","-21.0","","67","","0.0","","1","","10","","","","99.15","","","","-23","","NA"
"-140.15","69.16","IVVAVIK NAT. PARK","2100660","2022-01-26 06:00","2022","01","26","06:00","-16.7","","-21.3","","68","","0.0","","34","","9","","","","99.20","","","","-23","","NA"
"-140.15","69.16","IVVAVIK NAT. PARK","2100660","2022-01-26 07:00","2022","01","26","07:00","-16.8","","-21.5","","67","","0.0","","36","","10","","","","99.24","","","","-23","","NA"
"-140.15","69.16","IVVAVIK NAT. PARK","2100660","2022-01-26 08:00","2022","01","26","08:00","-17.3","","-22.6","","63","","0.0","","3","","8","","","","99.35","","","","-23","","NA"
"-140.15","69.16","IVVAVIK NAT. PARK","2100660","2022-01-26 09:00","2022","01","26","09:00","-17.9","","-23.3","","62","","0.0","","36","","14","","","","99.44","","","","-26","","NA"
"-140.15","69.16","IVVAVIK NAT. PARK","2100660","2022-01-26 10:00","2022","01","26","10:00","-18.8","","-24.3","","62","","0.0","","35","","14","","","","99.52","","","","-27","","NA"
"-140.15","69.16","IVVAVIK NAT. PARK","2100660","2022-01-26 11:00","2022","01","26","11:00","-20.3","","-25.2","","65","","0.0","","3","","5","","","","99.60","","","","-25","","NA"
"-140.15","69.16","IVVAVIK NAT. PARK","2100660","2022-01-26 12:00","2022","01","26","12:00","-21.6","","-26.2","","67","","0.0","","16","","5","","","","99.66","","","","-26","","NA"
"-140.15","69.16","IVVAVIK NAT. PARK","2100660","2022-01-26 13:00","2022","01","26","13:00","-23.0","","-26.9","","71","","0.0","","21","","10","","","","99.74","","","","-31","","NA"
"-140.15","69.16","IVVAVIK NAT. PARK","2100660","2022-01-26 14:00","2022","01","26","14:00","-25.8","","-29.2","","73","","0.0","","23","","3","","","","99.81","","","","-29","","NA"
"-140.15","69.16","IVVAVIK NAT. PARK","2100660","2022-01-26 15:00","2022","01","26","15:00","-26.6","","-29.5","","76","","0.0","","0","","1","","","","99.87","","","","-28","","NA"
"-140.15","69.16","IVVAVIK NAT. PARK","2100660","2022-01-26 16:00","2022","01","26","16:00","-26.1","","-29.2","","75","","0.0","","0","","1","","","","99.90","","","","-27","","NA"
"-140.15","69.16","IVVAVIK NAT. PARK","2100660","2022-01-26 17:00","2022","01","26","17:00","-26.7","","-29.8","","75","","0.0","","18","","3","","","","99.89","","","","-30","","NA"
"-140.15","69.16","IVVAVIK NAT. PARK","2100660","2022-01-26 18:00","2022","01","26","18:00","-27.8","","-30.9","","75","","0.0","","","","0","","","","99.95","","","","","","NA"
"-140.15","69.16","IVVAVIK NAT. PARK","2100660","2022-01-26 19:00","2022","01","26","19:00","-29.5","","-32.6","","74","","0.0","","20","","5","","","","99.97","","","","-35","","NA"
"-140.15","69.16","IVVAVIK NAT. PARK","2100660","2022-01-26 20:00","2022","01","26","20:00","-28.6","","-31.7","","75","","0.0","","19","","12","","","","99.98","","","","-38","","NA"
"-140.15","69.16","IVVAVIK NAT. PARK","2100660","2022-01-26 21:00","2022","01","26","21:00","-27.8","","-31.2","","72","","0.0","","21","","12","","","","100.01","","","","-37","","NA"
"-140.15","69.16","IVVAVIK NAT. PARK","2100660","2022-01-26 22:00","2022","01","26","22:00","-30.8","","-34.0","","73","","0.0","","18","","10","","","","100.04","","","","-40","","NA"
"-140.15","69.16","IVVAVIK NAT. PARK","2100660","2022-01-26 23:00","2022","01","26","23:00","-30.7","","-33.9","","74","","0.0","","19","","10","","","","100.05","","","","-40","","NA"
"-140.15","69.16","IVVAVIK NAT. PARK","2100660","2022-01-27 00:00","2022","01","27","00:00","-31.6","","-34.9","","73","","0.0","","18","","10","","","","100.10","","","","-41","","NA"
"-140.15","69.16","IVVAVIK NAT. PARK","2100660","2022-01-27 01:00","2022","01","27","01:00","-31.4","","-34.7","","73","","0.0","","19","","14","","","","100.09","","","","-43","","NA"
"-140.15","69.16","IVVAVIK NAT. PARK","2100660","2022-01-27 02:00","2022","01","27","02:00","-32.9","","-36.3","","71","","0.0","","21","","7","","","","100.09","","","","-41","","NA"
"-140.15","69.16","IVVAVIK NAT. PARK","2100660","2022-01-27 03:00","2022","01","27","03:00","-32.5","","-35.8","","72","","0.0","","20","","10","","","","100.07","","","","-42","","NA"
"-140.15","69.16","IVVAVIK NAT. PARK","2100660","2022-01-27 04:00","2022","01","27","04:00","-33.3","","-36.8","","71","","0.0","","19","","8","","","","100.08","","","","-42","","NA"
"-140.15","69.16","IVVAVIK NAT. PARK","2100660","2022-01-27 05:00","2022","01","27","05:00","-33.9","","-37.5","","70","","0.0","","18","","10","","","","100.08","","","","-44","","NA"
"-140.15","69.16","IVVAVIK NAT. PARK","2100660","2022-01-27 06:00","2022","01","27","06:00","-33.4","","-36.9","","71","","0.0","","19","","11","","","","100.05","","","","-44","","NA"
"-140.15","69.16","IVVAVIK NAT. PARK","2100660","2022-01-27 07:00","2022","01","27","07:00","-33.1","","-36.7","","70","","0.0","","19","","10","","","","100.07","","","","-43","","NA"
"-140.15","69.16","IVVAVIK NAT. PARK","2100660","2022-01-27 08:00","2022","01","27","08:00","-33.2","","-36.8","","71","","0.0","","18","","11","","","","100.05","","","","-44","","NA"
"-140.15","69.16","IVVAVIK NAT. PARK","2100660","2022-01-27 09:00","2022","01","27","09:00","-33.3","","-36.8","","71","","0.0","","20","","5","","","","100.06","","","","-39","","NA"
"-140.15","69.16","IVVAVIK NAT. PARK","2100660","2022-01-27 10:00","2022","01","27","10:00","-34.4","","-38.0","","70","","0.0","","20","","5","","","","100.06","","","","-41","","NA"
"-140.15","69.16","IVVAVIK NAT. PARK","2100660","2022-01-27 11:00","2022","01","27","11:00","-34.8","","-38.5","","69","","0.0","","19","","9","","","","100.05","","","","-44","","NA"
"-140.15","69.16","IVVAVIK NAT. PARK","2100660","2022-01-27 12:00","2022","01","27","12:00","-34.9","","-38.6","","69","","0.0","","18","","10","","","","100.04","","","","-45","","NA"
"-140.15","69.16","IVVAVIK NAT. PARK","2100660","2022-01-27 13:00","2022","01","27","13:00","-35.1","","-38.9","","69","","0.0","","19","","10","","","","100.01","","","","-45","","NA"
"-140.15","69.16","IVVAVIK NAT. PARK","2100660","2022-01-27 14:00","2022","01","27","14:00","-35.2","","-39.0","","69","","0.0","","20","","7","","","","99.99","","","","-43","","NA"
"-140.15","69.16","IVVAVIK NAT. PARK","2100660","2022-01-27 15:00","2022","01","27","15:00","-35.8","","-39.6","","68","","0.0","","19","","7","","","","99.93","","","","-44","","NA"
"-140.15","69.16","IVVAVIK NAT. PARK","2100660","2022-01-27 16:00","2022","01","27","16:00","-35.9","","-39.6","","68","","0.0","","19","","10","","","","99.90","","","","-46","","NA"
"-140.15","69.16","IVVAVIK NAT. PARK","2100660","2022-01-27 17:00","2022","01","27","17:00","-36.4","","-40.2","","68","","0.0","","19","","11","","","","99.89","","","","-47","","NA"
"-140.15","69.16","IVVAVIK NAT. PARK","2100660","2022-01-27 18:00","2022","01","27","18:00","-37.0","","-40.8","","68","","0.0","","19","","10","","","","99.88","","","","-48","","NA"
"-140.15","69.16","IVVAVIK NAT. PARK","2100660","2022-01-27 19:00","2022","01","27","19:00","-36.1","","-39.9","","68","","0.0","","20","","6","","","","99.85","","","","-44","","NA"
"-140.15","69.16","IVVAVIK NAT. PARK","2100660","2022-01-27 20:00","2022","01","27","20:00","-36.9","","-40.7","","68","","0.0","","18","","9","","","","99.82","","","","-47","","NA"
"-140.15","69.16","IVVAVIK NAT. PARK","2100660","2022-01-27 21:00","2022","01","27","21:00","-37.6","","-41.5","","67","","0.0","","20","","5","","","","99.80","","","","-44","","NA"
"-140.15","69.16","IVVAVIK NAT. PARK","2100660","2022-01-27 22:00","2022","01","27","22:00","-37.7","","-41.6","","67","","0.0","","19","","7","","","","99.76","","","","-46","","NA"
"-140.15","69.16","IVVAVIK NAT. PARK","2100660","2022-01-27 23:00","2022","01","27","23:00","-38.0","","-41.9","","67","","0.0","","19","","9","","","","99.76","","","","-48","","NA"
"-140.15","69.16","IVVAVIK NAT. PARK","2100660","2022-01-28 00:00","2022","01","28","00:00","-37.4","","-41.2","","67","","0.0","","18","","9","","","","99.74","","","","-47","","NA"
"-140.15","69.16","IVVAVIK NAT. PARK","2100660","2022-01-28 01:00","2022","01","28","01:00","-37.2","","-41.1","","67","","0.0","","18","","10","","","","99.72","","","","-48","","NA"
"-140.15","69.16","IVVAVIK NAT. PARK","2100660","2022-01-28 02:00","2022","01","28","02:00","-37.4","","-41.3","","67","","0.0","","18","","9","","","","99.72","","","","-47","","NA"
"-140.15","69.16","IVVAVIK NAT. PARK","2100660","2022-01-28 03:00","2022","01","28","03:00","-37.8","","-41.7","","67","","0.0","","18","","8","","","","99.68","","","","-47","","NA"
"-140.15","69.16","IVVAVIK NAT. PARK","2100660","2022-01-28 04:00","2022","01","28","04:00","-37.7","","-41.6","","67","","0.0","","18","","9","","","","99.67","","","","-48","","NA"
"-140.15","69.16","IVVAVIK NAT. PARK","2100660","2022-01-28 05:00","2022","01","28","05:00","-37.4","","-41.2","","67","","0.0","","18","","9","","","","99.66","","","","-47","","NA"
"-140.15","69.16","IVVAVIK NAT. PARK","2100660","2022-01-28 06:00","2022","01","28","06:00","-36.9","","-40.7","","67","","0.0","","18","","9","","","","99.64","","","","-47","","NA"
"-140.15","69.16","IVVAVIK NAT. PARK","2100660","2022-01-28 07:00","2022","01","28","07:00","-36.4","","-40.3","","68","","0.0","","18","","8","","","","99.63","","","","-45","","NA"
"-140.15","69.16","IVVAVIK NAT. PARK","2100660","2022-01-28 08:00","2022","01","28","08:00","-36.3","","-40.2","","67","","0.0","","18","","8","","","","99.67","","","","-45","","NA"
"-140.15","69.16","IVVAVIK NAT. PARK","2100660","2022-01-28 09:00","2022","01","28","09:00","-36.6","","-40.5","","67","","0.0","","18","","11","","","","99.64","","","","-48","","NA"
"-140.15","69.16","IVVAVIK NAT. PARK","2100660","2022-01-28 10:00","2022","01","28","10:00","-36.4","","-40.3","","67","","0.0","","18","","10","","","","99.67","","","","-47","","NA"
"-140.15","69.16","IVVAVIK NAT. PARK","2100660","2022-01-28 11:00","2022","01","28","11:00","-35.5","","-39.4","","68","","0.0","","19","","10","","","","99.63","","","","-46","","NA"
"-140.15","69.16","IVVAVIK NAT. PARK","2100660","2022-01-28 12:00","2022","01","28","12:00","-35.1","","-38.9","","68","","0.0","","19","","9","","","","99.65","","","","-45","","NA"
"-140.15","69.16","IVVAVIK NAT. PARK","2100660","2022-01-28 13:00","2022","01","28","13:00","-35.4","","-39.3","","67","","0.0","","19","","10","","","","99.65","","","","-46","","NA"
"-140.15","69.16","IVVAVIK NAT. PARK","2100660","2022-01-28 14:00","2022","01","28","14:00","-35.1","","-39.1","","67","","0.0","","20","","11","","","","99.65","","","","-46","","NA"
"-140.15","69.16","IVVAVIK NAT. PARK","2100660","2022-01-28 15:00","2022","01","28","15:00","-34.8","","-38.8","","67","","0.0","","19","","9","","","","99.65","","","","-44","","NA"
"-140.15","69.16","IVVAVIK NAT. PARK","2100660","2022-01-28 16:00","2022","01","28","16:00","-35.3","","-39.1","","68","","0.0","","17","","11","","","","99.64","","","","-46","","NA"
"-140.15","69.16","IVVAVIK NAT. PARK","2100660","2022-01-28 17:00","2022","01","28","17:00","-35.4","","-39.4","","67","","0.0","","18","","9","","","","99.63","","","","-45","","NA"
"-140.15","69.16","IVVAVIK NAT. PARK","2100660","2022-01-28 18:00","2022","01","28","18:00","-36.1","","-40.2","","66","","0.0","","18","","12","","","","99.60","","","","-48","","NA"
"-140.15","69.16","IVVAVIK NAT. PARK","2100660","2022-01-28 19:00","2022","01","28","19:00","-34.8","","-38.8","","67","","0.0","","19","","11","","","","99.56","","","","-45","","NA"
"-140.15","69.16","IVVAVIK NAT. PARK","2100660","2022-01-28 20:00","2022","01","28","20:00","-32.6","","-36.6","","67","","0.0","","16","","17","","","","99.55","","","","-45","","NA"
"-140.15","69.16","IVVAVIK NAT. PARK","2100660","2022-01-28 21:00","2022","01","28","21:00","-32.3","","-36.2","","68","","0.0","","17","","11","","","","99.52","","","","-42","","NA"
"-140.15","69.16","IVVAVIK NAT. PARK","2100660","2022-01-28 22:00","2022","01","28","22:00","-32.3","","-36.3","","68","","0.0","","18","","9","","","","99.52","","","","-41","","NA"
"-140.15","69.16","IVVAVIK NAT. PARK","2100660","2022-01-28 23:00","2022","01","28","23:00","-33.1","","-37.3","","66","","0.0","","19","","11","","","","99.50","","","","-43","","NA"
"-140.15","69.16","IVVAVIK NAT. PARK","2100660","2022-01-29 00:00","2022","01","29","00:00","-33.0","","-37.2","","66","","0.0","","18","","11","","","","99.49","","","","-43","","NA"
"-140.15","69.16","IVVAVIK NAT. PARK","2100660","2022-01-29 01:00","2022","01","29","01:00","-32.8","","-36.8","","67","","0.0","","18","","10","","","","99.47","","","","-42","","NA"
"-140.15","69.16","IVVAVIK NAT. PARK","2100660","2022-01-29 02:00","2022","01","29","02:00","-32.4","","-36.5","","67","","0.0","","19","","11","","","","99.45","","","","-43","","NA"
"-140.15","69.16","IVVAVIK NAT. PARK","2100660","2022-01-29 03:00","2022","01","29","03:00","-34.0","","-38.0","","67","","0.0","","19","","12","","","","99.41","","","","-45","","NA"
"-140.15","69.16","IVVAVIK NAT. PARK","2100660","2022-01-29 04:00","2022","01","29","04:00","-33.8","","-37.9","","66","","0.0","","20","","8","","","","99.33","","","","-42","","NA"
"-140.15","69.16","IVVAVIK NAT. PARK","2100660","2022-01-29 05:00","2022","01","29","05:00","-33.7","","-37.9","","66","","0.0","","19","","10","","","","99.28","","","","-44","","NA"
"-140.15","69.16","IVVAVIK NAT. PARK","2100660","2022-01-29 06:00","2022","01","29","06:00","-32.5","","-36.6","","67","","0.0","","20","","12","","","","99.21","","","","-43","","NA"
"-140.15","69.16","IVVAVIK NAT. PARK","2100660","2022-01-29 07:00","2022","01","29","07:00","-32.8","","-37.0","","66","","0.0","","20","","9","","","","99.18","","","","-42","","NA"
"-140.15","69.16","IVVAVIK NAT. PARK","2100660","2022-01-29 08:00","2022","01","29","08:00","-30.4","","-34.5","","67","","0.0","","22","","9","","","","99.14","","","","-39","","NA"
"-140.15","69.16","IVVAVIK NAT. PARK","2100660","2022-01-29 09:00","2022","01","29","09:00","-33.0","","-37.1","","67","","0.0","","19","","11","","","","99.13","","","","-43","","NA"
"-140.15","69.16","IVVAVIK NAT. PARK","2100660","2022-01-29 10:00","2022","01","29","10:00","-32.4","","-36.6","","67","","0.0","","19","","10","","","","99.14","","","","-42","","NA"
"-140.15","69.16","IVVAVIK NAT. PARK","2100660","2022-01-29 11:00","2022","01","29","11:00","-31.5","","-35.8","","66","","0.0","","19","","9","","","","99.13","","","","-40","","NA"
"-140.15","69.16","IVVAVIK NAT. PARK","2100660","2022-01-29 12:00","2022","01","29","12:00","-31.3","","-35.8","","65","","0.0","","17","","12","","","","99.11","","","","-42","","NA"
"-140.15","69.16","IVVAVIK NAT. PARK","2100660","2022-01-29 13:00","2022","01","29","13:00","-32.0","","-36.6","","64","","0.0","","16","","16","","","","99.08","","","","-44","","NA"
"-140.15","69.16","IVVAVIK NAT. PARK","2100660","2022-01-29 14:00","2022","01","29","14:00","-32.4","","-36.9","","65","","0.0","","18","","12","","","","99.08","","","","-43","","NA"
"-140.15","69.16","IVVAVIK NAT. PARK","2100660","2022-01-29 15:00","2022","01","29","15:00","-32.6","","-37.1","","64","","0.0","","17","","14","","","","99.04","","","","-44","","NA"
"-140.15","69.16","IVVAVIK NAT. PARK","2100660","2022-01-29 16:00","2022","01","29","16:00","-32.8","","-37.2","","65","","0.0","","18","","9","","","","99.05","","","","-42","","NA"
"-140.15","69.16","IVVAVIK NAT. PARK","2100660","2022-01-29 17:00","2022","01","29","17:00","-32.3","","-36.7","","65","","0.0","","17","","11","","","","99.07","","","","-42","","NA"
"-140.15","69.16","IVVAVIK NAT. PARK","2100660","2022-01-29 18:00","2022","01","29","18:00","-31.8","","-36.0","","66","","0.0","","16","","9","","","","99.08","","","","-41","","NA"
"-140.15","69.16","IVVAVIK NAT. PARK","2100660","2022-01-29 19:00","2022","01","29","19:00","-30.7","","-34.8","","67","","0.0","","17","","17","","","","99.07","","","","-43","","NA"
"-140.15","69.16","IVVAVIK NAT. PARK","2100660","2022-01-29 20:00","2022","01","29","20:00","-29.4","","-33.7","","66","","0.0","","16","","18","","","","99.08","","","","-42","","NA"
"-140.15","69.16","IVVAVIK NAT. PARK","2100660","2022-01-29 21:00","2022","01","29","21:00","-29.1","","-33.5","","66","","0.0","","16","","17","","","","99.09","","","","-41","","NA"
"-140.15","69.16","IVVAVIK NAT. PARK","2100660","2022-01-29 22:00","2022","01","29","22:00","-28.5","","-32.8","","66","","0.0","","16","","21","","","","99.10","","","","-41","","NA"
"-140.15","69.16","IVVAVIK NAT. PARK","2100660","2022-01-29 23:00","2022","01","29","23:00","-27.4","","-31.8","","66","","0.0","","16","","18","","","","99.14","","","","-39","","NA"
"-140.15","69.16","IVVAVIK NAT. PARK","2100660","2022-01-30 00:00","2022","01","30","00:00","-27.7","","-32.2","","65","","0.0","","16","","13","","","","99.18","","","","-38","","NA"
"-140.15","69.16","IVVAVIK NAT. PARK","2100660","2022-01-30 01:00","2022","01","30","01:00","-27.5","","-32.0","","66","","0.0","","16","","16","","","","99.23","","","","-39","","NA"
"-140.15","69.16","IVVAVIK NAT. PARK","2100660","2022-01-30 02:00","2022","01","30","02:00","-28.0","","-32.6","","65","","0.0","","17","","12","","","","99.26","","","","-38","","NA"
"-140.15","69.16","IVVAVIK NAT. PARK","2100660","2022-01-30 03:00","2022","01","30","03:00","-27.9","","-32.3","","66","","0.0","","16","","12","","","","99.29","","","","-38","","NA"
"-140.15","69.16","IVVAVIK NAT. PARK","2100660","2022-01-30 04:00","2022","01","30","04:00","-27.4","","-31.5","","68","","0.0","","16","","17","","","","99.29","","","","-39","","NA"
"-140.15","69.16","IVVAVIK NAT. PARK","2100660","2022-01-30 05:00","2022","01","30","05:00","-26.5","","-30.7","","68","","0.0","","16","","17","","","","99.29","","","","-38","","NA"
"-140.15","69.16","IVVAVIK NAT. PARK","2100660","2022-01-30 06:00","2022","01","30","06:00","-25.7","","-29.9","","68","","0.0","","17","","18","","","","99.33","","","","-37","","NA"
"-140.15","69.16","IVVAVIK NAT. PARK","2100660","2022-01-30 07:00","2022","01","30","07:00","-25.3","","-29.7","","67","","0.0","","17","","14","","","","99.33","","","","-35","","NA"
"-140.15","69.16","IVVAVIK NAT. PARK","2100660","2022-01-30 08:00","2022","01","30","08:00","-25.0","","-29.3","","68","","0.0","","17","","13","","","","99.35","","","","-34","","NA"
"-140.15","69.16","IVVAVIK NAT. PARK","2100660","2022-01-30 09:00","2022","01","30","09:00","-24.2","","-28.6","","67","","0.0","","16","","17","","","","99.36","","","","-35","","NA"
"-140.15","69.16","IVVAVIK NAT. PARK","2100660","2022-01-30 10:00","2022","01","30","10:00","-23.4","","-27.5","","69","","0.0","","17","","17","","","","99.38","","","","-34","","NA"
"-140.15","69.16","IVVAVIK NAT. PARK","2100660","2022-01-30 11:00","2022","01","30","11:00","-22.8","","-27.0","","69","","0.0","","17","","20","","","","99.39","","","","-34","","NA"
"-140.15","69.16","IVVAVIK NAT. PARK","2100660","2022-01-30 12:00","2022","01","30","12:00","-21.9","","-26.1","","68","","0.0","","16","","19","","","","99.43","","","","-33","","NA"
"-140.15","69.16","IVVAVIK NAT. PARK","2100660","2022-01-30 13:00","2022","01","30","13:00","-21.4","","-25.1","","72","","0.0","","17","","14","","","","99.45","","","","-30","","NA"
"-140.15","69.16","IVVAVIK NAT. PARK","2100660","2022-01-30 14:00","2022","01","30","14:00","-21.5","","-25.3","","72","","0.0","","16","","15","","","","99.47","","","","-31","","NA"
"-140.15","69.16","IVVAVIK NAT. PARK","2100660","2022-01-30 15:00","2022","01","30","15:00","-21.4","","-24.8","","74","","0.0","","17","","17","","","","99.48","","","","-31","","NA"
"-140.15","69.16","IVVAVIK NAT. PARK","2100660","2022-01-30 16:00","2022","01","30","16:00","-21.1","","-24.7","","72","","0.0","","16","","15","","","","99.48","","","","-30","","NA"
"-140.15","69.16","IVVAVIK NAT. PARK","2100660","2022-01-30 17:00","2022","01","30","17:00","-20.6","","-24.7","","70","","0.0","","17","","17","","","","99.50","","","","-30","","NA"
"-140.15","69.16","IVVAVIK NAT. PARK","2100660","2022-01-30 18:00","2022","01","30","18:00","-20.7","","-24.4","","72","","0.0","","15","","17","","","","99.53","","","","-31","","NA"
"-140.15","69.16","IVVAVIK NAT. PARK","2100660","2022-01-30 19:00","2022","01","30","19:00","-20.8","","-24.6","","71","","0.0","","15","","17","","","","99.53","","","","-31","","NA"
"-140.15","69.16","IVVAVIK NAT. PARK","2100660","2022-01-30 20:00","2022","01","30","20:00","-20.9","","-24.9","","70","","0.0","","17","","13","","","","99.57","","","","-30","","NA"
"-140.15","69.16","IVVAVIK NAT. PARK","2100660","2022-01-30 21:00","2022","01","30","21:00","-21.3","","-25.3","","70","","0.0","","16","","11","","","","99.59","","","","-29","","NA"
"-140.15","69.16","IVVAVIK NAT. PARK","2100660","2022-01-30 22:00","2022","01","30","22:00","-21.0","","-25.1","","70","","0.0","","16","","15","","","","99.61","","","","-30","","NA"
"-140.15","69.16","IVVAVIK NAT. PARK","2100660","2022-01-30 23:00","2022","01","30","23:00","-20.9","","-25.6","","66","","0.0","","15","","16","","","","99.65","","","","-31","","NA"
"-140.15","69.16","IVVAVIK NAT. PARK","2100660","2022-01-31 00:00","2022","01","31","00:00","-21.0","","-25.7","","66","","0.0","","17","","11","","","","99.68","","","","-29","","NA"
"-140.15","69.16","IVVAVIK NAT. PARK","2100660","2022-01-31 01:00","2022","01","31","01:00","-21.3","","-25.4","","70","","0.0","","19","","8","","","","99.73","","","","-28","","NA"
"-140.15","69.16","IVVAVIK NAT. PARK","2100660","2022-01-31 02:00","2022","01","31","02:00","-21.3","","-25.2","","71","","0.0","","16","","11","","","","99.74","","","","-29","","NA"
"-140.15","69.16","IVVAVIK NAT. PARK","2100660","2022-01-31 03:00","2022","01","31","03:00","-21.1","","-24.9","","71","","0.0","","17","","16","","","","99.80","","","","-31","","NA"
"-140.15","69.16","IVVAVIK NAT. PARK","2100660","2022-01-31 04:00","2022","01","31","04:00","-21.2","","-25.0","","72","","0.0","","18","","10","","","","99.81","","","","-29","","NA"
"-140.15","69.16","IVVAVIK NAT. PARK","2100660","2022-01-31 05:00","2022","01","31","05:00","-21.7","","-25.3","","72","","0.0","","16","","15","","","","99.83","","","","-31","","NA"
"-140.15","69.16","IVVAVIK NAT. PARK","2100660","2022-01-31 06:00","2022","01","31","06:00","-21.5","","-25.2","","72","","0.0","","16","","16","","","","99.84","","","","-31","","NA"
"-140.15","69.16","IVVAVIK NAT. PARK","2100660","2022-01-31 07:00","2022","01","31","07:00","-21.4","","-25.5","","69","","0.0","","15","","15","","","","99.87","","","","-31","","NA"
"-140.15","69.16","IVVAVIK NAT. PARK","2100660","2022-01-31 08:00","2022","01","31","08:00","-22.3","","-26.4","","69","","0.0","","18","","11","","","","99.92","","","","-30","","NA"
"-140.15","69.16","IVVAVIK NAT. PARK","2100660","2022-01-31 09:00","2022","01","31","09:00","-22.8","","-27.1","","68","","0.0","","15","","15","","","","100.01","","","","-33","","NA"
"-140.15","69.16","IVVAVIK NAT. PARK","2100660","2022-01-31 10:00","2022","01","31","10:00","-23.0","","-27.1","","69","","0.0","","18","","14","","","","100.06","","","","-32","","NA"
"-140.15","69.16","IVVAVIK NAT. PARK","2100660","2022-01-31 11:00","2022","01","31","11:00","-23.6","","-27.7","","69","","0.0","","16","","16","","","","100.13","","","","-34","","NA"
"-140.15","69.16","IVVAVIK NAT. PARK","2100660","2022-01-31 12:00","2022","01","31","12:00","-24.2","","-28.4","","68","","0.0","","16","","15","","","","100.18","","","","-34","","NA"
"-140.15","69.16","IVVAVIK NAT. PARK","2100660","2022-01-31 13:00","2022","01","31","13:00","-24.7","","-29.1","","67","","0.0","","17","","14","","","","100.25","","","","-35","","NA"
"-140.15","69.16","IVVAVIK NAT. PARK","2100660","2022-01-31 14:00","2022","01","31","14:00","-25.4","","-29.8","","67","","0.0","","16","","14","","","","100.32","","","","-35","","NA"
"-140.15","69.16","IVVAVIK NAT. PARK","2100660","2022-01-31 15:00","2022","01","31","15:00","-26.1","","-30.5","","66","","0.0","","16","","13","","","","100.41","","","","-36","","NA"
"-140.15","69.16","IVVAVIK NAT. PARK","2100660","2022-01-31 16:00","2022","01","31","16:00","-26.4","","-30.7","","67","","0.0","","16","","14","","","","100.46","","","","-37","","NA"
"-140.15","69.16","IVVAVIK NAT. PARK","2100660","2022-01-31 17:00","2022","01","31","17:00","-26.8","","-31.1","","67","","0.0","","17","","16","","","","100.51","","","","-38","","NA"
"-140.15","69.16","IVVAVIK NAT. PARK","2100660","2022-01-31 18:00","2022","01","31","18:00","-27.7","","-32.0","","67","","0.0","","16","","15","","","","100.57","","","","-39","","NA"
"-140.15","69.16","IVVAVIK NAT. PARK","2100660","2022-01-31 19:00","2022","01","31","19:00","-27.5","","-31.8","","67","","0.0","","16","","16","","","","100.60","","","","-39","","NA"
"-140.15","69.16","IVVAVIK NAT. PARK","2100660","2022-01-31 20:00","2022","01","31","20:00","-27.0","","-31.3","","67","","0.0","","16","","19","","","","100.63","","","","-39","","NA"
"-140.15","69.16","IVVAVIK NAT. PARK","2100660","2022-01-31 21:00","2022","01","31","21:00","-26.8","","-31.2","","67","","0.0","","16","","16","","","","100.68","","","","-38","","NA"
"-140.15","69.16","IVVAVIK NAT. PARK","2100660","2022-01-31 22:00","2022","01","31","22:00","-26.8","","-31.2","","66","","0.0","","16","","11","","","","100.74","","","","-36","","NA"
"-140.15","69.16","IVVAVIK NAT. PARK","2100660","2022-01-31 23:00","2022","01","31","23:00","-26.7","","-30.9","","68","","0.0","","16","","10","","","","100.80","","","","-35","","NA"
