"Longitude (x)","Latitude (y)","Station Name","Climate ID","Date/Time (LST)","Year","Month","Day","Time (LST)","Temp (°C)","Temp Flag","Dew Point Temp (°C)","Dew Point Temp Flag","Rel Hum (%)","Rel Hum Flag","Precip. Amount (mm)","Precip. Amount Flag","Wind Dir (10s deg)","Wind Dir Flag","Wind Spd (km/h)","Wind Spd Flag","Visibility (km)","Visibility Flag","Stn Press (kPa)","Stn Press Flag","Hmdx","Hmdx Flag","Wind Chill","Wind Chill Flag","Weather"
"-84.51","46.49","SAULT STE MARIE A","6057591","2021-12-01 00:00","2021","12","01","00:00","0.8","","-6.3","","59","","","","30","","40","","24.1","","99.07","","","","","","NA"
"-84.51","46.49","SAULT STE MARIE A","6057591","2021-12-01 01:00","2021","12","01","01:00","-0.2","","-9.0","","52","","","","32","","23","","24.1","","99.10","","","","-6","","Mostly Cloudy"
"-84.51","46.49","SAULT STE MARIE A","6057591","2021-12-01 02:00","2021","12","01","02:00","-0.9","","-7.2","","63","","","","32","","20","","24.1","","99.18","","","","-6","","NA"
"-84.51","46.49","SAULT STE MARIE A","6057591","2021-12-01 03:00","2021","12","01","03:00","-2.5","","-9.5","","59","","","","32","","13","","32.2","","99.22","","","","-7","","NA"
"-84.51","46.49","SAULT STE MARIE A","6057591","2021-12-01 04:00","2021","12","01","04:00","-3.4","","-10.0","","60","","","","34","","7","","24.1","","99.24","","","","-6","","Mostly Cloudy"
"-84.51","46.49","SAULT STE MARIE A","6057591","2021-12-01 05:00","2021","12","01","05:00","-5.4","","-9.0","","76","","","","6","","13","","32.2","","99.22","","","","-11","","NA"
"-84.51","46.49","SAULT STE MARIE A","6057591","2021-12-01 06:00","2021","12","01","06:00","-4.5","","-8.7","","73","","","","10","","5","","32.2","","99.27","","","","-7","","NA"
"-84.51","46.49","SAULT STE MARIE A","6057591","2021-12-01 07:00","2021","12","01","07:00","-5.0","","-8.4","","77","","","","13","","8","","32.2","","99.31","","","","-9","","Cloudy"
"-84.51","46.49","SAULT STE MARIE A","6057591","2021-12-01 08:00","2021","12","01","08:00","-5.5","","-9.1","","76","","","","9","","10","","32.2","","99.26","","","","-10","","NA"
"-84.51","46.49","SAULT STE MARIE A","6057591","2021-12-01 09:00","2021","12","01","09:00","-4.7","","-9.4","","70","","","","9","","10","","32.2","","99.27","","","","-9","","NA"
"-84.51","46.49","SAULT STE MARIE A","6057591","2021-12-01 10:00","2021","12","01","10:00","-4.1","","-9.1","","69","","","","8","","13","","32.2","","99.13","","","","-9","","Mostly Cloudy"
"-84.51","46.49","SAULT STE MARIE A","6057591","2021-12-01 11:00","2021","12","01","11:00","-3.0","","-7.8","","69","","","","9","","13","","16.1","","99.03","","","","-8","","NA"
"-84.51","46.49","SAULT STE MARIE A","6057591","2021-12-01 12:00","2021","12","01","12:00","-3.2","","-5.9","","82","","","","9","","12","","16.1","","98.93","","","","-8","","Snow Showers,Snow Pellets"
"-84.51","46.49","SAULT STE MARIE A","6057591","2021-12-01 13:00","2021","12","01","13:00","-2.3","","-3.6","","91","","","","9","","13","","2.4","","98.76","","","","-7","","Snow Showers"
"-84.51","46.49","SAULT STE MARIE A","6057591","2021-12-01 14:00","2021","12","01","14:00","-1.3","","-2.5","","92","","","","9","","14","","24.1","","98.57","","","","-6","","Snow Showers"
"-84.51","46.49","SAULT STE MARIE A","6057591","2021-12-01 15:00","2021","12","01","15:00","0.5","","-2.5","","80","","","","12","","13","","24.1","","98.44","","","","","","NA"
"-84.51","46.49","SAULT STE MARIE A","6057591","2021-12-01 16:00","2021","12","01","16:00","0.2","","-0.8","","93","","","","13","","12","","12.9","","98.35","","","","","","Freezing Rain"
"-84.51","46.49","SAULT STE MARIE A","6057591","2021-12-01 17:00","2021","12","01","17:00","0.4","","0.2","","99","","","","13","","12","","4.0","","98.23","","","","","","Freezing Drizzle,Fog"
"-84.51","46.49","SAULT STE MARIE A","6057591","2021-12-01 18:00","2021","12","01","18:00","0.7","","0.5","","99","","","","11","","10","","4.8","","98.10","","","","","","Fog"
"-84.51","46.49","SAULT STE MARIE A","6057591","2021-12-01 19:00","2021","12","01","19:00","1.4","","0.9","","97","","","","13","","12","","24.1","","97.91","","","","","","Cloudy"
"-84.51","46.49","SAULT STE MARIE A","6057591","2021-12-01 20:00","2021","12","01","20:00","1.9","","1.0","","94","","","","11","","10","","24.1","","97.73","","","","","","NA"
"-84.51","46.49","SAULT STE MARIE A","6057591","2021-12-01 21:00","2021","12","01","21:00","2.4","","1.2","","92","","","","12","","7","","19.3","","97.66","","","","","","NA"
"-84.51","46.49","SAULT STE MARIE A","6057591","2021-12-01 22:00","2021","12","01","22:00","3.6","","2.5","","92","","","","16","","13","","12.9","","97.39","","","","","","Cloudy"
"-84.51","46.49","SAULT STE MARIE A","6057591","2021-12-01 23:00","2021","12","01","23:00","3.9","","3.4","","96","","","","18","","10","","8.1","","97.27","","","","","","Rain,Fog"
"-84.51","46.49","SAULT STE MARIE A","6057591","2021-12-02 00:00","2021","12","02","00:00","4.5","","4.3","","98","","","","22","","10","","1.6","","97.06","","","","","","Thunderstorms,Moderate Rain Showers,Fog"
"-84.51","46.49","SAULT STE MARIE A","6057591","2021-12-02 01:00","2021","12","02","01:00","4.9","","4.2","","95","","","","25","","29","","2.4","","96.99","","","","","","Moderate Rain Showers,Fog"
"-84.51","46.49","SAULT STE MARIE A","6057591","2021-12-02 02:00","2021","12","02","02:00","4.4","","3.9","","96","","","","23","","15","","9.7","","96.87","","","","","","Rain Showers,Fog"
"-84.51","46.49","SAULT STE MARIE A","6057591","2021-12-02 03:00","2021","12","02","03:00","4.7","","4.2","","96","","","","22","","22","","12.9","","96.85","","","","","","Rain Showers"
"-84.51","46.49","SAULT STE MARIE A","6057591","2021-12-02 04:00","2021","12","02","04:00","4.8","","2.8","","87","","","","25","","32","","16.1","","96.82","","","","","","Cloudy"
"-84.51","46.49","SAULT STE MARIE A","6057591","2021-12-02 05:00","2021","12","02","05:00","4.8","","2.2","","83","","","","26","","34","","24.1","","96.80","","","","","","NA"
"-84.51","46.49","SAULT STE MARIE A","6057591","2021-12-02 06:00","2021","12","02","06:00","3.6","","2.1","","90","","","","27","","30","","19.3","","96.87","","","","","","Rain Showers"
"-84.51","46.49","SAULT STE MARIE A","6057591","2021-12-02 07:00","2021","12","02","07:00","3.5","","1.5","","87","","","","29","","45","","16.1","","96.96","","","","","","Rain Showers"
"-84.51","46.49","SAULT STE MARIE A","6057591","2021-12-02 08:00","2021","12","02","08:00","3.7","","1.2","","84","","","","29","","44","","19.3","","97.07","","","","","","NA"
"-84.51","46.49","SAULT STE MARIE A","6057591","2021-12-02 09:00","2021","12","02","09:00","2.9","","1.2","","88","","","","30","","48","","19.3","","97.21","","","","","","Rain Showers"
"-84.51","46.49","SAULT STE MARIE A","6057591","2021-12-02 10:00","2021","12","02","10:00","2.3","","1.1","","91","","","","30","","48","","16.1","","97.38","","","","","","Rain Showers"
"-84.51","46.49","SAULT STE MARIE A","6057591","2021-12-02 11:00","2021","12","02","11:00","1.6","","-0.8","","84","","","","31","","34","","24.1","","97.62","","","","","","NA"
"-84.51","46.49","SAULT STE MARIE A","6057591","2021-12-02 12:00","2021","12","02","12:00","1.3","","-2.2","","77","","","","31","","40","","24.1","","97.78","","","","","","NA"
"-84.51","46.49","SAULT STE MARIE A","6057591","2021-12-02 13:00","2021","12","02","13:00","0.7","","-2.9","","77","","","","32","","33","","19.3","","97.96","","","","","","Cloudy"
"-84.51","46.49","SAULT STE MARIE A","6057591","2021-12-02 14:00","2021","12","02","14:00","0.6","","-3.4","","75","","","","33","","29","","24.1","","98.14","","","","","","NA"
"-84.51","46.49","SAULT STE MARIE A","6057591","2021-12-02 15:00","2021","12","02","15:00","0.2","","-3.3","","77","","","","33","","26","","24.1","","98.32","","","","","","NA"
"-84.51","46.49","SAULT STE MARIE A","6057591","2021-12-02 16:00","2021","12","02","16:00","0.0","","-3.7","","76","","","","33","","32","","24.1","","98.48","","","","-7","","Cloudy"
"-84.51","46.49","SAULT STE MARIE A","6057591","2021-12-02 17:00","2021","12","02","17:00","-0.2","","-4.1","","75","","","","34","","22","","32.2","","98.61","","","","-6","","NA"
"-84.51","46.49","SAULT STE MARIE A","6057591","2021-12-02 18:00","2021","12","02","18:00","-0.3","","-4.7","","73","","","","33","","21","","32.2","","98.80","","","","-6","","NA"
"-84.51","46.49","SAULT STE MARIE A","6057591","2021-12-02 19:00","2021","12","02","19:00","-0.9","","-5.8","","69","","","","34","","22","","32.2","","98.94","","","","-7","","Mostly Cloudy"
"-84.51","46.49","SAULT STE MARIE A","6057591","2021-12-02 20:00","2021","12","02","20:00","-1.3","","-5.6","","73","","","","35","","8","","32.2","","98.99","","","","-4","","NA"
"-84.51","46.49","SAULT STE MARIE A","6057591","2021-12-02 21:00","2021","12","02","21:00","-1.4","","-5.8","","72","","","","33","","12","","32.2","","99.07","","","","-5","","NA"
"-84.51","46.49","SAULT STE MARIE A","6057591","2021-12-02 22:00","2021","12","02","22:00","-2.4","","-7.8","","66","","","","36","","16","","32.2","","99.18","","","","-8","","Mostly Cloudy"
"-84.51","46.49","SAULT STE MARIE A","6057591","2021-12-02 23:00","2021","12","02","23:00","-3.0","","-7.5","","72","","","","2","","12","","16.1","","99.23","","","","-7","","Snow Showers"
"-84.51","46.49","SAULT STE MARIE A","6057591","2021-12-03 00:00","2021","12","03","00:00","-3.3","","-8.5","","68","","","","3","","9","","19.3","","99.30","","","","-7","","Snow Showers"
"-84.51","46.49","SAULT STE MARIE A","6057591","2021-12-03 01:00","2021","12","03","01:00","-3.6","","-8.7","","68","","","","36","","8","","19.3","","99.35","","","","-7","","Snow Showers"
"-84.51","46.49","SAULT STE MARIE A","6057591","2021-12-03 02:00","2021","12","03","02:00","-4.1","","-8.3","","73","","","","5","","6","","19.3","","99.34","","","","-7","","Snow Showers"
"-84.51","46.49","SAULT STE MARIE A","6057591","2021-12-03 03:00","2021","12","03","03:00","-4.5","","-8.2","","76","","","","5","","8","","32.2","","99.41","","","","-8","","NA"
"-84.51","46.49","SAULT STE MARIE A","6057591","2021-12-03 04:00","2021","12","03","04:00","-4.2","","-7.8","","76","","","","2","","8","","32.2","","99.46","","","","-8","","Mostly Cloudy"
"-84.51","46.49","SAULT STE MARIE A","6057591","2021-12-03 05:00","2021","12","03","05:00","-4.3","","-7.6","","78","","","","1","","10","","32.2","","99.48","","","","-8","","NA"
"-84.51","46.49","SAULT STE MARIE A","6057591","2021-12-03 06:00","2021","12","03","06:00","-5.1","","-8.0","","80","","","","8","","11","","32.2","","99.49","","","","-10","","NA"
"-84.51","46.49","SAULT STE MARIE A","6057591","2021-12-03 07:00","2021","12","03","07:00","-5.8","","-8.8","","79","","","","6","","8","","32.2","","99.57","","","","-10","","Mostly Cloudy"
"-84.51","46.49","SAULT STE MARIE A","6057591","2021-12-03 08:00","2021","12","03","08:00","-6.2","","-9.1","","80","","","","10","","8","","32.2","","99.60","","","","-10","","NA"
"-84.51","46.49","SAULT STE MARIE A","6057591","2021-12-03 09:00","2021","12","03","09:00","-6.2","","-9.6","","77","","","","11","","7","","32.2","","99.64","","","","-10","","NA"
"-84.51","46.49","SAULT STE MARIE A","6057591","2021-12-03 10:00","2021","12","03","10:00","-5.6","","-9.2","","76","","","","8","","8","","32.2","","99.66","","","","-9","","Mostly Cloudy"
"-84.51","46.49","SAULT STE MARIE A","6057591","2021-12-03 11:00","2021","12","03","11:00","-5.2","","-9.3","","73","","","","8","","9","","32.2","","99.67","","","","-9","","NA"
"-84.51","46.49","SAULT STE MARIE A","6057591","2021-12-03 12:00","2021","12","03","12:00","-4.6","","-9.6","","69","","","","11","","5","","32.2","","99.59","","","","-7","","NA"
"-84.51","46.49","SAULT STE MARIE A","6057591","2021-12-03 13:00","2021","12","03","13:00","-4.0","","-8.8","","69","","","","10","","7","","32.2","","99.52","","","","-7","","Cloudy"
"-84.51","46.49","SAULT STE MARIE A","6057591","2021-12-03 14:00","2021","12","03","14:00","-3.6","","-8.4","","69","","","","9","","7","","32.2","","99.48","","","","-7","","Snow Showers"
"-84.51","46.49","SAULT STE MARIE A","6057591","2021-12-03 15:00","2021","12","03","15:00","-3.1","","-7.9","","70","","","","11","","5","","24.1","","99.42","","","","-5","","Snow Showers"
"-84.51","46.49","SAULT STE MARIE A","6057591","2021-12-03 16:00","2021","12","03","16:00","-3.5","","-6.3","","81","","","","8","","5","","19.3","","99.40","","","","-6","","Snow Showers"
"-84.51","46.49","SAULT STE MARIE A","6057591","2021-12-03 17:00","2021","12","03","17:00","-3.4","","-5.7","","84","","","","8","","9","","3.2","","99.39","","","","-7","","Snow Showers"
"-84.51","46.49","SAULT STE MARIE A","6057591","2021-12-03 18:00","2021","12","03","18:00","-3.5","","-4.8","","91","","","","10","","5","","8.1","","99.32","","","","-6","","Snow Showers"
"-84.51","46.49","SAULT STE MARIE A","6057591","2021-12-03 19:00","2021","12","03","19:00","-3.3","","-4.3","","93","","","","9","","3","","16.1","","99.33","","","","-5","","Snow Showers"
"-84.51","46.49","SAULT STE MARIE A","6057591","2021-12-03 20:00","2021","12","03","20:00","-3.1","","-3.8","","95","","","","8","","8","","4.8","","99.27","","","","-6","","Snow Showers,Fog"
"-84.51","46.49","SAULT STE MARIE A","6057591","2021-12-03 21:00","2021","12","03","21:00","-2.7","","-3.2","","97","","","","4","","3","","3.6","","99.17","","","","-4","","Snow Showers"
"-84.51","46.49","SAULT STE MARIE A","6057591","2021-12-03 22:00","2021","12","03","22:00","-1.7","","-2.1","","97","","","","7","","4","","3.6","","99.07","","","","-3","","Snow Showers"
"-84.51","46.49","SAULT STE MARIE A","6057591","2021-12-03 23:00","2021","12","03","23:00","-0.7","","-1.2","","96","","","","22","","5","","19.3","","98.99","","","","-2","","Snow Showers"
"-84.51","46.49","SAULT STE MARIE A","6057591","2021-12-04 00:00","2021","12","04","00:00","0.9","","-0.6","","90","","","","26","","23","","4.8","","98.96","","","","","","Snow Showers"
"-84.51","46.49","SAULT STE MARIE A","6057591","2021-12-04 01:00","2021","12","04","01:00","0.6","","-1.0","","89","","","","27","","34","","8.1","","98.91","","","","","","Snow Showers"
"-84.51","46.49","SAULT STE MARIE A","6057591","2021-12-04 02:00","2021","12","04","02:00","0.4","","-2.0","","84","","","","26","","25","","24.1","","98.90","","","","","","NA"
"-84.51","46.49","SAULT STE MARIE A","6057591","2021-12-04 03:00","2021","12","04","03:00","0.0","","-1.5","","89","","","","26","","24","","8.1","","98.92","","","","-6","","Snow Showers"
"-84.51","46.49","SAULT STE MARIE A","6057591","2021-12-04 04:00","2021","12","04","04:00","-0.3","","-0.9","","96","","","","27","","26","","2.0","","98.90","","","","-6","","Snow Showers"
"-84.51","46.49","SAULT STE MARIE A","6057591","2021-12-04 05:00","2021","12","04","05:00","-0.5","","-1.5","","92","","","","25","","39","","4.8","","98.89","","","","-8","","Snow Showers,Blowing Snow"
"-84.51","46.49","SAULT STE MARIE A","6057591","2021-12-04 06:00","2021","12","04","06:00","0.0","","-3.1","","80","","","","27","","43","","8.1","","98.89","","","","-8","","Snow Showers,Blowing Snow"
"-84.51","46.49","SAULT STE MARIE A","6057591","2021-12-04 07:00","2021","12","04","07:00","-0.5","","-2.1","","89","","","","26","","28","","6.4","","98.95","","","","-7","","Snow Showers,Blowing Snow"
"-84.51","46.49","SAULT STE MARIE A","6057591","2021-12-04 08:00","2021","12","04","08:00","-1.3","","-2.4","","92","","","","25","","26","","16.1","","99.00","","","","-8","","Snow Showers,Blowing Snow"
"-84.51","46.49","SAULT STE MARIE A","6057591","2021-12-04 09:00","2021","12","04","09:00","-0.3","","-4.3","","75","","","","29","","41","","24.1","","99.08","","","","-8","","Snow Showers,Blowing Snow"
"-84.51","46.49","SAULT STE MARIE A","6057591","2021-12-04 10:00","2021","12","04","10:00","0.0","","-5.2","","68","","","","30","","36","","16.1","","99.12","","","","-7","","Snow Showers,Blowing Snow"
"-84.51","46.49","SAULT STE MARIE A","6057591","2021-12-04 11:00","2021","12","04","11:00","-1.5","","-1.8","","98","","","","29","","39","","0.0","","99.20","","","","-9","","Heavy Snow Showers,Snow Pellets,Blowing Snow"
"-84.51","46.49","SAULT STE MARIE A","6057591","2021-12-04 12:00","2021","12","04","12:00","-1.5","","-2.5","","92","","","","28","","37","","4.8","","99.21","","","","-9","","Snow Showers,Snow Pellets,Blowing Snow"
"-84.51","46.49","SAULT STE MARIE A","6057591","2021-12-04 13:00","2021","12","04","13:00","-0.8","","-4.8","","75","","","","31","","42","","6.4","","99.27","","","","-9","","Snow Showers,Snow Pellets,Blowing Snow"
"-84.51","46.49","SAULT STE MARIE A","6057591","2021-12-04 14:00","2021","12","04","14:00","-1.6","","-7.2","","66","","","","31","","33","","6.4","","99.36","","","","-9","","Snow Showers,Blowing Snow"
"-84.51","46.49","SAULT STE MARIE A","6057591","2021-12-04 15:00","2021","12","04","15:00","-1.9","","-7.1","","68","","","","32","","32","","16.1","","99.44","","","","-9","","Snow Showers"
"-84.51","46.49","SAULT STE MARIE A","6057591","2021-12-04 16:00","2021","12","04","16:00","-1.6","","-6.0","","72","","","","32","","29","","16.1","","99.50","","","","-8","","Snow Showers,Snow Pellets,Blowing Snow"
"-84.51","46.49","SAULT STE MARIE A","6057591","2021-12-04 17:00","2021","12","04","17:00","-2.3","","-5.0","","82","","","","32","","24","","8.1","","99.58","","","","-9","","Snow Showers,Snow Pellets,Blowing Snow"
"-84.51","46.49","SAULT STE MARIE A","6057591","2021-12-04 18:00","2021","12","04","18:00","-2.8","","-4.2","","90","","","","30","","35","","0.6","","99.66","","","","-11","","Moderate Snow Showers,Snow Pellets,Blowing Snow"
"-84.51","46.49","SAULT STE MARIE A","6057591","2021-12-04 19:00","2021","12","04","19:00","-3.4","","-4.5","","92","","","","29","","40","","0.8","","99.67","","","","-12","","Moderate Snow Showers,Snow Pellets,Blowing Snow"
"-84.51","46.49","SAULT STE MARIE A","6057591","2021-12-04 20:00","2021","12","04","20:00","-3.0","","-4.7","","88","","","","30","","41","","4.8","","99.69","","","","-11","","Snow Showers,Snow Pellets,Blowing Snow"
"-84.51","46.49","SAULT STE MARIE A","6057591","2021-12-04 21:00","2021","12","04","21:00","-2.2","","-7.2","","69","","","","28","","31","","9.7","","99.74","","","","-9","","Snow Showers,Blowing Snow"
"-84.51","46.49","SAULT STE MARIE A","6057591","2021-12-04 22:00","2021","12","04","22:00","-2.1","","-6.5","","72","","","","29","","31","","8.1","","99.79","","","","-9","","Snow Showers,Blowing Snow"
"-84.51","46.49","SAULT STE MARIE A","6057591","2021-12-04 23:00","2021","12","04","23:00","-2.1","","-7.1","","69","","","","29","","32","","19.3","","99.85","","","","-9","","Snow Showers,Blowing Snow"
"-84.51","46.49","SAULT STE MARIE A","6057591","2021-12-05 00:00","2021","12","05","00:00","-2.3","","-5.6","","78","","","","28","","24","","8.1","","99.89","","","","-9","","Snow Showers,Blowing Snow"
"-84.51","46.49","SAULT STE MARIE A","6057591","2021-12-05 01:00","2021","12","05","01:00","-2.9","","-4.6","","88","","","","26","","24","","4.8","","99.92","","","","-10","","Snow Showers"
"-84.51","46.49","SAULT STE MARIE A","6057591","2021-12-05 02:00","2021","12","05","02:00","-4.5","","-5.6","","92","","","","36","","8","","19.3","","99.97","","","","-8","","Snow Showers"
"-84.51","46.49","SAULT STE MARIE A","6057591","2021-12-05 03:00","2021","12","05","03:00","-4.8","","-5.6","","94","","","","6","","10","","3.6","","100.02","","","","-9","","Snow Showers"
"-84.51","46.49","SAULT STE MARIE A","6057591","2021-12-05 04:00","2021","12","05","04:00","-4.9","","-6.5","","88","","","","12","","5","","4.8","","100.04","","","","-7","","Snow Showers"
"-84.51","46.49","SAULT STE MARIE A","6057591","2021-12-05 05:00","2021","12","05","05:00","-5.6","","-7.5","","87","","","","6","","14","","24.1","","100.02","","","","-11","","Snow Showers"
"-84.51","46.49","SAULT STE MARIE A","6057591","2021-12-05 06:00","2021","12","05","06:00","-5.5","","-7.7","","84","","","","8","","7","","24.1","","100.07","","","","-9","","Snow Showers"
"-84.51","46.49","SAULT STE MARIE A","6057591","2021-12-05 07:00","2021","12","05","07:00","-5.5","","-7.7","","85","","","","9","","10","","24.1","","100.08","","","","-10","","Snow Showers"
"-84.51","46.49","SAULT STE MARIE A","6057591","2021-12-05 08:00","2021","12","05","08:00","-5.9","","-7.3","","90","","","","9","","8","","19.3","","100.05","","","","-10","","Snow Showers"
"-84.51","46.49","SAULT STE MARIE A","6057591","2021-12-05 09:00","2021","12","05","09:00","-5.9","","-6.8","","93","","","","7","","10","","24.1","","100.01","","","","-10","","NA"
"-84.51","46.49","SAULT STE MARIE A","6057591","2021-12-05 10:00","2021","12","05","10:00","-5.0","","-6.4","","90","","","","8","","11","","19.3","","99.99","","","","-10","","Cloudy"
"-84.51","46.49","SAULT STE MARIE A","6057591","2021-12-05 11:00","2021","12","05","11:00","-4.5","","-6.3","","88","","","","8","","13","","24.1","","99.89","","","","-10","","NA"
"-84.51","46.49","SAULT STE MARIE A","6057591","2021-12-05 12:00","2021","12","05","12:00","-3.7","","-6.0","","84","","","","10","","14","","24.1","","99.78","","","","-9","","NA"
"-84.51","46.49","SAULT STE MARIE A","6057591","2021-12-05 13:00","2021","12","05","13:00","-3.4","","-5.8","","84","","","","9","","13","","16.1","","99.62","","","","-8","","Cloudy"
"-84.51","46.49","SAULT STE MARIE A","6057591","2021-12-05 14:00","2021","12","05","14:00","-3.2","","-4.9","","88","","","","9","","19","","4.8","","99.41","","","","-9","","Snow"
"-84.51","46.49","SAULT STE MARIE A","6057591","2021-12-05 15:00","2021","12","05","15:00","-3.5","","-4.7","","92","","","","9","","25","","1.6","","99.25","","","","-10","","Snow,Blowing Snow"
"-84.51","46.49","SAULT STE MARIE A","6057591","2021-12-05 16:00","2021","12","05","16:00","-3.6","","-4.7","","92","","","","8","","29","","1.2","","99.12","","","","-11","","Snow,Blowing Snow"
"-84.51","46.49","SAULT STE MARIE A","6057591","2021-12-05 17:00","2021","12","05","17:00","-3.7","","-4.7","","93","","","","9","","26","","1.2","","98.93","","","","-11","","Snow,Blowing Snow"
"-84.51","46.49","SAULT STE MARIE A","6057591","2021-12-05 18:00","2021","12","05","18:00","-3.7","","-4.8","","92","","","","9","","22","","1.2","","98.79","","","","-10","","Snow,Blowing Snow"
"-84.51","46.49","SAULT STE MARIE A","6057591","2021-12-05 19:00","2021","12","05","19:00","-3.6","","-5.0","","90","","","","9","","28","","1.2","","98.69","","","","-11","","Snow,Blowing Snow"
"-84.51","46.49","SAULT STE MARIE A","6057591","2021-12-05 20:00","2021","12","05","20:00","-4.0","","-5.2","","92","","","","9","","18","","1.2","","98.57","","","","-10","","Snow,Blowing Snow"
"-84.51","46.49","SAULT STE MARIE A","6057591","2021-12-05 21:00","2021","12","05","21:00","-4.1","","-5.4","","90","","","","8","","27","","2.0","","98.45","","","","-11","","Snow,Blowing Snow"
"-84.51","46.49","SAULT STE MARIE A","6057591","2021-12-05 22:00","2021","12","05","22:00","-3.8","","-5.7","","87","","","","8","","30","","6.4","","98.24","","","","-11","","Snow,Blowing Snow"
"-84.51","46.49","SAULT STE MARIE A","6057591","2021-12-05 23:00","2021","12","05","23:00","-3.5","","-5.8","","84","","","","9","","27","","9.7","","98.08","","","","-11","","Snow,Blowing Snow"
"-84.51","46.49","SAULT STE MARIE A","6057591","2021-12-06 00:00","2021","12","06","00:00","-3.2","","-5.7","","83","","","","9","","28","","16.1","","97.96","","","","-10","","Snow,Blowing Snow"
"-84.51","46.49","SAULT STE MARIE A","6057591","2021-12-06 01:00","2021","12","06","01:00","-3.1","","-5.7","","83","","","","9","","22","","16.1","","97.81","","","","-9","","Snow,Blowing Snow"
"-84.51","46.49","SAULT STE MARIE A","6057591","2021-12-06 02:00","2021","12","06","02:00","-3.1","","-5.5","","83","","","","9","","18","","16.1","","97.62","","","","-9","","Snow,Blowing Snow"
"-84.51","46.49","SAULT STE MARIE A","6057591","2021-12-06 03:00","2021","12","06","03:00","-2.8","","-4.9","","85","","","","10","","12","","16.1","","97.53","","","","-7","","Snow"
"-84.51","46.49","SAULT STE MARIE A","6057591","2021-12-06 04:00","2021","12","06","04:00","-2.7","","-4.4","","88","","","","10","","12","","9.7","","97.41","","","","-7","","Snow"
"-84.51","46.49","SAULT STE MARIE A","6057591","2021-12-06 05:00","2021","12","06","05:00","-3.1","","-3.7","","96","","","","9","","18","","2.0","","97.18","","","","-9","","Snow"
"-84.51","46.49","SAULT STE MARIE A","6057591","2021-12-06 06:00","2021","12","06","06:00","-2.8","","-3.7","","94","","","","9","","13","","4.8","","97.17","","","","-7","","Snow"
"-84.51","46.49","SAULT STE MARIE A","6057591","2021-12-06 07:00","2021","12","06","07:00","-2.6","","-3.1","","96","","","","13","","4","","6.4","","97.14","","","","-4","","Snow"
"-84.51","46.49","SAULT STE MARIE A","6057591","2021-12-06 08:00","2021","12","06","08:00","-2.0","","-2.2","","99","","","","22","","6","","12.9","","97.10","","","","-4","","Snow"
"-84.51","46.49","SAULT STE MARIE A","6057591","2021-12-06 09:00","2021","12","06","09:00","-0.2","","-1.6","","90","","","","23","","17","","24.1","","97.02","","","","-5","","NA"
"-84.51","46.49","SAULT STE MARIE A","6057591","2021-12-06 10:00","2021","12","06","10:00","0.2","","-2.2","","83","","","","24","","28","","24.1","","97.01","","","","","","Mostly Cloudy"
"-84.51","46.49","SAULT STE MARIE A","6057591","2021-12-06 11:00","2021","12","06","11:00","0.0","","-2.7","","82","","","","24","","32","","12.9","","97.02","","","","-7","","NA"
"-84.51","46.49","SAULT STE MARIE A","6057591","2021-12-06 12:00","2021","12","06","12:00","-0.6","","-3.0","","84","","","","31","","42","","11.3","","97.13","","","","-8","","Snow Showers,Snow Pellets,Blowing Snow"
"-84.51","46.49","SAULT STE MARIE A","6057591","2021-12-06 13:00","2021","12","06","13:00","-2.3","","-4.3","","86","","","","31","","41","","19.3","","97.31","","","","-11","","Snow Showers,Blowing Snow"
"-84.51","46.49","SAULT STE MARIE A","6057591","2021-12-06 14:00","2021","12","06","14:00","-3.3","","-5.9","","83","","","","31","","52","","3.2","","97.47","","","","-13","","Snow Showers,Snow Pellets,Blowing Snow"
"-84.51","46.49","SAULT STE MARIE A","6057591","2021-12-06 15:00","2021","12","06","15:00","-4.1","","-7.0","","80","","","","31","","44","","4.8","","97.68","","","","-13","","Snow Showers,Snow Pellets,Blowing Snow"
"-84.51","46.49","SAULT STE MARIE A","6057591","2021-12-06 16:00","2021","12","06","16:00","-4.0","","-7.4","","77","","","","31","","46","","4.8","","97.90","","","","-13","","Snow Showers,Snow Pellets,Blowing Snow"
"-84.51","46.49","SAULT STE MARIE A","6057591","2021-12-06 17:00","2021","12","06","17:00","-4.0","","-7.2","","79","","","","31","","41","","4.8","","98.12","","","","-13","","Snow Showers,Snow Pellets,Blowing Snow"
"-84.51","46.49","SAULT STE MARIE A","6057591","2021-12-06 18:00","2021","12","06","18:00","-4.3","","-7.2","","80","","","","32","","44","","4.8","","98.29","","","","-14","","Snow Showers,Snow Pellets,Blowing Snow"
"-84.51","46.49","SAULT STE MARIE A","6057591","2021-12-06 19:00","2021","12","06","19:00","-5.1","","-6.8","","88","","","","31","","47","","1.2","","98.47","","","","-15","","Snow Showers,Snow Pellets,Blowing Snow"
"-84.51","46.49","SAULT STE MARIE A","6057591","2021-12-06 20:00","2021","12","06","20:00","-5.6","","-6.8","","91","","","","30","","44","","0.8","","98.64","","","","-15","","Moderate Snow Showers,Snow Pellets,Blowing Snow"
"-84.51","46.49","SAULT STE MARIE A","6057591","2021-12-06 21:00","2021","12","06","21:00","-5.6","","-9.1","","76","","","","30","","45","","4.8","","98.76","","","","-15","","Snow Showers,Snow Pellets,Blowing Snow"
"-84.51","46.49","SAULT STE MARIE A","6057591","2021-12-06 22:00","2021","12","06","22:00","-6.5","","-10.5","","73","","","","31","","40","","6.4","","98.92","","","","-16","","Snow Showers,Blowing Snow"
"-84.51","46.49","SAULT STE MARIE A","6057591","2021-12-06 23:00","2021","12","06","23:00","-7.3","","-12.1","","69","","","","32","","37","","8.1","","99.03","","","","-17","","Snow Showers,Blowing Snow"
"-84.51","46.49","SAULT STE MARIE A","6057591","2021-12-07 00:00","2021","12","07","00:00","-8.7","","-10.9","","84","","","","34","","16","","2.4","","99.14","","","","-15","","Snow Showers,Blowing Snow"
"-84.51","46.49","SAULT STE MARIE A","6057591","2021-12-07 01:00","2021","12","07","01:00","-9.6","","-12.1","","82","","","","3","","17","","4.8","","99.22","","","","-17","","Snow Showers,Blowing Snow"
"-84.51","46.49","SAULT STE MARIE A","6057591","2021-12-07 02:00","2021","12","07","02:00","-10.5","","-12.3","","87","","","","2","","11","","1.6","","99.33","","","","-16","","Snow Showers"
"-84.51","46.49","SAULT STE MARIE A","6057591","2021-12-07 03:00","2021","12","07","03:00","-11.5","","-13.1","","88","","","","11","","5","","1.2","","99.46","","","","-15","","Snow Showers"
"-84.51","46.49","SAULT STE MARIE A","6057591","2021-12-07 04:00","2021","12","07","04:00","-11.9","","-13.6","","87","","","","3","","17","","0.6","","99.53","","","","-20","","Moderate Snow Showers"
"-84.51","46.49","SAULT STE MARIE A","6057591","2021-12-07 05:00","2021","12","07","05:00","-12.1","","-13.6","","89","","","","8","","12","","0.6","","99.54","","","","-18","","Moderate Snow Showers"
"-84.51","46.49","SAULT STE MARIE A","6057591","2021-12-07 06:00","2021","12","07","06:00","-12.8","","-14.6","","87","","","","10","","9","","1.2","","99.57","","","","-18","","Snow Showers"
"-84.51","46.49","SAULT STE MARIE A","6057591","2021-12-07 07:00","2021","12","07","07:00","-13.1","","-15.0","","86","","","","8","","15","","1.2","","99.65","","","","-21","","Snow Showers"
"-84.51","46.49","SAULT STE MARIE A","6057591","2021-12-07 08:00","2021","12","07","08:00","-13.3","","-15.1","","87","","","","8","","19","","1.2","","99.64","","","","-22","","Snow Showers,Blowing Snow"
"-84.51","46.49","SAULT STE MARIE A","6057591","2021-12-07 09:00","2021","12","07","09:00","-13.5","","-15.3","","87","","","","9","","12","","19.3","","99.64","","","","-20","","NA"
"-84.51","46.49","SAULT STE MARIE A","6057591","2021-12-07 10:00","2021","12","07","10:00","-11.5","","-14.3","","80","","","","14","","4","","24.1","","99.67","","","","-14","","Mostly Cloudy"
"-84.51","46.49","SAULT STE MARIE A","6057591","2021-12-07 11:00","2021","12","07","11:00","-8.9","","-14.6","","64","","","","22","","18","","40.2","","99.65","","","","-16","","NA"
"-84.51","46.49","SAULT STE MARIE A","6057591","2021-12-07 12:00","2021","12","07","12:00","-8.3","","-16.6","","51","","","","22","","18","","40.2","","99.58","","","","-15","","NA"
"-84.51","46.49","SAULT STE MARIE A","6057591","2021-12-07 13:00","2021","12","07","13:00","-8.3","","-17.3","","49","","","","24","","26","","40.2","","99.58","","","","-17","","Mainly Clear"
"-84.51","46.49","SAULT STE MARIE A","6057591","2021-12-07 14:00","2021","12","07","14:00","-8.8","","-17.9","","48","","","","23","","25","","40.2","","99.57","","","","-17","","NA"
"-84.51","46.49","SAULT STE MARIE A","6057591","2021-12-07 15:00","2021","12","07","15:00","-8.4","","-17.8","","47","","","","20","","19","","40.2","","99.52","","","","-16","","NA"
"-84.51","46.49","SAULT STE MARIE A","6057591","2021-12-07 16:00","2021","12","07","16:00","-8.8","","-20.2","","40","","","","22","","24","","40.2","","99.52","","","","-17","","Mainly Clear"
"-84.51","46.49","SAULT STE MARIE A","6057591","2021-12-07 17:00","2021","12","07","17:00","-9.2","","-18.7","","47","","","","23","","17","","40.2","","99.52","","","","-16","","NA"
"-84.51","46.49","SAULT STE MARIE A","6057591","2021-12-07 18:00","2021","12","07","18:00","-9.4","","-18.7","","47","","","","23","","17","","40.2","","99.49","","","","-16","","NA"
"-84.51","46.49","SAULT STE MARIE A","6057591","2021-12-07 19:00","2021","12","07","19:00","-9.9","","-19.0","","48","","","","26","","19","","40.2","","99.48","","","","-18","","Mainly Clear"
"-84.51","46.49","SAULT STE MARIE A","6057591","2021-12-07 20:00","2021","12","07","20:00","-11.3","","-16.9","","64","","","","21","","7","","32.2","","99.45","","","","-16","","NA"
"-84.51","46.49","SAULT STE MARIE A","6057591","2021-12-07 21:00","2021","12","07","21:00","-10.9","","-17.6","","58","","","","24","","11","","32.2","","99.42","","","","-17","","NA"
"-84.51","46.49","SAULT STE MARIE A","6057591","2021-12-07 22:00","2021","12","07","22:00","-10.7","","-16.9","","61","","","","26","","9","","32.2","","99.38","","","","-16","","Mostly Cloudy"
"-84.51","46.49","SAULT STE MARIE A","6057591","2021-12-07 23:00","2021","12","07","23:00","-9.1","","-14.7","","64","","","","23","","14","","32.2","","99.32","","","","-15","","NA"
"-84.51","46.49","SAULT STE MARIE A","6057591","2021-12-08 00:00","2021","12","08","00:00","-10.3","","-12.9","","82","","","","18","","7","","16.1","","99.28","","","","-14","","Snow Showers"
"-84.51","46.49","SAULT STE MARIE A","6057591","2021-12-08 01:00","2021","12","08","01:00","-10.5","","-12.7","","84","","","","16","","4","","6.4","","99.23","","","","-13","","Snow Showers"
"-84.51","46.49","SAULT STE MARIE A","6057591","2021-12-08 02:00","2021","12","08","02:00","-10.3","","-11.6","","90","","","","6","","4","","2.0","","99.15","","","","-13","","Snow Showers"
"-84.51","46.49","SAULT STE MARIE A","6057591","2021-12-08 03:00","2021","12","08","03:00","-11.7","","-13.0","","90","","","","4","","9","","1.6","","99.12","","","","-17","","Snow Showers"
"-84.51","46.49","SAULT STE MARIE A","6057591","2021-12-08 04:00","2021","12","08","04:00","-11.3","","-12.7","","90","","","","7","","5","","2.0","","99.06","","","","-14","","Snow Showers"
"-84.51","46.49","SAULT STE MARIE A","6057591","2021-12-08 05:00","2021","12","08","05:00","-11.6","","-12.9","","90","","","","4","","5","","2.0","","98.99","","","","-15","","Snow Showers"
"-84.51","46.49","SAULT STE MARIE A","6057591","2021-12-08 06:00","2021","12","08","06:00","-12.5","","-13.8","","90","","","","3","","6","","4.8","","98.96","","","","-16","","Snow Showers"
"-84.51","46.49","SAULT STE MARIE A","6057591","2021-12-08 07:00","2021","12","08","07:00","-12.8","","-14.3","","88","","","","5","","4","","19.3","","98.94","","","","-15","","Snow Showers"
"-84.51","46.49","SAULT STE MARIE A","6057591","2021-12-08 08:00","2021","12","08","08:00","-15.7","","-16.9","","91","","","","36","","1","","24.1","","98.93","","","","-16","","NA"
"-84.51","46.49","SAULT STE MARIE A","6057591","2021-12-08 09:00","2021","12","08","09:00","-16.1","","-17.7","","88","","","","36","","2","","24.1","","98.93","","","","-18","","NA"
"-84.51","46.49","SAULT STE MARIE A","6057591","2021-12-08 10:00","2021","12","08","10:00","-10.4","","-11.4","","92","","","","17","","4","","24.1","","98.93","","","","-13","","Mostly Cloudy"
"-84.51","46.49","SAULT STE MARIE A","6057591","2021-12-08 11:00","2021","12","08","11:00","-7.9","","-11.8","","74","","","","24","","12","","24.1","","98.95","","","","-13","","NA"
"-84.51","46.49","SAULT STE MARIE A","6057591","2021-12-08 12:00","2021","12","08","12:00","-6.2","","-10.9","","69","","","","25","","18","","12.9","","98.91","","","","-13","","Snow Showers"
"-84.51","46.49","SAULT STE MARIE A","6057591","2021-12-08 13:00","2021","12","08","13:00","-5.8","","-7.2","","90","","","","24","","12","","1.6","","98.90","","","","-11","","Snow Showers"
"-84.51","46.49","SAULT STE MARIE A","6057591","2021-12-08 14:00","2021","12","08","14:00","-4.7","","-9.4","","70","","","","34","","18","","16.1","","98.92","","","","-11","","Snow Showers"
"-84.51","46.49","SAULT STE MARIE A","6057591","2021-12-08 15:00","2021","12","08","15:00","-5.2","","-11.1","","63","","","","34","","17","","24.1","","98.98","","","","-11","","Blowing Snow"
"-84.51","46.49","SAULT STE MARIE A","6057591","2021-12-08 16:00","2021","12","08","16:00","-6.8","","-14.2","","56","","","","33","","13","","24.1","","99.04","","","","-12","","Mainly Clear"
"-84.51","46.49","SAULT STE MARIE A","6057591","2021-12-08 17:00","2021","12","08","17:00","-7.0","","-13.5","","60","","","","33","","8","","32.2","","99.10","","","","-11","","NA"
"-84.51","46.49","SAULT STE MARIE A","6057591","2021-12-08 18:00","2021","12","08","18:00","-7.1","","-11.8","","69","","","","32","","7","","16.1","","99.23","","","","-11","","Snow Showers"
"-84.51","46.49","SAULT STE MARIE A","6057591","2021-12-08 19:00","2021","12","08","19:00","-6.6","","-11.4","","69","","","","11","","8","","16.1","","99.26","","","","-10","","Snow Showers"
"-84.51","46.49","SAULT STE MARIE A","6057591","2021-12-08 20:00","2021","12","08","20:00","-7.3","","-9.5","","84","","","","10","","4","","1.2","","99.36","","","","-9","","Snow Showers,Snow Pellets"
"-84.51","46.49","SAULT STE MARIE A","6057591","2021-12-08 21:00","2021","12","08","21:00","-7.4","","-8.5","","92","","","","12","","8","","0.8","","99.38","","","","-11","","Moderate Snow Showers"
"-84.51","46.49","SAULT STE MARIE A","6057591","2021-12-08 22:00","2021","12","08","22:00","-7.4","","-9.1","","88","","","","10","","6","","16.1","","99.35","","","","-11","","Snow Showers"
"-84.51","46.49","SAULT STE MARIE A","6057591","2021-12-08 23:00","2021","12","08","23:00","-7.6","","-8.8","","91","","","","12","","5","","19.3","","99.38","","","","-10","","Snow Showers"
"-84.51","46.49","SAULT STE MARIE A","6057591","2021-12-09 00:00","2021","12","09","00:00","-7.6","","-8.8","","91","","","","15","","4","","24.1","","99.42","","","","-10","","Snow Showers"
"-84.51","46.49","SAULT STE MARIE A","6057591","2021-12-09 01:00","2021","12","09","01:00","-8.1","","-9.2","","91","","","","8","","5","","24.1","","99.45","","","","-11","","Cloudy"
"-84.51","46.49","SAULT STE MARIE A","6057591","2021-12-09 02:00","2021","12","09","02:00","-8.8","","-10.2","","89","","","","7","","5","","32.2","","99.48","","","","-12","","NA"
"-84.51","46.49","SAULT STE MARIE A","6057591","2021-12-09 03:00","2021","12","09","03:00","-8.7","","-10.0","","90","","","","8","","7","","32.2","","99.51","","","","-13","","NA"
"-84.51","46.49","SAULT STE MARIE A","6057591","2021-12-09 04:00","2021","12","09","04:00","-8.3","","-10.1","","87","","","","9","","7","","32.2","","99.46","","","","-12","","Cloudy"
"-84.51","46.49","SAULT STE MARIE A","6057591","2021-12-09 05:00","2021","12","09","05:00","-7.7","","-10.3","","81","","","","9","","12","","32.2","","99.41","","","","-13","","NA"
"-84.51","46.49","SAULT STE MARIE A","6057591","2021-12-09 06:00","2021","12","09","06:00","-7.1","","-9.7","","82","","","","8","","12","","32.2","","99.40","","","","-12","","NA"
"-84.51","46.49","SAULT STE MARIE A","6057591","2021-12-09 07:00","2021","12","09","07:00","-7.0","","-9.2","","84","","","","8","","12","","32.2","","99.42","","","","-12","","Cloudy"
"-84.51","46.49","SAULT STE MARIE A","6057591","2021-12-09 08:00","2021","12","09","08:00","-6.5","","-8.7","","85","","","","10","","14","","24.1","","99.45","","","","-12","","NA"
"-84.51","46.49","SAULT STE MARIE A","6057591","2021-12-09 09:00","2021","12","09","09:00","-6.2","","-8.1","","86","","","","10","","12","","32.2","","99.41","","","","-11","","NA"
"-84.51","46.49","SAULT STE MARIE A","6057591","2021-12-09 10:00","2021","12","09","10:00","-5.1","","-7.4","","84","","","","10","","14","","32.2","","99.36","","","","-10","","Cloudy"
"-84.51","46.49","SAULT STE MARIE A","6057591","2021-12-09 11:00","2021","12","09","11:00","-4.5","","-7.1","","82","","","","10","","10","","32.2","","99.30","","","","-9","","NA"
"-84.51","46.49","SAULT STE MARIE A","6057591","2021-12-09 12:00","2021","12","09","12:00","-2.7","","-7.8","","68","","","","13","","15","","32.2","","99.18","","","","-8","","Blowing Snow"
"-84.51","46.49","SAULT STE MARIE A","6057591","2021-12-09 13:00","2021","12","09","13:00","-2.3","","-6.6","","72","","","","13","","21","","11.3","","99.01","","","","-8","","Snow,Blowing Snow"
"-84.51","46.49","SAULT STE MARIE A","6057591","2021-12-09 14:00","2021","12","09","14:00","-2.6","","-4.7","","86","","","","13","","21","","2.0","","98.88","","","","-9","","Snow Showers,Blowing Snow"
"-84.51","46.49","SAULT STE MARIE A","6057591","2021-12-09 15:00","2021","12","09","15:00","-2.8","","-4.2","","90","","","","13","","18","","2.0","","98.74","","","","-8","","Snow Showers,Blowing Snow"
"-84.51","46.49","SAULT STE MARIE A","6057591","2021-12-09 16:00","2021","12","09","16:00","-2.6","","-3.6","","92","","","","11","","15","","2.0","","98.62","","","","-8","","Snow Showers"
"-84.51","46.49","SAULT STE MARIE A","6057591","2021-12-09 17:00","2021","12","09","17:00","-2.0","","-2.8","","94","","","","12","","18","","2.0","","98.57","","","","-7","","Snow Showers,Fog"
"-84.51","46.49","SAULT STE MARIE A","6057591","2021-12-09 18:00","2021","12","09","18:00","-1.6","","-2.3","","95","","","","13","","11","","4.0","","98.60","","","","-5","","Snow Showers,Fog"
"-84.51","46.49","SAULT STE MARIE A","6057591","2021-12-09 19:00","2021","12","09","19:00","-1.2","","-2.1","","94","","","","14","","10","","4.0","","98.53","","","","-5","","Snow Showers,Fog"
"-84.51","46.49","SAULT STE MARIE A","6057591","2021-12-09 20:00","2021","12","09","20:00","-0.7","","-1.3","","96","","","","14","","14","","2.4","","98.47","","","","-5","","Snow Showers,Fog"
"-84.51","46.49","SAULT STE MARIE A","6057591","2021-12-09 21:00","2021","12","09","21:00","-0.4","","-0.7","","98","","","","13","","12","","2.8","","98.37","","","","-4","","Snow,Fog"
"-84.51","46.49","SAULT STE MARIE A","6057591","2021-12-09 22:00","2021","12","09","22:00","-0.1","","-0.7","","96","","","","15","","10","","9.7","","98.30","","","","-3","","Snow,Fog"
"-84.51","46.49","SAULT STE MARIE A","6057591","2021-12-09 23:00","2021","12","09","23:00","-0.2","","-1.3","","92","","","","17","","10","","16.1","","98.32","","","","-4","","Snow"
"-84.51","46.49","SAULT STE MARIE A","6057591","2021-12-10 00:00","2021","12","10","00:00","-0.4","","-1.4","","93","","","","15","","5","","12.9","","98.30","","","","-2","","Snow"
"-84.51","46.49","SAULT STE MARIE A","6057591","2021-12-10 01:00","2021","12","10","01:00","-0.4","","-1.4","","93","","","","18","","7","","16.1","","98.29","","","","-3","","Cloudy"
"-84.51","46.49","SAULT STE MARIE A","6057591","2021-12-10 02:00","2021","12","10","02:00","-0.3","","-1.3","","93","","","","14","","3","","9.7","","98.28","","","","-1","","Fog"
"-84.51","46.49","SAULT STE MARIE A","6057591","2021-12-10 03:00","2021","12","10","03:00","0.0","","-1.1","","92","","","","18","","8","","9.7","","98.37","","","","-3","","Snow,Fog"
"-84.51","46.49","SAULT STE MARIE A","6057591","2021-12-10 04:00","2021","12","10","04:00","0.6","","-0.4","","93","","","","24","","17","","8.1","","98.43","","","","","","Snow,Fog"
"-84.51","46.49","SAULT STE MARIE A","6057591","2021-12-10 05:00","2021","12","10","05:00","1.5","","0.2","","91","","","","26","","21","","16.1","","98.50","","","","","","NA"
"-84.51","46.49","SAULT STE MARIE A","6057591","2021-12-10 06:00","2021","12","10","06:00","1.9","","-0.2","","86","","","","26","","27","","12.9","","98.59","","","","","","NA"
"-84.51","46.49","SAULT STE MARIE A","6057591","2021-12-10 07:00","2021","12","10","07:00","2.2","","-0.2","","84","","","","28","","32","","24.1","","98.70","","","","","","Cloudy"
"-84.51","46.49","SAULT STE MARIE A","6057591","2021-12-10 08:00","2021","12","10","08:00","1.9","","-0.6","","84","","","","27","","27","","11.3","","98.82","","","","","","NA"
"-84.51","46.49","SAULT STE MARIE A","6057591","2021-12-10 09:00","2021","12","10","09:00","2.2","","-2.6","","70","","","","31","","35","","24.1","","98.89","","","","","","NA"
"-84.51","46.49","SAULT STE MARIE A","6057591","2021-12-10 10:00","2021","12","10","10:00","2.3","","-2.3","","71","","","","31","","23","","24.1","","98.90","","","","","","Cloudy"
"-84.51","46.49","SAULT STE MARIE A","6057591","2021-12-10 11:00","2021","12","10","11:00","2.2","","-2.5","","71","","","","33","","22","","32.2","","98.97","","","","","","NA"
"-84.51","46.49","SAULT STE MARIE A","6057591","2021-12-10 12:00","2021","12","10","12:00","2.1","","-3.5","","66","","","","31","","18","","32.2","","99.04","","","","","","NA"
"-84.51","46.49","SAULT STE MARIE A","6057591","2021-12-10 13:00","2021","12","10","13:00","2.0","","-3.7","","66","","","","29","","14","","32.2","","99.08","","","","","","Mostly Cloudy"
"-84.51","46.49","SAULT STE MARIE A","6057591","2021-12-10 14:00","2021","12","10","14:00","1.8","","-3.5","","68","","","","29","","14","","32.2","","99.11","","","","","","NA"
"-84.51","46.49","SAULT STE MARIE A","6057591","2021-12-10 15:00","2021","12","10","15:00","1.8","","-3.8","","66","","","","28","","7","","32.2","","99.13","","","","","","NA"
"-84.51","46.49","SAULT STE MARIE A","6057591","2021-12-10 16:00","2021","12","10","16:00","0.8","","-3.0","","76","","","","33","","6","","32.2","","99.12","","","","","","Cloudy"
"-84.51","46.49","SAULT STE MARIE A","6057591","2021-12-10 17:00","2021","12","10","17:00","-0.8","","-2.4","","89","","","","36","","1","","24.1","","99.13","","","","-1","","NA"
"-84.51","46.49","SAULT STE MARIE A","6057591","2021-12-10 18:00","2021","12","10","18:00","-1.7","","-2.6","","94","","","","8","","4","","24.1","","99.07","","","","-3","","NA"
"-84.51","46.49","SAULT STE MARIE A","6057591","2021-12-10 19:00","2021","12","10","19:00","-2.2","","-3.4","","92","","","","8","","6","","24.1","","99.01","","","","-5","","Cloudy"
"-84.51","46.49","SAULT STE MARIE A","6057591","2021-12-10 20:00","2021","12","10","20:00","-0.8","","-2.9","","86","","","","8","","8","","32.2","","98.86","","","","-4","","NA"
"-84.51","46.49","SAULT STE MARIE A","6057591","2021-12-10 21:00","2021","12","10","21:00","0.2","","-2.4","","83","","","","9","","12","","32.2","","98.78","","","","","","NA"
"-84.51","46.49","SAULT STE MARIE A","6057591","2021-12-10 22:00","2021","12","10","22:00","0.2","","-1.7","","87","","","","8","","16","","32.2","","98.60","","","","","","Cloudy"
"-84.51","46.49","SAULT STE MARIE A","6057591","2021-12-10 23:00","2021","12","10","23:00","0.6","","-1.5","","86","","","","8","","17","","4.8","","98.47","","","","","","Snow Showers,Blowing Snow"
"-84.51","46.49","SAULT STE MARIE A","6057591","2021-12-11 00:00","2021","12","11","00:00","0.0","","-0.2","","99","","","","6","","31","","0.8","","98.12","","","","-7","","Moderate Snow Showers,Blowing Snow"
"-84.51","46.49","SAULT STE MARIE A","6057591","2021-12-11 01:00","2021","12","11","01:00","-0.2","","-0.3","","99","","","","6","","27","","0.8","","97.92","","","","-6","","Moderate Snow,Blowing Snow"
"-84.51","46.49","SAULT STE MARIE A","6057591","2021-12-11 02:00","2021","12","11","02:00","-0.1","","-0.2","","99","","","","6","","27","","0.8","","97.56","","","","-6","","Moderate Snow,Blowing Snow"
"-84.51","46.49","SAULT STE MARIE A","6057591","2021-12-11 03:00","2021","12","11","03:00","-0.2","","-0.4","","98","","","","6","","29","","0.8","","97.34","","","","-7","","Moderate Snow,Blowing Snow"
"-84.51","46.49","SAULT STE MARIE A","6057591","2021-12-11 04:00","2021","12","11","04:00","-0.1","","-0.5","","98","","","","8","","19","","2.8","","97.15","","","","-5","","Snow,Blowing Snow"
"-84.51","46.49","SAULT STE MARIE A","6057591","2021-12-11 05:00","2021","12","11","05:00","0.2","","-0.7","","94","","","","8","","26","","16.1","","96.83","","","","","","Snow,Blowing Snow"
"-84.51","46.49","SAULT STE MARIE A","6057591","2021-12-11 06:00","2021","12","11","06:00","0.3","","-0.2","","97","","","","8","","24","","3.2","","96.62","","","","","","Freezing Drizzle,Fog"
"-84.51","46.49","SAULT STE MARIE A","6057591","2021-12-11 07:00","2021","12","11","07:00","0.3","","0.1","","99","","","","8","","17","","4.0","","96.47","","","","","","Freezing Drizzle,Fog"
"-84.51","46.49","SAULT STE MARIE A","6057591","2021-12-11 08:00","2021","12","11","08:00","0.3","","0.1","","99","","","","6","","20","","2.8","","96.23","","","","","","Drizzle,Fog"
"-84.51","46.49","SAULT STE MARIE A","6057591","2021-12-11 09:00","2021","12","11","09:00","0.6","","0.2","","97","","","","36","","2","","4.8","","96.24","","","","","","Drizzle,Fog"
"-84.51","46.49","SAULT STE MARIE A","6057591","2021-12-11 10:00","2021","12","11","10:00","0.5","","0.1","","97","","","","1","","10","","4.8","","95.96","","","","","","Ice Pellet Showers,Fog"
"-84.51","46.49","SAULT STE MARIE A","6057591","2021-12-11 11:00","2021","12","11","11:00","0.1","","0.1","","100","","","","36","","28","","0.4","","95.95","","","","","","Heavy Snow Showers,Fog"
"-84.51","46.49","SAULT STE MARIE A","6057591","2021-12-11 12:00","2021","12","11","12:00","-0.2","","-0.8","","96","","","","34","","27","","1.0","","95.96","","","","-6","","Snow Showers,Fog"
"-84.51","46.49","SAULT STE MARIE A","6057591","2021-12-11 13:00","2021","12","11","13:00","-1.1","","-2.1","","93","","","","33","","32","","2.0","","96.03","","","","-8","","Snow Showers,Fog"
"-84.51","46.49","SAULT STE MARIE A","6057591","2021-12-11 14:00","2021","12","11","14:00","-1.6","","-2.5","","94","","","","33","","34","","1.0","","96.25","","","","-9","","Snow Showers,Fog"
"-84.51","46.49","SAULT STE MARIE A","6057591","2021-12-11 15:00","2021","12","11","15:00","-1.4","","-2.4","","93","","","","34","","33","","2.0","","96.55","","","","-9","","Snow Showers"
"-84.51","46.49","SAULT STE MARIE A","6057591","2021-12-11 16:00","2021","12","11","16:00","-0.3","","-2.7","","84","","","","32","","53","","4.0","","96.91","","","","-9","","Snow Showers,Blowing Snow"
"-84.51","46.49","SAULT STE MARIE A","6057591","2021-12-11 17:00","2021","12","11","17:00","0.2","","-2.4","","83","","","","32","","49","","12.9","","97.24","","","","","","Snow Showers,Blowing Snow"
"-84.51","46.49","SAULT STE MARIE A","6057591","2021-12-11 18:00","2021","12","11","18:00","0.7","","-2.4","","80","","","","30","","48","","16.1","","97.48","","","","","","Snow Showers,Blowing Snow"
"-84.51","46.49","SAULT STE MARIE A","6057591","2021-12-11 19:00","2021","12","11","19:00","1.2","","-3.9","","69","","","","28","","41","","24.1","","97.70","","","","","","Blowing Snow"
"-84.51","46.49","SAULT STE MARIE A","6057591","2021-12-11 20:00","2021","12","11","20:00","0.2","","-3.1","","79","","","","26","","33","","24.1","","97.86","","","","","","Blowing Snow"
"-84.51","46.49","SAULT STE MARIE A","6057591","2021-12-11 21:00","2021","12","11","21:00","-0.5","","-3.6","","80","","","","25","","30","","32.2","","98.02","","","","-7","","Blowing Snow"
"-84.51","46.49","SAULT STE MARIE A","6057591","2021-12-11 22:00","2021","12","11","22:00","-0.6","","-3.7","","79","","","","25","","37","","32.2","","98.12","","","","-8","","Clear"
"-84.51","46.49","SAULT STE MARIE A","6057591","2021-12-11 23:00","2021","12","11","23:00","-1.5","","-5.5","","74","","","","25","","34","","32.2","","98.22","","","","-9","","NA"
"-84.51","46.49","SAULT STE MARIE A","6057591","2021-12-12 00:00","2021","12","12","00:00","-1.3","","-6.7","","67","","","","25","","29","","32.2","","98.29","","","","-8","","NA"
"-84.51","46.49","SAULT STE MARIE A","6057591","2021-12-12 01:00","2021","12","12","01:00","-1.9","","-7.4","","66","","","","25","","21","","32.2","","98.35","","","","-8","","Clear"
"-84.51","46.49","SAULT STE MARIE A","6057591","2021-12-12 02:00","2021","12","12","02:00","-3.0","","-6.2","","78","","","","22","","12","","32.2","","98.41","","","","-7","","NA"
"-84.51","46.49","SAULT STE MARIE A","6057591","2021-12-12 03:00","2021","12","12","03:00","-3.5","","-6.7","","78","","","","22","","20","","32.2","","98.47","","","","-10","","NA"
"-84.51","46.49","SAULT STE MARIE A","6057591","2021-12-12 04:00","2021","12","12","04:00","-3.5","","-6.7","","78","","","","22","","16","","32.2","","98.50","","","","-9","","Clear"
"-84.51","46.49","SAULT STE MARIE A","6057591","2021-12-12 05:00","2021","12","12","05:00","-2.6","","-5.3","","82","","","","22","","18","","32.2","","98.46","","","","-8","","NA"
"-84.51","46.49","SAULT STE MARIE A","6057591","2021-12-12 06:00","2021","12","12","06:00","-2.1","","-4.2","","86","","","","22","","23","","32.2","","98.45","","","","-8","","NA"
"-84.51","46.49","SAULT STE MARIE A","6057591","2021-12-12 07:00","2021","12","12","07:00","-1.4","","-3.8","","84","","","","22","","23","","32.2","","98.45","","","","-7","","Mainly Clear"
"-84.51","46.49","SAULT STE MARIE A","6057591","2021-12-12 08:00","2021","12","12","08:00","-1.2","","-2.5","","91","","","","22","","18","","32.2","","98.47","","","","-6","","NA"
"-84.51","46.49","SAULT STE MARIE A","6057591","2021-12-12 09:00","2021","12","12","09:00","-0.5","","-2.0","","90","","","","21","","18","","32.2","","98.45","","","","-6","","NA"
"-84.51","46.49","SAULT STE MARIE A","6057591","2021-12-12 10:00","2021","12","12","10:00","0.6","","-1.6","","85","","","","21","","21","","32.2","","98.43","","","","","","Mainly Clear"
"-84.51","46.49","SAULT STE MARIE A","6057591","2021-12-12 11:00","2021","12","12","11:00","2.0","","-0.9","","81","","","","22","","28","","40.2","","98.43","","","","","","NA"
"-84.51","46.49","SAULT STE MARIE A","6057591","2021-12-12 12:00","2021","12","12","12:00","2.7","","-0.6","","79","","","","22","","25","","40.2","","98.39","","","","","","NA"
"-84.51","46.49","SAULT STE MARIE A","6057591","2021-12-12 13:00","2021","12","12","13:00","3.1","","-0.6","","76","","","","22","","33","","40.2","","98.34","","","","","","Mostly Cloudy"
"-84.51","46.49","SAULT STE MARIE A","6057591","2021-12-12 14:00","2021","12","12","14:00","3.5","","-0.3","","76","","","","20","","24","","40.2","","98.27","","","","","","NA"
"-84.51","46.49","SAULT STE MARIE A","6057591","2021-12-12 15:00","2021","12","12","15:00","3.9","","-0.2","","74","","","","22","","17","","40.2","","98.38","","","","","","NA"
"-84.51","46.49","SAULT STE MARIE A","6057591","2021-12-12 16:00","2021","12","12","16:00","3.7","","-0.4","","75","","","","20","","13","","40.2","","98.47","","","","","","Mostly Cloudy"
"-84.51","46.49","SAULT STE MARIE A","6057591","2021-12-12 17:00","2021","12","12","17:00","3.0","","-0.6","","77","","","","22","","14","","32.2","","98.53","","","","","","NA"
"-84.51","46.49","SAULT STE MARIE A","6057591","2021-12-12 18:00","2021","12","12","18:00","3.1","","-0.8","","75","","","","22","","13","","40.2","","98.62","","","","","","NA"
"-84.51","46.49","SAULT STE MARIE A","6057591","2021-12-12 19:00","2021","12","12","19:00","3.2","","-0.6","","76","","","","23","","19","","40.2","","98.62","","","","","","Mostly Cloudy"
"-84.51","46.49","SAULT STE MARIE A","6057591","2021-12-12 20:00","2021","12","12","20:00","3.6","","-1.1","","72","","","","22","","22","","40.2","","98.66","","","","","","NA"
"-84.51","46.49","SAULT STE MARIE A","6057591","2021-12-12 21:00","2021","12","12","21:00","3.6","","-1.4","","69","","","","23","","7","","40.2","","98.70","","","","","","NA"
"-84.51","46.49","SAULT STE MARIE A","6057591","2021-12-12 22:00","2021","12","12","22:00","3.5","","-2.0","","67","","","","24","","18","","32.2","","98.70","","","","","","Cloudy"
"-84.51","46.49","SAULT STE MARIE A","6057591","2021-12-12 23:00","2021","12","12","23:00","3.5","","-2.1","","67","","","","24","","27","","40.2","","98.76","","","","","","NA"
"-84.51","46.49","SAULT STE MARIE A","6057591","2021-12-13 00:00","2021","12","13","00:00","3.7","","-2.1","","66","","","","25","","25","","40.2","","98.80","","","","","","NA"
"-84.51","46.49","SAULT STE MARIE A","6057591","2021-12-13 01:00","2021","12","13","01:00","3.6","","-2.1","","67","","","","23","","10","","40.2","","98.81","","","","","","Cloudy"
"-84.51","46.49","SAULT STE MARIE A","6057591","2021-12-13 02:00","2021","12","13","02:00","3.3","","-2.1","","68","","","","23","","17","","40.2","","98.81","","","","","","NA"
"-84.51","46.49","SAULT STE MARIE A","6057591","2021-12-13 03:00","2021","12","13","03:00","3.1","","-1.7","","70","","","","24","","17","","40.2","","98.83","","","","","","NA"
"-84.51","46.49","SAULT STE MARIE A","6057591","2021-12-13 04:00","2021","12","13","04:00","3.6","","-1.0","","72","","","","23","","12","","40.2","","98.78","","","","","","Mostly Cloudy"
"-84.51","46.49","SAULT STE MARIE A","6057591","2021-12-13 05:00","2021","12","13","05:00","3.3","","-0.9","","74","","","","24","","8","","40.2","","98.81","","","","","","NA"
"-84.51","46.49","SAULT STE MARIE A","6057591","2021-12-13 06:00","2021","12","13","06:00","2.7","","-0.8","","77","","","","23","","7","","40.2","","98.82","","","","","","NA"
"-84.51","46.49","SAULT STE MARIE A","6057591","2021-12-13 07:00","2021","12","13","07:00","1.6","","-0.6","","85","","","","24","","7","","40.2","","98.83","","","","","","Mainly Clear"
"-84.51","46.49","SAULT STE MARIE A","6057591","2021-12-13 08:00","2021","12","13","08:00","2.4","","-1.5","","75","","","","24","","12","","40.2","","98.87","","","","","","NA"
"-84.51","46.49","SAULT STE MARIE A","6057591","2021-12-13 09:00","2021","12","13","09:00","2.9","","-1.4","","73","","","","23","","16","","40.2","","98.91","","","","","","NA"
"-84.51","46.49","SAULT STE MARIE A","6057591","2021-12-13 10:00","2021","12","13","10:00","3.0","","-1.8","","71","","","","26","","14","","40.2","","98.97","","","","","","Mainly Clear"
"-84.51","46.49","SAULT STE MARIE A","6057591","2021-12-13 11:00","2021","12","13","11:00","4.0","","-2.1","","64","","","","26","","18","","40.2","","99.06","","","","","","NA"
"-84.51","46.49","SAULT STE MARIE A","6057591","2021-12-13 12:00","2021","12","13","12:00","4.6","","-2.1","","62","","","","28","","23","","40.2","","99.14","","","","","","NA"
"-84.51","46.49","SAULT STE MARIE A","6057591","2021-12-13 13:00","2021","12","13","13:00","4.5","","-1.4","","65","","","","27","","16","","40.2","","99.23","","","","","","Mainly Clear"
"-84.51","46.49","SAULT STE MARIE A","6057591","2021-12-13 14:00","2021","12","13","14:00","4.5","","-1.4","","65","","","","27","","19","","40.2","","99.31","","","","","","NA"
"-84.51","46.49","SAULT STE MARIE A","6057591","2021-12-13 15:00","2021","12","13","15:00","4.6","","-0.7","","69","","","","27","","17","","40.2","","99.40","","","","","","NA"
"-84.51","46.49","SAULT STE MARIE A","6057591","2021-12-13 16:00","2021","12","13","16:00","5.0","","-1.5","","63","","","","27","","19","","40.2","","99.53","","","","","","Mainly Clear"
"-84.51","46.49","SAULT STE MARIE A","6057591","2021-12-13 17:00","2021","12","13","17:00","4.5","","0.4","","74","","","","28","","26","","40.2","","99.67","","","","","","NA"
"-84.51","46.49","SAULT STE MARIE A","6057591","2021-12-13 18:00","2021","12","13","18:00","3.8","","0.0","","76","","","","30","","40","","40.2","","99.81","","","","","","NA"
"-84.51","46.49","SAULT STE MARIE A","6057591","2021-12-13 19:00","2021","12","13","19:00","3.3","","-0.6","","76","","","","31","","41","","40.2","","99.97","","","","","","Mostly Cloudy"
"-84.51","46.49","SAULT STE MARIE A","6057591","2021-12-13 20:00","2021","12","13","20:00","2.7","","-1.7","","73","","","","31","","34","","40.2","","100.09","","","","","","NA"
"-84.51","46.49","SAULT STE MARIE A","6057591","2021-12-13 21:00","2021","12","13","21:00","2.6","","-1.5","","74","","","","31","","20","","40.2","","100.21","","","","","","NA"
"-84.51","46.49","SAULT STE MARIE A","6057591","2021-12-13 22:00","2021","12","13","22:00","2.3","","-2.0","","73","","","","33","","11","","40.2","","100.34","","","","","","Mainly Clear"
"-84.51","46.49","SAULT STE MARIE A","6057591","2021-12-13 23:00","2021","12","13","23:00","1.3","","-3.2","","72","","","","36","","9","","40.2","","100.45","","","","","","NA"
"-84.51","46.49","SAULT STE MARIE A","6057591","2021-12-14 00:00","2021","12","14","00:00","-0.9","","-2.9","","87","","","","1","","5","","40.2","","100.59","","","","-3","","NA"
"-84.51","46.49","SAULT STE MARIE A","6057591","2021-12-14 01:00","2021","12","14","01:00","-3.7","","-5.1","","90","","","","7","","8","","40.2","","100.67","","","","-7","","Mainly Clear"
"-84.51","46.49","SAULT STE MARIE A","6057591","2021-12-14 02:00","2021","12","14","02:00","-3.7","","-4.3","","95","","","","3","","3","","32.2","","100.74","","","","-5","","NA"
"-84.51","46.49","SAULT STE MARIE A","6057591","2021-12-14 03:00","2021","12","14","03:00","-4.8","","-5.0","","99","","","","6","","3","","32.2","","100.84","","","","-6","","NA"
"-84.51","46.49","SAULT STE MARIE A","6057591","2021-12-14 04:00","2021","12","14","04:00","-3.6","","-4.2","","96","","","","36","","3","","32.2","","100.90","","","","-5","","Mostly Cloudy"
"-84.51","46.49","SAULT STE MARIE A","6057591","2021-12-14 05:00","2021","12","14","05:00","-4.9","","-5.9","","93","","","","8","","5","","32.2","","100.92","","","","-7","","NA"
"-84.51","46.49","SAULT STE MARIE A","6057591","2021-12-14 06:00","2021","12","14","06:00","-3.4","","-4.6","","91","","","","8","","8","","32.2","","100.94","","","","-7","","NA"
"-84.51","46.49","SAULT STE MARIE A","6057591","2021-12-14 07:00","2021","12","14","07:00","-2.8","","-4.2","","90","","","","7","","7","","32.2","","101.01","","","","-6","","Mostly Cloudy"
"-84.51","46.49","SAULT STE MARIE A","6057591","2021-12-14 08:00","2021","12","14","08:00","-2.9","","-4.1","","92","","","","12","","5","","32.2","","101.10","","","","-5","","NA"
"-84.51","46.49","SAULT STE MARIE A","6057591","2021-12-14 09:00","2021","12","14","09:00","-1.9","","-3.3","","90","","","","8","","10","","40.2","","101.13","","","","-6","","NA"
"-84.51","46.49","SAULT STE MARIE A","6057591","2021-12-14 10:00","2021","12","14","10:00","-0.9","","-3.5","","83","","","","8","","16","","40.2","","101.14","","","","-6","","Mostly Cloudy"
"-84.51","46.49","SAULT STE MARIE A","6057591","2021-12-14 11:00","2021","12","14","11:00","-0.1","","-3.6","","77","","","","9","","16","","40.2","","101.13","","","","-5","","NA"
"-84.51","46.49","SAULT STE MARIE A","6057591","2021-12-14 12:00","2021","12","14","12:00","0.6","","-2.8","","78","","","","11","","13","","40.2","","101.16","","","","","","NA"
"-84.51","46.49","SAULT STE MARIE A","6057591","2021-12-14 13:00","2021","12","14","13:00","0.8","","-2.9","","76","","","","10","","13","","40.2","","101.06","","","","","","Mostly Cloudy"
"-84.51","46.49","SAULT STE MARIE A","6057591","2021-12-14 14:00","2021","12","14","14:00","1.2","","-2.2","","78","","","","10","","23","","40.2","","100.93","","","","","","NA"
"-84.51","46.49","SAULT STE MARIE A","6057591","2021-12-14 15:00","2021","12","14","15:00","1.3","","-1.6","","80","","","","9","","23","","40.2","","100.86","","","","","","NA"
"-84.51","46.49","SAULT STE MARIE A","6057591","2021-12-14 16:00","2021","12","14","16:00","0.8","","-2.0","","82","","","","11","","19","","40.2","","100.82","","","","","","Mostly Cloudy"
"-84.51","46.49","SAULT STE MARIE A","6057591","2021-12-14 17:00","2021","12","14","17:00","0.5","","-2.4","","81","","","","10","","18","","40.2","","100.76","","","","","","NA"
"-84.51","46.49","SAULT STE MARIE A","6057591","2021-12-14 18:00","2021","12","14","18:00","0.4","","-2.1","","83","","","","10","","14","","40.2","","100.77","","","","","","NA"
"-84.51","46.49","SAULT STE MARIE A","6057591","2021-12-14 19:00","2021","12","14","19:00","0.4","","-2.0","","84","","","","10","","16","","40.2","","100.70","","","","","","Mostly Cloudy"
"-84.51","46.49","SAULT STE MARIE A","6057591","2021-12-14 20:00","2021","12","14","20:00","0.3","","-1.8","","86","","","","10","","17","","40.2","","100.63","","","","","","NA"
"-84.51","46.49","SAULT STE MARIE A","6057591","2021-12-14 21:00","2021","12","14","21:00","-0.1","","-2.0","","87","","","","11","","21","","40.2","","100.56","","","","-6","","NA"
"-84.51","46.49","SAULT STE MARIE A","6057591","2021-12-14 22:00","2021","12","14","22:00","0.3","","-1.9","","85","","","","11","","21","","40.2","","100.44","","","","","","Cloudy"
"-84.51","46.49","SAULT STE MARIE A","6057591","2021-12-14 23:00","2021","12","14","23:00","1.6","","-1.5","","80","","","","10","","25","","40.2","","100.32","","","","","","NA"
"-84.51","46.49","SAULT STE MARIE A","6057591","2021-12-15 00:00","2021","12","15","00:00","1.7","","-0.8","","84","","","","10","","23","","32.2","","100.24","","","","","","NA"
"-84.51","46.49","SAULT STE MARIE A","6057591","2021-12-15 01:00","2021","12","15","01:00","2.3","","0.0","","84","","","","10","","18","","32.2","","100.13","","","","","","Cloudy"
"-84.51","46.49","SAULT STE MARIE A","6057591","2021-12-15 02:00","2021","12","15","02:00","2.1","","0.2","","87","","","","10","","19","","32.2","","99.99","","","","","","NA"
"-84.51","46.49","SAULT STE MARIE A","6057591","2021-12-15 03:00","2021","12","15","03:00","2.5","","0.4","","86","","","","10","","18","","32.2","","99.87","","","","","","NA"
"-84.51","46.49","SAULT STE MARIE A","6057591","2021-12-15 04:00","2021","12","15","04:00","4.0","","1.1","","82","","","","12","","21","","32.2","","99.79","","","","","","Cloudy"
"-84.51","46.49","SAULT STE MARIE A","6057591","2021-12-15 05:00","2021","12","15","05:00","4.0","","1.5","","84","","","","11","","20","","16.1","","99.64","","","","","","NA"
"-84.51","46.49","SAULT STE MARIE A","6057591","2021-12-15 06:00","2021","12","15","06:00","4.2","","1.7","","84","","","","11","","23","","16.1","","99.53","","","","","","NA"
"-84.51","46.49","SAULT STE MARIE A","6057591","2021-12-15 07:00","2021","12","15","07:00","4.1","","2.3","","88","","","","11","","21","","8.1","","99.43","","","","","","Fog"
"-84.51","46.49","SAULT STE MARIE A","6057591","2021-12-15 08:00","2021","12","15","08:00","4.0","","2.8","","92","","","","11","","15","","19.3","","99.35","","","","","","Rain"
"-84.51","46.49","SAULT STE MARIE A","6057591","2021-12-15 09:00","2021","12","15","09:00","3.5","","3.4","","99","","","","11","","12","","2.8","","99.27","","","","","","Drizzle,Fog"
"-84.51","46.49","SAULT STE MARIE A","6057591","2021-12-15 10:00","2021","12","15","10:00","3.7","","3.6","","99","","","","10","","17","","2.8","","99.16","","","","","","Drizzle,Fog"
"-84.51","46.49","SAULT STE MARIE A","6057591","2021-12-15 11:00","2021","12","15","11:00","3.7","","3.6","","99","","","","10","","18","","2.8","","99.06","","","","","","Drizzle,Fog"
"-84.51","46.49","SAULT STE MARIE A","6057591","2021-12-15 12:00","2021","12","15","12:00","3.8","","3.8","","100","","","","11","","11","","2.8","","98.94","","","","","","Drizzle,Fog"
"-84.51","46.49","SAULT STE MARIE A","6057591","2021-12-15 13:00","2021","12","15","13:00","3.8","","3.8","","100","","","","10","","13","","2.0","","98.84","","","","","","Drizzle,Fog"
"-84.51","46.49","SAULT STE MARIE A","6057591","2021-12-15 14:00","2021","12","15","14:00","3.8","","3.8","","100","","","","10","","16","","2.0","","98.74","","","","","","Drizzle,Fog"
"-84.51","46.49","SAULT STE MARIE A","6057591","2021-12-15 15:00","2021","12","15","15:00","3.7","","3.7","","100","","","","10","","13","","2.0","","98.63","","","","","","Drizzle,Fog"
"-84.51","46.49","SAULT STE MARIE A","6057591","2021-12-15 16:00","2021","12","15","16:00","3.6","","3.6","","100","","","","9","","13","","2.0","","98.58","","","","","","Drizzle,Fog"
"-84.51","46.49","SAULT STE MARIE A","6057591","2021-12-15 17:00","2021","12","15","17:00","3.7","","3.7","","100","","","","9","","14","","1.6","","98.52","","","","","","Drizzle,Fog"
"-84.51","46.49","SAULT STE MARIE A","6057591","2021-12-15 18:00","2021","12","15","18:00","3.8","","3.8","","100","","","","8","","15","","2.0","","98.45","","","","","","Rain,Drizzle,Fog"
"-84.51","46.49","SAULT STE MARIE A","6057591","2021-12-15 19:00","2021","12","15","19:00","4.0","","4.0","","100","","","","8","","15","","1.6","","98.32","","","","","","Rain,Drizzle,Fog"
"-84.51","46.49","SAULT STE MARIE A","6057591","2021-12-15 20:00","2021","12","15","20:00","3.7","","3.7","","100","","","","7","","22","","1.6","","98.23","","","","","","Rain,Drizzle,Fog"
"-84.51","46.49","SAULT STE MARIE A","6057591","2021-12-15 21:00","2021","12","15","21:00","4.0","","4.0","","100","","","","8","","15","","0.8","","98.19","","","","","","Rain,Drizzle,Fog"
"-84.51","46.49","SAULT STE MARIE A","6057591","2021-12-15 22:00","2021","12","15","22:00","4.4","","4.4","","100","","","","8","","15","","0.8","","98.11","","","","","","Rain,Drizzle,Fog"
"-84.51","46.49","SAULT STE MARIE A","6057591","2021-12-15 23:00","2021","12","15","23:00","4.0","","4.0","","100","","","","8","","23","","0.8","","97.87","","","","","","Rain,Drizzle,Fog"
"-84.51","46.49","SAULT STE MARIE A","6057591","2021-12-16 00:00","2021","12","16","00:00","6.3","","6.3","","100","","","","14","","9","","0.6","","97.80","","","","","","Rain,Drizzle,Fog"
"-84.51","46.49","SAULT STE MARIE A","6057591","2021-12-16 01:00","2021","12","16","01:00","6.1","","6.1","","100","","","","8","","21","","0.6","","97.47","","","","","","Rain,Drizzle,Fog"
"-84.51","46.49","SAULT STE MARIE A","6057591","2021-12-16 02:00","2021","12","16","02:00","7.8","","7.8","","100","","","","11","","14","","0.6","","97.46","","","","","","Drizzle,Fog"
"-84.51","46.49","SAULT STE MARIE A","6057591","2021-12-16 03:00","2021","12","16","03:00","8.9","","8.9","","100","","","","10","","20","","0.6","","97.14","","","","","","Drizzle,Fog"
"-84.51","46.49","SAULT STE MARIE A","6057591","2021-12-16 04:00","2021","12","16","04:00","9.4","","9.4","","100","","","","12","","21","","0.6","","96.86","","","","","","Drizzle,Fog"
"-84.51","46.49","SAULT STE MARIE A","6057591","2021-12-16 05:00","2021","12","16","05:00","9.9","","9.9","","100","","","","15","","26","","0.6","","96.60","","","","","","Rain,Drizzle,Fog"
"-84.51","46.49","SAULT STE MARIE A","6057591","2021-12-16 06:00","2021","12","16","06:00","10.0","","10.0","","100","","","","15","","22","","8.1","","96.39","","","","","","Rain,Fog"
"-84.51","46.49","SAULT STE MARIE A","6057591","2021-12-16 07:00","2021","12","16","07:00","11.2","","7.0","","75","","","","22","","38","","12.9","","96.47","","","","","","Rain"
"-84.51","46.49","SAULT STE MARIE A","6057591","2021-12-16 08:00","2021","12","16","08:00","9.8","","5.0","","72","","","","21","","44","","16.1","","96.55","","","","","","NA"
"-84.51","46.49","SAULT STE MARIE A","6057591","2021-12-16 09:00","2021","12","16","09:00","6.7","","1.8","","71","","","","22","","44","","19.3","","96.74","","","","","","NA"
"-84.51","46.49","SAULT STE MARIE A","6057591","2021-12-16 10:00","2021","12","16","10:00","5.7","","1.8","","76","","","","22","","36","","24.1","","96.86","","","","","","Cloudy"
"-84.51","46.49","SAULT STE MARIE A","6057591","2021-12-16 11:00","2021","12","16","11:00","5.1","","0.7","","73","","","","23","","40","","24.1","","97.02","","","","","","NA"
"-84.51","46.49","SAULT STE MARIE A","6057591","2021-12-16 12:00","2021","12","16","12:00","4.5","","0.5","","75","","","","23","","34","","32.2","","97.07","","","","","","NA"
"-84.51","46.49","SAULT STE MARIE A","6057591","2021-12-16 13:00","2021","12","16","13:00","3.8","","0.5","","79","","","","23","","42","","19.3","","97.08","","","","","","Cloudy"
"-84.51","46.49","SAULT STE MARIE A","6057591","2021-12-16 14:00","2021","12","16","14:00","3.0","","-0.2","","79","","","","23","","43","","24.1","","97.12","","","","","","NA"
"-84.51","46.49","SAULT STE MARIE A","6057591","2021-12-16 15:00","2021","12","16","15:00","1.8","","0.2","","89","","","","23","","34","","6.4","","97.19","","","","","","Snow Showers,Blowing Snow"
"-84.51","46.49","SAULT STE MARIE A","6057591","2021-12-16 16:00","2021","12","16","16:00","1.1","","-0.2","","91","","","","23","","37","","4.8","","97.29","","","","","","Snow Showers,Blowing Snow"
"-84.51","46.49","SAULT STE MARIE A","6057591","2021-12-16 17:00","2021","12","16","17:00","0.8","","-1.3","","86","","","","24","","40","","9.7","","97.35","","","","","","Snow Showers,Blowing Snow"
"-84.51","46.49","SAULT STE MARIE A","6057591","2021-12-16 18:00","2021","12","16","18:00","0.2","","-2.3","","83","","","","25","","36","","16.1","","97.53","","","","","","Snow Showers"
"-84.51","46.49","SAULT STE MARIE A","6057591","2021-12-16 19:00","2021","12","16","19:00","-0.3","","-3.4","","80","","","","24","","42","","16.1","","97.72","","","","-8","","Snow Showers"
"-84.51","46.49","SAULT STE MARIE A","6057591","2021-12-16 20:00","2021","12","16","20:00","-0.5","","-3.9","","78","","","","26","","38","","16.1","","97.93","","","","-8","","Snow Showers,Blowing Snow"
"-84.51","46.49","SAULT STE MARIE A","6057591","2021-12-16 21:00","2021","12","16","21:00","-1.1","","-5.0","","75","","","","26","","41","","16.1","","98.07","","","","-9","","Snow Showers,Blowing Snow"
"-84.51","46.49","SAULT STE MARIE A","6057591","2021-12-16 22:00","2021","12","16","22:00","-1.4","","-5.3","","75","","","","26","","42","","16.1","","98.19","","","","-9","","Snow Showers,Blowing Snow"
"-84.51","46.49","SAULT STE MARIE A","6057591","2021-12-16 23:00","2021","12","16","23:00","-1.5","","-5.8","","72","","","","26","","40","","24.1","","98.30","","","","-9","","Snow Showers,Blowing Snow"
"-84.51","46.49","SAULT STE MARIE A","6057591","2021-12-17 00:00","2021","12","17","00:00","-1.6","","-5.4","","75","","","","28","","38","","24.1","","98.44","","","","-9","","Snow Showers"
"-84.51","46.49","SAULT STE MARIE A","6057591","2021-12-17 01:00","2021","12","17","01:00","-2.0","","-5.7","","76","","","","27","","36","","24.1","","98.61","","","","-10","","Snow Showers"
"-84.51","46.49","SAULT STE MARIE A","6057591","2021-12-17 02:00","2021","12","17","02:00","-2.5","","-6.2","","76","","","","26","","36","","32.2","","98.77","","","","-10","","Snow Showers"
"-84.51","46.49","SAULT STE MARIE A","6057591","2021-12-17 03:00","2021","12","17","03:00","-3.4","","-7.4","","74","","","","25","","32","","32.2","","98.93","","","","-11","","Snow Showers"
"-84.51","46.49","SAULT STE MARIE A","6057591","2021-12-17 04:00","2021","12","17","04:00","-4.2","","-8.6","","71","","","","25","","34","","32.2","","99.06","","","","-12","","Snow Showers"
"-84.51","46.49","SAULT STE MARIE A","6057591","2021-12-17 05:00","2021","12","17","05:00","-4.7","","-9.4","","70","","","","25","","35","","32.2","","99.14","","","","-13","","Snow Showers"
"-84.51","46.49","SAULT STE MARIE A","6057591","2021-12-17 06:00","2021","12","17","06:00","-4.9","","-9.6","","70","","","","25","","35","","24.1","","99.25","","","","-13","","Snow Showers"
"-84.51","46.49","SAULT STE MARIE A","6057591","2021-12-17 07:00","2021","12","17","07:00","-5.2","","-9.8","","71","","","","25","","34","","24.1","","99.36","","","","-14","","Snow Showers"
"-84.51","46.49","SAULT STE MARIE A","6057591","2021-12-17 08:00","2021","12","17","08:00","-5.2","","-9.3","","73","","","","25","","33","","12.9","","99.47","","","","-14","","Snow Showers"
"-84.51","46.49","SAULT STE MARIE A","6057591","2021-12-17 09:00","2021","12","17","09:00","-4.9","","-8.5","","76","","","","25","","28","","16.1","","99.60","","","","-13","","Snow Showers"
"-84.51","46.49","SAULT STE MARIE A","6057591","2021-12-17 10:00","2021","12","17","10:00","-4.9","","-8.1","","79","","","","26","","28","","6.4","","99.76","","","","-13","","Snow Showers,Blowing Snow"
"-84.51","46.49","SAULT STE MARIE A","6057591","2021-12-17 11:00","2021","12","17","11:00","-4.4","","-7.7","","78","","","","25","","29","","6.4","","99.89","","","","-12","","Snow Showers,Blowing Snow"
"-84.51","46.49","SAULT STE MARIE A","6057591","2021-12-17 12:00","2021","12","17","12:00","-3.6","","-7.3","","76","","","","26","","27","","19.3","","99.89","","","","-11","","Snow Showers"
"-84.51","46.49","SAULT STE MARIE A","6057591","2021-12-17 13:00","2021","12","17","13:00","-3.3","","-6.3","","80","","","","27","","31","","19.3","","99.95","","","","-11","","Snow Showers"
"-84.51","46.49","SAULT STE MARIE A","6057591","2021-12-17 14:00","2021","12","17","14:00","-2.6","","-7.6","","69","","","","31","","31","","16.1","","100.00","","","","-10","","Snow Showers"
"-84.51","46.49","SAULT STE MARIE A","6057591","2021-12-17 15:00","2021","12","17","15:00","-2.7","","-7.2","","71","","","","31","","24","","24.1","","100.05","","","","-9","","Snow Showers"
"-84.51","46.49","SAULT STE MARIE A","6057591","2021-12-17 16:00","2021","12","17","16:00","-2.7","","-6.6","","75","","","","30","","21","","16.1","","100.08","","","","-9","","Snow Showers,Blowing Snow"
"-84.51","46.49","SAULT STE MARIE A","6057591","2021-12-17 17:00","2021","12","17","17:00","-2.8","","-7.1","","72","","","","33","","17","","32.2","","100.13","","","","-8","","Snow Showers"
"-84.51","46.49","SAULT STE MARIE A","6057591","2021-12-17 18:00","2021","12","17","18:00","-2.8","","-7.4","","71","","","","33","","13","","32.2","","100.21","","","","-7","","Snow Showers"
"-84.51","46.49","SAULT STE MARIE A","6057591","2021-12-17 19:00","2021","12","17","19:00","-3.0","","-7.1","","73","","","","36","","15","","32.2","","100.23","","","","-8","","Snow Showers"
"-84.51","46.49","SAULT STE MARIE A","6057591","2021-12-17 20:00","2021","12","17","20:00","-3.5","","-7.5","","73","","","","1","","14","","32.2","","100.25","","","","-9","","Snow Showers"
"-84.51","46.49","SAULT STE MARIE A","6057591","2021-12-17 21:00","2021","12","17","21:00","-4.2","","-8.4","","73","","","","4","","16","","32.2","","100.25","","","","-10","","NA"
"-84.51","46.49","SAULT STE MARIE A","6057591","2021-12-17 22:00","2021","12","17","22:00","-5.1","","-9.6","","71","","","","5","","19","","32.2","","100.22","","","","-12","","Cloudy"
"-84.51","46.49","SAULT STE MARIE A","6057591","2021-12-17 23:00","2021","12","17","23:00","-5.2","","-9.4","","73","","","","6","","10","","32.2","","100.21","","","","-10","","NA"
"-84.51","46.49","SAULT STE MARIE A","6057591","2021-12-18 00:00","2021","12","18","00:00","-4.8","","-9.3","","71","","","","9","","14","","32.2","","100.23","","","","-10","","NA"
"-84.51","46.49","SAULT STE MARIE A","6057591","2021-12-18 01:00","2021","12","18","01:00","-4.8","","-9.2","","71","","","","8","","17","","32.2","","100.21","","","","-11","","Cloudy"
"-84.51","46.49","SAULT STE MARIE A","6057591","2021-12-18 02:00","2021","12","18","02:00","-4.9","","-8.7","","75","","","","9","","13","","32.2","","100.21","","","","-10","","NA"
"-84.51","46.49","SAULT STE MARIE A","6057591","2021-12-18 03:00","2021","12","18","03:00","-5.3","","-8.9","","76","","","","8","","17","","32.2","","100.15","","","","-11","","NA"
"-84.51","46.49","SAULT STE MARIE A","6057591","2021-12-18 04:00","2021","12","18","04:00","-5.6","","-9.1","","76","","","","8","","20","","32.2","","100.10","","","","-12","","Cloudy"
"-84.51","46.49","SAULT STE MARIE A","6057591","2021-12-18 05:00","2021","12","18","05:00","-5.6","","-9.1","","77","","","","7","","13","","32.2","","100.03","","","","-11","","NA"
"-84.51","46.49","SAULT STE MARIE A","6057591","2021-12-18 06:00","2021","12","18","06:00","-6.0","","-10.0","","74","","","","9","","16","","32.2","","99.94","","","","-12","","NA"
"-84.51","46.49","SAULT STE MARIE A","6057591","2021-12-18 07:00","2021","12","18","07:00","-6.0","","-9.9","","74","","","","9","","14","","32.2","","99.95","","","","-12","","Cloudy"
"-84.51","46.49","SAULT STE MARIE A","6057591","2021-12-18 08:00","2021","12","18","08:00","-6.2","","-10.2","","73","","","","9","","12","","24.1","","99.94","","","","-11","","NA"
"-84.51","46.49","SAULT STE MARIE A","6057591","2021-12-18 09:00","2021","12","18","09:00","-6.1","","-10.2","","73","","","","9","","10","","24.1","","99.92","","","","-11","","NA"
"-84.51","46.49","SAULT STE MARIE A","6057591","2021-12-18 10:00","2021","12","18","10:00","-6.1","","-10.1","","73","","","","9","","12","","12.9","","99.91","","","","-11","","Snow Showers"
"-84.51","46.49","SAULT STE MARIE A","6057591","2021-12-18 11:00","2021","12","18","11:00","-6.2","","-8.6","","84","","","","7","","10","","4.8","","99.87","","","","-11","","Snow Showers"
"-84.51","46.49","SAULT STE MARIE A","6057591","2021-12-18 12:00","2021","12","18","12:00","-5.9","","-8.3","","84","","","","9","","7","","4.8","","99.79","","","","-9","","Snow Showers"
"-84.51","46.49","SAULT STE MARIE A","6057591","2021-12-18 13:00","2021","12","18","13:00","-5.5","","-7.9","","84","","","","4","","8","","6.4","","99.70","","","","-9","","Snow Showers"
"-84.51","46.49","SAULT STE MARIE A","6057591","2021-12-18 14:00","2021","12","18","14:00","-5.2","","-7.5","","84","","","","36","","1","","9.7","","99.62","","","","-6","","Snow Showers"
"-84.51","46.49","SAULT STE MARIE A","6057591","2021-12-18 15:00","2021","12","18","15:00","-4.7","","-7.0","","84","","","","30","","6","","16.1","","99.61","","","","-7","","Snow Showers"
"-84.51","46.49","SAULT STE MARIE A","6057591","2021-12-18 16:00","2021","12","18","16:00","-4.4","","-7.6","","78","","","","34","","9","","19.3","","99.66","","","","-8","","Snow Showers"
"-84.51","46.49","SAULT STE MARIE A","6057591","2021-12-18 17:00","2021","12","18","17:00","-4.3","","-7.3","","80","","","","35","","9","","32.2","","99.70","","","","-8","","Snow Showers"
"-84.51","46.49","SAULT STE MARIE A","6057591","2021-12-18 18:00","2021","12","18","18:00","-4.3","","-7.5","","79","","","","33","","16","","32.2","","99.76","","","","-10","","Snow Showers"
"-84.51","46.49","SAULT STE MARIE A","6057591","2021-12-18 19:00","2021","12","18","19:00","-4.8","","-8.4","","76","","","","32","","19","","32.2","","99.81","","","","-11","","Snow Showers"
"-84.51","46.49","SAULT STE MARIE A","6057591","2021-12-18 20:00","2021","12","18","20:00","-5.2","","-8.6","","77","","","","35","","14","","32.2","","99.86","","","","-11","","Snow Showers"
"-84.51","46.49","SAULT STE MARIE A","6057591","2021-12-18 21:00","2021","12","18","21:00","-7.0","","-9.9","","80","","","","1","","11","","32.2","","99.90","","","","-12","","NA"
"-84.51","46.49","SAULT STE MARIE A","6057591","2021-12-18 22:00","2021","12","18","22:00","-7.5","","-10.3","","80","","","","2","","11","","32.2","","99.95","","","","-13","","Snow Showers"
"-84.51","46.49","SAULT STE MARIE A","6057591","2021-12-18 23:00","2021","12","18","23:00","-7.1","","-10.0","","80","","","","1","","17","","32.2","","99.99","","","","-14","","Snow Showers"
"-84.51","46.49","SAULT STE MARIE A","6057591","2021-12-19 00:00","2021","12","19","00:00","-7.3","","-10.2","","80","","","","3","","13","","32.2","","100.05","","","","-13","","Snow Showers"
"-84.51","46.49","SAULT STE MARIE A","6057591","2021-12-19 01:00","2021","12","19","01:00","-7.8","","-10.6","","80","","","","4","","16","","32.2","","100.09","","","","-14","","Snow Showers"
"-84.51","46.49","SAULT STE MARIE A","6057591","2021-12-19 02:00","2021","12","19","02:00","-8.6","","-11.0","","83","","","","6","","10","","32.2","","100.10","","","","-14","","Snow Showers"
"-84.51","46.49","SAULT STE MARIE A","6057591","2021-12-19 03:00","2021","12","19","03:00","-9.8","","-11.4","","88","","","","2","","11","","32.2","","100.16","","","","-15","","NA"
"-84.51","46.49","SAULT STE MARIE A","6057591","2021-12-19 04:00","2021","12","19","04:00","-9.3","","-11.2","","86","","","","13","","9","","32.2","","100.20","","","","-14","","Cloudy"
"-84.51","46.49","SAULT STE MARIE A","6057591","2021-12-19 05:00","2021","12","19","05:00","-9.8","","-11.8","","85","","","","16","","5","","8.1","","100.26","","","","-13","","Snow Showers"
"-84.51","46.49","SAULT STE MARIE A","6057591","2021-12-19 06:00","2021","12","19","06:00","-10.0","","-12.6","","82","","","","9","","10","","24.1","","100.29","","","","-15","","Snow Showers"
"-84.51","46.49","SAULT STE MARIE A","6057591","2021-12-19 07:00","2021","12","19","07:00","-9.9","","-12.7","","80","","","","11","","8","","32.2","","100.34","","","","-14","","Snow Showers"
"-84.51","46.49","SAULT STE MARIE A","6057591","2021-12-19 08:00","2021","12","19","08:00","-9.8","","-12.4","","82","","","","8","","17","","19.3","","100.31","","","","-17","","Snow Showers"
"-84.51","46.49","SAULT STE MARIE A","6057591","2021-12-19 09:00","2021","12","19","09:00","-9.5","","-12.1","","82","","","","9","","9","","24.1","","100.38","","","","-14","","Snow Showers"
"-84.51","46.49","SAULT STE MARIE A","6057591","2021-12-19 10:00","2021","12","19","10:00","-9.2","","-11.8","","81","","","","10","","13","","16.1","","100.41","","","","-15","","Snow Showers"
"-84.51","46.49","SAULT STE MARIE A","6057591","2021-12-19 11:00","2021","12","19","11:00","-8.9","","-11.7","","80","","","","9","","9","","19.3","","100.44","","","","-14","","Snow Showers"
"-84.51","46.49","SAULT STE MARIE A","6057591","2021-12-19 12:00","2021","12","19","12:00","-8.5","","-11.8","","77","","","","11","","9","","32.2","","100.35","","","","-13","","Snow Showers"
"-84.51","46.49","SAULT STE MARIE A","6057591","2021-12-19 13:00","2021","12","19","13:00","-7.4","","-10.8","","77","","","","11","","12","","32.2","","100.26","","","","-13","","Snow Showers"
"-84.51","46.49","SAULT STE MARIE A","6057591","2021-12-19 14:00","2021","12","19","14:00","-6.5","","-9.4","","80","","","","10","","12","","32.2","","100.20","","","","-12","","Snow Showers"
"-84.51","46.49","SAULT STE MARIE A","6057591","2021-12-19 15:00","2021","12","19","15:00","-6.0","","-8.4","","84","","","","9","","13","","32.2","","100.14","","","","-11","","Snow Showers"
"-84.51","46.49","SAULT STE MARIE A","6057591","2021-12-19 16:00","2021","12","19","16:00","-5.6","","-7.5","","86","","","","9","","15","","32.2","","100.07","","","","-11","","Snow Showers"
"-84.51","46.49","SAULT STE MARIE A","6057591","2021-12-19 17:00","2021","12","19","17:00","-5.3","","-6.8","","89","","","","9","","13","","32.2","","100.02","","","","-10","","Snow Showers"
"-84.51","46.49","SAULT STE MARIE A","6057591","2021-12-19 18:00","2021","12","19","18:00","-4.6","","-6.2","","89","","","","11","","10","","32.2","","99.89","","","","-9","","Snow Showers"
"-84.51","46.49","SAULT STE MARIE A","6057591","2021-12-19 19:00","2021","12","19","19:00","-3.2","","-5.2","","86","","","","15","","9","","32.2","","99.81","","","","-7","","Snow Showers"
"-84.51","46.49","SAULT STE MARIE A","6057591","2021-12-19 20:00","2021","12","19","20:00","-2.2","","-6.4","","73","","","","16","","12","","32.2","","99.73","","","","-6","","Snow Showers"
"-84.51","46.49","SAULT STE MARIE A","6057591","2021-12-19 21:00","2021","12","19","21:00","-2.1","","-7.1","","69","","","","15","","20","","32.2","","99.64","","","","-8","","NA"
"-84.51","46.49","SAULT STE MARIE A","6057591","2021-12-19 22:00","2021","12","19","22:00","-2.0","","-6.5","","71","","","","16","","17","","32.2","","99.54","","","","-7","","Cloudy"
"-84.51","46.49","SAULT STE MARIE A","6057591","2021-12-19 23:00","2021","12","19","23:00","-1.8","","-5.9","","74","","","","15","","15","","32.2","","99.43","","","","-7","","NA"
"-84.51","46.49","SAULT STE MARIE A","6057591","2021-12-20 00:00","2021","12","20","00:00","-1.5","","-5.5","","74","","","","17","","12","","32.2","","99.32","","","","-6","","NA"
"-84.51","46.49","SAULT STE MARIE A","6057591","2021-12-20 01:00","2021","12","20","01:00","-1.2","","-4.8","","76","","","","17","","13","","32.2","","99.21","","","","-5","","Cloudy"
"-84.51","46.49","SAULT STE MARIE A","6057591","2021-12-20 02:00","2021","12","20","02:00","-0.6","","-4.0","","78","","","","17","","16","","32.2","","99.13","","","","-5","","Snow Showers"
"-84.51","46.49","SAULT STE MARIE A","6057591","2021-12-20 03:00","2021","12","20","03:00","-0.2","","-2.3","","85","","","","17","","10","","4.0","","99.05","","","","-4","","Snow Showers"
"-84.51","46.49","SAULT STE MARIE A","6057591","2021-12-20 04:00","2021","12","20","04:00","1.2","","-3.0","","74","","","","24","","24","","32.2","","99.03","","","","","","Snow Showers"
"-84.51","46.49","SAULT STE MARIE A","6057591","2021-12-20 05:00","2021","12","20","05:00","0.9","","-3.7","","71","","","","24","","30","","32.2","","98.97","","","","","","Snow Showers"
"-84.51","46.49","SAULT STE MARIE A","6057591","2021-12-20 06:00","2021","12","20","06:00","0.7","","-3.4","","74","","","","24","","19","","32.2","","98.96","","","","","","Snow Showers"
"-84.51","46.49","SAULT STE MARIE A","6057591","2021-12-20 07:00","2021","12","20","07:00","0.5","","-3.7","","73","","","","23","","20","","32.2","","98.90","","","","","","Cloudy"
"-84.51","46.49","SAULT STE MARIE A","6057591","2021-12-20 08:00","2021","12","20","08:00","0.3","","-3.7","","74","","","","26","","27","","8.1","","98.99","","","","","","Snow Showers"
"-84.51","46.49","SAULT STE MARIE A","6057591","2021-12-20 09:00","2021","12","20","09:00","0.1","","-4.4","","72","","","","27","","27","","9.7","","98.93","","","","","","Snow Showers"
"-84.51","46.49","SAULT STE MARIE A","6057591","2021-12-20 10:00","2021","12","20","10:00","-0.2","","-4.1","","75","","","","26","","21","","11.3","","98.92","","","","-6","","Snow Showers"
"-84.51","46.49","SAULT STE MARIE A","6057591","2021-12-20 11:00","2021","12","20","11:00","-0.4","","-3.5","","79","","","","25","","23","","9.7","","98.95","","","","-6","","Snow Showers"
"-84.51","46.49","SAULT STE MARIE A","6057591","2021-12-20 12:00","2021","12","20","12:00","0.1","","-4.7","","70","","","","24","","18","","12.9","","98.87","","","","","","Snow Showers"
"-84.51","46.49","SAULT STE MARIE A","6057591","2021-12-20 13:00","2021","12","20","13:00","0.2","","-4.6","","70","","","","25","","23","","16.1","","98.84","","","","","","Cloudy"
"-84.51","46.49","SAULT STE MARIE A","6057591","2021-12-20 14:00","2021","12","20","14:00","0.0","","-4.4","","72","","","","25","","27","","11.3","","98.80","","","","-6","","NA"
"-84.51","46.49","SAULT STE MARIE A","6057591","2021-12-20 15:00","2021","12","20","15:00","-0.9","","-2.9","","86","","","","24","","21","","12.9","","98.80","","","","-7","","Snow Showers"
"-84.51","46.49","SAULT STE MARIE A","6057591","2021-12-20 16:00","2021","12","20","16:00","-0.7","","-3.2","","84","","","","24","","23","","19.3","","98.82","","","","-7","","Cloudy"
"-84.51","46.49","SAULT STE MARIE A","6057591","2021-12-20 17:00","2021","12","20","17:00","-0.4","","-3.2","","82","","","","27","","37","","11.3","","98.92","","","","-8","","Snow Showers"
"-84.51","46.49","SAULT STE MARIE A","6057591","2021-12-20 18:00","2021","12","20","18:00","-1.6","","-4.5","","80","","","","30","","41","","9.7","","99.05","","","","-10","","Snow Showers"
"-84.51","46.49","SAULT STE MARIE A","6057591","2021-12-20 19:00","2021","12","20","19:00","-2.3","","-6.3","","74","","","","30","","41","","16.1","","99.16","","","","-11","","Snow Showers"
"-84.51","46.49","SAULT STE MARIE A","6057591","2021-12-20 20:00","2021","12","20","20:00","-2.7","","-7.5","","70","","","","30","","41","","16.1","","99.25","","","","-11","","Snow Showers"
"-84.51","46.49","SAULT STE MARIE A","6057591","2021-12-20 21:00","2021","12","20","21:00","-3.4","","-9.6","","62","","","","30","","44","","19.3","","99.31","","","","-12","","Snow Showers"
"-84.51","46.49","SAULT STE MARIE A","6057591","2021-12-20 22:00","2021","12","20","22:00","-4.0","","-7.8","","75","","","","29","","35","","4.0","","99.35","","","","-12","","Snow Showers,Blowing Snow"
"-84.51","46.49","SAULT STE MARIE A","6057591","2021-12-20 23:00","2021","12","20","23:00","-4.7","","-8.2","","77","","","","30","","42","","3.6","","99.37","","","","-14","","Snow Showers,Blowing Snow"
"-84.51","46.49","SAULT STE MARIE A","6057591","2021-12-21 00:00","2021","12","21","00:00","-4.7","","-8.6","","75","","","","29","","28","","3.6","","99.40","","","","-12","","Snow Showers,Blowing Snow"
"-84.51","46.49","SAULT STE MARIE A","6057591","2021-12-21 01:00","2021","12","21","01:00","-4.7","","-8.2","","76","","","","29","","35","","3.6","","99.43","","","","-13","","Snow Showers,Blowing Snow"
"-84.51","46.49","SAULT STE MARIE A","6057591","2021-12-21 02:00","2021","12","21","02:00","-4.4","","-9.6","","67","","","","28","","30","","19.3","","99.49","","","","-12","","Snow Showers,Blowing Snow"
"-84.51","46.49","SAULT STE MARIE A","6057591","2021-12-21 03:00","2021","12","21","03:00","-4.8","","-8.2","","77","","","","29","","26","","8.1","","99.48","","","","-12","","Snow Showers,Blowing Snow"
"-84.51","46.49","SAULT STE MARIE A","6057591","2021-12-21 04:00","2021","12","21","04:00","-4.5","","-8.4","","74","","","","33","","17","","19.3","","99.47","","","","-10","","Snow Showers,Blowing Snow"
"-84.51","46.49","SAULT STE MARIE A","6057591","2021-12-21 05:00","2021","12","21","05:00","-4.7","","-9.7","","68","","","","33","","18","","24.1","","99.43","","","","-11","","Snow Showers"
"-84.51","46.49","SAULT STE MARIE A","6057591","2021-12-21 06:00","2021","12","21","06:00","-4.7","","-9.2","","71","","","","33","","9","","24.1","","99.38","","","","-9","","Snow Showers"
"-84.51","46.49","SAULT STE MARIE A","6057591","2021-12-21 07:00","2021","12","21","07:00","-5.2","","-7.6","","84","","","","22","","6","","24.1","","99.33","","","","-8","","Snow Showers"
"-84.51","46.49","SAULT STE MARIE A","6057591","2021-12-21 08:00","2021","12","21","08:00","-5.9","","-8.4","","83","","","","20","","15","","16.1","","99.31","","","","-12","","Snow Showers"
"-84.51","46.49","SAULT STE MARIE A","6057591","2021-12-21 09:00","2021","12","21","09:00","-6.5","","-8.6","","85","","","","18","","8","","24.1","","99.28","","","","-10","","NA"
"-84.51","46.49","SAULT STE MARIE A","6057591","2021-12-21 10:00","2021","12","21","10:00","-6.8","","-9.1","","84","","","","15","","7","","40.2","","99.27","","","","-10","","Mostly Cloudy"
"-84.51","46.49","SAULT STE MARIE A","6057591","2021-12-21 11:00","2021","12","21","11:00","-6.3","","-9.4","","79","","","","14","","6","","40.2","","99.19","","","","-9","","NA"
"-84.51","46.49","SAULT STE MARIE A","6057591","2021-12-21 12:00","2021","12","21","12:00","-5.9","","-9.4","","76","","","","11","","5","","40.2","","98.97","","","","-8","","NA"
"-84.51","46.49","SAULT STE MARIE A","6057591","2021-12-21 13:00","2021","12","21","13:00","-5.4","","-8.5","","79","","","","12","","8","","32.2","","98.70","","","","-9","","Cloudy"
"-84.51","46.49","SAULT STE MARIE A","6057591","2021-12-21 14:00","2021","12","21","14:00","-4.8","","-7.8","","80","","","","11","","12","","8.1","","98.50","","","","-10","","Snow"
"-84.51","46.49","SAULT STE MARIE A","6057591","2021-12-21 15:00","2021","12","21","15:00","-5.3","","-6.2","","93","","","","9","","12","","1.0","","98.29","","","","-10","","Snow"
"-84.51","46.49","SAULT STE MARIE A","6057591","2021-12-21 16:00","2021","12","21","16:00","-4.3","","-4.8","","96","","","","11","","9","","1.0","","98.11","","","","-8","","Snow"
"-84.51","46.49","SAULT STE MARIE A","6057591","2021-12-21 17:00","2021","12","21","17:00","-3.5","","-4.0","","96","","","","11","","9","","1.0","","98.00","","","","-7","","Snow"
"-84.51","46.49","SAULT STE MARIE A","6057591","2021-12-21 18:00","2021","12","21","18:00","-3.4","","-4.1","","95","","","","10","","11","","6.4","","97.76","","","","-8","","Snow"
"-84.51","46.49","SAULT STE MARIE A","6057591","2021-12-21 19:00","2021","12","21","19:00","-3.1","","-3.5","","97","","","","9","","9","","1.2","","97.61","","","","-7","","Snow"
"-84.51","46.49","SAULT STE MARIE A","6057591","2021-12-21 20:00","2021","12","21","20:00","-2.6","","-2.9","","98","","","","8","","11","","1.2","","97.45","","","","-7","","Snow"
"-84.51","46.49","SAULT STE MARIE A","6057591","2021-12-21 21:00","2021","12","21","21:00","-2.7","","-3.1","","97","","","","8","","13","","2.0","","97.32","","","","-7","","Snow"
"-84.51","46.49","SAULT STE MARIE A","6057591","2021-12-21 22:00","2021","12","21","22:00","-2.9","","-3.4","","97","","","","27","","22","","1.6","","97.32","","","","-9","","Snow"
"-84.51","46.49","SAULT STE MARIE A","6057591","2021-12-21 23:00","2021","12","21","23:00","-2.9","","-3.7","","94","","","","28","","46","","1.2","","97.31","","","","-12","","Snow,Blowing Snow"
"-84.51","46.49","SAULT STE MARIE A","6057591","2021-12-22 00:00","2021","12","22","00:00","-3.8","","-4.9","","92","","","","26","","35","","2.0","","97.38","","","","-12","","Snow,Blowing Snow"
"-84.51","46.49","SAULT STE MARIE A","6057591","2021-12-22 01:00","2021","12","22","01:00","-5.1","","-7.2","","86","","","","26","","33","","4.8","","97.43","","","","-13","","Snow,Blowing Snow"
"-84.51","46.49","SAULT STE MARIE A","6057591","2021-12-22 02:00","2021","12","22","02:00","-5.5","","-8.1","","83","","","","24","","17","","24.1","","97.48","","","","-12","","Blowing Snow"
"-84.51","46.49","SAULT STE MARIE A","6057591","2021-12-22 03:00","2021","12","22","03:00","-4.1","","-6.2","","85","","","","33","","33","","4.0","","97.62","","","","-12","","Snow Showers,Blowing Snow"
"-84.51","46.49","SAULT STE MARIE A","6057591","2021-12-22 04:00","2021","12","22","04:00","-4.4","","-6.8","","84","","","","32","","36","","3.6","","97.81","","","","-13","","Snow Showers,Blowing Snow"
"-84.51","46.49","SAULT STE MARIE A","6057591","2021-12-22 05:00","2021","12","22","05:00","-5.8","","-7.5","","88","","","","32","","31","","1.6","","98.00","","","","-14","","Snow Showers,Blowing Snow"
"-84.51","46.49","SAULT STE MARIE A","6057591","2021-12-22 06:00","2021","12","22","06:00","-6.8","","-9.4","","82","","","","34","","28","","2.4","","98.17","","","","-15","","Snow Showers,Blowing Snow"
"-84.51","46.49","SAULT STE MARIE A","6057591","2021-12-22 07:00","2021","12","22","07:00","-7.6","","-10.6","","79","","","","36","","26","","16.1","","98.29","","","","-16","","Snow Showers,Blowing Snow"
"-84.51","46.49","SAULT STE MARIE A","6057591","2021-12-22 08:00","2021","12","22","08:00","-8.1","","-11.4","","77","","","","35","","21","","16.1","","98.43","","","","-16","","Snow Showers,Blowing Snow"
"-84.51","46.49","SAULT STE MARIE A","6057591","2021-12-22 09:00","2021","12","22","09:00","-8.5","","-11.6","","79","","","","35","","26","","1.2","","98.55","","","","-17","","Snow Showers,Snow Pellets,Blowing Snow"
"-84.51","46.49","SAULT STE MARIE A","6057591","2021-12-22 10:00","2021","12","22","10:00","-9.1","","-11.5","","83","","","","33","","16","","1.6","","98.69","","","","-16","","Snow Showers,Snow Pellets,Blowing Snow"
"-84.51","46.49","SAULT STE MARIE A","6057591","2021-12-22 11:00","2021","12","22","11:00","-9.3","","-11.9","","82","","","","35","","14","","2.0","","98.77","","","","-16","","Snow Showers,Blowing Snow"
"-84.51","46.49","SAULT STE MARIE A","6057591","2021-12-22 12:00","2021","12","22","12:00","-8.6","","-12.4","","74","","","","32","","21","","19.3","","98.82","","","","-16","","Snow Showers,Blowing Snow"
"-84.51","46.49","SAULT STE MARIE A","6057591","2021-12-22 13:00","2021","12","22","13:00","-8.1","","-13.1","","68","","","","32","","25","","19.3","","98.87","","","","-16","","Snow Showers,Blowing Snow"
"-84.51","46.49","SAULT STE MARIE A","6057591","2021-12-22 14:00","2021","12","22","14:00","-7.7","","-12.1","","71","","","","32","","28","","19.3","","98.88","","","","-16","","Snow Showers,Blowing Snow"
"-84.51","46.49","SAULT STE MARIE A","6057591","2021-12-22 15:00","2021","12","22","15:00","-7.6","","-12.0","","71","","","","33","","28","","19.3","","98.94","","","","-16","","Snow Showers,Blowing Snow"
"-84.51","46.49","SAULT STE MARIE A","6057591","2021-12-22 16:00","2021","12","22","16:00","-7.4","","-11.6","","72","","","","34","","23","","16.1","","99.01","","","","-15","","Snow Showers,Blowing Snow"
"-84.51","46.49","SAULT STE MARIE A","6057591","2021-12-22 17:00","2021","12","22","17:00","-7.3","","-11.1","","74","","","","34","","20","","16.1","","99.09","","","","-14","","Snow Showers,Blowing Snow"
"-84.51","46.49","SAULT STE MARIE A","6057591","2021-12-22 18:00","2021","12","22","18:00","-8.0","","-10.8","","80","","","","4","","15","","19.3","","99.12","","","","-14","","Snow Showers,Blowing Snow"
"-84.51","46.49","SAULT STE MARIE A","6057591","2021-12-22 19:00","2021","12","22","19:00","-9.2","","-10.7","","89","","","","8","","10","","1.2","","99.23","","","","-14","","Snow Showers,Snow Pellets"
"-84.51","46.49","SAULT STE MARIE A","6057591","2021-12-22 20:00","2021","12","22","20:00","-9.0","","-10.2","","91","","","","12","","7","","1.2","","99.27","","","","-13","","Snow Showers"
"-84.51","46.49","SAULT STE MARIE A","6057591","2021-12-22 21:00","2021","12","22","21:00","-9.1","","-10.3","","91","","","","10","","13","","1.2","","99.28","","","","-15","","Snow Showers"
"-84.51","46.49","SAULT STE MARIE A","6057591","2021-12-22 22:00","2021","12","22","22:00","-9.0","","-10.4","","90","","","","12","","5","","2.0","","99.30","","","","-12","","Snow Showers"
"-84.51","46.49","SAULT STE MARIE A","6057591","2021-12-22 23:00","2021","12","22","23:00","-9.1","","-10.8","","87","","","","20","","7","","24.1","","99.34","","","","-13","","Snow Showers"
"-84.51","46.49","SAULT STE MARIE A","6057591","2021-12-23 00:00","2021","12","23","00:00","-10.2","","-11.6","","90","","","","21","","4","","32.2","","99.37","","","","-13","","Snow Showers"
"-84.51","46.49","SAULT STE MARIE A","6057591","2021-12-23 01:00","2021","12","23","01:00","-9.0","","-11.8","","80","","","","18","","4","","32.2","","99.35","","","","-11","","Cloudy"
"-84.51","46.49","SAULT STE MARIE A","6057591","2021-12-23 02:00","2021","12","23","02:00","-7.9","","-11.8","","74","","","","21","","8","","32.2","","99.34","","","","-12","","NA"
"-84.51","46.49","SAULT STE MARIE A","6057591","2021-12-23 03:00","2021","12","23","03:00","-9.3","","-11.7","","83","","","","15","","7","","32.2","","99.34","","","","-13","","NA"
"-84.51","46.49","SAULT STE MARIE A","6057591","2021-12-23 04:00","2021","12","23","04:00","-8.7","","-11.9","","78","","","","14","","5","","32.2","","99.29","","","","-11","","Cloudy"
"-84.51","46.49","SAULT STE MARIE A","6057591","2021-12-23 05:00","2021","12","23","05:00","-8.8","","-11.1","","84","","","","9","","8","","32.2","","99.31","","","","-13","","NA"
"-84.51","46.49","SAULT STE MARIE A","6057591","2021-12-23 06:00","2021","12","23","06:00","-8.7","","-10.8","","85","","","","8","","10","","32.2","","99.25","","","","-14","","NA"
"-84.51","46.49","SAULT STE MARIE A","6057591","2021-12-23 07:00","2021","12","23","07:00","-8.1","","-9.7","","89","","","","8","","9","","32.2","","99.26","","","","-13","","Snow Showers"
"-84.51","46.49","SAULT STE MARIE A","6057591","2021-12-23 08:00","2021","12","23","08:00","-7.1","","-8.6","","89","","","","8","","7","","24.1","","99.22","","","","-11","","NA"
"-84.51","46.49","SAULT STE MARIE A","6057591","2021-12-23 09:00","2021","12","23","09:00","-6.5","","-8.3","","87","","","","8","","15","","32.2","","99.20","","","","-12","","NA"
"-84.51","46.49","SAULT STE MARIE A","6057591","2021-12-23 10:00","2021","12","23","10:00","-5.8","","-7.7","","86","","","","9","","10","","4.8","","99.20","","","","-10","","Snow Showers"
"-84.51","46.49","SAULT STE MARIE A","6057591","2021-12-23 11:00","2021","12","23","11:00","-4.4","","-7.5","","80","","","","14","","14","","6.4","","99.20","","","","-10","","Snow Showers"
"-84.51","46.49","SAULT STE MARIE A","6057591","2021-12-23 12:00","2021","12","23","12:00","-3.6","","-6.6","","80","","","","13","","7","","6.4","","99.12","","","","-7","","Snow Showers"
"-84.51","46.49","SAULT STE MARIE A","6057591","2021-12-23 13:00","2021","12","23","13:00","-3.0","","-6.7","","76","","","","12","","13","","19.3","","98.97","","","","-8","","Mostly Cloudy"
"-84.51","46.49","SAULT STE MARIE A","6057591","2021-12-23 14:00","2021","12","23","14:00","-2.5","","-7.0","","71","","","","10","","18","","24.1","","98.82","","","","-8","","NA"
"-84.51","46.49","SAULT STE MARIE A","6057591","2021-12-23 15:00","2021","12","23","15:00","-2.2","","-6.5","","73","","","","12","","17","","24.1","","98.76","","","","-8","","NA"
"-84.51","46.49","SAULT STE MARIE A","6057591","2021-12-23 16:00","2021","12","23","16:00","-2.2","","-6.5","","72","","","","11","","12","","24.1","","98.79","","","","-6","","Cloudy"
"-84.51","46.49","SAULT STE MARIE A","6057591","2021-12-23 17:00","2021","12","23","17:00","-2.4","","-5.9","","77","","","","10","","12","","32.2","","98.73","","","","-7","","NA"
"-84.51","46.49","SAULT STE MARIE A","6057591","2021-12-23 18:00","2021","12","23","18:00","-2.5","","-5.5","","80","","","","10","","8","","32.2","","98.72","","","","-6","","NA"
"-84.51","46.49","SAULT STE MARIE A","6057591","2021-12-23 19:00","2021","12","23","19:00","-2.6","","-5.6","","80","","","","9","","9","","32.2","","98.68","","","","-6","","Cloudy"
"-84.51","46.49","SAULT STE MARIE A","6057591","2021-12-23 20:00","2021","12","23","20:00","-2.7","","-5.4","","82","","","","10","","8","","32.2","","98.69","","","","-6","","NA"
"-84.51","46.49","SAULT STE MARIE A","6057591","2021-12-23 21:00","2021","12","23","21:00","-4.0","","-5.9","","87","","","","10","","5","","32.2","","98.69","","","","-6","","NA"
"-84.51","46.49","SAULT STE MARIE A","6057591","2021-12-23 22:00","2021","12","23","22:00","-4.8","","-5.9","","92","","","","10","","11","","32.2","","98.64","","","","-9","","Mostly Cloudy"
"-84.51","46.49","SAULT STE MARIE A","6057591","2021-12-23 23:00","2021","12","23","23:00","-4.8","","-5.9","","92","","","","9","","8","","32.2","","98.60","","","","-8","","NA"
"-84.51","46.49","SAULT STE MARIE A","6057591","2021-12-24 00:00","2021","12","24","00:00","-4.3","","-5.1","","95","","","","10","","8","","32.2","","98.65","","","","-8","","NA"
"-84.51","46.49","SAULT STE MARIE A","6057591","2021-12-24 01:00","2021","12","24","01:00","-3.4","","-4.4","","93","","","","9","","8","","16.1","","98.70","","","","-7","","Cloudy"
"-84.51","46.49","SAULT STE MARIE A","6057591","2021-12-24 02:00","2021","12","24","02:00","-3.0","","-3.8","","94","","","","9","","10","","16.1","","98.67","","","","-7","","NA"
"-84.51","46.49","SAULT STE MARIE A","6057591","2021-12-24 03:00","2021","12","24","03:00","-2.7","","-3.4","","95","","","","9","","11","","16.1","","98.72","","","","-7","","NA"
"-84.51","46.49","SAULT STE MARIE A","6057591","2021-12-24 04:00","2021","12","24","04:00","-2.4","","-3.0","","95","","","","9","","13","","6.4","","98.69","","","","-7","","Fog"
"-84.51","46.49","SAULT STE MARIE A","6057591","2021-12-24 05:00","2021","12","24","05:00","-1.9","","-2.5","","96","","","","10","","15","","4.8","","98.61","","","","-7","","Fog"
"-84.51","46.49","SAULT STE MARIE A","6057591","2021-12-24 06:00","2021","12","24","06:00","-1.5","","-2.2","","95","","","","11","","11","","8.1","","98.72","","","","-5","","Fog"
"-84.51","46.49","SAULT STE MARIE A","6057591","2021-12-24 07:00","2021","12","24","07:00","-1.2","","-2.0","","94","","","","9","","14","","9.7","","98.61","","","","-6","","Fog"
"-84.51","46.49","SAULT STE MARIE A","6057591","2021-12-24 08:00","2021","12","24","08:00","-0.2","","-1.5","","91","","","","13","","15","","8.1","","98.67","","","","-5","","Fog"
"-84.51","46.49","SAULT STE MARIE A","6057591","2021-12-24 09:00","2021","12","24","09:00","0.2","","-1.2","","90","","","","11","","18","","6.4","","98.56","","","","","","Fog"
"-84.51","46.49","SAULT STE MARIE A","6057591","2021-12-24 10:00","2021","12","24","10:00","0.8","","-1.0","","88","","","","11","","18","","8.1","","98.44","","","","","","Fog"
"-84.51","46.49","SAULT STE MARIE A","6057591","2021-12-24 11:00","2021","12","24","11:00","1.2","","-1.0","","85","","","","12","","19","","11.3","","98.39","","","","","","NA"
"-84.51","46.49","SAULT STE MARIE A","6057591","2021-12-24 12:00","2021","12","24","12:00","1.5","","-0.5","","86","","","","11","","18","","11.3","","98.26","","","","","","NA"
"-84.51","46.49","SAULT STE MARIE A","6057591","2021-12-24 13:00","2021","12","24","13:00","1.6","","0.0","","89","","","","11","","17","","11.3","","98.14","","","","","","Cloudy"
"-84.51","46.49","SAULT STE MARIE A","6057591","2021-12-24 14:00","2021","12","24","14:00","2.1","","0.5","","89","","","","10","","20","","12.9","","98.03","","","","","","NA"
"-84.51","46.49","SAULT STE MARIE A","6057591","2021-12-24 15:00","2021","12","24","15:00","2.7","","1.0","","88","","","","11","","18","","12.9","","97.91","","","","","","NA"
"-84.51","46.49","SAULT STE MARIE A","6057591","2021-12-24 16:00","2021","12","24","16:00","2.9","","1.3","","89","","","","10","","15","","12.9","","97.86","","","","","","Cloudy"
"-84.51","46.49","SAULT STE MARIE A","6057591","2021-12-24 17:00","2021","12","24","17:00","2.2","","1.8","","97","","","","9","","17","","2.4","","97.77","","","","","","Fog"
"-84.51","46.49","SAULT STE MARIE A","6057591","2021-12-24 18:00","2021","12","24","18:00","2.0","","2.0","","100","","","","8","","16","","2.4","","97.71","","","","","","Rain,Fog"
"-84.51","46.49","SAULT STE MARIE A","6057591","2021-12-24 19:00","2021","12","24","19:00","2.1","","2.0","","99","","","","10","","17","","4.8","","97.63","","","","","","Rain Showers,Fog"
"-84.51","46.49","SAULT STE MARIE A","6057591","2021-12-24 20:00","2021","12","24","20:00","2.0","","1.9","","100","","","","9","","20","","3.6","","97.54","","","","","","Rain Showers,Fog"
"-84.51","46.49","SAULT STE MARIE A","6057591","2021-12-24 21:00","2021","12","24","21:00","2.1","","2.1","","100","","","","9","","10","","2.8","","97.58","","","","","","Rain Showers,Fog"
"-84.51","46.49","SAULT STE MARIE A","6057591","2021-12-24 22:00","2021","12","24","22:00","1.9","","1.9","","100","","","","3","","16","","2.8","","97.52","","","","","","Rain Showers,Fog"
"-84.51","46.49","SAULT STE MARIE A","6057591","2021-12-24 23:00","2021","12","24","23:00","2.2","","2.2","","100","","","","10","","8","","2.4","","97.41","","","","","","Rain Showers,Fog"
"-84.51","46.49","SAULT STE MARIE A","6057591","2021-12-25 00:00","2021","12","25","00:00","2.5","","2.5","","100","","","","10","","9","","1.2","","97.42","","","","","","Drizzle,Fog"
"-84.51","46.49","SAULT STE MARIE A","6057591","2021-12-25 01:00","2021","12","25","01:00","2.1","","2.1","","100","","","","7","","5","","1.0","","97.41","","","","","","Drizzle,Fog"
"-84.51","46.49","SAULT STE MARIE A","6057591","2021-12-25 02:00","2021","12","25","02:00","1.6","","1.6","","100","","","","3","","5","","1.0","","97.39","","","","","","Drizzle,Fog"
"-84.51","46.49","SAULT STE MARIE A","6057591","2021-12-25 03:00","2021","12","25","03:00","1.7","","1.7","","100","","","","0","","1","","1.0","","97.45","","","","","","Drizzle,Fog"
"-84.51","46.49","SAULT STE MARIE A","6057591","2021-12-25 04:00","2021","12","25","04:00","2.2","","2.2","","100","","","","25","","5","","2.0","","97.51","","","","","","Fog"
"-84.51","46.49","SAULT STE MARIE A","6057591","2021-12-25 05:00","2021","12","25","05:00","2.6","","2.6","","100","","","","29","","14","","4.8","","97.52","","","","","","Fog"
"-84.51","46.49","SAULT STE MARIE A","6057591","2021-12-25 06:00","2021","12","25","06:00","2.9","","1.9","","93","","","","30","","30","","16.1","","97.54","","","","","","NA"
"-84.51","46.49","SAULT STE MARIE A","6057591","2021-12-25 07:00","2021","12","25","07:00","2.7","","0.5","","85","","","","32","","27","","24.1","","97.59","","","","","","Mostly Cloudy"
"-84.51","46.49","SAULT STE MARIE A","6057591","2021-12-25 08:00","2021","12","25","08:00","2.3","","-1.0","","79","","","","30","","28","","24.1","","97.65","","","","","","NA"
"-84.51","46.49","SAULT STE MARIE A","6057591","2021-12-25 09:00","2021","12","25","09:00","2.5","","-1.3","","76","","","","31","","36","","24.1","","97.77","","","","","","NA"
"-84.51","46.49","SAULT STE MARIE A","6057591","2021-12-25 10:00","2021","12","25","10:00","1.8","","-1.8","","77","","","","30","","41","","32.2","","97.83","","","","","","Cloudy"
"-84.51","46.49","SAULT STE MARIE A","6057591","2021-12-25 11:00","2021","12","25","11:00","1.6","","-2.7","","73","","","","31","","40","","32.2","","98.00","","","","","","NA"
"-84.51","46.49","SAULT STE MARIE A","6057591","2021-12-25 12:00","2021","12","25","12:00","0.8","","-3.1","","75","","","","30","","39","","32.2","","98.09","","","","","","NA"
"-84.51","46.49","SAULT STE MARIE A","6057591","2021-12-25 13:00","2021","12","25","13:00","0.3","","-3.9","","73","","","","31","","33","","32.2","","98.15","","","","","","Cloudy"
"-84.51","46.49","SAULT STE MARIE A","6057591","2021-12-25 14:00","2021","12","25","14:00","-0.3","","-3.7","","78","","","","29","","33","","32.2","","98.22","","","","-7","","NA"
"-84.51","46.49","SAULT STE MARIE A","6057591","2021-12-25 15:00","2021","12","25","15:00","-0.6","","-4.0","","77","","","","30","","35","","32.2","","98.31","","","","-8","","NA"
"-84.51","46.49","SAULT STE MARIE A","6057591","2021-12-25 16:00","2021","12","25","16:00","-1.0","","-4.8","","75","","","","29","","34","","32.2","","98.38","","","","-8","","Cloudy"
"-84.51","46.49","SAULT STE MARIE A","6057591","2021-12-25 17:00","2021","12","25","17:00","-0.9","","-4.1","","79","","","","30","","31","","32.2","","98.54","","","","-8","","NA"
"-84.51","46.49","SAULT STE MARIE A","6057591","2021-12-25 18:00","2021","12","25","18:00","-1.3","","-4.8","","77","","","","30","","38","","32.2","","98.61","","","","-9","","NA"
"-84.51","46.49","SAULT STE MARIE A","6057591","2021-12-25 19:00","2021","12","25","19:00","-1.4","","-5.5","","74","","","","30","","32","","32.2","","98.72","","","","-9","","Snow Showers"
"-84.51","46.49","SAULT STE MARIE A","6057591","2021-12-25 20:00","2021","12","25","20:00","-1.6","","-5.3","","76","","","","31","","31","","32.2","","98.78","","","","-9","","Snow Showers"
"-84.51","46.49","SAULT STE MARIE A","6057591","2021-12-25 21:00","2021","12","25","21:00","-1.4","","-5.0","","77","","","","31","","26","","32.2","","98.81","","","","-8","","NA"
"-84.51","46.49","SAULT STE MARIE A","6057591","2021-12-25 22:00","2021","12","25","22:00","-1.1","","-5.2","","74","","","","31","","23","","32.2","","98.91","","","","-7","","Mostly Cloudy"
"-84.51","46.49","SAULT STE MARIE A","6057591","2021-12-25 23:00","2021","12","25","23:00","-1.1","","-6.0","","69","","","","32","","31","","32.2","","98.99","","","","-8","","NA"
"-84.51","46.49","SAULT STE MARIE A","6057591","2021-12-26 00:00","2021","12","26","00:00","-1.4","","-6.5","","68","","","","30","","26","","32.2","","99.06","","","","-8","","NA"
"-84.51","46.49","SAULT STE MARIE A","6057591","2021-12-26 01:00","2021","12","26","01:00","-1.7","","-6.3","","71","","","","31","","18","","32.2","","99.04","","","","-7","","Mostly Cloudy"
"-84.51","46.49","SAULT STE MARIE A","6057591","2021-12-26 02:00","2021","12","26","02:00","-2.1","","-6.1","","74","","","","32","","24","","32.2","","99.03","","","","-8","","NA"
"-84.51","46.49","SAULT STE MARIE A","6057591","2021-12-26 03:00","2021","12","26","03:00","-2.1","","-6.3","","73","","","","30","","24","","32.2","","99.12","","","","-8","","NA"
"-84.51","46.49","SAULT STE MARIE A","6057591","2021-12-26 04:00","2021","12","26","04:00","-2.7","","-5.9","","79","","","","32","","23","","32.2","","99.23","","","","-9","","Mostly Cloudy"
"-84.51","46.49","SAULT STE MARIE A","6057591","2021-12-26 05:00","2021","12","26","05:00","-2.8","","-6.3","","77","","","","32","","26","","32.2","","99.27","","","","-10","","NA"
"-84.51","46.49","SAULT STE MARIE A","6057591","2021-12-26 06:00","2021","12","26","06:00","-3.3","","-7.1","","75","","","","31","","21","","32.2","","99.32","","","","-10","","NA"
"-84.51","46.49","SAULT STE MARIE A","6057591","2021-12-26 07:00","2021","12","26","07:00","-3.7","","-7.5","","75","","","","32","","19","","32.2","","99.45","","","","-10","","Mostly Cloudy"
"-84.51","46.49","SAULT STE MARIE A","6057591","2021-12-26 08:00","2021","12","26","08:00","-3.9","","-7.9","","74","","","","33","","8","","24.1","","99.57","","","","-7","","NA"
"-84.51","46.49","SAULT STE MARIE A","6057591","2021-12-26 09:00","2021","12","26","09:00","-4.4","","-8.1","","75","","","","36","","12","","32.2","","99.63","","","","-9","","NA"
"-84.51","46.49","SAULT STE MARIE A","6057591","2021-12-26 10:00","2021","12","26","10:00","-4.5","","-9.4","","68","","","","36","","18","","32.2","","99.68","","","","-11","","Clear"
"-84.51","46.49","SAULT STE MARIE A","6057591","2021-12-26 11:00","2021","12","26","11:00","-3.8","","-10.3","","61","","","","34","","14","","32.2","","99.75","","","","-9","","NA"
"-84.51","46.49","SAULT STE MARIE A","6057591","2021-12-26 12:00","2021","12","26","12:00","-3.4","","-11.6","","53","","","","32","","10","","32.2","","99.83","","","","-7","","NA"
"-84.51","46.49","SAULT STE MARIE A","6057591","2021-12-26 13:00","2021","12","26","13:00","-3.3","","-9.0","","65","","","","29","","19","","32.2","","99.85","","","","-9","","Clear"
"-84.51","46.49","SAULT STE MARIE A","6057591","2021-12-26 14:00","2021","12","26","14:00","-3.2","","-9.5","","62","","","","29","","21","","32.2","","99.90","","","","-9","","NA"
"-84.51","46.49","SAULT STE MARIE A","6057591","2021-12-26 15:00","2021","12","26","15:00","-3.1","","-11.8","","51","","","","33","","17","","32.2","","99.88","","","","-9","","NA"
"-84.51","46.49","SAULT STE MARIE A","6057591","2021-12-26 16:00","2021","12","26","16:00","-3.3","","-12.6","","49","","","","35","","12","","32.2","","99.92","","","","-8","","Clear"
"-84.51","46.49","SAULT STE MARIE A","6057591","2021-12-26 17:00","2021","12","26","17:00","-4.3","","-13.2","","50","","","","36","","8","","32.2","","99.93","","","","-8","","NA"
"-84.51","46.49","SAULT STE MARIE A","6057591","2021-12-26 18:00","2021","12","26","18:00","-7.6","","-12.8","","67","","","","30","","4","","32.2","","99.99","","","","-10","","NA"
"-84.51","46.49","SAULT STE MARIE A","6057591","2021-12-26 19:00","2021","12","26","19:00","-9.4","","-11.9","","82","","","","5","","3","","32.2","","100.05","","","","-11","","Clear"
"-84.51","46.49","SAULT STE MARIE A","6057591","2021-12-26 20:00","2021","12","26","20:00","-9.9","","-12.1","","84","","","","36","","2","","32.2","","100.06","","","","-11","","NA"
"-84.51","46.49","SAULT STE MARIE A","6057591","2021-12-26 21:00","2021","12","26","21:00","-7.0","","-12.1","","67","","","","6","","15","","32.2","","100.03","","","","-13","","NA"
"-84.51","46.49","SAULT STE MARIE A","6057591","2021-12-26 22:00","2021","12","26","22:00","-6.8","","-12.7","","63","","","","5","","22","","32.2","","99.94","","","","-14","","Mostly Cloudy"
"-84.51","46.49","SAULT STE MARIE A","6057591","2021-12-26 23:00","2021","12","26","23:00","-7.0","","-13.4","","61","","","","8","","17","","32.2","","99.92","","","","-13","","NA"
"-84.51","46.49","SAULT STE MARIE A","6057591","2021-12-27 00:00","2021","12","27","00:00","-7.5","","-14.0","","60","","","","9","","18","","32.2","","99.76","","","","-14","","NA"
"-84.51","46.49","SAULT STE MARIE A","6057591","2021-12-27 01:00","2021","12","27","01:00","-8.0","","-16.7","","50","","","","10","","17","","32.2","","99.85","","","","-15","","Cloudy"
"-84.51","46.49","SAULT STE MARIE A","6057591","2021-12-27 02:00","2021","12","27","02:00","-8.1","","-15.8","","54","","","","9","","19","","32.2","","99.75","","","","-15","","NA"
"-84.51","46.49","SAULT STE MARIE A","6057591","2021-12-27 03:00","2021","12","27","03:00","-8.3","","-16.3","","53","","","","9","","25","","32.2","","99.63","","","","-17","","NA"
"-84.51","46.49","SAULT STE MARIE A","6057591","2021-12-27 04:00","2021","12","27","04:00","-8.6","","-15.7","","57","","","","9","","19","","32.2","","99.63","","","","-16","","Cloudy"
"-84.51","46.49","SAULT STE MARIE A","6057591","2021-12-27 05:00","2021","12","27","05:00","-8.7","","-15.1","","60","","","","8","","24","","32.2","","99.40","","","","-17","","NA"
"-84.51","46.49","SAULT STE MARIE A","6057591","2021-12-27 06:00","2021","12","27","06:00","-8.8","","-15.4","","59","","","","10","","23","","32.2","","99.29","","","","-17","","NA"
"-84.51","46.49","SAULT STE MARIE A","6057591","2021-12-27 07:00","2021","12","27","07:00","-8.8","","-17.1","","52","","","","10","","21","","32.2","","99.25","","","","-17","","Cloudy"
"-84.51","46.49","SAULT STE MARIE A","6057591","2021-12-27 08:00","2021","12","27","08:00","-9.0","","-15.9","","58","","","","9","","28","","8.1","","99.27","","","","-18","","Snow Showers"
"-84.51","46.49","SAULT STE MARIE A","6057591","2021-12-27 09:00","2021","12","27","09:00","-9.7","","-12.9","","78","","","","9","","27","","1.2","","99.19","","","","-19","","Snow Showers,Blowing Snow"
"-84.51","46.49","SAULT STE MARIE A","6057591","2021-12-27 10:00","2021","12","27","10:00","-9.4","","-11.1","","87","","","","8","","25","","1.2","","99.07","","","","-18","","Snow Showers,Blowing Snow"
"-84.51","46.49","SAULT STE MARIE A","6057591","2021-12-27 11:00","2021","12","27","11:00","-8.4","","-10.3","","86","","","","8","","25","","2.0","","98.83","","","","-17","","Snow Showers,Blowing Snow"
"-84.51","46.49","SAULT STE MARIE A","6057591","2021-12-27 12:00","2021","12","27","12:00","-7.2","","-9.3","","85","","","","10","","17","","4.0","","98.66","","","","-14","","Snow Showers,Blowing Snow"
"-84.51","46.49","SAULT STE MARIE A","6057591","2021-12-27 13:00","2021","12","27","13:00","-6.8","","-8.5","","88","","","","10","","18","","11.3","","98.45","","","","-13","","Snow Showers,Blowing Snow"
"-84.51","46.49","SAULT STE MARIE A","6057591","2021-12-27 14:00","2021","12","27","14:00","-6.6","","-8.2","","89","","","","10","","27","","2.0","","98.31","","","","-15","","Snow Showers,Blowing Snow"
"-84.51","46.49","SAULT STE MARIE A","6057591","2021-12-27 15:00","2021","12","27","15:00","-6.0","","-7.9","","87","","","","10","","23","","4.8","","98.24","","","","-13","","Snow Showers,Blowing Snow"
"-84.51","46.49","SAULT STE MARIE A","6057591","2021-12-27 16:00","2021","12","27","16:00","-5.7","","-7.7","","86","","","","10","","24","","11.3","","98.09","","","","-13","","Blowing Snow"
"-84.51","46.49","SAULT STE MARIE A","6057591","2021-12-27 17:00","2021","12","27","17:00","-5.5","","-7.5","","86","","","","10","","24","","6.4","","98.04","","","","-13","","Blowing Snow"
"-84.51","46.49","SAULT STE MARIE A","6057591","2021-12-27 18:00","2021","12","27","18:00","-5.5","","-7.0","","89","","","","10","","18","","4.0","","97.95","","","","-12","","Snow Showers,Blowing Snow"
"-84.51","46.49","SAULT STE MARIE A","6057591","2021-12-27 19:00","2021","12","27","19:00","-5.4","","-6.6","","91","","","","9","","17","","4.0","","97.91","","","","-11","","Snow Showers,Snow Pellets,Blowing Snow"
"-84.51","46.49","SAULT STE MARIE A","6057591","2021-12-27 20:00","2021","12","27","20:00","-4.9","","-6.1","","91","","","","9","","19","","4.0","","97.78","","","","-11","","Snow Showers,Snow Pellets,Blowing Snow"
"-84.51","46.49","SAULT STE MARIE A","6057591","2021-12-27 21:00","2021","12","27","21:00","-4.4","","-5.3","","93","","","","9","","20","","4.0","","97.68","","","","-11","","Snow Showers,Blowing Snow"
"-84.51","46.49","SAULT STE MARIE A","6057591","2021-12-27 22:00","2021","12","27","22:00","-3.8","","-4.5","","95","","","","8","","17","","3.2","","97.72","","","","-10","","Snow Showers,Snow Pellets,Blowing Snow"
"-84.51","46.49","SAULT STE MARIE A","6057591","2021-12-27 23:00","2021","12","27","23:00","-3.3","","-4.1","","95","","","","8","","10","","24.1","","97.69","","","","-7","","Snow"
"-84.51","46.49","SAULT STE MARIE A","6057591","2021-12-28 00:00","2021","12","28","00:00","-2.7","","-3.3","","96","","","","36","","2","","4.8","","97.78","","","","-3","","Snow"
"-84.51","46.49","SAULT STE MARIE A","6057591","2021-12-28 01:00","2021","12","28","01:00","-1.7","","-2.8","","92","","","","26","","37","","1.0","","97.90","","","","-9","","Snow Showers,Snow Pellets,Blowing Snow"
"-84.51","46.49","SAULT STE MARIE A","6057591","2021-12-28 02:00","2021","12","28","02:00","-2.4","","-5.6","","79","","","","27","","30","","12.9","","98.03","","","","-10","","Snow Showers,Blowing Snow"
"-84.51","46.49","SAULT STE MARIE A","6057591","2021-12-28 03:00","2021","12","28","03:00","-3.1","","-6.6","","77","","","","26","","27","","24.1","","98.23","","","","-10","","Blowing Snow"
"-84.51","46.49","SAULT STE MARIE A","6057591","2021-12-28 04:00","2021","12","28","04:00","-3.6","","-7.1","","77","","","","24","","25","","24.1","","98.29","","","","-11","","Mostly Cloudy"
"-84.51","46.49","SAULT STE MARIE A","6057591","2021-12-28 05:00","2021","12","28","05:00","-4.4","","-7.1","","82","","","","25","","23","","24.1","","98.36","","","","-11","","Snow Showers,Blowing Snow"
"-84.51","46.49","SAULT STE MARIE A","6057591","2021-12-28 06:00","2021","12","28","06:00","-4.0","","-5.9","","87","","","","25","","19","","24.1","","98.37","","","","-10","","Snow,Blowing Snow"
"-84.51","46.49","SAULT STE MARIE A","6057591","2021-12-28 07:00","2021","12","28","07:00","-3.8","","-5.5","","88","","","","25","","16","","24.1","","98.38","","","","-9","","Mostly Cloudy"
"-84.51","46.49","SAULT STE MARIE A","6057591","2021-12-28 08:00","2021","12","28","08:00","-3.0","","-5.0","","86","","","","26","","23","","24.1","","98.58","","","","-9","","Snow"
"-84.51","46.49","SAULT STE MARIE A","6057591","2021-12-28 09:00","2021","12","28","09:00","-3.3","","-4.6","","90","","","","25","","21","","24.1","","98.64","","","","-10","","Snow"
"-84.51","46.49","SAULT STE MARIE A","6057591","2021-12-28 10:00","2021","12","28","10:00","-3.0","","-4.7","","88","","","","25","","18","","32.2","","98.70","","","","-9","","Cloudy"
"-84.51","46.49","SAULT STE MARIE A","6057591","2021-12-28 11:00","2021","12","28","11:00","-2.8","","-4.7","","87","","","","24","","18","","19.3","","98.72","","","","-8","","Snow Showers"
"-84.51","46.49","SAULT STE MARIE A","6057591","2021-12-28 12:00","2021","12","28","12:00","-2.9","","-5.0","","85","","","","24","","9","","24.1","","98.63","","","","-6","","Snow Showers"
"-84.51","46.49","SAULT STE MARIE A","6057591","2021-12-28 13:00","2021","12","28","13:00","-2.3","","-4.2","","87","","","","28","","11","","32.2","","98.49","","","","-6","","Mostly Cloudy"
"-84.51","46.49","SAULT STE MARIE A","6057591","2021-12-28 14:00","2021","12","28","14:00","-2.0","","-3.5","","89","","","","30","","10","","32.2","","98.47","","","","-6","","Snow Showers"
"-84.51","46.49","SAULT STE MARIE A","6057591","2021-12-28 15:00","2021","12","28","15:00","-2.2","","-4.4","","85","","","","19","","9","","32.2","","98.57","","","","-6","","NA"
"-84.51","46.49","SAULT STE MARIE A","6057591","2021-12-28 16:00","2021","12","28","16:00","-2.4","","-4.3","","87","","","","20","","5","","32.2","","98.63","","","","-4","","Cloudy"
"-84.51","46.49","SAULT STE MARIE A","6057591","2021-12-28 17:00","2021","12","28","17:00","-2.4","","-3.9","","89","","","","36","","1","","24.1","","98.64","","","","-3","","NA"
"-84.51","46.49","SAULT STE MARIE A","6057591","2021-12-28 18:00","2021","12","28","18:00","-2.5","","-3.9","","90","","","","17","","3","","24.1","","98.70","","","","-4","","NA"
"-84.51","46.49","SAULT STE MARIE A","6057591","2021-12-28 19:00","2021","12","28","19:00","-2.7","","-4.1","","90","","","","8","","4","","32.2","","98.69","","","","-4","","Snow Showers"
"-84.51","46.49","SAULT STE MARIE A","6057591","2021-12-28 20:00","2021","12","28","20:00","-2.8","","-3.9","","92","","","","5","","5","","32.2","","98.66","","","","-5","","NA"
"-84.51","46.49","SAULT STE MARIE A","6057591","2021-12-28 21:00","2021","12","28","21:00","-2.6","","-3.9","","91","","","","9","","3","","32.2","","98.62","","","","-4","","NA"
"-84.51","46.49","SAULT STE MARIE A","6057591","2021-12-28 22:00","2021","12","28","22:00","-2.6","","-3.9","","91","","","","10","","8","","32.2","","98.55","","","","-6","","Cloudy"
"-84.51","46.49","SAULT STE MARIE A","6057591","2021-12-28 23:00","2021","12","28","23:00","-2.3","","-4.1","","87","","","","8","","5","","32.2","","98.53","","","","-4","","NA"
"-84.51","46.49","SAULT STE MARIE A","6057591","2021-12-29 00:00","2021","12","29","00:00","-2.4","","-4.1","","88","","","","9","","9","","32.2","","98.55","","","","-6","","NA"
"-84.51","46.49","SAULT STE MARIE A","6057591","2021-12-29 01:00","2021","12","29","01:00","-2.2","","-3.8","","89","","","","9","","7","","32.2","","98.52","","","","-5","","Cloudy"
"-84.51","46.49","SAULT STE MARIE A","6057591","2021-12-29 02:00","2021","12","29","02:00","-2.1","","-3.8","","89","","","","9","","11","","32.2","","98.48","","","","-6","","NA"
"-84.51","46.49","SAULT STE MARIE A","6057591","2021-12-29 03:00","2021","12","29","03:00","-2.0","","-3.6","","89","","","","9","","13","","12.9","","98.45","","","","-6","","Snow"
"-84.51","46.49","SAULT STE MARIE A","6057591","2021-12-29 04:00","2021","12","29","04:00","-1.7","","-2.9","","91","","","","10","","13","","19.3","","98.47","","","","-6","","Snow"
"-84.51","46.49","SAULT STE MARIE A","6057591","2021-12-29 05:00","2021","12","29","05:00","-1.7","","-2.9","","92","","","","11","","16","","16.1","","98.39","","","","-7","","Snow"
"-84.51","46.49","SAULT STE MARIE A","6057591","2021-12-29 06:00","2021","12","29","06:00","-1.7","","-2.6","","94","","","","10","","14","","8.1","","98.44","","","","-6","","Snow"
"-84.51","46.49","SAULT STE MARIE A","6057591","2021-12-29 07:00","2021","12","29","07:00","-2.0","","-2.6","","96","","","","10","","16","","6.4","","98.48","","","","-7","","Freezing Rain,Freezing Drizzle,Snow"
"-84.51","46.49","SAULT STE MARIE A","6057591","2021-12-29 08:00","2021","12","29","08:00","-2.1","","-2.5","","97","","","","9","","17","","2.8","","98.46","","","","-7","","Freezing Drizzle,Snow"
"-84.51","46.49","SAULT STE MARIE A","6057591","2021-12-29 09:00","2021","12","29","09:00","-2.0","","-2.3","","97","","","","9","","13","","2.4","","98.45","","","","-6","","Snow Showers"
"-84.51","46.49","SAULT STE MARIE A","6057591","2021-12-29 10:00","2021","12","29","10:00","-1.8","","-2.1","","98","","","","9","","10","","2.0","","98.46","","","","-5","","Snow Showers"
"-84.51","46.49","SAULT STE MARIE A","6057591","2021-12-29 11:00","2021","12","29","11:00","-1.5","","-1.9","","97","","","","8","","12","","2.0","","98.44","","","","-6","","Snow Showers"
"-84.51","46.49","SAULT STE MARIE A","6057591","2021-12-29 12:00","2021","12","29","12:00","-1.3","","-1.5","","99","","","","8","","10","","1.6","","98.41","","","","-5","","Snow Showers"
"-84.51","46.49","SAULT STE MARIE A","6057591","2021-12-29 13:00","2021","12","29","13:00","-0.9","","-1.1","","99","","","","8","","7","","8.1","","98.35","","","","-3","","Snow Showers"
"-84.51","46.49","SAULT STE MARIE A","6057591","2021-12-29 14:00","2021","12","29","14:00","-0.3","","-0.6","","98","","","","29","","43","","1.2","","98.42","","","","-8","","Snow Showers"
"-84.51","46.49","SAULT STE MARIE A","6057591","2021-12-29 15:00","2021","12","29","15:00","-1.7","","-3.5","","88","","","","29","","39","","16.1","","98.53","","","","-10","","Snow Showers"
"-84.51","46.49","SAULT STE MARIE A","6057591","2021-12-29 16:00","2021","12","29","16:00","-2.7","","-5.2","","83","","","","29","","37","","24.1","","98.61","","","","-11","","Snow Showers,Blowing Snow"
"-84.51","46.49","SAULT STE MARIE A","6057591","2021-12-29 17:00","2021","12","29","17:00","-2.9","","-6.5","","76","","","","28","","35","","32.2","","98.72","","","","-11","","Blowing Snow"
"-84.51","46.49","SAULT STE MARIE A","6057591","2021-12-29 18:00","2021","12","29","18:00","-2.9","","-6.2","","78","","","","27","","32","","24.1","","98.84","","","","-10","","Snow Showers,Blowing Snow"
"-84.51","46.49","SAULT STE MARIE A","6057591","2021-12-29 19:00","2021","12","29","19:00","-3.7","","-6.3","","82","","","","26","","29","","24.1","","98.90","","","","-11","","Snow Showers,Blowing Snow"
"-84.51","46.49","SAULT STE MARIE A","6057591","2021-12-29 20:00","2021","12","29","20:00","-3.4","","-6.7","","78","","","","28","","27","","24.1","","98.93","","","","-11","","Snow Showers,Blowing Snow"
"-84.51","46.49","SAULT STE MARIE A","6057591","2021-12-29 21:00","2021","12","29","21:00","-2.8","","-7.6","","70","","","","30","","35","","24.1","","98.91","","","","-11","","Snow"
"-84.51","46.49","SAULT STE MARIE A","6057591","2021-12-29 22:00","2021","12","29","22:00","-2.9","","-8.5","","65","","","","29","","30","","24.1","","99.00","","","","-10","","Snow Showers"
"-84.51","46.49","SAULT STE MARIE A","6057591","2021-12-29 23:00","2021","12","29","23:00","-2.9","","-7.6","","70","","","","28","","20","","24.1","","99.01","","","","-9","","Snow Showers,Blowing Snow"
"-84.51","46.49","SAULT STE MARIE A","6057591","2021-12-30 00:00","2021","12","30","00:00","-3.2","","-7.3","","73","","","","27","","19","","32.2","","99.00","","","","-9","","Blowing Snow"
"-84.51","46.49","SAULT STE MARIE A","6057591","2021-12-30 01:00","2021","12","30","01:00","-4.6","","-6.9","","84","","","","23","","17","","32.2","","99.03","","","","-10","","Mostly Cloudy"
"-84.51","46.49","SAULT STE MARIE A","6057591","2021-12-30 02:00","2021","12","30","02:00","-5.0","","-7.0","","86","","","","23","","16","","32.2","","99.03","","","","-11","","NA"
"-84.51","46.49","SAULT STE MARIE A","6057591","2021-12-30 03:00","2021","12","30","03:00","-4.8","","-7.3","","83","","","","24","","17","","32.2","","99.07","","","","-11","","NA"
"-84.51","46.49","SAULT STE MARIE A","6057591","2021-12-30 04:00","2021","12","30","04:00","-5.0","","-7.0","","85","","","","23","","14","","32.2","","99.13","","","","-10","","Cloudy"
"-84.51","46.49","SAULT STE MARIE A","6057591","2021-12-30 05:00","2021","12","30","05:00","-5.5","","-7.5","","86","","","","23","","8","","32.2","","99.06","","","","-9","","NA"
"-84.51","46.49","SAULT STE MARIE A","6057591","2021-12-30 06:00","2021","12","30","06:00","-6.8","","-8.2","","90","","","","20","","8","","32.2","","99.08","","","","-11","","NA"
"-84.51","46.49","SAULT STE MARIE A","6057591","2021-12-30 07:00","2021","12","30","07:00","-6.9","","-8.1","","91","","","","21","","9","","32.2","","99.15","","","","-11","","Mostly Cloudy"
"-84.51","46.49","SAULT STE MARIE A","6057591","2021-12-30 08:00","2021","12","30","08:00","-6.5","","-7.9","","90","","","","18","","9","","32.2","","99.16","","","","-11","","NA"
"-84.51","46.49","SAULT STE MARIE A","6057591","2021-12-30 09:00","2021","12","30","09:00","-6.2","","-8.0","","87","","","","20","","8","","32.2","","99.19","","","","-10","","NA"
"-84.51","46.49","SAULT STE MARIE A","6057591","2021-12-30 10:00","2021","12","30","10:00","-5.6","","-8.6","","80","","","","22","","7","","40.2","","99.23","","","","-9","","Mostly Cloudy"
"-84.51","46.49","SAULT STE MARIE A","6057591","2021-12-30 11:00","2021","12","30","11:00","-5.2","","-7.9","","81","","","","18","","5","","40.2","","99.23","","","","-7","","NA"
"-84.51","46.49","SAULT STE MARIE A","6057591","2021-12-30 12:00","2021","12","30","12:00","-4.5","","-8.2","","75","","","","36","","2","","40.2","","99.14","","","","-5","","NA"
"-84.51","46.49","SAULT STE MARIE A","6057591","2021-12-30 13:00","2021","12","30","13:00","-4.2","","-8.6","","72","","","","22","","5","","32.2","","99.04","","","","-6","","Mostly Cloudy"
"-84.51","46.49","SAULT STE MARIE A","6057591","2021-12-30 14:00","2021","12","30","14:00","-4.1","","-7.5","","77","","","","36","","1","","12.9","","99.01","","","","-5","","Snow"
"-84.51","46.49","SAULT STE MARIE A","6057591","2021-12-30 15:00","2021","12","30","15:00","-4.3","","-6.5","","85","","","","14","","9","","3.2","","98.96","","","","-8","","Snow"
"-84.51","46.49","SAULT STE MARIE A","6057591","2021-12-30 16:00","2021","12","30","16:00","-4.6","","-6.5","","87","","","","11","","9","","4.0","","98.93","","","","-8","","Snow"
"-84.51","46.49","SAULT STE MARIE A","6057591","2021-12-30 17:00","2021","12","30","17:00","-4.6","","-6.5","","87","","","","11","","10","","32.2","","98.89","","","","-9","","Snow"
"-84.51","46.49","SAULT STE MARIE A","6057591","2021-12-30 18:00","2021","12","30","18:00","-4.7","","-6.3","","88","","","","11","","8","","40.2","","98.88","","","","-8","","NA"
"-84.51","46.49","SAULT STE MARIE A","6057591","2021-12-30 19:00","2021","12","30","19:00","-5.0","","-6.1","","92","","","","9","","9","","32.2","","98.84","","","","-9","","Mostly Cloudy"
"-84.51","46.49","SAULT STE MARIE A","6057591","2021-12-30 20:00","2021","12","30","20:00","-5.0","","-6.1","","92","","","","9","","10","","32.2","","98.81","","","","-9","","NA"
"-84.51","46.49","SAULT STE MARIE A","6057591","2021-12-30 21:00","2021","12","30","21:00","-4.9","","-5.9","","93","","","","9","","14","","32.2","","98.73","","","","-10","","NA"
"-84.51","46.49","SAULT STE MARIE A","6057591","2021-12-30 22:00","2021","12","30","22:00","-5.0","","-6.3","","91","","","","9","","10","","32.2","","98.68","","","","-9","","Cloudy"
"-84.51","46.49","SAULT STE MARIE A","6057591","2021-12-30 23:00","2021","12","30","23:00","-4.2","","-5.5","","91","","","","9","","11","","32.2","","98.63","","","","-9","","NA"
"-84.51","46.49","SAULT STE MARIE A","6057591","2021-12-31 00:00","2021","12","31","00:00","-3.6","","-4.9","","91","","","","12","","7","","32.2","","98.58","","","","-7","","NA"
"-84.51","46.49","SAULT STE MARIE A","6057591","2021-12-31 01:00","2021","12","31","01:00","-3.4","","-4.7","","91","","","","10","","8","","32.2","","98.53","","","","-7","","Cloudy"
"-84.51","46.49","SAULT STE MARIE A","6057591","2021-12-31 02:00","2021","12","31","02:00","-3.2","","-4.4","","91","","","","12","","7","","24.1","","98.46","","","","-6","","NA"
"-84.51","46.49","SAULT STE MARIE A","6057591","2021-12-31 03:00","2021","12","31","03:00","-2.8","","-4.0","","91","","","","11","","5","","24.1","","98.46","","","","-5","","NA"
"-84.51","46.49","SAULT STE MARIE A","6057591","2021-12-31 04:00","2021","12","31","04:00","-2.3","","-3.8","","89","","","","13","","9","","19.3","","98.39","","","","-6","","Cloudy"
"-84.51","46.49","SAULT STE MARIE A","6057591","2021-12-31 05:00","2021","12","31","05:00","-2.5","","-3.5","","93","","","","8","","5","","16.1","","98.37","","","","-4","","Snow"
"-84.51","46.49","SAULT STE MARIE A","6057591","2021-12-31 06:00","2021","12","31","06:00","-2.5","","-3.4","","94","","","","10","","3","","16.1","","98.33","","","","-4","","Snow"
"-84.51","46.49","SAULT STE MARIE A","6057591","2021-12-31 07:00","2021","12","31","07:00","-1.9","","-2.9","","93","","","","14","","5","","16.1","","98.31","","","","-4","","Snow"
"-84.51","46.49","SAULT STE MARIE A","6057591","2021-12-31 08:00","2021","12","31","08:00","-1.2","","-1.8","","96","","","","24","","14","","6.4","","98.38","","","","-6","","Snow"
"-84.51","46.49","SAULT STE MARIE A","6057591","2021-12-31 09:00","2021","12","31","09:00","-1.1","","-2.1","","93","","","","24","","15","","24.1","","98.39","","","","-6","","NA"
"-84.51","46.49","SAULT STE MARIE A","6057591","2021-12-31 10:00","2021","12","31","10:00","-0.9","","-3.0","","85","","","","25","","16","","32.2","","98.43","","","","-6","","Mostly Cloudy"
"-84.51","46.49","SAULT STE MARIE A","6057591","2021-12-31 11:00","2021","12","31","11:00","-0.8","","-3.9","","80","","","","23","","8","","32.2","","98.46","","","","-4","","NA"
"-84.51","46.49","SAULT STE MARIE A","6057591","2021-12-31 12:00","2021","12","31","12:00","-0.6","","-4.5","","75","","","","25","","16","","32.2","","98.48","","","","-5","","NA"
"-84.51","46.49","SAULT STE MARIE A","6057591","2021-12-31 13:00","2021","12","31","13:00","-0.5","","-4.6","","74","","","","27","","16","","32.2","","98.46","","","","-5","","Mostly Cloudy"
"-84.51","46.49","SAULT STE MARIE A","6057591","2021-12-31 14:00","2021","12","31","14:00","-0.2","","-5.5","","68","","","","26","","16","","32.2","","98.43","","","","-5","","NA"
"-84.51","46.49","SAULT STE MARIE A","6057591","2021-12-31 15:00","2021","12","31","15:00","-0.6","","-5.7","","69","","","","27","","12","","32.2","","98.45","","","","-5","","NA"
"-84.51","46.49","SAULT STE MARIE A","6057591","2021-12-31 16:00","2021","12","31","16:00","-0.9","","-5.4","","71","","","","30","","12","","32.2","","98.49","","","","-5","","Mostly Cloudy"
"-84.51","46.49","SAULT STE MARIE A","6057591","2021-12-31 17:00","2021","12","31","17:00","-1.1","","-5.0","","75","","","","30","","13","","32.2","","98.53","","","","-5","","NA"
"-84.51","46.49","SAULT STE MARIE A","6057591","2021-12-31 18:00","2021","12","31","18:00","-1.4","","-5.3","","75","","","","31","","10","","32.2","","98.50","","","","-5","","NA"
"-84.51","46.49","SAULT STE MARIE A","6057591","2021-12-31 19:00","2021","12","31","19:00","-0.9","","-5.4","","72","","","","29","","16","","9.7","","98.61","","","","-6","","Snow Showers"
"-84.51","46.49","SAULT STE MARIE A","6057591","2021-12-31 20:00","2021","12","31","20:00","-1.6","","-3.9","","85","","","","28","","16","","8.1","","98.64","","","","-7","","Snow Showers"
"-84.51","46.49","SAULT STE MARIE A","6057591","2021-12-31 21:00","2021","12","31","21:00","-2.2","","-3.3","","92","","","","28","","18","","2.4","","98.61","","","","-8","","Snow Showers"
"-84.51","46.49","SAULT STE MARIE A","6057591","2021-12-31 22:00","2021","12","31","22:00","-2.4","","-3.6","","91","","","","32","","17","","2.4","","98.57","","","","-8","","Snow Showers,Blowing Snow"
"-84.51","46.49","SAULT STE MARIE A","6057591","2021-12-31 23:00","2021","12","31","23:00","-2.8","","-4.3","","89","","","","33","","21","","2.4","","98.62","","","","-9","","Snow Showers,Blowing Snow"
