"Longitude (x)","Latitude (y)","Station Name","Climate ID","Date/Time (LST)","Year","Month","Day","Time (LST)","Temp (°C)","Temp Flag","Dew Point Temp (°C)","Dew Point Temp Flag","Rel Hum (%)","Rel Hum Flag","Precip. Amount (mm)","Precip. Amount Flag","Wind Dir (10s deg)","Wind Dir Flag","Wind Spd (km/h)","Wind Spd Flag","Visibility (km)","Visibility Flag","Stn Press (kPa)","Stn Press Flag","Hmdx","Hmdx Flag","Wind Chill","Wind Chill Flag","Weather"
"-64.32","48.42","CAP-D'ESPOIR","7051050","2022-02-01 00:00","2022","02","01","00:00","-15.7","","-21.2","","63","","","","28","","19","","","","102.91","","","","-25","","NA"
"-64.32","48.42","CAP-D'ESPOIR","7051050","2022-02-01 01:00","2022","02","01","01:00","-16.7","","-21.5","","67","","","","27","","16","","","","103.02","","","","-25","","NA"
"-64.32","48.42","CAP-D'ESPOIR","7051050","2022-02-01 02:00","2022","02","01","02:00","-16.9","","-21.8","","66","","","","26","","14","","","","103.10","","","","-25","","NA"
"-64.32","48.42","CAP-D'ESPOIR","7051050","2022-02-01 03:00","2022","02","01","03:00","-17.8","","-22.0","","70","","","","28","","9","","","","103.18","","","","-24","","NA"
"-64.32","48.42","CAP-D'ESPOIR","7051050","2022-02-01 04:00","2022","02","01","04:00","-17.4","","-22.5","","65","","","","28","","11","","","","103.27","","","","-25","","NA"
"-64.32","48.42","CAP-D'ESPOIR","7051050","2022-02-01 05:00","2022","02","01","05:00","-17.5","","-21.9","","68","","","","26","","12","","","","103.35","","","","-25","","NA"
"-64.32","48.42","CAP-D'ESPOIR","7051050","2022-02-01 06:00","2022","02","01","06:00","-17.8","","-22.6","","66","","","","28","","15","","","","103.45","","","","-26","","NA"
"-64.32","48.42","CAP-D'ESPOIR","7051050","2022-02-01 07:00","2022","02","01","07:00","-17.9","","-22.7","","66","","","","29","","14","","","","103.56","","","","-26","","NA"
"-64.32","48.42","CAP-D'ESPOIR","7051050","2022-02-01 08:00","2022","02","01","08:00","-16.4","","-22.0","","62","","","","28","","15","","","","103.60","","","","-25","","NA"
"-64.32","48.42","CAP-D'ESPOIR","7051050","2022-02-01 09:00","2022","02","01","09:00","-14.5","","-21.5","","55","","","","28","","4","","","","103.66","","","","-17","","NA"
"-64.32","48.42","CAP-D'ESPOIR","7051050","2022-02-01 10:00","2022","02","01","10:00","-12.6","","-20.8","","50","","","","30","","5","","","","103.71","","","","-16","","NA"
"-64.32","48.42","CAP-D'ESPOIR","7051050","2022-02-01 11:00","2022","02","01","11:00","-12.2","","-19.6","","54","","","","23","","12","","","","103.69","","","","-19","","NA"
"-64.32","48.42","CAP-D'ESPOIR","7051050","2022-02-01 12:00","2022","02","01","12:00","-11.7","","-19.2","","54","","","","23","","11","","","","103.67","","","","-18","","NA"
"-64.32","48.42","CAP-D'ESPOIR","7051050","2022-02-01 13:00","2022","02","01","13:00","-11.2","","-18.7","","54","","","","21","","10","","","","103.64","","","","-17","","NA"
"-64.32","48.42","CAP-D'ESPOIR","7051050","2022-02-01 14:00","2022","02","01","14:00","-11.2","","-17.8","","58","","","","21","","10","","","","103.66","","","","-17","","NA"
"-64.32","48.42","CAP-D'ESPOIR","7051050","2022-02-01 15:00","2022","02","01","15:00","-11.3","","-17.8","","59","","","","21","","5","","","","103.65","","","","-14","","NA"
"-64.32","48.42","CAP-D'ESPOIR","7051050","2022-02-01 16:00","2022","02","01","16:00","-11.2","","-18.0","","57","","","","19","","7","","","","103.72","","","","-15","","NA"
"-64.32","48.42","CAP-D'ESPOIR","7051050","2022-02-01 17:00","2022","02","01","17:00","-11.0","","-16.5","","64","","","","21","","12","","","","103.76","","","","-17","","NA"
"-64.32","48.42","CAP-D'ESPOIR","7051050","2022-02-01 18:00","2022","02","01","18:00","-10.9","","-17.4","","59","","","","23","","14","","","","103.78","","","","-18","","NA"
"-64.32","48.42","CAP-D'ESPOIR","7051050","2022-02-01 19:00","2022","02","01","19:00","-14.3","","-18.1","","73","","","","27","","12","","","","103.76","","","","-21","","NA"
"-64.32","48.42","CAP-D'ESPOIR","7051050","2022-02-01 20:00","2022","02","01","20:00","-14.4","","-18.4","","72","","","","28","","10","","","","103.72","","","","-21","","NA"
"-64.32","48.42","CAP-D'ESPOIR","7051050","2022-02-01 21:00","2022","02","01","21:00","-14.4","","-18.0","","74","","","","27","","13","","","","103.71","","","","-22","","NA"
"-64.32","48.42","CAP-D'ESPOIR","7051050","2022-02-01 22:00","2022","02","01","22:00","-14.1","","-17.4","","76","","","","27","","12","","","","103.65","","","","-21","","NA"
"-64.32","48.42","CAP-D'ESPOIR","7051050","2022-02-01 23:00","2022","02","01","23:00","-13.8","","-17.0","","77","","","","27","","13","","","","103.58","","","","-21","","NA"
"-64.32","48.42","CAP-D'ESPOIR","7051050","2022-02-02 00:00","2022","02","02","00:00","-12.3","","-15.4","","77","","","","25","","15","","","","103.52","","","","-20","","NA"
"-64.32","48.42","CAP-D'ESPOIR","7051050","2022-02-02 01:00","2022","02","02","01:00","-9.5","","-12.8","","77","","","","21","","37","","","","103.44","","","","-20","","NA"
"-64.32","48.42","CAP-D'ESPOIR","7051050","2022-02-02 02:00","2022","02","02","02:00","-9.3","","-12.4","","78","","","","21","","38","","","","103.36","","","","-20","","NA"
"-64.32","48.42","CAP-D'ESPOIR","7051050","2022-02-02 03:00","2022","02","02","03:00","-9.4","","-13.8","","71","","","","22","","42","","","","103.30","","","","-20","","NA"
"-64.32","48.42","CAP-D'ESPOIR","7051050","2022-02-02 04:00","2022","02","02","04:00","-9.4","","-12.2","","80","","","","22","","44","","","","103.24","","","","-20","","NA"
"-64.32","48.42","CAP-D'ESPOIR","7051050","2022-02-02 05:00","2022","02","02","05:00","-9.9","","-13.6","","74","","","","23","","42","","","","103.20","","","","-21","","NA"
"-64.32","48.42","CAP-D'ESPOIR","7051050","2022-02-02 06:00","2022","02","02","06:00","-9.9","","-13.3","","77","","","","23","","38","","","","103.14","","","","-20","","NA"
"-64.32","48.42","CAP-D'ESPOIR","7051050","2022-02-02 07:00","2022","02","02","07:00","-9.8","","-12.5","","81","","","","23","","40","","","","103.16","","","","-20","","NA"
"-64.32","48.42","CAP-D'ESPOIR","7051050","2022-02-02 08:00","2022","02","02","08:00","-9.8","","-13.3","","75","","","","23","","42","","","","103.07","","","","-21","","NA"
"-64.32","48.42","CAP-D'ESPOIR","7051050","2022-02-02 09:00","2022","02","02","09:00","-8.2","","-10.6","","83","","","","23","","39","","","","103.03","","","","-18","","NA"
"-64.32","48.42","CAP-D'ESPOIR","7051050","2022-02-02 10:00","2022","02","02","10:00","-7.7","","-9.7","","86","","","","24","","35","","","","102.93","","","","-17","","NA"
"-64.32","48.42","CAP-D'ESPOIR","7051050","2022-02-02 11:00","2022","02","02","11:00","-7.5","","-9.1","","88","","","","24","","39","","","","102.79","","","","-17","","NA"
"-64.32","48.42","CAP-D'ESPOIR","7051050","2022-02-02 12:00","2022","02","02","12:00","-6.3","","-8.3","","86","","","","23","","44","","","","102.67","","","","-16","","NA"
"-64.32","48.42","CAP-D'ESPOIR","7051050","2022-02-02 13:00","2022","02","02","13:00","-5.1","","-7.4","","84","","","","22","","46","","","","102.54","","","","-15","","NA"
"-64.32","48.42","CAP-D'ESPOIR","7051050","2022-02-02 14:00","2022","02","02","14:00","-4.4","","-6.6","","85","","","","22","","37","","","","102.50","","","","-13","","NA"
"-64.32","48.42","CAP-D'ESPOIR","7051050","2022-02-02 15:00","2022","02","02","15:00","-3.8","","-5.4","","88","","","","21","","32","","","","102.49","","","","-12","","NA"
"-64.32","48.42","CAP-D'ESPOIR","7051050","2022-02-02 16:00","2022","02","02","16:00","-3.3","","-4.8","","89","","","","21","","35","","","","102.45","","","","-11","","NA"
"-64.32","48.42","CAP-D'ESPOIR","7051050","2022-02-02 17:00","2022","02","02","17:00","-2.8","","-4.2","","90","","","","22","","32","","","","102.46","","","","-10","","NA"
"-64.32","48.42","CAP-D'ESPOIR","7051050","2022-02-02 18:00","2022","02","02","18:00","-2.5","","-3.9","","90","","","","22","","29","","","","102.41","","","","-10","","NA"
"-64.32","48.42","CAP-D'ESPOIR","7051050","2022-02-02 19:00","2022","02","02","19:00","-2.7","","-4.0","","90","","","","24","","19","","","","102.39","","","","-8","","NA"
"-64.32","48.42","CAP-D'ESPOIR","7051050","2022-02-02 20:00","2022","02","02","20:00","-2.6","","-3.8","","91","","","","25","","17","","","","102.38","","","","-8","","NA"
"-64.32","48.42","CAP-D'ESPOIR","7051050","2022-02-02 21:00","2022","02","02","21:00","-2.2","","-3.3","","92","","","","24","","16","","","","102.30","","","","-7","","NA"
"-64.32","48.42","CAP-D'ESPOIR","7051050","2022-02-02 22:00","2022","02","02","22:00","-1.7","","-2.7","","93","","","","24","","22","","","","102.26","","","","-8","","NA"
"-64.32","48.42","CAP-D'ESPOIR","7051050","2022-02-02 23:00","2022","02","02","23:00","-1.7","","-2.7","","93","","","","24","","14","","","","102.18","","","","-6","","NA"
"-64.32","48.42","CAP-D'ESPOIR","7051050","2022-02-03 00:00","2022","02","03","00:00","-1.3","","-2.1","","95","","","","23","","15","","","","102.09","","","","-6","","NA"
"-64.32","48.42","CAP-D'ESPOIR","7051050","2022-02-03 01:00","2022","02","03","01:00","-1.1","","-1.9","","94","","","","23","","21","","","","101.97","","","","-7","","NA"
"-64.32","48.42","CAP-D'ESPOIR","7051050","2022-02-03 02:00","2022","02","03","02:00","-1.0","","-1.5","","96","","","","25","","13","","","","101.89","","","","-5","","NA"
"-64.32","48.42","CAP-D'ESPOIR","7051050","2022-02-03 03:00","2022","02","03","03:00","-0.7","","-1.0","","98","","","","20","","35","","","","101.81","","","","-8","","NA"
"-64.32","48.42","CAP-D'ESPOIR","7051050","2022-02-03 04:00","2022","02","03","04:00","-0.6","","-0.8","","99","","","","22","","18","","","","101.76","","","","-6","","NA"
"-64.32","48.42","CAP-D'ESPOIR","7051050","2022-02-03 05:00","2022","02","03","05:00","-0.4","","-0.5","","99","","","","24","","13","","","","101.70","","","","-5","","NA"
"-64.32","48.42","CAP-D'ESPOIR","7051050","2022-02-03 06:00","2022","02","03","06:00","0.0","","-0.2","","99","","","","25","","10","","","","101.67","","","","-3","","NA"
"-64.32","48.42","CAP-D'ESPOIR","7051050","2022-02-03 07:00","2022","02","03","07:00","0.0","","-0.1","","99","","","","25","","13","","","","101.67","","","","-4","","NA"
"-64.32","48.42","CAP-D'ESPOIR","7051050","2022-02-03 08:00","2022","02","03","08:00","0.4","","0.3","","99","","","","26","","14","","","","101.67","","","","","","NA"
"-64.32","48.42","CAP-D'ESPOIR","7051050","2022-02-03 09:00","2022","02","03","09:00","0.4","","0.3","","99","","","","24","","14","","","","101.61","","","","","","NA"
"-64.32","48.42","CAP-D'ESPOIR","7051050","2022-02-03 10:00","2022","02","03","10:00","0.8","","0.7","","99","","","","25","","10","","","","101.61","","","","","","NA"
"-64.32","48.42","CAP-D'ESPOIR","7051050","2022-02-03 11:00","2022","02","03","11:00","0.9","","0.7","","99","","","","24","","14","","","","101.60","","","","","","NA"
"-64.32","48.42","CAP-D'ESPOIR","7051050","2022-02-03 12:00","2022","02","03","12:00","0.7","","0.5","","99","","","","24","","13","","","","101.60","","","","","","NA"
"-64.32","48.42","CAP-D'ESPOIR","7051050","2022-02-03 13:00","2022","02","03","13:00","-0.1","","-0.3","","99","","","","21","","5","","","","101.60","","","","-2","","NA"
"-64.32","48.42","CAP-D'ESPOIR","7051050","2022-02-03 14:00","2022","02","03","14:00","-1.3","","-1.5","","99","","","","2","","12","","","","101.76","","","","-5","","NA"
"-64.32","48.42","CAP-D'ESPOIR","7051050","2022-02-03 15:00","2022","02","03","15:00","-0.8","","-1.0","","99","","","","10","","4","","","","101.80","","","","-2","","NA"
"-64.32","48.42","CAP-D'ESPOIR","7051050","2022-02-03 16:00","2022","02","03","16:00","-1.1","","-1.4","","98","","","","6","","5","","","","101.96","","","","-3","","NA"
"-64.32","48.42","CAP-D'ESPOIR","7051050","2022-02-03 17:00","2022","02","03","17:00","-1.0","","-1.6","","96","","","","24","","7","","","","102.09","","","","-4","","NA"
"-64.32","48.42","CAP-D'ESPOIR","7051050","2022-02-03 18:00","2022","02","03","18:00","-3.3","","-7.2","","75","","","","35","","17","","","","102.29","","","","-9","","NA"
"-64.32","48.42","CAP-D'ESPOIR","7051050","2022-02-03 19:00","2022","02","03","19:00","-5.1","","-10.4","","67","","","","33","","19","","","","102.48","","","","-12","","NA"
"-64.32","48.42","CAP-D'ESPOIR","7051050","2022-02-03 20:00","2022","02","03","20:00","-6.5","","-11.1","","70","","","","34","","18","","","","102.56","","","","-13","","NA"
"-64.32","48.42","CAP-D'ESPOIR","7051050","2022-02-03 21:00","2022","02","03","21:00","-7.3","","-12.4","","67","","","","35","","20","","","","102.62","","","","-14","","NA"
"-64.32","48.42","CAP-D'ESPOIR","7051050","2022-02-03 22:00","2022","02","03","22:00","-8.2","","-14.1","","62","","","","35","","15","","","","102.71","","","","-15","","NA"
"-64.32","48.42","CAP-D'ESPOIR","7051050","2022-02-03 23:00","2022","02","03","23:00","-8.7","","-16.2","","55","","","","35","","21","","","","102.75","","","","-16","","NA"
"-64.32","48.42","CAP-D'ESPOIR","7051050","2022-02-04 00:00","2022","02","04","00:00","-9.7","","-13.4","","74","","","","35","","20","","","","102.84","","","","-17","","NA"
"-64.32","48.42","CAP-D'ESPOIR","7051050","2022-02-04 01:00","2022","02","04","01:00","-9.9","","-12.6","","80","","","","35","","16","","","","102.80","","","","-17","","NA"
"-64.32","48.42","CAP-D'ESPOIR","7051050","2022-02-04 02:00","2022","02","04","02:00","-10.0","","-12.2","","84","","","","36","","22","","","","102.80","","","","-18","","NA"
"-64.32","48.42","CAP-D'ESPOIR","7051050","2022-02-04 03:00","2022","02","04","03:00","-9.8","","-12.3","","82","","","","1","","26","","","","102.80","","","","-19","","NA"
"-64.32","48.42","CAP-D'ESPOIR","7051050","2022-02-04 04:00","2022","02","04","04:00","-10.0","","-11.6","","88","","","","3","","35","","","","102.80","","","","-20","","NA"
"-64.32","48.42","CAP-D'ESPOIR","7051050","2022-02-04 05:00","2022","02","04","05:00","-10.4","","-12.4","","85","","","","2","","24","","","","102.79","","","","-19","","NA"
"-64.32","48.42","CAP-D'ESPOIR","7051050","2022-02-04 06:00","2022","02","04","06:00","-10.7","","-12.8","","85","","","","3","","35","","","","102.76","","","","-21","","NA"
"-64.32","48.42","CAP-D'ESPOIR","7051050","2022-02-04 07:00","2022","02","04","07:00","-10.5","","-12.9","","83","","","","2","","31","","","","102.75","","","","-20","","NA"
"-64.32","48.42","CAP-D'ESPOIR","7051050","2022-02-04 08:00","2022","02","04","08:00","-11.4","","-13.0","","88","","","","35","","19","","","","102.80","","","","-19","","NA"
"-64.32","48.42","CAP-D'ESPOIR","7051050","2022-02-04 09:00","2022","02","04","09:00","-10.2","","-12.3","","84","","","","4","","42","","","","102.72","","","","-21","","NA"
"-64.32","48.42","CAP-D'ESPOIR","7051050","2022-02-04 10:00","2022","02","04","10:00","-10.5","","-13.4","","79","","","","3","","37","","","","102.67","","","","-21","","NA"
"-64.32","48.42","CAP-D'ESPOIR","7051050","2022-02-04 11:00","2022","02","04","11:00","-10.6","","-13.0","","82","","","","4","","42","","","","102.61","","","","-22","","NA"
"-64.32","48.42","CAP-D'ESPOIR","7051050","2022-02-04 12:00","2022","02","04","12:00","-10.4","","-12.8","","83","","","","4","","44","","","","102.51","","","","-22","","NA"
"-64.32","48.42","CAP-D'ESPOIR","7051050","2022-02-04 13:00","2022","02","04","13:00","-10.4","","-12.5","","85","","","","4","","43","","","","102.41","","","","-22","","NA"
"-64.32","48.42","CAP-D'ESPOIR","7051050","2022-02-04 14:00","2022","02","04","14:00","-11.0","","-12.8","","87","","","","3","","42","","","","102.34","","","","-22","","NA"
"-64.32","48.42","CAP-D'ESPOIR","7051050","2022-02-04 15:00","2022","02","04","15:00","-11.2","","-13.2","","85","","","","2","","38","","","","102.24","","","","-22","","NA"
"-64.32","48.42","CAP-D'ESPOIR","7051050","2022-02-04 16:00","2022","02","04","16:00","-11.4","","-14.1","","80","","","","3","","41","","","","102.21","","","","-23","","NA"
"-64.32","48.42","CAP-D'ESPOIR","7051050","2022-02-04 17:00","2022","02","04","17:00","-11.6","","-14.8","","78","","","","2","","33","","","","102.21","","","","-22","","NA"
"-64.32","48.42","CAP-D'ESPOIR","7051050","2022-02-04 18:00","2022","02","04","18:00","-12.0","","-15.2","","77","","","","2","","39","","","","102.02","","","","-23","","NA"
"-64.32","48.42","CAP-D'ESPOIR","7051050","2022-02-04 19:00","2022","02","04","19:00","-11.5","","-14.3","","80","","","","1","","33","","","","102.04","","","","-22","","NA"
"-64.32","48.42","CAP-D'ESPOIR","7051050","2022-02-04 20:00","2022","02","04","20:00","-11.6","","-15.2","","75","","","","2","","45","","","","101.96","","","","-23","","NA"
"-64.32","48.42","CAP-D'ESPOIR","7051050","2022-02-04 21:00","2022","02","04","21:00","-11.9","","-14.2","","83","","","","1","","33","","","","101.92","","","","-22","","NA"
"-64.32","48.42","CAP-D'ESPOIR","7051050","2022-02-04 22:00","2022","02","04","22:00","-11.4","","-14.0","","81","","","","2","","39","","","","101.70","","","","-23","","NA"
"-64.32","48.42","CAP-D'ESPOIR","7051050","2022-02-04 23:00","2022","02","04","23:00","-11.3","","-13.8","","82","","","","2","","42","","","","101.68","","","","-23","","NA"
"-64.32","48.42","CAP-D'ESPOIR","7051050","2022-02-05 00:00","2022","02","05","00:00","-11.4","","-13.7","","83","","","","2","","40","","","","101.53","","","","-23","","NA"
"-64.32","48.42","CAP-D'ESPOIR","7051050","2022-02-05 01:00","2022","02","05","01:00","-11.8","","-14.1","","83","","","","1","","29","","","","101.47","","","","-22","","NA"
"-64.32","48.42","CAP-D'ESPOIR","7051050","2022-02-05 02:00","2022","02","05","02:00","-11.8","","-14.2","","83","","","","36","","26","","","","101.46","","","","-21","","NA"
"-64.32","48.42","CAP-D'ESPOIR","7051050","2022-02-05 03:00","2022","02","05","03:00","-11.1","","-12.9","","86","","","","2","","30","","","","101.27","","","","-21","","NA"
"-64.32","48.42","CAP-D'ESPOIR","7051050","2022-02-05 04:00","2022","02","05","04:00","-11.3","","-13.7","","83","","","","2","","33","","","","101.14","","","","-22","","NA"
"-64.32","48.42","CAP-D'ESPOIR","7051050","2022-02-05 05:00","2022","02","05","05:00","-11.8","","-14.7","","79","","","","1","","27","","","","101.11","","","","-21","","NA"
"-64.32","48.42","CAP-D'ESPOIR","7051050","2022-02-05 06:00","2022","02","05","06:00","-11.7","","-14.4","","80","","","","1","","25","","","","101.16","","","","-21","","NA"
"-64.32","48.42","CAP-D'ESPOIR","7051050","2022-02-05 07:00","2022","02","05","07:00","-12.5","","-15.1","","81","","","","36","","21","","","","101.13","","","","-21","","NA"
"-64.32","48.42","CAP-D'ESPOIR","7051050","2022-02-05 08:00","2022","02","05","08:00","-12.5","","-14.9","","82","","","","36","","24","","","","101.09","","","","-22","","NA"
"-64.32","48.42","CAP-D'ESPOIR","7051050","2022-02-05 09:00","2022","02","05","09:00","-12.4","","-15.6","","77","","","","36","","24","","","","101.04","","","","-22","","NA"
"-64.32","48.42","CAP-D'ESPOIR","7051050","2022-02-05 10:00","2022","02","05","10:00","-12.0","","-16.0","","73","","","","35","","27","","","","101.04","","","","-22","","NA"
"-64.32","48.42","CAP-D'ESPOIR","7051050","2022-02-05 11:00","2022","02","05","11:00","-11.4","","-15.8","","70","","","","35","","24","","","","100.97","","","","-20","","NA"
"-64.32","48.42","CAP-D'ESPOIR","7051050","2022-02-05 12:00","2022","02","05","12:00","-11.2","","-15.3","","72","","","","34","","17","","","","100.96","","","","-19","","NA"
"-64.32","48.42","CAP-D'ESPOIR","7051050","2022-02-05 13:00","2022","02","05","13:00","-11.4","","-15.7","","70","","","","33","","25","","","","100.91","","","","-21","","NA"
"-64.32","48.42","CAP-D'ESPOIR","7051050","2022-02-05 14:00","2022","02","05","14:00","-11.3","","-16.2","","67","","","","34","","29","","","","100.91","","","","-21","","NA"
"-64.32","48.42","CAP-D'ESPOIR","7051050","2022-02-05 15:00","2022","02","05","15:00","-11.6","","-16.1","","69","","","","34","","22","","","","101.04","","","","-20","","NA"
"-64.32","48.42","CAP-D'ESPOIR","7051050","2022-02-05 16:00","2022","02","05","16:00","-11.7","","-16.1","","70","","","","33","","11","","","","101.13","","","","-18","","NA"
"-64.32","48.42","CAP-D'ESPOIR","7051050","2022-02-05 17:00","2022","02","05","17:00","-12.2","","-17.1","","66","","","","34","","15","","","","101.26","","","","-19","","NA"
"-64.32","48.42","CAP-D'ESPOIR","7051050","2022-02-05 18:00","2022","02","05","18:00","-13.5","","-18.4","","67","","","","30","","15","","","","101.43","","","","-21","","NA"
"-64.32","48.42","CAP-D'ESPOIR","7051050","2022-02-05 19:00","2022","02","05","19:00","-14.1","","-20.1","","60","","","","31","","15","","","","101.52","","","","-22","","NA"
"-64.32","48.42","CAP-D'ESPOIR","7051050","2022-02-05 20:00","2022","02","05","20:00","-14.7","","-19.7","","66","","","","29","","18","","","","101.55","","","","-23","","NA"
"-64.32","48.42","CAP-D'ESPOIR","7051050","2022-02-05 21:00","2022","02","05","21:00","-15.2","","-19.9","","68","","","","28","","16","","","","101.63","","","","-23","","NA"
"-64.32","48.42","CAP-D'ESPOIR","7051050","2022-02-05 22:00","2022","02","05","22:00","-15.4","","-19.5","","71","","","","26","","18","","","","101.73","","","","-24","","NA"
"-64.32","48.42","CAP-D'ESPOIR","7051050","2022-02-05 23:00","2022","02","05","23:00","-16.8","","-20.7","","72","","","","26","","9","","","","101.82","","","","-23","","NA"
"-64.32","48.42","CAP-D'ESPOIR","7051050","2022-02-06 00:00","2022","02","06","00:00","-15.7","","-19.8","","71","","","","27","","10","","","","101.94","","","","-22","","NA"
"-64.32","48.42","CAP-D'ESPOIR","7051050","2022-02-06 01:00","2022","02","06","01:00","-15.0","","-19.4","","69","","","","29","","17","","","","102.09","","","","-23","","NA"
"-64.32","48.42","CAP-D'ESPOIR","7051050","2022-02-06 02:00","2022","02","06","02:00","-15.6","","-19.8","","70","","","","26","","15","","","","102.28","","","","-24","","NA"
"-64.32","48.42","CAP-D'ESPOIR","7051050","2022-02-06 03:00","2022","02","06","03:00","-15.5","","-20.5","","65","","","","26","","15","","","","102.43","","","","-24","","NA"
"-64.32","48.42","CAP-D'ESPOIR","7051050","2022-02-06 04:00","2022","02","06","04:00","-16.8","","-20.9","","70","","","","26","","12","","","","102.56","","","","-24","","NA"
"-64.32","48.42","CAP-D'ESPOIR","7051050","2022-02-06 05:00","2022","02","06","05:00","-16.6","","-20.8","","70","","","","24","","7","","","","102.65","","","","-22","","NA"
"-64.32","48.42","CAP-D'ESPOIR","7051050","2022-02-06 06:00","2022","02","06","06:00","-16.7","","-21.6","","66","","","","26","","6","","","","102.80","","","","-21","","NA"
"-64.32","48.42","CAP-D'ESPOIR","7051050","2022-02-06 07:00","2022","02","06","07:00","-17.3","","-22.7","","63","","","","28","","4","","","","102.90","","","","-20","","NA"
"-64.32","48.42","CAP-D'ESPOIR","7051050","2022-02-06 08:00","2022","02","06","08:00","-16.1","","-22.7","","57","","","","32","","21","","","","102.99","","","","-26","","NA"
"-64.32","48.42","CAP-D'ESPOIR","7051050","2022-02-06 09:00","2022","02","06","09:00","-15.2","","-23.1","","51","","","","32","","15","","","","103.13","","","","-23","","NA"
"-64.32","48.42","CAP-D'ESPOIR","7051050","2022-02-06 10:00","2022","02","06","10:00","-14.3","","-23.7","","45","","","","32","","11","","","","103.22","","","","-21","","NA"
"-64.32","48.42","CAP-D'ESPOIR","7051050","2022-02-06 11:00","2022","02","06","11:00","-13.0","","-23.3","","42","","","","30","","11","","","","103.25","","","","-19","","NA"
"-64.32","48.42","CAP-D'ESPOIR","7051050","2022-02-06 12:00","2022","02","06","12:00","-12.4","","-22.3","","43","","","","31","","11","","","","103.22","","","","-18","","NA"
"-64.32","48.42","CAP-D'ESPOIR","7051050","2022-02-06 13:00","2022","02","06","13:00","-11.3","","-20.9","","45","","","","19","","11","","","","103.25","","","","-17","","NA"
"-64.32","48.42","CAP-D'ESPOIR","7051050","2022-02-06 14:00","2022","02","06","14:00","-11.5","","-19.0","","53","","","","20","","15","","","","103.27","","","","-19","","NA"
"-64.32","48.42","CAP-D'ESPOIR","7051050","2022-02-06 15:00","2022","02","06","15:00","-11.8","","-19.4","","53","","","","20","","13","","","","103.28","","","","-18","","NA"
"-64.32","48.42","CAP-D'ESPOIR","7051050","2022-02-06 16:00","2022","02","06","16:00","-11.6","","-16.5","","67","","","","21","","20","","","","103.32","","","","-20","","NA"
"-64.32","48.42","CAP-D'ESPOIR","7051050","2022-02-06 17:00","2022","02","06","17:00","-11.6","","-16.4","","67","","","","20","","34","","","","103.37","","","","-22","","NA"
"-64.32","48.42","CAP-D'ESPOIR","7051050","2022-02-06 18:00","2022","02","06","18:00","-10.9","","-15.6","","68","","","","22","","34","","","","103.37","","","","-21","","NA"
"-64.32","48.42","CAP-D'ESPOIR","7051050","2022-02-06 19:00","2022","02","06","19:00","-11.0","","-17.1","","61","","","","24","","29","","","","103.40","","","","-21","","NA"
"-64.32","48.42","CAP-D'ESPOIR","7051050","2022-02-06 20:00","2022","02","06","20:00","-12.1","","-17.1","","66","","","","25","","14","","","","103.37","","","","-19","","NA"
"-64.32","48.42","CAP-D'ESPOIR","7051050","2022-02-06 21:00","2022","02","06","21:00","-10.2","","-17.3","","56","","","","21","","31","","","","103.30","","","","-20","","NA"
"-64.32","48.42","CAP-D'ESPOIR","7051050","2022-02-06 22:00","2022","02","06","22:00","-9.7","","-16.1","","59","","","","21","","32","","","","103.27","","","","-19","","NA"
"-64.32","48.42","CAP-D'ESPOIR","7051050","2022-02-06 23:00","2022","02","06","23:00","-9.3","","-13.9","","70","","","","21","","38","","","","103.21","","","","-20","","NA"
"-64.32","48.42","CAP-D'ESPOIR","7051050","2022-02-07 00:00","2022","02","07","00:00","-9.4","","-13.9","","70","","","","21","","35","","","","103.17","","","","-19","","NA"
"-64.32","48.42","CAP-D'ESPOIR","7051050","2022-02-07 01:00","2022","02","07","01:00","-9.7","","-15.2","","64","","","","22","","40","","","","103.07","","","","-20","","NA"
"-64.32","48.42","CAP-D'ESPOIR","7051050","2022-02-07 02:00","2022","02","07","02:00","-9.9","","-15.5","","64","","","","22","","34","","","","103.04","","","","-20","","NA"
"-64.32","48.42","CAP-D'ESPOIR","7051050","2022-02-07 03:00","2022","02","07","03:00","-10.1","","-13.7","","75","","","","22","","32","","","","103.00","","","","-20","","NA"
"-64.32","48.42","CAP-D'ESPOIR","7051050","2022-02-07 04:00","2022","02","07","04:00","-9.7","","-11.3","","88","","","","21","","32","","","","102.96","","","","-19","","NA"
"-64.32","48.42","CAP-D'ESPOIR","7051050","2022-02-07 05:00","2022","02","07","05:00","-9.7","","-11.3","","88","","","","22","","35","","","","102.94","","","","-20","","NA"
"-64.32","48.42","CAP-D'ESPOIR","7051050","2022-02-07 06:00","2022","02","07","06:00","-9.8","","-11.2","","89","","","","23","","25","","","","102.93","","","","-19","","NA"
"-64.32","48.42","CAP-D'ESPOIR","7051050","2022-02-07 07:00","2022","02","07","07:00","-9.8","","-11.4","","88","","","","23","","24","","","","102.93","","","","-18","","NA"
"-64.32","48.42","CAP-D'ESPOIR","7051050","2022-02-07 08:00","2022","02","07","08:00","-9.4","","-11.6","","84","","","","22","","22","","","","102.90","","","","-17","","NA"
"-64.32","48.42","CAP-D'ESPOIR","7051050","2022-02-07 09:00","2022","02","07","09:00","-9.6","","-11.7","","84","","","","24","","14","","","","102.86","","","","-16","","NA"
"-64.32","48.42","CAP-D'ESPOIR","7051050","2022-02-07 10:00","2022","02","07","10:00","-9.4","","-11.4","","85","","","","25","","10","","","","102.84","","","","-15","","NA"
"-64.32","48.42","CAP-D'ESPOIR","7051050","2022-02-07 11:00","2022","02","07","11:00","-9.2","","-11.1","","86","","","","26","","8","","","","102.80","","","","-14","","NA"
"-64.32","48.42","CAP-D'ESPOIR","7051050","2022-02-07 12:00","2022","02","07","12:00","-8.8","","-10.8","","86","","","","24","","10","","","","102.76","","","","-14","","NA"
"-64.32","48.42","CAP-D'ESPOIR","7051050","2022-02-07 13:00","2022","02","07","13:00","-8.2","","-10.3","","85","","","","25","","10","","","","102.70","","","","-13","","NA"
"-64.32","48.42","CAP-D'ESPOIR","7051050","2022-02-07 14:00","2022","02","07","14:00","-8.1","","-10.0","","86","","","","25","","9","","","","102.68","","","","-13","","NA"
"-64.32","48.42","CAP-D'ESPOIR","7051050","2022-02-07 15:00","2022","02","07","15:00","-7.6","","-9.7","","85","","","","25","","5","","","","102.69","","","","-10","","NA"
"-64.32","48.42","CAP-D'ESPOIR","7051050","2022-02-07 16:00","2022","02","07","16:00","-7.6","","-9.4","","87","","","","25","","5","","","","102.69","","","","-10","","NA"
"-64.32","48.42","CAP-D'ESPOIR","7051050","2022-02-07 17:00","2022","02","07","17:00","-6.7","","-8.4","","87","","","","18","","3","","","","102.74","","","","-8","","NA"
"-64.32","48.42","CAP-D'ESPOIR","7051050","2022-02-07 18:00","2022","02","07","18:00","-6.5","","-8.0","","89","","","","2","","3","","","","102.73","","","","-8","","NA"
"-64.32","48.42","CAP-D'ESPOIR","7051050","2022-02-07 19:00","2022","02","07","19:00","-5.9","","-7.3","","90","","","","2","","11","","","","102.70","","","","-11","","NA"
"-64.32","48.42","CAP-D'ESPOIR","7051050","2022-02-07 20:00","2022","02","07","20:00","-5.9","","-7.5","","88","","","","3","","8","","","","102.72","","","","-10","","NA"
"-64.32","48.42","CAP-D'ESPOIR","7051050","2022-02-07 21:00","2022","02","07","21:00","-6.2","","-7.3","","92","","","","5","","27","","","","102.68","","","","-14","","NA"
"-64.32","48.42","CAP-D'ESPOIR","7051050","2022-02-07 22:00","2022","02","07","22:00","-6.2","","-7.4","","91","","","","5","","27","","","","102.67","","","","-14","","NA"
"-64.32","48.42","CAP-D'ESPOIR","7051050","2022-02-07 23:00","2022","02","07","23:00","-6.0","","-7.3","","90","","","","4","","26","","","","102.66","","","","-14","","NA"
"-64.32","48.42","CAP-D'ESPOIR","7051050","2022-02-08 00:00","2022","02","08","00:00","-5.9","","-7.1","","91","","","","5","","26","","","","102.62","","","","-14","","NA"
"-64.32","48.42","CAP-D'ESPOIR","7051050","2022-02-08 01:00","2022","02","08","01:00","-5.9","","-7.1","","91","","","","4","","30","","","","102.54","","","","-14","","NA"
"-64.32","48.42","CAP-D'ESPOIR","7051050","2022-02-08 02:00","2022","02","08","02:00","-6.1","","-7.2","","92","","","","2","","15","","","","102.49","","","","-12","","NA"
"-64.32","48.42","CAP-D'ESPOIR","7051050","2022-02-08 03:00","2022","02","08","03:00","-6.2","","-7.5","","90","","","","1","","17","","","","102.41","","","","-12","","NA"
"-64.32","48.42","CAP-D'ESPOIR","7051050","2022-02-08 04:00","2022","02","08","04:00","-5.7","","-7.5","","87","","","","2","","20","","","","102.48","","","","-12","","NA"
"-64.32","48.42","CAP-D'ESPOIR","7051050","2022-02-08 05:00","2022","02","08","05:00","-5.7","","-6.8","","92","","","","1","","17","","","","102.43","","","","-12","","NA"
"-64.32","48.42","CAP-D'ESPOIR","7051050","2022-02-08 06:00","2022","02","08","06:00","-5.4","","-6.5","","92","","","","1","","17","","","","102.36","","","","-11","","NA"
"-64.32","48.42","CAP-D'ESPOIR","7051050","2022-02-08 07:00","2022","02","08","07:00","-4.7","","-6.0","","91","","","","2","","16","","","","102.34","","","","-10","","NA"
"-64.32","48.42","CAP-D'ESPOIR","7051050","2022-02-08 08:00","2022","02","08","08:00","-4.1","","-5.2","","92","","","","3","","18","","","","102.31","","","","-10","","NA"
"-64.32","48.42","CAP-D'ESPOIR","7051050","2022-02-08 09:00","2022","02","08","09:00","-3.6","","-4.3","","95","","","","3","","24","","","","102.26","","","","-10","","NA"
"-64.32","48.42","CAP-D'ESPOIR","7051050","2022-02-08 10:00","2022","02","08","10:00","-3.0","","-3.7","","95","","","","3","","21","","","","102.14","","","","-9","","NA"
"-64.32","48.42","CAP-D'ESPOIR","7051050","2022-02-08 11:00","2022","02","08","11:00","-2.8","","-3.3","","96","","","","4","","26","","","","102.02","","","","-10","","NA"
"-64.32","48.42","CAP-D'ESPOIR","7051050","2022-02-08 12:00","2022","02","08","12:00","-2.2","","-3.0","","95","","","","4","","28","","","","101.88","","","","-9","","NA"
"-64.32","48.42","CAP-D'ESPOIR","7051050","2022-02-08 13:00","2022","02","08","13:00","-1.7","","-2.4","","95","","","","3","","33","","","","101.63","","","","-9","","NA"
"-64.32","48.42","CAP-D'ESPOIR","7051050","2022-02-08 14:00","2022","02","08","14:00","-1.7","","-2.0","","97","","","","4","","41","","","","101.49","","","","-10","","NA"
"-64.32","48.42","CAP-D'ESPOIR","7051050","2022-02-08 15:00","2022","02","08","15:00","-1.7","","-2.0","","98","","","","4","","42","","","","101.36","","","","-10","","NA"
"-64.32","48.42","CAP-D'ESPOIR","7051050","2022-02-08 16:00","2022","02","08","16:00","-1.5","","-1.7","","98","","","","4","","44","","","","101.21","","","","-10","","NA"
"-64.32","48.42","CAP-D'ESPOIR","7051050","2022-02-08 17:00","2022","02","08","17:00","-1.2","","-1.4","","99","","","","3","","45","","","","101.06","","","","-9","","NA"
"-64.32","48.42","CAP-D'ESPOIR","7051050","2022-02-08 18:00","2022","02","08","18:00","-0.9","","-1.1","","99","","","","3","","42","","","","100.91","","","","-9","","NA"
"-64.32","48.42","CAP-D'ESPOIR","7051050","2022-02-08 19:00","2022","02","08","19:00","-0.9","","-1.0","","99","","","","4","","40","","","","100.77","","","","-9","","NA"
"-64.32","48.42","CAP-D'ESPOIR","7051050","2022-02-08 20:00","2022","02","08","20:00","-1.0","","-1.2","","99","","","","4","","36","","","","100.67","","","","-8","","NA"
"-64.32","48.42","CAP-D'ESPOIR","7051050","2022-02-08 21:00","2022","02","08","21:00","-0.8","","-0.9","","99","","","","3","","44","","","","100.49","","","","-9","","NA"
"-64.32","48.42","CAP-D'ESPOIR","7051050","2022-02-08 22:00","2022","02","08","22:00","-0.6","","-0.8","","99","","","","3","","48","","","","100.34","","","","-9","","NA"
"-64.32","48.42","CAP-D'ESPOIR","7051050","2022-02-08 23:00","2022","02","08","23:00","-0.7","","-0.8","","99","","","","3","","54","","","","100.20","","","","-9","","NA"
"-64.32","48.42","CAP-D'ESPOIR","7051050","2022-02-09 00:00","2022","02","09","00:00","-0.4","","-0.5","","99","","","","3","","54","","","","100.02","","","","-9","","NA"
"-64.32","48.42","CAP-D'ESPOIR","7051050","2022-02-09 01:00","2022","02","09","01:00","-0.9","","-1.1","","99","","","","2","","45","","","","99.89","","","","-9","","NA"
"-64.32","48.42","CAP-D'ESPOIR","7051050","2022-02-09 02:00","2022","02","09","02:00","-1.2","","-1.5","","98","","","","1","","42","","","","99.82","","","","-9","","NA"
"-64.32","48.42","CAP-D'ESPOIR","7051050","2022-02-09 03:00","2022","02","09","03:00","-1.7","","-2.0","","98","","","","1","","37","","","","99.80","","","","-9","","NA"
"-64.32","48.42","CAP-D'ESPOIR","7051050","2022-02-09 04:00","2022","02","09","04:00","-2.0","","-2.4","","97","","","","36","","38","","","","99.81","","","","-10","","NA"
"-64.32","48.42","CAP-D'ESPOIR","7051050","2022-02-09 05:00","2022","02","09","05:00","-1.9","","-2.4","","96","","","","35","","31","","","","99.86","","","","-9","","NA"
"-64.32","48.42","CAP-D'ESPOIR","7051050","2022-02-09 06:00","2022","02","09","06:00","-1.9","","-2.6","","95","","","","35","","32","","","","99.89","","","","-9","","NA"
"-64.32","48.42","CAP-D'ESPOIR","7051050","2022-02-09 07:00","2022","02","09","07:00","-1.6","","-2.5","","94","","","","34","","28","","","","100.03","","","","-8","","NA"
"-64.32","48.42","CAP-D'ESPOIR","7051050","2022-02-09 08:00","2022","02","09","08:00","-1.2","","-2.3","","92","","","","35","","24","","","","100.15","","","","-7","","NA"
"-64.32","48.42","CAP-D'ESPOIR","7051050","2022-02-09 09:00","2022","02","09","09:00","-0.1","","-2.0","","87","","","","35","","15","","","","100.21","","","","-5","","NA"
"-64.32","48.42","CAP-D'ESPOIR","7051050","2022-02-09 10:00","2022","02","09","10:00","0.8","","-2.5","","79","","","","35","","22","","","","100.31","","","","","","NA"
"-64.32","48.42","CAP-D'ESPOIR","7051050","2022-02-09 11:00","2022","02","09","11:00","0.9","","-3.2","","74","","","","35","","21","","","","100.36","","","","","","NA"
"-64.32","48.42","CAP-D'ESPOIR","7051050","2022-02-09 12:00","2022","02","09","12:00","1.6","","-3.1","","71","","","","35","","21","","","","100.42","","","","","","NA"
"-64.32","48.42","CAP-D'ESPOIR","7051050","2022-02-09 13:00","2022","02","09","13:00","2.2","","-2.7","","70","","","","34","","7","","","","100.45","","","","","","NA"
"-64.32","48.42","CAP-D'ESPOIR","7051050","2022-02-09 14:00","2022","02","09","14:00","1.0","","-2.8","","76","","","","17","","6","","","","100.60","","","","","","NA"
"-64.32","48.42","CAP-D'ESPOIR","7051050","2022-02-09 15:00","2022","02","09","15:00","0.6","","-2.0","","83","","","","24","","14","","","","100.66","","","","","","NA"
"-64.32","48.42","CAP-D'ESPOIR","7051050","2022-02-09 16:00","2022","02","09","16:00","0.5","","-2.0","","84","","","","26","","12","","","","100.77","","","","","","NA"
"-64.32","48.42","CAP-D'ESPOIR","7051050","2022-02-09 17:00","2022","02","09","17:00","-1.4","","-3.9","","83","","","","33","","2","","","","100.86","","","","-2","","NA"
"-64.32","48.42","CAP-D'ESPOIR","7051050","2022-02-09 18:00","2022","02","09","18:00","0.0","","-0.8","","94","","","","34","","6","","","","100.96","","","","-2","","NA"
"-64.32","48.42","CAP-D'ESPOIR","7051050","2022-02-09 19:00","2022","02","09","19:00","0.3","","-1.4","","88","","","","1","","8","","","","101.01","","","","","","NA"
"-64.32","48.42","CAP-D'ESPOIR","7051050","2022-02-09 20:00","2022","02","09","20:00","-1.4","","-2.4","","93","","","","9","","4","","","","101.03","","","","-3","","NA"
"-64.32","48.42","CAP-D'ESPOIR","7051050","2022-02-09 21:00","2022","02","09","21:00","-2.0","","-2.5","","96","","","","1","","8","","","","101.05","","","","-5","","NA"
"-64.32","48.42","CAP-D'ESPOIR","7051050","2022-02-09 22:00","2022","02","09","22:00","-2.1","","-2.7","","96","","","","1","","10","","","","101.07","","","","-6","","NA"
"-64.32","48.42","CAP-D'ESPOIR","7051050","2022-02-09 23:00","2022","02","09","23:00","-2.2","","-2.8","","96","","","","2","","10","","","","101.02","","","","-6","","NA"
"-64.32","48.42","CAP-D'ESPOIR","7051050","2022-02-10 00:00","2022","02","10","00:00","-2.3","","-2.7","","97","","","","3","","10","","","","101.00","","","","-6","","NA"
"-64.32","48.42","CAP-D'ESPOIR","7051050","2022-02-10 01:00","2022","02","10","01:00","-2.3","","-2.9","","96","","","","20","","14","","","","101.01","","","","-7","","NA"
"-64.32","48.42","CAP-D'ESPOIR","7051050","2022-02-10 02:00","2022","02","10","02:00","-2.1","","-2.7","","96","","","","23","","19","","","","101.00","","","","-8","","NA"
"-64.32","48.42","CAP-D'ESPOIR","7051050","2022-02-10 03:00","2022","02","10","03:00","-2.0","","-2.8","","94","","","","23","","22","","","","100.98","","","","-8","","NA"
"-64.32","48.42","CAP-D'ESPOIR","7051050","2022-02-10 04:00","2022","02","10","04:00","-2.1","","-2.6","","97","","","","21","","23","","","","100.96","","","","-8","","NA"
"-64.32","48.42","CAP-D'ESPOIR","7051050","2022-02-10 05:00","2022","02","10","05:00","-2.3","","-2.7","","97","","","","22","","25","","","","100.92","","","","-9","","NA"
"-64.32","48.42","CAP-D'ESPOIR","7051050","2022-02-10 06:00","2022","02","10","06:00","-2.3","","-2.8","","96","","","","22","","26","","","","100.88","","","","-9","","NA"
"-64.32","48.42","CAP-D'ESPOIR","7051050","2022-02-10 07:00","2022","02","10","07:00","-2.3","","-3.1","","94","","","","23","","29","","","","100.89","","","","-9","","NA"
"-64.32","48.42","CAP-D'ESPOIR","7051050","2022-02-10 08:00","2022","02","10","08:00","-2.2","","-3.8","","89","","","","23","","31","","","","100.87","","","","-9","","NA"
"-64.32","48.42","CAP-D'ESPOIR","7051050","2022-02-10 09:00","2022","02","10","09:00","-2.1","","-3.6","","89","","","","22","","27","","","","100.79","","","","-9","","NA"
"-64.32","48.42","CAP-D'ESPOIR","7051050","2022-02-10 10:00","2022","02","10","10:00","-2.2","","-3.5","","91","","","","24","","21","","","","100.72","","","","-8","","NA"
"-64.32","48.42","CAP-D'ESPOIR","7051050","2022-02-10 11:00","2022","02","10","11:00","-2.1","","-3.3","","92","","","","24","","19","","","","100.63","","","","-8","","NA"
"-64.32","48.42","CAP-D'ESPOIR","7051050","2022-02-10 12:00","2022","02","10","12:00","-2.3","","-3.3","","92","","","","24","","17","","","","100.49","","","","-8","","NA"
"-64.32","48.42","CAP-D'ESPOIR","7051050","2022-02-10 13:00","2022","02","10","13:00","-2.2","","-3.3","","92","","","","23","","20","","","","100.40","","","","-8","","NA"
"-64.32","48.42","CAP-D'ESPOIR","7051050","2022-02-10 14:00","2022","02","10","14:00","-2.1","","-3.1","","93","","","","21","","17","","","","100.35","","","","-7","","NA"
"-64.32","48.42","CAP-D'ESPOIR","7051050","2022-02-10 15:00","2022","02","10","15:00","-2.1","","-3.0","","94","","","","24","","11","","","","100.30","","","","-6","","NA"
"-64.32","48.42","CAP-D'ESPOIR","7051050","2022-02-10 16:00","2022","02","10","16:00","-2.1","","-2.8","","95","","","","24","","10","","","","100.25","","","","-6","","NA"
"-64.32","48.42","CAP-D'ESPOIR","7051050","2022-02-10 17:00","2022","02","10","17:00","-1.1","","-1.5","","97","","","","21","","17","","","","100.18","","","","-6","","NA"
"-64.32","48.42","CAP-D'ESPOIR","7051050","2022-02-10 18:00","2022","02","10","18:00","-0.5","","-1.3","","94","","","","19","","35","","","","100.09","","","","-8","","NA"
"-64.32","48.42","CAP-D'ESPOIR","7051050","2022-02-10 19:00","2022","02","10","19:00","-0.5","","-1.1","","95","","","","19","","35","","","","100.04","","","","-8","","NA"
"-64.32","48.42","CAP-D'ESPOIR","7051050","2022-02-10 20:00","2022","02","10","20:00","-0.5","","-0.9","","97","","","","19","","35","","","","99.99","","","","-8","","NA"
"-64.32","48.42","CAP-D'ESPOIR","7051050","2022-02-10 21:00","2022","02","10","21:00","-0.5","","-0.9","","97","","","","22","","26","","","","99.98","","","","-7","","NA"
"-64.32","48.42","CAP-D'ESPOIR","7051050","2022-02-10 22:00","2022","02","10","22:00","-0.4","","-0.8","","97","","","","24","","14","","","","99.93","","","","-5","","NA"
"-64.32","48.42","CAP-D'ESPOIR","7051050","2022-02-10 23:00","2022","02","10","23:00","-0.2","","-0.6","","97","","","","25","","15","","","","99.92","","","","-5","","NA"
"-64.32","48.42","CAP-D'ESPOIR","7051050","2022-02-11 00:00","2022","02","11","00:00","-0.3","","-0.6","","98","","","","25","","14","","","","99.90","","","","-5","","NA"
"-64.32","48.42","CAP-D'ESPOIR","7051050","2022-02-11 01:00","2022","02","11","01:00","-0.6","","-0.9","","98","","","","24","","13","","","","99.89","","","","-5","","NA"
"-64.32","48.42","CAP-D'ESPOIR","7051050","2022-02-11 02:00","2022","02","11","02:00","-0.1","","-0.5","","97","","","","25","","18","","","","99.94","","","","-5","","NA"
"-64.32","48.42","CAP-D'ESPOIR","7051050","2022-02-11 03:00","2022","02","11","03:00","-0.7","","-1.2","","96","","","","25","","18","","","","99.98","","","","-6","","NA"
"-64.32","48.42","CAP-D'ESPOIR","7051050","2022-02-11 04:00","2022","02","11","04:00","-0.7","","-1.5","","94","","","","24","","17","","","","100.05","","","","-6","","NA"
"-64.32","48.42","CAP-D'ESPOIR","7051050","2022-02-11 05:00","2022","02","11","05:00","-0.9","","-1.9","","93","","","","25","","16","","","","100.12","","","","-6","","NA"
"-64.32","48.42","CAP-D'ESPOIR","7051050","2022-02-11 06:00","2022","02","11","06:00","-0.7","","-1.8","","92","","","","25","","19","","","","100.23","","","","-6","","NA"
"-64.32","48.42","CAP-D'ESPOIR","7051050","2022-02-11 07:00","2022","02","11","07:00","-1.3","","-2.2","","94","","","","26","","16","","","","100.38","","","","-6","","NA"
"-64.32","48.42","CAP-D'ESPOIR","7051050","2022-02-11 08:00","2022","02","11","08:00","-0.6","","-2.3","","89","","","","26","","19","","","","100.54","","","","-6","","NA"
"-64.32","48.42","CAP-D'ESPOIR","7051050","2022-02-11 09:00","2022","02","11","09:00","0.1","","-6.5","","61","","","","27","","20","","","","100.67","","","","","","NA"
"-64.32","48.42","CAP-D'ESPOIR","7051050","2022-02-11 10:00","2022","02","11","10:00","0.0","","-8.7","","52","","","","27","","16","","","","100.82","","","","-5","","NA"
"-64.32","48.42","CAP-D'ESPOIR","7051050","2022-02-11 11:00","2022","02","11","11:00","0.1","","-8.1","","54","","","","26","","19","","","","100.90","","","","","","NA"
"-64.32","48.42","CAP-D'ESPOIR","7051050","2022-02-11 12:00","2022","02","11","12:00","0.0","","-10.6","","45","","","","25","","18","","","","100.97","","","","-5","","NA"
"-64.32","48.42","CAP-D'ESPOIR","7051050","2022-02-11 13:00","2022","02","11","13:00","0.4","","-12.0","","39","","","","28","","15","","","","101.00","","","","","","NA"
"-64.32","48.42","CAP-D'ESPOIR","7051050","2022-02-11 14:00","2022","02","11","14:00","-1.1","","-4.5","","78","","","","21","","21","","","","101.08","","","","-7","","NA"
"-64.32","48.42","CAP-D'ESPOIR","7051050","2022-02-11 15:00","2022","02","11","15:00","-1.3","","-5.7","","72","","","","24","","14","","","","101.13","","","","-6","","NA"
"-64.32","48.42","CAP-D'ESPOIR","7051050","2022-02-11 16:00","2022","02","11","16:00","-1.7","","-5.4","","76","","","","4","","9","","","","101.25","","","","-5","","NA"
"-64.32","48.42","CAP-D'ESPOIR","7051050","2022-02-11 17:00","2022","02","11","17:00","-3.4","","-6.0","","82","","","","9","","25","","","","101.37","","","","-10","","NA"
"-64.32","48.42","CAP-D'ESPOIR","7051050","2022-02-11 18:00","2022","02","11","18:00","-3.6","","-5.8","","85","","","","9","","21","","","","101.40","","","","-10","","NA"
"-64.32","48.42","CAP-D'ESPOIR","7051050","2022-02-11 19:00","2022","02","11","19:00","-3.8","","-5.9","","85","","","","9","","27","","","","101.36","","","","-11","","NA"
"-64.32","48.42","CAP-D'ESPOIR","7051050","2022-02-11 20:00","2022","02","11","20:00","-3.5","","-5.7","","85","","","","9","","21","","","","101.38","","","","-10","","NA"
"-64.32","48.42","CAP-D'ESPOIR","7051050","2022-02-11 21:00","2022","02","11","21:00","-3.1","","-4.9","","88","","","","8","","17","","","","101.34","","","","-9","","NA"
"-64.32","48.42","CAP-D'ESPOIR","7051050","2022-02-11 22:00","2022","02","11","22:00","-2.3","","-3.5","","92","","","","7","","13","","","","101.24","","","","-7","","NA"
"-64.32","48.42","CAP-D'ESPOIR","7051050","2022-02-11 23:00","2022","02","11","23:00","-2.3","","-3.6","","91","","","","3","","14","","","","101.16","","","","-7","","NA"
"-64.32","48.42","CAP-D'ESPOIR","7051050","2022-02-12 00:00","2022","02","12","00:00","-1.0","","-2.7","","89","","","","14","","13","","","","101.09","","","","-5","","NA"
"-64.32","48.42","CAP-D'ESPOIR","7051050","2022-02-12 01:00","2022","02","12","01:00","-0.9","","-2.0","","92","","","","22","","19","","","","100.97","","","","-6","","NA"
"-64.32","48.42","CAP-D'ESPOIR","7051050","2022-02-12 02:00","2022","02","12","02:00","-0.6","","-1.3","","95","","","","18","","33","","","","100.81","","","","-8","","NA"
"-64.32","48.42","CAP-D'ESPOIR","7051050","2022-02-12 03:00","2022","02","12","03:00","-0.4","","-1.4","","93","","","","17","","35","","","","100.71","","","","-7","","NA"
"-64.32","48.42","CAP-D'ESPOIR","7051050","2022-02-12 04:00","2022","02","12","04:00","-0.4","","-1.7","","91","","","","18","","28","","","","100.66","","","","-7","","NA"
"-64.32","48.42","CAP-D'ESPOIR","7051050","2022-02-12 05:00","2022","02","12","05:00","-0.4","","-1.4","","93","","","","22","","22","","","","100.58","","","","-6","","NA"
"-64.32","48.42","CAP-D'ESPOIR","7051050","2022-02-12 06:00","2022","02","12","06:00","-0.8","","-1.2","","97","","","","23","","15","","","","100.48","","","","-5","","NA"
"-64.32","48.42","CAP-D'ESPOIR","7051050","2022-02-12 07:00","2022","02","12","07:00","-0.4","","-1.0","","96","","","","24","","12","","","","100.44","","","","-4","","NA"
"-64.32","48.42","CAP-D'ESPOIR","7051050","2022-02-12 08:00","2022","02","12","08:00","-0.5","","-0.9","","97","","","","25","","11","","","","100.44","","","","-4","","NA"
"-64.32","48.42","CAP-D'ESPOIR","7051050","2022-02-12 09:00","2022","02","12","09:00","-0.5","","-1.1","","96","","","","23","","13","","","","100.39","","","","-5","","NA"
"-64.32","48.42","CAP-D'ESPOIR","7051050","2022-02-12 10:00","2022","02","12","10:00","-0.1","","-0.9","","94","","","","21","","18","","","","100.33","","","","-5","","NA"
"-64.32","48.42","CAP-D'ESPOIR","7051050","2022-02-12 11:00","2022","02","12","11:00","0.0","","-0.8","","94","","","","24","","17","","","","100.27","","","","-5","","NA"
"-64.32","48.42","CAP-D'ESPOIR","7051050","2022-02-12 12:00","2022","02","12","12:00","0.2","","-0.4","","96","","","","24","","14","","","","100.20","","","","","","NA"
"-64.32","48.42","CAP-D'ESPOIR","7051050","2022-02-12 13:00","2022","02","12","13:00","0.4","","-0.1","","96","","","","25","","14","","","","100.15","","","","","","NA"
"-64.32","48.42","CAP-D'ESPOIR","7051050","2022-02-12 14:00","2022","02","12","14:00","0.4","","0.0","","97","","","","24","","13","","","","100.13","","","","","","NA"
"-64.32","48.42","CAP-D'ESPOIR","7051050","2022-02-12 15:00","2022","02","12","15:00","0.5","","0.2","","98","","","","25","","11","","","","100.09","","","","","","NA"
"-64.32","48.42","CAP-D'ESPOIR","7051050","2022-02-12 16:00","2022","02","12","16:00","0.7","","0.5","","98","","","","26","","11","","","","100.04","","","","","","NA"
"-64.32","48.42","CAP-D'ESPOIR","7051050","2022-02-12 17:00","2022","02","12","17:00","0.7","","0.5","","99","","","","25","","10","","","","100.06","","","","","","NA"
"-64.32","48.42","CAP-D'ESPOIR","7051050","2022-02-12 18:00","2022","02","12","18:00","0.2","","0.0","","99","","","","25","","9","","","","100.06","","","","","","NA"
"-64.32","48.42","CAP-D'ESPOIR","7051050","2022-02-12 19:00","2022","02","12","19:00","0.2","","0.0","","99","","","","25","","14","","","","100.03","","","","","","NA"
"-64.32","48.42","CAP-D'ESPOIR","7051050","2022-02-12 20:00","2022","02","12","20:00","0.0","","-0.4","","97","","","","25","","17","","","","100.06","","","","-5","","NA"
"-64.32","48.42","CAP-D'ESPOIR","7051050","2022-02-12 21:00","2022","02","12","21:00","-0.4","","-1.1","","95","","","","26","","11","","","","100.08","","","","-4","","NA"
"-64.32","48.42","CAP-D'ESPOIR","7051050","2022-02-12 22:00","2022","02","12","22:00","-0.5","","-1.5","","92","","","","25","","16","","","","100.16","","","","-5","","NA"
"-64.32","48.42","CAP-D'ESPOIR","7051050","2022-02-12 23:00","2022","02","12","23:00","0.0","","-1.0","","93","","","","26","","18","","","","100.28","","","","-5","","NA"
"-64.32","48.42","CAP-D'ESPOIR","7051050","2022-02-13 00:00","2022","02","13","00:00","-0.4","","-4.4","","74","","","","27","","21","","","","100.45","","","","-6","","NA"
"-64.32","48.42","CAP-D'ESPOIR","7051050","2022-02-13 01:00","2022","02","13","01:00","-3.0","","-6.6","","76","","","","26","","17","","","","100.64","","","","-9","","NA"
"-64.32","48.42","CAP-D'ESPOIR","7051050","2022-02-13 02:00","2022","02","13","02:00","-4.8","","-9.9","","68","","","","28","","24","","","","100.87","","","","-12","","NA"
"-64.32","48.42","CAP-D'ESPOIR","7051050","2022-02-13 03:00","2022","02","13","03:00","-7.4","","-11.9","","70","","","","27","","18","","","","101.06","","","","-14","","NA"
"-64.32","48.42","CAP-D'ESPOIR","7051050","2022-02-13 04:00","2022","02","13","04:00","-8.8","","-12.7","","73","","","","29","","9","","","","101.28","","","","-13","","NA"
"-64.32","48.42","CAP-D'ESPOIR","7051050","2022-02-13 05:00","2022","02","13","05:00","-10.8","","-16.8","","62","","","","30","","12","","","","101.42","","","","-17","","NA"
"-64.32","48.42","CAP-D'ESPOIR","7051050","2022-02-13 06:00","2022","02","13","06:00","-12.1","","-18.2","","61","","","","30","","16","","","","101.58","","","","-20","","NA"
"-64.32","48.42","CAP-D'ESPOIR","7051050","2022-02-13 07:00","2022","02","13","07:00","-13.7","","-19.9","","59","","","","31","","16","","","","101.77","","","","-22","","NA"
"-64.32","48.42","CAP-D'ESPOIR","7051050","2022-02-13 08:00","2022","02","13","08:00","-13.9","","-20.8","","56","","","","31","","11","","","","101.93","","","","-20","","NA"
"-64.32","48.42","CAP-D'ESPOIR","7051050","2022-02-13 09:00","2022","02","13","09:00","-13.6","","-21.4","","52","","","","31","","11","","","","101.99","","","","-20","","NA"
"-64.32","48.42","CAP-D'ESPOIR","7051050","2022-02-13 10:00","2022","02","13","10:00","-11.9","","-20.8","","48","","","","30","","7","","","","102.03","","","","-16","","NA"
"-64.32","48.42","CAP-D'ESPOIR","7051050","2022-02-13 11:00","2022","02","13","11:00","-12.2","","-21.8","","45","","","","30","","7","","","","102.08","","","","-17","","NA"
"-64.32","48.42","CAP-D'ESPOIR","7051050","2022-02-13 12:00","2022","02","13","12:00","-10.9","","-19.7","","48","","","","17","","8","","","","102.10","","","","-16","","NA"
"-64.32","48.42","CAP-D'ESPOIR","7051050","2022-02-13 13:00","2022","02","13","13:00","-10.5","","-19.1","","50","","","","15","","8","","","","102.06","","","","-15","","NA"
"-64.32","48.42","CAP-D'ESPOIR","7051050","2022-02-13 14:00","2022","02","13","14:00","-10.5","","-18.0","","54","","","","18","","11","","","","102.06","","","","-16","","NA"
"-64.32","48.42","CAP-D'ESPOIR","7051050","2022-02-13 15:00","2022","02","13","15:00","-10.6","","-17.9","","55","","","","16","","11","","","","102.09","","","","-16","","NA"
"-64.32","48.42","CAP-D'ESPOIR","7051050","2022-02-13 16:00","2022","02","13","16:00","-10.4","","-17.9","","54","","","","16","","11","","","","102.09","","","","-16","","NA"
"-64.32","48.42","CAP-D'ESPOIR","7051050","2022-02-13 17:00","2022","02","13","17:00","-10.5","","-17.2","","58","","","","16","","10","","","","102.10","","","","-16","","NA"
"-64.32","48.42","CAP-D'ESPOIR","7051050","2022-02-13 18:00","2022","02","13","18:00","-13.2","","-20.1","","56","","","","35","","16","","","","102.09","","","","-21","","NA"
"-64.32","48.42","CAP-D'ESPOIR","7051050","2022-02-13 19:00","2022","02","13","19:00","-14.3","","-20.7","","58","","","","35","","18","","","","102.13","","","","-23","","NA"
"-64.32","48.42","CAP-D'ESPOIR","7051050","2022-02-13 20:00","2022","02","13","20:00","-14.8","","-20.9","","60","","","","35","","21","","","","102.10","","","","-24","","NA"
"-64.32","48.42","CAP-D'ESPOIR","7051050","2022-02-13 21:00","2022","02","13","21:00","-15.0","","-19.8","","67","","","","34","","26","","","","102.05","","","","-25","","NA"
"-64.32","48.42","CAP-D'ESPOIR","7051050","2022-02-13 22:00","2022","02","13","22:00","-14.9","","-19.1","","70","","","","35","","24","","","","102.09","","","","-25","","NA"
"-64.32","48.42","CAP-D'ESPOIR","7051050","2022-02-13 23:00","2022","02","13","23:00","-14.6","","-19.1","","68","","","","35","","24","","","","102.06","","","","-24","","NA"
"-64.32","48.42","CAP-D'ESPOIR","7051050","2022-02-14 00:00","2022","02","14","00:00","-14.4","","-18.8","","69","","","","35","","20","","","","101.96","","","","-23","","NA"
"-64.32","48.42","CAP-D'ESPOIR","7051050","2022-02-14 01:00","2022","02","14","01:00","-14.2","","-18.7","","68","","","","34","","22","","","","101.84","","","","-24","","NA"
"-64.32","48.42","CAP-D'ESPOIR","7051050","2022-02-14 02:00","2022","02","14","02:00","-14.2","","-18.7","","69","","","","35","","18","","","","101.76","","","","-23","","NA"
"-64.32","48.42","CAP-D'ESPOIR","7051050","2022-02-14 03:00","2022","02","14","03:00","-14.1","","-18.6","","69","","","","35","","20","","","","101.64","","","","-23","","NA"
"-64.32","48.42","CAP-D'ESPOIR","7051050","2022-02-14 04:00","2022","02","14","04:00","-13.6","","-17.4","","73","","","","35","","16","","","","101.68","","","","-21","","NA"
"-64.32","48.42","CAP-D'ESPOIR","7051050","2022-02-14 05:00","2022","02","14","05:00","-13.6","","-17.0","","75","","","","36","","19","","","","101.62","","","","-22","","NA"
"-64.32","48.42","CAP-D'ESPOIR","7051050","2022-02-14 06:00","2022","02","14","06:00","-12.7","","-16.8","","71","","","","2","","30","","","","101.51","","","","-23","","NA"
"-64.32","48.42","CAP-D'ESPOIR","7051050","2022-02-14 07:00","2022","02","14","07:00","-12.2","","-15.4","","77","","","","3","","29","","","","101.54","","","","-22","","NA"
"-64.32","48.42","CAP-D'ESPOIR","7051050","2022-02-14 08:00","2022","02","14","08:00","-11.9","","-15.5","","75","","","","3","","29","","","","101.47","","","","-22","","NA"
"-64.32","48.42","CAP-D'ESPOIR","7051050","2022-02-14 09:00","2022","02","14","09:00","-12.0","","-15.7","","74","","","","5","","33","","","","101.42","","","","-23","","NA"
"-64.32","48.42","CAP-D'ESPOIR","7051050","2022-02-14 10:00","2022","02","14","10:00","-12.7","","-15.2","","81","","","","3","","31","","","","101.38","","","","-23","","NA"
"-64.32","48.42","CAP-D'ESPOIR","7051050","2022-02-14 11:00","2022","02","14","11:00","-13.2","","-17.6","","69","","","","1","","32","","","","101.29","","","","-24","","NA"
"-64.32","48.42","CAP-D'ESPOIR","7051050","2022-02-14 12:00","2022","02","14","12:00","-13.3","","-17.3","","72","","","","36","","28","","","","101.15","","","","-24","","NA"
"-64.32","48.42","CAP-D'ESPOIR","7051050","2022-02-14 13:00","2022","02","14","13:00","-13.1","","-17.8","","68","","","","1","","26","","","","101.08","","","","-23","","NA"
"-64.32","48.42","CAP-D'ESPOIR","7051050","2022-02-14 14:00","2022","02","14","14:00","-13.0","","-18.2","","65","","","","1","","25","","","","101.02","","","","-23","","NA"
"-64.32","48.42","CAP-D'ESPOIR","7051050","2022-02-14 15:00","2022","02","14","15:00","-13.4","","-19.8","","59","","","","35","","22","","","","101.00","","","","-23","","NA"
"-64.32","48.42","CAP-D'ESPOIR","7051050","2022-02-14 16:00","2022","02","14","16:00","-14.0","","-19.8","","62","","","","35","","20","","","","101.01","","","","-23","","NA"
"-64.32","48.42","CAP-D'ESPOIR","7051050","2022-02-14 17:00","2022","02","14","17:00","-14.3","","-19.5","","65","","","","36","","21","","","","101.01","","","","-24","","NA"
"-64.32","48.42","CAP-D'ESPOIR","7051050","2022-02-14 18:00","2022","02","14","18:00","-14.6","","-19.6","","65","","","","35","","16","","","","101.04","","","","-23","","NA"
"-64.32","48.42","CAP-D'ESPOIR","7051050","2022-02-14 19:00","2022","02","14","19:00","-15.3","","-20.4","","65","","","","34","","9","","","","101.12","","","","-21","","NA"
"-64.32","48.42","CAP-D'ESPOIR","7051050","2022-02-14 20:00","2022","02","14","20:00","-16.7","","-20.7","","71","","","","30","","8","","","","101.15","","","","-22","","NA"
"-64.32","48.42","CAP-D'ESPOIR","7051050","2022-02-14 21:00","2022","02","14","21:00","-16.6","","-21.1","","68","","","","30","","6","","","","101.18","","","","-21","","NA"
"-64.32","48.42","CAP-D'ESPOIR","7051050","2022-02-14 22:00","2022","02","14","22:00","-16.4","","-21.0","","68","","","","28","","5","","","","101.17","","","","-20","","NA"
"-64.32","48.42","CAP-D'ESPOIR","7051050","2022-02-14 23:00","2022","02","14","23:00","-15.7","","-21.1","","63","","","","24","","3","","","","101.17","","","","-18","","NA"
"-64.32","48.42","CAP-D'ESPOIR","7051050","2022-02-15 00:00","2022","02","15","00:00","-15.7","","-20.9","","65","","","","27","","4","","","","101.20","","","","-19","","NA"
"-64.32","48.42","CAP-D'ESPOIR","7051050","2022-02-15 01:00","2022","02","15","01:00","-16.0","","-20.8","","67","","","","27","","8","","","","101.25","","","","-22","","NA"
"-64.32","48.42","CAP-D'ESPOIR","7051050","2022-02-15 02:00","2022","02","15","02:00","-16.7","","-21.1","","69","","","","27","","13","","","","101.31","","","","-24","","NA"
"-64.32","48.42","CAP-D'ESPOIR","7051050","2022-02-15 03:00","2022","02","15","03:00","-17.1","","-21.2","","70","","","","28","","13","","","","101.34","","","","-25","","NA"
"-64.32","48.42","CAP-D'ESPOIR","7051050","2022-02-15 04:00","2022","02","15","04:00","-17.6","","-22.0","","69","","","","27","","13","","","","101.45","","","","-25","","NA"
"-64.32","48.42","CAP-D'ESPOIR","7051050","2022-02-15 05:00","2022","02","15","05:00","-18.4","","-22.6","","70","","","","28","","16","","","","101.56","","","","-27","","NA"
"-64.32","48.42","CAP-D'ESPOIR","7051050","2022-02-15 06:00","2022","02","15","06:00","-18.8","","-22.9","","71","","","","27","","15","","","","101.63","","","","-28","","NA"
"-64.32","48.42","CAP-D'ESPOIR","7051050","2022-02-15 07:00","2022","02","15","07:00","-18.3","","-23.2","","65","","","","26","","12","","","","101.74","","","","-26","","NA"
"-64.32","48.42","CAP-D'ESPOIR","7051050","2022-02-15 08:00","2022","02","15","08:00","-17.5","","-22.9","","63","","","","27","","14","","","","101.80","","","","-26","","NA"
"-64.32","48.42","CAP-D'ESPOIR","7051050","2022-02-15 09:00","2022","02","15","09:00","-15.5","","-21.6","","60","","","","26","","14","","","","101.83","","","","-23","","NA"
"-64.32","48.42","CAP-D'ESPOIR","7051050","2022-02-15 10:00","2022","02","15","10:00","-14.7","","-21.9","","54","","","","25","","12","","","","101.84","","","","-22","","NA"
"-64.32","48.42","CAP-D'ESPOIR","7051050","2022-02-15 11:00","2022","02","15","11:00","-13.7","","-21.0","","54","","","","23","","15","","","","101.86","","","","-21","","NA"
"-64.32","48.42","CAP-D'ESPOIR","7051050","2022-02-15 12:00","2022","02","15","12:00","-11.7","","-20.7","","47","","","","18","","5","","","","101.83","","","","-15","","NA"
"-64.32","48.42","CAP-D'ESPOIR","7051050","2022-02-15 13:00","2022","02","15","13:00","-10.9","","-22.1","","39","","","","23","","10","","","","101.81","","","","-16","","NA"
"-64.32","48.42","CAP-D'ESPOIR","7051050","2022-02-15 14:00","2022","02","15","14:00","-10.7","","-22.4","","38","","","","28","","21","","","","101.84","","","","-19","","NA"
"-64.32","48.42","CAP-D'ESPOIR","7051050","2022-02-15 15:00","2022","02","15","15:00","-11.3","","-21.4","","43","","","","26","","25","","","","101.90","","","","-20","","NA"
"-64.32","48.42","CAP-D'ESPOIR","7051050","2022-02-15 16:00","2022","02","15","16:00","-12.5","","-21.3","","48","","","","27","","20","","","","102.02","","","","-21","","NA"
"-64.32","48.42","CAP-D'ESPOIR","7051050","2022-02-15 17:00","2022","02","15","17:00","-13.7","","-22.7","","47","","","","28","","23","","","","102.19","","","","-23","","NA"
"-64.32","48.42","CAP-D'ESPOIR","7051050","2022-02-15 18:00","2022","02","15","18:00","-14.6","","-22.1","","53","","","","26","","16","","","","102.29","","","","-23","","NA"
"-64.32","48.42","CAP-D'ESPOIR","7051050","2022-02-15 19:00","2022","02","15","19:00","-15.3","","-21.8","","58","","","","27","","13","","","","102.40","","","","-23","","NA"
"-64.32","48.42","CAP-D'ESPOIR","7051050","2022-02-15 20:00","2022","02","15","20:00","-15.8","","-21.9","","59","","","","27","","10","","","","102.49","","","","-22","","NA"
"-64.32","48.42","CAP-D'ESPOIR","7051050","2022-02-15 21:00","2022","02","15","21:00","-15.7","","-21.6","","61","","","","26","","15","","","","102.56","","","","-24","","NA"
"-64.32","48.42","CAP-D'ESPOIR","7051050","2022-02-15 22:00","2022","02","15","22:00","-15.3","","-21.6","","58","","","","25","","13","","","","102.66","","","","-23","","NA"
"-64.32","48.42","CAP-D'ESPOIR","7051050","2022-02-15 23:00","2022","02","15","23:00","-17.1","","-22.7","","62","","","","29","","8","","","","102.73","","","","-23","","NA"
"-64.32","48.42","CAP-D'ESPOIR","7051050","2022-02-16 00:00","2022","02","16","00:00","-16.4","","-22.0","","62","","","","26","","12","","","","102.85","","","","-24","","NA"
"-64.32","48.42","CAP-D'ESPOIR","7051050","2022-02-16 01:00","2022","02","16","01:00","-16.6","","-22.3","","61","","","","26","","18","","","","102.98","","","","-26","","NA"
"-64.32","48.42","CAP-D'ESPOIR","7051050","2022-02-16 02:00","2022","02","16","02:00","-17.2","","-22.6","","63","","","","26","","16","","","","103.09","","","","-26","","NA"
"-64.32","48.42","CAP-D'ESPOIR","7051050","2022-02-16 03:00","2022","02","16","03:00","-18.0","","-22.9","","65","","","","27","","12","","","","103.13","","","","-26","","NA"
"-64.32","48.42","CAP-D'ESPOIR","7051050","2022-02-16 04:00","2022","02","16","04:00","-18.4","","-23.2","","66","","","","26","","14","","","","103.28","","","","-27","","NA"
"-64.32","48.42","CAP-D'ESPOIR","7051050","2022-02-16 05:00","2022","02","16","05:00","-18.3","","-23.3","","65","","","","27","","15","","","","103.39","","","","-27","","NA"
"-64.32","48.42","CAP-D'ESPOIR","7051050","2022-02-16 06:00","2022","02","16","06:00","-18.6","","-23.4","","66","","","","27","","17","","","","103.53","","","","-28","","NA"
"-64.32","48.42","CAP-D'ESPOIR","7051050","2022-02-16 07:00","2022","02","16","07:00","-18.4","","-23.5","","64","","","","27","","17","","","","103.64","","","","-28","","NA"
"-64.32","48.42","CAP-D'ESPOIR","7051050","2022-02-16 08:00","2022","02","16","08:00","-16.9","","-22.8","","60","","","","27","","15","","","","103.69","","","","-25","","NA"
"-64.32","48.42","CAP-D'ESPOIR","7051050","2022-02-16 09:00","2022","02","16","09:00","-16.1","","-22.9","","56","","","","26","","15","","","","103.65","","","","-24","","NA"
"-64.32","48.42","CAP-D'ESPOIR","7051050","2022-02-16 10:00","2022","02","16","10:00","-14.1","","-20.0","","61","","","","26","","10","","","","103.61","","","","-20","","NA"
"-64.32","48.42","CAP-D'ESPOIR","7051050","2022-02-16 11:00","2022","02","16","11:00","-13.0","","-19.7","","57","","","","23","","15","","","","103.54","","","","-20","","NA"
"-64.32","48.42","CAP-D'ESPOIR","7051050","2022-02-16 12:00","2022","02","16","12:00","-12.5","","-18.4","","61","","","","22","","16","","","","103.42","","","","-20","","NA"
"-64.32","48.42","CAP-D'ESPOIR","7051050","2022-02-16 13:00","2022","02","16","13:00","-11.2","","-17.1","","61","","","","22","","22","","","","103.33","","","","-20","","NA"
"-64.32","48.42","CAP-D'ESPOIR","7051050","2022-02-16 14:00","2022","02","16","14:00","-11.2","","-15.0","","73","","","","21","","32","","","","103.22","","","","-21","","NA"
"-64.32","48.42","CAP-D'ESPOIR","7051050","2022-02-16 15:00","2022","02","16","15:00","-10.7","","-15.5","","68","","","","21","","29","","","","103.10","","","","-20","","NA"
"-64.32","48.42","CAP-D'ESPOIR","7051050","2022-02-16 16:00","2022","02","16","16:00","-9.4","","-14.5","","66","","","","21","","39","","","","102.94","","","","-20","","NA"
"-64.32","48.42","CAP-D'ESPOIR","7051050","2022-02-16 17:00","2022","02","16","17:00","-8.9","","-10.4","","89","","","","19","","45","","","","102.81","","","","-20","","NA"
"-64.32","48.42","CAP-D'ESPOIR","7051050","2022-02-16 18:00","2022","02","16","18:00","-8.2","","-9.5","","90","","","","20","","47","","","","102.59","","","","-19","","NA"
"-64.32","48.42","CAP-D'ESPOIR","7051050","2022-02-16 19:00","2022","02","16","19:00","-7.9","","-9.2","","90","","","","18","","47","","","","102.35","","","","-19","","NA"
"-64.32","48.42","CAP-D'ESPOIR","7051050","2022-02-16 20:00","2022","02","16","20:00","-6.6","","-7.8","","91","","","","19","","51","","","","102.06","","","","-17","","NA"
"-64.32","48.42","CAP-D'ESPOIR","7051050","2022-02-16 21:00","2022","02","16","21:00","-5.0","","-7.4","","83","","","","19","","53","","","","101.86","","","","-15","","NA"
"-64.32","48.42","CAP-D'ESPOIR","7051050","2022-02-16 22:00","2022","02","16","22:00","-4.1","","-5.6","","89","","","","20","","37","","","","101.73","","","","-13","","NA"
"-64.32","48.42","CAP-D'ESPOIR","7051050","2022-02-16 23:00","2022","02","16","23:00","-3.5","","-4.2","","95","","","","20","","37","","","","101.50","","","","-12","","NA"
"-64.32","48.42","CAP-D'ESPOIR","7051050","2022-02-17 00:00","2022","02","17","00:00","-3.1","","-3.6","","96","","","","21","","32","","","","101.37","","","","-11","","NA"
"-64.32","48.42","CAP-D'ESPOIR","7051050","2022-02-17 01:00","2022","02","17","01:00","-2.2","","-2.6","","97","","","","21","","29","","","","101.24","","","","-9","","NA"
"-64.32","48.42","CAP-D'ESPOIR","7051050","2022-02-17 02:00","2022","02","17","02:00","-3.6","","-4.0","","96","","","","25","","14","","","","101.10","","","","-9","","NA"
"-64.32","48.42","CAP-D'ESPOIR","7051050","2022-02-17 03:00","2022","02","17","03:00","-3.6","","-4.1","","96","","","","25","","16","","","","100.98","","","","-9","","NA"
"-64.32","48.42","CAP-D'ESPOIR","7051050","2022-02-17 04:00","2022","02","17","04:00","-2.2","","-2.5","","98","","","","25","","19","","","","100.90","","","","-8","","NA"
"-64.32","48.42","CAP-D'ESPOIR","7051050","2022-02-17 05:00","2022","02","17","05:00","-1.2","","-1.5","","98","","","","24","","26","","","","100.85","","","","-8","","NA"
"-64.32","48.42","CAP-D'ESPOIR","7051050","2022-02-17 06:00","2022","02","17","06:00","-0.7","","-0.9","","99","","","","23","","27","","","","100.81","","","","-7","","NA"
"-64.32","48.42","CAP-D'ESPOIR","7051050","2022-02-17 07:00","2022","02","17","07:00","-0.6","","-0.9","","98","","","","21","","21","","","","100.81","","","","-6","","NA"
"-64.32","48.42","CAP-D'ESPOIR","7051050","2022-02-17 08:00","2022","02","17","08:00","-0.3","","-0.7","","97","","","","22","","23","","","","100.84","","","","-6","","NA"
"-64.32","48.42","CAP-D'ESPOIR","7051050","2022-02-17 09:00","2022","02","17","09:00","0.0","","-0.7","","95","","","","23","","22","","","","100.82","","","","-6","","NA"
"-64.32","48.42","CAP-D'ESPOIR","7051050","2022-02-17 10:00","2022","02","17","10:00","-0.6","","-1.2","","96","","","","21","","9","","","","100.73","","","","-4","","NA"
"-64.32","48.42","CAP-D'ESPOIR","7051050","2022-02-17 11:00","2022","02","17","11:00","0.4","","-0.2","","95","","","","21","","15","","","","100.66","","","","","","NA"
"-64.32","48.42","CAP-D'ESPOIR","7051050","2022-02-17 12:00","2022","02","17","12:00","0.1","","-0.4","","96","","","","22","","6","","","","100.50","","","","","","NA"
"-64.32","48.42","CAP-D'ESPOIR","7051050","2022-02-17 13:00","2022","02","17","13:00","0.8","","0.4","","97","","","","24","","20","","","","100.36","","","","","","NA"
"-64.32","48.42","CAP-D'ESPOIR","7051050","2022-02-17 14:00","2022","02","17","14:00","1.0","","0.7","","98","","","","24","","23","","","","100.22","","","","","","NA"
"-64.32","48.42","CAP-D'ESPOIR","7051050","2022-02-17 15:00","2022","02","17","15:00","1.2","","1.0","","99","","","","25","","19","","","","100.20","","","","","","NA"
"-64.32","48.42","CAP-D'ESPOIR","7051050","2022-02-17 16:00","2022","02","17","16:00","0.8","","0.6","","99","","","","23","","13","","","","100.21","","","","","","NA"
"-64.32","48.42","CAP-D'ESPOIR","7051050","2022-02-17 17:00","2022","02","17","17:00","1.5","","1.3","","99","","","","24","","19","","","","100.22","","","","","","NA"
"-64.32","48.42","CAP-D'ESPOIR","7051050","2022-02-17 18:00","2022","02","17","18:00","1.8","","1.4","","98","","","","24","","23","","","","100.14","","","","","","NA"
"-64.32","48.42","CAP-D'ESPOIR","7051050","2022-02-17 19:00","2022","02","17","19:00","1.4","","1.2","","99","","","","26","","8","","","","100.24","","","","","","NA"
"-64.32","48.42","CAP-D'ESPOIR","7051050","2022-02-17 20:00","2022","02","17","20:00","-0.6","","-1.1","","96","","","","6","","28","","","","100.26","","","","-7","","NA"
"-64.32","48.42","CAP-D'ESPOIR","7051050","2022-02-17 21:00","2022","02","17","21:00","-0.5","","-1.3","","94","","","","5","","30","","","","100.24","","","","-7","","NA"
"-64.32","48.42","CAP-D'ESPOIR","7051050","2022-02-17 22:00","2022","02","17","22:00","-0.8","","-1.4","","96","","","","5","","26","","","","100.21","","","","-7","","NA"
"-64.32","48.42","CAP-D'ESPOIR","7051050","2022-02-17 23:00","2022","02","17","23:00","-1.3","","-1.7","","97","","","","5","","28","","","","100.16","","","","-8","","NA"
"-64.32","48.42","CAP-D'ESPOIR","7051050","2022-02-18 00:00","2022","02","18","00:00","-1.6","","-1.8","","98","","","","5","","31","","","","100.07","","","","-9","","NA"
"-64.32","48.42","CAP-D'ESPOIR","7051050","2022-02-18 01:00","2022","02","18","01:00","-1.7","","-1.9","","98","","","","5","","30","","","","100.00","","","","-9","","NA"
"-64.32","48.42","CAP-D'ESPOIR","7051050","2022-02-18 02:00","2022","02","18","02:00","-1.9","","-2.2","","98","","","","5","","38","","","","99.81","","","","-10","","NA"
"-64.32","48.42","CAP-D'ESPOIR","7051050","2022-02-18 03:00","2022","02","18","03:00","-2.4","","-2.7","","98","","","","4","","35","","","","99.58","","","","-10","","NA"
"-64.32","48.42","CAP-D'ESPOIR","7051050","2022-02-18 04:00","2022","02","18","04:00","-2.7","","-3.1","","97","","","","3","","37","","","","99.33","","","","-11","","NA"
"-64.32","48.42","CAP-D'ESPOIR","7051050","2022-02-18 05:00","2022","02","18","05:00","-2.8","","-3.5","","95","","","","2","","36","","","","99.15","","","","-11","","NA"
"-64.32","48.42","CAP-D'ESPOIR","7051050","2022-02-18 06:00","2022","02","18","06:00","-2.8","","-3.4","","95","","","","1","","41","","","","98.88","","","","-11","","NA"
"-64.32","48.42","CAP-D'ESPOIR","7051050","2022-02-18 07:00","2022","02","18","07:00","-2.4","","-3.0","","96","","","","3","","48","","","","98.62","","","","-11","","NA"
"-64.32","48.42","CAP-D'ESPOIR","7051050","2022-02-18 08:00","2022","02","18","08:00","-3.8","","-4.6","","94","","","","3","","60","","","","98.43","","","","-14","","NA"
"-64.32","48.42","CAP-D'ESPOIR","7051050","2022-02-18 09:00","2022","02","18","09:00","-4.5","","-5.6","","92","","","","1","","51","","","","98.33","","","","-14","","NA"
"-64.32","48.42","CAP-D'ESPOIR","7051050","2022-02-18 10:00","2022","02","18","10:00","-5.2","","-6.7","","89","","","","36","","50","","","","98.25","","","","-15","","NA"
"-64.32","48.42","CAP-D'ESPOIR","7051050","2022-02-18 11:00","2022","02","18","11:00","-6.2","","-7.9","","88","","","","35","","40","","","","98.41","","","","-16","","NA"
"-64.32","48.42","CAP-D'ESPOIR","7051050","2022-02-18 12:00","2022","02","18","12:00","-7.1","","-8.8","","87","","","","36","","39","","","","98.18","","","","-17","","NA"
"-64.32","48.42","CAP-D'ESPOIR","7051050","2022-02-18 13:00","2022","02","18","13:00","-7.0","","-10.0","","79","","","","35","","32","","","","98.57","","","","-16","","NA"
"-64.32","48.42","CAP-D'ESPOIR","7051050","2022-02-18 14:00","2022","02","18","14:00","-6.2","","-10.2","","73","","","","34","","29","","","","98.69","","","","-14","","NA"
"-64.32","48.42","CAP-D'ESPOIR","7051050","2022-02-18 15:00","2022","02","18","15:00","-5.8","","-10.4","","70","","","","35","","11","","","","99.02","","","","-11","","NA"
"-64.32","48.42","CAP-D'ESPOIR","7051050","2022-02-18 16:00","2022","02","18","16:00","-6.6","","-11.6","","68","","","","34","","15","","","","99.18","","","","-13","","NA"
"-64.32","48.42","CAP-D'ESPOIR","7051050","2022-02-18 17:00","2022","02","18","17:00","-7.9","","-12.5","","69","","","","31","","19","","","","99.45","","","","-15","","NA"
"-64.32","48.42","CAP-D'ESPOIR","7051050","2022-02-18 18:00","2022","02","18","18:00","-8.7","","-13.2","","70","","","","32","","20","","","","99.76","","","","-16","","NA"
"-64.32","48.42","CAP-D'ESPOIR","7051050","2022-02-18 19:00","2022","02","18","19:00","-9.7","","-14.7","","67","","","","32","","7","","","","99.96","","","","-14","","NA"
"-64.32","48.42","CAP-D'ESPOIR","7051050","2022-02-18 20:00","2022","02","18","20:00","-10.8","","-16.1","","65","","","","32","","14","","","","100.16","","","","-17","","NA"
"-64.32","48.42","CAP-D'ESPOIR","7051050","2022-02-18 21:00","2022","02","18","21:00","-11.2","","-16.9","","63","","","","31","","20","","","","100.33","","","","-19","","NA"
"-64.32","48.42","CAP-D'ESPOIR","7051050","2022-02-18 22:00","2022","02","18","22:00","-11.9","","-17.0","","66","","","","29","","18","","","","100.46","","","","-20","","NA"
"-64.32","48.42","CAP-D'ESPOIR","7051050","2022-02-18 23:00","2022","02","18","23:00","-13.0","","-17.4","","70","","","","31","","8","","","","100.54","","","","-18","","NA"
"-64.32","48.42","CAP-D'ESPOIR","7051050","2022-02-19 00:00","2022","02","19","00:00","-13.9","","-18.0","","71","","","","32","","7","","","","100.75","","","","-19","","NA"
"-64.32","48.42","CAP-D'ESPOIR","7051050","2022-02-19 01:00","2022","02","19","01:00","-14.1","","-18.2","","71","","","","29","","4","","","","100.82","","","","-17","","NA"
"-64.32","48.42","CAP-D'ESPOIR","7051050","2022-02-19 02:00","2022","02","19","02:00","-14.7","","-19.1","","69","","","","32","","6","","","","100.91","","","","-19","","NA"
"-64.32","48.42","CAP-D'ESPOIR","7051050","2022-02-19 03:00","2022","02","19","03:00","-14.5","","-19.0","","68","","","","29","","3","","","","101.03","","","","-17","","NA"
"-64.32","48.42","CAP-D'ESPOIR","7051050","2022-02-19 04:00","2022","02","19","04:00","-15.2","","-18.7","","74","","","","31","","7","","","","101.12","","","","-20","","NA"
"-64.32","48.42","CAP-D'ESPOIR","7051050","2022-02-19 05:00","2022","02","19","05:00","-15.5","","-19.3","","73","","","","30","","8","","","","101.23","","","","-21","","NA"
"-64.32","48.42","CAP-D'ESPOIR","7051050","2022-02-19 06:00","2022","02","19","06:00","-17.1","","-20.8","","73","","","","32","","7","","","","101.23","","","","-22","","NA"
"-64.32","48.42","CAP-D'ESPOIR","7051050","2022-02-19 07:00","2022","02","19","07:00","-14.7","","-19.3","","68","","","","29","","7","","","","101.30","","","","-19","","NA"
"-64.32","48.42","CAP-D'ESPOIR","7051050","2022-02-19 08:00","2022","02","19","08:00","-14.3","","-19.7","","63","","","","29","","4","","","","101.35","","","","-17","","NA"
"-64.32","48.42","CAP-D'ESPOIR","7051050","2022-02-19 09:00","2022","02","19","09:00","-12.9","","-18.6","","62","","","","28","","3","","","","101.37","","","","-15","","NA"
"-64.32","48.42","CAP-D'ESPOIR","7051050","2022-02-19 10:00","2022","02","19","10:00","-12.3","","-18.2","","62","","","","29","","3","","","","101.31","","","","-14","","NA"
"-64.32","48.42","CAP-D'ESPOIR","7051050","2022-02-19 11:00","2022","02","19","11:00","-11.6","","-16.4","","68","","","","12","","5","","","","101.26","","","","-15","","NA"
"-64.32","48.42","CAP-D'ESPOIR","7051050","2022-02-19 12:00","2022","02","19","12:00","-11.3","","-14.4","","78","","","","24","","6","","","","101.17","","","","-15","","NA"
"-64.32","48.42","CAP-D'ESPOIR","7051050","2022-02-19 13:00","2022","02","19","13:00","-10.7","","-13.3","","81","","","","6","","4","","","","100.98","","","","-13","","NA"
"-64.32","48.42","CAP-D'ESPOIR","7051050","2022-02-19 14:00","2022","02","19","14:00","-9.3","","-13.2","","73","","","","19","","24","","","","100.89","","","","-18","","NA"
"-64.32","48.42","CAP-D'ESPOIR","7051050","2022-02-19 15:00","2022","02","19","15:00","-8.7","","-12.2","","76","","","","20","","25","","","","100.90","","","","-17","","NA"
"-64.32","48.42","CAP-D'ESPOIR","7051050","2022-02-19 16:00","2022","02","19","16:00","-8.6","","-10.6","","85","","","","18","","33","","","","100.89","","","","-18","","NA"
"-64.32","48.42","CAP-D'ESPOIR","7051050","2022-02-19 17:00","2022","02","19","17:00","-8.5","","-10.1","","88","","","","19","","27","","","","100.84","","","","-17","","NA"
"-64.32","48.42","CAP-D'ESPOIR","7051050","2022-02-19 18:00","2022","02","19","18:00","-7.8","","-9.2","","90","","","","19","","21","","","","100.78","","","","-15","","NA"
"-64.32","48.42","CAP-D'ESPOIR","7051050","2022-02-19 19:00","2022","02","19","19:00","-7.4","","-9.2","","87","","","","17","","22","","","","100.71","","","","-15","","NA"
"-64.32","48.42","CAP-D'ESPOIR","7051050","2022-02-19 20:00","2022","02","19","20:00","-6.8","","-8.6","","87","","","","16","","21","","","","100.65","","","","-14","","NA"
"-64.32","48.42","CAP-D'ESPOIR","7051050","2022-02-19 21:00","2022","02","19","21:00","-6.5","","-7.7","","91","","","","15","","14","","","","100.60","","","","-12","","NA"
"-64.32","48.42","CAP-D'ESPOIR","7051050","2022-02-19 22:00","2022","02","19","22:00","-5.9","","-7.1","","91","","","","17","","16","","","","100.55","","","","-12","","NA"
"-64.32","48.42","CAP-D'ESPOIR","7051050","2022-02-19 23:00","2022","02","19","23:00","-5.6","","-6.7","","92","","","","16","","12","","","","100.50","","","","-11","","NA"
"-64.32","48.42","CAP-D'ESPOIR","7051050","2022-02-20 00:00","2022","02","20","00:00","-6.7","","-7.9","","92","","","","35","","7","","","","100.51","","","","-10","","NA"
"-64.32","48.42","CAP-D'ESPOIR","7051050","2022-02-20 01:00","2022","02","20","01:00","-7.4","","-8.6","","91","","","","34","","10","","","","100.50","","","","-12","","NA"
"-64.32","48.42","CAP-D'ESPOIR","7051050","2022-02-20 02:00","2022","02","20","02:00","-7.7","","-9.3","","88","","","","35","","16","","","","100.53","","","","-14","","NA"
"-64.32","48.42","CAP-D'ESPOIR","7051050","2022-02-20 03:00","2022","02","20","03:00","-7.8","","-9.9","","85","","","","35","","16","","","","100.58","","","","-14","","NA"
"-64.32","48.42","CAP-D'ESPOIR","7051050","2022-02-20 04:00","2022","02","20","04:00","-8.5","","-11.9","","76","","","","34","","24","","","","100.72","","","","-17","","NA"
"-64.32","48.42","CAP-D'ESPOIR","7051050","2022-02-20 05:00","2022","02","20","05:00","-8.9","","-12.5","","75","","","","34","","18","","","","100.87","","","","-16","","NA"
"-64.32","48.42","CAP-D'ESPOIR","7051050","2022-02-20 06:00","2022","02","20","06:00","-9.4","","-13.6","","72","","","","33","","21","","","","100.99","","","","-17","","NA"
"-64.32","48.42","CAP-D'ESPOIR","7051050","2022-02-20 07:00","2022","02","20","07:00","-10.2","","-14.5","","71","","","","32","","24","","","","101.18","","","","-19","","NA"
"-64.32","48.42","CAP-D'ESPOIR","7051050","2022-02-20 08:00","2022","02","20","08:00","-10.7","","-16.3","","63","","","","33","","18","","","","101.34","","","","-18","","NA"
"-64.32","48.42","CAP-D'ESPOIR","7051050","2022-02-20 09:00","2022","02","20","09:00","-11.0","","-17.7","","58","","","","32","","22","","","","101.48","","","","-20","","NA"
"-64.32","48.42","CAP-D'ESPOIR","7051050","2022-02-20 10:00","2022","02","20","10:00","-10.1","","-17.1","","57","","","","29","","16","","","","101.58","","","","-17","","NA"
"-64.32","48.42","CAP-D'ESPOIR","7051050","2022-02-20 11:00","2022","02","20","11:00","-10.0","","-17.7","","54","","","","31","","19","","","","101.57","","","","-18","","NA"
"-64.32","48.42","CAP-D'ESPOIR","7051050","2022-02-20 12:00","2022","02","20","12:00","-8.9","","-17.8","","48","","","","30","","13","","","","101.58","","","","-15","","NA"
"-64.32","48.42","CAP-D'ESPOIR","7051050","2022-02-20 13:00","2022","02","20","13:00","-8.4","","-15.8","","55","","","","24","","9","","","","101.63","","","","-13","","NA"
"-64.32","48.42","CAP-D'ESPOIR","7051050","2022-02-20 14:00","2022","02","20","14:00","-8.1","","-13.8","","64","","","","18","","16","","","","101.66","","","","-15","","NA"
"-64.32","48.42","CAP-D'ESPOIR","7051050","2022-02-20 15:00","2022","02","20","15:00","-8.0","","-13.5","","65","","","","22","","20","","","","101.69","","","","-15","","NA"
"-64.32","48.42","CAP-D'ESPOIR","7051050","2022-02-20 16:00","2022","02","20","16:00","-8.2","","-12.2","","72","","","","22","","34","","","","101.69","","","","-18","","NA"
"-64.32","48.42","CAP-D'ESPOIR","7051050","2022-02-20 17:00","2022","02","20","17:00","-9.1","","-13.3","","72","","","","24","","27","","","","101.72","","","","-18","","NA"
"-64.32","48.42","CAP-D'ESPOIR","7051050","2022-02-20 18:00","2022","02","20","18:00","-10.0","","-13.8","","74","","","","25","","18","","","","101.73","","","","-17","","NA"
"-64.32","48.42","CAP-D'ESPOIR","7051050","2022-02-20 19:00","2022","02","20","19:00","-10.0","","-14.4","","70","","","","25","","16","","","","101.65","","","","-17","","NA"
"-64.32","48.42","CAP-D'ESPOIR","7051050","2022-02-20 20:00","2022","02","20","20:00","-9.7","","-14.2","","69","","","","24","","26","","","","101.58","","","","-19","","NA"
"-64.32","48.42","CAP-D'ESPOIR","7051050","2022-02-20 21:00","2022","02","20","21:00","-9.0","","-12.9","","74","","","","21","","31","","","","101.47","","","","-18","","NA"
"-64.32","48.42","CAP-D'ESPOIR","7051050","2022-02-20 22:00","2022","02","20","22:00","-8.9","","-13.4","","70","","","","22","","40","","","","101.43","","","","-19","","NA"
"-64.32","48.42","CAP-D'ESPOIR","7051050","2022-02-20 23:00","2022","02","20","23:00","-9.1","","-11.0","","85","","","","21","","44","","","","101.28","","","","-20","","NA"
"-64.32","48.42","CAP-D'ESPOIR","7051050","2022-02-21 00:00","2022","02","21","00:00","-8.3","","-10.6","","84","","","","21","","46","","","","101.15","","","","-19","","NA"
"-64.32","48.42","CAP-D'ESPOIR","7051050","2022-02-21 01:00","2022","02","21","01:00","-8.5","","-10.6","","85","","","","22","","35","","","","101.13","","","","-18","","NA"
"-64.32","48.42","CAP-D'ESPOIR","7051050","2022-02-21 02:00","2022","02","21","02:00","-8.1","","-10.6","","83","","","","22","","30","","","","101.10","","","","-17","","NA"
"-64.32","48.42","CAP-D'ESPOIR","7051050","2022-02-21 03:00","2022","02","21","03:00","-7.6","","-9.7","","85","","","","23","","27","","","","101.06","","","","-16","","NA"
"-64.32","48.42","CAP-D'ESPOIR","7051050","2022-02-21 04:00","2022","02","21","04:00","-8.7","","-10.9","","84","","","","26","","12","","","","101.07","","","","-14","","NA"
"-64.32","48.42","CAP-D'ESPOIR","7051050","2022-02-21 05:00","2022","02","21","05:00","-9.4","","-11.7","","84","","","","27","","9","","","","101.14","","","","-14","","NA"
"-64.32","48.42","CAP-D'ESPOIR","7051050","2022-02-21 06:00","2022","02","21","06:00","-9.9","","-12.2","","83","","","","28","","8","","","","101.23","","","","-14","","NA"
"-64.32","48.42","CAP-D'ESPOIR","7051050","2022-02-21 07:00","2022","02","21","07:00","-9.5","","-12.0","","82","","","","28","","9","","","","101.31","","","","-14","","NA"
"-64.32","48.42","CAP-D'ESPOIR","7051050","2022-02-21 08:00","2022","02","21","08:00","-7.2","","-10.6","","77","","","","25","","8","","","","101.38","","","","-11","","NA"
"-64.32","48.42","CAP-D'ESPOIR","7051050","2022-02-21 09:00","2022","02","21","09:00","-5.0","","-8.0","","79","","","","21","","28","","","","101.47","","","","-13","","NA"
"-64.32","48.42","CAP-D'ESPOIR","7051050","2022-02-21 10:00","2022","02","21","10:00","-4.4","","-7.1","","81","","","","23","","32","","","","101.53","","","","-12","","NA"
"-64.32","48.42","CAP-D'ESPOIR","7051050","2022-02-21 11:00","2022","02","21","11:00","-3.2","","-6.7","","77","","","","22","","29","","","","101.62","","","","-11","","NA"
"-64.32","48.42","CAP-D'ESPOIR","7051050","2022-02-21 12:00","2022","02","21","12:00","-1.0","","-8.1","","59","","","","25","","23","","","","101.69","","","","-7","","NA"
"-64.32","48.42","CAP-D'ESPOIR","7051050","2022-02-21 13:00","2022","02","21","13:00","-0.9","","-8.7","","55","","","","27","","20","","","","101.77","","","","-6","","NA"
"-64.32","48.42","CAP-D'ESPOIR","7051050","2022-02-21 14:00","2022","02","21","14:00","-0.9","","-10.0","","50","","","","28","","31","","","","101.91","","","","-8","","NA"
"-64.32","48.42","CAP-D'ESPOIR","7051050","2022-02-21 15:00","2022","02","21","15:00","-2.0","","-10.5","","52","","","","28","","25","","","","102.10","","","","-8","","NA"
"-64.32","48.42","CAP-D'ESPOIR","7051050","2022-02-21 16:00","2022","02","21","16:00","-4.1","","-14.9","","43","","","","28","","25","","","","102.33","","","","-11","","NA"
"-64.32","48.42","CAP-D'ESPOIR","7051050","2022-02-21 17:00","2022","02","21","17:00","-6.4","","-16.4","","45","","","","29","","17","","","","102.55","","","","-13","","NA"
"-64.32","48.42","CAP-D'ESPOIR","7051050","2022-02-21 18:00","2022","02","21","18:00","-8.1","","-15.8","","54","","","","27","","13","","","","102.75","","","","-14","","NA"
"-64.32","48.42","CAP-D'ESPOIR","7051050","2022-02-21 19:00","2022","02","21","19:00","-9.2","","-17.1","","53","","","","29","","14","","","","102.96","","","","-16","","NA"
"-64.32","48.42","CAP-D'ESPOIR","7051050","2022-02-21 20:00","2022","02","21","20:00","-10.9","","-20.2","","46","","","","31","","16","","","","103.11","","","","-18","","NA"
"-64.32","48.42","CAP-D'ESPOIR","7051050","2022-02-21 21:00","2022","02","21","21:00","-11.8","","-19.8","","52","","","","30","","11","","","","103.26","","","","-18","","NA"
"-64.32","48.42","CAP-D'ESPOIR","7051050","2022-02-21 22:00","2022","02","21","22:00","-12.1","","-19.8","","53","","","","31","","8","","","","103.37","","","","-17","","NA"
"-64.32","48.42","CAP-D'ESPOIR","7051050","2022-02-21 23:00","2022","02","21","23:00","-12.7","","-19.2","","58","","","","31","","6","","","","103.49","","","","-17","","NA"
"-64.32","48.42","CAP-D'ESPOIR","7051050","2022-02-22 00:00","2022","02","22","00:00","-13.0","","-19.3","","59","","","","32","","12","","","","103.65","","","","-20","","NA"
"-64.32","48.42","CAP-D'ESPOIR","7051050","2022-02-22 01:00","2022","02","22","01:00","-12.5","","-19.4","","56","","","","31","","8","","","","103.77","","","","-17","","NA"
"-64.32","48.42","CAP-D'ESPOIR","7051050","2022-02-22 02:00","2022","02","22","02:00","-12.7","","-19.0","","59","","","","33","","10","","","","103.85","","","","-18","","NA"
"-64.32","48.42","CAP-D'ESPOIR","7051050","2022-02-22 03:00","2022","02","22","03:00","-13.1","","-18.7","","63","","","","36","","17","","","","103.89","","","","-21","","NA"
"-64.32","48.42","CAP-D'ESPOIR","7051050","2022-02-22 04:00","2022","02","22","04:00","-14.6","","-20.2","","62","","","","36","","16","","","","104.04","","","","-23","","NA"
"-64.32","48.42","CAP-D'ESPOIR","7051050","2022-02-22 05:00","2022","02","22","05:00","-15.0","","-21.1","","60","","","","1","","16","","","","104.15","","","","-23","","NA"
"-64.32","48.42","CAP-D'ESPOIR","7051050","2022-02-22 06:00","2022","02","22","06:00","-15.6","","-22.2","","57","","","","35","","13","","","","104.23","","","","-23","","NA"
"-64.32","48.42","CAP-D'ESPOIR","7051050","2022-02-22 07:00","2022","02","22","07:00","-15.7","","-21.5","","61","","","","35","","15","","","","104.31","","","","-24","","NA"
"-64.32","48.42","CAP-D'ESPOIR","7051050","2022-02-22 08:00","2022","02","22","08:00","-14.6","","-18.7","","71","","","","36","","15","","","","104.33","","","","-22","","NA"
"-64.32","48.42","CAP-D'ESPOIR","7051050","2022-02-22 09:00","2022","02","22","09:00","-14.4","","-17.2","","79","","","","36","","17","","","","104.31","","","","-23","","NA"
"-64.32","48.42","CAP-D'ESPOIR","7051050","2022-02-22 10:00","2022","02","22","10:00","-14.2","","-18.0","","73","","","","4","","33","","","","104.33","","","","-25","","NA"
"-64.32","48.42","CAP-D'ESPOIR","7051050","2022-02-22 11:00","2022","02","22","11:00","-14.2","","-17.4","","77","","","","5","","37","","","","104.29","","","","-26","","NA"
"-64.32","48.42","CAP-D'ESPOIR","7051050","2022-02-22 12:00","2022","02","22","12:00","-14.4","","-17.7","","76","","","","5","","32","","","","104.18","","","","-26","","NA"
"-64.32","48.42","CAP-D'ESPOIR","7051050","2022-02-22 13:00","2022","02","22","13:00","-13.9","","-17.3","","76","","","","6","","30","","","","104.10","","","","-25","","NA"
"-64.32","48.42","CAP-D'ESPOIR","7051050","2022-02-22 14:00","2022","02","22","14:00","-13.9","","-16.6","","80","","","","4","","25","","","","104.00","","","","-24","","NA"
"-64.32","48.42","CAP-D'ESPOIR","7051050","2022-02-22 15:00","2022","02","22","15:00","-13.3","","-15.5","","83","","","","4","","30","","","","103.93","","","","-24","","NA"
"-64.32","48.42","CAP-D'ESPOIR","7051050","2022-02-22 16:00","2022","02","22","16:00","-12.2","","-14.6","","82","","","","7","","36","","","","103.83","","","","-23","","NA"
"-64.32","48.42","CAP-D'ESPOIR","7051050","2022-02-22 17:00","2022","02","22","17:00","-12.3","","-14.3","","85","","","","6","","42","","","","103.74","","","","-24","","NA"
"-64.32","48.42","CAP-D'ESPOIR","7051050","2022-02-22 18:00","2022","02","22","18:00","-12.0","","-14.0","","85","","","","7","","39","","","","103.67","","","","-23","","NA"
"-64.32","48.42","CAP-D'ESPOIR","7051050","2022-02-22 19:00","2022","02","22","19:00","-11.7","","-13.3","","87","","","","6","","42","","","","103.53","","","","-23","","NA"
"-64.32","48.42","CAP-D'ESPOIR","7051050","2022-02-22 20:00","2022","02","22","20:00","-10.9","","-12.5","","88","","","","6","","44","","","","103.26","","","","-22","","NA"
"-64.32","48.42","CAP-D'ESPOIR","7051050","2022-02-22 21:00","2022","02","22","21:00","-9.9","","-11.2","","90","","","","6","","37","","","","103.01","","","","-20","","NA"
"-64.32","48.42","CAP-D'ESPOIR","7051050","2022-02-22 22:00","2022","02","22","22:00","-8.3","","-9.6","","90","","","","7","","39","","","","102.71","","","","-18","","NA"
"-64.32","48.42","CAP-D'ESPOIR","7051050","2022-02-22 23:00","2022","02","22","23:00","-7.0","","-7.9","","94","","","","9","","33","","","","102.38","","","","-16","","NA"
"-64.32","48.42","CAP-D'ESPOIR","7051050","2022-02-23 00:00","2022","02","23","00:00","-5.8","","-6.5","","94","","","","9","","26","","","","102.09","","","","-14","","NA"
"-64.32","48.42","CAP-D'ESPOIR","7051050","2022-02-23 01:00","2022","02","23","01:00","-5.5","","-6.2","","95","","","","7","","23","","","","101.75","","","","-13","","NA"
"-64.32","48.42","CAP-D'ESPOIR","7051050","2022-02-23 02:00","2022","02","23","02:00","-5.0","","-5.6","","95","","","","6","","25","","","","101.24","","","","-12","","NA"
"-64.32","48.42","CAP-D'ESPOIR","7051050","2022-02-23 03:00","2022","02","23","03:00","-4.3","","-4.8","","96","","","","4","","17","","","","100.87","","","","-10","","NA"
"-64.32","48.42","CAP-D'ESPOIR","7051050","2022-02-23 04:00","2022","02","23","04:00","-1.9","","-2.2","","98","","","","4","","14","","","","100.33","","","","-7","","NA"
"-64.32","48.42","CAP-D'ESPOIR","7051050","2022-02-23 05:00","2022","02","23","05:00","-0.6","","-0.8","","99","","","","33","","4","","","","99.89","","","","-2","","NA"
"-64.32","48.42","CAP-D'ESPOIR","7051050","2022-02-23 06:00","2022","02","23","06:00","0.6","","0.5","","99","","","","25","","4","","","","99.64","","","","","","NA"
"-64.32","48.42","CAP-D'ESPOIR","7051050","2022-02-23 07:00","2022","02","23","07:00","0.6","","0.5","","99","","","","24","","16","","","","99.54","","","","","","NA"
"-64.32","48.42","CAP-D'ESPOIR","7051050","2022-02-23 08:00","2022","02","23","08:00","0.2","","0.1","","99","","","","24","","18","","","","99.49","","","","","","NA"
"-64.32","48.42","CAP-D'ESPOIR","7051050","2022-02-23 09:00","2022","02","23","09:00","0.5","","0.1","","97","","","","24","","21","","","","99.48","","","","","","NA"
"-64.32","48.42","CAP-D'ESPOIR","7051050","2022-02-23 10:00","2022","02","23","10:00","1.7","","-0.4","","86","","","","23","","42","","","","99.52","","","","","","NA"
"-64.32","48.42","CAP-D'ESPOIR","7051050","2022-02-23 11:00","2022","02","23","11:00","2.0","","-0.5","","84","","","","24","","29","","","","99.61","","","","","","NA"
"-64.32","48.42","CAP-D'ESPOIR","7051050","2022-02-23 12:00","2022","02","23","12:00","2.2","","-0.6","","82","","","","25","","20","","","","99.68","","","","","","NA"
"-64.32","48.42","CAP-D'ESPOIR","7051050","2022-02-23 13:00","2022","02","23","13:00","1.9","","-0.9","","82","","","","24","","19","","","","99.73","","","","","","NA"
"-64.32","48.42","CAP-D'ESPOIR","7051050","2022-02-23 14:00","2022","02","23","14:00","1.6","","-1.2","","82","","","","25","","13","","","","99.77","","","","","","NA"
"-64.32","48.42","CAP-D'ESPOIR","7051050","2022-02-23 15:00","2022","02","23","15:00","-2.3","","-3.5","","91","","","","5","","14","","","","99.82","","","","-7","","NA"
"-64.32","48.42","CAP-D'ESPOIR","7051050","2022-02-23 16:00","2022","02","23","16:00","-2.9","","-4.2","","91","","","","5","","20","","","","99.71","","","","-9","","NA"
"-64.32","48.42","CAP-D'ESPOIR","7051050","2022-02-23 17:00","2022","02","23","17:00","-4.6","","-5.9","","90","","","","6","","30","","","","99.61","","","","-12","","NA"
"-64.32","48.42","CAP-D'ESPOIR","7051050","2022-02-23 18:00","2022","02","23","18:00","-5.2","","-6.6","","90","","","","7","","26","","","","99.73","","","","-13","","NA"
"-64.32","48.42","CAP-D'ESPOIR","7051050","2022-02-23 19:00","2022","02","23","19:00","-5.5","","-7.1","","88","","","","7","","27","","","","99.80","","","","-13","","NA"
"-64.32","48.42","CAP-D'ESPOIR","7051050","2022-02-23 20:00","2022","02","23","20:00","-5.8","","-7.6","","87","","","","7","","32","","","","99.83","","","","-14","","NA"
"-64.32","48.42","CAP-D'ESPOIR","7051050","2022-02-23 21:00","2022","02","23","21:00","-5.5","","-7.2","","88","","","","4","","19","","","","99.94","","","","-12","","NA"
"-64.32","48.42","CAP-D'ESPOIR","7051050","2022-02-23 22:00","2022","02","23","22:00","-5.4","","-10.8","","66","","","","28","","19","","","","100.03","","","","-12","","NA"
"-64.32","48.42","CAP-D'ESPOIR","7051050","2022-02-23 23:00","2022","02","23","23:00","-7.6","","-14.4","","58","","","","29","","29","","","","100.15","","","","-16","","NA"
"-64.32","48.42","CAP-D'ESPOIR","7051050","2022-02-24 00:00","2022","02","24","00:00","-9.0","","-15.5","","59","","","","28","","21","","","","100.36","","","","-17","","NA"
"-64.32","48.42","CAP-D'ESPOIR","7051050","2022-02-24 01:00","2022","02","24","01:00","-10.0","","-16.1","","61","","","","28","","22","","","","100.51","","","","-18","","NA"
"-64.32","48.42","CAP-D'ESPOIR","7051050","2022-02-24 02:00","2022","02","24","02:00","-10.9","","-17.7","","57","","","","31","","32","","","","100.71","","","","-21","","NA"
"-64.32","48.42","CAP-D'ESPOIR","7051050","2022-02-24 03:00","2022","02","24","03:00","-12.0","","-19.3","","54","","","","30","","25","","","","100.85","","","","-21","","NA"
"-64.32","48.42","CAP-D'ESPOIR","7051050","2022-02-24 04:00","2022","02","24","04:00","-12.9","","-19.7","","57","","","","30","","21","","","","100.98","","","","-22","","NA"
"-64.32","48.42","CAP-D'ESPOIR","7051050","2022-02-24 05:00","2022","02","24","05:00","-13.8","","-19.7","","61","","","","28","","13","","","","101.17","","","","-21","","NA"
"-64.32","48.42","CAP-D'ESPOIR","7051050","2022-02-24 06:00","2022","02","24","06:00","-14.2","","-20.0","","62","","","","28","","12","","","","101.32","","","","-21","","NA"
"-64.32","48.42","CAP-D'ESPOIR","7051050","2022-02-24 07:00","2022","02","24","07:00","-14.0","","-19.9","","61","","","","26","","15","","","","101.42","","","","-22","","NA"
"-64.32","48.42","CAP-D'ESPOIR","7051050","2022-02-24 08:00","2022","02","24","08:00","-12.7","","-20.1","","54","","","","29","","19","","","","101.51","","","","-21","","NA"
"-64.32","48.42","CAP-D'ESPOIR","7051050","2022-02-24 09:00","2022","02","24","09:00","-11.2","","-19.6","","50","","","","30","","23","","","","101.54","","","","-20","","NA"
"-64.32","48.42","CAP-D'ESPOIR","7051050","2022-02-24 10:00","2022","02","24","10:00","-10.2","","-19.0","","48","","","","30","","34","","","","101.64","","","","-20","","NA"
"-64.32","48.42","CAP-D'ESPOIR","7051050","2022-02-24 11:00","2022","02","24","11:00","-9.1","","-18.6","","46","","","","30","","28","","","","101.76","","","","-18","","NA"
"-64.32","48.42","CAP-D'ESPOIR","7051050","2022-02-24 12:00","2022","02","24","12:00","-8.6","","-17.7","","48","","","","32","","28","","","","101.86","","","","-17","","NA"
"-64.32","48.42","CAP-D'ESPOIR","7051050","2022-02-24 13:00","2022","02","24","13:00","-7.9","","-18.4","","43","","","","30","","26","","","","101.95","","","","-16","","NA"
"-64.32","48.42","CAP-D'ESPOIR","7051050","2022-02-24 14:00","2022","02","24","14:00","-7.9","","-19.2","","40","","","","31","","21","","","","102.01","","","","-15","","NA"
"-64.32","48.42","CAP-D'ESPOIR","7051050","2022-02-24 15:00","2022","02","24","15:00","-8.1","","-18.3","","44","","","","32","","18","","","","102.06","","","","-15","","NA"
"-64.32","48.42","CAP-D'ESPOIR","7051050","2022-02-24 16:00","2022","02","24","16:00","-8.3","","-20.3","","38","","","","30","","22","","","","102.14","","","","-16","","NA"
"-64.32","48.42","CAP-D'ESPOIR","7051050","2022-02-24 17:00","2022","02","24","17:00","-10.0","","-19.6","","45","","","","32","","19","","","","102.27","","","","-18","","NA"
"-64.32","48.42","CAP-D'ESPOIR","7051050","2022-02-24 18:00","2022","02","24","18:00","-11.0","","-19.5","","50","","","","29","","5","","","","102.41","","","","-14","","NA"
"-64.32","48.42","CAP-D'ESPOIR","7051050","2022-02-24 19:00","2022","02","24","19:00","-12.6","","-19.2","","58","","","","26","","13","","","","102.51","","","","-19","","NA"
"-64.32","48.42","CAP-D'ESPOIR","7051050","2022-02-24 20:00","2022","02","24","20:00","-13.1","","-19.8","","58","","","","26","","14","","","","102.59","","","","-20","","NA"
"-64.32","48.42","CAP-D'ESPOIR","7051050","2022-02-24 21:00","2022","02","24","21:00","-14.3","","-20.5","","59","","","","26","","12","","","","102.63","","","","-21","","NA"
"-64.32","48.42","CAP-D'ESPOIR","7051050","2022-02-24 22:00","2022","02","24","22:00","-14.9","","-20.7","","61","","","","27","","11","","","","102.66","","","","-21","","NA"
"-64.32","48.42","CAP-D'ESPOIR","7051050","2022-02-24 23:00","2022","02","24","23:00","-16.4","","-21.5","","64","","","","26","","9","","","","102.68","","","","-22","","NA"
"-64.32","48.42","CAP-D'ESPOIR","7051050","2022-02-25 00:00","2022","02","25","00:00","-16.5","","-21.4","","65","","","","27","","12","","","","102.75","","","","-24","","NA"
"-64.32","48.42","CAP-D'ESPOIR","7051050","2022-02-25 01:00","2022","02","25","01:00","-16.5","","-21.8","","64","","","","28","","11","","","","102.79","","","","-23","","NA"
"-64.32","48.42","CAP-D'ESPOIR","7051050","2022-02-25 02:00","2022","02","25","02:00","-17.8","","-22.5","","67","","","","27","","11","","","","102.80","","","","-25","","NA"
"-64.32","48.42","CAP-D'ESPOIR","7051050","2022-02-25 03:00","2022","02","25","03:00","-17.9","","-22.3","","68","","","","26","","10","","","","102.80","","","","-25","","NA"
"-64.32","48.42","CAP-D'ESPOIR","7051050","2022-02-25 04:00","2022","02","25","04:00","-18.8","","-22.9","","70","","","","28","","15","","","","102.84","","","","-28","","NA"
"-64.32","48.42","CAP-D'ESPOIR","7051050","2022-02-25 05:00","2022","02","25","05:00","-19.3","","-23.2","","71","","","","28","","14","","","","102.86","","","","-28","","NA"
"-64.32","48.42","CAP-D'ESPOIR","7051050","2022-02-25 06:00","2022","02","25","06:00","-19.8","","-23.6","","71","","","","29","","14","","","","102.87","","","","-29","","NA"
"-64.32","48.42","CAP-D'ESPOIR","7051050","2022-02-25 07:00","2022","02","25","07:00","-17.7","","-23.2","","63","","","","28","","7","","","","102.87","","","","-23","","NA"
"-64.32","48.42","CAP-D'ESPOIR","7051050","2022-02-25 08:00","2022","02","25","08:00","-16.4","","-23.3","","55","","","","26","","6","","","","102.88","","","","-21","","NA"
"-64.32","48.42","CAP-D'ESPOIR","7051050","2022-02-25 09:00","2022","02","25","09:00","-15.1","","-23.3","","50","","","","34","","7","","","","102.79","","","","-20","","NA"
"-64.32","48.42","CAP-D'ESPOIR","7051050","2022-02-25 10:00","2022","02","25","10:00","-14.1","","-23.4","","45","","","","5","","6","","","","102.77","","","","-18","","NA"
"-64.32","48.42","CAP-D'ESPOIR","7051050","2022-02-25 11:00","2022","02","25","11:00","-14.1","","-22.8","","48","","","","16","","8","","","","102.69","","","","-19","","NA"
"-64.32","48.42","CAP-D'ESPOIR","7051050","2022-02-25 12:00","2022","02","25","12:00","-13.6","","-20.8","","54","","","","11","","10","","","","102.47","","","","-20","","NA"
"-64.32","48.42","CAP-D'ESPOIR","7051050","2022-02-25 13:00","2022","02","25","13:00","-13.7","","-19.8","","60","","","","14","","8","","","","102.45","","","","-19","","NA"
"-64.32","48.42","CAP-D'ESPOIR","7051050","2022-02-25 14:00","2022","02","25","14:00","-13.8","","-19.7","","61","","","","8","","7","","","","102.30","","","","-18","","NA"
"-64.32","48.42","CAP-D'ESPOIR","7051050","2022-02-25 15:00","2022","02","25","15:00","-13.8","","-20.5","","57","","","","9","","2","","","","102.21","","","","-15","","NA"
"-64.32","48.42","CAP-D'ESPOIR","7051050","2022-02-25 16:00","2022","02","25","16:00","-13.8","","-19.5","","62","","","","18","","6","","","","102.10","","","","-18","","NA"
"-64.32","48.42","CAP-D'ESPOIR","7051050","2022-02-25 17:00","2022","02","25","17:00","-13.9","","-19.3","","64","","","","33","","2","","","","102.03","","","","-15","","NA"
"-64.32","48.42","CAP-D'ESPOIR","7051050","2022-02-25 18:00","2022","02","25","18:00","-13.8","","-18.8","","66","","","","32","","2","","","","101.97","","","","-15","","NA"
"-64.32","48.42","CAP-D'ESPOIR","7051050","2022-02-25 19:00","2022","02","25","19:00","-14.7","","-18.8","","71","","","","32","","9","","","","101.93","","","","-20","","NA"
"-64.32","48.42","CAP-D'ESPOIR","7051050","2022-02-25 20:00","2022","02","25","20:00","-15.2","","-19.2","","71","","","","31","","8","","","","101.94","","","","-21","","NA"
"-64.32","48.42","CAP-D'ESPOIR","7051050","2022-02-25 21:00","2022","02","25","21:00","-14.5","","-19.3","","67","","","","35","","11","","","","101.92","","","","-21","","NA"
"-64.32","48.42","CAP-D'ESPOIR","7051050","2022-02-25 22:00","2022","02","25","22:00","-15.5","","-21.2","","62","","","","30","","7","","","","101.90","","","","-20","","NA"
"-64.32","48.42","CAP-D'ESPOIR","7051050","2022-02-25 23:00","2022","02","25","23:00","-16.4","","-21.8","","63","","","","30","","10","","","","101.83","","","","-23","","NA"
"-64.32","48.42","CAP-D'ESPOIR","7051050","2022-02-26 00:00","2022","02","26","00:00","-17.8","","-22.4","","67","","","","28","","11","","","","101.82","","","","-25","","NA"
"-64.32","48.42","CAP-D'ESPOIR","7051050","2022-02-26 01:00","2022","02","26","01:00","-18.7","","-22.2","","74","","","","26","","14","","","","101.85","","","","-27","","NA"
"-64.32","48.42","CAP-D'ESPOIR","7051050","2022-02-26 02:00","2022","02","26","02:00","-18.9","","-23.1","","70","","","","27","","17","","","","101.85","","","","-28","","NA"
"-64.32","48.42","CAP-D'ESPOIR","7051050","2022-02-26 03:00","2022","02","26","03:00","-18.4","","-22.6","","69","","","","27","","18","","","","101.86","","","","-28","","NA"
"-64.32","48.42","CAP-D'ESPOIR","7051050","2022-02-26 04:00","2022","02","26","04:00","-18.5","","-22.7","","69","","","","27","","17","","","","101.89","","","","-28","","NA"
"-64.32","48.42","CAP-D'ESPOIR","7051050","2022-02-26 05:00","2022","02","26","05:00","-18.7","","-22.9","","70","","","","27","","17","","","","101.94","","","","-28","","NA"
"-64.32","48.42","CAP-D'ESPOIR","7051050","2022-02-26 06:00","2022","02","26","06:00","-18.8","","-23.0","","69","","","","27","","16","","","","101.95","","","","-28","","NA"
"-64.32","48.42","CAP-D'ESPOIR","7051050","2022-02-26 07:00","2022","02","26","07:00","-17.5","","-22.4","","66","","","","28","","14","","","","101.98","","","","-26","","NA"
"-64.32","48.42","CAP-D'ESPOIR","7051050","2022-02-26 08:00","2022","02","26","08:00","-15.9","","-22.0","","59","","","","26","","12","","","","101.99","","","","-23","","NA"
"-64.32","48.42","CAP-D'ESPOIR","7051050","2022-02-26 09:00","2022","02","26","09:00","-14.3","","-21.4","","55","","","","26","","11","","","","101.93","","","","-21","","NA"
"-64.32","48.42","CAP-D'ESPOIR","7051050","2022-02-26 10:00","2022","02","26","10:00","-13.1","","-19.3","","59","","","","23","","16","","","","101.87","","","","-21","","NA"
"-64.32","48.42","CAP-D'ESPOIR","7051050","2022-02-26 11:00","2022","02","26","11:00","-12.5","","-18.8","","59","","","","17","","15","","","","101.79","","","","-20","","NA"
"-64.32","48.42","CAP-D'ESPOIR","7051050","2022-02-26 12:00","2022","02","26","12:00","-11.8","","-18.4","","58","","","","19","","18","","","","101.67","","","","-20","","NA"
"-64.32","48.42","CAP-D'ESPOIR","7051050","2022-02-26 13:00","2022","02","26","13:00","-10.5","","-16.9","","59","","","","19","","21","","","","101.54","","","","-19","","NA"
"-64.32","48.42","CAP-D'ESPOIR","7051050","2022-02-26 14:00","2022","02","26","14:00","-8.5","","-14.7","","61","","","","20","","31","","","","101.40","","","","-18","","NA"
"-64.32","48.42","CAP-D'ESPOIR","7051050","2022-02-26 15:00","2022","02","26","15:00","-8.6","","-14.4","","63","","","","20","","44","","","","101.29","","","","-19","","NA"
"-64.32","48.42","CAP-D'ESPOIR","7051050","2022-02-26 16:00","2022","02","26","16:00","-8.2","","-14.7","","60","","","","14","","38","","","","101.24","","","","-18","","NA"
"-64.32","48.42","CAP-D'ESPOIR","7051050","2022-02-26 17:00","2022","02","26","17:00","-8.8","","-15.5","","58","","","","19","","42","","","","101.20","","","","-19","","NA"
"-64.32","48.42","CAP-D'ESPOIR","7051050","2022-02-26 18:00","2022","02","26","18:00","-9.1","","-15.6","","59","","","","24","","32","","","","101.20","","","","-19","","NA"
"-64.32","48.42","CAP-D'ESPOIR","7051050","2022-02-26 19:00","2022","02","26","19:00","-9.0","","-16.1","","57","","","","24","","32","","","","101.15","","","","-18","","NA"
"-64.32","48.42","CAP-D'ESPOIR","7051050","2022-02-26 20:00","2022","02","26","20:00","-9.8","","-16.2","","59","","","","25","","27","","","","101.07","","","","-19","","NA"
"-64.32","48.42","CAP-D'ESPOIR","7051050","2022-02-26 21:00","2022","02","26","21:00","-9.8","","-16.0","","61","","","","25","","21","","","","101.02","","","","-18","","NA"
"-64.32","48.42","CAP-D'ESPOIR","7051050","2022-02-26 22:00","2022","02","26","22:00","-9.8","","-15.9","","61","","","","25","","25","","","","100.90","","","","-19","","NA"
"-64.32","48.42","CAP-D'ESPOIR","7051050","2022-02-26 23:00","2022","02","26","23:00","-8.7","","-15.2","","59","","","","24","","39","","","","100.82","","","","-19","","NA"
"-64.32","48.42","CAP-D'ESPOIR","7051050","2022-02-27 00:00","2022","02","27","00:00","-9.0","","-15.3","","60","","","","25","","21","","","","100.78","","","","-17","","NA"
"-64.32","48.42","CAP-D'ESPOIR","7051050","2022-02-27 01:00","2022","02","27","01:00","-9.8","","-14.8","","67","","","","25","","16","","","","100.65","","","","-17","","NA"
"-64.32","48.42","CAP-D'ESPOIR","7051050","2022-02-27 02:00","2022","02","27","02:00","-9.7","","-14.8","","66","","","","25","","15","","","","100.53","","","","-16","","NA"
"-64.32","48.42","CAP-D'ESPOIR","7051050","2022-02-27 03:00","2022","02","27","03:00","-9.1","","-14.5","","65","","","","24","","21","","","","100.41","","","","-17","","NA"
"-64.32","48.42","CAP-D'ESPOIR","7051050","2022-02-27 04:00","2022","02","27","04:00","-9.1","","-14.4","","65","","","","25","","24","","","","100.33","","","","-17","","NA"
"-64.32","48.42","CAP-D'ESPOIR","7051050","2022-02-27 05:00","2022","02","27","05:00","-9.2","","-13.6","","70","","","","25","","21","","","","100.28","","","","-17","","NA"
"-64.32","48.42","CAP-D'ESPOIR","7051050","2022-02-27 06:00","2022","02","27","06:00","-9.1","","-13.2","","72","","","","25","","24","","","","100.24","","","","-17","","NA"
"-64.32","48.42","CAP-D'ESPOIR","7051050","2022-02-27 07:00","2022","02","27","07:00","-9.4","","-13.6","","71","","","","26","","20","","","","100.18","","","","-17","","NA"
"-64.32","48.42","CAP-D'ESPOIR","7051050","2022-02-27 08:00","2022","02","27","08:00","-9.2","","-13.7","","70","","","","26","","17","","","","100.11","","","","-16","","NA"
"-64.32","48.42","CAP-D'ESPOIR","7051050","2022-02-27 09:00","2022","02","27","09:00","-8.7","","-13.1","","70","","","","25","","13","","","","100.03","","","","-15","","NA"
"-64.32","48.42","CAP-D'ESPOIR","7051050","2022-02-27 10:00","2022","02","27","10:00","-7.4","","-10.8","","77","","","","24","","23","","","","99.90","","","","-15","","NA"
"-64.32","48.42","CAP-D'ESPOIR","7051050","2022-02-27 11:00","2022","02","27","11:00","-6.8","","-10.3","","76","","","","23","","34","","","","99.82","","","","-16","","NA"
"-64.32","48.42","CAP-D'ESPOIR","7051050","2022-02-27 12:00","2022","02","27","12:00","-6.0","","-9.5","","76","","","","23","","36","","","","99.69","","","","-15","","NA"
"-64.32","48.42","CAP-D'ESPOIR","7051050","2022-02-27 13:00","2022","02","27","13:00","-5.6","","-8.2","","82","","","","21","","34","","","","99.60","","","","-14","","NA"
"-64.32","48.42","CAP-D'ESPOIR","7051050","2022-02-27 14:00","2022","02","27","14:00","-4.8","","-7.9","","79","","","","22","","38","","","","99.51","","","","-14","","NA"
"-64.32","48.42","CAP-D'ESPOIR","7051050","2022-02-27 15:00","2022","02","27","15:00","-4.3","","-7.7","","77","","","","23","","39","","","","99.46","","","","-13","","NA"
"-64.32","48.42","CAP-D'ESPOIR","7051050","2022-02-27 16:00","2022","02","27","16:00","-4.0","","-7.4","","77","","","","22","","34","","","","99.47","","","","-12","","NA"
"-64.32","48.42","CAP-D'ESPOIR","7051050","2022-02-27 17:00","2022","02","27","17:00","-5.5","","-7.1","","88","","","","30","","16","","","","99.55","","","","-11","","NA"
"-64.32","48.42","CAP-D'ESPOIR","7051050","2022-02-27 18:00","2022","02","27","18:00","-6.1","","-7.8","","88","","","","25","","10","","","","99.59","","","","-11","","NA"
"-64.32","48.42","CAP-D'ESPOIR","7051050","2022-02-27 19:00","2022","02","27","19:00","-7.9","","-9.9","","86","","","","33","","8","","","","99.60","","","","-12","","NA"
"-64.32","48.42","CAP-D'ESPOIR","7051050","2022-02-27 20:00","2022","02","27","20:00","-8.5","","-11.1","","81","","","","32","","14","","","","99.67","","","","-15","","NA"
"-64.32","48.42","CAP-D'ESPOIR","7051050","2022-02-27 21:00","2022","02","27","21:00","-7.6","","-12.7","","67","","","","34","","19","","","","99.68","","","","-15","","NA"
"-64.32","48.42","CAP-D'ESPOIR","7051050","2022-02-27 22:00","2022","02","27","22:00","-8.3","","-13.9","","64","","","","35","","23","","","","99.74","","","","-16","","NA"
"-64.32","48.42","CAP-D'ESPOIR","7051050","2022-02-27 23:00","2022","02","27","23:00","-9.0","","-16.1","","56","","","","34","","20","","","","99.75","","","","-17","","NA"
"-64.32","48.42","CAP-D'ESPOIR","7051050","2022-02-28 00:00","2022","02","28","00:00","-9.8","","-17.1","","55","","","","33","","20","","","","99.81","","","","-18","","NA"
"-64.32","48.42","CAP-D'ESPOIR","7051050","2022-02-28 01:00","2022","02","28","01:00","-10.5","","-17.3","","57","","","","32","","18","","","","99.87","","","","-18","","NA"
"-64.32","48.42","CAP-D'ESPOIR","7051050","2022-02-28 02:00","2022","02","28","02:00","-10.9","","-17.1","","60","","","","32","","18","","","","99.88","","","","-19","","NA"
"-64.32","48.42","CAP-D'ESPOIR","7051050","2022-02-28 03:00","2022","02","28","03:00","-11.6","","-17.1","","64","","","","30","","12","","","","99.94","","","","-18","","NA"
"-64.32","48.42","CAP-D'ESPOIR","7051050","2022-02-28 04:00","2022","02","28","04:00","-12.3","","-17.1","","67","","","","31","","12","","","","100.01","","","","-19","","NA"
"-64.32","48.42","CAP-D'ESPOIR","7051050","2022-02-28 05:00","2022","02","28","05:00","-12.8","","-18.8","","61","","","","31","","17","","","","100.12","","","","-21","","NA"
"-64.32","48.42","CAP-D'ESPOIR","7051050","2022-02-28 06:00","2022","02","28","06:00","-13.3","","-19.6","","59","","","","30","","13","","","","100.21","","","","-20","","NA"
"-64.32","48.42","CAP-D'ESPOIR","7051050","2022-02-28 07:00","2022","02","28","07:00","-13.7","","-17.4","","73","","","","27","","8","","","","100.31","","","","-19","","NA"
"-64.32","48.42","CAP-D'ESPOIR","7051050","2022-02-28 08:00","2022","02","28","08:00","-13.2","","-21.6","","50","","","","31","","28","","","","100.39","","","","-23","","NA"
"-64.32","48.42","CAP-D'ESPOIR","7051050","2022-02-28 09:00","2022","02","28","09:00","-13.5","","-21.6","","51","","","","30","","23","","","","100.46","","","","-23","","NA"
"-64.32","48.42","CAP-D'ESPOIR","7051050","2022-02-28 10:00","2022","02","28","10:00","-13.5","","-22.5","","47","","","","30","","31","","","","100.52","","","","-24","","NA"
"-64.32","48.42","CAP-D'ESPOIR","7051050","2022-02-28 11:00","2022","02","28","11:00","-12.6","","-22.3","","44","","","","29","","22","","","","100.53","","","","-22","","NA"
"-64.32","48.42","CAP-D'ESPOIR","7051050","2022-02-28 12:00","2022","02","28","12:00","-11.3","","-22.3","","40","","","","30","","21","","","","100.50","","","","-20","","NA"
"-64.32","48.42","CAP-D'ESPOIR","7051050","2022-02-28 13:00","2022","02","28","13:00","-10.6","","-21.5","","40","","","","31","","21","","","","100.48","","","","-19","","NA"
"-64.32","48.42","CAP-D'ESPOIR","7051050","2022-02-28 14:00","2022","02","28","14:00","-10.6","","-22.0","","39","","","","30","","28","","","","100.53","","","","-20","","NA"
"-64.32","48.42","CAP-D'ESPOIR","7051050","2022-02-28 15:00","2022","02","28","15:00","-10.7","","-21.6","","40","","","","30","","23","","","","100.60","","","","-19","","NA"
"-64.32","48.42","CAP-D'ESPOIR","7051050","2022-02-28 16:00","2022","02","28","16:00","-11.3","","-21.6","","42","","","","28","","25","","","","100.71","","","","-20","","NA"
"-64.32","48.42","CAP-D'ESPOIR","7051050","2022-02-28 17:00","2022","02","28","17:00","-12.5","","-21.9","","45","","","","29","","20","","","","100.88","","","","-21","","NA"
"-64.32","48.42","CAP-D'ESPOIR","7051050","2022-02-28 18:00","2022","02","28","18:00","-13.5","","-22.0","","49","","","","28","","19","","","","101.04","","","","-22","","NA"
"-64.32","48.42","CAP-D'ESPOIR","7051050","2022-02-28 19:00","2022","02","28","19:00","-14.2","","-21.5","","54","","","","26","","16","","","","101.14","","","","-22","","NA"
"-64.32","48.42","CAP-D'ESPOIR","7051050","2022-02-28 20:00","2022","02","28","20:00","-15.2","","-21.4","","59","","","","27","","17","","","","101.23","","","","-24","","NA"
"-64.32","48.42","CAP-D'ESPOIR","7051050","2022-02-28 21:00","2022","02","28","21:00","-15.0","","-20.9","","61","","","","26","","14","","","","101.32","","","","-23","","NA"
"-64.32","48.42","CAP-D'ESPOIR","7051050","2022-02-28 22:00","2022","02","28","22:00","-15.8","","-21.5","","62","","","","26","","15","","","","101.41","","","","-24","","NA"
"-64.32","48.42","CAP-D'ESPOIR","7051050","2022-02-28 23:00","2022","02","28","23:00","-16.2","","-21.7","","62","","","","29","","14","","","","101.45","","","","-24","","NA"
