"Longitude (x)","Latitude (y)","Station Name","Climate ID","Date/Time (LST)","Year","Month","Day","Time (LST)","Temp (°C)","Temp Flag","Dew Point Temp (°C)","Dew Point Temp Flag","Rel Hum (%)","Rel Hum Flag","Precip. Amount (mm)","Precip. Amount Flag","Wind Dir (10s deg)","Wind Dir Flag","Wind Spd (km/h)","Wind Spd Flag","Visibility (km)","Visibility Flag","Stn Press (kPa)","Stn Press Flag","Hmdx","Hmdx Flag","Wind Chill","Wind Chill Flag","Weather"
"-139.84","67.57","OLD CROW A","2100807","2021-03-01 00:00","2021","03","01","00:00","-35.1","","-38.9","","69","","","M","25","","5","","","M","98.72","","","","-41","","NA"
"-139.84","67.57","OLD CROW A","2100807","2021-03-01 01:00","2021","03","01","01:00","-35.1","","-39.2","","67","","","M","0","","1","","","M","98.65","","","","-36","","NA"
"-139.84","67.57","OLD CROW A","2100807","2021-03-01 02:00","2021","03","01","02:00","-34.5","","-38.9","","65","","","M","27","","7","","","M","98.62","","","","-43","","NA"
"-139.84","67.57","OLD CROW A","2100807","2021-03-01 03:00","2021","03","01","03:00","-34.9","","-39.0","","67","","","M","7","","2","","","M","98.53","","","","-37","","NA"
"-139.84","67.57","OLD CROW A","2100807","2021-03-01 04:00","2021","03","01","04:00","-35.0","","-39.2","","67","","","M","30","","4","","","M","98.37","","","","-40","","NA"
"-139.84","67.57","OLD CROW A","2100807","2021-03-01 05:00","2021","03","01","05:00","-34.4","","-38.5","","67","","","M","9","","3","","","M","98.23","","","","-38","","NA"
"-139.84","67.57","OLD CROW A","2100807","2021-03-01 06:00","2021","03","01","06:00","-31.1","","-35.6","","66","","","M","7","","14","","","M","98.07","","","","-42","","NA"
"-139.84","67.57","OLD CROW A","2100807","2021-03-01 07:00","2021","03","01","07:00","-30.7","","-35.5","","64","","","M","8","","18","","","M","97.92","","","","-43","","NA"
"-139.84","67.57","OLD CROW A","2100807","2021-03-01 08:00","2021","03","01","08:00","-30.1","","-34.8","","65","","","M","6","","15","","","M","97.76","","","","-42","","NA"
"-139.84","67.57","OLD CROW A","2100807","2021-03-01 09:00","2021","03","01","09:00","-29.3","","-34.3","","63","","","M","4","","22","","","M","97.62","","","","-43","","NA"
"-139.84","67.57","OLD CROW A","2100807","2021-03-01 10:00","2021","03","01","10:00","-28.8","","-34.2","","61","","","M","4","","19","","","M","97.56","","","","-41","","NA"
"-139.84","67.57","OLD CROW A","2100807","2021-03-01 11:00","2021","03","01","11:00","-28.4","","-34.0","","60","","","M","5","","19","","","M","97.44","","","","-41","","NA"
"-139.84","67.57","OLD CROW A","2100807","2021-03-01 12:00","2021","03","01","12:00","-28.0","","-34.0","","58","","","M","6","","21","","","M","97.34","","","","-41","","NA"
"-139.84","67.57","OLD CROW A","2100807","2021-03-01 13:00","2021","03","01","13:00","-28.1","","-34.1","","57","","","M","5","","23","","","M","97.25","","","","-42","","NA"
"-139.84","67.57","OLD CROW A","2100807","2021-03-01 14:00","2021","03","01","14:00","-27.7","","-33.7","","57","","","M","6","","21","","","M","97.12","","","","-40","","NA"
"-139.84","67.57","OLD CROW A","2100807","2021-03-01 15:00","2021","03","01","15:00","-27.1","","-33.1","","57","","","M","4","","18","","","M","97.06","","","","-39","","NA"
"-139.84","67.57","OLD CROW A","2100807","2021-03-01 16:00","2021","03","01","16:00","-26.2","","-32.3","","57","","","M","5","","16","","","M","96.94","","","","-37","","NA"
"-139.84","67.57","OLD CROW A","2100807","2021-03-01 17:00","2021","03","01","17:00","-27.3","","-33.1","","59","","","M","6","","18","","","M","96.87","","","","-39","","NA"
"-139.84","67.57","OLD CROW A","2100807","2021-03-01 18:00","2021","03","01","18:00","-27.8","","-33.1","","61","","","M","3","","24","","","M","96.79","","","","-41","","NA"
"-139.84","67.57","OLD CROW A","2100807","2021-03-01 19:00","2021","03","01","19:00","-27.9","","-33.1","","62","","","M","4","","18","","","M","96.74","","","","-40","","NA"
"-139.84","67.57","OLD CROW A","2100807","2021-03-01 20:00","2021","03","01","20:00","-27.6","","-32.7","","62","","","M","4","","21","","","M","96.70","","","","-40","","NA"
"-139.84","67.57","OLD CROW A","2100807","2021-03-01 21:00","2021","03","01","21:00","-27.2","","-32.5","","62","","","M","3","","23","","","M","96.67","","","","-40","","NA"
"-139.84","67.57","OLD CROW A","2100807","2021-03-01 22:00","2021","03","01","22:00","-27.0","","-32.2","","62","","","M","3","","20","","","M","96.65","","","","-39","","NA"
"-139.84","67.57","OLD CROW A","2100807","2021-03-01 23:00","2021","03","01","23:00","-27.1","","-32.2","","63","","","M","3","","23","","","M","96.62","","","","-40","","NA"
"-139.84","67.57","OLD CROW A","2100807","2021-03-02 00:00","2021","03","02","00:00","-27.7","","-32.5","","64","","","M","4","","24","","","M","96.60","","","","-41","","NA"
"-139.84","67.57","OLD CROW A","2100807","2021-03-02 01:00","2021","03","02","01:00","-27.5","","-32.1","","66","","","M","3","","19","","","M","96.58","","","","-40","","NA"
"-139.84","67.57","OLD CROW A","2100807","2021-03-02 02:00","2021","03","02","02:00","-27.7","","-32.6","","64","","","M","3","","21","","","M","96.59","","","","-40","","NA"
"-139.84","67.57","OLD CROW A","2100807","2021-03-02 03:00","2021","03","02","03:00","-27.7","","-32.6","","64","","","M","3","","21","","","M","96.60","","","","-40","","NA"
"-139.84","67.57","OLD CROW A","2100807","2021-03-02 04:00","2021","03","02","04:00","-27.5","","-32.4","","64","","","M","5","","18","","","M","96.61","","","","-39","","NA"
"-139.84","67.57","OLD CROW A","2100807","2021-03-02 05:00","2021","03","02","05:00","-27.5","","-32.5","","64","","","M","5","","15","","","M","96.62","","","","-38","","NA"
"-139.84","67.57","OLD CROW A","2100807","2021-03-02 06:00","2021","03","02","06:00","-28.0","","-33.0","","63","","","M","7","","14","","","M","96.64","","","","-39","","NA"
"-139.84","67.57","OLD CROW A","2100807","2021-03-02 07:00","2021","03","02","07:00","-28.6","","-33.7","","62","","","M","4","","18","","","M","96.66","","","","-41","","NA"
"-139.84","67.57","OLD CROW A","2100807","2021-03-02 08:00","2021","03","02","08:00","-28.3","","-33.5","","61","","","M","3","","25","","","M","96.69","","","","-42","","NA"
"-139.84","67.57","OLD CROW A","2100807","2021-03-02 09:00","2021","03","02","09:00","-28.5","","-34.1","","60","","","M","4","","22","","","M","96.72","","","","-42","","NA"
"-139.84","67.57","OLD CROW A","2100807","2021-03-02 10:00","2021","03","02","10:00","-28.2","","-33.8","","60","","","M","3","","21","","","M","96.76","","","","-41","","NA"
"-139.84","67.57","OLD CROW A","2100807","2021-03-02 11:00","2021","03","02","11:00","-27.8","","-33.6","","59","","","M","4","","21","","","M","96.80","","","","-41","","NA"
"-139.84","67.57","OLD CROW A","2100807","2021-03-02 12:00","2021","03","02","12:00","-27.1","","-33.2","","57","","","M","4","","19","","","M","96.84","","","","-39","","NA"
"-139.84","67.57","OLD CROW A","2100807","2021-03-02 13:00","2021","03","02","13:00","-27.1","","-33.4","","57","","","M","4","","21","","","M","96.87","","","","-40","","NA"
"-139.84","67.57","OLD CROW A","2100807","2021-03-02 14:00","2021","03","02","14:00","-27.9","","-33.7","","58","","","M","3","","30","","","M","96.92","","","","-43","","NA"
"-139.84","67.57","OLD CROW A","2100807","2021-03-02 15:00","2021","03","02","15:00","-27.1","","-32.9","","59","","","M","4","","27","","","M","96.99","","","","-41","","NA"
"-139.84","67.57","OLD CROW A","2100807","2021-03-02 16:00","2021","03","02","16:00","-27.0","","-32.7","","59","","","M","4","","22","","","M","97.03","","","","-40","","NA"
"-139.84","67.57","OLD CROW A","2100807","2021-03-02 17:00","2021","03","02","17:00","-26.8","","-32.3","","60","","","M","4","","17","","","M","97.09","","","","-38","","NA"
"-139.84","67.57","OLD CROW A","2100807","2021-03-02 18:00","2021","03","02","18:00","-27.3","","-32.7","","61","","","M","3","","20","","","M","97.09","","","","-40","","NA"
"-139.84","67.57","OLD CROW A","2100807","2021-03-02 19:00","2021","03","02","19:00","-27.6","","-33.2","","59","","","M","2","","28","","","M","97.15","","","","-42","","NA"
"-139.84","67.57","OLD CROW A","2100807","2021-03-02 20:00","2021","03","02","20:00","-27.3","","-33.1","","59","","","M","3","","23","","","M","97.20","","","","-41","","NA"
"-139.84","67.57","OLD CROW A","2100807","2021-03-02 21:00","2021","03","02","21:00","-28.2","","-33.6","","60","","","M","5","","17","","","M","97.28","","","","-40","","NA"
"-139.84","67.57","OLD CROW A","2100807","2021-03-02 22:00","2021","03","02","22:00","-27.6","","-33.0","","61","","","M","2","","26","","","M","97.33","","","","-42","","NA"
"-139.84","67.57","OLD CROW A","2100807","2021-03-02 23:00","2021","03","02","23:00","-27.8","","-33.5","","59","","","M","3","","22","","","M","97.41","","","","-41","","NA"
"-139.84","67.57","OLD CROW A","2100807","2021-03-03 00:00","2021","03","03","00:00","-27.7","","-33.4","","60","","","M","3","","26","","","M","97.48","","","","-42","","NA"
"-139.84","67.57","OLD CROW A","2100807","2021-03-03 01:00","2021","03","03","01:00","-27.9","","-33.4","","61","","","M","3","","22","","","M","97.53","","","","-41","","NA"
"-139.84","67.57","OLD CROW A","2100807","2021-03-03 02:00","2021","03","03","02:00","-27.7","","-33.0","","61","","","M","3","","22","","","M","97.59","","","","-41","","NA"
"-139.84","67.57","OLD CROW A","2100807","2021-03-03 03:00","2021","03","03","03:00","-27.4","","-32.6","","62","","","M","2","","22","","","M","97.64","","","","-40","","NA"
"-139.84","67.57","OLD CROW A","2100807","2021-03-03 04:00","2021","03","03","04:00","-27.8","","-32.8","","63","","","M","3","","23","","","M","97.71","","","","-41","","NA"
"-139.84","67.57","OLD CROW A","2100807","2021-03-03 05:00","2021","03","03","05:00","-27.9","","-32.9","","63","","","M","3","","21","","","M","97.79","","","","-41","","NA"
"-139.84","67.57","OLD CROW A","2100807","2021-03-03 06:00","2021","03","03","06:00","-27.7","","-32.8","","63","","","M","2","","22","","","M","97.83","","","","-41","","NA"
"-139.84","67.57","OLD CROW A","2100807","2021-03-03 07:00","2021","03","03","07:00","-27.6","","-32.8","","62","","","M","3","","21","","","M","97.92","","","","-40","","NA"
"-139.84","67.57","OLD CROW A","2100807","2021-03-03 08:00","2021","03","03","08:00","-27.3","","-32.6","","61","","","M","4","","18","","","M","97.96","","","","-39","","NA"
"-139.84","67.57","OLD CROW A","2100807","2021-03-03 09:00","2021","03","03","09:00","-26.6","","-32.3","","60","","","M","3","","23","","","M","98.01","","","","-40","","NA"
"-139.84","67.57","OLD CROW A","2100807","2021-03-03 10:00","2021","03","03","10:00","-26.4","","-32.0","","60","","","M","4","","19","","","M","98.06","","","","-38","","NA"
"-139.84","67.57","OLD CROW A","2100807","2021-03-03 11:00","2021","03","03","11:00","-26.1","","-31.9","","59","","","M","4","","20","","","M","98.13","","","","-38","","NA"
"-139.84","67.57","OLD CROW A","2100807","2021-03-03 12:00","2021","03","03","12:00","-25.8","","-31.9","","58","","","M","4","","23","","","M","98.22","","","","-39","","NA"
"-139.84","67.57","OLD CROW A","2100807","2021-03-03 13:00","2021","03","03","13:00","-25.6","","-31.6","","58","","","M","4","","21","","","M","98.29","","","","-38","","NA"
"-139.84","67.57","OLD CROW A","2100807","2021-03-03 14:00","2021","03","03","14:00","-25.3","","-31.5","","57","","","M","4","","21","","","M","98.34","","","","-37","","NA"
"-139.84","67.57","OLD CROW A","2100807","2021-03-03 15:00","2021","03","03","15:00","-25.1","","-31.5","","56","","","M","4","","19","","","M","98.39","","","","-37","","NA"
"-139.84","67.57","OLD CROW A","2100807","2021-03-03 16:00","2021","03","03","16:00","-25.0","","-31.2","","57","","","M","3","","22","","","M","98.43","","","","-37","","NA"
"-139.84","67.57","OLD CROW A","2100807","2021-03-03 17:00","2021","03","03","17:00","-24.7","","-30.6","","59","","","M","4","","21","","","M","98.48","","","","-37","","NA"
"-139.84","67.57","OLD CROW A","2100807","2021-03-03 18:00","2021","03","03","18:00","-25.0","","-30.5","","61","","","M","4","","22","","","M","98.55","","","","-37","","NA"
"-139.84","67.57","OLD CROW A","2100807","2021-03-03 19:00","2021","03","03","19:00","-25.5","","-30.8","","62","","","M","3","","22","","","M","98.61","","","","-38","","NA"
"-139.84","67.57","OLD CROW A","2100807","2021-03-03 20:00","2021","03","03","20:00","-25.1","","-30.4","","62","","","M","3","","22","","","M","98.65","","","","-37","","NA"
"-139.84","67.57","OLD CROW A","2100807","2021-03-03 21:00","2021","03","03","21:00","-25.2","","-30.5","","62","","","M","3","","19","","","M","98.70","","","","-37","","NA"
"-139.84","67.57","OLD CROW A","2100807","2021-03-03 22:00","2021","03","03","22:00","-25.5","","-30.6","","63","","","M","2","","23","","","M","98.75","","","","-38","","NA"
"-139.84","67.57","OLD CROW A","2100807","2021-03-03 23:00","2021","03","03","23:00","-25.0","","-30.1","","63","","","M","3","","19","","","M","98.78","","","","-37","","NA"
"-139.84","67.57","OLD CROW A","2100807","2021-03-04 00:00","2021","03","04","00:00","-24.4","","-29.6","","63","","","M","4","","16","","","M","98.82","","","","-35","","NA"
"-139.84","67.57","OLD CROW A","2100807","2021-03-04 01:00","2021","03","04","01:00","-24.3","","-29.5","","63","","","M","3","","12","","","M","98.87","","","","-33","","NA"
"-139.84","67.57","OLD CROW A","2100807","2021-03-04 02:00","2021","03","04","02:00","-26.2","","-30.8","","66","","","M","22","","5","","","M","98.91","","","","-31","","NA"
"-139.84","67.57","OLD CROW A","2100807","2021-03-04 03:00","2021","03","04","03:00","-27.1","","-31.4","","68","","","M","23","","5","","","M","98.95","","","","-32","","NA"
"-139.84","67.57","OLD CROW A","2100807","2021-03-04 04:00","2021","03","04","04:00","-29.1","","-32.6","","73","","","M","28","","2","","","M","98.95","","","","-31","","NA"
"-139.84","67.57","OLD CROW A","2100807","2021-03-04 05:00","2021","03","04","05:00","-30.7","","-34.1","","72","","","M","26","","5","","","M","98.94","","","","-36","","NA"
"-139.84","67.57","OLD CROW A","2100807","2021-03-04 06:00","2021","03","04","06:00","-32.2","","-35.7","","72","","","M","0","","1","","","M","98.95","","","","-33","","NA"
"-139.84","67.57","OLD CROW A","2100807","2021-03-04 07:00","2021","03","04","07:00","-32.1","","-35.7","","71","","","M","25","","5","","","M","98.95","","","","-38","","NA"
"-139.84","67.57","OLD CROW A","2100807","2021-03-04 08:00","2021","03","04","08:00","-33.1","","-36.6","","71","","","M","28","","3","","","M","98.95","","","","-37","","NA"
"-139.84","67.57","OLD CROW A","2100807","2021-03-04 09:00","2021","03","04","09:00","-33.8","","-37.7","","69","","","M","8","","2","","","M","98.91","","","","-36","","NA"
"-139.84","67.57","OLD CROW A","2100807","2021-03-04 10:00","2021","03","04","10:00","-31.9","","-35.6","","70","","","M","24","","3","","","M","98.85","","","","-35","","NA"
"-139.84","67.57","OLD CROW A","2100807","2021-03-04 11:00","2021","03","04","11:00","-29.3","","-33.6","","67","","","M","27","","7","","","M","98.81","","","","-36","","NA"
"-139.84","67.57","OLD CROW A","2100807","2021-03-04 12:00","2021","03","04","12:00","-27.1","","-32.4","","62","","","M","26","","8","","","M","98.74","","","","-35","","NA"
"-139.84","67.57","OLD CROW A","2100807","2021-03-04 13:00","2021","03","04","13:00","-22.8","","-29.5","","55","","","M","5","","15","","","M","98.66","","","","-33","","NA"
"-139.84","67.57","OLD CROW A","2100807","2021-03-04 14:00","2021","03","04","14:00","-21.8","","-28.8","","54","","","M","6","","11","","","M","98.56","","","","-30","","NA"
"-139.84","67.57","OLD CROW A","2100807","2021-03-04 15:00","2021","03","04","15:00","-21.2","","-28.2","","54","","","M","6","","8","","","M","98.48","","","","-28","","NA"
"-139.84","67.57","OLD CROW A","2100807","2021-03-04 16:00","2021","03","04","16:00","-21.1","","-28.1","","54","","","M","8","","10","","","M","98.35","","","","-29","","NA"
"-139.84","67.57","OLD CROW A","2100807","2021-03-04 17:00","2021","03","04","17:00","-21.6","","-28.3","","56","","","M","8","","9","","","M","98.27","","","","-29","","NA"
"-139.84","67.57","OLD CROW A","2100807","2021-03-04 18:00","2021","03","04","18:00","-23.9","","-29.4","","61","","","M","9","","10","","","M","98.20","","","","-32","","NA"
"-139.84","67.57","OLD CROW A","2100807","2021-03-04 19:00","2021","03","04","19:00","-25.3","","-30.1","","65","","","M","9","","9","","","M","98.13","","","","-33","","NA"
"-139.84","67.57","OLD CROW A","2100807","2021-03-04 20:00","2021","03","04","20:00","-24.8","","-29.4","","66","","","M","8","","9","","","M","98.02","","","","-32","","NA"
"-139.84","67.57","OLD CROW A","2100807","2021-03-04 21:00","2021","03","04","21:00","-26.8","","-30.8","","69","","","M","30","","4","","","M","97.94","","","","-31","","NA"
"-139.84","67.57","OLD CROW A","2100807","2021-03-04 22:00","2021","03","04","22:00","-26.6","","-30.8","","68","","","M","26","","5","","","M","97.86","","","","-32","","NA"
"-139.84","67.57","OLD CROW A","2100807","2021-03-04 23:00","2021","03","04","23:00","-28.0","","-31.9","","70","","","M","27","","3","","","M","97.79","","","","-31","","NA"
"-139.84","67.57","OLD CROW A","2100807","2021-03-05 00:00","2021","03","05","00:00","-29.8","","-33.3","","72","","","M","31","","3","","","M","97.73","","","","-33","","NA"
"-139.84","67.57","OLD CROW A","2100807","2021-03-05 01:00","2021","03","05","01:00","-30.6","","-34.3","","71","","","M","27","","4","","","M","97.68","","","","-35","","NA"
"-139.84","67.57","OLD CROW A","2100807","2021-03-05 02:00","2021","03","05","02:00","-29.8","","-33.3","","72","","","M","30","","1","","","M","97.65","","","","-31","","NA"
"-139.84","67.57","OLD CROW A","2100807","2021-03-05 03:00","2021","03","05","03:00","-30.6","","-34.3","","71","","","M","23","","2","","","M","97.61","","","","-33","","NA"
"-139.84","67.57","OLD CROW A","2100807","2021-03-05 04:00","2021","03","05","04:00","-31.2","","-34.8","","71","","","M","36","","1","","","M","97.56","","","","-32","","NA"
"-139.84","67.57","OLD CROW A","2100807","2021-03-05 05:00","2021","03","05","05:00","-31.9","","-35.4","","72","","","M","28","","4","","","M","97.52","","","","-37","","NA"
"-139.84","67.57","OLD CROW A","2100807","2021-03-05 06:00","2021","03","05","06:00","-32.4","","-36.2","","70","","","M","28","","3","","","M","97.48","","","","-36","","NA"
"-139.84","67.57","OLD CROW A","2100807","2021-03-05 07:00","2021","03","05","07:00","-33.3","","-36.8","","72","","","M","12","","3","","","M","97.43","","","","-37","","NA"
"-139.84","67.57","OLD CROW A","2100807","2021-03-05 08:00","2021","03","05","08:00","-33.3","","-36.8","","71","","","M","9","","3","","","M","97.36","","","","-37","","NA"
"-139.84","67.57","OLD CROW A","2100807","2021-03-05 09:00","2021","03","05","09:00","-33.7","","-37.4","","70","","","M","6","","3","","","M","97.34","","","","-37","","NA"
"-139.84","67.57","OLD CROW A","2100807","2021-03-05 10:00","2021","03","05","10:00","-31.5","","-35.4","","69","","","M","19","","1","","","M","97.31","","","","-33","","NA"
"-139.84","67.57","OLD CROW A","2100807","2021-03-05 11:00","2021","03","05","11:00","-29.9","","-33.9","","69","","","M","29","","1","","","M","97.27","","","","-31","","NA"
"-139.84","67.57","OLD CROW A","2100807","2021-03-05 12:00","2021","03","05","12:00","-26.9","","-32.1","","63","","","M","23","","3","","","M","97.25","","","","-30","","NA"
"-139.84","67.57","OLD CROW A","2100807","2021-03-05 13:00","2021","03","05","13:00","-25.2","","-30.6","","62","","","M","23","","3","","","M","97.20","","","","-28","","NA"
"-139.84","67.57","OLD CROW A","2100807","2021-03-05 14:00","2021","03","05","14:00","-23.4","","-29.7","","57","","","M","5","","3","","","M","97.15","","","","-26","","NA"
"-139.84","67.57","OLD CROW A","2100807","2021-03-05 15:00","2021","03","05","15:00","-21.7","","-28.1","","57","","","M","11","","3","","","M","97.12","","","","-24","","NA"
"-139.84","67.57","OLD CROW A","2100807","2021-03-05 16:00","2021","03","05","16:00","-20.8","","-27.2","","57","","","M","12","","4","","","M","97.10","","","","-24","","NA"
"-139.84","67.57","OLD CROW A","2100807","2021-03-05 17:00","2021","03","05","17:00","-19.7","","-26.5","","55","","","M","12","","2","","","M","97.06","","","","-21","","NA"
"-139.84","67.57","OLD CROW A","2100807","2021-03-05 18:00","2021","03","05","18:00","-20.4","","-26.0","","62","","","M","8","","7","","","M","97.06","","","","-26","","NA"
"-139.84","67.57","OLD CROW A","2100807","2021-03-05 19:00","2021","03","05","19:00","-22.9","","-27.3","","68","","","M","5","","2","","","M","97.06","","","","-25","","NA"
"-139.84","67.57","OLD CROW A","2100807","2021-03-05 20:00","2021","03","05","20:00","-22.6","","-26.9","","69","","","M","7","","4","","","M","97.09","","","","-26","","NA"
"-139.84","67.57","OLD CROW A","2100807","2021-03-05 21:00","2021","03","05","21:00","-22.3","","-26.6","","69","","","M","9","","3","","","M","97.10","","","","-25","","NA"
"-139.84","67.57","OLD CROW A","2100807","2021-03-05 22:00","2021","03","05","22:00","-21.9","","-26.4","","68","","","M","21","","3","","","M","97.10","","","","-25","","NA"
"-139.84","67.57","OLD CROW A","2100807","2021-03-05 23:00","2021","03","05","23:00","-23.1","","-27.0","","71","","","M","28","","3","","","M","97.11","","","","-26","","NA"
"-139.84","67.57","OLD CROW A","2100807","2021-03-06 00:00","2021","03","06","00:00","-23.4","","-27.2","","71","","","M","22","","3","","","M","97.15","","","","-26","","NA"
"-139.84","67.57","OLD CROW A","2100807","2021-03-06 01:00","2021","03","06","01:00","-24.1","","-28.0","","71","","","M","25","","4","","","M","97.15","","","","-28","","NA"
"-139.84","67.57","OLD CROW A","2100807","2021-03-06 02:00","2021","03","06","02:00","-23.8","","-27.7","","71","","","M","25","","4","","","M","97.19","","","","-28","","NA"
"-139.84","67.57","OLD CROW A","2100807","2021-03-06 03:00","2021","03","06","03:00","-25.0","","-28.9","","71","","","M","23","","6","","","M","97.20","","","","-31","","NA"
"-139.84","67.57","OLD CROW A","2100807","2021-03-06 04:00","2021","03","06","04:00","-26.3","","-30.2","","71","","","M","23","","4","","","M","97.23","","","","-30","","NA"
"-139.84","67.57","OLD CROW A","2100807","2021-03-06 05:00","2021","03","06","05:00","-29.0","","-32.6","","72","","","M","24","","3","","","M","97.25","","","","-32","","NA"
"-139.84","67.57","OLD CROW A","2100807","2021-03-06 06:00","2021","03","06","06:00","-30.5","","-34.0","","72","","","M","26","","4","","","M","97.28","","","","-35","","NA"
"-139.84","67.57","OLD CROW A","2100807","2021-03-06 07:00","2021","03","06","07:00","-32.2","","-35.7","","72","","","M","1","","3","","","M","97.32","","","","-36","","NA"
"-139.84","67.57","OLD CROW A","2100807","2021-03-06 08:00","2021","03","06","08:00","-32.2","","-35.6","","73","","","M","12","","2","","","M","97.38","","","","-35","","NA"
"-139.84","67.57","OLD CROW A","2100807","2021-03-06 09:00","2021","03","06","09:00","-32.0","","-35.6","","71","","","M","10","","2","","","M","97.43","","","","-34","","NA"
"-139.84","67.57","OLD CROW A","2100807","2021-03-06 10:00","2021","03","06","10:00","-29.3","","-33.1","","70","","","M","8","","2","","","M","97.47","","","","-32","","NA"
"-139.84","67.57","OLD CROW A","2100807","2021-03-06 11:00","2021","03","06","11:00","-26.9","","-31.2","","67","","","M","1","","4","","","M","97.50","","","","-31","","NA"
"-139.84","67.57","OLD CROW A","2100807","2021-03-06 12:00","2021","03","06","12:00","-24.5","","-29.3","","65","","","M","4","","4","","","M","97.53","","","","-28","","NA"
"-139.84","67.57","OLD CROW A","2100807","2021-03-06 13:00","2021","03","06","13:00","-21.8","","-27.6","","60","","","M","5","","3","","","M","97.58","","","","-25","","NA"
"-139.84","67.57","OLD CROW A","2100807","2021-03-06 14:00","2021","03","06","14:00","-18.0","","-25.1","","54","","","M","10","","3","","","M","97.61","","","","-20","","NA"
"-139.84","67.57","OLD CROW A","2100807","2021-03-06 15:00","2021","03","06","15:00","-16.8","","-24.4","","52","","","M","8","","6","","","M","97.66","","","","-21","","NA"
"-139.84","67.57","OLD CROW A","2100807","2021-03-06 16:00","2021","03","06","16:00","-14.5","","-21.6","","55","","","M","26","","13","","","M","97.68","","","","-22","","NA"
"-139.84","67.57","OLD CROW A","2100807","2021-03-06 17:00","2021","03","06","17:00","-16.8","","-23.0","","59","","","M","11","","4","","","M","97.75","","","","-20","","NA"
"-139.84","67.57","OLD CROW A","2100807","2021-03-06 18:00","2021","03","06","18:00","-19.4","","-25.0","","62","","","M","9","","3","","","M","97.82","","","","-22","","NA"
"-139.84","67.57","OLD CROW A","2100807","2021-03-06 19:00","2021","03","06","19:00","-21.9","","-26.2","","69","","","M","10","","7","","","M","97.90","","","","-28","","NA"
"-139.84","67.57","OLD CROW A","2100807","2021-03-06 20:00","2021","03","06","20:00","-25.1","","-28.4","","74","","","M","11","","3","","","M","97.98","","","","-28","","NA"
"-139.84","67.57","OLD CROW A","2100807","2021-03-06 21:00","2021","03","06","21:00","-26.6","","-29.8","","75","","","M","8","","3","","","M","98.04","","","","-30","","NA"
"-139.84","67.57","OLD CROW A","2100807","2021-03-06 22:00","2021","03","06","22:00","-26.6","","-29.8","","75","","","M","28","","1","","","M","98.09","","","","-28","","NA"
"-139.84","67.57","OLD CROW A","2100807","2021-03-06 23:00","2021","03","06","23:00","-28.0","","-31.2","","75","","","M","4","","1","","","M","98.14","","","","-29","","NA"
"-139.84","67.57","OLD CROW A","2100807","2021-03-07 00:00","2021","03","07","00:00","-29.2","","-32.5","","74","","","M","34","","3","","","M","98.21","","","","-33","","NA"
"-139.84","67.57","OLD CROW A","2100807","2021-03-07 01:00","2021","03","07","01:00","-28.3","","-31.7","","73","","","M","11","","3","","","M","98.28","","","","-32","","NA"
"-139.84","67.57","OLD CROW A","2100807","2021-03-07 02:00","2021","03","07","02:00","-28.5","","-32.1","","72","","","M","","","0","","","M","98.31","","","","","","NA"
"-139.84","67.57","OLD CROW A","2100807","2021-03-07 03:00","2021","03","07","03:00","-28.1","","-31.5","","74","","","M","5","","2","","","M","98.35","","","","-30","","NA"
"-139.84","67.57","OLD CROW A","2100807","2021-03-07 04:00","2021","03","07","04:00","-27.7","","-31.2","","73","","","M","26","","1","","","M","98.40","","","","-29","","NA"
"-139.84","67.57","OLD CROW A","2100807","2021-03-07 05:00","2021","03","07","05:00","-25.1","","-28.2","","76","","","M","8","","7","","","M","98.45","","","","-32","","NA"
"-139.84","67.57","OLD CROW A","2100807","2021-03-07 06:00","2021","03","07","06:00","-25.0","","-28.3","","74","","","M","19","","1","","","M","98.51","","","","-26","","NA"
"-139.84","67.57","OLD CROW A","2100807","2021-03-07 07:00","2021","03","07","07:00","-24.4","","-27.8","","74","","","M","7","","3","","","M","98.57","","","","-27","","NA"
"-139.84","67.57","OLD CROW A","2100807","2021-03-07 08:00","2021","03","07","08:00","-24.5","","-27.9","","74","","","M","10","","4","","","M","98.63","","","","-28","","NA"
"-139.84","67.57","OLD CROW A","2100807","2021-03-07 09:00","2021","03","07","09:00","-24.8","","-28.4","","73","","","M","11","","6","","","M","98.68","","","","-31","","NA"
"-139.84","67.57","OLD CROW A","2100807","2021-03-07 10:00","2021","03","07","10:00","-24.5","","-28.3","","71","","","M","27","","3","","","M","98.76","","","","-27","","NA"
"-139.84","67.57","OLD CROW A","2100807","2021-03-07 11:00","2021","03","07","11:00","-23.9","","-27.7","","71","","","M","8","","4","","","M","98.83","","","","-28","","NA"
"-139.84","67.57","OLD CROW A","2100807","2021-03-07 12:00","2021","03","07","12:00","-22.7","","-26.9","","70","","","M","7","","2","","","M","98.91","","","","-25","","NA"
"-139.84","67.57","OLD CROW A","2100807","2021-03-07 13:00","2021","03","07","13:00","-20.4","","-24.8","","68","","","M","10","","4","","","M","98.98","","","","-24","","NA"
"-139.84","67.57","OLD CROW A","2100807","2021-03-07 14:00","2021","03","07","14:00","-19.3","","-24.2","","66","","","M","10","","5","","","M","99.05","","","","-23","","NA"
"-139.84","67.57","OLD CROW A","2100807","2021-03-07 15:00","2021","03","07","15:00","-18.6","","-24.2","","62","","","M","10","","4","","","M","99.10","","","","-22","","NA"
"-139.84","67.57","OLD CROW A","2100807","2021-03-07 16:00","2021","03","07","16:00","-17.1","","-22.9","","61","","","M","11","","5","","","M","99.13","","","","-21","","NA"
"-139.84","67.57","OLD CROW A","2100807","2021-03-07 17:00","2021","03","07","17:00","-16.6","","-22.7","","60","","","M","9","","8","","","M","99.20","","","","-22","","NA"
"-139.84","67.57","OLD CROW A","2100807","2021-03-07 18:00","2021","03","07","18:00","-18.7","","-23.8","","65","","","M","9","","8","","","M","99.25","","","","-25","","NA"
"-139.84","67.57","OLD CROW A","2100807","2021-03-07 19:00","2021","03","07","19:00","-21.1","","-25.3","","70","","","M","8","","7","","","M","99.30","","","","-27","","NA"
"-139.84","67.57","OLD CROW A","2100807","2021-03-07 20:00","2021","03","07","20:00","-23.9","","-27.1","","75","","","M","13","","2","","","M","99.34","","","","-26","","NA"
"-139.84","67.57","OLD CROW A","2100807","2021-03-07 21:00","2021","03","07","21:00","-26.4","","-29.3","","77","","","M","0","","1","","","M","99.39","","","","-27","","NA"
"-139.84","67.57","OLD CROW A","2100807","2021-03-07 22:00","2021","03","07","22:00","-27.1","","-30.1","","77","","","M","34","","2","","","M","99.41","","","","-29","","NA"
"-139.84","67.57","OLD CROW A","2100807","2021-03-07 23:00","2021","03","07","23:00","-29.1","","-32.4","","74","","","M","3","","1","","","M","99.44","","","","-30","","NA"
"-139.84","67.57","OLD CROW A","2100807","2021-03-08 00:00","2021","03","08","00:00","-31.1","","-34.5","","73","","","M","6","","7","","","M","99.46","","","","-39","","NA"
"-139.84","67.57","OLD CROW A","2100807","2021-03-08 01:00","2021","03","08","01:00","-31.3","","-34.7","","73","","","M","8","","3","","","M","99.49","","","","-35","","NA"
"-139.84","67.57","OLD CROW A","2100807","2021-03-08 02:00","2021","03","08","02:00","-31.8","","-35.3","","72","","","M","0","","1","","","M","99.51","","","","-33","","NA"
"-139.84","67.57","OLD CROW A","2100807","2021-03-08 03:00","2021","03","08","03:00","-31.8","","-35.2","","72","","","M","9","","4","","","M","99.51","","","","-36","","NA"
"-139.84","67.57","OLD CROW A","2100807","2021-03-08 04:00","2021","03","08","04:00","-32.8","","-36.3","","71","","","M","7","","3","","","M","99.51","","","","-36","","NA"
"-139.84","67.57","OLD CROW A","2100807","2021-03-08 05:00","2021","03","08","05:00","-33.6","","-37.3","","70","","","M","8","","1","","","M","99.50","","","","-35","","NA"
"-139.84","67.57","OLD CROW A","2100807","2021-03-08 06:00","2021","03","08","06:00","-33.8","","-37.5","","70","","","M","11","","2","","","M","99.49","","","","-36","","NA"
"-139.84","67.57","OLD CROW A","2100807","2021-03-08 07:00","2021","03","08","07:00","-35.0","","-38.8","","69","","","M","3","","2","","","M","99.47","","","","-38","","NA"
"-139.84","67.57","OLD CROW A","2100807","2021-03-08 08:00","2021","03","08","08:00","-35.1","","-38.9","","69","","","M","0","","1","","","M","99.44","","","","-36","","NA"
"-139.84","67.57","OLD CROW A","2100807","2021-03-08 09:00","2021","03","08","09:00","-34.2","","-38.1","","69","","","M","12","","1","","","M","99.41","","","","-35","","NA"
"-139.84","67.57","OLD CROW A","2100807","2021-03-08 10:00","2021","03","08","10:00","-31.8","","-35.4","","71","","","M","15","","3","","","M","99.41","","","","-35","","NA"
"-139.84","67.57","OLD CROW A","2100807","2021-03-08 11:00","2021","03","08","11:00","-29.4","","-33.1","","71","","","M","9","","1","","","M","99.35","","","","-31","","NA"
"-139.84","67.57","OLD CROW A","2100807","2021-03-08 12:00","2021","03","08","12:00","-26.7","","-31.1","","67","","","M","23","","2","","","M","99.31","","","","-29","","NA"
"-139.84","67.57","OLD CROW A","2100807","2021-03-08 13:00","2021","03","08","13:00","-23.9","","-28.1","","69","","","M","30","","1","","","M","99.25","","","","-25","","NA"
"-139.84","67.57","OLD CROW A","2100807","2021-03-08 14:00","2021","03","08","14:00","-21.4","","-26.4","","65","","","M","29","","3","","","M","99.17","","","","-24","","NA"
"-139.84","67.57","OLD CROW A","2100807","2021-03-08 15:00","2021","03","08","15:00","-19.6","","-25.2","","62","","","M","27","","5","","","M","99.07","","","","-24","","NA"
"-139.84","67.57","OLD CROW A","2100807","2021-03-08 16:00","2021","03","08","16:00","-18.4","","-24.3","","61","","","M","26","","5","","","M","98.99","","","","-22","","NA"
"-139.84","67.57","OLD CROW A","2100807","2021-03-08 17:00","2021","03","08","17:00","-17.6","","-23.4","","62","","","M","23","","4","","","M","98.91","","","","-21","","NA"
"-139.84","67.57","OLD CROW A","2100807","2021-03-08 18:00","2021","03","08","18:00","-17.6","","-22.9","","64","","","M","35","","2","","","M","98.84","","","","-19","","NA"
"-139.84","67.57","OLD CROW A","2100807","2021-03-08 19:00","2021","03","08","19:00","-20.1","","-24.4","","69","","","M","0","","1","","","M","98.78","","","","-21","","NA"
"-139.84","67.57","OLD CROW A","2100807","2021-03-08 20:00","2021","03","08","20:00","-20.7","","-25.0","","69","","","M","7","","6","","","M","98.71","","","","-26","","NA"
"-139.84","67.57","OLD CROW A","2100807","2021-03-08 21:00","2021","03","08","21:00","-21.1","","-25.2","","70","","","M","9","","3","","","M","98.65","","","","-24","","NA"
"-139.84","67.57","OLD CROW A","2100807","2021-03-08 22:00","2021","03","08","22:00","-22.7","","-26.6","","71","","","M","8","","4","","","M","98.61","","","","-26","","NA"
"-139.84","67.57","OLD CROW A","2100807","2021-03-08 23:00","2021","03","08","23:00","-24.1","","-27.5","","74","","","M","10","","4","","","M","98.56","","","","-28","","NA"
"-139.84","67.57","OLD CROW A","2100807","2021-03-09 00:00","2021","03","09","00:00","-25.2","","-28.2","","76","","","M","9","","3","","","M","98.54","","","","-28","","NA"
"-139.84","67.57","OLD CROW A","2100807","2021-03-09 01:00","2021","03","09","01:00","-26.5","","-29.5","","76","","","M","13","","3","","","M","98.50","","","","-30","","NA"
"-139.84","67.57","OLD CROW A","2100807","2021-03-09 02:00","2021","03","09","02:00","-27.2","","-30.4","","75","","","M","","","0","","","M","98.47","","","","","","NA"
"-139.84","67.57","OLD CROW A","2100807","2021-03-09 03:00","2021","03","09","03:00","-28.2","","-31.6","","73","","","M","13","","3","","","M","98.45","","","","-31","","NA"
"-139.84","67.57","OLD CROW A","2100807","2021-03-09 04:00","2021","03","09","04:00","-29.1","","-32.7","","72","","","M","28","","2","","","M","98.45","","","","-31","","NA"
"-139.84","67.57","OLD CROW A","2100807","2021-03-09 05:00","2021","03","09","05:00","-27.8","","-31.1","","74","","","M","27","","3","","","M","98.43","","","","-31","","NA"
"-139.84","67.57","OLD CROW A","2100807","2021-03-09 06:00","2021","03","09","06:00","-28.5","","-32.1","","72","","","M","24","","4","","","M","98.40","","","","-33","","NA"
"-139.84","67.57","OLD CROW A","2100807","2021-03-09 07:00","2021","03","09","07:00","-29.5","","-33.3","","70","","","M","30","","5","","","M","98.39","","","","-35","","NA"
"-139.84","67.57","OLD CROW A","2100807","2021-03-09 08:00","2021","03","09","08:00","-28.4","","-31.9","","73","","","M","18","","1","","","M","98.38","","","","-29","","NA"
"-139.84","67.57","OLD CROW A","2100807","2021-03-09 09:00","2021","03","09","09:00","-27.5","","-31.0","","73","","","M","26","","6","","","M","98.38","","","","-34","","NA"
"-139.84","67.57","OLD CROW A","2100807","2021-03-09 10:00","2021","03","09","10:00","-24.7","","-28.6","","71","","","M","24","","7","","","M","98.36","","","","-31","","NA"
"-139.84","67.57","OLD CROW A","2100807","2021-03-09 11:00","2021","03","09","11:00","-14.3","","-17.9","","75","","","M","24","","25","","","M","98.30","","","","-24","","NA"
"-139.84","67.57","OLD CROW A","2100807","2021-03-09 12:00","2021","03","09","12:00","-8.5","","-14.2","","64","","","M","25","","21","","","M","98.36","","","","-16","","NA"
"-139.84","67.57","OLD CROW A","2100807","2021-03-09 13:00","2021","03","09","13:00","-7.3","","-13.6","","61","","","M","25","","24","","","M","98.39","","","","-15","","NA"
"-139.84","67.57","OLD CROW A","2100807","2021-03-09 14:00","2021","03","09","14:00","-7.0","","-13.2","","62","","","M","25","","22","","","M","98.41","","","","-14","","NA"
"-139.84","67.57","OLD CROW A","2100807","2021-03-09 15:00","2021","03","09","15:00","-6.1","","-13.2","","57","","","M","25","","27","","","M","98.47","","","","-14","","NA"
"-139.84","67.57","OLD CROW A","2100807","2021-03-09 16:00","2021","03","09","16:00","-6.5","","-13.0","","60","","","M","25","","28","","","M","98.50","","","","-15","","NA"
"-139.84","67.57","OLD CROW A","2100807","2021-03-09 17:00","2021","03","09","17:00","-6.2","","-12.5","","61","","","M","25","","23","","","M","98.52","","","","-14","","NA"
"-139.84","67.57","OLD CROW A","2100807","2021-03-09 18:00","2021","03","09","18:00","-6.7","","-12.5","","64","","","M","25","","22","","","M","98.53","","","","-14","","NA"
"-139.84","67.57","OLD CROW A","2100807","2021-03-09 19:00","2021","03","09","19:00","-7.3","","-12.5","","67","","","M","25","","16","","","M","98.57","","","","-14","","NA"
"-139.84","67.57","OLD CROW A","2100807","2021-03-09 20:00","2021","03","09","20:00","-8.0","","-12.6","","69","","","M","24","","10","","","M","98.61","","","","-13","","NA"
"-139.84","67.57","OLD CROW A","2100807","2021-03-09 21:00","2021","03","09","21:00","-8.7","","-12.7","","73","","","M","4","","3","","","M","98.67","","","","-10","","NA"
"-139.84","67.57","OLD CROW A","2100807","2021-03-09 22:00","2021","03","09","22:00","-17.1","","-20.4","","76","","","M","7","","3","","","M","98.73","","","","-19","","NA"
"-139.84","67.57","OLD CROW A","2100807","2021-03-09 23:00","2021","03","09","23:00","-18.2","","-21.2","","77","","","M","8","","5","","","M","98.76","","","","-22","","NA"
"-139.84","67.57","OLD CROW A","2100807","2021-03-10 00:00","2021","03","10","00:00","-18.3","","-21.1","","79","","","M","9","","3","","","M","98.80","","","","-21","","NA"
"-139.84","67.57","OLD CROW A","2100807","2021-03-10 01:00","2021","03","10","01:00","-16.7","","-19.9","","77","","","M","8","","3","","","M","98.83","","","","-19","","NA"
"-139.84","67.57","OLD CROW A","2100807","2021-03-10 02:00","2021","03","10","02:00","-15.9","","-18.6","","80","","","M","10","","5","","","M","98.81","","","","-20","","NA"
"-139.84","67.57","OLD CROW A","2100807","2021-03-10 03:00","2021","03","10","03:00","-15.6","","-18.0","","82","","","M","9","","3","","","M","98.78","","","","-18","","NA"
"-139.84","67.57","OLD CROW A","2100807","2021-03-10 04:00","2021","03","10","04:00","-15.4","","-17.8","","82","","","M","7","","4","","","M","98.72","","","","-18","","NA"
"-139.84","67.57","OLD CROW A","2100807","2021-03-10 05:00","2021","03","10","05:00","-14.8","","-17.2","","82","","","M","8","","6","","","M","98.64","","","","-19","","NA"
"-139.84","67.57","OLD CROW A","2100807","2021-03-10 06:00","2021","03","10","06:00","-14.6","","-17.1","","82","","","M","9","","3","","","M","98.55","","","","-17","","NA"
"-139.84","67.57","OLD CROW A","2100807","2021-03-10 07:00","2021","03","10","07:00","-14.0","","-16.5","","82","","","M","9","","7","","","M","98.49","","","","-19","","NA"
"-139.84","67.57","OLD CROW A","2100807","2021-03-10 08:00","2021","03","10","08:00","-13.8","","-16.3","","82","","","M","5","","1","","","M","98.40","","","","-14","","NA"
"-139.84","67.57","OLD CROW A","2100807","2021-03-10 09:00","2021","03","10","09:00","-12.5","","-15.1","","81","","","M","6","","3","","","M","98.27","","","","-14","","NA"
"-139.84","67.57","OLD CROW A","2100807","2021-03-10 10:00","2021","03","10","10:00","-11.2","","-14.1","","79","","","M","10","","3","","","M","98.18","","","","-13","","NA"
"-139.84","67.57","OLD CROW A","2100807","2021-03-10 11:00","2021","03","10","11:00","-12.7","","-15.4","","80","","","M","28","","7","","","M","98.08","","","","-17","","NA"
"-139.84","67.57","OLD CROW A","2100807","2021-03-10 12:00","2021","03","10","12:00","-11.1","","-14.3","","77","","","M","26","","4","","","M","98.00","","","","-14","","NA"
"-139.84","67.57","OLD CROW A","2100807","2021-03-10 13:00","2021","03","10","13:00","-9.2","","-13.5","","71","","","M","8","","12","","","M","97.88","","","","-15","","NA"
"-139.84","67.57","OLD CROW A","2100807","2021-03-10 14:00","2021","03","10","14:00","-9.0","","-13.1","","72","","","M","8","","14","","","M","97.81","","","","-15","","NA"
"-139.84","67.57","OLD CROW A","2100807","2021-03-10 15:00","2021","03","10","15:00","-8.6","","-11.9","","77","","","M","8","","12","","","M","97.67","","","","-14","","NA"
"-139.84","67.57","OLD CROW A","2100807","2021-03-10 16:00","2021","03","10","16:00","-8.4","","-11.3","","80","","","M","7","","10","","","M","97.54","","","","-13","","NA"
"-139.84","67.57","OLD CROW A","2100807","2021-03-10 17:00","2021","03","10","17:00","-8.5","","-10.9","","83","","","M","7","","11","","","M","97.43","","","","-14","","NA"
"-139.84","67.57","OLD CROW A","2100807","2021-03-10 18:00","2021","03","10","18:00","-8.0","","-10.3","","83","","","M","4","","13","","","M","97.34","","","","-14","","NA"
"-139.84","67.57","OLD CROW A","2100807","2021-03-10 19:00","2021","03","10","19:00","-7.7","","-10.1","","83","","","M","5","","13","","","M","97.28","","","","-13","","NA"
"-139.84","67.57","OLD CROW A","2100807","2021-03-10 20:00","2021","03","10","20:00","-8.3","","-10.2","","86","","","M","8","","10","","","M","97.25","","","","-13","","NA"
"-139.84","67.57","OLD CROW A","2100807","2021-03-10 21:00","2021","03","10","21:00","-8.7","","-10.8","","85","","","M","6","","12","","","M","97.22","","","","-14","","NA"
"-139.84","67.57","OLD CROW A","2100807","2021-03-10 22:00","2021","03","10","22:00","-9.8","","-11.7","","87","","","M","13","","6","","","M","97.18","","","","-13","","NA"
"-139.84","67.57","OLD CROW A","2100807","2021-03-10 23:00","2021","03","10","23:00","-10.2","","-11.9","","87","","","M","20","","2","","","M","97.19","","","","-11","","NA"
"-139.84","67.57","OLD CROW A","2100807","2021-03-11 00:00","2021","03","11","00:00","-10.1","","-11.7","","88","","","M","23","","8","","","M","97.20","","","","-15","","NA"
"-139.84","67.57","OLD CROW A","2100807","2021-03-11 01:00","2021","03","11","01:00","-10.6","","-12.2","","88","","","M","5","","3","","","M","97.24","","","","-12","","NA"
"-139.84","67.57","OLD CROW A","2100807","2021-03-11 02:00","2021","03","11","02:00","-10.4","","-12.0","","88","","","M","8","","3","","","M","97.31","","","","-12","","NA"
"-139.84","67.57","OLD CROW A","2100807","2021-03-11 03:00","2021","03","11","03:00","-11.0","","-14.0","","79","","","M","4","","16","","","M","97.40","","","","-18","","NA"
"-139.84","67.57","OLD CROW A","2100807","2021-03-11 04:00","2021","03","11","04:00","-12.6","","-15.9","","76","","","M","3","","26","","","M","97.42","","","","-22","","NA"
"-139.84","67.57","OLD CROW A","2100807","2021-03-11 05:00","2021","03","11","05:00","-13.1","","-16.4","","77","","","M","4","","31","","","M","97.48","","","","-24","","NA"
"-139.84","67.57","OLD CROW A","2100807","2021-03-11 06:00","2021","03","11","06:00","-14.1","","-17.2","","78","","","M","4","","27","","","M","97.55","","","","-24","","NA"
"-139.84","67.57","OLD CROW A","2100807","2021-03-11 07:00","2021","03","11","07:00","-14.8","","-18.4","","74","","","M","4","","30","","","M","97.62","","","","-26","","NA"
"-139.84","67.57","OLD CROW A","2100807","2021-03-11 08:00","2021","03","11","08:00","-15.8","","-19.4","","74","","","M","3","","31","","","M","97.72","","","","-27","","NA"
"-139.84","67.57","OLD CROW A","2100807","2021-03-11 09:00","2021","03","11","09:00","-16.6","","-20.5","","72","","","M","5","","35","","","M","97.79","","","","-29","","NA"
"-139.84","67.57","OLD CROW A","2100807","2021-03-11 10:00","2021","03","11","10:00","-17.4","","-21.5","","71","","","M","6","","31","","","M","97.89","","","","-29","","NA"
"-139.84","67.57","OLD CROW A","2100807","2021-03-11 11:00","2021","03","11","11:00","-17.5","","-21.8","","70","","","M","4","","28","","","M","97.99","","","","-29","","NA"
"-139.84","67.57","OLD CROW A","2100807","2021-03-11 12:00","2021","03","11","12:00","-17.6","","-21.9","","69","","","M","5","","27","","","M","98.11","","","","-29","","NA"
"-139.84","67.57","OLD CROW A","2100807","2021-03-11 13:00","2021","03","11","13:00","-17.2","","-22.1","","66","","","M","7","","17","","","M","98.24","","","","-26","","NA"
"-139.84","67.57","OLD CROW A","2100807","2021-03-11 14:00","2021","03","11","14:00","-17.3","","-21.9","","68","","","M","5","","25","","","M","98.34","","","","-28","","NA"
"-139.84","67.57","OLD CROW A","2100807","2021-03-11 15:00","2021","03","11","15:00","-17.6","","-22.0","","69","","","M","6","","18","","","M","98.44","","","","-27","","NA"
"-139.84","67.57","OLD CROW A","2100807","2021-03-11 16:00","2021","03","11","16:00","-17.6","","-22.0","","69","","","M","5","","17","","","M","98.52","","","","-27","","NA"
"-139.84","67.57","OLD CROW A","2100807","2021-03-11 17:00","2021","03","11","17:00","-18.7","","-23.1","","69","","","M","5","","16","","","M","98.60","","","","-28","","NA"
"-139.84","67.57","OLD CROW A","2100807","2021-03-11 18:00","2021","03","11","18:00","-19.8","","-23.8","","71","","","M","4","","20","","","M","98.67","","","","-30","","NA"
"-139.84","67.57","OLD CROW A","2100807","2021-03-11 19:00","2021","03","11","19:00","-20.4","","-24.4","","70","","","M","3","","19","","","M","98.76","","","","-31","","NA"
"-139.84","67.57","OLD CROW A","2100807","2021-03-11 20:00","2021","03","11","20:00","-20.6","","-24.7","","70","","","M","4","","19","","","M","98.87","","","","-31","","NA"
"-139.84","67.57","OLD CROW A","2100807","2021-03-11 21:00","2021","03","11","21:00","-20.9","","-25.2","","69","","","M","4","","17","","","M","98.97","","","","-31","","NA"
"-139.84","67.57","OLD CROW A","2100807","2021-03-11 22:00","2021","03","11","22:00","-21.2","","-25.4","","70","","","M","5","","13","","","M","99.07","","","","-30","","NA"
"-139.84","67.57","OLD CROW A","2100807","2021-03-11 23:00","2021","03","11","23:00","-21.9","","-26.2","","69","","","M","4","","19","","","M","99.17","","","","-33","","NA"
"-139.84","67.57","OLD CROW A","2100807","2021-03-12 00:00","2021","03","12","00:00","-22.5","","-26.9","","68","","","M","4","","13","","","M","99.30","","","","-31","","NA"
"-139.84","67.57","OLD CROW A","2100807","2021-03-12 01:00","2021","03","12","01:00","-23.0","","-27.3","","69","","","M","4","","12","","","M","99.40","","","","-32","","NA"
"-139.84","67.57","OLD CROW A","2100807","2021-03-12 02:00","2021","03","12","02:00","-23.2","","-27.5","","69","","","M","4","","10","","","M","99.46","","","","-31","","NA"
"-139.84","67.57","OLD CROW A","2100807","2021-03-12 03:00","2021","03","12","03:00","-23.2","","-27.8","","67","","","M","4","","8","","","M","99.54","","","","-30","","NA"
"-139.84","67.57","OLD CROW A","2100807","2021-03-12 04:00","2021","03","12","04:00","-23.5","","-27.9","","67","","","M","8","","7","","","M","99.61","","","","-30","","NA"
"-139.84","67.57","OLD CROW A","2100807","2021-03-12 05:00","2021","03","12","05:00","-23.8","","-28.2","","68","","","M","5","","7","","","M","99.71","","","","-30","","NA"
"-139.84","67.57","OLD CROW A","2100807","2021-03-12 06:00","2021","03","12","06:00","-23.7","","-28.3","","67","","","M","6","","4","","","M","99.80","","","","-28","","NA"
"-139.84","67.57","OLD CROW A","2100807","2021-03-12 07:00","2021","03","12","07:00","-23.9","","-27.8","","71","","","M","4","","8","","","M","99.90","","","","-31","","NA"
"-139.84","67.57","OLD CROW A","2100807","2021-03-12 08:00","2021","03","12","08:00","-24.6","","-28.8","","69","","","M","4","","8","","","M","99.99","","","","-32","","NA"
"-139.84","67.57","OLD CROW A","2100807","2021-03-12 09:00","2021","03","12","09:00","-24.8","","-29.0","","69","","","M","4","","5","","","M","100.08","","","","-30","","NA"
"-139.84","67.57","OLD CROW A","2100807","2021-03-12 10:00","2021","03","12","10:00","-23.8","","-28.6","","65","","","M","7","","6","","","M","100.18","","","","-29","","NA"
"-139.84","67.57","OLD CROW A","2100807","2021-03-12 11:00","2021","03","12","11:00","-22.9","","-28.1","","63","","","M","10","","5","","","M","100.26","","","","-28","","NA"
"-139.84","67.57","OLD CROW A","2100807","2021-03-12 12:00","2021","03","12","12:00","-22.1","","-27.7","","61","","","M","11","","4","","","M","100.31","","","","-26","","NA"
"-139.84","67.57","OLD CROW A","2100807","2021-03-12 13:00","2021","03","12","13:00","-21.4","","-27.1","","61","","","M","22","","5","","","M","100.36","","","","-26","","NA"
"-139.84","67.57","OLD CROW A","2100807","2021-03-12 14:00","2021","03","12","14:00","-20.2","","-26.7","","57","","","M","20","","4","","","M","100.40","","","","-24","","NA"
"-139.84","67.57","OLD CROW A","2100807","2021-03-12 15:00","2021","03","12","15:00","-19.3","","-26.0","","56","","","M","22","","5","","","M","100.44","","","","-23","","NA"
"-139.84","67.57","OLD CROW A","2100807","2021-03-12 16:00","2021","03","12","16:00","-19.1","","-25.6","","57","","","M","24","","9","","","M","100.47","","","","-26","","NA"
"-139.84","67.57","OLD CROW A","2100807","2021-03-12 17:00","2021","03","12","17:00","-18.9","","-25.9","","55","","","M","21","","4","","","M","100.51","","","","-22","","NA"
"-139.84","67.57","OLD CROW A","2100807","2021-03-12 18:00","2021","03","12","18:00","-20.4","","-26.2","","60","","","M","6","","8","","","M","100.55","","","","-27","","NA"
"-139.84","67.57","OLD CROW A","2100807","2021-03-12 19:00","2021","03","12","19:00","-22.4","","-27.1","","66","","","M","9","","5","","","M","100.60","","","","-27","","NA"
"-139.84","67.57","OLD CROW A","2100807","2021-03-12 20:00","2021","03","12","20:00","-24.7","","-28.1","","74","","","M","10","","3","","","M","100.64","","","","-28","","NA"
"-139.84","67.57","OLD CROW A","2100807","2021-03-12 21:00","2021","03","12","21:00","-27.7","","-31.0","","74","","","M","34","","1","","","M","100.68","","","","-29","","NA"
"-139.84","67.57","OLD CROW A","2100807","2021-03-12 22:00","2021","03","12","22:00","-29.4","","-32.6","","74","","","M","34","","2","","","M","100.73","","","","-32","","NA"
"-139.84","67.57","OLD CROW A","2100807","2021-03-12 23:00","2021","03","12","23:00","-31.2","","-34.8","","72","","","M","2","","1","","","M","100.73","","","","-32","","NA"
"-139.84","67.57","OLD CROW A","2100807","2021-03-13 00:00","2021","03","13","00:00","-32.8","","-36.4","","71","","","M","9","","4","","","M","100.77","","","","-38","","NA"
"-139.84","67.57","OLD CROW A","2100807","2021-03-13 01:00","2021","03","13","01:00","-34.2","","-37.9","","70","","","M","","","0","","","M","100.76","","","","","","NA"
"-139.84","67.57","OLD CROW A","2100807","2021-03-13 02:00","2021","03","13","02:00","-35.2","","-38.9","","70","","","M","10","","1","","","M","100.77","","","","-36","","NA"
"-139.84","67.57","OLD CROW A","2100807","2021-03-13 03:00","2021","03","13","03:00","-36.1","","-39.6","","71","","","M","6","","2","","","M","100.76","","","","-39","","NA"
"-139.84","67.57","OLD CROW A","2100807","2021-03-13 04:00","2021","03","13","04:00","-37.4","","-41.3","","68","","","M","0","","1","","","M","100.76","","","","-39","","NA"
"-139.84","67.57","OLD CROW A","2100807","2021-03-13 05:00","2021","03","13","05:00","-37.8","","-41.7","","68","","","M","11","","3","","","M","100.70","","","","-42","","NA"
"-139.84","67.57","OLD CROW A","2100807","2021-03-13 06:00","2021","03","13","06:00","-38.1","","-42.1","","67","","","M","0","","1","","","M","100.70","","","","-39","","NA"
"-139.84","67.57","OLD CROW A","2100807","2021-03-13 07:00","2021","03","13","07:00","-38.8","","-43.0","","66","","","M","9","","2","","","M","100.69","","","","-42","","NA"
"-139.84","67.57","OLD CROW A","2100807","2021-03-13 08:00","2021","03","13","08:00","-39.2","","-43.4","","66","","","M","11","","2","","","M","100.67","","","","-42","","NA"
"-139.84","67.57","OLD CROW A","2100807","2021-03-13 09:00","2021","03","13","09:00","-38.1","","-42.1","","67","","","M","10","","4","","","M","100.63","","","","-43","","NA"
"-139.84","67.57","OLD CROW A","2100807","2021-03-13 10:00","2021","03","13","10:00","-35.3","","-39.2","","69","","","M","0","","1","","","M","100.60","","","","-37","","NA"
"-139.84","67.57","OLD CROW A","2100807","2021-03-13 11:00","2021","03","13","11:00","-31.8","","-35.7","","70","","","M","0","","1","","","M","100.53","","","","-33","","NA"
"-139.84","67.57","OLD CROW A","2100807","2021-03-13 12:00","2021","03","13","12:00","-28.5","","-32.7","","68","","","M","29","","3","","","M","100.47","","","","-32","","NA"
"-139.84","67.57","OLD CROW A","2100807","2021-03-13 13:00","2021","03","13","13:00","-26.1","","-31.2","","63","","","M","28","","3","","","M","100.38","","","","-29","","NA"
"-139.84","67.57","OLD CROW A","2100807","2021-03-13 14:00","2021","03","13","14:00","-22.8","","-28.5","","60","","","M","11","","3","","","M","100.31","","","","-26","","NA"
"-139.84","67.57","OLD CROW A","2100807","2021-03-13 15:00","2021","03","13","15:00","-20.9","","-27.0","","59","","","M","9","","10","","","M","100.20","","","","-28","","NA"
"-139.84","67.57","OLD CROW A","2100807","2021-03-13 16:00","2021","03","13","16:00","-21.6","","-27.4","","60","","","M","9","","13","","","M","100.12","","","","-30","","NA"
"-139.84","67.57","OLD CROW A","2100807","2021-03-13 17:00","2021","03","13","17:00","-21.9","","-27.7","","60","","","M","8","","10","","","M","100.04","","","","-29","","NA"
"-139.84","67.57","OLD CROW A","2100807","2021-03-13 18:00","2021","03","13","18:00","-23.0","","-28.2","","63","","","M","9","","10","","","M","99.97","","","","-31","","NA"
"-139.84","67.57","OLD CROW A","2100807","2021-03-13 19:00","2021","03","13","19:00","-25.8","","-30.1","","68","","","M","10","","10","","","M","99.91","","","","-34","","NA"
"-139.84","67.57","OLD CROW A","2100807","2021-03-13 20:00","2021","03","13","20:00","-28.0","","-31.4","","73","","","M","7","","6","","","M","99.89","","","","-34","","NA"
"-139.84","67.57","OLD CROW A","2100807","2021-03-13 21:00","2021","03","13","21:00","-31.3","","-34.6","","73","","","M","11","","2","","","M","99.82","","","","-34","","NA"
"-139.84","67.57","OLD CROW A","2100807","2021-03-13 22:00","2021","03","13","22:00","-32.9","","-36.7","","69","","","M","31","","3","","","M","99.76","","","","-37","","NA"
"-139.84","67.57","OLD CROW A","2100807","2021-03-13 23:00","2021","03","13","23:00","-33.4","","-37.0","","71","","","M","30","","2","","","M","99.70","","","","-36","","NA"
"-139.84","67.57","OLD CROW A","2100807","2021-03-14 00:00","2021","03","14","00:00","-34.8","","-38.6","","69","","","M","34","","3","","","M","99.63","","","","-39","","NA"
"-139.84","67.57","OLD CROW A","2100807","2021-03-14 01:00","2021","03","14","01:00","-34.8","","-38.5","","70","","","M","33","","2","","","M","99.58","","","","-37","","NA"
"-139.84","67.57","OLD CROW A","2100807","2021-03-14 02:00","2021","03","14","02:00","-35.7","","-39.5","","69","","","M","31","","1","","","M","99.54","","","","-37","","NA"
"-139.84","67.57","OLD CROW A","2100807","2021-03-14 03:00","2021","03","14","03:00","-36.2","","-40.0","","69","","","M","33","","3","","","M","99.48","","","","-40","","NA"
"-139.84","67.57","OLD CROW A","2100807","2021-03-14 04:00","2021","03","14","04:00","-37.2","","-41.2","","68","","","M","27","","2","","","M","99.39","","","","-40","","NA"
"-139.84","67.57","OLD CROW A","2100807","2021-03-14 05:00","2021","03","14","05:00","-37.8","","-41.7","","67","","","M","0","","1","","","M","99.32","","","","-39","","NA"
"-139.84","67.57","OLD CROW A","2100807","2021-03-14 06:00","2021","03","14","06:00","-39.0","","-43.1","","66","","","M","12","","2","","","M","99.25","","","","-42","","NA"
"-139.84","67.57","OLD CROW A","2100807","2021-03-14 07:00","2021","03","14","07:00","-38.8","","-42.9","","66","","","M","16","","1","","","M","99.21","","","","-40","","NA"
"-139.84","67.57","OLD CROW A","2100807","2021-03-14 08:00","2021","03","14","08:00","-39.0","","-43.2","","66","","","M","13","","3","","","M","99.15","","","","-43","","NA"
"-139.84","67.57","OLD CROW A","2100807","2021-03-14 09:00","2021","03","14","09:00","-38.6","","-42.7","","66","","","M","15","","3","","","M","99.07","","","","-43","","NA"
"-139.84","67.57","OLD CROW A","2100807","2021-03-14 10:00","2021","03","14","10:00","-35.0","","-38.9","","68","","","M","29","","1","","","M","98.97","","","","-36","","NA"
"-139.84","67.57","OLD CROW A","2100807","2021-03-14 11:00","2021","03","14","11:00","-31.9","","-36.1","","67","","","M","23","","3","","","M","98.87","","","","-35","","NA"
"-139.84","67.57","OLD CROW A","2100807","2021-03-14 12:00","2021","03","14","12:00","-29.9","","-34.1","","67","","","M","33","","1","","","M","98.78","","","","-31","","NA"
"-139.84","67.57","OLD CROW A","2100807","2021-03-14 13:00","2021","03","14","13:00","-26.2","","-30.9","","65","","","M","26","","5","","","M","98.66","","","","-31","","NA"
"-139.84","67.57","OLD CROW A","2100807","2021-03-14 14:00","2021","03","14","14:00","-23.0","","-28.4","","62","","","M","9","","13","","","M","98.57","","","","-32","","NA"
"-139.84","67.57","OLD CROW A","2100807","2021-03-14 15:00","2021","03","14","15:00","-21.7","","-27.5","","60","","","M","9","","10","","","M","98.46","","","","-29","","NA"
"-139.84","67.57","OLD CROW A","2100807","2021-03-14 16:00","2021","03","14","16:00","-21.5","","-27.3","","60","","","M","10","","10","","","M","98.37","","","","-29","","NA"
"-139.84","67.57","OLD CROW A","2100807","2021-03-14 17:00","2021","03","14","17:00","-21.8","","-27.5","","61","","","M","9","","11","","","M","98.28","","","","-30","","NA"
"-139.84","67.57","OLD CROW A","2100807","2021-03-14 18:00","2021","03","14","18:00","-23.2","","-28.4","","63","","","M","10","","9","","","M","98.22","","","","-31","","NA"
"-139.84","67.57","OLD CROW A","2100807","2021-03-14 19:00","2021","03","14","19:00","-24.5","","-28.9","","67","","","M","9","","12","","","M","98.14","","","","-33","","NA"
"-139.84","67.57","OLD CROW A","2100807","2021-03-14 20:00","2021","03","14","20:00","-27.5","","-31.3","","71","","","M","6","","7","","","M","98.11","","","","-34","","NA"
"-139.84","67.57","OLD CROW A","2100807","2021-03-14 21:00","2021","03","14","21:00","-28.9","","-32.2","","74","","","M","5","","9","","","M","98.07","","","","-37","","NA"
"-139.84","67.57","OLD CROW A","2100807","2021-03-14 22:00","2021","03","14","22:00","-30.6","","-34.2","","71","","","M","30","","4","","","M","98.03","","","","-35","","NA"
"-139.84","67.57","OLD CROW A","2100807","2021-03-14 23:00","2021","03","14","23:00","-30.9","","-34.4","","72","","","M","28","","6","","","M","98.01","","","","-38","","NA"
"-139.84","67.57","OLD CROW A","2100807","2021-03-15 00:00","2021","03","15","00:00","-31.3","","-34.9","","72","","","M","31","","2","","","M","97.97","","","","-34","","NA"
"-139.84","67.57","OLD CROW A","2100807","2021-03-15 01:00","2021","03","15","01:00","-29.6","","-33.3","","71","","","M","25","","5","","","M","97.97","","","","-35","","NA"
"-139.84","67.57","OLD CROW A","2100807","2021-03-15 02:00","2021","03","15","02:00","-31.4","","-35.0","","72","","","M","2","","1","","","M","97.91","","","","-33","","NA"
"-139.84","67.57","OLD CROW A","2100807","2021-03-15 03:00","2021","03","15","03:00","-32.0","","-35.7","","71","","","M","30","","2","","","M","97.93","","","","-34","","NA"
"-139.84","67.57","OLD CROW A","2100807","2021-03-15 04:00","2021","03","15","04:00","-33.6","","-37.3","","70","","","M","0","","1","","","M","97.85","","","","-35","","NA"
"-139.84","67.57","OLD CROW A","2100807","2021-03-15 05:00","2021","03","15","05:00","-34.3","","-38.0","","70","","","M","33","","3","","","M","97.80","","","","-38","","NA"
"-139.84","67.57","OLD CROW A","2100807","2021-03-15 06:00","2021","03","15","06:00","-35.1","","-38.8","","70","","","M","7","","2","","","M","97.77","","","","-38","","NA"
"-139.84","67.57","OLD CROW A","2100807","2021-03-15 07:00","2021","03","15","07:00","-35.2","","-39.0","","69","","","M","22","","1","","","M","97.76","","","","-36","","NA"
"-139.84","67.57","OLD CROW A","2100807","2021-03-15 08:00","2021","03","15","08:00","-35.3","","-39.4","","67","","","M","27","","2","","","M","97.69","","","","-38","","NA"
"-139.84","67.57","OLD CROW A","2100807","2021-03-15 09:00","2021","03","15","09:00","-33.6","","-37.4","","70","","","M","13","","4","","","M","97.69","","","","-38","","NA"
"-139.84","67.57","OLD CROW A","2100807","2021-03-15 10:00","2021","03","15","10:00","-31.4","","-35.2","","70","","","M","7","","5","","","M","97.63","","","","-37","","NA"
"-139.84","67.57","OLD CROW A","2100807","2021-03-15 11:00","2021","03","15","11:00","-29.3","","-33.5","","68","","","M","25","","3","","","M","97.59","","","","-33","","NA"
"-139.84","67.57","OLD CROW A","2100807","2021-03-15 12:00","2021","03","15","12:00","-27.7","","-32.3","","66","","","M","26","","4","","","M","97.57","","","","-32","","NA"
"-139.84","67.57","OLD CROW A","2100807","2021-03-15 13:00","2021","03","15","13:00","-24.7","","-30.3","","60","","","M","13","","5","","","M","97.56","","","","-30","","NA"
"-139.84","67.57","OLD CROW A","2100807","2021-03-15 14:00","2021","03","15","14:00","-21.4","","-27.3","","60","","","M","10","","8","","","M","97.57","","","","-28","","NA"
"-139.84","67.57","OLD CROW A","2100807","2021-03-15 15:00","2021","03","15","15:00","-20.1","","-26.8","","56","","","M","7","","12","","","M","97.61","","","","-28","","NA"
"-139.84","67.57","OLD CROW A","2100807","2021-03-15 16:00","2021","03","15","16:00","-20.2","","-26.7","","57","","","M","4","","20","","","M","97.59","","","","-31","","NA"
"-139.84","67.57","OLD CROW A","2100807","2021-03-15 17:00","2021","03","15","17:00","-20.5","","-26.6","","59","","","M","4","","15","","","M","97.63","","","","-30","","NA"
"-139.84","67.57","OLD CROW A","2100807","2021-03-15 18:00","2021","03","15","18:00","-21.8","","-27.4","","61","","","M","6","","3","","","M","97.64","","","","-25","","NA"
"-139.84","67.57","OLD CROW A","2100807","2021-03-15 19:00","2021","03","15","19:00","-24.6","","-29.1","","67","","","M","11","","9","","","M","97.66","","","","-32","","NA"
"-139.84","67.57","OLD CROW A","2100807","2021-03-15 20:00","2021","03","15","20:00","-24.7","","-29.0","","69","","","M","13","","10","","","M","97.69","","","","-33","","NA"
"-139.84","67.57","OLD CROW A","2100807","2021-03-15 21:00","2021","03","15","21:00","-23.8","","-27.2","","74","","","M","8","","8","","","M","97.76","","","","-31","","NA"
"-139.84","67.57","OLD CROW A","2100807","2021-03-15 22:00","2021","03","15","22:00","-22.8","","-27.4","","67","","","M","5","","19","","","M","97.75","","","","-34","","NA"
"-139.84","67.57","OLD CROW A","2100807","2021-03-15 23:00","2021","03","15","23:00","-23.0","","-27.9","","65","","","M","7","","15","","","M","97.76","","","","-33","","NA"
"-139.84","67.57","OLD CROW A","2100807","2021-03-16 00:00","2021","03","16","00:00","-24.7","","-29.1","","68","","","M","8","","9","","","M","97.80","","","","-32","","NA"
"-139.84","67.57","OLD CROW A","2100807","2021-03-16 01:00","2021","03","16","01:00","-28.6","","-32.4","","70","","","M","10","","2","","","M","97.85","","","","-31","","NA"
"-139.84","67.57","OLD CROW A","2100807","2021-03-16 02:00","2021","03","16","02:00","-28.6","","-31.4","","77","","","M","8","","5","","","M","97.84","","","","-34","","NA"
"-139.84","67.57","OLD CROW A","2100807","2021-03-16 03:00","2021","03","16","03:00","-31.3","","-34.5","","74","","","M","29","","3","","","M","97.87","","","","-35","","NA"
"-139.84","67.57","OLD CROW A","2100807","2021-03-16 04:00","2021","03","16","04:00","-32.4","","-35.8","","73","","","M","7","","2","","","M","97.88","","","","-35","","NA"
"-139.84","67.57","OLD CROW A","2100807","2021-03-16 05:00","2021","03","16","05:00","-33.4","","-36.8","","72","","","M","15","","3","","","M","97.91","","","","-37","","NA"
"-139.84","67.57","OLD CROW A","2100807","2021-03-16 06:00","2021","03","16","06:00","-33.1","","-36.8","","71","","","M","34","","3","","","M","97.95","","","","-37","","NA"
"-139.84","67.57","OLD CROW A","2100807","2021-03-16 07:00","2021","03","16","07:00","-34.5","","-38.3","","69","","","M","3","","1","","","M","98.01","","","","-36","","NA"
"-139.84","67.57","OLD CROW A","2100807","2021-03-16 08:00","2021","03","16","08:00","-35.0","","-38.8","","69","","","M","11","","1","","","M","98.04","","","","-36","","NA"
"-139.84","67.57","OLD CROW A","2100807","2021-03-16 09:00","2021","03","16","09:00","-33.2","","-37.0","","69","","","M","25","","4","","","M","98.08","","","","-38","","NA"
"-139.84","67.57","OLD CROW A","2100807","2021-03-16 10:00","2021","03","16","10:00","-30.6","","-34.4","","71","","","M","26","","4","","","M","98.12","","","","-35","","NA"
"-139.84","67.57","OLD CROW A","2100807","2021-03-16 11:00","2021","03","16","11:00","-28.0","","-32.6","","66","","","M","23","","5","","","M","98.13","","","","-33","","NA"
"-139.84","67.57","OLD CROW A","2100807","2021-03-16 12:00","2021","03","16","12:00","-25.9","","-30.9","","64","","","M","26","","4","","","M","98.14","","","","-30","","NA"
"-139.84","67.57","OLD CROW A","2100807","2021-03-16 13:00","2021","03","16","13:00","-23.9","","-29.6","","60","","","M","26","","2","","","M","98.16","","","","-26","","NA"
"-139.84","67.57","OLD CROW A","2100807","2021-03-16 14:00","2021","03","16","14:00","-21.6","","-27.8","","58","","","M","11","","5","","","M","98.15","","","","-26","","NA"
"-139.84","67.57","OLD CROW A","2100807","2021-03-16 15:00","2021","03","16","15:00","-20.3","","-26.9","","57","","","M","9","","9","","","M","98.18","","","","-27","","NA"
"-139.84","67.57","OLD CROW A","2100807","2021-03-16 16:00","2021","03","16","16:00","-20.6","","-26.9","","58","","","M","11","","8","","","M","98.18","","","","-27","","NA"
"-139.84","67.57","OLD CROW A","2100807","2021-03-16 17:00","2021","03","16","17:00","-20.7","","-27.4","","56","","","M","10","","5","","","M","98.18","","","","-25","","NA"
"-139.84","67.57","OLD CROW A","2100807","2021-03-16 18:00","2021","03","16","18:00","-20.6","","-27.0","","58","","","M","8","","9","","","M","98.19","","","","-27","","NA"
"-139.84","67.57","OLD CROW A","2100807","2021-03-16 19:00","2021","03","16","19:00","-22.4","","-27.9","","61","","","M","9","","5","","","M","98.19","","","","-27","","NA"
"-139.84","67.57","OLD CROW A","2100807","2021-03-16 20:00","2021","03","16","20:00","-26.7","","-30.8","","69","","","M","1","","3","","","M","98.21","","","","-30","","NA"
"-139.84","67.57","OLD CROW A","2100807","2021-03-16 21:00","2021","03","16","21:00","-30.6","","-34.3","","71","","","M","33","","3","","","M","98.23","","","","-34","","NA"
"-139.84","67.57","OLD CROW A","2100807","2021-03-16 22:00","2021","03","16","22:00","-31.9","","-35.1","","74","","","M","0","","1","","","M","98.23","","","","-33","","NA"
"-139.84","67.57","OLD CROW A","2100807","2021-03-16 23:00","2021","03","16","23:00","-33.5","","-36.9","","72","","","M","8","","4","","","M","98.22","","","","-38","","NA"
"-139.84","67.57","OLD CROW A","2100807","2021-03-17 00:00","2021","03","17","00:00","-35.5","","-39.2","","69","","","M","6","","3","","","M","98.22","","","","-39","","NA"
"-139.84","67.57","OLD CROW A","2100807","2021-03-17 01:00","2021","03","17","01:00","-36.1","","-39.9","","69","","","M","36","","2","","","M","98.24","","","","-39","","NA"
"-139.84","67.57","OLD CROW A","2100807","2021-03-17 02:00","2021","03","17","02:00","-36.4","","-40.2","","69","","","M","11","","2","","","M","98.22","","","","-39","","NA"
"-139.84","67.57","OLD CROW A","2100807","2021-03-17 03:00","2021","03","17","03:00","-37.6","","-41.5","","68","","","M","10","","3","","","M","98.22","","","","-42","","NA"
"-139.84","67.57","OLD CROW A","2100807","2021-03-17 04:00","2021","03","17","04:00","-37.4","","-41.2","","68","","","M","14","","1","","","M","98.20","","","","-39","","NA"
"-139.84","67.57","OLD CROW A","2100807","2021-03-17 05:00","2021","03","17","05:00","-38.1","","-42.1","","67","","","M","15","","3","","","M","98.16","","","","-42","","NA"
"-139.84","67.57","OLD CROW A","2100807","2021-03-17 06:00","2021","03","17","06:00","-38.5","","-42.6","","66","","","M","8","","1","","","M","98.13","","","","-40","","NA"
"-139.84","67.57","OLD CROW A","2100807","2021-03-17 07:00","2021","03","17","07:00","-39.0","","-43.1","","66","","","M","13","","2","","","M","98.14","","","","-42","","NA"
"-139.84","67.57","OLD CROW A","2100807","2021-03-17 08:00","2021","03","17","08:00","-39.1","","-43.3","","66","","","M","3","","4","","","M","98.13","","","","-45","","NA"
"-139.84","67.57","OLD CROW A","2100807","2021-03-17 09:00","2021","03","17","09:00","-37.7","","-41.8","","66","","","M","4","","3","","","M","98.08","","","","-42","","NA"
"-139.84","67.57","OLD CROW A","2100807","2021-03-17 10:00","2021","03","17","10:00","-33.8","","-37.7","","68","","","M","17","","2","","","M","98.03","","","","-36","","NA"
"-139.84","67.57","OLD CROW A","2100807","2021-03-17 11:00","2021","03","17","11:00","-30.8","","-35.2","","66","","","M","27","","3","","","M","97.94","","","","-34","","NA"
"-139.84","67.57","OLD CROW A","2100807","2021-03-17 12:00","2021","03","17","12:00","-27.6","","-32.8","","62","","","M","23","","4","","","M","97.88","","","","-32","","NA"
"-139.84","67.57","OLD CROW A","2100807","2021-03-17 13:00","2021","03","17","13:00","-24.4","","-30.4","","58","","","M","25","","4","","","M","97.83","","","","-28","","NA"
"-139.84","67.57","OLD CROW A","2100807","2021-03-17 14:00","2021","03","17","14:00","-22.6","","-29.3","","55","","","M","28","","4","","","M","97.78","","","","-26","","NA"
"-139.84","67.57","OLD CROW A","2100807","2021-03-17 15:00","2021","03","17","15:00","-20.0","","-27.6","","51","","","M","30","","2","","","M","97.68","","","","-22","","NA"
"-139.84","67.57","OLD CROW A","2100807","2021-03-17 16:00","2021","03","17","16:00","-17.5","","-25.1","","53","","","M","9","","5","","","M","97.62","","","","-21","","NA"
"-139.84","67.57","OLD CROW A","2100807","2021-03-17 17:00","2021","03","17","17:00","-17.9","","-25.0","","54","","","M","7","","10","","","M","97.57","","","","-25","","NA"
"-139.84","67.57","OLD CROW A","2100807","2021-03-17 18:00","2021","03","17","18:00","-19.4","","-25.9","","57","","","M","10","","10","","","M","97.49","","","","-26","","NA"
"-139.84","67.57","OLD CROW A","2100807","2021-03-17 19:00","2021","03","17","19:00","-21.5","","-26.9","","62","","","M","9","","8","","","M","97.46","","","","-28","","NA"
"-139.84","67.57","OLD CROW A","2100807","2021-03-17 20:00","2021","03","17","20:00","-24.9","","-29.1","","68","","","M","11","","5","","","M","97.46","","","","-30","","NA"
"-139.84","67.57","OLD CROW A","2100807","2021-03-17 21:00","2021","03","17","21:00","-28.1","","-31.5","","73","","","M","25","","2","","","M","97.44","","","","-30","","NA"
"-139.84","67.57","OLD CROW A","2100807","2021-03-17 22:00","2021","03","17","22:00","-30.4","","-34.1","","70","","","M","35","","1","","","M","97.43","","","","-32","","NA"
"-139.84","67.57","OLD CROW A","2100807","2021-03-17 23:00","2021","03","17","23:00","-30.9","","-34.3","","72","","","M","22","","5","","","M","97.42","","","","-37","","NA"
"-139.84","67.57","OLD CROW A","2100807","2021-03-18 00:00","2021","03","18","00:00","-31.7","","-35.0","","73","","","M","9","","2","","","M","97.43","","","","-34","","NA"
"-139.84","67.57","OLD CROW A","2100807","2021-03-18 01:00","2021","03","18","01:00","-32.8","","-36.4","","71","","","M","27","","3","","","M","97.46","","","","-36","","NA"
"-139.84","67.57","OLD CROW A","2100807","2021-03-18 02:00","2021","03","18","02:00","-34.9","","-38.6","","70","","","M","34","","5","","","M","97.47","","","","-41","","NA"
"-139.84","67.57","OLD CROW A","2100807","2021-03-18 03:00","2021","03","18","03:00","-35.1","","-38.7","","70","","","M","5","","3","","","M","97.48","","","","-39","","NA"
"-139.84","67.57","OLD CROW A","2100807","2021-03-18 04:00","2021","03","18","04:00","-35.7","","-39.6","","68","","","M","0","","1","","","M","97.50","","","","-37","","NA"
"-139.84","67.57","OLD CROW A","2100807","2021-03-18 05:00","2021","03","18","05:00","-37.2","","-41.1","","68","","","M","2","","3","","","M","97.55","","","","-41","","NA"
"-139.84","67.57","OLD CROW A","2100807","2021-03-18 06:00","2021","03","18","06:00","-37.5","","-41.6","","67","","","M","25","","1","","","M","97.57","","","","-39","","NA"
"-139.84","67.57","OLD CROW A","2100807","2021-03-18 07:00","2021","03","18","07:00","-37.5","","-41.5","","67","","","M","11","","3","","","M","97.63","","","","-41","","NA"
"-139.84","67.57","OLD CROW A","2100807","2021-03-18 08:00","2021","03","18","08:00","-37.8","","-41.8","","67","","","M","13","","4","","","M","97.68","","","","-43","","NA"
"-139.84","67.57","OLD CROW A","2100807","2021-03-18 09:00","2021","03","18","09:00","-36.0","","-40.2","","66","","","M","23","","2","","","M","97.72","","","","-39","","NA"
"-139.84","67.57","OLD CROW A","2100807","2021-03-18 10:00","2021","03","18","10:00","-33.5","","-37.4","","69","","","M","0","","1","","","M","97.74","","","","-35","","NA"
"-139.84","67.57","OLD CROW A","2100807","2021-03-18 11:00","2021","03","18","11:00","-30.8","","-34.8","","69","","","M","30","","1","","","M","97.79","","","","-32","","NA"
"-139.84","67.57","OLD CROW A","2100807","2021-03-18 12:00","2021","03","18","12:00","-27.6","","-32.5","","64","","","M","29","","1","","","M","97.85","","","","-29","","NA"
"-139.84","67.57","OLD CROW A","2100807","2021-03-18 13:00","2021","03","18","13:00","-24.1","","-30.6","","56","","","M","20","","5","","","M","97.84","","","","-29","","NA"
"-139.84","67.57","OLD CROW A","2100807","2021-03-18 14:00","2021","03","18","14:00","-22.0","","-28.0","","59","","","M","28","","2","","","M","97.85","","","","-24","","NA"
"-139.84","67.57","OLD CROW A","2100807","2021-03-18 15:00","2021","03","18","15:00","-20.7","","-27.4","","56","","","M","29","","5","","","M","97.91","","","","-25","","NA"
"-139.84","67.57","OLD CROW A","2100807","2021-03-18 16:00","2021","03","18","16:00","-18.2","","-25.8","","52","","","M","23","","4","","","M","97.91","","","","-21","","NA"
"-139.84","67.57","OLD CROW A","2100807","2021-03-18 17:00","2021","03","18","17:00","-18.3","","-25.6","","53","","","M","9","","5","","","M","97.96","","","","-22","","NA"
"-139.84","67.57","OLD CROW A","2100807","2021-03-18 18:00","2021","03","18","18:00","-20.6","","-26.9","","58","","","M","8","","12","","","M","98.02","","","","-29","","NA"
"-139.84","67.57","OLD CROW A","2100807","2021-03-18 19:00","2021","03","18","19:00","-21.7","","-27.6","","60","","","M","9","","8","","","M","98.05","","","","-28","","NA"
"-139.84","67.57","OLD CROW A","2100807","2021-03-18 20:00","2021","03","18","20:00","-23.3","","-28.1","","66","","","M","27","","4","","","M","98.10","","","","-27","","NA"
"-139.84","67.57","OLD CROW A","2100807","2021-03-18 21:00","2021","03","18","21:00","-27.5","","-31.1","","72","","","M","12","","3","","","M","98.18","","","","-31","","NA"
"-139.84","67.57","OLD CROW A","2100807","2021-03-18 22:00","2021","03","18","22:00","-29.1","","-32.5","","73","","","M","31","","3","","","M","98.25","","","","-32","","NA"
"-139.84","67.57","OLD CROW A","2100807","2021-03-18 23:00","2021","03","18","23:00","-30.7","","-34.1","","72","","","M","30","","4","","","M","98.30","","","","-35","","NA"
"-139.84","67.57","OLD CROW A","2100807","2021-03-19 00:00","2021","03","19","00:00","-31.6","","-35.0","","72","","","M","32","","3","","","M","98.36","","","","-35","","NA"
"-139.84","67.57","OLD CROW A","2100807","2021-03-19 01:00","2021","03","19","01:00","-32.8","","-36.5","","70","","","M","18","","2","","","M","98.40","","","","-35","","NA"
"-139.84","67.57","OLD CROW A","2100807","2021-03-19 02:00","2021","03","19","02:00","-32.6","","-36.3","","70","","","M","31","","3","","","M","98.45","","","","-36","","NA"
"-139.84","67.57","OLD CROW A","2100807","2021-03-19 03:00","2021","03","19","03:00","-33.9","","-37.7","","70","","","M","6","","2","","","M","98.50","","","","-36","","NA"
"-139.84","67.57","OLD CROW A","2100807","2021-03-19 04:00","2021","03","19","04:00","-34.0","","-37.9","","69","","","M","24","","3","","","M","98.53","","","","-38","","NA"
"-139.84","67.57","OLD CROW A","2100807","2021-03-19 05:00","2021","03","19","05:00","-34.0","","-37.9","","69","","","M","","","0","","","M","98.55","","","","","","NA"
"-139.84","67.57","OLD CROW A","2100807","2021-03-19 06:00","2021","03","19","06:00","-34.2","","-38.1","","69","","","M","30","","3","","","M","98.61","","","","-38","","NA"
"-139.84","67.57","OLD CROW A","2100807","2021-03-19 07:00","2021","03","19","07:00","-35.7","","-39.6","","68","","","M","6","","3","","","M","98.65","","","","-40","","NA"
"-139.84","67.57","OLD CROW A","2100807","2021-03-19 08:00","2021","03","19","08:00","-34.9","","-38.9","","68","","","M","7","","2","","","M","98.67","","","","-37","","NA"
"-139.84","67.57","OLD CROW A","2100807","2021-03-19 09:00","2021","03","19","09:00","-33.6","","-37.7","","67","","","M","22","","3","","","M","98.73","","","","-37","","NA"
"-139.84","67.57","OLD CROW A","2100807","2021-03-19 10:00","2021","03","19","10:00","-31.8","","-35.7","","69","","","M","19","","1","","","M","98.74","","","","-33","","NA"
"-139.84","67.57","OLD CROW A","2100807","2021-03-19 11:00","2021","03","19","11:00","-28.3","","-33.1","","64","","","M","13","","4","","","M","98.75","","","","-33","","NA"
"-139.84","67.57","OLD CROW A","2100807","2021-03-19 12:00","2021","03","19","12:00","-25.5","","-30.8","","62","","","M","27","","6","","","M","98.74","","","","-31","","NA"
"-139.84","67.57","OLD CROW A","2100807","2021-03-19 13:00","2021","03","19","13:00","-22.9","","-28.4","","61","","","M","28","","7","","","M","98.77","","","","-29","","NA"
"-139.84","67.57","OLD CROW A","2100807","2021-03-19 14:00","2021","03","19","14:00","-19.5","","-26.4","","55","","","M","14","","4","","","M","98.75","","","","-23","","NA"
"-139.84","67.57","OLD CROW A","2100807","2021-03-19 15:00","2021","03","19","15:00","-17.9","","-24.9","","55","","","M","10","","8","","","M","98.75","","","","-24","","NA"
"-139.84","67.57","OLD CROW A","2100807","2021-03-19 16:00","2021","03","19","16:00","-18.0","","-25.0","","55","","","M","9","","14","","","M","98.74","","","","-26","","NA"
"-139.84","67.57","OLD CROW A","2100807","2021-03-19 17:00","2021","03","19","17:00","-18.1","","-25.0","","56","","","M","5","","15","","","M","98.75","","","","-27","","NA"
"-139.84","67.57","OLD CROW A","2100807","2021-03-19 18:00","2021","03","19","18:00","-19.0","","-25.4","","58","","","M","4","","14","","","M","98.77","","","","-28","","NA"
"-139.84","67.57","OLD CROW A","2100807","2021-03-19 19:00","2021","03","19","19:00","-20.1","","-25.8","","61","","","M","8","","14","","","M","98.80","","","","-29","","NA"
"-139.84","67.57","OLD CROW A","2100807","2021-03-19 20:00","2021","03","19","20:00","-22.8","","-27.7","","65","","","M","10","","10","","","M","98.83","","","","-31","","NA"
"-139.84","67.57","OLD CROW A","2100807","2021-03-19 21:00","2021","03","19","21:00","-27.1","","-30.6","","73","","","M","4","","4","","","M","98.83","","","","-31","","NA"
"-139.84","67.57","OLD CROW A","2100807","2021-03-19 22:00","2021","03","19","22:00","-27.8","","-30.7","","76","","","M","14","","2","","","M","98.85","","","","-30","","NA"
"-139.84","67.57","OLD CROW A","2100807","2021-03-19 23:00","2021","03","19","23:00","-30.0","","-33.3","","74","","","M","31","","1","","","M","98.86","","","","-31","","NA"
"-139.84","67.57","OLD CROW A","2100807","2021-03-20 00:00","2021","03","20","00:00","-30.8","","-34.1","","73","","","M","25","","4","","","M","98.89","","","","-35","","NA"
"-139.84","67.57","OLD CROW A","2100807","2021-03-20 01:00","2021","03","20","01:00","-32.7","","-36.2","","71","","","M","1","","2","","","M","98.90","","","","-35","","NA"
"-139.84","67.57","OLD CROW A","2100807","2021-03-20 02:00","2021","03","20","02:00","-32.4","","-36.0","","71","","","M","20","","1","","","M","98.90","","","","-34","","NA"
"-139.84","67.57","OLD CROW A","2100807","2021-03-20 03:00","2021","03","20","03:00","-34.6","","-38.4","","69","","","M","8","","1","","","M","98.93","","","","-36","","NA"
"-139.84","67.57","OLD CROW A","2100807","2021-03-20 04:00","2021","03","20","04:00","-34.7","","-38.5","","69","","","M","21","","2","","","M","98.93","","","","-37","","NA"
"-139.84","67.57","OLD CROW A","2100807","2021-03-20 05:00","2021","03","20","05:00","-35.5","","-39.2","","70","","","M","28","","3","","","M","98.93","","","","-39","","NA"
"-139.84","67.57","OLD CROW A","2100807","2021-03-20 06:00","2021","03","20","06:00","-36.7","","-40.7","","68","","","M","29","","3","","","M","98.96","","","","-41","","NA"
"-139.84","67.57","OLD CROW A","2100807","2021-03-20 07:00","2021","03","20","07:00","-38.2","","-42.3","","67","","","M","11","","3","","","M","98.94","","","","-42","","NA"
"-139.84","67.57","OLD CROW A","2100807","2021-03-20 08:00","2021","03","20","08:00","-37.2","","-41.1","","68","","","M","10","","1","","","M","98.92","","","","-39","","NA"
"-139.84","67.57","OLD CROW A","2100807","2021-03-20 09:00","2021","03","20","09:00","-35.5","","-39.4","","68","","","M","7","","1","","","M","98.94","","","","-37","","NA"
"-139.84","67.57","OLD CROW A","2100807","2021-03-20 10:00","2021","03","20","10:00","-32.0","","-35.7","","71","","","M","29","","3","","","M","98.93","","","","-36","","NA"
"-139.84","67.57","OLD CROW A","2100807","2021-03-20 11:00","2021","03","20","11:00","-28.5","","-32.6","","69","","","M","24","","4","","","M","98.92","","","","-33","","NA"
"-139.84","67.57","OLD CROW A","2100807","2021-03-20 12:00","2021","03","20","12:00","-26.0","","-31.3","","62","","","M","27","","6","","","M","98.91","","","","-32","","NA"
"-139.84","67.57","OLD CROW A","2100807","2021-03-20 13:00","2021","03","20","13:00","-21.3","","-27.3","","59","","","M","10","","3","","","M","98.87","","","","-24","","NA"
"-139.84","67.57","OLD CROW A","2100807","2021-03-20 14:00","2021","03","20","14:00","-17.7","","-24.9","","54","","","M","8","","13","","","M","98.84","","","","-26","","NA"
"-139.84","67.57","OLD CROW A","2100807","2021-03-20 15:00","2021","03","20","15:00","-17.4","","-24.7","","54","","","M","6","","16","","","M","98.82","","","","-26","","NA"
"-139.84","67.57","OLD CROW A","2100807","2021-03-20 16:00","2021","03","20","16:00","-18.2","","-25.1","","55","","","M","6","","22","","","M","98.81","","","","-29","","NA"
"-139.84","67.57","OLD CROW A","2100807","2021-03-20 17:00","2021","03","20","17:00","-18.5","","-25.1","","57","","","M","5","","23","","","M","98.80","","","","-29","","NA"
"-139.84","67.57","OLD CROW A","2100807","2021-03-20 18:00","2021","03","20","18:00","-18.9","","-24.9","","60","","","M","4","","21","","","M","98.80","","","","-29","","NA"
"-139.84","67.57","OLD CROW A","2100807","2021-03-20 19:00","2021","03","20","19:00","-19.6","","-25.0","","63","","","M","5","","17","","","M","98.81","","","","-29","","NA"
"-139.84","67.57","OLD CROW A","2100807","2021-03-20 20:00","2021","03","20","20:00","-20.6","","-25.1","","68","","","M","6","","12","","","M","98.82","","","","-29","","NA"
"-139.84","67.57","OLD CROW A","2100807","2021-03-20 21:00","2021","03","20","21:00","-23.4","","-27.1","","72","","","M","8","","11","","","M","98.81","","","","-32","","NA"
"-139.84","67.57","OLD CROW A","2100807","2021-03-20 22:00","2021","03","20","22:00","-24.4","","-27.9","","74","","","M","8","","9","","","M","98.82","","","","-32","","NA"
"-139.84","67.57","OLD CROW A","2100807","2021-03-20 23:00","2021","03","20","23:00","-25.3","","-28.6","","74","","","M","9","","9","","","M","98.82","","","","-33","","NA"
"-139.84","67.57","OLD CROW A","2100807","2021-03-21 00:00","2021","03","21","00:00","-25.9","","-29.0","","75","","","M","10","","9","","","M","98.82","","","","-34","","NA"
"-139.84","67.57","OLD CROW A","2100807","2021-03-21 01:00","2021","03","21","01:00","-26.6","","-29.9","","74","","","M","10","","9","","","M","98.83","","","","-35","","NA"
"-139.84","67.57","OLD CROW A","2100807","2021-03-21 02:00","2021","03","21","02:00","-27.9","","-31.2","","74","","","M","9","","4","","","M","98.84","","","","-32","","NA"
"-139.84","67.57","OLD CROW A","2100807","2021-03-21 03:00","2021","03","21","03:00","-28.8","","-31.8","","76","","","M","10","","4","","","M","98.85","","","","-33","","NA"
"-139.84","67.57","OLD CROW A","2100807","2021-03-21 04:00","2021","03","21","04:00","-30.1","","-33.2","","75","","","M","8","","5","","","M","98.84","","","","-36","","NA"
"-139.84","67.57","OLD CROW A","2100807","2021-03-21 05:00","2021","03","21","05:00","-30.9","","-34.0","","75","","","M","8","","7","","","M","98.83","","","","-38","","NA"
"-139.84","67.57","OLD CROW A","2100807","2021-03-21 06:00","2021","03","21","06:00","-31.0","","-34.3","","74","","","M","8","","6","","","M","98.84","","","","-38","","NA"
"-139.84","67.57","OLD CROW A","2100807","2021-03-21 07:00","2021","03","21","07:00","-31.7","","-35.1","","72","","","M","6","","1","","","M","98.84","","","","-33","","NA"
"-139.84","67.57","OLD CROW A","2100807","2021-03-21 08:00","2021","03","21","08:00","-30.4","","-33.5","","75","","","M","6","","8","","","M","98.86","","","","-38","","NA"
"-139.84","67.57","OLD CROW A","2100807","2021-03-21 09:00","2021","03","21","09:00","-27.7","","-30.8","","75","","","M","8","","6","","","M","98.87","","","","-34","","NA"
"-139.84","67.57","OLD CROW A","2100807","2021-03-21 10:00","2021","03","21","10:00","-24.2","","-27.6","","74","","","M","10","","5","","","M","98.89","","","","-29","","NA"
"-139.84","67.57","OLD CROW A","2100807","2021-03-21 11:00","2021","03","21","11:00","-20.2","","-24.8","","68","","","M","10","","7","","","M","98.88","","","","-26","","NA"
"-139.84","67.57","OLD CROW A","2100807","2021-03-21 12:00","2021","03","21","12:00","-18.3","","-24.5","","59","","","M","8","","12","","","M","98.88","","","","-26","","NA"
"-139.84","67.57","OLD CROW A","2100807","2021-03-21 13:00","2021","03","21","13:00","-16.9","","-24.1","","54","","","M","7","","15","","","M","98.89","","","","-25","","NA"
"-139.84","67.57","OLD CROW A","2100807","2021-03-21 14:00","2021","03","21","14:00","-16.0","","-23.8","","52","","","M","7","","14","","","M","98.89","","","","-24","","NA"
"-139.84","67.57","OLD CROW A","2100807","2021-03-21 15:00","2021","03","21","15:00","-16.2","","-23.8","","53","","","M","5","","20","","","M","98.90","","","","-26","","NA"
"-139.84","67.57","OLD CROW A","2100807","2021-03-21 16:00","2021","03","21","16:00","-16.0","","-23.6","","53","","","M","5","","16","","","M","98.90","","","","-24","","NA"
"-139.84","67.57","OLD CROW A","2100807","2021-03-21 17:00","2021","03","21","17:00","-16.2","","-23.9","","52","","","M","6","","16","","","M","98.91","","","","-25","","NA"
"-139.84","67.57","OLD CROW A","2100807","2021-03-21 18:00","2021","03","21","18:00","-16.8","","-24.2","","53","","","M","5","","14","","","M","98.91","","","","-25","","NA"
"-139.84","67.57","OLD CROW A","2100807","2021-03-21 19:00","2021","03","21","19:00","-17.6","","-24.7","","55","","","M","7","","9","","","M","98.94","","","","-24","","NA"
"-139.84","67.57","OLD CROW A","2100807","2021-03-21 20:00","2021","03","21","20:00","-21.4","","-26.4","","65","","","M","8","","9","","","M","98.97","","","","-28","","NA"
"-139.84","67.57","OLD CROW A","2100807","2021-03-21 21:00","2021","03","21","21:00","-22.0","","-26.7","","67","","","M","6","","10","","","M","98.99","","","","-30","","NA"
"-139.84","67.57","OLD CROW A","2100807","2021-03-21 22:00","2021","03","21","22:00","-23.2","","-27.3","","70","","","M","8","","8","","","M","99.03","","","","-30","","NA"
"-139.84","67.57","OLD CROW A","2100807","2021-03-21 23:00","2021","03","21","23:00","-26.0","","-29.1","","76","","","M","12","","4","","","M","99.05","","","","-30","","NA"
"-139.84","67.57","OLD CROW A","2100807","2021-03-22 00:00","2021","03","22","00:00","-27.2","","-30.2","","77","","","M","7","","7","","","M","99.10","","","","-34","","NA"
"-139.84","67.57","OLD CROW A","2100807","2021-03-22 01:00","2021","03","22","01:00","-28.2","","-31.3","","76","","","M","","","0","","","M","99.13","","","","","","NA"
"-139.84","67.57","OLD CROW A","2100807","2021-03-22 02:00","2021","03","22","02:00","-28.9","","-31.9","","76","","","M","8","","2","","","M","99.18","","","","-31","","NA"
"-139.84","67.57","OLD CROW A","2100807","2021-03-22 03:00","2021","03","22","03:00","-30.4","","-33.6","","74","","","M","0","","1","","","M","99.21","","","","-32","","NA"
"-139.84","67.57","OLD CROW A","2100807","2021-03-22 04:00","2021","03","22","04:00","-31.3","","-34.8","","72","","","M","26","","4","","","M","99.21","","","","-36","","NA"
"-139.84","67.57","OLD CROW A","2100807","2021-03-22 05:00","2021","03","22","05:00","-33.6","","-37.3","","70","","","M","1","","1","","","M","99.22","","","","-35","","NA"
"-139.84","67.57","OLD CROW A","2100807","2021-03-22 06:00","2021","03","22","06:00","-33.6","","-37.4","","70","","","M","36","","2","","","M","99.23","","","","-36","","NA"
"-139.84","67.57","OLD CROW A","2100807","2021-03-22 07:00","2021","03","22","07:00","-34.4","","-38.1","","70","","","M","26","","4","","","M","99.28","","","","-39","","NA"
"-139.84","67.57","OLD CROW A","2100807","2021-03-22 08:00","2021","03","22","08:00","-34.6","","-38.5","","69","","","M","29","","3","","","M","99.31","","","","-38","","NA"
"-139.84","67.57","OLD CROW A","2100807","2021-03-22 09:00","2021","03","22","09:00","-32.1","","-35.7","","71","","","M","15","","1","","","M","99.32","","","","-33","","NA"
"-139.84","67.57","OLD CROW A","2100807","2021-03-22 10:00","2021","03","22","10:00","-28.6","","-32.1","","72","","","M","24","","2","","","M","99.33","","","","-31","","NA"
"-139.84","67.57","OLD CROW A","2100807","2021-03-22 11:00","2021","03","22","11:00","-25.9","","-30.3","","68","","","M","27","","5","","","M","99.34","","","","-31","","NA"
"-139.84","67.57","OLD CROW A","2100807","2021-03-22 12:00","2021","03","22","12:00","-22.4","","-28.0","","61","","","M","25","","2","","","M","99.32","","","","-24","","NA"
"-139.84","67.57","OLD CROW A","2100807","2021-03-22 13:00","2021","03","22","13:00","-16.8","","-24.4","","53","","","M","9","","8","","","M","99.30","","","","-22","","NA"
"-139.84","67.57","OLD CROW A","2100807","2021-03-22 14:00","2021","03","22","14:00","-15.3","","-23.6","","50","","","M","8","","11","","","M","99.27","","","","-22","","NA"
"-139.84","67.57","OLD CROW A","2100807","2021-03-22 15:00","2021","03","22","15:00","-14.2","","-22.9","","49","","","M","7","","8","","","M","99.23","","","","-19","","NA"
"-139.84","67.57","OLD CROW A","2100807","2021-03-22 16:00","2021","03","22","16:00","-13.9","","-22.5","","49","","","M","6","","13","","","M","99.18","","","","-21","","NA"
"-139.84","67.57","OLD CROW A","2100807","2021-03-22 17:00","2021","03","22","17:00","-14.4","","-22.8","","50","","","M","6","","14","","","M","99.16","","","","-22","","NA"
"-139.84","67.57","OLD CROW A","2100807","2021-03-22 18:00","2021","03","22","18:00","-15.3","","-23.3","","51","","","M","7","","16","","","M","99.13","","","","-24","","NA"
"-139.84","67.57","OLD CROW A","2100807","2021-03-22 19:00","2021","03","22","19:00","-17.0","","-24.3","","54","","","M","9","","8","","","M","99.10","","","","-23","","NA"
"-139.84","67.57","OLD CROW A","2100807","2021-03-22 20:00","2021","03","22","20:00","-18.8","","-24.6","","60","","","M","7","","10","","","M","99.07","","","","-26","","NA"
"-139.84","67.57","OLD CROW A","2100807","2021-03-22 21:00","2021","03","22","21:00","-21.8","","-26.2","","68","","","M","6","","11","","","M","99.04","","","","-30","","NA"
"-139.84","67.57","OLD CROW A","2100807","2021-03-22 22:00","2021","03","22","22:00","-23.6","","-27.6","","71","","","M","7","","9","","","M","99.04","","","","-31","","NA"
"-139.84","67.57","OLD CROW A","2100807","2021-03-22 23:00","2021","03","22","23:00","-24.7","","-28.2","","73","","","M","8","","6","","","M","99.04","","","","-30","","NA"
"-139.84","67.57","OLD CROW A","2100807","2021-03-23 00:00","2021","03","23","00:00","-25.1","","-28.3","","76","","","M","8","","7","","","M","99.00","","","","-32","","NA"
"-139.84","67.57","OLD CROW A","2100807","2021-03-23 01:00","2021","03","23","01:00","-27.0","","-30.3","","74","","","M","9","","5","","","M","98.98","","","","-32","","NA"
"-139.84","67.57","OLD CROW A","2100807","2021-03-23 02:00","2021","03","23","02:00","-28.1","","-31.3","","74","","","M","7","","4","","","M","98.94","","","","-32","","NA"
"-139.84","67.57","OLD CROW A","2100807","2021-03-23 03:00","2021","03","23","03:00","-28.8","","-31.8","","76","","","M","8","","7","","","M","98.86","","","","-36","","NA"
"-139.84","67.57","OLD CROW A","2100807","2021-03-23 04:00","2021","03","23","04:00","-29.8","","-33.0","","74","","","M","26","","3","","","M","98.83","","","","-33","","NA"
"-139.84","67.57","OLD CROW A","2100807","2021-03-23 05:00","2021","03","23","05:00","-30.1","","-33.4","","74","","","M","27","","6","","","M","98.79","","","","-37","","NA"
"-139.84","67.57","OLD CROW A","2100807","2021-03-23 06:00","2021","03","23","06:00","-32.3","","-35.9","","71","","","M","27","","4","","","M","98.77","","","","-37","","NA"
"-139.84","67.57","OLD CROW A","2100807","2021-03-23 07:00","2021","03","23","07:00","-32.1","","-35.6","","71","","","M","6","","3","","","M","98.71","","","","-36","","NA"
"-139.84","67.57","OLD CROW A","2100807","2021-03-23 08:00","2021","03","23","08:00","-30.6","","-34.4","","70","","","M","24","","3","","","M","98.69","","","","-34","","NA"
"-139.84","67.57","OLD CROW A","2100807","2021-03-23 09:00","2021","03","23","09:00","-29.6","","-33.4","","71","","","M","22","","4","","","M","98.66","","","","-34","","NA"
"-139.84","67.57","OLD CROW A","2100807","2021-03-23 10:00","2021","03","23","10:00","-28.2","","-31.7","","72","","","M","26","","4","","","M","98.62","","","","-33","","NA"
"-139.84","67.57","OLD CROW A","2100807","2021-03-23 11:00","2021","03","23","11:00","-25.5","","-29.3","","71","","","M","30","","3","","","M","98.59","","","","-29","","NA"
"-139.84","67.57","OLD CROW A","2100807","2021-03-23 12:00","2021","03","23","12:00","-23.4","","-28.2","","65","","","M","26","","7","","","M","98.53","","","","-30","","NA"
"-139.84","67.57","OLD CROW A","2100807","2021-03-23 13:00","2021","03","23","13:00","-20.8","","-26.8","","60","","","M","25","","4","","","M","98.51","","","","-24","","NA"
"-139.84","67.57","OLD CROW A","2100807","2021-03-23 14:00","2021","03","23","14:00","-19.2","","-26.0","","56","","","M","27","","6","","","M","98.48","","","","-24","","NA"
"-139.84","67.57","OLD CROW A","2100807","2021-03-23 15:00","2021","03","23","15:00","-17.6","","-25.2","","52","","","M","24","","3","","","M","98.43","","","","-20","","NA"
"-139.84","67.57","OLD CROW A","2100807","2021-03-23 16:00","2021","03","23","16:00","-17.3","","-25.0","","52","","","M","28","","4","","","M","98.36","","","","-20","","NA"
"-139.84","67.57","OLD CROW A","2100807","2021-03-23 17:00","2021","03","23","17:00","-16.2","","-24.4","","50","","","M","36","","2","","","M","98.33","","","","-18","","NA"
"-139.84","67.57","OLD CROW A","2100807","2021-03-23 18:00","2021","03","23","18:00","-16.0","","-24.1","","50","","","M","4","","3","","","M","98.35","","","","-18","","NA"
"-139.84","67.57","OLD CROW A","2100807","2021-03-23 19:00","2021","03","23","19:00","-16.0","","-24.1","","51","","","M","3","","2","","","M","98.33","","","","-17","","NA"
"-139.84","67.57","OLD CROW A","2100807","2021-03-23 20:00","2021","03","23","20:00","-17.6","","-23.6","","60","","","M","16","","2","","","M","98.33","","","","-19","","NA"
"-139.84","67.57","OLD CROW A","2100807","2021-03-23 21:00","2021","03","23","21:00","-20.7","","-25.6","","65","","","M","32","","2","","","M","98.31","","","","-22","","NA"
"-139.84","67.57","OLD CROW A","2100807","2021-03-23 22:00","2021","03","23","22:00","-21.6","","-26.2","","67","","","M","0","","1","","","M","98.26","","","","-22","","NA"
"-139.84","67.57","OLD CROW A","2100807","2021-03-23 23:00","2021","03","23","23:00","-22.8","","-27.0","","69","","","M","28","","9","","","M","98.24","","","","-30","","NA"
"-139.84","67.57","OLD CROW A","2100807","2021-03-24 00:00","2021","03","24","00:00","-21.5","","-25.6","","70","","","M","26","","6","","","M","98.22","","","","-27","","NA"
"-139.84","67.57","OLD CROW A","2100807","2021-03-24 01:00","2021","03","24","01:00","-22.6","","-26.7","","70","","","M","33","","3","","","M","98.14","","","","-25","","NA"
"-139.84","67.57","OLD CROW A","2100807","2021-03-24 02:00","2021","03","24","02:00","-22.9","","-26.1","","76","","","M","33","","3","","","M","98.10","","","","-26","","NA"
"-139.84","67.57","OLD CROW A","2100807","2021-03-24 03:00","2021","03","24","03:00","-24.4","","-28.1","","72","","","M","36","","3","","","M","98.07","","","","-27","","NA"
"-139.84","67.57","OLD CROW A","2100807","2021-03-24 04:00","2021","03","24","04:00","-25.8","","-29.1","","74","","","M","13","","1","","","M","98.06","","","","-27","","NA"
"-139.84","67.57","OLD CROW A","2100807","2021-03-24 05:00","2021","03","24","05:00","-25.5","","-28.6","","76","","","M","9","","4","","","M","98.01","","","","-30","","NA"
"-139.84","67.57","OLD CROW A","2100807","2021-03-24 06:00","2021","03","24","06:00","-24.1","","-26.9","","78","","","M","28","","4","","","M","97.97","","","","-28","","NA"
"-139.84","67.57","OLD CROW A","2100807","2021-03-24 07:00","2021","03","24","07:00","-19.2","","-21.7","","81","","","M","25","","15","","","M","97.90","","","","-28","","NA"
"-139.84","67.57","OLD CROW A","2100807","2021-03-24 08:00","2021","03","24","08:00","-17.1","","-20.5","","75","","","M","26","","15","","","M","97.89","","","","-26","","NA"
"-139.84","67.57","OLD CROW A","2100807","2021-03-24 09:00","2021","03","24","09:00","-16.7","","-20.1","","76","","","M","24","","9","","","M","97.90","","","","-23","","NA"
"-139.84","67.57","OLD CROW A","2100807","2021-03-24 10:00","2021","03","24","10:00","-13.7","","-17.2","","75","","","M","21","","8","","","M","97.88","","","","-19","","NA"
"-139.84","67.57","OLD CROW A","2100807","2021-03-24 11:00","2021","03","24","11:00","-11.3","","-15.6","","71","","","M","26","","28","","","M","97.84","","","","-21","","NA"
"-139.84","67.57","OLD CROW A","2100807","2021-03-24 12:00","2021","03","24","12:00","-10.3","","-14.9","","69","","","M","25","","27","","","M","97.80","","","","-19","","NA"
"-139.84","67.57","OLD CROW A","2100807","2021-03-24 13:00","2021","03","24","13:00","-9.0","","-15.1","","62","","","M","26","","32","","","M","97.77","","","","-18","","NA"
"-139.84","67.57","OLD CROW A","2100807","2021-03-24 14:00","2021","03","24","14:00","-8.1","","-15.4","","56","","","M","25","","28","","","M","97.79","","","","-17","","NA"
"-139.84","67.57","OLD CROW A","2100807","2021-03-24 15:00","2021","03","24","15:00","-7.4","","-14.7","","56","","","M","24","","25","","","M","97.74","","","","-15","","NA"
"-139.84","67.57","OLD CROW A","2100807","2021-03-24 16:00","2021","03","24","16:00","-7.4","","-14.2","","59","","","M","24","","18","","","M","97.73","","","","-14","","NA"
"-139.84","67.57","OLD CROW A","2100807","2021-03-24 17:00","2021","03","24","17:00","-7.8","","-13.3","","65","","","M","25","","18","","","M","97.74","","","","-15","","NA"
"-139.84","67.57","OLD CROW A","2100807","2021-03-24 18:00","2021","03","24","18:00","-7.5","","-13.7","","61","","","M","26","","19","","","M","97.72","","","","-15","","NA"
"-139.84","67.57","OLD CROW A","2100807","2021-03-24 19:00","2021","03","24","19:00","-8.3","","-13.3","","68","","","M","24","","16","","","M","97.77","","","","-15","","NA"
"-139.84","67.57","OLD CROW A","2100807","2021-03-24 20:00","2021","03","24","20:00","-9.0","","-11.9","","79","","","M","21","","8","","","M","97.75","","","","-13","","NA"
"-139.84","67.57","OLD CROW A","2100807","2021-03-24 21:00","2021","03","24","21:00","-9.3","","-11.8","","82","","","M","13","","1","","","M","97.75","","","","-10","","NA"
"-139.84","67.57","OLD CROW A","2100807","2021-03-24 22:00","2021","03","24","22:00","-10.6","","-12.6","","85","","","M","6","","4","","","M","97.76","","","","-13","","NA"
"-139.84","67.57","OLD CROW A","2100807","2021-03-24 23:00","2021","03","24","23:00","-9.6","","-11.6","","86","","","M","20","","2","","","M","97.75","","","","-11","","NA"
"-139.84","67.57","OLD CROW A","2100807","2021-03-25 00:00","2021","03","25","00:00","-8.8","","-11.6","","80","","","M","25","","9","","","M","97.78","","","","-13","","NA"
"-139.84","67.57","OLD CROW A","2100807","2021-03-25 01:00","2021","03","25","01:00","-8.5","","-12.4","","73","","","M","25","","17","","","M","97.76","","","","-15","","NA"
"-139.84","67.57","OLD CROW A","2100807","2021-03-25 02:00","2021","03","25","02:00","-9.1","","-13.2","","72","","","M","22","","7","","","M","97.74","","","","-13","","NA"
"-139.84","67.57","OLD CROW A","2100807","2021-03-25 03:00","2021","03","25","03:00","-10.3","","-13.6","","77","","","M","13","","4","","","M","97.69","","","","-13","","NA"
"-139.84","67.57","OLD CROW A","2100807","2021-03-25 04:00","2021","03","25","04:00","-11.6","","-14.1","","82","","","M","9","","5","","","M","97.68","","","","-15","","NA"
"-139.84","67.57","OLD CROW A","2100807","2021-03-25 05:00","2021","03","25","05:00","-10.2","","-12.6","","83","","","M","27","","8","","","M","97.66","","","","-15","","NA"
"-139.84","67.57","OLD CROW A","2100807","2021-03-25 06:00","2021","03","25","06:00","-10.6","","-12.4","","87","","","M","31","","4","","","M","97.66","","","","-13","","NA"
"-139.84","67.57","OLD CROW A","2100807","2021-03-25 07:00","2021","03","25","07:00","-10.6","","-12.4","","87","","","M","6","","3","","","M","97.65","","","","-12","","NA"
"-139.84","67.57","OLD CROW A","2100807","2021-03-25 08:00","2021","03","25","08:00","-9.0","","-11.0","","85","","","M","8","","3","","","M","97.63","","","","-11","","NA"
"-139.84","67.57","OLD CROW A","2100807","2021-03-25 09:00","2021","03","25","09:00","-7.3","","-9.8","","83","","","M","25","","12","","","M","97.61","","","","-13","","NA"
"-139.84","67.57","OLD CROW A","2100807","2021-03-25 10:00","2021","03","25","10:00","-6.6","","-9.5","","79","","","M","26","","20","","","M","97.59","","","","-14","","NA"
"-139.84","67.57","OLD CROW A","2100807","2021-03-25 11:00","2021","03","25","11:00","-5.6","","-9.4","","75","","","M","26","","20","","","M","97.60","","","","-12","","NA"
"-139.84","67.57","OLD CROW A","2100807","2021-03-25 12:00","2021","03","25","12:00","-5.4","","-9.2","","75","","","M","26","","19","","","M","97.58","","","","-12","","NA"
"-139.84","67.57","OLD CROW A","2100807","2021-03-25 13:00","2021","03","25","13:00","-4.5","","-8.3","","74","","","M","25","","13","","","M","97.57","","","","-10","","NA"
"-139.84","67.57","OLD CROW A","2100807","2021-03-25 14:00","2021","03","25","14:00","-4.2","","-9.0","","69","","","M","27","","11","","","M","97.58","","","","-9","","NA"
"-139.84","67.57","OLD CROW A","2100807","2021-03-25 15:00","2021","03","25","15:00","-3.3","","-8.1","","70","","","M","24","","7","","","M","97.55","","","","-6","","NA"
"-139.84","67.57","OLD CROW A","2100807","2021-03-25 16:00","2021","03","25","16:00","-3.2","","-8.0","","70","","","M","26","","16","","","M","97.53","","","","-9","","NA"
"-139.84","67.57","OLD CROW A","2100807","2021-03-25 17:00","2021","03","25","17:00","-2.8","","-7.7","","69","","","M","26","","12","","","M","97.51","","","","-7","","NA"
"-139.84","67.57","OLD CROW A","2100807","2021-03-25 18:00","2021","03","25","18:00","-6.7","","-11.9","","67","","","M","9","","10","","","M","97.53","","","","-11","","NA"
"-139.84","67.57","OLD CROW A","2100807","2021-03-25 19:00","2021","03","25","19:00","-8.7","","-12.8","","73","","","M","8","","12","","","M","97.55","","","","-14","","NA"
"-139.84","67.57","OLD CROW A","2100807","2021-03-25 20:00","2021","03","25","20:00","-9.5","","-12.7","","78","","","M","8","","10","","","M","97.55","","","","-15","","NA"
"-139.84","67.57","OLD CROW A","2100807","2021-03-25 21:00","2021","03","25","21:00","-9.7","","-12.8","","78","","","M","6","","19","","","M","97.61","","","","-17","","NA"
"-139.84","67.57","OLD CROW A","2100807","2021-03-25 22:00","2021","03","25","22:00","-10.9","","-13.8","","79","","","M","6","","18","","","M","97.65","","","","-19","","NA"
"-139.84","67.57","OLD CROW A","2100807","2021-03-25 23:00","2021","03","25","23:00","-9.9","","-13.0","","78","","","M","7","","15","","","M","97.67","","","","-17","","NA"
"-139.84","67.57","OLD CROW A","2100807","2021-03-26 00:00","2021","03","26","00:00","-9.7","","-12.6","","80","","","M","5","","14","","","M","97.72","","","","-16","","NA"
"-139.84","67.57","OLD CROW A","2100807","2021-03-26 01:00","2021","03","26","01:00","-9.7","","-12.7","","79","","","M","5","","18","","","M","97.71","","","","-17","","NA"
"-139.84","67.57","OLD CROW A","2100807","2021-03-26 02:00","2021","03","26","02:00","-10.8","","-14.4","","75","","","M","4","","23","","","M","97.73","","","","-19","","NA"
"-139.84","67.57","OLD CROW A","2100807","2021-03-26 03:00","2021","03","26","03:00","-12.1","","-15.4","","76","","","M","3","","35","","","M","97.75","","","","-23","","NA"
"-139.84","67.57","OLD CROW A","2100807","2021-03-26 04:00","2021","03","26","04:00","-12.9","","-15.9","","78","","","M","4","","30","","","M","97.80","","","","-23","","NA"
"-139.84","67.57","OLD CROW A","2100807","2021-03-26 05:00","2021","03","26","05:00","-13.9","","-17.5","","74","","","M","1","","11","","","M","97.97","","","","-20","","NA"
"-139.84","67.57","OLD CROW A","2100807","2021-03-26 06:00","2021","03","26","06:00","-14.8","","-18.2","","76","","","M","3","","23","","","M","98.02","","","","-25","","NA"
"-139.84","67.57","OLD CROW A","2100807","2021-03-26 07:00","2021","03","26","07:00","-14.5","","-18.6","","71","","","M","3","","26","","","M","98.05","","","","-25","","NA"
"-139.84","67.57","OLD CROW A","2100807","2021-03-26 08:00","2021","03","26","08:00","-14.7","","-19.3","","68","","","M","3","","24","","","M","98.14","","","","-25","","NA"
"-139.84","67.57","OLD CROW A","2100807","2021-03-26 09:00","2021","03","26","09:00","-14.9","","-19.5","","68","","","M","5","","14","","","M","98.19","","","","-22","","NA"
"-139.84","67.57","OLD CROW A","2100807","2021-03-26 10:00","2021","03","26","10:00","-14.8","","-19.8","","67","","","M","2","","18","","","M","98.26","","","","-23","","NA"
"-139.84","67.57","OLD CROW A","2100807","2021-03-26 11:00","2021","03","26","11:00","-14.5","","-19.9","","64","","","M","3","","15","","","M","98.31","","","","-22","","NA"
"-139.84","67.57","OLD CROW A","2100807","2021-03-26 12:00","2021","03","26","12:00","-14.5","","-20.6","","61","","","M","7","","21","","","M","98.34","","","","-24","","NA"
"-139.84","67.57","OLD CROW A","2100807","2021-03-26 13:00","2021","03","26","13:00","-14.7","","-20.2","","63","","","M","8","","14","","","M","98.38","","","","-22","","NA"
"-139.84","67.57","OLD CROW A","2100807","2021-03-26 14:00","2021","03","26","14:00","-14.9","","-20.9","","61","","","M","6","","26","","","M","98.39","","","","-25","","NA"
"-139.84","67.57","OLD CROW A","2100807","2021-03-26 15:00","2021","03","26","15:00","-14.8","","-20.6","","62","","","M","7","","14","","","M","98.39","","","","-22","","NA"
"-139.84","67.57","OLD CROW A","2100807","2021-03-26 16:00","2021","03","26","16:00","-14.9","","-20.4","","63","","","M","8","","13","","","M","98.41","","","","-22","","NA"
"-139.84","67.57","OLD CROW A","2100807","2021-03-26 17:00","2021","03","26","17:00","-15.5","","-21.1","","63","","","M","8","","14","","","M","98.38","","","","-23","","NA"
"-139.84","67.57","OLD CROW A","2100807","2021-03-26 18:00","2021","03","26","18:00","-16.5","","-21.7","","64","","","M","7","","16","","","M","98.36","","","","-25","","NA"
"-139.84","67.57","OLD CROW A","2100807","2021-03-26 19:00","2021","03","26","19:00","-16.4","","-21.9","","63","","","M","7","","14","","","M","98.38","","","","-24","","NA"
"-139.84","67.57","OLD CROW A","2100807","2021-03-26 20:00","2021","03","26","20:00","-16.4","","-21.2","","67","","","M","8","","9","","","M","98.36","","","","-22","","NA"
"-139.84","67.57","OLD CROW A","2100807","2021-03-26 21:00","2021","03","26","21:00","-18.5","","-22.9","","69","","","M","9","","9","","","M","98.38","","","","-25","","NA"
"-139.84","67.57","OLD CROW A","2100807","2021-03-26 22:00","2021","03","26","22:00","-20.2","","-24.1","","72","","","M","10","","12","","","M","98.36","","","","-28","","NA"
"-139.84","67.57","OLD CROW A","2100807","2021-03-26 23:00","2021","03","26","23:00","-20.1","","-23.7","","73","","","M","10","","9","","","M","98.35","","","","-27","","NA"
"-139.84","67.57","OLD CROW A","2100807","2021-03-27 00:00","2021","03","27","00:00","-18.1","","-22.8","","68","","","M","3","","9","","","M","98.35","","","","-24","","NA"
"-139.84","67.57","OLD CROW A","2100807","2021-03-27 01:00","2021","03","27","01:00","-20.7","","-23.8","","76","","","M","14","","1","","","M","98.36","","","","-22","","NA"
"-139.84","67.57","OLD CROW A","2100807","2021-03-27 02:00","2021","03","27","02:00","-20.8","","-23.8","","77","","","M","30","","4","","","M","98.37","","","","-24","","NA"
"-139.84","67.57","OLD CROW A","2100807","2021-03-27 03:00","2021","03","27","03:00","-18.6","","-23.3","","67","","","M","3","","17","","","M","98.35","","","","-28","","NA"
"-139.84","67.57","OLD CROW A","2100807","2021-03-27 04:00","2021","03","27","04:00","-21.4","","-24.4","","78","","","M","28","","1","","","M","98.35","","","","-22","","NA"
"-139.84","67.57","OLD CROW A","2100807","2021-03-27 05:00","2021","03","27","05:00","-19.4","","-24.0","","68","","","M","5","","10","","","M","98.34","","","","-26","","NA"
"-139.84","67.57","OLD CROW A","2100807","2021-03-27 06:00","2021","03","27","06:00","-19.3","","-24.1","","66","","","M","2","","15","","","M","98.33","","","","-28","","NA"
"-139.84","67.57","OLD CROW A","2100807","2021-03-27 07:00","2021","03","27","07:00","-19.4","","-23.9","","68","","","M","7","","11","","","M","98.34","","","","-27","","NA"
"-139.84","67.57","OLD CROW A","2100807","2021-03-27 08:00","2021","03","27","08:00","-19.4","","-24.3","","66","","","M","6","","16","","","M","98.34","","","","-29","","NA"
"-139.84","67.57","OLD CROW A","2100807","2021-03-27 09:00","2021","03","27","09:00","-19.3","","-24.4","","65","","","M","5","","20","","","M","98.38","","","","-30","","NA"
"-139.84","67.57","OLD CROW A","2100807","2021-03-27 10:00","2021","03","27","10:00","-19.3","","-24.6","","63","","","M","5","","26","","","M","98.39","","","","-31","","NA"
"-139.84","67.57","OLD CROW A","2100807","2021-03-27 11:00","2021","03","27","11:00","-18.4","","-24.2","","61","","","M","5","","31","","","M","98.42","","","","-31","","NA"
"-139.84","67.57","OLD CROW A","2100807","2021-03-27 12:00","2021","03","27","12:00","-18.5","","-23.9","","63","","","M","4","","20","","","M","98.45","","","","-29","","NA"
"-139.84","67.57","OLD CROW A","2100807","2021-03-27 13:00","2021","03","27","13:00","-18.0","","-23.5","","63","","","M","4","","24","","","M","98.49","","","","-29","","NA"
"-139.84","67.57","OLD CROW A","2100807","2021-03-27 14:00","2021","03","27","14:00","-18.2","","-23.7","","63","","","M","6","","28","","","M","98.54","","","","-30","","NA"
"-139.84","67.57","OLD CROW A","2100807","2021-03-27 15:00","2021","03","27","15:00","-17.8","","-23.5","","62","","","M","4","","29","","","M","98.63","","","","-30","","NA"
"-139.84","67.57","OLD CROW A","2100807","2021-03-27 16:00","2021","03","27","16:00","-18.3","","-23.9","","62","","","M","6","","28","","","M","98.70","","","","-30","","NA"
"-139.84","67.57","OLD CROW A","2100807","2021-03-27 17:00","2021","03","27","17:00","-18.6","","-24.4","","61","","","M","4","","30","","","M","98.75","","","","-31","","NA"
"-139.84","67.57","OLD CROW A","2100807","2021-03-27 18:00","2021","03","27","18:00","-19.6","","-25.0","","63","","","M","5","","36","","","M","98.82","","","","-33","","NA"
"-139.84","67.57","OLD CROW A","2100807","2021-03-27 19:00","2021","03","27","19:00","-20.2","","-25.4","","64","","","M","5","","36","","","M","98.90","","","","-34","","NA"
"-139.84","67.57","OLD CROW A","2100807","2021-03-27 20:00","2021","03","27","20:00","-20.6","","-25.6","","64","","","M","5","","26","","","M","98.99","","","","-33","","NA"
"-139.84","67.57","OLD CROW A","2100807","2021-03-27 21:00","2021","03","27","21:00","-21.3","","-26.6","","63","","","M","4","","37","","","M","99.07","","","","-35","","NA"
"-139.84","67.57","OLD CROW A","2100807","2021-03-27 22:00","2021","03","27","22:00","-22.1","","-28.0","","59","","","M","4","","35","","","M","99.15","","","","-36","","NA"
"-139.84","67.57","OLD CROW A","2100807","2021-03-27 23:00","2021","03","27","23:00","-22.6","","-28.8","","58","","","M","5","","29","","","M","99.25","","","","-36","","NA"
"-139.84","67.57","OLD CROW A","2100807","2021-03-28 00:00","2021","03","28","00:00","-22.7","","-28.4","","61","","","M","5","","30","","","M","99.30","","","","-36","","NA"
"-139.84","67.57","OLD CROW A","2100807","2021-03-28 01:00","2021","03","28","01:00","-23.0","","-28.1","","64","","","M","4","","27","","","M","99.35","","","","-36","","NA"
"-139.84","67.57","OLD CROW A","2100807","2021-03-28 02:00","2021","03","28","02:00","-23.0","","-28.1","","64","","","M","5","","30","","","M","99.43","","","","-36","","NA"
"-139.84","67.57","OLD CROW A","2100807","2021-03-28 03:00","2021","03","28","03:00","-23.4","","-28.8","","62","","","M","4","","25","","","M","99.51","","","","-36","","NA"
"-139.84","67.57","OLD CROW A","2100807","2021-03-28 04:00","2021","03","28","04:00","-23.1","","-29.1","","58","","","M","4","","28","","","M","99.55","","","","-36","","NA"
"-139.84","67.57","OLD CROW A","2100807","2021-03-28 05:00","2021","03","28","05:00","-23.3","","-29.0","","60","","","M","3","","31","","","M","99.59","","","","-37","","NA"
"-139.84","67.57","OLD CROW A","2100807","2021-03-28 06:00","2021","03","28","06:00","-23.0","","-28.5","","62","","","M","4","","22","","","M","99.66","","","","-35","","NA"
"-139.84","67.57","OLD CROW A","2100807","2021-03-28 07:00","2021","03","28","07:00","-25.1","","-29.8","","66","","","M","27","","5","","","M","99.75","","","","-30","","NA"
"-139.84","67.57","OLD CROW A","2100807","2021-03-28 08:00","2021","03","28","08:00","-26.8","","-30.5","","71","","","M","25","","4","","","M","99.83","","","","-31","","NA"
"-139.84","67.57","OLD CROW A","2100807","2021-03-28 09:00","2021","03","28","09:00","-26.1","","-30.1","","69","","","M","23","","2","","","M","99.84","","","","-28","","NA"
"-139.84","67.57","OLD CROW A","2100807","2021-03-28 10:00","2021","03","28","10:00","-23.8","","-29.2","","62","","","M","25","","8","","","M","99.89","","","","-31","","NA"
"-139.84","67.57","OLD CROW A","2100807","2021-03-28 11:00","2021","03","28","11:00","-21.4","","-28.4","","54","","","M","9","","9","","","M","99.90","","","","-28","","NA"
"-139.84","67.57","OLD CROW A","2100807","2021-03-28 12:00","2021","03","28","12:00","-20.2","","-27.7","","52","","","M","10","","13","","","M","99.90","","","","-29","","NA"
"-139.84","67.57","OLD CROW A","2100807","2021-03-28 13:00","2021","03","28","13:00","-19.1","","-27.0","","50","","","M","10","","9","","","M","99.90","","","","-26","","NA"
"-139.84","67.57","OLD CROW A","2100807","2021-03-28 14:00","2021","03","28","14:00","-18.1","","-26.4","","49","","","M","11","","8","","","M","99.89","","","","-24","","NA"
"-139.84","67.57","OLD CROW A","2100807","2021-03-28 15:00","2021","03","28","15:00","-17.7","","-26.1","","49","","","M","8","","7","","","M","99.83","","","","-23","","NA"
"-139.84","67.57","OLD CROW A","2100807","2021-03-28 16:00","2021","03","28","16:00","-17.4","","-26.0","","48","","","M","10","","9","","","M","99.78","","","","-24","","NA"
"-139.84","67.57","OLD CROW A","2100807","2021-03-28 17:00","2021","03","28","17:00","-17.5","","-26.0","","48","","","M","8","","9","","","M","99.72","","","","-24","","NA"
"-139.84","67.57","OLD CROW A","2100807","2021-03-28 18:00","2021","03","28","18:00","-18.1","","-26.3","","49","","","M","6","","10","","","M","99.64","","","","-25","","NA"
"-139.84","67.57","OLD CROW A","2100807","2021-03-28 19:00","2021","03","28","19:00","-19.3","","-27.0","","51","","","M","8","","7","","","M","99.55","","","","-25","","NA"
"-139.84","67.57","OLD CROW A","2100807","2021-03-28 20:00","2021","03","28","20:00","-21.3","","-27.5","","58","","","M","7","","9","","","M","99.45","","","","-28","","NA"
"-139.84","67.57","OLD CROW A","2100807","2021-03-28 21:00","2021","03","28","21:00","-23.2","","-28.1","","65","","","M","7","","3","","","M","99.36","","","","-26","","NA"
"-139.84","67.57","OLD CROW A","2100807","2021-03-28 22:00","2021","03","28","22:00","-24.6","","-28.7","","70","","","M","11","","5","","","M","99.30","","","","-29","","NA"
"-139.84","67.57","OLD CROW A","2100807","2021-03-28 23:00","2021","03","28","23:00","-27.1","","-30.1","","76","","","M","7","","2","","","M","99.20","","","","-29","","NA"
"-139.84","67.57","OLD CROW A","2100807","2021-03-29 00:00","2021","03","29","00:00","-27.3","","-30.6","","74","","","M","10","","4","","","M","99.09","","","","-32","","NA"
"-139.84","67.57","OLD CROW A","2100807","2021-03-29 01:00","2021","03","29","01:00","-28.1","","-31.3","","75","","","M","10","","4","","","M","99.01","","","","-32","","NA"
"-139.84","67.57","OLD CROW A","2100807","2021-03-29 02:00","2021","03","29","02:00","-27.6","","-31.0","","73","","","M","6","","4","","","M","98.91","","","","-32","","NA"
"-139.84","67.57","OLD CROW A","2100807","2021-03-29 03:00","2021","03","29","03:00","-27.5","","-30.9","","73","","","M","12","","3","","","M","98.82","","","","-31","","NA"
"-139.84","67.57","OLD CROW A","2100807","2021-03-29 04:00","2021","03","29","04:00","-27.8","","-31.2","","74","","","M","5","","1","","","M","98.74","","","","-29","","NA"
"-139.84","67.57","OLD CROW A","2100807","2021-03-29 05:00","2021","03","29","05:00","-26.8","","-30.5","","72","","","M","25","","5","","","M","98.69","","","","-32","","NA"
"-139.84","67.57","OLD CROW A","2100807","2021-03-29 06:00","2021","03","29","06:00","-26.7","","-30.3","","72","","","M","31","","2","","","M","98.63","","","","-29","","NA"
"-139.84","67.57","OLD CROW A","2100807","2021-03-29 07:00","2021","03","29","07:00","-26.0","","-29.9","","70","","","M","23","","3","","","M","98.56","","","","-29","","NA"
"-139.84","67.57","OLD CROW A","2100807","2021-03-29 08:00","2021","03","29","08:00","-25.4","","-29.5","","69","","","M","26","","3","","","M","98.51","","","","-28","","NA"
"-139.84","67.57","OLD CROW A","2100807","2021-03-29 09:00","2021","03","29","09:00","-24.8","","-29.0","","68","","","M","27","","3","","","M","98.45","","","","-28","","NA"
"-139.84","67.57","OLD CROW A","2100807","2021-03-29 10:00","2021","03","29","10:00","-23.2","","-28.0","","65","","","M","26","","3","","","M","98.40","","","","-26","","NA"
"-139.84","67.57","OLD CROW A","2100807","2021-03-29 11:00","2021","03","29","11:00","-21.3","","-27.1","","60","","","M","24","","3","","","M","98.37","","","","-24","","NA"
"-139.84","67.57","OLD CROW A","2100807","2021-03-29 12:00","2021","03","29","12:00","-19.4","","-25.5","","59","","","M","0","","1","","","M","98.32","","","","-20","","NA"
"-139.84","67.57","OLD CROW A","2100807","2021-03-29 13:00","2021","03","29","13:00","-17.4","","-23.3","","61","","","M","31","","3","","","M","98.25","","","","-20","","NA"
"-139.84","67.57","OLD CROW A","2100807","2021-03-29 14:00","2021","03","29","14:00","-15.5","","-21.4","","61","","","M","27","","1","","","M","98.19","","","","-16","","NA"
"-139.84","67.57","OLD CROW A","2100807","2021-03-29 15:00","2021","03","29","15:00","-13.7","","-19.6","","62","","","M","20","","2","","","M","98.12","","","","-15","","NA"
"-139.84","67.57","OLD CROW A","2100807","2021-03-29 16:00","2021","03","29","16:00","-12.5","","-18.2","","63","","","M","10","","2","","","M","98.05","","","","-14","","NA"
"-139.84","67.57","OLD CROW A","2100807","2021-03-29 17:00","2021","03","29","17:00","-12.1","","-17.5","","64","","","M","0","","1","","","M","98.01","","","","-13","","NA"
"-139.84","67.57","OLD CROW A","2100807","2021-03-29 18:00","2021","03","29","18:00","-12.0","","-15.3","","76","","","M","9","","4","","","M","97.96","","","","-15","","NA"
"-139.84","67.57","OLD CROW A","2100807","2021-03-29 19:00","2021","03","29","19:00","-13.1","","-15.8","","80","","","M","8","","7","","","M","97.93","","","","-18","","NA"
"-139.84","67.57","OLD CROW A","2100807","2021-03-29 20:00","2021","03","29","20:00","-14.4","","-17.0","","81","","","M","8","","9","","","M","97.91","","","","-20","","NA"
"-139.84","67.57","OLD CROW A","2100807","2021-03-29 21:00","2021","03","29","21:00","-15.3","","-17.9","","81","","","M","9","","10","","","M","97.89","","","","-22","","NA"
"-139.84","67.57","OLD CROW A","2100807","2021-03-29 22:00","2021","03","29","22:00","-16.1","","-18.7","","81","","","M","9","","9","","","M","97.88","","","","-22","","NA"
"-139.84","67.57","OLD CROW A","2100807","2021-03-29 23:00","2021","03","29","23:00","-16.6","","-19.4","","80","","","M","7","","14","","","M","97.85","","","","-25","","NA"
"-139.84","67.57","OLD CROW A","2100807","2021-03-30 00:00","2021","03","30","00:00","-17.0","","-19.8","","79","","","M","8","","9","","","M","97.85","","","","-23","","NA"
"-139.84","67.57","OLD CROW A","2100807","2021-03-30 01:00","2021","03","30","01:00","-16.6","","-19.4","","80","","","M","8","","8","","","M","97.84","","","","-22","","NA"
"-139.84","67.57","OLD CROW A","2100807","2021-03-30 02:00","2021","03","30","02:00","-16.3","","-18.8","","81","","","M","3","","6","","","M","97.84","","","","-21","","NA"
"-139.84","67.57","OLD CROW A","2100807","2021-03-30 03:00","2021","03","30","03:00","-16.2","","-18.7","","81","","","M","10","","8","","","M","97.83","","","","-22","","NA"
"-139.84","67.57","OLD CROW A","2100807","2021-03-30 04:00","2021","03","30","04:00","-17.0","","-19.6","","81","","","M","10","","6","","","M","97.82","","","","-22","","NA"
"-139.84","67.57","OLD CROW A","2100807","2021-03-30 05:00","2021","03","30","05:00","-17.2","","-19.6","","81","","","M","10","","3","","","M","97.79","","","","-20","","NA"
"-139.84","67.57","OLD CROW A","2100807","2021-03-30 06:00","2021","03","30","06:00","-17.1","","-19.7","","81","","","M","16","","1","","","M","97.78","","","","-18","","NA"
"-139.84","67.57","OLD CROW A","2100807","2021-03-30 07:00","2021","03","30","07:00","-17.2","","-19.8","","80","","","M","8","","1","","","M","97.77","","","","-18","","NA"
"-139.84","67.57","OLD CROW A","2100807","2021-03-30 08:00","2021","03","30","08:00","-16.9","","-19.7","","79","","","M","27","","6","","","M","97.75","","","","-21","","NA"
"-139.84","67.57","OLD CROW A","2100807","2021-03-30 09:00","2021","03","30","09:00","-16.0","","-19.1","","77","","","M","25","","3","","","M","97.74","","","","-18","","NA"
"-139.84","67.57","OLD CROW A","2100807","2021-03-30 10:00","2021","03","30","10:00","-14.6","","-17.9","","76","","","M","7","","4","","","M","97.72","","","","-17","","NA"
"-139.84","67.57","OLD CROW A","2100807","2021-03-30 11:00","2021","03","30","11:00","-13.5","","-18.0","","70","","","M","5","","14","","","M","97.73","","","","-21","","NA"
"-139.84","67.57","OLD CROW A","2100807","2021-03-30 12:00","2021","03","30","12:00","-13.2","","-17.8","","69","","","M","4","","13","","","M","97.74","","","","-20","","NA"
"-139.84","67.57","OLD CROW A","2100807","2021-03-30 13:00","2021","03","30","13:00","-12.0","","-16.7","","69","","","M","5","","14","","","M","97.70","","","","-19","","NA"
"-139.84","67.57","OLD CROW A","2100807","2021-03-30 14:00","2021","03","30","14:00","-11.5","","-16.2","","68","","","M","6","","16","","","M","97.70","","","","-19","","NA"
"-139.84","67.57","OLD CROW A","2100807","2021-03-30 15:00","2021","03","30","15:00","-12.4","","-16.7","","71","","","M","7","","14","","","M","97.67","","","","-19","","NA"
"-139.84","67.57","OLD CROW A","2100807","2021-03-30 16:00","2021","03","30","16:00","-12.0","","-16.2","","71","","","M","7","","12","","","M","97.64","","","","-18","","NA"
"-139.84","67.57","OLD CROW A","2100807","2021-03-30 17:00","2021","03","30","17:00","-11.7","","-15.9","","71","","","M","7","","8","","","M","97.60","","","","-16","","NA"
"-139.84","67.57","OLD CROW A","2100807","2021-03-30 18:00","2021","03","30","18:00","-12.7","","-16.7","","72","","","M","8","","15","","","M","97.56","","","","-20","","NA"
"-139.84","67.57","OLD CROW A","2100807","2021-03-30 19:00","2021","03","30","19:00","-12.8","","-16.8","","72","","","M","8","","14","","","M","97.52","","","","-20","","NA"
"-139.84","67.57","OLD CROW A","2100807","2021-03-30 20:00","2021","03","30","20:00","-13.6","","-16.6","","79","","","M","7","","12","","","M","97.49","","","","-20","","NA"
"-139.84","67.57","OLD CROW A","2100807","2021-03-30 21:00","2021","03","30","21:00","-14.1","","-16.7","","81","","","M","6","","11","","","M","97.47","","","","-21","","NA"
"-139.84","67.57","OLD CROW A","2100807","2021-03-30 22:00","2021","03","30","22:00","-14.4","","-17.3","","79","","","M","7","","12","","","M","97.45","","","","-21","","NA"
"-139.84","67.57","OLD CROW A","2100807","2021-03-30 23:00","2021","03","30","23:00","-14.3","","-17.8","","75","","","M","5","","18","","","M","97.45","","","","-23","","NA"
"-139.84","67.57","OLD CROW A","2100807","2021-03-31 00:00","2021","03","31","00:00","-14.5","","-18.1","","74","","","M","7","","13","","","M","97.45","","","","-22","","NA"
"-139.84","67.57","OLD CROW A","2100807","2021-03-31 01:00","2021","03","31","01:00","-16.1","","-19.1","","78","","","M","8","","15","","","M","97.46","","","","-24","","NA"
"-139.84","67.57","OLD CROW A","2100807","2021-03-31 02:00","2021","03","31","02:00","-17.3","","-20.1","","79","","","M","8","","11","","","M","97.47","","","","-24","","NA"
"-139.84","67.57","OLD CROW A","2100807","2021-03-31 03:00","2021","03","31","03:00","-17.6","","-20.9","","76","","","M","8","","15","","","M","97.47","","","","-26","","NA"
"-139.84","67.57","OLD CROW A","2100807","2021-03-31 04:00","2021","03","31","04:00","-18.4","","-21.7","","76","","","M","9","","16","","","M","97.47","","","","-27","","NA"
"-139.84","67.57","OLD CROW A","2100807","2021-03-31 05:00","2021","03","31","05:00","-18.3","","-21.6","","76","","","M","8","","16","","","M","97.47","","","","-27","","NA"
"-139.84","67.57","OLD CROW A","2100807","2021-03-31 06:00","2021","03","31","06:00","-18.3","","-21.7","","75","","","M","8","","15","","","M","97.49","","","","-27","","NA"
"-139.84","67.57","OLD CROW A","2100807","2021-03-31 07:00","2021","03","31","07:00","-18.7","","-22.1","","75","","","M","8","","15","","","M","97.50","","","","-27","","NA"
"-139.84","67.57","OLD CROW A","2100807","2021-03-31 08:00","2021","03","31","08:00","-18.7","","-22.3","","73","","","M","8","","15","","","M","97.54","","","","-27","","NA"
"-139.84","67.57","OLD CROW A","2100807","2021-03-31 09:00","2021","03","31","09:00","-18.3","","-22.2","","72","","","M","8","","11","","","M","97.55","","","","-26","","NA"
"-139.84","67.57","OLD CROW A","2100807","2021-03-31 10:00","2021","03","31","10:00","-17.5","","-21.9","","69","","","M","7","","15","","","M","97.53","","","","-26","","NA"
"-139.84","67.57","OLD CROW A","2100807","2021-03-31 11:00","2021","03","31","11:00","-16.7","","-21.6","","66","","","M","9","","12","","","M","97.55","","","","-24","","NA"
"-139.84","67.57","OLD CROW A","2100807","2021-03-31 12:00","2021","03","31","12:00","-15.5","","-20.9","","64","","","M","8","","10","","","M","97.57","","","","-22","","NA"
"-139.84","67.57","OLD CROW A","2100807","2021-03-31 13:00","2021","03","31","13:00","-15.4","","-20.8","","64","","","M","6","","18","","","M","97.57","","","","-24","","NA"
"-139.84","67.57","OLD CROW A","2100807","2021-03-31 14:00","2021","03","31","14:00","-14.9","","-20.2","","64","","","M","3","","21","","","M","97.57","","","","-24","","NA"
"-139.84","67.57","OLD CROW A","2100807","2021-03-31 15:00","2021","03","31","15:00","-14.8","","-20.3","","63","","","M","5","","21","","","M","97.57","","","","-24","","NA"
"-139.84","67.57","OLD CROW A","2100807","2021-03-31 16:00","2021","03","31","16:00","-15.2","","-20.2","","66","","","M","4","","21","","","M","97.56","","","","-25","","NA"
"-139.84","67.57","OLD CROW A","2100807","2021-03-31 17:00","2021","03","31","17:00","-15.5","","-20.3","","67","","","M","3","","19","","","M","97.54","","","","-25","","NA"
"-139.84","67.57","OLD CROW A","2100807","2021-03-31 18:00","2021","03","31","18:00","-16.6","","-21.3","","68","","","M","8","","15","","","M","97.55","","","","-25","","NA"
"-139.84","67.57","OLD CROW A","2100807","2021-03-31 19:00","2021","03","31","19:00","-16.6","","-21.1","","68","","","M","6","","22","","","M","97.56","","","","-27","","NA"
"-139.84","67.57","OLD CROW A","2100807","2021-03-31 20:00","2021","03","31","20:00","-17.4","","-21.5","","70","","","M","6","","19","","","M","97.57","","","","-27","","NA"
"-139.84","67.57","OLD CROW A","2100807","2021-03-31 21:00","2021","03","31","21:00","-17.6","","-21.7","","71","","","M","6","","16","","","M","97.56","","","","-26","","NA"
"-139.84","67.57","OLD CROW A","2100807","2021-03-31 22:00","2021","03","31","22:00","-17.2","","-21.5","","70","","","M","3","","10","","","M","97.57","","","","-24","","NA"
"-139.84","67.57","OLD CROW A","2100807","2021-03-31 23:00","2021","03","31","23:00","-18.5","","-23.0","","68","","","M","5","","17","","","M","97.61","","","","-28","","NA"
