"Longitude (x)","Latitude (y)","Station Name","Climate ID","Date/Time (LST)","Year","Month","Day","Time (LST)","Temp (°C)","Temp Flag","Dew Point Temp (°C)","Dew Point Temp Flag","Rel Hum (%)","Rel Hum Flag","Precip. Amount (mm)","Precip. Amount Flag","Wind Dir (10s deg)","Wind Dir Flag","Wind Spd (km/h)","Wind Spd Flag","Visibility (km)","Visibility Flag","Stn Press (kPa)","Stn Press Flag","Hmdx","Hmdx Flag","Wind Chill","Wind Chill Flag","Weather"
"-111.96","60.02","FORT SMITH A","2202201","2022-04-01 00:00","2022","04","01","00:00","-11.3","","-14.8","","76","","","","31","","16","","4.8","","98.91","","","","-19","","Snow,Blowing Snow"
"-111.96","60.02","FORT SMITH A","2202201","2022-04-01 01:00","2022","04","01","01:00","-12.0","","-15.2","","78","","","","32","","16","","4.8","","98.95","","","","-19","","Snow,Blowing Snow"
"-111.96","60.02","FORT SMITH A","2202201","2022-04-01 02:00","2022","04","01","02:00","-12.7","","-15.8","","78","","","","31","","17","","8.1","","99.02","","","","-21","","Snow,Blowing Snow"
"-111.96","60.02","FORT SMITH A","2202201","2022-04-01 03:00","2022","04","01","03:00","-13.4","","-16.6","","77","","","","30","","21","","4.8","","99.09","","","","-22","","Snow,Blowing Snow"
"-111.96","60.02","FORT SMITH A","2202201","2022-04-01 04:00","2022","04","01","04:00","-14.9","","-18.6","","74","","","","32","","16","","19.3","","99.17","","","","-23","","Snow,Blowing Snow"
"-111.96","60.02","FORT SMITH A","2202201","2022-04-01 05:00","2022","04","01","05:00","-17.0","","-20.6","","74","","","","31","","16","","24.1","","99.27","","","","-26","","Mainly Clear"
"-111.96","60.02","FORT SMITH A","2202201","2022-04-01 06:00","2022","04","01","06:00","-18.7","","-22.2","","75","","","","30","","17","","24.1","","99.36","","","","-28","","NA"
"-111.96","60.02","FORT SMITH A","2202201","2022-04-01 07:00","2022","04","01","07:00","-19.1","","-22.8","","73","","","","30","","21","","24.1","","99.41","","","","-30","","NA"
"-111.96","60.02","FORT SMITH A","2202201","2022-04-01 08:00","2022","04","01","08:00","-18.7","","-23.0","","70","","","","32","","16","","24.1","","99.46","","","","-28","","Mainly Clear"
"-111.96","60.02","FORT SMITH A","2202201","2022-04-01 09:00","2022","04","01","09:00","-17.5","","-22.9","","63","","","","31","","18","","24.1","","99.47","","","","-27","","Blowing Snow"
"-111.96","60.02","FORT SMITH A","2202201","2022-04-01 10:00","2022","04","01","10:00","-16.1","","-22.3","","60","","","","31","","19","","24.1","","99.45","","","","-25","","Blowing Snow"
"-111.96","60.02","FORT SMITH A","2202201","2022-04-01 11:00","2022","04","01","11:00","-14.9","","-21.7","","57","","","","34","","8","","24.1","","99.44","","","","-20","","Mainly Clear"
"-111.96","60.02","FORT SMITH A","2202201","2022-04-01 12:00","2022","04","01","12:00","-14.2","","-22.3","","51","","","","34","","12","","24.1","","99.40","","","","-21","","NA"
"-111.96","60.02","FORT SMITH A","2202201","2022-04-01 13:00","2022","04","01","13:00","-13.8","","-22.5","","49","","","","29","","19","","24.1","","99.44","","","","-22","","NA"
"-111.96","60.02","FORT SMITH A","2202201","2022-04-01 14:00","2022","04","01","14:00","-13.5","","-22.9","","46","","","","29","","20","","24.1","","99.44","","","","-22","","Clear"
"-111.96","60.02","FORT SMITH A","2202201","2022-04-01 15:00","2022","04","01","15:00","-13.7","","-23.6","","44","","","","34","","16","","24.1","","99.45","","","","-22","","NA"
"-111.96","60.02","FORT SMITH A","2202201","2022-04-01 16:00","2022","04","01","16:00","-13.8","","-24.0","","43","","","","35","","13","","24.1","","99.44","","","","-21","","NA"
"-111.96","60.02","FORT SMITH A","2202201","2022-04-01 17:00","2022","04","01","17:00","-13.9","","-23.9","","43","","","","33","","11","","24.1","","99.45","","","","-20","","Mainly Clear"
"-111.96","60.02","FORT SMITH A","2202201","2022-04-01 18:00","2022","04","01","18:00","-14.2","","-23.9","","44","","","","35","","12","","24.1","","99.46","","","","-21","","NA"
"-111.96","60.02","FORT SMITH A","2202201","2022-04-01 19:00","2022","04","01","19:00","-15.3","","-23.9","","48","","","","36","","9","","24.1","","99.44","","","","-21","","NA"
"-111.96","60.02","FORT SMITH A","2202201","2022-04-01 20:00","2022","04","01","20:00","-16.3","","-24.4","","50","","","","36","","9","","24.1","","99.44","","","","-22","","Mostly Cloudy"
"-111.96","60.02","FORT SMITH A","2202201","2022-04-01 21:00","2022","04","01","21:00","-17.4","","-24.9","","53","","","","35","","8","","22.5","","99.42","","","","-23","","NA"
"-111.96","60.02","FORT SMITH A","2202201","2022-04-01 22:00","2022","04","01","22:00","-17.9","","-24.8","","56","","","","34","","6","","24.1","","99.42","","","","-23","","NA"
"-111.96","60.02","FORT SMITH A","2202201","2022-04-01 23:00","2022","04","01","23:00","-18.2","","-24.5","","59","","","","36","","6","","24.1","","99.40","","","","-23","","Mostly Cloudy"
"-111.96","60.02","FORT SMITH A","2202201","2022-04-02 00:00","2022","04","02","00:00","-18.6","","-24.6","","60","","","","3","","5","","24.1","","99.40","","","","-23","","NA"
"-111.96","60.02","FORT SMITH A","2202201","2022-04-02 01:00","2022","04","02","01:00","-19.1","","-25.0","","60","","","","1","","7","","24.1","","99.41","","","","-25","","Snow"
"-111.96","60.02","FORT SMITH A","2202201","2022-04-02 02:00","2022","04","02","02:00","-19.9","","-25.1","","64","","","","4","","10","","24.1","","99.35","","","","-27","","Snow"
"-111.96","60.02","FORT SMITH A","2202201","2022-04-02 03:00","2022","04","02","03:00","-19.9","","-25.1","","64","","","","4","","10","","24.1","","99.30","","","","-27","","Snow"
"-111.96","60.02","FORT SMITH A","2202201","2022-04-02 04:00","2022","04","02","04:00","-19.8","","-24.8","","65","","","","5","","5","","24.1","","99.28","","","","-24","","Snow"
"-111.96","60.02","FORT SMITH A","2202201","2022-04-02 05:00","2022","04","02","05:00","-19.6","","-24.5","","66","","","","5","","7","","24.1","","99.21","","","","-25","","Snow"
"-111.96","60.02","FORT SMITH A","2202201","2022-04-02 06:00","2022","04","02","06:00","-19.3","","-24.0","","67","","","","6","","4","","12.9","","99.16","","","","-23","","Snow"
"-111.96","60.02","FORT SMITH A","2202201","2022-04-02 07:00","2022","04","02","07:00","-18.7","","-22.9","","70","","","","5","","5","","4.8","","99.12","","","","-23","","Snow"
"-111.96","60.02","FORT SMITH A","2202201","2022-04-02 08:00","2022","04","02","08:00","-17.5","","-21.5","","71","","","","5","","7","","4.8","","99.03","","","","-23","","Snow"
"-111.96","60.02","FORT SMITH A","2202201","2022-04-02 09:00","2022","04","02","09:00","-16.0","","-20.1","","71","","","","6","","9","","4.8","","98.97","","","","-22","","Snow"
"-111.96","60.02","FORT SMITH A","2202201","2022-04-02 10:00","2022","04","02","10:00","-14.1","","-18.5","","70","","","","9","","7","","4.0","","98.92","","","","-19","","Snow"
"-111.96","60.02","FORT SMITH A","2202201","2022-04-02 11:00","2022","04","02","11:00","-12.9","","-17.2","","70","","","","8","","9","","3.6","","98.84","","","","-18","","Snow"
"-111.96","60.02","FORT SMITH A","2202201","2022-04-02 12:00","2022","04","02","12:00","-12.2","","-16.3","","72","","","","7","","10","","3.6","","98.81","","","","-18","","Snow"
"-111.96","60.02","FORT SMITH A","2202201","2022-04-02 13:00","2022","04","02","13:00","-11.3","","-15.5","","72","","","","5","","8","","2.0","","98.80","","","","-16","","Snow"
"-111.96","60.02","FORT SMITH A","2202201","2022-04-02 14:00","2022","04","02","14:00","-10.7","","-14.3","","75","","","","4","","9","","4.0","","98.78","","","","-16","","Snow"
"-111.96","60.02","FORT SMITH A","2202201","2022-04-02 15:00","2022","04","02","15:00","-9.7","","-13.3","","75","","","","8","","7","","4.0","","98.77","","","","-14","","Snow"
"-111.96","60.02","FORT SMITH A","2202201","2022-04-02 16:00","2022","04","02","16:00","-9.5","","-13.3","","74","","","","36","","4","","4.0","","98.79","","","","-12","","Snow"
"-111.96","60.02","FORT SMITH A","2202201","2022-04-02 17:00","2022","04","02","17:00","-9.3","","-13.8","","70","","","","36","","2","","4.0","","98.78","","","","-10","","Snow"
"-111.96","60.02","FORT SMITH A","2202201","2022-04-02 18:00","2022","04","02","18:00","-9.4","","-14.2","","68","","","","36","","1","","19.3","","98.79","","","","-10","","Snow"
"-111.96","60.02","FORT SMITH A","2202201","2022-04-02 19:00","2022","04","02","19:00","-10.4","","-13.2","","80","","","","31","","7","","24.1","","98.79","","","","-14","","NA"
"-111.96","60.02","FORT SMITH A","2202201","2022-04-02 20:00","2022","04","02","20:00","-11.4","","-13.7","","83","","","","31","","8","","24.1","","98.84","","","","-16","","Cloudy"
"-111.96","60.02","FORT SMITH A","2202201","2022-04-02 21:00","2022","04","02","21:00","-13.2","","-15.4","","83","","","","31","","4","","4.8","","98.82","","","","-16","","Snow"
"-111.96","60.02","FORT SMITH A","2202201","2022-04-02 22:00","2022","04","02","22:00","-14.6","","-15.9","","89","","","","36","","1","","24.1","","98.79","","","","-15","","Snow"
"-111.96","60.02","FORT SMITH A","2202201","2022-04-02 23:00","2022","04","02","23:00","-17.3","","-19.4","","84","","","","36","","2","","24.1","","98.77","","","","-19","","Snow"
"-111.96","60.02","FORT SMITH A","2202201","2022-04-03 00:00","2022","04","03","00:00","-16.3","","-18.4","","84","","","","15","","4","","24.1","","98.76","","","","-19","","NA"
"-111.96","60.02","FORT SMITH A","2202201","2022-04-03 01:00","2022","04","03","01:00","-17.8","","-20.0","","83","","","","16","","5","","24.1","","98.76","","","","-22","","NA"
"-111.96","60.02","FORT SMITH A","2202201","2022-04-03 02:00","2022","04","03","02:00","-18.8","","-21.1","","82","","","","36","","1","","24.1","","98.74","","","","-20","","Clear"
"-111.96","60.02","FORT SMITH A","2202201","2022-04-03 03:00","2022","04","03","03:00","-20.6","","-23.1","","80","","","","","","0","","24.1","","98.73","","","","","","NA"
"-111.96","60.02","FORT SMITH A","2202201","2022-04-03 04:00","2022","04","03","04:00","-20.9","","-23.4","","81","","","","36","","3","","24.1","","98.70","","","","-24","","NA"
"-111.96","60.02","FORT SMITH A","2202201","2022-04-03 05:00","2022","04","03","05:00","-21.9","","-24.6","","79","","","","36","","1","","24.1","","98.67","","","","-23","","Clear"
"-111.96","60.02","FORT SMITH A","2202201","2022-04-03 06:00","2022","04","03","06:00","-21.5","","-24.1","","79","","","","36","","2","","24.1","","98.65","","","","-23","","NA"
"-111.96","60.02","FORT SMITH A","2202201","2022-04-03 07:00","2022","04","03","07:00","-14.6","","-16.6","","85","","","","14","","11","","24.1","","98.61","","","","-21","","NA"
"-111.96","60.02","FORT SMITH A","2202201","2022-04-03 08:00","2022","04","03","08:00","-13.1","","-15.1","","85","","","","14","","9","","24.1","","98.58","","","","-19","","Clear"
"-111.96","60.02","FORT SMITH A","2202201","2022-04-03 09:00","2022","04","03","09:00","-9.9","","-12.3","","83","","","","15","","16","","24.1","","98.51","","","","-17","","NA"
"-111.96","60.02","FORT SMITH A","2202201","2022-04-03 10:00","2022","04","03","10:00","-7.0","","-12.7","","64","","","","13","","13","","24.1","","98.42","","","","-13","","NA"
"-111.96","60.02","FORT SMITH A","2202201","2022-04-03 11:00","2022","04","03","11:00","-4.8","","-11.8","","58","","","","15","","14","","24.1","","98.32","","","","-10","","Clear"
"-111.96","60.02","FORT SMITH A","2202201","2022-04-03 12:00","2022","04","03","12:00","-2.9","","-11.0","","54","","","","14","","18","","24.1","","98.22","","","","-9","","NA"
"-111.96","60.02","FORT SMITH A","2202201","2022-04-03 13:00","2022","04","03","13:00","-0.7","","-10.0","","49","","","","13","","9","","24.1","","98.12","","","","-4","","NA"
"-111.96","60.02","FORT SMITH A","2202201","2022-04-03 14:00","2022","04","03","14:00","0.8","","-9.8","","45","","","","12","","10","","24.1","","98.02","","","","","","Clear"
"-111.96","60.02","FORT SMITH A","2202201","2022-04-03 15:00","2022","04","03","15:00","1.9","","-9.8","","42","","","","12","","13","","24.1","","97.96","","","","","","NA"
"-111.96","60.02","FORT SMITH A","2202201","2022-04-03 16:00","2022","04","03","16:00","2.2","","-9.5","","42","","","","11","","12","","24.1","","97.87","","","","","","NA"
"-111.96","60.02","FORT SMITH A","2202201","2022-04-03 17:00","2022","04","03","17:00","2.2","","-9.5","","42","","","","13","","14","","24.1","","97.78","","","","","","Mainly Clear"
"-111.96","60.02","FORT SMITH A","2202201","2022-04-03 18:00","2022","04","03","18:00","-0.5","","-10.0","","49","","","","13","","10","","24.1","","97.72","","","","-4","","NA"
"-111.96","60.02","FORT SMITH A","2202201","2022-04-03 19:00","2022","04","03","19:00","-2.3","","-10.5","","53","","","","12","","10","","24.1","","97.70","","","","-6","","NA"
"-111.96","60.02","FORT SMITH A","2202201","2022-04-03 20:00","2022","04","03","20:00","-3.4","","-10.6","","58","","","","12","","11","","24.1","","97.65","","","","-8","","Mostly Cloudy"
"-111.96","60.02","FORT SMITH A","2202201","2022-04-03 21:00","2022","04","03","21:00","-3.5","","-10.4","","59","","","","12","","9","","24.1","","97.58","","","","-7","","NA"
"-111.96","60.02","FORT SMITH A","2202201","2022-04-03 22:00","2022","04","03","22:00","-3.1","","-9.9","","60","","","","13","","13","","24.1","","97.47","","","","-8","","NA"
"-111.96","60.02","FORT SMITH A","2202201","2022-04-03 23:00","2022","04","03","23:00","-2.5","","-9.4","","59","","","","12","","14","","24.1","","97.37","","","","-7","","Mainly Clear"
"-111.96","60.02","FORT SMITH A","2202201","2022-04-04 00:00","2022","04","04","00:00","-2.0","","-8.8","","60","","","","13","","18","","24.1","","97.29","","","","-7","","NA"
"-111.96","60.02","FORT SMITH A","2202201","2022-04-04 01:00","2022","04","04","01:00","-1.9","","-8.8","","59","","","","13","","16","","24.1","","97.20","","","","-7","","NA"
"-111.96","60.02","FORT SMITH A","2202201","2022-04-04 02:00","2022","04","04","02:00","-2.2","","-8.9","","60","","","","13","","15","","24.1","","97.12","","","","-7","","Clear"
"-111.96","60.02","FORT SMITH A","2202201","2022-04-04 03:00","2022","04","04","03:00","-2.4","","-8.9","","61","","","","12","","10","","24.1","","97.02","","","","-6","","NA"
"-111.96","60.02","FORT SMITH A","2202201","2022-04-04 04:00","2022","04","04","04:00","-2.7","","-8.8","","63","","","","12","","12","","24.1","","96.92","","","","-7","","NA"
"-111.96","60.02","FORT SMITH A","2202201","2022-04-04 05:00","2022","04","04","05:00","-2.8","","-8.8","","63","","","","12","","12","","24.1","","96.83","","","","-7","","Mainly Clear"
"-111.96","60.02","FORT SMITH A","2202201","2022-04-04 06:00","2022","04","04","06:00","-2.9","","-9.1","","62","","","","11","","9","","24.1","","96.73","","","","-6","","NA"
"-111.96","60.02","FORT SMITH A","2202201","2022-04-04 07:00","2022","04","04","07:00","-2.3","","-9.3","","59","","","","12","","14","","24.1","","96.65","","","","-7","","NA"
"-111.96","60.02","FORT SMITH A","2202201","2022-04-04 08:00","2022","04","04","08:00","-1.2","","-8.7","","57","","","","13","","10","","24.1","","96.56","","","","-5","","Mainly Clear"
"-111.96","60.02","FORT SMITH A","2202201","2022-04-04 09:00","2022","04","04","09:00","1.9","","-7.9","","48","","","","12","","17","","24.1","","96.47","","","","","","NA"
"-111.96","60.02","FORT SMITH A","2202201","2022-04-04 10:00","2022","04","04","10:00","3.0","","-6.5","","50","","","","15","","22","","24.1","","96.44","","","","","","NA"
"-111.96","60.02","FORT SMITH A","2202201","2022-04-04 11:00","2022","04","04","11:00","4.9","","-5.9","","45","","","","13","","18","","24.1","","96.37","","","","","","Mainly Clear"
"-111.96","60.02","FORT SMITH A","2202201","2022-04-04 12:00","2022","04","04","12:00","5.5","","-5.7","","44","","","","14","","27","","24.1","","96.35","","","","","","NA"
"-111.96","60.02","FORT SMITH A","2202201","2022-04-04 13:00","2022","04","04","13:00","6.8","","-4.6","","44","","","","15","","26","","24.1","","96.32","","","","","","NA"
"-111.96","60.02","FORT SMITH A","2202201","2022-04-04 14:00","2022","04","04","14:00","7.6","","-4.2","","43","","","","12","","12","","24.1","","96.32","","","","","","Mostly Cloudy"
"-111.96","60.02","FORT SMITH A","2202201","2022-04-04 15:00","2022","04","04","15:00","8.0","","-4.2","","42","","","","12","","14","","24.1","","96.34","","","","","","NA"
"-111.96","60.02","FORT SMITH A","2202201","2022-04-04 16:00","2022","04","04","16:00","8.2","","-3.7","","43","","","","14","","20","","24.1","","96.35","","","","","","NA"
"-111.96","60.02","FORT SMITH A","2202201","2022-04-04 17:00","2022","04","04","17:00","8.3","","-3.6","","43","","","","12","","6","","24.1","","96.34","","","","","","Mostly Cloudy"
"-111.96","60.02","FORT SMITH A","2202201","2022-04-04 18:00","2022","04","04","18:00","6.8","","-3.7","","47","","","","12","","8","","24.1","","96.38","","","","","","NA"
"-111.96","60.02","FORT SMITH A","2202201","2022-04-04 19:00","2022","04","04","19:00","5.7","","-3.4","","52","","","","12","","8","","24.1","","96.42","","","","","","NA"
"-111.96","60.02","FORT SMITH A","2202201","2022-04-04 20:00","2022","04","04","20:00","5.0","","-3.0","","56","","","","12","","8","","24.1","","96.49","","","","","","Mostly Cloudy"
"-111.96","60.02","FORT SMITH A","2202201","2022-04-04 21:00","2022","04","04","21:00","4.4","","-3.1","","58","","","","13","","10","","24.1","","96.54","","","","","","NA"
"-111.96","60.02","FORT SMITH A","2202201","2022-04-04 22:00","2022","04","04","22:00","4.1","","-3.2","","59","","","","13","","10","","24.1","","96.60","","","","","","NA"
"-111.96","60.02","FORT SMITH A","2202201","2022-04-04 23:00","2022","04","04","23:00","3.5","","-3.3","","61","","","","13","","7","","24.1","","96.63","","","","","","Mainly Clear"
"-111.96","60.02","FORT SMITH A","2202201","2022-04-05 00:00","2022","04","05","00:00","2.7","","-3.3","","65","","","","13","","6","","24.1","","96.69","","","","","","NA"
"-111.96","60.02","FORT SMITH A","2202201","2022-04-05 01:00","2022","04","05","01:00","1.4","","-3.3","","71","","","","13","","5","","24.1","","96.77","","","","","","NA"
"-111.96","60.02","FORT SMITH A","2202201","2022-04-05 02:00","2022","04","05","02:00","0.9","","-3.5","","73","","","","12","","5","","24.1","","96.85","","","","","","Clear"
"-111.96","60.02","FORT SMITH A","2202201","2022-04-05 03:00","2022","04","05","03:00","1.4","","-3.4","","70","","","","12","","4","","24.1","","96.94","","","","","","NA"
"-111.96","60.02","FORT SMITH A","2202201","2022-04-05 04:00","2022","04","05","04:00","2.1","","-3.1","","69","","","","12","","7","","24.1","","97.05","","","","","","NA"
"-111.96","60.02","FORT SMITH A","2202201","2022-04-05 05:00","2022","04","05","05:00","0.7","","-3.6","","73","","","","15","","4","","24.1","","97.17","","","","","","Mostly Cloudy"
"-111.96","60.02","FORT SMITH A","2202201","2022-04-05 06:00","2022","04","05","06:00","-1.3","","-3.9","","83","","","","25","","4","","24.1","","97.28","","","","-3","","NA"
"-111.96","60.02","FORT SMITH A","2202201","2022-04-05 07:00","2022","04","05","07:00","-0.5","","-3.4","","81","","","","15","","3","","24.1","","97.39","","","","-1","","NA"
"-111.96","60.02","FORT SMITH A","2202201","2022-04-05 08:00","2022","04","05","08:00","1.8","","-2.8","","71","","","","16","","4","","24.1","","97.50","","","","","","Mostly Cloudy"
"-111.96","60.02","FORT SMITH A","2202201","2022-04-05 09:00","2022","04","05","09:00","2.7","","-3.0","","66","","","","16","","7","","24.1","","97.62","","","","","","NA"
"-111.96","60.02","FORT SMITH A","2202201","2022-04-05 10:00","2022","04","05","10:00","3.4","","-2.5","","65","","","","30","","6","","24.1","","97.73","","","","","","NA"
"-111.96","60.02","FORT SMITH A","2202201","2022-04-05 11:00","2022","04","05","11:00","3.1","","-2.1","","69","","","","30","","17","","24.1","","97.83","","","","","","Cloudy"
"-111.96","60.02","FORT SMITH A","2202201","2022-04-05 12:00","2022","04","05","12:00","2.5","","-2.2","","71","","","","32","","10","","24.1","","97.98","","","","","","Snow"
"-111.96","60.02","FORT SMITH A","2202201","2022-04-05 13:00","2022","04","05","13:00","0.7","","-1.8","","84","","","","34","","15","","1.0","","98.14","","","","","","Snow"
"-111.96","60.02","FORT SMITH A","2202201","2022-04-05 14:00","2022","04","05","14:00","0.3","","-1.0","","91","","","","32","","13","","1.2","","98.26","","","","","","Snow"
"-111.96","60.02","FORT SMITH A","2202201","2022-04-05 15:00","2022","04","05","15:00","0.2","","-0.9","","93","","","","33","","17","","0.8","","98.39","","","","","","Snow,Fog"
"-111.96","60.02","FORT SMITH A","2202201","2022-04-05 16:00","2022","04","05","16:00","0.3","","-0.8","","92","","","","33","","18","","1.2","","98.50","","","","","","Snow,Fog"
"-111.96","60.02","FORT SMITH A","2202201","2022-04-05 17:00","2022","04","05","17:00","0.2","","-0.9","","93","","","","34","","14","","2.4","","98.59","","","","","","Snow,Fog"
"-111.96","60.02","FORT SMITH A","2202201","2022-04-05 18:00","2022","04","05","18:00","0.1","","-0.7","","94","","","","35","","8","","4.8","","98.68","","","","","","Snow"
"-111.96","60.02","FORT SMITH A","2202201","2022-04-05 19:00","2022","04","05","19:00","-0.2","","-0.9","","95","","","","2","","6","","16.1","","98.77","","","","-2","","Snow"
"-111.96","60.02","FORT SMITH A","2202201","2022-04-05 20:00","2022","04","05","20:00","-0.1","","-0.9","","94","","","","3","","3","","24.1","","98.85","","","","-1","","Mostly Cloudy"
"-111.96","60.02","FORT SMITH A","2202201","2022-04-05 21:00","2022","04","05","21:00","-0.3","","-0.8","","96","","","","36","","3","","24.1","","98.95","","","","-1","","Snow"
"-111.96","60.02","FORT SMITH A","2202201","2022-04-05 22:00","2022","04","05","22:00","-0.2","","-0.7","","96","","","","30","","7","","24.1","","99.00","","","","-3","","Snow"
"-111.96","60.02","FORT SMITH A","2202201","2022-04-05 23:00","2022","04","05","23:00","-0.5","","-1.0","","97","","","","0","","1","","24.1","","99.09","","","","-1","","Snow"
"-111.96","60.02","FORT SMITH A","2202201","2022-04-06 00:00","2022","04","06","00:00","-0.9","","-1.3","","97","","","","36","","1","","24.1","","99.16","","","","-1","","Snow"
"-111.96","60.02","FORT SMITH A","2202201","2022-04-06 01:00","2022","04","06","01:00","-0.8","","-1.1","","98","","","","36","","2","","24.1","","99.22","","","","-1","","Snow"
"-111.96","60.02","FORT SMITH A","2202201","2022-04-06 02:00","2022","04","06","02:00","-1.8","","-2.1","","98","","","","36","","2","","9.7","","99.29","","","","-3","","Snow,Fog"
"-111.96","60.02","FORT SMITH A","2202201","2022-04-06 03:00","2022","04","06","03:00"
"-111.96","60.02","FORT SMITH A","2202201","2022-04-06 04:00","2022","04","06","04:00","-2.2","","-3.0","","94","","","","31","","7","","24.1","","99.42","","","","-5","","NA"
"-111.96","60.02","FORT SMITH A","2202201","2022-04-06 05:00","2022","04","06","05:00","-2.7","","-4.3","","89","","","","30","","8","","24.1","","99.49","","","","-6","","Mostly Cloudy"
"-111.96","60.02","FORT SMITH A","2202201","2022-04-06 06:00","2022","04","06","06:00","-2.7","","-4.6","","87","","","","29","","5","","24.1","","99.55","","","","-5","","Snow"
"-111.96","60.02","FORT SMITH A","2202201","2022-04-06 07:00","2022","04","06","07:00","-2.6","","-4.9","","84","","","","32","","3","","24.1","","99.60","","","","-4","","Snow"
"-111.96","60.02","FORT SMITH A","2202201","2022-04-06 08:00","2022","04","06","08:00","-2.6","","-4.9","","84","","","","34","","5","","24.1","","99.67","","","","-5","","Snow"
"-111.96","60.02","FORT SMITH A","2202201","2022-04-06 09:00","2022","04","06","09:00","-2.0","","-4.5","","83","","","","30","","4","","24.1","","99.71","","","","-3","","Snow"
"-111.96","60.02","FORT SMITH A","2202201","2022-04-06 10:00","2022","04","06","10:00","-0.2","","-2.5","","84","","","","28","","9","","24.1","","99.78","","","","-3","","Snow"
"-111.96","60.02","FORT SMITH A","2202201","2022-04-06 11:00","2022","04","06","11:00","1.5","","-3.2","","71","","","","35","","8","","24.1","","99.81","","","","","","Mostly Cloudy"
"-111.96","60.02","FORT SMITH A","2202201","2022-04-06 12:00","2022","04","06","12:00","2.1","","-3.3","","67","","","","28","","12","","24.1","","99.84","","","","","","NA"
"-111.96","60.02","FORT SMITH A","2202201","2022-04-06 13:00","2022","04","06","13:00","3.4","","-4.0","","58","","","","36","","3","","24.1","","99.87","","","","","","NA"
"-111.96","60.02","FORT SMITH A","2202201","2022-04-06 14:00","2022","04","06","14:00","5.1","","-3.5","","54","","","","17","","3","","24.1","","99.91","","","","","","Mostly Cloudy"
"-111.96","60.02","FORT SMITH A","2202201","2022-04-06 15:00","2022","04","06","15:00","5.9","","-4.7","","47","","","","36","","2","","24.1","","99.96","","","","","","NA"
"-111.96","60.02","FORT SMITH A","2202201","2022-04-06 16:00","2022","04","06","16:00","7.0","","-5.3","","41","","","","36","","1","","24.1","","99.97","","","","","","NA"
"-111.96","60.02","FORT SMITH A","2202201","2022-04-06 17:00","2022","04","06","17:00","6.5","","-5.8","","41","","","","36","","2","","24.1","","99.99","","","","","","Mainly Clear"
"-111.96","60.02","FORT SMITH A","2202201","2022-04-06 18:00","2022","04","06","18:00","6.4","","-6.0","","41","","","","5","","3","","24.1","","100.02","","","","","","NA"
"-111.96","60.02","FORT SMITH A","2202201","2022-04-06 19:00","2022","04","06","19:00","4.6","","-5.0","","50","","","","36","","3","","24.1","","100.06","","","","","","NA"
"-111.96","60.02","FORT SMITH A","2202201","2022-04-06 20:00","2022","04","06","20:00","-0.3","","-4.7","","72","","","","11","","5","","24.1","","100.08","","","","-2","","Mainly Clear"
"-111.96","60.02","FORT SMITH A","2202201","2022-04-06 21:00","2022","04","06","21:00","-1.4","","-4.3","","81","","","","14","","7","","24.1","","100.10","","","","-4","","NA"
"-111.96","60.02","FORT SMITH A","2202201","2022-04-06 22:00","2022","04","06","22:00","0.2","","-5.8","","65","","","","14","","8","","24.1","","100.10","","","","","","NA"
"-111.96","60.02","FORT SMITH A","2202201","2022-04-06 23:00","2022","04","06","23:00","0.3","","-5.3","","66","","","","14","","12","","24.1","","100.10","","","","","","Clear"
"-111.96","60.02","FORT SMITH A","2202201","2022-04-07 00:00","2022","04","07","00:00","-0.4","","-4.7","","73","","","","16","","13","","24.1","","100.14","","","","-5","","NA"
"-111.96","60.02","FORT SMITH A","2202201","2022-04-07 01:00","2022","04","07","01:00","-1.1","","-4.6","","77","","","","15","","11","","24.1","","100.15","","","","-5","","NA"
"-111.96","60.02","FORT SMITH A","2202201","2022-04-07 02:00","2022","04","07","02:00","-1.9","","-4.8","","80","","","","14","","7","","24.1","","100.14","","","","-5","","Clear"
"-111.96","60.02","FORT SMITH A","2202201","2022-04-07 03:00","2022","04","07","03:00","-2.8","","-5.0","","84","","","","14","","7","","24.1","","100.15","","","","-6","","NA"
"-111.96","60.02","FORT SMITH A","2202201","2022-04-07 04:00","2022","04","07","04:00","-4.2","","-5.7","","89","","","","13","","4","","24.1","","100.17","","","","-6","","NA"
"-111.96","60.02","FORT SMITH A","2202201","2022-04-07 05:00","2022","04","07","05:00","-2.5","","-4.6","","85","","","","15","","8","","24.1","","100.16","","","","-6","","Mostly Cloudy"
"-111.96","60.02","FORT SMITH A","2202201","2022-04-07 06:00","2022","04","07","06:00","-2.5","","-4.4","","87","","","","15","","10","","24.1","","100.14","","","","-6","","NA"
"-111.96","60.02","FORT SMITH A","2202201","2022-04-07 07:00","2022","04","07","07:00","-1.9","","-4.0","","85","","","","15","","8","","24.1","","100.13","","","","-5","","NA"
"-111.96","60.02","FORT SMITH A","2202201","2022-04-07 08:00","2022","04","07","08:00","-0.6","","-3.8","","79","","","","14","","7","","24.1","","100.13","","","","-3","","Mostly Cloudy"
"-111.96","60.02","FORT SMITH A","2202201","2022-04-07 09:00","2022","04","07","09:00","2.7","","-3.9","","62","","","","14","","7","","24.1","","100.10","","","","","","NA"
"-111.96","60.02","FORT SMITH A","2202201","2022-04-07 10:00","2022","04","07","10:00","4.6","","-4.1","","53","","","","13","","10","","24.1","","100.08","","","","","","NA"
"-111.96","60.02","FORT SMITH A","2202201","2022-04-07 11:00","2022","04","07","11:00","5.8","","-4.6","","47","","","","15","","6","","24.1","","100.03","","","","","","Mostly Cloudy"
"-111.96","60.02","FORT SMITH A","2202201","2022-04-07 12:00","2022","04","07","12:00","7.9","","-6.4","","36","","","","15","","8","","24.1","","99.95","","","","","","NA"
"-111.96","60.02","FORT SMITH A","2202201","2022-04-07 13:00","2022","04","07","13:00","8.8","","-7.0","","32","","","","15","","14","","24.1","","99.89","","","","","","NA"
"-111.96","60.02","FORT SMITH A","2202201","2022-04-07 14:00","2022","04","07","14:00","9.3","","-6.8","","31","","","","15","","8","","24.1","","99.81","","","","","","Mostly Cloudy"
"-111.96","60.02","FORT SMITH A","2202201","2022-04-07 15:00","2022","04","07","15:00","9.8","","-7.0","","30","","","","14","","12","","24.1","","99.75","","","","","","NA"
"-111.96","60.02","FORT SMITH A","2202201","2022-04-07 16:00","2022","04","07","16:00","9.0","","-5.1","","37","","","","16","","13","","24.1","","99.68","","","","","","NA"
"-111.96","60.02","FORT SMITH A","2202201","2022-04-07 17:00","2022","04","07","17:00","8.5","","-5.5","","37","","","","15","","13","","24.1","","99.61","","","","","","Mostly Cloudy"
"-111.96","60.02","FORT SMITH A","2202201","2022-04-07 18:00","2022","04","07","18:00","8.4","","-5.3","","37","","","","15","","14","","24.1","","99.56","","","","","","NA"
"-111.96","60.02","FORT SMITH A","2202201","2022-04-07 19:00","2022","04","07","19:00","7.8","","-6.3","","36","","","","14","","8","","24.1","","99.43","","","","","","NA"
"-111.96","60.02","FORT SMITH A","2202201","2022-04-07 20:00","2022","04","07","20:00","6.8","","-5.7","","41","","","","12","","9","","24.1","","99.39","","","","","","Mostly Cloudy"
"-111.96","60.02","FORT SMITH A","2202201","2022-04-07 21:00","2022","04","07","21:00","6.4","","-4.4","","46","","","","11","","7","","24.1","","99.26","","","","","","NA"
"-111.96","60.02","FORT SMITH A","2202201","2022-04-07 22:00","2022","04","07","22:00","6.0","","-4.7","","46","","","","13","","9","","24.1","","99.19","","","","","","NA"
"-111.96","60.02","FORT SMITH A","2202201","2022-04-07 23:00","2022","04","07","23:00","5.6","","-4.7","","48","","","","13","","11","","24.1","","99.06","","","","","","Cloudy"
"-111.96","60.02","FORT SMITH A","2202201","2022-04-08 00:00","2022","04","08","00:00","5.1","","-4.4","","50","","","","13","","12","","24.1","","98.93","","","","","","NA"
"-111.96","60.02","FORT SMITH A","2202201","2022-04-08 01:00","2022","04","08","01:00","5.0","","-4.5","","50","","","","13","","10","","24.1","","98.84","","","","","","NA"
"-111.96","60.02","FORT SMITH A","2202201","2022-04-08 02:00","2022","04","08","02:00","4.6","","-4.2","","53","","","","15","","13","","24.1","","98.75","","","","","","Cloudy"
"-111.96","60.02","FORT SMITH A","2202201","2022-04-08 03:00","2022","04","08","03:00","4.7","","-4.7","","51","","","","14","","8","","24.1","","98.66","","","","","","NA"
"-111.96","60.02","FORT SMITH A","2202201","2022-04-08 04:00","2022","04","08","04:00","4.3","","-4.2","","54","","","","13","","4","","24.1","","98.59","","","","","","NA"
"-111.96","60.02","FORT SMITH A","2202201","2022-04-08 05:00","2022","04","08","05:00","4.0","","-3.8","","57","","","","10","","5","","24.1","","98.45","","","","","","Rain"
"-111.96","60.02","FORT SMITH A","2202201","2022-04-08 06:00","2022","04","08","06:00","3.8","","-3.5","","59","","","","11","","5","","24.1","","98.29","","","","","","NA"
"-111.96","60.02","FORT SMITH A","2202201","2022-04-08 07:00","2022","04","08","07:00","3.4","","-3.3","","61","","","","11","","9","","24.1","","98.19","","","","","","NA"
"-111.96","60.02","FORT SMITH A","2202201","2022-04-08 08:00","2022","04","08","08:00","4.3","","-3.0","","59","","","","10","","7","","24.1","","98.04","","","","","","Mostly Cloudy"
"-111.96","60.02","FORT SMITH A","2202201","2022-04-08 09:00","2022","04","08","09:00","4.7","","-2.8","","58","","","","11","","8","","24.1","","97.91","","","","","","NA"
"-111.96","60.02","FORT SMITH A","2202201","2022-04-08 10:00","2022","04","08","10:00","5.3","","-2.8","","56","","","","10","","13","","24.1","","97.79","","","","","","NA"
"-111.96","60.02","FORT SMITH A","2202201","2022-04-08 11:00","2022","04","08","11:00","5.2","","-2.8","","56","","","","12","","12","","24.1","","97.72","","","","","","Cloudy"
"-111.96","60.02","FORT SMITH A","2202201","2022-04-08 12:00","2022","04","08","12:00","6.1","","-2.9","","52","","","","9","","11","","24.1","","97.59","","","","","","NA"
"-111.96","60.02","FORT SMITH A","2202201","2022-04-08 13:00","2022","04","08","13:00","6.6","","-2.7","","51","","","","10","","5","","24.1","","97.45","","","","","","NA"
"-111.96","60.02","FORT SMITH A","2202201","2022-04-08 14:00","2022","04","08","14:00","6.5","","-2.8","","51","","","","12","","8","","24.1","","97.41","","","","","","Cloudy"
"-111.96","60.02","FORT SMITH A","2202201","2022-04-08 15:00","2022","04","08","15:00","6.4","","-2.8","","51","","","","7","","4","","24.1","","97.38","","","","","","NA"
"-111.96","60.02","FORT SMITH A","2202201","2022-04-08 16:00","2022","04","08","16:00","7.0","","-2.9","","49","","","","5","","8","","24.1","","97.29","","","","","","NA"
"-111.96","60.02","FORT SMITH A","2202201","2022-04-08 17:00","2022","04","08","17:00","5.8","","-2.6","","55","","","","3","","9","","24.1","","97.24","","","","","","Cloudy"
"-111.96","60.02","FORT SMITH A","2202201","2022-04-08 18:00","2022","04","08","18:00","5.4","","-2.6","","56","","","","2","","5","","24.1","","97.20","","","","","","NA"
"-111.96","60.02","FORT SMITH A","2202201","2022-04-08 19:00","2022","04","08","19:00","5.7","","-2.9","","54","","","","33","","8","","24.1","","97.12","","","","","","NA"
"-111.96","60.02","FORT SMITH A","2202201","2022-04-08 20:00","2022","04","08","20:00","4.5","","-2.8","","59","","","","34","","9","","24.1","","97.07","","","","","","Cloudy"
"-111.96","60.02","FORT SMITH A","2202201","2022-04-08 21:00","2022","04","08","21:00","3.5","","-1.4","","70","","","","35","","15","","24.1","","97.08","","","","","","NA"
"-111.96","60.02","FORT SMITH A","2202201","2022-04-08 22:00","2022","04","08","22:00","2.6","","-0.2","","82","","","","35","","9","","24.1","","97.13","","","","","","Rain"
"-111.96","60.02","FORT SMITH A","2202201","2022-04-08 23:00","2022","04","08","23:00","1.7","","0.2","","89","","","","35","","16","","24.1","","96.99","","","","","","Rain"
"-111.96","60.02","FORT SMITH A","2202201","2022-04-09 00:00","2022","04","09","00:00","1.5","","0.3","","91","","","","36","","18","","24.1","","96.91","","","","","","NA"
"-111.96","60.02","FORT SMITH A","2202201","2022-04-09 01:00","2022","04","09","01:00","1.5","","0.3","","91","","","","35","","12","","24.1","","96.93","","","","","","NA"
"-111.96","60.02","FORT SMITH A","2202201","2022-04-09 02:00","2022","04","09","02:00","1.3","","0.3","","93","","","","36","","15","","24.1","","96.85","","","","","","Cloudy"
"-111.96","60.02","FORT SMITH A","2202201","2022-04-09 03:00","2022","04","09","03:00","0.8","","0.1","","95","","","","33","","11","","24.1","","96.92","","","","","","Snow Pellets"
"-111.96","60.02","FORT SMITH A","2202201","2022-04-09 04:00","2022","04","09","04:00","0.4","","-0.2","","96","","","","33","","14","","2.4","","96.90","","","","","","Snow"
"-111.96","60.02","FORT SMITH A","2202201","2022-04-09 05:00","2022","04","09","05:00","0.3","","-0.3","","96","","","","34","","20","","0.8","","96.88","","","","","","Moderate Snow"
"-111.96","60.02","FORT SMITH A","2202201","2022-04-09 06:00","2022","04","09","06:00","0.3","","-0.4","","95","","","","34","","18","","2.4","","96.88","","","","","","Snow"
"-111.96","60.02","FORT SMITH A","2202201","2022-04-09 07:00","2022","04","09","07:00","0.2","","-0.6","","95","","","","35","","24","","1.2","","96.87","","","","","","Snow,Fog"
"-111.96","60.02","FORT SMITH A","2202201","2022-04-09 08:00","2022","04","09","08:00","-0.4","","-1.4","","93","","","","34","","26","","1.6","","96.90","","","","-7","","Snow,Fog"
"-111.96","60.02","FORT SMITH A","2202201","2022-04-09 09:00","2022","04","09","09:00","-1.8","","-2.9","","93","","","","34","","23","","0.8","","96.98","","","","-8","","Snow,Blowing Snow"
"-111.96","60.02","FORT SMITH A","2202201","2022-04-09 10:00","2022","04","09","10:00","-2.9","","-4.3","","90","","","","34","","24","","0.8","","97.08","","","","-10","","Snow,Blowing Snow"
"-111.96","60.02","FORT SMITH A","2202201","2022-04-09 11:00","2022","04","09","11:00","-4.2","","-5.8","","89","","","","34","","27","","1.0","","97.18","","","","-12","","Snow,Blowing Snow"
"-111.96","60.02","FORT SMITH A","2202201","2022-04-09 12:00","2022","04","09","12:00","-5.1","","-6.7","","88","","","","34","","32","","0.6","","97.30","","","","-13","","Moderate Snow,Blowing Snow"
"-111.96","60.02","FORT SMITH A","2202201","2022-04-09 13:00","2022","04","09","13:00","-4.9","","-6.6","","88","","","","35","","24","","0.8","","97.37","","","","-12","","Snow,Blowing Snow"
"-111.96","60.02","FORT SMITH A","2202201","2022-04-09 14:00","2022","04","09","14:00","-5.1","","-6.9","","88","","","","35","","23","","0.8","","97.48","","","","-12","","Snow,Blowing Snow"
"-111.96","60.02","FORT SMITH A","2202201","2022-04-09 15:00","2022","04","09","15:00","-5.2","","-6.9","","88","","","","34","","29","","0.8","","97.60","","","","-13","","Snow,Blowing Snow"
"-111.96","60.02","FORT SMITH A","2202201","2022-04-09 16:00","2022","04","09","16:00","-5.3","","-7.0","","88","","","","34","","29","","0.8","","97.70","","","","-13","","Snow,Blowing Snow"
"-111.96","60.02","FORT SMITH A","2202201","2022-04-09 17:00","2022","04","09","17:00","-5.8","","-7.6","","87","","","","34","","30","","0.8","","97.80","","","","-14","","Snow,Blowing Snow"
"-111.96","60.02","FORT SMITH A","2202201","2022-04-09 18:00","2022","04","09","18:00","-5.9","","-7.9","","86","","","","34","","33","","1.2","","97.90","","","","-15","","Snow,Blowing Snow"
"-111.96","60.02","FORT SMITH A","2202201","2022-04-09 19:00","2022","04","09","19:00","-5.8","","-7.6","","87","","","","34","","24","","1.6","","97.98","","","","-13","","Snow,Blowing Snow"
"-111.96","60.02","FORT SMITH A","2202201","2022-04-09 20:00","2022","04","09","20:00","-6.1","","-7.8","","88","","","","34","","28","","1.6","","98.06","","","","-14","","Snow,Blowing Snow"
"-111.96","60.02","FORT SMITH A","2202201","2022-04-09 21:00","2022","04","09","21:00","-6.5","","-8.4","","86","","","","34","","34","","1.6","","98.10","","","","-15","","Snow,Blowing Snow"
"-111.96","60.02","FORT SMITH A","2202201","2022-04-09 22:00","2022","04","09","22:00","-7.0","","-9.0","","86","","","","34","","32","","1.6","","98.15","","","","-16","","Snow,Blowing Snow"
"-111.96","60.02","FORT SMITH A","2202201","2022-04-09 23:00","2022","04","09","23:00","-7.8","","-10.0","","85","","","","34","","31","","2.0","","98.20","","","","-17","","Snow,Blowing Snow"
"-111.96","60.02","FORT SMITH A","2202201","2022-04-10 00:00","2022","04","10","00:00","-8.7","","-10.8","","85","","","","33","","26","","2.0","","98.24","","","","-17","","Snow,Blowing Snow"
"-111.96","60.02","FORT SMITH A","2202201","2022-04-10 01:00","2022","04","10","01:00","-9.7","","-11.9","","84","","","","33","","28","","2.0","","98.31","","","","-19","","Snow,Blowing Snow"
"-111.96","60.02","FORT SMITH A","2202201","2022-04-10 02:00","2022","04","10","02:00","-10.4","","-12.7","","84","","","","34","","26","","3.2","","98.38","","","","-19","","Snow,Blowing Snow"
"-111.96","60.02","FORT SMITH A","2202201","2022-04-10 03:00","2022","04","10","03:00","-11.4","","-13.7","","83","","","","33","","22","","3.2","","98.46","","","","-20","","Snow,Blowing Snow"
"-111.96","60.02","FORT SMITH A","2202201","2022-04-10 04:00","2022","04","10","04:00","-12.2","","-14.7","","82","","","","34","","26","","4.8","","98.53","","","","-22","","Snow,Blowing Snow"
"-111.96","60.02","FORT SMITH A","2202201","2022-04-10 05:00","2022","04","10","05:00","-12.9","","-15.6","","80","","","","34","","19","","19.3","","98.59","","","","-21","","Snow,Blowing Snow"
"-111.96","60.02","FORT SMITH A","2202201","2022-04-10 06:00","2022","04","10","06:00","-13.4","","-16.2","","80","","","","33","","25","","24.1","","98.64","","","","-23","","Snow,Blowing Snow"
"-111.96","60.02","FORT SMITH A","2202201","2022-04-10 07:00","2022","04","10","07:00","-13.6","","-16.4","","79","","","","33","","32","","24.1","","98.70","","","","-25","","Snow,Blowing Snow"
"-111.96","60.02","FORT SMITH A","2202201","2022-04-10 08:00","2022","04","10","08:00","-13.6","","-16.6","","78","","","","33","","28","","24.1","","98.77","","","","-24","","Blowing Snow"
"-111.96","60.02","FORT SMITH A","2202201","2022-04-10 09:00","2022","04","10","09:00","-13.5","","-16.5","","78","","","","33","","21","","24.1","","98.85","","","","-22","","Blowing Snow"
"-111.96","60.02","FORT SMITH A","2202201","2022-04-10 10:00","2022","04","10","10:00","-12.9","","-15.9","","79","","","","33","","27","","16.1","","98.92","","","","-23","","Snow,Blowing Snow"
"-111.96","60.02","FORT SMITH A","2202201","2022-04-10 11:00","2022","04","10","11:00","-12.2","","-15.1","","79","","","","34","","22","","24.1","","98.96","","","","-21","","Snow,Blowing Snow"
"-111.96","60.02","FORT SMITH A","2202201","2022-04-10 12:00","2022","04","10","12:00","-11.7","","-14.9","","77","","","","33","","29","","3.2","","99.02","","","","-22","","Snow,Blowing Snow"
"-111.96","60.02","FORT SMITH A","2202201","2022-04-10 13:00","2022","04","10","13:00","-11.2","","-14.4","","77","","","","33","","26","","4.0","","99.09","","","","-20","","Snow,Blowing Snow"
"-111.96","60.02","FORT SMITH A","2202201","2022-04-10 14:00","2022","04","10","14:00","-10.3","","-13.7","","77","","","","33","","31","","4.0","","99.12","","","","-20","","Snow,Blowing Snow"
"-111.96","60.02","FORT SMITH A","2202201","2022-04-10 15:00","2022","04","10","15:00","-9.3","","-12.9","","76","","","","33","","25","","16.1","","99.16","","","","-18","","Snow,Blowing Snow"
"-111.96","60.02","FORT SMITH A","2202201","2022-04-10 16:00","2022","04","10","16:00","-8.3","","-12.8","","71","","","","34","","31","","24.1","","99.19","","","","-17","","Blowing Snow"
"-111.96","60.02","FORT SMITH A","2202201","2022-04-10 17:00","2022","04","10","17:00","-8.3","","-12.9","","70","","","","34","","23","","24.1","","99.23","","","","-16","","Blowing Snow"
"-111.96","60.02","FORT SMITH A","2202201","2022-04-10 18:00","2022","04","10","18:00","-8.7","","-13.4","","69","","","","34","","31","","24.1","","99.28","","","","-18","","Snow,Blowing Snow"
"-111.96","60.02","FORT SMITH A","2202201","2022-04-10 19:00","2022","04","10","19:00","-9.2","","-13.9","","69","","","","34","","25","","24.1","","99.32","","","","-18","","Snow,Blowing Snow"
"-111.96","60.02","FORT SMITH A","2202201","2022-04-10 20:00","2022","04","10","20:00","-9.3","","-14.0","","69","","","","35","","26","","24.1","","99.35","","","","-18","","Mostly Cloudy"
"-111.96","60.02","FORT SMITH A","2202201","2022-04-10 21:00","2022","04","10","21:00","-9.9","","-14.8","","68","","","","35","","23","","24.1","","99.38","","","","-18","","Blowing Snow"
"-111.96","60.02","FORT SMITH A","2202201","2022-04-10 22:00","2022","04","10","22:00","-11.1","","-16.3","","66","","","","34","","19","","24.1","","99.41","","","","-19","","Blowing Snow"
"-111.96","60.02","FORT SMITH A","2202201","2022-04-10 23:00","2022","04","10","23:00","-12.0","","-17.2","","66","","","","34","","27","","19.3","","99.45","","","","-22","","Snow,Blowing Snow"
"-111.96","60.02","FORT SMITH A","2202201","2022-04-11 00:00","2022","04","11","00:00","-12.8","","-17.0","","71","","","","34","","22","","19.3","","99.50","","","","-22","","Snow,Blowing Snow"
"-111.96","60.02","FORT SMITH A","2202201","2022-04-11 01:00","2022","04","11","01:00","-13.5","","-18.1","","68","","","","34","","18","","24.1","","99.55","","","","-22","","Snow,Blowing Snow"
"-111.96","60.02","FORT SMITH A","2202201","2022-04-11 02:00","2022","04","11","02:00","-14.3","","-18.9","","69","","","","33","","23","","24.1","","99.60","","","","-24","","Snow,Blowing Snow"
"-111.96","60.02","FORT SMITH A","2202201","2022-04-11 03:00","2022","04","11","03:00","-14.8","","-19.1","","70","","","","33","","15","","16.1","","99.63","","","","-23","","Snow,Blowing Snow"
"-111.96","60.02","FORT SMITH A","2202201","2022-04-11 04:00","2022","04","11","04:00","-15.3","","-19.7","","70","","","","33","","17","","19.3","","99.67","","","","-24","","Snow,Blowing Snow"
"-111.96","60.02","FORT SMITH A","2202201","2022-04-11 05:00","2022","04","11","05:00","-16.2","","-20.4","","71","","","","34","","18","","24.1","","99.71","","","","-25","","Blowing Snow"
"-111.96","60.02","FORT SMITH A","2202201","2022-04-11 06:00","2022","04","11","06:00","-16.9","","-20.8","","72","","","","33","","19","","24.1","","99.76","","","","-26","","Blowing Snow"
"-111.96","60.02","FORT SMITH A","2202201","2022-04-11 07:00","2022","04","11","07:00","-16.8","","-20.8","","72","","","","33","","21","","24.1","","99.81","","","","-27","","Blowing Snow"
"-111.96","60.02","FORT SMITH A","2202201","2022-04-11 08:00","2022","04","11","08:00","-16.6","","-20.8","","70","","","","34","","25","","24.1","","99.89","","","","-27","","Blowing Snow"
"-111.96","60.02","FORT SMITH A","2202201","2022-04-11 09:00","2022","04","11","09:00","-15.8","","-20.0","","70","","","","35","","29","","24.1","","99.94","","","","-27","","Blowing Snow"
"-111.96","60.02","FORT SMITH A","2202201","2022-04-11 10:00","2022","04","11","10:00","-14.4","","-19.1","","68","","","","34","","23","","24.1","","99.96","","","","-24","","Blowing Snow"
"-111.96","60.02","FORT SMITH A","2202201","2022-04-11 11:00","2022","04","11","11:00","-13.0","","-18.4","","64","","","","34","","30","","24.1","","100.00","","","","-23","","Blowing Snow"
"-111.96","60.02","FORT SMITH A","2202201","2022-04-11 12:00","2022","04","11","12:00","-11.9","","-18.0","","61","","","","33","","29","","24.1","","100.04","","","","-22","","Blowing Snow"
"-111.96","60.02","FORT SMITH A","2202201","2022-04-11 13:00","2022","04","11","13:00","-10.5","","-16.9","","60","","","","33","","23","","24.1","","100.09","","","","-19","","Blowing Snow"
"-111.96","60.02","FORT SMITH A","2202201","2022-04-11 14:00","2022","04","11","14:00","-9.6","","-15.9","","60","","","","33","","26","","24.1","","100.11","","","","-18","","Blowing Snow"
"-111.96","60.02","FORT SMITH A","2202201","2022-04-11 15:00","2022","04","11","15:00","-8.8","","-16.4","","55","","","","34","","28","","24.1","","100.16","","","","-18","","Blowing Snow"
"-111.96","60.02","FORT SMITH A","2202201","2022-04-11 16:00","2022","04","11","16:00","-8.3","","-16.2","","53","","","","33","","23","","24.1","","100.21","","","","-16","","Blowing Snow"
"-111.96","60.02","FORT SMITH A","2202201","2022-04-11 17:00","2022","04","11","17:00","-8.5","","-16.3","","54","","","","34","","25","","24.1","","100.27","","","","-17","","Blowing Snow"
"-111.96","60.02","FORT SMITH A","2202201","2022-04-11 18:00","2022","04","11","18:00","-8.7","","-16.0","","56","","","","34","","26","","24.1","","100.32","","","","-17","","Blowing Snow"
"-111.96","60.02","FORT SMITH A","2202201","2022-04-11 19:00","2022","04","11","19:00","-9.3","","-16.9","","55","","","","35","","21","","24.1","","100.37","","","","-17","","Blowing Snow"
"-111.96","60.02","FORT SMITH A","2202201","2022-04-11 20:00","2022","04","11","20:00","-10.4","","-18.5","","52","","","","35","","18","","24.1","","100.43","","","","-18","","Mostly Cloudy"
"-111.96","60.02","FORT SMITH A","2202201","2022-04-11 21:00","2022","04","11","21:00","-11.3","","-18.8","","54","","","","35","","19","","24.1","","100.48","","","","-19","","Blowing Snow"
"-111.96","60.02","FORT SMITH A","2202201","2022-04-11 22:00","2022","04","11","22:00","-12.3","","-18.8","","59","","","","36","","21","","24.1","","100.53","","","","-21","","NA"
"-111.96","60.02","FORT SMITH A","2202201","2022-04-11 23:00","2022","04","11","23:00","-14.1","","-19.6","","64","","","","35","","17","","24.1","","100.62","","","","-22","","Blowing Snow"
"-111.96","60.02","FORT SMITH A","2202201","2022-04-12 00:00","2022","04","12","00:00","-16.1","","-20.9","","67","","","","35","","14","","24.1","","100.70","","","","-24","","NA"
"-111.96","60.02","FORT SMITH A","2202201","2022-04-12 01:00","2022","04","12","01:00","-17.6","","-21.9","","70","","","","33","","17","","24.1","","100.79","","","","-27","","NA"
"-111.96","60.02","FORT SMITH A","2202201","2022-04-12 02:00","2022","04","12","02:00","-18.7","","-22.8","","71","","","","34","","16","","24.1","","100.85","","","","-28","","Clear"
"-111.96","60.02","FORT SMITH A","2202201","2022-04-12 03:00","2022","04","12","03:00","-19.7","","-23.5","","72","","","","34","","12","","24.1","","100.91","","","","-28","","NA"
"-111.96","60.02","FORT SMITH A","2202201","2022-04-12 04:00","2022","04","12","04:00","-20.2","","-24.1","","72","","","","34","","13","","24.1","","100.98","","","","-29","","NA"
"-111.96","60.02","FORT SMITH A","2202201","2022-04-12 05:00","2022","04","12","05:00","-20.9","","-24.6","","73","","","","33","","13","","24.1","","101.06","","","","-30","","Mainly Clear"
"-111.96","60.02","FORT SMITH A","2202201","2022-04-12 06:00","2022","04","12","06:00","-21.4","","-24.9","","74","","","","33","","12","","24.1","","101.10","","","","-30","","NA"
"-111.96","60.02","FORT SMITH A","2202201","2022-04-12 07:00","2022","04","12","07:00","-20.5","","-24.7","","69","","","","36","","13","","24.1","","101.15","","","","-29","","NA"
"-111.96","60.02","FORT SMITH A","2202201","2022-04-12 08:00","2022","04","12","08:00","-19.5","","-24.6","","64","","","","34","","18","","24.1","","101.20","","","","-29","","Mainly Clear"
"-111.96","60.02","FORT SMITH A","2202201","2022-04-12 09:00","2022","04","12","09:00","-18.5","","-24.5","","60","","","","33","","17","","24.1","","101.25","","","","-28","","NA"
"-111.96","60.02","FORT SMITH A","2202201","2022-04-12 10:00","2022","04","12","10:00","-17.3","","-23.8","","58","","","","36","","18","","24.1","","101.24","","","","-27","","NA"
"-111.96","60.02","FORT SMITH A","2202201","2022-04-12 11:00","2022","04","12","11:00","-15.8","","-22.9","","55","","","","35","","17","","24.1","","101.29","","","","-24","","Clear"
"-111.96","60.02","FORT SMITH A","2202201","2022-04-12 12:00","2022","04","12","12:00","-15.0","","-22.5","","53","","","","36","","20","","24.1","","101.34","","","","-24","","NA"
"-111.96","60.02","FORT SMITH A","2202201","2022-04-12 13:00","2022","04","12","13:00","-14.3","","-21.9","","53","","","","34","","20","","24.1","","101.36","","","","-23","","NA"
"-111.96","60.02","FORT SMITH A","2202201","2022-04-12 14:00","2022","04","12","14:00","-12.7","","-20.7","","52","","","","35","","23","","24.1","","101.35","","","","-22","","Clear"
"-111.96","60.02","FORT SMITH A","2202201","2022-04-12 15:00","2022","04","12","15:00","-12.0","","-20.6","","49","","","","36","","22","","24.1","","101.35","","","","-21","","NA"
"-111.96","60.02","FORT SMITH A","2202201","2022-04-12 16:00","2022","04","12","16:00","-11.2","","-20.2","","48","","","","32","","14","","24.1","","101.33","","","","-18","","NA"
"-111.96","60.02","FORT SMITH A","2202201","2022-04-12 17:00","2022","04","12","17:00","-11.1","","-20.4","","47","","","","35","","17","","24.1","","101.34","","","","-19","","Clear"
"-111.96","60.02","FORT SMITH A","2202201","2022-04-12 18:00","2022","04","12","18:00","-11.3","","-20.8","","46","","","","2","","20","","24.1","","101.36","","","","-20","","NA"
"-111.96","60.02","FORT SMITH A","2202201","2022-04-12 19:00","2022","04","12","19:00","-11.9","","-20.9","","48","","","","35","","14","","24.1","","101.39","","","","-19","","NA"
"-111.96","60.02","FORT SMITH A","2202201","2022-04-12 20:00","2022","04","12","20:00","-13.7","","-21.2","","54","","","","34","","7","","24.1","","101.41","","","","-18","","Clear"
"-111.96","60.02","FORT SMITH A","2202201","2022-04-12 21:00","2022","04","12","21:00","-15.1","","-21.8","","57","","","","35","","6","","24.1","","101.45","","","","-19","","NA"
"-111.96","60.02","FORT SMITH A","2202201","2022-04-12 22:00","2022","04","12","22:00","-16.5","","-22.5","","60","","","","32","","9","","24.1","","101.45","","","","-23","","NA"
"-111.96","60.02","FORT SMITH A","2202201","2022-04-12 23:00","2022","04","12","23:00","-17.5","","-23.2","","62","","","","34","","8","","24.1","","101.46","","","","-23","","Clear"
"-111.96","60.02","FORT SMITH A","2202201","2022-04-13 00:00","2022","04","13","00:00","-18.1","","-23.5","","63","","","","34","","9","","24.1","","101.45","","","","-24","","NA"
"-111.96","60.02","FORT SMITH A","2202201","2022-04-13 01:00","2022","04","13","01:00","-18.7","","-23.8","","65","","","","34","","9","","24.1","","101.44","","","","-25","","NA"
"-111.96","60.02","FORT SMITH A","2202201","2022-04-13 02:00","2022","04","13","02:00","-19.8","","-23.9","","70","","","","34","","9","","24.1","","101.42","","","","-27","","Clear"
"-111.96","60.02","FORT SMITH A","2202201","2022-04-13 03:00","2022","04","13","03:00","-20.5","","-23.8","","75","","","","33","","8","","24.1","","101.40","","","","-27","","NA"
"-111.96","60.02","FORT SMITH A","2202201","2022-04-13 04:00","2022","04","13","04:00","-22.0","","-24.9","","78","","","","36","","3","","24.1","","101.40","","","","-25","","NA"
"-111.96","60.02","FORT SMITH A","2202201","2022-04-13 05:00","2022","04","13","05:00","-23.7","","-26.3","","80","","","","31","","5","","24.1","","101.40","","","","-28","","Clear"
"-111.96","60.02","FORT SMITH A","2202201","2022-04-13 06:00","2022","04","13","06:00","-23.2","","-25.7","","81","","","","36","","4","","24.1","","101.40","","","","-27","","NA"
"-111.96","60.02","FORT SMITH A","2202201","2022-04-13 07:00","2022","04","13","07:00","-21.9","","-25.0","","77","","","","36","","1","","24.1","","101.43","","","","-23","","NA"
"-111.96","60.02","FORT SMITH A","2202201","2022-04-13 08:00","2022","04","13","08:00","-19.2","","-23.8","","68","","","","29","","7","","24.1","","101.44","","","","-25","","Clear"
"-111.96","60.02","FORT SMITH A","2202201","2022-04-13 09:00","2022","04","13","09:00","-16.8","","-22.7","","61","","","","28","","7","","24.1","","101.45","","","","-22","","NA"
"-111.96","60.02","FORT SMITH A","2202201","2022-04-13 10:00","2022","04","13","10:00","-14.3","","-21.8","","54","","","","23","","5","","24.1","","101.42","","","","-18","","NA"
"-111.96","60.02","FORT SMITH A","2202201","2022-04-13 11:00","2022","04","13","11:00","-12.2","","-21.1","","48","","","","26","","6","","24.1","","101.34","","","","-16","","Mainly Clear"
"-111.96","60.02","FORT SMITH A","2202201","2022-04-13 12:00","2022","04","13","12:00","-11.0","","-19.9","","49","","","","28","","8","","24.1","","101.29","","","","-16","","NA"
"-111.96","60.02","FORT SMITH A","2202201","2022-04-13 13:00","2022","04","13","13:00","-9.9","","-20.3","","43","","","","36","","1","","24.1","","101.26","","","","-10","","NA"
"-111.96","60.02","FORT SMITH A","2202201","2022-04-13 14:00","2022","04","13","14:00","-9.2","","-20.1","","41","","","","33","","11","","24.1","","101.21","","","","-15","","Clear"
"-111.96","60.02","FORT SMITH A","2202201","2022-04-13 15:00","2022","04","13","15:00","-8.4","","-20.2","","39","","","","32","","6","","24.1","","101.14","","","","-12","","NA"
"-111.96","60.02","FORT SMITH A","2202201","2022-04-13 16:00","2022","04","13","16:00","-8.0","","-20.1","","38","","","","36","","1","","24.1","","101.08","","","","-9","","NA"
"-111.96","60.02","FORT SMITH A","2202201","2022-04-13 17:00","2022","04","13","17:00","-7.7","","-19.7","","38","","","","31","","9","","24.1","","101.07","","","","-12","","Clear"
"-111.96","60.02","FORT SMITH A","2202201","2022-04-13 18:00","2022","04","13","18:00","-7.7","","-20.0","","37","","","","4","","4","","24.1","","101.05","","","","-10","","NA"
"-111.96","60.02","FORT SMITH A","2202201","2022-04-13 19:00","2022","04","13","19:00","-8.6","","-19.9","","40","","","","34","","5","","24.1","","101.04","","","","-11","","NA"
"-111.96","60.02","FORT SMITH A","2202201","2022-04-13 20:00","2022","04","13","20:00","-11.1","","-19.8","","49","","","","1","","6","","24.1","","101.01","","","","-15","","Clear"
"-111.96","60.02","FORT SMITH A","2202201","2022-04-13 21:00","2022","04","13","21:00","-14.6","","-19.8","","65","","","","4","","4","","24.1","","100.99","","","","-17","","NA"
"-111.96","60.02","FORT SMITH A","2202201","2022-04-13 22:00","2022","04","13","22:00","-15.2","","-19.7","","69","","","","36","","3","","24.1","","100.92","","","","-17","","NA"
"-111.96","60.02","FORT SMITH A","2202201","2022-04-13 23:00","2022","04","13","23:00","-16.8","","-20.9","","71","","","","0","","1","","24.1","","100.90","","","","-18","","Clear"
"-111.96","60.02","FORT SMITH A","2202201","2022-04-14 00:00","2022","04","14","00:00","-17.7","","-21.4","","73","","","","36","","1","","24.1","","100.88","","","","-18","","NA"
"-111.96","60.02","FORT SMITH A","2202201","2022-04-14 01:00","2022","04","14","01:00","-18.9","","-22.6","","73","","","","0","","1","","24.1","","100.84","","","","-20","","NA"
"-111.96","60.02","FORT SMITH A","2202201","2022-04-14 02:00","2022","04","14","02:00","-19.6","","-23.2","","73","","","","36","","1","","24.1","","100.83","","","","-20","","Clear"
"-111.96","60.02","FORT SMITH A","2202201","2022-04-14 03:00","2022","04","14","03:00","-19.7","","-23.6","","72","","","","21","","3","","24.1","","100.84","","","","-22","","NA"
"-111.96","60.02","FORT SMITH A","2202201","2022-04-14 04:00","2022","04","14","04:00","-20.8","","-24.0","","76","","","","36","","1","","24.1","","100.80","","","","-22","","NA"
"-111.96","60.02","FORT SMITH A","2202201","2022-04-14 05:00","2022","04","14","05:00","-22.1","","-25.3","","76","","","","0","","1","","24.1","","100.78","","","","-23","","Clear"
"-111.96","60.02","FORT SMITH A","2202201","2022-04-14 06:00","2022","04","14","06:00","-22.1","","-25.2","","76","","","","36","","1","","24.1","","100.72","","","","-23","","NA"
"-111.96","60.02","FORT SMITH A","2202201","2022-04-14 07:00","2022","04","14","07:00","-19.5","","-23.0","","74","","","","36","","3","","24.1","","100.71","","","","-22","","NA"
"-111.96","60.02","FORT SMITH A","2202201","2022-04-14 08:00","2022","04","14","08:00","-14.4","","-19.9","","64","","","","36","","3","","24.1","","100.68","","","","-17","","Clear"
"-111.96","60.02","FORT SMITH A","2202201","2022-04-14 09:00","2022","04","14","09:00","-11.1","","-19.4","","51","","","","36","","2","","24.1","","100.66","","","","-12","","NA"
"-111.96","60.02","FORT SMITH A","2202201","2022-04-14 10:00","2022","04","14","10:00","-8.3","","-18.8","","43","","","","17","","3","","24.1","","100.66","","","","-10","","NA"
"-111.96","60.02","FORT SMITH A","2202201","2022-04-14 11:00","2022","04","14","11:00","-6.7","","-17.9","","41","","","","30","","4","","24.1","","100.61","","","","-9","","Clear"
"-111.96","60.02","FORT SMITH A","2202201","2022-04-14 12:00","2022","04","14","12:00","-5.1","","-18.6","","34","","","","36","","3","","24.1","","100.54","","","","-6","","NA"
"-111.96","60.02","FORT SMITH A","2202201","2022-04-14 13:00","2022","04","14","13:00","-3.9","","-19.8","","28","","","","19","","5","","24.1","","100.48","","","","-6","","NA"
"-111.96","60.02","FORT SMITH A","2202201","2022-04-14 14:00","2022","04","14","14:00","-3.0","","-18.8","","29","","","","36","","1","","24.1","","100.42","","","","-3","","Clear"
"-111.96","60.02","FORT SMITH A","2202201","2022-04-14 15:00","2022","04","14","15:00","-2.8","","-18.3","","29","","","","29","","12","","24.1","","100.36","","","","-7","","NA"
"-111.96","60.02","FORT SMITH A","2202201","2022-04-14 16:00","2022","04","14","16:00","-2.2","","-19.4","","26","","","","31","","7","","24.1","","100.31","","","","-5","","NA"
"-111.96","60.02","FORT SMITH A","2202201","2022-04-14 17:00","2022","04","14","17:00","-1.6","","-20.0","","23","","","","0","","1","","24.1","","100.27","","","","-2","","Clear"
"-111.96","60.02","FORT SMITH A","2202201","2022-04-14 18:00","2022","04","14","18:00","-1.7","","-19.3","","25","","","","0","","1","","24.1","","100.25","","","","-2","","NA"
"-111.96","60.02","FORT SMITH A","2202201","2022-04-14 19:00","2022","04","14","19:00","-4.3","","-17.9","","34","","","","32","","3","","24.1","","100.24","","","","-6","","NA"
"-111.96","60.02","FORT SMITH A","2202201","2022-04-14 20:00","2022","04","14","20:00","-6.5","","-15.7","","49","","","","36","","2","","24.1","","100.24","","","","-7","","Mainly Clear"
"-111.96","60.02","FORT SMITH A","2202201","2022-04-14 21:00","2022","04","14","21:00","-9.0","","-15.5","","59","","","","","","0","","24.1","","100.24","","","","","","NA"
"-111.96","60.02","FORT SMITH A","2202201","2022-04-14 22:00","2022","04","14","22:00","-11.6","","-16.9","","65","","","","36","","3","","24.1","","100.23","","","","-13","","NA"
"-111.96","60.02","FORT SMITH A","2202201","2022-04-14 23:00","2022","04","14","23:00","-12.2","","-17.8","","64","","","","36","","1","","24.1","","100.17","","","","-13","","Clear"
"-111.96","60.02","FORT SMITH A","2202201","2022-04-15 00:00","2022","04","15","00:00","-12.3","","-18.1","","63","","","","14","","4","","24.1","","100.17","","","","-15","","NA"
"-111.96","60.02","FORT SMITH A","2202201","2022-04-15 01:00","2022","04","15","01:00","-10.9","","-17.0","","61","","","","15","","5","","24.1","","100.16","","","","-14","","NA"
"-111.96","60.02","FORT SMITH A","2202201","2022-04-15 02:00","2022","04","15","02:00","-14.7","","-18.8","","71","","","","16","","5","","24.1","","100.15","","","","-18","","Clear"
"-111.96","60.02","FORT SMITH A","2202201","2022-04-15 03:00","2022","04","15","03:00","-16.7","","-19.8","","78","","","","36","","2","","24.1","","100.14","","","","-18","","NA"
"-111.96","60.02","FORT SMITH A","2202201","2022-04-15 04:00","2022","04","15","04:00","-17.0","","-20.2","","77","","","","14","","3","","24.1","","100.16","","","","-19","","NA"
"-111.96","60.02","FORT SMITH A","2202201","2022-04-15 05:00","2022","04","15","05:00","-17.7","","-20.8","","77","","","","0","","1","","24.1","","100.16","","","","-18","","Mainly Clear"
"-111.96","60.02","FORT SMITH A","2202201","2022-04-15 06:00","2022","04","15","06:00","-17.9","","-21.3","","75","","","","17","","5","","24.1","","100.17","","","","-22","","NA"
"-111.96","60.02","FORT SMITH A","2202201","2022-04-15 07:00","2022","04","15","07:00","-15.5","","-20.2","","68","","","","36","","2","","24.1","","100.16","","","","-17","","NA"
"-111.96","60.02","FORT SMITH A","2202201","2022-04-15 08:00","2022","04","15","08:00","-11.4","","-17.3","","62","","","","36","","1","","24.1","","100.16","","","","-12","","Mainly Clear"
"-111.96","60.02","FORT SMITH A","2202201","2022-04-15 09:00","2022","04","15","09:00","-9.3","","-17.3","","53","","","","34","","3","","24.1","","100.15","","","","-11","","NA"
"-111.96","60.02","FORT SMITH A","2202201","2022-04-15 10:00","2022","04","15","10:00","-4.5","","-15.6","","42","","","","36","","4","","24.1","","100.13","","","","-6","","NA"
"-111.96","60.02","FORT SMITH A","2202201","2022-04-15 11:00","2022","04","15","11:00","-1.7","","-17.8","","29","","","","4","","4","","24.1","","100.11","","","","-3","","Mainly Clear"
"-111.96","60.02","FORT SMITH A","2202201","2022-04-15 12:00","2022","04","15","12:00","-0.9","","-16.7","","29","","","","8","","4","","24.1","","100.10","","","","-2","","NA"
"-111.96","60.02","FORT SMITH A","2202201","2022-04-15 13:00","2022","04","15","13:00","-0.4","","-16.2","","30","","","","36","","2","","24.1","","100.07","","","","-1","","NA"
"-111.96","60.02","FORT SMITH A","2202201","2022-04-15 14:00","2022","04","15","14:00","0.1","","-16.9","","27","","","","36","","2","","24.1","","100.04","","","","","","Mainly Clear"
"-111.96","60.02","FORT SMITH A","2202201","2022-04-15 15:00","2022","04","15","15:00","0.8","","-17.4","","24","","","","22","","7","","24.1","","100.03","","","","","","NA"
"-111.96","60.02","FORT SMITH A","2202201","2022-04-15 16:00","2022","04","15","16:00","1.1","","-17.7","","24","","","","20","","5","","24.1","","100.01","","","","","","NA"
"-111.96","60.02","FORT SMITH A","2202201","2022-04-15 17:00","2022","04","15","17:00","1.2","","-17.4","","24","","","","14","","8","","24.1","","99.97","","","","","","Mainly Clear"
"-111.96","60.02","FORT SMITH A","2202201","2022-04-15 18:00","2022","04","15","18:00","0.4","","-16.9","","26","","","","35","","13","","24.1","","99.97","","","","","","NA"
"-111.96","60.02","FORT SMITH A","2202201","2022-04-15 19:00","2022","04","15","19:00","-0.6","","-17.4","","27","","","","36","","10","","24.1","","99.97","","","","-4","","NA"
"-111.96","60.02","FORT SMITH A","2202201","2022-04-15 20:00","2022","04","15","20:00","-4.0","","-16.2","","38","","","","5","","4","","24.1","","99.99","","","","-6","","Clear"
"-111.96","60.02","FORT SMITH A","2202201","2022-04-15 21:00","2022","04","15","21:00","-5.4","","-16.8","","41","","","","3","","5","","24.1","","100.02","","","","-8","","NA"
"-111.96","60.02","FORT SMITH A","2202201","2022-04-15 22:00","2022","04","15","22:00","-5.5","","-16.4","","42","","","","10","","4","","24.1","","100.03","","","","-7","","NA"
"-111.96","60.02","FORT SMITH A","2202201","2022-04-15 23:00","2022","04","15","23:00","-6.0","","-15.6","","47","","","","13","","6","","24.1","","100.05","","","","-9","","Mainly Clear"
"-111.96","60.02","FORT SMITH A","2202201","2022-04-16 00:00","2022","04","16","00:00","-7.6","","-14.9","","56","","","","14","","5","","24.1","","100.06","","","","-10","","NA"
"-111.96","60.02","FORT SMITH A","2202201","2022-04-16 01:00","2022","04","16","01:00","-10.8","","-15.8","","67","","","","12","","4","","24.1","","100.07","","","","-13","","NA"
"-111.96","60.02","FORT SMITH A","2202201","2022-04-16 02:00","2022","04","16","02:00","-10.9","","-16.0","","66","","","","2","","3","","24.1","","100.08","","","","-13","","Mainly Clear"
"-111.96","60.02","FORT SMITH A","2202201","2022-04-16 03:00","2022","04","16","03:00","-11.6","","-16.1","","70","","","","36","","1","","24.1","","100.10","","","","-12","","NA"
"-111.96","60.02","FORT SMITH A","2202201","2022-04-16 04:00","2022","04","16","04:00","-12.0","","-16.2","","71","","","","36","","1","","24.1","","100.12","","","","-13","","NA"
"-111.96","60.02","FORT SMITH A","2202201","2022-04-16 05:00","2022","04","16","05:00","-13.8","","-18.0","","71","","","","36","","1","","24.1","","100.12","","","","-14","","Mostly Cloudy"
"-111.96","60.02","FORT SMITH A","2202201","2022-04-16 06:00","2022","04","16","06:00","-12.3","","-15.0","","80","","","","2","","4","","24.1","","100.13","","","","-15","","NA"
"-111.96","60.02","FORT SMITH A","2202201","2022-04-16 07:00","2022","04","16","07:00","-11.6","","-17.3","","63","","","","2","","9","","24.1","","100.16","","","","-17","","NA"
"-111.96","60.02","FORT SMITH A","2202201","2022-04-16 08:00","2022","04","16","08:00","-10.3","","-16.7","","60","","","","3","","5","","24.1","","100.16","","","","-13","","Mostly Cloudy"
"-111.96","60.02","FORT SMITH A","2202201","2022-04-16 09:00","2022","04","16","09:00","-6.7","","-15.4","","50","","","","36","","4","","24.1","","100.15","","","","-9","","NA"
"-111.96","60.02","FORT SMITH A","2202201","2022-04-16 10:00","2022","04","16","10:00","-4.7","","-14.7","","46","","","","4","","10","","24.1","","100.17","","","","-9","","NA"
"-111.96","60.02","FORT SMITH A","2202201","2022-04-16 11:00","2022","04","16","11:00","-2.8","","-14.0","","42","","","","36","","9","","24.1","","100.14","","","","-6","","Mainly Clear"
"-111.96","60.02","FORT SMITH A","2202201","2022-04-16 12:00","2022","04","16","12:00","-1.7","","-13.0","","42","","","","3","","13","","24.1","","100.13","","","","-6","","NA"
"-111.96","60.02","FORT SMITH A","2202201","2022-04-16 13:00","2022","04","16","13:00","-1.2","","-13.0","","41","","","","3","","11","","24.1","","100.12","","","","-5","","NA"
"-111.96","60.02","FORT SMITH A","2202201","2022-04-16 14:00","2022","04","16","14:00","-1.1","","-12.3","","43","","","","1","","16","","24.1","","100.09","","","","-6","","Mainly Clear"
"-111.96","60.02","FORT SMITH A","2202201","2022-04-16 15:00","2022","04","16","15:00","-1.4","","-12.8","","42","","","","36","","15","","24.1","","100.09","","","","-6","","NA"
"-111.96","60.02","FORT SMITH A","2202201","2022-04-16 16:00","2022","04","16","16:00","-1.4","","-13.3","","40","","","","3","","19","","24.1","","100.09","","","","-7","","NA"
"-111.96","60.02","FORT SMITH A","2202201","2022-04-16 17:00","2022","04","16","17:00","-2.0","","-14.1","","39","","","","2","","14","","24.1","","100.09","","","","-7","","Clear"
"-111.96","60.02","FORT SMITH A","2202201","2022-04-16 18:00","2022","04","16","18:00","-3.0","","-15.4","","38","","","","1","","19","","24.1","","100.10","","","","-9","","NA"
"-111.96","60.02","FORT SMITH A","2202201","2022-04-16 19:00","2022","04","16","19:00","-4.1","","-17.2","","36","","","","4","","18","","24.1","","100.12","","","","-10","","NA"
"-111.96","60.02","FORT SMITH A","2202201","2022-04-16 20:00","2022","04","16","20:00","-5.5","","-17.6","","38","","","","4","","15","","24.1","","100.17","","","","-11","","Mainly Clear"
"-111.96","60.02","FORT SMITH A","2202201","2022-04-16 21:00","2022","04","16","21:00","-6.6","","-17.2","","43","","","","1","","10","","24.1","","100.22","","","","-11","","NA"
"-111.96","60.02","FORT SMITH A","2202201","2022-04-16 22:00","2022","04","16","22:00","-7.2","","-17.2","","45","","","","1","","10","","24.1","","100.25","","","","-12","","NA"
"-111.96","60.02","FORT SMITH A","2202201","2022-04-16 23:00","2022","04","16","23:00","-8.0","","-16.9","","50","","","","3","","11","","24.1","","100.26","","","","-13","","Mostly Cloudy"
"-111.96","60.02","FORT SMITH A","2202201","2022-04-17 00:00","2022","04","17","00:00","-8.0","","-17.6","","46","","","","36","","12","","24.1","","100.29","","","","-13","","NA"
"-111.96","60.02","FORT SMITH A","2202201","2022-04-17 01:00","2022","04","17","01:00","-8.7","","-17.0","","51","","","","34","","9","","24.1","","100.30","","","","-13","","NA"
"-111.96","60.02","FORT SMITH A","2202201","2022-04-17 02:00","2022","04","17","02:00","-9.8","","-16.9","","56","","","","35","","9","","24.1","","100.32","","","","-15","","Mostly Cloudy"
"-111.96","60.02","FORT SMITH A","2202201","2022-04-17 03:00","2022","04","17","03:00","-10.9","","-17.4","","59","","","","35","","9","","24.1","","100.35","","","","-16","","NA"
"-111.96","60.02","FORT SMITH A","2202201","2022-04-17 04:00","2022","04","17","04:00","-12.0","","-18.0","","61","","","","34","","10","","24.1","","100.36","","","","-18","","Snow"
"-111.96","60.02","FORT SMITH A","2202201","2022-04-17 05:00","2022","04","17","05:00","-13.2","","-18.8","","63","","","","33","","10","","24.1","","100.40","","","","-19","","Mostly Cloudy"
"-111.96","60.02","FORT SMITH A","2202201","2022-04-17 06:00","2022","04","17","06:00","-13.8","","-19.2","","65","","","","34","","9","","24.1","","100.42","","","","-19","","NA"
"-111.96","60.02","FORT SMITH A","2202201","2022-04-17 07:00","2022","04","17","07:00","-13.7","","-18.6","","67","","","","34","","8","","4.8","","100.44","","","","-19","","Snow"
"-111.96","60.02","FORT SMITH A","2202201","2022-04-17 08:00","2022","04","17","08:00","-12.9","","-17.1","","71","","","","32","","8","","24.1","","100.45","","","","-18","","Snow"
"-111.96","60.02","FORT SMITH A","2202201","2022-04-17 09:00","2022","04","17","09:00"
"-111.96","60.02","FORT SMITH A","2202201","2022-04-17 10:00","2022","04","17","10:00","-10.5","","-17.7","","56","","","","34","","12","","24.1","","100.49","","","","-17","","Snow"
"-111.96","60.02","FORT SMITH A","2202201","2022-04-17 11:00","2022","04","17","11:00","-10.4","","-16.5","","61","","","","34","","17","","6.4","","100.52","","","","-18","","Snow"
"-111.96","60.02","FORT SMITH A","2202201","2022-04-17 12:00","2022","04","17","12:00","-9.8","","-15.7","","62","","","","34","","14","","12.9","","100.52","","","","-16","","Snow"
"-111.96","60.02","FORT SMITH A","2202201","2022-04-17 13:00","2022","04","17","13:00","-8.6","","-15.2","","59","","","","34","","17","","16.1","","100.50","","","","-15","","Snow"
"-111.96","60.02","FORT SMITH A","2202201","2022-04-17 14:00","2022","04","17","14:00","-9.2","","-14.3","","66","","","","35","","19","","12.9","","100.50","","","","-17","","Snow"
"-111.96","60.02","FORT SMITH A","2202201","2022-04-17 15:00","2022","04","17","15:00","-8.4","","-17.1","","50","","","","33","","12","","24.1","","100.49","","","","-14","","Snow"
"-111.96","60.02","FORT SMITH A","2202201","2022-04-17 16:00","2022","04","17","16:00","-8.1","","-18.2","","45","","","","34","","13","","24.1","","100.48","","","","-14","","Snow"
"-111.96","60.02","FORT SMITH A","2202201","2022-04-17 17:00","2022","04","17","17:00","-7.5","","-20.2","","36","","","","33","","13","","24.1","","100.46","","","","-13","","Snow"
"-111.96","60.02","FORT SMITH A","2202201","2022-04-17 18:00","2022","04","17","18:00","-7.6","","-19.7","","38","","","","34","","13","","24.1","","100.43","","","","-13","","NA"
"-111.96","60.02","FORT SMITH A","2202201","2022-04-17 19:00","2022","04","17","19:00","-7.9","","-19.2","","40","","","","35","","11","","24.1","","100.44","","","","-13","","NA"
"-111.96","60.02","FORT SMITH A","2202201","2022-04-17 20:00","2022","04","17","20:00","-9.0","","-19.5","","43","","","","33","","5","","24.1","","100.45","","","","-12","","Mainly Clear"
"-111.96","60.02","FORT SMITH A","2202201","2022-04-17 21:00","2022","04","17","21:00","-12.6","","-19.8","","56","","","","36","","2","","24.1","","100.47","","","","-14","","NA"
"-111.96","60.02","FORT SMITH A","2202201","2022-04-17 22:00","2022","04","17","22:00","-11.4","","-19.2","","53","","","","32","","9","","24.1","","100.50","","","","-17","","NA"
"-111.96","60.02","FORT SMITH A","2202201","2022-04-17 23:00","2022","04","17","23:00","-12.7","","-19.5","","57","","","","32","","8","","24.1","","100.51","","","","-18","","Clear"
"-111.96","60.02","FORT SMITH A","2202201","2022-04-18 00:00","2022","04","18","00:00","-13.4","","-19.7","","60","","","","31","","8","","24.1","","100.51","","","","-18","","NA"
"-111.96","60.02","FORT SMITH A","2202201","2022-04-18 01:00","2022","04","18","01:00","-17.1","","-21.4","","70","","","","31","","5","","24.1","","100.50","","","","-21","","NA"
"-111.96","60.02","FORT SMITH A","2202201","2022-04-18 02:00","2022","04","18","02:00","-17.3","","-21.2","","73","","","","16","","3","","24.1","","100.49","","","","-20","","Clear"
"-111.96","60.02","FORT SMITH A","2202201","2022-04-18 03:00","2022","04","18","03:00","-19.0","","-23.0","","71","","","","36","","3","","24.1","","100.47","","","","-21","","NA"
"-111.96","60.02","FORT SMITH A","2202201","2022-04-18 04:00","2022","04","18","04:00","-19.7","","-23.2","","74","","","","16","","3","","24.1","","100.47","","","","-22","","NA"
"-111.96","60.02","FORT SMITH A","2202201","2022-04-18 05:00","2022","04","18","05:00","-18.6","","-21.9","","75","","","","19","","4","","24.1","","100.44","","","","-22","","Clear"
"-111.96","60.02","FORT SMITH A","2202201","2022-04-18 06:00","2022","04","18","06:00","-18.9","","-22.8","","72","","","","20","","5","","24.1","","100.42","","","","-23","","NA"
"-111.96","60.02","FORT SMITH A","2202201","2022-04-18 07:00","2022","04","18","07:00","-16.1","","-21.6","","63","","","","21","","5","","24.1","","100.40","","","","-20","","NA"
"-111.96","60.02","FORT SMITH A","2202201","2022-04-18 08:00","2022","04","18","08:00","-12.6","","-20.4","","53","","","","36","","2","","24.1","","100.37","","","","-14","","Clear"
"-111.96","60.02","FORT SMITH A","2202201","2022-04-18 09:00","2022","04","18","09:00","-9.1","","-18.7","","46","","","","29","","16","","24.1","","100.33","","","","-16","","NA"
"-111.96","60.02","FORT SMITH A","2202201","2022-04-18 10:00","2022","04","18","10:00","-7.3","","-17.9","","43","","","","29","","14","","24.1","","100.29","","","","-13","","NA"
"-111.96","60.02","FORT SMITH A","2202201","2022-04-18 11:00","2022","04","18","11:00","-6.0","","-18.8","","36","","","","29","","13","","24.1","","100.22","","","","-11","","Clear"
"-111.96","60.02","FORT SMITH A","2202201","2022-04-18 12:00","2022","04","18","12:00","-4.8","","-18.2","","35","","","","29","","14","","24.1","","100.16","","","","-10","","NA"
"-111.96","60.02","FORT SMITH A","2202201","2022-04-18 13:00","2022","04","18","13:00","-4.5","","-18.8","","32","","","","31","","14","","24.1","","100.10","","","","-10","","NA"
"-111.96","60.02","FORT SMITH A","2202201","2022-04-18 14:00","2022","04","18","14:00","-3.6","","-16.9","","35","","","","29","","7","","24.1","","100.03","","","","-7","","Clear"
"-111.96","60.02","FORT SMITH A","2202201","2022-04-18 15:00","2022","04","18","15:00","-3.3","","-17.4","","33","","","","29","","13","","24.1","","99.97","","","","-8","","NA"
"-111.96","60.02","FORT SMITH A","2202201","2022-04-18 16:00","2022","04","18","16:00","-3.5","","-16.6","","36","","","","29","","13","","24.1","","99.92","","","","-8","","NA"
"-111.96","60.02","FORT SMITH A","2202201","2022-04-18 17:00","2022","04","18","17:00","-3.3","","-16.7","","35","","","","30","","10","","24.1","","99.86","","","","-7","","Clear"
"-111.96","60.02","FORT SMITH A","2202201","2022-04-18 18:00","2022","04","18","18:00","-3.7","","-16.6","","36","","","","27","","8","","24.1","","99.80","","","","-7","","NA"
"-111.96","60.02","FORT SMITH A","2202201","2022-04-18 19:00","2022","04","18","19:00","-3.2","","-18.4","","30","","","","36","","1","","24.1","","99.74","","","","-4","","NA"
"-111.96","60.02","FORT SMITH A","2202201","2022-04-18 20:00","2022","04","18","20:00","-7.2","","-17.8","","43","","","","6","","4","","24.1","","99.73","","","","-9","","Clear"
"-111.96","60.02","FORT SMITH A","2202201","2022-04-18 21:00","2022","04","18","21:00","-8.6","","-16.5","","53","","","","36","","1","","24.1","","99.70","","","","-9","","NA"
"-111.96","60.02","FORT SMITH A","2202201","2022-04-18 22:00","2022","04","18","22:00","-10.4","","-16.7","","60","","","","36","","1","","24.1","","99.67","","","","-11","","NA"
"-111.96","60.02","FORT SMITH A","2202201","2022-04-18 23:00","2022","04","18","23:00","-12.3","","-17.5","","66","","","","1","","7","","24.1","","99.66","","","","-17","","Clear"
"-111.96","60.02","FORT SMITH A","2202201","2022-04-19 00:00","2022","04","19","00:00","-12.6","","-17.5","","67","","","","18","","3","","24.1","","99.63","","","","-15","","NA"
"-111.96","60.02","FORT SMITH A","2202201","2022-04-19 01:00","2022","04","19","01:00","-13.6","","-17.8","","71","","","","36","","2","","24.1","","99.60","","","","-15","","NA"
"-111.96","60.02","FORT SMITH A","2202201","2022-04-19 02:00","2022","04","19","02:00","-14.2","","-18.2","","73","","","","36","","3","","24.1","","99.56","","","","-16","","Mainly Clear"
"-111.96","60.02","FORT SMITH A","2202201","2022-04-19 03:00","2022","04","19","03:00","-15.2","","-18.7","","75","","","","36","","2","","24.1","","99.53","","","","-17","","NA"
"-111.96","60.02","FORT SMITH A","2202201","2022-04-19 04:00","2022","04","19","04:00","-16.0","","-19.7","","74","","","","36","","1","","24.1","","99.51","","","","-17","","NA"
"-111.96","60.02","FORT SMITH A","2202201","2022-04-19 05:00","2022","04","19","05:00","-16.2","","-19.6","","76","","","","14","","4","","24.1","","99.49","","","","-19","","Clear"
"-111.96","60.02","FORT SMITH A","2202201","2022-04-19 06:00","2022","04","19","06:00","-16.3","","-19.9","","74","","","","36","","3","","24.1","","99.47","","","","-19","","NA"
"-111.96","60.02","FORT SMITH A","2202201","2022-04-19 07:00","2022","04","19","07:00","-14.2","","-17.8","","75","","","","36","","1","","24.1","","99.43","","","","-15","","NA"
"-111.96","60.02","FORT SMITH A","2202201","2022-04-19 08:00","2022","04","19","08:00","-11.5","","-18.3","","57","","","","36","","3","","24.1","","99.42","","","","-13","","Clear"
"-111.96","60.02","FORT SMITH A","2202201","2022-04-19 09:00","2022","04","19","09:00","-8.1","","-15.0","","58","","","","36","","4","","24.1","","99.41","","","","-10","","NA"
"-111.96","60.02","FORT SMITH A","2202201","2022-04-19 10:00","2022","04","19","10:00","-5.0","","-15.2","","45","","","","1","","3","","24.1","","99.39","","","","-6","","NA"
"-111.96","60.02","FORT SMITH A","2202201","2022-04-19 11:00","2022","04","19","11:00","-3.1","","-17.1","","33","","","","17","","8","","24.1","","99.38","","","","-6","","Clear"
"-111.96","60.02","FORT SMITH A","2202201","2022-04-19 12:00","2022","04","19","12:00","-1.9","","-16.3","","33","","","","17","","13","","24.1","","99.33","","","","-6","","NA"
"-111.96","60.02","FORT SMITH A","2202201","2022-04-19 13:00","2022","04","19","13:00","-1.4","","-17.3","","29","","","","27","","4","","24.1","","99.30","","","","-3","","NA"
"-111.96","60.02","FORT SMITH A","2202201","2022-04-19 14:00","2022","04","19","14:00","-0.4","","-15.1","","32","","","","35","","5","","24.1","","99.25","","","","-2","","Clear"
"-111.96","60.02","FORT SMITH A","2202201","2022-04-19 15:00","2022","04","19","15:00","-0.1","","-16.6","","28","","","","34","","4","","24.1","","99.23","","","","-1","","NA"
"-111.96","60.02","FORT SMITH A","2202201","2022-04-19 16:00","2022","04","19","16:00","0.2","","-16.1","","28","","","","1","","3","","24.1","","99.21","","","","","","NA"
"-111.96","60.02","FORT SMITH A","2202201","2022-04-19 17:00","2022","04","19","17:00","0.5","","-17.7","","24","","","","36","","2","","24.1","","99.19","","","","","","Clear"
"-111.96","60.02","FORT SMITH A","2202201","2022-04-19 18:00","2022","04","19","18:00","-0.5","","-15.2","","32","","","","28","","4","","24.1","","99.16","","","","-2","","NA"
"-111.96","60.02","FORT SMITH A","2202201","2022-04-19 19:00","2022","04","19","19:00","-1.6","","-15.3","","35","","","","1","","12","","24.1","","99.19","","","","-6","","NA"
"-111.96","60.02","FORT SMITH A","2202201","2022-04-19 20:00","2022","04","19","20:00","-2.5","","-16.7","","33","","","","5","","7","","24.1","","99.22","","","","-5","","Clear"
"-111.96","60.02","FORT SMITH A","2202201","2022-04-19 21:00","2022","04","19","21:00","-7.3","","-15.6","","52","","","","3","","4","","24.1","","99.27","","","","-9","","NA"
"-111.96","60.02","FORT SMITH A","2202201","2022-04-19 22:00","2022","04","19","22:00","-7.7","","-14.7","","58","","","","36","","1","","24.1","","99.30","","","","-8","","NA"
"-111.96","60.02","FORT SMITH A","2202201","2022-04-19 23:00","2022","04","19","23:00","-8.5","","-13.9","","65","","","","36","","1","","24.1","","99.32","","","","-9","","Clear"
"-111.96","60.02","FORT SMITH A","2202201","2022-04-20 00:00","2022","04","20","00:00","-9.4","","-14.9","","65","","","","16","","3","","24.1","","99.33","","","","-11","","NA"
"-111.96","60.02","FORT SMITH A","2202201","2022-04-20 01:00","2022","04","20","01:00","-10.9","","-16.7","","63","","","","14","","4","","24.1","","99.33","","","","-13","","NA"
"-111.96","60.02","FORT SMITH A","2202201","2022-04-20 02:00","2022","04","20","02:00","-11.4","","-17.4","","62","","","","36","","2","","24.1","","99.34","","","","-13","","Clear"
"-111.96","60.02","FORT SMITH A","2202201","2022-04-20 03:00","2022","04","20","03:00","-13.0","","-16.2","","77","","","","36","","2","","24.1","","99.33","","","","-14","","NA"
"-111.96","60.02","FORT SMITH A","2202201","2022-04-20 04:00","2022","04","20","04:00","-13.3","","-17.2","","73","","","","0","","1","","24.1","","99.34","","","","-14","","NA"
"-111.96","60.02","FORT SMITH A","2202201","2022-04-20 05:00","2022","04","20","05:00","-13.7","","-18.1","","70","","","","36","","2","","24.1","","99.35","","","","-15","","Clear"
"-111.96","60.02","FORT SMITH A","2202201","2022-04-20 06:00","2022","04","20","06:00","-14.0","","-18.8","","67","","","","36","","3","","24.1","","99.36","","","","-16","","NA"
"-111.96","60.02","FORT SMITH A","2202201","2022-04-20 07:00","2022","04","20","07:00","-11.1","","-17.6","","59","","","","36","","3","","24.1","","99.36","","","","-13","","NA"
"-111.96","60.02","FORT SMITH A","2202201","2022-04-20 08:00","2022","04","20","08:00","-6.1","","-16.5","","44","","","","22","","3","","24.1","","99.37","","","","-8","","Clear"
"-111.96","60.02","FORT SMITH A","2202201","2022-04-20 09:00","2022","04","20","09:00","-3.2","","-16.4","","36","","","","29","","10","","24.1","","99.37","","","","-7","","NA"
"-111.96","60.02","FORT SMITH A","2202201","2022-04-20 10:00","2022","04","20","10:00","-1.3","","-16.3","","31","","","","30","","7","","24.1","","99.36","","","","-4","","NA"
"-111.96","60.02","FORT SMITH A","2202201","2022-04-20 11:00","2022","04","20","11:00","0.1","","-16.0","","29","","","","36","","2","","24.1","","99.32","","","","","","Clear"
"-111.96","60.02","FORT SMITH A","2202201","2022-04-20 12:00","2022","04","20","12:00","1.0","","-15.9","","27","","","","29","","4","","24.1","","99.30","","","","","","NA"
"-111.96","60.02","FORT SMITH A","2202201","2022-04-20 13:00","2022","04","20","13:00","1.9","","-16.6","","24","","","","21","","8","","24.1","","99.27","","","","","","NA"
"-111.96","60.02","FORT SMITH A","2202201","2022-04-20 14:00","2022","04","20","14:00","2.4","","-16.7","","23","","","","32","","7","","24.1","","99.23","","","","","","Clear"
"-111.96","60.02","FORT SMITH A","2202201","2022-04-20 15:00","2022","04","20","15:00","2.6","","-16.2","","24","","","","31","","13","","24.1","","99.22","","","","","","NA"
"-111.96","60.02","FORT SMITH A","2202201","2022-04-20 16:00","2022","04","20","16:00","2.9","","-16.2","","23","","","","26","","3","","24.1","","99.19","","","","","","NA"
"-111.96","60.02","FORT SMITH A","2202201","2022-04-20 17:00","2022","04","20","17:00","3.1","","-13.8","","28","","","","23","","5","","24.1","","99.16","","","","","","Clear"
"-111.96","60.02","FORT SMITH A","2202201","2022-04-20 18:00","2022","04","20","18:00","2.9","","-15.2","","25","","","","22","","9","","24.1","","99.13","","","","","","NA"
"-111.96","60.02","FORT SMITH A","2202201","2022-04-20 19:00","2022","04","20","19:00","1.0","","-14.8","","30","","","","24","","4","","24.1","","99.12","","","","","","NA"
"-111.96","60.02","FORT SMITH A","2202201","2022-04-20 20:00","2022","04","20","20:00","-2.5","","-10.1","","56","","","","36","","1","","24.1","","99.13","","","","-3","","Clear"
"-111.96","60.02","FORT SMITH A","2202201","2022-04-20 21:00","2022","04","20","21:00","-4.5","","-11.2","","60","","","","36","","2","","20.9","","99.13","","","","-5","","NA"
"-111.96","60.02","FORT SMITH A","2202201","2022-04-20 22:00","2022","04","20","22:00","-3.0","","-14.9","","40","","","","10","","4","","24.1","","99.13","","","","-5","","NA"
"-111.96","60.02","FORT SMITH A","2202201","2022-04-20 23:00","2022","04","20","23:00","-5.8","","-13.2","","56","","","","11","","5","","24.1","","99.11","","","","-8","","Clear"
"-111.96","60.02","FORT SMITH A","2202201","2022-04-21 00:00","2022","04","21","00:00","-5.1","","-14.4","","48","","","","15","","9","","24.1","","99.11","","","","-9","","NA"
"-111.96","60.02","FORT SMITH A","2202201","2022-04-21 01:00","2022","04","21","01:00","-6.0","","-14.8","","50","","","","17","","8","","24.1","","99.13","","","","-10","","NA"
"-111.96","60.02","FORT SMITH A","2202201","2022-04-21 02:00","2022","04","21","02:00","-8.0","","-15.0","","58","","","","15","","6","","24.1","","99.12","","","","-11","","Clear"
"-111.96","60.02","FORT SMITH A","2202201","2022-04-21 03:00","2022","04","21","03:00","-9.9","","-16.1","","61","","","","36","","2","","24.1","","99.09","","","","-11","","NA"
"-111.96","60.02","FORT SMITH A","2202201","2022-04-21 04:00","2022","04","21","04:00","-8.1","","-16.0","","53","","","","15","","11","","24.1","","99.07","","","","-13","","NA"
"-111.96","60.02","FORT SMITH A","2202201","2022-04-21 05:00","2022","04","21","05:00","-8.3","","-16.4","","53","","","","15","","11","","24.1","","99.07","","","","-14","","Clear"
"-111.96","60.02","FORT SMITH A","2202201","2022-04-21 06:00","2022","04","21","06:00","-8.1","","-16.8","","50","","","","14","","9","","24.1","","99.05","","","","-13","","NA"
"-111.96","60.02","FORT SMITH A","2202201","2022-04-21 07:00","2022","04","21","07:00","-5.7","","-16.4","","43","","","","14","","8","","24.1","","99.00","","","","-9","","NA"
"-111.96","60.02","FORT SMITH A","2202201","2022-04-21 08:00","2022","04","21","08:00","-2.1","","-14.6","","38","","","","15","","11","","24.1","","98.97","","","","-6","","Mainly Clear"
"-111.96","60.02","FORT SMITH A","2202201","2022-04-21 09:00","2022","04","21","09:00","0.8","","-14.0","","32","","","","15","","17","","24.1","","98.96","","","","","","NA"
"-111.96","60.02","FORT SMITH A","2202201","2022-04-21 10:00","2022","04","21","10:00","2.3","","-14.4","","28","","","","17","","16","","24.1","","98.94","","","","","","NA"
"-111.96","60.02","FORT SMITH A","2202201","2022-04-21 11:00","2022","04","21","11:00","3.8","","-12.3","","30","","","","17","","11","","24.1","","98.91","","","","","","Mainly Clear"
"-111.96","60.02","FORT SMITH A","2202201","2022-04-21 12:00","2022","04","21","12:00","4.9","","-13.2","","26","","","","16","","10","","24.1","","98.89","","","","","","NA"
"-111.96","60.02","FORT SMITH A","2202201","2022-04-21 13:00","2022","04","21","13:00","5.5","","-14.4","","22","","","","20","","11","","24.1","","98.87","","","","","","NA"
"-111.96","60.02","FORT SMITH A","2202201","2022-04-21 14:00","2022","04","21","14:00","6.7","","-14.9","","20","","","","22","","6","","24.1","","98.84","","","","","","Mainly Clear"
"-111.96","60.02","FORT SMITH A","2202201","2022-04-21 15:00","2022","04","21","15:00","7.2","","-11.4","","25","","","","13","","7","","24.1","","98.80","","","","","","NA"
"-111.96","60.02","FORT SMITH A","2202201","2022-04-21 16:00","2022","04","21","16:00","8.0","","-10.7","","25","","","","15","","7","","24.1","","98.76","","","","","","NA"
"-111.96","60.02","FORT SMITH A","2202201","2022-04-21 17:00","2022","04","21","17:00","8.0","","-10.5","","26","","","","16","","8","","24.1","","98.74","","","","","","Mainly Clear"
"-111.96","60.02","FORT SMITH A","2202201","2022-04-21 18:00","2022","04","21","18:00","7.8","","-8.0","","32","","","","15","","8","","24.1","","98.73","","","","","","NA"
"-111.96","60.02","FORT SMITH A","2202201","2022-04-21 19:00","2022","04","21","19:00","6.6","","-6.6","","38","","","","17","","9","","24.1","","98.71","","","","","","NA"
"-111.96","60.02","FORT SMITH A","2202201","2022-04-21 20:00","2022","04","21","20:00","5.9","","-7.7","","37","","","","13","","7","","24.1","","98.73","","","","","","Mostly Cloudy"
"-111.96","60.02","FORT SMITH A","2202201","2022-04-21 21:00","2022","04","21","21:00","4.0","","-8.1","","41","","","","9","","4","","24.1","","98.73","","","","","","NA"
"-111.96","60.02","FORT SMITH A","2202201","2022-04-21 22:00","2022","04","21","22:00","3.0","","-8.1","","44","","","","6","","5","","24.1","","98.71","","","","","","NA"
"-111.96","60.02","FORT SMITH A","2202201","2022-04-21 23:00","2022","04","21","23:00","1.9","","-7.1","","51","","","","10","","4","","24.1","","98.72","","","","","","Mostly Cloudy"
"-111.96","60.02","FORT SMITH A","2202201","2022-04-22 00:00","2022","04","22","00:00","1.3","","-7.2","","53","","","","11","","4","","24.1","","98.70","","","","","","NA"
"-111.96","60.02","FORT SMITH A","2202201","2022-04-22 01:00","2022","04","22","01:00","1.4","","-7.6","","51","","","","12","","5","","24.1","","98.69","","","","","","NA"
"-111.96","60.02","FORT SMITH A","2202201","2022-04-22 02:00","2022","04","22","02:00","-0.9","","-7.6","","61","","","","8","","3","","24.1","","98.69","","","","-2","","Mainly Clear"
"-111.96","60.02","FORT SMITH A","2202201","2022-04-22 03:00","2022","04","22","03:00","-0.6","","-7.0","","63","","","","11","","4","","24.1","","98.68","","","","-2","","NA"
"-111.96","60.02","FORT SMITH A","2202201","2022-04-22 04:00","2022","04","22","04:00","-0.2","","-6.9","","61","","","","14","","4","","24.1","","98.68","","","","-1","","NA"
"-111.96","60.02","FORT SMITH A","2202201","2022-04-22 05:00","2022","04","22","05:00","-0.3","","-6.4","","63","","","","16","","4","","24.1","","98.70","","","","-2","","Mostly Cloudy"
"-111.96","60.02","FORT SMITH A","2202201","2022-04-22 06:00","2022","04","22","06:00","0.0","","-6.5","","61","","","","11","","4","","24.1","","98.68","","","","-1","","NA"
"-111.96","60.02","FORT SMITH A","2202201","2022-04-22 07:00","2022","04","22","07:00","-0.3","","-5.9","","66","","","","36","","3","","24.1","","98.71","","","","-1","","NA"
"-111.96","60.02","FORT SMITH A","2202201","2022-04-22 08:00","2022","04","22","08:00","1.8","","-6.0","","57","","","","36","","2","","24.1","","98.72","","","","","","Mostly Cloudy"
"-111.96","60.02","FORT SMITH A","2202201","2022-04-22 09:00","2022","04","22","09:00","3.9","","-5.9","","49","","","","36","","1","","24.1","","98.76","","","","","","NA"
"-111.96","60.02","FORT SMITH A","2202201","2022-04-22 10:00","2022","04","22","10:00","5.5","","-5.8","","44","","","","17","","3","","24.1","","98.81","","","","","","NA"
"-111.96","60.02","FORT SMITH A","2202201","2022-04-22 11:00","2022","04","22","11:00","6.9","","-5.0","","42","","","","27","","7","","24.1","","98.84","","","","","","Mostly Cloudy"
"-111.96","60.02","FORT SMITH A","2202201","2022-04-22 12:00","2022","04","22","12:00","8.4","","-5.2","","38","","","","36","","3","","24.1","","98.85","","","","","","NA"
"-111.96","60.02","FORT SMITH A","2202201","2022-04-22 13:00","2022","04","22","13:00","9.5","","-5.5","","34","","","","24","","3","","24.1","","98.85","","","","","","NA"
"-111.96","60.02","FORT SMITH A","2202201","2022-04-22 14:00","2022","04","22","14:00","9.4","","-5.0","","36","","","","29","","5","","24.1","","98.90","","","","","","Mostly Cloudy"
"-111.96","60.02","FORT SMITH A","2202201","2022-04-22 15:00","2022","04","22","15:00","8.4","","-3.5","","43","","","","29","","14","","24.1","","98.96","","","","","","NA"
"-111.96","60.02","FORT SMITH A","2202201","2022-04-22 16:00","2022","04","22","16:00","9.4","","-4.5","","37","","","","36","","9","","24.1","","98.99","","","","","","NA"
"-111.96","60.02","FORT SMITH A","2202201","2022-04-22 17:00","2022","04","22","17:00","9.0","","-5.0","","37","","","","2","","8","","24.1","","99.04","","","","","","Mostly Cloudy"
"-111.96","60.02","FORT SMITH A","2202201","2022-04-22 18:00","2022","04","22","18:00","8.9","","-5.1","","37","","","","36","","7","","24.1","","99.10","","","","","","NA"
"-111.96","60.02","FORT SMITH A","2202201","2022-04-22 19:00","2022","04","22","19:00","8.0","","-4.7","","40","","","","36","","3","","24.1","","99.15","","","","","","NA"
"-111.96","60.02","FORT SMITH A","2202201","2022-04-22 20:00","2022","04","22","20:00","6.2","","-4.5","","46","","","","5","","7","","24.1","","99.21","","","","","","Mostly Cloudy"
"-111.96","60.02","FORT SMITH A","2202201","2022-04-22 21:00","2022","04","22","21:00","5.6","","-2.6","","55","","","","6","","8","","24.1","","99.28","","","","","","NA"
"-111.96","60.02","FORT SMITH A","2202201","2022-04-22 22:00","2022","04","22","22:00","5.1","","-2.2","","59","","","","6","","8","","24.1","","99.35","","","","","","NA"
"-111.96","60.02","FORT SMITH A","2202201","2022-04-22 23:00","2022","04","22","23:00","4.8","","-2.1","","61","","","","6","","10","","24.1","","99.39","","","","","","Cloudy"
"-111.96","60.02","FORT SMITH A","2202201","2022-04-23 00:00","2022","04","23","00:00","3.9","","-2.0","","65","","","","5","","9","","24.1","","99.45","","","","","","NA"
"-111.96","60.02","FORT SMITH A","2202201","2022-04-23 01:00","2022","04","23","01:00","3.4","","-1.9","","68","","","","6","","5","","24.1","","99.47","","","","","","NA"
"-111.96","60.02","FORT SMITH A","2202201","2022-04-23 02:00","2022","04","23","02:00","2.6","","-1.9","","72","","","","5","","8","","24.1","","99.50","","","","","","Mainly Clear"
"-111.96","60.02","FORT SMITH A","2202201","2022-04-23 03:00","2022","04","23","03:00","-0.2","","-3.1","","81","","","","36","","2","","24.1","","99.59","","","","-1","","NA"
"-111.96","60.02","FORT SMITH A","2202201","2022-04-23 04:00","2022","04","23","04:00","0.8","","-2.1","","81","","","","5","","9","","24.1","","99.67","","","","","","NA"
"-111.96","60.02","FORT SMITH A","2202201","2022-04-23 05:00","2022","04","23","05:00","-1.3","","-3.3","","87","","","","3","","12","","24.1","","99.76","","","","-5","","Mostly Cloudy"
"-111.96","60.02","FORT SMITH A","2202201","2022-04-23 06:00","2022","04","23","06:00","-0.5","","-2.6","","86","","","","3","","10","","24.1","","99.85","","","","-4","","NA"
"-111.96","60.02","FORT SMITH A","2202201","2022-04-23 07:00","2022","04","23","07:00","0.6","","-2.5","","80","","","","8","","5","","24.1","","99.91","","","","","","NA"
"-111.96","60.02","FORT SMITH A","2202201","2022-04-23 08:00","2022","04","23","08:00","1.4","","-3.0","","73","","","","8","","9","","24.1","","99.98","","","","","","Mostly Cloudy"
"-111.96","60.02","FORT SMITH A","2202201","2022-04-23 09:00","2022","04","23","09:00","2.3","","-2.9","","69","","","","8","","11","","24.1","","100.02","","","","","","NA"
"-111.96","60.02","FORT SMITH A","2202201","2022-04-23 10:00","2022","04","23","10:00","3.9","","-2.7","","62","","","","7","","11","","24.1","","100.06","","","","","","NA"
"-111.96","60.02","FORT SMITH A","2202201","2022-04-23 11:00","2022","04","23","11:00","4.4","","-3.1","","58","","","","6","","12","","24.1","","100.11","","","","","","Mostly Cloudy"
"-111.96","60.02","FORT SMITH A","2202201","2022-04-23 12:00","2022","04","23","12:00","5.2","","-3.4","","54","","","","5","","12","","24.1","","100.14","","","","","","NA"
"-111.96","60.02","FORT SMITH A","2202201","2022-04-23 13:00","2022","04","23","13:00","5.9","","-4.5","","47","","","","7","","10","","24.1","","100.16","","","","","","NA"
"-111.96","60.02","FORT SMITH A","2202201","2022-04-23 14:00","2022","04","23","14:00","6.5","","-4.9","","44","","","","7","","10","","24.1","","100.18","","","","","","Clear"
"-111.96","60.02","FORT SMITH A","2202201","2022-04-23 15:00","2022","04","23","15:00","6.7","","-5.2","","42","","","","6","","12","","24.1","","100.21","","","","","","NA"
"-111.96","60.02","FORT SMITH A","2202201","2022-04-23 16:00","2022","04","23","16:00","6.8","","-6.1","","39","","","","6","","12","","24.1","","100.24","","","","","","NA"
"-111.96","60.02","FORT SMITH A","2202201","2022-04-23 17:00","2022","04","23","17:00","6.6","","-5.2","","43","","","","6","","14","","24.1","","100.26","","","","","","Clear"
"-111.96","60.02","FORT SMITH A","2202201","2022-04-23 18:00","2022","04","23","18:00","6.2","","-5.7","","42","","","","6","","13","","24.1","","100.31","","","","","","NA"
"-111.96","60.02","FORT SMITH A","2202201","2022-04-23 19:00","2022","04","23","19:00","5.1","","-6.1","","44","","","","5","","12","","24.1","","100.34","","","","","","NA"
"-111.96","60.02","FORT SMITH A","2202201","2022-04-23 20:00","2022","04","23","20:00","3.2","","-5.7","","52","","","","6","","10","","24.1","","100.37","","","","","","Clear"
"-111.96","60.02","FORT SMITH A","2202201","2022-04-23 21:00","2022","04","23","21:00","1.4","","-5.7","","59","","","","7","","7","","24.1","","100.42","","","","","","NA"
"-111.96","60.02","FORT SMITH A","2202201","2022-04-23 22:00","2022","04","23","22:00","0.5","","-5.6","","64","","","","8","","12","","24.1","","100.46","","","","","","NA"
"-111.96","60.02","FORT SMITH A","2202201","2022-04-23 23:00","2022","04","23","23:00","-0.7","","-6.1","","67","","","","9","","11","","24.1","","100.51","","","","-4","","Clear"
"-111.96","60.02","FORT SMITH A","2202201","2022-04-24 00:00","2022","04","24","00:00","-1.9","","-6.4","","71","","","","9","","8","","24.1","","100.53","","","","-5","","NA"
"-111.96","60.02","FORT SMITH A","2202201","2022-04-24 01:00","2022","04","24","01:00","-2.4","","-7.3","","69","","","","11","","7","","24.1","","100.55","","","","-5","","NA"
"-111.96","60.02","FORT SMITH A","2202201","2022-04-24 02:00","2022","04","24","02:00","-3.4","","-7.7","","72","","","","9","","7","","24.1","","100.56","","","","-6","","Clear"
"-111.96","60.02","FORT SMITH A","2202201","2022-04-24 03:00","2022","04","24","03:00","-4.1","","-8.8","","70","","","","11","","7","","24.1","","100.59","","","","-7","","NA"
"-111.96","60.02","FORT SMITH A","2202201","2022-04-24 04:00","2022","04","24","04:00","-5.2","","-9.3","","73","","","","13","","8","","24.1","","100.60","","","","-9","","NA"
"-111.96","60.02","FORT SMITH A","2202201","2022-04-24 05:00","2022","04","24","05:00","-6.2","","-10.6","","72","","","","13","","10","","24.1","","100.59","","","","-11","","Clear"
"-111.96","60.02","FORT SMITH A","2202201","2022-04-24 06:00","2022","04","24","06:00","-6.7","","-11.4","","69","","","","12","","14","","24.1","","100.61","","","","-12","","NA"
"-111.96","60.02","FORT SMITH A","2202201","2022-04-24 07:00","2022","04","24","07:00","-6.8","","-11.3","","71","","","","12","","16","","24.1","","100.62","","","","-13","","NA"
"-111.96","60.02","FORT SMITH A","2202201","2022-04-24 08:00","2022","04","24","08:00","-5.7","","-10.9","","67","","","","10","","9","","24.1","","100.60","","","","-10","","Clear"
"-111.96","60.02","FORT SMITH A","2202201","2022-04-24 09:00","2022","04","24","09:00","-4.8","","-11.1","","62","","","","10","","12","","24.1","","100.60","","","","-10","","NA"
"-111.96","60.02","FORT SMITH A","2202201","2022-04-24 10:00","2022","04","24","10:00","-3.5","","-10.6","","58","","","","12","","10","","24.1","","100.58","","","","-7","","NA"
"-111.96","60.02","FORT SMITH A","2202201","2022-04-24 11:00","2022","04","24","11:00","-2.4","","-10.3","","55","","","","9","","15","","24.1","","100.55","","","","-7","","Clear"
"-111.96","60.02","FORT SMITH A","2202201","2022-04-24 12:00","2022","04","24","12:00","-1.3","","-9.7","","53","","","","11","","13","","24.1","","100.51","","","","-6","","NA"
"-111.96","60.02","FORT SMITH A","2202201","2022-04-24 13:00","2022","04","24","13:00","-0.1","","-8.9","","51","","","","14","","15","","24.1","","100.46","","","","-5","","NA"
"-111.96","60.02","FORT SMITH A","2202201","2022-04-24 14:00","2022","04","24","14:00","0.3","","-8.5","","52","","","","11","","17","","24.1","","100.41","","","","","","Clear"
"-111.96","60.02","FORT SMITH A","2202201","2022-04-24 15:00","2022","04","24","15:00","0.6","","-8.2","","52","","","","11","","14","","24.1","","100.38","","","","","","NA"
"-111.96","60.02","FORT SMITH A","2202201","2022-04-24 16:00","2022","04","24","16:00","0.6","","-7.6","","54","","","","12","","13","","24.1","","100.34","","","","","","NA"
"-111.96","60.02","FORT SMITH A","2202201","2022-04-24 17:00","2022","04","24","17:00","0.4","","-7.8","","54","","","","10","","14","","24.1","","100.30","","","","","","Mainly Clear"
"-111.96","60.02","FORT SMITH A","2202201","2022-04-24 18:00","2022","04","24","18:00","-0.1","","-8.0","","55","","","","12","","13","","24.1","","100.29","","","","-4","","NA"
"-111.96","60.02","FORT SMITH A","2202201","2022-04-24 19:00","2022","04","24","19:00","-1.2","","-8.4","","58","","","","12","","15","","24.1","","100.25","","","","-6","","NA"
"-111.96","60.02","FORT SMITH A","2202201","2022-04-24 20:00","2022","04","24","20:00","-2.4","","-8.9","","61","","","","12","","13","","24.1","","100.24","","","","-7","","Mainly Clear"
"-111.96","60.02","FORT SMITH A","2202201","2022-04-24 21:00","2022","04","24","21:00","-3.2","","-9.7","","61","","","","12","","16","","24.1","","100.22","","","","-9","","NA"
"-111.96","60.02","FORT SMITH A","2202201","2022-04-24 22:00","2022","04","24","22:00","-3.5","","-10.5","","58","","","","12","","13","","24.1","","100.16","","","","-8","","NA"
"-111.96","60.02","FORT SMITH A","2202201","2022-04-24 23:00","2022","04","24","23:00","-3.9","","-10.8","","59","","","","12","","10","","24.1","","100.11","","","","-8","","Clear"
"-111.96","60.02","FORT SMITH A","2202201","2022-04-25 00:00","2022","04","25","00:00","-4.0","","-11.1","","58","","","","12","","13","","24.1","","100.05","","","","-9","","NA"
"-111.96","60.02","FORT SMITH A","2202201","2022-04-25 01:00","2022","04","25","01:00","-4.1","","-10.7","","60","","","","13","","12","","24.1","","100.00","","","","-9","","NA"
"-111.96","60.02","FORT SMITH A","2202201","2022-04-25 02:00","2022","04","25","02:00","-4.0","","-10.1","","63","","","","13","","12","","24.1","","99.98","","","","-9","","Clear"
"-111.96","60.02","FORT SMITH A","2202201","2022-04-25 03:00","2022","04","25","03:00","-4.2","","-10.0","","64","","","","13","","13","","24.1","","99.97","","","","-9","","NA"
"-111.96","60.02","FORT SMITH A","2202201","2022-04-25 04:00","2022","04","25","04:00","-4.5","","-10.1","","65","","","","13","","11","","24.1","","99.93","","","","-9","","NA"
"-111.96","60.02","FORT SMITH A","2202201","2022-04-25 05:00","2022","04","25","05:00","-4.8","","-9.9","","67","","","","13","","10","","24.1","","99.90","","","","-9","","Clear"
"-111.96","60.02","FORT SMITH A","2202201","2022-04-25 06:00","2022","04","25","06:00","-4.0","","-9.5","","65","","","","13","","13","","24.1","","99.82","","","","-9","","NA"
"-111.96","60.02","FORT SMITH A","2202201","2022-04-25 07:00","2022","04","25","07:00","-2.5","","-8.8","","62","","","","14","","17","","24.1","","99.79","","","","-8","","NA"
"-111.96","60.02","FORT SMITH A","2202201","2022-04-25 08:00","2022","04","25","08:00","-0.9","","-8.2","","58","","","","14","","23","","24.1","","99.75","","","","-7","","Clear"
"-111.96","60.02","FORT SMITH A","2202201","2022-04-25 09:00","2022","04","25","09:00","0.8","","-7.5","","54","","","","14","","18","","24.1","","99.71","","","","","","NA"
"-111.96","60.02","FORT SMITH A","2202201","2022-04-25 10:00","2022","04","25","10:00","2.5","","-7.3","","48","","","","13","","11","","24.1","","99.63","","","","","","NA"
"-111.96","60.02","FORT SMITH A","2202201","2022-04-25 11:00","2022","04","25","11:00","3.4","","-7.6","","44","","","","14","","23","","24.1","","99.60","","","","","","Mainly Clear"
"-111.96","60.02","FORT SMITH A","2202201","2022-04-25 12:00","2022","04","25","12:00","4.8","","-6.7","","43","","","","15","","23","","24.1","","99.54","","","","","","NA"
"-111.96","60.02","FORT SMITH A","2202201","2022-04-25 13:00","2022","04","25","13:00","6.2","","-6.8","","39","","","","12","","12","","24.1","","99.49","","","","","","NA"
"-111.96","60.02","FORT SMITH A","2202201","2022-04-25 14:00","2022","04","25","14:00","6.4","","-5.6","","42","","","","14","","25","","24.1","","99.43","","","","","","Clear"
"-111.96","60.02","FORT SMITH A","2202201","2022-04-25 15:00","2022","04","25","15:00","7.3","","-5.2","","41","","","","14","","20","","24.1","","99.38","","","","","","NA"
"-111.96","60.02","FORT SMITH A","2202201","2022-04-25 16:00","2022","04","25","16:00","7.8","","-4.6","","41","","","","14","","17","","24.1","","99.36","","","","","","NA"
"-111.96","60.02","FORT SMITH A","2202201","2022-04-25 17:00","2022","04","25","17:00","8.4","","-4.3","","40","","","","14","","16","","24.1","","99.33","","","","","","Cloudy"
"-111.96","60.02","FORT SMITH A","2202201","2022-04-25 18:00","2022","04","25","18:00","8.6","","-4.4","","40","","","","13","","14","","24.1","","99.29","","","","","","NA"
"-111.96","60.02","FORT SMITH A","2202201","2022-04-25 19:00","2022","04","25","19:00","7.5","","-3.9","","44","","","","11","","9","","24.1","","99.25","","","","","","NA"
"-111.96","60.02","FORT SMITH A","2202201","2022-04-25 20:00","2022","04","25","20:00","5.8","","-3.6","","51","","","","11","","10","","24.1","","99.23","","","","","","Mostly Cloudy"
"-111.96","60.02","FORT SMITH A","2202201","2022-04-25 21:00","2022","04","25","21:00","4.8","","-3.5","","55","","","","12","","14","","24.1","","99.21","","","","","","NA"
"-111.96","60.02","FORT SMITH A","2202201","2022-04-25 22:00","2022","04","25","22:00","4.3","","-3.8","","56","","","","12","","12","","24.1","","99.17","","","","","","NA"
"-111.96","60.02","FORT SMITH A","2202201","2022-04-25 23:00","2022","04","25","23:00","4.0","","-3.9","","56","","","","13","","20","","24.1","","99.14","","","","","","Mainly Clear"
"-111.96","60.02","FORT SMITH A","2202201","2022-04-26 00:00","2022","04","26","00:00","3.6","","-4.2","","56","","","","13","","13","","24.1","","99.13","","","","","","NA"
"-111.96","60.02","FORT SMITH A","2202201","2022-04-26 01:00","2022","04","26","01:00","3.2","","-4.5","","57","","","","13","","14","","24.1","","99.12","","","","","","NA"
"-111.96","60.02","FORT SMITH A","2202201","2022-04-26 02:00","2022","04","26","02:00","2.7","","-4.7","","58","","","","14","","13","","24.1","","99.09","","","","","","Clear"
"-111.96","60.02","FORT SMITH A","2202201","2022-04-26 03:00","2022","04","26","03:00","2.0","","-4.9","","60","","","","13","","12","","24.1","","99.08","","","","","","NA"
"-111.96","60.02","FORT SMITH A","2202201","2022-04-26 04:00","2022","04","26","04:00","1.5","","-5.4","","60","","","","14","","12","","24.1","","99.09","","","","","","NA"
"-111.96","60.02","FORT SMITH A","2202201","2022-04-26 05:00","2022","04","26","05:00","1.1","","-6.0","","59","","","","13","","12","","24.1","","99.08","","","","","","Mostly Cloudy"
"-111.96","60.02","FORT SMITH A","2202201","2022-04-26 06:00","2022","04","26","06:00","1.3","","-6.5","","56","","","","13","","16","","24.1","","99.07","","","","","","NA"
"-111.96","60.02","FORT SMITH A","2202201","2022-04-26 07:00","2022","04","26","07:00","2.1","","-6.5","","53","","","","13","","17","","24.1","","99.05","","","","","","NA"
"-111.96","60.02","FORT SMITH A","2202201","2022-04-26 08:00","2022","04","26","08:00","2.7","","-6.1","","52","","","","14","","24","","24.1","","99.03","","","","","","Mostly Cloudy"
"-111.96","60.02","FORT SMITH A","2202201","2022-04-26 09:00","2022","04","26","09:00","4.0","","-5.8","","49","","","","13","","15","","24.1","","99.02","","","","","","NA"
"-111.96","60.02","FORT SMITH A","2202201","2022-04-26 10:00","2022","04","26","10:00","5.1","","-5.2","","47","","","","14","","14","","24.1","","99.00","","","","","","NA"
"-111.96","60.02","FORT SMITH A","2202201","2022-04-26 11:00","2022","04","26","11:00","6.2","","-5.3","","43","","","","11","","10","","24.1","","98.98","","","","","","Mostly Cloudy"
"-111.96","60.02","FORT SMITH A","2202201","2022-04-26 12:00","2022","04","26","12:00","7.9","","-5.0","","40","","","","13","","16","","24.1","","98.95","","","","","","NA"
"-111.96","60.02","FORT SMITH A","2202201","2022-04-26 13:00","2022","04","26","13:00","8.7","","-4.5","","39","","","","15","","20","","24.1","","98.94","","","","","","NA"
"-111.96","60.02","FORT SMITH A","2202201","2022-04-26 14:00","2022","04","26","14:00","9.3","","-4.5","","37","","","","14","","20","","24.1","","98.94","","","","","","Mainly Clear"
"-111.96","60.02","FORT SMITH A","2202201","2022-04-26 15:00","2022","04","26","15:00","10.0","","-4.3","","36","","","","12","","8","","24.1","","98.92","","","","","","NA"
"-111.96","60.02","FORT SMITH A","2202201","2022-04-26 16:00","2022","04","26","16:00","10.0","","-3.3","","39","","","","14","","14","","24.1","","98.90","","","","","","NA"
"-111.96","60.02","FORT SMITH A","2202201","2022-04-26 17:00","2022","04","26","17:00","10.4","","-3.4","","38","","","","15","","15","","24.1","","98.89","","","","","","Mostly Cloudy"
"-111.96","60.02","FORT SMITH A","2202201","2022-04-26 18:00","2022","04","26","18:00","10.3","","-4.3","","36","","","","14","","15","","24.1","","98.86","","","","","","NA"
"-111.96","60.02","FORT SMITH A","2202201","2022-04-26 19:00","2022","04","26","19:00","9.1","","-4.1","","39","","","","10","","4","","24.1","","98.88","","","","","","NA"
"-111.96","60.02","FORT SMITH A","2202201","2022-04-26 20:00","2022","04","26","20:00","7.2","","-4.1","","45","","","","10","","7","","24.1","","98.91","","","","","","Mostly Cloudy"
"-111.96","60.02","FORT SMITH A","2202201","2022-04-26 21:00","2022","04","26","21:00","5.7","","-4.7","","47","","","","12","","8","","24.1","","98.95","","","","","","NA"
"-111.96","60.02","FORT SMITH A","2202201","2022-04-26 22:00","2022","04","26","22:00","4.2","","-5.1","","51","","","","11","","5","","24.1","","98.94","","","","","","NA"
"-111.96","60.02","FORT SMITH A","2202201","2022-04-26 23:00","2022","04","26","23:00","3.6","","-5.5","","52","","","","13","","9","","24.1","","98.93","","","","","","Mainly Clear"
"-111.96","60.02","FORT SMITH A","2202201","2022-04-27 00:00","2022","04","27","00:00","3.0","","-5.8","","52","","","","12","","8","","24.1","","98.92","","","","","","NA"
"-111.96","60.02","FORT SMITH A","2202201","2022-04-27 01:00","2022","04","27","01:00","2.5","","-5.8","","54","","","","11","","4","","24.1","","98.90","","","","","","NA"
"-111.96","60.02","FORT SMITH A","2202201","2022-04-27 02:00","2022","04","27","02:00","2.0","","-5.9","","56","","","","11","","4","","24.1","","98.89","","","","","","Clear"
"-111.96","60.02","FORT SMITH A","2202201","2022-04-27 03:00","2022","04","27","03:00","1.6","","-6.0","","57","","","","11","","5","","24.1","","98.90","","","","","","NA"
"-111.96","60.02","FORT SMITH A","2202201","2022-04-27 04:00","2022","04","27","04:00","0.7","","-6.1","","60","","","","10","","4","","24.1","","98.90","","","","","","NA"
"-111.96","60.02","FORT SMITH A","2202201","2022-04-27 05:00","2022","04","27","05:00","0.2","","-6.2","","62","","","","10","","4","","24.1","","98.88","","","","","","Mostly Cloudy"
"-111.96","60.02","FORT SMITH A","2202201","2022-04-27 06:00","2022","04","27","06:00","0.7","","-6.2","","60","","","","9","","5","","24.1","","98.88","","","","","","NA"
"-111.96","60.02","FORT SMITH A","2202201","2022-04-27 07:00","2022","04","27","07:00","1.8","","-5.9","","57","","","","36","","3","","24.1","","98.85","","","","","","NA"
"-111.96","60.02","FORT SMITH A","2202201","2022-04-27 08:00","2022","04","27","08:00","2.6","","-5.9","","54","","","","10","","5","","24.1","","98.84","","","","","","Mostly Cloudy"
"-111.96","60.02","FORT SMITH A","2202201","2022-04-27 09:00","2022","04","27","09:00","4.5","","-5.5","","49","","","","12","","4","","24.1","","98.84","","","","","","NA"
"-111.96","60.02","FORT SMITH A","2202201","2022-04-27 10:00","2022","04","27","10:00","5.8","","-5.6","","44","","","","9","","7","","24.1","","98.82","","","","","","NA"
"-111.96","60.02","FORT SMITH A","2202201","2022-04-27 11:00","2022","04","27","11:00","6.9","","-6.1","","39","","","","10","","9","","24.1","","98.81","","","","","","Mostly Cloudy"
"-111.96","60.02","FORT SMITH A","2202201","2022-04-27 12:00","2022","04","27","12:00","8.2","","-6.0","","36","","","","10","","7","","24.1","","98.78","","","","","","NA"
"-111.96","60.02","FORT SMITH A","2202201","2022-04-27 13:00","2022","04","27","13:00","9.3","","-5.5","","34","","","","13","","9","","24.1","","98.75","","","","","","NA"
"-111.96","60.02","FORT SMITH A","2202201","2022-04-27 14:00","2022","04","27","14:00","9.8","","-5.8","","33","","","","13","","13","","24.1","","98.73","","","","","","Mostly Cloudy"
"-111.96","60.02","FORT SMITH A","2202201","2022-04-27 15:00","2022","04","27","15:00","10.7","","-5.6","","31","","","","6","","10","","24.1","","98.70","","","","","","NA"
"-111.96","60.02","FORT SMITH A","2202201","2022-04-27 16:00","2022","04","27","16:00","9.6","","-5.0","","35","","","","5","","10","","24.1","","98.67","","","","","","NA"
"-111.96","60.02","FORT SMITH A","2202201","2022-04-27 17:00","2022","04","27","17:00","9.7","","-5.8","","33","","","","6","","13","","24.1","","98.65","","","","","","Cloudy"
"-111.96","60.02","FORT SMITH A","2202201","2022-04-27 18:00","2022","04","27","18:00","9.4","","-6.5","","32","","","","8","","5","","24.1","","98.67","","","","","","NA"
"-111.96","60.02","FORT SMITH A","2202201","2022-04-27 19:00","2022","04","27","19:00","8.9","","-5.6","","35","","","","9","","5","","24.1","","98.68","","","","","","NA"
"-111.96","60.02","FORT SMITH A","2202201","2022-04-27 20:00","2022","04","27","20:00","7.3","","-4.4","","43","","","","14","","6","","24.1","","98.71","","","","","","Cloudy"
"-111.96","60.02","FORT SMITH A","2202201","2022-04-27 21:00","2022","04","27","21:00","6.3","","-4.2","","47","","","","12","","4","","24.1","","98.71","","","","","","NA"
"-111.96","60.02","FORT SMITH A","2202201","2022-04-27 22:00","2022","04","27","22:00","3.8","","-4.0","","57","","","","2","","3","","24.1","","98.69","","","","","","NA"
"-111.96","60.02","FORT SMITH A","2202201","2022-04-27 23:00","2022","04","27","23:00","3.5","","-3.6","","60","","","","3","","7","","24.1","","98.67","","","","","","Mostly Cloudy"
"-111.96","60.02","FORT SMITH A","2202201","2022-04-28 00:00","2022","04","28","00:00","3.5","","-3.4","","60","","","","4","","9","","24.1","","98.67","","","","","","NA"
"-111.96","60.02","FORT SMITH A","2202201","2022-04-28 01:00","2022","04","28","01:00","3.0","","-4.1","","60","","","","3","","9","","24.1","","98.65","","","","","","NA"
"-111.96","60.02","FORT SMITH A","2202201","2022-04-28 02:00","2022","04","28","02:00","3.1","","-4.2","","58","","","","7","","5","","24.1","","98.64","","","","","","Mainly Clear"
"-111.96","60.02","FORT SMITH A","2202201","2022-04-28 03:00","2022","04","28","03:00","2.5","","-4.1","","62","","","","6","","5","","24.1","","98.63","","","","","","NA"
"-111.96","60.02","FORT SMITH A","2202201","2022-04-28 04:00","2022","04","28","04:00","1.0","","-3.7","","71","","","","6","","3","","24.1","","98.64","","","","","","NA"
"-111.96","60.02","FORT SMITH A","2202201","2022-04-28 05:00","2022","04","28","05:00","-0.2","","-4.0","","76","","","","3","","7","","24.1","","98.64","","","","-3","","Mainly Clear"
"-111.96","60.02","FORT SMITH A","2202201","2022-04-28 06:00","2022","04","28","06:00","1.7","","-3.5","","69","","","","7","","4","","24.1","","98.64","","","","","","NA"
"-111.96","60.02","FORT SMITH A","2202201","2022-04-28 07:00","2022","04","28","07:00","2.8","","-3.1","","65","","","","5","","4","","24.1","","98.66","","","","","","NA"
"-111.96","60.02","FORT SMITH A","2202201","2022-04-28 08:00","2022","04","28","08:00","4.1","","-2.6","","62","","","","8","","5","","24.1","","98.64","","","","","","Mostly Cloudy"
"-111.96","60.02","FORT SMITH A","2202201","2022-04-28 09:00","2022","04","28","09:00","4.4","","-1.6","","65","","","","2","","6","","24.1","","98.63","","","","","","NA"
"-111.96","60.02","FORT SMITH A","2202201","2022-04-28 10:00","2022","04","28","10:00","7.3","","-1.8","","52","","","","2","","5","","24.1","","98.63","","","","","","NA"
"-111.96","60.02","FORT SMITH A","2202201","2022-04-28 11:00","2022","04","28","11:00","9.7","","-1.0","","47","","","","1","","5","","24.1","","98.59","","","","","","Mostly Cloudy"
"-111.96","60.02","FORT SMITH A","2202201","2022-04-28 12:00","2022","04","28","12:00","9.9","","-0.4","","49","","","","1","","5","","24.1","","98.59","","","","","","NA"
"-111.96","60.02","FORT SMITH A","2202201","2022-04-28 13:00","2022","04","28","13:00","11.0","","-1.2","","42","","","","15","","9","","24.1","","98.61","","","","","","NA"
"-111.96","60.02","FORT SMITH A","2202201","2022-04-28 14:00","2022","04","28","14:00","11.8","","-1.3","","40","","","","7","","7","","24.1","","98.61","","","","","","Mostly Cloudy"
"-111.96","60.02","FORT SMITH A","2202201","2022-04-28 15:00","2022","04","28","15:00","12.1","","-1.8","","38","","","","9","","4","","24.1","","98.62","","","","","","NA"
"-111.96","60.02","FORT SMITH A","2202201","2022-04-28 16:00","2022","04","28","16:00","11.6","","-1.6","","40","","","","1","","8","","24.1","","98.63","","","","","","NA"
"-111.96","60.02","FORT SMITH A","2202201","2022-04-28 17:00","2022","04","28","17:00","10.2","","-1.8","","43","","","","3","","10","","24.1","","98.67","","","","","","Mostly Cloudy"
"-111.96","60.02","FORT SMITH A","2202201","2022-04-28 18:00","2022","04","28","18:00","11.7","","-1.5","","40","","","","12","","5","","24.1","","98.69","","","","","","NA"
"-111.96","60.02","FORT SMITH A","2202201","2022-04-28 19:00","2022","04","28","19:00","9.4","","-1.6","","46","","","","1","","10","","24.1","","98.71","","","","","","NA"
"-111.96","60.02","FORT SMITH A","2202201","2022-04-28 20:00","2022","04","28","20:00","7.5","","-2.2","","50","","","","4","","17","","24.1","","98.76","","","","","","Clear"
"-111.96","60.02","FORT SMITH A","2202201","2022-04-28 21:00","2022","04","28","21:00","5.5","","-2.7","","55","","","","3","","14","","24.1","","98.84","","","","","","NA"
"-111.96","60.02","FORT SMITH A","2202201","2022-04-28 22:00","2022","04","28","22:00","4.0","","-3.1","","60","","","","3","","18","","24.1","","98.91","","","","","","NA"
"-111.96","60.02","FORT SMITH A","2202201","2022-04-28 23:00","2022","04","28","23:00","2.6","","-3.6","","64","","","","2","","21","","24.1","","98.97","","","","","","Mainly Clear"
"-111.96","60.02","FORT SMITH A","2202201","2022-04-29 00:00","2022","04","29","00:00","1.1","","-4.0","","69","","","","2","","16","","24.1","","99.06","","","","","","NA"
"-111.96","60.02","FORT SMITH A","2202201","2022-04-29 01:00","2022","04","29","01:00","0.2","","-4.9","","68","","","","2","","21","","24.1","","99.14","","","","","","NA"
"-111.96","60.02","FORT SMITH A","2202201","2022-04-29 02:00","2022","04","29","02:00","-1.4","","-5.3","","75","","","","3","","18","","24.1","","99.23","","","","-7","","Clear"
"-111.96","60.02","FORT SMITH A","2202201","2022-04-29 03:00","2022","04","29","03:00","-2.4","","-6.0","","76","","","","3","","26","","24.1","","99.32","","","","-9","","NA"
"-111.96","60.02","FORT SMITH A","2202201","2022-04-29 04:00","2022","04","29","04:00","-2.9","","-6.4","","77","","","","2","","21","","24.1","","99.40","","","","-9","","NA"
"-111.96","60.02","FORT SMITH A","2202201","2022-04-29 05:00","2022","04","29","05:00","-3.7","","-6.8","","79","","","","2","","13","","24.1","","99.49","","","","-9","","Clear"
"-111.96","60.02","FORT SMITH A","2202201","2022-04-29 06:00","2022","04","29","06:00","-3.6","","-7.0","","77","","","","4","","19","","24.1","","99.57","","","","-10","","NA"
"-111.96","60.02","FORT SMITH A","2202201","2022-04-29 07:00","2022","04","29","07:00","-3.3","","-7.2","","75","","","","4","","15","","24.1","","99.65","","","","-8","","NA"
"-111.96","60.02","FORT SMITH A","2202201","2022-04-29 08:00","2022","04","29","08:00","-3.3","","-7.0","","76","","","","2","","20","","24.1","","99.71","","","","-9","","Cloudy"
"-111.96","60.02","FORT SMITH A","2202201","2022-04-29 09:00","2022","04","29","09:00","-2.8","","-6.7","","75","","","","1","","13","","24.1","","99.77","","","","-7","","NA"
"-111.96","60.02","FORT SMITH A","2202201","2022-04-29 10:00","2022","04","29","10:00","-2.7","","-6.8","","74","","","","36","","16","","24.1","","99.82","","","","-8","","NA"
"-111.96","60.02","FORT SMITH A","2202201","2022-04-29 11:00","2022","04","29","11:00","-1.7","","-6.5","","70","","","","2","","11","","24.1","","99.85","","","","-6","","Cloudy"
"-111.96","60.02","FORT SMITH A","2202201","2022-04-29 12:00","2022","04","29","12:00","-1.0","","-6.5","","66","","","","36","","16","","24.1","","99.88","","","","-6","","NA"
"-111.96","60.02","FORT SMITH A","2202201","2022-04-29 13:00","2022","04","29","13:00","0.2","","-6.5","","61","","","","3","","14","","24.1","","99.94","","","","","","NA"
"-111.96","60.02","FORT SMITH A","2202201","2022-04-29 14:00","2022","04","29","14:00","1.4","","-5.7","","59","","","","4","","16","","24.1","","99.93","","","","","","Mainly Clear"
"-111.96","60.02","FORT SMITH A","2202201","2022-04-29 15:00","2022","04","29","15:00","2.0","","-5.8","","56","","","","3","","11","","24.1","","99.96","","","","","","NA"
"-111.96","60.02","FORT SMITH A","2202201","2022-04-29 16:00","2022","04","29","16:00","2.2","","-5.8","","56","","","","3","","15","","24.1","","100.00","","","","","","NA"
"-111.96","60.02","FORT SMITH A","2202201","2022-04-29 17:00","2022","04","29","17:00","2.5","","-5.9","","54","","","","3","","18","","24.1","","100.03","","","","","","Mainly Clear"
"-111.96","60.02","FORT SMITH A","2202201","2022-04-29 18:00","2022","04","29","18:00","2.4","","-4.9","","58","","","","2","","14","","24.1","","100.05","","","","","","NA"
"-111.96","60.02","FORT SMITH A","2202201","2022-04-29 19:00","2022","04","29","19:00","2.2","","-5.8","","56","","","","4","","11","","24.1","","100.07","","","","","","NA"
"-111.96","60.02","FORT SMITH A","2202201","2022-04-29 20:00","2022","04","29","20:00","0.8","","-6.0","","60","","","","2","","8","","24.1","","100.11","","","","","","Clear"
"-111.96","60.02","FORT SMITH A","2202201","2022-04-29 21:00","2022","04","29","21:00","-1.0","","-6.6","","66","","","","2","","5","","24.1","","100.15","","","","-3","","NA"
"-111.96","60.02","FORT SMITH A","2202201","2022-04-29 22:00","2022","04","29","22:00","-2.9","","-7.0","","74","","","","3","","8","","24.1","","100.19","","","","-6","","NA"
"-111.96","60.02","FORT SMITH A","2202201","2022-04-29 23:00","2022","04","29","23:00","-2.4","","-6.9","","71","","","","4","","10","","24.1","","100.23","","","","-6","","Clear"
"-111.96","60.02","FORT SMITH A","2202201","2022-04-30 00:00","2022","04","30","00:00","-2.6","","-7.0","","72","","","","5","","8","","24.1","","100.26","","","","-6","","NA"
"-111.96","60.02","FORT SMITH A","2202201","2022-04-30 01:00","2022","04","30","01:00","-3.9","","-7.3","","77","","","","4","","7","","24.1","","100.30","","","","-7","","NA"
"-111.96","60.02","FORT SMITH A","2202201","2022-04-30 02:00","2022","04","30","02:00","-4.8","","-7.6","","81","","","","6","","4","","24.1","","100.32","","","","-7","","Clear"
"-111.96","60.02","FORT SMITH A","2202201","2022-04-30 03:00","2022","04","30","03:00"
"-111.96","60.02","FORT SMITH A","2202201","2022-04-30 04:00","2022","04","30","04:00","-5.1","","-7.5","","83","","","","7","","5","","24.1","","100.35","","","","-7","","NA"
"-111.96","60.02","FORT SMITH A","2202201","2022-04-30 05:00","2022","04","30","05:00","-5.4","","-7.7","","84","","","","7","","4","","24.1","","100.39","","","","-7","","Clear"
"-111.96","60.02","FORT SMITH A","2202201","2022-04-30 06:00","2022","04","30","06:00","-4.3","","-7.5","","79","","","","10","","5","","24.1","","100.40","","","","-6","","NA"
"-111.96","60.02","FORT SMITH A","2202201","2022-04-30 07:00","2022","04","30","07:00","-2.9","","-7.4","","72","","","","13","","7","","24.1","","100.41","","","","-6","","NA"
"-111.96","60.02","FORT SMITH A","2202201","2022-04-30 08:00","2022","04","30","08:00","-1.4","","-6.6","","68","","","","11","","4","","24.1","","100.42","","","","-3","","Clear"
"-111.96","60.02","FORT SMITH A","2202201","2022-04-30 09:00","2022","04","30","09:00","0.0","","-6.2","","63","","","","6","","7","","24.1","","100.41","","","","-2","","NA"
"-111.96","60.02","FORT SMITH A","2202201","2022-04-30 10:00","2022","04","30","10:00","1.4","","-5.7","","59","","","","36","","8","","24.1","","100.39","","","","","","NA"
"-111.96","60.02","FORT SMITH A","2202201","2022-04-30 11:00","2022","04","30","11:00","2.9","","-6.1","","52","","","","15","","10","","24.1","","100.37","","","","","","Mainly Clear"
"-111.96","60.02","FORT SMITH A","2202201","2022-04-30 12:00","2022","04","30","12:00","3.8","","-4.9","","53","","","","7","","3","","24.1","","100.36","","","","","","NA"
"-111.96","60.02","FORT SMITH A","2202201","2022-04-30 13:00","2022","04","30","13:00","4.6","","-5.9","","47","","","","1","","4","","24.1","","100.35","","","","","","NA"
"-111.96","60.02","FORT SMITH A","2202201","2022-04-30 14:00","2022","04","30","14:00","5.5","","-6.5","","42","","","","7","","8","","24.1","","100.32","","","","","","Mainly Clear"
"-111.96","60.02","FORT SMITH A","2202201","2022-04-30 15:00","2022","04","30","15:00","5.9","","-7.6","","37","","","","36","","2","","24.1","","100.29","","","","","","NA"
"-111.96","60.02","FORT SMITH A","2202201","2022-04-30 16:00","2022","04","30","16:00","6.3","","-7.8","","36","","","","7","","8","","24.1","","100.27","","","","","","NA"
"-111.96","60.02","FORT SMITH A","2202201","2022-04-30 17:00","2022","04","30","17:00","6.3","","-6.4","","40","","","","3","","10","","24.1","","100.24","","","","","","Clear"
"-111.96","60.02","FORT SMITH A","2202201","2022-04-30 18:00","2022","04","30","18:00","6.3","","-6.2","","40","","","","10","","8","","24.1","","100.24","","","","","","NA"
"-111.96","60.02","FORT SMITH A","2202201","2022-04-30 19:00","2022","04","30","19:00","5.4","","-5.9","","44","","","","12","","11","","24.1","","100.25","","","","","","NA"
"-111.96","60.02","FORT SMITH A","2202201","2022-04-30 20:00","2022","04","30","20:00","3.3","","-5.4","","53","","","","13","","12","","24.1","","100.29","","","","","","Clear"
"-111.96","60.02","FORT SMITH A","2202201","2022-04-30 21:00","2022","04","30","21:00","1.7","","-5.8","","58","","","","13","","9","","24.1","","100.30","","","","","","NA"
"-111.96","60.02","FORT SMITH A","2202201","2022-04-30 22:00","2022","04","30","22:00","0.8","","-6.0","","61","","","","12","","8","","24.1","","100.31","","","","","","NA"
"-111.96","60.02","FORT SMITH A","2202201","2022-04-30 23:00","2022","04","30","23:00","-0.5","","-6.0","","66","","","","9","","3","","24.1","","100.30","","","","-1","","Clear"
