"Longitude (x)","Latitude (y)","Station Name","Climate ID","Date/Time (LST)","Year","Month","Day","Time (LST)","Temp (°C)","Temp Flag","Dew Point Temp (°C)","Dew Point Temp Flag","Rel Hum (%)","Rel Hum Flag","Precip. Amount (mm)","Precip. Amount Flag","Wind Dir (10s deg)","Wind Dir Flag","Wind Spd (km/h)","Wind Spd Flag","Visibility (km)","Visibility Flag","Stn Press (kPa)","Stn Press Flag","Hmdx","Hmdx Flag","Wind Chill","Wind Chill Flag","Weather"
"-111.96","60.02","FORT SMITH A","2202201","2022-06-01 00:00","2022","06","01","00:00","6.8","","-1.9","","54","","","","25","","4","","24.1","","99.84","","","","","","NA"
"-111.96","60.02","FORT SMITH A","2202201","2022-06-01 01:00","2022","06","01","01:00","5.4","","-1.9","","59","","","","36","","1","","24.1","","99.84","","","","","","NA"
"-111.96","60.02","FORT SMITH A","2202201","2022-06-01 02:00","2022","06","01","02:00","4.2","","-1.5","","67","","","","36","","1","","24.1","","99.84","","","","","","Mainly Clear"
"-111.96","60.02","FORT SMITH A","2202201","2022-06-01 03:00","2022","06","01","03:00","3.5","","-1.1","","72","","","","36","","3","","24.1","","99.83","","","","","","NA"
"-111.96","60.02","FORT SMITH A","2202201","2022-06-01 04:00","2022","06","01","04:00","3.5","","-0.7","","74","","","","36","","1","","24.1","","99.84","","","","","","NA"
"-111.96","60.02","FORT SMITH A","2202201","2022-06-01 05:00","2022","06","01","05:00","6.1","","2.0","","75","","","","28","","4","","24.1","","99.84","","","","","","Mainly Clear"
"-111.96","60.02","FORT SMITH A","2202201","2022-06-01 06:00","2022","06","01","06:00","10.5","","2.6","","58","","","","31","","6","","24.1","","99.86","","","","","","NA"
"-111.96","60.02","FORT SMITH A","2202201","2022-06-01 07:00","2022","06","01","07:00","12.8","","2.1","","48","","","","32","","9","","24.1","","99.88","","","","","","NA"
"-111.96","60.02","FORT SMITH A","2202201","2022-06-01 08:00","2022","06","01","08:00","14.9","","1.1","","39","","","","32","","10","","24.1","","99.86","","","","","","Mainly Clear"
"-111.96","60.02","FORT SMITH A","2202201","2022-06-01 09:00","2022","06","01","09:00","16.6","","-1.7","","28","","","","34","","14","","24.1","","99.84","","","","","","NA"
"-111.96","60.02","FORT SMITH A","2202201","2022-06-01 10:00","2022","06","01","10:00","17.3","","-0.2","","30","","","","32","","18","","24.1","","99.79","","","","","","NA"
"-111.96","60.02","FORT SMITH A","2202201","2022-06-01 11:00","2022","06","01","11:00","18.3","","1.1","","31","","","","34","","17","","24.1","","99.77","","","","","","Clear"
"-111.96","60.02","FORT SMITH A","2202201","2022-06-01 12:00","2022","06","01","12:00","18.9","","1.0","","30","","","","35","","18","","24.1","","99.72","","","","","","NA"
"-111.96","60.02","FORT SMITH A","2202201","2022-06-01 13:00","2022","06","01","13:00","19.6","","1.3","","29","","","","36","","18","","24.1","","99.67","","","","","","NA"
"-111.96","60.02","FORT SMITH A","2202201","2022-06-01 14:00","2022","06","01","14:00","20.4","","1.9","","29","","","","32","","23","","24.1","","99.66","","","","","","Clear"
"-111.96","60.02","FORT SMITH A","2202201","2022-06-01 15:00","2022","06","01","15:00","21.1","","2.9","","30","","","","34","","16","","24.1","","99.63","","","","","","NA"
"-111.96","60.02","FORT SMITH A","2202201","2022-06-01 16:00","2022","06","01","16:00","21.0","","-1.6","","22","","","","1","","21","","24.1","","99.63","","","","","","NA"
"-111.96","60.02","FORT SMITH A","2202201","2022-06-01 17:00","2022","06","01","17:00","20.4","","-1.4","","23","","","","4","","22","","24.1","","99.62","","","","","","Clear"
"-111.96","60.02","FORT SMITH A","2202201","2022-06-01 18:00","2022","06","01","18:00","20.4","","-2.1","","22","","","","2","","23","","24.1","","99.61","","","","","","NA"
"-111.96","60.02","FORT SMITH A","2202201","2022-06-01 19:00","2022","06","01","19:00","19.5","","-2.8","","22","","","","8","","9","","24.1","","99.60","","","","","","NA"
"-111.96","60.02","FORT SMITH A","2202201","2022-06-01 20:00","2022","06","01","20:00","18.0","","-2.6","","24","","","","9","","7","","24.1","","99.62","","","","","","Clear"
"-111.96","60.02","FORT SMITH A","2202201","2022-06-01 21:00","2022","06","01","21:00","15.6","","-1.8","","30","","","","8","","5","","24.1","","99.63","","","","","","NA"
"-111.96","60.02","FORT SMITH A","2202201","2022-06-01 22:00","2022","06","01","22:00","12.6","","-0.5","","40","","","","36","","2","","24.1","","99.65","","","","","","NA"
"-111.96","60.02","FORT SMITH A","2202201","2022-06-01 23:00","2022","06","01","23:00","8.7","","-0.4","","53","","","","7","","4","","24.1","","99.66","","","","","","Mainly Clear"
"-111.96","60.02","FORT SMITH A","2202201","2022-06-02 00:00","2022","06","02","00:00","11.5","","-0.5","","43","","","","9","","5","","24.1","","99.68","","","","","","NA"
"-111.96","60.02","FORT SMITH A","2202201","2022-06-02 01:00","2022","06","02","01:00","10.6","","0.1","","48","","","","11","","3","","24.1","","99.69","","","","","","NA"
"-111.96","60.02","FORT SMITH A","2202201","2022-06-02 02:00","2022","06","02","02:00","10.9","","-0.4","","45","","","","10","","6","","24.1","","99.72","","","","","","Mostly Cloudy"
"-111.96","60.02","FORT SMITH A","2202201","2022-06-02 03:00","2022","06","02","03:00","9.9","","0.7","","53","","","","13","","7","","24.1","","99.74","","","","","","NA"
"-111.96","60.02","FORT SMITH A","2202201","2022-06-02 04:00","2022","06","02","04:00","8.5","","0.9","","59","","","","32","","6","","24.1","","99.81","","","","","","NA"
"-111.96","60.02","FORT SMITH A","2202201","2022-06-02 05:00","2022","06","02","05:00","9.4","","0.2","","53","","","","14","","5","","24.1","","99.80","","","","","","Rain Showers"
"-111.96","60.02","FORT SMITH A","2202201","2022-06-02 06:00","2022","06","02","06:00","10.2","","0.6","","51","","","","15","","11","","24.1","","99.80","","","","","","NA"
"-111.96","60.02","FORT SMITH A","2202201","2022-06-02 07:00","2022","06","02","07:00","11.5","","0.4","","46","","","","15","","13","","24.1","","99.79","","","","","","NA"
"-111.96","60.02","FORT SMITH A","2202201","2022-06-02 08:00","2022","06","02","08:00","12.5","","0.0","","42","","","","11","","11","","24.1","","99.78","","","","","","Mostly Cloudy"
"-111.96","60.02","FORT SMITH A","2202201","2022-06-02 09:00","2022","06","02","09:00","14.2","","0.6","","39","","","","16","","11","","24.1","","99.76","","","","","","NA"
"-111.96","60.02","FORT SMITH A","2202201","2022-06-02 10:00","2022","06","02","10:00","15.3","","0.3","","36","","","","12","","14","","24.1","","99.72","","","","","","NA"
"-111.96","60.02","FORT SMITH A","2202201","2022-06-02 11:00","2022","06","02","11:00","16.1","","0.1","","33","","","","14","","13","","24.1","","99.67","","","","","","Mainly Clear"
"-111.96","60.02","FORT SMITH A","2202201","2022-06-02 12:00","2022","06","02","12:00","17.4","","-0.7","","29","","","","10","","7","","24.1","","99.59","","","","","","NA"
"-111.96","60.02","FORT SMITH A","2202201","2022-06-02 13:00","2022","06","02","13:00","18.2","","-0.4","","28","","","","10","","15","","24.1","","99.50","","","","","","NA"
"-111.96","60.02","FORT SMITH A","2202201","2022-06-02 14:00","2022","06","02","14:00","19.2","","0.0","","27","","","","8","","10","","24.1","","99.44","","","","","","Clear"
"-111.96","60.02","FORT SMITH A","2202201","2022-06-02 15:00","2022","06","02","15:00","19.5","","0.2","","27","","","","6","","12","","24.1","","99.38","","","","","","NA"
"-111.96","60.02","FORT SMITH A","2202201","2022-06-02 16:00","2022","06","02","16:00","19.1","","0.7","","29","","","","2","","12","","24.1","","99.34","","","","","","NA"
"-111.96","60.02","FORT SMITH A","2202201","2022-06-02 17:00","2022","06","02","17:00","20.0","","0.6","","27","","","","8","","8","","24.1","","99.29","","","","","","Mainly Clear"
"-111.96","60.02","FORT SMITH A","2202201","2022-06-02 18:00","2022","06","02","18:00","19.7","","0.7","","28","","","","6","","10","","24.1","","99.25","","","","","","NA"
"-111.96","60.02","FORT SMITH A","2202201","2022-06-02 19:00","2022","06","02","19:00","19.5","","0.9","","29","","","","13","","8","","24.1","","99.21","","","","","","NA"
"-111.96","60.02","FORT SMITH A","2202201","2022-06-02 20:00","2022","06","02","20:00","18.7","","1.0","","30","","","","11","","4","","24.1","","99.19","","","","","","Clear"
"-111.96","60.02","FORT SMITH A","2202201","2022-06-02 21:00","2022","06","02","21:00","16.3","","1.4","","36","","","","11","","3","","24.1","","99.17","","","","","","NA"
"-111.96","60.02","FORT SMITH A","2202201","2022-06-02 22:00","2022","06","02","22:00","14.5","","1.6","","41","","","","12","","8","","24.1","","99.17","","","","","","NA"
"-111.96","60.02","FORT SMITH A","2202201","2022-06-02 23:00","2022","06","02","23:00","12.2","","2.3","","51","","","","15","","10","","24.1","","99.18","","","","","","Clear"
"-111.96","60.02","FORT SMITH A","2202201","2022-06-03 00:00","2022","06","03","00:00","10.8","","2.0","","54","","","","15","","10","","24.1","","99.18","","","","","","NA"
"-111.96","60.02","FORT SMITH A","2202201","2022-06-03 01:00","2022","06","03","01:00","8.9","","1.4","","59","","","","15","","9","","24.1","","99.20","","","","","","NA"
"-111.96","60.02","FORT SMITH A","2202201","2022-06-03 02:00","2022","06","03","02:00","6.9","","0.8","","65","","","","36","","3","","24.1","","99.18","","","","","","Clear"
"-111.96","60.02","FORT SMITH A","2202201","2022-06-03 03:00","2022","06","03","03:00","6.7","","1.4","","69","","","","17","","8","","24.1","","99.18","","","","","","NA"
"-111.96","60.02","FORT SMITH A","2202201","2022-06-03 04:00","2022","06","03","04:00","6.7","","0.7","","65","","","","15","","9","","24.1","","99.15","","","","","","NA"
"-111.96","60.02","FORT SMITH A","2202201","2022-06-03 05:00","2022","06","03","05:00","8.2","","1.0","","60","","","","15","","10","","24.1","","99.14","","","","","","Clear"
"-111.96","60.02","FORT SMITH A","2202201","2022-06-03 06:00","2022","06","03","06:00","11.3","","1.1","","49","","","","16","","12","","24.1","","99.15","","","","","","NA"
"-111.96","60.02","FORT SMITH A","2202201","2022-06-03 07:00","2022","06","03","07:00","14.4","","-0.5","","36","","","","17","","13","","24.1","","99.13","","","","","","NA"
"-111.96","60.02","FORT SMITH A","2202201","2022-06-03 08:00","2022","06","03","08:00","16.2","","-1.2","","30","","","","18","","20","","24.1","","99.10","","","","","","Clear"
"-111.96","60.02","FORT SMITH A","2202201","2022-06-03 09:00","2022","06","03","09:00","17.9","","-0.4","","29","","","","14","","18","","24.1","","99.07","","","","","","NA"
"-111.96","60.02","FORT SMITH A","2202201","2022-06-03 10:00","2022","06","03","10:00","19.2","","0.8","","29","","","","15","","13","","24.1","","99.00","","","","","","NA"
"-111.96","60.02","FORT SMITH A","2202201","2022-06-03 11:00","2022","06","03","11:00","19.7","","1.4","","29","","","","17","","16","","24.1","","98.96","","","","","","Clear"
"-111.96","60.02","FORT SMITH A","2202201","2022-06-03 12:00","2022","06","03","12:00","20.4","","1.8","","29","","","","13","","14","","24.1","","98.92","","","","","","NA"
"-111.96","60.02","FORT SMITH A","2202201","2022-06-03 13:00","2022","06","03","13:00","20.6","","1.9","","28","","","","24","","12","","24.1","","98.89","","","","","","NA"
"-111.96","60.02","FORT SMITH A","2202201","2022-06-03 14:00","2022","06","03","14:00","21.8","","1.5","","26","","","","20","","14","","24.1","","98.83","","","","","","Clear"
"-111.96","60.02","FORT SMITH A","2202201","2022-06-03 15:00","2022","06","03","15:00","22.3","","1.9","","26","","","","4","","15","","24.1","","98.78","","","","","","NA"
"-111.96","60.02","FORT SMITH A","2202201","2022-06-03 16:00","2022","06","03","16:00","22.5","","0.9","","24","","","","12","","11","","24.1","","98.77","","","","","","NA"
"-111.96","60.02","FORT SMITH A","2202201","2022-06-03 17:00","2022","06","03","17:00","22.7","","1.7","","25","","","","7","","8","","24.1","","98.72","","","","","","Clear"
"-111.96","60.02","FORT SMITH A","2202201","2022-06-03 18:00","2022","06","03","18:00","22.5","","0.3","","23","","","","11","","9","","24.1","","98.69","","","","","","NA"
"-111.96","60.02","FORT SMITH A","2202201","2022-06-03 19:00","2022","06","03","19:00","21.8","","0.7","","24","","","","16","","13","","24.1","","98.66","","","","","","NA"
"-111.96","60.02","FORT SMITH A","2202201","2022-06-03 20:00","2022","06","03","20:00","20.6","","-0.3","","24","","","","15","","16","","24.1","","98.67","","","","","","Clear"
"-111.96","60.02","FORT SMITH A","2202201","2022-06-03 21:00","2022","06","03","21:00","18.1","","-0.6","","28","","","","15","","14","","24.1","","98.69","","","","","","NA"
"-111.96","60.02","FORT SMITH A","2202201","2022-06-03 22:00","2022","06","03","22:00","15.6","","-1.1","","32","","","","15","","12","","24.1","","98.72","","","","","","NA"
"-111.96","60.02","FORT SMITH A","2202201","2022-06-03 23:00","2022","06","03","23:00","13.7","","-0.3","","38","","","","15","","10","","24.1","","98.75","","","","","","Clear"
"-111.96","60.02","FORT SMITH A","2202201","2022-06-04 00:00","2022","06","04","00:00","12.1","","0.1","","44","","","","16","","10","","24.1","","98.78","","","","","","NA"
"-111.96","60.02","FORT SMITH A","2202201","2022-06-04 01:00","2022","06","04","01:00","10.1","","0.4","","51","","","","15","","7","","24.1","","98.78","","","","","","NA"
"-111.96","60.02","FORT SMITH A","2202201","2022-06-04 02:00","2022","06","04","02:00","10.2","","0.4","","50","","","","15","","8","","24.1","","98.81","","","","","","Clear"
"-111.96","60.02","FORT SMITH A","2202201","2022-06-04 03:00","2022","06","04","03:00","10.0","","0.1","","50","","","","15","","10","","24.1","","98.81","","","","","","NA"
"-111.96","60.02","FORT SMITH A","2202201","2022-06-04 04:00","2022","06","04","04:00","10.9","","0.5","","48","","","","14","","14","","24.1","","98.81","","","","","","NA"
"-111.96","60.02","FORT SMITH A","2202201","2022-06-04 05:00","2022","06","04","05:00","12.2","","1.4","","47","","","","15","","13","","24.1","","98.84","","","","","","Clear"
"-111.96","60.02","FORT SMITH A","2202201","2022-06-04 06:00","2022","06","04","06:00","14.2","","2.5","","45","","","","15","","16","","24.1","","98.86","","","","","","NA"
"-111.96","60.02","FORT SMITH A","2202201","2022-06-04 07:00","2022","06","04","07:00","16.6","","2.7","","39","","","","15","","14","","24.1","","98.85","","","","","","NA"
"-111.96","60.02","FORT SMITH A","2202201","2022-06-04 08:00","2022","06","04","08:00"
"-111.96","60.02","FORT SMITH A","2202201","2022-06-04 09:00","2022","06","04","09:00"
"-111.96","60.02","FORT SMITH A","2202201","2022-06-04 10:00","2022","06","04","10:00","21.6","","1.7","","26","","","","17","","25","","24.1","","98.81","","","","","","NA"
"-111.96","60.02","FORT SMITH A","2202201","2022-06-04 11:00","2022","06","04","11:00","23.1","","1.8","","24","","","","16","","23","","24.1","","98.80","","","","","","Clear"
"-111.96","60.02","FORT SMITH A","2202201","2022-06-04 12:00","2022","06","04","12:00","23.5","","1.6","","23","","","","12","","12","","24.1","","98.80","","","","","","NA"
"-111.96","60.02","FORT SMITH A","2202201","2022-06-04 13:00","2022","06","04","13:00","23.9","","0.2","","21","","","","17","","21","","24.1","","98.80","","","","","","NA"
"-111.96","60.02","FORT SMITH A","2202201","2022-06-04 14:00","2022","06","04","14:00","24.0","","0.1","","20","","","","13","","17","","24.1","","98.79","","","","","","Clear"
"-111.96","60.02","FORT SMITH A","2202201","2022-06-04 15:00","2022","06","04","15:00","24.9","","-0.6","","18","","","","14","","25","","24.1","","98.79","","","","","","NA"
"-111.96","60.02","FORT SMITH A","2202201","2022-06-04 16:00","2022","06","04","16:00","24.6","","0.0","","19","","","","16","","18","","24.1","","98.77","","","","","","NA"
"-111.96","60.02","FORT SMITH A","2202201","2022-06-04 17:00","2022","06","04","17:00","24.3","","0.7","","21","","","","14","","17","","24.1","","98.77","","","","","","Clear"
"-111.96","60.02","FORT SMITH A","2202201","2022-06-04 18:00","2022","06","04","18:00","24.0","","0.5","","21","","","","15","","19","","24.1","","98.77","","","","","","NA"
"-111.96","60.02","FORT SMITH A","2202201","2022-06-04 19:00","2022","06","04","19:00","23.1","","0.4","","22","","","","13","","18","","24.1","","98.77","","","","","","NA"
"-111.96","60.02","FORT SMITH A","2202201","2022-06-04 20:00","2022","06","04","20:00","22.0","","1.8","","26","","","","13","","16","","24.1","","98.78","","","","","","Clear"
"-111.96","60.02","FORT SMITH A","2202201","2022-06-04 21:00","2022","06","04","21:00","20.0","","2.1","","30","","","","12","","10","","24.1","","98.81","","","","","","NA"
"-111.96","60.02","FORT SMITH A","2202201","2022-06-04 22:00","2022","06","04","22:00","18.2","","2.2","","34","","","","12","","9","","24.1","","98.84","","","","","","NA"
"-111.96","60.02","FORT SMITH A","2202201","2022-06-04 23:00","2022","06","04","23:00","17.1","","2.0","","36","","","","12","","9","","24.1","","98.88","","","","","","Clear"
"-111.96","60.02","FORT SMITH A","2202201","2022-06-05 00:00","2022","06","05","00:00","15.9","","1.9","","39","","","","13","","11","","24.1","","98.91","","","","","","NA"
"-111.96","60.02","FORT SMITH A","2202201","2022-06-05 01:00","2022","06","05","01:00","15.6","","2.2","","40","","","","12","","11","","24.1","","98.95","","","","","","NA"
"-111.96","60.02","FORT SMITH A","2202201","2022-06-05 02:00","2022","06","05","02:00","15.1","","2.3","","42","","","","13","","14","","24.1","","98.97","","","","","","Clear"
"-111.96","60.02","FORT SMITH A","2202201","2022-06-05 03:00","2022","06","05","03:00","14.1","","2.4","","45","","","","13","","11","","24.1","","99.00","","","","","","NA"
"-111.96","60.02","FORT SMITH A","2202201","2022-06-05 04:00","2022","06","05","04:00","13.4","","2.8","","48","","","","13","","10","","24.1","","99.03","","","","","","NA"
"-111.96","60.02","FORT SMITH A","2202201","2022-06-05 05:00","2022","06","05","05:00","14.1","","3.1","","47","","","","13","","13","","24.1","","99.07","","","","","","Clear"
"-111.96","60.02","FORT SMITH A","2202201","2022-06-05 06:00","2022","06","05","06:00","15.0","","3.4","","46","","","","14","","16","","24.1","","99.09","","","","","","NA"
"-111.96","60.02","FORT SMITH A","2202201","2022-06-05 07:00","2022","06","05","07:00","16.9","","3.4","","40","","","","14","","13","","24.1","","99.08","","","","","","NA"
"-111.96","60.02","FORT SMITH A","2202201","2022-06-05 08:00","2022","06","05","08:00","18.9","","4.2","","37","","","","15","","13","","24.1","","99.07","","","","","","Clear"
"-111.96","60.02","FORT SMITH A","2202201","2022-06-05 09:00","2022","06","05","09:00","20.5","","4.1","","34","","","","15","","11","","24.1","","99.06","","","","","","NA"
"-111.96","60.02","FORT SMITH A","2202201","2022-06-05 10:00","2022","06","05","10:00","21.8","","3.5","","30","","","","14","","18","","24.1","","99.06","","","","","","NA"
"-111.96","60.02","FORT SMITH A","2202201","2022-06-05 11:00","2022","06","05","11:00","22.5","","3.4","","28","","","","15","","14","","24.1","","99.06","","","","","","Mainly Clear"
"-111.96","60.02","FORT SMITH A","2202201","2022-06-05 12:00","2022","06","05","12:00","23.0","","2.8","","26","","","","12","","13","","24.1","","99.06","","","","","","NA"
"-111.96","60.02","FORT SMITH A","2202201","2022-06-05 13:00","2022","06","05","13:00","23.0","","2.0","","25","","","","14","","19","","24.1","","99.04","","","","","","NA"
"-111.96","60.02","FORT SMITH A","2202201","2022-06-05 14:00","2022","06","05","14:00","23.4","","0.7","","22","","","","13","","18","","24.1","","99.04","","","","","","Mainly Clear"
"-111.96","60.02","FORT SMITH A","2202201","2022-06-05 15:00","2022","06","05","15:00","23.8","","-0.7","","19","","","","14","","17","","24.1","","99.01","","","","","","NA"
"-111.96","60.02","FORT SMITH A","2202201","2022-06-05 16:00","2022","06","05","16:00","23.6","","0.4","","21","","","","14","","16","","24.1","","99.01","","","","","","NA"
"-111.96","60.02","FORT SMITH A","2202201","2022-06-05 17:00","2022","06","05","17:00","23.2","","0.8","","23","","","","12","","13","","24.1","","98.99","","","","","","Mainly Clear"
"-111.96","60.02","FORT SMITH A","2202201","2022-06-05 18:00","2022","06","05","18:00","22.9","","2.5","","26","","","","13","","17","","24.1","","98.98","","","","","","NA"
"-111.96","60.02","FORT SMITH A","2202201","2022-06-05 19:00","2022","06","05","19:00","21.9","","3.1","","29","","","","14","","15","","24.1","","99.01","","","","","","NA"
"-111.96","60.02","FORT SMITH A","2202201","2022-06-05 20:00","2022","06","05","20:00","20.3","","3.9","","34","","","","13","","15","","24.1","","99.04","","","","","","Mainly Clear"
"-111.96","60.02","FORT SMITH A","2202201","2022-06-05 21:00","2022","06","05","21:00","18.3","","4.7","","40","","","","12","","9","","24.1","","99.07","","","","","","NA"
"-111.96","60.02","FORT SMITH A","2202201","2022-06-05 22:00","2022","06","05","22:00","16.7","","3.1","","40","","","","12","","7","","24.1","","99.08","","","","","","NA"
"-111.96","60.02","FORT SMITH A","2202201","2022-06-05 23:00","2022","06","05","23:00","15.4","","3.4","","44","","","","12","","7","","24.1","","99.09","","","","","","Mainly Clear"
"-111.96","60.02","FORT SMITH A","2202201","2022-06-06 00:00","2022","06","06","00:00","14.6","","3.1","","46","","","","12","","8","","24.1","","99.10","","","","","","NA"
"-111.96","60.02","FORT SMITH A","2202201","2022-06-06 01:00","2022","06","06","01:00","13.9","","2.7","","47","","","","11","","8","","24.1","","99.13","","","","","","NA"
"-111.96","60.02","FORT SMITH A","2202201","2022-06-06 02:00","2022","06","06","02:00","13.2","","2.5","","48","","","","11","","9","","24.1","","99.15","","","","","","Mainly Clear"
"-111.96","60.02","FORT SMITH A","2202201","2022-06-06 03:00","2022","06","06","03:00","12.0","","2.8","","53","","","","11","","5","","24.1","","99.16","","","","","","NA"
"-111.96","60.02","FORT SMITH A","2202201","2022-06-06 04:00","2022","06","06","04:00","11.7","","3.0","","55","","","","13","","9","","24.1","","99.17","","","","","","NA"
"-111.96","60.02","FORT SMITH A","2202201","2022-06-06 05:00","2022","06","06","05:00","12.1","","3.3","","55","","","","13","","8","","24.1","","99.19","","","","","","Mainly Clear"
"-111.96","60.02","FORT SMITH A","2202201","2022-06-06 06:00","2022","06","06","06:00","13.1","","4.0","","54","","","","14","","16","","24.1","","99.21","","","","","","NA"
"-111.96","60.02","FORT SMITH A","2202201","2022-06-06 07:00","2022","06","06","07:00","14.8","","5.0","","52","","","","14","","12","","24.1","","99.21","","","","","","NA"
"-111.96","60.02","FORT SMITH A","2202201","2022-06-06 08:00","2022","06","06","08:00","16.6","","4.9","","46","","","","16","","12","","24.1","","99.21","","","","","","Mainly Clear"
"-111.96","60.02","FORT SMITH A","2202201","2022-06-06 09:00","2022","06","06","09:00","18.5","","5.0","","41","","","","13","","11","","24.1","","99.20","","","","","","NA"
"-111.96","60.02","FORT SMITH A","2202201","2022-06-06 10:00","2022","06","06","10:00","19.8","","3.9","","35","","","","14","","15","","24.1","","99.20","","","","","","NA"
"-111.96","60.02","FORT SMITH A","2202201","2022-06-06 11:00","2022","06","06","11:00","20.6","","2.9","","31","","","","14","","20","","24.1","","99.19","","","","","","Mainly Clear"
"-111.96","60.02","FORT SMITH A","2202201","2022-06-06 12:00","2022","06","06","12:00","21.1","","4.3","","33","","","","16","","12","","24.1","","99.18","","","","","","NA"
"-111.96","60.02","FORT SMITH A","2202201","2022-06-06 13:00","2022","06","06","13:00","21.8","","3.3","","29","","","","9","","17","","24.1","","99.16","","","","","","NA"
"-111.96","60.02","FORT SMITH A","2202201","2022-06-06 14:00","2022","06","06","14:00","22.1","","4.1","","30","","","","14","","14","","24.1","","99.15","","","","","","Mainly Clear"
"-111.96","60.02","FORT SMITH A","2202201","2022-06-06 15:00","2022","06","06","15:00","21.8","","3.5","","30","","","","10","","13","","24.1","","99.15","","","","","","NA"
"-111.96","60.02","FORT SMITH A","2202201","2022-06-06 16:00","2022","06","06","16:00","22.1","","2.9","","28","","","","10","","10","","24.1","","99.14","","","","","","NA"
"-111.96","60.02","FORT SMITH A","2202201","2022-06-06 17:00","2022","06","06","17:00","22.0","","2.7","","28","","","","10","","9","","24.1","","99.13","","","","","","Mainly Clear"
"-111.96","60.02","FORT SMITH A","2202201","2022-06-06 18:00","2022","06","06","18:00","22.0","","1.6","","26","","","","13","","5","","24.1","","99.13","","","","","","NA"
"-111.96","60.02","FORT SMITH A","2202201","2022-06-06 19:00","2022","06","06","19:00","21.7","","2.5","","28","","","","9","","7","","24.1","","99.12","","","","","","NA"
"-111.96","60.02","FORT SMITH A","2202201","2022-06-06 20:00","2022","06","06","20:00","20.9","","2.4","","29","","","","12","","6","","24.1","","99.13","","","","","","Mainly Clear"
"-111.96","60.02","FORT SMITH A","2202201","2022-06-06 21:00","2022","06","06","21:00","18.8","","3.3","","35","","","","11","","4","","24.1","","99.17","","","","","","NA"
"-111.96","60.02","FORT SMITH A","2202201","2022-06-06 22:00","2022","06","06","22:00","17.1","","3.9","","41","","","","12","","6","","24.1","","99.18","","","","","","NA"
"-111.96","60.02","FORT SMITH A","2202201","2022-06-06 23:00","2022","06","06","23:00","15.5","","3.9","","46","","","","12","","7","","24.1","","99.19","","","","","","Mainly Clear"
"-111.96","60.02","FORT SMITH A","2202201","2022-06-07 00:00","2022","06","07","00:00","14.1","","3.2","","48","","","","12","","5","","24.1","","99.22","","","","","","NA"
"-111.96","60.02","FORT SMITH A","2202201","2022-06-07 01:00","2022","06","07","01:00","10.7","","3.6","","61","","","","11","","4","","24.1","","99.22","","","","","","NA"
"-111.96","60.02","FORT SMITH A","2202201","2022-06-07 02:00","2022","06","07","02:00","10.2","","3.5","","63","","","","13","","5","","24.1","","99.23","","","","","","Mainly Clear"
"-111.96","60.02","FORT SMITH A","2202201","2022-06-07 03:00","2022","06","07","03:00","8.3","","3.3","","71","","","","10","","3","","24.1","","99.23","","","","","","NA"
"-111.96","60.02","FORT SMITH A","2202201","2022-06-07 04:00","2022","06","07","04:00","9.0","","4.4","","73","","","","14","","5","","24.1","","99.24","","","","","","NA"
"-111.96","60.02","FORT SMITH A","2202201","2022-06-07 05:00","2022","06","07","05:00","12.3","","4.1","","57","","","","14","","8","","24.1","","99.24","","","","","","Clear"
"-111.96","60.02","FORT SMITH A","2202201","2022-06-07 06:00","2022","06","07","06:00","14.0","","4.9","","54","","","","14","","9","","24.1","","99.25","","","","","","NA"
"-111.96","60.02","FORT SMITH A","2202201","2022-06-07 07:00","2022","06","07","07:00","16.9","","6.0","","48","","","","16","","10","","24.1","","99.26","","","","","","NA"
"-111.96","60.02","FORT SMITH A","2202201","2022-06-07 08:00","2022","06","07","08:00","19.6","","6.0","","41","","","","14","","10","","24.1","","99.26","","","","","","Clear"
"-111.96","60.02","FORT SMITH A","2202201","2022-06-07 09:00","2022","06","07","09:00","22.2","","4.7","","31","","","","14","","16","","24.1","","99.24","","","","","","NA"
"-111.96","60.02","FORT SMITH A","2202201","2022-06-07 10:00","2022","06","07","10:00","23.0","","2.9","","27","","","","18","","13","","24.1","","99.23","","","","","","NA"
"-111.96","60.02","FORT SMITH A","2202201","2022-06-07 11:00","2022","06","07","11:00","23.5","","2.6","","25","","","","13","","12","","24.1","","99.22","","","","","","Clear"
"-111.96","60.02","FORT SMITH A","2202201","2022-06-07 12:00","2022","06","07","12:00","23.6","","2.7","","25","","","","11","","5","","24.1","","99.19","","","","","","NA"
"-111.96","60.02","FORT SMITH A","2202201","2022-06-07 13:00","2022","06","07","13:00","24.3","","2.5","","24","","","","24","","12","","24.1","","99.19","","","","","","NA"
"-111.96","60.02","FORT SMITH A","2202201","2022-06-07 14:00","2022","06","07","14:00","24.7","","0.9","","21","","","","20","","8","","24.1","","99.15","","","","","","Clear"
"-111.96","60.02","FORT SMITH A","2202201","2022-06-07 15:00","2022","06","07","15:00","25.0","","1.1","","21","","","","19","","16","","24.1","","99.14","","","","","","NA"
"-111.96","60.02","FORT SMITH A","2202201","2022-06-07 16:00","2022","06","07","16:00","25.5","","0.9","","20","","","","21","","13","","24.1","","99.10","","","","","","NA"
"-111.96","60.02","FORT SMITH A","2202201","2022-06-07 17:00","2022","06","07","17:00","25.1","","1.2","","21","","","","25","","5","","24.1","","99.07","","","","","","Clear"
"-111.96","60.02","FORT SMITH A","2202201","2022-06-07 18:00","2022","06","07","18:00","25.2","","1.4","","21","","","","10","","9","","24.1","","99.04","","","","","","NA"
"-111.96","60.02","FORT SMITH A","2202201","2022-06-07 19:00","2022","06","07","19:00","24.8","","1.1","","21","","","","12","","8","","24.1","","99.04","","","","","","NA"
"-111.96","60.02","FORT SMITH A","2202201","2022-06-07 20:00","2022","06","07","20:00","23.6","","1.2","","23","","","","14","","9","","24.1","","99.05","","","","","","Clear"
"-111.96","60.02","FORT SMITH A","2202201","2022-06-07 21:00","2022","06","07","21:00","21.6","","1.9","","27","","","","12","","5","","24.1","","99.05","","","","","","NA"
"-111.96","60.02","FORT SMITH A","2202201","2022-06-07 22:00","2022","06","07","22:00","16.7","","3.0","","40","","","","12","","5","","24.1","","99.05","","","","","","NA"
"-111.96","60.02","FORT SMITH A","2202201","2022-06-07 23:00","2022","06","07","23:00","16.5","","2.3","","38","","","","13","","8","","24.1","","99.05","","","","","","Mainly Clear"
"-111.96","60.02","FORT SMITH A","2202201","2022-06-08 00:00","2022","06","08","00:00","14.3","","3.2","","47","","","","14","","6","","24.1","","99.08","","","","","","NA"
"-111.96","60.02","FORT SMITH A","2202201","2022-06-08 01:00","2022","06","08","01:00","10.1","","3.3","","62","","","","36","","2","","24.1","","99.08","","","","","","NA"
"-111.96","60.02","FORT SMITH A","2202201","2022-06-08 02:00","2022","06","08","02:00","8.9","","2.8","","65","","","","36","","3","","24.1","","99.06","","","","","","Clear"
"-111.96","60.02","FORT SMITH A","2202201","2022-06-08 03:00","2022","06","08","03:00","13.7","","3.6","","50","","","","12","","4","","24.1","","99.03","","","","","","NA"
"-111.96","60.02","FORT SMITH A","2202201","2022-06-08 04:00","2022","06","08","04:00","13.4","","3.5","","51","","","","12","","5","","24.1","","99.02","","","","","","NA"
"-111.96","60.02","FORT SMITH A","2202201","2022-06-08 05:00","2022","06","08","05:00","15.1","","3.1","","44","","","","13","","8","","24.1","","99.01","","","","","","Clear"
"-111.96","60.02","FORT SMITH A","2202201","2022-06-08 06:00","2022","06","08","06:00","16.9","","3.2","","40","","","","13","","8","","24.1","","98.99","","","","","","NA"
"-111.96","60.02","FORT SMITH A","2202201","2022-06-08 07:00","2022","06","08","07:00","18.9","","4.1","","37","","","","13","","14","","24.1","","98.97","","","","","","NA"
"-111.96","60.02","FORT SMITH A","2202201","2022-06-08 08:00","2022","06","08","08:00","21.0","","4.6","","34","","","","14","","14","","24.1","","98.95","","","","","","Clear"
"-111.96","60.02","FORT SMITH A","2202201","2022-06-08 09:00","2022","06","08","09:00","23.2","","3.7","","28","","","","12","","18","","24.1","","98.92","","","","","","NA"
"-111.96","60.02","FORT SMITH A","2202201","2022-06-08 10:00","2022","06","08","10:00","24.4","","2.7","","24","","","","16","","31","","24.1","","98.87","","","","","","NA"
"-111.96","60.02","FORT SMITH A","2202201","2022-06-08 11:00","2022","06","08","11:00","25.0","","2.7","","23","","","","13","","21","","24.1","","98.83","","","","","","Clear"
"-111.96","60.02","FORT SMITH A","2202201","2022-06-08 12:00","2022","06","08","12:00","25.4","","2.7","","22","","","","14","","26","","24.1","","98.80","","","","","","NA"
"-111.96","60.02","FORT SMITH A","2202201","2022-06-08 13:00","2022","06","08","13:00","26.1","","2.5","","21","","","","16","","23","","24.1","","98.76","","25","","","","NA"
"-111.96","60.02","FORT SMITH A","2202201","2022-06-08 14:00","2022","06","08","14:00","25.9","","2.6","","22","","","","14","","16","","24.1","","98.73","","","","","","Clear"
"-111.96","60.02","FORT SMITH A","2202201","2022-06-08 15:00","2022","06","08","15:00","26.0","","1.9","","21","","","","16","","16","","24.1","","98.71","","","","","","NA"
"-111.96","60.02","FORT SMITH A","2202201","2022-06-08 16:00","2022","06","08","16:00","25.8","","1.5","","20","","","","15","","10","","24.1","","98.66","","","","","","NA"
"-111.96","60.02","FORT SMITH A","2202201","2022-06-08 17:00","2022","06","08","17:00","26.1","","1.8","","20","","","","13","","15","","24.1","","98.59","","","","","","Clear"
"-111.96","60.02","FORT SMITH A","2202201","2022-06-08 18:00","2022","06","08","18:00","25.9","","1.4","","20","","","","9","","16","","24.1","","98.55","","","","","","NA"
"-111.96","60.02","FORT SMITH A","2202201","2022-06-08 19:00","2022","06","08","19:00","25.3","","1.2","","20","","","","11","","10","","24.1","","98.53","","","","","","NA"
"-111.96","60.02","FORT SMITH A","2202201","2022-06-08 20:00","2022","06","08","20:00","23.9","","1.6","","23","","","","13","","9","","24.1","","98.53","","","","","","Clear"
"-111.96","60.02","FORT SMITH A","2202201","2022-06-08 21:00","2022","06","08","21:00","22.2","","1.8","","26","","","","12","","11","","24.1","","98.55","","","","","","NA"
"-111.96","60.02","FORT SMITH A","2202201","2022-06-08 22:00","2022","06","08","22:00","20.0","","1.7","","29","","","","11","","5","","24.1","","98.55","","","","","","NA"
"-111.96","60.02","FORT SMITH A","2202201","2022-06-08 23:00","2022","06","08","23:00","18.5","","2.4","","34","","","","12","","5","","24.1","","98.56","","","","","","Clear"
"-111.96","60.02","FORT SMITH A","2202201","2022-06-09 00:00","2022","06","09","00:00","17.9","","2.0","","34","","","","12","","8","","24.1","","98.54","","","","","","NA"
"-111.96","60.02","FORT SMITH A","2202201","2022-06-09 01:00","2022","06","09","01:00","17.1","","1.6","","35","","","","11","","7","","24.1","","98.50","","","","","","NA"
"-111.96","60.02","FORT SMITH A","2202201","2022-06-09 02:00","2022","06","09","02:00","15.9","","2.0","","39","","","","12","","7","","24.1","","98.49","","","","","","Clear"
"-111.96","60.02","FORT SMITH A","2202201","2022-06-09 03:00","2022","06","09","03:00","14.7","","3.0","","45","","","","12","","6","","24.1","","98.48","","","","","","NA"
"-111.96","60.02","FORT SMITH A","2202201","2022-06-09 04:00","2022","06","09","04:00","14.8","","3.2","","46","","","","12","","7","","24.1","","98.48","","","","","","NA"
"-111.96","60.02","FORT SMITH A","2202201","2022-06-09 05:00","2022","06","09","05:00","14.7","","3.7","","47","","","","14","","7","","24.1","","98.49","","","","","","Mainly Clear"
"-111.96","60.02","FORT SMITH A","2202201","2022-06-09 06:00","2022","06","09","06:00","15.8","","4.4","","46","","","","14","","9","","24.1","","98.48","","","","","","NA"
"-111.96","60.02","FORT SMITH A","2202201","2022-06-09 07:00","2022","06","09","07:00","18.3","","5.7","","43","","","","15","","10","","24.1","","98.49","","","","","","NA"
"-111.96","60.02","FORT SMITH A","2202201","2022-06-09 08:00","2022","06","09","08:00","20.6","","6.0","","38","","","","14","","9","","24.1","","98.47","","","","","","Mainly Clear"
"-111.96","60.02","FORT SMITH A","2202201","2022-06-09 09:00","2022","06","09","09:00","21.6","","6.7","","38","","","","8","","13","","24.1","","98.44","","","","","","NA"
"-111.96","60.02","FORT SMITH A","2202201","2022-06-09 10:00","2022","06","09","10:00","24.1","","7.2","","33","","","","15","","12","","24.1","","98.41","","","","","","NA"
"-111.96","60.02","FORT SMITH A","2202201","2022-06-09 11:00","2022","06","09","11:00","25.9","","7.1","","30","","","","13","","12","","24.1","","98.36","","26","","","","Mainly Clear"
"-111.96","60.02","FORT SMITH A","2202201","2022-06-09 12:00","2022","06","09","12:00","26.3","","5.6","","26","","","","21","","13","","24.1","","98.32","","26","","","","NA"
"-111.96","60.02","FORT SMITH A","2202201","2022-06-09 13:00","2022","06","09","13:00","25.6","","4.9","","26","","","","13","","16","","24.1","","98.32","","25","","","","NA"
"-111.96","60.02","FORT SMITH A","2202201","2022-06-09 14:00","2022","06","09","14:00","26.1","","4.3","","24","","","","13","","12","","24.1","","98.27","","25","","","","Mostly Cloudy"
"-111.96","60.02","FORT SMITH A","2202201","2022-06-09 15:00","2022","06","09","15:00","26.9","","4.2","","23","","","","15","","23","","24.1","","98.23","","26","","","","NA"
"-111.96","60.02","FORT SMITH A","2202201","2022-06-09 16:00","2022","06","09","16:00","26.8","","4.0","","23","","","","14","","15","","24.1","","98.17","","26","","","","NA"
"-111.96","60.02","FORT SMITH A","2202201","2022-06-09 17:00","2022","06","09","17:00","25.5","","5.1","","26","","","","14","","13","","24.1","","98.17","","25","","","","Mostly Cloudy"
"-111.96","60.02","FORT SMITH A","2202201","2022-06-09 18:00","2022","06","09","18:00","23.4","","7.3","","35","","","","15","","12","","24.1","","98.15","","","","","","Rain Showers"
"-111.96","60.02","FORT SMITH A","2202201","2022-06-09 19:00","2022","06","09","19:00","24.1","","6.3","","31","","","","18","","35","","24.1","","98.17","","","","","","NA"
"-111.96","60.02","FORT SMITH A","2202201","2022-06-09 20:00","2022","06","09","20:00","21.3","","7.5","","40","","","","18","","10","","24.1","","98.18","","","","","","Mostly Cloudy"
"-111.96","60.02","FORT SMITH A","2202201","2022-06-09 21:00","2022","06","09","21:00","19.1","","8.3","","49","","","","13","","3","","24.1","","98.16","","","","","","NA"
"-111.96","60.02","FORT SMITH A","2202201","2022-06-09 22:00","2022","06","09","22:00","17.2","","8.4","","56","","","","11","","4","","24.1","","98.15","","","","","","NA"
"-111.96","60.02","FORT SMITH A","2202201","2022-06-09 23:00","2022","06","09","23:00","17.6","","8.4","","54","","","","13","","9","","24.1","","98.13","","","","","","Mainly Clear"
"-111.96","60.02","FORT SMITH A","2202201","2022-06-10 00:00","2022","06","10","00:00","17.8","","7.8","","52","","","","14","","13","","24.1","","98.10","","","","","","NA"
"-111.96","60.02","FORT SMITH A","2202201","2022-06-10 01:00","2022","06","10","01:00","17.5","","7.7","","52","","","","14","","13","","24.1","","98.08","","","","","","NA"
"-111.96","60.02","FORT SMITH A","2202201","2022-06-10 02:00","2022","06","10","02:00","16.7","","7.7","","55","","","","14","","12","","24.1","","98.07","","","","","","Mainly Clear"
"-111.96","60.02","FORT SMITH A","2202201","2022-06-10 03:00","2022","06","10","03:00","15.9","","7.5","","57","","","","13","","7","","24.1","","98.03","","","","","","NA"
"-111.96","60.02","FORT SMITH A","2202201","2022-06-10 04:00","2022","06","10","04:00","15.7","","7.6","","58","","","","14","","14","","24.1","","98.00","","","","","","NA"
"-111.96","60.02","FORT SMITH A","2202201","2022-06-10 05:00","2022","06","10","05:00","16.3","","8.0","","58","","","","15","","6","","24.1","","97.99","","","","","","Mostly Cloudy"
"-111.96","60.02","FORT SMITH A","2202201","2022-06-10 06:00","2022","06","10","06:00","17.6","","8.8","","56","","","","14","","15","","24.1","","97.95","","","","","","NA"
"-111.96","60.02","FORT SMITH A","2202201","2022-06-10 07:00","2022","06","10","07:00","18.2","","8.9","","54","","","","14","","18","","24.1","","97.92","","","","","","NA"
"-111.96","60.02","FORT SMITH A","2202201","2022-06-10 08:00","2022","06","10","08:00","19.6","","9.3","","51","","","","13","","17","","24.1","","97.87","","","","","","Mainly Clear"
"-111.96","60.02","FORT SMITH A","2202201","2022-06-10 09:00","2022","06","10","09:00","21.4","","9.8","","47","","","","12","","10","","24.1","","97.83","","","","","","NA"
"-111.96","60.02","FORT SMITH A","2202201","2022-06-10 10:00","2022","06","10","10:00","21.1","","9.7","","48","","","","14","","16","","24.1","","97.79","","","","","","NA"
"-111.96","60.02","FORT SMITH A","2202201","2022-06-10 11:00","2022","06","10","11:00","22.9","","10.7","","45","","","","14","","16","","24.1","","97.76","","25","","","","Mainly Clear"
"-111.96","60.02","FORT SMITH A","2202201","2022-06-10 12:00","2022","06","10","12:00","23.9","","10.3","","42","","","","12","","14","","24.1","","97.73","","25","","","","NA"
"-111.96","60.02","FORT SMITH A","2202201","2022-06-10 13:00","2022","06","10","13:00","25.5","","9.4","","36","","","","16","","17","","24.1","","97.68","","27","","","","NA"
"-111.96","60.02","FORT SMITH A","2202201","2022-06-10 14:00","2022","06","10","14:00","24.8","","10.4","","40","","","","9","","13","","24.1","","97.63","","26","","","","Mostly Cloudy"
"-111.96","60.02","FORT SMITH A","2202201","2022-06-10 15:00","2022","06","10","15:00","25.1","","8.2","","34","","","","18","","11","","24.1","","97.61","","26","","","","NA"
"-111.96","60.02","FORT SMITH A","2202201","2022-06-10 16:00","2022","06","10","16:00","18.1","","11.2","","64","","","","15","","19","","19.3","","97.79","","","","","","Thunderstorms,Rain Showers"
"-111.96","60.02","FORT SMITH A","2202201","2022-06-10 17:00","2022","06","10","17:00","16.1","","11.8","","75","","","","12","","8","","24.1","","97.78","","","","","","Thunderstorms"
"-111.96","60.02","FORT SMITH A","2202201","2022-06-10 18:00","2022","06","10","18:00","18.5","","9.7","","56","","","","12","","12","","24.1","","97.81","","","","","","NA"
"-111.96","60.02","FORT SMITH A","2202201","2022-06-10 19:00","2022","06","10","19:00","17.9","","10.2","","61","","","","11","","9","","24.1","","97.74","","","","","","NA"
"-111.96","60.02","FORT SMITH A","2202201","2022-06-10 20:00","2022","06","10","20:00","18.3","","11.4","","63","","","","14","","16","","24.1","","97.79","","","","","","Mostly Cloudy"
"-111.96","60.02","FORT SMITH A","2202201","2022-06-10 21:00","2022","06","10","21:00","17.2","","12.2","","72","","","","15","","12","","24.1","","97.78","","","","","","NA"
"-111.96","60.02","FORT SMITH A","2202201","2022-06-10 22:00","2022","06","10","22:00","16.1","","11.6","","75","","","","14","","11","","24.1","","97.78","","","","","","NA"
"-111.96","60.02","FORT SMITH A","2202201","2022-06-10 23:00","2022","06","10","23:00","15.3","","10.6","","73","","","","14","","14","","24.1","","97.79","","","","","","Mostly Cloudy"
"-111.96","60.02","FORT SMITH A","2202201","2022-06-11 00:00","2022","06","11","00:00","15.2","","10.9","","75","","","","14","","15","","24.1","","97.78","","","","","","NA"
"-111.96","60.02","FORT SMITH A","2202201","2022-06-11 01:00","2022","06","11","01:00","14.3","","11.2","","82","","","","12","","10","","24.1","","97.76","","","","","","NA"
"-111.96","60.02","FORT SMITH A","2202201","2022-06-11 02:00","2022","06","11","02:00","14.3","","11.2","","82","","","","13","","13","","24.1","","97.78","","","","","","Mostly Cloudy"
"-111.96","60.02","FORT SMITH A","2202201","2022-06-11 03:00","2022","06","11","03:00","13.7","","11.0","","84","","","","14","","10","","24.1","","97.80","","","","","","NA"
"-111.96","60.02","FORT SMITH A","2202201","2022-06-11 04:00","2022","06","11","04:00","13.8","","11.1","","83","","","","13","","13","","24.1","","97.79","","","","","","NA"
"-111.96","60.02","FORT SMITH A","2202201","2022-06-11 05:00","2022","06","11","05:00","14.0","","11.2","","83","","","","12","","9","","24.1","","97.78","","","","","","Mostly Cloudy"
"-111.96","60.02","FORT SMITH A","2202201","2022-06-11 06:00","2022","06","11","06:00","15.6","","11.2","","75","","","","9","","9","","24.1","","97.76","","","","","","NA"
"-111.96","60.02","FORT SMITH A","2202201","2022-06-11 07:00","2022","06","11","07:00","15.8","","11.2","","74","","","","13","","9","","24.1","","97.72","","","","","","NA"
"-111.96","60.02","FORT SMITH A","2202201","2022-06-11 08:00","2022","06","11","08:00","16.2","","10.8","","70","","","","13","","14","","24.1","","97.72","","","","","","Mostly Cloudy"
"-111.96","60.02","FORT SMITH A","2202201","2022-06-11 09:00","2022","06","11","09:00","15.6","","11.3","","75","","","","13","","13","","24.1","","97.72","","","","","","NA"
"-111.96","60.02","FORT SMITH A","2202201","2022-06-11 10:00","2022","06","11","10:00","17.1","","11.2","","68","","","","13","","22","","24.1","","97.69","","","","","","NA"
"-111.96","60.02","FORT SMITH A","2202201","2022-06-11 11:00","2022","06","11","11:00","17.8","","10.8","","64","","","","14","","20","","24.1","","97.68","","","","","","Mostly Cloudy"
"-111.96","60.02","FORT SMITH A","2202201","2022-06-11 12:00","2022","06","11","12:00","18.1","","10.5","","61","","","","14","","23","","24.1","","97.68","","","","","","NA"
"-111.96","60.02","FORT SMITH A","2202201","2022-06-11 13:00","2022","06","11","13:00","19.6","","8.7","","49","","","","14","","34","","24.1","","97.67","","","","","","NA"
"-111.96","60.02","FORT SMITH A","2202201","2022-06-11 14:00","2022","06","11","14:00","19.3","","8.9","","50","","","","15","","33","","24.1","","97.65","","","","","","Mostly Cloudy"
"-111.96","60.02","FORT SMITH A","2202201","2022-06-11 15:00","2022","06","11","15:00","19.2","","9.0","","51","","","","15","","25","","24.1","","97.66","","","","","","NA"
"-111.96","60.02","FORT SMITH A","2202201","2022-06-11 16:00","2022","06","11","16:00","18.7","","9.1","","53","","","","13","","23","","24.1","","97.64","","","","","","NA"
"-111.96","60.02","FORT SMITH A","2202201","2022-06-11 17:00","2022","06","11","17:00","18.6","","8.7","","52","","","","13","","16","","24.1","","97.63","","","","","","Mostly Cloudy"
"-111.96","60.02","FORT SMITH A","2202201","2022-06-11 18:00","2022","06","11","18:00","18.1","","8.8","","54","","","","14","","16","","24.1","","97.65","","","","","","NA"
"-111.96","60.02","FORT SMITH A","2202201","2022-06-11 19:00","2022","06","11","19:00","17.6","","9.2","","58","","","","13","","13","","24.1","","97.62","","","","","","NA"
"-111.96","60.02","FORT SMITH A","2202201","2022-06-11 20:00","2022","06","11","20:00","16.6","","9.7","","64","","","","8","","9","","24.1","","97.58","","","","","","Mostly Cloudy"
"-111.96","60.02","FORT SMITH A","2202201","2022-06-11 21:00","2022","06","11","21:00","15.5","","9.6","","68","","","","13","","12","","24.1","","97.62","","","","","","NA"
"-111.96","60.02","FORT SMITH A","2202201","2022-06-11 22:00","2022","06","11","22:00","14.0","","9.9","","76","","","","13","","5","","24.1","","97.64","","","","","","NA"
"-111.96","60.02","FORT SMITH A","2202201","2022-06-11 23:00","2022","06","11","23:00","13.3","","10.1","","81","","","","13","","8","","24.1","","97.66","","","","","","Mostly Cloudy"
"-111.96","60.02","FORT SMITH A","2202201","2022-06-12 00:00","2022","06","12","00:00","11.8","","9.5","","86","","","","36","","3","","24.1","","97.65","","","","","","NA"
"-111.96","60.02","FORT SMITH A","2202201","2022-06-12 01:00","2022","06","12","01:00","12.1","","9.9","","86","","","","12","","4","","24.1","","97.60","","","","","","NA"
"-111.96","60.02","FORT SMITH A","2202201","2022-06-12 02:00","2022","06","12","02:00","11.1","","9.8","","91","","","","11","","4","","24.1","","97.57","","","","","","Mainly Clear"
"-111.96","60.02","FORT SMITH A","2202201","2022-06-12 03:00","2022","06","12","03:00","9.7","","9.1","","96","","","","15","","4","","24.1","","97.58","","","","","","NA"
"-111.96","60.02","FORT SMITH A","2202201","2022-06-12 04:00","2022","06","12","04:00","9.7","","8.6","","93","","","","15","","9","","24.1","","97.62","","","","","","NA"
"-111.96","60.02","FORT SMITH A","2202201","2022-06-12 05:00","2022","06","12","05:00","10.4","","9.5","","94","","","","17","","5","","24.1","","97.62","","","","","","Mostly Cloudy"
"-111.96","60.02","FORT SMITH A","2202201","2022-06-12 06:00","2022","06","12","06:00","12.4","","10.5","","88","","","","15","","8","","24.1","","97.60","","","","","","NA"
"-111.96","60.02","FORT SMITH A","2202201","2022-06-12 07:00","2022","06","12","07:00","15.1","","11.3","","78","","","","18","","7","","24.1","","97.59","","","","","","NA"
"-111.96","60.02","FORT SMITH A","2202201","2022-06-12 08:00","2022","06","12","08:00","17.0","","11.5","","70","","","","14","","11","","24.1","","97.57","","","","","","Mostly Cloudy"
"-111.96","60.02","FORT SMITH A","2202201","2022-06-12 09:00","2022","06","12","09:00","18.4","","11.2","","63","","","","23","","7","","24.1","","97.57","","","","","","NA"
"-111.96","60.02","FORT SMITH A","2202201","2022-06-12 10:00","2022","06","12","10:00","19.6","","10.2","","54","","","","20","","11","","24.1","","97.55","","","","","","NA"
"-111.96","60.02","FORT SMITH A","2202201","2022-06-12 11:00","2022","06","12","11:00","21.6","","9.6","","46","","","","12","","4","","24.1","","97.54","","","","","","Mainly Clear"
"-111.96","60.02","FORT SMITH A","2202201","2022-06-12 12:00","2022","06","12","12:00","22.8","","9.2","","41","","","","36","","2","","24.1","","97.53","","","","","","NA"
"-111.96","60.02","FORT SMITH A","2202201","2022-06-12 13:00","2022","06","12","13:00","23.0","","7.2","","36","","","","15","","5","","24.1","","97.48","","","","","","NA"
"-111.96","60.02","FORT SMITH A","2202201","2022-06-12 14:00","2022","06","12","14:00","23.9","","6.3","","32","","","","24","","9","","24.1","","97.50","","","","","","Mostly Cloudy"
"-111.96","60.02","FORT SMITH A","2202201","2022-06-12 15:00","2022","06","12","15:00","24.7","","5.9","","29","","","","28","","17","","24.1","","97.49","","","","","","NA"
"-111.96","60.02","FORT SMITH A","2202201","2022-06-12 16:00","2022","06","12","16:00","24.3","","7.4","","34","","","","25","","20","","24.1","","97.53","","","","","","NA"
"-111.96","60.02","FORT SMITH A","2202201","2022-06-12 17:00","2022","06","12","17:00","24.4","","4.6","","27","","","","29","","16","","24.1","","97.57","","","","","","Mostly Cloudy"
"-111.96","60.02","FORT SMITH A","2202201","2022-06-12 18:00","2022","06","12","18:00","24.4","","4.0","","26","","","","31","","12","","24.1","","97.55","","","","","","NA"
"-111.96","60.02","FORT SMITH A","2202201","2022-06-12 19:00","2022","06","12","19:00","24.1","","5.0","","29","","","","29","","11","","24.1","","97.60","","","","","","NA"
"-111.96","60.02","FORT SMITH A","2202201","2022-06-12 20:00","2022","06","12","20:00","22.7","","5.8","","33","","","","28","","7","","24.1","","97.64","","","","","","Clear"
"-111.96","60.02","FORT SMITH A","2202201","2022-06-12 21:00","2022","06","12","21:00","19.1","","6.2","","43","","","","32","","4","","24.1","","97.68","","","","","","NA"
"-111.96","60.02","FORT SMITH A","2202201","2022-06-12 22:00","2022","06","12","22:00","15.6","","6.6","","55","","","","36","","1","","24.1","","97.73","","","","","","NA"
"-111.96","60.02","FORT SMITH A","2202201","2022-06-12 23:00","2022","06","12","23:00","13.8","","6.3","","60","","","","24","","10","","24.1","","97.79","","","","","","Clear"
"-111.96","60.02","FORT SMITH A","2202201","2022-06-13 00:00","2022","06","13","00:00","14.2","","7.6","","64","","","","6","","4","","24.1","","97.82","","","","","","NA"
"-111.96","60.02","FORT SMITH A","2202201","2022-06-13 01:00","2022","06","13","01:00","10.7","","6.5","","75","","","","23","","5","","24.1","","97.87","","","","","","NA"
"-111.96","60.02","FORT SMITH A","2202201","2022-06-13 02:00","2022","06","13","02:00","9.4","","6.6","","83","","","","36","","2","","24.1","","97.87","","","","","","Mainly Clear"
"-111.96","60.02","FORT SMITH A","2202201","2022-06-13 03:00","2022","06","13","03:00","9.2","","6.2","","82","","","","36","","3","","24.1","","97.92","","","","","","NA"
"-111.96","60.02","FORT SMITH A","2202201","2022-06-13 04:00","2022","06","13","04:00","8.1","","6.1","","87","","","","36","","2","","24.1","","97.98","","","","","","NA"
"-111.96","60.02","FORT SMITH A","2202201","2022-06-13 05:00","2022","06","13","05:00","10.1","","7.7","","85","","","","36","","2","","24.1","","97.99","","","","","","Clear"
"-111.96","60.02","FORT SMITH A","2202201","2022-06-13 06:00","2022","06","13","06:00","14.8","","10.7","","76","","","","29","","7","","24.1","","98.05","","","","","","NA"
"-111.96","60.02","FORT SMITH A","2202201","2022-06-13 07:00","2022","06","13","07:00","17.5","","11.1","","66","","","","29","","4","","24.1","","98.08","","","","","","NA"
"-111.96","60.02","FORT SMITH A","2202201","2022-06-13 08:00","2022","06","13","08:00","20.2","","10.6","","54","","","","29","","8","","24.1","","98.11","","","","","","Mainly Clear"
"-111.96","60.02","FORT SMITH A","2202201","2022-06-13 09:00","2022","06","13","09:00","22.1","","8.6","","41","","","","31","","9","","24.1","","98.12","","","","","","NA"
"-111.96","60.02","FORT SMITH A","2202201","2022-06-13 10:00","2022","06","13","10:00","23.8","","6.6","","33","","","","29","","11","","24.1","","98.13","","","","","","NA"
"-111.96","60.02","FORT SMITH A","2202201","2022-06-13 11:00","2022","06","13","11:00","23.6","","6.0","","32","","","","29","","15","","24.1","","98.16","","","","","","Mostly Cloudy"
"-111.96","60.02","FORT SMITH A","2202201","2022-06-13 12:00","2022","06","13","12:00","24.7","","5.7","","29","","","","30","","15","","24.1","","98.17","","","","","","NA"
"-111.96","60.02","FORT SMITH A","2202201","2022-06-13 13:00","2022","06","13","13:00","24.1","","2.9","","25","","","","31","","14","","24.1","","98.19","","","","","","NA"
"-111.96","60.02","FORT SMITH A","2202201","2022-06-13 14:00","2022","06","13","14:00","24.9","","3.0","","24","","","","31","","10","","24.1","","98.17","","","","","","Mainly Clear"
"-111.96","60.02","FORT SMITH A","2202201","2022-06-13 15:00","2022","06","13","15:00","25.6","","3.1","","23","","","","28","","15","","24.1","","98.18","","","","","","NA"
"-111.96","60.02","FORT SMITH A","2202201","2022-06-13 16:00","2022","06","13","16:00","25.6","","2.9","","23","","","","30","","16","","24.1","","98.20","","","","","","NA"
"-111.96","60.02","FORT SMITH A","2202201","2022-06-13 17:00","2022","06","13","17:00","25.4","","3.2","","23","","","","25","","5","","24.1","","98.22","","","","","","Mostly Cloudy"
"-111.96","60.02","FORT SMITH A","2202201","2022-06-13 18:00","2022","06","13","18:00","25.9","","2.7","","22","","","","1","","4","","24.1","","98.24","","","","","","NA"
"-111.96","60.02","FORT SMITH A","2202201","2022-06-13 19:00","2022","06","13","19:00","24.0","","7.9","","35","","","","16","","19","","24.1","","98.29","","","","","","NA"
"-111.96","60.02","FORT SMITH A","2202201","2022-06-13 20:00","2022","06","13","20:00","20.9","","9.2","","47","","","","20","","5","","24.1","","98.35","","","","","","Mainly Clear"
"-111.96","60.02","FORT SMITH A","2202201","2022-06-13 21:00","2022","06","13","21:00","18.0","","9.5","","57","","","","30","","5","","24.1","","98.37","","","","","","NA"
"-111.96","60.02","FORT SMITH A","2202201","2022-06-13 22:00","2022","06","13","22:00","16.2","","9.1","","62","","","","36","","1","","24.1","","98.42","","","","","","NA"
"-111.96","60.02","FORT SMITH A","2202201","2022-06-13 23:00","2022","06","13","23:00","14.9","","8.9","","67","","","","36","","1","","24.1","","98.44","","","","","","Mainly Clear"
"-111.96","60.02","FORT SMITH A","2202201","2022-06-14 00:00","2022","06","14","00:00","14.7","","7.3","","61","","","","35","","9","","24.1","","98.46","","","","","","NA"
"-111.96","60.02","FORT SMITH A","2202201","2022-06-14 01:00","2022","06","14","01:00","13.8","","7.0","","64","","","","36","","7","","24.1","","98.47","","","","","","NA"
"-111.96","60.02","FORT SMITH A","2202201","2022-06-14 02:00","2022","06","14","02:00","14.8","","7.0","","59","","","","2","","4","","24.1","","98.48","","","","","","Clear"
"-111.96","60.02","FORT SMITH A","2202201","2022-06-14 03:00","2022","06","14","03:00","11.8","","6.5","","70","","","","4","","5","","24.1","","98.51","","","","","","NA"
"-111.96","60.02","FORT SMITH A","2202201","2022-06-14 04:00","2022","06","14","04:00","15.0","","7.4","","60","","","","4","","7","","24.1","","98.52","","","","","","NA"
"-111.96","60.02","FORT SMITH A","2202201","2022-06-14 05:00","2022","06","14","05:00","14.8","","8.1","","64","","","","3","","9","","24.1","","98.58","","","","","","Clear"
"-111.96","60.02","FORT SMITH A","2202201","2022-06-14 06:00","2022","06","14","06:00","17.3","","9.2","","59","","","","2","","8","","24.1","","98.64","","","","","","NA"
"-111.96","60.02","FORT SMITH A","2202201","2022-06-14 07:00","2022","06","14","07:00","19.6","","9.7","","52","","","","35","","5","","24.1","","98.63","","","","","","NA"
"-111.96","60.02","FORT SMITH A","2202201","2022-06-14 08:00","2022","06","14","08:00","22.4","","7.6","","38","","","","3","","16","","24.1","","98.62","","","","","","Mainly Clear"
"-111.96","60.02","FORT SMITH A","2202201","2022-06-14 09:00","2022","06","14","09:00","23.4","","6.5","","33","","","","3","","15","","24.1","","98.65","","","","","","NA"
"-111.96","60.02","FORT SMITH A","2202201","2022-06-14 10:00","2022","06","14","10:00","24.5","","5.4","","29","","","","35","","13","","24.1","","98.64","","","","","","NA"
"-111.96","60.02","FORT SMITH A","2202201","2022-06-14 11:00","2022","06","14","11:00","25.2","","1.3","","21","","","","3","","19","","24.1","","98.63","","","","","","Mostly Cloudy"
"-111.96","60.02","FORT SMITH A","2202201","2022-06-14 12:00","2022","06","14","12:00","25.8","","2.1","","21","","","","36","","21","","24.1","","98.62","","","","","","NA"
"-111.96","60.02","FORT SMITH A","2202201","2022-06-14 13:00","2022","06","14","13:00","26.5","","3.8","","23","","","","36","","17","","24.1","","98.58","","25","","","","NA"
"-111.96","60.02","FORT SMITH A","2202201","2022-06-14 14:00","2022","06","14","14:00","26.1","","2.4","","21","","","","3","","14","","24.1","","98.58","","25","","","","Mostly Cloudy"
"-111.96","60.02","FORT SMITH A","2202201","2022-06-14 15:00","2022","06","14","15:00","26.1","","2.8","","22","","","","3","","20","","24.1","","98.57","","25","","","","NA"
"-111.96","60.02","FORT SMITH A","2202201","2022-06-14 16:00","2022","06","14","16:00","26.3","","1.9","","20","","","","2","","23","","24.1","","98.59","","25","","","","NA"
"-111.96","60.02","FORT SMITH A","2202201","2022-06-14 17:00","2022","06","14","17:00","26.1","","1.9","","20","","","","36","","18","","24.1","","98.58","","","","","","Cloudy"
"-111.96","60.02","FORT SMITH A","2202201","2022-06-14 18:00","2022","06","14","18:00","26.2","","1.9","","20","","","","2","","25","","24.1","","98.56","","25","","","","NA"
"-111.96","60.02","FORT SMITH A","2202201","2022-06-14 19:00","2022","06","14","19:00","25.1","","2.6","","23","","","","35","","22","","24.1","","98.57","","","","","","NA"
"-111.96","60.02","FORT SMITH A","2202201","2022-06-14 20:00","2022","06","14","20:00","23.4","","3.2","","26","","","","35","","17","","24.1","","98.59","","","","","","Mostly Cloudy"
"-111.96","60.02","FORT SMITH A","2202201","2022-06-14 21:00","2022","06","14","21:00","21.6","","3.6","","30","","","","35","","14","","24.1","","98.62","","","","","","NA"
"-111.96","60.02","FORT SMITH A","2202201","2022-06-14 22:00","2022","06","14","22:00","19.8","","3.7","","34","","","","35","","11","","24.1","","98.64","","","","","","NA"
"-111.96","60.02","FORT SMITH A","2202201","2022-06-14 23:00","2022","06","14","23:00","18.7","","4.0","","38","","","","35","","13","","24.1","","98.65","","","","","","Mostly Cloudy"
"-111.96","60.02","FORT SMITH A","2202201","2022-06-15 00:00","2022","06","15","00:00","17.9","","5.5","","44","","","","34","","13","","24.1","","98.63","","","","","","NA"
"-111.96","60.02","FORT SMITH A","2202201","2022-06-15 01:00","2022","06","15","01:00","17.0","","6.8","","51","","","","35","","11","","24.1","","98.62","","","","","","NA"
"-111.96","60.02","FORT SMITH A","2202201","2022-06-15 02:00","2022","06","15","02:00","16.3","","6.8","","53","","","","33","","7","","24.1","","98.64","","","","","","Mostly Cloudy"
"-111.96","60.02","FORT SMITH A","2202201","2022-06-15 03:00","2022","06","15","03:00","15.4","","6.5","","55","","","","34","","4","","24.1","","98.63","","","","","","NA"
"-111.96","60.02","FORT SMITH A","2202201","2022-06-15 04:00","2022","06","15","04:00","15.1","","6.7","","57","","","","2","","7","","24.1","","98.65","","","","","","NA"
"-111.96","60.02","FORT SMITH A","2202201","2022-06-15 05:00","2022","06","15","05:00","15.1","","7.6","","61","","","","3","","3","","24.1","","98.69","","","","","","Mostly Cloudy"
"-111.96","60.02","FORT SMITH A","2202201","2022-06-15 06:00","2022","06","15","06:00","16.0","","8.4","","60","","","","2","","9","","24.1","","98.71","","","","","","NA"
"-111.96","60.02","FORT SMITH A","2202201","2022-06-15 07:00","2022","06","15","07:00","17.4","","9.1","","58","","","","2","","17","","24.1","","98.73","","","","","","NA"
"-111.96","60.02","FORT SMITH A","2202201","2022-06-15 08:00","2022","06","15","08:00","19.6","","9.3","","51","","","","3","","19","","24.1","","98.75","","","","","","Cloudy"
"-111.96","60.02","FORT SMITH A","2202201","2022-06-15 09:00","2022","06","15","09:00","21.1","","9.3","","46","","","","3","","18","","24.1","","98.74","","","","","","NA"
"-111.96","60.02","FORT SMITH A","2202201","2022-06-15 10:00","2022","06","15","10:00","22.3","","6.1","","35","","","","3","","31","","24.1","","98.73","","","","","","NA"
"-111.96","60.02","FORT SMITH A","2202201","2022-06-15 11:00","2022","06","15","11:00","21.9","","4.8","","32","","","","3","","33","","24.1","","98.75","","","","","","Cloudy"
"-111.96","60.02","FORT SMITH A","2202201","2022-06-15 12:00","2022","06","15","12:00","23.1","","4.9","","30","","","","2","","35","","24.1","","98.76","","","","","","NA"
"-111.96","60.02","FORT SMITH A","2202201","2022-06-15 13:00","2022","06","15","13:00","23.5","","4.6","","29","","","","2","","31","","24.1","","98.77","","","","","","NA"
"-111.96","60.02","FORT SMITH A","2202201","2022-06-15 14:00","2022","06","15","14:00","24.0","","4.0","","27","","","","2","","29","","24.1","","98.75","","","","","","Mostly Cloudy"
"-111.96","60.02","FORT SMITH A","2202201","2022-06-15 15:00","2022","06","15","15:00","23.6","","3.2","","26","","","","2","","28","","24.1","","98.76","","","","","","NA"
"-111.96","60.02","FORT SMITH A","2202201","2022-06-15 16:00","2022","06","15","16:00","24.1","","4.0","","27","","","","3","","22","","24.1","","98.79","","","","","","NA"
"-111.96","60.02","FORT SMITH A","2202201","2022-06-15 17:00","2022","06","15","17:00","22.9","","3.5","","28","","","","1","","26","","24.1","","98.81","","","","","","Mostly Cloudy"
"-111.96","60.02","FORT SMITH A","2202201","2022-06-15 18:00","2022","06","15","18:00","22.3","","4.6","","31","","","","2","","21","","24.1","","98.83","","","","","","NA"
"-111.96","60.02","FORT SMITH A","2202201","2022-06-15 19:00","2022","06","15","19:00","21.0","","4.0","","32","","","","4","","21","","24.1","","98.86","","","","","","NA"
"-111.96","60.02","FORT SMITH A","2202201","2022-06-15 20:00","2022","06","15","20:00","19.9","","5.5","","38","","","","4","","16","","24.1","","98.90","","","","","","Cloudy"
"-111.96","60.02","FORT SMITH A","2202201","2022-06-15 21:00","2022","06","15","21:00","18.8","","4.6","","39","","","","2","","15","","24.1","","98.95","","","","","","NA"
"-111.96","60.02","FORT SMITH A","2202201","2022-06-15 22:00","2022","06","15","22:00","17.5","","5.4","","45","","","","3","","16","","24.1","","99.00","","","","","","NA"
"-111.96","60.02","FORT SMITH A","2202201","2022-06-15 23:00","2022","06","15","23:00","16.6","","5.8","","49","","","","4","","16","","24.1","","99.03","","","","","","Cloudy"
"-111.96","60.02","FORT SMITH A","2202201","2022-06-16 00:00","2022","06","16","00:00","15.6","","5.7","","52","","","","5","","13","","24.1","","99.08","","","","","","NA"
"-111.96","60.02","FORT SMITH A","2202201","2022-06-16 01:00","2022","06","16","01:00","14.3","","6.0","","57","","","","5","","10","","24.1","","99.12","","","","","","NA"
"-111.96","60.02","FORT SMITH A","2202201","2022-06-16 02:00","2022","06","16","02:00","12.0","","6.3","","68","","","","3","","13","","24.1","","99.16","","","","","","Cloudy"
"-111.96","60.02","FORT SMITH A","2202201","2022-06-16 03:00","2022","06","16","03:00","11.6","","6.4","","70","","","","2","","15","","24.1","","99.18","","","","","","NA"
"-111.96","60.02","FORT SMITH A","2202201","2022-06-16 04:00","2022","06","16","04:00","11.0","","6.5","","73","","","","2","","8","","24.1","","99.26","","","","","","NA"
"-111.96","60.02","FORT SMITH A","2202201","2022-06-16 05:00","2022","06","16","05:00","11.1","","6.8","","75","","","","3","","10","","24.1","","99.31","","","","","","Cloudy"
"-111.96","60.02","FORT SMITH A","2202201","2022-06-16 06:00","2022","06","16","06:00","11.7","","6.0","","68","","","","5","","9","","24.1","","99.34","","","","","","NA"
"-111.96","60.02","FORT SMITH A","2202201","2022-06-16 07:00","2022","06","16","07:00","12.2","","5.5","","63","","","","5","","12","","24.1","","99.37","","","","","","NA"
"-111.96","60.02","FORT SMITH A","2202201","2022-06-16 08:00","2022","06","16","08:00","13.3","","6.1","","61","","","","3","","10","","24.1","","99.39","","","","","","Mostly Cloudy"
"-111.96","60.02","FORT SMITH A","2202201","2022-06-16 09:00","2022","06","16","09:00","13.7","","6.8","","63","","","","3","","11","","24.1","","99.40","","","","","","NA"
"-111.96","60.02","FORT SMITH A","2202201","2022-06-16 10:00","2022","06","16","10:00","15.5","","6.7","","55","","","","6","","12","","24.1","","99.40","","","","","","NA"
"-111.96","60.02","FORT SMITH A","2202201","2022-06-16 11:00","2022","06","16","11:00","16.4","","6.9","","53","","","","8","","9","","24.1","","99.38","","","","","","Mainly Clear"
"-111.96","60.02","FORT SMITH A","2202201","2022-06-16 12:00","2022","06","16","12:00","18.2","","8.3","","52","","","","4","","7","","24.1","","99.37","","","","","","NA"
"-111.96","60.02","FORT SMITH A","2202201","2022-06-16 13:00","2022","06","16","13:00","19.2","","8.7","","50","","","","5","","13","","24.1","","99.36","","","","","","NA"
"-111.96","60.02","FORT SMITH A","2202201","2022-06-16 14:00","2022","06","16","14:00","19.9","","8.5","","47","","","","4","","16","","24.1","","99.34","","","","","","Clear"
"-111.96","60.02","FORT SMITH A","2202201","2022-06-16 15:00","2022","06","16","15:00","20.0","","7.7","","44","","","","35","","6","","24.1","","99.31","","","","","","NA"
"-111.96","60.02","FORT SMITH A","2202201","2022-06-16 16:00","2022","06","16","16:00","21.3","","6.8","","39","","","","11","","3","","24.1","","99.29","","","","","","NA"
"-111.96","60.02","FORT SMITH A","2202201","2022-06-16 17:00","2022","06","16","17:00","21.4","","6.2","","37","","","","13","","9","","24.1","","99.27","","","","","","Mainly Clear"
"-111.96","60.02","FORT SMITH A","2202201","2022-06-16 18:00","2022","06","16","18:00","21.5","","6.4","","37","","","","2","","10","","24.1","","99.23","","","","","","NA"
"-111.96","60.02","FORT SMITH A","2202201","2022-06-16 19:00","2022","06","16","19:00","21.3","","5.7","","36","","","","8","","3","","24.1","","99.23","","","","","","NA"
"-111.96","60.02","FORT SMITH A","2202201","2022-06-16 20:00","2022","06","16","20:00","20.8","","6.3","","39","","","","8","","4","","24.1","","99.23","","","","","","Mainly Clear"
"-111.96","60.02","FORT SMITH A","2202201","2022-06-16 21:00","2022","06","16","21:00","18.5","","7.8","","49","","","","11","","5","","24.1","","99.26","","","","","","NA"
"-111.96","60.02","FORT SMITH A","2202201","2022-06-16 22:00","2022","06","16","22:00","17.2","","9.3","","59","","","","13","","8","","9.7","","99.28","","","","","","Smoke"
"-111.96","60.02","FORT SMITH A","2202201","2022-06-16 23:00","2022","06","16","23:00","15.8","","9.5","","66","","","","13","","7","","19.3","","99.31","","","","","","Mainly Clear"
"-111.96","60.02","FORT SMITH A","2202201","2022-06-17 00:00","2022","06","17","00:00","14.9","","9.1","","68","","","","14","","8","","24.1","","99.33","","","","","","NA"
"-111.96","60.02","FORT SMITH A","2202201","2022-06-17 01:00","2022","06","17","01:00","13.8","","8.7","","71","","","","12","","5","","24.1","","99.32","","","","","","NA"
"-111.96","60.02","FORT SMITH A","2202201","2022-06-17 02:00","2022","06","17","02:00","12.2","","8.0","","76","","","","12","","4","","19.3","","99.28","","","","","","Mainly Clear"
"-111.96","60.02","FORT SMITH A","2202201","2022-06-17 03:00","2022","06","17","03:00","10.9","","7.5","","80","","","","12","","4","","9.7","","99.24","","","","","","Smoke"
"-111.96","60.02","FORT SMITH A","2202201","2022-06-17 04:00","2022","06","17","04:00","10.7","","8.1","","84","","","","9","","4","","12.9","","99.21","","","","","","NA"
"-111.96","60.02","FORT SMITH A","2202201","2022-06-17 05:00","2022","06","17","05:00","12.6","","8.6","","76","","","","13","","10","","16.1","","99.23","","","","","","Mostly Cloudy"
"-111.96","60.02","FORT SMITH A","2202201","2022-06-17 06:00","2022","06","17","06:00","13.9","","9.6","","75","","","","14","","9","","19.3","","99.22","","","","","","NA"
"-111.96","60.02","FORT SMITH A","2202201","2022-06-17 07:00","2022","06","17","07:00","16.1","","10.7","","70","","","","16","","16","","24.1","","99.24","","","","","","NA"
"-111.96","60.02","FORT SMITH A","2202201","2022-06-17 08:00","2022","06","17","08:00","17.8","","10.8","","64","","","","17","","12","","24.1","","99.18","","","","","","Mainly Clear"
"-111.96","60.02","FORT SMITH A","2202201","2022-06-17 09:00","2022","06","17","09:00","19.7","","10.5","","55","","","","15","","6","","24.1","","99.14","","","","","","NA"
"-111.96","60.02","FORT SMITH A","2202201","2022-06-17 10:00","2022","06","17","10:00","20.6","","9.8","","50","","","","14","","17","","24.1","","99.11","","","","","","NA"
"-111.96","60.02","FORT SMITH A","2202201","2022-06-17 11:00","2022","06","17","11:00","21.4","","9.4","","46","","","","17","","19","","24.1","","99.06","","","","","","Mostly Cloudy"
"-111.96","60.02","FORT SMITH A","2202201","2022-06-17 12:00","2022","06","17","12:00","21.8","","8.8","","43","","","","14","","20","","24.1","","99.02","","","","","","NA"
"-111.96","60.02","FORT SMITH A","2202201","2022-06-17 13:00","2022","06","17","13:00","21.2","","6.2","","37","","","","14","","19","","24.1","","98.99","","","","","","NA"
"-111.96","60.02","FORT SMITH A","2202201","2022-06-17 14:00","2022","06","17","14:00","19.9","","7.4","","44","","","","15","","34","","24.1","","99.00","","","","","","Cloudy"
"-111.96","60.02","FORT SMITH A","2202201","2022-06-17 15:00","2022","06","17","15:00","19.6","","9.1","","50","","","","15","","20","","24.1","","98.95","","","","","","NA"
"-111.96","60.02","FORT SMITH A","2202201","2022-06-17 16:00","2022","06","17","16:00","19.0","","8.8","","51","","","","12","","15","","24.1","","98.91","","","","","","NA"
"-111.96","60.02","FORT SMITH A","2202201","2022-06-17 17:00","2022","06","17","17:00","18.1","","10.1","","59","","","","15","","12","","24.1","","98.89","","","","","","Rain Showers"
"-111.96","60.02","FORT SMITH A","2202201","2022-06-17 18:00","2022","06","17","18:00","15.7","","12.2","","79","","","","17","","13","","24.1","","98.89","","","","","","Rain Showers"
"-111.96","60.02","FORT SMITH A","2202201","2022-06-17 19:00","2022","06","17","19:00","14.6","","13.1","","91","","","","4","","5","","24.1","","98.87","","","","","","NA"
"-111.96","60.02","FORT SMITH A","2202201","2022-06-17 20:00","2022","06","17","20:00","14.6","","12.5","","87","","","","6","","7","","24.1","","98.84","","","","","","Cloudy"
"-111.96","60.02","FORT SMITH A","2202201","2022-06-17 21:00","2022","06","17","21:00","14.1","","12.6","","90","","","","5","","7","","9.7","","98.84","","","","","","Rain Showers"
"-111.96","60.02","FORT SMITH A","2202201","2022-06-17 22:00","2022","06","17","22:00","13.9","","12.7","","93","","","","6","","5","","24.1","","98.80","","","","","","NA"
"-111.96","60.02","FORT SMITH A","2202201","2022-06-17 23:00","2022","06","17","23:00","13.7","","12.5","","93","","","","9","","4","","24.1","","98.78","","","","","","Mostly Cloudy"
"-111.96","60.02","FORT SMITH A","2202201","2022-06-18 00:00","2022","06","18","00:00","13.9","","12.6","","92","","","","6","","5","","24.1","","98.75","","","","","","NA"
"-111.96","60.02","FORT SMITH A","2202201","2022-06-18 01:00","2022","06","18","01:00","13.8","","12.7","","93","","","","8","","4","","24.1","","98.68","","","","","","NA"
"-111.96","60.02","FORT SMITH A","2202201","2022-06-18 02:00","2022","06","18","02:00","13.5","","12.5","","94","","","","12","","3","","24.1","","98.67","","","","","","Mostly Cloudy"
"-111.96","60.02","FORT SMITH A","2202201","2022-06-18 03:00","2022","06","18","03:00","12.0","","11.6","","98","","","","7","","3","","24.1","","98.63","","","","","","NA"
"-111.96","60.02","FORT SMITH A","2202201","2022-06-18 04:00","2022","06","18","04:00","12.5","","11.9","","96","","","","8","","7","","24.1","","98.60","","","","","","NA"
"-111.96","60.02","FORT SMITH A","2202201","2022-06-18 05:00","2022","06","18","05:00","13.2","","12.1","","93","","","","36","","3","","24.1","","98.60","","","","","","Cloudy"
"-111.96","60.02","FORT SMITH A","2202201","2022-06-18 06:00","2022","06","18","06:00","13.5","","12.2","","92","","","","7","","3","","24.1","","98.58","","","","","","NA"
"-111.96","60.02","FORT SMITH A","2202201","2022-06-18 07:00","2022","06","18","07:00","14.0","","12.3","","90","","","","4","","5","","24.1","","98.60","","","","","","NA"
"-111.96","60.02","FORT SMITH A","2202201","2022-06-18 08:00","2022","06","18","08:00","14.7","","13.3","","91","","","","2","","10","","24.1","","98.54","","","","","","Cloudy"
"-111.96","60.02","FORT SMITH A","2202201","2022-06-18 09:00","2022","06","18","09:00"
"-111.96","60.02","FORT SMITH A","2202201","2022-06-18 10:00","2022","06","18","10:00","15.9","","13.5","","85","","","","2","","12","","24.1","","98.50","","","","","","NA"
"-111.96","60.02","FORT SMITH A","2202201","2022-06-18 11:00","2022","06","18","11:00","18.2","","13.8","","75","","","","3","","16","","24.1","","98.44","","","","","","Mainly Clear"
"-111.96","60.02","FORT SMITH A","2202201","2022-06-18 12:00","2022","06","18","12:00","18.7","","12.9","","69","","","","4","","9","","24.1","","98.38","","","","","","NA"
"-111.96","60.02","FORT SMITH A","2202201","2022-06-18 13:00","2022","06","18","13:00","18.9","","12.0","","64","","","","5","","13","","24.1","","98.35","","","","","","NA"
"-111.96","60.02","FORT SMITH A","2202201","2022-06-18 14:00","2022","06","18","14:00","18.7","","12.5","","67","","","","3","","8","","24.1","","98.34","","","","","","Cloudy"
"-111.96","60.02","FORT SMITH A","2202201","2022-06-18 15:00","2022","06","18","15:00","17.6","","13.8","","78","","","","14","","10","","24.1","","98.32","","","","","","NA"
"-111.96","60.02","FORT SMITH A","2202201","2022-06-18 16:00","2022","06","18","16:00","16.8","","14.1","","83","","","","13","","6","","24.1","","98.33","","","","","","Rain Showers"
"-111.96","60.02","FORT SMITH A","2202201","2022-06-18 17:00","2022","06","18","17:00","16.2","","14.4","","89","","","","9","","4","","19.3","","98.33","","","","","","Rain Showers"
"-111.96","60.02","FORT SMITH A","2202201","2022-06-18 18:00","2022","06","18","18:00","15.5","","14.3","","93","","","","3","","6","","24.1","","98.28","","","","","","Rain Showers"
"-111.96","60.02","FORT SMITH A","2202201","2022-06-18 19:00","2022","06","18","19:00","15.3","","14.2","","93","","","","4","","8","","24.1","","98.25","","","","","","Rain Showers"
"-111.96","60.02","FORT SMITH A","2202201","2022-06-18 20:00","2022","06","18","20:00","14.9","","14.3","","96","","","","34","","5","","24.1","","98.27","","","","","","Rain"
"-111.96","60.02","FORT SMITH A","2202201","2022-06-18 21:00","2022","06","18","21:00","14.8","","14.0","","95","","","","1","","7","","24.1","","98.28","","","","","","Rain"
"-111.96","60.02","FORT SMITH A","2202201","2022-06-18 22:00","2022","06","18","22:00","14.4","","13.8","","96","","","","3","","4","","24.1","","98.27","","","","","","Rain"
"-111.96","60.02","FORT SMITH A","2202201","2022-06-18 23:00","2022","06","18","23:00","14.2","","13.7","","96","","","","36","","5","","24.1","","98.21","","","","","","Rain"
"-111.96","60.02","FORT SMITH A","2202201","2022-06-19 00:00","2022","06","19","00:00","14.0","","13.7","","98","","","","36","","8","","19.3","","98.22","","","","","","Rain"
"-111.96","60.02","FORT SMITH A","2202201","2022-06-19 01:00","2022","06","19","01:00","13.8","","13.3","","97","","","","3","","9","","24.1","","98.21","","","","","","Rain"
"-111.96","60.02","FORT SMITH A","2202201","2022-06-19 02:00","2022","06","19","02:00","13.8","","13.4","","97","","","","2","","7","","19.3","","98.23","","","","","","Cloudy"
"-111.96","60.02","FORT SMITH A","2202201","2022-06-19 03:00","2022","06","19","03:00","13.5","","13.0","","97","","","","2","","8","","24.1","","98.20","","","","","","NA"
"-111.96","60.02","FORT SMITH A","2202201","2022-06-19 04:00","2022","06","19","04:00"
"-111.96","60.02","FORT SMITH A","2202201","2022-06-19 05:00","2022","06","19","05:00"
"-111.96","60.02","FORT SMITH A","2202201","2022-06-19 06:00","2022","06","19","06:00","13.8","","13.4","","97","","","","36","","7","","24.1","","98.29","","","","","","NA"
"-111.96","60.02","FORT SMITH A","2202201","2022-06-19 07:00","2022","06","19","07:00","14.1","","13.4","","95","","","","36","","3","","19.3","","98.33","","","","","","Rain"
"-111.96","60.02","FORT SMITH A","2202201","2022-06-19 08:00","2022","06","19","08:00","14.4","","13.8","","96","","","","33","","7","","19.3","","98.34","","","","","","Rain"
"-111.96","60.02","FORT SMITH A","2202201","2022-06-19 09:00","2022","06","19","09:00","15.2","","13.2","","88","","","","2","","8","","24.1","","98.34","","","","","","Rain"
"-111.96","60.02","FORT SMITH A","2202201","2022-06-19 10:00","2022","06","19","10:00","15.4","","13.5","","88","","","","2","","10","","24.1","","98.34","","","","","","NA"
"-111.96","60.02","FORT SMITH A","2202201","2022-06-19 11:00","2022","06","19","11:00","16.0","","14.3","","90","","","","35","","5","","24.1","","98.32","","","","","","Cloudy"
"-111.96","60.02","FORT SMITH A","2202201","2022-06-19 12:00","2022","06","19","12:00","16.1","","14.2","","88","","","","33","","9","","24.1","","98.36","","","","","","Rain"
"-111.96","60.02","FORT SMITH A","2202201","2022-06-19 13:00","2022","06","19","13:00","15.7","","13.9","","89","","","","3","","3","","24.1","","98.40","","","","","","Rain"
"-111.96","60.02","FORT SMITH A","2202201","2022-06-19 14:00","2022","06","19","14:00","17.2","","14.5","","84","","","","36","","6","","24.1","","98.42","","","","","","Cloudy"
"-111.96","60.02","FORT SMITH A","2202201","2022-06-19 15:00","2022","06","19","15:00","17.6","","14.1","","80","","","","13","","9","","24.1","","98.46","","","","","","Rain Showers"
"-111.96","60.02","FORT SMITH A","2202201","2022-06-19 16:00","2022","06","19","16:00","18.2","","13.8","","75","","","","11","","3","","24.1","","98.50","","","","","","Rain Showers"
"-111.96","60.02","FORT SMITH A","2202201","2022-06-19 17:00","2022","06","19","17:00","17.5","","13.0","","75","","","","8","","8","","24.1","","98.53","","","","","","Cloudy"
"-111.96","60.02","FORT SMITH A","2202201","2022-06-19 18:00","2022","06","19","18:00","16.9","","12.3","","74","","","","13","","5","","24.1","","98.56","","","","","","NA"
"-111.96","60.02","FORT SMITH A","2202201","2022-06-19 19:00","2022","06","19","19:00","16.7","","11.9","","73","","","","16","","6","","24.1","","98.59","","","","","","NA"
"-111.96","60.02","FORT SMITH A","2202201","2022-06-19 20:00","2022","06","19","20:00","17.0","","11.9","","72","","","","36","","3","","24.1","","98.62","","","","","","Mostly Cloudy"
"-111.96","60.02","FORT SMITH A","2202201","2022-06-19 21:00","2022","06","19","21:00","15.6","","13.0","","85","","","","32","","3","","24.1","","98.65","","","","","","NA"
"-111.96","60.02","FORT SMITH A","2202201","2022-06-19 22:00","2022","06","19","22:00","13.5","","12.4","","93","","","","36","","2","","24.1","","98.71","","","","","","NA"
"-111.96","60.02","FORT SMITH A","2202201","2022-06-19 23:00","2022","06","19","23:00","11.9","","11.2","","96","","","","36","","3","","24.1","","98.77","","","","","","Mainly Clear"
"-111.96","60.02","FORT SMITH A","2202201","2022-06-20 00:00","2022","06","20","00:00","10.7","","10.3","","97","","","","36","","2","","24.1","","98.79","","","","","","NA"
"-111.96","60.02","FORT SMITH A","2202201","2022-06-20 01:00","2022","06","20","01:00","9.8","","9.4","","97","","","","36","","3","","24.1","","98.80","","","","","","NA"
"-111.96","60.02","FORT SMITH A","2202201","2022-06-20 02:00","2022","06","20","02:00","10.2","","9.3","","95","","","","0","","1","","24.1","","98.82","","","","","","Mainly Clear"
"-111.96","60.02","FORT SMITH A","2202201","2022-06-20 03:00","2022","06","20","03:00","9.1","","8.6","","97","","","","15","","3","","24.1","","98.87","","","","","","NA"
"-111.96","60.02","FORT SMITH A","2202201","2022-06-20 04:00","2022","06","20","04:00"
"-111.96","60.02","FORT SMITH A","2202201","2022-06-20 05:00","2022","06","20","05:00","9.8","","9.6","","98","","","","16","","4","","24.1","","98.95","","","","","","Clear"
"-111.96","60.02","FORT SMITH A","2202201","2022-06-20 06:00","2022","06","20","06:00","12.6","","12.2","","98","","","","17","","4","","24.1","","99.00","","","","","","NA"
"-111.96","60.02","FORT SMITH A","2202201","2022-06-20 07:00","2022","06","20","07:00","15.7","","13.2","","85","","","","12","","3","","24.1","","99.06","","","","","","NA"
"-111.96","60.02","FORT SMITH A","2202201","2022-06-20 08:00","2022","06","20","08:00","18.1","","12.3","","68","","","","18","","6","","24.1","","99.06","","","","","","Mainly Clear"
"-111.96","60.02","FORT SMITH A","2202201","2022-06-20 09:00","2022","06","20","09:00","18.7","","11.4","","62","","","","14","","3","","24.1","","99.06","","","","","","NA"
"-111.96","60.02","FORT SMITH A","2202201","2022-06-20 10:00","2022","06","20","10:00","19.9","","9.3","","50","","","","20","","6","","24.1","","99.07","","","","","","NA"
"-111.96","60.02","FORT SMITH A","2202201","2022-06-20 11:00","2022","06","20","11:00","21.5","","9.3","","45","","","","23","","10","","24.1","","99.06","","","","","","Mainly Clear"
"-111.96","60.02","FORT SMITH A","2202201","2022-06-20 12:00","2022","06","20","12:00","22.1","","8.3","","41","","","","26","","10","","24.1","","99.05","","","","","","NA"
"-111.96","60.02","FORT SMITH A","2202201","2022-06-20 13:00","2022","06","20","13:00","22.7","","5.1","","32","","","","33","","9","","24.1","","99.02","","","","","","NA"
"-111.96","60.02","FORT SMITH A","2202201","2022-06-20 14:00","2022","06","20","14:00","23.9","","3.9","","27","","","","34","","11","","24.1","","99.01","","","","","","Mainly Clear"
"-111.96","60.02","FORT SMITH A","2202201","2022-06-20 15:00","2022","06","20","15:00","23.6","","6.6","","33","","","","26","","9","","24.1","","98.99","","","","","","NA"
"-111.96","60.02","FORT SMITH A","2202201","2022-06-20 16:00","2022","06","20","16:00","23.1","","7.2","","36","","","","35","","10","","24.1","","98.98","","","","","","NA"
"-111.96","60.02","FORT SMITH A","2202201","2022-06-20 17:00","2022","06","20","17:00","24.2","","5.4","","29","","","","10","","5","","24.1","","98.96","","","","","","Mainly Clear"
"-111.96","60.02","FORT SMITH A","2202201","2022-06-20 18:00","2022","06","20","18:00","24.0","","4.1","","27","","","","2","","10","","24.1","","98.96","","","","","","NA"
"-111.96","60.02","FORT SMITH A","2202201","2022-06-20 19:00","2022","06","20","19:00","24.0","","2.8","","25","","","","13","","8","","24.1","","98.96","","","","","","NA"
"-111.96","60.02","FORT SMITH A","2202201","2022-06-20 20:00","2022","06","20","20:00","23.2","","3.4","","27","","","","13","","6","","24.1","","98.97","","","","","","Mainly Clear"
"-111.96","60.02","FORT SMITH A","2202201","2022-06-20 21:00","2022","06","20","21:00","19.9","","5.3","","38","","","","15","","3","","24.1","","98.98","","","","","","NA"
"-111.96","60.02","FORT SMITH A","2202201","2022-06-20 22:00","2022","06","20","22:00","15.5","","7.7","","60","","","","19","","3","","24.1","","99.01","","","","","","NA"
"-111.96","60.02","FORT SMITH A","2202201","2022-06-20 23:00","2022","06","20","23:00","13.8","","6.2","","60","","","","18","","4","","24.1","","99.03","","","","","","Clear"
"-111.96","60.02","FORT SMITH A","2202201","2022-06-21 00:00","2022","06","21","00:00","11.6","","6.2","","70","","","","36","","1","","24.1","","99.01","","","","","","NA"
"-111.96","60.02","FORT SMITH A","2202201","2022-06-21 01:00","2022","06","21","01:00","10.8","","6.2","","73","","","","15","","4","","24.1","","99.01","","","","","","NA"
"-111.96","60.02","FORT SMITH A","2202201","2022-06-21 02:00","2022","06","21","02:00","9.5","","5.8","","78","","","","14","","3","","24.1","","99.03","","","","","","Clear"
"-111.96","60.02","FORT SMITH A","2202201","2022-06-21 03:00","2022","06","21","03:00","9.0","","6.2","","83","","","","36","","2","","24.1","","99.02","","","","","","NA"
"-111.96","60.02","FORT SMITH A","2202201","2022-06-21 04:00","2022","06","21","04:00","9.0","","6.8","","86","","","","14","","4","","24.1","","99.02","","","","","","NA"
"-111.96","60.02","FORT SMITH A","2202201","2022-06-21 05:00","2022","06","21","05:00","11.1","","8.4","","83","","","","","","0","","24.1","","99.04","","","","","","Clear"
"-111.96","60.02","FORT SMITH A","2202201","2022-06-21 06:00","2022","06","21","06:00","15.4","","9.0","","65","","","","17","","4","","24.1","","99.02","","","","","","NA"
"-111.96","60.02","FORT SMITH A","2202201","2022-06-21 07:00","2022","06","21","07:00","18.6","","7.4","","48","","","","19","","9","","24.1","","98.99","","","","","","NA"
"-111.96","60.02","FORT SMITH A","2202201","2022-06-21 08:00","2022","06","21","08:00","21.4","","5.8","","36","","","","20","","12","","24.1","","98.97","","","","","","Mostly Cloudy"
"-111.96","60.02","FORT SMITH A","2202201","2022-06-21 09:00","2022","06","21","09:00","22.8","","5.0","","31","","","","23","","16","","24.1","","98.93","","","","","","NA"
"-111.96","60.02","FORT SMITH A","2202201","2022-06-21 10:00","2022","06","21","10:00","23.9","","3.7","","26","","","","22","","27","","24.1","","98.90","","","","","","NA"
"-111.96","60.02","FORT SMITH A","2202201","2022-06-21 11:00","2022","06","21","11:00","24.9","","6.0","","29","","","","23","","17","","24.1","","98.84","","25","","","","Mainly Clear"
"-111.96","60.02","FORT SMITH A","2202201","2022-06-21 12:00","2022","06","21","12:00","25.2","","6.2","","29","","","","25","","19","","24.1","","98.80","","25","","","","NA"
"-111.96","60.02","FORT SMITH A","2202201","2022-06-21 13:00","2022","06","21","13:00","24.3","","5.4","","29","","","","22","","12","","24.1","","98.77","","","","","","NA"
"-111.96","60.02","FORT SMITH A","2202201","2022-06-21 14:00","2022","06","21","14:00","24.7","","5.7","","29","","","","18","","5","","24.1","","98.71","","","","","","Mostly Cloudy"
"-111.96","60.02","FORT SMITH A","2202201","2022-06-21 15:00","2022","06","21","15:00","24.7","","5.4","","28","","","","15","","9","","24.1","","98.66","","","","","","NA"
"-111.96","60.02","FORT SMITH A","2202201","2022-06-21 16:00","2022","06","21","16:00","24.6","","6.0","","30","","","","16","","5","","24.1","","98.61","","","","","","NA"
"-111.96","60.02","FORT SMITH A","2202201","2022-06-21 17:00","2022","06","21","17:00","25.1","","6.0","","29","","","","18","","12","","24.1","","98.58","","25","","","","Mostly Cloudy"
"-111.96","60.02","FORT SMITH A","2202201","2022-06-21 18:00","2022","06","21","18:00","24.3","","7.0","","33","","","","21","","10","","24.1","","98.56","","","","","","NA"
"-111.96","60.02","FORT SMITH A","2202201","2022-06-21 19:00","2022","06","21","19:00","23.8","","8.1","","36","","","","28","","7","","24.1","","98.54","","","","","","NA"
"-111.96","60.02","FORT SMITH A","2202201","2022-06-21 20:00","2022","06","21","20:00","19.9","","10.8","","56","","","","36","","2","","24.1","","98.51","","","","","","Mostly Cloudy"
"-111.96","60.02","FORT SMITH A","2202201","2022-06-21 21:00","2022","06","21","21:00","18.3","","11.7","","65","","","","36","","2","","24.1","","98.51","","","","","","NA"
"-111.96","60.02","FORT SMITH A","2202201","2022-06-21 22:00","2022","06","21","22:00","17.0","","11.2","","68","","","","36","","3","","24.1","","98.50","","","","","","NA"
"-111.96","60.02","FORT SMITH A","2202201","2022-06-21 23:00","2022","06","21","23:00","14.8","","9.6","","70","","","","","","0","","24.1","","98.50","","","","","","Mostly Cloudy"
"-111.96","60.02","FORT SMITH A","2202201","2022-06-22 00:00","2022","06","22","00:00","12.3","","7.6","","73","","","","8","","5","","24.1","","98.48","","","","","","NA"
"-111.96","60.02","FORT SMITH A","2202201","2022-06-22 01:00","2022","06","22","01:00","15.3","","8.7","","65","","","","9","","5","","24.1","","98.47","","","","","","NA"
"-111.96","60.02","FORT SMITH A","2202201","2022-06-22 02:00","2022","06","22","02:00","13.5","","8.5","","72","","","","10","","4","","24.1","","98.46","","","","","","Mainly Clear"
"-111.96","60.02","FORT SMITH A","2202201","2022-06-22 03:00","2022","06","22","03:00","11.2","","8.2","","82","","","","4","","3","","24.1","","98.43","","","","","","NA"
"-111.96","60.02","FORT SMITH A","2202201","2022-06-22 04:00","2022","06","22","04:00","12.1","","8.8","","80","","","","17","","3","","24.1","","98.44","","","","","","NA"
"-111.96","60.02","FORT SMITH A","2202201","2022-06-22 05:00","2022","06","22","05:00","14.2","","9.1","","71","","","","10","","3","","24.1","","98.46","","","","","","Mostly Cloudy"
"-111.96","60.02","FORT SMITH A","2202201","2022-06-22 06:00","2022","06","22","06:00","15.2","","8.4","","63","","","","8","","5","","24.1","","98.50","","","","","","NA"
"-111.96","60.02","FORT SMITH A","2202201","2022-06-22 07:00","2022","06","22","07:00","17.1","","9.0","","59","","","","11","","10","","24.1","","98.54","","","","","","NA"
"-111.96","60.02","FORT SMITH A","2202201","2022-06-22 08:00","2022","06","22","08:00","18.4","","10.0","","58","","","","10","","10","","24.1","","98.55","","","","","","Mostly Cloudy"
"-111.96","60.02","FORT SMITH A","2202201","2022-06-22 09:00","2022","06","22","09:00","18.9","","10.8","","59","","","","5","","13","","24.1","","98.54","","","","","","NA"
"-111.96","60.02","FORT SMITH A","2202201","2022-06-22 10:00","2022","06","22","10:00","19.8","","10.1","","53","","","","7","","16","","24.1","","98.54","","","","","","NA"
"-111.96","60.02","FORT SMITH A","2202201","2022-06-22 11:00","2022","06","22","11:00","20.6","","9.4","","48","","","","7","","11","","24.1","","98.56","","","","","","Mainly Clear"
"-111.96","60.02","FORT SMITH A","2202201","2022-06-22 12:00","2022","06","22","12:00","21.5","","9.2","","45","","","","8","","16","","24.1","","98.57","","","","","","NA"
"-111.96","60.02","FORT SMITH A","2202201","2022-06-22 13:00","2022","06","22","13:00","22.1","","9.5","","44","","","","3","","11","","24.1","","98.55","","","","","","NA"
"-111.96","60.02","FORT SMITH A","2202201","2022-06-22 14:00","2022","06","22","14:00","23.1","","9.2","","41","","","","4","","18","","24.1","","98.55","","","","","","Mainly Clear"
"-111.96","60.02","FORT SMITH A","2202201","2022-06-22 15:00","2022","06","22","15:00","22.6","","8.1","","39","","","","4","","18","","24.1","","98.57","","","","","","NA"
"-111.96","60.02","FORT SMITH A","2202201","2022-06-22 16:00","2022","06","22","16:00","22.0","","5.4","","34","","","","4","","16","","24.1","","98.62","","","","","","NA"
"-111.96","60.02","FORT SMITH A","2202201","2022-06-22 17:00","2022","06","22","17:00","21.9","","5.1","","33","","","","3","","17","","24.1","","98.64","","","","","","Mainly Clear"
"-111.96","60.02","FORT SMITH A","2202201","2022-06-22 18:00","2022","06","22","18:00","21.4","","5.4","","35","","","","5","","14","","24.1","","98.65","","","","","","NA"
"-111.96","60.02","FORT SMITH A","2202201","2022-06-22 19:00","2022","06","22","19:00","20.3","","5.6","","38","","","","6","","15","","24.1","","98.69","","","","","","NA"
"-111.96","60.02","FORT SMITH A","2202201","2022-06-22 20:00","2022","06","22","20:00","18.9","","5.5","","41","","","","4","","17","","24.1","","98.75","","","","","","Mainly Clear"
"-111.96","60.02","FORT SMITH A","2202201","2022-06-22 21:00","2022","06","22","21:00","17.2","","5.2","","45","","","","6","","15","","24.1","","98.84","","","","","","NA"
"-111.96","60.02","FORT SMITH A","2202201","2022-06-22 22:00","2022","06","22","22:00","15.3","","4.8","","49","","","","7","","19","","24.1","","98.95","","","","","","NA"
"-111.96","60.02","FORT SMITH A","2202201","2022-06-22 23:00","2022","06","22","23:00","13.6","","4.5","","54","","","","7","","15","","24.1","","99.06","","","","","","Clear"
"-111.96","60.02","FORT SMITH A","2202201","2022-06-23 00:00","2022","06","23","00:00","12.0","","4.7","","61","","","","7","","5","","24.1","","99.10","","","","","","NA"
"-111.96","60.02","FORT SMITH A","2202201","2022-06-23 01:00","2022","06","23","01:00","9.9","","4.8","","71","","","","5","","7","","24.1","","99.14","","","","","","NA"
"-111.96","60.02","FORT SMITH A","2202201","2022-06-23 02:00","2022","06","23","02:00","8.8","","4.5","","74","","","","5","","7","","24.1","","99.18","","","","","","Clear"
"-111.96","60.02","FORT SMITH A","2202201","2022-06-23 03:00","2022","06","23","03:00","9.0","","4.8","","75","","","","4","","9","","24.1","","99.20","","","","","","NA"
"-111.96","60.02","FORT SMITH A","2202201","2022-06-23 04:00","2022","06","23","04:00","9.1","","5.5","","78","","","","5","","8","","24.1","","99.27","","","","","","NA"
"-111.96","60.02","FORT SMITH A","2202201","2022-06-23 05:00","2022","06","23","05:00","10.1","","5.9","","75","","","","5","","10","","24.1","","99.31","","","","","","Clear"
"-111.96","60.02","FORT SMITH A","2202201","2022-06-23 06:00","2022","06","23","06:00","12.0","","7.0","","71","","","","3","","6","","24.1","","99.34","","","","","","NA"
"-111.96","60.02","FORT SMITH A","2202201","2022-06-23 07:00","2022","06","23","07:00","13.8","","6.2","","60","","","","6","","7","","24.1","","99.36","","","","","","NA"
"-111.96","60.02","FORT SMITH A","2202201","2022-06-23 08:00","2022","06","23","08:00","14.3","","5.1","","54","","","","4","","16","","24.1","","99.38","","","","","","Mainly Clear"
"-111.96","60.02","FORT SMITH A","2202201","2022-06-23 09:00","2022","06","23","09:00","16.0","","4.1","","45","","","","7","","17","","24.1","","99.40","","","","","","NA"
"-111.96","60.02","FORT SMITH A","2202201","2022-06-23 10:00","2022","06","23","10:00","16.7","","4.2","","43","","","","5","","17","","24.1","","99.42","","","","","","NA"
"-111.96","60.02","FORT SMITH A","2202201","2022-06-23 11:00","2022","06","23","11:00","18.1","","3.3","","37","","","","8","","12","","24.1","","99.41","","","","","","Mainly Clear"
"-111.96","60.02","FORT SMITH A","2202201","2022-06-23 12:00","2022","06","23","12:00","18.9","","4.5","","38","","","","3","","5","","24.1","","99.44","","","","","","NA"
"-111.96","60.02","FORT SMITH A","2202201","2022-06-23 13:00","2022","06","23","13:00","18.9","","3.5","","36","","","","9","","12","","24.1","","99.47","","","","","","NA"
"-111.96","60.02","FORT SMITH A","2202201","2022-06-23 14:00","2022","06","23","14:00","20.1","","4.3","","35","","","","2","","17","","24.1","","99.46","","","","","","Mostly Cloudy"
"-111.96","60.02","FORT SMITH A","2202201","2022-06-23 15:00","2022","06","23","15:00","18.3","","3.0","","36","","","","5","","9","","24.1","","99.50","","","","","","NA"
"-111.96","60.02","FORT SMITH A","2202201","2022-06-23 16:00","2022","06","23","16:00","20.1","","3.2","","32","","","","8","","8","","24.1","","99.49","","","","","","NA"
"-111.96","60.02","FORT SMITH A","2202201","2022-06-23 17:00","2022","06","23","17:00","20.4","","2.1","","29","","","","36","","2","","24.1","","99.47","","","","","","Mainly Clear"
"-111.96","60.02","FORT SMITH A","2202201","2022-06-23 18:00","2022","06","23","18:00","20.7","","2.5","","30","","","","36","","9","","24.1","","99.46","","","","","","NA"
"-111.96","60.02","FORT SMITH A","2202201","2022-06-23 19:00","2022","06","23","19:00","19.6","","3.3","","33","","","","7","","4","","24.1","","99.47","","","","","","NA"
"-111.96","60.02","FORT SMITH A","2202201","2022-06-23 20:00","2022","06","23","20:00","17.1","","5.3","","45","","","","23","","4","","24.1","","99.47","","","","","","Mainly Clear"
"-111.96","60.02","FORT SMITH A","2202201","2022-06-23 21:00","2022","06","23","21:00","16.0","","6.4","","53","","","","22","","3","","24.1","","99.49","","","","","","NA"
"-111.96","60.02","FORT SMITH A","2202201","2022-06-23 22:00","2022","06","23","22:00","13.4","","6.2","","61","","","","36","","3","","24.1","","99.52","","","","","","NA"
"-111.96","60.02","FORT SMITH A","2202201","2022-06-23 23:00","2022","06","23","23:00","14.3","","5.5","","55","","","","27","","5","","24.1","","99.53","","","","","","Mainly Clear"
"-111.96","60.02","FORT SMITH A","2202201","2022-06-24 00:00","2022","06","24","00:00","13.0","","5.7","","61","","","","30","","8","","24.1","","99.57","","","","","","NA"
"-111.96","60.02","FORT SMITH A","2202201","2022-06-24 01:00","2022","06","24","01:00","11.8","","5.9","","67","","","","32","","5","","24.1","","99.60","","","","","","NA"
"-111.96","60.02","FORT SMITH A","2202201","2022-06-24 02:00","2022","06","24","02:00","11.5","","5.7","","67","","","","36","","7","","24.1","","99.64","","","","","","Mainly Clear"
"-111.96","60.02","FORT SMITH A","2202201","2022-06-24 03:00","2022","06","24","03:00","10.3","","5.8","","73","","","","33","","7","","24.1","","99.67","","","","","","NA"
"-111.96","60.02","FORT SMITH A","2202201","2022-06-24 04:00","2022","06","24","04:00","9.8","","5.8","","76","","","","36","","2","","24.1","","99.68","","","","","","NA"
"-111.96","60.02","FORT SMITH A","2202201","2022-06-24 05:00","2022","06","24","05:00","11.4","","7.0","","74","","","","36","","1","","24.1","","99.70","","","","","","Mainly Clear"
"-111.96","60.02","FORT SMITH A","2202201","2022-06-24 06:00","2022","06","24","06:00","13.2","","7.9","","70","","","","29","","8","","24.1","","99.70","","","","","","NA"
"-111.96","60.02","FORT SMITH A","2202201","2022-06-24 07:00","2022","06","24","07:00","15.6","","7.5","","58","","","","31","","9","","24.1","","99.71","","","","","","NA"
"-111.96","60.02","FORT SMITH A","2202201","2022-06-24 08:00","2022","06","24","08:00","16.2","","6.8","","54","","","","29","","6","","24.1","","99.70","","","","","","Mainly Clear"
"-111.96","60.02","FORT SMITH A","2202201","2022-06-24 09:00","2022","06","24","09:00","18.1","","4.6","","41","","","","29","","10","","24.1","","99.67","","","","","","NA"
"-111.96","60.02","FORT SMITH A","2202201","2022-06-24 10:00","2022","06","24","10:00","20.2","","5.3","","37","","","","29","","9","","24.1","","99.66","","","","","","NA"
"-111.96","60.02","FORT SMITH A","2202201","2022-06-24 11:00","2022","06","24","11:00","20.3","","3.3","","32","","","","27","","12","","24.1","","99.63","","","","","","Mainly Clear"
"-111.96","60.02","FORT SMITH A","2202201","2022-06-24 12:00","2022","06","24","12:00","22.1","","3.3","","29","","","","31","","14","","24.1","","99.59","","","","","","NA"
"-111.96","60.02","FORT SMITH A","2202201","2022-06-24 13:00","2022","06","24","13:00","22.3","","4.1","","30","","","","31","","13","","24.1","","99.57","","","","","","NA"
"-111.96","60.02","FORT SMITH A","2202201","2022-06-24 14:00","2022","06","24","14:00","24.4","","4.8","","28","","","","27","","13","","24.1","","99.51","","","","","","Mainly Clear"
"-111.96","60.02","FORT SMITH A","2202201","2022-06-24 15:00","2022","06","24","15:00","23.6","","7.7","","36","","","","33","","9","","19.3","","99.50","","","","","","NA"
"-111.96","60.02","FORT SMITH A","2202201","2022-06-24 16:00","2022","06","24","16:00","23.6","","7.0","","34","","","","29","","15","","24.1","","99.48","","","","","","NA"
"-111.96","60.02","FORT SMITH A","2202201","2022-06-24 17:00","2022","06","24","17:00","23.9","","6.3","","32","","","","32","","18","","24.1","","99.48","","","","","","Mainly Clear"
"-111.96","60.02","FORT SMITH A","2202201","2022-06-24 18:00","2022","06","24","18:00","23.9","","4.9","","29","","","","35","","12","","24.1","","99.48","","","","","","NA"
"-111.96","60.02","FORT SMITH A","2202201","2022-06-24 19:00","2022","06","24","19:00","23.1","","5.5","","32","","","","33","","8","","24.1","","99.49","","","","","","NA"
"-111.96","60.02","FORT SMITH A","2202201","2022-06-24 20:00","2022","06","24","20:00","21.6","","6.4","","37","","","","31","","5","","24.1","","99.49","","","","","","Mostly Cloudy"
"-111.96","60.02","FORT SMITH A","2202201","2022-06-24 21:00","2022","06","24","21:00","18.1","","7.6","","50","","","","36","","1","","24.1","","99.49","","","","","","NA"
"-111.96","60.02","FORT SMITH A","2202201","2022-06-24 22:00","2022","06","24","22:00","17.4","","7.2","","51","","","","30","","7","","24.1","","99.53","","","","","","NA"
"-111.96","60.02","FORT SMITH A","2202201","2022-06-24 23:00","2022","06","24","23:00","13.7","","6.9","","63","","","","36","","2","","24.1","","99.54","","","","","","Cloudy"
"-111.96","60.02","FORT SMITH A","2202201","2022-06-25 00:00","2022","06","25","00:00","13.2","","7.0","","66","","","","0","","1","","24.1","","99.54","","","","","","NA"
"-111.96","60.02","FORT SMITH A","2202201","2022-06-25 01:00","2022","06","25","01:00","11.9","","6.8","","71","","","","23","","4","","24.1","","99.56","","","","","","NA"
"-111.96","60.02","FORT SMITH A","2202201","2022-06-25 02:00","2022","06","25","02:00","11.0","","6.2","","72","","","","36","","3","","24.1","","99.55","","","","","","Mainly Clear"
"-111.96","60.02","FORT SMITH A","2202201","2022-06-25 03:00","2022","06","25","03:00","9.0","","6.0","","81","","","","14","","5","","24.1","","99.54","","","","","","NA"
"-111.96","60.02","FORT SMITH A","2202201","2022-06-25 04:00","2022","06","25","04:00","10.5","","6.3","","75","","","","17","","8","","19.3","","99.51","","","","","","NA"
"-111.96","60.02","FORT SMITH A","2202201","2022-06-25 05:00","2022","06","25","05:00","12.2","","8.0","","75","","","","3","","6","","19.3","","99.53","","","","","","Mostly Cloudy"
"-111.96","60.02","FORT SMITH A","2202201","2022-06-25 06:00","2022","06","25","06:00","15.8","","7.5","","57","","","","22","","7","","19.3","","99.51","","","","","","NA"
"-111.96","60.02","FORT SMITH A","2202201","2022-06-25 07:00","2022","06","25","07:00","14.9","","9.8","","71","","","","14","","5","","24.1","","99.50","","","","","","NA"
"-111.96","60.02","FORT SMITH A","2202201","2022-06-25 08:00","2022","06","25","08:00","19.1","","8.9","","51","","","","14","","8","","24.1","","99.46","","","","","","Mostly Cloudy"
"-111.96","60.02","FORT SMITH A","2202201","2022-06-25 09:00","2022","06","25","09:00","22.0","","9.1","","43","","","","19","","9","","19.3","","99.39","","","","","","NA"
"-111.96","60.02","FORT SMITH A","2202201","2022-06-25 10:00","2022","06","25","10:00","20.4","","10.0","","51","","","","29","","15","","24.1","","99.43","","","","","","Rain Showers"
"-111.96","60.02","FORT SMITH A","2202201","2022-06-25 11:00","2022","06","25","11:00","20.3","","9.1","","48","","","","19","","3","","24.1","","99.36","","","","","","Mostly Cloudy"
"-111.96","60.02","FORT SMITH A","2202201","2022-06-25 12:00","2022","06","25","12:00","21.5","","9.3","","45","","","","27","","4","","24.1","","99.36","","","","","","NA"
"-111.96","60.02","FORT SMITH A","2202201","2022-06-25 13:00","2022","06","25","13:00","22.6","","10.1","","45","","","","24","","7","","24.1","","99.29","","","","","","NA"
"-111.96","60.02","FORT SMITH A","2202201","2022-06-25 14:00","2022","06","25","14:00","24.0","","9.9","","40","","","","28","","18","","24.1","","99.27","","25","","","","Mainly Clear"
"-111.96","60.02","FORT SMITH A","2202201","2022-06-25 15:00","2022","06","25","15:00","24.7","","9.6","","38","","","","30","","18","","24.1","","99.21","","26","","","","NA"
"-111.96","60.02","FORT SMITH A","2202201","2022-06-25 16:00","2022","06","25","16:00","22.7","","12.1","","51","","","","29","","12","","24.1","","99.21","","25","","","","Thunderstorms,Rain Showers"
"-111.96","60.02","FORT SMITH A","2202201","2022-06-25 17:00","2022","06","25","17:00","25.2","","11.3","","41","","","","30","","17","","24.1","","99.17","","27","","","","Mostly Cloudy"
"-111.96","60.02","FORT SMITH A","2202201","2022-06-25 18:00","2022","06","25","18:00","23.2","","9.9","","42","","","","33","","16","","24.1","","99.17","","","","","","NA"
"-111.96","60.02","FORT SMITH A","2202201","2022-06-25 19:00","2022","06","25","19:00","21.0","","9.8","","48","","","","32","","14","","24.1","","99.24","","","","","","NA"
"-111.96","60.02","FORT SMITH A","2202201","2022-06-25 20:00","2022","06","25","20:00","20.2","","10.6","","53","","","","33","","13","","24.1","","99.26","","","","","","Mostly Cloudy"
"-111.96","60.02","FORT SMITH A","2202201","2022-06-25 21:00","2022","06","25","21:00","19.5","","10.1","","54","","","","35","","17","","24.1","","99.31","","","","","","NA"
"-111.96","60.02","FORT SMITH A","2202201","2022-06-25 22:00","2022","06","25","22:00","17.7","","9.7","","59","","","","33","","9","","24.1","","99.28","","","","","","NA"
"-111.96","60.02","FORT SMITH A","2202201","2022-06-25 23:00","2022","06","25","23:00","15.8","","9.4","","66","","","","32","","7","","24.1","","99.32","","","","","","Clear"
"-111.96","60.02","FORT SMITH A","2202201","2022-06-26 00:00","2022","06","26","00:00","14.2","","9.4","","73","","","","31","","5","","24.1","","99.34","","","","","","NA"
"-111.96","60.02","FORT SMITH A","2202201","2022-06-26 01:00","2022","06","26","01:00","13.1","","9.2","","78","","","","28","","7","","24.1","","99.32","","","","","","NA"
"-111.96","60.02","FORT SMITH A","2202201","2022-06-26 02:00","2022","06","26","02:00","12.2","","8.9","","80","","","","26","","7","","24.1","","99.32","","","","","","Clear"
"-111.96","60.02","FORT SMITH A","2202201","2022-06-26 03:00","2022","06","26","03:00","11.3","","9.3","","87","","","","29","","9","","24.1","","99.33","","","","","","NA"
"-111.96","60.02","FORT SMITH A","2202201","2022-06-26 04:00","2022","06","26","04:00","12.0","","9.8","","86","","","","30","","9","","24.1","","99.32","","","","","","NA"
"-111.96","60.02","FORT SMITH A","2202201","2022-06-26 05:00","2022","06","26","05:00","13.5","","9.6","","77","","","","32","","14","","24.1","","99.33","","","","","","Mostly Cloudy"
"-111.96","60.02","FORT SMITH A","2202201","2022-06-26 06:00","2022","06","26","06:00","13.1","","9.6","","79","","","","30","","13","","24.1","","99.39","","","","","","NA"
"-111.96","60.02","FORT SMITH A","2202201","2022-06-26 07:00","2022","06","26","07:00","12.0","","10.9","","93","","","","27","","7","","24.1","","99.38","","","","","","Rain"
"-111.96","60.02","FORT SMITH A","2202201","2022-06-26 08:00","2022","06","26","08:00","12.9","","11.2","","89","","","","28","","17","","24.1","","99.38","","","","","","Mostly Cloudy"
"-111.96","60.02","FORT SMITH A","2202201","2022-06-26 09:00","2022","06","26","09:00","15.1","","11.1","","77","","","","28","","15","","24.1","","99.37","","","","","","NA"
"-111.96","60.02","FORT SMITH A","2202201","2022-06-26 10:00","2022","06","26","10:00","14.9","","8.8","","66","","","","32","","16","","24.1","","99.40","","","","","","NA"
"-111.96","60.02","FORT SMITH A","2202201","2022-06-26 11:00","2022","06","26","11:00","15.5","","6.1","","53","","","","30","","27","","24.1","","99.44","","","","","","Mostly Cloudy"
"-111.96","60.02","FORT SMITH A","2202201","2022-06-26 12:00","2022","06","26","12:00","15.4","","7.5","","59","","","","32","","16","","24.1","","99.44","","","","","","NA"
"-111.96","60.02","FORT SMITH A","2202201","2022-06-26 13:00","2022","06","26","13:00","15.7","","7.3","","57","","","","29","","28","","24.1","","99.44","","","","","","Rain Showers"
"-111.96","60.02","FORT SMITH A","2202201","2022-06-26 14:00","2022","06","26","14:00","17.0","","6.2","","49","","","","28","","32","","24.1","","99.47","","","","","","Mostly Cloudy"
"-111.96","60.02","FORT SMITH A","2202201","2022-06-26 15:00","2022","06","26","15:00","16.5","","6.6","","52","","","","30","","22","","24.1","","99.49","","","","","","NA"
"-111.96","60.02","FORT SMITH A","2202201","2022-06-26 16:00","2022","06","26","16:00","13.6","","9.2","","74","","","","32","","19","","24.1","","99.55","","","","","","Rain Showers"
"-111.96","60.02","FORT SMITH A","2202201","2022-06-26 17:00","2022","06","26","17:00","12.7","","9.0","","78","","","","32","","19","","16.1","","99.57","","","","","","Rain Showers"
"-111.96","60.02","FORT SMITH A","2202201","2022-06-26 18:00","2022","06","26","18:00","12.6","","9.0","","78","","","","35","","15","","24.1","","99.62","","","","","","Rain Showers"
"-111.96","60.02","FORT SMITH A","2202201","2022-06-26 19:00","2022","06","26","19:00","13.1","","8.4","","73","","","","34","","12","","24.1","","99.64","","","","","","Rain Showers"
"-111.96","60.02","FORT SMITH A","2202201","2022-06-26 20:00","2022","06","26","20:00","13.2","","7.7","","69","","","","32","","9","","24.1","","99.68","","","","","","Mostly Cloudy"
"-111.96","60.02","FORT SMITH A","2202201","2022-06-26 21:00","2022","06","26","21:00","12.5","","7.2","","70","","","","33","","8","","24.1","","99.73","","","","","","NA"
"-111.96","60.02","FORT SMITH A","2202201","2022-06-26 22:00","2022","06","26","22:00","11.5","","7.0","","74","","","","31","","8","","24.1","","99.77","","","","","","NA"
"-111.96","60.02","FORT SMITH A","2202201","2022-06-26 23:00","2022","06","26","23:00","9.8","","6.9","","82","","","","30","","10","","24.1","","99.81","","","","","","Mainly Clear"
"-111.96","60.02","FORT SMITH A","2202201","2022-06-27 00:00","2022","06","27","00:00","7.5","","6.2","","92","","","","27","","6","","24.1","","99.84","","","","","","NA"
"-111.96","60.02","FORT SMITH A","2202201","2022-06-27 01:00","2022","06","27","01:00","8.7","","6.1","","84","","","","30","","9","","24.1","","99.86","","","","","","NA"
"-111.96","60.02","FORT SMITH A","2202201","2022-06-27 02:00","2022","06","27","02:00","8.0","","5.9","","86","","","","31","","9","","24.1","","99.88","","","","","","Clear"
"-111.96","60.02","FORT SMITH A","2202201","2022-06-27 03:00","2022","06","27","03:00","8.3","","6.2","","87","","","","32","","11","","24.1","","99.93","","","","","","NA"
"-111.96","60.02","FORT SMITH A","2202201","2022-06-27 04:00","2022","06","27","04:00","8.4","","6.5","","87","","","","34","","13","","24.1","","99.95","","","","","","NA"
"-111.96","60.02","FORT SMITH A","2202201","2022-06-27 05:00","2022","06","27","05:00","9.1","","6.8","","85","","","","34","","14","","24.1","","99.99","","","","","","Clear"
"-111.96","60.02","FORT SMITH A","2202201","2022-06-27 06:00","2022","06","27","06:00","9.9","","7.1","","83","","","","33","","9","","24.1","","100.04","","","","","","NA"
"-111.96","60.02","FORT SMITH A","2202201","2022-06-27 07:00","2022","06","27","07:00","12.0","","7.1","","72","","","","1","","7","","24.1","","100.06","","","","","","NA"
"-111.96","60.02","FORT SMITH A","2202201","2022-06-27 08:00","2022","06","27","08:00","14.2","","6.4","","59","","","","36","","7","","24.1","","100.08","","","","","","Clear"
"-111.96","60.02","FORT SMITH A","2202201","2022-06-27 09:00","2022","06","27","09:00","15.0","","4.7","","50","","","","36","","9","","24.1","","100.05","","","","","","NA"
"-111.96","60.02","FORT SMITH A","2202201","2022-06-27 10:00","2022","06","27","10:00","16.9","","3.6","","41","","","","6","","9","","24.1","","100.03","","","","","","NA"
"-111.96","60.02","FORT SMITH A","2202201","2022-06-27 11:00","2022","06","27","11:00","15.9","","3.9","","44","","","","36","","10","","24.1","","100.02","","","","","","Mostly Cloudy"
"-111.96","60.02","FORT SMITH A","2202201","2022-06-27 12:00","2022","06","27","12:00","16.1","","4.3","","45","","","","5","","6","","24.1","","100.01","","","","","","NA"
"-111.96","60.02","FORT SMITH A","2202201","2022-06-27 13:00","2022","06","27","13:00","17.4","","3.0","","38","","","","30","","11","","24.1","","99.96","","","","","","NA"
"-111.96","60.02","FORT SMITH A","2202201","2022-06-27 14:00","2022","06","27","14:00","18.6","","2.7","","34","","","","30","","7","","24.1","","99.90","","","","","","Mostly Cloudy"
"-111.96","60.02","FORT SMITH A","2202201","2022-06-27 15:00","2022","06","27","15:00","19.2","","2.3","","32","","","","25","","3","","24.1","","99.86","","","","","","NA"
"-111.96","60.02","FORT SMITH A","2202201","2022-06-27 16:00","2022","06","27","16:00","19.3","","2.2","","32","","","","26","","21","","24.1","","99.82","","","","","","NA"
"-111.96","60.02","FORT SMITH A","2202201","2022-06-27 17:00","2022","06","27","17:00","19.5","","2.8","","33","","","","27","","9","","24.1","","99.78","","","","","","Mostly Cloudy"
"-111.96","60.02","FORT SMITH A","2202201","2022-06-27 18:00","2022","06","27","18:00","18.9","","1.8","","32","","","","30","","11","","24.1","","99.74","","","","","","NA"
"-111.96","60.02","FORT SMITH A","2202201","2022-06-27 19:00","2022","06","27","19:00","19.4","","1.4","","30","","","","30","","12","","24.1","","99.70","","","","","","NA"
"-111.96","60.02","FORT SMITH A","2202201","2022-06-27 20:00","2022","06","27","20:00","18.0","","3.2","","37","","","","27","","3","","24.1","","99.65","","","","","","Mostly Cloudy"
"-111.96","60.02","FORT SMITH A","2202201","2022-06-27 21:00","2022","06","27","21:00","15.9","","5.4","","49","","","","36","","2","","24.1","","99.63","","","","","","NA"
"-111.96","60.02","FORT SMITH A","2202201","2022-06-27 22:00","2022","06","27","22:00","11.4","","5.2","","66","","","","15","","4","","24.1","","99.61","","","","","","NA"
"-111.96","60.02","FORT SMITH A","2202201","2022-06-27 23:00","2022","06","27","23:00","10.7","","4.0","","63","","","","15","","4","","24.1","","99.56","","","","","","Mainly Clear"
"-111.96","60.02","FORT SMITH A","2202201","2022-06-28 00:00","2022","06","28","00:00","11.4","","3.7","","59","","","","20","","5","","24.1","","99.53","","","","","","NA"
"-111.96","60.02","FORT SMITH A","2202201","2022-06-28 01:00","2022","06","28","01:00","10.3","","3.4","","62","","","","20","","7","","24.1","","99.49","","","","","","NA"
"-111.96","60.02","FORT SMITH A","2202201","2022-06-28 02:00","2022","06","28","02:00","7.1","","2.6","","73","","","","18","","10","","24.1","","99.43","","","","","","Mainly Clear"
"-111.96","60.02","FORT SMITH A","2202201","2022-06-28 03:00","2022","06","28","03:00","7.1","","3.2","","77","","","","15","","4","","24.1","","99.39","","","","","","NA"
"-111.96","60.02","FORT SMITH A","2202201","2022-06-28 04:00","2022","06","28","04:00","8.1","","4.0","","75","","","","36","","2","","24.1","","99.34","","","","","","NA"
"-111.96","60.02","FORT SMITH A","2202201","2022-06-28 05:00","2022","06","28","05:00","10.0","","5.4","","73","","","","18","","5","","24.1","","99.29","","","","","","Mainly Clear"
"-111.96","60.02","FORT SMITH A","2202201","2022-06-28 06:00","2022","06","28","06:00","12.3","","6.0","","65","","","","23","","7","","24.1","","99.26","","","","","","NA"
"-111.96","60.02","FORT SMITH A","2202201","2022-06-28 07:00","2022","06","28","07:00","15.9","","5.9","","51","","","","25","","13","","24.1","","99.18","","","","","","NA"
"-111.96","60.02","FORT SMITH A","2202201","2022-06-28 08:00","2022","06","28","08:00","18.0","","5.7","","44","","","","25","","21","","24.1","","99.10","","","","","","Mainly Clear"
"-111.96","60.02","FORT SMITH A","2202201","2022-06-28 09:00","2022","06","28","09:00","18.9","","6.8","","45","","","","25","","13","","24.1","","99.03","","","","","","NA"
"-111.96","60.02","FORT SMITH A","2202201","2022-06-28 10:00","2022","06","28","10:00","20.1","","7.0","","42","","","","28","","14","","24.1","","98.96","","","","","","NA"
"-111.96","60.02","FORT SMITH A","2202201","2022-06-28 11:00","2022","06","28","11:00","22.5","","4.6","","31","","","","26","","17","","24.1","","98.89","","","","","","Mostly Cloudy"
"-111.96","60.02","FORT SMITH A","2202201","2022-06-28 12:00","2022","06","28","12:00","21.2","","5.0","","34","","","","32","","12","","24.1","","98.84","","","","","","NA"
"-111.96","60.02","FORT SMITH A","2202201","2022-06-28 13:00","2022","06","28","13:00","22.6","","4.1","","30","","","","30","","17","","24.1","","98.80","","","","","","NA"
"-111.96","60.02","FORT SMITH A","2202201","2022-06-28 14:00","2022","06","28","14:00","24.3","","6.7","","32","","","","31","","10","","24.1","","98.70","","","","","","Mostly Cloudy"
"-111.96","60.02","FORT SMITH A","2202201","2022-06-28 15:00","2022","06","28","15:00","23.7","","5.6","","31","","","","29","","16","","24.1","","98.62","","","","","","NA"
"-111.96","60.02","FORT SMITH A","2202201","2022-06-28 16:00","2022","06","28","16:00","21.1","","9.2","","46","","","","33","","17","","24.1","","98.57","","","","","","Rain Showers"
"-111.96","60.02","FORT SMITH A","2202201","2022-06-28 17:00","2022","06","28","17:00","20.6","","10.9","","53","","","","24","","9","","24.1","","98.49","","","","","","Rain Showers"
"-111.96","60.02","FORT SMITH A","2202201","2022-06-28 18:00","2022","06","28","18:00","22.7","","6.0","","33","","","","34","","21","","24.1","","98.46","","","","","","NA"
"-111.96","60.02","FORT SMITH A","2202201","2022-06-28 19:00","2022","06","28","19:00","21.0","","4.7","","34","","","","31","","17","","24.1","","98.48","","","","","","NA"
"-111.96","60.02","FORT SMITH A","2202201","2022-06-28 20:00","2022","06","28","20:00","19.8","","5.7","","39","","","","32","","10","","19.3","","98.50","","","","","","Mostly Cloudy"
"-111.96","60.02","FORT SMITH A","2202201","2022-06-28 21:00","2022","06","28","21:00","18.1","","6.1","","45","","","","32","","8","","24.1","","98.53","","","","","","NA"
"-111.96","60.02","FORT SMITH A","2202201","2022-06-28 22:00","2022","06","28","22:00","17.5","","6.8","","49","","","","36","","10","","24.1","","98.59","","","","","","NA"
"-111.96","60.02","FORT SMITH A","2202201","2022-06-28 23:00","2022","06","28","23:00","16.0","","7.8","","58","","","","35","","7","","24.1","","98.60","","","","","","Mostly Cloudy"
"-111.96","60.02","FORT SMITH A","2202201","2022-06-29 00:00","2022","06","29","00:00","15.4","","8.2","","62","","","","36","","9","","24.1","","98.63","","","","","","NA"
"-111.96","60.02","FORT SMITH A","2202201","2022-06-29 01:00","2022","06","29","01:00","13.8","","8.9","","72","","","","1","","14","","24.1","","98.69","","","","","","NA"
"-111.96","60.02","FORT SMITH A","2202201","2022-06-29 02:00","2022","06","29","02:00","11.2","","8.1","","81","","","","3","","8","","24.1","","98.75","","","","","","Clear"
"-111.96","60.02","FORT SMITH A","2202201","2022-06-29 03:00","2022","06","29","03:00","10.3","","7.8","","84","","","","3","","12","","24.1","","98.79","","","","","","NA"
"-111.96","60.02","FORT SMITH A","2202201","2022-06-29 04:00","2022","06","29","04:00","9.3","","7.1","","86","","","","4","","9","","24.1","","98.84","","","","","","NA"
"-111.96","60.02","FORT SMITH A","2202201","2022-06-29 05:00","2022","06","29","05:00","9.9","","6.7","","80","","","","3","","10","","24.1","","98.87","","","","","","Clear"
"-111.96","60.02","FORT SMITH A","2202201","2022-06-29 06:00","2022","06","29","06:00","11.2","","5.8","","69","","","","2","","15","","24.1","","98.90","","","","","","NA"
"-111.96","60.02","FORT SMITH A","2202201","2022-06-29 07:00","2022","06","29","07:00","12.1","","4.2","","58","","","","2","","22","","24.1","","98.95","","","","","","NA"
"-111.96","60.02","FORT SMITH A","2202201","2022-06-29 08:00","2022","06","29","08:00","12.9","","3.9","","54","","","","2","","15","","24.1","","98.97","","","","","","Mainly Clear"
"-111.96","60.02","FORT SMITH A","2202201","2022-06-29 09:00","2022","06","29","09:00","13.4","","2.5","","48","","","","3","","18","","24.1","","98.97","","","","","","NA"
"-111.96","60.02","FORT SMITH A","2202201","2022-06-29 10:00","2022","06","29","10:00","14.1","","1.1","","41","","","","2","","14","","24.1","","99.00","","","","","","NA"
"-111.96","60.02","FORT SMITH A","2202201","2022-06-29 11:00","2022","06","29","11:00","14.8","","0.8","","38","","","","34","","10","","24.1","","99.00","","","","","","Mainly Clear"
"-111.96","60.02","FORT SMITH A","2202201","2022-06-29 12:00","2022","06","29","12:00","15.9","","0.9","","36","","","","33","","19","","24.1","","98.99","","","","","","NA"
"-111.96","60.02","FORT SMITH A","2202201","2022-06-29 13:00","2022","06","29","13:00","16.5","","0.1","","33","","","","1","","12","","24.1","","98.98","","","","","","NA"
"-111.96","60.02","FORT SMITH A","2202201","2022-06-29 14:00","2022","06","29","14:00","16.6","","-1.3","","29","","","","36","","20","","24.1","","98.97","","","","","","Clear"
"-111.96","60.02","FORT SMITH A","2202201","2022-06-29 15:00","2022","06","29","15:00","17.9","","0.1","","30","","","","32","","13","","24.1","","98.95","","","","","","NA"
"-111.96","60.02","FORT SMITH A","2202201","2022-06-29 16:00","2022","06","29","16:00"
"-111.96","60.02","FORT SMITH A","2202201","2022-06-29 17:00","2022","06","29","17:00","18.0","","-4.6","","21","","","","34","","25","","24.1","","98.92","","","","","","Clear"
"-111.96","60.02","FORT SMITH A","2202201","2022-06-29 18:00","2022","06","29","18:00","17.6","","-2.9","","24","","","","34","","20","","24.1","","98.90","","","","","","NA"
"-111.96","60.02","FORT SMITH A","2202201","2022-06-29 19:00","2022","06","29","19:00","16.8","","-2.3","","27","","","","1","","16","","24.1","","98.92","","","","","","NA"
"-111.96","60.02","FORT SMITH A","2202201","2022-06-29 20:00","2022","06","29","20:00","15.6","","-3.1","","27","","","","1","","11","","24.1","","98.93","","","","","","Clear"
"-111.96","60.02","FORT SMITH A","2202201","2022-06-29 21:00","2022","06","29","21:00","13.7","","-1.0","","36","","","","2","","13","","24.1","","98.95","","","","","","NA"
"-111.96","60.02","FORT SMITH A","2202201","2022-06-29 22:00","2022","06","29","22:00","11.9","","-0.2","","43","","","","35","","6","","24.1","","98.99","","","","","","NA"
"-111.96","60.02","FORT SMITH A","2202201","2022-06-29 23:00","2022","06","29","23:00","7.8","","0.2","","59","","","","31","","5","","24.1","","99.03","","","","","","Mainly Clear"
"-111.96","60.02","FORT SMITH A","2202201","2022-06-30 00:00","2022","06","30","00:00","7.4","","0.1","","60","","","","36","","2","","24.1","","99.08","","","","","","NA"
"-111.96","60.02","FORT SMITH A","2202201","2022-06-30 01:00","2022","06","30","01:00","5.5","","0.1","","68","","","","36","","1","","24.1","","99.12","","","","","","NA"
"-111.96","60.02","FORT SMITH A","2202201","2022-06-30 02:00","2022","06","30","02:00","6.7","","1.0","","67","","","","36","","3","","24.1","","99.18","","","","","","Mainly Clear"
"-111.96","60.02","FORT SMITH A","2202201","2022-06-30 03:00","2022","06","30","03:00","5.6","","1.7","","76","","","","2","","10","","24.1","","99.20","","","","","","NA"
"-111.96","60.02","FORT SMITH A","2202201","2022-06-30 04:00","2022","06","30","04:00","5.8","","1.8","","76","","","","36","","2","","24.1","","99.22","","","","","","NA"
"-111.96","60.02","FORT SMITH A","2202201","2022-06-30 05:00","2022","06","30","05:00","6.6","","3.2","","79","","","","0","","1","","24.1","","99.25","","","","","","Mainly Clear"
"-111.96","60.02","FORT SMITH A","2202201","2022-06-30 06:00","2022","06","30","06:00","10.3","","4.0","","65","","","","29","","3","","24.1","","99.28","","","","","","NA"
"-111.96","60.02","FORT SMITH A","2202201","2022-06-30 07:00","2022","06","30","07:00","13.1","","2.4","","48","","","","33","","8","","24.1","","99.31","","","","","","NA"
"-111.96","60.02","FORT SMITH A","2202201","2022-06-30 08:00","2022","06","30","08:00","13.9","","0.2","","39","","","","1","","12","","24.1","","99.31","","","","","","Mostly Cloudy"
"-111.96","60.02","FORT SMITH A","2202201","2022-06-30 09:00","2022","06","30","09:00","14.8","","0.2","","36","","","","1","","14","","24.1","","99.31","","","","","","NA"
"-111.96","60.02","FORT SMITH A","2202201","2022-06-30 10:00","2022","06","30","10:00","15.3","","-0.9","","33","","","","2","","14","","24.1","","99.31","","","","","","NA"
"-111.96","60.02","FORT SMITH A","2202201","2022-06-30 11:00","2022","06","30","11:00","16.8","","0.3","","32","","","","30","","7","","24.1","","99.30","","","","","","Mostly Cloudy"
"-111.96","60.02","FORT SMITH A","2202201","2022-06-30 12:00","2022","06","30","12:00","17.4","","0.7","","32","","","","32","","11","","24.1","","99.30","","","","","","NA"
"-111.96","60.02","FORT SMITH A","2202201","2022-06-30 13:00","2022","06","30","13:00","17.4","","1.3","","34","","","","31","","9","","24.1","","99.33","","","","","","NA"
"-111.96","60.02","FORT SMITH A","2202201","2022-06-30 14:00","2022","06","30","14:00","17.7","","0.5","","31","","","","35","","11","","24.1","","99.33","","","","","","Mostly Cloudy"
"-111.96","60.02","FORT SMITH A","2202201","2022-06-30 15:00","2022","06","30","15:00","18.2","","0.5","","30","","","","4","","14","","24.1","","99.33","","","","","","NA"
"-111.96","60.02","FORT SMITH A","2202201","2022-06-30 16:00","2022","06","30","16:00","18.3","","1.2","","32","","","","5","","10","","24.1","","99.31","","","","","","NA"
"-111.96","60.02","FORT SMITH A","2202201","2022-06-30 17:00","2022","06","30","17:00","18.8","","1.1","","30","","","","34","","8","","24.1","","99.29","","","","","","Mostly Cloudy"
"-111.96","60.02","FORT SMITH A","2202201","2022-06-30 18:00","2022","06","30","18:00","18.9","","0.5","","29","","","","34","","8","","24.1","","99.28","","","","","","NA"
"-111.96","60.02","FORT SMITH A","2202201","2022-06-30 19:00","2022","06","30","19:00","18.6","","2.1","","33","","","","1","","9","","24.1","","99.27","","","","","","NA"
"-111.96","60.02","FORT SMITH A","2202201","2022-06-30 20:00","2022","06","30","20:00","18.5","","3.1","","36","","","","1","","4","","24.1","","99.25","","","","","","Mostly Cloudy"
"-111.96","60.02","FORT SMITH A","2202201","2022-06-30 21:00","2022","06","30","21:00","16.1","","2.6","","40","","","","1","","7","","24.1","","99.27","","","","","","NA"
"-111.96","60.02","FORT SMITH A","2202201","2022-06-30 22:00","2022","06","30","22:00","14.0","","3.2","","48","","","","36","","3","","24.1","","99.32","","","","","","NA"
"-111.96","60.02","FORT SMITH A","2202201","2022-06-30 23:00","2022","06","30","23:00","10.9","","3.4","","60","","","","36","","3","","24.1","","99.37","","","","","","Mostly Cloudy"
