"Longitude (x)","Latitude (y)","Station Name","Climate ID","Date/Time (LST)","Year","Month","Day","Time (LST)","Temp (°C)","Temp Flag","Dew Point Temp (°C)","Dew Point Temp Flag","Rel Hum (%)","Rel Hum Flag","Precip. Amount (mm)","Precip. Amount Flag","Wind Dir (10s deg)","Wind Dir Flag","Wind Spd (km/h)","Wind Spd Flag","Visibility (km)","Visibility Flag","Stn Press (kPa)","Stn Press Flag","Hmdx","Hmdx Flag","Wind Chill","Wind Chill Flag","Weather"
"-77.78","48.05","VAL D'OR A","7098606","2023-02-01 00:00","2023","02","01","00:00"
"-77.78","48.05","VAL D'OR A","7098606","2023-02-01 01:00","2023","02","01","01:00"
"-77.78","48.05","VAL D'OR A","7098606","2023-02-01 02:00","2023","02","01","02:00"
"-77.78","48.05","VAL D'OR A","7098606","2023-02-01 03:00","2023","02","01","03:00"
"-77.78","48.05","VAL D'OR A","7098606","2023-02-01 04:00","2023","02","01","04:00"
"-77.78","48.05","VAL D'OR A","7098606","2023-02-01 05:00","2023","02","01","05:00"
"-77.78","48.05","VAL D'OR A","7098606","2023-02-01 06:00","2023","02","01","06:00","-18.0","","-19.3","","90","","","","20","","10","","24.1","","97.61","","","","-25","","NA"
"-77.78","48.05","VAL D'OR A","7098606","2023-02-01 07:00","2023","02","01","07:00","-18.3","","-19.7","","89","","","","21","","9","","24.1","","97.58","","","","-25","","Mainly Clear"
"-77.78","48.05","VAL D'OR A","7098606","2023-02-01 08:00","2023","02","01","08:00","-17.2","","-18.5","","90","","","","21","","10","","24.1","","97.61","","","","-24","","NA"
"-77.78","48.05","VAL D'OR A","7098606","2023-02-01 09:00","2023","02","01","09:00","-16.4","","-17.7","","90","","","","19","","9","","24.1","","97.60","","","","-22","","NA"
"-77.78","48.05","VAL D'OR A","7098606","2023-02-01 10:00","2023","02","01","10:00","-13.0","","-14.9","","86","","","","22","","15","","24.1","","97.59","","","","-20","","Clear"
"-77.78","48.05","VAL D'OR A","7098606","2023-02-01 11:00","2023","02","01","11:00","-11.1","","-15.0","","73","","","","25","","12","","24.1","","97.55","","","","-17","","NA"
"-77.78","48.05","VAL D'OR A","7098606","2023-02-01 12:00","2023","02","01","12:00","-9.7","","-14.9","","66","","","","25","","9","","24.1","","97.46","","","","-15","","NA"
"-77.78","48.05","VAL D'OR A","7098606","2023-02-01 13:00","2023","02","01","13:00","-9.3","","-15.5","","61","","","","28","","12","","24.1","","97.39","","","","-15","","Mainly Clear"
"-77.78","48.05","VAL D'OR A","7098606","2023-02-01 14:00","2023","02","01","14:00","-8.5","","-15.6","","57","","","","22","","15","","24.1","","97.31","","","","-15","","NA"
"-77.78","48.05","VAL D'OR A","7098606","2023-02-01 15:00","2023","02","01","15:00","-8.3","","-16.6","","52","","","","23","","15","","24.1","","97.28","","","","-15","","NA"
"-77.78","48.05","VAL D'OR A","7098606","2023-02-01 16:00","2023","02","01","16:00","-8.6","","-17.3","","50","","","","21","","22","","24.1","","97.28","","","","-16","","Mostly Cloudy"
"-77.78","48.05","VAL D'OR A","7098606","2023-02-01 17:00","2023","02","01","17:00","-9.5","","-16.8","","56","","","","23","","17","","24.1","","97.32","","","","-17","","NA"
"-77.78","48.05","VAL D'OR A","7098606","2023-02-01 18:00","2023","02","01","18:00","-9.8","","-13.8","","73","","","","25","","6","","19.3","","97.36","","","","-13","","Snow"
"-77.78","48.05","VAL D'OR A","7098606","2023-02-01 19:00","2023","02","01","19:00","-10.9","","-12.9","","85","","","","21","","9","","19.3","","97.35","","","","-16","","Snow"
"-77.78","48.05","VAL D'OR A","7098606","2023-02-01 20:00","2023","02","01","20:00","-11.6","","-12.9","","90","","","","20","","6","","16.1","","97.31","","","","-15","","Snow"
"-77.78","48.05","VAL D'OR A","7098606","2023-02-01 21:00","2023","02","01","21:00","-12.0","","-13.6","","88","","","","19","","9","","12.9","","97.26","","","","-17","","Snow"
"-77.78","48.05","VAL D'OR A","7098606","2023-02-01 22:00","2023","02","01","22:00","-13.1","","-15.6","","82","","","","19","","8","","19.3","","97.22","","","","-18","","Mostly Cloudy"
"-77.78","48.05","VAL D'OR A","7098606","2023-02-01 23:00","2023","02","01","23:00"
"-77.78","48.05","VAL D'OR A","7098606","2023-02-02 00:00","2023","02","02","00:00"
"-77.78","48.05","VAL D'OR A","7098606","2023-02-02 01:00","2023","02","02","01:00"
"-77.78","48.05","VAL D'OR A","7098606","2023-02-02 02:00","2023","02","02","02:00"
"-77.78","48.05","VAL D'OR A","7098606","2023-02-02 03:00","2023","02","02","03:00"
"-77.78","48.05","VAL D'OR A","7098606","2023-02-02 04:00","2023","02","02","04:00"
"-77.78","48.05","VAL D'OR A","7098606","2023-02-02 05:00","2023","02","02","05:00"
"-77.78","48.05","VAL D'OR A","7098606","2023-02-02 06:00","2023","02","02","06:00","-14.3","","-15.9","","88","","","","18","","14","","4.0","","96.87","","","","-22","","Snow"
"-77.78","48.05","VAL D'OR A","7098606","2023-02-02 07:00","2023","02","02","07:00","-13.5","","-14.9","","89","","","","19","","15","","2.4","","96.75","","","","-21","","Snow"
"-77.78","48.05","VAL D'OR A","7098606","2023-02-02 08:00","2023","02","02","08:00","-12.8","","-14.1","","90","","","","17","","15","","24.1","","96.59","","","","-20","","Snow"
"-77.78","48.05","VAL D'OR A","7098606","2023-02-02 09:00","2023","02","02","09:00","-11.8","","-13.3","","89","","","","18","","18","","2.0","","96.44","","","","-20","","Snow Showers"
"-77.78","48.05","VAL D'OR A","7098606","2023-02-02 10:00","2023","02","02","10:00","-11.2","","-12.7","","89","","","","18","","19","","2.0","","96.27","","","","-19","","Snow Showers"
"-77.78","48.05","VAL D'OR A","7098606","2023-02-02 11:00","2023","02","02","11:00","-10.0","","-11.5","","89","","","","19","","20","","2.0","","96.11","","","","-18","","Snow Showers"
"-77.78","48.05","VAL D'OR A","7098606","2023-02-02 12:00","2023","02","02","12:00","-8.6","","-10.1","","89","","","","20","","18","","2.0","","95.91","","","","-16","","Snow Showers"
"-77.78","48.05","VAL D'OR A","7098606","2023-02-02 13:00","2023","02","02","13:00","-7.8","","-9.0","","91","","","","21","","13","","1.6","","95.79","","","","-14","","Snow Showers"
"-77.78","48.05","VAL D'OR A","7098606","2023-02-02 14:00","2023","02","02","14:00","-8.4","","-10.1","","88","","","","31","","18","","1.6","","95.74","","","","-15","","Snow Showers,Blowing Snow"
"-77.78","48.05","VAL D'OR A","7098606","2023-02-02 15:00","2023","02","02","15:00","-12.2","","-14.8","","81","","","","32","","25","","2.4","","95.90","","","","-22","","Snow Showers,Blowing Snow"
"-77.78","48.05","VAL D'OR A","7098606","2023-02-02 16:00","2023","02","02","16:00","-14.9","","-17.5","","81","","","","32","","29","","1.6","","96.11","","","","-26","","Snow Showers,Blowing Snow"
"-77.78","48.05","VAL D'OR A","7098606","2023-02-02 17:00","2023","02","02","17:00","-17.1","","-21.5","","69","","","","33","","26","","4.8","","96.34","","","","-28","","Snow Showers,Blowing Snow"
"-77.78","48.05","VAL D'OR A","7098606","2023-02-02 18:00","2023","02","02","18:00","-19.1","","-23.1","","71","","","","32","","25","","16.1","","96.58","","","","-30","","Snow Showers"
"-77.78","48.05","VAL D'OR A","7098606","2023-02-02 19:00","2023","02","02","19:00","-20.8","","-25.3","","68","","","","33","","23","","24.1","","96.76","","","","-32","","Snow Showers"
"-77.78","48.05","VAL D'OR A","7098606","2023-02-02 20:00","2023","02","02","20:00","-22.2","","-25.9","","73","","","","32","","19","","9.7","","96.92","","","","-33","","Snow Showers,Blowing Snow"
"-77.78","48.05","VAL D'OR A","7098606","2023-02-02 21:00","2023","02","02","21:00","-24.5","","-29.5","","64","","","","32","","19","","12.9","","97.06","","","","-36","","Snow Showers,Blowing Snow"
"-77.78","48.05","VAL D'OR A","7098606","2023-02-02 22:00","2023","02","02","22:00","-26.4","","-32.0","","60","","","","31","","19","","24.1","","97.19","","","","-38","","Mainly Clear"
"-77.78","48.05","VAL D'OR A","7098606","2023-02-02 23:00","2023","02","02","23:00"
"-77.78","48.05","VAL D'OR A","7098606","2023-02-03 00:00","2023","02","03","00:00"
"-77.78","48.05","VAL D'OR A","7098606","2023-02-03 01:00","2023","02","03","01:00"
"-77.78","48.05","VAL D'OR A","7098606","2023-02-03 02:00","2023","02","03","02:00"
"-77.78","48.05","VAL D'OR A","7098606","2023-02-03 03:00","2023","02","03","03:00"
"-77.78","48.05","VAL D'OR A","7098606","2023-02-03 04:00","2023","02","03","04:00"
"-77.78","48.05","VAL D'OR A","7098606","2023-02-03 05:00","2023","02","03","05:00"
"-77.78","48.05","VAL D'OR A","7098606","2023-02-03 06:00","2023","02","03","06:00","-34.4","","-38.1","","70","","","","30","","8","","8.1","","97.76","","","","-43","","Snow Showers"
"-77.78","48.05","VAL D'OR A","7098606","2023-02-03 07:00","2023","02","03","07:00","-34.8","","-39.1","","66","","","","29","","10","","24.1","","97.77","","","","-45","","Mainly Clear"
"-77.78","48.05","VAL D'OR A","7098606","2023-02-03 08:00","2023","02","03","08:00","-35.0","","-39.6","","64","","","","29","","11","","24.1","","97.92","","","","-46","","NA"
"-77.78","48.05","VAL D'OR A","7098606","2023-02-03 09:00","2023","02","03","09:00","-34.0","","-39.0","","62","","","","30","","17","","24.1","","97.90","","","","-47","","NA"
"-77.78","48.05","VAL D'OR A","7098606","2023-02-03 10:00","2023","02","03","10:00","-33.1","","-38.4","","60","","","","30","","14","","24.1","","97.91","","","","-45","","Mostly Cloudy"
"-77.78","48.05","VAL D'OR A","7098606","2023-02-03 11:00","2023","02","03","11:00","-31.8","","-37.7","","57","","","","30","","21","","24.1","","97.95","","","","-46","","Blowing Snow"
"-77.78","48.05","VAL D'OR A","7098606","2023-02-03 12:00","2023","02","03","12:00","-31.2","","-36.4","","61","","","","30","","12","","16.1","","97.92","","","","-42","","Blowing Snow"
"-77.78","48.05","VAL D'OR A","7098606","2023-02-03 13:00","2023","02","03","13:00","-30.6","","-36.2","","59","","","","29","","18","","8.1","","97.95","","","","-43","","Snow Showers,Blowing Snow"
"-77.78","48.05","VAL D'OR A","7098606","2023-02-03 14:00","2023","02","03","14:00","-30.2","","-35.8","","59","","","","30","","22","","8.1","","98.07","","","","-44","","Snow Showers,Blowing Snow"
"-77.78","48.05","VAL D'OR A","7098606","2023-02-03 15:00","2023","02","03","15:00","-30.4","","-36.5","","56","","","","29","","20","","9.7","","98.08","","","","-44","","Blowing Snow"
"-77.78","48.05","VAL D'OR A","7098606","2023-02-03 16:00","2023","02","03","16:00","-30.6","","-35.8","","61","","","","31","","18","","9.7","","98.23","","","","-43","","Blowing Snow"
"-77.78","48.05","VAL D'OR A","7098606","2023-02-03 17:00","2023","02","03","17:00","-30.8","","-36.2","","60","","","","30","","21","","9.7","","98.35","","","","-44","","Blowing Snow"
"-77.78","48.05","VAL D'OR A","7098606","2023-02-03 18:00","2023","02","03","18:00","-30.9","","-34.7","","70","","","","28","","13","","4.8","","98.53","","","","-42","","Snow,Blowing Snow"
"-77.78","48.05","VAL D'OR A","7098606","2023-02-03 19:00","2023","02","03","19:00","-31.1","","-35.0","","69","","","","30","","13","","6.4","","98.50","","","","-42","","Ice Crystals,Blowing Snow"
"-77.78","48.05","VAL D'OR A","7098606","2023-02-03 20:00","2023","02","03","20:00","-31.5","","-35.1","","71","","","","30","","12","","14.5","","98.71","","","","-42","","Ice Crystals,Blowing Snow"
"-77.78","48.05","VAL D'OR A","7098606","2023-02-03 21:00","2023","02","03","21:00","-32.3","","-35.5","","74","","","","27","","8","","16.1","","98.56","","","","-41","","Ice Crystals"
"-77.78","48.05","VAL D'OR A","7098606","2023-02-03 22:00","2023","02","03","22:00","-33.4","","-36.6","","74","","","","26","","7","","24.1","","98.63","","","","-41","","Ice Crystals"
"-77.78","48.05","VAL D'OR A","7098606","2023-02-03 23:00","2023","02","03","23:00"
"-77.78","48.05","VAL D'OR A","7098606","2023-02-04 00:00","2023","02","04","00:00"
"-77.78","48.05","VAL D'OR A","7098606","2023-02-04 01:00","2023","02","04","01:00"
"-77.78","48.05","VAL D'OR A","7098606","2023-02-04 02:00","2023","02","04","02:00"
"-77.78","48.05","VAL D'OR A","7098606","2023-02-04 03:00","2023","02","04","03:00"
"-77.78","48.05","VAL D'OR A","7098606","2023-02-04 04:00","2023","02","04","04:00"
"-77.78","48.05","VAL D'OR A","7098606","2023-02-04 05:00","2023","02","04","05:00"
"-77.78","48.05","VAL D'OR A","7098606","2023-02-04 06:00","2023","02","04","06:00","-35.5","","-38.6","","74","","","","19","","10","","24.1","","98.53","","","","-46","","NA"
"-77.78","48.05","VAL D'OR A","7098606","2023-02-04 07:00","2023","02","04","07:00","-34.1","","-37.4","","73","","","","20","","11","","24.1","","98.38","","","","-45","","Mainly Clear"
"-77.78","48.05","VAL D'OR A","7098606","2023-02-04 08:00","2023","02","04","08:00","-32.1","","-35.3","","74","","","","19","","17","","24.1","","98.30","","","","-45","","NA"
"-77.78","48.05","VAL D'OR A","7098606","2023-02-04 09:00","2023","02","04","09:00","-29.2","","-32.3","","75","","","","18","","18","","24.1","","98.33","","","","-41","","NA"
"-77.78","48.05","VAL D'OR A","7098606","2023-02-04 10:00","2023","02","04","10:00","-26.5","","-29.7","","75","","","","17","","17","","8.1","","98.15","","","","-38","","Snow Showers"
"-77.78","48.05","VAL D'OR A","7098606","2023-02-04 11:00","2023","02","04","11:00","-23.5","","-27.5","","70","","","","18","","31","","4.8","","98.07","","","","-37","","Snow Showers"
"-77.78","48.05","VAL D'OR A","7098606","2023-02-04 12:00","2023","02","04","12:00","-21.9","","-24.9","","77","","","","16","","26","","3.2","","97.92","","","","-34","","Snow Showers"
"-77.78","48.05","VAL D'OR A","7098606","2023-02-04 13:00","2023","02","04","13:00","-20.0","","-22.6","","80","","","","17","","30","","3.6","","97.72","","","","-33","","Snow Showers"
"-77.78","48.05","VAL D'OR A","7098606","2023-02-04 14:00","2023","02","04","14:00","-18.1","","-20.6","","81","","","","17","","31","","3.2","","97.52","","","","-30","","Snow,Blowing Snow"
"-77.78","48.05","VAL D'OR A","7098606","2023-02-04 15:00","2023","02","04","15:00","-16.1","","-18.8","","80","","","","18","","38","","3.6","","97.34","","","","-29","","Snow,Blowing Snow"
"-77.78","48.05","VAL D'OR A","7098606","2023-02-04 16:00","2023","02","04","16:00","-15.8","","-18.5","","80","","","","18","","29","","8.1","","97.22","","","","-27","","Snow"
"-77.78","48.05","VAL D'OR A","7098606","2023-02-04 17:00","2023","02","04","17:00","-16.3","","-18.8","","81","","","","18","","34","","6.4","","97.22","","","","-28","","Snow,Blowing Snow"
"-77.78","48.05","VAL D'OR A","7098606","2023-02-04 18:00","2023","02","04","18:00","-16.4","","-18.8","","82","","","","18","","37","","3.2","","97.18","","","","-29","","Snow,Blowing Snow"
"-77.78","48.05","VAL D'OR A","7098606","2023-02-04 19:00","2023","02","04","19:00","-16.3","","-18.7","","82","","","","19","","29","","3.2","","97.14","","","","-28","","Snow,Blowing Snow"
"-77.78","48.05","VAL D'OR A","7098606","2023-02-04 20:00","2023","02","04","20:00","-16.0","","-18.3","","83","","","","19","","34","","2.4","","97.08","","","","-28","","Snow,Blowing Snow"
"-77.78","48.05","VAL D'OR A","7098606","2023-02-04 21:00","2023","02","04","21:00","-15.5","","-17.8","","83","","","","19","","31","","3.2","","97.03","","","","-27","","Snow"
"-77.78","48.05","VAL D'OR A","7098606","2023-02-04 22:00","2023","02","04","22:00","-15.1","","-17.2","","84","","","","19","","28","","4.0","","96.98","","","","-26","","Snow"
"-77.78","48.05","VAL D'OR A","7098606","2023-02-04 23:00","2023","02","04","23:00"
"-77.78","48.05","VAL D'OR A","7098606","2023-02-05 00:00","2023","02","05","00:00"
"-77.78","48.05","VAL D'OR A","7098606","2023-02-05 01:00","2023","02","05","01:00"
"-77.78","48.05","VAL D'OR A","7098606","2023-02-05 02:00","2023","02","05","02:00"
"-77.78","48.05","VAL D'OR A","7098606","2023-02-05 03:00","2023","02","05","03:00"
"-77.78","48.05","VAL D'OR A","7098606","2023-02-05 04:00","2023","02","05","04:00"
"-77.78","48.05","VAL D'OR A","7098606","2023-02-05 05:00","2023","02","05","05:00"
"-77.78","48.05","VAL D'OR A","7098606","2023-02-05 06:00","2023","02","05","06:00","-12.6","","-13.9","","90","","","","19","","14","","16.1","","96.77","","","","-20","","Snow"
"-77.78","48.05","VAL D'OR A","7098606","2023-02-05 07:00","2023","02","05","07:00","-12.4","","-13.9","","89","","","","19","","10","","19.3","","96.80","","","","-18","","Snow"
"-77.78","48.05","VAL D'OR A","7098606","2023-02-05 08:00","2023","02","05","08:00","-12.2","","-13.5","","90","","","","20","","11","","6.4","","96.84","","","","-18","","Snow"
"-77.78","48.05","VAL D'OR A","7098606","2023-02-05 09:00","2023","02","05","09:00","-11.8","","-13.3","","89","","","","19","","7","","11.3","","96.87","","","","-16","","Snow"
"-77.78","48.05","VAL D'OR A","7098606","2023-02-05 10:00","2023","02","05","10:00","-11.0","","-12.8","","87","","","","36","","3","","16.1","","96.85","","","","-13","","Snow"
"-77.78","48.05","VAL D'OR A","7098606","2023-02-05 11:00","2023","02","05","11:00","-10.3","","-12.1","","87","","","","36","","8","","24.1","","96.84","","","","-15","","NA"
"-77.78","48.05","VAL D'OR A","7098606","2023-02-05 12:00","2023","02","05","12:00","-10.0","","-12.3","","84","","","","35","","12","","16.1","","96.79","","","","-16","","Snow"
"-77.78","48.05","VAL D'OR A","7098606","2023-02-05 13:00","2023","02","05","13:00","-10.6","","-12.7","","85","","","","36","","17","","3.6","","96.77","","","","-18","","Snow"
"-77.78","48.05","VAL D'OR A","7098606","2023-02-05 14:00","2023","02","05","14:00","-11.5","","-13.4","","86","","","","1","","19","","2.4","","96.76","","","","-20","","Snow"
"-77.78","48.05","VAL D'OR A","7098606","2023-02-05 15:00","2023","02","05","15:00","-11.6","","-13.6","","85","","","","2","","17","","2.4","","96.81","","","","-19","","Snow"
"-77.78","48.05","VAL D'OR A","7098606","2023-02-05 16:00","2023","02","05","16:00","-11.5","","-13.1","","88","","","","35","","14","","2.0","","96.87","","","","-18","","Snow"
"-77.78","48.05","VAL D'OR A","7098606","2023-02-05 17:00","2023","02","05","17:00","-11.7","","-13.0","","90","","","","1","","13","","2.4","","96.96","","","","-18","","Snow"
"-77.78","48.05","VAL D'OR A","7098606","2023-02-05 18:00","2023","02","05","18:00","-12.5","","-13.9","","89","","","","36","","16","","3.2","","97.08","","","","-20","","Snow"
"-77.78","48.05","VAL D'OR A","7098606","2023-02-05 19:00","2023","02","05","19:00","-13.0","","-14.4","","89","","","","1","","12","","4.8","","97.16","","","","-20","","Snow"
"-77.78","48.05","VAL D'OR A","7098606","2023-02-05 20:00","2023","02","05","20:00","-14.1","","-16.0","","86","","","","36","","20","","16.1","","97.24","","","","-23","","Snow"
"-77.78","48.05","VAL D'OR A","7098606","2023-02-05 21:00","2023","02","05","21:00","-14.0","","-16.1","","85","","","","36","","18","","24.1","","97.30","","","","-22","","Snow"
"-77.78","48.05","VAL D'OR A","7098606","2023-02-05 22:00","2023","02","05","22:00","-14.2","","-16.9","","80","","","","36","","18","","24.1","","97.38","","","","-23","","Cloudy"
"-77.78","48.05","VAL D'OR A","7098606","2023-02-05 23:00","2023","02","05","23:00"
"-77.78","48.05","VAL D'OR A","7098606","2023-02-06 00:00","2023","02","06","00:00"
"-77.78","48.05","VAL D'OR A","7098606","2023-02-06 01:00","2023","02","06","01:00"
"-77.78","48.05","VAL D'OR A","7098606","2023-02-06 02:00","2023","02","06","02:00"
"-77.78","48.05","VAL D'OR A","7098606","2023-02-06 03:00","2023","02","06","03:00"
"-77.78","48.05","VAL D'OR A","7098606","2023-02-06 04:00","2023","02","06","04:00"
"-77.78","48.05","VAL D'OR A","7098606","2023-02-06 05:00","2023","02","06","05:00"
"-77.78","48.05","VAL D'OR A","7098606","2023-02-06 06:00","2023","02","06","06:00","-23.3","","-25.1","","85","","","","30","","10","","24.1","","98.18","","","","-31","","NA"
"-77.78","48.05","VAL D'OR A","7098606","2023-02-06 07:00","2023","02","06","07:00","-24.2","","-26.1","","85","","","","36","","1","","24.1","","98.26","","","","-25","","Clear"
"-77.78","48.05","VAL D'OR A","7098606","2023-02-06 08:00","2023","02","06","08:00","-23.4","","-25.2","","85","","","","29","","10","","24.1","","98.37","","","","-31","","NA"
"-77.78","48.05","VAL D'OR A","7098606","2023-02-06 09:00","2023","02","06","09:00","-22.1","","-24.0","","85","","","","33","","6","","24.1","","98.46","","","","-27","","NA"
"-77.78","48.05","VAL D'OR A","7098606","2023-02-06 10:00","2023","02","06","10:00","-21.1","","-23.0","","85","","","","12","","3","","24.1","","98.51","","","","-24","","Clear"
"-77.78","48.05","VAL D'OR A","7098606","2023-02-06 11:00","2023","02","06","11:00","-17.7","","-20.4","","80","","","","13","","7","","24.1","","98.53","","","","-23","","NA"
"-77.78","48.05","VAL D'OR A","7098606","2023-02-06 12:00","2023","02","06","12:00","-14.6","","-18.0","","76","","","","16","","14","","24.1","","98.42","","","","-22","","NA"
"-77.78","48.05","VAL D'OR A","7098606","2023-02-06 13:00","2023","02","06","13:00","-12.7","","-16.8","","72","","","","11","","5","","24.1","","98.47","","","","-16","","Mainly Clear"
"-77.78","48.05","VAL D'OR A","7098606","2023-02-06 14:00","2023","02","06","14:00","-10.9","","-15.4","","70","","","","16","","10","","24.1","","98.38","","","","-16","","NA"
"-77.78","48.05","VAL D'OR A","7098606","2023-02-06 15:00","2023","02","06","15:00","-10.6","","-14.5","","73","","","","16","","17","","24.1","","98.31","","","","-18","","NA"
"-77.78","48.05","VAL D'OR A","7098606","2023-02-06 16:00","2023","02","06","16:00","-10.5","","-14.4","","73","","","","14","","14","","24.1","","98.31","","","","-17","","Clear"
"-77.78","48.05","VAL D'OR A","7098606","2023-02-06 17:00","2023","02","06","17:00","-11.7","","-14.7","","78","","","","17","","13","","24.1","","98.34","","","","-18","","NA"
"-77.78","48.05","VAL D'OR A","7098606","2023-02-06 18:00","2023","02","06","18:00","-12.4","","-14.7","","83","","","","17","","13","","24.1","","98.34","","","","-19","","NA"
"-77.78","48.05","VAL D'OR A","7098606","2023-02-06 19:00","2023","02","06","19:00","-12.7","","-14.7","","85","","","","18","","13","","24.1","","98.31","","","","-20","","Mainly Clear"
"-77.78","48.05","VAL D'OR A","7098606","2023-02-06 20:00","2023","02","06","20:00","-13.4","","-15.0","","88","","","","17","","19","","24.1","","98.22","","","","-22","","NA"
"-77.78","48.05","VAL D'OR A","7098606","2023-02-06 21:00","2023","02","06","21:00","-13.9","","-15.6","","87","","","","17","","15","","24.1","","98.17","","","","-22","","NA"
"-77.78","48.05","VAL D'OR A","7098606","2023-02-06 22:00","2023","02","06","22:00","-15.0","","-16.5","","88","","","","18","","10","","24.1","","98.15","","","","-21","","Mainly Clear"
"-77.78","48.05","VAL D'OR A","7098606","2023-02-06 23:00","2023","02","06","23:00"
"-77.78","48.05","VAL D'OR A","7098606","2023-02-07 00:00","2023","02","07","00:00"
"-77.78","48.05","VAL D'OR A","7098606","2023-02-07 01:00","2023","02","07","01:00"
"-77.78","48.05","VAL D'OR A","7098606","2023-02-07 02:00","2023","02","07","02:00"
"-77.78","48.05","VAL D'OR A","7098606","2023-02-07 03:00","2023","02","07","03:00"
"-77.78","48.05","VAL D'OR A","7098606","2023-02-07 04:00","2023","02","07","04:00"
"-77.78","48.05","VAL D'OR A","7098606","2023-02-07 05:00","2023","02","07","05:00"
"-77.78","48.05","VAL D'OR A","7098606","2023-02-07 06:00","2023","02","07","06:00","-11.0","","-13.7","","81","","","","16","","33","","24.1","","97.43","","","","-21","","Blowing Snow"
"-77.78","48.05","VAL D'OR A","7098606","2023-02-07 07:00","2023","02","07","07:00","-10.6","","-12.4","","86","","","","16","","43","","24.1","","97.16","","","","-22","","Blowing Snow"
"-77.78","48.05","VAL D'OR A","7098606","2023-02-07 08:00","2023","02","07","08:00","-9.5","","-11.8","","84","","","","16","","48","","24.1","","96.96","","","","-21","","Blowing Snow"
"-77.78","48.05","VAL D'OR A","7098606","2023-02-07 09:00","2023","02","07","09:00","-9.1","","-11.8","","81","","","","17","","50","","16.1","","96.82","","","","-21","","Blowing Snow"
"-77.78","48.05","VAL D'OR A","7098606","2023-02-07 10:00","2023","02","07","10:00","-7.5","","-10.8","","77","","","","16","","52","","24.1","","96.64","","","","-19","","Blowing Snow"
"-77.78","48.05","VAL D'OR A","7098606","2023-02-07 11:00","2023","02","07","11:00","-7.1","","-10.8","","75","","","","17","","39","","24.1","","96.61","","","","-17","","Blowing Snow"
"-77.78","48.05","VAL D'OR A","7098606","2023-02-07 12:00","2023","02","07","12:00","-7.2","","-8.3","","92","","","","17","","36","","1.0","","96.43","","","","-17","","Snow,Blowing Snow"
"-77.78","48.05","VAL D'OR A","7098606","2023-02-07 13:00","2023","02","07","13:00","-6.0","","-7.1","","92","","","","17","","32","","1.6","","96.23","","","","-15","","Snow,Blowing Snow"
"-77.78","48.05","VAL D'OR A","7098606","2023-02-07 14:00","2023","02","07","14:00","-5.6","","-6.4","","94","","","","17","","31","","0.8","","96.12","","","","-14","","Snow,Blowing Snow"
"-77.78","48.05","VAL D'OR A","7098606","2023-02-07 15:00","2023","02","07","15:00","-4.9","","-5.6","","95","","","","17","","26","","1.0","","96.07","","","","-12","","Snow,Blowing Snow"
"-77.78","48.05","VAL D'OR A","7098606","2023-02-07 16:00","2023","02","07","16:00","-4.1","","-4.8","","95","","","","18","","21","","1.6","","96.05","","","","-11","","Snow,Blowing Snow"
"-77.78","48.05","VAL D'OR A","7098606","2023-02-07 17:00","2023","02","07","17:00","-3.7","","-4.5","","94","","","","19","","18","","2.4","","96.09","","","","-10","","Snow,Blowing Snow"
"-77.78","48.05","VAL D'OR A","7098606","2023-02-07 18:00","2023","02","07","18:00","-3.3","","-4.0","","95","","","","20","","19","","2.4","","96.19","","","","-9","","Snow"
"-77.78","48.05","VAL D'OR A","7098606","2023-02-07 19:00","2023","02","07","19:00","-3.0","","-3.4","","97","","","","22","","14","","3.2","","96.29","","","","-8","","Snow"
"-77.78","48.05","VAL D'OR A","7098606","2023-02-07 20:00","2023","02","07","20:00","-1.5","","-2.1","","96","","","","26","","14","","4.8","","96.43","","","","-6","","Snow"
"-77.78","48.05","VAL D'OR A","7098606","2023-02-07 21:00","2023","02","07","21:00","-1.0","","-2.1","","92","","","","27","","13","","24.1","","96.56","","","","-5","","NA"
"-77.78","48.05","VAL D'OR A","7098606","2023-02-07 22:00","2023","02","07","22:00","-1.1","","-2.1","","93","","","","28","","13","","24.1","","96.71","","","","-5","","Cloudy"
"-77.78","48.05","VAL D'OR A","7098606","2023-02-07 23:00","2023","02","07","23:00"
"-77.78","48.05","VAL D'OR A","7098606","2023-02-08 00:00","2023","02","08","00:00"
"-77.78","48.05","VAL D'OR A","7098606","2023-02-08 01:00","2023","02","08","01:00"
"-77.78","48.05","VAL D'OR A","7098606","2023-02-08 02:00","2023","02","08","02:00"
"-77.78","48.05","VAL D'OR A","7098606","2023-02-08 03:00","2023","02","08","03:00"
"-77.78","48.05","VAL D'OR A","7098606","2023-02-08 04:00","2023","02","08","04:00"
"-77.78","48.05","VAL D'OR A","7098606","2023-02-08 05:00","2023","02","08","05:00"
"-77.78","48.05","VAL D'OR A","7098606","2023-02-08 06:00","2023","02","08","06:00","-14.2","","-15.1","","93","","","","25","","4","","24.1","","97.65","","","","-17","","NA"
"-77.78","48.05","VAL D'OR A","7098606","2023-02-08 07:00","2023","02","08","07:00","-17.0","","-18.0","","92","","","","16","","8","","24.1","","97.64","","","","-23","","Clear"
"-77.78","48.05","VAL D'OR A","7098606","2023-02-08 08:00","2023","02","08","08:00","-17.8","","-19.0","","90","","","","29","","5","","24.1","","97.76","","","","-22","","NA"
"-77.78","48.05","VAL D'OR A","7098606","2023-02-08 09:00","2023","02","08","09:00","-13.7","","-14.7","","92","","","","36","","2","","16.1","","97.78","","","","-15","","Snow"
"-77.78","48.05","VAL D'OR A","7098606","2023-02-08 10:00","2023","02","08","10:00","-12.9","","-14.1","","91","","","","16","","9","","19.3","","97.77","","","","-18","","Snow"
"-77.78","48.05","VAL D'OR A","7098606","2023-02-08 11:00","2023","02","08","11:00","-10.8","","-12.1","","90","","","","19","","8","","12.9","","97.79","","","","-15","","Snow"
"-77.78","48.05","VAL D'OR A","7098606","2023-02-08 12:00","2023","02","08","12:00","-9.7","","-11.0","","90","","","","18","","10","","24.1","","97.78","","","","-15","","Snow"
"-77.78","48.05","VAL D'OR A","7098606","2023-02-08 13:00","2023","02","08","13:00","-9.1","","-10.7","","88","","","","16","","9","","24.1","","97.73","","","","-14","","Snow"
"-77.78","48.05","VAL D'OR A","7098606","2023-02-08 14:00","2023","02","08","14:00","-7.8","","-9.4","","88","","","","21","","12","","24.1","","97.71","","","","-13","","Snow"
"-77.78","48.05","VAL D'OR A","7098606","2023-02-08 15:00","2023","02","08","15:00","-6.7","","-7.8","","92","","","","18","","12","","11.3","","97.75","","","","-12","","Snow"
"-77.78","48.05","VAL D'OR A","7098606","2023-02-08 16:00","2023","02","08","16:00","-5.8","","-6.9","","92","","","","19","","12","","24.1","","97.77","","","","-11","","Snow"
"-77.78","48.05","VAL D'OR A","7098606","2023-02-08 17:00","2023","02","08","17:00","-5.3","","-6.4","","92","","","","20","","6","","24.1","","97.81","","","","-8","","Snow"
"-77.78","48.05","VAL D'OR A","7098606","2023-02-08 18:00","2023","02","08","18:00","-5.0","","-6.0","","93","","","","20","","7","","24.1","","97.86","","","","-8","","NA"
"-77.78","48.05","VAL D'OR A","7098606","2023-02-08 19:00","2023","02","08","19:00","-3.3","","-4.6","","91","","","","26","","5","","24.1","","97.93","","","","-5","","Snow"
"-77.78","48.05","VAL D'OR A","7098606","2023-02-08 20:00","2023","02","08","20:00","-3.3","","-4.6","","91","","","","31","","9","","24.1","","97.98","","","","-7","","NA"
"-77.78","48.05","VAL D'OR A","7098606","2023-02-08 21:00","2023","02","08","21:00","-4.2","","-5.3","","92","","","","33","","13","","24.1","","98.03","","","","-9","","NA"
"-77.78","48.05","VAL D'OR A","7098606","2023-02-08 22:00","2023","02","08","22:00","-5.2","","-6.6","","90","","","","34","","8","","24.1","","98.08","","","","-9","","Cloudy"
"-77.78","48.05","VAL D'OR A","7098606","2023-02-08 23:00","2023","02","08","23:00"
"-77.78","48.05","VAL D'OR A","7098606","2023-02-09 00:00","2023","02","09","00:00"
"-77.78","48.05","VAL D'OR A","7098606","2023-02-09 01:00","2023","02","09","01:00"
"-77.78","48.05","VAL D'OR A","7098606","2023-02-09 02:00","2023","02","09","02:00"
"-77.78","48.05","VAL D'OR A","7098606","2023-02-09 03:00","2023","02","09","03:00"
"-77.78","48.05","VAL D'OR A","7098606","2023-02-09 04:00","2023","02","09","04:00"
"-77.78","48.05","VAL D'OR A","7098606","2023-02-09 05:00","2023","02","09","05:00"
"-77.78","48.05","VAL D'OR A","7098606","2023-02-09 06:00","2023","02","09","06:00","-9.7","","-10.1","","97","","","","10","","6","","24.1","","97.95","","","","-13","","Snow"
"-77.78","48.05","VAL D'OR A","7098606","2023-02-09 07:00","2023","02","09","07:00","-9.3","","-9.8","","96","","","","14","","4","","24.1","","97.92","","","","-12","","Mainly Clear"
"-77.78","48.05","VAL D'OR A","7098606","2023-02-09 08:00","2023","02","09","08:00","-10.4","","-10.9","","96","","","","7","","4","","24.1","","97.87","","","","-13","","NA"
"-77.78","48.05","VAL D'OR A","7098606","2023-02-09 09:00","2023","02","09","09:00","-8.7","","-9.2","","96","","","","12","","5","","24.1","","97.83","","","","-11","","NA"
"-77.78","48.05","VAL D'OR A","7098606","2023-02-09 10:00","2023","02","09","10:00","-6.4","","-6.9","","96","","","","10","","8","","24.1","","97.76","","","","-10","","Cloudy"
"-77.78","48.05","VAL D'OR A","7098606","2023-02-09 11:00","2023","02","09","11:00","-3.9","","-4.7","","94","","","","15","","16","","24.1","","97.69","","","","-9","","NA"
"-77.78","48.05","VAL D'OR A","7098606","2023-02-09 12:00","2023","02","09","12:00","-2.2","","-4.1","","87","","","","15","","22","","24.1","","97.55","","","","-8","","NA"
"-77.78","48.05","VAL D'OR A","7098606","2023-02-09 13:00","2023","02","09","13:00","-0.6","","-3.4","","81","","","","15","","25","","24.1","","97.32","","","","-7","","Mostly Cloudy"
"-77.78","48.05","VAL D'OR A","7098606","2023-02-09 14:00","2023","02","09","14:00","0.2","","-2.7","","81","","","","15","","17","","24.1","","97.23","","","","","","NA"
"-77.78","48.05","VAL D'OR A","7098606","2023-02-09 15:00","2023","02","09","15:00","0.3","","-2.8","","80","","","","13","","17","","24.1","","97.18","","","","","","NA"
"-77.78","48.05","VAL D'OR A","7098606","2023-02-09 16:00","2023","02","09","16:00","0.4","","-2.5","","81","","","","9","","15","","24.1","","97.01","","","","","","Cloudy"
"-77.78","48.05","VAL D'OR A","7098606","2023-02-09 17:00","2023","02","09","17:00","-0.1","","-2.6","","83","","","","9","","9","","24.1","","96.99","","","","-3","","NA"
"-77.78","48.05","VAL D'OR A","7098606","2023-02-09 18:00","2023","02","09","18:00","-0.7","","-2.6","","87","","","","8","","14","","24.1","","96.93","","","","-5","","NA"
"-77.78","48.05","VAL D'OR A","7098606","2023-02-09 19:00","2023","02","09","19:00","-0.9","","-2.6","","88","","","","8","","15","","24.1","","96.78","","","","-6","","Cloudy"
"-77.78","48.05","VAL D'OR A","7098606","2023-02-09 20:00","2023","02","09","20:00","-1.3","","-1.9","","96","","","","9","","10","","9.7","","96.70","","","","-5","","Snow"
"-77.78","48.05","VAL D'OR A","7098606","2023-02-09 21:00","2023","02","09","21:00","-1.6","","-1.9","","98","","","","7","","15","","2.8","","96.45","","","","-6","","Snow"
"-77.78","48.05","VAL D'OR A","7098606","2023-02-09 22:00","2023","02","09","22:00","-1.7","","-2.0","","98","","","","6","","11","","3.2","","96.40","","","","-6","","Snow"
"-77.78","48.05","VAL D'OR A","7098606","2023-02-09 23:00","2023","02","09","23:00"
"-77.78","48.05","VAL D'OR A","7098606","2023-02-10 00:00","2023","02","10","00:00"
"-77.78","48.05","VAL D'OR A","7098606","2023-02-10 01:00","2023","02","10","01:00"
"-77.78","48.05","VAL D'OR A","7098606","2023-02-10 02:00","2023","02","10","02:00"
"-77.78","48.05","VAL D'OR A","7098606","2023-02-10 03:00","2023","02","10","03:00"
"-77.78","48.05","VAL D'OR A","7098606","2023-02-10 04:00","2023","02","10","04:00"
"-77.78","48.05","VAL D'OR A","7098606","2023-02-10 05:00","2023","02","10","05:00"
"-77.78","48.05","VAL D'OR A","7098606","2023-02-10 06:00","2023","02","10","06:00","-7.6","","-8.7","","92","","","","36","","25","","12.9","","96.07","","","","-16","","Snow,Blowing Snow"
"-77.78","48.05","VAL D'OR A","7098606","2023-02-10 07:00","2023","02","10","07:00","-9.1","","-10.3","","91","","","","34","","21","","19.3","","96.20","","","","-17","","Snow,Blowing Snow"
"-77.78","48.05","VAL D'OR A","7098606","2023-02-10 08:00","2023","02","10","08:00","-8.6","","-10.2","","88","","","","34","","19","","24.1","","96.37","","","","-16","","Blowing Snow"
"-77.78","48.05","VAL D'OR A","7098606","2023-02-10 09:00","2023","02","10","09:00","-8.0","","-9.5","","89","","","","34","","17","","12.9","","96.47","","","","-15","","Snow"
"-77.78","48.05","VAL D'OR A","7098606","2023-02-10 10:00","2023","02","10","10:00","-7.8","","-9.3","","89","","","","33","","17","","4.8","","96.56","","","","-14","","Snow"
"-77.78","48.05","VAL D'OR A","7098606","2023-02-10 11:00","2023","02","10","11:00","-7.5","","-9.3","","87","","","","34","","19","","4.8","","96.69","","","","-15","","Snow"
"-77.78","48.05","VAL D'OR A","7098606","2023-02-10 12:00","2023","02","10","12:00","-7.2","","-9.1","","86","","","","31","","17","","6.4","","96.76","","","","-14","","Snow"
"-77.78","48.05","VAL D'OR A","7098606","2023-02-10 13:00","2023","02","10","13:00","-6.7","","-8.7","","86","","","","33","","11","","19.3","","96.84","","","","-12","","Snow"
"-77.78","48.05","VAL D'OR A","7098606","2023-02-10 14:00","2023","02","10","14:00","-6.3","","-8.6","","84","","","","33","","17","","24.1","","96.88","","","","-13","","NA"
"-77.78","48.05","VAL D'OR A","7098606","2023-02-10 15:00","2023","02","10","15:00","-5.8","","-7.9","","85","","","","32","","17","","12.9","","96.98","","","","-12","","Snow"
"-77.78","48.05","VAL D'OR A","7098606","2023-02-10 16:00","2023","02","10","16:00","-5.7","","-7.7","","86","","","","32","","13","","24.1","","97.06","","","","-11","","Cloudy"
"-77.78","48.05","VAL D'OR A","7098606","2023-02-10 17:00","2023","02","10","17:00","-6.0","","-8.9","","80","","","","32","","12","","24.1","","97.14","","","","-11","","NA"
"-77.78","48.05","VAL D'OR A","7098606","2023-02-10 18:00","2023","02","10","18:00","-6.9","","-10.6","","75","","","","32","","17","","24.1","","97.25","","","","-13","","NA"
"-77.78","48.05","VAL D'OR A","7098606","2023-02-10 19:00","2023","02","10","19:00","-7.7","","-10.8","","79","","","","33","","18","","24.1","","97.35","","","","-15","","Cloudy"
"-77.78","48.05","VAL D'OR A","7098606","2023-02-10 20:00","2023","02","10","20:00","-8.8","","-12.1","","77","","","","33","","18","","24.1","","97.42","","","","-16","","NA"
"-77.78","48.05","VAL D'OR A","7098606","2023-02-10 21:00","2023","02","10","21:00","-9.7","","-13.3","","75","","","","34","","18","","24.1","","97.51","","","","-17","","NA"
"-77.78","48.05","VAL D'OR A","7098606","2023-02-10 22:00","2023","02","10","22:00","-11.0","","-16.1","","66","","","","34","","17","","24.1","","97.63","","","","-18","","Cloudy"
"-77.78","48.05","VAL D'OR A","7098606","2023-02-10 23:00","2023","02","10","23:00"
"-77.78","48.05","VAL D'OR A","7098606","2023-02-11 00:00","2023","02","11","00:00"
"-77.78","48.05","VAL D'OR A","7098606","2023-02-11 01:00","2023","02","11","01:00"
"-77.78","48.05","VAL D'OR A","7098606","2023-02-11 02:00","2023","02","11","02:00"
"-77.78","48.05","VAL D'OR A","7098606","2023-02-11 03:00","2023","02","11","03:00"
"-77.78","48.05","VAL D'OR A","7098606","2023-02-11 04:00","2023","02","11","04:00"
"-77.78","48.05","VAL D'OR A","7098606","2023-02-11 05:00","2023","02","11","05:00"
"-77.78","48.05","VAL D'OR A","7098606","2023-02-11 06:00","2023","02","11","06:00","-17.6","","-19.4","","86","","","","22","","4","","24.1","","97.98","","","","-21","","NA"
"-77.78","48.05","VAL D'OR A","7098606","2023-02-11 07:00","2023","02","11","07:00","-19.9","","-20.9","","92","","","","20","","9","","24.1","","97.95","","","","-27","","Clear"
"-77.78","48.05","VAL D'OR A","7098606","2023-02-11 08:00","2023","02","11","08:00","-18.9","","-20.2","","90","","","","20","","12","","24.1","","97.95","","","","-27","","NA"
"-77.78","48.05","VAL D'OR A","7098606","2023-02-11 09:00","2023","02","11","09:00","-16.2","","-17.8","","88","","","","20","","13","","24.1","","97.96","","","","-24","","NA"
"-77.78","48.05","VAL D'OR A","7098606","2023-02-11 10:00","2023","02","11","10:00","-12.6","","-15.7","","78","","","","20","","17","","24.1","","97.86","","","","-20","","Mostly Cloudy"
"-77.78","48.05","VAL D'OR A","7098606","2023-02-11 11:00","2023","02","11","11:00","-10.3","","-14.3","","73","","","","20","","26","","24.1","","97.78","","","","-19","","NA"
"-77.78","48.05","VAL D'OR A","7098606","2023-02-11 12:00","2023","02","11","12:00","-8.6","","-11.8","","78","","","","19","","19","","24.1","","97.60","","","","-16","","NA"
"-77.78","48.05","VAL D'OR A","7098606","2023-02-11 13:00","2023","02","11","13:00","-7.5","","-10.2","","81","","","","19","","31","","24.1","","97.42","","","","-16","","Cloudy"
"-77.78","48.05","VAL D'OR A","7098606","2023-02-11 14:00","2023","02","11","14:00","-6.2","","-8.5","","84","","","","19","","27","","24.1","","97.22","","","","-14","","Blowing Snow"
"-77.78","48.05","VAL D'OR A","7098606","2023-02-11 15:00","2023","02","11","15:00","-5.5","","-7.6","","85","","","","19","","32","","24.1","","96.93","","","","-14","","Blowing Snow"
"-77.78","48.05","VAL D'OR A","7098606","2023-02-11 16:00","2023","02","11","16:00","-4.5","","-6.8","","84","","","","19","","23","","24.1","","96.91","","","","-11","","Mostly Cloudy"
"-77.78","48.05","VAL D'OR A","7098606","2023-02-11 17:00","2023","02","11","17:00","-4.3","","-6.5","","85","","","","19","","21","","24.1","","96.86","","","","-11","","NA"
"-77.78","48.05","VAL D'OR A","7098606","2023-02-11 18:00","2023","02","11","18:00","-3.6","","-5.7","","85","","","","20","","17","","24.1","","96.86","","","","-9","","NA"
"-77.78","48.05","VAL D'OR A","7098606","2023-02-11 19:00","2023","02","11","19:00","-2.8","","-5.0","","85","","","","21","","25","","24.1","","96.85","","","","-10","","Mostly Cloudy"
"-77.78","48.05","VAL D'OR A","7098606","2023-02-11 20:00","2023","02","11","20:00","-2.3","","-4.5","","85","","","","22","","19","","24.1","","96.86","","","","-8","","NA"
"-77.78","48.05","VAL D'OR A","7098606","2023-02-11 21:00","2023","02","11","21:00","-1.8","","-4.0","","85","","","","22","","19","","24.1","","96.87","","","","-7","","NA"
"-77.78","48.05","VAL D'OR A","7098606","2023-02-11 22:00","2023","02","11","22:00","-1.6","","-3.6","","86","","","","23","","20","","24.1","","96.88","","","","-7","","Cloudy"
"-77.78","48.05","VAL D'OR A","7098606","2023-02-11 23:00","2023","02","11","23:00"
"-77.78","48.05","VAL D'OR A","7098606","2023-02-12 00:00","2023","02","12","00:00"
"-77.78","48.05","VAL D'OR A","7098606","2023-02-12 01:00","2023","02","12","01:00"
"-77.78","48.05","VAL D'OR A","7098606","2023-02-12 02:00","2023","02","12","02:00"
"-77.78","48.05","VAL D'OR A","7098606","2023-02-12 03:00","2023","02","12","03:00"
"-77.78","48.05","VAL D'OR A","7098606","2023-02-12 04:00","2023","02","12","04:00"
"-77.78","48.05","VAL D'OR A","7098606","2023-02-12 05:00","2023","02","12","05:00"
"-77.78","48.05","VAL D'OR A","7098606","2023-02-12 06:00","2023","02","12","06:00","-3.8","","-5.9","","85","","","","28","","5","","24.1","","97.39","","","","-6","","NA"
"-77.78","48.05","VAL D'OR A","7098606","2023-02-12 07:00","2023","02","12","07:00","-4.0","","-5.8","","88","","","","27","","4","","24.1","","97.44","","","","-6","","Cloudy"
"-77.78","48.05","VAL D'OR A","7098606","2023-02-12 08:00","2023","02","12","08:00","-4.0","","-5.8","","87","","","","31","","5","","24.1","","97.47","","","","-6","","NA"
"-77.78","48.05","VAL D'OR A","7098606","2023-02-12 09:00","2023","02","12","09:00","-4.0","","-5.8","","87","","","","34","","7","","24.1","","97.49","","","","-7","","NA"
"-77.78","48.05","VAL D'OR A","7098606","2023-02-12 10:00","2023","02","12","10:00","-3.9","","-6.1","","85","","","","36","","3","","24.1","","97.44","","","","-5","","Snow Showers"
"-77.78","48.05","VAL D'OR A","7098606","2023-02-12 11:00","2023","02","12","11:00","-3.7","","-6.4","","82","","","","8","","3","","24.1","","97.45","","","","-5","","NA"
"-77.78","48.05","VAL D'OR A","7098606","2023-02-12 12:00","2023","02","12","12:00","-3.5","","-5.9","","84","","","","2","","4","","24.1","","97.40","","","","-5","","NA"
"-77.78","48.05","VAL D'OR A","7098606","2023-02-12 13:00","2023","02","12","13:00","-2.8","","-5.8","","80","","","","20","","7","","24.1","","97.30","","","","-6","","Cloudy"
"-77.78","48.05","VAL D'OR A","7098606","2023-02-12 14:00","2023","02","12","14:00","-2.6","","-5.7","","79","","","","36","","2","","24.1","","97.25","","","","-3","","NA"
"-77.78","48.05","VAL D'OR A","7098606","2023-02-12 15:00","2023","02","12","15:00","-2.6","","-5.4","","81","","","","15","","7","","24.1","","97.21","","","","-5","","NA"
"-77.78","48.05","VAL D'OR A","7098606","2023-02-12 16:00","2023","02","12","16:00","-2.5","","-4.7","","85","","","","14","","8","","24.1","","97.14","","","","-6","","Snow"
"-77.78","48.05","VAL D'OR A","7098606","2023-02-12 17:00","2023","02","12","17:00","-2.6","","-4.5","","87","","","","12","","6","","24.1","","97.14","","","","-5","","NA"
"-77.78","48.05","VAL D'OR A","7098606","2023-02-12 18:00","2023","02","12","18:00","-2.8","","-4.1","","91","","","","12","","5","","24.1","","97.12","","","","-5","","NA"
"-77.78","48.05","VAL D'OR A","7098606","2023-02-12 19:00","2023","02","12","19:00","-2.8","","-4.1","","91","","","","13","","7","","24.1","","97.09","","","","-6","","Cloudy"
"-77.78","48.05","VAL D'OR A","7098606","2023-02-12 20:00","2023","02","12","20:00","-3.1","","-4.2","","92","","","","16","","7","","24.1","","97.03","","","","-6","","NA"
"-77.78","48.05","VAL D'OR A","7098606","2023-02-12 21:00","2023","02","12","21:00","-3.0","","-4.0","","93","","","","16","","11","","24.1","","96.93","","","","-7","","NA"
"-77.78","48.05","VAL D'OR A","7098606","2023-02-12 22:00","2023","02","12","22:00","-2.9","","-3.5","","96","","","","15","","8","","24.1","","96.87","","","","-6","","Cloudy"
"-77.78","48.05","VAL D'OR A","7098606","2023-02-12 23:00","2023","02","12","23:00"
"-77.78","48.05","VAL D'OR A","7098606","2023-02-13 00:00","2023","02","13","00:00"
"-77.78","48.05","VAL D'OR A","7098606","2023-02-13 01:00","2023","02","13","01:00"
"-77.78","48.05","VAL D'OR A","7098606","2023-02-13 02:00","2023","02","13","02:00"
"-77.78","48.05","VAL D'OR A","7098606","2023-02-13 03:00","2023","02","13","03:00"
"-77.78","48.05","VAL D'OR A","7098606","2023-02-13 04:00","2023","02","13","04:00"
"-77.78","48.05","VAL D'OR A","7098606","2023-02-13 05:00","2023","02","13","05:00"
"-77.78","48.05","VAL D'OR A","7098606","2023-02-13 06:00","2023","02","13","06:00","-3.1","","-3.6","","96","","","","16","","13","","24.1","","96.18","","","","-8","","NA"
"-77.78","48.05","VAL D'OR A","7098606","2023-02-13 07:00","2023","02","13","07:00","-2.9","","-3.7","","94","","","","16","","12","","24.1","","96.15","","","","-7","","Cloudy"
"-77.78","48.05","VAL D'OR A","7098606","2023-02-13 08:00","2023","02","13","08:00","-2.5","","-3.5","","93","","","","17","","15","","24.1","","96.11","","","","-7","","NA"
"-77.78","48.05","VAL D'OR A","7098606","2023-02-13 09:00","2023","02","13","09:00","-2.0","","-3.4","","90","","","","17","","24","","24.1","","96.05","","","","-8","","NA"
"-77.78","48.05","VAL D'OR A","7098606","2023-02-13 10:00","2023","02","13","10:00","-1.6","","-3.4","","88","","","","17","","22","","16.1","","95.97","","","","-8","","Snow"
"-77.78","48.05","VAL D'OR A","7098606","2023-02-13 11:00","2023","02","13","11:00","-0.9","","-3.1","","85","","","","17","","21","","11.3","","95.90","","","","-7","","Snow"
"-77.78","48.05","VAL D'OR A","7098606","2023-02-13 12:00","2023","02","13","12:00","-0.4","","-2.8","","84","","","","16","","21","","16.1","","95.81","","","","-6","","Snow"
"-77.78","48.05","VAL D'OR A","7098606","2023-02-13 13:00","2023","02","13","13:00","0.3","","-2.4","","82","","","","17","","15","","24.1","","95.72","","","","","","Cloudy"
"-77.78","48.05","VAL D'OR A","7098606","2023-02-13 14:00","2023","02","13","14:00","1.4","","-2.8","","74","","","","19","","16","","24.1","","95.66","","","","","","NA"
"-77.78","48.05","VAL D'OR A","7098606","2023-02-13 15:00","2023","02","13","15:00","1.2","","-2.5","","77","","","","21","","10","","19.3","","95.66","","","","","","Snow"
"-77.78","48.05","VAL D'OR A","7098606","2023-02-13 16:00","2023","02","13","16:00","1.2","","-1.9","","80","","","","23","","7","","16.1","","95.70","","","","","","Snow Showers"
"-77.78","48.05","VAL D'OR A","7098606","2023-02-13 17:00","2023","02","13","17:00","-0.1","","-1.1","","93","","","","26","","9","","4.0","","95.77","","","","-3","","Snow Showers"
"-77.78","48.05","VAL D'OR A","7098606","2023-02-13 18:00","2023","02","13","18:00","-0.6","","-1.0","","97","","","","26","","7","","3.2","","95.87","","","","-3","","Snow"
"-77.78","48.05","VAL D'OR A","7098606","2023-02-13 19:00","2023","02","13","19:00","-0.5","","-1.2","","95","","","","28","","7","","16.1","","95.98","","","","-3","","Snow"
"-77.78","48.05","VAL D'OR A","7098606","2023-02-13 20:00","2023","02","13","20:00","-0.8","","-1.7","","94","","","","29","","8","","4.8","","96.06","","","","-4","","Snow"
"-77.78","48.05","VAL D'OR A","7098606","2023-02-13 21:00","2023","02","13","21:00","-0.7","","-1.8","","92","","","","29","","11","","24.1","","96.13","","","","-4","","NA"
"-77.78","48.05","VAL D'OR A","7098606","2023-02-13 22:00","2023","02","13","22:00","-1.9","","-2.9","","93","","","","29","","10","","24.1","","96.22","","","","-6","","Mainly Clear"
"-77.78","48.05","VAL D'OR A","7098606","2023-02-13 23:00","2023","02","13","23:00"
"-77.78","48.05","VAL D'OR A","7098606","2023-02-14 00:00","2023","02","14","00:00"
"-77.78","48.05","VAL D'OR A","7098606","2023-02-14 01:00","2023","02","14","01:00"
"-77.78","48.05","VAL D'OR A","7098606","2023-02-14 02:00","2023","02","14","02:00"
"-77.78","48.05","VAL D'OR A","7098606","2023-02-14 03:00","2023","02","14","03:00"
"-77.78","48.05","VAL D'OR A","7098606","2023-02-14 04:00","2023","02","14","04:00"
"-77.78","48.05","VAL D'OR A","7098606","2023-02-14 05:00","2023","02","14","05:00"
"-77.78","48.05","VAL D'OR A","7098606","2023-02-14 06:00","2023","02","14","06:00","-7.0","","-7.1","","99","","","","24","","7","","24.1","","96.89","","","","-11","","NA"
"-77.78","48.05","VAL D'OR A","7098606","2023-02-14 07:00","2023","02","14","07:00","-9.8","","-10.5","","95","","","","17","","6","","24.1","","96.94","","","","-13","","Mainly Clear"
"-77.78","48.05","VAL D'OR A","7098606","2023-02-14 08:00","2023","02","14","08:00","-9.4","","-9.7","","98","","","","19","","7","","0.6","","97.06","","","","-13","","Freezing Fog"
"-77.78","48.05","VAL D'OR A","7098606","2023-02-14 09:00","2023","02","14","09:00","-7.3","","-7.7","","97","","","","19","","8","","24.1","","97.12","","","","-11","","NA"
"-77.78","48.05","VAL D'OR A","7098606","2023-02-14 10:00","2023","02","14","10:00","-2.9","","-3.3","","97","","","","19","","18","","24.1","","97.17","","","","-9","","Mainly Clear"
"-77.78","48.05","VAL D'OR A","7098606","2023-02-14 11:00","2023","02","14","11:00","-0.8","","-3.4","","82","","","","17","","17","","24.1","","97.15","","","","-6","","NA"
"-77.78","48.05","VAL D'OR A","7098606","2023-02-14 12:00","2023","02","14","12:00","1.3","","-4.1","","67","","","","20","","21","","24.1","","97.13","","","","","","NA"
"-77.78","48.05","VAL D'OR A","7098606","2023-02-14 13:00","2023","02","14","13:00","2.6","","-3.5","","64","","","","20","","23","","24.1","","97.08","","","","","","Mostly Cloudy"
"-77.78","48.05","VAL D'OR A","7098606","2023-02-14 14:00","2023","02","14","14:00","2.3","","-3.4","","66","","","","20","","17","","24.1","","97.05","","","","","","NA"
"-77.78","48.05","VAL D'OR A","7098606","2023-02-14 15:00","2023","02","14","15:00","2.2","","-2.5","","71","","","","18","","29","","24.1","","96.95","","","","","","NA"
"-77.78","48.05","VAL D'OR A","7098606","2023-02-14 16:00","2023","02","14","16:00","3.1","","-2.0","","69","","","","17","","27","","24.1","","96.95","","","","","","Mainly Clear"
"-77.78","48.05","VAL D'OR A","7098606","2023-02-14 17:00","2023","02","14","17:00","2.6","","-1.9","","72","","","","17","","22","","24.1","","97.01","","","","","","NA"
"-77.78","48.05","VAL D'OR A","7098606","2023-02-14 18:00","2023","02","14","18:00","1.4","","-2.4","","76","","","","17","","17","","24.1","","97.05","","","","","","NA"
"-77.78","48.05","VAL D'OR A","7098606","2023-02-14 19:00","2023","02","14","19:00","-1.4","","-3.3","","87","","","","17","","18","","24.1","","97.08","","","","-7","","Mainly Clear"
"-77.78","48.05","VAL D'OR A","7098606","2023-02-14 20:00","2023","02","14","20:00","-0.3","","-2.7","","84","","","","18","","18","","24.1","","97.04","","","","-5","","NA"
"-77.78","48.05","VAL D'OR A","7098606","2023-02-14 21:00","2023","02","14","21:00","0.3","","-2.8","","80","","","","19","","17","","24.1","","97.06","","","","","","NA"
"-77.78","48.05","VAL D'OR A","7098606","2023-02-14 22:00","2023","02","14","22:00","-0.6","","-3.6","","80","","","","18","","18","","24.1","","97.01","","","","-6","","Clear"
"-77.78","48.05","VAL D'OR A","7098606","2023-02-14 23:00","2023","02","14","23:00"
"-77.78","48.05","VAL D'OR A","7098606","2023-02-15 00:00","2023","02","15","00:00"
"-77.78","48.05","VAL D'OR A","7098606","2023-02-15 01:00","2023","02","15","01:00"
"-77.78","48.05","VAL D'OR A","7098606","2023-02-15 02:00","2023","02","15","02:00"
"-77.78","48.05","VAL D'OR A","7098606","2023-02-15 03:00","2023","02","15","03:00"
"-77.78","48.05","VAL D'OR A","7098606","2023-02-15 04:00","2023","02","15","04:00"
"-77.78","48.05","VAL D'OR A","7098606","2023-02-15 05:00","2023","02","15","05:00"
"-77.78","48.05","VAL D'OR A","7098606","2023-02-15 06:00","2023","02","15","06:00","0.0","","-3.2","","79","","","","17","","23","","24.1","","96.41","","","","-6","","NA"
"-77.78","48.05","VAL D'OR A","7098606","2023-02-15 07:00","2023","02","15","07:00","0.1","","-1.0","","92","","","","15","","21","","24.1","","96.26","","","","","","Rain"
"-77.78","48.05","VAL D'OR A","7098606","2023-02-15 08:00","2023","02","15","08:00","0.4","","-0.4","","94","","","","14","","23","","24.1","","96.03","","","","","","Rain"
"-77.78","48.05","VAL D'OR A","7098606","2023-02-15 09:00","2023","02","15","09:00","0.7","","-0.3","","93","","","","15","","25","","16.1","","95.93","","","","","","Rain"
"-77.78","48.05","VAL D'OR A","7098606","2023-02-15 10:00","2023","02","15","10:00","1.0","","0.1","","94","","","","17","","27","","9.7","","95.81","","","","","","Rain,Snow"
"-77.78","48.05","VAL D'OR A","7098606","2023-02-15 11:00","2023","02","15","11:00","0.7","","0.4","","98","","","","17","","24","","16.1","","95.69","","","","","","Rain,Snow"
"-77.78","48.05","VAL D'OR A","7098606","2023-02-15 12:00","2023","02","15","12:00","1.7","","1.1","","96","","","","17","","22","","24.1","","95.56","","","","","","Rain"
"-77.78","48.05","VAL D'OR A","7098606","2023-02-15 13:00","2023","02","15","13:00","2.6","","1.9","","95","","","","18","","23","","24.1","","95.50","","","","","","Rain"
"-77.78","48.05","VAL D'OR A","7098606","2023-02-15 14:00","2023","02","15","14:00","3.1","","2.7","","97","","","","19","","20","","24.1","","95.46","","","","","","Rain"
"-77.78","48.05","VAL D'OR A","7098606","2023-02-15 15:00","2023","02","15","15:00","3.4","","3.0","","97","","","","18","","23","","24.1","","95.41","","","","","","NA"
"-77.78","48.05","VAL D'OR A","7098606","2023-02-15 16:00","2023","02","15","16:00","3.5","","3.2","","98","","","","19","","18","","24.1","","95.42","","","","","","Rain"
"-77.78","48.05","VAL D'OR A","7098606","2023-02-15 17:00","2023","02","15","17:00","3.8","","3.5","","98","","","","19","","14","","16.1","","95.42","","","","","","Rain"
"-77.78","48.05","VAL D'OR A","7098606","2023-02-15 18:00","2023","02","15","18:00","4.0","","3.7","","98","","","","20","","13","","16.1","","95.42","","","","","","Rain"
"-77.78","48.05","VAL D'OR A","7098606","2023-02-15 19:00","2023","02","15","19:00","4.1","","3.8","","98","","","","21","","14","","14.5","","95.47","","","","","","Rain"
"-77.78","48.05","VAL D'OR A","7098606","2023-02-15 20:00","2023","02","15","20:00","4.1","","4.0","","99","","","","22","","11","","24.1","","95.52","","","","","","Rain"
"-77.78","48.05","VAL D'OR A","7098606","2023-02-15 21:00","2023","02","15","21:00","4.6","","4.0","","96","","","","23","","15","","24.1","","95.58","","","","","","Rain"
"-77.78","48.05","VAL D'OR A","7098606","2023-02-15 22:00","2023","02","15","22:00","4.0","","3.6","","97","","","","23","","19","","12.9","","95.67","","","","","","Rain"
"-77.78","48.05","VAL D'OR A","7098606","2023-02-15 23:00","2023","02","15","23:00"
"-77.78","48.05","VAL D'OR A","7098606","2023-02-16 00:00","2023","02","16","00:00"
"-77.78","48.05","VAL D'OR A","7098606","2023-02-16 01:00","2023","02","16","01:00"
"-77.78","48.05","VAL D'OR A","7098606","2023-02-16 02:00","2023","02","16","02:00"
"-77.78","48.05","VAL D'OR A","7098606","2023-02-16 03:00","2023","02","16","03:00"
"-77.78","48.05","VAL D'OR A","7098606","2023-02-16 04:00","2023","02","16","04:00"
"-77.78","48.05","VAL D'OR A","7098606","2023-02-16 05:00","2023","02","16","05:00"
"-77.78","48.05","VAL D'OR A","7098606","2023-02-16 06:00","2023","02","16","06:00","-15.9","","-17.9","","85","","","","30","","11","","16.1","","97.62","","","","-23","","Snow"
"-77.78","48.05","VAL D'OR A","7098606","2023-02-16 07:00","2023","02","16","07:00","-17.1","","-18.9","","86","","","","32","","11","","24.1","","97.67","","","","-24","","Mainly Clear"
"-77.78","48.05","VAL D'OR A","7098606","2023-02-16 08:00","2023","02","16","08:00","-17.5","","-19.4","","85","","","","33","","13","","24.1","","97.69","","","","-25","","Ice Crystals"
"-77.78","48.05","VAL D'OR A","7098606","2023-02-16 09:00","2023","02","16","09:00","-17.6","","-19.8","","83","","","","31","","13","","24.1","","97.78","","","","-25","","Ice Crystals"
"-77.78","48.05","VAL D'OR A","7098606","2023-02-16 10:00","2023","02","16","10:00","-17.3","","-19.8","","81","","","","5","","4","","24.1","","97.89","","","","-20","","Mainly Clear"
"-77.78","48.05","VAL D'OR A","7098606","2023-02-16 11:00","2023","02","16","11:00","-15.6","","-18.2","","81","","","","3","","6","","24.1","","97.98","","","","-20","","NA"
"-77.78","48.05","VAL D'OR A","7098606","2023-02-16 12:00","2023","02","16","12:00","-14.1","","-17.0","","79","","","","3","","5","","24.1","","97.88","","","","-18","","Snow"
"-77.78","48.05","VAL D'OR A","7098606","2023-02-16 13:00","2023","02","16","13:00","-13.2","","-16.5","","77","","","","1","","11","","24.1","","97.83","","","","-19","","Mainly Clear"
"-77.78","48.05","VAL D'OR A","7098606","2023-02-16 14:00","2023","02","16","14:00","-12.5","","-16.1","","75","","","","36","","11","","24.1","","97.78","","","","-19","","NA"
"-77.78","48.05","VAL D'OR A","7098606","2023-02-16 15:00","2023","02","16","15:00","-12.0","","-16.1","","72","","","","36","","14","","24.1","","97.79","","","","-19","","NA"
"-77.78","48.05","VAL D'OR A","7098606","2023-02-16 16:00","2023","02","16","16:00","-12.1","","-17.9","","62","","","","35","","14","","24.1","","97.81","","","","-19","","Mostly Cloudy"
"-77.78","48.05","VAL D'OR A","7098606","2023-02-16 17:00","2023","02","16","17:00","-12.3","","-17.6","","65","","","","32","","5","","24.1","","97.78","","","","-16","","NA"
"-77.78","48.05","VAL D'OR A","7098606","2023-02-16 18:00","2023","02","16","18:00","-12.9","","-16.6","","74","","","","33","","9","","24.1","","97.73","","","","-18","","NA"
"-77.78","48.05","VAL D'OR A","7098606","2023-02-16 19:00","2023","02","16","19:00","-12.9","","-16.9","","72","","","","36","","15","","24.1","","97.76","","","","-20","","Mostly Cloudy"
"-77.78","48.05","VAL D'OR A","7098606","2023-02-16 20:00","2023","02","16","20:00","-12.9","","-16.8","","73","","","","1","","12","","24.1","","97.76","","","","-19","","NA"
"-77.78","48.05","VAL D'OR A","7098606","2023-02-16 21:00","2023","02","16","21:00","-13.1","","-16.5","","76","","","","3","","14","","24.1","","97.73","","","","-20","","NA"
"-77.78","48.05","VAL D'OR A","7098606","2023-02-16 22:00","2023","02","16","22:00","-13.5","","-16.2","","81","","","","3","","15","","24.1","","97.69","","","","-21","","Cloudy"
"-77.78","48.05","VAL D'OR A","7098606","2023-02-16 23:00","2023","02","16","23:00"
"-77.78","48.05","VAL D'OR A","7098606","2023-02-17 00:00","2023","02","17","00:00"
"-77.78","48.05","VAL D'OR A","7098606","2023-02-17 01:00","2023","02","17","01:00"
"-77.78","48.05","VAL D'OR A","7098606","2023-02-17 02:00","2023","02","17","02:00"
"-77.78","48.05","VAL D'OR A","7098606","2023-02-17 03:00","2023","02","17","03:00"
"-77.78","48.05","VAL D'OR A","7098606","2023-02-17 04:00","2023","02","17","04:00"
"-77.78","48.05","VAL D'OR A","7098606","2023-02-17 05:00","2023","02","17","05:00"
"-77.78","48.05","VAL D'OR A","7098606","2023-02-17 06:00","2023","02","17","06:00","-19.4","","-21.6","","83","","","","36","","26","","24.1","","97.50","","","","-31","","NA"
"-77.78","48.05","VAL D'OR A","7098606","2023-02-17 07:00","2023","02","17","07:00","-20.2","","-22.6","","82","","","","36","","30","","24.1","","97.56","","","","-33","","Cloudy"
"-77.78","48.05","VAL D'OR A","7098606","2023-02-17 08:00","2023","02","17","08:00","-21.0","","-23.7","","79","","","","36","","27","","24.1","","97.64","","","","-33","","NA"
"-77.78","48.05","VAL D'OR A","7098606","2023-02-17 09:00","2023","02","17","09:00","-21.1","","-24.3","","76","","","","36","","28","","24.1","","97.72","","","","-34","","NA"
"-77.78","48.05","VAL D'OR A","7098606","2023-02-17 10:00","2023","02","17","10:00","-20.3","","-24.2","","72","","","","35","","19","","24.1","","97.71","","","","-31","","Mostly Cloudy"
"-77.78","48.05","VAL D'OR A","7098606","2023-02-17 11:00","2023","02","17","11:00","-19.0","","-24.1","","64","","","","35","","17","","24.1","","97.71","","","","-28","","NA"
"-77.78","48.05","VAL D'OR A","7098606","2023-02-17 12:00","2023","02","17","12:00","-17.5","","-22.9","","63","","","","35","","13","","24.1","","97.63","","","","-25","","NA"
"-77.78","48.05","VAL D'OR A","7098606","2023-02-17 13:00","2023","02","17","13:00","-16.2","","-22.1","","61","","","","35","","19","","24.1","","97.58","","","","-25","","Clear"
"-77.78","48.05","VAL D'OR A","7098606","2023-02-17 14:00","2023","02","17","14:00","-15.5","","-21.8","","59","","","","30","","7","","24.1","","97.58","","","","-20","","NA"
"-77.78","48.05","VAL D'OR A","7098606","2023-02-17 15:00","2023","02","17","15:00","-15.2","","-21.8","","58","","","","35","","11","","24.1","","97.56","","","","-22","","NA"
"-77.78","48.05","VAL D'OR A","7098606","2023-02-17 16:00","2023","02","17","16:00","-15.0","","-21.5","","58","","","","35","","10","","24.1","","97.59","","","","-21","","Clear"
"-77.78","48.05","VAL D'OR A","7098606","2023-02-17 17:00","2023","02","17","17:00","-15.6","","-21.9","","59","","","","35","","8","","24.1","","97.59","","","","-21","","NA"
"-77.78","48.05","VAL D'OR A","7098606","2023-02-17 18:00","2023","02","17","18:00","-18.5","","-22.4","","72","","","","36","","2","","24.1","","97.59","","","","-20","","NA"
"-77.78","48.05","VAL D'OR A","7098606","2023-02-17 19:00","2023","02","17","19:00","-21.0","","-23.2","","83","","","","18","","4","","24.1","","97.59","","","","-25","","Clear"
"-77.78","48.05","VAL D'OR A","7098606","2023-02-17 20:00","2023","02","17","20:00","-21.2","","-23.1","","85","","","","20","","4","","24.1","","97.60","","","","-25","","NA"
"-77.78","48.05","VAL D'OR A","7098606","2023-02-17 21:00","2023","02","17","21:00","-20.4","","-22.9","","81","","","","21","","8","","24.1","","97.60","","","","-27","","NA"
"-77.78","48.05","VAL D'OR A","7098606","2023-02-17 22:00","2023","02","17","22:00","-19.6","","-22.2","","80","","","","20","","9","","24.1","","97.53","","","","-26","","Clear"
"-77.78","48.05","VAL D'OR A","7098606","2023-02-17 23:00","2023","02","17","23:00"
"-77.78","48.05","VAL D'OR A","7098606","2023-02-18 00:00","2023","02","18","00:00"
"-77.78","48.05","VAL D'OR A","7098606","2023-02-18 01:00","2023","02","18","01:00"
"-77.78","48.05","VAL D'OR A","7098606","2023-02-18 02:00","2023","02","18","02:00"
"-77.78","48.05","VAL D'OR A","7098606","2023-02-18 03:00","2023","02","18","03:00"
"-77.78","48.05","VAL D'OR A","7098606","2023-02-18 04:00","2023","02","18","04:00"
"-77.78","48.05","VAL D'OR A","7098606","2023-02-18 05:00","2023","02","18","05:00"
"-77.78","48.05","VAL D'OR A","7098606","2023-02-18 06:00","2023","02","18","06:00","-13.7","","-15.1","","89","","","","19","","20","","2.4","","97.05","","","","-23","","Snow"
"-77.78","48.05","VAL D'OR A","7098606","2023-02-18 07:00","2023","02","18","07:00","-13.3","","-14.6","","90","","","","19","","20","","3.2","","96.98","","","","-22","","Snow"
"-77.78","48.05","VAL D'OR A","7098606","2023-02-18 08:00","2023","02","18","08:00","-12.3","","-13.6","","90","","","","19","","22","","2.4","","96.98","","","","-21","","Snow"
"-77.78","48.05","VAL D'OR A","7098606","2023-02-18 09:00","2023","02","18","09:00","-10.6","","-11.8","","91","","","","19","","21","","2.4","","96.98","","","","-19","","Snow"
"-77.78","48.05","VAL D'OR A","7098606","2023-02-18 10:00","2023","02","18","10:00","-7.9","","-9.6","","88","","","","21","","21","","4.8","","97.02","","","","-15","","Snow"
"-77.78","48.05","VAL D'OR A","7098606","2023-02-18 11:00","2023","02","18","11:00","-6.3","","-8.2","","86","","","","22","","22","","6.4","","97.02","","","","-14","","Snow,Blowing Snow"
"-77.78","48.05","VAL D'OR A","7098606","2023-02-18 12:00","2023","02","18","12:00","-4.7","","-7.2","","83","","","","24","","23","","16.1","","97.04","","","","-12","","Snow,Blowing Snow"
"-77.78","48.05","VAL D'OR A","7098606","2023-02-18 13:00","2023","02","18","13:00","-4.3","","-6.8","","83","","","","23","","22","","6.4","","97.04","","","","-11","","Snow,Blowing Snow"
"-77.78","48.05","VAL D'OR A","7098606","2023-02-18 14:00","2023","02","18","14:00","-3.8","","-6.0","","85","","","","24","","14","","4.8","","97.06","","","","-9","","Snow,Blowing Snow"
"-77.78","48.05","VAL D'OR A","7098606","2023-02-18 15:00","2023","02","18","15:00","-3.4","","-5.4","","86","","","","24","","16","","4.8","","97.10","","","","-9","","Snow,Blowing Snow"
"-77.78","48.05","VAL D'OR A","7098606","2023-02-18 16:00","2023","02","18","16:00","-3.3","","-5.3","","86","","","","24","","15","","4.8","","97.18","","","","-8","","Snow,Blowing Snow"
"-77.78","48.05","VAL D'OR A","7098606","2023-02-18 17:00","2023","02","18","17:00","-4.3","","-5.3","","93","","","","29","","10","","3.2","","97.28","","","","-8","","Snow"
"-77.78","48.05","VAL D'OR A","7098606","2023-02-18 18:00","2023","02","18","18:00","-4.8","","-5.8","","93","","","","33","","23","","4.8","","97.42","","","","-12","","Snow"
"-77.78","48.05","VAL D'OR A","7098606","2023-02-18 19:00","2023","02","18","19:00","-6.4","","-7.4","","93","","","","31","","6","","16.1","","97.60","","","","-9","","Snow"
"-77.78","48.05","VAL D'OR A","7098606","2023-02-18 20:00","2023","02","18","20:00","-6.6","","-8.0","","90","","","","29","","7","","24.1","","97.72","","","","-10","","Snow"
"-77.78","48.05","VAL D'OR A","7098606","2023-02-18 21:00","2023","02","18","21:00","-7.2","","-9.2","","86","","","","28","","7","","24.1","","97.78","","","","-11","","NA"
"-77.78","48.05","VAL D'OR A","7098606","2023-02-18 22:00","2023","02","18","22:00","-7.9","","-9.6","","87","","","","28","","4","","24.1","","97.81","","","","-10","","Mostly Cloudy"
"-77.78","48.05","VAL D'OR A","7098606","2023-02-18 23:00","2023","02","18","23:00"
"-77.78","48.05","VAL D'OR A","7098606","2023-02-19 00:00","2023","02","19","00:00"
"-77.78","48.05","VAL D'OR A","7098606","2023-02-19 01:00","2023","02","19","01:00"
"-77.78","48.05","VAL D'OR A","7098606","2023-02-19 02:00","2023","02","19","02:00"
"-77.78","48.05","VAL D'OR A","7098606","2023-02-19 03:00","2023","02","19","03:00"
"-77.78","48.05","VAL D'OR A","7098606","2023-02-19 04:00","2023","02","19","04:00"
"-77.78","48.05","VAL D'OR A","7098606","2023-02-19 05:00","2023","02","19","05:00"
"-77.78","48.05","VAL D'OR A","7098606","2023-02-19 06:00","2023","02","19","06:00","-10.6","","-11.0","","97","","","","18","","14","","24.1","","97.57","","","","-17","","NA"
"-77.78","48.05","VAL D'OR A","7098606","2023-02-19 07:00","2023","02","19","07:00","-9.3","","-9.7","","97","","","","16","","18","","24.1","","97.50","","","","-17","","Cloudy"
"-77.78","48.05","VAL D'OR A","7098606","2023-02-19 08:00","2023","02","19","08:00","-7.9","","-8.3","","97","","","","17","","17","","24.1","","97.37","","","","-15","","NA"
"-77.78","48.05","VAL D'OR A","7098606","2023-02-19 09:00","2023","02","19","09:00","-5.6","","-6.1","","96","","","","16","","27","","24.1","","97.20","","","","-13","","NA"
"-77.78","48.05","VAL D'OR A","7098606","2023-02-19 10:00","2023","02","19","10:00","-3.9","","-5.3","","90","","","","16","","32","","24.1","","97.07","","","","-12","","Blowing Snow"
"-77.78","48.05","VAL D'OR A","7098606","2023-02-19 11:00","2023","02","19","11:00","-3.5","","-4.2","","95","","","","16","","35","","1.2","","96.85","","","","-12","","Snow,Blowing Snow"
"-77.78","48.05","VAL D'OR A","7098606","2023-02-19 12:00","2023","02","19","12:00","-2.7","","-3.5","","94","","","","17","","36","","1.6","","96.64","","","","-11","","Snow,Blowing Snow"
"-77.78","48.05","VAL D'OR A","7098606","2023-02-19 13:00","2023","02","19","13:00","-2.0","","-2.8","","94","","","","17","","31","","1.6","","96.46","","","","-9","","Snow,Blowing Snow"
"-77.78","48.05","VAL D'OR A","7098606","2023-02-19 14:00","2023","02","19","14:00","-1.5","","-2.5","","93","","","","18","","27","","8.1","","96.26","","","","-8","","Snow,Blowing Snow"
"-77.78","48.05","VAL D'OR A","7098606","2023-02-19 15:00","2023","02","19","15:00","-0.5","","-2.0","","90","","","","18","","22","","16.1","","96.14","","","","-6","","NA"
"-77.78","48.05","VAL D'OR A","7098606","2023-02-19 16:00","2023","02","19","16:00","-0.2","","-1.8","","89","","","","18","","24","","24.1","","96.03","","","","-6","","Cloudy"
"-77.78","48.05","VAL D'OR A","7098606","2023-02-19 17:00","2023","02","19","17:00","-0.3","","-1.7","","90","","","","18","","22","","24.1","","95.94","","","","-6","","NA"
"-77.78","48.05","VAL D'OR A","7098606","2023-02-19 18:00","2023","02","19","18:00","-0.2","","-1.8","","89","","","","19","","19","","24.1","","95.93","","","","-5","","NA"
"-77.78","48.05","VAL D'OR A","7098606","2023-02-19 19:00","2023","02","19","19:00","-0.3","","-1.7","","90","","","","19","","16","","24.1","","95.97","","","","-5","","Cloudy"
"-77.78","48.05","VAL D'OR A","7098606","2023-02-19 20:00","2023","02","19","20:00","0.1","","-2.0","","86","","","","20","","17","","24.1","","95.93","","","","","","Snow"
"-77.78","48.05","VAL D'OR A","7098606","2023-02-19 21:00","2023","02","19","21:00","0.0","","-1.4","","90","","","","20","","20","","24.1","","95.94","","","","-5","","NA"
"-77.78","48.05","VAL D'OR A","7098606","2023-02-19 22:00","2023","02","19","22:00","-0.1","","-1.2","","92","","","","20","","16","","24.1","","95.92","","","","-5","","Snow"
"-77.78","48.05","VAL D'OR A","7098606","2023-02-19 23:00","2023","02","19","23:00"
"-77.78","48.05","VAL D'OR A","7098606","2023-02-20 00:00","2023","02","20","00:00"
"-77.78","48.05","VAL D'OR A","7098606","2023-02-20 01:00","2023","02","20","01:00"
"-77.78","48.05","VAL D'OR A","7098606","2023-02-20 02:00","2023","02","20","02:00"
"-77.78","48.05","VAL D'OR A","7098606","2023-02-20 03:00","2023","02","20","03:00"
"-77.78","48.05","VAL D'OR A","7098606","2023-02-20 04:00","2023","02","20","04:00"
"-77.78","48.05","VAL D'OR A","7098606","2023-02-20 05:00","2023","02","20","05:00"
"-77.78","48.05","VAL D'OR A","7098606","2023-02-20 06:00","2023","02","20","06:00","-16.9","","-19.3","","82","","","","33","","23","","6.4","","96.53","","","","-27","","Snow"
"-77.78","48.05","VAL D'OR A","7098606","2023-02-20 07:00","2023","02","20","07:00","-18.3","","-20.7","","82","","","","33","","19","","24.1","","96.65","","","","-28","","Mostly Cloudy"
"-77.78","48.05","VAL D'OR A","7098606","2023-02-20 08:00","2023","02","20","08:00","-20.0","","-22.2","","83","","","","34","","16","","24.1","","96.77","","","","-29","","NA"
"-77.78","48.05","VAL D'OR A","7098606","2023-02-20 09:00","2023","02","20","09:00","-20.0","","-22.7","","79","","","","34","","18","","24.1","","96.87","","","","-30","","NA"
"-77.78","48.05","VAL D'OR A","7098606","2023-02-20 10:00","2023","02","20","10:00","-19.4","","-23.0","","74","","","","34","","16","","24.1","","96.91","","","","-29","","Mainly Clear"
"-77.78","48.05","VAL D'OR A","7098606","2023-02-20 11:00","2023","02","20","11:00","-18.6","","-22.5","","72","","","","34","","16","","24.1","","96.93","","","","-28","","NA"
"-77.78","48.05","VAL D'OR A","7098606","2023-02-20 12:00","2023","02","20","12:00","-17.4","","-21.6","","70","","","","31","","12","","24.1","","96.91","","","","-25","","NA"
"-77.78","48.05","VAL D'OR A","7098606","2023-02-20 13:00","2023","02","20","13:00","-17.1","","-21.5","","69","","","","33","","11","","24.1","","96.88","","","","-24","","Mainly Clear"
"-77.78","48.05","VAL D'OR A","7098606","2023-02-20 14:00","2023","02","20","14:00","-16.3","","-21.2","","66","","","","33","","8","","24.1","","96.87","","","","-22","","NA"
"-77.78","48.05","VAL D'OR A","7098606","2023-02-20 15:00","2023","02","20","15:00","-16.1","","-21.6","","63","","","","35","","15","","24.1","","96.89","","","","-24","","NA"
"-77.78","48.05","VAL D'OR A","7098606","2023-02-20 16:00","2023","02","20","16:00","-15.7","","-21.9","","59","","","","33","","9","","24.1","","96.91","","","","-22","","Mainly Clear"
"-77.78","48.05","VAL D'OR A","7098606","2023-02-20 17:00","2023","02","20","17:00","-16.7","","-21.9","","65","","","","34","","7","","24.1","","96.92","","","","-22","","NA"
"-77.78","48.05","VAL D'OR A","7098606","2023-02-20 18:00","2023","02","20","18:00","-19.8","","-22.8","","77","","","","36","","3","","24.1","","96.89","","","","-22","","NA"
"-77.78","48.05","VAL D'OR A","7098606","2023-02-20 19:00","2023","02","20","19:00","-22.6","","-24.5","","85","","","","0","","1","","24.1","","96.90","","","","-24","","Clear"
"-77.78","48.05","VAL D'OR A","7098606","2023-02-20 20:00","2023","02","20","20:00","-24.3","","-26.0","","86","","","","36","","1","","24.1","","96.88","","","","-25","","NA"
"-77.78","48.05","VAL D'OR A","7098606","2023-02-20 21:00","2023","02","20","21:00","-24.7","","-26.7","","84","","","","36","","2","","24.1","","96.87","","","","-27","","NA"
"-77.78","48.05","VAL D'OR A","7098606","2023-02-20 22:00","2023","02","20","22:00","-25.7","","-27.8","","83","","","","18","","3","","24.1","","96.80","","","","-29","","Clear"
"-77.78","48.05","VAL D'OR A","7098606","2023-02-20 23:00","2023","02","20","23:00"
"-77.78","48.05","VAL D'OR A","7098606","2023-02-21 00:00","2023","02","21","00:00"
"-77.78","48.05","VAL D'OR A","7098606","2023-02-21 01:00","2023","02","21","01:00"
"-77.78","48.05","VAL D'OR A","7098606","2023-02-21 02:00","2023","02","21","02:00"
"-77.78","48.05","VAL D'OR A","7098606","2023-02-21 03:00","2023","02","21","03:00"
"-77.78","48.05","VAL D'OR A","7098606","2023-02-21 04:00","2023","02","21","04:00"
"-77.78","48.05","VAL D'OR A","7098606","2023-02-21 05:00","2023","02","21","05:00"
"-77.78","48.05","VAL D'OR A","7098606","2023-02-21 06:00","2023","02","21","06:00","-22.9","","-24.9","","84","","","","8","","8","","24.1","","96.15","","","","-30","","NA"
"-77.78","48.05","VAL D'OR A","7098606","2023-02-21 07:00","2023","02","21","07:00","-22.2","","-24.1","","85","","","","11","","4","","24.1","","96.08","","","","-26","","Cloudy"
"-77.78","48.05","VAL D'OR A","7098606","2023-02-21 08:00","2023","02","21","08:00","-20.4","","-22.2","","86","","","","13","","13","","4.0","","96.04","","","","-29","","Snow"
"-77.78","48.05","VAL D'OR A","7098606","2023-02-21 09:00","2023","02","21","09:00","-18.4","","-20.2","","86","","","","13","","16","","24.1","","95.95","","","","-27","","Snow"
"-77.78","48.05","VAL D'OR A","7098606","2023-02-21 10:00","2023","02","21","10:00","-15.5","","-18.9","","76","","","","12","","20","","24.1","","95.84","","","","-25","","Mainly Clear"
"-77.78","48.05","VAL D'OR A","7098606","2023-02-21 11:00","2023","02","21","11:00","-14.8","","-17.5","","80","","","","11","","17","","3.2","","95.64","","","","-23","","Snow"
"-77.78","48.05","VAL D'OR A","7098606","2023-02-21 12:00","2023","02","21","12:00","-13.9","","-15.6","","87","","","","12","","15","","1.2","","95.52","","","","-22","","Snow"
"-77.78","48.05","VAL D'OR A","7098606","2023-02-21 13:00","2023","02","21","13:00","-12.8","","-14.5","","87","","","","10","","15","","1.2","","95.49","","","","-20","","Snow"
"-77.78","48.05","VAL D'OR A","7098606","2023-02-21 14:00","2023","02","21","14:00","-12.2","","-14.1","","86","","","","36","","1","","1.6","","95.50","","","","-13","","Snow"
"-77.78","48.05","VAL D'OR A","7098606","2023-02-21 15:00","2023","02","21","15:00","-12.2","","-13.7","","89","","","","1","","5","","2.4","","95.53","","","","-15","","Snow"
"-77.78","48.05","VAL D'OR A","7098606","2023-02-21 16:00","2023","02","21","16:00","-11.5","","-13.4","","86","","","","36","","1","","4.8","","95.61","","","","-12","","Snow"
"-77.78","48.05","VAL D'OR A","7098606","2023-02-21 17:00","2023","02","21","17:00","-11.8","","-13.6","","87","","","","32","","14","","4.8","","95.80","","","","-19","","Snow"
"-77.78","48.05","VAL D'OR A","7098606","2023-02-21 18:00","2023","02","21","18:00","-12.3","","-13.8","","89","","","","31","","12","","4.0","","95.99","","","","-19","","Snow"
"-77.78","48.05","VAL D'OR A","7098606","2023-02-21 19:00","2023","02","21","19:00","-13.2","","-14.8","","88","","","","30","","11","","8.1","","96.21","","","","-19","","Snow"
"-77.78","48.05","VAL D'OR A","7098606","2023-02-21 20:00","2023","02","21","20:00","-14.1","","-16.0","","86","","","","30","","15","","12.9","","96.36","","","","-22","","Snow"
"-77.78","48.05","VAL D'OR A","7098606","2023-02-21 21:00","2023","02","21","21:00","-15.7","","-17.7","","85","","","","32","","16","","16.1","","96.60","","","","-24","","Snow"
"-77.78","48.05","VAL D'OR A","7098606","2023-02-21 22:00","2023","02","21","22:00","-17.3","","-19.0","","87","","","","30","","10","","24.1","","96.80","","","","-24","","Mainly Clear"
"-77.78","48.05","VAL D'OR A","7098606","2023-02-21 23:00","2023","02","21","23:00"
"-77.78","48.05","VAL D'OR A","7098606","2023-02-22 00:00","2023","02","22","00:00"
"-77.78","48.05","VAL D'OR A","7098606","2023-02-22 01:00","2023","02","22","01:00"
"-77.78","48.05","VAL D'OR A","7098606","2023-02-22 02:00","2023","02","22","02:00"
"-77.78","48.05","VAL D'OR A","7098606","2023-02-22 03:00","2023","02","22","03:00"
"-77.78","48.05","VAL D'OR A","7098606","2023-02-22 04:00","2023","02","22","04:00"
"-77.78","48.05","VAL D'OR A","7098606","2023-02-22 05:00","2023","02","22","05:00"
"-77.78","48.05","VAL D'OR A","7098606","2023-02-22 06:00","2023","02","22","06:00","-29.6","","-31.8","","82","","","","17","","4","","24.1","","97.78","","","","-34","","NA"
"-77.78","48.05","VAL D'OR A","7098606","2023-02-22 07:00","2023","02","22","07:00","-29.3","","-31.6","","81","","","","18","","5","","24.1","","97.87","","","","-35","","Mainly Clear"
"-77.78","48.05","VAL D'OR A","7098606","2023-02-22 08:00","2023","02","22","08:00","-28.4","","-30.6","","82","","","","21","","5","","24.1","","98.03","","","","-34","","NA"
"-77.78","48.05","VAL D'OR A","7098606","2023-02-22 09:00","2023","02","22","09:00","-23.4","","-25.3","","85","","","","17","","6","","24.1","","98.05","","","","-29","","NA"
"-77.78","48.05","VAL D'OR A","7098606","2023-02-22 10:00","2023","02","22","10:00","-19.0","","-21.9","","78","","","","15","","9","","24.1","","98.14","","","","-26","","Mainly Clear"
"-77.78","48.05","VAL D'OR A","7098606","2023-02-22 11:00","2023","02","22","11:00","-16.0","","-20.9","","66","","","","15","","9","","24.1","","98.21","","","","-22","","NA"
"-77.78","48.05","VAL D'OR A","7098606","2023-02-22 12:00","2023","02","22","12:00","-16.3","","-20.8","","69","","","","36","","4","","24.1","","98.19","","","","-19","","NA"
"-77.78","48.05","VAL D'OR A","7098606","2023-02-22 13:00","2023","02","22","13:00","-13.7","","-19.9","","60","","","","30","","9","","24.1","","98.28","","","","-19","","Mostly Cloudy"
"-77.78","48.05","VAL D'OR A","7098606","2023-02-22 14:00","2023","02","22","14:00","-14.5","","-19.1","","69","","","","2","","8","","19.3","","98.16","","","","-20","","Snow Showers"
"-77.78","48.05","VAL D'OR A","7098606","2023-02-22 15:00","2023","02","22","15:00","-14.0","","-18.8","","67","","","","35","","9","","19.3","","98.15","","","","-20","","Snow Showers"
"-77.78","48.05","VAL D'OR A","7098606","2023-02-22 16:00","2023","02","22","16:00","-14.5","","-20.1","","63","","","","35","","14","","24.1","","98.26","","","","-22","","Snow Showers"
"-77.78","48.05","VAL D'OR A","7098606","2023-02-22 17:00","2023","02","22","17:00","-15.0","","-20.9","","61","","","","34","","10","","24.1","","98.25","","","","-21","","NA"
"-77.78","48.05","VAL D'OR A","7098606","2023-02-22 18:00","2023","02","22","18:00","-17.6","","-21.3","","73","","","","4","","4","","24.1","","98.21","","","","-21","","NA"
"-77.78","48.05","VAL D'OR A","7098606","2023-02-22 19:00","2023","02","22","19:00","-18.0","","-20.1","","84","","","","5","","6","","24.1","","98.17","","","","-23","","Mostly Cloudy"
"-77.78","48.05","VAL D'OR A","7098606","2023-02-22 20:00","2023","02","22","20:00","-17.9","","-19.7","","86","","","","35","","9","","24.1","","98.17","","","","-24","","NA"
"-77.78","48.05","VAL D'OR A","7098606","2023-02-22 21:00","2023","02","22","21:00","-17.1","","-19.1","","85","","","","3","","15","","24.1","","98.28","","","","-26","","NA"
"-77.78","48.05","VAL D'OR A","7098606","2023-02-22 22:00","2023","02","22","22:00","-17.6","","-19.7","","84","","","","3","","14","","24.1","","98.36","","","","-26","","Mostly Cloudy"
"-77.78","48.05","VAL D'OR A","7098606","2023-02-22 23:00","2023","02","22","23:00"
"-77.78","48.05","VAL D'OR A","7098606","2023-02-23 00:00","2023","02","23","00:00"
"-77.78","48.05","VAL D'OR A","7098606","2023-02-23 01:00","2023","02","23","01:00"
"-77.78","48.05","VAL D'OR A","7098606","2023-02-23 02:00","2023","02","23","02:00"
"-77.78","48.05","VAL D'OR A","7098606","2023-02-23 03:00","2023","02","23","03:00"
"-77.78","48.05","VAL D'OR A","7098606","2023-02-23 04:00","2023","02","23","04:00"
"-77.78","48.05","VAL D'OR A","7098606","2023-02-23 05:00","2023","02","23","05:00"
"-77.78","48.05","VAL D'OR A","7098606","2023-02-23 06:00","2023","02","23","06:00","-24.3","","-26.6","","82","","","","2","","16","","24.1","","98.21","","","","-35","","NA"
"-77.78","48.05","VAL D'OR A","7098606","2023-02-23 07:00","2023","02","23","07:00","-25.5","","-27.7","","82","","","","2","","16","","24.1","","98.16","","","","-36","","Mostly Cloudy"
"-77.78","48.05","VAL D'OR A","7098606","2023-02-23 08:00","2023","02","23","08:00","-25.3","","-27.7","","81","","","","3","","17","","24.1","","98.11","","","","-36","","NA"
"-77.78","48.05","VAL D'OR A","7098606","2023-02-23 09:00","2023","02","23","09:00","-24.1","","-26.9","","78","","","","3","","12","","24.1","","98.18","","","","-33","","NA"
"-77.78","48.05","VAL D'OR A","7098606","2023-02-23 10:00","2023","02","23","10:00","-22.8","","-25.8","","77","","","","2","","14","","24.1","","98.11","","","","-32","","Cloudy"
"-77.78","48.05","VAL D'OR A","7098606","2023-02-23 11:00","2023","02","23","11:00","-21.3","","-24.6","","75","","","","1","","17","","24.1","","98.08","","","","-31","","NA"
"-77.78","48.05","VAL D'OR A","7098606","2023-02-23 12:00","2023","02","23","12:00","-20.1","","-23.5","","75","","","","2","","17","","24.1","","98.04","","","","-30","","NA"
"-77.78","48.05","VAL D'OR A","7098606","2023-02-23 13:00","2023","02","23","13:00","-19.0","","-22.9","","72","","","","2","","16","","24.1","","97.93","","","","-28","","Cloudy"
"-77.78","48.05","VAL D'OR A","7098606","2023-02-23 14:00","2023","02","23","14:00","-17.9","","-21.4","","75","","","","2","","17","","6.4","","97.79","","","","-27","","Snow"
"-77.78","48.05","VAL D'OR A","7098606","2023-02-23 15:00","2023","02","23","15:00","-17.4","","-20.8","","75","","","","2","","21","","4.8","","97.59","","","","-27","","Snow"
"-77.78","48.05","VAL D'OR A","7098606","2023-02-23 16:00","2023","02","23","16:00","-16.9","","-20.5","","74","","","","2","","27","","3.2","","97.68","","","","-28","","Snow"
"-77.78","48.05","VAL D'OR A","7098606","2023-02-23 17:00","2023","02","23","17:00","-17.8","","-20.0","","83","","","","2","","21","","2.4","","97.66","","","","-28","","Snow,Blowing Snow"
"-77.78","48.05","VAL D'OR A","7098606","2023-02-23 18:00","2023","02","23","18:00","-18.2","","-20.4","","83","","","","1","","26","","2.4","","97.64","","","","-29","","Snow,Blowing Snow"
"-77.78","48.05","VAL D'OR A","7098606","2023-02-23 19:00","2023","02","23","19:00","-18.6","","-20.8","","83","","","","1","","25","","2.4","","97.68","","","","-30","","Snow,Blowing Snow"
"-77.78","48.05","VAL D'OR A","7098606","2023-02-23 20:00","2023","02","23","20:00","-18.9","","-21.2","","82","","","","2","","27","","3.2","","97.67","","","","-31","","Snow,Blowing Snow"
"-77.78","48.05","VAL D'OR A","7098606","2023-02-23 21:00","2023","02","23","21:00","-19.6","","-21.9","","82","","","","1","","26","","4.8","","97.72","","","","-31","","Snow,Blowing Snow"
"-77.78","48.05","VAL D'OR A","7098606","2023-02-23 22:00","2023","02","23","22:00","-19.9","","-22.5","","80","","","","2","","23","","11.3","","97.76","","","","-31","","Snow,Blowing Snow"
"-77.78","48.05","VAL D'OR A","7098606","2023-02-23 23:00","2023","02","23","23:00"
"-77.78","48.05","VAL D'OR A","7098606","2023-02-24 00:00","2023","02","24","00:00"
"-77.78","48.05","VAL D'OR A","7098606","2023-02-24 01:00","2023","02","24","01:00"
"-77.78","48.05","VAL D'OR A","7098606","2023-02-24 02:00","2023","02","24","02:00"
"-77.78","48.05","VAL D'OR A","7098606","2023-02-24 03:00","2023","02","24","03:00"
"-77.78","48.05","VAL D'OR A","7098606","2023-02-24 04:00","2023","02","24","04:00"
"-77.78","48.05","VAL D'OR A","7098606","2023-02-24 05:00","2023","02","24","05:00"
"-77.78","48.05","VAL D'OR A","7098606","2023-02-24 06:00","2023","02","24","06:00","-27.5","","-30.1","","79","","","","32","","12","","24.1","","98.61","","","","-37","","NA"
"-77.78","48.05","VAL D'OR A","7098606","2023-02-24 07:00","2023","02","24","07:00","-28.1","","-30.8","","78","","","","32","","11","","24.1","","98.69","","","","-37","","Mostly Cloudy"
"-77.78","48.05","VAL D'OR A","7098606","2023-02-24 08:00","2023","02","24","08:00","-27.9","","-30.9","","76","","","","33","","9","","24.1","","98.80","","","","-36","","NA"
"-77.78","48.05","VAL D'OR A","7098606","2023-02-24 09:00","2023","02","24","09:00","-27.2","","-30.7","","73","","","","34","","7","","24.1","","98.90","","","","-34","","NA"
"-77.78","48.05","VAL D'OR A","7098606","2023-02-24 10:00","2023","02","24","10:00","-26.0","","-30.4","","67","","","","32","","10","","24.1","","98.95","","","","-34","","Cloudy"
"-77.78","48.05","VAL D'OR A","7098606","2023-02-24 11:00","2023","02","24","11:00","-24.9","","-30.0","","63","","","","33","","7","","24.1","","98.97","","","","-31","","NA"
"-77.78","48.05","VAL D'OR A","7098606","2023-02-24 12:00","2023","02","24","12:00","-23.4","","-29.0","","61","","","","33","","13","","24.1","","98.99","","","","-33","","NA"
"-77.78","48.05","VAL D'OR A","7098606","2023-02-24 13:00","2023","02","24","13:00","-21.2","","-27.4","","58","","","","31","","5","","24.1","","98.96","","","","-26","","Mostly Cloudy"
"-77.78","48.05","VAL D'OR A","7098606","2023-02-24 14:00","2023","02","24","14:00","-19.6","","-26.3","","56","","","","25","","12","","24.1","","98.95","","","","-28","","NA"
"-77.78","48.05","VAL D'OR A","7098606","2023-02-24 15:00","2023","02","24","15:00","-18.3","","-25.6","","53","","","","27","","9","","24.1","","98.96","","","","-25","","NA"
"-77.78","48.05","VAL D'OR A","7098606","2023-02-24 16:00","2023","02","24","16:00","-17.7","","-24.9","","54","","","","29","","11","","24.1","","99.00","","","","-25","","Mainly Clear"
"-77.78","48.05","VAL D'OR A","7098606","2023-02-24 17:00","2023","02","24","17:00","-17.8","","-24.6","","56","","","","28","","12","","24.1","","98.97","","","","-25","","NA"
"-77.78","48.05","VAL D'OR A","7098606","2023-02-24 18:00","2023","02","24","18:00","-19.4","","-24.2","","66","","","","24","","5","","24.1","","98.99","","","","-24","","NA"
"-77.78","48.05","VAL D'OR A","7098606","2023-02-24 19:00","2023","02","24","19:00","-20.8","","-24.5","","73","","","","22","","12","","24.1","","99.03","","","","-29","","Clear"
"-77.78","48.05","VAL D'OR A","7098606","2023-02-24 20:00","2023","02","24","20:00","-21.9","","-25.2","","75","","","","22","","13","","24.1","","99.04","","","","-31","","NA"
"-77.78","48.05","VAL D'OR A","7098606","2023-02-24 21:00","2023","02","24","21:00","-22.5","","-25.8","","75","","","","23","","10","","24.1","","99.04","","","","-30","","NA"
"-77.78","48.05","VAL D'OR A","7098606","2023-02-24 22:00","2023","02","24","22:00","-23.1","","-26.3","","76","","","","22","","10","","24.1","","99.02","","","","-31","","Clear"
"-77.78","48.05","VAL D'OR A","7098606","2023-02-24 23:00","2023","02","24","23:00"
"-77.78","48.05","VAL D'OR A","7098606","2023-02-25 00:00","2023","02","25","00:00"
"-77.78","48.05","VAL D'OR A","7098606","2023-02-25 01:00","2023","02","25","01:00"
"-77.78","48.05","VAL D'OR A","7098606","2023-02-25 02:00","2023","02","25","02:00"
"-77.78","48.05","VAL D'OR A","7098606","2023-02-25 03:00","2023","02","25","03:00"
"-77.78","48.05","VAL D'OR A","7098606","2023-02-25 04:00","2023","02","25","04:00"
"-77.78","48.05","VAL D'OR A","7098606","2023-02-25 05:00","2023","02","25","05:00"
"-77.78","48.05","VAL D'OR A","7098606","2023-02-25 06:00","2023","02","25","06:00","-24.5","","-26.6","","83","","","","22","","13","","24.1","","98.59","","","","-34","","NA"
"-77.78","48.05","VAL D'OR A","7098606","2023-02-25 07:00","2023","02","25","07:00","-24.3","","-26.6","","82","","","","22","","11","","24.1","","98.56","","","","-33","","Mostly Cloudy"
"-77.78","48.05","VAL D'OR A","7098606","2023-02-25 08:00","2023","02","25","08:00","-24.2","","-26.4","","82","","","","19","","7","","24.1","","98.51","","","","-31","","NA"
"-77.78","48.05","VAL D'OR A","7098606","2023-02-25 09:00","2023","02","25","09:00","-22.6","","-24.9","","82","","","","21","","13","","24.1","","98.47","","","","-32","","NA"
"-77.78","48.05","VAL D'OR A","7098606","2023-02-25 10:00","2023","02","25","10:00","-19.8","","-22.3","","81","","","","19","","8","","24.1","","98.40","","","","-26","","Cloudy"
"-77.78","48.05","VAL D'OR A","7098606","2023-02-25 11:00","2023","02","25","11:00","-17.2","","-19.6","","82","","","","18","","12","","2.4","","98.31","","","","-25","","Snow"
"-77.78","48.05","VAL D'OR A","7098606","2023-02-25 12:00","2023","02","25","12:00","-14.9","","-17.6","","80","","","","19","","15","","4.0","","98.18","","","","-23","","Snow"
"-77.78","48.05","VAL D'OR A","7098606","2023-02-25 13:00","2023","02","25","13:00","-13.2","","-16.4","","77","","","","22","","22","","3.2","","98.08","","","","-22","","Snow"
"-77.78","48.05","VAL D'OR A","7098606","2023-02-25 14:00","2023","02","25","14:00","-12.5","","-15.9","","76","","","","20","","15","","6.4","","97.96","","","","-20","","Snow"
"-77.78","48.05","VAL D'OR A","7098606","2023-02-25 15:00","2023","02","25","15:00","-11.8","","-15.9","","72","","","","18","","13","","24.1","","97.85","","","","-18","","Snow"
"-77.78","48.05","VAL D'OR A","7098606","2023-02-25 16:00","2023","02","25","16:00","-10.9","","-15.4","","70","","","","20","","15","","24.1","","97.75","","","","-18","","Mostly Cloudy"
"-77.78","48.05","VAL D'OR A","7098606","2023-02-25 17:00","2023","02","25","17:00","-11.6","","-15.3","","74","","","","18","","18","","24.1","","97.63","","","","-19","","NA"
"-77.78","48.05","VAL D'OR A","7098606","2023-02-25 18:00","2023","02","25","18:00","-12.4","","-15.5","","78","","","","17","","17","","24.1","","97.58","","","","-20","","NA"
"-77.78","48.05","VAL D'OR A","7098606","2023-02-25 19:00","2023","02","25","19:00","-12.7","","-15.2","","82","","","","17","","16","","24.1","","97.50","","","","-20","","Cloudy"
"-77.78","48.05","VAL D'OR A","7098606","2023-02-25 20:00","2023","02","25","20:00","-13.0","","-15.0","","85","","","","18","","16","","16.1","","97.43","","","","-21","","Snow"
"-77.78","48.05","VAL D'OR A","7098606","2023-02-25 21:00","2023","02","25","21:00","-13.5","","-15.1","","88","","","","16","","19","","16.1","","97.34","","","","-22","","Snow"
"-77.78","48.05","VAL D'OR A","7098606","2023-02-25 22:00","2023","02","25","22:00","-14.0","","-15.4","","89","","","","15","","20","","16.1","","97.22","","","","-23","","Snow"
"-77.78","48.05","VAL D'OR A","7098606","2023-02-25 23:00","2023","02","25","23:00"
"-77.78","48.05","VAL D'OR A","7098606","2023-02-26 00:00","2023","02","26","00:00"
"-77.78","48.05","VAL D'OR A","7098606","2023-02-26 01:00","2023","02","26","01:00"
"-77.78","48.05","VAL D'OR A","7098606","2023-02-26 02:00","2023","02","26","02:00"
"-77.78","48.05","VAL D'OR A","7098606","2023-02-26 03:00","2023","02","26","03:00"
"-77.78","48.05","VAL D'OR A","7098606","2023-02-26 04:00","2023","02","26","04:00"
"-77.78","48.05","VAL D'OR A","7098606","2023-02-26 05:00","2023","02","26","05:00"
"-77.78","48.05","VAL D'OR A","7098606","2023-02-26 06:00","2023","02","26","06:00","-12.3","","-13.5","","91","","","","15","","15","","3.2","","96.29","","","","-20","","Snow"
"-77.78","48.05","VAL D'OR A","7098606","2023-02-26 07:00","2023","02","26","07:00","-12.8","","-14.0","","91","","","","15","","14","","4.0","","96.24","","","","-20","","Snow"
"-77.78","48.05","VAL D'OR A","7098606","2023-02-26 08:00","2023","02","26","08:00","-12.2","","-13.5","","90","","","","15","","11","","4.8","","96.22","","","","-18","","Snow"
"-77.78","48.05","VAL D'OR A","7098606","2023-02-26 09:00","2023","02","26","09:00","-11.9","","-13.3","","90","","","","14","","8","","12.9","","96.24","","","","-17","","Snow"
"-77.78","48.05","VAL D'OR A","7098606","2023-02-26 10:00","2023","02","26","10:00","-9.2","","-11.1","","86","","","","24","","3","","24.1","","96.22","","","","-11","","Snow"
"-77.78","48.05","VAL D'OR A","7098606","2023-02-26 11:00","2023","02","26","11:00","-7.8","","-9.9","","85","","","","28","","10","","24.1","","96.21","","","","-13","","Snow"
"-77.78","48.05","VAL D'OR A","7098606","2023-02-26 12:00","2023","02","26","12:00","-7.0","","-9.1","","85","","","","29","","9","","4.8","","96.26","","","","-11","","Snow"
"-77.78","48.05","VAL D'OR A","7098606","2023-02-26 13:00","2023","02","26","13:00","-6.4","","-8.2","","87","","","","32","","13","","2.0","","96.30","","","","-12","","Snow"
"-77.78","48.05","VAL D'OR A","7098606","2023-02-26 14:00","2023","02","26","14:00","-6.6","","-8.7","","85","","","","31","","15","","4.8","","96.34","","","","-13","","Snow"
"-77.78","48.05","VAL D'OR A","7098606","2023-02-26 15:00","2023","02","26","15:00","-6.3","","-10.3","","74","","","","30","","20","","6.4","","96.42","","","","-13","","Snow Showers"
"-77.78","48.05","VAL D'OR A","7098606","2023-02-26 16:00","2023","02","26","16:00","-6.9","","-9.1","","84","","","","32","","17","","3.2","","96.51","","","","-13","","Snow Showers"
"-77.78","48.05","VAL D'OR A","7098606","2023-02-26 17:00","2023","02","26","17:00","-7.3","","-9.6","","84","","","","31","","10","","16.1","","96.62","","","","-12","","Snow Showers"
"-77.78","48.05","VAL D'OR A","7098606","2023-02-26 18:00","2023","02","26","18:00","-8.3","","-9.5","","91","","","","32","","8","","4.0","","96.72","","","","-12","","Snow Showers"
"-77.78","48.05","VAL D'OR A","7098606","2023-02-26 19:00","2023","02","26","19:00","-8.6","","-10.0","","90","","","","31","","14","","16.1","","96.85","","","","-15","","Mostly Cloudy"
"-77.78","48.05","VAL D'OR A","7098606","2023-02-26 20:00","2023","02","26","20:00","-9.6","","-10.9","","90","","","","32","","18","","6.4","","96.97","","","","-17","","Snow Showers"
"-77.78","48.05","VAL D'OR A","7098606","2023-02-26 21:00","2023","02","26","21:00","-11.6","","-13.9","","83","","","","33","","18","","24.1","","97.11","","","","-19","","NA"
"-77.78","48.05","VAL D'OR A","7098606","2023-02-26 22:00","2023","02","26","22:00","-12.8","","-15.1","","83","","","","33","","17","","24.1","","97.18","","","","-21","","Mainly Clear"
"-77.78","48.05","VAL D'OR A","7098606","2023-02-26 23:00","2023","02","26","23:00"
"-77.78","48.05","VAL D'OR A","7098606","2023-02-27 00:00","2023","02","27","00:00"
"-77.78","48.05","VAL D'OR A","7098606","2023-02-27 01:00","2023","02","27","01:00"
"-77.78","48.05","VAL D'OR A","7098606","2023-02-27 02:00","2023","02","27","02:00"
"-77.78","48.05","VAL D'OR A","7098606","2023-02-27 03:00","2023","02","27","03:00"
"-77.78","48.05","VAL D'OR A","7098606","2023-02-27 04:00","2023","02","27","04:00"
"-77.78","48.05","VAL D'OR A","7098606","2023-02-27 05:00","2023","02","27","05:00"
"-77.78","48.05","VAL D'OR A","7098606","2023-02-27 06:00","2023","02","27","06:00","-25.7","","-27.7","","84","","","","36","","1","","24.1","","97.57","","","","-27","","NA"
"-77.78","48.05","VAL D'OR A","7098606","2023-02-27 07:00","2023","02","27","07:00","-26.4","","-28.6","","82","","","","13","","4","","24.1","","97.55","","","","-31","","Clear"
"-77.78","48.05","VAL D'OR A","7098606","2023-02-27 08:00","2023","02","27","08:00","-23.5","","-25.3","","86","","","","23","","8","","24.1","","97.69","","","","-30","","NA"
"-77.78","48.05","VAL D'OR A","7098606","2023-02-27 09:00","2023","02","27","09:00","-19.3","","-20.7","","89","","","","3","","3","","24.1","","97.62","","","","-22","","NA"
"-77.78","48.05","VAL D'OR A","7098606","2023-02-27 10:00","2023","02","27","10:00","-15.9","","-18.0","","84","","","","4","","3","","24.1","","97.61","","","","-18","","Mostly Cloudy"
"-77.78","48.05","VAL D'OR A","7098606","2023-02-27 11:00","2023","02","27","11:00","-13.8","","-17.2","","76","","","","2","","7","","24.1","","97.54","","","","-18","","NA"
"-77.78","48.05","VAL D'OR A","7098606","2023-02-27 12:00","2023","02","27","12:00","-11.5","","-16.5","","67","","","","9","","9","","24.1","","97.40","","","","-17","","NA"
"-77.78","48.05","VAL D'OR A","7098606","2023-02-27 13:00","2023","02","27","13:00","-10.0","","-16.8","","58","","","","18","","8","","24.1","","97.31","","","","-14","","Mostly Cloudy"
"-77.78","48.05","VAL D'OR A","7098606","2023-02-27 14:00","2023","02","27","14:00","-9.6","","-17.0","","55","","","","13","","15","","24.1","","97.19","","","","-16","","NA"
"-77.78","48.05","VAL D'OR A","7098606","2023-02-27 15:00","2023","02","27","15:00","-9.1","","-14.5","","65","","","","10","","12","","24.1","","97.10","","","","-15","","NA"
"-77.78","48.05","VAL D'OR A","7098606","2023-02-27 16:00","2023","02","27","16:00","-8.6","","-14.3","","64","","","","12","","14","","24.1","","96.97","","","","-15","","Mostly Cloudy"
"-77.78","48.05","VAL D'OR A","7098606","2023-02-27 17:00","2023","02","27","17:00","-8.7","","-13.6","","68","","","","11","","12","","24.1","","96.91","","","","-14","","NA"
"-77.78","48.05","VAL D'OR A","7098606","2023-02-27 18:00","2023","02","27","18:00","-9.5","","-13.5","","73","","","","11","","9","","24.1","","96.89","","","","-14","","NA"
"-77.78","48.05","VAL D'OR A","7098606","2023-02-27 19:00","2023","02","27","19:00","-10.7","","-13.7","","79","","","","10","","7","","24.1","","96.87","","","","-15","","Mainly Clear"
"-77.78","48.05","VAL D'OR A","7098606","2023-02-27 20:00","2023","02","27","20:00","-12.1","","-14.3","","84","","","","7","","8","","24.1","","96.83","","","","-17","","NA"
"-77.78","48.05","VAL D'OR A","7098606","2023-02-27 21:00","2023","02","27","21:00","-12.0","","-14.0","","85","","","","9","","9","","24.1","","96.78","","","","-17","","NA"
"-77.78","48.05","VAL D'OR A","7098606","2023-02-27 22:00","2023","02","27","22:00","-11.8","","-13.6","","87","","","","10","","10","","24.1","","96.71","","","","-17","","Mainly Clear"
"-77.78","48.05","VAL D'OR A","7098606","2023-02-27 23:00","2023","02","27","23:00"
"-77.78","48.05","VAL D'OR A","7098606","2023-02-28 00:00","2023","02","28","00:00"
"-77.78","48.05","VAL D'OR A","7098606","2023-02-28 01:00","2023","02","28","01:00"
"-77.78","48.05","VAL D'OR A","7098606","2023-02-28 02:00","2023","02","28","02:00"
"-77.78","48.05","VAL D'OR A","7098606","2023-02-28 03:00","2023","02","28","03:00"
"-77.78","48.05","VAL D'OR A","7098606","2023-02-28 04:00","2023","02","28","04:00"
"-77.78","48.05","VAL D'OR A","7098606","2023-02-28 05:00","2023","02","28","05:00"
"-77.78","48.05","VAL D'OR A","7098606","2023-02-28 06:00","2023","02","28","06:00","-9.1","","-12.8","","75","","","","12","","14","","24.1","","96.19","","","","-15","","NA"
"-77.78","48.05","VAL D'OR A","7098606","2023-02-28 07:00","2023","02","28","07:00","-9.2","","-12.0","","80","","","","13","","14","","4.0","","96.19","","","","-16","","Snow"
"-77.78","48.05","VAL D'OR A","7098606","2023-02-28 08:00","2023","02","28","08:00","-9.3","","-11.1","","87","","","","13","","13","","3.2","","96.19","","","","-15","","Snow"
"-77.78","48.05","VAL D'OR A","7098606","2023-02-28 09:00","2023","02","28","09:00","-9.0","","-10.3","","90","","","","12","","16","","2.0","","96.17","","","","-16","","Snow"
"-77.78","48.05","VAL D'OR A","7098606","2023-02-28 10:00","2023","02","28","10:00","-8.3","","-9.6","","91","","","","13","","15","","1.6","","96.15","","","","-15","","Snow"
"-77.78","48.05","VAL D'OR A","7098606","2023-02-28 11:00","2023","02","28","11:00","-7.5","","-9.0","","89","","","","14","","18","","2.0","","96.12","","","","-14","","Snow"
"-77.78","48.05","VAL D'OR A","7098606","2023-02-28 12:00","2023","02","28","12:00","-6.8","","-8.2","","90","","","","15","","17","","1.6","","96.08","","","","-13","","Snow"
"-77.78","48.05","VAL D'OR A","7098606","2023-02-28 13:00","2023","02","28","13:00","-6.5","","-7.8","","91","","","","15","","17","","1.6","","96.00","","","","-13","","Snow"
"-77.78","48.05","VAL D'OR A","7098606","2023-02-28 14:00","2023","02","28","14:00","-6.1","","-7.5","","90","","","","15","","15","","2.4","","95.99","","","","-12","","Snow"
"-77.78","48.05","VAL D'OR A","7098606","2023-02-28 15:00","2023","02","28","15:00","-5.5","","-6.7","","91","","","","17","","14","","2.4","","96.04","","","","-11","","Snow"
"-77.78","48.05","VAL D'OR A","7098606","2023-02-28 16:00","2023","02","28","16:00","-5.0","","-6.5","","89","","","","19","","11","","3.2","","96.06","","","","-10","","Snow"
"-77.78","48.05","VAL D'OR A","7098606","2023-02-28 17:00","2023","02","28","17:00","-5.0","","-6.0","","93","","","","22","","13","","3.2","","96.15","","","","-10","","Snow"
"-77.78","48.05","VAL D'OR A","7098606","2023-02-28 18:00","2023","02","28","18:00","-5.4","","-6.6","","91","","","","24","","13","","3.2","","96.25","","","","-11","","Snow"
"-77.78","48.05","VAL D'OR A","7098606","2023-02-28 19:00","2023","02","28","19:00","-5.4","","-6.4","","93","","","","23","","10","","8.1","","96.36","","","","-10","","Snow"
"-77.78","48.05","VAL D'OR A","7098606","2023-02-28 20:00","2023","02","28","20:00","-4.8","","-5.8","","93","","","","24","","13","","16.1","","96.45","","","","-10","","Snow"
"-77.78","48.05","VAL D'OR A","7098606","2023-02-28 21:00","2023","02","28","21:00","-4.4","","-5.4","","93","","","","26","","9","","24.1","","96.59","","","","-8","","Snow"
"-77.78","48.05","VAL D'OR A","7098606","2023-02-28 22:00","2023","02","28","22:00","-5.3","","-6.1","","94","","","","23","","8","","24.1","","96.68","","","","-9","","Cloudy"
"-77.78","48.05","VAL D'OR A","7098606","2023-02-28 23:00","2023","02","28","23:00"
