"Longitude (x)","Latitude (y)","Station Name","Climate ID","Date/Time (LST)","Year","Month","Day","Time (LST)","Temp (°C)","Temp Flag","Dew Point Temp (°C)","Dew Point Temp Flag","Rel Hum (%)","Rel Hum Flag","Precip. Amount (mm)","Precip. Amount Flag","Wind Dir (10s deg)","Wind Dir Flag","Wind Spd (km/h)","Wind Spd Flag","Visibility (km)","Visibility Flag","Stn Press (kPa)","Stn Press Flag","Hmdx","Hmdx Flag","Wind Chill","Wind Chill Flag","Weather"
"-97.86","55.80","THOMPSON A","5062921","2020-02-01 00:00","2020","02","01","00:00","-1.6","","-2.2","","96","","","","27","","17","","24.1","","96.73","","","","-7","","Snow"
"-97.86","55.80","THOMPSON A","5062921","2020-02-01 01:00","2020","02","01","01:00","-1.9","","-2.4","","96","","","","26","","17","","24.1","","96.75","","","","-7","","Snow"
"-97.86","55.80","THOMPSON A","5062921","2020-02-01 02:00","2020","02","01","02:00","-2.5","","-3.0","","96","","","","29","","22","","24.1","","96.80","","","","-9","","NA"
"-97.86","55.80","THOMPSON A","5062921","2020-02-01 03:00","2020","02","01","03:00","-3.5","","-4.0","","96","","","","27","","27","","24.1","","96.80","","","","-11","","Cloudy"
"-97.86","55.80","THOMPSON A","5062921","2020-02-01 04:00","2020","02","01","04:00","-3.9","","-4.7","","95","","","","28","","24","","24.1","","96.80","","","","-11","","NA"
"-97.86","55.80","THOMPSON A","5062921","2020-02-01 05:00","2020","02","01","05:00","-4.6","","-6.0","","90","","","","27","","22","","24.1","","96.81","","","","-11","","NA"
"-97.86","55.80","THOMPSON A","5062921","2020-02-01 06:00","2020","02","01","06:00","-4.9","","-6.6","","87","","","","27","","22","","24.1","","96.82","","","","-12","","Mostly Cloudy"
"-97.86","55.80","THOMPSON A","5062921","2020-02-01 07:00","2020","02","01","07:00","-5.4","","-7.4","","86","","","","27","","18","","24.1","","96.79","","","","-12","","NA"
"-97.86","55.80","THOMPSON A","5062921","2020-02-01 08:00","2020","02","01","08:00","-5.9","","-7.7","","87","","","","29","","21","","19.3","","96.80","","","","-13","","NA"
"-97.86","55.80","THOMPSON A","5062921","2020-02-01 09:00","2020","02","01","09:00","-7.0","","-9.3","","84","","","","29","","21","","24.1","","96.82","","","","-14","","Cloudy"
"-97.86","55.80","THOMPSON A","5062921","2020-02-01 10:00","2020","02","01","10:00","-7.5","","-10.1","","82","","","","32","","14","","24.1","","96.78","","","","-13","","NA"
"-97.86","55.80","THOMPSON A","5062921","2020-02-01 11:00","2020","02","01","11:00","-8.6","","-11.1","","82","","","","30","","12","","24.1","","96.86","","","","-14","","NA"
"-97.86","55.80","THOMPSON A","5062921","2020-02-01 12:00","2020","02","01","12:00","-8.9","","-11.4","","82","","","","31","","11","","24.1","","96.85","","","","-14","","Snow"
"-97.86","55.80","THOMPSON A","5062921","2020-02-01 13:00","2020","02","01","13:00","-9.3","","-11.9","","81","","","","33","","14","","24.1","","96.80","","","","-16","","Snow"
"-97.86","55.80","THOMPSON A","5062921","2020-02-01 14:00","2020","02","01","14:00","-10.1","","-12.6","","82","","","","33","","13","","24.1","","96.79","","","","-16","","Snow"
"-97.86","55.80","THOMPSON A","5062921","2020-02-01 15:00","2020","02","01","15:00","-10.6","","-13.1","","83","","","","32","","12","","24.1","","96.69","","","","-17","","Snow"
"-97.86","55.80","THOMPSON A","5062921","2020-02-01 16:00","2020","02","01","16:00","-10.7","","-13.0","","83","","","","33","","14","","24.1","","96.81","","","","-17","","Snow"
"-97.86","55.80","THOMPSON A","5062921","2020-02-01 17:00","2020","02","01","17:00","-11.0","","-13.0","","85","","","","34","","9","","24.1","","96.75","","","","-16","","Snow"
"-97.86","55.80","THOMPSON A","5062921","2020-02-01 18:00","2020","02","01","18:00","-11.1","","-12.6","","89","","","","32","","8","","24.1","","96.82","","","","-16","","Snow"
"-97.86","55.80","THOMPSON A","5062921","2020-02-01 19:00","2020","02","01","19:00","-11.3","","-13.1","","87","","","","31","","12","","24.1","","96.83","","","","-17","","Snow"
"-97.86","55.80","THOMPSON A","5062921","2020-02-01 20:00","2020","02","01","20:00","-11.6","","-13.6","","85","","","","31","","10","","19.3","","96.93","","","","-17","","Snow"
"-97.86","55.80","THOMPSON A","5062921","2020-02-01 21:00","2020","02","01","21:00","-11.9","","-13.9","","85","","","","33","","11","","19.3","","96.93","","","","-18","","Snow"
"-97.86","55.80","THOMPSON A","5062921","2020-02-01 22:00","2020","02","01","22:00","-12.2","","-14.3","","85","","","","31","","10","","24.1","","96.90","","","","-18","","Snow"
"-97.86","55.80","THOMPSON A","5062921","2020-02-01 23:00","2020","02","01","23:00","-12.5","","-14.4","","86","","","","32","","10","","24.1","","96.88","","","","-18","","Snow"
"-97.86","55.80","THOMPSON A","5062921","2020-02-02 00:00","2020","02","02","00:00","-12.6","","-14.4","","87","","","","35","","6","","16.1","","96.92","","","","-17","","Snow"
"-97.86","55.80","THOMPSON A","5062921","2020-02-02 01:00","2020","02","02","01:00","-12.9","","-14.6","","87","","","","32","","12","","8.1","","96.93","","","","-19","","Snow"
"-97.86","55.80","THOMPSON A","5062921","2020-02-02 02:00","2020","02","02","02:00","-13.4","","-15.2","","87","","","","32","","12","","16.1","","97.00","","","","-20","","Snow"
"-97.86","55.80","THOMPSON A","5062921","2020-02-02 03:00","2020","02","02","03:00","-13.7","","-15.6","","86","","","","33","","8","","24.1","","96.99","","","","-19","","Snow"
"-97.86","55.80","THOMPSON A","5062921","2020-02-02 04:00","2020","02","02","04:00","-13.7","","-15.7","","85","","","","30","","6","","16.1","","97.04","","","","-18","","Snow"
"-97.86","55.80","THOMPSON A","5062921","2020-02-02 05:00","2020","02","02","05:00","-13.9","","-15.9","","85","","","","36","","8","","16.1","","97.07","","","","-19","","Snow"
"-97.86","55.80","THOMPSON A","5062921","2020-02-02 06:00","2020","02","02","06:00","-14.2","","-16.1","","86","","","","35","","8","","24.1","","97.07","","","","-19","","Snow"
"-97.86","55.80","THOMPSON A","5062921","2020-02-02 07:00","2020","02","02","07:00","-14.9","","-17.0","","84","","","","36","","7","","24.1","","97.08","","","","-20","","Snow"
"-97.86","55.80","THOMPSON A","5062921","2020-02-02 08:00","2020","02","02","08:00","-15.3","","-17.1","","86","","","","32","","7","","12.9","","97.17","","","","-20","","Snow"
"-97.86","55.80","THOMPSON A","5062921","2020-02-02 09:00","2020","02","02","09:00","-16.4","","-18.4","","84","","","","34","","7","","12.9","","97.18","","","","-21","","Snow"
"-97.86","55.80","THOMPSON A","5062921","2020-02-02 10:00","2020","02","02","10:00","-16.5","","-18.8","","83","","","","3","","6","","24.1","","97.17","","","","-21","","Snow"
"-97.86","55.80","THOMPSON A","5062921","2020-02-02 11:00","2020","02","02","11:00","-16.1","","-19.0","","79","","","","35","","5","","12.9","","97.20","","","","-20","","NA"
"-97.86","55.80","THOMPSON A","5062921","2020-02-02 12:00","2020","02","02","12:00","-15.5","","-18.6","","77","","","","2","","8","","8.1","","97.14","","","","-21","","Snow"
"-97.86","55.80","THOMPSON A","5062921","2020-02-02 13:00","2020","02","02","13:00","-15.3","","-18.3","","78","","","","4","","4","","8.1","","97.15","","","","-18","","Snow"
"-97.86","55.80","THOMPSON A","5062921","2020-02-02 14:00","2020","02","02","14:00","-15.8","","-18.8","","78","","","","34","","9","","4.8","","97.17","","","","-22","","Snow"
"-97.86","55.80","THOMPSON A","5062921","2020-02-02 15:00","2020","02","02","15:00","-15.7","","-18.6","","78","","","","35","","13","","3.2","","97.19","","","","-23","","Snow"
"-97.86","55.80","THOMPSON A","5062921","2020-02-02 16:00","2020","02","02","16:00","-15.9","","-18.6","","80","","","","35","","11","","3.2","","97.27","","","","-23","","Snow"
"-97.86","55.80","THOMPSON A","5062921","2020-02-02 17:00","2020","02","02","17:00","-16.9","","-19.7","","79","","","","35","","20","","4.8","","97.37","","","","-27","","Snow,Blowing Snow"
"-97.86","55.80","THOMPSON A","5062921","2020-02-02 18:00","2020","02","02","18:00","-17.6","","-20.6","","78","","","","35","","18","","3.2","","97.48","","","","-27","","Snow,Blowing Snow"
"-97.86","55.80","THOMPSON A","5062921","2020-02-02 19:00","2020","02","02","19:00","-18.4","","-21.5","","77","","","","34","","16","","4.8","","97.60","","","","-27","","Snow,Blowing Snow"
"-97.86","55.80","THOMPSON A","5062921","2020-02-02 20:00","2020","02","02","20:00","-18.5","","-21.6","","77","","","","32","","15","","8.1","","97.68","","","","-27","","Snow,Blowing Snow"
"-97.86","55.80","THOMPSON A","5062921","2020-02-02 21:00","2020","02","02","21:00","-18.1","","-21.0","","78","","","","32","","18","","3.2","","97.76","","","","-28","","Snow,Blowing Snow"
"-97.86","55.80","THOMPSON A","5062921","2020-02-02 22:00","2020","02","02","22:00","-18.2","","-21.3","","77","","","","33","","17","","6.4","","97.82","","","","-27","","Snow,Blowing Snow"
"-97.86","55.80","THOMPSON A","5062921","2020-02-02 23:00","2020","02","02","23:00","-18.9","","-22.1","","77","","","","33","","16","","24.1","","97.89","","","","-28","","Snow,Blowing Snow"
"-97.86","55.80","THOMPSON A","5062921","2020-02-03 00:00","2020","02","03","00:00","-18.9","","-22.2","","76","","","","32","","19","","8.1","","97.99","","","","-29","","Snow,Blowing Snow"
"-97.86","55.80","THOMPSON A","5062921","2020-02-03 01:00","2020","02","03","01:00","-19.2","","-22.5","","76","","","","32","","14","","8.1","","98.08","","","","-28","","Snow,Blowing Snow"
"-97.86","55.80","THOMPSON A","5062921","2020-02-03 02:00","2020","02","03","02:00","-19.5","","-22.8","","75","","","","32","","13","","8.1","","98.15","","","","-28","","Snow,Blowing Snow"
"-97.86","55.80","THOMPSON A","5062921","2020-02-03 03:00","2020","02","03","03:00","-19.8","","-23.0","","76","","","","32","","12","","12.9","","98.21","","","","-28","","Snow,Blowing Snow"
"-97.86","55.80","THOMPSON A","5062921","2020-02-03 04:00","2020","02","03","04:00","-20.0","","-23.2","","76","","","","32","","10","","16.1","","98.30","","","","-27","","Snow,Blowing Snow"
"-97.86","55.80","THOMPSON A","5062921","2020-02-03 05:00","2020","02","03","05:00","-19.7","","-23.1","","75","","","","32","","16","","16.1","","98.40","","","","-29","","Snow,Blowing Snow"
"-97.86","55.80","THOMPSON A","5062921","2020-02-03 06:00","2020","02","03","06:00","-19.8","","-23.2","","75","","","","31","","12","","16.1","","98.46","","","","-28","","Snow,Blowing Snow"
"-97.86","55.80","THOMPSON A","5062921","2020-02-03 07:00","2020","02","03","07:00","-20.0","","-23.3","","76","","","","30","","15","","16.1","","98.50","","","","-29","","Snow,Blowing Snow"
"-97.86","55.80","THOMPSON A","5062921","2020-02-03 08:00","2020","02","03","08:00","-20.3","","-23.6","","75","","","","31","","18","","24.1","","98.55","","","","-30","","Snow,Blowing Snow"
"-97.86","55.80","THOMPSON A","5062921","2020-02-03 09:00","2020","02","03","09:00","-20.4","","-23.7","","75","","","","30","","20","","9.7","","98.62","","","","-31","","Snow,Blowing Snow"
"-97.86","55.80","THOMPSON A","5062921","2020-02-03 10:00","2020","02","03","10:00","-20.2","","-23.9","","73","","","","31","","16","","8.1","","98.66","","","","-30","","Snow,Blowing Snow"
"-97.86","55.80","THOMPSON A","5062921","2020-02-03 11:00","2020","02","03","11:00","-20.1","","-23.9","","72","","","","29","","21","","6.4","","98.73","","","","-31","","Snow,Blowing Snow"
"-97.86","55.80","THOMPSON A","5062921","2020-02-03 12:00","2020","02","03","12:00","-20.6","","-24.7","","70","","","","31","","21","","24.1","","98.80","","","","-31","","Snow,Blowing Snow"
"-97.86","55.80","THOMPSON A","5062921","2020-02-03 13:00","2020","02","03","13:00","-20.8","","-25.2","","68","","","","29","","22","","24.1","","98.82","","","","-32","","Snow,Blowing Snow"
"-97.86","55.80","THOMPSON A","5062921","2020-02-03 14:00","2020","02","03","14:00","-20.4","","-24.8","","69","","","","29","","24","","24.1","","98.83","","","","-32","","Snow,Blowing Snow"
"-97.86","55.80","THOMPSON A","5062921","2020-02-03 15:00","2020","02","03","15:00","-20.8","","-25.6","","66","","","","30","","27","","24.1","","98.91","","","","-33","","Blowing Snow"
"-97.86","55.80","THOMPSON A","5062921","2020-02-03 16:00","2020","02","03","16:00","-20.4","","-25.2","","66","","","","31","","19","","24.1","","98.95","","","","-31","","Blowing Snow"
"-97.86","55.80","THOMPSON A","5062921","2020-02-03 17:00","2020","02","03","17:00","-21.3","","-25.9","","67","","","","32","","15","","24.1","","99.05","","","","-31","","Blowing Snow"
"-97.86","55.80","THOMPSON A","5062921","2020-02-03 18:00","2020","02","03","18:00","-22.6","","-26.5","","71","","","","30","","10","","24.1","","99.07","","","","-30","","Blowing Snow"
"-97.86","55.80","THOMPSON A","5062921","2020-02-03 19:00","2020","02","03","19:00","-21.6","","-25.2","","73","","","","30","","9","","24.1","","99.11","","","","-29","","Snow"
"-97.86","55.80","THOMPSON A","5062921","2020-02-03 20:00","2020","02","03","20:00","-21.1","","-24.7","","73","","","","29","","10","","24.1","","99.11","","","","-29","","Snow"
"-97.86","55.80","THOMPSON A","5062921","2020-02-03 21:00","2020","02","03","21:00","-20.6","","-24.0","","74","","","","30","","10","","24.1","","99.12","","","","-28","","Snow"
"-97.86","55.80","THOMPSON A","5062921","2020-02-03 22:00","2020","02","03","22:00","-20.5","","-24.0","","74","","","","30","","11","","24.1","","99.15","","","","-28","","NA"
"-97.86","55.80","THOMPSON A","5062921","2020-02-03 23:00","2020","02","03","23:00","-20.6","","-24.1","","74","","","","29","","8","","24.1","","99.16","","","","-27","","NA"
"-97.86","55.80","THOMPSON A","5062921","2020-02-04 00:00","2020","02","04","00:00","-21.9","","-24.9","","77","","","","27","","6","","24.1","","99.15","","","","-27","","Snow"
"-97.86","55.80","THOMPSON A","5062921","2020-02-04 01:00","2020","02","04","01:00","-23.2","","-25.6","","81","","","","27","","8","","24.1","","99.14","","","","-30","","Snow"
"-97.86","55.80","THOMPSON A","5062921","2020-02-04 02:00","2020","02","04","02:00","-24.5","","-26.8","","82","","","","27","","9","","24.1","","99.15","","","","-32","","Snow"
"-97.86","55.80","THOMPSON A","5062921","2020-02-04 03:00","2020","02","04","03:00","-25.7","","-28.0","","81","","","","27","","9","","24.1","","99.14","","","","-33","","Mainly Clear"
"-97.86","55.80","THOMPSON A","5062921","2020-02-04 04:00","2020","02","04","04:00","-27.7","","-30.2","","79","","","","26","","12","","24.1","","99.11","","","","-37","","Snow"
"-97.86","55.80","THOMPSON A","5062921","2020-02-04 05:00","2020","02","04","05:00","-25.9","","-28.7","","78","","","","26","","9","","24.1","","99.10","","","","-34","","NA"
"-97.86","55.80","THOMPSON A","5062921","2020-02-04 06:00","2020","02","04","06:00","-27.6","","-30.5","","76","","","","25","","11","","24.1","","99.11","","","","-37","","Mostly Cloudy"
"-97.86","55.80","THOMPSON A","5062921","2020-02-04 07:00","2020","02","04","07:00","-29.2","","-32.0","","77","","","","25","","9","","24.1","","99.06","","","","-38","","NA"
"-97.86","55.80","THOMPSON A","5062921","2020-02-04 08:00","2020","02","04","08:00","-30.6","","-33.7","","76","","","","24","","7","","24.1","","98.99","","","","-38","","NA"
"-97.86","55.80","THOMPSON A","5062921","2020-02-04 09:00","2020","02","04","09:00","-29.8","","-32.7","","77","","","","22","","8","","24.1","","98.94","","","","-38","","Mainly Clear"
"-97.86","55.80","THOMPSON A","5062921","2020-02-04 10:00","2020","02","04","10:00","-27.9","","-30.9","","76","","","","21","","8","","24.1","","98.86","","","","-36","","NA"
"-97.86","55.80","THOMPSON A","5062921","2020-02-04 11:00","2020","02","04","11:00","-25.5","","-28.7","","75","","","","22","","9","","24.1","","98.77","","","","-33","","NA"
"-97.86","55.80","THOMPSON A","5062921","2020-02-04 12:00","2020","02","04","12:00","-23.5","","-27.0","","73","","","","19","","10","","24.1","","98.61","","","","-31","","Mostly Cloudy"
"-97.86","55.80","THOMPSON A","5062921","2020-02-04 13:00","2020","02","04","13:00","-22.3","","-26.4","","70","","","","20","","15","","24.1","","98.45","","","","-32","","NA"
"-97.86","55.80","THOMPSON A","5062921","2020-02-04 14:00","2020","02","04","14:00","-20.9","","-25.3","","68","","","","18","","9","","24.1","","98.28","","","","-28","","NA"
"-97.86","55.80","THOMPSON A","5062921","2020-02-04 15:00","2020","02","04","15:00","-20.0","","-24.1","","70","","","","18","","14","","24.1","","98.10","","","","-29","","Cloudy"
"-97.86","55.80","THOMPSON A","5062921","2020-02-04 16:00","2020","02","04","16:00","-19.5","","-23.1","","73","","","","18","","10","","24.1","","97.94","","","","-27","","NA"
"-97.86","55.80","THOMPSON A","5062921","2020-02-04 17:00","2020","02","04","17:00","-19.3","","-22.7","","75","","","","18","","9","","24.1","","97.81","","","","-26","","NA"
"-97.86","55.80","THOMPSON A","5062921","2020-02-04 18:00","2020","02","04","18:00","-19.0","","-21.9","","78","","","","19","","8","","1.6","","97.75","","","","-25","","Snow"
"-97.86","55.80","THOMPSON A","5062921","2020-02-04 19:00","2020","02","04","19:00","-18.4","","-21.0","","80","","","","21","","7","","12.9","","97.68","","","","-24","","Snow"
"-97.86","55.80","THOMPSON A","5062921","2020-02-04 20:00","2020","02","04","20:00","-17.8","","-20.4","","81","","","","22","","10","","12.9","","97.62","","","","-25","","Snow"
"-97.86","55.80","THOMPSON A","5062921","2020-02-04 21:00","2020","02","04","21:00","-17.2","","-19.8","","81","","","","29","","15","","9.7","","97.58","","","","-26","","Snow"
"-97.86","55.80","THOMPSON A","5062921","2020-02-04 22:00","2020","02","04","22:00","-17.6","","-21.0","","75","","","","33","","17","","12.9","","97.59","","","","-27","","Snow"
"-97.86","55.80","THOMPSON A","5062921","2020-02-04 23:00","2020","02","04","23:00","-18.1","","-21.8","","73","","","","32","","16","","9.7","","97.61","","","","-27","","Snow"
"-97.86","55.80","THOMPSON A","5062921","2020-02-05 00:00","2020","02","05","00:00","-18.1","","-21.7","","74","","","","30","","12","","12.9","","97.63","","","","-26","","Snow"
"-97.86","55.80","THOMPSON A","5062921","2020-02-05 01:00","2020","02","05","01:00","-18.3","","-21.6","","76","","","","31","","10","","24.1","","97.67","","","","-25","","Snow"
"-97.86","55.80","THOMPSON A","5062921","2020-02-05 02:00","2020","02","05","02:00","-18.7","","-22.4","","73","","","","32","","10","","24.1","","97.74","","","","-26","","Snow"
"-97.86","55.80","THOMPSON A","5062921","2020-02-05 03:00","2020","02","05","03:00","-19.1","","-22.8","","73","","","","35","","16","","24.1","","97.82","","","","-28","","Cloudy"
"-97.86","55.80","THOMPSON A","5062921","2020-02-05 04:00","2020","02","05","04:00","-22.1","","-25.8","","72","","","","34","","12","","24.1","","97.96","","","","-31","","NA"
"-97.86","55.80","THOMPSON A","5062921","2020-02-05 05:00","2020","02","05","05:00","-23.4","","-26.6","","76","","","","35","","14","","24.1","","98.05","","","","-33","","NA"
"-97.86","55.80","THOMPSON A","5062921","2020-02-05 06:00","2020","02","05","06:00","-25.0","","-28.1","","76","","","","34","","11","","24.1","","98.17","","","","-34","","Clear"
"-97.86","55.80","THOMPSON A","5062921","2020-02-05 07:00","2020","02","05","07:00","-26.7","","-29.8","","76","","","","34","","9","","24.1","","98.25","","","","-35","","NA"
"-97.86","55.80","THOMPSON A","5062921","2020-02-05 08:00","2020","02","05","08:00","-27.8","","-30.8","","76","","","","34","","13","","24.1","","98.34","","","","-38","","NA"
"-97.86","55.80","THOMPSON A","5062921","2020-02-05 09:00","2020","02","05","09:00","-29.0","","-32.2","","75","","","","30","","11","","24.1","","98.43","","","","-38","","Clear"
"-97.86","55.80","THOMPSON A","5062921","2020-02-05 10:00","2020","02","05","10:00","-28.5","","-32.1","","72","","","","33","","13","","24.1","","98.49","","","","-39","","NA"
"-97.86","55.80","THOMPSON A","5062921","2020-02-05 11:00","2020","02","05","11:00","-27.6","","-31.7","","69","","","","31","","12","","24.1","","98.56","","","","-37","","NA"
"-97.86","55.80","THOMPSON A","5062921","2020-02-05 12:00","2020","02","05","12:00","-26.2","","-30.8","","66","","","","32","","7","","24.1","","98.57","","","","-33","","Clear"
"-97.86","55.80","THOMPSON A","5062921","2020-02-05 13:00","2020","02","05","13:00","-24.7","","-29.7","","64","","","","32","","14","","24.1","","98.59","","","","-35","","NA"
"-97.86","55.80","THOMPSON A","5062921","2020-02-05 14:00","2020","02","05","14:00","-23.7","","-29.2","","61","","","","30","","12","","24.1","","98.57","","","","-33","","NA"
"-97.86","55.80","THOMPSON A","5062921","2020-02-05 15:00","2020","02","05","15:00","-23.0","","-28.6","","61","","","","33","","17","","24.1","","98.60","","","","-33","","Clear"
"-97.86","55.80","THOMPSON A","5062921","2020-02-05 16:00","2020","02","05","16:00","-23.4","","-28.8","","62","","","","28","","12","","24.1","","98.60","","","","-32","","NA"
"-97.86","55.80","THOMPSON A","5062921","2020-02-05 17:00","2020","02","05","17:00","-24.5","","-29.2","","65","","","","30","","11","","24.1","","98.61","","","","-33","","NA"
"-97.86","55.80","THOMPSON A","5062921","2020-02-05 18:00","2020","02","05","18:00","-26.2","","-30.0","","71","","","","30","","7","","24.1","","98.64","","","","-33","","Mainly Clear"
"-97.86","55.80","THOMPSON A","5062921","2020-02-05 19:00","2020","02","05","19:00","-27.6","","-30.8","","75","","","","30","","5","","24.1","","98.64","","","","-33","","NA"
"-97.86","55.80","THOMPSON A","5062921","2020-02-05 20:00","2020","02","05","20:00","-27.9","","-30.9","","76","","","","31","","4","","24.1","","98.65","","","","-32","","NA"
"-97.86","55.80","THOMPSON A","5062921","2020-02-05 21:00","2020","02","05","21:00","-29.2","","-32.1","","76","","","","31","","5","","24.1","","98.67","","","","-35","","Clear"
"-97.86","55.80","THOMPSON A","5062921","2020-02-05 22:00","2020","02","05","22:00","-30.1","","-33.1","","75","","","","31","","7","","24.1","","98.65","","","","-37","","NA"
"-97.86","55.80","THOMPSON A","5062921","2020-02-05 23:00","2020","02","05","23:00","-30.3","","-33.2","","76","","","","34","","9","","24.1","","98.67","","","","-39","","NA"
"-97.86","55.80","THOMPSON A","5062921","2020-02-06 00:00","2020","02","06","00:00","-31.5","","-34.5","","76","","","","36","","3","","24.1","","98.69","","","","-35","","Clear"
"-97.86","55.80","THOMPSON A","5062921","2020-02-06 01:00","2020","02","06","01:00","-32.7","","-35.7","","75","","","","36","","2","","24.1","","98.71","","","","-35","","NA"
"-97.86","55.80","THOMPSON A","5062921","2020-02-06 02:00","2020","02","06","02:00","-34.6","","-37.6","","75","","","","29","","3","","24.1","","98.74","","","","-38","","NA"
"-97.86","55.80","THOMPSON A","5062921","2020-02-06 03:00","2020","02","06","03:00","-34.4","","-37.5","","74","","","","35","","3","","24.1","","98.78","","","","-38","","Clear"
"-97.86","55.80","THOMPSON A","5062921","2020-02-06 04:00","2020","02","06","04:00","-33.3","","-36.4","","75","","","","36","","1","","24.1","","98.76","","","","-35","","NA"
"-97.86","55.80","THOMPSON A","5062921","2020-02-06 05:00","2020","02","06","05:00","-32.8","","-36.0","","74","","","","36","","2","","24.1","","98.77","","","","-35","","NA"
"-97.86","55.80","THOMPSON A","5062921","2020-02-06 06:00","2020","02","06","06:00","-36.3","","-39.6","","73","","","","29","","3","","24.1","","98.83","","","","-40","","Clear"
"-97.86","55.80","THOMPSON A","5062921","2020-02-06 07:00","2020","02","06","07:00","-37.1","","-40.3","","73","","","","36","","2","","24.1","","98.85","","","","-40","","NA"
"-97.86","55.80","THOMPSON A","5062921","2020-02-06 08:00","2020","02","06","08:00","-37.1","","-40.4","","72","","","","36","","1","","24.1","","98.90","","","","-38","","NA"
"-97.86","55.80","THOMPSON A","5062921","2020-02-06 09:00","2020","02","06","09:00","-36.9","","-40.3","","71","","","","36","","2","","24.1","","98.93","","","","-40","","Clear"
"-97.86","55.80","THOMPSON A","5062921","2020-02-06 10:00","2020","02","06","10:00","-32.8","","-36.2","","72","","","","36","","2","","24.1","","98.97","","","","-35","","NA"
"-97.86","55.80","THOMPSON A","5062921","2020-02-06 11:00","2020","02","06","11:00","-31.6","","-35.0","","72","","","","23","","4","","24.1","","99.00","","","","-36","","NA"
"-97.86","55.80","THOMPSON A","5062921","2020-02-06 12:00","2020","02","06","12:00","-28.4","","-32.1","","71","","","","21","","5","","24.1","","99.00","","","","-34","","Clear"
"-97.86","55.80","THOMPSON A","5062921","2020-02-06 13:00","2020","02","06","13:00","-26.5","","-30.6","","69","","","","22","","7","","24.1","","98.99","","","","-33","","NA"
"-97.86","55.80","THOMPSON A","5062921","2020-02-06 14:00","2020","02","06","14:00","-24.7","","-29.5","","65","","","","24","","5","","24.1","","98.96","","","","-30","","NA"
"-97.86","55.80","THOMPSON A","5062921","2020-02-06 15:00","2020","02","06","15:00","-23.6","","-28.5","","65","","","","27","","4","","24.1","","98.96","","","","-27","","Clear"
"-97.86","55.80","THOMPSON A","5062921","2020-02-06 16:00","2020","02","06","16:00","-23.3","","-28.2","","65","","","","23","","3","","24.1","","98.96","","","","-26","","NA"
"-97.86","55.80","THOMPSON A","5062921","2020-02-06 17:00","2020","02","06","17:00","-25.1","","-29.5","","67","","","","21","","5","","24.1","","99.00","","","","-30","","NA"
"-97.86","55.80","THOMPSON A","5062921","2020-02-06 18:00","2020","02","06","18:00","-27.0","","-30.3","","74","","","","16","","4","","24.1","","99.00","","","","-31","","Mainly Clear"
"-97.86","55.80","THOMPSON A","5062921","2020-02-06 19:00","2020","02","06","19:00","-29.3","","-32.3","","76","","","","36","","2","","24.1","","98.99","","","","-32","","NA"
"-97.86","55.80","THOMPSON A","5062921","2020-02-06 20:00","2020","02","06","20:00","-31.6","","-34.6","","75","","","","36","","2","","24.1","","98.93","","","","-34","","NA"
"-97.86","55.80","THOMPSON A","5062921","2020-02-06 21:00","2020","02","06","21:00","-32.4","","-35.4","","75","","","","36","","1","","24.1","","98.92","","","","-34","","Mainly Clear"
"-97.86","55.80","THOMPSON A","5062921","2020-02-06 22:00","2020","02","06","22:00","-30.7","","-33.8","","75","","","","36","","2","","24.1","","98.90","","","","-33","","NA"
"-97.86","55.80","THOMPSON A","5062921","2020-02-06 23:00","2020","02","06","23:00","-32.1","","-35.2","","75","","","","15","","3","","24.1","","98.87","","","","-36","","NA"
"-97.86","55.80","THOMPSON A","5062921","2020-02-07 00:00","2020","02","07","00:00","-29.8","","-32.8","","75","","","","16","","5","","24.1","","98.86","","","","-35","","Mainly Clear"
"-97.86","55.80","THOMPSON A","5062921","2020-02-07 01:00","2020","02","07","01:00","-30.2","","-33.2","","76","","","","17","","5","","24.1","","98.84","","","","-36","","NA"
"-97.86","55.80","THOMPSON A","5062921","2020-02-07 02:00","2020","02","07","02:00","-29.9","","-33.0","","75","","","","17","","5","","24.1","","98.79","","","","-36","","NA"
"-97.86","55.80","THOMPSON A","5062921","2020-02-07 03:00","2020","02","07","03:00","-27.4","","-30.5","","75","","","","17","","4","","24.1","","98.76","","","","-32","","Mostly Cloudy"
"-97.86","55.80","THOMPSON A","5062921","2020-02-07 04:00","2020","02","07","04:00","-26.3","","-29.4","","75","","","","19","","4","","24.1","","98.69","","","","-30","","NA"
"-97.86","55.80","THOMPSON A","5062921","2020-02-07 05:00","2020","02","07","05:00","-25.1","","-28.3","","75","","","","17","","5","","24.1","","98.64","","","","-30","","NA"
"-97.86","55.80","THOMPSON A","5062921","2020-02-07 06:00","2020","02","07","06:00","-24.7","","-27.9","","75","","","","18","","9","","24.1","","98.58","","","","-32","","Mostly Cloudy"
"-97.86","55.80","THOMPSON A","5062921","2020-02-07 07:00","2020","02","07","07:00","-24.2","","-27.6","","74","","","","19","","9","","4.8","","98.52","","","","-32","","Snow"
"-97.86","55.80","THOMPSON A","5062921","2020-02-07 08:00","2020","02","07","08:00","-23.9","","-27.2","","75","","","","18","","8","","4.8","","98.48","","","","-31","","Snow"
"-97.86","55.80","THOMPSON A","5062921","2020-02-07 09:00","2020","02","07","09:00","-23.4","","-26.6","","75","","","","19","","8","","3.2","","98.42","","","","-30","","Snow"
"-97.86","55.80","THOMPSON A","5062921","2020-02-07 10:00","2020","02","07","10:00","-22.5","","-25.8","","75","","","","19","","8","","6.4","","98.36","","","","-29","","Snow"
"-97.86","55.80","THOMPSON A","5062921","2020-02-07 11:00","2020","02","07","11:00","-21.5","","-24.8","","75","","","","19","","11","","2.4","","98.33","","","","-29","","Snow"
"-97.86","55.80","THOMPSON A","5062921","2020-02-07 12:00","2020","02","07","12:00","-20.5","","-24.0","","74","","","","21","","14","","3.2","","98.27","","","","-29","","Snow"
"-97.86","55.80","THOMPSON A","5062921","2020-02-07 13:00","2020","02","07","13:00","-19.5","","-23.3","","72","","","","22","","13","","24.1","","98.24","","","","-28","","Snow"
"-97.86","55.80","THOMPSON A","5062921","2020-02-07 14:00","2020","02","07","14:00","-19.1","","-22.9","","72","","","","23","","9","","24.1","","98.22","","","","-26","","NA"
"-97.86","55.80","THOMPSON A","5062921","2020-02-07 15:00","2020","02","07","15:00","-18.4","","-22.2","","73","","","","24","","8","","24.1","","98.24","","","","-24","","Snow"
"-97.86","55.80","THOMPSON A","5062921","2020-02-07 16:00","2020","02","07","16:00","-17.9","","-21.7","","73","","","","28","","10","","24.1","","98.27","","","","-25","","Snow"
"-97.86","55.80","THOMPSON A","5062921","2020-02-07 17:00","2020","02","07","17:00","-17.8","","-21.4","","74","","","","24","","7","","24.1","","98.27","","","","-23","","Snow"
"-97.86","55.80","THOMPSON A","5062921","2020-02-07 18:00","2020","02","07","18:00","-17.6","","-20.7","","77","","","","28","","8","","24.1","","98.30","","","","-23","","Snow"
"-97.86","55.80","THOMPSON A","5062921","2020-02-07 19:00","2020","02","07","19:00","-17.4","","-20.6","","77","","","","26","","8","","24.1","","98.32","","","","-23","","Snow"
"-97.86","55.80","THOMPSON A","5062921","2020-02-07 20:00","2020","02","07","20:00","-17.5","","-20.5","","78","","","","25","","7","","24.1","","98.29","","","","-23","","Snow"
"-97.86","55.80","THOMPSON A","5062921","2020-02-07 21:00","2020","02","07","21:00","-17.8","","-20.5","","80","","","","25","","6","","24.1","","98.29","","","","-22","","Snow"
"-97.86","55.80","THOMPSON A","5062921","2020-02-07 22:00","2020","02","07","22:00","-17.6","","-20.2","","80","","","","30","","5","","24.1","","98.30","","","","-22","","Snow"
"-97.86","55.80","THOMPSON A","5062921","2020-02-07 23:00","2020","02","07","23:00","-17.6","","-20.6","","77","","","","27","","4","","24.1","","98.29","","","","-21","","Snow"
"-97.86","55.80","THOMPSON A","5062921","2020-02-08 00:00","2020","02","08","00:00","-17.6","","-20.3","","80","","","","30","","7","","24.1","","98.28","","","","-23","","Snow"
"-97.86","55.80","THOMPSON A","5062921","2020-02-08 01:00","2020","02","08","01:00","-17.5","","-20.5","","78","","","","30","","6","","16.1","","98.31","","","","-22","","Snow"
"-97.86","55.80","THOMPSON A","5062921","2020-02-08 02:00","2020","02","08","02:00","-17.7","","-20.5","","79","","","","28","","6","","16.1","","98.30","","","","-22","","Snow"
"-97.86","55.80","THOMPSON A","5062921","2020-02-08 03:00","2020","02","08","03:00","-17.4","","-20.1","","80","","","","29","","5","","16.1","","98.28","","","","-21","","Snow"
"-97.86","55.80","THOMPSON A","5062921","2020-02-08 04:00","2020","02","08","04:00","-17.5","","-20.1","","81","","","","29","","8","","19.3","","98.29","","","","-23","","Snow"
"-97.86","55.80","THOMPSON A","5062921","2020-02-08 05:00","2020","02","08","05:00","-17.6","","-20.1","","81","","","","27","","5","","19.3","","98.30","","","","-22","","Snow"
"-97.86","55.80","THOMPSON A","5062921","2020-02-08 06:00","2020","02","08","06:00","-17.7","","-20.1","","82","","","","27","","4","","19.3","","98.31","","","","-21","","Snow"
"-97.86","55.80","THOMPSON A","5062921","2020-02-08 07:00","2020","02","08","07:00","-17.3","","-19.6","","83","","","","26","","9","","19.3","","98.30","","","","-24","","Snow"
"-97.86","55.80","THOMPSON A","5062921","2020-02-08 08:00","2020","02","08","08:00","-17.2","","-19.4","","83","","","","27","","9","","24.1","","98.30","","","","-23","","Snow"
"-97.86","55.80","THOMPSON A","5062921","2020-02-08 09:00","2020","02","08","09:00","-17.0","","-19.2","","83","","","","25","","12","","19.3","","98.28","","","","-24","","Snow"
"-97.86","55.80","THOMPSON A","5062921","2020-02-08 10:00","2020","02","08","10:00","-16.4","","-18.8","","82","","","","27","","11","","16.1","","98.29","","","","-23","","Snow"
"-97.86","55.80","THOMPSON A","5062921","2020-02-08 11:00","2020","02","08","11:00","-15.5","","-18.4","","79","","","","26","","15","","19.3","","98.31","","","","-24","","Snow"
"-97.86","55.80","THOMPSON A","5062921","2020-02-08 12:00","2020","02","08","12:00","-14.6","","-18.0","","76","","","","25","","18","","24.1","","98.31","","","","-23","","Snow"
"-97.86","55.80","THOMPSON A","5062921","2020-02-08 13:00","2020","02","08","13:00","-13.5","","-17.0","","75","","","","26","","18","","24.1","","98.27","","","","-22","","Blowing Snow"
"-97.86","55.80","THOMPSON A","5062921","2020-02-08 14:00","2020","02","08","14:00","-12.6","","-16.4","","74","","","","28","","19","","24.1","","98.30","","","","-21","","Blowing Snow"
"-97.86","55.80","THOMPSON A","5062921","2020-02-08 15:00","2020","02","08","15:00","-12.9","","-17.0","","72","","","","25","","13","","24.1","","98.27","","","","-20","","Blowing Snow"
"-97.86","55.80","THOMPSON A","5062921","2020-02-08 16:00","2020","02","08","16:00","-11.2","","-15.3","","72","","","","27","","15","","24.1","","98.32","","","","-18","","Blowing Snow"
"-97.86","55.80","THOMPSON A","5062921","2020-02-08 17:00","2020","02","08","17:00","-14.2","","-17.3","","78","","","","25","","10","","24.1","","98.31","","","","-20","","NA"
"-97.86","55.80","THOMPSON A","5062921","2020-02-08 18:00","2020","02","08","18:00","-13.5","","-16.2","","80","","","","22","","8","","24.1","","98.31","","","","-19","","Mostly Cloudy"
"-97.86","55.80","THOMPSON A","5062921","2020-02-08 19:00","2020","02","08","19:00","-12.8","","-15.3","","82","","","","20","","7","","24.1","","98.31","","","","-17","","NA"
"-97.86","55.80","THOMPSON A","5062921","2020-02-08 20:00","2020","02","08","20:00","-13.2","","-15.6","","82","","","","24","","16","","24.1","","98.32","","","","-21","","NA"
"-97.86","55.80","THOMPSON A","5062921","2020-02-08 21:00","2020","02","08","21:00","-12.5","","-14.8","","83","","","","27","","14","","9.7","","98.36","","","","-20","","Snow,Blowing Snow"
"-97.86","55.80","THOMPSON A","5062921","2020-02-08 22:00","2020","02","08","22:00","-12.2","","-14.6","","83","","","","29","","14","","9.7","","98.37","","","","-19","","Snow,Blowing Snow"
"-97.86","55.80","THOMPSON A","5062921","2020-02-08 23:00","2020","02","08","23:00","-12.6","","-15.2","","81","","","","32","","10","","8.1","","98.44","","","","-18","","Snow,Blowing Snow"
"-97.86","55.80","THOMPSON A","5062921","2020-02-09 00:00","2020","02","09","00:00","-14.1","","-17.2","","77","","","","32","","13","","24.1","","98.52","","","","-21","","Snow,Blowing Snow"
"-97.86","55.80","THOMPSON A","5062921","2020-02-09 01:00","2020","02","09","01:00","-15.1","","-18.2","","77","","","","2","","13","","19.3","","98.61","","","","-22","","Snow"
"-97.86","55.80","THOMPSON A","5062921","2020-02-09 02:00","2020","02","09","02:00","-18.3","","-20.8","","81","","","","34","","7","","24.1","","98.66","","","","-24","","Snow"
"-97.86","55.80","THOMPSON A","5062921","2020-02-09 03:00","2020","02","09","03:00","-20.5","","-22.3","","86","","","","31","","6","","24.1","","98.70","","","","-26","","Clear"
"-97.86","55.80","THOMPSON A","5062921","2020-02-09 04:00","2020","02","09","04:00","-22.1","","-24.1","","84","","","","31","","3","","24.1","","98.73","","","","-25","","NA"
"-97.86","55.80","THOMPSON A","5062921","2020-02-09 05:00","2020","02","09","05:00","-25.3","","-27.7","","80","","","","36","","1","","24.1","","98.72","","","","-26","","NA"
"-97.86","55.80","THOMPSON A","5062921","2020-02-09 06:00","2020","02","09","06:00","-26.6","","-29.2","","79","","","","0","","1","","24.1","","98.71","","","","-28","","Clear"
"-97.86","55.80","THOMPSON A","5062921","2020-02-09 07:00","2020","02","09","07:00","-26.7","","-29.4","","78","","","","36","","3","","24.1","","98.64","","","","-30","","NA"
"-97.86","55.80","THOMPSON A","5062921","2020-02-09 08:00","2020","02","09","08:00","-24.1","","-26.9","","79","","","","36","","2","","24.1","","98.62","","","","-26","","NA"
"-97.86","55.80","THOMPSON A","5062921","2020-02-09 09:00","2020","02","09","09:00","-23.6","","-26.4","","79","","","","7","","5","","24.1","","98.56","","","","-28","","Mostly Cloudy"
"-97.86","55.80","THOMPSON A","5062921","2020-02-09 10:00","2020","02","09","10:00","-21.2","","-23.8","","80","","","","36","","2","","19.3","","98.52","","","","-23","","Snow"
"-97.86","55.80","THOMPSON A","5062921","2020-02-09 11:00","2020","02","09","11:00","-18.5","","-21.0","","81","","","","36","","2","","24.1","","98.47","","","","-20","","Snow"
"-97.86","55.80","THOMPSON A","5062921","2020-02-09 12:00","2020","02","09","12:00","-15.9","","-18.9","","78","","","","17","","9","","12.9","","98.37","","","","-22","","Snow"
"-97.86","55.80","THOMPSON A","5062921","2020-02-09 13:00","2020","02","09","13:00","-14.4","","-18.6","","71","","","","17","","11","","24.1","","98.25","","","","-21","","Snow"
"-97.86","55.80","THOMPSON A","5062921","2020-02-09 14:00","2020","02","09","14:00","-14.5","","-18.3","","73","","","","13","","7","","19.3","","98.15","","","","-19","","Snow"
"-97.86","55.80","THOMPSON A","5062921","2020-02-09 15:00","2020","02","09","15:00","-14.1","","-17.9","","73","","","","11","","5","","24.1","","98.12","","","","-18","","Snow"
"-97.86","55.80","THOMPSON A","5062921","2020-02-09 16:00","2020","02","09","16:00","-14.0","","-17.8","","73","","","","36","","3","","24.1","","98.08","","","","-16","","Snow"
"-97.86","55.80","THOMPSON A","5062921","2020-02-09 17:00","2020","02","09","17:00","-14.6","","-17.8","","76","","","","8","","4","","24.1","","98.10","","","","-17","","NA"
"-97.86","55.80","THOMPSON A","5062921","2020-02-09 18:00","2020","02","09","18:00","-16.3","","-18.6","","82","","","","6","","4","","24.1","","98.10","","","","-19","","Mostly Cloudy"
"-97.86","55.80","THOMPSON A","5062921","2020-02-09 19:00","2020","02","09","19:00","-17.7","","-19.6","","85","","","","7","","4","","24.1","","98.10","","","","-21","","NA"
"-97.86","55.80","THOMPSON A","5062921","2020-02-09 20:00","2020","02","09","20:00","-20.9","","-23.0","","84","","","","5","","9","","24.1","","98.15","","","","-28","","NA"
"-97.86","55.80","THOMPSON A","5062921","2020-02-09 21:00","2020","02","09","21:00","-21.9","","-24.1","","83","","","","36","","1","","24.1","","98.16","","","","-23","","Mainly Clear"
"-97.86","55.80","THOMPSON A","5062921","2020-02-09 22:00","2020","02","09","22:00","-22.8","","-25.0","","83","","","","3","","3","","24.1","","98.16","","","","-26","","NA"
"-97.86","55.80","THOMPSON A","5062921","2020-02-09 23:00","2020","02","09","23:00","-25.0","","-27.4","","81","","","","36","","1","","24.1","","98.15","","","","-26","","NA"
"-97.86","55.80","THOMPSON A","5062921","2020-02-10 00:00","2020","02","10","00:00","-25.2","","-27.8","","80","","","","0","","1","","24.1","","98.15","","","","-26","","Clear"
"-97.86","55.80","THOMPSON A","5062921","2020-02-10 01:00","2020","02","10","01:00","-26.4","","-29.2","","78","","","","36","","1","","24.1","","98.19","","","","-27","","NA"
"-97.86","55.80","THOMPSON A","5062921","2020-02-10 02:00","2020","02","10","02:00","-27.1","","-29.8","","78","","","","36","","3","","24.1","","98.21","","","","-30","","NA"
"-97.86","55.80","THOMPSON A","5062921","2020-02-10 03:00","2020","02","10","03:00","-23.9","","-26.5","","79","","","","25","","6","","24.1","","98.20","","","","-30","","Mostly Cloudy"
"-97.86","55.80","THOMPSON A","5062921","2020-02-10 04:00","2020","02","10","04:00","-22.5","","-25.0","","81","","","","24","","7","","24.1","","98.19","","","","-29","","NA"
"-97.86","55.80","THOMPSON A","5062921","2020-02-10 05:00","2020","02","10","05:00","-21.5","","-23.8","","82","","","","24","","8","","16.1","","98.17","","","","-28","","NA"
"-97.86","55.80","THOMPSON A","5062921","2020-02-10 06:00","2020","02","10","06:00","-20.7","","-22.7","","84","","","","25","","10","","24.1","","98.15","","","","-28","","Mostly Cloudy"
"-97.86","55.80","THOMPSON A","5062921","2020-02-10 07:00","2020","02","10","07:00","-20.9","","-23.2","","82","","","","24","","11","","24.1","","98.14","","","","-29","","NA"
"-97.86","55.80","THOMPSON A","5062921","2020-02-10 08:00","2020","02","10","08:00","-20.5","","-22.7","","82","","","","22","","4","","24.1","","98.13","","","","-24","","NA"
"-97.86","55.80","THOMPSON A","5062921","2020-02-10 09:00","2020","02","10","09:00","-19.0","","-21.2","","83","","","","23","","7","","24.1","","98.14","","","","-24","","Ice Crystals"
"-97.86","55.80","THOMPSON A","5062921","2020-02-10 10:00","2020","02","10","10:00","-15.0","","-17.1","","84","","","","24","","21","","24.1","","98.03","","","","-24","","Ice Crystals,Blowing Snow"
"-97.86","55.80","THOMPSON A","5062921","2020-02-10 11:00","2020","02","10","11:00","-12.7","","-14.7","","85","","","","27","","13","","24.1","","98.10","","","","-20","","Ice Crystals,Blowing Snow"
"-97.86","55.80","THOMPSON A","5062921","2020-02-10 12:00","2020","02","10","12:00","-11.1","","-13.4","","83","","","","27","","18","","24.1","","98.08","","","","-19","","Snow,Blowing Snow"
"-97.86","55.80","THOMPSON A","5062921","2020-02-10 13:00","2020","02","10","13:00","-10.1","","-12.9","","80","","","","28","","18","","4.8","","98.03","","","","-18","","Snow,Blowing Snow"
"-97.86","55.80","THOMPSON A","5062921","2020-02-10 14:00","2020","02","10","14:00","-9.2","","-11.7","","82","","","","29","","19","","3.2","","98.03","","","","-17","","Snow,Blowing Snow"
"-97.86","55.80","THOMPSON A","5062921","2020-02-10 15:00","2020","02","10","15:00","-9.3","","-12.5","","78","","","","30","","15","","8.1","","98.06","","","","-16","","Snow,Blowing Snow"
"-97.86","55.80","THOMPSON A","5062921","2020-02-10 16:00","2020","02","10","16:00","-9.8","","-13.9","","72","","","","31","","31","","24.1","","98.11","","","","-19","","Snow,Blowing Snow"
"-97.86","55.80","THOMPSON A","5062921","2020-02-10 17:00","2020","02","10","17:00","-10.5","","-15.3","","68","","","","32","","21","","24.1","","98.13","","","","-19","","Blowing Snow"
"-97.86","55.80","THOMPSON A","5062921","2020-02-10 18:00","2020","02","10","18:00","-12.2","","-16.5","","71","","","","33","","10","","24.1","","98.18","","","","-18","","Blowing Snow"
"-97.86","55.80","THOMPSON A","5062921","2020-02-10 19:00","2020","02","10","19:00","-13.2","","-16.8","","75","","","","32","","4","","24.1","","98.13","","","","-16","","NA"
"-97.86","55.80","THOMPSON A","5062921","2020-02-10 20:00","2020","02","10","20:00","-17.2","","-19.4","","84","","","","36","","2","","24.1","","98.08","","","","-19","","NA"
"-97.86","55.80","THOMPSON A","5062921","2020-02-10 21:00","2020","02","10","21:00","-19.1","","-21.1","","84","","","","36","","1","","24.1","","98.03","","","","-20","","Mostly Cloudy"
"-97.86","55.80","THOMPSON A","5062921","2020-02-10 22:00","2020","02","10","22:00","-16.7","","-18.9","","84","","","","15","","3","","8.1","","97.93","","","","-19","","Snow"
"-97.86","55.80","THOMPSON A","5062921","2020-02-10 23:00","2020","02","10","23:00","-14.5","","-16.4","","85","","","","11","","4","","6.4","","97.79","","","","-17","","Snow"
"-97.86","55.80","THOMPSON A","5062921","2020-02-11 00:00","2020","02","11","00:00","-14.2","","-16.1","","85","","","","11","","3","","6.4","","97.68","","","","-16","","Snow"
"-97.86","55.80","THOMPSON A","5062921","2020-02-11 01:00","2020","02","11","01:00","-14.0","","-15.9","","86","","","","7","","5","","6.4","","97.60","","","","-17","","Snow"
"-97.86","55.80","THOMPSON A","5062921","2020-02-11 02:00","2020","02","11","02:00","-13.9","","-15.9","","86","","","","6","","5","","4.8","","97.52","","","","-17","","Snow"
"-97.86","55.80","THOMPSON A","5062921","2020-02-11 03:00","2020","02","11","03:00","-14.7","","-16.6","","86","","","","36","","1","","8.1","","97.46","","","","-15","","Snow"
"-97.86","55.80","THOMPSON A","5062921","2020-02-11 04:00","2020","02","11","04:00","-15.2","","-17.1","","86","","","","29","","5","","12.9","","97.39","","","","-19","","Snow"
"-97.86","55.80","THOMPSON A","5062921","2020-02-11 05:00","2020","02","11","05:00","-15.0","","-16.9","","86","","","","28","","3","","12.9","","97.33","","","","-17","","Snow"
"-97.86","55.80","THOMPSON A","5062921","2020-02-11 06:00","2020","02","11","06:00","-14.6","","-16.5","","85","","","","36","","9","","24.1","","97.30","","","","-20","","Snow"
"-97.86","55.80","THOMPSON A","5062921","2020-02-11 07:00","2020","02","11","07:00","-14.0","","-16.0","","85","","","","34","","17","","24.1","","97.30","","","","-22","","Snow"
"-97.86","55.80","THOMPSON A","5062921","2020-02-11 08:00","2020","02","11","08:00","-15.8","","-18.9","","77","","","","33","","19","","24.1","","97.40","","","","-25","","Snow,Blowing Snow"
"-97.86","55.80","THOMPSON A","5062921","2020-02-11 09:00","2020","02","11","09:00","-19.3","","-22.5","","76","","","","35","","28","","24.1","","97.56","","","","-31","","Snow,Blowing Snow"
"-97.86","55.80","THOMPSON A","5062921","2020-02-11 10:00","2020","02","11","10:00","-22.2","","-25.8","","73","","","","36","","23","","16.1","","97.70","","","","-34","","Snow,Blowing Snow"
"-97.86","55.80","THOMPSON A","5062921","2020-02-11 11:00","2020","02","11","11:00","-23.6","","-28.0","","67","","","","36","","20","","19.3","","97.81","","","","-35","","Snow,Blowing Snow"
"-97.86","55.80","THOMPSON A","5062921","2020-02-11 12:00","2020","02","11","12:00","-24.8","","-29.9","","63","","","","1","","21","","24.1","","97.94","","","","-37","","Snow,Blowing Snow"
"-97.86","55.80","THOMPSON A","5062921","2020-02-11 13:00","2020","02","11","13:00","-26.1","","-31.4","","62","","","","1","","30","","9.7","","98.06","","","","-41","","Snow,Blowing Snow"
"-97.86","55.80","THOMPSON A","5062921","2020-02-11 14:00","2020","02","11","14:00","-26.5","","-32.2","","60","","","","35","","24","","16.1","","98.19","","","","-40","","Snow,Blowing Snow"
"-97.86","55.80","THOMPSON A","5062921","2020-02-11 15:00","2020","02","11","15:00","-27.9","","-33.8","","58","","","","34","","26","","24.1","","98.32","","","","-42","","Blowing Snow"
"-97.86","55.80","THOMPSON A","5062921","2020-02-11 16:00","2020","02","11","16:00","-29.3","","-35.3","","57","","","","36","","29","","24.1","","98.48","","","","-44","","Blowing Snow"
"-97.86","55.80","THOMPSON A","5062921","2020-02-11 17:00","2020","02","11","17:00","-30.3","","-35.8","","59","","","","36","","25","","24.1","","98.65","","","","-45","","Blowing Snow"
"-97.86","55.80","THOMPSON A","5062921","2020-02-11 18:00","2020","02","11","18:00","-31.4","","-36.4","","62","","","","34","","16","","19.3","","98.80","","","","-44","","Ice Crystals,Blowing Snow"
"-97.86","55.80","THOMPSON A","5062921","2020-02-11 19:00","2020","02","11","19:00","-32.2","","-36.9","","64","","","","33","","14","","24.1","","98.94","","","","-44","","Ice Crystals"
"-97.86","55.80","THOMPSON A","5062921","2020-02-11 20:00","2020","02","11","20:00","-32.5","","-37.1","","64","","","","33","","12","","24.1","","99.07","","","","-43","","Ice Crystals,Blowing Snow"
"-97.86","55.80","THOMPSON A","5062921","2020-02-11 21:00","2020","02","11","21:00","-32.8","","-37.4","","65","","","","34","","15","","24.1","","99.17","","","","-45","","Ice Crystals,Blowing Snow"
"-97.86","55.80","THOMPSON A","5062921","2020-02-11 22:00","2020","02","11","22:00","-33.3","","-37.8","","65","","","","32","","16","","24.1","","99.28","","","","-46","","Ice Crystals,Blowing Snow"
"-97.86","55.80","THOMPSON A","5062921","2020-02-11 23:00","2020","02","11","23:00","-33.5","","-38.0","","65","","","","33","","22","","24.1","","99.35","","","","-48","","Ice Crystals,Blowing Snow"
"-97.86","55.80","THOMPSON A","5062921","2020-02-12 00:00","2020","02","12","00:00","-34.2","","-38.4","","66","","","","31","","14","","24.1","","99.41","","","","-46","","Ice Crystals,Blowing Snow"
"-97.86","55.80","THOMPSON A","5062921","2020-02-12 01:00","2020","02","12","01:00","-34.5","","-38.6","","67","","","","31","","14","","24.1","","99.48","","","","-47","","NA"
"-97.86","55.80","THOMPSON A","5062921","2020-02-12 02:00","2020","02","12","02:00","-34.8","","-38.9","","67","","","","30","","13","","24.1","","99.54","","","","-46","","NA"
"-97.86","55.80","THOMPSON A","5062921","2020-02-12 03:00","2020","02","12","03:00","-35.0","","-39.0","","68","","","","31","","10","","24.1","","99.57","","","","-45","","Clear"
"-97.86","55.80","THOMPSON A","5062921","2020-02-12 04:00","2020","02","12","04:00","-34.7","","-38.8","","67","","","","30","","12","","24.1","","99.60","","","","-46","","NA"
"-97.86","55.80","THOMPSON A","5062921","2020-02-12 05:00","2020","02","12","05:00","-34.3","","-38.4","","68","","","","30","","14","","24.1","","99.61","","","","-46","","NA"
"-97.86","55.80","THOMPSON A","5062921","2020-02-12 06:00","2020","02","12","06:00","-34.5","","-38.6","","67","","","","28","","14","","24.1","","99.63","","","","-47","","Clear"
"-97.86","55.80","THOMPSON A","5062921","2020-02-12 07:00","2020","02","12","07:00","-34.5","","-38.5","","67","","","","28","","18","","24.1","","99.64","","","","-48","","NA"
"-97.86","55.80","THOMPSON A","5062921","2020-02-12 08:00","2020","02","12","08:00","-34.1","","-38.2","","68","","","","29","","18","","24.1","","99.65","","","","-48","","NA"
"-97.86","55.80","THOMPSON A","5062921","2020-02-12 09:00","2020","02","12","09:00","-32.9","","-37.1","","67","","","","29","","18","","24.1","","99.67","","","","-46","","Ice Crystals"
"-97.86","55.80","THOMPSON A","5062921","2020-02-12 10:00","2020","02","12","10:00","-31.8","","-36.2","","66","","","","30","","20","","24.1","","99.67","","","","-45","","Ice Crystals"
"-97.86","55.80","THOMPSON A","5062921","2020-02-12 11:00","2020","02","12","11:00","-29.9","","-34.8","","63","","","","28","","21","","24.1","","99.66","","","","-43","","Ice Crystals"
"-97.86","55.80","THOMPSON A","5062921","2020-02-12 12:00","2020","02","12","12:00","-28.2","","-33.5","","62","","","","28","","22","","24.1","","99.68","","","","-41","","Ice Crystals"
"-97.86","55.80","THOMPSON A","5062921","2020-02-12 13:00","2020","02","12","13:00","-27.1","","-32.5","","61","","","","30","","18","","24.1","","99.65","","","","-39","","Ice Crystals"
"-97.86","55.80","THOMPSON A","5062921","2020-02-12 14:00","2020","02","12","14:00","-26.4","","-31.5","","62","","","","27","","24","","19.3","","99.64","","","","-40","","Snow,Blowing Snow"
"-97.86","55.80","THOMPSON A","5062921","2020-02-12 15:00","2020","02","12","15:00","-25.6","","-30.7","","63","","","","27","","25","","24.1","","99.62","","","","-39","","Blowing Snow"
"-97.86","55.80","THOMPSON A","5062921","2020-02-12 16:00","2020","02","12","16:00","-24.5","","-29.4","","64","","","","29","","22","","19.3","","99.60","","","","-37","","Snow,Blowing Snow"
"-97.86","55.80","THOMPSON A","5062921","2020-02-12 17:00","2020","02","12","17:00","-24.3","","-29.4","","64","","","","29","","18","","19.3","","99.63","","","","-35","","Blowing Snow"
"-97.86","55.80","THOMPSON A","5062921","2020-02-12 18:00","2020","02","12","18:00","-26.5","","-30.8","","68","","","","28","","12","","24.1","","99.65","","","","-36","","Blowing Snow"
"-97.86","55.80","THOMPSON A","5062921","2020-02-12 19:00","2020","02","12","19:00","-27.3","","-31.0","","72","","","","27","","10","","24.1","","99.63","","","","-36","","NA"
"-97.86","55.80","THOMPSON A","5062921","2020-02-12 20:00","2020","02","12","20:00","-27.9","","-31.2","","74","","","","29","","8","","24.1","","99.63","","","","-36","","NA"
"-97.86","55.80","THOMPSON A","5062921","2020-02-12 21:00","2020","02","12","21:00","-27.2","","-30.3","","76","","","","29","","7","","24.1","","99.62","","","","-34","","Clear"
"-97.86","55.80","THOMPSON A","5062921","2020-02-12 22:00","2020","02","12","22:00","-26.9","","-30.3","","74","","","","31","","13","","24.1","","99.61","","","","-37","","NA"
"-97.86","55.80","THOMPSON A","5062921","2020-02-12 23:00","2020","02","12","23:00","-26.4","","-30.0","","72","","","","31","","17","","24.1","","99.59","","","","-38","","NA"
"-97.86","55.80","THOMPSON A","5062921","2020-02-13 00:00","2020","02","13","00:00","-26.6","","-30.3","","72","","","","31","","14","","24.1","","99.58","","","","-37","","Clear"
"-97.86","55.80","THOMPSON A","5062921","2020-02-13 01:00","2020","02","13","01:00","-27.4","","-31.0","","72","","","","31","","13","","24.1","","99.58","","","","-37","","NA"
"-97.86","55.80","THOMPSON A","5062921","2020-02-13 02:00","2020","02","13","02:00","-27.8","","-31.3","","73","","","","30","","12","","24.1","","99.58","","","","-37","","NA"
"-97.86","55.80","THOMPSON A","5062921","2020-02-13 03:00","2020","02","13","03:00","-29.0","","-32.3","","74","","","","29","","12","","24.1","","99.57","","","","-39","","Clear"
"-97.86","55.80","THOMPSON A","5062921","2020-02-13 04:00","2020","02","13","04:00","-29.3","","-32.5","","75","","","","30","","12","","24.1","","99.61","","","","-39","","NA"
"-97.86","55.80","THOMPSON A","5062921","2020-02-13 05:00","2020","02","13","05:00","-30.5","","-33.6","","75","","","","29","","9","","24.1","","99.59","","","","-39","","NA"
"-97.86","55.80","THOMPSON A","5062921","2020-02-13 06:00","2020","02","13","06:00","-30.4","","-33.5","","75","","","","29","","11","","24.1","","99.58","","","","-40","","Clear"
"-97.86","55.80","THOMPSON A","5062921","2020-02-13 07:00","2020","02","13","07:00","-31.3","","-34.5","","74","","","","28","","10","","24.1","","99.56","","","","-41","","NA"
"-97.86","55.80","THOMPSON A","5062921","2020-02-13 08:00","2020","02","13","08:00","-31.1","","-34.3","","74","","","","28","","12","","24.1","","99.54","","","","-41","","NA"
"-97.86","55.80","THOMPSON A","5062921","2020-02-13 09:00","2020","02","13","09:00","-30.2","","-33.3","","75","","","","28","","7","","24.1","","99.56","","","","-38","","Clear"
"-97.86","55.80","THOMPSON A","5062921","2020-02-13 10:00","2020","02","13","10:00","-27.8","","-31.4","","72","","","","29","","11","","24.1","","99.53","","","","-37","","NA"
"-97.86","55.80","THOMPSON A","5062921","2020-02-13 11:00","2020","02","13","11:00","-25.7","","-30.2","","67","","","","28","","9","","24.1","","99.51","","","","-33","","NA"
"-97.86","55.80","THOMPSON A","5062921","2020-02-13 12:00","2020","02","13","12:00","-23.8","","-29.2","","62","","","","24","","5","","24.1","","99.47","","","","-29","","Mainly Clear"
"-97.86","55.80","THOMPSON A","5062921","2020-02-13 13:00","2020","02","13","13:00","-21.2","","-27.1","","60","","","","28","","13","","24.1","","99.41","","","","-30","","NA"
"-97.86","55.80","THOMPSON A","5062921","2020-02-13 14:00","2020","02","13","14:00","-20.1","","-26.2","","59","","","","25","","10","","24.1","","99.31","","","","-27","","NA"
"-97.86","55.80","THOMPSON A","5062921","2020-02-13 15:00","2020","02","13","15:00","-18.9","","-25.6","","56","","","","23","","9","","24.1","","99.24","","","","-25","","Mainly Clear"
"-97.86","55.80","THOMPSON A","5062921","2020-02-13 16:00","2020","02","13","16:00","-19.4","","-25.9","","57","","","","25","","10","","24.1","","99.21","","","","-26","","NA"
"-97.86","55.80","THOMPSON A","5062921","2020-02-13 17:00","2020","02","13","17:00","-20.7","","-26.4","","61","","","","21","","5","","24.1","","99.15","","","","-25","","NA"
"-97.86","55.80","THOMPSON A","5062921","2020-02-13 18:00","2020","02","13","18:00","-20.9","","-25.5","","67","","","","18","","5","","24.1","","99.07","","","","-25","","Mainly Clear"
"-97.86","55.80","THOMPSON A","5062921","2020-02-13 19:00","2020","02","13","19:00","-23.8","","-27.1","","75","","","","13","","4","","24.1","","99.02","","","","-28","","NA"
"-97.86","55.80","THOMPSON A","5062921","2020-02-13 20:00","2020","02","13","20:00","-22.9","","-26.6","","72","","","","15","","5","","24.1","","98.93","","","","-28","","NA"
"-97.86","55.80","THOMPSON A","5062921","2020-02-13 21:00","2020","02","13","21:00","-23.6","","-27.0","","74","","","","15","","8","","24.1","","98.80","","","","-30","","Clear"
"-97.86","55.80","THOMPSON A","5062921","2020-02-13 22:00","2020","02","13","22:00","-23.5","","-26.9","","74","","","","17","","7","","24.1","","98.73","","","","-30","","NA"
"-97.86","55.80","THOMPSON A","5062921","2020-02-13 23:00","2020","02","13","23:00","-21.9","","-26.4","","67","","","","17","","8","","24.1","","98.59","","","","-28","","NA"
"-97.86","55.80","THOMPSON A","5062921","2020-02-14 00:00","2020","02","14","00:00","-20.7","","-26.2","","62","","","","19","","9","","24.1","","98.46","","","","-28","","Cloudy"
"-97.86","55.80","THOMPSON A","5062921","2020-02-14 01:00","2020","02","14","01:00","-21.1","","-26.1","","65","","","","16","","8","","24.1","","98.34","","","","-28","","NA"
"-97.86","55.80","THOMPSON A","5062921","2020-02-14 02:00","2020","02","14","02:00","-20.4","","-25.7","","63","","","","16","","9","","24.1","","98.16","","","","-27","","NA"
"-97.86","55.80","THOMPSON A","5062921","2020-02-14 03:00","2020","02","14","03:00","-20.3","","-25.6","","63","","","","14","","10","","24.1","","98.00","","","","-28","","Mostly Cloudy"
"-97.86","55.80","THOMPSON A","5062921","2020-02-14 04:00","2020","02","14","04:00","-20.0","","-25.4","","63","","","","15","","10","","24.1","","97.81","","","","-27","","NA"
"-97.86","55.80","THOMPSON A","5062921","2020-02-14 05:00","2020","02","14","05:00","-19.6","","-25.0","","63","","","","14","","7","","24.1","","97.64","","","","-25","","NA"
"-97.86","55.80","THOMPSON A","5062921","2020-02-14 06:00","2020","02","14","06:00","-19.0","","-24.6","","62","","","","14","","9","","24.1","","97.50","","","","-26","","Cloudy"
"-97.86","55.80","THOMPSON A","5062921","2020-02-14 07:00","2020","02","14","07:00","-19.1","","-23.2","","70","","","","15","","10","","4.8","","97.35","","","","-26","","Snow"
"-97.86","55.80","THOMPSON A","5062921","2020-02-14 08:00","2020","02","14","08:00","-18.9","","-21.8","","78","","","","16","","7","","4.0","","97.19","","","","-24","","Snow"
"-97.86","55.80","THOMPSON A","5062921","2020-02-14 09:00","2020","02","14","09:00","-18.4","","-21.2","","78","","","","17","","8","","3.2","","97.07","","","","-24","","Snow"
"-97.86","55.80","THOMPSON A","5062921","2020-02-14 10:00","2020","02","14","10:00","-17.8","","-20.6","","79","","","","16","","5","","3.2","","96.95","","","","-22","","Snow"
"-97.86","55.80","THOMPSON A","5062921","2020-02-14 11:00","2020","02","14","11:00","-17.1","","-20.0","","79","","","","18","","10","","3.2","","96.87","","","","-24","","Snow"
"-97.86","55.80","THOMPSON A","5062921","2020-02-14 12:00","2020","02","14","12:00","-16.5","","-19.7","","77","","","","20","","17","","8.1","","96.83","","","","-25","","Snow"
"-97.86","55.80","THOMPSON A","5062921","2020-02-14 13:00","2020","02","14","13:00","-16.2","","-19.8","","75","","","","22","","17","","6.4","","96.72","","","","-25","","Snow,Blowing Snow"
"-97.86","55.80","THOMPSON A","5062921","2020-02-14 14:00","2020","02","14","14:00","-15.9","","-19.2","","76","","","","24","","19","","6.4","","96.71","","","","-25","","Snow,Blowing Snow"
"-97.86","55.80","THOMPSON A","5062921","2020-02-14 15:00","2020","02","14","15:00","-15.2","","-18.8","","75","","","","26","","16","","12.9","","96.66","","","","-23","","Snow,Blowing Snow"
"-97.86","55.80","THOMPSON A","5062921","2020-02-14 16:00","2020","02","14","16:00","-14.8","","-18.5","","74","","","","27","","20","","12.9","","96.73","","","","-24","","Snow,Blowing Snow"
"-97.86","55.80","THOMPSON A","5062921","2020-02-14 17:00","2020","02","14","17:00","-14.5","","-18.0","","75","","","","26","","13","","12.9","","96.76","","","","-22","","Snow,Blowing Snow"
"-97.86","55.80","THOMPSON A","5062921","2020-02-14 18:00","2020","02","14","18:00","-14.7","","-17.6","","79","","","","26","","8","","12.9","","96.80","","","","-20","","Snow,Blowing Snow"
"-97.86","55.80","THOMPSON A","5062921","2020-02-14 19:00","2020","02","14","19:00","-14.5","","-17.2","","80","","","","25","","10","","24.1","","96.82","","","","-21","","Snow"
"-97.86","55.80","THOMPSON A","5062921","2020-02-14 20:00","2020","02","14","20:00","-14.0","","-16.7","","80","","","","27","","10","","24.1","","96.87","","","","-20","","Snow"
"-97.86","55.80","THOMPSON A","5062921","2020-02-14 21:00","2020","02","14","21:00","-13.4","","-16.3","","79","","","","30","","17","","16.1","","96.90","","","","-21","","Snow,Blowing Snow"
"-97.86","55.80","THOMPSON A","5062921","2020-02-14 22:00","2020","02","14","22:00","-15.5","","-19.1","","75","","","","31","","18","","19.3","","96.99","","","","-24","","Snow,Blowing Snow"
"-97.86","55.80","THOMPSON A","5062921","2020-02-14 23:00","2020","02","14","23:00","-17.2","","-21.6","","69","","","","28","","27","","24.1","","97.11","","","","-28","","Snow,Blowing Snow"
"-97.86","55.80","THOMPSON A","5062921","2020-02-15 00:00","2020","02","15","00:00","-18.1","","-22.6","","68","","","","29","","27","","24.1","","97.12","","","","-30","","Snow,Blowing Snow"
"-97.86","55.80","THOMPSON A","5062921","2020-02-15 01:00","2020","02","15","01:00","-18.6","","-23.4","","67","","","","29","","22","","24.1","","97.16","","","","-29","","Snow,Blowing Snow"
"-97.86","55.80","THOMPSON A","5062921","2020-02-15 02:00","2020","02","15","02:00","-19.4","","-23.7","","69","","","","30","","22","","9.7","","97.19","","","","-30","","Snow,Blowing Snow"
"-97.86","55.80","THOMPSON A","5062921","2020-02-15 03:00","2020","02","15","03:00","-20.4","","-24.3","","72","","","","28","","24","","8.1","","97.29","","","","-32","","Snow,Blowing Snow"
"-97.86","55.80","THOMPSON A","5062921","2020-02-15 04:00","2020","02","15","04:00","-21.0","","-25.0","","71","","","","27","","18","","8.1","","97.32","","","","-31","","Snow,Blowing Snow"
"-97.86","55.80","THOMPSON A","5062921","2020-02-15 05:00","2020","02","15","05:00","-21.4","","-24.9","","74","","","","28","","17","","8.1","","97.36","","","","-31","","Snow,Blowing Snow"
"-97.86","55.80","THOMPSON A","5062921","2020-02-15 06:00","2020","02","15","06:00","-21.3","","-24.6","","75","","","","29","","20","","6.4","","97.40","","","","-32","","Snow,Blowing Snow"
"-97.86","55.80","THOMPSON A","5062921","2020-02-15 07:00","2020","02","15","07:00","-21.0","","-24.4","","75","","","","29","","14","","8.1","","97.47","","","","-30","","Snow,Blowing Snow"
"-97.86","55.80","THOMPSON A","5062921","2020-02-15 08:00","2020","02","15","08:00","-20.4","","-23.7","","76","","","","30","","17","","6.4","","97.54","","","","-30","","Snow,Blowing Snow"
"-97.86","55.80","THOMPSON A","5062921","2020-02-15 09:00","2020","02","15","09:00","-19.8","","-23.4","","73","","","","32","","25","","6.4","","97.64","","","","-31","","Snow,Blowing Snow"
"-97.86","55.80","THOMPSON A","5062921","2020-02-15 10:00","2020","02","15","10:00","-20.3","","-24.0","","73","","","","34","","22","","4.0","","97.76","","","","-31","","Snow,Blowing Snow"
"-97.86","55.80","THOMPSON A","5062921","2020-02-15 11:00","2020","02","15","11:00","-20.4","","-24.9","","68","","","","33","","20","","9.7","","97.86","","","","-31","","Snow"
"-97.86","55.80","THOMPSON A","5062921","2020-02-15 12:00","2020","02","15","12:00","-20.2","","-25.6","","63","","","","34","","25","","24.1","","97.97","","","","-32","","Snow,Blowing Snow"
"-97.86","55.80","THOMPSON A","5062921","2020-02-15 13:00","2020","02","15","13:00","-20.1","","-25.9","","61","","","","31","","20","","24.1","","98.04","","","","-31","","Blowing Snow"
"-97.86","55.80","THOMPSON A","5062921","2020-02-15 14:00","2020","02","15","14:00","-19.7","","-25.9","","58","","","","31","","25","","24.1","","98.10","","","","-31","","Blowing Snow"
"-97.86","55.80","THOMPSON A","5062921","2020-02-15 15:00","2020","02","15","15:00","-19.6","","-25.9","","58","","","","30","","21","","24.1","","98.16","","","","-30","","Blowing Snow"
"-97.86","55.80","THOMPSON A","5062921","2020-02-15 16:00","2020","02","15","16:00","-20.0","","-26.2","","58","","","","30","","22","","24.1","","98.22","","","","-31","","Blowing Snow"
"-97.86","55.80","THOMPSON A","5062921","2020-02-15 17:00","2020","02","15","17:00","-20.6","","-26.5","","60","","","","30","","18","","24.1","","98.31","","","","-31","","Blowing Snow"
"-97.86","55.80","THOMPSON A","5062921","2020-02-15 18:00","2020","02","15","18:00","-21.9","","-27.2","","63","","","","30","","16","","24.1","","98.41","","","","-32","","Blowing Snow"
"-97.86","55.80","THOMPSON A","5062921","2020-02-15 19:00","2020","02","15","19:00","-22.8","","-27.7","","65","","","","30","","18","","24.1","","98.49","","","","-33","","Blowing Snow"
"-97.86","55.80","THOMPSON A","5062921","2020-02-15 20:00","2020","02","15","20:00","-24.1","","-28.5","","68","","","","31","","12","","24.1","","98.54","","","","-33","","Blowing Snow"
"-97.86","55.80","THOMPSON A","5062921","2020-02-15 21:00","2020","02","15","21:00","-25.1","","-29.4","","68","","","","32","","18","","24.1","","98.59","","","","-36","","Blowing Snow"
"-97.86","55.80","THOMPSON A","5062921","2020-02-15 22:00","2020","02","15","22:00","-26.4","","-30.7","","68","","","","30","","10","","24.1","","98.59","","","","-35","","Blowing Snow"
"-97.86","55.80","THOMPSON A","5062921","2020-02-15 23:00","2020","02","15","23:00","-27.1","","-31.2","","69","","","","30","","15","","24.1","","98.62","","","","-38","","Blowing Snow"
"-97.86","55.80","THOMPSON A","5062921","2020-02-16 00:00","2020","02","16","00:00","-28.5","","-32.5","","69","","","","29","","9","","24.1","","98.62","","","","-37","","Blowing Snow"
"-97.86","55.80","THOMPSON A","5062921","2020-02-16 01:00","2020","02","16","01:00","-29.9","","-33.8","","70","","","","28","","9","","24.1","","98.66","","","","-38","","NA"
"-97.86","55.80","THOMPSON A","5062921","2020-02-16 02:00","2020","02","16","02:00","-31.5","","-35.2","","71","","","","26","","8","","24.1","","98.65","","","","-40","","NA"
"-97.86","55.80","THOMPSON A","5062921","2020-02-16 03:00","2020","02","16","03:00","-31.2","","-34.6","","72","","","","26","","8","","24.1","","98.71","","","","-39","","Mainly Clear"
"-97.86","55.80","THOMPSON A","5062921","2020-02-16 04:00","2020","02","16","04:00","-32.8","","-36.2","","73","","","","27","","8","","24.1","","98.75","","","","-41","","NA"
"-97.86","55.80","THOMPSON A","5062921","2020-02-16 05:00","2020","02","16","05:00","-33.4","","-36.7","","73","","","","26","","7","","24.1","","98.76","","","","-41","","NA"
"-97.86","55.80","THOMPSON A","5062921","2020-02-16 06:00","2020","02","16","06:00","-34.5","","-37.7","","73","","","","27","","8","","24.1","","98.75","","","","-43","","Clear"
"-97.86","55.80","THOMPSON A","5062921","2020-02-16 07:00","2020","02","16","07:00","-34.2","","-37.3","","74","","","","26","","7","","24.1","","98.75","","","","-42","","NA"
"-97.86","55.80","THOMPSON A","5062921","2020-02-16 08:00","2020","02","16","08:00","-34.8","","-38.0","","74","","","","21","","4","","24.1","","98.76","","","","-40","","NA"
"-97.86","55.80","THOMPSON A","5062921","2020-02-16 09:00","2020","02","16","09:00","-33.8","","-37.0","","73","","","","27","","6","","24.1","","98.76","","","","-41","","Blowing Snow"
"-97.86","55.80","THOMPSON A","5062921","2020-02-16 10:00","2020","02","16","10:00","-30.3","","-34.2","","70","","","","28","","7","","24.1","","98.78","","","","-38","","NA"
"-97.86","55.80","THOMPSON A","5062921","2020-02-16 11:00","2020","02","16","11:00","-28.1","","-32.8","","65","","","","25","","12","","24.1","","98.77","","","","-38","","Blowing Snow"
"-97.86","55.80","THOMPSON A","5062921","2020-02-16 12:00","2020","02","16","12:00","-26.1","","-31.3","","62","","","","23","","7","","24.1","","98.77","","","","-33","","Mostly Cloudy"
"-97.86","55.80","THOMPSON A","5062921","2020-02-16 13:00","2020","02","16","13:00","-25.1","","-30.6","","61","","","","24","","10","","24.1","","98.74","","","","-33","","NA"
"-97.86","55.80","THOMPSON A","5062921","2020-02-16 14:00","2020","02","16","14:00","-24.3","","-29.6","","62","","","","23","","10","","24.1","","98.72","","","","-32","","NA"
"-97.86","55.80","THOMPSON A","5062921","2020-02-16 15:00","2020","02","16","15:00","-23.0","","-28.5","","62","","","","24","","10","","24.1","","98.73","","","","-31","","Mostly Cloudy"
"-97.86","55.80","THOMPSON A","5062921","2020-02-16 16:00","2020","02","16","16:00","-22.1","","-27.7","","62","","","","25","","10","","24.1","","98.75","","","","-30","","NA"
"-97.86","55.80","THOMPSON A","5062921","2020-02-16 17:00","2020","02","16","17:00","-21.8","","-27.1","","63","","","","28","","13","","16.1","","98.76","","","","-31","","Snow"
"-97.86","55.80","THOMPSON A","5062921","2020-02-16 18:00","2020","02","16","18:00","-22.6","","-26.7","","70","","","","29","","7","","24.1","","98.78","","","","-29","","Snow"
"-97.86","55.80","THOMPSON A","5062921","2020-02-16 19:00","2020","02","16","19:00","-22.6","","-26.3","","73","","","","28","","6","","24.1","","98.79","","","","-28","","Snow"
"-97.86","55.80","THOMPSON A","5062921","2020-02-16 20:00","2020","02","16","20:00","-22.4","","-26.2","","72","","","","29","","7","","24.1","","98.80","","","","-28","","Snow"
"-97.86","55.80","THOMPSON A","5062921","2020-02-16 21:00","2020","02","16","21:00","-22.5","","-26.2","","72","","","","29","","5","","24.1","","98.78","","","","-27","","Snow"
"-97.86","55.80","THOMPSON A","5062921","2020-02-16 22:00","2020","02","16","22:00","-22.7","","-26.2","","74","","","","30","","3","","24.1","","98.77","","","","-25","","Snow"
"-97.86","55.80","THOMPSON A","5062921","2020-02-16 23:00","2020","02","16","23:00","-22.9","","-26.3","","74","","","","28","","3","","24.1","","98.79","","","","-26","","Snow"
"-97.86","55.80","THOMPSON A","5062921","2020-02-17 00:00","2020","02","17","00:00","-24.0","","-27.1","","76","","","","31","","5","","24.1","","98.80","","","","-29","","Snow"
"-97.86","55.80","THOMPSON A","5062921","2020-02-17 01:00","2020","02","17","01:00","-26.1","","-29.0","","77","","","","29","","8","","24.1","","98.78","","","","-33","","Snow"
"-97.86","55.80","THOMPSON A","5062921","2020-02-17 02:00","2020","02","17","02:00","-25.9","","-28.7","","78","","","","27","","8","","24.1","","98.81","","","","-33","","Snow"
"-97.86","55.80","THOMPSON A","5062921","2020-02-17 03:00","2020","02","17","03:00","-24.9","","-27.9","","77","","","","30","","11","","24.1","","98.81","","","","-34","","Snow"
"-97.86","55.80","THOMPSON A","5062921","2020-02-17 04:00","2020","02","17","04:00","-25.1","","-28.3","","75","","","","27","","6","","24.1","","98.84","","","","-31","","Snow"
"-97.86","55.80","THOMPSON A","5062921","2020-02-17 05:00","2020","02","17","05:00","-24.6","","-28.0","","74","","","","29","","8","","24.1","","98.83","","","","-32","","NA"
"-97.86","55.80","THOMPSON A","5062921","2020-02-17 06:00","2020","02","17","06:00","-24.9","","-28.4","","73","","","","31","","8","","24.1","","98.86","","","","-32","","Cloudy"
"-97.86","55.80","THOMPSON A","5062921","2020-02-17 07:00","2020","02","17","07:00","-26.5","","-29.7","","75","","","","28","","8","","24.1","","98.88","","","","-34","","NA"
"-97.86","55.80","THOMPSON A","5062921","2020-02-17 08:00","2020","02","17","08:00","-27.6","","-30.5","","77","","","","28","","9","","24.1","","98.91","","","","-36","","NA"
"-97.86","55.80","THOMPSON A","5062921","2020-02-17 09:00","2020","02","17","09:00","-27.4","","-30.3","","77","","","","27","","8","","24.1","","98.92","","","","-35","","Mainly Clear"
"-97.86","55.80","THOMPSON A","5062921","2020-02-17 10:00","2020","02","17","10:00","-24.6","","-28.5","","71","","","","29","","16","","24.1","","98.97","","","","-35","","NA"
"-97.86","55.80","THOMPSON A","5062921","2020-02-17 11:00","2020","02","17","11:00","-23.1","","-28.7","","61","","","","29","","14","","24.1","","98.95","","","","-33","","Blowing Snow"
"-97.86","55.80","THOMPSON A","5062921","2020-02-17 12:00","2020","02","17","12:00","-21.6","","-27.9","","58","","","","28","","16","","24.1","","99.00","","","","-31","","Blowing Snow"
"-97.86","55.80","THOMPSON A","5062921","2020-02-17 13:00","2020","02","17","13:00","-20.8","","-27.2","","57","","","","29","","17","","24.1","","99.00","","","","-31","","Blowing Snow"
"-97.86","55.80","THOMPSON A","5062921","2020-02-17 14:00","2020","02","17","14:00","-19.4","","-26.5","","54","","","","28","","15","","24.1","","98.97","","","","-28","","Blowing Snow"
"-97.86","55.80","THOMPSON A","5062921","2020-02-17 15:00","2020","02","17","15:00","-18.9","","-26.4","","52","","","","29","","21","","24.1","","98.98","","","","-29","","Blowing Snow"
"-97.86","55.80","THOMPSON A","5062921","2020-02-17 16:00","2020","02","17","16:00","-18.9","","-26.3","","53","","","","28","","21","","24.1","","99.01","","","","-29","","Blowing Snow"
"-97.86","55.80","THOMPSON A","5062921","2020-02-17 17:00","2020","02","17","17:00","-19.7","","-26.9","","54","","","","28","","17","","24.1","","99.06","","","","-29","","Blowing Snow"
"-97.86","55.80","THOMPSON A","5062921","2020-02-17 18:00","2020","02","17","18:00","-21.7","","-27.4","","61","","","","30","","12","","24.1","","99.11","","","","-30","","Blowing Snow"
"-97.86","55.80","THOMPSON A","5062921","2020-02-17 19:00","2020","02","17","19:00","-24.3","","-28.7","","68","","","","28","","11","","24.1","","99.14","","","","-33","","Blowing Snow"
"-97.86","55.80","THOMPSON A","5062921","2020-02-17 20:00","2020","02","17","20:00","-23.8","","-28.0","","69","","","","29","","14","","24.1","","99.18","","","","-33","","Blowing Snow"
"-97.86","55.80","THOMPSON A","5062921","2020-02-17 21:00","2020","02","17","21:00","-24.9","","-28.8","","71","","","","31","","7","","24.1","","99.23","","","","-31","","Clear"
"-97.86","55.80","THOMPSON A","5062921","2020-02-17 22:00","2020","02","17","22:00","-24.8","","-29.0","","69","","","","31","","16","","24.1","","99.25","","","","-35","","NA"
"-97.86","55.80","THOMPSON A","5062921","2020-02-17 23:00","2020","02","17","23:00","-25.8","","-30.2","","68","","","","30","","14","","24.1","","99.31","","","","-36","","NA"
"-97.86","55.80","THOMPSON A","5062921","2020-02-18 00:00","2020","02","18","00:00","-27.2","","-31.5","","68","","","","30","","9","","24.1","","99.33","","","","-35","","Clear"
"-97.86","55.80","THOMPSON A","5062921","2020-02-18 01:00","2020","02","18","01:00","-27.7","","-31.7","","69","","","","31","","12","","24.1","","99.36","","","","-37","","NA"
"-97.86","55.80","THOMPSON A","5062921","2020-02-18 02:00","2020","02","18","02:00","-28.4","","-32.3","","70","","","","29","","13","","24.1","","99.41","","","","-39","","NA"
"-97.86","55.80","THOMPSON A","5062921","2020-02-18 03:00","2020","02","18","03:00","-28.6","","-32.4","","70","","","","30","","13","","24.1","","99.43","","","","-39","","Clear"
"-97.86","55.80","THOMPSON A","5062921","2020-02-18 04:00","2020","02","18","04:00","-28.7","","-32.6","","70","","","","29","","16","","24.1","","99.45","","","","-40","","NA"
"-97.86","55.80","THOMPSON A","5062921","2020-02-18 05:00","2020","02","18","05:00","-29.1","","-32.9","","70","","","","29","","16","","24.1","","99.47","","","","-41","","NA"
"-97.86","55.80","THOMPSON A","5062921","2020-02-18 06:00","2020","02","18","06:00","-29.3","","-33.1","","70","","","","28","","14","","24.1","","99.52","","","","-40","","Clear"
"-97.86","55.80","THOMPSON A","5062921","2020-02-18 07:00","2020","02","18","07:00","-29.7","","-33.4","","71","","","","29","","10","","24.1","","99.56","","","","-39","","NA"
"-97.86","55.80","THOMPSON A","5062921","2020-02-18 08:00","2020","02","18","08:00","-29.8","","-33.5","","71","","","","30","","14","","24.1","","99.60","","","","-41","","NA"
"-97.86","55.80","THOMPSON A","5062921","2020-02-18 09:00","2020","02","18","09:00","-29.1","","-32.8","","71","","","","29","","15","","24.1","","99.65","","","","-40","","Mainly Clear"
"-97.86","55.80","THOMPSON A","5062921","2020-02-18 10:00","2020","02","18","10:00","-27.3","","-31.9","","66","","","","31","","21","","24.1","","99.71","","","","-40","","NA"
"-97.86","55.80","THOMPSON A","5062921","2020-02-18 11:00","2020","02","18","11:00","-26.2","","-31.6","","61","","","","33","","20","","24.1","","99.73","","","","-38","","NA"
"-97.86","55.80","THOMPSON A","5062921","2020-02-18 12:00","2020","02","18","12:00","-25.2","","-31.2","","58","","","","31","","21","","24.1","","99.77","","","","-37","","Clear"
"-97.86","55.80","THOMPSON A","5062921","2020-02-18 13:00","2020","02","18","13:00","-24.2","","-30.8","","56","","","","30","","19","","24.1","","99.79","","","","-36","","NA"
"-97.86","55.80","THOMPSON A","5062921","2020-02-18 14:00","2020","02","18","14:00","-23.4","","-30.1","","55","","","","29","","23","","24.1","","99.80","","","","-36","","NA"
"-97.86","55.80","THOMPSON A","5062921","2020-02-18 15:00","2020","02","18","15:00","-23.0","","-29.7","","55","","","","30","","22","","24.1","","99.84","","","","-35","","Mainly Clear"
"-97.86","55.80","THOMPSON A","5062921","2020-02-18 16:00","2020","02","18","16:00","-22.7","","-29.4","","55","","","","32","","18","","24.1","","99.90","","","","-33","","Blowing Snow"
"-97.86","55.80","THOMPSON A","5062921","2020-02-18 17:00","2020","02","18","17:00","-22.9","","-29.1","","58","","","","32","","16","","24.1","","99.93","","","","-33","","Blowing Snow"
"-97.86","55.80","THOMPSON A","5062921","2020-02-18 18:00","2020","02","18","18:00","-23.8","","-29.2","","62","","","","33","","10","","24.1","","100.00","","","","-32","","Blowing Snow"
"-97.86","55.80","THOMPSON A","5062921","2020-02-18 19:00","2020","02","18","19:00","-25.1","","-29.6","","66","","","","30","","7","","24.1","","100.05","","","","-32","","NA"
"-97.86","55.80","THOMPSON A","5062921","2020-02-18 20:00","2020","02","18","20:00","-25.6","","-29.6","","69","","","","30","","10","","24.1","","100.07","","","","-34","","NA"
"-97.86","55.80","THOMPSON A","5062921","2020-02-18 21:00","2020","02","18","21:00","-24.2","","-28.5","","68","","","","31","","15","","24.1","","100.09","","","","-34","","Clear"
"-97.86","55.80","THOMPSON A","5062921","2020-02-18 22:00","2020","02","18","22:00","-24.1","","-28.3","","69","","","","31","","13","","24.1","","100.14","","","","-33","","NA"
"-97.86","55.80","THOMPSON A","5062921","2020-02-18 23:00","2020","02","18","23:00","-24.3","","-28.2","","71","","","","31","","17","","24.1","","100.19","","","","-35","","NA"
"-97.86","55.80","THOMPSON A","5062921","2020-02-19 00:00","2020","02","19","00:00","-24.4","","-28.3","","71","","","","31","","17","","24.1","","100.21","","","","-35","","Clear"
"-97.86","55.80","THOMPSON A","5062921","2020-02-19 01:00","2020","02","19","01:00","-26.5","","-29.9","","74","","","","29","","14","","24.1","","100.29","","","","-37","","NA"
"-97.86","55.80","THOMPSON A","5062921","2020-02-19 02:00","2020","02","19","02:00","-27.4","","-30.8","","74","","","","30","","10","","24.1","","100.35","","","","-36","","NA"
"-97.86","55.80","THOMPSON A","5062921","2020-02-19 03:00","2020","02","19","03:00","-28.1","","-31.1","","76","","","","28","","8","","24.1","","100.36","","","","-36","","Clear"
"-97.86","55.80","THOMPSON A","5062921","2020-02-19 04:00","2020","02","19","04:00","-28.6","","-31.7","","75","","","","30","","10","","24.1","","100.36","","","","-37","","NA"
"-97.86","55.80","THOMPSON A","5062921","2020-02-19 05:00","2020","02","19","05:00","-28.3","","-31.4","","75","","","","30","","8","","24.1","","100.41","","","","-36","","NA"
"-97.86","55.80","THOMPSON A","5062921","2020-02-19 06:00","2020","02","19","06:00","-31.4","","-34.5","","75","","","","24","","7","","24.1","","100.46","","","","-39","","Clear"
"-97.86","55.80","THOMPSON A","5062921","2020-02-19 07:00","2020","02","19","07:00","-31.2","","-34.2","","76","","","","25","","7","","24.1","","100.49","","","","-39","","NA"
"-97.86","55.80","THOMPSON A","5062921","2020-02-19 08:00","2020","02","19","08:00","-31.4","","-34.3","","76","","","","27","","8","","24.1","","100.46","","","","-40","","NA"
"-97.86","55.80","THOMPSON A","5062921","2020-02-19 09:00","2020","02","19","09:00","-29.9","","-32.8","","76","","","","26","","5","","24.1","","100.45","","","","-36","","Clear"
"-97.86","55.80","THOMPSON A","5062921","2020-02-19 10:00","2020","02","19","10:00","-25.9","","-29.4","","73","","","","22","","8","","24.1","","100.44","","","","-33","","NA"
"-97.86","55.80","THOMPSON A","5062921","2020-02-19 11:00","2020","02","19","11:00","-22.4","","-27.9","","62","","","","23","","11","","24.1","","100.41","","","","-31","","NA"
"-97.86","55.80","THOMPSON A","5062921","2020-02-19 12:00","2020","02","19","12:00","-18.2","","-26.1","","51","","","","23","","14","","24.1","","100.34","","","","-27","","Mainly Clear"
"-97.86","55.80","THOMPSON A","5062921","2020-02-19 13:00","2020","02","19","13:00","-15.8","","-25.1","","46","","","","23","","16","","24.1","","100.24","","","","-24","","NA"
"-97.86","55.80","THOMPSON A","5062921","2020-02-19 14:00","2020","02","19","14:00","-14.4","","-24.1","","44","","","","23","","22","","24.1","","100.13","","","","-24","","NA"
"-97.86","55.80","THOMPSON A","5062921","2020-02-19 15:00","2020","02","19","15:00","-12.9","","-22.9","","43","","","","23","","22","","24.1","","100.01","","","","-22","","Mostly Cloudy"
"-97.86","55.80","THOMPSON A","5062921","2020-02-19 16:00","2020","02","19","16:00","-12.4","","-22.0","","45","","","","20","","18","","24.1","","99.90","","","","-20","","Blowing Snow"
"-97.86","55.80","THOMPSON A","5062921","2020-02-19 17:00","2020","02","19","17:00","-13.0","","-21.4","","50","","","","22","","17","","24.1","","99.77","","","","-21","","NA"
"-97.86","55.80","THOMPSON A","5062921","2020-02-19 18:00","2020","02","19","18:00","-13.6","","-21.6","","52","","","","20","","19","","24.1","","99.62","","","","-22","","Blowing Snow"
"-97.86","55.80","THOMPSON A","5062921","2020-02-19 19:00","2020","02","19","19:00","-14.4","","-20.9","","58","","","","21","","19","","24.1","","99.52","","","","-23","","Blowing Snow"
"-97.86","55.80","THOMPSON A","5062921","2020-02-19 20:00","2020","02","19","20:00","-14.5","","-21.6","","55","","","","22","","26","","24.1","","99.43","","","","-25","","Blowing Snow"
"-97.86","55.80","THOMPSON A","5062921","2020-02-19 21:00","2020","02","19","21:00","-14.4","","-21.7","","55","","","","23","","20","","24.1","","99.36","","","","-23","","Blowing Snow"
"-97.86","55.80","THOMPSON A","5062921","2020-02-19 22:00","2020","02","19","22:00","-14.6","","-21.5","","56","","","","22","","22","","24.1","","99.25","","","","-24","","Snow,Blowing Snow"
"-97.86","55.80","THOMPSON A","5062921","2020-02-19 23:00","2020","02","19","23:00","-15.4","","-21.6","","59","","","","22","","13","","24.1","","99.18","","","","-23","","NA"
"-97.86","55.80","THOMPSON A","5062921","2020-02-20 00:00","2020","02","20","00:00","-16.3","","-22.0","","62","","","","22","","14","","24.1","","99.07","","","","-24","","Mainly Clear"
"-97.86","55.80","THOMPSON A","5062921","2020-02-20 01:00","2020","02","20","01:00","-16.9","","-22.3","","63","","","","22","","13","","24.1","","99.02","","","","-25","","NA"
"-97.86","55.80","THOMPSON A","5062921","2020-02-20 02:00","2020","02","20","02:00","-17.3","","-22.2","","66","","","","23","","14","","24.1","","98.93","","","","-25","","NA"
"-97.86","55.80","THOMPSON A","5062921","2020-02-20 03:00","2020","02","20","03:00","-17.4","","-21.4","","72","","","","22","","12","","24.1","","98.90","","","","-25","","Mainly Clear"
"-97.86","55.80","THOMPSON A","5062921","2020-02-20 04:00","2020","02","20","04:00","-17.6","","-21.4","","72","","","","21","","12","","24.1","","98.82","","","","-25","","NA"
"-97.86","55.80","THOMPSON A","5062921","2020-02-20 05:00","2020","02","20","05:00","-17.9","","-21.4","","75","","","","21","","9","","24.1","","98.74","","","","-24","","NA"
"-97.86","55.80","THOMPSON A","5062921","2020-02-20 06:00","2020","02","20","06:00","-16.9","","-20.4","","75","","","","21","","14","","24.1","","98.66","","","","-25","","Mainly Clear"
"-97.86","55.80","THOMPSON A","5062921","2020-02-20 07:00","2020","02","20","07:00","-16.8","","-20.2","","75","","","","21","","11","","24.1","","98.54","","","","-24","","NA"
"-97.86","55.80","THOMPSON A","5062921","2020-02-20 08:00","2020","02","20","08:00","-17.1","","-20.2","","77","","","","21","","12","","24.1","","98.45","","","","-25","","NA"
"-97.86","55.80","THOMPSON A","5062921","2020-02-20 09:00","2020","02","20","09:00","-16.0","","-19.4","","76","","","","21","","14","","24.1","","98.35","","","","-24","","Mainly Clear"
"-97.86","55.80","THOMPSON A","5062921","2020-02-20 10:00","2020","02","20","10:00","-13.8","","-18.0","","71","","","","23","","15","","24.1","","98.26","","","","-21","","NA"
"-97.86","55.80","THOMPSON A","5062921","2020-02-20 11:00","2020","02","20","11:00","-11.2","","-16.3","","66","","","","23","","15","","24.1","","98.14","","","","-18","","NA"
"-97.86","55.80","THOMPSON A","5062921","2020-02-20 12:00","2020","02","20","12:00","-8.6","","-14.2","","64","","","","23","","18","","24.1","","98.05","","","","-16","","Mostly Cloudy"
"-97.86","55.80","THOMPSON A","5062921","2020-02-20 13:00","2020","02","20","13:00","-6.2","","-12.7","","60","","","","23","","20","","24.1","","97.95","","","","-13","","NA"
"-97.86","55.80","THOMPSON A","5062921","2020-02-20 14:00","2020","02","20","14:00","-3.6","","-10.9","","57","","","","22","","20","","24.1","","97.81","","","","-10","","NA"
"-97.86","55.80","THOMPSON A","5062921","2020-02-20 15:00","2020","02","20","15:00","-2.1","","-9.7","","56","","","","22","","25","","24.1","","97.70","","","","-9","","Mostly Cloudy"
"-97.86","55.80","THOMPSON A","5062921","2020-02-20 16:00","2020","02","20","16:00","-0.7","","-8.9","","54","","","","22","","19","","24.1","","97.60","","","","-6","","NA"
"-97.86","55.80","THOMPSON A","5062921","2020-02-20 17:00","2020","02","20","17:00","-0.4","","-8.7","","54","","","","20","","10","","24.1","","97.52","","","","-4","","NA"
"-97.86","55.80","THOMPSON A","5062921","2020-02-20 18:00","2020","02","20","18:00","-4.1","","-10.9","","59","","","","23","","7","","24.1","","97.46","","","","-7","","Mostly Cloudy"
"-97.86","55.80","THOMPSON A","5062921","2020-02-20 19:00","2020","02","20","19:00","-4.8","","-9.7","","69","","","","23","","6","","24.1","","97.39","","","","-8","","NA"
"-97.86","55.80","THOMPSON A","5062921","2020-02-20 20:00","2020","02","20","20:00","-2.7","","-8.6","","64","","","","22","","15","","24.1","","97.30","","","","-8","","NA"
"-97.86","55.80","THOMPSON A","5062921","2020-02-20 21:00","2020","02","20","21:00","-5.5","","-10.2","","70","","","","23","","13","","24.1","","97.26","","","","-11","","Mainly Clear"
"-97.86","55.80","THOMPSON A","5062921","2020-02-20 22:00","2020","02","20","22:00","-6.6","","-10.5","","74","","","","24","","13","","24.1","","97.21","","","","-12","","NA"
"-97.86","55.80","THOMPSON A","5062921","2020-02-20 23:00","2020","02","20","23:00","-4.2","","-8.9","","70","","","","23","","17","","24.1","","97.16","","","","-10","","NA"
"-97.86","55.80","THOMPSON A","5062921","2020-02-21 00:00","2020","02","21","00:00","-4.7","","-9.3","","70","","","","25","","15","","24.1","","97.15","","","","-10","","Mainly Clear"
"-97.86","55.80","THOMPSON A","5062921","2020-02-21 01:00","2020","02","21","01:00","-6.7","","-10.6","","74","","","","24","","10","","24.1","","97.12","","","","-11","","NA"
"-97.86","55.80","THOMPSON A","5062921","2020-02-21 02:00","2020","02","21","02:00","-7.6","","-10.5","","80","","","","25","","16","","24.1","","97.09","","","","-14","","NA"
"-97.86","55.80","THOMPSON A","5062921","2020-02-21 03:00","2020","02","21","03:00","-7.8","","-10.6","","80","","","","25","","13","","24.1","","97.08","","","","-14","","Clear"
"-97.86","55.80","THOMPSON A","5062921","2020-02-21 04:00","2020","02","21","04:00","-6.8","","-10.1","","78","","","","27","","13","","24.1","","97.08","","","","-12","","NA"
"-97.86","55.80","THOMPSON A","5062921","2020-02-21 05:00","2020","02","21","05:00","-6.4","","-9.8","","77","","","","25","","20","","24.1","","97.08","","","","-13","","NA"
"-97.86","55.80","THOMPSON A","5062921","2020-02-21 06:00","2020","02","21","06:00","-6.0","","-9.5","","76","","","","26","","19","","24.1","","97.13","","","","-13","","Clear"
"-97.86","55.80","THOMPSON A","5062921","2020-02-21 07:00","2020","02","21","07:00","-6.6","","-10.0","","77","","","","25","","18","","24.1","","97.12","","","","-13","","NA"
"-97.86","55.80","THOMPSON A","5062921","2020-02-21 08:00","2020","02","21","08:00","-7.5","","-10.8","","77","","","","25","","18","","24.1","","97.16","","","","-14","","NA"
"-97.86","55.80","THOMPSON A","5062921","2020-02-21 09:00","2020","02","21","09:00","-4.9","","-9.1","","72","","","","25","","22","","24.1","","97.20","","","","-12","","Mainly Clear"
"-97.86","55.80","THOMPSON A","5062921","2020-02-21 10:00","2020","02","21","10:00","-2.9","","-8.5","","65","","","","26","","22","","24.1","","97.23","","","","-9","","NA"
"-97.86","55.80","THOMPSON A","5062921","2020-02-21 11:00","2020","02","21","11:00","-1.4","","-7.9","","62","","","","25","","24","","24.1","","97.24","","","","-8","","NA"
"-97.86","55.80","THOMPSON A","5062921","2020-02-21 12:00","2020","02","21","12:00","0.5","","-7.4","","56","","","","26","","23","","24.1","","97.23","","","","","","Mainly Clear"
"-97.86","55.80","THOMPSON A","5062921","2020-02-21 13:00","2020","02","21","13:00","1.5","","-7.4","","52","","","","27","","28","","24.1","","97.22","","","","","","NA"
"-97.86","55.80","THOMPSON A","5062921","2020-02-21 14:00","2020","02","21","14:00","2.1","","-6.5","","53","","","","26","","23","","24.1","","97.19","","","","","","NA"
"-97.86","55.80","THOMPSON A","5062921","2020-02-21 15:00","2020","02","21","15:00","2.8","","-7.1","","48","","","","27","","33","","24.1","","97.21","","","","","","Mostly Cloudy"
"-97.86","55.80","THOMPSON A","5062921","2020-02-21 16:00","2020","02","21","16:00","2.6","","-7.8","","46","","","","27","","26","","24.1","","97.22","","","","","","NA"
"-97.86","55.80","THOMPSON A","5062921","2020-02-21 17:00","2020","02","21","17:00","1.5","","-7.4","","52","","","","26","","18","","24.1","","97.24","","","","","","NA"
"-97.86","55.80","THOMPSON A","5062921","2020-02-21 18:00","2020","02","21","18:00","-0.9","","-7.0","","63","","","","24","","9","","24.1","","97.25","","","","-4","","Mostly Cloudy"
"-97.86","55.80","THOMPSON A","5062921","2020-02-21 19:00","2020","02","21","19:00","-1.8","","-7.7","","64","","","","36","","1","","24.1","","97.27","","","","-2","","NA"
"-97.86","55.80","THOMPSON A","5062921","2020-02-21 20:00","2020","02","21","20:00","-2.1","","-8.0","","64","","","","29","","3","","24.1","","97.27","","","","-3","","NA"
"-97.86","55.80","THOMPSON A","5062921","2020-02-21 21:00","2020","02","21","21:00","-2.4","","-8.8","","61","","","","36","","1","","24.1","","97.23","","","","-3","","Mostly Cloudy"
"-97.86","55.80","THOMPSON A","5062921","2020-02-21 22:00","2020","02","21","22:00","-4.3","","-7.8","","77","","","","36","","2","","24.1","","97.25","","","","-5","","NA"
"-97.86","55.80","THOMPSON A","5062921","2020-02-21 23:00","2020","02","21","23:00","-7.3","","-9.3","","86","","","","0","","1","","24.1","","97.26","","","","-8","","NA"
"-97.86","55.80","THOMPSON A","5062921","2020-02-22 00:00","2020","02","22","00:00","-5.5","","-7.9","","83","","","","7","","7","","24.1","","97.27","","","","-9","","Mainly Clear"
"-97.86","55.80","THOMPSON A","5062921","2020-02-22 01:00","2020","02","22","01:00","-6.2","","-8.0","","87","","","","5","","14","","24.1","","97.26","","","","-12","","NA"
"-97.86","55.80","THOMPSON A","5062921","2020-02-22 02:00","2020","02","22","02:00","-6.9","","-9.6","","81","","","","7","","10","","24.1","","97.28","","","","-12","","NA"
"-97.86","55.80","THOMPSON A","5062921","2020-02-22 03:00","2020","02","22","03:00","-8.2","","-10.8","","82","","","","6","","11","","24.1","","97.30","","","","-13","","Mostly Cloudy"
"-97.86","55.80","THOMPSON A","5062921","2020-02-22 04:00","2020","02","22","04:00","-9.6","","-11.8","","84","","","","7","","8","","24.1","","97.31","","","","-14","","NA"
"-97.86","55.80","THOMPSON A","5062921","2020-02-22 05:00","2020","02","22","05:00","-9.9","","-12.2","","83","","","","7","","8","","24.1","","97.34","","","","-14","","NA"
"-97.86","55.80","THOMPSON A","5062921","2020-02-22 06:00","2020","02","22","06:00","-10.8","","-13.3","","82","","","","8","","9","","24.1","","97.35","","","","-16","","Mainly Clear"
"-97.86","55.80","THOMPSON A","5062921","2020-02-22 07:00","2020","02","22","07:00","-11.5","","-14.0","","82","","","","8","","9","","24.1","","97.37","","","","-17","","NA"
"-97.86","55.80","THOMPSON A","5062921","2020-02-22 08:00","2020","02","22","08:00","-12.8","","-15.0","","84","","","","9","","7","","24.1","","97.41","","","","-17","","NA"
"-97.86","55.80","THOMPSON A","5062921","2020-02-22 09:00","2020","02","22","09:00","-12.6","","-15.3","","81","","","","8","","5","","24.1","","97.49","","","","-16","","Mainly Clear"
"-97.86","55.80","THOMPSON A","5062921","2020-02-22 10:00","2020","02","22","10:00","-11.6","","-15.3","","75","","","","6","","6","","24.1","","97.48","","","","-15","","NA"
"-97.86","55.80","THOMPSON A","5062921","2020-02-22 11:00","2020","02","22","11:00","-9.6","","-14.4","","68","","","","7","","9","","24.1","","97.46","","","","-14","","NA"
"-97.86","55.80","THOMPSON A","5062921","2020-02-22 12:00","2020","02","22","12:00","-8.1","","-13.7","","64","","","","3","","7","","24.1","","97.50","","","","-12","","Mainly Clear"
"-97.86","55.80","THOMPSON A","5062921","2020-02-22 13:00","2020","02","22","13:00","-5.9","","-12.9","","58","","","","20","","11","","24.1","","97.53","","","","-11","","NA"
"-97.86","55.80","THOMPSON A","5062921","2020-02-22 14:00","2020","02","22","14:00","-4.2","","-11.8","","56","","","","21","","7","","24.1","","97.51","","","","-7","","NA"
"-97.86","55.80","THOMPSON A","5062921","2020-02-22 15:00","2020","02","22","15:00","-3.0","","-11.8","","51","","","","17","","4","","24.1","","97.51","","","","-5","","Mainly Clear"
"-97.86","55.80","THOMPSON A","5062921","2020-02-22 16:00","2020","02","22","16:00","-2.0","","-10.8","","51","","","","12","","5","","24.1","","97.53","","","","-4","","NA"
"-97.86","55.80","THOMPSON A","5062921","2020-02-22 17:00","2020","02","22","17:00","-2.1","","-10.8","","52","","","","10","","5","","24.1","","97.50","","","","-4","","NA"
"-97.86","55.80","THOMPSON A","5062921","2020-02-22 18:00","2020","02","22","18:00","-3.8","","-10.8","","58","","","","10","","4","","24.1","","97.50","","","","-5","","Mainly Clear"
"-97.86","55.80","THOMPSON A","5062921","2020-02-22 19:00","2020","02","22","19:00","-5.1","","-11.2","","62","","","","8","","6","","24.1","","97.49","","","","-8","","NA"
"-97.86","55.80","THOMPSON A","5062921","2020-02-22 20:00","2020","02","22","20:00","-6.4","","-11.7","","66","","","","8","","7","","24.1","","97.47","","","","-10","","NA"
"-97.86","55.80","THOMPSON A","5062921","2020-02-22 21:00","2020","02","22","21:00","-6.9","","-12.0","","67","","","","7","","9","","24.1","","97.48","","","","-11","","Mostly Cloudy"
"-97.86","55.80","THOMPSON A","5062921","2020-02-22 22:00","2020","02","22","22:00","-8.4","","-12.8","","70","","","","6","","8","","24.1","","97.47","","","","-13","","NA"
"-97.86","55.80","THOMPSON A","5062921","2020-02-22 23:00","2020","02","22","23:00","-9.5","","-13.5","","73","","","","5","","7","","24.1","","97.45","","","","-13","","NA"
"-97.86","55.80","THOMPSON A","5062921","2020-02-23 00:00","2020","02","23","00:00","-9.9","","-13.7","","74","","","","4","","9","","24.1","","97.45","","","","-15","","Cloudy"
"-97.86","55.80","THOMPSON A","5062921","2020-02-23 01:00","2020","02","23","01:00","-10.7","","-14.6","","73","","","","5","","12","","24.1","","97.42","","","","-17","","NA"
"-97.86","55.80","THOMPSON A","5062921","2020-02-23 02:00","2020","02","23","02:00","-11.1","","-14.8","","74","","","","2","","7","","24.1","","97.45","","","","-15","","NA"
"-97.86","55.80","THOMPSON A","5062921","2020-02-23 03:00","2020","02","23","03:00","-11.4","","-15.1","","75","","","","6","","11","","24.1","","97.44","","","","-17","","Cloudy"
"-97.86","55.80","THOMPSON A","5062921","2020-02-23 04:00","2020","02","23","04:00","-12.5","","-16.0","","76","","","","2","","9","","24.1","","97.45","","","","-18","","NA"
"-97.86","55.80","THOMPSON A","5062921","2020-02-23 05:00","2020","02","23","05:00","-13.2","","-16.5","","76","","","","4","","11","","24.1","","97.48","","","","-19","","Snow"
"-97.86","55.80","THOMPSON A","5062921","2020-02-23 06:00","2020","02","23","06:00","-13.2","","-16.2","","78","","","","4","","13","","8.1","","97.53","","","","-20","","Snow"
"-97.86","55.80","THOMPSON A","5062921","2020-02-23 07:00","2020","02","23","07:00","-13.5","","-16.2","","80","","","","2","","11","","24.1","","97.58","","","","-20","","NA"
"-97.86","55.80","THOMPSON A","5062921","2020-02-23 08:00","2020","02","23","08:00","-14.6","","-17.1","","81","","","","4","","6","","24.1","","97.61","","","","-19","","NA"
"-97.86","55.80","THOMPSON A","5062921","2020-02-23 09:00","2020","02","23","09:00","-15.1","","-17.5","","82","","","","32","","9","","24.1","","97.72","","","","-21","","Mainly Clear"
"-97.86","55.80","THOMPSON A","5062921","2020-02-23 10:00","2020","02","23","10:00","-13.0","","-16.4","","76","","","","36","","12","","24.1","","97.76","","","","-20","","NA"
"-97.86","55.80","THOMPSON A","5062921","2020-02-23 11:00","2020","02","23","11:00","-10.9","","-15.2","","71","","","","1","","9","","24.1","","97.78","","","","-16","","NA"
"-97.86","55.80","THOMPSON A","5062921","2020-02-23 12:00","2020","02","23","12:00","-10.2","","-14.7","","70","","","","34","","10","","24.1","","97.86","","","","-15","","Cloudy"
"-97.86","55.80","THOMPSON A","5062921","2020-02-23 13:00","2020","02","23","13:00","-9.0","","-14.0","","68","","","","1","","15","","24.1","","97.90","","","","-16","","NA"
"-97.86","55.80","THOMPSON A","5062921","2020-02-23 14:00","2020","02","23","14:00","-8.4","","-13.3","","68","","","","34","","10","","24.1","","97.95","","","","-13","","NA"
"-97.86","55.80","THOMPSON A","5062921","2020-02-23 15:00","2020","02","23","15:00","-8.0","","-13.1","","67","","","","34","","12","","24.1","","98.05","","","","-13","","Cloudy"
"-97.86","55.80","THOMPSON A","5062921","2020-02-23 16:00","2020","02","23","16:00","-8.5","","-13.1","","70","","","","35","","14","","24.1","","98.15","","","","-15","","NA"
"-97.86","55.80","THOMPSON A","5062921","2020-02-23 17:00","2020","02","23","17:00","-8.7","","-13.1","","71","","","","35","","9","","24.1","","98.23","","","","-13","","NA"
"-97.86","55.80","THOMPSON A","5062921","2020-02-23 18:00","2020","02","23","18:00","-9.4","","-13.7","","71","","","","36","","13","","24.1","","98.33","","","","-15","","Cloudy"
"-97.86","55.80","THOMPSON A","5062921","2020-02-23 19:00","2020","02","23","19:00","-10.2","","-13.3","","78","","","","35","","14","","16.1","","98.40","","","","-17","","Snow"
"-97.86","55.80","THOMPSON A","5062921","2020-02-23 20:00","2020","02","23","20:00","-10.6","","-13.7","","78","","","","2","","14","","16.1","","98.45","","","","-17","","Snow"
"-97.86","55.80","THOMPSON A","5062921","2020-02-23 21:00","2020","02","23","21:00","-11.3","","-14.0","","81","","","","4","","13","","16.1","","98.45","","","","-18","","Snow"
"-97.86","55.80","THOMPSON A","5062921","2020-02-23 22:00","2020","02","23","22:00","-11.8","","-14.6","","80","","","","1","","10","","19.3","","98.54","","","","-17","","Snow"
"-97.86","55.80","THOMPSON A","5062921","2020-02-23 23:00","2020","02","23","23:00","-12.3","","-15.2","","79","","","","2","","5","","24.1","","98.60","","","","-16","","Snow"
"-97.86","55.80","THOMPSON A","5062921","2020-02-24 00:00","2020","02","24","00:00","-13.6","","-16.2","","81","","","","35","","11","","24.1","","98.67","","","","-20","","Snow"
"-97.86","55.80","THOMPSON A","5062921","2020-02-24 01:00","2020","02","24","01:00","-14.8","","-17.5","","80","","","","36","","15","","24.1","","98.80","","","","-23","","Snow"
"-97.86","55.80","THOMPSON A","5062921","2020-02-24 02:00","2020","02","24","02:00","-15.7","","-18.6","","79","","","","2","","15","","24.1","","98.87","","","","-24","","Snow"
"-97.86","55.80","THOMPSON A","5062921","2020-02-24 03:00","2020","02","24","03:00","-18.1","","-20.8","","80","","","","2","","9","","24.1","","98.94","","","","-24","","Mainly Clear"
"-97.86","55.80","THOMPSON A","5062921","2020-02-24 04:00","2020","02","24","04:00","-19.9","","-21.9","","84","","","","36","","9","","24.1","","98.99","","","","-27","","NA"
"-97.86","55.80","THOMPSON A","5062921","2020-02-24 05:00","2020","02","24","05:00","-17.7","","-20.6","","79","","","","2","","12","","24.1","","99.07","","","","-25","","NA"
"-97.86","55.80","THOMPSON A","5062921","2020-02-24 06:00","2020","02","24","06:00","-18.5","","-21.2","","79","","","","36","","10","","24.1","","99.19","","","","-25","","Mostly Cloudy"
"-97.86","55.80","THOMPSON A","5062921","2020-02-24 07:00","2020","02","24","07:00","-17.9","","-20.8","","78","","","","1","","10","","24.1","","99.24","","","","-25","","NA"
"-97.86","55.80","THOMPSON A","5062921","2020-02-24 08:00","2020","02","24","08:00","-18.3","","-21.8","","74","","","","1","","13","","24.1","","99.35","","","","-26","","NA"
"-97.86","55.80","THOMPSON A","5062921","2020-02-24 09:00","2020","02","24","09:00","-18.3","","-21.9","","73","","","","2","","16","","24.1","","99.45","","","","-27","","Snow"
"-97.86","55.80","THOMPSON A","5062921","2020-02-24 10:00","2020","02","24","10:00","-17.7","","-21.9","","70","","","","2","","19","","24.1","","99.56","","","","-27","","Snow"
"-97.86","55.80","THOMPSON A","5062921","2020-02-24 11:00","2020","02","24","11:00","-17.1","","-22.0","","66","","","","1","","14","","24.1","","99.67","","","","-25","","NA"
"-97.86","55.80","THOMPSON A","5062921","2020-02-24 12:00","2020","02","24","12:00","-16.0","","-21.5","","63","","","","4","","17","","24.1","","99.72","","","","-25","","Mostly Cloudy"
"-97.86","55.80","THOMPSON A","5062921","2020-02-24 13:00","2020","02","24","13:00","-15.0","","-21.1","","60","","","","3","","11","","24.1","","99.76","","","","-22","","NA"
"-97.86","55.80","THOMPSON A","5062921","2020-02-24 14:00","2020","02","24","14:00","-14.4","","-21.0","","58","","","","1","","14","","24.1","","99.80","","","","-22","","NA"
"-97.86","55.80","THOMPSON A","5062921","2020-02-24 15:00","2020","02","24","15:00","-14.0","","-20.9","","57","","","","1","","19","","24.1","","99.90","","","","-23","","Clear"
"-97.86","55.80","THOMPSON A","5062921","2020-02-24 16:00","2020","02","24","16:00","-13.9","","-20.7","","57","","","","2","","15","","24.1","","99.99","","","","-22","","NA"
"-97.86","55.80","THOMPSON A","5062921","2020-02-24 17:00","2020","02","24","17:00","-14.7","","-21.2","","58","","","","1","","18","","24.1","","100.10","","","","-23","","NA"
"-97.86","55.80","THOMPSON A","5062921","2020-02-24 18:00","2020","02","24","18:00","-16.5","","-22.2","","62","","","","2","","10","","24.1","","100.21","","","","-23","","Mainly Clear"
"-97.86","55.80","THOMPSON A","5062921","2020-02-24 19:00","2020","02","24","19:00","-19.1","","-23.6","","68","","","","2","","10","","24.1","","100.33","","","","-26","","NA"
"-97.86","55.80","THOMPSON A","5062921","2020-02-24 20:00","2020","02","24","20:00","-17.6","","-22.4","","67","","","","3","","18","","24.1","","100.39","","","","-27","","NA"
"-97.86","55.80","THOMPSON A","5062921","2020-02-24 21:00","2020","02","24","21:00","-18.4","","-22.7","","69","","","","3","","14","","24.1","","100.46","","","","-27","","Cloudy"
"-97.86","55.80","THOMPSON A","5062921","2020-02-24 22:00","2020","02","24","22:00","-18.5","","-22.6","","70","","","","4","","10","","24.1","","100.54","","","","-25","","NA"
"-97.86","55.80","THOMPSON A","5062921","2020-02-24 23:00","2020","02","24","23:00","-18.8","","-22.7","","72","","","","4","","13","","24.1","","100.61","","","","-27","","NA"
"-97.86","55.80","THOMPSON A","5062921","2020-02-25 00:00","2020","02","25","00:00","-19.1","","-22.9","","72","","","","3","","8","","24.1","","100.66","","","","-25","","Cloudy"
"-97.86","55.80","THOMPSON A","5062921","2020-02-25 01:00","2020","02","25","01:00","-19.4","","-23.2","","72","","","","4","","8","","24.1","","100.74","","","","-26","","Snow"
"-97.86","55.80","THOMPSON A","5062921","2020-02-25 02:00","2020","02","25","02:00","-19.8","","-23.4","","73","","","","2","","7","","24.1","","100.80","","","","-25","","Snow"
"-97.86","55.80","THOMPSON A","5062921","2020-02-25 03:00","2020","02","25","03:00","-21.0","","-24.3","","75","","","","1","","8","","24.1","","100.84","","","","-27","","Snow"
"-97.86","55.80","THOMPSON A","5062921","2020-02-25 04:00","2020","02","25","04:00","-22.2","","-25.2","","77","","","","1","","7","","24.1","","100.85","","","","-28","","Snow"
"-97.86","55.80","THOMPSON A","5062921","2020-02-25 05:00","2020","02","25","05:00","-22.9","","-25.6","","79","","","","36","","2","","24.1","","100.92","","","","-25","","Snow"
"-97.86","55.80","THOMPSON A","5062921","2020-02-25 06:00","2020","02","25","06:00","-24.3","","-26.9","","79","","","","36","","1","","24.1","","100.96","","","","-25","","Snow"
"-97.86","55.80","THOMPSON A","5062921","2020-02-25 07:00","2020","02","25","07:00","-26.2","","-28.9","","78","","","","35","","4","","24.1","","101.01","","","","-30","","NA"
"-97.86","55.80","THOMPSON A","5062921","2020-02-25 08:00","2020","02","25","08:00","-25.5","","-28.4","","77","","","","32","","5","","24.1","","101.05","","","","-31","","NA"
"-97.86","55.80","THOMPSON A","5062921","2020-02-25 09:00","2020","02","25","09:00","-24.5","","-27.5","","76","","","","33","","10","","24.1","","101.07","","","","-33","","Mostly Cloudy"
"-97.86","55.80","THOMPSON A","5062921","2020-02-25 10:00","2020","02","25","10:00","-22.9","","-26.3","","74","","","","36","","2","","24.1","","101.08","","","","-25","","NA"
"-97.86","55.80","THOMPSON A","5062921","2020-02-25 11:00","2020","02","25","11:00","-19.9","","-24.3","","68","","","","2","","3","","24.1","","101.08","","","","-22","","NA"
"-97.86","55.80","THOMPSON A","5062921","2020-02-25 12:00","2020","02","25","12:00","-17.2","","-22.6","","63","","","","33","","5","","24.1","","101.07","","","","-21","","Mainly Clear"
"-97.86","55.80","THOMPSON A","5062921","2020-02-25 13:00","2020","02","25","13:00","-15.6","","-21.5","","61","","","","1","","6","","24.1","","101.03","","","","-20","","NA"
"-97.86","55.80","THOMPSON A","5062921","2020-02-25 14:00","2020","02","25","14:00","-14.6","","-21.1","","58","","","","33","","8","","24.1","","101.01","","","","-20","","NA"
"-97.86","55.80","THOMPSON A","5062921","2020-02-25 15:00","2020","02","25","15:00","-13.9","","-21.0","","56","","","","33","","3","","24.1","","100.97","","","","-16","","Mainly Clear"
"-97.86","55.80","THOMPSON A","5062921","2020-02-25 16:00","2020","02","25","16:00","-14.1","","-21.4","","54","","","","35","","8","","24.1","","100.98","","","","-19","","NA"
"-97.86","55.80","THOMPSON A","5062921","2020-02-25 17:00","2020","02","25","17:00","-14.1","","-21.5","","54","","","","1","","5","","24.1","","100.97","","","","-18","","NA"
"-97.86","55.80","THOMPSON A","5062921","2020-02-25 18:00","2020","02","25","18:00","-17.2","","-22.6","","63","","","","2","","4","","24.1","","100.97","","","","-20","","Mainly Clear"
"-97.86","55.80","THOMPSON A","5062921","2020-02-25 19:00","2020","02","25","19:00","-22.2","","-26.7","","67","","","","4","","6","","24.1","","100.97","","","","-28","","NA"
"-97.86","55.80","THOMPSON A","5062921","2020-02-25 20:00","2020","02","25","20:00","-24.5","","-28.0","","73","","","","2","","6","","24.1","","100.94","","","","-30","","NA"
"-97.86","55.80","THOMPSON A","5062921","2020-02-25 21:00","2020","02","25","21:00","-23.9","","-26.8","","78","","","","2","","7","","24.1","","100.91","","","","-30","","Clear"
"-97.86","55.80","THOMPSON A","5062921","2020-02-25 22:00","2020","02","25","22:00","-26.6","","-29.6","","77","","","","36","","1","","24.1","","100.89","","","","-28","","NA"
"-97.86","55.80","THOMPSON A","5062921","2020-02-25 23:00","2020","02","25","23:00","-27.2","","-30.2","","77","","","","36","","1","","24.1","","100.85","","","","-28","","NA"
"-97.86","55.80","THOMPSON A","5062921","2020-02-26 00:00","2020","02","26","00:00","-27.2","","-30.1","","77","","","","23","","3","","24.1","","100.82","","","","-30","","Clear"
"-97.86","55.80","THOMPSON A","5062921","2020-02-26 01:00","2020","02","26","01:00","-29.2","","-32.2","","76","","","","36","","1","","24.1","","100.81","","","","-30","","NA"
"-97.86","55.80","THOMPSON A","5062921","2020-02-26 02:00","2020","02","26","02:00","-29.1","","-32.0","","76","","","","36","","2","","24.1","","100.81","","","","-31","","NA"
"-97.86","55.80","THOMPSON A","5062921","2020-02-26 03:00","2020","02","26","03:00","-30.7","","-33.8","","75","","","","0","","1","","24.1","","100.77","","","","-32","","Clear"
"-97.86","55.80","THOMPSON A","5062921","2020-02-26 04:00","2020","02","26","04:00","-31.5","","-34.7","","74","","","","6","","3","","24.1","","100.73","","","","-35","","NA"
"-97.86","55.80","THOMPSON A","5062921","2020-02-26 05:00","2020","02","26","05:00","-31.4","","-34.6","","74","","","","5","","3","","24.1","","100.70","","","","-35","","NA"
"-97.86","55.80","THOMPSON A","5062921","2020-02-26 06:00","2020","02","26","06:00","-31.6","","-34.9","","74","","","","36","","2","","24.1","","100.66","","","","-34","","Clear"
"-97.86","55.80","THOMPSON A","5062921","2020-02-26 07:00","2020","02","26","07:00","-31.9","","-35.2","","73","","","","","","0","","24.1","","100.63","","","","","","NA"
"-97.86","55.80","THOMPSON A","5062921","2020-02-26 08:00","2020","02","26","08:00","-32.8","","-36.2","","73","","","","36","","1","","24.1","","100.59","","","","-34","","NA"
"-97.86","55.80","THOMPSON A","5062921","2020-02-26 09:00","2020","02","26","09:00","-31.8","","-35.3","","72","","","","8","","3","","24.1","","100.55","","","","-35","","Mainly Clear"
"-97.86","55.80","THOMPSON A","5062921","2020-02-26 10:00","2020","02","26","10:00","-24.7","","-28.2","","74","","","","19","","4","","24.1","","100.52","","","","-29","","NA"
"-97.86","55.80","THOMPSON A","5062921","2020-02-26 11:00","2020","02","26","11:00","-17.5","","-23.2","","61","","","","15","","4","","24.1","","100.45","","","","-21","","NA"
"-97.86","55.80","THOMPSON A","5062921","2020-02-26 12:00","2020","02","26","12:00","-15.1","","-23.9","","48","","","","17","","5","","24.1","","100.40","","","","-19","","Mainly Clear"
"-97.86","55.80","THOMPSON A","5062921","2020-02-26 13:00","2020","02","26","13:00","-13.4","","-23.6","","43","","","","17","","9","","24.1","","100.29","","","","-19","","NA"
"-97.86","55.80","THOMPSON A","5062921","2020-02-26 14:00","2020","02","26","14:00","-12.0","","-24.0","","37","","","","16","","12","","24.1","","100.20","","","","-18","","NA"
"-97.86","55.80","THOMPSON A","5062921","2020-02-26 15:00","2020","02","26","15:00","-11.7","","-23.3","","38","","","","19","","7","","24.1","","100.11","","","","-16","","Mainly Clear"
"-97.86","55.80","THOMPSON A","5062921","2020-02-26 16:00","2020","02","26","16:00","-11.3","","-23.1","","38","","","","16","","9","","24.1","","100.02","","","","-16","","NA"
"-97.86","55.80","THOMPSON A","5062921","2020-02-26 17:00","2020","02","26","17:00","-12.1","","-23.8","","38","","","","17","","7","","24.1","","99.96","","","","-16","","NA"
"-97.86","55.80","THOMPSON A","5062921","2020-02-26 18:00","2020","02","26","18:00","-14.4","","-24.0","","45","","","","17","","5","","24.1","","99.95","","","","-18","","Mainly Clear"
"-97.86","55.80","THOMPSON A","5062921","2020-02-26 19:00","2020","02","26","19:00","-16.1","","-24.4","","50","","","","13","","4","","24.1","","99.92","","","","-19","","NA"
"-97.86","55.80","THOMPSON A","5062921","2020-02-26 20:00","2020","02","26","20:00","-18.4","","-25.7","","53","","","","15","","3","","24.1","","99.88","","","","-21","","NA"
"-97.86","55.80","THOMPSON A","5062921","2020-02-26 21:00","2020","02","26","21:00","-17.9","","-24.8","","55","","","","12","","4","","24.1","","99.86","","","","-21","","Mainly Clear"
"-97.86","55.80","THOMPSON A","5062921","2020-02-26 22:00","2020","02","26","22:00","-18.8","","-24.9","","59","","","","11","","4","","24.1","","99.82","","","","-22","","NA"
"-97.86","55.80","THOMPSON A","5062921","2020-02-26 23:00","2020","02","26","23:00","-19.4","","-24.9","","62","","","","12","","4","","24.1","","99.78","","","","-23","","NA"
"-97.86","55.80","THOMPSON A","5062921","2020-02-27 00:00","2020","02","27","00:00","-20.7","","-25.7","","65","","","","14","","3","","24.1","","99.75","","","","-23","","Mostly Cloudy"
"-97.86","55.80","THOMPSON A","5062921","2020-02-27 01:00","2020","02","27","01:00","-20.2","","-25.2","","65","","","","36","","3","","24.1","","99.74","","","","-23","","NA"
"-97.86","55.80","THOMPSON A","5062921","2020-02-27 02:00","2020","02","27","02:00","-19.8","","-24.5","","66","","","","12","","4","","24.1","","99.67","","","","-23","","NA"
"-97.86","55.80","THOMPSON A","5062921","2020-02-27 03:00","2020","02","27","03:00","-20.4","","-24.7","","69","","","","11","","4","","24.1","","99.63","","","","-24","","Mainly Clear"
"-97.86","55.80","THOMPSON A","5062921","2020-02-27 04:00","2020","02","27","04:00","-20.9","","-24.9","","71","","","","11","","4","","24.1","","99.61","","","","-24","","NA"
"-97.86","55.80","THOMPSON A","5062921","2020-02-27 05:00","2020","02","27","05:00","-21.4","","-24.8","","74","","","","9","","5","","24.1","","99.57","","","","-26","","NA"
"-97.86","55.80","THOMPSON A","5062921","2020-02-27 06:00","2020","02","27","06:00","-21.9","","-25.2","","75","","","","10","","3","","24.1","","99.54","","","","-25","","Mostly Cloudy"
"-97.86","55.80","THOMPSON A","5062921","2020-02-27 07:00","2020","02","27","07:00","-21.1","","-24.5","","75","","","","12","","5","","24.1","","99.50","","","","-26","","NA"
"-97.86","55.80","THOMPSON A","5062921","2020-02-27 08:00","2020","02","27","08:00","-21.3","","-24.7","","74","","","","9","","4","","24.1","","99.50","","","","-25","","NA"
"-97.86","55.80","THOMPSON A","5062921","2020-02-27 09:00","2020","02","27","09:00","-20.1","","-24.1","","71","","","","15","","4","","24.1","","99.51","","","","-24","","Mostly Cloudy"
"-97.86","55.80","THOMPSON A","5062921","2020-02-27 10:00","2020","02","27","10:00","-16.8","","-22.5","","62","","","","16","","11","","24.1","","99.48","","","","-24","","NA"
"-97.86","55.80","THOMPSON A","5062921","2020-02-27 11:00","2020","02","27","11:00","-14.3","","-21.6","","55","","","","16","","3","","24.1","","99.44","","","","-16","","NA"
"-97.86","55.80","THOMPSON A","5062921","2020-02-27 12:00","2020","02","27","12:00","-11.7","","-20.4","","49","","","","18","","6","","24.1","","99.40","","","","-15","","Mostly Cloudy"
"-97.86","55.80","THOMPSON A","5062921","2020-02-27 13:00","2020","02","27","13:00","-10.5","","-19.3","","49","","","","20","","15","","24.1","","99.31","","","","-17","","NA"
"-97.86","55.80","THOMPSON A","5062921","2020-02-27 14:00","2020","02","27","14:00","-9.4","","-19.3","","45","","","","20","","13","","24.1","","99.28","","","","-15","","NA"
"-97.86","55.80","THOMPSON A","5062921","2020-02-27 15:00","2020","02","27","15:00","-8.9","","-18.3","","47","","","","19","","9","","24.1","","99.25","","","","-14","","Cloudy"
"-97.86","55.80","THOMPSON A","5062921","2020-02-27 16:00","2020","02","27","16:00","-9.1","","-17.6","","50","","","","19","","14","","19.3","","99.22","","","","-15","","Snow"
"-97.86","55.80","THOMPSON A","5062921","2020-02-27 17:00","2020","02","27","17:00","-9.0","","-16.4","","56","","","","19","","8","","19.3","","99.21","","","","-13","","Snow"
"-97.86","55.80","THOMPSON A","5062921","2020-02-27 18:00","2020","02","27","18:00","-9.4","","-16.6","","56","","","","15","","9","","24.1","","99.20","","","","-14","","Snow"
"-97.86","55.80","THOMPSON A","5062921","2020-02-27 19:00","2020","02","27","19:00","-9.9","","-17.0","","57","","","","16","","6","","24.1","","99.17","","","","-13","","Snow"
"-97.86","55.80","THOMPSON A","5062921","2020-02-27 20:00","2020","02","27","20:00","-10.2","","-17.2","","57","","","","16","","5","","24.1","","99.17","","","","-13","","NA"
"-97.86","55.80","THOMPSON A","5062921","2020-02-27 21:00","2020","02","27","21:00","-10.6","","-17.3","","58","","","","17","","4","","24.1","","99.15","","","","-13","","Cloudy"
"-97.86","55.80","THOMPSON A","5062921","2020-02-27 22:00","2020","02","27","22:00","-10.4","","-16.9","","60","","","","20","","10","","24.1","","99.19","","","","-16","","Snow"
"-97.86","55.80","THOMPSON A","5062921","2020-02-27 23:00","2020","02","27","23:00","-10.6","","-16.8","","61","","","","20","","10","","24.1","","99.19","","","","-16","","Snow"
"-97.86","55.80","THOMPSON A","5062921","2020-02-28 00:00","2020","02","28","00:00","-11.0","","-16.8","","63","","","","19","","6","","24.1","","99.18","","","","-15","","Snow"
"-97.86","55.80","THOMPSON A","5062921","2020-02-28 01:00","2020","02","28","01:00","-11.3","","-16.6","","65","","","","20","","7","","16.1","","99.18","","","","-16","","Snow"
"-97.86","55.80","THOMPSON A","5062921","2020-02-28 02:00","2020","02","28","02:00","-11.6","","-16.0","","70","","","","19","","7","","16.1","","99.16","","","","-16","","Snow"
"-97.86","55.80","THOMPSON A","5062921","2020-02-28 03:00","2020","02","28","03:00","-12.9","","-16.4","","75","","","","19","","5","","24.1","","99.11","","","","-16","","Snow"
"-97.86","55.80","THOMPSON A","5062921","2020-02-28 04:00","2020","02","28","04:00","-16.8","","-19.4","","81","","","","","","0","","24.1","","99.10","","","","","","Snow"
"-97.86","55.80","THOMPSON A","5062921","2020-02-28 05:00","2020","02","28","05:00","-14.3","","-16.8","","81","","","","18","","5","","24.1","","99.08","","","","-18","","Snow"
"-97.86","55.80","THOMPSON A","5062921","2020-02-28 06:00","2020","02","28","06:00","-13.1","","-16.1","","78","","","","17","","4","","24.1","","99.06","","","","-16","","Snow"
"-97.86","55.80","THOMPSON A","5062921","2020-02-28 07:00","2020","02","28","07:00","-13.1","","-16.2","","78","","","","19","","4","","24.1","","99.06","","","","-16","","Snow"
"-97.86","55.80","THOMPSON A","5062921","2020-02-28 08:00","2020","02","28","08:00","-13.8","","-16.7","","79","","","","16","","4","","24.1","","99.01","","","","-17","","NA"
"-97.86","55.80","THOMPSON A","5062921","2020-02-28 09:00","2020","02","28","09:00","-12.5","","-15.9","","76","","","","18","","7","","24.1","","98.96","","","","-17","","Mainly Clear"
"-97.86","55.80","THOMPSON A","5062921","2020-02-28 10:00","2020","02","28","10:00","-10.4","","-15.1","","69","","","","21","","10","","24.1","","98.93","","","","-16","","NA"
"-97.86","55.80","THOMPSON A","5062921","2020-02-28 11:00","2020","02","28","11:00","-9.6","","-14.2","","69","","","","18","","9","","24.1","","98.85","","","","-14","","NA"
"-97.86","55.80","THOMPSON A","5062921","2020-02-28 12:00","2020","02","28","12:00","-8.3","","-13.2","","68","","","","15","","8","","24.1","","98.71","","","","-12","","Cloudy"
"-97.86","55.80","THOMPSON A","5062921","2020-02-28 13:00","2020","02","28","13:00","-6.6","","-12.9","","61","","","","19","","14","","24.1","","98.65","","","","-12","","NA"
"-97.86","55.80","THOMPSON A","5062921","2020-02-28 14:00","2020","02","28","14:00","-6.1","","-12.3","","62","","","","16","","15","","24.1","","98.52","","","","-12","","NA"
"-97.86","55.80","THOMPSON A","5062921","2020-02-28 15:00","2020","02","28","15:00","-6.1","","-12.0","","63","","","","18","","14","","24.1","","98.43","","","","-12","","Mostly Cloudy"
"-97.86","55.80","THOMPSON A","5062921","2020-02-28 16:00","2020","02","28","16:00","-7.0","","-10.3","","78","","","","16","","12","","2.4","","98.36","","","","-12","","Snow"
"-97.86","55.80","THOMPSON A","5062921","2020-02-28 17:00","2020","02","28","17:00","-7.0","","-8.9","","86","","","","14","","8","","1.2","","98.25","","","","-11","","Snow"
"-97.86","55.80","THOMPSON A","5062921","2020-02-28 18:00","2020","02","28","18:00","-6.8","","-8.4","","89","","","","14","","7","","1.6","","98.13","","","","-10","","Snow"
"-97.86","55.80","THOMPSON A","5062921","2020-02-28 19:00","2020","02","28","19:00","-6.7","","-8.1","","90","","","","16","","7","","2.4","","98.13","","","","-10","","Snow"
"-97.86","55.80","THOMPSON A","5062921","2020-02-28 20:00","2020","02","28","20:00","-6.5","","-7.9","","90","","","","18","","7","","4.8","","98.07","","","","-10","","Snow"
"-97.86","55.80","THOMPSON A","5062921","2020-02-28 21:00","2020","02","28","21:00","-6.1","","-7.4","","91","","","","20","","12","","4.8","","98.00","","","","-11","","Snow"
"-97.86","55.80","THOMPSON A","5062921","2020-02-28 22:00","2020","02","28","22:00","-6.4","","-7.7","","91","","","","19","","10","","4.8","","97.92","","","","-11","","Snow"
"-97.86","55.80","THOMPSON A","5062921","2020-02-28 23:00","2020","02","28","23:00","-6.5","","-7.8","","91","","","","18","","5","","2.4","","97.85","","","","-9","","Snow"
"-97.86","55.80","THOMPSON A","5062921","2020-02-29 00:00","2020","02","29","00:00","-6.3","","-7.5","","91","","","","16","","4","","3.2","","97.79","","","","-8","","Snow"
"-97.86","55.80","THOMPSON A","5062921","2020-02-29 01:00","2020","02","29","01:00","-6.2","","-7.5","","91","","","","18","","6","","9.7","","97.75","","","","-9","","Snow"
"-97.86","55.80","THOMPSON A","5062921","2020-02-29 02:00","2020","02","29","02:00","-6.2","","-7.4","","91","","","","18","","4","","16.1","","97.72","","","","-8","","Snow"
"-97.86","55.80","THOMPSON A","5062921","2020-02-29 03:00","2020","02","29","03:00","-6.2","","-7.5","","91","","","","20","","6","","19.3","","97.69","","","","-9","","Snow"
"-97.86","55.80","THOMPSON A","5062921","2020-02-29 04:00","2020","02","29","04:00","-6.3","","-7.5","","91","","","","22","","5","","19.3","","97.69","","","","-9","","Snow"
"-97.86","55.80","THOMPSON A","5062921","2020-02-29 05:00","2020","02","29","05:00","-6.4","","-7.7","","91","","","","19","","5","","12.9","","97.69","","","","-9","","Snow"
"-97.86","55.80","THOMPSON A","5062921","2020-02-29 06:00","2020","02","29","06:00","-6.5","","-7.6","","92","","","","9","","4","","16.1","","97.67","","","","-8","","Snow"
"-97.86","55.80","THOMPSON A","5062921","2020-02-29 07:00","2020","02","29","07:00","-6.6","","-7.6","","92","","","","36","","3","","16.1","","97.69","","","","-8","","Snow"
"-97.86","55.80","THOMPSON A","5062921","2020-02-29 08:00","2020","02","29","08:00","-6.6","","-7.6","","92","","","","18","","4","","16.1","","97.69","","","","-9","","Snow"
"-97.86","55.80","THOMPSON A","5062921","2020-02-29 09:00","2020","02","29","09:00","-6.3","","-7.5","","91","","","","21","","6","","16.1","","97.71","","","","-9","","Snow"
"-97.86","55.80","THOMPSON A","5062921","2020-02-29 10:00","2020","02","29","10:00","-6.0","","-7.4","","90","","","","23","","5","","16.1","","97.72","","","","-8","","Snow"
"-97.86","55.80","THOMPSON A","5062921","2020-02-29 11:00","2020","02","29","11:00","-5.4","","-7.1","","87","","","","25","","4","","19.3","","97.76","","","","-7","","Snow"
"-97.86","55.80","THOMPSON A","5062921","2020-02-29 12:00","2020","02","29","12:00","-4.5","","-6.4","","87","","","","23","","5","","24.1","","97.77","","","","-7","","Cloudy"
"-97.86","55.80","THOMPSON A","5062921","2020-02-29 13:00","2020","02","29","13:00","-3.8","","-5.9","","85","","","","36","","2","","24.1","","97.75","","","","-5","","NA"
"-97.86","55.80","THOMPSON A","5062921","2020-02-29 14:00","2020","02","29","14:00","-3.1","","-5.6","","83","","","","1","","6","","24.1","","97.73","","","","-6","","NA"
"-97.86","55.80","THOMPSON A","5062921","2020-02-29 15:00","2020","02","29","15:00","-3.0","","-5.4","","83","","","","34","","7","","24.1","","97.78","","","","-6","","Cloudy"
"-97.86","55.80","THOMPSON A","5062921","2020-02-29 16:00","2020","02","29","16:00","-3.2","","-5.5","","84","","","","3","","9","","24.1","","97.79","","","","-7","","NA"
"-97.86","55.80","THOMPSON A","5062921","2020-02-29 17:00","2020","02","29","17:00","-3.7","","-5.6","","86","","","","5","","7","","24.1","","97.83","","","","-7","","Snow"
"-97.86","55.80","THOMPSON A","5062921","2020-02-29 18:00","2020","02","29","18:00","-4.0","","-5.6","","89","","","","6","","5","","19.3","","97.85","","","","-6","","Snow"
"-97.86","55.80","THOMPSON A","5062921","2020-02-29 19:00","2020","02","29","19:00","-4.3","","-5.7","","91","","","","6","","10","","19.3","","97.88","","","","-8","","Snow"
"-97.86","55.80","THOMPSON A","5062921","2020-02-29 20:00","2020","02","29","20:00","-4.7","","-5.8","","92","","","","5","","13","","9.7","","97.90","","","","-10","","Snow"
"-97.86","55.80","THOMPSON A","5062921","2020-02-29 21:00","2020","02","29","21:00","-5.1","","-6.0","","93","","","","5","","13","","4.0","","97.90","","","","-10","","Snow"
"-97.86","55.80","THOMPSON A","5062921","2020-02-29 22:00","2020","02","29","22:00","-5.5","","-6.3","","95","","","","6","","10","","0.8","","97.90","","","","-10","","Freezing Fog"
"-97.86","55.80","THOMPSON A","5062921","2020-02-29 23:00","2020","02","29","23:00","-6.0","","-6.8","","94","","","","5","","12","","0.8","","97.89","","","","-11","","Freezing Fog"
