"Longitude (x)","Latitude (y)","Station Name","Climate ID","Date/Time (LST)","Year","Month","Day","Time (LST)","Temp (°C)","Temp Flag","Dew Point Temp (°C)","Dew Point Temp Flag","Rel Hum (%)","Rel Hum Flag","Precip. Amount (mm)","Precip. Amount Flag","Wind Dir (10s deg)","Wind Dir Flag","Wind Spd (km/h)","Wind Spd Flag","Visibility (km)","Visibility Flag","Stn Press (kPa)","Stn Press Flag","Hmdx","Hmdx Flag","Wind Chill","Wind Chill Flag","Weather"
"-139.84","67.57","OLD CROW A","2100801","2021-03-01 00:00","2021","03","01","00:00"
"-139.84","67.57","OLD CROW A","2100801","2021-03-01 01:00","2021","03","01","01:00"
"-139.84","67.57","OLD CROW A","2100801","2021-03-01 02:00","2021","03","01","02:00"
"-139.84","67.57","OLD CROW A","2100801","2021-03-01 03:00","2021","03","01","03:00"
"-139.84","67.57","OLD CROW A","2100801","2021-03-01 04:00","2021","03","01","04:00"
"-139.84","67.57","OLD CROW A","2100801","2021-03-01 05:00","2021","03","01","05:00","-34.4","","-38.5","","67","","","","9","","3","","32.2","","98.23","","","","-38","","NA"
"-139.84","67.57","OLD CROW A","2100801","2021-03-01 06:00","2021","03","01","06:00","-31.1","","-35.6","","66","","","","7","","14","","32.2","","98.07","","","","-42","","NA"
"-139.84","67.57","OLD CROW A","2100801","2021-03-01 07:00","2021","03","01","07:00","-30.7","","-35.5","","64","","","","8","","18","","32.2","","97.92","","","","-43","","Mostly Cloudy"
"-139.84","67.57","OLD CROW A","2100801","2021-03-01 08:00","2021","03","01","08:00","-30.1","","-34.8","","65","","","","6","","15","","32.2","","97.76","","","","-42","","NA"
"-139.84","67.57","OLD CROW A","2100801","2021-03-01 09:00","2021","03","01","09:00","-29.3","","-34.3","","63","","","","4","","22","","40.2","","97.62","","","","-43","","NA"
"-139.84","67.57","OLD CROW A","2100801","2021-03-01 10:00","2021","03","01","10:00","-28.8","","-34.2","","61","","","","4","","19","","40.2","","97.56","","","","-41","","Mostly Cloudy"
"-139.84","67.57","OLD CROW A","2100801","2021-03-01 11:00","2021","03","01","11:00","-28.4","","-34.0","","60","","","","5","","19","","40.2","","97.44","","","","-41","","NA"
"-139.84","67.57","OLD CROW A","2100801","2021-03-01 12:00","2021","03","01","12:00","-28.0","","-34.0","","58","","","","6","","21","","56.3","","97.34","","","","-41","","NA"
"-139.84","67.57","OLD CROW A","2100801","2021-03-01 13:00","2021","03","01","13:00","-28.1","","-34.1","","57","","","","5","","23","","56.3","","97.25","","","","-42","","Mostly Cloudy"
"-139.84","67.57","OLD CROW A","2100801","2021-03-01 14:00","2021","03","01","14:00","-27.7","","-33.7","","57","","","","6","","21","","56.3","","97.12","","","","-40","","NA"
"-139.84","67.57","OLD CROW A","2100801","2021-03-01 15:00","2021","03","01","15:00"
"-139.84","67.57","OLD CROW A","2100801","2021-03-01 16:00","2021","03","01","16:00"
"-139.84","67.57","OLD CROW A","2100801","2021-03-01 17:00","2021","03","01","17:00"
"-139.84","67.57","OLD CROW A","2100801","2021-03-01 18:00","2021","03","01","18:00"
"-139.84","67.57","OLD CROW A","2100801","2021-03-01 19:00","2021","03","01","19:00"
"-139.84","67.57","OLD CROW A","2100801","2021-03-01 20:00","2021","03","01","20:00"
"-139.84","67.57","OLD CROW A","2100801","2021-03-01 21:00","2021","03","01","21:00"
"-139.84","67.57","OLD CROW A","2100801","2021-03-01 22:00","2021","03","01","22:00"
"-139.84","67.57","OLD CROW A","2100801","2021-03-01 23:00","2021","03","01","23:00"
"-139.84","67.57","OLD CROW A","2100801","2021-03-02 00:00","2021","03","02","00:00"
"-139.84","67.57","OLD CROW A","2100801","2021-03-02 01:00","2021","03","02","01:00"
"-139.84","67.57","OLD CROW A","2100801","2021-03-02 02:00","2021","03","02","02:00"
"-139.84","67.57","OLD CROW A","2100801","2021-03-02 03:00","2021","03","02","03:00"
"-139.84","67.57","OLD CROW A","2100801","2021-03-02 04:00","2021","03","02","04:00"
"-139.84","67.57","OLD CROW A","2100801","2021-03-02 05:00","2021","03","02","05:00","-27.5","","-32.5","","64","","","","5","","15","","4.0","","96.62","","","","-38","","Snow,Fog"
"-139.84","67.57","OLD CROW A","2100801","2021-03-02 06:00","2021","03","02","06:00","-28.0","","-33.0","","63","","","","7","","14","","4.0","","96.64","","","","-39","","Snow,Blowing Snow"
"-139.84","67.57","OLD CROW A","2100801","2021-03-02 07:00","2021","03","02","07:00","-28.6","","-33.7","","62","","","","4","","18","","4.0","","96.66","","","","-41","","Snow,Blowing Snow"
"-139.84","67.57","OLD CROW A","2100801","2021-03-02 08:00","2021","03","02","08:00","-28.3","","-33.5","","61","","","","3","","25","","12.9","","96.69","","","","-42","","Snow,Blowing Snow"
"-139.84","67.57","OLD CROW A","2100801","2021-03-02 09:00","2021","03","02","09:00","-28.5","","-34.1","","60","","","","4","","22","","16.1","","96.72","","","","-42","","Snow,Blowing Snow"
"-139.84","67.57","OLD CROW A","2100801","2021-03-02 10:00","2021","03","02","10:00","-28.2","","-33.8","","60","","","","3","","21","","16.1","","96.76","","","","-41","","Snow,Blowing Snow"
"-139.84","67.57","OLD CROW A","2100801","2021-03-02 11:00","2021","03","02","11:00","-27.8","","-33.6","","59","","","","4","","21","","16.1","","96.80","","","","-41","","Snow,Blowing Snow"
"-139.84","67.57","OLD CROW A","2100801","2021-03-02 12:00","2021","03","02","12:00","-27.1","","-33.2","","57","","","","4","","19","","14.5","","96.84","","","","-39","","Snow,Blowing Snow"
"-139.84","67.57","OLD CROW A","2100801","2021-03-02 13:00","2021","03","02","13:00","-27.1","","-33.4","","57","","","","4","","21","","16.1","","96.87","","","","-40","","Snow,Blowing Snow"
"-139.84","67.57","OLD CROW A","2100801","2021-03-02 14:00","2021","03","02","14:00","-27.9","","-33.7","","58","","","","3","","30","","32.2","","96.92","","","","-43","","Blowing Snow"
"-139.84","67.57","OLD CROW A","2100801","2021-03-02 15:00","2021","03","02","15:00"
"-139.84","67.57","OLD CROW A","2100801","2021-03-02 16:00","2021","03","02","16:00"
"-139.84","67.57","OLD CROW A","2100801","2021-03-02 17:00","2021","03","02","17:00"
"-139.84","67.57","OLD CROW A","2100801","2021-03-02 18:00","2021","03","02","18:00"
"-139.84","67.57","OLD CROW A","2100801","2021-03-02 19:00","2021","03","02","19:00"
"-139.84","67.57","OLD CROW A","2100801","2021-03-02 20:00","2021","03","02","20:00"
"-139.84","67.57","OLD CROW A","2100801","2021-03-02 21:00","2021","03","02","21:00"
"-139.84","67.57","OLD CROW A","2100801","2021-03-02 22:00","2021","03","02","22:00"
"-139.84","67.57","OLD CROW A","2100801","2021-03-02 23:00","2021","03","02","23:00"
"-139.84","67.57","OLD CROW A","2100801","2021-03-03 00:00","2021","03","03","00:00"
"-139.84","67.57","OLD CROW A","2100801","2021-03-03 01:00","2021","03","03","01:00"
"-139.84","67.57","OLD CROW A","2100801","2021-03-03 02:00","2021","03","03","02:00"
"-139.84","67.57","OLD CROW A","2100801","2021-03-03 03:00","2021","03","03","03:00"
"-139.84","67.57","OLD CROW A","2100801","2021-03-03 04:00","2021","03","03","04:00"
"-139.84","67.57","OLD CROW A","2100801","2021-03-03 05:00","2021","03","03","05:00","-27.9","","-32.9","","63","","","","3","","21","","56.3","","97.79","","","","-41","","Blowing Snow"
"-139.84","67.57","OLD CROW A","2100801","2021-03-03 06:00","2021","03","03","06:00","-27.7","","-32.8","","63","","","","2","","22","","56.3","","97.83","","","","-41","","Blowing Snow"
"-139.84","67.57","OLD CROW A","2100801","2021-03-03 07:00","2021","03","03","07:00","-27.6","","-32.8","","62","","","","3","","21","","56.3","","97.92","","","","-40","","Blowing Snow"
"-139.84","67.57","OLD CROW A","2100801","2021-03-03 08:00","2021","03","03","08:00","-27.3","","-32.6","","61","","","","4","","18","","40.2","","97.96","","","","-39","","Blowing Snow"
"-139.84","67.57","OLD CROW A","2100801","2021-03-03 09:00","2021","03","03","09:00","-26.6","","-32.3","","60","","","","3","","23","","40.2","","98.01","","","","-40","","Blowing Snow"
"-139.84","67.57","OLD CROW A","2100801","2021-03-03 10:00","2021","03","03","10:00","-26.4","","-32.0","","60","","","","4","","19","","40.2","","98.06","","","","-38","","Mostly Cloudy"
"-139.84","67.57","OLD CROW A","2100801","2021-03-03 11:00","2021","03","03","11:00","-26.1","","-31.9","","59","","","","4","","20","","40.2","","98.13","","","","-38","","Blowing Snow"
"-139.84","67.57","OLD CROW A","2100801","2021-03-03 12:00","2021","03","03","12:00","-25.8","","-31.9","","58","","","","4","","23","","40.2","","98.22","","","","-39","","Blowing Snow"
"-139.84","67.57","OLD CROW A","2100801","2021-03-03 13:00","2021","03","03","13:00","-25.6","","-31.6","","58","","","","4","","21","","40.2","","98.29","","","","-38","","Snow,Blowing Snow"
"-139.84","67.57","OLD CROW A","2100801","2021-03-03 14:00","2021","03","03","14:00","-25.3","","-31.5","","57","","","","4","","21","","40.2","","98.34","","","","-37","","Snow,Blowing Snow"
"-139.84","67.57","OLD CROW A","2100801","2021-03-03 15:00","2021","03","03","15:00"
"-139.84","67.57","OLD CROW A","2100801","2021-03-03 16:00","2021","03","03","16:00"
"-139.84","67.57","OLD CROW A","2100801","2021-03-03 17:00","2021","03","03","17:00"
"-139.84","67.57","OLD CROW A","2100801","2021-03-03 18:00","2021","03","03","18:00"
"-139.84","67.57","OLD CROW A","2100801","2021-03-03 19:00","2021","03","03","19:00"
"-139.84","67.57","OLD CROW A","2100801","2021-03-03 20:00","2021","03","03","20:00"
"-139.84","67.57","OLD CROW A","2100801","2021-03-03 21:00","2021","03","03","21:00"
"-139.84","67.57","OLD CROW A","2100801","2021-03-03 22:00","2021","03","03","22:00"
"-139.84","67.57","OLD CROW A","2100801","2021-03-03 23:00","2021","03","03","23:00"
"-139.84","67.57","OLD CROW A","2100801","2021-03-04 00:00","2021","03","04","00:00"
"-139.84","67.57","OLD CROW A","2100801","2021-03-04 01:00","2021","03","04","01:00"
"-139.84","67.57","OLD CROW A","2100801","2021-03-04 02:00","2021","03","04","02:00"
"-139.84","67.57","OLD CROW A","2100801","2021-03-04 03:00","2021","03","04","03:00"
"-139.84","67.57","OLD CROW A","2100801","2021-03-04 04:00","2021","03","04","04:00"
"-139.84","67.57","OLD CROW A","2100801","2021-03-04 05:00","2021","03","04","05:00","-30.7","","-34.1","","72","","","","26","","5","","56.3","","98.94","","","","-36","","NA"
"-139.84","67.57","OLD CROW A","2100801","2021-03-04 06:00","2021","03","04","06:00","-32.2","","-35.7","","72","","","","0","","1","","56.3","","98.95","","","","-33","","NA"
"-139.84","67.57","OLD CROW A","2100801","2021-03-04 07:00","2021","03","04","07:00","-32.1","","-35.7","","71","","","","25","","5","","56.3","","98.95","","","","-38","","Clear"
"-139.84","67.57","OLD CROW A","2100801","2021-03-04 08:00","2021","03","04","08:00","-33.1","","-36.6","","71","","","","36","","3","","56.3","","98.95","","","","-37","","NA"
"-139.84","67.57","OLD CROW A","2100801","2021-03-04 09:00","2021","03","04","09:00","-33.8","","-37.7","","69","","","","36","","2","","56.3","","98.91","","","","-36","","NA"
"-139.84","67.57","OLD CROW A","2100801","2021-03-04 10:00","2021","03","04","10:00","-31.9","","-35.6","","70","","","","24","","3","","56.3","","98.85","","","","-35","","Clear"
"-139.84","67.57","OLD CROW A","2100801","2021-03-04 11:00","2021","03","04","11:00","-29.3","","-33.6","","67","","","","27","","7","","56.3","","98.81","","","","-36","","NA"
"-139.84","67.57","OLD CROW A","2100801","2021-03-04 12:00","2021","03","04","12:00","-27.1","","-32.4","","62","","","","26","","8","","56.3","","98.74","","","","-35","","NA"
"-139.84","67.57","OLD CROW A","2100801","2021-03-04 13:00","2021","03","04","13:00","-22.8","","-29.5","","55","","","","5","","15","","56.3","","98.66","","","","-33","","Clear"
"-139.84","67.57","OLD CROW A","2100801","2021-03-04 14:00","2021","03","04","14:00","-21.8","","-28.8","","54","","","","6","","11","","56.3","","98.56","","","","-30","","NA"
"-139.84","67.57","OLD CROW A","2100801","2021-03-04 15:00","2021","03","04","15:00"
"-139.84","67.57","OLD CROW A","2100801","2021-03-04 16:00","2021","03","04","16:00"
"-139.84","67.57","OLD CROW A","2100801","2021-03-04 17:00","2021","03","04","17:00"
"-139.84","67.57","OLD CROW A","2100801","2021-03-04 18:00","2021","03","04","18:00"
"-139.84","67.57","OLD CROW A","2100801","2021-03-04 19:00","2021","03","04","19:00"
"-139.84","67.57","OLD CROW A","2100801","2021-03-04 20:00","2021","03","04","20:00"
"-139.84","67.57","OLD CROW A","2100801","2021-03-04 21:00","2021","03","04","21:00"
"-139.84","67.57","OLD CROW A","2100801","2021-03-04 22:00","2021","03","04","22:00"
"-139.84","67.57","OLD CROW A","2100801","2021-03-04 23:00","2021","03","04","23:00"
"-139.84","67.57","OLD CROW A","2100801","2021-03-05 00:00","2021","03","05","00:00"
"-139.84","67.57","OLD CROW A","2100801","2021-03-05 01:00","2021","03","05","01:00"
"-139.84","67.57","OLD CROW A","2100801","2021-03-05 02:00","2021","03","05","02:00"
"-139.84","67.57","OLD CROW A","2100801","2021-03-05 03:00","2021","03","05","03:00"
"-139.84","67.57","OLD CROW A","2100801","2021-03-05 04:00","2021","03","05","04:00"
"-139.84","67.57","OLD CROW A","2100801","2021-03-05 05:00","2021","03","05","05:00","-31.9","","-35.4","","72","","","","28","","4","","56.3","","97.52","","","","-37","","NA"
"-139.84","67.57","OLD CROW A","2100801","2021-03-05 06:00","2021","03","05","06:00","-32.4","","-36.2","","70","","","","36","","3","","56.3","","97.48","","","","-36","","NA"
"-139.84","67.57","OLD CROW A","2100801","2021-03-05 07:00","2021","03","05","07:00","-33.3","","-36.8","","72","","","","12","","3","","56.3","","97.43","","","","-37","","Clear"
"-139.84","67.57","OLD CROW A","2100801","2021-03-05 08:00","2021","03","05","08:00","-33.3","","-36.8","","71","","","","9","","3","","56.3","","97.36","","","","-37","","NA"
"-139.84","67.57","OLD CROW A","2100801","2021-03-05 09:00","2021","03","05","09:00","-33.7","","-37.4","","70","","","","6","","3","","56.3","","97.34","","","","-37","","NA"
"-139.84","67.57","OLD CROW A","2100801","2021-03-05 10:00","2021","03","05","10:00","-31.5","","-35.4","","69","","","","36","","1","","56.3","","97.31","","","","-33","","Clear"
"-139.84","67.57","OLD CROW A","2100801","2021-03-05 11:00","2021","03","05","11:00","-29.9","","-33.9","","69","","","","36","","1","","56.3","","97.27","","","","-31","","NA"
"-139.84","67.57","OLD CROW A","2100801","2021-03-05 12:00","2021","03","05","12:00","-26.9","","-32.1","","63","","","","36","","3","","56.3","","97.25","","","","-30","","NA"
"-139.84","67.57","OLD CROW A","2100801","2021-03-05 13:00","2021","03","05","13:00","-25.2","","-30.6","","62","","","","23","","3","","56.3","","97.20","","","","-28","","Clear"
"-139.84","67.57","OLD CROW A","2100801","2021-03-05 14:00","2021","03","05","14:00","-23.4","","-29.7","","57","","","","5","","3","","56.3","","97.15","","","","-26","","NA"
"-139.84","67.57","OLD CROW A","2100801","2021-03-05 15:00","2021","03","05","15:00"
"-139.84","67.57","OLD CROW A","2100801","2021-03-05 16:00","2021","03","05","16:00"
"-139.84","67.57","OLD CROW A","2100801","2021-03-05 17:00","2021","03","05","17:00"
"-139.84","67.57","OLD CROW A","2100801","2021-03-05 18:00","2021","03","05","18:00"
"-139.84","67.57","OLD CROW A","2100801","2021-03-05 19:00","2021","03","05","19:00"
"-139.84","67.57","OLD CROW A","2100801","2021-03-05 20:00","2021","03","05","20:00"
"-139.84","67.57","OLD CROW A","2100801","2021-03-05 21:00","2021","03","05","21:00"
"-139.84","67.57","OLD CROW A","2100801","2021-03-05 22:00","2021","03","05","22:00"
"-139.84","67.57","OLD CROW A","2100801","2021-03-05 23:00","2021","03","05","23:00"
"-139.84","67.57","OLD CROW A","2100801","2021-03-06 00:00","2021","03","06","00:00"
"-139.84","67.57","OLD CROW A","2100801","2021-03-06 01:00","2021","03","06","01:00"
"-139.84","67.57","OLD CROW A","2100801","2021-03-06 02:00","2021","03","06","02:00"
"-139.84","67.57","OLD CROW A","2100801","2021-03-06 03:00","2021","03","06","03:00"
"-139.84","67.57","OLD CROW A","2100801","2021-03-06 04:00","2021","03","06","04:00"
"-139.84","67.57","OLD CROW A","2100801","2021-03-06 05:00","2021","03","06","05:00","-29.0","","-32.6","","72","","","","36","","3","","32.2","","97.25","","","","-32","","NA"
"-139.84","67.57","OLD CROW A","2100801","2021-03-06 06:00","2021","03","06","06:00","-30.5","","-34.0","","72","","","","26","","4","","24.1","","97.28","","","","-35","","NA"
"-139.84","67.57","OLD CROW A","2100801","2021-03-06 07:00","2021","03","06","07:00","-32.2","","-35.7","","72","","","","1","","3","","40.2","","97.32","","","","-36","","Clear"
"-139.84","67.57","OLD CROW A","2100801","2021-03-06 08:00","2021","03","06","08:00","-32.2","","-35.6","","73","","","","36","","2","","56.3","","97.38","","","","-35","","NA"
"-139.84","67.57","OLD CROW A","2100801","2021-03-06 09:00","2021","03","06","09:00","-32.0","","-35.6","","71","","","","36","","2","","56.3","","97.43","","","","-34","","NA"
"-139.84","67.57","OLD CROW A","2100801","2021-03-06 10:00","2021","03","06","10:00","-29.3","","-33.1","","70","","","","36","","2","","56.3","","97.47","","","","-32","","Clear"
"-139.84","67.57","OLD CROW A","2100801","2021-03-06 11:00","2021","03","06","11:00","-26.9","","-31.2","","67","","","","1","","4","","56.3","","97.50","","","","-31","","NA"
"-139.84","67.57","OLD CROW A","2100801","2021-03-06 12:00","2021","03","06","12:00","-24.5","","-29.3","","65","","","","4","","4","","56.3","","97.53","","","","-28","","NA"
"-139.84","67.57","OLD CROW A","2100801","2021-03-06 13:00","2021","03","06","13:00","-21.8","","-27.6","","60","","","","5","","3","","56.3","","97.58","","","","-25","","Clear"
"-139.84","67.57","OLD CROW A","2100801","2021-03-06 14:00","2021","03","06","14:00","-18.0","","-25.1","","54","","","","10","","3","","56.3","","97.61","","","","-20","","NA"
"-139.84","67.57","OLD CROW A","2100801","2021-03-06 15:00","2021","03","06","15:00"
"-139.84","67.57","OLD CROW A","2100801","2021-03-06 16:00","2021","03","06","16:00"
"-139.84","67.57","OLD CROW A","2100801","2021-03-06 17:00","2021","03","06","17:00"
"-139.84","67.57","OLD CROW A","2100801","2021-03-06 18:00","2021","03","06","18:00"
"-139.84","67.57","OLD CROW A","2100801","2021-03-06 19:00","2021","03","06","19:00"
"-139.84","67.57","OLD CROW A","2100801","2021-03-06 20:00","2021","03","06","20:00"
"-139.84","67.57","OLD CROW A","2100801","2021-03-06 21:00","2021","03","06","21:00"
"-139.84","67.57","OLD CROW A","2100801","2021-03-06 22:00","2021","03","06","22:00"
"-139.84","67.57","OLD CROW A","2100801","2021-03-06 23:00","2021","03","06","23:00"
"-139.84","67.57","OLD CROW A","2100801","2021-03-07 00:00","2021","03","07","00:00"
"-139.84","67.57","OLD CROW A","2100801","2021-03-07 01:00","2021","03","07","01:00"
"-139.84","67.57","OLD CROW A","2100801","2021-03-07 02:00","2021","03","07","02:00"
"-139.84","67.57","OLD CROW A","2100801","2021-03-07 03:00","2021","03","07","03:00"
"-139.84","67.57","OLD CROW A","2100801","2021-03-07 04:00","2021","03","07","04:00"
"-139.84","67.57","OLD CROW A","2100801","2021-03-07 05:00","2021","03","07","05:00","-25.1","","-28.2","","76","","","","8","","7","","24.1","","98.45","","","","-32","","Snow"
"-139.84","67.57","OLD CROW A","2100801","2021-03-07 06:00","2021","03","07","06:00","-25.0","","-28.3","","74","","","","36","","1","","22.5","","98.51","","","","-26","","Snow"
"-139.84","67.57","OLD CROW A","2100801","2021-03-07 07:00","2021","03","07","07:00","-24.4","","-27.8","","74","","","","7","","3","","32.2","","98.57","","","","-27","","Snow"
"-139.84","67.57","OLD CROW A","2100801","2021-03-07 08:00","2021","03","07","08:00","-24.5","","-27.9","","74","","","","10","","4","","48.3","","98.63","","","","-28","","NA"
"-139.84","67.57","OLD CROW A","2100801","2021-03-07 09:00","2021","03","07","09:00","-24.8","","-28.4","","73","","","","11","","6","","48.3","","98.68","","","","-31","","NA"
"-139.84","67.57","OLD CROW A","2100801","2021-03-07 10:00","2021","03","07","10:00","-24.5","","-28.3","","71","","","","27","","3","","48.3","","98.76","","","","-27","","Mostly Cloudy"
"-139.84","67.57","OLD CROW A","2100801","2021-03-07 11:00","2021","03","07","11:00","-23.9","","-27.7","","71","","","","8","","4","","48.3","","98.83","","","","-28","","Snow Grains"
"-139.84","67.57","OLD CROW A","2100801","2021-03-07 12:00","2021","03","07","12:00","-22.7","","-26.9","","70","","","","36","","2","","56.3","","98.91","","","","-25","","NA"
"-139.84","67.57","OLD CROW A","2100801","2021-03-07 13:00","2021","03","07","13:00","-20.4","","-24.8","","68","","","","10","","4","","56.3","","98.98","","","","-24","","Mostly Cloudy"
"-139.84","67.57","OLD CROW A","2100801","2021-03-07 14:00","2021","03","07","14:00","-19.3","","-24.2","","66","","","","10","","5","","56.3","","99.05","","","","-23","","NA"
"-139.84","67.57","OLD CROW A","2100801","2021-03-07 15:00","2021","03","07","15:00"
"-139.84","67.57","OLD CROW A","2100801","2021-03-07 16:00","2021","03","07","16:00"
"-139.84","67.57","OLD CROW A","2100801","2021-03-07 17:00","2021","03","07","17:00"
"-139.84","67.57","OLD CROW A","2100801","2021-03-07 18:00","2021","03","07","18:00"
"-139.84","67.57","OLD CROW A","2100801","2021-03-07 19:00","2021","03","07","19:00"
"-139.84","67.57","OLD CROW A","2100801","2021-03-07 20:00","2021","03","07","20:00"
"-139.84","67.57","OLD CROW A","2100801","2021-03-07 21:00","2021","03","07","21:00"
"-139.84","67.57","OLD CROW A","2100801","2021-03-07 22:00","2021","03","07","22:00"
"-139.84","67.57","OLD CROW A","2100801","2021-03-07 23:00","2021","03","07","23:00"
"-139.84","67.57","OLD CROW A","2100801","2021-03-08 00:00","2021","03","08","00:00"
"-139.84","67.57","OLD CROW A","2100801","2021-03-08 01:00","2021","03","08","01:00"
"-139.84","67.57","OLD CROW A","2100801","2021-03-08 02:00","2021","03","08","02:00"
"-139.84","67.57","OLD CROW A","2100801","2021-03-08 03:00","2021","03","08","03:00"
"-139.84","67.57","OLD CROW A","2100801","2021-03-08 04:00","2021","03","08","04:00"
"-139.84","67.57","OLD CROW A","2100801","2021-03-08 05:00","2021","03","08","05:00","-33.6","","-37.3","","70","","","","36","","1","","56.3","","99.50","","","","-35","","NA"
"-139.84","67.57","OLD CROW A","2100801","2021-03-08 06:00","2021","03","08","06:00","-33.8","","-37.5","","70","","","","36","","2","","56.3","","99.49","","","","-36","","NA"
"-139.84","67.57","OLD CROW A","2100801","2021-03-08 07:00","2021","03","08","07:00","-35.0","","-38.8","","69","","","","36","","2","","56.3","","99.47","","","","-38","","Clear"
"-139.84","67.57","OLD CROW A","2100801","2021-03-08 08:00","2021","03","08","08:00","-35.1","","-38.9","","69","","","","0","","1","","56.3","","99.44","","","","-36","","NA"
"-139.84","67.57","OLD CROW A","2100801","2021-03-08 09:00","2021","03","08","09:00","-34.2","","-38.1","","69","","","","36","","1","","56.3","","99.41","","","","-35","","NA"
"-139.84","67.57","OLD CROW A","2100801","2021-03-08 10:00","2021","03","08","10:00","-31.8","","-35.4","","71","","","","36","","3","","48.3","","99.41","","","","-35","","Snow"
"-139.84","67.57","OLD CROW A","2100801","2021-03-08 11:00","2021","03","08","11:00","-29.4","","-33.1","","71","","","","36","","1","","48.3","","99.35","","","","-31","","Snow"
"-139.84","67.57","OLD CROW A","2100801","2021-03-08 12:00","2021","03","08","12:00","-26.7","","-31.1","","67","","","","36","","2","","56.3","","99.31","","","","-29","","NA"
"-139.84","67.57","OLD CROW A","2100801","2021-03-08 13:00","2021","03","08","13:00","-23.9","","-28.1","","69","","","","36","","1","","48.3","","99.25","","","","-25","","Mainly Clear"
"-139.84","67.57","OLD CROW A","2100801","2021-03-08 14:00","2021","03","08","14:00","-21.4","","-26.4","","65","","","","36","","3","","","M","99.17","","","","-24","","NA"
"-139.84","67.57","OLD CROW A","2100801","2021-03-08 15:00","2021","03","08","15:00"
"-139.84","67.57","OLD CROW A","2100801","2021-03-08 16:00","2021","03","08","16:00"
"-139.84","67.57","OLD CROW A","2100801","2021-03-08 17:00","2021","03","08","17:00"
"-139.84","67.57","OLD CROW A","2100801","2021-03-08 18:00","2021","03","08","18:00"
"-139.84","67.57","OLD CROW A","2100801","2021-03-08 19:00","2021","03","08","19:00"
"-139.84","67.57","OLD CROW A","2100801","2021-03-08 20:00","2021","03","08","20:00"
"-139.84","67.57","OLD CROW A","2100801","2021-03-08 21:00","2021","03","08","21:00"
"-139.84","67.57","OLD CROW A","2100801","2021-03-08 22:00","2021","03","08","22:00"
"-139.84","67.57","OLD CROW A","2100801","2021-03-08 23:00","2021","03","08","23:00"
"-139.84","67.57","OLD CROW A","2100801","2021-03-09 00:00","2021","03","09","00:00"
"-139.84","67.57","OLD CROW A","2100801","2021-03-09 01:00","2021","03","09","01:00"
"-139.84","67.57","OLD CROW A","2100801","2021-03-09 02:00","2021","03","09","02:00"
"-139.84","67.57","OLD CROW A","2100801","2021-03-09 03:00","2021","03","09","03:00"
"-139.84","67.57","OLD CROW A","2100801","2021-03-09 04:00","2021","03","09","04:00"
"-139.84","67.57","OLD CROW A","2100801","2021-03-09 05:00","2021","03","09","05:00","-27.8","","-31.1","","74","","","","36","","3","","56.3","","98.43","","","","-31","","NA"
"-139.84","67.57","OLD CROW A","2100801","2021-03-09 06:00","2021","03","09","06:00","-28.5","","-32.1","","72","","","","24","","4","","56.3","","98.40","","","","-33","","NA"
"-139.84","67.57","OLD CROW A","2100801","2021-03-09 07:00","2021","03","09","07:00","-29.5","","-33.3","","70","","","","30","","5","","56.3","","98.39","","","","-35","","Mainly Clear"
"-139.84","67.57","OLD CROW A","2100801","2021-03-09 08:00","2021","03","09","08:00","-28.4","","-31.9","","73","","","","36","","1","","56.3","","98.38","","","","-29","","NA"
"-139.84","67.57","OLD CROW A","2100801","2021-03-09 09:00","2021","03","09","09:00","-27.5","","-31.0","","73","","","","26","","6","","56.3","","98.38","","","","-34","","NA"
"-139.84","67.57","OLD CROW A","2100801","2021-03-09 10:00","2021","03","09","10:00","-24.7","","-28.6","","71","","","","24","","7","","56.3","","98.36","","","","-31","","Mostly Cloudy"
"-139.84","67.57","OLD CROW A","2100801","2021-03-09 11:00","2021","03","09","11:00","-14.3","","-17.9","","75","","","","24","","25","","56.3","","98.30","","","","-24","","NA"
"-139.84","67.57","OLD CROW A","2100801","2021-03-09 12:00","2021","03","09","12:00","-8.5","","-14.2","","64","","","","25","","21","","56.3","","98.36","","","","-16","","NA"
"-139.84","67.57","OLD CROW A","2100801","2021-03-09 13:00","2021","03","09","13:00","-7.3","","-13.6","","61","","","","25","","24","","56.3","","98.39","","","","-15","","Blowing Snow"
"-139.84","67.57","OLD CROW A","2100801","2021-03-09 14:00","2021","03","09","14:00","-7.0","","-13.2","","62","","","","25","","22","","56.3","","98.41","","","","-14","","NA"
"-139.84","67.57","OLD CROW A","2100801","2021-03-09 15:00","2021","03","09","15:00","-6.1","","-13.2","","57","","","","25","","27","","56.3","","98.47","","","","-14","","Blowing Snow"
"-139.84","67.57","OLD CROW A","2100801","2021-03-09 16:00","2021","03","09","16:00","-6.5","","-13.0","","60","","","","25","","28","","56.3","","98.50","","","","-15","","Mostly Cloudy"
"-139.84","67.57","OLD CROW A","2100801","2021-03-09 17:00","2021","03","09","17:00","-6.2","","-12.5","","61","","","","25","","23","","56.3","","98.52","","","","-14","","NA"
"-139.84","67.57","OLD CROW A","2100801","2021-03-09 18:00","2021","03","09","18:00"
"-139.84","67.57","OLD CROW A","2100801","2021-03-09 19:00","2021","03","09","19:00"
"-139.84","67.57","OLD CROW A","2100801","2021-03-09 20:00","2021","03","09","20:00"
"-139.84","67.57","OLD CROW A","2100801","2021-03-09 21:00","2021","03","09","21:00"
"-139.84","67.57","OLD CROW A","2100801","2021-03-09 22:00","2021","03","09","22:00"
"-139.84","67.57","OLD CROW A","2100801","2021-03-09 23:00","2021","03","09","23:00"
"-139.84","67.57","OLD CROW A","2100801","2021-03-10 00:00","2021","03","10","00:00"
"-139.84","67.57","OLD CROW A","2100801","2021-03-10 01:00","2021","03","10","01:00"
"-139.84","67.57","OLD CROW A","2100801","2021-03-10 02:00","2021","03","10","02:00"
"-139.84","67.57","OLD CROW A","2100801","2021-03-10 03:00","2021","03","10","03:00"
"-139.84","67.57","OLD CROW A","2100801","2021-03-10 04:00","2021","03","10","04:00"
"-139.84","67.57","OLD CROW A","2100801","2021-03-10 05:00","2021","03","10","05:00","-14.8","","-17.2","","82","","","","8","","6","","11.3","","98.64","","","","-19","","Snow"
"-139.84","67.57","OLD CROW A","2100801","2021-03-10 06:00","2021","03","10","06:00","-14.6","","-17.1","","82","","","","9","","3","","11.3","","98.55","","","","-17","","Snow"
"-139.84","67.57","OLD CROW A","2100801","2021-03-10 07:00","2021","03","10","07:00","-14.0","","-16.5","","82","","","","9","","7","","22.5","","98.49","","","","-19","","Snow"
"-139.84","67.57","OLD CROW A","2100801","2021-03-10 08:00","2021","03","10","08:00","-13.8","","-16.3","","82","","","","36","","1","","32.2","","98.40","","","","-14","","Snow"
"-139.84","67.57","OLD CROW A","2100801","2021-03-10 09:00","2021","03","10","09:00","-12.5","","-15.1","","81","","","","6","","3","","48.3","","98.27","","","","-14","","NA"
"-139.84","67.57","OLD CROW A","2100801","2021-03-10 10:00","2021","03","10","10:00","-11.2","","-14.1","","79","","","","10","","3","","12.9","","98.18","","","","-13","","Snow"
"-139.84","67.57","OLD CROW A","2100801","2021-03-10 11:00","2021","03","10","11:00","-12.7","","-15.4","","80","","","","28","","7","","32.2","","98.08","","","","-17","","NA"
"-139.84","67.57","OLD CROW A","2100801","2021-03-10 12:00","2021","03","10","12:00","-11.1","","-14.3","","77","","","","26","","4","","32.2","","98.00","","","","-14","","NA"
"-139.84","67.57","OLD CROW A","2100801","2021-03-10 13:00","2021","03","10","13:00","-9.2","","-13.5","","71","","","","8","","12","","32.2","","97.88","","","","-15","","Cloudy"
"-139.84","67.57","OLD CROW A","2100801","2021-03-10 14:00","2021","03","10","14:00","-9.0","","-13.1","","72","","","","8","","14","","9.7","","97.81","","","","-15","","Snow,Fog"
"-139.84","67.57","OLD CROW A","2100801","2021-03-10 15:00","2021","03","10","15:00","-8.6","","-11.9","","77","","","","8","","12","","2.0","","97.67","","","","-14","","Snow,Fog"
"-139.84","67.57","OLD CROW A","2100801","2021-03-10 16:00","2021","03","10","16:00","-8.4","","-11.3","","80","","","","7","","10","","2.4","","97.54","","","","-13","","Snow,Fog"
"-139.84","67.57","OLD CROW A","2100801","2021-03-10 17:00","2021","03","10","17:00","-8.5","","-10.9","","83","","","","7","","11","","1.2","","97.43","","","","-14","","Snow,Fog"
"-139.84","67.57","OLD CROW A","2100801","2021-03-10 18:00","2021","03","10","18:00"
"-139.84","67.57","OLD CROW A","2100801","2021-03-10 19:00","2021","03","10","19:00"
"-139.84","67.57","OLD CROW A","2100801","2021-03-10 20:00","2021","03","10","20:00"
"-139.84","67.57","OLD CROW A","2100801","2021-03-10 21:00","2021","03","10","21:00"
"-139.84","67.57","OLD CROW A","2100801","2021-03-10 22:00","2021","03","10","22:00"
"-139.84","67.57","OLD CROW A","2100801","2021-03-10 23:00","2021","03","10","23:00"
"-139.84","67.57","OLD CROW A","2100801","2021-03-11 00:00","2021","03","11","00:00"
"-139.84","67.57","OLD CROW A","2100801","2021-03-11 01:00","2021","03","11","01:00"
"-139.84","67.57","OLD CROW A","2100801","2021-03-11 02:00","2021","03","11","02:00"
"-139.84","67.57","OLD CROW A","2100801","2021-03-11 03:00","2021","03","11","03:00"
"-139.84","67.57","OLD CROW A","2100801","2021-03-11 04:00","2021","03","11","04:00"
"-139.84","67.57","OLD CROW A","2100801","2021-03-11 05:00","2021","03","11","05:00","-13.1","","-16.4","","77","","","","4","","31","","0.8","","97.48","","","","-24","","Snow,Blowing Snow"
"-139.84","67.57","OLD CROW A","2100801","2021-03-11 06:00","2021","03","11","06:00","-14.1","","-17.2","","78","","","","4","","27","","0.8","","97.55","","","","-24","","Snow,Blowing Snow"
"-139.84","67.57","OLD CROW A","2100801","2021-03-11 07:00","2021","03","11","07:00","-14.8","","-18.4","","74","","","","4","","30","","1.6","","97.62","","","","-26","","Snow,Blowing Snow"
"-139.84","67.57","OLD CROW A","2100801","2021-03-11 08:00","2021","03","11","08:00","-15.8","","-19.4","","74","","","","3","","31","","4.0","","97.72","","","","-27","","Snow,Blowing Snow"
"-139.84","67.57","OLD CROW A","2100801","2021-03-11 09:00","2021","03","11","09:00","-16.6","","-20.5","","72","","","","5","","35","","6.4","","97.79","","","","-29","","Snow,Blowing Snow"
"-139.84","67.57","OLD CROW A","2100801","2021-03-11 10:00","2021","03","11","10:00","-17.4","","-21.5","","71","","","","6","","31","","8.1","","97.89","","","","-29","","Snow,Blowing Snow"
"-139.84","67.57","OLD CROW A","2100801","2021-03-11 11:00","2021","03","11","11:00","-17.5","","-21.8","","70","","","","4","","28","","12.9","","97.99","","","","-29","","Snow,Blowing Snow"
"-139.84","67.57","OLD CROW A","2100801","2021-03-11 12:00","2021","03","11","12:00","-17.6","","-21.9","","69","","","","5","","27","","9.7","","98.11","","","","-29","","Snow,Blowing Snow"
"-139.84","67.57","OLD CROW A","2100801","2021-03-11 13:00","2021","03","11","13:00","-17.2","","-22.1","","66","","","","7","","17","","12.9","","98.24","","","","-26","","Snow,Blowing Snow"
"-139.84","67.57","OLD CROW A","2100801","2021-03-11 14:00","2021","03","11","14:00","-17.3","","-21.9","","68","","","","5","","25","","12.9","","98.34","","","","-28","","Snow,Blowing Snow"
"-139.84","67.57","OLD CROW A","2100801","2021-03-11 15:00","2021","03","11","15:00"
"-139.84","67.57","OLD CROW A","2100801","2021-03-11 16:00","2021","03","11","16:00"
"-139.84","67.57","OLD CROW A","2100801","2021-03-11 17:00","2021","03","11","17:00"
"-139.84","67.57","OLD CROW A","2100801","2021-03-11 18:00","2021","03","11","18:00"
"-139.84","67.57","OLD CROW A","2100801","2021-03-11 19:00","2021","03","11","19:00"
"-139.84","67.57","OLD CROW A","2100801","2021-03-11 20:00","2021","03","11","20:00"
"-139.84","67.57","OLD CROW A","2100801","2021-03-11 21:00","2021","03","11","21:00"
"-139.84","67.57","OLD CROW A","2100801","2021-03-11 22:00","2021","03","11","22:00"
"-139.84","67.57","OLD CROW A","2100801","2021-03-11 23:00","2021","03","11","23:00"
"-139.84","67.57","OLD CROW A","2100801","2021-03-12 00:00","2021","03","12","00:00"
"-139.84","67.57","OLD CROW A","2100801","2021-03-12 01:00","2021","03","12","01:00"
"-139.84","67.57","OLD CROW A","2100801","2021-03-12 02:00","2021","03","12","02:00"
"-139.84","67.57","OLD CROW A","2100801","2021-03-12 03:00","2021","03","12","03:00"
"-139.84","67.57","OLD CROW A","2100801","2021-03-12 04:00","2021","03","12","04:00"
"-139.84","67.57","OLD CROW A","2100801","2021-03-12 05:00","2021","03","12","05:00","-23.8","","-28.2","","68","","","","5","","7","","16.1","","99.71","","","","-30","","Snow"
"-139.84","67.57","OLD CROW A","2100801","2021-03-12 06:00","2021","03","12","06:00","-23.7","","-28.3","","67","","","","6","","4","","12.9","","99.80","","","","-28","","Snow"
"-139.84","67.57","OLD CROW A","2100801","2021-03-12 07:00","2021","03","12","07:00","-23.9","","-27.8","","71","","","","4","","8","","4.0","","99.90","","","","-31","","Snow,Fog"
"-139.84","67.57","OLD CROW A","2100801","2021-03-12 08:00","2021","03","12","08:00","-24.6","","-28.8","","69","","","","4","","8","","16.1","","99.99","","","","-32","","Snow"
"-139.84","67.57","OLD CROW A","2100801","2021-03-12 09:00","2021","03","12","09:00","-24.8","","-29.0","","69","","","","4","","5","","16.1","","100.08","","","","-30","","Snow"
"-139.84","67.57","OLD CROW A","2100801","2021-03-12 10:00","2021","03","12","10:00","-23.8","","-28.6","","65","","","","7","","6","","32.2","","100.18","","","","-29","","Mainly Clear"
"-139.84","67.57","OLD CROW A","2100801","2021-03-12 11:00","2021","03","12","11:00","-22.9","","-28.1","","63","","","","10","","5","","40.2","","100.26","","","","-28","","NA"
"-139.84","67.57","OLD CROW A","2100801","2021-03-12 12:00","2021","03","12","12:00","-22.1","","-27.7","","61","","","","11","","4","","40.2","","100.31","","","","-26","","NA"
"-139.84","67.57","OLD CROW A","2100801","2021-03-12 13:00","2021","03","12","13:00","-21.4","","-27.1","","61","","","","22","","5","","40.2","","100.36","","","","-26","","Clear"
"-139.84","67.57","OLD CROW A","2100801","2021-03-12 14:00","2021","03","12","14:00","-20.2","","-26.7","","57","","","","20","","4","","40.2","","100.40","","","","-24","","NA"
"-139.84","67.57","OLD CROW A","2100801","2021-03-12 15:00","2021","03","12","15:00"
"-139.84","67.57","OLD CROW A","2100801","2021-03-12 16:00","2021","03","12","16:00"
"-139.84","67.57","OLD CROW A","2100801","2021-03-12 17:00","2021","03","12","17:00"
"-139.84","67.57","OLD CROW A","2100801","2021-03-12 18:00","2021","03","12","18:00"
"-139.84","67.57","OLD CROW A","2100801","2021-03-12 19:00","2021","03","12","19:00"
"-139.84","67.57","OLD CROW A","2100801","2021-03-12 20:00","2021","03","12","20:00"
"-139.84","67.57","OLD CROW A","2100801","2021-03-12 21:00","2021","03","12","21:00"
"-139.84","67.57","OLD CROW A","2100801","2021-03-12 22:00","2021","03","12","22:00"
"-139.84","67.57","OLD CROW A","2100801","2021-03-12 23:00","2021","03","12","23:00"
"-139.84","67.57","OLD CROW A","2100801","2021-03-13 00:00","2021","03","13","00:00"
"-139.84","67.57","OLD CROW A","2100801","2021-03-13 01:00","2021","03","13","01:00"
"-139.84","67.57","OLD CROW A","2100801","2021-03-13 02:00","2021","03","13","02:00"
"-139.84","67.57","OLD CROW A","2100801","2021-03-13 03:00","2021","03","13","03:00"
"-139.84","67.57","OLD CROW A","2100801","2021-03-13 04:00","2021","03","13","04:00"
"-139.84","67.57","OLD CROW A","2100801","2021-03-13 05:00","2021","03","13","05:00","-37.8","","-41.7","","68","","","","36","","3","","56.3","","100.70","","","","-42","","NA"
"-139.84","67.57","OLD CROW A","2100801","2021-03-13 06:00","2021","03","13","06:00","-38.1","","-42.1","","67","","","","0","","1","","56.3","","100.70","","","","-39","","NA"
"-139.84","67.57","OLD CROW A","2100801","2021-03-13 07:00","2021","03","13","07:00","-38.8","","-43.0","","66","","","","36","","2","","56.3","","100.69","","","","-42","","Clear"
"-139.84","67.57","OLD CROW A","2100801","2021-03-13 08:00","2021","03","13","08:00","-39.2","","-43.4","","66","","","","36","","2","","48.3","","100.67","","","","-42","","NA"
"-139.84","67.57","OLD CROW A","2100801","2021-03-13 09:00","2021","03","13","09:00","-38.1","","-42.1","","67","","","","10","","4","","48.3","","100.63","","","","-43","","NA"
"-139.84","67.57","OLD CROW A","2100801","2021-03-13 10:00","2021","03","13","10:00","-35.3","","-39.2","","69","","","","0","","1","","56.3","","100.60","","","","-37","","Clear"
"-139.84","67.57","OLD CROW A","2100801","2021-03-13 11:00","2021","03","13","11:00","-31.8","","-35.7","","70","","","","0","","1","","56.3","","100.53","","","","-33","","NA"
"-139.84","67.57","OLD CROW A","2100801","2021-03-13 12:00","2021","03","13","12:00","-28.5","","-32.7","","68","","","","36","","3","","56.3","","100.47","","","","-32","","NA"
"-139.84","67.57","OLD CROW A","2100801","2021-03-13 13:00","2021","03","13","13:00","-26.1","","-31.2","","63","","","","36","","3","","56.3","","100.38","","","","-29","","Clear"
"-139.84","67.57","OLD CROW A","2100801","2021-03-13 14:00","2021","03","13","14:00","-22.8","","-28.5","","60","","","","11","","3","","56.3","","100.31","","","","-26","","NA"
"-139.84","67.57","OLD CROW A","2100801","2021-03-13 15:00","2021","03","13","15:00"
"-139.84","67.57","OLD CROW A","2100801","2021-03-13 16:00","2021","03","13","16:00"
"-139.84","67.57","OLD CROW A","2100801","2021-03-13 17:00","2021","03","13","17:00"
"-139.84","67.57","OLD CROW A","2100801","2021-03-13 18:00","2021","03","13","18:00"
"-139.84","67.57","OLD CROW A","2100801","2021-03-13 19:00","2021","03","13","19:00"
"-139.84","67.57","OLD CROW A","2100801","2021-03-13 20:00","2021","03","13","20:00"
"-139.84","67.57","OLD CROW A","2100801","2021-03-13 21:00","2021","03","13","21:00"
"-139.84","67.57","OLD CROW A","2100801","2021-03-13 22:00","2021","03","13","22:00"
"-139.84","67.57","OLD CROW A","2100801","2021-03-13 23:00","2021","03","13","23:00"
"-139.84","67.57","OLD CROW A","2100801","2021-03-14 00:00","2021","03","14","00:00"
"-139.84","67.57","OLD CROW A","2100801","2021-03-14 01:00","2021","03","14","01:00"
"-139.84","67.57","OLD CROW A","2100801","2021-03-14 02:00","2021","03","14","02:00"
"-139.84","67.57","OLD CROW A","2100801","2021-03-14 03:00","2021","03","14","03:00"
"-139.84","67.57","OLD CROW A","2100801","2021-03-14 04:00","2021","03","14","04:00"
"-139.84","67.57","OLD CROW A","2100801","2021-03-14 05:00","2021","03","14","05:00","-37.8","","-41.7","","67","","","","0","","1","","56.3","","99.32","","","","-39","","NA"
"-139.84","67.57","OLD CROW A","2100801","2021-03-14 06:00","2021","03","14","06:00","-39.0","","-43.1","","66","","","","36","","2","","56.3","","99.25","","","","-42","","NA"
"-139.84","67.57","OLD CROW A","2100801","2021-03-14 07:00","2021","03","14","07:00","-38.8","","-42.9","","66","","","","36","","1","","56.3","","99.21","","","","-40","","Clear"
"-139.84","67.57","OLD CROW A","2100801","2021-03-14 08:00","2021","03","14","08:00","-39.0","","-43.2","","66","","","","36","","3","","56.3","","99.15","","","","-43","","NA"
"-139.84","67.57","OLD CROW A","2100801","2021-03-14 09:00","2021","03","14","09:00","-38.6","","-42.7","","66","","","","15","","3","","56.3","","99.07","","","","-43","","NA"
"-139.84","67.57","OLD CROW A","2100801","2021-03-14 10:00","2021","03","14","10:00","-35.0","","-38.9","","68","","","","36","","1","","56.3","","98.97","","","","-36","","Clear"
"-139.84","67.57","OLD CROW A","2100801","2021-03-14 11:00","2021","03","14","11:00","-31.9","","-36.1","","67","","","","36","","3","","56.3","","98.87","","","","-35","","NA"
"-139.84","67.57","OLD CROW A","2100801","2021-03-14 12:00","2021","03","14","12:00","-29.9","","-34.1","","67","","","","36","","1","","56.3","","98.78","","","","-31","","NA"
"-139.84","67.57","OLD CROW A","2100801","2021-03-14 13:00","2021","03","14","13:00","-26.2","","-30.9","","65","","","","26","","5","","56.3","","98.66","","","","-31","","Clear"
"-139.84","67.57","OLD CROW A","2100801","2021-03-14 14:00","2021","03","14","14:00","-23.0","","-28.4","","62","","","","9","","13","","56.3","","98.57","","","","-32","","NA"
"-139.84","67.57","OLD CROW A","2100801","2021-03-14 15:00","2021","03","14","15:00"
"-139.84","67.57","OLD CROW A","2100801","2021-03-14 16:00","2021","03","14","16:00"
"-139.84","67.57","OLD CROW A","2100801","2021-03-14 17:00","2021","03","14","17:00"
"-139.84","67.57","OLD CROW A","2100801","2021-03-14 18:00","2021","03","14","18:00"
"-139.84","67.57","OLD CROW A","2100801","2021-03-14 19:00","2021","03","14","19:00"
"-139.84","67.57","OLD CROW A","2100801","2021-03-14 20:00","2021","03","14","20:00"
"-139.84","67.57","OLD CROW A","2100801","2021-03-14 21:00","2021","03","14","21:00"
"-139.84","67.57","OLD CROW A","2100801","2021-03-14 22:00","2021","03","14","22:00"
"-139.84","67.57","OLD CROW A","2100801","2021-03-14 23:00","2021","03","14","23:00"
"-139.84","67.57","OLD CROW A","2100801","2021-03-15 00:00","2021","03","15","00:00"
"-139.84","67.57","OLD CROW A","2100801","2021-03-15 01:00","2021","03","15","01:00"
"-139.84","67.57","OLD CROW A","2100801","2021-03-15 02:00","2021","03","15","02:00"
"-139.84","67.57","OLD CROW A","2100801","2021-03-15 03:00","2021","03","15","03:00"
"-139.84","67.57","OLD CROW A","2100801","2021-03-15 04:00","2021","03","15","04:00"
"-139.84","67.57","OLD CROW A","2100801","2021-03-15 05:00","2021","03","15","05:00","-34.3","","-38.0","","70","","","","36","","3","","56.3","","97.80","","","","-38","","Ice Crystals"
"-139.84","67.57","OLD CROW A","2100801","2021-03-15 06:00","2021","03","15","06:00","-35.1","","-38.8","","70","","","","36","","2","","56.3","","97.77","","","","-38","","Ice Crystals"
"-139.84","67.57","OLD CROW A","2100801","2021-03-15 07:00","2021","03","15","07:00","-35.2","","-39.0","","69","","","","36","","1","","56.3","","97.76","","","","-36","","Ice Crystals"
"-139.84","67.57","OLD CROW A","2100801","2021-03-15 08:00","2021","03","15","08:00","-35.3","","-39.4","","67","","","","36","","2","","56.3","","97.69","","","","-38","","NA"
"-139.84","67.57","OLD CROW A","2100801","2021-03-15 09:00","2021","03","15","09:00","-33.6","","-37.4","","70","","","","13","","4","","6.4","","97.69","","","","-38","","Snow,Fog"
"-139.84","67.57","OLD CROW A","2100801","2021-03-15 10:00","2021","03","15","10:00","-31.4","","-35.2","","70","","","","7","","5","","6.4","","97.63","","","","-37","","Snow,Fog"
"-139.84","67.57","OLD CROW A","2100801","2021-03-15 11:00","2021","03","15","11:00","-29.3","","-33.5","","68","","","","36","","3","","9.7","","97.59","","","","-33","","Snow"
"-139.84","67.57","OLD CROW A","2100801","2021-03-15 12:00","2021","03","15","12:00","-27.7","","-32.3","","66","","","","26","","4","","56.3","","97.57","","","","-32","","NA"
"-139.84","67.57","OLD CROW A","2100801","2021-03-15 13:00","2021","03","15","13:00","-24.7","","-30.3","","60","","","","13","","5","","56.3","","97.56","","","","-30","","Mainly Clear"
"-139.84","67.57","OLD CROW A","2100801","2021-03-15 14:00","2021","03","15","14:00","-21.4","","-27.3","","60","","","","10","","8","","56.3","","97.57","","","","-28","","NA"
"-139.84","67.57","OLD CROW A","2100801","2021-03-15 15:00","2021","03","15","15:00","-20.1","","-26.8","","56","","","","7","","12","","56.3","","97.61","","","","-28","","NA"
"-139.84","67.57","OLD CROW A","2100801","2021-03-15 16:00","2021","03","15","16:00","-20.2","","-26.7","","57","","","","4","","20","","56.3","","97.59","","","","-31","","Mostly Cloudy"
"-139.84","67.57","OLD CROW A","2100801","2021-03-15 17:00","2021","03","15","17:00","-20.5","","-26.6","","59","","","","4","","15","","56.3","","97.63","","","","-30","","NA"
"-139.84","67.57","OLD CROW A","2100801","2021-03-15 18:00","2021","03","15","18:00"
"-139.84","67.57","OLD CROW A","2100801","2021-03-15 19:00","2021","03","15","19:00"
"-139.84","67.57","OLD CROW A","2100801","2021-03-15 20:00","2021","03","15","20:00"
"-139.84","67.57","OLD CROW A","2100801","2021-03-15 21:00","2021","03","15","21:00"
"-139.84","67.57","OLD CROW A","2100801","2021-03-15 22:00","2021","03","15","22:00"
"-139.84","67.57","OLD CROW A","2100801","2021-03-15 23:00","2021","03","15","23:00"
"-139.84","67.57","OLD CROW A","2100801","2021-03-16 00:00","2021","03","16","00:00"
"-139.84","67.57","OLD CROW A","2100801","2021-03-16 01:00","2021","03","16","01:00"
"-139.84","67.57","OLD CROW A","2100801","2021-03-16 02:00","2021","03","16","02:00"
"-139.84","67.57","OLD CROW A","2100801","2021-03-16 03:00","2021","03","16","03:00"
"-139.84","67.57","OLD CROW A","2100801","2021-03-16 04:00","2021","03","16","04:00"
"-139.84","67.57","OLD CROW A","2100801","2021-03-16 05:00","2021","03","16","05:00","-33.4","","-36.8","","72","","","","36","","3","","32.2","","97.91","","","","-37","","NA"
"-139.84","67.57","OLD CROW A","2100801","2021-03-16 06:00","2021","03","16","06:00","-33.1","","-36.8","","71","","","","36","","3","","32.2","","97.95","","","","-37","","NA"
"-139.84","67.57","OLD CROW A","2100801","2021-03-16 07:00","2021","03","16","07:00","-34.5","","-38.3","","69","","","","36","","1","","32.2","","98.01","","","","-36","","Mainly Clear"
"-139.84","67.57","OLD CROW A","2100801","2021-03-16 08:00","2021","03","16","08:00","-35.0","","-38.8","","69","","","","36","","1","","32.2","","98.04","","","","-36","","NA"
"-139.84","67.57","OLD CROW A","2100801","2021-03-16 09:00","2021","03","16","09:00","-33.2","","-37.0","","69","","","","25","","4","","40.2","","98.08","","","","-38","","Ice Crystals"
"-139.84","67.57","OLD CROW A","2100801","2021-03-16 10:00","2021","03","16","10:00","-30.6","","-34.4","","71","","","","26","","4","","40.2","","98.12","","","","-35","","Ice Crystals"
"-139.84","67.57","OLD CROW A","2100801","2021-03-16 11:00","2021","03","16","11:00","-28.0","","-32.6","","66","","","","23","","5","","40.2","","98.13","","","","-33","","NA"
"-139.84","67.57","OLD CROW A","2100801","2021-03-16 12:00","2021","03","16","12:00","-25.9","","-30.9","","64","","","","26","","4","","40.2","","98.14","","","","-30","","NA"
"-139.84","67.57","OLD CROW A","2100801","2021-03-16 13:00","2021","03","16","13:00","-23.9","","-29.6","","60","","","","36","","2","","40.2","","98.16","","","","-26","","Mainly Clear"
"-139.84","67.57","OLD CROW A","2100801","2021-03-16 14:00","2021","03","16","14:00","-21.6","","-27.8","","58","","","","11","","5","","40.2","","98.15","","","","-26","","NA"
"-139.84","67.57","OLD CROW A","2100801","2021-03-16 15:00","2021","03","16","15:00"
"-139.84","67.57","OLD CROW A","2100801","2021-03-16 16:00","2021","03","16","16:00"
"-139.84","67.57","OLD CROW A","2100801","2021-03-16 17:00","2021","03","16","17:00"
"-139.84","67.57","OLD CROW A","2100801","2021-03-16 18:00","2021","03","16","18:00"
"-139.84","67.57","OLD CROW A","2100801","2021-03-16 19:00","2021","03","16","19:00"
"-139.84","67.57","OLD CROW A","2100801","2021-03-16 20:00","2021","03","16","20:00"
"-139.84","67.57","OLD CROW A","2100801","2021-03-16 21:00","2021","03","16","21:00"
"-139.84","67.57","OLD CROW A","2100801","2021-03-16 22:00","2021","03","16","22:00"
"-139.84","67.57","OLD CROW A","2100801","2021-03-16 23:00","2021","03","16","23:00"
"-139.84","67.57","OLD CROW A","2100801","2021-03-17 00:00","2021","03","17","00:00"
"-139.84","67.57","OLD CROW A","2100801","2021-03-17 01:00","2021","03","17","01:00"
"-139.84","67.57","OLD CROW A","2100801","2021-03-17 02:00","2021","03","17","02:00"
"-139.84","67.57","OLD CROW A","2100801","2021-03-17 03:00","2021","03","17","03:00"
"-139.84","67.57","OLD CROW A","2100801","2021-03-17 04:00","2021","03","17","04:00"
"-139.84","67.57","OLD CROW A","2100801","2021-03-17 05:00","2021","03","17","05:00","-38.1","","-42.1","","67","","","","15","","3","","24.1","","98.16","","","","-42","","NA"
"-139.84","67.57","OLD CROW A","2100801","2021-03-17 06:00","2021","03","17","06:00","-38.5","","-42.6","","66","","","","36","","1","","40.2","","98.13","","","","-40","","NA"
"-139.84","67.57","OLD CROW A","2100801","2021-03-17 07:00","2021","03","17","07:00","-39.0","","-43.1","","66","","","","36","","2","","40.2","","98.14","","","","-42","","Mainly Clear"
"-139.84","67.57","OLD CROW A","2100801","2021-03-17 08:00","2021","03","17","08:00","-39.1","","-43.3","","66","","","","3","","4","","40.2","","98.13","","","","-45","","NA"
"-139.84","67.57","OLD CROW A","2100801","2021-03-17 09:00","2021","03","17","09:00","-37.7","","-41.8","","66","","","","4","","3","","40.2","","98.08","","","","-42","","Ice Crystals"
"-139.84","67.57","OLD CROW A","2100801","2021-03-17 10:00","2021","03","17","10:00","-33.8","","-37.7","","68","","","","36","","2","","40.2","","98.03","","","","-36","","Ice Crystals"
"-139.84","67.57","OLD CROW A","2100801","2021-03-17 11:00","2021","03","17","11:00","-30.8","","-35.2","","66","","","","36","","3","","40.2","","97.94","","","","-34","","Ice Crystals"
"-139.84","67.57","OLD CROW A","2100801","2021-03-17 12:00","2021","03","17","12:00","-27.6","","-32.8","","62","","","","23","","4","","40.2","","97.88","","","","-32","","Ice Crystals"
"-139.84","67.57","OLD CROW A","2100801","2021-03-17 13:00","2021","03","17","13:00","-24.4","","-30.4","","58","","","","25","","4","","40.2","","97.83","","","","-28","","Ice Crystals"
"-139.84","67.57","OLD CROW A","2100801","2021-03-17 14:00","2021","03","17","14:00","-22.6","","-29.3","","55","","","","28","","4","","40.2","","97.78","","","","-26","","NA"
"-139.84","67.57","OLD CROW A","2100801","2021-03-17 15:00","2021","03","17","15:00"
"-139.84","67.57","OLD CROW A","2100801","2021-03-17 16:00","2021","03","17","16:00"
"-139.84","67.57","OLD CROW A","2100801","2021-03-17 17:00","2021","03","17","17:00"
"-139.84","67.57","OLD CROW A","2100801","2021-03-17 18:00","2021","03","17","18:00"
"-139.84","67.57","OLD CROW A","2100801","2021-03-17 19:00","2021","03","17","19:00"
"-139.84","67.57","OLD CROW A","2100801","2021-03-17 20:00","2021","03","17","20:00"
"-139.84","67.57","OLD CROW A","2100801","2021-03-17 21:00","2021","03","17","21:00"
"-139.84","67.57","OLD CROW A","2100801","2021-03-17 22:00","2021","03","17","22:00"
"-139.84","67.57","OLD CROW A","2100801","2021-03-17 23:00","2021","03","17","23:00"
"-139.84","67.57","OLD CROW A","2100801","2021-03-18 00:00","2021","03","18","00:00"
"-139.84","67.57","OLD CROW A","2100801","2021-03-18 01:00","2021","03","18","01:00"
"-139.84","67.57","OLD CROW A","2100801","2021-03-18 02:00","2021","03","18","02:00"
"-139.84","67.57","OLD CROW A","2100801","2021-03-18 03:00","2021","03","18","03:00"
"-139.84","67.57","OLD CROW A","2100801","2021-03-18 04:00","2021","03","18","04:00"
"-139.84","67.57","OLD CROW A","2100801","2021-03-18 05:00","2021","03","18","05:00","-37.2","","-41.1","","68","","","","2","","3","","24.1","","97.55","","","","-41","","NA"
"-139.84","67.57","OLD CROW A","2100801","2021-03-18 06:00","2021","03","18","06:00","-37.5","","-41.6","","67","","","","36","","1","","40.2","","97.57","","","","-39","","NA"
"-139.84","67.57","OLD CROW A","2100801","2021-03-18 07:00","2021","03","18","07:00","-37.5","","-41.5","","67","","","","36","","3","","40.2","","97.63","","","","-41","","Clear"
"-139.84","67.57","OLD CROW A","2100801","2021-03-18 08:00","2021","03","18","08:00","-37.8","","-41.8","","67","","","","13","","4","","40.2","","97.68","","","","-43","","Ice Crystals"
"-139.84","67.57","OLD CROW A","2100801","2021-03-18 09:00","2021","03","18","09:00","-36.0","","-40.2","","66","","","","36","","2","","40.2","","97.72","","","","-39","","Ice Crystals"
"-139.84","67.57","OLD CROW A","2100801","2021-03-18 10:00","2021","03","18","10:00","-33.5","","-37.4","","69","","","","0","","1","","40.2","","97.74","","","","-35","","Ice Crystals"
"-139.84","67.57","OLD CROW A","2100801","2021-03-18 11:00","2021","03","18","11:00","-30.8","","-34.8","","69","","","","36","","1","","40.2","","97.79","","","","-32","","Ice Crystals"
"-139.84","67.57","OLD CROW A","2100801","2021-03-18 12:00","2021","03","18","12:00"
"-139.84","67.57","OLD CROW A","2100801","2021-03-18 13:00","2021","03","18","13:00","-24.1","","-30.6","","56","","","","20","","5","","40.2","","97.84","","","","-29","","Ice Crystals"
"-139.84","67.57","OLD CROW A","2100801","2021-03-18 14:00","2021","03","18","14:00","-22.0","","-28.0","","59","","","","36","","2","","40.2","","97.85","","","","-24","","NA"
"-139.84","67.57","OLD CROW A","2100801","2021-03-18 15:00","2021","03","18","15:00"
"-139.84","67.57","OLD CROW A","2100801","2021-03-18 16:00","2021","03","18","16:00"
"-139.84","67.57","OLD CROW A","2100801","2021-03-18 17:00","2021","03","18","17:00"
"-139.84","67.57","OLD CROW A","2100801","2021-03-18 18:00","2021","03","18","18:00"
"-139.84","67.57","OLD CROW A","2100801","2021-03-18 19:00","2021","03","18","19:00"
"-139.84","67.57","OLD CROW A","2100801","2021-03-18 20:00","2021","03","18","20:00"
"-139.84","67.57","OLD CROW A","2100801","2021-03-18 21:00","2021","03","18","21:00"
"-139.84","67.57","OLD CROW A","2100801","2021-03-18 22:00","2021","03","18","22:00"
"-139.84","67.57","OLD CROW A","2100801","2021-03-18 23:00","2021","03","18","23:00"
"-139.84","67.57","OLD CROW A","2100801","2021-03-19 00:00","2021","03","19","00:00"
"-139.84","67.57","OLD CROW A","2100801","2021-03-19 01:00","2021","03","19","01:00"
"-139.84","67.57","OLD CROW A","2100801","2021-03-19 02:00","2021","03","19","02:00"
"-139.84","67.57","OLD CROW A","2100801","2021-03-19 03:00","2021","03","19","03:00"
"-139.84","67.57","OLD CROW A","2100801","2021-03-19 04:00","2021","03","19","04:00"
"-139.84","67.57","OLD CROW A","2100801","2021-03-19 05:00","2021","03","19","05:00","-34.0","","-37.9","","69","","","","","","0","","40.2","","98.55","","","","","","Ice Crystals"
"-139.84","67.57","OLD CROW A","2100801","2021-03-19 06:00","2021","03","19","06:00","-34.2","","-38.1","","69","","","","30","","3","","40.2","","98.61","","","","-38","","Ice Crystals"
"-139.84","67.57","OLD CROW A","2100801","2021-03-19 07:00","2021","03","19","07:00","-35.7","","-39.6","","68","","","","6","","3","","40.2","","98.65","","","","-40","","Ice Crystals"
"-139.84","67.57","OLD CROW A","2100801","2021-03-19 08:00","2021","03","19","08:00","-34.9","","-38.9","","68","","","","36","","2","","40.2","","98.67","","","","-37","","Ice Crystals"
"-139.84","67.57","OLD CROW A","2100801","2021-03-19 09:00","2021","03","19","09:00","-33.6","","-37.7","","67","","","","22","","3","","32.2","","98.73","","","","-37","","Snow"
"-139.84","67.57","OLD CROW A","2100801","2021-03-19 10:00","2021","03","19","10:00","-31.8","","-35.7","","69","","","","36","","1","","40.2","","98.74","","","","-33","","Ice Crystals"
"-139.84","67.57","OLD CROW A","2100801","2021-03-19 11:00","2021","03","19","11:00","-28.3","","-33.1","","64","","","","13","","4","","40.2","","98.75","","","","-33","","Ice Crystals"
"-139.84","67.57","OLD CROW A","2100801","2021-03-19 12:00","2021","03","19","12:00","-25.5","","-30.8","","62","","","","27","","6","","40.2","","98.74","","","","-31","","Ice Crystals"
"-139.84","67.57","OLD CROW A","2100801","2021-03-19 13:00","2021","03","19","13:00","-22.9","","-28.4","","61","","","","28","","7","","40.2","","98.77","","","","-29","","Ice Crystals"
"-139.84","67.57","OLD CROW A","2100801","2021-03-19 14:00","2021","03","19","14:00","-19.5","","-26.4","","55","","","","14","","4","","40.2","","98.75","","","","-23","","Ice Crystals"
"-139.84","67.57","OLD CROW A","2100801","2021-03-19 15:00","2021","03","19","15:00"
"-139.84","67.57","OLD CROW A","2100801","2021-03-19 16:00","2021","03","19","16:00"
"-139.84","67.57","OLD CROW A","2100801","2021-03-19 17:00","2021","03","19","17:00"
"-139.84","67.57","OLD CROW A","2100801","2021-03-19 18:00","2021","03","19","18:00"
"-139.84","67.57","OLD CROW A","2100801","2021-03-19 19:00","2021","03","19","19:00"
"-139.84","67.57","OLD CROW A","2100801","2021-03-19 20:00","2021","03","19","20:00"
"-139.84","67.57","OLD CROW A","2100801","2021-03-19 21:00","2021","03","19","21:00"
"-139.84","67.57","OLD CROW A","2100801","2021-03-19 22:00","2021","03","19","22:00"
"-139.84","67.57","OLD CROW A","2100801","2021-03-19 23:00","2021","03","19","23:00"
"-139.84","67.57","OLD CROW A","2100801","2021-03-20 00:00","2021","03","20","00:00"
"-139.84","67.57","OLD CROW A","2100801","2021-03-20 01:00","2021","03","20","01:00"
"-139.84","67.57","OLD CROW A","2100801","2021-03-20 02:00","2021","03","20","02:00"
"-139.84","67.57","OLD CROW A","2100801","2021-03-20 03:00","2021","03","20","03:00"
"-139.84","67.57","OLD CROW A","2100801","2021-03-20 04:00","2021","03","20","04:00"
"-139.84","67.57","OLD CROW A","2100801","2021-03-20 05:00","2021","03","20","05:00","-35.5","","-39.2","","70","","","","28","","3","","40.2","","98.93","","","","-39","","Ice Crystals"
"-139.84","67.57","OLD CROW A","2100801","2021-03-20 06:00","2021","03","20","06:00","-36.7","","-40.7","","68","","","","36","","3","","40.2","","98.96","","","","-41","","NA"
"-139.84","67.57","OLD CROW A","2100801","2021-03-20 07:00","2021","03","20","07:00","-38.2","","-42.3","","67","","","","36","","3","","40.2","","98.94","","","","-42","","Clear"
"-139.84","67.57","OLD CROW A","2100801","2021-03-20 08:00","2021","03","20","08:00","-37.2","","-41.1","","68","","","","36","","1","","40.2","","98.92","","","","-39","","NA"
"-139.84","67.57","OLD CROW A","2100801","2021-03-20 09:00","2021","03","20","09:00","-35.5","","-39.4","","68","","","","36","","1","","40.2","","98.94","","","","-37","","NA"
"-139.84","67.57","OLD CROW A","2100801","2021-03-20 10:00","2021","03","20","10:00","-32.0","","-35.7","","71","","","","36","","3","","40.2","","98.93","","","","-36","","Clear"
"-139.84","67.57","OLD CROW A","2100801","2021-03-20 11:00","2021","03","20","11:00","-28.5","","-32.6","","69","","","","24","","4","","40.2","","98.92","","","","-33","","NA"
"-139.84","67.57","OLD CROW A","2100801","2021-03-20 12:00","2021","03","20","12:00","-26.0","","-31.3","","62","","","","27","","6","","40.2","","98.91","","","","-32","","NA"
"-139.84","67.57","OLD CROW A","2100801","2021-03-20 13:00","2021","03","20","13:00","-21.3","","-27.3","","59","","","","36","","3","","40.2","","98.87","","","","-24","","Clear"
"-139.84","67.57","OLD CROW A","2100801","2021-03-20 14:00","2021","03","20","14:00","-17.7","","-24.9","","54","","","","8","","13","","40.2","","98.84","","","","-26","","NA"
"-139.84","67.57","OLD CROW A","2100801","2021-03-20 15:00","2021","03","20","15:00"
"-139.84","67.57","OLD CROW A","2100801","2021-03-20 16:00","2021","03","20","16:00"
"-139.84","67.57","OLD CROW A","2100801","2021-03-20 17:00","2021","03","20","17:00"
"-139.84","67.57","OLD CROW A","2100801","2021-03-20 18:00","2021","03","20","18:00"
"-139.84","67.57","OLD CROW A","2100801","2021-03-20 19:00","2021","03","20","19:00"
"-139.84","67.57","OLD CROW A","2100801","2021-03-20 20:00","2021","03","20","20:00"
"-139.84","67.57","OLD CROW A","2100801","2021-03-20 21:00","2021","03","20","21:00"
"-139.84","67.57","OLD CROW A","2100801","2021-03-20 22:00","2021","03","20","22:00"
"-139.84","67.57","OLD CROW A","2100801","2021-03-20 23:00","2021","03","20","23:00"
"-139.84","67.57","OLD CROW A","2100801","2021-03-21 00:00","2021","03","21","00:00"
"-139.84","67.57","OLD CROW A","2100801","2021-03-21 01:00","2021","03","21","01:00"
"-139.84","67.57","OLD CROW A","2100801","2021-03-21 02:00","2021","03","21","02:00"
"-139.84","67.57","OLD CROW A","2100801","2021-03-21 03:00","2021","03","21","03:00"
"-139.84","67.57","OLD CROW A","2100801","2021-03-21 04:00","2021","03","21","04:00"
"-139.84","67.57","OLD CROW A","2100801","2021-03-21 05:00","2021","03","21","05:00","-30.9","","-34.0","","75","","","","8","","7","","40.2","","98.83","","","","-38","","Ice Crystals"
"-139.84","67.57","OLD CROW A","2100801","2021-03-21 06:00","2021","03","21","06:00","-31.0","","-34.3","","74","","","","8","","6","","40.2","","98.84","","","","-38","","Ice Crystals"
"-139.84","67.57","OLD CROW A","2100801","2021-03-21 07:00","2021","03","21","07:00","-31.7","","-35.1","","72","","","","36","","1","","40.2","","98.84","","","","-33","","Ice Crystals"
"-139.84","67.57","OLD CROW A","2100801","2021-03-21 08:00","2021","03","21","08:00","-30.4","","-33.5","","75","","","","6","","8","","40.2","","98.86","","","","-38","","Ice Crystals"
"-139.84","67.57","OLD CROW A","2100801","2021-03-21 09:00","2021","03","21","09:00","-27.7","","-30.8","","75","","","","8","","6","","40.2","","98.87","","","","-34","","Ice Crystals"
"-139.84","67.57","OLD CROW A","2100801","2021-03-21 10:00","2021","03","21","10:00","-24.2","","-27.6","","74","","","","10","","5","","40.2","","98.89","","","","-29","","Clear"
"-139.84","67.57","OLD CROW A","2100801","2021-03-21 11:00","2021","03","21","11:00","-20.2","","-24.8","","68","","","","10","","7","","40.2","","98.88","","","","-26","","NA"
"-139.84","67.57","OLD CROW A","2100801","2021-03-21 12:00","2021","03","21","12:00","-18.3","","-24.5","","59","","","","8","","12","","40.2","","98.88","","","","-26","","NA"
"-139.84","67.57","OLD CROW A","2100801","2021-03-21 13:00","2021","03","21","13:00","-16.9","","-24.1","","54","","","","7","","15","","40.2","","98.89","","","","-25","","Clear"
"-139.84","67.57","OLD CROW A","2100801","2021-03-21 14:00","2021","03","21","14:00","-16.0","","-23.8","","52","","","","7","","14","","40.2","","98.89","","","","-24","","NA"
"-139.84","67.57","OLD CROW A","2100801","2021-03-21 15:00","2021","03","21","15:00"
"-139.84","67.57","OLD CROW A","2100801","2021-03-21 16:00","2021","03","21","16:00"
"-139.84","67.57","OLD CROW A","2100801","2021-03-21 17:00","2021","03","21","17:00"
"-139.84","67.57","OLD CROW A","2100801","2021-03-21 18:00","2021","03","21","18:00"
"-139.84","67.57","OLD CROW A","2100801","2021-03-21 19:00","2021","03","21","19:00"
"-139.84","67.57","OLD CROW A","2100801","2021-03-21 20:00","2021","03","21","20:00"
"-139.84","67.57","OLD CROW A","2100801","2021-03-21 21:00","2021","03","21","21:00"
"-139.84","67.57","OLD CROW A","2100801","2021-03-21 22:00","2021","03","21","22:00"
"-139.84","67.57","OLD CROW A","2100801","2021-03-21 23:00","2021","03","21","23:00"
"-139.84","67.57","OLD CROW A","2100801","2021-03-22 00:00","2021","03","22","00:00"
"-139.84","67.57","OLD CROW A","2100801","2021-03-22 01:00","2021","03","22","01:00"
"-139.84","67.57","OLD CROW A","2100801","2021-03-22 02:00","2021","03","22","02:00"
"-139.84","67.57","OLD CROW A","2100801","2021-03-22 03:00","2021","03","22","03:00"
"-139.84","67.57","OLD CROW A","2100801","2021-03-22 04:00","2021","03","22","04:00"
"-139.84","67.57","OLD CROW A","2100801","2021-03-22 05:00","2021","03","22","05:00","-33.6","","-37.3","","70","","","","36","","1","","40.2","","99.22","","","","-35","","NA"
"-139.84","67.57","OLD CROW A","2100801","2021-03-22 06:00","2021","03","22","06:00","-33.6","","-37.4","","70","","","","36","","2","","40.2","","99.23","","","","-36","","NA"
"-139.84","67.57","OLD CROW A","2100801","2021-03-22 07:00","2021","03","22","07:00","-34.4","","-38.1","","70","","","","26","","4","","40.2","","99.28","","","","-39","","Clear"
"-139.84","67.57","OLD CROW A","2100801","2021-03-22 08:00","2021","03","22","08:00","-34.6","","-38.5","","69","","","","36","","3","","40.2","","99.31","","","","-38","","NA"
"-139.84","67.57","OLD CROW A","2100801","2021-03-22 09:00","2021","03","22","09:00","-32.1","","-35.7","","71","","","","36","","1","","40.2","","99.32","","","","-33","","NA"
"-139.84","67.57","OLD CROW A","2100801","2021-03-22 10:00","2021","03","22","10:00","-28.6","","-32.1","","72","","","","36","","2","","40.2","","99.33","","","","-31","","Clear"
"-139.84","67.57","OLD CROW A","2100801","2021-03-22 11:00","2021","03","22","11:00","-25.9","","-30.3","","68","","","","27","","5","","40.2","","99.34","","","","-31","","NA"
"-139.84","67.57","OLD CROW A","2100801","2021-03-22 12:00","2021","03","22","12:00","-22.4","","-28.0","","61","","","","36","","2","","40.2","","99.32","","","","-24","","NA"
"-139.84","67.57","OLD CROW A","2100801","2021-03-22 13:00","2021","03","22","13:00","-16.8","","-24.4","","53","","","","9","","8","","40.2","","99.30","","","","-22","","Clear"
"-139.84","67.57","OLD CROW A","2100801","2021-03-22 14:00","2021","03","22","14:00","-15.3","","-23.6","","50","","","","8","","11","","40.2","","99.27","","","","-22","","NA"
"-139.84","67.57","OLD CROW A","2100801","2021-03-22 15:00","2021","03","22","15:00"
"-139.84","67.57","OLD CROW A","2100801","2021-03-22 16:00","2021","03","22","16:00"
"-139.84","67.57","OLD CROW A","2100801","2021-03-22 17:00","2021","03","22","17:00"
"-139.84","67.57","OLD CROW A","2100801","2021-03-22 18:00","2021","03","22","18:00"
"-139.84","67.57","OLD CROW A","2100801","2021-03-22 19:00","2021","03","22","19:00"
"-139.84","67.57","OLD CROW A","2100801","2021-03-22 20:00","2021","03","22","20:00"
"-139.84","67.57","OLD CROW A","2100801","2021-03-22 21:00","2021","03","22","21:00"
"-139.84","67.57","OLD CROW A","2100801","2021-03-22 22:00","2021","03","22","22:00"
"-139.84","67.57","OLD CROW A","2100801","2021-03-22 23:00","2021","03","22","23:00"
"-139.84","67.57","OLD CROW A","2100801","2021-03-23 00:00","2021","03","23","00:00"
"-139.84","67.57","OLD CROW A","2100801","2021-03-23 01:00","2021","03","23","01:00"
"-139.84","67.57","OLD CROW A","2100801","2021-03-23 02:00","2021","03","23","02:00"
"-139.84","67.57","OLD CROW A","2100801","2021-03-23 03:00","2021","03","23","03:00"
"-139.84","67.57","OLD CROW A","2100801","2021-03-23 04:00","2021","03","23","04:00"
"-139.84","67.57","OLD CROW A","2100801","2021-03-23 05:00","2021","03","23","05:00","-30.1","","-33.4","","74","","","","27","","6","","40.2","","98.79","","","","-37","","NA"
"-139.84","67.57","OLD CROW A","2100801","2021-03-23 06:00","2021","03","23","06:00","-32.3","","-35.9","","71","","","","27","","4","","40.2","","98.77","","","","-37","","NA"
"-139.84","67.57","OLD CROW A","2100801","2021-03-23 07:00","2021","03","23","07:00","-32.1","","-35.6","","71","","","","6","","3","","40.2","","98.71","","","","-36","","Cloudy"
"-139.84","67.57","OLD CROW A","2100801","2021-03-23 08:00","2021","03","23","08:00","-30.6","","-34.4","","70","","","","36","","3","","40.2","","98.69","","","","-34","","NA"
"-139.84","67.57","OLD CROW A","2100801","2021-03-23 09:00","2021","03","23","09:00","-29.6","","-33.4","","71","","","","22","","4","","40.2","","98.66","","","","-34","","NA"
"-139.84","67.57","OLD CROW A","2100801","2021-03-23 10:00","2021","03","23","10:00","-28.2","","-31.7","","72","","","","26","","4","","40.2","","98.62","","","","-33","","Cloudy"
"-139.84","67.57","OLD CROW A","2100801","2021-03-23 11:00","2021","03","23","11:00","-25.5","","-29.3","","71","","","","30","","3","","40.2","","98.59","","","","-29","","NA"
"-139.84","67.57","OLD CROW A","2100801","2021-03-23 12:00","2021","03","23","12:00","-23.4","","-28.2","","65","","","","26","","7","","40.2","","98.53","","","","-30","","NA"
"-139.84","67.57","OLD CROW A","2100801","2021-03-23 13:00","2021","03","23","13:00","-20.8","","-26.8","","60","","","","25","","4","","40.2","","98.51","","","","-24","","Cloudy"
"-139.84","67.57","OLD CROW A","2100801","2021-03-23 14:00","2021","03","23","14:00","-19.2","","-26.0","","56","","","","27","","6","","40.2","","98.48","","","","-24","","NA"
"-139.84","67.57","OLD CROW A","2100801","2021-03-23 15:00","2021","03","23","15:00"
"-139.84","67.57","OLD CROW A","2100801","2021-03-23 16:00","2021","03","23","16:00"
"-139.84","67.57","OLD CROW A","2100801","2021-03-23 17:00","2021","03","23","17:00"
"-139.84","67.57","OLD CROW A","2100801","2021-03-23 18:00","2021","03","23","18:00"
"-139.84","67.57","OLD CROW A","2100801","2021-03-23 19:00","2021","03","23","19:00"
"-139.84","67.57","OLD CROW A","2100801","2021-03-23 20:00","2021","03","23","20:00"
"-139.84","67.57","OLD CROW A","2100801","2021-03-23 21:00","2021","03","23","21:00"
"-139.84","67.57","OLD CROW A","2100801","2021-03-23 22:00","2021","03","23","22:00"
"-139.84","67.57","OLD CROW A","2100801","2021-03-23 23:00","2021","03","23","23:00"
"-139.84","67.57","OLD CROW A","2100801","2021-03-24 00:00","2021","03","24","00:00"
"-139.84","67.57","OLD CROW A","2100801","2021-03-24 01:00","2021","03","24","01:00"
"-139.84","67.57","OLD CROW A","2100801","2021-03-24 02:00","2021","03","24","02:00"
"-139.84","67.57","OLD CROW A","2100801","2021-03-24 03:00","2021","03","24","03:00"
"-139.84","67.57","OLD CROW A","2100801","2021-03-24 04:00","2021","03","24","04:00"
"-139.84","67.57","OLD CROW A","2100801","2021-03-24 05:00","2021","03","24","05:00","-25.5","","-28.6","","76","","","","9","","4","","40.2","","98.01","","","","-30","","NA"
"-139.84","67.57","OLD CROW A","2100801","2021-03-24 06:00","2021","03","24","06:00","-24.1","","-26.9","","78","","","","28","","4","","40.2","","97.97","","","","-28","","NA"
"-139.84","67.57","OLD CROW A","2100801","2021-03-24 07:00","2021","03","24","07:00","-19.2","","-21.7","","81","","","","25","","15","","40.2","","97.90","","","","-28","","Cloudy"
"-139.84","67.57","OLD CROW A","2100801","2021-03-24 08:00","2021","03","24","08:00","-17.1","","-20.5","","75","","","","26","","15","","40.2","","97.89","","","","-26","","Snow"
"-139.84","67.57","OLD CROW A","2100801","2021-03-24 09:00","2021","03","24","09:00","-16.7","","-20.1","","76","","","","24","","9","","4.8","","97.90","","","","-23","","Snow"
"-139.84","67.57","OLD CROW A","2100801","2021-03-24 10:00","2021","03","24","10:00","-13.7","","-17.2","","75","","","","21","","8","","6.4","","97.88","","","","-19","","Snow"
"-139.84","67.57","OLD CROW A","2100801","2021-03-24 11:00","2021","03","24","11:00","-11.3","","-15.6","","71","","","","26","","28","","16.1","","97.84","","","","-21","","Snow"
"-139.84","67.57","OLD CROW A","2100801","2021-03-24 12:00","2021","03","24","12:00","-10.3","","-14.9","","69","","","","25","","27","","24.1","","97.80","","","","-19","","NA"
"-139.84","67.57","OLD CROW A","2100801","2021-03-24 13:00","2021","03","24","13:00","-9.0","","-15.1","","62","","","","26","","32","","40.2","","97.77","","","","-18","","Blowing Snow"
"-139.84","67.57","OLD CROW A","2100801","2021-03-24 14:00","2021","03","24","14:00","-8.1","","-15.4","","56","","","","25","","28","","40.2","","97.79","","","","-17","","NA"
"-139.84","67.57","OLD CROW A","2100801","2021-03-24 15:00","2021","03","24","15:00"
"-139.84","67.57","OLD CROW A","2100801","2021-03-24 16:00","2021","03","24","16:00"
"-139.84","67.57","OLD CROW A","2100801","2021-03-24 17:00","2021","03","24","17:00"
"-139.84","67.57","OLD CROW A","2100801","2021-03-24 18:00","2021","03","24","18:00"
"-139.84","67.57","OLD CROW A","2100801","2021-03-24 19:00","2021","03","24","19:00"
"-139.84","67.57","OLD CROW A","2100801","2021-03-24 20:00","2021","03","24","20:00"
"-139.84","67.57","OLD CROW A","2100801","2021-03-24 21:00","2021","03","24","21:00"
"-139.84","67.57","OLD CROW A","2100801","2021-03-24 22:00","2021","03","24","22:00"
"-139.84","67.57","OLD CROW A","2100801","2021-03-24 23:00","2021","03","24","23:00"
"-139.84","67.57","OLD CROW A","2100801","2021-03-25 00:00","2021","03","25","00:00"
"-139.84","67.57","OLD CROW A","2100801","2021-03-25 01:00","2021","03","25","01:00"
"-139.84","67.57","OLD CROW A","2100801","2021-03-25 02:00","2021","03","25","02:00"
"-139.84","67.57","OLD CROW A","2100801","2021-03-25 03:00","2021","03","25","03:00"
"-139.84","67.57","OLD CROW A","2100801","2021-03-25 04:00","2021","03","25","04:00"
"-139.84","67.57","OLD CROW A","2100801","2021-03-25 05:00","2021","03","25","05:00","-10.2","","-12.6","","83","","","","27","","8","","40.2","","97.66","","","","-15","","NA"
"-139.84","67.57","OLD CROW A","2100801","2021-03-25 06:00","2021","03","25","06:00","-10.6","","-12.4","","87","","","","31","","4","","40.2","","97.66","","","","-13","","NA"
"-139.84","67.57","OLD CROW A","2100801","2021-03-25 07:00","2021","03","25","07:00","-10.6","","-12.4","","87","","","","36","","3","","16.1","","97.65","","","","-12","","Cloudy"
"-139.84","67.57","OLD CROW A","2100801","2021-03-25 08:00","2021","03","25","08:00","-9.0","","-11.0","","85","","","","8","","3","","24.1","","97.63","","","","-11","","Snow"
"-139.84","67.57","OLD CROW A","2100801","2021-03-25 09:00","2021","03","25","09:00","-7.3","","-9.8","","83","","","","25","","12","","24.1","","97.61","","","","-13","","Snow"
"-139.84","67.57","OLD CROW A","2100801","2021-03-25 10:00","2021","03","25","10:00","-6.6","","-9.5","","79","","","","26","","20","","24.1","","97.59","","","","-14","","Snow"
"-139.84","67.57","OLD CROW A","2100801","2021-03-25 11:00","2021","03","25","11:00","-5.6","","-9.4","","75","","","","26","","20","","24.1","","97.60","","","","-12","","Snow"
"-139.84","67.57","OLD CROW A","2100801","2021-03-25 12:00","2021","03","25","12:00","-5.4","","-9.2","","75","","","","26","","19","","32.2","","97.58","","","","-12","","NA"
"-139.84","67.57","OLD CROW A","2100801","2021-03-25 13:00","2021","03","25","13:00","-4.5","","-8.3","","74","","","","25","","13","","32.2","","97.57","","","","-10","","Cloudy"
"-139.84","67.57","OLD CROW A","2100801","2021-03-25 14:00","2021","03","25","14:00","-4.2","","-9.0","","69","","","","27","","11","","24.1","","97.58","","","","-9","","Snow"
"-139.84","67.57","OLD CROW A","2100801","2021-03-25 15:00","2021","03","25","15:00"
"-139.84","67.57","OLD CROW A","2100801","2021-03-25 16:00","2021","03","25","16:00"
"-139.84","67.57","OLD CROW A","2100801","2021-03-25 17:00","2021","03","25","17:00"
"-139.84","67.57","OLD CROW A","2100801","2021-03-25 18:00","2021","03","25","18:00"
"-139.84","67.57","OLD CROW A","2100801","2021-03-25 19:00","2021","03","25","19:00"
"-139.84","67.57","OLD CROW A","2100801","2021-03-25 20:00","2021","03","25","20:00"
"-139.84","67.57","OLD CROW A","2100801","2021-03-25 21:00","2021","03","25","21:00"
"-139.84","67.57","OLD CROW A","2100801","2021-03-25 22:00","2021","03","25","22:00"
"-139.84","67.57","OLD CROW A","2100801","2021-03-25 23:00","2021","03","25","23:00"
"-139.84","67.57","OLD CROW A","2100801","2021-03-26 00:00","2021","03","26","00:00"
"-139.84","67.57","OLD CROW A","2100801","2021-03-26 01:00","2021","03","26","01:00"
"-139.84","67.57","OLD CROW A","2100801","2021-03-26 02:00","2021","03","26","02:00"
"-139.84","67.57","OLD CROW A","2100801","2021-03-26 03:00","2021","03","26","03:00"
"-139.84","67.57","OLD CROW A","2100801","2021-03-26 04:00","2021","03","26","04:00"
"-139.84","67.57","OLD CROW A","2100801","2021-03-26 05:00","2021","03","26","05:00","-13.9","","-17.5","","74","","","","1","","11","","3.2","","97.97","","","","-20","","Snow"
"-139.84","67.57","OLD CROW A","2100801","2021-03-26 06:00","2021","03","26","06:00","-14.8","","-18.2","","76","","","","3","","23","","3.2","","98.02","","","","-25","","Snow"
"-139.84","67.57","OLD CROW A","2100801","2021-03-26 07:00","2021","03","26","07:00","-14.5","","-18.6","","71","","","","3","","26","","1.6","","98.05","","","","-25","","Snow,Blowing Snow"
"-139.84","67.57","OLD CROW A","2100801","2021-03-26 08:00","2021","03","26","08:00","-14.7","","-19.3","","68","","","","3","","24","","2.4","","98.14","","","","-25","","Snow,Blowing Snow"
"-139.84","67.57","OLD CROW A","2100801","2021-03-26 09:00","2021","03","26","09:00","-14.9","","-19.5","","68","","","","5","","14","","4.8","","98.19","","","","-22","","Snow,Blowing Snow"
"-139.84","67.57","OLD CROW A","2100801","2021-03-26 10:00","2021","03","26","10:00","-14.8","","-19.8","","67","","","","2","","18","","8.1","","98.26","","","","-23","","Snow"
"-139.84","67.57","OLD CROW A","2100801","2021-03-26 11:00","2021","03","26","11:00","-14.5","","-19.9","","64","","","","3","","15","","16.1","","98.31","","","","-22","","Snow"
"-139.84","67.57","OLD CROW A","2100801","2021-03-26 12:00","2021","03","26","12:00","-14.5","","-20.6","","61","","","","7","","21","","40.2","","98.34","","","","-24","","Snow"
"-139.84","67.57","OLD CROW A","2100801","2021-03-26 13:00","2021","03","26","13:00","-14.7","","-20.2","","63","","","","8","","14","","24.1","","98.38","","","","-22","","Snow"
"-139.84","67.57","OLD CROW A","2100801","2021-03-26 14:00","2021","03","26","14:00","-14.9","","-20.9","","61","","","","6","","26","","24.1","","98.39","","","","-25","","Snow"
"-139.84","67.57","OLD CROW A","2100801","2021-03-26 15:00","2021","03","26","15:00"
"-139.84","67.57","OLD CROW A","2100801","2021-03-26 16:00","2021","03","26","16:00"
"-139.84","67.57","OLD CROW A","2100801","2021-03-26 17:00","2021","03","26","17:00"
"-139.84","67.57","OLD CROW A","2100801","2021-03-26 18:00","2021","03","26","18:00"
"-139.84","67.57","OLD CROW A","2100801","2021-03-26 19:00","2021","03","26","19:00"
"-139.84","67.57","OLD CROW A","2100801","2021-03-26 20:00","2021","03","26","20:00"
"-139.84","67.57","OLD CROW A","2100801","2021-03-26 21:00","2021","03","26","21:00"
"-139.84","67.57","OLD CROW A","2100801","2021-03-26 22:00","2021","03","26","22:00"
"-139.84","67.57","OLD CROW A","2100801","2021-03-26 23:00","2021","03","26","23:00"
"-139.84","67.57","OLD CROW A","2100801","2021-03-27 00:00","2021","03","27","00:00"
"-139.84","67.57","OLD CROW A","2100801","2021-03-27 01:00","2021","03","27","01:00"
"-139.84","67.57","OLD CROW A","2100801","2021-03-27 02:00","2021","03","27","02:00"
"-139.84","67.57","OLD CROW A","2100801","2021-03-27 03:00","2021","03","27","03:00"
"-139.84","67.57","OLD CROW A","2100801","2021-03-27 04:00","2021","03","27","04:00"
"-139.84","67.57","OLD CROW A","2100801","2021-03-27 05:00","2021","03","27","05:00","-19.4","","-24.0","","68","","","","5","","10","","40.2","","98.34","","","","-26","","Snow"
"-139.84","67.57","OLD CROW A","2100801","2021-03-27 06:00","2021","03","27","06:00","-19.3","","-24.1","","66","","","","2","","15","","40.2","","98.33","","","","-28","","Snow"
"-139.84","67.57","OLD CROW A","2100801","2021-03-27 07:00","2021","03","27","07:00","-19.4","","-23.9","","68","","","","7","","11","","4.0","","98.34","","","","-27","","Snow"
"-139.84","67.57","OLD CROW A","2100801","2021-03-27 08:00","2021","03","27","08:00","-19.4","","-24.3","","66","","","","6","","16","","4.8","","98.34","","","","-29","","Snow"
"-139.84","67.57","OLD CROW A","2100801","2021-03-27 09:00","2021","03","27","09:00","-19.3","","-24.4","","65","","","","5","","20","","16.1","","98.38","","","","-30","","NA"
"-139.84","67.57","OLD CROW A","2100801","2021-03-27 10:00","2021","03","27","10:00","-19.3","","-24.6","","63","","","","5","","26","","16.1","","98.39","","","","-31","","Snow"
"-139.84","67.57","OLD CROW A","2100801","2021-03-27 11:00","2021","03","27","11:00","-18.4","","-24.2","","61","","","","5","","31","","8.1","","98.42","","","","-31","","Snow,Blowing Snow"
"-139.84","67.57","OLD CROW A","2100801","2021-03-27 12:00","2021","03","27","12:00","-18.5","","-23.9","","63","","","","4","","20","","4.8","","98.45","","","","-29","","Snow,Blowing Snow"
"-139.84","67.57","OLD CROW A","2100801","2021-03-27 13:00","2021","03","27","13:00","-18.0","","-23.5","","63","","","","4","","24","","4.0","","98.49","","","","-29","","Snow,Blowing Snow"
"-139.84","67.57","OLD CROW A","2100801","2021-03-27 14:00","2021","03","27","14:00","-18.2","","-23.7","","63","","","","6","","28","","4.0","","98.54","","","","-30","","Snow,Blowing Snow"
"-139.84","67.57","OLD CROW A","2100801","2021-03-27 15:00","2021","03","27","15:00"
"-139.84","67.57","OLD CROW A","2100801","2021-03-27 16:00","2021","03","27","16:00"
"-139.84","67.57","OLD CROW A","2100801","2021-03-27 17:00","2021","03","27","17:00"
"-139.84","67.57","OLD CROW A","2100801","2021-03-27 18:00","2021","03","27","18:00"
"-139.84","67.57","OLD CROW A","2100801","2021-03-27 19:00","2021","03","27","19:00"
"-139.84","67.57","OLD CROW A","2100801","2021-03-27 20:00","2021","03","27","20:00"
"-139.84","67.57","OLD CROW A","2100801","2021-03-27 21:00","2021","03","27","21:00"
"-139.84","67.57","OLD CROW A","2100801","2021-03-27 22:00","2021","03","27","22:00"
"-139.84","67.57","OLD CROW A","2100801","2021-03-27 23:00","2021","03","27","23:00"
"-139.84","67.57","OLD CROW A","2100801","2021-03-28 00:00","2021","03","28","00:00"
"-139.84","67.57","OLD CROW A","2100801","2021-03-28 01:00","2021","03","28","01:00"
"-139.84","67.57","OLD CROW A","2100801","2021-03-28 02:00","2021","03","28","02:00"
"-139.84","67.57","OLD CROW A","2100801","2021-03-28 03:00","2021","03","28","03:00"
"-139.84","67.57","OLD CROW A","2100801","2021-03-28 04:00","2021","03","28","04:00"
"-139.84","67.57","OLD CROW A","2100801","2021-03-28 05:00","2021","03","28","05:00","-23.3","","-29.0","","60","","","","3","","31","","40.2","","99.59","","","","-37","","NA"
"-139.84","67.57","OLD CROW A","2100801","2021-03-28 06:00","2021","03","28","06:00","-23.0","","-28.5","","62","","","","4","","22","","40.2","","99.66","","","","-35","","NA"
"-139.84","67.57","OLD CROW A","2100801","2021-03-28 07:00","2021","03","28","07:00","-25.1","","-29.8","","66","","","","27","","5","","40.2","","99.75","","","","-30","","Cloudy"
"-139.84","67.57","OLD CROW A","2100801","2021-03-28 08:00","2021","03","28","08:00","-26.8","","-30.5","","71","","","","25","","4","","40.2","","99.83","","","","-31","","Ice Crystals"
"-139.84","67.57","OLD CROW A","2100801","2021-03-28 09:00","2021","03","28","09:00","-26.1","","-30.1","","69","","","","36","","2","","40.2","","99.84","","","","-28","","NA"
"-139.84","67.57","OLD CROW A","2100801","2021-03-28 10:00","2021","03","28","10:00","-23.8","","-29.2","","62","","","","25","","8","","40.2","","99.89","","","","-31","","Clear"
"-139.84","67.57","OLD CROW A","2100801","2021-03-28 11:00","2021","03","28","11:00","-21.4","","-28.4","","54","","","","9","","9","","56.3","","99.90","","","","-28","","NA"
"-139.84","67.57","OLD CROW A","2100801","2021-03-28 12:00","2021","03","28","12:00","-20.2","","-27.7","","52","","","","10","","13","","56.3","","99.90","","","","-29","","NA"
"-139.84","67.57","OLD CROW A","2100801","2021-03-28 13:00","2021","03","28","13:00","-19.1","","-27.0","","50","","","","10","","9","","56.3","","99.90","","","","-26","","Clear"
"-139.84","67.57","OLD CROW A","2100801","2021-03-28 14:00","2021","03","28","14:00","-18.1","","-26.4","","49","","","","11","","8","","56.3","","99.89","","","","-24","","NA"
"-139.84","67.57","OLD CROW A","2100801","2021-03-28 15:00","2021","03","28","15:00","-17.7","","-26.1","","49","","","","8","","7","","56.3","","99.83","","","","-23","","NA"
"-139.84","67.57","OLD CROW A","2100801","2021-03-28 16:00","2021","03","28","16:00","-17.4","","-26.0","","48","","","","10","","9","","56.3","","99.78","","","","-24","","Clear"
"-139.84","67.57","OLD CROW A","2100801","2021-03-28 17:00","2021","03","28","17:00","-17.5","","-26.0","","48","","","","8","","9","","56.3","","99.72","","","","-24","","NA"
"-139.84","67.57","OLD CROW A","2100801","2021-03-28 18:00","2021","03","28","18:00"
"-139.84","67.57","OLD CROW A","2100801","2021-03-28 19:00","2021","03","28","19:00"
"-139.84","67.57","OLD CROW A","2100801","2021-03-28 20:00","2021","03","28","20:00"
"-139.84","67.57","OLD CROW A","2100801","2021-03-28 21:00","2021","03","28","21:00"
"-139.84","67.57","OLD CROW A","2100801","2021-03-28 22:00","2021","03","28","22:00"
"-139.84","67.57","OLD CROW A","2100801","2021-03-28 23:00","2021","03","28","23:00"
"-139.84","67.57","OLD CROW A","2100801","2021-03-29 00:00","2021","03","29","00:00"
"-139.84","67.57","OLD CROW A","2100801","2021-03-29 01:00","2021","03","29","01:00"
"-139.84","67.57","OLD CROW A","2100801","2021-03-29 02:00","2021","03","29","02:00"
"-139.84","67.57","OLD CROW A","2100801","2021-03-29 03:00","2021","03","29","03:00"
"-139.84","67.57","OLD CROW A","2100801","2021-03-29 04:00","2021","03","29","04:00"
"-139.84","67.57","OLD CROW A","2100801","2021-03-29 05:00","2021","03","29","05:00","-26.8","","-30.5","","72","","","","25","","5","","40.2","","98.69","","","","-32","","NA"
"-139.84","67.57","OLD CROW A","2100801","2021-03-29 06:00","2021","03","29","06:00","-26.7","","-30.3","","72","","","","36","","2","","40.2","","98.63","","","","-29","","NA"
"-139.84","67.57","OLD CROW A","2100801","2021-03-29 07:00","2021","03","29","07:00","-26.0","","-29.9","","70","","","","23","","3","","40.2","","98.56","","","","-29","","Mostly Cloudy"
"-139.84","67.57","OLD CROW A","2100801","2021-03-29 08:00","2021","03","29","08:00","-25.4","","-29.5","","69","","","","26","","3","","40.2","","98.51","","","","-28","","NA"
"-139.84","67.57","OLD CROW A","2100801","2021-03-29 09:00","2021","03","29","09:00","-24.8","","-29.0","","68","","","","27","","3","","40.2","","98.45","","","","-28","","NA"
"-139.84","67.57","OLD CROW A","2100801","2021-03-29 10:00","2021","03","29","10:00","-23.2","","-28.0","","65","","","","26","","3","","40.2","","98.40","","","","-26","","Cloudy"
"-139.84","67.57","OLD CROW A","2100801","2021-03-29 11:00","2021","03","29","11:00","-21.3","","-27.1","","60","","","","24","","3","","48.3","","98.37","","","","-24","","NA"
"-139.84","67.57","OLD CROW A","2100801","2021-03-29 12:00","2021","03","29","12:00","-19.4","","-25.5","","59","","","","0","","1","","48.3","","98.32","","","","-20","","NA"
"-139.84","67.57","OLD CROW A","2100801","2021-03-29 13:00","2021","03","29","13:00","-17.4","","-23.3","","61","","","","31","","3","","12.9","","98.25","","","","-20","","Snow"
"-139.84","67.57","OLD CROW A","2100801","2021-03-29 14:00","2021","03","29","14:00","-15.5","","-21.4","","61","","","","36","","1","","12.9","","98.19","","","","-16","","Snow"
"-139.84","67.57","OLD CROW A","2100801","2021-03-29 15:00","2021","03","29","15:00"
"-139.84","67.57","OLD CROW A","2100801","2021-03-29 16:00","2021","03","29","16:00"
"-139.84","67.57","OLD CROW A","2100801","2021-03-29 17:00","2021","03","29","17:00"
"-139.84","67.57","OLD CROW A","2100801","2021-03-29 18:00","2021","03","29","18:00"
"-139.84","67.57","OLD CROW A","2100801","2021-03-29 19:00","2021","03","29","19:00"
"-139.84","67.57","OLD CROW A","2100801","2021-03-29 20:00","2021","03","29","20:00"
"-139.84","67.57","OLD CROW A","2100801","2021-03-29 21:00","2021","03","29","21:00"
"-139.84","67.57","OLD CROW A","2100801","2021-03-29 22:00","2021","03","29","22:00"
"-139.84","67.57","OLD CROW A","2100801","2021-03-29 23:00","2021","03","29","23:00"
"-139.84","67.57","OLD CROW A","2100801","2021-03-30 00:00","2021","03","30","00:00"
"-139.84","67.57","OLD CROW A","2100801","2021-03-30 01:00","2021","03","30","01:00"
"-139.84","67.57","OLD CROW A","2100801","2021-03-30 02:00","2021","03","30","02:00"
"-139.84","67.57","OLD CROW A","2100801","2021-03-30 03:00","2021","03","30","03:00"
"-139.84","67.57","OLD CROW A","2100801","2021-03-30 04:00","2021","03","30","04:00"
"-139.84","67.57","OLD CROW A","2100801","2021-03-30 05:00","2021","03","30","05:00","-17.2","","-19.6","","81","","","","10","","3","","1.6","","97.79","","","","-20","","Snow,Fog"
"-139.84","67.57","OLD CROW A","2100801","2021-03-30 06:00","2021","03","30","06:00","-17.1","","-19.7","","81","","","","36","","1","","2.4","","97.78","","","","-18","","Snow,Fog"
"-139.84","67.57","OLD CROW A","2100801","2021-03-30 07:00","2021","03","30","07:00","-17.2","","-19.8","","80","","","","36","","1","","3.2","","97.77","","","","-18","","Snow,Fog"
"-139.84","67.57","OLD CROW A","2100801","2021-03-30 08:00","2021","03","30","08:00","-16.9","","-19.7","","79","","","","27","","6","","3.2","","97.75","","","","-21","","Snow,Fog"
"-139.84","67.57","OLD CROW A","2100801","2021-03-30 09:00","2021","03","30","09:00","-16.0","","-19.1","","77","","","","25","","3","","4.0","","97.74","","","","-18","","Snow,Fog"
"-139.84","67.57","OLD CROW A","2100801","2021-03-30 10:00","2021","03","30","10:00","-14.6","","-17.9","","76","","","","7","","4","","4.0","","97.72","","","","-17","","Snow,Fog"
"-139.84","67.57","OLD CROW A","2100801","2021-03-30 11:00","2021","03","30","11:00","-13.5","","-18.0","","70","","","","5","","14","","12.9","","97.73","","","","-21","","Snow"
"-139.84","67.57","OLD CROW A","2100801","2021-03-30 12:00","2021","03","30","12:00","-13.2","","-17.8","","69","","","","4","","13","","8.1","","97.74","","","","-20","","Snow,Fog"
"-139.84","67.57","OLD CROW A","2100801","2021-03-30 13:00","2021","03","30","13:00","-12.0","","-16.7","","69","","","","5","","14","","8.1","","97.70","","","","-19","","Snow"
"-139.84","67.57","OLD CROW A","2100801","2021-03-30 14:00","2021","03","30","14:00","-11.5","","-16.2","","68","","","","6","","16","","32.2","","97.70","","","","-19","","NA"
"-139.84","67.57","OLD CROW A","2100801","2021-03-30 15:00","2021","03","30","15:00"
"-139.84","67.57","OLD CROW A","2100801","2021-03-30 16:00","2021","03","30","16:00"
"-139.84","67.57","OLD CROW A","2100801","2021-03-30 17:00","2021","03","30","17:00"
"-139.84","67.57","OLD CROW A","2100801","2021-03-30 18:00","2021","03","30","18:00"
"-139.84","67.57","OLD CROW A","2100801","2021-03-30 19:00","2021","03","30","19:00"
"-139.84","67.57","OLD CROW A","2100801","2021-03-30 20:00","2021","03","30","20:00"
"-139.84","67.57","OLD CROW A","2100801","2021-03-30 21:00","2021","03","30","21:00"
"-139.84","67.57","OLD CROW A","2100801","2021-03-30 22:00","2021","03","30","22:00"
"-139.84","67.57","OLD CROW A","2100801","2021-03-30 23:00","2021","03","30","23:00"
"-139.84","67.57","OLD CROW A","2100801","2021-03-31 00:00","2021","03","31","00:00"
"-139.84","67.57","OLD CROW A","2100801","2021-03-31 01:00","2021","03","31","01:00"
"-139.84","67.57","OLD CROW A","2100801","2021-03-31 02:00","2021","03","31","02:00"
"-139.84","67.57","OLD CROW A","2100801","2021-03-31 03:00","2021","03","31","03:00"
"-139.84","67.57","OLD CROW A","2100801","2021-03-31 04:00","2021","03","31","04:00"
"-139.84","67.57","OLD CROW A","2100801","2021-03-31 05:00","2021","03","31","05:00","-18.3","","-21.6","","76","","","","8","","16","","11.3","","97.47","","","","-27","","Snow"
"-139.84","67.57","OLD CROW A","2100801","2021-03-31 06:00","2021","03","31","06:00","-18.3","","-21.7","","75","","","","8","","15","","9.7","","97.49","","","","-27","","Snow,Blowing Snow"
"-139.84","67.57","OLD CROW A","2100801","2021-03-31 07:00","2021","03","31","07:00","-18.7","","-22.1","","75","","","","8","","15","","4.0","","97.50","","","","-27","","Snow,Blowing Snow"
"-139.84","67.57","OLD CROW A","2100801","2021-03-31 08:00","2021","03","31","08:00","-18.7","","-22.3","","73","","","","8","","15","","9.7","","97.54","","","","-27","","Snow"
"-139.84","67.57","OLD CROW A","2100801","2021-03-31 09:00","2021","03","31","09:00","-18.3","","-22.2","","72","","","","8","","11","","9.7","","97.55","","","","-26","","Snow"
"-139.84","67.57","OLD CROW A","2100801","2021-03-31 10:00","2021","03","31","10:00","-17.5","","-21.9","","69","","","","7","","15","","8.1","","97.53","","","","-26","","Snow,Blowing Snow"
"-139.84","67.57","OLD CROW A","2100801","2021-03-31 11:00","2021","03","31","11:00","-16.7","","-21.6","","66","","","","9","","12","","24.1","","97.55","","","","-24","","Blowing Snow"
"-139.84","67.57","OLD CROW A","2100801","2021-03-31 12:00","2021","03","31","12:00","-15.5","","-20.9","","64","","","","8","","10","","24.1","","97.57","","","","-22","","NA"
"-139.84","67.57","OLD CROW A","2100801","2021-03-31 13:00","2021","03","31","13:00","-15.4","","-20.8","","64","","","","6","","18","","11.3","","97.57","","","","-24","","Snow,Blowing Snow"
"-139.84","67.57","OLD CROW A","2100801","2021-03-31 14:00","2021","03","31","14:00","-14.9","","-20.2","","64","","","","3","","21","","9.7","","97.57","","","","-24","","Snow,Blowing Snow"
"-139.84","67.57","OLD CROW A","2100801","2021-03-31 15:00","2021","03","31","15:00"
"-139.84","67.57","OLD CROW A","2100801","2021-03-31 16:00","2021","03","31","16:00"
"-139.84","67.57","OLD CROW A","2100801","2021-03-31 17:00","2021","03","31","17:00"
"-139.84","67.57","OLD CROW A","2100801","2021-03-31 18:00","2021","03","31","18:00"
"-139.84","67.57","OLD CROW A","2100801","2021-03-31 19:00","2021","03","31","19:00"
"-139.84","67.57","OLD CROW A","2100801","2021-03-31 20:00","2021","03","31","20:00"
"-139.84","67.57","OLD CROW A","2100801","2021-03-31 21:00","2021","03","31","21:00"
"-139.84","67.57","OLD CROW A","2100801","2021-03-31 22:00","2021","03","31","22:00"
"-139.84","67.57","OLD CROW A","2100801","2021-03-31 23:00","2021","03","31","23:00"
