"Longitude (x)","Latitude (y)","Station Name","Climate ID","Date/Time (LST)","Year","Month","Day","Time (LST)","Temp (°C)","Temp Flag","Dew Point Temp (°C)","Dew Point Temp Flag","Rel Hum (%)","Rel Hum Flag","Precip. Amount (mm)","Precip. Amount Flag","Wind Dir (10s deg)","Wind Dir Flag","Wind Spd (km/h)","Wind Spd Flag","Visibility (km)","Visibility Flag","Stn Press (kPa)","Stn Press Flag","Hmdx","Hmdx Flag","Wind Chill","Wind Chill Flag","Weather"
"-139.84","67.57","OLD CROW A","2100801","2021-04-01 00:00","2021","04","01","00:00"
"-139.84","67.57","OLD CROW A","2100801","2021-04-01 01:00","2021","04","01","01:00"
"-139.84","67.57","OLD CROW A","2100801","2021-04-01 02:00","2021","04","01","02:00"
"-139.84","67.57","OLD CROW A","2100801","2021-04-01 03:00","2021","04","01","03:00"
"-139.84","67.57","OLD CROW A","2100801","2021-04-01 04:00","2021","04","01","04:00"
"-139.84","67.57","OLD CROW A","2100801","2021-04-01 05:00","2021","04","01","05:00","-19.3","","-23.7","","69","","","","5","","12","","8.1","","97.87","","","","-27","","Snow,Blowing Snow"
"-139.84","67.57","OLD CROW A","2100801","2021-04-01 06:00","2021","04","01","06:00","-19.9","","-24.4","","68","","","","6","","12","","8.1","","97.90","","","","-28","","Snow,Blowing Snow"
"-139.84","67.57","OLD CROW A","2100801","2021-04-01 07:00","2021","04","01","07:00","-21.8","","-25.4","","73","","","","26","","7","","32.2","","97.95","","","","-28","","Mostly Cloudy"
"-139.84","67.57","OLD CROW A","2100801","2021-04-01 08:00","2021","04","01","08:00","-21.9","","-25.3","","74","","","","27","","5","","24.1","","98.01","","","","-26","","NA"
"-139.84","67.57","OLD CROW A","2100801","2021-04-01 09:00","2021","04","01","09:00","-20.9","","-24.8","","72","","","","27","","5","","24.1","","98.04","","","","-25","","NA"
"-139.84","67.57","OLD CROW A","2100801","2021-04-01 10:00","2021","04","01","10:00","-19.3","","-24.0","","67","","","","19","","3","","24.1","","98.10","","","","-22","","Mostly Cloudy"
"-139.84","67.57","OLD CROW A","2100801","2021-04-01 11:00","2021","04","01","11:00","-17.8","","-23.8","","60","","","","3","","16","","24.1","","98.14","","","","-27","","NA"
"-139.84","67.57","OLD CROW A","2100801","2021-04-01 12:00","2021","04","01","12:00","-17.5","","-23.4","","61","","","","3","","25","","32.2","","98.19","","","","-28","","Blowing Snow"
"-139.84","67.57","OLD CROW A","2100801","2021-04-01 13:00","2021","04","01","13:00","-16.2","","-22.2","","61","","","","4","","19","","32.2","","98.22","","","","-25","","Blowing Snow"
"-139.84","67.57","OLD CROW A","2100801","2021-04-01 14:00","2021","04","01","14:00","-16.1","","-22.4","","59","","","","4","","19","","32.2","","98.27","","","","-25","","Blowing Snow"
"-139.84","67.57","OLD CROW A","2100801","2021-04-01 15:00","2021","04","01","15:00"
"-139.84","67.57","OLD CROW A","2100801","2021-04-01 16:00","2021","04","01","16:00"
"-139.84","67.57","OLD CROW A","2100801","2021-04-01 17:00","2021","04","01","17:00"
"-139.84","67.57","OLD CROW A","2100801","2021-04-01 18:00","2021","04","01","18:00"
"-139.84","67.57","OLD CROW A","2100801","2021-04-01 19:00","2021","04","01","19:00"
"-139.84","67.57","OLD CROW A","2100801","2021-04-01 20:00","2021","04","01","20:00"
"-139.84","67.57","OLD CROW A","2100801","2021-04-01 21:00","2021","04","01","21:00"
"-139.84","67.57","OLD CROW A","2100801","2021-04-01 22:00","2021","04","01","22:00"
"-139.84","67.57","OLD CROW A","2100801","2021-04-01 23:00","2021","04","01","23:00"
"-139.84","67.57","OLD CROW A","2100801","2021-04-02 00:00","2021","04","02","00:00"
"-139.84","67.57","OLD CROW A","2100801","2021-04-02 01:00","2021","04","02","01:00"
"-139.84","67.57","OLD CROW A","2100801","2021-04-02 02:00","2021","04","02","02:00"
"-139.84","67.57","OLD CROW A","2100801","2021-04-02 03:00","2021","04","02","03:00"
"-139.84","67.57","OLD CROW A","2100801","2021-04-02 04:00","2021","04","02","04:00"
"-139.84","67.57","OLD CROW A","2100801","2021-04-02 05:00","2021","04","02","05:00","-25.4","","-28.6","","75","","","","0","","1","","24.1","","98.64","","","","-26","","Snow"
"-139.84","67.57","OLD CROW A","2100801","2021-04-02 06:00","2021","04","02","06:00","-24.9","","-28.3","","74","","","","25","","4","","24.1","","98.65","","","","-29","","Snow"
"-139.84","67.57","OLD CROW A","2100801","2021-04-02 07:00","2021","04","02","07:00","-26.9","","-30.2","","75","","","","5","","3","","32.2","","98.66","","","","-30","","Mostly Cloudy"
"-139.84","67.57","OLD CROW A","2100801","2021-04-02 08:00","2021","04","02","08:00","-25.0","","-28.4","","73","","","","36","","1","","32.2","","98.66","","","","-26","","NA"
"-139.84","67.57","OLD CROW A","2100801","2021-04-02 09:00","2021","04","02","09:00","-23.3","","-26.7","","74","","","","36","","2","","19.3","","98.63","","","","-25","","Snow"
"-139.84","67.57","OLD CROW A","2100801","2021-04-02 10:00","2021","04","02","10:00","-21.9","","-25.9","","70","","","","2","","3","","11.3","","98.56","","","","-25","","Snow"
"-139.84","67.57","OLD CROW A","2100801","2021-04-02 11:00","2021","04","02","11:00","-20.5","","-24.8","","69","","","","36","","1","","8.1","","98.54","","","","-21","","Snow,Fog"
"-139.84","67.57","OLD CROW A","2100801","2021-04-02 12:00","2021","04","02","12:00","-18.2","","-23.3","","65","","","","19","","4","","8.1","","98.53","","","","-21","","Snow,Fog"
"-139.84","67.57","OLD CROW A","2100801","2021-04-02 13:00","2021","04","02","13:00","-16.6","","-22.7","","59","","","","20","","4","","16.1","","98.50","","","","-20","","Mostly Cloudy"
"-139.84","67.57","OLD CROW A","2100801","2021-04-02 14:00","2021","04","02","14:00","-15.9","","-21.7","","61","","","","19","","3","","16.1","","98.43","","","","-18","","NA"
"-139.84","67.57","OLD CROW A","2100801","2021-04-02 15:00","2021","04","02","15:00","-15.0","","-20.3","","64","","","","10","","3","","32.2","","98.35","","","","-17","","NA"
"-139.84","67.57","OLD CROW A","2100801","2021-04-02 16:00","2021","04","02","16:00","-14.2","","-20.0","","62","","","","36","","3","","56.3","","98.30","","","","-16","","Mostly Cloudy"
"-139.84","67.57","OLD CROW A","2100801","2021-04-02 17:00","2021","04","02","17:00","-13.6","","-19.7","","60","","","","9","","4","","56.3","","98.25","","","","-16","","NA"
"-139.84","67.57","OLD CROW A","2100801","2021-04-02 18:00","2021","04","02","18:00"
"-139.84","67.57","OLD CROW A","2100801","2021-04-02 19:00","2021","04","02","19:00"
"-139.84","67.57","OLD CROW A","2100801","2021-04-02 20:00","2021","04","02","20:00"
"-139.84","67.57","OLD CROW A","2100801","2021-04-02 21:00","2021","04","02","21:00"
"-139.84","67.57","OLD CROW A","2100801","2021-04-02 22:00","2021","04","02","22:00"
"-139.84","67.57","OLD CROW A","2100801","2021-04-02 23:00","2021","04","02","23:00"
"-139.84","67.57","OLD CROW A","2100801","2021-04-03 00:00","2021","04","03","00:00"
"-139.84","67.57","OLD CROW A","2100801","2021-04-03 01:00","2021","04","03","01:00"
"-139.84","67.57","OLD CROW A","2100801","2021-04-03 02:00","2021","04","03","02:00"
"-139.84","67.57","OLD CROW A","2100801","2021-04-03 03:00","2021","04","03","03:00"
"-139.84","67.57","OLD CROW A","2100801","2021-04-03 04:00","2021","04","03","04:00"
"-139.84","67.57","OLD CROW A","2100801","2021-04-03 05:00","2021","04","03","05:00","-21.4","","-24.4","","77","","","","8","","4","","9.7","","98.11","","","","-25","","Snow"
"-139.84","67.57","OLD CROW A","2100801","2021-04-03 06:00","2021","04","03","06:00","-22.4","","-25.4","","77","","","","7","","5","","11.3","","98.12","","","","-27","","Snow"
"-139.84","67.57","OLD CROW A","2100801","2021-04-03 07:00","2021","04","03","07:00","-23.6","","-26.7","","76","","","","36","","2","","24.1","","98.16","","","","-26","","Snow"
"-139.84","67.57","OLD CROW A","2100801","2021-04-03 08:00","2021","04","03","08:00","-22.9","","-26.2","","75","","","","36","","3","","24.1","","98.17","","","","-26","","NA"
"-139.84","67.57","OLD CROW A","2100801","2021-04-03 09:00","2021","04","03","09:00","-22.0","","-26.1","","70","","","","36","","1","","32.2","","98.20","","","","-23","","NA"
"-139.84","67.57","OLD CROW A","2100801","2021-04-03 10:00","2021","04","03","10:00","-20.1","","-24.6","","68","","","","27","","7","","56.3","","98.22","","","","-26","","Mainly Clear"
"-139.84","67.57","OLD CROW A","2100801","2021-04-03 11:00","2021","04","03","11:00"
"-139.84","67.57","OLD CROW A","2100801","2021-04-03 12:00","2021","04","03","12:00"
"-139.84","67.57","OLD CROW A","2100801","2021-04-03 13:00","2021","04","03","13:00"
"-139.84","67.57","OLD CROW A","2100801","2021-04-03 14:00","2021","04","03","14:00"
"-139.84","67.57","OLD CROW A","2100801","2021-04-03 15:00","2021","04","03","15:00"
"-139.84","67.57","OLD CROW A","2100801","2021-04-03 16:00","2021","04","03","16:00"
"-139.84","67.57","OLD CROW A","2100801","2021-04-03 17:00","2021","04","03","17:00"
"-139.84","67.57","OLD CROW A","2100801","2021-04-03 18:00","2021","04","03","18:00"
"-139.84","67.57","OLD CROW A","2100801","2021-04-03 19:00","2021","04","03","19:00"
"-139.84","67.57","OLD CROW A","2100801","2021-04-03 20:00","2021","04","03","20:00"
"-139.84","67.57","OLD CROW A","2100801","2021-04-03 21:00","2021","04","03","21:00"
"-139.84","67.57","OLD CROW A","2100801","2021-04-03 22:00","2021","04","03","22:00"
"-139.84","67.57","OLD CROW A","2100801","2021-04-03 23:00","2021","04","03","23:00"
"-139.84","67.57","OLD CROW A","2100801","2021-04-04 00:00","2021","04","04","00:00"
"-139.84","67.57","OLD CROW A","2100801","2021-04-04 01:00","2021","04","04","01:00"
"-139.84","67.57","OLD CROW A","2100801","2021-04-04 02:00","2021","04","04","02:00"
"-139.84","67.57","OLD CROW A","2100801","2021-04-04 03:00","2021","04","04","03:00"
"-139.84","67.57","OLD CROW A","2100801","2021-04-04 04:00","2021","04","04","04:00"
"-139.84","67.57","OLD CROW A","2100801","2021-04-04 05:00","2021","04","04","05:00","-22.7","","-25.9","","76","","","","9","","3","","16.1","","97.78","","","","-25","","Snow"
"-139.84","67.57","OLD CROW A","2100801","2021-04-04 06:00","2021","04","04","06:00","-22.1","","-25.3","","76","","","","4","","3","","4.8","","97.66","","","","-25","","Snow,Fog"
"-139.84","67.57","OLD CROW A","2100801","2021-04-04 07:00","2021","04","04","07:00","-21.6","","-24.8","","76","","","","36","","2","","2.4","","97.54","","","","-23","","Snow,Fog"
"-139.84","67.57","OLD CROW A","2100801","2021-04-04 08:00","2021","04","04","08:00","-21.1","","-24.2","","76","","","","36","","2","","1.6","","97.44","","","","-23","","Snow,Fog"
"-139.84","67.57","OLD CROW A","2100801","2021-04-04 09:00","2021","04","04","09:00","-19.8","","-23.4","","73","","","","23","","4","","3.2","","97.33","","","","-23","","Snow,Fog"
"-139.84","67.57","OLD CROW A","2100801","2021-04-04 10:00","2021","04","04","10:00","-19.2","","-22.7","","75","","","","36","","1","","1.6","","97.20","","","","-20","","Snow,Fog"
"-139.84","67.57","OLD CROW A","2100801","2021-04-04 11:00","2021","04","04","11:00","-18.0","","-22.0","","71","","","","14","","4","","1.6","","97.10","","","","-21","","Snow,Fog"
"-139.84","67.57","OLD CROW A","2100801","2021-04-04 12:00","2021","04","04","12:00","-16.8","","-20.6","","73","","","","27","","4","","3.2","","97.01","","","","-20","","Snow,Fog"
"-139.84","67.57","OLD CROW A","2100801","2021-04-04 13:00","2021","04","04","13:00","-14.5","","-18.3","","73","","","","24","","8","","1.2","","96.93","","","","-20","","Snow,Fog"
"-139.84","67.57","OLD CROW A","2100801","2021-04-04 14:00","2021","04","04","14:00","-13.2","","-16.6","","76","","","","23","","8","","1.2","","96.94","","","","-18","","Snow,Fog"
"-139.84","67.57","OLD CROW A","2100801","2021-04-04 15:00","2021","04","04","15:00"
"-139.84","67.57","OLD CROW A","2100801","2021-04-04 16:00","2021","04","04","16:00"
"-139.84","67.57","OLD CROW A","2100801","2021-04-04 17:00","2021","04","04","17:00"
"-139.84","67.57","OLD CROW A","2100801","2021-04-04 18:00","2021","04","04","18:00"
"-139.84","67.57","OLD CROW A","2100801","2021-04-04 19:00","2021","04","04","19:00"
"-139.84","67.57","OLD CROW A","2100801","2021-04-04 20:00","2021","04","04","20:00"
"-139.84","67.57","OLD CROW A","2100801","2021-04-04 21:00","2021","04","04","21:00"
"-139.84","67.57","OLD CROW A","2100801","2021-04-04 22:00","2021","04","04","22:00"
"-139.84","67.57","OLD CROW A","2100801","2021-04-04 23:00","2021","04","04","23:00"
"-139.84","67.57","OLD CROW A","2100801","2021-04-05 00:00","2021","04","05","00:00"
"-139.84","67.57","OLD CROW A","2100801","2021-04-05 01:00","2021","04","05","01:00"
"-139.84","67.57","OLD CROW A","2100801","2021-04-05 02:00","2021","04","05","02:00"
"-139.84","67.57","OLD CROW A","2100801","2021-04-05 03:00","2021","04","05","03:00"
"-139.84","67.57","OLD CROW A","2100801","2021-04-05 04:00","2021","04","05","04:00"
"-139.84","67.57","OLD CROW A","2100801","2021-04-05 05:00","2021","04","05","05:00","-17.3","","-21.2","","72","","","","4","","28","","4.0","","98.14","","","","-29","","Snow,Blowing Snow"
"-139.84","67.57","OLD CROW A","2100801","2021-04-05 06:00","2021","04","05","06:00","-18.1","","-22.4","","70","","","","3","","26","","4.0","","98.31","","","","-29","","Snow,Blowing Snow"
"-139.84","67.57","OLD CROW A","2100801","2021-04-05 07:00","2021","04","05","07:00","-18.6","","-22.7","","71","","","","4","","22","","4.0","","98.41","","","","-29","","Snow,Blowing Snow"
"-139.84","67.57","OLD CROW A","2100801","2021-04-05 08:00","2021","04","05","08:00","-18.9","","-23.3","","69","","","","3","","26","","8.1","","98.50","","","","-30","","Snow,Blowing Snow"
"-139.84","67.57","OLD CROW A","2100801","2021-04-05 09:00","2021","04","05","09:00","-19.1","","-23.9","","67","","","","5","","24","","16.1","","98.64","","","","-30","","Snow,Blowing Snow"
"-139.84","67.57","OLD CROW A","2100801","2021-04-05 10:00","2021","04","05","10:00","-18.9","","-24.4","","63","","","","5","","24","","16.1","","98.70","","","","-30","","Snow,Blowing Snow"
"-139.84","67.57","OLD CROW A","2100801","2021-04-05 11:00","2021","04","05","11:00","-18.8","","-24.9","","60","","","","5","","23","","32.2","","98.79","","","","-30","","Blowing Snow"
"-139.84","67.57","OLD CROW A","2100801","2021-04-05 12:00","2021","04","05","12:00","-17.8","","-24.3","","57","","","","5","","22","","12.9","","98.85","","","","-28","","Blowing Snow"
"-139.84","67.57","OLD CROW A","2100801","2021-04-05 13:00","2021","04","05","13:00","-16.4","","-22.7","","59","","","","7","","12","","16.1","","98.89","","","","-24","","Blowing Snow"
"-139.84","67.57","OLD CROW A","2100801","2021-04-05 14:00","2021","04","05","14:00","-15.3","","-21.9","","58","","","","7","","12","","16.1","","98.92","","","","-22","","NA"
"-139.84","67.57","OLD CROW A","2100801","2021-04-05 15:00","2021","04","05","15:00"
"-139.84","67.57","OLD CROW A","2100801","2021-04-05 16:00","2021","04","05","16:00"
"-139.84","67.57","OLD CROW A","2100801","2021-04-05 17:00","2021","04","05","17:00"
"-139.84","67.57","OLD CROW A","2100801","2021-04-05 18:00","2021","04","05","18:00"
"-139.84","67.57","OLD CROW A","2100801","2021-04-05 19:00","2021","04","05","19:00"
"-139.84","67.57","OLD CROW A","2100801","2021-04-05 20:00","2021","04","05","20:00"
"-139.84","67.57","OLD CROW A","2100801","2021-04-05 21:00","2021","04","05","21:00"
"-139.84","67.57","OLD CROW A","2100801","2021-04-05 22:00","2021","04","05","22:00"
"-139.84","67.57","OLD CROW A","2100801","2021-04-05 23:00","2021","04","05","23:00"
"-139.84","67.57","OLD CROW A","2100801","2021-04-06 00:00","2021","04","06","00:00"
"-139.84","67.57","OLD CROW A","2100801","2021-04-06 01:00","2021","04","06","01:00"
"-139.84","67.57","OLD CROW A","2100801","2021-04-06 02:00","2021","04","06","02:00"
"-139.84","67.57","OLD CROW A","2100801","2021-04-06 03:00","2021","04","06","03:00"
"-139.84","67.57","OLD CROW A","2100801","2021-04-06 04:00","2021","04","06","04:00"
"-139.84","67.57","OLD CROW A","2100801","2021-04-06 05:00","2021","04","06","05:00","-27.1","","-30.4","","74","","","","28","","4","","24.1","","99.18","","","","-31","","Snow"
"-139.84","67.57","OLD CROW A","2100801","2021-04-06 06:00","2021","04","06","06:00","-26.2","","-29.5","","74","","","","36","","1","","12.9","","99.17","","","","-27","","Snow"
"-139.84","67.57","OLD CROW A","2100801","2021-04-06 07:00","2021","04","06","07:00","-25.3","","-28.5","","75","","","","29","","4","","6.4","","99.19","","","","-29","","Snow"
"-139.84","67.57","OLD CROW A","2100801","2021-04-06 08:00","2021","04","06","08:00","-24.5","","-27.9","","74","","","","36","","1","","4.8","","99.18","","","","-25","","Snow"
"-139.84","67.57","OLD CROW A","2100801","2021-04-06 09:00","2021","04","06","09:00","-22.9","","-26.7","","72","","","","36","","2","","4.8","","99.18","","","","-25","","Snow"
"-139.84","67.57","OLD CROW A","2100801","2021-04-06 10:00","2021","04","06","10:00","-22.2","","-26.2","","71","","","","36","","3","","8.1","","99.17","","","","-25","","Snow"
"-139.84","67.57","OLD CROW A","2100801","2021-04-06 11:00","2021","04","06","11:00","-19.7","","-24.6","","66","","","","8","","5","","24.1","","99.17","","","","-24","","NA"
"-139.84","67.57","OLD CROW A","2100801","2021-04-06 12:00","2021","04","06","12:00","-18.3","","-23.7","","63","","","","13","","3","","24.1","","99.17","","","","-21","","NA"
"-139.84","67.57","OLD CROW A","2100801","2021-04-06 13:00","2021","04","06","13:00","-16.9","","-23.2","","58","","","","13","","5","","32.2","","99.17","","","","-21","","Mostly Cloudy"
"-139.84","67.57","OLD CROW A","2100801","2021-04-06 14:00","2021","04","06","14:00","-16.1","","-22.6","","58","","","","11","","4","","32.2","","99.17","","","","-19","","NA"
"-139.84","67.57","OLD CROW A","2100801","2021-04-06 15:00","2021","04","06","15:00"
"-139.84","67.57","OLD CROW A","2100801","2021-04-06 16:00","2021","04","06","16:00"
"-139.84","67.57","OLD CROW A","2100801","2021-04-06 17:00","2021","04","06","17:00"
"-139.84","67.57","OLD CROW A","2100801","2021-04-06 18:00","2021","04","06","18:00"
"-139.84","67.57","OLD CROW A","2100801","2021-04-06 19:00","2021","04","06","19:00"
"-139.84","67.57","OLD CROW A","2100801","2021-04-06 20:00","2021","04","06","20:00"
"-139.84","67.57","OLD CROW A","2100801","2021-04-06 21:00","2021","04","06","21:00"
"-139.84","67.57","OLD CROW A","2100801","2021-04-06 22:00","2021","04","06","22:00"
"-139.84","67.57","OLD CROW A","2100801","2021-04-06 23:00","2021","04","06","23:00"
"-139.84","67.57","OLD CROW A","2100801","2021-04-07 00:00","2021","04","07","00:00"
"-139.84","67.57","OLD CROW A","2100801","2021-04-07 01:00","2021","04","07","01:00"
"-139.84","67.57","OLD CROW A","2100801","2021-04-07 02:00","2021","04","07","02:00"
"-139.84","67.57","OLD CROW A","2100801","2021-04-07 03:00","2021","04","07","03:00"
"-139.84","67.57","OLD CROW A","2100801","2021-04-07 04:00","2021","04","07","04:00"
"-139.84","67.57","OLD CROW A","2100801","2021-04-07 05:00","2021","04","07","05:00","-34.5","","-38.2","","70","","","","36","","2","","56.3","","99.38","","","","-37","","NA"
"-139.84","67.57","OLD CROW A","2100801","2021-04-07 06:00","2021","04","07","06:00","-35.4","","-39.0","","70","","","","6","","4","","56.3","","99.40","","","","-40","","NA"
"-139.84","67.57","OLD CROW A","2100801","2021-04-07 07:00","2021","04","07","07:00","-35.0","","-38.7","","70","","","","36","","1","","56.3","","99.41","","","","-36","","Clear"
"-139.84","67.57","OLD CROW A","2100801","2021-04-07 08:00","2021","04","07","08:00","-32.5","","-36.1","","71","","","","36","","3","","56.3","","99.40","","","","-36","","NA"
"-139.84","67.57","OLD CROW A","2100801","2021-04-07 09:00","2021","04","07","09:00","-30.2","","-33.9","","71","","","","36","","1","","56.3","","99.38","","","","-31","","NA"
"-139.84","67.57","OLD CROW A","2100801","2021-04-07 10:00","2021","04","07","10:00","-27.0","","-31.2","","68","","","","36","","2","","56.3","","99.32","","","","-29","","Clear"
"-139.84","67.57","OLD CROW A","2100801","2021-04-07 11:00","2021","04","07","11:00","-23.6","","-28.6","","64","","","","0","","1","","56.3","","99.28","","","","-25","","NA"
"-139.84","67.57","OLD CROW A","2100801","2021-04-07 12:00","2021","04","07","12:00","-20.3","","-27.0","","56","","","","27","","3","","56.3","","99.23","","","","-23","","NA"
"-139.84","67.57","OLD CROW A","2100801","2021-04-07 13:00","2021","04","07","13:00","-16.9","","-23.5","","57","","","","24","","5","","56.3","","99.16","","","","-21","","Mainly Clear"
"-139.84","67.57","OLD CROW A","2100801","2021-04-07 14:00","2021","04","07","14:00","-14.8","","-23.0","","50","","","","16","","3","","56.3","","99.08","","","","-17","","NA"
"-139.84","67.57","OLD CROW A","2100801","2021-04-07 15:00","2021","04","07","15:00"
"-139.84","67.57","OLD CROW A","2100801","2021-04-07 16:00","2021","04","07","16:00"
"-139.84","67.57","OLD CROW A","2100801","2021-04-07 17:00","2021","04","07","17:00"
"-139.84","67.57","OLD CROW A","2100801","2021-04-07 18:00","2021","04","07","18:00"
"-139.84","67.57","OLD CROW A","2100801","2021-04-07 19:00","2021","04","07","19:00"
"-139.84","67.57","OLD CROW A","2100801","2021-04-07 20:00","2021","04","07","20:00"
"-139.84","67.57","OLD CROW A","2100801","2021-04-07 21:00","2021","04","07","21:00"
"-139.84","67.57","OLD CROW A","2100801","2021-04-07 22:00","2021","04","07","22:00"
"-139.84","67.57","OLD CROW A","2100801","2021-04-07 23:00","2021","04","07","23:00"
"-139.84","67.57","OLD CROW A","2100801","2021-04-08 00:00","2021","04","08","00:00"
"-139.84","67.57","OLD CROW A","2100801","2021-04-08 01:00","2021","04","08","01:00"
"-139.84","67.57","OLD CROW A","2100801","2021-04-08 02:00","2021","04","08","02:00"
"-139.84","67.57","OLD CROW A","2100801","2021-04-08 03:00","2021","04","08","03:00"
"-139.84","67.57","OLD CROW A","2100801","2021-04-08 04:00","2021","04","08","04:00"
"-139.84","67.57","OLD CROW A","2100801","2021-04-08 05:00","2021","04","08","05:00","-21.4","","-25.3","","72","","","","6","","17","","40.2","","98.09","","","","-31","","NA"
"-139.84","67.57","OLD CROW A","2100801","2021-04-08 06:00","2021","04","08","06:00","-21.8","","-26.9","","64","","","","3","","34","","40.2","","98.07","","","","-36","","NA"
"-139.84","67.57","OLD CROW A","2100801","2021-04-08 07:00","2021","04","08","07:00","-22.4","","-27.3","","65","","","","3","","36","","40.2","","98.07","","","","-37","","Blowing Snow"
"-139.84","67.57","OLD CROW A","2100801","2021-04-08 08:00","2021","04","08","08:00","-22.5","","-27.6","","64","","","","3","","33","","40.2","","98.06","","","","-36","","Blowing Snow"
"-139.84","67.57","OLD CROW A","2100801","2021-04-08 09:00","2021","04","08","09:00","-22.4","","-27.4","","65","","","","4","","42","","6.4","","98.08","","","","-38","","Snow,Blowing Snow"
"-139.84","67.57","OLD CROW A","2100801","2021-04-08 10:00","2021","04","08","10:00","-22.2","","-27.6","","62","","","","4","","44","","6.4","","98.09","","","","-38","","Snow,Blowing Snow"
"-139.84","67.57","OLD CROW A","2100801","2021-04-08 11:00","2021","04","08","11:00","-21.9","","-27.1","","63","","","","4","","38","","4.8","","98.15","","","","-36","","Snow,Blowing Snow"
"-139.84","67.57","OLD CROW A","2100801","2021-04-08 12:00","2021","04","08","12:00","-22.6","","-27.6","","64","","","","3","","45","","4.8","","98.18","","","","-38","","Snow,Blowing Snow"
"-139.84","67.57","OLD CROW A","2100801","2021-04-08 13:00","2021","04","08","13:00","-22.5","","-27.5","","64","","","","3","","43","","4.8","","98.23","","","","-38","","Snow,Blowing Snow"
"-139.84","67.57","OLD CROW A","2100801","2021-04-08 14:00","2021","04","08","14:00","-23.0","","-28.0","","64","","","","3","","46","","3.2","","98.28","","","","-39","","Snow,Blowing Snow"
"-139.84","67.57","OLD CROW A","2100801","2021-04-08 15:00","2021","04","08","15:00","-23.4","","-28.4","","65","","","","3","","50","","2.8","","98.34","","","","-40","","Snow,Blowing Snow"
"-139.84","67.57","OLD CROW A","2100801","2021-04-08 16:00","2021","04","08","16:00","-24.3","","-28.9","","66","","","","4","","45","","2.4","","98.40","","","","-41","","Snow,Blowing Snow"
"-139.84","67.57","OLD CROW A","2100801","2021-04-08 17:00","2021","04","08","17:00","-24.8","","-29.6","","65","","","","4","","48","","2.0","","98.48","","","","-42","","Snow,Blowing Snow"
"-139.84","67.57","OLD CROW A","2100801","2021-04-08 18:00","2021","04","08","18:00"
"-139.84","67.57","OLD CROW A","2100801","2021-04-08 19:00","2021","04","08","19:00"
"-139.84","67.57","OLD CROW A","2100801","2021-04-08 20:00","2021","04","08","20:00"
"-139.84","67.57","OLD CROW A","2100801","2021-04-08 21:00","2021","04","08","21:00"
"-139.84","67.57","OLD CROW A","2100801","2021-04-08 22:00","2021","04","08","22:00"
"-139.84","67.57","OLD CROW A","2100801","2021-04-08 23:00","2021","04","08","23:00"
"-139.84","67.57","OLD CROW A","2100801","2021-04-09 00:00","2021","04","09","00:00"
"-139.84","67.57","OLD CROW A","2100801","2021-04-09 01:00","2021","04","09","01:00"
"-139.84","67.57","OLD CROW A","2100801","2021-04-09 02:00","2021","04","09","02:00"
"-139.84","67.57","OLD CROW A","2100801","2021-04-09 03:00","2021","04","09","03:00"
"-139.84","67.57","OLD CROW A","2100801","2021-04-09 04:00","2021","04","09","04:00"
"-139.84","67.57","OLD CROW A","2100801","2021-04-09 05:00","2021","04","09","05:00","-29.3","","-34.2","","64","","","","3","","25","","6.4","","99.54","","","","-44","","Snow,Blowing Snow"
"-139.84","67.57","OLD CROW A","2100801","2021-04-09 06:00","2021","04","09","06:00","-29.2","","-34.0","","64","","","","4","","30","","3.2","","99.63","","","","-45","","Snow,Blowing Snow"
"-139.84","67.57","OLD CROW A","2100801","2021-04-09 07:00","2021","04","09","07:00","-28.8","","-33.9","","63","","","","5","","30","","3.2","","99.73","","","","-44","","Snow,Blowing Snow"
"-139.84","67.57","OLD CROW A","2100801","2021-04-09 08:00","2021","04","09","08:00","-28.7","","-33.9","","62","","","","3","","23","","4.0","","99.80","","","","-42","","Snow,Blowing Snow"
"-139.84","67.57","OLD CROW A","2100801","2021-04-09 09:00","2021","04","09","09:00","-28.3","","-33.6","","61","","","","4","","31","","4.0","","99.85","","","","-44","","Snow,Blowing Snow"
"-139.84","67.57","OLD CROW A","2100801","2021-04-09 10:00","2021","04","09","10:00","-27.6","","-33.2","","60","","","","4","","31","","6.4","","99.90","","","","-43","","Snow,Blowing Snow"
"-139.84","67.57","OLD CROW A","2100801","2021-04-09 11:00","2021","04","09","11:00","-26.8","","-32.9","","58","","","","4","","23","","4.8","","99.98","","","","-40","","Snow,Blowing Snow"
"-139.84","67.57","OLD CROW A","2100801","2021-04-09 12:00","2021","04","09","12:00","-26.3","","-32.8","","55","","","","5","","30","","6.4","","100.06","","","","-41","","Snow,Blowing Snow"
"-139.84","67.57","OLD CROW A","2100801","2021-04-09 13:00","2021","04","09","13:00","-25.6","","-32.6","","53","","","","5","","31","","9.7","","100.10","","","","-40","","Snow,Blowing Snow"
"-139.84","67.57","OLD CROW A","2100801","2021-04-09 14:00","2021","04","09","14:00","-25.0","","-32.1","","53","","","","5","","21","","24.1","","100.13","","","","-37","","Snow,Blowing Snow"
"-139.84","67.57","OLD CROW A","2100801","2021-04-09 15:00","2021","04","09","15:00","-24.5","","-31.2","","55","","","","6","","18","","24.1","","100.17","","","","-36","","Snow,Blowing Snow"
"-139.84","67.57","OLD CROW A","2100801","2021-04-09 16:00","2021","04","09","16:00","-24.4","","-30.8","","57","","","","7","","12","","24.1","","100.18","","","","-33","","Snow,Blowing Snow"
"-139.84","67.57","OLD CROW A","2100801","2021-04-09 17:00","2021","04","09","17:00","-24.2","","-31.2","","53","","","","7","","11","","32.2","","100.22","","","","-33","","NA"
"-139.84","67.57","OLD CROW A","2100801","2021-04-09 18:00","2021","04","09","18:00"
"-139.84","67.57","OLD CROW A","2100801","2021-04-09 19:00","2021","04","09","19:00"
"-139.84","67.57","OLD CROW A","2100801","2021-04-09 20:00","2021","04","09","20:00"
"-139.84","67.57","OLD CROW A","2100801","2021-04-09 21:00","2021","04","09","21:00"
"-139.84","67.57","OLD CROW A","2100801","2021-04-09 22:00","2021","04","09","22:00"
"-139.84","67.57","OLD CROW A","2100801","2021-04-09 23:00","2021","04","09","23:00"
"-139.84","67.57","OLD CROW A","2100801","2021-04-10 00:00","2021","04","10","00:00"
"-139.84","67.57","OLD CROW A","2100801","2021-04-10 01:00","2021","04","10","01:00"
"-139.84","67.57","OLD CROW A","2100801","2021-04-10 02:00","2021","04","10","02:00"
"-139.84","67.57","OLD CROW A","2100801","2021-04-10 03:00","2021","04","10","03:00"
"-139.84","67.57","OLD CROW A","2100801","2021-04-10 04:00","2021","04","10","04:00"
"-139.84","67.57","OLD CROW A","2100801","2021-04-10 05:00","2021","04","10","05:00","-38.9","","-43.1","","66","","","","36","","3","","40.2","","100.15","","","","-43","","Ice Crystals"
"-139.84","67.57","OLD CROW A","2100801","2021-04-10 06:00","2021","04","10","06:00","-39.6","","-43.9","","65","","","","36","","1","","40.2","","100.16","","","","-41","","Ice Crystals"
"-139.84","67.57","OLD CROW A","2100801","2021-04-10 07:00","2021","04","10","07:00","-39.7","","-44.0","","65","","","","36","","1","","40.2","","100.16","","","","-41","","Clear"
"-139.84","67.57","OLD CROW A","2100801","2021-04-10 08:00","2021","04","10","08:00","-37.1","","-41.2","","66","","","","36","","2","","56.3","","100.13","","","","-40","","NA"
"-139.84","67.57","OLD CROW A","2100801","2021-04-10 09:00","2021","04","10","09:00","-34.3","","-38.6","","66","","","","36","","3","","56.3","","100.08","","","","-38","","NA"
"-139.84","67.57","OLD CROW A","2100801","2021-04-10 10:00","2021","04","10","10:00","-31.5","","-36.8","","60","","","","36","","2","","56.3","","100.03","","","","-34","","Clear"
"-139.84","67.57","OLD CROW A","2100801","2021-04-10 11:00","2021","04","10","11:00","-28.0","","-35.0","","52","","","","28","","3","","56.3","","100.00","","","","-31","","NA"
"-139.84","67.57","OLD CROW A","2100801","2021-04-10 12:00","2021","04","10","12:00","-24.0","","-32.5","","47","","","","24","","4","","56.3","","99.94","","","","-28","","NA"
"-139.84","67.57","OLD CROW A","2100801","2021-04-10 13:00","2021","04","10","13:00","-21.9","","-30.9","","45","","","","36","","2","","56.3","","99.91","","","","-24","","Clear"
"-139.84","67.57","OLD CROW A","2100801","2021-04-10 14:00","2021","04","10","14:00","-19.1","","-28.8","","43","","","","21","","3","","56.3","","99.86","","","","-22","","NA"
"-139.84","67.57","OLD CROW A","2100801","2021-04-10 15:00","2021","04","10","15:00"
"-139.84","67.57","OLD CROW A","2100801","2021-04-10 16:00","2021","04","10","16:00"
"-139.84","67.57","OLD CROW A","2100801","2021-04-10 17:00","2021","04","10","17:00"
"-139.84","67.57","OLD CROW A","2100801","2021-04-10 18:00","2021","04","10","18:00"
"-139.84","67.57","OLD CROW A","2100801","2021-04-10 19:00","2021","04","10","19:00"
"-139.84","67.57","OLD CROW A","2100801","2021-04-10 20:00","2021","04","10","20:00"
"-139.84","67.57","OLD CROW A","2100801","2021-04-10 21:00","2021","04","10","21:00"
"-139.84","67.57","OLD CROW A","2100801","2021-04-10 22:00","2021","04","10","22:00"
"-139.84","67.57","OLD CROW A","2100801","2021-04-10 23:00","2021","04","10","23:00"
"-139.84","67.57","OLD CROW A","2100801","2021-04-11 00:00","2021","04","11","00:00"
"-139.84","67.57","OLD CROW A","2100801","2021-04-11 01:00","2021","04","11","01:00"
"-139.84","67.57","OLD CROW A","2100801","2021-04-11 02:00","2021","04","11","02:00"
"-139.84","67.57","OLD CROW A","2100801","2021-04-11 03:00","2021","04","11","03:00"
"-139.84","67.57","OLD CROW A","2100801","2021-04-11 04:00","2021","04","11","04:00"
"-139.84","67.57","OLD CROW A","2100801","2021-04-11 05:00","2021","04","11","05:00","-35.5","","-39.3","","70","","","","36","","2","","56.3","","99.71","","","","-38","","NA"
"-139.84","67.57","OLD CROW A","2100801","2021-04-11 06:00","2021","04","11","06:00","-36.2","","-39.9","","69","","","","0","","1","","56.3","","99.70","","","","-37","","NA"
"-139.84","67.57","OLD CROW A","2100801","2021-04-11 07:00","2021","04","11","07:00","-35.5","","-39.4","","69","","","","36","","2","","56.3","","99.70","","","","-38","","Clear"
"-139.84","67.57","OLD CROW A","2100801","2021-04-11 08:00","2021","04","11","08:00","-33.4","","-37.6","","67","","","","36","","2","","56.3","","99.69","","","","-36","","NA"
"-139.84","67.57","OLD CROW A","2100801","2021-04-11 09:00","2021","04","11","09:00","-29.5","","-34.7","","61","","","","10","","3","","56.3","","99.63","","","","-33","","NA"
"-139.84","67.57","OLD CROW A","2100801","2021-04-11 10:00","2021","04","11","10:00","-25.8","","-31.9","","57","","","","36","","3","","56.3","","99.60","","","","-29","","Clear"
"-139.84","67.57","OLD CROW A","2100801","2021-04-11 11:00","2021","04","11","11:00","-20.6","","-29.9","","44","","","","10","","3","","56.3","","99.50","","","","-23","","NA"
"-139.84","67.57","OLD CROW A","2100801","2021-04-11 12:00","2021","04","11","12:00","-16.8","","-27.7","","39","","","","12","","5","","56.3","","99.43","","","","-21","","NA"
"-139.84","67.57","OLD CROW A","2100801","2021-04-11 13:00","2021","04","11","13:00","-14.7","","-26.7","","36","","","","13","","4","","56.3","","99.35","","","","-18","","Clear"
"-139.84","67.57","OLD CROW A","2100801","2021-04-11 14:00","2021","04","11","14:00","-13.0","","-26.1","","33","","","","11","","6","","56.3","","99.28","","","","-17","","NA"
"-139.84","67.57","OLD CROW A","2100801","2021-04-11 15:00","2021","04","11","15:00"
"-139.84","67.57","OLD CROW A","2100801","2021-04-11 16:00","2021","04","11","16:00"
"-139.84","67.57","OLD CROW A","2100801","2021-04-11 17:00","2021","04","11","17:00"
"-139.84","67.57","OLD CROW A","2100801","2021-04-11 18:00","2021","04","11","18:00"
"-139.84","67.57","OLD CROW A","2100801","2021-04-11 19:00","2021","04","11","19:00"
"-139.84","67.57","OLD CROW A","2100801","2021-04-11 20:00","2021","04","11","20:00"
"-139.84","67.57","OLD CROW A","2100801","2021-04-11 21:00","2021","04","11","21:00"
"-139.84","67.57","OLD CROW A","2100801","2021-04-11 22:00","2021","04","11","22:00"
"-139.84","67.57","OLD CROW A","2100801","2021-04-11 23:00","2021","04","11","23:00"
"-139.84","67.57","OLD CROW A","2100801","2021-04-12 00:00","2021","04","12","00:00"
"-139.84","67.57","OLD CROW A","2100801","2021-04-12 01:00","2021","04","12","01:00"
"-139.84","67.57","OLD CROW A","2100801","2021-04-12 02:00","2021","04","12","02:00"
"-139.84","67.57","OLD CROW A","2100801","2021-04-12 03:00","2021","04","12","03:00"
"-139.84","67.57","OLD CROW A","2100801","2021-04-12 04:00","2021","04","12","04:00"
"-139.84","67.57","OLD CROW A","2100801","2021-04-12 05:00","2021","04","12","05:00","-16.9","","-23.7","","56","","","","5","","7","","56.3","","98.62","","","","-22","","NA"
"-139.84","67.57","OLD CROW A","2100801","2021-04-12 06:00","2021","04","12","06:00","-16.5","","-22.5","","61","","","","14","","4","","56.3","","98.61","","","","-20","","NA"
"-139.84","67.57","OLD CROW A","2100801","2021-04-12 07:00","2021","04","12","07:00","-16.3","","-22.8","","58","","","","36","","2","","56.3","","98.59","","","","-18","","Cloudy"
"-139.84","67.57","OLD CROW A","2100801","2021-04-12 08:00","2021","04","12","08:00","-15.7","","-22.1","","59","","","","9","","4","","56.3","","98.58","","","","-19","","NA"
"-139.84","67.57","OLD CROW A","2100801","2021-04-12 09:00","2021","04","12","09:00","-14.8","","-21.8","","56","","","","36","","3","","56.3","","98.51","","","","-17","","NA"
"-139.84","67.57","OLD CROW A","2100801","2021-04-12 10:00","2021","04","12","10:00","-13.8","","-21.5","","53","","","","9","","6","","56.3","","98.50","","","","-18","","Cloudy"
"-139.84","67.57","OLD CROW A","2100801","2021-04-12 11:00","2021","04","12","11:00","-13.3","","-21.2","","52","","","","11","","4","","56.3","","98.49","","","","-16","","NA"
"-139.84","67.57","OLD CROW A","2100801","2021-04-12 12:00","2021","04","12","12:00","-12.2","","-21.1","","48","","","","24","","4","","56.3","","98.50","","","","-15","","NA"
"-139.84","67.57","OLD CROW A","2100801","2021-04-12 13:00","2021","04","12","13:00","-11.0","","-20.6","","46","","","","14","","5","","56.3","","98.50","","","","-14","","Cloudy"
"-139.84","67.57","OLD CROW A","2100801","2021-04-12 14:00","2021","04","12","14:00","-9.2","","-18.6","","47","","","","20","","4","","56.3","","98.52","","","","-11","","NA"
"-139.84","67.57","OLD CROW A","2100801","2021-04-12 15:00","2021","04","12","15:00"
"-139.84","67.57","OLD CROW A","2100801","2021-04-12 16:00","2021","04","12","16:00"
"-139.84","67.57","OLD CROW A","2100801","2021-04-12 17:00","2021","04","12","17:00"
"-139.84","67.57","OLD CROW A","2100801","2021-04-12 18:00","2021","04","12","18:00"
"-139.84","67.57","OLD CROW A","2100801","2021-04-12 19:00","2021","04","12","19:00"
"-139.84","67.57","OLD CROW A","2100801","2021-04-12 20:00","2021","04","12","20:00"
"-139.84","67.57","OLD CROW A","2100801","2021-04-12 21:00","2021","04","12","21:00"
"-139.84","67.57","OLD CROW A","2100801","2021-04-12 22:00","2021","04","12","22:00"
"-139.84","67.57","OLD CROW A","2100801","2021-04-12 23:00","2021","04","12","23:00"
"-139.84","67.57","OLD CROW A","2100801","2021-04-13 00:00","2021","04","13","00:00"
"-139.84","67.57","OLD CROW A","2100801","2021-04-13 01:00","2021","04","13","01:00"
"-139.84","67.57","OLD CROW A","2100801","2021-04-13 02:00","2021","04","13","02:00"
"-139.84","67.57","OLD CROW A","2100801","2021-04-13 03:00","2021","04","13","03:00"
"-139.84","67.57","OLD CROW A","2100801","2021-04-13 04:00","2021","04","13","04:00"
"-139.84","67.57","OLD CROW A","2100801","2021-04-13 05:00","2021","04","13","05:00","-18.5","","-20.7","","83","","","","13","","3","","56.3","","98.71","","","","-21","","NA"
"-139.84","67.57","OLD CROW A","2100801","2021-04-13 06:00","2021","04","13","06:00","-19.7","","-22.1","","81","","","","36","","2","","56.3","","98.72","","","","-21","","NA"
"-139.84","67.57","OLD CROW A","2100801","2021-04-13 07:00","2021","04","13","07:00","-18.7","","-21.7","","78","","","","26","","7","","56.3","","98.76","","","","-24","","Clear"
"-139.84","67.57","OLD CROW A","2100801","2021-04-13 08:00","2021","04","13","08:00","-15.4","","-19.6","","71","","","","36","","2","","56.3","","98.76","","","","-17","","NA"
"-139.84","67.57","OLD CROW A","2100801","2021-04-13 09:00","2021","04","13","09:00","-12.3","","-18.2","","62","","","","36","","1","","56.3","","98.77","","","","-13","","NA"
"-139.84","67.57","OLD CROW A","2100801","2021-04-13 10:00","2021","04","13","10:00","-8.2","","-15.9","","54","","","","13","","4","","56.3","","98.73","","","","-10","","Mainly Clear"
"-139.84","67.57","OLD CROW A","2100801","2021-04-13 11:00","2021","04","13","11:00","-5.6","","-14.6","","50","","","","10","","10","","56.3","","98.76","","","","-10","","NA"
"-139.84","67.57","OLD CROW A","2100801","2021-04-13 12:00","2021","04","13","12:00","-2.7","","-13.2","","45","","","","9","","10","","56.3","","98.71","","","","-7","","NA"
"-139.84","67.57","OLD CROW A","2100801","2021-04-13 13:00","2021","04","13","13:00","-1.2","","-12.4","","43","","","","9","","14","","56.3","","98.73","","","","-6","","Clear"
"-139.84","67.57","OLD CROW A","2100801","2021-04-13 14:00","2021","04","13","14:00","0.2","","-11.2","","42","","","","9","","14","","56.3","","98.73","","","","","","NA"
"-139.84","67.57","OLD CROW A","2100801","2021-04-13 15:00","2021","04","13","15:00"
"-139.84","67.57","OLD CROW A","2100801","2021-04-13 16:00","2021","04","13","16:00"
"-139.84","67.57","OLD CROW A","2100801","2021-04-13 17:00","2021","04","13","17:00"
"-139.84","67.57","OLD CROW A","2100801","2021-04-13 18:00","2021","04","13","18:00"
"-139.84","67.57","OLD CROW A","2100801","2021-04-13 19:00","2021","04","13","19:00"
"-139.84","67.57","OLD CROW A","2100801","2021-04-13 20:00","2021","04","13","20:00"
"-139.84","67.57","OLD CROW A","2100801","2021-04-13 21:00","2021","04","13","21:00"
"-139.84","67.57","OLD CROW A","2100801","2021-04-13 22:00","2021","04","13","22:00"
"-139.84","67.57","OLD CROW A","2100801","2021-04-13 23:00","2021","04","13","23:00"
"-139.84","67.57","OLD CROW A","2100801","2021-04-14 00:00","2021","04","14","00:00"
"-139.84","67.57","OLD CROW A","2100801","2021-04-14 01:00","2021","04","14","01:00"
"-139.84","67.57","OLD CROW A","2100801","2021-04-14 02:00","2021","04","14","02:00"
"-139.84","67.57","OLD CROW A","2100801","2021-04-14 03:00","2021","04","14","03:00"
"-139.84","67.57","OLD CROW A","2100801","2021-04-14 04:00","2021","04","14","04:00"
"-139.84","67.57","OLD CROW A","2100801","2021-04-14 05:00","2021","04","14","05:00","-8.8","","-12.1","","77","","","","36","","3","","56.3","","99.01","","","","-10","","NA"
"-139.84","67.57","OLD CROW A","2100801","2021-04-14 06:00","2021","04","14","06:00","-10.0","","-13.1","","78","","","","36","","3","","56.3","","98.99","","","","-12","","NA"
"-139.84","67.57","OLD CROW A","2100801","2021-04-14 07:00","2021","04","14","07:00","-9.0","","-12.5","","76","","","","5","","3","","56.3","","98.98","","","","-11","","Mostly Cloudy"
"-139.84","67.57","OLD CROW A","2100801","2021-04-14 08:00","2021","04","14","08:00","-5.2","","-11.1","","63","","","","5","","8","","56.3","","98.93","","","","-9","","NA"
"-139.84","67.57","OLD CROW A","2100801","2021-04-14 09:00","2021","04","14","09:00","-3.6","","-10.5","","59","","","","10","","10","","56.3","","98.86","","","","-8","","NA"
"-139.84","67.57","OLD CROW A","2100801","2021-04-14 10:00","2021","04","14","10:00","-2.5","","-10.0","","57","","","","9","","11","","56.3","","98.80","","","","-7","","Mostly Cloudy"
"-139.84","67.57","OLD CROW A","2100801","2021-04-14 11:00","2021","04","14","11:00","-0.8","","-9.3","","53","","","","8","","10","","56.3","","98.72","","","","-4","","NA"
"-139.84","67.57","OLD CROW A","2100801","2021-04-14 12:00","2021","04","14","12:00","0.5","","-8.4","","51","","","","5","","16","","56.3","","98.66","","","","","","NA"
"-139.84","67.57","OLD CROW A","2100801","2021-04-14 13:00","2021","04","14","13:00","1.1","","-8.1","","50","","","","5","","18","","56.3","","98.58","","","","","","Mostly Cloudy"
"-139.84","67.57","OLD CROW A","2100801","2021-04-14 14:00","2021","04","14","14:00","1.6","","-7.4","","51","","","","4","","17","","56.3","","98.55","","","","","","NA"
"-139.84","67.57","OLD CROW A","2100801","2021-04-14 15:00","2021","04","14","15:00","2.2","","-6.7","","52","","","","5","","18","","56.3","","98.49","","","","","","NA"
"-139.84","67.57","OLD CROW A","2100801","2021-04-14 16:00","2021","04","14","16:00","2.3","","-6.5","","52","","","","6","","16","","56.3","","98.47","","","","","","Cloudy"
"-139.84","67.57","OLD CROW A","2100801","2021-04-14 17:00","2021","04","14","17:00","0.8","","-6.5","","58","","","","9","","10","","12.9","","98.49","","","","","","Snow"
"-139.84","67.57","OLD CROW A","2100801","2021-04-14 18:00","2021","04","14","18:00"
"-139.84","67.57","OLD CROW A","2100801","2021-04-14 19:00","2021","04","14","19:00"
"-139.84","67.57","OLD CROW A","2100801","2021-04-14 20:00","2021","04","14","20:00"
"-139.84","67.57","OLD CROW A","2100801","2021-04-14 21:00","2021","04","14","21:00"
"-139.84","67.57","OLD CROW A","2100801","2021-04-14 22:00","2021","04","14","22:00"
"-139.84","67.57","OLD CROW A","2100801","2021-04-14 23:00","2021","04","14","23:00"
"-139.84","67.57","OLD CROW A","2100801","2021-04-15 00:00","2021","04","15","00:00"
"-139.84","67.57","OLD CROW A","2100801","2021-04-15 01:00","2021","04","15","01:00"
"-139.84","67.57","OLD CROW A","2100801","2021-04-15 02:00","2021","04","15","02:00"
"-139.84","67.57","OLD CROW A","2100801","2021-04-15 03:00","2021","04","15","03:00"
"-139.84","67.57","OLD CROW A","2100801","2021-04-15 04:00","2021","04","15","04:00"
"-139.84","67.57","OLD CROW A","2100801","2021-04-15 05:00","2021","04","15","05:00","-2.5","","-2.7","","98","","","","36","","2","","1.2","","98.88","","","","-3","","Snow Grains,Fog"
"-139.84","67.57","OLD CROW A","2100801","2021-04-15 06:00","2021","04","15","06:00","-2.4","","-2.7","","98","","","","36","","3","","1.0","","98.96","","","","-4","","Snow Grains,Fog"
"-139.84","67.57","OLD CROW A","2100801","2021-04-15 07:00","2021","04","15","07:00","-2.4","","-2.6","","98","","","","1","","3","","1.0","","99.04","","","","-4","","Snow Grains,Fog"
"-139.84","67.57","OLD CROW A","2100801","2021-04-15 08:00","2021","04","15","08:00","-1.9","","-2.1","","98","","","","25","","5","","6.4","","99.11","","","","-4","","Snow Grains,Fog"
"-139.84","67.57","OLD CROW A","2100801","2021-04-15 09:00","2021","04","15","09:00","-0.5","","-1.1","","96","","","","23","","7","","9.7","","99.17","","","","-3","","Snow Grains,Fog"
"-139.84","67.57","OLD CROW A","2100801","2021-04-15 10:00","2021","04","15","10:00","0.6","","-0.9","","90","","","","21","","5","","24.1","","99.22","","","","","","Cloudy"
"-139.84","67.57","OLD CROW A","2100801","2021-04-15 11:00","2021","04","15","11:00","2.5","","0.1","","84","","","","25","","12","","56.3","","99.27","","","","","","NA"
"-139.84","67.57","OLD CROW A","2100801","2021-04-15 12:00","2021","04","15","12:00","3.4","","0.1","","79","","","","24","","16","","56.3","","99.34","","","","","","NA"
"-139.84","67.57","OLD CROW A","2100801","2021-04-15 13:00","2021","04","15","13:00","5.4","","0.3","","69","","","","25","","17","","56.3","","99.42","","","","","","Mostly Cloudy"
"-139.84","67.57","OLD CROW A","2100801","2021-04-15 14:00","2021","04","15","14:00","6.0","","-0.8","","62","","","","27","","21","","56.3","","99.44","","","","","","NA"
"-139.84","67.57","OLD CROW A","2100801","2021-04-15 15:00","2021","04","15","15:00","6.2","","-0.4","","63","","","","24","","17","","56.3","","99.52","","","","","","NA"
"-139.84","67.57","OLD CROW A","2100801","2021-04-15 16:00","2021","04","15","16:00","6.9","","-0.7","","58","","","","26","","14","","56.3","","99.53","","","","","","Mostly Cloudy"
"-139.84","67.57","OLD CROW A","2100801","2021-04-15 17:00","2021","04","15","17:00","6.9","","-0.6","","59","","","","25","","8","","56.3","","99.56","","","","","","NA"
"-139.84","67.57","OLD CROW A","2100801","2021-04-15 18:00","2021","04","15","18:00"
"-139.84","67.57","OLD CROW A","2100801","2021-04-15 19:00","2021","04","15","19:00"
"-139.84","67.57","OLD CROW A","2100801","2021-04-15 20:00","2021","04","15","20:00"
"-139.84","67.57","OLD CROW A","2100801","2021-04-15 21:00","2021","04","15","21:00"
"-139.84","67.57","OLD CROW A","2100801","2021-04-15 22:00","2021","04","15","22:00"
"-139.84","67.57","OLD CROW A","2100801","2021-04-15 23:00","2021","04","15","23:00"
"-139.84","67.57","OLD CROW A","2100801","2021-04-16 00:00","2021","04","16","00:00"
"-139.84","67.57","OLD CROW A","2100801","2021-04-16 01:00","2021","04","16","01:00"
"-139.84","67.57","OLD CROW A","2100801","2021-04-16 02:00","2021","04","16","02:00"
"-139.84","67.57","OLD CROW A","2100801","2021-04-16 03:00","2021","04","16","03:00"
"-139.84","67.57","OLD CROW A","2100801","2021-04-16 04:00","2021","04","16","04:00"
"-139.84","67.57","OLD CROW A","2100801","2021-04-16 05:00","2021","04","16","05:00","-7.9","","-8.7","","94","","","","36","","3","","0.2","","100.03","","","","-9","","Freezing Fog"
"-139.84","67.57","OLD CROW A","2100801","2021-04-16 06:00","2021","04","16","06:00","-8.6","","-9.7","","92","","","","12","","3","","1.2","","100.07","","","","-10","","Fog"
"-139.84","67.57","OLD CROW A","2100801","2021-04-16 07:00","2021","04","16","07:00","-6.4","","-7.1","","95","","","","23","","3","","0.2","","100.12","","","","-8","","Freezing Fog"
"-139.84","67.57","OLD CROW A","2100801","2021-04-16 08:00","2021","04","16","08:00","-4.5","","-5.2","","95","","","","24","","7","","56.3","","100.15","","","","-8","","NA"
"-139.84","67.57","OLD CROW A","2100801","2021-04-16 09:00","2021","04","16","09:00","-3.5","","-4.1","","96","","","","36","","3","","56.3","","100.13","","","","-5","","NA"
"-139.84","67.57","OLD CROW A","2100801","2021-04-16 10:00","2021","04","16","10:00","2.7","","-2.8","","67","","","","21","","4","","56.3","","100.12","","","","","","Mainly Clear"
"-139.84","67.57","OLD CROW A","2100801","2021-04-16 11:00","2021","04","16","11:00","5.7","","-2.1","","57","","","","21","","6","","56.3","","100.13","","","","","","NA"
"-139.84","67.57","OLD CROW A","2100801","2021-04-16 12:00","2021","04","16","12:00","7.2","","-2.5","","50","","","","21","","9","","56.3","","100.13","","","","","","NA"
"-139.84","67.57","OLD CROW A","2100801","2021-04-16 13:00","2021","04","16","13:00","7.8","","-2.6","","48","","","","20","","9","","56.3","","100.12","","","","","","Mainly Clear"
"-139.84","67.57","OLD CROW A","2100801","2021-04-16 14:00","2021","04","16","14:00","8.1","","-3.0","","46","","","","24","","11","","56.3","","100.13","","","","","","NA"
"-139.84","67.57","OLD CROW A","2100801","2021-04-16 15:00","2021","04","16","15:00"
"-139.84","67.57","OLD CROW A","2100801","2021-04-16 16:00","2021","04","16","16:00"
"-139.84","67.57","OLD CROW A","2100801","2021-04-16 17:00","2021","04","16","17:00"
"-139.84","67.57","OLD CROW A","2100801","2021-04-16 18:00","2021","04","16","18:00"
"-139.84","67.57","OLD CROW A","2100801","2021-04-16 19:00","2021","04","16","19:00"
"-139.84","67.57","OLD CROW A","2100801","2021-04-16 20:00","2021","04","16","20:00"
"-139.84","67.57","OLD CROW A","2100801","2021-04-16 21:00","2021","04","16","21:00"
"-139.84","67.57","OLD CROW A","2100801","2021-04-16 22:00","2021","04","16","22:00"
"-139.84","67.57","OLD CROW A","2100801","2021-04-16 23:00","2021","04","16","23:00"
"-139.84","67.57","OLD CROW A","2100801","2021-04-17 00:00","2021","04","17","00:00"
"-139.84","67.57","OLD CROW A","2100801","2021-04-17 01:00","2021","04","17","01:00"
"-139.84","67.57","OLD CROW A","2100801","2021-04-17 02:00","2021","04","17","02:00"
"-139.84","67.57","OLD CROW A","2100801","2021-04-17 03:00","2021","04","17","03:00"
"-139.84","67.57","OLD CROW A","2100801","2021-04-17 04:00","2021","04","17","04:00"
"-139.84","67.57","OLD CROW A","2100801","2021-04-17 05:00","2021","04","17","05:00","-0.9","","-5.9","","69","","","","25","","13","","56.3","","100.38","","","","-5","","NA"
"-139.84","67.57","OLD CROW A","2100801","2021-04-17 06:00","2021","04","17","06:00","-4.8","","-7.1","","84","","","","8","","6","","56.3","","100.41","","","","-8","","NA"
"-139.84","67.57","OLD CROW A","2100801","2021-04-17 07:00","2021","04","17","07:00","-4.3","","-7.0","","82","","","","21","","4","","56.3","","100.44","","","","-6","","Mostly Cloudy"
"-139.84","67.57","OLD CROW A","2100801","2021-04-17 08:00","2021","04","17","08:00","-0.6","","-6.1","","66","","","","26","","11","","56.3","","100.47","","","","-4","","NA"
"-139.84","67.57","OLD CROW A","2100801","2021-04-17 09:00","2021","04","17","09:00","1.8","","-6.4","","55","","","","26","","19","","56.3","","100.48","","","","","","NA"
"-139.84","67.57","OLD CROW A","2100801","2021-04-17 10:00","2021","04","17","10:00","2.3","","-6.6","","52","","","","25","","21","","56.3","","100.50","","","","","","Mostly Cloudy"
"-139.84","67.57","OLD CROW A","2100801","2021-04-17 11:00","2021","04","17","11:00","3.8","","-6.2","","48","","","","23","","16","","56.3","","100.57","","","","","","NA"
"-139.84","67.57","OLD CROW A","2100801","2021-04-17 12:00","2021","04","17","12:00","4.9","","-6.1","","45","","","","25","","16","","56.3","","100.59","","","","","","NA"
"-139.84","67.57","OLD CROW A","2100801","2021-04-17 13:00","2021","04","17","13:00","5.4","","-5.5","","45","","","","26","","15","","56.3","","100.61","","","","","","Clear"
"-139.84","67.57","OLD CROW A","2100801","2021-04-17 14:00","2021","04","17","14:00","6.7","","-6.1","","40","","","","25","","13","","56.3","","100.61","","","","","","NA"
"-139.84","67.57","OLD CROW A","2100801","2021-04-17 15:00","2021","04","17","15:00"
"-139.84","67.57","OLD CROW A","2100801","2021-04-17 16:00","2021","04","17","16:00"
"-139.84","67.57","OLD CROW A","2100801","2021-04-17 17:00","2021","04","17","17:00"
"-139.84","67.57","OLD CROW A","2100801","2021-04-17 18:00","2021","04","17","18:00"
"-139.84","67.57","OLD CROW A","2100801","2021-04-17 19:00","2021","04","17","19:00"
"-139.84","67.57","OLD CROW A","2100801","2021-04-17 20:00","2021","04","17","20:00"
"-139.84","67.57","OLD CROW A","2100801","2021-04-17 21:00","2021","04","17","21:00"
"-139.84","67.57","OLD CROW A","2100801","2021-04-17 22:00","2021","04","17","22:00"
"-139.84","67.57","OLD CROW A","2100801","2021-04-17 23:00","2021","04","17","23:00"
"-139.84","67.57","OLD CROW A","2100801","2021-04-18 00:00","2021","04","18","00:00"
"-139.84","67.57","OLD CROW A","2100801","2021-04-18 01:00","2021","04","18","01:00"
"-139.84","67.57","OLD CROW A","2100801","2021-04-18 02:00","2021","04","18","02:00"
"-139.84","67.57","OLD CROW A","2100801","2021-04-18 03:00","2021","04","18","03:00"
"-139.84","67.57","OLD CROW A","2100801","2021-04-18 04:00","2021","04","18","04:00"
"-139.84","67.57","OLD CROW A","2100801","2021-04-18 05:00","2021","04","18","05:00","-5.3","","-7.7","","83","","","","9","","6","","56.3","","100.55","","","","-8","","NA"
"-139.84","67.57","OLD CROW A","2100801","2021-04-18 06:00","2021","04","18","06:00","-5.7","","-8.2","","83","","","","8","","7","","56.3","","100.48","","","","-9","","NA"
"-139.84","67.57","OLD CROW A","2100801","2021-04-18 07:00","2021","04","18","07:00","-4.5","","-7.9","","77","","","","8","","4","","56.3","","100.45","","","","-6","","Clear"
"-139.84","67.57","OLD CROW A","2100801","2021-04-18 08:00","2021","04","18","08:00","-2.6","","-7.5","","69","","","","10","","5","","56.3","","100.40","","","","-5","","NA"
"-139.84","67.57","OLD CROW A","2100801","2021-04-18 09:00","2021","04","18","09:00","1.8","","-6.1","","56","","","","9","","9","","56.3","","100.33","","","","","","NA"
"-139.84","67.57","OLD CROW A","2100801","2021-04-18 10:00","2021","04","18","10:00","3.9","","-6.1","","48","","","","8","","11","","56.3","","100.26","","","","","","Clear"
"-139.84","67.57","OLD CROW A","2100801","2021-04-18 11:00","2021","04","18","11:00","5.6","","-5.3","","45","","","","9","","7","","56.3","","100.21","","","","","","NA"
"-139.84","67.57","OLD CROW A","2100801","2021-04-18 12:00","2021","04","18","12:00","6.3","","-5.2","","44","","","","10","","8","","56.3","","100.16","","","","","","NA"
"-139.84","67.57","OLD CROW A","2100801","2021-04-18 13:00","2021","04","18","13:00","8.0","","-5.6","","38","","","","7","","10","","56.3","","100.10","","","","","","Clear"
"-139.84","67.57","OLD CROW A","2100801","2021-04-18 14:00","2021","04","18","14:00","8.3","","-5.2","","38","","","","7","","14","","56.3","","100.05","","","","","","NA"
"-139.84","67.57","OLD CROW A","2100801","2021-04-18 15:00","2021","04","18","15:00"
"-139.84","67.57","OLD CROW A","2100801","2021-04-18 16:00","2021","04","18","16:00"
"-139.84","67.57","OLD CROW A","2100801","2021-04-18 17:00","2021","04","18","17:00"
"-139.84","67.57","OLD CROW A","2100801","2021-04-18 18:00","2021","04","18","18:00"
"-139.84","67.57","OLD CROW A","2100801","2021-04-18 19:00","2021","04","18","19:00"
"-139.84","67.57","OLD CROW A","2100801","2021-04-18 20:00","2021","04","18","20:00"
"-139.84","67.57","OLD CROW A","2100801","2021-04-18 21:00","2021","04","18","21:00"
"-139.84","67.57","OLD CROW A","2100801","2021-04-18 22:00","2021","04","18","22:00"
"-139.84","67.57","OLD CROW A","2100801","2021-04-18 23:00","2021","04","18","23:00"
"-139.84","67.57","OLD CROW A","2100801","2021-04-19 00:00","2021","04","19","00:00"
"-139.84","67.57","OLD CROW A","2100801","2021-04-19 01:00","2021","04","19","01:00"
"-139.84","67.57","OLD CROW A","2100801","2021-04-19 02:00","2021","04","19","02:00"
"-139.84","67.57","OLD CROW A","2100801","2021-04-19 03:00","2021","04","19","03:00"
"-139.84","67.57","OLD CROW A","2100801","2021-04-19 04:00","2021","04","19","04:00"
"-139.84","67.57","OLD CROW A","2100801","2021-04-19 05:00","2021","04","19","05:00","-7.3","","-8.2","","93","","","","9","","4","","56.3","","99.60","","","","-9","","NA"
"-139.84","67.57","OLD CROW A","2100801","2021-04-19 06:00","2021","04","19","06:00","-7.3","","-8.5","","92","","","","4","","3","","56.3","","99.55","","","","-9","","NA"
"-139.84","67.57","OLD CROW A","2100801","2021-04-19 07:00","2021","04","19","07:00","-6.6","","-8.1","","89","","","","36","","1","","56.3","","99.54","","","","-7","","Clear"
"-139.84","67.57","OLD CROW A","2100801","2021-04-19 08:00","2021","04","19","08:00","-4.6","","-7.9","","78","","","","14","","3","","56.3","","99.50","","","","-6","","NA"
"-139.84","67.57","OLD CROW A","2100801","2021-04-19 09:00","2021","04","19","09:00","-1.8","","-6.2","","72","","","","24","","3","","56.3","","99.43","","","","-3","","NA"
"-139.84","67.57","OLD CROW A","2100801","2021-04-19 10:00","2021","04","19","10:00","0.8","","-5.6","","62","","","","28","","4","","56.3","","99.37","","","","","","Clear"
"-139.84","67.57","OLD CROW A","2100801","2021-04-19 11:00","2021","04","19","11:00","2.7","","-5.4","","55","","","","36","","2","","56.3","","99.29","","","","","","NA"
"-139.84","67.57","OLD CROW A","2100801","2021-04-19 12:00","2021","04","19","12:00","4.7","","-4.8","","50","","","","26","","4","","56.3","","99.24","","","","","","NA"
"-139.84","67.57","OLD CROW A","2100801","2021-04-19 13:00","2021","04","19","13:00","6.9","","-4.6","","44","","","","36","","2","","56.3","","99.17","","","","","","Clear"
"-139.84","67.57","OLD CROW A","2100801","2021-04-19 14:00","2021","04","19","14:00","8.5","","-4.7","","39","","","","10","","3","","56.3","","99.11","","","","","","NA"
"-139.84","67.57","OLD CROW A","2100801","2021-04-19 15:00","2021","04","19","15:00"
"-139.84","67.57","OLD CROW A","2100801","2021-04-19 16:00","2021","04","19","16:00"
"-139.84","67.57","OLD CROW A","2100801","2021-04-19 17:00","2021","04","19","17:00"
"-139.84","67.57","OLD CROW A","2100801","2021-04-19 18:00","2021","04","19","18:00"
"-139.84","67.57","OLD CROW A","2100801","2021-04-19 19:00","2021","04","19","19:00"
"-139.84","67.57","OLD CROW A","2100801","2021-04-19 20:00","2021","04","19","20:00"
"-139.84","67.57","OLD CROW A","2100801","2021-04-19 21:00","2021","04","19","21:00"
"-139.84","67.57","OLD CROW A","2100801","2021-04-19 22:00","2021","04","19","22:00"
"-139.84","67.57","OLD CROW A","2100801","2021-04-19 23:00","2021","04","19","23:00"
"-139.84","67.57","OLD CROW A","2100801","2021-04-20 00:00","2021","04","20","00:00"
"-139.84","67.57","OLD CROW A","2100801","2021-04-20 01:00","2021","04","20","01:00"
"-139.84","67.57","OLD CROW A","2100801","2021-04-20 02:00","2021","04","20","02:00"
"-139.84","67.57","OLD CROW A","2100801","2021-04-20 03:00","2021","04","20","03:00"
"-139.84","67.57","OLD CROW A","2100801","2021-04-20 04:00","2021","04","20","04:00"
"-139.84","67.57","OLD CROW A","2100801","2021-04-20 05:00","2021","04","20","05:00","-5.5","","-7.5","","86","","","","4","","37","","0.8","","99.33","","","","-14","","Snow,Blowing Snow"
"-139.84","67.57","OLD CROW A","2100801","2021-04-20 06:00","2021","04","20","06:00","-6.4","","-8.0","","89","","","","5","","30","","0.4","","99.41","","","","-15","","Snow,Blowing Snow"
"-139.84","67.57","OLD CROW A","2100801","2021-04-20 07:00","2021","04","20","07:00","-6.8","","-8.6","","87","","","","5","","32","","0.4","","99.47","","","","-16","","Snow,Blowing Snow"
"-139.84","67.57","OLD CROW A","2100801","2021-04-20 08:00","2021","04","20","08:00","-7.0","","-9.0","","86","","","","5","","28","","0.6","","99.56","","","","-15","","Snow,Blowing Snow"
"-139.84","67.57","OLD CROW A","2100801","2021-04-20 09:00","2021","04","20","09:00","-6.9","","-9.2","","84","","","","5","","35","","0.6","","99.62","","","","-16","","Snow,Blowing Snow"
"-139.84","67.57","OLD CROW A","2100801","2021-04-20 10:00","2021","04","20","10:00","-6.8","","-9.2","","83","","","","6","","40","","0.6","","99.70","","","","-16","","Snow,Blowing Snow"
"-139.84","67.57","OLD CROW A","2100801","2021-04-20 11:00","2021","04","20","11:00","-6.5","","-9.4","","80","","","","6","","39","","1.0","","99.79","","","","-16","","Snow,Blowing Snow"
"-139.84","67.57","OLD CROW A","2100801","2021-04-20 12:00","2021","04","20","12:00","-6.1","","-9.4","","78","","","","6","","28","","3.2","","99.87","","","","-14","","Snow,Blowing Snow"
"-139.84","67.57","OLD CROW A","2100801","2021-04-20 13:00","2021","04","20","13:00","-4.5","","-9.4","","69","","","","6","","18","","32.2","","99.95","","","","-11","","Blowing Snow"
"-139.84","67.57","OLD CROW A","2100801","2021-04-20 14:00","2021","04","20","14:00","-4.0","","-9.4","","67","","","","8","","14","","24.1","","99.98","","","","-9","","Blowing Snow"
"-139.84","67.57","OLD CROW A","2100801","2021-04-20 15:00","2021","04","20","15:00","-3.9","","-10.6","","60","","","","6","","8","","40.2","","100.03","","","","-7","","NA"
"-139.84","67.57","OLD CROW A","2100801","2021-04-20 16:00","2021","04","20","16:00","-3.3","","-10.7","","57","","","","7","","4","","56.3","","100.10","","","","-5","","Mainly Clear"
"-139.84","67.57","OLD CROW A","2100801","2021-04-20 17:00","2021","04","20","17:00","-3.0","","-10.9","","55","","","","10","","3","","56.3","","100.07","","","","-4","","NA"
"-139.84","67.57","OLD CROW A","2100801","2021-04-20 18:00","2021","04","20","18:00"
"-139.84","67.57","OLD CROW A","2100801","2021-04-20 19:00","2021","04","20","19:00"
"-139.84","67.57","OLD CROW A","2100801","2021-04-20 20:00","2021","04","20","20:00"
"-139.84","67.57","OLD CROW A","2100801","2021-04-20 21:00","2021","04","20","21:00"
"-139.84","67.57","OLD CROW A","2100801","2021-04-20 22:00","2021","04","20","22:00"
"-139.84","67.57","OLD CROW A","2100801","2021-04-20 23:00","2021","04","20","23:00"
"-139.84","67.57","OLD CROW A","2100801","2021-04-21 00:00","2021","04","21","00:00"
"-139.84","67.57","OLD CROW A","2100801","2021-04-21 01:00","2021","04","21","01:00"
"-139.84","67.57","OLD CROW A","2100801","2021-04-21 02:00","2021","04","21","02:00"
"-139.84","67.57","OLD CROW A","2100801","2021-04-21 03:00","2021","04","21","03:00"
"-139.84","67.57","OLD CROW A","2100801","2021-04-21 04:00","2021","04","21","04:00"
"-139.84","67.57","OLD CROW A","2100801","2021-04-21 05:00","2021","04","21","05:00","-15.5","","-17.3","","86","","","","7","","5","","56.3","","100.21","","","","-19","","NA"
"-139.84","67.57","OLD CROW A","2100801","2021-04-21 06:00","2021","04","21","06:00","-15.4","","-17.4","","85","","","","4","","4","","56.3","","100.24","","","","-18","","NA"
"-139.84","67.57","OLD CROW A","2100801","2021-04-21 07:00","2021","04","21","07:00","-13.8","","-15.7","","86","","","","4","","4","","56.3","","100.21","","","","-17","","Mostly Cloudy"
"-139.84","67.57","OLD CROW A","2100801","2021-04-21 08:00","2021","04","21","08:00","-11.6","","-13.8","","84","","","","36","","2","","56.3","","100.21","","","","-13","","NA"
"-139.84","67.57","OLD CROW A","2100801","2021-04-21 09:00","2021","04","21","09:00","-9.8","","-13.1","","77","","","","12","","4","","56.3","","100.19","","","","-12","","NA"
"-139.84","67.57","OLD CROW A","2100801","2021-04-21 10:00","2021","04","21","10:00","-7.6","","-13.0","","66","","","","36","","2","","56.3","","100.18","","","","-9","","Mostly Cloudy"
"-139.84","67.57","OLD CROW A","2100801","2021-04-21 11:00","2021","04","21","11:00","-4.7","","-12.9","","53","","","","7","","4","","56.3","","100.19","","","","-6","","NA"
"-139.84","67.57","OLD CROW A","2100801","2021-04-21 12:00","2021","04","21","12:00","-1.8","","-13.6","","40","","","","13","","4","","56.3","","100.15","","","","-3","","NA"
"-139.84","67.57","OLD CROW A","2100801","2021-04-21 13:00","2021","04","21","13:00","0.0","","-13.6","","35","","","","9","","10","","56.3","","100.12","","","","-3","","Mostly Cloudy"
"-139.84","67.57","OLD CROW A","2100801","2021-04-21 14:00","2021","04","21","14:00","1.0","","-13.5","","33","","","","10","","5","","56.3","","100.08","","","","","","NA"
"-139.84","67.57","OLD CROW A","2100801","2021-04-21 15:00","2021","04","21","15:00","1.9","","-14.9","","28","","","","28","","10","","56.3","","100.04","","","","","","NA"
"-139.84","67.57","OLD CROW A","2100801","2021-04-21 16:00","2021","04","21","16:00","1.5","","-14.2","","30","","","","3","","15","","56.3","","99.99","","","","","","Mainly Clear"
"-139.84","67.57","OLD CROW A","2100801","2021-04-21 17:00","2021","04","21","17:00","2.4","","-13.3","","31","","","","35","","11","","56.3","","99.95","","","","","","NA"
"-139.84","67.57","OLD CROW A","2100801","2021-04-21 18:00","2021","04","21","18:00"
"-139.84","67.57","OLD CROW A","2100801","2021-04-21 19:00","2021","04","21","19:00"
"-139.84","67.57","OLD CROW A","2100801","2021-04-21 20:00","2021","04","21","20:00"
"-139.84","67.57","OLD CROW A","2100801","2021-04-21 21:00","2021","04","21","21:00"
"-139.84","67.57","OLD CROW A","2100801","2021-04-21 22:00","2021","04","21","22:00"
"-139.84","67.57","OLD CROW A","2100801","2021-04-21 23:00","2021","04","21","23:00"
"-139.84","67.57","OLD CROW A","2100801","2021-04-22 00:00","2021","04","22","00:00"
"-139.84","67.57","OLD CROW A","2100801","2021-04-22 01:00","2021","04","22","01:00"
"-139.84","67.57","OLD CROW A","2100801","2021-04-22 02:00","2021","04","22","02:00"
"-139.84","67.57","OLD CROW A","2100801","2021-04-22 03:00","2021","04","22","03:00"
"-139.84","67.57","OLD CROW A","2100801","2021-04-22 04:00","2021","04","22","04:00"
"-139.84","67.57","OLD CROW A","2100801","2021-04-22 05:00","2021","04","22","05:00","-11.7","","-15.2","","75","","","","22","","3","","56.3","","99.89","","","","-14","","NA"
"-139.84","67.57","OLD CROW A","2100801","2021-04-22 06:00","2021","04","22","06:00","-11.0","","-14.2","","77","","","","11","","3","","56.3","","99.93","","","","-13","","NA"
"-139.84","67.57","OLD CROW A","2100801","2021-04-22 07:00","2021","04","22","07:00","-10.0","","-14.5","","70","","","","7","","3","","56.3","","99.93","","","","-12","","Mostly Cloudy"
"-139.84","67.57","OLD CROW A","2100801","2021-04-22 08:00","2021","04","22","08:00","-8.5","","-13.9","","65","","","","36","","2","","56.3","","99.93","","","","-10","","NA"
"-139.84","67.57","OLD CROW A","2100801","2021-04-22 09:00","2021","04","22","09:00","-6.5","","-13.4","","58","","","","3","","3","","56.3","","99.92","","","","-8","","NA"
"-139.84","67.57","OLD CROW A","2100801","2021-04-22 10:00","2021","04","22","10:00","-3.2","","-12.7","","48","","","","12","","6","","56.3","","99.91","","","","-6","","Mainly Clear"
"-139.84","67.57","OLD CROW A","2100801","2021-04-22 11:00","2021","04","22","11:00","-0.8","","-14.3","","35","","","","12","","4","","56.3","","99.89","","","","-2","","NA"
"-139.84","67.57","OLD CROW A","2100801","2021-04-22 12:00","2021","04","22","12:00","0.4","","-13.9","","34","","","","36","","3","","56.3","","99.84","","","","","","NA"
"-139.84","67.57","OLD CROW A","2100801","2021-04-22 13:00","2021","04","22","13:00","2.1","","-13.3","","31","","","","12","","5","","56.3","","99.81","","","","","","Mostly Cloudy"
"-139.84","67.57","OLD CROW A","2100801","2021-04-22 14:00","2021","04","22","14:00","3.2","","-13.5","","28","","","","10","","7","","56.3","","99.78","","","","","","NA"
"-139.84","67.57","OLD CROW A","2100801","2021-04-22 15:00","2021","04","22","15:00"
"-139.84","67.57","OLD CROW A","2100801","2021-04-22 16:00","2021","04","22","16:00"
"-139.84","67.57","OLD CROW A","2100801","2021-04-22 17:00","2021","04","22","17:00"
"-139.84","67.57","OLD CROW A","2100801","2021-04-22 18:00","2021","04","22","18:00"
"-139.84","67.57","OLD CROW A","2100801","2021-04-22 19:00","2021","04","22","19:00"
"-139.84","67.57","OLD CROW A","2100801","2021-04-22 20:00","2021","04","22","20:00"
"-139.84","67.57","OLD CROW A","2100801","2021-04-22 21:00","2021","04","22","21:00"
"-139.84","67.57","OLD CROW A","2100801","2021-04-22 22:00","2021","04","22","22:00"
"-139.84","67.57","OLD CROW A","2100801","2021-04-22 23:00","2021","04","22","23:00"
"-139.84","67.57","OLD CROW A","2100801","2021-04-23 00:00","2021","04","23","00:00"
"-139.84","67.57","OLD CROW A","2100801","2021-04-23 01:00","2021","04","23","01:00"
"-139.84","67.57","OLD CROW A","2100801","2021-04-23 02:00","2021","04","23","02:00"
"-139.84","67.57","OLD CROW A","2100801","2021-04-23 03:00","2021","04","23","03:00"
"-139.84","67.57","OLD CROW A","2100801","2021-04-23 04:00","2021","04","23","04:00"
"-139.84","67.57","OLD CROW A","2100801","2021-04-23 05:00","2021","04","23","05:00","-11.1","","-13.1","","85","","","","4","","5","","56.3","","99.42","","","","-14","","NA"
"-139.84","67.57","OLD CROW A","2100801","2021-04-23 06:00","2021","04","23","06:00","-10.3","","-12.0","","87","","","","0","","1","","56.3","","99.40","","","","-11","","NA"
"-139.84","67.57","OLD CROW A","2100801","2021-04-23 07:00","2021","04","23","07:00","-8.8","","-12.4","","75","","","","36","","2","","56.3","","99.39","","","","-10","","Mostly Cloudy"
"-139.84","67.57","OLD CROW A","2100801","2021-04-23 08:00","2021","04","23","08:00","-5.9","","-12.1","","62","","","","36","","3","","56.3","","99.37","","","","-7","","NA"
"-139.84","67.57","OLD CROW A","2100801","2021-04-23 09:00","2021","04","23","09:00","-3.4","","-11.8","","52","","","","36","","3","","56.3","","99.35","","","","-5","","NA"
"-139.84","67.57","OLD CROW A","2100801","2021-04-23 10:00","2021","04","23","10:00","-1.6","","-10.5","","51","","","","36","","2","","56.3","","99.31","","","","-2","","Clear"
"-139.84","67.57","OLD CROW A","2100801","2021-04-23 11:00","2021","04","23","11:00","1.1","","-10.0","","44","","","","36","","1","","56.3","","99.29","","","","","","NA"
"-139.84","67.57","OLD CROW A","2100801","2021-04-23 12:00","2021","04","23","12:00","2.8","","-9.1","","41","","","","36","","1","","56.3","","99.24","","","","","","NA"
"-139.84","67.57","OLD CROW A","2100801","2021-04-23 13:00","2021","04","23","13:00","5.2","","-8.7","","36","","","","14","","4","","56.3","","99.21","","","","","","Mainly Clear"
"-139.84","67.57","OLD CROW A","2100801","2021-04-23 14:00","2021","04","23","14:00","6.2","","-8.8","","33","","","","9","","3","","56.3","","99.15","","","","","","NA"
"-139.84","67.57","OLD CROW A","2100801","2021-04-23 15:00","2021","04","23","15:00"
"-139.84","67.57","OLD CROW A","2100801","2021-04-23 16:00","2021","04","23","16:00"
"-139.84","67.57","OLD CROW A","2100801","2021-04-23 17:00","2021","04","23","17:00"
"-139.84","67.57","OLD CROW A","2100801","2021-04-23 18:00","2021","04","23","18:00"
"-139.84","67.57","OLD CROW A","2100801","2021-04-23 19:00","2021","04","23","19:00"
"-139.84","67.57","OLD CROW A","2100801","2021-04-23 20:00","2021","04","23","20:00"
"-139.84","67.57","OLD CROW A","2100801","2021-04-23 21:00","2021","04","23","21:00"
"-139.84","67.57","OLD CROW A","2100801","2021-04-23 22:00","2021","04","23","22:00"
"-139.84","67.57","OLD CROW A","2100801","2021-04-23 23:00","2021","04","23","23:00"
"-139.84","67.57","OLD CROW A","2100801","2021-04-24 00:00","2021","04","24","00:00"
"-139.84","67.57","OLD CROW A","2100801","2021-04-24 01:00","2021","04","24","01:00"
"-139.84","67.57","OLD CROW A","2100801","2021-04-24 02:00","2021","04","24","02:00"
"-139.84","67.57","OLD CROW A","2100801","2021-04-24 03:00","2021","04","24","03:00"
"-139.84","67.57","OLD CROW A","2100801","2021-04-24 04:00","2021","04","24","04:00"
"-139.84","67.57","OLD CROW A","2100801","2021-04-24 05:00","2021","04","24","05:00","-7.7","","-9.2","","89","","","","10","","3","","56.3","","98.87","","","","-9","","NA"
"-139.84","67.57","OLD CROW A","2100801","2021-04-24 06:00","2021","04","24","06:00","-8.3","","-10.2","","86","","","","11","","4","","56.3","","98.87","","","","-10","","NA"
"-139.84","67.57","OLD CROW A","2100801","2021-04-24 07:00","2021","04","24","07:00","-7.3","","-10.0","","81","","","","36","","1","","56.3","","98.86","","","","-8","","Mostly Cloudy"
"-139.84","67.57","OLD CROW A","2100801","2021-04-24 08:00","2021","04","24","08:00","-5.7","","-9.0","","78","","","","10","","3","","56.3","","98.86","","","","-7","","NA"
"-139.84","67.57","OLD CROW A","2100801","2021-04-24 09:00","2021","04","24","09:00","-2.0","","-8.1","","63","","","","10","","4","","56.3","","98.81","","","","-3","","NA"
"-139.84","67.57","OLD CROW A","2100801","2021-04-24 10:00","2021","04","24","10:00","1.0","","-7.1","","55","","","","12","","4","","56.3","","98.79","","","","","","Mostly Cloudy"
"-139.84","67.57","OLD CROW A","2100801","2021-04-24 11:00","2021","04","24","11:00","3.6","","-6.5","","48","","","","11","","5","","56.3","","98.76","","","","","","NA"
"-139.84","67.57","OLD CROW A","2100801","2021-04-24 12:00","2021","04","24","12:00","5.6","","-6.1","","43","","","","11","","4","","56.3","","98.72","","","","","","NA"
"-139.84","67.57","OLD CROW A","2100801","2021-04-24 13:00","2021","04","24","13:00","7.7","","-6.3","","36","","","","13","","4","","56.3","","98.68","","","","","","Mainly Clear"
"-139.84","67.57","OLD CROW A","2100801","2021-04-24 14:00","2021","04","24","14:00","8.2","","-5.3","","38","","","","8","","14","","56.3","","98.69","","","","","","NA"
"-139.84","67.57","OLD CROW A","2100801","2021-04-24 15:00","2021","04","24","15:00"
"-139.84","67.57","OLD CROW A","2100801","2021-04-24 16:00","2021","04","24","16:00"
"-139.84","67.57","OLD CROW A","2100801","2021-04-24 17:00","2021","04","24","17:00"
"-139.84","67.57","OLD CROW A","2100801","2021-04-24 18:00","2021","04","24","18:00"
"-139.84","67.57","OLD CROW A","2100801","2021-04-24 19:00","2021","04","24","19:00"
"-139.84","67.57","OLD CROW A","2100801","2021-04-24 20:00","2021","04","24","20:00"
"-139.84","67.57","OLD CROW A","2100801","2021-04-24 21:00","2021","04","24","21:00"
"-139.84","67.57","OLD CROW A","2100801","2021-04-24 22:00","2021","04","24","22:00"
"-139.84","67.57","OLD CROW A","2100801","2021-04-24 23:00","2021","04","24","23:00"
"-139.84","67.57","OLD CROW A","2100801","2021-04-25 00:00","2021","04","25","00:00"
"-139.84","67.57","OLD CROW A","2100801","2021-04-25 01:00","2021","04","25","01:00"
"-139.84","67.57","OLD CROW A","2100801","2021-04-25 02:00","2021","04","25","02:00"
"-139.84","67.57","OLD CROW A","2100801","2021-04-25 03:00","2021","04","25","03:00"
"-139.84","67.57","OLD CROW A","2100801","2021-04-25 04:00","2021","04","25","04:00"
"-139.84","67.57","OLD CROW A","2100801","2021-04-25 05:00","2021","04","25","05:00","-6.2","","-7.9","","87","","","","12","","3","","56.3","","98.59","","","","-8","","NA"
"-139.84","67.57","OLD CROW A","2100801","2021-04-25 06:00","2021","04","25","06:00","-6.5","","-8.2","","88","","","","36","","1","","56.3","","98.61","","","","-7","","NA"
"-139.84","67.57","OLD CROW A","2100801","2021-04-25 07:00","2021","04","25","07:00","-5.3","","-7.5","","85","","","","36","","1","","56.3","","98.60","","","","-6","","Clear"
"-139.84","67.57","OLD CROW A","2100801","2021-04-25 08:00","2021","04","25","08:00","-2.9","","-7.3","","72","","","","22","","3","","56.3","","98.59","","","","-4","","NA"
"-139.84","67.57","OLD CROW A","2100801","2021-04-25 09:00","2021","04","25","09:00","1.6","","-10.6","","40","","","","6","","19","","56.3","","98.55","","","","","","NA"
"-139.84","67.57","OLD CROW A","2100801","2021-04-25 10:00","2021","04","25","10:00","2.6","","-10.0","","39","","","","7","","22","","56.3","","98.54","","","","","","Clear"
"-139.84","67.57","OLD CROW A","2100801","2021-04-25 11:00","2021","04","25","11:00","4.0","","-9.1","","38","","","","7","","9","","56.3","","98.52","","","","","","NA"
"-139.84","67.57","OLD CROW A","2100801","2021-04-25 12:00","2021","04","25","12:00","4.4","","-9.4","","36","","","","7","","15","","56.3","","98.50","","","","","","NA"
"-139.84","67.57","OLD CROW A","2100801","2021-04-25 13:00","2021","04","25","13:00","4.8","","-9.0","","36","","","","8","","15","","56.3","","98.47","","","","","","Clear"
"-139.84","67.57","OLD CROW A","2100801","2021-04-25 14:00","2021","04","25","14:00","5.3","","-8.4","","37","","","","8","","13","","56.3","","98.44","","","","","","NA"
"-139.84","67.57","OLD CROW A","2100801","2021-04-25 15:00","2021","04","25","15:00"
"-139.84","67.57","OLD CROW A","2100801","2021-04-25 16:00","2021","04","25","16:00"
"-139.84","67.57","OLD CROW A","2100801","2021-04-25 17:00","2021","04","25","17:00"
"-139.84","67.57","OLD CROW A","2100801","2021-04-25 18:00","2021","04","25","18:00"
"-139.84","67.57","OLD CROW A","2100801","2021-04-25 19:00","2021","04","25","19:00"
"-139.84","67.57","OLD CROW A","2100801","2021-04-25 20:00","2021","04","25","20:00"
"-139.84","67.57","OLD CROW A","2100801","2021-04-25 21:00","2021","04","25","21:00"
"-139.84","67.57","OLD CROW A","2100801","2021-04-25 22:00","2021","04","25","22:00"
"-139.84","67.57","OLD CROW A","2100801","2021-04-25 23:00","2021","04","25","23:00"
"-139.84","67.57","OLD CROW A","2100801","2021-04-26 00:00","2021","04","26","00:00"
"-139.84","67.57","OLD CROW A","2100801","2021-04-26 01:00","2021","04","26","01:00"
"-139.84","67.57","OLD CROW A","2100801","2021-04-26 02:00","2021","04","26","02:00"
"-139.84","67.57","OLD CROW A","2100801","2021-04-26 03:00","2021","04","26","03:00"
"-139.84","67.57","OLD CROW A","2100801","2021-04-26 04:00","2021","04","26","04:00"
"-139.84","67.57","OLD CROW A","2100801","2021-04-26 05:00","2021","04","26","05:00","-9.8","","-15.4","","64","","","","3","","28","","56.3","","98.52","","","","-19","","NA"
"-139.84","67.57","OLD CROW A","2100801","2021-04-26 06:00","2021","04","26","06:00","-9.4","","-15.5","","62","","","","6","","23","","56.3","","98.60","","","","-18","","NA"
"-139.84","67.57","OLD CROW A","2100801","2021-04-26 07:00","2021","04","26","07:00","-6.9","","-14.1","","57","","","","5","","14","","56.3","","98.65","","","","-13","","Clear"
"-139.84","67.57","OLD CROW A","2100801","2021-04-26 08:00","2021","04","26","08:00","-6.3","","-14.4","","53","","","","7","","13","","56.3","","98.71","","","","-12","","NA"
"-139.84","67.57","OLD CROW A","2100801","2021-04-26 09:00","2021","04","26","09:00","-5.6","","-14.7","","49","","","","6","","18","","56.3","","98.75","","","","-12","","NA"
"-139.84","67.57","OLD CROW A","2100801","2021-04-26 10:00","2021","04","26","10:00","-4.8","","-14.4","","47","","","","5","","23","","56.3","","98.81","","","","-12","","Clear"
"-139.84","67.57","OLD CROW A","2100801","2021-04-26 11:00","2021","04","26","11:00","-2.9","","-13.8","","43","","","","10","","13","","56.3","","98.89","","","","-8","","NA"
"-139.84","67.57","OLD CROW A","2100801","2021-04-26 12:00","2021","04","26","12:00","-3.2","","-14.2","","43","","","","11","","14","","56.3","","98.97","","","","-8","","NA"
"-139.84","67.57","OLD CROW A","2100801","2021-04-26 13:00","2021","04","26","13:00","-2.6","","-13.2","","45","","","","10","","11","","56.3","","99.00","","","","-7","","Clear"
"-139.84","67.57","OLD CROW A","2100801","2021-04-26 14:00","2021","04","26","14:00","-2.4","","-14.0","","41","","","","11","","12","","56.3","","99.06","","","","-7","","NA"
"-139.84","67.57","OLD CROW A","2100801","2021-04-26 15:00","2021","04","26","15:00","-2.6","","-14.4","","40","","","","11","","14","","56.3","","99.11","","","","-7","","NA"
"-139.84","67.57","OLD CROW A","2100801","2021-04-26 16:00","2021","04","26","16:00","-2.6","","-14.6","","40","","","","10","","13","","56.3","","99.14","","","","-7","","Clear"
"-139.84","67.57","OLD CROW A","2100801","2021-04-26 17:00","2021","04","26","17:00","-2.9","","-15.4","","38","","","","10","","16","","56.3","","99.16","","","","-8","","NA"
"-139.84","67.57","OLD CROW A","2100801","2021-04-26 18:00","2021","04","26","18:00"
"-139.84","67.57","OLD CROW A","2100801","2021-04-26 19:00","2021","04","26","19:00"
"-139.84","67.57","OLD CROW A","2100801","2021-04-26 20:00","2021","04","26","20:00"
"-139.84","67.57","OLD CROW A","2100801","2021-04-26 21:00","2021","04","26","21:00"
"-139.84","67.57","OLD CROW A","2100801","2021-04-26 22:00","2021","04","26","22:00"
"-139.84","67.57","OLD CROW A","2100801","2021-04-26 23:00","2021","04","26","23:00"
"-139.84","67.57","OLD CROW A","2100801","2021-04-27 00:00","2021","04","27","00:00"
"-139.84","67.57","OLD CROW A","2100801","2021-04-27 01:00","2021","04","27","01:00"
"-139.84","67.57","OLD CROW A","2100801","2021-04-27 02:00","2021","04","27","02:00"
"-139.84","67.57","OLD CROW A","2100801","2021-04-27 03:00","2021","04","27","03:00"
"-139.84","67.57","OLD CROW A","2100801","2021-04-27 04:00","2021","04","27","04:00"
"-139.84","67.57","OLD CROW A","2100801","2021-04-27 05:00","2021","04","27","05:00","-12.7","","-17.5","","68","","","","4","","12","","56.3","","99.38","","","","-19","","NA"
"-139.84","67.57","OLD CROW A","2100801","2021-04-27 06:00","2021","04","27","06:00","-11.9","","-17.6","","63","","","","5","","12","","56.3","","99.37","","","","-18","","NA"
"-139.84","67.57","OLD CROW A","2100801","2021-04-27 07:00","2021","04","27","07:00","-11.0","","-17.7","","58","","","","6","","10","","56.3","","99.34","","","","-16","","Clear"
"-139.84","67.57","OLD CROW A","2100801","2021-04-27 08:00","2021","04","27","08:00","-9.4","","-17.6","","52","","","","6","","7","","56.3","","99.30","","","","-13","","NA"
"-139.84","67.57","OLD CROW A","2100801","2021-04-27 09:00","2021","04","27","09:00","-7.7","","-17.4","","46","","","","5","","6","","56.3","","99.24","","","","-11","","NA"
"-139.84","67.57","OLD CROW A","2100801","2021-04-27 10:00","2021","04","27","10:00","-6.2","","-17.9","","39","","","","7","","12","","56.3","","99.17","","","","-11","","Clear"
"-139.84","67.57","OLD CROW A","2100801","2021-04-27 11:00","2021","04","27","11:00","-4.7","","-17.0","","38","","","","5","","12","","56.3","","99.12","","","","-9","","NA"
"-139.84","67.57","OLD CROW A","2100801","2021-04-27 12:00","2021","04","27","12:00","-3.5","","-16.6","","36","","","","6","","13","","56.3","","99.04","","","","-8","","NA"
"-139.84","67.57","OLD CROW A","2100801","2021-04-27 13:00","2021","04","27","13:00","-2.4","","-16.8","","32","","","","6","","13","","56.3","","98.97","","","","-7","","Clear"
"-139.84","67.57","OLD CROW A","2100801","2021-04-27 14:00","2021","04","27","14:00","-1.5","","-15.8","","33","","","","5","","12","","56.3","","98.91","","","","-6","","NA"
"-139.84","67.57","OLD CROW A","2100801","2021-04-27 15:00","2021","04","27","15:00"
"-139.84","67.57","OLD CROW A","2100801","2021-04-27 16:00","2021","04","27","16:00"
"-139.84","67.57","OLD CROW A","2100801","2021-04-27 17:00","2021","04","27","17:00"
"-139.84","67.57","OLD CROW A","2100801","2021-04-27 18:00","2021","04","27","18:00"
"-139.84","67.57","OLD CROW A","2100801","2021-04-27 19:00","2021","04","27","19:00"
"-139.84","67.57","OLD CROW A","2100801","2021-04-27 20:00","2021","04","27","20:00"
"-139.84","67.57","OLD CROW A","2100801","2021-04-27 21:00","2021","04","27","21:00"
"-139.84","67.57","OLD CROW A","2100801","2021-04-27 22:00","2021","04","27","22:00"
"-139.84","67.57","OLD CROW A","2100801","2021-04-27 23:00","2021","04","27","23:00"
"-139.84","67.57","OLD CROW A","2100801","2021-04-28 00:00","2021","04","28","00:00"
"-139.84","67.57","OLD CROW A","2100801","2021-04-28 01:00","2021","04","28","01:00"
"-139.84","67.57","OLD CROW A","2100801","2021-04-28 02:00","2021","04","28","02:00"
"-139.84","67.57","OLD CROW A","2100801","2021-04-28 03:00","2021","04","28","03:00"
"-139.84","67.57","OLD CROW A","2100801","2021-04-28 04:00","2021","04","28","04:00"
"-139.84","67.57","OLD CROW A","2100801","2021-04-28 05:00","2021","04","28","05:00","-11.4","","-16.4","","67","","","","9","","5","","56.3","","98.39","","","","-15","","NA"
"-139.84","67.57","OLD CROW A","2100801","2021-04-28 06:00","2021","04","28","06:00","-11.0","","-16.2","","66","","","","36","","2","","56.3","","98.38","","","","-12","","NA"
"-139.84","67.57","OLD CROW A","2100801","2021-04-28 07:00","2021","04","28","07:00","-8.8","","-16.0","","56","","","","8","","4","","56.3","","98.35","","","","-11","","Clear"
"-139.84","67.57","OLD CROW A","2100801","2021-04-28 08:00","2021","04","28","08:00","-5.9","","-14.3","","52","","","","36","","2","","56.3","","98.32","","","","-7","","NA"
"-139.84","67.57","OLD CROW A","2100801","2021-04-28 09:00","2021","04","28","09:00","-2.8","","-14.4","","41","","","","9","","8","","56.3","","98.30","","","","-6","","NA"
"-139.84","67.57","OLD CROW A","2100801","2021-04-28 10:00","2021","04","28","10:00","-1.5","","-14.3","","37","","","","8","","10","","56.3","","98.27","","","","-5","","Clear"
"-139.84","67.57","OLD CROW A","2100801","2021-04-28 11:00","2021","04","28","11:00","0.1","","-14.0","","34","","","","9","","7","","56.3","","98.23","","","","","","NA"
"-139.84","67.57","OLD CROW A","2100801","2021-04-28 12:00","2021","04","28","12:00","1.5","","-13.5","","32","","","","6","","10","","56.3","","98.17","","","","","","NA"
"-139.84","67.57","OLD CROW A","2100801","2021-04-28 13:00","2021","04","28","13:00","3.0","","-11.9","","33","","","","6","","16","","56.3","","98.13","","","","","","Clear"
"-139.84","67.57","OLD CROW A","2100801","2021-04-28 14:00","2021","04","28","14:00","4.9","","-12.1","","28","","","","11","","11","","56.3","","98.09","","","","","","NA"
"-139.84","67.57","OLD CROW A","2100801","2021-04-28 15:00","2021","04","28","15:00"
"-139.84","67.57","OLD CROW A","2100801","2021-04-28 16:00","2021","04","28","16:00"
"-139.84","67.57","OLD CROW A","2100801","2021-04-28 17:00","2021","04","28","17:00"
"-139.84","67.57","OLD CROW A","2100801","2021-04-28 18:00","2021","04","28","18:00"
"-139.84","67.57","OLD CROW A","2100801","2021-04-28 19:00","2021","04","28","19:00"
"-139.84","67.57","OLD CROW A","2100801","2021-04-28 20:00","2021","04","28","20:00"
"-139.84","67.57","OLD CROW A","2100801","2021-04-28 21:00","2021","04","28","21:00"
"-139.84","67.57","OLD CROW A","2100801","2021-04-28 22:00","2021","04","28","22:00"
"-139.84","67.57","OLD CROW A","2100801","2021-04-28 23:00","2021","04","28","23:00"
"-139.84","67.57","OLD CROW A","2100801","2021-04-29 00:00","2021","04","29","00:00"
"-139.84","67.57","OLD CROW A","2100801","2021-04-29 01:00","2021","04","29","01:00"
"-139.84","67.57","OLD CROW A","2100801","2021-04-29 02:00","2021","04","29","02:00"
"-139.84","67.57","OLD CROW A","2100801","2021-04-29 03:00","2021","04","29","03:00"
"-139.84","67.57","OLD CROW A","2100801","2021-04-29 04:00","2021","04","29","04:00"
"-139.84","67.57","OLD CROW A","2100801","2021-04-29 05:00","2021","04","29","05:00","-9.0","","-13.4","","71","","","","8","","5","","56.3","","97.46","","","","-12","","NA"
"-139.84","67.57","OLD CROW A","2100801","2021-04-29 06:00","2021","04","29","06:00","-7.5","","-12.9","","66","","","","9","","7","","56.3","","97.42","","","","-11","","NA"
"-139.84","67.57","OLD CROW A","2100801","2021-04-29 07:00","2021","04","29","07:00","-6.2","","-12.9","","60","","","","","","0","","56.3","","97.42","","","","","","Clear"
"-139.84","67.57","OLD CROW A","2100801","2021-04-29 08:00","2021","04","29","08:00","-2.8","","-11.8","","50","","","","9","","4","","56.3","","97.37","","","","-4","","NA"
"-139.84","67.57","OLD CROW A","2100801","2021-04-29 09:00","2021","04","29","09:00","-0.1","","-11.1","","44","","","","10","","9","","56.3","","97.33","","","","-3","","NA"
"-139.84","67.57","OLD CROW A","2100801","2021-04-29 10:00","2021","04","29","10:00","1.8","","-9.9","","41","","","","10","","10","","56.3","","97.29","","","","","","Clear"
"-139.84","67.57","OLD CROW A","2100801","2021-04-29 11:00","2021","04","29","11:00","2.8","","-9.8","","39","","","","11","","9","","56.3","","97.26","","","","","","NA"
"-139.84","67.57","OLD CROW A","2100801","2021-04-29 12:00","2021","04","29","12:00","4.3","","-9.1","","37","","","","9","","8","","56.3","","97.23","","","","","","NA"
"-139.84","67.57","OLD CROW A","2100801","2021-04-29 13:00","2021","04","29","13:00","5.3","","-9.6","","33","","","","8","","15","","56.3","","97.20","","","","","","Clear"
"-139.84","67.57","OLD CROW A","2100801","2021-04-29 14:00","2021","04","29","14:00","5.6","","-9.6","","33","","","","5","","10","","56.3","","97.17","","","","","","NA"
"-139.84","67.57","OLD CROW A","2100801","2021-04-29 15:00","2021","04","29","15:00"
"-139.84","67.57","OLD CROW A","2100801","2021-04-29 16:00","2021","04","29","16:00"
"-139.84","67.57","OLD CROW A","2100801","2021-04-29 17:00","2021","04","29","17:00"
"-139.84","67.57","OLD CROW A","2100801","2021-04-29 18:00","2021","04","29","18:00"
"-139.84","67.57","OLD CROW A","2100801","2021-04-29 19:00","2021","04","29","19:00"
"-139.84","67.57","OLD CROW A","2100801","2021-04-29 20:00","2021","04","29","20:00"
"-139.84","67.57","OLD CROW A","2100801","2021-04-29 21:00","2021","04","29","21:00"
"-139.84","67.57","OLD CROW A","2100801","2021-04-29 22:00","2021","04","29","22:00"
"-139.84","67.57","OLD CROW A","2100801","2021-04-29 23:00","2021","04","29","23:00"
"-139.84","67.57","OLD CROW A","2100801","2021-04-30 00:00","2021","04","30","00:00"
"-139.84","67.57","OLD CROW A","2100801","2021-04-30 01:00","2021","04","30","01:00"
"-139.84","67.57","OLD CROW A","2100801","2021-04-30 02:00","2021","04","30","02:00"
"-139.84","67.57","OLD CROW A","2100801","2021-04-30 03:00","2021","04","30","03:00"
"-139.84","67.57","OLD CROW A","2100801","2021-04-30 04:00","2021","04","30","04:00"
"-139.84","67.57","OLD CROW A","2100801","2021-04-30 05:00","2021","04","30","05:00","-5.3","","-7.7","","84","","","","36","","1","","56.3","","97.11","","","","-6","","NA"
"-139.84","67.57","OLD CROW A","2100801","2021-04-30 06:00","2021","04","30","06:00","-4.0","","-7.8","","75","","","","25","","4","","56.3","","97.15","","","","-6","","NA"
"-139.84","67.57","OLD CROW A","2100801","2021-04-30 07:00","2021","04","30","07:00","-4.3","","-7.6","","78","","","","27","","3","","56.3","","97.18","","","","-6","","Mainly Clear"
"-139.84","67.57","OLD CROW A","2100801","2021-04-30 08:00","2021","04","30","08:00","-2.2","","-7.2","","69","","","","27","","8","","56.3","","97.21","","","","-5","","NA"
"-139.84","67.57","OLD CROW A","2100801","2021-04-30 09:00","2021","04","30","09:00","-0.5","","-7.3","","60","","","","25","","9","","56.3","","97.23","","","","-4","","NA"
"-139.84","67.57","OLD CROW A","2100801","2021-04-30 10:00","2021","04","30","10:00","1.2","","-7.7","","52","","","","5","","15","","56.3","","97.23","","","","","","Mainly Clear"
"-139.84","67.57","OLD CROW A","2100801","2021-04-30 11:00","2021","04","30","11:00","1.5","","-7.5","","51","","","","6","","14","","56.3","","97.27","","","","","","NA"
"-139.84","67.57","OLD CROW A","2100801","2021-04-30 12:00","2021","04","30","12:00","1.3","","-7.5","","52","","","","2","","22","","56.3","","97.32","","","","","","NA"
"-139.84","67.57","OLD CROW A","2100801","2021-04-30 13:00","2021","04","30","13:00","1.8","","-6.7","","53","","","","4","","23","","56.3","","97.36","","","","","","Mainly Clear"
"-139.84","67.57","OLD CROW A","2100801","2021-04-30 14:00","2021","04","30","14:00","2.4","","-6.7","","51","","","","3","","19","","56.3","","97.40","","","","","","NA"
"-139.84","67.57","OLD CROW A","2100801","2021-04-30 15:00","2021","04","30","15:00"
"-139.84","67.57","OLD CROW A","2100801","2021-04-30 16:00","2021","04","30","16:00"
"-139.84","67.57","OLD CROW A","2100801","2021-04-30 17:00","2021","04","30","17:00"
"-139.84","67.57","OLD CROW A","2100801","2021-04-30 18:00","2021","04","30","18:00"
"-139.84","67.57","OLD CROW A","2100801","2021-04-30 19:00","2021","04","30","19:00"
"-139.84","67.57","OLD CROW A","2100801","2021-04-30 20:00","2021","04","30","20:00"
"-139.84","67.57","OLD CROW A","2100801","2021-04-30 21:00","2021","04","30","21:00"
"-139.84","67.57","OLD CROW A","2100801","2021-04-30 22:00","2021","04","30","22:00"
"-139.84","67.57","OLD CROW A","2100801","2021-04-30 23:00","2021","04","30","23:00"
