"Longitude (x)","Latitude (y)","Station Name","Climate ID","Date/Time (LST)","Year","Month","Day","Time (LST)","Temp (°C)","Temp Flag","Dew Point Temp (°C)","Dew Point Temp Flag","Rel Hum (%)","Rel Hum Flag","Precip. Amount (mm)","Precip. Amount Flag","Wind Dir (10s deg)","Wind Dir Flag","Wind Spd (km/h)","Wind Spd Flag","Visibility (km)","Visibility Flag","Stn Press (kPa)","Stn Press Flag","Hmdx","Hmdx Flag","Wind Chill","Wind Chill Flag","Weather"
"-81.15","43.03","LONDON A","6144473","2023-04-01 00:00","2023","04","01","00:00","9.6","","9.4","","99","","","","17","","17","","1.6","","96.55","","","","","","Thunderstorms,Moderate Rain Showers,Fog"
"-81.15","43.03","LONDON A","6144473","2023-04-01 01:00","2023","04","01","01:00","9.6","","9.4","","99","","","","12","","22","","1.6","","96.28","","","","","","Thunderstorms,Moderate Rain Showers,Fog"
"-81.15","43.03","LONDON A","6144473","2023-04-01 02:00","2023","04","01","02:00","10.6","","10.3","","99","","","","16","","19","","8.1","","96.00","","","","","","Rain Showers,Fog"
"-81.15","43.03","LONDON A","6144473","2023-04-01 03:00","2023","04","01","03:00","11.4","","10.6","","94","","","","24","","16","","24.1","","95.95","","","","","","NA"
"-81.15","43.03","LONDON A","6144473","2023-04-01 04:00","2023","04","01","04:00","11.6","","10.4","","93","","","","20","","18","","24.1","","95.92","","","","","","Cloudy"
"-81.15","43.03","LONDON A","6144473","2023-04-01 05:00","2023","04","01","05:00","11.9","","7.7","","75","","","","23","","36","","24.1","","95.99","","","","","","NA"
"-81.15","43.03","LONDON A","6144473","2023-04-01 06:00","2023","04","01","06:00","10.2","","6.7","","79","","","","24","","27","","24.1","","96.08","","","","","","NA"
"-81.15","43.03","LONDON A","6144473","2023-04-01 07:00","2023","04","01","07:00","10.2","","5.3","","72","","","","24","","23","","24.1","","96.10","","","","","","Clear"
"-81.15","43.03","LONDON A","6144473","2023-04-01 08:00","2023","04","01","08:00","10.8","","4.8","","66","","","","23","","28","","24.1","","96.13","","","","","","NA"
"-81.15","43.03","LONDON A","6144473","2023-04-01 09:00","2023","04","01","09:00","10.9","","2.9","","57","","","","25","","22","","24.1","","96.12","","","","","","NA"
"-81.15","43.03","LONDON A","6144473","2023-04-01 10:00","2023","04","01","10:00","11.6","","4.3","","60","","","","23","","23","","24.1","","96.09","","","","","","Mostly Cloudy"
"-81.15","43.03","LONDON A","6144473","2023-04-01 11:00","2023","04","01","11:00","12.2","","3.8","","56","","","","26","","12","","24.1","","95.98","","","","","","NA"
"-81.15","43.03","LONDON A","6144473","2023-04-01 12:00","2023","04","01","12:00","10.1","","4.0","","66","","","","34","","17","","24.1","","95.93","","","","","","Thunderstorms,Rain Showers"
"-81.15","43.03","LONDON A","6144473","2023-04-01 13:00","2023","04","01","13:00","4.9","","3.5","","90","","","","31","","19","","6.4","","96.16","","","","","","Rain Showers,Fog"
"-81.15","43.03","LONDON A","6144473","2023-04-01 14:00","2023","04","01","14:00","3.5","","2.4","","93","","","","30","","19","","19.3","","96.23","","","","","","Rain Showers"
"-81.15","43.03","LONDON A","6144473","2023-04-01 15:00","2023","04","01","15:00","4.3","","2.9","","91","","","","29","","18","","24.1","","96.46","","","","","","NA"
"-81.15","43.03","LONDON A","6144473","2023-04-01 16:00","2023","04","01","16:00","2.5","","1.2","","91","","","","29","","25","","24.1","","96.71","","","","","","Rain Showers"
"-81.15","43.03","LONDON A","6144473","2023-04-01 17:00","2023","04","01","17:00","1.4","","0.0","","90","","","","30","","23","","24.1","","96.93","","","","","","NA"
"-81.15","43.03","LONDON A","6144473","2023-04-01 18:00","2023","04","01","18:00","0.8","","-1.2","","86","","","","30","","23","","24.1","","97.15","","","","","","Snow"
"-81.15","43.03","LONDON A","6144473","2023-04-01 19:00","2023","04","01","19:00","0.1","","-2.7","","81","","","","32","","30","","24.1","","97.35","","","","","","Cloudy"
"-81.15","43.03","LONDON A","6144473","2023-04-01 20:00","2023","04","01","20:00","0.1","","-3.0","","80","","","","33","","23","","24.1","","97.57","","","","","","NA"
"-81.15","43.03","LONDON A","6144473","2023-04-01 21:00","2023","04","01","21:00","0.1","","-3.2","","79","","","","34","","29","","24.1","","97.70","","","","","","NA"
"-81.15","43.03","LONDON A","6144473","2023-04-01 22:00","2023","04","01","22:00","-0.3","","-5.3","","69","","","","34","","22","","24.1","","97.92","","","","-6","","Mostly Cloudy"
"-81.15","43.03","LONDON A","6144473","2023-04-01 23:00","2023","04","01","23:00","-0.4","","-6.0","","66","","","","33","","29","","24.1","","98.04","","","","-7","","NA"
"-81.15","43.03","LONDON A","6144473","2023-04-02 00:00","2023","04","02","00:00","-1.3","","-7.7","","62","","","","34","","16","","24.1","","98.19","","","","-6","","NA"
"-81.15","43.03","LONDON A","6144473","2023-04-02 01:00","2023","04","02","01:00","-1.4","","-7.7","","62","","","","34","","19","","24.1","","98.32","","","","-7","","Clear"
"-81.15","43.03","LONDON A","6144473","2023-04-02 02:00","2023","04","02","02:00","-1.9","","-7.9","","64","","","","34","","17","","24.1","","98.38","","","","-7","","NA"
"-81.15","43.03","LONDON A","6144473","2023-04-02 03:00","2023","04","02","03:00","-2.4","","-9.0","","61","","","","36","","13","","24.1","","98.42","","","","-7","","NA"
"-81.15","43.03","LONDON A","6144473","2023-04-02 04:00","2023","04","02","04:00","-2.7","","-10.8","","54","","","","36","","14","","24.1","","98.47","","","","-8","","Clear"
"-81.15","43.03","LONDON A","6144473","2023-04-02 05:00","2023","04","02","05:00","-3.4","","-10.2","","60","","","","36","","10","","24.1","","98.58","","","","-7","","NA"
"-81.15","43.03","LONDON A","6144473","2023-04-02 06:00","2023","04","02","06:00","-3.5","","-11.3","","55","","","","3","","12","","24.1","","98.63","","","","-8","","NA"
"-81.15","43.03","LONDON A","6144473","2023-04-02 07:00","2023","04","02","07:00","-2.9","","-10.3","","57","","","","4","","5","","24.1","","98.73","","","","-5","","Clear"
"-81.15","43.03","LONDON A","6144473","2023-04-02 08:00","2023","04","02","08:00","-2.3","","-11.6","","49","","","","7","","13","","24.1","","98.78","","","","-7","","NA"
"-81.15","43.03","LONDON A","6144473","2023-04-02 09:00","2023","04","02","09:00","-1.2","","-10.8","","49","","","","10","","15","","24.1","","98.86","","","","-6","","NA"
"-81.15","43.03","LONDON A","6144473","2023-04-02 10:00","2023","04","02","10:00","-0.5","","-10.1","","48","","","","11","","18","","24.1","","98.82","","","","-6","","Clear"
"-81.15","43.03","LONDON A","6144473","2023-04-02 11:00","2023","04","02","11:00","0.4","","-10.1","","46","","","","14","","20","","24.1","","98.83","","","","","","NA"
"-81.15","43.03","LONDON A","6144473","2023-04-02 12:00","2023","04","02","12:00","1.4","","-8.0","","50","","","","18","","15","","24.1","","98.73","","","","","","NA"
"-81.15","43.03","LONDON A","6144473","2023-04-02 13:00","2023","04","02","13:00","2.4","","-9.6","","41","","","","19","","14","","24.1","","98.67","","","","","","Mainly Clear"
"-81.15","43.03","LONDON A","6144473","2023-04-02 14:00","2023","04","02","14:00","2.8","","-8.6","","43","","","","16","","9","","24.1","","98.56","","","","","","NA"
"-81.15","43.03","LONDON A","6144473","2023-04-02 15:00","2023","04","02","15:00","3.3","","-6.2","","50","","","","18","","17","","24.1","","98.52","","","","","","NA"
"-81.15","43.03","LONDON A","6144473","2023-04-02 16:00","2023","04","02","16:00","2.9","","-7.2","","47","","","","18","","19","","24.1","","98.46","","","","","","Mainly Clear"
"-81.15","43.03","LONDON A","6144473","2023-04-02 17:00","2023","04","02","17:00","2.2","","-7.3","","49","","","","17","","22","","24.1","","98.43","","","","","","NA"
"-81.15","43.03","LONDON A","6144473","2023-04-02 18:00","2023","04","02","18:00","0.6","","-10.0","","45","","","","18","","21","","24.1","","98.43","","","","","","NA"
"-81.15","43.03","LONDON A","6144473","2023-04-02 19:00","2023","04","02","19:00","-0.4","","-11.1","","44","","","","18","","19","","24.1","","98.40","","","","-6","","Cloudy"
"-81.15","43.03","LONDON A","6144473","2023-04-02 20:00","2023","04","02","20:00","-0.4","","-11.0","","45","","","","13","","24","","24.1","","98.26","","","","-6","","NA"
"-81.15","43.03","LONDON A","6144473","2023-04-02 21:00","2023","04","02","21:00","0.0","","-11.4","","42","","","","13","","17","","24.1","","98.27","","","","-5","","NA"
"-81.15","43.03","LONDON A","6144473","2023-04-02 22:00","2023","04","02","22:00","-0.4","","-10.3","","47","","","","13","","14","","24.1","","98.16","","","","-5","","Mostly Cloudy"
"-81.15","43.03","LONDON A","6144473","2023-04-02 23:00","2023","04","02","23:00","-0.5","","-8.5","","55","","","","12","","16","","24.1","","98.02","","","","-5","","NA"
"-81.15","43.03","LONDON A","6144473","2023-04-03 00:00","2023","04","03","00:00","-0.3","","-8.8","","53","","","","15","","14","","24.1","","98.00","","","","-5","","NA"
"-81.15","43.03","LONDON A","6144473","2023-04-03 01:00","2023","04","03","01:00","0.3","","-7.1","","58","","","","15","","11","","24.1","","97.96","","","","","","Mostly Cloudy"
"-81.15","43.03","LONDON A","6144473","2023-04-03 02:00","2023","04","03","02:00","0.0","","-5.0","","69","","","","14","","13","","24.1","","97.78","","","","-4","","NA"
"-81.15","43.03","LONDON A","6144473","2023-04-03 03:00","2023","04","03","03:00","-0.1","","-3.7","","77","","","","15","","10","","24.1","","97.79","","","","-3","","NA"
"-81.15","43.03","LONDON A","6144473","2023-04-03 04:00","2023","04","03","04:00","1.3","","-1.4","","82","","","","18","","14","","24.1","","97.74","","","","","","Mainly Clear"
"-81.15","43.03","LONDON A","6144473","2023-04-03 05:00","2023","04","03","05:00","2.2","","-0.8","","80","","","","18","","16","","24.1","","97.71","","","","","","NA"
"-81.15","43.03","LONDON A","6144473","2023-04-03 06:00","2023","04","03","06:00","2.9","","-0.3","","80","","","","18","","17","","24.1","","97.66","","","","","","NA"
"-81.15","43.03","LONDON A","6144473","2023-04-03 07:00","2023","04","03","07:00","3.9","","0.5","","78","","","","20","","20","","24.1","","97.65","","","","","","Cloudy"
"-81.15","43.03","LONDON A","6144473","2023-04-03 08:00","2023","04","03","08:00","4.9","","1.0","","76","","","","22","","15","","24.1","","97.74","","","","","","NA"
"-81.15","43.03","LONDON A","6144473","2023-04-03 09:00","2023","04","03","09:00","6.0","","1.8","","75","","","","21","","19","","24.1","","97.71","","","","","","NA"
"-81.15","43.03","LONDON A","6144473","2023-04-03 10:00","2023","04","03","10:00","9.6","","3.5","","66","","","","23","","20","","24.1","","97.66","","","","","","Cloudy"
"-81.15","43.03","LONDON A","6144473","2023-04-03 11:00","2023","04","03","11:00","11.5","","2.6","","54","","","","26","","19","","24.1","","97.68","","","","","","NA"
"-81.15","43.03","LONDON A","6144473","2023-04-03 12:00","2023","04","03","12:00","11.9","","1.2","","48","","","","27","","17","","24.1","","97.73","","","","","","NA"
"-81.15","43.03","LONDON A","6144473","2023-04-03 13:00","2023","04","03","13:00","11.9","","0.3","","45","","","","31","","12","","24.1","","97.73","","","","","","Cloudy"
"-81.15","43.03","LONDON A","6144473","2023-04-03 14:00","2023","04","03","14:00","12.3","","-0.9","","40","","","","27","","17","","24.1","","97.82","","","","","","NA"
"-81.15","43.03","LONDON A","6144473","2023-04-03 15:00","2023","04","03","15:00","12.2","","0.5","","45","","","","25","","13","","24.1","","97.85","","","","","","NA"
"-81.15","43.03","LONDON A","6144473","2023-04-03 16:00","2023","04","03","16:00","11.4","","-0.7","","43","","","","29","","9","","24.1","","97.90","","","","","","Mostly Cloudy"
"-81.15","43.03","LONDON A","6144473","2023-04-03 17:00","2023","04","03","17:00","11.3","","1.6","","51","","","","25","","5","","24.1","","97.87","","","","","","Rain Showers"
"-81.15","43.03","LONDON A","6144473","2023-04-03 18:00","2023","04","03","18:00","11.4","","3.8","","59","","","","21","","9","","24.1","","97.87","","","","","","NA"
"-81.15","43.03","LONDON A","6144473","2023-04-03 19:00","2023","04","03","19:00","10.5","","5.9","","73","","","","23","","16","","24.1","","97.89","","","","","","Cloudy"
"-81.15","43.03","LONDON A","6144473","2023-04-03 20:00","2023","04","03","20:00","9.7","","5.9","","77","","","","20","","9","","24.1","","97.84","","","","","","NA"
"-81.15","43.03","LONDON A","6144473","2023-04-03 21:00","2023","04","03","21:00","9.0","","6.2","","83","","","","19","","9","","24.1","","97.91","","","","","","Rain Showers"
"-81.15","43.03","LONDON A","6144473","2023-04-03 22:00","2023","04","03","22:00","8.3","","6.9","","91","","","","18","","7","","24.1","","97.93","","","","","","Rain Showers"
"-81.15","43.03","LONDON A","6144473","2023-04-03 23:00","2023","04","03","23:00","7.8","","7.2","","96","","","","23","","5","","24.1","","97.97","","","","","","Rain"
"-81.15","43.03","LONDON A","6144473","2023-04-04 00:00","2023","04","04","00:00","7.6","","7.2","","97","","","","33","","9","","9.7","","98.00","","","","","","Moderate Rain"
"-81.15","43.03","LONDON A","6144473","2023-04-04 01:00","2023","04","04","01:00","7.2","","6.9","","98","","","","31","","5","","8.1","","97.99","","","","","","Heavy Rain"
"-81.15","43.03","LONDON A","6144473","2023-04-04 02:00","2023","04","04","02:00","6.6","","6.0","","96","","","","28","","4","","12.9","","98.01","","","","","","Moderate Rain"
"-81.15","43.03","LONDON A","6144473","2023-04-04 03:00","2023","04","04","03:00","6.3","","6.1","","98","","","","36","","2","","9.7","","97.99","","","","","","Moderate Rain"
"-81.15","43.03","LONDON A","6144473","2023-04-04 04:00","2023","04","04","04:00","6.2","","6.1","","99","","","","34","","9","","9.7","","98.02","","","","","","Rain"
"-81.15","43.03","LONDON A","6144473","2023-04-04 05:00","2023","04","04","05:00","6.3","","6.2","","99","","","","35","","8","","8.1","","98.11","","","","","","Rain,Fog"
"-81.15","43.03","LONDON A","6144473","2023-04-04 06:00","2023","04","04","06:00","6.2","","6.0","","99","","","","3","","6","","8.1","","98.14","","","","","","Rain,Fog"
"-81.15","43.03","LONDON A","6144473","2023-04-04 07:00","2023","04","04","07:00","6.3","","6.0","","98","","","","2","","9","","8.1","","98.17","","","","","","Rain,Fog"
"-81.15","43.03","LONDON A","6144473","2023-04-04 08:00","2023","04","04","08:00","6.8","","6.3","","97","","","","2","","5","","24.1","","98.21","","","","","","Rain"
"-81.15","43.03","LONDON A","6144473","2023-04-04 09:00","2023","04","04","09:00","8.0","","7.0","","94","","","","9","","14","","24.1","","98.17","","","","","","NA"
"-81.15","43.03","LONDON A","6144473","2023-04-04 10:00","2023","04","04","10:00","9.9","","8.4","","90","","","","9","","11","","24.1","","98.17","","","","","","Mostly Cloudy"
"-81.15","43.03","LONDON A","6144473","2023-04-04 11:00","2023","04","04","11:00","10.3","","8.6","","89","","","","7","","6","","24.1","","98.26","","","","","","NA"
"-81.15","43.03","LONDON A","6144473","2023-04-04 12:00","2023","04","04","12:00","11.0","","9.0","","87","","","","4","","10","","24.1","","98.28","","","","","","NA"
"-81.15","43.03","LONDON A","6144473","2023-04-04 13:00","2023","04","04","13:00","11.5","","9.0","","84","","","","6","","16","","24.1","","98.30","","","","","","Cloudy"
"-81.15","43.03","LONDON A","6144473","2023-04-04 14:00","2023","04","04","14:00","12.1","","9.4","","84","","","","5","","19","","24.1","","98.32","","","","","","NA"
"-81.15","43.03","LONDON A","6144473","2023-04-04 15:00","2023","04","04","15:00","10.6","","8.8","","89","","","","7","","25","","16.1","","98.33","","","","","","NA"
"-81.15","43.03","LONDON A","6144473","2023-04-04 16:00","2023","04","04","16:00","11.0","","8.5","","84","","","","7","","25","","24.1","","98.28","","","","","","Cloudy"
"-81.15","43.03","LONDON A","6144473","2023-04-04 17:00","2023","04","04","17:00","11.2","","8.2","","82","","","","7","","23","","24.1","","98.37","","","","","","NA"
"-81.15","43.03","LONDON A","6144473","2023-04-04 18:00","2023","04","04","18:00","9.3","","6.7","","84","","","","9","","27","","24.1","","98.42","","","","","","NA"
"-81.15","43.03","LONDON A","6144473","2023-04-04 19:00","2023","04","04","19:00","7.9","","5.5","","84","","","","9","","31","","24.1","","98.45","","","","","","Cloudy"
"-81.15","43.03","LONDON A","6144473","2023-04-04 20:00","2023","04","04","20:00","7.5","","4.2","","79","","","","7","","33","","24.1","","98.45","","","","","","NA"
"-81.15","43.03","LONDON A","6144473","2023-04-04 21:00","2023","04","04","21:00","7.0","","3.8","","80","","","","9","","41","","24.1","","98.28","","","","","","NA"
"-81.15","43.03","LONDON A","6144473","2023-04-04 22:00","2023","04","04","22:00","6.8","","3.6","","80","","","","9","","35","","24.1","","98.29","","","","","","Mostly Cloudy"
"-81.15","43.03","LONDON A","6144473","2023-04-04 23:00","2023","04","04","23:00","6.8","","3.3","","78","","","","9","","35","","24.1","","98.22","","","","","","NA"
"-81.15","43.03","LONDON A","6144473","2023-04-05 00:00","2023","04","05","00:00","6.9","","3.5","","79","","","","9","","37","","24.1","","98.17","","","","","","NA"
"-81.15","43.03","LONDON A","6144473","2023-04-05 01:00","2023","04","05","01:00","6.6","","3.3","","79","","","","9","","35","","24.1","","98.06","","","","","","Cloudy"
"-81.15","43.03","LONDON A","6144473","2023-04-05 02:00","2023","04","05","02:00","5.8","","2.7","","81","","","","9","","30","","24.1","","98.03","","","","","","NA"
"-81.15","43.03","LONDON A","6144473","2023-04-05 03:00","2023","04","05","03:00","5.7","","2.8","","82","","","","10","","26","","24.1","","97.88","","","","","","NA"
"-81.15","43.03","LONDON A","6144473","2023-04-05 04:00","2023","04","05","04:00","5.5","","3.0","","84","","","","9","","29","","24.1","","97.84","","","","","","Thunderstorms,Rain Showers"
"-81.15","43.03","LONDON A","6144473","2023-04-05 05:00","2023","04","05","05:00","5.0","","3.3","","89","","","","9","","29","","24.1","","97.78","","","","","","Rain Showers"
"-81.15","43.03","LONDON A","6144473","2023-04-05 06:00","2023","04","05","06:00","4.8","","3.4","","90","","","","10","","24","","24.1","","97.71","","","","","","NA"
"-81.15","43.03","LONDON A","6144473","2023-04-05 07:00","2023","04","05","07:00","5.6","","3.9","","89","","","","11","","22","","24.1","","97.72","","","","","","Cloudy"
"-81.15","43.03","LONDON A","6144473","2023-04-05 08:00","2023","04","05","08:00","6.6","","4.9","","89","","","","11","","21","","24.1","","97.67","","","","","","NA"
"-81.15","43.03","LONDON A","6144473","2023-04-05 09:00","2023","04","05","09:00","8.6","","6.8","","88","","","","12","","21","","24.1","","97.54","","","","","","NA"
"-81.15","43.03","LONDON A","6144473","2023-04-05 10:00","2023","04","05","10:00","11.4","","9.3","","86","","","","13","","19","","24.1","","97.53","","","","","","Cloudy"
"-81.15","43.03","LONDON A","6144473","2023-04-05 11:00","2023","04","05","11:00","12.0","","11.0","","93","","","","16","","18","","12.9","","97.58","","","","","","Thunderstorms,Rain Showers"
"-81.15","43.03","LONDON A","6144473","2023-04-05 12:00","2023","04","05","12:00","16.2","","14.5","","90","","","","18","","20","","24.1","","97.50","","","","","","NA"
"-81.15","43.03","LONDON A","6144473","2023-04-05 13:00","2023","04","05","13:00","17.3","","14.8","","85","","","","19","","24","","24.1","","97.45","","","","","","Cloudy"
"-81.15","43.03","LONDON A","6144473","2023-04-05 14:00","2023","04","05","14:00","15.6","","14.8","","95","","","","31","","21","","4.0","","97.74","","","","","","Moderate Rain Showers"
"-81.15","43.03","LONDON A","6144473","2023-04-05 15:00","2023","04","05","15:00","16.2","","14.9","","92","","","","14","","13","","24.1","","97.64","","","","","","NA"
"-81.15","43.03","LONDON A","6144473","2023-04-05 16:00","2023","04","05","16:00","15.0","","14.5","","97","","","","16","","20","","6.4","","97.73","","","","","","Moderate Rain Showers"
"-81.15","43.03","LONDON A","6144473","2023-04-05 17:00","2023","04","05","17:00","14.7","","14.2","","97","","","","13","","21","","19.3","","97.58","","","","","","Rain Showers"
"-81.15","43.03","LONDON A","6144473","2023-04-05 18:00","2023","04","05","18:00","15.2","","14.4","","95","","","","18","","22","","24.1","","97.74","","","","","","NA"
"-81.15","43.03","LONDON A","6144473","2023-04-05 19:00","2023","04","05","19:00","16.1","","15.1","","94","","","","17","","43","","24.1","","97.60","","","","","","Cloudy"
"-81.15","43.03","LONDON A","6144473","2023-04-05 20:00","2023","04","05","20:00","15.0","","13.2","","89","","","","20","","27","","24.1","","97.75","","","","","","NA"
"-81.15","43.03","LONDON A","6144473","2023-04-05 21:00","2023","04","05","21:00","14.4","","12.3","","87","","","","22","","30","","24.1","","97.89","","","","","","NA"
"-81.15","43.03","LONDON A","6144473","2023-04-05 22:00","2023","04","05","22:00","14.7","","13.0","","89","","","","21","","23","","24.1","","97.90","","","","","","Cloudy"
"-81.15","43.03","LONDON A","6144473","2023-04-05 23:00","2023","04","05","23:00","15.1","","13.4","","89","","","","23","","23","","24.1","","97.97","","","","","","NA"
"-81.15","43.03","LONDON A","6144473","2023-04-06 00:00","2023","04","06","00:00","14.7","","13.1","","90","","","","25","","24","","24.1","","98.05","","","","","","NA"
"-81.15","43.03","LONDON A","6144473","2023-04-06 01:00","2023","04","06","01:00","11.6","","3.8","","58","","","","29","","22","","24.1","","98.18","","","","","","Mostly Cloudy"
"-81.15","43.03","LONDON A","6144473","2023-04-06 02:00","2023","04","06","02:00","8.2","","2.9","","69","","","","29","","22","","24.1","","98.27","","","","","","NA"
"-81.15","43.03","LONDON A","6144473","2023-04-06 03:00","2023","04","06","03:00","6.8","","2.2","","72","","","","28","","14","","24.1","","98.37","","","","","","NA"
"-81.15","43.03","LONDON A","6144473","2023-04-06 04:00","2023","04","06","04:00","6.2","","1.7","","73","","","","28","","17","","24.1","","98.45","","","","","","Mostly Cloudy"
"-81.15","43.03","LONDON A","6144473","2023-04-06 05:00","2023","04","06","05:00","5.6","","1.6","","75","","","","27","","17","","24.1","","98.56","","","","","","NA"
"-81.15","43.03","LONDON A","6144473","2023-04-06 06:00","2023","04","06","06:00","4.8","","1.0","","76","","","","26","","13","","24.1","","98.69","","","","","","NA"
"-81.15","43.03","LONDON A","6144473","2023-04-06 07:00","2023","04","06","07:00","4.8","","0.5","","73","","","","26","","16","","24.1","","98.78","","","","","","Mostly Cloudy"
"-81.15","43.03","LONDON A","6144473","2023-04-06 08:00","2023","04","06","08:00","5.3","","0.1","","69","","","","26","","14","","24.1","","98.88","","","","","","NA"
"-81.15","43.03","LONDON A","6144473","2023-04-06 09:00","2023","04","06","09:00","5.5","","-0.2","","67","","","","25","","24","","24.1","","98.89","","","","","","NA"
"-81.15","43.03","LONDON A","6144473","2023-04-06 10:00","2023","04","06","10:00","5.3","","-0.1","","68","","","","24","","23","","24.1","","98.93","","","","","","Mostly Cloudy"
"-81.15","43.03","LONDON A","6144473","2023-04-06 11:00","2023","04","06","11:00","7.0","","0.9","","65","","","","24","","21","","24.1","","99.00","","","","","","NA"
"-81.15","43.03","LONDON A","6144473","2023-04-06 12:00","2023","04","06","12:00","7.8","","0.4","","59","","","","25","","29","","24.1","","99.00","","","","","","NA"
"-81.15","43.03","LONDON A","6144473","2023-04-06 13:00","2023","04","06","13:00","8.8","","-0.8","","51","","","","26","","27","","24.1","","98.99","","","","","","Mostly Cloudy"
"-81.15","43.03","LONDON A","6144473","2023-04-06 14:00","2023","04","06","14:00","8.9","","0.2","","54","","","","27","","24","","24.1","","99.04","","","","","","NA"
"-81.15","43.03","LONDON A","6144473","2023-04-06 15:00","2023","04","06","15:00","9.1","","-0.9","","50","","","","27","","27","","24.1","","99.01","","","","","","NA"
"-81.15","43.03","LONDON A","6144473","2023-04-06 16:00","2023","04","06","16:00","9.1","","-1.6","","47","","","","25","","28","","24.1","","99.06","","","","","","Mostly Cloudy"
"-81.15","43.03","LONDON A","6144473","2023-04-06 17:00","2023","04","06","17:00","9.1","","-2.2","","45","","","","25","","26","","24.1","","99.06","","","","","","NA"
"-81.15","43.03","LONDON A","6144473","2023-04-06 18:00","2023","04","06","18:00","8.6","","-3.4","","43","","","","26","","24","","24.1","","99.13","","","","","","NA"
"-81.15","43.03","LONDON A","6144473","2023-04-06 19:00","2023","04","06","19:00","7.7","","-2.6","","48","","","","25","","16","","24.1","","99.18","","","","","","Mostly Cloudy"
"-81.15","43.03","LONDON A","6144473","2023-04-06 20:00","2023","04","06","20:00","7.1","","-3.6","","46","","","","26","","19","","24.1","","99.23","","","","","","NA"
"-81.15","43.03","LONDON A","6144473","2023-04-06 21:00","2023","04","06","21:00","5.7","","-4.6","","48","","","","26","","19","","24.1","","99.31","","","","","","NA"
"-81.15","43.03","LONDON A","6144473","2023-04-06 22:00","2023","04","06","22:00","5.2","","-5.1","","47","","","","26","","17","","24.1","","99.33","","","","","","Mainly Clear"
"-81.15","43.03","LONDON A","6144473","2023-04-06 23:00","2023","04","06","23:00","4.8","","-5.3","","48","","","","27","","16","","24.1","","99.36","","","","","","NA"
"-81.15","43.03","LONDON A","6144473","2023-04-07 00:00","2023","04","07","00:00","4.2","","-5.5","","50","","","","27","","21","","24.1","","99.43","","","","","","NA"
"-81.15","43.03","LONDON A","6144473","2023-04-07 01:00","2023","04","07","01:00","3.4","","-5.1","","54","","","","26","","17","","24.1","","99.48","","","","","","Mainly Clear"
"-81.15","43.03","LONDON A","6144473","2023-04-07 02:00","2023","04","07","02:00","3.2","","-5.3","","54","","","","27","","20","","24.1","","99.48","","","","","","NA"
"-81.15","43.03","LONDON A","6144473","2023-04-07 03:00","2023","04","07","03:00","2.6","","-4.6","","59","","","","29","","17","","24.1","","99.56","","","","","","NA"
"-81.15","43.03","LONDON A","6144473","2023-04-07 04:00","2023","04","07","04:00","-0.1","","-2.8","","82","","","","34","","19","","24.1","","99.71","","","","-5","","Clear"
"-81.15","43.03","LONDON A","6144473","2023-04-07 05:00","2023","04","07","05:00","-1.0","","-3.5","","83","","","","33","","13","","24.1","","99.77","","","","-5","","NA"
"-81.15","43.03","LONDON A","6144473","2023-04-07 06:00","2023","04","07","06:00","-1.2","","-3.9","","82","","","","30","","12","","24.1","","99.83","","","","-5","","NA"
"-81.15","43.03","LONDON A","6144473","2023-04-07 07:00","2023","04","07","07:00","-0.5","","-5.6","","68","","","","31","","20","","24.1","","99.90","","","","-6","","Mainly Clear"
"-81.15","43.03","LONDON A","6144473","2023-04-07 08:00","2023","04","07","08:00","0.0","","-6.9","","60","","","","32","","23","","24.1","","99.99","","","","-6","","NA"
"-81.15","43.03","LONDON A","6144473","2023-04-07 09:00","2023","04","07","09:00","0.7","","-6.1","","61","","","","33","","20","","24.1","","100.06","","","","","","NA"
"-81.15","43.03","LONDON A","6144473","2023-04-07 10:00","2023","04","07","10:00","1.1","","-6.0","","59","","","","33","","22","","24.1","","100.09","","","","","","Mainly Clear"
"-81.15","43.03","LONDON A","6144473","2023-04-07 11:00","2023","04","07","11:00","2.2","","-4.6","","61","","","","33","","17","","24.1","","100.06","","","","","","NA"
"-81.15","43.03","LONDON A","6144473","2023-04-07 12:00","2023","04","07","12:00","2.5","","-4.2","","62","","","","33","","22","","24.1","","100.07","","","","","","NA"
"-81.15","43.03","LONDON A","6144473","2023-04-07 13:00","2023","04","07","13:00","3.0","","-5.6","","53","","","","30","","22","","24.1","","100.06","","","","","","Mostly Cloudy"
"-81.15","43.03","LONDON A","6144473","2023-04-07 14:00","2023","04","07","14:00","3.2","","-3.3","","62","","","","34","","23","","24.1","","100.03","","","","","","NA"
"-81.15","43.03","LONDON A","6144473","2023-04-07 15:00","2023","04","07","15:00","3.8","","-2.1","","66","","","","33","","18","","24.1","","99.96","","","","","","NA"
"-81.15","43.03","LONDON A","6144473","2023-04-07 16:00","2023","04","07","16:00","3.2","","-4.1","","59","","","","33","","17","","24.1","","99.92","","","","","","Mainly Clear"
"-81.15","43.03","LONDON A","6144473","2023-04-07 17:00","2023","04","07","17:00","2.4","","-5.2","","57","","","","31","","20","","24.1","","99.94","","","","","","NA"
"-81.15","43.03","LONDON A","6144473","2023-04-07 18:00","2023","04","07","18:00","1.5","","-5.5","","60","","","","32","","19","","24.1","","99.95","","","","","","NA"
"-81.15","43.03","LONDON A","6144473","2023-04-07 19:00","2023","04","07","19:00","0.4","","-5.8","","63","","","","34","","12","","24.1","","99.97","","","","","","Mainly Clear"
"-81.15","43.03","LONDON A","6144473","2023-04-07 20:00","2023","04","07","20:00","-0.2","","-6.2","","64","","","","31","","5","","24.1","","99.98","","","","-2","","NA"
"-81.15","43.03","LONDON A","6144473","2023-04-07 21:00","2023","04","07","21:00","-0.9","","-5.7","","70","","","","36","","1","","24.1","","99.99","","","","-1","","NA"
"-81.15","43.03","LONDON A","6144473","2023-04-07 22:00","2023","04","07","22:00","-1.1","","-5.7","","71","","","","31","","5","","24.1","","100.00","","","","-3","","Mainly Clear"
"-81.15","43.03","LONDON A","6144473","2023-04-07 23:00","2023","04","07","23:00","-1.9","","-5.9","","74","","","","35","","5","","24.1","","100.00","","","","-4","","NA"
"-81.15","43.03","LONDON A","6144473","2023-04-08 00:00","2023","04","08","00:00","-2.0","","-5.5","","77","","","","34","","5","","24.1","","100.02","","","","-4","","NA"
"-81.15","43.03","LONDON A","6144473","2023-04-08 01:00","2023","04","08","01:00","-2.4","","-6.6","","73","","","","36","","9","","24.1","","100.02","","","","-6","","Clear"
"-81.15","43.03","LONDON A","6144473","2023-04-08 02:00","2023","04","08","02:00","-3.2","","-6.7","","77","","","","36","","7","","24.1","","100.02","","","","-6","","NA"
"-81.15","43.03","LONDON A","6144473","2023-04-08 03:00","2023","04","08","03:00","-3.4","","-6.9","","76","","","","3","","14","","24.1","","100.02","","","","-8","","NA"
"-81.15","43.03","LONDON A","6144473","2023-04-08 04:00","2023","04","08","04:00","-3.8","","-7.0","","79","","","","6","","9","","24.1","","100.03","","","","-8","","Clear"
"-81.15","43.03","LONDON A","6144473","2023-04-08 05:00","2023","04","08","05:00","-4.3","","-6.8","","83","","","","6","","11","","24.1","","100.02","","","","-9","","NA"
"-81.15","43.03","LONDON A","6144473","2023-04-08 06:00","2023","04","08","06:00","-4.2","","-6.8","","83","","","","7","","5","","24.1","","100.09","","","","-6","","NA"
"-81.15","43.03","LONDON A","6144473","2023-04-08 07:00","2023","04","08","07:00","-3.0","","-5.7","","82","","","","8","","9","","24.1","","100.14","","","","-7","","Mainly Clear"
"-81.15","43.03","LONDON A","6144473","2023-04-08 08:00","2023","04","08","08:00","-1.1","","-6.8","","65","","","","11","","22","","24.1","","100.11","","","","-7","","NA"
"-81.15","43.03","LONDON A","6144473","2023-04-08 09:00","2023","04","08","09:00","0.2","","-6.8","","59","","","","13","","15","","24.1","","100.08","","","","","","NA"
"-81.15","43.03","LONDON A","6144473","2023-04-08 10:00","2023","04","08","10:00","1.9","","-6.7","","53","","","","13","","17","","24.1","","100.05","","","","","","Clear"
"-81.15","43.03","LONDON A","6144473","2023-04-08 11:00","2023","04","08","11:00","3.9","","-5.3","","51","","","","10","","16","","24.1","","100.02","","","","","","NA"
"-81.15","43.03","LONDON A","6144473","2023-04-08 12:00","2023","04","08","12:00","5.2","","-5.4","","46","","","","9","","15","","24.1","","99.95","","","","","","NA"
"-81.15","43.03","LONDON A","6144473","2023-04-08 13:00","2023","04","08","13:00","6.4","","-5.9","","41","","","","17","","4","","24.1","","99.90","","","","","","Mostly Cloudy"
"-81.15","43.03","LONDON A","6144473","2023-04-08 14:00","2023","04","08","14:00","7.6","","-4.5","","42","","","","29","","10","","24.1","","99.84","","","","","","NA"
"-81.15","43.03","LONDON A","6144473","2023-04-08 15:00","2023","04","08","15:00","8.1","","-4.2","","41","","","","29","","12","","24.1","","99.78","","","","","","NA"
"-81.15","43.03","LONDON A","6144473","2023-04-08 16:00","2023","04","08","16:00","8.1","","-4.4","","41","","","","31","","7","","24.1","","99.72","","","","","","Mostly Cloudy"
"-81.15","43.03","LONDON A","6144473","2023-04-08 17:00","2023","04","08","17:00","8.1","","-3.5","","44","","","","3","","9","","24.1","","99.69","","","","","","NA"
"-81.15","43.03","LONDON A","6144473","2023-04-08 18:00","2023","04","08","18:00","7.5","","-2.8","","48","","","","3","","7","","24.1","","99.69","","","","","","NA"
"-81.15","43.03","LONDON A","6144473","2023-04-08 19:00","2023","04","08","19:00","6.9","","-2.2","","52","","","","36","","7","","24.1","","99.68","","","","","","Mostly Cloudy"
"-81.15","43.03","LONDON A","6144473","2023-04-08 20:00","2023","04","08","20:00","6.3","","-1.0","","59","","","","28","","3","","24.1","","99.70","","","","","","NA"
"-81.15","43.03","LONDON A","6144473","2023-04-08 21:00","2023","04","08","21:00","5.7","","0.4","","68","","","","36","","3","","24.1","","99.75","","","","","","NA"
"-81.15","43.03","LONDON A","6144473","2023-04-08 22:00","2023","04","08","22:00","5.7","","-1.3","","61","","","","36","","1","","24.1","","99.77","","","","","","Mostly Cloudy"
"-81.15","43.03","LONDON A","6144473","2023-04-08 23:00","2023","04","08","23:00","4.0","","-0.2","","74","","","","36","","3","","24.1","","99.77","","","","","","NA"
"-81.15","43.03","LONDON A","6144473","2023-04-09 00:00","2023","04","09","00:00","3.0","","-0.7","","77","","","","3","","7","","24.1","","99.77","","","","","","NA"
"-81.15","43.03","LONDON A","6144473","2023-04-09 01:00","2023","04","09","01:00","1.1","","-1.2","","85","","","","4","","8","","24.1","","99.79","","","","","","Mainly Clear"
"-81.15","43.03","LONDON A","6144473","2023-04-09 02:00","2023","04","09","02:00","2.2","","-1.6","","76","","","","5","","8","","24.1","","99.79","","","","","","NA"
"-81.15","43.03","LONDON A","6144473","2023-04-09 03:00","2023","04","09","03:00","1.8","","-1.9","","76","","","","4","","9","","24.1","","99.82","","","","","","NA"
"-81.15","43.03","LONDON A","6144473","2023-04-09 04:00","2023","04","09","04:00","-0.1","","-1.6","","90","","","","5","","5","","24.1","","99.85","","","","-2","","Clear"
"-81.15","43.03","LONDON A","6144473","2023-04-09 05:00","2023","04","09","05:00","0.3","","-2.3","","83","","","","7","","8","","24.1","","99.91","","","","","","NA"
"-81.15","43.03","LONDON A","6144473","2023-04-09 06:00","2023","04","09","06:00","-0.3","","-2.9","","83","","","","8","","9","","24.1","","99.96","","","","-3","","NA"
"-81.15","43.03","LONDON A","6144473","2023-04-09 07:00","2023","04","09","07:00","1.0","","-3.1","","74","","","","9","","9","","24.1","","100.03","","","","","","Clear"
"-81.15","43.03","LONDON A","6144473","2023-04-09 08:00","2023","04","09","08:00","3.5","","-5.0","","54","","","","11","","18","","24.1","","100.07","","","","","","NA"
"-81.15","43.03","LONDON A","6144473","2023-04-09 09:00","2023","04","09","09:00","5.7","","-3.9","","50","","","","9","","10","","24.1","","100.07","","","","","","NA"
"-81.15","43.03","LONDON A","6144473","2023-04-09 10:00","2023","04","09","10:00","7.4","","-2.3","","50","","","","14","","7","","24.1","","100.07","","","","","","Clear"
"-81.15","43.03","LONDON A","6144473","2023-04-09 11:00","2023","04","09","11:00","8.8","","-1.9","","47","","","","8","","4","","24.1","","100.05","","","","","","NA"
"-81.15","43.03","LONDON A","6144473","2023-04-09 12:00","2023","04","09","12:00","9.6","","-1.2","","47","","","","2","","5","","24.1","","100.02","","","","","","NA"
"-81.15","43.03","LONDON A","6144473","2023-04-09 13:00","2023","04","09","13:00","10.5","","0.0","","48","","","","16","","4","","24.1","","99.99","","","","","","Clear"
"-81.15","43.03","LONDON A","6144473","2023-04-09 14:00","2023","04","09","14:00","12.1","","-1.1","","40","","","","24","","11","","24.1","","99.93","","","","","","NA"
"-81.15","43.03","LONDON A","6144473","2023-04-09 15:00","2023","04","09","15:00","11.9","","-0.2","","43","","","","18","","10","","24.1","","99.89","","","","","","NA"
"-81.15","43.03","LONDON A","6144473","2023-04-09 16:00","2023","04","09","16:00","12.2","","-0.3","","42","","","","21","","11","","24.1","","99.83","","","","","","Mainly Clear"
"-81.15","43.03","LONDON A","6144473","2023-04-09 17:00","2023","04","09","17:00","11.9","","0.2","","45","","","","20","","13","","24.1","","99.80","","","","","","NA"
"-81.15","43.03","LONDON A","6144473","2023-04-09 18:00","2023","04","09","18:00","10.6","","0.5","","50","","","","20","","14","","24.1","","99.78","","","","","","NA"
"-81.15","43.03","LONDON A","6144473","2023-04-09 19:00","2023","04","09","19:00","7.9","","-0.6","","55","","","","19","","13","","24.1","","99.75","","","","","","Mainly Clear"
"-81.15","43.03","LONDON A","6144473","2023-04-09 20:00","2023","04","09","20:00","6.3","","-1.1","","59","","","","20","","14","","24.1","","99.76","","","","","","NA"
"-81.15","43.03","LONDON A","6144473","2023-04-09 21:00","2023","04","09","21:00","5.3","","-1.4","","62","","","","20","","8","","24.1","","99.78","","","","","","NA"
"-81.15","43.03","LONDON A","6144473","2023-04-09 22:00","2023","04","09","22:00","3.4","","-0.7","","74","","","","14","","7","","24.1","","99.74","","","","","","Clear"
"-81.15","43.03","LONDON A","6144473","2023-04-09 23:00","2023","04","09","23:00","2.6","","-1.3","","76","","","","36","","1","","24.1","","99.73","","","","","","NA"
"-81.15","43.03","LONDON A","6144473","2023-04-10 00:00","2023","04","10","00:00","1.8","","-1.0","","82","","","","12","","6","","24.1","","99.71","","","","","","NA"
"-81.15","43.03","LONDON A","6144473","2023-04-10 01:00","2023","04","10","01:00","1.4","","-1.3","","82","","","","13","","5","","24.1","","99.68","","","","","","Clear"
"-81.15","43.03","LONDON A","6144473","2023-04-10 02:00","2023","04","10","02:00","1.0","","-1.5","","84","","","","13","","4","","24.1","","99.63","","","","","","NA"
"-81.15","43.03","LONDON A","6144473","2023-04-10 03:00","2023","04","10","03:00","1.2","","-1.8","","80","","","","9","","4","","24.1","","99.63","","","","","","NA"
"-81.15","43.03","LONDON A","6144473","2023-04-10 04:00","2023","04","10","04:00","0.0","","-1.3","","91","","","","8","","3","","24.1","","99.66","","","","-1","","Clear"
"-81.15","43.03","LONDON A","6144473","2023-04-10 05:00","2023","04","10","05:00","-0.3","","-2.3","","86","","","","11","","4","","24.1","","99.68","","","","-2","","NA"
"-81.15","43.03","LONDON A","6144473","2023-04-10 06:00","2023","04","10","06:00","-0.5","","-1.9","","90","","","","10","","5","","24.1","","99.70","","","","-2","","NA"
"-81.15","43.03","LONDON A","6144473","2023-04-10 07:00","2023","04","10","07:00","1.1","","-0.7","","88","","","","8","","3","","24.1","","99.74","","","","","","Clear"
"-81.15","43.03","LONDON A","6144473","2023-04-10 08:00","2023","04","10","08:00","6.5","","1.0","","68","","","","22","","5","","24.1","","99.75","","","","","","NA"
"-81.15","43.03","LONDON A","6144473","2023-04-10 09:00","2023","04","10","09:00","10.6","","0.3","","49","","","","21","","10","","24.1","","99.74","","","","","","NA"
"-81.15","43.03","LONDON A","6144473","2023-04-10 10:00","2023","04","10","10:00","12.5","","-0.2","","41","","","","20","","13","","24.1","","99.71","","","","","","Mainly Clear"
"-81.15","43.03","LONDON A","6144473","2023-04-10 11:00","2023","04","10","11:00","13.9","","0.2","","39","","","","21","","10","","24.1","","99.69","","","","","","NA"
"-81.15","43.03","LONDON A","6144473","2023-04-10 12:00","2023","04","10","12:00","16.1","","-0.3","","32","","","","21","","16","","24.1","","99.62","","","","","","NA"
"-81.15","43.03","LONDON A","6144473","2023-04-10 13:00","2023","04","10","13:00","17.1","","0.6","","33","","","","21","","19","","24.1","","99.52","","","","","","Mainly Clear"
"-81.15","43.03","LONDON A","6144473","2023-04-10 14:00","2023","04","10","14:00","17.3","","2.1","","36","","","","20","","13","","24.1","","99.46","","","","","","NA"
"-81.15","43.03","LONDON A","6144473","2023-04-10 15:00","2023","04","10","15:00","17.6","","1.4","","33","","","","21","","20","","24.1","","99.40","","","","","","NA"
"-81.15","43.03","LONDON A","6144473","2023-04-10 16:00","2023","04","10","16:00","17.1","","1.2","","34","","","","20","","18","","24.1","","99.34","","","","","","Mostly Cloudy"
"-81.15","43.03","LONDON A","6144473","2023-04-10 17:00","2023","04","10","17:00","15.8","","1.2","","37","","","","20","","19","","24.1","","99.33","","","","","","NA"
"-81.15","43.03","LONDON A","6144473","2023-04-10 18:00","2023","04","10","18:00","14.9","","0.0","","36","","","","19","","23","","24.1","","99.25","","","","","","NA"
"-81.15","43.03","LONDON A","6144473","2023-04-10 19:00","2023","04","10","19:00","12.1","","0.5","","45","","","","21","","10","","24.1","","99.27","","","","","","Mainly Clear"
"-81.15","43.03","LONDON A","6144473","2023-04-10 20:00","2023","04","10","20:00","10.9","","0.1","","47","","","","20","","12","","24.1","","99.29","","","","","","NA"
"-81.15","43.03","LONDON A","6144473","2023-04-10 21:00","2023","04","10","21:00","9.4","","0.6","","54","","","","16","","8","","24.1","","99.29","","","","","","NA"
"-81.15","43.03","LONDON A","6144473","2023-04-10 22:00","2023","04","10","22:00","8.5","","-0.8","","52","","","","20","","11","","24.1","","99.22","","","","","","Mainly Clear"
"-81.15","43.03","LONDON A","6144473","2023-04-10 23:00","2023","04","10","23:00","8.1","","-2.8","","46","","","","20","","13","","24.1","","99.14","","","","","","NA"
"-81.15","43.03","LONDON A","6144473","2023-04-11 00:00","2023","04","11","00:00","7.0","","-5.2","","41","","","","21","","8","","24.1","","99.11","","","","","","NA"
"-81.15","43.03","LONDON A","6144473","2023-04-11 01:00","2023","04","11","01:00","6.1","","-4.4","","47","","","","21","","12","","24.1","","99.08","","","","","","Mainly Clear"
"-81.15","43.03","LONDON A","6144473","2023-04-11 02:00","2023","04","11","02:00","6.2","","-3.4","","50","","","","21","","11","","24.1","","98.99","","","","","","NA"
"-81.15","43.03","LONDON A","6144473","2023-04-11 03:00","2023","04","11","03:00","4.8","","-2.6","","59","","","","23","","3","","24.1","","98.94","","","","","","NA"
"-81.15","43.03","LONDON A","6144473","2023-04-11 04:00","2023","04","11","04:00","7.0","","-1.9","","53","","","","23","","10","","24.1","","98.92","","","","","","Mainly Clear"
"-81.15","43.03","LONDON A","6144473","2023-04-11 05:00","2023","04","11","05:00","7.4","","-1.1","","55","","","","23","","12","","24.1","","98.87","","","","","","NA"
"-81.15","43.03","LONDON A","6144473","2023-04-11 06:00","2023","04","11","06:00","7.7","","-0.5","","56","","","","24","","15","","24.1","","98.87","","","","","","NA"
"-81.15","43.03","LONDON A","6144473","2023-04-11 07:00","2023","04","11","07:00","9.4","","0.4","","53","","","","23","","17","","24.1","","98.87","","","","","","Mostly Cloudy"
"-81.15","43.03","LONDON A","6144473","2023-04-11 08:00","2023","04","11","08:00","11.7","","0.4","","46","","","","24","","18","","24.1","","98.84","","","","","","NA"
"-81.15","43.03","LONDON A","6144473","2023-04-11 09:00","2023","04","11","09:00","14.2","","1.5","","42","","","","25","","18","","24.1","","98.80","","","","","","NA"
"-81.15","43.03","LONDON A","6144473","2023-04-11 10:00","2023","04","11","10:00","17.6","","3.5","","39","","","","27","","23","","24.1","","98.74","","","","","","Mostly Cloudy"
"-81.15","43.03","LONDON A","6144473","2023-04-11 11:00","2023","04","11","11:00","19.8","","4.4","","36","","","","26","","26","","24.1","","98.68","","","","","","NA"
"-81.15","43.03","LONDON A","6144473","2023-04-11 12:00","2023","04","11","12:00","21.8","","5.4","","34","","","","26","","22","","24.1","","98.64","","","","","","NA"
"-81.15","43.03","LONDON A","6144473","2023-04-11 13:00","2023","04","11","13:00","22.1","","5.8","","34","","","","25","","27","","24.1","","98.55","","","","","","Mostly Cloudy"
"-81.15","43.03","LONDON A","6144473","2023-04-11 14:00","2023","04","11","14:00","22.3","","5.7","","34","","","","27","","39","","24.1","","98.49","","","","","","NA"
"-81.15","43.03","LONDON A","6144473","2023-04-11 15:00","2023","04","11","15:00","21.6","","6.0","","36","","","","27","","37","","24.1","","98.44","","","","","","NA"
"-81.15","43.03","LONDON A","6144473","2023-04-11 16:00","2023","04","11","16:00","21.4","","5.5","","35","","","","27","","33","","24.1","","98.42","","","","","","Cloudy"
"-81.15","43.03","LONDON A","6144473","2023-04-11 17:00","2023","04","11","17:00","20.8","","5.8","","37","","","","27","","32","","24.1","","98.39","","","","","","NA"
"-81.15","43.03","LONDON A","6144473","2023-04-11 18:00","2023","04","11","18:00","20.2","","5.6","","38","","","","27","","21","","24.1","","98.38","","","","","","NA"
"-81.15","43.03","LONDON A","6144473","2023-04-11 19:00","2023","04","11","19:00","18.6","","5.2","","41","","","","26","","18","","24.1","","98.36","","","","","","Mostly Cloudy"
"-81.15","43.03","LONDON A","6144473","2023-04-11 20:00","2023","04","11","20:00","17.6","","5.0","","43","","","","25","","14","","24.1","","98.38","","","","","","NA"
"-81.15","43.03","LONDON A","6144473","2023-04-11 21:00","2023","04","11","21:00","17.0","","5.2","","45","","","","26","","16","","24.1","","98.37","","","","","","NA"
"-81.15","43.03","LONDON A","6144473","2023-04-11 22:00","2023","04","11","22:00","15.8","","5.3","","49","","","","25","","16","","24.1","","98.34","","","","","","Mostly Cloudy"
"-81.15","43.03","LONDON A","6144473","2023-04-11 23:00","2023","04","11","23:00","15.3","","5.2","","50","","","","26","","13","","24.1","","98.32","","","","","","NA"
"-81.15","43.03","LONDON A","6144473","2023-04-12 00:00","2023","04","12","00:00","15.3","","5.0","","50","","","","26","","15","","24.1","","98.32","","","","","","NA"
"-81.15","43.03","LONDON A","6144473","2023-04-12 01:00","2023","04","12","01:00","14.4","","5.0","","53","","","","26","","13","","24.1","","98.27","","","","","","Mostly Cloudy"
"-81.15","43.03","LONDON A","6144473","2023-04-12 02:00","2023","04","12","02:00","13.5","","4.8","","56","","","","26","","7","","24.1","","98.22","","","","","","NA"
"-81.15","43.03","LONDON A","6144473","2023-04-12 03:00","2023","04","12","03:00","12.5","","4.8","","59","","","","25","","8","","24.1","","98.16","","","","","","NA"
"-81.15","43.03","LONDON A","6144473","2023-04-12 04:00","2023","04","12","04:00","12.3","","4.8","","60","","","","25","","11","","24.1","","98.14","","","","","","Mainly Clear"
"-81.15","43.03","LONDON A","6144473","2023-04-12 05:00","2023","04","12","05:00","13.9","","5.2","","56","","","","24","","17","","24.1","","98.12","","","","","","NA"
"-81.15","43.03","LONDON A","6144473","2023-04-12 06:00","2023","04","12","06:00","13.2","","6.0","","61","","","","25","","13","","24.1","","98.11","","","","","","NA"
"-81.15","43.03","LONDON A","6144473","2023-04-12 07:00","2023","04","12","07:00","14.4","","6.8","","60","","","","25","","17","","24.1","","98.13","","","","","","Mainly Clear"
"-81.15","43.03","LONDON A","6144473","2023-04-12 08:00","2023","04","12","08:00","16.4","","7.9","","57","","","","26","","25","","24.1","","98.14","","","","","","NA"
"-81.15","43.03","LONDON A","6144473","2023-04-12 09:00","2023","04","12","09:00","18.8","","8.5","","51","","","","25","","27","","24.1","","98.11","","","","","","NA"
"-81.15","43.03","LONDON A","6144473","2023-04-12 10:00","2023","04","12","10:00","20.9","","9.1","","46","","","","28","","24","","24.1","","98.10","","","","","","Clear"
"-81.15","43.03","LONDON A","6144473","2023-04-12 11:00","2023","04","12","11:00","23.3","","9.6","","41","","","","25","","23","","24.1","","98.06","","","","","","NA"
"-81.15","43.03","LONDON A","6144473","2023-04-12 12:00","2023","04","12","12:00","23.8","","10.3","","42","","","","25","","18","","24.1","","98.01","","25","","","","NA"
"-81.15","43.03","LONDON A","6144473","2023-04-12 13:00","2023","04","12","13:00","24.4","","9.0","","37","","","","26","","32","","24.1","","97.93","","25","","","","Mainly Clear"
"-81.15","43.03","LONDON A","6144473","2023-04-12 14:00","2023","04","12","14:00","24.9","","10.0","","38","","","","23","","32","","24.1","","97.86","","26","","","","NA"
"-81.15","43.03","LONDON A","6144473","2023-04-12 15:00","2023","04","12","15:00","25.1","","9.2","","36","","","","23","","34","","24.1","","97.79","","26","","","","NA"
"-81.15","43.03","LONDON A","6144473","2023-04-12 16:00","2023","04","12","16:00","25.3","","8.3","","33","","","","24","","30","","24.1","","97.75","","26","","","","Clear"
"-81.15","43.03","LONDON A","6144473","2023-04-12 17:00","2023","04","12","17:00","24.8","","8.3","","34","","","","24","","35","","24.1","","97.73","","25","","","","NA"
"-81.15","43.03","LONDON A","6144473","2023-04-12 18:00","2023","04","12","18:00","24.2","","8.2","","35","","","","24","","18","","24.1","","97.72","","25","","","","NA"
"-81.15","43.03","LONDON A","6144473","2023-04-12 19:00","2023","04","12","19:00","22.3","","7.8","","39","","","","23","","18","","24.1","","97.72","","","","","","Clear"
"-81.15","43.03","LONDON A","6144473","2023-04-12 20:00","2023","04","12","20:00","20.8","","7.8","","43","","","","23","","19","","24.1","","97.74","","","","","","NA"
"-81.15","43.03","LONDON A","6144473","2023-04-12 21:00","2023","04","12","21:00","20.1","","8.1","","45","","","","23","","24","","24.1","","97.77","","","","","","NA"
"-81.15","43.03","LONDON A","6144473","2023-04-12 22:00","2023","04","12","22:00","19.1","","8.4","","49","","","","24","","20","","24.1","","97.78","","","","","","Clear"
"-81.15","43.03","LONDON A","6144473","2023-04-12 23:00","2023","04","12","23:00","17.8","","8.2","","53","","","","25","","13","","24.1","","97.80","","","","","","NA"
"-81.15","43.03","LONDON A","6144473","2023-04-13 00:00","2023","04","13","00:00","17.2","","8.0","","54","","","","25","","16","","24.1","","97.83","","","","","","NA"
"-81.15","43.03","LONDON A","6144473","2023-04-13 01:00","2023","04","13","01:00","16.7","","7.6","","55","","","","24","","15","","24.1","","97.83","","","","","","Clear"
"-81.15","43.03","LONDON A","6144473","2023-04-13 02:00","2023","04","13","02:00","16.3","","7.1","","54","","","","24","","16","","24.1","","97.82","","","","","","NA"
"-81.15","43.03","LONDON A","6144473","2023-04-13 03:00","2023","04","13","03:00","15.9","","7.0","","55","","","","23","","17","","24.1","","97.81","","","","","","NA"
"-81.15","43.03","LONDON A","6144473","2023-04-13 04:00","2023","04","13","04:00","15.6","","6.9","","56","","","","24","","17","","24.1","","97.83","","","","","","Clear"
"-81.15","43.03","LONDON A","6144473","2023-04-13 05:00","2023","04","13","05:00","14.7","","6.9","","59","","","","24","","17","","24.1","","97.88","","","","","","NA"
"-81.15","43.03","LONDON A","6144473","2023-04-13 06:00","2023","04","13","06:00","14.2","","7.0","","61","","","","23","","17","","24.1","","97.93","","","","","","NA"
"-81.15","43.03","LONDON A","6144473","2023-04-13 07:00","2023","04","13","07:00","15.6","","7.2","","57","","","","24","","20","","24.1","","97.98","","","","","","Clear"
"-81.15","43.03","LONDON A","6144473","2023-04-13 08:00","2023","04","13","08:00","17.6","","7.6","","52","","","","23","","19","","24.1","","98.00","","","","","","NA"
"-81.15","43.03","LONDON A","6144473","2023-04-13 09:00","2023","04","13","09:00","21.0","","7.7","","42","","","","25","","19","","24.1","","97.98","","","","","","NA"
"-81.15","43.03","LONDON A","6144473","2023-04-13 10:00","2023","04","13","10:00","22.7","","8.7","","40","","","","25","","16","","24.1","","97.97","","","","","","Clear"
"-81.15","43.03","LONDON A","6144473","2023-04-13 11:00","2023","04","13","11:00","24.7","","9.2","","37","","","","24","","17","","24.1","","97.96","","26","","","","NA"
"-81.15","43.03","LONDON A","6144473","2023-04-13 12:00","2023","04","13","12:00","26.5","","8.8","","32","","","","25","","17","","24.1","","97.91","","27","","","","NA"
"-81.15","43.03","LONDON A","6144473","2023-04-13 13:00","2023","04","13","13:00","26.9","","7.8","","29","","","","24","","22","","24.1","","97.88","","27","","","","Clear"
"-81.15","43.03","LONDON A","6144473","2023-04-13 14:00","2023","04","13","14:00","27.4","","5.7","","25","","","","25","","30","","24.1","","97.84","","27","","","","NA"
"-81.15","43.03","LONDON A","6144473","2023-04-13 15:00","2023","04","13","15:00","27.0","","5.8","","25","","","","23","","24","","24.1","","97.79","","27","","","","NA"
"-81.15","43.03","LONDON A","6144473","2023-04-13 16:00","2023","04","13","16:00","26.8","","5.1","","25","","","","23","","28","","24.1","","97.74","","26","","","","Clear"
"-81.15","43.03","LONDON A","6144473","2023-04-13 17:00","2023","04","13","17:00","26.0","","6.0","","27","","","","26","","24","","24.1","","97.72","","26","","","","NA"
"-81.15","43.03","LONDON A","6144473","2023-04-13 18:00","2023","04","13","18:00","24.9","","7.1","","32","","","","24","","16","","24.1","","97.74","","25","","","","NA"
"-81.15","43.03","LONDON A","6144473","2023-04-13 19:00","2023","04","13","19:00","21.5","","8.2","","42","","","","20","","16","","24.1","","97.77","","","","","","Mainly Clear"
"-81.15","43.03","LONDON A","6144473","2023-04-13 20:00","2023","04","13","20:00","19.6","","7.5","","45","","","","20","","12","","24.1","","97.81","","","","","","NA"
"-81.15","43.03","LONDON A","6144473","2023-04-13 21:00","2023","04","13","21:00","18.6","","6.9","","46","","","","19","","8","","24.1","","97.86","","","","","","NA"
"-81.15","43.03","LONDON A","6144473","2023-04-13 22:00","2023","04","13","22:00","17.6","","6.5","","48","","","","21","","11","","24.1","","97.87","","","","","","Mainly Clear"
"-81.15","43.03","LONDON A","6144473","2023-04-13 23:00","2023","04","13","23:00","16.3","","6.0","","50","","","","36","","2","","24.1","","97.88","","","","","","NA"
"-81.15","43.03","LONDON A","6144473","2023-04-14 00:00","2023","04","14","00:00","15.3","","5.7","","53","","","","36","","1","","24.1","","97.90","","","","","","NA"
"-81.15","43.03","LONDON A","6144473","2023-04-14 01:00","2023","04","14","01:00","11.5","","5.6","","67","","","","8","","5","","24.1","","97.90","","","","","","Clear"
"-81.15","43.03","LONDON A","6144473","2023-04-14 02:00","2023","04","14","02:00","10.3","","6.4","","77","","","","8","","5","","24.1","","97.88","","","","","","NA"
"-81.15","43.03","LONDON A","6144473","2023-04-14 03:00","2023","04","14","03:00","10.4","","7.1","","80","","","","36","","3","","24.1","","97.86","","","","","","NA"
"-81.15","43.03","LONDON A","6144473","2023-04-14 04:00","2023","04","14","04:00","9.5","","5.9","","78","","","","9","","4","","24.1","","97.89","","","","","","Clear"
"-81.15","43.03","LONDON A","6144473","2023-04-14 05:00","2023","04","14","05:00","9.0","","6.0","","82","","","","5","","4","","24.1","","97.91","","","","","","NA"
"-81.15","43.03","LONDON A","6144473","2023-04-14 06:00","2023","04","14","06:00","8.6","","5.4","","81","","","","36","","1","","24.1","","97.95","","","","","","NA"
"-81.15","43.03","LONDON A","6144473","2023-04-14 07:00","2023","04","14","07:00","10.6","","7.3","","80","","","","12","","4","","24.1","","98.00","","","","","","Clear"
"-81.15","43.03","LONDON A","6144473","2023-04-14 08:00","2023","04","14","08:00","15.4","","8.0","","61","","","","13","","5","","24.1","","98.00","","","","","","NA"
"-81.15","43.03","LONDON A","6144473","2023-04-14 09:00","2023","04","14","09:00","19.9","","7.2","","43","","","","36","","2","","24.1","","97.98","","","","","","NA"
"-81.15","43.03","LONDON A","6144473","2023-04-14 10:00","2023","04","14","10:00","22.9","","6.3","","34","","","","13","","8","","24.1","","97.97","","","","","","Mainly Clear"
"-81.15","43.03","LONDON A","6144473","2023-04-14 11:00","2023","04","14","11:00","24.9","","5.7","","29","","","","17","","8","","24.1","","97.95","","","","","","NA"
"-81.15","43.03","LONDON A","6144473","2023-04-14 12:00","2023","04","14","12:00","25.6","","3.3","","23","","","","12","","7","","24.1","","97.87","","","","","","NA"
"-81.15","43.03","LONDON A","6144473","2023-04-14 13:00","2023","04","14","13:00","26.5","","3.9","","23","","","","19","","13","","24.1","","97.83","","25","","","","Mostly Cloudy"
"-81.15","43.03","LONDON A","6144473","2023-04-14 14:00","2023","04","14","14:00","26.8","","2.6","","21","","","","20","","11","","24.1","","97.81","","25","","","","NA"
"-81.15","43.03","LONDON A","6144473","2023-04-14 15:00","2023","04","14","15:00","26.7","","3.4","","22","","","","19","","11","","24.1","","97.78","","25","","","","NA"
"-81.15","43.03","LONDON A","6144473","2023-04-14 16:00","2023","04","14","16:00","26.3","","2.8","","21","","","","15","","9","","24.1","","97.73","","25","","","","Mostly Cloudy"
"-81.15","43.03","LONDON A","6144473","2023-04-14 17:00","2023","04","14","17:00","26.0","","2.8","","22","","","","12","","14","","24.1","","97.70","","25","","","","NA"
"-81.15","43.03","LONDON A","6144473","2023-04-14 18:00","2023","04","14","18:00","25.2","","3.1","","23","","","","16","","7","","24.1","","97.70","","","","","","NA"
"-81.15","43.03","LONDON A","6144473","2023-04-14 19:00","2023","04","14","19:00","23.2","","2.2","","25","","","","15","","9","","24.1","","97.70","","","","","","Mostly Cloudy"
"-81.15","43.03","LONDON A","6144473","2023-04-14 20:00","2023","04","14","20:00","18.8","","4.5","","39","","","","36","","3","","24.1","","97.72","","","","","","NA"
"-81.15","43.03","LONDON A","6144473","2023-04-14 21:00","2023","04","14","21:00","16.8","","2.8","","39","","","","36","","5","","24.1","","97.71","","","","","","NA"
"-81.15","43.03","LONDON A","6144473","2023-04-14 22:00","2023","04","14","22:00","15.9","","4.2","","45","","","","1","","3","","24.1","","97.71","","","","","","Mostly Cloudy"
"-81.15","43.03","LONDON A","6144473","2023-04-14 23:00","2023","04","14","23:00","13.6","","5.9","","60","","","","33","","3","","24.1","","97.71","","","","","","NA"
"-81.15","43.03","LONDON A","6144473","2023-04-15 00:00","2023","04","15","00:00","14.5","","5.8","","56","","","","15","","8","","24.1","","97.76","","","","","","NA"
"-81.15","43.03","LONDON A","6144473","2023-04-15 01:00","2023","04","15","01:00","13.5","","4.5","","54","","","","29","","4","","24.1","","97.74","","","","","","Clear"
"-81.15","43.03","LONDON A","6144473","2023-04-15 02:00","2023","04","15","02:00","11.9","","6.3","","68","","","","35","","5","","24.1","","97.70","","","","","","NA"
"-81.15","43.03","LONDON A","6144473","2023-04-15 03:00","2023","04","15","03:00","11.7","","4.7","","62","","","","35","","3","","24.1","","97.68","","","","","","NA"
"-81.15","43.03","LONDON A","6144473","2023-04-15 04:00","2023","04","15","04:00","11.3","","6.6","","73","","","","34","","8","","24.1","","97.66","","","","","","Mainly Clear"
"-81.15","43.03","LONDON A","6144473","2023-04-15 05:00","2023","04","15","05:00","9.6","","6.4","","80","","","","6","","5","","24.1","","97.68","","","","","","NA"
"-81.15","43.03","LONDON A","6144473","2023-04-15 06:00","2023","04","15","06:00","10.5","","6.3","","75","","","","34","","5","","24.1","","97.73","","","","","","NA"
"-81.15","43.03","LONDON A","6144473","2023-04-15 07:00","2023","04","15","07:00","12.4","","6.3","","66","","","","36","","3","","24.1","","97.80","","","","","","Mostly Cloudy"
"-81.15","43.03","LONDON A","6144473","2023-04-15 08:00","2023","04","15","08:00","15.2","","8.0","","62","","","","31","","8","","24.1","","97.79","","","","","","NA"
"-81.15","43.03","LONDON A","6144473","2023-04-15 09:00","2023","04","15","09:00","18.0","","9.8","","59","","","","36","","1","","24.1","","97.78","","","","","","NA"
"-81.15","43.03","LONDON A","6144473","2023-04-15 10:00","2023","04","15","10:00","22.4","","9.3","","43","","","","36","","2","","24.1","","97.74","","","","","","Mainly Clear"
"-81.15","43.03","LONDON A","6144473","2023-04-15 11:00","2023","04","15","11:00","25.1","","5.7","","28","","","","8","","14","","24.1","","97.71","","25","","","","NA"
"-81.15","43.03","LONDON A","6144473","2023-04-15 12:00","2023","04","15","12:00","26.7","","6.9","","28","","","","7","","9","","24.1","","97.69","","27","","","","NA"
"-81.15","43.03","LONDON A","6144473","2023-04-15 13:00","2023","04","15","13:00","24.8","","7.4","","32","","","","12","","17","","24.1","","97.69","","25","","","","Mostly Cloudy"
"-81.15","43.03","LONDON A","6144473","2023-04-15 14:00","2023","04","15","14:00","26.4","","6.0","","27","","","","7","","16","","24.1","","97.66","","26","","","","NA"
"-81.15","43.03","LONDON A","6144473","2023-04-15 15:00","2023","04","15","15:00","25.3","","7.8","","32","","","","11","","19","","19.3","","97.65","","26","","","","NA"
"-81.15","43.03","LONDON A","6144473","2023-04-15 16:00","2023","04","15","16:00","24.2","","8.3","","36","","","","12","","9","","19.3","","97.64","","25","","","","Mostly Cloudy"
"-81.15","43.03","LONDON A","6144473","2023-04-15 17:00","2023","04","15","17:00","24.0","","9.0","","38","","","","17","","7","","19.3","","97.67","","25","","","","NA"
"-81.15","43.03","LONDON A","6144473","2023-04-15 18:00","2023","04","15","18:00","22.7","","10.0","","44","","","","20","","8","","19.3","","97.67","","","","","","NA"
"-81.15","43.03","LONDON A","6144473","2023-04-15 19:00","2023","04","15","19:00","21.8","","8.3","","41","","","","18","","7","","19.3","","97.66","","","","","","Mainly Clear"
"-81.15","43.03","LONDON A","6144473","2023-04-15 20:00","2023","04","15","20:00","17.1","","9.6","","61","","","","9","","9","","24.1","","97.57","","","","","","NA"
"-81.15","43.03","LONDON A","6144473","2023-04-15 21:00","2023","04","15","21:00","16.1","","9.3","","64","","","","36","","1","","24.1","","97.52","","","","","","NA"
"-81.15","43.03","LONDON A","6144473","2023-04-15 22:00","2023","04","15","22:00","17.5","","8.8","","56","","","","15","","7","","24.1","","97.73","","","","","","Mostly Cloudy"
"-81.15","43.03","LONDON A","6144473","2023-04-15 23:00","2023","04","15","23:00","14.9","","8.6","","65","","","","13","","9","","24.1","","97.69","","","","","","NA"
"-81.15","43.03","LONDON A","6144473","2023-04-16 00:00","2023","04","16","00:00","12.9","","7.9","","71","","","","11","","10","","24.1","","97.64","","","","","","NA"
"-81.15","43.03","LONDON A","6144473","2023-04-16 01:00","2023","04","16","01:00","12.0","","7.2","","72","","","","23","","6","","24.1","","97.59","","","","","","Mainly Clear"
"-81.15","43.03","LONDON A","6144473","2023-04-16 02:00","2023","04","16","02:00","11.7","","7.3","","74","","","","22","","8","","24.1","","97.57","","","","","","NA"
"-81.15","43.03","LONDON A","6144473","2023-04-16 03:00","2023","04","16","03:00","11.7","","7.0","","72","","","","14","","4","","24.1","","97.54","","","","","","NA"
"-81.15","43.03","LONDON A","6144473","2023-04-16 04:00","2023","04","16","04:00","10.4","","7.1","","80","","","","8","","12","","24.1","","97.53","","","","","","Mainly Clear"
"-81.15","43.03","LONDON A","6144473","2023-04-16 05:00","2023","04","16","05:00","9.9","","6.8","","81","","","","9","","9","","24.1","","97.50","","","","","","NA"
"-81.15","43.03","LONDON A","6144473","2023-04-16 06:00","2023","04","16","06:00","9.9","","7.2","","83","","","","9","","10","","24.1","","97.46","","","","","","NA"
"-81.15","43.03","LONDON A","6144473","2023-04-16 07:00","2023","04","16","07:00","12.8","","7.9","","72","","","","11","","8","","24.1","","97.45","","","","","","Clear"
"-81.15","43.03","LONDON A","6144473","2023-04-16 08:00","2023","04","16","08:00","16.7","","10.0","","64","","","","16","","13","","24.1","","97.43","","","","","","NA"
"-81.15","43.03","LONDON A","6144473","2023-04-16 09:00","2023","04","16","09:00","19.8","","11.8","","60","","","","18","","13","","24.1","","97.35","","","","","","NA"
"-81.15","43.03","LONDON A","6144473","2023-04-16 10:00","2023","04","16","10:00","21.6","","12.6","","56","","","","15","","12","","24.1","","97.28","","","","","","Clear"
"-81.15","43.03","LONDON A","6144473","2023-04-16 11:00","2023","04","16","11:00","23.7","","13.0","","51","","","","15","","18","","24.1","","97.22","","26","","","","NA"
"-81.15","43.03","LONDON A","6144473","2023-04-16 12:00","2023","04","16","12:00","24.8","","12.5","","46","","","","18","","24","","24.1","","97.11","","27","","","","NA"
"-81.15","43.03","LONDON A","6144473","2023-04-16 13:00","2023","04","16","13:00","24.2","","11.1","","43","","","","14","","30","","24.1","","97.03","","26","","","","Mostly Cloudy"
"-81.15","43.03","LONDON A","6144473","2023-04-16 14:00","2023","04","16","14:00","25.8","","11.7","","41","","","","14","","30","","24.1","","96.93","","28","","","","NA"
"-81.15","43.03","LONDON A","6144473","2023-04-16 15:00","2023","04","16","15:00","24.4","","11.5","","44","","","","15","","31","","24.1","","96.82","","26","","","","NA"
"-81.15","43.03","LONDON A","6144473","2023-04-16 16:00","2023","04","16","16:00","23.5","","11.5","","46","","","","15","","26","","24.1","","96.72","","26","","","","Rain Showers"
"-81.15","43.03","LONDON A","6144473","2023-04-16 17:00","2023","04","16","17:00","15.7","","14.2","","91","","","","19","","34","","4.8","","96.81","","","","","","Rain Showers,Fog"
"-81.15","43.03","LONDON A","6144473","2023-04-16 18:00","2023","04","16","18:00","13.0","","11.7","","92","","","","23","","30","","6.4","","96.91","","","","","","Rain Showers,Fog"
"-81.15","43.03","LONDON A","6144473","2023-04-16 19:00","2023","04","16","19:00","11.8","","10.3","","90","","","","22","","20","","6.4","","96.98","","","","","","Rain Showers,Fog"
"-81.15","43.03","LONDON A","6144473","2023-04-16 20:00","2023","04","16","20:00","10.6","","8.0","","84","","","","23","","36","","16.1","","97.05","","","","","","Rain Showers"
"-81.15","43.03","LONDON A","6144473","2023-04-16 21:00","2023","04","16","21:00","9.8","","6.9","","83","","","","23","","28","","24.1","","97.08","","","","","","NA"
"-81.15","43.03","LONDON A","6144473","2023-04-16 22:00","2023","04","16","22:00","8.4","","4.8","","78","","","","23","","26","","24.1","","97.09","","","","","","Cloudy"
"-81.15","43.03","LONDON A","6144473","2023-04-16 23:00","2023","04","16","23:00","7.8","","3.2","","72","","","","23","","24","","24.1","","97.05","","","","","","NA"
"-81.15","43.03","LONDON A","6144473","2023-04-17 00:00","2023","04","17","00:00","7.0","","2.2","","71","","","","23","","31","","24.1","","97.09","","","","","","NA"
"-81.15","43.03","LONDON A","6144473","2023-04-17 01:00","2023","04","17","01:00","6.3","","1.6","","71","","","","22","","28","","24.1","","97.07","","","","","","Mainly Clear"
"-81.15","43.03","LONDON A","6144473","2023-04-17 02:00","2023","04","17","02:00","5.7","","1.1","","72","","","","21","","20","","24.1","","97.01","","","","","","NA"
"-81.15","43.03","LONDON A","6144473","2023-04-17 03:00","2023","04","17","03:00","5.3","","1.7","","77","","","","20","","16","","24.1","","96.95","","","","","","NA"
"-81.15","43.03","LONDON A","6144473","2023-04-17 04:00","2023","04","17","04:00","4.9","","1.3","","78","","","","20","","20","","24.1","","96.87","","","","","","Mainly Clear"
"-81.15","43.03","LONDON A","6144473","2023-04-17 05:00","2023","04","17","05:00","5.0","","0.8","","74","","","","21","","25","","24.1","","96.84","","","","","","NA"
"-81.15","43.03","LONDON A","6144473","2023-04-17 06:00","2023","04","17","06:00","4.5","","-0.3","","71","","","","22","","23","","24.1","","96.81","","","","","","NA"
"-81.15","43.03","LONDON A","6144473","2023-04-17 07:00","2023","04","17","07:00","4.2","","1.2","","81","","","","19","","19","","24.1","","96.79","","","","","","Rain Showers"
"-81.15","43.03","LONDON A","6144473","2023-04-17 08:00","2023","04","17","08:00","5.5","","2.1","","78","","","","17","","21","","24.1","","96.73","","","","","","Rain Showers"
"-81.15","43.03","LONDON A","6144473","2023-04-17 09:00","2023","04","17","09:00","3.6","","2.0","","89","","","","20","","22","","24.1","","96.72","","","","","","Rain Showers"
"-81.15","43.03","LONDON A","6144473","2023-04-17 10:00","2023","04","17","10:00","3.8","","1.8","","86","","","","20","","39","","24.1","","96.71","","","","","","Rain Showers"
"-81.15","43.03","LONDON A","6144473","2023-04-17 11:00","2023","04","17","11:00","3.7","","1.6","","87","","","","21","","30","","24.1","","96.70","","","","","","Rain Showers"
"-81.15","43.03","LONDON A","6144473","2023-04-17 12:00","2023","04","17","12:00","3.6","","1.6","","87","","","","21","","24","","24.1","","96.69","","","","","","Rain Showers,Snow Showers"
"-81.15","43.03","LONDON A","6144473","2023-04-17 13:00","2023","04","17","13:00","2.9","","0.4","","83","","","","21","","27","","8.1","","96.68","","","","","","Rain Showers,Ice Pellets,Snow Showers"
"-81.15","43.03","LONDON A","6144473","2023-04-17 14:00","2023","04","17","14:00","2.4","","1.1","","91","","","","23","","27","","6.4","","96.70","","","","","","Rain Showers,Snow Showers,Fog"
"-81.15","43.03","LONDON A","6144473","2023-04-17 15:00","2023","04","17","15:00","3.2","","1.1","","86","","","","20","","21","","16.1","","96.65","","","","","","Rain Showers,Snow Showers"
"-81.15","43.03","LONDON A","6144473","2023-04-17 16:00","2023","04","17","16:00","2.5","","0.8","","89","","","","23","","29","","16.1","","96.70","","","","","","Snow Showers"
"-81.15","43.03","LONDON A","6144473","2023-04-17 17:00","2023","04","17","17:00","3.5","","0.0","","78","","","","22","","28","","24.1","","96.73","","","","","","NA"
"-81.15","43.03","LONDON A","6144473","2023-04-17 18:00","2023","04","17","18:00","2.8","","-0.4","","80","","","","23","","32","","12.9","","96.81","","","","","","Rain Showers,Snow Showers"
"-81.15","43.03","LONDON A","6144473","2023-04-17 19:00","2023","04","17","19:00","1.8","","0.1","","88","","","","23","","30","","6.4","","96.87","","","","","","Snow Showers,Fog"
"-81.15","43.03","LONDON A","6144473","2023-04-17 20:00","2023","04","17","20:00","1.9","","0.3","","89","","","","21","","21","","24.1","","96.90","","","","","","NA"
"-81.15","43.03","LONDON A","6144473","2023-04-17 21:00","2023","04","17","21:00","2.4","","-2.0","","73","","","","25","","26","","24.1","","96.94","","","","","","NA"
"-81.15","43.03","LONDON A","6144473","2023-04-17 22:00","2023","04","17","22:00","1.5","","-1.9","","78","","","","24","","23","","19.3","","96.96","","","","","","Snow Showers"
"-81.15","43.03","LONDON A","6144473","2023-04-17 23:00","2023","04","17","23:00","1.5","","-1.4","","81","","","","24","","20","","16.1","","96.95","","","","","","Snow Showers"
"-81.15","43.03","LONDON A","6144473","2023-04-18 00:00","2023","04","18","00:00","1.4","","-1.2","","83","","","","25","","30","","16.1","","96.96","","","","","","Snow Showers"
"-81.15","43.03","LONDON A","6144473","2023-04-18 01:00","2023","04","18","01:00","1.5","","-1.4","","81","","","","25","","22","","12.9","","96.96","","","","","","Snow Showers"
"-81.15","43.03","LONDON A","6144473","2023-04-18 02:00","2023","04","18","02:00","1.6","","-1.3","","81","","","","25","","20","","16.1","","96.96","","","","","","Snow"
"-81.15","43.03","LONDON A","6144473","2023-04-18 03:00","2023","04","18","03:00","1.4","","-1.4","","82","","","","25","","24","","16.1","","96.95","","","","","","Snow"
"-81.15","43.03","LONDON A","6144473","2023-04-18 04:00","2023","04","18","04:00","1.3","","-1.4","","82","","","","26","","20","","24.1","","96.99","","","","","","Snow"
"-81.15","43.03","LONDON A","6144473","2023-04-18 05:00","2023","04","18","05:00","1.1","","-2.0","","80","","","","25","","22","","24.1","","97.03","","","","","","Snow"
"-81.15","43.03","LONDON A","6144473","2023-04-18 06:00","2023","04","18","06:00","0.3","","-1.1","","91","","","","26","","17","","19.3","","97.11","","","","","","Snow Pellets"
"-81.15","43.03","LONDON A","6144473","2023-04-18 07:00","2023","04","18","07:00","0.1","","-1.7","","88","","","","28","","27","","16.1","","97.22","","","","","","Snow"
"-81.15","43.03","LONDON A","6144473","2023-04-18 08:00","2023","04","18","08:00","0.4","","-3.1","","78","","","","27","","24","","24.1","","97.25","","","","","","Snow"
"-81.15","43.03","LONDON A","6144473","2023-04-18 09:00","2023","04","18","09:00","0.9","","-2.5","","78","","","","26","","27","","24.1","","97.34","","","","","","NA"
"-81.15","43.03","LONDON A","6144473","2023-04-18 10:00","2023","04","18","10:00","1.0","","-3.5","","72","","","","27","","17","","24.1","","97.41","","","","","","Cloudy"
"-81.15","43.03","LONDON A","6144473","2023-04-18 11:00","2023","04","18","11:00","0.9","","-3.7","","72","","","","26","","27","","24.1","","97.46","","","","","","NA"
"-81.15","43.03","LONDON A","6144473","2023-04-18 12:00","2023","04","18","12:00","1.0","","-3.1","","74","","","","26","","21","","19.3","","97.52","","","","","","Snow"
"-81.15","43.03","LONDON A","6144473","2023-04-18 13:00","2023","04","18","13:00","1.1","","-2.9","","75","","","","27","","25","","16.1","","97.59","","","","","","Snow"
"-81.15","43.03","LONDON A","6144473","2023-04-18 14:00","2023","04","18","14:00","1.2","","-2.8","","75","","","","25","","25","","2.4","","97.64","","","","","","Snow Showers"
"-81.15","43.03","LONDON A","6144473","2023-04-18 15:00","2023","04","18","15:00","2.1","","-2.6","","71","","","","27","","22","","9.7","","97.67","","","","","","Snow Showers"
"-81.15","43.03","LONDON A","6144473","2023-04-18 16:00","2023","04","18","16:00","2.5","","-2.5","","69","","","","26","","19","","9.7","","97.70","","","","","","Snow Showers"
"-81.15","43.03","LONDON A","6144473","2023-04-18 17:00","2023","04","18","17:00","2.3","","-1.5","","76","","","","28","","19","","9.7","","97.76","","","","","","Snow Showers"
"-81.15","43.03","LONDON A","6144473","2023-04-18 18:00","2023","04","18","18:00","1.9","","-0.6","","84","","","","29","","13","","16.1","","97.86","","","","","","Snow Showers"
"-81.15","43.03","LONDON A","6144473","2023-04-18 19:00","2023","04","18","19:00","2.0","","-1.1","","80","","","","28","","17","","19.3","","97.94","","","","","","Snow Showers"
"-81.15","43.03","LONDON A","6144473","2023-04-18 20:00","2023","04","18","20:00","2.1","","-1.3","","78","","","","28","","11","","19.3","","97.99","","","","","","Snow Showers"
"-81.15","43.03","LONDON A","6144473","2023-04-18 21:00","2023","04","18","21:00","2.3","","-0.9","","79","","","","28","","7","","12.9","","98.07","","","","","","NA"
"-81.15","43.03","LONDON A","6144473","2023-04-18 22:00","2023","04","18","22:00","2.6","","-2.1","","71","","","","28","","19","","24.1","","98.12","","","","","","Cloudy"
"-81.15","43.03","LONDON A","6144473","2023-04-18 23:00","2023","04","18","23:00","2.4","","-1.8","","74","","","","29","","13","","24.1","","98.14","","","","","","NA"
"-81.15","43.03","LONDON A","6144473","2023-04-19 00:00","2023","04","19","00:00","1.8","","-1.9","","77","","","","30","","11","","24.1","","98.21","","","","","","NA"
"-81.15","43.03","LONDON A","6144473","2023-04-19 01:00","2023","04","19","01:00","1.6","","-1.4","","80","","","","30","","9","","24.1","","98.25","","","","","","Cloudy"
"-81.15","43.03","LONDON A","6144473","2023-04-19 02:00","2023","04","19","02:00","1.6","","-1.4","","81","","","","31","","13","","24.1","","98.26","","","","","","NA"
"-81.15","43.03","LONDON A","6144473","2023-04-19 03:00","2023","04","19","03:00","1.2","","-2.4","","76","","","","30","","19","","24.1","","98.32","","","","","","NA"
"-81.15","43.03","LONDON A","6144473","2023-04-19 04:00","2023","04","19","04:00","0.9","","-2.4","","79","","","","31","","20","","24.1","","98.38","","","","","","Cloudy"
"-81.15","43.03","LONDON A","6144473","2023-04-19 05:00","2023","04","19","05:00","0.8","","-2.9","","76","","","","31","","15","","24.1","","98.39","","","","","","NA"
"-81.15","43.03","LONDON A","6144473","2023-04-19 06:00","2023","04","19","06:00","0.2","","-4.5","","71","","","","32","","27","","24.1","","98.46","","","","","","NA"
"-81.15","43.03","LONDON A","6144473","2023-04-19 07:00","2023","04","19","07:00","0.1","","-4.1","","73","","","","33","","23","","24.1","","98.62","","","","","","Cloudy"
"-81.15","43.03","LONDON A","6144473","2023-04-19 08:00","2023","04","19","08:00","0.6","","-4.5","","69","","","","33","","21","","24.1","","98.70","","","","","","NA"
"-81.15","43.03","LONDON A","6144473","2023-04-19 09:00","2023","04","19","09:00","1.8","","-3.5","","68","","","","34","","23","","24.1","","98.79","","","","","","NA"
"-81.15","43.03","LONDON A","6144473","2023-04-19 10:00","2023","04","19","10:00","2.6","","-3.2","","66","","","","33","","16","","24.1","","98.75","","","","","","Mostly Cloudy"
"-81.15","43.03","LONDON A","6144473","2023-04-19 11:00","2023","04","19","11:00","3.7","","-2.5","","64","","","","36","","10","","24.1","","98.81","","","","","","NA"
"-81.15","43.03","LONDON A","6144473","2023-04-19 12:00","2023","04","19","12:00","4.7","","-1.7","","63","","","","28","","12","","24.1","","98.80","","","","","","NA"
"-81.15","43.03","LONDON A","6144473","2023-04-19 13:00","2023","04","19","13:00","6.6","","-1.1","","58","","","","23","","9","","24.1","","98.75","","","","","","Mainly Clear"
"-81.15","43.03","LONDON A","6144473","2023-04-19 14:00","2023","04","19","14:00","8.3","","0.7","","58","","","","24","","7","","24.1","","98.72","","","","","","NA"
"-81.15","43.03","LONDON A","6144473","2023-04-19 15:00","2023","04","19","15:00","8.6","","-0.1","","54","","","","30","","8","","24.1","","98.67","","","","","","NA"
"-81.15","43.03","LONDON A","6144473","2023-04-19 16:00","2023","04","19","16:00","8.8","","0.0","","54","","","","31","","12","","24.1","","98.65","","","","","","Mostly Cloudy"
"-81.15","43.03","LONDON A","6144473","2023-04-19 17:00","2023","04","19","17:00","8.7","","0.3","","56","","","","35","","12","","24.1","","98.63","","","","","","NA"
"-81.15","43.03","LONDON A","6144473","2023-04-19 18:00","2023","04","19","18:00","7.8","","1.4","","64","","","","2","","10","","24.1","","98.64","","","","","","NA"
"-81.15","43.03","LONDON A","6144473","2023-04-19 19:00","2023","04","19","19:00","7.3","","0.9","","64","","","","3","","10","","24.1","","98.65","","","","","","Cloudy"
"-81.15","43.03","LONDON A","6144473","2023-04-19 20:00","2023","04","19","20:00","6.8","","1.6","","69","","","","5","","11","","24.1","","98.64","","","","","","NA"
"-81.15","43.03","LONDON A","6144473","2023-04-19 21:00","2023","04","19","21:00","6.7","","2.8","","76","","","","33","","5","","24.1","","98.81","","","","","","NA"
"-81.15","43.03","LONDON A","6144473","2023-04-19 22:00","2023","04","19","22:00","5.7","","2.2","","78","","","","4","","10","","24.1","","98.78","","","","","","Mainly Clear"
"-81.15","43.03","LONDON A","6144473","2023-04-19 23:00","2023","04","19","23:00","6.4","","2.2","","75","","","","6","","10","","24.1","","98.78","","","","","","Rain Showers"
"-81.15","43.03","LONDON A","6144473","2023-04-20 00:00","2023","04","20","00:00","6.0","","3.2","","82","","","","5","","10","","24.1","","98.81","","","","","","Rain Showers"
"-81.15","43.03","LONDON A","6144473","2023-04-20 01:00","2023","04","20","01:00","6.0","","3.2","","82","","","","8","","18","","24.1","","98.73","","","","","","Cloudy"
"-81.15","43.03","LONDON A","6144473","2023-04-20 02:00","2023","04","20","02:00","6.0","","2.1","","76","","","","8","","23","","24.1","","98.61","","","","","","NA"
"-81.15","43.03","LONDON A","6144473","2023-04-20 03:00","2023","04","20","03:00","6.1","","2.0","","75","","","","7","","16","","24.1","","98.72","","","","","","NA"
"-81.15","43.03","LONDON A","6144473","2023-04-20 04:00","2023","04","20","04:00","5.3","","2.5","","82","","","","8","","24","","24.1","","98.74","","","","","","Rain Showers"
"-81.15","43.03","LONDON A","6144473","2023-04-20 05:00","2023","04","20","05:00","4.6","","1.5","","80","","","","8","","25","","24.1","","98.78","","","","","","NA"
"-81.15","43.03","LONDON A","6144473","2023-04-20 06:00","2023","04","20","06:00","4.4","","1.4","","80","","","","8","","26","","24.1","","98.80","","","","","","NA"
"-81.15","43.03","LONDON A","6144473","2023-04-20 07:00","2023","04","20","07:00","4.3","","1.4","","82","","","","9","","28","","24.1","","98.77","","","","","","Mostly Cloudy"
"-81.15","43.03","LONDON A","6144473","2023-04-20 08:00","2023","04","20","08:00","5.2","","1.6","","78","","","","10","","35","","24.1","","98.77","","","","","","NA"
"-81.15","43.03","LONDON A","6144473","2023-04-20 09:00","2023","04","20","09:00","6.6","","2.3","","74","","","","9","","35","","24.1","","98.74","","","","","","NA"
"-81.15","43.03","LONDON A","6144473","2023-04-20 10:00","2023","04","20","10:00","8.4","","2.6","","67","","","","8","","31","","24.1","","98.72","","","","","","Mostly Cloudy"
"-81.15","43.03","LONDON A","6144473","2023-04-20 11:00","2023","04","20","11:00","11.1","","3.4","","59","","","","9","","27","","24.1","","98.68","","","","","","NA"
"-81.15","43.03","LONDON A","6144473","2023-04-20 12:00","2023","04","20","12:00","12.4","","3.5","","54","","","","10","","25","","24.1","","98.61","","","","","","NA"
"-81.15","43.03","LONDON A","6144473","2023-04-20 13:00","2023","04","20","13:00","13.8","","3.7","","51","","","","11","","23","","24.1","","98.59","","","","","","Cloudy"
"-81.15","43.03","LONDON A","6144473","2023-04-20 14:00","2023","04","20","14:00","14.5","","4.7","","51","","","","11","","30","","24.1","","98.39","","","","","","NA"
"-81.15","43.03","LONDON A","6144473","2023-04-20 15:00","2023","04","20","15:00","14.8","","5.1","","52","","","","10","","27","","24.1","","98.33","","","","","","NA"
"-81.15","43.03","LONDON A","6144473","2023-04-20 16:00","2023","04","20","16:00","15.7","","5.8","","51","","","","11","","22","","24.1","","98.41","","","","","","Mostly Cloudy"
"-81.15","43.03","LONDON A","6144473","2023-04-20 17:00","2023","04","20","17:00","14.8","","5.6","","54","","","","9","","24","","24.1","","98.38","","","","","","NA"
"-81.15","43.03","LONDON A","6144473","2023-04-20 18:00","2023","04","20","18:00","12.1","","4.5","","59","","","","10","","31","","24.1","","98.21","","","","","","NA"
"-81.15","43.03","LONDON A","6144473","2023-04-20 19:00","2023","04","20","19:00","10.3","","3.9","","64","","","","10","","27","","24.1","","98.03","","","","","","Cloudy"
"-81.15","43.03","LONDON A","6144473","2023-04-20 20:00","2023","04","20","20:00","8.2","","2.8","","68","","","","9","","25","","24.1","","98.14","","","","","","NA"
"-81.15","43.03","LONDON A","6144473","2023-04-20 21:00","2023","04","20","21:00","7.5","","1.6","","66","","","","9","","22","","24.1","","98.16","","","","","","NA"
"-81.15","43.03","LONDON A","6144473","2023-04-20 22:00","2023","04","20","22:00","6.9","","1.7","","69","","","","9","","28","","24.1","","98.12","","","","","","Mostly Cloudy"
"-81.15","43.03","LONDON A","6144473","2023-04-20 23:00","2023","04","20","23:00","6.8","","2.1","","72","","","","8","","19","","24.1","","98.08","","","","","","NA"
"-81.15","43.03","LONDON A","6144473","2023-04-21 00:00","2023","04","21","00:00","7.3","","2.7","","72","","","","8","","16","","24.1","","98.06","","","","","","NA"
"-81.15","43.03","LONDON A","6144473","2023-04-21 01:00","2023","04","21","01:00","7.5","","3.2","","74","","","","9","","14","","24.1","","98.05","","","","","","Cloudy"
"-81.15","43.03","LONDON A","6144473","2023-04-21 02:00","2023","04","21","02:00","7.8","","3.6","","74","","","","7","","12","","24.1","","98.02","","","","","","NA"
"-81.15","43.03","LONDON A","6144473","2023-04-21 03:00","2023","04","21","03:00","7.2","","3.8","","79","","","","10","","12","","24.1","","98.01","","","","","","NA"
"-81.15","43.03","LONDON A","6144473","2023-04-21 04:00","2023","04","21","04:00","6.9","","3.5","","79","","","","9","","11","","24.1","","98.00","","","","","","Cloudy"
"-81.15","43.03","LONDON A","6144473","2023-04-21 05:00","2023","04","21","05:00","6.1","","3.3","","82","","","","11","","13","","24.1","","97.94","","","","","","NA"
"-81.15","43.03","LONDON A","6144473","2023-04-21 06:00","2023","04","21","06:00","6.0","","3.0","","81","","","","11","","14","","24.1","","97.94","","","","","","NA"
"-81.15","43.03","LONDON A","6144473","2023-04-21 07:00","2023","04","21","07:00","7.1","","3.3","","77","","","","13","","9","","24.1","","98.03","","","","","","Cloudy"
"-81.15","43.03","LONDON A","6144473","2023-04-21 08:00","2023","04","21","08:00","9.2","","4.2","","71","","","","12","","10","","24.1","","97.98","","","","","","NA"
"-81.15","43.03","LONDON A","6144473","2023-04-21 09:00","2023","04","21","09:00","13.3","","6.0","","61","","","","19","","11","","24.1","","97.95","","","","","","NA"
"-81.15","43.03","LONDON A","6144473","2023-04-21 10:00","2023","04","21","10:00","17.9","","9.6","","58","","","","22","","14","","24.1","","97.89","","","","","","Mostly Cloudy"
"-81.15","43.03","LONDON A","6144473","2023-04-21 11:00","2023","04","21","11:00","19.1","","11.3","","60","","","","23","","15","","24.1","","97.89","","","","","","NA"
"-81.15","43.03","LONDON A","6144473","2023-04-21 12:00","2023","04","21","12:00","20.1","","13.1","","64","","","","24","","17","","24.1","","97.84","","","","","","NA"
"-81.15","43.03","LONDON A","6144473","2023-04-21 13:00","2023","04","21","13:00","11.7","","9.8","","88","","","","30","","25","","4.8","","97.99","","","","","","Moderate Rain Showers"
"-81.15","43.03","LONDON A","6144473","2023-04-21 14:00","2023","04","21","14:00","10.4","","8.6","","89","","","","33","","17","","24.1","","97.98","","","","","","NA"
"-81.15","43.03","LONDON A","6144473","2023-04-21 15:00","2023","04","21","15:00","10.7","","8.3","","85","","","","31","","12","","19.3","","98.01","","","","","","Rain Showers"
"-81.15","43.03","LONDON A","6144473","2023-04-21 16:00","2023","04","21","16:00","10.7","","7.5","","81","","","","33","","14","","24.1","","97.96","","","","","","Cloudy"
"-81.15","43.03","LONDON A","6144473","2023-04-21 17:00","2023","04","21","17:00","9.8","","7.4","","85","","","","33","","14","","24.1","","98.00","","","","","","Rain"
"-81.15","43.03","LONDON A","6144473","2023-04-21 18:00","2023","04","21","18:00","8.9","","5.5","","79","","","","32","","16","","24.1","","97.96","","","","","","NA"
"-81.15","43.03","LONDON A","6144473","2023-04-21 19:00","2023","04","21","19:00","8.5","","6.3","","86","","","","34","","10","","19.3","","97.91","","","","","","Rain"
"-81.15","43.03","LONDON A","6144473","2023-04-21 20:00","2023","04","21","20:00","7.9","","6.8","","93","","","","34","","4","","24.1","","97.96","","","","","","NA"
"-81.15","43.03","LONDON A","6144473","2023-04-21 21:00","2023","04","21","21:00","8.1","","7.2","","94","","","","22","","9","","24.1","","98.09","","","","","","Rain"
"-81.15","43.03","LONDON A","6144473","2023-04-21 22:00","2023","04","21","22:00","8.0","","7.3","","95","","","","12","","9","","24.1","","98.00","","","","","","Rain"
"-81.15","43.03","LONDON A","6144473","2023-04-21 23:00","2023","04","21","23:00","7.8","","7.4","","97","","","","17","","6","","19.3","","97.94","","","","","","Rain"
"-81.15","43.03","LONDON A","6144473","2023-04-22 00:00","2023","04","22","00:00","7.7","","7.4","","98","","","","11","","16","","24.1","","97.75","","","","","","NA"
"-81.15","43.03","LONDON A","6144473","2023-04-22 01:00","2023","04","22","01:00","7.8","","7.2","","96","","","","11","","14","","24.1","","97.64","","","","","","Cloudy"
"-81.15","43.03","LONDON A","6144473","2023-04-22 02:00","2023","04","22","02:00","7.5","","7.1","","97","","","","34","","5","","24.1","","97.53","","","","","","NA"
"-81.15","43.03","LONDON A","6144473","2023-04-22 03:00","2023","04","22","03:00","7.9","","7.4","","96","","","","36","","2","","9.7","","97.59","","","","","","Rain"
"-81.15","43.03","LONDON A","6144473","2023-04-22 04:00","2023","04","22","04:00","7.7","","7.3","","98","","","","34","","14","","4.0","","97.51","","","","","","Rain,Fog"
"-81.15","43.03","LONDON A","6144473","2023-04-22 05:00","2023","04","22","05:00","7.6","","7.3","","98","","","","35","","18","","4.0","","97.35","","","","","","Rain,Fog"
"-81.15","43.03","LONDON A","6144473","2023-04-22 06:00","2023","04","22","06:00","7.4","","7.1","","98","","","","31","","14","","3.2","","97.33","","","","","","Rain,Fog"
"-81.15","43.03","LONDON A","6144473","2023-04-22 07:00","2023","04","22","07:00","7.5","","7.1","","98","","","","33","","14","","4.0","","97.36","","","","","","Moderate Rain,Fog"
"-81.15","43.03","LONDON A","6144473","2023-04-22 08:00","2023","04","22","08:00","7.7","","7.3","","97","","","","32","","12","","4.8","","97.28","","","","","","Rain,Fog"
"-81.15","43.03","LONDON A","6144473","2023-04-22 09:00","2023","04","22","09:00","8.1","","7.5","","96","","","","31","","12","","4.8","","97.23","","","","","","Rain,Fog"
"-81.15","43.03","LONDON A","6144473","2023-04-22 10:00","2023","04","22","10:00","7.0","","6.0","","94","","","","30","","15","","4.8","","97.25","","","","","","Rain,Fog"
"-81.15","43.03","LONDON A","6144473","2023-04-22 11:00","2023","04","22","11:00","6.8","","5.8","","93","","","","29","","20","","8.1","","97.29","","","","","","Rain,Fog"
"-81.15","43.03","LONDON A","6144473","2023-04-22 12:00","2023","04","22","12:00","6.3","","4.9","","90","","","","29","","21","","6.4","","97.37","","","","","","Rain,Fog"
"-81.15","43.03","LONDON A","6144473","2023-04-22 13:00","2023","04","22","13:00","8.0","","6.9","","93","","","","31","","14","","16.1","","97.35","","","","","","Rain"
"-81.15","43.03","LONDON A","6144473","2023-04-22 14:00","2023","04","22","14:00","9.4","","6.9","","84","","","","30","","12","","24.1","","97.40","","","","","","NA"
"-81.15","43.03","LONDON A","6144473","2023-04-22 15:00","2023","04","22","15:00","10.3","","5.1","","70","","","","24","","9","","24.1","","97.41","","","","","","NA"
"-81.15","43.03","LONDON A","6144473","2023-04-22 16:00","2023","04","22","16:00","10.4","","4.1","","65","","","","24","","12","","24.1","","97.39","","","","","","Mostly Cloudy"
"-81.15","43.03","LONDON A","6144473","2023-04-22 17:00","2023","04","22","17:00","7.0","","6.0","","94","","","","24","","28","","6.4","","97.53","","","","","","Rain Showers,Fog"
"-81.15","43.03","LONDON A","6144473","2023-04-22 18:00","2023","04","22","18:00","7.2","","6.0","","92","","","","25","","10","","24.1","","97.57","","","","","","NA"
"-81.15","43.03","LONDON A","6144473","2023-04-22 19:00","2023","04","22","19:00","7.2","","6.0","","92","","","","23","","15","","24.1","","97.63","","","","","","Mostly Cloudy"
"-81.15","43.03","LONDON A","6144473","2023-04-22 20:00","2023","04","22","20:00","6.2","","5.0","","91","","","","26","","11","","24.1","","97.66","","","","","","NA"
"-81.15","43.03","LONDON A","6144473","2023-04-22 21:00","2023","04","22","21:00","5.6","","4.4","","92","","","","23","","9","","24.1","","97.73","","","","","","NA"
"-81.15","43.03","LONDON A","6144473","2023-04-22 22:00","2023","04","22","22:00","6.0","","4.2","","88","","","","24","","15","","24.1","","97.74","","","","","","Cloudy"
"-81.15","43.03","LONDON A","6144473","2023-04-22 23:00","2023","04","22","23:00","5.3","","3.4","","87","","","","25","","21","","24.1","","97.77","","","","","","NA"
"-81.15","43.03","LONDON A","6144473","2023-04-23 00:00","2023","04","23","00:00","4.7","","2.9","","88","","","","26","","10","","24.1","","97.77","","","","","","NA"
"-81.15","43.03","LONDON A","6144473","2023-04-23 01:00","2023","04","23","01:00","4.5","","2.7","","88","","","","25","","14","","24.1","","97.78","","","","","","Mostly Cloudy"
"-81.15","43.03","LONDON A","6144473","2023-04-23 02:00","2023","04","23","02:00","3.6","","2.2","","90","","","","26","","9","","24.1","","97.79","","","","","","NA"
"-81.15","43.03","LONDON A","6144473","2023-04-23 03:00","2023","04","23","03:00","3.4","","1.6","","88","","","","26","","13","","24.1","","97.80","","","","","","NA"
"-81.15","43.03","LONDON A","6144473","2023-04-23 04:00","2023","04","23","04:00","3.2","","1.1","","87","","","","25","","10","","24.1","","97.88","","","","","","Mostly Cloudy"
"-81.15","43.03","LONDON A","6144473","2023-04-23 05:00","2023","04","23","05:00","2.7","","0.7","","87","","","","25","","13","","24.1","","97.93","","","","","","NA"
"-81.15","43.03","LONDON A","6144473","2023-04-23 06:00","2023","04","23","06:00","2.0","","0.5","","90","","","","23","","11","","19.3","","97.99","","","","","","NA"
"-81.15","43.03","LONDON A","6144473","2023-04-23 07:00","2023","04","23","07:00","2.6","","0.8","","88","","","","26","","11","","24.1","","98.04","","","","","","Mostly Cloudy"
"-81.15","43.03","LONDON A","6144473","2023-04-23 08:00","2023","04","23","08:00","3.8","","0.7","","80","","","","27","","19","","24.1","","98.05","","","","","","NA"
"-81.15","43.03","LONDON A","6144473","2023-04-23 09:00","2023","04","23","09:00","4.7","","0.5","","74","","","","25","","17","","24.1","","98.09","","","","","","NA"
"-81.15","43.03","LONDON A","6144473","2023-04-23 10:00","2023","04","23","10:00","5.2","","-0.4","","67","","","","24","","15","","24.1","","98.13","","","","","","Cloudy"
"-81.15","43.03","LONDON A","6144473","2023-04-23 11:00","2023","04","23","11:00","5.6","","-0.4","","65","","","","27","","17","","24.1","","98.16","","","","","","NA"
"-81.15","43.03","LONDON A","6144473","2023-04-23 12:00","2023","04","23","12:00","6.0","","0.1","","66","","","","25","","14","","24.1","","98.18","","","","","","NA"
"-81.15","43.03","LONDON A","6144473","2023-04-23 13:00","2023","04","23","13:00","5.9","","-0.5","","64","","","","24","","16","","24.1","","98.21","","","","","","Rain Showers"
"-81.15","43.03","LONDON A","6144473","2023-04-23 14:00","2023","04","23","14:00","4.9","","0.7","","75","","","","25","","5","","24.1","","98.26","","","","","","NA"
"-81.15","43.03","LONDON A","6144473","2023-04-23 15:00","2023","04","23","15:00","5.5","","-0.2","","67","","","","24","","17","","24.1","","98.27","","","","","","Rain Showers"
"-81.15","43.03","LONDON A","6144473","2023-04-23 16:00","2023","04","23","16:00","4.8","","0.6","","74","","","","30","","14","","24.1","","98.30","","","","","","Rain Showers"
"-81.15","43.03","LONDON A","6144473","2023-04-23 17:00","2023","04","23","17:00","5.1","","1.1","","75","","","","28","","5","","24.1","","98.35","","","","","","NA"
"-81.15","43.03","LONDON A","6144473","2023-04-23 18:00","2023","04","23","18:00","5.4","","0.6","","71","","","","18","","7","","24.1","","98.36","","","","","","NA"
"-81.15","43.03","LONDON A","6144473","2023-04-23 19:00","2023","04","23","19:00","3.8","","1.5","","85","","","","33","","9","","12.9","","98.43","","","","","","Moderate Rain Showers"
"-81.15","43.03","LONDON A","6144473","2023-04-23 20:00","2023","04","23","20:00","2.9","","2.1","","94","","","","4","","3","","24.1","","98.46","","","","","","NA"
"-81.15","43.03","LONDON A","6144473","2023-04-23 21:00","2023","04","23","21:00","3.5","","1.8","","89","","","","28","","4","","24.1","","98.49","","","","","","NA"
"-81.15","43.03","LONDON A","6144473","2023-04-23 22:00","2023","04","23","22:00","3.0","","1.7","","91","","","","26","","5","","24.1","","98.49","","","","","","Mostly Cloudy"
"-81.15","43.03","LONDON A","6144473","2023-04-23 23:00","2023","04","23","23:00","3.3","","1.2","","87","","","","32","","7","","24.1","","98.46","","","","","","NA"
"-81.15","43.03","LONDON A","6144473","2023-04-24 00:00","2023","04","24","00:00","2.5","","1.1","","91","","","","22","","7","","24.1","","98.45","","","","","","NA"
"-81.15","43.03","LONDON A","6144473","2023-04-24 01:00","2023","04","24","01:00","2.4","","1.1","","91","","","","26","","3","","24.1","","98.44","","","","","","Mostly Cloudy"
"-81.15","43.03","LONDON A","6144473","2023-04-24 02:00","2023","04","24","02:00","2.4","","1.2","","92","","","","26","","9","","24.1","","98.44","","","","","","NA"
"-81.15","43.03","LONDON A","6144473","2023-04-24 03:00","2023","04","24","03:00","2.4","","1.3","","92","","","","27","","9","","24.1","","98.44","","","","","","NA"
"-81.15","43.03","LONDON A","6144473","2023-04-24 04:00","2023","04","24","04:00","2.4","","1.2","","92","","","","30","","10","","24.1","","98.44","","","","","","Cloudy"
"-81.15","43.03","LONDON A","6144473","2023-04-24 05:00","2023","04","24","05:00","2.3","","1.0","","91","","","","29","","7","","24.1","","98.46","","","","","","NA"
"-81.15","43.03","LONDON A","6144473","2023-04-24 06:00","2023","04","24","06:00","2.1","","1.1","","93","","","","28","","7","","24.1","","98.51","","","","","","NA"
"-81.15","43.03","LONDON A","6144473","2023-04-24 07:00","2023","04","24","07:00","2.5","","1.5","","93","","","","30","","13","","24.1","","98.55","","","","","","Cloudy"
"-81.15","43.03","LONDON A","6144473","2023-04-24 08:00","2023","04","24","08:00","3.3","","1.1","","85","","","","34","","16","","24.1","","98.59","","","","","","NA"
"-81.15","43.03","LONDON A","6144473","2023-04-24 09:00","2023","04","24","09:00","4.1","","0.0","","75","","","","29","","20","","24.1","","98.61","","","","","","NA"
"-81.15","43.03","LONDON A","6144473","2023-04-24 10:00","2023","04","24","10:00","4.8","","0.0","","71","","","","29","","20","","24.1","","98.64","","","","","","Mostly Cloudy"
"-81.15","43.03","LONDON A","6144473","2023-04-24 11:00","2023","04","24","11:00","4.8","","-1.5","","63","","","","28","","13","","24.1","","98.65","","","","","","NA"
"-81.15","43.03","LONDON A","6144473","2023-04-24 12:00","2023","04","24","12:00","5.5","","-2.0","","59","","","","30","","11","","24.1","","98.64","","","","","","NA"
"-81.15","43.03","LONDON A","6144473","2023-04-24 13:00","2023","04","24","13:00","4.8","","-2.2","","61","","","","31","","16","","24.1","","98.67","","","","","","Cloudy"
"-81.15","43.03","LONDON A","6144473","2023-04-24 14:00","2023","04","24","14:00","5.5","","-2.4","","57","","","","30","","18","","24.1","","98.68","","","","","","NA"
"-81.15","43.03","LONDON A","6144473","2023-04-24 15:00","2023","04","24","15:00","5.4","","-3.2","","54","","","","28","","17","","24.1","","98.69","","","","","","NA"
"-81.15","43.03","LONDON A","6144473","2023-04-24 16:00","2023","04","24","16:00","5.1","","-2.8","","57","","","","29","","15","","24.1","","98.70","","","","","","Mostly Cloudy"
"-81.15","43.03","LONDON A","6144473","2023-04-24 17:00","2023","04","24","17:00","5.1","","-2.9","","56","","","","27","","20","","24.1","","98.73","","","","","","NA"
"-81.15","43.03","LONDON A","6144473","2023-04-24 18:00","2023","04","24","18:00","4.7","","-2.2","","61","","","","28","","13","","24.1","","98.71","","","","","","NA"
"-81.15","43.03","LONDON A","6144473","2023-04-24 19:00","2023","04","24","19:00","4.3","","-1.9","","64","","","","26","","11","","24.1","","98.73","","","","","","Mostly Cloudy"
"-81.15","43.03","LONDON A","6144473","2023-04-24 20:00","2023","04","24","20:00","3.2","","-1.6","","71","","","","23","","10","","24.1","","98.76","","","","","","NA"
"-81.15","43.03","LONDON A","6144473","2023-04-24 21:00","2023","04","24","21:00","2.6","","-1.4","","75","","","","21","","10","","24.1","","98.78","","","","","","NA"
"-81.15","43.03","LONDON A","6144473","2023-04-24 22:00","2023","04","24","22:00","2.2","","-0.2","","84","","","","20","","11","","24.1","","98.76","","","","","","Mainly Clear"
"-81.15","43.03","LONDON A","6144473","2023-04-24 23:00","2023","04","24","23:00","1.2","","-0.6","","87","","","","22","","9","","24.1","","98.74","","","","","","NA"
"-81.15","43.03","LONDON A","6144473","2023-04-25 00:00","2023","04","25","00:00","1.3","","-0.9","","85","","","","21","","12","","24.1","","98.73","","","","","","NA"
"-81.15","43.03","LONDON A","6144473","2023-04-25 01:00","2023","04","25","01:00","1.2","","-1.4","","83","","","","23","","9","","24.1","","98.71","","","","","","Mainly Clear"
"-81.15","43.03","LONDON A","6144473","2023-04-25 02:00","2023","04","25","02:00","2.4","","-1.1","","78","","","","24","","11","","24.1","","98.69","","","","","","NA"
"-81.15","43.03","LONDON A","6144473","2023-04-25 03:00","2023","04","25","03:00","2.4","","-0.3","","82","","","","22","","12","","24.1","","98.70","","","","","","NA"
"-81.15","43.03","LONDON A","6144473","2023-04-25 04:00","2023","04","25","04:00","2.3","","-0.2","","84","","","","24","","9","","24.1","","98.71","","","","","","Mainly Clear"
"-81.15","43.03","LONDON A","6144473","2023-04-25 05:00","2023","04","25","05:00","1.2","","-0.5","","88","","","","24","","5","","24.1","","98.73","","","","","","NA"
"-81.15","43.03","LONDON A","6144473","2023-04-25 06:00","2023","04","25","06:00","0.7","","-0.6","","91","","","","24","","9","","19.3","","98.76","","","","","","NA"
"-81.15","43.03","LONDON A","6144473","2023-04-25 07:00","2023","04","25","07:00","2.9","","0.0","","81","","","","26","","10","","24.1","","98.79","","","","","","Mainly Clear"
"-81.15","43.03","LONDON A","6144473","2023-04-25 08:00","2023","04","25","08:00","5.1","","-1.1","","64","","","","29","","11","","24.1","","98.80","","","","","","NA"
"-81.15","43.03","LONDON A","6144473","2023-04-25 09:00","2023","04","25","09:00","6.7","","-2.5","","52","","","","27","","19","","24.1","","98.80","","","","","","NA"
"-81.15","43.03","LONDON A","6144473","2023-04-25 10:00","2023","04","25","10:00","7.9","","-1.8","","50","","","","25","","17","","24.1","","98.78","","","","","","Mostly Cloudy"
"-81.15","43.03","LONDON A","6144473","2023-04-25 11:00","2023","04","25","11:00","7.5","","-2.6","","49","","","","27","","18","","24.1","","98.78","","","","","","NA"
"-81.15","43.03","LONDON A","6144473","2023-04-25 12:00","2023","04","25","12:00","7.2","","-2.8","","49","","","","27","","14","","24.1","","98.78","","","","","","NA"
"-81.15","43.03","LONDON A","6144473","2023-04-25 13:00","2023","04","25","13:00","6.6","","-0.2","","62","","","","27","","11","","24.1","","98.79","","","","","","Cloudy"
"-81.15","43.03","LONDON A","6144473","2023-04-25 14:00","2023","04","25","14:00","7.4","","0.2","","60","","","","28","","11","","24.1","","98.80","","","","","","NA"
"-81.15","43.03","LONDON A","6144473","2023-04-25 15:00","2023","04","25","15:00","6.7","","0.1","","63","","","","21","","11","","24.1","","98.80","","","","","","NA"
"-81.15","43.03","LONDON A","6144473","2023-04-25 16:00","2023","04","25","16:00","4.8","","2.6","","86","","","","23","","21","","16.1","","98.80","","","","","","Rain Showers"
"-81.15","43.03","LONDON A","6144473","2023-04-25 17:00","2023","04","25","17:00","3.6","","2.3","","91","","","","31","","8","","9.7","","98.81","","","","","","Rain Showers,Fog"
"-81.15","43.03","LONDON A","6144473","2023-04-25 18:00","2023","04","25","18:00","3.6","","2.5","","92","","","","32","","6","","9.7","","98.81","","","","","","Rain Showers,Fog"
"-81.15","43.03","LONDON A","6144473","2023-04-25 19:00","2023","04","25","19:00","3.7","","2.4","","91","","","","23","","10","","9.7","","98.81","","","","","","Rain Showers,Fog"
"-81.15","43.03","LONDON A","6144473","2023-04-25 20:00","2023","04","25","20:00","3.6","","2.4","","92","","","","23","","8","","24.1","","98.83","","","","","","Rain"
"-81.15","43.03","LONDON A","6144473","2023-04-25 21:00","2023","04","25","21:00","3.2","","2.4","","94","","","","22","","6","","24.1","","98.85","","","","","","NA"
"-81.15","43.03","LONDON A","6144473","2023-04-25 22:00","2023","04","25","22:00","2.5","","2.0","","97","","","","19","","7","","9.7","","98.85","","","","","","Fog"
"-81.15","43.03","LONDON A","6144473","2023-04-25 23:00","2023","04","25","23:00","2.6","","2.0","","96","","","","21","","5","","8.1","","98.85","","","","","","Fog"
"-81.15","43.03","LONDON A","6144473","2023-04-26 00:00","2023","04","26","00:00","2.8","","2.2","","96","","","","26","","4","","2.4","","98.87","","","","","","Fog"
"-81.15","43.03","LONDON A","6144473","2023-04-26 01:00","2023","04","26","01:00","2.6","","2.1","","97","","","","28","","6","","2.4","","98.85","","","","","","Fog"
"-81.15","43.03","LONDON A","6144473","2023-04-26 02:00","2023","04","26","02:00","2.1","","1.9","","98","","","","28","","4","","2.4","","98.84","","","","","","Fog"
"-81.15","43.03","LONDON A","6144473","2023-04-26 03:00","2023","04","26","03:00","2.2","","2.1","","99","","","","28","","4","","1.6","","98.86","","","","","","Fog"
"-81.15","43.03","LONDON A","6144473","2023-04-26 04:00","2023","04","26","04:00","1.3","","1.1","","99","","","","22","","7","","1.6","","98.87","","","","","","Fog"
"-81.15","43.03","LONDON A","6144473","2023-04-26 05:00","2023","04","26","05:00","0.7","","0.6","","99","","","","2","","5","","0.2","","98.91","","","","","","Fog"
"-81.15","43.03","LONDON A","6144473","2023-04-26 06:00","2023","04","26","06:00","1.2","","1.1","","99","","","","36","","2","","0.4","","98.94","","","","","","Fog"
"-81.15","43.03","LONDON A","6144473","2023-04-26 07:00","2023","04","26","07:00","0.9","","0.9","","100","","","","32","","5","","0.4","","98.98","","","","","","Fog"
"-81.15","43.03","LONDON A","6144473","2023-04-26 08:00","2023","04","26","08:00","2.9","","1.9","","93","","","","35","","4","","24.1","","98.98","","","","","","NA"
"-81.15","43.03","LONDON A","6144473","2023-04-26 09:00","2023","04","26","09:00","4.9","","1.0","","76","","","","35","","11","","24.1","","98.97","","","","","","NA"
"-81.15","43.03","LONDON A","6144473","2023-04-26 10:00","2023","04","26","10:00","5.5","","1.7","","77","","","","27","","16","","24.1","","98.98","","","","","","Mostly Cloudy"
"-81.15","43.03","LONDON A","6144473","2023-04-26 11:00","2023","04","26","11:00","6.2","","1.5","","72","","","","29","","15","","19.3","","98.98","","","","","","NA"
"-81.15","43.03","LONDON A","6144473","2023-04-26 12:00","2023","04","26","12:00","6.6","","1.4","","69","","","","31","","12","","19.3","","98.97","","","","","","NA"
"-81.15","43.03","LONDON A","6144473","2023-04-26 13:00","2023","04","26","13:00","6.9","","0.9","","65","","","","33","","8","","24.1","","98.95","","","","","","Mostly Cloudy"
"-81.15","43.03","LONDON A","6144473","2023-04-26 14:00","2023","04","26","14:00","8.0","","1.4","","63","","","","33","","13","","24.1","","98.95","","","","","","NA"
"-81.15","43.03","LONDON A","6144473","2023-04-26 15:00","2023","04","26","15:00","8.0","","0.0","","57","","","","28","","18","","24.1","","98.91","","","","","","NA"
"-81.15","43.03","LONDON A","6144473","2023-04-26 16:00","2023","04","26","16:00","7.8","","-0.4","","56","","","","30","","12","","24.1","","98.93","","","","","","Mostly Cloudy"
"-81.15","43.03","LONDON A","6144473","2023-04-26 17:00","2023","04","26","17:00","7.8","","-0.7","","55","","","","33","","19","","24.1","","98.95","","","","","","NA"
"-81.15","43.03","LONDON A","6144473","2023-04-26 18:00","2023","04","26","18:00","7.3","","-1.7","","53","","","","33","","12","","24.1","","98.92","","","","","","NA"
"-81.15","43.03","LONDON A","6144473","2023-04-26 19:00","2023","04","26","19:00","6.0","","-1.6","","59","","","","33","","7","","24.1","","98.92","","","","","","Mainly Clear"
"-81.15","43.03","LONDON A","6144473","2023-04-26 20:00","2023","04","26","20:00","4.0","","-0.2","","74","","","","35","","6","","24.1","","98.96","","","","","","NA"
"-81.15","43.03","LONDON A","6144473","2023-04-26 21:00","2023","04","26","21:00","3.1","","-1.2","","73","","","","35","","9","","24.1","","98.97","","","","","","NA"
"-81.15","43.03","LONDON A","6144473","2023-04-26 22:00","2023","04","26","22:00","1.9","","-1.6","","78","","","","36","","7","","24.1","","98.94","","","","","","Mainly Clear"
"-81.15","43.03","LONDON A","6144473","2023-04-26 23:00","2023","04","26","23:00","2.6","","-1.7","","74","","","","35","","6","","24.1","","98.95","","","","","","NA"
"-81.15","43.03","LONDON A","6144473","2023-04-27 00:00","2023","04","27","00:00","2.0","","-1.2","","79","","","","36","","1","","24.1","","98.94","","","","","","NA"
"-81.15","43.03","LONDON A","6144473","2023-04-27 01:00","2023","04","27","01:00","1.6","","0.3","","91","","","","36","","3","","24.1","","98.92","","","","","","Cloudy"
"-81.15","43.03","LONDON A","6144473","2023-04-27 02:00","2023","04","27","02:00","2.5","","-0.6","","80","","","","36","","2","","24.1","","98.92","","","","","","NA"
"-81.15","43.03","LONDON A","6144473","2023-04-27 03:00","2023","04","27","03:00","1.2","","-0.3","","90","","","","4","","5","","24.1","","98.90","","","","","","NA"
"-81.15","43.03","LONDON A","6144473","2023-04-27 04:00","2023","04","27","04:00","1.6","","-0.6","","85","","","","8","","3","","24.1","","98.92","","","","","","Mostly Cloudy"
"-81.15","43.03","LONDON A","6144473","2023-04-27 05:00","2023","04","27","05:00","0.3","","-0.7","","93","","","","36","","1","","24.1","","98.95","","","","","","NA"
"-81.15","43.03","LONDON A","6144473","2023-04-27 06:00","2023","04","27","06:00","-0.3","","-1.7","","90","","","","36","","2","","24.1","","98.97","","","","-1","","NA"
"-81.15","43.03","LONDON A","6144473","2023-04-27 07:00","2023","04","27","07:00","2.8","","-0.3","","80","","","","9","","7","","24.1","","98.98","","","","","","Mainly Clear"
"-81.15","43.03","LONDON A","6144473","2023-04-27 08:00","2023","04","27","08:00","5.7","","-0.3","","65","","","","13","","12","","24.1","","98.94","","","","","","NA"
"-81.15","43.03","LONDON A","6144473","2023-04-27 09:00","2023","04","27","09:00","7.7","","0.4","","60","","","","10","","4","","24.1","","98.93","","","","","","NA"
"-81.15","43.03","LONDON A","6144473","2023-04-27 10:00","2023","04","27","10:00","9.2","","0.0","","53","","","","10","","11","","24.1","","98.86","","","","","","Clear"
"-81.15","43.03","LONDON A","6144473","2023-04-27 11:00","2023","04","27","11:00","10.1","","-1.4","","45","","","","14","","14","","24.1","","98.81","","","","","","NA"
"-81.15","43.03","LONDON A","6144473","2023-04-27 12:00","2023","04","27","12:00","11.1","","0.3","","47","","","","14","","16","","24.1","","98.79","","","","","","NA"
"-81.15","43.03","LONDON A","6144473","2023-04-27 13:00","2023","04","27","13:00","12.1","","1.2","","47","","","","19","","18","","24.1","","98.71","","","","","","Mainly Clear"
"-81.15","43.03","LONDON A","6144473","2023-04-27 14:00","2023","04","27","14:00","12.0","","1.6","","49","","","","36","","2","","24.1","","98.67","","","","","","NA"
"-81.15","43.03","LONDON A","6144473","2023-04-27 15:00","2023","04","27","15:00","12.8","","1.8","","47","","","","13","","12","","24.1","","98.60","","","","","","NA"
"-81.15","43.03","LONDON A","6144473","2023-04-27 16:00","2023","04","27","16:00","13.5","","2.1","","46","","","","16","","12","","24.1","","98.54","","","","","","Mainly Clear"
"-81.15","43.03","LONDON A","6144473","2023-04-27 17:00","2023","04","27","17:00","13.4","","1.2","","43","","","","10","","18","","24.1","","98.49","","","","","","NA"
"-81.15","43.03","LONDON A","6144473","2023-04-27 18:00","2023","04","27","18:00","12.8","","-1.0","","38","","","","11","","19","","24.1","","98.43","","","","","","NA"
"-81.15","43.03","LONDON A","6144473","2023-04-27 19:00","2023","04","27","19:00","11.1","","-1.9","","40","","","","9","","12","","24.1","","98.39","","","","","","Mainly Clear"
"-81.15","43.03","LONDON A","6144473","2023-04-27 20:00","2023","04","27","20:00","9.0","","-0.4","","52","","","","6","","8","","24.1","","98.40","","","","","","NA"
"-81.15","43.03","LONDON A","6144473","2023-04-27 21:00","2023","04","27","21:00","7.4","","1.1","","64","","","","7","","21","","24.1","","98.42","","","","","","NA"
"-81.15","43.03","LONDON A","6144473","2023-04-27 22:00","2023","04","27","22:00","5.7","","-0.5","","64","","","","8","","21","","24.1","","98.40","","","","","","Mostly Cloudy"
"-81.15","43.03","LONDON A","6144473","2023-04-27 23:00","2023","04","27","23:00","5.2","","-0.4","","67","","","","7","","20","","24.1","","98.35","","","","","","NA"
"-81.15","43.03","LONDON A","6144473","2023-04-28 00:00","2023","04","28","00:00","5.1","","-0.6","","67","","","","7","","18","","24.1","","98.31","","","","","","NA"
"-81.15","43.03","LONDON A","6144473","2023-04-28 01:00","2023","04","28","01:00","4.9","","-0.8","","66","","","","7","","17","","24.1","","98.26","","","","","","Mainly Clear"
"-81.15","43.03","LONDON A","6144473","2023-04-28 02:00","2023","04","28","02:00","5.3","","-1.0","","64","","","","7","","23","","24.1","","98.13","","","","","","NA"
"-81.15","43.03","LONDON A","6144473","2023-04-28 03:00","2023","04","28","03:00","5.2","","-0.8","","65","","","","7","","19","","24.1","","98.10","","","","","","NA"
"-81.15","43.03","LONDON A","6144473","2023-04-28 04:00","2023","04","28","04:00","5.2","","-0.7","","66","","","","7","","16","","24.1","","98.04","","","","","","Mostly Cloudy"
"-81.15","43.03","LONDON A","6144473","2023-04-28 05:00","2023","04","28","05:00","5.5","","-0.2","","67","","","","7","","22","","24.1","","98.04","","","","","","NA"
"-81.15","43.03","LONDON A","6144473","2023-04-28 06:00","2023","04","28","06:00","5.9","","0.8","","69","","","","7","","24","","24.1","","98.02","","","","","","NA"
"-81.15","43.03","LONDON A","6144473","2023-04-28 07:00","2023","04","28","07:00","7.3","","2.4","","71","","","","7","","23","","24.1","","98.02","","","","","","Cloudy"
"-81.15","43.03","LONDON A","6144473","2023-04-28 08:00","2023","04","28","08:00","8.6","","3.9","","72","","","","8","","26","","24.1","","98.00","","","","","","NA"
"-81.15","43.03","LONDON A","6144473","2023-04-28 09:00","2023","04","28","09:00","9.9","","5.4","","74","","","","9","","25","","24.1","","97.99","","","","","","NA"
"-81.15","43.03","LONDON A","6144473","2023-04-28 10:00","2023","04","28","10:00","11.2","","6.7","","74","","","","9","","26","","24.1","","98.01","","","","","","Cloudy"
"-81.15","43.03","LONDON A","6144473","2023-04-28 11:00","2023","04","28","11:00","12.2","","7.6","","73","","","","9","","26","","24.1","","98.03","","","","","","NA"
"-81.15","43.03","LONDON A","6144473","2023-04-28 12:00","2023","04","28","12:00","12.5","","7.9","","73","","","","10","","22","","24.1","","98.03","","","","","","Rain Showers"
"-81.15","43.03","LONDON A","6144473","2023-04-28 13:00","2023","04","28","13:00","11.6","","9.6","","87","","","","9","","22","","12.9","","98.01","","","","","","Rain Showers"
"-81.15","43.03","LONDON A","6144473","2023-04-28 14:00","2023","04","28","14:00","12.4","","10.6","","88","","","","8","","28","","12.9","","97.93","","","","","","Rain"
"-81.15","43.03","LONDON A","6144473","2023-04-28 15:00","2023","04","28","15:00","11.2","","9.4","","89","","","","9","","30","","12.9","","97.84","","","","","","Rain"
"-81.15","43.03","LONDON A","6144473","2023-04-28 16:00","2023","04","28","16:00","10.7","","9.3","","91","","","","9","","29","","6.4","","97.81","","","","","","Rain,Fog"
"-81.15","43.03","LONDON A","6144473","2023-04-28 17:00","2023","04","28","17:00","10.3","","9.2","","93","","","","10","","37","","4.8","","97.77","","","","","","Moderate Rain,Fog"
"-81.15","43.03","LONDON A","6144473","2023-04-28 18:00","2023","04","28","18:00","10.1","","8.9","","92","","","","9","","39","","6.4","","97.74","","","","","","Rain,Fog"
"-81.15","43.03","LONDON A","6144473","2023-04-28 19:00","2023","04","28","19:00","9.7","","8.9","","95","","","","9","","29","","4.8","","97.72","","","","","","Rain,Fog"
"-81.15","43.03","LONDON A","6144473","2023-04-28 20:00","2023","04","28","20:00","9.4","","8.7","","96","","","","9","","34","","4.8","","97.69","","","","","","Rain,Fog"
"-81.15","43.03","LONDON A","6144473","2023-04-28 21:00","2023","04","28","21:00","9.5","","8.6","","94","","","","9","","35","","4.8","","97.68","","","","","","Rain,Fog"
"-81.15","43.03","LONDON A","6144473","2023-04-28 22:00","2023","04","28","22:00","9.2","","8.3","","94","","","","10","","27","","8.1","","97.65","","","","","","Rain,Fog"
"-81.15","43.03","LONDON A","6144473","2023-04-28 23:00","2023","04","28","23:00","8.9","","8.2","","95","","","","10","","28","","8.1","","97.60","","","","","","Rain,Fog"
"-81.15","43.03","LONDON A","6144473","2023-04-29 00:00","2023","04","29","00:00","8.9","","8.1","","95","","","","9","","22","","9.7","","97.53","","","","","","Rain,Fog"
"-81.15","43.03","LONDON A","6144473","2023-04-29 01:00","2023","04","29","01:00","8.7","","7.9","","95","","","","10","","19","","16.1","","97.47","","","","","","Cloudy"
"-81.15","43.03","LONDON A","6144473","2023-04-29 02:00","2023","04","29","02:00","8.3","","7.7","","96","","","","10","","23","","9.7","","97.43","","","","","","Fog"
"-81.15","43.03","LONDON A","6144473","2023-04-29 03:00","2023","04","29","03:00","7.8","","7.2","","96","","","","9","","25","","9.7","","97.37","","","","","","Fog"
"-81.15","43.03","LONDON A","6144473","2023-04-29 04:00","2023","04","29","04:00","7.7","","7.0","","95","","","","10","","23","","6.4","","97.35","","","","","","Drizzle,Fog"
"-81.15","43.03","LONDON A","6144473","2023-04-29 05:00","2023","04","29","05:00","7.3","","6.8","","97","","","","9","","23","","2.4","","97.33","","","","","","Drizzle,Fog"
"-81.15","43.03","LONDON A","6144473","2023-04-29 06:00","2023","04","29","06:00","7.1","","6.7","","98","","","","10","","22","","2.4","","97.28","","","","","","Drizzle,Fog"
"-81.15","43.03","LONDON A","6144473","2023-04-29 07:00","2023","04","29","07:00","7.2","","6.9","","98","","","","10","","23","","1.6","","97.27","","","","","","Drizzle,Fog"
"-81.15","43.03","LONDON A","6144473","2023-04-29 08:00","2023","04","29","08:00","7.7","","7.5","","98","","","","11","","21","","2.0","","97.23","","","","","","Drizzle,Fog"
"-81.15","43.03","LONDON A","6144473","2023-04-29 09:00","2023","04","29","09:00","8.2","","7.9","","98","","","","11","","16","","2.0","","97.18","","","","","","Drizzle,Fog"
"-81.15","43.03","LONDON A","6144473","2023-04-29 10:00","2023","04","29","10:00","8.8","","8.3","","97","","","","12","","18","","16.1","","97.14","","","","","","Cloudy"
"-81.15","43.03","LONDON A","6144473","2023-04-29 11:00","2023","04","29","11:00","9.7","","9.4","","98","","","","13","","20","","2.4","","97.09","","","","","","Drizzle,Fog"
"-81.15","43.03","LONDON A","6144473","2023-04-29 12:00","2023","04","29","12:00","9.4","","9.2","","98","","","","16","","23","","1.2","","97.05","","","","","","Drizzle,Fog"
"-81.15","43.03","LONDON A","6144473","2023-04-29 13:00","2023","04","29","13:00","10.3","","10.1","","99","","","","18","","20","","4.8","","96.99","","","","","","Drizzle,Fog"
"-81.15","43.03","LONDON A","6144473","2023-04-29 14:00","2023","04","29","14:00","10.1","","9.6","","97","","","","19","","21","","3.2","","97.01","","","","","","Drizzle,Fog"
"-81.15","43.03","LONDON A","6144473","2023-04-29 15:00","2023","04","29","15:00","10.3","","9.9","","97","","","","20","","18","","3.2","","96.97","","","","","","Drizzle,Fog"
"-81.15","43.03","LONDON A","6144473","2023-04-29 16:00","2023","04","29","16:00","10.6","","9.8","","95","","","","20","","16","","4.0","","96.98","","","","","","Drizzle,Fog"
"-81.15","43.03","LONDON A","6144473","2023-04-29 17:00","2023","04","29","17:00","10.6","","9.6","","93","","","","20","","19","","9.7","","97.02","","","","","","Fog"
"-81.15","43.03","LONDON A","6144473","2023-04-29 18:00","2023","04","29","18:00","10.5","","9.1","","91","","","","19","","13","","16.1","","97.01","","","","","","NA"
"-81.15","43.03","LONDON A","6144473","2023-04-29 19:00","2023","04","29","19:00","10.5","","8.8","","90","","","","19","","8","","19.3","","96.97","","","","","","Mostly Cloudy"
"-81.15","43.03","LONDON A","6144473","2023-04-29 20:00","2023","04","29","20:00","8.2","","7.4","","94","","","","13","","10","","24.1","","96.95","","","","","","NA"
"-81.15","43.03","LONDON A","6144473","2023-04-29 21:00","2023","04","29","21:00","7.1","","6.7","","97","","","","13","","13","","24.1","","96.96","","","","","","NA"
"-81.15","43.03","LONDON A","6144473","2023-04-29 22:00","2023","04","29","22:00","7.5","","7.0","","96","","","","13","","10","","24.1","","96.87","","","","","","Mostly Cloudy"
"-81.15","43.03","LONDON A","6144473","2023-04-29 23:00","2023","04","29","23:00","8.6","","7.8","","95","","","","14","","16","","24.1","","96.77","","","","","","NA"
"-81.15","43.03","LONDON A","6144473","2023-04-30 00:00","2023","04","30","00:00","10.1","","8.4","","89","","","","19","","12","","24.1","","96.78","","","","","","NA"
"-81.15","43.03","LONDON A","6144473","2023-04-30 01:00","2023","04","30","01:00","10.0","","8.3","","89","","","","19","","9","","24.1","","96.70","","","","","","Mostly Cloudy"
"-81.15","43.03","LONDON A","6144473","2023-04-30 02:00","2023","04","30","02:00","8.8","","8.1","","95","","","","13","","14","","16.1","","96.56","","","","","","Rain Showers"
"-81.15","43.03","LONDON A","6144473","2023-04-30 03:00","2023","04","30","03:00","9.2","","8.8","","97","","","","19","","12","","8.1","","96.56","","","","","","Rain,Fog"
"-81.15","43.03","LONDON A","6144473","2023-04-30 04:00","2023","04","30","04:00","9.0","","8.7","","98","","","","16","","9","","4.0","","96.48","","","","","","Rain,Fog"
"-81.15","43.03","LONDON A","6144473","2023-04-30 05:00","2023","04","30","05:00","8.8","","8.6","","99","","","","16","","11","","1.6","","96.45","","","","","","Rain,Fog"
"-81.15","43.03","LONDON A","6144473","2023-04-30 06:00","2023","04","30","06:00","8.4","","8.3","","99","","","","17","","10","","0.6","","96.42","","","","","","Fog"
"-81.15","43.03","LONDON A","6144473","2023-04-30 07:00","2023","04","30","07:00","8.7","","8.6","","100","","","","13","","8","","1.0","","96.35","","","","","","Rain,Fog"
"-81.15","43.03","LONDON A","6144473","2023-04-30 08:00","2023","04","30","08:00","9.1","","9.0","","100","","","","11","","5","","3.2","","96.27","","","","","","Rain,Fog"
"-81.15","43.03","LONDON A","6144473","2023-04-30 09:00","2023","04","30","09:00","9.5","","9.3","","99","","","","15","","8","","9.7","","96.22","","","","","","Rain,Fog"
"-81.15","43.03","LONDON A","6144473","2023-04-30 10:00","2023","04","30","10:00","9.5","","9.1","","97","","","","15","","3","","9.7","","96.12","","","","","","Rain,Fog"
"-81.15","43.03","LONDON A","6144473","2023-04-30 11:00","2023","04","30","11:00","8.5","","7.9","","96","","","","28","","18","","3.2","","96.16","","","","","","Rain,Fog"
"-81.15","43.03","LONDON A","6144473","2023-04-30 12:00","2023","04","30","12:00","6.2","","5.4","","94","","","","31","","10","","9.7","","96.22","","","","","","Fog"
"-81.15","43.03","LONDON A","6144473","2023-04-30 13:00","2023","04","30","13:00","7.3","","6.2","","92","","","","34","","13","","16.1","","96.12","","","","","","Rain"
"-81.15","43.03","LONDON A","6144473","2023-04-30 14:00","2023","04","30","14:00","8.0","","5.8","","86","","","","29","","15","","24.1","","96.16","","","","","","NA"
"-81.15","43.03","LONDON A","6144473","2023-04-30 15:00","2023","04","30","15:00","7.9","","5.9","","87","","","","27","","10","","24.1","","96.19","","","","","","NA"
"-81.15","43.03","LONDON A","6144473","2023-04-30 16:00","2023","04","30","16:00","7.8","","4.8","","81","","","","29","","11","","24.1","","96.19","","","","","","Mostly Cloudy"
"-81.15","43.03","LONDON A","6144473","2023-04-30 17:00","2023","04","30","17:00","9.7","","5.4","","75","","","","30","","11","","24.1","","96.21","","","","","","NA"
"-81.15","43.03","LONDON A","6144473","2023-04-30 18:00","2023","04","30","18:00","8.5","","4.5","","76","","","","29","","9","","24.1","","96.21","","","","","","NA"
"-81.15","43.03","LONDON A","6144473","2023-04-30 19:00","2023","04","30","19:00","8.2","","4.1","","75","","","","28","","9","","24.1","","96.18","","","","","","Mainly Clear"
"-81.15","43.03","LONDON A","6144473","2023-04-30 20:00","2023","04","30","20:00","6.7","","4.2","","84","","","","33","","4","","24.1","","96.20","","","","","","NA"
"-81.15","43.03","LONDON A","6144473","2023-04-30 21:00","2023","04","30","21:00","5.3","","4.5","","94","","","","0","","1","","24.1","","96.15","","","","","","NA"
"-81.15","43.03","LONDON A","6144473","2023-04-30 22:00","2023","04","30","22:00","4.2","","3.8","","97","","","","36","","3","","24.1","","96.07","","","","","","Mainly Clear"
"-81.15","43.03","LONDON A","6144473","2023-04-30 23:00","2023","04","30","23:00","3.8","","3.4","","97","","","","9","","4","","24.1","","96.01","","","","","","NA"
