"Longitude (x)","Latitude (y)","Station Name","Climate ID","Date/Time (LST)","Year","Month","Day","Time (LST)","Temp (°C)","Temp Flag","Dew Point Temp (°C)","Dew Point Temp Flag","Rel Hum (%)","Rel Hum Flag","Precip. Amount (mm)","Precip. Amount Flag","Wind Dir (10s deg)","Wind Dir Flag","Wind Spd (km/h)","Wind Spd Flag","Visibility (km)","Visibility Flag","Stn Press (kPa)","Stn Press Flag","Hmdx","Hmdx Flag","Wind Chill","Wind Chill Flag","Weather"
"-92.11","62.81","RANKIN INLET A","2303405","2020-02-01 00:00","2020","02","01","00:00","-23.3","","-27.1","","72","","","","32","","14","","24.1","","99.29","","","","-33","","Ice Crystals"
"-92.11","62.81","RANKIN INLET A","2303405","2020-02-01 01:00","2020","02","01","01:00","-23.5","","-27.2","","72","","","","34","","20","","24.1","","99.28","","","","-35","","Ice Crystals"
"-92.11","62.81","RANKIN INLET A","2303405","2020-02-01 02:00","2020","02","01","02:00","-24.0","","-27.6","","73","","","","36","","21","","24.1","","99.30","","","","-36","","Ice Crystals"
"-92.11","62.81","RANKIN INLET A","2303405","2020-02-01 03:00","2020","02","01","03:00","-24.4","","-27.9","","73","","","","36","","15","","24.1","","99.30","","","","-35","","Ice Crystals"
"-92.11","62.81","RANKIN INLET A","2303405","2020-02-01 04:00","2020","02","01","04:00","-24.1","","-27.6","","73","","","","2","","17","","24.1","","99.31","","","","-35","","Ice Crystals"
"-92.11","62.81","RANKIN INLET A","2303405","2020-02-01 05:00","2020","02","01","05:00","-24.1","","-27.6","","73","","","","4","","9","","24.1","","99.33","","","","-32","","Ice Crystals"
"-92.11","62.81","RANKIN INLET A","2303405","2020-02-01 06:00","2020","02","01","06:00","-21.1","","-24.4","","75","","","","7","","10","","24.1","","99.34","","","","-29","","Ice Crystals"
"-92.11","62.81","RANKIN INLET A","2303405","2020-02-01 07:00","2020","02","01","07:00","-22.0","","-25.2","","76","","","","4","","9","","24.1","","99.39","","","","-29","","Ice Crystals"
"-92.11","62.81","RANKIN INLET A","2303405","2020-02-01 08:00","2020","02","01","08:00","-20.1","","-23.0","","78","","","","5","","10","","24.1","","99.42","","","","-27","","Ice Crystals"
"-92.11","62.81","RANKIN INLET A","2303405","2020-02-01 09:00","2020","02","01","09:00","-18.1","","-20.8","","80","","","","3","","9","","24.1","","99.45","","","","-24","","Ice Crystals"
"-92.11","62.81","RANKIN INLET A","2303405","2020-02-01 10:00","2020","02","01","10:00","-15.9","","-18.5","","81","","","","7","","22","","16.1","","99.47","","","","-26","","Snow"
"-92.11","62.81","RANKIN INLET A","2303405","2020-02-01 11:00","2020","02","01","11:00","-15.9","","-18.6","","80","","","","7","","21","","12.9","","99.48","","","","-26","","Snow"
"-92.11","62.81","RANKIN INLET A","2303405","2020-02-01 12:00","2020","02","01","12:00","-16.1","","-18.9","","80","","","","6","","21","","12.9","","99.45","","","","-26","","Snow"
"-92.11","62.81","RANKIN INLET A","2303405","2020-02-01 13:00","2020","02","01","13:00","-16.8","","-19.5","","79","","","","7","","27","","2.4","","99.44","","","","-28","","Snow"
"-92.11","62.81","RANKIN INLET A","2303405","2020-02-01 14:00","2020","02","01","14:00","-17.7","","-20.7","","78","","","","7","","26","","3.2","","99.44","","","","-29","","Snow,Blowing Snow"
"-92.11","62.81","RANKIN INLET A","2303405","2020-02-01 15:00","2020","02","01","15:00","-19.1","","-22.2","","77","","","","7","","22","","4.0","","99.47","","","","-30","","Snow,Blowing Snow"
"-92.11","62.81","RANKIN INLET A","2303405","2020-02-01 16:00","2020","02","01","16:00","-19.1","","-22.0","","78","","","","7","","28","","3.2","","99.49","","","","-31","","Snow,Blowing Snow"
"-92.11","62.81","RANKIN INLET A","2303405","2020-02-01 17:00","2020","02","01","17:00","-19.0","","-21.9","","78","","","","6","","22","","1.6","","99.60","","","","-30","","Snow,Blowing Snow"
"-92.11","62.81","RANKIN INLET A","2303405","2020-02-01 18:00","2020","02","01","18:00","-18.9","","-21.9","","78","","","","5","","17","","4.0","","99.65","","","","-28","","Snow,Blowing Snow"
"-92.11","62.81","RANKIN INLET A","2303405","2020-02-01 19:00","2020","02","01","19:00","-19.4","","-22.7","","76","","","","5","","21","","4.0","","99.65","","","","-30","","Snow,Blowing Snow"
"-92.11","62.81","RANKIN INLET A","2303405","2020-02-01 20:00","2020","02","01","20:00","-20.5","","-23.9","","75","","","","4","","21","","4.0","","99.63","","","","-31","","Snow,Blowing Snow"
"-92.11","62.81","RANKIN INLET A","2303405","2020-02-01 21:00","2020","02","01","21:00","-20.8","","-24.1","","75","","","","5","","22","","4.0","","99.63","","","","-32","","Snow,Ice Crystals,Blowing Snow"
"-92.11","62.81","RANKIN INLET A","2303405","2020-02-01 22:00","2020","02","01","22:00","-20.8","","-24.1","","75","","","","4","","19","","4.0","","99.62","","","","-31","","Snow,Blowing Snow"
"-92.11","62.81","RANKIN INLET A","2303405","2020-02-01 23:00","2020","02","01","23:00","-20.9","","-24.1","","76","","","","4","","22","","3.2","","99.59","","","","-32","","Snow,Blowing Snow"
"-92.11","62.81","RANKIN INLET A","2303405","2020-02-02 00:00","2020","02","02","00:00","-21.0","","-24.2","","76","","","","4","","19","","3.2","","99.61","","","","-31","","Snow,Blowing Snow"
"-92.11","62.81","RANKIN INLET A","2303405","2020-02-02 01:00","2020","02","02","01:00","-20.5","","-23.6","","76","","","","6","","20","","3.2","","99.60","","","","-31","","Snow,Blowing Snow"
"-92.11","62.81","RANKIN INLET A","2303405","2020-02-02 02:00","2020","02","02","02:00","-20.1","","-23.2","","77","","","","6","","22","","3.2","","99.62","","","","-31","","Snow,Blowing Snow"
"-92.11","62.81","RANKIN INLET A","2303405","2020-02-02 03:00","2020","02","02","03:00","-19.3","","-22.3","","78","","","","6","","23","","3.2","","99.61","","","","-30","","Snow,Blowing Snow"
"-92.11","62.81","RANKIN INLET A","2303405","2020-02-02 04:00","2020","02","02","04:00","-18.8","","-21.8","","78","","","","6","","22","","3.2","","99.64","","","","-29","","Snow,Blowing Snow"
"-92.11","62.81","RANKIN INLET A","2303405","2020-02-02 05:00","2020","02","02","05:00","-18.5","","-21.4","","78","","","","7","","18","","3.2","","99.65","","","","-28","","Snow,Blowing Snow"
"-92.11","62.81","RANKIN INLET A","2303405","2020-02-02 06:00","2020","02","02","06:00","-18.6","","-21.6","","78","","","","7","","23","","3.2","","99.65","","","","-29","","Snow,Blowing Snow"
"-92.11","62.81","RANKIN INLET A","2303405","2020-02-02 07:00","2020","02","02","07:00","-19.0","","-22.1","","77","","","","6","","20","","3.2","","99.68","","","","-29","","Snow,Blowing Snow"
"-92.11","62.81","RANKIN INLET A","2303405","2020-02-02 08:00","2020","02","02","08:00","-19.3","","-22.6","","76","","","","6","","23","","4.0","","99.72","","","","-30","","Snow,Blowing Snow"
"-92.11","62.81","RANKIN INLET A","2303405","2020-02-02 09:00","2020","02","02","09:00","-19.3","","-22.4","","77","","","","6","","24","","3.2","","99.73","","","","-31","","Snow,Blowing Snow"
"-92.11","62.81","RANKIN INLET A","2303405","2020-02-02 10:00","2020","02","02","10:00","-19.3","","-22.4","","77","","","","6","","24","","2.4","","99.78","","","","-31","","Snow,Blowing Snow"
"-92.11","62.81","RANKIN INLET A","2303405","2020-02-02 11:00","2020","02","02","11:00","-19.5","","-22.7","","76","","","","6","","22","","2.4","","99.78","","","","-30","","Snow,Blowing Snow"
"-92.11","62.81","RANKIN INLET A","2303405","2020-02-02 12:00","2020","02","02","12:00","-19.7","","-23.0","","75","","","","6","","24","","3.2","","99.76","","","","-31","","Snow,Blowing Snow"
"-92.11","62.81","RANKIN INLET A","2303405","2020-02-02 13:00","2020","02","02","13:00","-19.4","","-22.9","","74","","","","6","","21","","4.8","","99.79","","","","-30","","Snow,Blowing Snow"
"-92.11","62.81","RANKIN INLET A","2303405","2020-02-02 14:00","2020","02","02","14:00","-19.7","","-23.1","","75","","","","5","","22","","4.0","","99.85","","","","-31","","Snow,Blowing Snow"
"-92.11","62.81","RANKIN INLET A","2303405","2020-02-02 15:00","2020","02","02","15:00","-19.8","","-23.3","","74","","","","5","","22","","6.4","","99.91","","","","-31","","Snow,Blowing Snow"
"-92.11","62.81","RANKIN INLET A","2303405","2020-02-02 16:00","2020","02","02","16:00","-20.3","","-23.6","","76","","","","4","","17","","2.4","","99.94","","","","-30","","Snow,Blowing Snow"
"-92.11","62.81","RANKIN INLET A","2303405","2020-02-02 17:00","2020","02","02","17:00","-20.7","","-23.9","","76","","","","4","","21","","2.4","","100.00","","","","-32","","Snow,Blowing Snow"
"-92.11","62.81","RANKIN INLET A","2303405","2020-02-02 18:00","2020","02","02","18:00","-21.1","","-24.5","","74","","","","4","","21","","2.4","","100.03","","","","-32","","Snow,Blowing Snow"
"-92.11","62.81","RANKIN INLET A","2303405","2020-02-02 19:00","2020","02","02","19:00","-20.9","","-24.6","","73","","","","4","","19","","8.1","","100.06","","","","-31","","Snow,Blowing Snow"
"-92.11","62.81","RANKIN INLET A","2303405","2020-02-02 20:00","2020","02","02","20:00","-21.0","","-24.6","","73","","","","4","","24","","16.1","","100.09","","","","-33","","Snow,Blowing Snow"
"-92.11","62.81","RANKIN INLET A","2303405","2020-02-02 21:00","2020","02","02","21:00","-21.5","","-25.0","","74","","","","3","","23","","24.1","","100.12","","","","-33","","Snow,Blowing Snow"
"-92.11","62.81","RANKIN INLET A","2303405","2020-02-02 22:00","2020","02","02","22:00","-22.4","","-26.0","","73","","","","3","","21","","24.1","","100.15","","","","-34","","Snow,Blowing Snow"
"-92.11","62.81","RANKIN INLET A","2303405","2020-02-02 23:00","2020","02","02","23:00","-22.1","","-25.8","","73","","","","3","","24","","24.1","","100.15","","","","-34","","Snow,Blowing Snow"
"-92.11","62.81","RANKIN INLET A","2303405","2020-02-03 00:00","2020","02","03","00:00","-21.8","","-25.3","","74","","","","3","","17","","24.1","","100.17","","","","-32","","Snow"
"-92.11","62.81","RANKIN INLET A","2303405","2020-02-03 01:00","2020","02","03","01:00","-21.3","","-25.0","","73","","","","3","","19","","24.1","","100.19","","","","-32","","Snow"
"-92.11","62.81","RANKIN INLET A","2303405","2020-02-03 02:00","2020","02","03","02:00","-21.7","","-25.3","","73","","","","1","","21","","24.1","","100.23","","","","-33","","Snow"
"-92.11","62.81","RANKIN INLET A","2303405","2020-02-03 03:00","2020","02","03","03:00","-21.7","","-25.4","","73","","","","36","","22","","24.1","","100.25","","","","-33","","Snow"
"-92.11","62.81","RANKIN INLET A","2303405","2020-02-03 04:00","2020","02","03","04:00","-22.0","","-25.5","","74","","","","36","","26","","24.1","","100.29","","","","-34","","Snow"
"-92.11","62.81","RANKIN INLET A","2303405","2020-02-03 05:00","2020","02","03","05:00","-23.3","","-26.8","","74","","","","34","","19","","16.1","","100.35","","","","-34","","Snow"
"-92.11","62.81","RANKIN INLET A","2303405","2020-02-03 06:00","2020","02","03","06:00","-24.9","","-28.3","","74","","","","35","","18","","16.1","","100.40","","","","-36","","Snow"
"-92.11","62.81","RANKIN INLET A","2303405","2020-02-03 07:00","2020","02","03","07:00","-25.2","","-28.6","","74","","","","35","","23","","24.1","","100.41","","","","-38","","Snow"
"-92.11","62.81","RANKIN INLET A","2303405","2020-02-03 08:00","2020","02","03","08:00","-24.4","","-27.8","","74","","","","35","","20","","24.1","","100.45","","","","-36","","Snow"
"-92.11","62.81","RANKIN INLET A","2303405","2020-02-03 09:00","2020","02","03","09:00","-24.0","","-27.5","","73","","","","36","","20","","24.1","","100.46","","","","-36","","Snow"
"-92.11","62.81","RANKIN INLET A","2303405","2020-02-03 10:00","2020","02","03","10:00","-24.2","","-27.8","","72","","","","36","","25","","24.1","","100.49","","","","-37","","Snow"
"-92.11","62.81","RANKIN INLET A","2303405","2020-02-03 11:00","2020","02","03","11:00","-26.9","","-30.6","","72","","","","35","","25","","24.1","","100.52","","","","-40","","Blowing Snow"
"-92.11","62.81","RANKIN INLET A","2303405","2020-02-03 12:00","2020","02","03","12:00","-28.7","","-32.4","","71","","","","35","","24","","16.1","","100.50","","","","-43","","Blowing Snow"
"-92.11","62.81","RANKIN INLET A","2303405","2020-02-03 13:00","2020","02","03","13:00","-29.1","","-32.9","","70","","","","33","","12","","80.5","","100.53","","","","-39","","NA"
"-92.11","62.81","RANKIN INLET A","2303405","2020-02-03 14:00","2020","02","03","14:00","-29.7","","-33.6","","70","","","","35","","32","","16.1","","100.48","","","","-46","","Blowing Snow"
"-92.11","62.81","RANKIN INLET A","2303405","2020-02-03 15:00","2020","02","03","15:00","-30.4","","-34.3","","69","","","","35","","34","","6.4","","100.52","","","","-47","","Blowing Snow"
"-92.11","62.81","RANKIN INLET A","2303405","2020-02-03 16:00","2020","02","03","16:00","-31.1","","-35.0","","69","","","","34","","30","","12.9","","100.54","","","","-47","","Blowing Snow"
"-92.11","62.81","RANKIN INLET A","2303405","2020-02-03 17:00","2020","02","03","17:00","-31.8","","-35.8","","69","","","","34","","24","","24.1","","100.59","","","","-47","","NA"
"-92.11","62.81","RANKIN INLET A","2303405","2020-02-03 18:00","2020","02","03","18:00","-32.4","","-36.4","","69","","","","33","","27","","16.1","","100.60","","","","-48","","Blowing Snow"
"-92.11","62.81","RANKIN INLET A","2303405","2020-02-03 19:00","2020","02","03","19:00","-33.0","","-37.0","","68","","","","34","","25","","24.1","","100.59","","","","-48","","Blowing Snow"
"-92.11","62.81","RANKIN INLET A","2303405","2020-02-03 20:00","2020","02","03","20:00","-33.4","","-37.4","","68","","","","33","","27","","24.1","","100.56","","","","-49","","Blowing Snow"
"-92.11","62.81","RANKIN INLET A","2303405","2020-02-03 21:00","2020","02","03","21:00","-34.0","","-38.1","","67","","","","31","","23","","24.1","","100.57","","","","-49","","Blowing Snow"
"-92.11","62.81","RANKIN INLET A","2303405","2020-02-03 22:00","2020","02","03","22:00","-34.2","","-38.4","","67","","","","33","","24","","24.1","","100.53","","","","-50","","Blowing Snow"
"-92.11","62.81","RANKIN INLET A","2303405","2020-02-03 23:00","2020","02","03","23:00","-34.5","","-38.7","","67","","","","33","","25","","24.1","","100.49","","","","-50","","Blowing Snow"
"-92.11","62.81","RANKIN INLET A","2303405","2020-02-04 00:00","2020","02","04","00:00","-34.6","","-38.8","","67","","","","34","","22","","24.1","","100.43","","","","-50","","Blowing Snow"
"-92.11","62.81","RANKIN INLET A","2303405","2020-02-04 01:00","2020","02","04","01:00","-34.5","","-38.6","","67","","","","33","","25","","24.1","","100.41","","","","-50","","Ice Crystals,Blowing Snow"
"-92.11","62.81","RANKIN INLET A","2303405","2020-02-04 02:00","2020","02","04","02:00","-34.5","","-38.6","","67","","","","32","","31","","24.1","","100.37","","","","-52","","Ice Crystals,Blowing Snow"
"-92.11","62.81","RANKIN INLET A","2303405","2020-02-04 03:00","2020","02","04","03:00","-34.6","","-38.8","","67","","","","33","","25","","24.1","","100.39","","","","-50","","Ice Crystals,Blowing Snow"
"-92.11","62.81","RANKIN INLET A","2303405","2020-02-04 04:00","2020","02","04","04:00","-34.5","","-38.6","","67","","","","34","","31","","24.1","","100.35","","","","-52","","Ice Crystals,Blowing Snow"
"-92.11","62.81","RANKIN INLET A","2303405","2020-02-04 05:00","2020","02","04","05:00","-34.5","","-38.6","","67","","","","33","","35","","16.1","","100.33","","","","-53","","Ice Crystals,Blowing Snow"
"-92.11","62.81","RANKIN INLET A","2303405","2020-02-04 06:00","2020","02","04","06:00","-34.3","","-38.4","","67","","","","32","","32","","16.1","","100.30","","","","-52","","Ice Crystals,Blowing Snow"
"-92.11","62.81","RANKIN INLET A","2303405","2020-02-04 07:00","2020","02","04","07:00","-34.1","","-38.2","","67","","","","33","","36","","8.1","","100.26","","","","-52","","Ice Crystals,Blowing Snow"
"-92.11","62.81","RANKIN INLET A","2303405","2020-02-04 08:00","2020","02","04","08:00","-34.0","","-38.1","","67","","","","34","","34","","4.8","","100.23","","","","-52","","Ice Crystals,Blowing Snow"
"-92.11","62.81","RANKIN INLET A","2303405","2020-02-04 09:00","2020","02","04","09:00","-33.8","","-37.9","","67","","","","33","","25","","8.1","","100.20","","","","-49","","Ice Crystals,Blowing Snow"
"-92.11","62.81","RANKIN INLET A","2303405","2020-02-04 10:00","2020","02","04","10:00","-33.5","","-37.6","","67","","","","33","","23","","16.1","","100.20","","","","-48","","Ice Crystals,Blowing Snow"
"-92.11","62.81","RANKIN INLET A","2303405","2020-02-04 11:00","2020","02","04","11:00","-32.6","","-36.8","","67","","","","32","","27","","16.1","","100.15","","","","-48","","Ice Crystals,Blowing Snow"
"-92.11","62.81","RANKIN INLET A","2303405","2020-02-04 12:00","2020","02","04","12:00","-32.1","","-36.4","","67","","","","32","","26","","12.9","","100.10","","","","-47","","Ice Crystals,Blowing Snow"
"-92.11","62.81","RANKIN INLET A","2303405","2020-02-04 13:00","2020","02","04","13:00","-32.4","","-36.7","","67","","","","32","","29","","6.4","","100.08","","","","-49","","Ice Crystals,Blowing Snow"
"-92.11","62.81","RANKIN INLET A","2303405","2020-02-04 14:00","2020","02","04","14:00","-32.6","","-36.8","","67","","","","32","","29","","6.4","","100.07","","","","-49","","Ice Crystals,Blowing Snow"
"-92.11","62.81","RANKIN INLET A","2303405","2020-02-04 15:00","2020","02","04","15:00","-32.4","","-36.7","","66","","","","33","","29","","6.4","","100.06","","","","-49","","Ice Crystals,Blowing Snow"
"-92.11","62.81","RANKIN INLET A","2303405","2020-02-04 16:00","2020","02","04","16:00","-33.2","","-37.5","","66","","","","33","","25","","8.1","","100.05","","","","-49","","Ice Crystals,Blowing Snow"
"-92.11","62.81","RANKIN INLET A","2303405","2020-02-04 17:00","2020","02","04","17:00","-34.3","","-38.5","","67","","","","31","","21","","9.7","","100.07","","","","-49","","Ice Crystals,Blowing Snow"
"-92.11","62.81","RANKIN INLET A","2303405","2020-02-04 18:00","2020","02","04","18:00","-34.4","","-38.5","","67","","","","32","","21","","12.9","","100.05","","","","-49","","Ice Crystals,Blowing Snow"
"-92.11","62.81","RANKIN INLET A","2303405","2020-02-04 19:00","2020","02","04","19:00","-34.4","","-38.5","","67","","","","32","","21","","16.1","","100.00","","","","-49","","Ice Crystals,Blowing Snow"
"-92.11","62.81","RANKIN INLET A","2303405","2020-02-04 20:00","2020","02","04","20:00","-34.5","","-38.7","","67","","","","32","","28","","24.1","","99.97","","","","-51","","Ice Crystals,Blowing Snow"
"-92.11","62.81","RANKIN INLET A","2303405","2020-02-04 21:00","2020","02","04","21:00","-34.9","","-39.1","","66","","","","31","","19","","24.1","","99.96","","","","-49","","Ice Crystals,Blowing Snow"
"-92.11","62.81","RANKIN INLET A","2303405","2020-02-04 22:00","2020","02","04","22:00","-35.2","","-39.5","","66","","","","31","","20","","24.1","","99.91","","","","-50","","Ice Crystals,Blowing Snow"
"-92.11","62.81","RANKIN INLET A","2303405","2020-02-04 23:00","2020","02","04","23:00","-35.7","","-40.0","","66","","","","31","","18","","24.1","","99.88","","","","-50","","Ice Crystals,Blowing Snow"
"-92.11","62.81","RANKIN INLET A","2303405","2020-02-05 00:00","2020","02","05","00:00","-36.2","","-40.5","","66","","","","31","","21","","24.1","","99.87","","","","-51","","Ice Crystals,Blowing Snow"
"-92.11","62.81","RANKIN INLET A","2303405","2020-02-05 01:00","2020","02","05","01:00","-36.2","","-40.4","","66","","","","32","","20","","24.1","","99.87","","","","-51","","Ice Crystals,Blowing Snow"
"-92.11","62.81","RANKIN INLET A","2303405","2020-02-05 02:00","2020","02","05","02:00","-36.2","","-40.4","","66","","","","31","","16","","24.1","","99.87","","","","-49","","Ice Crystals"
"-92.11","62.81","RANKIN INLET A","2303405","2020-02-05 03:00","2020","02","05","03:00","-35.7","","-39.8","","67","","","","34","","17","","24.1","","99.88","","","","-49","","Ice Crystals"
"-92.11","62.81","RANKIN INLET A","2303405","2020-02-05 04:00","2020","02","05","04:00","-34.3","","-38.4","","67","","","","35","","22","","16.1","","99.90","","","","-49","","Ice Crystals"
"-92.11","62.81","RANKIN INLET A","2303405","2020-02-05 05:00","2020","02","05","05:00","-31.7","","-35.7","","68","","","","36","","25","","9.7","","99.90","","","","-47","","Ice Crystals,Blowing Snow"
"-92.11","62.81","RANKIN INLET A","2303405","2020-02-05 06:00","2020","02","05","06:00","-30.4","","-34.3","","69","","","","35","","25","","9.7","","99.93","","","","-45","","Ice Crystals,Blowing Snow"
"-92.11","62.81","RANKIN INLET A","2303405","2020-02-05 07:00","2020","02","05","07:00","-30.5","","-34.4","","69","","","","35","","18","","16.1","","100.01","","","","-43","","Ice Crystals,Blowing Snow"
"-92.11","62.81","RANKIN INLET A","2303405","2020-02-05 08:00","2020","02","05","08:00","-29.7","","-33.5","","70","","","","35","","27","","4.8","","100.02","","","","-45","","Ice Crystals,Blowing Snow"
"-92.11","62.81","RANKIN INLET A","2303405","2020-02-05 09:00","2020","02","05","09:00","-29.9","","-33.8","","70","","","","35","","32","","4.8","","100.03","","","","-46","","Ice Crystals,Blowing Snow"
"-92.11","62.81","RANKIN INLET A","2303405","2020-02-05 10:00","2020","02","05","10:00","-30.1","","-34.0","","70","","","","35","","28","","6.4","","100.08","","","","-45","","Ice Crystals,Blowing Snow"
"-92.11","62.81","RANKIN INLET A","2303405","2020-02-05 11:00","2020","02","05","11:00","-29.7","","-33.6","","70","","","","35","","28","","6.4","","100.11","","","","-45","","Ice Crystals,Blowing Snow"
"-92.11","62.81","RANKIN INLET A","2303405","2020-02-05 12:00","2020","02","05","12:00","-28.9","","-32.9","","69","","","","36","","28","","6.4","","100.13","","","","-44","","Ice Crystals,Blowing Snow"
"-92.11","62.81","RANKIN INLET A","2303405","2020-02-05 13:00","2020","02","05","13:00","-29.9","","-34.0","","69","","","","35","","24","","16.1","","100.16","","","","-44","","Ice Crystals,Blowing Snow"
"-92.11","62.81","RANKIN INLET A","2303405","2020-02-05 14:00","2020","02","05","14:00","-28.9","","-33.0","","68","","","","33","","20","","16.1","","100.24","","","","-42","","Ice Crystals,Blowing Snow"
"-92.11","62.81","RANKIN INLET A","2303405","2020-02-05 15:00","2020","02","05","15:00","-29.3","","-33.3","","69","","","","35","","30","","4.8","","100.28","","","","-45","","Ice Crystals,Blowing Snow"
"-92.11","62.81","RANKIN INLET A","2303405","2020-02-05 16:00","2020","02","05","16:00","-29.4","","-33.3","","70","","","","35","","30","","4.8","","100.30","","","","-45","","Ice Crystals,Blowing Snow"
"-92.11","62.81","RANKIN INLET A","2303405","2020-02-05 17:00","2020","02","05","17:00","-30.1","","-34.0","","70","","","","36","","31","","3.2","","100.36","","","","-46","","Snow,Blowing Snow"
"-92.11","62.81","RANKIN INLET A","2303405","2020-02-05 18:00","2020","02","05","18:00","-30.8","","-34.8","","69","","","","36","","33","","3.2","","100.41","","","","-47","","Ice Crystals,Blowing Snow"
"-92.11","62.81","RANKIN INLET A","2303405","2020-02-05 19:00","2020","02","05","19:00","-31.5","","-35.5","","69","","","","36","","31","","4.0","","100.44","","","","-48","","Ice Crystals,Blowing Snow"
"-92.11","62.81","RANKIN INLET A","2303405","2020-02-05 20:00","2020","02","05","20:00","-31.3","","-35.3","","69","","","","35","","31","","4.8","","100.45","","","","-48","","Ice Crystals,Blowing Snow"
"-92.11","62.81","RANKIN INLET A","2303405","2020-02-05 21:00","2020","02","05","21:00","-31.8","","-35.8","","68","","","","34","","21","","4.8","","100.50","","","","-46","","Ice Crystals,Blowing Snow"
"-92.11","62.81","RANKIN INLET A","2303405","2020-02-05 22:00","2020","02","05","22:00","-32.5","","-36.5","","68","","","","35","","22","","4.8","","100.52","","","","-47","","Ice Crystals,Blowing Snow"
"-92.11","62.81","RANKIN INLET A","2303405","2020-02-05 23:00","2020","02","05","23:00","-32.8","","-36.8","","68","","","","35","","31","","4.8","","100.53","","","","-49","","Ice Crystals,Blowing Snow"
"-92.11","62.81","RANKIN INLET A","2303405","2020-02-06 00:00","2020","02","06","00:00","-33.0","","-37.0","","68","","","","35","","27","","4.8","","100.56","","","","-49","","Ice Crystals,Blowing Snow"
"-92.11","62.81","RANKIN INLET A","2303405","2020-02-06 01:00","2020","02","06","01:00","-33.2","","-37.2","","68","","","","33","","18","","8.1","","100.62","","","","-46","","Ice Crystals"
"-92.11","62.81","RANKIN INLET A","2303405","2020-02-06 02:00","2020","02","06","02:00","-33.5","","-37.6","","67","","","","33","","19","","8.1","","100.64","","","","-47","","Ice Crystals"
"-92.11","62.81","RANKIN INLET A","2303405","2020-02-06 03:00","2020","02","06","03:00","-33.6","","-37.8","","67","","","","35","","28","","8.1","","100.65","","","","-50","","Ice Crystals"
"-92.11","62.81","RANKIN INLET A","2303405","2020-02-06 04:00","2020","02","06","04:00","-33.8","","-38.0","","67","","","","33","","23","","8.1","","100.72","","","","-49","","Ice Crystals"
"-92.11","62.81","RANKIN INLET A","2303405","2020-02-06 05:00","2020","02","06","05:00","-34.0","","-38.2","","67","","","","34","","18","","8.1","","100.76","","","","-47","","Ice Crystals"
"-92.11","62.81","RANKIN INLET A","2303405","2020-02-06 06:00","2020","02","06","06:00","-34.8","","-39.1","","66","","","","32","","17","","8.1","","100.80","","","","-48","","Ice Crystals"
"-92.11","62.81","RANKIN INLET A","2303405","2020-02-06 07:00","2020","02","06","07:00","-34.9","","-39.1","","66","","","","34","","19","","8.1","","100.78","","","","-49","","Ice Crystals"
"-92.11","62.81","RANKIN INLET A","2303405","2020-02-06 08:00","2020","02","06","08:00","-35.2","","-39.4","","66","","","","34","","23","","16.1","","100.83","","","","-51","","Ice Crystals,Blowing Snow"
"-92.11","62.81","RANKIN INLET A","2303405","2020-02-06 09:00","2020","02","06","09:00","-35.5","","-39.8","","66","","","","32","","18","","16.1","","100.85","","","","-49","","Ice Crystals,Blowing Snow"
"-92.11","62.81","RANKIN INLET A","2303405","2020-02-06 10:00","2020","02","06","10:00","-34.9","","-39.3","","65","","","","34","","27","","16.1","","100.82","","","","-51","","Ice Crystals,Blowing Snow"
"-92.11","62.81","RANKIN INLET A","2303405","2020-02-06 11:00","2020","02","06","11:00","-34.6","","-39.1","","65","","","","34","","26","","16.1","","100.83","","","","-51","","Ice Crystals,Blowing Snow"
"-92.11","62.81","RANKIN INLET A","2303405","2020-02-06 12:00","2020","02","06","12:00","-34.2","","-38.8","","64","","","","31","","13","","16.1","","100.85","","","","-46","","Ice Crystals,Blowing Snow"
"-92.11","62.81","RANKIN INLET A","2303405","2020-02-06 13:00","2020","02","06","13:00","-33.6","","-38.2","","64","","","","32","","13","","24.1","","100.85","","","","-45","","Ice Crystals"
"-92.11","62.81","RANKIN INLET A","2303405","2020-02-06 14:00","2020","02","06","14:00","-33.6","","-38.1","","64","","","","33","","16","","16.1","","100.87","","","","-46","","Ice Crystals,Blowing Snow"
"-92.11","62.81","RANKIN INLET A","2303405","2020-02-06 15:00","2020","02","06","15:00","-33.8","","-38.4","","65","","","","36","","19","","24.1","","100.86","","","","-48","","Ice Crystals,Blowing Snow"
"-92.11","62.81","RANKIN INLET A","2303405","2020-02-06 16:00","2020","02","06","16:00","-34.1","","-38.6","","65","","","","35","","20","","16.1","","100.85","","","","-48","","Ice Crystals,Blowing Snow"
"-92.11","62.81","RANKIN INLET A","2303405","2020-02-06 17:00","2020","02","06","17:00","-34.4","","-38.9","","65","","","","31","","13","","24.1","","100.91","","","","-46","","Ice Crystals"
"-92.11","62.81","RANKIN INLET A","2303405","2020-02-06 18:00","2020","02","06","18:00","-34.9","","-39.3","","65","","","","30","","12","","24.1","","100.86","","","","-46","","Ice Crystals"
"-92.11","62.81","RANKIN INLET A","2303405","2020-02-06 19:00","2020","02","06","19:00","-35.3","","-39.6","","65","","","","28","","12","","24.1","","100.85","","","","-47","","Ice Crystals"
"-92.11","62.81","RANKIN INLET A","2303405","2020-02-06 20:00","2020","02","06","20:00","-34.3","","-38.5","","67","","","","28","","13","","24.1","","100.80","","","","-46","","Ice Crystals"
"-92.11","62.81","RANKIN INLET A","2303405","2020-02-06 21:00","2020","02","06","21:00","-33.6","","-37.7","","67","","","","30","","9","","24.1","","100.74","","","","-43","","Ice Crystals"
"-92.11","62.81","RANKIN INLET A","2303405","2020-02-06 22:00","2020","02","06","22:00","-33.0","","-37.1","","68","","","","19","","6","","16.1","","100.64","","","","-40","","Ice Crystals"
"-92.11","62.81","RANKIN INLET A","2303405","2020-02-06 23:00","2020","02","06","23:00","-32.0","","-36.2","","67","","","","25","","10","","16.1","","100.65","","","","-42","","Ice Crystals"
"-92.11","62.81","RANKIN INLET A","2303405","2020-02-07 00:00","2020","02","07","00:00","-31.8","","-36.0","","67","","","","22","","13","","16.1","","100.61","","","","-43","","Ice Crystals"
"-92.11","62.81","RANKIN INLET A","2303405","2020-02-07 01:00","2020","02","07","01:00","-31.2","","-35.4","","68","","","","19","","11","","24.1","","100.53","","","","-41","","Ice Crystals"
"-92.11","62.81","RANKIN INLET A","2303405","2020-02-07 02:00","2020","02","07","02:00","-29.8","","-33.7","","69","","","","18","","19","","24.1","","100.47","","","","-43","","Ice Crystals"
"-92.11","62.81","RANKIN INLET A","2303405","2020-02-07 03:00","2020","02","07","03:00","-29.0","","-32.8","","70","","","","19","","16","","24.1","","100.40","","","","-41","","Ice Crystals"
"-92.11","62.81","RANKIN INLET A","2303405","2020-02-07 04:00","2020","02","07","04:00","-28.6","","-32.3","","71","","","","19","","13","","16.1","","100.33","","","","-39","","Snow,Ice Crystals"
"-92.11","62.81","RANKIN INLET A","2303405","2020-02-07 05:00","2020","02","07","05:00","-28.1","","-31.7","","72","","","","19","","17","","16.1","","100.22","","","","-40","","Snow,Ice Crystals"
"-92.11","62.81","RANKIN INLET A","2303405","2020-02-07 06:00","2020","02","07","06:00","-26.7","","-30.4","","72","","","","21","","27","","16.1","","100.13","","","","-41","","Ice Crystals"
"-92.11","62.81","RANKIN INLET A","2303405","2020-02-07 07:00","2020","02","07","07:00","-26.5","","-30.2","","71","","","","23","","30","","16.1","","100.05","","","","-41","","Ice Crystals"
"-92.11","62.81","RANKIN INLET A","2303405","2020-02-07 08:00","2020","02","07","08:00","-26.0","","-29.8","","71","","","","23","","17","","8.1","","100.00","","","","-37","","Snow"
"-92.11","62.81","RANKIN INLET A","2303405","2020-02-07 09:00","2020","02","07","09:00","-25.2","","-28.8","","73","","","","24","","23","","2.4","","99.92","","","","-38","","Snow,Blowing Snow"
"-92.11","62.81","RANKIN INLET A","2303405","2020-02-07 10:00","2020","02","07","10:00","-24.6","","-28.1","","73","","","","24","","21","","2.4","","99.87","","","","-37","","Snow,Blowing Snow"
"-92.11","62.81","RANKIN INLET A","2303405","2020-02-07 11:00","2020","02","07","11:00","-23.9","","-27.4","","73","","","","26","","22","","2.4","","99.81","","","","-36","","Snow,Blowing Snow"
"-92.11","62.81","RANKIN INLET A","2303405","2020-02-07 12:00","2020","02","07","12:00","-23.2","","-26.7","","74","","","","28","","22","","3.2","","99.77","","","","-35","","Snow,Blowing Snow"
"-92.11","62.81","RANKIN INLET A","2303405","2020-02-07 13:00","2020","02","07","13:00","-22.9","","-26.5","","73","","","","30","","25","","16.1","","99.75","","","","-35","","Snow,Blowing Snow"
"-92.11","62.81","RANKIN INLET A","2303405","2020-02-07 14:00","2020","02","07","14:00","-23.3","","-26.8","","73","","","","32","","36","","4.8","","99.77","","","","-38","","Snow,Blowing Snow"
"-92.11","62.81","RANKIN INLET A","2303405","2020-02-07 15:00","2020","02","07","15:00","-25.9","","-29.6","","72","","","","32","","32","","6.4","","99.82","","","","-41","","Blowing Snow"
"-92.11","62.81","RANKIN INLET A","2303405","2020-02-07 16:00","2020","02","07","16:00","-28.7","","-32.5","","71","","","","33","","41","","1.2","","99.86","","","","-46","","Blowing Snow"
"-92.11","62.81","RANKIN INLET A","2303405","2020-02-07 17:00","2020","02","07","17:00","-30.2","","-33.9","","70","","","","32","","35","","1.6","","99.91","","","","-47","","Blowing Snow"
"-92.11","62.81","RANKIN INLET A","2303405","2020-02-07 18:00","2020","02","07","18:00","-31.3","","-35.1","","70","","","","32","","35","","1.6","","99.91","","","","-48","","Blowing Snow"
"-92.11","62.81","RANKIN INLET A","2303405","2020-02-07 19:00","2020","02","07","19:00","-31.9","","-35.8","","69","","","","32","","37","","1.6","","99.95","","","","-50","","Blowing Snow"
"-92.11","62.81","RANKIN INLET A","2303405","2020-02-07 20:00","2020","02","07","20:00","-32.6","","-36.5","","69","","","","33","","46","","1.2","","99.90","","","","-52","","Blowing Snow"
"-92.11","62.81","RANKIN INLET A","2303405","2020-02-07 21:00","2020","02","07","21:00","-33.1","","-37.1","","68","","","","32","","34","","1.2","","99.93","","","","-51","","Blowing Snow"
"-92.11","62.81","RANKIN INLET A","2303405","2020-02-07 22:00","2020","02","07","22:00","-33.5","","-37.5","","68","","","","33","","30","","1.2","","99.91","","","","-50","","Blowing Snow"
"-92.11","62.81","RANKIN INLET A","2303405","2020-02-07 23:00","2020","02","07","23:00","-34.0","","-38.0","","68","","","","34","","38","","0.8","","99.86","","","","-52","","Blowing Snow"
"-92.11","62.81","RANKIN INLET A","2303405","2020-02-08 00:00","2020","02","08","00:00","-34.1","","-38.2","","68","","","","33","","26","","1.2","","99.91","","","","-50","","Blowing Snow"
"-92.11","62.81","RANKIN INLET A","2303405","2020-02-08 01:00","2020","02","08","01:00","-34.5","","-38.6","","67","","","","33","","31","","1.6","","99.92","","","","-52","","Blowing Snow"
"-92.11","62.81","RANKIN INLET A","2303405","2020-02-08 02:00","2020","02","08","02:00","-34.6","","-38.7","","67","","","","34","","41","","1.2","","99.90","","","","-54","","Blowing Snow"
"-92.11","62.81","RANKIN INLET A","2303405","2020-02-08 03:00","2020","02","08","03:00","-35.1","","-39.2","","67","","","","34","","43","","1.6","","99.86","","","","-55","","Blowing Snow"
"-92.11","62.81","RANKIN INLET A","2303405","2020-02-08 04:00","2020","02","08","04:00","-35.3","","-39.5","","67","","","","33","","31","","1.6","","99.90","","","","-53","","Blowing Snow"
"-92.11","62.81","RANKIN INLET A","2303405","2020-02-08 05:00","2020","02","08","05:00","-35.6","","-39.8","","67","","","","34","","29","","2.4","","99.89","","","","-53","","Blowing Snow"
"-92.11","62.81","RANKIN INLET A","2303405","2020-02-08 06:00","2020","02","08","06:00","-35.8","","-40.0","","66","","","","33","","29","","3.2","","99.86","","","","-53","","Blowing Snow"
"-92.11","62.81","RANKIN INLET A","2303405","2020-02-08 07:00","2020","02","08","07:00","-35.8","","-40.0","","66","","","","33","","26","","4.8","","99.83","","","","-52","","Blowing Snow"
"-92.11","62.81","RANKIN INLET A","2303405","2020-02-08 08:00","2020","02","08","08:00","-35.3","","-39.5","","66","","","","32","","23","","6.4","","99.81","","","","-51","","Blowing Snow"
"-92.11","62.81","RANKIN INLET A","2303405","2020-02-08 09:00","2020","02","08","09:00","-34.8","","-39.0","","66","","","","32","","26","","6.4","","99.77","","","","-51","","Ice Crystals,Blowing Snow"
"-92.11","62.81","RANKIN INLET A","2303405","2020-02-08 10:00","2020","02","08","10:00","-34.4","","-38.6","","66","","","","32","","29","","8.1","","99.73","","","","-51","","Ice Crystals,Blowing Snow"
"-92.11","62.81","RANKIN INLET A","2303405","2020-02-08 11:00","2020","02","08","11:00","-33.8","","-38.0","","66","","","","33","","26","","6.4","","99.73","","","","-50","","Ice Crystals,Blowing Snow"
"-92.11","62.81","RANKIN INLET A","2303405","2020-02-08 12:00","2020","02","08","12:00","-33.0","","-37.2","","67","","","","32","","33","","4.8","","99.72","","","","-50","","Ice Crystals,Blowing Snow"
"-92.11","62.81","RANKIN INLET A","2303405","2020-02-08 13:00","2020","02","08","13:00","-32.2","","-36.4","","67","","","","34","","32","","4.8","","99.68","","","","-49","","Ice Crystals,Blowing Snow"
"-92.11","62.81","RANKIN INLET A","2303405","2020-02-08 14:00","2020","02","08","14:00","-32.2","","-36.4","","67","","","","33","","30","","4.8","","99.68","","","","-48","","Ice Crystals,Blowing Snow"
"-92.11","62.81","RANKIN INLET A","2303405","2020-02-08 15:00","2020","02","08","15:00","-31.7","","-35.7","","68","","","","33","","30","","2.4","","99.71","","","","-48","","Ice Crystals,Blowing Snow"
"-92.11","62.81","RANKIN INLET A","2303405","2020-02-08 16:00","2020","02","08","16:00","-31.7","","-35.7","","68","","","","33","","30","","2.4","","99.72","","","","-48","","Ice Crystals,Blowing Snow"
"-92.11","62.81","RANKIN INLET A","2303405","2020-02-08 17:00","2020","02","08","17:00","-31.4","","-35.4","","69","","","","32","","40","","1.6","","99.77","","","","-49","","Ice Crystals,Blowing Snow"
"-92.11","62.81","RANKIN INLET A","2303405","2020-02-08 18:00","2020","02","08","18:00","-31.8","","-35.8","","69","","","","33","","39","","2.4","","99.83","","","","-50","","Ice Crystals,Blowing Snow"
"-92.11","62.81","RANKIN INLET A","2303405","2020-02-08 19:00","2020","02","08","19:00","-33.0","","-37.0","","68","","","","32","","37","","2.4","","99.86","","","","-51","","Ice Crystals,Blowing Snow"
"-92.11","62.81","RANKIN INLET A","2303405","2020-02-08 20:00","2020","02","08","20:00","-33.4","","-37.5","","68","","","","32","","36","","2.4","","99.90","","","","-51","","Ice Crystals,Blowing Snow"
"-92.11","62.81","RANKIN INLET A","2303405","2020-02-08 21:00","2020","02","08","21:00","-33.8","","-37.9","","67","","","","33","","30","","2.4","","99.90","","","","-51","","Ice Crystals,Blowing Snow"
"-92.11","62.81","RANKIN INLET A","2303405","2020-02-08 22:00","2020","02","08","22:00","-34.3","","-38.4","","67","","","","33","","33","","2.4","","99.89","","","","-52","","Ice Crystals,Blowing Snow"
"-92.11","62.81","RANKIN INLET A","2303405","2020-02-08 23:00","2020","02","08","23:00","-34.6","","-38.8","","67","","","","32","","41","","2.4","","99.88","","","","-54","","Ice Crystals,Blowing Snow"
"-92.11","62.81","RANKIN INLET A","2303405","2020-02-09 00:00","2020","02","09","00:00","-34.3","","-38.4","","67","","","","32","","34","","2.4","","99.86","","","","-52","","Ice Crystals,Blowing Snow"
"-92.11","62.81","RANKIN INLET A","2303405","2020-02-09 01:00","2020","02","09","01:00","-34.9","","-39.0","","67","","","","31","","32","","2.4","","99.91","","","","-52","","Ice Crystals,Blowing Snow"
"-92.11","62.81","RANKIN INLET A","2303405","2020-02-09 02:00","2020","02","09","02:00","-35.2","","-39.4","","66","","","","30","","27","","4.8","","99.94","","","","-52","","Ice Crystals,Blowing Snow"
"-92.11","62.81","RANKIN INLET A","2303405","2020-02-09 03:00","2020","02","09","03:00","-33.6","","-37.8","","67","","","","32","","25","","4.8","","99.96","","","","-49","","Ice Crystals"
"-92.11","62.81","RANKIN INLET A","2303405","2020-02-09 04:00","2020","02","09","04:00","-33.8","","-38.0","","66","","","","30","","27","","4.8","","99.94","","","","-50","","Ice Crystals"
"-92.11","62.81","RANKIN INLET A","2303405","2020-02-09 05:00","2020","02","09","05:00","-32.9","","-37.1","","67","","","","30","","26","","4.8","","99.88","","","","-48","","Ice Crystals"
"-92.11","62.81","RANKIN INLET A","2303405","2020-02-09 06:00","2020","02","09","06:00","-32.3","","-36.4","","68","","","","30","","28","","4.8","","99.90","","","","-48","","Ice Crystals,Blowing Snow"
"-92.11","62.81","RANKIN INLET A","2303405","2020-02-09 07:00","2020","02","09","07:00","-32.2","","-36.4","","68","","","","31","","27","","4.8","","99.87","","","","-48","","Ice Crystals,Blowing Snow"
"-92.11","62.81","RANKIN INLET A","2303405","2020-02-09 08:00","2020","02","09","08:00","-32.8","","-37.0","","67","","","","30","","26","","6.4","","99.89","","","","-48","","Ice Crystals,Blowing Snow"
"-92.11","62.81","RANKIN INLET A","2303405","2020-02-09 09:00","2020","02","09","09:00","-33.7","","-37.9","","67","","","","30","","23","","16.1","","99.92","","","","-49","","Ice Crystals,Blowing Snow"
"-92.11","62.81","RANKIN INLET A","2303405","2020-02-09 10:00","2020","02","09","10:00","-34.0","","-38.3","","67","","","","30","","27","","24.1","","99.94","","","","-50","","Ice Crystals,Blowing Snow"
"-92.11","62.81","RANKIN INLET A","2303405","2020-02-09 11:00","2020","02","09","11:00","-33.4","","-37.7","","66","","","","31","","26","","16.1","","99.94","","","","-49","","Ice Crystals,Blowing Snow"
"-92.11","62.81","RANKIN INLET A","2303405","2020-02-09 12:00","2020","02","09","12:00","-32.8","","-37.1","","66","","","","31","","23","","24.1","","99.96","","","","-48","","Ice Crystals,Blowing Snow"
"-92.11","62.81","RANKIN INLET A","2303405","2020-02-09 13:00","2020","02","09","13:00","-32.3","","-36.5","","67","","","","32","","22","","16.1","","99.99","","","","-47","","Ice Crystals,Blowing Snow"
"-92.11","62.81","RANKIN INLET A","2303405","2020-02-09 14:00","2020","02","09","14:00","-31.8","","-36.1","","67","","","","32","","18","","16.1","","100.01","","","","-45","","Ice Crystals,Blowing Snow"
"-92.11","62.81","RANKIN INLET A","2303405","2020-02-09 15:00","2020","02","09","15:00","-31.9","","-36.2","","66","","","","31","","17","","16.1","","100.02","","","","-44","","Ice Crystals,Blowing Snow"
"-92.11","62.81","RANKIN INLET A","2303405","2020-02-09 16:00","2020","02","09","16:00","-31.9","","-36.2","","66","","","","31","","15","","16.1","","100.08","","","","-44","","Ice Crystals"
"-92.11","62.81","RANKIN INLET A","2303405","2020-02-09 17:00","2020","02","09","17:00","-32.8","","-37.1","","66","","","","31","","16","","9.7","","100.09","","","","-45","","Snow"
"-92.11","62.81","RANKIN INLET A","2303405","2020-02-09 18:00","2020","02","09","18:00","-33.2","","-37.5","","67","","","","32","","14","","12.9","","100.10","","","","-45","","Ice Crystals"
"-92.11","62.81","RANKIN INLET A","2303405","2020-02-09 19:00","2020","02","09","19:00","-33.7","","-37.9","","67","","","","31","","15","","12.9","","100.07","","","","-46","","Ice Crystals"
"-92.11","62.81","RANKIN INLET A","2303405","2020-02-09 20:00","2020","02","09","20:00","-33.3","","-37.4","","68","","","","29","","14","","12.9","","100.10","","","","-45","","Ice Crystals"
"-92.11","62.81","RANKIN INLET A","2303405","2020-02-09 21:00","2020","02","09","21:00","-33.3","","-37.4","","68","","","","28","","17","","12.9","","100.07","","","","-46","","Ice Crystals"
"-92.11","62.81","RANKIN INLET A","2303405","2020-02-09 22:00","2020","02","09","22:00","-33.5","","-37.6","","68","","","","28","","15","","12.9","","100.06","","","","-46","","Ice Crystals"
"-92.11","62.81","RANKIN INLET A","2303405","2020-02-09 23:00","2020","02","09","23:00","-33.8","","-37.9","","68","","","","27","","12","","6.4","","100.04","","","","-45","","Snow,Ice Crystals"
"-92.11","62.81","RANKIN INLET A","2303405","2020-02-10 00:00","2020","02","10","00:00","-35.1","","-39.1","","68","","","","29","","13","","8.1","","100.03","","","","-47","","Snow,Ice Crystals"
"-92.11","62.81","RANKIN INLET A","2303405","2020-02-10 01:00","2020","02","10","01:00","-35.6","","-39.7","","67","","","","30","","17","","8.1","","100.05","","","","-49","","Snow,Ice Crystals"
"-92.11","62.81","RANKIN INLET A","2303405","2020-02-10 02:00","2020","02","10","02:00","-35.2","","-39.3","","67","","","","30","","10","","8.1","","100.07","","","","-45","","Snow,Ice Crystals"
"-92.11","62.81","RANKIN INLET A","2303405","2020-02-10 03:00","2020","02","10","03:00","-35.7","","-39.9","","66","","","","31","","13","","8.1","","100.05","","","","-48","","Snow,Ice Crystals"
"-92.11","62.81","RANKIN INLET A","2303405","2020-02-10 04:00","2020","02","10","04:00","-35.6","","-39.7","","66","","","","31","","15","","8.1","","100.06","","","","-48","","Snow,Ice Crystals"
"-92.11","62.81","RANKIN INLET A","2303405","2020-02-10 05:00","2020","02","10","05:00","-35.0","","-39.3","","66","","","","32","","17","","8.1","","100.03","","","","-48","","Snow,Ice Crystals"
"-92.11","62.81","RANKIN INLET A","2303405","2020-02-10 06:00","2020","02","10","06:00","-34.7","","-38.9","","66","","","","33","","19","","8.1","","100.01","","","","-49","","Snow,Ice Crystals"
"-92.11","62.81","RANKIN INLET A","2303405","2020-02-10 07:00","2020","02","10","07:00","-35.4","","-39.6","","66","","","","34","","19","","8.1","","100.02","","","","-50","","Snow,Ice Crystals"
"-92.11","62.81","RANKIN INLET A","2303405","2020-02-10 08:00","2020","02","10","08:00","-35.3","","-39.5","","66","","","","33","","17","","16.1","","100.02","","","","-49","","Ice Crystals"
"-92.11","62.81","RANKIN INLET A","2303405","2020-02-10 09:00","2020","02","10","09:00","-35.4","","-39.6","","66","","","","34","","14","","8.1","","100.06","","","","-48","","Snow,Ice Crystals"
"-92.11","62.81","RANKIN INLET A","2303405","2020-02-10 10:00","2020","02","10","10:00","-35.4","","-39.7","","66","","","","30","","10","","12.9","","100.09","","","","-46","","Ice Crystals"
"-92.11","62.81","RANKIN INLET A","2303405","2020-02-10 11:00","2020","02","10","11:00","-34.7","","-39.0","","66","","","","33","","18","","6.4","","100.08","","","","-48","","Snow"
"-92.11","62.81","RANKIN INLET A","2303405","2020-02-10 12:00","2020","02","10","12:00","-34.8","","-39.1","","66","","","","32","","13","","6.4","","100.08","","","","-46","","Ice Crystals"
"-92.11","62.81","RANKIN INLET A","2303405","2020-02-10 13:00","2020","02","10","13:00","-34.5","","-38.8","","66","","","","35","","17","","8.1","","100.08","","","","-48","","Ice Crystals"
"-92.11","62.81","RANKIN INLET A","2303405","2020-02-10 14:00","2020","02","10","14:00","-34.7","","-39.0","","66","","","","33","","14","","16.1","","100.07","","","","-47","","Ice Crystals"
"-92.11","62.81","RANKIN INLET A","2303405","2020-02-10 15:00","2020","02","10","15:00","-33.7","","-38.0","","66","","","","34","","17","","16.1","","100.12","","","","-47","","Ice Crystals"
"-92.11","62.81","RANKIN INLET A","2303405","2020-02-10 16:00","2020","02","10","16:00","-33.3","","-37.7","","66","","","","34","","21","","4.8","","100.14","","","","-48","","Ice Crystals"
"-92.11","62.81","RANKIN INLET A","2303405","2020-02-10 17:00","2020","02","10","17:00","-33.8","","-38.2","","65","","","","35","","19","","6.4","","100.14","","","","-48","","Ice Crystals"
"-92.11","62.81","RANKIN INLET A","2303405","2020-02-10 18:00","2020","02","10","18:00","-34.9","","-39.2","","65","","","","35","","19","","8.1","","100.13","","","","-49","","Snow"
"-92.11","62.81","RANKIN INLET A","2303405","2020-02-10 19:00","2020","02","10","19:00","-35.4","","-39.8","","65","","","","35","","15","","8.1","","100.17","","","","-48","","Snow"
"-92.11","62.81","RANKIN INLET A","2303405","2020-02-10 20:00","2020","02","10","20:00","-36.0","","-40.5","","65","","","","35","","15","","4.8","","100.14","","","","-49","","Snow"
"-92.11","62.81","RANKIN INLET A","2303405","2020-02-10 21:00","2020","02","10","21:00","-36.0","","-40.4","","65","","","","34","","22","","4.8","","100.13","","","","-51","","Snow"
"-92.11","62.81","RANKIN INLET A","2303405","2020-02-10 22:00","2020","02","10","22:00","-37.0","","-41.4","","65","","","","35","","30","","4.8","","100.12","","","","-55","","Snow"
"-92.11","62.81","RANKIN INLET A","2303405","2020-02-10 23:00","2020","02","10","23:00","-37.6","","-42.0","","65","","","","35","","21","","4.8","","100.14","","","","-53","","Snow"
"-92.11","62.81","RANKIN INLET A","2303405","2020-02-11 00:00","2020","02","11","00:00","-37.4","","-41.7","","65","","","","35","","29","","8.1","","100.15","","","","-55","","Snow"
"-92.11","62.81","RANKIN INLET A","2303405","2020-02-11 01:00","2020","02","11","01:00","-38.0","","-42.4","","65","","","","35","","26","","4.8","","100.23","","","","-55","","Snow"
"-92.11","62.81","RANKIN INLET A","2303405","2020-02-11 02:00","2020","02","11","02:00","-37.8","","-42.1","","65","","","","34","","26","","4.8","","100.27","","","","-55","","Snow"
"-92.11","62.81","RANKIN INLET A","2303405","2020-02-11 03:00","2020","02","11","03:00","-37.5","","-41.9","","65","","","","35","","22","","4.8","","100.28","","","","-53","","Snow"
"-92.11","62.81","RANKIN INLET A","2303405","2020-02-11 04:00","2020","02","11","04:00","-38.6","","-43.0","","65","","","","35","","29","","4.8","","100.31","","","","-57","","Snow"
"-92.11","62.81","RANKIN INLET A","2303405","2020-02-11 05:00","2020","02","11","05:00","-39.5","","-43.9","","64","","","","36","","28","","3.2","","100.35","","","","-57","","Snow"
"-92.11","62.81","RANKIN INLET A","2303405","2020-02-11 06:00","2020","02","11","06:00","-40.0","","-44.4","","64","","","","36","","36","","3.2","","100.37","","","","-60","","Ice Crystals,Blowing Snow"
"-92.11","62.81","RANKIN INLET A","2303405","2020-02-11 07:00","2020","02","11","07:00","-40.2","","-44.6","","64","","","","36","","25","","3.2","","100.45","","","","-58","","Ice Crystals,Blowing Snow"
"-92.11","62.81","RANKIN INLET A","2303405","2020-02-11 08:00","2020","02","11","08:00","-40.4","","-44.9","","63","","","","36","","36","","2.4","","100.46","","","","-61","","Ice Crystals,Blowing Snow"
"-92.11","62.81","RANKIN INLET A","2303405","2020-02-11 09:00","2020","02","11","09:00","-40.9","","-45.4","","63","","","","36","","17","","4.0","","100.53","","","","-56","","Ice Crystals,Blowing Snow"
"-92.11","62.81","RANKIN INLET A","2303405","2020-02-11 10:00","2020","02","11","10:00","-40.1","","-44.6","","63","","","","36","","28","","4.0","","100.53","","","","-58","","Ice Crystals,Blowing Snow"
"-92.11","62.81","RANKIN INLET A","2303405","2020-02-11 11:00","2020","02","11","11:00","-39.6","","-44.1","","63","","","","36","","32","","2.4","","100.58","","","","-59","","Ice Crystals,Blowing Snow"
"-92.11","62.81","RANKIN INLET A","2303405","2020-02-11 12:00","2020","02","11","12:00","-38.8","","-43.4","","63","","","","36","","28","","3.2","","100.55","","","","-57","","Ice Crystals,Blowing Snow"
"-92.11","62.81","RANKIN INLET A","2303405","2020-02-11 13:00","2020","02","11","13:00","-38.3","","-42.9","","64","","","","35","","39","","2.8","","100.56","","","","-58","","Ice Crystals,Blowing Snow"
"-92.11","62.81","RANKIN INLET A","2303405","2020-02-11 14:00","2020","02","11","14:00","-37.8","","-42.4","","64","","","","35","","36","","2.8","","100.62","","","","-57","","Ice Crystals,Blowing Snow"
"-92.11","62.81","RANKIN INLET A","2303405","2020-02-11 15:00","2020","02","11","15:00","-37.5","","-42.0","","64","","","","35","","30","","2.8","","100.67","","","","-55","","Ice Crystals,Blowing Snow"
"-92.11","62.81","RANKIN INLET A","2303405","2020-02-11 16:00","2020","02","11","16:00","-37.5","","-42.0","","64","","","","35","","34","","2.8","","100.66","","","","-56","","Ice Crystals,Blowing Snow"
"-92.11","62.81","RANKIN INLET A","2303405","2020-02-11 17:00","2020","02","11","17:00","-38.2","","-42.7","","64","","","","34","","32","","4.0","","100.70","","","","-57","","Ice Crystals,Blowing Snow"
"-92.11","62.81","RANKIN INLET A","2303405","2020-02-11 18:00","2020","02","11","18:00","-38.7","","-43.2","","64","","","","34","","33","","4.8","","100.72","","","","-58","","Ice Crystals,Blowing Snow"
"-92.11","62.81","RANKIN INLET A","2303405","2020-02-11 19:00","2020","02","11","19:00","-38.5","","-42.9","","64","","","","33","","31","","4.0","","100.77","","","","-57","","Ice Crystals,Blowing Snow"
"-92.11","62.81","RANKIN INLET A","2303405","2020-02-11 20:00","2020","02","11","20:00","-37.4","","-41.8","","64","","","","32","","31","","4.0","","100.72","","","","-56","","Ice Crystals,Blowing Snow"
"-92.11","62.81","RANKIN INLET A","2303405","2020-02-11 21:00","2020","02","11","21:00","-35.4","","-39.8","","66","","","","33","","25","","4.0","","100.67","","","","-51","","Ice Crystals,Blowing Snow"
"-92.11","62.81","RANKIN INLET A","2303405","2020-02-11 22:00","2020","02","11","22:00","-33.5","","-37.7","","67","","","","33","","30","","2.4","","100.65","","","","-50","","Ice Crystals,Blowing Snow"
"-92.11","62.81","RANKIN INLET A","2303405","2020-02-11 23:00","2020","02","11","23:00","-32.2","","-36.4","","68","","","","33","","42","","1.6","","100.63","","","","-51","","Ice Crystals,Blowing Snow"
"-92.11","62.81","RANKIN INLET A","2303405","2020-02-12 00:00","2020","02","12","00:00","-32.2","","-36.3","","68","","","","34","","45","","1.6","","100.60","","","","-51","","Ice Crystals,Blowing Snow"
"-92.11","62.81","RANKIN INLET A","2303405","2020-02-12 01:00","2020","02","12","01:00","-33.4","","-37.6","","67","","","","33","","48","","1.6","","100.59","","","","-53","","Ice Crystals,Blowing Snow"
"-92.11","62.81","RANKIN INLET A","2303405","2020-02-12 02:00","2020","02","12","02:00","-34.3","","-38.5","","67","","","","33","","36","","1.6","","100.63","","","","-52","","Ice Crystals,Blowing Snow"
"-92.11","62.81","RANKIN INLET A","2303405","2020-02-12 03:00","2020","02","12","03:00","-34.6","","-38.9","","66","","","","33","","36","","3.2","","100.69","","","","-53","","Ice Crystals,Blowing Snow"
"-92.11","62.81","RANKIN INLET A","2303405","2020-02-12 04:00","2020","02","12","04:00","-35.1","","-39.4","","66","","","","32","","28","","4.8","","100.68","","","","-52","","Ice Crystals,Blowing Snow"
"-92.11","62.81","RANKIN INLET A","2303405","2020-02-12 05:00","2020","02","12","05:00","-35.2","","-39.5","","66","","","","32","","28","","4.8","","100.68","","","","-52","","Ice Crystals,Blowing Snow"
"-92.11","62.81","RANKIN INLET A","2303405","2020-02-12 06:00","2020","02","12","06:00","-35.4","","-39.8","","65","","","","32","","30","","4.8","","100.67","","","","-53","","Ice Crystals,Blowing Snow"
"-92.11","62.81","RANKIN INLET A","2303405","2020-02-12 07:00","2020","02","12","07:00","-35.5","","-39.9","","65","","","","32","","30","","4.8","","100.68","","","","-53","","Ice Crystals,Blowing Snow"
"-92.11","62.81","RANKIN INLET A","2303405","2020-02-12 08:00","2020","02","12","08:00","-35.5","","-39.9","","65","","","","32","","30","","4.8","","100.70","","","","-53","","Ice Crystals,Blowing Snow"
"-92.11","62.81","RANKIN INLET A","2303405","2020-02-12 09:00","2020","02","12","09:00","-35.5","","-39.9","","65","","","","33","","31","","4.8","","100.67","","","","-53","","Ice Crystals,Blowing Snow"
"-92.11","62.81","RANKIN INLET A","2303405","2020-02-12 10:00","2020","02","12","10:00","-35.5","","-39.9","","65","","","","32","","35","","3.2","","100.68","","","","-54","","Ice Crystals,Blowing Snow"
"-92.11","62.81","RANKIN INLET A","2303405","2020-02-12 11:00","2020","02","12","11:00","-35.6","","-40.0","","65","","","","33","","35","","2.4","","100.71","","","","-54","","Ice Crystals,Blowing Snow"
"-92.11","62.81","RANKIN INLET A","2303405","2020-02-12 12:00","2020","02","12","12:00","-35.5","","-39.9","","65","","","","33","","35","","1.6","","100.66","","","","-54","","Ice Crystals,Blowing Snow"
"-92.11","62.81","RANKIN INLET A","2303405","2020-02-12 13:00","2020","02","12","13:00","-35.4","","-39.8","","65","","","","34","","32","","1.6","","100.69","","","","-53","","Ice Crystals,Blowing Snow"
"-92.11","62.81","RANKIN INLET A","2303405","2020-02-12 14:00","2020","02","12","14:00","-35.2","","-39.6","","65","","","","34","","37","","1.6","","100.74","","","","-54","","Ice Crystals,Blowing Snow"
"-92.11","62.81","RANKIN INLET A","2303405","2020-02-12 15:00","2020","02","12","15:00","-35.0","","-39.5","","65","","","","35","","32","","4.0","","100.82","","","","-53","","Ice Crystals,Blowing Snow"
"-92.11","62.81","RANKIN INLET A","2303405","2020-02-12 16:00","2020","02","12","16:00","-35.2","","-39.6","","65","","","","36","","26","","4.0","","100.85","","","","-51","","Ice Crystals,Blowing Snow"
"-92.11","62.81","RANKIN INLET A","2303405","2020-02-12 17:00","2020","02","12","17:00","-35.5","","-40.0","","65","","","","34","","20","","12.9","","100.94","","","","-50","","Ice Crystals,Blowing Snow"
"-92.11","62.81","RANKIN INLET A","2303405","2020-02-12 18:00","2020","02","12","18:00","-35.5","","-39.9","","65","","","","35","","40","","4.8","","100.93","","","","-55","","Ice Crystals,Blowing Snow"
"-92.11","62.81","RANKIN INLET A","2303405","2020-02-12 19:00","2020","02","12","19:00","-35.8","","-40.1","","65","","","","34","","30","","6.4","","100.99","","","","-53","","Ice Crystals,Blowing Snow"
"-92.11","62.81","RANKIN INLET A","2303405","2020-02-12 20:00","2020","02","12","20:00","-35.9","","-40.3","","65","","","","34","","38","","4.0","","101.00","","","","-55","","Ice Crystals,Blowing Snow"
"-92.11","62.81","RANKIN INLET A","2303405","2020-02-12 21:00","2020","02","12","21:00","-36.3","","-40.7","","65","","","","33","","25","","4.0","","101.06","","","","-53","","Ice Crystals,Blowing Snow"
"-92.11","62.81","RANKIN INLET A","2303405","2020-02-12 22:00","2020","02","12","22:00","-36.5","","-40.9","","65","","","","35","","25","","4.8","","101.05","","","","-53","","Ice Crystals,Blowing Snow"
"-92.11","62.81","RANKIN INLET A","2303405","2020-02-12 23:00","2020","02","12","23:00","-36.7","","-41.0","","65","","","","36","","34","","4.8","","101.06","","","","-55","","Ice Crystals,Blowing Snow"
"-92.11","62.81","RANKIN INLET A","2303405","2020-02-13 00:00","2020","02","13","00:00","-36.9","","-41.3","","65","","","","36","","20","","4.8","","101.16","","","","-52","","Ice Crystals,Blowing Snow"
"-92.11","62.81","RANKIN INLET A","2303405","2020-02-13 01:00","2020","02","13","01:00","-37.3","","-41.8","","64","","","","33","","26","","6.4","","101.17","","","","-54","","Ice Crystals,Blowing Snow"
"-92.11","62.81","RANKIN INLET A","2303405","2020-02-13 02:00","2020","02","13","02:00","-37.4","","-41.9","","64","","","","35","","22","","6.4","","101.20","","","","-53","","Ice Crystals,Blowing Snow"
"-92.11","62.81","RANKIN INLET A","2303405","2020-02-13 03:00","2020","02","13","03:00","-37.6","","-42.1","","64","","","","35","","15","","6.4","","101.27","","","","-51","","Ice Crystals"
"-92.11","62.81","RANKIN INLET A","2303405","2020-02-13 04:00","2020","02","13","04:00","-37.5","","-42.0","","64","","","","34","","28","","6.4","","101.27","","","","-55","","Ice Crystals,Blowing Snow"
"-92.11","62.81","RANKIN INLET A","2303405","2020-02-13 05:00","2020","02","13","05:00","-37.5","","-41.9","","64","","","","34","","27","","6.4","","101.29","","","","-55","","Ice Crystals,Blowing Snow"
"-92.11","62.81","RANKIN INLET A","2303405","2020-02-13 06:00","2020","02","13","06:00","-37.4","","-41.9","","64","","","","36","","28","","8.1","","101.22","","","","-55","","Ice Crystals,Blowing Snow"
"-92.11","62.81","RANKIN INLET A","2303405","2020-02-13 07:00","2020","02","13","07:00","-37.3","","-41.8","","64","","","","35","","21","","8.1","","101.23","","","","-53","","Ice Crystals,Blowing Snow"
"-92.11","62.81","RANKIN INLET A","2303405","2020-02-13 08:00","2020","02","13","08:00","-37.0","","-41.5","","64","","","","30","","10","","16.1","","101.27","","","","-48","","Ice Crystals"
"-92.11","62.81","RANKIN INLET A","2303405","2020-02-13 09:00","2020","02","13","09:00","-36.3","","-40.8","","64","","","","30","","17","","16.1","","101.28","","","","-50","","Ice Crystals"
"-92.11","62.81","RANKIN INLET A","2303405","2020-02-13 10:00","2020","02","13","10:00","-35.7","","-40.2","","64","","","","35","","14","","24.1","","101.23","","","","-48","","Ice Crystals"
"-92.11","62.81","RANKIN INLET A","2303405","2020-02-13 11:00","2020","02","13","11:00","-35.4","","-40.0","","64","","","","35","","20","","24.1","","101.21","","","","-50","","Ice Crystals"
"-92.11","62.81","RANKIN INLET A","2303405","2020-02-13 12:00","2020","02","13","12:00","-34.7","","-39.3","","64","","","","35","","17","","24.1","","101.21","","","","-48","","Ice Crystals,Blowing Snow"
"-92.11","62.81","RANKIN INLET A","2303405","2020-02-13 13:00","2020","02","13","13:00","-34.2","","-38.8","","64","","","","32","","16","","24.1","","101.16","","","","-47","","Ice Crystals"
"-92.11","62.81","RANKIN INLET A","2303405","2020-02-13 14:00","2020","02","13","14:00","-33.9","","-38.5","","64","","","","33","","22","","24.1","","101.12","","","","-49","","Ice Crystals"
"-92.11","62.81","RANKIN INLET A","2303405","2020-02-13 15:00","2020","02","13","15:00","-33.8","","-38.4","","64","","","","32","","18","","24.1","","101.05","","","","-47","","Ice Crystals"
"-92.11","62.81","RANKIN INLET A","2303405","2020-02-13 16:00","2020","02","13","16:00","-34.4","","-38.9","","65","","","","30","","16","","24.1","","101.05","","","","-47","","Ice Crystals"
"-92.11","62.81","RANKIN INLET A","2303405","2020-02-13 17:00","2020","02","13","17:00","-35.3","","-39.8","","65","","","","31","","16","","24.1","","101.06","","","","-48","","Ice Crystals"
"-92.11","62.81","RANKIN INLET A","2303405","2020-02-13 18:00","2020","02","13","18:00","-35.7","","-40.1","","65","","","","32","","21","","24.1","","101.00","","","","-51","","Ice Crystals"
"-92.11","62.81","RANKIN INLET A","2303405","2020-02-13 19:00","2020","02","13","19:00","-36.2","","-40.7","","65","","","","31","","19","","24.1","","100.97","","","","-51","","Ice Crystals"
"-92.11","62.81","RANKIN INLET A","2303405","2020-02-13 20:00","2020","02","13","20:00","-36.8","","-41.2","","65","","","","31","","16","","24.1","","100.92","","","","-50","","Ice Crystals"
"-92.11","62.81","RANKIN INLET A","2303405","2020-02-13 21:00","2020","02","13","21:00","-36.9","","-41.4","","64","","","","30","","19","","24.1","","100.88","","","","-51","","Ice Crystals"
"-92.11","62.81","RANKIN INLET A","2303405","2020-02-13 22:00","2020","02","13","22:00","-37.2","","-41.6","","65","","","","30","","18","","24.1","","100.76","","","","-51","","Ice Crystals"
"-92.11","62.81","RANKIN INLET A","2303405","2020-02-13 23:00","2020","02","13","23:00","-37.1","","-41.5","","65","","","","30","","19","","24.1","","100.69","","","","-52","","Ice Crystals"
"-92.11","62.81","RANKIN INLET A","2303405","2020-02-14 00:00","2020","02","14","00:00","-37.2","","-41.6","","65","","","","31","","22","","24.1","","100.62","","","","-53","","Ice Crystals"
"-92.11","62.81","RANKIN INLET A","2303405","2020-02-14 01:00","2020","02","14","01:00","-37.2","","-41.6","","65","","","","30","","22","","24.1","","100.62","","","","-53","","Ice Crystals"
"-92.11","62.81","RANKIN INLET A","2303405","2020-02-14 02:00","2020","02","14","02:00","-37.0","","-41.4","","65","","","","31","","18","","24.1","","100.63","","","","-51","","Ice Crystals"
"-92.11","62.81","RANKIN INLET A","2303405","2020-02-14 03:00","2020","02","14","03:00","-37.3","","-41.7","","65","","","","28","","19","","24.1","","100.61","","","","-52","","Ice Crystals"
"-92.11","62.81","RANKIN INLET A","2303405","2020-02-14 04:00","2020","02","14","04:00","-37.0","","-41.3","","65","","","","34","","20","","24.1","","100.52","","","","-52","","Ice Crystals"
"-92.11","62.81","RANKIN INLET A","2303405","2020-02-14 05:00","2020","02","14","05:00","-36.9","","-41.3","","65","","","","31","","17","","24.1","","100.45","","","","-51","","Ice Crystals"
"-92.11","62.81","RANKIN INLET A","2303405","2020-02-14 06:00","2020","02","14","06:00","-37.0","","-41.3","","65","","","","31","","19","","24.1","","100.40","","","","-52","","Ice Crystals"
"-92.11","62.81","RANKIN INLET A","2303405","2020-02-14 07:00","2020","02","14","07:00","-36.4","","-40.8","","65","","","","32","","16","","24.1","","100.38","","","","-50","","Ice Crystals"
"-92.11","62.81","RANKIN INLET A","2303405","2020-02-14 08:00","2020","02","14","08:00","-36.0","","-40.4","","65","","","","31","","7","","16.1","","100.32","","","","-44","","Ice Crystals"
"-92.11","62.81","RANKIN INLET A","2303405","2020-02-14 09:00","2020","02","14","09:00","-35.5","","-39.9","","65","","","","33","","19","","24.1","","100.30","","","","-50","","Ice Crystals"
"-92.11","62.81","RANKIN INLET A","2303405","2020-02-14 10:00","2020","02","14","10:00","-35.2","","-39.7","","65","","","","32","","18","","24.1","","100.26","","","","-49","","Ice Crystals"
"-92.11","62.81","RANKIN INLET A","2303405","2020-02-14 11:00","2020","02","14","11:00","-34.7","","-39.2","","64","","","","31","","19","","24.1","","100.21","","","","-49","","Ice Crystals"
"-92.11","62.81","RANKIN INLET A","2303405","2020-02-14 12:00","2020","02","14","12:00","-34.3","","-38.9","","64","","","","33","","18","","24.1","","100.17","","","","-48","","Ice Crystals"
"-92.11","62.81","RANKIN INLET A","2303405","2020-02-14 13:00","2020","02","14","13:00","-34.3","","-38.9","","64","","","","33","","18","","24.1","","100.11","","","","-48","","Ice Crystals"
"-92.11","62.81","RANKIN INLET A","2303405","2020-02-14 14:00","2020","02","14","14:00","-34.1","","-38.7","","64","","","","34","","19","","24.1","","100.07","","","","-48","","Ice Crystals"
"-92.11","62.81","RANKIN INLET A","2303405","2020-02-14 15:00","2020","02","14","15:00","-34.4","","-39.0","","64","","","","35","","20","","24.1","","100.04","","","","-49","","Ice Crystals"
"-92.11","62.81","RANKIN INLET A","2303405","2020-02-14 16:00","2020","02","14","16:00","-34.4","","-38.9","","64","","","","33","","18","","24.1","","100.03","","","","-48","","Ice Crystals"
"-92.11","62.81","RANKIN INLET A","2303405","2020-02-14 17:00","2020","02","14","17:00","-34.3","","-38.8","","65","","","","34","","24","","24.1","","99.96","","","","-50","","Ice Crystals"
"-92.11","62.81","RANKIN INLET A","2303405","2020-02-14 18:00","2020","02","14","18:00","-34.7","","-39.2","","64","","","","34","","21","","24.1","","99.93","","","","-49","","Ice Crystals"
"-92.11","62.81","RANKIN INLET A","2303405","2020-02-14 19:00","2020","02","14","19:00","-35.4","","-40.0","","64","","","","34","","19","","24.1","","99.91","","","","-50","","Ice Crystals"
"-92.11","62.81","RANKIN INLET A","2303405","2020-02-14 20:00","2020","02","14","20:00","-35.7","","-40.3","","64","","","","35","","19","","24.1","","99.92","","","","-50","","Ice Crystals"
"-92.11","62.81","RANKIN INLET A","2303405","2020-02-14 21:00","2020","02","14","21:00","-35.7","","-40.3","","64","","","","35","","19","","24.1","","99.87","","","","-50","","Ice Crystals"
"-92.11","62.81","RANKIN INLET A","2303405","2020-02-14 22:00","2020","02","14","22:00","-36.1","","-40.6","","64","","","","36","","23","","24.1","","99.80","","","","-52","","Ice Crystals"
"-92.11","62.81","RANKIN INLET A","2303405","2020-02-14 23:00","2020","02","14","23:00","-35.5","","-40.0","","64","","","","1","","18","","24.1","","99.78","","","","-49","","Ice Crystals"
"-92.11","62.81","RANKIN INLET A","2303405","2020-02-15 00:00","2020","02","15","00:00","-35.6","","-40.1","","64","","","","36","","24","","24.1","","99.74","","","","-51","","Ice Crystals"
"-92.11","62.81","RANKIN INLET A","2303405","2020-02-15 01:00","2020","02","15","01:00","-35.5","","-39.9","","65","","","","35","","27","","24.1","","99.73","","","","-52","","Ice Crystals"
"-92.11","62.81","RANKIN INLET A","2303405","2020-02-15 02:00","2020","02","15","02:00","-35.7","","-40.1","","65","","","","35","","22","","24.1","","99.74","","","","-51","","Ice Crystals"
"-92.11","62.81","RANKIN INLET A","2303405","2020-02-15 03:00","2020","02","15","03:00","-36.4","","-40.9","","65","","","","36","","31","","24.1","","99.72","","","","-54","","Ice Crystals"
"-92.11","62.81","RANKIN INLET A","2303405","2020-02-15 04:00","2020","02","15","04:00","-37.0","","-41.4","","65","","","","35","","31","","24.1","","99.71","","","","-55","","Ice Crystals"
"-92.11","62.81","RANKIN INLET A","2303405","2020-02-15 05:00","2020","02","15","05:00","-37.5","","-41.9","","65","","","","35","","29","","16.1","","99.71","","","","-55","","Ice Crystals"
"-92.11","62.81","RANKIN INLET A","2303405","2020-02-15 06:00","2020","02","15","06:00","-37.9","","-42.3","","64","","","","35","","26","","24.1","","99.70","","","","-55","","Ice Crystals"
"-92.11","62.81","RANKIN INLET A","2303405","2020-02-15 07:00","2020","02","15","07:00","-38.1","","-42.5","","64","","","","34","","29","","8.1","","99.69","","","","-56","","Ice Crystals,Blowing Snow"
"-92.11","62.81","RANKIN INLET A","2303405","2020-02-15 08:00","2020","02","15","08:00","-38.2","","-42.7","","64","","","","34","","29","","8.1","","99.70","","","","-56","","Ice Crystals,Blowing Snow"
"-92.11","62.81","RANKIN INLET A","2303405","2020-02-15 09:00","2020","02","15","09:00","-37.8","","-42.3","","64","","","","34","","28","","4.8","","99.69","","","","-55","","Ice Crystals,Blowing Snow"
"-92.11","62.81","RANKIN INLET A","2303405","2020-02-15 10:00","2020","02","15","10:00","-37.4","","-41.9","","64","","","","35","","30","","3.2","","99.64","","","","-55","","Ice Crystals,Blowing Snow"
"-92.11","62.81","RANKIN INLET A","2303405","2020-02-15 11:00","2020","02","15","11:00","-36.9","","-41.4","","64","","","","32","","28","","1.6","","99.69","","","","-54","","Ice Crystals,Blowing Snow"
"-92.11","62.81","RANKIN INLET A","2303405","2020-02-15 12:00","2020","02","15","12:00","-36.6","","-41.1","","64","","","","34","","40","","1.2","","99.63","","","","-56","","Ice Crystals,Blowing Snow"
"-92.11","62.81","RANKIN INLET A","2303405","2020-02-15 13:00","2020","02","15","13:00","-36.4","","-40.8","","65","","","","33","","41","","1.2","","99.62","","","","-56","","Ice Crystals,Blowing Snow"
"-92.11","62.81","RANKIN INLET A","2303405","2020-02-15 14:00","2020","02","15","14:00","-35.9","","-40.3","","65","","","","33","","36","","0.4","","99.64","","","","-55","","Ice Crystals,Blowing Snow"
"-92.11","62.81","RANKIN INLET A","2303405","2020-02-15 15:00","2020","02","15","15:00","-35.7","","-40.0","","65","","","","33","","44","","0.4","","99.65","","","","-56","","Ice Crystals,Blowing Snow"
"-92.11","62.81","RANKIN INLET A","2303405","2020-02-15 16:00","2020","02","15","16:00","-35.8","","-40.1","","66","","","","33","","52","","0.4","","99.66","","","","-57","","Ice Crystals,Blowing Snow"
"-92.11","62.81","RANKIN INLET A","2303405","2020-02-15 17:00","2020","02","15","17:00","-35.8","","-40.1","","66","","","","33","","41","","0.4","","99.71","","","","-55","","Ice Crystals,Blowing Snow"
"-92.11","62.81","RANKIN INLET A","2303405","2020-02-15 18:00","2020","02","15","18:00","-35.7","","-40.0","","66","","","","33","","40","","0.4","","99.71","","","","-55","","Ice Crystals,Blowing Snow"
"-92.11","62.81","RANKIN INLET A","2303405","2020-02-15 19:00","2020","02","15","19:00","-35.5","","-39.8","","66","","","","34","","42","","0.6","","99.70","","","","-55","","Ice Crystals,Blowing Snow"
"-92.11","62.81","RANKIN INLET A","2303405","2020-02-15 20:00","2020","02","15","20:00","-35.2","","-39.5","","66","","","","32","","45","","0.6","","99.69","","","","-55","","Ice Crystals,Blowing Snow"
"-92.11","62.81","RANKIN INLET A","2303405","2020-02-15 21:00","2020","02","15","21:00","-34.7","","-39.0","","66","","","","33","","38","","0.6","","99.66","","","","-53","","Ice Crystals,Blowing Snow"
"-92.11","62.81","RANKIN INLET A","2303405","2020-02-15 22:00","2020","02","15","22:00","-34.3","","-38.5","","67","","","","33","","34","","1.0","","99.70","","","","-52","","Ice Crystals,Blowing Snow"
"-92.11","62.81","RANKIN INLET A","2303405","2020-02-15 23:00","2020","02","15","23:00","-33.9","","-38.0","","67","","","","33","","35","","1.0","","99.71","","","","-52","","Ice Crystals,Blowing Snow"
"-92.11","62.81","RANKIN INLET A","2303405","2020-02-16 00:00","2020","02","16","00:00","-33.6","","-37.8","","67","","","","32","","28","","1.0","","99.71","","","","-50","","Ice Crystals,Blowing Snow"
"-92.11","62.81","RANKIN INLET A","2303405","2020-02-16 01:00","2020","02","16","01:00","-33.5","","-37.6","","67","","","","32","","44","","1.0","","99.62","","","","-53","","Ice Crystals,Blowing Snow"
"-92.11","62.81","RANKIN INLET A","2303405","2020-02-16 02:00","2020","02","16","02:00","-33.2","","-37.4","","67","","","","32","","36","","1.6","","99.65","","","","-51","","Ice Crystals,Blowing Snow"
"-92.11","62.81","RANKIN INLET A","2303405","2020-02-16 03:00","2020","02","16","03:00","-33.0","","-37.1","","67","","","","31","","32","","3.2","","99.68","","","","-50","","Ice Crystals,Blowing Snow"
"-92.11","62.81","RANKIN INLET A","2303405","2020-02-16 04:00","2020","02","16","04:00","-32.1","","-36.2","","68","","","","30","","21","","4.8","","99.73","","","","-46","","Ice Crystals,Blowing Snow"
"-92.11","62.81","RANKIN INLET A","2303405","2020-02-16 05:00","2020","02","16","05:00","-32.5","","-36.6","","68","","","","32","","19","","4.8","","99.73","","","","-46","","Ice Crystals,Blowing Snow"
"-92.11","62.81","RANKIN INLET A","2303405","2020-02-16 06:00","2020","02","16","06:00","-33.3","","-37.5","","67","","","","32","","24","","4.8","","99.72","","","","-48","","Ice Crystals,Blowing Snow"
"-92.11","62.81","RANKIN INLET A","2303405","2020-02-16 07:00","2020","02","16","07:00","-33.3","","-37.4","","67","","","","32","","26","","16.1","","99.69","","","","-49","","Ice Crystals"
"-92.11","62.81","RANKIN INLET A","2303405","2020-02-16 08:00","2020","02","16","08:00","-33.4","","-37.6","","67","","","","29","","25","","16.1","","99.66","","","","-49","","Ice Crystals,Blowing Snow"
"-92.11","62.81","RANKIN INLET A","2303405","2020-02-16 09:00","2020","02","16","09:00","-32.9","","-37.1","","67","","","","29","","27","","16.1","","99.63","","","","-49","","Ice Crystals,Blowing Snow"
"-92.11","62.81","RANKIN INLET A","2303405","2020-02-16 10:00","2020","02","16","10:00","-31.5","","-35.6","","67","","","","30","","26","","4.8","","99.60","","","","-47","","Ice Crystals,Blowing Snow"
"-92.11","62.81","RANKIN INLET A","2303405","2020-02-16 11:00","2020","02","16","11:00","-30.1","","-34.2","","68","","","","29","","23","","4.0","","99.57","","","","-44","","Ice Crystals,Blowing Snow"
"-92.11","62.81","RANKIN INLET A","2303405","2020-02-16 12:00","2020","02","16","12:00","-28.9","","-32.9","","69","","","","29","","31","","4.0","","99.53","","","","-44","","Ice Crystals,Blowing Snow"
"-92.11","62.81","RANKIN INLET A","2303405","2020-02-16 13:00","2020","02","16","13:00","-28.0","","-32.0","","69","","","","30","","29","","4.0","","99.55","","","","-43","","Ice Crystals,Blowing Snow"
"-92.11","62.81","RANKIN INLET A","2303405","2020-02-16 14:00","2020","02","16","14:00","-27.3","","-31.2","","70","","","","31","","32","","3.2","","99.52","","","","-42","","Ice Crystals,Blowing Snow"
"-92.11","62.81","RANKIN INLET A","2303405","2020-02-16 15:00","2020","02","16","15:00","-28.1","","-32.0","","70","","","","30","","28","","9.7","","99.56","","","","-43","","Ice Crystals,Blowing Snow"
"-92.11","62.81","RANKIN INLET A","2303405","2020-02-16 16:00","2020","02","16","16:00","-29.0","","-32.9","","70","","","","29","","23","","6.4","","99.62","","","","-43","","Ice Crystals,Blowing Snow"
"-92.11","62.81","RANKIN INLET A","2303405","2020-02-16 17:00","2020","02","16","17:00","-30.1","","-34.0","","69","","","","30","","25","","16.1","","99.65","","","","-45","","Ice Crystals,Blowing Snow"
"-92.11","62.81","RANKIN INLET A","2303405","2020-02-16 18:00","2020","02","16","18:00","-30.6","","-34.5","","70","","","","30","","29","","12.9","","99.65","","","","-46","","Ice Crystals,Blowing Snow"
"-92.11","62.81","RANKIN INLET A","2303405","2020-02-16 19:00","2020","02","16","19:00","-31.4","","-35.4","","69","","","","30","","25","","16.1","","99.71","","","","-46","","Ice Crystals,Blowing Snow"
"-92.11","62.81","RANKIN INLET A","2303405","2020-02-16 20:00","2020","02","16","20:00","-31.9","","-35.9","","69","","","","29","","24","","16.1","","99.69","","","","-47","","Ice Crystals,Blowing Snow"
"-92.11","62.81","RANKIN INLET A","2303405","2020-02-16 21:00","2020","02","16","21:00","-31.6","","-35.5","","69","","","","30","","27","","12.9","","99.72","","","","-47","","Ice Crystals,Blowing Snow"
"-92.11","62.81","RANKIN INLET A","2303405","2020-02-16 22:00","2020","02","16","22:00","-32.1","","-36.1","","68","","","","30","","28","","12.9","","99.69","","","","-48","","Ice Crystals,Blowing Snow"
"-92.11","62.81","RANKIN INLET A","2303405","2020-02-16 23:00","2020","02","16","23:00","-32.2","","-36.2","","68","","","","30","","24","","12.9","","99.72","","","","-47","","Ice Crystals,Blowing Snow"
"-92.11","62.81","RANKIN INLET A","2303405","2020-02-17 00:00","2020","02","17","00:00","-32.5","","-36.6","","68","","","","29","","22","","12.9","","99.72","","","","-47","","Ice Crystals,Blowing Snow"
"-92.11","62.81","RANKIN INLET A","2303405","2020-02-17 01:00","2020","02","17","01:00","-32.2","","-36.3","","68","","","","30","","27","","12.9","","99.75","","","","-48","","Ice Crystals,Blowing Snow"
"-92.11","62.81","RANKIN INLET A","2303405","2020-02-17 02:00","2020","02","17","02:00","-32.6","","-36.6","","68","","","","30","","28","","12.9","","99.77","","","","-49","","Ice Crystals,Blowing Snow"
"-92.11","62.81","RANKIN INLET A","2303405","2020-02-17 03:00","2020","02","17","03:00","-33.1","","-37.1","","68","","","","29","","26","","12.9","","99.81","","","","-49","","Ice Crystals,Blowing Snow"
"-92.11","62.81","RANKIN INLET A","2303405","2020-02-17 04:00","2020","02","17","04:00","-32.0","","-36.0","","69","","","","30","","31","","11.3","","99.82","","","","-48","","Ice Crystals,Blowing Snow"
"-92.11","62.81","RANKIN INLET A","2303405","2020-02-17 05:00","2020","02","17","05:00","-32.5","","-36.5","","68","","","","31","","35","","6.4","","99.82","","","","-50","","Ice Crystals,Blowing Snow"
"-92.11","62.81","RANKIN INLET A","2303405","2020-02-17 06:00","2020","02","17","06:00","-33.0","","-37.0","","68","","","","30","","28","","9.7","","99.87","","","","-49","","Ice Crystals,Blowing Snow"
"-92.11","62.81","RANKIN INLET A","2303405","2020-02-17 07:00","2020","02","17","07:00","-33.6","","-37.7","","68","","","","29","","30","","9.7","","99.89","","","","-50","","Ice Crystals,Blowing Snow"
"-92.11","62.81","RANKIN INLET A","2303405","2020-02-17 08:00","2020","02","17","08:00","-34.1","","-38.1","","68","","","","31","","23","","6.4","","99.93","","","","-49","","Ice Crystals,Blowing Snow"
"-92.11","62.81","RANKIN INLET A","2303405","2020-02-17 09:00","2020","02","17","09:00","-33.6","","-37.7","","67","","","","31","","32","","4.8","","99.93","","","","-51","","Ice Crystals,Blowing Snow"
"-92.11","62.81","RANKIN INLET A","2303405","2020-02-17 10:00","2020","02","17","10:00","-33.3","","-37.4","","67","","","","31","","30","","4.0","","99.94","","","","-50","","Ice Crystals,Blowing Snow"
"-92.11","62.81","RANKIN INLET A","2303405","2020-02-17 11:00","2020","02","17","11:00","-33.0","","-37.2","","67","","","","30","","29","","6.4","","99.97","","","","-49","","Ice Crystals,Blowing Snow"
"-92.11","62.81","RANKIN INLET A","2303405","2020-02-17 12:00","2020","02","17","12:00","-32.5","","-36.7","","67","","","","31","","26","","8.1","","100.00","","","","-48","","Ice Crystals,Blowing Snow"
"-92.11","62.81","RANKIN INLET A","2303405","2020-02-17 13:00","2020","02","17","13:00","-31.5","","-35.8","","67","","","","30","","29","","9.7","","100.00","","","","-47","","Ice Crystals,Blowing Snow"
"-92.11","62.81","RANKIN INLET A","2303405","2020-02-17 14:00","2020","02","17","14:00","-30.6","","-34.8","","67","","","","30","","28","","9.7","","100.01","","","","-46","","Ice Crystals,Blowing Snow"
"-92.11","62.81","RANKIN INLET A","2303405","2020-02-17 15:00","2020","02","17","15:00","-30.2","","-34.5","","67","","","","29","","18","","12.9","","100.06","","","","-43","","Ice Crystals,Blowing Snow"
"-92.11","62.81","RANKIN INLET A","2303405","2020-02-17 16:00","2020","02","17","16:00","-29.5","","-33.7","","68","","","","31","","17","","6.4","","100.08","","","","-42","","Ice Crystals,Blowing Snow"
"-92.11","62.81","RANKIN INLET A","2303405","2020-02-17 17:00","2020","02","17","17:00","-30.3","","-34.4","","68","","","","29","","16","","12.9","","100.10","","","","-42","","Snow"
"-92.11","62.81","RANKIN INLET A","2303405","2020-02-17 18:00","2020","02","17","18:00","-30.2","","-34.2","","69","","","","29","","15","","8.1","","100.11","","","","-42","","Snow"
"-92.11","62.81","RANKIN INLET A","2303405","2020-02-17 19:00","2020","02","17","19:00","-30.4","","-34.3","","69","","","","31","","19","","8.1","","100.11","","","","-43","","Snow,Blowing Snow"
"-92.11","62.81","RANKIN INLET A","2303405","2020-02-17 20:00","2020","02","17","20:00","-31.2","","-35.3","","68","","","","33","","22","","8.1","","100.11","","","","-45","","Snow,Blowing Snow"
"-92.11","62.81","RANKIN INLET A","2303405","2020-02-17 21:00","2020","02","17","21:00","-32.6","","-36.8","","67","","","","34","","18","","16.1","","100.18","","","","-46","","Snow,Blowing Snow"
"-92.11","62.81","RANKIN INLET A","2303405","2020-02-17 22:00","2020","02","17","22:00","-34.1","","-38.3","","66","","","","34","","18","","16.1","","100.22","","","","-48","","Snow,Blowing Snow"
"-92.11","62.81","RANKIN INLET A","2303405","2020-02-17 23:00","2020","02","17","23:00","-34.2","","-38.4","","67","","","","32","","19","","24.1","","100.23","","","","-48","","Snow,Blowing Snow"
"-92.11","62.81","RANKIN INLET A","2303405","2020-02-18 00:00","2020","02","18","00:00","-34.9","","-39.1","","66","","","","34","","21","","24.1","","100.34","","","","-50","","Ice Crystals,Blowing Snow"
"-92.11","62.81","RANKIN INLET A","2303405","2020-02-18 01:00","2020","02","18","01:00","-35.4","","-39.6","","66","","","","35","","23","","24.1","","100.40","","","","-51","","Snow,Blowing Snow"
"-92.11","62.81","RANKIN INLET A","2303405","2020-02-18 02:00","2020","02","18","02:00","-36.6","","-41.0","","65","","","","34","","28","","24.1","","100.45","","","","-54","","Ice Crystals,Blowing Snow"
"-92.11","62.81","RANKIN INLET A","2303405","2020-02-18 03:00","2020","02","18","03:00","-37.5","","-41.8","","65","","","","34","","28","","12.9","","100.54","","","","-55","","Ice Crystals,Blowing Snow"
"-92.11","62.81","RANKIN INLET A","2303405","2020-02-18 04:00","2020","02","18","04:00","-38.2","","-42.6","","64","","","","36","","33","","16.1","","100.54","","","","-57","","Ice Crystals,Blowing Snow"
"-92.11","62.81","RANKIN INLET A","2303405","2020-02-18 05:00","2020","02","18","05:00","-38.5","","-42.9","","64","","","","35","","32","","16.1","","100.68","","","","-57","","Ice Crystals,Blowing Snow"
"-92.11","62.81","RANKIN INLET A","2303405","2020-02-18 06:00","2020","02","18","06:00","-38.9","","-43.2","","64","","","","35","","34","","12.9","","100.73","","","","-58","","Ice Crystals,Blowing Snow"
"-92.11","62.81","RANKIN INLET A","2303405","2020-02-18 07:00","2020","02","18","07:00","-39.1","","-43.5","","64","","","","35","","37","","8.1","","100.81","","","","-59","","Ice Crystals,Blowing Snow"
"-92.11","62.81","RANKIN INLET A","2303405","2020-02-18 08:00","2020","02","18","08:00","-39.2","","-43.7","","64","","","","34","","25","","6.4","","100.91","","","","-56","","Ice Crystals,Blowing Snow"
"-92.11","62.81","RANKIN INLET A","2303405","2020-02-18 09:00","2020","02","18","09:00","-38.6","","-43.0","","64","","","","34","","25","","8.1","","100.99","","","","-56","","Ice Crystals,Blowing Snow"
"-92.11","62.81","RANKIN INLET A","2303405","2020-02-18 10:00","2020","02","18","10:00","-37.6","","-42.1","","64","","","","35","","30","","4.8","","101.05","","","","-56","","Ice Crystals,Blowing Snow"
"-92.11","62.81","RANKIN INLET A","2303405","2020-02-18 11:00","2020","02","18","11:00","-36.8","","-41.4","","64","","","","35","","27","","8.1","","101.10","","","","-54","","Ice Crystals,Blowing Snow"
"-92.11","62.81","RANKIN INLET A","2303405","2020-02-18 12:00","2020","02","18","12:00","-35.7","","-40.2","","64","","","","34","","32","","6.4","","101.15","","","","-54","","Ice Crystals,Blowing Snow"
"-92.11","62.81","RANKIN INLET A","2303405","2020-02-18 13:00","2020","02","18","13:00","-34.7","","-39.2","","65","","","","34","","35","","4.8","","101.11","","","","-53","","Ice Crystals,Blowing Snow"
"-92.11","62.81","RANKIN INLET A","2303405","2020-02-18 14:00","2020","02","18","14:00","-33.8","","-38.2","","65","","","","33","","36","","3.2","","101.14","","","","-52","","Ice Crystals,Blowing Snow"
"-92.11","62.81","RANKIN INLET A","2303405","2020-02-18 15:00","2020","02","18","15:00","-33.1","","-37.4","","66","","","","34","","29","","1.6","","101.16","","","","-49","","Ice Crystals,Blowing Snow"
"-92.11","62.81","RANKIN INLET A","2303405","2020-02-18 16:00","2020","02","18","16:00","-32.1","","-36.3","","67","","","","33","","34","","1.6","","101.17","","","","-49","","Ice Crystals,Blowing Snow"
"-92.11","62.81","RANKIN INLET A","2303405","2020-02-18 17:00","2020","02","18","17:00","-30.8","","-34.9","","69","","","","33","","32","","1.6","","101.17","","","","-47","","Ice Crystals,Blowing Snow"
"-92.11","62.81","RANKIN INLET A","2303405","2020-02-18 18:00","2020","02","18","18:00","-30.6","","-34.6","","68","","","","33","","35","","2.4","","101.19","","","","-47","","Ice Crystals,Blowing Snow"
"-92.11","62.81","RANKIN INLET A","2303405","2020-02-18 19:00","2020","02","18","19:00","-31.4","","-35.5","","68","","","","33","","35","","4.8","","101.16","","","","-48","","Ice Crystals,Blowing Snow"
"-92.11","62.81","RANKIN INLET A","2303405","2020-02-18 20:00","2020","02","18","20:00","-32.3","","-36.5","","67","","","","32","","35","","6.4","","101.17","","","","-50","","Ice Crystals,Blowing Snow"
"-92.11","62.81","RANKIN INLET A","2303405","2020-02-18 21:00","2020","02","18","21:00","-31.8","","-35.9","","68","","","","33","","19","","8.1","","101.22","","","","-45","","Ice Crystals,Blowing Snow"
"-92.11","62.81","RANKIN INLET A","2303405","2020-02-18 22:00","2020","02","18","22:00","-30.5","","-34.5","","69","","","","34","","29","","4.8","","101.14","","","","-46","","Ice Crystals,Blowing Snow"
"-92.11","62.81","RANKIN INLET A","2303405","2020-02-18 23:00","2020","02","18","23:00","-29.5","","-33.5","","69","","","","33","","29","","4.8","","101.20","","","","-45","","Ice Crystals,Blowing Snow"
"-92.11","62.81","RANKIN INLET A","2303405","2020-02-19 00:00","2020","02","19","00:00","-29.2","","-33.1","","70","","","","35","","22","","4.8","","101.20","","","","-43","","Snow,Blowing Snow"
"-92.11","62.81","RANKIN INLET A","2303405","2020-02-19 01:00","2020","02","19","01:00","-29.6","","-33.5","","70","","","","33","","30","","4.8","","101.19","","","","-45","","Ice Crystals,Blowing Snow"
"-92.11","62.81","RANKIN INLET A","2303405","2020-02-19 02:00","2020","02","19","02:00","-30.2","","-34.1","","69","","","","33","","33","","4.8","","101.20","","","","-46","","Ice Crystals,Blowing Snow"
"-92.11","62.81","RANKIN INLET A","2303405","2020-02-19 03:00","2020","02","19","03:00","-30.9","","-34.9","","69","","","","32","","25","","12.9","","101.23","","","","-46","","Ice Crystals,Blowing Snow"
"-92.11","62.81","RANKIN INLET A","2303405","2020-02-19 04:00","2020","02","19","04:00","-31.0","","-35.1","","68","","","","33","","28","","24.1","","101.21","","","","-46","","Ice Crystals,Blowing Snow"
"-92.11","62.81","RANKIN INLET A","2303405","2020-02-19 05:00","2020","02","19","05:00","-30.9","","-35.0","","68","","","","33","","28","","24.1","","101.20","","","","-46","","Ice Crystals,Blowing Snow"
"-92.11","62.81","RANKIN INLET A","2303405","2020-02-19 06:00","2020","02","19","06:00","-31.6","","-35.7","","68","","","","32","","17","","24.1","","101.19","","","","-44","","Ice Crystals"
"-92.11","62.81","RANKIN INLET A","2303405","2020-02-19 07:00","2020","02","19","07:00","-31.1","","-35.4","","66","","","","30","","23","","24.1","","101.18","","","","-45","","Ice Crystals,Blowing Snow"
"-92.11","62.81","RANKIN INLET A","2303405","2020-02-19 08:00","2020","02","19","08:00","-31.7","","-35.9","","67","","","","30","","27","","24.1","","101.10","","","","-47","","Ice Crystals,Blowing Snow"
"-92.11","62.81","RANKIN INLET A","2303405","2020-02-19 09:00","2020","02","19","09:00","-31.5","","-35.7","","67","","","","33","","14","","24.1","","101.08","","","","-43","","Ice Crystals"
"-92.11","62.81","RANKIN INLET A","2303405","2020-02-19 10:00","2020","02","19","10:00","-31.7","","-36.0","","67","","","","30","","8","","24.1","","101.02","","","","-40","","Ice Crystals"
"-92.11","62.81","RANKIN INLET A","2303405","2020-02-19 11:00","2020","02","19","11:00","-31.6","","-35.8","","67","","","","28","","21","","24.1","","100.97","","","","-45","","Ice Crystals"
"-92.11","62.81","RANKIN INLET A","2303405","2020-02-19 12:00","2020","02","19","12:00","-29.7","","-33.9","","68","","","","26","","15","","24.1","","100.94","","","","-41","","Ice Crystals"
"-92.11","62.81","RANKIN INLET A","2303405","2020-02-19 13:00","2020","02","19","13:00","-29.0","","-33.2","","68","","","","27","","15","","24.1","","100.87","","","","-40","","Ice Crystals"
"-92.11","62.81","RANKIN INLET A","2303405","2020-02-19 14:00","2020","02","19","14:00","-28.2","","-32.5","","68","","","","28","","19","","24.1","","100.82","","","","-41","","Ice Crystals"
"-92.11","62.81","RANKIN INLET A","2303405","2020-02-19 15:00","2020","02","19","15:00","-28.3","","-32.4","","68","","","","28","","17","","24.1","","100.78","","","","-40","","Ice Crystals"
"-92.11","62.81","RANKIN INLET A","2303405","2020-02-19 16:00","2020","02","19","16:00","-29.0","","-33.2","","68","","","","29","","16","","24.1","","100.73","","","","-41","","Ice Crystals"
"-92.11","62.81","RANKIN INLET A","2303405","2020-02-19 17:00","2020","02","19","17:00","-30.0","","-34.1","","69","","","","30","","14","","24.1","","100.68","","","","-41","","Ice Crystals"
"-92.11","62.81","RANKIN INLET A","2303405","2020-02-19 18:00","2020","02","19","18:00","-31.4","","-35.4","","69","","","","32","","14","","24.1","","100.67","","","","-43","","Ice Crystals"
"-92.11","62.81","RANKIN INLET A","2303405","2020-02-19 19:00","2020","02","19","19:00","-33.0","","-37.0","","69","","","","34","","21","","24.1","","100.62","","","","-47","","Ice Crystals"
"-92.11","62.81","RANKIN INLET A","2303405","2020-02-19 20:00","2020","02","19","20:00","-33.6","","-37.5","","69","","","","35","","14","","24.1","","100.64","","","","-45","","Ice Crystals"
"-92.11","62.81","RANKIN INLET A","2303405","2020-02-19 21:00","2020","02","19","21:00","-34.0","","-37.9","","69","","","","33","","18","","24.1","","100.59","","","","-47","","Ice Crystals"
"-92.11","62.81","RANKIN INLET A","2303405","2020-02-19 22:00","2020","02","19","22:00","-34.6","","-38.5","","69","","","","36","","24","","24.1","","100.54","","","","-50","","Ice Crystals"
"-92.11","62.81","RANKIN INLET A","2303405","2020-02-19 23:00","2020","02","19","23:00","-34.2","","-38.1","","68","","","","34","","19","","24.1","","100.54","","","","-48","","Ice Crystals"
"-92.11","62.81","RANKIN INLET A","2303405","2020-02-20 00:00","2020","02","20","00:00","-34.4","","-38.4","","68","","","","35","","21","","24.1","","100.54","","","","-49","","Ice Crystals"
"-92.11","62.81","RANKIN INLET A","2303405","2020-02-20 01:00","2020","02","20","01:00","-34.3","","-38.3","","68","","","","35","","14","","24.1","","100.54","","","","-46","","Ice Crystals"
"-92.11","62.81","RANKIN INLET A","2303405","2020-02-20 02:00","2020","02","20","02:00","-34.5","","-38.6","","67","","","","34","","14","","24.1","","100.55","","","","-47","","Ice Crystals"
"-92.11","62.81","RANKIN INLET A","2303405","2020-02-20 03:00","2020","02","20","03:00","-34.9","","-39.0","","67","","","","35","","9","","24.1","","100.58","","","","-44","","Ice Crystals"
"-92.11","62.81","RANKIN INLET A","2303405","2020-02-20 04:00","2020","02","20","04:00","-35.8","","-39.8","","68","","","","1","","9","","24.1","","100.52","","","","-45","","Ice Crystals"
"-92.11","62.81","RANKIN INLET A","2303405","2020-02-20 05:00","2020","02","20","05:00","-36.3","","-40.4","","67","","","","3","","5","","24.1","","100.48","","","","-43","","Ice Crystals"
"-92.11","62.81","RANKIN INLET A","2303405","2020-02-20 06:00","2020","02","20","06:00","-35.1","","-39.0","","68","","","","22","","7","","24.1","","100.50","","","","-43","","Ice Crystals"
"-92.11","62.81","RANKIN INLET A","2303405","2020-02-20 07:00","2020","02","20","07:00","-34.8","","-38.6","","69","","","","34","","3","","24.1","","100.49","","","","-39","","Ice Crystals"
"-92.11","62.81","RANKIN INLET A","2303405","2020-02-20 08:00","2020","02","20","08:00","-34.8","","-38.7","","69","","","","5","","9","","24.1","","100.37","","","","-44","","Ice Crystals"
"-92.11","62.81","RANKIN INLET A","2303405","2020-02-20 09:00","2020","02","20","09:00","-29.4","","-33.0","","72","","","","11","","13","","24.1","","100.25","","","","-40","","Ice Crystals"
"-92.11","62.81","RANKIN INLET A","2303405","2020-02-20 10:00","2020","02","20","10:00","-28.1","","-31.6","","73","","","","11","","19","","24.1","","100.13","","","","-40","","Ice Crystals"
"-92.11","62.81","RANKIN INLET A","2303405","2020-02-20 11:00","2020","02","20","11:00","-26.0","","-29.4","","74","","","","11","","14","","24.1","","100.03","","","","-36","","Ice Crystals"
"-92.11","62.81","RANKIN INLET A","2303405","2020-02-20 12:00","2020","02","20","12:00","-23.8","","-27.1","","75","","","","14","","17","","24.1","","99.95","","","","-34","","Ice Crystals"
"-92.11","62.81","RANKIN INLET A","2303405","2020-02-20 13:00","2020","02","20","13:00","-21.8","","-24.9","","76","","","","13","","21","","16.1","","99.77","","","","-33","","Ice Crystals"
"-92.11","62.81","RANKIN INLET A","2303405","2020-02-20 14:00","2020","02","20","14:00","-20.7","","-23.7","","77","","","","15","","23","","16.1","","99.60","","","","-32","","Ice Crystals,Blowing Snow"
"-92.11","62.81","RANKIN INLET A","2303405","2020-02-20 15:00","2020","02","20","15:00","-20.3","","-23.2","","78","","","","14","","34","","1.6","","99.36","","","","-34","","Snow,Blowing Snow"
"-92.11","62.81","RANKIN INLET A","2303405","2020-02-20 16:00","2020","02","20","16:00","-20.3","","-23.2","","78","","","","14","","36","","0.6","","99.12","","","","-34","","Snow,Blowing Snow"
"-92.11","62.81","RANKIN INLET A","2303405","2020-02-20 17:00","2020","02","20","17:00","-20.5","","-23.4","","78","","","","14","","39","","0.6","","98.94","","","","-35","","Snow,Blowing Snow"
"-92.11","62.81","RANKIN INLET A","2303405","2020-02-20 18:00","2020","02","20","18:00","-20.4","","-23.3","","78","","","","14","","37","","0.6","","98.77","","","","-34","","Snow,Blowing Snow"
"-92.11","62.81","RANKIN INLET A","2303405","2020-02-20 19:00","2020","02","20","19:00","-20.3","","-23.2","","78","","","","13","","41","","0.8","","98.62","","","","-35","","Snow,Blowing Snow"
"-92.11","62.81","RANKIN INLET A","2303405","2020-02-20 20:00","2020","02","20","20:00","-20.2","","-23.1","","78","","","","13","","37","","0.6","","98.42","","","","-34","","Snow,Blowing Snow"
"-92.11","62.81","RANKIN INLET A","2303405","2020-02-20 21:00","2020","02","20","21:00","-20.1","","-22.9","","79","","","","12","","42","","0.6","","98.20","","","","-35","","Snow,Blowing Snow"
"-92.11","62.81","RANKIN INLET A","2303405","2020-02-20 22:00","2020","02","20","22:00","-19.5","","-22.3","","79","","","","12","","39","","0.6","","98.03","","","","-33","","Snow,Blowing Snow"
"-92.11","62.81","RANKIN INLET A","2303405","2020-02-20 23:00","2020","02","20","23:00","-19.0","","-21.7","","79","","","","12","","44","","0.6","","97.87","","","","-33","","Snow,Blowing Snow"
"-92.11","62.81","RANKIN INLET A","2303405","2020-02-21 00:00","2020","02","21","00:00","-19.0","","-21.8","","79","","","","12","","39","","0.8","","97.74","","","","-33","","Snow,Blowing Snow"
"-92.11","62.81","RANKIN INLET A","2303405","2020-02-21 01:00","2020","02","21","01:00","-18.9","","-21.6","","80","","","","11","","43","","0.8","","97.63","","","","-33","","Snow,Blowing Snow"
"-92.11","62.81","RANKIN INLET A","2303405","2020-02-21 02:00","2020","02","21","02:00","-18.9","","-21.6","","80","","","","11","","43","","0.8","","97.65","","","","-33","","Snow,Blowing Snow"
"-92.11","62.81","RANKIN INLET A","2303405","2020-02-21 03:00","2020","02","21","03:00","-19.5","","-22.2","","79","","","","8","","40","","0.8","","97.69","","","","-33","","Snow,Blowing Snow"
"-92.11","62.81","RANKIN INLET A","2303405","2020-02-21 04:00","2020","02","21","04:00","-20.4","","-23.2","","78","","","","8","","45","","0.8","","97.74","","","","-35","","Snow,Blowing Snow"
"-92.11","62.81","RANKIN INLET A","2303405","2020-02-21 05:00","2020","02","21","05:00","-20.7","","-23.5","","78","","","","8","","46","","0.6","","97.84","","","","-36","","Snow,Blowing Snow"
"-92.11","62.81","RANKIN INLET A","2303405","2020-02-21 06:00","2020","02","21","06:00","-21.2","","-24.1","","78","","","","7","","48","","0.6","","98.01","","","","-37","","Snow,Blowing Snow"
"-92.11","62.81","RANKIN INLET A","2303405","2020-02-21 07:00","2020","02","21","07:00","-22.3","","-25.3","","77","","","","6","","37","","0.6","","98.16","","","","-37","","Snow,Blowing Snow"
"-92.11","62.81","RANKIN INLET A","2303405","2020-02-21 08:00","2020","02","21","08:00","-23.6","","-26.7","","76","","","","6","","34","","1.2","","98.33","","","","-38","","Ice Crystals,Blowing Snow"
"-92.11","62.81","RANKIN INLET A","2303405","2020-02-21 09:00","2020","02","21","09:00","-23.6","","-26.8","","75","","","","5","","37","","1.6","","98.49","","","","-38","","Ice Crystals,Blowing Snow"
"-92.11","62.81","RANKIN INLET A","2303405","2020-02-21 10:00","2020","02","21","10:00","-24.1","","-27.5","","74","","","","5","","27","","1.2","","98.68","","","","-37","","Ice Crystals,Blowing Snow"
"-92.11","62.81","RANKIN INLET A","2303405","2020-02-21 11:00","2020","02","21","11:00","-24.1","","-27.5","","74","","","","5","","28","","1.0","","98.80","","","","-38","","Ice Crystals,Blowing Snow"
"-92.11","62.81","RANKIN INLET A","2303405","2020-02-21 12:00","2020","02","21","12:00","-25.3","","-28.8","","73","","","","3","","32","","1.0","","98.98","","","","-40","","Ice Crystals,Blowing Snow"
"-92.11","62.81","RANKIN INLET A","2303405","2020-02-21 13:00","2020","02","21","13:00","-25.4","","-29.0","","72","","","","4","","15","","2.4","","99.20","","","","-36","","Ice Crystals,Blowing Snow"
"-92.11","62.81","RANKIN INLET A","2303405","2020-02-21 14:00","2020","02","21","14:00","-26.0","","-29.6","","72","","","","2","","14","","2.4","","99.35","","","","-36","","Ice Crystals,Blowing Snow"
"-92.11","62.81","RANKIN INLET A","2303405","2020-02-21 15:00","2020","02","21","15:00","-26.6","","-30.4","","71","","","","2","","18","","6.4","","99.49","","","","-38","","Ice Crystals,Blowing Snow"
"-92.11","62.81","RANKIN INLET A","2303405","2020-02-21 16:00","2020","02","21","16:00","-27.5","","-31.4","","71","","","","1","","27","","12.9","","99.59","","","","-42","","Ice Crystals,Blowing Snow"
"-92.11","62.81","RANKIN INLET A","2303405","2020-02-21 17:00","2020","02","21","17:00","-28.2","","-32.1","","70","","","","1","","24","","16.1","","99.71","","","","-42","","Ice Crystals,Blowing Snow"
"-92.11","62.81","RANKIN INLET A","2303405","2020-02-21 18:00","2020","02","21","18:00","-29.4","","-33.3","","69","","","","36","","18","","24.1","","99.81","","","","-42","","Ice Crystals,Blowing Snow"
"-92.11","62.81","RANKIN INLET A","2303405","2020-02-21 19:00","2020","02","21","19:00","-30.3","","-34.3","","69","","","","2","","16","","24.1","","99.89","","","","-42","","Ice Crystals,Blowing Snow"
"-92.11","62.81","RANKIN INLET A","2303405","2020-02-21 20:00","2020","02","21","20:00","-31.6","","-35.5","","69","","","","35","","21","","24.1","","99.94","","","","-45","","Ice Crystals,Blowing Snow"
"-92.11","62.81","RANKIN INLET A","2303405","2020-02-21 21:00","2020","02","21","21:00","-32.3","","-36.3","","69","","","","35","","22","","24.1","","100.04","","","","-47","","Ice Crystals,Blowing Snow"
"-92.11","62.81","RANKIN INLET A","2303405","2020-02-21 22:00","2020","02","21","22:00","-32.5","","-36.5","","68","","","","35","","21","","24.1","","100.10","","","","-47","","Ice Crystals"
"-92.11","62.81","RANKIN INLET A","2303405","2020-02-21 23:00","2020","02","21","23:00","-32.9","","-36.9","","68","","","","35","","18","","24.1","","100.14","","","","-46","","Ice Crystals"
"-92.11","62.81","RANKIN INLET A","2303405","2020-02-22 00:00","2020","02","22","00:00","-33.6","","-37.7","","68","","","","36","","19","","24.1","","100.16","","","","-47","","Ice Crystals"
"-92.11","62.81","RANKIN INLET A","2303405","2020-02-22 01:00","2020","02","22","01:00","-33.8","","-37.9","","68","","","","1","","17","","24.1","","100.18","","","","-47","","Ice Crystals"
"-92.11","62.81","RANKIN INLET A","2303405","2020-02-22 02:00","2020","02","22","02:00","-34.3","","-38.3","","68","","","","35","","19","","24.1","","100.22","","","","-48","","Ice Crystals"
"-92.11","62.81","RANKIN INLET A","2303405","2020-02-22 03:00","2020","02","22","03:00","-34.8","","-38.9","","68","","","","36","","16","","24.1","","100.23","","","","-48","","Ice Crystals"
"-92.11","62.81","RANKIN INLET A","2303405","2020-02-22 04:00","2020","02","22","04:00","-34.7","","-38.7","","68","","","","36","","13","","24.1","","100.27","","","","-46","","Ice Crystals"
"-92.11","62.81","RANKIN INLET A","2303405","2020-02-22 05:00","2020","02","22","05:00","-34.3","","-38.4","","68","","","","36","","15","","24.1","","100.32","","","","-47","","Ice Crystals"
"-92.11","62.81","RANKIN INLET A","2303405","2020-02-22 06:00","2020","02","22","06:00","-34.7","","-38.8","","67","","","","35","","12","","24.1","","100.39","","","","-46","","Ice Crystals"
"-92.11","62.81","RANKIN INLET A","2303405","2020-02-22 07:00","2020","02","22","07:00","-35.5","","-39.6","","67","","","","35","","13","","24.1","","100.45","","","","-47","","Ice Crystals"
"-92.11","62.81","RANKIN INLET A","2303405","2020-02-22 08:00","2020","02","22","08:00","-35.2","","-39.3","","67","","","","35","","13","","24.1","","100.49","","","","-47","","Ice Crystals"
"-92.11","62.81","RANKIN INLET A","2303405","2020-02-22 09:00","2020","02","22","09:00","-34.7","","-38.8","","67","","","","36","","5","","24.1","","100.51","","","","-41","","Ice Crystals"
"-92.11","62.81","RANKIN INLET A","2303405","2020-02-22 10:00","2020","02","22","10:00","-34.0","","-38.2","","66","","","","36","","10","","24.1","","100.54","","","","-44","","Ice Crystals"
"-92.11","62.81","RANKIN INLET A","2303405","2020-02-22 11:00","2020","02","22","11:00","-33.8","","-38.2","","65","","","","34","","11","","24.1","","100.62","","","","-44","","Ice Crystals"
"-92.11","62.81","RANKIN INLET A","2303405","2020-02-22 12:00","2020","02","22","12:00","-33.1","","-37.7","","65","","","","33","","9","","24.1","","100.65","","","","-42","","Ice Crystals"
"-92.11","62.81","RANKIN INLET A","2303405","2020-02-22 13:00","2020","02","22","13:00","-32.7","","-37.2","","65","","","","35","","12","","24.1","","100.66","","","","-43","","Ice Crystals"
"-92.11","62.81","RANKIN INLET A","2303405","2020-02-22 14:00","2020","02","22","14:00","-32.5","","-37.0","","65","","","","35","","18","","24.1","","100.68","","","","-46","","Ice Crystals,Blowing Snow"
"-92.11","62.81","RANKIN INLET A","2303405","2020-02-22 15:00","2020","02","22","15:00","-32.3","","-36.8","","65","","","","34","","10","","24.1","","100.72","","","","-42","","Ice Crystals"
"-92.11","62.81","RANKIN INLET A","2303405","2020-02-22 16:00","2020","02","22","16:00","-33.2","","-37.7","","65","","","","31","","10","","24.1","","100.77","","","","-43","","Ice Crystals"
"-92.11","62.81","RANKIN INLET A","2303405","2020-02-22 17:00","2020","02","22","17:00","-34.1","","-38.5","","65","","","","33","","13","","24.1","","100.81","","","","-46","","Ice Crystals"
"-92.11","62.81","RANKIN INLET A","2303405","2020-02-22 18:00","2020","02","22","18:00","-34.8","","-39.1","","66","","","","35","","19","","24.1","","100.86","","","","-49","","Ice Crystals"
"-92.11","62.81","RANKIN INLET A","2303405","2020-02-22 19:00","2020","02","22","19:00","-35.1","","-39.4","","66","","","","35","","16","","24.1","","100.89","","","","-48","","Ice Crystals"
"-92.11","62.81","RANKIN INLET A","2303405","2020-02-22 20:00","2020","02","22","20:00","-35.6","","-39.9","","66","","","","34","","13","","24.1","","100.90","","","","-47","","Ice Crystals"
"-92.11","62.81","RANKIN INLET A","2303405","2020-02-22 21:00","2020","02","22","21:00","-35.2","","-39.5","","66","","","","34","","19","","24.1","","100.92","","","","-49","","Ice Crystals"
"-92.11","62.81","RANKIN INLET A","2303405","2020-02-22 22:00","2020","02","22","22:00","-35.8","","-40.1","","65","","","","29","","13","","24.1","","100.98","","","","-48","","Ice Crystals"
"-92.11","62.81","RANKIN INLET A","2303405","2020-02-22 23:00","2020","02","22","23:00","-36.0","","-40.3","","66","","","","34","","16","","24.1","","100.98","","","","-49","","Ice Crystals"
"-92.11","62.81","RANKIN INLET A","2303405","2020-02-23 00:00","2020","02","23","00:00","-36.1","","-40.4","","66","","","","36","","16","","24.1","","101.02","","","","-49","","Ice Crystals"
"-92.11","62.81","RANKIN INLET A","2303405","2020-02-23 01:00","2020","02","23","01:00","-36.0","","-40.3","","66","","","","35","","16","","24.1","","101.04","","","","-49","","Ice Crystals"
"-92.11","62.81","RANKIN INLET A","2303405","2020-02-23 02:00","2020","02","23","02:00","-36.4","","-40.7","","66","","","","35","","17","","24.1","","101.07","","","","-50","","Ice Crystals"
"-92.11","62.81","RANKIN INLET A","2303405","2020-02-23 03:00","2020","02","23","03:00","-36.5","","-40.8","","66","","","","34","","23","","24.1","","101.06","","","","-52","","Ice Crystals"
"-92.11","62.81","RANKIN INLET A","2303405","2020-02-23 04:00","2020","02","23","04:00","-36.4","","-40.7","","66","","","","35","","17","","24.1","","101.09","","","","-50","","Ice Crystals"
"-92.11","62.81","RANKIN INLET A","2303405","2020-02-23 05:00","2020","02","23","05:00","-37.1","","-41.5","","65","","","","35","","15","","24.1","","101.13","","","","-50","","Ice Crystals"
"-92.11","62.81","RANKIN INLET A","2303405","2020-02-23 06:00","2020","02","23","06:00","-37.2","","-41.6","","65","","","","36","","16","","24.1","","101.19","","","","-51","","Ice Crystals"
"-92.11","62.81","RANKIN INLET A","2303405","2020-02-23 07:00","2020","02","23","07:00","-36.9","","-41.2","","65","","","","36","","17","","24.1","","101.24","","","","-51","","Ice Crystals"
"-92.11","62.81","RANKIN INLET A","2303405","2020-02-23 08:00","2020","02","23","08:00","-37.1","","-41.4","","65","","","","36","","23","","24.1","","101.26","","","","-53","","Ice Crystals"
"-92.11","62.81","RANKIN INLET A","2303405","2020-02-23 09:00","2020","02","23","09:00","-36.9","","-41.3","","65","","","","35","","19","","24.1","","101.29","","","","-51","","Ice Crystals"
"-92.11","62.81","RANKIN INLET A","2303405","2020-02-23 10:00","2020","02","23","10:00","-35.6","","-40.1","","65","","","","35","","20","","24.1","","101.32","","","","-50","","Ice Crystals"
"-92.11","62.81","RANKIN INLET A","2303405","2020-02-23 11:00","2020","02","23","11:00","-34.9","","-39.4","","64","","","","36","","18","","24.1","","101.35","","","","-49","","Ice Crystals"
"-92.11","62.81","RANKIN INLET A","2303405","2020-02-23 12:00","2020","02","23","12:00","-34.1","","-38.6","","64","","","","36","","18","","24.1","","101.38","","","","-48","","Ice Crystals"
"-92.11","62.81","RANKIN INLET A","2303405","2020-02-23 13:00","2020","02","23","13:00","-33.4","","-37.9","","65","","","","36","","18","","24.1","","101.40","","","","-47","","Ice Crystals"
"-92.11","62.81","RANKIN INLET A","2303405","2020-02-23 14:00","2020","02","23","14:00","-32.8","","-37.4","","65","","","","36","","14","","24.1","","101.43","","","","-44","","Ice Crystals"
"-92.11","62.81","RANKIN INLET A","2303405","2020-02-23 15:00","2020","02","23","15:00","-32.8","","-37.3","","65","","","","36","","18","","24.1","","101.48","","","","-46","","Ice Crystals"
"-92.11","62.81","RANKIN INLET A","2303405","2020-02-23 16:00","2020","02","23","16:00","-32.9","","-37.4","","65","","","","36","","18","","24.1","","101.50","","","","-46","","Ice Crystals"
"-92.11","62.81","RANKIN INLET A","2303405","2020-02-23 17:00","2020","02","23","17:00","-33.3","","-37.7","","66","","","","36","","16","","24.1","","101.56","","","","-46","","Ice Crystals"
"-92.11","62.81","RANKIN INLET A","2303405","2020-02-23 18:00","2020","02","23","18:00","-33.5","","-37.8","","66","","","","35","","18","","24.1","","101.59","","","","-47","","Ice Crystals"
"-92.11","62.81","RANKIN INLET A","2303405","2020-02-23 19:00","2020","02","23","19:00","-33.3","","-37.5","","67","","","","35","","19","","24.1","","101.63","","","","-47","","Ice Crystals"
"-92.11","62.81","RANKIN INLET A","2303405","2020-02-23 20:00","2020","02","23","20:00","-32.5","","-36.6","","68","","","","36","","26","","24.1","","101.62","","","","-48","","Ice Crystals"
"-92.11","62.81","RANKIN INLET A","2303405","2020-02-23 21:00","2020","02","23","21:00","-32.6","","-36.7","","68","","","","35","","28","","24.1","","101.67","","","","-49","","Ice Crystals"
"-92.11","62.81","RANKIN INLET A","2303405","2020-02-23 22:00","2020","02","23","22:00","-32.5","","-36.6","","68","","","","35","","22","","24.1","","101.71","","","","-47","","Ice Crystals"
"-92.11","62.81","RANKIN INLET A","2303405","2020-02-23 23:00","2020","02","23","23:00","-32.4","","-36.4","","68","","","","35","","25","","24.1","","101.75","","","","-48","","Ice Crystals"
"-92.11","62.81","RANKIN INLET A","2303405","2020-02-24 00:00","2020","02","24","00:00","-32.6","","-36.7","","68","","","","34","","21","","24.1","","101.80","","","","-47","","Ice Crystals"
"-92.11","62.81","RANKIN INLET A","2303405","2020-02-24 01:00","2020","02","24","01:00","-32.8","","-36.9","","68","","","","34","","24","","24.1","","101.85","","","","-48","","Ice Crystals"
"-92.11","62.81","RANKIN INLET A","2303405","2020-02-24 02:00","2020","02","24","02:00","-32.9","","-37.0","","68","","","","34","","20","","24.1","","101.90","","","","-47","","Ice Crystals"
"-92.11","62.81","RANKIN INLET A","2303405","2020-02-24 03:00","2020","02","24","03:00","-32.4","","-36.4","","68","","","","36","","24","","12.9","","101.95","","","","-47","","Ice Crystals"
"-92.11","62.81","RANKIN INLET A","2303405","2020-02-24 04:00","2020","02","24","04:00","-32.2","","-36.3","","68","","","","36","","16","","12.9","","101.99","","","","-45","","Ice Crystals"
"-92.11","62.81","RANKIN INLET A","2303405","2020-02-24 05:00","2020","02","24","05:00","-32.4","","-36.5","","68","","","","35","","23","","9.7","","101.97","","","","-47","","Ice Crystals"
"-92.11","62.81","RANKIN INLET A","2303405","2020-02-24 06:00","2020","02","24","06:00","-32.4","","-36.4","","68","","","","33","","18","","9.7","","102.08","","","","-45","","Ice Crystals"
"-92.11","62.81","RANKIN INLET A","2303405","2020-02-24 07:00","2020","02","24","07:00","-32.3","","-36.4","","68","","","","34","","25","","9.7","","102.08","","","","-47","","Ice Crystals,Blowing Snow"
"-92.11","62.81","RANKIN INLET A","2303405","2020-02-24 08:00","2020","02","24","08:00","-32.3","","-36.3","","68","","","","34","","36","","4.8","","102.13","","","","-50","","Ice Crystals,Blowing Snow"
"-92.11","62.81","RANKIN INLET A","2303405","2020-02-24 09:00","2020","02","24","09:00","-31.9","","-36.0","","68","","","","34","","30","","4.8","","102.21","","","","-48","","Ice Crystals,Blowing Snow"
"-92.11","62.81","RANKIN INLET A","2303405","2020-02-24 10:00","2020","02","24","10:00","-31.2","","-35.3","","68","","","","35","","36","","3.2","","102.25","","","","-48","","Ice Crystals,Blowing Snow"
"-92.11","62.81","RANKIN INLET A","2303405","2020-02-24 11:00","2020","02","24","11:00","-30.0","","-34.1","","68","","","","34","","27","","4.0","","102.33","","","","-45","","Ice Crystals,Blowing Snow"
"-92.11","62.81","RANKIN INLET A","2303405","2020-02-24 12:00","2020","02","24","12:00","-28.9","","-33.0","","68","","","","34","","29","","4.0","","102.36","","","","-44","","Ice Crystals,Blowing Snow"
"-92.11","62.81","RANKIN INLET A","2303405","2020-02-24 13:00","2020","02","24","13:00","-27.9","","-32.0","","69","","","","33","","28","","4.0","","102.42","","","","-42","","Ice Crystals,Blowing Snow"
"-92.11","62.81","RANKIN INLET A","2303405","2020-02-24 14:00","2020","02","24","14:00","-27.9","","-31.9","","70","","","","33","","37","","4.0","","102.46","","","","-44","","Ice Crystals,Blowing Snow"
"-92.11","62.81","RANKIN INLET A","2303405","2020-02-24 15:00","2020","02","24","15:00","-27.8","","-31.7","","70","","","","34","","27","","4.8","","102.50","","","","-42","","Ice Crystals,Blowing Snow"
"-92.11","62.81","RANKIN INLET A","2303405","2020-02-24 16:00","2020","02","24","16:00","-28.3","","-32.2","","70","","","","34","","31","","4.8","","102.56","","","","-44","","Ice Crystals,Blowing Snow"
"-92.11","62.81","RANKIN INLET A","2303405","2020-02-24 17:00","2020","02","24","17:00","-29.2","","-33.1","","70","","","","32","","19","","6.4","","102.63","","","","-42","","Ice Crystals,Blowing Snow"
"-92.11","62.81","RANKIN INLET A","2303405","2020-02-24 18:00","2020","02","24","18:00","-29.2","","-33.0","","71","","","","30","","18","","6.4","","102.71","","","","-41","","Ice Crystals,Blowing Snow"
"-92.11","62.81","RANKIN INLET A","2303405","2020-02-24 19:00","2020","02","24","19:00","-29.2","","-33.0","","71","","","","34","","38","","1.6","","102.66","","","","-46","","Ice Crystals,Blowing Snow"
"-92.11","62.81","RANKIN INLET A","2303405","2020-02-24 20:00","2020","02","24","20:00","-29.4","","-33.2","","71","","","","34","","42","","1.6","","102.70","","","","-47","","Ice Crystals,Blowing Snow"
"-92.11","62.81","RANKIN INLET A","2303405","2020-02-24 21:00","2020","02","24","21:00","-29.6","","-33.4","","70","","","","34","","46","","1.6","","102.72","","","","-48","","Ice Crystals,Blowing Snow"
"-92.11","62.81","RANKIN INLET A","2303405","2020-02-24 22:00","2020","02","24","22:00","-29.6","","-33.5","","70","","","","34","","40","","1.6","","102.78","","","","-47","","Ice Crystals,Blowing Snow"
"-92.11","62.81","RANKIN INLET A","2303405","2020-02-24 23:00","2020","02","24","23:00","-29.3","","-33.1","","70","","","","35","","46","","1.6","","102.79","","","","-48","","Ice Crystals,Blowing Snow"
"-92.11","62.81","RANKIN INLET A","2303405","2020-02-25 00:00","2020","02","25","00:00","-29.8","","-33.6","","70","","","","36","","34","","1.6","","102.89","","","","-46","","Ice Crystals,Blowing Snow"
"-92.11","62.81","RANKIN INLET A","2303405","2020-02-25 01:00","2020","02","25","01:00","-29.9","","-33.8","","70","","","","35","","42","","3.2","","102.90","","","","-48","","Ice Crystals,Blowing Snow"
"-92.11","62.81","RANKIN INLET A","2303405","2020-02-25 02:00","2020","02","25","02:00","-30.3","","-34.2","","70","","","","35","","42","","3.2","","102.96","","","","-48","","Ice Crystals,Blowing Snow"
"-92.11","62.81","RANKIN INLET A","2303405","2020-02-25 03:00","2020","02","25","03:00","-30.8","","-34.7","","69","","","","34","","32","","3.2","","103.00","","","","-47","","Ice Crystals,Blowing Snow"
"-92.11","62.81","RANKIN INLET A","2303405","2020-02-25 04:00","2020","02","25","04:00","-31.3","","-35.2","","69","","","","34","","26","","9.7","","103.05","","","","-46","","Ice Crystals,Blowing Snow"
"-92.11","62.81","RANKIN INLET A","2303405","2020-02-25 05:00","2020","02","25","05:00","-31.2","","-35.1","","69","","","","34","","33","","6.4","","103.03","","","","-48","","Ice Crystals,Blowing Snow"
"-92.11","62.81","RANKIN INLET A","2303405","2020-02-25 06:00","2020","02","25","06:00","-31.5","","-35.4","","69","","","","34","","34","","9.7","","103.04","","","","-48","","Ice Crystals,Blowing Snow"
"-92.11","62.81","RANKIN INLET A","2303405","2020-02-25 07:00","2020","02","25","07:00","-31.7","","-35.7","","69","","","","34","","36","","6.4","","103.07","","","","-49","","Ice Crystals,Blowing Snow"
"-92.11","62.81","RANKIN INLET A","2303405","2020-02-25 08:00","2020","02","25","08:00","-32.0","","-36.0","","69","","","","34","","32","","6.4","","103.10","","","","-49","","Ice Crystals,Blowing Snow"
"-92.11","62.81","RANKIN INLET A","2303405","2020-02-25 09:00","2020","02","25","09:00","-31.7","","-35.7","","68","","","","33","","31","","8.1","","103.11","","","","-48","","Ice Crystals,Blowing Snow"
"-92.11","62.81","RANKIN INLET A","2303405","2020-02-25 10:00","2020","02","25","10:00","-31.0","","-35.0","","68","","","","34","","34","","4.8","","103.13","","","","-48","","Ice Crystals,Blowing Snow"
"-92.11","62.81","RANKIN INLET A","2303405","2020-02-25 11:00","2020","02","25","11:00","-30.1","","-34.1","","68","","","","33","","37","","4.0","","103.13","","","","-47","","Ice Crystals,Blowing Snow"
"-92.11","62.81","RANKIN INLET A","2303405","2020-02-25 12:00","2020","02","25","12:00","-29.4","","-33.4","","69","","","","34","","40","","4.0","","103.06","","","","-47","","Ice Crystals,Blowing Snow"
"-92.11","62.81","RANKIN INLET A","2303405","2020-02-25 13:00","2020","02","25","13:00","-28.7","","-32.7","","69","","","","34","","35","","4.0","","103.11","","","","-45","","Ice Crystals,Blowing Snow"
"-92.11","62.81","RANKIN INLET A","2303405","2020-02-25 14:00","2020","02","25","14:00","-28.2","","-32.2","","69","","","","34","","32","","6.4","","103.14","","","","-44","","Ice Crystals,Blowing Snow"
"-92.11","62.81","RANKIN INLET A","2303405","2020-02-25 15:00","2020","02","25","15:00","-28.0","","-32.0","","69","","","","33","","27","","9.7","","103.15","","","","-42","","Ice Crystals,Blowing Snow"
"-92.11","62.81","RANKIN INLET A","2303405","2020-02-25 16:00","2020","02","25","16:00","-28.2","","-32.2","","69","","","","34","","20","","16.1","","103.16","","","","-41","","Ice Crystals,Blowing Snow"
"-92.11","62.81","RANKIN INLET A","2303405","2020-02-25 17:00","2020","02","25","17:00","-28.9","","-32.9","","70","","","","34","","22","","16.1","","103.17","","","","-42","","Ice Crystals,Blowing Snow"
"-92.11","62.81","RANKIN INLET A","2303405","2020-02-25 18:00","2020","02","25","18:00","-29.7","","-33.5","","70","","","","32","","23","","16.1","","103.18","","","","-44","","Ice Crystals,Blowing Snow"
"-92.11","62.81","RANKIN INLET A","2303405","2020-02-25 19:00","2020","02","25","19:00","-30.3","","-34.2","","70","","","","34","","23","","16.1","","103.15","","","","-44","","Ice Crystals,Blowing Snow"
"-92.11","62.81","RANKIN INLET A","2303405","2020-02-25 20:00","2020","02","25","20:00","-30.8","","-34.8","","69","","","","34","","31","","16.1","","103.09","","","","-47","","Ice Crystals,Blowing Snow"
"-92.11","62.81","RANKIN INLET A","2303405","2020-02-25 21:00","2020","02","25","21:00","-31.3","","-35.2","","69","","","","33","","17","","16.1","","103.10","","","","-44","","Ice Crystals,Blowing Snow"
"-92.11","62.81","RANKIN INLET A","2303405","2020-02-25 22:00","2020","02","25","22:00","-31.4","","-35.4","","69","","","","34","","27","","24.1","","103.03","","","","-47","","Ice Crystals,Blowing Snow"
"-92.11","62.81","RANKIN INLET A","2303405","2020-02-25 23:00","2020","02","25","23:00","-31.6","","-35.6","","69","","","","36","","13","","24.1","","103.00","","","","-43","","Ice Crystals"
"-92.11","62.81","RANKIN INLET A","2303405","2020-02-26 00:00","2020","02","26","00:00","-31.8","","-35.8","","69","","","","36","","18","","24.1","","102.97","","","","-45","","Ice Crystals"
"-92.11","62.81","RANKIN INLET A","2303405","2020-02-26 01:00","2020","02","26","01:00","-32.0","","-36.0","","69","","","","32","","16","","24.1","","102.98","","","","-44","","Ice Crystals"
"-92.11","62.81","RANKIN INLET A","2303405","2020-02-26 02:00","2020","02","26","02:00","-32.5","","-36.5","","69","","","","31","","12","","24.1","","102.97","","","","-43","","Ice Crystals"
"-92.11","62.81","RANKIN INLET A","2303405","2020-02-26 03:00","2020","02","26","03:00","-32.8","","-36.7","","69","","","","35","","13","","24.1","","102.95","","","","-44","","Ice Crystals"
"-92.11","62.81","RANKIN INLET A","2303405","2020-02-26 04:00","2020","02","26","04:00","-33.6","","-37.5","","69","","","","31","","13","","24.1","","102.93","","","","-45","","Ice Crystals"
"-92.11","62.81","RANKIN INLET A","2303405","2020-02-26 05:00","2020","02","26","05:00","-33.3","","-37.1","","69","","","","32","","14","","24.1","","102.90","","","","-45","","Ice Crystals"
"-92.11","62.81","RANKIN INLET A","2303405","2020-02-26 06:00","2020","02","26","06:00","-33.0","","-36.8","","70","","","","31","","10","","24.1","","102.86","","","","-43","","Ice Crystals"
"-92.11","62.81","RANKIN INLET A","2303405","2020-02-26 07:00","2020","02","26","07:00","-33.2","","-36.9","","70","","","","28","","17","","24.1","","102.84","","","","-46","","Ice Crystals"
"-92.11","62.81","RANKIN INLET A","2303405","2020-02-26 08:00","2020","02","26","08:00","-32.3","","-36.0","","70","","","","27","","13","","24.1","","102.79","","","","-43","","Ice Crystals"
"-92.11","62.81","RANKIN INLET A","2303405","2020-02-26 09:00","2020","02","26","09:00","-31.9","","-35.6","","71","","","","25","","14","","24.1","","102.74","","","","-43","","Ice Crystals"
"-92.11","62.81","RANKIN INLET A","2303405","2020-02-26 10:00","2020","02","26","10:00","-31.6","","-35.3","","71","","","","25","","7","","24.1","","102.70","","","","-39","","Ice Crystals"
"-92.11","62.81","RANKIN INLET A","2303405","2020-02-26 11:00","2020","02","26","11:00","-31.2","","-34.9","","70","","","","23","","4","","24.1","","102.68","","","","-36","","Ice Crystals"
"-92.11","62.81","RANKIN INLET A","2303405","2020-02-26 12:00","2020","02","26","12:00","-30.1","","-33.9","","71","","","","22","","4","","24.1","","102.66","","","","-35","","Ice Crystals"
"-92.11","62.81","RANKIN INLET A","2303405","2020-02-26 13:00","2020","02","26","13:00","-29.0","","-32.7","","71","","","","22","","5","","24.1","","102.65","","","","-34","","Ice Crystals"
"-92.11","62.81","RANKIN INLET A","2303405","2020-02-26 14:00","2020","02","26","14:00","-28.3","","-31.9","","72","","","","18","","7","","24.1","","102.59","","","","-35","","Ice Crystals"
"-92.11","62.81","RANKIN INLET A","2303405","2020-02-26 15:00","2020","02","26","15:00","-27.4","","-30.9","","72","","","","22","","8","","24.1","","102.56","","","","-35","","Ice Crystals"
"-92.11","62.81","RANKIN INLET A","2303405","2020-02-26 16:00","2020","02","26","16:00","-27.5","","-31.1","","72","","","","16","","7","","24.1","","102.51","","","","-34","","Ice Crystals"
"-92.11","62.81","RANKIN INLET A","2303405","2020-02-26 17:00","2020","02","26","17:00","-28.4","","-32.0","","72","","","","15","","5","","24.1","","102.45","","","","-34","","Ice Crystals"
"-92.11","62.81","RANKIN INLET A","2303405","2020-02-26 18:00","2020","02","26","18:00","-28.4","","-32.0","","72","","","","16","","14","","24.1","","102.41","","","","-39","","Ice Crystals"
"-92.11","62.81","RANKIN INLET A","2303405","2020-02-26 19:00","2020","02","26","19:00","-28.2","","-31.7","","72","","","","15","","15","","24.1","","102.36","","","","-39","","Ice Crystals"
"-92.11","62.81","RANKIN INLET A","2303405","2020-02-26 20:00","2020","02","26","20:00","-28.1","","-31.6","","73","","","","15","","11","","24.1","","102.32","","","","-37","","Ice Crystals"
"-92.11","62.81","RANKIN INLET A","2303405","2020-02-26 21:00","2020","02","26","21:00","-26.4","","-29.8","","73","","","","17","","10","","24.1","","102.27","","","","-35","","Ice Crystals"
"-92.11","62.81","RANKIN INLET A","2303405","2020-02-26 22:00","2020","02","26","22:00","-25.3","","-28.6","","74","","","","15","","9","","8.1","","102.23","","","","-33","","Ice Crystals"
"-92.11","62.81","RANKIN INLET A","2303405","2020-02-26 23:00","2020","02","26","23:00","-25.9","","-29.3","","74","","","","17","","11","","16.1","","102.18","","","","-35","","Ice Crystals"
"-92.11","62.81","RANKIN INLET A","2303405","2020-02-27 00:00","2020","02","27","00:00","-25.8","","-29.2","","74","","","","18","","12","","16.1","","102.16","","","","-35","","Ice Crystals"
"-92.11","62.81","RANKIN INLET A","2303405","2020-02-27 01:00","2020","02","27","01:00","-25.9","","-29.3","","74","","","","16","","10","","16.1","","102.11","","","","-34","","Ice Crystals"
"-92.11","62.81","RANKIN INLET A","2303405","2020-02-27 02:00","2020","02","27","02:00","-23.6","","-26.8","","75","","","","17","","19","","24.1","","102.03","","","","-35","","Ice Crystals"
"-92.11","62.81","RANKIN INLET A","2303405","2020-02-27 03:00","2020","02","27","03:00","-24.0","","-27.3","","75","","","","17","","22","","24.1","","101.92","","","","-36","","Ice Crystals"
"-92.11","62.81","RANKIN INLET A","2303405","2020-02-27 04:00","2020","02","27","04:00","-23.2","","-26.4","","76","","","","16","","25","","16.1","","101.86","","","","-36","","Ice Crystals"
"-92.11","62.81","RANKIN INLET A","2303405","2020-02-27 05:00","2020","02","27","05:00","-23.3","","-26.5","","76","","","","17","","22","","3.2","","101.80","","","","-35","","Ice Crystals"
"-92.11","62.81","RANKIN INLET A","2303405","2020-02-27 06:00","2020","02","27","06:00","-21.9","","-24.9","","77","","","","17","","27","","1.6","","101.77","","","","-34","","Ice Crystals,Fog"
"-92.11","62.81","RANKIN INLET A","2303405","2020-02-27 07:00","2020","02","27","07:00","-22.2","","-25.2","","77","","","","17","","23","","1.6","","101.75","","","","-34","","Ice Crystals,Fog"
"-92.11","62.81","RANKIN INLET A","2303405","2020-02-27 08:00","2020","02","27","08:00","-21.6","","-24.6","","77","","","","17","","24","","1.6","","101.72","","","","-33","","Ice Crystals,Fog"
"-92.11","62.81","RANKIN INLET A","2303405","2020-02-27 09:00","2020","02","27","09:00","-20.4","","-23.3","","78","","","","17","","23","","2.0","","101.70","","","","-32","","Ice Crystals,Fog"
"-92.11","62.81","RANKIN INLET A","2303405","2020-02-27 10:00","2020","02","27","10:00","-19.7","","-22.5","","79","","","","17","","21","","8.1","","101.71","","","","-30","","Ice Crystals,Fog"
"-92.11","62.81","RANKIN INLET A","2303405","2020-02-27 11:00","2020","02","27","11:00","-19.1","","-21.9","","79","","","","18","","19","","16.1","","101.70","","","","-29","","Ice Crystals"
"-92.11","62.81","RANKIN INLET A","2303405","2020-02-27 12:00","2020","02","27","12:00","-17.8","","-20.4","","80","","","","19","","28","","48.3","","101.66","","","","-29","","Ice Crystals"
"-92.11","62.81","RANKIN INLET A","2303405","2020-02-27 13:00","2020","02","27","13:00","-16.8","","-19.3","","81","","","","19","","28","","24.1","","101.63","","","","-28","","Ice Crystals,Blowing Snow"
"-92.11","62.81","RANKIN INLET A","2303405","2020-02-27 14:00","2020","02","27","14:00","-16.3","","-18.8","","82","","","","20","","24","","16.1","","101.64","","","","-27","","Snow,Blowing Snow"
"-92.11","62.81","RANKIN INLET A","2303405","2020-02-27 15:00","2020","02","27","15:00","-15.9","","-18.3","","82","","","","20","","23","","16.1","","101.62","","","","-26","","Snow,Blowing Snow"
"-92.11","62.81","RANKIN INLET A","2303405","2020-02-27 16:00","2020","02","27","16:00","-15.4","","-17.7","","83","","","","20","","29","","4.0","","101.58","","","","-26","","Snow,Blowing Snow"
"-92.11","62.81","RANKIN INLET A","2303405","2020-02-27 17:00","2020","02","27","17:00","-15.3","","-17.5","","83","","","","20","","25","","4.0","","101.57","","","","-26","","Snow,Blowing Snow"
"-92.11","62.81","RANKIN INLET A","2303405","2020-02-27 18:00","2020","02","27","18:00","-15.6","","-17.9","","83","","","","19","","23","","4.8","","101.57","","","","-26","","Snow,Blowing Snow"
"-92.11","62.81","RANKIN INLET A","2303405","2020-02-27 19:00","2020","02","27","19:00","-16.1","","-18.4","","83","","","","19","","17","","6.4","","101.59","","","","-25","","Snow,Blowing Snow"
"-92.11","62.81","RANKIN INLET A","2303405","2020-02-27 20:00","2020","02","27","20:00","-16.4","","-18.8","","82","","","","19","","22","","6.4","","101.59","","","","-26","","Snow"
"-92.11","62.81","RANKIN INLET A","2303405","2020-02-27 21:00","2020","02","27","21:00","-16.8","","-19.2","","82","","","","19","","17","","6.4","","101.58","","","","-26","","Snow"
"-92.11","62.81","RANKIN INLET A","2303405","2020-02-27 22:00","2020","02","27","22:00","-17.4","","-19.9","","81","","","","18","","16","","6.4","","101.55","","","","-26","","Snow"
"-92.11","62.81","RANKIN INLET A","2303405","2020-02-27 23:00","2020","02","27","23:00","-17.6","","-20.1","","81","","","","19","","16","","8.1","","101.53","","","","-26","","Snow"
"-92.11","62.81","RANKIN INLET A","2303405","2020-02-28 00:00","2020","02","28","00:00","-17.5","","-20.0","","81","","","","18","","17","","8.1","","101.53","","","","-27","","Snow"
"-92.11","62.81","RANKIN INLET A","2303405","2020-02-28 01:00","2020","02","28","01:00","-17.9","","-20.4","","81","","","","17","","16","","9.7","","101.54","","","","-27","","Snow"
"-92.11","62.81","RANKIN INLET A","2303405","2020-02-28 02:00","2020","02","28","02:00","-17.8","","-20.3","","81","","","","17","","14","","9.7","","101.53","","","","-26","","Snow"
"-92.11","62.81","RANKIN INLET A","2303405","2020-02-28 03:00","2020","02","28","03:00","-18.7","","-21.3","","80","","","","17","","17","","9.7","","101.48","","","","-28","","Snow"
"-92.11","62.81","RANKIN INLET A","2303405","2020-02-28 04:00","2020","02","28","04:00","-18.8","","-21.4","","80","","","","16","","17","","9.7","","101.43","","","","-28","","Snow"
"-92.11","62.81","RANKIN INLET A","2303405","2020-02-28 05:00","2020","02","28","05:00","-19.3","","-21.9","","80","","","","16","","16","","16.1","","101.41","","","","-29","","Snow"
"-92.11","62.81","RANKIN INLET A","2303405","2020-02-28 06:00","2020","02","28","06:00","-20.1","","-22.9","","79","","","","15","","16","","16.1","","101.39","","","","-30","","Snow"
"-92.11","62.81","RANKIN INLET A","2303405","2020-02-28 07:00","2020","02","28","07:00","-20.7","","-23.4","","79","","","","15","","16","","24.1","","101.38","","","","-30","","Ice Crystals"
"-92.11","62.81","RANKIN INLET A","2303405","2020-02-28 08:00","2020","02","28","08:00","-20.7","","-23.5","","79","","","","15","","16","","24.1","","101.37","","","","-30","","Snow"
"-92.11","62.81","RANKIN INLET A","2303405","2020-02-28 09:00","2020","02","28","09:00","-20.3","","-23.1","","79","","","","15","","15","","16.1","","101.36","","","","-29","","Snow"
"-92.11","62.81","RANKIN INLET A","2303405","2020-02-28 10:00","2020","02","28","10:00","-20.1","","-22.9","","79","","","","15","","15","","24.1","","101.35","","","","-29","","Snow"
"-92.11","62.81","RANKIN INLET A","2303405","2020-02-28 11:00","2020","02","28","11:00","-18.9","","-21.6","","80","","","","15","","16","","12.9","","101.34","","","","-28","","Snow"
"-92.11","62.81","RANKIN INLET A","2303405","2020-02-28 12:00","2020","02","28","12:00","-18.3","","-20.9","","80","","","","15","","16","","12.9","","101.30","","","","-27","","Snow"
"-92.11","62.81","RANKIN INLET A","2303405","2020-02-28 13:00","2020","02","28","13:00","-18.1","","-20.7","","81","","","","15","","17","","24.1","","101.28","","","","-27","","Snow"
"-92.11","62.81","RANKIN INLET A","2303405","2020-02-28 14:00","2020","02","28","14:00","-18.4","","-21.0","","80","","","","14","","17","","24.1","","101.25","","","","-28","","Blowing Snow"
"-92.11","62.81","RANKIN INLET A","2303405","2020-02-28 15:00","2020","02","28","15:00","-18.7","","-21.4","","80","","","","14","","14","","24.1","","101.24","","","","-27","","Mostly Cloudy"
"-92.11","62.81","RANKIN INLET A","2303405","2020-02-28 16:00","2020","02","28","16:00","-18.1","","-20.6","","81","","","","12","","14","","11.3","","101.21","","","","-26","","Snow"
"-92.11","62.81","RANKIN INLET A","2303405","2020-02-28 17:00","2020","02","28","17:00","-17.9","","-20.5","","81","","","","12","","20","","12.9","","101.19","","","","-28","","Snow"
"-92.11","62.81","RANKIN INLET A","2303405","2020-02-28 18:00","2020","02","28","18:00","-18.1","","-20.6","","81","","","","12","","17","","12.9","","101.20","","","","-27","","Snow"
"-92.11","62.81","RANKIN INLET A","2303405","2020-02-28 19:00","2020","02","28","19:00","-17.7","","-20.2","","81","","","","11","","14","","12.9","","101.21","","","","-26","","Snow"
"-92.11","62.81","RANKIN INLET A","2303405","2020-02-28 20:00","2020","02","28","20:00","-17.0","","-19.4","","82","","","","11","","15","","16.1","","101.18","","","","-25","","Snow"
"-92.11","62.81","RANKIN INLET A","2303405","2020-02-28 21:00","2020","02","28","21:00","-16.7","","-19.1","","82","","","","12","","19","","16.1","","101.18","","","","-26","","Snow"
"-92.11","62.81","RANKIN INLET A","2303405","2020-02-28 22:00","2020","02","28","22:00","-16.6","","-19.0","","82","","","","12","","19","","16.1","","101.13","","","","-26","","Snow"
"-92.11","62.81","RANKIN INLET A","2303405","2020-02-28 23:00","2020","02","28","23:00","-16.3","","-18.7","","82","","","","11","","16","","16.1","","101.11","","","","-25","","Snow"
"-92.11","62.81","RANKIN INLET A","2303405","2020-02-29 00:00","2020","02","29","00:00","-16.2","","-18.5","","83","","","","13","","17","","16.1","","101.10","","","","-25","","Snow"
"-92.11","62.81","RANKIN INLET A","2303405","2020-02-29 01:00","2020","02","29","01:00","-16.0","","-18.3","","83","","","","13","","17","","16.1","","101.06","","","","-25","","Snow"
"-92.11","62.81","RANKIN INLET A","2303405","2020-02-29 02:00","2020","02","29","02:00","-16.2","","-18.5","","83","","","","13","","20","","16.1","","101.06","","","","-26","","Snow"
"-92.11","62.81","RANKIN INLET A","2303405","2020-02-29 03:00","2020","02","29","03:00","-16.7","","-19.1","","82","","","","13","","18","","9.7","","101.04","","","","-26","","Snow"
"-92.11","62.81","RANKIN INLET A","2303405","2020-02-29 04:00","2020","02","29","04:00","-16.9","","-19.3","","82","","","","12","","20","","6.4","","101.03","","","","-27","","Snow"
"-92.11","62.81","RANKIN INLET A","2303405","2020-02-29 05:00","2020","02","29","05:00","-17.0","","-19.4","","82","","","","14","","21","","8.1","","101.03","","","","-27","","Snow"
"-92.11","62.81","RANKIN INLET A","2303405","2020-02-29 06:00","2020","02","29","06:00","-17.4","","-19.9","","82","","","","13","","19","","8.1","","101.05","","","","-27","","Snow"
"-92.11","62.81","RANKIN INLET A","2303405","2020-02-29 07:00","2020","02","29","07:00","-17.3","","-19.7","","82","","","","14","","21","","4.8","","101.06","","","","-27","","Snow"
"-92.11","62.81","RANKIN INLET A","2303405","2020-02-29 08:00","2020","02","29","08:00","-17.2","","-19.6","","82","","","","14","","25","","3.2","","101.05","","","","-28","","Snow,Blowing Snow"
"-92.11","62.81","RANKIN INLET A","2303405","2020-02-29 09:00","2020","02","29","09:00","-17.1","","-19.5","","82","","","","14","","24","","3.2","","101.05","","","","-28","","Snow,Blowing Snow"
"-92.11","62.81","RANKIN INLET A","2303405","2020-02-29 10:00","2020","02","29","10:00","-17.0","","-19.4","","82","","","","14","","26","","3.2","","101.05","","","","-28","","Snow,Blowing Snow"
"-92.11","62.81","RANKIN INLET A","2303405","2020-02-29 11:00","2020","02","29","11:00","-16.6","","-19.0","","82","","","","14","","23","","3.2","","101.06","","","","-27","","Snow,Blowing Snow"
"-92.11","62.81","RANKIN INLET A","2303405","2020-02-29 12:00","2020","02","29","12:00","-16.4","","-18.7","","82","","","","14","","23","","3.2","","101.05","","","","-27","","Snow,Blowing Snow"
"-92.11","62.81","RANKIN INLET A","2303405","2020-02-29 13:00","2020","02","29","13:00","-15.8","","-18.1","","83","","","","15","","27","","3.2","","101.02","","","","-27","","Snow,Blowing Snow"
"-92.11","62.81","RANKIN INLET A","2303405","2020-02-29 14:00","2020","02","29","14:00","-15.4","","-17.7","","83","","","","15","","23","","3.2","","101.05","","","","-25","","Snow,Blowing Snow"
"-92.11","62.81","RANKIN INLET A","2303405","2020-02-29 15:00","2020","02","29","15:00","-15.2","","-17.4","","83","","","","15","","23","","4.0","","101.07","","","","-25","","Snow,Blowing Snow"
"-92.11","62.81","RANKIN INLET A","2303405","2020-02-29 16:00","2020","02","29","16:00","-15.0","","-17.2","","84","","","","15","","23","","3.2","","101.08","","","","-25","","Snow,Blowing Snow"
"-92.11","62.81","RANKIN INLET A","2303405","2020-02-29 17:00","2020","02","29","17:00","-15.0","","-17.2","","84","","","","15","","21","","3.2","","101.09","","","","-24","","Snow,Blowing Snow"
"-92.11","62.81","RANKIN INLET A","2303405","2020-02-29 18:00","2020","02","29","18:00","-15.4","","-17.6","","83","","","","15","","22","","4.0","","101.14","","","","-25","","Snow,Blowing Snow"
"-92.11","62.81","RANKIN INLET A","2303405","2020-02-29 19:00","2020","02","29","19:00","-15.5","","-17.7","","83","","","","15","","24","","2.4","","101.14","","","","-26","","Snow,Blowing Snow"
"-92.11","62.81","RANKIN INLET A","2303405","2020-02-29 20:00","2020","02","29","20:00","-15.8","","-18.1","","83","","","","15","","25","","2.4","","101.12","","","","-26","","Snow,Blowing Snow"
"-92.11","62.81","RANKIN INLET A","2303405","2020-02-29 21:00","2020","02","29","21:00","-16.3","","-18.6","","83","","","","15","","22","","9.7","","101.11","","","","-26","","Snow,Blowing Snow"
"-92.11","62.81","RANKIN INLET A","2303405","2020-02-29 22:00","2020","02","29","22:00","-16.1","","-18.4","","83","","","","15","","22","","8.1","","101.08","","","","-26","","Snow,Blowing Snow"
"-92.11","62.81","RANKIN INLET A","2303405","2020-02-29 23:00","2020","02","29","23:00","-16.2","","-18.4","","83","","","","15","","21","","4.8","","101.06","","","","-26","","Snow,Blowing Snow"
