"Longitude (x)","Latitude (y)","Station Name","Climate ID","Date/Time (LST)","Year","Month","Day","Time (LST)","Temp (°C)","Temp Flag","Dew Point Temp (°C)","Dew Point Temp Flag","Rel Hum (%)","Rel Hum Flag","Precip. Amount (mm)","Precip. Amount Flag","Wind Dir (10s deg)","Wind Dir Flag","Wind Spd (km/h)","Wind Spd Flag","Visibility (km)","Visibility Flag","Stn Press (kPa)","Stn Press Flag","Hmdx","Hmdx Flag","Wind Chill","Wind Chill Flag","Weather"
"-124.43","49.49","SISTERS ISLAND","1027403","2019-05-01 00:00","2019","05","01","00:00","12.1","","5.1","","62","","","M","29","","12","","","","101.39","","","","","","NA"
"-124.43","49.49","SISTERS ISLAND","1027403","2019-05-01 01:00","2019","05","01","01:00","12.6","","2.0","","48","","","M","28","","16","","","","101.39","","","","","","NA"
"-124.43","49.49","SISTERS ISLAND","1027403","2019-05-01 02:00","2019","05","01","02:00","12.7","","-2.2","","36","","","M","28","","15","","","","101.36","","","","","","NA"
"-124.43","49.49","SISTERS ISLAND","1027403","2019-05-01 03:00","2019","05","01","03:00","12.9","","-3.8","","31","","","M","30","","16","","","","101.35","","","","","","NA"
"-124.43","49.49","SISTERS ISLAND","1027403","2019-05-01 04:00","2019","05","01","04:00","10.7","","5.6","","71","","","M","28","","17","","","","101.35","","","","","","NA"
"-124.43","49.49","SISTERS ISLAND","1027403","2019-05-01 05:00","2019","05","01","05:00","10.7","","1.5","","53","","","M","30","","24","","","","101.35","","","","","","NA"
"-124.43","49.49","SISTERS ISLAND","1027403","2019-05-01 06:00","2019","05","01","06:00","10.8","","1.9","","54","","","M","32","","19","","","","101.35","","","","","","NA"
"-124.43","49.49","SISTERS ISLAND","1027403","2019-05-01 07:00","2019","05","01","07:00","10.7","","1.8","","54","","","M","31","","19","","","","101.40","","","","","","NA"
"-124.43","49.49","SISTERS ISLAND","1027403","2019-05-01 08:00","2019","05","01","08:00","10.6","","3.5","","61","","","M","29","","18","","","","101.42","","","","","","NA"
"-124.43","49.49","SISTERS ISLAND","1027403","2019-05-01 09:00","2019","05","01","09:00","10.4","","3.9","","64","","","M","30","","16","","","","101.45","","","","","","NA"
"-124.43","49.49","SISTERS ISLAND","1027403","2019-05-01 10:00","2019","05","01","10:00","10.9","","4.5","","64","","","M","32","","11","","","","101.45","","","","","","NA"
"-124.43","49.49","SISTERS ISLAND","1027403","2019-05-01 11:00","2019","05","01","11:00","11.4","","5.1","","66","","","M","34","","10","","","","101.43","","","","","","NA"
"-124.43","49.49","SISTERS ISLAND","1027403","2019-05-01 12:00","2019","05","01","12:00","12.2","","5.7","","65","","","M","35","","11","","","","101.39","","","","","","NA"
"-124.43","49.49","SISTERS ISLAND","1027403","2019-05-01 13:00","2019","05","01","13:00","11.0","","4.5","","64","","","M","2","","8","","","","101.35","","","","","","NA"
"-124.43","49.49","SISTERS ISLAND","1027403","2019-05-01 14:00","2019","05","01","14:00","11.9","","3.9","","58","","","M","13","","14","","","","101.31","","","","","","NA"
"-124.43","49.49","SISTERS ISLAND","1027403","2019-05-01 15:00","2019","05","01","15:00","12.4","","2.2","","50","","","M","13","","16","","","","101.24","","","","","","NA"
"-124.43","49.49","SISTERS ISLAND","1027403","2019-05-01 16:00","2019","05","01","16:00","12.2","","6.8","","70","","","M","13","","18","","","","101.20","","","","","","NA"
"-124.43","49.49","SISTERS ISLAND","1027403","2019-05-01 17:00","2019","05","01","17:00","12.2","","7.4","","72","","","M","13","","19","","","","101.18","","","","","","NA"
"-124.43","49.49","SISTERS ISLAND","1027403","2019-05-01 18:00","2019","05","01","18:00","13.0","","3.8","","53","","","M","15","","7","","","","101.18","","","","","","NA"
"-124.43","49.49","SISTERS ISLAND","1027403","2019-05-01 19:00","2019","05","01","19:00","13.2","","5.9","","61","","","M","22","","34","","","","101.14","","","","","","NA"
"-124.43","49.49","SISTERS ISLAND","1027403","2019-05-01 20:00","2019","05","01","20:00","12.4","","6.3","","66","","","M","24","","39","","","","101.15","","","","","","NA"
"-124.43","49.49","SISTERS ISLAND","1027403","2019-05-01 21:00","2019","05","01","21:00","11.8","","5.9","","67","","","M","24","","43","","","","101.14","","","","","","NA"
"-124.43","49.49","SISTERS ISLAND","1027403","2019-05-01 22:00","2019","05","01","22:00","11.0","","6.0","","71","","","M","24","","47","","","","101.18","","","","","","NA"
"-124.43","49.49","SISTERS ISLAND","1027403","2019-05-01 23:00","2019","05","01","23:00","10.7","","6.0","","73","","","M","24","","43","","","","101.25","","","","","","NA"
"-124.43","49.49","SISTERS ISLAND","1027403","2019-05-02 00:00","2019","05","02","00:00","10.5","","5.8","","73","","","M","24","","42","","","","101.29","","","","","","NA"
"-124.43","49.49","SISTERS ISLAND","1027403","2019-05-02 01:00","2019","05","02","01:00","10.4","","5.4","","71","","","M","24","","39","","","","101.30","","","","","","NA"
"-124.43","49.49","SISTERS ISLAND","1027403","2019-05-02 02:00","2019","05","02","02:00","10.4","","5.6","","72","","","M","25","","33","","","","101.36","","","","","","NA"
"-124.43","49.49","SISTERS ISLAND","1027403","2019-05-02 03:00","2019","05","02","03:00","10.3","","5.7","","73","","","M","29","","22","","","","101.42","","","","","","NA"
"-124.43","49.49","SISTERS ISLAND","1027403","2019-05-02 04:00","2019","05","02","04:00","10.0","","5.4","","73","","","M","31","","23","","","","101.46","","","","","","NA"
"-124.43","49.49","SISTERS ISLAND","1027403","2019-05-02 05:00","2019","05","02","05:00","9.9","","5.4","","73","","","M","33","","20","","","","101.49","","","","","","NA"
"-124.43","49.49","SISTERS ISLAND","1027403","2019-05-02 06:00","2019","05","02","06:00","9.9","","5.6","","75","","","M","33","","17","","","","101.54","","","","","","NA"
"-124.43","49.49","SISTERS ISLAND","1027403","2019-05-02 07:00","2019","05","02","07:00","11.2","","5.7","","69","","","M","34","","16","","","","101.60","","","","","","NA"
"-124.43","49.49","SISTERS ISLAND","1027403","2019-05-02 08:00","2019","05","02","08:00","11.1","","5.3","","67","","","M","35","","15","","","","101.64","","","","","","NA"
"-124.43","49.49","SISTERS ISLAND","1027403","2019-05-02 09:00","2019","05","02","09:00","10.1","","5.5","","73","","","M","1","","13","","","","101.67","","","","","","NA"
"-124.43","49.49","SISTERS ISLAND","1027403","2019-05-02 10:00","2019","05","02","10:00","11.7","","5.9","","68","","","M","36","","11","","","","101.68","","","","","","NA"
"-124.43","49.49","SISTERS ISLAND","1027403","2019-05-02 11:00","2019","05","02","11:00","13.0","","5.7","","61","","","M","35","","10","","","","101.73","","","","","","NA"
"-124.43","49.49","SISTERS ISLAND","1027403","2019-05-02 12:00","2019","05","02","12:00","13.8","","6.0","","60","","","M","35","","9","","","","101.73","","","","","","NA"
"-124.43","49.49","SISTERS ISLAND","1027403","2019-05-02 13:00","2019","05","02","13:00","13.7","","5.3","","57","","","M","1","","1","","","","101.73","","","","","","NA"
"-124.43","49.49","SISTERS ISLAND","1027403","2019-05-02 14:00","2019","05","02","14:00","12.1","","6.8","","70","","","M","13","","19","","","","101.69","","","","","","NA"
"-124.43","49.49","SISTERS ISLAND","1027403","2019-05-02 15:00","2019","05","02","15:00","11.9","","6.9","","71","","","M","12","","29","","","","101.65","","","","","","NA"
"-124.43","49.49","SISTERS ISLAND","1027403","2019-05-02 16:00","2019","05","02","16:00","11.8","","7.3","","74","","","M","12","","29","","","","101.65","","","","","","NA"
"-124.43","49.49","SISTERS ISLAND","1027403","2019-05-02 17:00","2019","05","02","17:00","12.1","","6.5","","69","","","M","12","","23","","","","101.67","","","","","","NA"
"-124.43","49.49","SISTERS ISLAND","1027403","2019-05-02 18:00","2019","05","02","18:00","12.3","","6.9","","70","","","M","12","","18","","","","101.68","","","","","","NA"
"-124.43","49.49","SISTERS ISLAND","1027403","2019-05-02 19:00","2019","05","02","19:00","12.4","","6.8","","69","","","M","17","","11","","","","101.70","","","","","","NA"
"-124.43","49.49","SISTERS ISLAND","1027403","2019-05-02 20:00","2019","05","02","20:00","12.5","","5.5","","62","","","M","23","","11","","","","101.74","","","","","","NA"
"-124.43","49.49","SISTERS ISLAND","1027403","2019-05-02 21:00","2019","05","02","21:00","11.9","","5.4","","65","","","M","21","","24","","","","101.74","","","","","","NA"
"-124.43","49.49","SISTERS ISLAND","1027403","2019-05-02 22:00","2019","05","02","22:00","11.5","","5.9","","68","","","M","22","","25","","","","101.74","","","","","","NA"
"-124.43","49.49","SISTERS ISLAND","1027403","2019-05-02 23:00","2019","05","02","23:00","11.2","","6.6","","73","","","M","24","","26","","","","101.76","","","","","","NA"
"-124.43","49.49","SISTERS ISLAND","1027403","2019-05-03 00:00","2019","05","03","00:00","11.2","","6.8","","74","","","M","24","","24","","","","101.78","","","","","","NA"
"-124.43","49.49","SISTERS ISLAND","1027403","2019-05-03 01:00","2019","05","03","01:00","11.3","","8.1","","81","","","M","30","","21","","","","101.76","","","","","","NA"
"-124.43","49.49","SISTERS ISLAND","1027403","2019-05-03 02:00","2019","05","03","02:00","11.1","","6.3","","72","","","M","30","","28","","","","101.76","","","","","","NA"
"-124.43","49.49","SISTERS ISLAND","1027403","2019-05-03 03:00","2019","05","03","03:00","10.9","","5.7","","71","","","M","31","","23","","","","101.77","","","","","","NA"
"-124.43","49.49","SISTERS ISLAND","1027403","2019-05-03 04:00","2019","05","03","04:00","10.6","","6.2","","74","","","M","31","","24","","","","101.78","","","","","","NA"
"-124.43","49.49","SISTERS ISLAND","1027403","2019-05-03 05:00","2019","05","03","05:00","10.3","","5.9","","74","","","M","31","","23","","","","101.78","","","","","","NA"
"-124.43","49.49","SISTERS ISLAND","1027403","2019-05-03 06:00","2019","05","03","06:00","10.2","","5.6","","73","","","M","31","","24","","","","101.79","","","","","","NA"
"-124.43","49.49","SISTERS ISLAND","1027403","2019-05-03 07:00","2019","05","03","07:00","10.3","","5.2","","71","","","M","31","","18","","","","101.83","","","","","","NA"
"-124.43","49.49","SISTERS ISLAND","1027403","2019-05-03 08:00","2019","05","03","08:00","10.8","","5.6","","70","","","M","31","","19","","","","101.84","","","","","","NA"
"-124.43","49.49","SISTERS ISLAND","1027403","2019-05-03 09:00","2019","05","03","09:00","11.6","","5.7","","67","","","M","33","","14","","","","101.84","","","","","","NA"
"-124.43","49.49","SISTERS ISLAND","1027403","2019-05-03 10:00","2019","05","03","10:00","11.5","","5.1","","65","","","M","33","","12","","","","101.85","","","","","","NA"
"-124.43","49.49","SISTERS ISLAND","1027403","2019-05-03 11:00","2019","05","03","11:00","11.6","","5.7","","67","","","M","29","","12","","","","101.82","","","","","","NA"
"-124.43","49.49","SISTERS ISLAND","1027403","2019-05-03 12:00","2019","05","03","12:00","12.0","","5.4","","64","","","M","33","","22","","","","101.78","","","","","","NA"
"-124.43","49.49","SISTERS ISLAND","1027403","2019-05-03 13:00","2019","05","03","13:00","12.5","","5.3","","62","","","M","28","","14","","","","101.77","","","","","","NA"
"-124.43","49.49","SISTERS ISLAND","1027403","2019-05-03 14:00","2019","05","03","14:00","12.7","","5.7","","62","","","M","29","","16","","","","101.73","","","","","","NA"
"-124.43","49.49","SISTERS ISLAND","1027403","2019-05-03 15:00","2019","05","03","15:00","13.2","","6.0","","61","","","M","31","","12","","","","101.69","","","","","","NA"
"-124.43","49.49","SISTERS ISLAND","1027403","2019-05-03 16:00","2019","05","03","16:00","15.3","","7.3","","58","","","M","33","","4","","","","101.64","","","","","","NA"
"-124.43","49.49","SISTERS ISLAND","1027403","2019-05-03 17:00","2019","05","03","17:00","13.1","","6.5","","64","","","M","12","","4","","","","101.63","","","","","","NA"
"-124.43","49.49","SISTERS ISLAND","1027403","2019-05-03 18:00","2019","05","03","18:00","13.5","","3.6","","51","","","M","13","","4","","","","101.59","","","","","","NA"
"-124.43","49.49","SISTERS ISLAND","1027403","2019-05-03 19:00","2019","05","03","19:00","13.3","","4.8","","57","","","M","3","","5","","","","101.57","","","","","","NA"
"-124.43","49.49","SISTERS ISLAND","1027403","2019-05-03 20:00","2019","05","03","20:00","13.8","","3.4","","49","","","M","3","","5","","","","101.59","","","","","","NA"
"-124.43","49.49","SISTERS ISLAND","1027403","2019-05-03 21:00","2019","05","03","21:00","13.7","","2.9","","48","","","M","30","","6","","","","101.58","","","","","","NA"
"-124.43","49.49","SISTERS ISLAND","1027403","2019-05-03 22:00","2019","05","03","22:00","12.8","","8.0","","73","","","M","31","","24","","","","101.56","","","","","","NA"
"-124.43","49.49","SISTERS ISLAND","1027403","2019-05-03 23:00","2019","05","03","23:00","12.3","","7.9","","74","","","M","32","","33","","","","101.55","","","","","","NA"
"-124.43","49.49","SISTERS ISLAND","1027403","2019-05-04 00:00","2019","05","04","00:00","11.9","","8.1","","77","","","M","32","","30","","","","101.53","","","","","","NA"
"-124.43","49.49","SISTERS ISLAND","1027403","2019-05-04 01:00","2019","05","04","01:00","11.5","","7.8","","78","","","M","30","","28","","","","101.52","","","","","","NA"
"-124.43","49.49","SISTERS ISLAND","1027403","2019-05-04 02:00","2019","05","04","02:00","11.1","","7.9","","81","","","M","30","","36","","","","101.51","","","","","","NA"
"-124.43","49.49","SISTERS ISLAND","1027403","2019-05-04 03:00","2019","05","04","03:00","10.8","","7.4","","80","","","M","29","","24","","","","101.49","","","","","","NA"
"-124.43","49.49","SISTERS ISLAND","1027403","2019-05-04 04:00","2019","05","04","04:00","10.6","","7.2","","79","","","M","28","","21","","","","101.48","","","","","","NA"
"-124.43","49.49","SISTERS ISLAND","1027403","2019-05-04 05:00","2019","05","04","05:00","10.2","","6.9","","80","","","M","27","","21","","","","101.48","","","","","","NA"
"-124.43","49.49","SISTERS ISLAND","1027403","2019-05-04 06:00","2019","05","04","06:00","10.4","","6.8","","78","","","M","27","","20","","","","101.49","","","","","","NA"
"-124.43","49.49","SISTERS ISLAND","1027403","2019-05-04 07:00","2019","05","04","07:00","10.5","","6.7","","77","","","M","28","","22","","","","101.51","","","","","","NA"
"-124.43","49.49","SISTERS ISLAND","1027403","2019-05-04 08:00","2019","05","04","08:00","11.0","","6.6","","75","","","M","30","","23","","","","101.50","","","","","","NA"
"-124.43","49.49","SISTERS ISLAND","1027403","2019-05-04 09:00","2019","05","04","09:00","11.3","","7.0","","75","","","M","31","","22","","","","101.48","","","","","","NA"
"-124.43","49.49","SISTERS ISLAND","1027403","2019-05-04 10:00","2019","05","04","10:00","11.7","","7.0","","73","","","M","30","","20","","","","101.47","","","","","","NA"
"-124.43","49.49","SISTERS ISLAND","1027403","2019-05-04 11:00","2019","05","04","11:00","12.2","","7.3","","72","","","M","32","","19","","","","101.42","","","","","","NA"
"-124.43","49.49","SISTERS ISLAND","1027403","2019-05-04 12:00","2019","05","04","12:00","12.6","","7.4","","70","","","M","32","","20","","","","101.36","","","","","","NA"
"-124.43","49.49","SISTERS ISLAND","1027403","2019-05-04 13:00","2019","05","04","13:00","12.8","","7.7","","71","","","M","31","","19","","","","101.33","","","","","","NA"
"-124.43","49.49","SISTERS ISLAND","1027403","2019-05-04 14:00","2019","05","04","14:00","13.1","","7.9","","71","","","M","29","","16","","","","101.28","","","","","","NA"
"-124.43","49.49","SISTERS ISLAND","1027403","2019-05-04 15:00","2019","05","04","15:00","13.3","","7.7","","69","","","M","30","","16","","","","101.20","","","","","","NA"
"-124.43","49.49","SISTERS ISLAND","1027403","2019-05-04 16:00","2019","05","04","16:00","14.4","","8.5","","68","","","M","28","","10","","","","101.15","","","","","","NA"
"-124.43","49.49","SISTERS ISLAND","1027403","2019-05-04 17:00","2019","05","04","17:00","15.0","","6.3","","56","","","M","30","","24","","","","101.09","","","","","","NA"
"-124.43","49.49","SISTERS ISLAND","1027403","2019-05-04 18:00","2019","05","04","18:00","15.1","","6.8","","57","","","M","28","","33","","","","101.01","","","","","","NA"
"-124.43","49.49","SISTERS ISLAND","1027403","2019-05-04 19:00","2019","05","04","19:00","15.5","","6.8","","56","","","M","28","","30","","","","100.99","","","","","","NA"
"-124.43","49.49","SISTERS ISLAND","1027403","2019-05-04 20:00","2019","05","04","20:00","15.1","","7.3","","59","","","M","28","","38","","","","100.98","","","","","","NA"
"-124.43","49.49","SISTERS ISLAND","1027403","2019-05-04 21:00","2019","05","04","21:00","14.0","","7.3","","64","","","M","30","","45","","","","100.96","","","","","","NA"
"-124.43","49.49","SISTERS ISLAND","1027403","2019-05-04 22:00","2019","05","04","22:00","13.3","","6.1","","62","","","M","29","","41","","","","100.97","","","","","","NA"
"-124.43","49.49","SISTERS ISLAND","1027403","2019-05-04 23:00","2019","05","04","23:00","12.6","","6.3","","65","","","M","30","","39","","","","101.00","","","","","","NA"
"-124.43","49.49","SISTERS ISLAND","1027403","2019-05-05 00:00","2019","05","05","00:00","11.9","","6.3","","68","","","M","30","","43","","","","101.00","","","","","","NA"
"-124.43","49.49","SISTERS ISLAND","1027403","2019-05-05 01:00","2019","05","05","01:00","11.4","","6.5","","72","","","M","29","","42","","","","101.00","","","","","","NA"
"-124.43","49.49","SISTERS ISLAND","1027403","2019-05-05 02:00","2019","05","05","02:00","11.0","","6.5","","74","","","M","30","","38","","","","101.06","","","","","","NA"
"-124.43","49.49","SISTERS ISLAND","1027403","2019-05-05 03:00","2019","05","05","03:00","10.8","","7.0","","77","","","M","29","","32","","","","101.10","","","","","","NA"
"-124.43","49.49","SISTERS ISLAND","1027403","2019-05-05 04:00","2019","05","05","04:00","10.5","","6.3","","75","","","M","29","","34","","","","101.12","","","","","","NA"
"-124.43","49.49","SISTERS ISLAND","1027403","2019-05-05 05:00","2019","05","05","05:00","10.4","","6.8","","79","","","M","31","","41","","","","101.11","","","","","","NA"
"-124.43","49.49","SISTERS ISLAND","1027403","2019-05-05 06:00","2019","05","05","06:00","10.5","","6.5","","76","","","M","31","","39","","","","101.14","","","","","","NA"
"-124.43","49.49","SISTERS ISLAND","1027403","2019-05-05 07:00","2019","05","05","07:00","10.7","","5.4","","70","","","M","29","","19","","","","101.22","","","","","","NA"
"-124.43","49.49","SISTERS ISLAND","1027403","2019-05-05 08:00","2019","05","05","08:00","10.8","","6.4","","74","","","M","31","","35","","","","101.21","","","","","","NA"
"-124.43","49.49","SISTERS ISLAND","1027403","2019-05-05 09:00","2019","05","05","09:00","11.1","","6.4","","72","","","M","31","","33","","","","101.22","","","","","","NA"
"-124.43","49.49","SISTERS ISLAND","1027403","2019-05-05 10:00","2019","05","05","10:00","11.4","","6.8","","74","","","M","31","","30","","","","101.26","","","","","","NA"
"-124.43","49.49","SISTERS ISLAND","1027403","2019-05-05 11:00","2019","05","05","11:00","11.7","","7.3","","74","","","M","31","","20","","","","101.23","","","","","","NA"
"-124.43","49.49","SISTERS ISLAND","1027403","2019-05-05 12:00","2019","05","05","12:00","12.2","","7.3","","72","","","M","30","","17","","","","101.20","","","","","","NA"
"-124.43","49.49","SISTERS ISLAND","1027403","2019-05-05 13:00","2019","05","05","13:00","13.0","","6.3","","64","","","M","29","","26","","","","101.16","","","","","","NA"
"-124.43","49.49","SISTERS ISLAND","1027403","2019-05-05 14:00","2019","05","05","14:00","13.8","","6.5","","62","","","M","28","","24","","","","101.13","","","","","","NA"
"-124.43","49.49","SISTERS ISLAND","1027403","2019-05-05 15:00","2019","05","05","15:00","14.9","","6.4","","56","","","M","29","","25","","","","101.08","","","","","","NA"
"-124.43","49.49","SISTERS ISLAND","1027403","2019-05-05 16:00","2019","05","05","16:00","15.8","","4.8","","48","","","M","29","","21","","","","101.04","","","","","","NA"
"-124.43","49.49","SISTERS ISLAND","1027403","2019-05-05 17:00","2019","05","05","17:00","16.7","","4.5","","44","","","M","29","","29","","","","101.00","","","","","","NA"
"-124.43","49.49","SISTERS ISLAND","1027403","2019-05-05 18:00","2019","05","05","18:00","16.0","","6.7","","54","","","M","31","","29","","","","100.98","","","","","","NA"
"-124.43","49.49","SISTERS ISLAND","1027403","2019-05-05 19:00","2019","05","05","19:00","14.5","","8.3","","66","","","M","29","","26","","","","101.00","","","","","","NA"
"-124.43","49.49","SISTERS ISLAND","1027403","2019-05-05 20:00","2019","05","05","20:00","13.8","","8.7","","71","","","M","29","","31","","","","101.03","","","","","","NA"
"-124.43","49.49","SISTERS ISLAND","1027403","2019-05-05 21:00","2019","05","05","21:00","14.0","","8.1","","68","","","M","29","","37","","","","101.04","","","","","","NA"
"-124.43","49.49","SISTERS ISLAND","1027403","2019-05-05 22:00","2019","05","05","22:00","13.0","","8.4","","73","","","M","30","","28","","","","101.11","","","","","","NA"
"-124.43","49.49","SISTERS ISLAND","1027403","2019-05-05 23:00","2019","05","05","23:00","12.9","","7.4","","69","","","M","32","","38","","","","101.12","","","","","","NA"
"-124.43","49.49","SISTERS ISLAND","1027403","2019-05-06 00:00","2019","05","06","00:00","12.2","","8.1","","76","","","M","30","","29","","","","101.18","","","","","","NA"
"-124.43","49.49","SISTERS ISLAND","1027403","2019-05-06 01:00","2019","05","06","01:00","12.0","","7.6","","75","","","M","31","","32","","","","101.19","","","","","","NA"
"-124.43","49.49","SISTERS ISLAND","1027403","2019-05-06 02:00","2019","05","06","02:00","11.7","","7.6","","76","","","M","29","","22","","","","101.25","","","","","","NA"
"-124.43","49.49","SISTERS ISLAND","1027403","2019-05-06 03:00","2019","05","06","03:00","11.4","","7.2","","75","","","M","30","","26","","","","101.30","","","","","","NA"
"-124.43","49.49","SISTERS ISLAND","1027403","2019-05-06 04:00","2019","05","06","04:00","11.0","","7.2","","78","","","M","30","","27","","","","101.33","","","","","","NA"
"-124.43","49.49","SISTERS ISLAND","1027403","2019-05-06 05:00","2019","05","06","05:00","10.7","","7.3","","79","","","M","29","","24","","","","101.39","","","","","","NA"
"-124.43","49.49","SISTERS ISLAND","1027403","2019-05-06 06:00","2019","05","06","06:00","11.2","","7.1","","76","","","M","29","","29","","","","101.42","","","","","","NA"
"-124.43","49.49","SISTERS ISLAND","1027403","2019-05-06 07:00","2019","05","06","07:00","11.8","","6.1","","68","","","M","28","","18","","","","101.48","","","","","","NA"
"-124.43","49.49","SISTERS ISLAND","1027403","2019-05-06 08:00","2019","05","06","08:00","11.7","","6.3","","69","","","M","29","","16","","","","101.50","","","","","","NA"
"-124.43","49.49","SISTERS ISLAND","1027403","2019-05-06 09:00","2019","05","06","09:00","11.5","","6.9","","73","","","M","30","","18","","","","101.49","","","","","","NA"
"-124.43","49.49","SISTERS ISLAND","1027403","2019-05-06 10:00","2019","05","06","10:00","12.0","","7.2","","73","","","M","30","","12","","","","101.48","","","","","","NA"
"-124.43","49.49","SISTERS ISLAND","1027403","2019-05-06 11:00","2019","05","06","11:00","12.1","","7.3","","72","","","M","30","","18","","","","101.46","","","","","","NA"
"-124.43","49.49","SISTERS ISLAND","1027403","2019-05-06 12:00","2019","05","06","12:00","12.8","","7.1","","68","","","M","31","","16","","","","101.45","","","","","","NA"
"-124.43","49.49","SISTERS ISLAND","1027403","2019-05-06 13:00","2019","05","06","13:00","14.2","","5.9","","57","","","M","28","","22","","","","101.38","","","","","","NA"
"-124.43","49.49","SISTERS ISLAND","1027403","2019-05-06 14:00","2019","05","06","14:00","14.4","","6.9","","61","","","M","29","","23","","","","101.35","","","","","","NA"
"-124.43","49.49","SISTERS ISLAND","1027403","2019-05-06 15:00","2019","05","06","15:00","15.5","","6.4","","55","","","M","29","","20","","","","101.30","","","","","","NA"
"-124.43","49.49","SISTERS ISLAND","1027403","2019-05-06 16:00","2019","05","06","16:00","17.2","","4.2","","42","","","M","29","","32","","","","101.24","","","","","","NA"
"-124.43","49.49","SISTERS ISLAND","1027403","2019-05-06 17:00","2019","05","06","17:00","14.9","","7.4","","61","","","M","27","","21","","","","101.25","","","","","","NA"
"-124.43","49.49","SISTERS ISLAND","1027403","2019-05-06 18:00","2019","05","06","18:00","15.2","","6.6","","57","","","M","30","","30","","","","101.23","","","","","","NA"
"-124.43","49.49","SISTERS ISLAND","1027403","2019-05-06 19:00","2019","05","06","19:00","15.1","","7.4","","60","","","M","30","","33","","","","101.22","","","","","","NA"
"-124.43","49.49","SISTERS ISLAND","1027403","2019-05-06 20:00","2019","05","06","20:00","14.7","","6.9","","60","","","M","31","","41","","","","101.24","","","","","","NA"
"-124.43","49.49","SISTERS ISLAND","1027403","2019-05-06 21:00","2019","05","06","21:00","13.7","","7.3","","65","","","M","31","","32","","","","101.33","","","","","","NA"
"-124.43","49.49","SISTERS ISLAND","1027403","2019-05-06 22:00","2019","05","06","22:00","12.8","","7.9","","72","","","M","28","","22","","","","101.38","","","","","","NA"
"-124.43","49.49","SISTERS ISLAND","1027403","2019-05-06 23:00","2019","05","06","23:00","12.5","","7.4","","71","","","M","31","","25","","","","101.45","","","","","","NA"
"-124.43","49.49","SISTERS ISLAND","1027403","2019-05-07 00:00","2019","05","07","00:00","12.0","","7.7","","75","","","M","31","","42","","","","101.37","","","","","","NA"
"-124.43","49.49","SISTERS ISLAND","1027403","2019-05-07 01:00","2019","05","07","01:00","11.7","","7.8","","77","","","M","30","","32","","","","101.45","","","","","","NA"
"-124.43","49.49","SISTERS ISLAND","1027403","2019-05-07 02:00","2019","05","07","02:00","11.6","","7.4","","76","","","M","30","","43","","","","101.45","","","","","","NA"
"-124.43","49.49","SISTERS ISLAND","1027403","2019-05-07 03:00","2019","05","07","03:00","11.3","","7.4","","77","","","M","30","","33","","","","101.52","","","","","","NA"
"-124.43","49.49","SISTERS ISLAND","1027403","2019-05-07 04:00","2019","05","07","04:00","11.2","","7.3","","77","","","M","30","","30","","","","101.55","","","","","","NA"
"-124.43","49.49","SISTERS ISLAND","1027403","2019-05-07 05:00","2019","05","07","05:00","10.9","","7.1","","77","","","M","30","","33","","","","101.56","","","","","","NA"
"-124.43","49.49","SISTERS ISLAND","1027403","2019-05-07 06:00","2019","05","07","06:00","11.4","","7.3","","76","","","M","29","","34","","","","101.64","","","","","","NA"
"-124.43","49.49","SISTERS ISLAND","1027403","2019-05-07 07:00","2019","05","07","07:00","11.8","","6.8","","71","","","M","29","","33","","","","101.73","","","","","","NA"
"-124.43","49.49","SISTERS ISLAND","1027403","2019-05-07 08:00","2019","05","07","08:00","11.9","","7.2","","73","","","M","29","","31","","","","101.79","","","","","","NA"
"-124.43","49.49","SISTERS ISLAND","1027403","2019-05-07 09:00","2019","05","07","09:00","12.0","","7.3","","73","","","M","29","","28","","","","101.81","","","","","","NA"
"-124.43","49.49","SISTERS ISLAND","1027403","2019-05-07 10:00","2019","05","07","10:00","12.3","","7.5","","72","","","M","29","","24","","","","101.83","","","","","","NA"
"-124.43","49.49","SISTERS ISLAND","1027403","2019-05-07 11:00","2019","05","07","11:00","12.9","","7.2","","68","","","M","29","","23","","","","101.84","","","","","","NA"
"-124.43","49.49","SISTERS ISLAND","1027403","2019-05-07 12:00","2019","05","07","12:00","13.7","","6.9","","64","","","M","29","","23","","","","101.84","","","","","","NA"
"-124.43","49.49","SISTERS ISLAND","1027403","2019-05-07 13:00","2019","05","07","13:00","14.5","","6.5","","59","","","M","29","","23","","","","101.80","","","","","","NA"
"-124.43","49.49","SISTERS ISLAND","1027403","2019-05-07 14:00","2019","05","07","14:00","15.5","","6.0","","53","","","M","28","","23","","","","101.77","","","","","","NA"
"-124.43","49.49","SISTERS ISLAND","1027403","2019-05-07 15:00","2019","05","07","15:00","16.0","","7.0","","55","","","M","26","","16","","","","101.74","","","","","","NA"
"-124.43","49.49","SISTERS ISLAND","1027403","2019-05-07 16:00","2019","05","07","16:00","17.7","","5.9","","46","","","M","27","","19","","","","101.72","","","","","","NA"
"-124.43","49.49","SISTERS ISLAND","1027403","2019-05-07 17:00","2019","05","07","17:00","17.1","","6.8","","51","","","M","28","","32","","","","101.69","","","","","","NA"
"-124.43","49.49","SISTERS ISLAND","1027403","2019-05-07 18:00","2019","05","07","18:00","16.2","","7.7","","57","","","M","29","","31","","","","101.70","","","","","","NA"
"-124.43","49.49","SISTERS ISLAND","1027403","2019-05-07 19:00","2019","05","07","19:00","15.3","","8.4","","63","","","M","30","","32","","","","101.74","","","","","","NA"
"-124.43","49.49","SISTERS ISLAND","1027403","2019-05-07 20:00","2019","05","07","20:00","14.5","","8.6","","68","","","M","30","","34","","","","101.77","","","","","","NA"
"-124.43","49.49","SISTERS ISLAND","1027403","2019-05-07 21:00","2019","05","07","21:00","14.1","","8.1","","67","","","M","31","","35","","","","101.80","","","","","","NA"
"-124.43","49.49","SISTERS ISLAND","1027403","2019-05-07 22:00","2019","05","07","22:00","13.4","","8.4","","72","","","M","31","","31","","","","101.81","","","","","","NA"
"-124.43","49.49","SISTERS ISLAND","1027403","2019-05-07 23:00","2019","05","07","23:00","12.8","","8.8","","76","","","M","29","","15","","","","101.88","","","","","","NA"
"-124.43","49.49","SISTERS ISLAND","1027403","2019-05-08 00:00","2019","05","08","00:00","12.6","","7.8","","73","","","M","32","","34","","","","101.90","","","","","","NA"
"-124.43","49.49","SISTERS ISLAND","1027403","2019-05-08 01:00","2019","05","08","01:00","12.2","","8.1","","76","","","M","30","","25","","","","101.91","","","","","","NA"
"-124.43","49.49","SISTERS ISLAND","1027403","2019-05-08 02:00","2019","05","08","02:00","12.0","","8.1","","77","","","M","30","","28","","","","101.92","","","","","","NA"
"-124.43","49.49","SISTERS ISLAND","1027403","2019-05-08 03:00","2019","05","08","03:00","11.8","","8.1","","78","","","M","30","","24","","","","101.98","","","","","","NA"
"-124.43","49.49","SISTERS ISLAND","1027403","2019-05-08 04:00","2019","05","08","04:00","11.4","","7.8","","78","","","M","30","","26","","","","101.97","","","","","","NA"
"-124.43","49.49","SISTERS ISLAND","1027403","2019-05-08 05:00","2019","05","08","05:00","11.3","","8.0","","80","","","M","29","","21","","","","102.02","","","","","","NA"
"-124.43","49.49","SISTERS ISLAND","1027403","2019-05-08 06:00","2019","05","08","06:00","11.3","","8.2","","81","","","M","29","","26","","","","102.08","","","","","","NA"
"-124.43","49.49","SISTERS ISLAND","1027403","2019-05-08 07:00","2019","05","08","07:00","12.3","","7.3","","72","","","M","29","","24","","","","102.10","","","","","","NA"
"-124.43","49.49","SISTERS ISLAND","1027403","2019-05-08 08:00","2019","05","08","08:00","12.2","","7.0","","71","","","M","30","","20","","","","102.17","","","","","","NA"
"-124.43","49.49","SISTERS ISLAND","1027403","2019-05-08 09:00","2019","05","08","09:00","12.3","","7.6","","73","","","M","29","","20","","","","102.16","","","","","","NA"
"-124.43","49.49","SISTERS ISLAND","1027403","2019-05-08 10:00","2019","05","08","10:00","12.5","","8.0","","74","","","M","31","","24","","","","102.14","","","","","","NA"
"-124.43","49.49","SISTERS ISLAND","1027403","2019-05-08 11:00","2019","05","08","11:00","12.7","","8.4","","75","","","M","30","","19","","","","102.12","","","","","","NA"
"-124.43","49.49","SISTERS ISLAND","1027403","2019-05-08 12:00","2019","05","08","12:00","13.3","","8.6","","73","","","M","30","","23","","","","102.07","","","","","","NA"
"-124.43","49.49","SISTERS ISLAND","1027403","2019-05-08 13:00","2019","05","08","13:00","13.9","","8.8","","71","","","M","30","","13","","","","102.02","","","","","","NA"
"-124.43","49.49","SISTERS ISLAND","1027403","2019-05-08 14:00","2019","05","08","14:00","14.9","","8.8","","67","","","M","30","","16","","","","101.95","","","","","","NA"
"-124.43","49.49","SISTERS ISLAND","1027403","2019-05-08 15:00","2019","05","08","15:00","15.8","","8.1","","60","","","M","33","","14","","","","101.88","","","","","","NA"
"-124.43","49.49","SISTERS ISLAND","1027403","2019-05-08 16:00","2019","05","08","16:00","15.7","","10.5","","71","","","M","32","","8","","","","101.84","","","","","","NA"
"-124.43","49.49","SISTERS ISLAND","1027403","2019-05-08 17:00","2019","05","08","17:00","16.8","","9.5","","62","","","M","26","","9","","","","101.78","","","","","","NA"
"-124.43","49.49","SISTERS ISLAND","1027403","2019-05-08 18:00","2019","05","08","18:00","18.3","","9.2","","55","","","M","27","","16","","","","101.72","","","","","","NA"
"-124.43","49.49","SISTERS ISLAND","1027403","2019-05-08 19:00","2019","05","08","19:00","18.2","","9.4","","57","","","M","32","","14","","","","101.70","","","","","","NA"
"-124.43","49.49","SISTERS ISLAND","1027403","2019-05-08 20:00","2019","05","08","20:00","17.2","","9.3","","60","","","M","31","","16","","","","101.71","","","","","","NA"
"-124.43","49.49","SISTERS ISLAND","1027403","2019-05-08 21:00","2019","05","08","21:00","16.9","","10.0","","64","","","M","30","","31","","","","101.70","","","","","","NA"
"-124.43","49.49","SISTERS ISLAND","1027403","2019-05-08 22:00","2019","05","08","22:00","14.8","","10.6","","76","","","M","30","","23","","","","101.74","","","","","","NA"
"-124.43","49.49","SISTERS ISLAND","1027403","2019-05-08 23:00","2019","05","08","23:00","14.8","","10.1","","74","","","M","31","","38","","","","101.73","","","","","","NA"
"-124.43","49.49","SISTERS ISLAND","1027403","2019-05-09 00:00","2019","05","09","00:00","14.1","","10.1","","77","","","M","30","","34","","","","101.76","","","","","","NA"
"-124.43","49.49","SISTERS ISLAND","1027403","2019-05-09 01:00","2019","05","09","01:00","13.6","","10.1","","79","","","M","29","","26","","","","101.82","","","","","","NA"
"-124.43","49.49","SISTERS ISLAND","1027403","2019-05-09 02:00","2019","05","09","02:00","13.5","","9.9","","79","","","M","31","","25","","","","101.82","","","","","","NA"
"-124.43","49.49","SISTERS ISLAND","1027403","2019-05-09 03:00","2019","05","09","03:00","13.1","","9.8","","81","","","M","29","","19","","","","101.83","","","","","","NA"
"-124.43","49.49","SISTERS ISLAND","1027403","2019-05-09 04:00","2019","05","09","04:00","13.0","","9.6","","80","","","M","29","","23","","","","101.82","","","","","","NA"
"-124.43","49.49","SISTERS ISLAND","1027403","2019-05-09 05:00","2019","05","09","05:00","13.2","","9.2","","77","","","M","29","","27","","","","101.80","","","","","","NA"
"-124.43","49.49","SISTERS ISLAND","1027403","2019-05-09 06:00","2019","05","09","06:00","13.8","","9.0","","73","","","M","29","","25","","","","101.80","","","","","","NA"
"-124.43","49.49","SISTERS ISLAND","1027403","2019-05-09 07:00","2019","05","09","07:00","13.9","","9.2","","74","","","M","31","","24","","","","101.83","","","","","","NA"
"-124.43","49.49","SISTERS ISLAND","1027403","2019-05-09 08:00","2019","05","09","08:00","13.9","","9.1","","73","","","M","31","","21","","","","101.83","","","","","","NA"
"-124.43","49.49","SISTERS ISLAND","1027403","2019-05-09 09:00","2019","05","09","09:00","13.9","","9.2","","74","","","M","31","","16","","","","101.83","","","","","","NA"
"-124.43","49.49","SISTERS ISLAND","1027403","2019-05-09 10:00","2019","05","09","10:00","14.0","","9.5","","74","","","M","32","","14","","","","101.77","","","","","","NA"
"-124.43","49.49","SISTERS ISLAND","1027403","2019-05-09 11:00","2019","05","09","11:00","15.5","","10.1","","70","","","M","33","","8","","","","101.71","","","","","","NA"
"-124.43","49.49","SISTERS ISLAND","1027403","2019-05-09 12:00","2019","05","09","12:00","15.3","","9.9","","70","","","M","36","","8","","","","101.63","","","","","","NA"
"-124.43","49.49","SISTERS ISLAND","1027403","2019-05-09 13:00","2019","05","09","13:00","17.6","","11.3","","66","","","M","34","","7","","","","101.55","","","","","","NA"
"-124.43","49.49","SISTERS ISLAND","1027403","2019-05-09 14:00","2019","05","09","14:00","18.4","","10.0","","58","","","M","34","","8","","","","101.47","","","","","","NA"
"-124.43","49.49","SISTERS ISLAND","1027403","2019-05-09 15:00","2019","05","09","15:00","19.1","","8.6","","51","","","M","33","","7","","","","101.37","","","","","","NA"
"-124.43","49.49","SISTERS ISLAND","1027403","2019-05-09 16:00","2019","05","09","16:00","19.8","","9.8","","53","","","M","30","","5","","","","101.26","","","","","","NA"
"-124.43","49.49","SISTERS ISLAND","1027403","2019-05-09 17:00","2019","05","09","17:00","21.3","","2.9","","30","","","M","31","","7","","","","101.17","","","","","","NA"
"-124.43","49.49","SISTERS ISLAND","1027403","2019-05-09 18:00","2019","05","09","18:00","20.0","","8.5","","47","","","M","34","","6","","","","101.12","","","","","","NA"
"-124.43","49.49","SISTERS ISLAND","1027403","2019-05-09 19:00","2019","05","09","19:00","21.4","","3.6","","31","","","M","6","","3","","","","101.08","","","","","","NA"
"-124.43","49.49","SISTERS ISLAND","1027403","2019-05-09 20:00","2019","05","09","20:00","21.6","","3.4","","30","","","M","7","","6","","","","101.05","","","","","","NA"
"-124.43","49.49","SISTERS ISLAND","1027403","2019-05-09 21:00","2019","05","09","21:00","22.5","","1.7","","26","","","M","4","","3","","","","101.05","","","","","","NA"
"-124.43","49.49","SISTERS ISLAND","1027403","2019-05-09 22:00","2019","05","09","22:00","20.8","","3.2","","31","","","M","13","","7","","","","101.04","","","","","","NA"
"-124.43","49.49","SISTERS ISLAND","1027403","2019-05-09 23:00","2019","05","09","23:00","19.5","","5.0","","39","","","M","12","","7","","","","101.04","","","","","","NA"
"-124.43","49.49","SISTERS ISLAND","1027403","2019-05-10 00:00","2019","05","10","00:00","16.6","","7.8","","56","","","M","20","","2","","","","101.07","","","","","","NA"
"-124.43","49.49","SISTERS ISLAND","1027403","2019-05-10 01:00","2019","05","10","01:00","16.1","","10.9","","71","","","M","18","","4","","","","101.09","","","","","","NA"
"-124.43","49.49","SISTERS ISLAND","1027403","2019-05-10 02:00","2019","05","10","02:00","16.1","","10.8","","71","","","M","30","","15","","","","101.09","","","","","","NA"
"-124.43","49.49","SISTERS ISLAND","1027403","2019-05-10 03:00","2019","05","10","03:00","16.6","","9.9","","65","","","M","30","","12","","","","101.09","","","","","","NA"
"-124.43","49.49","SISTERS ISLAND","1027403","2019-05-10 04:00","2019","05","10","04:00","15.2","","10.7","","74","","","M","32","","7","","","","101.11","","","","","","NA"
"-124.43","49.49","SISTERS ISLAND","1027403","2019-05-10 05:00","2019","05","10","05:00","14.6","","10.5","","77","","","M","30","","11","","","","101.12","","","","","","NA"
"-124.43","49.49","SISTERS ISLAND","1027403","2019-05-10 06:00","2019","05","10","06:00","16.6","","11.8","","73","","","M","35","","9","","","","101.14","","","","","","NA"
"-124.43","49.49","SISTERS ISLAND","1027403","2019-05-10 07:00","2019","05","10","07:00","19.6","","10.7","","57","","","M","35","","4","","","","101.19","","","","","","NA"
"-124.43","49.49","SISTERS ISLAND","1027403","2019-05-10 08:00","2019","05","10","08:00","19.4","","9.8","","54","","","M","35","","6","","","","101.20","","","","","","NA"
"-124.43","49.49","SISTERS ISLAND","1027403","2019-05-10 09:00","2019","05","10","09:00","17.1","","9.6","","62","","","M","34","","11","","","","101.18","","","","","","NA"
"-124.43","49.49","SISTERS ISLAND","1027403","2019-05-10 10:00","2019","05","10","10:00","16.4","","9.9","","65","","","M","34","","12","","","","101.17","","","","","","NA"
"-124.43","49.49","SISTERS ISLAND","1027403","2019-05-10 11:00","2019","05","10","11:00","17.5","","10.4","","63","","","M","36","","6","","","","101.13","","","","","","NA"
"-124.43","49.49","SISTERS ISLAND","1027403","2019-05-10 12:00","2019","05","10","12:00","18.0","","11.1","","64","","","M","31","","6","","","","101.09","","","","","","NA"
"-124.43","49.49","SISTERS ISLAND","1027403","2019-05-10 13:00","2019","05","10","13:00","20.0","","10.9","","56","","","M","32","","6","","","","101.01","","","","","","NA"
"-124.43","49.49","SISTERS ISLAND","1027403","2019-05-10 14:00","2019","05","10","14:00","18.3","","12.5","","69","","","M","2","","4","","","","100.97","","","","","","NA"
"-124.43","49.49","SISTERS ISLAND","1027403","2019-05-10 15:00","2019","05","10","15:00","20.5","","9.9","","51","","","M","33","","9","","","","100.93","","","","","","NA"
"-124.43","49.49","SISTERS ISLAND","1027403","2019-05-10 16:00","2019","05","10","16:00","22.4","","6.0","","35","","","M","35","","8","","","","100.86","","","","","","NA"
"-124.43","49.49","SISTERS ISLAND","1027403","2019-05-10 17:00","2019","05","10","17:00","21.8","","4.0","","31","","","M","2","","5","","","","100.79","","","","","","NA"
"-124.43","49.49","SISTERS ISLAND","1027403","2019-05-10 18:00","2019","05","10","18:00","21.8","","4.7","","33","","","M","4","","8","","","","100.75","","","","","","NA"
"-124.43","49.49","SISTERS ISLAND","1027403","2019-05-10 19:00","2019","05","10","19:00","22.5","","6.1","","34","","","M","6","","2","","","","100.72","","","","","","NA"
"-124.43","49.49","SISTERS ISLAND","1027403","2019-05-10 20:00","2019","05","10","20:00","19.9","","9.3","","51","","","M","15","","2","","","","100.74","","","","","","NA"
"-124.43","49.49","SISTERS ISLAND","1027403","2019-05-10 21:00","2019","05","10","21:00","18.9","","13.8","","72","","","M","16","","5","","","","100.76","","","","","","NA"
"-124.43","49.49","SISTERS ISLAND","1027403","2019-05-10 22:00","2019","05","10","22:00","19.5","","7.7","","46","","","M","12","","16","","","","100.76","","","","","","NA"
"-124.43","49.49","SISTERS ISLAND","1027403","2019-05-10 23:00","2019","05","10","23:00","17.7","","10.3","","62","","","M","36","","3","","","","100.79","","","","","","NA"
"-124.43","49.49","SISTERS ISLAND","1027403","2019-05-11 00:00","2019","05","11","00:00","16.8","","13.0","","78","","","M","30","","21","","","","100.84","","","","","","NA"
"-124.43","49.49","SISTERS ISLAND","1027403","2019-05-11 01:00","2019","05","11","01:00","16.5","","12.8","","79","","","M","32","","5","","","","100.86","","","","","","NA"
"-124.43","49.49","SISTERS ISLAND","1027403","2019-05-11 02:00","2019","05","11","02:00","16.1","","12.6","","80","","","M","23","","5","","","","100.85","","","","","","NA"
"-124.43","49.49","SISTERS ISLAND","1027403","2019-05-11 03:00","2019","05","11","03:00","15.9","","12.4","","80","","","M","19","","5","","","","100.85","","","","","","NA"
"-124.43","49.49","SISTERS ISLAND","1027403","2019-05-11 04:00","2019","05","11","04:00","15.9","","11.6","","76","","","M","18","","2","","","","100.85","","","","","","NA"
"-124.43","49.49","SISTERS ISLAND","1027403","2019-05-11 05:00","2019","05","11","05:00","16.0","","11.7","","76","","","M","27","","9","","","","100.85","","","","","","NA"
"-124.43","49.49","SISTERS ISLAND","1027403","2019-05-11 06:00","2019","05","11","06:00","18.9","","11.2","","61","","","M","28","","5","","","","100.91","","","","","","NA"
"-124.43","49.49","SISTERS ISLAND","1027403","2019-05-11 07:00","2019","05","11","07:00","17.0","","12.1","","73","","","M","33","","9","","","","100.97","","","","","","NA"
"-124.43","49.49","SISTERS ISLAND","1027403","2019-05-11 08:00","2019","05","11","08:00","16.0","","10.1","","68","","","M","31","","17","","","","101.01","","","","","","NA"
"-124.43","49.49","SISTERS ISLAND","1027403","2019-05-11 09:00","2019","05","11","09:00","15.6","","10.4","","71","","","M","30","","13","","","","101.00","","","","","","NA"
"-124.43","49.49","SISTERS ISLAND","1027403","2019-05-11 10:00","2019","05","11","10:00","16.0","","10.7","","71","","","M","33","","10","","","","100.96","","","","","","NA"
"-124.43","49.49","SISTERS ISLAND","1027403","2019-05-11 11:00","2019","05","11","11:00","16.1","","11.1","","72","","","M","32","","10","","","","100.96","","","","","","NA"
"-124.43","49.49","SISTERS ISLAND","1027403","2019-05-11 12:00","2019","05","11","12:00","16.6","","12.3","","76","","","M","33","","11","","","","100.96","","","","","","NA"
"-124.43","49.49","SISTERS ISLAND","1027403","2019-05-11 13:00","2019","05","11","13:00","17.3","","10.8","","66","","","M","32","","9","","","","100.93","","","","","","NA"
"-124.43","49.49","SISTERS ISLAND","1027403","2019-05-11 14:00","2019","05","11","14:00","16.7","","12.4","","75","","","M","31","","11","","","","100.89","","","","","","NA"
"-124.43","49.49","SISTERS ISLAND","1027403","2019-05-11 15:00","2019","05","11","15:00","17.2","","12.2","","73","","","M","30","","13","","","","100.85","","","","","","NA"
"-124.43","49.49","SISTERS ISLAND","1027403","2019-05-11 16:00","2019","05","11","16:00","16.7","","12.6","","77","","","M","31","","17","","","","100.79","","","","","","NA"
"-124.43","49.49","SISTERS ISLAND","1027403","2019-05-11 17:00","2019","05","11","17:00","16.8","","12.1","","74","","","M","31","","20","","","","100.77","","","","","","NA"
"-124.43","49.49","SISTERS ISLAND","1027403","2019-05-11 18:00","2019","05","11","18:00","16.9","","11.8","","72","","","M","30","","28","","","","100.73","","","","","","NA"
"-124.43","49.49","SISTERS ISLAND","1027403","2019-05-11 19:00","2019","05","11","19:00","16.1","","11.4","","74","","","M","30","","30","","","","100.72","","","","","","NA"
"-124.43","49.49","SISTERS ISLAND","1027403","2019-05-11 20:00","2019","05","11","20:00","15.6","","11.2","","75","","","M","30","","26","","","","100.78","","","","","","NA"
"-124.43","49.49","SISTERS ISLAND","1027403","2019-05-11 21:00","2019","05","11","21:00","15.2","","9.4","","68","","","M","32","","38","","","","100.82","","","","","","NA"
"-124.43","49.49","SISTERS ISLAND","1027403","2019-05-11 22:00","2019","05","11","22:00","14.3","","8.1","","66","","","M","32","","39","","","","100.86","","","","","","NA"
"-124.43","49.49","SISTERS ISLAND","1027403","2019-05-11 23:00","2019","05","11","23:00","13.5","","8.2","","70","","","M","31","","33","","","","100.90","","","","","","NA"
"-124.43","49.49","SISTERS ISLAND","1027403","2019-05-12 00:00","2019","05","12","00:00","12.9","","7.5","","70","","","M","30","","32","","","","100.90","","","","","","NA"
"-124.43","49.49","SISTERS ISLAND","1027403","2019-05-12 01:00","2019","05","12","01:00","12.5","","6.7","","68","","","M","31","","33","","","","100.93","","","","","","NA"
"-124.43","49.49","SISTERS ISLAND","1027403","2019-05-12 02:00","2019","05","12","02:00","12.1","","7.0","","71","","","M","32","","31","","","","100.94","","","","","","NA"
"-124.43","49.49","SISTERS ISLAND","1027403","2019-05-12 03:00","2019","05","12","03:00","11.8","","6.4","","69","","","M","31","","27","","","","101.00","","","","","","NA"
"-124.43","49.49","SISTERS ISLAND","1027403","2019-05-12 04:00","2019","05","12","04:00","11.7","","6.5","","71","","","M","32","","23","","","","101.03","","","","","","NA"
"-124.43","49.49","SISTERS ISLAND","1027403","2019-05-12 05:00","2019","05","12","05:00","11.4","","6.7","","73","","","M","32","","14","","","","101.07","","","","","","NA"
"-124.43","49.49","SISTERS ISLAND","1027403","2019-05-12 06:00","2019","05","12","06:00","15.0","","7.9","","62","","","M","29","","3","","","","101.13","","","","","","NA"
"-124.43","49.49","SISTERS ISLAND","1027403","2019-05-12 07:00","2019","05","12","07:00","13.8","","6.7","","62","","","M","32","","8","","","","101.16","","","","","","NA"
"-124.43","49.49","SISTERS ISLAND","1027403","2019-05-12 08:00","2019","05","12","08:00","13.6","","6.0","","60","","","M","34","","10","","","","101.18","","","","","","NA"
"-124.43","49.49","SISTERS ISLAND","1027403","2019-05-12 09:00","2019","05","12","09:00","13.5","","5.5","","59","","","M","31","","9","","","","101.19","","","","","","NA"
"-124.43","49.49","SISTERS ISLAND","1027403","2019-05-12 10:00","2019","05","12","10:00","14.5","","6.0","","57","","","M","33","","3","","","","101.19","","","","","","NA"
"-124.43","49.49","SISTERS ISLAND","1027403","2019-05-12 11:00","2019","05","12","11:00","15.3","","7.0","","58","","","M","31","","3","","","","101.19","","","","","","NA"
"-124.43","49.49","SISTERS ISLAND","1027403","2019-05-12 12:00","2019","05","12","12:00","13.1","","7.3","","68","","","M","14","","11","","","","101.16","","","","","","NA"
"-124.43","49.49","SISTERS ISLAND","1027403","2019-05-12 13:00","2019","05","12","13:00","13.0","","9.5","","79","","","M","12","","28","","","","101.12","","","","","","NA"
"-124.43","49.49","SISTERS ISLAND","1027403","2019-05-12 14:00","2019","05","12","14:00","13.5","","8.7","","72","","","M","11","","38","","","","101.04","","","","","","NA"
"-124.43","49.49","SISTERS ISLAND","1027403","2019-05-12 15:00","2019","05","12","15:00","13.7","","9.3","","75","","","M","12","","32","","","","101.00","","","","","","NA"
"-124.43","49.49","SISTERS ISLAND","1027403","2019-05-12 16:00","2019","05","12","16:00","13.8","","9.2","","74","","","M","12","","35","","","","100.96","","","","","","NA"
"-124.43","49.49","SISTERS ISLAND","1027403","2019-05-12 17:00","2019","05","12","17:00","14.4","","9.6","","73","","","M","11","","36","","","","100.93","","","","","","NA"
"-124.43","49.49","SISTERS ISLAND","1027403","2019-05-12 18:00","2019","05","12","18:00","14.6","","9.8","","73","","","M","11","","32","","","","100.90","","","","","","NA"
"-124.43","49.49","SISTERS ISLAND","1027403","2019-05-12 19:00","2019","05","12","19:00","13.6","","10.2","","80","","","M","13","","33","","","","100.91","","","","","","NA"
"-124.43","49.49","SISTERS ISLAND","1027403","2019-05-12 20:00","2019","05","12","20:00","13.3","","11.1","","86","","","M","11","","24","","","","100.95","","","","","","NA"
"-124.43","49.49","SISTERS ISLAND","1027403","2019-05-12 21:00","2019","05","12","21:00","13.5","","10.5","","82","","","M","12","","21","","","","101.02","","","","","","NA"
"-124.43","49.49","SISTERS ISLAND","1027403","2019-05-12 22:00","2019","05","12","22:00","13.6","","10.2","","80","","","M","12","","19","","","","101.05","","","","","","NA"
"-124.43","49.49","SISTERS ISLAND","1027403","2019-05-12 23:00","2019","05","12","23:00","13.3","","10.6","","84","","","M","11","","18","","","","101.05","","","","","","NA"
"-124.43","49.49","SISTERS ISLAND","1027403","2019-05-13 00:00","2019","05","13","00:00","13.1","","10.8","","86","","","M","14","","13","","","","101.08","","","","","","NA"
"-124.43","49.49","SISTERS ISLAND","1027403","2019-05-13 01:00","2019","05","13","01:00","13.1","","10.8","","86","","","M","14","","13","","","","101.09","","","","","","NA"
"-124.43","49.49","SISTERS ISLAND","1027403","2019-05-13 02:00","2019","05","13","02:00","12.9","","10.8","","87","","","M","14","","10","","","","101.10","","","","","","NA"
"-124.43","49.49","SISTERS ISLAND","1027403","2019-05-13 03:00","2019","05","13","03:00","12.4","","10.6","","89","","","M","15","","4","","","","101.10","","","","","","NA"
"-124.43","49.49","SISTERS ISLAND","1027403","2019-05-13 04:00","2019","05","13","04:00","12.4","","10.8","","90","","","M","22","","5","","","","101.13","","","","","","NA"
"-124.43","49.49","SISTERS ISLAND","1027403","2019-05-13 05:00","2019","05","13","05:00","12.2","","10.9","","92","","","M","22","","8","","","","101.15","","","","","","NA"
"-124.43","49.49","SISTERS ISLAND","1027403","2019-05-13 06:00","2019","05","13","06:00","12.4","","10.1","","86","","","M","19","","13","","","","101.18","","","","","","NA"
"-124.43","49.49","SISTERS ISLAND","1027403","2019-05-13 07:00","2019","05","13","07:00","12.6","","10.0","","85","","","M","19","","9","","","","101.21","","","","","","NA"
"-124.43","49.49","SISTERS ISLAND","1027403","2019-05-13 08:00","2019","05","13","08:00","12.9","","9.9","","82","","","M","18","","7","","","","101.22","","","","","","NA"
"-124.43","49.49","SISTERS ISLAND","1027403","2019-05-13 09:00","2019","05","13","09:00","13.0","","9.5","","80","","","M","18","","7","","","","101.22","","","","","","NA"
"-124.43","49.49","SISTERS ISLAND","1027403","2019-05-13 10:00","2019","05","13","10:00","12.6","","9.6","","82","","","M","12","","15","","","","101.22","","","","","","NA"
"-124.43","49.49","SISTERS ISLAND","1027403","2019-05-13 11:00","2019","05","13","11:00","12.5","","9.4","","81","","","M","13","","26","","","","101.19","","","","","","NA"
"-124.43","49.49","SISTERS ISLAND","1027403","2019-05-13 12:00","2019","05","13","12:00","12.8","","10.1","","84","","","M","11","","23","","","","101.18","","","","","","NA"
"-124.43","49.49","SISTERS ISLAND","1027403","2019-05-13 13:00","2019","05","13","13:00","13.2","","9.2","","77","","","M","12","","25","","","","101.18","","","","","","NA"
"-124.43","49.49","SISTERS ISLAND","1027403","2019-05-13 14:00","2019","05","13","14:00","13.8","","8.6","","71","","","M","12","","24","","","","101.15","","","","","","NA"
"-124.43","49.49","SISTERS ISLAND","1027403","2019-05-13 15:00","2019","05","13","15:00","14.2","","8.0","","66","","","M","11","","28","","","","101.09","","","","","","NA"
"-124.43","49.49","SISTERS ISLAND","1027403","2019-05-13 16:00","2019","05","13","16:00","14.8","","7.5","","62","","","M","10","","26","","","","101.07","","","","","","NA"
"-124.43","49.49","SISTERS ISLAND","1027403","2019-05-13 17:00","2019","05","13","17:00","14.0","","8.7","","70","","","M","12","","27","","","","101.01","","","","","","NA"
"-124.43","49.49","SISTERS ISLAND","1027403","2019-05-13 18:00","2019","05","13","18:00","14.9","","7.8","","62","","","M","11","","20","","","","100.96","","","","","","NA"
"-124.43","49.49","SISTERS ISLAND","1027403","2019-05-13 19:00","2019","05","13","19:00","13.2","","9.8","","80","","","M","14","","21","","","","100.95","","","","","","NA"
"-124.43","49.49","SISTERS ISLAND","1027403","2019-05-13 20:00","2019","05","13","20:00","13.1","","9.7","","80","","","M","14","","23","","","","100.94","","","","","","NA"
"-124.43","49.49","SISTERS ISLAND","1027403","2019-05-13 21:00","2019","05","13","21:00","13.1","","9.7","","80","","","M","13","","19","","","","100.95","","","","","","NA"
"-124.43","49.49","SISTERS ISLAND","1027403","2019-05-13 22:00","2019","05","13","22:00","13.1","","10.4","","84","","","M","13","","18","","","","100.96","","","","","","NA"
"-124.43","49.49","SISTERS ISLAND","1027403","2019-05-13 23:00","2019","05","13","23:00","13.1","","10.0","","82","","","M","10","","18","","","","100.93","","","","","","NA"
"-124.43","49.49","SISTERS ISLAND","1027403","2019-05-14 00:00","2019","05","14","00:00","13.0","","10.4","","84","","","M","13","","17","","","","100.91","","","","","","NA"
"-124.43","49.49","SISTERS ISLAND","1027403","2019-05-14 01:00","2019","05","14","01:00","13.3","","8.1","","71","","","M","11","","8","","","","100.91","","","","","","NA"
"-124.43","49.49","SISTERS ISLAND","1027403","2019-05-14 02:00","2019","05","14","02:00","13.2","","8.5","","73","","","M","8","","16","","","","100.82","","","","","","NA"
"-124.43","49.49","SISTERS ISLAND","1027403","2019-05-14 03:00","2019","05","14","03:00","12.9","","10.1","","83","","","M","12","","18","","","","100.81","","","","","","NA"
"-124.43","49.49","SISTERS ISLAND","1027403","2019-05-14 04:00","2019","05","14","04:00","12.6","","10.0","","84","","","M","13","","22","","","","100.84","","","","","","NA"
"-124.43","49.49","SISTERS ISLAND","1027403","2019-05-14 05:00","2019","05","14","05:00","12.6","","10.4","","87","","","M","11","","21","","","","100.82","","","","","","NA"
"-124.43","49.49","SISTERS ISLAND","1027403","2019-05-14 06:00","2019","05","14","06:00","12.2","","10.4","","89","","","M","13","","26","","","","100.84","","","","","","NA"
"-124.43","49.49","SISTERS ISLAND","1027403","2019-05-14 07:00","2019","05","14","07:00","10.3","","6.5","","77","","","M","23","","29","","","","100.87","","","","","","NA"
"-124.43","49.49","SISTERS ISLAND","1027403","2019-05-14 08:00","2019","05","14","08:00","10.3","","7.4","","82","","","M","23","","19","","","","100.94","","","","","","NA"
"-124.43","49.49","SISTERS ISLAND","1027403","2019-05-14 09:00","2019","05","14","09:00","10.2","","7.7","","85","","","M","23","","2","","","","100.97","","","","","","NA"
"-124.43","49.49","SISTERS ISLAND","1027403","2019-05-14 10:00","2019","05","14","10:00","10.5","","8.9","","90","","","M","6","","13","","","","100.94","","","","","","NA"
"-124.43","49.49","SISTERS ISLAND","1027403","2019-05-14 11:00","2019","05","14","11:00","11.2","","9.5","","89","","","M","10","","14","","","","100.93","","","","","","NA"
"-124.43","49.49","SISTERS ISLAND","1027403","2019-05-14 12:00","2019","05","14","12:00","11.4","","9.4","","88","","","M","10","","38","","","","100.89","","","","","","NA"
"-124.43","49.49","SISTERS ISLAND","1027403","2019-05-14 13:00","2019","05","14","13:00","11.7","","9.6","","87","","","M","11","","45","","","","100.89","","","","","","NA"
"-124.43","49.49","SISTERS ISLAND","1027403","2019-05-14 14:00","2019","05","14","14:00","11.7","","9.7","","88","","","M","10","","43","","","","100.92","","","","","","NA"
"-124.43","49.49","SISTERS ISLAND","1027403","2019-05-14 15:00","2019","05","14","15:00","12.0","","10.0","","88","","","M","10","","45","","","","100.88","","","","","","NA"
"-124.43","49.49","SISTERS ISLAND","1027403","2019-05-14 16:00","2019","05","14","16:00","12.4","","10.3","","87","","","M","11","","49","","","","100.88","","","","","","NA"
"-124.43","49.49","SISTERS ISLAND","1027403","2019-05-14 17:00","2019","05","14","17:00","13.0","","10.6","","86","","","M","11","","43","","","","100.92","","","","","","NA"
"-124.43","49.49","SISTERS ISLAND","1027403","2019-05-14 18:00","2019","05","14","18:00","13.1","","10.8","","86","","","M","11","","38","","","","100.98","","","","","","NA"
"-124.43","49.49","SISTERS ISLAND","1027403","2019-05-14 19:00","2019","05","14","19:00","13.3","","10.9","","86","","","M","11","","33","","","","101.03","","","","","","NA"
"-124.43","49.49","SISTERS ISLAND","1027403","2019-05-14 20:00","2019","05","14","20:00","13.2","","11.0","","86","","","M","11","","34","","","","101.08","","","","","","NA"
"-124.43","49.49","SISTERS ISLAND","1027403","2019-05-14 21:00","2019","05","14","21:00","12.9","","11.0","","88","","","M","10","","25","","","","101.14","","","","","","NA"
"-124.43","49.49","SISTERS ISLAND","1027403","2019-05-14 22:00","2019","05","14","22:00","12.7","","11.3","","91","","","M","12","","21","","","","101.18","","","","","","NA"
"-124.43","49.49","SISTERS ISLAND","1027403","2019-05-14 23:00","2019","05","14","23:00","12.6","","10.7","","89","","","M","8","","14","","","","101.18","","","","","","NA"
"-124.43","49.49","SISTERS ISLAND","1027403","2019-05-15 00:00","2019","05","15","00:00","12.4","","10.8","","90","","","M","11","","12","","","","101.20","","","","","","NA"
"-124.43","49.49","SISTERS ISLAND","1027403","2019-05-15 01:00","2019","05","15","01:00","12.1","","10.5","","90","","","M","15","","3","","","","101.21","","","","","","NA"
"-124.43","49.49","SISTERS ISLAND","1027403","2019-05-15 02:00","2019","05","15","02:00","11.8","","7.6","","75","","","M","25","","15","","","","101.21","","","","","","NA"
"-124.43","49.49","SISTERS ISLAND","1027403","2019-05-15 03:00","2019","05","15","03:00","12.0","","7.8","","76","","","M","23","","12","","","","101.21","","","","","","NA"
"-124.43","49.49","SISTERS ISLAND","1027403","2019-05-15 04:00","2019","05","15","04:00","11.7","","8.6","","81","","","M","21","","6","","","","101.19","","","","","","NA"
"-124.43","49.49","SISTERS ISLAND","1027403","2019-05-15 05:00","2019","05","15","05:00","11.1","","9.2","","88","","","M","15","","6","","","","101.16","","","","","","NA"
"-124.43","49.49","SISTERS ISLAND","1027403","2019-05-15 06:00","2019","05","15","06:00","11.4","","9.0","","85","","","M","","","0","","","","101.15","","","","","","NA"
"-124.43","49.49","SISTERS ISLAND","1027403","2019-05-15 07:00","2019","05","15","07:00","11.8","","8.9","","82","","","M","31","","4","","","","101.09","","","","","","NA"
"-124.43","49.49","SISTERS ISLAND","1027403","2019-05-15 08:00","2019","05","15","08:00","11.9","","9.4","","85","","","M","1","","8","","","","101.03","","","","","","NA"
"-124.43","49.49","SISTERS ISLAND","1027403","2019-05-15 09:00","2019","05","15","09:00","14.0","","10.2","","78","","","M","34","","3","","","","100.97","","","","","","NA"
"-124.43","49.49","SISTERS ISLAND","1027403","2019-05-15 10:00","2019","05","15","10:00","13.5","","9.4","","76","","","M","33","","10","","","","100.88","","","","","","NA"
"-124.43","49.49","SISTERS ISLAND","1027403","2019-05-15 11:00","2019","05","15","11:00","13.3","","9.3","","77","","","M","33","","13","","","","100.78","","","","","","NA"
"-124.43","49.49","SISTERS ISLAND","1027403","2019-05-15 12:00","2019","05","15","12:00","13.5","","9.0","","74","","","M","33","","13","","","","100.69","","","","","","NA"
"-124.43","49.49","SISTERS ISLAND","1027403","2019-05-15 13:00","2019","05","15","13:00","14.6","","9.8","","73","","","M","34","","12","","","","100.59","","","","","","NA"
"-124.43","49.49","SISTERS ISLAND","1027403","2019-05-15 14:00","2019","05","15","14:00","14.5","","9.2","","70","","","M","35","","19","","","","100.45","","","","","","NA"
"-124.43","49.49","SISTERS ISLAND","1027403","2019-05-15 15:00","2019","05","15","15:00","14.9","","9.4","","70","","","M","35","","18","","","","100.36","","","","","","NA"
"-124.43","49.49","SISTERS ISLAND","1027403","2019-05-15 16:00","2019","05","15","16:00","14.8","","8.4","","65","","","M","31","","22","","","","100.21","","","","","","NA"
"-124.43","49.49","SISTERS ISLAND","1027403","2019-05-15 17:00","2019","05","15","17:00","14.9","","8.8","","67","","","M","31","","23","","","","100.13","","","","","","NA"
"-124.43","49.49","SISTERS ISLAND","1027403","2019-05-15 18:00","2019","05","15","18:00","14.5","","9.3","","71","","","M","29","","16","","","","100.05","","","","","","NA"
"-124.43","49.49","SISTERS ISLAND","1027403","2019-05-15 19:00","2019","05","15","19:00","14.6","","9.3","","70","","","M","28","","7","","","","100.00","","","","","","NA"
"-124.43","49.49","SISTERS ISLAND","1027403","2019-05-15 20:00","2019","05","15","20:00","14.8","","9.6","","71","","","M","20","","14","","","","100.00","","","","","","NA"
"-124.43","49.49","SISTERS ISLAND","1027403","2019-05-15 21:00","2019","05","15","21:00","14.6","","9.7","","72","","","M","13","","20","","","","100.10","","","","","","NA"
"-124.43","49.49","SISTERS ISLAND","1027403","2019-05-15 22:00","2019","05","15","22:00","14.4","","9.8","","74","","","M","9","","16","","","","100.10","","","","","","NA"
"-124.43","49.49","SISTERS ISLAND","1027403","2019-05-15 23:00","2019","05","15","23:00","12.9","","10.9","","88","","","M","8","","14","","","","100.09","","","","","","NA"
"-124.43","49.49","SISTERS ISLAND","1027403","2019-05-16 00:00","2019","05","16","00:00","13.1","","11.5","","90","","","M","12","","7","","","","100.05","","","","","","NA"
"-124.43","49.49","SISTERS ISLAND","1027403","2019-05-16 01:00","2019","05","16","01:00","13.1","","11.4","","90","","","M","15","","14","","","","100.01","","","","","","NA"
"-124.43","49.49","SISTERS ISLAND","1027403","2019-05-16 02:00","2019","05","16","02:00","12.7","","11.3","","91","","","M","15","","15","","","","99.99","","","","","","NA"
"-124.43","49.49","SISTERS ISLAND","1027403","2019-05-16 03:00","2019","05","16","03:00","12.8","","11.6","","93","","","M","11","","9","","","","99.96","","","","","","NA"
"-124.43","49.49","SISTERS ISLAND","1027403","2019-05-16 04:00","2019","05","16","04:00","12.5","","11.5","","94","","","M","34","","11","","","","99.91","","","","","","NA"
"-124.43","49.49","SISTERS ISLAND","1027403","2019-05-16 05:00","2019","05","16","05:00","12.8","","11.7","","93","","","M","31","","8","","","","99.90","","","","","","NA"
"-124.43","49.49","SISTERS ISLAND","1027403","2019-05-16 06:00","2019","05","16","06:00","12.8","","11.7","","93","","","M","31","","12","","","","99.90","","","","","","NA"
"-124.43","49.49","SISTERS ISLAND","1027403","2019-05-16 07:00","2019","05","16","07:00","13.6","","12.2","","91","","","M","33","","9","","","","99.90","","","","","","NA"
"-124.43","49.49","SISTERS ISLAND","1027403","2019-05-16 08:00","2019","05","16","08:00","13.7","","11.6","","87","","","M","30","","9","","","","99.92","","","","","","NA"
"-124.43","49.49","SISTERS ISLAND","1027403","2019-05-16 09:00","2019","05","16","09:00","13.6","","11.7","","88","","","M","30","","11","","","","99.91","","","","","","NA"
"-124.43","49.49","SISTERS ISLAND","1027403","2019-05-16 10:00","2019","05","16","10:00","13.7","","11.9","","89","","","M","31","","12","","","","99.90","","","","","","NA"
"-124.43","49.49","SISTERS ISLAND","1027403","2019-05-16 11:00","2019","05","16","11:00","13.8","","12.0","","89","","","M","30","","9","","","","99.92","","","","","","NA"
"-124.43","49.49","SISTERS ISLAND","1027403","2019-05-16 12:00","2019","05","16","12:00","14.6","","12.1","","85","","","M","33","","8","","","","99.91","","","","","","NA"
"-124.43","49.49","SISTERS ISLAND","1027403","2019-05-16 13:00","2019","05","16","13:00","14.4","","11.9","","85","","","M","31","","12","","","","99.87","","","","","","NA"
"-124.43","49.49","SISTERS ISLAND","1027403","2019-05-16 14:00","2019","05","16","14:00","14.3","","12.2","","87","","","M","32","","14","","","","99.83","","","","","","NA"
"-124.43","49.49","SISTERS ISLAND","1027403","2019-05-16 15:00","2019","05","16","15:00","14.4","","12.4","","88","","","M","32","","10","","","","99.83","","","","","","NA"
"-124.43","49.49","SISTERS ISLAND","1027403","2019-05-16 16:00","2019","05","16","16:00","15.2","","13.1","","88","","","M","34","","9","","","","99.82","","","","","","NA"
"-124.43","49.49","SISTERS ISLAND","1027403","2019-05-16 17:00","2019","05","16","17:00","14.9","","12.7","","87","","","M","33","","6","","","","99.81","","","","","","NA"
"-124.43","49.49","SISTERS ISLAND","1027403","2019-05-16 18:00","2019","05","16","18:00","15.5","","11.8","","78","","","M","25","","7","","","","99.83","","","","","","NA"
"-124.43","49.49","SISTERS ISLAND","1027403","2019-05-16 19:00","2019","05","16","19:00","15.7","","11.7","","77","","","M","23","","28","","","","99.81","","","","","","NA"
"-124.43","49.49","SISTERS ISLAND","1027403","2019-05-16 20:00","2019","05","16","20:00","15.2","","11.5","","78","","","M","23","","27","","","","99.83","","","","","","NA"
"-124.43","49.49","SISTERS ISLAND","1027403","2019-05-16 21:00","2019","05","16","21:00","15.1","","10.4","","74","","","M","24","","37","","","","99.85","","","","","","NA"
"-124.43","49.49","SISTERS ISLAND","1027403","2019-05-16 22:00","2019","05","16","22:00","14.9","","9.8","","71","","","M","23","","39","","","","99.87","","","","","","NA"
"-124.43","49.49","SISTERS ISLAND","1027403","2019-05-16 23:00","2019","05","16","23:00","14.4","","9.8","","73","","","M","24","","37","","","","99.90","","","","","","NA"
"-124.43","49.49","SISTERS ISLAND","1027403","2019-05-17 00:00","2019","05","17","00:00","13.9","","9.6","","76","","","M","24","","42","","","","99.90","","","","","","NA"
"-124.43","49.49","SISTERS ISLAND","1027403","2019-05-17 01:00","2019","05","17","01:00","13.4","","9.5","","77","","","M","24","","49","","","","99.87","","","","","","NA"
"-124.43","49.49","SISTERS ISLAND","1027403","2019-05-17 02:00","2019","05","17","02:00","13.3","","8.9","","75","","","M","24","","42","","","","99.96","","","","","","NA"
"-124.43","49.49","SISTERS ISLAND","1027403","2019-05-17 03:00","2019","05","17","03:00","13.0","","8.4","","74","","","M","24","","42","","","","100.00","","","","","","NA"
"-124.43","49.49","SISTERS ISLAND","1027403","2019-05-17 04:00","2019","05","17","04:00","12.8","","7.9","","72","","","M","25","","43","","","","100.08","","","","","","NA"
"-124.43","49.49","SISTERS ISLAND","1027403","2019-05-17 05:00","2019","05","17","05:00","12.4","","7.4","","72","","","M","25","","45","","","","100.14","","","","","","NA"
"-124.43","49.49","SISTERS ISLAND","1027403","2019-05-17 06:00","2019","05","17","06:00","12.2","","7.4","","73","","","M","24","","42","","","","100.23","","","","","","NA"
"-124.43","49.49","SISTERS ISLAND","1027403","2019-05-17 07:00","2019","05","17","07:00","12.1","","7.4","","73","","","M","24","","44","","","","100.26","","","","","","NA"
"-124.43","49.49","SISTERS ISLAND","1027403","2019-05-17 08:00","2019","05","17","08:00","12.1","","6.7","","70","","","M","24","","46","","","","100.34","","","","","","NA"
"-124.43","49.49","SISTERS ISLAND","1027403","2019-05-17 09:00","2019","05","17","09:00","12.3","","6.6","","68","","","M","24","","46","","","","100.45","","","","","","NA"
"-124.43","49.49","SISTERS ISLAND","1027403","2019-05-17 10:00","2019","05","17","10:00","12.6","","5.2","","61","","","M","24","","53","","","","100.49","","","","","","NA"
"-124.43","49.49","SISTERS ISLAND","1027403","2019-05-17 11:00","2019","05","17","11:00","12.8","","4.8","","58","","","M","23","","46","","","","100.61","","","","","","NA"
"-124.43","49.49","SISTERS ISLAND","1027403","2019-05-17 12:00","2019","05","17","12:00","13.1","","3.9","","54","","","M","23","","46","","","","100.68","","","","","","NA"
"-124.43","49.49","SISTERS ISLAND","1027403","2019-05-17 13:00","2019","05","17","13:00","13.7","","3.9","","52","","","M","24","","26","","","","100.81","","","","","","NA"
"-124.43","49.49","SISTERS ISLAND","1027403","2019-05-17 14:00","2019","05","17","14:00","14.8","","3.4","","47","","","M","20","","14","","","","100.88","","","","","","NA"
"-124.43","49.49","SISTERS ISLAND","1027403","2019-05-17 15:00","2019","05","17","15:00","15.1","","3.1","","45","","","M","12","","5","","","","100.91","","","","","","NA"
"-124.43","49.49","SISTERS ISLAND","1027403","2019-05-17 16:00","2019","05","17","16:00","15.0","","3.0","","44","","","M","11","","9","","","","100.94","","","","","","NA"
"-124.43","49.49","SISTERS ISLAND","1027403","2019-05-17 17:00","2019","05","17","17:00","14.7","","5.0","","52","","","M","13","","14","","","","100.98","","","","","","NA"
"-124.43","49.49","SISTERS ISLAND","1027403","2019-05-17 18:00","2019","05","17","18:00","14.0","","8.4","","69","","","M","17","","7","","","","101.00","","","","","","NA"
"-124.43","49.49","SISTERS ISLAND","1027403","2019-05-17 19:00","2019","05","17","19:00","13.4","","6.6","","64","","","M","24","","11","","","","101.01","","","","","","NA"
"-124.43","49.49","SISTERS ISLAND","1027403","2019-05-17 20:00","2019","05","17","20:00","13.3","","7.0","","65","","","M","26","","4","","","","101.01","","","","","","NA"
"-124.43","49.49","SISTERS ISLAND","1027403","2019-05-17 21:00","2019","05","17","21:00","13.2","","6.5","","64","","","M","14","","2","","","","101.01","","","","","","NA"
"-124.43","49.49","SISTERS ISLAND","1027403","2019-05-17 22:00","2019","05","17","22:00","13.8","","7.4","","65","","","M","14","","20","","","","100.99","","","","","","NA"
"-124.43","49.49","SISTERS ISLAND","1027403","2019-05-17 23:00","2019","05","17","23:00","13.3","","8.7","","73","","","M","10","","23","","","","100.96","","","","","","NA"
"-124.43","49.49","SISTERS ISLAND","1027403","2019-05-18 00:00","2019","05","18","00:00","13.3","","9.1","","76","","","M","11","","34","","","","100.94","","","","","","NA"
"-124.43","49.49","SISTERS ISLAND","1027403","2019-05-18 01:00","2019","05","18","01:00","13.0","","8.7","","75","","","M","11","","34","","","","100.93","","","","","","NA"
"-124.43","49.49","SISTERS ISLAND","1027403","2019-05-18 02:00","2019","05","18","02:00","13.0","","8.4","","74","","","M","12","","32","","","","100.94","","","","","","NA"
"-124.43","49.49","SISTERS ISLAND","1027403","2019-05-18 03:00","2019","05","18","03:00","13.0","","9.1","","77","","","M","13","","28","","","","100.92","","","","","","NA"
"-124.43","49.49","SISTERS ISLAND","1027403","2019-05-18 04:00","2019","05","18","04:00","12.7","","9.2","","79","","","M","14","","27","","","","100.89","","","","","","NA"
"-124.43","49.49","SISTERS ISLAND","1027403","2019-05-18 05:00","2019","05","18","05:00","13.0","","8.1","","72","","","M","12","","41","","","","100.82","","","","","","NA"
"-124.43","49.49","SISTERS ISLAND","1027403","2019-05-18 06:00","2019","05","18","06:00","13.0","","8.3","","73","","","M","12","","40","","","","100.82","","","","","","NA"
"-124.43","49.49","SISTERS ISLAND","1027403","2019-05-18 07:00","2019","05","18","07:00","12.8","","8.3","","74","","","M","13","","33","","","","100.84","","","","","","NA"
"-124.43","49.49","SISTERS ISLAND","1027403","2019-05-18 08:00","2019","05","18","08:00","12.7","","8.2","","74","","","M","12","","37","","","","100.79","","","","","","NA"
"-124.43","49.49","SISTERS ISLAND","1027403","2019-05-18 09:00","2019","05","18","09:00","12.8","","8.8","","76","","","M","13","","33","","","","100.79","","","","","","NA"
"-124.43","49.49","SISTERS ISLAND","1027403","2019-05-18 10:00","2019","05","18","10:00","12.6","","8.3","","75","","","M","12","","35","","","","100.74","","","","","","NA"
"-124.43","49.49","SISTERS ISLAND","1027403","2019-05-18 11:00","2019","05","18","11:00","13.1","","7.6","","69","","","M","11","","28","","","","100.70","","","","","","NA"
"-124.43","49.49","SISTERS ISLAND","1027403","2019-05-18 12:00","2019","05","18","12:00","13.8","","6.6","","62","","","M","11","","27","","","","100.65","","","","","","NA"
"-124.43","49.49","SISTERS ISLAND","1027403","2019-05-18 13:00","2019","05","18","13:00","14.4","","7.3","","62","","","M","11","","18","","","","100.61","","","","","","NA"
"-124.43","49.49","SISTERS ISLAND","1027403","2019-05-18 14:00","2019","05","18","14:00","15.4","","5.4","","51","","","M","10","","15","","","","100.57","","","","","","NA"
"-124.43","49.49","SISTERS ISLAND","1027403","2019-05-18 15:00","2019","05","18","15:00","16.3","","4.7","","46","","","M","10","","16","","","","100.48","","","","","","NA"
"-124.43","49.49","SISTERS ISLAND","1027403","2019-05-18 16:00","2019","05","18","16:00","16.8","","3.6","","41","","","M","11","","14","","","","100.41","","","","","","NA"
"-124.43","49.49","SISTERS ISLAND","1027403","2019-05-18 17:00","2019","05","18","17:00","16.2","","5.1","","48","","","M","36","","19","","","","100.34","","","","","","NA"
"-124.43","49.49","SISTERS ISLAND","1027403","2019-05-18 18:00","2019","05","18","18:00","15.8","","6.7","","55","","","M","32","","18","","","","100.32","","","","","","NA"
"-124.43","49.49","SISTERS ISLAND","1027403","2019-05-18 19:00","2019","05","18","19:00","14.2","","9.3","","72","","","M","31","","20","","","","100.29","","","","","","NA"
"-124.43","49.49","SISTERS ISLAND","1027403","2019-05-18 20:00","2019","05","18","20:00","14.8","","8.7","","67","","","M","31","","23","","","","100.23","","","","","","NA"
"-124.43","49.49","SISTERS ISLAND","1027403","2019-05-18 21:00","2019","05","18","21:00","14.8","","8.2","","65","","","M","28","","20","","","","100.26","","","","","","NA"
"-124.43","49.49","SISTERS ISLAND","1027403","2019-05-18 22:00","2019","05","18","22:00","13.8","","9.0","","73","","","M","27","","24","","","","100.24","","","","","","NA"
"-124.43","49.49","SISTERS ISLAND","1027403","2019-05-18 23:00","2019","05","18","23:00","13.4","","9.3","","76","","","M","27","","13","","","","100.27","","","","","","NA"
"-124.43","49.49","SISTERS ISLAND","1027403","2019-05-19 00:00","2019","05","19","00:00","13.2","","9.2","","77","","","M","27","","12","","","","100.29","","","","","","NA"
"-124.43","49.49","SISTERS ISLAND","1027403","2019-05-19 01:00","2019","05","19","01:00","12.9","","9.9","","82","","","M","30","","11","","","","100.26","","","","","","NA"
"-124.43","49.49","SISTERS ISLAND","1027403","2019-05-19 02:00","2019","05","19","02:00","13.0","","9.2","","78","","","M","31","","9","","","","100.29","","","","","","NA"
"-124.43","49.49","SISTERS ISLAND","1027403","2019-05-19 03:00","2019","05","19","03:00","12.7","","8.6","","76","","","M","28","","16","","","","100.33","","","","","","NA"
"-124.43","49.49","SISTERS ISLAND","1027403","2019-05-19 04:00","2019","05","19","04:00","12.5","","8.5","","77","","","M","28","","14","","","","100.36","","","","","","NA"
"-124.43","49.49","SISTERS ISLAND","1027403","2019-05-19 05:00","2019","05","19","05:00","12.9","","7.5","","70","","","M","31","","18","","","","100.38","","","","","","NA"
"-124.43","49.49","SISTERS ISLAND","1027403","2019-05-19 06:00","2019","05","19","06:00","13.5","","7.8","","68","","","M","31","","16","","","","100.40","","","","","","NA"
"-124.43","49.49","SISTERS ISLAND","1027403","2019-05-19 07:00","2019","05","19","07:00","13.6","","8.8","","73","","","M","30","","9","","","","100.47","","","","","","NA"
"-124.43","49.49","SISTERS ISLAND","1027403","2019-05-19 08:00","2019","05","19","08:00","14.1","","8.6","","69","","","M","27","","10","","","","100.47","","","","","","NA"
"-124.43","49.49","SISTERS ISLAND","1027403","2019-05-19 09:00","2019","05","19","09:00","14.0","","7.9","","66","","","M","31","","11","","","","100.48","","","","","","NA"
"-124.43","49.49","SISTERS ISLAND","1027403","2019-05-19 10:00","2019","05","19","10:00","15.5","","9.5","","67","","","M","35","","9","","","","100.47","","","","","","NA"
"-124.43","49.49","SISTERS ISLAND","1027403","2019-05-19 11:00","2019","05","19","11:00","15.6","","9.1","","65","","","M","36","","9","","","","100.46","","","","","","NA"
"-124.43","49.49","SISTERS ISLAND","1027403","2019-05-19 12:00","2019","05","19","12:00","16.7","","9.9","","64","","","M","34","","5","","","","100.44","","","","","","NA"
"-124.43","49.49","SISTERS ISLAND","1027403","2019-05-19 13:00","2019","05","19","13:00","17.7","","9.4","","58","","","M","36","","7","","","","100.39","","","","","","NA"
"-124.43","49.49","SISTERS ISLAND","1027403","2019-05-19 14:00","2019","05","19","14:00","18.8","","9.6","","55","","","M","32","","3","","","","100.35","","","","","","NA"
"-124.43","49.49","SISTERS ISLAND","1027403","2019-05-19 15:00","2019","05","19","15:00","18.5","","8.4","","52","","","M","31","","5","","","","100.33","","","","","","NA"
"-124.43","49.49","SISTERS ISLAND","1027403","2019-05-19 16:00","2019","05","19","16:00","16.6","","9.9","","65","","","M","4","","5","","","","100.29","","","","","","NA"
"-124.43","49.49","SISTERS ISLAND","1027403","2019-05-19 17:00","2019","05","19","17:00","20.2","","5.2","","38","","","M","0","","1","","","","100.27","","","","","","NA"
"-124.43","49.49","SISTERS ISLAND","1027403","2019-05-19 18:00","2019","05","19","18:00","19.8","","7.3","","44","","","M","23","","7","","","","100.28","","","","","","NA"
"-124.43","49.49","SISTERS ISLAND","1027403","2019-05-19 19:00","2019","05","19","19:00","18.3","","9.5","","57","","","M","23","","28","","","","100.22","","","","","","NA"
"-124.43","49.49","SISTERS ISLAND","1027403","2019-05-19 20:00","2019","05","19","20:00","17.5","","9.6","","60","","","M","23","","34","","","","100.23","","","","","","NA"
"-124.43","49.49","SISTERS ISLAND","1027403","2019-05-19 21:00","2019","05","19","21:00","17.1","","9.4","","60","","","M","23","","34","","","","100.24","","","","","","NA"
"-124.43","49.49","SISTERS ISLAND","1027403","2019-05-19 22:00","2019","05","19","22:00","16.5","","9.4","","63","","","M","23","","36","","","","100.25","","","","","","NA"
"-124.43","49.49","SISTERS ISLAND","1027403","2019-05-19 23:00","2019","05","19","23:00","16.3","","9.0","","62","","","M","24","","39","","","","100.20","","","","","","NA"
"-124.43","49.49","SISTERS ISLAND","1027403","2019-05-20 00:00","2019","05","20","00:00","15.5","","9.2","","66","","","M","25","","42","","","","100.24","","","","","","NA"
"-124.43","49.49","SISTERS ISLAND","1027403","2019-05-20 01:00","2019","05","20","01:00","15.3","","9.4","","68","","","M","23","","28","","","","100.27","","","","","","NA"
"-124.43","49.49","SISTERS ISLAND","1027403","2019-05-20 02:00","2019","05","20","02:00","14.2","","9.1","","72","","","M","23","","35","","","","100.25","","","","","","NA"
"-124.43","49.49","SISTERS ISLAND","1027403","2019-05-20 03:00","2019","05","20","03:00","14.0","","9.0","","72","","","M","21","","34","","","","100.26","","","","","","NA"
"-124.43","49.49","SISTERS ISLAND","1027403","2019-05-20 04:00","2019","05","20","04:00","14.2","","8.9","","70","","","M","22","","26","","","","100.33","","","","","","NA"
"-124.43","49.49","SISTERS ISLAND","1027403","2019-05-20 05:00","2019","05","20","05:00","14.2","","9.5","","73","","","M","21","","22","","","","100.33","","","","","","NA"
"-124.43","49.49","SISTERS ISLAND","1027403","2019-05-20 06:00","2019","05","20","06:00","13.3","","11.2","","87","","","M","11","","20","","","","100.34","","","","","","NA"
"-124.43","49.49","SISTERS ISLAND","1027403","2019-05-20 07:00","2019","05","20","07:00","12.9","","11.1","","89","","","M","10","","27","","","","100.34","","","","","","NA"
"-124.43","49.49","SISTERS ISLAND","1027403","2019-05-20 08:00","2019","05","20","08:00","12.8","","11.1","","90","","","M","11","","28","","","","100.32","","","","","","NA"
"-124.43","49.49","SISTERS ISLAND","1027403","2019-05-20 09:00","2019","05","20","09:00","12.7","","11.2","","91","","","M","13","","26","","","","100.34","","","","","","NA"
"-124.43","49.49","SISTERS ISLAND","1027403","2019-05-20 10:00","2019","05","20","10:00","12.6","","11.0","","90","","","M","11","","35","","","","100.33","","","","","","NA"
"-124.43","49.49","SISTERS ISLAND","1027403","2019-05-20 11:00","2019","05","20","11:00","12.6","","10.8","","89","","","M","11","","36","","","","100.34","","","","","","NA"
"-124.43","49.49","SISTERS ISLAND","1027403","2019-05-20 12:00","2019","05","20","12:00","12.6","","10.4","","86","","","M","11","","35","","","","100.34","","","","","","NA"
"-124.43","49.49","SISTERS ISLAND","1027403","2019-05-20 13:00","2019","05","20","13:00","12.5","","10.4","","87","","","M","12","","28","","","","100.38","","","","","","NA"
"-124.43","49.49","SISTERS ISLAND","1027403","2019-05-20 14:00","2019","05","20","14:00","12.6","","10.5","","87","","","M","11","","33","","","","100.36","","","","","","NA"
"-124.43","49.49","SISTERS ISLAND","1027403","2019-05-20 15:00","2019","05","20","15:00","12.5","","10.7","","89","","","M","11","","39","","","","100.35","","","","","","NA"
"-124.43","49.49","SISTERS ISLAND","1027403","2019-05-20 16:00","2019","05","20","16:00","12.2","","10.8","","91","","","M","11","","40","","","","100.40","","","","","","NA"
"-124.43","49.49","SISTERS ISLAND","1027403","2019-05-20 17:00","2019","05","20","17:00","12.2","","11.0","","92","","","M","9","","25","","","","100.41","","","","","","NA"
"-124.43","49.49","SISTERS ISLAND","1027403","2019-05-20 18:00","2019","05","20","18:00","12.7","","11.0","","90","","","M","10","","29","","","","100.37","","","","","","NA"
"-124.43","49.49","SISTERS ISLAND","1027403","2019-05-20 19:00","2019","05","20","19:00","12.6","","11.0","","90","","","M","11","","30","","","","100.38","","","","","","NA"
"-124.43","49.49","SISTERS ISLAND","1027403","2019-05-20 20:00","2019","05","20","20:00","12.3","","10.7","","90","","","M","11","","32","","","","100.38","","","","","","NA"
"-124.43","49.49","SISTERS ISLAND","1027403","2019-05-20 21:00","2019","05","20","21:00","12.7","","11.3","","92","","","M","11","","27","","","","100.40","","","","","","NA"
"-124.43","49.49","SISTERS ISLAND","1027403","2019-05-20 22:00","2019","05","20","22:00","12.4","","10.7","","89","","","M","11","","26","","","","100.38","","","","","","NA"
"-124.43","49.49","SISTERS ISLAND","1027403","2019-05-20 23:00","2019","05","20","23:00","12.4","","11.1","","92","","","M","12","","27","","","","100.40","","","","","","NA"
"-124.43","49.49","SISTERS ISLAND","1027403","2019-05-21 00:00","2019","05","21","00:00","12.6","","9.7","","83","","","M","12","","23","","","","100.42","","","","","","NA"
"-124.43","49.49","SISTERS ISLAND","1027403","2019-05-21 01:00","2019","05","21","01:00","12.6","","9.5","","82","","","M","11","","13","","","","100.43","","","","","","NA"
"-124.43","49.49","SISTERS ISLAND","1027403","2019-05-21 02:00","2019","05","21","02:00","12.3","","9.6","","84","","","M","8","","7","","","","100.43","","","","","","NA"
"-124.43","49.49","SISTERS ISLAND","1027403","2019-05-21 03:00","2019","05","21","03:00","12.2","","9.7","","85","","","M","4","","8","","","","100.44","","","","","","NA"
"-124.43","49.49","SISTERS ISLAND","1027403","2019-05-21 04:00","2019","05","21","04:00","12.2","","10.0","","87","","","M","34","","10","","","","100.45","","","","","","NA"
"-124.43","49.49","SISTERS ISLAND","1027403","2019-05-21 05:00","2019","05","21","05:00","12.0","","10.7","","92","","","M","29","","17","","","","100.45","","","","","","NA"
"-124.43","49.49","SISTERS ISLAND","1027403","2019-05-21 06:00","2019","05","21","06:00","11.8","","10.8","","94","","","M","29","","20","","","","100.45","","","","","","NA"
"-124.43","49.49","SISTERS ISLAND","1027403","2019-05-21 07:00","2019","05","21","07:00","12.3","","10.4","","88","","","M","29","","19","","","","100.47","","","","","","NA"
"-124.43","49.49","SISTERS ISLAND","1027403","2019-05-21 08:00","2019","05","21","08:00","13.2","","10.4","","83","","","M","29","","22","","","","100.48","","","","","","NA"
"-124.43","49.49","SISTERS ISLAND","1027403","2019-05-21 09:00","2019","05","21","09:00","13.3","","9.8","","80","","","M","28","","17","","","","100.54","","","","","","NA"
"-124.43","49.49","SISTERS ISLAND","1027403","2019-05-21 10:00","2019","05","21","10:00","13.4","","9.7","","78","","","M","30","","23","","","","100.55","","","","","","NA"
"-124.43","49.49","SISTERS ISLAND","1027403","2019-05-21 11:00","2019","05","21","11:00","13.9","","9.8","","76","","","M","29","","22","","","","100.57","","","","","","NA"
"-124.43","49.49","SISTERS ISLAND","1027403","2019-05-21 12:00","2019","05","21","12:00","14.5","","9.4","","71","","","M","29","","18","","","","100.59","","","","","","NA"
"-124.43","49.49","SISTERS ISLAND","1027403","2019-05-21 13:00","2019","05","21","13:00","15.0","","8.9","","67","","","M","30","","20","","","","100.59","","","","","","NA"
"-124.43","49.49","SISTERS ISLAND","1027403","2019-05-21 14:00","2019","05","21","14:00","15.7","","8.9","","64","","","M","29","","24","","","","100.58","","","","","","NA"
"-124.43","49.49","SISTERS ISLAND","1027403","2019-05-21 15:00","2019","05","21","15:00","15.9","","9.6","","66","","","M","29","","26","","","","100.55","","","","","","NA"
"-124.43","49.49","SISTERS ISLAND","1027403","2019-05-21 16:00","2019","05","21","16:00","16.7","","9.0","","60","","","M","28","","24","","","","100.56","","","","","","NA"
"-124.43","49.49","SISTERS ISLAND","1027403","2019-05-21 17:00","2019","05","21","17:00","17.6","","8.8","","56","","","M","27","","21","","","","100.60","","","","","","NA"
"-124.43","49.49","SISTERS ISLAND","1027403","2019-05-21 18:00","2019","05","21","18:00","17.4","","9.8","","61","","","M","28","","23","","","","100.63","","","","","","NA"
"-124.43","49.49","SISTERS ISLAND","1027403","2019-05-21 19:00","2019","05","21","19:00","17.2","","10.5","","65","","","M","29","","25","","","","100.69","","","","","","NA"
"-124.43","49.49","SISTERS ISLAND","1027403","2019-05-21 20:00","2019","05","21","20:00","15.5","","10.9","","74","","","M","30","","24","","","","100.77","","","","","","NA"
"-124.43","49.49","SISTERS ISLAND","1027403","2019-05-21 21:00","2019","05","21","21:00","14.9","","11.2","","79","","","M","30","","23","","","","100.85","","","","","","NA"
"-124.43","49.49","SISTERS ISLAND","1027403","2019-05-21 22:00","2019","05","21","22:00","14.8","","10.7","","76","","","M","30","","27","","","","100.93","","","","","","NA"
"-124.43","49.49","SISTERS ISLAND","1027403","2019-05-21 23:00","2019","05","21","23:00","14.7","","10.7","","77","","","M","31","","28","","","","100.96","","","","","","NA"
"-124.43","49.49","SISTERS ISLAND","1027403","2019-05-22 00:00","2019","05","22","00:00","14.0","","10.6","","80","","","M","30","","27","","","","101.01","","","","","","NA"
"-124.43","49.49","SISTERS ISLAND","1027403","2019-05-22 01:00","2019","05","22","01:00","13.6","","10.6","","82","","","M","29","","30","","","","101.05","","","","","","NA"
"-124.43","49.49","SISTERS ISLAND","1027403","2019-05-22 02:00","2019","05","22","02:00","13.5","","10.7","","83","","","M","29","","31","","","","101.09","","","","","","NA"
"-124.43","49.49","SISTERS ISLAND","1027403","2019-05-22 03:00","2019","05","22","03:00","13.2","","10.6","","84","","","M","29","","28","","","","101.15","","","","","","NA"
"-124.43","49.49","SISTERS ISLAND","1027403","2019-05-22 04:00","2019","05","22","04:00","13.1","","10.2","","83","","","M","29","","26","","","","101.23","","","","","","NA"
"-124.43","49.49","SISTERS ISLAND","1027403","2019-05-22 05:00","2019","05","22","05:00","13.0","","9.9","","81","","","M","29","","26","","","","101.25","","","","","","NA"
"-124.43","49.49","SISTERS ISLAND","1027403","2019-05-22 06:00","2019","05","22","06:00","13.4","","9.9","","79","","","M","30","","28","","","","101.30","","","","","","NA"
"-124.43","49.49","SISTERS ISLAND","1027403","2019-05-22 07:00","2019","05","22","07:00","13.7","","10.1","","79","","","M","30","","23","","","","101.36","","","","","","NA"
"-124.43","49.49","SISTERS ISLAND","1027403","2019-05-22 08:00","2019","05","22","08:00","13.6","","10.0","","79","","","M","30","","23","","","","101.37","","","","","","NA"
"-124.43","49.49","SISTERS ISLAND","1027403","2019-05-22 09:00","2019","05","22","09:00","13.8","","10.0","","78","","","M","30","","21","","","","101.37","","","","","","NA"
"-124.43","49.49","SISTERS ISLAND","1027403","2019-05-22 10:00","2019","05","22","10:00","14.0","","9.9","","76","","","M","30","","21","","","","101.35","","","","","","NA"
"-124.43","49.49","SISTERS ISLAND","1027403","2019-05-22 11:00","2019","05","22","11:00","14.7","","10.1","","74","","","M","32","","23","","","","101.34","","","","","","NA"
"-124.43","49.49","SISTERS ISLAND","1027403","2019-05-22 12:00","2019","05","22","12:00","15.6","","10.7","","73","","","M","32","","10","","","","101.35","","","","","","NA"
"-124.43","49.49","SISTERS ISLAND","1027403","2019-05-22 13:00","2019","05","22","13:00","15.6","","10.6","","72","","","M","28","","14","","","","101.32","","","","","","NA"
"-124.43","49.49","SISTERS ISLAND","1027403","2019-05-22 14:00","2019","05","22","14:00","17.2","","10.6","","65","","","M","29","","17","","","","101.30","","","","","","NA"
"-124.43","49.49","SISTERS ISLAND","1027403","2019-05-22 15:00","2019","05","22","15:00","18.5","","11.1","","62","","","M","28","","4","","","","101.27","","","","","","NA"
"-124.43","49.49","SISTERS ISLAND","1027403","2019-05-22 16:00","2019","05","22","16:00","18.4","","10.5","","60","","","M","31","","6","","","","101.23","","","","","","NA"
"-124.43","49.49","SISTERS ISLAND","1027403","2019-05-22 17:00","2019","05","22","17:00","19.7","","9.0","","50","","","M","30","","12","","","","101.22","","","","","","NA"
"-124.43","49.49","SISTERS ISLAND","1027403","2019-05-22 18:00","2019","05","22","18:00","18.2","","13.5","","74","","","M","22","","5","","","","101.23","","","","","","NA"
"-124.43","49.49","SISTERS ISLAND","1027403","2019-05-22 19:00","2019","05","22","19:00","20.7","","8.7","","46","","","M","24","","5","","","","101.23","","","","","","NA"
"-124.43","49.49","SISTERS ISLAND","1027403","2019-05-22 20:00","2019","05","22","20:00","19.9","","8.9","","49","","","M","24","","8","","","","101.25","","","","","","NA"
"-124.43","49.49","SISTERS ISLAND","1027403","2019-05-22 21:00","2019","05","22","21:00","18.2","","11.1","","63","","","M","30","","37","","","","101.28","","","","","","NA"
"-124.43","49.49","SISTERS ISLAND","1027403","2019-05-22 22:00","2019","05","22","22:00","16.1","","12.1","","77","","","M","31","","32","","","","101.34","","","","","","NA"
"-124.43","49.49","SISTERS ISLAND","1027403","2019-05-22 23:00","2019","05","22","23:00","16.2","","11.4","","73","","","M","32","","32","","","","101.36","","","","","","NA"
"-124.43","49.49","SISTERS ISLAND","1027403","2019-05-23 00:00","2019","05","23","00:00","15.0","","11.2","","78","","","M","27","","25","","","","101.40","","","","","","NA"
"-124.43","49.49","SISTERS ISLAND","1027403","2019-05-23 01:00","2019","05","23","01:00","14.8","","10.8","","77","","","M","30","","30","","","","101.45","","","","","","NA"
"-124.43","49.49","SISTERS ISLAND","1027403","2019-05-23 02:00","2019","05","23","02:00","14.4","","10.6","","78","","","M","30","","40","","","","101.46","","","","","","NA"
"-124.43","49.49","SISTERS ISLAND","1027403","2019-05-23 03:00","2019","05","23","03:00","13.7","","10.9","","83","","","M","30","","35","","","","101.50","","","","","","NA"
"-124.43","49.49","SISTERS ISLAND","1027403","2019-05-23 04:00","2019","05","23","04:00","13.1","","10.8","","86","","","M","30","","22","","","","101.52","","","","","","NA"
"-124.43","49.49","SISTERS ISLAND","1027403","2019-05-23 05:00","2019","05","23","05:00","13.3","","10.7","","85","","","M","30","","26","","","","101.53","","","","","","NA"
"-124.43","49.49","SISTERS ISLAND","1027403","2019-05-23 06:00","2019","05","23","06:00","13.8","","10.2","","79","","","M","30","","20","","","","101.55","","","","","","NA"
"-124.43","49.49","SISTERS ISLAND","1027403","2019-05-23 07:00","2019","05","23","07:00","13.9","","10.3","","79","","","M","30","","22","","","","101.56","","","","","","NA"
"-124.43","49.49","SISTERS ISLAND","1027403","2019-05-23 08:00","2019","05","23","08:00","13.8","","10.4","","80","","","M","30","","19","","","","101.53","","","","","","NA"
"-124.43","49.49","SISTERS ISLAND","1027403","2019-05-23 09:00","2019","05","23","09:00","14.0","","10.2","","78","","","M","31","","20","","","","101.48","","","","","","NA"
"-124.43","49.49","SISTERS ISLAND","1027403","2019-05-23 10:00","2019","05","23","10:00","14.8","","10.6","","76","","","M","31","","22","","","","101.41","","","","","","NA"
"-124.43","49.49","SISTERS ISLAND","1027403","2019-05-23 11:00","2019","05","23","11:00","14.9","","10.7","","76","","","M","31","","22","","","","101.37","","","","","","NA"
"-124.43","49.49","SISTERS ISLAND","1027403","2019-05-23 12:00","2019","05","23","12:00","15.3","","10.8","","75","","","M","32","","18","","","","101.31","","","","","","NA"
"-124.43","49.49","SISTERS ISLAND","1027403","2019-05-23 13:00","2019","05","23","13:00","16.1","","10.9","","72","","","M","33","","14","","","","101.20","","","","","","NA"
"-124.43","49.49","SISTERS ISLAND","1027403","2019-05-23 14:00","2019","05","23","14:00","16.8","","10.6","","67","","","M","28","","18","","","","101.12","","","","","","NA"
"-124.43","49.49","SISTERS ISLAND","1027403","2019-05-23 15:00","2019","05","23","15:00","18.1","","10.1","","60","","","M","28","","29","","","","101.01","","","","","","NA"
"-124.43","49.49","SISTERS ISLAND","1027403","2019-05-23 16:00","2019","05","23","16:00","18.4","","10.5","","60","","","M","29","","25","","","","100.95","","","","","","NA"
"-124.43","49.49","SISTERS ISLAND","1027403","2019-05-23 17:00","2019","05","23","17:00","18.5","","10.0","","58","","","M","29","","36","","","","100.87","","","","","","NA"
"-124.43","49.49","SISTERS ISLAND","1027403","2019-05-23 18:00","2019","05","23","18:00","17.8","","10.2","","61","","","M","29","","30","","","","100.84","","","","","","NA"
"-124.43","49.49","SISTERS ISLAND","1027403","2019-05-23 19:00","2019","05","23","19:00","17.7","","10.2","","61","","","M","28","","24","","","","100.81","","","","","","NA"
"-124.43","49.49","SISTERS ISLAND","1027403","2019-05-23 20:00","2019","05","23","20:00","17.4","","10.1","","62","","","M","29","","15","","","","100.81","","","","","","NA"
"-124.43","49.49","SISTERS ISLAND","1027403","2019-05-23 21:00","2019","05","23","21:00","16.4","","10.0","","66","","","M","31","","27","","","","100.84","","","","","","NA"
"-124.43","49.49","SISTERS ISLAND","1027403","2019-05-23 22:00","2019","05","23","22:00","15.7","","9.1","","65","","","M","32","","41","","","","100.81","","","","","","NA"
"-124.43","49.49","SISTERS ISLAND","1027403","2019-05-23 23:00","2019","05","23","23:00","14.8","","8.9","","68","","","M","30","","39","","","","100.78","","","","","","NA"
"-124.43","49.49","SISTERS ISLAND","1027403","2019-05-24 00:00","2019","05","24","00:00","14.4","","8.3","","66","","","M","31","","43","","","","100.75","","","","","","NA"
"-124.43","49.49","SISTERS ISLAND","1027403","2019-05-24 01:00","2019","05","24","01:00","13.8","","8.3","","69","","","M","31","","45","","","","100.75","","","","","","NA"
"-124.43","49.49","SISTERS ISLAND","1027403","2019-05-24 02:00","2019","05","24","02:00","13.1","","8.1","","72","","","M","32","","46","","","","100.76","","","","","","NA"
"-124.43","49.49","SISTERS ISLAND","1027403","2019-05-24 03:00","2019","05","24","03:00","12.6","","8.3","","75","","","M","31","","44","","","","100.77","","","","","","NA"
"-124.43","49.49","SISTERS ISLAND","1027403","2019-05-24 04:00","2019","05","24","04:00","12.5","","8.4","","76","","","M","32","","51","","","","100.74","","","","","","NA"
"-124.43","49.49","SISTERS ISLAND","1027403","2019-05-24 05:00","2019","05","24","05:00","12.4","","8.5","","77","","","M","31","","48","","","","100.75","","","","","","NA"
"-124.43","49.49","SISTERS ISLAND","1027403","2019-05-24 06:00","2019","05","24","06:00","12.6","","8.3","","75","","","M","32","","49","","","","100.78","","","","","","NA"
"-124.43","49.49","SISTERS ISLAND","1027403","2019-05-24 07:00","2019","05","24","07:00","12.3","","8.4","","77","","","M","32","","51","","","","100.81","","","","","","NA"
"-124.43","49.49","SISTERS ISLAND","1027403","2019-05-24 08:00","2019","05","24","08:00","12.5","","8.3","","76","","","M","32","","50","","","","100.79","","","","","","NA"
"-124.43","49.49","SISTERS ISLAND","1027403","2019-05-24 09:00","2019","05","24","09:00","12.4","","8.5","","77","","","M","33","","42","","","","100.83","","","","","","NA"
"-124.43","49.49","SISTERS ISLAND","1027403","2019-05-24 10:00","2019","05","24","10:00","13.0","","8.7","","75","","","M","33","","35","","","","100.87","","","","","","NA"
"-124.43","49.49","SISTERS ISLAND","1027403","2019-05-24 11:00","2019","05","24","11:00","13.4","","9.0","","75","","","M","32","","23","","","","100.94","","","","","","NA"
"-124.43","49.49","SISTERS ISLAND","1027403","2019-05-24 12:00","2019","05","24","12:00","13.8","","8.6","","71","","","M","29","","22","","","","100.95","","","","","","NA"
"-124.43","49.49","SISTERS ISLAND","1027403","2019-05-24 13:00","2019","05","24","13:00","13.4","","8.6","","72","","","M","28","","22","","","","100.97","","","","","","NA"
"-124.43","49.49","SISTERS ISLAND","1027403","2019-05-24 14:00","2019","05","24","14:00","14.1","","8.6","","69","","","M","30","","13","","","","100.98","","","","","","NA"
"-124.43","49.49","SISTERS ISLAND","1027403","2019-05-24 15:00","2019","05","24","15:00","15.5","","9.5","","67","","","M","28","","5","","","","100.99","","","","","","NA"
"-124.43","49.49","SISTERS ISLAND","1027403","2019-05-24 16:00","2019","05","24","16:00","14.7","","9.6","","72","","","M","23","","3","","","","100.99","","","","","","NA"
"-124.43","49.49","SISTERS ISLAND","1027403","2019-05-24 17:00","2019","05","24","17:00","15.0","","8.6","","66","","","M","13","","2","","","","100.99","","","","","","NA"
"-124.43","49.49","SISTERS ISLAND","1027403","2019-05-24 18:00","2019","05","24","18:00","14.6","","9.4","","71","","","M","5","","8","","","","101.01","","","","","","NA"
"-124.43","49.49","SISTERS ISLAND","1027403","2019-05-24 19:00","2019","05","24","19:00","14.0","","9.9","","76","","","M","14","","13","","","","101.04","","","","","","NA"
"-124.43","49.49","SISTERS ISLAND","1027403","2019-05-24 20:00","2019","05","24","20:00","13.7","","10.0","","78","","","M","18","","5","","","","101.08","","","","","","NA"
"-124.43","49.49","SISTERS ISLAND","1027403","2019-05-24 21:00","2019","05","24","21:00","14.1","","10.3","","77","","","M","26","","13","","","","101.14","","","","","","NA"
"-124.43","49.49","SISTERS ISLAND","1027403","2019-05-24 22:00","2019","05","24","22:00","13.9","","9.5","","75","","","M","33","","18","","","","101.16","","","","","","NA"
"-124.43","49.49","SISTERS ISLAND","1027403","2019-05-24 23:00","2019","05","24","23:00","13.1","","8.8","","75","","","M","33","","19","","","","101.14","","","","","","NA"
"-124.43","49.49","SISTERS ISLAND","1027403","2019-05-25 00:00","2019","05","25","00:00","12.9","","8.8","","76","","","M","33","","29","","","","101.16","","","","","","NA"
"-124.43","49.49","SISTERS ISLAND","1027403","2019-05-25 01:00","2019","05","25","01:00","12.7","","8.5","","76","","","M","31","","25","","","","101.14","","","","","","NA"
"-124.43","49.49","SISTERS ISLAND","1027403","2019-05-25 02:00","2019","05","25","02:00","12.5","","8.1","","74","","","M","32","","20","","","","101.11","","","","","","NA"
"-124.43","49.49","SISTERS ISLAND","1027403","2019-05-25 03:00","2019","05","25","03:00","12.3","","7.6","","73","","","M","33","","27","","","","101.08","","","","","","NA"
"-124.43","49.49","SISTERS ISLAND","1027403","2019-05-25 04:00","2019","05","25","04:00","11.9","","7.3","","73","","","M","33","","30","","","","101.08","","","","","","NA"
"-124.43","49.49","SISTERS ISLAND","1027403","2019-05-25 05:00","2019","05","25","05:00","11.7","","6.8","","72","","","M","34","","28","","","","101.03","","","","","","NA"
"-124.43","49.49","SISTERS ISLAND","1027403","2019-05-25 06:00","2019","05","25","06:00","11.3","","6.6","","73","","","M","33","","32","","","","100.99","","","","","","NA"
"-124.43","49.49","SISTERS ISLAND","1027403","2019-05-25 07:00","2019","05","25","07:00","10.9","","5.4","","69","","","M","33","","37","","","","100.96","","","","","","NA"
"-124.43","49.49","SISTERS ISLAND","1027403","2019-05-25 08:00","2019","05","25","08:00","10.9","","4.9","","67","","","M","32","","42","","","","100.95","","","","","","NA"
"-124.43","49.49","SISTERS ISLAND","1027403","2019-05-25 09:00","2019","05","25","09:00","11.0","","4.6","","65","","","M","31","","37","","","","100.94","","","","","","NA"
"-124.43","49.49","SISTERS ISLAND","1027403","2019-05-25 10:00","2019","05","25","10:00","11.1","","4.7","","65","","","M","28","","22","","","","100.99","","","","","","NA"
"-124.43","49.49","SISTERS ISLAND","1027403","2019-05-25 11:00","2019","05","25","11:00","11.9","","4.8","","62","","","M","29","","17","","","","101.02","","","","","","NA"
"-124.43","49.49","SISTERS ISLAND","1027403","2019-05-25 12:00","2019","05","25","12:00","12.4","","4.9","","60","","","M","32","","12","","","","101.04","","","","","","NA"
"-124.43","49.49","SISTERS ISLAND","1027403","2019-05-25 13:00","2019","05","25","13:00","13.1","","4.5","","56","","","M","32","","13","","","","101.02","","","","","","NA"
"-124.43","49.49","SISTERS ISLAND","1027403","2019-05-25 14:00","2019","05","25","14:00","14.1","","6.0","","58","","","M","22","","5","","","","101.00","","","","","","NA"
"-124.43","49.49","SISTERS ISLAND","1027403","2019-05-25 15:00","2019","05","25","15:00","13.9","","6.1","","59","","","M","19","","5","","","","100.99","","","","","","NA"
"-124.43","49.49","SISTERS ISLAND","1027403","2019-05-25 16:00","2019","05","25","16:00","14.7","","5.5","","54","","","M","23","","3","","","","100.99","","","","","","NA"
"-124.43","49.49","SISTERS ISLAND","1027403","2019-05-25 17:00","2019","05","25","17:00","15.2","","5.8","","53","","","M","24","","4","","","","100.99","","","","","","NA"
"-124.43","49.49","SISTERS ISLAND","1027403","2019-05-25 18:00","2019","05","25","18:00","15.0","","4.7","","50","","","M","23","","5","","","","101.00","","","","","","NA"
"-124.43","49.49","SISTERS ISLAND","1027403","2019-05-25 19:00","2019","05","25","19:00","14.8","","5.4","","53","","","M","19","","5","","","","100.95","","","","","","NA"
"-124.43","49.49","SISTERS ISLAND","1027403","2019-05-25 20:00","2019","05","25","20:00","14.5","","6.7","","60","","","M","14","","4","","","","100.96","","","","","","NA"
"-124.43","49.49","SISTERS ISLAND","1027403","2019-05-25 21:00","2019","05","25","21:00","14.7","","4.7","","51","","","M","6","","7","","","","101.01","","","","","","NA"
"-124.43","49.49","SISTERS ISLAND","1027403","2019-05-25 22:00","2019","05","25","22:00","14.3","","9.2","","71","","","M","11","","13","","","","101.05","","","","","","NA"
"-124.43","49.49","SISTERS ISLAND","1027403","2019-05-25 23:00","2019","05","25","23:00","14.0","","9.3","","73","","","M","12","","14","","","","101.07","","","","","","NA"
"-124.43","49.49","SISTERS ISLAND","1027403","2019-05-26 00:00","2019","05","26","00:00","13.8","","8.2","","69","","","M","13","","9","","","","101.10","","","","","","NA"
"-124.43","49.49","SISTERS ISLAND","1027403","2019-05-26 01:00","2019","05","26","01:00","13.5","","9.7","","78","","","M","14","","7","","","","101.11","","","","","","NA"
"-124.43","49.49","SISTERS ISLAND","1027403","2019-05-26 02:00","2019","05","26","02:00","13.0","","9.8","","81","","","M","25","","2","","","","101.08","","","","","","NA"
"-124.43","49.49","SISTERS ISLAND","1027403","2019-05-26 03:00","2019","05","26","03:00","13.0","","10.1","","83","","","M","27","","3","","","","101.05","","","","","","NA"
"-124.43","49.49","SISTERS ISLAND","1027403","2019-05-26 04:00","2019","05","26","04:00","13.5","","10.0","","79","","","M","31","","18","","","","101.00","","","","","","NA"
"-124.43","49.49","SISTERS ISLAND","1027403","2019-05-26 05:00","2019","05","26","05:00","14.0","","8.9","","72","","","M","30","","19","","","","101.00","","","","","","NA"
"-124.43","49.49","SISTERS ISLAND","1027403","2019-05-26 06:00","2019","05","26","06:00","14.6","","9.0","","69","","","M","30","","20","","","","101.02","","","","","","NA"
"-124.43","49.49","SISTERS ISLAND","1027403","2019-05-26 07:00","2019","05","26","07:00","14.7","","8.8","","68","","","M","31","","19","","","","101.03","","","","","","NA"
"-124.43","49.49","SISTERS ISLAND","1027403","2019-05-26 08:00","2019","05","26","08:00","14.3","","8.5","","68","","","M","30","","22","","","","101.04","","","","","","NA"
"-124.43","49.49","SISTERS ISLAND","1027403","2019-05-26 09:00","2019","05","26","09:00","14.4","","8.8","","69","","","M","30","","19","","","","101.00","","","","","","NA"
"-124.43","49.49","SISTERS ISLAND","1027403","2019-05-26 10:00","2019","05","26","10:00","15.2","","9.3","","68","","","M","29","","19","","","","100.96","","","","","","NA"
"-124.43","49.49","SISTERS ISLAND","1027403","2019-05-26 11:00","2019","05","26","11:00","15.8","","8.8","","63","","","M","30","","15","","","","100.93","","","","","","NA"
"-124.43","49.49","SISTERS ISLAND","1027403","2019-05-26 12:00","2019","05","26","12:00","17.0","","8.3","","57","","","M","31","","15","","","","100.86","","","","","","NA"
"-124.43","49.49","SISTERS ISLAND","1027403","2019-05-26 13:00","2019","05","26","13:00","18.2","","10.5","","61","","","M","34","","4","","","","100.85","","","","","","NA"
"-124.43","49.49","SISTERS ISLAND","1027403","2019-05-26 14:00","2019","05","26","14:00","18.6","","10.5","","59","","","M","33","","3","","","","100.81","","","","","","NA"
"-124.43","49.49","SISTERS ISLAND","1027403","2019-05-26 15:00","2019","05","26","15:00","19.4","","9.4","","52","","","M","26","","4","","","","100.79","","","","","","NA"
"-124.43","49.49","SISTERS ISLAND","1027403","2019-05-26 16:00","2019","05","26","16:00","19.7","","9.8","","53","","","M","32","","1","","","","100.74","","","","","","NA"
"-124.43","49.49","SISTERS ISLAND","1027403","2019-05-26 17:00","2019","05","26","17:00","22.1","","10.1","","46","","","M","33","","3","","","","100.72","","","","","","NA"
"-124.43","49.49","SISTERS ISLAND","1027403","2019-05-26 18:00","2019","05","26","18:00","18.6","","9.9","","57","","","M","12","","25","","","","100.71","","","","","","NA"
"-124.43","49.49","SISTERS ISLAND","1027403","2019-05-26 19:00","2019","05","26","19:00","22.1","","8.1","","41","","","M","11","","36","","","","100.72","","","","","","NA"
"-124.43","49.49","SISTERS ISLAND","1027403","2019-05-26 20:00","2019","05","26","20:00","21.0","","9.4","","47","","","M","11","","34","","","","100.75","","","","","","NA"
"-124.43","49.49","SISTERS ISLAND","1027403","2019-05-26 21:00","2019","05","26","21:00","21.4","","8.4","","43","","","M","11","","30","","","","100.83","","","","","","NA"
"-124.43","49.49","SISTERS ISLAND","1027403","2019-05-26 22:00","2019","05","26","22:00","20.7","","8.5","","46","","","M","12","","29","","","","100.88","","","","","","NA"
"-124.43","49.49","SISTERS ISLAND","1027403","2019-05-26 23:00","2019","05","26","23:00","17.8","","11.1","","65","","","M","12","","27","","","","100.90","","","","","","NA"
"-124.43","49.49","SISTERS ISLAND","1027403","2019-05-27 00:00","2019","05","27","00:00","17.3","","12.1","","71","","","M","13","","26","","","","100.92","","","","","","NA"
"-124.43","49.49","SISTERS ISLAND","1027403","2019-05-27 01:00","2019","05","27","01:00","18.0","","11.6","","66","","","M","13","","28","","","","100.96","","","","","","NA"
"-124.43","49.49","SISTERS ISLAND","1027403","2019-05-27 02:00","2019","05","27","02:00","15.4","","12.2","","82","","","M","5","","15","","","","101.01","","","","","","NA"
"-124.43","49.49","SISTERS ISLAND","1027403","2019-05-27 03:00","2019","05","27","03:00","15.4","","13.0","","86","","","M","33","","16","","","","101.05","","","","","","NA"
"-124.43","49.49","SISTERS ISLAND","1027403","2019-05-27 04:00","2019","05","27","04:00","15.2","","13.1","","87","","","M","33","","12","","","","101.10","","","","","","NA"
"-124.43","49.49","SISTERS ISLAND","1027403","2019-05-27 05:00","2019","05","27","05:00","15.6","","12.7","","83","","","M","33","","17","","","","101.15","","","","","","NA"
"-124.43","49.49","SISTERS ISLAND","1027403","2019-05-27 06:00","2019","05","27","06:00","16.8","","13.0","","78","","","M","33","","11","","","","101.19","","","","","","NA"
"-124.43","49.49","SISTERS ISLAND","1027403","2019-05-27 07:00","2019","05","27","07:00","17.8","","12.8","","73","","","M","36","","8","","","","101.22","","","","","","NA"
"-124.43","49.49","SISTERS ISLAND","1027403","2019-05-27 08:00","2019","05","27","08:00","18.7","","12.2","","66","","","M","35","","2","","","","101.26","","","","","","NA"
"-124.43","49.49","SISTERS ISLAND","1027403","2019-05-27 09:00","2019","05","27","09:00","18.9","","12.5","","66","","","M","","","0","","","","101.27","","","","","","NA"
"-124.43","49.49","SISTERS ISLAND","1027403","2019-05-27 10:00","2019","05","27","10:00","17.6","","13.0","","74","","","M","18","","3","","","","101.26","","","","","","NA"
"-124.43","49.49","SISTERS ISLAND","1027403","2019-05-27 11:00","2019","05","27","11:00","17.7","","13.5","","76","","","M","20","","6","","","","101.25","","","","","","NA"
"-124.43","49.49","SISTERS ISLAND","1027403","2019-05-27 12:00","2019","05","27","12:00","21.2","","14.1","","64","","","M","","","0","","","","101.21","","25","","","","NA"
"-124.43","49.49","SISTERS ISLAND","1027403","2019-05-27 13:00","2019","05","27","13:00","20.5","","13.1","","62","","","M","30","","1","","","","101.16","","","","","","NA"
"-124.43","49.49","SISTERS ISLAND","1027403","2019-05-27 14:00","2019","05","27","14:00","21.4","","13.5","","61","","","M","32","","4","","","","101.10","","","","","","NA"
"-124.43","49.49","SISTERS ISLAND","1027403","2019-05-27 15:00","2019","05","27","15:00","21.5","","12.0","","55","","","M","26","","6","","","","101.05","","","","","","NA"
"-124.43","49.49","SISTERS ISLAND","1027403","2019-05-27 16:00","2019","05","27","16:00","21.6","","10.9","","51","","","M","30","","6","","","","101.01","","","","","","NA"
"-124.43","49.49","SISTERS ISLAND","1027403","2019-05-27 17:00","2019","05","27","17:00","22.6","","12.4","","53","","","M","35","","6","","","","100.98","","25","","","","NA"
"-124.43","49.49","SISTERS ISLAND","1027403","2019-05-27 18:00","2019","05","27","18:00","21.9","","9.2","","44","","","M","32","","3","","","","100.98","","","","","","NA"
"-124.43","49.49","SISTERS ISLAND","1027403","2019-05-27 19:00","2019","05","27","19:00","22.8","","6.3","","34","","","M","35","","4","","","","100.98","","","","","","NA"
"-124.43","49.49","SISTERS ISLAND","1027403","2019-05-27 20:00","2019","05","27","20:00","22.4","","6.3","","35","","","M","36","","3","","","","100.99","","","","","","NA"
"-124.43","49.49","SISTERS ISLAND","1027403","2019-05-27 21:00","2019","05","27","21:00","21.0","","11.9","","56","","","M","26","","13","","","","101.04","","","","","","NA"
"-124.43","49.49","SISTERS ISLAND","1027403","2019-05-27 22:00","2019","05","27","22:00","21.5","","8.9","","44","","","M","25","","22","","","","101.08","","","","","","NA"
"-124.43","49.49","SISTERS ISLAND","1027403","2019-05-27 23:00","2019","05","27","23:00","22.6","","7.9","","39","","","M","25","","16","","","","101.13","","","","","","NA"
"-124.43","49.49","SISTERS ISLAND","1027403","2019-05-28 00:00","2019","05","28","00:00","20.1","","11.0","","56","","","M","28","","18","","","","101.21","","","","","","NA"
"-124.43","49.49","SISTERS ISLAND","1027403","2019-05-28 01:00","2019","05","28","01:00","17.9","","11.7","","67","","","M","28","","10","","","","101.28","","","","","","NA"
"-124.43","49.49","SISTERS ISLAND","1027403","2019-05-28 02:00","2019","05","28","02:00","17.5","","10.1","","62","","","M","25","","2","","","","101.36","","","","","","NA"
"-124.43","49.49","SISTERS ISLAND","1027403","2019-05-28 03:00","2019","05","28","03:00","16.4","","13.0","","81","","","M","12","","4","","","","101.40","","","","","","NA"
"-124.43","49.49","SISTERS ISLAND","1027403","2019-05-28 04:00","2019","05","28","04:00","15.3","","12.4","","83","","","M","12","","25","","","","101.44","","","","","","NA"
"-124.43","49.49","SISTERS ISLAND","1027403","2019-05-28 05:00","2019","05","28","05:00","14.8","","12.4","","86","","","M","11","","27","","","","101.48","","","","","","NA"
"-124.43","49.49","SISTERS ISLAND","1027403","2019-05-28 06:00","2019","05","28","06:00","14.5","","12.2","","86","","","M","11","","31","","","","101.50","","","","","","NA"
"-124.43","49.49","SISTERS ISLAND","1027403","2019-05-28 07:00","2019","05","28","07:00","14.0","","11.8","","87","","","M","11","","36","","","","101.53","","","","","","NA"
"-124.43","49.49","SISTERS ISLAND","1027403","2019-05-28 08:00","2019","05","28","08:00","13.8","","11.6","","86","","","M","11","","34","","","","101.58","","","","","","NA"
"-124.43","49.49","SISTERS ISLAND","1027403","2019-05-28 09:00","2019","05","28","09:00","13.8","","11.0","","83","","","M","11","","37","","","","101.57","","","","","","NA"
"-124.43","49.49","SISTERS ISLAND","1027403","2019-05-28 10:00","2019","05","28","10:00","14.2","","11.1","","82","","","M","12","","37","","","","101.58","","","","","","NA"
"-124.43","49.49","SISTERS ISLAND","1027403","2019-05-28 11:00","2019","05","28","11:00","14.1","","11.0","","81","","","M","12","","38","","","","101.54","","","","","","NA"
"-124.43","49.49","SISTERS ISLAND","1027403","2019-05-28 12:00","2019","05","28","12:00","14.2","","11.0","","81","","","M","12","","38","","","","101.52","","","","","","NA"
"-124.43","49.49","SISTERS ISLAND","1027403","2019-05-28 13:00","2019","05","28","13:00","14.2","","11.2","","82","","","M","12","","35","","","","101.49","","","","","","NA"
"-124.43","49.49","SISTERS ISLAND","1027403","2019-05-28 14:00","2019","05","28","14:00","14.3","","11.1","","81","","","M","12","","33","","","","101.44","","","","","","NA"
"-124.43","49.49","SISTERS ISLAND","1027403","2019-05-28 15:00","2019","05","28","15:00","14.3","","11.1","","81","","","","13","","31","","","","101.39","","","","","","NA"
"-124.43","49.49","SISTERS ISLAND","1027403","2019-05-28 16:00","2019","05","28","16:00","14.8","","11.5","","81","","","","13","","25","","","","101.34","","","","","","NA"
"-124.43","49.49","SISTERS ISLAND","1027403","2019-05-28 17:00","2019","05","28","17:00","14.8","","12.0","","83","","","","13","","29","","","","101.29","","","","","","NA"
"-124.43","49.49","SISTERS ISLAND","1027403","2019-05-28 18:00","2019","05","28","18:00","15.2","","12.1","","82","","","","12","","29","","","","101.26","","","","","","NA"
"-124.43","49.49","SISTERS ISLAND","1027403","2019-05-28 19:00","2019","05","28","19:00","15.4","","11.8","","79","","","","12","","34","","","","101.25","","","","","","NA"
"-124.43","49.49","SISTERS ISLAND","1027403","2019-05-28 20:00","2019","05","28","20:00","15.6","","12.0","","79","","","","11","","35","","","","101.27","","","","","","NA"
"-124.43","49.49","SISTERS ISLAND","1027403","2019-05-28 21:00","2019","05","28","21:00","15.4","","11.8","","79","","","","11","","34","","","","101.30","","","","","","NA"
"-124.43","49.49","SISTERS ISLAND","1027403","2019-05-28 22:00","2019","05","28","22:00","15.1","","11.6","","79","","","","11","","33","","","","101.30","","","","","","NA"
"-124.43","49.49","SISTERS ISLAND","1027403","2019-05-28 23:00","2019","05","28","23:00","15.2","","11.9","","81","","","","11","","26","","","","101.40","","","","","","NA"
"-124.43","49.49","SISTERS ISLAND","1027403","2019-05-29 00:00","2019","05","29","00:00","14.9","","12.1","","83","","","","11","","25","","","","101.43","","","","","","NA"
"-124.43","49.49","SISTERS ISLAND","1027403","2019-05-29 01:00","2019","05","29","01:00","14.7","","12.3","","86","","","","11","","22","","","","101.43","","","","","","NA"
"-124.43","49.49","SISTERS ISLAND","1027403","2019-05-29 02:00","2019","05","29","02:00","14.5","","12.2","","86","","","","11","","13","","","","101.45","","","","","","NA"
"-124.43","49.49","SISTERS ISLAND","1027403","2019-05-29 03:00","2019","05","29","03:00","14.4","","11.4","","82","","","","10","","11","","","","101.45","","","","","","NA"
"-124.43","49.49","SISTERS ISLAND","1027403","2019-05-29 04:00","2019","05","29","04:00","14.2","","11.8","","86","","","","12","","7","","","","101.46","","","","","","NA"
"-124.43","49.49","SISTERS ISLAND","1027403","2019-05-29 05:00","2019","05","29","05:00","14.1","","12.2","","89","","","","15","","8","","","","101.47","","","","","","NA"
"-124.43","49.49","SISTERS ISLAND","1027403","2019-05-29 06:00","2019","05","29","06:00","15.3","","13.0","","86","","","","23","","1","","","","101.49","","","","","","NA"
"-124.43","49.49","SISTERS ISLAND","1027403","2019-05-29 07:00","2019","05","29","07:00","17.4","","12.7","","74","","","","","","0","","","","101.53","","","","","","NA"
"-124.43","49.49","SISTERS ISLAND","1027403","2019-05-29 08:00","2019","05","29","08:00","17.7","","11.5","","67","","","","32","","2","","","","101.58","","","","","","NA"
"-124.43","49.49","SISTERS ISLAND","1027403","2019-05-29 09:00","2019","05","29","09:00","16.3","","12.0","","76","","","","27","","2","","","","101.55","","","","","","NA"
"-124.43","49.49","SISTERS ISLAND","1027403","2019-05-29 10:00","2019","05","29","10:00","16.2","","12.3","","78","","","","25","","2","","","","101.53","","","","","","NA"
"-124.43","49.49","SISTERS ISLAND","1027403","2019-05-29 11:00","2019","05","29","11:00","16.4","","11.4","","72","","","","0","","1","","","","101.48","","","","","","NA"
"-124.43","49.49","SISTERS ISLAND","1027403","2019-05-29 12:00","2019","05","29","12:00","15.6","","11.4","","76","","","","12","","6","","","","101.43","","","","","","NA"
"-124.43","49.49","SISTERS ISLAND","1027403","2019-05-29 13:00","2019","05","29","13:00","15.3","","12.1","","81","","","","15","","13","","","","101.38","","","","","","NA"
"-124.43","49.49","SISTERS ISLAND","1027403","2019-05-29 14:00","2019","05","29","14:00","15.4","","12.3","","82","","","","14","","15","","","","101.31","","","","","","NA"
"-124.43","49.49","SISTERS ISLAND","1027403","2019-05-29 15:00","2019","05","29","15:00","15.3","","12.6","","84","","","","13","","18","","","","101.24","","","","","","NA"
"-124.43","49.49","SISTERS ISLAND","1027403","2019-05-29 16:00","2019","05","29","16:00","15.7","","12.7","","83","","","","13","","15","","","","101.18","","","","","","NA"
"-124.43","49.49","SISTERS ISLAND","1027403","2019-05-29 17:00","2019","05","29","17:00","15.8","","13.2","","84","","","","13","","18","","","","101.12","","","","","","NA"
"-124.43","49.49","SISTERS ISLAND","1027403","2019-05-29 18:00","2019","05","29","18:00","15.6","","13.2","","85","","","","12","","25","","","","101.09","","","","","","NA"
"-124.43","49.49","SISTERS ISLAND","1027403","2019-05-29 19:00","2019","05","29","19:00","16.5","","12.0","","75","","","","12","","28","","","","101.08","","","","","","NA"
"-124.43","49.49","SISTERS ISLAND","1027403","2019-05-29 20:00","2019","05","29","20:00","16.9","","11.9","","72","","","","12","","28","","","","101.10","","","","","","NA"
"-124.43","49.49","SISTERS ISLAND","1027403","2019-05-29 21:00","2019","05","29","21:00","16.8","","11.7","","72","","","","11","","26","","","","101.15","","","","","","NA"
"-124.43","49.49","SISTERS ISLAND","1027403","2019-05-29 22:00","2019","05","29","22:00","16.7","","11.0","","69","","","","7","","7","","","","101.18","","","","","","NA"
"-124.43","49.49","SISTERS ISLAND","1027403","2019-05-29 23:00","2019","05","29","23:00","15.8","","11.7","","76","","","","31","","4","","","","101.21","","","","","","NA"
"-124.43","49.49","SISTERS ISLAND","1027403","2019-05-30 00:00","2019","05","30","00:00","15.4","","12.7","","84","","","","21","","2","","","","101.23","","","","","","NA"
"-124.43","49.49","SISTERS ISLAND","1027403","2019-05-30 01:00","2019","05","30","01:00","15.5","","12.6","","83","","","","16","","7","","","","101.23","","","","","","NA"
"-124.43","49.49","SISTERS ISLAND","1027403","2019-05-30 02:00","2019","05","30","02:00","14.5","","12.4","","87","","","","28","","5","","","","101.26","","","","","","NA"
"-124.43","49.49","SISTERS ISLAND","1027403","2019-05-30 03:00","2019","05","30","03:00","14.6","","12.7","","88","","","","29","","2","","","","101.28","","","","","","NA"
"-124.43","49.49","SISTERS ISLAND","1027403","2019-05-30 04:00","2019","05","30","04:00","14.4","","13.1","","92","","","","35","","4","","","","101.27","","","","","","NA"
"-124.43","49.49","SISTERS ISLAND","1027403","2019-05-30 05:00","2019","05","30","05:00","15.2","","14.0","","93","","","","33","","6","","","","101.31","","","","","","NA"
"-124.43","49.49","SISTERS ISLAND","1027403","2019-05-30 06:00","2019","05","30","06:00","16.4","","12.3","","77","","","","31","","13","","","","101.35","","","","","","NA"
"-124.43","49.49","SISTERS ISLAND","1027403","2019-05-30 07:00","2019","05","30","07:00","16.6","","10.6","","68","","","","34","","14","","","","101.38","","","","","","NA"
"-124.43","49.49","SISTERS ISLAND","1027403","2019-05-30 08:00","2019","05","30","08:00","16.4","","10.0","","66","","","","33","","11","","","","101.41","","","","","","NA"
"-124.43","49.49","SISTERS ISLAND","1027403","2019-05-30 09:00","2019","05","30","09:00","15.8","","10.1","","69","","","","32","","14","","","","101.42","","","","","","NA"
"-124.43","49.49","SISTERS ISLAND","1027403","2019-05-30 10:00","2019","05","30","10:00","16.0","","10.9","","72","","","","32","","12","","","","101.42","","","","","","NA"
"-124.43","49.49","SISTERS ISLAND","1027403","2019-05-30 11:00","2019","05","30","11:00","17.5","","9.7","","60","","","","31","","8","","","","101.40","","","","","","NA"
"-124.43","49.49","SISTERS ISLAND","1027403","2019-05-30 12:00","2019","05","30","12:00","18.2","","9.5","","57","","","","1","","6","","","","101.37","","","","","","NA"
"-124.43","49.49","SISTERS ISLAND","1027403","2019-05-30 13:00","2019","05","30","13:00","19.4","","10.6","","57","","","","30","","4","","","","101.33","","","","","","NA"
"-124.43","49.49","SISTERS ISLAND","1027403","2019-05-30 14:00","2019","05","30","14:00","18.2","","11.6","","65","","","","3","","2","","","","101.29","","","","","","NA"
"-124.43","49.49","SISTERS ISLAND","1027403","2019-05-30 15:00","2019","05","30","15:00","20.1","","11.7","","59","","","","32","","5","","","","101.23","","","","","","NA"
"-124.43","49.49","SISTERS ISLAND","1027403","2019-05-30 16:00","2019","05","30","16:00","19.8","","12.6","","63","","","","22","","3","","","","101.20","","","","","","NA"
"-124.43","49.49","SISTERS ISLAND","1027403","2019-05-30 17:00","2019","05","30","17:00","19.3","","12.7","","66","","","","16","","5","","","","101.16","","","","","","NA"
"-124.43","49.49","SISTERS ISLAND","1027403","2019-05-30 18:00","2019","05","30","18:00","18.7","","13.3","","71","","","","13","","10","","","","101.15","","","","","","NA"
"-124.43","49.49","SISTERS ISLAND","1027403","2019-05-30 19:00","2019","05","30","19:00","18.3","","13.2","","72","","","","12","","16","","","","101.15","","","","","","NA"
"-124.43","49.49","SISTERS ISLAND","1027403","2019-05-30 20:00","2019","05","30","20:00","18.2","","12.8","","71","","","","12","","17","","","","101.16","","","","","","NA"
"-124.43","49.49","SISTERS ISLAND","1027403","2019-05-30 21:00","2019","05","30","21:00","18.2","","13.2","","72","","","","12","","24","","","","101.23","","","","","","NA"
"-124.43","49.49","SISTERS ISLAND","1027403","2019-05-30 22:00","2019","05","30","22:00","18.1","","13.0","","72","","","","12","","25","","","","101.29","","","","","","NA"
"-124.43","49.49","SISTERS ISLAND","1027403","2019-05-30 23:00","2019","05","30","23:00","17.4","","12.8","","74","","","","11","","12","","","","101.34","","","","","","NA"
"-124.43","49.49","SISTERS ISLAND","1027403","2019-05-31 00:00","2019","05","31","00:00","16.5","","13.0","","80","","","","21","","2","","","","101.40","","","","","","NA"
"-124.43","49.49","SISTERS ISLAND","1027403","2019-05-31 01:00","2019","05","31","01:00","16.5","","15.0","","91","","","","22","","6","","","","101.45","","","","","","NA"
"-124.43","49.49","SISTERS ISLAND","1027403","2019-05-31 02:00","2019","05","31","02:00","16.1","","14.5","","90","","","","0","","1","","","","101.49","","","","","","NA"
"-124.43","49.49","SISTERS ISLAND","1027403","2019-05-31 03:00","2019","05","31","03:00","16.2","","13.9","","86","","","","31","","6","","","","101.53","","","","","","NA"
"-124.43","49.49","SISTERS ISLAND","1027403","2019-05-31 04:00","2019","05","31","04:00","16.4","","11.6","","73","","","","32","","20","","","","101.53","","","","","","NA"
"-124.43","49.49","SISTERS ISLAND","1027403","2019-05-31 05:00","2019","05","31","05:00","16.7","","9.7","","63","","","","32","","21","","","","101.56","","","","","","NA"
"-124.43","49.49","SISTERS ISLAND","1027403","2019-05-31 06:00","2019","05","31","06:00","17.3","","10.1","","63","","","","31","","18","","","","101.59","","","","","","NA"
"-124.43","49.49","SISTERS ISLAND","1027403","2019-05-31 07:00","2019","05","31","07:00","17.2","","9.4","","60","","","","31","","15","","","","101.61","","","","","","NA"
"-124.43","49.49","SISTERS ISLAND","1027403","2019-05-31 08:00","2019","05","31","08:00","16.9","","9.3","","61","","","","31","","15","","","","101.63","","","","","","NA"
"-124.43","49.49","SISTERS ISLAND","1027403","2019-05-31 09:00","2019","05","31","09:00","16.7","","10.0","","65","","","","32","","14","","","","101.63","","","","","","NA"
"-124.43","49.49","SISTERS ISLAND","1027403","2019-05-31 10:00","2019","05","31","10:00","17.6","","11.1","","66","","","","33","","10","","","","101.61","","","","","","NA"
"-124.43","49.49","SISTERS ISLAND","1027403","2019-05-31 11:00","2019","05","31","11:00","19.9","","12.0","","60","","","","33","","3","","","","101.60","","","","","","NA"
"-124.43","49.49","SISTERS ISLAND","1027403","2019-05-31 12:00","2019","05","31","12:00","18.9","","11.8","","63","","","","35","","4","","","","101.55","","","","","","NA"
"-124.43","49.49","SISTERS ISLAND","1027403","2019-05-31 13:00","2019","05","31","13:00","18.8","","12.6","","67","","","","15","","1","","","","101.49","","","","","","NA"
"-124.43","49.49","SISTERS ISLAND","1027403","2019-05-31 14:00","2019","05","31","14:00","18.3","","12.8","","70","","","","14","","9","","","","101.43","","","","","","NA"
"-124.43","49.49","SISTERS ISLAND","1027403","2019-05-31 15:00","2019","05","31","15:00","18.5","","13.6","","73","","","","16","","7","","","","101.36","","","","","","NA"
"-124.43","49.49","SISTERS ISLAND","1027403","2019-05-31 16:00","2019","05","31","16:00","18.8","","14.2","","74","","","","15","","6","","","","101.29","","","","","","NA"
"-124.43","49.49","SISTERS ISLAND","1027403","2019-05-31 17:00","2019","05","31","17:00","18.9","","14.5","","76","","","","14","","8","","","","101.23","","","","","","NA"
"-124.43","49.49","SISTERS ISLAND","1027403","2019-05-31 18:00","2019","05","31","18:00","18.6","","14.1","","75","","","","13","","6","","","","101.19","","","","","","NA"
"-124.43","49.49","SISTERS ISLAND","1027403","2019-05-31 19:00","2019","05","31","19:00","19.3","","13.4","","68","","","","13","","6","","","","101.18","","","","","","NA"
"-124.43","49.49","SISTERS ISLAND","1027403","2019-05-31 20:00","2019","05","31","20:00","18.1","","15.2","","83","","","","13","","17","","","","101.17","","","","","","NA"
"-124.43","49.49","SISTERS ISLAND","1027403","2019-05-31 21:00","2019","05","31","21:00","18.4","","13.4","","72","","","","12","","21","","","","101.20","","","","","","NA"
"-124.43","49.49","SISTERS ISLAND","1027403","2019-05-31 22:00","2019","05","31","22:00","18.8","","11.4","","62","","","","11","","18","","","","101.22","","","","","","NA"
"-124.43","49.49","SISTERS ISLAND","1027403","2019-05-31 23:00","2019","05","31","23:00","18.4","","11.3","","63","","","","12","","4","","","","101.29","","","","","","NA"
