"Longitude (x)","Latitude (y)","Station Name","Climate ID","Date/Time (LST)","Year","Month","Day","Time (LST)","Temp (°C)","Temp Flag","Dew Point Temp (°C)","Dew Point Temp Flag","Rel Hum (%)","Rel Hum Flag","Precip. Amount (mm)","Precip. Amount Flag","Wind Dir (10s deg)","Wind Dir Flag","Wind Spd (km/h)","Wind Spd Flag","Visibility (km)","Visibility Flag","Stn Press (kPa)","Stn Press Flag","Hmdx","Hmdx Flag","Wind Chill","Wind Chill Flag","Weather"
"-66.09","43.83","YARMOUTH A","8206495","2020-02-01 00:00","2020","02","01","00:00","1.0","","-1.5","","84","","","","23","","8","","24.1","","101.84","","","","","","NA"
"-66.09","43.83","YARMOUTH A","8206495","2020-02-01 01:00","2020","02","01","01:00","1.4","","-0.3","","89","","","","24","","11","","24.1","","101.77","","","","","","NA"
"-66.09","43.83","YARMOUTH A","8206495","2020-02-01 02:00","2020","02","01","02:00","1.5","","-0.4","","87","","","","24","","9","","24.1","","101.71","","","","","","Mostly Cloudy"
"-66.09","43.83","YARMOUTH A","8206495","2020-02-01 03:00","2020","02","01","03:00","1.1","","-0.7","","88","","","","22","","6","","24.1","","101.63","","","","","","NA"
"-66.09","43.83","YARMOUTH A","8206495","2020-02-01 04:00","2020","02","01","04:00","0.8","","-0.4","","92","","","","21","","9","","24.1","","101.58","","","","","","NA"
"-66.09","43.83","YARMOUTH A","8206495","2020-02-01 05:00","2020","02","01","05:00","2.0","","0.4","","89","","","","23","","15","","24.1","","101.69","","","","","","Mostly Cloudy"
"-66.09","43.83","YARMOUTH A","8206495","2020-02-01 06:00","2020","02","01","06:00","0.4","","-0.3","","95","","","","25","","8","","24.1","","101.63","","","","","","NA"
"-66.09","43.83","YARMOUTH A","8206495","2020-02-01 07:00","2020","02","01","07:00","-0.1","","-0.3","","99","","","","14","","9","","9.7","","101.49","","","","-3","","Fog"
"-66.09","43.83","YARMOUTH A","8206495","2020-02-01 08:00","2020","02","01","08:00","0.0","","-0.1","","99","","","","14","","9","","6.4","","101.48","","","","-3","","Snow Showers"
"-66.09","43.83","YARMOUTH A","8206495","2020-02-01 09:00","2020","02","01","09:00","0.1","","0.0","","99","","","","16","","12","","2.0","","101.42","","","","","","Fog"
"-66.09","43.83","YARMOUTH A","8206495","2020-02-01 10:00","2020","02","01","10:00","0.5","","0.5","","100","","","","15","","10","","4.0","","101.36","","","","","","Fog"
"-66.09","43.83","YARMOUTH A","8206495","2020-02-01 11:00","2020","02","01","11:00","1.2","","1.1","","99","","","","15","","12","","14.5","","101.33","","","","","","Cloudy"
"-66.09","43.83","YARMOUTH A","8206495","2020-02-01 12:00","2020","02","01","12:00","1.4","","1.1","","97","","","","13","","14","","16.1","","101.18","","","","","","NA"
"-66.09","43.83","YARMOUTH A","8206495","2020-02-01 13:00","2020","02","01","13:00","1.9","","1.2","","95","","","","11","","13","","24.1","","100.99","","","","","","NA"
"-66.09","43.83","YARMOUTH A","8206495","2020-02-01 14:00","2020","02","01","14:00","2.3","","1.0","","91","","","","10","","21","","24.1","","100.78","","","","","","Cloudy"
"-66.09","43.83","YARMOUTH A","8206495","2020-02-01 15:00","2020","02","01","15:00","2.2","","0.8","","90","","","","10","","24","","24.1","","100.56","","","","","","NA"
"-66.09","43.83","YARMOUTH A","8206495","2020-02-01 16:00","2020","02","01","16:00","2.2","","0.5","","89","","","","7","","18","","24.1","","100.49","","","","","","NA"
"-66.09","43.83","YARMOUTH A","8206495","2020-02-01 17:00","2020","02","01","17:00","2.1","","0.4","","88","","","","8","","11","","24.1","","100.47","","","","","","Cloudy"
"-66.09","43.83","YARMOUTH A","8206495","2020-02-01 18:00","2020","02","01","18:00","1.6","","0.0","","89","","","","9","","16","","24.1","","100.32","","","","","","NA"
"-66.09","43.83","YARMOUTH A","8206495","2020-02-01 19:00","2020","02","01","19:00","1.1","","-0.3","","90","","","","6","","14","","24.1","","100.23","","","","","","NA"
"-66.09","43.83","YARMOUTH A","8206495","2020-02-01 20:00","2020","02","01","20:00","1.0","","-0.4","","91","","","","5","","12","","24.1","","100.19","","","","","","Cloudy"
"-66.09","43.83","YARMOUTH A","8206495","2020-02-01 21:00","2020","02","01","21:00","0.9","","-0.5","","91","","","","6","","13","","24.1","","100.10","","","","","","NA"
"-66.09","43.83","YARMOUTH A","8206495","2020-02-01 22:00","2020","02","01","22:00","0.3","","-0.8","","92","","","","2","","13","","24.1","","99.95","","","","","","NA"
"-66.09","43.83","YARMOUTH A","8206495","2020-02-01 23:00","2020","02","01","23:00","0.3","","-0.9","","92","","","","3","","17","","24.1","","99.77","","","","","","Cloudy"
"-66.09","43.83","YARMOUTH A","8206495","2020-02-02 00:00","2020","02","02","00:00","0.6","","-0.9","","90","","","","2","","18","","24.1","","99.61","","","","","","NA"
"-66.09","43.83","YARMOUTH A","8206495","2020-02-02 01:00","2020","02","02","01:00","0.4","","-1.1","","90","","","","2","","17","","24.1","","99.50","","","","","","NA"
"-66.09","43.83","YARMOUTH A","8206495","2020-02-02 02:00","2020","02","02","02:00","-0.6","","-1.7","","92","","","","36","","17","","24.1","","99.46","","","","-6","","Mostly Cloudy"
"-66.09","43.83","YARMOUTH A","8206495","2020-02-02 03:00","2020","02","02","03:00","-1.4","","-2.4","","93","","","","35","","14","","24.1","","99.41","","","","-6","","NA"
"-66.09","43.83","YARMOUTH A","8206495","2020-02-02 04:00","2020","02","02","04:00","-0.8","","-2.2","","90","","","","34","","18","","24.1","","99.34","","","","-6","","NA"
"-66.09","43.83","YARMOUTH A","8206495","2020-02-02 05:00","2020","02","02","05:00","-0.6","","-1.9","","91","","","","35","","23","","24.1","","99.25","","","","-6","","Mostly Cloudy"
"-66.09","43.83","YARMOUTH A","8206495","2020-02-02 06:00","2020","02","02","06:00","0.3","","-1.3","","89","","","","35","","22","","24.1","","99.20","","","","","","NA"
"-66.09","43.83","YARMOUTH A","8206495","2020-02-02 07:00","2020","02","02","07:00","0.6","","-1.4","","87","","","","35","","24","","24.1","","99.22","","","","","","NA"
"-66.09","43.83","YARMOUTH A","8206495","2020-02-02 08:00","2020","02","02","08:00","0.5","","-1.4","","87","","","","35","","19","","24.1","","99.20","","","","","","Mostly Cloudy"
"-66.09","43.83","YARMOUTH A","8206495","2020-02-02 09:00","2020","02","02","09:00","0.8","","-1.6","","84","","","","36","","14","","24.1","","99.20","","","","","","NA"
"-66.09","43.83","YARMOUTH A","8206495","2020-02-02 10:00","2020","02","02","10:00","1.2","","-1.9","","80","","","","35","","15","","24.1","","99.15","","","","","","NA"
"-66.09","43.83","YARMOUTH A","8206495","2020-02-02 11:00","2020","02","02","11:00","1.9","","-1.9","","76","","","","33","","17","","24.1","","99.13","","","","","","Mostly Cloudy"
"-66.09","43.83","YARMOUTH A","8206495","2020-02-02 12:00","2020","02","02","12:00","1.7","","-1.7","","78","","","","33","","21","","24.1","","99.08","","","","","","NA"
"-66.09","43.83","YARMOUTH A","8206495","2020-02-02 13:00","2020","02","02","13:00","1.5","","-2.9","","72","","","","33","","30","","24.1","","98.99","","","","","","NA"
"-66.09","43.83","YARMOUTH A","8206495","2020-02-02 14:00","2020","02","02","14:00","1.8","","-2.6","","72","","","","35","","28","","24.1","","98.96","","","","","","Mostly Cloudy"
"-66.09","43.83","YARMOUTH A","8206495","2020-02-02 15:00","2020","02","02","15:00","0.7","","-2.9","","77","","","","33","","15","","24.1","","98.94","","","","","","NA"
"-66.09","43.83","YARMOUTH A","8206495","2020-02-02 16:00","2020","02","02","16:00","0.2","","-3.4","","76","","","","35","","22","","24.1","","98.99","","","","","","NA"
"-66.09","43.83","YARMOUTH A","8206495","2020-02-02 17:00","2020","02","02","17:00","-0.2","","-4.4","","73","","","","34","","18","","24.1","","99.02","","","","-5","","Mostly Cloudy"
"-66.09","43.83","YARMOUTH A","8206495","2020-02-02 18:00","2020","02","02","18:00","-0.5","","-4.7","","73","","","","35","","14","","24.1","","99.08","","","","-5","","NA"
"-66.09","43.83","YARMOUTH A","8206495","2020-02-02 19:00","2020","02","02","19:00","-0.7","","-4.8","","74","","","","36","","9","","24.1","","99.09","","","","-4","","NA"
"-66.09","43.83","YARMOUTH A","8206495","2020-02-02 20:00","2020","02","02","20:00","0.4","","-5.0","","67","","","","33","","17","","24.1","","99.11","","","","","","Cloudy"
"-66.09","43.83","YARMOUTH A","8206495","2020-02-02 21:00","2020","02","02","21:00","0.1","","-4.6","","70","","","","33","","12","","24.1","","99.18","","","","","","NA"
"-66.09","43.83","YARMOUTH A","8206495","2020-02-02 22:00","2020","02","02","22:00","0.2","","-5.8","","64","","","","32","","19","","24.1","","99.20","","","","","","NA"
"-66.09","43.83","YARMOUTH A","8206495","2020-02-02 23:00","2020","02","02","23:00","0.1","","-6.2","","62","","","","31","","21","","24.1","","99.23","","","","","","Cloudy"
"-66.09","43.83","YARMOUTH A","8206495","2020-02-03 00:00","2020","02","03","00:00","-0.4","","-6.4","","64","","","","31","","13","","24.1","","99.25","","","","-5","","NA"
"-66.09","43.83","YARMOUTH A","8206495","2020-02-03 01:00","2020","02","03","01:00","0.2","","-5.7","","65","","","","30","","18","","24.1","","99.26","","","","","","NA"
"-66.09","43.83","YARMOUTH A","8206495","2020-02-03 02:00","2020","02","03","02:00","-0.1","","-5.8","","65","","","","31","","17","","24.1","","99.27","","","","-5","","Mostly Cloudy"
"-66.09","43.83","YARMOUTH A","8206495","2020-02-03 03:00","2020","02","03","03:00","-0.2","","-5.3","","68","","","","32","","17","","24.1","","99.28","","","","-5","","NA"
"-66.09","43.83","YARMOUTH A","8206495","2020-02-03 04:00","2020","02","03","04:00","-0.6","","-5.4","","70","","","","31","","19","","24.1","","99.31","","","","-6","","NA"
"-66.09","43.83","YARMOUTH A","8206495","2020-02-03 05:00","2020","02","03","05:00","-0.4","","-5.6","","68","","","","32","","21","","24.1","","99.39","","","","-6","","Cloudy"
"-66.09","43.83","YARMOUTH A","8206495","2020-02-03 06:00","2020","02","03","06:00","-0.6","","-6.2","","66","","","","33","","19","","24.1","","99.47","","","","-6","","NA"
"-66.09","43.83","YARMOUTH A","8206495","2020-02-03 07:00","2020","02","03","07:00","-0.9","","-6.2","","67","","","","32","","13","","24.1","","99.54","","","","-5","","NA"
"-66.09","43.83","YARMOUTH A","8206495","2020-02-03 08:00","2020","02","03","08:00","-0.8","","-5.9","","69","","","","32","","21","","24.1","","99.64","","","","-6","","Mainly Clear"
"-66.09","43.83","YARMOUTH A","8206495","2020-02-03 09:00","2020","02","03","09:00","0.6","","-5.3","","65","","","","30","","17","","24.1","","99.74","","","","","","NA"
"-66.09","43.83","YARMOUTH A","8206495","2020-02-03 10:00","2020","02","03","10:00","1.6","","-5.1","","61","","","","29","","27","","24.1","","99.79","","","","","","NA"
"-66.09","43.83","YARMOUTH A","8206495","2020-02-03 11:00","2020","02","03","11:00","1.5","","-4.3","","65","","","","30","","23","","24.1","","99.87","","","","","","Mostly Cloudy"
"-66.09","43.83","YARMOUTH A","8206495","2020-02-03 12:00","2020","02","03","12:00","2.7","","-5.4","","55","","","","31","","31","","24.1","","99.88","","","","","","NA"
"-66.09","43.83","YARMOUTH A","8206495","2020-02-03 13:00","2020","02","03","13:00","1.9","","-5.2","","59","","","","30","","28","","24.1","","99.87","","","","","","NA"
"-66.09","43.83","YARMOUTH A","8206495","2020-02-03 14:00","2020","02","03","14:00","3.3","","-4.1","","58","","","","29","","28","","24.1","","99.84","","","","","","Mostly Cloudy"
"-66.09","43.83","YARMOUTH A","8206495","2020-02-03 15:00","2020","02","03","15:00","2.1","","-5.6","","57","","","","30","","30","","24.1","","99.95","","","","","","NA"
"-66.09","43.83","YARMOUTH A","8206495","2020-02-03 16:00","2020","02","03","16:00","2.8","","-3.8","","62","","","","28","","30","","24.1","","100.02","","","","","","NA"
"-66.09","43.83","YARMOUTH A","8206495","2020-02-03 17:00","2020","02","03","17:00","2.3","","-3.9","","64","","","","29","","26","","24.1","","100.06","","","","","","Mainly Clear"
"-66.09","43.83","YARMOUTH A","8206495","2020-02-03 18:00","2020","02","03","18:00","1.9","","-2.9","","70","","","","28","","24","","24.1","","100.17","","","","","","NA"
"-66.09","43.83","YARMOUTH A","8206495","2020-02-03 19:00","2020","02","03","19:00","1.8","","-1.3","","79","","","","27","","17","","24.1","","100.27","","","","","","NA"
"-66.09","43.83","YARMOUTH A","8206495","2020-02-03 20:00","2020","02","03","20:00","2.6","","-0.3","","81","","","","26","","21","","24.1","","100.33","","","","","","Mainly Clear"
"-66.09","43.83","YARMOUTH A","8206495","2020-02-03 21:00","2020","02","03","21:00","3.5","","0.0","","78","","","","27","","21","","24.1","","100.33","","","","","","NA"
"-66.09","43.83","YARMOUTH A","8206495","2020-02-03 22:00","2020","02","03","22:00","3.7","","0.9","","82","","","","27","","22","","24.1","","100.36","","","","","","NA"
"-66.09","43.83","YARMOUTH A","8206495","2020-02-03 23:00","2020","02","03","23:00","3.8","","0.9","","81","","","","26","","23","","24.1","","100.36","","","","","","Cloudy"
"-66.09","43.83","YARMOUTH A","8206495","2020-02-04 00:00","2020","02","04","00:00","4.0","","1.4","","83","","","","28","","29","","24.1","","100.34","","","","","","NA"
"-66.09","43.83","YARMOUTH A","8206495","2020-02-04 01:00","2020","02","04","01:00","3.5","","-1.1","","72","","","","31","","26","","24.1","","100.38","","","","","","NA"
"-66.09","43.83","YARMOUTH A","8206495","2020-02-04 02:00","2020","02","04","02:00","3.5","","-1.7","","69","","","","31","","28","","24.1","","100.46","","","","","","Mainly Clear"
"-66.09","43.83","YARMOUTH A","8206495","2020-02-04 03:00","2020","02","04","03:00","3.5","","-2.1","","67","","","","30","","26","","24.1","","100.51","","","","","","NA"
"-66.09","43.83","YARMOUTH A","8206495","2020-02-04 04:00","2020","02","04","04:00","3.2","","-1.6","","71","","","","31","","21","","24.1","","100.54","","","","","","NA"
"-66.09","43.83","YARMOUTH A","8206495","2020-02-04 05:00","2020","02","04","05:00","3.2","","-2.5","","66","","","","31","","23","","24.1","","100.58","","","","","","Cloudy"
"-66.09","43.83","YARMOUTH A","8206495","2020-02-04 06:00","2020","02","04","06:00","3.0","","-2.4","","68","","","","32","","25","","24.1","","100.64","","","","","","NA"
"-66.09","43.83","YARMOUTH A","8206495","2020-02-04 07:00","2020","02","04","07:00","1.0","","-2.4","","78","","","","34","","14","","24.1","","100.69","","","","","","NA"
"-66.09","43.83","YARMOUTH A","8206495","2020-02-04 08:00","2020","02","04","08:00","1.1","","-3.5","","72","","","","34","","13","","24.1","","100.72","","","","","","Mostly Cloudy"
"-66.09","43.83","YARMOUTH A","8206495","2020-02-04 09:00","2020","02","04","09:00","1.8","","-2.8","","72","","","","34","","10","","24.1","","100.79","","","","","","NA"
"-66.09","43.83","YARMOUTH A","8206495","2020-02-04 10:00","2020","02","04","10:00","3.0","","-2.3","","68","","","","35","","13","","24.1","","100.78","","","","","","NA"
"-66.09","43.83","YARMOUTH A","8206495","2020-02-04 11:00","2020","02","04","11:00","3.2","","-3.4","","62","","","","34","","5","","24.1","","100.78","","","","","","Mostly Cloudy"
"-66.09","43.83","YARMOUTH A","8206495","2020-02-04 12:00","2020","02","04","12:00","4.4","","-3.6","","56","","","","33","","6","","24.1","","100.70","","","","","","NA"
"-66.09","43.83","YARMOUTH A","8206495","2020-02-04 13:00","2020","02","04","13:00","2.9","","-4.3","","59","","","","26","","9","","24.1","","100.60","","","","","","NA"
"-66.09","43.83","YARMOUTH A","8206495","2020-02-04 14:00","2020","02","04","14:00","2.7","","-3.4","","64","","","","21","","7","","24.1","","100.55","","","","","","Cloudy"
"-66.09","43.83","YARMOUTH A","8206495","2020-02-04 15:00","2020","02","04","15:00","2.4","","-2.4","","70","","","","21","","10","","24.1","","100.51","","","","","","NA"
"-66.09","43.83","YARMOUTH A","8206495","2020-02-04 16:00","2020","02","04","16:00","2.0","","-2.5","","72","","","","18","","7","","24.1","","100.43","","","","","","NA"
"-66.09","43.83","YARMOUTH A","8206495","2020-02-04 17:00","2020","02","04","17:00","1.9","","-2.2","","74","","","","16","","7","","24.1","","100.40","","","","","","Cloudy"
"-66.09","43.83","YARMOUTH A","8206495","2020-02-04 18:00","2020","02","04","18:00","1.8","","-2.0","","76","","","","16","","10","","24.1","","100.37","","","","","","NA"
"-66.09","43.83","YARMOUTH A","8206495","2020-02-04 19:00","2020","02","04","19:00","1.9","","-2.3","","74","","","","12","","5","","24.1","","100.37","","","","","","NA"
"-66.09","43.83","YARMOUTH A","8206495","2020-02-04 20:00","2020","02","04","20:00","1.8","","-1.9","","76","","","","14","","7","","24.1","","100.34","","","","","","Cloudy"
"-66.09","43.83","YARMOUTH A","8206495","2020-02-04 21:00","2020","02","04","21:00","1.8","","-1.9","","76","","","","11","","4","","24.1","","100.34","","","","","","NA"
"-66.09","43.83","YARMOUTH A","8206495","2020-02-04 22:00","2020","02","04","22:00","1.4","","-1.3","","82","","","","7","","7","","19.3","","100.37","","","","","","NA"
"-66.09","43.83","YARMOUTH A","8206495","2020-02-04 23:00","2020","02","04","23:00","1.4","","-1.6","","80","","","","10","","6","","19.3","","100.30","","","","","","Cloudy"
"-66.09","43.83","YARMOUTH A","8206495","2020-02-05 00:00","2020","02","05","00:00","1.2","","-1.6","","82","","","","9","","5","","19.3","","100.20","","","","","","NA"
"-66.09","43.83","YARMOUTH A","8206495","2020-02-05 01:00","2020","02","05","01:00","0.6","","-2.3","","81","","","","36","","1","","19.3","","100.21","","","","","","NA"
"-66.09","43.83","YARMOUTH A","8206495","2020-02-05 02:00","2020","02","05","02:00","0.3","","-2.6","","81","","","","23","","3","","19.3","","100.19","","","","","","Cloudy"
"-66.09","43.83","YARMOUTH A","8206495","2020-02-05 03:00","2020","02","05","03:00","0.4","","-2.0","","83","","","","23","","7","","19.3","","100.21","","","","","","NA"
"-66.09","43.83","YARMOUTH A","8206495","2020-02-05 04:00","2020","02","05","04:00","1.9","","0.9","","93","","","","28","","9","","19.3","","100.20","","","","","","NA"
"-66.09","43.83","YARMOUTH A","8206495","2020-02-05 05:00","2020","02","05","05:00","3.2","","1.4","","88","","","","31","","20","","14.5","","100.21","","","","","","Cloudy"
"-66.09","43.83","YARMOUTH A","8206495","2020-02-05 06:00","2020","02","05","06:00","2.7","","-1.0","","77","","","","33","","23","","14.5","","100.36","","","","","","NA"
"-66.09","43.83","YARMOUTH A","8206495","2020-02-05 07:00","2020","02","05","07:00","2.3","","-2.4","","71","","","","34","","19","","14.5","","100.46","","","","","","NA"
"-66.09","43.83","YARMOUTH A","8206495","2020-02-05 08:00","2020","02","05","08:00","2.0","","-3.9","","65","","","","31","","31","","14.5","","100.60","","","","","","Cloudy"
"-66.09","43.83","YARMOUTH A","8206495","2020-02-05 09:00","2020","02","05","09:00","1.6","","-2.6","","74","","","","33","","21","","19.3","","100.64","","","","","","Snow Showers"
"-66.09","43.83","YARMOUTH A","8206495","2020-02-05 10:00","2020","02","05","10:00","2.5","","-3.1","","66","","","","32","","31","","24.1","","100.70","","","","","","NA"
"-66.09","43.83","YARMOUTH A","8206495","2020-02-05 11:00","2020","02","05","11:00","2.2","","-5.0","","59","","","","33","","36","","24.1","","100.75","","","","","","Mostly Cloudy"
"-66.09","43.83","YARMOUTH A","8206495","2020-02-05 12:00","2020","02","05","12:00","0.9","","-5.2","","64","","","","34","","33","","24.1","","100.81","","","","","","Snow Showers"
"-66.09","43.83","YARMOUTH A","8206495","2020-02-05 13:00","2020","02","05","13:00","-0.1","","-6.5","","62","","","","35","","35","","24.1","","100.89","","","","-7","","Snow Showers"
"-66.09","43.83","YARMOUTH A","8206495","2020-02-05 14:00","2020","02","05","14:00","-0.3","","-8.6","","54","","","","33","","30","","24.1","","100.82","","","","-7","","Mostly Cloudy"
"-66.09","43.83","YARMOUTH A","8206495","2020-02-05 15:00","2020","02","05","15:00","-0.1","","-9.2","","50","","","","34","","31","","24.1","","100.94","","","","-7","","NA"
"-66.09","43.83","YARMOUTH A","8206495","2020-02-05 16:00","2020","02","05","16:00","-0.4","","-10.2","","48","","","","33","","31","","24.1","","101.01","","","","-7","","NA"
"-66.09","43.83","YARMOUTH A","8206495","2020-02-05 17:00","2020","02","05","17:00","-1.2","","-11.6","","45","","","","34","","31","","24.1","","101.09","","","","-8","","Mainly Clear"
"-66.09","43.83","YARMOUTH A","8206495","2020-02-05 18:00","2020","02","05","18:00","-2.2","","-12.0","","47","","","","33","","22","","24.1","","101.19","","","","-8","","NA"
"-66.09","43.83","YARMOUTH A","8206495","2020-02-05 19:00","2020","02","05","19:00","-2.3","","-11.8","","49","","","","32","","14","","24.1","","101.27","","","","-7","","NA"
"-66.09","43.83","YARMOUTH A","8206495","2020-02-05 20:00","2020","02","05","20:00","-1.9","","-12.4","","45","","","","34","","16","","24.1","","101.36","","","","-7","","Mainly Clear"
"-66.09","43.83","YARMOUTH A","8206495","2020-02-05 21:00","2020","02","05","21:00","-2.6","","-12.8","","46","","","","33","","12","","24.1","","101.45","","","","-7","","NA"
"-66.09","43.83","YARMOUTH A","8206495","2020-02-05 22:00","2020","02","05","22:00","-3.2","","-12.8","","48","","","","35","","7","","24.1","","101.48","","","","-6","","NA"
"-66.09","43.83","YARMOUTH A","8206495","2020-02-05 23:00","2020","02","05","23:00","-3.2","","-12.9","","47","","","","4","","4","","24.1","","101.51","","","","-5","","Mostly Cloudy"
"-66.09","43.83","YARMOUTH A","8206495","2020-02-06 00:00","2020","02","06","00:00","-4.9","","-12.2","","57","","","","1","","5","","24.1","","101.50","","","","-7","","NA"
"-66.09","43.83","YARMOUTH A","8206495","2020-02-06 01:00","2020","02","06","01:00","-5.1","","-11.8","","60","","","","10","","4","","24.1","","101.46","","","","-7","","NA"
"-66.09","43.83","YARMOUTH A","8206495","2020-02-06 02:00","2020","02","06","02:00","-5.2","","-10.7","","65","","","","10","","4","","24.1","","101.53","","","","-7","","Cloudy"
"-66.09","43.83","YARMOUTH A","8206495","2020-02-06 03:00","2020","02","06","03:00","-5.1","","-10.1","","68","","","","7","","9","","24.1","","101.48","","","","-9","","NA"
"-66.09","43.83","YARMOUTH A","8206495","2020-02-06 04:00","2020","02","06","04:00","-4.7","","-10.6","","64","","","","11","","10","","24.1","","101.38","","","","-9","","NA"
"-66.09","43.83","YARMOUTH A","8206495","2020-02-06 05:00","2020","02","06","05:00","-4.5","","-10.5","","63","","","","9","","12","","24.1","","101.29","","","","-9","","Cloudy"
"-66.09","43.83","YARMOUTH A","8206495","2020-02-06 06:00","2020","02","06","06:00","-4.2","","-10.7","","61","","","","10","","7","","24.1","","101.31","","","","-7","","NA"
"-66.09","43.83","YARMOUTH A","8206495","2020-02-06 07:00","2020","02","06","07:00","-3.8","","-10.4","","61","","","","10","","9","","24.1","","101.42","","","","-8","","NA"
"-66.09","43.83","YARMOUTH A","8206495","2020-02-06 08:00","2020","02","06","08:00","-3.9","","-9.8","","64","","","","9","","17","","19.3","","101.30","","","","-10","","Cloudy"
"-66.09","43.83","YARMOUTH A","8206495","2020-02-06 09:00","2020","02","06","09:00","-3.5","","-9.1","","65","","","","12","","10","","19.3","","101.36","","","","-7","","NA"
"-66.09","43.83","YARMOUTH A","8206495","2020-02-06 10:00","2020","02","06","10:00","-3.8","","-5.0","","91","","","","10","","16","","1.6","","101.22","","","","-9","","Snow"
"-66.09","43.83","YARMOUTH A","8206495","2020-02-06 11:00","2020","02","06","11:00","-3.2","","-4.2","","93","","","","12","","16","","1.6","","101.15","","","","-9","","Snow"
"-66.09","43.83","YARMOUTH A","8206495","2020-02-06 12:00","2020","02","06","12:00","-2.5","","-3.5","","93","","","","13","","18","","3.2","","100.98","","","","-8","","Snow,Ice Pellets"
"-66.09","43.83","YARMOUTH A","8206495","2020-02-06 13:00","2020","02","06","13:00","-2.2","","-3.1","","94","","","","12","","21","","4.8","","100.68","","","","-8","","Freezing Rain"
"-66.09","43.83","YARMOUTH A","8206495","2020-02-06 14:00","2020","02","06","14:00","-1.8","","-2.7","","94","","","","10","","21","","19.3","","100.45","","","","-8","","Mostly Cloudy"
"-66.09","43.83","YARMOUTH A","8206495","2020-02-06 15:00","2020","02","06","15:00","-1.2","","-1.9","","95","","","","8","","16","","3.2","","100.34","","","","-6","","Freezing Rain,Fog"
"-66.09","43.83","YARMOUTH A","8206495","2020-02-06 16:00","2020","02","06","16:00","-1.0","","-1.4","","96","","","","9","","20","","2.4","","100.29","","","","-7","","Freezing Rain,Fog"
"-66.09","43.83","YARMOUTH A","8206495","2020-02-06 17:00","2020","02","06","17:00","-1.0","","-1.5","","97","","","","8","","17","","2.4","","100.26","","","","-6","","Freezing Rain,Fog"
"-66.09","43.83","YARMOUTH A","8206495","2020-02-06 18:00","2020","02","06","18:00","-0.9","","-1.3","","97","","","","8","","23","","3.2","","100.13","","","","-7","","Freezing Rain,Fog"
"-66.09","43.83","YARMOUTH A","8206495","2020-02-06 19:00","2020","02","06","19:00","-0.6","","-1.1","","97","","","","8","","26","","4.8","","100.01","","","","-7","","Freezing Rain,Fog"
"-66.09","43.83","YARMOUTH A","8206495","2020-02-06 20:00","2020","02","06","20:00","-0.2","","-0.7","","97","","","","9","","25","","8.1","","99.91","","","","-6","","Freezing Rain,Fog"
"-66.09","43.83","YARMOUTH A","8206495","2020-02-06 21:00","2020","02","06","21:00","0.0","","-0.5","","96","","","","8","","28","","14.5","","99.76","","","","-6","","Freezing Rain"
"-66.09","43.83","YARMOUTH A","8206495","2020-02-06 22:00","2020","02","06","22:00","0.1","","-0.4","","96","","","","9","","27","","11.3","","99.67","","","","","","Freezing Rain"
"-66.09","43.83","YARMOUTH A","8206495","2020-02-06 23:00","2020","02","06","23:00","0.1","","-0.3","","97","","","","10","","27","","11.3","","99.61","","","","","","Freezing Rain"
"-66.09","43.83","YARMOUTH A","8206495","2020-02-07 00:00","2020","02","07","00:00","0.1","","-0.3","","97","","","","9","","24","","14.5","","99.45","","","","","","Freezing Rain"
"-66.09","43.83","YARMOUTH A","8206495","2020-02-07 01:00","2020","02","07","01:00","0.1","","-0.2","","97","","","","9","","23","","11.3","","99.39","","","","","","Freezing Rain"
"-66.09","43.83","YARMOUTH A","8206495","2020-02-07 02:00","2020","02","07","02:00","0.1","","-0.2","","98","","","","8","","22","","14.5","","99.27","","","","","","Freezing Drizzle"
"-66.09","43.83","YARMOUTH A","8206495","2020-02-07 03:00","2020","02","07","03:00","0.2","","-0.1","","98","","","","9","","22","","11.3","","99.22","","","","","","Freezing Drizzle"
"-66.09","43.83","YARMOUTH A","8206495","2020-02-07 04:00","2020","02","07","04:00","0.2","","-0.1","","98","","","","9","","23","","14.5","","99.11","","","","","","Freezing Drizzle"
"-66.09","43.83","YARMOUTH A","8206495","2020-02-07 05:00","2020","02","07","05:00","0.3","","0.0","","98","","","","9","","18","","14.5","","99.11","","","","","","Freezing Drizzle"
"-66.09","43.83","YARMOUTH A","8206495","2020-02-07 06:00","2020","02","07","06:00","0.2","","-0.1","","98","","","","7","","17","","6.4","","99.06","","","","","","Rain"
"-66.09","43.83","YARMOUTH A","8206495","2020-02-07 07:00","2020","02","07","07:00","0.2","","0.0","","98","","","","9","","17","","8.1","","99.07","","","","","","Rain"
"-66.09","43.83","YARMOUTH A","8206495","2020-02-07 08:00","2020","02","07","08:00","0.3","","0.0","","98","","","","10","","25","","14.5","","98.92","","","","","","Rain"
"-66.09","43.83","YARMOUTH A","8206495","2020-02-07 09:00","2020","02","07","09:00","0.4","","0.1","","98","","","","11","","24","","14.5","","98.82","","","","","","Rain"
"-66.09","43.83","YARMOUTH A","8206495","2020-02-07 10:00","2020","02","07","10:00","0.6","","0.3","","98","","","","12","","22","","24.1","","98.84","","","","","","Rain"
"-66.09","43.83","YARMOUTH A","8206495","2020-02-07 11:00","2020","02","07","11:00","0.6","","0.4","","99","","","","11","","27","","4.8","","98.50","","","","","","Rain,Fog"
"-66.09","43.83","YARMOUTH A","8206495","2020-02-07 12:00","2020","02","07","12:00","1.3","","1.1","","99","","","","11","","16","","1.6","","98.49","","","","","","Drizzle,Fog"
"-66.09","43.83","YARMOUTH A","8206495","2020-02-07 13:00","2020","02","07","13:00","1.5","","1.4","","99","","","","10","","28","","1.6","","98.14","","","","","","Rain,Fog"
"-66.09","43.83","YARMOUTH A","8206495","2020-02-07 14:00","2020","02","07","14:00","2.0","","2.0","","100","","","","10","","18","","1.2","","97.98","","","","","","Rain,Fog"
"-66.09","43.83","YARMOUTH A","8206495","2020-02-07 15:00","2020","02","07","15:00","5.2","","5.2","","100","","","","12","","23","","0.4","","97.68","","","","","","Rain Showers,Fog"
"-66.09","43.83","YARMOUTH A","8206495","2020-02-07 16:00","2020","02","07","16:00","9.7","","9.7","","100","","","","19","","41","","0.4","","97.49","","","","","","Rain Showers,Fog"
"-66.09","43.83","YARMOUTH A","8206495","2020-02-07 17:00","2020","02","07","17:00","10.7","","10.7","","100","","","","21","","40","","4.8","","97.39","","","","","","Rain Showers,Fog"
"-66.09","43.83","YARMOUTH A","8206495","2020-02-07 18:00","2020","02","07","18:00","9.7","","9.3","","98","","","","20","","45","","4.8","","97.25","","","","","","Rain Showers,Fog"
"-66.09","43.83","YARMOUTH A","8206495","2020-02-07 19:00","2020","02","07","19:00","9.3","","7.3","","87","","","","21","","47","","14.5","","97.12","","","","","","NA"
"-66.09","43.83","YARMOUTH A","8206495","2020-02-07 20:00","2020","02","07","20:00","8.0","","5.6","","85","","","","22","","63","","8.1","","97.13","","","","","","Fog"
"-66.09","43.83","YARMOUTH A","8206495","2020-02-07 21:00","2020","02","07","21:00","5.4","","2.5","","82","","","","23","","74","","4.0","","97.29","","","","","","Rain Showers,Fog"
"-66.09","43.83","YARMOUTH A","8206495","2020-02-07 22:00","2020","02","07","22:00","2.9","","-0.1","","81","","","","25","","68","","6.4","","97.64","","","","","","Fog"
"-66.09","43.83","YARMOUTH A","8206495","2020-02-07 23:00","2020","02","07","23:00","0.2","","-3.0","","79","","","","27","","58","","14.5","","98.04","","","","","","Cloudy"
"-66.09","43.83","YARMOUTH A","8206495","2020-02-08 00:00","2020","02","08","00:00","-0.7","","-4.3","","77","","","","28","","49","","14.5","","98.34","","","","-9","","NA"
"-66.09","43.83","YARMOUTH A","8206495","2020-02-08 01:00","2020","02","08","01:00","-0.4","","-4.4","","74","","","","29","","40","","14.5","","98.60","","","","-8","","NA"
"-66.09","43.83","YARMOUTH A","8206495","2020-02-08 02:00","2020","02","08","02:00","-1.9","","-5.0","","79","","","","31","","33","","14.5","","98.84","","","","-9","","Cloudy"
"-66.09","43.83","YARMOUTH A","8206495","2020-02-08 03:00","2020","02","08","03:00","-2.8","","-6.3","","77","","","","31","","40","","14.5","","99.03","","","","-11","","NA"
"-66.09","43.83","YARMOUTH A","8206495","2020-02-08 04:00","2020","02","08","04:00","-3.6","","-7.4","","75","","","","31","","40","","14.5","","99.26","","","","-12","","NA"
"-66.09","43.83","YARMOUTH A","8206495","2020-02-08 05:00","2020","02","08","05:00","-3.8","","-8.6","","70","","","","31","","37","","11.3","","99.52","","","","-12","","Snow Showers"
"-66.09","43.83","YARMOUTH A","8206495","2020-02-08 06:00","2020","02","08","06:00","-4.3","","-8.3","","73","","","","32","","36","","8.1","","99.75","","","","-13","","Snow Showers"
"-66.09","43.83","YARMOUTH A","8206495","2020-02-08 07:00","2020","02","08","07:00","-4.2","","-8.8","","71","","","","30","","35","","8.1","","99.98","","","","-13","","Snow"
"-66.09","43.83","YARMOUTH A","8206495","2020-02-08 08:00","2020","02","08","08:00","-4.2","","-9.0","","69","","","","30","","31","","9.7","","100.20","","","","-12","","Snow Showers"
"-66.09","43.83","YARMOUTH A","8206495","2020-02-08 09:00","2020","02","08","09:00","-4.5","","-9.8","","67","","","","31","","43","","9.7","","100.50","","","","-14","","Snow Showers"
"-66.09","43.83","YARMOUTH A","8206495","2020-02-08 10:00","2020","02","08","10:00","-3.8","","-8.3","","71","","","","31","","35","","6.4","","100.66","","","","-12","","Snow Showers"
"-66.09","43.83","YARMOUTH A","8206495","2020-02-08 11:00","2020","02","08","11:00","-4.1","","-6.4","","84","","","","31","","22","","1.2","","100.76","","","","-11","","Snow Showers"
"-66.09","43.83","YARMOUTH A","8206495","2020-02-08 12:00","2020","02","08","12:00","-3.6","","-6.6","","80","","","","29","","34","","3.2","","100.83","","","","-12","","Snow Showers"
"-66.09","43.83","YARMOUTH A","8206495","2020-02-08 13:00","2020","02","08","13:00","-3.4","","-7.9","","71","","","","30","","25","","16.1","","100.87","","","","-10","","Snow Showers"
"-66.09","43.83","YARMOUTH A","8206495","2020-02-08 14:00","2020","02","08","14:00","-3.4","","-8.4","","69","","","","29","","25","","16.1","","100.88","","","","-10","","Snow Showers"
"-66.09","43.83","YARMOUTH A","8206495","2020-02-08 15:00","2020","02","08","15:00","-3.0","","-7.6","","71","","","","28","","28","","19.3","","100.95","","","","-10","","Snow Showers"
"-66.09","43.83","YARMOUTH A","8206495","2020-02-08 16:00","2020","02","08","16:00","-3.2","","-5.6","","84","","","","28","","24","","1.6","","101.00","","","","-10","","Snow Showers"
"-66.09","43.83","YARMOUTH A","8206495","2020-02-08 17:00","2020","02","08","17:00","-3.4","","-9.9","","61","","","","28","","33","","19.3","","101.10","","","","-11","","Snow Showers"
"-66.09","43.83","YARMOUTH A","8206495","2020-02-08 18:00","2020","02","08","18:00","-3.6","","-9.1","","66","","","","29","","26","","12.9","","101.20","","","","-11","","Snow Showers"
"-66.09","43.83","YARMOUTH A","8206495","2020-02-08 19:00","2020","02","08","19:00","-4.7","","-6.4","","88","","","","29","","36","","1.6","","101.38","","","","-13","","Snow Showers"
"-66.09","43.83","YARMOUTH A","8206495","2020-02-08 20:00","2020","02","08","20:00","-3.8","","-8.6","","69","","","","30","","36","","9.7","","101.55","","","","-12","","Snow Showers"
"-66.09","43.83","YARMOUTH A","8206495","2020-02-08 21:00","2020","02","08","21:00","-4.9","","-11.9","","58","","","","31","","45","","24.1","","101.68","","","","-14","","NA"
"-66.09","43.83","YARMOUTH A","8206495","2020-02-08 22:00","2020","02","08","22:00","-5.9","","-12.2","","61","","","","31","","39","","24.1","","101.85","","","","-15","","NA"
"-66.09","43.83","YARMOUTH A","8206495","2020-02-08 23:00","2020","02","08","23:00","-6.8","","-13.1","","61","","","","31","","28","","24.1","","102.01","","","","-15","","Mostly Cloudy"
"-66.09","43.83","YARMOUTH A","8206495","2020-02-09 00:00","2020","02","09","00:00","-7.6","","-13.2","","64","","","","31","","27","","24.1","","102.15","","","","-16","","NA"
"-66.09","43.83","YARMOUTH A","8206495","2020-02-09 01:00","2020","02","09","01:00","-8.0","","-12.7","","69","","","","33","","22","","24.1","","102.26","","","","-16","","NA"
"-66.09","43.83","YARMOUTH A","8206495","2020-02-09 02:00","2020","02","09","02:00","-8.3","","-12.7","","71","","","","33","","24","","16.1","","102.37","","","","-16","","Snow Showers"
"-66.09","43.83","YARMOUTH A","8206495","2020-02-09 03:00","2020","02","09","03:00","-8.7","","-13.4","","69","","","","33","","25","","16.1","","102.47","","","","-17","","NA"
"-66.09","43.83","YARMOUTH A","8206495","2020-02-09 04:00","2020","02","09","04:00","-8.9","","-13.7","","68","","","","33","","18","","16.1","","102.54","","","","-16","","NA"
"-66.09","43.83","YARMOUTH A","8206495","2020-02-09 05:00","2020","02","09","05:00","-8.7","","-13.3","","70","","","","33","","12","","24.1","","102.66","","","","-14","","Mostly Cloudy"
"-66.09","43.83","YARMOUTH A","8206495","2020-02-09 06:00","2020","02","09","06:00","-9.8","","-13.4","","75","","","","36","","9","","16.1","","102.71","","","","-15","","NA"
"-66.09","43.83","YARMOUTH A","8206495","2020-02-09 07:00","2020","02","09","07:00","-10.1","","-12.1","","85","","","","4","","9","","4.8","","102.83","","","","-15","","Snow Showers"
"-66.09","43.83","YARMOUTH A","8206495","2020-02-09 08:00","2020","02","09","08:00","-10.1","","-12.1","","86","","","","3","","6","","4.8","","102.93","","","","-14","","Snow Showers"
"-66.09","43.83","YARMOUTH A","8206495","2020-02-09 09:00","2020","02","09","09:00","-8.4","","-10.8","","83","","","","4","","7","","4.8","","103.01","","","","-12","","Snow Showers"
"-66.09","43.83","YARMOUTH A","8206495","2020-02-09 10:00","2020","02","09","10:00","-7.2","","-10.3","","79","","","","36","","9","","6.4","","103.09","","","","-12","","Snow Showers"
"-66.09","43.83","YARMOUTH A","8206495","2020-02-09 11:00","2020","02","09","11:00","-6.3","","-10.9","","70","","","","31","","7","","16.1","","103.14","","","","-10","","Snow Showers"
"-66.09","43.83","YARMOUTH A","8206495","2020-02-09 12:00","2020","02","09","12:00","-5.7","","-10.2","","70","","","","31","","7","","24.1","","103.13","","","","-9","","Snow Showers"
"-66.09","43.83","YARMOUTH A","8206495","2020-02-09 13:00","2020","02","09","13:00","-5.0","","-10.0","","68","","","","27","","10","","24.1","","103.09","","","","-9","","NA"
"-66.09","43.83","YARMOUTH A","8206495","2020-02-09 14:00","2020","02","09","14:00","-5.2","","-10.2","","68","","","","31","","10","","24.1","","103.10","","","","-10","","Mainly Clear"
"-66.09","43.83","YARMOUTH A","8206495","2020-02-09 15:00","2020","02","09","15:00","-4.9","","-9.9","","68","","","","30","","11","","24.1","","103.10","","","","-9","","NA"
"-66.09","43.83","YARMOUTH A","8206495","2020-02-09 16:00","2020","02","09","16:00","-5.1","","-10.7","","65","","","","26","","14","","24.1","","103.12","","","","-10","","NA"
"-66.09","43.83","YARMOUTH A","8206495","2020-02-09 17:00","2020","02","09","17:00","-4.8","","-10.4","","65","","","","24","","8","","24.1","","103.12","","","","-8","","Mainly Clear"
"-66.09","43.83","YARMOUTH A","8206495","2020-02-09 18:00","2020","02","09","18:00","-6.4","","-10.7","","72","","","","24","","8","","24.1","","103.14","","","","-10","","NA"
"-66.09","43.83","YARMOUTH A","8206495","2020-02-09 19:00","2020","02","09","19:00","-6.0","","-10.8","","69","","","","22","","8","","24.1","","103.18","","","","-10","","NA"
"-66.09","43.83","YARMOUTH A","8206495","2020-02-09 20:00","2020","02","09","20:00","-6.0","","-11.3","","66","","","","23","","7","","24.1","","103.13","","","","-9","","Mainly Clear"
"-66.09","43.83","YARMOUTH A","8206495","2020-02-09 21:00","2020","02","09","21:00","-4.1","","-8.4","","72","","","","23","","12","","24.1","","103.11","","","","-9","","NA"
"-66.09","43.83","YARMOUTH A","8206495","2020-02-09 22:00","2020","02","09","22:00","-3.8","","-6.9","","79","","","","22","","11","","24.1","","103.12","","","","-8","","NA"
"-66.09","43.83","YARMOUTH A","8206495","2020-02-09 23:00","2020","02","09","23:00","-2.1","","-5.2","","80","","","","21","","13","","24.1","","103.07","","","","-7","","Mostly Cloudy"
"-66.09","43.83","YARMOUTH A","8206495","2020-02-10 00:00","2020","02","10","00:00","-1.0","","-4.0","","80","","","","20","","13","","24.1","","102.99","","","","-5","","NA"
"-66.09","43.83","YARMOUTH A","8206495","2020-02-10 01:00","2020","02","10","01:00","-0.4","","-3.5","","79","","","","20","","17","","24.1","","102.92","","","","-5","","NA"
"-66.09","43.83","YARMOUTH A","8206495","2020-02-10 02:00","2020","02","10","02:00","-0.4","","-3.1","","82","","","","18","","16","","24.1","","102.79","","","","-5","","Mostly Cloudy"
"-66.09","43.83","YARMOUTH A","8206495","2020-02-10 03:00","2020","02","10","03:00","0.3","","-2.6","","81","","","","19","","17","","24.1","","102.75","","","","","","NA"
"-66.09","43.83","YARMOUTH A","8206495","2020-02-10 04:00","2020","02","10","04:00","1.2","","-1.6","","82","","","","18","","22","","24.1","","102.65","","","","","","NA"
"-66.09","43.83","YARMOUTH A","8206495","2020-02-10 05:00","2020","02","10","05:00","1.3","","-1.2","","84","","","","18","","25","","24.1","","102.51","","","","","","Cloudy"
"-66.09","43.83","YARMOUTH A","8206495","2020-02-10 06:00","2020","02","10","06:00","1.8","","-0.7","","84","","","","19","","28","","24.1","","102.46","","","","","","NA"
"-66.09","43.83","YARMOUTH A","8206495","2020-02-10 07:00","2020","02","10","07:00","1.8","","-0.7","","83","","","","18","","23","","24.1","","102.36","","","","","","NA"
"-66.09","43.83","YARMOUTH A","8206495","2020-02-10 08:00","2020","02","10","08:00","1.6","","-0.1","","88","","","","17","","34","","4.8","","102.25","","","","","","Rain,Snow"
"-66.09","43.83","YARMOUTH A","8206495","2020-02-10 09:00","2020","02","10","09:00","2.2","","0.8","","90","","","","18","","35","","9.7","","102.10","","","","","","Rain,Snow"
"-66.09","43.83","YARMOUTH A","8206495","2020-02-10 10:00","2020","02","10","10:00","2.6","","1.7","","94","","","","18","","33","","9.7","","101.99","","","","","","Rain,Fog"
"-66.09","43.83","YARMOUTH A","8206495","2020-02-10 11:00","2020","02","10","11:00","2.6","","1.9","","95","","","","18","","39","","9.7","","101.89","","","","","","Rain,Fog"
"-66.09","43.83","YARMOUTH A","8206495","2020-02-10 12:00","2020","02","10","12:00","3.2","","2.7","","97","","","","19","","33","","9.7","","101.74","","","","","","Rain,Fog"
"-66.09","43.83","YARMOUTH A","8206495","2020-02-10 13:00","2020","02","10","13:00","3.6","","3.4","","98","","","","18","","30","","4.8","","101.53","","","","","","Moderate Rain,Fog"
"-66.09","43.83","YARMOUTH A","8206495","2020-02-10 14:00","2020","02","10","14:00","4.6","","4.3","","98","","","","20","","32","","4.8","","101.35","","","","","","Rain,Fog"
"-66.09","43.83","YARMOUTH A","8206495","2020-02-10 15:00","2020","02","10","15:00","4.8","","4.2","","96","","","","24","","32","","6.4","","101.22","","","","","","Rain,Fog"
"-66.09","43.83","YARMOUTH A","8206495","2020-02-10 16:00","2020","02","10","16:00","4.4","","3.2","","92","","","","24","","39","","6.4","","101.16","","","","","","Rain,Fog"
"-66.09","43.83","YARMOUTH A","8206495","2020-02-10 17:00","2020","02","10","17:00","4.4","","3.7","","95","","","","23","","25","","9.7","","101.12","","","","","","Rain Showers,Fog"
"-66.09","43.83","YARMOUTH A","8206495","2020-02-10 18:00","2020","02","10","18:00","4.7","","4.2","","97","","","","25","","30","","4.8","","101.13","","","","","","Rain Showers,Fog"
"-66.09","43.83","YARMOUTH A","8206495","2020-02-10 19:00","2020","02","10","19:00","4.2","","3.8","","98","","","","28","","17","","9.7","","101.15","","","","","","Rain Showers"
"-66.09","43.83","YARMOUTH A","8206495","2020-02-10 20:00","2020","02","10","20:00","3.8","","3.3","","96","","","","27","","17","","16.1","","101.22","","","","","","Cloudy"
"-66.09","43.83","YARMOUTH A","8206495","2020-02-10 21:00","2020","02","10","21:00","3.9","","3.5","","97","","","","28","","15","","16.1","","101.23","","","","","","NA"
"-66.09","43.83","YARMOUTH A","8206495","2020-02-10 22:00","2020","02","10","22:00","3.8","","2.9","","94","","","","29","","18","","16.1","","101.27","","","","","","NA"
"-66.09","43.83","YARMOUTH A","8206495","2020-02-10 23:00","2020","02","10","23:00","3.3","","2.4","","94","","","","31","","16","","16.1","","101.36","","","","","","Cloudy"
"-66.09","43.83","YARMOUTH A","8206495","2020-02-11 00:00","2020","02","11","00:00","2.9","","2.1","","94","","","","32","","12","","24.1","","101.41","","","","","","NA"
"-66.09","43.83","YARMOUTH A","8206495","2020-02-11 01:00","2020","02","11","01:00","2.7","","1.4","","91","","","","33","","12","","24.1","","101.44","","","","","","NA"
"-66.09","43.83","YARMOUTH A","8206495","2020-02-11 02:00","2020","02","11","02:00","2.4","","1.3","","92","","","","33","","9","","24.1","","101.51","","","","","","Cloudy"
"-66.09","43.83","YARMOUTH A","8206495","2020-02-11 03:00","2020","02","11","03:00","1.6","","0.5","","92","","","","36","","9","","24.1","","101.53","","","","","","NA"
"-66.09","43.83","YARMOUTH A","8206495","2020-02-11 04:00","2020","02","11","04:00","-0.3","","-0.8","","97","","","","36","","2","","24.1","","101.55","","","","-1","","NA"
"-66.09","43.83","YARMOUTH A","8206495","2020-02-11 05:00","2020","02","11","05:00","0.1","","-0.2","","98","","","","11","","4","","24.1","","101.58","","","","","","Cloudy"
"-66.09","43.83","YARMOUTH A","8206495","2020-02-11 06:00","2020","02","11","06:00","0.6","","0.2","","98","","","","10","","6","","24.1","","101.56","","","","","","NA"
"-66.09","43.83","YARMOUTH A","8206495","2020-02-11 07:00","2020","02","11","07:00","0.6","","-0.1","","95","","","","4","","8","","24.1","","101.55","","","","","","NA"
"-66.09","43.83","YARMOUTH A","8206495","2020-02-11 08:00","2020","02","11","08:00","0.5","","0.2","","98","","","","11","","4","","24.1","","101.67","","","","","","Cloudy"
"-66.09","43.83","YARMOUTH A","8206495","2020-02-11 09:00","2020","02","11","09:00","1.1","","0.4","","96","","","","11","","6","","24.1","","101.64","","","","","","NA"
"-66.09","43.83","YARMOUTH A","8206495","2020-02-11 10:00","2020","02","11","10:00","1.7","","0.3","","90","","","","13","","17","","24.1","","101.61","","","","","","NA"
"-66.09","43.83","YARMOUTH A","8206495","2020-02-11 11:00","2020","02","11","11:00","1.6","","0.2","","91","","","","13","","19","","24.1","","101.48","","","","","","Cloudy"
"-66.09","43.83","YARMOUTH A","8206495","2020-02-11 12:00","2020","02","11","12:00","2.0","","0.9","","92","","","","13","","17","","24.1","","101.34","","","","","","NA"
"-66.09","43.83","YARMOUTH A","8206495","2020-02-11 13:00","2020","02","11","13:00","2.1","","1.1","","93","","","","14","","16","","24.1","","101.23","","","","","","NA"
"-66.09","43.83","YARMOUTH A","8206495","2020-02-11 14:00","2020","02","11","14:00","1.7","","1.0","","95","","","","14","","20","","12.9","","101.06","","","","","","Rain"
"-66.09","43.83","YARMOUTH A","8206495","2020-02-11 15:00","2020","02","11","15:00","1.5","","1.2","","97","","","","12","","13","","9.7","","100.87","","","","","","Rain,Fog"
"-66.09","43.83","YARMOUTH A","8206495","2020-02-11 16:00","2020","02","11","16:00","1.5","","1.2","","98","","","","11","","14","","6.4","","100.70","","","","","","Rain,Fog"
"-66.09","43.83","YARMOUTH A","8206495","2020-02-11 17:00","2020","02","11","17:00","1.5","","1.3","","99","","","","11","","15","","4.8","","100.55","","","","","","Rain,Fog"
"-66.09","43.83","YARMOUTH A","8206495","2020-02-11 18:00","2020","02","11","18:00","1.6","","1.4","","99","","","","8","","14","","4.8","","100.45","","","","","","Rain,Fog"
"-66.09","43.83","YARMOUTH A","8206495","2020-02-11 19:00","2020","02","11","19:00","1.4","","1.3","","99","","","","10","","18","","6.4","","100.26","","","","","","Rain,Fog"
"-66.09","43.83","YARMOUTH A","8206495","2020-02-11 20:00","2020","02","11","20:00","1.4","","1.3","","99","","","","9","","17","","9.7","","100.15","","","","","","Fog"
"-66.09","43.83","YARMOUTH A","8206495","2020-02-11 21:00","2020","02","11","21:00","1.4","","1.3","","99","","","","5","","13","","4.8","","100.15","","","","","","Rain,Fog"
"-66.09","43.83","YARMOUTH A","8206495","2020-02-11 22:00","2020","02","11","22:00","1.3","","1.2","","99","","","","5","","11","","4.8","","100.05","","","","","","Drizzle,Fog"
"-66.09","43.83","YARMOUTH A","8206495","2020-02-11 23:00","2020","02","11","23:00","1.3","","1.2","","100","","","","7","","11","","3.2","","99.92","","","","","","Drizzle,Fog"
"-66.09","43.83","YARMOUTH A","8206495","2020-02-12 00:00","2020","02","12","00:00","1.2","","1.2","","100","","","","4","","7","","3.2","","99.88","","","","","","Drizzle,Fog"
"-66.09","43.83","YARMOUTH A","8206495","2020-02-12 01:00","2020","02","12","01:00","1.2","","1.1","","100","","","","4","","5","","3.2","","99.74","","","","","","Drizzle,Fog"
"-66.09","43.83","YARMOUTH A","8206495","2020-02-12 02:00","2020","02","12","02:00","1.1","","1.1","","100","","","","33","","9","","2.4","","99.75","","","","","","Rain,Fog"
"-66.09","43.83","YARMOUTH A","8206495","2020-02-12 03:00","2020","02","12","03:00","1.2","","1.2","","100","","","","31","","9","","3.2","","99.79","","","","","","Drizzle,Fog"
"-66.09","43.83","YARMOUTH A","8206495","2020-02-12 04:00","2020","02","12","04:00","1.6","","1.6","","100","","","","32","","16","","3.2","","99.78","","","","","","Rain,Fog"
"-66.09","43.83","YARMOUTH A","8206495","2020-02-12 05:00","2020","02","12","05:00","0.6","","0.5","","99","","","","34","","32","","6.4","","99.86","","","","","","Rain,Fog"
"-66.09","43.83","YARMOUTH A","8206495","2020-02-12 06:00","2020","02","12","06:00","0.1","","-0.1","","98","","","","34","","30","","8.1","","100.05","","","","","","Snow"
"-66.09","43.83","YARMOUTH A","8206495","2020-02-12 07:00","2020","02","12","07:00","0.4","","-0.3","","95","","","","32","","35","","3.2","","100.21","","","","","","Snow Showers"
"-66.09","43.83","YARMOUTH A","8206495","2020-02-12 08:00","2020","02","12","08:00","0.7","","-2.0","","82","","","","32","","37","","16.1","","100.39","","","","","","Mostly Cloudy"
"-66.09","43.83","YARMOUTH A","8206495","2020-02-12 09:00","2020","02","12","09:00","0.5","","-2.6","","80","","","","32","","34","","24.1","","100.56","","","","","","NA"
"-66.09","43.83","YARMOUTH A","8206495","2020-02-12 10:00","2020","02","12","10:00","0.8","","-2.5","","78","","","","32","","35","","24.1","","100.71","","","","","","NA"
"-66.09","43.83","YARMOUTH A","8206495","2020-02-12 11:00","2020","02","12","11:00","1.7","","-2.3","","74","","","","32","","34","","19.3","","100.87","","","","","","Mostly Cloudy"
"-66.09","43.83","YARMOUTH A","8206495","2020-02-12 12:00","2020","02","12","12:00","2.6","","-2.4","","70","","","","31","","34","","19.3","","100.99","","","","","","NA"
"-66.09","43.83","YARMOUTH A","8206495","2020-02-12 13:00","2020","02","12","13:00","3.1","","-2.3","","68","","","","30","","32","","19.3","","101.00","","","","","","NA"
"-66.09","43.83","YARMOUTH A","8206495","2020-02-12 14:00","2020","02","12","14:00","2.6","","-3.2","","65","","","","31","","30","","24.1","","101.04","","","","","","Mostly Cloudy"
"-66.09","43.83","YARMOUTH A","8206495","2020-02-12 15:00","2020","02","12","15:00","3.4","","-2.8","","64","","","","31","","26","","24.1","","101.11","","","","","","NA"
"-66.09","43.83","YARMOUTH A","8206495","2020-02-12 16:00","2020","02","12","16:00","2.8","","-4.2","","60","","","","31","","27","","24.1","","101.19","","","","","","NA"
"-66.09","43.83","YARMOUTH A","8206495","2020-02-12 17:00","2020","02","12","17:00","2.2","","-4.4","","62","","","","30","","20","","24.1","","101.25","","","","","","Mostly Cloudy"
"-66.09","43.83","YARMOUTH A","8206495","2020-02-12 18:00","2020","02","12","18:00","1.4","","-4.7","","64","","","","29","","17","","24.1","","101.26","","","","","","NA"
"-66.09","43.83","YARMOUTH A","8206495","2020-02-12 19:00","2020","02","12","19:00","1.4","","-4.2","","66","","","","28","","19","","24.1","","101.41","","","","","","NA"
"-66.09","43.83","YARMOUTH A","8206495","2020-02-12 20:00","2020","02","12","20:00","1.6","","-4.3","","65","","","","26","","19","","24.1","","101.48","","","","","","Mostly Cloudy"
"-66.09","43.83","YARMOUTH A","8206495","2020-02-12 21:00","2020","02","12","21:00","1.5","","-3.6","","69","","","","26","","22","","24.1","","101.51","","","","","","NA"
"-66.09","43.83","YARMOUTH A","8206495","2020-02-12 22:00","2020","02","12","22:00","1.8","","-3.6","","68","","","","26","","22","","24.1","","101.44","","","","","","NA"
"-66.09","43.83","YARMOUTH A","8206495","2020-02-12 23:00","2020","02","12","23:00","2.0","","-2.8","","71","","","","25","","21","","24.1","","101.35","","","","","","Mainly Clear"
"-66.09","43.83","YARMOUTH A","8206495","2020-02-13 00:00","2020","02","13","00:00","1.7","","-2.2","","75","","","","24","","16","","24.1","","101.24","","","","","","NA"
"-66.09","43.83","YARMOUTH A","8206495","2020-02-13 01:00","2020","02","13","01:00","2.1","","-1.9","","75","","","","23","","18","","24.1","","101.18","","","","","","NA"
"-66.09","43.83","YARMOUTH A","8206495","2020-02-13 02:00","2020","02","13","02:00","2.7","","-1.2","","75","","","","23","","24","","24.1","","101.13","","","","","","Cloudy"
"-66.09","43.83","YARMOUTH A","8206495","2020-02-13 03:00","2020","02","13","03:00","3.0","","-0.6","","77","","","","22","","28","","24.1","","101.00","","","","","","NA"
"-66.09","43.83","YARMOUTH A","8206495","2020-02-13 04:00","2020","02","13","04:00","3.1","","0.1","","81","","","","23","","23","","24.1","","100.91","","","","","","NA"
"-66.09","43.83","YARMOUTH A","8206495","2020-02-13 05:00","2020","02","13","05:00","3.2","","0.1","","80","","","","23","","25","","24.1","","100.91","","","","","","Cloudy"
"-66.09","43.83","YARMOUTH A","8206495","2020-02-13 06:00","2020","02","13","06:00","3.1","","0.6","","84","","","","23","","19","","14.5","","100.76","","","","","","Rain Showers"
"-66.09","43.83","YARMOUTH A","8206495","2020-02-13 07:00","2020","02","13","07:00","0.6","","0.0","","96","","","","23","","18","","3.2","","100.61","","","","","","Moderate Rain Showers,Moderate Snow Showers,Fog"
"-66.09","43.83","YARMOUTH A","8206495","2020-02-13 08:00","2020","02","13","08:00","0.1","","-0.1","","98","","","","21","","10","","1.2","","100.58","","","","","","Snow"
"-66.09","43.83","YARMOUTH A","8206495","2020-02-13 09:00","2020","02","13","09:00","0.0","","-0.1","","99","","","","20","","6","","1.2","","100.54","","","","-2","","Snow"
"-66.09","43.83","YARMOUTH A","8206495","2020-02-13 10:00","2020","02","13","10:00","-0.1","","-0.2","","99","","","","15","","10","","0.8","","100.22","","","","-3","","Moderate Snow"
"-66.09","43.83","YARMOUTH A","8206495","2020-02-13 11:00","2020","02","13","11:00","0.0","","0.0","","99","","","","15","","9","","2.0","","100.05","","","","-3","","Snow"
"-66.09","43.83","YARMOUTH A","8206495","2020-02-13 12:00","2020","02","13","12:00","0.2","","0.1","","99","","","","12","","4","","1.2","","100.02","","","","","","Snow"
"-66.09","43.83","YARMOUTH A","8206495","2020-02-13 13:00","2020","02","13","13:00","0.2","","0.2","","100","","","","7","","7","","1.2","","99.73","","","","","","Snow"
"-66.09","43.83","YARMOUTH A","8206495","2020-02-13 14:00","2020","02","13","14:00","0.3","","0.3","","100","","","","2","","5","","4.0","","99.64","","","","","","Fog"
"-66.09","43.83","YARMOUTH A","8206495","2020-02-13 15:00","2020","02","13","15:00","0.5","","0.4","","99","","","","33","","4","","1.6","","99.61","","","","","","Drizzle,Fog"
"-66.09","43.83","YARMOUTH A","8206495","2020-02-13 16:00","2020","02","13","16:00","0.1","","0.0","","99","","","","28","","3","","1.2","","99.65","","","","","","Snow"
"-66.09","43.83","YARMOUTH A","8206495","2020-02-13 17:00","2020","02","13","17:00","0.0","","-0.1","","99","","","","26","","4","","0.8","","99.63","","","","-1","","Moderate Snow"
"-66.09","43.83","YARMOUTH A","8206495","2020-02-13 18:00","2020","02","13","18:00","0.1","","0.0","","100","","","","28","","7","","0.6","","99.69","","","","","","Moderate Snow"
"-66.09","43.83","YARMOUTH A","8206495","2020-02-13 19:00","2020","02","13","19:00","0.5","","0.4","","100","","","","31","","8","","1.6","","99.74","","","","","","Fog"
"-66.09","43.83","YARMOUTH A","8206495","2020-02-13 20:00","2020","02","13","20:00","0.5","","0.5","","100","","","","36","","2","","9.7","","99.71","","","","","","Fog"
"-66.09","43.83","YARMOUTH A","8206495","2020-02-13 21:00","2020","02","13","21:00","0.5","","0.4","","99","","","","34","","10","","14.5","","99.72","","","","","","NA"
"-66.09","43.83","YARMOUTH A","8206495","2020-02-13 22:00","2020","02","13","22:00","0.2","","0.1","","99","","","","34","","5","","4.8","","99.77","","","","","","Snow Showers"
"-66.09","43.83","YARMOUTH A","8206495","2020-02-13 23:00","2020","02","13","23:00","0.2","","0.0","","99","","","","31","","7","","14.5","","99.86","","","","","","Snow Showers"
"-66.09","43.83","YARMOUTH A","8206495","2020-02-14 00:00","2020","02","14","00:00","0.1","","-0.1","","99","","","","35","","8","","3.2","","99.88","","","","","","Snow Showers"
"-66.09","43.83","YARMOUTH A","8206495","2020-02-14 01:00","2020","02","14","01:00","0.1","","0.0","","99","","","","29","","7","","14.5","","99.88","","","","","","NA"
"-66.09","43.83","YARMOUTH A","8206495","2020-02-14 02:00","2020","02","14","02:00","0.2","","-0.2","","97","","","","34","","21","","2.4","","99.96","","","","","","Snow Showers"
"-66.09","43.83","YARMOUTH A","8206495","2020-02-14 03:00","2020","02","14","03:00","-0.8","","-2.0","","92","","","","35","","19","","14.5","","100.06","","","","-6","","Snow Showers"
"-66.09","43.83","YARMOUTH A","8206495","2020-02-14 04:00","2020","02","14","04:00","-1.8","","-3.0","","91","","","","36","","25","","8.1","","100.18","","","","-8","","Snow Showers"
"-66.09","43.83","YARMOUTH A","8206495","2020-02-14 05:00","2020","02","14","05:00","-2.8","","-4.3","","89","","","","34","","29","","14.5","","100.34","","","","-10","","Cloudy"
"-66.09","43.83","YARMOUTH A","8206495","2020-02-14 06:00","2020","02","14","06:00","-3.6","","-5.5","","87","","","","36","","28","","14.5","","100.54","","","","-11","","NA"
"-66.09","43.83","YARMOUTH A","8206495","2020-02-14 07:00","2020","02","14","07:00","-5.1","","-7.0","","86","","","","36","","32","","14.5","","100.71","","","","-13","","Snow Showers"
"-66.09","43.83","YARMOUTH A","8206495","2020-02-14 08:00","2020","02","14","08:00","-6.5","","-8.7","","85","","","","35","","36","","1.6","","100.89","","","","-16","","Snow Showers"
"-66.09","43.83","YARMOUTH A","8206495","2020-02-14 09:00","2020","02","14","09:00","-8.3","","-11.4","","78","","","","36","","38","","2.8","","101.07","","","","-18","","Snow Showers"
"-66.09","43.83","YARMOUTH A","8206495","2020-02-14 10:00","2020","02","14","10:00","-8.8","","-12.0","","78","","","","35","","35","","3.2","","101.22","","","","-19","","Snow Showers,Blowing Snow"
"-66.09","43.83","YARMOUTH A","8206495","2020-02-14 11:00","2020","02","14","11:00","-9.6","","-13.8","","72","","","","34","","36","","6.4","","101.32","","","","-20","","Snow Showers,Blowing Snow"
"-66.09","43.83","YARMOUTH A","8206495","2020-02-14 12:00","2020","02","14","12:00","-9.1","","-13.4","","72","","","","35","","35","","9.7","","101.40","","","","-19","","Snow Showers,Blowing Snow"
"-66.09","43.83","YARMOUTH A","8206495","2020-02-14 13:00","2020","02","14","13:00","-9.7","","-14.5","","69","","","","36","","39","","11.3","","101.42","","","","-20","","Blowing Snow"
"-66.09","43.83","YARMOUTH A","8206495","2020-02-14 14:00","2020","02","14","14:00","-9.8","","-14.8","","67","","","","35","","42","","6.4","","101.48","","","","-21","","Snow Showers,Blowing Snow"
"-66.09","43.83","YARMOUTH A","8206495","2020-02-14 15:00","2020","02","14","15:00","-10.1","","-14.8","","68","","","","35","","37","","6.4","","101.57","","","","-21","","Snow Showers,Blowing Snow"
"-66.09","43.83","YARMOUTH A","8206495","2020-02-14 16:00","2020","02","14","16:00","-10.0","","-14.7","","69","","","","34","","37","","6.4","","101.66","","","","-20","","Snow Showers,Blowing Snow"
"-66.09","43.83","YARMOUTH A","8206495","2020-02-14 17:00","2020","02","14","17:00","-10.8","","-14.1","","77","","","","36","","32","","1.2","","101.77","","","","-21","","Snow,Blowing Snow"
"-66.09","43.83","YARMOUTH A","8206495","2020-02-14 18:00","2020","02","14","18:00","-11.1","","-14.0","","79","","","","2","","18","","2.0","","101.93","","","","-19","","Snow"
"-66.09","43.83","YARMOUTH A","8206495","2020-02-14 19:00","2020","02","14","19:00","-10.9","","-14.7","","74","","","","1","","24","","6.4","","102.11","","","","-20","","Snow Showers"
"-66.09","43.83","YARMOUTH A","8206495","2020-02-14 20:00","2020","02","14","20:00","-11.4","","-15.5","","72","","","","2","","21","","9.7","","102.28","","","","-20","","Snow Showers"
"-66.09","43.83","YARMOUTH A","8206495","2020-02-14 21:00","2020","02","14","21:00","-12.1","","-15.4","","77","","","","2","","23","","8.1","","102.38","","","","-21","","Snow Showers"
"-66.09","43.83","YARMOUTH A","8206495","2020-02-14 22:00","2020","02","14","22:00","-12.6","","-16.9","","71","","","","2","","23","","14.5","","102.46","","","","-22","","Snow Showers"
"-66.09","43.83","YARMOUTH A","8206495","2020-02-14 23:00","2020","02","14","23:00","-12.9","","-17.3","","70","","","","3","","19","","14.5","","102.50","","","","-21","","Mostly Cloudy"
"-66.09","43.83","YARMOUTH A","8206495","2020-02-15 00:00","2020","02","15","00:00","-12.9","","-16.9","","72","","","","3","","16","","14.5","","102.56","","","","-21","","NA"
"-66.09","43.83","YARMOUTH A","8206495","2020-02-15 01:00","2020","02","15","01:00","-12.7","","-16.0","","77","","","","3","","13","","24.1","","102.64","","","","-20","","NA"
"-66.09","43.83","YARMOUTH A","8206495","2020-02-15 02:00","2020","02","15","02:00","-13.1","","-15.3","","84","","","","4","","4","","24.1","","102.69","","","","-16","","Mostly Cloudy"
"-66.09","43.83","YARMOUTH A","8206495","2020-02-15 03:00","2020","02","15","03:00","-11.8","","-14.6","","80","","","","1","","14","","24.1","","102.69","","","","-19","","NA"
"-66.09","43.83","YARMOUTH A","8206495","2020-02-15 04:00","2020","02","15","04:00","-12.0","","-14.6","","81","","","","5","","7","","14.5","","102.74","","","","-16","","Snow Showers"
"-66.09","43.83","YARMOUTH A","8206495","2020-02-15 05:00","2020","02","15","05:00","-12.4","","-14.2","","87","","","","6","","5","","14.5","","102.85","","","","-16","","Snow Showers"
"-66.09","43.83","YARMOUTH A","8206495","2020-02-15 06:00","2020","02","15","06:00","-12.8","","-14.7","","86","","","","6","","9","","14.5","","102.92","","","","-18","","Snow Showers"
"-66.09","43.83","YARMOUTH A","8206495","2020-02-15 07:00","2020","02","15","07:00","-14.0","","-15.7","","87","","","","9","","3","","19.3","","102.99","","","","-16","","Snow Showers"
"-66.09","43.83","YARMOUTH A","8206495","2020-02-15 08:00","2020","02","15","08:00","-12.2","","-13.9","","87","","","","9","","3","","3.2","","103.06","","","","-14","","Snow Showers"
"-66.09","43.83","YARMOUTH A","8206495","2020-02-15 09:00","2020","02","15","09:00","-11.2","","-13.2","","85","","","","9","","5","","4.8","","103.10","","","","-14","","Snow Showers"
"-66.09","43.83","YARMOUTH A","8206495","2020-02-15 10:00","2020","02","15","10:00","-9.6","","-11.8","","84","","","","36","","3","","3.2","","103.11","","","","-11","","Snow Showers"
"-66.09","43.83","YARMOUTH A","8206495","2020-02-15 11:00","2020","02","15","11:00","-8.1","","-13.6","","65","","","","28","","17","","4.8","","103.11","","","","-15","","Snow Showers"
"-66.09","43.83","YARMOUTH A","8206495","2020-02-15 12:00","2020","02","15","12:00","-8.1","","-11.1","","79","","","","29","","17","","1.2","","103.10","","","","-15","","Snow Showers"
"-66.09","43.83","YARMOUTH A","8206495","2020-02-15 13:00","2020","02","15","13:00","-7.7","","-11.6","","74","","","","28","","18","","2.8","","103.01","","","","-15","","Snow Showers"
"-66.09","43.83","YARMOUTH A","8206495","2020-02-15 14:00","2020","02","15","14:00","-8.0","","-11.5","","76","","","","28","","13","","3.2","","102.96","","","","-14","","Snow Showers"
"-66.09","43.83","YARMOUTH A","8206495","2020-02-15 15:00","2020","02","15","15:00","-7.5","","-11.8","","71","","","","26","","17","","4.8","","102.87","","","","-14","","Snow Showers"
"-66.09","43.83","YARMOUTH A","8206495","2020-02-15 16:00","2020","02","15","16:00","-7.4","","-12.3","","68","","","","26","","19","","11.3","","102.80","","","","-14","","Snow Showers"
"-66.09","43.83","YARMOUTH A","8206495","2020-02-15 17:00","2020","02","15","17:00","-6.9","","-10.6","","75","","","","25","","18","","9.7","","102.76","","","","-14","","Snow Showers"
"-66.09","43.83","YARMOUTH A","8206495","2020-02-15 18:00","2020","02","15","18:00","-6.3","","-10.9","","70","","","","22","","14","","14.5","","102.69","","","","-12","","Snow Showers"
"-66.09","43.83","YARMOUTH A","8206495","2020-02-15 19:00","2020","02","15","19:00","-5.5","","-9.7","","72","","","","23","","17","","14.5","","102.66","","","","-12","","NA"
"-66.09","43.83","YARMOUTH A","8206495","2020-02-15 20:00","2020","02","15","20:00","-4.6","","-8.9","","72","","","","23","","16","","14.5","","102.62","","","","-10","","Mostly Cloudy"
"-66.09","43.83","YARMOUTH A","8206495","2020-02-15 21:00","2020","02","15","21:00","-3.9","","-8.0","","73","","","","22","","21","","14.5","","102.54","","","","-10","","NA"
"-66.09","43.83","YARMOUTH A","8206495","2020-02-15 22:00","2020","02","15","22:00","-3.4","","-7.3","","74","","","","22","","22","","24.1","","102.46","","","","-10","","NA"
"-66.09","43.83","YARMOUTH A","8206495","2020-02-15 23:00","2020","02","15","23:00","-2.8","","-6.9","","73","","","","22","","27","","24.1","","102.35","","","","-10","","Mostly Cloudy"
"-66.09","43.83","YARMOUTH A","8206495","2020-02-16 00:00","2020","02","16","00:00","-2.3","","-6.3","","74","","","","22","","21","","24.1","","102.28","","","","-8","","NA"
"-66.09","43.83","YARMOUTH A","8206495","2020-02-16 01:00","2020","02","16","01:00","-1.6","","-6.0","","72","","","","22","","26","","24.1","","102.17","","","","-8","","NA"
"-66.09","43.83","YARMOUTH A","8206495","2020-02-16 02:00","2020","02","16","02:00","-1.0","","-5.1","","74","","","","23","","26","","24.1","","102.10","","","","-7","","Cloudy"
"-66.09","43.83","YARMOUTH A","8206495","2020-02-16 03:00","2020","02","16","03:00","-0.5","","-4.6","","74","","","","22","","26","","24.1","","102.00","","","","-7","","NA"
"-66.09","43.83","YARMOUTH A","8206495","2020-02-16 04:00","2020","02","16","04:00","0.0","","-4.1","","74","","","","23","","30","","24.1","","101.97","","","","-6","","NA"
"-66.09","43.83","YARMOUTH A","8206495","2020-02-16 05:00","2020","02","16","05:00","0.7","","-3.5","","74","","","","22","","32","","24.1","","101.89","","","","","","Mostly Cloudy"
"-66.09","43.83","YARMOUTH A","8206495","2020-02-16 06:00","2020","02","16","06:00","1.2","","-3.2","","72","","","","24","","34","","24.1","","101.81","","","","","","NA"
"-66.09","43.83","YARMOUTH A","8206495","2020-02-16 07:00","2020","02","16","07:00","1.3","","-3.5","","70","","","","24","","36","","24.1","","101.77","","","","","","NA"
"-66.09","43.83","YARMOUTH A","8206495","2020-02-16 08:00","2020","02","16","08:00","1.8","","-2.5","","73","","","","23","","33","","24.1","","101.74","","","","","","Mostly Cloudy"
"-66.09","43.83","YARMOUTH A","8206495","2020-02-16 09:00","2020","02","16","09:00","2.1","","-1.6","","76","","","","23","","24","","19.3","","101.71","","","","","","NA"
"-66.09","43.83","YARMOUTH A","8206495","2020-02-16 10:00","2020","02","16","10:00","2.4","","-0.5","","81","","","","23","","18","","19.3","","101.68","","","","","","NA"
"-66.09","43.83","YARMOUTH A","8206495","2020-02-16 11:00","2020","02","16","11:00","3.1","","-0.2","","78","","","","24","","25","","19.3","","101.58","","","","","","Cloudy"
"-66.09","43.83","YARMOUTH A","8206495","2020-02-16 12:00","2020","02","16","12:00","2.9","","0.0","","81","","","","27","","30","","12.9","","101.51","","","","","","Rain Showers"
"-66.09","43.83","YARMOUTH A","8206495","2020-02-16 13:00","2020","02","16","13:00","2.1","","-0.1","","85","","","","27","","21","","16.1","","101.43","","","","","","NA"
"-66.09","43.83","YARMOUTH A","8206495","2020-02-16 14:00","2020","02","16","14:00","1.8","","0.0","","88","","","","27","","23","","16.1","","101.41","","","","","","Cloudy"
"-66.09","43.83","YARMOUTH A","8206495","2020-02-16 15:00","2020","02","16","15:00","2.0","","0.1","","87","","","","28","","17","","24.1","","101.37","","","","","","NA"
"-66.09","43.83","YARMOUTH A","8206495","2020-02-16 16:00","2020","02","16","16:00","2.0","","0.2","","87","","","","27","","14","","24.1","","101.39","","","","","","NA"
"-66.09","43.83","YARMOUTH A","8206495","2020-02-16 17:00","2020","02","16","17:00","2.1","","0.3","","88","","","","26","","8","","16.1","","101.36","","","","","","Cloudy"
"-66.09","43.83","YARMOUTH A","8206495","2020-02-16 18:00","2020","02","16","18:00","2.1","","0.1","","86","","","","26","","11","","14.5","","101.36","","","","","","Rain Showers"
"-66.09","43.83","YARMOUTH A","8206495","2020-02-16 19:00","2020","02","16","19:00","1.5","","0.6","","93","","","","26","","12","","16.1","","101.37","","","","","","Rain Showers"
"-66.09","43.83","YARMOUTH A","8206495","2020-02-16 20:00","2020","02","16","20:00","1.4","","0.5","","94","","","","24","","9","","24.1","","101.33","","","","","","Cloudy"
"-66.09","43.83","YARMOUTH A","8206495","2020-02-16 21:00","2020","02","16","21:00","1.9","","0.3","","89","","","","23","","11","","24.1","","101.35","","","","","","NA"
"-66.09","43.83","YARMOUTH A","8206495","2020-02-16 22:00","2020","02","16","22:00","1.6","","0.3","","91","","","","19","","8","","24.1","","101.31","","","","","","NA"
"-66.09","43.83","YARMOUTH A","8206495","2020-02-16 23:00","2020","02","16","23:00","1.8","","0.4","","90","","","","19","","11","","24.1","","101.29","","","","","","Cloudy"
"-66.09","43.83","YARMOUTH A","8206495","2020-02-17 00:00","2020","02","17","00:00","2.0","","0.3","","89","","","","22","","8","","24.1","","101.25","","","","","","NA"
"-66.09","43.83","YARMOUTH A","8206495","2020-02-17 01:00","2020","02","17","01:00","2.1","","0.5","","89","","","","23","","11","","24.1","","101.26","","","","","","NA"
"-66.09","43.83","YARMOUTH A","8206495","2020-02-17 02:00","2020","02","17","02:00","1.9","","0.6","","91","","","","28","","10","","24.1","","101.23","","","","","","Cloudy"
"-66.09","43.83","YARMOUTH A","8206495","2020-02-17 03:00","2020","02","17","03:00","1.6","","0.1","","90","","","","26","","9","","24.1","","101.25","","","","","","NA"
"-66.09","43.83","YARMOUTH A","8206495","2020-02-17 04:00","2020","02","17","04:00","0.9","","-0.9","","87","","","","26","","7","","24.1","","101.20","","","","","","NA"
"-66.09","43.83","YARMOUTH A","8206495","2020-02-17 05:00","2020","02","17","05:00","0.9","","-1.5","","84","","","","28","","14","","24.1","","101.22","","","","","","Mainly Clear"
"-66.09","43.83","YARMOUTH A","8206495","2020-02-17 06:00","2020","02","17","06:00","1.5","","-1.5","","80","","","","31","","11","","24.1","","101.27","","","","","","NA"
"-66.09","43.83","YARMOUTH A","8206495","2020-02-17 07:00","2020","02","17","07:00","1.4","","-0.8","","85","","","","30","","7","","24.1","","101.31","","","","","","NA"
"-66.09","43.83","YARMOUTH A","8206495","2020-02-17 08:00","2020","02","17","08:00","1.3","","-0.7","","87","","","","36","","2","","24.1","","101.35","","","","","","Mostly Cloudy"
"-66.09","43.83","YARMOUTH A","8206495","2020-02-17 09:00","2020","02","17","09:00","2.1","","-0.1","","86","","","","36","","2","","24.1","","101.42","","","","","","NA"
"-66.09","43.83","YARMOUTH A","8206495","2020-02-17 10:00","2020","02","17","10:00","4.1","","-0.7","","71","","","","28","","11","","24.1","","101.46","","","","","","NA"
"-66.09","43.83","YARMOUTH A","8206495","2020-02-17 11:00","2020","02","17","11:00","4.8","","-0.4","","69","","","","27","","19","","24.1","","101.46","","","","","","Mainly Clear"
"-66.09","43.83","YARMOUTH A","8206495","2020-02-17 12:00","2020","02","17","12:00","4.7","","-0.1","","71","","","","29","","25","","24.1","","101.46","","","","","","NA"
"-66.09","43.83","YARMOUTH A","8206495","2020-02-17 13:00","2020","02","17","13:00","5.1","","0.7","","73","","","","30","","22","","24.1","","101.43","","","","","","NA"
"-66.09","43.83","YARMOUTH A","8206495","2020-02-17 14:00","2020","02","17","14:00","5.1","","0.7","","73","","","","29","","25","","24.1","","101.42","","","","","","Mainly Clear"
"-66.09","43.83","YARMOUTH A","8206495","2020-02-17 15:00","2020","02","17","15:00","4.3","","-1.6","","65","","","","31","","23","","24.1","","101.47","","","","","","NA"
"-66.09","43.83","YARMOUTH A","8206495","2020-02-17 16:00","2020","02","17","16:00","3.5","","-2.9","","63","","","","32","","28","","24.1","","101.56","","","","","","NA"
"-66.09","43.83","YARMOUTH A","8206495","2020-02-17 17:00","2020","02","17","17:00","2.5","","-3.2","","66","","","","31","","24","","24.1","","101.65","","","","","","Clear"
"-66.09","43.83","YARMOUTH A","8206495","2020-02-17 18:00","2020","02","17","18:00","1.2","","-4.8","","64","","","","32","","20","","24.1","","101.77","","","","","","NA"
"-66.09","43.83","YARMOUTH A","8206495","2020-02-17 19:00","2020","02","17","19:00","0.6","","-7.0","","57","","","","34","","20","","24.1","","101.92","","","","","","NA"
"-66.09","43.83","YARMOUTH A","8206495","2020-02-17 20:00","2020","02","17","20:00","-0.4","","-8.8","","53","","","","35","","21","","24.1","","102.07","","","","-6","","Clear"
"-66.09","43.83","YARMOUTH A","8206495","2020-02-17 21:00","2020","02","17","21:00","-1.2","","-10.1","","51","","","","34","","25","","24.1","","102.24","","","","-7","","NA"
"-66.09","43.83","YARMOUTH A","8206495","2020-02-17 22:00","2020","02","17","22:00","-1.9","","-7.8","","64","","","","36","","27","","24.1","","102.35","","","","-9","","NA"
"-66.09","43.83","YARMOUTH A","8206495","2020-02-17 23:00","2020","02","17","23:00","-2.9","","-9.1","","63","","","","1","","26","","24.1","","102.43","","","","-10","","Mostly Cloudy"
"-66.09","43.83","YARMOUTH A","8206495","2020-02-18 00:00","2020","02","18","00:00","-4.0","","-10.5","","61","","","","2","","22","","24.1","","102.52","","","","-11","","NA"
"-66.09","43.83","YARMOUTH A","8206495","2020-02-18 01:00","2020","02","18","01:00","-4.9","","-11.4","","61","","","","2","","21","","24.1","","102.56","","","","-12","","NA"
"-66.09","43.83","YARMOUTH A","8206495","2020-02-18 02:00","2020","02","18","02:00","-5.6","","-11.9","","61","","","","1","","22","","24.1","","102.69","","","","-13","","Clear"
"-66.09","43.83","YARMOUTH A","8206495","2020-02-18 03:00","2020","02","18","03:00","-6.5","","-12.2","","64","","","","1","","19","","24.1","","102.76","","","","-13","","NA"
"-66.09","43.83","YARMOUTH A","8206495","2020-02-18 04:00","2020","02","18","04:00","-7.4","","-12.7","","66","","","","3","","10","","24.1","","102.86","","","","-12","","NA"
"-66.09","43.83","YARMOUTH A","8206495","2020-02-18 05:00","2020","02","18","05:00","-8.0","","-13.5","","65","","","","3","","8","","24.1","","102.95","","","","-12","","Clear"
"-66.09","43.83","YARMOUTH A","8206495","2020-02-18 06:00","2020","02","18","06:00","-7.9","","-12.8","","68","","","","6","","5","","24.1","","103.00","","","","-11","","NA"
"-66.09","43.83","YARMOUTH A","8206495","2020-02-18 07:00","2020","02","18","07:00","-8.2","","-12.4","","72","","","","12","","6","","24.1","","102.99","","","","-11","","NA"
"-66.09","43.83","YARMOUTH A","8206495","2020-02-18 08:00","2020","02","18","08:00","-8.1","","-12.0","","74","","","","10","","7","","24.1","","102.97","","","","-12","","Cloudy"
"-66.09","43.83","YARMOUTH A","8206495","2020-02-18 09:00","2020","02","18","09:00","-7.2","","-13.5","","61","","","","9","","14","","24.1","","103.04","","","","-13","","NA"
"-66.09","43.83","YARMOUTH A","8206495","2020-02-18 10:00","2020","02","18","10:00","-5.7","","-13.2","","56","","","","10","","15","","24.1","","103.06","","","","-11","","NA"
"-66.09","43.83","YARMOUTH A","8206495","2020-02-18 11:00","2020","02","18","11:00","-4.8","","-13.8","","50","","","","13","","13","","24.1","","103.05","","","","-10","","Cloudy"
"-66.09","43.83","YARMOUTH A","8206495","2020-02-18 12:00","2020","02","18","12:00","-4.2","","-13.9","","47","","","","13","","14","","24.1","","103.06","","","","-9","","NA"
"-66.09","43.83","YARMOUTH A","8206495","2020-02-18 13:00","2020","02","18","13:00","-2.4","","-11.3","","51","","","","14","","12","","24.1","","102.94","","","","-7","","NA"
"-66.09","43.83","YARMOUTH A","8206495","2020-02-18 14:00","2020","02","18","14:00","-1.7","","-8.9","","58","","","","14","","20","","24.1","","102.86","","","","-7","","Cloudy"
"-66.09","43.83","YARMOUTH A","8206495","2020-02-18 15:00","2020","02","18","15:00","-1.6","","-8.0","","62","","","","14","","22","","24.1","","102.65","","","","-8","","NA"
"-66.09","43.83","YARMOUTH A","8206495","2020-02-18 16:00","2020","02","18","16:00","-2.5","","-7.8","","67","","","","13","","27","","24.1","","102.63","","","","-9","","NA"
"-66.09","43.83","YARMOUTH A","8206495","2020-02-18 17:00","2020","02","18","17:00","-2.2","","-6.8","","71","","","","14","","27","","24.1","","102.59","","","","-9","","Cloudy"
"-66.09","43.83","YARMOUTH A","8206495","2020-02-18 18:00","2020","02","18","18:00","-2.3","","-4.5","","85","","","","13","","26","","4.0","","102.38","","","","-9","","Snow"
"-66.09","43.83","YARMOUTH A","8206495","2020-02-18 19:00","2020","02","18","19:00","-1.8","","-3.5","","88","","","","12","","22","","16.1","","102.19","","","","-8","","NA"
"-66.09","43.83","YARMOUTH A","8206495","2020-02-18 20:00","2020","02","18","20:00","-0.4","","-1.7","","91","","","","13","","26","","16.1","","101.94","","","","-7","","Freezing Rain,Ice Pellets"
"-66.09","43.83","YARMOUTH A","8206495","2020-02-18 21:00","2020","02","18","21:00","0.8","","-0.6","","90","","","","14","","32","","12.9","","101.70","","","","","","Rain"
"-66.09","43.83","YARMOUTH A","8206495","2020-02-18 22:00","2020","02","18","22:00","1.6","","0.5","","93","","","","14","","38","","9.7","","101.39","","","","","","Rain"
"-66.09","43.83","YARMOUTH A","8206495","2020-02-18 23:00","2020","02","18","23:00","2.1","","1.5","","96","","","","14","","34","","4.8","","101.12","","","","","","Rain,Fog"
"-66.09","43.83","YARMOUTH A","8206495","2020-02-19 00:00","2020","02","19","00:00","3.3","","3.0","","98","","","","15","","38","","4.8","","100.93","","","","","","Moderate Rain,Fog"
"-66.09","43.83","YARMOUTH A","8206495","2020-02-19 01:00","2020","02","19","01:00","4.6","","4.5","","99","","","","16","","32","","4.8","","100.65","","","","","","Rain,Fog"
"-66.09","43.83","YARMOUTH A","8206495","2020-02-19 02:00","2020","02","19","02:00","5.2","","5.1","","99","","","","17","","23","","3.2","","100.47","","","","","","Rain,Fog"
"-66.09","43.83","YARMOUTH A","8206495","2020-02-19 03:00","2020","02","19","03:00","6.6","","6.6","","100","","","","22","","26","","3.2","","100.40","","","","","","Moderate Rain,Fog"
"-66.09","43.83","YARMOUTH A","8206495","2020-02-19 04:00","2020","02","19","04:00","6.5","","6.5","","100","","","","25","","30","","1.6","","100.35","","","","","","Rain,Fog"
"-66.09","43.83","YARMOUTH A","8206495","2020-02-19 05:00","2020","02","19","05:00","5.1","","5.0","","100","","","","27","","21","","1.6","","100.36","","","","","","Rain,Fog"
"-66.09","43.83","YARMOUTH A","8206495","2020-02-19 06:00","2020","02","19","06:00","4.4","","4.3","","99","","","","28","","23","","16.1","","100.48","","","","","","NA"
"-66.09","43.83","YARMOUTH A","8206495","2020-02-19 07:00","2020","02","19","07:00","4.2","","3.6","","96","","","","29","","23","","16.1","","100.54","","","","","","NA"
"-66.09","43.83","YARMOUTH A","8206495","2020-02-19 08:00","2020","02","19","08:00","3.7","","2.9","","94","","","","30","","26","","16.1","","100.58","","","","","","Cloudy"
"-66.09","43.83","YARMOUTH A","8206495","2020-02-19 09:00","2020","02","19","09:00","3.5","","1.6","","88","","","","30","","27","","24.1","","100.66","","","","","","NA"
"-66.09","43.83","YARMOUTH A","8206495","2020-02-19 10:00","2020","02","19","10:00","3.0","","-1.3","","74","","","","32","","32","","24.1","","100.76","","","","","","NA"
"-66.09","43.83","YARMOUTH A","8206495","2020-02-19 11:00","2020","02","19","11:00","4.4","","-0.9","","68","","","","30","","31","","24.1","","100.77","","","","","","Mainly Clear"
"-66.09","43.83","YARMOUTH A","8206495","2020-02-19 12:00","2020","02","19","12:00","4.3","","-2.1","","63","","","","31","","31","","24.1","","100.79","","","","","","NA"
"-66.09","43.83","YARMOUTH A","8206495","2020-02-19 13:00","2020","02","19","13:00","4.7","","-3.7","","55","","","","30","","29","","24.1","","100.79","","","","","","NA"
"-66.09","43.83","YARMOUTH A","8206495","2020-02-19 14:00","2020","02","19","14:00","4.6","","-3.1","","57","","","","28","","34","","24.1","","100.78","","","","","","Mainly Clear"
"-66.09","43.83","YARMOUTH A","8206495","2020-02-19 15:00","2020","02","19","15:00","4.4","","-2.5","","61","","","","29","","35","","24.1","","100.76","","","","","","NA"
"-66.09","43.83","YARMOUTH A","8206495","2020-02-19 16:00","2020","02","19","16:00","3.8","","-4.7","","54","","","","30","","42","","24.1","","100.80","","","","","","NA"
"-66.09","43.83","YARMOUTH A","8206495","2020-02-19 17:00","2020","02","19","17:00","2.1","","-3.9","","65","","","","31","","35","","24.1","","100.91","","","","","","Mainly Clear"
"-66.09","43.83","YARMOUTH A","8206495","2020-02-19 18:00","2020","02","19","18:00","0.7","","-5.2","","65","","","","32","","39","","24.1","","101.08","","","","","","NA"
"-66.09","43.83","YARMOUTH A","8206495","2020-02-19 19:00","2020","02","19","19:00","0.3","","-7.0","","58","","","","31","","38","","24.1","","101.23","","","","","","NA"
"-66.09","43.83","YARMOUTH A","8206495","2020-02-19 20:00","2020","02","19","20:00","-0.3","","-9.0","","52","","","","31","","39","","24.1","","101.31","","","","-8","","Mainly Clear"
"-66.09","43.83","YARMOUTH A","8206495","2020-02-19 21:00","2020","02","19","21:00","-0.8","","-9.7","","51","","","","32","","39","","24.1","","101.39","","","","-8","","NA"
"-66.09","43.83","YARMOUTH A","8206495","2020-02-19 22:00","2020","02","19","22:00","-2.0","","-11.6","","48","","","","32","","39","","24.1","","101.49","","","","-10","","NA"
"-66.09","43.83","YARMOUTH A","8206495","2020-02-19 23:00","2020","02","19","23:00","-2.8","","-12.0","","49","","","","32","","40","","24.1","","101.60","","","","-11","","Mainly Clear"
"-66.09","43.83","YARMOUTH A","8206495","2020-02-20 00:00","2020","02","20","00:00","-3.6","","-12.5","","50","","","","31","","40","","24.1","","101.68","","","","-12","","NA"
"-66.09","43.83","YARMOUTH A","8206495","2020-02-20 01:00","2020","02","20","01:00","-4.1","","-12.2","","54","","","","33","","32","","24.1","","101.76","","","","-12","","NA"
"-66.09","43.83","YARMOUTH A","8206495","2020-02-20 02:00","2020","02","20","02:00","-4.8","","-13.1","","53","","","","32","","39","","24.1","","101.83","","","","-14","","Mostly Cloudy"
"-66.09","43.83","YARMOUTH A","8206495","2020-02-20 03:00","2020","02","20","03:00","-5.5","","-13.5","","53","","","","32","","39","","24.1","","101.86","","","","-15","","NA"
"-66.09","43.83","YARMOUTH A","8206495","2020-02-20 04:00","2020","02","20","04:00","-6.2","","-14.2","","53","","","","32","","33","","24.1","","101.89","","","","-15","","NA"
"-66.09","43.83","YARMOUTH A","8206495","2020-02-20 05:00","2020","02","20","05:00","-6.5","","-14.6","","53","","","","31","","37","","24.1","","101.95","","","","-16","","Cloudy"
"-66.09","43.83","YARMOUTH A","8206495","2020-02-20 06:00","2020","02","20","06:00","-7.3","","-15.9","","51","","","","31","","36","","24.1","","102.00","","","","-17","","NA"
"-66.09","43.83","YARMOUTH A","8206495","2020-02-20 07:00","2020","02","20","07:00","-7.8","","-16.0","","52","","","","32","","32","","24.1","","102.02","","","","-17","","NA"
"-66.09","43.83","YARMOUTH A","8206495","2020-02-20 08:00","2020","02","20","08:00","-7.7","","-15.1","","56","","","","31","","28","","24.1","","102.07","","","","-16","","Mostly Cloudy"
"-66.09","43.83","YARMOUTH A","8206495","2020-02-20 09:00","2020","02","20","09:00","-7.3","","-14.8","","55","","","","31","","31","","24.1","","102.16","","","","-16","","NA"
"-66.09","43.83","YARMOUTH A","8206495","2020-02-20 10:00","2020","02","20","10:00","-7.7","","-14.7","","57","","","","32","","36","","19.3","","102.21","","","","-17","","Snow Showers"
"-66.09","43.83","YARMOUTH A","8206495","2020-02-20 11:00","2020","02","20","11:00","-7.4","","-15.1","","54","","","","32","","28","","19.3","","102.27","","","","-16","","Snow Showers"
"-66.09","43.83","YARMOUTH A","8206495","2020-02-20 12:00","2020","02","20","12:00","-7.7","","-14.8","","57","","","","32","","31","","19.3","","102.27","","","","-17","","Snow Showers"
"-66.09","43.83","YARMOUTH A","8206495","2020-02-20 13:00","2020","02","20","13:00","-8.2","","-15.5","","56","","","","31","","39","","19.3","","102.21","","","","-18","","Snow Showers"
"-66.09","43.83","YARMOUTH A","8206495","2020-02-20 14:00","2020","02","20","14:00","-7.8","","-15.7","","53","","","","31","","35","","19.3","","102.11","","","","-17","","Snow Showers"
"-66.09","43.83","YARMOUTH A","8206495","2020-02-20 15:00","2020","02","20","15:00","-7.2","","-15.7","","51","","","","30","","35","","19.3","","102.10","","","","-16","","Snow Showers"
"-66.09","43.83","YARMOUTH A","8206495","2020-02-20 16:00","2020","02","20","16:00","-7.4","","-15.9","","51","","","","31","","32","","24.1","","102.07","","","","-16","","NA"
"-66.09","43.83","YARMOUTH A","8206495","2020-02-20 17:00","2020","02","20","17:00","-7.0","","-15.5","","51","","","","31","","30","","24.1","","102.08","","","","-16","","Mostly Cloudy"
"-66.09","43.83","YARMOUTH A","8206495","2020-02-20 18:00","2020","02","20","18:00","-6.8","","-15.0","","52","","","","31","","28","","24.1","","102.13","","","","-15","","NA"
"-66.09","43.83","YARMOUTH A","8206495","2020-02-20 19:00","2020","02","20","19:00","-6.3","","-14.5","","53","","","","31","","28","","24.1","","102.19","","","","-14","","NA"
"-66.09","43.83","YARMOUTH A","8206495","2020-02-20 20:00","2020","02","20","20:00","-5.7","","-14.7","","49","","","","31","","28","","19.3","","102.21","","","","-14","","Snow Showers"
"-66.09","43.83","YARMOUTH A","8206495","2020-02-20 21:00","2020","02","20","21:00","-5.6","","-14.3","","51","","","","31","","27","","19.3","","102.24","","","","-13","","Snow Showers"
"-66.09","43.83","YARMOUTH A","8206495","2020-02-20 22:00","2020","02","20","22:00","-6.2","","-12.4","","62","","","","34","","20","","19.3","","102.28","","","","-13","","Snow Showers"
"-66.09","43.83","YARMOUTH A","8206495","2020-02-20 23:00","2020","02","20","23:00","-6.6","","-15.9","","48","","","","34","","23","","24.1","","102.33","","","","-14","","Mostly Cloudy"
"-66.09","43.83","YARMOUTH A","8206495","2020-02-21 00:00","2020","02","21","00:00","-7.6","","-16.2","","51","","","","34","","21","","24.1","","102.30","","","","-15","","NA"
"-66.09","43.83","YARMOUTH A","8206495","2020-02-21 01:00","2020","02","21","01:00","-8.7","","-16.0","","56","","","","34","","22","","24.1","","102.37","","","","-17","","NA"
"-66.09","43.83","YARMOUTH A","8206495","2020-02-21 02:00","2020","02","21","02:00","-9.6","","-16.8","","56","","","","34","","12","","24.1","","102.38","","","","-15","","Mainly Clear"
"-66.09","43.83","YARMOUTH A","8206495","2020-02-21 03:00","2020","02","21","03:00","-10.0","","-15.4","","65","","","","1","","15","","24.1","","102.37","","","","-17","","NA"
"-66.09","43.83","YARMOUTH A","8206495","2020-02-21 04:00","2020","02","21","04:00","-10.6","","-15.6","","67","","","","4","","11","","24.1","","102.45","","","","-16","","NA"
"-66.09","43.83","YARMOUTH A","8206495","2020-02-21 05:00","2020","02","21","05:00","-11.3","","-15.7","","71","","","","5","","13","","24.1","","102.50","","","","-18","","Mainly Clear"
"-66.09","43.83","YARMOUTH A","8206495","2020-02-21 06:00","2020","02","21","06:00","-12.7","","-16.0","","77","","","","3","","14","","24.1","","102.49","","","","-20","","NA"
"-66.09","43.83","YARMOUTH A","8206495","2020-02-21 07:00","2020","02","21","07:00","-13.0","","-16.4","","76","","","","5","","13","","24.1","","102.47","","","","-20","","NA"
"-66.09","43.83","YARMOUTH A","8206495","2020-02-21 08:00","2020","02","21","08:00","-12.2","","-15.9","","74","","","","6","","11","","24.1","","102.51","","","","-18","","Mainly Clear"
"-66.09","43.83","YARMOUTH A","8206495","2020-02-21 09:00","2020","02","21","09:00","-10.5","","-15.9","","65","","","","5","","16","","24.1","","102.54","","","","-18","","NA"
"-66.09","43.83","YARMOUTH A","8206495","2020-02-21 10:00","2020","02","21","10:00","-8.9","","-15.4","","60","","","","4","","17","","24.1","","102.52","","","","-16","","NA"
"-66.09","43.83","YARMOUTH A","8206495","2020-02-21 11:00","2020","02","21","11:00","-7.8","","-15.1","","56","","","","2","","11","","24.1","","102.49","","","","-13","","Clear"
"-66.09","43.83","YARMOUTH A","8206495","2020-02-21 12:00","2020","02","21","12:00","-5.6","","-13.8","","53","","","","33","","12","","24.1","","102.50","","","","-11","","NA"
"-66.09","43.83","YARMOUTH A","8206495","2020-02-21 13:00","2020","02","21","13:00","-6.0","","-14.0","","53","","","","34","","14","","24.1","","102.43","","","","-12","","NA"
"-66.09","43.83","YARMOUTH A","8206495","2020-02-21 14:00","2020","02","21","14:00","-5.4","","-13.3","","54","","","","32","","14","","24.1","","102.34","","","","-11","","Clear"
"-66.09","43.83","YARMOUTH A","8206495","2020-02-21 15:00","2020","02","21","15:00","-5.4","","-13.0","","55","","","","29","","16","","24.1","","102.30","","","","-11","","NA"
"-66.09","43.83","YARMOUTH A","8206495","2020-02-21 16:00","2020","02","21","16:00","-5.8","","-13.0","","57","","","","27","","19","","24.1","","102.25","","","","-12","","NA"
"-66.09","43.83","YARMOUTH A","8206495","2020-02-21 17:00","2020","02","21","17:00","-6.3","","-14.0","","55","","","","30","","14","","24.1","","102.21","","","","-12","","Clear"
"-66.09","43.83","YARMOUTH A","8206495","2020-02-21 18:00","2020","02","21","18:00","-7.4","","-12.9","","65","","","","29","","9","","24.1","","102.18","","","","-12","","NA"
"-66.09","43.83","YARMOUTH A","8206495","2020-02-21 19:00","2020","02","21","19:00","-8.0","","-12.9","","68","","","","27","","10","","24.1","","102.20","","","","-13","","NA"
"-66.09","43.83","YARMOUTH A","8206495","2020-02-21 20:00","2020","02","21","20:00","-7.0","","-12.5","","65","","","","26","","13","","24.1","","102.17","","","","-13","","Clear"
"-66.09","43.83","YARMOUTH A","8206495","2020-02-21 21:00","2020","02","21","21:00","-5.9","","-12.2","","61","","","","25","","15","","24.1","","102.13","","","","-12","","NA"
"-66.09","43.83","YARMOUTH A","8206495","2020-02-21 22:00","2020","02","21","22:00","-5.4","","-12.6","","57","","","","25","","16","","24.1","","102.08","","","","-11","","NA"
"-66.09","43.83","YARMOUTH A","8206495","2020-02-21 23:00","2020","02","21","23:00","-5.2","","-11.6","","61","","","","25","","18","","24.1","","102.00","","","","-11","","Clear"
"-66.09","43.83","YARMOUTH A","8206495","2020-02-22 00:00","2020","02","22","00:00","-4.4","","-10.3","","64","","","","24","","23","","24.1","","101.92","","","","-11","","NA"
"-66.09","43.83","YARMOUTH A","8206495","2020-02-22 01:00","2020","02","22","01:00","-4.0","","-9.7","","65","","","","25","","23","","24.1","","101.89","","","","-11","","NA"
"-66.09","43.83","YARMOUTH A","8206495","2020-02-22 02:00","2020","02","22","02:00","-2.9","","-8.8","","64","","","","25","","28","","24.1","","101.81","","","","-10","","Mostly Cloudy"
"-66.09","43.83","YARMOUTH A","8206495","2020-02-22 03:00","2020","02","22","03:00","-2.1","","-7.8","","66","","","","24","","29","","24.1","","101.73","","","","-9","","NA"
"-66.09","43.83","YARMOUTH A","8206495","2020-02-22 04:00","2020","02","22","04:00","-1.5","","-6.8","","67","","","","24","","22","","24.1","","101.63","","","","-7","","NA"
"-66.09","43.83","YARMOUTH A","8206495","2020-02-22 05:00","2020","02","22","05:00","-1.1","","-6.7","","66","","","","23","","23","","24.1","","101.56","","","","-7","","Mostly Cloudy"
"-66.09","43.83","YARMOUTH A","8206495","2020-02-22 06:00","2020","02","22","06:00","-0.4","","-5.8","","67","","","","23","","23","","24.1","","101.53","","","","-6","","NA"
"-66.09","43.83","YARMOUTH A","8206495","2020-02-22 07:00","2020","02","22","07:00","0.2","","-4.8","","69","","","","24","","28","","24.1","","101.52","","","","","","NA"
"-66.09","43.83","YARMOUTH A","8206495","2020-02-22 08:00","2020","02","22","08:00","1.0","","-5.9","","60","","","","24","","28","","24.1","","101.50","","","","","","Cloudy"
"-66.09","43.83","YARMOUTH A","8206495","2020-02-22 09:00","2020","02","22","09:00","1.7","","-5.1","","61","","","","24","","30","","24.1","","101.49","","","","","","NA"
"-66.09","43.83","YARMOUTH A","8206495","2020-02-22 10:00","2020","02","22","10:00","2.3","","-4.0","","63","","","","25","","31","","22.5","","101.43","","","","","","NA"
"-66.09","43.83","YARMOUTH A","8206495","2020-02-22 11:00","2020","02","22","11:00","3.8","","-4.7","","54","","","","25","","32","","24.1","","101.39","","","","","","Mostly Cloudy"
"-66.09","43.83","YARMOUTH A","8206495","2020-02-22 12:00","2020","02","22","12:00","3.5","","-5.1","","53","","","","27","","33","","24.1","","101.39","","","","","","NA"
"-66.09","43.83","YARMOUTH A","8206495","2020-02-22 13:00","2020","02","22","13:00","2.9","","-4.9","","57","","","","27","","22","","24.1","","101.31","","","","","","NA"
"-66.09","43.83","YARMOUTH A","8206495","2020-02-22 14:00","2020","02","22","14:00","2.7","","-4.8","","58","","","","29","","25","","24.1","","101.26","","","","","","Mostly Cloudy"
"-66.09","43.83","YARMOUTH A","8206495","2020-02-22 15:00","2020","02","22","15:00","2.8","","-6.0","","52","","","","29","","23","","24.1","","101.25","","","","","","NA"
"-66.09","43.83","YARMOUTH A","8206495","2020-02-22 16:00","2020","02","22","16:00","2.5","","-6.3","","52","","","","26","","21","","24.1","","101.23","","","","","","NA"
"-66.09","43.83","YARMOUTH A","8206495","2020-02-22 17:00","2020","02","22","17:00","1.9","","-5.8","","57","","","","26","","20","","24.1","","101.23","","","","","","Mainly Clear"
"-66.09","43.83","YARMOUTH A","8206495","2020-02-22 18:00","2020","02","22","18:00","0.4","","-4.6","","69","","","","26","","16","","24.1","","101.26","","","","","","NA"
"-66.09","43.83","YARMOUTH A","8206495","2020-02-22 19:00","2020","02","22","19:00","0.1","","-4.2","","73","","","","26","","16","","24.1","","101.31","","","","","","NA"
"-66.09","43.83","YARMOUTH A","8206495","2020-02-22 20:00","2020","02","22","20:00","-0.2","","-4.7","","72","","","","26","","13","","24.1","","101.37","","","","-4","","Mainly Clear"
"-66.09","43.83","YARMOUTH A","8206495","2020-02-22 21:00","2020","02","22","21:00","-0.8","","-5.1","","73","","","","26","","13","","24.1","","101.39","","","","-5","","NA"
"-66.09","43.83","YARMOUTH A","8206495","2020-02-22 22:00","2020","02","22","22:00","-1.0","","-4.7","","76","","","","26","","13","","24.1","","101.43","","","","-5","","NA"
"-66.09","43.83","YARMOUTH A","8206495","2020-02-22 23:00","2020","02","22","23:00","-0.7","","-4.0","","79","","","","27","","11","","24.1","","101.45","","","","-4","","Clear"
"-66.09","43.83","YARMOUTH A","8206495","2020-02-23 00:00","2020","02","23","00:00","0.4","","-3.1","","77","","","","26","","7","","24.1","","101.46","","","","","","NA"
"-66.09","43.83","YARMOUTH A","8206495","2020-02-23 01:00","2020","02","23","01:00","-0.7","","-3.9","","79","","","","27","","10","","24.1","","101.46","","","","-4","","NA"
"-66.09","43.83","YARMOUTH A","8206495","2020-02-23 02:00","2020","02","23","02:00","0.2","","-2.5","","82","","","","28","","12","","24.1","","101.49","","","","","","Clear"
"-66.09","43.83","YARMOUTH A","8206495","2020-02-23 03:00","2020","02","23","03:00","0.6","","-2.2","","82","","","","27","","9","","24.1","","101.47","","","","","","NA"
"-66.09","43.83","YARMOUTH A","8206495","2020-02-23 04:00","2020","02","23","04:00","-1.2","","-3.4","","85","","","","27","","7","","24.1","","101.47","","","","-4","","NA"
"-66.09","43.83","YARMOUTH A","8206495","2020-02-23 05:00","2020","02","23","05:00","-1.2","","-2.4","","92","","","","23","","7","","24.1","","101.50","","","","-4","","Clear"
"-66.09","43.83","YARMOUTH A","8206495","2020-02-23 06:00","2020","02","23","06:00","-0.8","","-1.2","","97","","","","23","","9","","24.1","","101.55","","","","-4","","NA"
"-66.09","43.83","YARMOUTH A","8206495","2020-02-23 07:00","2020","02","23","07:00","-2.4","","-2.7","","98","","","","16","","4","","19.3","","101.55","","","","-4","","NA"
"-66.09","43.83","YARMOUTH A","8206495","2020-02-23 08:00","2020","02","23","08:00","-0.5","","-0.6","","99","","","","18","","9","","19.3","","101.61","","","","-4","","Clear"
"-66.09","43.83","YARMOUTH A","8206495","2020-02-23 09:00","2020","02","23","09:00","2.0","","0.7","","91","","","","19","","8","","24.1","","101.65","","","","","","NA"
"-66.09","43.83","YARMOUTH A","8206495","2020-02-23 10:00","2020","02","23","10:00","4.8","","1.1","","77","","","","23","","17","","24.1","","101.66","","","","","","NA"
"-66.09","43.83","YARMOUTH A","8206495","2020-02-23 11:00","2020","02","23","11:00","5.5","","-1.3","","61","","","","25","","19","","24.1","","101.65","","","","","","Clear"
"-66.09","43.83","YARMOUTH A","8206495","2020-02-23 12:00","2020","02","23","12:00","5.5","","-2.0","","58","","","","23","","21","","24.1","","101.64","","","","","","NA"
"-66.09","43.83","YARMOUTH A","8206495","2020-02-23 13:00","2020","02","23","13:00","6.0","","-1.0","","61","","","","24","","22","","24.1","","101.60","","","","","","NA"
"-66.09","43.83","YARMOUTH A","8206495","2020-02-23 14:00","2020","02","23","14:00","5.7","","-0.4","","65","","","","25","","22","","24.1","","101.53","","","","","","Mainly Clear"
"-66.09","43.83","YARMOUTH A","8206495","2020-02-23 15:00","2020","02","23","15:00","5.7","","-0.1","","66","","","","24","","21","","24.1","","101.51","","","","","","NA"
"-66.09","43.83","YARMOUTH A","8206495","2020-02-23 16:00","2020","02","23","16:00","5.0","","-0.3","","68","","","","24","","21","","24.1","","101.50","","","","","","NA"
"-66.09","43.83","YARMOUTH A","8206495","2020-02-23 17:00","2020","02","23","17:00","4.3","","0.0","","74","","","","23","","16","","24.1","","101.51","","","","","","Mainly Clear"
"-66.09","43.83","YARMOUTH A","8206495","2020-02-23 18:00","2020","02","23","18:00","3.0","","0.5","","83","","","","21","","9","","16.1","","101.51","","","","","","Smoke"
"-66.09","43.83","YARMOUTH A","8206495","2020-02-23 19:00","2020","02","23","19:00","1.3","","0.3","","93","","","","17","","7","","14.5","","101.54","","","","","","Smoke"
"-66.09","43.83","YARMOUTH A","8206495","2020-02-23 20:00","2020","02","23","20:00","0.4","","0.1","","97","","","","17","","8","","14.5","","101.55","","","","","","Clear"
"-66.09","43.83","YARMOUTH A","8206495","2020-02-23 21:00","2020","02","23","21:00","-0.3","","-0.5","","99","","","","19","","10","","14.5","","101.54","","","","-4","","NA"
"-66.09","43.83","YARMOUTH A","8206495","2020-02-23 22:00","2020","02","23","22:00","-0.4","","-0.6","","99","","","","19","","11","","14.5","","101.51","","","","-4","","NA"
"-66.09","43.83","YARMOUTH A","8206495","2020-02-23 23:00","2020","02","23","23:00","-0.4","","-0.6","","99","","","","18","","10","","14.5","","101.50","","","","-4","","Clear"
"-66.09","43.83","YARMOUTH A","8206495","2020-02-24 00:00","2020","02","24","00:00","0.3","","0.1","","99","","","","18","","13","","14.5","","101.49","","","","","","NA"
"-66.09","43.83","YARMOUTH A","8206495","2020-02-24 01:00","2020","02","24","01:00","1.2","","1.1","","99","","","","20","","14","","14.5","","101.47","","","","","","NA"
"-66.09","43.83","YARMOUTH A","8206495","2020-02-24 02:00","2020","02","24","02:00","2.6","","2.5","","99","","","","20","","16","","4.8","","101.48","","","","","","Fog"
"-66.09","43.83","YARMOUTH A","8206495","2020-02-24 03:00","2020","02","24","03:00","1.6","","1.5","","99","","","","19","","10","","8.1","","101.46","","","","","","Fog"
"-66.09","43.83","YARMOUTH A","8206495","2020-02-24 04:00","2020","02","24","04:00","0.0","","-0.1","","99","","","","18","","7","","0.4","","101.42","","","","-2","","Freezing Fog"
"-66.09","43.83","YARMOUTH A","8206495","2020-02-24 05:00","2020","02","24","05:00","-1.6","","-1.7","","100","","","","17","","7","","0.4","","101.42","","","","-4","","Freezing Fog"
"-66.09","43.83","YARMOUTH A","8206495","2020-02-24 06:00","2020","02","24","06:00","-1.9","","-1.9","","100","","","","16","","5","","0.4","","101.40","","","","-4","","Freezing Fog"
"-66.09","43.83","YARMOUTH A","8206495","2020-02-24 07:00","2020","02","24","07:00","-2.5","","-2.5","","99","","","","36","","3","","0.4","","101.39","","","","-4","","Freezing Fog"
"-66.09","43.83","YARMOUTH A","8206495","2020-02-24 08:00","2020","02","24","08:00","-0.4","","-0.5","","100","","","","14","","7","","0.4","","101.43","","","","-3","","Freezing Fog"
"-66.09","43.83","YARMOUTH A","8206495","2020-02-24 09:00","2020","02","24","09:00","2.2","","2.2","","100","","","","18","","12","","3.2","","101.44","","","","","","Fog"
"-66.09","43.83","YARMOUTH A","8206495","2020-02-24 10:00","2020","02","24","10:00","4.2","","4.1","","100","","","","20","","19","","12.9","","101.46","","","","","","NA"
"-66.09","43.83","YARMOUTH A","8206495","2020-02-24 11:00","2020","02","24","11:00","6.1","","3.4","","83","","","","22","","23","","12.9","","101.43","","","","","","Mainly Clear"
"-66.09","43.83","YARMOUTH A","8206495","2020-02-24 12:00","2020","02","24","12:00","6.7","","3.1","","78","","","","23","","26","","12.9","","101.41","","","","","","NA"
"-66.09","43.83","YARMOUTH A","8206495","2020-02-24 13:00","2020","02","24","13:00","7.0","","3.0","","75","","","","24","","26","","16.1","","101.37","","","","","","NA"
"-66.09","43.83","YARMOUTH A","8206495","2020-02-24 14:00","2020","02","24","14:00","7.3","","3.2","","75","","","","23","","20","","16.1","","101.31","","","","","","Mainly Clear"
"-66.09","43.83","YARMOUTH A","8206495","2020-02-24 15:00","2020","02","24","15:00","7.1","","3.2","","76","","","","23","","21","","16.1","","101.30","","","","","","NA"
"-66.09","43.83","YARMOUTH A","8206495","2020-02-24 16:00","2020","02","24","16:00","7.4","","2.7","","72","","","","21","","17","","16.1","","101.25","","","","","","NA"
"-66.09","43.83","YARMOUTH A","8206495","2020-02-24 17:00","2020","02","24","17:00","6.6","","2.0","","72","","","","20","","15","","16.1","","101.26","","","","","","Mainly Clear"
"-66.09","43.83","YARMOUTH A","8206495","2020-02-24 18:00","2020","02","24","18:00","3.7","","1.8","","88","","","","18","","15","","16.1","","101.25","","","","","","NA"
"-66.09","43.83","YARMOUTH A","8206495","2020-02-24 19:00","2020","02","24","19:00","1.8","","0.9","","94","","","","17","","10","","24.1","","101.25","","","","","","NA"
"-66.09","43.83","YARMOUTH A","8206495","2020-02-24 20:00","2020","02","24","20:00","1.8","","1.0","","94","","","","18","","9","","24.1","","101.23","","","","","","Mainly Clear"
"-66.09","43.83","YARMOUTH A","8206495","2020-02-24 21:00","2020","02","24","21:00","2.0","","1.4","","96","","","","19","","14","","24.1","","101.24","","","","","","NA"
"-66.09","43.83","YARMOUTH A","8206495","2020-02-24 22:00","2020","02","24","22:00","2.5","","1.7","","94","","","","18","","13","","24.1","","101.22","","","","","","NA"
"-66.09","43.83","YARMOUTH A","8206495","2020-02-24 23:00","2020","02","24","23:00","3.3","","2.5","","94","","","","20","","19","","24.1","","101.22","","","","","","Clear"
"-66.09","43.83","YARMOUTH A","8206495","2020-02-25 00:00","2020","02","25","00:00","3.8","","2.6","","92","","","","20","","18","","24.1","","101.19","","","","","","NA"
"-66.09","43.83","YARMOUTH A","8206495","2020-02-25 01:00","2020","02","25","01:00","3.6","","2.1","","90","","","","19","","17","","24.1","","101.17","","","","","","NA"
"-66.09","43.83","YARMOUTH A","8206495","2020-02-25 02:00","2020","02","25","02:00","4.2","","2.5","","89","","","","21","","17","","24.1","","101.15","","","","","","Mainly Clear"
"-66.09","43.83","YARMOUTH A","8206495","2020-02-25 03:00","2020","02","25","03:00","4.6","","2.3","","85","","","","21","","16","","24.1","","101.14","","","","","","NA"
"-66.09","43.83","YARMOUTH A","8206495","2020-02-25 04:00","2020","02","25","04:00","2.4","","1.3","","92","","","","20","","8","","24.1","","101.07","","","","","","NA"
"-66.09","43.83","YARMOUTH A","8206495","2020-02-25 05:00","2020","02","25","05:00","2.5","","1.4","","93","","","","11","","3","","24.1","","101.00","","","","","","Cloudy"
"-66.09","43.83","YARMOUTH A","8206495","2020-02-25 06:00","2020","02","25","06:00","1.0","","0.5","","97","","","","12","","3","","24.1","","101.01","","","","","","NA"
"-66.09","43.83","YARMOUTH A","8206495","2020-02-25 07:00","2020","02","25","07:00","1.6","","1.0","","96","","","","16","","6","","24.1","","101.03","","","","","","NA"
"-66.09","43.83","YARMOUTH A","8206495","2020-02-25 08:00","2020","02","25","08:00","2.8","","2.2","","95","","","","15","","7","","19.3","","101.10","","","","","","Cloudy"
"-66.09","43.83","YARMOUTH A","8206495","2020-02-25 09:00","2020","02","25","09:00","2.4","","1.8","","96","","","","11","","4","","19.3","","101.06","","","","","","NA"
"-66.09","43.83","YARMOUTH A","8206495","2020-02-25 10:00","2020","02","25","10:00","4.5","","3.2","","92","","","","16","","8","","19.3","","101.04","","","","","","NA"
"-66.09","43.83","YARMOUTH A","8206495","2020-02-25 11:00","2020","02","25","11:00","5.7","","4.0","","89","","","","18","","13","","19.3","","101.00","","","","","","Cloudy"
"-66.09","43.83","YARMOUTH A","8206495","2020-02-25 12:00","2020","02","25","12:00","7.2","","4.6","","84","","","","18","","9","","24.1","","100.98","","","","","","NA"
"-66.09","43.83","YARMOUTH A","8206495","2020-02-25 13:00","2020","02","25","13:00","7.4","","5.4","","87","","","","14","","8","","24.1","","100.93","","","","","","NA"
"-66.09","43.83","YARMOUTH A","8206495","2020-02-25 14:00","2020","02","25","14:00","8.1","","4.7","","79","","","","26","","9","","24.1","","100.91","","","","","","Mostly Cloudy"
"-66.09","43.83","YARMOUTH A","8206495","2020-02-25 15:00","2020","02","25","15:00","7.7","","4.7","","81","","","","26","","8","","24.1","","100.84","","","","","","NA"
"-66.09","43.83","YARMOUTH A","8206495","2020-02-25 16:00","2020","02","25","16:00","7.0","","4.8","","86","","","","16","","7","","19.3","","100.84","","","","","","NA"
"-66.09","43.83","YARMOUTH A","8206495","2020-02-25 17:00","2020","02","25","17:00","6.7","","4.5","","86","","","","27","","7","","19.3","","100.86","","","","","","Cloudy"
"-66.09","43.83","YARMOUTH A","8206495","2020-02-25 18:00","2020","02","25","18:00","5.6","","4.3","","91","","","","15","","5","","19.3","","100.86","","","","","","NA"
"-66.09","43.83","YARMOUTH A","8206495","2020-02-25 19:00","2020","02","25","19:00","5.2","","4.2","","93","","","","16","","3","","24.1","","100.90","","","","","","NA"
"-66.09","43.83","YARMOUTH A","8206495","2020-02-25 20:00","2020","02","25","20:00","4.8","","3.8","","94","","","","36","","2","","24.1","","100.94","","","","","","Cloudy"
"-66.09","43.83","YARMOUTH A","8206495","2020-02-25 21:00","2020","02","25","21:00","4.3","","3.5","","94","","","","25","","4","","24.1","","100.95","","","","","","NA"
"-66.09","43.83","YARMOUTH A","8206495","2020-02-25 22:00","2020","02","25","22:00","3.9","","3.4","","97","","","","16","","5","","24.1","","100.95","","","","","","NA"
"-66.09","43.83","YARMOUTH A","8206495","2020-02-25 23:00","2020","02","25","23:00","3.8","","3.5","","98","","","","18","","5","","24.1","","100.94","","","","","","Cloudy"
"-66.09","43.83","YARMOUTH A","8206495","2020-02-26 00:00","2020","02","26","00:00","3.8","","3.6","","99","","","","19","","6","","24.1","","100.90","","","","","","NA"
"-66.09","43.83","YARMOUTH A","8206495","2020-02-26 01:00","2020","02","26","01:00","3.6","","3.4","","98","","","","17","","3","","24.1","","100.90","","","","","","NA"
"-66.09","43.83","YARMOUTH A","8206495","2020-02-26 02:00","2020","02","26","02:00","2.9","","2.7","","99","","","","36","","1","","14.5","","100.92","","","","","","Cloudy"
"-66.09","43.83","YARMOUTH A","8206495","2020-02-26 03:00","2020","02","26","03:00","3.0","","2.9","","99","","","","36","","3","","1.2","","100.92","","","","","","Fog"
"-66.09","43.83","YARMOUTH A","8206495","2020-02-26 04:00","2020","02","26","04:00","3.1","","3.0","","100","","","","11","","5","","0.4","","100.95","","","","","","Fog"
"-66.09","43.83","YARMOUTH A","8206495","2020-02-26 05:00","2020","02","26","05:00","3.2","","3.2","","100","","","","12","","3","","0.4","","101.00","","","","","","Fog"
"-66.09","43.83","YARMOUTH A","8206495","2020-02-26 06:00","2020","02","26","06:00","3.0","","2.9","","100","","","","17","","5","","0.4","","101.04","","","","","","Fog"
"-66.09","43.83","YARMOUTH A","8206495","2020-02-26 07:00","2020","02","26","07:00","3.1","","3.1","","100","","","","36","","2","","0.2","","101.08","","","","","","Rain,Fog"
"-66.09","43.83","YARMOUTH A","8206495","2020-02-26 08:00","2020","02","26","08:00","3.2","","3.2","","100","","","","36","","2","","0.6","","101.11","","","","","","Fog"
"-66.09","43.83","YARMOUTH A","8206495","2020-02-26 09:00","2020","02","26","09:00","4.0","","4.0","","100","","","","36","","9","","0.8","","101.14","","","","","","Fog"
"-66.09","43.83","YARMOUTH A","8206495","2020-02-26 10:00","2020","02","26","10:00","6.0","","6.0","","100","","","","4","","10","","19.3","","101.12","","","","","","NA"
"-66.09","43.83","YARMOUTH A","8206495","2020-02-26 11:00","2020","02","26","11:00","8.2","","5.4","","82","","","","36","","1","","19.3","","101.17","","","","","","Mostly Cloudy"
"-66.09","43.83","YARMOUTH A","8206495","2020-02-26 12:00","2020","02","26","12:00","9.0","","6.0","","81","","","","28","","8","","19.3","","101.18","","","","","","NA"
"-66.09","43.83","YARMOUTH A","8206495","2020-02-26 13:00","2020","02","26","13:00","6.3","","4.2","","86","","","","29","","18","","19.3","","101.20","","","","","","NA"
"-66.09","43.83","YARMOUTH A","8206495","2020-02-26 14:00","2020","02","26","14:00","8.0","","4.2","","77","","","","34","","10","","24.1","","101.15","","","","","","Mostly Cloudy"
"-66.09","43.83","YARMOUTH A","8206495","2020-02-26 15:00","2020","02","26","15:00","8.6","","3.7","","71","","","","30","","9","","24.1","","101.13","","","","","","NA"
"-66.09","43.83","YARMOUTH A","8206495","2020-02-26 16:00","2020","02","26","16:00","8.8","","3.8","","71","","","","26","","6","","24.1","","101.16","","","","","","NA"
"-66.09","43.83","YARMOUTH A","8206495","2020-02-26 17:00","2020","02","26","17:00","8.1","","4.3","","77","","","","18","","7","","24.1","","101.17","","","","","","Cloudy"
"-66.09","43.83","YARMOUTH A","8206495","2020-02-26 18:00","2020","02","26","18:00","4.6","","3.4","","92","","","","17","","8","","24.1","","101.16","","","","","","NA"
"-66.09","43.83","YARMOUTH A","8206495","2020-02-26 19:00","2020","02","26","19:00","4.0","","3.4","","96","","","","19","","10","","24.1","","101.29","","","","","","NA"
"-66.09","43.83","YARMOUTH A","8206495","2020-02-26 20:00","2020","02","26","20:00","3.7","","3.2","","97","","","","36","","3","","24.1","","101.37","","","","","","Cloudy"
"-66.09","43.83","YARMOUTH A","8206495","2020-02-26 21:00","2020","02","26","21:00","4.2","","3.5","","95","","","","9","","9","","24.1","","101.29","","","","","","NA"
"-66.09","43.83","YARMOUTH A","8206495","2020-02-26 22:00","2020","02","26","22:00","4.4","","3.4","","93","","","","8","","12","","24.1","","101.24","","","","","","NA"
"-66.09","43.83","YARMOUTH A","8206495","2020-02-26 23:00","2020","02","26","23:00","4.2","","3.1","","93","","","","10","","13","","24.1","","101.22","","","","","","Cloudy"
"-66.09","43.83","YARMOUTH A","8206495","2020-02-27 00:00","2020","02","27","00:00","4.1","","3.0","","93","","","","9","","16","","24.1","","101.19","","","","","","NA"
"-66.09","43.83","YARMOUTH A","8206495","2020-02-27 01:00","2020","02","27","01:00","4.0","","2.9","","92","","","","9","","18","","24.1","","101.13","","","","","","NA"
"-66.09","43.83","YARMOUTH A","8206495","2020-02-27 02:00","2020","02","27","02:00","4.1","","2.8","","91","","","","9","","28","","24.1","","101.08","","","","","","Cloudy"
"-66.09","43.83","YARMOUTH A","8206495","2020-02-27 03:00","2020","02","27","03:00","4.2","","2.7","","90","","","","10","","26","","24.1","","101.03","","","","","","NA"
"-66.09","43.83","YARMOUTH A","8206495","2020-02-27 04:00","2020","02","27","04:00","4.1","","2.2","","88","","","","10","","28","","24.1","","100.95","","","","","","NA"
"-66.09","43.83","YARMOUTH A","8206495","2020-02-27 05:00","2020","02","27","05:00","3.2","","0.2","","80","","","","10","","34","","24.1","","100.79","","","","","","Cloudy"
"-66.09","43.83","YARMOUTH A","8206495","2020-02-27 06:00","2020","02","27","06:00","2.7","","-0.3","","81","","","","10","","35","","24.1","","100.68","","","","","","NA"
"-66.09","43.83","YARMOUTH A","8206495","2020-02-27 07:00","2020","02","27","07:00","2.7","","-0.1","","82","","","","10","","36","","24.1","","100.46","","","","","","NA"
"-66.09","43.83","YARMOUTH A","8206495","2020-02-27 08:00","2020","02","27","08:00","2.8","","-0.1","","81","","","","9","","39","","19.3","","100.38","","","","","","Cloudy"
"-66.09","43.83","YARMOUTH A","8206495","2020-02-27 09:00","2020","02","27","09:00","2.5","","0.4","","86","","","","10","","47","","16.1","","100.23","","","","","","Rain"
"-66.09","43.83","YARMOUTH A","8206495","2020-02-27 10:00","2020","02","27","10:00","1.2","","0.7","","96","","","","9","","46","","4.8","","100.06","","","","","","Rain,Fog"
"-66.09","43.83","YARMOUTH A","8206495","2020-02-27 11:00","2020","02","27","11:00","1.4","","0.9","","97","","","","9","","62","","4.8","","99.81","","","","","","Rain,Fog"
"-66.09","43.83","YARMOUTH A","8206495","2020-02-27 12:00","2020","02","27","12:00","1.6","","1.1","","97","","","","10","","55","","6.4","","99.50","","","","","","Moderate Rain,Fog"
"-66.09","43.83","YARMOUTH A","8206495","2020-02-27 13:00","2020","02","27","13:00","1.8","","1.4","","97","","","","10","","60","","6.4","","99.27","","","","","","Rain,Fog"
"-66.09","43.83","YARMOUTH A","8206495","2020-02-27 14:00","2020","02","27","14:00","2.2","","1.7","","97","","","","10","","47","","6.4","","99.02","","","","","","Rain,Fog"
"-66.09","43.83","YARMOUTH A","8206495","2020-02-27 15:00","2020","02","27","15:00","2.4","","1.9","","96","","","","10","","48","","4.8","","98.75","","","","","","Rain,Fog"
"-66.09","43.83","YARMOUTH A","8206495","2020-02-27 16:00","2020","02","27","16:00","2.6","","2.2","","97","","","","10","","38","","9.7","","98.78","","","","","","Rain,Fog"
"-66.09","43.83","YARMOUTH A","8206495","2020-02-27 17:00","2020","02","27","17:00","2.7","","2.4","","98","","","","11","","23","","16.1","","98.75","","","","","","Rain"
"-66.09","43.83","YARMOUTH A","8206495","2020-02-27 18:00","2020","02","27","18:00","3.2","","2.8","","97","","","","11","","12","","24.1","","98.81","","","","","","NA"
"-66.09","43.83","YARMOUTH A","8206495","2020-02-27 19:00","2020","02","27","19:00","3.4","","3.1","","98","","","","18","","11","","24.1","","98.86","","","","","","NA"
"-66.09","43.83","YARMOUTH A","8206495","2020-02-27 20:00","2020","02","27","20:00","4.1","","3.4","","95","","","","22","","24","","24.1","","98.89","","","","","","Mostly Cloudy"
"-66.09","43.83","YARMOUTH A","8206495","2020-02-27 21:00","2020","02","27","21:00","4.0","","0.2","","76","","","","25","","32","","24.1","","98.96","","","","","","NA"
"-66.09","43.83","YARMOUTH A","8206495","2020-02-27 22:00","2020","02","27","22:00","2.7","","-2.4","","69","","","","26","","42","","24.1","","99.07","","","","","","NA"
"-66.09","43.83","YARMOUTH A","8206495","2020-02-27 23:00","2020","02","27","23:00","2.2","","-3.4","","67","","","","26","","52","","24.1","","99.14","","","","","","Cloudy"
"-66.09","43.83","YARMOUTH A","8206495","2020-02-28 00:00","2020","02","28","00:00","1.9","","-3.2","","69","","","","26","","39","","24.1","","99.22","","","","","","NA"
"-66.09","43.83","YARMOUTH A","8206495","2020-02-28 01:00","2020","02","28","01:00","1.6","","-3.7","","68","","","","26","","41","","24.1","","99.32","","","","","","NA"
"-66.09","43.83","YARMOUTH A","8206495","2020-02-28 02:00","2020","02","28","02:00","1.2","","-4.6","","66","","","","26","","45","","24.1","","99.41","","","","","","Cloudy"
"-66.09","43.83","YARMOUTH A","8206495","2020-02-28 03:00","2020","02","28","03:00","0.8","","-5.2","","64","","","","26","","45","","24.1","","99.47","","","","","","NA"
"-66.09","43.83","YARMOUTH A","8206495","2020-02-28 04:00","2020","02","28","04:00","0.4","","-4.9","","67","","","","26","","37","","24.1","","99.51","","","","","","NA"
"-66.09","43.83","YARMOUTH A","8206495","2020-02-28 05:00","2020","02","28","05:00","0.4","","-6.1","","62","","","","26","","39","","24.1","","99.58","","","","","","Cloudy"
"-66.09","43.83","YARMOUTH A","8206495","2020-02-28 06:00","2020","02","28","06:00","-1.2","","-3.9","","82","","","","25","","43","","14.5","","99.67","","","","-9","","Snow Showers"
"-66.09","43.83","YARMOUTH A","8206495","2020-02-28 07:00","2020","02","28","07:00","-0.3","","-5.2","","69","","","","26","","31","","12.9","","99.73","","","","-7","","NA"
"-66.09","43.83","YARMOUTH A","8206495","2020-02-28 08:00","2020","02","28","08:00","-0.6","","-6.0","","67","","","","27","","39","","12.9","","99.81","","","","-8","","Snow Pellets"
"-66.09","43.83","YARMOUTH A","8206495","2020-02-28 09:00","2020","02","28","09:00","-0.6","","-6.0","","67","","","","27","","40","","12.9","","99.87","","","","-8","","Snow Showers"
"-66.09","43.83","YARMOUTH A","8206495","2020-02-28 10:00","2020","02","28","10:00","1.0","","-7.0","","55","","","","26","","45","","12.9","","99.94","","","","","","Snow Showers"
"-66.09","43.83","YARMOUTH A","8206495","2020-02-28 11:00","2020","02","28","11:00","0.5","","-8.2","","52","","","","27","","42","","16.1","","99.96","","","","","","Snow Showers"
"-66.09","43.83","YARMOUTH A","8206495","2020-02-28 12:00","2020","02","28","12:00","0.7","","-4.5","","69","","","","27","","29","","16.1","","100.00","","","","","","Snow Showers"
"-66.09","43.83","YARMOUTH A","8206495","2020-02-28 13:00","2020","02","28","13:00","0.1","","-4.6","","71","","","","25","","28","","16.1","","100.00","","","","","","Snow Showers"
"-66.09","43.83","YARMOUTH A","8206495","2020-02-28 14:00","2020","02","28","14:00","0.6","","-6.5","","59","","","","26","","39","","16.1","","99.99","","","","","","Cloudy"
"-66.09","43.83","YARMOUTH A","8206495","2020-02-28 15:00","2020","02","28","15:00","1.1","","-7.4","","53","","","","27","","40","","19.3","","100.02","","","","","","Snow Showers"
"-66.09","43.83","YARMOUTH A","8206495","2020-02-28 16:00","2020","02","28","16:00","0.7","","-7.1","","56","","","","25","","35","","32.2","","100.06","","","","","","Snow Showers"
"-66.09","43.83","YARMOUTH A","8206495","2020-02-28 17:00","2020","02","28","17:00","0.5","","-7.3","","56","","","","26","","34","","19.3","","100.10","","","","","","Snow Showers"
"-66.09","43.83","YARMOUTH A","8206495","2020-02-28 18:00","2020","02","28","18:00","0.5","","-7.3","","56","","","","26","","28","","19.3","","100.16","","","","","","Snow Showers"
"-66.09","43.83","YARMOUTH A","8206495","2020-02-28 19:00","2020","02","28","19:00","0.2","","-6.7","","60","","","","26","","26","","19.3","","100.23","","","","","","Snow Showers"
"-66.09","43.83","YARMOUTH A","8206495","2020-02-28 20:00","2020","02","28","20:00","0.4","","-5.5","","64","","","","25","","30","","19.3","","100.31","","","","","","Snow Showers"
"-66.09","43.83","YARMOUTH A","8206495","2020-02-28 21:00","2020","02","28","21:00","0.6","","-6.5","","59","","","","26","","18","","14.5","","100.33","","","","","","Snow Showers"
"-66.09","43.83","YARMOUTH A","8206495","2020-02-28 22:00","2020","02","28","22:00","-0.2","","-5.8","","66","","","","25","","17","","14.5","","100.37","","","","-5","","Snow Showers"
"-66.09","43.83","YARMOUTH A","8206495","2020-02-28 23:00","2020","02","28","23:00","-1.2","","-3.2","","86","","","","24","","27","","8.1","","100.39","","","","-8","","Snow Showers"
"-66.09","43.83","YARMOUTH A","8206495","2020-02-29 00:00","2020","02","29","00:00","-0.9","","-4.5","","77","","","","29","","16","","14.5","","100.35","","","","-6","","Snow Showers"
"-66.09","43.83","YARMOUTH A","8206495","2020-02-29 01:00","2020","02","29","01:00","-0.9","","-3.2","","85","","","","23","","17","","14.5","","100.35","","","","-6","","Snow Showers"
"-66.09","43.83","YARMOUTH A","8206495","2020-02-29 02:00","2020","02","29","02:00","-0.5","","-5.6","","69","","","","29","","20","","14.5","","100.36","","","","-6","","Snow Showers"
"-66.09","43.83","YARMOUTH A","8206495","2020-02-29 03:00","2020","02","29","03:00","-1.2","","-6.7","","66","","","","27","","14","","14.5","","100.35","","","","-6","","NA"
"-66.09","43.83","YARMOUTH A","8206495","2020-02-29 04:00","2020","02","29","04:00","-1.2","","-5.7","","72","","","","26","","15","","14.5","","100.35","","","","-6","","Snow Showers"
"-66.09","43.83","YARMOUTH A","8206495","2020-02-29 05:00","2020","02","29","05:00","-3.1","","-4.8","","88","","","","19","","11","","14.5","","100.31","","","","-7","","Snow Showers"
"-66.09","43.83","YARMOUTH A","8206495","2020-02-29 06:00","2020","02","29","06:00","-2.6","","-4.6","","86","","","","20","","11","","14.5","","100.31","","","","-7","","Snow Showers"
"-66.09","43.83","YARMOUTH A","8206495","2020-02-29 07:00","2020","02","29","07:00","-2.6","","-4.9","","84","","","","17","","9","","24.1","","100.30","","","","-6","","NA"
"-66.09","43.83","YARMOUTH A","8206495","2020-02-29 08:00","2020","02","29","08:00","-1.7","","-3.7","","86","","","","16","","11","","24.1","","100.31","","","","-6","","Mainly Clear"
"-66.09","43.83","YARMOUTH A","8206495","2020-02-29 09:00","2020","02","29","09:00","1.6","","-6.9","","53","","","","22","","18","","24.1","","100.33","","","","","","NA"
"-66.09","43.83","YARMOUTH A","8206495","2020-02-29 10:00","2020","02","29","10:00","0.0","","-5.0","","69","","","","26","","14","","8.1","","100.34","","","","-4","","Snow Showers"
"-66.09","43.83","YARMOUTH A","8206495","2020-02-29 11:00","2020","02","29","11:00","2.2","","-3.8","","65","","","","27","","25","","24.1","","100.32","","","","","","Mostly Cloudy"
"-66.09","43.83","YARMOUTH A","8206495","2020-02-29 12:00","2020","02","29","12:00","-0.2","","-3.3","","80","","","","24","","16","","2.4","","100.35","","","","-5","","Snow Showers"
"-66.09","43.83","YARMOUTH A","8206495","2020-02-29 13:00","2020","02","29","13:00","0.3","","-1.4","","88","","","","27","","23","","4.8","","100.30","","","","","","Snow Showers"
"-66.09","43.83","YARMOUTH A","8206495","2020-02-29 14:00","2020","02","29","14:00","0.9","","-1.5","","84","","","","26","","13","","19.3","","100.21","","","","","","Snow Showers"
"-66.09","43.83","YARMOUTH A","8206495","2020-02-29 15:00","2020","02","29","15:00","2.0","","-4.4","","63","","","","26","","13","","24.1","","100.17","","","","","","NA"
"-66.09","43.83","YARMOUTH A","8206495","2020-02-29 16:00","2020","02","29","16:00","1.4","","-3.6","","70","","","","30","","8","","24.1","","100.16","","","","","","NA"
"-66.09","43.83","YARMOUTH A","8206495","2020-02-29 17:00","2020","02","29","17:00","0.2","","-3.1","","78","","","","29","","16","","24.1","","100.16","","","","","","Cloudy"
"-66.09","43.83","YARMOUTH A","8206495","2020-02-29 18:00","2020","02","29","18:00","-0.5","","-3.7","","79","","","","31","","5","","24.1","","100.19","","","","-2","","NA"
"-66.09","43.83","YARMOUTH A","8206495","2020-02-29 19:00","2020","02","29","19:00","-1.0","","-3.8","","82","","","","17","","4","","24.1","","100.23","","","","-2","","NA"
"-66.09","43.83","YARMOUTH A","8206495","2020-02-29 20:00","2020","02","29","20:00","-1.9","","-2.7","","94","","","","29","","19","","2.4","","100.29","","","","-7","","Snow Showers"
"-66.09","43.83","YARMOUTH A","8206495","2020-02-29 21:00","2020","02","29","21:00","-2.0","","-2.8","","94","","","","36","","1","","14.5","","100.27","","","","-2","","Snow Showers"
"-66.09","43.83","YARMOUTH A","8206495","2020-02-29 22:00","2020","02","29","22:00","-1.9","","-3.7","","88","","","","29","","3","","14.5","","100.26","","","","-3","","Snow Showers"
"-66.09","43.83","YARMOUTH A","8206495","2020-02-29 23:00","2020","02","29","23:00","-1.1","","-8.2","","59","","","","28","","15","","14.5","","100.23","","","","-6","","Mostly Cloudy"
