"Longitude (x)","Latitude (y)","Station Name","Climate ID","Date/Time (LST)","Year","Month","Day","Time (LST)","Temp (°C)","Temp Flag","Dew Point Temp (°C)","Dew Point Temp Flag","Rel Hum (%)","Rel Hum Flag","Precip. Amount (mm)","Precip. Amount Flag","Wind Dir (10s deg)","Wind Dir Flag","Wind Spd (km/h)","Wind Spd Flag","Visibility (km)","Visibility Flag","Stn Press (kPa)","Stn Press Flag","Hmdx","Hmdx Flag","Wind Chill","Wind Chill Flag","Weather"
"-71.13","48.31","LATERRIERE","7064181","2020-01-01 00:00","2020","01","01","00:00","-4.8","","","M","","M","","","9","","9","","","","97.71","","","","-9","","NA"
"-71.13","48.31","LATERRIERE","7064181","2020-01-01 01:00","2020","01","01","01:00","-5.1","","","M","","M","","","8","","5","","","","97.66","","","","-7","","NA"
"-71.13","48.31","LATERRIERE","7064181","2020-01-01 02:00","2020","01","01","02:00","-5.0","","","M","","M","","","8","","5","","","","97.63","","","","-7","","NA"
"-71.13","48.31","LATERRIERE","7064181","2020-01-01 03:00","2020","01","01","03:00","-5.0","","","M","","M","","","11","","3","","","","97.59","","","","-6","","NA"
"-71.13","48.31","LATERRIERE","7064181","2020-01-01 04:00","2020","01","01","04:00","-5.0","","","M","","M","","","10","","2","","","","97.54","","","","-6","","NA"
"-71.13","48.31","LATERRIERE","7064181","2020-01-01 05:00","2020","01","01","05:00","-5.3","","","M","","M","","","1","","2","","","","97.48","","","","-6","","NA"
"-71.13","48.31","LATERRIERE","7064181","2020-01-01 06:00","2020","01","01","06:00","-5.5","","","M","","M","","","35","","3","","","","97.49","","","","-7","","NA"
"-71.13","48.31","LATERRIERE","7064181","2020-01-01 07:00","2020","01","01","07:00","-5.4","","","M","","M","","","26","","3","","","","97.48","","","","-7","","NA"
"-71.13","48.31","LATERRIERE","7064181","2020-01-01 08:00","2020","01","01","08:00","-6.1","","","M","","M","","","24","","2","","","","97.49","","","","-7","","NA"
"-71.13","48.31","LATERRIERE","7064181","2020-01-01 09:00","2020","01","01","09:00","-5.3","","","M","","M","","","25","","4","","","","97.54","","","","-7","","NA"
"-71.13","48.31","LATERRIERE","7064181","2020-01-01 10:00","2020","01","01","10:00","-4.9","","","M","","M","","","28","","9","","","","97.54","","","","-9","","NA"
"-71.13","48.31","LATERRIERE","7064181","2020-01-01 11:00","2020","01","01","11:00","-4.3","","","M","","M","","","27","","7","","","","97.50","","","","-7","","NA"
"-71.13","48.31","LATERRIERE","7064181","2020-01-01 12:00","2020","01","01","12:00","-3.8","","","M","","M","","","30","","11","","","","97.48","","","","-8","","NA"
"-71.13","48.31","LATERRIERE","7064181","2020-01-01 13:00","2020","01","01","13:00","-3.8","","","M","","M","","","30","","13","","","","97.50","","","","-9","","NA"
"-71.13","48.31","LATERRIERE","7064181","2020-01-01 14:00","2020","01","01","14:00","-3.8","","","M","","M","","","29","","16","","","","97.50","","","","-9","","NA"
"-71.13","48.31","LATERRIERE","7064181","2020-01-01 15:00","2020","01","01","15:00","-4.0","","","M","","M","","","28","","13","","","","97.56","","","","-9","","NA"
"-71.13","48.31","LATERRIERE","7064181","2020-01-01 16:00","2020","01","01","16:00","-4.1","","","M","","M","","","28","","11","","","","97.62","","","","-9","","NA"
"-71.13","48.31","LATERRIERE","7064181","2020-01-01 17:00","2020","01","01","17:00","-4.2","","","M","","M","","","28","","12","","","","97.67","","","","-9","","NA"
"-71.13","48.31","LATERRIERE","7064181","2020-01-01 18:00","2020","01","01","18:00","-4.2","","","M","","M","","","27","","13","","","","97.71","","","","-9","","NA"
"-71.13","48.31","LATERRIERE","7064181","2020-01-01 19:00","2020","01","01","19:00","-4.1","","","M","","M","","","27","","9","","","","97.77","","","","-8","","NA"
"-71.13","48.31","LATERRIERE","7064181","2020-01-01 20:00","2020","01","01","20:00","-4.0","","","M","","M","","","28","","9","","","","97.79","","","","-8","","NA"
"-71.13","48.31","LATERRIERE","7064181","2020-01-01 21:00","2020","01","01","21:00","-3.7","","","M","","M","","","26","","7","","","","97.79","","","","-7","","NA"
"-71.13","48.31","LATERRIERE","7064181","2020-01-01 22:00","2020","01","01","22:00","-2.3","","","M","","M","","","26","","10","","","","97.80","","","","-6","","NA"
"-71.13","48.31","LATERRIERE","7064181","2020-01-01 23:00","2020","01","01","23:00","-2.0","","","M","","M","","","26","","12","","","","97.83","","","","-6","","NA"
"-71.13","48.31","LATERRIERE","7064181","2020-01-02 00:00","2020","01","02","00:00","-1.9","","","M","","M","","","27","","15","","","","97.87","","","","-7","","NA"
"-71.13","48.31","LATERRIERE","7064181","2020-01-02 01:00","2020","01","02","01:00","-1.8","","","M","","M","","","27","","16","","","","97.91","","","","-7","","NA"
"-71.13","48.31","LATERRIERE","7064181","2020-01-02 02:00","2020","01","02","02:00","-1.7","","","M","","M","","","27","","11","","","","97.99","","","","-6","","NA"
"-71.13","48.31","LATERRIERE","7064181","2020-01-02 03:00","2020","01","02","03:00","-1.5","","","M","","M","","","27","","14","","","","98.07","","","","-6","","NA"
"-71.13","48.31","LATERRIERE","7064181","2020-01-02 04:00","2020","01","02","04:00","-1.8","","","M","","M","","","28","","12","","","","98.14","","","","-6","","NA"
"-71.13","48.31","LATERRIERE","7064181","2020-01-02 05:00","2020","01","02","05:00","-2.3","","","M","","M","","","29","","15","","","","98.20","","","","-7","","NA"
"-71.13","48.31","LATERRIERE","7064181","2020-01-02 06:00","2020","01","02","06:00","-2.9","","","M","","M","","","28","","15","","","","98.28","","","","-8","","NA"
"-71.13","48.31","LATERRIERE","7064181","2020-01-02 07:00","2020","01","02","07:00","-3.8","","","M","","M","","","27","","17","","","","98.37","","","","-10","","NA"
"-71.13","48.31","LATERRIERE","7064181","2020-01-02 08:00","2020","01","02","08:00","-4.4","","","M","","M","","","27","","13","","","","98.44","","","","-9","","NA"
"-71.13","48.31","LATERRIERE","7064181","2020-01-02 09:00","2020","01","02","09:00","-4.6","","","M","","M","","","27","","12","","","","98.50","","","","-9","","NA"
"-71.13","48.31","LATERRIERE","7064181","2020-01-02 10:00","2020","01","02","10:00","-4.3","","","M","","M","","","26","","10","","","","98.56","","","","-8","","NA"
"-71.13","48.31","LATERRIERE","7064181","2020-01-02 11:00","2020","01","02","11:00","-4.0","","","M","","M","","","27","","10","","","","98.54","","","","-8","","NA"
"-71.13","48.31","LATERRIERE","7064181","2020-01-02 12:00","2020","01","02","12:00","-3.6","","","M","","M","","","29","","8","","","","98.51","","","","-7","","NA"
"-71.13","48.31","LATERRIERE","7064181","2020-01-02 13:00","2020","01","02","13:00","-3.6","","","M","","M","","","27","","9","","","","98.48","","","","-7","","NA"
"-71.13","48.31","LATERRIERE","7064181","2020-01-02 14:00","2020","01","02","14:00","-3.5","","","M","","M","","","25","","10","","","","98.53","","","","-7","","NA"
"-71.13","48.31","LATERRIERE","7064181","2020-01-02 15:00","2020","01","02","15:00","-3.9","","","M","","M","","","32","","5","","","","98.51","","","","-6","","NA"
"-71.13","48.31","LATERRIERE","7064181","2020-01-02 16:00","2020","01","02","16:00","-6.3","","","M","","M","","","7","","3","","","","98.48","","","","-8","","NA"
"-71.13","48.31","LATERRIERE","7064181","2020-01-02 17:00","2020","01","02","17:00","-7.2","","","M","","M","","","0","","1","","","","98.52","","","","-8","","NA"
"-71.13","48.31","LATERRIERE","7064181","2020-01-02 18:00","2020","01","02","18:00","-6.5","","","M","","M","","","14","","6","","","","98.48","","","","-9","","NA"
"-71.13","48.31","LATERRIERE","7064181","2020-01-02 19:00","2020","01","02","19:00","-5.2","","","M","","M","","","11","","7","","","","98.44","","","","-8","","NA"
"-71.13","48.31","LATERRIERE","7064181","2020-01-02 20:00","2020","01","02","20:00","-5.4","","","M","","M","","","11","","5","","","","98.40","","","","-8","","NA"
"-71.13","48.31","LATERRIERE","7064181","2020-01-02 21:00","2020","01","02","21:00","-5.5","","","M","","M","","","9","","5","","","","98.36","","","","-8","","NA"
"-71.13","48.31","LATERRIERE","7064181","2020-01-02 22:00","2020","01","02","22:00","-5.5","","","M","","M","","","7","","6","","","","98.32","","","","-8","","NA"
"-71.13","48.31","LATERRIERE","7064181","2020-01-02 23:00","2020","01","02","23:00","-5.5","","","M","","M","","","7","","7","","","","98.24","","","","-9","","NA"
"-71.13","48.31","LATERRIERE","7064181","2020-01-03 00:00","2020","01","03","00:00","-5.4","","","M","","M","","","9","","5","","","","98.13","","","","-8","","NA"
"-71.13","48.31","LATERRIERE","7064181","2020-01-03 01:00","2020","01","03","01:00","-5.2","","","M","","M","","","9","","4","","","","98.08","","","","-7","","NA"
"-71.13","48.31","LATERRIERE","7064181","2020-01-03 02:00","2020","01","03","02:00","-5.0","","","M","","M","","","7","","3","","","","98.14","","","","-6","","NA"
"-71.13","48.31","LATERRIERE","7064181","2020-01-03 03:00","2020","01","03","03:00","-4.7","","","M","","M","","","7","","5","","","","98.11","","","","-7","","NA"
"-71.13","48.31","LATERRIERE","7064181","2020-01-03 04:00","2020","01","03","04:00","-4.3","","","M","","M","","","7","","6","","","","98.15","","","","-7","","NA"
"-71.13","48.31","LATERRIERE","7064181","2020-01-03 05:00","2020","01","03","05:00","-4.2","","","M","","M","","","8","","4","","","","98.15","","","","-6","","NA"
"-71.13","48.31","LATERRIERE","7064181","2020-01-03 06:00","2020","01","03","06:00","-4.1","","","M","","M","","","7","","5","","","","98.18","","","","-6","","NA"
"-71.13","48.31","LATERRIERE","7064181","2020-01-03 07:00","2020","01","03","07:00","-4.0","","","M","","M","","","8","","3","","","","98.23","","","","-5","","NA"
"-71.13","48.31","LATERRIERE","7064181","2020-01-03 08:00","2020","01","03","08:00","-3.7","","","M","","M","","","7","","4","","","","98.21","","","","-5","","NA"
"-71.13","48.31","LATERRIERE","7064181","2020-01-03 09:00","2020","01","03","09:00","-3.0","","","M","","M","","","7","","3","","","","98.22","","","","-4","","NA"
"-71.13","48.31","LATERRIERE","7064181","2020-01-03 10:00","2020","01","03","10:00","-2.8","","","M","","M","","","5","","7","","","","98.24","","","","-6","","NA"
"-71.13","48.31","LATERRIERE","7064181","2020-01-03 11:00","2020","01","03","11:00","-2.4","","","M","","M","","","5","","6","","","","98.13","","","","-5","","NA"
"-71.13","48.31","LATERRIERE","7064181","2020-01-03 12:00","2020","01","03","12:00","-2.2","","","M","","M","","","5","","7","","","","98.11","","","","-5","","NA"
"-71.13","48.31","LATERRIERE","7064181","2020-01-03 13:00","2020","01","03","13:00","-2.3","","","M","","M","","","6","","6","","","","98.07","","","","-5","","NA"
"-71.13","48.31","LATERRIERE","7064181","2020-01-03 14:00","2020","01","03","14:00","-2.1","","","M","","M","","","5","","6","","","","98.07","","","","-4","","NA"
"-71.13","48.31","LATERRIERE","7064181","2020-01-03 15:00","2020","01","03","15:00","-1.9","","","M","","M","","","4","","6","","","","98.07","","","","-4","","NA"
"-71.13","48.31","LATERRIERE","7064181","2020-01-03 16:00","2020","01","03","16:00","-1.9","","","M","","M","","","5","","3","","","","98.11","","","","-3","","NA"
"-71.13","48.31","LATERRIERE","7064181","2020-01-03 17:00","2020","01","03","17:00","-2.1","","","M","","M","","","32","","2","","","","98.11","","","","-3","","NA"
"-71.13","48.31","LATERRIERE","7064181","2020-01-03 18:00","2020","01","03","18:00","-2.1","","","M","","M","","","23","","2","","","","98.11","","","","-3","","NA"
"-71.13","48.31","LATERRIERE","7064181","2020-01-03 19:00","2020","01","03","19:00","1.5","","","M","","M","","","25","","8","","","","98.15","","","","","","NA"
"-71.13","48.31","LATERRIERE","7064181","2020-01-03 20:00","2020","01","03","20:00","2.1","","","M","","M","","","26","","12","","","","98.24","","","","","","NA"
"-71.13","48.31","LATERRIERE","7064181","2020-01-03 21:00","2020","01","03","21:00","1.7","","","M","","M","","","26","","14","","","","98.28","","","","","","NA"
"-71.13","48.31","LATERRIERE","7064181","2020-01-03 22:00","2020","01","03","22:00","1.9","","","M","","M","","","26","","12","","","","98.32","","","","","","NA"
"-71.13","48.31","LATERRIERE","7064181","2020-01-03 23:00","2020","01","03","23:00","1.8","","","M","","M","","","27","","13","","","","98.36","","","","","","NA"
"-71.13","48.31","LATERRIERE","7064181","2020-01-04 00:00","2020","01","04","00:00","1.3","","","M","","M","","","29","","12","","","","98.43","","","","","","NA"
"-71.13","48.31","LATERRIERE","7064181","2020-01-04 01:00","2020","01","04","01:00","0.8","","","M","","M","","","28","","22","","","","98.48","","","","","","NA"
"-71.13","48.31","LATERRIERE","7064181","2020-01-04 02:00","2020","01","04","02:00","-0.3","","","M","","M","","","30","","20","","","","98.57","","","","-6","","NA"
"-71.13","48.31","LATERRIERE","7064181","2020-01-04 03:00","2020","01","04","03:00","-1.4","","","M","","M","","","29","","17","","","","98.67","","","","-7","","NA"
"-71.13","48.31","LATERRIERE","7064181","2020-01-04 04:00","2020","01","04","04:00","-2.2","","","M","","M","","","29","","16","","","","98.68","","","","-7","","NA"
"-71.13","48.31","LATERRIERE","7064181","2020-01-04 05:00","2020","01","04","05:00","-2.7","","","M","","M","","","29","","15","","","","98.73","","","","-8","","NA"
"-71.13","48.31","LATERRIERE","7064181","2020-01-04 06:00","2020","01","04","06:00","-3.2","","","M","","M","","","28","","12","","","","98.73","","","","-8","","NA"
"-71.13","48.31","LATERRIERE","7064181","2020-01-04 07:00","2020","01","04","07:00","-3.6","","","M","","M","","","28","","10","","","","98.78","","","","-8","","NA"
"-71.13","48.31","LATERRIERE","7064181","2020-01-04 08:00","2020","01","04","08:00","-4.0","","","M","","M","","","28","","10","","","","98.77","","","","-8","","NA"
"-71.13","48.31","LATERRIERE","7064181","2020-01-04 09:00","2020","01","04","09:00","-4.3","","","M","","M","","","27","","11","","","","98.85","","","","-9","","NA"
"-71.13","48.31","LATERRIERE","7064181","2020-01-04 10:00","2020","01","04","10:00","-4.6","","","M","","M","","","28","","13","","","","98.85","","","","-10","","NA"
"-71.13","48.31","LATERRIERE","7064181","2020-01-04 11:00","2020","01","04","11:00","-4.6","","","M","","M","","","28","","11","","","","98.77","","","","-9","","NA"
"-71.13","48.31","LATERRIERE","7064181","2020-01-04 12:00","2020","01","04","12:00","-4.4","","","M","","M","","","29","","9","","","","98.72","","","","-8","","NA"
"-71.13","48.31","LATERRIERE","7064181","2020-01-04 13:00","2020","01","04","13:00","-4.7","","","M","","M","","","25","","11","","","","98.64","","","","-9","","NA"
"-71.13","48.31","LATERRIERE","7064181","2020-01-04 14:00","2020","01","04","14:00","-4.9","","","M","","M","","","27","","11","","","","98.64","","","","-9","","NA"
"-71.13","48.31","LATERRIERE","7064181","2020-01-04 15:00","2020","01","04","15:00","-5.3","","","M","","M","","","29","","11","","","","98.64","","","","-10","","NA"
"-71.13","48.31","LATERRIERE","7064181","2020-01-04 16:00","2020","01","04","16:00","-5.6","","","M","","M","","","26","","8","","","","98.63","","","","-9","","NA"
"-71.13","48.31","LATERRIERE","7064181","2020-01-04 17:00","2020","01","04","17:00","-5.9","","","M","","M","","","26","","8","","","","98.60","","","","-10","","NA"
"-71.13","48.31","LATERRIERE","7064181","2020-01-04 18:00","2020","01","04","18:00","-6.2","","","M","","M","","","25","","8","","","","98.60","","","","-10","","NA"
"-71.13","48.31","LATERRIERE","7064181","2020-01-04 19:00","2020","01","04","19:00","-6.2","","","M","","M","","","25","","9","","","","98.60","","","","-10","","NA"
"-71.13","48.31","LATERRIERE","7064181","2020-01-04 20:00","2020","01","04","20:00","-6.1","","","M","","M","","","27","","7","","","","98.56","","","","-9","","NA"
"-71.13","48.31","LATERRIERE","7064181","2020-01-04 21:00","2020","01","04","21:00","-6.0","","","M","","M","","","27","","9","","","","98.56","","","","-10","","NA"
"-71.13","48.31","LATERRIERE","7064181","2020-01-04 22:00","2020","01","04","22:00","-6.1","","","M","","M","","","27","","12","","","","98.56","","","","-11","","NA"
"-71.13","48.31","LATERRIERE","7064181","2020-01-04 23:00","2020","01","04","23:00","-7.2","","","M","","M","","","26","","12","","","","98.52","","","","-13","","NA"
"-71.13","48.31","LATERRIERE","7064181","2020-01-05 00:00","2020","01","05","00:00","-8.1","","","M","","M","","","26","","13","","","","98.44","","","","-14","","NA"
"-71.13","48.31","LATERRIERE","7064181","2020-01-05 01:00","2020","01","05","01:00","-8.6","","","M","","M","","","26","","11","","","","98.40","","","","-14","","NA"
"-71.13","48.31","LATERRIERE","7064181","2020-01-05 02:00","2020","01","05","02:00","-9.2","","","M","","M","","","26","","12","","","","98.44","","","","-15","","NA"
"-71.13","48.31","LATERRIERE","7064181","2020-01-05 03:00","2020","01","05","03:00","-9.6","","","M","","M","","","26","","14","","","","98.48","","","","-16","","NA"
"-71.13","48.31","LATERRIERE","7064181","2020-01-05 04:00","2020","01","05","04:00","-10.4","","","M","","M","","","26","","16","","","","98.48","","","","-17","","NA"
"-71.13","48.31","LATERRIERE","7064181","2020-01-05 05:00","2020","01","05","05:00","-11.2","","","M","","M","","","25","","14","","","","98.52","","","","-18","","NA"
"-71.13","48.31","LATERRIERE","7064181","2020-01-05 06:00","2020","01","05","06:00","-11.7","","","M","","M","","","25","","15","","","","98.56","","","","-19","","NA"
"-71.13","48.31","LATERRIERE","7064181","2020-01-05 07:00","2020","01","05","07:00","-11.9","","","M","","M","","","27","","17","","","","98.61","","","","-20","","NA"
"-71.13","48.31","LATERRIERE","7064181","2020-01-05 08:00","2020","01","05","08:00","-12.2","","","M","","M","","","27","","18","","","","98.73","","","","-20","","NA"
"-71.13","48.31","LATERRIERE","7064181","2020-01-05 09:00","2020","01","05","09:00","-12.5","","","M","","M","","","27","","15","","","","98.77","","","","-20","","NA"
"-71.13","48.31","LATERRIERE","7064181","2020-01-05 10:00","2020","01","05","10:00","-12.3","","","M","","M","","","26","","17","","","","98.81","","","","-20","","NA"
"-71.13","48.31","LATERRIERE","7064181","2020-01-05 11:00","2020","01","05","11:00","-11.9","","","M","","M","","","26","","19","","","","98.77","","","","-20","","NA"
"-71.13","48.31","LATERRIERE","7064181","2020-01-05 12:00","2020","01","05","12:00","-11.5","","","M","","M","","","26","","17","","","","98.78","","","","-19","","NA"
"-71.13","48.31","LATERRIERE","7064181","2020-01-05 13:00","2020","01","05","13:00","-11.4","","","M","","M","","","25","","18","","","","98.78","","","","-19","","NA"
"-71.13","48.31","LATERRIERE","7064181","2020-01-05 14:00","2020","01","05","14:00","-10.6","","","M","","M","","","30","","13","","","","98.89","","","","-17","","NA"
"-71.13","48.31","LATERRIERE","7064181","2020-01-05 15:00","2020","01","05","15:00","-11.2","","","M","","M","","","29","","13","","","","98.97","","","","-18","","NA"
"-71.13","48.31","LATERRIERE","7064181","2020-01-05 16:00","2020","01","05","16:00","-11.4","","","M","","M","","","29","","14","","","","99.05","","","","-18","","NA"
"-71.13","48.31","LATERRIERE","7064181","2020-01-05 17:00","2020","01","05","17:00","-11.7","","","M","","M","","","26","","10","","","","99.06","","","","-17","","NA"
"-71.13","48.31","LATERRIERE","7064181","2020-01-05 18:00","2020","01","05","18:00","-11.6","","","M","","M","","","27","","12","","","","99.09","","","","-18","","NA"
"-71.13","48.31","LATERRIERE","7064181","2020-01-05 19:00","2020","01","05","19:00","-11.4","","","M","","M","","","27","","10","","","","99.13","","","","-17","","NA"
"-71.13","48.31","LATERRIERE","7064181","2020-01-05 20:00","2020","01","05","20:00","-11.3","","","M","","M","","","28","","13","","","","99.13","","","","-18","","NA"
"-71.13","48.31","LATERRIERE","7064181","2020-01-05 21:00","2020","01","05","21:00","-11.4","","","M","","M","","","28","","8","","","","99.17","","","","-16","","NA"
"-71.13","48.31","LATERRIERE","7064181","2020-01-05 22:00","2020","01","05","22:00","-11.4","","","M","","M","","","28","","7","","","","99.17","","","","-16","","NA"
"-71.13","48.31","LATERRIERE","7064181","2020-01-05 23:00","2020","01","05","23:00","-11.5","","","M","","M","","","29","","5","","","","99.16","","","","-15","","NA"
"-71.13","48.31","LATERRIERE","7064181","2020-01-06 00:00","2020","01","06","00:00","-11.4","","","M","","M","","","28","","6","","","","99.17","","","","-15","","NA"
"-71.13","48.31","LATERRIERE","7064181","2020-01-06 01:00","2020","01","06","01:00","-11.5","","","M","","M","","","31","","6","","","","99.17","","","","-15","","NA"
"-71.13","48.31","LATERRIERE","7064181","2020-01-06 02:00","2020","01","06","02:00","-11.7","","","M","","M","","","32","","6","","","","99.22","","","","-15","","NA"
"-71.13","48.31","LATERRIERE","7064181","2020-01-06 03:00","2020","01","06","03:00","-12.0","","","M","","M","","","32","","2","","","","99.26","","","","-13","","NA"
"-71.13","48.31","LATERRIERE","7064181","2020-01-06 04:00","2020","01","06","04:00","-12.1","","","M","","M","","","1","","2","","","","99.22","","","","-13","","NA"
"-71.13","48.31","LATERRIERE","7064181","2020-01-06 05:00","2020","01","06","05:00","-12.4","","","M","","M","","","30","","1","","","","99.21","","","","-13","","NA"
"-71.13","48.31","LATERRIERE","7064181","2020-01-06 06:00","2020","01","06","06:00","-12.6","","","M","","M","","","11","","3","","","","99.19","","","","-15","","NA"
"-71.13","48.31","LATERRIERE","7064181","2020-01-06 07:00","2020","01","06","07:00","-12.6","","","M","","M","","","12","","3","","","","99.21","","","","-15","","NA"
"-71.13","48.31","LATERRIERE","7064181","2020-01-06 08:00","2020","01","06","08:00","-13.1","","","M","","M","","","3","","3","","","","99.22","","","","-15","","NA"
"-71.13","48.31","LATERRIERE","7064181","2020-01-06 09:00","2020","01","06","09:00","-11.9","","","M","","M","","","9","","6","","","","99.21","","","","-16","","NA"
"-71.13","48.31","LATERRIERE","7064181","2020-01-06 10:00","2020","01","06","10:00","-11.5","","","M","","M","","","10","","8","","","","99.17","","","","-16","","NA"
"-71.13","48.31","LATERRIERE","7064181","2020-01-06 11:00","2020","01","06","11:00","-10.6","","","M","","M","","","10","","7","","","","99.05","","","","-15","","NA"
"-71.13","48.31","LATERRIERE","7064181","2020-01-06 12:00","2020","01","06","12:00","-10.1","","","M","","M","","","4","","9","","","","99.01","","","","-15","","NA"
"-71.13","48.31","LATERRIERE","7064181","2020-01-06 13:00","2020","01","06","13:00","-9.8","","","M","","M","","","5","","12","","","","98.89","","","","-16","","NA"
"-71.13","48.31","LATERRIERE","7064181","2020-01-06 14:00","2020","01","06","14:00","-9.9","","","M","","M","","","6","","8","","","","98.85","","","","-14","","NA"
"-71.13","48.31","LATERRIERE","7064181","2020-01-06 15:00","2020","01","06","15:00","-9.6","","","M","","M","","","7","","10","","","","98.81","","","","-15","","NA"
"-71.13","48.31","LATERRIERE","7064181","2020-01-06 16:00","2020","01","06","16:00","-10.1","","","M","","M","","","7","","6","","","","98.80","","","","-14","","NA"
"-71.13","48.31","LATERRIERE","7064181","2020-01-06 17:00","2020","01","06","17:00","-9.8","","","M","","M","","","7","","9","","","","98.77","","","","-15","","NA"
"-71.13","48.31","LATERRIERE","7064181","2020-01-06 18:00","2020","01","06","18:00","-10.2","","","M","","M","","","8","","12","","","","98.73","","","","-16","","NA"
"-71.13","48.31","LATERRIERE","7064181","2020-01-06 19:00","2020","01","06","19:00","-10.8","","","M","","M","","","8","","8","","","","98.74","","","","-15","","NA"
"-71.13","48.31","LATERRIERE","7064181","2020-01-06 20:00","2020","01","06","20:00","-10.6","","","M","","M","","","8","","6","","","","98.73","","","","-14","","NA"
"-71.13","48.31","LATERRIERE","7064181","2020-01-06 21:00","2020","01","06","21:00","-10.6","","","M","","M","","","8","","6","","","","98.73","","","","-14","","NA"
"-71.13","48.31","LATERRIERE","7064181","2020-01-06 22:00","2020","01","06","22:00","-10.5","","","M","","M","","","7","","5","","","","98.73","","","","-14","","NA"
"-71.13","48.31","LATERRIERE","7064181","2020-01-06 23:00","2020","01","06","23:00","-10.8","","","M","","M","","","6","","3","","","","98.73","","","","-13","","NA"
"-71.13","48.31","LATERRIERE","7064181","2020-01-07 00:00","2020","01","07","00:00","-10.6","","","M","","M","","","5","","3","","","","98.68","","","","-12","","NA"
"-71.13","48.31","LATERRIERE","7064181","2020-01-07 01:00","2020","01","07","01:00","-11.3","","","M","","M","","","7","","3","","","","98.73","","","","-13","","NA"
"-71.13","48.31","LATERRIERE","7064181","2020-01-07 02:00","2020","01","07","02:00","-13.6","","","M","","M","","","9","","3","","","","98.77","","","","-16","","NA"
"-71.13","48.31","LATERRIERE","7064181","2020-01-07 03:00","2020","01","07","03:00","-15.1","","","M","","M","","","27","","3","","","","98.81","","","","-17","","NA"
"-71.13","48.31","LATERRIERE","7064181","2020-01-07 04:00","2020","01","07","04:00","-13.5","","","M","","M","","","23","","2","","","","98.81","","","","-15","","NA"
"-71.13","48.31","LATERRIERE","7064181","2020-01-07 05:00","2020","01","07","05:00","-16.6","","","M","","M","","","24","","3","","","","98.85","","","","-19","","NA"
"-71.13","48.31","LATERRIERE","7064181","2020-01-07 06:00","2020","01","07","06:00","-13.4","","","M","","M","","","25","","7","","","","98.91","","","","-18","","NA"
"-71.13","48.31","LATERRIERE","7064181","2020-01-07 07:00","2020","01","07","07:00","-10.4","","","M","","M","","","25","","8","","","","98.99","","","","-15","","NA"
"-71.13","48.31","LATERRIERE","7064181","2020-01-07 08:00","2020","01","07","08:00","-10.0","","","M","","M","","","24","","5","","","","99.09","","","","-13","","NA"
"-71.13","48.31","LATERRIERE","7064181","2020-01-07 09:00","2020","01","07","09:00","-9.1","","","M","","M","","","27","","3","","","","99.09","","","","-11","","NA"
"-71.13","48.31","LATERRIERE","7064181","2020-01-07 10:00","2020","01","07","10:00","-8.3","","","M","","M","","","27","","12","","","","99.17","","","","-14","","NA"
"-71.13","48.31","LATERRIERE","7064181","2020-01-07 11:00","2020","01","07","11:00","-8.1","","","M","","M","","","26","","12","","","","99.15","","","","-14","","NA"
"-71.13","48.31","LATERRIERE","7064181","2020-01-07 12:00","2020","01","07","12:00","-8.2","","","M","","M","","","28","","14","","","","99.14","","","","-14","","NA"
"-71.13","48.31","LATERRIERE","7064181","2020-01-07 13:00","2020","01","07","13:00","-8.1","","","M","","M","","","26","","14","","","","99.13","","","","-14","","NA"
"-71.13","48.31","LATERRIERE","7064181","2020-01-07 14:00","2020","01","07","14:00","-6.8","","","M","","M","","","27","","11","","","","99.11","","","","-12","","NA"
"-71.13","48.31","LATERRIERE","7064181","2020-01-07 15:00","2020","01","07","15:00","-7.8","","","M","","M","","","36","","4","","","","99.17","","","","-10","","NA"
"-71.13","48.31","LATERRIERE","7064181","2020-01-07 16:00","2020","01","07","16:00","-10.4","","","M","","M","","","9","","4","","","","99.21","","","","-13","","NA"
"-71.13","48.31","LATERRIERE","7064181","2020-01-07 17:00","2020","01","07","17:00","-12.2","","","M","","M","","","33","","3","","","","99.26","","","","-14","","NA"
"-71.13","48.31","LATERRIERE","7064181","2020-01-07 18:00","2020","01","07","18:00","-14.0","","","M","","M","","","32","","3","","","","99.22","","","","-16","","NA"
"-71.13","48.31","LATERRIERE","7064181","2020-01-07 19:00","2020","01","07","19:00","-17.0","","","M","","M","","","25","","1","","","","99.21","","","","-18","","NA"
"-71.13","48.31","LATERRIERE","7064181","2020-01-07 20:00","2020","01","07","20:00","-17.4","","","M","","M","","","24","","2","","","","99.22","","","","-19","","NA"
"-71.13","48.31","LATERRIERE","7064181","2020-01-07 21:00","2020","01","07","21:00","-17.1","","","M","","M","","","25","","1","","","","99.18","","","","-18","","NA"
"-71.13","48.31","LATERRIERE","7064181","2020-01-07 22:00","2020","01","07","22:00","-17.5","","","M","","M","","","36","","1","","","","99.14","","","","-18","","NA"
"-71.13","48.31","LATERRIERE","7064181","2020-01-07 23:00","2020","01","07","23:00","-16.2","","","M","","M","","","29","","3","","","","99.06","","","","-18","","NA"
"-71.13","48.31","LATERRIERE","7064181","2020-01-08 00:00","2020","01","08","00:00","-17.0","","","M","","M","","","9","","3","","","","98.98","","","","-19","","NA"
"-71.13","48.31","LATERRIERE","7064181","2020-01-08 01:00","2020","01","08","01:00","-15.0","","","M","","M","","","3","","3","","","","98.89","","","","-17","","NA"
"-71.13","48.31","LATERRIERE","7064181","2020-01-08 02:00","2020","01","08","02:00","-13.1","","","M","","M","","","5","","5","","","","98.88","","","","-16","","NA"
"-71.13","48.31","LATERRIERE","7064181","2020-01-08 03:00","2020","01","08","03:00","-12.8","","","M","","M","","","5","","7","","","","98.81","","","","-17","","NA"
"-71.13","48.31","LATERRIERE","7064181","2020-01-08 04:00","2020","01","08","04:00","-12.0","","","M","","M","","","8","","3","","","","98.77","","","","-14","","NA"
"-71.13","48.31","LATERRIERE","7064181","2020-01-08 05:00","2020","01","08","05:00","-11.2","","","M","","M","","","3","","4","","","","98.68","","","","-14","","NA"
"-71.13","48.31","LATERRIERE","7064181","2020-01-08 06:00","2020","01","08","06:00","-10.4","","","M","","M","","","8","","7","","","","98.64","","","","-14","","NA"
"-71.13","48.31","LATERRIERE","7064181","2020-01-08 07:00","2020","01","08","07:00","-10.7","","","M","","M","","","8","","7","","","","98.63","","","","-15","","NA"
"-71.13","48.31","LATERRIERE","7064181","2020-01-08 08:00","2020","01","08","08:00","-10.4","","","M","","M","","","8","","8","","","","98.61","","","","-15","","NA"
"-71.13","48.31","LATERRIERE","7064181","2020-01-08 09:00","2020","01","08","09:00","-9.7","","","M","","M","","","7","","7","","","","98.60","","","","-14","","NA"
"-71.13","48.31","LATERRIERE","7064181","2020-01-08 10:00","2020","01","08","10:00","-8.6","","","M","","M","","","7","","7","","","","98.56","","","","-12","","NA"
"-71.13","48.31","LATERRIERE","7064181","2020-01-08 11:00","2020","01","08","11:00","-7.5","","","M","","M","","","7","","6","","","","98.50","","","","-11","","NA"
"-71.13","48.31","LATERRIERE","7064181","2020-01-08 12:00","2020","01","08","12:00","-6.6","","","M","","M","","","5","","5","","","","98.44","","","","-9","","NA"
"-71.13","48.31","LATERRIERE","7064181","2020-01-08 13:00","2020","01","08","13:00","-6.1","","","M","","M","","","4","","8","","","","98.40","","","","-10","","NA"
"-71.13","48.31","LATERRIERE","7064181","2020-01-08 14:00","2020","01","08","14:00","-6.1","","","M","","M","","","4","","8","","","","98.44","","","","-10","","NA"
"-71.13","48.31","LATERRIERE","7064181","2020-01-08 15:00","2020","01","08","15:00","-5.8","","","M","","M","","","0","","1","","","","98.56","","","","-6","","NA"
"-71.13","48.31","LATERRIERE","7064181","2020-01-08 16:00","2020","01","08","16:00","-6.0","","","M","","M","","","25","","5","","","","98.64","","","","-8","","NA"
"-71.13","48.31","LATERRIERE","7064181","2020-01-08 17:00","2020","01","08","17:00","-6.1","","","M","","M","","","27","","13","","","","98.78","","","","-11","","NA"
"-71.13","48.31","LATERRIERE","7064181","2020-01-08 18:00","2020","01","08","18:00","-6.5","","","M","","M","","","28","","18","","","","98.92","","","","-13","","NA"
"-71.13","48.31","LATERRIERE","7064181","2020-01-08 19:00","2020","01","08","19:00","-6.5","","","M","","M","","","28","","19","","","","99.05","","","","-13","","NA"
"-71.13","48.31","LATERRIERE","7064181","2020-01-08 20:00","2020","01","08","20:00","-8.7","","","M","","M","","","28","","25","","","","99.22","","","","-17","","NA"
"-71.13","48.31","LATERRIERE","7064181","2020-01-08 21:00","2020","01","08","21:00","-9.9","","","M","","M","","","28","","25","","","","99.43","","","","-19","","NA"
"-71.13","48.31","LATERRIERE","7064181","2020-01-08 22:00","2020","01","08","22:00","-11.6","","","M","","M","","","28","","26","","","","99.63","","","","-21","","NA"
"-71.13","48.31","LATERRIERE","7064181","2020-01-08 23:00","2020","01","08","23:00","-13.7","","","M","","M","","","28","","30","","","","99.84","","","","-24","","NA"
"-71.13","48.31","LATERRIERE","7064181","2020-01-09 00:00","2020","01","09","00:00","-14.6","","","M","","M","","","28","","24","","","","100.04","","","","-24","","NA"
"-71.13","48.31","LATERRIERE","7064181","2020-01-09 01:00","2020","01","09","01:00","-14.9","","","M","","M","","","28","","23","","","","100.20","","","","-25","","NA"
"-71.13","48.31","LATERRIERE","7064181","2020-01-09 02:00","2020","01","09","02:00","-14.8","","","M","","M","","","29","","19","","","","100.44","","","","-24","","NA"
"-71.13","48.31","LATERRIERE","7064181","2020-01-09 03:00","2020","01","09","03:00","-15.2","","","M","","M","","","30","","20","","","","100.61","","","","-24","","NA"
"-71.13","48.31","LATERRIERE","7064181","2020-01-09 04:00","2020","01","09","04:00","-16.1","","","M","","M","","","28","","24","","","","100.77","","","","-26","","NA"
"-71.13","48.31","LATERRIERE","7064181","2020-01-09 05:00","2020","01","09","05:00","-17.8","","","M","","M","","","28","","27","","","","100.97","","","","-29","","NA"
"-71.13","48.31","LATERRIERE","7064181","2020-01-09 06:00","2020","01","09","06:00","-19.9","","","M","","M","","","28","","26","","","","101.18","","","","-32","","NA"
"-71.13","48.31","LATERRIERE","7064181","2020-01-09 07:00","2020","01","09","07:00","-21.2","","","M","","M","","","28","","21","","","","101.38","","","","-32","","NA"
"-71.13","48.31","LATERRIERE","7064181","2020-01-09 08:00","2020","01","09","08:00","-22.2","","","M","","M","","","28","","21","","","","101.55","","","","-34","","NA"
"-71.13","48.31","LATERRIERE","7064181","2020-01-09 09:00","2020","01","09","09:00","-22.1","","","M","","M","","","28","","19","","","","101.67","","","","-33","","NA"
"-71.13","48.31","LATERRIERE","7064181","2020-01-09 10:00","2020","01","09","10:00","-22.1","","","M","","M","","","28","","19","","","","101.79","","","","-33","","NA"
"-71.13","48.31","LATERRIERE","7064181","2020-01-09 11:00","2020","01","09","11:00","-21.5","","","M","","M","","","28","","19","","","","101.80","","","","-32","","NA"
"-71.13","48.31","LATERRIERE","7064181","2020-01-09 12:00","2020","01","09","12:00","-20.9","","","M","","M","","","29","","12","","","","101.75","","","","-29","","NA"
"-71.13","48.31","LATERRIERE","7064181","2020-01-09 13:00","2020","01","09","13:00","-19.7","","","M","","M","","","29","","8","","","","101.74","","","","-26","","NA"
"-71.13","48.31","LATERRIERE","7064181","2020-01-09 14:00","2020","01","09","14:00","-19.4","","","M","","M","","","3","","8","","","","101.78","","","","-26","","NA"
"-71.13","48.31","LATERRIERE","7064181","2020-01-09 15:00","2020","01","09","15:00","-20.5","","","M","","M","","","2","","7","","","","101.80","","","","-26","","NA"
"-71.13","48.31","LATERRIERE","7064181","2020-01-09 16:00","2020","01","09","16:00","-21.7","","","M","","M","","","11","","5","","","","101.79","","","","-26","","NA"
"-71.13","48.31","LATERRIERE","7064181","2020-01-09 17:00","2020","01","09","17:00","-23.4","","","M","","M","","","7","","2","","","","101.83","","","","-25","","NA"
"-71.13","48.31","LATERRIERE","7064181","2020-01-09 18:00","2020","01","09","18:00","-23.8","","","M","","M","","","0","","1","","","","101.80","","","","-25","","NA"
"-71.13","48.31","LATERRIERE","7064181","2020-01-09 19:00","2020","01","09","19:00","-23.1","","","M","","M","","","8","","3","","","","101.76","","","","-26","","NA"
"-71.13","48.31","LATERRIERE","7064181","2020-01-09 20:00","2020","01","09","20:00","-21.2","","","M","","M","","","15","","8","","","","101.67","","","","-28","","NA"
"-71.13","48.31","LATERRIERE","7064181","2020-01-09 21:00","2020","01","09","21:00","-20.2","","","M","","M","","","12","","5","","","","101.51","","","","-25","","NA"
"-71.13","48.31","LATERRIERE","7064181","2020-01-09 22:00","2020","01","09","22:00","-19.2","","","M","","M","","","14","","5","","","","101.42","","","","-23","","NA"
"-71.13","48.31","LATERRIERE","7064181","2020-01-09 23:00","2020","01","09","23:00","-18.2","","","M","","M","","","13","","3","","","","101.30","","","","-21","","NA"
"-71.13","48.31","LATERRIERE","7064181","2020-01-10 00:00","2020","01","10","00:00","-18.3","","","M","","M","","","4","","4","","","","101.10","","","","-22","","NA"
"-71.13","48.31","LATERRIERE","7064181","2020-01-10 01:00","2020","01","10","01:00","-17.1","","","M","","M","","","10","","6","","","","100.85","","","","-22","","NA"
"-71.13","48.31","LATERRIERE","7064181","2020-01-10 02:00","2020","01","10","02:00","-16.7","","","M","","M","","","8","","9","","","","100.69","","","","-23","","NA"
"-71.13","48.31","LATERRIERE","7064181","2020-01-10 03:00","2020","01","10","03:00","-15.8","","","M","","M","","","12","","5","","","","100.42","","","","-20","","NA"
"-71.13","48.31","LATERRIERE","7064181","2020-01-10 04:00","2020","01","10","04:00","-13.8","","","M","","M","","","0","","1","","","","100.30","","","","-14","","NA"
"-71.13","48.31","LATERRIERE","7064181","2020-01-10 05:00","2020","01","10","05:00","-12.7","","","M","","M","","","16","","4","","","","100.12","","","","-15","","NA"
"-71.13","48.31","LATERRIERE","7064181","2020-01-10 06:00","2020","01","10","06:00","-12.1","","","M","","M","","","7","","7","","","","100.03","","","","-16","","NA"
"-71.13","48.31","LATERRIERE","7064181","2020-01-10 07:00","2020","01","10","07:00","-11.6","","","M","","M","","","8","","9","","","","99.91","","","","-17","","NA"
"-71.13","48.31","LATERRIERE","7064181","2020-01-10 08:00","2020","01","10","08:00","-11.3","","","M","","M","","","9","","8","","","","99.87","","","","-16","","NA"
"-71.13","48.31","LATERRIERE","7064181","2020-01-10 09:00","2020","01","10","09:00","-10.7","","","M","","M","","","7","","7","","","","99.81","","","","-15","","NA"
"-71.13","48.31","LATERRIERE","7064181","2020-01-10 10:00","2020","01","10","10:00","-10.2","","","M","","M","","","6","","4","","","","99.84","","","","-13","","NA"
"-71.13","48.31","LATERRIERE","7064181","2020-01-10 11:00","2020","01","10","11:00","-9.5","","","M","","M","","","5","","4","","","","99.79","","","","-12","","NA"
"-71.13","48.31","LATERRIERE","7064181","2020-01-10 12:00","2020","01","10","12:00","-9.2","","","M","","M","","","6","","4","","","","99.74","","","","-11","","NA"
"-71.13","48.31","LATERRIERE","7064181","2020-01-10 13:00","2020","01","10","13:00","-8.5","","","M","","M","","","7","","4","","","","99.70","","","","-11","","NA"
"-71.13","48.31","LATERRIERE","7064181","2020-01-10 14:00","2020","01","10","14:00","-7.9","","","M","","M","","","4","","7","","","","99.75","","","","-12","","NA"
"-71.13","48.31","LATERRIERE","7064181","2020-01-10 15:00","2020","01","10","15:00","-7.5","","","M","","M","","","4","","4","","","","99.79","","","","-10","","NA"
"-71.13","48.31","LATERRIERE","7064181","2020-01-10 16:00","2020","01","10","16:00","-7.0","","","M","","M","","","8","","4","","","","99.79","","","","-9","","NA"
"-71.13","48.31","LATERRIERE","7064181","2020-01-10 17:00","2020","01","10","17:00","-6.2","","","M","","M","","","6","","4","","","","99.79","","","","-8","","NA"
"-71.13","48.31","LATERRIERE","7064181","2020-01-10 18:00","2020","01","10","18:00","-5.1","","","M","","M","","","4","","7","","","","99.87","","","","-8","","NA"
"-71.13","48.31","LATERRIERE","7064181","2020-01-10 19:00","2020","01","10","19:00","-4.2","","","M","","M","","","5","","8","","","","99.94","","","","-8","","NA"
"-71.13","48.31","LATERRIERE","7064181","2020-01-10 20:00","2020","01","10","20:00","-3.7","","","M","","M","","","3","","2","","","","99.95","","","","-5","","NA"
"-71.13","48.31","LATERRIERE","7064181","2020-01-10 21:00","2020","01","10","21:00","0.4","","","M","","M","","","24","","8","","","","99.99","","","","","","NA"
"-71.13","48.31","LATERRIERE","7064181","2020-01-10 22:00","2020","01","10","22:00","1.8","","","M","","M","","","26","","9","","","","100.03","","","","","","NA"
"-71.13","48.31","LATERRIERE","7064181","2020-01-10 23:00","2020","01","10","23:00","2.0","","","M","","M","","","26","","9","","","","100.10","","","","","","NA"
"-71.13","48.31","LATERRIERE","7064181","2020-01-11 00:00","2020","01","11","00:00","1.8","","","M","","M","","","25","","9","","","","100.07","","","","","","NA"
"-71.13","48.31","LATERRIERE","7064181","2020-01-11 01:00","2020","01","11","01:00","1.6","","","M","","M","","","26","","8","","","","100.03","","","","","","NA"
"-71.13","48.31","LATERRIERE","7064181","2020-01-11 02:00","2020","01","11","02:00","1.0","","","M","","M","","","30","","4","","","","100.07","","","","","","NA"
"-71.13","48.31","LATERRIERE","7064181","2020-01-11 03:00","2020","01","11","03:00","0.5","","","M","","M","","","25","","4","","","","100.06","","","","","","NA"
"-71.13","48.31","LATERRIERE","7064181","2020-01-11 04:00","2020","01","11","04:00","-0.2","","","M","","M","","","21","","2","","","","99.92","","","","-1","","NA"
"-71.13","48.31","LATERRIERE","7064181","2020-01-11 05:00","2020","01","11","05:00","-1.0","","","M","","M","","","36","","2","","","","99.83","","","","-2","","NA"
"-71.13","48.31","LATERRIERE","7064181","2020-01-11 06:00","2020","01","11","06:00","-1.0","","","M","","M","","","3","","5","","","","99.76","","","","-3","","NA"
"-71.13","48.31","LATERRIERE","7064181","2020-01-11 07:00","2020","01","11","07:00","-0.9","","","M","","M","","","6","","1","","","","99.65","","","","-1","","NA"
"-71.13","48.31","LATERRIERE","7064181","2020-01-11 08:00","2020","01","11","08:00","-0.7","","","M","","M","","","5","","3","","","","99.50","","","","-2","","NA"
"-71.13","48.31","LATERRIERE","7064181","2020-01-11 09:00","2020","01","11","09:00","-0.9","","","M","","M","","","3","","5","","","","99.49","","","","-3","","NA"
"-71.13","48.31","LATERRIERE","7064181","2020-01-11 10:00","2020","01","11","10:00","-1.3","","","M","","M","","","4","","8","","","","99.33","","","","-4","","NA"
"-71.13","48.31","LATERRIERE","7064181","2020-01-11 11:00","2020","01","11","11:00","-0.6","","","M","","M","","","3","","7","","","","99.14","","","","-3","","NA"
"-71.13","48.31","LATERRIERE","7064181","2020-01-11 12:00","2020","01","11","12:00","-0.6","","","M","","M","","","34","","9","","","","99.13","","","","-4","","NA"
"-71.13","48.31","LATERRIERE","7064181","2020-01-11 13:00","2020","01","11","13:00","-0.4","","","M","","M","","","30","","5","","","","99.13","","","","-2","","NA"
"-71.13","48.31","LATERRIERE","7064181","2020-01-11 14:00","2020","01","11","14:00","-0.4","","","M","","M","","","24","","2","","","","99.09","","","","-1","","NA"
"-71.13","48.31","LATERRIERE","7064181","2020-01-11 15:00","2020","01","11","15:00","-0.3","","","M","","M","","","28","","10","","","","99.25","","","","-4","","NA"
"-71.13","48.31","LATERRIERE","7064181","2020-01-11 16:00","2020","01","11","16:00","-1.4","","","M","","M","","","31","","17","","","","99.42","","","","-7","","NA"
"-71.13","48.31","LATERRIERE","7064181","2020-01-11 17:00","2020","01","11","17:00","-3.7","","","M","","M","","","30","","22","","","","99.62","","","","-10","","NA"
"-71.13","48.31","LATERRIERE","7064181","2020-01-11 18:00","2020","01","11","18:00","-4.9","","","M","","M","","","28","","22","","","","99.84","","","","-12","","NA"
"-71.13","48.31","LATERRIERE","7064181","2020-01-11 19:00","2020","01","11","19:00","-6.6","","","M","","M","","","30","","24","","","","100.03","","","","-14","","NA"
"-71.13","48.31","LATERRIERE","7064181","2020-01-11 20:00","2020","01","11","20:00","-8.5","","","M","","M","","","31","","21","","","","100.07","","","","-16","","NA"
"-71.13","48.31","LATERRIERE","7064181","2020-01-11 21:00","2020","01","11","21:00","-9.9","","","M","","M","","","29","","20","","","","100.17","","","","-18","","NA"
"-71.13","48.31","LATERRIERE","7064181","2020-01-11 22:00","2020","01","11","22:00","-11.1","","","M","","M","","","29","","16","","","","100.28","","","","-18","","NA"
"-71.13","48.31","LATERRIERE","7064181","2020-01-11 23:00","2020","01","11","23:00","-11.7","","","M","","M","","","29","","9","","","","100.30","","","","-17","","NA"
"-71.13","48.31","LATERRIERE","7064181","2020-01-12 00:00","2020","01","12","00:00","-12.3","","","M","","M","","","29","","15","","","","100.39","","","","-20","","NA"
"-71.13","48.31","LATERRIERE","7064181","2020-01-12 01:00","2020","01","12","01:00","-12.8","","","M","","M","","","29","","11","","","","100.32","","","","-19","","NA"
"-71.13","48.31","LATERRIERE","7064181","2020-01-12 02:00","2020","01","12","02:00","-13.4","","","M","","M","","","29","","12","","","","100.38","","","","-20","","NA"
"-71.13","48.31","LATERRIERE","7064181","2020-01-12 03:00","2020","01","12","03:00","-13.8","","","M","","M","","","29","","7","","","","100.37","","","","-18","","NA"
"-71.13","48.31","LATERRIERE","7064181","2020-01-12 04:00","2020","01","12","04:00","-13.9","","","M","","M","","","28","","9","","","","100.36","","","","-20","","NA"
"-71.13","48.31","LATERRIERE","7064181","2020-01-12 05:00","2020","01","12","05:00","-14.0","","","M","","M","","","26","","4","","","","100.32","","","","-17","","NA"
"-71.13","48.31","LATERRIERE","7064181","2020-01-12 06:00","2020","01","12","06:00","-14.3","","","M","","M","","","12","","1","","","","100.23","","","","-15","","NA"
"-71.13","48.31","LATERRIERE","7064181","2020-01-12 07:00","2020","01","12","07:00","-14.1","","","M","","M","","","8","","3","","","","100.11","","","","-16","","NA"
"-71.13","48.31","LATERRIERE","7064181","2020-01-12 08:00","2020","01","12","08:00","-13.5","","","M","","M","","","8","","10","","","","100.20","","","","-19","","NA"
"-71.13","48.31","LATERRIERE","7064181","2020-01-12 09:00","2020","01","12","09:00","-14.0","","","M","","M","","","10","","19","","","","100.12","","","","-23","","NA"
"-71.13","48.31","LATERRIERE","7064181","2020-01-12 10:00","2020","01","12","10:00","-14.1","","","M","","M","","","7","","14","","","","100.07","","","","-22","","NA"
"-71.13","48.31","LATERRIERE","7064181","2020-01-12 11:00","2020","01","12","11:00","-13.6","","","M","","M","","","8","","11","","","","100.07","","","","-20","","NA"
"-71.13","48.31","LATERRIERE","7064181","2020-01-12 12:00","2020","01","12","12:00","-13.4","","","M","","M","","","8","","10","","","","100.11","","","","-19","","NA"
"-71.13","48.31","LATERRIERE","7064181","2020-01-12 13:00","2020","01","12","13:00","-13.1","","","M","","M","","","4","","8","","","","100.20","","","","-18","","NA"
"-71.13","48.31","LATERRIERE","7064181","2020-01-12 14:00","2020","01","12","14:00","-12.8","","","M","","M","","","3","","5","","","","100.28","","","","-16","","NA"
"-71.13","48.31","LATERRIERE","7064181","2020-01-12 15:00","2020","01","12","15:00","-12.7","","","M","","M","","","5","","2","","","","100.52","","","","-14","","NA"
"-71.13","48.31","LATERRIERE","7064181","2020-01-12 16:00","2020","01","12","16:00","-12.8","","","M","","M","","","34","","6","","","","100.72","","","","-17","","NA"
"-71.13","48.31","LATERRIERE","7064181","2020-01-12 17:00","2020","01","12","17:00","-12.9","","","M","","M","","","33","","6","","","","100.89","","","","-17","","NA"
"-71.13","48.31","LATERRIERE","7064181","2020-01-12 18:00","2020","01","12","18:00","-13.5","","","M","","M","","","31","","6","","","","101.09","","","","-18","","NA"
"-71.13","48.31","LATERRIERE","7064181","2020-01-12 19:00","2020","01","12","19:00","-14.1","","","M","","M","","","29","","9","","","","101.20","","","","-20","","NA"
"-71.13","48.31","LATERRIERE","7064181","2020-01-12 20:00","2020","01","12","20:00","-15.5","","","M","","M","","","26","","5","","","","101.29","","","","-19","","NA"
"-71.13","48.31","LATERRIERE","7064181","2020-01-12 21:00","2020","01","12","21:00","-17.1","","","M","","M","","","24","","4","","","","101.34","","","","-20","","NA"
"-71.13","48.31","LATERRIERE","7064181","2020-01-12 22:00","2020","01","12","22:00","-19.2","","","M","","M","","","23","","5","","","","101.36","","","","-23","","NA"
"-71.13","48.31","LATERRIERE","7064181","2020-01-12 23:00","2020","01","12","23:00","-20.1","","","M","","M","","","22","","6","","","","101.42","","","","-25","","NA"
"-71.13","48.31","LATERRIERE","7064181","2020-01-13 00:00","2020","01","13","00:00","-21.4","","","M","","M","","","20","","6","","","","101.42","","","","-27","","NA"
"-71.13","48.31","LATERRIERE","7064181","2020-01-13 01:00","2020","01","13","01:00","-22.4","","","M","","M","","","21","","4","","","","101.42","","","","-26","","NA"
"-71.13","48.31","LATERRIERE","7064181","2020-01-13 02:00","2020","01","13","02:00","-23.4","","","M","","M","","","25","","2","","","","101.48","","","","-25","","NA"
"-71.13","48.31","LATERRIERE","7064181","2020-01-13 03:00","2020","01","13","03:00","-23.6","","","M","","M","","","0","","1","","","","101.55","","","","-25","","NA"
"-71.13","48.31","LATERRIERE","7064181","2020-01-13 04:00","2020","01","13","04:00","-24.2","","","M","","M","","","21","","3","","","","101.51","","","","-27","","NA"
"-71.13","48.31","LATERRIERE","7064181","2020-01-13 05:00","2020","01","13","05:00","-24.3","","","M","","M","","","17","","4","","","","101.59","","","","-28","","NA"
"-71.13","48.31","LATERRIERE","7064181","2020-01-13 06:00","2020","01","13","06:00","-23.2","","","M","","M","","","20","","6","","","","101.56","","","","-29","","NA"
"-71.13","48.31","LATERRIERE","7064181","2020-01-13 07:00","2020","01","13","07:00","-23.5","","","M","","M","","","32","","3","","","","101.41","","","","-26","","NA"
"-71.13","48.31","LATERRIERE","7064181","2020-01-13 08:00","2020","01","13","08:00","-22.3","","","M","","M","","","","","0","","","","101.42","","","","","","NA"
"-71.13","48.31","LATERRIERE","7064181","2020-01-13 09:00","2020","01","13","09:00","-20.1","","","M","","M","","","8","","2","","","","101.34","","","","-22","","NA"
"-71.13","48.31","LATERRIERE","7064181","2020-01-13 10:00","2020","01","13","10:00","-18.6","","","M","","M","","","7","","4","","","","101.34","","","","-22","","NA"
"-71.13","48.31","LATERRIERE","7064181","2020-01-13 11:00","2020","01","13","11:00","-16.1","","","M","","M","","","34","","3","","","","101.17","","","","-18","","NA"
"-71.13","48.31","LATERRIERE","7064181","2020-01-13 12:00","2020","01","13","12:00","-12.8","","","M","","M","","","8","","8","","","","101.01","","","","-18","","NA"
"-71.13","48.31","LATERRIERE","7064181","2020-01-13 13:00","2020","01","13","13:00","-12.0","","","M","","M","","","8","","10","","","","100.93","","","","-18","","NA"
"-71.13","48.31","LATERRIERE","7064181","2020-01-13 14:00","2020","01","13","14:00","-12.1","","","M","","M","","","7","","9","","","","100.85","","","","-17","","NA"
"-71.13","48.31","LATERRIERE","7064181","2020-01-13 15:00","2020","01","13","15:00","-12.2","","","M","","M","","","6","","7","","","","100.83","","","","-17","","NA"
"-71.13","48.31","LATERRIERE","7064181","2020-01-13 16:00","2020","01","13","16:00","-12.5","","","M","","M","","","5","","7","","","","100.85","","","","-17","","NA"
"-71.13","48.31","LATERRIERE","7064181","2020-01-13 17:00","2020","01","13","17:00","-15.3","","","M","","M","","","25","","6","","","","100.85","","","","-20","","NA"
"-71.13","48.31","LATERRIERE","7064181","2020-01-13 18:00","2020","01","13","18:00","-17.0","","","M","","M","","","24","","11","","","","100.85","","","","-24","","NA"
"-71.13","48.31","LATERRIERE","7064181","2020-01-13 19:00","2020","01","13","19:00","-17.5","","","M","","M","","","25","","9","","","","100.85","","","","-24","","NA"
"-71.13","48.31","LATERRIERE","7064181","2020-01-13 20:00","2020","01","13","20:00","-18.0","","","M","","M","","","25","","5","","","","100.85","","","","-22","","NA"
"-71.13","48.31","LATERRIERE","7064181","2020-01-13 21:00","2020","01","13","21:00","-18.0","","","M","","M","","","25","","7","","","","100.89","","","","-23","","NA"
"-71.13","48.31","LATERRIERE","7064181","2020-01-13 22:00","2020","01","13","22:00","-18.0","","","M","","M","","","25","","4","","","","100.93","","","","-21","","NA"
"-71.13","48.31","LATERRIERE","7064181","2020-01-13 23:00","2020","01","13","23:00","-19.1","","","M","","M","","","22","","4","","","","100.94","","","","-22","","NA"
"-71.13","48.31","LATERRIERE","7064181","2020-01-14 00:00","2020","01","14","00:00","-19.3","","","M","","M","","","21","","5","","","","100.93","","","","-23","","NA"
"-71.13","48.31","LATERRIERE","7064181","2020-01-14 01:00","2020","01","14","01:00","-21.8","","","M","","M","","","24","","3","","","","100.94","","","","-25","","NA"
"-71.13","48.31","LATERRIERE","7064181","2020-01-14 02:00","2020","01","14","02:00","-23.6","","","M","","M","","","20","","6","","","","101.02","","","","-29","","NA"
"-71.13","48.31","LATERRIERE","7064181","2020-01-14 03:00","2020","01","14","03:00","-24.7","","","M","","M","","","","","0","","","","101.09","","","","","","NA"
"-71.13","48.31","LATERRIERE","7064181","2020-01-14 04:00","2020","01","14","04:00","-22.4","","","M","","M","","","24","","3","","","","101.10","","","","-25","","NA"
"-71.13","48.31","LATERRIERE","7064181","2020-01-14 05:00","2020","01","14","05:00","-22.3","","","M","","M","","","","","0","","","","101.10","","","","","","NA"
"-71.13","48.31","LATERRIERE","7064181","2020-01-14 06:00","2020","01","14","06:00","-22.7","","","M","","M","","","0","","1","","","","101.16","","","","-24","","NA"
"-71.13","48.31","LATERRIERE","7064181","2020-01-14 07:00","2020","01","14","07:00","-23.1","","","M","","M","","","","","0","","","","101.13","","","","","","NA"
"-71.13","48.31","LATERRIERE","7064181","2020-01-14 08:00","2020","01","14","08:00","-22.9","","","M","","M","","","0","","1","","","","101.02","","","","-24","","NA"
"-71.13","48.31","LATERRIERE","7064181","2020-01-14 09:00","2020","01","14","09:00","-20.9","","","M","","M","","","","","0","","","","100.99","","","","","","NA"
"-71.13","48.31","LATERRIERE","7064181","2020-01-14 10:00","2020","01","14","10:00","-17.2","","","M","","M","","","6","","3","","","","100.97","","","","-20","","NA"
"-71.13","48.31","LATERRIERE","7064181","2020-01-14 11:00","2020","01","14","11:00","-16.2","","","M","","M","","","4","","8","","","","100.85","","","","-22","","NA"
"-71.13","48.31","LATERRIERE","7064181","2020-01-14 12:00","2020","01","14","12:00","-15.2","","","M","","M","","","3","","8","","","","100.76","","","","-21","","NA"
"-71.13","48.31","LATERRIERE","7064181","2020-01-14 13:00","2020","01","14","13:00","-14.2","","","M","","M","","","3","","5","","","","100.68","","","","-18","","NA"
"-71.13","48.31","LATERRIERE","7064181","2020-01-14 14:00","2020","01","14","14:00","-13.8","","","M","","M","","","4","","4","","","","100.61","","","","-17","","NA"
"-71.13","48.31","LATERRIERE","7064181","2020-01-14 15:00","2020","01","14","15:00","-13.3","","","M","","M","","","27","","3","","","","100.59","","","","-15","","NA"
"-71.13","48.31","LATERRIERE","7064181","2020-01-14 16:00","2020","01","14","16:00","-13.6","","","M","","M","","","4","","4","","","","100.46","","","","-16","","NA"
"-71.13","48.31","LATERRIERE","7064181","2020-01-14 17:00","2020","01","14","17:00","-15.1","","","M","","M","","","0","","1","","","","100.36","","","","-16","","NA"
"-71.13","48.31","LATERRIERE","7064181","2020-01-14 18:00","2020","01","14","18:00","-15.6","","","M","","M","","","0","","1","","","","100.27","","","","-16","","NA"
"-71.13","48.31","LATERRIERE","7064181","2020-01-14 19:00","2020","01","14","19:00","-16.1","","","M","","M","","","8","","6","","","","100.11","","","","-21","","NA"
"-71.13","48.31","LATERRIERE","7064181","2020-01-14 20:00","2020","01","14","20:00","-13.2","","","M","","M","","","11","","9","","","","99.95","","","","-19","","NA"
"-71.13","48.31","LATERRIERE","7064181","2020-01-14 21:00","2020","01","14","21:00","-12.8","","","M","","M","","","6","","1","","","","99.95","","","","-13","","NA"
"-71.13","48.31","LATERRIERE","7064181","2020-01-14 22:00","2020","01","14","22:00","-12.3","","","M","","M","","","9","","3","","","","99.87","","","","-14","","NA"
"-71.13","48.31","LATERRIERE","7064181","2020-01-14 23:00","2020","01","14","23:00","-11.7","","","M","","M","","","10","","5","","","","99.79","","","","-15","","NA"
"-71.13","48.31","LATERRIERE","7064181","2020-01-15 00:00","2020","01","15","00:00","-11.4","","","M","","M","","","9","","5","","","","99.62","","","","-15","","NA"
"-71.13","48.31","LATERRIERE","7064181","2020-01-15 01:00","2020","01","15","01:00","-11.1","","","M","","M","","","8","","5","","","","99.54","","","","-14","","NA"
"-71.13","48.31","LATERRIERE","7064181","2020-01-15 02:00","2020","01","15","02:00","-11.1","","","M","","M","","","7","","3","","","","99.46","","","","-13","","NA"
"-71.13","48.31","LATERRIERE","7064181","2020-01-15 03:00","2020","01","15","03:00","-11.0","","","M","","M","","","11","","3","","","","99.39","","","","-13","","NA"
"-71.13","48.31","LATERRIERE","7064181","2020-01-15 04:00","2020","01","15","04:00","-11.0","","","M","","M","","","27","","2","","","","99.41","","","","-12","","NA"
"-71.13","48.31","LATERRIERE","7064181","2020-01-15 05:00","2020","01","15","05:00","-11.2","","","M","","M","","","24","","6","","","","99.38","","","","-15","","NA"
"-71.13","48.31","LATERRIERE","7064181","2020-01-15 06:00","2020","01","15","06:00","-11.1","","","M","","M","","","27","","3","","","","99.42","","","","-13","","NA"
"-71.13","48.31","LATERRIERE","7064181","2020-01-15 07:00","2020","01","15","07:00","-11.4","","","M","","M","","","29","","4","","","","99.46","","","","-14","","NA"
"-71.13","48.31","LATERRIERE","7064181","2020-01-15 08:00","2020","01","15","08:00","-12.3","","","M","","M","","","27","","3","","","","99.50","","","","-14","","NA"
"-71.13","48.31","LATERRIERE","7064181","2020-01-15 09:00","2020","01","15","09:00","-11.3","","","M","","M","","","0","","1","","","","99.50","","","","-12","","NA"
"-71.13","48.31","LATERRIERE","7064181","2020-01-15 10:00","2020","01","15","10:00","-10.4","","","M","","M","","","1","","3","","","","99.54","","","","-12","","NA"
"-71.13","48.31","LATERRIERE","7064181","2020-01-15 11:00","2020","01","15","11:00","-10.0","","","M","","M","","","36","","5","","","","99.54","","","","-13","","NA"
"-71.13","48.31","LATERRIERE","7064181","2020-01-15 12:00","2020","01","15","12:00","-9.1","","","M","","M","","","8","","3","","","","99.55","","","","-11","","NA"
"-71.13","48.31","LATERRIERE","7064181","2020-01-15 13:00","2020","01","15","13:00","-8.5","","","M","","M","","","3","","5","","","","99.54","","","","-11","","NA"
"-71.13","48.31","LATERRIERE","7064181","2020-01-15 14:00","2020","01","15","14:00","-7.7","","","M","","M","","","36","","1","","","","99.54","","","","-8","","NA"
"-71.13","48.31","LATERRIERE","7064181","2020-01-15 15:00","2020","01","15","15:00","-7.4","","","M","","M","","","1","","3","","","","99.58","","","","-9","","NA"
"-71.13","48.31","LATERRIERE","7064181","2020-01-15 16:00","2020","01","15","16:00","-7.5","","","M","","M","","","30","","5","","","","99.62","","","","-10","","NA"
"-71.13","48.31","LATERRIERE","7064181","2020-01-15 17:00","2020","01","15","17:00","-8.0","","","M","","M","","","31","","5","","","","99.70","","","","-11","","NA"
"-71.13","48.31","LATERRIERE","7064181","2020-01-15 18:00","2020","01","15","18:00","-8.5","","","M","","M","","","3","","2","","","","99.70","","","","-10","","NA"
"-71.13","48.31","LATERRIERE","7064181","2020-01-15 19:00","2020","01","15","19:00","-8.9","","","M","","M","","","0","","1","","","","99.74","","","","-9","","NA"
"-71.13","48.31","LATERRIERE","7064181","2020-01-15 20:00","2020","01","15","20:00","-8.8","","","M","","M","","","9","","3","","","","99.77","","","","-10","","NA"
"-71.13","48.31","LATERRIERE","7064181","2020-01-15 21:00","2020","01","15","21:00","-9.0","","","M","","M","","","7","","3","","","","99.70","","","","-11","","NA"
"-71.13","48.31","LATERRIERE","7064181","2020-01-15 22:00","2020","01","15","22:00","-9.1","","","M","","M","","","8","","1","","","","99.58","","","","-10","","NA"
"-71.13","48.31","LATERRIERE","7064181","2020-01-15 23:00","2020","01","15","23:00","-9.0","","","M","","M","","","0","","1","","","","99.54","","","","-10","","NA"
"-71.13","48.31","LATERRIERE","7064181","2020-01-16 00:00","2020","01","16","00:00","-9.2","","","M","","M","","","5","","2","","","","99.49","","","","-10","","NA"
"-71.13","48.31","LATERRIERE","7064181","2020-01-16 01:00","2020","01","16","01:00","-9.1","","","M","","M","","","0","","1","","","","99.46","","","","-10","","NA"
"-71.13","48.31","LATERRIERE","7064181","2020-01-16 02:00","2020","01","16","02:00","-9.2","","","M","","M","","","19","","2","","","","99.46","","","","-10","","NA"
"-71.13","48.31","LATERRIERE","7064181","2020-01-16 03:00","2020","01","16","03:00","-9.2","","","M","","M","","","22","","5","","","","99.45","","","","-12","","NA"
"-71.13","48.31","LATERRIERE","7064181","2020-01-16 04:00","2020","01","16","04:00","-9.1","","","M","","M","","","24","","3","","","","99.42","","","","-11","","NA"
"-71.13","48.31","LATERRIERE","7064181","2020-01-16 05:00","2020","01","16","05:00","-9.5","","","M","","M","","","24","","3","","","","99.38","","","","-11","","NA"
"-71.13","48.31","LATERRIERE","7064181","2020-01-16 06:00","2020","01","16","06:00","-9.7","","","M","","M","","","27","","5","","","","99.38","","","","-13","","NA"
"-71.13","48.31","LATERRIERE","7064181","2020-01-16 07:00","2020","01","16","07:00","-9.5","","","M","","M","","","26","","6","","","","99.38","","","","-13","","NA"
"-71.13","48.31","LATERRIERE","7064181","2020-01-16 08:00","2020","01","16","08:00","-10.2","","","M","","M","","","26","","8","","","","99.38","","","","-15","","NA"
"-71.13","48.31","LATERRIERE","7064181","2020-01-16 09:00","2020","01","16","09:00","-10.0","","","M","","M","","","27","","7","","","","99.37","","","","-14","","NA"
"-71.13","48.31","LATERRIERE","7064181","2020-01-16 10:00","2020","01","16","10:00","-10.1","","","M","","M","","","27","","8","","","","99.38","","","","-15","","NA"
"-71.13","48.31","LATERRIERE","7064181","2020-01-16 11:00","2020","01","16","11:00","-9.8","","","M","","M","","","27","","11","","","","99.38","","","","-15","","NA"
"-71.13","48.31","LATERRIERE","7064181","2020-01-16 12:00","2020","01","16","12:00","-9.6","","","M","","M","","","26","","12","","","","99.38","","","","-15","","NA"
"-71.13","48.31","LATERRIERE","7064181","2020-01-16 13:00","2020","01","16","13:00","-9.9","","","M","","M","","","26","","12","","","","99.38","","","","-16","","NA"
"-71.13","48.31","LATERRIERE","7064181","2020-01-16 14:00","2020","01","16","14:00","-10.8","","","M","","M","","","26","","17","","","","99.46","","","","-18","","NA"
"-71.13","48.31","LATERRIERE","7064181","2020-01-16 15:00","2020","01","16","15:00","-11.7","","","M","","M","","","27","","18","","","","99.54","","","","-20","","NA"
"-71.13","48.31","LATERRIERE","7064181","2020-01-16 16:00","2020","01","16","16:00","-12.5","","","M","","M","","","27","","15","","","","99.62","","","","-20","","NA"
"-71.13","48.31","LATERRIERE","7064181","2020-01-16 17:00","2020","01","16","17:00","-13.2","","","M","","M","","","28","","17","","","","99.79","","","","-21","","NA"
"-71.13","48.31","LATERRIERE","7064181","2020-01-16 18:00","2020","01","16","18:00","-15.1","","","M","","M","","","28","","16","","","","99.92","","","","-23","","NA"
"-71.13","48.31","LATERRIERE","7064181","2020-01-16 19:00","2020","01","16","19:00","-16.7","","","M","","M","","","28","","17","","","","100.09","","","","-26","","NA"
"-71.13","48.31","LATERRIERE","7064181","2020-01-16 20:00","2020","01","16","20:00","-18.2","","","M","","M","","","27","","17","","","","100.24","","","","-27","","NA"
"-71.13","48.31","LATERRIERE","7064181","2020-01-16 21:00","2020","01","16","21:00","-19.6","","","M","","M","","","28","","17","","","","100.39","","","","-29","","NA"
"-71.13","48.31","LATERRIERE","7064181","2020-01-16 22:00","2020","01","16","22:00","-21.4","","","M","","M","","","28","","18","","","","100.53","","","","-32","","NA"
"-71.13","48.31","LATERRIERE","7064181","2020-01-16 23:00","2020","01","16","23:00","-22.9","","","M","","M","","","28","","24","","","","100.69","","","","-35","","NA"
"-71.13","48.31","LATERRIERE","7064181","2020-01-17 00:00","2020","01","17","00:00","-24.1","","","M","","M","","","27","","16","","","","100.78","","","","-34","","NA"
"-71.13","48.31","LATERRIERE","7064181","2020-01-17 01:00","2020","01","17","01:00","-24.8","","","M","","M","","","27","","15","","","","100.91","","","","-35","","NA"
"-71.13","48.31","LATERRIERE","7064181","2020-01-17 02:00","2020","01","17","02:00","-25.2","","","M","","M","","","27","","16","","","","101.04","","","","-36","","NA"
"-71.13","48.31","LATERRIERE","7064181","2020-01-17 03:00","2020","01","17","03:00","-25.5","","","M","","M","","","27","","16","","","","101.18","","","","-36","","NA"
"-71.13","48.31","LATERRIERE","7064181","2020-01-17 04:00","2020","01","17","04:00","-25.8","","","M","","M","","","26","","12","","","","101.27","","","","-35","","NA"
"-71.13","48.31","LATERRIERE","7064181","2020-01-17 05:00","2020","01","17","05:00","-25.8","","","M","","M","","","27","","16","","","","101.38","","","","-37","","NA"
"-71.13","48.31","LATERRIERE","7064181","2020-01-17 06:00","2020","01","17","06:00","-26.0","","","M","","M","","","27","","15","","","","101.47","","","","-36","","NA"
"-71.13","48.31","LATERRIERE","7064181","2020-01-17 07:00","2020","01","17","07:00","-26.2","","","M","","M","","","27","","16","","","","101.55","","","","-37","","NA"
"-71.13","48.31","LATERRIERE","7064181","2020-01-17 08:00","2020","01","17","08:00","-26.4","","","M","","M","","","27","","16","","","","101.67","","","","-37","","NA"
"-71.13","48.31","LATERRIERE","7064181","2020-01-17 09:00","2020","01","17","09:00","-25.9","","","M","","M","","","27","","18","","","","101.67","","","","-37","","NA"
"-71.13","48.31","LATERRIERE","7064181","2020-01-17 10:00","2020","01","17","10:00","-25.1","","","M","","M","","","26","","16","","","","101.71","","","","-36","","NA"
"-71.13","48.31","LATERRIERE","7064181","2020-01-17 11:00","2020","01","17","11:00","-24.5","","","M","","M","","","27","","16","","","","101.71","","","","-35","","NA"
"-71.13","48.31","LATERRIERE","7064181","2020-01-17 12:00","2020","01","17","12:00","-24.3","","","M","","M","","","28","","18","","","","101.69","","","","-35","","NA"
"-71.13","48.31","LATERRIERE","7064181","2020-01-17 13:00","2020","01","17","13:00","-23.9","","","M","","M","","","29","","20","","","","101.67","","","","-35","","NA"
"-71.13","48.31","LATERRIERE","7064181","2020-01-17 14:00","2020","01","17","14:00","-23.2","","","M","","M","","","28","","17","","","","101.67","","","","-34","","NA"
"-71.13","48.31","LATERRIERE","7064181","2020-01-17 15:00","2020","01","17","15:00","-23.0","","","M","","M","","","29","","22","","","","101.71","","","","-35","","NA"
"-71.13","48.31","LATERRIERE","7064181","2020-01-17 16:00","2020","01","17","16:00","-23.9","","","M","","M","","","28","","12","","","","101.75","","","","-33","","NA"
"-71.13","48.31","LATERRIERE","7064181","2020-01-17 17:00","2020","01","17","17:00","-24.7","","","M","","M","","","28","","8","","","","101.83","","","","-32","","NA"
"-71.13","48.31","LATERRIERE","7064181","2020-01-17 18:00","2020","01","17","18:00","-25.1","","","M","","M","","","25","","6","","","","101.79","","","","-31","","NA"
"-71.13","48.31","LATERRIERE","7064181","2020-01-17 19:00","2020","01","17","19:00","-24.5","","","M","","M","","","26","","8","","","","101.84","","","","-32","","NA"
"-71.13","48.31","LATERRIERE","7064181","2020-01-17 20:00","2020","01","17","20:00","-23.5","","","M","","M","","","27","","12","","","","101.83","","","","-32","","NA"
"-71.13","48.31","LATERRIERE","7064181","2020-01-17 21:00","2020","01","17","21:00","-24.7","","","M","","M","","","27","","10","","","","101.79","","","","-33","","NA"
"-71.13","48.31","LATERRIERE","7064181","2020-01-17 22:00","2020","01","17","22:00","-25.2","","","M","","M","","","26","","10","","","","101.75","","","","-33","","NA"
"-71.13","48.31","LATERRIERE","7064181","2020-01-17 23:00","2020","01","17","23:00","-24.8","","","M","","M","","","27","","13","","","","101.81","","","","-34","","NA"
"-71.13","48.31","LATERRIERE","7064181","2020-01-18 00:00","2020","01","18","00:00","-25.6","","","M","","M","","","26","","8","","","","101.75","","","","-33","","NA"
"-71.13","48.31","LATERRIERE","7064181","2020-01-18 01:00","2020","01","18","01:00","-26.4","","","M","","M","","","25","","8","","","","101.78","","","","-34","","NA"
"-71.13","48.31","LATERRIERE","7064181","2020-01-18 02:00","2020","01","18","02:00","-27.0","","","M","","M","","","23","","8","","","","101.75","","","","-34","","NA"
"-71.13","48.31","LATERRIERE","7064181","2020-01-18 03:00","2020","01","18","03:00","-26.4","","","M","","M","","","24","","8","","","","101.67","","","","-34","","NA"
"-71.13","48.31","LATERRIERE","7064181","2020-01-18 04:00","2020","01","18","04:00","-26.3","","","M","","M","","","25","","7","","","","101.64","","","","-33","","NA"
"-71.13","48.31","LATERRIERE","7064181","2020-01-18 05:00","2020","01","18","05:00","-26.5","","","M","","M","","","24","","7","","","","101.59","","","","-33","","NA"
"-71.13","48.31","LATERRIERE","7064181","2020-01-18 06:00","2020","01","18","06:00","-26.5","","","M","","M","","","23","","4","","","","101.55","","","","-31","","NA"
"-71.13","48.31","LATERRIERE","7064181","2020-01-18 07:00","2020","01","18","07:00","-28.0","","","M","","M","","","4","","3","","","","101.51","","","","-31","","NA"
"-71.13","48.31","LATERRIERE","7064181","2020-01-18 08:00","2020","01","18","08:00","-28.7","","","M","","M","","","22","","3","","","","101.47","","","","-32","","NA"
"-71.13","48.31","LATERRIERE","7064181","2020-01-18 09:00","2020","01","18","09:00","-25.9","","","M","","M","","","23","","2","","","","101.35","","","","-28","","NA"
"-71.13","48.31","LATERRIERE","7064181","2020-01-18 10:00","2020","01","18","10:00","-23.8","","","M","","M","","","5","","5","","","","101.26","","","","-29","","NA"
"-71.13","48.31","LATERRIERE","7064181","2020-01-18 11:00","2020","01","18","11:00","-22.8","","","M","","M","","","5","","7","","","","101.16","","","","-29","","NA"
"-71.13","48.31","LATERRIERE","7064181","2020-01-18 12:00","2020","01","18","12:00","-21.8","","","M","","M","","","5","","6","","","","101.05","","","","-27","","NA"
"-71.13","48.31","LATERRIERE","7064181","2020-01-18 13:00","2020","01","18","13:00","-22.1","","","M","","M","","","5","","9","","","","100.85","","","","-29","","NA"
"-71.13","48.31","LATERRIERE","7064181","2020-01-18 14:00","2020","01","18","14:00","-21.8","","","M","","M","","","6","","7","","","","100.68","","","","-28","","NA"
"-71.13","48.31","LATERRIERE","7064181","2020-01-18 15:00","2020","01","18","15:00","-22.4","","","M","","M","","","5","","7","","","","100.61","","","","-28","","NA"
"-71.13","48.31","LATERRIERE","7064181","2020-01-18 16:00","2020","01","18","16:00","-23.0","","","M","","M","","","8","","5","","","","100.41","","","","-28","","NA"
"-71.13","48.31","LATERRIERE","7064181","2020-01-18 17:00","2020","01","18","17:00","-23.6","","","M","","M","","","12","","4","","","","100.28","","","","-27","","NA"
"-71.13","48.31","LATERRIERE","7064181","2020-01-18 18:00","2020","01","18","18:00","-22.7","","","M","","M","","","7","","2","","","","100.12","","","","-25","","NA"
"-71.13","48.31","LATERRIERE","7064181","2020-01-18 19:00","2020","01","18","19:00","-22.0","","","M","","M","","","14","","5","","","","100.04","","","","-27","","NA"
"-71.13","48.31","LATERRIERE","7064181","2020-01-18 20:00","2020","01","18","20:00","-21.5","","","M","","M","","","35","","1","","","","99.95","","","","-22","","NA"
"-71.13","48.31","LATERRIERE","7064181","2020-01-18 21:00","2020","01","18","21:00","-21.7","","","M","","M","","","7","","3","","","","99.71","","","","-24","","NA"
"-71.13","48.31","LATERRIERE","7064181","2020-01-18 22:00","2020","01","18","22:00","-21.1","","","M","","M","","","19","","3","","","","99.51","","","","-24","","NA"
"-71.13","48.31","LATERRIERE","7064181","2020-01-18 23:00","2020","01","18","23:00","-21.0","","","M","","M","","","3","","2","","","","99.38","","","","-23","","NA"
"-71.13","48.31","LATERRIERE","7064181","2020-01-19 00:00","2020","01","19","00:00","-20.7","","","M","","M","","","2","","4","","","","99.22","","","","-24","","NA"
"-71.13","48.31","LATERRIERE","7064181","2020-01-19 01:00","2020","01","19","01:00","-20.1","","","M","","M","","","11","","2","","","","99.10","","","","-22","","NA"
"-71.13","48.31","LATERRIERE","7064181","2020-01-19 02:00","2020","01","19","02:00","-17.3","","","M","","M","","","8","","11","","","","99.04","","","","-24","","NA"
"-71.13","48.31","LATERRIERE","7064181","2020-01-19 03:00","2020","01","19","03:00","-17.2","","","M","","M","","","7","","15","","","","98.93","","","","-26","","NA"
"-71.13","48.31","LATERRIERE","7064181","2020-01-19 04:00","2020","01","19","04:00","-17.0","","","M","","M","","","7","","19","","","","98.85","","","","-26","","NA"
"-71.13","48.31","LATERRIERE","7064181","2020-01-19 05:00","2020","01","19","05:00","-16.9","","","M","","M","","","8","","17","","","","98.78","","","","-26","","NA"
"-71.13","48.31","LATERRIERE","7064181","2020-01-19 06:00","2020","01","19","06:00","-16.7","","","M","","M","","","9","","16","","","","98.81","","","","-25","","NA"
"-71.13","48.31","LATERRIERE","7064181","2020-01-19 07:00","2020","01","19","07:00","-16.7","","","M","","M","","","8","","14","","","","98.81","","","","-25","","NA"
"-71.13","48.31","LATERRIERE","7064181","2020-01-19 08:00","2020","01","19","08:00","-16.4","","","M","","M","","","8","","12","","","","98.82","","","","-24","","NA"
"-71.13","48.31","LATERRIERE","7064181","2020-01-19 09:00","2020","01","19","09:00","-15.9","","","M","","M","","","9","","12","","","","98.81","","","","-23","","NA"
"-71.13","48.31","LATERRIERE","7064181","2020-01-19 10:00","2020","01","19","10:00","-14.9","","","M","","M","","","7","","8","","","","98.85","","","","-20","","NA"
"-71.13","48.31","LATERRIERE","7064181","2020-01-19 11:00","2020","01","19","11:00","-14.4","","","M","","M","","","3","","8","","","","98.85","","","","-20","","NA"
"-71.13","48.31","LATERRIERE","7064181","2020-01-19 12:00","2020","01","19","12:00","-14.1","","","M","","M","","","36","","7","","","","98.89","","","","-19","","NA"
"-71.13","48.31","LATERRIERE","7064181","2020-01-19 13:00","2020","01","19","13:00","-13.6","","","M","","M","","","32","","8","","","","98.90","","","","-19","","NA"
"-71.13","48.31","LATERRIERE","7064181","2020-01-19 14:00","2020","01","19","14:00","-13.6","","","M","","M","","","26","","8","","","","98.97","","","","-19","","NA"
"-71.13","48.31","LATERRIERE","7064181","2020-01-19 15:00","2020","01","19","15:00","-14.4","","","M","","M","","","25","","10","","","","99.05","","","","-21","","NA"
"-71.13","48.31","LATERRIERE","7064181","2020-01-19 16:00","2020","01","19","16:00","-15.7","","","M","","M","","","26","","10","","","","99.14","","","","-22","","NA"
"-71.13","48.31","LATERRIERE","7064181","2020-01-19 17:00","2020","01","19","17:00","-16.5","","","M","","M","","","25","","9","","","","99.22","","","","-23","","NA"
"-71.13","48.31","LATERRIERE","7064181","2020-01-19 18:00","2020","01","19","18:00","-17.0","","","M","","M","","","24","","9","","","","99.34","","","","-23","","NA"
"-71.13","48.31","LATERRIERE","7064181","2020-01-19 19:00","2020","01","19","19:00","-17.1","","","M","","M","","","25","","11","","","","99.42","","","","-24","","NA"
"-71.13","48.31","LATERRIERE","7064181","2020-01-19 20:00","2020","01","19","20:00","-18.2","","","M","","M","","","26","","7","","","","99.47","","","","-24","","NA"
"-71.13","48.31","LATERRIERE","7064181","2020-01-19 21:00","2020","01","19","21:00","-18.5","","","M","","M","","","26","","8","","","","99.57","","","","-24","","NA"
"-71.13","48.31","LATERRIERE","7064181","2020-01-19 22:00","2020","01","19","22:00","-18.8","","","M","","M","","","26","","11","","","","99.60","","","","-26","","NA"
"-71.13","48.31","LATERRIERE","7064181","2020-01-19 23:00","2020","01","19","23:00","-18.8","","","M","","M","","","26","","14","","","","99.71","","","","-27","","NA"
"-71.13","48.31","LATERRIERE","7064181","2020-01-20 00:00","2020","01","20","00:00","-19.6","","","M","","M","","","26","","20","","","","99.73","","","","-30","","NA"
"-71.13","48.31","LATERRIERE","7064181","2020-01-20 01:00","2020","01","20","01:00","-20.1","","","M","","M","","","26","","16","","","","99.77","","","","-30","","NA"
"-71.13","48.31","LATERRIERE","7064181","2020-01-20 02:00","2020","01","20","02:00","-21.0","","","M","","M","","","24","","9","","","","99.87","","","","-28","","NA"
"-71.13","48.31","LATERRIERE","7064181","2020-01-20 03:00","2020","01","20","03:00","-21.1","","","M","","M","","","26","","11","","","","99.87","","","","-29","","NA"
"-71.13","48.31","LATERRIERE","7064181","2020-01-20 04:00","2020","01","20","04:00","-21.7","","","M","","M","","","24","","7","","","","99.87","","","","-28","","NA"
"-71.13","48.31","LATERRIERE","7064181","2020-01-20 05:00","2020","01","20","05:00","-22.2","","","M","","M","","","22","","6","","","","99.88","","","","-28","","NA"
"-71.13","48.31","LATERRIERE","7064181","2020-01-20 06:00","2020","01","20","06:00","-23.6","","","M","","M","","","25","","3","","","","99.91","","","","-26","","NA"
"-71.13","48.31","LATERRIERE","7064181","2020-01-20 07:00","2020","01","20","07:00","-25.5","","","M","","M","","","","","0","","","","99.95","","","","","","NA"
"-71.13","48.31","LATERRIERE","7064181","2020-01-20 08:00","2020","01","20","08:00","-26.5","","","M","","M","","","","","0","","","","99.98","","","","","","NA"
"-71.13","48.31","LATERRIERE","7064181","2020-01-20 09:00","2020","01","20","09:00","-23.1","","","M","","M","","","35","","2","","","","100.03","","","","-25","","NA"
"-71.13","48.31","LATERRIERE","7064181","2020-01-20 10:00","2020","01","20","10:00","-21.4","","","M","","M","","","5","","4","","","","99.99","","","","-25","","NA"
"-71.13","48.31","LATERRIERE","7064181","2020-01-20 11:00","2020","01","20","11:00","-16.6","","","M","","M","","","31","","8","","","","99.96","","","","-22","","NA"
"-71.13","48.31","LATERRIERE","7064181","2020-01-20 12:00","2020","01","20","12:00","-16.1","","","M","","M","","","29","","14","","","","99.95","","","","-24","","NA"
"-71.13","48.31","LATERRIERE","7064181","2020-01-20 13:00","2020","01","20","13:00","-15.5","","","M","","M","","","26","","12","","","","99.87","","","","-23","","NA"
"-71.13","48.31","LATERRIERE","7064181","2020-01-20 14:00","2020","01","20","14:00","-15.0","","","M","","M","","","29","","12","","","","99.83","","","","-22","","NA"
"-71.13","48.31","LATERRIERE","7064181","2020-01-20 15:00","2020","01","20","15:00","-14.5","","","M","","M","","","28","","13","","","","99.87","","","","-22","","NA"
"-71.13","48.31","LATERRIERE","7064181","2020-01-20 16:00","2020","01","20","16:00","-14.7","","","M","","M","","","31","","10","","","","99.91","","","","-21","","NA"
"-71.13","48.31","LATERRIERE","7064181","2020-01-20 17:00","2020","01","20","17:00","-15.8","","","M","","M","","","31","","9","","","","100.03","","","","-22","","NA"
"-71.13","48.31","LATERRIERE","7064181","2020-01-20 18:00","2020","01","20","18:00","-16.0","","","M","","M","","","28","","11","","","","100.12","","","","-23","","NA"
"-71.13","48.31","LATERRIERE","7064181","2020-01-20 19:00","2020","01","20","19:00","-16.0","","","M","","M","","","28","","10","","","","100.22","","","","-22","","NA"
"-71.13","48.31","LATERRIERE","7064181","2020-01-20 20:00","2020","01","20","20:00","-16.1","","","M","","M","","","29","","11","","","","100.29","","","","-23","","NA"
"-71.13","48.31","LATERRIERE","7064181","2020-01-20 21:00","2020","01","20","21:00","-16.3","","","M","","M","","","29","","17","","","","100.36","","","","-25","","NA"
"-71.13","48.31","LATERRIERE","7064181","2020-01-20 22:00","2020","01","20","22:00","-16.5","","","M","","M","","","28","","11","","","","100.40","","","","-23","","NA"
"-71.13","48.31","LATERRIERE","7064181","2020-01-20 23:00","2020","01","20","23:00","-17.3","","","M","","M","","","28","","11","","","","100.40","","","","-24","","NA"
"-71.13","48.31","LATERRIERE","7064181","2020-01-21 00:00","2020","01","21","00:00","-17.3","","","M","","M","","","25","","6","","","","100.41","","","","-22","","NA"
"-71.13","48.31","LATERRIERE","7064181","2020-01-21 01:00","2020","01","21","01:00","-17.0","","","M","","M","","","23","","5","","","","100.40","","","","-21","","NA"
"-71.13","48.31","LATERRIERE","7064181","2020-01-21 02:00","2020","01","21","02:00","-16.7","","","M","","M","","","28","","6","","","","100.40","","","","-21","","NA"
"-71.13","48.31","LATERRIERE","7064181","2020-01-21 03:00","2020","01","21","03:00","-16.5","","","M","","M","","","29","","9","","","","100.44","","","","-23","","NA"
"-71.13","48.31","LATERRIERE","7064181","2020-01-21 04:00","2020","01","21","04:00","-16.4","","","M","","M","","","28","","10","","","","100.44","","","","-23","","NA"
"-71.13","48.31","LATERRIERE","7064181","2020-01-21 05:00","2020","01","21","05:00","-16.2","","","M","","M","","","25","","9","","","","100.44","","","","-22","","NA"
"-71.13","48.31","LATERRIERE","7064181","2020-01-21 06:00","2020","01","21","06:00","-16.1","","","M","","M","","","25","","10","","","","100.52","","","","-23","","NA"
"-71.13","48.31","LATERRIERE","7064181","2020-01-21 07:00","2020","01","21","07:00","-16.2","","","M","","M","","","23","","6","","","","100.54","","","","-21","","NA"
"-71.13","48.31","LATERRIERE","7064181","2020-01-21 08:00","2020","01","21","08:00","-16.0","","","M","","M","","","25","","8","","","","100.52","","","","-22","","NA"
"-71.13","48.31","LATERRIERE","7064181","2020-01-21 09:00","2020","01","21","09:00","-15.2","","","M","","M","","","23","","5","","","","100.52","","","","-19","","NA"
"-71.13","48.31","LATERRIERE","7064181","2020-01-21 10:00","2020","01","21","10:00","-13.8","","","M","","M","","","25","","7","","","","100.45","","","","-18","","NA"
"-71.13","48.31","LATERRIERE","7064181","2020-01-21 11:00","2020","01","21","11:00","-13.0","","","M","","M","","","35","","3","","","","100.39","","","","-15","","NA"
"-71.13","48.31","LATERRIERE","7064181","2020-01-21 12:00","2020","01","21","12:00","-13.2","","","M","","M","","","4","","11","","","","100.28","","","","-19","","NA"
"-71.13","48.31","LATERRIERE","7064181","2020-01-21 13:00","2020","01","21","13:00","-12.2","","","M","","M","","","6","","11","","","","100.19","","","","-18","","NA"
"-71.13","48.31","LATERRIERE","7064181","2020-01-21 14:00","2020","01","21","14:00","-12.6","","","M","","M","","","6","","7","","","","100.11","","","","-17","","NA"
"-71.13","48.31","LATERRIERE","7064181","2020-01-21 15:00","2020","01","21","15:00","-12.4","","","M","","M","","","8","","7","","","","100.07","","","","-17","","NA"
"-71.13","48.31","LATERRIERE","7064181","2020-01-21 16:00","2020","01","21","16:00","-12.7","","","M","","M","","","2","","7","","","","100.07","","","","-17","","NA"
"-71.13","48.31","LATERRIERE","7064181","2020-01-21 17:00","2020","01","21","17:00","-12.7","","","M","","M","","","6","","6","","","","100.07","","","","-17","","NA"
"-71.13","48.31","LATERRIERE","7064181","2020-01-21 18:00","2020","01","21","18:00","-12.7","","","M","","M","","","6","","3","","","","100.11","","","","-15","","NA"
"-71.13","48.31","LATERRIERE","7064181","2020-01-21 19:00","2020","01","21","19:00","-12.5","","","M","","M","","","13","","3","","","","100.11","","","","-14","","NA"
"-71.13","48.31","LATERRIERE","7064181","2020-01-21 20:00","2020","01","21","20:00","-9.5","","","M","","M","","","25","","12","","","","100.11","","","","-15","","NA"
"-71.13","48.31","LATERRIERE","7064181","2020-01-21 21:00","2020","01","21","21:00","-9.4","","","M","","M","","","25","","12","","","","100.11","","","","-15","","NA"
"-71.13","48.31","LATERRIERE","7064181","2020-01-21 22:00","2020","01","21","22:00","-9.2","","","M","","M","","","26","","10","","","","100.07","","","","-14","","NA"
"-71.13","48.31","LATERRIERE","7064181","2020-01-21 23:00","2020","01","21","23:00","-10.2","","","M","","M","","","1","","6","","","","100.11","","","","-14","","NA"
"-71.13","48.31","LATERRIERE","7064181","2020-01-22 00:00","2020","01","22","00:00","-11.6","","","M","","M","","","6","","5","","","","100.11","","","","-15","","NA"
"-71.13","48.31","LATERRIERE","7064181","2020-01-22 01:00","2020","01","22","01:00","-11.7","","","M","","M","","","6","","6","","","","100.11","","","","-15","","NA"
"-71.13","48.31","LATERRIERE","7064181","2020-01-22 02:00","2020","01","22","02:00","-11.4","","","M","","M","","","8","","3","","","","100.11","","","","-13","","NA"
"-71.13","48.31","LATERRIERE","7064181","2020-01-22 03:00","2020","01","22","03:00","-11.5","","","M","","M","","","6","","3","","","","100.11","","","","-13","","NA"
"-71.13","48.31","LATERRIERE","7064181","2020-01-22 04:00","2020","01","22","04:00","-12.0","","","M","","M","","","7","","5","","","","100.15","","","","-15","","NA"
"-71.13","48.31","LATERRIERE","7064181","2020-01-22 05:00","2020","01","22","05:00","-11.6","","","M","","M","","","6","","4","","","","100.15","","","","-14","","NA"
"-71.13","48.31","LATERRIERE","7064181","2020-01-22 06:00","2020","01","22","06:00","-11.4","","","M","","M","","","8","","6","","","","100.19","","","","-15","","NA"
"-71.13","48.31","LATERRIERE","7064181","2020-01-22 07:00","2020","01","22","07:00","-11.1","","","M","","M","","","6","","5","","","","100.19","","","","-14","","NA"
"-71.13","48.31","LATERRIERE","7064181","2020-01-22 08:00","2020","01","22","08:00","-10.6","","","M","","M","","","8","","4","","","","100.16","","","","-13","","NA"
"-71.13","48.31","LATERRIERE","7064181","2020-01-22 09:00","2020","01","22","09:00","-9.6","","","M","","M","","","5","","2","","","","100.11","","","","-11","","NA"
"-71.13","48.31","LATERRIERE","7064181","2020-01-22 10:00","2020","01","22","10:00","-8.2","","","M","","M","","","2","","4","","","","100.05","","","","-10","","NA"
"-71.13","48.31","LATERRIERE","7064181","2020-01-22 11:00","2020","01","22","11:00","-7.4","","","M","","M","","","3","","9","","","","100.03","","","","-12","","NA"
"-71.13","48.31","LATERRIERE","7064181","2020-01-22 12:00","2020","01","22","12:00","-6.9","","","M","","M","","","2","","8","","","","99.94","","","","-11","","NA"
"-71.13","48.31","LATERRIERE","7064181","2020-01-22 13:00","2020","01","22","13:00","-5.7","","","M","","M","","","1","","6","","","","99.87","","","","-9","","NA"
"-71.13","48.31","LATERRIERE","7064181","2020-01-22 14:00","2020","01","22","14:00","-1.6","","","M","","M","","","20","","10","","","","99.83","","","","-5","","NA"
"-71.13","48.31","LATERRIERE","7064181","2020-01-22 15:00","2020","01","22","15:00","-2.1","","","M","","M","","","21","","4","","","","99.79","","","","-4","","NA"
"-71.13","48.31","LATERRIERE","7064181","2020-01-22 16:00","2020","01","22","16:00","-2.5","","","M","","M","","","20","","10","","","","99.79","","","","-6","","NA"
"-71.13","48.31","LATERRIERE","7064181","2020-01-22 17:00","2020","01","22","17:00","-7.1","","","M","","M","","","36","","7","","","","99.83","","","","-11","","NA"
"-71.13","48.31","LATERRIERE","7064181","2020-01-22 18:00","2020","01","22","18:00","-9.5","","","M","","M","","","8","","4","","","","99.87","","","","-12","","NA"
"-71.13","48.31","LATERRIERE","7064181","2020-01-22 19:00","2020","01","22","19:00","-11.3","","","M","","M","","","31","","3","","","","99.82","","","","-13","","NA"
"-71.13","48.31","LATERRIERE","7064181","2020-01-22 20:00","2020","01","22","20:00","-12.4","","","M","","M","","","0","","1","","","","99.79","","","","-13","","NA"
"-71.13","48.31","LATERRIERE","7064181","2020-01-22 21:00","2020","01","22","21:00","-12.7","","","M","","M","","","2","","2","","","","99.78","","","","-14","","NA"
"-71.13","48.31","LATERRIERE","7064181","2020-01-22 22:00","2020","01","22","22:00","-9.3","","","M","","M","","","36","","2","","","","99.78","","","","-10","","NA"
"-71.13","48.31","LATERRIERE","7064181","2020-01-22 23:00","2020","01","22","23:00","-8.7","","","M","","M","","","8","","4","","","","99.79","","","","-11","","NA"
"-71.13","48.31","LATERRIERE","7064181","2020-01-23 00:00","2020","01","23","00:00","-7.8","","","M","","M","","","9","","2","","","","99.78","","","","-9","","NA"
"-71.13","48.31","LATERRIERE","7064181","2020-01-23 01:00","2020","01","23","01:00","-5.4","","","M","","M","","","21","","2","","","","99.76","","","","-6","","NA"
"-71.13","48.31","LATERRIERE","7064181","2020-01-23 02:00","2020","01","23","02:00","-1.4","","","M","","M","","","26","","13","","","","99.83","","","","-6","","NA"
"-71.13","48.31","LATERRIERE","7064181","2020-01-23 03:00","2020","01","23","03:00","-1.0","","","M","","M","","","25","","16","","","","99.79","","","","-6","","NA"
"-71.13","48.31","LATERRIERE","7064181","2020-01-23 04:00","2020","01","23","04:00","-0.9","","","M","","M","","","26","","13","","","","99.83","","","","-5","","NA"
"-71.13","48.31","LATERRIERE","7064181","2020-01-23 05:00","2020","01","23","05:00","-1.0","","","M","","M","","","25","","13","","","","99.87","","","","-5","","NA"
"-71.13","48.31","LATERRIERE","7064181","2020-01-23 06:00","2020","01","23","06:00","-1.0","","","M","","M","","","25","","13","","","","99.91","","","","-5","","NA"
"-71.13","48.31","LATERRIERE","7064181","2020-01-23 07:00","2020","01","23","07:00","-1.0","","","M","","M","","","26","","13","","","","99.93","","","","-5","","NA"
"-71.13","48.31","LATERRIERE","7064181","2020-01-23 08:00","2020","01","23","08:00","-0.7","","","M","","M","","","26","","13","","","","99.95","","","","-5","","NA"
"-71.13","48.31","LATERRIERE","7064181","2020-01-23 09:00","2020","01","23","09:00","-0.6","","","M","","M","","","25","","17","","","","99.95","","","","-6","","NA"
"-71.13","48.31","LATERRIERE","7064181","2020-01-23 10:00","2020","01","23","10:00","-0.1","","","M","","M","","","24","","12","","","","99.99","","","","-4","","NA"
"-71.13","48.31","LATERRIERE","7064181","2020-01-23 11:00","2020","01","23","11:00","0.8","","","M","","M","","","25","","17","","","","100.03","","","","","","NA"
"-71.13","48.31","LATERRIERE","7064181","2020-01-23 12:00","2020","01","23","12:00","0.9","","","M","","M","","","25","","17","","","","100.03","","","","","","NA"
"-71.13","48.31","LATERRIERE","7064181","2020-01-23 13:00","2020","01","23","13:00","0.9","","","M","","M","","","27","","15","","","","100.03","","","","","","NA"
"-71.13","48.31","LATERRIERE","7064181","2020-01-23 14:00","2020","01","23","14:00","0.7","","","M","","M","","","26","","16","","","","100.07","","","","","","NA"
"-71.13","48.31","LATERRIERE","7064181","2020-01-23 15:00","2020","01","23","15:00","0.4","","","M","","M","","","26","","12","","","","100.15","","","","","","NA"
"-71.13","48.31","LATERRIERE","7064181","2020-01-23 16:00","2020","01","23","16:00","-0.1","","","M","","M","","","28","","11","","","","100.23","","","","-4","","NA"
"-71.13","48.31","LATERRIERE","7064181","2020-01-23 17:00","2020","01","23","17:00","-0.3","","","M","","M","","","27","","9","","","","100.28","","","","-3","","NA"
"-71.13","48.31","LATERRIERE","7064181","2020-01-23 18:00","2020","01","23","18:00","-0.3","","","M","","M","","","29","","8","","","","100.40","","","","-3","","NA"
"-71.13","48.31","LATERRIERE","7064181","2020-01-23 19:00","2020","01","23","19:00","-0.6","","","M","","M","","","30","","14","","","","100.52","","","","-5","","NA"
"-71.13","48.31","LATERRIERE","7064181","2020-01-23 20:00","2020","01","23","20:00","-1.2","","","M","","M","","","29","","16","","","","100.60","","","","-6","","NA"
"-71.13","48.31","LATERRIERE","7064181","2020-01-23 21:00","2020","01","23","21:00","-1.9","","","M","","M","","","29","","12","","","","100.68","","","","-6","","NA"
"-71.13","48.31","LATERRIERE","7064181","2020-01-23 22:00","2020","01","23","22:00","-2.5","","","M","","M","","","28","","11","","","","100.76","","","","-7","","NA"
"-71.13","48.31","LATERRIERE","7064181","2020-01-23 23:00","2020","01","23","23:00","-4.3","","","M","","M","","","32","","17","","","","100.85","","","","-10","","NA"
"-71.13","48.31","LATERRIERE","7064181","2020-01-24 00:00","2020","01","24","00:00","-6.3","","","M","","M","","","30","","13","","","","100.93","","","","-12","","NA"
"-71.13","48.31","LATERRIERE","7064181","2020-01-24 01:00","2020","01","24","01:00","-7.9","","","M","","M","","","30","","13","","","","101.01","","","","-14","","NA"
"-71.13","48.31","LATERRIERE","7064181","2020-01-24 02:00","2020","01","24","02:00","-8.0","","","M","","M","","","30","","9","","","","101.09","","","","-13","","NA"
"-71.13","48.31","LATERRIERE","7064181","2020-01-24 03:00","2020","01","24","03:00","-8.6","","","M","","M","","","30","","10","","","","101.10","","","","-14","","NA"
"-71.13","48.31","LATERRIERE","7064181","2020-01-24 04:00","2020","01","24","04:00","-9.1","","","M","","M","","","30","","9","","","","101.15","","","","-14","","NA"
"-71.13","48.31","LATERRIERE","7064181","2020-01-24 05:00","2020","01","24","05:00","-9.2","","","M","","M","","","30","","7","","","","101.21","","","","-13","","NA"
"-71.13","48.31","LATERRIERE","7064181","2020-01-24 06:00","2020","01","24","06:00","-9.7","","","M","","M","","","29","","5","","","","101.30","","","","-13","","NA"
"-71.13","48.31","LATERRIERE","7064181","2020-01-24 07:00","2020","01","24","07:00","-9.8","","","M","","M","","","29","","4","","","","101.35","","","","-12","","NA"
"-71.13","48.31","LATERRIERE","7064181","2020-01-24 08:00","2020","01","24","08:00","-9.8","","","M","","M","","","31","","2","","","","101.41","","","","-11","","NA"
"-71.13","48.31","LATERRIERE","7064181","2020-01-24 09:00","2020","01","24","09:00","-9.4","","","M","","M","","","32","","5","","","","101.42","","","","-12","","NA"
"-71.13","48.31","LATERRIERE","7064181","2020-01-24 10:00","2020","01","24","10:00","-8.9","","","M","","M","","","29","","2","","","","101.48","","","","-10","","NA"
"-71.13","48.31","LATERRIERE","7064181","2020-01-24 11:00","2020","01","24","11:00","-8.2","","","M","","M","","","9","","3","","","","101.46","","","","-10","","NA"
"-71.13","48.31","LATERRIERE","7064181","2020-01-24 12:00","2020","01","24","12:00","-7.8","","","M","","M","","","5","","5","","","","101.37","","","","-10","","NA"
"-71.13","48.31","LATERRIERE","7064181","2020-01-24 13:00","2020","01","24","13:00","-7.5","","","M","","M","","","5","","7","","","","101.28","","","","-11","","NA"
"-71.13","48.31","LATERRIERE","7064181","2020-01-24 14:00","2020","01","24","14:00","-7.5","","","M","","M","","","5","","7","","","","101.21","","","","-11","","NA"
"-71.13","48.31","LATERRIERE","7064181","2020-01-24 15:00","2020","01","24","15:00","-7.1","","","M","","M","","","4","","5","","","","101.21","","","","-10","","NA"
"-71.13","48.31","LATERRIERE","7064181","2020-01-24 16:00","2020","01","24","16:00","-8.6","","","M","","M","","","7","","6","","","","101.17","","","","-12","","NA"
"-71.13","48.31","LATERRIERE","7064181","2020-01-24 17:00","2020","01","24","17:00","-12.8","","","M","","M","","","11","","3","","","","101.17","","","","-15","","NA"
"-71.13","48.31","LATERRIERE","7064181","2020-01-24 18:00","2020","01","24","18:00","-14.7","","","M","","M","","","23","","1","","","","101.11","","","","-15","","NA"
"-71.13","48.31","LATERRIERE","7064181","2020-01-24 19:00","2020","01","24","19:00","-15.9","","","M","","M","","","21","","4","","","","101.10","","","","-19","","NA"
"-71.13","48.31","LATERRIERE","7064181","2020-01-24 20:00","2020","01","24","20:00","-17.5","","","M","","M","","","18","","1","","","","101.10","","","","-18","","NA"
"-71.13","48.31","LATERRIERE","7064181","2020-01-24 21:00","2020","01","24","21:00","-16.1","","","M","","M","","","20","","5","","","","101.06","","","","-20","","NA"
"-71.13","48.31","LATERRIERE","7064181","2020-01-24 22:00","2020","01","24","22:00","-17.5","","","M","","M","","","","","0","","","","101.03","","","","","","NA"
"-71.13","48.31","LATERRIERE","7064181","2020-01-24 23:00","2020","01","24","23:00","-16.1","","","M","","M","","","24","","3","","","","100.99","","","","-18","","NA"
"-71.13","48.31","LATERRIERE","7064181","2020-01-25 00:00","2020","01","25","00:00","-15.1","","","M","","M","","","22","","5","","","","100.98","","","","-19","","NA"
"-71.13","48.31","LATERRIERE","7064181","2020-01-25 01:00","2020","01","25","01:00","-17.5","","","M","","M","","","0","","1","","","","100.93","","","","-18","","NA"
"-71.13","48.31","LATERRIERE","7064181","2020-01-25 02:00","2020","01","25","02:00","-15.7","","","M","","M","","","","","0","","","","100.92","","","","","","NA"
"-71.13","48.31","LATERRIERE","7064181","2020-01-25 03:00","2020","01","25","03:00","-14.5","","","M","","M","","","24","","3","","","","100.85","","","","-17","","NA"
"-71.13","48.31","LATERRIERE","7064181","2020-01-25 04:00","2020","01","25","04:00","-14.5","","","M","","M","","","0","","1","","","","100.80","","","","-15","","NA"
"-71.13","48.31","LATERRIERE","7064181","2020-01-25 05:00","2020","01","25","05:00","-15.8","","","M","","M","","","","","0","","","","100.76","","","","","","NA"
"-71.13","48.31","LATERRIERE","7064181","2020-01-25 06:00","2020","01","25","06:00","-15.6","","","M","","M","","","27","","2","","","","100.69","","","","-17","","NA"
"-71.13","48.31","LATERRIERE","7064181","2020-01-25 07:00","2020","01","25","07:00","-15.4","","","M","","M","","","24","","2","","","","100.65","","","","-17","","NA"
"-71.13","48.31","LATERRIERE","7064181","2020-01-25 08:00","2020","01","25","08:00","-14.6","","","M","","M","","","20","","3","","","","100.67","","","","-17","","NA"
"-71.13","48.31","LATERRIERE","7064181","2020-01-25 09:00","2020","01","25","09:00","-11.8","","","M","","M","","","27","","1","","","","100.60","","","","-12","","NA"
"-71.13","48.31","LATERRIERE","7064181","2020-01-25 10:00","2020","01","25","10:00","-7.7","","","M","","M","","","4","","4","","","","100.55","","","","-10","","NA"
"-71.13","48.31","LATERRIERE","7064181","2020-01-25 11:00","2020","01","25","11:00","-4.2","","","M","","M","","","7","","9","","","","100.42","","","","-8","","NA"
"-71.13","48.31","LATERRIERE","7064181","2020-01-25 12:00","2020","01","25","12:00","-4.3","","","M","","M","","","5","","15","","","","100.28","","","","-10","","NA"
"-71.13","48.31","LATERRIERE","7064181","2020-01-25 13:00","2020","01","25","13:00","-3.7","","","M","","M","","","6","","12","","","","100.22","","","","-8","","NA"
"-71.13","48.31","LATERRIERE","7064181","2020-01-25 14:00","2020","01","25","14:00","-3.9","","","M","","M","","","6","","10","","","","100.11","","","","-8","","NA"
"-71.13","48.31","LATERRIERE","7064181","2020-01-25 15:00","2020","01","25","15:00","-4.1","","","M","","M","","","7","","12","","","","100.07","","","","-9","","NA"
"-71.13","48.31","LATERRIERE","7064181","2020-01-25 16:00","2020","01","25","16:00","-4.8","","","M","","M","","","7","","11","","","","99.99","","","","-9","","NA"
"-71.13","48.31","LATERRIERE","7064181","2020-01-25 17:00","2020","01","25","17:00","-4.8","","","M","","M","","","6","","8","","","","99.91","","","","-8","","NA"
"-71.13","48.31","LATERRIERE","7064181","2020-01-25 18:00","2020","01","25","18:00","-5.3","","","M","","M","","","2","","5","","","","99.86","","","","-8","","NA"
"-71.13","48.31","LATERRIERE","7064181","2020-01-25 19:00","2020","01","25","19:00","-4.4","","","M","","M","","","8","","8","","","","99.83","","","","-8","","NA"
"-71.13","48.31","LATERRIERE","7064181","2020-01-25 20:00","2020","01","25","20:00","-4.3","","","M","","M","","","9","","10","","","","99.70","","","","-8","","NA"
"-71.13","48.31","LATERRIERE","7064181","2020-01-25 21:00","2020","01","25","21:00","-3.8","","","M","","M","","","10","","8","","","","99.66","","","","-7","","NA"
"-71.13","48.31","LATERRIERE","7064181","2020-01-25 22:00","2020","01","25","22:00","-4.1","","","M","","M","","","8","","5","","","","99.54","","","","-6","","NA"
"-71.13","48.31","LATERRIERE","7064181","2020-01-25 23:00","2020","01","25","23:00","-3.5","","","M","","M","","","10","","7","","","","99.47","","","","-6","","NA"
"-71.13","48.31","LATERRIERE","7064181","2020-01-26 00:00","2020","01","26","00:00","-3.1","","","M","","M","","","9","","12","","","","99.35","","","","-8","","NA"
"-71.13","48.31","LATERRIERE","7064181","2020-01-26 01:00","2020","01","26","01:00","-2.6","","","M","","M","","","9","","11","","","","99.25","","","","-7","","NA"
"-71.13","48.31","LATERRIERE","7064181","2020-01-26 02:00","2020","01","26","02:00","-2.0","","","M","","M","","","9","","17","","","","99.13","","","","-7","","NA"
"-71.13","48.31","LATERRIERE","7064181","2020-01-26 03:00","2020","01","26","03:00","-2.0","","","M","","M","","","8","","13","","","","98.93","","","","-6","","NA"
"-71.13","48.31","LATERRIERE","7064181","2020-01-26 04:00","2020","01","26","04:00","-1.8","","","M","","M","","","9","","10","","","","98.81","","","","-5","","NA"
"-71.13","48.31","LATERRIERE","7064181","2020-01-26 05:00","2020","01","26","05:00","-2.1","","","M","","M","","","9","","14","","","","98.66","","","","-7","","NA"
"-71.13","48.31","LATERRIERE","7064181","2020-01-26 06:00","2020","01","26","06:00","-2.3","","","M","","M","","","9","","15","","","","98.60","","","","-7","","NA"
"-71.13","48.31","LATERRIERE","7064181","2020-01-26 07:00","2020","01","26","07:00","-2.5","","","M","","M","","","9","","13","","","","98.56","","","","-7","","NA"
"-71.13","48.31","LATERRIERE","7064181","2020-01-26 08:00","2020","01","26","08:00","-2.5","","","M","","M","","","9","","13","","","","98.49","","","","-7","","NA"
"-71.13","48.31","LATERRIERE","7064181","2020-01-26 09:00","2020","01","26","09:00","-2.0","","","M","","M","","","8","","9","","","","98.45","","","","-5","","NA"
"-71.13","48.31","LATERRIERE","7064181","2020-01-26 10:00","2020","01","26","10:00","-1.3","","","M","","M","","","8","","13","","","","98.33","","","","-6","","NA"
"-71.13","48.31","LATERRIERE","7064181","2020-01-26 11:00","2020","01","26","11:00","-0.4","","","M","","M","","","6","","9","","","","98.28","","","","-4","","NA"
"-71.13","48.31","LATERRIERE","7064181","2020-01-26 12:00","2020","01","26","12:00","-0.4","","","M","","M","","","6","","10","","","","98.16","","","","-4","","NA"
"-71.13","48.31","LATERRIERE","7064181","2020-01-26 13:00","2020","01","26","13:00","-0.6","","","M","","M","","","6","","11","","","","98.11","","","","-4","","NA"
"-71.13","48.31","LATERRIERE","7064181","2020-01-26 14:00","2020","01","26","14:00","-0.3","","","M","","M","","","8","","9","","","","98.07","","","","-3","","NA"
"-71.13","48.31","LATERRIERE","7064181","2020-01-26 15:00","2020","01","26","15:00","-0.8","","","M","","M","","","8","","6","","","","98.05","","","","-3","","NA"
"-71.13","48.31","LATERRIERE","7064181","2020-01-26 16:00","2020","01","26","16:00","-1.1","","","M","","M","","","5","","6","","","","97.99","","","","-3","","NA"
"-71.13","48.31","LATERRIERE","7064181","2020-01-26 17:00","2020","01","26","17:00","-1.7","","","M","","M","","","5","","7","","","","97.95","","","","-4","","NA"
"-71.13","48.31","LATERRIERE","7064181","2020-01-26 18:00","2020","01","26","18:00","-1.7","","","M","","M","","","7","","5","","","","97.91","","","","-4","","NA"
"-71.13","48.31","LATERRIERE","7064181","2020-01-26 19:00","2020","01","26","19:00","-2.0","","","M","","M","","","3","","2","","","","97.91","","","","-3","","NA"
"-71.13","48.31","LATERRIERE","7064181","2020-01-26 20:00","2020","01","26","20:00","-2.2","","","M","","M","","","4","","6","","","","97.91","","","","-5","","NA"
"-71.13","48.31","LATERRIERE","7064181","2020-01-26 21:00","2020","01","26","21:00","-2.5","","","M","","M","","","4","","4","","","","97.83","","","","-4","","NA"
"-71.13","48.31","LATERRIERE","7064181","2020-01-26 22:00","2020","01","26","22:00","-2.6","","","M","","M","","","32","","2","","","","97.82","","","","-3","","NA"
"-71.13","48.31","LATERRIERE","7064181","2020-01-26 23:00","2020","01","26","23:00","-2.4","","","M","","M","","","30","","2","","","","97.79","","","","-3","","NA"
"-71.13","48.31","LATERRIERE","7064181","2020-01-27 00:00","2020","01","27","00:00","-2.3","","","M","","M","","","25","","2","","","","97.79","","","","-3","","NA"
"-71.13","48.31","LATERRIERE","7064181","2020-01-27 01:00","2020","01","27","01:00","-2.3","","","M","","M","","","23","","5","","","","97.75","","","","-4","","NA"
"-71.13","48.31","LATERRIERE","7064181","2020-01-27 02:00","2020","01","27","02:00","-2.0","","","M","","M","","","26","","8","","","","97.75","","","","-5","","NA"
"-71.13","48.31","LATERRIERE","7064181","2020-01-27 03:00","2020","01","27","03:00","-2.1","","","M","","M","","","27","","8","","","","97.71","","","","-5","","NA"
"-71.13","48.31","LATERRIERE","7064181","2020-01-27 04:00","2020","01","27","04:00","-2.2","","","M","","M","","","29","","8","","","","97.71","","","","-5","","NA"
"-71.13","48.31","LATERRIERE","7064181","2020-01-27 05:00","2020","01","27","05:00","-2.4","","","M","","M","","","29","","9","","","","97.72","","","","-6","","NA"
"-71.13","48.31","LATERRIERE","7064181","2020-01-27 06:00","2020","01","27","06:00","-2.6","","","M","","M","","","29","","11","","","","97.71","","","","-7","","NA"
"-71.13","48.31","LATERRIERE","7064181","2020-01-27 07:00","2020","01","27","07:00","-2.7","","","M","","M","","","29","","10","","","","97.78","","","","-7","","NA"
"-71.13","48.31","LATERRIERE","7064181","2020-01-27 08:00","2020","01","27","08:00","-2.8","","","M","","M","","","30","","11","","","","97.83","","","","-7","","NA"
"-71.13","48.31","LATERRIERE","7064181","2020-01-27 09:00","2020","01","27","09:00","-2.9","","","M","","M","","","31","","8","","","","97.88","","","","-6","","NA"
"-71.13","48.31","LATERRIERE","7064181","2020-01-27 10:00","2020","01","27","10:00","-2.6","","","M","","M","","","33","","9","","","","97.91","","","","-6","","NA"
"-71.13","48.31","LATERRIERE","7064181","2020-01-27 11:00","2020","01","27","11:00","-2.1","","","M","","M","","","32","","10","","","","97.94","","","","-6","","NA"
"-71.13","48.31","LATERRIERE","7064181","2020-01-27 12:00","2020","01","27","12:00","-1.5","","","M","","M","","","33","","10","","","","97.91","","","","-5","","NA"
"-71.13","48.31","LATERRIERE","7064181","2020-01-27 13:00","2020","01","27","13:00","-1.0","","","M","","M","","","30","","11","","","","97.93","","","","-5","","NA"
"-71.13","48.31","LATERRIERE","7064181","2020-01-27 14:00","2020","01","27","14:00","-0.6","","","M","","M","","","29","","9","","","","97.95","","","","-4","","NA"
"-71.13","48.31","LATERRIERE","7064181","2020-01-27 15:00","2020","01","27","15:00","-0.7","","","M","","M","","","31","","13","","","","97.99","","","","-5","","NA"
"-71.13","48.31","LATERRIERE","7064181","2020-01-27 16:00","2020","01","27","16:00","-1.2","","","M","","M","","","32","","11","","","","98.07","","","","-5","","NA"
"-71.13","48.31","LATERRIERE","7064181","2020-01-27 17:00","2020","01","27","17:00","-1.8","","","M","","M","","","32","","9","","","","98.15","","","","-5","","NA"
"-71.13","48.31","LATERRIERE","7064181","2020-01-27 18:00","2020","01","27","18:00","-2.2","","","M","","M","","","33","","12","","","","98.24","","","","-6","","NA"
"-71.13","48.31","LATERRIERE","7064181","2020-01-27 19:00","2020","01","27","19:00","-2.8","","","M","","M","","","33","","13","","","","98.31","","","","-7","","NA"
"-71.13","48.31","LATERRIERE","7064181","2020-01-27 20:00","2020","01","27","20:00","-3.3","","","M","","M","","","32","","11","","","","98.35","","","","-8","","NA"
"-71.13","48.31","LATERRIERE","7064181","2020-01-27 21:00","2020","01","27","21:00","-3.7","","","M","","M","","","33","","15","","","","98.40","","","","-9","","NA"
"-71.13","48.31","LATERRIERE","7064181","2020-01-27 22:00","2020","01","27","22:00","-4.3","","","M","","M","","","32","","10","","","","98.43","","","","-8","","NA"
"-71.13","48.31","LATERRIERE","7064181","2020-01-27 23:00","2020","01","27","23:00","-4.7","","","M","","M","","","33","","8","","","","98.45","","","","-8","","NA"
"-71.13","48.31","LATERRIERE","7064181","2020-01-28 00:00","2020","01","28","00:00","-5.2","","","M","","M","","","32","","11","","","","98.52","","","","-10","","NA"
"-71.13","48.31","LATERRIERE","7064181","2020-01-28 01:00","2020","01","28","01:00","-5.9","","","M","","M","","","32","","11","","","","98.56","","","","-11","","NA"
"-71.13","48.31","LATERRIERE","7064181","2020-01-28 02:00","2020","01","28","02:00","-6.5","","","M","","M","","","31","","15","","","","98.60","","","","-12","","NA"
"-71.13","48.31","LATERRIERE","7064181","2020-01-28 03:00","2020","01","28","03:00","-7.5","","","M","","M","","","31","","9","","","","98.64","","","","-12","","NA"
"-71.13","48.31","LATERRIERE","7064181","2020-01-28 04:00","2020","01","28","04:00","-8.7","","","M","","M","","","29","","10","","","","98.73","","","","-14","","NA"
"-71.13","48.31","LATERRIERE","7064181","2020-01-28 05:00","2020","01","28","05:00","-9.7","","","M","","M","","","26","","11","","","","98.77","","","","-15","","NA"
"-71.13","48.31","LATERRIERE","7064181","2020-01-28 06:00","2020","01","28","06:00","-12.0","","","M","","M","","","28","","10","","","","98.85","","","","-18","","NA"
"-71.13","48.31","LATERRIERE","7064181","2020-01-28 07:00","2020","01","28","07:00","-13.0","","","M","","M","","","26","","8","","","","98.93","","","","-18","","NA"
"-71.13","48.31","LATERRIERE","7064181","2020-01-28 08:00","2020","01","28","08:00","-13.8","","","M","","M","","","24","","7","","","","99.00","","","","-18","","NA"
"-71.13","48.31","LATERRIERE","7064181","2020-01-28 09:00","2020","01","28","09:00","-13.1","","","M","","M","","","25","","8","","","","99.09","","","","-18","","NA"
"-71.13","48.31","LATERRIERE","7064181","2020-01-28 10:00","2020","01","28","10:00","-12.3","","","M","","M","","","26","","10","","","","99.09","","","","-18","","NA"
"-71.13","48.31","LATERRIERE","7064181","2020-01-28 11:00","2020","01","28","11:00","-11.4","","","M","","M","","","29","","13","","","","99.12","","","","-18","","NA"
"-71.13","48.31","LATERRIERE","7064181","2020-01-28 12:00","2020","01","28","12:00","-10.1","","","M","","M","","","26","","12","","","","99.09","","","","-16","","NA"
"-71.13","48.31","LATERRIERE","7064181","2020-01-28 13:00","2020","01","28","13:00","-10.1","","","M","","M","","","28","","12","","","","99.09","","","","-16","","NA"
"-71.13","48.31","LATERRIERE","7064181","2020-01-28 14:00","2020","01","28","14:00","-10.1","","","M","","M","","","25","","11","","","","99.09","","","","-16","","NA"
"-71.13","48.31","LATERRIERE","7064181","2020-01-28 15:00","2020","01","28","15:00","-10.0","","","M","","M","","","26","","10","","","","99.13","","","","-15","","NA"
"-71.13","48.31","LATERRIERE","7064181","2020-01-28 16:00","2020","01","28","16:00","-10.8","","","M","","M","","","24","","8","","","","99.17","","","","-15","","NA"
"-71.13","48.31","LATERRIERE","7064181","2020-01-28 17:00","2020","01","28","17:00","-13.1","","","M","","M","","","22","","7","","","","99.20","","","","-18","","NA"
"-71.13","48.31","LATERRIERE","7064181","2020-01-28 18:00","2020","01","28","18:00","-14.2","","","M","","M","","","23","","5","","","","99.26","","","","-18","","NA"
"-71.13","48.31","LATERRIERE","7064181","2020-01-28 19:00","2020","01","28","19:00","-13.8","","","M","","M","","","23","","6","","","","99.28","","","","-18","","NA"
"-71.13","48.31","LATERRIERE","7064181","2020-01-28 20:00","2020","01","28","20:00","-15.4","","","M","","M","","","20","","5","","","","99.30","","","","-19","","NA"
"-71.13","48.31","LATERRIERE","7064181","2020-01-28 21:00","2020","01","28","21:00","-17.8","","","M","","M","","","20","","4","","","","99.31","","","","-21","","NA"
"-71.13","48.31","LATERRIERE","7064181","2020-01-28 22:00","2020","01","28","22:00","-20.8","","","M","","M","","","20","","2","","","","99.35","","","","-23","","NA"
"-71.13","48.31","LATERRIERE","7064181","2020-01-28 23:00","2020","01","28","23:00","-13.3","","","M","","M","","","24","","8","","","","99.38","","","","-18","","NA"
"-71.13","48.31","LATERRIERE","7064181","2020-01-29 00:00","2020","01","29","00:00","-12.4","","","M","","M","","","25","","10","","","","99.42","","","","-18","","NA"
"-71.13","48.31","LATERRIERE","7064181","2020-01-29 01:00","2020","01","29","01:00","-12.7","","","M","","M","","","26","","11","","","","99.46","","","","-19","","NA"
"-71.13","48.31","LATERRIERE","7064181","2020-01-29 02:00","2020","01","29","02:00","-13.4","","","M","","M","","","26","","15","","","","99.54","","","","-21","","NA"
"-71.13","48.31","LATERRIERE","7064181","2020-01-29 03:00","2020","01","29","03:00","-14.4","","","M","","M","","","26","","16","","","","99.61","","","","-22","","NA"
"-71.13","48.31","LATERRIERE","7064181","2020-01-29 04:00","2020","01","29","04:00","-15.4","","","M","","M","","","27","","17","","","","99.67","","","","-24","","NA"
"-71.13","48.31","LATERRIERE","7064181","2020-01-29 05:00","2020","01","29","05:00","-16.0","","","M","","M","","","27","","17","","","","99.75","","","","-25","","NA"
"-71.13","48.31","LATERRIERE","7064181","2020-01-29 06:00","2020","01","29","06:00","-16.6","","","M","","M","","","27","","15","","","","99.87","","","","-25","","NA"
"-71.13","48.31","LATERRIERE","7064181","2020-01-29 07:00","2020","01","29","07:00","-17.3","","","M","","M","","","26","","14","","","","99.97","","","","-25","","NA"
"-71.13","48.31","LATERRIERE","7064181","2020-01-29 08:00","2020","01","29","08:00","-17.4","","","M","","M","","","27","","16","","","","100.08","","","","-26","","NA"
"-71.13","48.31","LATERRIERE","7064181","2020-01-29 09:00","2020","01","29","09:00","-16.5","","","M","","M","","","28","","14","","","","100.16","","","","-24","","NA"
"-71.13","48.31","LATERRIERE","7064181","2020-01-29 10:00","2020","01","29","10:00","-15.5","","","M","","M","","","28","","14","","","","100.20","","","","-23","","NA"
"-71.13","48.31","LATERRIERE","7064181","2020-01-29 11:00","2020","01","29","11:00","-14.8","","","M","","M","","","27","","17","","","","100.22","","","","-23","","NA"
"-71.13","48.31","LATERRIERE","7064181","2020-01-29 12:00","2020","01","29","12:00","-14.1","","","M","","M","","","27","","13","","","","100.19","","","","-21","","NA"
"-71.13","48.31","LATERRIERE","7064181","2020-01-29 13:00","2020","01","29","13:00","-14.0","","","M","","M","","","28","","17","","","","100.19","","","","-22","","NA"
"-71.13","48.31","LATERRIERE","7064181","2020-01-29 14:00","2020","01","29","14:00","-14.1","","","M","","M","","","27","","20","","","","100.20","","","","-23","","NA"
"-71.13","48.31","LATERRIERE","7064181","2020-01-29 15:00","2020","01","29","15:00","-13.8","","","M","","M","","","26","","16","","","","100.28","","","","-22","","NA"
"-71.13","48.31","LATERRIERE","7064181","2020-01-29 16:00","2020","01","29","16:00"
"-71.13","48.31","LATERRIERE","7064181","2020-01-29 17:00","2020","01","29","17:00","-15.0","","","M","","M","","","24","","8","","","","100.31","","","","-20","","NA"
"-71.13","48.31","LATERRIERE","7064181","2020-01-29 18:00","2020","01","29","18:00","-15.7","","","M","","M","","","23","","7","","","","100.36","","","","-21","","NA"
"-71.13","48.31","LATERRIERE","7064181","2020-01-29 19:00","2020","01","29","19:00","-16.4","","","M","","M","","","24","","6","","","","100.40","","","","-21","","NA"
"-71.13","48.31","LATERRIERE","7064181","2020-01-29 20:00","2020","01","29","20:00","-17.3","","","M","","M","","","24","","3","","","","100.45","","","","-20","","NA"
"-71.13","48.31","LATERRIERE","7064181","2020-01-29 21:00","2020","01","29","21:00","-17.0","","","M","","M","","","21","","8","","","","100.49","","","","-23","","NA"
"-71.13","48.31","LATERRIERE","7064181","2020-01-29 22:00","2020","01","29","22:00","-16.7","","","M","","M","","","22","","5","","","","100.45","","","","-21","","NA"
"-71.13","48.31","LATERRIERE","7064181","2020-01-29 23:00","2020","01","29","23:00","-16.8","","","M","","M","","","21","","5","","","","100.48","","","","-21","","NA"
"-71.13","48.31","LATERRIERE","7064181","2020-01-30 00:00","2020","01","30","00:00","-16.5","","","M","","M","","","24","","10","","","","100.49","","","","-23","","NA"
"-71.13","48.31","LATERRIERE","7064181","2020-01-30 01:00","2020","01","30","01:00","-16.9","","","M","","M","","","25","","10","","","","100.49","","","","-24","","NA"
"-71.13","48.31","LATERRIERE","7064181","2020-01-30 02:00","2020","01","30","02:00","-17.3","","","M","","M","","","25","","9","","","","100.53","","","","-24","","NA"
"-71.13","48.31","LATERRIERE","7064181","2020-01-30 03:00","2020","01","30","03:00","-17.7","","","M","","M","","","24","","6","","","","100.53","","","","-22","","NA"
"-71.13","48.31","LATERRIERE","7064181","2020-01-30 04:00","2020","01","30","04:00","-17.9","","","M","","M","","","23","","5","","","","100.57","","","","-22","","NA"
"-71.13","48.31","LATERRIERE","7064181","2020-01-30 05:00","2020","01","30","05:00","-18.5","","","M","","M","","","24","","8","","","","100.61","","","","-24","","NA"
"-71.13","48.31","LATERRIERE","7064181","2020-01-30 06:00","2020","01","30","06:00","-23.0","","","M","","M","","","21","","4","","","","100.66","","","","-27","","NA"
"-71.13","48.31","LATERRIERE","7064181","2020-01-30 07:00","2020","01","30","07:00","-24.9","","","M","","M","","","","","0","","","","100.69","","","","","","NA"
"-71.13","48.31","LATERRIERE","7064181","2020-01-30 08:00","2020","01","30","08:00","-24.1","","","M","","M","","","","","0","","","","100.72","","","","","","NA"
"-71.13","48.31","LATERRIERE","7064181","2020-01-30 09:00","2020","01","30","09:00","-19.4","","","M","","M","","","","","0","","","","100.74","","","","","","NA"
"-71.13","48.31","LATERRIERE","7064181","2020-01-30 10:00","2020","01","30","10:00","-17.3","","","M","","M","","","5","","5","","","","100.77","","","","-21","","NA"
"-71.13","48.31","LATERRIERE","7064181","2020-01-30 11:00","2020","01","30","11:00","-15.5","","","M","","M","","","4","","7","","","","100.75","","","","-20","","NA"
"-71.13","48.31","LATERRIERE","7064181","2020-01-30 12:00","2020","01","30","12:00","-13.4","","","M","","M","","","5","","7","","","","100.67","","","","-18","","NA"
"-71.13","48.31","LATERRIERE","7064181","2020-01-30 13:00","2020","01","30","13:00","-12.2","","","M","","M","","","5","","8","","","","100.58","","","","-17","","NA"
"-71.13","48.31","LATERRIERE","7064181","2020-01-30 14:00","2020","01","30","14:00","-11.8","","","M","","M","","","5","","5","","","","100.51","","","","-15","","NA"
"-71.13","48.31","LATERRIERE","7064181","2020-01-30 15:00","2020","01","30","15:00","-10.9","","","M","","M","","","6","","3","","","","100.51","","","","-13","","NA"
"-71.13","48.31","LATERRIERE","7064181","2020-01-30 16:00","2020","01","30","16:00","-12.7","","","M","","M","","","5","","6","","","","100.48","","","","-17","","NA"
"-71.13","48.31","LATERRIERE","7064181","2020-01-30 17:00","2020","01","30","17:00","-15.5","","","M","","M","","","11","","3","","","","100.47","","","","-18","","NA"
"-71.13","48.31","LATERRIERE","7064181","2020-01-30 18:00","2020","01","30","18:00","-18.0","","","M","","M","","","24","","3","","","","100.49","","","","-20","","NA"
"-71.13","48.31","LATERRIERE","7064181","2020-01-30 19:00","2020","01","30","19:00","-19.6","","","M","","M","","","22","","4","","","","100.48","","","","-23","","NA"
"-71.13","48.31","LATERRIERE","7064181","2020-01-30 20:00","2020","01","30","20:00","-20.0","","","M","","M","","","0","","1","","","","100.45","","","","-21","","NA"
"-71.13","48.31","LATERRIERE","7064181","2020-01-30 21:00","2020","01","30","21:00","-22.1","","","M","","M","","","22","","4","","","","100.43","","","","-26","","NA"
"-71.13","48.31","LATERRIERE","7064181","2020-01-30 22:00","2020","01","30","22:00","-23.5","","","M","","M","","","23","","4","","","","100.41","","","","-27","","NA"
"-71.13","48.31","LATERRIERE","7064181","2020-01-30 23:00","2020","01","30","23:00","-24.6","","","M","","M","","","25","","3","","","","100.40","","","","-28","","NA"
"-71.13","48.31","LATERRIERE","7064181","2020-01-31 00:00","2020","01","31","00:00","-24.5","","","M","","M","","","","","0","","","","100.41","","","","","","NA"
"-71.13","48.31","LATERRIERE","7064181","2020-01-31 01:00","2020","01","31","01:00","-24.4","","","M","","M","","","21","","4","","","","100.40","","","","-28","","NA"
"-71.13","48.31","LATERRIERE","7064181","2020-01-31 02:00","2020","01","31","02:00","-25.4","","","M","","M","","","23","","3","","","","100.43","","","","-28","","NA"
"-71.13","48.31","LATERRIERE","7064181","2020-01-31 03:00","2020","01","31","03:00","-25.5","","","M","","M","","","22","","3","","","","100.41","","","","-29","","NA"
"-71.13","48.31","LATERRIERE","7064181","2020-01-31 04:00","2020","01","31","04:00","-25.5","","","M","","M","","","21","","5","","","","100.43","","","","-31","","NA"
"-71.13","48.31","LATERRIERE","7064181","2020-01-31 05:00","2020","01","31","05:00","-24.9","","","M","","M","","","23","","5","","","","100.45","","","","-30","","NA"
"-71.13","48.31","LATERRIERE","7064181","2020-01-31 06:00","2020","01","31","06:00","-26.4","","","M","","M","","","23","","4","","","","100.48","","","","-31","","NA"
"-71.13","48.31","LATERRIERE","7064181","2020-01-31 07:00","2020","01","31","07:00","-26.7","","","M","","M","","","24","","4","","","","100.52","","","","-31","","NA"
"-71.13","48.31","LATERRIERE","7064181","2020-01-31 08:00","2020","01","31","08:00","-24.8","","","M","","M","","","","","0","","","","100.53","","","","","","NA"
"-71.13","48.31","LATERRIERE","7064181","2020-01-31 09:00","2020","01","31","09:00","-19.3","","","M","","M","","","","","0","","","","100.55","","","","","","NA"
"-71.13","48.31","LATERRIERE","7064181","2020-01-31 10:00","2020","01","31","10:00","-17.2","","","M","","M","","","5","","4","","","","100.52","","","","-20","","NA"
"-71.13","48.31","LATERRIERE","7064181","2020-01-31 11:00","2020","01","31","11:00","-14.4","","","M","","M","","","5","","6","","","","100.52","","","","-19","","NA"
"-71.13","48.31","LATERRIERE","7064181","2020-01-31 12:00","2020","01","31","12:00","-12.2","","","M","","M","","","5","","6","","","","100.44","","","","-16","","NA"
"-71.13","48.31","LATERRIERE","7064181","2020-01-31 13:00","2020","01","31","13:00","-11.2","","","M","","M","","","6","","4","","","","100.39","","","","-14","","NA"
"-71.13","48.31","LATERRIERE","7064181","2020-01-31 14:00","2020","01","31","14:00","-9.9","","","M","","M","","","6","","3","","","","100.35","","","","-12","","NA"
"-71.13","48.31","LATERRIERE","7064181","2020-01-31 15:00","2020","01","31","15:00","-9.5","","","M","","M","","","11","","3","","","","100.35","","","","-11","","NA"
"-71.13","48.31","LATERRIERE","7064181","2020-01-31 16:00","2020","01","31","16:00","-9.0","","","M","","M","","","9","","2","","","","100.27","","","","-10","","NA"
"-71.13","48.31","LATERRIERE","7064181","2020-01-31 17:00","2020","01","31","17:00","-14.0","","","M","","M","","","20","","5","","","","100.24","","","","-17","","NA"
"-71.13","48.31","LATERRIERE","7064181","2020-01-31 18:00","2020","01","31","18:00","-16.5","","","M","","M","","","21","","3","","","","100.25","","","","-19","","NA"
"-71.13","48.31","LATERRIERE","7064181","2020-01-31 19:00","2020","01","31","19:00","-19.1","","","M","","M","","","23","","3","","","","100.20","","","","-22","","NA"
"-71.13","48.31","LATERRIERE","7064181","2020-01-31 20:00","2020","01","31","20:00","-20.3","","","M","","M","","","20","","1","","","","100.14","","","","-21","","NA"
"-71.13","48.31","LATERRIERE","7064181","2020-01-31 21:00","2020","01","31","21:00","-21.4","","","M","","M","","","29","","2","","","","100.12","","","","-23","","NA"
"-71.13","48.31","LATERRIERE","7064181","2020-01-31 22:00","2020","01","31","22:00","-19.7","","","M","","M","","","25","","4","","","","100.08","","","","-23","","NA"
"-71.13","48.31","LATERRIERE","7064181","2020-01-31 23:00","2020","01","31","23:00","-17.3","","","M","","M","","","23","","2","","","","100.03","","","","-19","","NA"
