"Longitude (x)","Latitude (y)","Station Name","Climate ID","Date/Time (LST)","Year","Month","Day","Time (LST)","Temp (°C)","Temp Flag","Dew Point Temp (°C)","Dew Point Temp Flag","Rel Hum (%)","Rel Hum Flag","Precip. Amount (mm)","Precip. Amount Flag","Wind Dir (10s deg)","Wind Dir Flag","Wind Spd (km/h)","Wind Spd Flag","Visibility (km)","Visibility Flag","Stn Press (kPa)","Stn Press Flag","Hmdx","Hmdx Flag","Wind Chill","Wind Chill Flag","Weather"
"-61.68","56.55","NAIN A","8502801","2020-12-01 00:00","2020","12","01","00:00"
"-61.68","56.55","NAIN A","8502801","2020-12-01 01:00","2020","12","01","01:00"
"-61.68","56.55","NAIN A","8502801","2020-12-01 02:00","2020","12","01","02:00"
"-61.68","56.55","NAIN A","8502801","2020-12-01 03:00","2020","12","01","03:00"
"-61.68","56.55","NAIN A","8502801","2020-12-01 04:00","2020","12","01","04:00"
"-61.68","56.55","NAIN A","8502801","2020-12-01 05:00","2020","12","01","05:00","-10.8","","-16.1","","66","","","","22","","14","","24.1","","102.89","","","","-17","","Cloudy"
"-61.68","56.55","NAIN A","8502801","2020-12-01 06:00","2020","12","01","06:00","-11.0","","-15.8","","68","","","","21","","13","","24.1","","102.90","","","","-17","","NA"
"-61.68","56.55","NAIN A","8502801","2020-12-01 07:00","2020","12","01","07:00","-10.4","","-15.0","","69","","","","22","","5","","24.1","","102.88","","","","-13","","NA"
"-61.68","56.55","NAIN A","8502801","2020-12-01 08:00","2020","12","01","08:00","-9.8","","-14.4","","69","","","","36","","3","","24.1","","102.86","","","","-12","","Cloudy"
"-61.68","56.55","NAIN A","8502801","2020-12-01 09:00","2020","12","01","09:00","-9.2","","-13.8","","69","","","","36","","2","","24.1","","102.84","","","","-10","","NA"
"-61.68","56.55","NAIN A","8502801","2020-12-01 10:00","2020","12","01","10:00","-9.1","","-11.9","","80","","","","6","","11","","4.8","","102.74","","","","-15","","Snow"
"-61.68","56.55","NAIN A","8502801","2020-12-01 11:00","2020","12","01","11:00","-8.7","","-10.1","","90","","","","8","","12","","4.8","","102.68","","","","-14","","Snow"
"-61.68","56.55","NAIN A","8502801","2020-12-01 12:00","2020","12","01","12:00","-7.7","","-8.8","","92","","","","6","","18","","1.2","","102.53","","","","-15","","Snow"
"-61.68","56.55","NAIN A","8502801","2020-12-01 13:00","2020","12","01","13:00","-6.5","","-7.3","","94","","","","6","","18","","2.0","","102.45","","","","-13","","Snow"
"-61.68","56.55","NAIN A","8502801","2020-12-01 14:00","2020","12","01","14:00","-6.5","","-7.2","","95","","","","2","","23","","0.8","","102.38","","","","-14","","Moderate Snow"
"-61.68","56.55","NAIN A","8502801","2020-12-01 15:00","2020","12","01","15:00","-5.8","","-6.3","","96","","","","3","","25","","1.2","","102.29","","","","-13","","Snow"
"-61.68","56.55","NAIN A","8502801","2020-12-01 16:00","2020","12","01","16:00","-3.8","","-4.3","","96","","","","5","","30","","17.7","","102.17","","","","-11","","Snow"
"-61.68","56.55","NAIN A","8502801","2020-12-01 17:00","2020","12","01","17:00","-3.5","","-4.1","","96","","","","4","","31","","4.8","","102.13","","","","-11","","Snow"
"-61.68","56.55","NAIN A","8502801","2020-12-01 18:00","2020","12","01","18:00","-3.2","","-3.9","","95","","","","2","","33","","8.1","","102.11","","","","-11","","Snow"
"-61.68","56.55","NAIN A","8502801","2020-12-01 19:00","2020","12","01","19:00","-2.8","","-3.4","","96","","","","2","","36","","6.4","","102.07","","","","-11","","Snow"
"-61.68","56.55","NAIN A","8502801","2020-12-01 20:00","2020","12","01","20:00","-2.4","","-2.7","","98","","","","1","","33","","3.2","","102.06","","","","-10","","Snow"
"-61.68","56.55","NAIN A","8502801","2020-12-01 21:00","2020","12","01","21:00"
"-61.68","56.55","NAIN A","8502801","2020-12-01 22:00","2020","12","01","22:00"
"-61.68","56.55","NAIN A","8502801","2020-12-01 23:00","2020","12","01","23:00"
"-61.68","56.55","NAIN A","8502801","2020-12-02 00:00","2020","12","02","00:00"
"-61.68","56.55","NAIN A","8502801","2020-12-02 01:00","2020","12","02","01:00"
"-61.68","56.55","NAIN A","8502801","2020-12-02 02:00","2020","12","02","02:00"
"-61.68","56.55","NAIN A","8502801","2020-12-02 03:00","2020","12","02","03:00"
"-61.68","56.55","NAIN A","8502801","2020-12-02 04:00","2020","12","02","04:00"
"-61.68","56.55","NAIN A","8502801","2020-12-02 05:00","2020","12","02","05:00","-1.3","","-2.2","","93","","","","3","","35","","24.1","","102.54","","","","-9","","Cloudy"
"-61.68","56.55","NAIN A","8502801","2020-12-02 06:00","2020","12","02","06:00","-1.2","","-1.9","","96","","","","3","","30","","24.1","","102.65","","","","-8","","Snow Showers"
"-61.68","56.55","NAIN A","8502801","2020-12-02 07:00","2020","12","02","07:00","-0.9","","-1.6","","96","","","","5","","25","","24.1","","102.66","","","","-7","","NA"
"-61.68","56.55","NAIN A","8502801","2020-12-02 08:00","2020","12","02","08:00","-0.8","","-1.6","","95","","","","6","","20","","24.1","","102.74","","","","-6","","Cloudy"
"-61.68","56.55","NAIN A","8502801","2020-12-02 09:00","2020","12","02","09:00","-0.7","","-1.6","","93","","","","6","","25","","24.1","","102.80","","","","-7","","NA"
"-61.68","56.55","NAIN A","8502801","2020-12-02 10:00","2020","12","02","10:00","-0.6","","-1.5","","93","","","","6","","26","","24.1","","102.76","","","","-7","","Snow Showers"
"-61.68","56.55","NAIN A","8502801","2020-12-02 11:00","2020","12","02","11:00","-0.4","","-1.4","","93","","","","7","","28","","24.1","","102.72","","","","-7","","Snow Showers"
"-61.68","56.55","NAIN A","8502801","2020-12-02 12:00","2020","12","02","12:00","-0.3","","-1.3","","93","","","","6","","35","","24.1","","102.72","","","","-7","","NA"
"-61.68","56.55","NAIN A","8502801","2020-12-02 13:00","2020","12","02","13:00","-0.3","","-1.1","","95","","","","7","","32","","24.1","","102.64","","","","-7","","NA"
"-61.68","56.55","NAIN A","8502801","2020-12-02 14:00","2020","12","02","14:00","-0.4","","-1.1","","95","","","","8","","28","","24.1","","102.60","","","","-7","","Cloudy"
"-61.68","56.55","NAIN A","8502801","2020-12-02 15:00","2020","12","02","15:00","-0.4","","-1.1","","95","","","","8","","27","","4.8","","102.51","","","","-7","","Snow"
"-61.68","56.55","NAIN A","8502801","2020-12-02 16:00","2020","12","02","16:00","-0.8","","-0.8","","100","","","","8","","30","","1.6","","102.47","","","","-8","","Snow"
"-61.68","56.55","NAIN A","8502801","2020-12-02 17:00","2020","12","02","17:00","-0.6","","-0.6","","100","","","","8","","34","","1.2","","102.39","","","","-8","","Snow"
"-61.68","56.55","NAIN A","8502801","2020-12-02 18:00","2020","12","02","18:00","-0.6","","-0.6","","100","","","","8","","35","","1.2","","102.28","","","","-8","","Snow"
"-61.68","56.55","NAIN A","8502801","2020-12-02 19:00","2020","12","02","19:00","-0.5","","-0.5","","100","","","","7","","39","","1.2","","102.20","","","","-8","","Snow"
"-61.68","56.55","NAIN A","8502801","2020-12-02 20:00","2020","12","02","20:00","-0.4","","-0.4","","100","","","","8","","32","","1.6","","102.05","","","","-7","","Snow"
"-61.68","56.55","NAIN A","8502801","2020-12-02 21:00","2020","12","02","21:00"
"-61.68","56.55","NAIN A","8502801","2020-12-02 22:00","2020","12","02","22:00"
"-61.68","56.55","NAIN A","8502801","2020-12-02 23:00","2020","12","02","23:00"
"-61.68","56.55","NAIN A","8502801","2020-12-03 00:00","2020","12","03","00:00"
"-61.68","56.55","NAIN A","8502801","2020-12-03 01:00","2020","12","03","01:00"
"-61.68","56.55","NAIN A","8502801","2020-12-03 02:00","2020","12","03","02:00"
"-61.68","56.55","NAIN A","8502801","2020-12-03 03:00","2020","12","03","03:00"
"-61.68","56.55","NAIN A","8502801","2020-12-03 04:00","2020","12","03","04:00"
"-61.68","56.55","NAIN A","8502801","2020-12-03 05:00","2020","12","03","05:00","0.4","","0.4","","100","","","","9","","21","","4.8","","100.24","","","","","","Rain,Fog"
"-61.68","56.55","NAIN A","8502801","2020-12-03 06:00","2020","12","03","06:00","0.1","","0.1","","100","","","","9","","21","","4.8","","100.06","","","","","","Rain,Fog"
"-61.68","56.55","NAIN A","8502801","2020-12-03 07:00","2020","12","03","07:00","0.2","","0.2","","100","","","","9","","14","","4.8","","99.88","","","","","","Rain,Fog"
"-61.68","56.55","NAIN A","8502801","2020-12-03 08:00","2020","12","03","08:00","0.1","","0.1","","100","","","","13","","11","","8.1","","99.80","","","","","","Fog"
"-61.68","56.55","NAIN A","8502801","2020-12-03 09:00","2020","12","03","09:00","-0.2","","-0.2","","100","","","","18","","3","","1.6","","99.76","","","","-1","","Fog"
"-61.68","56.55","NAIN A","8502801","2020-12-03 10:00","2020","12","03","10:00","-0.1","","-0.1","","100","","","","19","","5","","1.6","","99.62","","","","-2","","Fog"
"-61.68","56.55","NAIN A","8502801","2020-12-03 11:00","2020","12","03","11:00","-0.2","","-0.2","","100","","","","19","","14","","9.7","","99.57","","","","-4","","Fog"
"-61.68","56.55","NAIN A","8502801","2020-12-03 12:00","2020","12","03","12:00","0.0","","0.0","","100","","","","19","","9","","24.1","","99.49","","","","-3","","NA"
"-61.68","56.55","NAIN A","8502801","2020-12-03 13:00","2020","12","03","13:00","0.4","","0.4","","100","","","","19","","7","","24.1","","99.44","","","","","","NA"
"-61.68","56.55","NAIN A","8502801","2020-12-03 14:00","2020","12","03","14:00","0.8","","0.3","","96","","","","21","","6","","24.1","","99.40","","","","","","Rain Showers"
"-61.68","56.55","NAIN A","8502801","2020-12-03 15:00","2020","12","03","15:00","1.3","","0.8","","96","","","","21","","4","","24.1","","99.38","","","","","","Rain Showers"
"-61.68","56.55","NAIN A","8502801","2020-12-03 16:00","2020","12","03","16:00","1.1","","0.9","","99","","","","9","","7","","24.1","","99.37","","","","","","Rain Showers"
"-61.68","56.55","NAIN A","8502801","2020-12-03 17:00","2020","12","03","17:00","1.7","","1.6","","99","","","","22","","9","","24.1","","99.36","","","","","","Rain"
"-61.68","56.55","NAIN A","8502801","2020-12-03 18:00","2020","12","03","18:00","2.1","","1.6","","97","","","","36","","2","","24.1","","99.41","","","","","","Rain"
"-61.68","56.55","NAIN A","8502801","2020-12-03 19:00","2020","12","03","19:00","2.0","","1.3","","95","","","","26","","3","","24.1","","99.45","","","","","","NA"
"-61.68","56.55","NAIN A","8502801","2020-12-03 20:00","2020","12","03","20:00","2.7","","0.4","","85","","","","24","","13","","24.1","","99.54","","","","","","Mostly Cloudy"
"-61.68","56.55","NAIN A","8502801","2020-12-03 21:00","2020","12","03","21:00"
"-61.68","56.55","NAIN A","8502801","2020-12-03 22:00","2020","12","03","22:00"
"-61.68","56.55","NAIN A","8502801","2020-12-03 23:00","2020","12","03","23:00"
"-61.68","56.55","NAIN A","8502801","2020-12-04 00:00","2020","12","04","00:00"
"-61.68","56.55","NAIN A","8502801","2020-12-04 01:00","2020","12","04","01:00"
"-61.68","56.55","NAIN A","8502801","2020-12-04 02:00","2020","12","04","02:00"
"-61.68","56.55","NAIN A","8502801","2020-12-04 03:00","2020","12","04","03:00"
"-61.68","56.55","NAIN A","8502801","2020-12-04 04:00","2020","12","04","04:00"
"-61.68","56.55","NAIN A","8502801","2020-12-04 05:00","2020","12","04","05:00","-4.0","","-9.4","","67","","","","28","","31","","24.1","","100.24","","","","-12","","Mostly Cloudy"
"-61.68","56.55","NAIN A","8502801","2020-12-04 06:00","2020","12","04","06:00","-4.7","","-10.1","","66","","","","26","","35","","24.1","","100.26","","","","-13","","NA"
"-61.68","56.55","NAIN A","8502801","2020-12-04 07:00","2020","12","04","07:00","-5.4","","-10.3","","69","","","","25","","4","","24.1","","100.30","","","","-7","","NA"
"-61.68","56.55","NAIN A","8502801","2020-12-04 08:00","2020","12","04","08:00","-5.7","","-10.5","","69","","","","26","","20","","24.1","","100.34","","","","-12","","Mainly Clear"
"-61.68","56.55","NAIN A","8502801","2020-12-04 09:00","2020","12","04","09:00","-6.0","","-10.4","","71","","","","36","","1","","24.1","","100.40","","","","-6","","NA"
"-61.68","56.55","NAIN A","8502801","2020-12-04 10:00","2020","12","04","10:00","-5.3","","-9.7","","72","","","","24","","11","","24.1","","100.45","","","","-10","","NA"
"-61.68","56.55","NAIN A","8502801","2020-12-04 11:00","2020","12","04","11:00","-5.3","","-9.9","","70","","","","20","","13","","24.1","","100.40","","","","-10","","Mostly Cloudy"
"-61.68","56.55","NAIN A","8502801","2020-12-04 12:00","2020","12","04","12:00","-4.4","","-9.4","","68","","","","24","","9","","24.1","","100.37","","","","-8","","Snow Showers"
"-61.68","56.55","NAIN A","8502801","2020-12-04 13:00","2020","12","04","13:00","-3.7","","-8.1","","72","","","","24","","6","","24.1","","100.35","","","","-6","","Snow Showers"
"-61.68","56.55","NAIN A","8502801","2020-12-04 14:00","2020","12","04","14:00","-3.5","","-7.9","","72","","","","24","","4","","24.1","","100.36","","","","-5","","Cloudy"
"-61.68","56.55","NAIN A","8502801","2020-12-04 15:00","2020","12","04","15:00","-4.0","","-8.0","","74","","","","27","","20","","24.1","","100.39","","","","-10","","NA"
"-61.68","56.55","NAIN A","8502801","2020-12-04 16:00","2020","12","04","16:00","-4.2","","-9.5","","67","","","","26","","10","","24.1","","100.42","","","","-8","","NA"
"-61.68","56.55","NAIN A","8502801","2020-12-04 17:00","2020","12","04","17:00","-4.2","","-10.0","","64","","","","27","","9","","24.1","","100.46","","","","-8","","Mostly Cloudy"
"-61.68","56.55","NAIN A","8502801","2020-12-04 18:00","2020","12","04","18:00","-4.0","","-9.2","","67","","","","27","","14","","24.1","","100.47","","","","-9","","NA"
"-61.68","56.55","NAIN A","8502801","2020-12-04 19:00","2020","12","04","19:00","-4.3","","-9.0","","70","","","","28","","8","","24.1","","100.46","","","","-8","","NA"
"-61.68","56.55","NAIN A","8502801","2020-12-04 20:00","2020","12","04","20:00","-4.3","","-9.0","","70","","","","25","","11","","24.1","","100.46","","","","-9","","Mainly Clear"
"-61.68","56.55","NAIN A","8502801","2020-12-04 21:00","2020","12","04","21:00"
"-61.68","56.55","NAIN A","8502801","2020-12-04 22:00","2020","12","04","22:00"
"-61.68","56.55","NAIN A","8502801","2020-12-04 23:00","2020","12","04","23:00"
"-61.68","56.55","NAIN A","8502801","2020-12-05 00:00","2020","12","05","00:00"
"-61.68","56.55","NAIN A","8502801","2020-12-05 01:00","2020","12","05","01:00"
"-61.68","56.55","NAIN A","8502801","2020-12-05 02:00","2020","12","05","02:00"
"-61.68","56.55","NAIN A","8502801","2020-12-05 03:00","2020","12","05","03:00"
"-61.68","56.55","NAIN A","8502801","2020-12-05 04:00","2020","12","05","04:00"
"-61.68","56.55","NAIN A","8502801","2020-12-05 05:00","2020","12","05","05:00","-6.5","","-10.2","","75","","","","26","","5","","24.1","","100.40","","","","-9","","Mostly Cloudy"
"-61.68","56.55","NAIN A","8502801","2020-12-05 06:00","2020","12","05","06:00","-6.7","","-10.3","","75","","","","25","","12","","24.1","","100.37","","","","-12","","NA"
"-61.68","56.55","NAIN A","8502801","2020-12-05 07:00","2020","12","05","07:00","-7.6","","-11.5","","74","","","","24","","13","","24.1","","100.42","","","","-13","","NA"
"-61.68","56.55","NAIN A","8502801","2020-12-05 08:00","2020","12","05","08:00","-8.6","","-12.3","","75","","","","24","","31","","24.1","","100.38","","","","-18","","Mainly Clear"
"-61.68","56.55","NAIN A","8502801","2020-12-05 09:00","2020","12","05","09:00","-8.1","","-12.4","","72","","","","22","","22","","24.1","","100.41","","","","-16","","NA"
"-61.68","56.55","NAIN A","8502801","2020-12-05 10:00","2020","12","05","10:00","-7.6","","-12.0","","71","","","","23","","24","","24.1","","100.43","","","","-16","","NA"
"-61.68","56.55","NAIN A","8502801","2020-12-05 11:00","2020","12","05","11:00","-7.3","","-11.6","","72","","","","24","","13","","24.1","","100.47","","","","-13","","Mostly Cloudy"
"-61.68","56.55","NAIN A","8502801","2020-12-05 12:00","2020","12","05","12:00","-6.5","","-11.3","","69","","","","22","","14","","24.1","","100.48","","","","-12","","NA"
"-61.68","56.55","NAIN A","8502801","2020-12-05 13:00","2020","12","05","13:00","-6.1","","-10.7","","70","","","","25","","26","","24.1","","100.49","","","","-14","","NA"
"-61.68","56.55","NAIN A","8502801","2020-12-05 14:00","2020","12","05","14:00","-6.5","","-9.3","","80","","","","21","","13","","24.1","","100.56","","","","-12","","Snow Showers"
"-61.68","56.55","NAIN A","8502801","2020-12-05 15:00","2020","12","05","15:00","-6.2","","-10.3","","73","","","","27","","26","","24.1","","100.60","","","","-14","","NA"
"-61.68","56.55","NAIN A","8502801","2020-12-05 16:00","2020","12","05","16:00","-6.5","","-10.6","","73","","","","22","","14","","24.1","","100.65","","","","-12","","NA"
"-61.68","56.55","NAIN A","8502801","2020-12-05 17:00","2020","12","05","17:00","-5.9","","-10.4","","70","","","","26","","17","","24.1","","100.71","","","","-12","","Mainly Clear"
"-61.68","56.55","NAIN A","8502801","2020-12-05 18:00","2020","12","05","18:00","-4.8","","-9.7","","69","","","","28","","21","","24.1","","100.74","","","","-11","","NA"
"-61.68","56.55","NAIN A","8502801","2020-12-05 19:00","2020","12","05","19:00","-5.2","","-10.5","","67","","","","28","","28","","24.1","","100.78","","","","-13","","NA"
"-61.68","56.55","NAIN A","8502801","2020-12-05 20:00","2020","12","05","20:00","-5.3","","-10.6","","66","","","","27","","35","","24.1","","100.84","","","","-14","","Mainly Clear"
"-61.68","56.55","NAIN A","8502801","2020-12-05 21:00","2020","12","05","21:00"
"-61.68","56.55","NAIN A","8502801","2020-12-05 22:00","2020","12","05","22:00"
"-61.68","56.55","NAIN A","8502801","2020-12-05 23:00","2020","12","05","23:00"
"-61.68","56.55","NAIN A","8502801","2020-12-06 00:00","2020","12","06","00:00"
"-61.68","56.55","NAIN A","8502801","2020-12-06 01:00","2020","12","06","01:00"
"-61.68","56.55","NAIN A","8502801","2020-12-06 02:00","2020","12","06","02:00"
"-61.68","56.55","NAIN A","8502801","2020-12-06 03:00","2020","12","06","03:00"
"-61.68","56.55","NAIN A","8502801","2020-12-06 04:00","2020","12","06","04:00"
"-61.68","56.55","NAIN A","8502801","2020-12-06 05:00","2020","12","06","05:00","-7.1","","-12.0","","68","","","","28","","29","","24.1","","101.31","","","","-16","","Clear"
"-61.68","56.55","NAIN A","8502801","2020-12-06 06:00","2020","12","06","06:00","-7.1","","-12.1","","68","","","","29","","21","","24.1","","101.39","","","","-14","","NA"
"-61.68","56.55","NAIN A","8502801","2020-12-06 07:00","2020","12","06","07:00","-7.0","","-11.7","","69","","","","29","","20","","24.1","","101.44","","","","-14","","NA"
"-61.68","56.55","NAIN A","8502801","2020-12-06 08:00","2020","12","06","08:00","-6.9","","-11.9","","68","","","","28","","21","","24.1","","101.44","","","","-14","","Clear"
"-61.68","56.55","NAIN A","8502801","2020-12-06 09:00","2020","12","06","09:00","-6.9","","-11.4","","71","","","","28","","25","","24.1","","101.46","","","","-15","","NA"
"-61.68","56.55","NAIN A","8502801","2020-12-06 10:00","2020","12","06","10:00","-6.8","","-11.8","","68","","","","30","","15","","24.1","","101.51","","","","-13","","NA"
"-61.68","56.55","NAIN A","8502801","2020-12-06 11:00","2020","12","06","11:00","-7.3","","-12.2","","68","","","","28","","12","","24.1","","101.53","","","","-13","","Clear"
"-61.68","56.55","NAIN A","8502801","2020-12-06 12:00","2020","12","06","12:00","-6.8","","-12.1","","66","","","","27","","9","","24.1","","101.53","","","","-11","","NA"
"-61.68","56.55","NAIN A","8502801","2020-12-06 13:00","2020","12","06","13:00","-7.0","","-12.2","","66","","","","28","","17","","24.1","","101.48","","","","-13","","NA"
"-61.68","56.55","NAIN A","8502801","2020-12-06 14:00","2020","12","06","14:00","-6.8","","-11.8","","68","","","","28","","11","","24.1","","101.46","","","","-12","","Mostly Cloudy"
"-61.68","56.55","NAIN A","8502801","2020-12-06 15:00","2020","12","06","15:00","-7.2","","-12.0","","69","","","","28","","11","","24.1","","101.52","","","","-12","","NA"
"-61.68","56.55","NAIN A","8502801","2020-12-06 16:00","2020","12","06","16:00","-7.2","","-11.2","","73","","","","30","","14","","24.1","","101.53","","","","-13","","NA"
"-61.68","56.55","NAIN A","8502801","2020-12-06 17:00","2020","12","06","17:00","-7.4","","-11.7","","72","","","","28","","9","","24.1","","101.61","","","","-12","","Mostly Cloudy"
"-61.68","56.55","NAIN A","8502801","2020-12-06 18:00","2020","12","06","18:00","-7.8","","-11.6","","74","","","","29","","5","","24.1","","101.62","","","","-10","","NA"
"-61.68","56.55","NAIN A","8502801","2020-12-06 19:00","2020","12","06","19:00","-7.7","","-11.6","","74","","","","28","","16","","24.1","","101.64","","","","-14","","NA"
"-61.68","56.55","NAIN A","8502801","2020-12-06 20:00","2020","12","06","20:00","-7.8","","-11.3","","76","","","","27","","19","","24.1","","101.65","","","","-15","","Clear"
"-61.68","56.55","NAIN A","8502801","2020-12-06 21:00","2020","12","06","21:00"
"-61.68","56.55","NAIN A","8502801","2020-12-06 22:00","2020","12","06","22:00"
"-61.68","56.55","NAIN A","8502801","2020-12-06 23:00","2020","12","06","23:00"
"-61.68","56.55","NAIN A","8502801","2020-12-07 00:00","2020","12","07","00:00"
"-61.68","56.55","NAIN A","8502801","2020-12-07 01:00","2020","12","07","01:00"
"-61.68","56.55","NAIN A","8502801","2020-12-07 02:00","2020","12","07","02:00"
"-61.68","56.55","NAIN A","8502801","2020-12-07 03:00","2020","12","07","03:00"
"-61.68","56.55","NAIN A","8502801","2020-12-07 04:00","2020","12","07","04:00"
"-61.68","56.55","NAIN A","8502801","2020-12-07 05:00","2020","12","07","05:00","-7.4","","-7.8","","96","","","","31","","24","","4.8","","101.54","","","","-15","","Freezing Drizzle,Fog"
"-61.68","56.55","NAIN A","8502801","2020-12-07 06:00","2020","12","07","06:00","-6.7","","-8.1","","90","","","","31","","27","","4.8","","101.53","","","","-15","","Freezing Drizzle,Fog"
"-61.68","56.55","NAIN A","8502801","2020-12-07 07:00","2020","12","07","07:00","-6.1","","-7.4","","90","","","","29","","25","","24.1","","101.53","","","","-14","","NA"
"-61.68","56.55","NAIN A","8502801","2020-12-07 08:00","2020","12","07","08:00","-5.6","","-6.8","","91","","","","32","","31","","24.1","","101.50","","","","-14","","Cloudy"
"-61.68","56.55","NAIN A","8502801","2020-12-07 09:00","2020","12","07","09:00","-5.5","","-6.7","","91","","","","33","","27","","16.1","","101.48","","","","-13","","Snow"
"-61.68","56.55","NAIN A","8502801","2020-12-07 10:00","2020","12","07","10:00","-5.2","","-6.7","","89","","","","32","","25","","24.1","","101.44","","","","-13","","Snow Showers"
"-61.68","56.55","NAIN A","8502801","2020-12-07 11:00","2020","12","07","11:00","-5.0","","-6.9","","87","","","","32","","31","","24.1","","101.41","","","","-13","","Snow Showers"
"-61.68","56.55","NAIN A","8502801","2020-12-07 12:00","2020","12","07","12:00","-5.1","","-7.2","","85","","","","32","","28","","24.1","","101.35","","","","-13","","Snow Showers"
"-61.68","56.55","NAIN A","8502801","2020-12-07 13:00","2020","12","07","13:00","-3.9","","-7.5","","77","","","","1","","27","","24.1","","101.35","","","","-11","","NA"
"-61.68","56.55","NAIN A","8502801","2020-12-07 14:00","2020","12","07","14:00","-4.1","","-7.2","","79","","","","36","","24","","24.1","","101.31","","","","-11","","Snow Showers"
"-61.68","56.55","NAIN A","8502801","2020-12-07 15:00","2020","12","07","15:00","-4.8","","-7.4","","82","","","","32","","23","","24.1","","101.32","","","","-12","","Snow Showers"
"-61.68","56.55","NAIN A","8502801","2020-12-07 16:00","2020","12","07","16:00","-4.9","","-7.8","","80","","","","32","","27","","24.1","","101.33","","","","-12","","Snow Showers"
"-61.68","56.55","NAIN A","8502801","2020-12-07 17:00","2020","12","07","17:00","-5.0","","-7.5","","83","","","","33","","35","","24.1","","101.32","","","","-14","","Snow Showers"
"-61.68","56.55","NAIN A","8502801","2020-12-07 18:00","2020","12","07","18:00","-5.2","","-7.4","","85","","","","33","","30","","6.4","","101.31","","","","-13","","Snow"
"-61.68","56.55","NAIN A","8502801","2020-12-07 19:00","2020","12","07","19:00","-5.2","","-7.6","","83","","","","33","","33","","24.1","","101.31","","","","-14","","Snow Showers"
"-61.68","56.55","NAIN A","8502801","2020-12-07 20:00","2020","12","07","20:00","-4.9","","-7.4","","83","","","","33","","34","","20.9","","101.27","","","","-13","","Snow Showers"
"-61.68","56.55","NAIN A","8502801","2020-12-07 21:00","2020","12","07","21:00"
"-61.68","56.55","NAIN A","8502801","2020-12-07 22:00","2020","12","07","22:00"
"-61.68","56.55","NAIN A","8502801","2020-12-07 23:00","2020","12","07","23:00"
"-61.68","56.55","NAIN A","8502801","2020-12-08 00:00","2020","12","08","00:00"
"-61.68","56.55","NAIN A","8502801","2020-12-08 01:00","2020","12","08","01:00"
"-61.68","56.55","NAIN A","8502801","2020-12-08 02:00","2020","12","08","02:00"
"-61.68","56.55","NAIN A","8502801","2020-12-08 03:00","2020","12","08","03:00"
"-61.68","56.55","NAIN A","8502801","2020-12-08 04:00","2020","12","08","04:00"
"-61.68","56.55","NAIN A","8502801","2020-12-08 05:00","2020","12","08","05:00","-5.0","","-8.5","","77","","","","32","","30","","24.1","","101.12","","","","-13","","Cloudy"
"-61.68","56.55","NAIN A","8502801","2020-12-08 06:00","2020","12","08","06:00","-4.8","","-8.6","","75","","","","32","","26","","24.1","","101.12","","","","-12","","Snow Showers"
"-61.68","56.55","NAIN A","8502801","2020-12-08 07:00","2020","12","08","07:00","-5.0","","-7.8","","81","","","","32","","32","","24.1","","101.15","","","","-13","","Snow Showers"
"-61.68","56.55","NAIN A","8502801","2020-12-08 08:00","2020","12","08","08:00","-4.9","","-7.8","","80","","","","32","","27","","24.1","","101.20","","","","-12","","Snow Showers"
"-61.68","56.55","NAIN A","8502801","2020-12-08 09:00","2020","12","08","09:00","-4.7","","-8.1","","77","","","","32","","26","","24.1","","101.19","","","","-12","","Snow Showers"
"-61.68","56.55","NAIN A","8502801","2020-12-08 10:00","2020","12","08","10:00","-4.7","","-8.0","","78","","","","32","","28","","24.1","","101.18","","","","-12","","Snow Showers"
"-61.68","56.55","NAIN A","8502801","2020-12-08 11:00","2020","12","08","11:00","-4.5","","-6.8","","84","","","","31","","26","","24.1","","101.17","","","","-12","","Snow Showers"
"-61.68","56.55","NAIN A","8502801","2020-12-08 12:00","2020","12","08","12:00","-4.4","","-7.2","","81","","","","31","","25","","24.1","","101.13","","","","-12","","Snow Showers"
"-61.68","56.55","NAIN A","8502801","2020-12-08 13:00","2020","12","08","13:00","-4.2","","-6.7","","83","","","","31","","25","","24.1","","101.09","","","","-11","","Snow Showers"
"-61.68","56.55","NAIN A","8502801","2020-12-08 14:00","2020","12","08","14:00","-4.3","","-6.9","","82","","","","30","","27","","24.1","","101.06","","","","-12","","Snow Showers"
"-61.68","56.55","NAIN A","8502801","2020-12-08 15:00","2020","12","08","15:00","-4.3","","-6.9","","82","","","","30","","26","","24.1","","101.07","","","","-12","","Snow Showers"
"-61.68","56.55","NAIN A","8502801","2020-12-08 16:00","2020","12","08","16:00","-4.2","","-7.0","","81","","","","31","","23","","24.1","","101.11","","","","-11","","Snow Showers"
"-61.68","56.55","NAIN A","8502801","2020-12-08 17:00","2020","12","08","17:00","-4.3","","-6.7","","83","","","","30","","20","","24.1","","101.11","","","","-11","","Snow Showers"
"-61.68","56.55","NAIN A","8502801","2020-12-08 18:00","2020","12","08","18:00","-4.3","","-6.6","","84","","","","30","","22","","24.1","","101.11","","","","-11","","Snow Showers"
"-61.68","56.55","NAIN A","8502801","2020-12-08 19:00","2020","12","08","19:00","-4.3","","-6.6","","85","","","","30","","23","","24.1","","101.12","","","","-11","","NA"
"-61.68","56.55","NAIN A","8502801","2020-12-08 20:00","2020","12","08","20:00","-4.2","","-6.4","","85","","","","30","","21","","24.1","","101.10","","","","-11","","Cloudy"
"-61.68","56.55","NAIN A","8502801","2020-12-08 21:00","2020","12","08","21:00"
"-61.68","56.55","NAIN A","8502801","2020-12-08 22:00","2020","12","08","22:00"
"-61.68","56.55","NAIN A","8502801","2020-12-08 23:00","2020","12","08","23:00"
"-61.68","56.55","NAIN A","8502801","2020-12-09 00:00","2020","12","09","00:00"
"-61.68","56.55","NAIN A","8502801","2020-12-09 01:00","2020","12","09","01:00"
"-61.68","56.55","NAIN A","8502801","2020-12-09 02:00","2020","12","09","02:00"
"-61.68","56.55","NAIN A","8502801","2020-12-09 03:00","2020","12","09","03:00"
"-61.68","56.55","NAIN A","8502801","2020-12-09 04:00","2020","12","09","04:00"
"-61.68","56.55","NAIN A","8502801","2020-12-09 05:00","2020","12","09","05:00","-4.5","","-6.1","","89","","","","32","","15","","24.1","","100.70","","","","-10","","Cloudy"
"-61.68","56.55","NAIN A","8502801","2020-12-09 06:00","2020","12","09","06:00","-4.4","","-6.0","","89","","","","32","","14","","24.1","","100.68","","","","-10","","NA"
"-61.68","56.55","NAIN A","8502801","2020-12-09 07:00","2020","12","09","07:00","-4.2","","-5.8","","89","","","","31","","21","","24.1","","100.68","","","","-11","","NA"
"-61.68","56.55","NAIN A","8502801","2020-12-09 08:00","2020","12","09","08:00","-4.3","","-5.7","","90","","","","32","","21","","24.1","","100.66","","","","-11","","Cloudy"
"-61.68","56.55","NAIN A","8502801","2020-12-09 09:00","2020","12","09","09:00","-4.1","","-5.4","","91","","","","32","","19","","24.1","","100.64","","","","-10","","NA"
"-61.68","56.55","NAIN A","8502801","2020-12-09 10:00","2020","12","09","10:00","-4.0","","-5.4","","90","","","","33","","16","","24.1","","100.61","","","","-10","","Snow"
"-61.68","56.55","NAIN A","8502801","2020-12-09 11:00","2020","12","09","11:00","-3.8","","-5.3","","90","","","","32","","13","","24.1","","100.58","","","","-9","","Snow Showers"
"-61.68","56.55","NAIN A","8502801","2020-12-09 12:00","2020","12","09","12:00","-3.6","","-5.0","","90","","","","31","","18","","24.1","","100.51","","","","-9","","Snow Showers"
"-61.68","56.55","NAIN A","8502801","2020-12-09 13:00","2020","12","09","13:00","-3.5","","-5.2","","88","","","","32","","13","","24.1","","100.51","","","","-8","","Snow Showers"
"-61.68","56.55","NAIN A","8502801","2020-12-09 14:00","2020","12","09","14:00","-3.4","","-4.8","","90","","","","34","","18","","24.1","","100.50","","","","-9","","Snow Showers"
"-61.68","56.55","NAIN A","8502801","2020-12-09 15:00","2020","12","09","15:00","-3.8","","-4.9","","92","","","","32","","18","","24.1","","100.54","","","","-10","","NA"
"-61.68","56.55","NAIN A","8502801","2020-12-09 16:00","2020","12","09","16:00","-3.8","","-4.8","","93","","","","33","","17","","24.1","","100.58","","","","-10","","NA"
"-61.68","56.55","NAIN A","8502801","2020-12-09 17:00","2020","12","09","17:00","-3.6","","-5.1","","90","","","","33","","12","","24.1","","100.63","","","","-8","","Cloudy"
"-61.68","56.55","NAIN A","8502801","2020-12-09 18:00","2020","12","09","18:00","-3.5","","-4.8","","90","","","","34","","19","","24.1","","100.68","","","","-9","","NA"
"-61.68","56.55","NAIN A","8502801","2020-12-09 19:00","2020","12","09","19:00","-3.4","","-4.8","","90","","","","33","","15","","24.1","","100.70","","","","-9","","Snow Showers"
"-61.68","56.55","NAIN A","8502801","2020-12-09 20:00","2020","12","09","20:00","-3.8","","-4.1","","98","","","","32","","11","","24.1","","100.72","","","","-8","","Snow Showers"
"-61.68","56.55","NAIN A","8502801","2020-12-09 21:00","2020","12","09","21:00"
"-61.68","56.55","NAIN A","8502801","2020-12-09 22:00","2020","12","09","22:00"
"-61.68","56.55","NAIN A","8502801","2020-12-09 23:00","2020","12","09","23:00"
"-61.68","56.55","NAIN A","8502801","2020-12-10 00:00","2020","12","10","00:00"
"-61.68","56.55","NAIN A","8502801","2020-12-10 01:00","2020","12","10","01:00"
"-61.68","56.55","NAIN A","8502801","2020-12-10 02:00","2020","12","10","02:00"
"-61.68","56.55","NAIN A","8502801","2020-12-10 03:00","2020","12","10","03:00"
"-61.68","56.55","NAIN A","8502801","2020-12-10 04:00","2020","12","10","04:00"
"-61.68","56.55","NAIN A","8502801","2020-12-10 05:00","2020","12","10","05:00","-4.0","","-4.3","","98","","","","28","","7","","24.1","","100.89","","","","-7","","Snow Showers"
"-61.68","56.55","NAIN A","8502801","2020-12-10 06:00","2020","12","10","06:00","-3.7","","-4.2","","97","","","","18","","3","","24.1","","100.90","","","","-5","","NA"
"-61.68","56.55","NAIN A","8502801","2020-12-10 07:00","2020","12","10","07:00","-3.4","","-3.8","","97","","","","24","","5","","24.1","","100.94","","","","-5","","NA"
"-61.68","56.55","NAIN A","8502801","2020-12-10 08:00","2020","12","10","08:00","-3.9","","-4.0","","99","","","","19","","4","","24.1","","100.96","","","","-6","","Snow Showers"
"-61.68","56.55","NAIN A","8502801","2020-12-10 09:00","2020","12","10","09:00","-3.6","","-3.7","","99","","","","20","","4","","24.1","","100.99","","","","-5","","Snow Showers"
"-61.68","56.55","NAIN A","8502801","2020-12-10 10:00","2020","12","10","10:00","-3.1","","-3.3","","99","","","","13","","7","","24.1","","100.99","","","","-6","","Snow Showers"
"-61.68","56.55","NAIN A","8502801","2020-12-10 11:00","2020","12","10","11:00","-2.9","","-3.3","","97","","","","15","","8","","24.1","","100.97","","","","-6","","Cloudy"
"-61.68","56.55","NAIN A","8502801","2020-12-10 12:00","2020","12","10","12:00","-2.5","","-2.9","","97","","","","12","","8","","24.1","","100.93","","","","-6","","Snow Showers"
"-61.68","56.55","NAIN A","8502801","2020-12-10 13:00","2020","12","10","13:00","-2.2","","-2.4","","99","","","","14","","14","","24.1","","100.92","","","","-7","","Snow Showers"
"-61.68","56.55","NAIN A","8502801","2020-12-10 14:00","2020","12","10","14:00","-2.1","","-2.4","","98","","","","14","","8","","24.1","","100.92","","","","-5","","Snow Showers"
"-61.68","56.55","NAIN A","8502801","2020-12-10 15:00","2020","12","10","15:00","-2.0","","-2.8","","95","","","","36","","2","","24.1","","100.92","","","","-3","","NA"
"-61.68","56.55","NAIN A","8502801","2020-12-10 16:00","2020","12","10","16:00","-2.0","","-2.7","","95","","","","12","","12","","24.1","","100.92","","","","-6","","NA"
"-61.68","56.55","NAIN A","8502801","2020-12-10 17:00","2020","12","10","17:00","-2.1","","-3.0","","93","","","","12","","5","","24.1","","100.91","","","","-4","","Cloudy"
"-61.68","56.55","NAIN A","8502801","2020-12-10 18:00","2020","12","10","18:00","-1.8","","-3.8","","87","","","","36","","3","","24.1","","100.90","","","","-3","","NA"
"-61.68","56.55","NAIN A","8502801","2020-12-10 19:00","2020","12","10","19:00","-2.2","","-4.0","","87","","","","24","","7","","24.1","","100.89","","","","-5","","NA"
"-61.68","56.55","NAIN A","8502801","2020-12-10 20:00","2020","12","10","20:00","-2.0","","-4.1","","85","","","","25","","4","","24.1","","100.88","","","","-3","","Cloudy"
"-61.68","56.55","NAIN A","8502801","2020-12-10 21:00","2020","12","10","21:00"
"-61.68","56.55","NAIN A","8502801","2020-12-10 22:00","2020","12","10","22:00"
"-61.68","56.55","NAIN A","8502801","2020-12-10 23:00","2020","12","10","23:00"
"-61.68","56.55","NAIN A","8502801","2020-12-11 00:00","2020","12","11","00:00"
"-61.68","56.55","NAIN A","8502801","2020-12-11 01:00","2020","12","11","01:00"
"-61.68","56.55","NAIN A","8502801","2020-12-11 02:00","2020","12","11","02:00"
"-61.68","56.55","NAIN A","8502801","2020-12-11 03:00","2020","12","11","03:00"
"-61.68","56.55","NAIN A","8502801","2020-12-11 04:00","2020","12","11","04:00"
"-61.68","56.55","NAIN A","8502801","2020-12-11 05:00","2020","12","11","05:00","-2.8","","-3.9","","92","","","","21","","15","","19.3","","100.65","","","","-8","","Snow Showers"
"-61.68","56.55","NAIN A","8502801","2020-12-11 06:00","2020","12","11","06:00","-2.8","","-3.8","","93","","","","30","","11","","22.5","","100.67","","","","-7","","Snow Showers"
"-61.68","56.55","NAIN A","8502801","2020-12-11 07:00","2020","12","11","07:00","-3.1","","-4.8","","88","","","","28","","8","","24.1","","100.72","","","","-6","","Snow Showers"
"-61.68","56.55","NAIN A","8502801","2020-12-11 08:00","2020","12","11","08:00","-3.9","","-5.9","","86","","","","26","","13","","24.1","","100.74","","","","-9","","Mostly Cloudy"
"-61.68","56.55","NAIN A","8502801","2020-12-11 09:00","2020","12","11","09:00","-4.5","","-9.4","","68","","","","26","","22","","24.1","","100.75","","","","-11","","NA"
"-61.68","56.55","NAIN A","8502801","2020-12-11 10:00","2020","12","11","10:00","-5.1","","-10.4","","67","","","","27","","25","","24.1","","100.78","","","","-12","","NA"
"-61.68","56.55","NAIN A","8502801","2020-12-11 11:00","2020","12","11","11:00","-5.9","","-10.2","","72","","","","25","","19","","24.1","","100.76","","","","-13","","Mostly Cloudy"
"-61.68","56.55","NAIN A","8502801","2020-12-11 12:00","2020","12","11","12:00","-5.9","","-10.4","","71","","","","28","","25","","24.1","","100.72","","","","-13","","NA"
"-61.68","56.55","NAIN A","8502801","2020-12-11 13:00","2020","12","11","13:00","-5.8","","-10.7","","69","","","","28","","26","","24.1","","100.72","","","","-14","","NA"
"-61.68","56.55","NAIN A","8502801","2020-12-11 14:00","2020","12","11","14:00","-6.2","","-11.1","","68","","","","28","","23","","24.1","","100.76","","","","-14","","Mostly Cloudy"
"-61.68","56.55","NAIN A","8502801","2020-12-11 15:00","2020","12","11","15:00","-6.3","","-11.4","","67","","","","26","","20","","24.1","","100.79","","","","-13","","NA"
"-61.68","56.55","NAIN A","8502801","2020-12-11 16:00","2020","12","11","16:00","-7.1","","-12.2","","67","","","","25","","25","","24.1","","100.84","","","","-15","","NA"
"-61.68","56.55","NAIN A","8502801","2020-12-11 17:00","2020","12","11","17:00","-6.9","","-11.7","","69","","","","26","","21","","24.1","","100.84","","","","-14","","Mainly Clear"
"-61.68","56.55","NAIN A","8502801","2020-12-11 18:00","2020","12","11","18:00","-7.7","","-12.0","","71","","","","24","","37","","24.1","","100.85","","","","-17","","NA"
"-61.68","56.55","NAIN A","8502801","2020-12-11 19:00","2020","12","11","19:00","-6.5","","-11.1","","70","","","","26","","35","","24.1","","100.86","","","","-16","","NA"
"-61.68","56.55","NAIN A","8502801","2020-12-11 20:00","2020","12","11","20:00","-7.2","","-11.1","","74","","","","30","","22","","24.1","","100.90","","","","-15","","Clear"
"-61.68","56.55","NAIN A","8502801","2020-12-11 21:00","2020","12","11","21:00"
"-61.68","56.55","NAIN A","8502801","2020-12-11 22:00","2020","12","11","22:00"
"-61.68","56.55","NAIN A","8502801","2020-12-11 23:00","2020","12","11","23:00"
"-61.68","56.55","NAIN A","8502801","2020-12-12 00:00","2020","12","12","00:00"
"-61.68","56.55","NAIN A","8502801","2020-12-12 01:00","2020","12","12","01:00"
"-61.68","56.55","NAIN A","8502801","2020-12-12 02:00","2020","12","12","02:00"
"-61.68","56.55","NAIN A","8502801","2020-12-12 03:00","2020","12","12","03:00"
"-61.68","56.55","NAIN A","8502801","2020-12-12 04:00","2020","12","12","04:00"
"-61.68","56.55","NAIN A","8502801","2020-12-12 05:00","2020","12","12","05:00","-7.0","","-11.6","","69","","","","29","","27","","24.1","","101.22","","","","-15","","Mainly Clear"
"-61.68","56.55","NAIN A","8502801","2020-12-12 06:00","2020","12","12","06:00","-7.0","","-13.0","","63","","","","29","","40","","24.1","","101.33","","","","-17","","NA"
"-61.68","56.55","NAIN A","8502801","2020-12-12 07:00","2020","12","12","07:00","-8.6","","-15.2","","59","","","","29","","55","","24.1","","101.44","","","","-20","","NA"
"-61.68","56.55","NAIN A","8502801","2020-12-12 08:00","2020","12","12","08:00","-9.9","","-15.7","","63","","","","29","","48","","24.1","","101.51","","","","-21","","Mainly Clear"
"-61.68","56.55","NAIN A","8502801","2020-12-12 09:00","2020","12","12","09:00","-10.6","","-15.9","","65","","","","29","","45","","24.1","","101.57","","","","-22","","NA"
"-61.68","56.55","NAIN A","8502801","2020-12-12 10:00","2020","12","12","10:00","-10.0","","-14.7","","69","","","","30","","48","","24.1","","101.64","","","","-22","","NA"
"-61.68","56.55","NAIN A","8502801","2020-12-12 11:00","2020","12","12","11:00","-10.3","","-15.5","","66","","","","31","","64","","24.1","","101.75","","","","-23","","Mainly Clear"
"-61.68","56.55","NAIN A","8502801","2020-12-12 12:00","2020","12","12","12:00","-10.5","","-16.0","","64","","","","31","","64","","24.1","","101.77","","","","-24","","NA"
"-61.68","56.55","NAIN A","8502801","2020-12-12 13:00","2020","12","12","13:00","-10.6","","-16.0","","65","","","","30","","59","","24.1","","101.83","","","","-23","","NA"
"-61.68","56.55","NAIN A","8502801","2020-12-12 14:00","2020","12","12","14:00","-12.2","","-17.7","","64","","","","29","","52","","24.1","","101.88","","","","-25","","Clear"
"-61.68","56.55","NAIN A","8502801","2020-12-12 15:00","2020","12","12","15:00","-12.6","","-17.6","","66","","","","29","","55","","24.1","","102.03","","","","-26","","NA"
"-61.68","56.55","NAIN A","8502801","2020-12-12 16:00","2020","12","12","16:00","-13.3","","-18.7","","64","","","","29","","58","","24.1","","102.13","","","","-27","","NA"
"-61.68","56.55","NAIN A","8502801","2020-12-12 17:00","2020","12","12","17:00","-12.9","","-17.9","","67","","","","30","","60","","24.1","","102.22","","","","-27","","Mainly Clear"
"-61.68","56.55","NAIN A","8502801","2020-12-12 18:00","2020","12","12","18:00","-12.7","","-17.9","","66","","","","30","","63","","24.1","","102.30","","","","-27","","NA"
"-61.68","56.55","NAIN A","8502801","2020-12-12 19:00","2020","12","12","19:00","-13.3","","-18.0","","68","","","","30","","62","","24.1","","102.40","","","","-27","","NA"
"-61.68","56.55","NAIN A","8502801","2020-12-12 20:00","2020","12","12","20:00","-13.6","","-18.4","","68","","","","30","","59","","24.1","","102.49","","","","-28","","Clear"
"-61.68","56.55","NAIN A","8502801","2020-12-12 21:00","2020","12","12","21:00"
"-61.68","56.55","NAIN A","8502801","2020-12-12 22:00","2020","12","12","22:00"
"-61.68","56.55","NAIN A","8502801","2020-12-12 23:00","2020","12","12","23:00"
"-61.68","56.55","NAIN A","8502801","2020-12-13 00:00","2020","12","13","00:00"
"-61.68","56.55","NAIN A","8502801","2020-12-13 01:00","2020","12","13","01:00"
"-61.68","56.55","NAIN A","8502801","2020-12-13 02:00","2020","12","13","02:00"
"-61.68","56.55","NAIN A","8502801","2020-12-13 03:00","2020","12","13","03:00"
"-61.68","56.55","NAIN A","8502801","2020-12-13 04:00","2020","12","13","04:00"
"-61.68","56.55","NAIN A","8502801","2020-12-13 05:00","2020","12","13","05:00","-16.3","","-22.0","","62","","","","28","","20","","24.1","","102.85","","","","-26","","Clear"
"-61.68","56.55","NAIN A","8502801","2020-12-13 06:00","2020","12","13","06:00","-16.4","","-21.7","","64","","","","28","","22","","24.1","","102.87","","","","-26","","NA"
"-61.68","56.55","NAIN A","8502801","2020-12-13 07:00","2020","12","13","07:00","-16.6","","-22.4","","62","","","","27","","23","","24.1","","102.91","","","","-27","","NA"
"-61.68","56.55","NAIN A","8502801","2020-12-13 08:00","2020","12","13","08:00","-16.9","","-22.4","","63","","","","26","","6","","24.1","","102.95","","","","-21","","Clear"
"-61.68","56.55","NAIN A","8502801","2020-12-13 09:00","2020","12","13","09:00","-17.2","","-23.6","","58","","","","24","","5","","24.1","","102.97","","","","-21","","NA"
"-61.68","56.55","NAIN A","8502801","2020-12-13 10:00","2020","12","13","10:00","-17.6","","-24.0","","58","","","","26","","6","","24.1","","103.01","","","","-22","","NA"
"-61.68","56.55","NAIN A","8502801","2020-12-13 11:00","2020","12","13","11:00","-16.6","","-24.5","","52","","","","29","","7","","24.1","","102.97","","","","-22","","Clear"
"-61.68","56.55","NAIN A","8502801","2020-12-13 12:00","2020","12","13","12:00","-17.1","","-23.9","","56","","","","23","","14","","24.1","","102.92","","","","-25","","NA"
"-61.68","56.55","NAIN A","8502801","2020-12-13 13:00","2020","12","13","13:00","-16.4","","-23.5","","55","","","","26","","7","","24.1","","102.85","","","","-21","","NA"
"-61.68","56.55","NAIN A","8502801","2020-12-13 14:00","2020","12","13","14:00","-16.8","","-24.1","","54","","","","20","","10","","24.1","","102.84","","","","-23","","Clear"
"-61.68","56.55","NAIN A","8502801","2020-12-13 15:00","2020","12","13","15:00","-17.3","","-24.4","","55","","","","23","","15","","24.1","","102.85","","","","-26","","NA"
"-61.68","56.55","NAIN A","8502801","2020-12-13 16:00","2020","12","13","16:00","-16.4","","-23.5","","55","","","","24","","5","","24.1","","102.87","","","","-20","","NA"
"-61.68","56.55","NAIN A","8502801","2020-12-13 17:00","2020","12","13","17:00","-16.9","","-22.4","","63","","","","28","","5","","24.1","","102.84","","","","-21","","Clear"
"-61.68","56.55","NAIN A","8502801","2020-12-13 18:00","2020","12","13","18:00","-17.3","","-23.3","","60","","","","21","","7","","24.1","","102.82","","","","-23","","NA"
"-61.68","56.55","NAIN A","8502801","2020-12-13 19:00","2020","12","13","19:00","-17.2","","-22.3","","65","","","","22","","12","","24.1","","102.80","","","","-25","","NA"
"-61.68","56.55","NAIN A","8502801","2020-12-13 20:00","2020","12","13","20:00","-17.9","","-22.7","","67","","","","20","","9","","24.1","","102.76","","","","-24","","Clear"
"-61.68","56.55","NAIN A","8502801","2020-12-13 21:00","2020","12","13","21:00"
"-61.68","56.55","NAIN A","8502801","2020-12-13 22:00","2020","12","13","22:00"
"-61.68","56.55","NAIN A","8502801","2020-12-13 23:00","2020","12","13","23:00"
"-61.68","56.55","NAIN A","8502801","2020-12-14 00:00","2020","12","14","00:00"
"-61.68","56.55","NAIN A","8502801","2020-12-14 01:00","2020","12","14","01:00"
"-61.68","56.55","NAIN A","8502801","2020-12-14 02:00","2020","12","14","02:00"
"-61.68","56.55","NAIN A","8502801","2020-12-14 03:00","2020","12","14","03:00"
"-61.68","56.55","NAIN A","8502801","2020-12-14 04:00","2020","12","14","04:00"
"-61.68","56.55","NAIN A","8502801","2020-12-14 05:00","2020","12","14","05:00","-14.6","","-17.9","","76","","","","36","","1","","24.1","","102.34","","","","-15","","Snow Showers"
"-61.68","56.55","NAIN A","8502801","2020-12-14 06:00","2020","12","14","06:00","-14.1","","-18.0","","73","","","","0","","1","","24.1","","102.25","","","","-15","","Snow Showers"
"-61.68","56.55","NAIN A","8502801","2020-12-14 07:00","2020","12","14","07:00","-12.7","","-15.4","","81","","","","9","","10","","24.1","","102.17","","","","-18","","Snow Showers"
"-61.68","56.55","NAIN A","8502801","2020-12-14 08:00","2020","12","14","08:00","-11.9","","-14.1","","84","","","","5","","11","","24.1","","102.07","","","","-18","","Snow Showers"
"-61.68","56.55","NAIN A","8502801","2020-12-14 09:00","2020","12","14","09:00","-11.1","","-13.6","","82","","","","36","","3","","24.1","","102.02","","","","-13","","NA"
"-61.68","56.55","NAIN A","8502801","2020-12-14 10:00","2020","12","14","10:00","-9.5","","-12.7","","78","","","","10","","7","","24.1","","101.95","","","","-13","","NA"
"-61.68","56.55","NAIN A","8502801","2020-12-14 11:00","2020","12","14","11:00","-8.5","","-10.9","","83","","","","9","","20","","24.1","","101.83","","","","-16","","Snow Showers"
"-61.68","56.55","NAIN A","8502801","2020-12-14 12:00","2020","12","14","12:00","-7.2","","-10.2","","79","","","","10","","26","","24.1","","101.68","","","","-15","","Snow Showers"
"-61.68","56.55","NAIN A","8502801","2020-12-14 13:00","2020","12","14","13:00","-6.6","","-9.1","","82","","","","11","","26","","24.1","","101.58","","","","-15","","Snow Showers"
"-61.68","56.55","NAIN A","8502801","2020-12-14 14:00","2020","12","14","14:00","-6.2","","-8.0","","87","","","","12","","19","","4.0","","101.46","","","","-13","","Snow"
"-61.68","56.55","NAIN A","8502801","2020-12-14 15:00","2020","12","14","15:00","-5.4","","-7.2","","87","","","","15","","35","","8.1","","101.36","","","","-14","","Snow"
"-61.68","56.55","NAIN A","8502801","2020-12-14 16:00","2020","12","14","16:00","-5.3","","-7.6","","84","","","","15","","35","","6.4","","101.27","","","","-14","","Snow"
"-61.68","56.55","NAIN A","8502801","2020-12-14 17:00","2020","12","14","17:00","-5.3","","-8.0","","82","","","","15","","29","","8.1","","101.22","","","","-13","","Snow"
"-61.68","56.55","NAIN A","8502801","2020-12-14 18:00","2020","12","14","18:00","-5.3","","-7.5","","84","","","","15","","26","","8.1","","101.16","","","","-13","","Snow"
"-61.68","56.55","NAIN A","8502801","2020-12-14 19:00","2020","12","14","19:00","-5.1","","-7.0","","87","","","","15","","27","","4.8","","101.03","","","","-13","","Snow"
"-61.68","56.55","NAIN A","8502801","2020-12-14 20:00","2020","12","14","20:00","-4.9","","-7.0","","86","","","","15","","33","","6.4","","100.93","","","","-13","","Snow"
"-61.68","56.55","NAIN A","8502801","2020-12-14 21:00","2020","12","14","21:00"
"-61.68","56.55","NAIN A","8502801","2020-12-14 22:00","2020","12","14","22:00"
"-61.68","56.55","NAIN A","8502801","2020-12-14 23:00","2020","12","14","23:00"
"-61.68","56.55","NAIN A","8502801","2020-12-15 00:00","2020","12","15","00:00"
"-61.68","56.55","NAIN A","8502801","2020-12-15 01:00","2020","12","15","01:00"
"-61.68","56.55","NAIN A","8502801","2020-12-15 02:00","2020","12","15","02:00"
"-61.68","56.55","NAIN A","8502801","2020-12-15 03:00","2020","12","15","03:00"
"-61.68","56.55","NAIN A","8502801","2020-12-15 04:00","2020","12","15","04:00"
"-61.68","56.55","NAIN A","8502801","2020-12-15 05:00","2020","12","15","05:00","-5.3","","-5.6","","98","","","","30","","5","","3.2","","100.05","","","","-8","","Snow"
"-61.68","56.55","NAIN A","8502801","2020-12-15 06:00","2020","12","15","06:00","-5.0","","-5.4","","97","","","","29","","7","","4.0","","99.96","","","","-8","","Snow"
"-61.68","56.55","NAIN A","8502801","2020-12-15 07:00","2020","12","15","07:00","-4.5","","-4.8","","98","","","","36","","7","","4.0","","99.89","","","","-8","","Snow"
"-61.68","56.55","NAIN A","8502801","2020-12-15 08:00","2020","12","15","08:00","-4.3","","-4.6","","98","","","","2","","14","","4.0","","99.81","","","","-9","","Snow"
"-61.68","56.55","NAIN A","8502801","2020-12-15 09:00","2020","12","15","09:00","-4.7","","-5.0","","98","","","","29","","14","","3.2","","99.73","","","","-10","","Snow"
"-61.68","56.55","NAIN A","8502801","2020-12-15 10:00","2020","12","15","10:00","-4.5","","-5.0","","97","","","","28","","18","","1.6","","99.67","","","","-11","","Snow"
"-61.68","56.55","NAIN A","8502801","2020-12-15 11:00","2020","12","15","11:00","-2.6","","-2.9","","98","","","","10","","24","","2.4","","99.62","","","","-9","","Snow"
"-61.68","56.55","NAIN A","8502801","2020-12-15 12:00","2020","12","15","12:00","-2.8","","-3.0","","99","","","","9","","25","","3.2","","99.56","","","","-10","","Snow"
"-61.68","56.55","NAIN A","8502801","2020-12-15 13:00","2020","12","15","13:00","-2.7","","-3.1","","97","","","","8","","22","","3.2","","99.51","","","","-9","","Snow"
"-61.68","56.55","NAIN A","8502801","2020-12-15 14:00","2020","12","15","14:00","-2.7","","-2.8","","99","","","","6","","26","","1.6","","99.49","","","","-10","","Snow"
"-61.68","56.55","NAIN A","8502801","2020-12-15 15:00","2020","12","15","15:00","-2.7","","-2.8","","99","","","","4","","23","","1.6","","99.49","","","","-9","","Snow"
"-61.68","56.55","NAIN A","8502801","2020-12-15 16:00","2020","12","15","16:00","-2.9","","-2.9","","100","","","","1","","19","","1.6","","99.50","","","","-9","","Snow"
"-61.68","56.55","NAIN A","8502801","2020-12-15 17:00","2020","12","15","17:00","-2.8","","-3.0","","98","","","","36","","26","","2.4","","99.53","","","","-10","","Snow"
"-61.68","56.55","NAIN A","8502801","2020-12-15 18:00","2020","12","15","18:00","-2.7","","-2.9","","98","","","","36","","27","","1.6","","99.60","","","","-10","","Snow"
"-61.68","56.55","NAIN A","8502801","2020-12-15 19:00","2020","12","15","19:00","-2.8","","-2.9","","99","","","","35","","27","","1.6","","99.64","","","","-10","","Snow"
"-61.68","56.55","NAIN A","8502801","2020-12-15 20:00","2020","12","15","20:00","-3.5","","-3.8","","98","","","","33","","29","","1.6","","99.67","","","","-11","","Snow"
"-61.68","56.55","NAIN A","8502801","2020-12-15 21:00","2020","12","15","21:00"
"-61.68","56.55","NAIN A","8502801","2020-12-15 22:00","2020","12","15","22:00"
"-61.68","56.55","NAIN A","8502801","2020-12-15 23:00","2020","12","15","23:00"
"-61.68","56.55","NAIN A","8502801","2020-12-16 00:00","2020","12","16","00:00"
"-61.68","56.55","NAIN A","8502801","2020-12-16 01:00","2020","12","16","01:00"
"-61.68","56.55","NAIN A","8502801","2020-12-16 02:00","2020","12","16","02:00"
"-61.68","56.55","NAIN A","8502801","2020-12-16 03:00","2020","12","16","03:00"
"-61.68","56.55","NAIN A","8502801","2020-12-16 04:00","2020","12","16","04:00"
"-61.68","56.55","NAIN A","8502801","2020-12-16 05:00","2020","12","16","05:00","-7.7","","-9.0","","91","","","","30","","64","","1.6","","100.17","","","","-20","","Snow,Blowing Snow"
"-61.68","56.55","NAIN A","8502801","2020-12-16 06:00","2020","12","16","06:00","-7.9","","-9.2","","91","","","","30","","66","","2.0","","100.22","","","","-20","","Snow,Blowing Snow"
"-61.68","56.55","NAIN A","8502801","2020-12-16 07:00","2020","12","16","07:00","-7.4","","-8.6","","91","","","","30","","59","","2.0","","100.28","","","","-19","","Snow,Blowing Snow"
"-61.68","56.55","NAIN A","8502801","2020-12-16 08:00","2020","12","16","08:00","-7.6","","-8.6","","93","","","","30","","58","","1.0","","100.40","","","","-19","","Snow,Blowing Snow"
"-61.68","56.55","NAIN A","8502801","2020-12-16 09:00","2020","12","16","09:00","-7.0","","-7.8","","94","","","","30","","57","","0.8","","100.48","","","","-18","","Moderate Snow,Blowing Snow"
"-61.68","56.55","NAIN A","8502801","2020-12-16 10:00","2020","12","16","10:00","-6.7","","-7.5","","94","","","","31","","56","","0.8","","100.55","","","","-18","","Moderate Snow,Blowing Snow"
"-61.68","56.55","NAIN A","8502801","2020-12-16 11:00","2020","12","16","11:00","-6.6","","-7.6","","93","","","","30","","57","","0.8","","100.61","","","","-18","","Moderate Snow,Blowing Snow"
"-61.68","56.55","NAIN A","8502801","2020-12-16 12:00","2020","12","16","12:00","-6.6","","-7.6","","92","","","","30","","55","","1.0","","100.69","","","","-18","","Snow,Blowing Snow"
"-61.68","56.55","NAIN A","8502801","2020-12-16 13:00","2020","12","16","13:00","-6.5","","-7.6","","92","","","","30","","58","","1.6","","100.78","","","","-18","","Snow,Blowing Snow"
"-61.68","56.55","NAIN A","8502801","2020-12-16 14:00","2020","12","16","14:00","-6.1","","-7.1","","92","","","","31","","53","","2.0","","100.89","","","","-17","","Snow,Blowing Snow"
"-61.68","56.55","NAIN A","8502801","2020-12-16 15:00","2020","12","16","15:00","-5.2","","-6.5","","90","","","","31","","46","","4.8","","101.03","","","","-15","","Snow,Blowing Snow"
"-61.68","56.55","NAIN A","8502801","2020-12-16 16:00","2020","12","16","16:00","-4.8","","-6.6","","88","","","","31","","42","","4.8","","101.16","","","","-14","","Snow,Blowing Snow"
"-61.68","56.55","NAIN A","8502801","2020-12-16 17:00","2020","12","16","17:00","-4.7","","-6.7","","86","","","","32","","41","","6.4","","101.28","","","","-14","","Snow,Blowing Snow"
"-61.68","56.55","NAIN A","8502801","2020-12-16 18:00","2020","12","16","18:00","-4.2","","-6.5","","85","","","","32","","44","","6.4","","101.35","","","","-13","","Snow,Blowing Snow"
"-61.68","56.55","NAIN A","8502801","2020-12-16 19:00","2020","12","16","19:00","-4.0","","-6.3","","84","","","","32","","50","","9.7","","101.48","","","","-14","","Snow,Blowing Snow"
"-61.68","56.55","NAIN A","8502801","2020-12-16 20:00","2020","12","16","20:00","-4.1","","-6.2","","86","","","","32","","42","","12.9","","101.59","","","","-13","","Snow,Blowing Snow"
"-61.68","56.55","NAIN A","8502801","2020-12-16 21:00","2020","12","16","21:00"
"-61.68","56.55","NAIN A","8502801","2020-12-16 22:00","2020","12","16","22:00"
"-61.68","56.55","NAIN A","8502801","2020-12-16 23:00","2020","12","16","23:00"
"-61.68","56.55","NAIN A","8502801","2020-12-17 00:00","2020","12","17","00:00"
"-61.68","56.55","NAIN A","8502801","2020-12-17 01:00","2020","12","17","01:00"
"-61.68","56.55","NAIN A","8502801","2020-12-17 02:00","2020","12","17","02:00"
"-61.68","56.55","NAIN A","8502801","2020-12-17 03:00","2020","12","17","03:00"
"-61.68","56.55","NAIN A","8502801","2020-12-17 04:00","2020","12","17","04:00"
"-61.68","56.55","NAIN A","8502801","2020-12-17 05:00","2020","12","17","05:00","-6.9","","-10.1","","78","","","","30","","37","","24.1","","102.26","","","","-16","","Cloudy"
"-61.68","56.55","NAIN A","8502801","2020-12-17 06:00","2020","12","17","06:00","-7.0","","-10.4","","77","","","","31","","36","","24.1","","102.33","","","","-16","","NA"
"-61.68","56.55","NAIN A","8502801","2020-12-17 07:00","2020","12","17","07:00","-7.7","","-11.8","","72","","","","23","","7","","24.1","","102.38","","","","-11","","NA"
"-61.68","56.55","NAIN A","8502801","2020-12-17 08:00","2020","12","17","08:00","-8.7","","-10.8","","85","","","","30","","8","","24.1","","102.43","","","","-13","","Snow Showers"
"-61.68","56.55","NAIN A","8502801","2020-12-17 09:00","2020","12","17","09:00","-10.0","","-13.0","","79","","","","22","","4","","24.1","","102.48","","","","-12","","NA"
"-61.68","56.55","NAIN A","8502801","2020-12-17 10:00","2020","12","17","10:00","-10.2","","-13.7","","76","","","","16","","4","","24.1","","102.49","","","","-13","","NA"
"-61.68","56.55","NAIN A","8502801","2020-12-17 11:00","2020","12","17","11:00","-11.3","","-15.5","","72","","","","22","","8","","24.1","","102.51","","","","-16","","Mainly Clear"
"-61.68","56.55","NAIN A","8502801","2020-12-17 12:00","2020","12","17","12:00","-11.8","","-16.5","","68","","","","28","","12","","24.1","","102.53","","","","-18","","NA"
"-61.68","56.55","NAIN A","8502801","2020-12-17 13:00","2020","12","17","13:00","-11.3","","-16.4","","67","","","","21","","7","","24.1","","102.53","","","","-16","","NA"
"-61.68","56.55","NAIN A","8502801","2020-12-17 14:00","2020","12","17","14:00","-12.7","","-18.1","","64","","","","26","","7","","24.1","","102.54","","","","-17","","Mainly Clear"
"-61.68","56.55","NAIN A","8502801","2020-12-17 15:00","2020","12","17","15:00","-13.3","","-19.4","","61","","","","26","","10","","24.1","","102.52","","","","-19","","NA"
"-61.68","56.55","NAIN A","8502801","2020-12-17 16:00","2020","12","17","16:00","-14.1","","-20.1","","61","","","","31","","3","","24.1","","102.53","","","","-16","","NA"
"-61.68","56.55","NAIN A","8502801","2020-12-17 17:00","2020","12","17","17:00","-13.7","","-20.5","","57","","","","24","","5","","24.1","","102.55","","","","-17","","Mainly Clear"
"-61.68","56.55","NAIN A","8502801","2020-12-17 18:00","2020","12","17","18:00","-16.0","","-22.8","","56","","","","20","","9","","24.1","","102.51","","","","-22","","NA"
"-61.68","56.55","NAIN A","8502801","2020-12-17 19:00","2020","12","17","19:00","-15.3","","-22.4","","55","","","","19","","14","","24.1","","102.49","","","","-23","","NA"
"-61.68","56.55","NAIN A","8502801","2020-12-17 20:00","2020","12","17","20:00","-13.6","","-22.5","","48","","","","22","","9","","24.1","","102.49","","","","-19","","Clear"
"-61.68","56.55","NAIN A","8502801","2020-12-17 21:00","2020","12","17","21:00"
"-61.68","56.55","NAIN A","8502801","2020-12-17 22:00","2020","12","17","22:00"
"-61.68","56.55","NAIN A","8502801","2020-12-17 23:00","2020","12","17","23:00"
"-61.68","56.55","NAIN A","8502801","2020-12-18 00:00","2020","12","18","00:00"
"-61.68","56.55","NAIN A","8502801","2020-12-18 01:00","2020","12","18","01:00"
"-61.68","56.55","NAIN A","8502801","2020-12-18 02:00","2020","12","18","02:00"
"-61.68","56.55","NAIN A","8502801","2020-12-18 03:00","2020","12","18","03:00"
"-61.68","56.55","NAIN A","8502801","2020-12-18 04:00","2020","12","18","04:00"
"-61.68","56.55","NAIN A","8502801","2020-12-18 05:00","2020","12","18","05:00","-13.4","","-18.4","","66","","","","25","","22","","24.1","","101.97","","","","-23","","Cloudy"
"-61.68","56.55","NAIN A","8502801","2020-12-18 06:00","2020","12","18","06:00","-12.2","","-17.5","","65","","","","25","","36","","24.1","","101.94","","","","-23","","NA"
"-61.68","56.55","NAIN A","8502801","2020-12-18 07:00","2020","12","18","07:00","-11.8","","-17.4","","63","","","","26","","32","","24.1","","101.96","","","","-22","","NA"
"-61.68","56.55","NAIN A","8502801","2020-12-18 08:00","2020","12","18","08:00","-12.2","","-17.6","","64","","","","27","","36","","24.1","","101.97","","","","-23","","Cloudy"
"-61.68","56.55","NAIN A","8502801","2020-12-18 09:00","2020","12","18","09:00","-12.1","","-17.4","","65","","","","26","","22","","24.1","","101.99","","","","-21","","NA"
"-61.68","56.55","NAIN A","8502801","2020-12-18 10:00","2020","12","18","10:00","-11.8","","-16.7","","67","","","","28","","29","","24.1","","102.01","","","","-22","","NA"
"-61.68","56.55","NAIN A","8502801","2020-12-18 11:00","2020","12","18","11:00","-12.0","","-17.2","","66","","","","28","","17","","24.1","","102.02","","","","-20","","Mostly Cloudy"
"-61.68","56.55","NAIN A","8502801","2020-12-18 12:00","2020","12","18","12:00","-12.1","","-17.6","","64","","","","27","","21","","24.1","","102.00","","","","-21","","NA"
"-61.68","56.55","NAIN A","8502801","2020-12-18 13:00","2020","12","18","13:00","-11.7","","-17.6","","62","","","","26","","16","","24.1","","101.98","","","","-19","","NA"
"-61.68","56.55","NAIN A","8502801","2020-12-18 14:00","2020","12","18","14:00","-11.8","","-17.6","","62","","","","24","","13","","24.1","","101.99","","","","-18","","Clear"
"-61.68","56.55","NAIN A","8502801","2020-12-18 15:00","2020","12","18","15:00","-12.5","","-18.1","","63","","","","24","","12","","24.1","","102.06","","","","-19","","NA"
"-61.68","56.55","NAIN A","8502801","2020-12-18 16:00","2020","12","18","16:00","-12.7","","-18.0","","65","","","","27","","22","","24.1","","102.10","","","","-22","","NA"
"-61.68","56.55","NAIN A","8502801","2020-12-18 17:00","2020","12","18","17:00","-12.6","","-18.2","","64","","","","27","","29","","24.1","","102.04","","","","-23","","Clear"
"-61.68","56.55","NAIN A","8502801","2020-12-18 18:00","2020","12","18","18:00","-11.7","","-17.0","","65","","","","29","","53","","24.1","","102.05","","","","-24","","Blowing Snow"
"-61.68","56.55","NAIN A","8502801","2020-12-18 19:00","2020","12","18","19:00","-12.2","","-17.2","","67","","","","29","","28","","24.1","","102.16","","","","-22","","NA"
"-61.68","56.55","NAIN A","8502801","2020-12-18 20:00","2020","12","18","20:00","-12.6","","-18.1","","64","","","","27","","26","","24.1","","102.17","","","","-22","","Clear"
"-61.68","56.55","NAIN A","8502801","2020-12-18 21:00","2020","12","18","21:00"
"-61.68","56.55","NAIN A","8502801","2020-12-18 22:00","2020","12","18","22:00"
"-61.68","56.55","NAIN A","8502801","2020-12-18 23:00","2020","12","18","23:00"
"-61.68","56.55","NAIN A","8502801","2020-12-19 00:00","2020","12","19","00:00"
"-61.68","56.55","NAIN A","8502801","2020-12-19 01:00","2020","12","19","01:00"
"-61.68","56.55","NAIN A","8502801","2020-12-19 02:00","2020","12","19","02:00"
"-61.68","56.55","NAIN A","8502801","2020-12-19 03:00","2020","12","19","03:00"
"-61.68","56.55","NAIN A","8502801","2020-12-19 04:00","2020","12","19","04:00"
"-61.68","56.55","NAIN A","8502801","2020-12-19 05:00","2020","12","19","05:00","-14.7","","-19.9","","65","","","","19","","13","","24.1","","101.98","","","","-22","","Clear"
"-61.68","56.55","NAIN A","8502801","2020-12-19 06:00","2020","12","19","06:00","-12.2","","-19.0","","58","","","","24","","28","","24.1","","101.94","","","","-22","","NA"
"-61.68","56.55","NAIN A","8502801","2020-12-19 07:00","2020","12","19","07:00","-10.8","","-19.3","","50","","","","25","","21","","24.1","","101.84","","","","-19","","NA"
"-61.68","56.55","NAIN A","8502801","2020-12-19 08:00","2020","12","19","08:00","-13.0","","-19.2","","60","","","","4","","3","","24.1","","101.77","","","","-15","","Mainly Clear"
"-61.68","56.55","NAIN A","8502801","2020-12-19 09:00","2020","12","19","09:00","-14.6","","-18.7","","71","","","","21","","10","","24.1","","101.68","","","","-21","","NA"
"-61.68","56.55","NAIN A","8502801","2020-12-19 10:00","2020","12","19","10:00","-13.3","","-17.0","","74","","","","14","","6","","24.1","","101.65","","","","-17","","NA"
"-61.68","56.55","NAIN A","8502801","2020-12-19 11:00","2020","12","19","11:00","-12.1","","-15.8","","75","","","","21","","16","","24.1","","101.54","","","","-20","","Cloudy"
"-61.68","56.55","NAIN A","8502801","2020-12-19 12:00","2020","12","19","12:00","-11.8","","-14.9","","79","","","","16","","6","","24.1","","101.35","","","","-16","","NA"
"-61.68","56.55","NAIN A","8502801","2020-12-19 13:00","2020","12","19","13:00","-11.0","","-14.1","","78","","","","21","","8","","24.1","","101.20","","","","-16","","NA"
"-61.68","56.55","NAIN A","8502801","2020-12-19 14:00","2020","12","19","14:00","-10.2","","-13.3","","78","","","","21","","9","","24.1","","101.10","","","","-15","","Mostly Cloudy"
"-61.68","56.55","NAIN A","8502801","2020-12-19 15:00","2020","12","19","15:00","-8.9","","-11.9","","79","","","","16","","11","","24.1","","100.97","","","","-14","","NA"
"-61.68","56.55","NAIN A","8502801","2020-12-19 16:00","2020","12","19","16:00","-8.6","","-11.4","","80","","","","19","","13","","24.1","","100.87","","","","-15","","NA"
"-61.68","56.55","NAIN A","8502801","2020-12-19 17:00","2020","12","19","17:00","-8.0","","-10.8","","80","","","","20","","13","","24.1","","100.77","","","","-14","","Cloudy"
"-61.68","56.55","NAIN A","8502801","2020-12-19 18:00","2020","12","19","18:00","-7.9","","-10.9","","79","","","","21","","14","","24.1","","100.69","","","","-14","","NA"
"-61.68","56.55","NAIN A","8502801","2020-12-19 19:00","2020","12","19","19:00","-6.9","","-10.5","","76","","","","28","","3","","24.1","","100.61","","","","-8","","Snow Showers"
"-61.68","56.55","NAIN A","8502801","2020-12-19 20:00","2020","12","19","20:00","-6.8","","-9.5","","81","","","","24","","15","","24.1","","100.55","","","","-13","","Snow Showers"
"-61.68","56.55","NAIN A","8502801","2020-12-19 21:00","2020","12","19","21:00"
"-61.68","56.55","NAIN A","8502801","2020-12-19 22:00","2020","12","19","22:00"
"-61.68","56.55","NAIN A","8502801","2020-12-19 23:00","2020","12","19","23:00"
"-61.68","56.55","NAIN A","8502801","2020-12-20 00:00","2020","12","20","00:00"
"-61.68","56.55","NAIN A","8502801","2020-12-20 01:00","2020","12","20","01:00"
"-61.68","56.55","NAIN A","8502801","2020-12-20 02:00","2020","12","20","02:00"
"-61.68","56.55","NAIN A","8502801","2020-12-20 03:00","2020","12","20","03:00"
"-61.68","56.55","NAIN A","8502801","2020-12-20 04:00","2020","12","20","04:00"
"-61.68","56.55","NAIN A","8502801","2020-12-20 05:00","2020","12","20","05:00","-14.5","","-20.3","","62","","","","27","","44","","24.1","","101.07","","","","-27","","Clear"
"-61.68","56.55","NAIN A","8502801","2020-12-20 06:00","2020","12","20","06:00","-15.1","","-20.6","","63","","","","28","","34","","24.1","","101.08","","","","-27","","NA"
"-61.68","56.55","NAIN A","8502801","2020-12-20 07:00","2020","12","20","07:00","-15.6","","-21.4","","62","","","","28","","33","","24.1","","101.17","","","","-27","","NA"
"-61.68","56.55","NAIN A","8502801","2020-12-20 08:00","2020","12","20","08:00","-16.2","","-22.2","","60","","","","26","","25","","24.1","","101.18","","","","-27","","Clear"
"-61.68","56.55","NAIN A","8502801","2020-12-20 09:00","2020","12","20","09:00","-16.9","","-22.7","","61","","","","25","","30","","24.1","","101.24","","","","-29","","NA"
"-61.68","56.55","NAIN A","8502801","2020-12-20 10:00","2020","12","20","10:00","-16.8","","-23.0","","59","","","","27","","24","","24.1","","101.29","","","","-27","","NA"
"-61.68","56.55","NAIN A","8502801","2020-12-20 11:00","2020","12","20","11:00","-16.4","","-22.2","","62","","","","28","","43","","24.1","","101.23","","","","-30","","Mainly Clear"
"-61.68","56.55","NAIN A","8502801","2020-12-20 12:00","2020","12","20","12:00","-16.5","","-22.8","","59","","","","24","","12","","24.1","","101.27","","","","-24","","NA"
"-61.68","56.55","NAIN A","8502801","2020-12-20 13:00","2020","12","20","13:00","-16.1","","-22.4","","59","","","","25","","17","","24.1","","101.22","","","","-25","","NA"
"-61.68","56.55","NAIN A","8502801","2020-12-20 14:00","2020","12","20","14:00","-15.7","","-22.4","","57","","","","25","","8","","24.1","","101.24","","","","-21","","Cloudy"
"-61.68","56.55","NAIN A","8502801","2020-12-20 15:00","2020","12","20","15:00","-15.4","","-22.5","","55","","","","8","","12","","24.1","","101.25","","","","-22","","NA"
"-61.68","56.55","NAIN A","8502801","2020-12-20 16:00","2020","12","20","16:00","-15.3","","-23.1","","52","","","","25","","31","","24.1","","101.25","","","","-27","","NA"
"-61.68","56.55","NAIN A","8502801","2020-12-20 17:00","2020","12","20","17:00","-14.8","","-23.4","","49","","","","26","","17","","24.1","","101.26","","","","-23","","Mostly Cloudy"
"-61.68","56.55","NAIN A","8502801","2020-12-20 18:00","2020","12","20","18:00","-15.6","","-23.3","","52","","","","22","","11","","24.1","","101.28","","","","-22","","NA"
"-61.68","56.55","NAIN A","8502801","2020-12-20 19:00","2020","12","20","19:00","-15.1","","-22.5","","54","","","","28","","16","","24.1","","101.21","","","","-23","","NA"
"-61.68","56.55","NAIN A","8502801","2020-12-20 20:00","2020","12","20","20:00","-14.9","","-22.4","","54","","","","23","","13","","24.1","","101.17","","","","-22","","Mostly Cloudy"
"-61.68","56.55","NAIN A","8502801","2020-12-20 21:00","2020","12","20","21:00"
"-61.68","56.55","NAIN A","8502801","2020-12-20 22:00","2020","12","20","22:00"
"-61.68","56.55","NAIN A","8502801","2020-12-20 23:00","2020","12","20","23:00"
"-61.68","56.55","NAIN A","8502801","2020-12-21 00:00","2020","12","21","00:00"
"-61.68","56.55","NAIN A","8502801","2020-12-21 01:00","2020","12","21","01:00"
"-61.68","56.55","NAIN A","8502801","2020-12-21 02:00","2020","12","21","02:00"
"-61.68","56.55","NAIN A","8502801","2020-12-21 03:00","2020","12","21","03:00"
"-61.68","56.55","NAIN A","8502801","2020-12-21 04:00","2020","12","21","04:00"
"-61.68","56.55","NAIN A","8502801","2020-12-21 05:00","2020","12","21","05:00","-8.7","","-11.7","","79","","","","19","","10","","24.1","","100.49","","","","-14","","Clear"
"-61.68","56.55","NAIN A","8502801","2020-12-21 06:00","2020","12","21","06:00","-7.6","","-10.5","","80","","","","20","","11","","24.1","","100.43","","","","-13","","NA"
"-61.68","56.55","NAIN A","8502801","2020-12-21 07:00","2020","12","21","07:00","-7.7","","-10.3","","82","","","","19","","11","","24.1","","100.36","","","","-13","","NA"
"-61.68","56.55","NAIN A","8502801","2020-12-21 08:00","2020","12","21","08:00","-6.1","","-9.2","","79","","","","22","","5","","24.1","","100.36","","","","-9","","Mostly Cloudy"
"-61.68","56.55","NAIN A","8502801","2020-12-21 09:00","2020","12","21","09:00","-5.6","","-8.1","","83","","","","36","","2","","24.1","","100.31","","","","-7","","NA"
"-61.68","56.55","NAIN A","8502801","2020-12-21 10:00","2020","12","21","10:00","-5.1","","-7.9","","80","","","","8","","10","","24.1","","100.29","","","","-9","","NA"
"-61.68","56.55","NAIN A","8502801","2020-12-21 11:00","2020","12","21","11:00","-4.3","","-7.2","","80","","","","9","","8","","24.1","","100.26","","","","-8","","Cloudy"
"-61.68","56.55","NAIN A","8502801","2020-12-21 12:00","2020","12","21","12:00","-2.7","","-6.9","","73","","","","34","","6","","24.1","","100.18","","","","-5","","NA"
"-61.68","56.55","NAIN A","8502801","2020-12-21 13:00","2020","12","21","13:00","-1.2","","-6.7","","66","","","","26","","8","","24.1","","100.13","","","","-4","","NA"
"-61.68","56.55","NAIN A","8502801","2020-12-21 14:00","2020","12","21","14:00","-1.4","","-6.6","","68","","","","26","","14","","24.1","","100.12","","","","-6","","Cloudy"
"-61.68","56.55","NAIN A","8502801","2020-12-21 15:00","2020","12","21","15:00","-1.3","","-6.5","","68","","","","22","","3","","24.1","","100.15","","","","-2","","NA"
"-61.68","56.55","NAIN A","8502801","2020-12-21 16:00","2020","12","21","16:00","-2.0","","-6.6","","71","","","","8","","8","","24.1","","100.20","","","","-5","","NA"
"-61.68","56.55","NAIN A","8502801","2020-12-21 17:00","2020","12","21","17:00","-2.3","","-6.4","","74","","","","36","","3","","24.1","","100.24","","","","-3","","Mostly Cloudy"
"-61.68","56.55","NAIN A","8502801","2020-12-21 18:00","2020","12","21","18:00","-2.1","","-6.3","","73","","","","25","","15","","24.1","","100.26","","","","-7","","NA"
"-61.68","56.55","NAIN A","8502801","2020-12-21 19:00","2020","12","21","19:00","-1.5","","-5.8","","73","","","","24","","6","","24.1","","100.31","","","","-4","","NA"
"-61.68","56.55","NAIN A","8502801","2020-12-21 20:00","2020","12","21","20:00","-2.1","","-5.7","","76","","","","24","","19","","24.1","","100.34","","","","-8","","Mostly Cloudy"
"-61.68","56.55","NAIN A","8502801","2020-12-21 21:00","2020","12","21","21:00"
"-61.68","56.55","NAIN A","8502801","2020-12-21 22:00","2020","12","21","22:00"
"-61.68","56.55","NAIN A","8502801","2020-12-21 23:00","2020","12","21","23:00"
"-61.68","56.55","NAIN A","8502801","2020-12-22 00:00","2020","12","22","00:00"
"-61.68","56.55","NAIN A","8502801","2020-12-22 01:00","2020","12","22","01:00"
"-61.68","56.55","NAIN A","8502801","2020-12-22 02:00","2020","12","22","02:00"
"-61.68","56.55","NAIN A","8502801","2020-12-22 03:00","2020","12","22","03:00"
"-61.68","56.55","NAIN A","8502801","2020-12-22 04:00","2020","12","22","04:00"
"-61.68","56.55","NAIN A","8502801","2020-12-22 05:00","2020","12","22","05:00","-7.5","","-12.8","","66","","","","29","","20","","24.1","","100.90","","","","-15","","Mainly Clear"
"-61.68","56.55","NAIN A","8502801","2020-12-22 06:00","2020","12","22","06:00","-8.1","","-13.4","","66","","","","30","","27","","24.1","","100.90","","","","-17","","NA"
"-61.68","56.55","NAIN A","8502801","2020-12-22 07:00","2020","12","22","07:00","-9.0","","-14.2","","66","","","","29","","23","","24.1","","100.90","","","","-17","","NA"
"-61.68","56.55","NAIN A","8502801","2020-12-22 08:00","2020","12","22","08:00","-9.1","","-14.1","","67","","","","31","","28","","24.1","","100.89","","","","-18","","Cloudy"
"-61.68","56.55","NAIN A","8502801","2020-12-22 09:00","2020","12","22","09:00","-9.4","","-14.2","","68","","","","31","","26","","24.1","","100.80","","","","-18","","NA"
"-61.68","56.55","NAIN A","8502801","2020-12-22 10:00","2020","12","22","10:00","-9.6","","-13.9","","71","","","","30","","23","","24.1","","100.72","","","","-18","","NA"
"-61.68","56.55","NAIN A","8502801","2020-12-22 11:00","2020","12","22","11:00","-10.0","","-14.3","","71","","","","31","","27","","24.1","","100.65","","","","-19","","Mostly Cloudy"
"-61.68","56.55","NAIN A","8502801","2020-12-22 12:00","2020","12","22","12:00","-10.2","","-14.9","","69","","","","31","","20","","24.1","","100.53","","","","-18","","NA"
"-61.68","56.55","NAIN A","8502801","2020-12-22 13:00","2020","12","22","13:00","-10.5","","-16.5","","62","","","","33","","24","","24.1","","100.39","","","","-19","","NA"
"-61.68","56.55","NAIN A","8502801","2020-12-22 14:00","2020","12","22","14:00","-10.0","","-16.5","","59","","","","31","","34","","24.1","","100.21","","","","-20","","Cloudy"
"-61.68","56.55","NAIN A","8502801","2020-12-22 15:00","2020","12","22","15:00","-9.9","","-15.3","","65","","","","32","","38","","24.1","","100.04","","","","-20","","NA"
"-61.68","56.55","NAIN A","8502801","2020-12-22 16:00","2020","12","22","16:00","-9.7","","-14.3","","69","","","","32","","32","","24.1","","99.84","","","","-19","","NA"
"-61.68","56.55","NAIN A","8502801","2020-12-22 17:00","2020","12","22","17:00","-8.9","","-12.6","","75","","","","32","","47","","24.1","","99.58","","","","-20","","Cloudy"
"-61.68","56.55","NAIN A","8502801","2020-12-22 18:00","2020","12","22","18:00","-8.6","","-11.2","","82","","","","32","","43","","24.1","","99.46","","","","-19","","NA"
"-61.68","56.55","NAIN A","8502801","2020-12-22 19:00","2020","12","22","19:00","-7.2","","-9.4","","84","","","","33","","44","","24.1","","99.23","","","","-17","","NA"
"-61.68","56.55","NAIN A","8502801","2020-12-22 20:00","2020","12","22","20:00","-6.4","","-7.9","","89","","","","33","","49","","9.7","","99.06","","","","-17","","Snow,Blowing Snow"
"-61.68","56.55","NAIN A","8502801","2020-12-22 21:00","2020","12","22","21:00"
"-61.68","56.55","NAIN A","8502801","2020-12-22 22:00","2020","12","22","22:00"
"-61.68","56.55","NAIN A","8502801","2020-12-22 23:00","2020","12","22","23:00"
"-61.68","56.55","NAIN A","8502801","2020-12-23 00:00","2020","12","23","00:00"
"-61.68","56.55","NAIN A","8502801","2020-12-23 01:00","2020","12","23","01:00"
"-61.68","56.55","NAIN A","8502801","2020-12-23 02:00","2020","12","23","02:00"
"-61.68","56.55","NAIN A","8502801","2020-12-23 03:00","2020","12","23","03:00"
"-61.68","56.55","NAIN A","8502801","2020-12-23 04:00","2020","12","23","04:00"
"-61.68","56.55","NAIN A","8502801","2020-12-23 05:00","2020","12","23","05:00","-10.1","","-14.4","","71","","","","30","","80","","8.1","","99.07","","","","-24","","Snow,Blowing Snow"
"-61.68","56.55","NAIN A","8502801","2020-12-23 06:00","2020","12","23","06:00","-11.2","","-15.8","","69","","","","30","","79","","16.1","","99.28","","","","-26","","Snow,Blowing Snow"
"-61.68","56.55","NAIN A","8502801","2020-12-23 07:00","2020","12","23","07:00","-11.7","","-16.6","","68","","","","30","","55","","22.5","","99.50","","","","-25","","Snow Showers,Blowing Snow"
"-61.68","56.55","NAIN A","8502801","2020-12-23 08:00","2020","12","23","08:00","-11.9","","-17.2","","65","","","","30","","79","","24.1","","99.58","","","","-27","","Snow Showers,Blowing Snow"
"-61.68","56.55","NAIN A","8502801","2020-12-23 09:00","2020","12","23","09:00","-12.3","","-17.7","","64","","","","29","","73","","24.1","","99.75","","","","-27","","Blowing Snow"
"-61.68","56.55","NAIN A","8502801","2020-12-23 10:00","2020","12","23","10:00","-12.9","","-18.2","","65","","","","30","","61","","24.1","","99.89","","","","-27","","Blowing Snow"
"-61.68","56.55","NAIN A","8502801","2020-12-23 11:00","2020","12","23","11:00","-13.6","","-19.2","","63","","","","30","","72","","24.1","","99.91","","","","-29","","Mostly Cloudy"
"-61.68","56.55","NAIN A","8502801","2020-12-23 12:00","2020","12","23","12:00","-14.7","","-21.3","","58","","","","28","","52","","24.1","","100.06","","","","-28","","NA"
"-61.68","56.55","NAIN A","8502801","2020-12-23 13:00","2020","12","23","13:00","-15.4","","-21.1","","62","","","","29","","49","","24.1","","100.20","","","","-29","","Blowing Snow"
"-61.68","56.55","NAIN A","8502801","2020-12-23 14:00","2020","12","23","14:00","-16.2","","-21.4","","65","","","","29","","67","","24.1","","100.32","","","","-32","","Blowing Snow"
"-61.68","56.55","NAIN A","8502801","2020-12-23 15:00","2020","12","23","15:00","-16.7","","-22.1","","64","","","","28","","52","","24.1","","100.59","","","","-31","","Blowing Snow"
"-61.68","56.55","NAIN A","8502801","2020-12-23 16:00","2020","12","23","16:00","-16.9","","-22.2","","64","","","","29","","73","","24.1","","100.68","","","","-33","","Blowing Snow"
"-61.68","56.55","NAIN A","8502801","2020-12-23 17:00","2020","12","23","17:00","-17.4","","-22.5","","65","","","","29","","64","","24.1","","100.88","","","","-33","","Mostly Cloudy"
"-61.68","56.55","NAIN A","8502801","2020-12-23 18:00","2020","12","23","18:00","-17.4","","-22.5","","65","","","","29","","47","","24.1","","100.96","","","","-32","","Blowing Snow"
"-61.68","56.55","NAIN A","8502801","2020-12-23 19:00","2020","12","23","19:00","-17.2","","-22.9","","61","","","","28","","35","","24.1","","101.17","","","","-30","","NA"
"-61.68","56.55","NAIN A","8502801","2020-12-23 20:00","2020","12","23","20:00","-16.6","","-22.5","","61","","","","30","","52","","24.1","","101.16","","","","-31","","Mainly Clear"
"-61.68","56.55","NAIN A","8502801","2020-12-23 21:00","2020","12","23","21:00"
"-61.68","56.55","NAIN A","8502801","2020-12-23 22:00","2020","12","23","22:00"
"-61.68","56.55","NAIN A","8502801","2020-12-23 23:00","2020","12","23","23:00"
"-61.68","56.55","NAIN A","8502801","2020-12-24 00:00","2020","12","24","00:00"
"-61.68","56.55","NAIN A","8502801","2020-12-24 01:00","2020","12","24","01:00"
"-61.68","56.55","NAIN A","8502801","2020-12-24 02:00","2020","12","24","02:00"
"-61.68","56.55","NAIN A","8502801","2020-12-24 03:00","2020","12","24","03:00"
"-61.68","56.55","NAIN A","8502801","2020-12-24 04:00","2020","12","24","04:00"
"-61.68","56.55","NAIN A","8502801","2020-12-24 05:00","2020","12","24","05:00","-16.1","","-23.6","","53","","","","25","","10","","24.1","","101.77","","","","-23","","Clear"
"-61.68","56.55","NAIN A","8502801","2020-12-24 06:00","2020","12","24","06:00","-15.9","","-23.2","","54","","","","25","","19","","24.1","","101.76","","","","-25","","NA"
"-61.68","56.55","NAIN A","8502801","2020-12-24 07:00","2020","12","24","07:00","-16.0","","-22.5","","58","","","","27","","26","","24.1","","101.76","","","","-27","","NA"
"-61.68","56.55","NAIN A","8502801","2020-12-24 08:00","2020","12","24","08:00","-15.7","","-22.0","","59","","","","26","","21","","24.1","","101.75","","","","-25","","Mostly Cloudy"
"-61.68","56.55","NAIN A","8502801","2020-12-24 09:00","2020","12","24","09:00","-16.1","","-22.0","","61","","","","24","","21","","24.1","","101.75","","","","-26","","NA"
"-61.68","56.55","NAIN A","8502801","2020-12-24 10:00","2020","12","24","10:00","-16.0","","-21.7","","62","","","","24","","23","","24.1","","101.71","","","","-26","","NA"
"-61.68","56.55","NAIN A","8502801","2020-12-24 11:00","2020","12","24","11:00","-15.2","","-21.1","","61","","","","8","","4","","24.1","","101.67","","","","-18","","Cloudy"
"-61.68","56.55","NAIN A","8502801","2020-12-24 12:00","2020","12","24","12:00","-15.2","","-21.0","","61","","","","21","","21","","24.1","","101.67","","","","-25","","NA"
"-61.68","56.55","NAIN A","8502801","2020-12-24 13:00","2020","12","24","13:00","-15.0","","-21.1","","60","","","","23","","10","","24.1","","101.53","","","","-21","","NA"
"-61.68","56.55","NAIN A","8502801","2020-12-24 14:00","2020","12","24","14:00","-14.6","","-20.5","","62","","","","23","","11","","24.1","","101.67","","","","-21","","Mostly Cloudy"
"-61.68","56.55","NAIN A","8502801","2020-12-24 15:00","2020","12","24","15:00","-15.0","","-20.9","","62","","","","24","","13","","24.1","","101.55","","","","-22","","NA"
"-61.68","56.55","NAIN A","8502801","2020-12-24 16:00","2020","12","24","16:00","-15.3","","-20.7","","64","","","","23","","11","","24.1","","101.55","","","","-22","","NA"
"-61.68","56.55","NAIN A","8502801","2020-12-24 17:00","2020","12","24","17:00","-15.0","","-19.8","","67","","","","22","","22","","24.1","","101.57","","","","-25","","Mainly Clear"
"-61.68","56.55","NAIN A","8502801","2020-12-24 18:00","2020","12","24","18:00","-15.2","","-20.0","","67","","","","21","","13","","24.1","","101.46","","","","-23","","NA"
"-61.68","56.55","NAIN A","8502801","2020-12-24 19:00","2020","12","24","19:00","-14.6","","-19.2","","68","","","","20","","9","","24.1","","101.43","","","","-20","","NA"
"-61.68","56.55","NAIN A","8502801","2020-12-24 20:00","2020","12","24","20:00","-14.9","","-18.0","","78","","","","23","","4","","14.5","","101.32","","","","-18","","Snow"
"-61.68","56.55","NAIN A","8502801","2020-12-24 21:00","2020","12","24","21:00"
"-61.68","56.55","NAIN A","8502801","2020-12-24 22:00","2020","12","24","22:00"
"-61.68","56.55","NAIN A","8502801","2020-12-24 23:00","2020","12","24","23:00"
"-61.68","56.55","NAIN A","8502801","2020-12-25 00:00","2020","12","25","00:00"
"-61.68","56.55","NAIN A","8502801","2020-12-25 01:00","2020","12","25","01:00"
"-61.68","56.55","NAIN A","8502801","2020-12-25 02:00","2020","12","25","02:00"
"-61.68","56.55","NAIN A","8502801","2020-12-25 03:00","2020","12","25","03:00"
"-61.68","56.55","NAIN A","8502801","2020-12-25 04:00","2020","12","25","04:00"
"-61.68","56.55","NAIN A","8502801","2020-12-25 05:00","2020","12","25","05:00","-13.4","","-15.4","","85","","","","30","","12","","20.9","","100.67","","","","-20","","Snow"
"-61.68","56.55","NAIN A","8502801","2020-12-25 06:00","2020","12","25","06:00","-13.3","","-15.4","","84","","","","29","","14","","14.5","","100.66","","","","-21","","Snow"
"-61.68","56.55","NAIN A","8502801","2020-12-25 07:00","2020","12","25","07:00","-12.8","","-14.6","","86","","","","33","","10","","19.3","","100.61","","","","-19","","Snow"
"-61.68","56.55","NAIN A","8502801","2020-12-25 08:00","2020","12","25","08:00","-12.4","","-14.5","","85","","","","28","","14","","12.9","","100.61","","","","-19","","Snow"
"-61.68","56.55","NAIN A","8502801","2020-12-25 09:00","2020","12","25","09:00","-12.1","","-14.3","","84","","","","29","","15","","24.1","","100.56","","","","-19","","Snow"
"-61.68","56.55","NAIN A","8502801","2020-12-25 10:00","2020","12","25","10:00","-11.8","","-13.8","","86","","","","29","","19","","14.5","","100.62","","","","-20","","Snow"
"-61.68","56.55","NAIN A","8502801","2020-12-25 11:00","2020","12","25","11:00","-11.4","","-13.3","","86","","","","29","","21","","24.1","","100.68","","","","-20","","Cloudy"
"-61.68","56.55","NAIN A","8502801","2020-12-25 12:00","2020","12","25","12:00","-11.1","","-13.1","","86","","","","29","","22","","20.9","","100.76","","","","-20","","Snow Showers"
"-61.68","56.55","NAIN A","8502801","2020-12-25 13:00","2020","12","25","13:00","-10.5","","-12.9","","83","","","","31","","17","","24.1","","100.76","","","","-18","","Snow Showers"
"-61.68","56.55","NAIN A","8502801","2020-12-25 14:00","2020","12","25","14:00","-10.1","","-12.5","","83","","","","30","","16","","24.1","","100.85","","","","-17","","Cloudy"
"-61.68","56.55","NAIN A","8502801","2020-12-25 15:00","2020","12","25","15:00","-9.8","","-12.6","","80","","","","31","","10","","24.1","","100.92","","","","-15","","NA"
"-61.68","56.55","NAIN A","8502801","2020-12-25 16:00","2020","12","25","16:00","-9.3","","-12.3","","79","","","","31","","9","","24.1","","101.00","","","","-14","","NA"
"-61.68","56.55","NAIN A","8502801","2020-12-25 17:00","2020","12","25","17:00","-9.3","","-11.8","","82","","","","30","","15","","24.1","","101.04","","","","-16","","Cloudy"
"-61.68","56.55","NAIN A","8502801","2020-12-25 18:00","2020","12","25","18:00","-9.7","","-11.0","","91","","","","35","","11","","2.4","","101.07","","","","-15","","Snow"
"-61.68","56.55","NAIN A","8502801","2020-12-25 19:00","2020","12","25","19:00","-9.0","","-10.1","","91","","","","32","","14","","1.6","","101.08","","","","-15","","Snow"
"-61.68","56.55","NAIN A","8502801","2020-12-25 20:00","2020","12","25","20:00","-8.9","","-9.9","","93","","","","34","","14","","1.6","","101.06","","","","-15","","Snow"
"-61.68","56.55","NAIN A","8502801","2020-12-25 21:00","2020","12","25","21:00"
"-61.68","56.55","NAIN A","8502801","2020-12-25 22:00","2020","12","25","22:00"
"-61.68","56.55","NAIN A","8502801","2020-12-25 23:00","2020","12","25","23:00"
"-61.68","56.55","NAIN A","8502801","2020-12-26 00:00","2020","12","26","00:00"
"-61.68","56.55","NAIN A","8502801","2020-12-26 01:00","2020","12","26","01:00"
"-61.68","56.55","NAIN A","8502801","2020-12-26 02:00","2020","12","26","02:00"
"-61.68","56.55","NAIN A","8502801","2020-12-26 03:00","2020","12","26","03:00"
"-61.68","56.55","NAIN A","8502801","2020-12-26 04:00","2020","12","26","04:00"
"-61.68","56.55","NAIN A","8502801","2020-12-26 05:00","2020","12","26","05:00","-5.2","","-5.7","","96","","","","33","","10","","4.8","","100.92","","","","-10","","Freezing Rain,Snow"
"-61.68","56.55","NAIN A","8502801","2020-12-26 06:00","2020","12","26","06:00","-4.0","","-4.4","","97","","","","30","","9","","4.8","","100.98","","","","-8","","Snow"
"-61.68","56.55","NAIN A","8502801","2020-12-26 07:00","2020","12","26","07:00","-2.7","","-2.7","","100","","","","32","","16","","4.8","","100.92","","","","-8","","Snow"
"-61.68","56.55","NAIN A","8502801","2020-12-26 08:00","2020","12","26","08:00","-1.3","","-1.3","","100","","","","5","","18","","4.8","","100.92","","","","-7","","Freezing Drizzle,Fog"
"-61.68","56.55","NAIN A","8502801","2020-12-26 09:00","2020","12","26","09:00","-0.8","","-0.8","","100","","","","6","","30","","4.8","","100.85","","","","-8","","Freezing Rain,Fog"
"-61.68","56.55","NAIN A","8502801","2020-12-26 10:00","2020","12","26","10:00","-0.4","","-0.4","","100","","","","6","","31","","4.8","","100.80","","","","-7","","Freezing Rain,Fog"
"-61.68","56.55","NAIN A","8502801","2020-12-26 11:00","2020","12","26","11:00","-0.4","","-0.4","","100","","","","7","","27","","4.8","","100.67","","","","-7","","Freezing Rain,Fog"
"-61.68","56.55","NAIN A","8502801","2020-12-26 12:00","2020","12","26","12:00","-0.4","","-0.4","","100","","","","5","","17","","4.8","","100.65","","","","-5","","Freezing Rain,Fog"
"-61.68","56.55","NAIN A","8502801","2020-12-26 13:00","2020","12","26","13:00","-0.3","","-0.3","","100","","","","5","","18","","8.1","","100.51","","","","-5","","Freezing Rain,Fog"
"-61.68","56.55","NAIN A","8502801","2020-12-26 14:00","2020","12","26","14:00","-0.4","","-0.4","","100","","","","8","","14","","16.1","","100.49","","","","-5","","Freezing Rain"
"-61.68","56.55","NAIN A","8502801","2020-12-26 15:00","2020","12","26","15:00","-0.5","","-0.5","","100","","","","10","","5","","14.5","","100.42","","","","-2","","Freezing Rain"
"-61.68","56.55","NAIN A","8502801","2020-12-26 16:00","2020","12","26","16:00","-0.6","","-0.6","","100","","","","7","","11","","6.4","","100.35","","","","-4","","Freezing Rain,Fog"
"-61.68","56.55","NAIN A","8502801","2020-12-26 17:00","2020","12","26","17:00","-0.8","","-0.8","","100","","","","7","","14","","4.8","","100.29","","","","-5","","Freezing Rain,Fog"
"-61.68","56.55","NAIN A","8502801","2020-12-26 18:00","2020","12","26","18:00","-0.8","","-0.8","","100","","","","8","","17","","4.0","","100.19","","","","-6","","Freezing Drizzle,Fog"
"-61.68","56.55","NAIN A","8502801","2020-12-26 19:00","2020","12","26","19:00","-0.9","","-0.9","","100","","","","7","","18","","3.2","","100.15","","","","-6","","Freezing Drizzle,Fog"
"-61.68","56.55","NAIN A","8502801","2020-12-26 20:00","2020","12","26","20:00","-0.6","","-0.6","","100","","","","16","","5","","2.4","","100.04","","","","-2","","Freezing Drizzle,Fog"
"-61.68","56.55","NAIN A","8502801","2020-12-26 21:00","2020","12","26","21:00"
"-61.68","56.55","NAIN A","8502801","2020-12-26 22:00","2020","12","26","22:00"
"-61.68","56.55","NAIN A","8502801","2020-12-26 23:00","2020","12","26","23:00"
"-61.68","56.55","NAIN A","8502801","2020-12-27 00:00","2020","12","27","00:00"
"-61.68","56.55","NAIN A","8502801","2020-12-27 01:00","2020","12","27","01:00"
"-61.68","56.55","NAIN A","8502801","2020-12-27 02:00","2020","12","27","02:00"
"-61.68","56.55","NAIN A","8502801","2020-12-27 03:00","2020","12","27","03:00"
"-61.68","56.55","NAIN A","8502801","2020-12-27 04:00","2020","12","27","04:00"
"-61.68","56.55","NAIN A","8502801","2020-12-27 05:00","2020","12","27","05:00","3.1","","1.4","","89","","","","15","","43","","24.1","","98.85","","","","","","Cloudy"
"-61.68","56.55","NAIN A","8502801","2020-12-27 06:00","2020","12","27","06:00","2.4","","1.5","","94","","","","14","","43","","24.1","","98.68","","","","","","NA"
"-61.68","56.55","NAIN A","8502801","2020-12-27 07:00","2020","12","27","07:00","2.7","","1.8","","94","","","","14","","59","","24.1","","98.54","","","","","","NA"
"-61.68","56.55","NAIN A","8502801","2020-12-27 08:00","2020","12","27","08:00","2.4","","1.8","","96","","","","15","","57","","24.1","","98.50","","","","","","Mostly Cloudy"
"-61.68","56.55","NAIN A","8502801","2020-12-27 09:00","2020","12","27","09:00","2.3","","2.1","","98","","","","16","","43","","24.1","","98.46","","","","","","Rain Showers"
"-61.68","56.55","NAIN A","8502801","2020-12-27 10:00","2020","12","27","10:00","3.6","","0.8","","82","","","","17","","38","","24.1","","98.51","","","","","","NA"
"-61.68","56.55","NAIN A","8502801","2020-12-27 11:00","2020","12","27","11:00","-0.5","","-3.5","","80","","","","27","","61","","24.1","","98.73","","","","-10","","Mostly Cloudy"
"-61.68","56.55","NAIN A","8502801","2020-12-27 12:00","2020","12","27","12:00","-5.2","","-9.5","","72","","","","26","","36","","24.1","","99.09","","","","-14","","NA"
"-61.68","56.55","NAIN A","8502801","2020-12-27 13:00","2020","12","27","13:00","-7.1","","-12.6","","65","","","","26","","49","","24.1","","99.36","","","","-18","","NA"
"-61.68","56.55","NAIN A","8502801","2020-12-27 14:00","2020","12","27","14:00","-8.2","","-14.2","","63","","","","27","","52","","24.1","","99.53","","","","-19","","Mostly Cloudy"
"-61.68","56.55","NAIN A","8502801","2020-12-27 15:00","2020","12","27","15:00","-10.0","","-16.1","","61","","","","27","","41","","24.1","","99.75","","","","-21","","NA"
"-61.68","56.55","NAIN A","8502801","2020-12-27 16:00","2020","12","27","16:00","-10.1","","-16.2","","62","","","","26","","37","","24.1","","99.92","","","","-21","","NA"
"-61.68","56.55","NAIN A","8502801","2020-12-27 17:00","2020","12","27","17:00","-11.1","","-17.0","","62","","","","27","","28","","24.1","","100.11","","","","-21","","Mainly Clear"
"-61.68","56.55","NAIN A","8502801","2020-12-27 18:00","2020","12","27","18:00","-11.6","","-18.0","","59","","","","26","","34","","24.1","","100.26","","","","-22","","NA"
"-61.68","56.55","NAIN A","8502801","2020-12-27 19:00","2020","12","27","19:00","-11.7","","-18.4","","58","","","","28","","39","","24.1","","100.44","","","","-23","","NA"
"-61.68","56.55","NAIN A","8502801","2020-12-27 20:00","2020","12","27","20:00","-12.1","","-19.0","","57","","","","28","","27","","24.1","","100.70","","","","-22","","Mainly Clear"
"-61.68","56.55","NAIN A","8502801","2020-12-27 21:00","2020","12","27","21:00"
"-61.68","56.55","NAIN A","8502801","2020-12-27 22:00","2020","12","27","22:00"
"-61.68","56.55","NAIN A","8502801","2020-12-27 23:00","2020","12","27","23:00"
"-61.68","56.55","NAIN A","8502801","2020-12-28 00:00","2020","12","28","00:00"
"-61.68","56.55","NAIN A","8502801","2020-12-28 01:00","2020","12","28","01:00"
"-61.68","56.55","NAIN A","8502801","2020-12-28 02:00","2020","12","28","02:00"
"-61.68","56.55","NAIN A","8502801","2020-12-28 03:00","2020","12","28","03:00"
"-61.68","56.55","NAIN A","8502801","2020-12-28 04:00","2020","12","28","04:00"
"-61.68","56.55","NAIN A","8502801","2020-12-28 05:00","2020","12","28","05:00","-14.9","","-21.6","","57","","","","26","","39","","24.1","","101.65","","","","-27","","Clear"
"-61.68","56.55","NAIN A","8502801","2020-12-28 06:00","2020","12","28","06:00","-15.2","","-21.8","","57","","","","25","","36","","24.1","","101.68","","","","-27","","NA"
"-61.68","56.55","NAIN A","8502801","2020-12-28 07:00","2020","12","28","07:00","-15.5","","-21.9","","58","","","","26","","26","","24.1","","101.82","","","","-26","","NA"
"-61.68","56.55","NAIN A","8502801","2020-12-28 08:00","2020","12","28","08:00","-16.2","","-22.5","","59","","","","28","","5","","24.1","","101.89","","","","-20","","Mainly Clear"
"-61.68","56.55","NAIN A","8502801","2020-12-28 09:00","2020","12","28","09:00","-15.5","","-22.3","","56","","","","25","","23","","24.1","","101.93","","","","-25","","NA"
"-61.68","56.55","NAIN A","8502801","2020-12-28 10:00","2020","12","28","10:00","-14.9","","-22.2","","54","","","","26","","18","","24.1","","101.97","","","","-24","","NA"
"-61.68","56.55","NAIN A","8502801","2020-12-28 11:00","2020","12","28","11:00","-15.5","","-22.0","","58","","","","28","","12","","24.1","","101.97","","","","-23","","Mostly Cloudy"
"-61.68","56.55","NAIN A","8502801","2020-12-28 12:00","2020","12","28","12:00","-13.8","","-20.8","","56","","","","26","","13","","24.1","","101.95","","","","-21","","NA"
"-61.68","56.55","NAIN A","8502801","2020-12-28 13:00","2020","12","28","13:00","-13.1","","-20.1","","57","","","","26","","12","","24.1","","101.91","","","","-20","","NA"
"-61.68","56.55","NAIN A","8502801","2020-12-28 14:00","2020","12","28","14:00","-12.9","","-19.7","","57","","","","22","","11","","24.1","","101.84","","","","-19","","Mainly Clear"
"-61.68","56.55","NAIN A","8502801","2020-12-28 15:00","2020","12","28","15:00","-12.9","","-19.6","","57","","","","28","","6","","24.1","","101.82","","","","-17","","NA"
"-61.68","56.55","NAIN A","8502801","2020-12-28 16:00","2020","12","28","16:00","-12.8","","-19.6","","57","","","","2","","3","","24.1","","101.83","","","","-15","","NA"
"-61.68","56.55","NAIN A","8502801","2020-12-28 17:00","2020","12","28","17:00","-12.9","","-19.0","","60","","","","20","","4","","24.1","","101.81","","","","-16","","Mainly Clear"
"-61.68","56.55","NAIN A","8502801","2020-12-28 18:00","2020","12","28","18:00","-13.2","","-19.0","","63","","","","20","","4","","24.1","","101.76","","","","-16","","NA"
"-61.68","56.55","NAIN A","8502801","2020-12-28 19:00","2020","12","28","19:00","-13.2","","-18.6","","65","","","","19","","10","","24.1","","101.70","","","","-19","","NA"
"-61.68","56.55","NAIN A","8502801","2020-12-28 20:00","2020","12","28","20:00","-11.7","","-17.1","","65","","","","20","","9","","24.1","","101.61","","","","-17","","Cloudy"
"-61.68","56.55","NAIN A","8502801","2020-12-28 21:00","2020","12","28","21:00"
"-61.68","56.55","NAIN A","8502801","2020-12-28 22:00","2020","12","28","22:00"
"-61.68","56.55","NAIN A","8502801","2020-12-28 23:00","2020","12","28","23:00"
"-61.68","56.55","NAIN A","8502801","2020-12-29 00:00","2020","12","29","00:00"
"-61.68","56.55","NAIN A","8502801","2020-12-29 01:00","2020","12","29","01:00"
"-61.68","56.55","NAIN A","8502801","2020-12-29 02:00","2020","12","29","02:00"
"-61.68","56.55","NAIN A","8502801","2020-12-29 03:00","2020","12","29","03:00"
"-61.68","56.55","NAIN A","8502801","2020-12-29 04:00","2020","12","29","04:00"
"-61.68","56.55","NAIN A","8502801","2020-12-29 05:00","2020","12","29","05:00","-11.3","","-12.5","","91","","","","36","","5","","24.1","","100.83","","","","-14","","Snow Showers"
"-61.68","56.55","NAIN A","8502801","2020-12-29 06:00","2020","12","29","06:00","-10.7","","-11.7","","92","","","","36","","2","","24.1","","100.80","","","","-12","","Snow Showers"
"-61.68","56.55","NAIN A","8502801","2020-12-29 07:00","2020","12","29","07:00","-11.6","","-12.6","","92","","","","3","","3","","20.9","","100.79","","","","-13","","Snow Showers"
"-61.68","56.55","NAIN A","8502801","2020-12-29 08:00","2020","12","29","08:00","-11.7","","-12.7","","92","","","","35","","5","","24.1","","100.75","","","","-15","","Snow Showers"
"-61.68","56.55","NAIN A","8502801","2020-12-29 09:00","2020","12","29","09:00","-11.0","","-12.0","","92","","","","36","","2","","24.1","","100.76","","","","-12","","Snow Showers"
"-61.68","56.55","NAIN A","8502801","2020-12-29 10:00","2020","12","29","10:00","-10.3","","-11.5","","91","","","","36","","2","","24.1","","100.79","","","","-11","","Snow Showers"
"-61.68","56.55","NAIN A","8502801","2020-12-29 11:00","2020","12","29","11:00","-9.4","","-10.9","","88","","","","30","","10","","24.1","","100.75","","","","-15","","Snow Showers"
"-61.68","56.55","NAIN A","8502801","2020-12-29 12:00","2020","12","29","12:00","-9.5","","-11.2","","88","","","","29","","20","","24.1","","100.75","","","","-17","","Snow Showers"
"-61.68","56.55","NAIN A","8502801","2020-12-29 13:00","2020","12","29","13:00","-9.1","","-11.0","","87","","","","30","","10","","24.1","","100.71","","","","-14","","Snow Showers"
"-61.68","56.55","NAIN A","8502801","2020-12-29 14:00","2020","12","29","14:00","-9.4","","-11.6","","84","","","","29","","16","","24.1","","100.71","","","","-16","","Mainly Clear"
"-61.68","56.55","NAIN A","8502801","2020-12-29 15:00","2020","12","29","15:00","-9.9","","-11.7","","87","","","","29","","16","","24.1","","100.75","","","","-17","","NA"
"-61.68","56.55","NAIN A","8502801","2020-12-29 16:00","2020","12","29","16:00","-9.6","","-13.2","","75","","","","28","","16","","24.1","","100.80","","","","-16","","NA"
"-61.68","56.55","NAIN A","8502801","2020-12-29 17:00","2020","12","29","17:00","-9.6","","-12.8","","78","","","","33","","12","","24.1","","100.82","","","","-15","","Cloudy"
"-61.68","56.55","NAIN A","8502801","2020-12-29 18:00","2020","12","29","18:00","-10.4","","-13.9","","76","","","","29","","26","","24.1","","100.79","","","","-19","","NA"
"-61.68","56.55","NAIN A","8502801","2020-12-29 19:00","2020","12","29","19:00","-10.7","","-14.4","","75","","","","28","","33","","24.1","","100.76","","","","-21","","NA"
"-61.68","56.55","NAIN A","8502801","2020-12-29 20:00","2020","12","29","20:00","-10.6","","-14.2","","75","","","","30","","24","","24.1","","100.83","","","","-19","","Cloudy"
"-61.68","56.55","NAIN A","8502801","2020-12-29 21:00","2020","12","29","21:00"
"-61.68","56.55","NAIN A","8502801","2020-12-29 22:00","2020","12","29","22:00"
"-61.68","56.55","NAIN A","8502801","2020-12-29 23:00","2020","12","29","23:00"
"-61.68","56.55","NAIN A","8502801","2020-12-30 00:00","2020","12","30","00:00"
"-61.68","56.55","NAIN A","8502801","2020-12-30 01:00","2020","12","30","01:00"
"-61.68","56.55","NAIN A","8502801","2020-12-30 02:00","2020","12","30","02:00"
"-61.68","56.55","NAIN A","8502801","2020-12-30 03:00","2020","12","30","03:00"
"-61.68","56.55","NAIN A","8502801","2020-12-30 04:00","2020","12","30","04:00"
"-61.68","56.55","NAIN A","8502801","2020-12-30 05:00","2020","12","30","05:00","-11.5","","-17.0","","64","","","","30","","47","","24.1","","100.56","","","","-24","","Snow Showers"
"-61.68","56.55","NAIN A","8502801","2020-12-30 06:00","2020","12","30","06:00","-11.2","","-16.9","","63","","","","30","","39","","24.1","","100.57","","","","-22","","Snow Showers"
"-61.68","56.55","NAIN A","8502801","2020-12-30 07:00","2020","12","30","07:00","-11.4","","-17.0","","63","","","","30","","45","","24.1","","100.57","","","","-23","","Snow Showers"
"-61.68","56.55","NAIN A","8502801","2020-12-30 08:00","2020","12","30","08:00","-11.1","","-16.8","","63","","","","30","","25","","24.1","","100.57","","","","-20","","Snow Showers"
"-61.68","56.55","NAIN A","8502801","2020-12-30 09:00","2020","12","30","09:00","-11.8","","-17.4","","64","","","","30","","32","","24.1","","100.56","","","","-22","","Snow Showers"
"-61.68","56.55","NAIN A","8502801","2020-12-30 10:00","2020","12","30","10:00","-12.8","","-18.3","","63","","","","28","","34","","24.1","","100.56","","","","-24","","Snow Showers"
"-61.68","56.55","NAIN A","8502801","2020-12-30 11:00","2020","12","30","11:00","-12.9","","-17.9","","66","","","","29","","32","","22.5","","100.51","","","","-24","","Snow Showers"
"-61.68","56.55","NAIN A","8502801","2020-12-30 12:00","2020","12","30","12:00","-13.1","","-17.9","","68","","","","28","","35","","24.1","","100.47","","","","-24","","Snow"
"-61.68","56.55","NAIN A","8502801","2020-12-30 13:00","2020","12","30","13:00","-13.7","","-19.2","","64","","","","28","","26","","24.1","","100.43","","","","-24","","Snow Showers"
"-61.68","56.55","NAIN A","8502801","2020-12-30 14:00","2020","12","30","14:00","-13.7","","-19.3","","63","","","","28","","37","","24.1","","100.45","","","","-25","","Mostly Cloudy"
"-61.68","56.55","NAIN A","8502801","2020-12-30 15:00","2020","12","30","15:00","-13.4","","-18.8","","64","","","","29","","27","","24.1","","100.47","","","","-23","","NA"
"-61.68","56.55","NAIN A","8502801","2020-12-30 16:00","2020","12","30","16:00","-13.8","","-19.0","","65","","","","29","","42","","24.1","","100.47","","","","-26","","NA"
"-61.68","56.55","NAIN A","8502801","2020-12-30 17:00","2020","12","30","17:00","-14.5","","-19.7","","65","","","","28","","39","","24.1","","100.48","","","","-27","","Mostly Cloudy"
"-61.68","56.55","NAIN A","8502801","2020-12-30 18:00","2020","12","30","18:00","-14.4","","-20.2","","62","","","","30","","46","","24.1","","100.50","","","","-27","","NA"
"-61.68","56.55","NAIN A","8502801","2020-12-30 19:00","2020","12","30","19:00","-14.3","","-20.2","","61","","","","29","","39","","24.1","","100.49","","","","-26","","NA"
"-61.68","56.55","NAIN A","8502801","2020-12-30 20:00","2020","12","30","20:00","-13.9","","-20.2","","59","","","","29","","48","","24.1","","100.48","","","","-27","","Clear"
"-61.68","56.55","NAIN A","8502801","2020-12-30 21:00","2020","12","30","21:00"
"-61.68","56.55","NAIN A","8502801","2020-12-30 22:00","2020","12","30","22:00"
"-61.68","56.55","NAIN A","8502801","2020-12-30 23:00","2020","12","30","23:00"
"-61.68","56.55","NAIN A","8502801","2020-12-31 00:00","2020","12","31","00:00"
"-61.68","56.55","NAIN A","8502801","2020-12-31 01:00","2020","12","31","01:00"
"-61.68","56.55","NAIN A","8502801","2020-12-31 02:00","2020","12","31","02:00"
"-61.68","56.55","NAIN A","8502801","2020-12-31 03:00","2020","12","31","03:00"
"-61.68","56.55","NAIN A","8502801","2020-12-31 04:00","2020","12","31","04:00"
"-61.68","56.55","NAIN A","8502801","2020-12-31 05:00","2020","12","31","05:00","-13.9","","-20.8","","57","","","","26","","19","","24.1","","100.39","","","","-23","","Mostly Cloudy"
"-61.68","56.55","NAIN A","8502801","2020-12-31 06:00","2020","12","31","06:00","-15.8","","-20.8","","66","","","","20","","13","","24.1","","100.48","","","","-23","","NA"
"-61.68","56.55","NAIN A","8502801","2020-12-31 07:00","2020","12","31","07:00","-16.1","","-21.0","","66","","","","23","","19","","24.1","","100.50","","","","-25","","NA"
"-61.68","56.55","NAIN A","8502801","2020-12-31 08:00","2020","12","31","08:00","-15.3","","-20.8","","63","","","","24","","31","","24.1","","100.48","","","","-27","","Mainly Clear"
"-61.68","56.55","NAIN A","8502801","2020-12-31 09:00","2020","12","31","09:00","-16.1","","-21.1","","65","","","","22","","18","","24.1","","100.54","","","","-25","","NA"
"-61.68","56.55","NAIN A","8502801","2020-12-31 10:00","2020","12","31","10:00","-15.9","","-21.2","","64","","","","22","","19","","24.1","","100.56","","","","-25","","NA"
"-61.68","56.55","NAIN A","8502801","2020-12-31 11:00","2020","12","31","11:00","-15.3","","-20.6","","64","","","","22","","15","","24.1","","100.52","","","","-23","","Mostly Cloudy"
"-61.68","56.55","NAIN A","8502801","2020-12-31 12:00","2020","12","31","12:00","-15.0","","-20.0","","66","","","","18","","8","","24.1","","100.47","","","","-20","","NA"
"-61.68","56.55","NAIN A","8502801","2020-12-31 13:00","2020","12","31","13:00","-14.7","","-19.9","","65","","","","21","","7","","24.1","","100.42","","","","-19","","NA"
"-61.68","56.55","NAIN A","8502801","2020-12-31 14:00","2020","12","31","14:00","-14.4","","-19.8","","65","","","","36","","3","","24.1","","100.37","","","","-17","","Mostly Cloudy"
"-61.68","56.55","NAIN A","8502801","2020-12-31 15:00","2020","12","31","15:00","-14.7","","-19.6","","67","","","","26","","5","","24.1","","100.32","","","","-18","","NA"
"-61.68","56.55","NAIN A","8502801","2020-12-31 16:00","2020","12","31","16:00","-14.4","","-19.1","","68","","","","12","","4","","24.1","","100.40","","","","-17","","NA"
"-61.68","56.55","NAIN A","8502801","2020-12-31 17:00","2020","12","31","17:00","-14.2","","-18.6","","70","","","","30","","5","","24.1","","100.36","","","","-18","","Cloudy"
"-61.68","56.55","NAIN A","8502801","2020-12-31 18:00","2020","12","31","18:00","-14.1","","-19.0","","67","","","","28","","14","","24.1","","100.36","","","","-22","","NA"
"-61.68","56.55","NAIN A","8502801","2020-12-31 19:00","2020","12","31","19:00","-13.7","","-19.1","","65","","","","28","","14","","24.1","","100.40","","","","-21","","NA"
"-61.68","56.55","NAIN A","8502801","2020-12-31 20:00","2020","12","31","20:00","-13.6","","-17.2","","75","","","","28","","17","","9.7","","100.41","","","","-22","","Snow Showers"
"-61.68","56.55","NAIN A","8502801","2020-12-31 21:00","2020","12","31","21:00"
"-61.68","56.55","NAIN A","8502801","2020-12-31 22:00","2020","12","31","22:00"
"-61.68","56.55","NAIN A","8502801","2020-12-31 23:00","2020","12","31","23:00"
