"Longitude (x)","Latitude (y)","Station Name","Climate ID","Date/Time (LST)","Year","Month","Day","Time (LST)","Temp (°C)","Temp Flag","Dew Point Temp (°C)","Dew Point Temp Flag","Rel Hum (%)","Rel Hum Flag","Precip. Amount (mm)","Precip. Amount Flag","Wind Dir (10s deg)","Wind Dir Flag","Wind Spd (km/h)","Wind Spd Flag","Visibility (km)","Visibility Flag","Stn Press (kPa)","Stn Press Flag","Hmdx","Hmdx Flag","Wind Chill","Wind Chill Flag","Weather"
"-61.68","56.55","NAIN A","8502801","2020-02-01 00:00","2020","02","01","00:00"
"-61.68","56.55","NAIN A","8502801","2020-02-01 01:00","2020","02","01","01:00"
"-61.68","56.55","NAIN A","8502801","2020-02-01 02:00","2020","02","01","02:00"
"-61.68","56.55","NAIN A","8502801","2020-02-01 03:00","2020","02","01","03:00"
"-61.68","56.55","NAIN A","8502801","2020-02-01 04:00","2020","02","01","04:00"
"-61.68","56.55","NAIN A","8502801","2020-02-01 05:00","2020","02","01","05:00","-13.3","","-18.0","","68","","","","22","","16","","24.1","","100.86","","","","-21","","Cloudy"
"-61.68","56.55","NAIN A","8502801","2020-02-01 06:00","2020","02","01","06:00","-12.9","","-17.7","","68","","","","18","","18","","24.1","","100.80","","","","-21","","NA"
"-61.68","56.55","NAIN A","8502801","2020-02-01 07:00","2020","02","01","07:00","-12.6","","-17.7","","66","","","","20","","26","","24.1","","100.74","","","","-22","","NA"
"-61.68","56.55","NAIN A","8502801","2020-02-01 08:00","2020","02","01","08:00","-12.6","","-17.4","","68","","","","18","","17","","24.1","","100.69","","","","-20","","Cloudy"
"-61.68","56.55","NAIN A","8502801","2020-02-01 09:00","2020","02","01","09:00","-10.7","","-16.5","","63","","","","27","","14","","24.1","","100.67","","","","-17","","NA"
"-61.68","56.55","NAIN A","8502801","2020-02-01 10:00","2020","02","01","10:00","-10.0","","-16.2","","61","","","","26","","21","","24.1","","100.61","","","","-18","","NA"
"-61.68","56.55","NAIN A","8502801","2020-02-01 11:00","2020","02","01","11:00","-10.5","","-16.4","","63","","","","21","","16","","24.1","","100.59","","","","-18","","Mostly Cloudy"
"-61.68","56.55","NAIN A","8502801","2020-02-01 12:00","2020","02","01","12:00","-9.2","","-15.9","","58","","","","26","","7","","24.1","","100.52","","","","-13","","NA"
"-61.68","56.55","NAIN A","8502801","2020-02-01 13:00","2020","02","01","13:00","-8.2","","-14.8","","59","","","","22","","13","","24.1","","100.45","","","","-14","","NA"
"-61.68","56.55","NAIN A","8502801","2020-02-01 14:00","2020","02","01","14:00","-8.6","","-14.7","","62","","","","17","","17","","24.1","","100.42","","","","-15","","Mostly Cloudy"
"-61.68","56.55","NAIN A","8502801","2020-02-01 15:00","2020","02","01","15:00","-9.2","","-15.2","","62","","","","20","","13","","24.1","","100.38","","","","-15","","NA"
"-61.68","56.55","NAIN A","8502801","2020-02-01 16:00","2020","02","01","16:00","-9.9","","-15.5","","64","","","","18","","5","","24.1","","100.36","","","","-13","","NA"
"-61.68","56.55","NAIN A","8502801","2020-02-01 17:00","2020","02","01","17:00","-10.9","","-15.9","","67","","","","19","","18","","24.1","","100.36","","","","-19","","Mostly Cloudy"
"-61.68","56.55","NAIN A","8502801","2020-02-01 18:00","2020","02","01","18:00","-11.5","","-16.6","","67","","","","9","","4","","24.1","","100.36","","","","-14","","NA"
"-61.68","56.55","NAIN A","8502801","2020-02-01 19:00","2020","02","01","19:00","-11.1","","-16.2","","66","","","","27","","18","","24.1","","100.34","","","","-19","","NA"
"-61.68","56.55","NAIN A","8502801","2020-02-01 20:00","2020","02","01","20:00","-11.5","","-16.5","","67","","","","27","","8","","24.1","","100.32","","","","-16","","Clear"
"-61.68","56.55","NAIN A","8502801","2020-02-01 21:00","2020","02","01","21:00"
"-61.68","56.55","NAIN A","8502801","2020-02-01 22:00","2020","02","01","22:00"
"-61.68","56.55","NAIN A","8502801","2020-02-01 23:00","2020","02","01","23:00"
"-61.68","56.55","NAIN A","8502801","2020-02-02 00:00","2020","02","02","00:00"
"-61.68","56.55","NAIN A","8502801","2020-02-02 01:00","2020","02","02","01:00"
"-61.68","56.55","NAIN A","8502801","2020-02-02 02:00","2020","02","02","02:00"
"-61.68","56.55","NAIN A","8502801","2020-02-02 03:00","2020","02","02","03:00"
"-61.68","56.55","NAIN A","8502801","2020-02-02 04:00","2020","02","02","04:00"
"-61.68","56.55","NAIN A","8502801","2020-02-02 05:00","2020","02","02","05:00"
"-61.68","56.55","NAIN A","8502801","2020-02-02 06:00","2020","02","02","06:00"
"-61.68","56.55","NAIN A","8502801","2020-02-02 07:00","2020","02","02","07:00"
"-61.68","56.55","NAIN A","8502801","2020-02-02 08:00","2020","02","02","08:00","-17.1","","-20.4","","76","","","","14","","5","","24.1","","100.07","","","","-21","","Clear"
"-61.68","56.55","NAIN A","8502801","2020-02-02 09:00","2020","02","02","09:00","-16.1","","-20.3","","71","","","","36","","2","","24.1","","100.07","","","","-18","","NA"
"-61.68","56.55","NAIN A","8502801","2020-02-02 10:00","2020","02","02","10:00","-15.7","","-19.4","","73","","","","36","","2","","24.1","","100.09","","","","-17","","NA"
"-61.68","56.55","NAIN A","8502801","2020-02-02 11:00","2020","02","02","11:00","-14.5","","-19.2","","68","","","","31","","3","","24.1","","100.07","","","","-17","","Clear"
"-61.68","56.55","NAIN A","8502801","2020-02-02 12:00","2020","02","02","12:00","-14.5","","-19.0","","69","","","","16","","4","","24.1","","100.04","","","","-17","","NA"
"-61.68","56.55","NAIN A","8502801","2020-02-02 13:00","2020","02","02","13:00","-14.6","","-19.2","","69","","","","28","","3","","24.1","","99.96","","","","-17","","NA"
"-61.68","56.55","NAIN A","8502801","2020-02-02 14:00","2020","02","02","14:00","-13.7","","-17.9","","71","","","","17","","5","","24.1","","99.95","","","","-17","","Clear"
"-61.68","56.55","NAIN A","8502801","2020-02-02 15:00","2020","02","02","15:00","-13.4","","-19.2","","62","","","","36","","1","","24.1","","99.89","","","","-14","","NA"
"-61.68","56.55","NAIN A","8502801","2020-02-02 16:00","2020","02","02","16:00","-13.7","","-19.1","","64","","","","36","","2","","24.1","","99.86","","","","-15","","NA"
"-61.68","56.55","NAIN A","8502801","2020-02-02 17:00","2020","02","02","17:00","-13.2","","-18.6","","64","","","","36","","1","","24.1","","99.88","","","","-14","","Clear"
"-61.68","56.55","NAIN A","8502801","2020-02-02 18:00","2020","02","02","18:00","-14.7","","-19.5","","67","","","","30","","7","","24.1","","99.87","","","","-19","","NA"
"-61.68","56.55","NAIN A","8502801","2020-02-02 19:00","2020","02","02","19:00","-13.4","","-18.4","","67","","","","28","","6","","24.1","","99.88","","","","-17","","NA"
"-61.68","56.55","NAIN A","8502801","2020-02-02 20:00","2020","02","02","20:00","-15.5","","-19.3","","73","","","","31","","12","","24.1","","99.87","","","","-23","","Mainly Clear"
"-61.68","56.55","NAIN A","8502801","2020-02-02 21:00","2020","02","02","21:00"
"-61.68","56.55","NAIN A","8502801","2020-02-02 22:00","2020","02","02","22:00"
"-61.68","56.55","NAIN A","8502801","2020-02-02 23:00","2020","02","02","23:00"
"-61.68","56.55","NAIN A","8502801","2020-02-03 00:00","2020","02","03","00:00"
"-61.68","56.55","NAIN A","8502801","2020-02-03 01:00","2020","02","03","01:00"
"-61.68","56.55","NAIN A","8502801","2020-02-03 02:00","2020","02","03","02:00"
"-61.68","56.55","NAIN A","8502801","2020-02-03 03:00","2020","02","03","03:00"
"-61.68","56.55","NAIN A","8502801","2020-02-03 04:00","2020","02","03","04:00"
"-61.68","56.55","NAIN A","8502801","2020-02-03 05:00","2020","02","03","05:00","-11.1","","-14.0","","80","","","","31","","25","","8.1","","99.28","","","","-20","","Snow"
"-61.68","56.55","NAIN A","8502801","2020-02-03 06:00","2020","02","03","06:00","-10.6","","-13.8","","78","","","","32","","32","","19.3","","99.21","","","","-21","","Snow"
"-61.68","56.55","NAIN A","8502801","2020-02-03 07:00","2020","02","03","07:00","-9.9","","-13.1","","78","","","","32","","49","","19.3","","99.09","","","","-22","","Snow,Blowing Snow"
"-61.68","56.55","NAIN A","8502801","2020-02-03 08:00","2020","02","03","08:00","-9.4","","-12.4","","79","","","","31","","46","","8.1","","99.06","","","","-21","","Snow,Blowing Snow"
"-61.68","56.55","NAIN A","8502801","2020-02-03 09:00","2020","02","03","09:00","-8.6","","-11.9","","77","","","","31","","52","","24.1","","98.96","","","","-20","","Snow,Blowing Snow"
"-61.68","56.55","NAIN A","8502801","2020-02-03 10:00","2020","02","03","10:00","-7.8","","-10.5","","81","","","","32","","39","","14.5","","98.89","","","","-18","","Snow,Blowing Snow"
"-61.68","56.55","NAIN A","8502801","2020-02-03 11:00","2020","02","03","11:00","-6.9","","-9.6","","81","","","","33","","41","","6.4","","98.82","","","","-17","","Snow,Blowing Snow"
"-61.68","56.55","NAIN A","8502801","2020-02-03 12:00","2020","02","03","12:00","-6.2","","-8.9","","82","","","","31","","46","","16.1","","98.72","","","","-16","","Snow,Blowing Snow"
"-61.68","56.55","NAIN A","8502801","2020-02-03 13:00","2020","02","03","13:00","-6.0","","-8.5","","82","","","","33","","43","","20.9","","98.65","","","","-16","","Snow,Blowing Snow"
"-61.68","56.55","NAIN A","8502801","2020-02-03 14:00","2020","02","03","14:00","-5.9","","-8.1","","84","","","","33","","50","","22.5","","98.61","","","","-16","","Snow,Blowing Snow"
"-61.68","56.55","NAIN A","8502801","2020-02-03 15:00","2020","02","03","15:00","-6.0","","-8.4","","83","","","","33","","48","","24.1","","98.61","","","","-16","","Snow,Blowing Snow"
"-61.68","56.55","NAIN A","8502801","2020-02-03 16:00","2020","02","03","16:00","-6.3","","-9.1","","81","","","","33","","48","","22.5","","98.62","","","","-17","","Snow,Blowing Snow"
"-61.68","56.55","NAIN A","8502801","2020-02-03 17:00","2020","02","03","17:00","-6.8","","-9.2","","83","","","","33","","44","","22.5","","98.68","","","","-17","","Snow,Blowing Snow"
"-61.68","56.55","NAIN A","8502801","2020-02-03 18:00","2020","02","03","18:00","-7.0","","-10.1","","79","","","","33","","44","","22.5","","98.71","","","","-17","","Snow,Blowing Snow"
"-61.68","56.55","NAIN A","8502801","2020-02-03 19:00","2020","02","03","19:00","-7.4","","-12.2","","69","","","","32","","52","","24.1","","98.80","","","","-18","","Snow,Blowing Snow"
"-61.68","56.55","NAIN A","8502801","2020-02-03 20:00","2020","02","03","20:00","-7.2","","-13.1","","63","","","","31","","46","","24.1","","98.81","","","","-18","","Snow,Blowing Snow"
"-61.68","56.55","NAIN A","8502801","2020-02-03 21:00","2020","02","03","21:00"
"-61.68","56.55","NAIN A","8502801","2020-02-03 22:00","2020","02","03","22:00"
"-61.68","56.55","NAIN A","8502801","2020-02-03 23:00","2020","02","03","23:00"
"-61.68","56.55","NAIN A","8502801","2020-02-04 00:00","2020","02","04","00:00"
"-61.68","56.55","NAIN A","8502801","2020-02-04 01:00","2020","02","04","01:00"
"-61.68","56.55","NAIN A","8502801","2020-02-04 02:00","2020","02","04","02:00"
"-61.68","56.55","NAIN A","8502801","2020-02-04 03:00","2020","02","04","03:00"
"-61.68","56.55","NAIN A","8502801","2020-02-04 04:00","2020","02","04","04:00"
"-61.68","56.55","NAIN A","8502801","2020-02-04 05:00","2020","02","04","05:00","-7.9","","-13.6","","64","","","","30","","34","","24.1","","98.88","","","","-17","","Mainly Clear"
"-61.68","56.55","NAIN A","8502801","2020-02-04 06:00","2020","02","04","06:00","-7.9","","-13.5","","65","","","","30","","39","","24.1","","98.92","","","","-18","","NA"
"-61.68","56.55","NAIN A","8502801","2020-02-04 07:00","2020","02","04","07:00","-7.8","","-12.9","","67","","","","29","","27","","24.1","","98.97","","","","-16","","NA"
"-61.68","56.55","NAIN A","8502801","2020-02-04 08:00","2020","02","04","08:00","-8.0","","-13.2","","67","","","","30","","32","","24.1","","98.97","","","","-17","","Mostly Cloudy"
"-61.68","56.55","NAIN A","8502801","2020-02-04 09:00","2020","02","04","09:00","-7.6","","-12.6","","68","","","","30","","23","","24.1","","99.00","","","","-15","","NA"
"-61.68","56.55","NAIN A","8502801","2020-02-04 10:00","2020","02","04","10:00","-7.3","","-12.3","","68","","","","30","","36","","24.1","","98.95","","","","-17","","Snow Showers"
"-61.68","56.55","NAIN A","8502801","2020-02-04 11:00","2020","02","04","11:00","-7.6","","-11.4","","74","","","","29","","23","","9.7","","99.03","","","","-15","","Snow Showers"
"-61.68","56.55","NAIN A","8502801","2020-02-04 12:00","2020","02","04","12:00","-7.8","","-11.4","","75","","","","29","","32","","24.1","","98.96","","","","-17","","Snow Showers"
"-61.68","56.55","NAIN A","8502801","2020-02-04 13:00","2020","02","04","13:00","-8.0","","-11.7","","75","","","","29","","30","","24.1","","98.94","","","","-17","","Snow Showers"
"-61.68","56.55","NAIN A","8502801","2020-02-04 14:00","2020","02","04","14:00","-7.5","","-11.7","","72","","","","29","","23","","24.1","","98.95","","","","-15","","Snow Showers"
"-61.68","56.55","NAIN A","8502801","2020-02-04 15:00","2020","02","04","15:00","-7.2","","-11.8","","70","","","","29","","21","","24.1","","98.96","","","","-15","","Snow Showers"
"-61.68","56.55","NAIN A","8502801","2020-02-04 16:00","2020","02","04","16:00","-7.6","","-11.8","","72","","","","28","","11","","24.1","","98.97","","","","-13","","Snow Showers"
"-61.68","56.55","NAIN A","8502801","2020-02-04 17:00","2020","02","04","17:00","-7.8","","-12.0","","72","","","","29","","10","","24.1","","98.97","","","","-13","","Cloudy"
"-61.68","56.55","NAIN A","8502801","2020-02-04 18:00","2020","02","04","18:00","-8.3","","-12.3","","73","","","","13","","4","","24.1","","98.97","","","","-10","","NA"
"-61.68","56.55","NAIN A","8502801","2020-02-04 19:00","2020","02","04","19:00","-9.1","","-13.5","","71","","","","21","","6","","24.1","","98.95","","","","-12","","NA"
"-61.68","56.55","NAIN A","8502801","2020-02-04 20:00","2020","02","04","20:00","-8.9","","-13.4","","70","","","","26","","15","","24.1","","98.93","","","","-15","","Cloudy"
"-61.68","56.55","NAIN A","8502801","2020-02-04 21:00","2020","02","04","21:00"
"-61.68","56.55","NAIN A","8502801","2020-02-04 22:00","2020","02","04","22:00"
"-61.68","56.55","NAIN A","8502801","2020-02-04 23:00","2020","02","04","23:00"
"-61.68","56.55","NAIN A","8502801","2020-02-05 00:00","2020","02","05","00:00"
"-61.68","56.55","NAIN A","8502801","2020-02-05 01:00","2020","02","05","01:00"
"-61.68","56.55","NAIN A","8502801","2020-02-05 02:00","2020","02","05","02:00"
"-61.68","56.55","NAIN A","8502801","2020-02-05 03:00","2020","02","05","03:00"
"-61.68","56.55","NAIN A","8502801","2020-02-05 04:00","2020","02","05","04:00"
"-61.68","56.55","NAIN A","8502801","2020-02-05 05:00","2020","02","05","05:00","-12.0","","-17.7","","63","","","","29","","32","","24.1","","98.65","","","","-22","","Mostly Cloudy"
"-61.68","56.55","NAIN A","8502801","2020-02-05 06:00","2020","02","05","06:00","-12.2","","-18.4","","60","","","","29","","30","","24.1","","98.66","","","","-22","","NA"
"-61.68","56.55","NAIN A","8502801","2020-02-05 07:00","2020","02","05","07:00","-12.4","","-18.8","","59","","","","30","","40","","24.1","","98.66","","","","-24","","NA"
"-61.68","56.55","NAIN A","8502801","2020-02-05 08:00","2020","02","05","08:00","-12.7","","-18.8","","61","","","","30","","48","","24.1","","98.71","","","","-25","","Cloudy"
"-61.68","56.55","NAIN A","8502801","2020-02-05 09:00","2020","02","05","09:00","-13.0","","-19.3","","59","","","","29","","43","","24.1","","98.73","","","","-25","","NA"
"-61.68","56.55","NAIN A","8502801","2020-02-05 10:00","2020","02","05","10:00","-12.8","","-18.8","","62","","","","30","","52","","24.1","","98.76","","","","-26","","NA"
"-61.68","56.55","NAIN A","8502801","2020-02-05 11:00","2020","02","05","11:00","-12.8","","-18.2","","64","","","","30","","54","","24.1","","98.78","","","","-26","","Cloudy"
"-61.68","56.55","NAIN A","8502801","2020-02-05 12:00","2020","02","05","12:00","-13.2","","-18.3","","66","","","","30","","58","","24.1","","98.74","","","","-27","","Snow Showers"
"-61.68","56.55","NAIN A","8502801","2020-02-05 13:00","2020","02","05","13:00","-13.8","","-18.0","","71","","","","30","","55","","24.1","","98.74","","","","-27","","Snow Showers"
"-61.68","56.55","NAIN A","8502801","2020-02-05 14:00","2020","02","05","14:00","-14.4","","-18.6","","71","","","","29","","53","","24.1","","98.76","","","","-28","","Snow Showers"
"-61.68","56.55","NAIN A","8502801","2020-02-05 15:00","2020","02","05","15:00","-14.9","","-19.9","","66","","","","29","","55","","24.1","","98.84","","","","-29","","NA"
"-61.68","56.55","NAIN A","8502801","2020-02-05 16:00","2020","02","05","16:00","-15.6","","-20.9","","64","","","","29","","63","","24.1","","98.90","","","","-31","","NA"
"-61.68","56.55","NAIN A","8502801","2020-02-05 17:00","2020","02","05","17:00","-16.4","","-21.6","","64","","","","29","","53","","24.1","","98.95","","","","-31","","Cloudy"
"-61.68","56.55","NAIN A","8502801","2020-02-05 18:00","2020","02","05","18:00","-17.0","","-22.8","","62","","","","29","","55","","24.1","","99.04","","","","-32","","NA"
"-61.68","56.55","NAIN A","8502801","2020-02-05 19:00","2020","02","05","19:00","-17.5","","-23.1","","62","","","","28","","43","","24.1","","99.08","","","","-31","","NA"
"-61.68","56.55","NAIN A","8502801","2020-02-05 20:00","2020","02","05","20:00","-17.6","","-23.2","","62","","","","29","","55","","24.1","","99.11","","","","-33","","Cloudy"
"-61.68","56.55","NAIN A","8502801","2020-02-05 21:00","2020","02","05","21:00"
"-61.68","56.55","NAIN A","8502801","2020-02-05 22:00","2020","02","05","22:00"
"-61.68","56.55","NAIN A","8502801","2020-02-05 23:00","2020","02","05","23:00"
"-61.68","56.55","NAIN A","8502801","2020-02-06 00:00","2020","02","06","00:00"
"-61.68","56.55","NAIN A","8502801","2020-02-06 01:00","2020","02","06","01:00"
"-61.68","56.55","NAIN A","8502801","2020-02-06 02:00","2020","02","06","02:00"
"-61.68","56.55","NAIN A","8502801","2020-02-06 03:00","2020","02","06","03:00"
"-61.68","56.55","NAIN A","8502801","2020-02-06 04:00","2020","02","06","04:00"
"-61.68","56.55","NAIN A","8502801","2020-02-06 05:00","2020","02","06","05:00","-20.5","","-25.9","","63","","","","29","","52","","24.1","","99.37","","","","-36","","Mostly Cloudy"
"-61.68","56.55","NAIN A","8502801","2020-02-06 06:00","2020","02","06","06:00","-20.2","","-26.0","","61","","","","29","","50","","24.1","","99.36","","","","-36","","NA"
"-61.68","56.55","NAIN A","8502801","2020-02-06 07:00","2020","02","06","07:00","-19.9","","-25.8","","60","","","","30","","46","","24.1","","99.37","","","","-35","","NA"
"-61.68","56.55","NAIN A","8502801","2020-02-06 08:00","2020","02","06","08:00","-19.5","","-25.8","","58","","","","27","","14","","24.1","","99.43","","","","-28","","Mainly Clear"
"-61.68","56.55","NAIN A","8502801","2020-02-06 09:00","2020","02","06","09:00","-18.9","","-25.6","","56","","","","31","","14","","24.1","","99.46","","","","-27","","NA"
"-61.68","56.55","NAIN A","8502801","2020-02-06 10:00","2020","02","06","10:00","-18.9","","-25.9","","55","","","","23","","12","","24.1","","99.42","","","","-27","","NA"
"-61.68","56.55","NAIN A","8502801","2020-02-06 11:00","2020","02","06","11:00","-19.3","","-27.1","","51","","","","27","","8","","24.1","","99.45","","","","-25","","Mainly Clear"
"-61.68","56.55","NAIN A","8502801","2020-02-06 12:00","2020","02","06","12:00","-18.8","","-27.3","","48","","","","22","","17","","24.1","","99.44","","","","-28","","NA"
"-61.68","56.55","NAIN A","8502801","2020-02-06 13:00","2020","02","06","13:00","-18.3","","-27.1","","47","","","","26","","22","","24.1","","99.41","","","","-29","","NA"
"-61.68","56.55","NAIN A","8502801","2020-02-06 14:00","2020","02","06","14:00","-18.2","","-27.7","","44","","","","27","","27","","24.1","","99.43","","","","-30","","Mainly Clear"
"-61.68","56.55","NAIN A","8502801","2020-02-06 15:00","2020","02","06","15:00","-18.5","","-26.8","","49","","","","24","","14","","24.1","","99.51","","","","-27","","NA"
"-61.68","56.55","NAIN A","8502801","2020-02-06 16:00","2020","02","06","16:00","-20.0","","-27.1","","54","","","","24","","14","","24.1","","99.55","","","","-29","","NA"
"-61.68","56.55","NAIN A","8502801","2020-02-06 17:00","2020","02","06","17:00","-19.8","","-26.8","","54","","","","27","","23","","24.1","","99.61","","","","-31","","Mainly Clear"
"-61.68","56.55","NAIN A","8502801","2020-02-06 18:00","2020","02","06","18:00","-19.9","","-26.7","","55","","","","27","","20","","24.1","","99.68","","","","-30","","NA"
"-61.68","56.55","NAIN A","8502801","2020-02-06 19:00","2020","02","06","19:00","-19.9","","-26.9","","55","","","","29","","41","","24.1","","99.70","","","","-34","","NA"
"-61.68","56.55","NAIN A","8502801","2020-02-06 20:00","2020","02","06","20:00","-20.0","","-26.7","","56","","","","28","","37","","24.1","","99.80","","","","-34","","Mostly Cloudy"
"-61.68","56.55","NAIN A","8502801","2020-02-06 21:00","2020","02","06","21:00"
"-61.68","56.55","NAIN A","8502801","2020-02-06 22:00","2020","02","06","22:00"
"-61.68","56.55","NAIN A","8502801","2020-02-06 23:00","2020","02","06","23:00"
"-61.68","56.55","NAIN A","8502801","2020-02-07 00:00","2020","02","07","00:00"
"-61.68","56.55","NAIN A","8502801","2020-02-07 01:00","2020","02","07","01:00"
"-61.68","56.55","NAIN A","8502801","2020-02-07 02:00","2020","02","07","02:00"
"-61.68","56.55","NAIN A","8502801","2020-02-07 03:00","2020","02","07","03:00"
"-61.68","56.55","NAIN A","8502801","2020-02-07 04:00","2020","02","07","04:00"
"-61.68","56.55","NAIN A","8502801","2020-02-07 05:00","2020","02","07","05:00","-21.1","","-27.5","","57","","","","30","","35","","24.1","","100.23","","","","-35","","Clear"
"-61.68","56.55","NAIN A","8502801","2020-02-07 06:00","2020","02","07","06:00","-21.5","","-27.9","","57","","","","30","","32","","24.1","","100.25","","","","-35","","NA"
"-61.68","56.55","NAIN A","8502801","2020-02-07 07:00","2020","02","07","07:00","-21.7","","-28.4","","56","","","","30","","45","","24.1","","100.30","","","","-37","","NA"
"-61.68","56.55","NAIN A","8502801","2020-02-07 08:00","2020","02","07","08:00","-21.6","","-28.5","","55","","","","29","","40","","24.1","","100.31","","","","-36","","Clear"
"-61.68","56.55","NAIN A","8502801","2020-02-07 09:00","2020","02","07","09:00","-21.5","","-28.2","","55","","","","29","","27","","24.1","","100.33","","","","-34","","NA"
"-61.68","56.55","NAIN A","8502801","2020-02-07 10:00","2020","02","07","10:00","-21.0","","-28.3","","53","","","","29","","50","","24.1","","100.32","","","","-37","","NA"
"-61.68","56.55","NAIN A","8502801","2020-02-07 11:00","2020","02","07","11:00","-21.5","","-28.9","","52","","","","29","","34","","24.1","","100.37","","","","-35","","Clear"
"-61.68","56.55","NAIN A","8502801","2020-02-07 12:00","2020","02","07","12:00","-20.8","","-28.3","","52","","","","29","","36","","24.1","","100.33","","","","-35","","NA"
"-61.68","56.55","NAIN A","8502801","2020-02-07 13:00","2020","02","07","13:00","-20.2","","-28.2","","49","","","","25","","27","","24.1","","100.29","","","","-32","","NA"
"-61.68","56.55","NAIN A","8502801","2020-02-07 14:00","2020","02","07","14:00","-20.2","","-28.4","","49","","","","27","","22","","24.1","","100.28","","","","-31","","Mostly Cloudy"
"-61.68","56.55","NAIN A","8502801","2020-02-07 15:00","2020","02","07","15:00","-20.6","","-28.3","","51","","","","29","","39","","24.1","","100.26","","","","-35","","NA"
"-61.68","56.55","NAIN A","8502801","2020-02-07 16:00","2020","02","07","16:00","-21.3","","-28.4","","54","","","","29","","37","","24.1","","100.25","","","","-35","","NA"
"-61.68","56.55","NAIN A","8502801","2020-02-07 17:00","2020","02","07","17:00","-22.1","","-29.1","","54","","","","29","","28","","24.1","","100.24","","","","-35","","Clear"
"-61.68","56.55","NAIN A","8502801","2020-02-07 18:00","2020","02","07","18:00","-22.4","","-29.5","","54","","","","27","","34","","24.1","","100.16","","","","-36","","NA"
"-61.68","56.55","NAIN A","8502801","2020-02-07 19:00","2020","02","07","19:00","-22.8","","-30.1","","52","","","","28","","26","","24.1","","100.11","","","","-35","","NA"
"-61.68","56.55","NAIN A","8502801","2020-02-07 20:00","2020","02","07","20:00","-23.1","","-29.9","","55","","","","26","","4","","24.1","","100.15","","","","-27","","Mainly Clear"
"-61.68","56.55","NAIN A","8502801","2020-02-07 21:00","2020","02","07","21:00"
"-61.68","56.55","NAIN A","8502801","2020-02-07 22:00","2020","02","07","22:00"
"-61.68","56.55","NAIN A","8502801","2020-02-07 23:00","2020","02","07","23:00"
"-61.68","56.55","NAIN A","8502801","2020-02-08 00:00","2020","02","08","00:00"
"-61.68","56.55","NAIN A","8502801","2020-02-08 01:00","2020","02","08","01:00"
"-61.68","56.55","NAIN A","8502801","2020-02-08 02:00","2020","02","08","02:00"
"-61.68","56.55","NAIN A","8502801","2020-02-08 03:00","2020","02","08","03:00"
"-61.68","56.55","NAIN A","8502801","2020-02-08 04:00","2020","02","08","04:00"
"-61.68","56.55","NAIN A","8502801","2020-02-08 05:00","2020","02","08","05:00","-24.2","","-30.3","","58","","","","31","","4","","24.1","","99.67","","","","-28","","Mostly Cloudy"
"-61.68","56.55","NAIN A","8502801","2020-02-08 06:00","2020","02","08","06:00","-25.0","","-30.2","","63","","","","36","","1","","24.1","","99.66","","","","-26","","NA"
"-61.68","56.55","NAIN A","8502801","2020-02-08 07:00","2020","02","08","07:00","-26.3","","-31.2","","64","","","","36","","2","","24.1","","99.64","","","","-28","","NA"
"-61.68","56.55","NAIN A","8502801","2020-02-08 08:00","2020","02","08","08:00","-26.0","","-30.7","","65","","","","19","","7","","24.1","","99.66","","","","-33","","Clear"
"-61.68","56.55","NAIN A","8502801","2020-02-08 09:00","2020","02","08","09:00","-25.3","","-30.0","","66","","","","18","","8","","24.1","","99.65","","","","-32","","NA"
"-61.68","56.55","NAIN A","8502801","2020-02-08 10:00","2020","02","08","10:00","-23.9","","-29.4","","61","","","","14","","4","","24.1","","99.67","","","","-28","","NA"
"-61.68","56.55","NAIN A","8502801","2020-02-08 11:00","2020","02","08","11:00","-22.9","","-28.3","","62","","","","13","","3","","24.1","","99.68","","","","-26","","Clear"
"-61.68","56.55","NAIN A","8502801","2020-02-08 12:00","2020","02","08","12:00","-21.4","","-27.5","","59","","","","11","","7","","24.1","","99.69","","","","-27","","NA"
"-61.68","56.55","NAIN A","8502801","2020-02-08 13:00","2020","02","08","13:00","-20.0","","-26.6","","56","","","","6","","7","","24.1","","99.67","","","","-26","","NA"
"-61.68","56.55","NAIN A","8502801","2020-02-08 14:00","2020","02","08","14:00","-18.9","","-26.3","","53","","","","10","","4","","24.1","","99.70","","","","-22","","Clear"
"-61.68","56.55","NAIN A","8502801","2020-02-08 15:00","2020","02","08","15:00","-17.7","","-27.5","","43","","","","1","","3","","24.1","","99.76","","","","-20","","NA"
"-61.68","56.55","NAIN A","8502801","2020-02-08 16:00","2020","02","08","16:00","-18.2","","-27.3","","46","","","","29","","15","","24.1","","99.83","","","","-27","","NA"
"-61.68","56.55","NAIN A","8502801","2020-02-08 17:00","2020","02","08","17:00","-19.2","","-27.5","","49","","","","21","","15","","24.1","","99.93","","","","-28","","Clear"
"-61.68","56.55","NAIN A","8502801","2020-02-08 18:00","2020","02","08","18:00","-19.4","","-29.3","","42","","","","23","","6","","24.1","","100.00","","","","-24","","NA"
"-61.68","56.55","NAIN A","8502801","2020-02-08 19:00","2020","02","08","19:00","-17.8","","-30.0","","35","","","","28","","32","","24.1","","100.07","","","","-30","","NA"
"-61.68","56.55","NAIN A","8502801","2020-02-08 20:00","2020","02","08","20:00","-21.8","","-31.4","","42","","","","19","","19","","24.1","","100.17","","","","-32","","Clear"
"-61.68","56.55","NAIN A","8502801","2020-02-08 21:00","2020","02","08","21:00"
"-61.68","56.55","NAIN A","8502801","2020-02-08 22:00","2020","02","08","22:00"
"-61.68","56.55","NAIN A","8502801","2020-02-08 23:00","2020","02","08","23:00"
"-61.68","56.55","NAIN A","8502801","2020-02-09 00:00","2020","02","09","00:00"
"-61.68","56.55","NAIN A","8502801","2020-02-09 01:00","2020","02","09","01:00"
"-61.68","56.55","NAIN A","8502801","2020-02-09 02:00","2020","02","09","02:00"
"-61.68","56.55","NAIN A","8502801","2020-02-09 03:00","2020","02","09","03:00"
"-61.68","56.55","NAIN A","8502801","2020-02-09 04:00","2020","02","09","04:00"
"-61.68","56.55","NAIN A","8502801","2020-02-09 05:00","2020","02","09","05:00","-22.3","","-28.8","","56","","","","28","","28","","24.1","","100.63","","","","-35","","Mostly Cloudy"
"-61.68","56.55","NAIN A","8502801","2020-02-09 06:00","2020","02","09","06:00","-22.0","","-28.9","","55","","","","27","","23","","24.1","","100.66","","","","-34","","NA"
"-61.68","56.55","NAIN A","8502801","2020-02-09 07:00","2020","02","09","07:00","-22.5","","-29.7","","53","","","","25","","22","","24.1","","100.68","","","","-34","","NA"
"-61.68","56.55","NAIN A","8502801","2020-02-09 08:00","2020","02","09","08:00","-23.2","","-30.2","","53","","","","25","","17","","24.1","","100.70","","","","-34","","Clear"
"-61.68","56.55","NAIN A","8502801","2020-02-09 09:00","2020","02","09","09:00","-22.4","","-29.6","","53","","","","28","","26","","24.1","","100.71","","","","-35","","NA"
"-61.68","56.55","NAIN A","8502801","2020-02-09 10:00","2020","02","09","10:00","-22.2","","-29.3","","53","","","","27","","31","","24.1","","100.71","","","","-36","","NA"
"-61.68","56.55","NAIN A","8502801","2020-02-09 11:00","2020","02","09","11:00","-21.5","","-28.8","","52","","","","24","","24","","24.1","","100.80","","","","-33","","Clear"
"-61.68","56.55","NAIN A","8502801","2020-02-09 12:00","2020","02","09","12:00","-21.1","","-28.8","","51","","","","26","","37","","24.1","","100.75","","","","-35","","NA"
"-61.68","56.55","NAIN A","8502801","2020-02-09 13:00","2020","02","09","13:00","-20.8","","-28.6","","51","","","","27","","37","","24.1","","100.66","","","","-35","","NA"
"-61.68","56.55","NAIN A","8502801","2020-02-09 14:00","2020","02","09","14:00","-20.5","","-28.1","","51","","","","27","","41","","24.1","","100.71","","","","-35","","Clear"
"-61.68","56.55","NAIN A","8502801","2020-02-09 15:00","2020","02","09","15:00","-20.2","","-27.4","","54","","","","27","","38","","24.1","","100.76","","","","-34","","NA"
"-61.68","56.55","NAIN A","8502801","2020-02-09 16:00","2020","02","09","16:00","-19.9","","-26.9","","54","","","","27","","22","","24.1","","100.79","","","","-31","","NA"
"-61.68","56.55","NAIN A","8502801","2020-02-09 17:00","2020","02","09","17:00","-19.8","","-27.0","","54","","","","26","","18","","24.1","","100.88","","","","-30","","Mostly Cloudy"
"-61.68","56.55","NAIN A","8502801","2020-02-09 18:00","2020","02","09","18:00","-19.1","","-26.3","","53","","","","27","","33","","24.1","","100.90","","","","-32","","NA"
"-61.68","56.55","NAIN A","8502801","2020-02-09 19:00","2020","02","09","19:00","-18.2","","-25.9","","52","","","","25","","39","","24.1","","100.87","","","","-32","","NA"
"-61.68","56.55","NAIN A","8502801","2020-02-09 20:00","2020","02","09","20:00","-18.6","","-25.9","","54","","","","26","","22","","24.1","","100.85","","","","-29","","Mostly Cloudy"
"-61.68","56.55","NAIN A","8502801","2020-02-09 21:00","2020","02","09","21:00"
"-61.68","56.55","NAIN A","8502801","2020-02-09 22:00","2020","02","09","22:00"
"-61.68","56.55","NAIN A","8502801","2020-02-09 23:00","2020","02","09","23:00"
"-61.68","56.55","NAIN A","8502801","2020-02-10 00:00","2020","02","10","00:00"
"-61.68","56.55","NAIN A","8502801","2020-02-10 01:00","2020","02","10","01:00"
"-61.68","56.55","NAIN A","8502801","2020-02-10 02:00","2020","02","10","02:00"
"-61.68","56.55","NAIN A","8502801","2020-02-10 03:00","2020","02","10","03:00"
"-61.68","56.55","NAIN A","8502801","2020-02-10 04:00","2020","02","10","04:00"
"-61.68","56.55","NAIN A","8502801","2020-02-10 05:00","2020","02","10","05:00","-18.0","","-22.7","","67","","","","24","","7","","24.1","","100.81","","","","-23","","Mainly Clear"
"-61.68","56.55","NAIN A","8502801","2020-02-10 06:00","2020","02","10","06:00","-18.2","","-24.4","","59","","","","25","","15","","24.1","","100.81","","","","-27","","NA"
"-61.68","56.55","NAIN A","8502801","2020-02-10 07:00","2020","02","10","07:00","-18.4","","-25.1","","56","","","","27","","30","","24.1","","100.84","","","","-30","","NA"
"-61.68","56.55","NAIN A","8502801","2020-02-10 08:00","2020","02","10","08:00","-19.2","","-26.0","","56","","","","26","","28","","24.1","","100.91","","","","-31","","Mainly Clear"
"-61.68","56.55","NAIN A","8502801","2020-02-10 09:00","2020","02","10","09:00","-19.4","","-26.3","","55","","","","26","","21","","24.1","","100.95","","","","-30","","NA"
"-61.68","56.55","NAIN A","8502801","2020-02-10 10:00","2020","02","10","10:00","-19.4","","-26.7","","53","","","","26","","31","","24.1","","100.99","","","","-32","","NA"
"-61.68","56.55","NAIN A","8502801","2020-02-10 11:00","2020","02","10","11:00","-19.6","","-26.7","","54","","","","28","","33","","24.1","","101.01","","","","-33","","Mostly Cloudy"
"-61.68","56.55","NAIN A","8502801","2020-02-10 12:00","2020","02","10","12:00","-19.4","","-27.4","","50","","","","27","","40","","24.1","","101.02","","","","-33","","NA"
"-61.68","56.55","NAIN A","8502801","2020-02-10 13:00","2020","02","10","13:00","-19.3","","-27.5","","49","","","","27","","39","","24.1","","101.00","","","","-33","","NA"
"-61.68","56.55","NAIN A","8502801","2020-02-10 14:00","2020","02","10","14:00","-19.4","","-27.1","","51","","","","27","","42","","24.1","","101.02","","","","-34","","Mostly Cloudy"
"-61.68","56.55","NAIN A","8502801","2020-02-10 15:00","2020","02","10","15:00","-19.7","","-27.6","","50","","","","27","","34","","24.1","","101.03","","","","-33","","NA"
"-61.68","56.55","NAIN A","8502801","2020-02-10 16:00","2020","02","10","16:00","-19.9","","-27.3","","53","","","","27","","36","","24.1","","101.10","","","","-33","","NA"
"-61.68","56.55","NAIN A","8502801","2020-02-10 17:00","2020","02","10","17:00","-19.8","","-26.7","","55","","","","27","","36","","24.1","","101.13","","","","-33","","Mainly Clear"
"-61.68","56.55","NAIN A","8502801","2020-02-10 18:00","2020","02","10","18:00","-20.1","","-26.6","","57","","","","26","","12","","24.1","","101.18","","","","-28","","NA"
"-61.68","56.55","NAIN A","8502801","2020-02-10 19:00","2020","02","10","19:00","-20.9","","-27.4","","57","","","","21","","9","","24.1","","101.18","","","","-28","","NA"
"-61.68","56.55","NAIN A","8502801","2020-02-10 20:00","2020","02","10","20:00","-20.8","","-26.8","","59","","","","5","","5","","24.1","","101.19","","","","-25","","Mostly Cloudy"
"-61.68","56.55","NAIN A","8502801","2020-02-10 21:00","2020","02","10","21:00"
"-61.68","56.55","NAIN A","8502801","2020-02-10 22:00","2020","02","10","22:00"
"-61.68","56.55","NAIN A","8502801","2020-02-10 23:00","2020","02","10","23:00"
"-61.68","56.55","NAIN A","8502801","2020-02-11 00:00","2020","02","11","00:00"
"-61.68","56.55","NAIN A","8502801","2020-02-11 01:00","2020","02","11","01:00"
"-61.68","56.55","NAIN A","8502801","2020-02-11 02:00","2020","02","11","02:00"
"-61.68","56.55","NAIN A","8502801","2020-02-11 03:00","2020","02","11","03:00"
"-61.68","56.55","NAIN A","8502801","2020-02-11 04:00","2020","02","11","04:00"
"-61.68","56.55","NAIN A","8502801","2020-02-11 05:00","2020","02","11","05:00","-22.9","","-28.5","","61","","","","2","","4","","24.1","","101.02","","","","-27","","Mainly Clear"
"-61.68","56.55","NAIN A","8502801","2020-02-11 06:00","2020","02","11","06:00","-23.5","","-28.7","","63","","","","21","","8","","24.1","","101.04","","","","-30","","NA"
"-61.68","56.55","NAIN A","8502801","2020-02-11 07:00","2020","02","11","07:00","-24.7","","-29.5","","65","","","","13","","4","","24.1","","101.01","","","","-29","","NA"
"-61.68","56.55","NAIN A","8502801","2020-02-11 08:00","2020","02","11","08:00","-22.1","","-28.2","","59","","","","26","","12","","24.1","","100.98","","","","-31","","Mostly Cloudy"
"-61.68","56.55","NAIN A","8502801","2020-02-11 09:00","2020","02","11","09:00","-22.0","","-28.1","","59","","","","25","","5","","24.1","","101.01","","","","-27","","NA"
"-61.68","56.55","NAIN A","8502801","2020-02-11 10:00","2020","02","11","10:00","-21.1","","-27.8","","55","","","","22","","8","","24.1","","100.95","","","","-28","","NA"
"-61.68","56.55","NAIN A","8502801","2020-02-11 11:00","2020","02","11","11:00","-20.8","","-27.4","","56","","","","36","","3","","24.1","","100.89","","","","-23","","Mainly Clear"
"-61.68","56.55","NAIN A","8502801","2020-02-11 12:00","2020","02","11","12:00","-19.3","","-26.4","","54","","","","26","","18","","24.1","","100.83","","","","-29","","NA"
"-61.68","56.55","NAIN A","8502801","2020-02-11 13:00","2020","02","11","13:00","-18.6","","-25.9","","54","","","","26","","11","","24.1","","100.75","","","","-26","","NA"
"-61.68","56.55","NAIN A","8502801","2020-02-11 14:00","2020","02","11","14:00","-18.8","","-25.9","","55","","","","28","","10","","24.1","","100.70","","","","-26","","Clear"
"-61.68","56.55","NAIN A","8502801","2020-02-11 15:00","2020","02","11","15:00","-18.4","","-25.2","","56","","","","25","","8","","24.1","","100.62","","","","-24","","NA"
"-61.68","56.55","NAIN A","8502801","2020-02-11 16:00","2020","02","11","16:00","-18.3","","-24.6","","58","","","","23","","9","","24.1","","100.61","","","","-25","","NA"
"-61.68","56.55","NAIN A","8502801","2020-02-11 17:00","2020","02","11","17:00","-18.7","","-24.5","","61","","","","22","","3","","24.1","","100.58","","","","-21","","Clear"
"-61.68","56.55","NAIN A","8502801","2020-02-11 18:00","2020","02","11","18:00","-19.5","","-24.8","","63","","","","0","","1","","24.1","","100.56","","","","-20","","NA"
"-61.68","56.55","NAIN A","8502801","2020-02-11 19:00","2020","02","11","19:00","-20.6","","-25.3","","67","","","","10","","4","","24.1","","100.50","","","","-24","","NA"
"-61.68","56.55","NAIN A","8502801","2020-02-11 20:00","2020","02","11","20:00","-21.3","","-26.0","","67","","","","36","","2","","24.1","","100.40","","","","-23","","Mostly Cloudy"
"-61.68","56.55","NAIN A","8502801","2020-02-11 21:00","2020","02","11","21:00"
"-61.68","56.55","NAIN A","8502801","2020-02-11 22:00","2020","02","11","22:00"
"-61.68","56.55","NAIN A","8502801","2020-02-11 23:00","2020","02","11","23:00"
"-61.68","56.55","NAIN A","8502801","2020-02-12 00:00","2020","02","12","00:00"
"-61.68","56.55","NAIN A","8502801","2020-02-12 01:00","2020","02","12","01:00"
"-61.68","56.55","NAIN A","8502801","2020-02-12 02:00","2020","02","12","02:00"
"-61.68","56.55","NAIN A","8502801","2020-02-12 03:00","2020","02","12","03:00"
"-61.68","56.55","NAIN A","8502801","2020-02-12 04:00","2020","02","12","04:00"
"-61.68","56.55","NAIN A","8502801","2020-02-12 05:00","2020","02","12","05:00","-20.1","","-22.8","","79","","","","8","","3","","24.1","","99.50","","","","-23","","Mostly Cloudy"
"-61.68","56.55","NAIN A","8502801","2020-02-12 06:00","2020","02","12","06:00","-19.9","","-22.4","","81","","","","36","","1","","24.1","","99.45","","","","-21","","NA"
"-61.68","56.55","NAIN A","8502801","2020-02-12 07:00","2020","02","12","07:00","-20.4","","-22.9","","81","","","","29","","4","","24.1","","99.42","","","","-24","","NA"
"-61.68","56.55","NAIN A","8502801","2020-02-12 08:00","2020","02","12","08:00","-20.1","","-22.6","","81","","","","36","","2","","24.1","","99.41","","","","-22","","Mainly Clear"
"-61.68","56.55","NAIN A","8502801","2020-02-12 09:00","2020","02","12","09:00","-20.2","","-22.7","","81","","","","36","","4","","24.1","","99.38","","","","-24","","NA"
"-61.68","56.55","NAIN A","8502801","2020-02-12 10:00","2020","02","12","10:00","-12.4","","-16.4","","72","","","","26","","30","","24.1","","99.41","","","","-23","","NA"
"-61.68","56.55","NAIN A","8502801","2020-02-12 11:00","2020","02","12","11:00","-13.3","","-19.4","","61","","","","27","","30","","24.1","","99.46","","","","-24","","Mainly Clear"
"-61.68","56.55","NAIN A","8502801","2020-02-12 12:00","2020","02","12","12:00","-14.3","","-21.3","","56","","","","27","","44","","24.1","","99.50","","","","-27","","NA"
"-61.68","56.55","NAIN A","8502801","2020-02-12 13:00","2020","02","12","13:00","-14.8","","-22.1","","55","","","","27","","39","","24.1","","99.50","","","","-27","","NA"
"-61.68","56.55","NAIN A","8502801","2020-02-12 14:00","2020","02","12","14:00","-15.2","","-22.4","","54","","","","29","","28","","24.1","","99.57","","","","-26","","Clear"
"-61.68","56.55","NAIN A","8502801","2020-02-12 15:00","2020","02","12","15:00","-15.6","","-22.5","","56","","","","29","","20","","24.1","","99.58","","","","-25","","NA"
"-61.68","56.55","NAIN A","8502801","2020-02-12 16:00","2020","02","12","16:00","-16.1","","-23.8","","52","","","","26","","34","","24.1","","99.56","","","","-28","","NA"
"-61.68","56.55","NAIN A","8502801","2020-02-12 17:00","2020","02","12","17:00","-17.1","","-24.4","","53","","","","27","","14","","24.1","","99.59","","","","-25","","Mainly Clear"
"-61.68","56.55","NAIN A","8502801","2020-02-12 18:00","2020","02","12","18:00","-16.7","","-24.0","","54","","","","27","","15","","24.1","","99.64","","","","-25","","NA"
"-61.68","56.55","NAIN A","8502801","2020-02-12 19:00","2020","02","12","19:00","-16.7","","-23.6","","56","","","","29","","22","","24.1","","99.61","","","","-27","","NA"
"-61.68","56.55","NAIN A","8502801","2020-02-12 20:00","2020","02","12","20:00","-16.7","","-23.2","","58","","","","29","","16","","24.1","","99.58","","","","-25","","Cloudy"
"-61.68","56.55","NAIN A","8502801","2020-02-12 21:00","2020","02","12","21:00"
"-61.68","56.55","NAIN A","8502801","2020-02-12 22:00","2020","02","12","22:00"
"-61.68","56.55","NAIN A","8502801","2020-02-12 23:00","2020","02","12","23:00"
"-61.68","56.55","NAIN A","8502801","2020-02-13 00:00","2020","02","13","00:00"
"-61.68","56.55","NAIN A","8502801","2020-02-13 01:00","2020","02","13","01:00"
"-61.68","56.55","NAIN A","8502801","2020-02-13 02:00","2020","02","13","02:00"
"-61.68","56.55","NAIN A","8502801","2020-02-13 03:00","2020","02","13","03:00"
"-61.68","56.55","NAIN A","8502801","2020-02-13 04:00","2020","02","13","04:00"
"-61.68","56.55","NAIN A","8502801","2020-02-13 05:00","2020","02","13","05:00","-17.8","","-20.5","","80","","","","31","","30","","4.8","","98.72","","","","-30","","Snow"
"-61.68","56.55","NAIN A","8502801","2020-02-13 06:00","2020","02","13","06:00","-17.5","","-20.1","","80","","","","31","","30","","4.8","","98.79","","","","-29","","Snow"
"-61.68","56.55","NAIN A","8502801","2020-02-13 07:00","2020","02","13","07:00","-18.1","","-20.6","","81","","","","33","","32","","1.6","","98.80","","","","-30","","Snow"
"-61.68","56.55","NAIN A","8502801","2020-02-13 08:00","2020","02","13","08:00","-18.1","","-21.1","","78","","","","31","","33","","1.6","","98.87","","","","-31","","Snow"
"-61.68","56.55","NAIN A","8502801","2020-02-13 09:00","2020","02","13","09:00","-17.5","","-21.3","","73","","","","32","","26","","9.7","","98.92","","","","-29","","Snow"
"-61.68","56.55","NAIN A","8502801","2020-02-13 10:00","2020","02","13","10:00","-17.9","","-21.6","","73","","","","30","","42","","24.1","","98.94","","","","-32","","Snow,Blowing Snow"
"-61.68","56.55","NAIN A","8502801","2020-02-13 11:00","2020","02","13","11:00","-19.4","","-23.5","","70","","","","30","","59","","16.1","","98.98","","","","-36","","Blowing Snow"
"-61.68","56.55","NAIN A","8502801","2020-02-13 12:00","2020","02","13","12:00","-19.4","","-24.2","","67","","","","29","","52","","24.1","","99.00","","","","-35","","Blowing Snow"
"-61.68","56.55","NAIN A","8502801","2020-02-13 13:00","2020","02","13","13:00","-19.5","","-24.1","","67","","","","29","","50","","24.1","","99.02","","","","-35","","Blowing Snow"
"-61.68","56.55","NAIN A","8502801","2020-02-13 14:00","2020","02","13","14:00","-20.4","","-25.4","","65","","","","29","","54","","24.1","","99.00","","","","-36","","Blowing Snow"
"-61.68","56.55","NAIN A","8502801","2020-02-13 15:00","2020","02","13","15:00","-20.9","","-26.0","","64","","","","29","","49","","24.1","","99.03","","","","-37","","Blowing Snow"
"-61.68","56.55","NAIN A","8502801","2020-02-13 16:00","2020","02","13","16:00","-22.1","","-26.9","","65","","","","29","","52","","24.1","","99.12","","","","-38","","Blowing Snow"
"-61.68","56.55","NAIN A","8502801","2020-02-13 17:00","2020","02","13","17:00","-23.6","","-28.3","","66","","","","29","","51","","24.1","","99.13","","","","-40","","Blowing Snow"
"-61.68","56.55","NAIN A","8502801","2020-02-13 18:00","2020","02","13","18:00","-24.5","","-29.2","","66","","","","29","","53","","24.1","","99.13","","","","-42","","Blowing Snow"
"-61.68","56.55","NAIN A","8502801","2020-02-13 19:00","2020","02","13","19:00","-25.2","","-30.1","","65","","","","29","","56","","24.1","","99.15","","","","-43","","Blowing Snow"
"-61.68","56.55","NAIN A","8502801","2020-02-13 20:00","2020","02","13","20:00","-24.5","","-29.4","","65","","","","30","","55","","24.1","","99.11","","","","-42","","Blowing Snow"
"-61.68","56.55","NAIN A","8502801","2020-02-13 21:00","2020","02","13","21:00"
"-61.68","56.55","NAIN A","8502801","2020-02-13 22:00","2020","02","13","22:00"
"-61.68","56.55","NAIN A","8502801","2020-02-13 23:00","2020","02","13","23:00"
"-61.68","56.55","NAIN A","8502801","2020-02-14 00:00","2020","02","14","00:00"
"-61.68","56.55","NAIN A","8502801","2020-02-14 01:00","2020","02","14","01:00"
"-61.68","56.55","NAIN A","8502801","2020-02-14 02:00","2020","02","14","02:00"
"-61.68","56.55","NAIN A","8502801","2020-02-14 03:00","2020","02","14","03:00"
"-61.68","56.55","NAIN A","8502801","2020-02-14 04:00","2020","02","14","04:00"
"-61.68","56.55","NAIN A","8502801","2020-02-14 05:00","2020","02","14","05:00","-21.6","","-27.0","","62","","","","29","","48","","24.1","","98.93","","","","-37","","Blowing Snow"
"-61.68","56.55","NAIN A","8502801","2020-02-14 06:00","2020","02","14","06:00","-20.9","","-26.7","","61","","","","29","","50","","24.1","","98.99","","","","-37","","Blowing Snow"
"-61.68","56.55","NAIN A","8502801","2020-02-14 07:00","2020","02","14","07:00","-20.2","","-26.2","","59","","","","29","","46","","24.1","","99.02","","","","-35","","NA"
"-61.68","56.55","NAIN A","8502801","2020-02-14 08:00","2020","02","14","08:00","-19.1","","-24.6","","62","","","","29","","52","","24.1","","99.10","","","","-34","","Mostly Cloudy"
"-61.68","56.55","NAIN A","8502801","2020-02-14 09:00","2020","02","14","09:00","-18.3","","-23.6","","64","","","","30","","58","","24.1","","99.09","","","","-34","","NA"
"-61.68","56.55","NAIN A","8502801","2020-02-14 10:00","2020","02","14","10:00","-17.8","","-22.6","","67","","","","29","","60","","24.1","","99.16","","","","-33","","NA"
"-61.68","56.55","NAIN A","8502801","2020-02-14 11:00","2020","02","14","11:00","-18.1","","-22.6","","68","","","","29","","52","","24.1","","99.25","","","","-33","","Mostly Cloudy"
"-61.68","56.55","NAIN A","8502801","2020-02-14 12:00","2020","02","14","12:00","-18.3","","-23.1","","67","","","","29","","55","","24.1","","99.42","","","","-34","","NA"
"-61.68","56.55","NAIN A","8502801","2020-02-14 13:00","2020","02","14","13:00","-18.9","","-23.0","","70","","","","29","","64","","24.1","","99.52","","","","-35","","NA"
"-61.68","56.55","NAIN A","8502801","2020-02-14 14:00","2020","02","14","14:00","-19.5","","-23.3","","72","","","","30","","85","","6.4","","99.53","","","","-38","","Snow,Blowing Snow"
"-61.68","56.55","NAIN A","8502801","2020-02-14 15:00","2020","02","14","15:00","-19.5","","-23.6","","70","","","","30","","87","","4.8","","99.66","","","","-38","","Snow,Blowing Snow"
"-61.68","56.55","NAIN A","8502801","2020-02-14 16:00","2020","02","14","16:00","-20.1","","-25.1","","65","","","","30","","72","","9.7","","99.90","","","","-38","","Blowing Snow"
"-61.68","56.55","NAIN A","8502801","2020-02-14 17:00","2020","02","14","17:00","-20.8","","-26.9","","59","","","","29","","68","","24.1","","100.05","","","","-38","","Cloudy"
"-61.68","56.55","NAIN A","8502801","2020-02-14 18:00","2020","02","14","18:00","-22.0","","-27.7","","61","","","","30","","65","","24.1","","100.17","","","","-40","","NA"
"-61.68","56.55","NAIN A","8502801","2020-02-14 19:00","2020","02","14","19:00","-23.1","","-28.7","","60","","","","29","","43","","24.1","","100.31","","","","-39","","NA"
"-61.68","56.55","NAIN A","8502801","2020-02-14 20:00","2020","02","14","20:00","-24.3","","-29.5","","63","","","","29","","49","","24.1","","100.41","","","","-41","","Clear"
"-61.68","56.55","NAIN A","8502801","2020-02-14 21:00","2020","02","14","21:00"
"-61.68","56.55","NAIN A","8502801","2020-02-14 22:00","2020","02","14","22:00"
"-61.68","56.55","NAIN A","8502801","2020-02-14 23:00","2020","02","14","23:00"
"-61.68","56.55","NAIN A","8502801","2020-02-15 00:00","2020","02","15","00:00"
"-61.68","56.55","NAIN A","8502801","2020-02-15 01:00","2020","02","15","01:00"
"-61.68","56.55","NAIN A","8502801","2020-02-15 02:00","2020","02","15","02:00"
"-61.68","56.55","NAIN A","8502801","2020-02-15 03:00","2020","02","15","03:00"
"-61.68","56.55","NAIN A","8502801","2020-02-15 04:00","2020","02","15","04:00"
"-61.68","56.55","NAIN A","8502801","2020-02-15 05:00","2020","02","15","05:00","-27.1","","-32.2","","62","","","","19","","4","","24.1","","100.49","","","","-31","","Blowing Snow"
"-61.68","56.55","NAIN A","8502801","2020-02-15 06:00","2020","02","15","06:00","-27.1","","-32.9","","59","","","","29","","52","","24.1","","100.54","","","","-45","","NA"
"-61.68","56.55","NAIN A","8502801","2020-02-15 07:00","2020","02","15","07:00","-27.3","","-32.6","","62","","","","28","","52","","24.1","","100.55","","","","-46","","NA"
"-61.68","56.55","NAIN A","8502801","2020-02-15 08:00","2020","02","15","08:00","-27.0","","-32.8","","59","","","","29","","48","","24.1","","100.59","","","","-45","","Clear"
"-61.68","56.55","NAIN A","8502801","2020-02-15 09:00","2020","02","15","09:00","-26.4","","-32.6","","56","","","","28","","36","","24.1","","100.58","","","","-42","","NA"
"-61.68","56.55","NAIN A","8502801","2020-02-15 10:00","2020","02","15","10:00","-25.6","","-32.7","","52","","","","28","","40","","24.1","","100.60","","","","-42","","NA"
"-61.68","56.55","NAIN A","8502801","2020-02-15 11:00","2020","02","15","11:00","-25.0","","-31.7","","55","","","","27","","41","","24.1","","100.56","","","","-41","","Clear"
"-61.68","56.55","NAIN A","8502801","2020-02-15 12:00","2020","02","15","12:00","-24.2","","-31.2","","53","","","","28","","44","","24.1","","100.47","","","","-40","","NA"
"-61.68","56.55","NAIN A","8502801","2020-02-15 13:00","2020","02","15","13:00","-23.4","","-30.9","","51","","","","29","","50","","24.1","","100.41","","","","-40","","NA"
"-61.68","56.55","NAIN A","8502801","2020-02-15 14:00","2020","02","15","14:00","-23.2","","-30.6","","51","","","","26","","22","","24.1","","100.38","","","","-35","","Mainly Clear"
"-61.68","56.55","NAIN A","8502801","2020-02-15 15:00","2020","02","15","15:00","-23.2","","-30.4","","53","","","","28","","25","","24.1","","100.39","","","","-36","","NA"
"-61.68","56.55","NAIN A","8502801","2020-02-15 16:00","2020","02","15","16:00","-22.9","","-29.9","","54","","","","27","","25","","24.1","","100.43","","","","-35","","NA"
"-61.68","56.55","NAIN A","8502801","2020-02-15 17:00","2020","02","15","17:00","-22.3","","-29.3","","54","","","","22","","5","","24.1","","100.36","","","","-27","","Mostly Cloudy"
"-61.68","56.55","NAIN A","8502801","2020-02-15 18:00","2020","02","15","18:00","-21.6","","-28.6","","54","","","","33","","5","","24.1","","100.34","","","","-26","","NA"
"-61.68","56.55","NAIN A","8502801","2020-02-15 19:00","2020","02","15","19:00","-21.1","","-27.9","","55","","","","1","","3","","24.1","","100.32","","","","-24","","NA"
"-61.68","56.55","NAIN A","8502801","2020-02-15 20:00","2020","02","15","20:00","-21.4","","-27.6","","58","","","","31","","12","","24.1","","100.29","","","","-30","","Mainly Clear"
"-61.68","56.55","NAIN A","8502801","2020-02-15 21:00","2020","02","15","21:00"
"-61.68","56.55","NAIN A","8502801","2020-02-15 22:00","2020","02","15","22:00"
"-61.68","56.55","NAIN A","8502801","2020-02-15 23:00","2020","02","15","23:00"
"-61.68","56.55","NAIN A","8502801","2020-02-16 00:00","2020","02","16","00:00"
"-61.68","56.55","NAIN A","8502801","2020-02-16 01:00","2020","02","16","01:00"
"-61.68","56.55","NAIN A","8502801","2020-02-16 02:00","2020","02","16","02:00"
"-61.68","56.55","NAIN A","8502801","2020-02-16 03:00","2020","02","16","03:00"
"-61.68","56.55","NAIN A","8502801","2020-02-16 04:00","2020","02","16","04:00"
"-61.68","56.55","NAIN A","8502801","2020-02-16 05:00","2020","02","16","05:00","-16.9","","-21.6","","67","","","","16","","7","","24.1","","99.74","","","","-22","","Cloudy"
"-61.68","56.55","NAIN A","8502801","2020-02-16 06:00","2020","02","16","06:00","-16.0","","-21.4","","64","","","","36","","2","","24.1","","99.67","","","","-17","","NA"
"-61.68","56.55","NAIN A","8502801","2020-02-16 07:00","2020","02","16","07:00","-15.3","","-20.7","","64","","","","21","","8","","24.1","","99.58","","","","-21","","NA"
"-61.68","56.55","NAIN A","8502801","2020-02-16 08:00","2020","02","16","08:00","-14.8","","-20.2","","64","","","","17","","6","","24.1","","99.54","","","","-19","","Cloudy"
"-61.68","56.55","NAIN A","8502801","2020-02-16 09:00","2020","02","16","09:00","-14.4","","-19.5","","66","","","","20","","14","","24.1","","99.49","","","","-22","","Snow"
"-61.68","56.55","NAIN A","8502801","2020-02-16 10:00","2020","02","16","10:00","-13.8","","-17.3","","75","","","","21","","15","","8.1","","99.42","","","","-21","","Snow"
"-61.68","56.55","NAIN A","8502801","2020-02-16 11:00","2020","02","16","11:00","-13.0","","-16.1","","78","","","","20","","12","","6.4","","99.31","","","","-20","","Snow"
"-61.68","56.55","NAIN A","8502801","2020-02-16 12:00","2020","02","16","12:00","-12.6","","-15.9","","77","","","","23","","11","","6.4","","99.23","","","","-19","","Snow"
"-61.68","56.55","NAIN A","8502801","2020-02-16 13:00","2020","02","16","13:00","-12.2","","-16.1","","73","","","","25","","10","","6.4","","99.14","","","","-18","","Snow"
"-61.68","56.55","NAIN A","8502801","2020-02-16 14:00","2020","02","16","14:00","-11.8","","-15.8","","72","","","","26","","13","","9.7","","99.12","","","","-18","","Snow"
"-61.68","56.55","NAIN A","8502801","2020-02-16 15:00","2020","02","16","15:00","-11.4","","-15.6","","71","","","","27","","12","","9.7","","99.12","","","","-18","","Snow"
"-61.68","56.55","NAIN A","8502801","2020-02-16 16:00","2020","02","16","16:00","-10.9","","-15.3","","70","","","","25","","20","","9.7","","99.18","","","","-19","","Snow"
"-61.68","56.55","NAIN A","8502801","2020-02-16 17:00","2020","02","16","17:00","-10.8","","-14.8","","73","","","","28","","16","","6.4","","99.26","","","","-18","","Snow"
"-61.68","56.55","NAIN A","8502801","2020-02-16 18:00","2020","02","16","18:00","-11.9","","-15.4","","76","","","","28","","13","","24.1","","99.32","","","","-19","","NA"
"-61.68","56.55","NAIN A","8502801","2020-02-16 19:00","2020","02","16","19:00","-13.0","","-16.0","","79","","","","25","","5","","24.1","","99.39","","","","-16","","NA"
"-61.68","56.55","NAIN A","8502801","2020-02-16 20:00","2020","02","16","20:00","-12.9","","-16.7","","73","","","","36","","3","","24.1","","99.46","","","","-15","","Mainly Clear"
"-61.68","56.55","NAIN A","8502801","2020-02-16 21:00","2020","02","16","21:00"
"-61.68","56.55","NAIN A","8502801","2020-02-16 22:00","2020","02","16","22:00"
"-61.68","56.55","NAIN A","8502801","2020-02-16 23:00","2020","02","16","23:00"
"-61.68","56.55","NAIN A","8502801","2020-02-17 00:00","2020","02","17","00:00"
"-61.68","56.55","NAIN A","8502801","2020-02-17 01:00","2020","02","17","01:00"
"-61.68","56.55","NAIN A","8502801","2020-02-17 02:00","2020","02","17","02:00"
"-61.68","56.55","NAIN A","8502801","2020-02-17 03:00","2020","02","17","03:00"
"-61.68","56.55","NAIN A","8502801","2020-02-17 04:00","2020","02","17","04:00"
"-61.68","56.55","NAIN A","8502801","2020-02-17 05:00","2020","02","17","05:00","-21.7","","-28.8","","54","","","","29","","40","","24.1","","100.53","","","","-36","","Clear"
"-61.68","56.55","NAIN A","8502801","2020-02-17 06:00","2020","02","17","06:00","-22.6","","-29.8","","53","","","","28","","34","","24.1","","100.62","","","","-37","","NA"
"-61.68","56.55","NAIN A","8502801","2020-02-17 07:00","2020","02","17","07:00","-23.5","","-30.1","","56","","","","29","","53","","24.1","","100.64","","","","-41","","NA"
"-61.68","56.55","NAIN A","8502801","2020-02-17 08:00","2020","02","17","08:00","-24.0","","-30.4","","56","","","","30","","62","","24.1","","100.71","","","","-42","","Clear"
"-61.68","56.55","NAIN A","8502801","2020-02-17 09:00","2020","02","17","09:00","-24.0","","-30.5","","56","","","","29","","64","","24.1","","100.76","","","","-42","","Blowing Snow"
"-61.68","56.55","NAIN A","8502801","2020-02-17 10:00","2020","02","17","10:00","-23.9","","-31.4","","51","","","","29","","43","","24.1","","100.90","","","","-40","","Blowing Snow"
"-61.68","56.55","NAIN A","8502801","2020-02-17 11:00","2020","02","17","11:00","-23.5","","-30.7","","53","","","","29","","64","","24.1","","100.83","","","","-42","","Blowing Snow"
"-61.68","56.55","NAIN A","8502801","2020-02-17 12:00","2020","02","17","12:00","-23.6","","-30.8","","52","","","","29","","58","","24.1","","100.94","","","","-41","","Blowing Snow"
"-61.68","56.55","NAIN A","8502801","2020-02-17 13:00","2020","02","17","13:00","-23.3","","-30.8","","52","","","","28","","48","","24.1","","101.03","","","","-40","","NA"
"-61.68","56.55","NAIN A","8502801","2020-02-17 14:00","2020","02","17","14:00","-23.4","","-30.5","","53","","","","28","","45","","24.1","","101.05","","","","-39","","Clear"
"-61.68","56.55","NAIN A","8502801","2020-02-17 15:00","2020","02","17","15:00","-23.1","","-30.3","","52","","","","29","","32","","24.1","","101.22","","","","-37","","NA"
"-61.68","56.55","NAIN A","8502801","2020-02-17 16:00","2020","02","17","16:00","-23.4","","-30.6","","52","","","","29","","48","","24.1","","101.23","","","","-40","","NA"
"-61.68","56.55","NAIN A","8502801","2020-02-17 17:00","2020","02","17","17:00","-23.4","","-30.6","","52","","","","31","","30","","24.1","","101.33","","","","-37","","Clear"
"-61.68","56.55","NAIN A","8502801","2020-02-17 18:00","2020","02","17","18:00","-23.4","","-30.5","","53","","","","28","","53","","24.1","","101.39","","","","-40","","NA"
"-61.68","56.55","NAIN A","8502801","2020-02-17 19:00","2020","02","17","19:00","-23.2","","-30.0","","55","","","","28","","41","","24.1","","101.45","","","","-39","","NA"
"-61.68","56.55","NAIN A","8502801","2020-02-17 20:00","2020","02","17","20:00","-23.2","","-30.1","","54","","","","29","","43","","24.1","","101.52","","","","-39","","Clear"
"-61.68","56.55","NAIN A","8502801","2020-02-17 21:00","2020","02","17","21:00"
"-61.68","56.55","NAIN A","8502801","2020-02-17 22:00","2020","02","17","22:00"
"-61.68","56.55","NAIN A","8502801","2020-02-17 23:00","2020","02","17","23:00"
"-61.68","56.55","NAIN A","8502801","2020-02-18 00:00","2020","02","18","00:00"
"-61.68","56.55","NAIN A","8502801","2020-02-18 01:00","2020","02","18","01:00"
"-61.68","56.55","NAIN A","8502801","2020-02-18 02:00","2020","02","18","02:00"
"-61.68","56.55","NAIN A","8502801","2020-02-18 03:00","2020","02","18","03:00"
"-61.68","56.55","NAIN A","8502801","2020-02-18 04:00","2020","02","18","04:00"
"-61.68","56.55","NAIN A","8502801","2020-02-18 05:00","2020","02","18","05:00","-22.2","","-29.1","","54","","","","34","","7","","24.1","","101.88","","","","-28","","Clear"
"-61.68","56.55","NAIN A","8502801","2020-02-18 06:00","2020","02","18","06:00","-23.4","","-30.1","","55","","","","19","","9","","24.1","","101.91","","","","-31","","NA"
"-61.68","56.55","NAIN A","8502801","2020-02-18 07:00","2020","02","18","07:00","-23.4","","-30.0","","55","","","","22","","14","","24.1","","101.92","","","","-33","","NA"
"-61.68","56.55","NAIN A","8502801","2020-02-18 08:00","2020","02","18","08:00","-23.9","","-30.2","","57","","","","20","","16","","24.1","","101.97","","","","-34","","Mainly Clear"
"-61.68","56.55","NAIN A","8502801","2020-02-18 09:00","2020","02","18","09:00","-22.8","","-29.4","","56","","","","23","","10","","24.1","","101.95","","","","-31","","NA"
"-61.68","56.55","NAIN A","8502801","2020-02-18 10:00","2020","02","18","10:00","-21.7","","-28.8","","54","","","","25","","30","","24.1","","101.94","","","","-35","","NA"
"-61.68","56.55","NAIN A","8502801","2020-02-18 11:00","2020","02","18","11:00","-21.0","","-28.0","","54","","","","26","","14","","24.1","","101.92","","","","-30","","Clear"
"-61.68","56.55","NAIN A","8502801","2020-02-18 12:00","2020","02","18","12:00","-20.3","","-27.5","","53","","","","26","","27","","24.1","","101.82","","","","-32","","NA"
"-61.68","56.55","NAIN A","8502801","2020-02-18 13:00","2020","02","18","13:00","-19.2","","-26.7","","52","","","","25","","24","","24.1","","101.78","","","","-30","","NA"
"-61.68","56.55","NAIN A","8502801","2020-02-18 14:00","2020","02","18","14:00","-19.2","","-25.6","","57","","","","31","","15","","24.1","","101.78","","","","-28","","Clear"
"-61.68","56.55","NAIN A","8502801","2020-02-18 15:00","2020","02","18","15:00","-18.4","","-26.1","","52","","","","24","","10","","24.1","","101.77","","","","-25","","NA"
"-61.68","56.55","NAIN A","8502801","2020-02-18 16:00","2020","02","18","16:00","-18.8","","-26.0","","54","","","","23","","3","","24.1","","101.76","","","","-21","","NA"
"-61.68","56.55","NAIN A","8502801","2020-02-18 17:00","2020","02","18","17:00","-19.5","","-26.0","","57","","","","27","","16","","24.1","","101.72","","","","-29","","Mainly Clear"
"-61.68","56.55","NAIN A","8502801","2020-02-18 18:00","2020","02","18","18:00","-20.3","","-26.3","","59","","","","28","","12","","24.1","","101.71","","","","-28","","NA"
"-61.68","56.55","NAIN A","8502801","2020-02-18 19:00","2020","02","18","19:00","-19.5","","-25.6","","59","","","","23","","7","","24.1","","101.68","","","","-25","","NA"
"-61.68","56.55","NAIN A","8502801","2020-02-18 20:00","2020","02","18","20:00","-19.6","","-25.3","","61","","","","25","","4","","24.1","","101.57","","","","-23","","Mainly Clear"
"-61.68","56.55","NAIN A","8502801","2020-02-18 21:00","2020","02","18","21:00"
"-61.68","56.55","NAIN A","8502801","2020-02-18 22:00","2020","02","18","22:00"
"-61.68","56.55","NAIN A","8502801","2020-02-18 23:00","2020","02","18","23:00"
"-61.68","56.55","NAIN A","8502801","2020-02-19 00:00","2020","02","19","00:00"
"-61.68","56.55","NAIN A","8502801","2020-02-19 01:00","2020","02","19","01:00"
"-61.68","56.55","NAIN A","8502801","2020-02-19 02:00","2020","02","19","02:00"
"-61.68","56.55","NAIN A","8502801","2020-02-19 03:00","2020","02","19","03:00"
"-61.68","56.55","NAIN A","8502801","2020-02-19 04:00","2020","02","19","04:00"
"-61.68","56.55","NAIN A","8502801","2020-02-19 05:00","2020","02","19","05:00","-19.9","","-23.1","","76","","","","30","","7","","4.8","","100.57","","","","-26","","Snow"
"-61.68","56.55","NAIN A","8502801","2020-02-19 06:00","2020","02","19","06:00","-19.1","","-21.7","","80","","","","32","","9","","24.1","","100.37","","","","-26","","Snow"
"-61.68","56.55","NAIN A","8502801","2020-02-19 07:00","2020","02","19","07:00","-18.8","","-21.6","","79","","","","32","","9","","2.4","","100.23","","","","-25","","Snow"
"-61.68","56.55","NAIN A","8502801","2020-02-19 08:00","2020","02","19","08:00","-18.5","","-21.1","","80","","","","30","","13","","2.4","","100.08","","","","-27","","Snow"
"-61.68","56.55","NAIN A","8502801","2020-02-19 09:00","2020","02","19","09:00","-17.9","","-20.9","","78","","","","30","","13","","2.4","","99.90","","","","-26","","Snow"
"-61.68","56.55","NAIN A","8502801","2020-02-19 10:00","2020","02","19","10:00","-18.1","","-21.4","","76","","","","29","","17","","4.8","","99.78","","","","-27","","Snow"
"-61.68","56.55","NAIN A","8502801","2020-02-19 11:00","2020","02","19","11:00","-17.3","","-20.7","","75","","","","29","","17","","24.1","","99.64","","","","-26","","Snow"
"-61.68","56.55","NAIN A","8502801","2020-02-19 12:00","2020","02","19","12:00","-16.2","","-19.9","","74","","","","29","","20","","16.1","","99.51","","","","-26","","Snow"
"-61.68","56.55","NAIN A","8502801","2020-02-19 13:00","2020","02","19","13:00","-15.9","","-19.6","","74","","","","30","","18","","24.1","","99.33","","","","-25","","Snow Showers"
"-61.68","56.55","NAIN A","8502801","2020-02-19 14:00","2020","02","19","14:00","-15.9","","-19.4","","75","","","","30","","22","","24.1","","99.23","","","","-26","","Mostly Cloudy"
"-61.68","56.55","NAIN A","8502801","2020-02-19 15:00","2020","02","19","15:00","-15.3","","-19.0","","74","","","","30","","22","","24.1","","99.18","","","","-25","","NA"
"-61.68","56.55","NAIN A","8502801","2020-02-19 16:00","2020","02","19","16:00","-15.8","","-19.2","","76","","","","30","","20","","24.1","","99.19","","","","-25","","NA"
"-61.68","56.55","NAIN A","8502801","2020-02-19 17:00","2020","02","19","17:00","-15.4","","-19.1","","74","","","","29","","19","","24.1","","99.18","","","","-24","","Snow Showers"
"-61.68","56.55","NAIN A","8502801","2020-02-19 18:00","2020","02","19","18:00","-15.7","","-19.2","","75","","","","30","","25","","24.1","","99.14","","","","-26","","Snow Showers"
"-61.68","56.55","NAIN A","8502801","2020-02-19 19:00","2020","02","19","19:00","-15.7","","-18.9","","76","","","","30","","33","","24.1","","99.14","","","","-27","","Snow Showers"
"-61.68","56.55","NAIN A","8502801","2020-02-19 20:00","2020","02","19","20:00","-16.2","","-19.9","","73","","","","30","","29","","24.1","","99.11","","","","-27","","Snow Showers"
"-61.68","56.55","NAIN A","8502801","2020-02-19 21:00","2020","02","19","21:00"
"-61.68","56.55","NAIN A","8502801","2020-02-19 22:00","2020","02","19","22:00"
"-61.68","56.55","NAIN A","8502801","2020-02-19 23:00","2020","02","19","23:00"
"-61.68","56.55","NAIN A","8502801","2020-02-20 00:00","2020","02","20","00:00"
"-61.68","56.55","NAIN A","8502801","2020-02-20 01:00","2020","02","20","01:00"
"-61.68","56.55","NAIN A","8502801","2020-02-20 02:00","2020","02","20","02:00"
"-61.68","56.55","NAIN A","8502801","2020-02-20 03:00","2020","02","20","03:00"
"-61.68","56.55","NAIN A","8502801","2020-02-20 04:00","2020","02","20","04:00"
"-61.68","56.55","NAIN A","8502801","2020-02-20 05:00","2020","02","20","05:00","-24.7","","-29.1","","68","","","","29","","58","","19.3","","99.19","","","","-43","","Snow Showers,Blowing Snow"
"-61.68","56.55","NAIN A","8502801","2020-02-20 06:00","2020","02","20","06:00","-25.2","","-29.5","","68","","","","29","","63","","20.9","","99.19","","","","-44","","Snow Showers,Blowing Snow"
"-61.68","56.55","NAIN A","8502801","2020-02-20 07:00","2020","02","20","07:00","-25.3","","-29.5","","69","","","","28","","62","","2.4","","99.17","","","","-44","","Snow,Blowing Snow"
"-61.68","56.55","NAIN A","8502801","2020-02-20 08:00","2020","02","20","08:00","-25.4","","-29.3","","71","","","","29","","60","","2.4","","99.20","","","","-44","","Snow,Blowing Snow"
"-61.68","56.55","NAIN A","8502801","2020-02-20 09:00","2020","02","20","09:00","-25.2","","-29.6","","68","","","","29","","49","","4.8","","99.21","","","","-42","","Snow Showers,Blowing Snow"
"-61.68","56.55","NAIN A","8502801","2020-02-20 10:00","2020","02","20","10:00","-25.0","","-29.7","","65","","","","29","","58","","24.1","","99.22","","","","-43","","Snow Showers,Blowing Snow"
"-61.68","56.55","NAIN A","8502801","2020-02-20 11:00","2020","02","20","11:00","-25.2","","-30.1","","64","","","","29","","60","","17.7","","99.23","","","","-44","","Snow Showers,Blowing Snow"
"-61.68","56.55","NAIN A","8502801","2020-02-20 12:00","2020","02","20","12:00","-25.1","","-30.0","","64","","","","29","","65","","6.4","","99.21","","","","-44","","Snow Showers,Blowing Snow"
"-61.68","56.55","NAIN A","8502801","2020-02-20 13:00","2020","02","20","13:00","-24.7","","-29.4","","65","","","","29","","65","","6.4","","99.27","","","","-44","","Snow Showers,Blowing Snow"
"-61.68","56.55","NAIN A","8502801","2020-02-20 14:00","2020","02","20","14:00","-24.9","","-29.5","","66","","","","29","","54","","4.8","","99.32","","","","-43","","Snow Showers,Blowing Snow"
"-61.68","56.55","NAIN A","8502801","2020-02-20 15:00","2020","02","20","15:00","-25.0","","-29.7","","66","","","","28","","51","","2.4","","99.45","","","","-42","","Snow Showers,Blowing Snow"
"-61.68","56.55","NAIN A","8502801","2020-02-20 16:00","2020","02","20","16:00","-25.1","","-29.1","","70","","","","29","","60","","1.6","","99.42","","","","-44","","Snow,Blowing Snow"
"-61.68","56.55","NAIN A","8502801","2020-02-20 17:00","2020","02","20","17:00","-25.2","","-28.9","","72","","","","29","","56","","0.8","","99.46","","","","-43","","Snow,Blowing Snow"
"-61.68","56.55","NAIN A","8502801","2020-02-20 18:00","2020","02","20","18:00","-24.9","","-28.2","","74","","","","29","","61","","0.8","","99.48","","","","-43","","Snow,Blowing Snow"
"-61.68","56.55","NAIN A","8502801","2020-02-20 19:00","2020","02","20","19:00","-24.4","","-27.6","","76","","","","29","","65","","0.8","","99.50","","","","-43","","Snow,Blowing Snow"
"-61.68","56.55","NAIN A","8502801","2020-02-20 20:00","2020","02","20","20:00","-24.1","","-27.3","","75","","","","29","","67","","0.4","","99.52","","","","-43","","Snow,Blowing Snow"
"-61.68","56.55","NAIN A","8502801","2020-02-20 21:00","2020","02","20","21:00"
"-61.68","56.55","NAIN A","8502801","2020-02-20 22:00","2020","02","20","22:00"
"-61.68","56.55","NAIN A","8502801","2020-02-20 23:00","2020","02","20","23:00"
"-61.68","56.55","NAIN A","8502801","2020-02-21 00:00","2020","02","21","00:00"
"-61.68","56.55","NAIN A","8502801","2020-02-21 01:00","2020","02","21","01:00"
"-61.68","56.55","NAIN A","8502801","2020-02-21 02:00","2020","02","21","02:00"
"-61.68","56.55","NAIN A","8502801","2020-02-21 03:00","2020","02","21","03:00"
"-61.68","56.55","NAIN A","8502801","2020-02-21 04:00","2020","02","21","04:00"
"-61.68","56.55","NAIN A","8502801","2020-02-21 05:00","2020","02","21","05:00","-21.6","","-24.3","","79","","","","30","","63","","0.4","","99.95","","","","-39","","Moderate Snow,Blowing Snow"
"-61.68","56.55","NAIN A","8502801","2020-02-21 06:00","2020","02","21","06:00","-21.4","","-24.4","","78","","","","29","","48","","0.4","","100.02","","","","-37","","Moderate Snow,Blowing Snow"
"-61.68","56.55","NAIN A","8502801","2020-02-21 07:00","2020","02","21","07:00","-21.9","","-24.9","","77","","","","29","","37","","1.6","","100.15","","","","-36","","Snow,Blowing Snow"
"-61.68","56.55","NAIN A","8502801","2020-02-21 08:00","2020","02","21","08:00","-22.2","","-26.3","","70","","","","30","","43","","6.4","","100.26","","","","-37","","Snow,Blowing Snow"
"-61.68","56.55","NAIN A","8502801","2020-02-21 09:00","2020","02","21","09:00","-22.2","","-27.1","","65","","","","30","","43","","24.1","","100.38","","","","-37","","NA"
"-61.68","56.55","NAIN A","8502801","2020-02-21 10:00","2020","02","21","10:00","-21.4","","-27.9","","57","","","","28","","17","","24.1","","100.46","","","","-31","","NA"
"-61.68","56.55","NAIN A","8502801","2020-02-21 11:00","2020","02","21","11:00","-20.6","","-27.9","","53","","","","28","","28","","24.1","","100.49","","","","-33","","Mainly Clear"
"-61.68","56.55","NAIN A","8502801","2020-02-21 12:00","2020","02","21","12:00","-20.5","","-28.0","","52","","","","28","","28","","24.1","","100.50","","","","-33","","NA"
"-61.68","56.55","NAIN A","8502801","2020-02-21 13:00","2020","02","21","13:00","-20.8","","-27.9","","54","","","","28","","35","","24.1","","100.50","","","","-34","","NA"
"-61.68","56.55","NAIN A","8502801","2020-02-21 14:00","2020","02","21","14:00","-20.0","","-27.0","","54","","","","28","","30","","24.1","","100.53","","","","-33","","Cloudy"
"-61.68","56.55","NAIN A","8502801","2020-02-21 15:00","2020","02","21","15:00","-20.6","","-27.2","","56","","","","31","","22","","24.1","","100.56","","","","-32","","NA"
"-61.68","56.55","NAIN A","8502801","2020-02-21 16:00","2020","02","21","16:00","-21.4","","-27.4","","60","","","","21","","12","","24.1","","100.54","","","","-30","","NA"
"-61.68","56.55","NAIN A","8502801","2020-02-21 17:00","2020","02","21","17:00","-21.5","","-27.6","","59","","","","24","","18","","24.1","","100.51","","","","-32","","Cloudy"
"-61.68","56.55","NAIN A","8502801","2020-02-21 18:00","2020","02","21","18:00","-22.2","","-27.9","","61","","","","22","","8","","24.1","","100.49","","","","-29","","NA"
"-61.68","56.55","NAIN A","8502801","2020-02-21 19:00","2020","02","21","19:00","-21.9","","-27.7","","60","","","","24","","7","","24.1","","100.40","","","","-28","","NA"
"-61.68","56.55","NAIN A","8502801","2020-02-21 20:00","2020","02","21","20:00","-22.2","","-27.3","","64","","","","19","","7","","24.1","","100.34","","","","-28","","Cloudy"
"-61.68","56.55","NAIN A","8502801","2020-02-21 21:00","2020","02","21","21:00"
"-61.68","56.55","NAIN A","8502801","2020-02-21 22:00","2020","02","21","22:00"
"-61.68","56.55","NAIN A","8502801","2020-02-21 23:00","2020","02","21","23:00"
"-61.68","56.55","NAIN A","8502801","2020-02-22 00:00","2020","02","22","00:00"
"-61.68","56.55","NAIN A","8502801","2020-02-22 01:00","2020","02","22","01:00"
"-61.68","56.55","NAIN A","8502801","2020-02-22 02:00","2020","02","22","02:00"
"-61.68","56.55","NAIN A","8502801","2020-02-22 03:00","2020","02","22","03:00"
"-61.68","56.55","NAIN A","8502801","2020-02-22 04:00","2020","02","22","04:00"
"-61.68","56.55","NAIN A","8502801","2020-02-22 05:00","2020","02","22","05:00","-19.6","","-22.7","","77","","","","32","","3","","24.1","","99.41","","","","-22","","Cloudy"
"-61.68","56.55","NAIN A","8502801","2020-02-22 06:00","2020","02","22","06:00","-19.0","","-21.8","","79","","","","36","","1","","24.1","","99.38","","","","-20","","NA"
"-61.68","56.55","NAIN A","8502801","2020-02-22 07:00","2020","02","22","07:00","-19.2","","-21.8","","80","","","","36","","1","","24.1","","99.34","","","","-20","","NA"
"-61.68","56.55","NAIN A","8502801","2020-02-22 08:00","2020","02","22","08:00","-19.0","","-21.7","","79","","","","36","","2","","24.1","","99.32","","","","-21","","Mostly Cloudy"
"-61.68","56.55","NAIN A","8502801","2020-02-22 09:00","2020","02","22","09:00","-18.9","","-21.8","","78","","","","29","","8","","24.1","","99.31","","","","-25","","NA"
"-61.68","56.55","NAIN A","8502801","2020-02-22 10:00","2020","02","22","10:00","-18.2","","-21.1","","78","","","","36","","8","","24.1","","99.29","","","","-24","","NA"
"-61.68","56.55","NAIN A","8502801","2020-02-22 11:00","2020","02","22","11:00","-17.5","","-20.7","","77","","","","35","","8","","24.1","","99.26","","","","-23","","Snow Showers"
"-61.68","56.55","NAIN A","8502801","2020-02-22 12:00","2020","02","22","12:00","-16.5","","-20.1","","74","","","","15","","4","","24.1","","99.24","","","","-20","","Snow Showers"
"-61.68","56.55","NAIN A","8502801","2020-02-22 13:00","2020","02","22","13:00","-15.2","","-18.9","","74","","","","36","","1","","24.1","","99.21","","","","-16","","NA"
"-61.68","56.55","NAIN A","8502801","2020-02-22 14:00","2020","02","22","14:00","-16.0","","-19.3","","76","","","","34","","3","","24.1","","99.19","","","","-18","","Cloudy"
"-61.68","56.55","NAIN A","8502801","2020-02-22 15:00","2020","02","22","15:00","-15.1","","-17.8","","80","","","","36","","2","","24.1","","99.23","","","","-17","","Snow Showers"
"-61.68","56.55","NAIN A","8502801","2020-02-22 16:00","2020","02","22","16:00","-14.6","","-16.9","","83","","","","16","","6","","16.1","","99.27","","","","-19","","Snow"
"-61.68","56.55","NAIN A","8502801","2020-02-22 17:00","2020","02","22","17:00","-14.8","","-16.8","","85","","","","36","","1","","24.1","","99.30","","","","-16","","Snow Showers"
"-61.68","56.55","NAIN A","8502801","2020-02-22 18:00","2020","02","22","18:00","-15.4","","-17.3","","86","","","","12","","4","","24.1","","99.32","","","","-18","","NA"
"-61.68","56.55","NAIN A","8502801","2020-02-22 19:00","2020","02","22","19:00","-15.5","","-17.3","","86","","","","28","","5","","12.9","","99.38","","","","-19","","Snow Showers"
"-61.68","56.55","NAIN A","8502801","2020-02-22 20:00","2020","02","22","20:00","-15.0","","-16.8","","87","","","","32","","8","","12.9","","99.36","","","","-20","","Snow Showers"
"-61.68","56.55","NAIN A","8502801","2020-02-22 21:00","2020","02","22","21:00"
"-61.68","56.55","NAIN A","8502801","2020-02-22 22:00","2020","02","22","22:00"
"-61.68","56.55","NAIN A","8502801","2020-02-22 23:00","2020","02","22","23:00"
"-61.68","56.55","NAIN A","8502801","2020-02-23 00:00","2020","02","23","00:00"
"-61.68","56.55","NAIN A","8502801","2020-02-23 01:00","2020","02","23","01:00"
"-61.68","56.55","NAIN A","8502801","2020-02-23 02:00","2020","02","23","02:00"
"-61.68","56.55","NAIN A","8502801","2020-02-23 03:00","2020","02","23","03:00"
"-61.68","56.55","NAIN A","8502801","2020-02-23 04:00","2020","02","23","04:00"
"-61.68","56.55","NAIN A","8502801","2020-02-23 05:00","2020","02","23","05:00","-15.7","","-19.6","","73","","","","31","","27","","9.7","","100.08","","","","-26","","Snow Showers"
"-61.68","56.55","NAIN A","8502801","2020-02-23 06:00","2020","02","23","06:00","-16.3","","-20.2","","72","","","","31","","28","","16.1","","100.18","","","","-27","","Snow Showers"
"-61.68","56.55","NAIN A","8502801","2020-02-23 07:00","2020","02","23","07:00","-17.3","","-21.2","","72","","","","30","","25","","24.1","","100.32","","","","-28","","NA"
"-61.68","56.55","NAIN A","8502801","2020-02-23 08:00","2020","02","23","08:00","-18.0","","-22.2","","70","","","","31","","24","","24.1","","100.44","","","","-29","","Mainly Clear"
"-61.68","56.55","NAIN A","8502801","2020-02-23 09:00","2020","02","23","09:00","-18.5","","-22.3","","72","","","","29","","18","","24.1","","100.57","","","","-28","","NA"
"-61.68","56.55","NAIN A","8502801","2020-02-23 10:00","2020","02","23","10:00","-18.0","","-22.6","","68","","","","30","","18","","24.1","","100.67","","","","-27","","NA"
"-61.68","56.55","NAIN A","8502801","2020-02-23 11:00","2020","02","23","11:00","-17.3","","-22.6","","64","","","","30","","22","","24.1","","100.74","","","","-28","","Clear"
"-61.68","56.55","NAIN A","8502801","2020-02-23 12:00","2020","02","23","12:00","-16.8","","-22.4","","62","","","","28","","15","","24.1","","100.81","","","","-25","","NA"
"-61.68","56.55","NAIN A","8502801","2020-02-23 13:00","2020","02","23","13:00","-16.5","","-22.8","","59","","","","28","","9","","24.1","","100.86","","","","-23","","NA"
"-61.68","56.55","NAIN A","8502801","2020-02-23 14:00","2020","02","23","14:00","-16.3","","-23.3","","55","","","","29","","18","","24.1","","100.96","","","","-25","","Clear"
"-61.68","56.55","NAIN A","8502801","2020-02-23 15:00","2020","02","23","15:00","-16.1","","-24.1","","51","","","","29","","24","","24.1","","101.06","","","","-26","","NA"
"-61.68","56.55","NAIN A","8502801","2020-02-23 16:00","2020","02","23","16:00","-17.1","","-24.1","","55","","","","29","","36","","24.1","","101.19","","","","-30","","NA"
"-61.68","56.55","NAIN A","8502801","2020-02-23 17:00","2020","02","23","17:00","-18.0","","-24.5","","58","","","","29","","45","","24.1","","101.31","","","","-32","","Clear"
"-61.68","56.55","NAIN A","8502801","2020-02-23 18:00","2020","02","23","18:00","-18.4","","-25.6","","54","","","","29","","34","","24.1","","101.44","","","","-31","","NA"
"-61.68","56.55","NAIN A","8502801","2020-02-23 19:00","2020","02","23","19:00","-19.3","","-26.5","","53","","","","24","","10","","24.1","","101.56","","","","-26","","NA"
"-61.68","56.55","NAIN A","8502801","2020-02-23 20:00","2020","02","23","20:00","-19.7","","-26.1","","57","","","","29","","35","","24.1","","101.61","","","","-33","","Clear"
"-61.68","56.55","NAIN A","8502801","2020-02-23 21:00","2020","02","23","21:00"
"-61.68","56.55","NAIN A","8502801","2020-02-23 22:00","2020","02","23","22:00"
"-61.68","56.55","NAIN A","8502801","2020-02-23 23:00","2020","02","23","23:00"
"-61.68","56.55","NAIN A","8502801","2020-02-24 00:00","2020","02","24","00:00"
"-61.68","56.55","NAIN A","8502801","2020-02-24 01:00","2020","02","24","01:00"
"-61.68","56.55","NAIN A","8502801","2020-02-24 02:00","2020","02","24","02:00"
"-61.68","56.55","NAIN A","8502801","2020-02-24 03:00","2020","02","24","03:00"
"-61.68","56.55","NAIN A","8502801","2020-02-24 04:00","2020","02","24","04:00"
"-61.68","56.55","NAIN A","8502801","2020-02-24 05:00","2020","02","24","05:00","-24.6","","-29.6","","64","","","","11","","4","","24.1","","102.15","","","","-29","","Clear"
"-61.68","56.55","NAIN A","8502801","2020-02-24 06:00","2020","02","24","06:00","-24.9","","-30.0","","63","","","","36","","1","","24.1","","102.17","","","","-26","","NA"
"-61.68","56.55","NAIN A","8502801","2020-02-24 07:00","2020","02","24","07:00","-25.0","","-30.1","","63","","","","20","","7","","24.1","","102.21","","","","-31","","NA"
"-61.68","56.55","NAIN A","8502801","2020-02-24 08:00","2020","02","24","08:00","-25.7","","-30.2","","66","","","","36","","1","","24.1","","102.27","","","","-27","","Clear"
"-61.68","56.55","NAIN A","8502801","2020-02-24 09:00","2020","02","24","09:00","-23.9","","-29.7","","59","","","","36","","2","","24.1","","102.27","","","","-26","","NA"
"-61.68","56.55","NAIN A","8502801","2020-02-24 10:00","2020","02","24","10:00","-23.4","","-29.2","","59","","","","35","","6","","24.1","","102.21","","","","-29","","NA"
"-61.68","56.55","NAIN A","8502801","2020-02-24 11:00","2020","02","24","11:00","-21.9","","-27.7","","60","","","","28","","3","","24.1","","102.21","","","","-25","","Mainly Clear"
"-61.68","56.55","NAIN A","8502801","2020-02-24 12:00","2020","02","24","12:00","-20.1","","-26.6","","57","","","","28","","9","","24.1","","102.16","","","","-27","","NA"
"-61.68","56.55","NAIN A","8502801","2020-02-24 13:00","2020","02","24","13:00","-19.2","","-25.2","","60","","","","9","","5","","24.1","","102.08","","","","-23","","NA"
"-61.68","56.55","NAIN A","8502801","2020-02-24 14:00","2020","02","24","14:00","-18.9","","-25.0","","59","","","","33","","5","","24.1","","102.00","","","","-23","","Mostly Cloudy"
"-61.68","56.55","NAIN A","8502801","2020-02-24 15:00","2020","02","24","15:00","-19.2","","-24.9","","61","","","","28","","3","","24.1","","101.99","","","","-22","","NA"
"-61.68","56.55","NAIN A","8502801","2020-02-24 16:00","2020","02","24","16:00","-17.5","","-23.4","","60","","","","19","","5","","24.1","","101.94","","","","-21","","NA"
"-61.68","56.55","NAIN A","8502801","2020-02-24 17:00","2020","02","24","17:00","-17.7","","-23.5","","61","","","","17","","4","","24.1","","101.86","","","","-21","","Mostly Cloudy"
"-61.68","56.55","NAIN A","8502801","2020-02-24 18:00","2020","02","24","18:00","-18.1","","-22.8","","67","","","","15","","3","","24.1","","101.81","","","","-21","","NA"
"-61.68","56.55","NAIN A","8502801","2020-02-24 19:00","2020","02","24","19:00","-19.3","","-24.0","","67","","","","31","","7","","24.1","","101.80","","","","-25","","NA"
"-61.68","56.55","NAIN A","8502801","2020-02-24 20:00","2020","02","24","20:00","-19.3","","-23.0","","73","","","","33","","8","","24.1","","101.76","","","","-25","","Cloudy"
"-61.68","56.55","NAIN A","8502801","2020-02-24 21:00","2020","02","24","21:00"
"-61.68","56.55","NAIN A","8502801","2020-02-24 22:00","2020","02","24","22:00"
"-61.68","56.55","NAIN A","8502801","2020-02-24 23:00","2020","02","24","23:00"
"-61.68","56.55","NAIN A","8502801","2020-02-25 00:00","2020","02","25","00:00"
"-61.68","56.55","NAIN A","8502801","2020-02-25 01:00","2020","02","25","01:00"
"-61.68","56.55","NAIN A","8502801","2020-02-25 02:00","2020","02","25","02:00"
"-61.68","56.55","NAIN A","8502801","2020-02-25 03:00","2020","02","25","03:00"
"-61.68","56.55","NAIN A","8502801","2020-02-25 04:00","2020","02","25","04:00"
"-61.68","56.55","NAIN A","8502801","2020-02-25 05:00","2020","02","25","05:00","-17.4","","-20.2","","80","","","","31","","18","","11.3","","101.47","","","","-27","","Snow"
"-61.68","56.55","NAIN A","8502801","2020-02-25 06:00","2020","02","25","06:00","-17.8","","-20.6","","79","","","","31","","19","","8.1","","101.48","","","","-27","","Snow"
"-61.68","56.55","NAIN A","8502801","2020-02-25 07:00","2020","02","25","07:00","-18.7","","-22.0","","76","","","","30","","23","","24.1","","101.51","","","","-30","","NA"
"-61.68","56.55","NAIN A","8502801","2020-02-25 08:00","2020","02","25","08:00","-18.8","","-22.9","","71","","","","31","","22","","24.1","","101.54","","","","-29","","Mainly Clear"
"-61.68","56.55","NAIN A","8502801","2020-02-25 09:00","2020","02","25","09:00","-18.6","","-23.2","","68","","","","29","","19","","24.1","","101.59","","","","-28","","NA"
"-61.68","56.55","NAIN A","8502801","2020-02-25 10:00","2020","02","25","10:00","-17.8","","-23.1","","63","","","","29","","21","","24.1","","101.62","","","","-28","","NA"
"-61.68","56.55","NAIN A","8502801","2020-02-25 11:00","2020","02","25","11:00","-17.2","","-22.9","","62","","","","30","","22","","24.1","","101.66","","","","-27","","Clear"
"-61.68","56.55","NAIN A","8502801","2020-02-25 12:00","2020","02","25","12:00","-16.7","","-23.1","","58","","","","29","","21","","24.1","","101.66","","","","-27","","NA"
"-61.68","56.55","NAIN A","8502801","2020-02-25 13:00","2020","02","25","13:00","-16.5","","-22.7","","59","","","","31","","26","","24.1","","101.65","","","","-27","","NA"
"-61.68","56.55","NAIN A","8502801","2020-02-25 14:00","2020","02","25","14:00","-16.5","","-23.2","","57","","","","28","","14","","24.1","","101.67","","","","-24","","Clear"
"-61.68","56.55","NAIN A","8502801","2020-02-25 15:00","2020","02","25","15:00","-16.6","","-23.6","","56","","","","29","","14","","24.1","","101.69","","","","-25","","NA"
"-61.68","56.55","NAIN A","8502801","2020-02-25 16:00","2020","02","25","16:00","-17.9","","-24.0","","59","","","","29","","7","","24.1","","101.70","","","","-23","","NA"
"-61.68","56.55","NAIN A","8502801","2020-02-25 17:00","2020","02","25","17:00","-18.4","","-24.0","","62","","","","28","","16","","24.1","","101.72","","","","-27","","Clear"
"-61.68","56.55","NAIN A","8502801","2020-02-25 18:00","2020","02","25","18:00","-17.8","","-25.1","","54","","","","29","","17","","24.1","","101.77","","","","-27","","NA"
"-61.68","56.55","NAIN A","8502801","2020-02-25 19:00","2020","02","25","19:00","-20.3","","-25.8","","62","","","","29","","16","","24.1","","101.81","","","","-30","","NA"
"-61.68","56.55","NAIN A","8502801","2020-02-25 20:00","2020","02","25","20:00","-20.3","","-26.5","","59","","","","29","","12","","24.1","","101.86","","","","-28","","Clear"
"-61.68","56.55","NAIN A","8502801","2020-02-25 21:00","2020","02","25","21:00"
"-61.68","56.55","NAIN A","8502801","2020-02-25 22:00","2020","02","25","22:00"
"-61.68","56.55","NAIN A","8502801","2020-02-25 23:00","2020","02","25","23:00"
"-61.68","56.55","NAIN A","8502801","2020-02-26 00:00","2020","02","26","00:00"
"-61.68","56.55","NAIN A","8502801","2020-02-26 01:00","2020","02","26","01:00"
"-61.68","56.55","NAIN A","8502801","2020-02-26 02:00","2020","02","26","02:00"
"-61.68","56.55","NAIN A","8502801","2020-02-26 03:00","2020","02","26","03:00"
"-61.68","56.55","NAIN A","8502801","2020-02-26 04:00","2020","02","26","04:00"
"-61.68","56.55","NAIN A","8502801","2020-02-26 05:00","2020","02","26","05:00","-25.3","","-29.3","","70","","","","19","","7","","24.1","","102.03","","","","-32","","Clear"
"-61.68","56.55","NAIN A","8502801","2020-02-26 06:00","2020","02","26","06:00","-22.0","","-26.8","","66","","","","26","","7","","24.1","","102.06","","","","-28","","NA"
"-61.68","56.55","NAIN A","8502801","2020-02-26 07:00","2020","02","26","07:00","-25.7","","-29.3","","73","","","","15","","5","","24.1","","102.10","","","","-31","","NA"
"-61.68","56.55","NAIN A","8502801","2020-02-26 08:00","2020","02","26","08:00","-24.5","","-28.8","","68","","","","17","","6","","24.1","","102.13","","","","-30","","Mostly Cloudy"
"-61.68","56.55","NAIN A","8502801","2020-02-26 09:00","2020","02","26","09:00","-25.2","","-29.4","","69","","","","36","","1","","24.1","","102.18","","","","-26","","Snow Showers"
"-61.68","56.55","NAIN A","8502801","2020-02-26 10:00","2020","02","26","10:00","-21.9","","-27.7","","61","","","","28","","12","","24.1","","102.22","","","","-30","","NA"
"-61.68","56.55","NAIN A","8502801","2020-02-26 11:00","2020","02","26","11:00","-21.6","","-26.7","","64","","","","21","","4","","24.1","","102.26","","","","-25","","Snow Showers"
"-61.68","56.55","NAIN A","8502801","2020-02-26 12:00","2020","02","26","12:00","-20.1","","-25.8","","61","","","","28","","16","","24.1","","102.29","","","","-30","","Snow Showers"
"-61.68","56.55","NAIN A","8502801","2020-02-26 13:00","2020","02","26","13:00","-19.1","","-25.0","","60","","","","29","","22","","24.1","","102.30","","","","-30","","Snow Showers"
"-61.68","56.55","NAIN A","8502801","2020-02-26 14:00","2020","02","26","14:00","-19.1","","-25.8","","56","","","","27","","13","","24.1","","102.35","","","","-27","","Clear"
"-61.68","56.55","NAIN A","8502801","2020-02-26 15:00","2020","02","26","15:00","-18.7","","-25.9","","54","","","","27","","18","","24.1","","102.39","","","","-28","","NA"
"-61.68","56.55","NAIN A","8502801","2020-02-26 16:00","2020","02","26","16:00","-19.3","","-26.1","","56","","","","28","","21","","24.1","","102.45","","","","-30","","NA"
"-61.68","56.55","NAIN A","8502801","2020-02-26 17:00","2020","02","26","17:00","-20.1","","-26.8","","56","","","","27","","25","","24.1","","102.47","","","","-32","","Clear"
"-61.68","56.55","NAIN A","8502801","2020-02-26 18:00","2020","02","26","18:00","-21.6","","-27.8","","58","","","","28","","18","","24.1","","102.53","","","","-32","","NA"
"-61.68","56.55","NAIN A","8502801","2020-02-26 19:00","2020","02","26","19:00","-21.7","","-28.0","","58","","","","28","","23","","24.1","","102.57","","","","-33","","NA"
"-61.68","56.55","NAIN A","8502801","2020-02-26 20:00","2020","02","26","20:00","-22.1","","-28.3","","58","","","","29","","29","","24.1","","102.60","","","","-35","","Clear"
"-61.68","56.55","NAIN A","8502801","2020-02-26 21:00","2020","02","26","21:00"
"-61.68","56.55","NAIN A","8502801","2020-02-26 22:00","2020","02","26","22:00"
"-61.68","56.55","NAIN A","8502801","2020-02-26 23:00","2020","02","26","23:00"
"-61.68","56.55","NAIN A","8502801","2020-02-27 00:00","2020","02","27","00:00"
"-61.68","56.55","NAIN A","8502801","2020-02-27 01:00","2020","02","27","01:00"
"-61.68","56.55","NAIN A","8502801","2020-02-27 02:00","2020","02","27","02:00"
"-61.68","56.55","NAIN A","8502801","2020-02-27 03:00","2020","02","27","03:00"
"-61.68","56.55","NAIN A","8502801","2020-02-27 04:00","2020","02","27","04:00"
"-61.68","56.55","NAIN A","8502801","2020-02-27 05:00","2020","02","27","05:00","-26.9","","-31.8","","64","","","","16","","5","","24.1","","102.83","","","","-32","","Clear"
"-61.68","56.55","NAIN A","8502801","2020-02-27 06:00","2020","02","27","06:00","-26.7","","-31.4","","65","","","","28","","9","","24.1","","102.86","","","","-35","","NA"
"-61.68","56.55","NAIN A","8502801","2020-02-27 07:00","2020","02","27","07:00","-27.6","","-32.8","","62","","","","29","","7","","24.1","","102.90","","","","-34","","NA"
"-61.68","56.55","NAIN A","8502801","2020-02-27 08:00","2020","02","27","08:00","-27.1","","-32.2","","63","","","","36","","2","","24.1","","102.94","","","","-29","","Clear"
"-61.68","56.55","NAIN A","8502801","2020-02-27 09:00","2020","02","27","09:00","-25.4","","-31.0","","61","","","","36","","1","","24.1","","102.95","","","","-26","","NA"
"-61.68","56.55","NAIN A","8502801","2020-02-27 10:00","2020","02","27","10:00","-24.2","","-30.4","","58","","","","36","","1","","24.1","","102.96","","","","-25","","NA"
"-61.68","56.55","NAIN A","8502801","2020-02-27 11:00","2020","02","27","11:00","-23.1","","-29.8","","55","","","","32","","4","","24.1","","102.95","","","","-27","","Clear"
"-61.68","56.55","NAIN A","8502801","2020-02-27 12:00","2020","02","27","12:00","-21.2","","-27.3","","59","","","","36","","3","","24.1","","102.87","","","","-24","","NA"
"-61.68","56.55","NAIN A","8502801","2020-02-27 13:00","2020","02","27","13:00","-19.8","","-26.8","","54","","","","17","","7","","24.1","","102.84","","","","-25","","NA"
"-61.68","56.55","NAIN A","8502801","2020-02-27 14:00","2020","02","27","14:00","-19.9","","-27.0","","54","","","","32","","4","","24.1","","102.78","","","","-23","","Clear"
"-61.68","56.55","NAIN A","8502801","2020-02-27 15:00","2020","02","27","15:00","-19.2","","-25.7","","57","","","","36","","1","","24.1","","102.76","","","","-20","","NA"
"-61.68","56.55","NAIN A","8502801","2020-02-27 16:00","2020","02","27","16:00","-18.9","","-26.6","","52","","","","36","","2","","24.1","","102.78","","","","-21","","NA"
"-61.68","56.55","NAIN A","8502801","2020-02-27 17:00","2020","02","27","17:00","-18.3","","-25.2","","55","","","","23","","9","","24.1","","102.76","","","","-25","","Clear"
"-61.68","56.55","NAIN A","8502801","2020-02-27 18:00","2020","02","27","18:00","-19.6","","-26.2","","57","","","","19","","7","","24.1","","102.80","","","","-25","","NA"
"-61.68","56.55","NAIN A","8502801","2020-02-27 19:00","2020","02","27","19:00","-20.7","","-26.7","","60","","","","30","","5","","24.1","","102.61","","","","-25","","NA"
"-61.68","56.55","NAIN A","8502801","2020-02-27 20:00","2020","02","27","20:00","-21.1","","-26.6","","62","","","","36","","1","","24.1","","102.45","","","","-22","","Clear"
"-61.68","56.55","NAIN A","8502801","2020-02-27 21:00","2020","02","27","21:00"
"-61.68","56.55","NAIN A","8502801","2020-02-27 22:00","2020","02","27","22:00"
"-61.68","56.55","NAIN A","8502801","2020-02-27 23:00","2020","02","27","23:00"
"-61.68","56.55","NAIN A","8502801","2020-02-28 00:00","2020","02","28","00:00"
"-61.68","56.55","NAIN A","8502801","2020-02-28 01:00","2020","02","28","01:00"
"-61.68","56.55","NAIN A","8502801","2020-02-28 02:00","2020","02","28","02:00"
"-61.68","56.55","NAIN A","8502801","2020-02-28 03:00","2020","02","28","03:00"
"-61.68","56.55","NAIN A","8502801","2020-02-28 04:00","2020","02","28","04:00"
"-61.68","56.55","NAIN A","8502801","2020-02-28 05:00","2020","02","28","05:00","-25.7","","-29.2","","73","","","","16","","8","","24.1","","102.10","","","","-33","","Clear"
"-61.68","56.55","NAIN A","8502801","2020-02-28 06:00","2020","02","28","06:00","-25.3","","-29.3","","70","","","","18","","3","","24.1","","102.01","","","","-28","","NA"
"-61.68","56.55","NAIN A","8502801","2020-02-28 07:00","2020","02","28","07:00","-26.1","","-29.8","","72","","","","18","","7","","24.1","","102.00","","","","-33","","NA"
"-61.68","56.55","NAIN A","8502801","2020-02-28 08:00","2020","02","28","08:00","-26.5","","-30.2","","72","","","","17","","10","","24.1","","102.01","","","","-35","","Clear"
"-61.68","56.55","NAIN A","8502801","2020-02-28 09:00","2020","02","28","09:00","-25.4","","-29.8","","67","","","","18","","5","","24.1","","102.00","","","","-30","","NA"
"-61.68","56.55","NAIN A","8502801","2020-02-28 10:00","2020","02","28","10:00","-23.8","","-28.4","","66","","","","36","","2","","24.1","","101.93","","","","-26","","NA"
"-61.68","56.55","NAIN A","8502801","2020-02-28 11:00","2020","02","28","11:00","-22.3","","-26.8","","68","","","","36","","15","","24.1","","101.88","","","","-32","","Mostly Cloudy"
"-61.68","56.55","NAIN A","8502801","2020-02-28 12:00","2020","02","28","12:00","-19.7","","-24.9","","64","","","","35","","9","","24.1","","101.81","","","","-26","","NA"
"-61.68","56.55","NAIN A","8502801","2020-02-28 13:00","2020","02","28","13:00","-18.4","","-24.1","","61","","","","36","","11","","24.1","","101.75","","","","-26","","NA"
"-61.68","56.55","NAIN A","8502801","2020-02-28 14:00","2020","02","28","14:00","-18.2","","-23.6","","63","","","","36","","9","","24.1","","101.70","","","","-25","","Mainly Clear"
"-61.68","56.55","NAIN A","8502801","2020-02-28 15:00","2020","02","28","15:00","-18.1","","-23.9","","61","","","","32","","7","","24.1","","101.66","","","","-23","","NA"
"-61.68","56.55","NAIN A","8502801","2020-02-28 16:00","2020","02","28","16:00","-18.9","","-24.1","","65","","","","36","","3","","24.1","","101.63","","","","-21","","NA"
"-61.68","56.55","NAIN A","8502801","2020-02-28 17:00","2020","02","28","17:00","-19.1","","-24.0","","66","","","","32","","5","","24.1","","101.64","","","","-23","","Mainly Clear"
"-61.68","56.55","NAIN A","8502801","2020-02-28 18:00","2020","02","28","18:00","-18.8","","-23.5","","67","","","","31","","8","","24.1","","101.65","","","","-25","","NA"
"-61.68","56.55","NAIN A","8502801","2020-02-28 19:00","2020","02","28","19:00","-18.8","","-22.3","","74","","","","32","","11","","24.1","","101.66","","","","-26","","NA"
"-61.68","56.55","NAIN A","8502801","2020-02-28 20:00","2020","02","28","20:00","-18.6","","-22.2","","74","","","","32","","12","","24.1","","101.68","","","","-26","","Mainly Clear"
"-61.68","56.55","NAIN A","8502801","2020-02-28 21:00","2020","02","28","21:00"
"-61.68","56.55","NAIN A","8502801","2020-02-28 22:00","2020","02","28","22:00"
"-61.68","56.55","NAIN A","8502801","2020-02-28 23:00","2020","02","28","23:00"
"-61.68","56.55","NAIN A","8502801","2020-02-29 00:00","2020","02","29","00:00"
"-61.68","56.55","NAIN A","8502801","2020-02-29 01:00","2020","02","29","01:00"
"-61.68","56.55","NAIN A","8502801","2020-02-29 02:00","2020","02","29","02:00"
"-61.68","56.55","NAIN A","8502801","2020-02-29 03:00","2020","02","29","03:00"
"-61.68","56.55","NAIN A","8502801","2020-02-29 04:00","2020","02","29","04:00"
"-61.68","56.55","NAIN A","8502801","2020-02-29 05:00","2020","02","29","05:00","-20.8","","-24.7","","72","","","","20","","4","","24.1","","101.59","","","","-24","","Mainly Clear"
"-61.68","56.55","NAIN A","8502801","2020-02-29 06:00","2020","02","29","06:00","-19.6","","-23.8","","70","","","","33","","9","","24.1","","101.60","","","","-26","","NA"
"-61.68","56.55","NAIN A","8502801","2020-02-29 07:00","2020","02","29","07:00","-19.4","","-23.1","","73","","","","31","","12","","24.1","","101.59","","","","-27","","NA"
"-61.68","56.55","NAIN A","8502801","2020-02-29 08:00","2020","02","29","08:00","-17.6","","-22.9","","64","","","","29","","22","","24.1","","101.59","","","","-28","","Mostly Cloudy"
"-61.68","56.55","NAIN A","8502801","2020-02-29 09:00","2020","02","29","09:00","-17.4","","-22.8","","63","","","","28","","24","","24.1","","101.60","","","","-28","","NA"
"-61.68","56.55","NAIN A","8502801","2020-02-29 10:00","2020","02","29","10:00","-16.7","","-22.3","","63","","","","29","","15","","24.1","","101.59","","","","-25","","NA"
"-61.68","56.55","NAIN A","8502801","2020-02-29 11:00","2020","02","29","11:00","-15.7","","-21.2","","63","","","","32","","17","","24.1","","101.59","","","","-24","","Mainly Clear"
"-61.68","56.55","NAIN A","8502801","2020-02-29 12:00","2020","02","29","12:00","-16.6","","-21.3","","67","","","","8","","4","","24.1","","101.55","","","","-20","","NA"
"-61.68","56.55","NAIN A","8502801","2020-02-29 13:00","2020","02","29","13:00","-16.2","","-20.7","","69","","","","9","","3","","24.1","","101.51","","","","-18","","NA"
"-61.68","56.55","NAIN A","8502801","2020-02-29 14:00","2020","02","29","14:00","-15.4","","-21.4","","60","","","","0","","1","","24.1","","101.49","","","","-16","","Clear"
"-61.68","56.55","NAIN A","8502801","2020-02-29 15:00","2020","02","29","15:00","-15.8","","-20.4","","68","","","","36","","2","","24.1","","101.47","","","","-17","","NA"
"-61.68","56.55","NAIN A","8502801","2020-02-29 16:00","2020","02","29","16:00","-16.4","","-21.6","","64","","","","29","","4","","24.1","","101.49","","","","-19","","NA"
"-61.68","56.55","NAIN A","8502801","2020-02-29 17:00","2020","02","29","17:00","-16.9","","-22.1","","64","","","","5","","3","","24.1","","101.52","","","","-19","","Clear"
"-61.68","56.55","NAIN A","8502801","2020-02-29 18:00","2020","02","29","18:00","-17.8","","-22.4","","68","","","","32","","4","","24.1","","101.55","","","","-21","","NA"
"-61.68","56.55","NAIN A","8502801","2020-02-29 19:00","2020","02","29","19:00","-18.1","","-22.3","","70","","","","30","","4","","24.1","","101.57","","","","-21","","NA"
"-61.68","56.55","NAIN A","8502801","2020-02-29 20:00","2020","02","29","20:00","-18.9","","-23.4","","68","","","","0","","1","","24.1","","101.59","","","","-20","","Clear"
"-61.68","56.55","NAIN A","8502801","2020-02-29 21:00","2020","02","29","21:00"
"-61.68","56.55","NAIN A","8502801","2020-02-29 22:00","2020","02","29","22:00"
"-61.68","56.55","NAIN A","8502801","2020-02-29 23:00","2020","02","29","23:00"
