"Longitude (x)","Latitude (y)","Station Name","Climate ID","Date/Time (LST)","Year","Month","Day","Time (LST)","Temp (°C)","Temp Flag","Dew Point Temp (°C)","Dew Point Temp Flag","Rel Hum (%)","Rel Hum Flag","Precip. Amount (mm)","Precip. Amount Flag","Wind Dir (10s deg)","Wind Dir Flag","Wind Spd (km/h)","Wind Spd Flag","Visibility (km)","Visibility Flag","Stn Press (kPa)","Stn Press Flag","Hmdx","Hmdx Flag","Wind Chill","Wind Chill Flag","Weather"
"-99.95","49.91","BRANDON A","5010481","2020-04-01 00:00","2020","04","01","00:00","2.5","","1.0","","90","","","","30","","9","","19.3","","96.44","","","","","","Rain"
"-99.95","49.91","BRANDON A","5010481","2020-04-01 01:00","2020","04","01","01:00","1.8","","0.6","","92","","","","28","","14","","24.1","","96.46","","","","","","Rain"
"-99.95","49.91","BRANDON A","5010481","2020-04-01 02:00","2020","04","01","02:00","-0.8","","-2.1","","91","","","","32","","21","","19.3","","96.48","","","","-6","","Freezing Rain"
"-99.95","49.91","BRANDON A","5010481","2020-04-01 03:00","2020","04","01","03:00","-1.4","","-2.7","","90","","","","32","","21","","12.9","","96.46","","","","-7","","Freezing Rain"
"-99.95","49.91","BRANDON A","5010481","2020-04-01 04:00","2020","04","01","04:00","-1.9","","-3.4","","89","","","","35","","16","","12.9","","96.48","","","","-7","","Snow"
"-99.95","49.91","BRANDON A","5010481","2020-04-01 05:00","2020","04","01","05:00","-1.4","","-2.7","","90","","","","1","","12","","24.1","","96.47","","","","-5","","Snow"
"-99.95","49.91","BRANDON A","5010481","2020-04-01 06:00","2020","04","01","06:00","-1.3","","-2.5","","91","","","","32","","9","","3.2","","96.51","","","","-5","","Snow,Fog"
"-99.95","49.91","BRANDON A","5010481","2020-04-01 07:00","2020","04","01","07:00","-1.7","","-2.8","","92","","","","5","","32","","1.6","","96.46","","","","-9","","Snow"
"-99.95","49.91","BRANDON A","5010481","2020-04-01 08:00","2020","04","01","08:00","-2.4","","-3.9","","89","","","","6","","34","","9.7","","96.41","","","","-10","","Snow"
"-99.95","49.91","BRANDON A","5010481","2020-04-01 09:00","2020","04","01","09:00","-3.2","","-4.8","","89","","","","7","","37","","6.4","","96.36","","","","-11","","Snow"
"-99.95","49.91","BRANDON A","5010481","2020-04-01 10:00","2020","04","01","10:00","-3.9","","-5.5","","89","","","","6","","36","","9.7","","96.37","","","","-12","","Snow"
"-99.95","49.91","BRANDON A","5010481","2020-04-01 11:00","2020","04","01","11:00","-4.7","","-6.2","","89","","","","6","","35","","3.2","","96.34","","","","-13","","Snow"
"-99.95","49.91","BRANDON A","5010481","2020-04-01 12:00","2020","04","01","12:00","-4.8","","-6.3","","89","","","","6","","30","","1.2","","96.36","","","","-13","","Snow"
"-99.95","49.91","BRANDON A","5010481","2020-04-01 13:00","2020","04","01","13:00","-4.5","","-5.9","","90","","","","6","","35","","0.8","","96.30","","","","-13","","Moderate Snow"
"-99.95","49.91","BRANDON A","5010481","2020-04-01 14:00","2020","04","01","14:00","-4.5","","-6.2","","88","","","","6","","16","","0.8","","96.34","","","","-10","","Moderate Snow"
"-99.95","49.91","BRANDON A","5010481","2020-04-01 15:00","2020","04","01","15:00","-3.3","","-5.2","","86","","","","6","","14","","4.8","","96.35","","","","-8","","Snow"
"-99.95","49.91","BRANDON A","5010481","2020-04-01 16:00","2020","04","01","16:00","-3.4","","-5.4","","86","","","","5","","7","","19.3","","96.40","","","","-6","","Snow"
"-99.95","49.91","BRANDON A","5010481","2020-04-01 17:00","2020","04","01","17:00","-2.7","","-4.4","","89","","","","8","","4","","4.8","","96.46","","","","-4","","Snow"
"-99.95","49.91","BRANDON A","5010481","2020-04-01 18:00","2020","04","01","18:00","-4.6","","-5.8","","91","","","","31","","25","","4.8","","96.52","","","","-12","","Freezing Drizzle,Snow"
"-99.95","49.91","BRANDON A","5010481","2020-04-01 19:00","2020","04","01","19:00","-7.2","","-8.7","","89","","","","32","","26","","3.2","","96.64","","","","-15","","Freezing Drizzle,Snow"
"-99.95","49.91","BRANDON A","5010481","2020-04-01 20:00","2020","04","01","20:00","-7.8","","-9.6","","87","","","","32","","27","","2.0","","96.72","","","","-16","","Snow"
"-99.95","49.91","BRANDON A","5010481","2020-04-01 21:00","2020","04","01","21:00","-8.6","","-10.7","","85","","","","31","","31","","16.1","","96.84","","","","-18","","Snow,Blowing Snow"
"-99.95","49.91","BRANDON A","5010481","2020-04-01 22:00","2020","04","01","22:00","-8.2","","-10.8","","82","","","","31","","27","","24.1","","96.86","","","","-17","","Blowing Snow"
"-99.95","49.91","BRANDON A","5010481","2020-04-01 23:00","2020","04","01","23:00","-8.7","","-11.7","","79","","","","30","","34","","24.1","","96.86","","","","-18","","Blowing Snow"
"-99.95","49.91","BRANDON A","5010481","2020-04-02 00:00","2020","04","02","00:00","-9.3","","-12.5","","77","","","","32","","25","","24.1","","96.87","","","","-18","","Blowing Snow"
"-99.95","49.91","BRANDON A","5010481","2020-04-02 01:00","2020","04","02","01:00","-9.8","","-13.1","","77","","","","31","","37","","24.1","","96.95","","","","-20","","Blowing Snow"
"-99.95","49.91","BRANDON A","5010481","2020-04-02 02:00","2020","04","02","02:00","-11.8","","-15.1","","77","","","","30","","27","","24.1","","96.96","","","","-21","","Blowing Snow"
"-99.95","49.91","BRANDON A","5010481","2020-04-02 03:00","2020","04","02","03:00","-12.5","","-15.7","","77","","","","29","","24","","24.1","","97.03","","","","-22","","Mostly Cloudy"
"-99.95","49.91","BRANDON A","5010481","2020-04-02 04:00","2020","04","02","04:00","-12.8","","-16.1","","77","","","","30","","32","","24.1","","97.10","","","","-23","","Blowing Snow"
"-99.95","49.91","BRANDON A","5010481","2020-04-02 05:00","2020","04","02","05:00","-13.3","","-16.6","","76","","","","31","","34","","24.1","","97.06","","","","-24","","Blowing Snow"
"-99.95","49.91","BRANDON A","5010481","2020-04-02 06:00","2020","04","02","06:00","-13.2","","-16.6","","76","","","","31","","33","","24.1","","97.12","","","","-24","","Blowing Snow"
"-99.95","49.91","BRANDON A","5010481","2020-04-02 07:00","2020","04","02","07:00","-12.6","","-16.5","","73","","","","32","","31","","24.1","","97.20","","","","-23","","Blowing Snow"
"-99.95","49.91","BRANDON A","5010481","2020-04-02 08:00","2020","04","02","08:00","-11.9","","-16.5","","69","","","","32","","30","","24.1","","97.27","","","","-22","","Blowing Snow"
"-99.95","49.91","BRANDON A","5010481","2020-04-02 09:00","2020","04","02","09:00","-11.3","","-16.1","","68","","","","34","","18","","24.1","","97.27","","","","-19","","Cloudy"
"-99.95","49.91","BRANDON A","5010481","2020-04-02 10:00","2020","04","02","10:00","-11.1","","-16.1","","67","","","","31","","27","","24.1","","97.35","","","","-21","","NA"
"-99.95","49.91","BRANDON A","5010481","2020-04-02 11:00","2020","04","02","11:00","-11.1","","-15.9","","68","","","","32","","35","","24.1","","97.30","","","","-22","","NA"
"-99.95","49.91","BRANDON A","5010481","2020-04-02 12:00","2020","04","02","12:00","-10.7","","-15.8","","66","","","","32","","32","","24.1","","97.32","","","","-21","","Cloudy"
"-99.95","49.91","BRANDON A","5010481","2020-04-02 13:00","2020","04","02","13:00","-10.2","","-15.4","","66","","","","32","","31","","24.1","","97.32","","","","-20","","NA"
"-99.95","49.91","BRANDON A","5010481","2020-04-02 14:00","2020","04","02","14:00","-10.2","","-14.3","","72","","","","31","","35","","1.6","","97.35","","","","-20","","Snow,Blowing Snow"
"-99.95","49.91","BRANDON A","5010481","2020-04-02 15:00","2020","04","02","15:00","-10.2","","-14.7","","70","","","","31","","38","","3.2","","97.40","","","","-21","","Snow,Blowing Snow"
"-99.95","49.91","BRANDON A","5010481","2020-04-02 16:00","2020","04","02","16:00","-10.7","","-14.8","","72","","","","32","","39","","1.6","","97.39","","","","-22","","Snow,Blowing Snow"
"-99.95","49.91","BRANDON A","5010481","2020-04-02 17:00","2020","04","02","17:00","-10.1","","-14.9","","68","","","","32","","36","","16.1","","97.39","","","","-20","","Snow,Blowing Snow"
"-99.95","49.91","BRANDON A","5010481","2020-04-02 18:00","2020","04","02","18:00","-9.9","","-15.5","","64","","","","32","","35","","24.1","","97.42","","","","-20","","Blowing Snow"
"-99.95","49.91","BRANDON A","5010481","2020-04-02 19:00","2020","04","02","19:00","-10.3","","-16.0","","64","","","","32","","29","","24.1","","97.39","","","","-20","","Blowing Snow"
"-99.95","49.91","BRANDON A","5010481","2020-04-02 20:00","2020","04","02","20:00","-10.4","","-16.3","","62","","","","33","","28","","24.1","","97.45","","","","-20","","Blowing Snow"
"-99.95","49.91","BRANDON A","5010481","2020-04-02 21:00","2020","04","02","21:00","-10.8","","-16.5","","63","","","","32","","23","","24.1","","97.49","","","","-19","","Blowing Snow"
"-99.95","49.91","BRANDON A","5010481","2020-04-02 22:00","2020","04","02","22:00","-11.2","","-17.1","","63","","","","31","","27","","24.1","","97.51","","","","-21","","Blowing Snow"
"-99.95","49.91","BRANDON A","5010481","2020-04-02 23:00","2020","04","02","23:00","-11.5","","-17.2","","63","","","","32","","28","","24.1","","97.46","","","","-21","","Blowing Snow"
"-99.95","49.91","BRANDON A","5010481","2020-04-03 00:00","2020","04","03","00:00","-12.1","","-17.8","","63","","","","31","","37","","24.1","","97.50","","","","-23","","Blowing Snow"
"-99.95","49.91","BRANDON A","5010481","2020-04-03 01:00","2020","04","03","01:00","-12.6","","-18.1","","64","","","","32","","35","","24.1","","97.51","","","","-24","","Blowing Snow"
"-99.95","49.91","BRANDON A","5010481","2020-04-03 02:00","2020","04","03","02:00","-13.0","","-18.1","","66","","","","31","","30","","24.1","","97.47","","","","-23","","Blowing Snow"
"-99.95","49.91","BRANDON A","5010481","2020-04-03 03:00","2020","04","03","03:00","-13.2","","-18.4","","65","","","","32","","27","","24.1","","97.49","","","","-23","","Blowing Snow"
"-99.95","49.91","BRANDON A","5010481","2020-04-03 04:00","2020","04","03","04:00","-13.6","","-19.6","","61","","","","31","","34","","24.1","","97.46","","","","-25","","Blowing Snow"
"-99.95","49.91","BRANDON A","5010481","2020-04-03 05:00","2020","04","03","05:00","-13.9","","-19.4","","64","","","","31","","27","","24.1","","97.45","","","","-24","","Blowing Snow"
"-99.95","49.91","BRANDON A","5010481","2020-04-03 06:00","2020","04","03","06:00","-14.3","","-19.6","","64","","","","30","","26","","24.1","","97.50","","","","-24","","Cloudy"
"-99.95","49.91","BRANDON A","5010481","2020-04-03 07:00","2020","04","03","07:00","-14.6","","-19.9","","64","","","","31","","27","","24.1","","97.51","","","","-25","","NA"
"-99.95","49.91","BRANDON A","5010481","2020-04-03 08:00","2020","04","03","08:00","-14.1","","-19.8","","63","","","","30","","26","","24.1","","97.51","","","","-24","","NA"
"-99.95","49.91","BRANDON A","5010481","2020-04-03 09:00","2020","04","03","09:00","-13.7","","-19.5","","62","","","","30","","30","","24.1","","97.51","","","","-24","","Mostly Cloudy"
"-99.95","49.91","BRANDON A","5010481","2020-04-03 10:00","2020","04","03","10:00","-13.7","","-19.6","","62","","","","29","","30","","24.1","","97.48","","","","-24","","NA"
"-99.95","49.91","BRANDON A","5010481","2020-04-03 11:00","2020","04","03","11:00","-12.2","","-18.0","","62","","","","29","","28","","24.1","","97.50","","","","-22","","NA"
"-99.95","49.91","BRANDON A","5010481","2020-04-03 12:00","2020","04","03","12:00","-10.9","","-18.3","","55","","","","30","","37","","24.1","","97.47","","","","-22","","Mostly Cloudy"
"-99.95","49.91","BRANDON A","5010481","2020-04-03 13:00","2020","04","03","13:00","-10.8","","-18.2","","55","","","","29","","36","","24.1","","97.47","","","","-21","","NA"
"-99.95","49.91","BRANDON A","5010481","2020-04-03 14:00","2020","04","03","14:00","-10.1","","-18.0","","53","","","","30","","32","","24.1","","97.46","","","","-20","","NA"
"-99.95","49.91","BRANDON A","5010481","2020-04-03 15:00","2020","04","03","15:00","-9.6","","-17.6","","52","","","","29","","30","","24.1","","97.43","","","","-19","","Mostly Cloudy"
"-99.95","49.91","BRANDON A","5010481","2020-04-03 16:00","2020","04","03","16:00","-9.2","","-17.4","","52","","","","30","","31","","24.1","","97.39","","","","-19","","NA"
"-99.95","49.91","BRANDON A","5010481","2020-04-03 17:00","2020","04","03","17:00","-9.0","","-16.7","","54","","","","30","","25","","24.1","","97.37","","","","-17","","NA"
"-99.95","49.91","BRANDON A","5010481","2020-04-03 18:00","2020","04","03","18:00","-9.4","","-16.9","","55","","","","29","","21","","24.1","","97.36","","","","-17","","Mainly Clear"
"-99.95","49.91","BRANDON A","5010481","2020-04-03 19:00","2020","04","03","19:00","-11.9","","-17.9","","62","","","","29","","18","","24.1","","97.36","","","","-20","","NA"
"-99.95","49.91","BRANDON A","5010481","2020-04-03 20:00","2020","04","03","20:00","-14.8","","-19.6","","67","","","","30","","12","","24.1","","97.39","","","","-22","","NA"
"-99.95","49.91","BRANDON A","5010481","2020-04-03 21:00","2020","04","03","21:00","-15.1","","-19.1","","72","","","","30","","9","","24.1","","97.40","","","","-21","","Clear"
"-99.95","49.91","BRANDON A","5010481","2020-04-03 22:00","2020","04","03","22:00","-15.8","","-18.9","","77","","","","33","","8","","24.1","","97.42","","","","-21","","NA"
"-99.95","49.91","BRANDON A","5010481","2020-04-03 23:00","2020","04","03","23:00","-17.0","","-19.8","","79","","","","26","","12","","24.1","","97.39","","","","-24","","NA"
"-99.95","49.91","BRANDON A","5010481","2020-04-04 00:00","2020","04","04","00:00","-16.5","","-20.1","","74","","","","28","","17","","24.1","","97.40","","","","-25","","Mainly Clear"
"-99.95","49.91","BRANDON A","5010481","2020-04-04 01:00","2020","04","04","01:00","-18.2","","-21.2","","78","","","","31","","10","","24.1","","97.40","","","","-25","","NA"
"-99.95","49.91","BRANDON A","5010481","2020-04-04 02:00","2020","04","04","02:00","-20.0","","-23.1","","77","","","","30","","9","","24.1","","97.37","","","","-27","","NA"
"-99.95","49.91","BRANDON A","5010481","2020-04-04 03:00","2020","04","04","03:00","-18.3","","-21.1","","79","","","","27","","8","","24.1","","97.37","","","","-24","","Mainly Clear"
"-99.95","49.91","BRANDON A","5010481","2020-04-04 04:00","2020","04","04","04:00","-18.4","","-21.1","","79","","","","26","","9","","24.1","","97.39","","","","-25","","NA"
"-99.95","49.91","BRANDON A","5010481","2020-04-04 05:00","2020","04","04","05:00","-18.2","","-20.9","","80","","","","32","","6","","24.1","","97.39","","","","-23","","NA"
"-99.95","49.91","BRANDON A","5010481","2020-04-04 06:00","2020","04","04","06:00","-18.0","","-20.9","","78","","","","36","","2","","24.1","","97.38","","","","-20","","Mainly Clear"
"-99.95","49.91","BRANDON A","5010481","2020-04-04 07:00","2020","04","04","07:00","-18.2","","-21.2","","77","","","","6","","9","","24.1","","97.37","","","","-25","","NA"
"-99.95","49.91","BRANDON A","5010481","2020-04-04 08:00","2020","04","04","08:00","-14.7","","-19.1","","70","","","","12","","10","","24.1","","97.37","","","","-21","","NA"
"-99.95","49.91","BRANDON A","5010481","2020-04-04 09:00","2020","04","04","09:00","-12.2","","-18.4","","60","","","","12","","13","","24.1","","97.35","","","","-19","","Mainly Clear"
"-99.95","49.91","BRANDON A","5010481","2020-04-04 10:00","2020","04","04","10:00","-10.2","","-16.9","","58","","","","9","","15","","24.1","","97.31","","","","-17","","NA"
"-99.95","49.91","BRANDON A","5010481","2020-04-04 11:00","2020","04","04","11:00","-7.4","","-14.4","","58","","","","9","","16","","24.1","","97.24","","","","-14","","NA"
"-99.95","49.91","BRANDON A","5010481","2020-04-04 12:00","2020","04","04","12:00","-5.0","","-12.9","","54","","","","11","","17","","24.1","","97.18","","","","-11","","Mainly Clear"
"-99.95","49.91","BRANDON A","5010481","2020-04-04 13:00","2020","04","04","13:00","-3.8","","-11.8","","54","","","","12","","17","","24.1","","97.09","","","","-10","","NA"
"-99.95","49.91","BRANDON A","5010481","2020-04-04 14:00","2020","04","04","14:00","-3.0","","-11.4","","53","","","","11","","23","","24.1","","97.01","","","","-9","","NA"
"-99.95","49.91","BRANDON A","5010481","2020-04-04 15:00","2020","04","04","15:00","-2.4","","-11.2","","51","","","","12","","24","","24.1","","96.91","","","","-9","","Mainly Clear"
"-99.95","49.91","BRANDON A","5010481","2020-04-04 16:00","2020","04","04","16:00","-1.9","","-10.7","","51","","","","13","","23","","24.1","","96.83","","","","-8","","NA"
"-99.95","49.91","BRANDON A","5010481","2020-04-04 17:00","2020","04","04","17:00","-1.9","","-10.2","","54","","","","13","","26","","24.1","","96.84","","","","-8","","NA"
"-99.95","49.91","BRANDON A","5010481","2020-04-04 18:00","2020","04","04","18:00","-2.5","","-9.0","","61","","","","13","","26","","24.1","","96.84","","","","-9","","Mainly Clear"
"-99.95","49.91","BRANDON A","5010481","2020-04-04 19:00","2020","04","04","19:00","-3.8","","-9.6","","64","","","","14","","14","","24.1","","96.83","","","","-9","","NA"
"-99.95","49.91","BRANDON A","5010481","2020-04-04 20:00","2020","04","04","20:00","-4.3","","-10.0","","65","","","","14","","15","","24.1","","96.84","","","","-10","","NA"
"-99.95","49.91","BRANDON A","5010481","2020-04-04 21:00","2020","04","04","21:00","-4.1","","-9.9","","64","","","","13","","20","","24.1","","96.80","","","","-10","","Cloudy"
"-99.95","49.91","BRANDON A","5010481","2020-04-04 22:00","2020","04","04","22:00","-4.3","","-9.7","","66","","","","12","","17","","24.1","","96.78","","","","-10","","NA"
"-99.95","49.91","BRANDON A","5010481","2020-04-04 23:00","2020","04","04","23:00","-4.7","","-9.3","","70","","","","9","","11","","24.1","","96.77","","","","-9","","NA"
"-99.95","49.91","BRANDON A","5010481","2020-04-05 00:00","2020","04","05","00:00","-4.7","","-8.6","","74","","","","9","","11","","24.1","","96.74","","","","-9","","Cloudy"
"-99.95","49.91","BRANDON A","5010481","2020-04-05 01:00","2020","04","05","01:00","-4.9","","-7.6","","82","","","","10","","13","","9.7","","96.73","","","","-10","","Snow"
"-99.95","49.91","BRANDON A","5010481","2020-04-05 02:00","2020","04","05","02:00","-4.7","","-7.1","","84","","","","10","","9","","19.3","","96.70","","","","-9","","Snow"
"-99.95","49.91","BRANDON A","5010481","2020-04-05 03:00","2020","04","05","03:00","-4.7","","-6.9","","84","","","","9","","10","","19.3","","96.67","","","","-9","","Snow"
"-99.95","49.91","BRANDON A","5010481","2020-04-05 04:00","2020","04","05","04:00","-4.6","","-6.8","","85","","","","9","","7","","19.3","","96.68","","","","-8","","Snow"
"-99.95","49.91","BRANDON A","5010481","2020-04-05 05:00","2020","04","05","05:00","-5.7","","-7.9","","85","","","","9","","4","","24.1","","96.70","","","","-8","","NA"
"-99.95","49.91","BRANDON A","5010481","2020-04-05 06:00","2020","04","05","06:00","-5.2","","-6.7","","89","","","","2","","7","","24.1","","96.72","","","","-8","","Cloudy"
"-99.95","49.91","BRANDON A","5010481","2020-04-05 07:00","2020","04","05","07:00","-4.5","","-6.7","","85","","","","5","","7","","24.1","","96.72","","","","-8","","NA"
"-99.95","49.91","BRANDON A","5010481","2020-04-05 08:00","2020","04","05","08:00","-3.7","","-6.5","","81","","","","2","","4","","24.1","","96.75","","","","-5","","NA"
"-99.95","49.91","BRANDON A","5010481","2020-04-05 09:00","2020","04","05","09:00","-2.5","","-5.9","","78","","","","5","","6","","24.1","","96.74","","","","-5","","Cloudy"
"-99.95","49.91","BRANDON A","5010481","2020-04-05 10:00","2020","04","05","10:00","-1.7","","-5.1","","77","","","","28","","4","","24.1","","96.79","","","","-3","","NA"
"-99.95","49.91","BRANDON A","5010481","2020-04-05 11:00","2020","04","05","11:00","0.1","","-4.5","","71","","","","1","","5","","24.1","","96.81","","","","","","NA"
"-99.95","49.91","BRANDON A","5010481","2020-04-05 12:00","2020","04","05","12:00","-0.1","","-4.5","","72","","","","17","","3","","24.1","","96.85","","","","-1","","Cloudy"
"-99.95","49.91","BRANDON A","5010481","2020-04-05 13:00","2020","04","05","13:00","0.5","","-4.3","","70","","","","3","","5","","24.1","","96.84","","","","","","NA"
"-99.95","49.91","BRANDON A","5010481","2020-04-05 14:00","2020","04","05","14:00","0.6","","-3.9","","72","","","","6","","12","","24.1","","96.79","","","","","","NA"
"-99.95","49.91","BRANDON A","5010481","2020-04-05 15:00","2020","04","05","15:00","0.9","","-3.6","","72","","","","7","","12","","24.1","","96.74","","","","","","Cloudy"
"-99.95","49.91","BRANDON A","5010481","2020-04-05 16:00","2020","04","05","16:00","1.3","","-3.0","","73","","","","7","","14","","24.1","","96.72","","","","","","NA"
"-99.95","49.91","BRANDON A","5010481","2020-04-05 17:00","2020","04","05","17:00","1.2","","-3.6","","70","","","","6","","23","","24.1","","96.69","","","","","","NA"
"-99.95","49.91","BRANDON A","5010481","2020-04-05 18:00","2020","04","05","18:00","0.9","","-2.8","","76","","","","8","","24","","24.1","","96.70","","","","","","Mostly Cloudy"
"-99.95","49.91","BRANDON A","5010481","2020-04-05 19:00","2020","04","05","19:00","-0.1","","-3.2","","80","","","","8","","21","","24.1","","96.68","","","","-6","","NA"
"-99.95","49.91","BRANDON A","5010481","2020-04-05 20:00","2020","04","05","20:00","-1.0","","-3.7","","82","","","","7","","22","","24.1","","96.67","","","","-7","","NA"
"-99.95","49.91","BRANDON A","5010481","2020-04-05 21:00","2020","04","05","21:00","-1.7","","-4.1","","84","","","","7","","25","","24.1","","96.69","","","","-8","","Mostly Cloudy"
"-99.95","49.91","BRANDON A","5010481","2020-04-05 22:00","2020","04","05","22:00","-1.6","","-3.8","","85","","","","7","","25","","24.1","","96.68","","","","-8","","NA"
"-99.95","49.91","BRANDON A","5010481","2020-04-05 23:00","2020","04","05","23:00","-1.3","","-3.6","","84","","","","7","","26","","24.1","","96.64","","","","-8","","NA"
"-99.95","49.91","BRANDON A","5010481","2020-04-06 00:00","2020","04","06","00:00","-1.9","","-4.1","","85","","","","7","","23","","24.1","","96.60","","","","-8","","Mostly Cloudy"
"-99.95","49.91","BRANDON A","5010481","2020-04-06 01:00","2020","04","06","01:00","-1.9","","-4.3","","83","","","","7","","24","","24.1","","96.56","","","","-8","","NA"
"-99.95","49.91","BRANDON A","5010481","2020-04-06 02:00","2020","04","06","02:00","-1.9","","-4.3","","84","","","","7","","28","","24.1","","96.51","","","","-9","","NA"
"-99.95","49.91","BRANDON A","5010481","2020-04-06 03:00","2020","04","06","03:00","-1.9","","-4.4","","84","","","","7","","30","","24.1","","96.45","","","","-9","","Mostly Cloudy"
"-99.95","49.91","BRANDON A","5010481","2020-04-06 04:00","2020","04","06","04:00","-1.9","","-4.2","","85","","","","7","","26","","24.1","","96.40","","","","-8","","NA"
"-99.95","49.91","BRANDON A","5010481","2020-04-06 05:00","2020","04","06","05:00","-2.4","","-4.5","","85","","","","7","","29","","24.1","","96.35","","","","-9","","NA"
"-99.95","49.91","BRANDON A","5010481","2020-04-06 06:00","2020","04","06","06:00","-2.4","","-4.5","","86","","","","7","","28","","24.1","","96.34","","","","-9","","Mostly Cloudy"
"-99.95","49.91","BRANDON A","5010481","2020-04-06 07:00","2020","04","06","07:00","-2.4","","-4.4","","87","","","","7","","26","","24.1","","96.29","","","","-9","","NA"
"-99.95","49.91","BRANDON A","5010481","2020-04-06 08:00","2020","04","06","08:00","-1.5","","-3.8","","85","","","","8","","28","","24.1","","96.22","","","","-8","","NA"
"-99.95","49.91","BRANDON A","5010481","2020-04-06 09:00","2020","04","06","09:00","0.0","","-3.0","","80","","","","8","","33","","24.1","","96.15","","","","-7","","Mainly Clear"
"-99.95","49.91","BRANDON A","5010481","2020-04-06 10:00","2020","04","06","10:00","1.2","","-2.4","","77","","","","8","","32","","24.1","","96.11","","","","","","NA"
"-99.95","49.91","BRANDON A","5010481","2020-04-06 11:00","2020","04","06","11:00","2.3","","-1.6","","75","","","","8","","25","","24.1","","96.07","","","","","","NA"
"-99.95","49.91","BRANDON A","5010481","2020-04-06 12:00","2020","04","06","12:00","3.4","","-1.2","","72","","","","10","","24","","24.1","","95.99","","","","","","Mostly Cloudy"
"-99.95","49.91","BRANDON A","5010481","2020-04-06 13:00","2020","04","06","13:00","4.8","","0.1","","71","","","","8","","21","","24.1","","95.89","","","","","","NA"
"-99.95","49.91","BRANDON A","5010481","2020-04-06 14:00","2020","04","06","14:00","5.7","","1.1","","72","","","","8","","16","","24.1","","95.81","","","","","","NA"
"-99.95","49.91","BRANDON A","5010481","2020-04-06 15:00","2020","04","06","15:00","7.2","","2.0","","70","","","","10","","12","","24.1","","95.70","","","","","","Cloudy"
"-99.95","49.91","BRANDON A","5010481","2020-04-06 16:00","2020","04","06","16:00","8.2","","2.5","","67","","","","12","","17","","24.1","","95.57","","","","","","NA"
"-99.95","49.91","BRANDON A","5010481","2020-04-06 17:00","2020","04","06","17:00","8.2","","3.1","","70","","","","13","","17","","24.1","","95.54","","","","","","NA"
"-99.95","49.91","BRANDON A","5010481","2020-04-06 18:00","2020","04","06","18:00","7.3","","3.5","","77","","","","13","","27","","24.1","","95.46","","","","","","Cloudy"
"-99.95","49.91","BRANDON A","5010481","2020-04-06 19:00","2020","04","06","19:00","6.6","","3.6","","81","","","","17","","11","","24.1","","95.55","","","","","","NA"
"-99.95","49.91","BRANDON A","5010481","2020-04-06 20:00","2020","04","06","20:00","5.3","","3.2","","87","","","","14","","12","","24.1","","95.49","","","","","","NA"
"-99.95","49.91","BRANDON A","5010481","2020-04-06 21:00","2020","04","06","21:00","4.3","","2.9","","91","","","","19","","8","","24.1","","95.47","","","","","","Cloudy"
"-99.95","49.91","BRANDON A","5010481","2020-04-06 22:00","2020","04","06","22:00","3.6","","2.5","","93","","","","23","","5","","24.1","","95.46","","","","","","NA"
"-99.95","49.91","BRANDON A","5010481","2020-04-06 23:00","2020","04","06","23:00","2.4","","1.8","","96","","","","23","","12","","19.3","","95.46","","","","","","NA"
"-99.95","49.91","BRANDON A","5010481","2020-04-07 00:00","2020","04","07","00:00","2.9","","1.9","","93","","","","29","","26","","24.1","","95.50","","","","","","Mainly Clear"
"-99.95","49.91","BRANDON A","5010481","2020-04-07 01:00","2020","04","07","01:00","1.2","","-0.3","","89","","","","30","","23","","24.1","","95.55","","","","","","NA"
"-99.95","49.91","BRANDON A","5010481","2020-04-07 02:00","2020","04","07","02:00","0.2","","-1.6","","88","","","","30","","23","","24.1","","95.59","","","","","","NA"
"-99.95","49.91","BRANDON A","5010481","2020-04-07 03:00","2020","04","07","03:00","-0.5","","-2.4","","87","","","","29","","25","","24.1","","95.63","","","","-7","","Clear"
"-99.95","49.91","BRANDON A","5010481","2020-04-07 04:00","2020","04","07","04:00","-0.7","","-3.2","","83","","","","30","","35","","24.1","","95.67","","","","-8","","NA"
"-99.95","49.91","BRANDON A","5010481","2020-04-07 05:00","2020","04","07","05:00","-1.4","","-4.0","","83","","","","29","","32","","24.1","","95.79","","","","-9","","NA"
"-99.95","49.91","BRANDON A","5010481","2020-04-07 06:00","2020","04","07","06:00","-2.1","","-4.5","","84","","","","29","","24","","24.1","","95.82","","","","-8","","Mainly Clear"
"-99.95","49.91","BRANDON A","5010481","2020-04-07 07:00","2020","04","07","07:00","-1.9","","-4.2","","84","","","","28","","23","","24.1","","95.82","","","","-8","","NA"
"-99.95","49.91","BRANDON A","5010481","2020-04-07 08:00","2020","04","07","08:00","-0.9","","-3.8","","81","","","","29","","22","","24.1","","95.81","","","","-7","","NA"
"-99.95","49.91","BRANDON A","5010481","2020-04-07 09:00","2020","04","07","09:00","-0.5","","-3.8","","79","","","","30","","16","","24.1","","95.77","","","","-5","","Mostly Cloudy"
"-99.95","49.91","BRANDON A","5010481","2020-04-07 10:00","2020","04","07","10:00","0.6","","-4.1","","71","","","","29","","12","","24.1","","95.79","","","","","","NA"
"-99.95","49.91","BRANDON A","5010481","2020-04-07 11:00","2020","04","07","11:00","1.8","","-3.6","","67","","","","25","","9","","24.1","","95.83","","","","","","NA"
"-99.95","49.91","BRANDON A","5010481","2020-04-07 12:00","2020","04","07","12:00","2.3","","-3.9","","64","","","","24","","4","","24.1","","95.75","","","","","","Cloudy"
"-99.95","49.91","BRANDON A","5010481","2020-04-07 13:00","2020","04","07","13:00","3.9","","-3.4","","59","","","","","","0","","24.1","","95.69","","","","","","NA"
"-99.95","49.91","BRANDON A","5010481","2020-04-07 14:00","2020","04","07","14:00","4.8","","-4.5","","51","","","","15","","9","","24.1","","95.65","","","","","","NA"
"-99.95","49.91","BRANDON A","5010481","2020-04-07 15:00","2020","04","07","15:00","6.6","","-5.7","","41","","","","19","","14","","24.1","","95.62","","","","","","Mainly Clear"
"-99.95","49.91","BRANDON A","5010481","2020-04-07 16:00","2020","04","07","16:00","7.4","","-2.6","","49","","","","23","","17","","24.1","","95.65","","","","","","NA"
"-99.95","49.91","BRANDON A","5010481","2020-04-07 17:00","2020","04","07","17:00","7.9","","-0.4","","56","","","","26","","13","","24.1","","95.65","","","","","","NA"
"-99.95","49.91","BRANDON A","5010481","2020-04-07 18:00","2020","04","07","18:00","7.6","","-0.6","","56","","","","6","","3","","24.1","","95.64","","","","","","Cloudy"
"-99.95","49.91","BRANDON A","5010481","2020-04-07 19:00","2020","04","07","19:00","5.7","","0.2","","68","","","","3","","7","","24.1","","95.68","","","","","","Thunderstorms"
"-99.95","49.91","BRANDON A","5010481","2020-04-07 20:00","2020","04","07","20:00","4.0","","0.8","","79","","","","25","","14","","24.1","","95.78","","","","","","NA"
"-99.95","49.91","BRANDON A","5010481","2020-04-07 21:00","2020","04","07","21:00","1.3","","-0.6","","87","","","","33","","13","","24.1","","95.86","","","","","","Mainly Clear"
"-99.95","49.91","BRANDON A","5010481","2020-04-07 22:00","2020","04","07","22:00","0.8","","-0.8","","89","","","","29","","16","","24.1","","95.90","","","","","","NA"
"-99.95","49.91","BRANDON A","5010481","2020-04-07 23:00","2020","04","07","23:00","0.3","","-2.2","","84","","","","28","","16","","24.1","","95.96","","","","","","NA"
"-99.95","49.91","BRANDON A","5010481","2020-04-08 00:00","2020","04","08","00:00","0.4","","-3.0","","78","","","","30","","18","","24.1","","96.00","","","","","","Clear"
"-99.95","49.91","BRANDON A","5010481","2020-04-08 01:00","2020","04","08","01:00","0.3","","-3.2","","77","","","","29","","20","","24.1","","96.05","","","","","","NA"
"-99.95","49.91","BRANDON A","5010481","2020-04-08 02:00","2020","04","08","02:00","-0.3","","-3.2","","81","","","","28","","23","","24.1","","96.08","","","","-6","","NA"
"-99.95","49.91","BRANDON A","5010481","2020-04-08 03:00","2020","04","08","03:00","-0.4","","-3.2","","82","","","","28","","27","","24.1","","96.10","","","","-7","","Clear"
"-99.95","49.91","BRANDON A","5010481","2020-04-08 04:00","2020","04","08","04:00","-0.7","","-3.2","","83","","","","28","","23","","24.1","","96.16","","","","-7","","NA"
"-99.95","49.91","BRANDON A","5010481","2020-04-08 05:00","2020","04","08","05:00","-1.1","","-3.3","","85","","","","27","","20","","24.1","","96.22","","","","-7","","NA"
"-99.95","49.91","BRANDON A","5010481","2020-04-08 06:00","2020","04","08","06:00","-0.9","","-3.1","","85","","","","27","","20","","24.1","","96.26","","","","-6","","Mostly Cloudy"
"-99.95","49.91","BRANDON A","5010481","2020-04-08 07:00","2020","04","08","07:00","-0.3","","-2.9","","82","","","","27","","28","","24.1","","96.28","","","","-7","","NA"
"-99.95","49.91","BRANDON A","5010481","2020-04-08 08:00","2020","04","08","08:00","0.3","","-3.1","","78","","","","28","","33","","24.1","","96.28","","","","","","NA"
"-99.95","49.91","BRANDON A","5010481","2020-04-08 09:00","2020","04","08","09:00","1.1","","-2.8","","75","","","","30","","42","","24.1","","96.31","","","","","","Snow Showers"
"-99.95","49.91","BRANDON A","5010481","2020-04-08 10:00","2020","04","08","10:00","1.0","","-6.6","","57","","","","33","","40","","24.1","","96.41","","","","","","NA"
"-99.95","49.91","BRANDON A","5010481","2020-04-08 11:00","2020","04","08","11:00","1.5","","-6.8","","54","","","","31","","45","","24.1","","96.47","","","","","","NA"
"-99.95","49.91","BRANDON A","5010481","2020-04-08 12:00","2020","04","08","12:00","1.8","","-6.3","","55","","","","31","","33","","24.1","","96.44","","","","","","Mostly Cloudy"
"-99.95","49.91","BRANDON A","5010481","2020-04-08 13:00","2020","04","08","13:00","-0.9","","-3.6","","82","","","","31","","36","","0.8","","96.42","","","","-8","","Moderate Snow Showers,Blowing Snow"
"-99.95","49.91","BRANDON A","5010481","2020-04-08 14:00","2020","04","08","14:00","1.3","","-2.7","","75","","","","31","","35","","19.3","","96.33","","","","","","Snow Showers"
"-99.95","49.91","BRANDON A","5010481","2020-04-08 15:00","2020","04","08","15:00","1.7","","-2.9","","72","","","","29","","43","","24.1","","96.30","","","","","","Snow Showers"
"-99.95","49.91","BRANDON A","5010481","2020-04-08 16:00","2020","04","08","16:00","0.7","","-5.7","","62","","","","31","","51","","24.1","","96.33","","","","","","Snow Showers"
"-99.95","49.91","BRANDON A","5010481","2020-04-08 17:00","2020","04","08","17:00","0.1","","-6.4","","62","","","","31","","49","","24.1","","96.35","","","","","","NA"
"-99.95","49.91","BRANDON A","5010481","2020-04-08 18:00","2020","04","08","18:00","-1.0","","-6.5","","67","","","","31","","39","","24.1","","96.39","","","","-9","","Snow Showers"
"-99.95","49.91","BRANDON A","5010481","2020-04-08 19:00","2020","04","08","19:00","-1.4","","-7.4","","64","","","","32","","38","","24.1","","96.41","","","","-9","","NA"
"-99.95","49.91","BRANDON A","5010481","2020-04-08 20:00","2020","04","08","20:00","-1.7","","-7.1","","67","","","","31","","30","","24.1","","96.43","","","","-9","","NA"
"-99.95","49.91","BRANDON A","5010481","2020-04-08 21:00","2020","04","08","21:00","-2.2","","-6.5","","73","","","","31","","32","","24.1","","96.46","","","","-10","","Cloudy"
"-99.95","49.91","BRANDON A","5010481","2020-04-08 22:00","2020","04","08","22:00","-3.1","","-5.6","","83","","","","30","","28","","24.1","","96.46","","","","-10","","NA"
"-99.95","49.91","BRANDON A","5010481","2020-04-08 23:00","2020","04","08","23:00","-3.4","","-6.0","","83","","","","30","","33","","4.8","","96.46","","","","-11","","Snow Showers"
"-99.95","49.91","BRANDON A","5010481","2020-04-09 00:00","2020","04","09","00:00","-3.7","","-7.6","","74","","","","31","","27","","24.1","","96.44","","","","-11","","Mostly Cloudy"
"-99.95","49.91","BRANDON A","5010481","2020-04-09 01:00","2020","04","09","01:00","-3.9","","-7.3","","77","","","","30","","24","","24.1","","96.47","","","","-11","","NA"
"-99.95","49.91","BRANDON A","5010481","2020-04-09 02:00","2020","04","09","02:00","-5.2","","-9.3","","73","","","","35","","38","","16.1","","96.54","","","","-14","","Snow Showers,Blowing Snow"
"-99.95","49.91","BRANDON A","5010481","2020-04-09 03:00","2020","04","09","03:00","-5.9","","-11.4","","65","","","","35","","36","","24.1","","96.66","","","","-15","","Mostly Cloudy"
"-99.95","49.91","BRANDON A","5010481","2020-04-09 04:00","2020","04","09","04:00","-5.9","","-10.7","","69","","","","33","","27","","24.1","","96.76","","","","-14","","NA"
"-99.95","49.91","BRANDON A","5010481","2020-04-09 05:00","2020","04","09","05:00","-6.3","","-10.3","","74","","","","32","","28","","24.1","","96.85","","","","-14","","NA"
"-99.95","49.91","BRANDON A","5010481","2020-04-09 06:00","2020","04","09","06:00","-5.3","","-9.2","","74","","","","33","","28","","24.1","","96.99","","","","-13","","Mostly Cloudy"
"-99.95","49.91","BRANDON A","5010481","2020-04-09 07:00","2020","04","09","07:00","-4.5","","-8.7","","73","","","","34","","34","","24.1","","97.09","","","","-13","","NA"
"-99.95","49.91","BRANDON A","5010481","2020-04-09 08:00","2020","04","09","08:00","-3.4","","-8.1","","70","","","","35","","28","","24.1","","97.20","","","","-11","","NA"
"-99.95","49.91","BRANDON A","5010481","2020-04-09 09:00","2020","04","09","09:00","-2.4","","-8.1","","65","","","","34","","28","","24.1","","97.23","","","","-9","","Mainly Clear"
"-99.95","49.91","BRANDON A","5010481","2020-04-09 10:00","2020","04","09","10:00","-1.8","","-7.7","","64","","","","31","","27","","24.1","","97.29","","","","-8","","NA"
"-99.95","49.91","BRANDON A","5010481","2020-04-09 11:00","2020","04","09","11:00","-0.8","","-6.8","","64","","","","31","","28","","24.1","","97.32","","","","-7","","NA"
"-99.95","49.91","BRANDON A","5010481","2020-04-09 12:00","2020","04","09","12:00","0.2","","-6.3","","62","","","","30","","29","","24.1","","97.32","","","","","","Clear"
"-99.95","49.91","BRANDON A","5010481","2020-04-09 13:00","2020","04","09","13:00","0.8","","-5.7","","62","","","","31","","36","","24.1","","97.33","","","","","","NA"
"-99.95","49.91","BRANDON A","5010481","2020-04-09 14:00","2020","04","09","14:00","1.1","","-7.4","","53","","","","31","","41","","24.1","","97.32","","","","","","NA"
"-99.95","49.91","BRANDON A","5010481","2020-04-09 15:00","2020","04","09","15:00","1.7","","-6.6","","54","","","","32","","39","","24.1","","97.28","","","","","","Clear"
"-99.95","49.91","BRANDON A","5010481","2020-04-09 16:00","2020","04","09","16:00","2.1","","-5.5","","57","","","","31","","26","","24.1","","97.22","","","","","","NA"
"-99.95","49.91","BRANDON A","5010481","2020-04-09 17:00","2020","04","09","17:00","2.2","","-5.6","","57","","","","30","","19","","24.1","","97.13","","","","","","NA"
"-99.95","49.91","BRANDON A","5010481","2020-04-09 18:00","2020","04","09","18:00","2.3","","-5.8","","55","","","","29","","19","","24.1","","97.07","","","","","","Mainly Clear"
"-99.95","49.91","BRANDON A","5010481","2020-04-09 19:00","2020","04","09","19:00","1.0","","-5.5","","62","","","","27","","16","","24.1","","97.01","","","","","","NA"
"-99.95","49.91","BRANDON A","5010481","2020-04-09 20:00","2020","04","09","20:00","-0.9","","-4.9","","74","","","","25","","11","","24.1","","96.97","","","","-5","","NA"
"-99.95","49.91","BRANDON A","5010481","2020-04-09 21:00","2020","04","09","21:00","-1.6","","-5.2","","77","","","","24","","14","","24.1","","96.94","","","","-6","","Mainly Clear"
"-99.95","49.91","BRANDON A","5010481","2020-04-09 22:00","2020","04","09","22:00","-1.2","","-4.9","","76","","","","24","","14","","24.1","","96.90","","","","-6","","NA"
"-99.95","49.91","BRANDON A","5010481","2020-04-09 23:00","2020","04","09","23:00","-1.4","","-4.8","","77","","","","24","","13","","24.1","","96.80","","","","-6","","NA"
"-99.95","49.91","BRANDON A","5010481","2020-04-10 00:00","2020","04","10","00:00","-2.0","","-5.2","","79","","","","23","","12","","24.1","","96.73","","","","-6","","Mostly Cloudy"
"-99.95","49.91","BRANDON A","5010481","2020-04-10 01:00","2020","04","10","01:00","-1.8","","-5.1","","78","","","","23","","12","","24.1","","96.68","","","","-6","","NA"
"-99.95","49.91","BRANDON A","5010481","2020-04-10 02:00","2020","04","10","02:00","-1.3","","-4.7","","78","","","","23","","10","","24.1","","96.61","","","","-5","","NA"
"-99.95","49.91","BRANDON A","5010481","2020-04-10 03:00","2020","04","10","03:00","-0.9","","-4.3","","77","","","","23","","13","","24.1","","96.53","","","","-5","","Cloudy"
"-99.95","49.91","BRANDON A","5010481","2020-04-10 04:00","2020","04","10","04:00","-1.0","","-4.7","","76","","","","24","","12","","24.1","","96.46","","","","-5","","NA"
"-99.95","49.91","BRANDON A","5010481","2020-04-10 05:00","2020","04","10","05:00","-0.8","","-5.5","","70","","","","25","","13","","24.1","","96.39","","","","-5","","NA"
"-99.95","49.91","BRANDON A","5010481","2020-04-10 06:00","2020","04","10","06:00","-0.6","","-5.4","","70","","","","27","","10","","24.1","","96.35","","","","-4","","Cloudy"
"-99.95","49.91","BRANDON A","5010481","2020-04-10 07:00","2020","04","10","07:00","-0.1","","-5.1","","69","","","","25","","14","","24.1","","96.32","","","","-4","","NA"
"-99.95","49.91","BRANDON A","5010481","2020-04-10 08:00","2020","04","10","08:00","0.7","","-5.1","","65","","","","24","","18","","24.1","","96.28","","","","","","NA"
"-99.95","49.91","BRANDON A","5010481","2020-04-10 09:00","2020","04","10","09:00","1.5","","-4.5","","64","","","","25","","18","","24.1","","96.23","","","","","","Cloudy"
"-99.95","49.91","BRANDON A","5010481","2020-04-10 10:00","2020","04","10","10:00","2.8","","-5.0","","56","","","","25","","19","","24.1","","96.19","","","","","","NA"
"-99.95","49.91","BRANDON A","5010481","2020-04-10 11:00","2020","04","10","11:00","4.9","","-3.9","","53","","","","25","","16","","24.1","","96.12","","","","","","NA"
"-99.95","49.91","BRANDON A","5010481","2020-04-10 12:00","2020","04","10","12:00","7.4","","-4.0","","44","","","","26","","20","","24.1","","96.02","","","","","","Clear"
"-99.95","49.91","BRANDON A","5010481","2020-04-10 13:00","2020","04","10","13:00","9.1","","-1.9","","46","","","","25","","22","","24.1","","95.96","","","","","","NA"
"-99.95","49.91","BRANDON A","5010481","2020-04-10 14:00","2020","04","10","14:00","10.0","","-1.5","","45","","","","26","","20","","24.1","","95.90","","","","","","NA"
"-99.95","49.91","BRANDON A","5010481","2020-04-10 15:00","2020","04","10","15:00","11.3","","-0.6","","43","","","","27","","26","","24.1","","95.81","","","","","","Mainly Clear"
"-99.95","49.91","BRANDON A","5010481","2020-04-10 16:00","2020","04","10","16:00","12.1","","0.6","","45","","","","24","","29","","24.1","","95.74","","","","","","NA"
"-99.95","49.91","BRANDON A","5010481","2020-04-10 17:00","2020","04","10","17:00","10.2","","1.3","","54","","","","27","","32","","24.1","","95.76","","","","","","NA"
"-99.95","49.91","BRANDON A","5010481","2020-04-10 18:00","2020","04","10","18:00","9.6","","2.3","","60","","","","29","","14","","24.1","","95.74","","","","","","Mostly Cloudy"
"-99.95","49.91","BRANDON A","5010481","2020-04-10 19:00","2020","04","10","19:00","7.9","","0.9","","61","","","","33","","18","","24.1","","95.77","","","","","","NA"
"-99.95","49.91","BRANDON A","5010481","2020-04-10 20:00","2020","04","10","20:00","6.0","","-0.6","","62","","","","33","","30","","24.1","","95.83","","","","","","NA"
"-99.95","49.91","BRANDON A","5010481","2020-04-10 21:00","2020","04","10","21:00","3.1","","-0.8","","76","","","","31","","29","","24.1","","95.93","","","","","","Mostly Cloudy"
"-99.95","49.91","BRANDON A","5010481","2020-04-10 22:00","2020","04","10","22:00","2.0","","-1.0","","81","","","","32","","19","","24.1","","96.04","","","","","","NA"
"-99.95","49.91","BRANDON A","5010481","2020-04-10 23:00","2020","04","10","23:00","1.4","","-1.9","","79","","","","35","","17","","24.1","","96.12","","","","","","NA"
"-99.95","49.91","BRANDON A","5010481","2020-04-11 00:00","2020","04","11","00:00","0.3","","-2.0","","85","","","","33","","14","","24.1","","96.15","","","","","","Mainly Clear"
"-99.95","49.91","BRANDON A","5010481","2020-04-11 01:00","2020","04","11","01:00","-0.7","","-2.4","","89","","","","31","","10","","24.1","","96.21","","","","-4","","NA"
"-99.95","49.91","BRANDON A","5010481","2020-04-11 02:00","2020","04","11","02:00","-0.5","","-2.5","","87","","","","32","","5","","24.1","","96.23","","","","-2","","NA"
"-99.95","49.91","BRANDON A","5010481","2020-04-11 03:00","2020","04","11","03:00","-0.6","","-2.7","","86","","","","32","","11","","24.1","","96.29","","","","-4","","Cloudy"
"-99.95","49.91","BRANDON A","5010481","2020-04-11 04:00","2020","04","11","04:00","-1.6","","-6.0","","72","","","","36","","25","","24.1","","96.34","","","","-8","","NA"
"-99.95","49.91","BRANDON A","5010481","2020-04-11 05:00","2020","04","11","05:00","-2.2","","-6.7","","72","","","","34","","11","","24.1","","96.39","","","","-6","","NA"
"-99.95","49.91","BRANDON A","5010481","2020-04-11 06:00","2020","04","11","06:00","-2.8","","-5.7","","80","","","","31","","10","","24.1","","96.42","","","","-7","","Mostly Cloudy"
"-99.95","49.91","BRANDON A","5010481","2020-04-11 07:00","2020","04","11","07:00","-1.9","","-8.1","","63","","","","32","","17","","24.1","","96.48","","","","-7","","NA"
"-99.95","49.91","BRANDON A","5010481","2020-04-11 08:00","2020","04","11","08:00","-1.4","","-9.0","","56","","","","33","","31","","24.1","","96.49","","","","-8","","NA"
"-99.95","49.91","BRANDON A","5010481","2020-04-11 09:00","2020","04","11","09:00","-1.2","","-9.2","","55","","","","33","","34","","24.1","","96.50","","","","-8","","Mostly Cloudy"
"-99.95","49.91","BRANDON A","5010481","2020-04-11 10:00","2020","04","11","10:00","-1.0","","-8.9","","55","","","","31","","28","","24.1","","96.49","","","","-8","","NA"
"-99.95","49.91","BRANDON A","5010481","2020-04-11 11:00","2020","04","11","11:00","-0.8","","-8.7","","55","","","","33","","31","","24.1","","96.53","","","","-8","","NA"
"-99.95","49.91","BRANDON A","5010481","2020-04-11 12:00","2020","04","11","12:00","-0.2","","-7.5","","58","","","","32","","25","","24.1","","96.52","","","","-6","","Mostly Cloudy"
"-99.95","49.91","BRANDON A","5010481","2020-04-11 13:00","2020","04","11","13:00","0.2","","-8.0","","54","","","","32","","26","","24.1","","96.54","","","","","","NA"
"-99.95","49.91","BRANDON A","5010481","2020-04-11 14:00","2020","04","11","14:00","0.2","","-8.2","","54","","","","31","","35","","24.1","","96.55","","","","","","NA"
"-99.95","49.91","BRANDON A","5010481","2020-04-11 15:00","2020","04","11","15:00","0.2","","-8.3","","53","","","","33","","35","","24.1","","96.56","","","","","","Mostly Cloudy"
"-99.95","49.91","BRANDON A","5010481","2020-04-11 16:00","2020","04","11","16:00","0.7","","-7.1","","56","","","","31","","30","","24.1","","96.58","","","","","","NA"
"-99.95","49.91","BRANDON A","5010481","2020-04-11 17:00","2020","04","11","17:00","-0.7","","-9.3","","52","","","","33","","31","","24.1","","96.61","","","","-7","","NA"
"-99.95","49.91","BRANDON A","5010481","2020-04-11 18:00","2020","04","11","18:00","-0.7","","-9.7","","51","","","","33","","33","","24.1","","96.68","","","","-8","","Mainly Clear"
"-99.95","49.91","BRANDON A","5010481","2020-04-11 19:00","2020","04","11","19:00","-2.1","","-10.3","","53","","","","33","","31","","24.1","","96.71","","","","-9","","NA"
"-99.95","49.91","BRANDON A","5010481","2020-04-11 20:00","2020","04","11","20:00","-3.0","","-9.8","","60","","","","32","","23","","24.1","","96.76","","","","-9","","NA"
"-99.95","49.91","BRANDON A","5010481","2020-04-11 21:00","2020","04","11","21:00","-3.6","","-8.9","","67","","","","32","","21","","24.1","","96.84","","","","-10","","Mainly Clear"
"-99.95","49.91","BRANDON A","5010481","2020-04-11 22:00","2020","04","11","22:00","-4.2","","-8.5","","72","","","","31","","23","","24.1","","96.88","","","","-11","","NA"
"-99.95","49.91","BRANDON A","5010481","2020-04-11 23:00","2020","04","11","23:00","-4.6","","-8.7","","73","","","","32","","25","","24.1","","96.91","","","","-12","","NA"
"-99.95","49.91","BRANDON A","5010481","2020-04-12 00:00","2020","04","12","00:00","-4.8","","-9.2","","72","","","","32","","26","","24.1","","96.94","","","","-12","","Mostly Cloudy"
"-99.95","49.91","BRANDON A","5010481","2020-04-12 01:00","2020","04","12","01:00","-5.2","","-9.4","","72","","","","32","","26","","24.1","","96.95","","","","-13","","NA"
"-99.95","49.91","BRANDON A","5010481","2020-04-12 02:00","2020","04","12","02:00","-5.8","","-11.6","","64","","","","32","","27","","24.1","","96.96","","","","-14","","NA"
"-99.95","49.91","BRANDON A","5010481","2020-04-12 03:00","2020","04","12","03:00","-6.0","","-11.5","","65","","","","32","","23","","24.1","","96.99","","","","-13","","Mostly Cloudy"
"-99.95","49.91","BRANDON A","5010481","2020-04-12 04:00","2020","04","12","04:00","-6.2","","-11.2","","68","","","","32","","24","","24.1","","97.01","","","","-14","","NA"
"-99.95","49.91","BRANDON A","5010481","2020-04-12 05:00","2020","04","12","05:00","-6.4","","-11.4","","68","","","","33","","21","","24.1","","97.04","","","","-13","","NA"
"-99.95","49.91","BRANDON A","5010481","2020-04-12 06:00","2020","04","12","06:00","-7.3","","-11.7","","71","","","","32","","21","","24.1","","97.09","","","","-15","","Mainly Clear"
"-99.95","49.91","BRANDON A","5010481","2020-04-12 07:00","2020","04","12","07:00","-6.5","","-12.8","","61","","","","33","","21","","24.1","","97.13","","","","-14","","NA"
"-99.95","49.91","BRANDON A","5010481","2020-04-12 08:00","2020","04","12","08:00","-5.2","","-13.7","","52","","","","33","","20","","24.1","","97.14","","","","-12","","NA"
"-99.95","49.91","BRANDON A","5010481","2020-04-12 09:00","2020","04","12","09:00","-4.8","","-13.6","","51","","","","30","","24","","24.1","","97.13","","","","-12","","Mostly Cloudy"
"-99.95","49.91","BRANDON A","5010481","2020-04-12 10:00","2020","04","12","10:00","-4.6","","-12.8","","53","","","","30","","19","","24.1","","97.09","","","","-11","","NA"
"-99.95","49.91","BRANDON A","5010481","2020-04-12 11:00","2020","04","12","11:00","-3.5","","-12.8","","49","","","","30","","27","","24.1","","97.04","","","","-11","","NA"
"-99.95","49.91","BRANDON A","5010481","2020-04-12 12:00","2020","04","12","12:00","-3.1","","-11.3","","53","","","","32","","21","","24.1","","96.99","","","","-9","","Mostly Cloudy"
"-99.95","49.91","BRANDON A","5010481","2020-04-12 13:00","2020","04","12","13:00","-2.7","","-9.5","","60","","","","30","","20","","19.3","","96.94","","","","-9","","Snow Showers"
"-99.95","49.91","BRANDON A","5010481","2020-04-12 14:00","2020","04","12","14:00","-2.3","","-9.2","","59","","","","32","","23","","24.1","","96.90","","","","-9","","Snow Showers"
"-99.95","49.91","BRANDON A","5010481","2020-04-12 15:00","2020","04","12","15:00","-1.5","","-9.9","","53","","","","32","","26","","24.1","","96.89","","","","-8","","Mostly Cloudy"
"-99.95","49.91","BRANDON A","5010481","2020-04-12 16:00","2020","04","12","16:00","-1.7","","-11.1","","49","","","","33","","37","","24.1","","96.89","","","","-9","","NA"
"-99.95","49.91","BRANDON A","5010481","2020-04-12 17:00","2020","04","12","17:00","-2.9","","-11.8","","51","","","","33","","32","","24.1","","96.92","","","","-10","","NA"
"-99.95","49.91","BRANDON A","5010481","2020-04-12 18:00","2020","04","12","18:00","-3.5","","-11.9","","52","","","","33","","32","","24.1","","96.92","","","","-11","","Mainly Clear"
"-99.95","49.91","BRANDON A","5010481","2020-04-12 19:00","2020","04","12","19:00","-4.5","","-12.9","","52","","","","33","","35","","24.1","","96.94","","","","-13","","NA"
"-99.95","49.91","BRANDON A","5010481","2020-04-12 20:00","2020","04","12","20:00","-5.6","","-13.0","","57","","","","32","","25","","24.1","","96.98","","","","-13","","NA"
"-99.95","49.91","BRANDON A","5010481","2020-04-12 21:00","2020","04","12","21:00","-6.8","","-13.5","","59","","","","33","","33","","24.1","","97.05","","","","-16","","Mainly Clear"
"-99.95","49.91","BRANDON A","5010481","2020-04-12 22:00","2020","04","12","22:00","-7.4","","-13.9","","60","","","","32","","28","","24.1","","97.05","","","","-16","","NA"
"-99.95","49.91","BRANDON A","5010481","2020-04-12 23:00","2020","04","12","23:00","-7.9","","-13.7","","64","","","","32","","26","","24.1","","97.03","","","","-16","","NA"
"-99.95","49.91","BRANDON A","5010481","2020-04-13 00:00","2020","04","13","00:00","-8.2","","-13.7","","65","","","","33","","24","","24.1","","97.01","","","","-16","","Mainly Clear"
"-99.95","49.91","BRANDON A","5010481","2020-04-13 01:00","2020","04","13","01:00","-8.1","","-12.9","","68","","","","33","","26","","24.1","","96.98","","","","-16","","NA"
"-99.95","49.91","BRANDON A","5010481","2020-04-13 02:00","2020","04","13","02:00","-8.4","","-12.0","","76","","","","3","","24","","24.1","","96.96","","","","-17","","Snow"
"-99.95","49.91","BRANDON A","5010481","2020-04-13 03:00","2020","04","13","03:00","-8.9","","-13.7","","68","","","","36","","15","","24.1","","96.96","","","","-15","","Snow"
"-99.95","49.91","BRANDON A","5010481","2020-04-13 04:00","2020","04","13","04:00","-9.0","","-13.5","","70","","","","34","","11","","24.1","","96.96","","","","-14","","Snow"
"-99.95","49.91","BRANDON A","5010481","2020-04-13 05:00","2020","04","13","05:00","-9.8","","-13.1","","77","","","","30","","9","","24.1","","96.97","","","","-15","","NA"
"-99.95","49.91","BRANDON A","5010481","2020-04-13 06:00","2020","04","13","06:00","-10.7","","-13.6","","79","","","","29","","13","","24.1","","96.95","","","","-17","","Mostly Cloudy"
"-99.95","49.91","BRANDON A","5010481","2020-04-13 07:00","2020","04","13","07:00","-9.7","","-12.9","","77","","","","30","","15","","24.1","","96.94","","","","-16","","NA"
"-99.95","49.91","BRANDON A","5010481","2020-04-13 08:00","2020","04","13","08:00","-8.5","","-12.4","","74","","","","32","","22","","24.1","","96.94","","","","-16","","NA"
"-99.95","49.91","BRANDON A","5010481","2020-04-13 09:00","2020","04","13","09:00","-7.5","","-14.3","","58","","","","36","","21","","24.1","","96.94","","","","-15","","Mostly Cloudy"
"-99.95","49.91","BRANDON A","5010481","2020-04-13 10:00","2020","04","13","10:00","-6.6","","-15.3","","51","","","","35","","25","","24.1","","96.97","","","","-14","","NA"
"-99.95","49.91","BRANDON A","5010481","2020-04-13 11:00","2020","04","13","11:00","-6.7","","-16.7","","45","","","","34","","17","","24.1","","96.99","","","","-13","","NA"
"-99.95","49.91","BRANDON A","5010481","2020-04-13 12:00","2020","04","13","12:00","-7.3","","-14.6","","56","","","","32","","18","","24.1","","96.99","","","","-14","","Cloudy"
"-99.95","49.91","BRANDON A","5010481","2020-04-13 13:00","2020","04","13","13:00","-7.0","","-13.9","","58","","","","33","","37","","12.9","","96.97","","","","-16","","Snow Showers"
"-99.95","49.91","BRANDON A","5010481","2020-04-13 14:00","2020","04","13","14:00","-6.0","","-15.2","","48","","","","34","","27","","24.1","","96.96","","","","-14","","NA"
"-99.95","49.91","BRANDON A","5010481","2020-04-13 15:00","2020","04","13","15:00","-6.3","","-16.6","","44","","","","33","","28","","24.1","","96.96","","","","-14","","Mostly Cloudy"
"-99.95","49.91","BRANDON A","5010481","2020-04-13 16:00","2020","04","13","16:00","-7.0","","-16.4","","48","","","","34","","30","","19.3","","96.98","","","","-16","","Snow Showers"
"-99.95","49.91","BRANDON A","5010481","2020-04-13 17:00","2020","04","13","17:00","-7.0","","-14.7","","54","","","","34","","27","","19.3","","97.00","","","","-15","","Snow Showers"
"-99.95","49.91","BRANDON A","5010481","2020-04-13 18:00","2020","04","13","18:00","-7.3","","-13.3","","63","","","","35","","28","","9.7","","97.03","","","","-16","","Snow Showers"
"-99.95","49.91","BRANDON A","5010481","2020-04-13 19:00","2020","04","13","19:00","-8.0","","-14.2","","61","","","","31","","28","","19.3","","97.06","","","","-17","","Snow Showers"
"-99.95","49.91","BRANDON A","5010481","2020-04-13 20:00","2020","04","13","20:00","-8.6","","-14.7","","61","","","","34","","15","","24.1","","97.10","","","","-15","","NA"
"-99.95","49.91","BRANDON A","5010481","2020-04-13 21:00","2020","04","13","21:00","-8.5","","-14.7","","61","","","","34","","19","","24.1","","97.13","","","","-16","","Mainly Clear"
"-99.95","49.91","BRANDON A","5010481","2020-04-13 22:00","2020","04","13","22:00","-9.5","","-15.1","","64","","","","32","","12","","24.1","","97.14","","","","-15","","NA"
"-99.95","49.91","BRANDON A","5010481","2020-04-13 23:00","2020","04","13","23:00","-9.4","","-13.8","","70","","","","31","","12","","24.1","","97.13","","","","-15","","NA"
"-99.95","49.91","BRANDON A","5010481","2020-04-14 00:00","2020","04","14","00:00","-9.1","","-13.9","","68","","","","34","","11","","24.1","","97.12","","","","-15","","Cloudy"
"-99.95","49.91","BRANDON A","5010481","2020-04-14 01:00","2020","04","14","01:00","-9.9","","-13.8","","73","","","","35","","9","","24.1","","97.09","","","","-15","","NA"
"-99.95","49.91","BRANDON A","5010481","2020-04-14 02:00","2020","04","14","02:00","-9.9","","-13.3","","76","","","","33","","7","","24.1","","97.06","","","","-14","","Snow"
"-99.95","49.91","BRANDON A","5010481","2020-04-14 03:00","2020","04","14","03:00","-10.3","","-13.1","","80","","","","31","","8","","24.1","","97.06","","","","-15","","Snow"
"-99.95","49.91","BRANDON A","5010481","2020-04-14 04:00","2020","04","14","04:00","-9.9","","-12.6","","81","","","","29","","9","","24.1","","97.05","","","","-15","","NA"
"-99.95","49.91","BRANDON A","5010481","2020-04-14 05:00","2020","04","14","05:00","-9.3","","-12.2","","80","","","","31","","12","","24.1","","97.03","","","","-15","","NA"
"-99.95","49.91","BRANDON A","5010481","2020-04-14 06:00","2020","04","14","06:00","-9.7","","-13.0","","78","","","","31","","12","","24.1","","97.03","","","","-16","","Mostly Cloudy"
"-99.95","49.91","BRANDON A","5010481","2020-04-14 07:00","2020","04","14","07:00","-9.1","","-12.7","","76","","","","31","","15","","24.1","","97.04","","","","-16","","NA"
"-99.95","49.91","BRANDON A","5010481","2020-04-14 08:00","2020","04","14","08:00","-7.7","","-13.2","","65","","","","36","","10","","24.1","","97.06","","","","-13","","NA"
"-99.95","49.91","BRANDON A","5010481","2020-04-14 09:00","2020","04","14","09:00","-6.6","","-13.8","","57","","","","32","","7","","24.1","","97.03","","","","-10","","Mainly Clear"
"-99.95","49.91","BRANDON A","5010481","2020-04-14 10:00","2020","04","14","10:00","-5.5","","-13.7","","53","","","","32","","8","","24.1","","97.02","","","","-9","","NA"
"-99.95","49.91","BRANDON A","5010481","2020-04-14 11:00","2020","04","14","11:00","-5.5","","-14.3","","50","","","","31","","18","","24.1","","97.02","","","","-12","","NA"
"-99.95","49.91","BRANDON A","5010481","2020-04-14 12:00","2020","04","14","12:00","-4.9","","-13.8","","50","","","","34","","13","","24.1","","96.98","","","","-10","","Cloudy"
"-99.95","49.91","BRANDON A","5010481","2020-04-14 13:00","2020","04","14","13:00","-3.3","","-13.6","","45","","","","32","","22","","24.1","","96.92","","","","-10","","NA"
"-99.95","49.91","BRANDON A","5010481","2020-04-14 14:00","2020","04","14","14:00","-2.5","","-13.1","","44","","","","32","","18","","24.1","","96.88","","","","-8","","NA"
"-99.95","49.91","BRANDON A","5010481","2020-04-14 15:00","2020","04","14","15:00","-3.0","","-14.2","","42","","","","33","","18","","24.1","","96.86","","","","-9","","Mostly Cloudy"
"-99.95","49.91","BRANDON A","5010481","2020-04-14 16:00","2020","04","14","16:00","-1.7","","-12.9","","42","","","","31","","27","","24.1","","96.84","","","","-8","","NA"
"-99.95","49.91","BRANDON A","5010481","2020-04-14 17:00","2020","04","14","17:00","-2.3","","-13.1","","44","","","","33","","18","","24.1","","96.81","","","","-8","","NA"
"-99.95","49.91","BRANDON A","5010481","2020-04-14 18:00","2020","04","14","18:00","-1.9","","-12.2","","45","","","","28","","17","","24.1","","96.83","","","","-7","","Mostly Cloudy"
"-99.95","49.91","BRANDON A","5010481","2020-04-14 19:00","2020","04","14","19:00","-2.8","","-12.2","","49","","","","30","","10","","24.1","","96.81","","","","-7","","NA"
"-99.95","49.91","BRANDON A","5010481","2020-04-14 20:00","2020","04","14","20:00","-3.9","","-11.9","","54","","","","31","","4","","24.1","","96.82","","","","-6","","NA"
"-99.95","49.91","BRANDON A","5010481","2020-04-14 21:00","2020","04","14","21:00","-5.9","","-11.3","","66","","","","30","","7","","24.1","","96.85","","","","-9","","Mainly Clear"
"-99.95","49.91","BRANDON A","5010481","2020-04-14 22:00","2020","04","14","22:00","-7.5","","-11.5","","73","","","","2","","5","","24.1","","96.86","","","","-10","","NA"
"-99.95","49.91","BRANDON A","5010481","2020-04-14 23:00","2020","04","14","23:00","-8.4","","-11.8","","77","","","","4","","7","","24.1","","96.86","","","","-12","","NA"
"-99.95","49.91","BRANDON A","5010481","2020-04-15 00:00","2020","04","15","00:00","-8.7","","-12.1","","76","","","","4","","7","","24.1","","96.87","","","","-13","","Clear"
"-99.95","49.91","BRANDON A","5010481","2020-04-15 01:00","2020","04","15","01:00","-8.9","","-12.1","","78","","","","2","","6","","24.1","","96.87","","","","-12","","NA"
"-99.95","49.91","BRANDON A","5010481","2020-04-15 02:00","2020","04","15","02:00","-10.2","","-12.7","","82","","","","5","","9","","24.1","","96.86","","","","-15","","NA"
"-99.95","49.91","BRANDON A","5010481","2020-04-15 03:00","2020","04","15","03:00","-10.7","","-13.2","","82","","","","2","","8","","24.1","","96.87","","","","-15","","Clear"
"-99.95","49.91","BRANDON A","5010481","2020-04-15 04:00","2020","04","15","04:00","-11.5","","-14.4","","79","","","","36","","6","","24.1","","96.90","","","","-15","","NA"
"-99.95","49.91","BRANDON A","5010481","2020-04-15 05:00","2020","04","15","05:00","-11.6","","-14.5","","79","","","","33","","9","","24.1","","96.92","","","","-17","","NA"
"-99.95","49.91","BRANDON A","5010481","2020-04-15 06:00","2020","04","15","06:00","-11.7","","-14.2","","82","","","","34","","5","","24.1","","96.96","","","","-15","","Clear"
"-99.95","49.91","BRANDON A","5010481","2020-04-15 07:00","2020","04","15","07:00","-8.1","","-11.6","","76","","","","33","","4","","24.1","","97.01","","","","-10","","NA"
"-99.95","49.91","BRANDON A","5010481","2020-04-15 08:00","2020","04","15","08:00","-4.4","","-10.2","","64","","","","31","","8","","24.1","","97.07","","","","-8","","NA"
"-99.95","49.91","BRANDON A","5010481","2020-04-15 09:00","2020","04","15","09:00","-2.5","","-12.1","","48","","","","31","","11","","24.1","","97.07","","","","-7","","Clear"
"-99.95","49.91","BRANDON A","5010481","2020-04-15 10:00","2020","04","15","10:00","-1.3","","-13.2","","40","","","","32","","18","","24.1","","97.09","","","","-7","","NA"
"-99.95","49.91","BRANDON A","5010481","2020-04-15 11:00","2020","04","15","11:00","-0.3","","-13.7","","36","","","","36","","17","","24.1","","97.09","","","","-5","","NA"
"-99.95","49.91","BRANDON A","5010481","2020-04-15 12:00","2020","04","15","12:00","0.4","","-15.2","","30","","","","34","","20","","24.1","","97.11","","","","","","Clear"
"-99.95","49.91","BRANDON A","5010481","2020-04-15 13:00","2020","04","15","13:00","1.0","","-14.8","","30","","","","31","","19","","24.1","","97.11","","","","","","NA"
"-99.95","49.91","BRANDON A","5010481","2020-04-15 14:00","2020","04","15","14:00","1.9","","-13.3","","31","","","","33","","22","","24.1","","97.11","","","","","","NA"
"-99.95","49.91","BRANDON A","5010481","2020-04-15 15:00","2020","04","15","15:00","2.6","","-12.5","","32","","","","33","","27","","24.1","","97.11","","","","","","Mainly Clear"
"-99.95","49.91","BRANDON A","5010481","2020-04-15 16:00","2020","04","15","16:00","2.5","","-13.0","","31","","","","31","","24","","24.1","","97.12","","","","","","NA"
"-99.95","49.91","BRANDON A","5010481","2020-04-15 17:00","2020","04","15","17:00","2.0","","-14.0","","29","","","","35","","23","","24.1","","97.15","","","","","","NA"
"-99.95","49.91","BRANDON A","5010481","2020-04-15 18:00","2020","04","15","18:00","1.6","","-12.6","","34","","","","31","","22","","24.1","","97.16","","","","","","Mostly Cloudy"
"-99.95","49.91","BRANDON A","5010481","2020-04-15 19:00","2020","04","15","19:00","0.0","","-12.5","","39","","","","31","","19","","24.1","","97.17","","","","-5","","NA"
"-99.95","49.91","BRANDON A","5010481","2020-04-15 20:00","2020","04","15","20:00","-2.4","","-10.6","","53","","","","32","","17","","24.1","","97.20","","","","-8","","NA"
"-99.95","49.91","BRANDON A","5010481","2020-04-15 21:00","2020","04","15","21:00","-4.8","","-10.7","","64","","","","31","","13","","24.1","","97.25","","","","-10","","Mainly Clear"
"-99.95","49.91","BRANDON A","5010481","2020-04-15 22:00","2020","04","15","22:00","-5.8","","-10.3","","70","","","","32","","12","","24.1","","97.28","","","","-11","","NA"
"-99.95","49.91","BRANDON A","5010481","2020-04-15 23:00","2020","04","15","23:00","-5.5","","-10.9","","66","","","","4","","10","","24.1","","97.29","","","","-10","","NA"
"-99.95","49.91","BRANDON A","5010481","2020-04-16 00:00","2020","04","16","00:00","-5.3","","-11.1","","64","","","","1","","5","","24.1","","97.31","","","","-8","","Mainly Clear"
"-99.95","49.91","BRANDON A","5010481","2020-04-16 01:00","2020","04","16","01:00","-5.5","","-10.6","","68","","","","23","","3","","24.1","","97.34","","","","-7","","NA"
"-99.95","49.91","BRANDON A","5010481","2020-04-16 02:00","2020","04","16","02:00","-7.6","","-10.8","","78","","","","28","","12","","24.1","","97.32","","","","-13","","NA"
"-99.95","49.91","BRANDON A","5010481","2020-04-16 03:00","2020","04","16","03:00","-8.0","","-10.7","","81","","","","30","","13","","24.1","","97.32","","","","-14","","Clear"
"-99.95","49.91","BRANDON A","5010481","2020-04-16 04:00","2020","04","16","04:00","-8.2","","-10.8","","81","","","","30","","13","","24.1","","97.32","","","","-14","","NA"
"-99.95","49.91","BRANDON A","5010481","2020-04-16 05:00","2020","04","16","05:00","-8.2","","-11.1","","80","","","","29","","12","","24.1","","97.33","","","","-14","","NA"
"-99.95","49.91","BRANDON A","5010481","2020-04-16 06:00","2020","04","16","06:00","-8.3","","-11.0","","81","","","","30","","13","","24.1","","97.34","","","","-14","","Mainly Clear"
"-99.95","49.91","BRANDON A","5010481","2020-04-16 07:00","2020","04","16","07:00","-5.9","","-9.5","","76","","","","30","","17","","24.1","","97.39","","","","-12","","NA"
"-99.95","49.91","BRANDON A","5010481","2020-04-16 08:00","2020","04","16","08:00","-4.5","","-8.3","","75","","","","29","","16","","24.1","","97.40","","","","-10","","NA"
"-99.95","49.91","BRANDON A","5010481","2020-04-16 09:00","2020","04","16","09:00","-2.3","","-8.1","","65","","","","29","","19","","24.1","","97.39","","","","-8","","Mostly Cloudy"
"-99.95","49.91","BRANDON A","5010481","2020-04-16 10:00","2020","04","16","10:00","-0.4","","-8.6","","54","","","","31","","18","","24.1","","97.38","","","","-5","","NA"
"-99.95","49.91","BRANDON A","5010481","2020-04-16 11:00","2020","04","16","11:00","1.9","","-7.2","","51","","","","29","","20","","24.1","","97.36","","","","","","NA"
"-99.95","49.91","BRANDON A","5010481","2020-04-16 12:00","2020","04","16","12:00","1.5","","-8.2","","49","","","","31","","29","","24.1","","97.33","","","","","","Snow Showers"
"-99.95","49.91","BRANDON A","5010481","2020-04-16 13:00","2020","04","16","13:00","2.6","","-8.2","","45","","","","31","","25","","24.1","","97.31","","","","","","NA"
"-99.95","49.91","BRANDON A","5010481","2020-04-16 14:00","2020","04","16","14:00","1.8","","-8.4","","47","","","","31","","30","","24.1","","97.25","","","","","","NA"
"-99.95","49.91","BRANDON A","5010481","2020-04-16 15:00","2020","04","16","15:00","3.0","","-9.1","","40","","","","32","","30","","24.1","","97.19","","","","","","Mostly Cloudy"
"-99.95","49.91","BRANDON A","5010481","2020-04-16 16:00","2020","04","16","16:00","3.1","","-9.8","","38","","","","31","","28","","24.1","","97.15","","","","","","NA"
"-99.95","49.91","BRANDON A","5010481","2020-04-16 17:00","2020","04","16","17:00","2.5","","-9.4","","41","","","","32","","21","","24.1","","97.14","","","","","","NA"
"-99.95","49.91","BRANDON A","5010481","2020-04-16 18:00","2020","04","16","18:00","2.3","","-10.2","","39","","","","33","","24","","24.1","","97.10","","","","","","Mainly Clear"
"-99.95","49.91","BRANDON A","5010481","2020-04-16 19:00","2020","04","16","19:00","0.8","","-9.8","","45","","","","34","","13","","24.1","","97.06","","","","","","NA"
"-99.95","49.91","BRANDON A","5010481","2020-04-16 20:00","2020","04","16","20:00","-1.3","","-9.7","","53","","","","35","","7","","24.1","","97.04","","","","-4","","NA"
"-99.95","49.91","BRANDON A","5010481","2020-04-16 21:00","2020","04","16","21:00","-3.3","","-9.8","","61","","","","35","","7","","24.1","","97.06","","","","-6","","Mainly Clear"
"-99.95","49.91","BRANDON A","5010481","2020-04-16 22:00","2020","04","16","22:00","-4.9","","-8.1","","78","","","","34","","4","","24.1","","97.02","","","","-7","","NA"
"-99.95","49.91","BRANDON A","5010481","2020-04-16 23:00","2020","04","16","23:00","-4.6","","-7.7","","79","","","","22","","8","","24.1","","96.97","","","","-8","","NA"
"-99.95","49.91","BRANDON A","5010481","2020-04-17 00:00","2020","04","17","00:00","-5.6","","-9.8","","73","","","","28","","3","","24.1","","96.90","","","","-7","","Mainly Clear"
"-99.95","49.91","BRANDON A","5010481","2020-04-17 01:00","2020","04","17","01:00","-5.8","","-8.2","","83","","","","23","","4","","24.1","","96.84","","","","-8","","NA"
"-99.95","49.91","BRANDON A","5010481","2020-04-17 02:00","2020","04","17","02:00","-6.3","","-9.7","","77","","","","23","","10","","24.1","","96.75","","","","-11","","NA"
"-99.95","49.91","BRANDON A","5010481","2020-04-17 03:00","2020","04","17","03:00","-6.4","","-9.0","","82","","","","25","","8","","24.1","","96.66","","","","-10","","Mainly Clear"
"-99.95","49.91","BRANDON A","5010481","2020-04-17 04:00","2020","04","17","04:00","-6.9","","-9.1","","84","","","","25","","8","","24.1","","96.61","","","","-11","","NA"
"-99.95","49.91","BRANDON A","5010481","2020-04-17 05:00","2020","04","17","05:00","-6.3","","-8.4","","85","","","","23","","7","","24.1","","96.52","","","","-10","","NA"
"-99.95","49.91","BRANDON A","5010481","2020-04-17 06:00","2020","04","17","06:00","-5.8","","-8.1","","84","","","","23","","7","","24.1","","96.42","","","","-9","","Mainly Clear"
"-99.95","49.91","BRANDON A","5010481","2020-04-17 07:00","2020","04","17","07:00","-3.5","","-5.7","","85","","","","24","","12","","24.1","","96.35","","","","-8","","NA"
"-99.95","49.91","BRANDON A","5010481","2020-04-17 08:00","2020","04","17","08:00","-1.1","","-4.9","","75","","","","23","","19","","24.1","","96.27","","","","-6","","NA"
"-99.95","49.91","BRANDON A","5010481","2020-04-17 09:00","2020","04","17","09:00","1.7","","-4.6","","63","","","","21","","19","","24.1","","96.15","","","","","","Mostly Cloudy"
"-99.95","49.91","BRANDON A","5010481","2020-04-17 10:00","2020","04","17","10:00","4.0","","-4.4","","54","","","","23","","21","","24.1","","96.05","","","","","","NA"
"-99.95","49.91","BRANDON A","5010481","2020-04-17 11:00","2020","04","17","11:00","6.0","","-4.0","","48","","","","22","","23","","24.1","","95.95","","","","","","NA"
"-99.95","49.91","BRANDON A","5010481","2020-04-17 12:00","2020","04","17","12:00","8.2","","-3.3","","44","","","","27","","36","","24.1","","95.86","","","","","","Mostly Cloudy"
"-99.95","49.91","BRANDON A","5010481","2020-04-17 13:00","2020","04","17","13:00","9.8","","-3.7","","38","","","","24","","38","","24.1","","95.72","","","","","","NA"
"-99.95","49.91","BRANDON A","5010481","2020-04-17 14:00","2020","04","17","14:00","9.9","","-3.7","","38","","","","22","","34","","24.1","","95.59","","","","","","NA"
"-99.95","49.91","BRANDON A","5010481","2020-04-17 15:00","2020","04","17","15:00","10.9","","-4.0","","35","","","","23","","34","","24.1","","95.47","","","","","","Mostly Cloudy"
"-99.95","49.91","BRANDON A","5010481","2020-04-17 16:00","2020","04","17","16:00","11.5","","-3.7","","34","","","","23","","32","","24.1","","95.36","","","","","","NA"
"-99.95","49.91","BRANDON A","5010481","2020-04-17 17:00","2020","04","17","17:00","12.2","","-4.7","","30","","","","23","","37","","24.1","","95.23","","","","","","NA"
"-99.95","49.91","BRANDON A","5010481","2020-04-17 18:00","2020","04","17","18:00","11.3","","-3.9","","34","","","","23","","21","","24.1","","95.12","","","","","","Mostly Cloudy"
"-99.95","49.91","BRANDON A","5010481","2020-04-17 19:00","2020","04","17","19:00","10.6","","-3.2","","38","","","","25","","21","","24.1","","95.03","","","","","","NA"
"-99.95","49.91","BRANDON A","5010481","2020-04-17 20:00","2020","04","17","20:00","8.7","","-2.9","","44","","","","30","","23","","24.1","","95.03","","","","","","NA"
"-99.95","49.91","BRANDON A","5010481","2020-04-17 21:00","2020","04","17","21:00","5.2","","-2.0","","60","","","","27","","16","","24.1","","95.04","","","","","","Mostly Cloudy"
"-99.95","49.91","BRANDON A","5010481","2020-04-17 22:00","2020","04","17","22:00","3.9","","-2.2","","65","","","","27","","14","","24.1","","95.02","","","","","","NA"
"-99.95","49.91","BRANDON A","5010481","2020-04-17 23:00","2020","04","17","23:00","2.1","","-2.4","","72","","","","28","","12","","24.1","","95.00","","","","","","NA"
"-99.95","49.91","BRANDON A","5010481","2020-04-18 00:00","2020","04","18","00:00","2.2","","-2.6","","70","","","","27","","17","","24.1","","95.00","","","","","","Mainly Clear"
"-99.95","49.91","BRANDON A","5010481","2020-04-18 01:00","2020","04","18","01:00","2.9","","-0.5","","78","","","","31","","19","","24.1","","95.04","","","","","","NA"
"-99.95","49.91","BRANDON A","5010481","2020-04-18 02:00","2020","04","18","02:00","1.1","","-1.6","","82","","","","30","","17","","24.1","","95.09","","","","","","NA"
"-99.95","49.91","BRANDON A","5010481","2020-04-18 03:00","2020","04","18","03:00","0.3","","-1.8","","86","","","","30","","16","","24.1","","95.17","","","","","","Mainly Clear"
"-99.95","49.91","BRANDON A","5010481","2020-04-18 04:00","2020","04","18","04:00","-0.1","","-1.9","","88","","","","29","","17","","24.1","","95.20","","","","-5","","NA"
"-99.95","49.91","BRANDON A","5010481","2020-04-18 05:00","2020","04","18","05:00","0.8","","-1.0","","87","","","","30","","13","","24.1","","95.25","","","","","","NA"
"-99.95","49.91","BRANDON A","5010481","2020-04-18 06:00","2020","04","18","06:00","1.3","","-0.5","","88","","","","30","","8","","24.1","","95.31","","","","","","Cloudy"
"-99.95","49.91","BRANDON A","5010481","2020-04-18 07:00","2020","04","18","07:00","2.2","","-0.3","","83","","","","30","","16","","24.1","","95.37","","","","","","NA"
"-99.95","49.91","BRANDON A","5010481","2020-04-18 08:00","2020","04","18","08:00","3.9","","-0.5","","73","","","","31","","31","","24.1","","95.43","","","","","","NA"
"-99.95","49.91","BRANDON A","5010481","2020-04-18 09:00","2020","04","18","09:00","5.6","","-0.8","","63","","","","31","","36","","24.1","","95.49","","","","","","Mostly Cloudy"
"-99.95","49.91","BRANDON A","5010481","2020-04-18 10:00","2020","04","18","10:00","6.5","","-1.4","","57","","","","33","","41","","24.1","","95.54","","","","","","NA"
"-99.95","49.91","BRANDON A","5010481","2020-04-18 11:00","2020","04","18","11:00","5.5","","-2.1","","58","","","","32","","42","","24.1","","95.62","","","","","","NA"
"-99.95","49.91","BRANDON A","5010481","2020-04-18 12:00","2020","04","18","12:00","6.6","","-2.5","","52","","","","34","","35","","24.1","","95.67","","","","","","Mostly Cloudy"
"-99.95","49.91","BRANDON A","5010481","2020-04-18 13:00","2020","04","18","13:00","5.8","","-3.5","","51","","","","31","","45","","24.1","","95.72","","","","","","Rain Showers"
"-99.95","49.91","BRANDON A","5010481","2020-04-18 14:00","2020","04","18","14:00","4.5","","-2.5","","60","","","","35","","37","","24.1","","95.79","","","","","","Rain Showers"
"-99.95","49.91","BRANDON A","5010481","2020-04-18 15:00","2020","04","18","15:00","4.0","","-3.2","","60","","","","34","","28","","24.1","","95.90","","","","","","Rain Showers"
"-99.95","49.91","BRANDON A","5010481","2020-04-18 16:00","2020","04","18","16:00","2.6","","-3.5","","64","","","","36","","25","","24.1","","96.01","","","","","","NA"
"-99.95","49.91","BRANDON A","5010481","2020-04-18 17:00","2020","04","18","17:00","2.0","","-4.3","","63","","","","35","","24","","24.1","","96.09","","","","","","NA"
"-99.95","49.91","BRANDON A","5010481","2020-04-18 18:00","2020","04","18","18:00","1.9","","-5.6","","57","","","","33","","21","","24.1","","96.18","","","","","","Mostly Cloudy"
"-99.95","49.91","BRANDON A","5010481","2020-04-18 19:00","2020","04","18","19:00","0.9","","-5.0","","65","","","","32","","23","","24.1","","96.25","","","","","","NA"
"-99.95","49.91","BRANDON A","5010481","2020-04-18 20:00","2020","04","18","20:00","-0.5","","-4.5","","75","","","","34","","17","","24.1","","96.34","","","","-5","","NA"
"-99.95","49.91","BRANDON A","5010481","2020-04-18 21:00","2020","04","18","21:00","-1.8","","-4.5","","82","","","","8","","6","","24.1","","96.42","","","","-4","","Mostly Cloudy"
"-99.95","49.91","BRANDON A","5010481","2020-04-18 22:00","2020","04","18","22:00","-3.2","","-5.0","","88","","","","9","","10","","24.1","","96.50","","","","-7","","NA"
"-99.95","49.91","BRANDON A","5010481","2020-04-18 23:00","2020","04","18","23:00","-3.2","","-4.5","","91","","","","15","","4","","24.1","","96.55","","","","-5","","Snow"
"-99.95","49.91","BRANDON A","5010481","2020-04-19 00:00","2020","04","19","00:00","-4.7","","-5.7","","93","","","","23","","9","","24.1","","96.55","","","","-9","","Mainly Clear"
"-99.95","49.91","BRANDON A","5010481","2020-04-19 01:00","2020","04","19","01:00","-4.9","","-6.0","","93","","","","22","","13","","24.1","","96.53","","","","-10","","NA"
"-99.95","49.91","BRANDON A","5010481","2020-04-19 02:00","2020","04","19","02:00","-5.9","","-7.0","","92","","","","23","","14","","24.1","","96.51","","","","-11","","NA"
"-99.95","49.91","BRANDON A","5010481","2020-04-19 03:00","2020","04","19","03:00","-6.1","","-7.9","","87","","","","24","","15","","24.1","","96.48","","","","-12","","Clear"
"-99.95","49.91","BRANDON A","5010481","2020-04-19 04:00","2020","04","19","04:00","-6.2","","-8.6","","83","","","","28","","14","","24.1","","96.47","","","","-12","","NA"
"-99.95","49.91","BRANDON A","5010481","2020-04-19 05:00","2020","04","19","05:00","-6.1","","-8.6","","83","","","","27","","13","","24.1","","96.43","","","","-11","","NA"
"-99.95","49.91","BRANDON A","5010481","2020-04-19 06:00","2020","04","19","06:00","-6.1","","-8.7","","82","","","","27","","18","","24.1","","96.42","","","","-13","","Mainly Clear"
"-99.95","49.91","BRANDON A","5010481","2020-04-19 07:00","2020","04","19","07:00","-4.4","","-7.1","","81","","","","24","","15","","24.1","","96.39","","","","-10","","NA"
"-99.95","49.91","BRANDON A","5010481","2020-04-19 08:00","2020","04","19","08:00","-1.0","","-5.4","","72","","","","25","","21","","24.1","","96.33","","","","-7","","NA"
"-99.95","49.91","BRANDON A","5010481","2020-04-19 09:00","2020","04","19","09:00","1.6","","-5.6","","59","","","","25","","28","","24.1","","96.26","","","","","","Mostly Cloudy"
"-99.95","49.91","BRANDON A","5010481","2020-04-19 10:00","2020","04","19","10:00","3.2","","-6.0","","51","","","","26","","37","","24.1","","96.14","","","","","","NA"
"-99.95","49.91","BRANDON A","5010481","2020-04-19 11:00","2020","04","19","11:00","5.0","","-4.9","","49","","","","25","","35","","24.1","","96.02","","","","","","NA"
"-99.95","49.91","BRANDON A","5010481","2020-04-19 12:00","2020","04","19","12:00","6.3","","-4.1","","47","","","","25","","43","","24.1","","95.87","","","","","","Mostly Cloudy"
"-99.95","49.91","BRANDON A","5010481","2020-04-19 13:00","2020","04","19","13:00","8.2","","-3.8","","42","","","","25","","43","","24.1","","95.70","","","","","","NA"
"-99.95","49.91","BRANDON A","5010481","2020-04-19 14:00","2020","04","19","14:00","10.1","","-4.6","","35","","","","27","","57","","24.1","","95.52","","","","","","NA"
"-99.95","49.91","BRANDON A","5010481","2020-04-19 15:00","2020","04","19","15:00","10.3","","-4.2","","36","","","","28","","46","","24.1","","95.41","","","","","","Mostly Cloudy"
"-99.95","49.91","BRANDON A","5010481","2020-04-19 16:00","2020","04","19","16:00","11.7","","-3.5","","34","","","","28","","45","","24.1","","95.28","","","","","","NA"
"-99.95","49.91","BRANDON A","5010481","2020-04-19 17:00","2020","04","19","17:00","12.1","","-2.3","","36","","","","28","","35","","24.1","","95.20","","","","","","NA"
"-99.95","49.91","BRANDON A","5010481","2020-04-19 18:00","2020","04","19","18:00","12.0","","-3.3","","34","","","","29","","42","","24.1","","95.17","","","","","","Cloudy"
"-99.95","49.91","BRANDON A","5010481","2020-04-19 19:00","2020","04","19","19:00","9.6","","-3.0","","41","","","","33","","49","","24.1","","95.22","","","","","","NA"
"-99.95","49.91","BRANDON A","5010481","2020-04-19 20:00","2020","04","19","20:00","6.7","","-3.7","","47","","","","32","","33","","24.1","","95.29","","","","","","NA"
"-99.95","49.91","BRANDON A","5010481","2020-04-19 21:00","2020","04","19","21:00","5.5","","-4.0","","50","","","","31","","30","","24.1","","95.37","","","","","","Mostly Cloudy"
"-99.95","49.91","BRANDON A","5010481","2020-04-19 22:00","2020","04","19","22:00","4.6","","-3.7","","55","","","","30","","21","","24.1","","95.39","","","","","","NA"
"-99.95","49.91","BRANDON A","5010481","2020-04-19 23:00","2020","04","19","23:00","2.8","","-3.8","","62","","","","28","","14","","24.1","","95.38","","","","","","NA"
"-99.95","49.91","BRANDON A","5010481","2020-04-20 00:00","2020","04","20","00:00","2.3","","-3.4","","66","","","","28","","16","","24.1","","95.37","","","","","","Cloudy"
"-99.95","49.91","BRANDON A","5010481","2020-04-20 01:00","2020","04","20","01:00","2.3","","-3.2","","67","","","","29","","14","","24.1","","95.34","","","","","","NA"
"-99.95","49.91","BRANDON A","5010481","2020-04-20 02:00","2020","04","20","02:00","2.4","","-3.0","","68","","","","28","","18","","24.1","","95.35","","","","","","NA"
"-99.95","49.91","BRANDON A","5010481","2020-04-20 03:00","2020","04","20","03:00","2.6","","-3.2","","65","","","","31","","15","","24.1","","95.38","","","","","","Cloudy"
"-99.95","49.91","BRANDON A","5010481","2020-04-20 04:00","2020","04","20","04:00","2.0","","-3.1","","69","","","","30","","12","","24.1","","95.37","","","","","","NA"
"-99.95","49.91","BRANDON A","5010481","2020-04-20 05:00","2020","04","20","05:00","1.0","","-2.9","","75","","","","31","","7","","24.1","","95.42","","","","","","NA"
"-99.95","49.91","BRANDON A","5010481","2020-04-20 06:00","2020","04","20","06:00","0.9","","-2.7","","77","","","","31","","15","","24.1","","95.49","","","","","","Mostly Cloudy"
"-99.95","49.91","BRANDON A","5010481","2020-04-20 07:00","2020","04","20","07:00","1.5","","-2.4","","76","","","","32","","18","","24.1","","95.56","","","","","","NA"
"-99.95","49.91","BRANDON A","5010481","2020-04-20 08:00","2020","04","20","08:00","3.2","","-2.6","","66","","","","33","","29","","24.1","","95.60","","","","","","NA"
"-99.95","49.91","BRANDON A","5010481","2020-04-20 09:00","2020","04","20","09:00","4.1","","-4.8","","52","","","","33","","41","","24.1","","95.65","","","","","","Mostly Cloudy"
"-99.95","49.91","BRANDON A","5010481","2020-04-20 10:00","2020","04","20","10:00","3.6","","-4.3","","56","","","","35","","24","","24.1","","95.72","","","","","","NA"
"-99.95","49.91","BRANDON A","5010481","2020-04-20 11:00","2020","04","20","11:00","4.8","","-4.1","","52","","","","32","","36","","24.1","","95.79","","","","","","NA"
"-99.95","49.91","BRANDON A","5010481","2020-04-20 12:00","2020","04","20","12:00","5.3","","-7.2","","40","","","","33","","44","","24.1","","95.86","","","","","","Mostly Cloudy"
"-99.95","49.91","BRANDON A","5010481","2020-04-20 13:00","2020","04","20","13:00","6.6","","-7.9","","35","","","","34","","37","","24.1","","95.92","","","","","","NA"
"-99.95","49.91","BRANDON A","5010481","2020-04-20 14:00","2020","04","20","14:00","5.6","","-10.3","","31","","","","34","","45","","24.1","","95.99","","","","","","NA"
"-99.95","49.91","BRANDON A","5010481","2020-04-20 15:00","2020","04","20","15:00","5.2","","-9.3","","34","","","","33","","34","","24.1","","96.05","","","","","","Mostly Cloudy"
"-99.95","49.91","BRANDON A","5010481","2020-04-20 16:00","2020","04","20","16:00","4.8","","-9.4","","35","","","","35","","28","","24.1","","96.12","","","","","","NA"
"-99.95","49.91","BRANDON A","5010481","2020-04-20 17:00","2020","04","20","17:00","5.6","","-7.5","","38","","","","33","","21","","24.1","","96.19","","","","","","NA"
"-99.95","49.91","BRANDON A","5010481","2020-04-20 18:00","2020","04","20","18:00","3.4","","-8.0","","43","","","","3","","22","","24.1","","96.26","","","","","","Mainly Clear"
"-99.95","49.91","BRANDON A","5010481","2020-04-20 19:00","2020","04","20","19:00","1.8","","-8.0","","48","","","","6","","13","","24.1","","96.33","","","","","","NA"
"-99.95","49.91","BRANDON A","5010481","2020-04-20 20:00","2020","04","20","20:00","-1.7","","-9.1","","57","","","","7","","18","","24.1","","96.40","","","","-7","","NA"
"-99.95","49.91","BRANDON A","5010481","2020-04-20 21:00","2020","04","20","21:00","-3.6","","-9.4","","65","","","","7","","10","","24.1","","96.48","","","","-8","","Mainly Clear"
"-99.95","49.91","BRANDON A","5010481","2020-04-20 22:00","2020","04","20","22:00","-2.8","","-8.7","","64","","","","11","","7","","24.1","","96.54","","","","-6","","NA"
"-99.95","49.91","BRANDON A","5010481","2020-04-20 23:00","2020","04","20","23:00","-3.0","","-8.7","","65","","","","11","","9","","24.1","","96.54","","","","-7","","NA"
"-99.95","49.91","BRANDON A","5010481","2020-04-21 00:00","2020","04","21","00:00","-3.1","","-8.5","","66","","","","13","","9","","24.1","","96.54","","","","-7","","Mostly Cloudy"
"-99.95","49.91","BRANDON A","5010481","2020-04-21 01:00","2020","04","21","01:00","-3.4","","-8.3","","69","","","","14","","8","","24.1","","96.56","","","","-7","","NA"
"-99.95","49.91","BRANDON A","5010481","2020-04-21 02:00","2020","04","21","02:00","-4.0","","-8.4","","71","","","","15","","9","","24.1","","96.56","","","","-8","","NA"
"-99.95","49.91","BRANDON A","5010481","2020-04-21 03:00","2020","04","21","03:00","-3.9","","-8.5","","71","","","","15","","5","","24.1","","96.56","","","","-6","","Mostly Cloudy"
"-99.95","49.91","BRANDON A","5010481","2020-04-21 04:00","2020","04","21","04:00","-3.6","","-9.5","","64","","","","14","","8","","24.1","","96.57","","","","-7","","NA"
"-99.95","49.91","BRANDON A","5010481","2020-04-21 05:00","2020","04","21","05:00","-3.6","","-10.1","","61","","","","20","","16","","24.1","","96.60","","","","-9","","NA"
"-99.95","49.91","BRANDON A","5010481","2020-04-21 06:00","2020","04","21","06:00","-4.8","","-6.7","","86","","","","15","","10","","3.2","","96.60","","","","-9","","Snow"
"-99.95","49.91","BRANDON A","5010481","2020-04-21 07:00","2020","04","21","07:00","-4.4","","-6.6","","85","","","","14","","18","","9.7","","96.54","","","","-10","","Snow"
"-99.95","49.91","BRANDON A","5010481","2020-04-21 08:00","2020","04","21","08:00","-3.6","","-6.0","","84","","","","13","","17","","24.1","","96.52","","","","-9","","Snow"
"-99.95","49.91","BRANDON A","5010481","2020-04-21 09:00","2020","04","21","09:00","-2.8","","-6.2","","78","","","","14","","25","","16.1","","96.40","","","","-10","","Snow"
"-99.95","49.91","BRANDON A","5010481","2020-04-21 10:00","2020","04","21","10:00","-2.0","","-5.3","","78","","","","13","","26","","24.1","","96.34","","","","-9","","Snow"
"-99.95","49.91","BRANDON A","5010481","2020-04-21 11:00","2020","04","21","11:00","-0.7","","-4.6","","75","","","","14","","18","","24.1","","96.33","","","","-6","","Snow"
"-99.95","49.91","BRANDON A","5010481","2020-04-21 12:00","2020","04","21","12:00","1.3","","-3.9","","68","","","","13","","23","","24.1","","96.28","","","","","","Mostly Cloudy"
"-99.95","49.91","BRANDON A","5010481","2020-04-21 13:00","2020","04","21","13:00","4.1","","-2.1","","64","","","","15","","27","","24.1","","96.15","","","","","","NA"
"-99.95","49.91","BRANDON A","5010481","2020-04-21 14:00","2020","04","21","14:00","5.9","","-1.3","","60","","","","16","","27","","24.1","","96.06","","","","","","NA"
"-99.95","49.91","BRANDON A","5010481","2020-04-21 15:00","2020","04","21","15:00","7.1","","-0.3","","59","","","","15","","23","","24.1","","96.01","","","","","","Mostly Cloudy"
"-99.95","49.91","BRANDON A","5010481","2020-04-21 16:00","2020","04","21","16:00","8.2","","0.1","","57","","","","15","","27","","24.1","","95.92","","","","","","NA"
"-99.95","49.91","BRANDON A","5010481","2020-04-21 17:00","2020","04","21","17:00","8.5","","0.1","","56","","","","15","","27","","24.1","","95.90","","","","","","NA"
"-99.95","49.91","BRANDON A","5010481","2020-04-21 18:00","2020","04","21","18:00","8.2","","0.1","","56","","","","14","","25","","24.1","","95.85","","","","","","Mainly Clear"
"-99.95","49.91","BRANDON A","5010481","2020-04-21 19:00","2020","04","21","19:00","7.0","","0.1","","61","","","","14","","22","","24.1","","95.79","","","","","","NA"
"-99.95","49.91","BRANDON A","5010481","2020-04-21 20:00","2020","04","21","20:00","5.4","","-0.2","","67","","","","14","","21","","24.1","","95.77","","","","","","NA"
"-99.95","49.91","BRANDON A","5010481","2020-04-21 21:00","2020","04","21","21:00","3.5","","-0.6","","75","","","","11","","23","","24.1","","95.78","","","","","","Mainly Clear"
"-99.95","49.91","BRANDON A","5010481","2020-04-21 22:00","2020","04","21","22:00","2.1","","-1.3","","78","","","","11","","23","","24.1","","95.81","","","","","","NA"
"-99.95","49.91","BRANDON A","5010481","2020-04-21 23:00","2020","04","21","23:00","1.1","","-1.7","","81","","","","11","","20","","24.1","","95.82","","","","","","NA"
"-99.95","49.91","BRANDON A","5010481","2020-04-22 00:00","2020","04","22","00:00","0.3","","-2.0","","84","","","","12","","19","","24.1","","95.77","","","","","","Mainly Clear"
"-99.95","49.91","BRANDON A","5010481","2020-04-22 01:00","2020","04","22","01:00","-0.1","","-1.9","","88","","","","10","","17","","24.1","","95.75","","","","-5","","NA"
"-99.95","49.91","BRANDON A","5010481","2020-04-22 02:00","2020","04","22","02:00","-0.7","","-1.9","","91","","","","8","","18","","24.1","","95.78","","","","-6","","NA"
"-99.95","49.91","BRANDON A","5010481","2020-04-22 03:00","2020","04","22","03:00","-0.1","","-1.5","","90","","","","7","","19","","24.1","","95.76","","","","-5","","Mainly Clear"
"-99.95","49.91","BRANDON A","5010481","2020-04-22 04:00","2020","04","22","04:00","-0.7","","-2.2","","89","","","","7","","20","","24.1","","95.80","","","","-6","","NA"
"-99.95","49.91","BRANDON A","5010481","2020-04-22 05:00","2020","04","22","05:00","-1.6","","-3.3","","88","","","","6","","20","","24.1","","95.86","","","","-7","","NA"
"-99.95","49.91","BRANDON A","5010481","2020-04-22 06:00","2020","04","22","06:00","-2.2","","-3.9","","88","","","","5","","14","","24.1","","95.91","","","","-7","","Mostly Cloudy"
"-99.95","49.91","BRANDON A","5010481","2020-04-22 07:00","2020","04","22","07:00","-1.2","","-3.8","","82","","","","6","","13","","24.1","","95.96","","","","-5","","NA"
"-99.95","49.91","BRANDON A","5010481","2020-04-22 08:00","2020","04","22","08:00","0.5","","-3.9","","72","","","","7","","9","","24.1","","95.97","","","","","","NA"
"-99.95","49.91","BRANDON A","5010481","2020-04-22 09:00","2020","04","22","09:00","2.7","","-3.2","","65","","","","3","","12","","24.1","","95.98","","","","","","Mainly Clear"
"-99.95","49.91","BRANDON A","5010481","2020-04-22 10:00","2020","04","22","10:00","5.1","","-2.4","","59","","","","3","","5","","24.1","","95.97","","","","","","NA"
"-99.95","49.91","BRANDON A","5010481","2020-04-22 11:00","2020","04","22","11:00","6.5","","-1.2","","58","","","","12","","13","","24.1","","95.92","","","","","","NA"
"-99.95","49.91","BRANDON A","5010481","2020-04-22 12:00","2020","04","22","12:00","8.6","","0.2","","55","","","","36","","2","","24.1","","95.90","","","","","","Mainly Clear"
"-99.95","49.91","BRANDON A","5010481","2020-04-22 13:00","2020","04","22","13:00","10.1","","-0.1","","49","","","","9","","5","","24.1","","95.85","","","","","","NA"
"-99.95","49.91","BRANDON A","5010481","2020-04-22 14:00","2020","04","22","14:00","11.7","","0.8","","47","","","","12","","6","","24.1","","95.82","","","","","","NA"
"-99.95","49.91","BRANDON A","5010481","2020-04-22 15:00","2020","04","22","15:00","13.3","","0.9","","43","","","","36","","1","","24.1","","95.76","","","","","","Mostly Cloudy"
"-99.95","49.91","BRANDON A","5010481","2020-04-22 16:00","2020","04","22","16:00","14.5","","2.8","","45","","","","19","","10","","24.1","","95.75","","","","","","NA"
"-99.95","49.91","BRANDON A","5010481","2020-04-22 17:00","2020","04","22","17:00","15.0","","1.7","","40","","","","9","","13","","24.1","","95.70","","","","","","NA"
"-99.95","49.91","BRANDON A","5010481","2020-04-22 18:00","2020","04","22","18:00","14.7","","2.4","","43","","","","11","","5","","24.1","","95.70","","","","","","Mostly Cloudy"
"-99.95","49.91","BRANDON A","5010481","2020-04-22 19:00","2020","04","22","19:00","12.8","","2.8","","50","","","","8","","10","","24.1","","95.72","","","","","","NA"
"-99.95","49.91","BRANDON A","5010481","2020-04-22 20:00","2020","04","22","20:00","9.5","","2.5","","62","","","","9","","16","","24.1","","95.75","","","","","","NA"
"-99.95","49.91","BRANDON A","5010481","2020-04-22 21:00","2020","04","22","21:00","7.3","","1.9","","68","","","","7","","11","","24.1","","95.77","","","","","","Cloudy"
"-99.95","49.91","BRANDON A","5010481","2020-04-22 22:00","2020","04","22","22:00","6.5","","1.9","","72","","","","5","","7","","24.1","","95.78","","","","","","NA"
"-99.95","49.91","BRANDON A","5010481","2020-04-22 23:00","2020","04","22","23:00","5.6","","1.9","","77","","","","1","","8","","24.1","","95.76","","","","","","NA"
"-99.95","49.91","BRANDON A","5010481","2020-04-23 00:00","2020","04","23","00:00","6.0","","1.6","","73","","","","2","","5","","24.1","","95.72","","","","","","Mostly Cloudy"
"-99.95","49.91","BRANDON A","5010481","2020-04-23 01:00","2020","04","23","01:00","3.1","","0.4","","83","","","","35","","6","","24.1","","95.71","","","","","","NA"
"-99.95","49.91","BRANDON A","5010481","2020-04-23 02:00","2020","04","23","02:00","1.0","","-0.7","","88","","","","34","","9","","24.1","","95.68","","","","","","NA"
"-99.95","49.91","BRANDON A","5010481","2020-04-23 03:00","2020","04","23","03:00","0.5","","-1.1","","89","","","","32","","6","","24.1","","95.65","","","","","","Mostly Cloudy"
"-99.95","49.91","BRANDON A","5010481","2020-04-23 04:00","2020","04","23","04:00","-0.5","","-2.0","","89","","","","28","","9","","24.1","","95.65","","","","-4","","NA"
"-99.95","49.91","BRANDON A","5010481","2020-04-23 05:00","2020","04","23","05:00","-0.9","","-2.3","","90","","","","29","","13","","24.1","","95.70","","","","-5","","NA"
"-99.95","49.91","BRANDON A","5010481","2020-04-23 06:00","2020","04","23","06:00","-0.3","","-1.4","","93","","","","29","","10","","24.1","","95.72","","","","-4","","Mainly Clear"
"-99.95","49.91","BRANDON A","5010481","2020-04-23 07:00","2020","04","23","07:00","3.6","","1.8","","88","","","","30","","8","","24.1","","95.75","","","","","","NA"
"-99.95","49.91","BRANDON A","5010481","2020-04-23 08:00","2020","04","23","08:00","8.4","","3.0","","69","","","","35","","15","","24.1","","95.78","","","","","","NA"
"-99.95","49.91","BRANDON A","5010481","2020-04-23 09:00","2020","04","23","09:00","12.6","","2.6","","50","","","","1","","9","","24.1","","95.80","","","","","","Mainly Clear"
"-99.95","49.91","BRANDON A","5010481","2020-04-23 10:00","2020","04","23","10:00","14.6","","2.5","","44","","","","4","","20","","24.1","","95.80","","","","","","NA"
"-99.95","49.91","BRANDON A","5010481","2020-04-23 11:00","2020","04","23","11:00","15.2","","0.1","","36","","","","3","","16","","24.1","","95.83","","","","","","NA"
"-99.95","49.91","BRANDON A","5010481","2020-04-23 12:00","2020","04","23","12:00","15.7","","-0.9","","32","","","","2","","11","","24.1","","95.83","","","","","","Mostly Cloudy"
"-99.95","49.91","BRANDON A","5010481","2020-04-23 13:00","2020","04","23","13:00","16.1","","0.0","","33","","","","4","","9","","24.1","","95.81","","","","","","NA"
"-99.95","49.91","BRANDON A","5010481","2020-04-23 14:00","2020","04","23","14:00","15.9","","1.0","","36","","","","9","","4","","24.1","","95.81","","","","","","NA"
"-99.95","49.91","BRANDON A","5010481","2020-04-23 15:00","2020","04","23","15:00","14.8","","0.5","","37","","","","8","","4","","24.1","","95.83","","","","","","Mostly Cloudy"
"-99.95","49.91","BRANDON A","5010481","2020-04-23 16:00","2020","04","23","16:00","16.4","","0.5","","34","","","","14","","10","","24.1","","95.83","","","","","","NA"
"-99.95","49.91","BRANDON A","5010481","2020-04-23 17:00","2020","04","23","17:00","15.5","","0.9","","37","","","","8","","13","","24.1","","95.85","","","","","","NA"
"-99.95","49.91","BRANDON A","5010481","2020-04-23 18:00","2020","04","23","18:00","13.4","","2.4","","47","","","","11","","9","","24.1","","95.94","","","","","","Mostly Cloudy"
"-99.95","49.91","BRANDON A","5010481","2020-04-23 19:00","2020","04","23","19:00","10.6","","2.0","","55","","","","28","","14","","24.1","","95.99","","","","","","NA"
"-99.95","49.91","BRANDON A","5010481","2020-04-23 20:00","2020","04","23","20:00","9.0","","2.8","","65","","","","32","","4","","24.1","","96.05","","","","","","NA"
"-99.95","49.91","BRANDON A","5010481","2020-04-23 21:00","2020","04","23","21:00","8.8","","2.8","","66","","","","33","","7","","24.1","","96.14","","","","","","Mostly Cloudy"
"-99.95","49.91","BRANDON A","5010481","2020-04-23 22:00","2020","04","23","22:00","9.2","","2.4","","62","","","","36","","3","","24.1","","96.18","","","","","","NA"
"-99.95","49.91","BRANDON A","5010481","2020-04-23 23:00","2020","04","23","23:00","7.9","","2.3","","68","","","","13","","10","","24.1","","96.19","","","","","","NA"
"-99.95","49.91","BRANDON A","5010481","2020-04-24 00:00","2020","04","24","00:00","2.7","","0.1","","83","","","","12","","3","","24.1","","96.23","","","","","","Mainly Clear"
"-99.95","49.91","BRANDON A","5010481","2020-04-24 01:00","2020","04","24","01:00","2.3","","-0.3","","83","","","","36","","2","","24.1","","96.26","","","","","","NA"
"-99.95","49.91","BRANDON A","5010481","2020-04-24 02:00","2020","04","24","02:00","0.2","","-1.8","","87","","","","30","","13","","24.1","","96.31","","","","","","NA"
"-99.95","49.91","BRANDON A","5010481","2020-04-24 03:00","2020","04","24","03:00","1.9","","0.0","","87","","","","36","","1","","24.1","","96.32","","","","","","Clear"
"-99.95","49.91","BRANDON A","5010481","2020-04-24 04:00","2020","04","24","04:00","0.3","","-1.3","","89","","","","","","0","","24.1","","96.36","","","","","","NA"
"-99.95","49.91","BRANDON A","5010481","2020-04-24 05:00","2020","04","24","05:00","-0.6","","-2.3","","88","","","","36","","2","","24.1","","96.40","","","","-1","","NA"
"-99.95","49.91","BRANDON A","5010481","2020-04-24 06:00","2020","04","24","06:00","-0.9","","-2.3","","90","","","","27","","9","","24.1","","96.45","","","","-4","","Mainly Clear"
"-99.95","49.91","BRANDON A","5010481","2020-04-24 07:00","2020","04","24","07:00","1.9","","0.2","","88","","","","28","","5","","24.1","","96.48","","","","","","NA"
"-99.95","49.91","BRANDON A","5010481","2020-04-24 08:00","2020","04","24","08:00","4.5","","1.4","","80","","","","26","","8","","24.1","","96.52","","","","","","NA"
"-99.95","49.91","BRANDON A","5010481","2020-04-24 09:00","2020","04","24","09:00","9.0","","3.1","","67","","","","20","","7","","24.1","","96.50","","","","","","Mostly Cloudy"
"-99.95","49.91","BRANDON A","5010481","2020-04-24 10:00","2020","04","24","10:00","12.6","","3.3","","53","","","","31","","5","","24.1","","96.54","","","","","","NA"
"-99.95","49.91","BRANDON A","5010481","2020-04-24 11:00","2020","04","24","11:00","14.4","","3.1","","46","","","","23","","7","","24.1","","96.54","","","","","","NA"
"-99.95","49.91","BRANDON A","5010481","2020-04-24 12:00","2020","04","24","12:00","16.0","","3.0","","42","","","","25","","8","","24.1","","96.50","","","","","","Mainly Clear"
"-99.95","49.91","BRANDON A","5010481","2020-04-24 13:00","2020","04","24","13:00","16.6","","3.6","","42","","","","19","","9","","24.1","","96.46","","","","","","NA"
"-99.95","49.91","BRANDON A","5010481","2020-04-24 14:00","2020","04","24","14:00","17.1","","2.2","","36","","","","7","","28","","24.1","","96.44","","","","","","NA"
"-99.95","49.91","BRANDON A","5010481","2020-04-24 15:00","2020","04","24","15:00","14.3","","3.8","","49","","","","6","","31","","24.1","","96.48","","","","","","Rain Showers"
"-99.95","49.91","BRANDON A","5010481","2020-04-24 16:00","2020","04","24","16:00","15.2","","2.3","","42","","","","7","","24","","24.1","","96.44","","","","","","NA"
"-99.95","49.91","BRANDON A","5010481","2020-04-24 17:00","2020","04","24","17:00","14.6","","3.4","","47","","","","9","","21","","24.1","","96.48","","","","","","NA"
"-99.95","49.91","BRANDON A","5010481","2020-04-24 18:00","2020","04","24","18:00","12.6","","4.5","","58","","","","21","","16","","24.1","","96.57","","","","","","Rain Showers"
"-99.95","49.91","BRANDON A","5010481","2020-04-24 19:00","2020","04","24","19:00","10.1","","5.3","","72","","","","9","","22","","24.1","","96.61","","","","","","Thunderstorms,Rain Showers"
"-99.95","49.91","BRANDON A","5010481","2020-04-24 20:00","2020","04","24","20:00","8.6","","5.0","","78","","","","6","","18","","24.1","","96.66","","","","","","NA"
"-99.95","49.91","BRANDON A","5010481","2020-04-24 21:00","2020","04","24","21:00","7.9","","4.7","","80","","","","6","","13","","24.1","","96.72","","","","","","Mostly Cloudy"
"-99.95","49.91","BRANDON A","5010481","2020-04-24 22:00","2020","04","24","22:00","6.6","","4.0","","83","","","","7","","11","","24.1","","96.71","","","","","","NA"
"-99.95","49.91","BRANDON A","5010481","2020-04-24 23:00","2020","04","24","23:00","7.0","","4.5","","84","","","","6","","18","","24.1","","96.73","","","","","","NA"
"-99.95","49.91","BRANDON A","5010481","2020-04-25 00:00","2020","04","25","00:00","6.1","","4.1","","87","","","","6","","17","","24.1","","96.72","","","","","","Mostly Cloudy"
"-99.95","49.91","BRANDON A","5010481","2020-04-25 01:00","2020","04","25","01:00","6.9","","4.5","","85","","","","35","","18","","24.1","","96.83","","","","","","NA"
"-99.95","49.91","BRANDON A","5010481","2020-04-25 02:00","2020","04","25","02:00","6.3","","4.6","","89","","","","4","","23","","24.1","","96.74","","","","","","Rain Showers"
"-99.95","49.91","BRANDON A","5010481","2020-04-25 03:00","2020","04","25","03:00","4.7","","3.1","","90","","","","5","","17","","24.1","","96.77","","","","","","Rain Showers"
"-99.95","49.91","BRANDON A","5010481","2020-04-25 04:00","2020","04","25","04:00","3.8","","2.0","","88","","","","5","","17","","24.1","","96.79","","","","","","NA"
"-99.95","49.91","BRANDON A","5010481","2020-04-25 05:00","2020","04","25","05:00","3.6","","1.2","","84","","","","5","","17","","24.1","","96.85","","","","","","NA"
"-99.95","49.91","BRANDON A","5010481","2020-04-25 06:00","2020","04","25","06:00","3.6","","0.9","","82","","","","4","","17","","24.1","","96.88","","","","","","Mostly Cloudy"
"-99.95","49.91","BRANDON A","5010481","2020-04-25 07:00","2020","04","25","07:00","3.5","","0.5","","81","","","","4","","21","","24.1","","96.96","","","","","","NA"
"-99.95","49.91","BRANDON A","5010481","2020-04-25 08:00","2020","04","25","08:00","3.5","","0.8","","82","","","","5","","18","","24.1","","97.03","","","","","","Rain Showers"
"-99.95","49.91","BRANDON A","5010481","2020-04-25 09:00","2020","04","25","09:00","3.1","","0.7","","84","","","","5","","23","","24.1","","97.08","","","","","","Cloudy"
"-99.95","49.91","BRANDON A","5010481","2020-04-25 10:00","2020","04","25","10:00","3.3","","1.4","","87","","","","6","","24","","24.1","","97.11","","","","","","Rain Showers"
"-99.95","49.91","BRANDON A","5010481","2020-04-25 11:00","2020","04","25","11:00","4.1","","2.0","","86","","","","7","","19","","24.1","","97.14","","","","","","NA"
"-99.95","49.91","BRANDON A","5010481","2020-04-25 12:00","2020","04","25","12:00","5.0","","2.4","","84","","","","8","","24","","24.1","","97.14","","","","","","Cloudy"
"-99.95","49.91","BRANDON A","5010481","2020-04-25 13:00","2020","04","25","13:00","6.3","","3.1","","80","","","","6","","14","","24.1","","97.13","","","","","","NA"
"-99.95","49.91","BRANDON A","5010481","2020-04-25 14:00","2020","04","25","14:00","6.6","","2.6","","75","","","","7","","13","","24.1","","97.13","","","","","","NA"
"-99.95","49.91","BRANDON A","5010481","2020-04-25 15:00","2020","04","25","15:00","7.1","","3.9","","80","","","","4","","17","","24.1","","97.12","","","","","","Cloudy"
"-99.95","49.91","BRANDON A","5010481","2020-04-25 16:00","2020","04","25","16:00","7.1","","4.0","","81","","","","6","","16","","24.1","","97.09","","","","","","NA"
"-99.95","49.91","BRANDON A","5010481","2020-04-25 17:00","2020","04","25","17:00","7.2","","4.2","","81","","","","12","","8","","24.1","","97.09","","","","","","NA"
"-99.95","49.91","BRANDON A","5010481","2020-04-25 18:00","2020","04","25","18:00","7.0","","3.8","","80","","","","11","","7","","24.1","","97.12","","","","","","Cloudy"
"-99.95","49.91","BRANDON A","5010481","2020-04-25 19:00","2020","04","25","19:00","6.9","","3.9","","82","","","","9","","10","","24.1","","97.09","","","","","","NA"
"-99.95","49.91","BRANDON A","5010481","2020-04-25 20:00","2020","04","25","20:00","5.9","","3.8","","86","","","","11","","10","","24.1","","97.03","","","","","","NA"
"-99.95","49.91","BRANDON A","5010481","2020-04-25 21:00","2020","04","25","21:00","5.3","","3.5","","88","","","","11","","9","","24.1","","97.06","","","","","","Mostly Cloudy"
"-99.95","49.91","BRANDON A","5010481","2020-04-25 22:00","2020","04","25","22:00","4.2","","3.1","","93","","","","10","","8","","24.1","","97.04","","","","","","NA"
"-99.95","49.91","BRANDON A","5010481","2020-04-25 23:00","2020","04","25","23:00","3.9","","3.1","","95","","","","11","","8","","24.1","","97.03","","","","","","NA"
"-99.95","49.91","BRANDON A","5010481","2020-04-26 00:00","2020","04","26","00:00","3.2","","2.5","","95","","","","10","","8","","24.1","","97.00","","","","","","Mostly Cloudy"
"-99.95","49.91","BRANDON A","5010481","2020-04-26 01:00","2020","04","26","01:00","2.1","","1.5","","96","","","","11","","10","","24.1","","96.94","","","","","","NA"
"-99.95","49.91","BRANDON A","5010481","2020-04-26 02:00","2020","04","26","02:00","2.8","","2.4","","97","","","","13","","7","","4.8","","96.90","","","","","","Fog"
"-99.95","49.91","BRANDON A","5010481","2020-04-26 03:00","2020","04","26","03:00","1.6","","1.2","","97","","","","10","","12","","0.8","","96.81","","","","","","Fog"
"-99.95","49.91","BRANDON A","5010481","2020-04-26 04:00","2020","04","26","04:00","1.0","","0.6","","97","","","","12","","8","","0.8","","96.75","","","","","","Fog"
"-99.95","49.91","BRANDON A","5010481","2020-04-26 05:00","2020","04","26","05:00","0.4","","0.0","","97","","","","9","","10","","0.8","","96.71","","","","","","Fog"
"-99.95","49.91","BRANDON A","5010481","2020-04-26 06:00","2020","04","26","06:00","-0.4","","-0.8","","97","","","","9","","7","","0.8","","96.66","","","","-3","","Freezing Fog"
"-99.95","49.91","BRANDON A","5010481","2020-04-26 07:00","2020","04","26","07:00","2.0","","1.6","","97","","","","10","","9","","8.1","","96.58","","","","","","Fog"
"-99.95","49.91","BRANDON A","5010481","2020-04-26 08:00","2020","04","26","08:00","4.8","","4.5","","98","","","","14","","14","","19.3","","96.51","","","","","","NA"
"-99.95","49.91","BRANDON A","5010481","2020-04-26 09:00","2020","04","26","09:00","10.0","","7.8","","86","","","","17","","17","","24.1","","96.38","","","","","","Cloudy"
"-99.95","49.91","BRANDON A","5010481","2020-04-26 10:00","2020","04","26","10:00","13.3","","5.7","","60","","","","18","","28","","24.1","","96.25","","","","","","NA"
"-99.95","49.91","BRANDON A","5010481","2020-04-26 11:00","2020","04","26","11:00","13.4","","5.0","","57","","","","18","","29","","24.1","","96.17","","","","","","NA"
"-99.95","49.91","BRANDON A","5010481","2020-04-26 12:00","2020","04","26","12:00","13.7","","2.6","","47","","","","17","","30","","24.1","","96.01","","","","","","Cloudy"
"-99.95","49.91","BRANDON A","5010481","2020-04-26 13:00","2020","04","26","13:00","14.9","","5.3","","52","","","","19","","39","","24.1","","95.94","","","","","","NA"
"-99.95","49.91","BRANDON A","5010481","2020-04-26 14:00","2020","04","26","14:00","16.5","","4.3","","44","","","","19","","49","","24.1","","95.82","","","","","","NA"
"-99.95","49.91","BRANDON A","5010481","2020-04-26 15:00","2020","04","26","15:00","17.2","","3.1","","39","","","","20","","46","","24.1","","95.75","","","","","","Mostly Cloudy"
"-99.95","49.91","BRANDON A","5010481","2020-04-26 16:00","2020","04","26","16:00","18.5","","1.4","","32","","","","22","","44","","24.1","","95.71","","","","","","NA"
"-99.95","49.91","BRANDON A","5010481","2020-04-26 17:00","2020","04","26","17:00","17.0","","-0.3","","31","","","","27","","39","","24.1","","95.78","","","","","","NA"
"-99.95","49.91","BRANDON A","5010481","2020-04-26 18:00","2020","04","26","18:00","17.1","","-1.0","","29","","","","27","","39","","24.1","","95.81","","","","","","Mostly Cloudy"
"-99.95","49.91","BRANDON A","5010481","2020-04-26 19:00","2020","04","26","19:00","15.0","","-0.4","","35","","","","29","","31","","24.1","","95.84","","","","","","NA"
"-99.95","49.91","BRANDON A","5010481","2020-04-26 20:00","2020","04","26","20:00","9.0","","1.9","","61","","","","32","","16","","24.1","","95.90","","","","","","NA"
"-99.95","49.91","BRANDON A","5010481","2020-04-26 21:00","2020","04","26","21:00","5.8","","1.3","","73","","","","29","","16","","24.1","","95.95","","","","","","Mainly Clear"
"-99.95","49.91","BRANDON A","5010481","2020-04-26 22:00","2020","04","26","22:00","5.0","","0.8","","74","","","","29","","13","","24.1","","96.01","","","","","","NA"
"-99.95","49.91","BRANDON A","5010481","2020-04-26 23:00","2020","04","26","23:00","3.9","","0.5","","78","","","","30","","16","","24.1","","96.04","","","","","","NA"
"-99.95","49.91","BRANDON A","5010481","2020-04-27 00:00","2020","04","27","00:00","4.2","","0.7","","78","","","","28","","16","","24.1","","96.10","","","","","","Clear"
"-99.95","49.91","BRANDON A","5010481","2020-04-27 01:00","2020","04","27","01:00","4.3","","1.2","","80","","","","26","","21","","24.1","","96.11","","","","","","NA"
"-99.95","49.91","BRANDON A","5010481","2020-04-27 02:00","2020","04","27","02:00","3.4","","0.1","","79","","","","26","","20","","24.1","","96.11","","","","","","NA"
"-99.95","49.91","BRANDON A","5010481","2020-04-27 03:00","2020","04","27","03:00","2.7","","-0.3","","81","","","","27","","15","","24.1","","96.14","","","","","","Clear"
"-99.95","49.91","BRANDON A","5010481","2020-04-27 04:00","2020","04","27","04:00","1.6","","-0.6","","85","","","","28","","16","","24.1","","96.16","","","","","","NA"
"-99.95","49.91","BRANDON A","5010481","2020-04-27 05:00","2020","04","27","05:00","0.9","","-0.9","","87","","","","29","","16","","24.1","","96.18","","","","","","NA"
"-99.95","49.91","BRANDON A","5010481","2020-04-27 06:00","2020","04","27","06:00","1.7","","-0.3","","87","","","","28","","18","","24.1","","96.19","","","","","","Mostly Cloudy"
"-99.95","49.91","BRANDON A","5010481","2020-04-27 07:00","2020","04","27","07:00","3.8","","1.0","","82","","","","28","","23","","24.1","","96.25","","","","","","NA"
"-99.95","49.91","BRANDON A","5010481","2020-04-27 08:00","2020","04","27","08:00","6.2","","1.9","","74","","","","28","","23","","24.1","","96.28","","","","","","NA"
"-99.95","49.91","BRANDON A","5010481","2020-04-27 09:00","2020","04","27","09:00","9.2","","3.0","","65","","","","28","","21","","24.1","","96.29","","","","","","Mostly Cloudy"
"-99.95","49.91","BRANDON A","5010481","2020-04-27 10:00","2020","04","27","10:00","11.3","","2.9","","56","","","","29","","28","","24.1","","96.25","","","","","","NA"
"-99.95","49.91","BRANDON A","5010481","2020-04-27 11:00","2020","04","27","11:00","13.1","","3.3","","51","","","","29","","29","","24.1","","96.26","","","","","","NA"
"-99.95","49.91","BRANDON A","5010481","2020-04-27 12:00","2020","04","27","12:00","13.6","","2.8","","48","","","","29","","30","","24.1","","96.24","","","","","","Mostly Cloudy"
"-99.95","49.91","BRANDON A","5010481","2020-04-27 13:00","2020","04","27","13:00","14.8","","1.6","","41","","","","28","","20","","24.1","","96.19","","","","","","NA"
"-99.95","49.91","BRANDON A","5010481","2020-04-27 14:00","2020","04","27","14:00","15.3","","1.1","","38","","","","30","","16","","24.1","","96.14","","","","","","NA"
"-99.95","49.91","BRANDON A","5010481","2020-04-27 15:00","2020","04","27","15:00","16.2","","1.2","","36","","","","28","","9","","24.1","","96.10","","","","","","Mostly Cloudy"
"-99.95","49.91","BRANDON A","5010481","2020-04-27 16:00","2020","04","27","16:00","16.7","","2.0","","37","","","","36","","11","","24.1","","96.08","","","","","","NA"
"-99.95","49.91","BRANDON A","5010481","2020-04-27 17:00","2020","04","27","17:00","17.1","","2.8","","38","","","","6","","6","","24.1","","96.03","","","","","","NA"
"-99.95","49.91","BRANDON A","5010481","2020-04-27 18:00","2020","04","27","18:00","17.0","","1.7","","36","","","","11","","9","","24.1","","96.02","","","","","","Mostly Cloudy"
"-99.95","49.91","BRANDON A","5010481","2020-04-27 19:00","2020","04","27","19:00","14.1","","3.0","","47","","","","8","","13","","24.1","","96.01","","","","","","NA"
"-99.95","49.91","BRANDON A","5010481","2020-04-27 20:00","2020","04","27","20:00","11.5","","2.8","","55","","","","8","","16","","24.1","","95.99","","","","","","NA"
"-99.95","49.91","BRANDON A","5010481","2020-04-27 21:00","2020","04","27","21:00","9.8","","2.5","","60","","","","9","","14","","24.1","","96.02","","","","","","Cloudy"
"-99.95","49.91","BRANDON A","5010481","2020-04-27 22:00","2020","04","27","22:00","8.6","","1.9","","63","","","","9","","14","","24.1","","96.01","","","","","","NA"
"-99.95","49.91","BRANDON A","5010481","2020-04-27 23:00","2020","04","27","23:00","8.4","","4.2","","75","","","","7","","18","","24.1","","95.95","","","","","","NA"
"-99.95","49.91","BRANDON A","5010481","2020-04-28 00:00","2020","04","28","00:00","7.8","","3.3","","73","","","","6","","19","","24.1","","95.91","","","","","","Cloudy"
"-99.95","49.91","BRANDON A","5010481","2020-04-28 01:00","2020","04","28","01:00","7.5","","3.0","","73","","","","8","","16","","24.1","","95.93","","","","","","NA"
"-99.95","49.91","BRANDON A","5010481","2020-04-28 02:00","2020","04","28","02:00","7.5","","2.9","","72","","","","7","","25","","24.1","","95.87","","","","","","NA"
"-99.95","49.91","BRANDON A","5010481","2020-04-28 03:00","2020","04","28","03:00","6.0","","2.8","","80","","","","8","","27","","24.1","","95.81","","","","","","Mostly Cloudy"
"-99.95","49.91","BRANDON A","5010481","2020-04-28 04:00","2020","04","28","04:00","4.6","","2.4","","85","","","","7","","25","","24.1","","95.83","","","","","","NA"
"-99.95","49.91","BRANDON A","5010481","2020-04-28 05:00","2020","04","28","05:00","4.3","","2.0","","85","","","","6","","31","","24.1","","95.78","","","","","","NA"
"-99.95","49.91","BRANDON A","5010481","2020-04-28 06:00","2020","04","28","06:00","5.0","","2.0","","81","","","","6","","33","","24.1","","95.73","","","","","","Mostly Cloudy"
"-99.95","49.91","BRANDON A","5010481","2020-04-28 07:00","2020","04","28","07:00","5.1","","2.2","","81","","","","7","","24","","24.1","","95.78","","","","","","NA"
"-99.95","49.91","BRANDON A","5010481","2020-04-28 08:00","2020","04","28","08:00","5.2","","2.7","","84","","","","6","","21","","24.1","","95.80","","","","","","Rain Showers"
"-99.95","49.91","BRANDON A","5010481","2020-04-28 09:00","2020","04","28","09:00","6.3","","3.8","","84","","","","6","","26","","24.1","","95.82","","","","","","Rain Showers"
"-99.95","49.91","BRANDON A","5010481","2020-04-28 10:00","2020","04","28","10:00","6.9","","3.8","","81","","","","6","","27","","24.1","","95.89","","","","","","NA"
"-99.95","49.91","BRANDON A","5010481","2020-04-28 11:00","2020","04","28","11:00","6.9","","4.3","","83","","","","6","","26","","24.1","","96.00","","","","","","NA"
"-99.95","49.91","BRANDON A","5010481","2020-04-28 12:00","2020","04","28","12:00","6.5","","5.0","","90","","","","5","","24","","19.3","","96.04","","","","","","Rain Showers"
"-99.95","49.91","BRANDON A","5010481","2020-04-28 13:00","2020","04","28","13:00","7.2","","5.8","","91","","","","6","","27","","19.3","","96.09","","","","","","Rain Showers"
"-99.95","49.91","BRANDON A","5010481","2020-04-28 14:00","2020","04","28","14:00","7.8","","6.1","","90","","","","5","","26","","24.1","","96.18","","","","","","Rain Showers"
"-99.95","49.91","BRANDON A","5010481","2020-04-28 15:00","2020","04","28","15:00","7.6","","6.3","","92","","","","5","","33","","19.3","","96.28","","","","","","Rain Showers"
"-99.95","49.91","BRANDON A","5010481","2020-04-28 16:00","2020","04","28","16:00","7.8","","6.6","","92","","","","5","","36","","19.3","","96.35","","","","","","Rain Showers"
"-99.95","49.91","BRANDON A","5010481","2020-04-28 17:00","2020","04","28","17:00","6.8","","5.5","","91","","","","5","","36","","9.7","","96.50","","","","","","Rain Showers"
"-99.95","49.91","BRANDON A","5010481","2020-04-28 18:00","2020","04","28","18:00","6.3","","5.3","","93","","","","4","","34","","9.7","","96.61","","","","","","Rain Showers"
"-99.95","49.91","BRANDON A","5010481","2020-04-28 19:00","2020","04","28","19:00","6.1","","5.3","","95","","","","4","","10","","19.3","","96.74","","","","","","Rain Showers"
"-99.95","49.91","BRANDON A","5010481","2020-04-28 20:00","2020","04","28","20:00","5.7","","4.5","","92","","","","2","","30","","19.3","","96.87","","","","","","Rain Showers"
"-99.95","49.91","BRANDON A","5010481","2020-04-28 21:00","2020","04","28","21:00","5.1","","3.9","","92","","","","4","","14","","24.1","","97.02","","","","","","Rain Showers"
"-99.95","49.91","BRANDON A","5010481","2020-04-28 22:00","2020","04","28","22:00","4.8","","3.7","","93","","","","1","","8","","24.1","","97.15","","","","","","Rain Showers"
"-99.95","49.91","BRANDON A","5010481","2020-04-28 23:00","2020","04","28","23:00","4.5","","3.5","","93","","","","36","","7","","24.1","","97.19","","","","","","Rain"
"-99.95","49.91","BRANDON A","5010481","2020-04-29 00:00","2020","04","29","00:00","4.0","","3.0","","94","","","","33","","4","","24.1","","97.24","","","","","","Rain"
"-99.95","49.91","BRANDON A","5010481","2020-04-29 01:00","2020","04","29","01:00","2.0","","1.2","","95","","","","30","","8","","24.1","","97.30","","","","","","NA"
"-99.95","49.91","BRANDON A","5010481","2020-04-29 02:00","2020","04","29","02:00","0.3","","-0.3","","95","","","","31","","13","","24.1","","97.31","","","","","","NA"
"-99.95","49.91","BRANDON A","5010481","2020-04-29 03:00","2020","04","29","03:00","-0.3","","-0.8","","96","","","","30","","14","","24.1","","97.34","","","","-5","","Clear"
"-99.95","49.91","BRANDON A","5010481","2020-04-29 04:00","2020","04","29","04:00","-0.8","","-1.4","","96","","","","30","","12","","24.1","","97.35","","","","-5","","NA"
"-99.95","49.91","BRANDON A","5010481","2020-04-29 05:00","2020","04","29","05:00","-1.3","","-1.9","","96","","","","31","","13","","24.1","","97.35","","","","-6","","NA"
"-99.95","49.91","BRANDON A","5010481","2020-04-29 06:00","2020","04","29","06:00","-0.7","","-1.3","","96","","","","31","","12","","24.1","","97.39","","","","-5","","Clear"
"-99.95","49.91","BRANDON A","5010481","2020-04-29 07:00","2020","04","29","07:00","1.3","","0.6","","95","","","","30","","9","","24.1","","97.40","","","","","","NA"
"-99.95","49.91","BRANDON A","5010481","2020-04-29 08:00","2020","04","29","08:00","4.6","","2.6","","87","","","","30","","13","","24.1","","97.41","","","","","","NA"
"-99.95","49.91","BRANDON A","5010481","2020-04-29 09:00","2020","04","29","09:00","7.3","","3.1","","74","","","","27","","14","","24.1","","97.39","","","","","","Mainly Clear"
"-99.95","49.91","BRANDON A","5010481","2020-04-29 10:00","2020","04","29","10:00","9.3","","4.2","","70","","","","27","","17","","24.1","","97.36","","","","","","NA"
"-99.95","49.91","BRANDON A","5010481","2020-04-29 11:00","2020","04","29","11:00","10.6","","4.6","","66","","","","25","","14","","24.1","","97.37","","","","","","NA"
"-99.95","49.91","BRANDON A","5010481","2020-04-29 12:00","2020","04","29","12:00","12.8","","5.1","","59","","","","26","","9","","24.1","","97.32","","","","","","Mainly Clear"
"-99.95","49.91","BRANDON A","5010481","2020-04-29 13:00","2020","04","29","13:00","15.0","","3.8","","47","","","","30","","7","","24.1","","97.24","","","","","","NA"
"-99.95","49.91","BRANDON A","5010481","2020-04-29 14:00","2020","04","29","14:00","16.0","","4.4","","46","","","","21","","7","","24.1","","97.15","","","","","","NA"
"-99.95","49.91","BRANDON A","5010481","2020-04-29 15:00","2020","04","29","15:00","16.7","","1.3","","35","","","","22","","14","","24.1","","97.10","","","","","","Mostly Cloudy"
"-99.95","49.91","BRANDON A","5010481","2020-04-29 16:00","2020","04","29","16:00","17.4","","3.0","","38","","","","24","","7","","24.1","","97.02","","","","","","NA"
"-99.95","49.91","BRANDON A","5010481","2020-04-29 17:00","2020","04","29","17:00","17.2","","0.6","","32","","","","24","","10","","24.1","","96.98","","","","","","NA"
"-99.95","49.91","BRANDON A","5010481","2020-04-29 18:00","2020","04","29","18:00","16.9","","2.9","","39","","","","18","","13","","24.1","","96.93","","","","","","Mostly Cloudy"
"-99.95","49.91","BRANDON A","5010481","2020-04-29 19:00","2020","04","29","19:00","16.1","","1.8","","38","","","","18","","11","","24.1","","96.90","","","","","","NA"
"-99.95","49.91","BRANDON A","5010481","2020-04-29 20:00","2020","04","29","20:00","12.7","","2.1","","48","","","","18","","9","","24.1","","96.87","","","","","","NA"
"-99.95","49.91","BRANDON A","5010481","2020-04-29 21:00","2020","04","29","21:00","11.0","","2.1","","54","","","","14","","14","","24.1","","96.83","","","","","","Mostly Cloudy"
"-99.95","49.91","BRANDON A","5010481","2020-04-29 22:00","2020","04","29","22:00","9.1","","1.6","","59","","","","16","","14","","24.1","","96.79","","","","","","NA"
"-99.95","49.91","BRANDON A","5010481","2020-04-29 23:00","2020","04","29","23:00","7.8","","1.3","","63","","","","15","","11","","24.1","","96.72","","","","","","NA"
"-99.95","49.91","BRANDON A","5010481","2020-04-30 00:00","2020","04","30","00:00","8.1","","1.3","","62","","","","16","","13","","24.1","","96.68","","","","","","Mainly Clear"
"-99.95","49.91","BRANDON A","5010481","2020-04-30 01:00","2020","04","30","01:00","5.1","","0.9","","75","","","","7","","6","","24.1","","96.63","","","","","","NA"
"-99.95","49.91","BRANDON A","5010481","2020-04-30 02:00","2020","04","30","02:00","3.5","","1.0","","83","","","","7","","6","","24.1","","96.59","","","","","","NA"
"-99.95","49.91","BRANDON A","5010481","2020-04-30 03:00","2020","04","30","03:00","3.6","","0.2","","79","","","","9","","5","","24.1","","96.55","","","","","","Mainly Clear"
"-99.95","49.91","BRANDON A","5010481","2020-04-30 04:00","2020","04","30","04:00","2.3","","-0.2","","84","","","","5","","8","","24.1","","96.51","","","","","","NA"
"-99.95","49.91","BRANDON A","5010481","2020-04-30 05:00","2020","04","30","05:00","2.4","","0.0","","84","","","","8","","10","","24.1","","96.44","","","","","","NA"
"-99.95","49.91","BRANDON A","5010481","2020-04-30 06:00","2020","04","30","06:00","2.7","","0.7","","87","","","","8","","8","","24.1","","96.39","","","","","","Mostly Cloudy"
"-99.95","49.91","BRANDON A","5010481","2020-04-30 07:00","2020","04","30","07:00","6.5","","2.3","","74","","","","12","","9","","24.1","","96.33","","","","","","NA"
"-99.95","49.91","BRANDON A","5010481","2020-04-30 08:00","2020","04","30","08:00","10.2","","3.5","","63","","","","15","","9","","24.1","","96.27","","","","","","NA"
"-99.95","49.91","BRANDON A","5010481","2020-04-30 09:00","2020","04","30","09:00","14.8","","4.8","","51","","","","21","","18","","24.1","","96.21","","","","","","Mostly Cloudy"
"-99.95","49.91","BRANDON A","5010481","2020-04-30 10:00","2020","04","30","10:00","16.9","","4.1","","42","","","","22","","26","","24.1","","96.14","","","","","","NA"
"-99.95","49.91","BRANDON A","5010481","2020-04-30 11:00","2020","04","30","11:00","17.2","","5.2","","45","","","","23","","25","","24.1","","96.08","","","","","","NA"
"-99.95","49.91","BRANDON A","5010481","2020-04-30 12:00","2020","04","30","12:00","18.3","","4.5","","40","","","","22","","21","","24.1","","96.02","","","","","","Mostly Cloudy"
"-99.95","49.91","BRANDON A","5010481","2020-04-30 13:00","2020","04","30","13:00","19.7","","6.4","","42","","","","22","","19","","24.1","","95.95","","","","","","NA"
"-99.95","49.91","BRANDON A","5010481","2020-04-30 14:00","2020","04","30","14:00","20.4","","6.7","","41","","","","22","","28","","24.1","","95.91","","","","","","NA"
"-99.95","49.91","BRANDON A","5010481","2020-04-30 15:00","2020","04","30","15:00","20.7","","6.3","","39","","","","22","","22","","24.1","","95.86","","","","","","Mostly Cloudy"
"-99.95","49.91","BRANDON A","5010481","2020-04-30 16:00","2020","04","30","16:00","20.3","","5.7","","38","","","","23","","23","","24.1","","95.81","","","","","","NA"
"-99.95","49.91","BRANDON A","5010481","2020-04-30 17:00","2020","04","30","17:00","20.3","","6.5","","40","","","","25","","9","","24.1","","95.77","","","","","","NA"
"-99.95","49.91","BRANDON A","5010481","2020-04-30 18:00","2020","04","30","18:00","19.1","","7.2","","46","","","","28","","11","","24.1","","95.76","","","","","","Cloudy"
"-99.95","49.91","BRANDON A","5010481","2020-04-30 19:00","2020","04","30","19:00","17.4","","8.0","","54","","","","25","","10","","24.1","","95.74","","","","","","NA"
"-99.95","49.91","BRANDON A","5010481","2020-04-30 20:00","2020","04","30","20:00","16.2","","7.5","","56","","","","21","","9","","24.1","","95.72","","","","","","NA"
"-99.95","49.91","BRANDON A","5010481","2020-04-30 21:00","2020","04","30","21:00","14.2","","8.3","","67","","","","3","","8","","24.1","","95.73","","","","","","Cloudy"
"-99.95","49.91","BRANDON A","5010481","2020-04-30 22:00","2020","04","30","22:00","14.2","","8.4","","68","","","","13","","13","","24.1","","95.75","","","","","","NA"
"-99.95","49.91","BRANDON A","5010481","2020-04-30 23:00","2020","04","30","23:00","14.0","","8.2","","68","","","","15","","12","","24.1","","95.69","","","","","","NA"
