"Longitude (x)","Latitude (y)","Station Name","Climate ID","Date/Time (LST)","Year","Month","Day","Time (LST)","Temp (°C)","Temp Flag","Dew Point Temp (°C)","Dew Point Temp Flag","Rel Hum (%)","Rel Hum Flag","Precip. Amount (mm)","Precip. Amount Flag","Wind Dir (10s deg)","Wind Dir Flag","Wind Spd (km/h)","Wind Spd Flag","Visibility (km)","Visibility Flag","Stn Press (kPa)","Stn Press Flag","Hmdx","Hmdx Flag","Wind Chill","Wind Chill Flag","Weather"
"-61.68","56.55","NAIN A","8502801","2021-11-01 00:00","2021","11","01","00:00"
"-61.68","56.55","NAIN A","8502801","2021-11-01 01:00","2021","11","01","01:00"
"-61.68","56.55","NAIN A","8502801","2021-11-01 02:00","2021","11","01","02:00"
"-61.68","56.55","NAIN A","8502801","2021-11-01 03:00","2021","11","01","03:00"
"-61.68","56.55","NAIN A","8502801","2021-11-01 04:00","2021","11","01","04:00","4.2","","2.8","","91","","","","9","","4","","24.1","","100.20","","","","","","Rain"
"-61.68","56.55","NAIN A","8502801","2021-11-01 05:00","2021","11","01","05:00","4.2","","3.0","","92","","","","10","","5","","24.1","","100.16","","","","","","Rain"
"-61.68","56.55","NAIN A","8502801","2021-11-01 06:00","2021","11","01","06:00","4.8","","3.3","","90","","","","11","","13","","24.1","","100.08","","","","","","Rain"
"-61.68","56.55","NAIN A","8502801","2021-11-01 07:00","2021","11","01","07:00","5.6","","4.2","","91","","","","14","","27","","24.1","","99.97","","","","","","Rain"
"-61.68","56.55","NAIN A","8502801","2021-11-01 08:00","2021","11","01","08:00","5.4","","4.5","","94","","","","15","","17","","24.1","","99.87","","","","","","Rain"
"-61.68","56.55","NAIN A","8502801","2021-11-01 09:00","2021","11","01","09:00","5.6","","4.5","","93","","","","14","","16","","24.1","","99.76","","","","","","Rain"
"-61.68","56.55","NAIN A","8502801","2021-11-01 10:00","2021","11","01","10:00","5.8","","4.4","","90","","","","14","","18","","24.1","","99.65","","","","","","Rain"
"-61.68","56.55","NAIN A","8502801","2021-11-01 11:00","2021","11","01","11:00","5.7","","4.4","","91","","","","14","","17","","24.1","","99.56","","","","","","Rain"
"-61.68","56.55","NAIN A","8502801","2021-11-01 12:00","2021","11","01","12:00","5.5","","4.4","","92","","","","11","","12","","24.1","","99.45","","","","","","Rain"
"-61.68","56.55","NAIN A","8502801","2021-11-01 13:00","2021","11","01","13:00","5.7","","4.6","","93","","","","13","","14","","24.1","","99.36","","","","","","Rain"
"-61.68","56.55","NAIN A","8502801","2021-11-01 14:00","2021","11","01","14:00","6.3","","4.3","","87","","","","14","","23","","24.1","","99.28","","","","","","Cloudy"
"-61.68","56.55","NAIN A","8502801","2021-11-01 15:00","2021","11","01","15:00","5.8","","4.2","","89","","","","13","","24","","24.1","","99.16","","","","","","NA"
"-61.68","56.55","NAIN A","8502801","2021-11-01 16:00","2021","11","01","16:00","5.4","","4.2","","92","","","","12","","12","","24.1","","99.07","","","","","","NA"
"-61.68","56.55","NAIN A","8502801","2021-11-01 17:00","2021","11","01","17:00","5.7","","4.6","","93","","","","14","","18","","24.1","","99.00","","","","","","Rain Showers"
"-61.68","56.55","NAIN A","8502801","2021-11-01 18:00","2021","11","01","18:00","5.4","","4.6","","95","","","","15","","17","","24.1","","98.88","","","","","","Rain Showers"
"-61.68","56.55","NAIN A","8502801","2021-11-01 19:00","2021","11","01","19:00","5.7","","4.8","","94","","","","13","","4","","24.1","","98.80","","","","","","Rain Showers"
"-61.68","56.55","NAIN A","8502801","2021-11-01 20:00","2021","11","01","20:00"
"-61.68","56.55","NAIN A","8502801","2021-11-01 21:00","2021","11","01","21:00"
"-61.68","56.55","NAIN A","8502801","2021-11-01 22:00","2021","11","01","22:00"
"-61.68","56.55","NAIN A","8502801","2021-11-01 23:00","2021","11","01","23:00"
"-61.68","56.55","NAIN A","8502801","2021-11-02 00:00","2021","11","02","00:00"
"-61.68","56.55","NAIN A","8502801","2021-11-02 01:00","2021","11","02","01:00"
"-61.68","56.55","NAIN A","8502801","2021-11-02 02:00","2021","11","02","02:00"
"-61.68","56.55","NAIN A","8502801","2021-11-02 03:00","2021","11","02","03:00"
"-61.68","56.55","NAIN A","8502801","2021-11-02 04:00","2021","11","02","04:00","5.6","","2.6","","81","","","","25","","17","","24.1","","98.22","","","","","","NA"
"-61.68","56.55","NAIN A","8502801","2021-11-02 05:00","2021","11","02","05:00","5.3","","1.7","","77","","","","24","","13","","24.1","","98.24","","","","","","Mostly Cloudy"
"-61.68","56.55","NAIN A","8502801","2021-11-02 06:00","2021","11","02","06:00","5.1","","1.2","","76","","","","25","","15","","24.1","","98.26","","","","","","NA"
"-61.68","56.55","NAIN A","8502801","2021-11-02 07:00","2021","11","02","07:00","4.8","","0.6","","74","","","","25","","14","","24.1","","98.31","","","","","","NA"
"-61.68","56.55","NAIN A","8502801","2021-11-02 08:00","2021","11","02","08:00","4.7","","0.3","","73","","","","25","","15","","24.1","","98.37","","","","","","Mostly Cloudy"
"-61.68","56.55","NAIN A","8502801","2021-11-02 09:00","2021","11","02","09:00","5.3","","0.2","","70","","","","25","","19","","24.1","","98.39","","","","","","NA"
"-61.68","56.55","NAIN A","8502801","2021-11-02 10:00","2021","11","02","10:00","6.0","","-0.2","","64","","","","25","","18","","24.1","","98.39","","","","","","NA"
"-61.68","56.55","NAIN A","8502801","2021-11-02 11:00","2021","11","02","11:00","5.9","","-0.2","","65","","","","24","","15","","24.1","","98.40","","","","","","Mostly Cloudy"
"-61.68","56.55","NAIN A","8502801","2021-11-02 12:00","2021","11","02","12:00","5.9","","-0.4","","64","","","","24","","16","","24.1","","98.41","","","","","","NA"
"-61.68","56.55","NAIN A","8502801","2021-11-02 13:00","2021","11","02","13:00","6.3","","-1.3","","58","","","","25","","25","","24.1","","98.43","","","","","","NA"
"-61.68","56.55","NAIN A","8502801","2021-11-02 14:00","2021","11","02","14:00","6.1","","-1.5","","58","","","","24","","20","","24.1","","98.44","","","","","","Mostly Cloudy"
"-61.68","56.55","NAIN A","8502801","2021-11-02 15:00","2021","11","02","15:00","6.0","","-1.6","","58","","","","25","","22","","24.1","","98.48","","","","","","NA"
"-61.68","56.55","NAIN A","8502801","2021-11-02 16:00","2021","11","02","16:00","5.8","","-1.8","","58","","","","24","","28","","24.1","","98.52","","","","","","NA"
"-61.68","56.55","NAIN A","8502801","2021-11-02 17:00","2021","11","02","17:00","5.4","","-1.6","","61","","","","24","","22","","24.1","","98.57","","","","","","Mostly Cloudy"
"-61.68","56.55","NAIN A","8502801","2021-11-02 18:00","2021","11","02","18:00","5.1","","-1.2","","64","","","","27","","33","","24.1","","98.69","","","","","","NA"
"-61.68","56.55","NAIN A","8502801","2021-11-02 19:00","2021","11","02","19:00","5.1","","-1.4","","63","","","","25","","27","","24.1","","98.76","","","","","","NA"
"-61.68","56.55","NAIN A","8502801","2021-11-02 20:00","2021","11","02","20:00"
"-61.68","56.55","NAIN A","8502801","2021-11-02 21:00","2021","11","02","21:00"
"-61.68","56.55","NAIN A","8502801","2021-11-02 22:00","2021","11","02","22:00"
"-61.68","56.55","NAIN A","8502801","2021-11-02 23:00","2021","11","02","23:00"
"-61.68","56.55","NAIN A","8502801","2021-11-03 00:00","2021","11","03","00:00"
"-61.68","56.55","NAIN A","8502801","2021-11-03 01:00","2021","11","03","01:00"
"-61.68","56.55","NAIN A","8502801","2021-11-03 02:00","2021","11","03","02:00"
"-61.68","56.55","NAIN A","8502801","2021-11-03 03:00","2021","11","03","03:00"
"-61.68","56.55","NAIN A","8502801","2021-11-03 04:00","2021","11","03","04:00","0.6","","-2.8","","78","","","","27","","16","","20.9","","99.98","","","","","","Snow Showers"
"-61.68","56.55","NAIN A","8502801","2021-11-03 05:00","2021","11","03","05:00","0.3","","-4.3","","71","","","","28","","23","","24.1","","100.08","","","","","","Snow Showers"
"-61.68","56.55","NAIN A","8502801","2021-11-03 06:00","2021","11","03","06:00","0.2","","-4.9","","69","","","","27","","19","","24.1","","100.13","","","","","","NA"
"-61.68","56.55","NAIN A","8502801","2021-11-03 07:00","2021","11","03","07:00","0.2","","-5.6","","65","","","","28","","28","","24.1","","100.21","","","","","","NA"
"-61.68","56.55","NAIN A","8502801","2021-11-03 08:00","2021","11","03","08:00","0.0","","-5.9","","65","","","","28","","21","","24.1","","100.31","","","","-5","","Cloudy"
"-61.68","56.55","NAIN A","8502801","2021-11-03 09:00","2021","11","03","09:00","-0.3","","-6.7","","62","","","","28","","26","","24.1","","100.42","","","","-6","","NA"
"-61.68","56.55","NAIN A","8502801","2021-11-03 10:00","2021","11","03","10:00","-0.4","","-7.5","","59","","","","29","","35","","24.1","","100.46","","","","-7","","NA"
"-61.68","56.55","NAIN A","8502801","2021-11-03 11:00","2021","11","03","11:00","-0.4","","-7.1","","61","","","","30","","34","","24.1","","100.53","","","","-7","","Cloudy"
"-61.68","56.55","NAIN A","8502801","2021-11-03 12:00","2021","11","03","12:00","-1.7","","-10.1","","53","","","","28","","28","","24.1","","100.61","","","","-8","","NA"
"-61.68","56.55","NAIN A","8502801","2021-11-03 13:00","2021","11","03","13:00","-2.1","","-10.3","","53","","","","27","","34","","24.1","","100.62","","","","-10","","NA"
"-61.68","56.55","NAIN A","8502801","2021-11-03 14:00","2021","11","03","14:00","-1.7","","-9.9","","53","","","","28","","26","","24.1","","100.67","","","","-8","","Cloudy"
"-61.68","56.55","NAIN A","8502801","2021-11-03 15:00","2021","11","03","15:00","-1.2","","-8.9","","56","","","","29","","32","","24.1","","100.71","","","","-8","","NA"
"-61.68","56.55","NAIN A","8502801","2021-11-03 16:00","2021","11","03","16:00","-1.6","","-9.8","","54","","","","28","","26","","24.1","","100.77","","","","-8","","NA"
"-61.68","56.55","NAIN A","8502801","2021-11-03 17:00","2021","11","03","17:00","-1.9","","-10.3","","53","","","","27","","24","","24.1","","100.83","","","","-8","","Mostly Cloudy"
"-61.68","56.55","NAIN A","8502801","2021-11-03 18:00","2021","11","03","18:00","-2.1","","-9.7","","56","","","","28","","24","","24.1","","100.89","","","","-8","","NA"
"-61.68","56.55","NAIN A","8502801","2021-11-03 19:00","2021","11","03","19:00","-1.9","","-9.4","","57","","","","29","","36","","24.1","","100.93","","","","-10","","NA"
"-61.68","56.55","NAIN A","8502801","2021-11-03 20:00","2021","11","03","20:00"
"-61.68","56.55","NAIN A","8502801","2021-11-03 21:00","2021","11","03","21:00"
"-61.68","56.55","NAIN A","8502801","2021-11-03 22:00","2021","11","03","22:00"
"-61.68","56.55","NAIN A","8502801","2021-11-03 23:00","2021","11","03","23:00"
"-61.68","56.55","NAIN A","8502801","2021-11-04 00:00","2021","11","04","00:00"
"-61.68","56.55","NAIN A","8502801","2021-11-04 01:00","2021","11","04","01:00"
"-61.68","56.55","NAIN A","8502801","2021-11-04 02:00","2021","11","04","02:00"
"-61.68","56.55","NAIN A","8502801","2021-11-04 03:00","2021","11","04","03:00"
"-61.68","56.55","NAIN A","8502801","2021-11-04 04:00","2021","11","04","04:00","-4.4","","-11.9","","56","","","","27","","18","","24.1","","101.19","","","","-10","","NA"
"-61.68","56.55","NAIN A","8502801","2021-11-04 05:00","2021","11","04","05:00","-3.4","","-10.6","","58","","","","30","","29","","24.1","","101.20","","","","-11","","Mainly Clear"
"-61.68","56.55","NAIN A","8502801","2021-11-04 06:00","2021","11","04","06:00","-4.3","","-11.7","","57","","","","25","","12","","24.1","","101.22","","","","-9","","NA"
"-61.68","56.55","NAIN A","8502801","2021-11-04 07:00","2021","11","04","07:00","-3.5","","-10.8","","57","","","","25","","17","","24.1","","101.23","","","","-9","","NA"
"-61.68","56.55","NAIN A","8502801","2021-11-04 08:00","2021","11","04","08:00","-3.4","","-10.4","","59","","","","26","","13","","24.1","","101.24","","","","-8","","Mainly Clear"
"-61.68","56.55","NAIN A","8502801","2021-11-04 09:00","2021","11","04","09:00","-2.8","","-10.2","","57","","","","23","","8","","24.1","","101.26","","","","-6","","NA"
"-61.68","56.55","NAIN A","8502801","2021-11-04 10:00","2021","11","04","10:00","-2.3","","-10.0","","56","","","","21","","12","","24.1","","101.26","","","","-7","","NA"
"-61.68","56.55","NAIN A","8502801","2021-11-04 11:00","2021","11","04","11:00","-1.5","","-9.6","","54","","","","27","","16","","24.1","","101.23","","","","-6","","Snow Showers"
"-61.68","56.55","NAIN A","8502801","2021-11-04 12:00","2021","11","04","12:00","-1.0","","-10.8","","48","","","","27","","18","","24.1","","101.19","","","","-6","","NA"
"-61.68","56.55","NAIN A","8502801","2021-11-04 13:00","2021","11","04","13:00","-0.1","","-11.5","","42","","","","28","","18","","24.1","","101.17","","","","-5","","NA"
"-61.68","56.55","NAIN A","8502801","2021-11-04 14:00","2021","11","04","14:00","0.0","","-11.4","","42","","","","26","","17","","24.1","","101.15","","","","-5","","Clear"
"-61.68","56.55","NAIN A","8502801","2021-11-04 15:00","2021","11","04","15:00","-0.4","","-10.4","","47","","","","27","","18","","24.1","","101.17","","","","-5","","NA"
"-61.68","56.55","NAIN A","8502801","2021-11-04 16:00","2021","11","04","16:00","-0.5","","-9.9","","49","","","","26","","13","","24.1","","101.18","","","","-5","","NA"
"-61.68","56.55","NAIN A","8502801","2021-11-04 17:00","2021","11","04","17:00","-0.6","","-8.8","","54","","","","26","","12","","24.1","","101.19","","","","-5","","Mostly Cloudy"
"-61.68","56.55","NAIN A","8502801","2021-11-04 18:00","2021","11","04","18:00","-0.8","","-8.1","","58","","","","36","","3","","24.1","","101.20","","","","-2","","NA"
"-61.68","56.55","NAIN A","8502801","2021-11-04 19:00","2021","11","04","19:00","-1.0","","-7.7","","61","","","","25","","10","","24.1","","101.16","","","","-5","","NA"
"-61.68","56.55","NAIN A","8502801","2021-11-04 20:00","2021","11","04","20:00"
"-61.68","56.55","NAIN A","8502801","2021-11-04 21:00","2021","11","04","21:00"
"-61.68","56.55","NAIN A","8502801","2021-11-04 22:00","2021","11","04","22:00"
"-61.68","56.55","NAIN A","8502801","2021-11-04 23:00","2021","11","04","23:00"
"-61.68","56.55","NAIN A","8502801","2021-11-05 00:00","2021","11","05","00:00"
"-61.68","56.55","NAIN A","8502801","2021-11-05 01:00","2021","11","05","01:00"
"-61.68","56.55","NAIN A","8502801","2021-11-05 02:00","2021","11","05","02:00"
"-61.68","56.55","NAIN A","8502801","2021-11-05 03:00","2021","11","05","03:00"
"-61.68","56.55","NAIN A","8502801","2021-11-05 04:00","2021","11","05","04:00","-1.1","","-6.6","","66","","","","26","","26","","24.1","","101.04","","","","-7","","NA"
"-61.68","56.55","NAIN A","8502801","2021-11-05 05:00","2021","11","05","05:00","-1.2","","-7.5","","62","","","","25","","26","","24.1","","101.02","","","","-8","","Mainly Clear"
"-61.68","56.55","NAIN A","8502801","2021-11-05 06:00","2021","11","05","06:00","-1.5","","-7.2","","65","","","","25","","22","","24.1","","101.04","","","","-7","","NA"
"-61.68","56.55","NAIN A","8502801","2021-11-05 07:00","2021","11","05","07:00","-2.1","","-7.6","","66","","","","25","","32","","24.1","","101.06","","","","-9","","NA"
"-61.68","56.55","NAIN A","8502801","2021-11-05 08:00","2021","11","05","08:00","-2.1","","-7.3","","68","","","","26","","27","","24.1","","101.11","","","","-9","","Mainly Clear"
"-61.68","56.55","NAIN A","8502801","2021-11-05 09:00","2021","11","05","09:00","-1.1","","-7.1","","64","","","","27","","22","","24.1","","101.11","","","","-7","","NA"
"-61.68","56.55","NAIN A","8502801","2021-11-05 10:00","2021","11","05","10:00","-0.6","","-7.1","","62","","","","27","","31","","24.1","","101.13","","","","-7","","NA"
"-61.68","56.55","NAIN A","8502801","2021-11-05 11:00","2021","11","05","11:00","-0.2","","-7.0","","60","","","","27","","24","","24.1","","101.09","","","","-6","","Mostly Cloudy"
"-61.68","56.55","NAIN A","8502801","2021-11-05 12:00","2021","11","05","12:00","0.0","","-6.7","","61","","","","27","","23","","24.1","","101.05","","","","-6","","NA"
"-61.68","56.55","NAIN A","8502801","2021-11-05 13:00","2021","11","05","13:00","0.3","","-6.6","","60","","","","26","","17","","24.1","","101.03","","","","","","NA"
"-61.68","56.55","NAIN A","8502801","2021-11-05 14:00","2021","11","05","14:00","0.6","","-6.3","","60","","","","28","","27","","24.1","","101.01","","","","","","Mostly Cloudy"
"-61.68","56.55","NAIN A","8502801","2021-11-05 15:00","2021","11","05","15:00","0.3","","-6.0","","62","","","","27","","18","","24.1","","101.02","","","","","","NA"
"-61.68","56.55","NAIN A","8502801","2021-11-05 16:00","2021","11","05","16:00","-0.2","","-6.6","","62","","","","26","","21","","24.1","","101.03","","","","-6","","NA"
"-61.68","56.55","NAIN A","8502801","2021-11-05 17:00","2021","11","05","17:00","-0.4","","-6.8","","62","","","","26","","13","","24.1","","101.04","","","","-5","","Mostly Cloudy"
"-61.68","56.55","NAIN A","8502801","2021-11-05 18:00","2021","11","05","18:00","-0.3","","-6.8","","62","","","","25","","12","","24.1","","101.04","","","","-4","","NA"
"-61.68","56.55","NAIN A","8502801","2021-11-05 19:00","2021","11","05","19:00","-0.4","","-6.8","","62","","","","25","","13","","24.1","","101.02","","","","-5","","NA"
"-61.68","56.55","NAIN A","8502801","2021-11-05 20:00","2021","11","05","20:00"
"-61.68","56.55","NAIN A","8502801","2021-11-05 21:00","2021","11","05","21:00"
"-61.68","56.55","NAIN A","8502801","2021-11-05 22:00","2021","11","05","22:00"
"-61.68","56.55","NAIN A","8502801","2021-11-05 23:00","2021","11","05","23:00"
"-61.68","56.55","NAIN A","8502801","2021-11-06 00:00","2021","11","06","00:00"
"-61.68","56.55","NAIN A","8502801","2021-11-06 01:00","2021","11","06","01:00"
"-61.68","56.55","NAIN A","8502801","2021-11-06 02:00","2021","11","06","02:00"
"-61.68","56.55","NAIN A","8502801","2021-11-06 03:00","2021","11","06","03:00"
"-61.68","56.55","NAIN A","8502801","2021-11-06 04:00","2021","11","06","04:00","-1.9","","-6.5","","71","","","","30","","6","","24.1","","100.67","","","","-4","","NA"
"-61.68","56.55","NAIN A","8502801","2021-11-06 05:00","2021","11","06","05:00","-2.6","","-7.0","","72","","","","24","","11","","24.1","","100.67","","","","-7","","Mainly Clear"
"-61.68","56.55","NAIN A","8502801","2021-11-06 06:00","2021","11","06","06:00","-2.7","","-6.5","","75","","","","22","","10","","24.1","","100.64","","","","-7","","NA"
"-61.68","56.55","NAIN A","8502801","2021-11-06 07:00","2021","11","06","07:00"
"-61.68","56.55","NAIN A","8502801","2021-11-06 08:00","2021","11","06","08:00","-2.7","","-6.2","","77","","","","18","","5","","24.1","","100.64","","","","-5","","Mostly Cloudy"
"-61.68","56.55","NAIN A","8502801","2021-11-06 09:00","2021","11","06","09:00"
"-61.68","56.55","NAIN A","8502801","2021-11-06 10:00","2021","11","06","10:00","0.3","","-5.1","","67","","","","24","","14","","24.1","","100.53","","","","","","NA"
"-61.68","56.55","NAIN A","8502801","2021-11-06 11:00","2021","11","06","11:00","0.5","","-4.7","","68","","","","23","","13","","24.1","","100.47","","","","","","Mostly Cloudy"
"-61.68","56.55","NAIN A","8502801","2021-11-06 12:00","2021","11","06","12:00","1.6","","-4.7","","63","","","","27","","16","","24.1","","100.42","","","","","","NA"
"-61.68","56.55","NAIN A","8502801","2021-11-06 13:00","2021","11","06","13:00","1.6","","-6.7","","54","","","","26","","16","","24.1","","100.39","","","","","","NA"
"-61.68","56.55","NAIN A","8502801","2021-11-06 14:00","2021","11","06","14:00","1.9","","-7.7","","49","","","","24","","8","","24.1","","100.33","","","","","","Mostly Cloudy"
"-61.68","56.55","NAIN A","8502801","2021-11-06 15:00","2021","11","06","15:00","1.6","","-7.7","","50","","","","21","","8","","24.1","","100.28","","","","","","NA"
"-61.68","56.55","NAIN A","8502801","2021-11-06 16:00","2021","11","06","16:00","1.4","","-5.3","","61","","","","23","","13","","24.1","","100.23","","","","","","NA"
"-61.68","56.55","NAIN A","8502801","2021-11-06 17:00","2021","11","06","17:00","1.2","","-4.3","","67","","","","21","","9","","24.1","","100.22","","","","","","Cloudy"
"-61.68","56.55","NAIN A","8502801","2021-11-06 18:00","2021","11","06","18:00","0.9","","-2.0","","81","","","","16","","18","","24.1","","100.22","","","","","","Snow"
"-61.68","56.55","NAIN A","8502801","2021-11-06 19:00","2021","11","06","19:00","0.8","","-1.8","","83","","","","16","","11","","24.1","","100.16","","","","","","Snow Showers"
"-61.68","56.55","NAIN A","8502801","2021-11-06 20:00","2021","11","06","20:00"
"-61.68","56.55","NAIN A","8502801","2021-11-06 21:00","2021","11","06","21:00"
"-61.68","56.55","NAIN A","8502801","2021-11-06 22:00","2021","11","06","22:00"
"-61.68","56.55","NAIN A","8502801","2021-11-06 23:00","2021","11","06","23:00"
"-61.68","56.55","NAIN A","8502801","2021-11-07 00:00","2021","11","07","00:00"
"-61.68","56.55","NAIN A","8502801","2021-11-07 01:00","2021","11","07","01:00"
"-61.68","56.55","NAIN A","8502801","2021-11-07 02:00","2021","11","07","02:00"
"-61.68","56.55","NAIN A","8502801","2021-11-07 03:00","2021","11","07","03:00"
"-61.68","56.55","NAIN A","8502801","2021-11-07 04:00","2021","11","07","04:00"
"-61.68","56.55","NAIN A","8502801","2021-11-07 05:00","2021","11","07","05:00","-2.8","","-8.7","","64","","","","30","","49","","24.1","","100.43","","","","-12","","Snow Showers"
"-61.68","56.55","NAIN A","8502801","2021-11-07 06:00","2021","11","07","06:00","-2.8","","-8.1","","67","","","","31","","46","","24.1","","100.49","","","","-12","","Snow Showers"
"-61.68","56.55","NAIN A","8502801","2021-11-07 07:00","2021","11","07","07:00","-3.1","","-8.6","","66","","","","31","","40","","24.1","","100.61","","","","-12","","Snow Showers"
"-61.68","56.55","NAIN A","8502801","2021-11-07 08:00","2021","11","07","08:00","-3.8","","-9.1","","67","","","","29","","26","","24.1","","100.69","","","","-11","","Mostly Cloudy"
"-61.68","56.55","NAIN A","8502801","2021-11-07 09:00","2021","11","07","09:00","-3.5","","-9.6","","63","","","","31","","26","","24.1","","100.73","","","","-11","","NA"
"-61.68","56.55","NAIN A","8502801","2021-11-07 10:00","2021","11","07","10:00","-3.4","","-9.5","","63","","","","28","","25","","24.1","","100.76","","","","-10","","NA"
"-61.68","56.55","NAIN A","8502801","2021-11-07 11:00","2021","11","07","11:00","-2.6","","-9.8","","58","","","","28","","31","","24.1","","100.83","","","","-10","","Mostly Cloudy"
"-61.68","56.55","NAIN A","8502801","2021-11-07 12:00","2021","11","07","12:00","-1.9","","-10.5","","52","","","","28","","28","","24.1","","100.86","","","","-9","","NA"
"-61.68","56.55","NAIN A","8502801","2021-11-07 13:00","2021","11","07","13:00","-1.5","","-9.7","","54","","","","28","","19","","24.1","","100.90","","","","-7","","NA"
"-61.68","56.55","NAIN A","8502801","2021-11-07 14:00","2021","11","07","14:00","-1.0","","-9.4","","53","","","","28","","26","","24.1","","100.95","","","","-7","","Mainly Clear"
"-61.68","56.55","NAIN A","8502801","2021-11-07 15:00","2021","11","07","15:00","-0.9","","-9.1","","54","","","","29","","25","","24.1","","101.00","","","","-7","","NA"
"-61.68","56.55","NAIN A","8502801","2021-11-07 16:00","2021","11","07","16:00","-1.4","","-9.3","","55","","","","28","","20","","24.1","","101.09","","","","-7","","NA"
"-61.68","56.55","NAIN A","8502801","2021-11-07 17:00","2021","11","07","17:00","-1.5","","-8.7","","58","","","","27","","20","","24.1","","101.16","","","","-7","","Mainly Clear"
"-61.68","56.55","NAIN A","8502801","2021-11-07 18:00","2021","11","07","18:00","-1.7","","-8.5","","60","","","","27","","19","","24.1","","101.22","","","","-7","","NA"
"-61.68","56.55","NAIN A","8502801","2021-11-07 19:00","2021","11","07","19:00","-2.0","","-8.1","","63","","","","29","","24","","24.1","","101.24","","","","-8","","NA"
"-61.68","56.55","NAIN A","8502801","2021-11-07 20:00","2021","11","07","20:00","-2.1","","-8.4","","62","","","","28","","17","","24.1","","101.28","","","","-7","","Mainly Clear"
"-61.68","56.55","NAIN A","8502801","2021-11-07 21:00","2021","11","07","21:00"
"-61.68","56.55","NAIN A","8502801","2021-11-07 22:00","2021","11","07","22:00"
"-61.68","56.55","NAIN A","8502801","2021-11-07 23:00","2021","11","07","23:00"
"-61.68","56.55","NAIN A","8502801","2021-11-08 00:00","2021","11","08","00:00"
"-61.68","56.55","NAIN A","8502801","2021-11-08 01:00","2021","11","08","01:00"
"-61.68","56.55","NAIN A","8502801","2021-11-08 02:00","2021","11","08","02:00"
"-61.68","56.55","NAIN A","8502801","2021-11-08 03:00","2021","11","08","03:00"
"-61.68","56.55","NAIN A","8502801","2021-11-08 04:00","2021","11","08","04:00"
"-61.68","56.55","NAIN A","8502801","2021-11-08 05:00","2021","11","08","05:00","-2.7","","-7.6","","69","","","","27","","9","","24.1","","101.50","","","","-6","","Mostly Cloudy"
"-61.68","56.55","NAIN A","8502801","2021-11-08 06:00","2021","11","08","06:00","-2.6","","-7.2","","71","","","","29","","9","","24.1","","101.51","","","","-6","","NA"
"-61.68","56.55","NAIN A","8502801","2021-11-08 07:00","2021","11","08","07:00","-2.6","","-6.8","","73","","","","29","","14","","24.1","","101.54","","","","-7","","NA"
"-61.68","56.55","NAIN A","8502801","2021-11-08 08:00","2021","11","08","08:00","-2.5","","-6.5","","74","","","","29","","13","","24.1","","101.56","","","","-7","","Mostly Cloudy"
"-61.68","56.55","NAIN A","8502801","2021-11-08 09:00","2021","11","08","09:00","-2.4","","-6.2","","75","","","","28","","10","","24.1","","101.57","","","","-6","","NA"
"-61.68","56.55","NAIN A","8502801","2021-11-08 10:00","2021","11","08","10:00","-1.9","","-5.9","","74","","","","28","","9","","24.1","","101.53","","","","-5","","NA"
"-61.68","56.55","NAIN A","8502801","2021-11-08 11:00","2021","11","08","11:00","-1.2","","-5.8","","71","","","","32","","8","","24.1","","101.51","","","","-4","","Cloudy"
"-61.68","56.55","NAIN A","8502801","2021-11-08 12:00","2021","11","08","12:00","-0.8","","-5.6","","70","","","","29","","6","","24.1","","101.47","","","","-3","","NA"
"-61.68","56.55","NAIN A","8502801","2021-11-08 13:00","2021","11","08","13:00","-0.3","","-5.3","","69","","","","34","","4","","24.1","","101.45","","","","-2","","NA"
"-61.68","56.55","NAIN A","8502801","2021-11-08 14:00","2021","11","08","14:00","-0.4","","-5.4","","69","","","","36","","2","","24.1","","101.42","","","","-1","","Mostly Cloudy"
"-61.68","56.55","NAIN A","8502801","2021-11-08 15:00","2021","11","08","15:00","0.0","","-6.2","","63","","","","8","","8","","24.1","","101.42","","","","-3","","NA"
"-61.68","56.55","NAIN A","8502801","2021-11-08 16:00","2021","11","08","16:00","-0.1","","-4.7","","71","","","","8","","19","","24.1","","101.43","","","","-5","","NA"
"-61.68","56.55","NAIN A","8502801","2021-11-08 17:00","2021","11","08","17:00","-0.1","","-6.1","","64","","","","8","","18","","24.1","","101.43","","","","-5","","Cloudy"
"-61.68","56.55","NAIN A","8502801","2021-11-08 18:00","2021","11","08","18:00","-0.2","","-5.2","","69","","","","7","","21","","24.1","","101.42","","","","-6","","NA"
"-61.68","56.55","NAIN A","8502801","2021-11-08 19:00","2021","11","08","19:00","-0.4","","-4.3","","75","","","","7","","18","","24.1","","101.40","","","","-5","","NA"
"-61.68","56.55","NAIN A","8502801","2021-11-08 20:00","2021","11","08","20:00","-0.4","","-5.4","","69","","","","8","","18","","24.1","","101.38","","","","-5","","Mostly Cloudy"
"-61.68","56.55","NAIN A","8502801","2021-11-08 21:00","2021","11","08","21:00"
"-61.68","56.55","NAIN A","8502801","2021-11-08 22:00","2021","11","08","22:00"
"-61.68","56.55","NAIN A","8502801","2021-11-08 23:00","2021","11","08","23:00"
"-61.68","56.55","NAIN A","8502801","2021-11-09 00:00","2021","11","09","00:00"
"-61.68","56.55","NAIN A","8502801","2021-11-09 01:00","2021","11","09","01:00"
"-61.68","56.55","NAIN A","8502801","2021-11-09 02:00","2021","11","09","02:00"
"-61.68","56.55","NAIN A","8502801","2021-11-09 03:00","2021","11","09","03:00"
"-61.68","56.55","NAIN A","8502801","2021-11-09 04:00","2021","11","09","04:00"
"-61.68","56.55","NAIN A","8502801","2021-11-09 05:00","2021","11","09","05:00","-1.0","","-2.9","","87","","","","14","","15","","9.7","","100.98","","","","-6","","Snow"
"-61.68","56.55","NAIN A","8502801","2021-11-09 06:00","2021","11","09","06:00","-0.5","","-2.7","","85","","","","15","","17","","19.3","","100.89","","","","-5","","Snow"
"-61.68","56.55","NAIN A","8502801","2021-11-09 07:00","2021","11","09","07:00","-0.4","","-2.8","","84","","","","12","","13","","17.7","","100.87","","","","-5","","Snow Showers"
"-61.68","56.55","NAIN A","8502801","2021-11-09 08:00","2021","11","09","08:00","-0.4","","-2.5","","86","","","","11","","18","","24.1","","100.82","","","","-5","","Snow Showers"
"-61.68","56.55","NAIN A","8502801","2021-11-09 09:00","2021","11","09","09:00","-0.1","","-2.0","","87","","","","10","","22","","24.1","","100.73","","","","-6","","Snow Showers"
"-61.68","56.55","NAIN A","8502801","2021-11-09 10:00","2021","11","09","10:00","0.3","","-2.4","","82","","","","11","","21","","24.1","","100.65","","","","","","Snow Showers"
"-61.68","56.55","NAIN A","8502801","2021-11-09 11:00","2021","11","09","11:00","0.4","","-1.7","","86","","","","10","","23","","24.1","","100.56","","","","","","Snow Showers"
"-61.68","56.55","NAIN A","8502801","2021-11-09 12:00","2021","11","09","12:00","0.8","","-2.3","","80","","","","11","","23","","24.1","","100.44","","","","","","Snow Showers"
"-61.68","56.55","NAIN A","8502801","2021-11-09 13:00","2021","11","09","13:00","0.9","","-2.5","","78","","","","10","","26","","24.1","","100.34","","","","","","Snow Showers"
"-61.68","56.55","NAIN A","8502801","2021-11-09 14:00","2021","11","09","14:00","0.2","","-1.1","","91","","","","11","","29","","6.4","","100.26","","","","","","Snow"
"-61.68","56.55","NAIN A","8502801","2021-11-09 15:00","2021","11","09","15:00","0.5","","-1.1","","89","","","","9","","37","","6.4","","100.23","","","","","","Snow"
"-61.68","56.55","NAIN A","8502801","2021-11-09 16:00","2021","11","09","16:00","0.1","","-1.0","","92","","","","8","","35","","2.0","","100.20","","","","","","Snow"
"-61.68","56.55","NAIN A","8502801","2021-11-09 17:00","2021","11","09","17:00","0.0","","-1.0","","93","","","","8","","32","","2.0","","100.15","","","","-7","","Snow"
"-61.68","56.55","NAIN A","8502801","2021-11-09 18:00","2021","11","09","18:00","0.0","","-1.1","","92","","","","7","","33","","2.0","","100.11","","","","-7","","Snow"
"-61.68","56.55","NAIN A","8502801","2021-11-09 19:00","2021","11","09","19:00","0.2","","-0.8","","93","","","","8","","30","","2.0","","100.10","","","","","","Snow"
"-61.68","56.55","NAIN A","8502801","2021-11-09 20:00","2021","11","09","20:00","0.0","","-1.0","","93","","","","8","","32","","2.0","","100.07","","","","-7","","Snow"
"-61.68","56.55","NAIN A","8502801","2021-11-09 21:00","2021","11","09","21:00"
"-61.68","56.55","NAIN A","8502801","2021-11-09 22:00","2021","11","09","22:00"
"-61.68","56.55","NAIN A","8502801","2021-11-09 23:00","2021","11","09","23:00"
"-61.68","56.55","NAIN A","8502801","2021-11-10 00:00","2021","11","10","00:00"
"-61.68","56.55","NAIN A","8502801","2021-11-10 01:00","2021","11","10","01:00"
"-61.68","56.55","NAIN A","8502801","2021-11-10 02:00","2021","11","10","02:00"
"-61.68","56.55","NAIN A","8502801","2021-11-10 03:00","2021","11","10","03:00"
"-61.68","56.55","NAIN A","8502801","2021-11-10 04:00","2021","11","10","04:00"
"-61.68","56.55","NAIN A","8502801","2021-11-10 05:00","2021","11","10","05:00","-0.2","","-2.6","","84","","","","36","","40","","4.8","","100.50","","","","-8","","Snow"
"-61.68","56.55","NAIN A","8502801","2021-11-10 06:00","2021","11","10","06:00","-0.3","","-3.5","","79","","","","36","","39","","4.8","","100.62","","","","-8","","Snow"
"-61.68","56.55","NAIN A","8502801","2021-11-10 07:00","2021","11","10","07:00"
"-61.68","56.55","NAIN A","8502801","2021-11-10 08:00","2021","11","10","08:00","-1.5","","-3.5","","86","","","","33","","25","","9.7","","100.84","","","","-8","","Snow"
"-61.68","56.55","NAIN A","8502801","2021-11-10 09:00","2021","11","10","09:00","-1.6","","-3.8","","85","","","","34","","32","","24.1","","100.88","","","","-9","","Snow Showers"
"-61.68","56.55","NAIN A","8502801","2021-11-10 10:00","2021","11","10","10:00","-1.6","","-4.0","","84","","","","34","","28","","24.1","","100.94","","","","-8","","Snow Showers"
"-61.68","56.55","NAIN A","8502801","2021-11-10 11:00","2021","11","10","11:00","-1.8","","-4.3","","83","","","","33","","22","","24.1","","101.00","","","","-8","","Snow Showers"
"-61.68","56.55","NAIN A","8502801","2021-11-10 12:00","2021","11","10","12:00","-1.5","","-4.3","","81","","","","32","","21","","24.1","","101.04","","","","-7","","Snow Showers"
"-61.68","56.55","NAIN A","8502801","2021-11-10 13:00","2021","11","10","13:00","-1.5","","-4.7","","79","","","","32","","21","","24.1","","101.08","","","","-7","","Snow Showers"
"-61.68","56.55","NAIN A","8502801","2021-11-10 14:00","2021","11","10","14:00","-1.6","","-5.3","","76","","","","31","","18","","24.1","","101.14","","","","-7","","Cloudy"
"-61.68","56.55","NAIN A","8502801","2021-11-10 15:00","2021","11","10","15:00","-1.6","","-5.1","","77","","","","32","","18","","24.1","","101.21","","","","-7","","NA"
"-61.68","56.55","NAIN A","8502801","2021-11-10 16:00","2021","11","10","16:00","-1.6","","-5.1","","77","","","","34","","21","","24.1","","101.29","","","","-7","","Snow Showers"
"-61.68","56.55","NAIN A","8502801","2021-11-10 17:00","2021","11","10","17:00","-1.9","","-4.9","","80","","","","33","","19","","24.1","","101.35","","","","-7","","Cloudy"
"-61.68","56.55","NAIN A","8502801","2021-11-10 18:00","2021","11","10","18:00","-2.1","","-5.1","","80","","","","33","","18","","24.1","","101.40","","","","-8","","NA"
"-61.68","56.55","NAIN A","8502801","2021-11-10 19:00","2021","11","10","19:00","-2.5","","-5.8","","78","","","","32","","16","","24.1","","101.45","","","","-8","","Snow Showers"
"-61.68","56.55","NAIN A","8502801","2021-11-10 20:00","2021","11","10","20:00","-2.6","","-6.3","","76","","","","32","","18","","24.1","","101.50","","","","-8","","Snow Showers"
"-61.68","56.55","NAIN A","8502801","2021-11-10 21:00","2021","11","10","21:00"
"-61.68","56.55","NAIN A","8502801","2021-11-10 22:00","2021","11","10","22:00"
"-61.68","56.55","NAIN A","8502801","2021-11-10 23:00","2021","11","10","23:00"
"-61.68","56.55","NAIN A","8502801","2021-11-11 00:00","2021","11","11","00:00"
"-61.68","56.55","NAIN A","8502801","2021-11-11 01:00","2021","11","11","01:00"
"-61.68","56.55","NAIN A","8502801","2021-11-11 02:00","2021","11","11","02:00"
"-61.68","56.55","NAIN A","8502801","2021-11-11 03:00","2021","11","11","03:00"
"-61.68","56.55","NAIN A","8502801","2021-11-11 04:00","2021","11","11","04:00"
"-61.68","56.55","NAIN A","8502801","2021-11-11 05:00","2021","11","11","05:00","-3.0","","-8.7","","65","","","","31","","19","","24.1","","101.78","","","","-9","","Snow Showers"
"-61.68","56.55","NAIN A","8502801","2021-11-11 06:00","2021","11","11","06:00","-3.2","","-8.5","","67","","","","32","","25","","24.1","","101.81","","","","-10","","NA"
"-61.68","56.55","NAIN A","8502801","2021-11-11 07:00","2021","11","11","07:00","-3.4","","-8.7","","67","","","","32","","21","","24.1","","101.87","","","","-10","","NA"
"-61.68","56.55","NAIN A","8502801","2021-11-11 08:00","2021","11","11","08:00","-4.9","","-9.2","","72","","","","28","","10","","24.1","","101.94","","","","-9","","Mostly Cloudy"
"-61.68","56.55","NAIN A","8502801","2021-11-11 09:00","2021","11","11","09:00","-2.8","","-7.9","","68","","","","30","","30","","24.1","","101.96","","","","-10","","NA"
"-61.68","56.55","NAIN A","8502801","2021-11-11 10:00","2021","11","11","10:00","-2.6","","-8.3","","65","","","","30","","32","","24.1","","102.00","","","","-10","","NA"
"-61.68","56.55","NAIN A","8502801","2021-11-11 11:00","2021","11","11","11:00","-2.0","","-6.9","","69","","","","30","","26","","24.1","","102.02","","","","-9","","Mostly Cloudy"
"-61.68","56.55","NAIN A","8502801","2021-11-11 12:00","2021","11","11","12:00","-2.3","","-5.8","","77","","","","31","","31","","24.1","","102.04","","","","-10","","NA"
"-61.68","56.55","NAIN A","8502801","2021-11-11 13:00","2021","11","11","13:00","-2.1","","-5.3","","79","","","","30","","32","","24.1","","102.09","","","","-9","","NA"
"-61.68","56.55","NAIN A","8502801","2021-11-11 14:00","2021","11","11","14:00","-2.1","","-4.4","","84","","","","30","","32","","24.1","","102.13","","","","-9","","Snow"
"-61.68","56.55","NAIN A","8502801","2021-11-11 15:00","2021","11","11","15:00","-1.7","","-3.9","","85","","","","32","","27","","24.1","","102.20","","","","-8","","Snow"
"-61.68","56.55","NAIN A","8502801","2021-11-11 16:00","2021","11","11","16:00","-2.2","","-3.5","","91","","","","32","","34","","2.4","","102.28","","","","-10","","Snow"
"-61.68","56.55","NAIN A","8502801","2021-11-11 17:00","2021","11","11","17:00","-1.9","","-4.3","","84","","","","32","","35","","4.8","","102.37","","","","-9","","Snow"
"-61.68","56.55","NAIN A","8502801","2021-11-11 18:00","2021","11","11","18:00","-1.7","","-4.9","","79","","","","33","","33","","4.8","","102.44","","","","-9","","Snow"
"-61.68","56.55","NAIN A","8502801","2021-11-11 19:00","2021","11","11","19:00","-1.8","","-6.0","","73","","","","32","","28","","9.7","","102.50","","","","-9","","Snow Showers"
"-61.68","56.55","NAIN A","8502801","2021-11-11 20:00","2021","11","11","20:00","-2.0","","-6.6","","71","","","","33","","21","","24.1","","102.54","","","","-8","","Mostly Cloudy"
"-61.68","56.55","NAIN A","8502801","2021-11-11 21:00","2021","11","11","21:00"
"-61.68","56.55","NAIN A","8502801","2021-11-11 22:00","2021","11","11","22:00"
"-61.68","56.55","NAIN A","8502801","2021-11-11 23:00","2021","11","11","23:00"
"-61.68","56.55","NAIN A","8502801","2021-11-12 00:00","2021","11","12","00:00"
"-61.68","56.55","NAIN A","8502801","2021-11-12 01:00","2021","11","12","01:00"
"-61.68","56.55","NAIN A","8502801","2021-11-12 02:00","2021","11","12","02:00"
"-61.68","56.55","NAIN A","8502801","2021-11-12 03:00","2021","11","12","03:00"
"-61.68","56.55","NAIN A","8502801","2021-11-12 04:00","2021","11","12","04:00"
"-61.68","56.55","NAIN A","8502801","2021-11-12 05:00","2021","11","12","05:00","-4.2","","-10.4","","62","","","","28","","16","","24.1","","102.81","","","","-10","","Mostly Cloudy"
"-61.68","56.55","NAIN A","8502801","2021-11-12 06:00","2021","11","12","06:00","-4.5","","-10.1","","65","","","","30","","19","","24.1","","102.82","","","","-11","","NA"
"-61.68","56.55","NAIN A","8502801","2021-11-12 07:00","2021","11","12","07:00","-4.3","","-9.7","","66","","","","29","","23","","24.1","","102.83","","","","-11","","NA"
"-61.68","56.55","NAIN A","8502801","2021-11-12 08:00","2021","11","12","08:00","-4.1","","-10.6","","61","","","","29","","19","","24.1","","102.88","","","","-10","","Mainly Clear"
"-61.68","56.55","NAIN A","8502801","2021-11-12 09:00","2021","11","12","09:00","-4.6","","-10.8","","62","","","","29","","19","","24.1","","102.90","","","","-11","","NA"
"-61.68","56.55","NAIN A","8502801","2021-11-12 10:00","2021","11","12","10:00","-3.4","","-9.5","","63","","","","30","","29","","24.1","","102.85","","","","-11","","NA"
"-61.68","56.55","NAIN A","8502801","2021-11-12 11:00","2021","11","12","11:00","-3.8","","-10.7","","59","","","","28","","17","","24.1","","102.87","","","","-10","","Mainly Clear"
"-61.68","56.55","NAIN A","8502801","2021-11-12 12:00","2021","11","12","12:00","-4.1","","-11.0","","59","","","","28","","18","","24.1","","102.82","","","","-10","","NA"
"-61.68","56.55","NAIN A","8502801","2021-11-12 13:00","2021","11","12","13:00","-4.0","","-10.9","","59","","","","28","","19","","24.1","","102.75","","","","-10","","NA"
"-61.68","56.55","NAIN A","8502801","2021-11-12 14:00","2021","11","12","14:00","-4.0","","-10.5","","61","","","","28","","18","","24.1","","102.73","","","","-10","","Clear"
"-61.68","56.55","NAIN A","8502801","2021-11-12 15:00","2021","11","12","15:00","-4.0","","-10.5","","61","","","","24","","13","","24.1","","102.75","","","","-9","","NA"
"-61.68","56.55","NAIN A","8502801","2021-11-12 16:00","2021","11","12","16:00","-5.0","","-10.0","","68","","","","28","","12","","24.1","","102.72","","","","-10","","NA"
"-61.68","56.55","NAIN A","8502801","2021-11-12 17:00","2021","11","12","17:00","-4.7","","-9.7","","68","","","","28","","15","","24.1","","102.68","","","","-10","","Clear"
"-61.68","56.55","NAIN A","8502801","2021-11-12 18:00","2021","11","12","18:00","-4.8","","-10.0","","67","","","","27","","12","","24.1","","102.68","","","","-10","","NA"
"-61.68","56.55","NAIN A","8502801","2021-11-12 19:00","2021","11","12","19:00"
"-61.68","56.55","NAIN A","8502801","2021-11-12 20:00","2021","11","12","20:00","-5.8","","-9.5","","75","","","","29","","12","","24.1","","102.55","","","","-11","","Clear"
"-61.68","56.55","NAIN A","8502801","2021-11-12 21:00","2021","11","12","21:00"
"-61.68","56.55","NAIN A","8502801","2021-11-12 22:00","2021","11","12","22:00"
"-61.68","56.55","NAIN A","8502801","2021-11-12 23:00","2021","11","12","23:00"
"-61.68","56.55","NAIN A","8502801","2021-11-13 00:00","2021","11","13","00:00"
"-61.68","56.55","NAIN A","8502801","2021-11-13 01:00","2021","11","13","01:00"
"-61.68","56.55","NAIN A","8502801","2021-11-13 02:00","2021","11","13","02:00"
"-61.68","56.55","NAIN A","8502801","2021-11-13 03:00","2021","11","13","03:00"
"-61.68","56.55","NAIN A","8502801","2021-11-13 04:00","2021","11","13","04:00"
"-61.68","56.55","NAIN A","8502801","2021-11-13 05:00","2021","11","13","05:00","-6.1","","-9.8","","75","","","","21","","7","","24.1","","101.91","","","","-9","","Cloudy"
"-61.68","56.55","NAIN A","8502801","2021-11-13 06:00","2021","11","13","06:00","-6.0","","-9.7","","75","","","","21","","7","","24.1","","101.82","","","","-9","","NA"
"-61.68","56.55","NAIN A","8502801","2021-11-13 07:00","2021","11","13","07:00","-5.6","","-9.5","","74","","","","36","","1","","24.1","","101.71","","","","-6","","NA"
"-61.68","56.55","NAIN A","8502801","2021-11-13 08:00","2021","11","13","08:00","-5.4","","-8.5","","79","","","","26","","5","","24.1","","101.63","","","","-8","","Cloudy"
"-61.68","56.55","NAIN A","8502801","2021-11-13 09:00","2021","11","13","09:00","-5.3","","-8.6","","78","","","","21","","7","","24.1","","101.56","","","","-9","","NA"
"-61.68","56.55","NAIN A","8502801","2021-11-13 10:00","2021","11","13","10:00","-4.8","","-7.7","","80","","","","28","","6","","24.1","","101.52","","","","-8","","NA"
"-61.68","56.55","NAIN A","8502801","2021-11-13 11:00","2021","11","13","11:00","-4.4","","-7.2","","81","","","","36","","2","","24.1","","101.43","","","","-5","","Snow Showers"
"-61.68","56.55","NAIN A","8502801","2021-11-13 12:00","2021","11","13","12:00","-4.0","","-6.5","","83","","","","32","","7","","24.1","","101.33","","","","-7","","Snow Showers"
"-61.68","56.55","NAIN A","8502801","2021-11-13 13:00","2021","11","13","13:00","-3.6","","-6.1","","83","","","","36","","16","","24.1","","101.24","","","","-9","","Snow Showers"
"-61.68","56.55","NAIN A","8502801","2021-11-13 14:00","2021","11","13","14:00","-3.4","","-6.4","","80","","","","3","","13","","24.1","","101.19","","","","-8","","Snow Showers"
"-61.68","56.55","NAIN A","8502801","2021-11-13 15:00","2021","11","13","15:00","-3.2","","-5.8","","82","","","","1","","13","","16.1","","101.15","","","","-8","","Snow Showers"
"-61.68","56.55","NAIN A","8502801","2021-11-13 16:00","2021","11","13","16:00","-3.1","","-4.8","","88","","","","1","","13","","6.4","","101.12","","","","-8","","Snow"
"-61.68","56.55","NAIN A","8502801","2021-11-13 17:00","2021","11","13","17:00","-3.0","","-5.2","","85","","","","9","","16","","2.4","","101.12","","","","-8","","Snow"
"-61.68","56.55","NAIN A","8502801","2021-11-13 18:00","2021","11","13","18:00","-2.8","","-5.1","","84","","","","7","","11","","24.1","","101.12","","","","-7","","Snow Showers"
"-61.68","56.55","NAIN A","8502801","2021-11-13 19:00","2021","11","13","19:00","-2.5","","-6.0","","77","","","","12","","18","","24.1","","101.10","","","","-8","","Snow Showers"
"-61.68","56.55","NAIN A","8502801","2021-11-13 20:00","2021","11","13","20:00","-2.2","","-6.0","","75","","","","8","","16","","24.1","","101.09","","","","-7","","Snow Showers"
"-61.68","56.55","NAIN A","8502801","2021-11-13 21:00","2021","11","13","21:00"
"-61.68","56.55","NAIN A","8502801","2021-11-13 22:00","2021","11","13","22:00"
"-61.68","56.55","NAIN A","8502801","2021-11-13 23:00","2021","11","13","23:00"
"-61.68","56.55","NAIN A","8502801","2021-11-14 00:00","2021","11","14","00:00"
"-61.68","56.55","NAIN A","8502801","2021-11-14 01:00","2021","11","14","01:00"
"-61.68","56.55","NAIN A","8502801","2021-11-14 02:00","2021","11","14","02:00"
"-61.68","56.55","NAIN A","8502801","2021-11-14 03:00","2021","11","14","03:00"
"-61.68","56.55","NAIN A","8502801","2021-11-14 04:00","2021","11","14","04:00"
"-61.68","56.55","NAIN A","8502801","2021-11-14 05:00","2021","11","14","05:00","-1.9","","-6.5","","71","","","","5","","21","","24.1","","100.96","","","","-8","","Mostly Cloudy"
"-61.68","56.55","NAIN A","8502801","2021-11-14 06:00","2021","11","14","06:00","-2.3","","-6.9","","71","","","","3","","19","","24.1","","100.93","","","","-8","","NA"
"-61.68","56.55","NAIN A","8502801","2021-11-14 07:00","2021","11","14","07:00","-2.9","","-7.3","","72","","","","3","","26","","24.1","","100.94","","","","-10","","NA"
"-61.68","56.55","NAIN A","8502801","2021-11-14 08:00","2021","11","14","08:00","-3.1","","-7.8","","70","","","","3","","22","","24.1","","100.99","","","","-9","","Mostly Cloudy"
"-61.68","56.55","NAIN A","8502801","2021-11-14 09:00","2021","11","14","09:00","-3.1","","-8.8","","65","","","","3","","21","","24.1","","101.00","","","","-9","","NA"
"-61.68","56.55","NAIN A","8502801","2021-11-14 10:00","2021","11","14","10:00","-2.8","","-8.1","","67","","","","2","","22","","24.1","","101.00","","","","-9","","NA"
"-61.68","56.55","NAIN A","8502801","2021-11-14 11:00","2021","11","14","11:00","-2.9","","-7.4","","71","","","","33","","20","","24.1","","100.98","","","","-9","","Mostly Cloudy"
"-61.68","56.55","NAIN A","8502801","2021-11-14 12:00","2021","11","14","12:00","-2.8","","-7.0","","73","","","","35","","22","","24.1","","100.94","","","","-9","","NA"
"-61.68","56.55","NAIN A","8502801","2021-11-14 13:00","2021","11","14","13:00","2.7","","-2.6","","68","","","","36","","15","","24.1","","100.96","","","","","","Snow Showers"
"-61.68","56.55","NAIN A","8502801","2021-11-14 14:00","2021","11","14","14:00","-2.6","","-7.9","","67","","","","4","","19","","24.1","","100.97","","","","-8","","Snow Showers"
"-61.68","56.55","NAIN A","8502801","2021-11-14 15:00","2021","11","14","15:00","-2.6","","-8.1","","66","","","","2","","16","","24.1","","101.01","","","","-8","","Snow Showers"
"-61.68","56.55","NAIN A","8502801","2021-11-14 16:00","2021","11","14","16:00","-2.5","","-8.6","","63","","","","2","","16","","24.1","","101.03","","","","-8","","Snow Showers"
"-61.68","56.55","NAIN A","8502801","2021-11-14 17:00","2021","11","14","17:00","-2.6","","-8.1","","66","","","","3","","15","","24.1","","101.06","","","","-8","","Snow Showers"
"-61.68","56.55","NAIN A","8502801","2021-11-14 18:00","2021","11","14","18:00","-2.4","","-7.7","","67","","","","3","","14","","24.1","","101.10","","","","-7","","Snow Showers"
"-61.68","56.55","NAIN A","8502801","2021-11-14 19:00","2021","11","14","19:00","-2.3","","-7.6","","67","","","","1","","12","","24.1","","101.11","","","","-7","","NA"
"-61.68","56.55","NAIN A","8502801","2021-11-14 20:00","2021","11","14","20:00","-3.2","","-7.6","","72","","","","29","","9","","24.1","","101.14","","","","-7","","Snow Showers"
"-61.68","56.55","NAIN A","8502801","2021-11-14 21:00","2021","11","14","21:00"
"-61.68","56.55","NAIN A","8502801","2021-11-14 22:00","2021","11","14","22:00"
"-61.68","56.55","NAIN A","8502801","2021-11-14 23:00","2021","11","14","23:00"
"-61.68","56.55","NAIN A","8502801","2021-11-15 00:00","2021","11","15","00:00"
"-61.68","56.55","NAIN A","8502801","2021-11-15 01:00","2021","11","15","01:00"
"-61.68","56.55","NAIN A","8502801","2021-11-15 02:00","2021","11","15","02:00"
"-61.68","56.55","NAIN A","8502801","2021-11-15 03:00","2021","11","15","03:00"
"-61.68","56.55","NAIN A","8502801","2021-11-15 04:00","2021","11","15","04:00"
"-61.68","56.55","NAIN A","8502801","2021-11-15 05:00","2021","11","15","05:00","-1.6","","-3.8","","85","","","","8","","22","","24.1","","101.33","","","","-8","","Snow"
"-61.68","56.55","NAIN A","8502801","2021-11-15 06:00","2021","11","15","06:00","-1.6","","-3.6","","86","","","","14","","13","","20.9","","101.34","","","","-6","","Snow Showers"
"-61.68","56.55","NAIN A","8502801","2021-11-15 07:00","2021","11","15","07:00","-1.9","","-3.9","","86","","","","12","","14","","8.1","","101.37","","","","-7","","Snow"
"-61.68","56.55","NAIN A","8502801","2021-11-15 08:00","2021","11","15","08:00","-1.6","","-2.6","","93","","","","13","","19","","1.6","","101.40","","","","-7","","Snow"
"-61.68","56.55","NAIN A","8502801","2021-11-15 09:00","2021","11","15","09:00","-1.1","","-2.5","","90","","","","15","","25","","3.2","","101.37","","","","-7","","Snow"
"-61.68","56.55","NAIN A","8502801","2021-11-15 10:00","2021","11","15","10:00","-1.0","","-3.0","","86","","","","15","","28","","4.8","","101.34","","","","-8","","Snow"
"-61.68","56.55","NAIN A","8502801","2021-11-15 11:00","2021","11","15","11:00","-0.8","","-3.0","","85","","","","15","","29","","6.4","","101.30","","","","-7","","Snow"
"-61.68","56.55","NAIN A","8502801","2021-11-15 12:00","2021","11","15","12:00","-0.5","","-1.9","","90","","","","14","","28","","1.6","","101.23","","","","-7","","Snow"
"-61.68","56.55","NAIN A","8502801","2021-11-15 13:00","2021","11","15","13:00","-0.5","","-2.1","","89","","","","14","","34","","4.8","","101.17","","","","-8","","Snow"
"-61.68","56.55","NAIN A","8502801","2021-11-15 14:00","2021","11","15","14:00","-0.2","","-1.8","","89","","","","14","","34","","4.8","","101.12","","","","-7","","Snow"
"-61.68","56.55","NAIN A","8502801","2021-11-15 15:00","2021","11","15","15:00","-0.4","","-2.0","","89","","","","14","","41","","4.8","","101.17","","","","-8","","Snow"
"-61.68","56.55","NAIN A","8502801","2021-11-15 16:00","2021","11","15","16:00","-0.5","","-1.9","","90","","","","14","","41","","6.4","","101.11","","","","-8","","Snow"
"-61.68","56.55","NAIN A","8502801","2021-11-15 17:00","2021","11","15","17:00","-0.3","","-1.4","","92","","","","14","","36","","4.8","","101.11","","","","-7","","Snow"
"-61.68","56.55","NAIN A","8502801","2021-11-15 18:00","2021","11","15","18:00","-0.3","","-1.3","","93","","","","13","","37","","4.8","","101.06","","","","-8","","Snow"
"-61.68","56.55","NAIN A","8502801","2021-11-15 19:00","2021","11","15","19:00","-0.1","","-1.2","","92","","","","14","","37","","4.8","","101.04","","","","-7","","Snow"
"-61.68","56.55","NAIN A","8502801","2021-11-15 20:00","2021","11","15","20:00","-0.1","","-0.9","","94","","","","13","","26","","6.4","","101.00","","","","-6","","Snow"
"-61.68","56.55","NAIN A","8502801","2021-11-15 21:00","2021","11","15","21:00"
"-61.68","56.55","NAIN A","8502801","2021-11-15 22:00","2021","11","15","22:00"
"-61.68","56.55","NAIN A","8502801","2021-11-15 23:00","2021","11","15","23:00"
"-61.68","56.55","NAIN A","8502801","2021-11-16 00:00","2021","11","16","00:00"
"-61.68","56.55","NAIN A","8502801","2021-11-16 01:00","2021","11","16","01:00"
"-61.68","56.55","NAIN A","8502801","2021-11-16 02:00","2021","11","16","02:00"
"-61.68","56.55","NAIN A","8502801","2021-11-16 03:00","2021","11","16","03:00"
"-61.68","56.55","NAIN A","8502801","2021-11-16 04:00","2021","11","16","04:00"
"-61.68","56.55","NAIN A","8502801","2021-11-16 05:00","2021","11","16","05:00","0.2","","-1.1","","91","","","","9","","32","","6.4","","100.55","","","","","","Snow"
"-61.68","56.55","NAIN A","8502801","2021-11-16 06:00","2021","11","16","06:00","-0.1","","-1.5","","90","","","","7","","28","","4.8","","100.50","","","","-6","","Snow"
"-61.68","56.55","NAIN A","8502801","2021-11-16 07:00","2021","11","16","07:00","0.0","","-1.0","","93","","","","8","","30","","4.8","","100.46","","","","-6","","Snow"
"-61.68","56.55","NAIN A","8502801","2021-11-16 08:00","2021","11","16","08:00","0.2","","-1.1","","91","","","","6","","32","","4.8","","100.42","","","","","","Snow"
"-61.68","56.55","NAIN A","8502801","2021-11-16 09:00","2021","11","16","09:00","0.4","","-2.3","","82","","","","5","","35","","4.8","","100.37","","","","","","Snow"
"-61.68","56.55","NAIN A","8502801","2021-11-16 10:00","2021","11","16","10:00","0.4","","-0.6","","93","","","","7","","32","","2.4","","100.35","","","","","","Snow"
"-61.68","56.55","NAIN A","8502801","2021-11-16 11:00","2021","11","16","11:00","0.5","","-0.6","","92","","","","5","","39","","2.4","","100.31","","","","","","Snow"
"-61.68","56.55","NAIN A","8502801","2021-11-16 12:00","2021","11","16","12:00","0.7","","-1.5","","85","","","","5","","43","","16.1","","100.25","","","","","","Snow"
"-61.68","56.55","NAIN A","8502801","2021-11-16 13:00","2021","11","16","13:00","0.0","","-1.8","","88","","","","5","","40","","9.7","","100.22","","","","-7","","Snow"
"-61.68","56.55","NAIN A","8502801","2021-11-16 14:00","2021","11","16","14:00","-0.1","","-1.5","","90","","","","5","","51","","1.6","","100.21","","","","-8","","Snow"
"-61.68","56.55","NAIN A","8502801","2021-11-16 15:00","2021","11","16","15:00","0.1","","-2.6","","82","","","","4","","46","","16.1","","100.25","","","","","","Snow"
"-61.68","56.55","NAIN A","8502801","2021-11-16 16:00","2021","11","16","16:00","0.0","","-4.1","","74","","","","2","","40","","24.1","","100.27","","","","-7","","NA"
"-61.68","56.55","NAIN A","8502801","2021-11-16 17:00","2021","11","16","17:00","-0.9","","-3.1","","85","","","","3","","39","","1.6","","100.31","","","","-9","","Snow,Blowing Snow"
"-61.68","56.55","NAIN A","8502801","2021-11-16 18:00","2021","11","16","18:00","-0.4","","-3.9","","77","","","","3","","36","","24.1","","100.34","","","","-8","","Snow Showers"
"-61.68","56.55","NAIN A","8502801","2021-11-16 19:00","2021","11","16","19:00","-1.1","","-3.1","","86","","","","2","","36","","1.6","","100.39","","","","-9","","Snow"
"-61.68","56.55","NAIN A","8502801","2021-11-16 20:00","2021","11","16","20:00","-0.7","","-3.9","","79","","","","2","","38","","8.1","","100.43","","","","-8","","Snow"
"-61.68","56.55","NAIN A","8502801","2021-11-16 21:00","2021","11","16","21:00"
"-61.68","56.55","NAIN A","8502801","2021-11-16 22:00","2021","11","16","22:00"
"-61.68","56.55","NAIN A","8502801","2021-11-16 23:00","2021","11","16","23:00"
"-61.68","56.55","NAIN A","8502801","2021-11-17 00:00","2021","11","17","00:00"
"-61.68","56.55","NAIN A","8502801","2021-11-17 01:00","2021","11","17","01:00"
"-61.68","56.55","NAIN A","8502801","2021-11-17 02:00","2021","11","17","02:00"
"-61.68","56.55","NAIN A","8502801","2021-11-17 03:00","2021","11","17","03:00"
"-61.68","56.55","NAIN A","8502801","2021-11-17 04:00","2021","11","17","04:00"
"-61.68","56.55","NAIN A","8502801","2021-11-17 05:00","2021","11","17","05:00","-2.3","","-6.0","","76","","","","33","","40","","24.1","","100.84","","","","-10","","Mainly Clear"
"-61.68","56.55","NAIN A","8502801","2021-11-17 06:00","2021","11","17","06:00","-2.4","","-6.2","","75","","","","32","","36","","24.1","","100.90","","","","-10","","NA"
"-61.68","56.55","NAIN A","8502801","2021-11-17 07:00","2021","11","17","07:00","-2.3","","-6.5","","73","","","","32","","30","","24.1","","101.00","","","","-9","","NA"
"-61.68","56.55","NAIN A","8502801","2021-11-17 08:00","2021","11","17","08:00","-2.2","","-7.1","","69","","","","32","","45","","24.1","","101.02","","","","-11","","Cloudy"
"-61.68","56.55","NAIN A","8502801","2021-11-17 09:00","2021","11","17","09:00","-2.4","","-7.1","","70","","","","30","","34","","24.1","","101.09","","","","-10","","NA"
"-61.68","56.55","NAIN A","8502801","2021-11-17 10:00","2021","11","17","10:00","-3.1","","-7.8","","70","","","","29","","35","","24.1","","101.15","","","","-11","","NA"
"-61.68","56.55","NAIN A","8502801","2021-11-17 11:00","2021","11","17","11:00","-2.8","","-7.9","","68","","","","30","","44","","24.1","","101.18","","","","-11","","Snow Showers"
"-61.68","56.55","NAIN A","8502801","2021-11-17 12:00","2021","11","17","12:00","-3.4","","-9.3","","64","","","","29","","41","","24.1","","101.28","","","","-12","","Snow Showers"
"-61.68","56.55","NAIN A","8502801","2021-11-17 13:00","2021","11","17","13:00","-3.1","","-8.8","","65","","","","30","","43","","24.1","","101.32","","","","-12","","NA"
"-61.68","56.55","NAIN A","8502801","2021-11-17 14:00","2021","11","17","14:00","-2.8","","-8.7","","64","","","","30","","33","","24.1","","101.37","","","","-10","","Mostly Cloudy"
"-61.68","56.55","NAIN A","8502801","2021-11-17 15:00","2021","11","17","15:00","-4.5","","-10.7","","62","","","","28","","18","","24.1","","101.42","","","","-11","","NA"
"-61.68","56.55","NAIN A","8502801","2021-11-17 16:00","2021","11","17","16:00","-4.8","","-10.6","","64","","","","28","","17","","24.1","","101.48","","","","-11","","NA"
"-61.68","56.55","NAIN A","8502801","2021-11-17 17:00","2021","11","17","17:00","-4.3","","-10.1","","64","","","","28","","18","","24.1","","101.53","","","","-10","","Clear"
"-61.68","56.55","NAIN A","8502801","2021-11-17 18:00","2021","11","17","18:00","-4.6","","-9.3","","70","","","","28","","18","","24.1","","101.57","","","","-11","","NA"
"-61.68","56.55","NAIN A","8502801","2021-11-17 19:00","2021","11","17","19:00","-3.9","","-9.0","","68","","","","29","","17","","24.1","","101.62","","","","-10","","NA"
"-61.68","56.55","NAIN A","8502801","2021-11-17 20:00","2021","11","17","20:00","-4.9","","-10.1","","67","","","","36","","2","","24.1","","101.67","","","","-6","","Clear"
"-61.68","56.55","NAIN A","8502801","2021-11-17 21:00","2021","11","17","21:00"
"-61.68","56.55","NAIN A","8502801","2021-11-17 22:00","2021","11","17","22:00"
"-61.68","56.55","NAIN A","8502801","2021-11-17 23:00","2021","11","17","23:00"
"-61.68","56.55","NAIN A","8502801","2021-11-18 00:00","2021","11","18","00:00"
"-61.68","56.55","NAIN A","8502801","2021-11-18 01:00","2021","11","18","01:00"
"-61.68","56.55","NAIN A","8502801","2021-11-18 02:00","2021","11","18","02:00"
"-61.68","56.55","NAIN A","8502801","2021-11-18 03:00","2021","11","18","03:00"
"-61.68","56.55","NAIN A","8502801","2021-11-18 04:00","2021","11","18","04:00"
"-61.68","56.55","NAIN A","8502801","2021-11-18 05:00","2021","11","18","05:00","-8.6","","-15.3","","59","","","","28","","13","","24.1","","101.90","","","","-15","","Clear"
"-61.68","56.55","NAIN A","8502801","2021-11-18 06:00","2021","11","18","06:00","-7.5","","-12.8","","66","","","","26","","7","","24.1","","101.95","","","","-11","","NA"
"-61.68","56.55","NAIN A","8502801","2021-11-18 07:00","2021","11","18","07:00","-9.6","","-14.5","","68","","","","17","","7","","24.1","","101.93","","","","-14","","NA"
"-61.68","56.55","NAIN A","8502801","2021-11-18 08:00","2021","11","18","08:00","-7.6","","-13.9","","61","","","","25","","14","","24.1","","101.99","","","","-14","","Clear"
"-61.68","56.55","NAIN A","8502801","2021-11-18 09:00","2021","11","18","09:00","-8.0","","-14.3","","61","","","","24","","17","","24.1","","101.97","","","","-15","","NA"
"-61.68","56.55","NAIN A","8502801","2021-11-18 10:00","2021","11","18","10:00","-8.4","","-14.1","","64","","","","21","","13","","24.1","","101.93","","","","-14","","NA"
"-61.68","56.55","NAIN A","8502801","2021-11-18 11:00","2021","11","18","11:00","-7.4","","-13.5","","62","","","","20","","12","","24.1","","101.87","","","","-13","","Clear"
"-61.68","56.55","NAIN A","8502801","2021-11-18 12:00","2021","11","18","12:00","-7.5","","-13.0","","65","","","","22","","14","","24.1","","101.80","","","","-13","","NA"
"-61.68","56.55","NAIN A","8502801","2021-11-18 13:00","2021","11","18","13:00","-7.4","","-12.9","","65","","","","21","","14","","24.1","","101.75","","","","-13","","NA"
"-61.68","56.55","NAIN A","8502801","2021-11-18 14:00","2021","11","18","14:00","-8.0","","-13.3","","66","","","","23","","8","","24.1","","101.67","","","","-12","","Mainly Clear"
"-61.68","56.55","NAIN A","8502801","2021-11-18 15:00","2021","11","18","15:00","-8.6","","-13.1","","70","","","","24","","9","","24.1","","101.67","","","","-13","","NA"
"-61.68","56.55","NAIN A","8502801","2021-11-18 16:00","2021","11","18","16:00","-8.8","","-12.6","","74","","","","25","","8","","24.1","","101.58","","","","-13","","NA"
"-61.68","56.55","NAIN A","8502801","2021-11-18 17:00","2021","11","18","17:00","-8.7","","-12.2","","76","","","","20","","12","","24.1","","101.51","","","","-14","","Mostly Cloudy"
"-61.68","56.55","NAIN A","8502801","2021-11-18 18:00","2021","11","18","18:00","-7.1","","-10.6","","76","","","","18","","9","","24.1","","101.39","","","","-11","","NA"
"-61.68","56.55","NAIN A","8502801","2021-11-18 19:00","2021","11","18","19:00","-6.5","","-10.1","","76","","","","16","","13","","24.1","","101.23","","","","-12","","NA"
"-61.68","56.55","NAIN A","8502801","2021-11-18 20:00","2021","11","18","20:00","-5.8","","-8.7","","80","","","","17","","26","","24.1","","101.16","","","","-14","","Cloudy"
"-61.68","56.55","NAIN A","8502801","2021-11-18 21:00","2021","11","18","21:00"
"-61.68","56.55","NAIN A","8502801","2021-11-18 22:00","2021","11","18","22:00"
"-61.68","56.55","NAIN A","8502801","2021-11-18 23:00","2021","11","18","23:00"
"-61.68","56.55","NAIN A","8502801","2021-11-19 00:00","2021","11","19","00:00"
"-61.68","56.55","NAIN A","8502801","2021-11-19 01:00","2021","11","19","01:00"
"-61.68","56.55","NAIN A","8502801","2021-11-19 02:00","2021","11","19","02:00"
"-61.68","56.55","NAIN A","8502801","2021-11-19 03:00","2021","11","19","03:00"
"-61.68","56.55","NAIN A","8502801","2021-11-19 04:00","2021","11","19","04:00"
"-61.68","56.55","NAIN A","8502801","2021-11-19 05:00","2021","11","19","05:00","-2.6","","-4.5","","87","","","","17","","27","","19.3","","99.93","","","","-10","","Snow Showers"
"-61.68","56.55","NAIN A","8502801","2021-11-19 06:00","2021","11","19","06:00","-2.7","","-4.7","","86","","","","22","","10","","24.1","","99.84","","","","-7","","Snow Showers"
"-61.68","56.55","NAIN A","8502801","2021-11-19 07:00","2021","11","19","07:00","-2.4","","-4.6","","85","","","","24","","6","","9.7","","99.78","","","","-5","","Snow Showers"
"-61.68","56.55","NAIN A","8502801","2021-11-19 08:00","2021","11","19","08:00","-2.7","","-3.8","","92","","","","20","","5","","2.4","","99.70","","","","-5","","Snow"
"-61.68","56.55","NAIN A","8502801","2021-11-19 09:00","2021","11","19","09:00","-2.6","","-3.9","","91","","","","19","","5","","24.1","","99.63","","","","-5","","Snow Showers"
"-61.68","56.55","NAIN A","8502801","2021-11-19 10:00","2021","11","19","10:00","-2.2","","-4.1","","87","","","","22","","8","","24.1","","99.58","","","","-5","","NA"
"-61.68","56.55","NAIN A","8502801","2021-11-19 11:00","2021","11","19","11:00","-1.8","","-4.0","","85","","","","36","","3","","24.1","","99.52","","","","-3","","Mostly Cloudy"
"-61.68","56.55","NAIN A","8502801","2021-11-19 12:00","2021","11","19","12:00","-1.8","","-4.3","","83","","","","22","","4","","24.1","","99.47","","","","-3","","NA"
"-61.68","56.55","NAIN A","8502801","2021-11-19 13:00","2021","11","19","13:00","-1.2","","-4.4","","79","","","","23","","10","","24.1","","99.43","","","","-5","","NA"
"-61.68","56.55","NAIN A","8502801","2021-11-19 14:00","2021","11","19","14:00","-1.3","","-4.0","","82","","","","20","","11","","24.1","","99.41","","","","-5","","Mostly Cloudy"
"-61.68","56.55","NAIN A","8502801","2021-11-19 15:00","2021","11","19","15:00","-1.7","","-4.2","","83","","","","20","","10","","24.1","","99.45","","","","-5","","NA"
"-61.68","56.55","NAIN A","8502801","2021-11-19 16:00","2021","11","19","16:00","-1.3","","-4.1","","81","","","","23","","19","","24.1","","99.43","","","","-7","","NA"
"-61.68","56.55","NAIN A","8502801","2021-11-19 17:00","2021","11","19","17:00","-0.4","","-3.8","","78","","","","23","","18","","24.1","","99.39","","","","-5","","Cloudy"
"-61.68","56.55","NAIN A","8502801","2021-11-19 18:00","2021","11","19","18:00","0.3","","-3.8","","74","","","","28","","7","","24.1","","99.42","","","","","","NA"
"-61.68","56.55","NAIN A","8502801","2021-11-19 19:00","2021","11","19","19:00","-1.4","","-4.2","","81","","","","20","","10","","24.1","","99.42","","","","-5","","NA"
"-61.68","56.55","NAIN A","8502801","2021-11-19 20:00","2021","11","19","20:00","-1.6","","-4.0","","84","","","","16","","3","","24.1","","99.43","","","","-3","","Mostly Cloudy"
"-61.68","56.55","NAIN A","8502801","2021-11-19 21:00","2021","11","19","21:00"
"-61.68","56.55","NAIN A","8502801","2021-11-19 22:00","2021","11","19","22:00"
"-61.68","56.55","NAIN A","8502801","2021-11-19 23:00","2021","11","19","23:00"
"-61.68","56.55","NAIN A","8502801","2021-11-20 00:00","2021","11","20","00:00"
"-61.68","56.55","NAIN A","8502801","2021-11-20 01:00","2021","11","20","01:00"
"-61.68","56.55","NAIN A","8502801","2021-11-20 02:00","2021","11","20","02:00"
"-61.68","56.55","NAIN A","8502801","2021-11-20 03:00","2021","11","20","03:00"
"-61.68","56.55","NAIN A","8502801","2021-11-20 04:00","2021","11","20","04:00"
"-61.68","56.55","NAIN A","8502801","2021-11-20 05:00","2021","11","20","05:00","-7.1","","-12.2","","67","","","","25","","24","","24.1","","99.84","","","","-15","","Clear"
"-61.68","56.55","NAIN A","8502801","2021-11-20 06:00","2021","11","20","06:00","-6.8","","-11.6","","69","","","","27","","23","","24.1","","99.89","","","","-14","","NA"
"-61.68","56.55","NAIN A","8502801","2021-11-20 07:00","2021","11","20","07:00","-5.8","","-10.6","","69","","","","29","","36","","24.1","","99.93","","","","-15","","NA"
"-61.68","56.55","NAIN A","8502801","2021-11-20 08:00","2021","11","20","08:00","-4.2","","-8.5","","72","","","","29","","44","","24.1","","100.04","","","","-13","","Clear"
"-61.68","56.55","NAIN A","8502801","2021-11-20 09:00","2021","11","20","09:00","-3.2","","-7.9","","70","","","","30","","42","","24.1","","100.18","","","","-12","","NA"
"-61.68","56.55","NAIN A","8502801","2021-11-20 10:00","2021","11","20","10:00","-3.4","","-8.7","","67","","","","29","","46","","24.1","","100.29","","","","-12","","NA"
"-61.68","56.55","NAIN A","8502801","2021-11-20 11:00","2021","11","20","11:00","-3.6","","-9.1","","66","","","","29","","37","","24.1","","100.45","","","","-12","","Mostly Cloudy"
"-61.68","56.55","NAIN A","8502801","2021-11-20 12:00","2021","11","20","12:00","-3.9","","-9.7","","64","","","","29","","45","","24.1","","100.56","","","","-13","","NA"
"-61.68","56.55","NAIN A","8502801","2021-11-20 13:00","2021","11","20","13:00","-4.2","","-10.0","","64","","","","29","","50","","24.1","","100.65","","","","-14","","Blowing Snow"
"-61.68","56.55","NAIN A","8502801","2021-11-20 14:00","2021","11","20","14:00","-4.4","","-9.8","","66","","","","30","","44","","24.1","","100.77","","","","-14","","Blowing Snow"
"-61.68","56.55","NAIN A","8502801","2021-11-20 15:00","2021","11","20","15:00","-4.8","","-10.2","","66","","","","29","","49","","24.1","","100.90","","","","-15","","Blowing Snow"
"-61.68","56.55","NAIN A","8502801","2021-11-20 16:00","2021","11","20","16:00","-5.0","","-10.8","","64","","","","29","","45","","24.1","","101.09","","","","-15","","NA"
"-61.68","56.55","NAIN A","8502801","2021-11-20 17:00","2021","11","20","17:00","-5.4","","-11.2","","64","","","","28","","39","","24.1","","101.15","","","","-15","","Mainly Clear"
"-61.68","56.55","NAIN A","8502801","2021-11-20 18:00","2021","11","20","18:00","-5.8","","-11.2","","66","","","","28","","46","","24.1","","101.24","","","","-16","","NA"
"-61.68","56.55","NAIN A","8502801","2021-11-20 19:00","2021","11","20","19:00","-6.0","","-11.8","","64","","","","27","","35","","24.1","","101.35","","","","-15","","NA"
"-61.68","56.55","NAIN A","8502801","2021-11-20 20:00","2021","11","20","20:00","-5.0","","-10.4","","66","","","","29","","49","","24.1","","101.39","","","","-15","","Clear"
"-61.68","56.55","NAIN A","8502801","2021-11-20 21:00","2021","11","20","21:00"
"-61.68","56.55","NAIN A","8502801","2021-11-20 22:00","2021","11","20","22:00"
"-61.68","56.55","NAIN A","8502801","2021-11-20 23:00","2021","11","20","23:00"
"-61.68","56.55","NAIN A","8502801","2021-11-21 00:00","2021","11","21","00:00"
"-61.68","56.55","NAIN A","8502801","2021-11-21 01:00","2021","11","21","01:00"
"-61.68","56.55","NAIN A","8502801","2021-11-21 02:00","2021","11","21","02:00"
"-61.68","56.55","NAIN A","8502801","2021-11-21 03:00","2021","11","21","03:00"
"-61.68","56.55","NAIN A","8502801","2021-11-21 04:00","2021","11","21","04:00"
"-61.68","56.55","NAIN A","8502801","2021-11-21 05:00","2021","11","21","05:00","-7.1","","-12.8","","64","","","","28","","21","","24.1","","101.66","","","","-14","","Clear"
"-61.68","56.55","NAIN A","8502801","2021-11-21 06:00","2021","11","21","06:00","-7.7","","-13.0","","66","","","","28","","12","","24.1","","101.68","","","","-13","","NA"
"-61.68","56.55","NAIN A","8502801","2021-11-21 07:00","2021","11","21","07:00","-8.7","","-13.2","","70","","","","36","","2","","24.1","","101.69","","","","-10","","NA"
"-61.68","56.55","NAIN A","8502801","2021-11-21 08:00","2021","11","21","08:00","-8.9","","-14.0","","67","","","","20","","7","","24.1","","101.68","","","","-13","","Mainly Clear"
"-61.68","56.55","NAIN A","8502801","2021-11-21 09:00","2021","11","21","09:00","-7.9","","-14.0","","62","","","","28","","13","","24.1","","101.68","","","","-14","","NA"
"-61.68","56.55","NAIN A","8502801","2021-11-21 10:00","2021","11","21","10:00","-8.0","","-14.5","","60","","","","22","","7","","24.1","","101.67","","","","-12","","NA"
"-61.68","56.55","NAIN A","8502801","2021-11-21 11:00","2021","11","21","11:00","-7.3","","-14.2","","58","","","","23","","9","","24.1","","101.61","","","","-12","","Mainly Clear"
"-61.68","56.55","NAIN A","8502801","2021-11-21 12:00","2021","11","21","12:00","-7.3","","-14.0","","59","","","","20","","14","","24.1","","101.57","","","","-13","","NA"
"-61.68","56.55","NAIN A","8502801","2021-11-21 13:00","2021","11","21","13:00","-6.0","","-13.0","","58","","","","20","","14","","24.1","","101.53","","","","-12","","NA"
"-61.68","56.55","NAIN A","8502801","2021-11-21 14:00","2021","11","21","14:00"
"-61.68","56.55","NAIN A","8502801","2021-11-21 15:00","2021","11","21","15:00","-5.9","","-11.3","","66","","","","21","","4","","24.1","","101.46","","","","-8","","NA"
"-61.68","56.55","NAIN A","8502801","2021-11-21 16:00","2021","11","21","16:00","-5.7","","-9.4","","75","","","","20","","11","","24.1","","101.47","","","","-10","","Snow"
"-61.68","56.55","NAIN A","8502801","2021-11-21 17:00","2021","11","21","17:00","-5.7","","-8.4","","82","","","","21","","13","","6.4","","101.48","","","","-11","","Snow"
"-61.68","56.55","NAIN A","8502801","2021-11-21 18:00","2021","11","21","18:00","-5.5","","-7.6","","86","","","","20","","13","","8.1","","101.46","","","","-11","","Snow"
"-61.68","56.55","NAIN A","8502801","2021-11-21 19:00","2021","11","21","19:00","-5.0","","-7.5","","83","","","","24","","6","","8.1","","101.49","","","","-8","","Snow"
"-61.68","56.55","NAIN A","8502801","2021-11-21 20:00","2021","11","21","20:00","-5.2","","-7.7","","83","","","","24","","6","","24.1","","101.51","","","","-8","","Mostly Cloudy"
"-61.68","56.55","NAIN A","8502801","2021-11-21 21:00","2021","11","21","21:00"
"-61.68","56.55","NAIN A","8502801","2021-11-21 22:00","2021","11","21","22:00"
"-61.68","56.55","NAIN A","8502801","2021-11-21 23:00","2021","11","21","23:00"
"-61.68","56.55","NAIN A","8502801","2021-11-22 00:00","2021","11","22","00:00"
"-61.68","56.55","NAIN A","8502801","2021-11-22 01:00","2021","11","22","01:00"
"-61.68","56.55","NAIN A","8502801","2021-11-22 02:00","2021","11","22","02:00"
"-61.68","56.55","NAIN A","8502801","2021-11-22 03:00","2021","11","22","03:00"
"-61.68","56.55","NAIN A","8502801","2021-11-22 04:00","2021","11","22","04:00"
"-61.68","56.55","NAIN A","8502801","2021-11-22 05:00","2021","11","22","05:00","-4.8","","-10.1","","67","","","","22","","17","","24.1","","101.96","","","","-11","","Clear"
"-61.68","56.55","NAIN A","8502801","2021-11-22 06:00","2021","11","22","06:00","-4.2","","-8.7","","71","","","","23","","28","","24.1","","101.99","","","","-12","","NA"
"-61.68","56.55","NAIN A","8502801","2021-11-22 07:00","2021","11","22","07:00","-5.0","","-8.5","","76","","","","23","","17","","24.1","","102.03","","","","-11","","NA"
"-61.68","56.55","NAIN A","8502801","2021-11-22 08:00","2021","11","22","08:00","-4.7","","-8.7","","74","","","","23","","14","","24.1","","101.99","","","","-10","","Mainly Clear"
"-61.68","56.55","NAIN A","8502801","2021-11-22 09:00","2021","11","22","09:00","-5.5","","-9.2","","76","","","","21","","10","","24.1","","102.02","","","","-10","","NA"
"-61.68","56.55","NAIN A","8502801","2021-11-22 10:00","2021","11","22","10:00","-4.7","","-8.6","","74","","","","19","","12","","24.1","","102.01","","","","-9","","NA"
"-61.68","56.55","NAIN A","8502801","2021-11-22 11:00","2021","11","22","11:00","-3.6","","-7.6","","74","","","","21","","10","","24.1","","101.92","","","","-8","","Mostly Cloudy"
"-61.68","56.55","NAIN A","8502801","2021-11-22 12:00","2021","11","22","12:00","-2.4","","-6.1","","76","","","","14","","21","","24.1","","101.84","","","","-8","","NA"
"-61.68","56.55","NAIN A","8502801","2021-11-22 13:00","2021","11","22","13:00","-1.9","","-6.2","","72","","","","17","","16","","24.1","","101.80","","","","-7","","NA"
"-61.68","56.55","NAIN A","8502801","2021-11-22 14:00","2021","11","22","14:00","-1.4","","-5.8","","72","","","","15","","21","","24.1","","101.69","","","","-7","","Cloudy"
"-61.68","56.55","NAIN A","8502801","2021-11-22 15:00","2021","11","22","15:00","-0.6","","-6.8","","63","","","","14","","37","","24.1","","101.56","","","","-8","","NA"
"-61.68","56.55","NAIN A","8502801","2021-11-22 16:00","2021","11","22","16:00","-0.6","","-6.0","","67","","","","15","","42","","24.1","","101.47","","","","-8","","NA"
"-61.68","56.55","NAIN A","8502801","2021-11-22 17:00","2021","11","22","17:00","-1.2","","-3.8","","83","","","","14","","48","","2.4","","101.33","","","","-10","","Snow"
"-61.68","56.55","NAIN A","8502801","2021-11-22 18:00","2021","11","22","18:00","-0.8","","-1.9","","92","","","","13","","39","","1.6","","101.20","","","","-8","","Snow"
"-61.68","56.55","NAIN A","8502801","2021-11-22 19:00","2021","11","22","19:00","0.0","","-1.3","","91","","","","14","","50","","1.6","","101.06","","","","-8","","Snow"
"-61.68","56.55","NAIN A","8502801","2021-11-22 20:00","2021","11","22","20:00","0.2","","-1.0","","92","","","","15","","40","","1.6","","100.88","","","","","","Snow"
"-61.68","56.55","NAIN A","8502801","2021-11-22 21:00","2021","11","22","21:00"
"-61.68","56.55","NAIN A","8502801","2021-11-22 22:00","2021","11","22","22:00"
"-61.68","56.55","NAIN A","8502801","2021-11-22 23:00","2021","11","22","23:00"
"-61.68","56.55","NAIN A","8502801","2021-11-23 00:00","2021","11","23","00:00"
"-61.68","56.55","NAIN A","8502801","2021-11-23 01:00","2021","11","23","01:00"
"-61.68","56.55","NAIN A","8502801","2021-11-23 02:00","2021","11","23","02:00"
"-61.68","56.55","NAIN A","8502801","2021-11-23 03:00","2021","11","23","03:00"
"-61.68","56.55","NAIN A","8502801","2021-11-23 04:00","2021","11","23","04:00"
"-61.68","56.55","NAIN A","8502801","2021-11-23 05:00","2021","11","23","05:00","4.2","","1.2","","81","","","","16","","28","","24.1","","99.84","","","","","","Cloudy"
"-61.68","56.55","NAIN A","8502801","2021-11-23 06:00","2021","11","23","06:00","4.3","","1.1","","80","","","","16","","27","","24.1","","99.80","","","","","","NA"
"-61.68","56.55","NAIN A","8502801","2021-11-23 07:00","2021","11","23","07:00"
"-61.68","56.55","NAIN A","8502801","2021-11-23 08:00","2021","11","23","08:00","4.5","","0.9","","77","","","","17","","32","","24.1","","99.81","","","","","","Cloudy"
"-61.68","56.55","NAIN A","8502801","2021-11-23 09:00","2021","11","23","09:00","3.4","","0.5","","81","","","","24","","12","","24.1","","99.93","","","","","","NA"
"-61.68","56.55","NAIN A","8502801","2021-11-23 10:00","2021","11","23","10:00","2.8","","-3.3","","64","","","","25","","18","","24.1","","100.01","","","","","","NA"
"-61.68","56.55","NAIN A","8502801","2021-11-23 11:00","2021","11","23","11:00","0.9","","-6.8","","56","","","","28","","34","","24.1","","100.14","","","","","","Cloudy"
"-61.68","56.55","NAIN A","8502801","2021-11-23 12:00","2021","11","23","12:00","-0.3","","-7.0","","61","","","","28","","25","","24.1","","100.29","","","","-6","","NA"
"-61.68","56.55","NAIN A","8502801","2021-11-23 13:00","2021","11","23","13:00","-1.2","","-7.9","","60","","","","30","","28","","24.1","","100.41","","","","-8","","NA"
"-61.68","56.55","NAIN A","8502801","2021-11-23 14:00","2021","11","23","14:00","-2.2","","-9.5","","58","","","","26","","7","","24.1","","100.52","","","","-5","","Cloudy"
"-61.68","56.55","NAIN A","8502801","2021-11-23 15:00","2021","11","23","15:00","-2.7","","-8.9","","62","","","","25","","12","","24.1","","100.57","","","","-7","","NA"
"-61.68","56.55","NAIN A","8502801","2021-11-23 16:00","2021","11","23","16:00","-2.9","","-9.6","","60","","","","28","","16","","24.1","","100.72","","","","-8","","NA"
"-61.68","56.55","NAIN A","8502801","2021-11-23 17:00","2021","11","23","17:00","-3.5","","-9.5","","63","","","","26","","16","","24.1","","100.83","","","","-9","","Cloudy"
"-61.68","56.55","NAIN A","8502801","2021-11-23 18:00","2021","11","23","18:00","-3.6","","-9.6","","63","","","","25","","22","","24.1","","100.85","","","","-10","","NA"
"-61.68","56.55","NAIN A","8502801","2021-11-23 19:00","2021","11","23","19:00","-3.1","","-9.4","","62","","","","26","","23","","24.1","","100.92","","","","-10","","NA"
"-61.68","56.55","NAIN A","8502801","2021-11-23 20:00","2021","11","23","20:00","-3.3","","-8.8","","66","","","","27","","18","","24.1","","100.96","","","","-9","","Cloudy"
"-61.68","56.55","NAIN A","8502801","2021-11-23 21:00","2021","11","23","21:00"
"-61.68","56.55","NAIN A","8502801","2021-11-23 22:00","2021","11","23","22:00"
"-61.68","56.55","NAIN A","8502801","2021-11-23 23:00","2021","11","23","23:00"
"-61.68","56.55","NAIN A","8502801","2021-11-24 00:00","2021","11","24","00:00"
"-61.68","56.55","NAIN A","8502801","2021-11-24 01:00","2021","11","24","01:00"
"-61.68","56.55","NAIN A","8502801","2021-11-24 02:00","2021","11","24","02:00"
"-61.68","56.55","NAIN A","8502801","2021-11-24 03:00","2021","11","24","03:00"
"-61.68","56.55","NAIN A","8502801","2021-11-24 04:00","2021","11","24","04:00"
"-61.68","56.55","NAIN A","8502801","2021-11-24 05:00","2021","11","24","05:00","-2.5","","-7.4","","70","","","","29","","22","","24.1","","101.32","","","","-9","","Mainly Clear"
"-61.68","56.55","NAIN A","8502801","2021-11-24 06:00","2021","11","24","06:00","-2.2","","-7.2","","68","","","","29","","19","","24.1","","101.50","","","","-8","","NA"
"-61.68","56.55","NAIN A","8502801","2021-11-24 07:00","2021","11","24","07:00","-2.0","","-6.5","","71","","","","30","","24","","24.1","","101.60","","","","-8","","NA"
"-61.68","56.55","NAIN A","8502801","2021-11-24 08:00","2021","11","24","08:00","-1.4","","-7.3","","64","","","","31","","35","","24.1","","101.70","","","","-9","","Mostly Cloudy"
"-61.68","56.55","NAIN A","8502801","2021-11-24 09:00","2021","11","24","09:00","-2.2","","-7.4","","68","","","","28","","16","","24.1","","101.73","","","","-7","","NA"
"-61.68","56.55","NAIN A","8502801","2021-11-24 10:00","2021","11","24","10:00","-1.9","","-6.8","","70","","","","30","","27","","24.1","","101.82","","","","-9","","NA"
"-61.68","56.55","NAIN A","8502801","2021-11-24 11:00","2021","11","24","11:00","-2.0","","-6.9","","69","","","","30","","25","","24.1","","101.85","","","","-8","","Mostly Cloudy"
"-61.68","56.55","NAIN A","8502801","2021-11-24 12:00","2021","11","24","12:00","-2.1","","-8.4","","62","","","","29","","20","","17.7","","101.89","","","","-8","","NA"
"-61.68","56.55","NAIN A","8502801","2021-11-24 13:00","2021","11","24","13:00","-2.0","","-7.0","","69","","","","30","","28","","24.1","","101.91","","","","-9","","NA"
"-61.68","56.55","NAIN A","8502801","2021-11-24 14:00","2021","11","24","14:00","-2.6","","-8.9","","62","","","","27","","13","","24.1","","101.98","","","","-7","","Mostly Cloudy"
"-61.68","56.55","NAIN A","8502801","2021-11-24 15:00","2021","11","24","15:00","-3.2","","-9.1","","64","","","","28","","11","","24.1","","102.04","","","","-7","","NA"
"-61.68","56.55","NAIN A","8502801","2021-11-24 16:00","2021","11","24","16:00","-2.5","","-7.9","","67","","","","30","","24","","24.1","","102.08","","","","-9","","NA"
"-61.68","56.55","NAIN A","8502801","2021-11-24 17:00","2021","11","24","17:00","-3.1","","-9.4","","62","","","","28","","18","","24.1","","102.21","","","","-9","","Mostly Cloudy"
"-61.68","56.55","NAIN A","8502801","2021-11-24 18:00","2021","11","24","18:00","-3.2","","-9.5","","62","","","","30","","10","","24.1","","102.21","","","","-7","","NA"
"-61.68","56.55","NAIN A","8502801","2021-11-24 19:00","2021","11","24","19:00","-3.8","","-10.3","","61","","","","28","","4","","24.1","","102.28","","","","-5","","NA"
"-61.68","56.55","NAIN A","8502801","2021-11-24 20:00","2021","11","24","20:00","-3.9","","-11.0","","58","","","","26","","3","","24.1","","102.30","","","","-5","","Mostly Cloudy"
"-61.68","56.55","NAIN A","8502801","2021-11-24 21:00","2021","11","24","21:00"
"-61.68","56.55","NAIN A","8502801","2021-11-24 22:00","2021","11","24","22:00"
"-61.68","56.55","NAIN A","8502801","2021-11-24 23:00","2021","11","24","23:00"
"-61.68","56.55","NAIN A","8502801","2021-11-25 00:00","2021","11","25","00:00"
"-61.68","56.55","NAIN A","8502801","2021-11-25 01:00","2021","11","25","01:00"
"-61.68","56.55","NAIN A","8502801","2021-11-25 02:00","2021","11","25","02:00"
"-61.68","56.55","NAIN A","8502801","2021-11-25 03:00","2021","11","25","03:00"
"-61.68","56.55","NAIN A","8502801","2021-11-25 04:00","2021","11","25","04:00"
"-61.68","56.55","NAIN A","8502801","2021-11-25 05:00","2021","11","25","05:00","-4.1","","-9.4","","67","","","","30","","19","","24.1","","102.31","","","","-10","","Mostly Cloudy"
"-61.68","56.55","NAIN A","8502801","2021-11-25 06:00","2021","11","25","06:00","-4.0","","-8.5","","71","","","","30","","19","","24.1","","102.27","","","","-10","","NA"
"-61.68","56.55","NAIN A","8502801","2021-11-25 07:00","2021","11","25","07:00","-3.6","","-8.2","","71","","","","31","","20","","24.1","","102.22","","","","-10","","NA"
"-61.68","56.55","NAIN A","8502801","2021-11-25 08:00","2021","11","25","08:00","-3.7","","-7.8","","73","","","","31","","22","","24.1","","102.20","","","","-10","","Cloudy"
"-61.68","56.55","NAIN A","8502801","2021-11-25 09:00","2021","11","25","09:00","-3.9","","-7.9","","74","","","","31","","19","","12.9","","102.19","","","","-10","","Snow Showers"
"-61.68","56.55","NAIN A","8502801","2021-11-25 10:00","2021","11","25","10:00","-4.2","","-6.2","","86","","","","31","","20","","12.9","","102.10","","","","-11","","Snow"
"-61.68","56.55","NAIN A","8502801","2021-11-25 11:00","2021","11","25","11:00","-4.2","","-5.8","","89","","","","30","","21","","2.4","","102.00","","","","-11","","Snow"
"-61.68","56.55","NAIN A","8502801","2021-11-25 12:00","2021","11","25","12:00","-3.8","","-5.2","","90","","","","31","","24","","2.4","","101.90","","","","-11","","Snow"
"-61.68","56.55","NAIN A","8502801","2021-11-25 13:00","2021","11","25","13:00","-3.6","","-5.0","","90","","","","30","","25","","2.4","","101.77","","","","-11","","Snow"
"-61.68","56.55","NAIN A","8502801","2021-11-25 14:00","2021","11","25","14:00","-3.3","","-4.6","","91","","","","30","","24","","2.4","","101.73","","","","-10","","Snow"
"-61.68","56.55","NAIN A","8502801","2021-11-25 15:00","2021","11","25","15:00","-3.1","","-4.4","","91","","","","30","","27","","2.4","","101.70","","","","-10","","Snow"
"-61.68","56.55","NAIN A","8502801","2021-11-25 16:00","2021","11","25","16:00","-3.0","","-4.2","","92","","","","30","","25","","1.6","","101.68","","","","-10","","Snow"
"-61.68","56.55","NAIN A","8502801","2021-11-25 17:00","2021","11","25","17:00","-2.9","","-4.2","","91","","","","29","","22","","1.6","","101.62","","","","-9","","Snow"
"-61.68","56.55","NAIN A","8502801","2021-11-25 18:00","2021","11","25","18:00","-2.6","","-3.8","","92","","","","29","","20","","2.0","","101.59","","","","-9","","Snow"
"-61.68","56.55","NAIN A","8502801","2021-11-25 19:00","2021","11","25","19:00","-2.3","","-3.4","","92","","","","30","","22","","2.0","","101.55","","","","-8","","Snow"
"-61.68","56.55","NAIN A","8502801","2021-11-25 20:00","2021","11","25","20:00","-1.9","","-3.0","","92","","","","30","","19","","8.1","","101.50","","","","-7","","Snow"
"-61.68","56.55","NAIN A","8502801","2021-11-25 21:00","2021","11","25","21:00"
"-61.68","56.55","NAIN A","8502801","2021-11-25 22:00","2021","11","25","22:00"
"-61.68","56.55","NAIN A","8502801","2021-11-25 23:00","2021","11","25","23:00"
"-61.68","56.55","NAIN A","8502801","2021-11-26 00:00","2021","11","26","00:00"
"-61.68","56.55","NAIN A","8502801","2021-11-26 01:00","2021","11","26","01:00"
"-61.68","56.55","NAIN A","8502801","2021-11-26 02:00","2021","11","26","02:00"
"-61.68","56.55","NAIN A","8502801","2021-11-26 03:00","2021","11","26","03:00"
"-61.68","56.55","NAIN A","8502801","2021-11-26 04:00","2021","11","26","04:00"
"-61.68","56.55","NAIN A","8502801","2021-11-26 05:00","2021","11","26","05:00","-0.6","","-1.1","","96","","","","33","","12","","6.4","","100.99","","","","-5","","Freezing Drizzle,Fog"
"-61.68","56.55","NAIN A","8502801","2021-11-26 06:00","2021","11","26","06:00","-0.4","","-0.9","","97","","","","31","","8","","8.1","","100.91","","","","-3","","Freezing Drizzle,Fog"
"-61.68","56.55","NAIN A","8502801","2021-11-26 07:00","2021","11","26","07:00","0.1","","-0.4","","96","","","","2","","14","","6.4","","100.87","","","","","","Freezing Drizzle,Fog"
"-61.68","56.55","NAIN A","8502801","2021-11-26 08:00","2021","11","26","08:00","-0.2","","-0.9","","95","","","","33","","22","","6.4","","100.82","","","","-6","","Freezing Drizzle,Fog"
"-61.68","56.55","NAIN A","8502801","2021-11-26 09:00","2021","11","26","09:00","0.0","","-0.8","","95","","","","33","","21","","4.8","","100.78","","","","-5","","Freezing Drizzle,Fog"
"-61.68","56.55","NAIN A","8502801","2021-11-26 10:00","2021","11","26","10:00","0.1","","-0.6","","95","","","","32","","17","","4.8","","100.67","","","","","","Freezing Drizzle,Fog"
"-61.68","56.55","NAIN A","8502801","2021-11-26 11:00","2021","11","26","11:00","0.2","","-0.5","","95","","","","33","","21","","4.8","","100.62","","","","","","Freezing Drizzle,Fog"
"-61.68","56.55","NAIN A","8502801","2021-11-26 12:00","2021","11","26","12:00","0.3","","-0.4","","95","","","","34","","24","","4.8","","100.51","","","","","","Drizzle,Fog"
"-61.68","56.55","NAIN A","8502801","2021-11-26 13:00","2021","11","26","13:00","0.4","","-0.3","","95","","","","34","","28","","4.8","","100.40","","","","","","Drizzle,Fog"
"-61.68","56.55","NAIN A","8502801","2021-11-26 14:00","2021","11","26","14:00","0.8","","-0.4","","92","","","","34","","23","","24.1","","100.35","","","","","","Drizzle"
"-61.68","56.55","NAIN A","8502801","2021-11-26 15:00","2021","11","26","15:00","0.9","","-0.4","","90","","","","33","","18","","24.1","","100.32","","","","","","Drizzle"
"-61.68","56.55","NAIN A","8502801","2021-11-26 16:00","2021","11","26","16:00","0.9","","-0.3","","92","","","","34","","25","","16.1","","100.28","","","","","","Drizzle"
"-61.68","56.55","NAIN A","8502801","2021-11-26 17:00","2021","11","26","17:00","0.8","","-0.1","","94","","","","34","","24","","6.4","","100.24","","","","","","Rain,Fog"
"-61.68","56.55","NAIN A","8502801","2021-11-26 18:00","2021","11","26","18:00","0.8","","-0.1","","94","","","","34","","21","","8.1","","100.20","","","","","","Rain,Fog"
"-61.68","56.55","NAIN A","8502801","2021-11-26 19:00","2021","11","26","19:00","1.0","","-0.1","","92","","","","34","","23","","24.1","","100.14","","","","","","NA"
"-61.68","56.55","NAIN A","8502801","2021-11-26 20:00","2021","11","26","20:00","0.9","","-0.1","","93","","","","35","","17","","24.1","","100.07","","","","","","Cloudy"
"-61.68","56.55","NAIN A","8502801","2021-11-26 21:00","2021","11","26","21:00"
"-61.68","56.55","NAIN A","8502801","2021-11-26 22:00","2021","11","26","22:00"
"-61.68","56.55","NAIN A","8502801","2021-11-26 23:00","2021","11","26","23:00"
"-61.68","56.55","NAIN A","8502801","2021-11-27 00:00","2021","11","27","00:00"
"-61.68","56.55","NAIN A","8502801","2021-11-27 01:00","2021","11","27","01:00"
"-61.68","56.55","NAIN A","8502801","2021-11-27 02:00","2021","11","27","02:00"
"-61.68","56.55","NAIN A","8502801","2021-11-27 03:00","2021","11","27","03:00"
"-61.68","56.55","NAIN A","8502801","2021-11-27 04:00","2021","11","27","04:00"
"-61.68","56.55","NAIN A","8502801","2021-11-27 05:00","2021","11","27","05:00","0.9","","0.7","","99","","","","33","","9","","6.4","","99.53","","","","","","Drizzle,Fog"
"-61.68","56.55","NAIN A","8502801","2021-11-27 06:00","2021","11","27","06:00","0.8","","0.7","","99","","","","32","","9","","6.4","","99.45","","","","","","Drizzle,Fog"
"-61.68","56.55","NAIN A","8502801","2021-11-27 07:00","2021","11","27","07:00"
"-61.68","56.55","NAIN A","8502801","2021-11-27 08:00","2021","11","27","08:00","0.9","","0.8","","99","","","","1","","7","","6.4","","99.40","","","","","","Drizzle,Fog"
"-61.68","56.55","NAIN A","8502801","2021-11-27 09:00","2021","11","27","09:00","1.1","","1.0","","99","","","","4","","6","","6.4","","99.39","","","","","","Drizzle,Fog"
"-61.68","56.55","NAIN A","8502801","2021-11-27 10:00","2021","11","27","10:00","1.2","","1.1","","99","","","","6","","12","","6.4","","99.36","","","","","","Rain,Fog"
"-61.68","56.55","NAIN A","8502801","2021-11-27 11:00","2021","11","27","11:00","1.4","","1.1","","98","","","","8","","8","","24.1","","99.33","","","","","","Rain"
"-61.68","56.55","NAIN A","8502801","2021-11-27 12:00","2021","11","27","12:00","1.3","","0.5","","95","","","","9","","12","","24.1","","99.26","","","","","","NA"
"-61.68","56.55","NAIN A","8502801","2021-11-27 13:00","2021","11","27","13:00","1.3","","0.6","","96","","","","9","","13","","14.5","","99.28","","","","","","NA"
"-61.68","56.55","NAIN A","8502801","2021-11-27 14:00","2021","11","27","14:00","1.1","","0.6","","97","","","","10","","15","","6.4","","99.27","","","","","","Drizzle,Fog"
"-61.68","56.55","NAIN A","8502801","2021-11-27 15:00","2021","11","27","15:00","1.1","","0.5","","96","","","","7","","14","","24.1","","99.23","","","","","","Drizzle"
"-61.68","56.55","NAIN A","8502801","2021-11-27 16:00","2021","11","27","16:00","1.1","","0.4","","95","","","","9","","14","","24.1","","99.27","","","","","","NA"
"-61.68","56.55","NAIN A","8502801","2021-11-27 17:00","2021","11","27","17:00","1.0","","0.3","","96","","","","9","","13","","24.1","","99.24","","","","","","Cloudy"
"-61.68","56.55","NAIN A","8502801","2021-11-27 18:00","2021","11","27","18:00","1.3","","0.1","","92","","","","10","","10","","24.1","","99.28","","","","","","NA"
"-61.68","56.55","NAIN A","8502801","2021-11-27 19:00","2021","11","27","19:00","1.0","","-0.1","","92","","","","8","","12","","24.1","","99.23","","","","","","NA"
"-61.68","56.55","NAIN A","8502801","2021-11-27 20:00","2021","11","27","20:00","0.9","","0.2","","95","","","","4","","9","","24.1","","99.19","","","","","","Cloudy"
"-61.68","56.55","NAIN A","8502801","2021-11-27 21:00","2021","11","27","21:00"
"-61.68","56.55","NAIN A","8502801","2021-11-27 22:00","2021","11","27","22:00"
"-61.68","56.55","NAIN A","8502801","2021-11-27 23:00","2021","11","27","23:00"
"-61.68","56.55","NAIN A","8502801","2021-11-28 00:00","2021","11","28","00:00"
"-61.68","56.55","NAIN A","8502801","2021-11-28 01:00","2021","11","28","01:00"
"-61.68","56.55","NAIN A","8502801","2021-11-28 02:00","2021","11","28","02:00"
"-61.68","56.55","NAIN A","8502801","2021-11-28 03:00","2021","11","28","03:00"
"-61.68","56.55","NAIN A","8502801","2021-11-28 04:00","2021","11","28","04:00"
"-61.68","56.55","NAIN A","8502801","2021-11-28 05:00","2021","11","28","05:00","0.1","","-0.1","","98","","","","33","","13","","6.4","","98.39","","","","","","Snow"
"-61.68","56.55","NAIN A","8502801","2021-11-28 06:00","2021","11","28","06:00","0.1","","-0.1","","99","","","","18","","5","","12.9","","98.39","","","","","","Snow"
"-61.68","56.55","NAIN A","8502801","2021-11-28 07:00","2021","11","28","07:00","0.3","","0.1","","99","","","","25","","3","","2.0","","98.35","","","","","","Fog"
"-61.68","56.55","NAIN A","8502801","2021-11-28 08:00","2021","11","28","08:00","0.3","","0.2","","99","","","","20","","7","","2.4","","98.34","","","","","","Fog"
"-61.68","56.55","NAIN A","8502801","2021-11-28 09:00","2021","11","28","09:00","0.3","","0.2","","99","","","","15","","10","","11.3","","98.28","","","","","","NA"
"-61.68","56.55","NAIN A","8502801","2021-11-28 10:00","2021","11","28","10:00","0.5","","0.2","","98","","","","18","","14","","24.1","","98.21","","","","","","NA"
"-61.68","56.55","NAIN A","8502801","2021-11-28 11:00","2021","11","28","11:00","0.9","","-0.2","","92","","","","13","","13","","24.1","","98.18","","","","","","Cloudy"
"-61.68","56.55","NAIN A","8502801","2021-11-28 12:00","2021","11","28","12:00","0.9","","0.1","","94","","","","15","","7","","24.1","","98.08","","","","","","Rain,Snow"
"-61.68","56.55","NAIN A","8502801","2021-11-28 13:00","2021","11","28","13:00","0.9","","-0.1","","93","","","","36","","1","","24.1","","98.01","","","","","","Rain,Snow"
"-61.68","56.55","NAIN A","8502801","2021-11-28 14:00","2021","11","28","14:00","1.0","","0.0","","93","","","","21","","4","","24.1","","97.97","","","","","","Rain Showers"
"-61.68","56.55","NAIN A","8502801","2021-11-28 15:00","2021","11","28","15:00","0.6","","-0.2","","95","","","","20","","10","","19.3","","97.95","","","","","","Rain,Snow"
"-61.68","56.55","NAIN A","8502801","2021-11-28 16:00","2021","11","28","16:00","0.5","","-0.2","","95","","","","21","","5","","17.7","","97.95","","","","","","Snow Showers"
"-61.68","56.55","NAIN A","8502801","2021-11-28 17:00","2021","11","28","17:00","0.8","","0.0","","94","","","","22","","7","","24.1","","97.96","","","","","","Snow Showers"
"-61.68","56.55","NAIN A","8502801","2021-11-28 18:00","2021","11","28","18:00","1.1","","0.2","","94","","","","23","","4","","24.1","","97.93","","","","","","NA"
"-61.68","56.55","NAIN A","8502801","2021-11-28 19:00","2021","11","28","19:00","1.3","","-0.2","","90","","","","24","","12","","24.1","","97.94","","","","","","Drizzle"
"-61.68","56.55","NAIN A","8502801","2021-11-28 20:00","2021","11","28","20:00","0.5","","-2.5","","81","","","","26","","15","","24.1","","97.96","","","","","","Mostly Cloudy"
"-61.68","56.55","NAIN A","8502801","2021-11-28 21:00","2021","11","28","21:00"
"-61.68","56.55","NAIN A","8502801","2021-11-28 22:00","2021","11","28","22:00"
"-61.68","56.55","NAIN A","8502801","2021-11-28 23:00","2021","11","28","23:00"
"-61.68","56.55","NAIN A","8502801","2021-11-29 00:00","2021","11","29","00:00"
"-61.68","56.55","NAIN A","8502801","2021-11-29 01:00","2021","11","29","01:00"
"-61.68","56.55","NAIN A","8502801","2021-11-29 02:00","2021","11","29","02:00"
"-61.68","56.55","NAIN A","8502801","2021-11-29 03:00","2021","11","29","03:00"
"-61.68","56.55","NAIN A","8502801","2021-11-29 04:00","2021","11","29","04:00"
"-61.68","56.55","NAIN A","8502801","2021-11-29 05:00","2021","11","29","05:00","-2.1","","-7.8","","65","","","","28","","62","","24.1","","98.90","","","","-12","","Mainly Clear"
"-61.68","56.55","NAIN A","8502801","2021-11-29 06:00","2021","11","29","06:00","-2.9","","-8.7","","65","","","","28","","44","","24.1","","99.11","","","","-12","","NA"
"-61.68","56.55","NAIN A","8502801","2021-11-29 07:00","2021","11","29","07:00","-4.0","","-9.1","","68","","","","29","","23","","24.1","","99.41","","","","-11","","NA"
"-61.68","56.55","NAIN A","8502801","2021-11-29 08:00","2021","11","29","08:00","-5.0","","-10.2","","67","","","","27","","30","","24.1","","99.56","","","","-13","","Mostly Cloudy"
"-61.68","56.55","NAIN A","8502801","2021-11-29 09:00","2021","11","29","09:00","-5.4","","-10.7","","66","","","","27","","32","","24.1","","99.67","","","","-14","","NA"
"-61.68","56.55","NAIN A","8502801","2021-11-29 10:00","2021","11","29","10:00","-5.2","","-10.7","","65","","","","27","","39","","24.1","","99.79","","","","-14","","NA"
"-61.68","56.55","NAIN A","8502801","2021-11-29 11:00","2021","11","29","11:00","-5.0","","-11.0","","63","","","","27","","37","","24.1","","99.86","","","","-14","","Mostly Cloudy"
"-61.68","56.55","NAIN A","8502801","2021-11-29 12:00","2021","11","29","12:00","-5.3","","-11.3","","63","","","","27","","39","","24.1","","99.98","","","","-14","","NA"
"-61.68","56.55","NAIN A","8502801","2021-11-29 13:00","2021","11","29","13:00","-5.7","","-11.9","","62","","","","28","","35","","24.1","","100.11","","","","-14","","NA"
"-61.68","56.55","NAIN A","8502801","2021-11-29 14:00","2021","11","29","14:00","-5.7","","-11.7","","63","","","","27","","13","","24.1","","100.22","","","","-11","","Mainly Clear"
"-61.68","56.55","NAIN A","8502801","2021-11-29 15:00","2021","11","29","15:00","-5.5","","-10.9","","66","","","","27","","26","","24.1","","100.33","","","","-13","","Snow Showers"
"-61.68","56.55","NAIN A","8502801","2021-11-29 16:00","2021","11","29","16:00","-4.9","","-10.7","","64","","","","27","","32","","24.1","","100.47","","","","-13","","Snow Showers"
"-61.68","56.55","NAIN A","8502801","2021-11-29 17:00","2021","11","29","17:00","-4.8","","-11.5","","60","","","","27","","33","","24.1","","100.60","","","","-13","","Snow Showers"
"-61.68","56.55","NAIN A","8502801","2021-11-29 18:00","2021","11","29","18:00","-4.9","","-11.3","","61","","","","28","","27","","24.1","","100.69","","","","-12","","Snow Showers"
"-61.68","56.55","NAIN A","8502801","2021-11-29 19:00","2021","11","29","19:00","-4.8","","-11.6","","59","","","","27","","36","","24.1","","100.76","","","","-13","","Snow Showers"
"-61.68","56.55","NAIN A","8502801","2021-11-29 20:00","2021","11","29","20:00","-4.8","","-11.4","","60","","","","26","","24","","24.1","","100.86","","","","-12","","Snow Showers"
"-61.68","56.55","NAIN A","8502801","2021-11-29 21:00","2021","11","29","21:00"
"-61.68","56.55","NAIN A","8502801","2021-11-29 22:00","2021","11","29","22:00"
"-61.68","56.55","NAIN A","8502801","2021-11-29 23:00","2021","11","29","23:00"
"-61.68","56.55","NAIN A","8502801","2021-11-30 00:00","2021","11","30","00:00"
"-61.68","56.55","NAIN A","8502801","2021-11-30 01:00","2021","11","30","01:00"
"-61.68","56.55","NAIN A","8502801","2021-11-30 02:00","2021","11","30","02:00"
"-61.68","56.55","NAIN A","8502801","2021-11-30 03:00","2021","11","30","03:00"
"-61.68","56.55","NAIN A","8502801","2021-11-30 04:00","2021","11","30","04:00"
"-61.68","56.55","NAIN A","8502801","2021-11-30 05:00","2021","11","30","05:00"
"-61.68","56.55","NAIN A","8502801","2021-11-30 06:00","2021","11","30","06:00"
"-61.68","56.55","NAIN A","8502801","2021-11-30 07:00","2021","11","30","07:00"
"-61.68","56.55","NAIN A","8502801","2021-11-30 08:00","2021","11","30","08:00"
"-61.68","56.55","NAIN A","8502801","2021-11-30 09:00","2021","11","30","09:00"
"-61.68","56.55","NAIN A","8502801","2021-11-30 10:00","2021","11","30","10:00"
"-61.68","56.55","NAIN A","8502801","2021-11-30 11:00","2021","11","30","11:00"
"-61.68","56.55","NAIN A","8502801","2021-11-30 12:00","2021","11","30","12:00"
"-61.68","56.55","NAIN A","8502801","2021-11-30 13:00","2021","11","30","13:00"
"-61.68","56.55","NAIN A","8502801","2021-11-30 14:00","2021","11","30","14:00"
"-61.68","56.55","NAIN A","8502801","2021-11-30 15:00","2021","11","30","15:00"
"-61.68","56.55","NAIN A","8502801","2021-11-30 16:00","2021","11","30","16:00"
"-61.68","56.55","NAIN A","8502801","2021-11-30 17:00","2021","11","30","17:00"
"-61.68","56.55","NAIN A","8502801","2021-11-30 18:00","2021","11","30","18:00"
"-61.68","56.55","NAIN A","8502801","2021-11-30 19:00","2021","11","30","19:00"
"-61.68","56.55","NAIN A","8502801","2021-11-30 20:00","2021","11","30","20:00"
"-61.68","56.55","NAIN A","8502801","2021-11-30 21:00","2021","11","30","21:00"
"-61.68","56.55","NAIN A","8502801","2021-11-30 22:00","2021","11","30","22:00"
"-61.68","56.55","NAIN A","8502801","2021-11-30 23:00","2021","11","30","23:00"
