"Longitude (x)","Latitude (y)","Station Name","Climate ID","Date/Time (LST)","Year","Month","Day","Time (LST)","Temp (°C)","Temp Flag","Dew Point Temp (°C)","Dew Point Temp Flag","Rel Hum (%)","Rel Hum Flag","Precip. Amount (mm)","Precip. Amount Flag","Wind Dir (10s deg)","Wind Dir Flag","Wind Spd (km/h)","Wind Spd Flag","Visibility (km)","Visibility Flag","Stn Press (kPa)","Stn Press Flag","Hmdx","Hmdx Flag","Wind Chill","Wind Chill Flag","Weather"
"-61.68","56.55","NAIN A","8502801","2021-12-01 00:00","2021","12","01","00:00"
"-61.68","56.55","NAIN A","8502801","2021-12-01 01:00","2021","12","01","01:00"
"-61.68","56.55","NAIN A","8502801","2021-12-01 02:00","2021","12","01","02:00"
"-61.68","56.55","NAIN A","8502801","2021-12-01 03:00","2021","12","01","03:00"
"-61.68","56.55","NAIN A","8502801","2021-12-01 04:00","2021","12","01","04:00"
"-61.68","56.55","NAIN A","8502801","2021-12-01 05:00","2021","12","01","05:00"
"-61.68","56.55","NAIN A","8502801","2021-12-01 06:00","2021","12","01","06:00"
"-61.68","56.55","NAIN A","8502801","2021-12-01 07:00","2021","12","01","07:00"
"-61.68","56.55","NAIN A","8502801","2021-12-01 08:00","2021","12","01","08:00"
"-61.68","56.55","NAIN A","8502801","2021-12-01 09:00","2021","12","01","09:00","-6.2","","-12.2","","63","","","","28","","44","","24.1","","99.32","","","","-16","","NA"
"-61.68","56.55","NAIN A","8502801","2021-12-01 10:00","2021","12","01","10:00","-6.6","","-12.9","","62","","","","28","","36","","24.1","","99.45","","","","-16","","NA"
"-61.68","56.55","NAIN A","8502801","2021-12-01 11:00","2021","12","01","11:00","-6.5","","-13.1","","60","","","","28","","41","","24.1","","99.59","","","","-16","","Mostly Cloudy"
"-61.68","56.55","NAIN A","8502801","2021-12-01 12:00","2021","12","01","12:00","-7.5","","-13.7","","62","","","","27","","41","","24.1","","99.71","","","","-18","","NA"
"-61.68","56.55","NAIN A","8502801","2021-12-01 13:00","2021","12","01","13:00","-7.9","","-14.1","","61","","","","27","","38","","24.1","","99.84","","","","-18","","NA"
"-61.68","56.55","NAIN A","8502801","2021-12-01 14:00","2021","12","01","14:00","-8.1","","-14.2","","62","","","","26","","37","","24.1","","99.96","","","","-18","","Clear"
"-61.68","56.55","NAIN A","8502801","2021-12-01 15:00","2021","12","01","15:00","-8.4","","-14.2","","63","","","","27","","45","","24.1","","100.02","","","","-19","","NA"
"-61.68","56.55","NAIN A","8502801","2021-12-01 16:00","2021","12","01","16:00","-8.2","","-14.0","","63","","","","26","","43","","24.1","","100.13","","","","-19","","NA"
"-61.68","56.55","NAIN A","8502801","2021-12-01 17:00","2021","12","01","17:00","-8.2","","-13.9","","64","","","","27","","46","","24.1","","100.20","","","","-19","","Clear"
"-61.68","56.55","NAIN A","8502801","2021-12-01 18:00","2021","12","01","18:00","-7.9","","-14.1","","62","","","","27","","41","","24.1","","100.32","","","","-18","","NA"
"-61.68","56.55","NAIN A","8502801","2021-12-01 19:00","2021","12","01","19:00","-7.8","","-14.4","","59","","","","25","","28","","24.1","","100.41","","","","-16","","NA"
"-61.68","56.55","NAIN A","8502801","2021-12-01 20:00","2021","12","01","20:00","-8.2","","-14.7","","60","","","","26","","37","","24.1","","100.45","","","","-18","","Clear"
"-61.68","56.55","NAIN A","8502801","2021-12-01 21:00","2021","12","01","21:00"
"-61.68","56.55","NAIN A","8502801","2021-12-01 22:00","2021","12","01","22:00"
"-61.68","56.55","NAIN A","8502801","2021-12-01 23:00","2021","12","01","23:00"
"-61.68","56.55","NAIN A","8502801","2021-12-02 00:00","2021","12","02","00:00"
"-61.68","56.55","NAIN A","8502801","2021-12-02 01:00","2021","12","02","01:00"
"-61.68","56.55","NAIN A","8502801","2021-12-02 02:00","2021","12","02","02:00"
"-61.68","56.55","NAIN A","8502801","2021-12-02 03:00","2021","12","02","03:00"
"-61.68","56.55","NAIN A","8502801","2021-12-02 04:00","2021","12","02","04:00"
"-61.68","56.55","NAIN A","8502801","2021-12-02 05:00","2021","12","02","05:00","-10.6","","-15.8","","66","","","","26","","13","","24.1","","100.72","","","","-17","","Clear"
"-61.68","56.55","NAIN A","8502801","2021-12-02 06:00","2021","12","02","06:00","-10.5","","-15.3","","68","","","","26","","13","","24.1","","100.73","","","","-17","","NA"
"-61.68","56.55","NAIN A","8502801","2021-12-02 07:00","2021","12","02","07:00","-11.2","","-15.8","","69","","","","19","","4","","24.1","","100.77","","","","-14","","NA"
"-61.68","56.55","NAIN A","8502801","2021-12-02 08:00","2021","12","02","08:00","-10.7","","-14.9","","72","","","","20","","5","","24.1","","100.76","","","","-14","","Clear"
"-61.68","56.55","NAIN A","8502801","2021-12-02 09:00","2021","12","02","09:00","-11.6","","-15.9","","71","","","","23","","5","","24.1","","100.74","","","","-15","","NA"
"-61.68","56.55","NAIN A","8502801","2021-12-02 10:00","2021","12","02","10:00","-10.6","","-15.4","","68","","","","18","","12","","24.1","","100.75","","","","-17","","NA"
"-61.68","56.55","NAIN A","8502801","2021-12-02 11:00","2021","12","02","11:00","-10.1","","-15.4","","66","","","","22","","9","","24.1","","100.74","","","","-15","","Clear"
"-61.68","56.55","NAIN A","8502801","2021-12-02 12:00","2021","12","02","12:00","-9.8","","-15.0","","66","","","","23","","10","","24.1","","100.68","","","","-15","","NA"
"-61.68","56.55","NAIN A","8502801","2021-12-02 13:00","2021","12","02","13:00","-9.7","","-15.1","","65","","","","25","","9","","24.1","","100.67","","","","-15","","NA"
"-61.68","56.55","NAIN A","8502801","2021-12-02 14:00","2021","12","02","14:00","-9.8","","-15.2","","65","","","","26","","8","","24.1","","100.60","","","","-14","","Mainly Clear"
"-61.68","56.55","NAIN A","8502801","2021-12-02 15:00","2021","12","02","15:00","-10.1","","-15.3","","66","","","","26","","12","","24.1","","100.64","","","","-16","","NA"
"-61.68","56.55","NAIN A","8502801","2021-12-02 16:00","2021","12","02","16:00","-9.8","","-15.1","","65","","","","26","","17","","24.1","","100.68","","","","-17","","NA"
"-61.68","56.55","NAIN A","8502801","2021-12-02 17:00","2021","12","02","17:00","-10.2","","-15.4","","66","","","","26","","17","","24.1","","100.66","","","","-17","","Mostly Cloudy"
"-61.68","56.55","NAIN A","8502801","2021-12-02 18:00","2021","12","02","18:00","-9.8","","-15.2","","65","","","","27","","14","","24.1","","100.63","","","","-16","","NA"
"-61.68","56.55","NAIN A","8502801","2021-12-02 19:00","2021","12","02","19:00","-10.7","","-15.2","","70","","","","26","","3","","24.1","","100.62","","","","-13","","NA"
"-61.68","56.55","NAIN A","8502801","2021-12-02 20:00","2021","12","02","20:00","-10.1","","-14.5","","71","","","","26","","16","","24.1","","100.54","","","","-17","","Mainly Clear"
"-61.68","56.55","NAIN A","8502801","2021-12-02 21:00","2021","12","02","21:00"
"-61.68","56.55","NAIN A","8502801","2021-12-02 22:00","2021","12","02","22:00"
"-61.68","56.55","NAIN A","8502801","2021-12-02 23:00","2021","12","02","23:00"
"-61.68","56.55","NAIN A","8502801","2021-12-03 00:00","2021","12","03","00:00"
"-61.68","56.55","NAIN A","8502801","2021-12-03 01:00","2021","12","03","01:00"
"-61.68","56.55","NAIN A","8502801","2021-12-03 02:00","2021","12","03","02:00"
"-61.68","56.55","NAIN A","8502801","2021-12-03 03:00","2021","12","03","03:00"
"-61.68","56.55","NAIN A","8502801","2021-12-03 04:00","2021","12","03","04:00"
"-61.68","56.55","NAIN A","8502801","2021-12-03 05:00","2021","12","03","05:00","-4.6","","-6.3","","88","","","","13","","19","","24.1","","99.26","","","","-11","","Cloudy"
"-61.68","56.55","NAIN A","8502801","2021-12-03 06:00","2021","12","03","06:00","-4.5","","-5.8","","91","","","","17","","4","","24.1","","99.10","","","","-6","","NA"
"-61.68","56.55","NAIN A","8502801","2021-12-03 07:00","2021","12","03","07:00","-4.5","","-5.7","","91","","","","28","","4","","24.1","","98.99","","","","-6","","NA"
"-61.68","56.55","NAIN A","8502801","2021-12-03 08:00","2021","12","03","08:00","-4.1","","-5.2","","92","","","","30","","8","","16.1","","98.86","","","","-8","","Snow"
"-61.68","56.55","NAIN A","8502801","2021-12-03 09:00","2021","12","03","09:00","-4.3","","-5.7","","90","","","","28","","17","","1.6","","98.73","","","","-10","","Snow"
"-61.68","56.55","NAIN A","8502801","2021-12-03 10:00","2021","12","03","10:00","-4.2","","-5.7","","90","","","","31","","28","","1.6","","98.60","","","","-12","","Snow"
"-61.68","56.55","NAIN A","8502801","2021-12-03 11:00","2021","12","03","11:00","-4.6","","-6.3","","88","","","","30","","30","","1.6","","98.48","","","","-12","","Snow"
"-61.68","56.55","NAIN A","8502801","2021-12-03 12:00","2021","12","03","12:00","-4.4","","-5.9","","89","","","","31","","37","","2.4","","98.31","","","","-13","","Snow"
"-61.68","56.55","NAIN A","8502801","2021-12-03 13:00","2021","12","03","13:00","-4.4","","-6.3","","86","","","","30","","47","","1.6","","98.21","","","","-14","","Snow"
"-61.68","56.55","NAIN A","8502801","2021-12-03 14:00","2021","12","03","14:00","-4.2","","-7.1","","81","","","","31","","46","","4.8","","98.14","","","","-14","","Snow"
"-61.68","56.55","NAIN A","8502801","2021-12-03 15:00","2021","12","03","15:00","-4.5","","-7.6","","79","","","","31","","45","","24.1","","98.12","","","","-14","","Snow Showers,Blowing Snow"
"-61.68","56.55","NAIN A","8502801","2021-12-03 16:00","2021","12","03","16:00","-4.8","","-8.6","","75","","","","31","","45","","24.1","","98.12","","","","-14","","Snow Showers"
"-61.68","56.55","NAIN A","8502801","2021-12-03 17:00","2021","12","03","17:00","-5.7","","-9.8","","73","","","","30","","46","","24.1","","98.10","","","","-16","","Snow Showers,Blowing Snow"
"-61.68","56.55","NAIN A","8502801","2021-12-03 18:00","2021","12","03","18:00","-6.3","","-10.2","","74","","","","30","","46","","2.4","","98.07","","","","-16","","Snow,Blowing Snow"
"-61.68","56.55","NAIN A","8502801","2021-12-03 19:00","2021","12","03","19:00","-6.6","","-10.2","","75","","","","30","","45","","11.3","","98.05","","","","-17","","Snow,Blowing Snow"
"-61.68","56.55","NAIN A","8502801","2021-12-03 20:00","2021","12","03","20:00","-6.3","","-10.4","","73","","","","30","","45","","19.3","","98.06","","","","-16","","Snow,Blowing Snow"
"-61.68","56.55","NAIN A","8502801","2021-12-03 21:00","2021","12","03","21:00"
"-61.68","56.55","NAIN A","8502801","2021-12-03 22:00","2021","12","03","22:00"
"-61.68","56.55","NAIN A","8502801","2021-12-03 23:00","2021","12","03","23:00"
"-61.68","56.55","NAIN A","8502801","2021-12-04 00:00","2021","12","04","00:00"
"-61.68","56.55","NAIN A","8502801","2021-12-04 01:00","2021","12","04","01:00"
"-61.68","56.55","NAIN A","8502801","2021-12-04 02:00","2021","12","04","02:00"
"-61.68","56.55","NAIN A","8502801","2021-12-04 03:00","2021","12","04","03:00"
"-61.68","56.55","NAIN A","8502801","2021-12-04 04:00","2021","12","04","04:00"
"-61.68","56.55","NAIN A","8502801","2021-12-04 05:00","2021","12","04","05:00","-7.8","","-12.9","","67","","","","30","","72","","24.1","","97.83","","","","-20","","Blowing Snow"
"-61.68","56.55","NAIN A","8502801","2021-12-04 06:00","2021","12","04","06:00","-8.4","","-13.3","","68","","","","30","","67","","24.1","","97.86","","","","-21","","Blowing Snow"
"-61.68","56.55","NAIN A","8502801","2021-12-04 07:00","2021","12","04","07:00","-8.5","","-13.4","","68","","","","30","","73","","24.1","","97.95","","","","-21","","Blowing Snow"
"-61.68","56.55","NAIN A","8502801","2021-12-04 08:00","2021","12","04","08:00","-8.9","","-14.0","","67","","","","31","","63","","24.1","","97.99","","","","-21","","Blowing Snow"
"-61.68","56.55","NAIN A","8502801","2021-12-04 09:00","2021","12","04","09:00","-9.8","","-15.7","","62","","","","29","","64","","24.1","","98.03","","","","-23","","Blowing Snow"
"-61.68","56.55","NAIN A","8502801","2021-12-04 10:00","2021","12","04","10:00","-10.7","","-17.0","","60","","","","30","","68","","24.1","","98.19","","","","-24","","Blowing Snow"
"-61.68","56.55","NAIN A","8502801","2021-12-04 11:00","2021","12","04","11:00","-10.9","","-17.9","","57","","","","29","","73","","24.1","","98.21","","","","-25","","Blowing Snow"
"-61.68","56.55","NAIN A","8502801","2021-12-04 12:00","2021","12","04","12:00","-10.9","","-18.0","","56","","","","29","","67","","24.1","","98.30","","","","-24","","Blowing Snow"
"-61.68","56.55","NAIN A","8502801","2021-12-04 13:00","2021","12","04","13:00","-11.1","","-18.7","","54","","","","29","","65","","24.1","","98.34","","","","-25","","Blowing Snow"
"-61.68","56.55","NAIN A","8502801","2021-12-04 14:00","2021","12","04","14:00","-11.2","","-17.6","","59","","","","29","","68","","24.1","","98.32","","","","-25","","Blowing Snow"
"-61.68","56.55","NAIN A","8502801","2021-12-04 15:00","2021","12","04","15:00","-11.8","","-19.4","","54","","","","28","","75","","24.1","","98.41","","","","-26","","Blowing Snow"
"-61.68","56.55","NAIN A","8502801","2021-12-04 16:00","2021","12","04","16:00","-11.4","","-18.5","","56","","","","29","","64","","24.1","","98.58","","","","-25","","Blowing Snow"
"-61.68","56.55","NAIN A","8502801","2021-12-04 17:00","2021","12","04","17:00","-11.4","","-18.2","","58","","","","29","","72","","24.1","","98.75","","","","-25","","Blowing Snow"
"-61.68","56.55","NAIN A","8502801","2021-12-04 18:00","2021","12","04","18:00","-11.3","","-17.2","","62","","","","29","","73","","24.1","","98.77","","","","-25","","Blowing Snow"
"-61.68","56.55","NAIN A","8502801","2021-12-04 19:00","2021","12","04","19:00","-11.1","","-17.5","","60","","","","28","","57","","24.1","","98.91","","","","-24","","Blowing Snow"
"-61.68","56.55","NAIN A","8502801","2021-12-04 20:00","2021","12","04","20:00","-10.9","","-17.5","","59","","","","29","","61","","24.1","","99.02","","","","-24","","Blowing Snow"
"-61.68","56.55","NAIN A","8502801","2021-12-04 21:00","2021","12","04","21:00"
"-61.68","56.55","NAIN A","8502801","2021-12-04 22:00","2021","12","04","22:00"
"-61.68","56.55","NAIN A","8502801","2021-12-04 23:00","2021","12","04","23:00"
"-61.68","56.55","NAIN A","8502801","2021-12-05 00:00","2021","12","05","00:00"
"-61.68","56.55","NAIN A","8502801","2021-12-05 01:00","2021","12","05","01:00"
"-61.68","56.55","NAIN A","8502801","2021-12-05 02:00","2021","12","05","02:00"
"-61.68","56.55","NAIN A","8502801","2021-12-05 03:00","2021","12","05","03:00"
"-61.68","56.55","NAIN A","8502801","2021-12-05 04:00","2021","12","05","04:00"
"-61.68","56.55","NAIN A","8502801","2021-12-05 05:00","2021","12","05","05:00"
"-61.68","56.55","NAIN A","8502801","2021-12-05 06:00","2021","12","05","06:00","-11.4","","-17.8","","59","","","","28","","34","","24.1","","99.92","","","","-22","","NA"
"-61.68","56.55","NAIN A","8502801","2021-12-05 07:00","2021","12","05","07:00","-11.5","","-18.1","","58","","","","27","","37","","24.1","","100.03","","","","-22","","NA"
"-61.68","56.55","NAIN A","8502801","2021-12-05 08:00","2021","12","05","08:00","-11.8","","-18.1","","60","","","","27","","21","","24.1","","100.14","","","","-20","","Mainly Clear"
"-61.68","56.55","NAIN A","8502801","2021-12-05 09:00","2021","12","05","09:00","-11.4","","-17.9","","59","","","","27","","32","","24.1","","100.20","","","","-22","","NA"
"-61.68","56.55","NAIN A","8502801","2021-12-05 10:00","2021","12","05","10:00","-10.8","","-18.2","","55","","","","27","","40","","24.1","","100.27","","","","-22","","NA"
"-61.68","56.55","NAIN A","8502801","2021-12-05 11:00","2021","12","05","11:00","-10.0","","-16.8","","58","","","","27","","31","","24.1","","100.30","","","","-20","","Mainly Clear"
"-61.68","56.55","NAIN A","8502801","2021-12-05 12:00","2021","12","05","12:00","-9.5","","-16.4","","58","","","","27","","31","","24.1","","100.37","","","","-19","","NA"
"-61.68","56.55","NAIN A","8502801","2021-12-05 13:00","2021","12","05","13:00","-9.0","","-15.9","","58","","","","28","","27","","24.1","","100.46","","","","-18","","NA"
"-61.68","56.55","NAIN A","8502801","2021-12-05 14:00","2021","12","05","14:00","-8.3","","-15.0","","59","","","","29","","36","","24.1","","100.51","","","","-18","","Mainly Clear"
"-61.68","56.55","NAIN A","8502801","2021-12-05 15:00","2021","12","05","15:00","-8.8","","-15.7","","58","","","","26","","23","","24.1","","100.58","","","","-17","","NA"
"-61.68","56.55","NAIN A","8502801","2021-12-05 16:00","2021","12","05","16:00","-8.6","","-15.7","","57","","","","28","","24","","24.1","","100.69","","","","-17","","NA"
"-61.68","56.55","NAIN A","8502801","2021-12-05 17:00","2021","12","05","17:00","-8.9","","-16.1","","56","","","","27","","20","","24.1","","100.74","","","","-16","","Mainly Clear"
"-61.68","56.55","NAIN A","8502801","2021-12-05 18:00","2021","12","05","18:00","-8.5","","-15.9","","56","","","","27","","27","","24.1","","100.79","","","","-17","","NA"
"-61.68","56.55","NAIN A","8502801","2021-12-05 19:00","2021","12","05","19:00","-8.7","","-15.1","","60","","","","26","","30","","24.1","","100.87","","","","-18","","NA"
"-61.68","56.55","NAIN A","8502801","2021-12-05 20:00","2021","12","05","20:00","-8.9","","-15.6","","59","","","","26","","35","","24.1","","100.91","","","","-19","","Clear"
"-61.68","56.55","NAIN A","8502801","2021-12-05 21:00","2021","12","05","21:00"
"-61.68","56.55","NAIN A","8502801","2021-12-05 22:00","2021","12","05","22:00"
"-61.68","56.55","NAIN A","8502801","2021-12-05 23:00","2021","12","05","23:00"
"-61.68","56.55","NAIN A","8502801","2021-12-06 00:00","2021","12","06","00:00"
"-61.68","56.55","NAIN A","8502801","2021-12-06 01:00","2021","12","06","01:00"
"-61.68","56.55","NAIN A","8502801","2021-12-06 02:00","2021","12","06","02:00"
"-61.68","56.55","NAIN A","8502801","2021-12-06 03:00","2021","12","06","03:00"
"-61.68","56.55","NAIN A","8502801","2021-12-06 04:00","2021","12","06","04:00"
"-61.68","56.55","NAIN A","8502801","2021-12-06 05:00","2021","12","06","05:00","-12.3","","-18.7","","59","","","","27","","27","","24.1","","101.43","","","","-22","","Clear"
"-61.68","56.55","NAIN A","8502801","2021-12-06 06:00","2021","12","06","06:00","-12.9","","-19.3","","59","","","","26","","24","","24.1","","101.49","","","","-22","","NA"
"-61.68","56.55","NAIN A","8502801","2021-12-06 07:00","2021","12","06","07:00","-13.2","","-19.7","","58","","","","26","","26","","24.1","","101.56","","","","-23","","NA"
"-61.68","56.55","NAIN A","8502801","2021-12-06 08:00","2021","12","06","08:00","-13.0","","-19.9","","57","","","","26","","41","","24.1","","101.58","","","","-25","","Clear"
"-61.68","56.55","NAIN A","8502801","2021-12-06 09:00","2021","12","06","09:00","-13.2","","-20.1","","57","","","","26","","35","","24.1","","101.57","","","","-24","","NA"
"-61.68","56.55","NAIN A","8502801","2021-12-06 10:00","2021","12","06","10:00","-13.0","","-19.8","","57","","","","27","","20","","24.1","","101.73","","","","-22","","NA"
"-61.68","56.55","NAIN A","8502801","2021-12-06 11:00","2021","12","06","11:00","-12.9","","-19.5","","58","","","","27","","54","","24.1","","101.65","","","","-26","","Mainly Clear"
"-61.68","56.55","NAIN A","8502801","2021-12-06 12:00","2021","12","06","12:00","-12.4","","-19.1","","58","","","","27","","38","","24.1","","101.78","","","","-24","","NA"
"-61.68","56.55","NAIN A","8502801","2021-12-06 13:00","2021","12","06","13:00","-12.7","","-19.6","","57","","","","27","","39","","24.1","","101.83","","","","-24","","NA"
"-61.68","56.55","NAIN A","8502801","2021-12-06 14:00","2021","12","06","14:00","-13.0","","-19.5","","59","","","","25","","28","","24.1","","101.86","","","","-23","","Mainly Clear"
"-61.68","56.55","NAIN A","8502801","2021-12-06 15:00","2021","12","06","15:00","-12.5","","-19.2","","58","","","","27","","23","","24.1","","101.91","","","","-22","","NA"
"-61.68","56.55","NAIN A","8502801","2021-12-06 16:00","2021","12","06","16:00","-13.3","","-19.5","","60","","","","24","","34","","24.1","","101.89","","","","-24","","NA"
"-61.68","56.55","NAIN A","8502801","2021-12-06 17:00","2021","12","06","17:00","-13.3","","-19.0","","63","","","","25","","8","","24.1","","101.89","","","","-18","","Mainly Clear"
"-61.68","56.55","NAIN A","8502801","2021-12-06 18:00","2021","12","06","18:00","-13.7","","-19.0","","65","","","","25","","16","","24.1","","101.91","","","","-22","","NA"
"-61.68","56.55","NAIN A","8502801","2021-12-06 19:00","2021","12","06","19:00","-14.0","","-19.2","","65","","","","25","","22","","24.1","","101.79","","","","-23","","NA"
"-61.68","56.55","NAIN A","8502801","2021-12-06 20:00","2021","12","06","20:00","-12.8","","-19.3","","58","","","","24","","16","","24.1","","101.68","","","","-20","","Cloudy"
"-61.68","56.55","NAIN A","8502801","2021-12-06 21:00","2021","12","06","21:00"
"-61.68","56.55","NAIN A","8502801","2021-12-06 22:00","2021","12","06","22:00"
"-61.68","56.55","NAIN A","8502801","2021-12-06 23:00","2021","12","06","23:00"
"-61.68","56.55","NAIN A","8502801","2021-12-07 00:00","2021","12","07","00:00"
"-61.68","56.55","NAIN A","8502801","2021-12-07 01:00","2021","12","07","01:00"
"-61.68","56.55","NAIN A","8502801","2021-12-07 02:00","2021","12","07","02:00"
"-61.68","56.55","NAIN A","8502801","2021-12-07 03:00","2021","12","07","03:00"
"-61.68","56.55","NAIN A","8502801","2021-12-07 04:00","2021","12","07","04:00"
"-61.68","56.55","NAIN A","8502801","2021-12-07 05:00","2021","12","07","05:00","-6.3","","-8.8","","83","","","","11","","52","","2.0","","99.92","","","","-17","","Snow,Blowing Snow"
"-61.68","56.55","NAIN A","8502801","2021-12-07 06:00","2021","12","07","06:00","-5.8","","-8.0","","84","","","","10","","54","","2.0","","99.59","","","","-16","","Snow,Blowing Snow"
"-61.68","56.55","NAIN A","8502801","2021-12-07 07:00","2021","12","07","07:00","-5.0","","-7.0","","85","","","","10","","62","","2.0","","99.22","","","","-16","","Snow,Blowing Snow"
"-61.68","56.55","NAIN A","8502801","2021-12-07 08:00","2021","12","07","08:00","-4.4","","-6.4","","86","","","","10","","63","","1.6","","98.81","","","","-15","","Snow,Blowing Snow"
"-61.68","56.55","NAIN A","8502801","2021-12-07 09:00","2021","12","07","09:00","-3.9","","-5.3","","90","","","","10","","57","","0.8","","98.57","","","","-14","","Snow,Blowing Snow"
"-61.68","56.55","NAIN A","8502801","2021-12-07 10:00","2021","12","07","10:00","-3.3","","-4.6","","91","","","","9","","51","","0.8","","98.19","","","","-13","","Snow,Blowing Snow"
"-61.68","56.55","NAIN A","8502801","2021-12-07 11:00","2021","12","07","11:00","-3.0","","-4.1","","92","","","","8","","44","","0.8","","97.85","","","","-12","","Snow,Blowing Snow"
"-61.68","56.55","NAIN A","8502801","2021-12-07 12:00","2021","12","07","12:00","-2.4","","-3.5","","92","","","","8","","44","","1.0","","97.49","","","","-11","","Snow,Blowing Snow"
"-61.68","56.55","NAIN A","8502801","2021-12-07 13:00","2021","12","07","13:00","-2.1","","-3.1","","93","","","","6","","39","","0.8","","97.20","","","","-10","","Snow,Blowing Snow"
"-61.68","56.55","NAIN A","8502801","2021-12-07 14:00","2021","12","07","14:00","-2.1","","-3.1","","93","","","","3","","39","","0.8","","96.93","","","","-10","","Snow,Blowing Snow"
"-61.68","56.55","NAIN A","8502801","2021-12-07 15:00","2021","12","07","15:00","-1.9","","-2.9","","93","","","","1","","36","","1.0","","96.82","","","","-10","","Snow,Blowing Snow"
"-61.68","56.55","NAIN A","8502801","2021-12-07 16:00","2021","12","07","16:00","-1.9","","-2.8","","94","","","","34","","35","","1.0","","96.80","","","","-9","","Snow,Blowing Snow"
"-61.68","56.55","NAIN A","8502801","2021-12-07 17:00","2021","12","07","17:00","-2.3","","-3.4","","92","","","","32","","33","","1.6","","96.78","","","","-10","","Snow,Blowing Snow"
"-61.68","56.55","NAIN A","8502801","2021-12-07 18:00","2021","12","07","18:00","-2.1","","-3.8","","88","","","","31","","36","","2.4","","96.85","","","","-10","","Snow,Blowing Snow"
"-61.68","56.55","NAIN A","8502801","2021-12-07 19:00","2021","12","07","19:00","-2.1","","-4.5","","84","","","","31","","40","","3.2","","96.94","","","","-10","","Snow,Blowing Snow"
"-61.68","56.55","NAIN A","8502801","2021-12-07 20:00","2021","12","07","20:00","-1.9","","-5.2","","78","","","","31","","46","","4.8","","97.10","","","","-10","","Snow,Blowing Snow"
"-61.68","56.55","NAIN A","8502801","2021-12-07 21:00","2021","12","07","21:00"
"-61.68","56.55","NAIN A","8502801","2021-12-07 22:00","2021","12","07","22:00"
"-61.68","56.55","NAIN A","8502801","2021-12-07 23:00","2021","12","07","23:00"
"-61.68","56.55","NAIN A","8502801","2021-12-08 00:00","2021","12","08","00:00"
"-61.68","56.55","NAIN A","8502801","2021-12-08 01:00","2021","12","08","01:00"
"-61.68","56.55","NAIN A","8502801","2021-12-08 02:00","2021","12","08","02:00"
"-61.68","56.55","NAIN A","8502801","2021-12-08 03:00","2021","12","08","03:00"
"-61.68","56.55","NAIN A","8502801","2021-12-08 04:00","2021","12","08","04:00"
"-61.68","56.55","NAIN A","8502801","2021-12-08 05:00","2021","12","08","05:00","-5.0","","-9.9","","69","","","","27","","29","","24.1","","98.84","","","","-13","","Mostly Cloudy"
"-61.68","56.55","NAIN A","8502801","2021-12-08 06:00","2021","12","08","06:00","-5.2","","-10.3","","67","","","","27","","36","","24.1","","99.02","","","","-14","","NA"
"-61.68","56.55","NAIN A","8502801","2021-12-08 07:00","2021","12","08","07:00","-4.7","","-9.8","","68","","","","29","","39","","24.1","","99.18","","","","-14","","NA"
"-61.68","56.55","NAIN A","8502801","2021-12-08 08:00","2021","12","08","08:00","-4.8","","-9.7","","69","","","","30","","46","","24.1","","99.33","","","","-14","","Cloudy"
"-61.68","56.55","NAIN A","8502801","2021-12-08 09:00","2021","12","08","09:00","-5.1","","-10.9","","64","","","","30","","51","","24.1","","99.51","","","","-15","","Blowing Snow"
"-61.68","56.55","NAIN A","8502801","2021-12-08 10:00","2021","12","08","10:00","-5.2","","-11.4","","62","","","","31","","44","","24.1","","99.68","","","","-15","","Blowing Snow"
"-61.68","56.55","NAIN A","8502801","2021-12-08 11:00","2021","12","08","11:00","-5.0","","-11.2","","62","","","","31","","46","","24.1","","99.81","","","","-15","","Blowing Snow"
"-61.68","56.55","NAIN A","8502801","2021-12-08 12:00","2021","12","08","12:00","-5.2","","-11.3","","62","","","","30","","51","","24.1","","99.94","","","","-15","","Blowing Snow"
"-61.68","56.55","NAIN A","8502801","2021-12-08 13:00","2021","12","08","13:00","-5.6","","-11.2","","65","","","","30","","55","","24.1","","100.08","","","","-16","","Blowing Snow"
"-61.68","56.55","NAIN A","8502801","2021-12-08 14:00","2021","12","08","14:00","-6.1","","-11.3","","67","","","","29","","44","","24.1","","100.21","","","","-16","","Blowing Snow"
"-61.68","56.55","NAIN A","8502801","2021-12-08 15:00","2021","12","08","15:00","-8.4","","-13.0","","70","","","","28","","46","","24.1","","100.40","","","","-19","","Blowing Snow"
"-61.68","56.55","NAIN A","8502801","2021-12-08 16:00","2021","12","08","16:00","-8.7","","-14.0","","66","","","","28","","36","","24.1","","100.57","","","","-19","","Blowing Snow"
"-61.68","56.55","NAIN A","8502801","2021-12-08 17:00","2021","12","08","17:00","-9.4","","-14.8","","65","","","","29","","35","","24.1","","100.74","","","","-19","","Mostly Cloudy"
"-61.68","56.55","NAIN A","8502801","2021-12-08 18:00","2021","12","08","18:00","-10.4","","-16.0","","64","","","","29","","35","","24.1","","100.86","","","","-21","","NA"
"-61.68","56.55","NAIN A","8502801","2021-12-08 19:00","2021","12","08","19:00","-10.9","","-16.5","","64","","","","29","","48","","24.1","","100.96","","","","-23","","NA"
"-61.68","56.55","NAIN A","8502801","2021-12-08 20:00","2021","12","08","20:00","-12.1","","-17.8","","63","","","","28","","34","","24.1","","101.03","","","","-23","","Mainly Clear"
"-61.68","56.55","NAIN A","8502801","2021-12-08 21:00","2021","12","08","21:00"
"-61.68","56.55","NAIN A","8502801","2021-12-08 22:00","2021","12","08","22:00"
"-61.68","56.55","NAIN A","8502801","2021-12-08 23:00","2021","12","08","23:00"
"-61.68","56.55","NAIN A","8502801","2021-12-09 00:00","2021","12","09","00:00"
"-61.68","56.55","NAIN A","8502801","2021-12-09 01:00","2021","12","09","01:00"
"-61.68","56.55","NAIN A","8502801","2021-12-09 02:00","2021","12","09","02:00"
"-61.68","56.55","NAIN A","8502801","2021-12-09 03:00","2021","12","09","03:00"
"-61.68","56.55","NAIN A","8502801","2021-12-09 04:00","2021","12","09","04:00"
"-61.68","56.55","NAIN A","8502801","2021-12-09 05:00","2021","12","09","05:00","-9.2","","-14.0","","69","","","","30","","52","","24.1","","101.38","","","","-21","","Clear"
"-61.68","56.55","NAIN A","8502801","2021-12-09 06:00","2021","12","09","06:00","-9.0","","-13.7","","69","","","","30","","41","","24.1","","101.43","","","","-20","","NA"
"-61.68","56.55","NAIN A","8502801","2021-12-09 07:00","2021","12","09","07:00","-8.9","","-13.8","","68","","","","30","","41","","24.1","","101.44","","","","-19","","NA"
"-61.68","56.55","NAIN A","8502801","2021-12-09 08:00","2021","12","09","08:00"
"-61.68","56.55","NAIN A","8502801","2021-12-09 09:00","2021","12","09","09:00","-10.0","","-15.6","","64","","","","28","","25","","24.1","","101.55","","","","-19","","NA"
"-61.68","56.55","NAIN A","8502801","2021-12-09 10:00","2021","12","09","10:00","-9.4","","-15.6","","61","","","","30","","31","","24.1","","101.53","","","","-19","","NA"
"-61.68","56.55","NAIN A","8502801","2021-12-09 11:00","2021","12","09","11:00","-8.4","","-13.6","","67","","","","30","","49","","24.1","","101.45","","","","-20","","Clear"
"-61.68","56.55","NAIN A","8502801","2021-12-09 12:00","2021","12","09","12:00","-8.1","","-13.6","","65","","","","31","","45","","24.1","","101.41","","","","-19","","NA"
"-61.68","56.55","NAIN A","8502801","2021-12-09 13:00","2021","12","09","13:00","-8.0","","-13.3","","66","","","","30","","37","","24.1","","101.38","","","","-18","","NA"
"-61.68","56.55","NAIN A","8502801","2021-12-09 14:00","2021","12","09","14:00","-7.5","","-13.3","","63","","","","30","","39","","24.1","","101.36","","","","-17","","Clear"
"-61.68","56.55","NAIN A","8502801","2021-12-09 15:00","2021","12","09","15:00","-8.3","","-13.7","","65","","","","30","","48","","24.1","","101.39","","","","-19","","NA"
"-61.68","56.55","NAIN A","8502801","2021-12-09 16:00","2021","12","09","16:00","-9.1","","-14.5","","65","","","","29","","39","","24.1","","101.46","","","","-19","","NA"
"-61.68","56.55","NAIN A","8502801","2021-12-09 17:00","2021","12","09","17:00","-9.0","","-13.8","","69","","","","30","","44","","24.1","","101.42","","","","-20","","Clear"
"-61.68","56.55","NAIN A","8502801","2021-12-09 18:00","2021","12","09","18:00","-9.3","","-14.3","","67","","","","30","","46","","24.1","","101.41","","","","-20","","NA"
"-61.68","56.55","NAIN A","8502801","2021-12-09 19:00","2021","12","09","19:00","-9.3","","-13.7","","71","","","","30","","45","","24.1","","101.36","","","","-20","","NA"
"-61.68","56.55","NAIN A","8502801","2021-12-09 20:00","2021","12","09","20:00","-9.3","","-13.7","","71","","","","30","","51","","24.1","","101.39","","","","-21","","Clear"
"-61.68","56.55","NAIN A","8502801","2021-12-09 21:00","2021","12","09","21:00"
"-61.68","56.55","NAIN A","8502801","2021-12-09 22:00","2021","12","09","22:00"
"-61.68","56.55","NAIN A","8502801","2021-12-09 23:00","2021","12","09","23:00"
"-61.68","56.55","NAIN A","8502801","2021-12-10 00:00","2021","12","10","00:00"
"-61.68","56.55","NAIN A","8502801","2021-12-10 01:00","2021","12","10","01:00"
"-61.68","56.55","NAIN A","8502801","2021-12-10 02:00","2021","12","10","02:00"
"-61.68","56.55","NAIN A","8502801","2021-12-10 03:00","2021","12","10","03:00"
"-61.68","56.55","NAIN A","8502801","2021-12-10 04:00","2021","12","10","04:00"
"-61.68","56.55","NAIN A","8502801","2021-12-10 05:00","2021","12","10","05:00","-11.7","","-17.3","","63","","","","28","","52","","24.1","","101.33","","","","-24","","Blowing Snow"
"-61.68","56.55","NAIN A","8502801","2021-12-10 06:00","2021","12","10","06:00","-12.6","","-18.4","","62","","","","28","","48","","24.1","","101.31","","","","-25","","Blowing Snow"
"-61.68","56.55","NAIN A","8502801","2021-12-10 07:00","2021","12","10","07:00","-13.5","","-19.3","","62","","","","28","","42","","24.1","","101.32","","","","-26","","NA"
"-61.68","56.55","NAIN A","8502801","2021-12-10 08:00","2021","12","10","08:00","-13.7","","-19.7","","61","","","","28","","37","","24.1","","101.33","","","","-25","","Mainly Clear"
"-61.68","56.55","NAIN A","8502801","2021-12-10 09:00","2021","12","10","09:00","-13.7","","-19.9","","60","","","","26","","31","","24.1","","101.39","","","","-25","","NA"
"-61.68","56.55","NAIN A","8502801","2021-12-10 10:00","2021","12","10","10:00","-14.0","","-20.1","","61","","","","27","","25","","24.1","","101.43","","","","-24","","NA"
"-61.68","56.55","NAIN A","8502801","2021-12-10 11:00","2021","12","10","11:00","-14.0","","-19.6","","63","","","","27","","22","","24.1","","101.38","","","","-23","","Mostly Cloudy"
"-61.68","56.55","NAIN A","8502801","2021-12-10 12:00","2021","12","10","12:00","-13.4","","-18.8","","65","","","","29","","48","","24.1","","101.28","","","","-26","","NA"
"-61.68","56.55","NAIN A","8502801","2021-12-10 13:00","2021","12","10","13:00","-14.1","","-21.8","","53","","","","28","","45","","24.1","","101.25","","","","-27","","NA"
"-61.68","56.55","NAIN A","8502801","2021-12-10 14:00","2021","12","10","14:00","-13.9","","-21.9","","51","","","","25","","24","","24.1","","101.24","","","","-24","","Clear"
"-61.68","56.55","NAIN A","8502801","2021-12-10 15:00","2021","12","10","15:00","-13.3","","-20.6","","55","","","","29","","50","","24.1","","101.25","","","","-26","","NA"
"-61.68","56.55","NAIN A","8502801","2021-12-10 16:00","2021","12","10","16:00","-15.1","","-21.8","","57","","","","25","","34","","24.1","","101.32","","","","-27","","NA"
"-61.68","56.55","NAIN A","8502801","2021-12-10 17:00","2021","12","10","17:00","-16.7","","-22.8","","60","","","","19","","16","","24.1","","101.37","","","","-25","","Clear"
"-61.68","56.55","NAIN A","8502801","2021-12-10 18:00","2021","12","10","18:00","-14.2","","-22.0","","52","","","","28","","28","","24.1","","101.32","","","","-25","","NA"
"-61.68","56.55","NAIN A","8502801","2021-12-10 19:00","2021","12","10","19:00","-14.0","","-22.1","","51","","","","28","","42","","24.1","","101.22","","","","-26","","NA"
"-61.68","56.55","NAIN A","8502801","2021-12-10 20:00","2021","12","10","20:00","-14.6","","-22.4","","52","","","","28","","34","","24.1","","101.19","","","","-26","","Clear"
"-61.68","56.55","NAIN A","8502801","2021-12-10 21:00","2021","12","10","21:00"
"-61.68","56.55","NAIN A","8502801","2021-12-10 22:00","2021","12","10","22:00"
"-61.68","56.55","NAIN A","8502801","2021-12-10 23:00","2021","12","10","23:00"
"-61.68","56.55","NAIN A","8502801","2021-12-11 00:00","2021","12","11","00:00"
"-61.68","56.55","NAIN A","8502801","2021-12-11 01:00","2021","12","11","01:00"
"-61.68","56.55","NAIN A","8502801","2021-12-11 02:00","2021","12","11","02:00"
"-61.68","56.55","NAIN A","8502801","2021-12-11 03:00","2021","12","11","03:00"
"-61.68","56.55","NAIN A","8502801","2021-12-11 04:00","2021","12","11","04:00"
"-61.68","56.55","NAIN A","8502801","2021-12-11 05:00","2021","12","11","05:00","-15.6","","-21.9","","59","","","","22","","12","","24.1","","100.88","","","","-23","","Mainly Clear"
"-61.68","56.55","NAIN A","8502801","2021-12-11 06:00","2021","12","11","06:00","-15.9","","-21.6","","62","","","","22","","14","","24.1","","100.85","","","","-24","","NA"
"-61.68","56.55","NAIN A","8502801","2021-12-11 07:00","2021","12","11","07:00","-15.0","","-21.1","","60","","","","23","","9","","24.1","","100.83","","","","-21","","NA"
"-61.68","56.55","NAIN A","8502801","2021-12-11 08:00","2021","12","11","08:00","-14.4","","-20.0","","63","","","","23","","9","","24.1","","100.82","","","","-20","","Mostly Cloudy"
"-61.68","56.55","NAIN A","8502801","2021-12-11 09:00","2021","12","11","09:00","-14.7","","-19.9","","65","","","","19","","15","","24.1","","100.86","","","","-23","","NA"
"-61.68","56.55","NAIN A","8502801","2021-12-11 10:00","2021","12","11","10:00","-13.8","","-18.9","","66","","","","26","","14","","24.1","","100.85","","","","-21","","NA"
"-61.68","56.55","NAIN A","8502801","2021-12-11 11:00","2021","12","11","11:00","-11.8","","-17.1","","65","","","","28","","19","","24.1","","100.82","","","","-20","","Mainly Clear"
"-61.68","56.55","NAIN A","8502801","2021-12-11 12:00","2021","12","11","12:00","-12.1","","-17.7","","63","","","","27","","16","","22.5","","100.73","","","","-20","","NA"
"-61.68","56.55","NAIN A","8502801","2021-12-11 13:00","2021","12","11","13:00","-11.6","","-17.9","","60","","","","27","","30","","24.1","","100.72","","","","-22","","NA"
"-61.68","56.55","NAIN A","8502801","2021-12-11 14:00","2021","12","11","14:00","-11.3","","-17.4","","61","","","","27","","17","","24.1","","100.74","","","","-19","","Clear"
"-61.68","56.55","NAIN A","8502801","2021-12-11 15:00","2021","12","11","15:00","-11.0","","-16.4","","65","","","","28","","39","","24.1","","100.80","","","","-22","","NA"
"-61.68","56.55","NAIN A","8502801","2021-12-11 16:00","2021","12","11","16:00","-10.9","","-16.3","","65","","","","28","","29","","24.1","","100.89","","","","-21","","NA"
"-61.68","56.55","NAIN A","8502801","2021-12-11 17:00","2021","12","11","17:00","-11.9","","-17.1","","66","","","","23","","13","","24.1","","100.88","","","","-19","","Clear"
"-61.68","56.55","NAIN A","8502801","2021-12-11 18:00","2021","12","11","18:00","-10.8","","-15.8","","67","","","","25","","10","","24.1","","100.78","","","","-16","","NA"
"-61.68","56.55","NAIN A","8502801","2021-12-11 19:00","2021","12","11","19:00","-10.4","","-15.9","","65","","","","27","","17","","24.1","","100.75","","","","-18","","NA"
"-61.68","56.55","NAIN A","8502801","2021-12-11 20:00","2021","12","11","20:00","-11.4","","-17.3","","62","","","","21","","17","","24.1","","100.75","","","","-19","","Clear"
"-61.68","56.55","NAIN A","8502801","2021-12-11 21:00","2021","12","11","21:00"
"-61.68","56.55","NAIN A","8502801","2021-12-11 22:00","2021","12","11","22:00"
"-61.68","56.55","NAIN A","8502801","2021-12-11 23:00","2021","12","11","23:00"
"-61.68","56.55","NAIN A","8502801","2021-12-12 00:00","2021","12","12","00:00"
"-61.68","56.55","NAIN A","8502801","2021-12-12 01:00","2021","12","12","01:00"
"-61.68","56.55","NAIN A","8502801","2021-12-12 02:00","2021","12","12","02:00"
"-61.68","56.55","NAIN A","8502801","2021-12-12 03:00","2021","12","12","03:00"
"-61.68","56.55","NAIN A","8502801","2021-12-12 04:00","2021","12","12","04:00"
"-61.68","56.55","NAIN A","8502801","2021-12-12 05:00","2021","12","12","05:00","-8.1","","-11.3","","78","","","","13","","12","","24.1","","99.66","","","","-14","","Cloudy"
"-61.68","56.55","NAIN A","8502801","2021-12-12 06:00","2021","12","12","06:00","-7.1","","-10.3","","78","","","","13","","27","","24.1","","99.42","","","","-15","","NA"
"-61.68","56.55","NAIN A","8502801","2021-12-12 07:00","2021","12","12","07:00","-6.3","","-9.2","","80","","","","13","","30","","24.1","","99.12","","","","-15","","Snow"
"-61.68","56.55","NAIN A","8502801","2021-12-12 08:00","2021","12","12","08:00","-5.2","","-7.9","","81","","","","11","","34","","24.1","","98.90","","","","-14","","Snow"
"-61.68","56.55","NAIN A","8502801","2021-12-12 09:00","2021","12","12","09:00","-4.7","","-7.0","","84","","","","10","","39","","1.6","","98.62","","","","-14","","Snow"
"-61.68","56.55","NAIN A","8502801","2021-12-12 10:00","2021","12","12","10:00","-4.5","","-6.0","","90","","","","10","","42","","1.0","","98.38","","","","-14","","Snow"
"-61.68","56.55","NAIN A","8502801","2021-12-12 11:00","2021","12","12","11:00","-4.4","","-5.8","","90","","","","12","","31","","1.2","","98.21","","","","-12","","Snow"
"-61.68","56.55","NAIN A","8502801","2021-12-12 12:00","2021","12","12","12:00","-4.0","","-5.4","","90","","","","10","","39","","1.0","","97.97","","","","-13","","Snow"
"-61.68","56.55","NAIN A","8502801","2021-12-12 13:00","2021","12","12","13:00","-3.6","","-5.0","","90","","","","10","","48","","1.6","","97.73","","","","-13","","Snow"
"-61.68","56.55","NAIN A","8502801","2021-12-12 14:00","2021","12","12","14:00","-3.2","","-4.3","","92","","","","10","","46","","1.6","","97.56","","","","-12","","Snow"
"-61.68","56.55","NAIN A","8502801","2021-12-12 15:00","2021","12","12","15:00","-2.9","","-4.4","","89","","","","10","","39","","2.0","","97.44","","","","-11","","Snow"
"-61.68","56.55","NAIN A","8502801","2021-12-12 16:00","2021","12","12","16:00","-2.7","","-3.9","","91","","","","8","","34","","1.6","","97.33","","","","-10","","Snow"
"-61.68","56.55","NAIN A","8502801","2021-12-12 17:00","2021","12","12","17:00","-2.5","","-3.7","","92","","","","7","","27","","1.6","","97.25","","","","-9","","Snow"
"-61.68","56.55","NAIN A","8502801","2021-12-12 18:00","2021","12","12","18:00","-2.4","","-3.5","","92","","","","6","","26","","1.6","","97.18","","","","-9","","Snow"
"-61.68","56.55","NAIN A","8502801","2021-12-12 19:00","2021","12","12","19:00","-2.1","","-3.3","","92","","","","2","","17","","2.0","","97.15","","","","-7","","Snow"
"-61.68","56.55","NAIN A","8502801","2021-12-12 20:00","2021","12","12","20:00","-2.2","","-3.2","","93","","","","33","","14","","11.3","","97.15","","","","-7","","Snow"
"-61.68","56.55","NAIN A","8502801","2021-12-12 21:00","2021","12","12","21:00"
"-61.68","56.55","NAIN A","8502801","2021-12-12 22:00","2021","12","12","22:00"
"-61.68","56.55","NAIN A","8502801","2021-12-12 23:00","2021","12","12","23:00"
"-61.68","56.55","NAIN A","8502801","2021-12-13 00:00","2021","12","13","00:00"
"-61.68","56.55","NAIN A","8502801","2021-12-13 01:00","2021","12","13","01:00"
"-61.68","56.55","NAIN A","8502801","2021-12-13 02:00","2021","12","13","02:00"
"-61.68","56.55","NAIN A","8502801","2021-12-13 03:00","2021","12","13","03:00"
"-61.68","56.55","NAIN A","8502801","2021-12-13 04:00","2021","12","13","04:00"
"-61.68","56.55","NAIN A","8502801","2021-12-13 05:00","2021","12","13","05:00","-1.5","","-2.5","","93","","","","1","","26","","3.2","","97.78","","","","-8","","Snow"
"-61.68","56.55","NAIN A","8502801","2021-12-13 06:00","2021","12","13","06:00","-1.5","","-3.5","","86","","","","35","","30","","16.1","","97.94","","","","-8","","Snow Showers"
"-61.68","56.55","NAIN A","8502801","2021-12-13 07:00","2021","12","13","07:00","-1.8","","-3.8","","86","","","","35","","26","","6.4","","98.09","","","","-8","","Snow Showers"
"-61.68","56.55","NAIN A","8502801","2021-12-13 08:00","2021","12","13","08:00","-2.1","","-4.7","","83","","","","29","","29","","24.1","","98.20","","","","-9","","Snow Showers"
"-61.68","56.55","NAIN A","8502801","2021-12-13 09:00","2021","12","13","09:00","-2.3","","-5.5","","78","","","","31","","29","","24.1","","98.33","","","","-9","","NA"
"-61.68","56.55","NAIN A","8502801","2021-12-13 10:00","2021","12","13","10:00","-2.4","","-6.3","","74","","","","31","","28","","24.1","","98.44","","","","-9","","NA"
"-61.68","56.55","NAIN A","8502801","2021-12-13 11:00","2021","12","13","11:00","-2.2","","-6.8","","71","","","","30","","30","","24.1","","98.52","","","","-9","","Cloudy"
"-61.68","56.55","NAIN A","8502801","2021-12-13 12:00","2021","12","13","12:00","-2.2","","-7.1","","69","","","","30","","35","","24.1","","98.58","","","","-10","","NA"
"-61.68","56.55","NAIN A","8502801","2021-12-13 13:00","2021","12","13","13:00","-2.5","","-6.7","","73","","","","30","","41","","24.1","","98.68","","","","-11","","NA"
"-61.68","56.55","NAIN A","8502801","2021-12-13 14:00","2021","12","13","14:00","-2.1","","-7.3","","68","","","","30","","42","","24.1","","98.76","","","","-10","","Cloudy"
"-61.68","56.55","NAIN A","8502801","2021-12-13 15:00","2021","12","13","15:00","-2.6","","-7.3","","70","","","","30","","36","","24.1","","98.87","","","","-10","","NA"
"-61.68","56.55","NAIN A","8502801","2021-12-13 16:00","2021","12","13","16:00","-3.5","","-8.3","","70","","","","29","","36","","24.1","","98.97","","","","-12","","NA"
"-61.68","56.55","NAIN A","8502801","2021-12-13 17:00","2021","12","13","17:00","-3.8","","-8.0","","73","","","","30","","39","","24.1","","99.04","","","","-12","","Mostly Cloudy"
"-61.68","56.55","NAIN A","8502801","2021-12-13 18:00","2021","12","13","18:00","-4.4","","-8.8","","72","","","","29","","40","","24.1","","99.11","","","","-13","","NA"
"-61.68","56.55","NAIN A","8502801","2021-12-13 19:00","2021","12","13","19:00","-5.2","","-9.7","","71","","","","29","","32","","24.1","","99.17","","","","-13","","NA"
"-61.68","56.55","NAIN A","8502801","2021-12-13 20:00","2021","12","13","20:00","-5.7","","-10.5","","69","","","","29","","43","","24.1","","99.24","","","","-15","","Mostly Cloudy"
"-61.68","56.55","NAIN A","8502801","2021-12-13 21:00","2021","12","13","21:00"
"-61.68","56.55","NAIN A","8502801","2021-12-13 22:00","2021","12","13","22:00"
"-61.68","56.55","NAIN A","8502801","2021-12-13 23:00","2021","12","13","23:00"
"-61.68","56.55","NAIN A","8502801","2021-12-14 00:00","2021","12","14","00:00"
"-61.68","56.55","NAIN A","8502801","2021-12-14 01:00","2021","12","14","01:00"
"-61.68","56.55","NAIN A","8502801","2021-12-14 02:00","2021","12","14","02:00"
"-61.68","56.55","NAIN A","8502801","2021-12-14 03:00","2021","12","14","03:00"
"-61.68","56.55","NAIN A","8502801","2021-12-14 04:00","2021","12","14","04:00"
"-61.68","56.55","NAIN A","8502801","2021-12-14 05:00","2021","12","14","05:00","-6.6","","-11.7","","67","","","","29","","40","","24.1","","99.67","","","","-16","","Mostly Cloudy"
"-61.68","56.55","NAIN A","8502801","2021-12-14 06:00","2021","12","14","06:00","-6.7","","-11.6","","68","","","","29","","46","","24.1","","99.73","","","","-17","","NA"
"-61.68","56.55","NAIN A","8502801","2021-12-14 07:00","2021","12","14","07:00","-6.9","","-12.2","","66","","","","30","","50","","24.1","","99.81","","","","-18","","NA"
"-61.68","56.55","NAIN A","8502801","2021-12-14 08:00","2021","12","14","08:00","-7.2","","-12.2","","68","","","","30","","57","","24.1","","99.87","","","","-19","","Mostly Cloudy"
"-61.68","56.55","NAIN A","8502801","2021-12-14 09:00","2021","12","14","09:00","-7.4","","-12.2","","69","","","","30","","47","","40.2","","99.91","","","","-18","","NA"
"-61.68","56.55","NAIN A","8502801","2021-12-14 10:00","2021","12","14","10:00","-7.7","","-12.7","","68","","","","30","","63","","24.1","","99.98","","","","-20","","NA"
"-61.68","56.55","NAIN A","8502801","2021-12-14 11:00","2021","12","14","11:00","-7.8","","-12.5","","69","","","","30","","59","","24.1","","99.99","","","","-19","","Blowing Snow"
"-61.68","56.55","NAIN A","8502801","2021-12-14 12:00","2021","12","14","12:00","-8.0","","-13.1","","67","","","","30","","61","","24.1","","100.05","","","","-20","","Blowing Snow"
"-61.68","56.55","NAIN A","8502801","2021-12-14 13:00","2021","12","14","13:00","-8.0","","-12.3","","71","","","","30","","61","","24.1","","100.06","","","","-20","","Blowing Snow"
"-61.68","56.55","NAIN A","8502801","2021-12-14 14:00","2021","12","14","14:00","-7.9","","-12.0","","72","","","","31","","57","","24.1","","100.12","","","","-19","","Blowing Snow"
"-61.68","56.55","NAIN A","8502801","2021-12-14 15:00","2021","12","14","15:00","-8.0","","-12.0","","73","","","","30","","59","","24.1","","100.20","","","","-20","","Blowing Snow"
"-61.68","56.55","NAIN A","8502801","2021-12-14 16:00","2021","12","14","16:00","-8.0","","-12.1","","72","","","","31","","58","","24.1","","100.33","","","","-20","","Blowing Snow"
"-61.68","56.55","NAIN A","8502801","2021-12-14 17:00","2021","12","14","17:00","-8.3","","-12.8","","70","","","","30","","67","","24.1","","100.41","","","","-21","","Blowing Snow"
"-61.68","56.55","NAIN A","8502801","2021-12-14 18:00","2021","12","14","18:00","-8.2","","-12.9","","69","","","","31","","62","","24.1","","100.49","","","","-20","","Blowing Snow"
"-61.68","56.55","NAIN A","8502801","2021-12-14 19:00","2021","12","14","19:00","-8.3","","-13.1","","69","","","","31","","65","","24.1","","100.55","","","","-21","","Blowing Snow"
"-61.68","56.55","NAIN A","8502801","2021-12-14 20:00","2021","12","14","20:00","-8.3","","-12.9","","70","","","","31","","64","","24.1","","100.65","","","","-21","","Blowing Snow"
"-61.68","56.55","NAIN A","8502801","2021-12-14 21:00","2021","12","14","21:00"
"-61.68","56.55","NAIN A","8502801","2021-12-14 22:00","2021","12","14","22:00"
"-61.68","56.55","NAIN A","8502801","2021-12-14 23:00","2021","12","14","23:00"
"-61.68","56.55","NAIN A","8502801","2021-12-15 00:00","2021","12","15","00:00"
"-61.68","56.55","NAIN A","8502801","2021-12-15 01:00","2021","12","15","01:00"
"-61.68","56.55","NAIN A","8502801","2021-12-15 02:00","2021","12","15","02:00"
"-61.68","56.55","NAIN A","8502801","2021-12-15 03:00","2021","12","15","03:00"
"-61.68","56.55","NAIN A","8502801","2021-12-15 04:00","2021","12","15","04:00"
"-61.68","56.55","NAIN A","8502801","2021-12-15 05:00","2021","12","15","05:00","-10.6","","-15.2","","69","","","","30","","70","","24.1","","101.45","","","","-24","","Blowing Snow"
"-61.68","56.55","NAIN A","8502801","2021-12-15 06:00","2021","12","15","06:00","-10.6","","-15.2","","69","","","","30","","61","","24.1","","101.56","","","","-24","","Blowing Snow"
"-61.68","56.55","NAIN A","8502801","2021-12-15 07:00","2021","12","15","07:00","-11.2","","-16.6","","65","","","","30","","68","","24.1","","101.63","","","","-25","","Blowing Snow"
"-61.68","56.55","NAIN A","8502801","2021-12-15 08:00","2021","12","15","08:00","-11.2","","-16.1","","68","","","","30","","56","","24.1","","101.63","","","","-24","","Blowing Snow"
"-61.68","56.55","NAIN A","8502801","2021-12-15 09:00","2021","12","15","09:00","-10.8","","-15.8","","67","","","","30","","61","","24.1","","101.67","","","","-24","","NA"
"-61.68","56.55","NAIN A","8502801","2021-12-15 10:00","2021","12","15","10:00","-10.9","","-15.5","","69","","","","30","","57","","24.1","","101.71","","","","-24","","NA"
"-61.68","56.55","NAIN A","8502801","2021-12-15 11:00","2021","12","15","11:00","-10.7","","-15.3","","69","","","","30","","64","","24.1","","101.72","","","","-24","","Clear"
"-61.68","56.55","NAIN A","8502801","2021-12-15 12:00","2021","12","15","12:00","-11.1","","-16.4","","65","","","","30","","65","","24.1","","101.79","","","","-25","","NA"
"-61.68","56.55","NAIN A","8502801","2021-12-15 13:00","2021","12","15","13:00","-10.8","","-16.1","","66","","","","30","","64","","24.1","","101.79","","","","-24","","NA"
"-61.68","56.55","NAIN A","8502801","2021-12-15 14:00","2021","12","15","14:00","-11.1","","-16.1","","67","","","","30","","66","","24.1","","101.80","","","","-25","","Mainly Clear"
"-61.68","56.55","NAIN A","8502801","2021-12-15 15:00","2021","12","15","15:00","-10.9","","-15.7","","68","","","","30","","64","","24.1","","101.83","","","","-24","","NA"
"-61.68","56.55","NAIN A","8502801","2021-12-15 16:00","2021","12","15","16:00","-10.9","","-16.2","","65","","","","30","","61","","24.1","","101.89","","","","-24","","NA"
"-61.68","56.55","NAIN A","8502801","2021-12-15 17:00","2021","12","15","17:00","-10.7","","-16.1","","65","","","","30","","64","","24.1","","101.93","","","","-24","","Clear"
"-61.68","56.55","NAIN A","8502801","2021-12-15 18:00","2021","12","15","18:00","-10.8","","-15.6","","68","","","","30","","44","","24.1","","101.95","","","","-22","","NA"
"-61.68","56.55","NAIN A","8502801","2021-12-15 19:00","2021","12","15","19:00","-11.4","","-17.1","","63","","","","29","","57","","24.1","","101.92","","","","-24","","NA"
"-61.68","56.55","NAIN A","8502801","2021-12-15 20:00","2021","12","15","20:00","-10.8","","-15.7","","67","","","","30","","48","","24.1","","101.91","","","","-23","","Clear"
"-61.68","56.55","NAIN A","8502801","2021-12-15 21:00","2021","12","15","21:00"
"-61.68","56.55","NAIN A","8502801","2021-12-15 22:00","2021","12","15","22:00"
"-61.68","56.55","NAIN A","8502801","2021-12-15 23:00","2021","12","15","23:00"
"-61.68","56.55","NAIN A","8502801","2021-12-16 00:00","2021","12","16","00:00"
"-61.68","56.55","NAIN A","8502801","2021-12-16 01:00","2021","12","16","01:00"
"-61.68","56.55","NAIN A","8502801","2021-12-16 02:00","2021","12","16","02:00"
"-61.68","56.55","NAIN A","8502801","2021-12-16 03:00","2021","12","16","03:00"
"-61.68","56.55","NAIN A","8502801","2021-12-16 04:00","2021","12","16","04:00"
"-61.68","56.55","NAIN A","8502801","2021-12-16 05:00","2021","12","16","05:00","-12.6","","-18.0","","65","","","","28","","21","","24.1","","101.75","","","","-21","","Clear"
"-61.68","56.55","NAIN A","8502801","2021-12-16 06:00","2021","12","16","06:00","-12.7","","-18.0","","65","","","","28","","17","","24.1","","101.73","","","","-21","","NA"
"-61.68","56.55","NAIN A","8502801","2021-12-16 07:00","2021","12","16","07:00","-12.8","","-18.4","","63","","","","27","","21","","24.1","","101.72","","","","-22","","NA"
"-61.68","56.55","NAIN A","8502801","2021-12-16 08:00","2021","12","16","08:00","-13.1","","-18.8","","63","","","","28","","15","","24.1","","101.70","","","","-21","","Clear"
"-61.68","56.55","NAIN A","8502801","2021-12-16 09:00","2021","12","16","09:00","-13.2","","-18.6","","64","","","","30","","17","","24.1","","101.71","","","","-21","","NA"
"-61.68","56.55","NAIN A","8502801","2021-12-16 10:00","2021","12","16","10:00","-13.9","","-20.2","","60","","","","25","","10","","24.1","","101.70","","","","-20","","NA"
"-61.68","56.55","NAIN A","8502801","2021-12-16 11:00","2021","12","16","11:00","-13.7","","-20.1","","59","","","","24","","6","","24.1","","101.67","","","","-18","","Clear"
"-61.68","56.55","NAIN A","8502801","2021-12-16 12:00","2021","12","16","12:00","-13.0","","-19.5","","59","","","","22","","3","","24.1","","101.57","","","","-15","","NA"
"-61.68","56.55","NAIN A","8502801","2021-12-16 13:00","2021","12","16","13:00","-12.7","","-19.5","","57","","","","21","","8","","24.1","","101.46","","","","-18","","NA"
"-61.68","56.55","NAIN A","8502801","2021-12-16 14:00","2021","12","16","14:00","-13.5","","-20.0","","58","","","","25","","16","","24.1","","101.43","","","","-21","","Mostly Cloudy"
"-61.68","56.55","NAIN A","8502801","2021-12-16 15:00","2021","12","16","15:00","-13.0","","-18.1","","66","","","","25","","14","","24.1","","101.41","","","","-20","","NA"
"-61.68","56.55","NAIN A","8502801","2021-12-16 16:00","2021","12","16","16:00","-13.7","","-18.9","","65","","","","21","","8","","24.1","","101.32","","","","-19","","NA"
"-61.68","56.55","NAIN A","8502801","2021-12-16 17:00","2021","12","16","17:00","-13.3","","-17.9","","68","","","","20","","11","","24.1","","101.27","","","","-20","","Cloudy"
"-61.68","56.55","NAIN A","8502801","2021-12-16 18:00","2021","12","16","18:00","-12.0","","-16.8","","67","","","","17","","12","","24.1","","101.18","","","","-18","","NA"
"-61.68","56.55","NAIN A","8502801","2021-12-16 19:00","2021","12","16","19:00","-11.4","","-16.0","","69","","","","36","","1","","22.5","","101.09","","","","-12","","NA"
"-61.68","56.55","NAIN A","8502801","2021-12-16 20:00","2021","12","16","20:00","-9.4","","-14.1","","69","","","","6","","13","","24.1","","100.85","","","","-15","","Cloudy"
"-61.68","56.55","NAIN A","8502801","2021-12-16 21:00","2021","12","16","21:00"
"-61.68","56.55","NAIN A","8502801","2021-12-16 22:00","2021","12","16","22:00"
"-61.68","56.55","NAIN A","8502801","2021-12-16 23:00","2021","12","16","23:00"
"-61.68","56.55","NAIN A","8502801","2021-12-17 00:00","2021","12","17","00:00"
"-61.68","56.55","NAIN A","8502801","2021-12-17 01:00","2021","12","17","01:00"
"-61.68","56.55","NAIN A","8502801","2021-12-17 02:00","2021","12","17","02:00"
"-61.68","56.55","NAIN A","8502801","2021-12-17 03:00","2021","12","17","03:00"
"-61.68","56.55","NAIN A","8502801","2021-12-17 04:00","2021","12","17","04:00"
"-61.68","56.55","NAIN A","8502801","2021-12-17 05:00","2021","12","17","05:00","-4.2","","-6.4","","85","","","","16","","48","","9.7","","99.31","","","","-14","","Snow"
"-61.68","56.55","NAIN A","8502801","2021-12-17 06:00","2021","12","17","06:00","-3.4","","-5.4","","86","","","","15","","40","","4.0","","99.18","","","","-12","","Snow"
"-61.68","56.55","NAIN A","8502801","2021-12-17 07:00","2021","12","17","07:00","-2.9","","-4.6","","88","","","","14","","40","","1.6","","99.13","","","","-11","","Snow"
"-61.68","56.55","NAIN A","8502801","2021-12-17 08:00","2021","12","17","08:00","-2.2","","-4.4","","85","","","","15","","44","","19.3","","99.05","","","","-11","","Snow"
"-61.68","56.55","NAIN A","8502801","2021-12-17 09:00","2021","12","17","09:00","-1.9","","-4.0","","85","","","","14","","29","","24.1","","98.99","","","","-9","","NA"
"-61.68","56.55","NAIN A","8502801","2021-12-17 10:00","2021","12","17","10:00","-1.8","","-3.8","","86","","","","14","","35","","24.1","","98.92","","","","-9","","NA"
"-61.68","56.55","NAIN A","8502801","2021-12-17 11:00","2021","12","17","11:00","-1.8","","-3.5","","88","","","","14","","42","","24.1","","98.84","","","","-10","","Cloudy"
"-61.68","56.55","NAIN A","8502801","2021-12-17 12:00","2021","12","17","12:00","-1.6","","-3.3","","88","","","","15","","46","","6.4","","98.77","","","","-10","","Snow"
"-61.68","56.55","NAIN A","8502801","2021-12-17 13:00","2021","12","17","13:00","-1.6","","-3.4","","87","","","","15","","55","","6.4","","98.62","","","","-11","","Snow"
"-61.68","56.55","NAIN A","8502801","2021-12-17 14:00","2021","12","17","14:00","-1.8","","-3.4","","89","","","","15","","60","","2.4","","98.56","","","","-11","","Snow"
"-61.68","56.55","NAIN A","8502801","2021-12-17 15:00","2021","12","17","15:00","-1.8","","-3.3","","89","","","","15","","53","","2.4","","98.51","","","","-11","","Snow"
"-61.68","56.55","NAIN A","8502801","2021-12-17 16:00","2021","12","17","16:00","-2.0","","-3.2","","91","","","","14","","34","","2.4","","98.51","","","","-10","","Snow"
"-61.68","56.55","NAIN A","8502801","2021-12-17 17:00","2021","12","17","17:00","-1.7","","-3.0","","91","","","","13","","23","","2.4","","98.50","","","","-8","","Snow"
"-61.68","56.55","NAIN A","8502801","2021-12-17 18:00","2021","12","17","18:00","-1.4","","-3.0","","89","","","","14","","30","","9.7","","98.49","","","","-8","","Snow"
"-61.68","56.55","NAIN A","8502801","2021-12-17 19:00","2021","12","17","19:00","-1.4","","-2.6","","92","","","","14","","27","","9.7","","98.48","","","","-8","","Snow"
"-61.68","56.55","NAIN A","8502801","2021-12-17 20:00","2021","12","17","20:00","-1.3","","-2.5","","92","","","","14","","15","","9.7","","98.48","","","","-6","","Snow"
"-61.68","56.55","NAIN A","8502801","2021-12-17 21:00","2021","12","17","21:00"
"-61.68","56.55","NAIN A","8502801","2021-12-17 22:00","2021","12","17","22:00"
"-61.68","56.55","NAIN A","8502801","2021-12-17 23:00","2021","12","17","23:00"
"-61.68","56.55","NAIN A","8502801","2021-12-18 00:00","2021","12","18","00:00"
"-61.68","56.55","NAIN A","8502801","2021-12-18 01:00","2021","12","18","01:00"
"-61.68","56.55","NAIN A","8502801","2021-12-18 02:00","2021","12","18","02:00"
"-61.68","56.55","NAIN A","8502801","2021-12-18 03:00","2021","12","18","03:00"
"-61.68","56.55","NAIN A","8502801","2021-12-18 04:00","2021","12","18","04:00"
"-61.68","56.55","NAIN A","8502801","2021-12-18 05:00","2021","12","18","05:00","-3.6","","-8.0","","71","","","","28","","38","","24.1","","98.90","","","","-12","","Cloudy"
"-61.68","56.55","NAIN A","8502801","2021-12-18 06:00","2021","12","18","06:00","-3.6","","-7.0","","77","","","","28","","28","","24.1","","98.99","","","","-11","","NA"
"-61.68","56.55","NAIN A","8502801","2021-12-18 07:00","2021","12","18","07:00","-4.5","","-8.4","","74","","","","29","","53","","24.1","","99.11","","","","-15","","NA"
"-61.68","56.55","NAIN A","8502801","2021-12-18 08:00","2021","12","18","08:00","-5.5","","-9.9","","71","","","","29","","47","","24.1","","99.23","","","","-15","","Cloudy"
"-61.68","56.55","NAIN A","8502801","2021-12-18 09:00","2021","12","18","09:00","-6.5","","-11.0","","71","","","","29","","55","","9.7","","99.30","","","","-17","","Snow"
"-61.68","56.55","NAIN A","8502801","2021-12-18 10:00","2021","12","18","10:00","-6.8","","-12.0","","67","","","","29","","52","","24.1","","99.37","","","","-18","","NA"
"-61.68","56.55","NAIN A","8502801","2021-12-18 11:00","2021","12","18","11:00","-7.4","","-12.6","","67","","","","29","","55","","24.1","","99.50","","","","-19","","Cloudy"
"-61.68","56.55","NAIN A","8502801","2021-12-18 12:00","2021","12","18","12:00","-8.4","","-12.9","","70","","","","29","","58","","24.1","","99.55","","","","-20","","Snow"
"-61.68","56.55","NAIN A","8502801","2021-12-18 13:00","2021","12","18","13:00","-8.5","","-13.0","","70","","","","30","","72","","20.9","","99.68","","","","-21","","Snow,Blowing Snow"
"-61.68","56.55","NAIN A","8502801","2021-12-18 14:00","2021","12","18","14:00","-8.7","","-13.2","","70","","","","30","","78","","24.1","","99.84","","","","-22","","Snow,Blowing Snow"
"-61.68","56.55","NAIN A","8502801","2021-12-18 15:00","2021","12","18","15:00","-8.7","","-13.1","","71","","","","31","","59","","22.5","","99.96","","","","-21","","Snow,Blowing Snow"
"-61.68","56.55","NAIN A","8502801","2021-12-18 16:00","2021","12","18","16:00","-8.9","","-13.5","","70","","","","30","","54","","24.1","","100.09","","","","-21","","Blowing Snow"
"-61.68","56.55","NAIN A","8502801","2021-12-18 17:00","2021","12","18","17:00","-9.0","","-14.1","","67","","","","31","","67","","24.1","","100.23","","","","-22","","Blowing Snow"
"-61.68","56.55","NAIN A","8502801","2021-12-18 18:00","2021","12","18","18:00","-9.4","","-14.3","","67","","","","30","","65","","24.1","","100.33","","","","-22","","Blowing Snow"
"-61.68","56.55","NAIN A","8502801","2021-12-18 19:00","2021","12","18","19:00","-9.4","","-14.3","","68","","","","30","","66","","24.1","","100.46","","","","-22","","NA"
"-61.68","56.55","NAIN A","8502801","2021-12-18 20:00","2021","12","18","20:00","-9.7","","-14.8","","67","","","","30","","72","","24.1","","100.57","","","","-23","","Blowing Snow"
"-61.68","56.55","NAIN A","8502801","2021-12-18 21:00","2021","12","18","21:00"
"-61.68","56.55","NAIN A","8502801","2021-12-18 22:00","2021","12","18","22:00"
"-61.68","56.55","NAIN A","8502801","2021-12-18 23:00","2021","12","18","23:00"
"-61.68","56.55","NAIN A","8502801","2021-12-19 00:00","2021","12","19","00:00"
"-61.68","56.55","NAIN A","8502801","2021-12-19 01:00","2021","12","19","01:00"
"-61.68","56.55","NAIN A","8502801","2021-12-19 02:00","2021","12","19","02:00"
"-61.68","56.55","NAIN A","8502801","2021-12-19 03:00","2021","12","19","03:00"
"-61.68","56.55","NAIN A","8502801","2021-12-19 04:00","2021","12","19","04:00"
"-61.68","56.55","NAIN A","8502801","2021-12-19 05:00","2021","12","19","05:00","-10.7","","-16.7","","62","","","","31","","55","","24.1","","101.18","","","","-23","","Blowing Snow"
"-61.68","56.55","NAIN A","8502801","2021-12-19 06:00","2021","12","19","06:00","-10.5","","-16.3","","63","","","","30","","59","","24.1","","101.18","","","","-23","","NA"
"-61.68","56.55","NAIN A","8502801","2021-12-19 07:00","2021","12","19","07:00","-10.3","","-16.1","","63","","","","31","","55","","24.1","","101.19","","","","-23","","NA"
"-61.68","56.55","NAIN A","8502801","2021-12-19 08:00","2021","12","19","08:00","-10.4","","-16.2","","63","","","","30","","59","","24.1","","101.21","","","","-23","","Mainly Clear"
"-61.68","56.55","NAIN A","8502801","2021-12-19 09:00","2021","12","19","09:00","-10.7","","-16.1","","65","","","","30","","57","","24.1","","101.17","","","","-23","","NA"
"-61.68","56.55","NAIN A","8502801","2021-12-19 10:00","2021","12","19","10:00","-10.7","","-16.1","","65","","","","30","","58","","24.1","","101.18","","","","-23","","NA"
"-61.68","56.55","NAIN A","8502801","2021-12-19 11:00","2021","12","19","11:00","-10.3","","-16.2","","62","","","","30","","47","","24.1","","101.15","","","","-22","","Mostly Cloudy"
"-61.68","56.55","NAIN A","8502801","2021-12-19 12:00","2021","12","19","12:00","-10.1","","-15.9","","63","","","","30","","53","","24.1","","101.09","","","","-22","","NA"
"-61.68","56.55","NAIN A","8502801","2021-12-19 13:00","2021","12","19","13:00","-10.2","","-16.1","","63","","","","30","","52","","24.1","","101.08","","","","-22","","NA"
"-61.68","56.55","NAIN A","8502801","2021-12-19 14:00","2021","12","19","14:00","-10.2","","-16.1","","63","","","","30","","48","","24.1","","101.09","","","","-22","","Mostly Cloudy"
"-61.68","56.55","NAIN A","8502801","2021-12-19 15:00","2021","12","19","15:00","-9.9","","-16.1","","61","","","","30","","53","","24.1","","101.11","","","","-22","","NA"
"-61.68","56.55","NAIN A","8502801","2021-12-19 16:00","2021","12","19","16:00","-9.8","","-15.9","","62","","","","31","","55","","24.1","","101.13","","","","-22","","NA"
"-61.68","56.55","NAIN A","8502801","2021-12-19 17:00","2021","12","19","17:00","-10.2","","-16.1","","62","","","","31","","53","","24.1","","101.16","","","","-22","","Mostly Cloudy"
"-61.68","56.55","NAIN A","8502801","2021-12-19 18:00","2021","12","19","18:00","-10.3","","-15.9","","64","","","","30","","52","","24.1","","101.20","","","","-22","","NA"
"-61.68","56.55","NAIN A","8502801","2021-12-19 19:00","2021","12","19","19:00","-10.4","","-15.8","","65","","","","30","","52","","24.1","","101.18","","","","-22","","NA"
"-61.68","56.55","NAIN A","8502801","2021-12-19 20:00","2021","12","19","20:00","-10.8","","-16.6","","62","","","","30","","52","","24.1","","101.22","","","","-23","","Mostly Cloudy"
"-61.68","56.55","NAIN A","8502801","2021-12-19 21:00","2021","12","19","21:00"
"-61.68","56.55","NAIN A","8502801","2021-12-19 22:00","2021","12","19","22:00"
"-61.68","56.55","NAIN A","8502801","2021-12-19 23:00","2021","12","19","23:00"
"-61.68","56.55","NAIN A","8502801","2021-12-20 00:00","2021","12","20","00:00"
"-61.68","56.55","NAIN A","8502801","2021-12-20 01:00","2021","12","20","01:00"
"-61.68","56.55","NAIN A","8502801","2021-12-20 02:00","2021","12","20","02:00"
"-61.68","56.55","NAIN A","8502801","2021-12-20 03:00","2021","12","20","03:00"
"-61.68","56.55","NAIN A","8502801","2021-12-20 04:00","2021","12","20","04:00"
"-61.68","56.55","NAIN A","8502801","2021-12-20 05:00","2021","12","20","05:00","-12.3","","-17.1","","68","","","","30","","51","","24.1","","101.12","","","","-25","","Clear"
"-61.68","56.55","NAIN A","8502801","2021-12-20 06:00","2021","12","20","06:00","-13.1","","-18.1","","67","","","","31","","52","","24.1","","101.12","","","","-26","","NA"
"-61.68","56.55","NAIN A","8502801","2021-12-20 07:00","2021","12","20","07:00","-13.8","","-19.0","","65","","","","30","","53","","24.1","","101.15","","","","-27","","NA"
"-61.68","56.55","NAIN A","8502801","2021-12-20 08:00","2021","12","20","08:00","-13.5","","-18.2","","68","","","","30","","49","","24.1","","101.12","","","","-26","","Clear"
"-61.68","56.55","NAIN A","8502801","2021-12-20 09:00","2021","12","20","09:00","-13.2","","-17.9","","68","","","","30","","50","","24.1","","101.09","","","","-26","","NA"
"-61.68","56.55","NAIN A","8502801","2021-12-20 10:00","2021","12","20","10:00","-12.7","","-17.4","","68","","","","30","","49","","24.1","","101.06","","","","-25","","NA"
"-61.68","56.55","NAIN A","8502801","2021-12-20 11:00","2021","12","20","11:00","-13.4","","-19.1","","63","","","","29","","44","","24.1","","101.01","","","","-26","","Clear"
"-61.68","56.55","NAIN A","8502801","2021-12-20 12:00","2021","12","20","12:00","-12.9","","-18.5","","63","","","","29","","36","","24.1","","101.00","","","","-24","","NA"
"-61.68","56.55","NAIN A","8502801","2021-12-20 13:00","2021","12","20","13:00","-13.2","","-18.9","","63","","","","29","","35","","24.1","","100.98","","","","-24","","NA"
"-61.68","56.55","NAIN A","8502801","2021-12-20 14:00","2021","12","20","14:00","-12.9","","-18.2","","65","","","","29","","33","","24.1","","100.98","","","","-24","","Mostly Cloudy"
"-61.68","56.55","NAIN A","8502801","2021-12-20 15:00","2021","12","20","15:00","-12.8","","-18.0","","65","","","","29","","26","","24.1","","100.98","","","","-23","","NA"
"-61.68","56.55","NAIN A","8502801","2021-12-20 16:00","2021","12","20","16:00","-14.1","","-19.7","","63","","","","28","","24","","24.1","","101.00","","","","-24","","NA"
"-61.68","56.55","NAIN A","8502801","2021-12-20 17:00","2021","12","20","17:00","-14.1","","-19.7","","63","","","","28","","24","","24.1","","100.98","","","","-24","","Mainly Clear"
"-61.68","56.55","NAIN A","8502801","2021-12-20 18:00","2021","12","20","18:00","-14.7","","-20.3","","63","","","","28","","17","","24.1","","100.96","","","","-23","","NA"
"-61.68","56.55","NAIN A","8502801","2021-12-20 19:00","2021","12","20","19:00","-14.3","","-19.8","","64","","","","28","","18","","24.1","","100.93","","","","-23","","NA"
"-61.68","56.55","NAIN A","8502801","2021-12-20 20:00","2021","12","20","20:00","-14.5","","-19.8","","64","","","","28","","19","","24.1","","100.86","","","","-23","","Clear"
"-61.68","56.55","NAIN A","8502801","2021-12-20 21:00","2021","12","20","21:00"
"-61.68","56.55","NAIN A","8502801","2021-12-20 22:00","2021","12","20","22:00"
"-61.68","56.55","NAIN A","8502801","2021-12-20 23:00","2021","12","20","23:00"
"-61.68","56.55","NAIN A","8502801","2021-12-21 00:00","2021","12","21","00:00"
"-61.68","56.55","NAIN A","8502801","2021-12-21 01:00","2021","12","21","01:00"
"-61.68","56.55","NAIN A","8502801","2021-12-21 02:00","2021","12","21","02:00"
"-61.68","56.55","NAIN A","8502801","2021-12-21 03:00","2021","12","21","03:00"
"-61.68","56.55","NAIN A","8502801","2021-12-21 04:00","2021","12","21","04:00"
"-61.68","56.55","NAIN A","8502801","2021-12-21 05:00","2021","12","21","05:00","-15.2","","-20.4","","65","","","","27","","17","","24.1","","100.36","","","","-24","","Clear"
"-61.68","56.55","NAIN A","8502801","2021-12-21 06:00","2021","12","21","06:00","-17.4","","-22.2","","67","","","","15","","4","","24.1","","100.31","","","","-21","","NA"
"-61.68","56.55","NAIN A","8502801","2021-12-21 07:00","2021","12","21","07:00","-16.0","","-20.8","","67","","","","28","","10","","24.1","","100.21","","","","-22","","NA"
"-61.68","56.55","NAIN A","8502801","2021-12-21 08:00","2021","12","21","08:00","-16.6","","-20.9","","70","","","","28","","9","","24.1","","100.17","","","","-23","","Mainly Clear"
"-61.68","56.55","NAIN A","8502801","2021-12-21 09:00","2021","12","21","09:00","-16.2","","-20.9","","67","","","","27","","7","","24.1","","100.12","","","","-21","","NA"
"-61.68","56.55","NAIN A","8502801","2021-12-21 10:00","2021","12","21","10:00","-15.5","","-20.7","","65","","","","28","","5","","24.1","","100.07","","","","-19","","NA"
"-61.68","56.55","NAIN A","8502801","2021-12-21 11:00","2021","12","21","11:00","-15.6","","-21.0","","64","","","","28","","11","","24.1","","99.98","","","","-22","","Mostly Cloudy"
"-61.68","56.55","NAIN A","8502801","2021-12-21 12:00","2021","12","21","12:00","-15.2","","-21.3","","60","","","","26","","12","","24.1","","99.90","","","","-22","","NA"
"-61.68","56.55","NAIN A","8502801","2021-12-21 13:00","2021","12","21","13:00","-14.2","","-20.9","","57","","","","23","","9","","24.1","","99.83","","","","-20","","NA"
"-61.68","56.55","NAIN A","8502801","2021-12-21 14:00","2021","12","21","14:00","-14.2","","-21.2","","56","","","","21","","7","","24.1","","99.80","","","","-19","","Mostly Cloudy"
"-61.68","56.55","NAIN A","8502801","2021-12-21 15:00","2021","12","21","15:00","-14.5","","-21.4","","56","","","","24","","16","","24.1","","99.83","","","","-23","","NA"
"-61.68","56.55","NAIN A","8502801","2021-12-21 16:00","2021","12","21","16:00","-13.8","","-21.9","","51","","","","24","","22","","24.1","","99.90","","","","-23","","NA"
"-61.68","56.55","NAIN A","8502801","2021-12-21 17:00","2021","12","21","17:00","-13.7","","-22.4","","49","","","","25","","21","","24.1","","99.93","","","","-23","","Mainly Clear"
"-61.68","56.55","NAIN A","8502801","2021-12-21 18:00","2021","12","21","18:00","-13.3","","-22.1","","48","","","","26","","23","","24.1","","99.95","","","","-23","","NA"
"-61.68","56.55","NAIN A","8502801","2021-12-21 19:00","2021","12","21","19:00","-14.5","","-20.3","","62","","","","31","","17","","24.1","","100.01","","","","-23","","NA"
"-61.68","56.55","NAIN A","8502801","2021-12-21 20:00","2021","12","21","20:00","-16.5","","-21.9","","64","","","","20","","7","","24.1","","100.07","","","","-22","","Mostly Cloudy"
"-61.68","56.55","NAIN A","8502801","2021-12-21 21:00","2021","12","21","21:00"
"-61.68","56.55","NAIN A","8502801","2021-12-21 22:00","2021","12","21","22:00"
"-61.68","56.55","NAIN A","8502801","2021-12-21 23:00","2021","12","21","23:00"
"-61.68","56.55","NAIN A","8502801","2021-12-22 00:00","2021","12","22","00:00"
"-61.68","56.55","NAIN A","8502801","2021-12-22 01:00","2021","12","22","01:00"
"-61.68","56.55","NAIN A","8502801","2021-12-22 02:00","2021","12","22","02:00"
"-61.68","56.55","NAIN A","8502801","2021-12-22 03:00","2021","12","22","03:00"
"-61.68","56.55","NAIN A","8502801","2021-12-22 04:00","2021","12","22","04:00"
"-61.68","56.55","NAIN A","8502801","2021-12-22 05:00","2021","12","22","05:00","-14.6","","-20.0","","64","","","","28","","25","","24.1","","100.75","","","","-25","","Mainly Clear"
"-61.68","56.55","NAIN A","8502801","2021-12-22 06:00","2021","12","22","06:00","-17.3","","-21.8","","69","","","","21","","4","","24.1","","100.92","","","","-20","","NA"
"-61.68","56.55","NAIN A","8502801","2021-12-22 07:00","2021","12","22","07:00","-16.3","","-21.0","","67","","","","22","","8","","24.1","","101.03","","","","-22","","NA"
"-61.68","56.55","NAIN A","8502801","2021-12-22 08:00","2021","12","22","08:00","-18.4","","-23.0","","68","","","","21","","15","","24.1","","101.09","","","","-27","","Clear"
"-61.68","56.55","NAIN A","8502801","2021-12-22 09:00","2021","12","22","09:00","-16.4","","-21.2","","67","","","","17","","3","","24.1","","101.15","","","","-19","","NA"
"-61.68","56.55","NAIN A","8502801","2021-12-22 10:00","2021","12","22","10:00","-15.4","","-21.1","","62","","","","32","","3","","24.1","","101.25","","","","-18","","NA"
"-61.68","56.55","NAIN A","8502801","2021-12-22 11:00","2021","12","22","11:00","-16.0","","-21.6","","63","","","","22","","12","","24.1","","101.29","","","","-23","","Clear"
"-61.68","56.55","NAIN A","8502801","2021-12-22 12:00","2021","12","22","12:00","-15.0","","-21.1","","60","","","","22","","7","","24.1","","101.31","","","","-20","","NA"
"-61.68","56.55","NAIN A","8502801","2021-12-22 13:00","2021","12","22","13:00","-14.6","","-20.6","","61","","","","25","","3","","24.1","","101.40","","","","-17","","NA"
"-61.68","56.55","NAIN A","8502801","2021-12-22 14:00","2021","12","22","14:00","-15.7","","-21.8","","60","","","","22","","4","","24.1","","101.39","","","","-19","","Clear"
"-61.68","56.55","NAIN A","8502801","2021-12-22 15:00","2021","12","22","15:00","-14.4","","-20.6","","60","","","","24","","8","","24.1","","101.44","","","","-20","","NA"
"-61.68","56.55","NAIN A","8502801","2021-12-22 16:00","2021","12","22","16:00","-15.9","","-21.3","","63","","","","36","","2","","24.1","","101.46","","","","-17","","NA"
"-61.68","56.55","NAIN A","8502801","2021-12-22 17:00","2021","12","22","17:00","-15.5","","-21.2","","62","","","","36","","1","","24.1","","101.46","","","","-16","","Clear"
"-61.68","56.55","NAIN A","8502801","2021-12-22 18:00","2021","12","22","18:00","-16.2","","-21.8","","63","","","","","","0","","24.1","","101.48","","","","","","NA"
"-61.68","56.55","NAIN A","8502801","2021-12-22 19:00","2021","12","22","19:00","-14.7","","-19.4","","68","","","","28","","9","","24.1","","101.46","","","","-20","","NA"
"-61.68","56.55","NAIN A","8502801","2021-12-22 20:00","2021","12","22","20:00","-15.5","","-20.9","","64","","","","21","","9","","24.1","","101.43","","","","-21","","Mostly Cloudy"
"-61.68","56.55","NAIN A","8502801","2021-12-22 21:00","2021","12","22","21:00"
"-61.68","56.55","NAIN A","8502801","2021-12-22 22:00","2021","12","22","22:00"
"-61.68","56.55","NAIN A","8502801","2021-12-22 23:00","2021","12","22","23:00"
"-61.68","56.55","NAIN A","8502801","2021-12-23 00:00","2021","12","23","00:00"
"-61.68","56.55","NAIN A","8502801","2021-12-23 01:00","2021","12","23","01:00"
"-61.68","56.55","NAIN A","8502801","2021-12-23 02:00","2021","12","23","02:00"
"-61.68","56.55","NAIN A","8502801","2021-12-23 03:00","2021","12","23","03:00"
"-61.68","56.55","NAIN A","8502801","2021-12-23 04:00","2021","12","23","04:00"
"-61.68","56.55","NAIN A","8502801","2021-12-23 05:00","2021","12","23","05:00","-13.8","","-18.2","","70","","","","28","","7","","24.1","","101.00","","","","-18","","Cloudy"
"-61.68","56.55","NAIN A","8502801","2021-12-23 06:00","2021","12","23","06:00","-13.3","","-17.4","","72","","","","28","","11","","24.1","","100.93","","","","-20","","NA"
"-61.68","56.55","NAIN A","8502801","2021-12-23 07:00","2021","12","23","07:00","-12.8","","-16.3","","75","","","","30","","11","","24.1","","100.88","","","","-19","","Snow"
"-61.68","56.55","NAIN A","8502801","2021-12-23 08:00","2021","12","23","08:00","-12.5","","-15.2","","80","","","","31","","12","","6.4","","100.78","","","","-19","","Snow"
"-61.68","56.55","NAIN A","8502801","2021-12-23 09:00","2021","12","23","09:00","-12.1","","-14.5","","83","","","","32","","20","","2.4","","100.63","","","","-21","","Snow"
"-61.68","56.55","NAIN A","8502801","2021-12-23 10:00","2021","12","23","10:00","-11.4","","-13.9","","82","","","","31","","10","","2.4","","100.58","","","","-17","","Snow"
"-61.68","56.55","NAIN A","8502801","2021-12-23 11:00","2021","12","23","11:00","-10.8","","-13.1","","83","","","","30","","23","","1.6","","100.48","","","","-19","","Snow"
"-61.68","56.55","NAIN A","8502801","2021-12-23 12:00","2021","12","23","12:00","-10.0","","-12.3","","83","","","","30","","29","","20.9","","100.30","","","","-19","","Snow"
"-61.68","56.55","NAIN A","8502801","2021-12-23 13:00","2021","12","23","13:00","-9.1","","-11.2","","85","","","","30","","30","","2.4","","100.16","","","","-18","","Snow"
"-61.68","56.55","NAIN A","8502801","2021-12-23 14:00","2021","12","23","14:00","-8.2","","-10.3","","85","","","","31","","34","","24.1","","99.97","","","","-18","","Snow"
"-61.68","56.55","NAIN A","8502801","2021-12-23 15:00","2021","12","23","15:00","-8.2","","-11.1","","80","","","","31","","34","","24.1","","99.84","","","","-18","","Snow"
"-61.68","56.55","NAIN A","8502801","2021-12-23 16:00","2021","12","23","16:00","-7.6","","-10.2","","82","","","","31","","38","","24.1","","99.65","","","","-17","","Snow"
"-61.68","56.55","NAIN A","8502801","2021-12-23 17:00","2021","12","23","17:00","-6.5","","-9.0","","83","","","","32","","42","","9.7","","99.43","","","","-16","","Snow"
"-61.68","56.55","NAIN A","8502801","2021-12-23 18:00","2021","12","23","18:00","-5.6","","-8.2","","82","","","","32","","37","","9.7","","99.20","","","","-15","","Snow"
"-61.68","56.55","NAIN A","8502801","2021-12-23 19:00","2021","12","23","19:00","-4.4","","-6.9","","83","","","","30","","36","","19.3","","98.99","","","","-13","","Freezing Drizzle"
"-61.68","56.55","NAIN A","8502801","2021-12-23 20:00","2021","12","23","20:00","-3.7","","-5.4","","88","","","","32","","37","","6.4","","98.82","","","","-12","","Snow"
"-61.68","56.55","NAIN A","8502801","2021-12-23 21:00","2021","12","23","21:00"
"-61.68","56.55","NAIN A","8502801","2021-12-23 22:00","2021","12","23","22:00"
"-61.68","56.55","NAIN A","8502801","2021-12-23 23:00","2021","12","23","23:00"
"-61.68","56.55","NAIN A","8502801","2021-12-24 00:00","2021","12","24","00:00"
"-61.68","56.55","NAIN A","8502801","2021-12-24 01:00","2021","12","24","01:00"
"-61.68","56.55","NAIN A","8502801","2021-12-24 02:00","2021","12","24","02:00"
"-61.68","56.55","NAIN A","8502801","2021-12-24 03:00","2021","12","24","03:00"
"-61.68","56.55","NAIN A","8502801","2021-12-24 04:00","2021","12","24","04:00"
"-61.68","56.55","NAIN A","8502801","2021-12-24 05:00","2021","12","24","05:00","0.3","","-0.3","","96","","","","6","","37","","2.4","","98.81","","","","","","Snow"
"-61.68","56.55","NAIN A","8502801","2021-12-24 06:00","2021","12","24","06:00","0.4","","-0.3","","95","","","","6","","36","","2.4","","98.81","","","","","","Snow"
"-61.68","56.55","NAIN A","8502801","2021-12-24 07:00","2021","12","24","07:00","0.6","","-0.3","","94","","","","5","","44","","2.4","","98.82","","","","","","Snow"
"-61.68","56.55","NAIN A","8502801","2021-12-24 08:00","2021","12","24","08:00","0.6","","-0.5","","92","","","","4","","49","","2.4","","98.85","","","","","","Snow"
"-61.68","56.55","NAIN A","8502801","2021-12-24 09:00","2021","12","24","09:00","0.5","","-0.6","","93","","","","3","","48","","2.4","","98.82","","","","","","Snow"
"-61.68","56.55","NAIN A","8502801","2021-12-24 10:00","2021","12","24","10:00","0.5","","-0.6","","92","","","","3","","47","","2.4","","98.80","","","","","","Snow"
"-61.68","56.55","NAIN A","8502801","2021-12-24 11:00","2021","12","24","11:00","0.5","","-0.6","","92","","","","3","","46","","2.4","","98.76","","","","","","Snow"
"-61.68","56.55","NAIN A","8502801","2021-12-24 12:00","2021","12","24","12:00","0.6","","-0.6","","92","","","","3","","47","","2.4","","98.74","","","","","","Snow"
"-61.68","56.55","NAIN A","8502801","2021-12-24 13:00","2021","12","24","13:00","0.6","","-0.5","","92","","","","2","","57","","2.4","","98.70","","","","","","Snow"
"-61.68","56.55","NAIN A","8502801","2021-12-24 14:00","2021","12","24","14:00","0.6","","-0.4","","93","","","","2","","64","","2.4","","98.70","","","","","","Snow"
"-61.68","56.55","NAIN A","8502801","2021-12-24 15:00","2021","12","24","15:00","0.6","","-0.4","","93","","","","2","","67","","2.4","","98.74","","","","","","Snow"
"-61.68","56.55","NAIN A","8502801","2021-12-24 16:00","2021","12","24","16:00","0.6","","-0.3","","94","","","","2","","68","","2.4","","98.82","","","","","","Snow"
"-61.68","56.55","NAIN A","8502801","2021-12-24 17:00","2021","12","24","17:00","0.6","","-0.3","","93","","","","2","","56","","2.4","","98.90","","","","","","Snow"
"-61.68","56.55","NAIN A","8502801","2021-12-24 18:00","2021","12","24","18:00","1.0","","-0.3","","91","","","","2","","60","","3.2","","98.95","","","","","","Snow"
"-61.68","56.55","NAIN A","8502801","2021-12-24 19:00","2021","12","24","19:00","0.6","","-0.4","","93","","","","1","","46","","3.2","","99.03","","","","","","Snow"
"-61.68","56.55","NAIN A","8502801","2021-12-24 20:00","2021","12","24","20:00","0.7","","-0.3","","93","","","","1","","54","","1.6","","99.07","","","","","","Snow"
"-61.68","56.55","NAIN A","8502801","2021-12-24 21:00","2021","12","24","21:00"
"-61.68","56.55","NAIN A","8502801","2021-12-24 22:00","2021","12","24","22:00"
"-61.68","56.55","NAIN A","8502801","2021-12-24 23:00","2021","12","24","23:00"
"-61.68","56.55","NAIN A","8502801","2021-12-25 00:00","2021","12","25","00:00"
"-61.68","56.55","NAIN A","8502801","2021-12-25 01:00","2021","12","25","01:00"
"-61.68","56.55","NAIN A","8502801","2021-12-25 02:00","2021","12","25","02:00"
"-61.68","56.55","NAIN A","8502801","2021-12-25 03:00","2021","12","25","03:00"
"-61.68","56.55","NAIN A","8502801","2021-12-25 04:00","2021","12","25","04:00"
"-61.68","56.55","NAIN A","8502801","2021-12-25 05:00","2021","12","25","05:00","1.0","","-0.1","","92","","","","2","","43","","6.4","","99.59","","","","","","Drizzle,Fog"
"-61.68","56.55","NAIN A","8502801","2021-12-25 06:00","2021","12","25","06:00","0.8","","0.0","","95","","","","36","","37","","2.4","","99.67","","","","","","Drizzle,Fog"
"-61.68","56.55","NAIN A","8502801","2021-12-25 07:00","2021","12","25","07:00","0.8","","0.0","","94","","","","36","","29","","17.7","","99.76","","","","","","Drizzle"
"-61.68","56.55","NAIN A","8502801","2021-12-25 08:00","2021","12","25","08:00","0.8","","-0.8","","89","","","","34","","34","","24.1","","99.82","","","","","","Drizzle"
"-61.68","56.55","NAIN A","8502801","2021-12-25 09:00","2021","12","25","09:00","0.7","","-1.6","","85","","","","36","","41","","24.1","","99.85","","","","","","NA"
"-61.68","56.55","NAIN A","8502801","2021-12-25 10:00","2021","12","25","10:00","0.4","","-1.9","","85","","","","35","","27","","24.1","","99.93","","","","","","NA"
"-61.68","56.55","NAIN A","8502801","2021-12-25 11:00","2021","12","25","11:00","0.4","","-2.2","","82","","","","1","","31","","24.1","","99.99","","","","","","Mostly Cloudy"
"-61.68","56.55","NAIN A","8502801","2021-12-25 12:00","2021","12","25","12:00","0.4","","-2.4","","82","","","","36","","42","","24.1","","100.00","","","","","","NA"
"-61.68","56.55","NAIN A","8502801","2021-12-25 13:00","2021","12","25","13:00","0.3","","-2.4","","82","","","","36","","29","","24.1","","100.04","","","","","","NA"
"-61.68","56.55","NAIN A","8502801","2021-12-25 14:00","2021","12","25","14:00","0.0","","-2.6","","83","","","","33","","23","","24.1","","100.05","","","","-6","","Mostly Cloudy"
"-61.68","56.55","NAIN A","8502801","2021-12-25 15:00","2021","12","25","15:00","-0.2","","-2.8","","83","","","","33","","24","","24.1","","100.13","","","","-6","","NA"
"-61.68","56.55","NAIN A","8502801","2021-12-25 16:00","2021","12","25","16:00","-0.4","","-2.7","","84","","","","33","","21","","24.1","","100.17","","","","-6","","NA"
"-61.68","56.55","NAIN A","8502801","2021-12-25 17:00","2021","12","25","17:00","-0.5","","-3.1","","83","","","","33","","14","","24.1","","100.21","","","","-5","","Cloudy"
"-61.68","56.55","NAIN A","8502801","2021-12-25 18:00","2021","12","25","18:00","-0.8","","-2.7","","87","","","","36","","13","","24.1","","100.24","","","","-5","","NA"
"-61.68","56.55","NAIN A","8502801","2021-12-25 19:00","2021","12","25","19:00","-1.1","","-3.5","","84","","","","33","","21","","24.1","","100.28","","","","-7","","NA"
"-61.68","56.55","NAIN A","8502801","2021-12-25 20:00","2021","12","25","20:00","-1.5","","-3.8","","84","","","","32","","30","","24.1","","100.25","","","","-8","","Cloudy"
"-61.68","56.55","NAIN A","8502801","2021-12-25 21:00","2021","12","25","21:00"
"-61.68","56.55","NAIN A","8502801","2021-12-25 22:00","2021","12","25","22:00"
"-61.68","56.55","NAIN A","8502801","2021-12-25 23:00","2021","12","25","23:00"
"-61.68","56.55","NAIN A","8502801","2021-12-26 00:00","2021","12","26","00:00"
"-61.68","56.55","NAIN A","8502801","2021-12-26 01:00","2021","12","26","01:00"
"-61.68","56.55","NAIN A","8502801","2021-12-26 02:00","2021","12","26","02:00"
"-61.68","56.55","NAIN A","8502801","2021-12-26 03:00","2021","12","26","03:00"
"-61.68","56.55","NAIN A","8502801","2021-12-26 04:00","2021","12","26","04:00"
"-61.68","56.55","NAIN A","8502801","2021-12-26 05:00","2021","12","26","05:00","-3.1","","-6.2","","79","","","","31","","26","","24.1","","100.46","","","","-10","","Cloudy"
"-61.68","56.55","NAIN A","8502801","2021-12-26 06:00","2021","12","26","06:00","-3.2","","-6.4","","79","","","","32","","29","","24.1","","100.56","","","","-11","","NA"
"-61.68","56.55","NAIN A","8502801","2021-12-26 07:00","2021","12","26","07:00","-3.2","","-6.1","","81","","","","32","","13","","24.1","","100.61","","","","-8","","NA"
"-61.68","56.55","NAIN A","8502801","2021-12-26 08:00","2021","12","26","08:00","-3.5","","-6.4","","80","","","","32","","23","","24.1","","100.63","","","","-10","","Cloudy"
"-61.68","56.55","NAIN A","8502801","2021-12-26 09:00","2021","12","26","09:00","-3.5","","-6.5","","80","","","","32","","27","","24.1","","100.68","","","","-11","","NA"
"-61.68","56.55","NAIN A","8502801","2021-12-26 10:00","2021","12","26","10:00","-3.1","","-5.9","","81","","","","33","","23","","16.1","","100.73","","","","-10","","NA"
"-61.68","56.55","NAIN A","8502801","2021-12-26 11:00","2021","12","26","11:00","-2.7","","-5.8","","80","","","","32","","24","","24.1","","100.69","","","","-9","","Mostly Cloudy"
"-61.68","56.55","NAIN A","8502801","2021-12-26 12:00","2021","12","26","12:00","-2.6","","-5.2","","82","","","","32","","23","","24.1","","100.69","","","","-9","","NA"
"-61.68","56.55","NAIN A","8502801","2021-12-26 13:00","2021","12","26","13:00","-2.2","","-5.1","","81","","","","33","","25","","24.1","","100.71","","","","-9","","NA"
"-61.68","56.55","NAIN A","8502801","2021-12-26 14:00","2021","12","26","14:00","-2.5","","-5.1","","82","","","","30","","25","","24.1","","100.73","","","","-9","","Cloudy"
"-61.68","56.55","NAIN A","8502801","2021-12-26 15:00","2021","12","26","15:00","-2.2","","-5.3","","79","","","","32","","24","","24.1","","100.80","","","","-9","","NA"
"-61.68","56.55","NAIN A","8502801","2021-12-26 16:00","2021","12","26","16:00","-2.3","","-5.1","","81","","","","31","","26","","12.9","","100.87","","","","-9","","Snow Showers"
"-61.68","56.55","NAIN A","8502801","2021-12-26 17:00","2021","12","26","17:00","-2.4","","-5.1","","81","","","","33","","14","","24.1","","100.94","","","","-7","","Snow Showers"
"-61.68","56.55","NAIN A","8502801","2021-12-26 18:00","2021","12","26","18:00","-2.4","","-4.4","","86","","","","32","","18","","24.1","","100.98","","","","-8","","Snow Showers"
"-61.68","56.55","NAIN A","8502801","2021-12-26 19:00","2021","12","26","19:00","-2.0","","-4.5","","83","","","","33","","20","","24.1","","101.01","","","","-8","","NA"
"-61.68","56.55","NAIN A","8502801","2021-12-26 20:00","2021","12","26","20:00","-2.2","","-4.3","","85","","","","30","","21","","24.1","","101.04","","","","-8","","Cloudy"
"-61.68","56.55","NAIN A","8502801","2021-12-26 21:00","2021","12","26","21:00"
"-61.68","56.55","NAIN A","8502801","2021-12-26 22:00","2021","12","26","22:00"
"-61.68","56.55","NAIN A","8502801","2021-12-26 23:00","2021","12","26","23:00"
"-61.68","56.55","NAIN A","8502801","2021-12-27 00:00","2021","12","27","00:00"
"-61.68","56.55","NAIN A","8502801","2021-12-27 01:00","2021","12","27","01:00"
"-61.68","56.55","NAIN A","8502801","2021-12-27 02:00","2021","12","27","02:00"
"-61.68","56.55","NAIN A","8502801","2021-12-27 03:00","2021","12","27","03:00"
"-61.68","56.55","NAIN A","8502801","2021-12-27 04:00","2021","12","27","04:00"
"-61.68","56.55","NAIN A","8502801","2021-12-27 05:00","2021","12","27","05:00","-1.9","","-4.4","","83","","","","24","","4","","24.1","","101.22","","","","-3","","Snow Showers"
"-61.68","56.55","NAIN A","8502801","2021-12-27 06:00","2021","12","27","06:00","-2.5","","-4.3","","87","","","","29","","7","","24.1","","101.22","","","","-5","","Snow Showers"
"-61.68","56.55","NAIN A","8502801","2021-12-27 07:00","2021","12","27","07:00","-2.5","","-4.3","","88","","","","8","","4","","24.1","","101.23","","","","-4","","Snow Showers"
"-61.68","56.55","NAIN A","8502801","2021-12-27 08:00","2021","12","27","08:00","-2.7","","-4.1","","90","","","","2","","6","","24.1","","101.23","","","","-5","","Snow Showers"
"-61.68","56.55","NAIN A","8502801","2021-12-27 09:00","2021","12","27","09:00","-2.6","","-4.2","","89","","","","29","","9","","24.1","","101.23","","","","-6","","Snow Showers"
"-61.68","56.55","NAIN A","8502801","2021-12-27 10:00","2021","12","27","10:00","-2.8","","-4.7","","87","","","","27","","4","","24.1","","101.25","","","","-4","","Snow Showers"
"-61.68","56.55","NAIN A","8502801","2021-12-27 11:00","2021","12","27","11:00","-3.0","","-4.6","","88","","","","13","","4","","24.1","","101.25","","","","-5","","Snow Showers"
"-61.68","56.55","NAIN A","8502801","2021-12-27 12:00","2021","12","27","12:00","-2.5","","-4.0","","89","","","","13","","5","","24.1","","101.20","","","","-4","","Snow Showers"
"-61.68","56.55","NAIN A","8502801","2021-12-27 13:00","2021","12","27","13:00","-2.4","","-3.7","","91","","","","36","","2","","24.1","","101.20","","","","-3","","Snow Showers"
"-61.68","56.55","NAIN A","8502801","2021-12-27 14:00","2021","12","27","14:00","-2.1","","-4.1","","86","","","","36","","2","","24.1","","101.19","","","","-3","","Snow Showers"
"-61.68","56.55","NAIN A","8502801","2021-12-27 15:00","2021","12","27","15:00","-2.0","","-4.9","","81","","","","27","","5","","24.1","","101.22","","","","-4","","Snow Showers"
"-61.68","56.55","NAIN A","8502801","2021-12-27 16:00","2021","12","27","16:00","-2.5","","-5.3","","81","","","","28","","9","","24.1","","101.24","","","","-6","","Snow Showers"
"-61.68","56.55","NAIN A","8502801","2021-12-27 17:00","2021","12","27","17:00","-2.9","","-5.3","","83","","","","29","","8","","24.1","","101.27","","","","-6","","Snow Showers"
"-61.68","56.55","NAIN A","8502801","2021-12-27 18:00","2021","12","27","18:00","-3.3","","-4.5","","92","","","","31","","5","","24.1","","101.26","","","","-5","","Snow Showers"
"-61.68","56.55","NAIN A","8502801","2021-12-27 19:00","2021","12","27","19:00","-4.0","","-4.8","","94","","","","20","","7","","11.3","","101.25","","","","-7","","Snow"
"-61.68","56.55","NAIN A","8502801","2021-12-27 20:00","2021","12","27","20:00","-4.2","","-5.1","","93","","","","21","","5","","22.5","","101.28","","","","-6","","Snow"
"-61.68","56.55","NAIN A","8502801","2021-12-27 21:00","2021","12","27","21:00"
"-61.68","56.55","NAIN A","8502801","2021-12-27 22:00","2021","12","27","22:00"
"-61.68","56.55","NAIN A","8502801","2021-12-27 23:00","2021","12","27","23:00"
"-61.68","56.55","NAIN A","8502801","2021-12-28 00:00","2021","12","28","00:00"
"-61.68","56.55","NAIN A","8502801","2021-12-28 01:00","2021","12","28","01:00"
"-61.68","56.55","NAIN A","8502801","2021-12-28 02:00","2021","12","28","02:00"
"-61.68","56.55","NAIN A","8502801","2021-12-28 03:00","2021","12","28","03:00"
"-61.68","56.55","NAIN A","8502801","2021-12-28 04:00","2021","12","28","04:00"
"-61.68","56.55","NAIN A","8502801","2021-12-28 05:00","2021","12","28","05:00","-4.6","","-5.8","","91","","","","31","","8","","24.1","","101.25","","","","-8","","Cloudy"
"-61.68","56.55","NAIN A","8502801","2021-12-28 06:00","2021","12","28","06:00","-4.5","","-6.0","","89","","","","27","","14","","24.1","","101.26","","","","-10","","NA"
"-61.68","56.55","NAIN A","8502801","2021-12-28 07:00","2021","12","28","07:00","-4.7","","-6.3","","88","","","","29","","13","","24.1","","101.27","","","","-10","","NA"
"-61.68","56.55","NAIN A","8502801","2021-12-28 08:00","2021","12","28","08:00","-4.7","","-6.3","","88","","","","30","","13","","24.1","","101.29","","","","-10","","Cloudy"
"-61.68","56.55","NAIN A","8502801","2021-12-28 09:00","2021","12","28","09:00","-4.8","","-6.7","","87","","","","29","","14","","24.1","","101.30","","","","-10","","NA"
"-61.68","56.55","NAIN A","8502801","2021-12-28 10:00","2021","12","28","10:00","-4.7","","-6.5","","87","","","","30","","15","","24.1","","101.29","","","","-10","","Snow Showers"
"-61.68","56.55","NAIN A","8502801","2021-12-28 11:00","2021","12","28","11:00","-4.4","","-6.5","","86","","","","31","","18","","24.1","","101.29","","","","-10","","Snow Showers"
"-61.68","56.55","NAIN A","8502801","2021-12-28 12:00","2021","12","28","12:00","-4.4","","-6.6","","85","","","","31","","19","","24.1","","101.26","","","","-11","","Snow Showers"
"-61.68","56.55","NAIN A","8502801","2021-12-28 13:00","2021","12","28","13:00","-4.4","","-6.7","","84","","","","30","","22","","24.1","","101.27","","","","-11","","Snow Showers"
"-61.68","56.55","NAIN A","8502801","2021-12-28 14:00","2021","12","28","14:00","-4.3","","-7.1","","81","","","","33","","16","","24.1","","101.30","","","","-10","","Snow Showers"
"-61.68","56.55","NAIN A","8502801","2021-12-28 15:00","2021","12","28","15:00","-4.5","","-7.2","","81","","","","31","","13","","24.1","","101.33","","","","-10","","NA"
"-61.68","56.55","NAIN A","8502801","2021-12-28 16:00","2021","12","28","16:00","-4.7","","-7.1","","83","","","","34","","17","","24.1","","101.34","","","","-11","","NA"
"-61.68","56.55","NAIN A","8502801","2021-12-28 17:00","2021","12","28","17:00","-5.0","","-7.4","","83","","","","33","","14","","24.1","","101.37","","","","-10","","Cloudy"
"-61.68","56.55","NAIN A","8502801","2021-12-28 18:00","2021","12","28","18:00","-5.5","","-7.9","","83","","","","31","","18","","24.1","","101.42","","","","-12","","NA"
"-61.68","56.55","NAIN A","8502801","2021-12-28 19:00","2021","12","28","19:00","-5.7","","-8.3","","82","","","","31","","21","","24.1","","101.40","","","","-13","","NA"
"-61.68","56.55","NAIN A","8502801","2021-12-28 20:00","2021","12","28","20:00","-5.6","","-8.2","","82","","","","32","","20","","24.1","","101.41","","","","-12","","Clear"
"-61.68","56.55","NAIN A","8502801","2021-12-28 21:00","2021","12","28","21:00"
"-61.68","56.55","NAIN A","8502801","2021-12-28 22:00","2021","12","28","22:00"
"-61.68","56.55","NAIN A","8502801","2021-12-28 23:00","2021","12","28","23:00"
"-61.68","56.55","NAIN A","8502801","2021-12-29 00:00","2021","12","29","00:00"
"-61.68","56.55","NAIN A","8502801","2021-12-29 01:00","2021","12","29","01:00"
"-61.68","56.55","NAIN A","8502801","2021-12-29 02:00","2021","12","29","02:00"
"-61.68","56.55","NAIN A","8502801","2021-12-29 03:00","2021","12","29","03:00"
"-61.68","56.55","NAIN A","8502801","2021-12-29 04:00","2021","12","29","04:00"
"-61.68","56.55","NAIN A","8502801","2021-12-29 05:00","2021","12","29","05:00","-4.5","","-7.5","","80","","","","30","","10","","24.1","","101.49","","","","-9","","Cloudy"
"-61.68","56.55","NAIN A","8502801","2021-12-29 06:00","2021","12","29","06:00","-4.4","","-7.2","","81","","","","32","","13","","24.1","","101.50","","","","-9","","NA"
"-61.68","56.55","NAIN A","8502801","2021-12-29 07:00","2021","12","29","07:00","-4.4","","-7.1","","82","","","","30","","16","","24.1","","101.55","","","","-10","","NA"
"-61.68","56.55","NAIN A","8502801","2021-12-29 08:00","2021","12","29","08:00","-4.4","","-7.0","","82","","","","31","","10","","24.1","","101.60","","","","-9","","Cloudy"
"-61.68","56.55","NAIN A","8502801","2021-12-29 09:00","2021","12","29","09:00","-4.5","","-7.1","","83","","","","30","","13","","24.1","","101.62","","","","-10","","Snow Showers"
"-61.68","56.55","NAIN A","8502801","2021-12-29 10:00","2021","12","29","10:00","-4.5","","-7.2","","81","","","","30","","10","","24.1","","101.63","","","","-9","","Snow Showers"
"-61.68","56.55","NAIN A","8502801","2021-12-29 11:00","2021","12","29","11:00","-4.2","","-7.3","","79","","","","32","","8","","24.1","","101.60","","","","-8","","Snow Showers"
"-61.68","56.55","NAIN A","8502801","2021-12-29 12:00","2021","12","29","12:00","-4.0","","-7.7","","76","","","","28","","12","","24.1","","101.60","","","","-9","","Snow Showers"
"-61.68","56.55","NAIN A","8502801","2021-12-29 13:00","2021","12","29","13:00","-4.1","","-7.2","","79","","","","28","","9","","24.1","","101.59","","","","-8","","NA"
"-61.68","56.55","NAIN A","8502801","2021-12-29 14:00","2021","12","29","14:00","-3.8","","-7.7","","74","","","","30","","14","","24.1","","101.60","","","","-9","","Cloudy"
"-61.68","56.55","NAIN A","8502801","2021-12-29 15:00","2021","12","29","15:00","-3.9","","-8.0","","73","","","","31","","10","","24.1","","101.62","","","","-8","","NA"
"-61.68","56.55","NAIN A","8502801","2021-12-29 16:00","2021","12","29","16:00","-4.3","","-8.3","","74","","","","31","","7","","22.5","","101.65","","","","-7","","NA"
"-61.68","56.55","NAIN A","8502801","2021-12-29 17:00","2021","12","29","17:00","-4.5","","-9.1","","70","","","","28","","7","","24.1","","101.66","","","","-8","","Cloudy"
"-61.68","56.55","NAIN A","8502801","2021-12-29 18:00","2021","12","29","18:00","-4.6","","-9.2","","70","","","","28","","4","","24.1","","101.67","","","","-6","","NA"
"-61.68","56.55","NAIN A","8502801","2021-12-29 19:00","2021","12","29","19:00","-4.9","","-9.0","","73","","","","21","","7","","24.1","","101.68","","","","-8","","NA"
"-61.68","56.55","NAIN A","8502801","2021-12-29 20:00","2021","12","29","20:00","-4.6","","-8.6","","74","","","","25","","8","","24.1","","101.68","","","","-8","","Cloudy"
"-61.68","56.55","NAIN A","8502801","2021-12-29 21:00","2021","12","29","21:00"
"-61.68","56.55","NAIN A","8502801","2021-12-29 22:00","2021","12","29","22:00"
"-61.68","56.55","NAIN A","8502801","2021-12-29 23:00","2021","12","29","23:00"
"-61.68","56.55","NAIN A","8502801","2021-12-30 00:00","2021","12","30","00:00"
"-61.68","56.55","NAIN A","8502801","2021-12-30 01:00","2021","12","30","01:00"
"-61.68","56.55","NAIN A","8502801","2021-12-30 02:00","2021","12","30","02:00"
"-61.68","56.55","NAIN A","8502801","2021-12-30 03:00","2021","12","30","03:00"
"-61.68","56.55","NAIN A","8502801","2021-12-30 04:00","2021","12","30","04:00"
"-61.68","56.55","NAIN A","8502801","2021-12-30 05:00","2021","12","30","05:00","-8.6","","-11.8","","78","","","","24","","14","","24.1","","101.50","","","","-15","","Clear"
"-61.68","56.55","NAIN A","8502801","2021-12-30 06:00","2021","12","30","06:00","-9.0","","-11.3","","83","","","","23","","22","","24.1","","101.52","","","","-17","","NA"
"-61.68","56.55","NAIN A","8502801","2021-12-30 07:00","2021","12","30","07:00","-8.9","","-11.6","","81","","","","24","","11","","24.1","","101.51","","","","-14","","NA"
"-61.68","56.55","NAIN A","8502801","2021-12-30 08:00","2021","12","30","08:00","-9.7","","-12.6","","80","","","","23","","28","","24.1","","101.51","","","","-19","","Clear"
"-61.68","56.55","NAIN A","8502801","2021-12-30 09:00","2021","12","30","09:00","-9.5","","-12.4","","80","","","","34","","5","","24.1","","101.47","","","","-12","","NA"
"-61.68","56.55","NAIN A","8502801","2021-12-30 10:00","2021","12","30","10:00","-10.3","","-13.4","","78","","","","21","","4","","24.1","","101.44","","","","-13","","NA"
"-61.68","56.55","NAIN A","8502801","2021-12-30 11:00","2021","12","30","11:00","-9.2","","-12.9","","75","","","","22","","23","","24.1","","101.39","","","","-17","","Clear"
"-61.68","56.55","NAIN A","8502801","2021-12-30 12:00","2021","12","30","12:00","-9.3","","-12.9","","75","","","","23","","25","","24.1","","101.32","","","","-18","","NA"
"-61.68","56.55","NAIN A","8502801","2021-12-30 13:00","2021","12","30","13:00","-9.1","","-12.8","","74","","","","3","","5","","24.1","","101.22","","","","-12","","NA"
"-61.68","56.55","NAIN A","8502801","2021-12-30 14:00","2021","12","30","14:00","-8.7","","-12.2","","76","","","","6","","8","","24.1","","101.22","","","","-13","","Mostly Cloudy"
"-61.68","56.55","NAIN A","8502801","2021-12-30 15:00","2021","12","30","15:00","-8.8","","-12.3","","76","","","","3","","5","","24.1","","101.22","","","","-12","","Snow Showers"
"-61.68","56.55","NAIN A","8502801","2021-12-30 16:00","2021","12","30","16:00","-8.9","","-12.3","","76","","","","21","","4","","24.1","","101.22","","","","-11","","Snow Showers"
"-61.68","56.55","NAIN A","8502801","2021-12-30 17:00","2021","12","30","17:00","-9.0","","-12.8","","74","","","","31","","3","","24.1","","101.22","","","","-11","","Snow Showers"
"-61.68","56.55","NAIN A","8502801","2021-12-30 18:00","2021","12","30","18:00","-9.0","","-13.3","","71","","","","23","","15","","24.1","","101.21","","","","-16","","Snow Showers"
"-61.68","56.55","NAIN A","8502801","2021-12-30 19:00","2021","12","30","19:00","-9.4","","-13.1","","74","","","","23","","15","","24.1","","101.16","","","","-16","","Snow Showers"
"-61.68","56.55","NAIN A","8502801","2021-12-30 20:00","2021","12","30","20:00","-10.3","","-14.1","","74","","","","19","","12","","24.1","","101.11","","","","-16","","Clear"
"-61.68","56.55","NAIN A","8502801","2021-12-30 21:00","2021","12","30","21:00"
"-61.68","56.55","NAIN A","8502801","2021-12-30 22:00","2021","12","30","22:00"
"-61.68","56.55","NAIN A","8502801","2021-12-30 23:00","2021","12","30","23:00"
"-61.68","56.55","NAIN A","8502801","2021-12-31 00:00","2021","12","31","00:00"
"-61.68","56.55","NAIN A","8502801","2021-12-31 01:00","2021","12","31","01:00"
"-61.68","56.55","NAIN A","8502801","2021-12-31 02:00","2021","12","31","02:00"
"-61.68","56.55","NAIN A","8502801","2021-12-31 03:00","2021","12","31","03:00"
"-61.68","56.55","NAIN A","8502801","2021-12-31 04:00","2021","12","31","04:00"
"-61.68","56.55","NAIN A","8502801","2021-12-31 05:00","2021","12","31","05:00","-8.3","","-11.5","","78","","","","24","","9","","24.1","","100.98","","","","-13","","Snow Showers"
"-61.68","56.55","NAIN A","8502801","2021-12-31 06:00","2021","12","31","06:00","-7.1","","-11.0","","74","","","","26","","3","","24.1","","100.99","","","","-9","","Snow Showers"
"-61.68","56.55","NAIN A","8502801","2021-12-31 07:00","2021","12","31","07:00","-7.8","","-11.3","","76","","","","23","","7","","24.1","","101.02","","","","-11","","Snow Showers"
"-61.68","56.55","NAIN A","8502801","2021-12-31 08:00","2021","12","31","08:00","-7.6","","-11.2","","75","","","","21","","10","","24.1","","101.06","","","","-12","","Snow Showers"
"-61.68","56.55","NAIN A","8502801","2021-12-31 09:00","2021","12","31","09:00","-6.7","","-9.9","","78","","","","36","","2","","24.1","","101.09","","","","-8","","Snow Showers"
"-61.68","56.55","NAIN A","8502801","2021-12-31 10:00","2021","12","31","10:00","-6.3","","-10.6","","72","","","","28","","16","","24.1","","101.13","","","","-12","","Snow Showers"
"-61.68","56.55","NAIN A","8502801","2021-12-31 11:00","2021","12","31","11:00","-6.2","","-10.9","","70","","","","27","","9","","24.1","","101.12","","","","-10","","Cloudy"
"-61.68","56.55","NAIN A","8502801","2021-12-31 12:00","2021","12","31","12:00","-6.6","","-11.1","","70","","","","28","","13","","24.1","","101.13","","","","-12","","NA"
"-61.68","56.55","NAIN A","8502801","2021-12-31 13:00","2021","12","31","13:00","-7.0","","-12.3","","66","","","","27","","22","","24.1","","101.15","","","","-14","","NA"
"-61.68","56.55","NAIN A","8502801","2021-12-31 14:00","2021","12","31","14:00","-7.3","","-13.1","","63","","","","28","","18","","24.1","","101.20","","","","-14","","Mostly Cloudy"
"-61.68","56.55","NAIN A","8502801","2021-12-31 15:00","2021","12","31","15:00","-8.3","","-14.1","","63","","","","29","","20","","24.1","","101.27","","","","-16","","NA"
"-61.68","56.55","NAIN A","8502801","2021-12-31 16:00","2021","12","31","16:00","-9.1","","-15.0","","63","","","","29","","17","","24.1","","101.35","","","","-16","","NA"
"-61.68","56.55","NAIN A","8502801","2021-12-31 17:00","2021","12","31","17:00","-9.4","","-16.4","","58","","","","28","","12","","24.1","","101.40","","","","-15","","Clear"
"-61.68","56.55","NAIN A","8502801","2021-12-31 18:00","2021","12","31","18:00","-10.8","","-16.4","","64","","","","18","","9","","24.1","","101.43","","","","-16","","NA"
"-61.68","56.55","NAIN A","8502801","2021-12-31 19:00","2021","12","31","19:00","-11.3","","-17.7","","60","","","","36","","2","","24.1","","101.45","","","","-13","","NA"
"-61.68","56.55","NAIN A","8502801","2021-12-31 20:00","2021","12","31","20:00","-11.3","","-16.8","","64","","","","30","","9","","24.1","","101.48","","","","-16","","Clear"
"-61.68","56.55","NAIN A","8502801","2021-12-31 21:00","2021","12","31","21:00"
"-61.68","56.55","NAIN A","8502801","2021-12-31 22:00","2021","12","31","22:00"
"-61.68","56.55","NAIN A","8502801","2021-12-31 23:00","2021","12","31","23:00"
