"Longitude (x)","Latitude (y)","Station Name","Climate ID","Date/Time (LST)","Year","Month","Day","Time (LST)","Temp (°C)","Temp Flag","Dew Point Temp (°C)","Dew Point Temp Flag","Rel Hum (%)","Rel Hum Flag","Precip. Amount (mm)","Precip. Amount Flag","Wind Dir (10s deg)","Wind Dir Flag","Wind Spd (km/h)","Wind Spd Flag","Visibility (km)","Visibility Flag","Stn Press (kPa)","Stn Press Flag","Hmdx","Hmdx Flag","Wind Chill","Wind Chill Flag","Weather"
"-61.68","56.55","NAIN A","8502801","2021-03-01 00:00","2021","03","01","00:00"
"-61.68","56.55","NAIN A","8502801","2021-03-01 01:00","2021","03","01","01:00"
"-61.68","56.55","NAIN A","8502801","2021-03-01 02:00","2021","03","01","02:00"
"-61.68","56.55","NAIN A","8502801","2021-03-01 03:00","2021","03","01","03:00"
"-61.68","56.55","NAIN A","8502801","2021-03-01 04:00","2021","03","01","04:00"
"-61.68","56.55","NAIN A","8502801","2021-03-01 05:00","2021","03","01","05:00","-27.0","","-31.4","","67","","","","21","","5","","24.1","","102.28","","","","-32","","Mainly Clear"
"-61.68","56.55","NAIN A","8502801","2021-03-01 06:00","2021","03","01","06:00","-27.4","","-31.5","","69","","","","36","","2","","24.1","","102.18","","","","-30","","NA"
"-61.68","56.55","NAIN A","8502801","2021-03-01 07:00","2021","03","01","07:00","-29.0","","-33.8","","64","","","","14","","3","","24.1","","102.08","","","","-32","","NA"
"-61.68","56.55","NAIN A","8502801","2021-03-01 08:00","2021","03","01","08:00","-27.6","","-32.4","","65","","","","36","","1","","24.1","","101.95","","","","-29","","Mostly Cloudy"
"-61.68","56.55","NAIN A","8502801","2021-03-01 09:00","2021","03","01","09:00","-26.2","","-30.2","","70","","","","0","","1","","24.1","","101.88","","","","-27","","NA"
"-61.68","56.55","NAIN A","8502801","2021-03-01 10:00","2021","03","01","10:00","-24.4","","-28.7","","68","","","","0","","1","","24.1","","101.74","","","","-25","","Snow Showers"
"-61.68","56.55","NAIN A","8502801","2021-03-01 11:00","2021","03","01","11:00","-21.3","","-26.1","","66","","","","34","","3","","24.1","","101.62","","","","-24","","Snow Showers"
"-61.68","56.55","NAIN A","8502801","2021-03-01 12:00","2021","03","01","12:00","-19.1","","-22.8","","73","","","","30","","6","","24.1","","101.41","","","","-24","","Snow Showers"
"-61.68","56.55","NAIN A","8502801","2021-03-01 13:00","2021","03","01","13:00","-16.9","","-19.8","","78","","","","36","","2","","24.1","","101.21","","","","-18","","Snow Showers"
"-61.68","56.55","NAIN A","8502801","2021-03-01 14:00","2021","03","01","14:00","-10.6","","-13.8","","77","","","","15","","28","","24.1","","101.04","","","","-20","","Snow Showers"
"-61.68","56.55","NAIN A","8502801","2021-03-01 15:00","2021","03","01","15:00","-9.6","","-12.9","","77","","","","13","","49","","24.1","","100.78","","","","-21","","NA"
"-61.68","56.55","NAIN A","8502801","2021-03-01 16:00","2021","03","01","16:00","-7.0","","-11.1","","73","","","","15","","65","","24.1","","100.59","","","","-19","","NA"
"-61.68","56.55","NAIN A","8502801","2021-03-01 17:00","2021","03","01","17:00","-6.4","","-9.3","","80","","","","15","","62","","12.9","","100.42","","","","-18","","Snow Showers"
"-61.68","56.55","NAIN A","8502801","2021-03-01 18:00","2021","03","01","18:00","-5.9","","-9.0","","79","","","","14","","71","","24.1","","100.25","","","","-18","","NA"
"-61.68","56.55","NAIN A","8502801","2021-03-01 19:00","2021","03","01","19:00","-5.6","","-8.0","","83","","","","15","","63","","6.4","","100.12","","","","-17","","Snow"
"-61.68","56.55","NAIN A","8502801","2021-03-01 20:00","2021","03","01","20:00","-5.3","","-7.7","","84","","","","15","","57","","9.7","","100.05","","","","-16","","Snow"
"-61.68","56.55","NAIN A","8502801","2021-03-01 21:00","2021","03","01","21:00"
"-61.68","56.55","NAIN A","8502801","2021-03-01 22:00","2021","03","01","22:00"
"-61.68","56.55","NAIN A","8502801","2021-03-01 23:00","2021","03","01","23:00"
"-61.68","56.55","NAIN A","8502801","2021-03-02 00:00","2021","03","02","00:00"
"-61.68","56.55","NAIN A","8502801","2021-03-02 01:00","2021","03","02","01:00"
"-61.68","56.55","NAIN A","8502801","2021-03-02 02:00","2021","03","02","02:00"
"-61.68","56.55","NAIN A","8502801","2021-03-02 03:00","2021","03","02","03:00"
"-61.68","56.55","NAIN A","8502801","2021-03-02 04:00","2021","03","02","04:00"
"-61.68","56.55","NAIN A","8502801","2021-03-02 05:00","2021","03","02","05:00","-3.5","","-4.0","","96","","","","14","","23","","24.1","","99.58","","","","-10","","Snow Showers"
"-61.68","56.55","NAIN A","8502801","2021-03-02 06:00","2021","03","02","06:00","-3.6","","-4.0","","97","","","","14","","17","","14.5","","99.56","","","","-9","","Snow Showers"
"-61.68","56.55","NAIN A","8502801","2021-03-02 07:00","2021","03","02","07:00","-3.7","","-4.1","","97","","","","14","","18","","19.3","","99.54","","","","-10","","Snow Showers"
"-61.68","56.55","NAIN A","8502801","2021-03-02 08:00","2021","03","02","08:00","-3.6","","-4.3","","95","","","","10","","13","","19.3","","99.53","","","","-8","","Snow Showers"
"-61.68","56.55","NAIN A","8502801","2021-03-02 09:00","2021","03","02","09:00","-3.7","","-3.8","","99","","","","8","","20","","6.4","","99.51","","","","-10","","Snow"
"-61.68","56.55","NAIN A","8502801","2021-03-02 10:00","2021","03","02","10:00","-2.9","","-3.6","","94","","","","13","","26","","1.6","","99.52","","","","-10","","Snow"
"-61.68","56.55","NAIN A","8502801","2021-03-02 11:00","2021","03","02","11:00","-2.2","","-2.9","","95","","","","12","","23","","1.6","","99.51","","","","-8","","Snow"
"-61.68","56.55","NAIN A","8502801","2021-03-02 12:00","2021","03","02","12:00","-2.3","","-2.4","","99","","","","10","","29","","2.4","","99.51","","","","-9","","Snow"
"-61.68","56.55","NAIN A","8502801","2021-03-02 13:00","2021","03","02","13:00","-1.9","","-2.3","","97","","","","10","","25","","2.4","","99.51","","","","-8","","Snow"
"-61.68","56.55","NAIN A","8502801","2021-03-02 14:00","2021","03","02","14:00","-1.7","","-1.9","","99","","","","9","","35","","2.4","","99.48","","","","-9","","Snow"
"-61.68","56.55","NAIN A","8502801","2021-03-02 15:00","2021","03","02","15:00","-1.6","","-1.7","","99","","","","9","","32","","2.4","","99.48","","","","-9","","Snow"
"-61.68","56.55","NAIN A","8502801","2021-03-02 16:00","2021","03","02","16:00","-1.4","","-1.8","","97","","","","9","","36","","2.4","","99.48","","","","-9","","Snow"
"-61.68","56.55","NAIN A","8502801","2021-03-02 17:00","2021","03","02","17:00","-1.6","","-1.7","","100","","","","7","","27","","2.4","","99.51","","","","-8","","Snow"
"-61.68","56.55","NAIN A","8502801","2021-03-02 18:00","2021","03","02","18:00","-1.7","","-1.7","","100","","","","5","","25","","1.6","","99.52","","","","-8","","Snow"
"-61.68","56.55","NAIN A","8502801","2021-03-02 19:00","2021","03","02","19:00","-1.6","","-1.6","","100","","","","6","","27","","1.6","","99.53","","","","-8","","Snow"
"-61.68","56.55","NAIN A","8502801","2021-03-02 20:00","2021","03","02","20:00","-1.5","","-1.6","","100","","","","4","","27","","1.6","","99.52","","","","-8","","Snow"
"-61.68","56.55","NAIN A","8502801","2021-03-02 21:00","2021","03","02","21:00"
"-61.68","56.55","NAIN A","8502801","2021-03-02 22:00","2021","03","02","22:00"
"-61.68","56.55","NAIN A","8502801","2021-03-02 23:00","2021","03","02","23:00"
"-61.68","56.55","NAIN A","8502801","2021-03-03 00:00","2021","03","03","00:00"
"-61.68","56.55","NAIN A","8502801","2021-03-03 01:00","2021","03","03","01:00"
"-61.68","56.55","NAIN A","8502801","2021-03-03 02:00","2021","03","03","02:00"
"-61.68","56.55","NAIN A","8502801","2021-03-03 03:00","2021","03","03","03:00"
"-61.68","56.55","NAIN A","8502801","2021-03-03 04:00","2021","03","03","04:00"
"-61.68","56.55","NAIN A","8502801","2021-03-03 05:00","2021","03","03","05:00","0.1","","0.1","","100","","","","2","","43","","1.6","","98.82","","","","","","Snow"
"-61.68","56.55","NAIN A","8502801","2021-03-03 06:00","2021","03","03","06:00","0.2","","0.2","","100","","","","3","","46","","1.6","","98.79","","","","","","Snow"
"-61.68","56.55","NAIN A","8502801","2021-03-03 07:00","2021","03","03","07:00","0.2","","0.2","","100","","","","3","","43","","1.6","","98.81","","","","","","Snow"
"-61.68","56.55","NAIN A","8502801","2021-03-03 08:00","2021","03","03","08:00","0.2","","0.2","","100","","","","3","","37","","1.6","","98.80","","","","","","Snow"
"-61.68","56.55","NAIN A","8502801","2021-03-03 09:00","2021","03","03","09:00","0.3","","0.3","","100","","","","2","","32","","1.6","","98.85","","","","","","Snow"
"-61.68","56.55","NAIN A","8502801","2021-03-03 10:00","2021","03","03","10:00","0.4","","0.4","","100","","","","2","","23","","1.6","","98.89","","","","","","Snow"
"-61.68","56.55","NAIN A","8502801","2021-03-03 11:00","2021","03","03","11:00","0.7","","0.7","","100","","","","2","","23","","1.6","","98.88","","","","","","Snow"
"-61.68","56.55","NAIN A","8502801","2021-03-03 12:00","2021","03","03","12:00","0.7","","0.7","","100","","","","4","","32","","2.4","","98.92","","","","","","Snow"
"-61.68","56.55","NAIN A","8502801","2021-03-03 13:00","2021","03","03","13:00","0.9","","0.7","","99","","","","2","","34","","11.3","","98.86","","","","","","Rain,Snow"
"-61.68","56.55","NAIN A","8502801","2021-03-03 14:00","2021","03","03","14:00","0.9","","0.8","","100","","","","2","","32","","4.8","","98.83","","","","","","Drizzle,Snow"
"-61.68","56.55","NAIN A","8502801","2021-03-03 15:00","2021","03","03","15:00","0.9","","0.9","","100","","","","2","","37","","2.4","","98.79","","","","","","Drizzle,Snow"
"-61.68","56.55","NAIN A","8502801","2021-03-03 16:00","2021","03","03","16:00","0.7","","0.7","","100","","","","2","","45","","2.4","","98.76","","","","","","Rain,Drizzle,Snow"
"-61.68","56.55","NAIN A","8502801","2021-03-03 17:00","2021","03","03","17:00","0.5","","0.5","","100","","","","2","","41","","2.4","","98.79","","","","","","Rain,Snow"
"-61.68","56.55","NAIN A","8502801","2021-03-03 18:00","2021","03","03","18:00","1.0","","1.0","","100","","","","2","","48","","4.8","","98.79","","","","","","Drizzle,Fog"
"-61.68","56.55","NAIN A","8502801","2021-03-03 19:00","2021","03","03","19:00","1.1","","1.1","","100","","","","3","","47","","4.8","","98.75","","","","","","Rain,Drizzle,Fog"
"-61.68","56.55","NAIN A","8502801","2021-03-03 20:00","2021","03","03","20:00","0.7","","0.7","","100","","","","2","","47","","3.2","","98.70","","","","","","Rain,Fog"
"-61.68","56.55","NAIN A","8502801","2021-03-03 21:00","2021","03","03","21:00"
"-61.68","56.55","NAIN A","8502801","2021-03-03 22:00","2021","03","03","22:00"
"-61.68","56.55","NAIN A","8502801","2021-03-03 23:00","2021","03","03","23:00"
"-61.68","56.55","NAIN A","8502801","2021-03-04 00:00","2021","03","04","00:00"
"-61.68","56.55","NAIN A","8502801","2021-03-04 01:00","2021","03","04","01:00"
"-61.68","56.55","NAIN A","8502801","2021-03-04 02:00","2021","03","04","02:00"
"-61.68","56.55","NAIN A","8502801","2021-03-04 03:00","2021","03","04","03:00"
"-61.68","56.55","NAIN A","8502801","2021-03-04 04:00","2021","03","04","04:00"
"-61.68","56.55","NAIN A","8502801","2021-03-04 05:00","2021","03","04","05:00","0.9","","0.9","","100","","","","2","","49","","3.2","","97.90","","","","","","Rain,Snow"
"-61.68","56.55","NAIN A","8502801","2021-03-04 06:00","2021","03","04","06:00","-0.2","","-0.2","","99","","","","10","","53","","12.9","","98.16","","","","-9","","Freezing Drizzle"
"-61.68","56.55","NAIN A","8502801","2021-03-04 07:00","2021","03","04","07:00","-1.8","","-3.5","","88","","","","10","","67","","24.1","","98.56","","","","-12","","NA"
"-61.68","56.55","NAIN A","8502801","2021-03-04 08:00","2021","03","04","08:00","-1.9","","-4.3","","84","","","","9","","49","","24.1","","98.78","","","","-11","","Snow Showers"
"-61.68","56.55","NAIN A","8502801","2021-03-04 09:00","2021","03","04","09:00","-2.5","","-7.5","","69","","","","9","","43","","24.1","","98.94","","","","-11","","NA"
"-61.68","56.55","NAIN A","8502801","2021-03-04 10:00","2021","03","04","10:00","-1.8","","-6.1","","72","","","","8","","32","","24.1","","99.03","","","","-9","","NA"
"-61.68","56.55","NAIN A","8502801","2021-03-04 11:00","2021","03","04","11:00","-1.4","","-5.2","","75","","","","5","","27","","24.1","","99.07","","","","-8","","Mainly Clear"
"-61.68","56.55","NAIN A","8502801","2021-03-04 12:00","2021","03","04","12:00","-1.2","","-5.9","","71","","","","3","","31","","24.1","","99.05","","","","-8","","NA"
"-61.68","56.55","NAIN A","8502801","2021-03-04 13:00","2021","03","04","13:00","-0.8","","-5.7","","69","","","","3","","36","","24.1","","98.99","","","","-8","","NA"
"-61.68","56.55","NAIN A","8502801","2021-03-04 14:00","2021","03","04","14:00","-0.6","","-4.7","","74","","","","3","","48","","24.1","","98.94","","","","-9","","Cloudy"
"-61.68","56.55","NAIN A","8502801","2021-03-04 15:00","2021","03","04","15:00","-3.3","","-3.9","","96","","","","11","","28","","1.6","","99.14","","","","-11","","Snow"
"-61.68","56.55","NAIN A","8502801","2021-03-04 16:00","2021","03","04","16:00","-3.6","","-5.4","","87","","","","9","","25","","24.1","","99.23","","","","-11","","NA"
"-61.68","56.55","NAIN A","8502801","2021-03-04 17:00","2021","03","04","17:00","-4.2","","-6.0","","87","","","","5","","25","","24.1","","99.28","","","","-11","","Mainly Clear"
"-61.68","56.55","NAIN A","8502801","2021-03-04 18:00","2021","03","04","18:00","-3.8","","-5.5","","88","","","","5","","23","","24.1","","99.33","","","","-11","","NA"
"-61.68","56.55","NAIN A","8502801","2021-03-04 19:00","2021","03","04","19:00","-3.4","","-4.6","","91","","","","5","","28","","24.1","","99.40","","","","-11","","NA"
"-61.68","56.55","NAIN A","8502801","2021-03-04 20:00","2021","03","04","20:00","-2.9","","-4.2","","91","","","","5","","26","","24.1","","99.44","","","","-10","","Cloudy"
"-61.68","56.55","NAIN A","8502801","2021-03-04 21:00","2021","03","04","21:00"
"-61.68","56.55","NAIN A","8502801","2021-03-04 22:00","2021","03","04","22:00"
"-61.68","56.55","NAIN A","8502801","2021-03-04 23:00","2021","03","04","23:00"
"-61.68","56.55","NAIN A","8502801","2021-03-05 00:00","2021","03","05","00:00"
"-61.68","56.55","NAIN A","8502801","2021-03-05 01:00","2021","03","05","01:00"
"-61.68","56.55","NAIN A","8502801","2021-03-05 02:00","2021","03","05","02:00"
"-61.68","56.55","NAIN A","8502801","2021-03-05 03:00","2021","03","05","03:00"
"-61.68","56.55","NAIN A","8502801","2021-03-05 04:00","2021","03","05","04:00"
"-61.68","56.55","NAIN A","8502801","2021-03-05 05:00","2021","03","05","05:00","-1.6","","-1.8","","98","","","","5","","38","","2.4","","99.12","","","","-9","","Snow,Blowing Snow"
"-61.68","56.55","NAIN A","8502801","2021-03-05 06:00","2021","03","05","06:00","-1.5","","-1.7","","98","","","","4","","40","","2.4","","99.06","","","","-9","","Snow,Blowing Snow"
"-61.68","56.55","NAIN A","8502801","2021-03-05 07:00","2021","03","05","07:00","-1.2","","-1.3","","99","","","","3","","43","","2.4","","98.98","","","","-9","","Snow,Blowing Snow"
"-61.68","56.55","NAIN A","8502801","2021-03-05 08:00","2021","03","05","08:00","-0.7","","-1.0","","98","","","","3","","49","","1.6","","98.91","","","","-9","","Snow,Blowing Snow"
"-61.68","56.55","NAIN A","8502801","2021-03-05 09:00","2021","03","05","09:00","-0.4","","-0.5","","99","","","","5","","44","","1.6","","98.88","","","","-8","","Snow,Blowing Snow"
"-61.68","56.55","NAIN A","8502801","2021-03-05 10:00","2021","03","05","10:00","-0.6","","-0.6","","100","","","","6","","44","","1.6","","98.83","","","","-9","","Snow,Blowing Snow"
"-61.68","56.55","NAIN A","8502801","2021-03-05 11:00","2021","03","05","11:00","-0.6","","-0.6","","100","","","","6","","32","","1.6","","98.81","","","","-7","","Snow"
"-61.68","56.55","NAIN A","8502801","2021-03-05 12:00","2021","03","05","12:00","-2.0","","-2.2","","98","","","","11","","27","","1.2","","98.82","","","","-9","","Snow"
"-61.68","56.55","NAIN A","8502801","2021-03-05 13:00","2021","03","05","13:00","-2.4","","-2.6","","98","","","","10","","30","","24.1","","98.83","","","","-10","","Snow"
"-61.68","56.55","NAIN A","8502801","2021-03-05 14:00","2021","03","05","14:00","-2.5","","-3.7","","91","","","","10","","37","","24.1","","98.89","","","","-10","","Snow Showers"
"-61.68","56.55","NAIN A","8502801","2021-03-05 15:00","2021","03","05","15:00","-2.9","","-3.8","","94","","","","12","","36","","1.6","","98.95","","","","-11","","Snow"
"-61.68","56.55","NAIN A","8502801","2021-03-05 16:00","2021","03","05","16:00","-3.4","","-3.9","","97","","","","10","","23","","2.0","","98.98","","","","-10","","Snow"
"-61.68","56.55","NAIN A","8502801","2021-03-05 17:00","2021","03","05","17:00","-4.0","","-4.1","","99","","","","8","","15","","1.2","","99.02","","","","-9","","Snow"
"-61.68","56.55","NAIN A","8502801","2021-03-05 18:00","2021","03","05","18:00","-4.0","","-4.1","","99","","","","8","","16","","1.6","","99.05","","","","-10","","Snow"
"-61.68","56.55","NAIN A","8502801","2021-03-05 19:00","2021","03","05","19:00","-4.0","","-4.4","","97","","","","10","","24","","4.8","","99.11","","","","-11","","Snow"
"-61.68","56.55","NAIN A","8502801","2021-03-05 20:00","2021","03","05","20:00","-4.4","","-5.2","","94","","","","11","","6","","24.1","","99.16","","","","-7","","Snow Showers"
"-61.68","56.55","NAIN A","8502801","2021-03-05 21:00","2021","03","05","21:00"
"-61.68","56.55","NAIN A","8502801","2021-03-05 22:00","2021","03","05","22:00"
"-61.68","56.55","NAIN A","8502801","2021-03-05 23:00","2021","03","05","23:00"
"-61.68","56.55","NAIN A","8502801","2021-03-06 00:00","2021","03","06","00:00"
"-61.68","56.55","NAIN A","8502801","2021-03-06 01:00","2021","03","06","01:00"
"-61.68","56.55","NAIN A","8502801","2021-03-06 02:00","2021","03","06","02:00"
"-61.68","56.55","NAIN A","8502801","2021-03-06 03:00","2021","03","06","03:00"
"-61.68","56.55","NAIN A","8502801","2021-03-06 04:00","2021","03","06","04:00"
"-61.68","56.55","NAIN A","8502801","2021-03-06 05:00","2021","03","06","05:00","-4.0","","-4.5","","96","","","","3","","10","","24.1","","99.32","","","","-8","","Snow Showers"
"-61.68","56.55","NAIN A","8502801","2021-03-06 06:00","2021","03","06","06:00","-3.9","","-4.5","","96","","","","5","","21","","24.1","","99.35","","","","-10","","Snow Showers"
"-61.68","56.55","NAIN A","8502801","2021-03-06 07:00","2021","03","06","07:00","-3.9","","-4.5","","96","","","","7","","14","","24.1","","99.40","","","","-9","","NA"
"-61.68","56.55","NAIN A","8502801","2021-03-06 08:00","2021","03","06","08:00","-4.2","","-4.8","","96","","","","5","","15","","24.1","","99.46","","","","-10","","Cloudy"
"-61.68","56.55","NAIN A","8502801","2021-03-06 09:00","2021","03","06","09:00","-3.8","","-4.8","","93","","","","5","","16","","24.1","","99.52","","","","-9","","Snow Showers"
"-61.68","56.55","NAIN A","8502801","2021-03-06 10:00","2021","03","06","10:00","-3.6","","-5.0","","90","","","","10","","5","","24.1","","99.56","","","","-6","","Snow Showers"
"-61.68","56.55","NAIN A","8502801","2021-03-06 11:00","2021","03","06","11:00","-3.1","","-4.5","","90","","","","5","","9","","24.1","","99.59","","","","-7","","Cloudy"
"-61.68","56.55","NAIN A","8502801","2021-03-06 12:00","2021","03","06","12:00","-2.9","","-4.6","","88","","","","8","","13","","24.1","","99.62","","","","-8","","NA"
"-61.68","56.55","NAIN A","8502801","2021-03-06 13:00","2021","03","06","13:00","-2.9","","-4.8","","87","","","","6","","8","","24.1","","99.63","","","","-6","","Snow Showers"
"-61.68","56.55","NAIN A","8502801","2021-03-06 14:00","2021","03","06","14:00","-3.0","","-5.0","","86","","","","9","","7","","24.1","","99.65","","","","-6","","Mostly Cloudy"
"-61.68","56.55","NAIN A","8502801","2021-03-06 15:00","2021","03","06","15:00","-4.0","","-5.8","","87","","","","9","","13","","24.1","","99.69","","","","-9","","NA"
"-61.68","56.55","NAIN A","8502801","2021-03-06 16:00","2021","03","06","16:00","-5.1","","-7.1","","86","","","","9","","13","","24.1","","99.73","","","","-10","","NA"
"-61.68","56.55","NAIN A","8502801","2021-03-06 17:00","2021","03","06","17:00","-5.0","","-6.8","","88","","","","12","","3","","24.1","","99.81","","","","-6","","Mostly Cloudy"
"-61.68","56.55","NAIN A","8502801","2021-03-06 18:00","2021","03","06","18:00","-5.2","","-6.8","","89","","","","19","","4","","24.1","","99.86","","","","-7","","NA"
"-61.68","56.55","NAIN A","8502801","2021-03-06 19:00","2021","03","06","19:00","-6.0","","-7.4","","90","","","","20","","14","","24.1","","99.89","","","","-12","","NA"
"-61.68","56.55","NAIN A","8502801","2021-03-06 20:00","2021","03","06","20:00","-8.9","","-9.3","","97","","","","21","","5","","24.1","","99.95","","","","-12","","Mainly Clear"
"-61.68","56.55","NAIN A","8502801","2021-03-06 21:00","2021","03","06","21:00"
"-61.68","56.55","NAIN A","8502801","2021-03-06 22:00","2021","03","06","22:00"
"-61.68","56.55","NAIN A","8502801","2021-03-06 23:00","2021","03","06","23:00"
"-61.68","56.55","NAIN A","8502801","2021-03-07 00:00","2021","03","07","00:00"
"-61.68","56.55","NAIN A","8502801","2021-03-07 01:00","2021","03","07","01:00"
"-61.68","56.55","NAIN A","8502801","2021-03-07 02:00","2021","03","07","02:00"
"-61.68","56.55","NAIN A","8502801","2021-03-07 03:00","2021","03","07","03:00"
"-61.68","56.55","NAIN A","8502801","2021-03-07 04:00","2021","03","07","04:00"
"-61.68","56.55","NAIN A","8502801","2021-03-07 05:00","2021","03","07","05:00","-7.6","","-10.0","","83","","","","20","","13","","24.1","","100.04","","","","-13","","Mostly Cloudy"
"-61.68","56.55","NAIN A","8502801","2021-03-07 06:00","2021","03","07","06:00","-6.4","","-9.1","","81","","","","36","","1","","24.1","","100.07","","","","-7","","NA"
"-61.68","56.55","NAIN A","8502801","2021-03-07 07:00","2021","03","07","07:00","-6.7","","-8.5","","87","","","","36","","1","","22.5","","100.11","","","","-7","","Snow Showers"
"-61.68","56.55","NAIN A","8502801","2021-03-07 08:00","2021","03","07","08:00","-7.9","","-9.3","","90","","","","33","","5","","24.1","","100.17","","","","-11","","Snow Showers"
"-61.68","56.55","NAIN A","8502801","2021-03-07 09:00","2021","03","07","09:00","-5.3","","-7.3","","86","","","","32","","23","","16.1","","100.20","","","","-12","","Snow Showers"
"-61.68","56.55","NAIN A","8502801","2021-03-07 10:00","2021","03","07","10:00","-6.0","","-6.8","","94","","","","1","","12","","6.4","","100.28","","","","-11","","Snow Showers"
"-61.68","56.55","NAIN A","8502801","2021-03-07 11:00","2021","03","07","11:00","-6.4","","-7.3","","93","","","","8","","9","","4.8","","100.35","","","","-11","","Snow Showers"
"-61.68","56.55","NAIN A","8502801","2021-03-07 12:00","2021","03","07","12:00","-5.6","","-8.5","","80","","","","33","","18","","2.4","","100.39","","","","-12","","Snow"
"-61.68","56.55","NAIN A","8502801","2021-03-07 13:00","2021","03","07","13:00","-5.4","","-8.4","","79","","","","32","","28","","6.4","","100.42","","","","-13","","Snow"
"-61.68","56.55","NAIN A","8502801","2021-03-07 14:00","2021","03","07","14:00","-5.3","","-8.6","","78","","","","31","","26","","24.1","","100.47","","","","-13","","Snow Showers"
"-61.68","56.55","NAIN A","8502801","2021-03-07 15:00","2021","03","07","15:00","-5.2","","-9.0","","75","","","","31","","23","","24.1","","100.55","","","","-12","","NA"
"-61.68","56.55","NAIN A","8502801","2021-03-07 16:00","2021","03","07","16:00","-5.1","","-8.7","","76","","","","32","","26","","24.1","","100.63","","","","-13","","NA"
"-61.68","56.55","NAIN A","8502801","2021-03-07 17:00","2021","03","07","17:00","-5.6","","-8.4","","81","","","","33","","34","","20.9","","100.67","","","","-14","","Snow Showers"
"-61.68","56.55","NAIN A","8502801","2021-03-07 18:00","2021","03","07","18:00","-5.7","","-8.6","","80","","","","34","","35","","24.1","","100.77","","","","-14","","Snow Showers"
"-61.68","56.55","NAIN A","8502801","2021-03-07 19:00","2021","03","07","19:00","-5.8","","-8.4","","82","","","","33","","30","","24.1","","100.85","","","","-14","","NA"
"-61.68","56.55","NAIN A","8502801","2021-03-07 20:00","2021","03","07","20:00","-5.5","","-9.2","","75","","","","33","","24","","24.1","","100.95","","","","-13","","Cloudy"
"-61.68","56.55","NAIN A","8502801","2021-03-07 21:00","2021","03","07","21:00"
"-61.68","56.55","NAIN A","8502801","2021-03-07 22:00","2021","03","07","22:00"
"-61.68","56.55","NAIN A","8502801","2021-03-07 23:00","2021","03","07","23:00"
"-61.68","56.55","NAIN A","8502801","2021-03-08 00:00","2021","03","08","00:00"
"-61.68","56.55","NAIN A","8502801","2021-03-08 01:00","2021","03","08","01:00"
"-61.68","56.55","NAIN A","8502801","2021-03-08 02:00","2021","03","08","02:00"
"-61.68","56.55","NAIN A","8502801","2021-03-08 03:00","2021","03","08","03:00"
"-61.68","56.55","NAIN A","8502801","2021-03-08 04:00","2021","03","08","04:00"
"-61.68","56.55","NAIN A","8502801","2021-03-08 05:00","2021","03","08","05:00","-8.7","","-12.1","","77","","","","31","","28","","24.1","","101.43","","","","-18","","Snow Showers"
"-61.68","56.55","NAIN A","8502801","2021-03-08 06:00","2021","03","08","06:00","-8.5","","-12.8","","71","","","","28","","18","","24.1","","101.51","","","","-16","","NA"
"-61.68","56.55","NAIN A","8502801","2021-03-08 07:00","2021","03","08","07:00","-9.2","","-13.1","","73","","","","29","","30","","24.1","","101.56","","","","-18","","NA"
"-61.68","56.55","NAIN A","8502801","2021-03-08 08:00","2021","03","08","08:00","-10.0","","-14.1","","72","","","","28","","22","","24.1","","101.65","","","","-18","","Mostly Cloudy"
"-61.68","56.55","NAIN A","8502801","2021-03-08 09:00","2021","03","08","09:00","-9.6","","-14.0","","71","","","","30","","21","","24.1","","101.69","","","","-18","","NA"
"-61.68","56.55","NAIN A","8502801","2021-03-08 10:00","2021","03","08","10:00","-9.7","","-15.3","","64","","","","4","","12","","24.1","","101.70","","","","-16","","NA"
"-61.68","56.55","NAIN A","8502801","2021-03-08 11:00","2021","03","08","11:00","-8.3","","-14.1","","63","","","","25","","13","","24.1","","101.73","","","","-14","","Clear"
"-61.68","56.55","NAIN A","8502801","2021-03-08 12:00","2021","03","08","12:00","-8.0","","-13.9","","63","","","","24","","16","","24.1","","101.72","","","","-15","","NA"
"-61.68","56.55","NAIN A","8502801","2021-03-08 13:00","2021","03","08","13:00","-8.6","","-14.5","","63","","","","26","","32","","24.1","","101.66","","","","-18","","NA"
"-61.68","56.55","NAIN A","8502801","2021-03-08 14:00","2021","03","08","14:00","-9.0","","-15.1","","61","","","","25","","25","","24.1","","101.67","","","","-17","","Clear"
"-61.68","56.55","NAIN A","8502801","2021-03-08 15:00","2021","03","08","15:00","-9.3","","-15.4","","61","","","","23","","16","","24.1","","101.60","","","","-16","","NA"
"-61.68","56.55","NAIN A","8502801","2021-03-08 16:00","2021","03","08","16:00","-10.3","","-16.9","","59","","","","25","","27","","24.1","","101.59","","","","-19","","NA"
"-61.68","56.55","NAIN A","8502801","2021-03-08 17:00","2021","03","08","17:00","-12.0","","-18.4","","59","","","","20","","25","","24.1","","101.58","","","","-21","","Clear"
"-61.68","56.55","NAIN A","8502801","2021-03-08 18:00","2021","03","08","18:00","-12.8","","-19.1","","60","","","","23","","13","","24.1","","101.63","","","","-20","","NA"
"-61.68","56.55","NAIN A","8502801","2021-03-08 19:00","2021","03","08","19:00","-13.4","","-19.7","","60","","","","23","","18","","24.1","","101.60","","","","-22","","NA"
"-61.68","56.55","NAIN A","8502801","2021-03-08 20:00","2021","03","08","20:00","-13.4","","-19.1","","62","","","","23","","23","","24.1","","101.53","","","","-23","","Clear"
"-61.68","56.55","NAIN A","8502801","2021-03-08 21:00","2021","03","08","21:00"
"-61.68","56.55","NAIN A","8502801","2021-03-08 22:00","2021","03","08","22:00"
"-61.68","56.55","NAIN A","8502801","2021-03-08 23:00","2021","03","08","23:00"
"-61.68","56.55","NAIN A","8502801","2021-03-09 00:00","2021","03","09","00:00"
"-61.68","56.55","NAIN A","8502801","2021-03-09 01:00","2021","03","09","01:00"
"-61.68","56.55","NAIN A","8502801","2021-03-09 02:00","2021","03","09","02:00"
"-61.68","56.55","NAIN A","8502801","2021-03-09 03:00","2021","03","09","03:00"
"-61.68","56.55","NAIN A","8502801","2021-03-09 04:00","2021","03","09","04:00"
"-61.68","56.55","NAIN A","8502801","2021-03-09 05:00","2021","03","09","05:00","-13.3","","-20.0","","58","","","","14","","5","","24.1","","101.06","","","","-17","","Clear"
"-61.68","56.55","NAIN A","8502801","2021-03-09 06:00","2021","03","09","06:00","-14.9","","-20.0","","66","","","","29","","8","","24.1","","101.03","","","","-20","","NA"
"-61.68","56.55","NAIN A","8502801","2021-03-09 07:00","2021","03","09","07:00","-13.2","","-19.4","","60","","","","29","","8","","24.1","","101.01","","","","-18","","NA"
"-61.68","56.55","NAIN A","8502801","2021-03-09 08:00","2021","03","09","08:00","-11.3","","-17.9","","59","","","","29","","4","","24.1","","100.97","","","","-14","","Cloudy"
"-61.68","56.55","NAIN A","8502801","2021-03-09 09:00","2021","03","09","09:00","-8.2","","-16.8","","50","","","","18","","9","","24.1","","100.94","","","","-13","","NA"
"-61.68","56.55","NAIN A","8502801","2021-03-09 10:00","2021","03","09","10:00","-5.8","","-14.5","","51","","","","24","","16","","24.1","","100.92","","","","-12","","NA"
"-61.68","56.55","NAIN A","8502801","2021-03-09 11:00","2021","03","09","11:00","-6.1","","-13.8","","54","","","","23","","18","","24.1","","100.90","","","","-13","","Mostly Cloudy"
"-61.68","56.55","NAIN A","8502801","2021-03-09 12:00","2021","03","09","12:00","-6.0","","-13.3","","57","","","","25","","11","","24.1","","100.90","","","","-11","","NA"
"-61.68","56.55","NAIN A","8502801","2021-03-09 13:00","2021","03","09","13:00","-5.7","","-12.6","","58","","","","28","","35","","24.1","","100.88","","","","-14","","NA"
"-61.68","56.55","NAIN A","8502801","2021-03-09 14:00","2021","03","09","14:00","-5.9","","-12.2","","62","","","","28","","31","","24.1","","100.89","","","","-14","","Mostly Cloudy"
"-61.68","56.55","NAIN A","8502801","2021-03-09 15:00","2021","03","09","15:00","-5.8","","-12.0","","62","","","","27","","29","","24.1","","100.92","","","","-14","","NA"
"-61.68","56.55","NAIN A","8502801","2021-03-09 16:00","2021","03","09","16:00","-6.0","","-11.7","","64","","","","28","","17","","24.1","","100.96","","","","-12","","NA"
"-61.68","56.55","NAIN A","8502801","2021-03-09 17:00","2021","03","09","17:00","-6.3","","-11.5","","67","","","","29","","34","","24.1","","101.03","","","","-15","","Mostly Cloudy"
"-61.68","56.55","NAIN A","8502801","2021-03-09 18:00","2021","03","09","18:00","-6.4","","-11.0","","70","","","","29","","35","","24.1","","101.09","","","","-15","","NA"
"-61.68","56.55","NAIN A","8502801","2021-03-09 19:00","2021","03","09","19:00","-6.8","","-11.1","","72","","","","29","","34","","24.1","","101.12","","","","-16","","NA"
"-61.68","56.55","NAIN A","8502801","2021-03-09 20:00","2021","03","09","20:00","-7.0","","-11.6","","70","","","","29","","22","","24.1","","101.17","","","","-14","","Mainly Clear"
"-61.68","56.55","NAIN A","8502801","2021-03-09 21:00","2021","03","09","21:00"
"-61.68","56.55","NAIN A","8502801","2021-03-09 22:00","2021","03","09","22:00"
"-61.68","56.55","NAIN A","8502801","2021-03-09 23:00","2021","03","09","23:00"
"-61.68","56.55","NAIN A","8502801","2021-03-10 00:00","2021","03","10","00:00"
"-61.68","56.55","NAIN A","8502801","2021-03-10 01:00","2021","03","10","01:00"
"-61.68","56.55","NAIN A","8502801","2021-03-10 02:00","2021","03","10","02:00"
"-61.68","56.55","NAIN A","8502801","2021-03-10 03:00","2021","03","10","03:00"
"-61.68","56.55","NAIN A","8502801","2021-03-10 04:00","2021","03","10","04:00"
"-61.68","56.55","NAIN A","8502801","2021-03-10 05:00","2021","03","10","05:00","-9.2","","-12.5","","77","","","","7","","4","","24.1","","101.34","","","","-11","","Clear"
"-61.68","56.55","NAIN A","8502801","2021-03-10 06:00","2021","03","10","06:00","-8.1","","-12.0","","74","","","","30","","21","","24.1","","101.33","","","","-16","","NA"
"-61.68","56.55","NAIN A","8502801","2021-03-10 07:00","2021","03","10","07:00","-7.1","","-12.1","","68","","","","27","","32","","24.1","","101.29","","","","-16","","NA"
"-61.68","56.55","NAIN A","8502801","2021-03-10 08:00","2021","03","10","08:00","-6.7","","-11.8","","68","","","","29","","33","","24.1","","101.35","","","","-16","","Mostly Cloudy"
"-61.68","56.55","NAIN A","8502801","2021-03-10 09:00","2021","03","10","09:00","-6.6","","-11.4","","69","","","","28","","20","","24.1","","101.39","","","","-14","","NA"
"-61.68","56.55","NAIN A","8502801","2021-03-10 10:00","2021","03","10","10:00","-5.9","","-11.0","","67","","","","28","","18","","24.1","","101.33","","","","-12","","NA"
"-61.68","56.55","NAIN A","8502801","2021-03-10 11:00","2021","03","10","11:00","-4.4","","-10.8","","61","","","","27","","21","","24.1","","101.25","","","","-11","","Cloudy"
"-61.68","56.55","NAIN A","8502801","2021-03-10 12:00","2021","03","10","12:00","-4.2","","-10.2","","63","","","","29","","29","","24.1","","101.18","","","","-12","","NA"
"-61.68","56.55","NAIN A","8502801","2021-03-10 13:00","2021","03","10","13:00","-3.6","","-9.2","","66","","","","28","","25","","24.1","","101.09","","","","-11","","NA"
"-61.68","56.55","NAIN A","8502801","2021-03-10 14:00","2021","03","10","14:00","-3.5","","-8.4","","69","","","","26","","7","","24.1","","100.96","","","","-6","","Cloudy"
"-61.68","56.55","NAIN A","8502801","2021-03-10 15:00","2021","03","10","15:00","-3.5","","-8.3","","69","","","","29","","9","","24.1","","100.86","","","","-7","","NA"
"-61.68","56.55","NAIN A","8502801","2021-03-10 16:00","2021","03","10","16:00","-4.2","","-8.6","","72","","","","29","","4","","24.1","","100.75","","","","-6","","Snow"
"-61.68","56.55","NAIN A","8502801","2021-03-10 17:00","2021","03","10","17:00","-5.0","","-6.1","","92","","","","7","","11","","4.8","","100.67","","","","-10","","Snow"
"-61.68","56.55","NAIN A","8502801","2021-03-10 18:00","2021","03","10","18:00","-5.6","","-6.1","","96","","","","7","","19","","2.4","","100.57","","","","-12","","Snow"
"-61.68","56.55","NAIN A","8502801","2021-03-10 19:00","2021","03","10","19:00","-5.8","","-6.2","","97","","","","5","","12","","3.2","","100.48","","","","-11","","Snow"
"-61.68","56.55","NAIN A","8502801","2021-03-10 20:00","2021","03","10","20:00","-6.1","","-6.5","","97","","","","36","","13","","4.0","","100.40","","","","-11","","Snow"
"-61.68","56.55","NAIN A","8502801","2021-03-10 21:00","2021","03","10","21:00"
"-61.68","56.55","NAIN A","8502801","2021-03-10 22:00","2021","03","10","22:00"
"-61.68","56.55","NAIN A","8502801","2021-03-10 23:00","2021","03","10","23:00"
"-61.68","56.55","NAIN A","8502801","2021-03-11 00:00","2021","03","11","00:00"
"-61.68","56.55","NAIN A","8502801","2021-03-11 01:00","2021","03","11","01:00"
"-61.68","56.55","NAIN A","8502801","2021-03-11 02:00","2021","03","11","02:00"
"-61.68","56.55","NAIN A","8502801","2021-03-11 03:00","2021","03","11","03:00"
"-61.68","56.55","NAIN A","8502801","2021-03-11 04:00","2021","03","11","04:00"
"-61.68","56.55","NAIN A","8502801","2021-03-11 05:00","2021","03","11","05:00","-16.1","","-22.8","","57","","","","29","","29","","24.1","","100.87","","","","-27","","Clear"
"-61.68","56.55","NAIN A","8502801","2021-03-11 06:00","2021","03","11","06:00","-16.3","","-23.5","","54","","","","27","","19","","24.1","","100.99","","","","-26","","NA"
"-61.68","56.55","NAIN A","8502801","2021-03-11 07:00","2021","03","11","07:00","-16.5","","-23.8","","54","","","","26","","21","","24.1","","101.12","","","","-26","","NA"
"-61.68","56.55","NAIN A","8502801","2021-03-11 08:00","2021","03","11","08:00","-16.7","","-23.4","","57","","","","29","","37","","24.1","","101.22","","","","-29","","Clear"
"-61.68","56.55","NAIN A","8502801","2021-03-11 09:00","2021","03","11","09:00","-16.2","","-23.6","","54","","","","25","","19","","24.1","","101.28","","","","-25","","NA"
"-61.68","56.55","NAIN A","8502801","2021-03-11 10:00","2021","03","11","10:00","-15.3","","-23.9","","48","","","","26","","28","","24.1","","101.34","","","","-26","","NA"
"-61.68","56.55","NAIN A","8502801","2021-03-11 11:00","2021","03","11","11:00","-14.6","","-22.6","","52","","","","22","","10","","24.1","","101.37","","","","-21","","Clear"
"-61.68","56.55","NAIN A","8502801","2021-03-11 12:00","2021","03","11","12:00","-14.8","","-22.4","","53","","","","30","","35","","24.1","","101.40","","","","-27","","NA"
"-61.68","56.55","NAIN A","8502801","2021-03-11 13:00","2021","03","11","13:00","-15.3","","-22.0","","57","","","","19","","31","","24.1","","101.40","","","","-27","","NA"
"-61.68","56.55","NAIN A","8502801","2021-03-11 14:00","2021","03","11","14:00","-14.2","","-22.2","","51","","","","24","","19","","24.1","","101.44","","","","-23","","Clear"
"-61.68","56.55","NAIN A","8502801","2021-03-11 15:00","2021","03","11","15:00","-14.3","","-21.7","","54","","","","16","","23","","24.1","","101.46","","","","-24","","NA"
"-61.68","56.55","NAIN A","8502801","2021-03-11 16:00","2021","03","11","16:00","-14.7","","-22.3","","53","","","","24","","17","","24.1","","101.48","","","","-23","","NA"
"-61.68","56.55","NAIN A","8502801","2021-03-11 17:00","2021","03","11","17:00","-14.8","","-22.4","","53","","","","11","","9","","24.1","","101.42","","","","-21","","Clear"
"-61.68","56.55","NAIN A","8502801","2021-03-11 18:00","2021","03","11","18:00","-15.2","","-22.6","","54","","","","25","","34","","24.1","","101.47","","","","-27","","NA"
"-61.68","56.55","NAIN A","8502801","2021-03-11 19:00","2021","03","11","19:00","-16.4","","-23.1","","57","","","","21","","16","","24.1","","101.49","","","","-25","","NA"
"-61.68","56.55","NAIN A","8502801","2021-03-11 20:00","2021","03","11","20:00","-15.3","","-22.5","","55","","","","4","","8","","24.1","","101.43","","","","-21","","Clear"
"-61.68","56.55","NAIN A","8502801","2021-03-11 21:00","2021","03","11","21:00"
"-61.68","56.55","NAIN A","8502801","2021-03-11 22:00","2021","03","11","22:00"
"-61.68","56.55","NAIN A","8502801","2021-03-11 23:00","2021","03","11","23:00"
"-61.68","56.55","NAIN A","8502801","2021-03-12 00:00","2021","03","12","00:00"
"-61.68","56.55","NAIN A","8502801","2021-03-12 01:00","2021","03","12","01:00"
"-61.68","56.55","NAIN A","8502801","2021-03-12 02:00","2021","03","12","02:00"
"-61.68","56.55","NAIN A","8502801","2021-03-12 03:00","2021","03","12","03:00"
"-61.68","56.55","NAIN A","8502801","2021-03-12 04:00","2021","03","12","04:00"
"-61.68","56.55","NAIN A","8502801","2021-03-12 05:00","2021","03","12","05:00","-15.5","","-21.2","","62","","","","32","","8","","24.1","","100.62","","","","-21","","Cloudy"
"-61.68","56.55","NAIN A","8502801","2021-03-12 06:00","2021","03","12","06:00","-15.3","","-20.2","","67","","","","32","","9","","24.1","","100.53","","","","-21","","NA"
"-61.68","56.55","NAIN A","8502801","2021-03-12 07:00","2021","03","12","07:00","-14.6","","-19.6","","66","","","","36","","3","","24.1","","100.41","","","","-17","","NA"
"-61.68","56.55","NAIN A","8502801","2021-03-12 08:00","2021","03","12","08:00","-13.5","","-16.9","","76","","","","30","","10","","24.1","","100.27","","","","-19","","Cloudy"
"-61.68","56.55","NAIN A","8502801","2021-03-12 09:00","2021","03","12","09:00","-11.6","","-13.4","","86","","","","5","","27","","1.6","","100.13","","","","-21","","Snow"
"-61.68","56.55","NAIN A","8502801","2021-03-12 10:00","2021","03","12","10:00","-10.8","","-12.1","","90","","","","3","","27","","0.8","","99.94","","","","-20","","Moderate Snow"
"-61.68","56.55","NAIN A","8502801","2021-03-12 11:00","2021","03","12","11:00","-9.4","","-10.7","","91","","","","3","","31","","0.8","","99.77","","","","-19","","Moderate Snow"
"-61.68","56.55","NAIN A","8502801","2021-03-12 12:00","2021","03","12","12:00","-8.0","","-9.0","","93","","","","4","","31","","0.8","","99.60","","","","-17","","Moderate Snow"
"-61.68","56.55","NAIN A","8502801","2021-03-12 13:00","2021","03","12","13:00","-6.8","","-7.6","","94","","","","5","","36","","0.8","","99.46","","","","-16","","Moderate Snow"
"-61.68","56.55","NAIN A","8502801","2021-03-12 14:00","2021","03","12","14:00","-6.0","","-6.7","","95","","","","5","","38","","0.8","","99.35","","","","-15","","Moderate Snow"
"-61.68","56.55","NAIN A","8502801","2021-03-12 15:00","2021","03","12","15:00","-5.5","","-6.5","","93","","","","3","","42","","1.2","","99.23","","","","-15","","Snow,Blowing Snow"
"-61.68","56.55","NAIN A","8502801","2021-03-12 16:00","2021","03","12","16:00","-5.3","","-5.9","","95","","","","3","","43","","1.2","","99.18","","","","-15","","Snow,Blowing Snow"
"-61.68","56.55","NAIN A","8502801","2021-03-12 17:00","2021","03","12","17:00","-5.0","","-5.6","","96","","","","3","","44","","1.2","","99.17","","","","-14","","Snow,Blowing Snow"
"-61.68","56.55","NAIN A","8502801","2021-03-12 18:00","2021","03","12","18:00","-5.2","","-5.7","","96","","","","3","","46","","1.2","","99.20","","","","-15","","Snow,Blowing Snow"
"-61.68","56.55","NAIN A","8502801","2021-03-12 19:00","2021","03","12","19:00","-5.5","","-6.0","","96","","","","2","","50","","1.2","","99.25","","","","-16","","Snow,Blowing Snow"
"-61.68","56.55","NAIN A","8502801","2021-03-12 20:00","2021","03","12","20:00","-5.8","","-6.5","","95","","","","2","","50","","2.0","","99.30","","","","-16","","Snow,Blowing Snow"
"-61.68","56.55","NAIN A","8502801","2021-03-12 21:00","2021","03","12","21:00"
"-61.68","56.55","NAIN A","8502801","2021-03-12 22:00","2021","03","12","22:00"
"-61.68","56.55","NAIN A","8502801","2021-03-12 23:00","2021","03","12","23:00"
"-61.68","56.55","NAIN A","8502801","2021-03-13 00:00","2021","03","13","00:00"
"-61.68","56.55","NAIN A","8502801","2021-03-13 01:00","2021","03","13","01:00"
"-61.68","56.55","NAIN A","8502801","2021-03-13 02:00","2021","03","13","02:00"
"-61.68","56.55","NAIN A","8502801","2021-03-13 03:00","2021","03","13","03:00"
"-61.68","56.55","NAIN A","8502801","2021-03-13 04:00","2021","03","13","04:00"
"-61.68","56.55","NAIN A","8502801","2021-03-13 05:00","2021","03","13","05:00","-9.9","","-12.5","","82","","","","31","","44","","4.0","","99.86","","","","-21","","Snow,Blowing Snow"
"-61.68","56.55","NAIN A","8502801","2021-03-13 06:00","2021","03","13","06:00","-10.2","","-12.4","","84","","","","32","","39","","4.8","","99.94","","","","-21","","Snow,Blowing Snow"
"-61.68","56.55","NAIN A","8502801","2021-03-13 07:00","2021","03","13","07:00","-10.2","","-13.1","","80","","","","32","","36","","11.3","","100.00","","","","-21","","Snow,Blowing Snow"
"-61.68","56.55","NAIN A","8502801","2021-03-13 08:00","2021","03","13","08:00","-9.8","","-13.6","","74","","","","32","","40","","24.1","","100.05","","","","-20","","Blowing Snow"
"-61.68","56.55","NAIN A","8502801","2021-03-13 09:00","2021","03","13","09:00","-10.0","","-13.5","","75","","","","32","","36","","24.1","","100.08","","","","-20","","Blowing Snow"
"-61.68","56.55","NAIN A","8502801","2021-03-13 10:00","2021","03","13","10:00","-10.8","","-14.1","","77","","","","30","","45","","24.1","","100.08","","","","-22","","Snow Showers,Blowing Snow"
"-61.68","56.55","NAIN A","8502801","2021-03-13 11:00","2021","03","13","11:00","-11.1","","-14.9","","74","","","","30","","50","","24.1","","100.12","","","","-23","","Blowing Snow"
"-61.68","56.55","NAIN A","8502801","2021-03-13 12:00","2021","03","13","12:00","-11.5","","-15.6","","72","","","","30","","46","","24.1","","100.17","","","","-23","","Blowing Snow"
"-61.68","56.55","NAIN A","8502801","2021-03-13 13:00","2021","03","13","13:00","-12.1","","-16.5","","70","","","","30","","43","","24.1","","100.20","","","","-24","","NA"
"-61.68","56.55","NAIN A","8502801","2021-03-13 14:00","2021","03","13","14:00","-12.1","","-16.9","","67","","","","30","","41","","24.1","","100.21","","","","-24","","Cloudy"
"-61.68","56.55","NAIN A","8502801","2021-03-13 15:00","2021","03","13","15:00","-12.9","","-17.7","","68","","","","29","","39","","24.1","","100.25","","","","-25","","NA"
"-61.68","56.55","NAIN A","8502801","2021-03-13 16:00","2021","03","13","16:00","-13.2","","-18.6","","64","","","","29","","37","","24.1","","100.26","","","","-25","","NA"
"-61.68","56.55","NAIN A","8502801","2021-03-13 17:00","2021","03","13","17:00","-14.3","","-19.6","","65","","","","30","","40","","24.1","","100.29","","","","-27","","Mostly Cloudy"
"-61.68","56.55","NAIN A","8502801","2021-03-13 18:00","2021","03","13","18:00","-15.5","","-20.2","","68","","","","30","","41","","24.1","","100.34","","","","-28","","NA"
"-61.68","56.55","NAIN A","8502801","2021-03-13 19:00","2021","03","13","19:00","-16.0","","-20.7","","68","","","","30","","46","","24.1","","100.40","","","","-30","","NA"
"-61.68","56.55","NAIN A","8502801","2021-03-13 20:00","2021","03","13","20:00","-16.5","","-21.3","","67","","","","30","","42","","24.1","","100.44","","","","-30","","Cloudy"
"-61.68","56.55","NAIN A","8502801","2021-03-13 21:00","2021","03","13","21:00"
"-61.68","56.55","NAIN A","8502801","2021-03-13 22:00","2021","03","13","22:00"
"-61.68","56.55","NAIN A","8502801","2021-03-13 23:00","2021","03","13","23:00"
"-61.68","56.55","NAIN A","8502801","2021-03-14 00:00","2021","03","14","00:00"
"-61.68","56.55","NAIN A","8502801","2021-03-14 01:00","2021","03","14","01:00"
"-61.68","56.55","NAIN A","8502801","2021-03-14 02:00","2021","03","14","02:00"
"-61.68","56.55","NAIN A","8502801","2021-03-14 03:00","2021","03","14","03:00"
"-61.68","56.55","NAIN A","8502801","2021-03-14 04:00","2021","03","14","04:00","-19.5","","-24.4","","66","","","","29","","16","","24.1","","100.41","","","","-29","","Snow Showers"
"-61.68","56.55","NAIN A","8502801","2021-03-14 05:00","2021","03","14","05:00","-19.6","","-24.9","","64","","","","27","","10","","24.1","","100.43","","","","-27","","Snow Showers"
"-61.68","56.55","NAIN A","8502801","2021-03-14 06:00","2021","03","14","06:00","-20.1","","-25.3","","64","","","","30","","10","","24.1","","100.44","","","","-27","","Snow Showers"
"-61.68","56.55","NAIN A","8502801","2021-03-14 07:00","2021","03","14","07:00","-20.6","","-25.5","","65","","","","27","","16","","24.1","","100.44","","","","-30","","Snow Showers"
"-61.68","56.55","NAIN A","8502801","2021-03-14 08:00","2021","03","14","08:00","-20.3","","-25.0","","67","","","","28","","12","","24.1","","100.45","","","","-28","","Snow Showers"
"-61.68","56.55","NAIN A","8502801","2021-03-14 09:00","2021","03","14","09:00","-20.1","","-25.1","","65","","","","30","","16","","24.1","","100.47","","","","-30","","Snow Showers"
"-61.68","56.55","NAIN A","8502801","2021-03-14 10:00","2021","03","14","10:00","-19.5","","-24.9","","63","","","","29","","16","","24.1","","100.46","","","","-29","","NA"
"-61.68","56.55","NAIN A","8502801","2021-03-14 11:00","2021","03","14","11:00","-18.4","","-23.9","","63","","","","31","","19","","24.1","","100.47","","","","-28","","Clear"
"-61.68","56.55","NAIN A","8502801","2021-03-14 12:00","2021","03","14","12:00","-17.5","","-23.9","","58","","","","29","","22","","24.1","","100.46","","","","-28","","NA"
"-61.68","56.55","NAIN A","8502801","2021-03-14 13:00","2021","03","14","13:00","-17.1","","-23.6","","58","","","","29","","26","","24.1","","100.42","","","","-28","","NA"
"-61.68","56.55","NAIN A","8502801","2021-03-14 14:00","2021","03","14","14:00","-16.7","","-23.3","","57","","","","30","","26","","24.1","","100.41","","","","-28","","Clear"
"-61.68","56.55","NAIN A","8502801","2021-03-14 15:00","2021","03","14","15:00","-16.6","","-23.6","","56","","","","29","","28","","24.1","","100.43","","","","-28","","NA"
"-61.68","56.55","NAIN A","8502801","2021-03-14 16:00","2021","03","14","16:00","-17.1","","-23.7","","57","","","","30","","29","","24.1","","100.45","","","","-29","","NA"
"-61.68","56.55","NAIN A","8502801","2021-03-14 17:00","2021","03","14","17:00","-18.0","","-24.3","","59","","","","29","","24","","24.1","","100.46","","","","-29","","Clear"
"-61.68","56.55","NAIN A","8502801","2021-03-14 18:00","2021","03","14","18:00","-18.3","","-24.5","","59","","","","29","","30","","24.1","","100.50","","","","-30","","NA"
"-61.68","56.55","NAIN A","8502801","2021-03-14 19:00","2021","03","14","19:00","-19.5","","-25.3","","61","","","","29","","27","","24.1","","100.51","","","","-31","","NA"
"-61.68","56.55","NAIN A","8502801","2021-03-14 20:00","2021","03","14","20:00"
"-61.68","56.55","NAIN A","8502801","2021-03-14 21:00","2021","03","14","21:00"
"-61.68","56.55","NAIN A","8502801","2021-03-14 22:00","2021","03","14","22:00"
"-61.68","56.55","NAIN A","8502801","2021-03-14 23:00","2021","03","14","23:00"
"-61.68","56.55","NAIN A","8502801","2021-03-15 00:00","2021","03","15","00:00"
"-61.68","56.55","NAIN A","8502801","2021-03-15 01:00","2021","03","15","01:00"
"-61.68","56.55","NAIN A","8502801","2021-03-15 02:00","2021","03","15","02:00"
"-61.68","56.55","NAIN A","8502801","2021-03-15 03:00","2021","03","15","03:00"
"-61.68","56.55","NAIN A","8502801","2021-03-15 04:00","2021","03","15","04:00","-18.3","","-22.3","","71","","","","29","","40","","24.1","","100.40","","","","-32","","Snow Showers"
"-61.68","56.55","NAIN A","8502801","2021-03-15 05:00","2021","03","15","05:00","-17.7","","-20.3","","80","","","","30","","35","","9.7","","100.40","","","","-30","","Snow Showers"
"-61.68","56.55","NAIN A","8502801","2021-03-15 06:00","2021","03","15","06:00","-17.2","","-20.4","","76","","","","30","","32","","9.7","","100.44","","","","-29","","Snow Showers"
"-61.68","56.55","NAIN A","8502801","2021-03-15 07:00","2021","03","15","07:00","-17.3","","-21.2","","72","","","","31","","37","","24.1","","100.50","","","","-30","","Snow Showers"
"-61.68","56.55","NAIN A","8502801","2021-03-15 08:00","2021","03","15","08:00","-17.0","","-20.7","","73","","","","30","","33","","24.1","","100.53","","","","-29","","Snow Showers"
"-61.68","56.55","NAIN A","8502801","2021-03-15 09:00","2021","03","15","09:00","-16.7","","-20.4","","74","","","","31","","41","","24.1","","100.58","","","","-30","","Snow Showers"
"-61.68","56.55","NAIN A","8502801","2021-03-15 10:00","2021","03","15","10:00","-16.6","","-20.4","","73","","","","30","","43","","24.1","","100.63","","","","-30","","Snow Showers"
"-61.68","56.55","NAIN A","8502801","2021-03-15 11:00","2021","03","15","11:00","-16.1","","-20.4","","70","","","","30","","37","","24.1","","100.64","","","","-29","","Snow Showers"
"-61.68","56.55","NAIN A","8502801","2021-03-15 12:00","2021","03","15","12:00","-15.3","","-20.6","","64","","","","29","","30","","24.1","","100.65","","","","-26","","Snow Showers"
"-61.68","56.55","NAIN A","8502801","2021-03-15 13:00","2021","03","15","13:00","-15.4","","-20.8","","63","","","","30","","28","","24.1","","100.68","","","","-26","","Snow Showers"
"-61.68","56.55","NAIN A","8502801","2021-03-15 14:00","2021","03","15","14:00","-15.8","","-21.7","","61","","","","29","","32","","24.1","","100.69","","","","-27","","Snow Showers"
"-61.68","56.55","NAIN A","8502801","2021-03-15 15:00","2021","03","15","15:00","-16.4","","-23.0","","58","","","","29","","31","","24.1","","100.77","","","","-28","","NA"
"-61.68","56.55","NAIN A","8502801","2021-03-15 16:00","2021","03","15","16:00","-17.2","","-22.9","","62","","","","29","","41","","24.1","","100.83","","","","-31","","NA"
"-61.68","56.55","NAIN A","8502801","2021-03-15 17:00","2021","03","15","17:00","-18.4","","-23.6","","64","","","","29","","43","","24.1","","100.92","","","","-32","","Mostly Cloudy"
"-61.68","56.55","NAIN A","8502801","2021-03-15 18:00","2021","03","15","18:00","-19.5","","-24.4","","66","","","","29","","43","","24.1","","100.99","","","","-34","","NA"
"-61.68","56.55","NAIN A","8502801","2021-03-15 19:00","2021","03","15","19:00","-20.6","","-25.4","","66","","","","29","","52","","24.1","","101.06","","","","-36","","NA"
"-61.68","56.55","NAIN A","8502801","2021-03-15 20:00","2021","03","15","20:00"
"-61.68","56.55","NAIN A","8502801","2021-03-15 21:00","2021","03","15","21:00"
"-61.68","56.55","NAIN A","8502801","2021-03-15 22:00","2021","03","15","22:00"
"-61.68","56.55","NAIN A","8502801","2021-03-15 23:00","2021","03","15","23:00"
"-61.68","56.55","NAIN A","8502801","2021-03-16 00:00","2021","03","16","00:00"
"-61.68","56.55","NAIN A","8502801","2021-03-16 01:00","2021","03","16","01:00"
"-61.68","56.55","NAIN A","8502801","2021-03-16 02:00","2021","03","16","02:00"
"-61.68","56.55","NAIN A","8502801","2021-03-16 03:00","2021","03","16","03:00"
"-61.68","56.55","NAIN A","8502801","2021-03-16 04:00","2021","03","16","04:00","-21.7","","-28.6","","55","","","","26","","11","","24.1","","101.44","","","","-30","","NA"
"-61.68","56.55","NAIN A","8502801","2021-03-16 05:00","2021","03","16","05:00","-23.1","","-28.9","","59","","","","28","","9","","24.1","","101.51","","","","-30","","Mostly Cloudy"
"-61.68","56.55","NAIN A","8502801","2021-03-16 06:00","2021","03","16","06:00","-24.1","","-30.1","","58","","","","0","","1","","24.1","","101.55","","","","-25","","NA"
"-61.68","56.55","NAIN A","8502801","2021-03-16 07:00","2021","03","16","07:00","-25.1","","-30.2","","63","","","","36","","1","","24.1","","101.60","","","","-26","","NA"
"-61.68","56.55","NAIN A","8502801","2021-03-16 08:00","2021","03","16","08:00","-26.5","","-30.9","","67","","","","29","","3","","24.1","","101.64","","","","-30","","Mostly Cloudy"
"-61.68","56.55","NAIN A","8502801","2021-03-16 09:00","2021","03","16","09:00","-24.5","","-29.8","","62","","","","36","","3","","24.1","","101.64","","","","-27","","NA"
"-61.68","56.55","NAIN A","8502801","2021-03-16 10:00","2021","03","16","10:00","-22.5","","-29.0","","57","","","","16","","4","","24.1","","101.60","","","","-26","","NA"
"-61.68","56.55","NAIN A","8502801","2021-03-16 11:00","2021","03","16","11:00","-21.1","","-28.1","","54","","","","32","","4","","24.1","","101.57","","","","-25","","Clear"
"-61.68","56.55","NAIN A","8502801","2021-03-16 12:00","2021","03","16","12:00","-20.1","","-27.1","","54","","","","30","","10","","24.1","","101.54","","","","-27","","NA"
"-61.68","56.55","NAIN A","8502801","2021-03-16 13:00","2021","03","16","13:00","-19.6","","-26.2","","56","","","","31","","16","","24.1","","101.49","","","","-29","","NA"
"-61.68","56.55","NAIN A","8502801","2021-03-16 14:00","2021","03","16","14:00","-19.1","","-26.4","","53","","","","30","","11","","24.1","","101.45","","","","-27","","Clear"
"-61.68","56.55","NAIN A","8502801","2021-03-16 15:00","2021","03","16","15:00","-19.2","","-27.1","","50","","","","29","","11","","24.1","","101.43","","","","-27","","NA"
"-61.68","56.55","NAIN A","8502801","2021-03-16 16:00","2021","03","16","16:00","-18.6","","-27.0","","48","","","","36","","1","","24.1","","101.40","","","","-19","","NA"
"-61.68","56.55","NAIN A","8502801","2021-03-16 17:00","2021","03","16","17:00","-19.4","","-26.9","","52","","","","30","","5","","24.1","","101.38","","","","-24","","Clear"
"-61.68","56.55","NAIN A","8502801","2021-03-16 18:00","2021","03","16","18:00","-20.0","","-27.4","","53","","","","27","","7","","24.1","","101.39","","","","-26","","NA"
"-61.68","56.55","NAIN A","8502801","2021-03-16 19:00","2021","03","16","19:00","-21.0","","-27.8","","55","","","","26","","5","","24.1","","101.39","","","","-25","","NA"
"-61.68","56.55","NAIN A","8502801","2021-03-16 20:00","2021","03","16","20:00"
"-61.68","56.55","NAIN A","8502801","2021-03-16 21:00","2021","03","16","21:00"
"-61.68","56.55","NAIN A","8502801","2021-03-16 22:00","2021","03","16","22:00"
"-61.68","56.55","NAIN A","8502801","2021-03-16 23:00","2021","03","16","23:00"
"-61.68","56.55","NAIN A","8502801","2021-03-17 00:00","2021","03","17","00:00"
"-61.68","56.55","NAIN A","8502801","2021-03-17 01:00","2021","03","17","01:00"
"-61.68","56.55","NAIN A","8502801","2021-03-17 02:00","2021","03","17","02:00"
"-61.68","56.55","NAIN A","8502801","2021-03-17 03:00","2021","03","17","03:00"
"-61.68","56.55","NAIN A","8502801","2021-03-17 04:00","2021","03","17","04:00","-26.6","","-32.1","","61","","","","28","","4","","24.1","","100.83","","","","-31","","NA"
"-61.68","56.55","NAIN A","8502801","2021-03-17 05:00","2021","03","17","05:00","-28.9","","-33.9","","62","","","","36","","1","","24.1","","100.79","","","","-30","","Clear"
"-61.68","56.55","NAIN A","8502801","2021-03-17 06:00","2021","03","17","06:00","-28.4","","-32.2","","71","","","","28","","7","","24.1","","100.77","","","","-35","","NA"
"-61.68","56.55","NAIN A","8502801","2021-03-17 07:00","2021","03","17","07:00","-26.8","","-31.6","","64","","","","36","","1","","24.1","","100.76","","","","-28","","NA"
"-61.68","56.55","NAIN A","8502801","2021-03-17 08:00","2021","03","17","08:00","-27.1","","-32.0","","64","","","","0","","1","","24.1","","100.72","","","","-28","","Clear"
"-61.68","56.55","NAIN A","8502801","2021-03-17 09:00","2021","03","17","09:00","-27.7","","-32.4","","65","","","","30","","4","","24.1","","100.63","","","","-32","","NA"
"-61.68","56.55","NAIN A","8502801","2021-03-17 10:00","2021","03","17","10:00","-25.9","","-30.9","","64","","","","29","","4","","24.1","","100.56","","","","-30","","NA"
"-61.68","56.55","NAIN A","8502801","2021-03-17 11:00","2021","03","17","11:00","-23.4","","-29.0","","61","","","","30","","9","","24.1","","100.49","","","","-31","","Mainly Clear"
"-61.68","56.55","NAIN A","8502801","2021-03-17 12:00","2021","03","17","12:00","-21.4","","-27.4","","59","","","","36","","2","","24.1","","100.44","","","","-23","","NA"
"-61.68","56.55","NAIN A","8502801","2021-03-17 13:00","2021","03","17","13:00","-15.7","","-24.0","","50","","","","27","","16","","24.1","","100.34","","","","-24","","NA"
"-61.68","56.55","NAIN A","8502801","2021-03-17 14:00","2021","03","17","14:00","-15.3","","-22.1","","57","","","","32","","3","","24.1","","100.36","","","","-17","","Mostly Cloudy"
"-61.68","56.55","NAIN A","8502801","2021-03-17 15:00","2021","03","17","15:00","-13.6","","-19.9","","59","","","","30","","29","","24.1","","100.39","","","","-24","","NA"
"-61.68","56.55","NAIN A","8502801","2021-03-17 16:00","2021","03","17","16:00","-12.8","","-19.2","","59","","","","30","","36","","24.1","","100.44","","","","-24","","NA"
"-61.68","56.55","NAIN A","8502801","2021-03-17 17:00","2021","03","17","17:00","-12.0","","-18.6","","59","","","","28","","37","","24.1","","100.50","","","","-23","","Mostly Cloudy"
"-61.68","56.55","NAIN A","8502801","2021-03-17 18:00","2021","03","17","18:00","-13.1","","-19.4","","60","","","","28","","34","","24.1","","100.61","","","","-24","","NA"
"-61.68","56.55","NAIN A","8502801","2021-03-17 19:00","2021","03","17","19:00","-13.6","","-19.8","","60","","","","29","","32","","24.1","","100.66","","","","-25","","NA"
"-61.68","56.55","NAIN A","8502801","2021-03-17 20:00","2021","03","17","20:00"
"-61.68","56.55","NAIN A","8502801","2021-03-17 21:00","2021","03","17","21:00"
"-61.68","56.55","NAIN A","8502801","2021-03-17 22:00","2021","03","17","22:00"
"-61.68","56.55","NAIN A","8502801","2021-03-17 23:00","2021","03","17","23:00"
"-61.68","56.55","NAIN A","8502801","2021-03-18 00:00","2021","03","18","00:00"
"-61.68","56.55","NAIN A","8502801","2021-03-18 01:00","2021","03","18","01:00"
"-61.68","56.55","NAIN A","8502801","2021-03-18 02:00","2021","03","18","02:00"
"-61.68","56.55","NAIN A","8502801","2021-03-18 03:00","2021","03","18","03:00"
"-61.68","56.55","NAIN A","8502801","2021-03-18 04:00","2021","03","18","04:00","-13.3","","-19.7","","59","","","","18","","17","","24.1","","100.75","","","","-21","","NA"
"-61.68","56.55","NAIN A","8502801","2021-03-18 05:00","2021","03","18","05:00","-12.5","","-19.4","","57","","","","13","","23","","24.1","","100.66","","","","-22","","Mostly Cloudy"
"-61.68","56.55","NAIN A","8502801","2021-03-18 06:00","2021","03","18","06:00","-12.3","","-19.3","","56","","","","15","","4","","24.1","","100.69","","","","-15","","NA"
"-61.68","56.55","NAIN A","8502801","2021-03-18 07:00","2021","03","18","07:00","-12.8","","-18.2","","64","","","","18","","13","","24.1","","100.65","","","","-20","","NA"
"-61.68","56.55","NAIN A","8502801","2021-03-18 08:00","2021","03","18","08:00","-11.3","","-17.6","","60","","","","19","","8","","24.1","","100.64","","","","-16","","Cloudy"
"-61.68","56.55","NAIN A","8502801","2021-03-18 09:00","2021","03","18","09:00","-12.1","","-17.5","","65","","","","35","","4","","24.1","","100.62","","","","-15","","Snow Showers"
"-61.68","56.55","NAIN A","8502801","2021-03-18 10:00","2021","03","18","10:00","-10.6","","-16.6","","62","","","","34","","3","","24.1","","100.61","","","","-12","","Snow Showers"
"-61.68","56.55","NAIN A","8502801","2021-03-18 11:00","2021","03","18","11:00","-10.6","","-16.3","","63","","","","36","","4","","24.1","","100.61","","","","-13","","Cloudy"
"-61.68","56.55","NAIN A","8502801","2021-03-18 12:00","2021","03","18","12:00","-9.8","","-16.1","","61","","","","34","","8","","24.1","","100.58","","","","-14","","NA"
"-61.68","56.55","NAIN A","8502801","2021-03-18 13:00","2021","03","18","13:00","-9.1","","-15.5","","60","","","","33","","3","","24.1","","100.59","","","","-11","","NA"
"-61.68","56.55","NAIN A","8502801","2021-03-18 14:00","2021","03","18","14:00","-8.9","","-14.6","","64","","","","1","","3","","24.1","","100.60","","","","-11","","Cloudy"
"-61.68","56.55","NAIN A","8502801","2021-03-18 15:00","2021","03","18","15:00","-8.1","","-11.6","","76","","","","31","","13","","24.1","","100.64","","","","-14","","NA"
"-61.68","56.55","NAIN A","8502801","2021-03-18 16:00","2021","03","18","16:00","-8.2","","-11.3","","79","","","","30","","18","","11.3","","100.69","","","","-15","","Snow"
"-61.68","56.55","NAIN A","8502801","2021-03-18 17:00","2021","03","18","17:00","-9.1","","-11.2","","85","","","","30","","43","","24.1","","100.76","","","","-20","","Snow"
"-61.68","56.55","NAIN A","8502801","2021-03-18 18:00","2021","03","18","18:00","-10.3","","-12.4","","85","","","","30","","47","","6.4","","100.83","","","","-22","","Snow"
"-61.68","56.55","NAIN A","8502801","2021-03-18 19:00","2021","03","18","19:00","-12.2","","-14.6","","82","","","","30","","49","","12.9","","100.89","","","","-25","","Snow"
"-61.68","56.55","NAIN A","8502801","2021-03-18 20:00","2021","03","18","20:00"
"-61.68","56.55","NAIN A","8502801","2021-03-18 21:00","2021","03","18","21:00"
"-61.68","56.55","NAIN A","8502801","2021-03-18 22:00","2021","03","18","22:00"
"-61.68","56.55","NAIN A","8502801","2021-03-18 23:00","2021","03","18","23:00"
"-61.68","56.55","NAIN A","8502801","2021-03-19 00:00","2021","03","19","00:00"
"-61.68","56.55","NAIN A","8502801","2021-03-19 01:00","2021","03","19","01:00"
"-61.68","56.55","NAIN A","8502801","2021-03-19 02:00","2021","03","19","02:00"
"-61.68","56.55","NAIN A","8502801","2021-03-19 03:00","2021","03","19","03:00"
"-61.68","56.55","NAIN A","8502801","2021-03-19 04:00","2021","03","19","04:00","-15.2","","-18.5","","76","","","","31","","32","","12.9","","100.97","","","","-27","","Snow"
"-61.68","56.55","NAIN A","8502801","2021-03-19 05:00","2021","03","19","05:00","-15.0","","-18.7","","74","","","","31","","35","","20.9","","100.99","","","","-27","","Snow"
"-61.68","56.55","NAIN A","8502801","2021-03-19 06:00","2021","03","19","06:00","-15.5","","-19.5","","72","","","","30","","36","","24.1","","100.95","","","","-28","","Snow"
"-61.68","56.55","NAIN A","8502801","2021-03-19 07:00","2021","03","19","07:00","-14.9","","-19.4","","69","","","","31","","35","","24.1","","100.95","","","","-27","","NA"
"-61.68","56.55","NAIN A","8502801","2021-03-19 08:00","2021","03","19","08:00","-14.9","","-19.7","","67","","","","30","","38","","24.1","","100.96","","","","-27","","Cloudy"
"-61.68","56.55","NAIN A","8502801","2021-03-19 09:00","2021","03","19","09:00","-14.5","","-20.0","","63","","","","31","","39","","24.1","","100.98","","","","-27","","NA"
"-61.68","56.55","NAIN A","8502801","2021-03-19 10:00","2021","03","19","10:00","-13.1","","-19.4","","60","","","","32","","41","","24.1","","101.00","","","","-25","","NA"
"-61.68","56.55","NAIN A","8502801","2021-03-19 11:00","2021","03","19","11:00","-12.2","","-19.0","","57","","","","31","","32","","24.1","","100.98","","","","-23","","Mainly Clear"
"-61.68","56.55","NAIN A","8502801","2021-03-19 12:00","2021","03","19","12:00","-11.7","","-18.5","","58","","","","31","","27","","24.1","","100.97","","","","-21","","NA"
"-61.68","56.55","NAIN A","8502801","2021-03-19 13:00","2021","03","19","13:00","-11.3","","-18.2","","57","","","","31","","30","","24.1","","100.92","","","","-21","","NA"
"-61.68","56.55","NAIN A","8502801","2021-03-19 14:00","2021","03","19","14:00","-11.6","","-18.2","","59","","","","30","","34","","24.1","","100.93","","","","-22","","Mainly Clear"
"-61.68","56.55","NAIN A","8502801","2021-03-19 15:00","2021","03","19","15:00","-11.9","","-18.8","","57","","","","30","","34","","24.1","","100.96","","","","-23","","NA"
"-61.68","56.55","NAIN A","8502801","2021-03-19 16:00","2021","03","19","16:00","-12.4","","-19.3","","57","","","","29","","39","","24.1","","100.97","","","","-24","","NA"
"-61.68","56.55","NAIN A","8502801","2021-03-19 17:00","2021","03","19","17:00","-14.2","","-20.4","","60","","","","30","","38","","24.1","","101.02","","","","-26","","Clear"
"-61.68","56.55","NAIN A","8502801","2021-03-19 18:00","2021","03","19","18:00","-15.8","","-21.5","","62","","","","29","","32","","24.1","","101.05","","","","-27","","NA"
"-61.68","56.55","NAIN A","8502801","2021-03-19 19:00","2021","03","19","19:00","-16.4","","-22.6","","59","","","","29","","30","","24.1","","101.06","","","","-28","","NA"
"-61.68","56.55","NAIN A","8502801","2021-03-19 20:00","2021","03","19","20:00"
"-61.68","56.55","NAIN A","8502801","2021-03-19 21:00","2021","03","19","21:00"
"-61.68","56.55","NAIN A","8502801","2021-03-19 22:00","2021","03","19","22:00"
"-61.68","56.55","NAIN A","8502801","2021-03-19 23:00","2021","03","19","23:00"
"-61.68","56.55","NAIN A","8502801","2021-03-20 00:00","2021","03","20","00:00"
"-61.68","56.55","NAIN A","8502801","2021-03-20 01:00","2021","03","20","01:00"
"-61.68","56.55","NAIN A","8502801","2021-03-20 02:00","2021","03","20","02:00"
"-61.68","56.55","NAIN A","8502801","2021-03-20 03:00","2021","03","20","03:00"
"-61.68","56.55","NAIN A","8502801","2021-03-20 04:00","2021","03","20","04:00"
"-61.68","56.55","NAIN A","8502801","2021-03-20 05:00","2021","03","20","05:00"
"-61.68","56.55","NAIN A","8502801","2021-03-20 06:00","2021","03","20","06:00","-20.4","","-24.7","","69","","","","20","","12","","24.1","","101.12","","","","-29","","NA"
"-61.68","56.55","NAIN A","8502801","2021-03-20 07:00","2021","03","20","07:00","-18.1","","-24.5","","58","","","","18","","8","","24.1","","101.13","","","","-24","","NA"
"-61.68","56.55","NAIN A","8502801","2021-03-20 08:00","2021","03","20","08:00","-15.6","","-22.8","","55","","","","28","","18","","24.1","","101.14","","","","-24","","Clear"
"-61.68","56.55","NAIN A","8502801","2021-03-20 09:00","2021","03","20","09:00","-14.7","","-21.6","","56","","","","29","","33","","22.5","","101.13","","","","-26","","NA"
"-61.68","56.55","NAIN A","8502801","2021-03-20 10:00","2021","03","20","10:00","-14.1","","-21.2","","55","","","","28","","30","","24.1","","101.16","","","","-25","","NA"
"-61.68","56.55","NAIN A","8502801","2021-03-20 11:00","2021","03","20","11:00","-13.3","","-20.7","","55","","","","29","","31","","24.1","","101.17","","","","-24","","Clear"
"-61.68","56.55","NAIN A","8502801","2021-03-20 12:00","2021","03","20","12:00","-12.5","","-20.2","","53","","","","30","","37","","24.1","","101.16","","","","-24","","NA"
"-61.68","56.55","NAIN A","8502801","2021-03-20 13:00","2021","03","20","13:00","-11.9","","-18.9","","57","","","","29","","31","","24.1","","101.17","","","","-22","","NA"
"-61.68","56.55","NAIN A","8502801","2021-03-20 14:00","2021","03","20","14:00","-11.3","","-19.0","","54","","","","29","","31","","24.1","","101.20","","","","-21","","Mostly Cloudy"
"-61.68","56.55","NAIN A","8502801","2021-03-20 15:00","2021","03","20","15:00","-11.4","","-19.6","","51","","","","30","","29","","24.1","","101.22","","","","-21","","NA"
"-61.68","56.55","NAIN A","8502801","2021-03-20 16:00","2021","03","20","16:00","-12.3","","-19.1","","57","","","","29","","31","","24.1","","101.25","","","","-23","","NA"
"-61.68","56.55","NAIN A","8502801","2021-03-20 17:00","2021","03","20","17:00","-12.2","","-19.6","","55","","","","29","","31","","24.1","","101.33","","","","-23","","Clear"
"-61.68","56.55","NAIN A","8502801","2021-03-20 18:00","2021","03","20","18:00","-13.7","","-19.7","","61","","","","29","","35","","24.1","","101.38","","","","-25","","NA"
"-61.68","56.55","NAIN A","8502801","2021-03-20 19:00","2021","03","20","19:00","-13.8","","-22.0","","51","","","","26","","12","","24.1","","101.46","","","","-21","","NA"
"-61.68","56.55","NAIN A","8502801","2021-03-20 20:00","2021","03","20","20:00"
"-61.68","56.55","NAIN A","8502801","2021-03-20 21:00","2021","03","20","21:00"
"-61.68","56.55","NAIN A","8502801","2021-03-20 22:00","2021","03","20","22:00"
"-61.68","56.55","NAIN A","8502801","2021-03-20 23:00","2021","03","20","23:00"
"-61.68","56.55","NAIN A","8502801","2021-03-21 00:00","2021","03","21","00:00"
"-61.68","56.55","NAIN A","8502801","2021-03-21 01:00","2021","03","21","01:00"
"-61.68","56.55","NAIN A","8502801","2021-03-21 02:00","2021","03","21","02:00"
"-61.68","56.55","NAIN A","8502801","2021-03-21 03:00","2021","03","21","03:00"
"-61.68","56.55","NAIN A","8502801","2021-03-21 04:00","2021","03","21","04:00","-14.6","","-22.4","","52","","","","22","","14","","24.1","","101.42","","","","-22","","NA"
"-61.68","56.55","NAIN A","8502801","2021-03-21 05:00","2021","03","21","05:00","-14.8","","-21.8","","56","","","","7","","5","","24.1","","101.40","","","","-18","","Clear"
"-61.68","56.55","NAIN A","8502801","2021-03-21 06:00","2021","03","21","06:00","-15.2","","-21.8","","58","","","","23","","3","","24.1","","101.40","","","","-17","","NA"
"-61.68","56.55","NAIN A","8502801","2021-03-21 07:00","2021","03","21","07:00","-14.6","","-21.2","","58","","","","36","","3","","24.1","","101.35","","","","-17","","NA"
"-61.68","56.55","NAIN A","8502801","2021-03-21 08:00","2021","03","21","08:00","-13.4","","-20.5","","56","","","","19","","7","","24.1","","101.34","","","","-18","","Clear"
"-61.68","56.55","NAIN A","8502801","2021-03-21 09:00","2021","03","21","09:00","-14.7","","-20.6","","61","","","","36","","3","","24.1","","101.33","","","","-17","","NA"
"-61.68","56.55","NAIN A","8502801","2021-03-21 10:00","2021","03","21","10:00","-13.5","","-19.8","","60","","","","31","","5","","24.1","","101.31","","","","-17","","NA"
"-61.68","56.55","NAIN A","8502801","2021-03-21 11:00","2021","03","21","11:00","-12.1","","-18.3","","61","","","","29","","8","","24.1","","101.27","","","","-17","","Mainly Clear"
"-61.68","56.55","NAIN A","8502801","2021-03-21 12:00","2021","03","21","12:00","-8.7","","-15.0","","61","","","","23","","8","","24.1","","101.23","","","","-13","","NA"
"-61.68","56.55","NAIN A","8502801","2021-03-21 13:00","2021","03","21","13:00","-8.1","","-14.9","","59","","","","4","","9","","24.1","","101.16","","","","-13","","NA"
"-61.68","56.55","NAIN A","8502801","2021-03-21 14:00","2021","03","21","14:00","-7.8","","-13.8","","62","","","","29","","4","","24.1","","101.10","","","","-10","","Mostly Cloudy"
"-61.68","56.55","NAIN A","8502801","2021-03-21 15:00","2021","03","21","15:00","-8.0","","-13.1","","67","","","","8","","10","","24.1","","101.09","","","","-13","","NA"
"-61.68","56.55","NAIN A","8502801","2021-03-21 16:00","2021","03","21","16:00","-8.7","","-12.8","","72","","","","36","","2","","24.1","","101.01","","","","-10","","NA"
"-61.68","56.55","NAIN A","8502801","2021-03-21 17:00","2021","03","21","17:00","-8.4","","-13.2","","69","","","","36","","2","","24.1","","100.97","","","","-9","","Cloudy"
"-61.68","56.55","NAIN A","8502801","2021-03-21 18:00","2021","03","21","18:00","-8.3","","-12.9","","70","","","","15","","10","","24.1","","100.95","","","","-13","","NA"
"-61.68","56.55","NAIN A","8502801","2021-03-21 19:00","2021","03","21","19:00","-8.7","","-12.7","","73","","","","14","","17","","24.1","","100.88","","","","-16","","NA"
"-61.68","56.55","NAIN A","8502801","2021-03-21 20:00","2021","03","21","20:00"
"-61.68","56.55","NAIN A","8502801","2021-03-21 21:00","2021","03","21","21:00"
"-61.68","56.55","NAIN A","8502801","2021-03-21 22:00","2021","03","21","22:00"
"-61.68","56.55","NAIN A","8502801","2021-03-21 23:00","2021","03","21","23:00"
"-61.68","56.55","NAIN A","8502801","2021-03-22 00:00","2021","03","22","00:00"
"-61.68","56.55","NAIN A","8502801","2021-03-22 01:00","2021","03","22","01:00"
"-61.68","56.55","NAIN A","8502801","2021-03-22 02:00","2021","03","22","02:00"
"-61.68","56.55","NAIN A","8502801","2021-03-22 03:00","2021","03","22","03:00"
"-61.68","56.55","NAIN A","8502801","2021-03-22 04:00","2021","03","22","04:00","-0.2","","-2.0","","87","","","","29","","17","","24.1","","99.98","","","","-5","","NA"
"-61.68","56.55","NAIN A","8502801","2021-03-22 05:00","2021","03","22","05:00","3.2","","-1.1","","74","","","","27","","49","","24.1","","100.03","","","","","","Mostly Cloudy"
"-61.68","56.55","NAIN A","8502801","2021-03-22 06:00","2021","03","22","06:00","3.0","","-2.3","","68","","","","27","","40","","24.1","","100.08","","","","","","NA"
"-61.68","56.55","NAIN A","8502801","2021-03-22 07:00","2021","03","22","07:00","2.8","","-2.3","","69","","","","27","","47","","24.1","","100.07","","","","","","NA"
"-61.68","56.55","NAIN A","8502801","2021-03-22 08:00","2021","03","22","08:00","3.3","","-2.2","","67","","","","29","","53","","24.1","","100.04","","","","","","Mostly Cloudy"
"-61.68","56.55","NAIN A","8502801","2021-03-22 09:00","2021","03","22","09:00","3.4","","-2.2","","67","","","","26","","35","","24.1","","100.10","","","","","","NA"
"-61.68","56.55","NAIN A","8502801","2021-03-22 10:00","2021","03","22","10:00","3.6","","-1.6","","69","","","","28","","35","","24.1","","100.11","","","","","","NA"
"-61.68","56.55","NAIN A","8502801","2021-03-22 11:00","2021","03","22","11:00","3.3","","-0.6","","76","","","","28","","21","","24.1","","100.05","","","","","","Cloudy"
"-61.68","56.55","NAIN A","8502801","2021-03-22 12:00","2021","03","22","12:00","4.3","","0.2","","75","","","","25","","17","","24.1","","99.98","","","","","","NA"
"-61.68","56.55","NAIN A","8502801","2021-03-22 13:00","2021","03","22","13:00","4.1","","0.4","","77","","","","25","","24","","24.1","","99.92","","","","","","NA"
"-61.68","56.55","NAIN A","8502801","2021-03-22 14:00","2021","03","22","14:00","4.3","","0.7","","77","","","","26","","23","","24.1","","99.94","","","","","","Rain Showers"
"-61.68","56.55","NAIN A","8502801","2021-03-22 15:00","2021","03","22","15:00","4.0","","1.0","","81","","","","26","","20","","24.1","","99.94","","","","","","Rain Showers"
"-61.68","56.55","NAIN A","8502801","2021-03-22 16:00","2021","03","22","16:00","4.3","","0.7","","77","","","","27","","27","","24.1","","99.95","","","","","","NA"
"-61.68","56.55","NAIN A","8502801","2021-03-22 17:00","2021","03","22","17:00","4.0","","0.8","","80","","","","28","","29","","24.1","","99.97","","","","","","Rain Showers"
"-61.68","56.55","NAIN A","8502801","2021-03-22 18:00","2021","03","22","18:00","3.6","","0.9","","82","","","","28","","23","","22.5","","100.05","","","","","","Rain Showers"
"-61.68","56.55","NAIN A","8502801","2021-03-22 19:00","2021","03","22","19:00","3.8","","0.8","","81","","","","27","","24","","24.1","","100.07","","","","","","Rain Showers"
"-61.68","56.55","NAIN A","8502801","2021-03-22 20:00","2021","03","22","20:00"
"-61.68","56.55","NAIN A","8502801","2021-03-22 21:00","2021","03","22","21:00"
"-61.68","56.55","NAIN A","8502801","2021-03-22 22:00","2021","03","22","22:00"
"-61.68","56.55","NAIN A","8502801","2021-03-22 23:00","2021","03","22","23:00"
"-61.68","56.55","NAIN A","8502801","2021-03-23 00:00","2021","03","23","00:00"
"-61.68","56.55","NAIN A","8502801","2021-03-23 01:00","2021","03","23","01:00"
"-61.68","56.55","NAIN A","8502801","2021-03-23 02:00","2021","03","23","02:00"
"-61.68","56.55","NAIN A","8502801","2021-03-23 03:00","2021","03","23","03:00"
"-61.68","56.55","NAIN A","8502801","2021-03-23 04:00","2021","03","23","04:00","4.0","","0.8","","80","","","","26","","28","","24.1","","100.04","","","","","","NA"
"-61.68","56.55","NAIN A","8502801","2021-03-23 05:00","2021","03","23","05:00","2.8","","0.5","","85","","","","27","","17","","24.1","","100.07","","","","","","Mostly Cloudy"
"-61.68","56.55","NAIN A","8502801","2021-03-23 06:00","2021","03","23","06:00","2.7","","0.4","","85","","","","28","","9","","24.1","","100.12","","","","","","NA"
"-61.68","56.55","NAIN A","8502801","2021-03-23 07:00","2021","03","23","07:00","1.7","","-0.9","","83","","","","30","","37","","24.1","","100.25","","","","","","NA"
"-61.68","56.55","NAIN A","8502801","2021-03-23 08:00","2021","03","23","08:00","-0.9","","-6.7","","65","","","","30","","67","","24.1","","100.45","","","","-10","","Mainly Clear"
"-61.68","56.55","NAIN A","8502801","2021-03-23 09:00","2021","03","23","09:00","-2.9","","-8.2","","67","","","","30","","76","","24.1","","100.58","","","","-14","","NA"
"-61.68","56.55","NAIN A","8502801","2021-03-23 10:00","2021","03","23","10:00","-3.6","","-8.8","","67","","","","29","","63","","24.1","","100.63","","","","-14","","Snow Showers"
"-61.68","56.55","NAIN A","8502801","2021-03-23 11:00","2021","03","23","11:00","-4.5","","-10.8","","61","","","","29","","62","","24.1","","100.78","","","","-15","","Mainly Clear"
"-61.68","56.55","NAIN A","8502801","2021-03-23 12:00","2021","03","23","12:00","-4.7","","-11.5","","59","","","","29","","59","","24.1","","100.90","","","","-15","","NA"
"-61.68","56.55","NAIN A","8502801","2021-03-23 13:00","2021","03","23","13:00","-4.9","","-12.1","","57","","","","30","","50","","24.1","","100.98","","","","-15","","NA"
"-61.68","56.55","NAIN A","8502801","2021-03-23 14:00","2021","03","23","14:00","-5.1","","-11.4","","62","","","","29","","54","","24.1","","101.00","","","","-15","","Mostly Cloudy"
"-61.68","56.55","NAIN A","8502801","2021-03-23 15:00","2021","03","23","15:00","-4.8","","-11.7","","59","","","","29","","44","","24.1","","101.02","","","","-14","","NA"
"-61.68","56.55","NAIN A","8502801","2021-03-23 16:00","2021","03","23","16:00","-4.6","","-10.8","","62","","","","29","","43","","24.1","","101.08","","","","-14","","NA"
"-61.68","56.55","NAIN A","8502801","2021-03-23 17:00","2021","03","23","17:00","-6.2","","-12.5","","61","","","","32","","54","","24.1","","101.22","","","","-17","","Mainly Clear"
"-61.68","56.55","NAIN A","8502801","2021-03-23 18:00","2021","03","23","18:00","-8.0","","-14.1","","62","","","","31","","44","","24.1","","101.33","","","","-18","","NA"
"-61.68","56.55","NAIN A","8502801","2021-03-23 19:00","2021","03","23","19:00","-8.9","","-15.1","","61","","","","29","","8","","24.1","","101.42","","","","-13","","NA"
"-61.68","56.55","NAIN A","8502801","2021-03-23 20:00","2021","03","23","20:00"
"-61.68","56.55","NAIN A","8502801","2021-03-23 21:00","2021","03","23","21:00"
"-61.68","56.55","NAIN A","8502801","2021-03-23 22:00","2021","03","23","22:00"
"-61.68","56.55","NAIN A","8502801","2021-03-23 23:00","2021","03","23","23:00"
"-61.68","56.55","NAIN A","8502801","2021-03-24 00:00","2021","03","24","00:00"
"-61.68","56.55","NAIN A","8502801","2021-03-24 01:00","2021","03","24","01:00"
"-61.68","56.55","NAIN A","8502801","2021-03-24 02:00","2021","03","24","02:00"
"-61.68","56.55","NAIN A","8502801","2021-03-24 03:00","2021","03","24","03:00"
"-61.68","56.55","NAIN A","8502801","2021-03-24 04:00","2021","03","24","04:00","-12.9","","-18.8","","62","","","","28","","54","","24.1","","101.76","","","","-26","","NA"
"-61.68","56.55","NAIN A","8502801","2021-03-24 05:00","2021","03","24","05:00","-12.9","","-18.9","","61","","","","29","","49","","24.1","","101.88","","","","-26","","Mostly Cloudy"
"-61.68","56.55","NAIN A","8502801","2021-03-24 06:00","2021","03","24","06:00","-13.4","","-19.2","","62","","","","29","","32","","24.1","","102.01","","","","-24","","NA"
"-61.68","56.55","NAIN A","8502801","2021-03-24 07:00","2021","03","24","07:00","-13.3","","-20.2","","57","","","","28","","28","","24.1","","102.10","","","","-24","","NA"
"-61.68","56.55","NAIN A","8502801","2021-03-24 08:00","2021","03","24","08:00","-12.8","","-19.6","","57","","","","29","","34","","24.1","","102.09","","","","-24","","Clear"
"-61.68","56.55","NAIN A","8502801","2021-03-24 09:00","2021","03","24","09:00","-12.0","","-20.1","","51","","","","29","","35","","24.1","","102.11","","","","-23","","NA"
"-61.68","56.55","NAIN A","8502801","2021-03-24 10:00","2021","03","24","10:00","-11.3","","-20.4","","47","","","","31","","22","","24.1","","102.24","","","","-20","","NA"
"-61.68","56.55","NAIN A","8502801","2021-03-24 11:00","2021","03","24","11:00","-10.5","","-19.6","","48","","","","29","","32","","24.1","","102.30","","","","-20","","Clear"
"-61.68","56.55","NAIN A","8502801","2021-03-24 12:00","2021","03","24","12:00","-10.4","","-18.9","","50","","","","30","","28","","24.1","","102.32","","","","-20","","NA"
"-61.68","56.55","NAIN A","8502801","2021-03-24 13:00","2021","03","24","13:00","-10.1","","-19.0","","49","","","","28","","34","","24.1","","102.33","","","","-20","","NA"
"-61.68","56.55","NAIN A","8502801","2021-03-24 14:00","2021","03","24","14:00","-9.8","","-18.4","","50","","","","29","","35","","24.1","","102.37","","","","-20","","Clear"
"-61.68","56.55","NAIN A","8502801","2021-03-24 15:00","2021","03","24","15:00","-9.8","","-18.4","","50","","","","31","","33","","24.1","","102.40","","","","-20","","NA"
"-61.68","56.55","NAIN A","8502801","2021-03-24 16:00","2021","03","24","16:00","-9.8","","-18.2","","51","","","","32","","18","","24.1","","102.41","","","","-17","","NA"
"-61.68","56.55","NAIN A","8502801","2021-03-24 17:00","2021","03","24","17:00","-10.3","","-18.3","","53","","","","28","","27","","24.1","","102.45","","","","-19","","Clear"
"-61.68","56.55","NAIN A","8502801","2021-03-24 18:00","2021","03","24","18:00","-11.5","","-18.8","","55","","","","27","","12","","24.1","","102.49","","","","-18","","NA"
"-61.68","56.55","NAIN A","8502801","2021-03-24 19:00","2021","03","24","19:00","-11.4","","-20.4","","48","","","","29","","16","","24.1","","102.49","","","","-19","","NA"
"-61.68","56.55","NAIN A","8502801","2021-03-24 20:00","2021","03","24","20:00"
"-61.68","56.55","NAIN A","8502801","2021-03-24 21:00","2021","03","24","21:00"
"-61.68","56.55","NAIN A","8502801","2021-03-24 22:00","2021","03","24","22:00"
"-61.68","56.55","NAIN A","8502801","2021-03-24 23:00","2021","03","24","23:00"
"-61.68","56.55","NAIN A","8502801","2021-03-25 00:00","2021","03","25","00:00"
"-61.68","56.55","NAIN A","8502801","2021-03-25 01:00","2021","03","25","01:00"
"-61.68","56.55","NAIN A","8502801","2021-03-25 02:00","2021","03","25","02:00"
"-61.68","56.55","NAIN A","8502801","2021-03-25 03:00","2021","03","25","03:00"
"-61.68","56.55","NAIN A","8502801","2021-03-25 04:00","2021","03","25","04:00","-13.7","","-20.0","","60","","","","29","","20","","24.1","","102.28","","","","-23","","NA"
"-61.68","56.55","NAIN A","8502801","2021-03-25 05:00","2021","03","25","05:00","-13.6","","-20.5","","57","","","","30","","16","","24.1","","102.26","","","","-21","","Cloudy"
"-61.68","56.55","NAIN A","8502801","2021-03-25 06:00","2021","03","25","06:00","-13.8","","-21.5","","53","","","","30","","23","","24.1","","102.22","","","","-23","","NA"
"-61.68","56.55","NAIN A","8502801","2021-03-25 07:00","2021","03","25","07:00","-13.5","","-20.2","","57","","","","30","","16","","24.1","","102.22","","","","-21","","NA"
"-61.68","56.55","NAIN A","8502801","2021-03-25 08:00","2021","03","25","08:00","-12.7","","-21.2","","49","","","","29","","16","","24.1","","102.17","","","","-20","","Cloudy"
"-61.68","56.55","NAIN A","8502801","2021-03-25 09:00","2021","03","25","09:00","-12.3","","-19.6","","55","","","","30","","16","","24.1","","102.08","","","","-20","","NA"
"-61.68","56.55","NAIN A","8502801","2021-03-25 10:00","2021","03","25","10:00","-11.8","","-19.0","","56","","","","35","","15","","24.1","","102.01","","","","-19","","NA"
"-61.68","56.55","NAIN A","8502801","2021-03-25 11:00","2021","03","25","11:00","-11.7","","-18.1","","59","","","","35","","9","","24.1","","101.94","","","","-17","","Snow Showers"
"-61.68","56.55","NAIN A","8502801","2021-03-25 12:00","2021","03","25","12:00","-11.3","","-14.3","","78","","","","6","","20","","2.4","","101.86","","","","-20","","Snow"
"-61.68","56.55","NAIN A","8502801","2021-03-25 13:00","2021","03","25","13:00","-11.0","","-13.9","","79","","","","6","","19","","6.4","","101.80","","","","-19","","Snow"
"-61.68","56.55","NAIN A","8502801","2021-03-25 14:00","2021","03","25","14:00","-10.9","","-13.0","","84","","","","5","","21","","4.8","","101.73","","","","-19","","Snow"
"-61.68","56.55","NAIN A","8502801","2021-03-25 15:00","2021","03","25","15:00","-11.0","","-13.3","","83","","","","4","","23","","2.4","","101.65","","","","-20","","Snow"
"-61.68","56.55","NAIN A","8502801","2021-03-25 16:00","2021","03","25","16:00","-11.2","","-13.8","","81","","","","4","","35","","2.4","","101.54","","","","-22","","Snow"
"-61.68","56.55","NAIN A","8502801","2021-03-25 17:00","2021","03","25","17:00","-11.1","","-12.9","","87","","","","1","","32","","2.4","","101.46","","","","-21","","Snow"
"-61.68","56.55","NAIN A","8502801","2021-03-25 18:00","2021","03","25","18:00","-10.4","","-11.9","","89","","","","2","","33","","1.6","","101.40","","","","-20","","Snow"
"-61.68","56.55","NAIN A","8502801","2021-03-25 19:00","2021","03","25","19:00","-11.2","","-12.9","","88","","","","2","","41","","1.6","","101.40","","","","-22","","Snow"
"-61.68","56.55","NAIN A","8502801","2021-03-25 20:00","2021","03","25","20:00"
"-61.68","56.55","NAIN A","8502801","2021-03-25 21:00","2021","03","25","21:00"
"-61.68","56.55","NAIN A","8502801","2021-03-25 22:00","2021","03","25","22:00"
"-61.68","56.55","NAIN A","8502801","2021-03-25 23:00","2021","03","25","23:00"
"-61.68","56.55","NAIN A","8502801","2021-03-26 00:00","2021","03","26","00:00"
"-61.68","56.55","NAIN A","8502801","2021-03-26 01:00","2021","03","26","01:00"
"-61.68","56.55","NAIN A","8502801","2021-03-26 02:00","2021","03","26","02:00"
"-61.68","56.55","NAIN A","8502801","2021-03-26 03:00","2021","03","26","03:00"
"-61.68","56.55","NAIN A","8502801","2021-03-26 04:00","2021","03","26","04:00","-15.8","","-19.0","","77","","","","32","","31","","6.4","","101.58","","","","-27","","Snow,Blowing Snow"
"-61.68","56.55","NAIN A","8502801","2021-03-26 05:00","2021","03","26","05:00","-16.3","","-19.3","","78","","","","33","","30","","4.8","","101.67","","","","-28","","Snow"
"-61.68","56.55","NAIN A","8502801","2021-03-26 06:00","2021","03","26","06:00","-16.7","","-19.7","","78","","","","32","","27","","4.8","","101.78","","","","-28","","Snow"
"-61.68","56.55","NAIN A","8502801","2021-03-26 07:00","2021","03","26","07:00","-17.2","","-20.6","","76","","","","33","","34","","6.4","","101.88","","","","-30","","Snow"
"-61.68","56.55","NAIN A","8502801","2021-03-26 08:00","2021","03","26","08:00","-18.2","","-22.1","","71","","","","31","","42","","24.1","","101.99","","","","-32","","Snow Showers"
"-61.68","56.55","NAIN A","8502801","2021-03-26 09:00","2021","03","26","09:00","-17.4","","-22.4","","66","","","","32","","44","","24.1","","102.09","","","","-31","","Snow Showers"
"-61.68","56.55","NAIN A","8502801","2021-03-26 10:00","2021","03","26","10:00","-16.8","","-22.4","","62","","","","32","","30","","24.1","","102.18","","","","-28","","Snow Showers"
"-61.68","56.55","NAIN A","8502801","2021-03-26 11:00","2021","03","26","11:00","-16.3","","-22.1","","61","","","","31","","30","","24.1","","102.23","","","","-28","","Clear"
"-61.68","56.55","NAIN A","8502801","2021-03-26 12:00","2021","03","26","12:00","-15.6","","-22.2","","58","","","","32","","31","","24.1","","102.30","","","","-27","","NA"
"-61.68","56.55","NAIN A","8502801","2021-03-26 13:00","2021","03","26","13:00","-14.8","","-21.8","","56","","","","31","","25","","24.1","","102.35","","","","-25","","NA"
"-61.68","56.55","NAIN A","8502801","2021-03-26 14:00","2021","03","26","14:00","-14.2","","-21.0","","57","","","","32","","22","","24.1","","102.40","","","","-24","","Clear"
"-61.68","56.55","NAIN A","8502801","2021-03-26 15:00","2021","03","26","15:00","-14.0","","-20.9","","57","","","","34","","17","","24.1","","102.47","","","","-22","","NA"
"-61.68","56.55","NAIN A","8502801","2021-03-26 16:00","2021","03","26","16:00","-14.4","","-20.8","","59","","","","33","","28","","24.1","","102.52","","","","-25","","NA"
"-61.68","56.55","NAIN A","8502801","2021-03-26 17:00","2021","03","26","17:00","-15.2","","-20.6","","64","","","","35","","17","","24.1","","102.59","","","","-24","","Clear"
"-61.68","56.55","NAIN A","8502801","2021-03-26 18:00","2021","03","26","18:00","-15.7","","-23.0","","54","","","","33","","17","","24.1","","102.63","","","","-24","","NA"
"-61.68","56.55","NAIN A","8502801","2021-03-26 19:00","2021","03","26","19:00","-17.3","","-24.3","","55","","","","31","","18","","24.1","","102.68","","","","-27","","NA"
"-61.68","56.55","NAIN A","8502801","2021-03-26 20:00","2021","03","26","20:00"
"-61.68","56.55","NAIN A","8502801","2021-03-26 21:00","2021","03","26","21:00"
"-61.68","56.55","NAIN A","8502801","2021-03-26 22:00","2021","03","26","22:00"
"-61.68","56.55","NAIN A","8502801","2021-03-26 23:00","2021","03","26","23:00"
"-61.68","56.55","NAIN A","8502801","2021-03-27 00:00","2021","03","27","00:00"
"-61.68","56.55","NAIN A","8502801","2021-03-27 01:00","2021","03","27","01:00"
"-61.68","56.55","NAIN A","8502801","2021-03-27 02:00","2021","03","27","02:00"
"-61.68","56.55","NAIN A","8502801","2021-03-27 03:00","2021","03","27","03:00"
"-61.68","56.55","NAIN A","8502801","2021-03-27 04:00","2021","03","27","04:00","-23.0","","-27.8","","65","","","","16","","5","","24.1","","102.77","","","","-28","","NA"
"-61.68","56.55","NAIN A","8502801","2021-03-27 05:00","2021","03","27","05:00","-26.3","","-31.2","","64","","","","18","","8","","24.1","","102.78","","","","-34","","Clear"
"-61.68","56.55","NAIN A","8502801","2021-03-27 06:00","2021","03","27","06:00","-24.5","","-30.2","","60","","","","25","","4","","24.1","","102.80","","","","-28","","NA"
"-61.68","56.55","NAIN A","8502801","2021-03-27 07:00","2021","03","27","07:00","-25.1","","-29.5","","68","","","","20","","8","","24.1","","102.83","","","","-32","","NA"
"-61.68","56.55","NAIN A","8502801","2021-03-27 08:00","2021","03","27","08:00","-21.3","","-27.6","","58","","","","17","","4","","24.1","","102.83","","","","-25","","Clear"
"-61.68","56.55","NAIN A","8502801","2021-03-27 09:00","2021","03","27","09:00","-20.8","","-27.4","","56","","","","29","","6","","24.1","","102.82","","","","-26","","NA"
"-61.68","56.55","NAIN A","8502801","2021-03-27 10:00","2021","03","27","10:00","-18.8","","-26.4","","52","","","","29","","7","","24.1","","102.82","","","","-24","","NA"
"-61.68","56.55","NAIN A","8502801","2021-03-27 11:00","2021","03","27","11:00","-15.9","","-25.5","","44","","","","12","","3","","24.1","","102.78","","","","-18","","Clear"
"-61.68","56.55","NAIN A","8502801","2021-03-27 12:00","2021","03","27","12:00","-14.6","","-23.7","","46","","","","36","","3","","24.1","","102.72","","","","-17","","NA"
"-61.68","56.55","NAIN A","8502801","2021-03-27 13:00","2021","03","27","13:00","-13.4","","-21.0","","53","","","","","","0","","24.1","","102.72","","","","","","NA"
"-61.68","56.55","NAIN A","8502801","2021-03-27 14:00","2021","03","27","14:00","-11.4","","-20.5","","47","","","","16","","3","","24.1","","102.70","","","","-13","","Clear"
"-61.68","56.55","NAIN A","8502801","2021-03-27 15:00","2021","03","27","15:00","-10.8","","-19.1","","51","","","","30","","3","","24.1","","102.65","","","","-13","","NA"
"-61.68","56.55","NAIN A","8502801","2021-03-27 16:00","2021","03","27","16:00","-8.6","","-20.6","","38","","","","25","","13","","24.1","","102.64","","","","-15","","NA"
"-61.68","56.55","NAIN A","8502801","2021-03-27 17:00","2021","03","27","17:00","-11.4","","-18.7","","56","","","","3","","7","","24.1","","102.62","","","","-16","","Clear"
"-61.68","56.55","NAIN A","8502801","2021-03-27 18:00","2021","03","27","18:00","-12.2","","-19.6","","54","","","","10","","9","","24.1","","102.63","","","","-17","","NA"
"-61.68","56.55","NAIN A","8502801","2021-03-27 19:00","2021","03","27","19:00","-15.1","","-21.9","","57","","","","30","","6","","24.1","","102.62","","","","-19","","NA"
"-61.68","56.55","NAIN A","8502801","2021-03-27 20:00","2021","03","27","20:00"
"-61.68","56.55","NAIN A","8502801","2021-03-27 21:00","2021","03","27","21:00"
"-61.68","56.55","NAIN A","8502801","2021-03-27 22:00","2021","03","27","22:00"
"-61.68","56.55","NAIN A","8502801","2021-03-27 23:00","2021","03","27","23:00"
"-61.68","56.55","NAIN A","8502801","2021-03-28 00:00","2021","03","28","00:00"
"-61.68","56.55","NAIN A","8502801","2021-03-28 01:00","2021","03","28","01:00"
"-61.68","56.55","NAIN A","8502801","2021-03-28 02:00","2021","03","28","02:00"
"-61.68","56.55","NAIN A","8502801","2021-03-28 03:00","2021","03","28","03:00"
"-61.68","56.55","NAIN A","8502801","2021-03-28 04:00","2021","03","28","04:00","-20.7","","-26.8","","59","","","","36","","2","","24.1","","102.36","","","","-22","","NA"
"-61.68","56.55","NAIN A","8502801","2021-03-28 05:00","2021","03","28","05:00","-20.5","","-26.6","","59","","","","33","","5","","24.1","","102.29","","","","-25","","Mainly Clear"
"-61.68","56.55","NAIN A","8502801","2021-03-28 06:00","2021","03","28","06:00","-19.2","","-26.9","","52","","","","17","","5","","24.1","","102.26","","","","-23","","NA"
"-61.68","56.55","NAIN A","8502801","2021-03-28 07:00","2021","03","28","07:00","-19.0","","-28.0","","46","","","","25","","14","","22.5","","102.21","","","","-28","","NA"
"-61.68","56.55","NAIN A","8502801","2021-03-28 08:00","2021","03","28","08:00","-12.6","","-23.7","","40","","","","24","","15","","24.1","","102.14","","","","-20","","Mainly Clear"
"-61.68","56.55","NAIN A","8502801","2021-03-28 09:00","2021","03","28","09:00","-13.4","","-23.2","","44","","","","19","","13","","24.1","","102.04","","","","-20","","NA"
"-61.68","56.55","NAIN A","8502801","2021-03-28 10:00","2021","03","28","10:00","-12.3","","-22.3","","44","","","","17","","10","","24.1","","101.92","","","","-18","","NA"
"-61.68","56.55","NAIN A","8502801","2021-03-28 11:00","2021","03","28","11:00","-10.0","","-20.6","","42","","","","19","","19","","24.1","","101.79","","","","-18","","Mostly Cloudy"
"-61.68","56.55","NAIN A","8502801","2021-03-28 12:00","2021","03","28","12:00","-8.5","","-19.5","","41","","","","13","","13","","24.1","","101.71","","","","-14","","NA"
"-61.68","56.55","NAIN A","8502801","2021-03-28 13:00","2021","03","28","13:00","-6.5","","-16.5","","46","","","","17","","23","","24.1","","101.58","","","","-14","","NA"
"-61.68","56.55","NAIN A","8502801","2021-03-28 14:00","2021","03","28","14:00","-5.3","","-15.6","","44","","","","18","","13","","24.1","","101.46","","","","-10","","Mostly Cloudy"
"-61.68","56.55","NAIN A","8502801","2021-03-28 15:00","2021","03","28","15:00","-4.7","","-13.8","","49","","","","17","","16","","24.1","","101.36","","","","-10","","NA"
"-61.68","56.55","NAIN A","8502801","2021-03-28 16:00","2021","03","28","16:00","-3.2","","-15.0","","40","","","","24","","9","","24.1","","101.23","","","","-7","","NA"
"-61.68","56.55","NAIN A","8502801","2021-03-28 17:00","2021","03","28","17:00","-3.5","","-15.3","","40","","","","21","","16","","24.1","","101.11","","","","-9","","Mostly Cloudy"
"-61.68","56.55","NAIN A","8502801","2021-03-28 18:00","2021","03","28","18:00","-4.2","","-14.7","","44","","","","26","","11","","24.1","","101.08","","","","-9","","NA"
"-61.68","56.55","NAIN A","8502801","2021-03-28 19:00","2021","03","28","19:00","-4.1","","-15.9","","40","","","","21","","8","","24.1","","100.98","","","","-8","","NA"
"-61.68","56.55","NAIN A","8502801","2021-03-28 20:00","2021","03","28","20:00"
"-61.68","56.55","NAIN A","8502801","2021-03-28 21:00","2021","03","28","21:00"
"-61.68","56.55","NAIN A","8502801","2021-03-28 22:00","2021","03","28","22:00"
"-61.68","56.55","NAIN A","8502801","2021-03-28 23:00","2021","03","28","23:00"
"-61.68","56.55","NAIN A","8502801","2021-03-29 00:00","2021","03","29","00:00"
"-61.68","56.55","NAIN A","8502801","2021-03-29 01:00","2021","03","29","01:00"
"-61.68","56.55","NAIN A","8502801","2021-03-29 02:00","2021","03","29","02:00"
"-61.68","56.55","NAIN A","8502801","2021-03-29 03:00","2021","03","29","03:00"
"-61.68","56.55","NAIN A","8502801","2021-03-29 04:00","2021","03","29","04:00","-6.3","","-13.9","","55","","","","6","","4","","24.1","","100.05","","","","-8","","NA"
"-61.68","56.55","NAIN A","8502801","2021-03-29 05:00","2021","03","29","05:00","-6.1","","-13.8","","55","","","","6","","3","","24.1","","99.96","","","","-8","","Cloudy"
"-61.68","56.55","NAIN A","8502801","2021-03-29 06:00","2021","03","29","06:00","-6.2","","-9.4","","78","","","","20","","7","","24.1","","99.86","","","","-10","","Snow Showers"
"-61.68","56.55","NAIN A","8502801","2021-03-29 07:00","2021","03","29","07:00","-6.3","","-8.1","","87","","","","36","","3","","4.8","","99.71","","","","-8","","Snow"
"-61.68","56.55","NAIN A","8502801","2021-03-29 08:00","2021","03","29","08:00","-6.3","","-7.0","","94","","","","13","","16","","1.2","","99.59","","","","-12","","Snow"
"-61.68","56.55","NAIN A","8502801","2021-03-29 09:00","2021","03","29","09:00","-5.1","","-6.1","","93","","","","15","","17","","1.6","","99.46","","","","-11","","Snow"
"-61.68","56.55","NAIN A","8502801","2021-03-29 10:00","2021","03","29","10:00","-5.0","","-6.0","","93","","","","13","","21","","6.4","","99.36","","","","-12","","Snow"
"-61.68","56.55","NAIN A","8502801","2021-03-29 11:00","2021","03","29","11:00","-4.4","","-6.4","","86","","","","14","","17","","24.1","","99.18","","","","-10","","Snow"
"-61.68","56.55","NAIN A","8502801","2021-03-29 12:00","2021","03","29","12:00","-4.7","","-6.1","","90","","","","13","","25","","24.1","","99.07","","","","-12","","Snow"
"-61.68","56.55","NAIN A","8502801","2021-03-29 13:00","2021","03","29","13:00","-4.6","","-6.2","","89","","","","14","","18","","9.7","","98.96","","","","-11","","Snow"
"-61.68","56.55","NAIN A","8502801","2021-03-29 14:00","2021","03","29","14:00","-4.9","","-5.5","","96","","","","13","","21","","4.8","","98.91","","","","-12","","Snow"
"-61.68","56.55","NAIN A","8502801","2021-03-29 15:00","2021","03","29","15:00","-4.8","","-5.3","","96","","","","11","","10","","2.4","","98.84","","","","-9","","Snow"
"-61.68","56.55","NAIN A","8502801","2021-03-29 16:00","2021","03","29","16:00","-5.3","","-5.6","","98","","","","34","","9","","4.0","","98.75","","","","-9","","Snow"
"-61.68","56.55","NAIN A","8502801","2021-03-29 17:00","2021","03","29","17:00","-5.3","","-5.7","","98","","","","35","","8","","4.8","","98.69","","","","-9","","Snow"
"-61.68","56.55","NAIN A","8502801","2021-03-29 18:00","2021","03","29","18:00","-5.0","","-5.8","","95","","","","30","","22","","4.8","","98.63","","","","-12","","Snow"
"-61.68","56.55","NAIN A","8502801","2021-03-29 19:00","2021","03","29","19:00","-5.1","","-5.8","","94","","","","31","","30","","4.8","","98.66","","","","-13","","Snow"
"-61.68","56.55","NAIN A","8502801","2021-03-29 20:00","2021","03","29","20:00"
"-61.68","56.55","NAIN A","8502801","2021-03-29 21:00","2021","03","29","21:00"
"-61.68","56.55","NAIN A","8502801","2021-03-29 22:00","2021","03","29","22:00"
"-61.68","56.55","NAIN A","8502801","2021-03-29 23:00","2021","03","29","23:00"
"-61.68","56.55","NAIN A","8502801","2021-03-30 00:00","2021","03","30","00:00"
"-61.68","56.55","NAIN A","8502801","2021-03-30 01:00","2021","03","30","01:00"
"-61.68","56.55","NAIN A","8502801","2021-03-30 02:00","2021","03","30","02:00"
"-61.68","56.55","NAIN A","8502801","2021-03-30 03:00","2021","03","30","03:00"
"-61.68","56.55","NAIN A","8502801","2021-03-30 04:00","2021","03","30","04:00","-14.7","","-16.6","","85","","","","32","","84","","6.4","","99.27","","","","-31","","Snow,Blowing Snow"
"-61.68","56.55","NAIN A","8502801","2021-03-30 05:00","2021","03","30","05:00","-14.8","","-17.4","","81","","","","30","","66","","4.8","","99.53","","","","-30","","Snow,Blowing Snow"
"-61.68","56.55","NAIN A","8502801","2021-03-30 06:00","2021","03","30","06:00","-15.2","","-18.1","","78","","","","29","","62","","8.1","","99.71","","","","-30","","Blowing Snow"
"-61.68","56.55","NAIN A","8502801","2021-03-30 07:00","2021","03","30","07:00","-15.1","","-19.0","","72","","","","30","","67","","9.7","","99.94","","","","-30","","Blowing Snow"
"-61.68","56.55","NAIN A","8502801","2021-03-30 08:00","2021","03","30","08:00","-15.3","","-19.0","","74","","","","30","","62","","9.7","","100.10","","","","-30","","Blowing Snow"
"-61.68","56.55","NAIN A","8502801","2021-03-30 09:00","2021","03","30","09:00","-14.4","","-18.4","","72","","","","30","","82","","9.7","","100.24","","","","-30","","Blowing Snow"
"-61.68","56.55","NAIN A","8502801","2021-03-30 10:00","2021","03","30","10:00","-13.4","","-18.2","","67","","","","28","","66","","24.1","","100.46","","","","-28","","Blowing Snow"
"-61.68","56.55","NAIN A","8502801","2021-03-30 11:00","2021","03","30","11:00","-12.9","","-19.5","","58","","","","28","","51","","24.1","","100.65","","","","-26","","Clear"
"-61.68","56.55","NAIN A","8502801","2021-03-30 12:00","2021","03","30","12:00","-13.5","","-17.9","","70","","","","30","","78","","24.1","","100.61","","","","-29","","Blowing Snow"
"-61.68","56.55","NAIN A","8502801","2021-03-30 13:00","2021","03","30","13:00","-13.3","","-18.0","","68","","","","30","","60","","24.1","","100.94","","","","-27","","Blowing Snow"
"-61.68","56.55","NAIN A","8502801","2021-03-30 14:00","2021","03","30","14:00","-13.3","","-17.1","","73","","","","30","","74","","24.1","","101.04","","","","-28","","Blowing Snow"
"-61.68","56.55","NAIN A","8502801","2021-03-30 15:00","2021","03","30","15:00","-12.7","","-18.6","","62","","","","28","","54","","24.1","","101.28","","","","-26","","NA"
"-61.68","56.55","NAIN A","8502801","2021-03-30 16:00","2021","03","30","16:00","-12.8","","-17.9","","66","","","","28","","62","","24.1","","101.29","","","","-27","","Blowing Snow"
"-61.68","56.55","NAIN A","8502801","2021-03-30 17:00","2021","03","30","17:00","-13.1","","-18.7","","63","","","","28","","52","","24.1","","101.50","","","","-26","","Clear"
"-61.68","56.55","NAIN A","8502801","2021-03-30 18:00","2021","03","30","18:00","-12.9","","-20.2","","55","","","","28","","8","","24.1","","101.64","","","","-18","","NA"
"-61.68","56.55","NAIN A","8502801","2021-03-30 19:00","2021","03","30","19:00","-13.2","","-20.4","","55","","","","27","","24","","24.1","","101.69","","","","-23","","NA"
"-61.68","56.55","NAIN A","8502801","2021-03-30 20:00","2021","03","30","20:00"
"-61.68","56.55","NAIN A","8502801","2021-03-30 21:00","2021","03","30","21:00"
"-61.68","56.55","NAIN A","8502801","2021-03-30 22:00","2021","03","30","22:00"
"-61.68","56.55","NAIN A","8502801","2021-03-30 23:00","2021","03","30","23:00"
"-61.68","56.55","NAIN A","8502801","2021-03-31 00:00","2021","03","31","00:00"
"-61.68","56.55","NAIN A","8502801","2021-03-31 01:00","2021","03","31","01:00"
"-61.68","56.55","NAIN A","8502801","2021-03-31 02:00","2021","03","31","02:00"
"-61.68","56.55","NAIN A","8502801","2021-03-31 03:00","2021","03","31","03:00"
"-61.68","56.55","NAIN A","8502801","2021-03-31 04:00","2021","03","31","04:00","-10.2","","-16.7","","59","","","","14","","28","","24.1","","101.53","","","","-19","","NA"
"-61.68","56.55","NAIN A","8502801","2021-03-31 05:00","2021","03","31","05:00","-10.4","","-15.7","","65","","","","14","","33","","24.1","","101.45","","","","-20","","Cloudy"
"-61.68","56.55","NAIN A","8502801","2021-03-31 06:00","2021","03","31","06:00","-10.3","","-14.7","","70","","","","14","","32","","24.1","","101.38","","","","-20","","NA"
"-61.68","56.55","NAIN A","8502801","2021-03-31 07:00","2021","03","31","07:00","-9.7","","-13.9","","72","","","","14","","26","","24.1","","101.30","","","","-19","","NA"
"-61.68","56.55","NAIN A","8502801","2021-03-31 08:00","2021","03","31","08:00","-8.8","","-13.0","","72","","","","14","","17","","24.1","","101.23","","","","-16","","Cloudy"
"-61.68","56.55","NAIN A","8502801","2021-03-31 09:00","2021","03","31","09:00","-7.9","","-11.6","","75","","","","14","","17","","24.1","","101.17","","","","-15","","NA"
"-61.68","56.55","NAIN A","8502801","2021-03-31 10:00","2021","03","31","10:00","-6.1","","-10.8","","69","","","","13","","14","","24.1","","101.13","","","","-12","","NA"
"-61.68","56.55","NAIN A","8502801","2021-03-31 11:00","2021","03","31","11:00","-5.2","","-10.1","","69","","","","13","","18","","24.1","","101.03","","","","-11","","Cloudy"
"-61.68","56.55","NAIN A","8502801","2021-03-31 12:00","2021","03","31","12:00","-4.8","","-9.6","","69","","","","13","","8","","24.1","","100.97","","","","-8","","NA"
"-61.68","56.55","NAIN A","8502801","2021-03-31 13:00","2021","03","31","13:00","-5.2","","-9.2","","73","","","","31","","7","","24.1","","100.93","","","","-8","","NA"
"-61.68","56.55","NAIN A","8502801","2021-03-31 14:00","2021","03","31","14:00","-4.7","","-9.2","","71","","","","31","","6","","24.1","","100.86","","","","-7","","Cloudy"
"-61.68","56.55","NAIN A","8502801","2021-03-31 15:00","2021","03","31","15:00","-4.7","","-8.8","","73","","","","33","","13","","24.1","","100.80","","","","-10","","NA"
"-61.68","56.55","NAIN A","8502801","2021-03-31 16:00","2021","03","31","16:00","-4.2","","-8.1","","75","","","","34","","12","","24.1","","100.78","","","","-9","","NA"
"-61.68","56.55","NAIN A","8502801","2021-03-31 17:00","2021","03","31","17:00","-3.5","","-8.2","","70","","","","31","","7","","24.1","","100.71","","","","-6","","Cloudy"
"-61.68","56.55","NAIN A","8502801","2021-03-31 18:00","2021","03","31","18:00","-4.2","","-6.4","","85","","","","1","","5","","24.1","","100.69","","","","-6","","NA"
"-61.68","56.55","NAIN A","8502801","2021-03-31 19:00","2021","03","31","19:00","-4.5","","-7.6","","79","","","","3","","5","","24.1","","100.63","","","","-7","","Snow"
"-61.68","56.55","NAIN A","8502801","2021-03-31 20:00","2021","03","31","20:00"
"-61.68","56.55","NAIN A","8502801","2021-03-31 21:00","2021","03","31","21:00"
"-61.68","56.55","NAIN A","8502801","2021-03-31 22:00","2021","03","31","22:00"
"-61.68","56.55","NAIN A","8502801","2021-03-31 23:00","2021","03","31","23:00"
