"Longitude (x)","Latitude (y)","Station Name","Climate ID","Date/Time (LST)","Year","Month","Day","Time (LST)","Temp (°C)","Temp Flag","Dew Point Temp (°C)","Dew Point Temp Flag","Rel Hum (%)","Rel Hum Flag","Precip. Amount (mm)","Precip. Amount Flag","Wind Dir (10s deg)","Wind Dir Flag","Wind Spd (km/h)","Wind Spd Flag","Visibility (km)","Visibility Flag","Stn Press (kPa)","Stn Press Flag","Hmdx","Hmdx Flag","Wind Chill","Wind Chill Flag","Weather"
"-61.68","56.55","NAIN A","8502801","2021-05-01 00:00","2021","05","01","00:00"
"-61.68","56.55","NAIN A","8502801","2021-05-01 01:00","2021","05","01","01:00"
"-61.68","56.55","NAIN A","8502801","2021-05-01 02:00","2021","05","01","02:00"
"-61.68","56.55","NAIN A","8502801","2021-05-01 03:00","2021","05","01","03:00"
"-61.68","56.55","NAIN A","8502801","2021-05-01 04:00","2021","05","01","04:00","-0.4","","-0.4","","100","","","","6","","14","","2.4","","100.09","","","","-5","","Snow Showers"
"-61.68","56.55","NAIN A","8502801","2021-05-01 05:00","2021","05","01","05:00","-0.5","","-0.5","","100","","","","9","","17","","6.4","","100.13","","","","-5","","Freezing Drizzle,Fog"
"-61.68","56.55","NAIN A","8502801","2021-05-01 06:00","2021","05","01","06:00","-0.5","","-0.5","","100","","","","7","","15","","4.8","","100.12","","","","-5","","Snow Showers"
"-61.68","56.55","NAIN A","8502801","2021-05-01 07:00","2021","05","01","07:00","-0.5","","-0.5","","100","","","","9","","14","","4.8","","100.12","","","","-5","","Snow"
"-61.68","56.55","NAIN A","8502801","2021-05-01 08:00","2021","05","01","08:00","-0.2","","-0.2","","100","","","","6","","9","","4.8","","100.08","","","","-3","","Snow"
"-61.68","56.55","NAIN A","8502801","2021-05-01 09:00","2021","05","01","09:00","0.0","","0.0","","100","","","","8","","11","","4.8","","100.04","","","","-4","","Snow"
"-61.68","56.55","NAIN A","8502801","2021-05-01 10:00","2021","05","01","10:00","0.1","","0.1","","100","","","","9","","18","","4.8","","100.01","","","","","","Snow"
"-61.68","56.55","NAIN A","8502801","2021-05-01 11:00","2021","05","01","11:00","0.2","","0.2","","100","","","","7","","8","","24.1","","99.97","","","","","","Cloudy"
"-61.68","56.55","NAIN A","8502801","2021-05-01 12:00","2021","05","01","12:00","0.2","","0.2","","100","","","","6","","17","","12.9","","99.95","","","","","","Snow Showers"
"-61.68","56.55","NAIN A","8502801","2021-05-01 13:00","2021","05","01","13:00","0.5","","0.5","","100","","","","6","","12","","24.1","","99.89","","","","","","Snow Showers"
"-61.68","56.55","NAIN A","8502801","2021-05-01 14:00","2021","05","01","14:00","0.7","","0.7","","100","","","","5","","16","","24.1","","99.85","","","","","","Snow Showers"
"-61.68","56.55","NAIN A","8502801","2021-05-01 15:00","2021","05","01","15:00","1.2","","0.7","","97","","","","1","","18","","24.1","","99.72","","","","","","NA"
"-61.68","56.55","NAIN A","8502801","2021-05-01 16:00","2021","05","01","16:00","1.8","","0.3","","90","","","","31","","14","","24.1","","99.64","","","","","","NA"
"-61.68","56.55","NAIN A","8502801","2021-05-01 17:00","2021","05","01","17:00","0.8","","0.8","","100","","","","34","","19","","4.0","","99.57","","","","","","Snow"
"-61.68","56.55","NAIN A","8502801","2021-05-01 18:00","2021","05","01","18:00","1.1","","1.1","","100","","","","1","","28","","11.3","","99.49","","","","","","Rain,Snow"
"-61.68","56.55","NAIN A","8502801","2021-05-01 19:00","2021","05","01","19:00","0.3","","0.3","","100","","","","34","","19","","9.7","","99.44","","","","","","Snow"
"-61.68","56.55","NAIN A","8502801","2021-05-01 20:00","2021","05","01","20:00"
"-61.68","56.55","NAIN A","8502801","2021-05-01 21:00","2021","05","01","21:00"
"-61.68","56.55","NAIN A","8502801","2021-05-01 22:00","2021","05","01","22:00"
"-61.68","56.55","NAIN A","8502801","2021-05-01 23:00","2021","05","01","23:00"
"-61.68","56.55","NAIN A","8502801","2021-05-02 00:00","2021","05","02","00:00"
"-61.68","56.55","NAIN A","8502801","2021-05-02 01:00","2021","05","02","01:00"
"-61.68","56.55","NAIN A","8502801","2021-05-02 02:00","2021","05","02","02:00"
"-61.68","56.55","NAIN A","8502801","2021-05-02 03:00","2021","05","02","03:00"
"-61.68","56.55","NAIN A","8502801","2021-05-02 04:00","2021","05","02","04:00","0.5","","0.5","","100","","","","3","","32","","8.1","","98.79","","","","","","Snow,Fog"
"-61.68","56.55","NAIN A","8502801","2021-05-02 05:00","2021","05","02","05:00","0.4","","0.4","","100","","","","3","","29","","4.8","","98.76","","","","","","Snow,Fog"
"-61.68","56.55","NAIN A","8502801","2021-05-02 06:00","2021","05","02","06:00","0.5","","0.5","","100","","","","2","","20","","6.4","","98.74","","","","","","Snow,Fog"
"-61.68","56.55","NAIN A","8502801","2021-05-02 07:00","2021","05","02","07:00","0.8","","0.8","","100","","","","3","","27","","6.4","","98.71","","","","","","Rain,Fog"
"-61.68","56.55","NAIN A","8502801","2021-05-02 08:00","2021","05","02","08:00","1.2","","1.2","","100","","","","4","","34","","4.0","","98.66","","","","","","Rain,Fog"
"-61.68","56.55","NAIN A","8502801","2021-05-02 09:00","2021","05","02","09:00","1.1","","1.1","","100","","","","4","","31","","8.1","","98.63","","","","","","Rain,Fog"
"-61.68","56.55","NAIN A","8502801","2021-05-02 10:00","2021","05","02","10:00","0.7","","0.7","","100","","","","1","","25","","6.4","","98.56","","","","","","Rain,Fog"
"-61.68","56.55","NAIN A","8502801","2021-05-02 11:00","2021","05","02","11:00","0.4","","0.4","","100","","","","1","","23","","6.4","","98.53","","","","","","Rain,Snow,Fog"
"-61.68","56.55","NAIN A","8502801","2021-05-02 12:00","2021","05","02","12:00","0.6","","0.6","","100","","","","1","","20","","6.4","","98.48","","","","","","Rain,Snow,Fog"
"-61.68","56.55","NAIN A","8502801","2021-05-02 13:00","2021","05","02","13:00","0.5","","0.5","","100","","","","4","","26","","2.4","","98.47","","","","","","Rain,Snow"
"-61.68","56.55","NAIN A","8502801","2021-05-02 14:00","2021","05","02","14:00","0.8","","0.8","","100","","","","4","","18","","6.4","","98.50","","","","","","Rain,Snow"
"-61.68","56.55","NAIN A","8502801","2021-05-02 15:00","2021","05","02","15:00","0.6","","0.6","","100","","","","4","","21","","6.4","","98.53","","","","","","Rain,Snow"
"-61.68","56.55","NAIN A","8502801","2021-05-02 16:00","2021","05","02","16:00","0.5","","0.5","","100","","","","5","","16","","6.4","","98.60","","","","","","Rain,Snow"
"-61.68","56.55","NAIN A","8502801","2021-05-02 17:00","2021","05","02","17:00","0.2","","0.2","","100","","","","6","","16","","6.4","","98.65","","","","","","Rain,Snow"
"-61.68","56.55","NAIN A","8502801","2021-05-02 18:00","2021","05","02","18:00","0.1","","0.1","","100","","","","5","","16","","4.8","","98.71","","","","","","Rain,Snow"
"-61.68","56.55","NAIN A","8502801","2021-05-02 19:00","2021","05","02","19:00","0.4","","0.4","","100","","","","35","","16","","6.4","","98.79","","","","","","Rain,Snow"
"-61.68","56.55","NAIN A","8502801","2021-05-02 20:00","2021","05","02","20:00"
"-61.68","56.55","NAIN A","8502801","2021-05-02 21:00","2021","05","02","21:00"
"-61.68","56.55","NAIN A","8502801","2021-05-02 22:00","2021","05","02","22:00"
"-61.68","56.55","NAIN A","8502801","2021-05-02 23:00","2021","05","02","23:00"
"-61.68","56.55","NAIN A","8502801","2021-05-03 00:00","2021","05","03","00:00"
"-61.68","56.55","NAIN A","8502801","2021-05-03 01:00","2021","05","03","01:00"
"-61.68","56.55","NAIN A","8502801","2021-05-03 02:00","2021","05","03","02:00"
"-61.68","56.55","NAIN A","8502801","2021-05-03 03:00","2021","05","03","03:00"
"-61.68","56.55","NAIN A","8502801","2021-05-03 04:00","2021","05","03","04:00","1.1","","1.1","","100","","","","36","","43","","4.8","","98.52","","","","","","Drizzle,Fog"
"-61.68","56.55","NAIN A","8502801","2021-05-03 05:00","2021","05","03","05:00","1.2","","1.2","","100","","","","35","","47","","4.8","","98.43","","","","","","Drizzle,Fog"
"-61.68","56.55","NAIN A","8502801","2021-05-03 06:00","2021","05","03","06:00","1.5","","1.2","","98","","","","36","","39","","24.1","","98.40","","","","","","Rain"
"-61.68","56.55","NAIN A","8502801","2021-05-03 07:00","2021","05","03","07:00","1.6","","1.1","","96","","","","1","","44","","16.1","","98.39","","","","","","Rain"
"-61.68","56.55","NAIN A","8502801","2021-05-03 08:00","2021","05","03","08:00","1.1","","1.1","","100","","","","1","","43","","6.4","","98.40","","","","","","Rain,Snow"
"-61.68","56.55","NAIN A","8502801","2021-05-03 09:00","2021","05","03","09:00","0.5","","0.5","","100","","","","2","","43","","4.8","","98.48","","","","","","Rain,Snow"
"-61.68","56.55","NAIN A","8502801","2021-05-03 10:00","2021","05","03","10:00"
"-61.68","56.55","NAIN A","8502801","2021-05-03 11:00","2021","05","03","11:00","0.8","","0.8","","100","","","","4","","42","","4.8","","98.76","","","","","","Rain,Snow"
"-61.68","56.55","NAIN A","8502801","2021-05-03 12:00","2021","05","03","12:00","0.7","","0.7","","100","","","","4","","44","","3.2","","98.89","","","","","","Rain,Fog"
"-61.68","56.55","NAIN A","8502801","2021-05-03 13:00","2021","05","03","13:00","0.2","","0.2","","100","","","","5","","42","","3.2","","99.04","","","","","","Snow"
"-61.68","56.55","NAIN A","8502801","2021-05-03 14:00","2021","05","03","14:00","0.2","","0.2","","100","","","","5","","44","","2.4","","99.19","","","","","","Snow"
"-61.68","56.55","NAIN A","8502801","2021-05-03 15:00","2021","05","03","15:00","0.2","","0.2","","100","","","","5","","37","","3.2","","99.34","","","","","","Drizzle,Fog"
"-61.68","56.55","NAIN A","8502801","2021-05-03 16:00","2021","05","03","16:00","0.3","","0.3","","100","","","","5","","35","","24.1","","99.49","","","","","","Drizzle,Snow Showers"
"-61.68","56.55","NAIN A","8502801","2021-05-03 17:00","2021","05","03","17:00","0.3","","0.3","","100","","","","5","","26","","4.8","","99.61","","","","","","Drizzle,Snow"
"-61.68","56.55","NAIN A","8502801","2021-05-03 18:00","2021","05","03","18:00","0.4","","0.4","","100","","","","4","","21","","24.1","","99.69","","","","","","Drizzle"
"-61.68","56.55","NAIN A","8502801","2021-05-03 19:00","2021","05","03","19:00","0.4","","0.4","","100","","","","2","","16","","24.1","","99.81","","","","","","Drizzle"
"-61.68","56.55","NAIN A","8502801","2021-05-03 20:00","2021","05","03","20:00"
"-61.68","56.55","NAIN A","8502801","2021-05-03 21:00","2021","05","03","21:00"
"-61.68","56.55","NAIN A","8502801","2021-05-03 22:00","2021","05","03","22:00"
"-61.68","56.55","NAIN A","8502801","2021-05-03 23:00","2021","05","03","23:00"
"-61.68","56.55","NAIN A","8502801","2021-05-04 00:00","2021","05","04","00:00"
"-61.68","56.55","NAIN A","8502801","2021-05-04 01:00","2021","05","04","01:00"
"-61.68","56.55","NAIN A","8502801","2021-05-04 02:00","2021","05","04","02:00"
"-61.68","56.55","NAIN A","8502801","2021-05-04 03:00","2021","05","04","03:00"
"-61.68","56.55","NAIN A","8502801","2021-05-04 04:00","2021","05","04","04:00","0.8","","0.8","","100","","","","34","","12","","24.1","","100.41","","","","","","Rain Showers,Drizzle"
"-61.68","56.55","NAIN A","8502801","2021-05-04 05:00","2021","05","04","05:00","1.3","","1.3","","100","","","","33","","14","","24.1","","100.49","","","","","","Rain Showers,Drizzle"
"-61.68","56.55","NAIN A","8502801","2021-05-04 06:00","2021","05","04","06:00","1.3","","1.2","","100","","","","33","","13","","24.1","","100.60","","","","","","Rain Showers"
"-61.68","56.55","NAIN A","8502801","2021-05-04 07:00","2021","05","04","07:00","1.0","","1.0","","100","","","","2","","19","","24.1","","100.70","","","","","","Rain"
"-61.68","56.55","NAIN A","8502801","2021-05-04 08:00","2021","05","04","08:00","1.0","","1.0","","100","","","","1","","5","","24.1","","100.81","","","","","","Rain Showers,Snow Showers"
"-61.68","56.55","NAIN A","8502801","2021-05-04 09:00","2021","05","04","09:00","0.8","","0.8","","100","","","","2","","11","","24.1","","100.90","","","","","","Rain Showers"
"-61.68","56.55","NAIN A","8502801","2021-05-04 10:00","2021","05","04","10:00","0.9","","0.9","","100","","","","5","","13","","24.1","","100.95","","","","","","Rain Showers"
"-61.68","56.55","NAIN A","8502801","2021-05-04 11:00","2021","05","04","11:00","1.0","","1.0","","100","","","","1","","10","","24.1","","101.00","","","","","","Drizzle"
"-61.68","56.55","NAIN A","8502801","2021-05-04 12:00","2021","05","04","12:00","1.8","","1.8","","100","","","","31","","11","","12.9","","101.07","","","","","","Drizzle"
"-61.68","56.55","NAIN A","8502801","2021-05-04 13:00","2021","05","04","13:00","1.8","","1.6","","99","","","","34","","10","","24.1","","101.13","","","","","","NA"
"-61.68","56.55","NAIN A","8502801","2021-05-04 14:00","2021","05","04","14:00","2.0","","2.0","","100","","","","36","","3","","24.1","","101.22","","","","","","Rain Showers"
"-61.68","56.55","NAIN A","8502801","2021-05-04 15:00","2021","05","04","15:00","1.7","","1.7","","100","","","","6","","14","","19.3","","101.29","","","","","","Rain Showers"
"-61.68","56.55","NAIN A","8502801","2021-05-04 16:00","2021","05","04","16:00","1.8","","1.8","","100","","","","1","","6","","24.1","","101.37","","","","","","Rain Showers"
"-61.68","56.55","NAIN A","8502801","2021-05-04 17:00","2021","05","04","17:00","1.6","","1.6","","100","","","","36","","2","","2.4","","101.43","","","","","","Rain,Fog"
"-61.68","56.55","NAIN A","8502801","2021-05-04 18:00","2021","05","04","18:00","1.7","","1.7","","100","","","","31","","11","","1.6","","101.47","","","","","","Rain Showers,Fog"
"-61.68","56.55","NAIN A","8502801","2021-05-04 19:00","2021","05","04","19:00","1.9","","1.9","","100","","","","33","","11","","19.3","","101.50","","","","","","Rain Showers"
"-61.68","56.55","NAIN A","8502801","2021-05-04 20:00","2021","05","04","20:00"
"-61.68","56.55","NAIN A","8502801","2021-05-04 21:00","2021","05","04","21:00"
"-61.68","56.55","NAIN A","8502801","2021-05-04 22:00","2021","05","04","22:00"
"-61.68","56.55","NAIN A","8502801","2021-05-04 23:00","2021","05","04","23:00"
"-61.68","56.55","NAIN A","8502801","2021-05-05 00:00","2021","05","05","00:00"
"-61.68","56.55","NAIN A","8502801","2021-05-05 01:00","2021","05","05","01:00"
"-61.68","56.55","NAIN A","8502801","2021-05-05 02:00","2021","05","05","02:00"
"-61.68","56.55","NAIN A","8502801","2021-05-05 03:00","2021","05","05","03:00"
"-61.68","56.55","NAIN A","8502801","2021-05-05 04:00","2021","05","05","04:00","1.4","","1.4","","100","","","","31","","13","","24.1","","101.87","","","","","","Rain Showers"
"-61.68","56.55","NAIN A","8502801","2021-05-05 05:00","2021","05","05","05:00","0.8","","0.8","","100","","","","34","","12","","4.8","","101.94","","","","","","Rain Showers,Fog"
"-61.68","56.55","NAIN A","8502801","2021-05-05 06:00","2021","05","05","06:00","1.3","","1.3","","100","","","","33","","7","","4.8","","101.99","","","","","","Rain Showers,Fog"
"-61.68","56.55","NAIN A","8502801","2021-05-05 07:00","2021","05","05","07:00","1.6","","1.6","","100","","","","30","","10","","4.8","","102.04","","","","","","Rain Showers,Fog"
"-61.68","56.55","NAIN A","8502801","2021-05-05 08:00","2021","05","05","08:00","1.9","","1.9","","100","","","","34","","9","","4.8","","102.10","","","","","","Rain Showers,Fog"
"-61.68","56.55","NAIN A","8502801","2021-05-05 09:00","2021","05","05","09:00","1.4","","1.4","","100","","","","36","","7","","19.3","","102.17","","","","","","Rain"
"-61.68","56.55","NAIN A","8502801","2021-05-05 10:00","2021","05","05","10:00","1.9","","1.9","","100","","","","36","","6","","12.9","","102.20","","","","","","Rain"
"-61.68","56.55","NAIN A","8502801","2021-05-05 11:00","2021","05","05","11:00","2.0","","2.0","","100","","","","33","","7","","8.1","","102.19","","","","","","Rain,Fog"
"-61.68","56.55","NAIN A","8502801","2021-05-05 12:00","2021","05","05","12:00","2.5","","2.5","","100","","","","21","","9","","24.1","","102.15","","","","","","Rain Showers"
"-61.68","56.55","NAIN A","8502801","2021-05-05 13:00","2021","05","05","13:00","2.8","","2.5","","98","","","","36","","3","","24.1","","102.17","","","","","","Rain Showers"
"-61.68","56.55","NAIN A","8502801","2021-05-05 14:00","2021","05","05","14:00","3.0","","2.4","","96","","","","30","","4","","24.1","","102.21","","","","","","Rain Showers"
"-61.68","56.55","NAIN A","8502801","2021-05-05 15:00","2021","05","05","15:00","2.7","","2.2","","97","","","","8","","4","","24.1","","102.23","","","","","","Drizzle"
"-61.68","56.55","NAIN A","8502801","2021-05-05 16:00","2021","05","05","16:00","3.2","","2.5","","95","","","","36","","1","","24.1","","102.23","","","","","","NA"
"-61.68","56.55","NAIN A","8502801","2021-05-05 17:00","2021","05","05","17:00","3.7","","2.3","","90","","","","31","","5","","24.1","","102.21","","","","","","Mostly Cloudy"
"-61.68","56.55","NAIN A","8502801","2021-05-05 18:00","2021","05","05","18:00","3.5","","0.8","","82","","","","1","","7","","24.1","","102.24","","","","","","NA"
"-61.68","56.55","NAIN A","8502801","2021-05-05 19:00","2021","05","05","19:00","3.0","","0.4","","83","","","","6","","14","","24.1","","102.23","","","","","","NA"
"-61.68","56.55","NAIN A","8502801","2021-05-05 20:00","2021","05","05","20:00"
"-61.68","56.55","NAIN A","8502801","2021-05-05 21:00","2021","05","05","21:00"
"-61.68","56.55","NAIN A","8502801","2021-05-05 22:00","2021","05","05","22:00"
"-61.68","56.55","NAIN A","8502801","2021-05-05 23:00","2021","05","05","23:00"
"-61.68","56.55","NAIN A","8502801","2021-05-06 00:00","2021","05","06","00:00"
"-61.68","56.55","NAIN A","8502801","2021-05-06 01:00","2021","05","06","01:00"
"-61.68","56.55","NAIN A","8502801","2021-05-06 02:00","2021","05","06","02:00"
"-61.68","56.55","NAIN A","8502801","2021-05-06 03:00","2021","05","06","03:00"
"-61.68","56.55","NAIN A","8502801","2021-05-06 04:00","2021","05","06","04:00","0.2","","-0.2","","97","","","","3","","8","","24.1","","102.26","","","","","","NA"
"-61.68","56.55","NAIN A","8502801","2021-05-06 05:00","2021","05","06","05:00","0.2","","-0.3","","96","","","","35","","6","","24.1","","102.26","","","","","","Cloudy"
"-61.68","56.55","NAIN A","8502801","2021-05-06 06:00","2021","05","06","06:00","0.3","","0.0","","98","","","","5","","10","","24.1","","102.28","","","","","","NA"
"-61.68","56.55","NAIN A","8502801","2021-05-06 07:00","2021","05","06","07:00","0.6","","0.0","","95","","","","6","","13","","24.1","","102.28","","","","","","NA"
"-61.68","56.55","NAIN A","8502801","2021-05-06 08:00","2021","05","06","08:00","0.7","","-0.3","","93","","","","6","","18","","24.1","","102.28","","","","","","Cloudy"
"-61.68","56.55","NAIN A","8502801","2021-05-06 09:00","2021","05","06","09:00","0.8","","0.1","","95","","","","8","","14","","24.1","","102.29","","","","","","NA"
"-61.68","56.55","NAIN A","8502801","2021-05-06 10:00","2021","05","06","10:00","0.9","","0.0","","93","","","","8","","20","","24.1","","102.29","","","","","","NA"
"-61.68","56.55","NAIN A","8502801","2021-05-06 11:00","2021","05","06","11:00","1.3","","0.1","","92","","","","8","","18","","24.1","","102.26","","","","","","Mostly Cloudy"
"-61.68","56.55","NAIN A","8502801","2021-05-06 12:00","2021","05","06","12:00","1.5","","0.5","","93","","","","8","","23","","24.1","","102.24","","","","","","NA"
"-61.68","56.55","NAIN A","8502801","2021-05-06 13:00","2021","05","06","13:00","0.6","","0.3","","98","","","","7","","24","","24.1","","102.23","","","","","","NA"
"-61.68","56.55","NAIN A","8502801","2021-05-06 14:00","2021","05","06","14:00","0.5","","0.5","","100","","","","7","","22","","16.1","","102.22","","","","","","Cloudy"
"-61.68","56.55","NAIN A","8502801","2021-05-06 15:00","2021","05","06","15:00","0.3","","0.3","","100","","","","7","","21","","16.1","","102.21","","","","","","NA"
"-61.68","56.55","NAIN A","8502801","2021-05-06 16:00","2021","05","06","16:00","0.5","","0.5","","100","","","","7","","25","","9.7","","102.20","","","","","","Fog"
"-61.68","56.55","NAIN A","8502801","2021-05-06 17:00","2021","05","06","17:00","0.3","","0.3","","100","","","","7","","28","","9.7","","102.19","","","","","","Fog"
"-61.68","56.55","NAIN A","8502801","2021-05-06 18:00","2021","05","06","18:00","0.0","","0.0","","100","","","","7","","28","","6.4","","102.20","","","","-6","","Fog"
"-61.68","56.55","NAIN A","8502801","2021-05-06 19:00","2021","05","06","19:00","-0.3","","-0.3","","100","","","","7","","26","","6.4","","102.21","","","","-6","","Fog"
"-61.68","56.55","NAIN A","8502801","2021-05-06 20:00","2021","05","06","20:00"
"-61.68","56.55","NAIN A","8502801","2021-05-06 21:00","2021","05","06","21:00"
"-61.68","56.55","NAIN A","8502801","2021-05-06 22:00","2021","05","06","22:00"
"-61.68","56.55","NAIN A","8502801","2021-05-06 23:00","2021","05","06","23:00"
"-61.68","56.55","NAIN A","8502801","2021-05-07 00:00","2021","05","07","00:00"
"-61.68","56.55","NAIN A","8502801","2021-05-07 01:00","2021","05","07","01:00"
"-61.68","56.55","NAIN A","8502801","2021-05-07 02:00","2021","05","07","02:00"
"-61.68","56.55","NAIN A","8502801","2021-05-07 03:00","2021","05","07","03:00"
"-61.68","56.55","NAIN A","8502801","2021-05-07 04:00","2021","05","07","04:00","-1.4","","-1.4","","100","","","","10","","25","","2.4","","102.25","","","","-8","","Fog"
"-61.68","56.55","NAIN A","8502801","2021-05-07 05:00","2021","05","07","05:00","-1.5","","-1.5","","100","","","","10","","20","","2.4","","102.28","","","","-7","","Fog"
"-61.68","56.55","NAIN A","8502801","2021-05-07 06:00","2021","05","07","06:00","-1.6","","-1.6","","100","","","","9","","16","","4.8","","102.32","","","","-7","","Fog"
"-61.68","56.55","NAIN A","8502801","2021-05-07 07:00","2021","05","07","07:00","-1.4","","-1.4","","100","","","","9","","14","","2.4","","102.35","","","","-6","","Snow"
"-61.68","56.55","NAIN A","8502801","2021-05-07 08:00","2021","05","07","08:00","-1.2","","-1.2","","100","","","","6","","10","","16.1","","102.36","","","","-5","","Cloudy"
"-61.68","56.55","NAIN A","8502801","2021-05-07 09:00","2021","05","07","09:00","-0.9","","-1.1","","99","","","","9","","11","","9.7","","102.39","","","","-5","","Fog"
"-61.68","56.55","NAIN A","8502801","2021-05-07 10:00","2021","05","07","10:00","-0.6","","-0.8","","99","","","","10","","9","","9.7","","102.40","","","","-4","","Fog"
"-61.68","56.55","NAIN A","8502801","2021-05-07 11:00","2021","05","07","11:00","0.0","","-0.4","","98","","","","9","","14","","9.7","","102.40","","","","-4","","Fog"
"-61.68","56.55","NAIN A","8502801","2021-05-07 12:00","2021","05","07","12:00","0.5","","-0.6","","92","","","","9","","10","","24.1","","102.40","","","","","","NA"
"-61.68","56.55","NAIN A","8502801","2021-05-07 13:00","2021","05","07","13:00","0.8","","-0.4","","91","","","","10","","15","","24.1","","102.39","","","","","","NA"
"-61.68","56.55","NAIN A","8502801","2021-05-07 14:00","2021","05","07","14:00","1.0","","0.0","","93","","","","9","","16","","24.1","","102.38","","","","","","Mostly Cloudy"
"-61.68","56.55","NAIN A","8502801","2021-05-07 15:00","2021","05","07","15:00","0.9","","0.2","","95","","","","9","","17","","24.1","","102.39","","","","","","NA"
"-61.68","56.55","NAIN A","8502801","2021-05-07 16:00","2021","05","07","16:00","0.2","","0.2","","100","","","","10","","13","","9.7","","102.42","","","","","","Snow"
"-61.68","56.55","NAIN A","8502801","2021-05-07 17:00","2021","05","07","17:00","0.0","","0.0","","100","","","","10","","10","","8.1","","102.42","","","","-3","","Snow"
"-61.68","56.55","NAIN A","8502801","2021-05-07 18:00","2021","05","07","18:00","-0.2","","-0.2","","100","","","","10","","12","","24.1","","102.44","","","","-4","","Snow Showers"
"-61.68","56.55","NAIN A","8502801","2021-05-07 19:00","2021","05","07","19:00","-0.6","","-0.6","","100","","","","8","","10","","24.1","","102.45","","","","-4","","Snow Showers"
"-61.68","56.55","NAIN A","8502801","2021-05-07 20:00","2021","05","07","20:00"
"-61.68","56.55","NAIN A","8502801","2021-05-07 21:00","2021","05","07","21:00"
"-61.68","56.55","NAIN A","8502801","2021-05-07 22:00","2021","05","07","22:00"
"-61.68","56.55","NAIN A","8502801","2021-05-07 23:00","2021","05","07","23:00"
"-61.68","56.55","NAIN A","8502801","2021-05-08 00:00","2021","05","08","00:00"
"-61.68","56.55","NAIN A","8502801","2021-05-08 01:00","2021","05","08","01:00"
"-61.68","56.55","NAIN A","8502801","2021-05-08 02:00","2021","05","08","02:00"
"-61.68","56.55","NAIN A","8502801","2021-05-08 03:00","2021","05","08","03:00"
"-61.68","56.55","NAIN A","8502801","2021-05-08 04:00","2021","05","08","04:00","-1.2","","-1.2","","100","","","","5","","10","","24.1","","102.50","","","","-5","","NA"
"-61.68","56.55","NAIN A","8502801","2021-05-08 05:00","2021","05","08","05:00","-1.1","","-1.1","","100","","","","8","","8","","24.1","","102.51","","","","-4","","Cloudy"
"-61.68","56.55","NAIN A","8502801","2021-05-08 06:00","2021","05","08","06:00","-1.0","","-1.1","","99","","","","6","","7","","24.1","","102.54","","","","-4","","NA"
"-61.68","56.55","NAIN A","8502801","2021-05-08 07:00","2021","05","08","07:00","-0.6","","-1.5","","93","","","","9","","9","","24.1","","102.56","","","","-4","","Snow Showers"
"-61.68","56.55","NAIN A","8502801","2021-05-08 08:00","2021","05","08","08:00","0.0","","-1.0","","93","","","","14","","8","","24.1","","102.58","","","","-3","","Snow Showers"
"-61.68","56.55","NAIN A","8502801","2021-05-08 09:00","2021","05","08","09:00","0.6","","-1.8","","84","","","","14","","12","","24.1","","102.56","","","","","","Snow Showers"
"-61.68","56.55","NAIN A","8502801","2021-05-08 10:00","2021","05","08","10:00","0.7","","-1.3","","86","","","","8","","12","","24.1","","102.59","","","","","","NA"
"-61.68","56.55","NAIN A","8502801","2021-05-08 11:00","2021","05","08","11:00","1.0","","-2.2","","80","","","","10","","14","","24.1","","102.58","","","","","","Cloudy"
"-61.68","56.55","NAIN A","8502801","2021-05-08 12:00","2021","05","08","12:00","0.9","","-1.6","","83","","","","8","","14","","24.1","","102.57","","","","","","NA"
"-61.68","56.55","NAIN A","8502801","2021-05-08 13:00","2021","05","08","13:00","1.0","","-1.5","","84","","","","8","","17","","24.1","","102.53","","","","","","NA"
"-61.68","56.55","NAIN A","8502801","2021-05-08 14:00","2021","05","08","14:00","1.3","","-1.7","","80","","","","11","","16","","24.1","","102.54","","","","","","Cloudy"
"-61.68","56.55","NAIN A","8502801","2021-05-08 15:00","2021","05","08","15:00","1.2","","-2.6","","76","","","","8","","13","","24.1","","102.52","","","","","","NA"
"-61.68","56.55","NAIN A","8502801","2021-05-08 16:00","2021","05","08","16:00","1.4","","-1.8","","79","","","","14","","16","","24.1","","102.53","","","","","","NA"
"-61.68","56.55","NAIN A","8502801","2021-05-08 17:00","2021","05","08","17:00","0.9","","-1.6","","84","","","","13","","12","","24.1","","102.53","","","","","","Cloudy"
"-61.68","56.55","NAIN A","8502801","2021-05-08 18:00","2021","05","08","18:00","0.6","","-1.1","","88","","","","12","","10","","24.1","","102.49","","","","","","NA"
"-61.68","56.55","NAIN A","8502801","2021-05-08 19:00","2021","05","08","19:00","0.5","","-1.4","","87","","","","13","","10","","24.1","","102.48","","","","","","NA"
"-61.68","56.55","NAIN A","8502801","2021-05-08 20:00","2021","05","08","20:00"
"-61.68","56.55","NAIN A","8502801","2021-05-08 21:00","2021","05","08","21:00"
"-61.68","56.55","NAIN A","8502801","2021-05-08 22:00","2021","05","08","22:00"
"-61.68","56.55","NAIN A","8502801","2021-05-08 23:00","2021","05","08","23:00"
"-61.68","56.55","NAIN A","8502801","2021-05-09 00:00","2021","05","09","00:00"
"-61.68","56.55","NAIN A","8502801","2021-05-09 01:00","2021","05","09","01:00"
"-61.68","56.55","NAIN A","8502801","2021-05-09 02:00","2021","05","09","02:00"
"-61.68","56.55","NAIN A","8502801","2021-05-09 03:00","2021","05","09","03:00"
"-61.68","56.55","NAIN A","8502801","2021-05-09 04:00","2021","05","09","04:00","-0.1","","-2.0","","87","","","","31","","9","","24.1","","102.17","","","","-3","","NA"
"-61.68","56.55","NAIN A","8502801","2021-05-09 05:00","2021","05","09","05:00","-1.3","","-2.2","","94","","","","1","","12","","24.1","","102.10","","","","-5","","Mostly Cloudy"
"-61.68","56.55","NAIN A","8502801","2021-05-09 06:00","2021","05","09","06:00","-0.8","","-2.4","","89","","","","3","","10","","24.1","","102.09","","","","-4","","NA"
"-61.68","56.55","NAIN A","8502801","2021-05-09 07:00","2021","05","09","07:00","-0.9","","-1.8","","93","","","","7","","11","","24.1","","102.10","","","","-5","","NA"
"-61.68","56.55","NAIN A","8502801","2021-05-09 08:00","2021","05","09","08:00","-1.4","","-1.4","","100","","","","8","","20","","24.1","","102.07","","","","-7","","Mostly Cloudy"
"-61.68","56.55","NAIN A","8502801","2021-05-09 09:00","2021","05","09","09:00","-1.0","","-1.3","","98","","","","10","","19","","24.1","","102.06","","","","-6","","NA"
"-61.68","56.55","NAIN A","8502801","2021-05-09 10:00","2021","05","09","10:00","-0.5","","-1.1","","96","","","","10","","10","","19.3","","102.00","","","","-4","","NA"
"-61.68","56.55","NAIN A","8502801","2021-05-09 11:00","2021","05","09","11:00","-0.1","","-1.3","","91","","","","3","","16","","24.1","","101.92","","","","-5","","Cloudy"
"-61.68","56.55","NAIN A","8502801","2021-05-09 12:00","2021","05","09","12:00","0.5","","-1.3","","88","","","","1","","17","","24.1","","101.82","","","","","","NA"
"-61.68","56.55","NAIN A","8502801","2021-05-09 13:00","2021","05","09","13:00","1.4","","-1.3","","82","","","","36","","8","","24.1","","101.74","","","","","","NA"
"-61.68","56.55","NAIN A","8502801","2021-05-09 14:00","2021","05","09","14:00","2.4","","-1.4","","76","","","","11","","4","","24.1","","101.67","","","","","","Mostly Cloudy"
"-61.68","56.55","NAIN A","8502801","2021-05-09 15:00","2021","05","09","15:00","2.5","","-0.4","","81","","","","7","","11","","24.1","","101.60","","","","","","NA"
"-61.68","56.55","NAIN A","8502801","2021-05-09 16:00","2021","05","09","16:00","1.3","","-0.6","","87","","","","7","","17","","24.1","","101.58","","","","","","NA"
"-61.68","56.55","NAIN A","8502801","2021-05-09 17:00","2021","05","09","17:00","0.2","","-0.4","","95","","","","5","","22","","24.1","","101.57","","","","","","Cloudy"
"-61.68","56.55","NAIN A","8502801","2021-05-09 18:00","2021","05","09","18:00","0.2","","-0.5","","95","","","","7","","12","","24.1","","101.55","","","","","","NA"
"-61.68","56.55","NAIN A","8502801","2021-05-09 19:00","2021","05","09","19:00","0.5","","-0.1","","96","","","","4","","20","","24.1","","101.54","","","","","","NA"
"-61.68","56.55","NAIN A","8502801","2021-05-09 20:00","2021","05","09","20:00"
"-61.68","56.55","NAIN A","8502801","2021-05-09 21:00","2021","05","09","21:00"
"-61.68","56.55","NAIN A","8502801","2021-05-09 22:00","2021","05","09","22:00"
"-61.68","56.55","NAIN A","8502801","2021-05-09 23:00","2021","05","09","23:00"
"-61.68","56.55","NAIN A","8502801","2021-05-10 00:00","2021","05","10","00:00"
"-61.68","56.55","NAIN A","8502801","2021-05-10 01:00","2021","05","10","01:00"
"-61.68","56.55","NAIN A","8502801","2021-05-10 02:00","2021","05","10","02:00"
"-61.68","56.55","NAIN A","8502801","2021-05-10 03:00","2021","05","10","03:00"
"-61.68","56.55","NAIN A","8502801","2021-05-10 04:00","2021","05","10","04:00","-0.1","","-0.1","","100","","","","35","","17","","24.1","","101.30","","","","-5","","Snow Showers"
"-61.68","56.55","NAIN A","8502801","2021-05-10 05:00","2021","05","10","05:00","0.5","","0.2","","98","","","","2","","19","","24.1","","101.34","","","","","","Cloudy"
"-61.68","56.55","NAIN A","8502801","2021-05-10 06:00","2021","05","10","06:00","0.4","","0.2","","99","","","","2","","25","","24.1","","101.37","","","","","","NA"
"-61.68","56.55","NAIN A","8502801","2021-05-10 07:00","2021","05","10","07:00","0.8","","-0.2","","93","","","","1","","26","","24.1","","101.39","","","","","","NA"
"-61.68","56.55","NAIN A","8502801","2021-05-10 08:00","2021","05","10","08:00","0.6","","0.1","","97","","","","36","","19","","24.1","","101.41","","","","","","Cloudy"
"-61.68","56.55","NAIN A","8502801","2021-05-10 09:00","2021","05","10","09:00","1.0","","-0.1","","92","","","","36","","20","","24.1","","101.43","","","","","","NA"
"-61.68","56.55","NAIN A","8502801","2021-05-10 10:00","2021","05","10","10:00","1.6","","-0.3","","87","","","","1","","18","","24.1","","101.43","","","","","","NA"
"-61.68","56.55","NAIN A","8502801","2021-05-10 11:00","2021","05","10","11:00","1.7","","-0.5","","85","","","","1","","22","","24.1","","101.46","","","","","","Cloudy"
"-61.68","56.55","NAIN A","8502801","2021-05-10 12:00","2021","05","10","12:00","1.9","","-0.8","","82","","","","36","","18","","24.1","","101.48","","","","","","NA"
"-61.68","56.55","NAIN A","8502801","2021-05-10 13:00","2021","05","10","13:00","2.0","","-1.0","","80","","","","1","","19","","24.1","","101.48","","","","","","NA"
"-61.68","56.55","NAIN A","8502801","2021-05-10 14:00","2021","05","10","14:00","2.3","","-1.1","","78","","","","1","","22","","24.1","","101.51","","","","","","Mostly Cloudy"
"-61.68","56.55","NAIN A","8502801","2021-05-10 15:00","2021","05","10","15:00","2.2","","-0.8","","81","","","","36","","18","","24.1","","101.52","","","","","","NA"
"-61.68","56.55","NAIN A","8502801","2021-05-10 16:00","2021","05","10","16:00","2.0","","-0.8","","81","","","","35","","19","","24.1","","101.52","","","","","","NA"
"-61.68","56.55","NAIN A","8502801","2021-05-10 17:00","2021","05","10","17:00","1.7","","-0.5","","86","","","","1","","13","","24.1","","101.53","","","","","","Mostly Cloudy"
"-61.68","56.55","NAIN A","8502801","2021-05-10 18:00","2021","05","10","18:00","2.2","","-0.4","","82","","","","35","","21","","24.1","","101.57","","","","","","NA"
"-61.68","56.55","NAIN A","8502801","2021-05-10 19:00","2021","05","10","19:00","1.5","","-0.1","","89","","","","34","","15","","24.1","","101.58","","","","","","NA"
"-61.68","56.55","NAIN A","8502801","2021-05-10 20:00","2021","05","10","20:00"
"-61.68","56.55","NAIN A","8502801","2021-05-10 21:00","2021","05","10","21:00"
"-61.68","56.55","NAIN A","8502801","2021-05-10 22:00","2021","05","10","22:00"
"-61.68","56.55","NAIN A","8502801","2021-05-10 23:00","2021","05","10","23:00"
"-61.68","56.55","NAIN A","8502801","2021-05-11 00:00","2021","05","11","00:00"
"-61.68","56.55","NAIN A","8502801","2021-05-11 01:00","2021","05","11","01:00"
"-61.68","56.55","NAIN A","8502801","2021-05-11 02:00","2021","05","11","02:00"
"-61.68","56.55","NAIN A","8502801","2021-05-11 03:00","2021","05","11","03:00"
"-61.68","56.55","NAIN A","8502801","2021-05-11 04:00","2021","05","11","04:00","1.4","","0.0","","91","","","","32","","16","","24.1","","101.58","","","","","","NA"
"-61.68","56.55","NAIN A","8502801","2021-05-11 05:00","2021","05","11","05:00","1.4","","-0.4","","88","","","","33","","17","","24.1","","101.62","","","","","","Snow Showers"
"-61.68","56.55","NAIN A","8502801","2021-05-11 06:00","2021","05","11","06:00","1.6","","-1.0","","83","","","","32","","10","","24.1","","101.67","","","","","","NA"
"-61.68","56.55","NAIN A","8502801","2021-05-11 07:00","2021","05","11","07:00","1.8","","-0.8","","83","","","","34","","9","","24.1","","101.69","","","","","","NA"
"-61.68","56.55","NAIN A","8502801","2021-05-11 08:00","2021","05","11","08:00","2.0","","-1.0","","80","","","","32","","17","","24.1","","101.71","","","","","","Cloudy"
"-61.68","56.55","NAIN A","8502801","2021-05-11 09:00","2021","05","11","09:00","2.6","","-1.1","","76","","","","33","","10","","24.1","","101.72","","","","","","NA"
"-61.68","56.55","NAIN A","8502801","2021-05-11 10:00","2021","05","11","10:00"
"-61.68","56.55","NAIN A","8502801","2021-05-11 11:00","2021","05","11","11:00","2.5","","0.0","","84","","","","3","","14","","24.1","","101.73","","","","","","Cloudy"
"-61.68","56.55","NAIN A","8502801","2021-05-11 12:00","2021","05","11","12:00","2.8","","1.0","","88","","","","7","","10","","24.1","","101.75","","","","","","NA"
"-61.68","56.55","NAIN A","8502801","2021-05-11 13:00","2021","05","11","13:00","3.6","","1.3","","84","","","","2","","3","","24.1","","101.76","","","","","","NA"
"-61.68","56.55","NAIN A","8502801","2021-05-11 14:00","2021","05","11","14:00","3.0","","0.9","","86","","","","2","","10","","24.1","","101.77","","","","","","Cloudy"
"-61.68","56.55","NAIN A","8502801","2021-05-11 15:00","2021","05","11","15:00","2.6","","0.9","","88","","","","6","","11","","24.1","","101.79","","","","","","NA"
"-61.68","56.55","NAIN A","8502801","2021-05-11 16:00","2021","05","11","16:00","2.9","","0.7","","86","","","","3","","3","","24.1","","101.78","","","","","","NA"
"-61.68","56.55","NAIN A","8502801","2021-05-11 17:00","2021","05","11","17:00","3.2","","0.8","","84","","","","36","","4","","24.1","","101.78","","","","","","Cloudy"
"-61.68","56.55","NAIN A","8502801","2021-05-11 18:00","2021","05","11","18:00","2.2","","0.9","","91","","","","35","","17","","24.1","","101.80","","","","","","NA"
"-61.68","56.55","NAIN A","8502801","2021-05-11 19:00","2021","05","11","19:00","1.4","","0.8","","96","","","","5","","13","","24.1","","101.83","","","","","","NA"
"-61.68","56.55","NAIN A","8502801","2021-05-11 20:00","2021","05","11","20:00"
"-61.68","56.55","NAIN A","8502801","2021-05-11 21:00","2021","05","11","21:00"
"-61.68","56.55","NAIN A","8502801","2021-05-11 22:00","2021","05","11","22:00"
"-61.68","56.55","NAIN A","8502801","2021-05-11 23:00","2021","05","11","23:00"
"-61.68","56.55","NAIN A","8502801","2021-05-12 00:00","2021","05","12","00:00"
"-61.68","56.55","NAIN A","8502801","2021-05-12 01:00","2021","05","12","01:00"
"-61.68","56.55","NAIN A","8502801","2021-05-12 02:00","2021","05","12","02:00"
"-61.68","56.55","NAIN A","8502801","2021-05-12 03:00","2021","05","12","03:00"
"-61.68","56.55","NAIN A","8502801","2021-05-12 04:00","2021","05","12","04:00","1.4","","0.0","","91","","","","30","","15","","24.1","","101.75","","","","","","NA"
"-61.68","56.55","NAIN A","8502801","2021-05-12 05:00","2021","05","12","05:00","1.6","","-0.3","","87","","","","32","","13","","24.1","","101.77","","","","","","Cloudy"
"-61.68","56.55","NAIN A","8502801","2021-05-12 06:00","2021","05","12","06:00","1.7","","0.0","","88","","","","31","","8","","24.1","","101.78","","","","","","NA"
"-61.68","56.55","NAIN A","8502801","2021-05-12 07:00","2021","05","12","07:00","1.9","","-0.1","","86","","","","30","","8","","24.1","","101.80","","","","","","NA"
"-61.68","56.55","NAIN A","8502801","2021-05-12 08:00","2021","05","12","08:00","2.5","","-0.1","","83","","","","31","","7","","24.1","","101.78","","","","","","Cloudy"
"-61.68","56.55","NAIN A","8502801","2021-05-12 09:00","2021","05","12","09:00","3.0","","-0.3","","79","","","","32","","9","","24.1","","101.79","","","","","","NA"
"-61.68","56.55","NAIN A","8502801","2021-05-12 10:00","2021","05","12","10:00","3.3","","-0.5","","76","","","","33","","15","","24.1","","101.78","","","","","","NA"
"-61.68","56.55","NAIN A","8502801","2021-05-12 11:00","2021","05","12","11:00","2.9","","0.3","","83","","","","31","","18","","24.1","","101.76","","","","","","Cloudy"
"-61.68","56.55","NAIN A","8502801","2021-05-12 12:00","2021","05","12","12:00","3.7","","0.0","","77","","","","31","","13","","24.1","","101.74","","","","","","NA"
"-61.68","56.55","NAIN A","8502801","2021-05-12 13:00","2021","05","12","13:00","3.5","","0.8","","82","","","","31","","12","","24.1","","101.73","","","","","","NA"
"-61.68","56.55","NAIN A","8502801","2021-05-12 14:00","2021","05","12","14:00","3.2","","0.0","","79","","","","33","","10","","24.1","","101.72","","","","","","Cloudy"
"-61.68","56.55","NAIN A","8502801","2021-05-12 15:00","2021","05","12","15:00","2.1","","0.6","","90","","","","2","","9","","24.1","","101.70","","","","","","NA"
"-61.68","56.55","NAIN A","8502801","2021-05-12 16:00","2021","05","12","16:00","3.0","","0.4","","83","","","","36","","2","","24.1","","101.67","","","","","","NA"
"-61.68","56.55","NAIN A","8502801","2021-05-12 17:00","2021","05","12","17:00","1.6","","0.9","","95","","","","4","","5","","24.1","","101.65","","","","","","Cloudy"
"-61.68","56.55","NAIN A","8502801","2021-05-12 18:00","2021","05","12","18:00","1.0","","0.9","","99","","","","36","","1","","24.1","","101.63","","","","","","NA"
"-61.68","56.55","NAIN A","8502801","2021-05-12 19:00","2021","05","12","19:00","0.7","","0.4","","98","","","","35","","4","","24.1","","101.63","","","","","","NA"
"-61.68","56.55","NAIN A","8502801","2021-05-12 20:00","2021","05","12","20:00"
"-61.68","56.55","NAIN A","8502801","2021-05-12 21:00","2021","05","12","21:00"
"-61.68","56.55","NAIN A","8502801","2021-05-12 22:00","2021","05","12","22:00"
"-61.68","56.55","NAIN A","8502801","2021-05-12 23:00","2021","05","12","23:00"
"-61.68","56.55","NAIN A","8502801","2021-05-13 00:00","2021","05","13","00:00"
"-61.68","56.55","NAIN A","8502801","2021-05-13 01:00","2021","05","13","01:00"
"-61.68","56.55","NAIN A","8502801","2021-05-13 02:00","2021","05","13","02:00"
"-61.68","56.55","NAIN A","8502801","2021-05-13 03:00","2021","05","13","03:00"
"-61.68","56.55","NAIN A","8502801","2021-05-13 04:00","2021","05","13","04:00","1.2","","-0.4","","89","","","","32","","21","","24.1","","101.32","","","","","","NA"
"-61.68","56.55","NAIN A","8502801","2021-05-13 05:00","2021","05","13","05:00","1.0","","-0.2","","91","","","","31","","21","","24.1","","101.33","","","","","","Cloudy"
"-61.68","56.55","NAIN A","8502801","2021-05-13 06:00","2021","05","13","06:00","1.1","","-0.4","","90","","","","30","","22","","24.1","","101.34","","","","","","NA"
"-61.68","56.55","NAIN A","8502801","2021-05-13 07:00","2021","05","13","07:00","1.4","","-0.4","","88","","","","33","","16","","24.1","","101.36","","","","","","NA"
"-61.68","56.55","NAIN A","8502801","2021-05-13 08:00","2021","05","13","08:00","1.0","","0.4","","95","","","","34","","10","","24.1","","101.38","","","","","","Snow Showers"
"-61.68","56.55","NAIN A","8502801","2021-05-13 09:00","2021","05","13","09:00","1.0","","0.5","","96","","","","33","","13","","9.7","","101.37","","","","","","Snow"
"-61.68","56.55","NAIN A","8502801","2021-05-13 10:00","2021","05","13","10:00","1.5","","0.6","","94","","","","31","","26","","24.1","","101.36","","","","","","Snow"
"-61.68","56.55","NAIN A","8502801","2021-05-13 11:00","2021","05","13","11:00","2.5","","-0.9","","78","","","","32","","26","","24.1","","101.37","","","","","","Cloudy"
"-61.68","56.55","NAIN A","8502801","2021-05-13 12:00","2021","05","13","12:00","3.1","","-1.0","","74","","","","34","","26","","24.1","","101.38","","","","","","NA"
"-61.68","56.55","NAIN A","8502801","2021-05-13 13:00","2021","05","13","13:00","3.5","","-0.8","","73","","","","33","","27","","24.1","","101.39","","","","","","NA"
"-61.68","56.55","NAIN A","8502801","2021-05-13 14:00","2021","05","13","14:00","3.6","","-0.8","","73","","","","33","","26","","24.1","","101.42","","","","","","Cloudy"
"-61.68","56.55","NAIN A","8502801","2021-05-13 15:00","2021","05","13","15:00","3.7","","-0.4","","75","","","","34","","25","","24.1","","101.46","","","","","","NA"
"-61.68","56.55","NAIN A","8502801","2021-05-13 16:00","2021","05","13","16:00","3.7","","-0.2","","75","","","","32","","22","","24.1","","101.47","","","","","","NA"
"-61.68","56.55","NAIN A","8502801","2021-05-13 17:00","2021","05","13","17:00","2.5","","0.1","","84","","","","34","","18","","24.1","","101.49","","","","","","Cloudy"
"-61.68","56.55","NAIN A","8502801","2021-05-13 18:00","2021","05","13","18:00","1.9","","0.4","","90","","","","36","","13","","24.1","","101.52","","","","","","Rain Showers"
"-61.68","56.55","NAIN A","8502801","2021-05-13 19:00","2021","05","13","19:00","1.6","","0.3","","91","","","","34","","13","","24.1","","101.54","","","","","","Rain Showers"
"-61.68","56.55","NAIN A","8502801","2021-05-13 20:00","2021","05","13","20:00"
"-61.68","56.55","NAIN A","8502801","2021-05-13 21:00","2021","05","13","21:00"
"-61.68","56.55","NAIN A","8502801","2021-05-13 22:00","2021","05","13","22:00"
"-61.68","56.55","NAIN A","8502801","2021-05-13 23:00","2021","05","13","23:00"
"-61.68","56.55","NAIN A","8502801","2021-05-14 00:00","2021","05","14","00:00"
"-61.68","56.55","NAIN A","8502801","2021-05-14 01:00","2021","05","14","01:00"
"-61.68","56.55","NAIN A","8502801","2021-05-14 02:00","2021","05","14","02:00"
"-61.68","56.55","NAIN A","8502801","2021-05-14 03:00","2021","05","14","03:00"
"-61.68","56.55","NAIN A","8502801","2021-05-14 04:00","2021","05","14","04:00","1.6","","1.1","","96","","","","32","","26","","24.1","","101.56","","","","","","Rain Showers"
"-61.68","56.55","NAIN A","8502801","2021-05-14 05:00","2021","05","14","05:00","1.5","","1.1","","97","","","","32","","24","","24.1","","101.59","","","","","","Rain Showers"
"-61.68","56.55","NAIN A","8502801","2021-05-14 06:00","2021","05","14","06:00","1.5","","1.4","","99","","","","33","","20","","24.1","","101.67","","","","","","Rain Showers"
"-61.68","56.55","NAIN A","8502801","2021-05-14 07:00","2021","05","14","07:00","1.5","","1.5","","100","","","","33","","14","","6.4","","101.74","","","","","","Rain,Drizzle,Fog"
"-61.68","56.55","NAIN A","8502801","2021-05-14 08:00","2021","05","14","08:00","1.5","","1.5","","100","","","","32","","8","","4.8","","101.81","","","","","","Rain,Drizzle,Fog"
"-61.68","56.55","NAIN A","8502801","2021-05-14 09:00","2021","05","14","09:00","1.4","","1.4","","100","","","","31","","9","","4.8","","101.85","","","","","","Rain,Drizzle,Fog"
"-61.68","56.55","NAIN A","8502801","2021-05-14 10:00","2021","05","14","10:00","1.8","","1.8","","100","","","","34","","8","","4.8","","101.89","","","","","","Rain,Drizzle,Fog"
"-61.68","56.55","NAIN A","8502801","2021-05-14 11:00","2021","05","14","11:00","2.2","","2.2","","100","","","","36","","3","","4.8","","101.92","","","","","","Rain,Drizzle,Fog"
"-61.68","56.55","NAIN A","8502801","2021-05-14 12:00","2021","05","14","12:00","2.5","","2.5","","100","","","","4","","19","","8.1","","101.94","","","","","","Rain,Drizzle,Fog"
"-61.68","56.55","NAIN A","8502801","2021-05-14 13:00","2021","05","14","13:00","3.0","","3.0","","100","","","","36","","1","","8.1","","101.97","","","","","","Rain,Drizzle,Fog"
"-61.68","56.55","NAIN A","8502801","2021-05-14 14:00","2021","05","14","14:00","2.1","","2.1","","100","","","","5","","9","","8.1","","102.00","","","","","","Fog"
"-61.68","56.55","NAIN A","8502801","2021-05-14 15:00","2021","05","14","15:00","2.1","","2.1","","100","","","","30","","7","","11.3","","102.04","","","","","","NA"
"-61.68","56.55","NAIN A","8502801","2021-05-14 16:00","2021","05","14","16:00","2.9","","2.9","","100","","","","36","","1","","16.1","","102.06","","","","","","Rain Showers"
"-61.68","56.55","NAIN A","8502801","2021-05-14 17:00","2021","05","14","17:00","2.0","","1.9","","99","","","","34","","13","","16.1","","102.07","","","","","","Rain Showers"
"-61.68","56.55","NAIN A","8502801","2021-05-14 18:00","2021","05","14","18:00","1.6","","1.6","","100","","","","32","","9","","4.8","","102.14","","","","","","Fog"
"-61.68","56.55","NAIN A","8502801","2021-05-14 19:00","2021","05","14","19:00","1.2","","1.2","","100","","","","4","","14","","9.7","","102.18","","","","","","Rain Showers,Fog"
"-61.68","56.55","NAIN A","8502801","2021-05-14 20:00","2021","05","14","20:00"
"-61.68","56.55","NAIN A","8502801","2021-05-14 21:00","2021","05","14","21:00"
"-61.68","56.55","NAIN A","8502801","2021-05-14 22:00","2021","05","14","22:00"
"-61.68","56.55","NAIN A","8502801","2021-05-14 23:00","2021","05","14","23:00"
"-61.68","56.55","NAIN A","8502801","2021-05-15 00:00","2021","05","15","00:00"
"-61.68","56.55","NAIN A","8502801","2021-05-15 01:00","2021","05","15","01:00"
"-61.68","56.55","NAIN A","8502801","2021-05-15 02:00","2021","05","15","02:00"
"-61.68","56.55","NAIN A","8502801","2021-05-15 03:00","2021","05","15","03:00"
"-61.68","56.55","NAIN A","8502801","2021-05-15 04:00","2021","05","15","04:00","1.3","","1.3","","100","","","","31","","7","","1.2","","102.38","","","","","","Rain Showers,Fog"
"-61.68","56.55","NAIN A","8502801","2021-05-15 05:00","2021","05","15","05:00","1.5","","1.5","","100","","","","29","","7","","3.2","","102.41","","","","","","Rain Showers,Fog"
"-61.68","56.55","NAIN A","8502801","2021-05-15 06:00","2021","05","15","06:00","1.4","","1.4","","100","","","","30","","7","","4.8","","102.46","","","","","","Fog"
"-61.68","56.55","NAIN A","8502801","2021-05-15 07:00","2021","05","15","07:00","1.5","","1.5","","100","","","","31","","6","","4.0","","102.50","","","","","","Fog"
"-61.68","56.55","NAIN A","8502801","2021-05-15 08:00","2021","05","15","08:00","1.3","","1.3","","100","","","","34","","9","","6.4","","102.53","","","","","","Fog"
"-61.68","56.55","NAIN A","8502801","2021-05-15 09:00","2021","05","15","09:00","2.2","","2.2","","100","","","","34","","5","","12.9","","102.54","","","","","","NA"
"-61.68","56.55","NAIN A","8502801","2021-05-15 10:00","2021","05","15","10:00","2.3","","2.3","","100","","","","36","","3","","16.1","","102.56","","","","","","NA"
"-61.68","56.55","NAIN A","8502801","2021-05-15 11:00","2021","05","15","11:00","3.5","","2.8","","95","","","","9","","8","","19.3","","102.57","","","","","","Mostly Cloudy"
"-61.68","56.55","NAIN A","8502801","2021-05-15 12:00","2021","05","15","12:00","2.8","","2.2","","96","","","","8","","15","","24.1","","102.57","","","","","","NA"
"-61.68","56.55","NAIN A","8502801","2021-05-15 13:00","2021","05","15","13:00","3.1","","2.2","","94","","","","8","","10","","24.1","","102.56","","","","","","NA"
"-61.68","56.55","NAIN A","8502801","2021-05-15 14:00","2021","05","15","14:00","2.9","","1.4","","90","","","","9","","12","","24.1","","102.58","","","","","","Mostly Cloudy"
"-61.68","56.55","NAIN A","8502801","2021-05-15 15:00","2021","05","15","15:00","4.2","","2.1","","86","","","","9","","4","","24.1","","102.60","","","","","","NA"
"-61.68","56.55","NAIN A","8502801","2021-05-15 16:00","2021","05","15","16:00","2.5","","1.2","","91","","","","14","","7","","24.1","","102.61","","","","","","NA"
"-61.68","56.55","NAIN A","8502801","2021-05-15 17:00","2021","05","15","17:00","2.4","","1.1","","91","","","","10","","10","","24.1","","102.60","","","","","","Mostly Cloudy"
"-61.68","56.55","NAIN A","8502801","2021-05-15 18:00","2021","05","15","18:00","3.5","","-0.1","","77","","","","13","","16","","24.1","","102.61","","","","","","NA"
"-61.68","56.55","NAIN A","8502801","2021-05-15 19:00","2021","05","15","19:00","2.0","","0.9","","92","","","","12","","14","","24.1","","102.61","","","","","","NA"
"-61.68","56.55","NAIN A","8502801","2021-05-15 20:00","2021","05","15","20:00"
"-61.68","56.55","NAIN A","8502801","2021-05-15 21:00","2021","05","15","21:00"
"-61.68","56.55","NAIN A","8502801","2021-05-15 22:00","2021","05","15","22:00"
"-61.68","56.55","NAIN A","8502801","2021-05-15 23:00","2021","05","15","23:00"
"-61.68","56.55","NAIN A","8502801","2021-05-16 00:00","2021","05","16","00:00"
"-61.68","56.55","NAIN A","8502801","2021-05-16 01:00","2021","05","16","01:00"
"-61.68","56.55","NAIN A","8502801","2021-05-16 02:00","2021","05","16","02:00"
"-61.68","56.55","NAIN A","8502801","2021-05-16 03:00","2021","05","16","03:00"
"-61.68","56.55","NAIN A","8502801","2021-05-16 04:00","2021","05","16","04:00","-2.5","","-2.5","","100","","","","0","","1","","0.6","","102.66","","","","-3","","Freezing Fog"
"-61.68","56.55","NAIN A","8502801","2021-05-16 05:00","2021","05","16","05:00","-3.3","","-3.3","","100","","","","36","","2","","0.6","","102.67","","","","-4","","Freezing Fog"
"-61.68","56.55","NAIN A","8502801","2021-05-16 06:00","2021","05","16","06:00","-3.1","","-3.1","","100","","","","36","","2","","0.8","","102.69","","","","-4","","Freezing Fog"
"-61.68","56.55","NAIN A","8502801","2021-05-16 07:00","2021","05","16","07:00","-2.5","","-2.5","","100","","","","34","","3","","0.8","","102.69","","","","-4","","Freezing Fog"
"-61.68","56.55","NAIN A","8502801","2021-05-16 08:00","2021","05","16","08:00","-1.5","","-1.5","","100","","","","12","","7","","24.1","","102.69","","","","-4","","Clear"
"-61.68","56.55","NAIN A","8502801","2021-05-16 09:00","2021","05","16","09:00","-0.2","","-0.2","","100","","","","8","","5","","24.1","","102.66","","","","-2","","NA"
"-61.68","56.55","NAIN A","8502801","2021-05-16 10:00","2021","05","16","10:00","1.0","","-0.2","","92","","","","34","","3","","24.1","","102.64","","","","","","NA"
"-61.68","56.55","NAIN A","8502801","2021-05-16 11:00","2021","05","16","11:00","1.4","","0.1","","91","","","","8","","9","","24.1","","102.58","","","","","","Clear"
"-61.68","56.55","NAIN A","8502801","2021-05-16 12:00","2021","05","16","12:00","2.3","","1.1","","92","","","","9","","15","","24.1","","102.56","","","","","","NA"
"-61.68","56.55","NAIN A","8502801","2021-05-16 13:00","2021","05","16","13:00","4.5","","1.2","","80","","","","9","","10","","24.1","","102.50","","","","","","NA"
"-61.68","56.55","NAIN A","8502801","2021-05-16 14:00","2021","05","16","14:00","3.5","","0.6","","81","","","","8","","16","","24.1","","102.48","","","","","","Clear"
"-61.68","56.55","NAIN A","8502801","2021-05-16 15:00","2021","05","16","15:00","3.2","","1.2","","86","","","","8","","16","","24.1","","102.47","","","","","","NA"
"-61.68","56.55","NAIN A","8502801","2021-05-16 16:00","2021","05","16","16:00","2.7","","1.0","","89","","","","8","","17","","24.1","","102.45","","","","","","NA"
"-61.68","56.55","NAIN A","8502801","2021-05-16 17:00","2021","05","16","17:00","2.0","","1.0","","93","","","","8","","16","","24.1","","102.46","","","","","","Mostly Cloudy"
"-61.68","56.55","NAIN A","8502801","2021-05-16 18:00","2021","05","16","18:00","2.4","","0.8","","89","","","","36","","1","","24.1","","102.45","","","","","","NA"
"-61.68","56.55","NAIN A","8502801","2021-05-16 19:00","2021","05","16","19:00","1.9","","0.7","","92","","","","33","","5","","24.1","","102.45","","","","","","NA"
"-61.68","56.55","NAIN A","8502801","2021-05-16 20:00","2021","05","16","20:00"
"-61.68","56.55","NAIN A","8502801","2021-05-16 21:00","2021","05","16","21:00"
"-61.68","56.55","NAIN A","8502801","2021-05-16 22:00","2021","05","16","22:00"
"-61.68","56.55","NAIN A","8502801","2021-05-16 23:00","2021","05","16","23:00"
"-61.68","56.55","NAIN A","8502801","2021-05-17 00:00","2021","05","17","00:00"
"-61.68","56.55","NAIN A","8502801","2021-05-17 01:00","2021","05","17","01:00"
"-61.68","56.55","NAIN A","8502801","2021-05-17 02:00","2021","05","17","02:00"
"-61.68","56.55","NAIN A","8502801","2021-05-17 03:00","2021","05","17","03:00"
"-61.68","56.55","NAIN A","8502801","2021-05-17 04:00","2021","05","17","04:00","0.7","","0.6","","99","","","","29","","3","","24.1","","102.44","","","","","","NA"
"-61.68","56.55","NAIN A","8502801","2021-05-17 05:00","2021","05","17","05:00","0.2","","0.2","","100","","","","36","","1","","24.1","","102.42","","","","","","Mostly Cloudy"
"-61.68","56.55","NAIN A","8502801","2021-05-17 06:00","2021","05","17","06:00","0.2","","0.2","","100","","","","10","","5","","24.1","","102.44","","","","","","NA"
"-61.68","56.55","NAIN A","8502801","2021-05-17 07:00","2021","05","17","07:00","0.7","","0.5","","99","","","","36","","5","","24.1","","102.49","","","","","","NA"
"-61.68","56.55","NAIN A","8502801","2021-05-17 08:00","2021","05","17","08:00","1.8","","0.6","","92","","","","1","","4","","24.1","","102.50","","","","","","Mostly Cloudy"
"-61.68","56.55","NAIN A","8502801","2021-05-17 09:00","2021","05","17","09:00","4.2","","0.5","","77","","","","11","","4","","24.1","","102.49","","","","","","NA"
"-61.68","56.55","NAIN A","8502801","2021-05-17 10:00","2021","05","17","10:00","3.5","","0.0","","78","","","","11","","5","","24.1","","102.46","","","","","","NA"
"-61.68","56.55","NAIN A","8502801","2021-05-17 11:00","2021","05","17","11:00","3.4","","0.6","","82","","","","9","","8","","24.1","","102.40","","","","","","Clear"
"-61.68","56.55","NAIN A","8502801","2021-05-17 12:00","2021","05","17","12:00","3.0","","0.8","","85","","","","6","","8","","24.1","","102.35","","","","","","NA"
"-61.68","56.55","NAIN A","8502801","2021-05-17 13:00","2021","05","17","13:00","3.5","","0.2","","79","","","","7","","18","","24.1","","102.30","","","","","","NA"
"-61.68","56.55","NAIN A","8502801","2021-05-17 14:00","2021","05","17","14:00","3.6","","0.5","","80","","","","10","","4","","24.1","","102.26","","","","","","Clear"
"-61.68","56.55","NAIN A","8502801","2021-05-17 15:00","2021","05","17","15:00","5.0","","0.4","","72","","","","36","","5","","24.1","","102.22","","","","","","NA"
"-61.68","56.55","NAIN A","8502801","2021-05-17 16:00","2021","05","17","16:00","5.2","","0.4","","71","","","","35","","8","","24.1","","102.16","","","","","","NA"
"-61.68","56.55","NAIN A","8502801","2021-05-17 17:00","2021","05","17","17:00","3.9","","0.5","","79","","","","6","","14","","24.1","","102.14","","","","","","Clear"
"-61.68","56.55","NAIN A","8502801","2021-05-17 18:00","2021","05","17","18:00","3.3","","-0.1","","78","","","","6","","15","","24.1","","102.10","","","","","","NA"
"-61.68","56.55","NAIN A","8502801","2021-05-17 19:00","2021","05","17","19:00","4.5","","-0.7","","69","","","","13","","4","","24.1","","102.05","","","","","","NA"
"-61.68","56.55","NAIN A","8502801","2021-05-17 20:00","2021","05","17","20:00"
"-61.68","56.55","NAIN A","8502801","2021-05-17 21:00","2021","05","17","21:00"
"-61.68","56.55","NAIN A","8502801","2021-05-17 22:00","2021","05","17","22:00"
"-61.68","56.55","NAIN A","8502801","2021-05-17 23:00","2021","05","17","23:00"
"-61.68","56.55","NAIN A","8502801","2021-05-18 00:00","2021","05","18","00:00"
"-61.68","56.55","NAIN A","8502801","2021-05-18 01:00","2021","05","18","01:00"
"-61.68","56.55","NAIN A","8502801","2021-05-18 02:00","2021","05","18","02:00"
"-61.68","56.55","NAIN A","8502801","2021-05-18 03:00","2021","05","18","03:00"
"-61.68","56.55","NAIN A","8502801","2021-05-18 04:00","2021","05","18","04:00","-0.2","","-0.6","","97","","","","32","","8","","24.1","","101.65","","","","-3","","NA"
"-61.68","56.55","NAIN A","8502801","2021-05-18 05:00","2021","05","18","05:00","0.7","","-0.7","","90","","","","36","","1","","24.1","","101.63","","","","","","Clear"
"-61.68","56.55","NAIN A","8502801","2021-05-18 06:00","2021","05","18","06:00","0.6","","-0.4","","93","","","","32","","11","","24.1","","101.58","","","","","","NA"
"-61.68","56.55","NAIN A","8502801","2021-05-18 07:00","2021","05","18","07:00","1.8","","-0.2","","86","","","","33","","10","","24.1","","101.59","","","","","","NA"
"-61.68","56.55","NAIN A","8502801","2021-05-18 08:00","2021","05","18","08:00","2.7","","0.3","","84","","","","36","","3","","24.1","","101.58","","","","","","Mainly Clear"
"-61.68","56.55","NAIN A","8502801","2021-05-18 09:00","2021","05","18","09:00","1.5","","0.1","","90","","","","2","","4","","24.1","","101.55","","","","","","NA"
"-61.68","56.55","NAIN A","8502801","2021-05-18 10:00","2021","05","18","10:00","4.2","","-0.1","","74","","","","10","","7","","24.1","","101.55","","","","","","NA"
"-61.68","56.55","NAIN A","8502801","2021-05-18 11:00","2021","05","18","11:00","4.2","","0.0","","74","","","","10","","7","","24.1","","101.54","","","","","","Mostly Cloudy"
"-61.68","56.55","NAIN A","8502801","2021-05-18 12:00","2021","05","18","12:00","3.8","","0.9","","81","","","","5","","4","","24.1","","101.53","","","","","","NA"
"-61.68","56.55","NAIN A","8502801","2021-05-18 13:00","2021","05","18","13:00","3.7","","1.0","","83","","","","7","","4","","24.1","","101.55","","","","","","NA"
"-61.68","56.55","NAIN A","8502801","2021-05-18 14:00","2021","05","18","14:00","3.6","","1.5","","86","","","","1","","7","","24.1","","101.59","","","","","","Mostly Cloudy"
"-61.68","56.55","NAIN A","8502801","2021-05-18 15:00","2021","05","18","15:00","4.4","","1.0","","78","","","","29","","36","","24.1","","101.67","","","","","","NA"
"-61.68","56.55","NAIN A","8502801","2021-05-18 16:00","2021","05","18","16:00","2.9","","0.5","","84","","","","29","","31","","24.1","","101.75","","","","","","NA"
"-61.68","56.55","NAIN A","8502801","2021-05-18 17:00","2021","05","18","17:00","1.4","","1.1","","98","","","","30","","44","","24.1","","101.84","","","","","","Rain"
"-61.68","56.55","NAIN A","8502801","2021-05-18 18:00","2021","05","18","18:00","1.0","","1.0","","100","","","","29","","30","","24.1","","101.89","","","","","","Rain,Snow"
"-61.68","56.55","NAIN A","8502801","2021-05-18 19:00","2021","05","18","19:00","0.5","","0.5","","100","","","","30","","23","","4.8","","101.96","","","","","","Snow"
"-61.68","56.55","NAIN A","8502801","2021-05-18 20:00","2021","05","18","20:00"
"-61.68","56.55","NAIN A","8502801","2021-05-18 21:00","2021","05","18","21:00"
"-61.68","56.55","NAIN A","8502801","2021-05-18 22:00","2021","05","18","22:00"
"-61.68","56.55","NAIN A","8502801","2021-05-18 23:00","2021","05","18","23:00"
"-61.68","56.55","NAIN A","8502801","2021-05-19 00:00","2021","05","19","00:00"
"-61.68","56.55","NAIN A","8502801","2021-05-19 01:00","2021","05","19","01:00"
"-61.68","56.55","NAIN A","8502801","2021-05-19 02:00","2021","05","19","02:00"
"-61.68","56.55","NAIN A","8502801","2021-05-19 03:00","2021","05","19","03:00"
"-61.68","56.55","NAIN A","8502801","2021-05-19 04:00","2021","05","19","04:00","-0.4","","-0.4","","100","","","","29","","16","","8.1","","102.42","","","","-5","","Fog"
"-61.68","56.55","NAIN A","8502801","2021-05-19 05:00","2021","05","19","05:00","-0.6","","-0.8","","99","","","","29","","17","","8.1","","102.49","","","","-6","","Snow Showers,Fog"
"-61.68","56.55","NAIN A","8502801","2021-05-19 06:00","2021","05","19","06:00","-0.3","","-1.7","","90","","","","28","","17","","24.1","","102.46","","","","-5","","NA"
"-61.68","56.55","NAIN A","8502801","2021-05-19 07:00","2021","05","19","07:00","0.3","","-2.1","","84","","","","32","","5","","24.1","","102.53","","","","","","NA"
"-61.68","56.55","NAIN A","8502801","2021-05-19 08:00","2021","05","19","08:00","0.8","","-1.2","","86","","","","31","","9","","24.1","","102.52","","","","","","Cloudy"
"-61.68","56.55","NAIN A","8502801","2021-05-19 09:00","2021","05","19","09:00","1.4","","-2.2","","77","","","","23","","8","","24.1","","102.55","","","","","","NA"
"-61.68","56.55","NAIN A","8502801","2021-05-19 10:00","2021","05","19","10:00","1.7","","-2.3","","75","","","","23","","6","","24.1","","102.58","","","","","","NA"
"-61.68","56.55","NAIN A","8502801","2021-05-19 11:00","2021","05","19","11:00","2.5","","-2.5","","70","","","","15","","14","","24.1","","102.54","","","","","","Mostly Cloudy"
"-61.68","56.55","NAIN A","8502801","2021-05-19 12:00","2021","05","19","12:00","3.3","","-2.8","","64","","","","14","","9","","24.1","","102.55","","","","","","NA"
"-61.68","56.55","NAIN A","8502801","2021-05-19 13:00","2021","05","19","13:00","1.8","","-2.7","","72","","","","10","","14","","24.1","","102.52","","","","","","NA"
"-61.68","56.55","NAIN A","8502801","2021-05-19 14:00","2021","05","19","14:00","2.1","","0.1","","86","","","","8","","15","","24.1","","102.52","","","","","","Mostly Cloudy"
"-61.68","56.55","NAIN A","8502801","2021-05-19 15:00","2021","05","19","15:00","1.4","","-0.6","","87","","","","8","","18","","24.1","","102.50","","","","","","NA"
"-61.68","56.55","NAIN A","8502801","2021-05-19 16:00","2021","05","19","16:00","1.1","","-1.2","","85","","","","9","","21","","24.1","","102.48","","","","","","NA"
"-61.68","56.55","NAIN A","8502801","2021-05-19 17:00","2021","05","19","17:00","0.8","","-1.1","","87","","","","9","","16","","24.1","","102.45","","","","","","Cloudy"
"-61.68","56.55","NAIN A","8502801","2021-05-19 18:00","2021","05","19","18:00","0.6","","-0.8","","90","","","","10","","13","","24.1","","102.45","","","","","","NA"
"-61.68","56.55","NAIN A","8502801","2021-05-19 19:00","2021","05","19","19:00","0.6","","-0.9","","89","","","","9","","13","","24.1","","102.47","","","","","","NA"
"-61.68","56.55","NAIN A","8502801","2021-05-19 20:00","2021","05","19","20:00"
"-61.68","56.55","NAIN A","8502801","2021-05-19 21:00","2021","05","19","21:00"
"-61.68","56.55","NAIN A","8502801","2021-05-19 22:00","2021","05","19","22:00"
"-61.68","56.55","NAIN A","8502801","2021-05-19 23:00","2021","05","19","23:00"
"-61.68","56.55","NAIN A","8502801","2021-05-20 00:00","2021","05","20","00:00"
"-61.68","56.55","NAIN A","8502801","2021-05-20 01:00","2021","05","20","01:00"
"-61.68","56.55","NAIN A","8502801","2021-05-20 02:00","2021","05","20","02:00"
"-61.68","56.55","NAIN A","8502801","2021-05-20 03:00","2021","05","20","03:00"
"-61.68","56.55","NAIN A","8502801","2021-05-20 04:00","2021","05","20","04:00","-0.2","","-0.2","","100","","","","30","","4","","24.1","","101.72","","","","-1","","NA"
"-61.68","56.55","NAIN A","8502801","2021-05-20 05:00","2021","05","20","05:00","-0.3","","-0.4","","100","","","","30","","8","","24.1","","101.61","","","","-3","","Cloudy"
"-61.68","56.55","NAIN A","8502801","2021-05-20 06:00","2021","05","20","06:00","0.0","","0.0","","100","","","","2","","7","","24.1","","101.52","","","","-2","","NA"
"-61.68","56.55","NAIN A","8502801","2021-05-20 07:00","2021","05","20","07:00","1.2","","1.0","","98","","","","36","","1","","24.1","","101.40","","","","","","NA"
"-61.68","56.55","NAIN A","8502801","2021-05-20 08:00","2021","05","20","08:00","2.0","","0.9","","92","","","","5","","5","","24.1","","101.29","","","","","","Mainly Clear"
"-61.68","56.55","NAIN A","8502801","2021-05-20 09:00","2021","05","20","09:00","7.0","","1.9","","70","","","","15","","3","","24.1","","101.19","","","","","","NA"
"-61.68","56.55","NAIN A","8502801","2021-05-20 10:00","2021","05","20","10:00","7.4","","1.8","","68","","","","13","","13","","24.1","","101.09","","","","","","NA"
"-61.68","56.55","NAIN A","8502801","2021-05-20 11:00","2021","05","20","11:00","7.5","","2.0","","68","","","","9","","13","","24.1","","100.98","","","","","","Mostly Cloudy"
"-61.68","56.55","NAIN A","8502801","2021-05-20 12:00","2021","05","20","12:00","14.3","","5.4","","55","","","","27","","10","","24.1","","100.83","","","","","","NA"
"-61.68","56.55","NAIN A","8502801","2021-05-20 13:00","2021","05","20","13:00","15.3","","7.1","","58","","","","22","","12","","24.1","","100.73","","","","","","NA"
"-61.68","56.55","NAIN A","8502801","2021-05-20 14:00","2021","05","20","14:00","18.6","","7.7","","49","","","","22","","13","","24.1","","100.62","","","","","","Mostly Cloudy"
"-61.68","56.55","NAIN A","8502801","2021-05-20 15:00","2021","05","20","15:00","19.6","","7.6","","45","","","","27","","18","","24.1","","100.58","","","","","","NA"
"-61.68","56.55","NAIN A","8502801","2021-05-20 16:00","2021","05","20","16:00","18.6","","9.1","","54","","","","26","","41","","24.1","","100.57","","","","","","NA"
"-61.68","56.55","NAIN A","8502801","2021-05-20 17:00","2021","05","20","17:00","18.0","","10.2","","60","","","","26","","35","","24.1","","100.60","","","","","","Mostly Cloudy"
"-61.68","56.55","NAIN A","8502801","2021-05-20 18:00","2021","05","20","18:00","14.2","","7.5","","63","","","","30","","8","","24.1","","100.61","","","","","","NA"
"-61.68","56.55","NAIN A","8502801","2021-05-20 19:00","2021","05","20","19:00","15.0","","10.3","","73","","","","26","","33","","24.1","","100.58","","","","","","NA"
"-61.68","56.55","NAIN A","8502801","2021-05-20 20:00","2021","05","20","20:00"
"-61.68","56.55","NAIN A","8502801","2021-05-20 21:00","2021","05","20","21:00"
"-61.68","56.55","NAIN A","8502801","2021-05-20 22:00","2021","05","20","22:00"
"-61.68","56.55","NAIN A","8502801","2021-05-20 23:00","2021","05","20","23:00"
"-61.68","56.55","NAIN A","8502801","2021-05-21 00:00","2021","05","21","00:00"
"-61.68","56.55","NAIN A","8502801","2021-05-21 01:00","2021","05","21","01:00"
"-61.68","56.55","NAIN A","8502801","2021-05-21 02:00","2021","05","21","02:00"
"-61.68","56.55","NAIN A","8502801","2021-05-21 03:00","2021","05","21","03:00"
"-61.68","56.55","NAIN A","8502801","2021-05-21 04:00","2021","05","21","04:00","1.3","","-3.8","","69","","","","29","","35","","24.1","","102.02","","","","","","NA"
"-61.68","56.55","NAIN A","8502801","2021-05-21 05:00","2021","05","21","05:00","1.7","","-4.4","","64","","","","30","","40","","24.1","","102.14","","","","","","Clear"
"-61.68","56.55","NAIN A","8502801","2021-05-21 06:00","2021","05","21","06:00","1.6","","-3.8","","67","","","","29","","31","","24.1","","102.25","","","","","","NA"
"-61.68","56.55","NAIN A","8502801","2021-05-21 07:00","2021","05","21","07:00","2.1","","-3.7","","66","","","","29","","30","","24.1","","102.30","","","","","","NA"
"-61.68","56.55","NAIN A","8502801","2021-05-21 08:00","2021","05","21","08:00","2.6","","-4.4","","60","","","","29","","32","","24.1","","102.36","","","","","","Clear"
"-61.68","56.55","NAIN A","8502801","2021-05-21 09:00","2021","05","21","09:00","3.7","","-4.4","","55","","","","28","","32","","24.1","","102.42","","","","","","NA"
"-61.68","56.55","NAIN A","8502801","2021-05-21 10:00","2021","05","21","10:00","4.6","","-4.5","","52","","","","27","","27","","24.1","","102.46","","","","","","NA"
"-61.68","56.55","NAIN A","8502801","2021-05-21 11:00","2021","05","21","11:00","4.6","","-5.0","","50","","","","29","","32","","24.1","","102.46","","","","","","Clear"
"-61.68","56.55","NAIN A","8502801","2021-05-21 12:00","2021","05","21","12:00","5.6","","-5.0","","46","","","","26","","17","","24.1","","102.45","","","","","","NA"
"-61.68","56.55","NAIN A","8502801","2021-05-21 13:00","2021","05","21","13:00","5.2","","-4.1","","51","","","","30","","26","","24.1","","102.43","","","","","","NA"
"-61.68","56.55","NAIN A","8502801","2021-05-21 14:00","2021","05","21","14:00","5.7","","-3.8","","51","","","","30","","24","","24.1","","102.42","","","","","","Mainly Clear"
"-61.68","56.55","NAIN A","8502801","2021-05-21 15:00","2021","05","21","15:00","5.8","","-4.0","","49","","","","30","","26","","24.1","","102.38","","","","","","NA"
"-61.68","56.55","NAIN A","8502801","2021-05-21 16:00","2021","05","21","16:00","6.7","","-4.2","","46","","","","30","","17","","24.1","","102.38","","","","","","NA"
"-61.68","56.55","NAIN A","8502801","2021-05-21 17:00","2021","05","21","17:00","7.1","","-3.7","","46","","","","29","","10","","24.1","","102.34","","","","","","Mostly Cloudy"
"-61.68","56.55","NAIN A","8502801","2021-05-21 18:00","2021","05","21","18:00","1.6","","-1.6","","80","","","","7","","14","","24.1","","102.31","","","","","","NA"
"-61.68","56.55","NAIN A","8502801","2021-05-21 19:00","2021","05","21","19:00","2.3","","-1.8","","75","","","","28","","12","","24.1","","102.27","","","","","","NA"
"-61.68","56.55","NAIN A","8502801","2021-05-21 20:00","2021","05","21","20:00"
"-61.68","56.55","NAIN A","8502801","2021-05-21 21:00","2021","05","21","21:00"
"-61.68","56.55","NAIN A","8502801","2021-05-21 22:00","2021","05","21","22:00"
"-61.68","56.55","NAIN A","8502801","2021-05-21 23:00","2021","05","21","23:00"
"-61.68","56.55","NAIN A","8502801","2021-05-22 00:00","2021","05","22","00:00"
"-61.68","56.55","NAIN A","8502801","2021-05-22 01:00","2021","05","22","01:00"
"-61.68","56.55","NAIN A","8502801","2021-05-22 02:00","2021","05","22","02:00"
"-61.68","56.55","NAIN A","8502801","2021-05-22 03:00","2021","05","22","03:00"
"-61.68","56.55","NAIN A","8502801","2021-05-22 04:00","2021","05","22","04:00","-2.2","","-3.0","","94","","","","35","","9","","24.1","","101.91","","","","-6","","NA"
"-61.68","56.55","NAIN A","8502801","2021-05-22 05:00","2021","05","22","05:00","-2.4","","-2.7","","98","","","","33","","3","","24.1","","101.88","","","","-4","","Mostly Cloudy"
"-61.68","56.55","NAIN A","8502801","2021-05-22 06:00","2021","05","22","06:00","-1.5","","-2.1","","95","","","","36","","2","","24.1","","101.87","","","","-2","","NA"
"-61.68","56.55","NAIN A","8502801","2021-05-22 07:00","2021","05","22","07:00","0.2","","-2.2","","84","","","","13","","4","","24.1","","101.81","","","","","","NA"
"-61.68","56.55","NAIN A","8502801","2021-05-22 08:00","2021","05","22","08:00","1.0","","-2.8","","76","","","","36","","3","","24.1","","101.77","","","","","","Mainly Clear"
"-61.68","56.55","NAIN A","8502801","2021-05-22 09:00","2021","05","22","09:00","2.8","","-2.5","","68","","","","12","","4","","24.1","","101.70","","","","","","NA"
"-61.68","56.55","NAIN A","8502801","2021-05-22 10:00","2021","05","22","10:00","3.4","","-2.2","","67","","","","11","","5","","24.1","","101.64","","","","","","NA"
"-61.68","56.55","NAIN A","8502801","2021-05-22 11:00","2021","05","22","11:00","2.7","","-0.7","","79","","","","8","","12","","24.1","","101.56","","","","","","Mostly Cloudy"
"-61.68","56.55","NAIN A","8502801","2021-05-22 12:00","2021","05","22","12:00","2.8","","-0.7","","78","","","","8","","14","","24.1","","101.48","","","","","","NA"
"-61.68","56.55","NAIN A","8502801","2021-05-22 13:00","2021","05","22","13:00","2.9","","-0.4","","79","","","","10","","17","","24.1","","101.41","","","","","","NA"
"-61.68","56.55","NAIN A","8502801","2021-05-22 14:00","2021","05","22","14:00","3.9","","-1.8","","66","","","","11","","13","","24.1","","101.36","","","","","","Cloudy"
"-61.68","56.55","NAIN A","8502801","2021-05-22 15:00","2021","05","22","15:00","2.1","","-0.2","","85","","","","8","","13","","24.1","","101.31","","","","","","NA"
"-61.68","56.55","NAIN A","8502801","2021-05-22 16:00","2021","05","22","16:00","2.5","","-0.1","","83","","","","9","","13","","24.1","","101.25","","","","","","NA"
"-61.68","56.55","NAIN A","8502801","2021-05-22 17:00","2021","05","22","17:00","1.6","","-0.4","","86","","","","2","","3","","24.1","","101.24","","","","","","Cloudy"
"-61.68","56.55","NAIN A","8502801","2021-05-22 18:00","2021","05","22","18:00","0.7","","0.3","","97","","","","5","","4","","24.1","","101.22","","","","","","NA"
"-61.68","56.55","NAIN A","8502801","2021-05-22 19:00","2021","05","22","19:00","0.6","","0.6","","100","","","","17","","9","","19.3","","101.24","","","","","","Snow"
"-61.68","56.55","NAIN A","8502801","2021-05-22 20:00","2021","05","22","20:00"
"-61.68","56.55","NAIN A","8502801","2021-05-22 21:00","2021","05","22","21:00"
"-61.68","56.55","NAIN A","8502801","2021-05-22 22:00","2021","05","22","22:00"
"-61.68","56.55","NAIN A","8502801","2021-05-22 23:00","2021","05","22","23:00"
"-61.68","56.55","NAIN A","8502801","2021-05-23 00:00","2021","05","23","00:00"
"-61.68","56.55","NAIN A","8502801","2021-05-23 01:00","2021","05","23","01:00"
"-61.68","56.55","NAIN A","8502801","2021-05-23 02:00","2021","05","23","02:00"
"-61.68","56.55","NAIN A","8502801","2021-05-23 03:00","2021","05","23","03:00"
"-61.68","56.55","NAIN A","8502801","2021-05-23 04:00","2021","05","23","04:00","-0.9","","-2.9","","86","","","","35","","17","","24.1","","101.03","","","","-6","","NA"
"-61.68","56.55","NAIN A","8502801","2021-05-23 05:00","2021","05","23","05:00","-0.9","","-3.9","","80","","","","33","","21","","24.1","","101.07","","","","-7","","Mostly Cloudy"
"-61.68","56.55","NAIN A","8502801","2021-05-23 06:00","2021","05","23","06:00","-1.0","","-3.6","","82","","","","33","","22","","24.1","","101.11","","","","-7","","NA"
"-61.68","56.55","NAIN A","8502801","2021-05-23 07:00","2021","05","23","07:00","-2.0","","-3.9","","87","","","","33","","24","","24.1","","101.20","","","","-8","","Snow Grains"
"-61.68","56.55","NAIN A","8502801","2021-05-23 08:00","2021","05","23","08:00","-2.2","","-3.4","","91","","","","3","","20","","3.2","","101.26","","","","-8","","Snow"
"-61.68","56.55","NAIN A","8502801","2021-05-23 09:00","2021","05","23","09:00","-1.4","","-4.4","","80","","","","35","","21","","24.1","","101.28","","","","-7","","NA"
"-61.68","56.55","NAIN A","8502801","2021-05-23 10:00","2021","05","23","10:00","-0.9","","-4.9","","74","","","","35","","20","","24.1","","101.28","","","","-6","","NA"
"-61.68","56.55","NAIN A","8502801","2021-05-23 11:00","2021","05","23","11:00","-0.4","","-7.7","","58","","","","31","","27","","24.1","","101.27","","","","-7","","Mostly Cloudy"
"-61.68","56.55","NAIN A","8502801","2021-05-23 12:00","2021","05","23","12:00","0.0","","-8.6","","53","","","","30","","33","","24.1","","101.25","","","","-7","","NA"
"-61.68","56.55","NAIN A","8502801","2021-05-23 13:00","2021","05","23","13:00","0.5","","-7.9","","53","","","","30","","39","","24.1","","101.24","","","","","","NA"
"-61.68","56.55","NAIN A","8502801","2021-05-23 14:00","2021","05","23","14:00","-0.3","","-9.3","","51","","","","30","","47","","24.1","","101.29","","","","-8","","Mostly Cloudy"
"-61.68","56.55","NAIN A","8502801","2021-05-23 15:00","2021","05","23","15:00","1.2","","-8.3","","49","","","","32","","31","","24.1","","101.28","","","","","","NA"
"-61.68","56.55","NAIN A","8502801","2021-05-23 16:00","2021","05","23","16:00","0.0","","-9.1","","51","","","","31","","38","","24.1","","101.32","","","","-7","","NA"
"-61.68","56.55","NAIN A","8502801","2021-05-23 17:00","2021","05","23","17:00","0.0","","-8.0","","55","","","","32","","33","","24.1","","101.35","","","","-7","","Mostly Cloudy"
"-61.68","56.55","NAIN A","8502801","2021-05-23 18:00","2021","05","23","18:00","-0.9","","-9.4","","53","","","","30","","45","","24.1","","101.39","","","","-9","","NA"
"-61.68","56.55","NAIN A","8502801","2021-05-23 19:00","2021","05","23","19:00","-0.9","","-9.2","","54","","","","30","","26","","24.1","","101.41","","","","-7","","NA"
"-61.68","56.55","NAIN A","8502801","2021-05-23 20:00","2021","05","23","20:00"
"-61.68","56.55","NAIN A","8502801","2021-05-23 21:00","2021","05","23","21:00"
"-61.68","56.55","NAIN A","8502801","2021-05-23 22:00","2021","05","23","22:00"
"-61.68","56.55","NAIN A","8502801","2021-05-23 23:00","2021","05","23","23:00"
"-61.68","56.55","NAIN A","8502801","2021-05-24 00:00","2021","05","24","00:00"
"-61.68","56.55","NAIN A","8502801","2021-05-24 01:00","2021","05","24","01:00"
"-61.68","56.55","NAIN A","8502801","2021-05-24 02:00","2021","05","24","02:00"
"-61.68","56.55","NAIN A","8502801","2021-05-24 03:00","2021","05","24","03:00"
"-61.68","56.55","NAIN A","8502801","2021-05-24 04:00","2021","05","24","04:00","-2.2","","-6.4","","73","","","","29","","12","","24.1","","101.11","","","","-6","","NA"
"-61.68","56.55","NAIN A","8502801","2021-05-24 05:00","2021","05","24","05:00","-1.9","","-7.5","","66","","","","29","","19","","24.1","","101.09","","","","-7","","Mostly Cloudy"
"-61.68","56.55","NAIN A","8502801","2021-05-24 06:00","2021","05","24","06:00","-1.3","","-7.1","","65","","","","30","","19","","24.1","","101.06","","","","-7","","NA"
"-61.68","56.55","NAIN A","8502801","2021-05-24 07:00","2021","05","24","07:00","-0.6","","-7.8","","58","","","","29","","26","","24.1","","101.01","","","","-7","","NA"
"-61.68","56.55","NAIN A","8502801","2021-05-24 08:00","2021","05","24","08:00","-0.3","","-7.5","","58","","","","30","","29","","24.1","","100.96","","","","-7","","Mostly Cloudy"
"-61.68","56.55","NAIN A","8502801","2021-05-24 09:00","2021","05","24","09:00","0.2","","-7.4","","57","","","","31","","31","","24.1","","100.90","","","","","","NA"
"-61.68","56.55","NAIN A","8502801","2021-05-24 10:00","2021","05","24","10:00","1.0","","-6.3","","58","","","","30","","29","","24.1","","100.81","","","","","","NA"
"-61.68","56.55","NAIN A","8502801","2021-05-24 11:00","2021","05","24","11:00","1.8","","-6.3","","55","","","","29","","30","","24.1","","100.70","","","","","","Mostly Cloudy"
"-61.68","56.55","NAIN A","8502801","2021-05-24 12:00","2021","05","24","12:00","2.9","","-5.7","","53","","","","31","","17","","24.1","","100.52","","","","","","NA"
"-61.68","56.55","NAIN A","8502801","2021-05-24 13:00","2021","05","24","13:00","3.4","","-6.2","","49","","","","27","","24","","24.1","","100.38","","","","","","NA"
"-61.68","56.55","NAIN A","8502801","2021-05-24 14:00","2021","05","24","14:00","3.7","","-4.2","","56","","","","26","","27","","24.1","","100.23","","","","","","Snow Showers"
"-61.68","56.55","NAIN A","8502801","2021-05-24 15:00","2021","05","24","15:00","3.2","","-1.4","","72","","","","28","","24","","24.1","","100.06","","","","","","Snow Showers"
"-61.68","56.55","NAIN A","8502801","2021-05-24 16:00","2021","05","24","16:00","3.0","","1.1","","87","","","","23","","14","","24.1","","99.86","","","","","","Rain Showers"
"-61.68","56.55","NAIN A","8502801","2021-05-24 17:00","2021","05","24","17:00","2.8","","2.2","","96","","","","21","","17","","24.1","","99.67","","","","","","Rain Showers"
"-61.68","56.55","NAIN A","8502801","2021-05-24 18:00","2021","05","24","18:00","2.8","","2.6","","99","","","","21","","12","","24.1","","99.48","","","","","","Rain Showers"
"-61.68","56.55","NAIN A","8502801","2021-05-24 19:00","2021","05","24","19:00","4.5","","3.1","","90","","","","25","","10","","24.1","","99.32","","","","","","Rain Showers"
"-61.68","56.55","NAIN A","8502801","2021-05-24 20:00","2021","05","24","20:00"
"-61.68","56.55","NAIN A","8502801","2021-05-24 21:00","2021","05","24","21:00"
"-61.68","56.55","NAIN A","8502801","2021-05-24 22:00","2021","05","24","22:00"
"-61.68","56.55","NAIN A","8502801","2021-05-24 23:00","2021","05","24","23:00"
"-61.68","56.55","NAIN A","8502801","2021-05-25 00:00","2021","05","25","00:00"
"-61.68","56.55","NAIN A","8502801","2021-05-25 01:00","2021","05","25","01:00"
"-61.68","56.55","NAIN A","8502801","2021-05-25 02:00","2021","05","25","02:00"
"-61.68","56.55","NAIN A","8502801","2021-05-25 03:00","2021","05","25","03:00"
"-61.68","56.55","NAIN A","8502801","2021-05-25 04:00","2021","05","25","04:00","-0.4","","-7.3","","60","","","","29","","48","","24.1","","99.21","","","","-9","","NA"
"-61.68","56.55","NAIN A","8502801","2021-05-25 05:00","2021","05","25","05:00","-1.5","","-7.8","","62","","","","29","","35","","24.1","","99.33","","","","-9","","Clear"
"-61.68","56.55","NAIN A","8502801","2021-05-25 06:00","2021","05","25","06:00","-2.0","","-9.4","","57","","","","30","","50","","24.1","","99.46","","","","-11","","NA"
"-61.68","56.55","NAIN A","8502801","2021-05-25 07:00","2021","05","25","07:00","-3.1","","-10.4","","57","","","","30","","48","","24.1","","99.59","","","","-12","","NA"
"-61.68","56.55","NAIN A","8502801","2021-05-25 08:00","2021","05","25","08:00","-2.5","","-10.1","","56","","","","31","","51","","24.1","","99.60","","","","-12","","Mainly Clear"
"-61.68","56.55","NAIN A","8502801","2021-05-25 09:00","2021","05","25","09:00","-1.7","","-10.2","","53","","","","31","","46","","24.1","","99.70","","","","-10","","NA"
"-61.68","56.55","NAIN A","8502801","2021-05-25 10:00","2021","05","25","10:00","-1.3","","-10.2","","51","","","","29","","47","","24.1","","99.74","","","","-10","","NA"
"-61.68","56.55","NAIN A","8502801","2021-05-25 11:00","2021","05","25","11:00","-0.5","","-8.8","","54","","","","30","","45","","24.1","","99.75","","","","-8","","Snow Showers"
"-61.68","56.55","NAIN A","8502801","2021-05-25 12:00","2021","05","25","12:00","-1.0","","-9.3","","54","","","","31","","42","","24.1","","99.83","","","","-9","","Snow Showers"
"-61.68","56.55","NAIN A","8502801","2021-05-25 13:00","2021","05","25","13:00","-0.7","","-10.7","","47","","","","31","","50","","24.1","","99.95","","","","-9","","NA"
"-61.68","56.55","NAIN A","8502801","2021-05-25 14:00","2021","05","25","14:00","-0.2","","-9.3","","50","","","","30","","50","","24.1","","100.09","","","","-8","","Mostly Cloudy"
"-61.68","56.55","NAIN A","8502801","2021-05-25 15:00","2021","05","25","15:00","-0.3","","-9.7","","49","","","","30","","54","","24.1","","100.10","","","","-9","","NA"
"-61.68","56.55","NAIN A","8502801","2021-05-25 16:00","2021","05","25","16:00","-0.6","","-10.5","","48","","","","31","","48","","24.1","","100.20","","","","-9","","NA"
"-61.68","56.55","NAIN A","8502801","2021-05-25 17:00","2021","05","25","17:00","-1.1","","-9.8","","52","","","","31","","49","","24.1","","100.27","","","","-10","","Mainly Clear"
"-61.68","56.55","NAIN A","8502801","2021-05-25 18:00","2021","05","25","18:00","-0.9","","-9.2","","54","","","","31","","41","","24.1","","100.36","","","","-9","","NA"
"-61.68","56.55","NAIN A","8502801","2021-05-25 19:00","2021","05","25","19:00","-1.1","","-11.6","","45","","","","31","","49","","24.1","","100.43","","","","-10","","NA"
"-61.68","56.55","NAIN A","8502801","2021-05-25 20:00","2021","05","25","20:00"
"-61.68","56.55","NAIN A","8502801","2021-05-25 21:00","2021","05","25","21:00"
"-61.68","56.55","NAIN A","8502801","2021-05-25 22:00","2021","05","25","22:00"
"-61.68","56.55","NAIN A","8502801","2021-05-25 23:00","2021","05","25","23:00"
"-61.68","56.55","NAIN A","8502801","2021-05-26 00:00","2021","05","26","00:00"
"-61.68","56.55","NAIN A","8502801","2021-05-26 01:00","2021","05","26","01:00"
"-61.68","56.55","NAIN A","8502801","2021-05-26 02:00","2021","05","26","02:00"
"-61.68","56.55","NAIN A","8502801","2021-05-26 03:00","2021","05","26","03:00"
"-61.68","56.55","NAIN A","8502801","2021-05-26 04:00","2021","05","26","04:00","-1.7","","-7.1","","67","","","","29","","22","","24.1","","100.48","","","","-8","","NA"
"-61.68","56.55","NAIN A","8502801","2021-05-26 05:00","2021","05","26","05:00","-1.2","","-7.3","","63","","","","28","","31","","24.1","","100.48","","","","-8","","Mainly Clear"
"-61.68","56.55","NAIN A","8502801","2021-05-26 06:00","2021","05","26","06:00","-0.5","","-6.7","","63","","","","29","","32","","24.1","","100.49","","","","-7","","NA"
"-61.68","56.55","NAIN A","8502801","2021-05-26 07:00","2021","05","26","07:00","0.4","","-6.3","","61","","","","30","","34","","24.1","","100.45","","","","","","NA"
"-61.68","56.55","NAIN A","8502801","2021-05-26 08:00","2021","05","26","08:00","0.7","","-6.8","","57","","","","30","","36","","24.1","","100.42","","","","","","Mostly Cloudy"
"-61.68","56.55","NAIN A","8502801","2021-05-26 09:00","2021","05","26","09:00","1.4","","-6.3","","57","","","","29","","16","","24.1","","100.46","","","","","","NA"
"-61.68","56.55","NAIN A","8502801","2021-05-26 10:00","2021","05","26","10:00","3.4","","-6.5","","48","","","","31","","13","","24.1","","100.44","","","","","","NA"
"-61.68","56.55","NAIN A","8502801","2021-05-26 11:00","2021","05","26","11:00","2.7","","-4.7","","58","","","","3","","9","","24.1","","100.39","","","","","","Mainly Clear"
"-61.68","56.55","NAIN A","8502801","2021-05-26 12:00","2021","05","26","12:00","4.0","","-6.2","","48","","","","8","","8","","24.1","","100.33","","","","","","NA"
"-61.68","56.55","NAIN A","8502801","2021-05-26 13:00","2021","05","26","13:00","2.3","","-3.3","","66","","","","9","","32","","24.1","","100.29","","","","","","NA"
"-61.68","56.55","NAIN A","8502801","2021-05-26 14:00","2021","05","26","14:00","1.2","","-4.9","","64","","","","8","","32","","24.1","","100.25","","","","","","Mostly Cloudy"
"-61.68","56.55","NAIN A","8502801","2021-05-26 15:00","2021","05","26","15:00","1.4","","-4.5","","65","","","","9","","30","","24.1","","100.23","","","","","","NA"
"-61.68","56.55","NAIN A","8502801","2021-05-26 16:00","2021","05","26","16:00","1.0","","-5.2","","63","","","","9","","37","","24.1","","100.22","","","","","","NA"
"-61.68","56.55","NAIN A","8502801","2021-05-26 17:00","2021","05","26","17:00","0.8","","-4.5","","68","","","","9","","33","","24.1","","100.27","","","","","","Mostly Cloudy"
"-61.68","56.55","NAIN A","8502801","2021-05-26 18:00","2021","05","26","18:00","-0.1","","-3.5","","78","","","","9","","33","","24.1","","100.23","","","","-7","","NA"
"-61.68","56.55","NAIN A","8502801","2021-05-26 19:00","2021","05","26","19:00","-0.6","","-3.1","","84","","","","9","","30","","24.1","","100.16","","","","-7","","NA"
"-61.68","56.55","NAIN A","8502801","2021-05-26 20:00","2021","05","26","20:00"
"-61.68","56.55","NAIN A","8502801","2021-05-26 21:00","2021","05","26","21:00"
"-61.68","56.55","NAIN A","8502801","2021-05-26 22:00","2021","05","26","22:00"
"-61.68","56.55","NAIN A","8502801","2021-05-26 23:00","2021","05","26","23:00"
"-61.68","56.55","NAIN A","8502801","2021-05-27 00:00","2021","05","27","00:00"
"-61.68","56.55","NAIN A","8502801","2021-05-27 01:00","2021","05","27","01:00"
"-61.68","56.55","NAIN A","8502801","2021-05-27 02:00","2021","05","27","02:00"
"-61.68","56.55","NAIN A","8502801","2021-05-27 03:00","2021","05","27","03:00"
"-61.68","56.55","NAIN A","8502801","2021-05-27 04:00","2021","05","27","04:00","-1.0","","-1.1","","100","","","","11","","21","","6.4","","99.87","","","","-7","","Snow"
"-61.68","56.55","NAIN A","8502801","2021-05-27 05:00","2021","05","27","05:00","-0.8","","-0.8","","100","","","","10","","22","","4.0","","99.86","","","","-7","","Snow"
"-61.68","56.55","NAIN A","8502801","2021-05-27 06:00","2021","05","27","06:00","-0.7","","-0.7","","100","","","","10","","22","","3.2","","99.85","","","","-6","","Snow"
"-61.68","56.55","NAIN A","8502801","2021-05-27 07:00","2021","05","27","07:00","-0.5","","-0.5","","100","","","","10","","18","","4.8","","99.85","","","","-6","","Snow"
"-61.68","56.55","NAIN A","8502801","2021-05-27 08:00","2021","05","27","08:00","-0.3","","-0.3","","100","","","","9","","21","","4.8","","99.86","","","","-6","","Snow"
"-61.68","56.55","NAIN A","8502801","2021-05-27 09:00","2021","05","27","09:00","0.0","","0.0","","100","","","","10","","18","","4.0","","99.82","","","","-5","","Snow"
"-61.68","56.55","NAIN A","8502801","2021-05-27 10:00","2021","05","27","10:00","0.3","","0.3","","100","","","","12","","17","","4.8","","99.78","","","","","","Snow"
"-61.68","56.55","NAIN A","8502801","2021-05-27 11:00","2021","05","27","11:00","0.9","","0.8","","99","","","","14","","21","","2.4","","99.80","","","","","","Snow"
"-61.68","56.55","NAIN A","8502801","2021-05-27 12:00","2021","05","27","12:00","0.5","","0.5","","100","","","","14","","26","","2.0","","99.81","","","","","","Snow"
"-61.68","56.55","NAIN A","8502801","2021-05-27 13:00","2021","05","27","13:00","0.2","","0.2","","100","","","","14","","27","","2.0","","99.79","","","","","","Snow"
"-61.68","56.55","NAIN A","8502801","2021-05-27 14:00","2021","05","27","14:00","0.0","","0.0","","100","","","","13","","22","","2.0","","99.78","","","","-6","","Snow"
"-61.68","56.55","NAIN A","8502801","2021-05-27 15:00","2021","05","27","15:00","0.1","","0.1","","100","","","","12","","18","","2.4","","99.76","","","","","","Snow"
"-61.68","56.55","NAIN A","8502801","2021-05-27 16:00","2021","05","27","16:00","-0.2","","-0.2","","100","","","","11","","12","","2.4","","99.74","","","","-4","","Snow"
"-61.68","56.55","NAIN A","8502801","2021-05-27 17:00","2021","05","27","17:00","-0.4","","-0.4","","100","","","","9","","21","","4.8","","99.73","","","","-6","","Snow"
"-61.68","56.55","NAIN A","8502801","2021-05-27 18:00","2021","05","27","18:00","-0.5","","-0.5","","100","","","","10","","19","","4.8","","99.73","","","","-6","","Snow"
"-61.68","56.55","NAIN A","8502801","2021-05-27 19:00","2021","05","27","19:00","-0.7","","-0.7","","100","","","","9","","17","","4.8","","99.73","","","","-6","","Snow"
"-61.68","56.55","NAIN A","8502801","2021-05-27 20:00","2021","05","27","20:00"
"-61.68","56.55","NAIN A","8502801","2021-05-27 21:00","2021","05","27","21:00"
"-61.68","56.55","NAIN A","8502801","2021-05-27 22:00","2021","05","27","22:00"
"-61.68","56.55","NAIN A","8502801","2021-05-27 23:00","2021","05","27","23:00"
"-61.68","56.55","NAIN A","8502801","2021-05-28 00:00","2021","05","28","00:00"
"-61.68","56.55","NAIN A","8502801","2021-05-28 01:00","2021","05","28","01:00"
"-61.68","56.55","NAIN A","8502801","2021-05-28 02:00","2021","05","28","02:00"
"-61.68","56.55","NAIN A","8502801","2021-05-28 03:00","2021","05","28","03:00"
"-61.68","56.55","NAIN A","8502801","2021-05-28 04:00","2021","05","28","04:00","-0.4","","-0.4","","100","","","","35","","16","","6.4","","99.50","","","","-5","","Snow"
"-61.68","56.55","NAIN A","8502801","2021-05-28 05:00","2021","05","28","05:00","-0.3","","-0.3","","100","","","","35","","16","","6.4","","99.51","","","","-5","","Snow"
"-61.68","56.55","NAIN A","8502801","2021-05-28 06:00","2021","05","28","06:00","-0.2","","-0.2","","100","","","","35","","14","","4.8","","99.51","","","","-4","","Snow"
"-61.68","56.55","NAIN A","8502801","2021-05-28 07:00","2021","05","28","07:00","0.0","","0.0","","100","","","","35","","16","","4.8","","99.56","","","","-5","","Snow"
"-61.68","56.55","NAIN A","8502801","2021-05-28 08:00","2021","05","28","08:00","0.2","","0.2","","100","","","","36","","18","","6.4","","99.60","","","","","","Snow"
"-61.68","56.55","NAIN A","8502801","2021-05-28 09:00","2021","05","28","09:00","0.2","","0.2","","100","","","","36","","22","","4.8","","99.65","","","","","","Snow"
"-61.68","56.55","NAIN A","8502801","2021-05-28 10:00","2021","05","28","10:00","0.2","","0.2","","100","","","","1","","19","","6.4","","99.71","","","","","","Snow"
"-61.68","56.55","NAIN A","8502801","2021-05-28 11:00","2021","05","28","11:00","1.3","","1.1","","98","","","","3","","34","","9.7","","99.76","","","","","","Rain,Fog"
"-61.68","56.55","NAIN A","8502801","2021-05-28 12:00","2021","05","28","12:00","1.6","","1.2","","97","","","","3","","40","","24.1","","99.87","","","","","","Rain"
"-61.68","56.55","NAIN A","8502801","2021-05-28 13:00","2021","05","28","13:00","1.1","","1.1","","100","","","","1","","29","","6.4","","100.00","","","","","","Snow"
"-61.68","56.55","NAIN A","8502801","2021-05-28 14:00","2021","05","28","14:00","1.5","","1.5","","100","","","","36","","26","","24.1","","100.08","","","","","","Rain Showers"
"-61.68","56.55","NAIN A","8502801","2021-05-28 15:00","2021","05","28","15:00","2.2","","1.9","","98","","","","36","","27","","24.1","","100.19","","","","","","Rain Showers"
"-61.68","56.55","NAIN A","8502801","2021-05-28 16:00","2021","05","28","16:00","2.1","","1.4","","94","","","","34","","36","","24.1","","100.30","","","","","","NA"
"-61.68","56.55","NAIN A","8502801","2021-05-28 17:00","2021","05","28","17:00","2.6","","1.1","","90","","","","33","","37","","24.1","","100.40","","","","","","Mostly Cloudy"
"-61.68","56.55","NAIN A","8502801","2021-05-28 18:00","2021","05","28","18:00","1.8","","0.5","","91","","","","35","","45","","24.1","","100.51","","","","","","NA"
"-61.68","56.55","NAIN A","8502801","2021-05-28 19:00","2021","05","28","19:00","1.3","","-1.1","","84","","","","35","","42","","24.1","","100.65","","","","","","NA"
"-61.68","56.55","NAIN A","8502801","2021-05-28 20:00","2021","05","28","20:00"
"-61.68","56.55","NAIN A","8502801","2021-05-28 21:00","2021","05","28","21:00"
"-61.68","56.55","NAIN A","8502801","2021-05-28 22:00","2021","05","28","22:00"
"-61.68","56.55","NAIN A","8502801","2021-05-28 23:00","2021","05","28","23:00"
"-61.68","56.55","NAIN A","8502801","2021-05-29 00:00","2021","05","29","00:00"
"-61.68","56.55","NAIN A","8502801","2021-05-29 01:00","2021","05","29","01:00"
"-61.68","56.55","NAIN A","8502801","2021-05-29 02:00","2021","05","29","02:00"
"-61.68","56.55","NAIN A","8502801","2021-05-29 03:00","2021","05","29","03:00"
"-61.68","56.55","NAIN A","8502801","2021-05-29 04:00","2021","05","29","04:00","1.5","","-2.7","","74","","","","30","","6","","24.1","","101.08","","","","","","NA"
"-61.68","56.55","NAIN A","8502801","2021-05-29 05:00","2021","05","29","05:00","2.6","","-0.7","","79","","","","30","","16","","24.1","","101.13","","","","","","Mostly Cloudy"
"-61.68","56.55","NAIN A","8502801","2021-05-29 06:00","2021","05","29","06:00","2.7","","-1.9","","72","","","","29","","33","","24.1","","101.15","","","","","","NA"
"-61.68","56.55","NAIN A","8502801","2021-05-29 07:00","2021","05","29","07:00","2.6","","-2.4","","70","","","","28","","26","","24.1","","101.22","","","","","","NA"
"-61.68","56.55","NAIN A","8502801","2021-05-29 08:00","2021","05","29","08:00","2.4","","-2.7","","69","","","","30","","54","","24.1","","101.26","","","","","","Mostly Cloudy"
"-61.68","56.55","NAIN A","8502801","2021-05-29 09:00","2021","05","29","09:00","2.8","","-3.1","","65","","","","28","","40","","24.1","","101.33","","","","","","NA"
"-61.68","56.55","NAIN A","8502801","2021-05-29 10:00","2021","05","29","10:00","3.2","","-2.4","","66","","","","30","","38","","24.1","","101.35","","","","","","NA"
"-61.68","56.55","NAIN A","8502801","2021-05-29 11:00","2021","05","29","11:00","3.4","","-2.7","","65","","","","30","","35","","24.1","","101.42","","","","","","Mainly Clear"
"-61.68","56.55","NAIN A","8502801","2021-05-29 12:00","2021","05","29","12:00","3.5","","-3.3","","61","","","","29","","49","","24.1","","101.44","","","","","","NA"
"-61.68","56.55","NAIN A","8502801","2021-05-29 13:00","2021","05","29","13:00","2.7","","-4.1","","61","","","","30","","44","","24.1","","101.49","","","","","","NA"
"-61.68","56.55","NAIN A","8502801","2021-05-29 14:00","2021","05","29","14:00","2.4","","-4.8","","59","","","","30","","62","","24.1","","101.47","","","","","","Mostly Cloudy"
"-61.68","56.55","NAIN A","8502801","2021-05-29 15:00","2021","05","29","15:00","2.6","","-4.4","","60","","","","30","","56","","24.1","","101.51","","","","","","NA"
"-61.68","56.55","NAIN A","8502801","2021-05-29 16:00","2021","05","29","16:00","2.0","","-4.4","","63","","","","29","","50","","24.1","","101.58","","","","","","NA"
"-61.68","56.55","NAIN A","8502801","2021-05-29 17:00","2021","05","29","17:00","2.1","","-4.1","","63","","","","30","","68","","24.1","","101.54","","","","","","Mostly Cloudy"
"-61.68","56.55","NAIN A","8502801","2021-05-29 18:00","2021","05","29","18:00","2.9","","-3.6","","62","","","","29","","41","","24.1","","101.67","","","","","","NA"
"-61.68","56.55","NAIN A","8502801","2021-05-29 19:00","2021","05","29","19:00","2.4","","-3.8","","64","","","","29","","40","","24.1","","101.71","","","","","","NA"
"-61.68","56.55","NAIN A","8502801","2021-05-29 20:00","2021","05","29","20:00"
"-61.68","56.55","NAIN A","8502801","2021-05-29 21:00","2021","05","29","21:00"
"-61.68","56.55","NAIN A","8502801","2021-05-29 22:00","2021","05","29","22:00"
"-61.68","56.55","NAIN A","8502801","2021-05-29 23:00","2021","05","29","23:00"
"-61.68","56.55","NAIN A","8502801","2021-05-30 00:00","2021","05","30","00:00"
"-61.68","56.55","NAIN A","8502801","2021-05-30 01:00","2021","05","30","01:00"
"-61.68","56.55","NAIN A","8502801","2021-05-30 02:00","2021","05","30","02:00"
"-61.68","56.55","NAIN A","8502801","2021-05-30 03:00","2021","05","30","03:00"
"-61.68","56.55","NAIN A","8502801","2021-05-30 04:00","2021","05","30","04:00","2.8","","-3.8","","62","","","","28","","38","","24.1","","101.96","","","","","","NA"
"-61.68","56.55","NAIN A","8502801","2021-05-30 05:00","2021","05","30","05:00","4.8","","-4.1","","53","","","","26","","29","","24.1","","102.06","","","","","","Mainly Clear"
"-61.68","56.55","NAIN A","8502801","2021-05-30 06:00","2021","05","30","06:00","5.0","","-3.5","","54","","","","27","","26","","24.1","","102.08","","","","","","NA"
"-61.68","56.55","NAIN A","8502801","2021-05-30 07:00","2021","05","30","07:00","6.5","","-3.6","","48","","","","28","","29","","24.1","","102.11","","","","","","NA"
"-61.68","56.55","NAIN A","8502801","2021-05-30 08:00","2021","05","30","08:00","7.3","","-3.5","","46","","","","29","","30","","24.1","","102.12","","","","","","Mainly Clear"
"-61.68","56.55","NAIN A","8502801","2021-05-30 09:00","2021","05","30","09:00","9.4","","-2.7","","43","","","","27","","19","","24.1","","102.12","","","","","","NA"
"-61.68","56.55","NAIN A","8502801","2021-05-30 10:00","2021","05","30","10:00","10.7","","-2.2","","40","","","","27","","22","","24.1","","102.15","","","","","","NA"
"-61.68","56.55","NAIN A","8502801","2021-05-30 11:00","2021","05","30","11:00","12.4","","-0.9","","39","","","","27","","25","","24.1","","102.17","","","","","","Mainly Clear"
"-61.68","56.55","NAIN A","8502801","2021-05-30 12:00","2021","05","30","12:00","12.8","","-0.3","","40","","","","27","","33","","24.1","","102.16","","","","","","NA"
"-61.68","56.55","NAIN A","8502801","2021-05-30 13:00","2021","05","30","13:00","13.4","","0.6","","41","","","","28","","28","","24.1","","102.15","","","","","","NA"
"-61.68","56.55","NAIN A","8502801","2021-05-30 14:00","2021","05","30","14:00","13.4","","0.9","","42","","","","29","","19","","24.1","","102.15","","","","","","Mainly Clear"
"-61.68","56.55","NAIN A","8502801","2021-05-30 15:00","2021","05","30","15:00","15.1","","0.0","","35","","","","28","","23","","24.1","","102.17","","","","","","NA"
"-61.68","56.55","NAIN A","8502801","2021-05-30 16:00","2021","05","30","16:00","15.9","","-0.9","","32","","","","27","","30","","24.1","","102.16","","","","","","NA"
"-61.68","56.55","NAIN A","8502801","2021-05-30 17:00","2021","05","30","17:00","16.3","","-0.6","","31","","","","26","","22","","24.1","","102.14","","","","","","Clear"
"-61.68","56.55","NAIN A","8502801","2021-05-30 18:00","2021","05","30","18:00","16.0","","-1.6","","30","","","","25","","24","","24.1","","102.13","","","","","","NA"
"-61.68","56.55","NAIN A","8502801","2021-05-30 19:00","2021","05","30","19:00","14.0","","-1.4","","35","","","","24","","19","","24.1","","102.13","","","","","","NA"
"-61.68","56.55","NAIN A","8502801","2021-05-30 20:00","2021","05","30","20:00"
"-61.68","56.55","NAIN A","8502801","2021-05-30 21:00","2021","05","30","21:00"
"-61.68","56.55","NAIN A","8502801","2021-05-30 22:00","2021","05","30","22:00"
"-61.68","56.55","NAIN A","8502801","2021-05-30 23:00","2021","05","30","23:00"
"-61.68","56.55","NAIN A","8502801","2021-05-31 00:00","2021","05","31","00:00"
"-61.68","56.55","NAIN A","8502801","2021-05-31 01:00","2021","05","31","01:00"
"-61.68","56.55","NAIN A","8502801","2021-05-31 02:00","2021","05","31","02:00"
"-61.68","56.55","NAIN A","8502801","2021-05-31 03:00","2021","05","31","03:00"
"-61.68","56.55","NAIN A","8502801","2021-05-31 04:00","2021","05","31","04:00","6.5","","-0.9","","59","","","","18","","15","","24.1","","101.95","","","","","","NA"
"-61.68","56.55","NAIN A","8502801","2021-05-31 05:00","2021","05","31","05:00","8.4","","-0.6","","53","","","","20","","17","","24.1","","101.92","","","","","","Mainly Clear"
"-61.68","56.55","NAIN A","8502801","2021-05-31 06:00","2021","05","31","06:00","8.6","","-0.2","","54","","","","18","","14","","24.1","","101.87","","","","","","NA"
"-61.68","56.55","NAIN A","8502801","2021-05-31 07:00","2021","05","31","07:00","10.8","","-0.5","","46","","","","15","","7","","24.1","","101.82","","","","","","NA"
"-61.68","56.55","NAIN A","8502801","2021-05-31 08:00","2021","05","31","08:00","12.0","","0.2","","44","","","","16","","8","","24.1","","101.72","","","","","","Mostly Cloudy"
"-61.68","56.55","NAIN A","8502801","2021-05-31 09:00","2021","05","31","09:00","12.9","","0.6","","43","","","","17","","10","","24.1","","101.66","","","","","","NA"
"-61.68","56.55","NAIN A","8502801","2021-05-31 10:00","2021","05","31","10:00","14.1","","0.8","","40","","","","25","","3","","24.1","","101.59","","","","","","NA"
"-61.68","56.55","NAIN A","8502801","2021-05-31 11:00","2021","05","31","11:00","10.9","","0.9","","50","","","","12","","9","","24.1","","101.54","","","","","","Cloudy"
"-61.68","56.55","NAIN A","8502801","2021-05-31 12:00","2021","05","31","12:00","13.1","","0.8","","43","","","","13","","5","","24.1","","101.47","","","","","","NA"
"-61.68","56.55","NAIN A","8502801","2021-05-31 13:00","2021","05","31","13:00","10.3","","0.7","","51","","","","9","","5","","24.1","","101.39","","","","","","NA"
"-61.68","56.55","NAIN A","8502801","2021-05-31 14:00","2021","05","31","14:00","15.4","","1.9","","40","","","","26","","10","","24.1","","101.33","","","","","","Cloudy"
"-61.68","56.55","NAIN A","8502801","2021-05-31 15:00","2021","05","31","15:00","15.5","","1.9","","40","","","","24","","9","","24.1","","101.27","","","","","","NA"
"-61.68","56.55","NAIN A","8502801","2021-05-31 16:00","2021","05","31","16:00","14.3","","2.8","","46","","","","36","","2","","24.1","","101.24","","","","","","NA"
"-61.68","56.55","NAIN A","8502801","2021-05-31 17:00","2021","05","31","17:00","14.5","","2.1","","43","","","","2","","4","","24.1","","101.19","","","","","","Mainly Clear"
"-61.68","56.55","NAIN A","8502801","2021-05-31 18:00","2021","05","31","18:00","12.6","","2.9","","51","","","","11","","6","","24.1","","101.13","","","","","","NA"
"-61.68","56.55","NAIN A","8502801","2021-05-31 19:00","2021","05","31","19:00","13.9","","2.6","","46","","","","19","","7","","24.1","","101.07","","","","","","NA"
"-61.68","56.55","NAIN A","8502801","2021-05-31 20:00","2021","05","31","20:00"
"-61.68","56.55","NAIN A","8502801","2021-05-31 21:00","2021","05","31","21:00"
"-61.68","56.55","NAIN A","8502801","2021-05-31 22:00","2021","05","31","22:00"
"-61.68","56.55","NAIN A","8502801","2021-05-31 23:00","2021","05","31","23:00"
