"Longitude (x)","Latitude (y)","Station Name","Climate ID","Date/Time (LST)","Year","Month","Day","Time (LST)","Temp (°C)","Temp Flag","Dew Point Temp (°C)","Dew Point Temp Flag","Rel Hum (%)","Rel Hum Flag","Precip. Amount (mm)","Precip. Amount Flag","Wind Dir (10s deg)","Wind Dir Flag","Wind Spd (km/h)","Wind Spd Flag","Visibility (km)","Visibility Flag","Stn Press (kPa)","Stn Press Flag","Hmdx","Hmdx Flag","Wind Chill","Wind Chill Flag","Weather"
"-61.68","56.55","NAIN A","8502801","2021-08-01 00:00","2021","08","01","00:00"
"-61.68","56.55","NAIN A","8502801","2021-08-01 01:00","2021","08","01","01:00"
"-61.68","56.55","NAIN A","8502801","2021-08-01 02:00","2021","08","01","02:00"
"-61.68","56.55","NAIN A","8502801","2021-08-01 03:00","2021","08","01","03:00"
"-61.68","56.55","NAIN A","8502801","2021-08-01 04:00","2021","08","01","04:00","8.5","","6.2","","85","","","","31","","22","","24.1","","99.59","","","","","","NA"
"-61.68","56.55","NAIN A","8502801","2021-08-01 05:00","2021","08","01","05:00","8.6","","6.0","","83","","","","32","","25","","24.1","","99.58","","","","","","Mostly Cloudy"
"-61.68","56.55","NAIN A","8502801","2021-08-01 06:00","2021","08","01","06:00","8.7","","6.0","","83","","","","31","","25","","24.1","","99.57","","","","","","NA"
"-61.68","56.55","NAIN A","8502801","2021-08-01 07:00","2021","08","01","07:00","9.2","","6.4","","82","","","","31","","19","","24.1","","99.56","","","","","","NA"
"-61.68","56.55","NAIN A","8502801","2021-08-01 08:00","2021","08","01","08:00","9.3","","6.8","","84","","","","31","","14","","24.1","","99.56","","","","","","Cloudy"
"-61.68","56.55","NAIN A","8502801","2021-08-01 09:00","2021","08","01","09:00","10.3","","7.2","","81","","","","32","","13","","24.1","","99.55","","","","","","NA"
"-61.68","56.55","NAIN A","8502801","2021-08-01 10:00","2021","08","01","10:00","11.5","","7.1","","74","","","","30","","15","","24.1","","99.50","","","","","","NA"
"-61.68","56.55","NAIN A","8502801","2021-08-01 11:00","2021","08","01","11:00","12.0","","7.2","","72","","","","30","","17","","24.1","","99.48","","","","","","Cloudy"
"-61.68","56.55","NAIN A","8502801","2021-08-01 12:00","2021","08","01","12:00","13.7","","8.6","","71","","","","31","","4","","24.1","","99.42","","","","","","NA"
"-61.68","56.55","NAIN A","8502801","2021-08-01 13:00","2021","08","01","13:00","13.5","","9.7","","77","","","","30","","25","","24.1","","99.41","","","","","","NA"
"-61.68","56.55","NAIN A","8502801","2021-08-01 14:00","2021","08","01","14:00","13.4","","7.3","","66","","","","30","","28","","24.1","","99.41","","","","","","Cloudy"
"-61.68","56.55","NAIN A","8502801","2021-08-01 15:00","2021","08","01","15:00","14.5","","6.8","","60","","","","30","","39","","24.1","","99.43","","","","","","NA"
"-61.68","56.55","NAIN A","8502801","2021-08-01 16:00","2021","08","01","16:00","14.5","","6.7","","59","","","","28","","36","","24.1","","99.46","","","","","","NA"
"-61.68","56.55","NAIN A","8502801","2021-08-01 17:00","2021","08","01","17:00","13.4","","6.1","","61","","","","29","","43","","24.1","","99.50","","","","","","Mostly Cloudy"
"-61.68","56.55","NAIN A","8502801","2021-08-01 18:00","2021","08","01","18:00","13.3","","6.0","","61","","","","29","","41","","24.1","","99.55","","","","","","NA"
"-61.68","56.55","NAIN A","8502801","2021-08-01 19:00","2021","08","01","19:00","13.0","","6.1","","63","","","","29","","32","","24.1","","99.56","","","","","","NA"
"-61.68","56.55","NAIN A","8502801","2021-08-01 20:00","2021","08","01","20:00"
"-61.68","56.55","NAIN A","8502801","2021-08-01 21:00","2021","08","01","21:00"
"-61.68","56.55","NAIN A","8502801","2021-08-01 22:00","2021","08","01","22:00"
"-61.68","56.55","NAIN A","8502801","2021-08-01 23:00","2021","08","01","23:00"
"-61.68","56.55","NAIN A","8502801","2021-08-02 00:00","2021","08","02","00:00"
"-61.68","56.55","NAIN A","8502801","2021-08-02 01:00","2021","08","02","01:00"
"-61.68","56.55","NAIN A","8502801","2021-08-02 02:00","2021","08","02","02:00"
"-61.68","56.55","NAIN A","8502801","2021-08-02 03:00","2021","08","02","03:00"
"-61.68","56.55","NAIN A","8502801","2021-08-02 04:00","2021","08","02","04:00","9.5","","4.5","","71","","","","28","","35","","24.1","","99.65","","","","","","NA"
"-61.68","56.55","NAIN A","8502801","2021-08-02 05:00","2021","08","02","05:00","9.2","","4.8","","74","","","","29","","28","","24.1","","99.72","","","","","","Cloudy"
"-61.68","56.55","NAIN A","8502801","2021-08-02 06:00","2021","08","02","06:00","9.8","","5.1","","72","","","","28","","28","","24.1","","99.78","","","","","","NA"
"-61.68","56.55","NAIN A","8502801","2021-08-02 07:00","2021","08","02","07:00","10.3","","5.3","","71","","","","29","","32","","24.1","","99.83","","","","","","NA"
"-61.68","56.55","NAIN A","8502801","2021-08-02 08:00","2021","08","02","08:00","11.2","","6.1","","71","","","","30","","26","","24.1","","99.85","","","","","","Mostly Cloudy"
"-61.68","56.55","NAIN A","8502801","2021-08-02 09:00","2021","08","02","09:00","11.6","","5.9","","68","","","","30","","34","","24.1","","99.89","","","","","","NA"
"-61.68","56.55","NAIN A","8502801","2021-08-02 10:00","2021","08","02","10:00","11.9","","6.0","","67","","","","28","","35","","24.1","","99.91","","","","","","NA"
"-61.68","56.55","NAIN A","8502801","2021-08-02 11:00","2021","08","02","11:00","11.9","","6.3","","68","","","","30","","28","","24.1","","99.95","","","","","","Cloudy"
"-61.68","56.55","NAIN A","8502801","2021-08-02 12:00","2021","08","02","12:00","11.2","","6.8","","74","","","","30","","40","","24.1","","99.97","","","","","","Rain Showers"
"-61.68","56.55","NAIN A","8502801","2021-08-02 13:00","2021","08","02","13:00","11.5","","7.7","","77","","","","29","","29","","24.1","","100.02","","","","","","Rain Showers"
"-61.68","56.55","NAIN A","8502801","2021-08-02 14:00","2021","08","02","14:00","11.2","","8.0","","81","","","","30","","33","","24.1","","100.08","","","","","","Rain Showers"
"-61.68","56.55","NAIN A","8502801","2021-08-02 15:00","2021","08","02","15:00","10.7","","8.4","","86","","","","29","","25","","24.1","","100.15","","","","","","Rain Showers"
"-61.68","56.55","NAIN A","8502801","2021-08-02 16:00","2021","08","02","16:00","11.5","","8.9","","84","","","","29","","18","","24.1","","100.18","","","","","","Rain Showers"
"-61.68","56.55","NAIN A","8502801","2021-08-02 17:00","2021","08","02","17:00","11.8","","8.8","","82","","","","30","","22","","24.1","","100.20","","","","","","Rain Showers"
"-61.68","56.55","NAIN A","8502801","2021-08-02 18:00","2021","08","02","18:00","12.5","","8.7","","78","","","","29","","21","","24.1","","100.21","","","","","","NA"
"-61.68","56.55","NAIN A","8502801","2021-08-02 19:00","2021","08","02","19:00","12.0","","8.7","","80","","","","28","","7","","24.1","","100.23","","","","","","NA"
"-61.68","56.55","NAIN A","8502801","2021-08-02 20:00","2021","08","02","20:00"
"-61.68","56.55","NAIN A","8502801","2021-08-02 21:00","2021","08","02","21:00"
"-61.68","56.55","NAIN A","8502801","2021-08-02 22:00","2021","08","02","22:00"
"-61.68","56.55","NAIN A","8502801","2021-08-02 23:00","2021","08","02","23:00"
"-61.68","56.55","NAIN A","8502801","2021-08-03 00:00","2021","08","03","00:00"
"-61.68","56.55","NAIN A","8502801","2021-08-03 01:00","2021","08","03","01:00"
"-61.68","56.55","NAIN A","8502801","2021-08-03 02:00","2021","08","03","02:00"
"-61.68","56.55","NAIN A","8502801","2021-08-03 03:00","2021","08","03","03:00"
"-61.68","56.55","NAIN A","8502801","2021-08-03 04:00","2021","08","03","04:00","6.1","","6.1","","100","","","","","","0","","24.1","","100.11","","","","","","NA"
"-61.68","56.55","NAIN A","8502801","2021-08-03 05:00","2021","08","03","05:00","6.3","","6.3","","100","","","","36","","2","","24.1","","100.10","","","","","","Mainly Clear"
"-61.68","56.55","NAIN A","8502801","2021-08-03 06:00","2021","08","03","06:00","7.6","","7.5","","100","","","","36","","3","","24.1","","100.10","","","","","","NA"
"-61.68","56.55","NAIN A","8502801","2021-08-03 07:00","2021","08","03","07:00","9.0","","7.6","","91","","","","14","","9","","24.1","","100.10","","","","","","NA"
"-61.68","56.55","NAIN A","8502801","2021-08-03 08:00","2021","08","03","08:00","10.3","","8.3","","87","","","","36","","2","","24.1","","100.07","","","","","","Mainly Clear"
"-61.68","56.55","NAIN A","8502801","2021-08-03 09:00","2021","08","03","09:00","10.9","","8.3","","84","","","","31","","4","","24.1","","100.01","","","","","","NA"
"-61.68","56.55","NAIN A","8502801","2021-08-03 10:00","2021","08","03","10:00","13.7","","9.1","","73","","","","13","","8","","24.1","","100.02","","","","","","NA"
"-61.68","56.55","NAIN A","8502801","2021-08-03 11:00","2021","08","03","11:00","14.4","","9.5","","72","","","","11","","9","","24.1","","100.00","","","","","","Mostly Cloudy"
"-61.68","56.55","NAIN A","8502801","2021-08-03 12:00","2021","08","03","12:00","11.5","","8.0","","79","","","","8","","17","","24.1","","99.99","","","","","","NA"
"-61.68","56.55","NAIN A","8502801","2021-08-03 13:00","2021","08","03","13:00","12.1","","8.4","","78","","","","9","","5","","24.1","","99.97","","","","","","NA"
"-61.68","56.55","NAIN A","8502801","2021-08-03 14:00","2021","08","03","14:00","11.9","","8.0","","77","","","","8","","9","","24.1","","99.98","","","","","","Mostly Cloudy"
"-61.68","56.55","NAIN A","8502801","2021-08-03 15:00","2021","08","03","15:00","12.6","","8.4","","75","","","","9","","17","","24.1","","100.01","","","","","","NA"
"-61.68","56.55","NAIN A","8502801","2021-08-03 16:00","2021","08","03","16:00","10.4","","7.6","","83","","","","8","","31","","24.1","","100.06","","","","","","Rain Showers"
"-61.68","56.55","NAIN A","8502801","2021-08-03 17:00","2021","08","03","17:00","10.5","","7.4","","81","","","","8","","23","","24.1","","100.11","","","","","","Mostly Cloudy"
"-61.68","56.55","NAIN A","8502801","2021-08-03 18:00","2021","08","03","18:00","9.6","","7.3","","86","","","","8","","28","","24.1","","100.15","","","","","","NA"
"-61.68","56.55","NAIN A","8502801","2021-08-03 19:00","2021","08","03","19:00","9.3","","7.4","","88","","","","8","","26","","24.1","","100.20","","","","","","NA"
"-61.68","56.55","NAIN A","8502801","2021-08-03 20:00","2021","08","03","20:00"
"-61.68","56.55","NAIN A","8502801","2021-08-03 21:00","2021","08","03","21:00"
"-61.68","56.55","NAIN A","8502801","2021-08-03 22:00","2021","08","03","22:00"
"-61.68","56.55","NAIN A","8502801","2021-08-03 23:00","2021","08","03","23:00"
"-61.68","56.55","NAIN A","8502801","2021-08-04 00:00","2021","08","04","00:00"
"-61.68","56.55","NAIN A","8502801","2021-08-04 01:00","2021","08","04","01:00"
"-61.68","56.55","NAIN A","8502801","2021-08-04 02:00","2021","08","04","02:00"
"-61.68","56.55","NAIN A","8502801","2021-08-04 03:00","2021","08","04","03:00"
"-61.68","56.55","NAIN A","8502801","2021-08-04 04:00","2021","08","04","04:00","7.3","","6.4","","94","","","","36","","3","","24.1","","100.48","","","","","","NA"
"-61.68","56.55","NAIN A","8502801","2021-08-04 05:00","2021","08","04","05:00","7.5","","6.5","","93","","","","36","","2","","24.1","","100.53","","","","","","Mostly Cloudy"
"-61.68","56.55","NAIN A","8502801","2021-08-04 06:00","2021","08","04","06:00","8.0","","7.1","","94","","","","36","","1","","24.1","","100.56","","","","","","NA"
"-61.68","56.55","NAIN A","8502801","2021-08-04 07:00","2021","08","04","07:00","8.9","","7.0","","88","","","","36","","3","","24.1","","100.61","","","","","","NA"
"-61.68","56.55","NAIN A","8502801","2021-08-04 08:00","2021","08","04","08:00","10.1","","7.4","","83","","","","8","","5","","24.1","","100.62","","","","","","Clear"
"-61.68","56.55","NAIN A","8502801","2021-08-04 09:00","2021","08","04","09:00","11.1","","8.3","","83","","","","34","","6","","24.1","","100.62","","","","","","NA"
"-61.68","56.55","NAIN A","8502801","2021-08-04 10:00","2021","08","04","10:00","15.0","","8.9","","67","","","","10","","7","","24.1","","100.61","","","","","","NA"
"-61.68","56.55","NAIN A","8502801","2021-08-04 11:00","2021","08","04","11:00","17.4","","7.8","","53","","","","31","","24","","24.1","","100.59","","","","","","Mostly Cloudy"
"-61.68","56.55","NAIN A","8502801","2021-08-04 12:00","2021","08","04","12:00","18.4","","8.6","","52","","","","30","","23","","24.1","","100.57","","","","","","NA"
"-61.68","56.55","NAIN A","8502801","2021-08-04 13:00","2021","08","04","13:00","20.2","","9.5","","50","","","","27","","35","","24.1","","100.57","","","","","","NA"
"-61.68","56.55","NAIN A","8502801","2021-08-04 14:00","2021","08","04","14:00","20.7","","10.7","","52","","","","28","","32","","24.1","","100.57","","","","","","Mostly Cloudy"
"-61.68","56.55","NAIN A","8502801","2021-08-04 15:00","2021","08","04","15:00","20.9","","8.7","","45","","","","27","","43","","24.1","","100.54","","","","","","NA"
"-61.68","56.55","NAIN A","8502801","2021-08-04 16:00","2021","08","04","16:00","20.1","","8.8","","48","","","","27","","39","","24.1","","100.57","","","","","","NA"
"-61.68","56.55","NAIN A","8502801","2021-08-04 17:00","2021","08","04","17:00","19.3","","9.3","","52","","","","26","","19","","24.1","","100.62","","","","","","Cloudy"
"-61.68","56.55","NAIN A","8502801","2021-08-04 18:00","2021","08","04","18:00","19.5","","9.7","","53","","","","27","","22","","24.1","","100.63","","","","","","NA"
"-61.68","56.55","NAIN A","8502801","2021-08-04 19:00","2021","08","04","19:00","18.8","","10.0","","56","","","","26","","18","","24.1","","100.64","","","","","","NA"
"-61.68","56.55","NAIN A","8502801","2021-08-04 20:00","2021","08","04","20:00"
"-61.68","56.55","NAIN A","8502801","2021-08-04 21:00","2021","08","04","21:00"
"-61.68","56.55","NAIN A","8502801","2021-08-04 22:00","2021","08","04","22:00"
"-61.68","56.55","NAIN A","8502801","2021-08-04 23:00","2021","08","04","23:00"
"-61.68","56.55","NAIN A","8502801","2021-08-05 00:00","2021","08","05","00:00"
"-61.68","56.55","NAIN A","8502801","2021-08-05 01:00","2021","08","05","01:00"
"-61.68","56.55","NAIN A","8502801","2021-08-05 02:00","2021","08","05","02:00"
"-61.68","56.55","NAIN A","8502801","2021-08-05 03:00","2021","08","05","03:00"
"-61.68","56.55","NAIN A","8502801","2021-08-05 04:00","2021","08","05","04:00","17.0","","10.2","","64","","","","25","","21","","24.1","","100.69","","","","","","NA"
"-61.68","56.55","NAIN A","8502801","2021-08-05 05:00","2021","08","05","05:00","16.7","","10.2","","65","","","","24","","23","","24.1","","100.68","","","","","","Mostly Cloudy"
"-61.68","56.55","NAIN A","8502801","2021-08-05 06:00","2021","08","05","06:00","17.1","","10.3","","64","","","","26","","26","","24.1","","100.68","","","","","","NA"
"-61.68","56.55","NAIN A","8502801","2021-08-05 07:00","2021","08","05","07:00","17.7","","10.6","","63","","","","26","","20","","24.1","","100.69","","","","","","NA"
"-61.68","56.55","NAIN A","8502801","2021-08-05 08:00","2021","08","05","08:00","19.8","","11.1","","57","","","","27","","14","","24.1","","100.67","","","","","","Mostly Cloudy"
"-61.68","56.55","NAIN A","8502801","2021-08-05 09:00","2021","08","05","09:00","20.8","","11.4","","55","","","","24","","11","","24.1","","100.64","","","","","","NA"
"-61.68","56.55","NAIN A","8502801","2021-08-05 10:00","2021","08","05","10:00","22.4","","11.7","","50","","","","26","","10","","24.1","","100.61","","25","","","","NA"
"-61.68","56.55","NAIN A","8502801","2021-08-05 11:00","2021","08","05","11:00","24.1","","11.9","","46","","","","22","","23","","24.1","","100.46","","26","","","","Mostly Cloudy"
"-61.68","56.55","NAIN A","8502801","2021-08-05 12:00","2021","08","05","12:00","25.2","","12.1","","43","","","","27","","21","","24.1","","100.43","","28","","","","NA"
"-61.68","56.55","NAIN A","8502801","2021-08-05 13:00","2021","08","05","13:00","25.3","","10.9","","40","","","","27","","23","","24.1","","100.41","","27","","","","NA"
"-61.68","56.55","NAIN A","8502801","2021-08-05 14:00","2021","08","05","14:00","19.3","","11.1","","58","","","","29","","30","","24.1","","100.47","","","","","","Cloudy"
"-61.68","56.55","NAIN A","8502801","2021-08-05 15:00","2021","08","05","15:00","16.8","","11.5","","71","","","","30","","39","","24.1","","100.57","","","","","","NA"
"-61.68","56.55","NAIN A","8502801","2021-08-05 16:00","2021","08","05","16:00","16.1","","11.6","","74","","","","31","","33","","24.1","","100.62","","","","","","NA"
"-61.68","56.55","NAIN A","8502801","2021-08-05 17:00","2021","08","05","17:00","14.5","","12.0","","85","","","","30","","24","","24.1","","100.65","","","","","","Rain Showers"
"-61.68","56.55","NAIN A","8502801","2021-08-05 18:00","2021","08","05","18:00","15.8","","13.4","","85","","","","36","","2","","24.1","","100.70","","","","","","Rain Showers"
"-61.68","56.55","NAIN A","8502801","2021-08-05 19:00","2021","08","05","19:00","16.4","","13.4","","82","","","","26","","13","","24.1","","100.75","","","","","","Rain Showers"
"-61.68","56.55","NAIN A","8502801","2021-08-05 20:00","2021","08","05","20:00"
"-61.68","56.55","NAIN A","8502801","2021-08-05 21:00","2021","08","05","21:00"
"-61.68","56.55","NAIN A","8502801","2021-08-05 22:00","2021","08","05","22:00"
"-61.68","56.55","NAIN A","8502801","2021-08-05 23:00","2021","08","05","23:00"
"-61.68","56.55","NAIN A","8502801","2021-08-06 00:00","2021","08","06","00:00"
"-61.68","56.55","NAIN A","8502801","2021-08-06 01:00","2021","08","06","01:00"
"-61.68","56.55","NAIN A","8502801","2021-08-06 02:00","2021","08","06","02:00"
"-61.68","56.55","NAIN A","8502801","2021-08-06 03:00","2021","08","06","03:00"
"-61.68","56.55","NAIN A","8502801","2021-08-06 04:00","2021","08","06","04:00","9.8","","7.1","","83","","","","4","","4","","24.1","","100.90","","","","","","NA"
"-61.68","56.55","NAIN A","8502801","2021-08-06 05:00","2021","08","06","05:00","9.1","","7.7","","91","","","","36","","3","","24.1","","100.88","","","","","","Cloudy"
"-61.68","56.55","NAIN A","8502801","2021-08-06 06:00","2021","08","06","06:00","9.2","","7.7","","90","","","","29","","4","","24.1","","100.86","","","","","","NA"
"-61.68","56.55","NAIN A","8502801","2021-08-06 07:00","2021","08","06","07:00","10.1","","7.7","","85","","","","14","","4","","24.1","","100.85","","","","","","NA"
"-61.68","56.55","NAIN A","8502801","2021-08-06 08:00","2021","08","06","08:00","9.9","","7.5","","85","","","","36","","1","","24.1","","100.82","","","","","","Cloudy"
"-61.68","56.55","NAIN A","8502801","2021-08-06 09:00","2021","08","06","09:00","11.5","","8.5","","82","","","","17","","5","","24.1","","100.79","","","","","","NA"
"-61.68","56.55","NAIN A","8502801","2021-08-06 10:00","2021","08","06","10:00","9.7","","7.5","","86","","","","2","","4","","24.1","","100.75","","","","","","Rain Showers"
"-61.68","56.55","NAIN A","8502801","2021-08-06 11:00","2021","08","06","11:00","9.8","","8.2","","89","","","","6","","4","","24.1","","100.70","","","","","","Rain Showers"
"-61.68","56.55","NAIN A","8502801","2021-08-06 12:00","2021","08","06","12:00","9.9","","8.2","","89","","","","14","","4","","24.1","","100.65","","","","","","Rain Showers"
"-61.68","56.55","NAIN A","8502801","2021-08-06 13:00","2021","08","06","13:00","9.4","","8.1","","91","","","","12","","6","","24.1","","100.57","","","","","","NA"
"-61.68","56.55","NAIN A","8502801","2021-08-06 14:00","2021","08","06","14:00","10.2","","8.8","","91","","","","32","","3","","24.1","","100.55","","","","","","Cloudy"
"-61.68","56.55","NAIN A","8502801","2021-08-06 15:00","2021","08","06","15:00","9.8","","9.3","","97","","","","36","","2","","8.1","","100.55","","","","","","Rain,Fog"
"-61.68","56.55","NAIN A","8502801","2021-08-06 16:00","2021","08","06","16:00","10.1","","9.8","","99","","","","29","","7","","24.1","","100.46","","","","","","Rain"
"-61.68","56.55","NAIN A","8502801","2021-08-06 17:00","2021","08","06","17:00","10.4","","9.5","","94","","","","36","","2","","24.1","","100.40","","","","","","Rain Showers"
"-61.68","56.55","NAIN A","8502801","2021-08-06 18:00","2021","08","06","18:00","9.8","","9.4","","97","","","","6","","6","","24.1","","100.32","","","","","","Rain Showers"
"-61.68","56.55","NAIN A","8502801","2021-08-06 19:00","2021","08","06","19:00","9.2","","8.9","","98","","","","36","","3","","24.1","","100.25","","","","","","NA"
"-61.68","56.55","NAIN A","8502801","2021-08-06 20:00","2021","08","06","20:00"
"-61.68","56.55","NAIN A","8502801","2021-08-06 21:00","2021","08","06","21:00"
"-61.68","56.55","NAIN A","8502801","2021-08-06 22:00","2021","08","06","22:00"
"-61.68","56.55","NAIN A","8502801","2021-08-06 23:00","2021","08","06","23:00"
"-61.68","56.55","NAIN A","8502801","2021-08-07 00:00","2021","08","07","00:00"
"-61.68","56.55","NAIN A","8502801","2021-08-07 01:00","2021","08","07","01:00"
"-61.68","56.55","NAIN A","8502801","2021-08-07 02:00","2021","08","07","02:00"
"-61.68","56.55","NAIN A","8502801","2021-08-07 03:00","2021","08","07","03:00"
"-61.68","56.55","NAIN A","8502801","2021-08-07 04:00","2021","08","07","04:00","10.3","","8.8","","91","","","","29","","23","","24.1","","99.87","","","","","","NA"
"-61.68","56.55","NAIN A","8502801","2021-08-07 05:00","2021","08","07","05:00","10.3","","8.8","","91","","","","30","","19","","24.1","","99.94","","","","","","Rain Showers"
"-61.68","56.55","NAIN A","8502801","2021-08-07 06:00","2021","08","07","06:00","11.0","","9.1","","88","","","","28","","15","","24.1","","100.01","","","","","","Rain Showers"
"-61.68","56.55","NAIN A","8502801","2021-08-07 07:00","2021","08","07","07:00","11.3","","7.9","","79","","","","30","","28","","24.1","","100.09","","","","","","Rain Showers"
"-61.68","56.55","NAIN A","8502801","2021-08-07 08:00","2021","08","07","08:00","12.1","","6.2","","67","","","","30","","25","","24.1","","100.17","","","","","","Mostly Cloudy"
"-61.68","56.55","NAIN A","8502801","2021-08-07 09:00","2021","08","07","09:00","12.5","","4.5","","58","","","","30","","35","","24.1","","100.24","","","","","","NA"
"-61.68","56.55","NAIN A","8502801","2021-08-07 10:00","2021","08","07","10:00","13.0","","5.0","","58","","","","31","","30","","24.1","","100.27","","","","","","NA"
"-61.68","56.55","NAIN A","8502801","2021-08-07 11:00","2021","08","07","11:00","14.5","","5.4","","54","","","","29","","41","","24.1","","100.30","","","","","","Mainly Clear"
"-61.68","56.55","NAIN A","8502801","2021-08-07 12:00","2021","08","07","12:00","14.8","","4.9","","51","","","","30","","40","","24.1","","100.34","","","","","","NA"
"-61.68","56.55","NAIN A","8502801","2021-08-07 13:00","2021","08","07","13:00","14.2","","5.8","","57","","","","31","","38","","24.1","","100.38","","","","","","NA"
"-61.68","56.55","NAIN A","8502801","2021-08-07 14:00","2021","08","07","14:00","15.4","","5.0","","50","","","","29","","43","","24.1","","100.44","","","","","","Mainly Clear"
"-61.68","56.55","NAIN A","8502801","2021-08-07 15:00","2021","08","07","15:00","14.2","","4.8","","53","","","","31","","35","","24.1","","100.51","","","","","","NA"
"-61.68","56.55","NAIN A","8502801","2021-08-07 16:00","2021","08","07","16:00","15.6","","4.2","","46","","","","29","","39","","24.1","","100.56","","","","","","NA"
"-61.68","56.55","NAIN A","8502801","2021-08-07 17:00","2021","08","07","17:00","14.0","","4.5","","52","","","","31","","42","","24.1","","100.63","","","","","","Mainly Clear"
"-61.68","56.55","NAIN A","8502801","2021-08-07 18:00","2021","08","07","18:00","13.3","","4.2","","54","","","","30","","36","","24.1","","100.68","","","","","","NA"
"-61.68","56.55","NAIN A","8502801","2021-08-07 19:00","2021","08","07","19:00","12.9","","4.4","","56","","","","30","","28","","24.1","","100.75","","","","","","NA"
"-61.68","56.55","NAIN A","8502801","2021-08-07 20:00","2021","08","07","20:00"
"-61.68","56.55","NAIN A","8502801","2021-08-07 21:00","2021","08","07","21:00"
"-61.68","56.55","NAIN A","8502801","2021-08-07 22:00","2021","08","07","22:00"
"-61.68","56.55","NAIN A","8502801","2021-08-07 23:00","2021","08","07","23:00"
"-61.68","56.55","NAIN A","8502801","2021-08-08 00:00","2021","08","08","00:00"
"-61.68","56.55","NAIN A","8502801","2021-08-08 01:00","2021","08","08","01:00"
"-61.68","56.55","NAIN A","8502801","2021-08-08 02:00","2021","08","08","02:00"
"-61.68","56.55","NAIN A","8502801","2021-08-08 03:00","2021","08","08","03:00"
"-61.68","56.55","NAIN A","8502801","2021-08-08 04:00","2021","08","08","04:00","9.8","","3.9","","67","","","","27","","21","","24.1","","101.25","","","","","","NA"
"-61.68","56.55","NAIN A","8502801","2021-08-08 05:00","2021","08","08","05:00","9.6","","3.8","","67","","","","25","","20","","24.1","","101.30","","","","","","Clear"
"-61.68","56.55","NAIN A","8502801","2021-08-08 06:00","2021","08","08","06:00","10.5","","4.0","","64","","","","27","","33","","24.1","","101.32","","","","","","NA"
"-61.68","56.55","NAIN A","8502801","2021-08-08 07:00","2021","08","08","07:00","11.4","","4.4","","62","","","","29","","26","","24.1","","101.40","","","","","","NA"
"-61.68","56.55","NAIN A","8502801","2021-08-08 08:00","2021","08","08","08:00","12.2","","4.9","","61","","","","27","","22","","24.1","","101.41","","","","","","Mainly Clear"
"-61.68","56.55","NAIN A","8502801","2021-08-08 09:00","2021","08","08","09:00","13.3","","5.4","","59","","","","29","","28","","24.1","","101.44","","","","","","NA"
"-61.68","56.55","NAIN A","8502801","2021-08-08 10:00","2021","08","08","10:00","14.0","","5.5","","56","","","","29","","36","","24.1","","101.45","","","","","","NA"
"-61.68","56.55","NAIN A","8502801","2021-08-08 11:00","2021","08","08","11:00","15.0","","5.2","","52","","","","29","","35","","24.1","","101.49","","","","","","Mostly Cloudy"
"-61.68","56.55","NAIN A","8502801","2021-08-08 12:00","2021","08","08","12:00","15.8","","5.6","","50","","","","29","","32","","24.1","","101.53","","","","","","NA"
"-61.68","56.55","NAIN A","8502801","2021-08-08 13:00","2021","08","08","13:00","15.4","","5.4","","51","","","","29","","29","","24.1","","101.56","","","","","","NA"
"-61.68","56.55","NAIN A","8502801","2021-08-08 14:00","2021","08","08","14:00","16.2","","5.8","","50","","","","30","","35","","24.1","","101.58","","","","","","Mostly Cloudy"
"-61.68","56.55","NAIN A","8502801","2021-08-08 15:00","2021","08","08","15:00","15.2","","5.3","","51","","","","30","","30","","24.1","","101.66","","","","","","NA"
"-61.68","56.55","NAIN A","8502801","2021-08-08 16:00","2021","08","08","16:00","14.0","","5.6","","57","","","","31","","28","","24.1","","101.72","","","","","","NA"
"-61.68","56.55","NAIN A","8502801","2021-08-08 17:00","2021","08","08","17:00","14.7","","6.1","","56","","","","28","","10","","24.1","","101.73","","","","","","Mostly Cloudy"
"-61.68","56.55","NAIN A","8502801","2021-08-08 18:00","2021","08","08","18:00","15.0","","6.4","","56","","","","24","","4","","24.1","","101.71","","","","","","NA"
"-61.68","56.55","NAIN A","8502801","2021-08-08 19:00","2021","08","08","19:00","14.6","","6.0","","56","","","","18","","4","","24.1","","101.72","","","","","","NA"
"-61.68","56.55","NAIN A","8502801","2021-08-08 20:00","2021","08","08","20:00"
"-61.68","56.55","NAIN A","8502801","2021-08-08 21:00","2021","08","08","21:00"
"-61.68","56.55","NAIN A","8502801","2021-08-08 22:00","2021","08","08","22:00"
"-61.68","56.55","NAIN A","8502801","2021-08-08 23:00","2021","08","08","23:00"
"-61.68","56.55","NAIN A","8502801","2021-08-09 00:00","2021","08","09","00:00"
"-61.68","56.55","NAIN A","8502801","2021-08-09 01:00","2021","08","09","01:00"
"-61.68","56.55","NAIN A","8502801","2021-08-09 02:00","2021","08","09","02:00"
"-61.68","56.55","NAIN A","8502801","2021-08-09 03:00","2021","08","09","03:00"
"-61.68","56.55","NAIN A","8502801","2021-08-09 04:00","2021","08","09","04:00","10.9","","5.8","","71","","","","36","","2","","24.1","","101.64","","","","","","NA"
"-61.68","56.55","NAIN A","8502801","2021-08-09 05:00","2021","08","09","05:00","12.2","","5.8","","65","","","","27","","8","","24.1","","101.68","","","","","","Mostly Cloudy"
"-61.68","56.55","NAIN A","8502801","2021-08-09 06:00","2021","08","09","06:00","13.0","","6.1","","63","","","","22","","24","","24.1","","101.68","","","","","","NA"
"-61.68","56.55","NAIN A","8502801","2021-08-09 07:00","2021","08","09","07:00","13.5","","6.5","","62","","","","23","","19","","24.1","","101.65","","","","","","NA"
"-61.68","56.55","NAIN A","8502801","2021-08-09 08:00","2021","08","09","08:00","14.9","","6.5","","57","","","","21","","14","","24.1","","101.57","","","","","","Mostly Cloudy"
"-61.68","56.55","NAIN A","8502801","2021-08-09 09:00","2021","08","09","09:00","15.7","","7.7","","58","","","","18","","16","","24.1","","101.46","","","","","","NA"
"-61.68","56.55","NAIN A","8502801","2021-08-09 10:00","2021","08","09","10:00","17.8","","9.0","","56","","","","18","","20","","24.1","","101.36","","","","","","NA"
"-61.68","56.55","NAIN A","8502801","2021-08-09 11:00","2021","08","09","11:00","20.1","","9.3","","49","","","","18","","17","","24.1","","101.27","","","","","","Mainly Clear"
"-61.68","56.55","NAIN A","8502801","2021-08-09 12:00","2021","08","09","12:00","23.5","","8.8","","39","","","","25","","8","","24.1","","101.15","","","","","","NA"
"-61.68","56.55","NAIN A","8502801","2021-08-09 13:00","2021","08","09","13:00","24.8","","9.3","","37","","","","23","","12","","24.1","","101.02","","26","","","","NA"
"-61.68","56.55","NAIN A","8502801","2021-08-09 14:00","2021","08","09","14:00","25.8","","7.2","","30","","","","24","","16","","24.1","","100.90","","26","","","","Mainly Clear"
"-61.68","56.55","NAIN A","8502801","2021-08-09 15:00","2021","08","09","15:00","26.4","","7.5","","30","","","","26","","13","","24.1","","100.80","","27","","","","NA"
"-61.68","56.55","NAIN A","8502801","2021-08-09 16:00","2021","08","09","16:00","26.2","","7.4","","30","","","","26","","9","","24.1","","100.71","","26","","","","NA"
"-61.68","56.55","NAIN A","8502801","2021-08-09 17:00","2021","08","09","17:00","26.1","","8.6","","33","","","","26","","14","","24.1","","100.64","","27","","","","Clear"
"-61.68","56.55","NAIN A","8502801","2021-08-09 18:00","2021","08","09","18:00","25.2","","7.8","","32","","","","25","","13","","24.1","","100.60","","26","","","","NA"
"-61.68","56.55","NAIN A","8502801","2021-08-09 19:00","2021","08","09","19:00","24.4","","8.6","","36","","","","26","","7","","24.1","","100.58","","25","","","","NA"
"-61.68","56.55","NAIN A","8502801","2021-08-09 20:00","2021","08","09","20:00"
"-61.68","56.55","NAIN A","8502801","2021-08-09 21:00","2021","08","09","21:00"
"-61.68","56.55","NAIN A","8502801","2021-08-09 22:00","2021","08","09","22:00"
"-61.68","56.55","NAIN A","8502801","2021-08-09 23:00","2021","08","09","23:00"
"-61.68","56.55","NAIN A","8502801","2021-08-10 00:00","2021","08","10","00:00"
"-61.68","56.55","NAIN A","8502801","2021-08-10 01:00","2021","08","10","01:00"
"-61.68","56.55","NAIN A","8502801","2021-08-10 02:00","2021","08","10","02:00"
"-61.68","56.55","NAIN A","8502801","2021-08-10 03:00","2021","08","10","03:00"
"-61.68","56.55","NAIN A","8502801","2021-08-10 04:00","2021","08","10","04:00","16.1","","12.9","","81","","","","5","","5","","24.1","","100.49","","","","","","NA"
"-61.68","56.55","NAIN A","8502801","2021-08-10 05:00","2021","08","10","05:00","19.2","","15.2","","77","","","","23","","5","","24.1","","100.57","","","","","","Mostly Cloudy"
"-61.68","56.55","NAIN A","8502801","2021-08-10 06:00","2021","08","10","06:00","16.8","","13.2","","79","","","","7","","4","","24.1","","100.60","","","","","","NA"
"-61.68","56.55","NAIN A","8502801","2021-08-10 07:00","2021","08","10","07:00","17.3","","14.5","","83","","","","29","","26","","24.1","","100.67","","","","","","NA"
"-61.68","56.55","NAIN A","8502801","2021-08-10 08:00","2021","08","10","08:00","11.1","","7.2","","77","","","","8","","29","","24.1","","100.86","","","","","","Cloudy"
"-61.68","56.55","NAIN A","8502801","2021-08-10 09:00","2021","08","10","09:00","11.2","","7.0","","75","","","","8","","18","","24.1","","100.98","","","","","","NA"
"-61.68","56.55","NAIN A","8502801","2021-08-10 10:00","2021","08","10","10:00","11.8","","7.2","","73","","","","7","","6","","24.1","","101.06","","","","","","NA"
"-61.68","56.55","NAIN A","8502801","2021-08-10 11:00","2021","08","10","11:00","11.2","","6.9","","74","","","","9","","10","","24.1","","101.09","","","","","","Cloudy"
"-61.68","56.55","NAIN A","8502801","2021-08-10 12:00","2021","08","10","12:00","10.5","","6.0","","73","","","","7","","21","","24.1","","101.14","","","","","","NA"
"-61.68","56.55","NAIN A","8502801","2021-08-10 13:00","2021","08","10","13:00","12.4","","7.0","","69","","","","9","","16","","24.1","","101.15","","","","","","NA"
"-61.68","56.55","NAIN A","8502801","2021-08-10 14:00","2021","08","10","14:00","12.8","","6.5","","66","","","","8","","20","","24.1","","101.18","","","","","","Clear"
"-61.68","56.55","NAIN A","8502801","2021-08-10 15:00","2021","08","10","15:00","13.8","","6.1","","60","","","","10","","24","","24.1","","101.22","","","","","","NA"
"-61.68","56.55","NAIN A","8502801","2021-08-10 16:00","2021","08","10","16:00","12.6","","6.8","","68","","","","13","","27","","24.1","","101.26","","","","","","NA"
"-61.68","56.55","NAIN A","8502801","2021-08-10 17:00","2021","08","10","17:00","13.4","","6.3","","62","","","","12","","26","","24.1","","101.31","","","","","","Clear"
"-61.68","56.55","NAIN A","8502801","2021-08-10 18:00","2021","08","10","18:00","12.2","","5.7","","64","","","","10","","21","","24.1","","101.36","","","","","","NA"
"-61.68","56.55","NAIN A","8502801","2021-08-10 19:00","2021","08","10","19:00","10.4","","5.6","","72","","","","9","","19","","24.1","","101.44","","","","","","NA"
"-61.68","56.55","NAIN A","8502801","2021-08-10 20:00","2021","08","10","20:00"
"-61.68","56.55","NAIN A","8502801","2021-08-10 21:00","2021","08","10","21:00"
"-61.68","56.55","NAIN A","8502801","2021-08-10 22:00","2021","08","10","22:00"
"-61.68","56.55","NAIN A","8502801","2021-08-10 23:00","2021","08","10","23:00"
"-61.68","56.55","NAIN A","8502801","2021-08-11 00:00","2021","08","11","00:00"
"-61.68","56.55","NAIN A","8502801","2021-08-11 01:00","2021","08","11","01:00"
"-61.68","56.55","NAIN A","8502801","2021-08-11 02:00","2021","08","11","02:00"
"-61.68","56.55","NAIN A","8502801","2021-08-11 03:00","2021","08","11","03:00"
"-61.68","56.55","NAIN A","8502801","2021-08-11 04:00","2021","08","11","04:00","6.2","","4.7","","90","","","","36","","1","","24.1","","101.75","","","","","","NA"
"-61.68","56.55","NAIN A","8502801","2021-08-11 05:00","2021","08","11","05:00","6.0","","4.7","","91","","","","29","","5","","24.1","","101.79","","","","","","Mainly Clear"
"-61.68","56.55","NAIN A","8502801","2021-08-11 06:00","2021","08","11","06:00","6.5","","5.1","","91","","","","36","","2","","24.1","","101.80","","","","","","NA"
"-61.68","56.55","NAIN A","8502801","2021-08-11 07:00","2021","08","11","07:00","7.7","","5.7","","87","","","","16","","5","","24.1","","101.81","","","","","","NA"
"-61.68","56.55","NAIN A","8502801","2021-08-11 08:00","2021","08","11","08:00","9.5","","6.1","","79","","","","15","","3","","24.1","","101.80","","","","","","Clear"
"-61.68","56.55","NAIN A","8502801","2021-08-11 09:00","2021","08","11","09:00","9.7","","6.4","","80","","","","9","","3","","24.1","","101.78","","","","","","NA"
"-61.68","56.55","NAIN A","8502801","2021-08-11 10:00","2021","08","11","10:00","13.8","","9.3","","74","","","","15","","13","","24.1","","101.71","","","","","","NA"
"-61.68","56.55","NAIN A","8502801","2021-08-11 11:00","2021","08","11","11:00","14.4","","8.5","","68","","","","13","","28","","24.1","","101.67","","","","","","Clear"
"-61.68","56.55","NAIN A","8502801","2021-08-11 12:00","2021","08","11","12:00","14.9","","8.1","","64","","","","13","","36","","24.1","","101.64","","","","","","NA"
"-61.68","56.55","NAIN A","8502801","2021-08-11 13:00","2021","08","11","13:00","15.2","","7.7","","60","","","","13","","39","","24.1","","101.56","","","","","","NA"
"-61.68","56.55","NAIN A","8502801","2021-08-11 14:00","2021","08","11","14:00","15.2","","7.8","","61","","","","13","","37","","24.1","","101.51","","","","","","Mainly Clear"
"-61.68","56.55","NAIN A","8502801","2021-08-11 15:00","2021","08","11","15:00","15.1","","7.9","","62","","","","13","","35","","24.1","","101.49","","","","","","NA"
"-61.68","56.55","NAIN A","8502801","2021-08-11 16:00","2021","08","11","16:00","12.7","","6.8","","67","","","","12","","11","","24.1","","101.45","","","","","","NA"
"-61.68","56.55","NAIN A","8502801","2021-08-11 17:00","2021","08","11","17:00","13.3","","6.8","","64","","","","14","","23","","24.1","","101.44","","","","","","Mostly Cloudy"
"-61.68","56.55","NAIN A","8502801","2021-08-11 18:00","2021","08","11","18:00","12.7","","6.5","","65","","","","17","","21","","24.1","","101.41","","","","","","NA"
"-61.68","56.55","NAIN A","8502801","2021-08-11 19:00","2021","08","11","19:00","12.1","","6.3","","68","","","","12","","14","","24.1","","101.36","","","","","","NA"
"-61.68","56.55","NAIN A","8502801","2021-08-11 20:00","2021","08","11","20:00"
"-61.68","56.55","NAIN A","8502801","2021-08-11 21:00","2021","08","11","21:00"
"-61.68","56.55","NAIN A","8502801","2021-08-11 22:00","2021","08","11","22:00"
"-61.68","56.55","NAIN A","8502801","2021-08-11 23:00","2021","08","11","23:00"
"-61.68","56.55","NAIN A","8502801","2021-08-12 00:00","2021","08","12","00:00"
"-61.68","56.55","NAIN A","8502801","2021-08-12 01:00","2021","08","12","01:00"
"-61.68","56.55","NAIN A","8502801","2021-08-12 02:00","2021","08","12","02:00"
"-61.68","56.55","NAIN A","8502801","2021-08-12 03:00","2021","08","12","03:00"
"-61.68","56.55","NAIN A","8502801","2021-08-12 04:00","2021","08","12","04:00","8.7","","8.3","","97","","","","31","","5","","8.1","","100.79","","","","","","Fog"
"-61.68","56.55","NAIN A","8502801","2021-08-12 05:00","2021","08","12","05:00","8.9","","8.4","","96","","","","35","","4","","8.1","","100.76","","","","","","Fog"
"-61.68","56.55","NAIN A","8502801","2021-08-12 06:00","2021","08","12","06:00","9.5","","9.3","","98","","","","36","","2","","4.8","","100.72","","","","","","Fog"
"-61.68","56.55","NAIN A","8502801","2021-08-12 07:00","2021","08","12","07:00","10.0","","9.8","","99","","","","16","","5","","4.0","","100.65","","","","","","Fog"
"-61.68","56.55","NAIN A","8502801","2021-08-12 08:00","2021","08","12","08:00","9.8","","9.7","","99","","","","36","","2","","0.8","","100.62","","","","","","Drizzle,Fog"
"-61.68","56.55","NAIN A","8502801","2021-08-12 09:00","2021","08","12","09:00","10.9","","10.7","","98","","","","12","","4","","0.8","","100.56","","","","","","Drizzle,Fog"
"-61.68","56.55","NAIN A","8502801","2021-08-12 10:00","2021","08","12","10:00","12.3","","11.7","","96","","","","33","","4","","4.8","","100.49","","","","","","Fog"
"-61.68","56.55","NAIN A","8502801","2021-08-12 11:00","2021","08","12","11:00","13.6","","12.7","","94","","","","17","","5","","24.1","","100.45","","","","","","Cloudy"
"-61.68","56.55","NAIN A","8502801","2021-08-12 12:00","2021","08","12","12:00","14.8","","13.8","","94","","","","36","","1","","24.1","","100.40","","","","","","NA"
"-61.68","56.55","NAIN A","8502801","2021-08-12 13:00","2021","08","12","13:00","14.1","","12.1","","87","","","","4","","5","","24.1","","100.35","","","","","","NA"
"-61.68","56.55","NAIN A","8502801","2021-08-12 14:00","2021","08","12","14:00","13.5","","12.3","","93","","","","33","","4","","24.1","","100.31","","","","","","Cloudy"
"-61.68","56.55","NAIN A","8502801","2021-08-12 15:00","2021","08","12","15:00","17.9","","15.8","","87","","","","12","","6","","24.1","","100.25","","","","","","NA"
"-61.68","56.55","NAIN A","8502801","2021-08-12 16:00","2021","08","12","16:00","19.1","","17.0","","87","","","","6","","6","","24.1","","100.22","","","","","","NA"
"-61.68","56.55","NAIN A","8502801","2021-08-12 17:00","2021","08","12","17:00","18.6","","16.1","","85","","","","36","","1","","24.1","","100.19","","","","","","Cloudy"
"-61.68","56.55","NAIN A","8502801","2021-08-12 18:00","2021","08","12","18:00","21.4","","17.3","","77","","","","28","","4","","24.1","","100.15","","27","","","","NA"
"-61.68","56.55","NAIN A","8502801","2021-08-12 19:00","2021","08","12","19:00","22.6","","18.7","","78","","","","21","","9","","24.1","","100.13","","29","","","","NA"
"-61.68","56.55","NAIN A","8502801","2021-08-12 20:00","2021","08","12","20:00"
"-61.68","56.55","NAIN A","8502801","2021-08-12 21:00","2021","08","12","21:00"
"-61.68","56.55","NAIN A","8502801","2021-08-12 22:00","2021","08","12","22:00"
"-61.68","56.55","NAIN A","8502801","2021-08-12 23:00","2021","08","12","23:00"
"-61.68","56.55","NAIN A","8502801","2021-08-13 00:00","2021","08","13","00:00"
"-61.68","56.55","NAIN A","8502801","2021-08-13 01:00","2021","08","13","01:00"
"-61.68","56.55","NAIN A","8502801","2021-08-13 02:00","2021","08","13","02:00"
"-61.68","56.55","NAIN A","8502801","2021-08-13 03:00","2021","08","13","03:00"
"-61.68","56.55","NAIN A","8502801","2021-08-13 04:00","2021","08","13","04:00","21.8","","18.1","","79","","","","24","","13","","24.1","","100.05","","28","","","","NA"
"-61.68","56.55","NAIN A","8502801","2021-08-13 05:00","2021","08","13","05:00","18.6","","16.2","","86","","","","11","","6","","24.1","","100.03","","","","","","Mostly Cloudy"
"-61.68","56.55","NAIN A","8502801","2021-08-13 06:00","2021","08","13","06:00","19.1","","17.2","","88","","","","36","","3","","24.1","","100.09","","","","","","NA"
"-61.68","56.55","NAIN A","8502801","2021-08-13 07:00","2021","08","13","07:00","20.2","","17.6","","85","","","","9","","6","","24.1","","100.10","","26","","","","NA"
"-61.68","56.55","NAIN A","8502801","2021-08-13 08:00","2021","08","13","08:00","21.6","","18.7","","83","","","","27","","9","","24.1","","100.13","","28","","","","Rain Showers"
"-61.68","56.55","NAIN A","8502801","2021-08-13 09:00","2021","08","13","09:00","21.0","","19.6","","92","","","","22","","5","","24.1","","100.13","","28","","","","Rain Showers"
"-61.68","56.55","NAIN A","8502801","2021-08-13 10:00","2021","08","13","10:00","19.7","","18.0","","90","","","","13","","3","","24.1","","100.17","","","","","","NA"
"-61.68","56.55","NAIN A","8502801","2021-08-13 11:00","2021","08","13","11:00","25.2","","20.2","","73","","","","24","","7","","24.1","","100.15","","33","","","","Mostly Cloudy"
"-61.68","56.55","NAIN A","8502801","2021-08-13 12:00","2021","08","13","12:00","27.5","","18.9","","59","","","","21","","14","","24.1","","100.14","","34","","","","NA"
"-61.68","56.55","NAIN A","8502801","2021-08-13 13:00","2021","08","13","13:00","28.3","","16.1","","47","","","","23","","15","","24.1","","100.11","","33","","","","NA"
"-61.68","56.55","NAIN A","8502801","2021-08-13 14:00","2021","08","13","14:00","29.7","","14.9","","40","","","","25","","9","","24.1","","100.12","","34","","","","Mainly Clear"
"-61.68","56.55","NAIN A","8502801","2021-08-13 15:00","2021","08","13","15:00","29.3","","14.6","","40","","","","28","","26","","24.1","","100.15","","33","","","","NA"
"-61.68","56.55","NAIN A","8502801","2021-08-13 16:00","2021","08","13","16:00","27.9","","16.1","","48","","","","27","","10","","24.1","","100.21","","33","","","","NA"
"-61.68","56.55","NAIN A","8502801","2021-08-13 17:00","2021","08","13","17:00","28.1","","15.3","","45","","","","25","","10","","24.1","","100.26","","32","","","","Mostly Cloudy"
"-61.68","56.55","NAIN A","8502801","2021-08-13 18:00","2021","08","13","18:00","27.0","","14.6","","46","","","","27","","23","","24.1","","100.33","","31","","","","NA"
"-61.68","56.55","NAIN A","8502801","2021-08-13 19:00","2021","08","13","19:00","25.2","","11.9","","43","","","","26","","18","","24.1","","100.42","","27","","","","NA"
"-61.68","56.55","NAIN A","8502801","2021-08-13 20:00","2021","08","13","20:00"
"-61.68","56.55","NAIN A","8502801","2021-08-13 21:00","2021","08","13","21:00"
"-61.68","56.55","NAIN A","8502801","2021-08-13 22:00","2021","08","13","22:00"
"-61.68","56.55","NAIN A","8502801","2021-08-13 23:00","2021","08","13","23:00"
"-61.68","56.55","NAIN A","8502801","2021-08-14 00:00","2021","08","14","00:00"
"-61.68","56.55","NAIN A","8502801","2021-08-14 01:00","2021","08","14","01:00"
"-61.68","56.55","NAIN A","8502801","2021-08-14 02:00","2021","08","14","02:00"
"-61.68","56.55","NAIN A","8502801","2021-08-14 03:00","2021","08","14","03:00"
"-61.68","56.55","NAIN A","8502801","2021-08-14 04:00","2021","08","14","04:00","14.7","","10.6","","76","","","","25","","7","","24.1","","100.99","","","","","","NA"
"-61.68","56.55","NAIN A","8502801","2021-08-14 05:00","2021","08","14","05:00","15.3","","10.3","","72","","","","34","","4","","24.1","","101.03","","","","","","Clear"
"-61.68","56.55","NAIN A","8502801","2021-08-14 06:00","2021","08","14","06:00","16.1","","10.7","","70","","","","6","","5","","24.1","","101.09","","","","","","NA"
"-61.68","56.55","NAIN A","8502801","2021-08-14 07:00","2021","08","14","07:00","15.7","","10.3","","70","","","","12","","14","","24.1","","101.12","","","","","","NA"
"-61.68","56.55","NAIN A","8502801","2021-08-14 08:00","2021","08","14","08:00","16.3","","11.8","","74","","","","21","","7","","24.1","","101.14","","","","","","Mostly Cloudy"
"-61.68","56.55","NAIN A","8502801","2021-08-14 09:00","2021","08","14","09:00","15.3","","11.0","","75","","","","36","","3","","24.1","","101.15","","","","","","NA"
"-61.68","56.55","NAIN A","8502801","2021-08-14 10:00","2021","08","14","10:00","16.0","","10.9","","72","","","","11","","8","","24.1","","101.16","","","","","","NA"
"-61.68","56.55","NAIN A","8502801","2021-08-14 11:00","2021","08","14","11:00","14.4","","10.4","","77","","","","29","","4","","24.1","","101.12","","","","","","Mostly Cloudy"
"-61.68","56.55","NAIN A","8502801","2021-08-14 12:00","2021","08","14","12:00","16.4","","11.2","","71","","","","36","","2","","24.1","","101.15","","","","","","NA"
"-61.68","56.55","NAIN A","8502801","2021-08-14 13:00","2021","08","14","13:00","14.5","","10.7","","78","","","","3","","5","","24.1","","101.14","","","","","","NA"
"-61.68","56.55","NAIN A","8502801","2021-08-14 14:00","2021","08","14","14:00","15.6","","11.5","","76","","","","15","","7","","24.1","","101.12","","","","","","Rain Showers"
"-61.68","56.55","NAIN A","8502801","2021-08-14 15:00","2021","08","14","15:00","13.6","","11.2","","85","","","","34","","7","","24.1","","101.11","","","","","","Rain Showers"
"-61.68","56.55","NAIN A","8502801","2021-08-14 16:00","2021","08","14","16:00","14.7","","13.1","","90","","","","36","","3","","24.1","","101.16","","","","","","Rain Showers"
"-61.68","56.55","NAIN A","8502801","2021-08-14 17:00","2021","08","14","17:00","14.9","","13.0","","88","","","","28","","9","","24.1","","101.17","","","","","","Cloudy"
"-61.68","56.55","NAIN A","8502801","2021-08-14 18:00","2021","08","14","18:00","12.5","","11.3","","93","","","","3","","11","","24.1","","101.08","","","","","","Rain Showers"
"-61.68","56.55","NAIN A","8502801","2021-08-14 19:00","2021","08","14","19:00","13.0","","11.7","","92","","","","6","","4","","24.1","","101.14","","","","","","NA"
"-61.68","56.55","NAIN A","8502801","2021-08-14 20:00","2021","08","14","20:00"
"-61.68","56.55","NAIN A","8502801","2021-08-14 21:00","2021","08","14","21:00"
"-61.68","56.55","NAIN A","8502801","2021-08-14 22:00","2021","08","14","22:00"
"-61.68","56.55","NAIN A","8502801","2021-08-14 23:00","2021","08","14","23:00"
"-61.68","56.55","NAIN A","8502801","2021-08-15 00:00","2021","08","15","00:00"
"-61.68","56.55","NAIN A","8502801","2021-08-15 01:00","2021","08","15","01:00"
"-61.68","56.55","NAIN A","8502801","2021-08-15 02:00","2021","08","15","02:00"
"-61.68","56.55","NAIN A","8502801","2021-08-15 03:00","2021","08","15","03:00"
"-61.68","56.55","NAIN A","8502801","2021-08-15 04:00","2021","08","15","04:00","12.1","","11.2","","94","","","","30","","9","","24.1","","101.11","","","","","","NA"
"-61.68","56.55","NAIN A","8502801","2021-08-15 05:00","2021","08","15","05:00","13.5","","10.9","","84","","","","28","","16","","24.1","","101.14","","","","","","Mostly Cloudy"
"-61.68","56.55","NAIN A","8502801","2021-08-15 06:00","2021","08","15","06:00","14.1","","9.8","","75","","","","30","","18","","24.1","","101.11","","","","","","NA"
"-61.68","56.55","NAIN A","8502801","2021-08-15 07:00","2021","08","15","07:00","14.1","","9.7","","75","","","","33","","14","","24.1","","101.16","","","","","","NA"
"-61.68","56.55","NAIN A","8502801","2021-08-15 08:00","2021","08","15","08:00","14.2","","9.3","","72","","","","31","","22","","24.1","","101.13","","","","","","Mostly Cloudy"
"-61.68","56.55","NAIN A","8502801","2021-08-15 09:00","2021","08","15","09:00","14.8","","9.4","","70","","","","30","","15","","24.1","","101.19","","","","","","NA"
"-61.68","56.55","NAIN A","8502801","2021-08-15 10:00","2021","08","15","10:00","13.2","","10.6","","84","","","","36","","2","","24.1","","101.22","","","","","","NA"
"-61.68","56.55","NAIN A","8502801","2021-08-15 11:00","2021","08","15","11:00","12.4","","9.5","","82","","","","8","","15","","24.1","","101.21","","","","","","Mainly Clear"
"-61.68","56.55","NAIN A","8502801","2021-08-15 12:00","2021","08","15","12:00","14.8","","9.8","","72","","","","9","","17","","24.1","","101.20","","","","","","NA"
"-61.68","56.55","NAIN A","8502801","2021-08-15 13:00","2021","08","15","13:00","13.7","","7.6","","66","","","","9","","23","","24.1","","101.20","","","","","","NA"
"-61.68","56.55","NAIN A","8502801","2021-08-15 14:00","2021","08","15","14:00","13.7","","7.7","","67","","","","9","","21","","24.1","","101.21","","","","","","Mainly Clear"
"-61.68","56.55","NAIN A","8502801","2021-08-15 15:00","2021","08","15","15:00","13.8","","7.2","","64","","","","9","","22","","24.1","","101.17","","","","","","NA"
"-61.68","56.55","NAIN A","8502801","2021-08-15 16:00","2021","08","15","16:00","15.2","","7.1","","58","","","","10","","18","","24.1","","101.18","","","","","","NA"
"-61.68","56.55","NAIN A","8502801","2021-08-15 17:00","2021","08","15","17:00","12.9","","6.7","","66","","","","9","","23","","24.1","","101.17","","","","","","Clear"
"-61.68","56.55","NAIN A","8502801","2021-08-15 18:00","2021","08","15","18:00","12.5","","7.1","","70","","","","7","","9","","24.1","","101.19","","","","","","NA"
"-61.68","56.55","NAIN A","8502801","2021-08-15 19:00","2021","08","15","19:00","12.4","","6.2","","66","","","","7","","5","","24.1","","101.23","","","","","","NA"
"-61.68","56.55","NAIN A","8502801","2021-08-15 20:00","2021","08","15","20:00"
"-61.68","56.55","NAIN A","8502801","2021-08-15 21:00","2021","08","15","21:00"
"-61.68","56.55","NAIN A","8502801","2021-08-15 22:00","2021","08","15","22:00"
"-61.68","56.55","NAIN A","8502801","2021-08-15 23:00","2021","08","15","23:00"
"-61.68","56.55","NAIN A","8502801","2021-08-16 00:00","2021","08","16","00:00"
"-61.68","56.55","NAIN A","8502801","2021-08-16 01:00","2021","08","16","01:00"
"-61.68","56.55","NAIN A","8502801","2021-08-16 02:00","2021","08","16","02:00"
"-61.68","56.55","NAIN A","8502801","2021-08-16 03:00","2021","08","16","03:00"
"-61.68","56.55","NAIN A","8502801","2021-08-16 04:00","2021","08","16","04:00","10.1","","7.0","","81","","","","24","","7","","24.1","","101.18","","","","","","NA"
"-61.68","56.55","NAIN A","8502801","2021-08-16 05:00","2021","08","16","05:00","9.5","","6.7","","83","","","","36","","2","","24.1","","101.14","","","","","","Mainly Clear"
"-61.68","56.55","NAIN A","8502801","2021-08-16 06:00","2021","08","16","06:00","10.4","","7.6","","83","","","","18","","8","","24.1","","101.09","","","","","","NA"
"-61.68","56.55","NAIN A","8502801","2021-08-16 07:00","2021","08","16","07:00","11.9","","8.2","","78","","","","36","","1","","24.1","","101.04","","","","","","NA"
"-61.68","56.55","NAIN A","8502801","2021-08-16 08:00","2021","08","16","08:00","13.1","","7.8","","70","","","","12","","18","","24.1","","100.98","","","","","","Mainly Clear"
"-61.68","56.55","NAIN A","8502801","2021-08-16 09:00","2021","08","16","09:00","16.5","","9.0","","61","","","","10","","6","","24.1","","100.89","","","","","","NA"
"-61.68","56.55","NAIN A","8502801","2021-08-16 10:00","2021","08","16","10:00","18.3","","9.5","","56","","","","16","","13","","24.1","","100.80","","","","","","NA"
"-61.68","56.55","NAIN A","8502801","2021-08-16 11:00","2021","08","16","11:00","16.5","","10.1","","66","","","","13","","30","","24.1","","100.71","","","","","","Mostly Cloudy"
"-61.68","56.55","NAIN A","8502801","2021-08-16 12:00","2021","08","16","12:00","16.4","","9.7","","64","","","","13","","28","","24.1","","100.58","","","","","","NA"
"-61.68","56.55","NAIN A","8502801","2021-08-16 13:00","2021","08","16","13:00","19.4","","10.2","","55","","","","17","","21","","24.1","","100.44","","","","","","NA"
"-61.68","56.55","NAIN A","8502801","2021-08-16 14:00","2021","08","16","14:00","19.8","","10.3","","54","","","","22","","5","","24.1","","100.37","","","","","","Mostly Cloudy"
"-61.68","56.55","NAIN A","8502801","2021-08-16 15:00","2021","08","16","15:00","19.6","","10.3","","55","","","","20","","14","","24.1","","100.27","","","","","","NA"
"-61.68","56.55","NAIN A","8502801","2021-08-16 16:00","2021","08","16","16:00","20.8","","11.9","","56","","","","23","","15","","24.1","","100.22","","","","","","NA"
"-61.68","56.55","NAIN A","8502801","2021-08-16 17:00","2021","08","16","17:00","19.4","","12.5","","64","","","","19","","11","","24.1","","100.15","","","","","","Mostly Cloudy"
"-61.68","56.55","NAIN A","8502801","2021-08-16 18:00","2021","08","16","18:00","20.6","","13.5","","63","","","","25","","16","","24.1","","100.08","","","","","","NA"
"-61.68","56.55","NAIN A","8502801","2021-08-16 19:00","2021","08","16","19:00","20.0","","13.5","","66","","","","25","","18","","24.1","","100.05","","","","","","NA"
"-61.68","56.55","NAIN A","8502801","2021-08-16 20:00","2021","08","16","20:00"
"-61.68","56.55","NAIN A","8502801","2021-08-16 21:00","2021","08","16","21:00"
"-61.68","56.55","NAIN A","8502801","2021-08-16 22:00","2021","08","16","22:00"
"-61.68","56.55","NAIN A","8502801","2021-08-16 23:00","2021","08","16","23:00"
"-61.68","56.55","NAIN A","8502801","2021-08-17 00:00","2021","08","17","00:00"
"-61.68","56.55","NAIN A","8502801","2021-08-17 01:00","2021","08","17","01:00"
"-61.68","56.55","NAIN A","8502801","2021-08-17 02:00","2021","08","17","02:00"
"-61.68","56.55","NAIN A","8502801","2021-08-17 03:00","2021","08","17","03:00"
"-61.68","56.55","NAIN A","8502801","2021-08-17 04:00","2021","08","17","04:00","13.0","","6.6","","65","","","","29","","16","","24.1","","100.36","","","","","","NA"
"-61.68","56.55","NAIN A","8502801","2021-08-17 05:00","2021","08","17","05:00","11.8","","5.6","","66","","","","30","","21","","24.1","","100.45","","","","","","Mostly Cloudy"
"-61.68","56.55","NAIN A","8502801","2021-08-17 06:00","2021","08","17","06:00","12.1","","5.8","","66","","","","36","","1","","24.1","","100.46","","","","","","NA"
"-61.68","56.55","NAIN A","8502801","2021-08-17 07:00","2021","08","17","07:00","12.1","","5.3","","63","","","","29","","19","","24.1","","100.50","","","","","","NA"
"-61.68","56.55","NAIN A","8502801","2021-08-17 08:00","2021","08","17","08:00","12.9","","4.6","","57","","","","29","","35","","24.1","","100.54","","","","","","Mainly Clear"
"-61.68","56.55","NAIN A","8502801","2021-08-17 09:00","2021","08","17","09:00","13.5","","5.2","","57","","","","28","","23","","24.1","","100.48","","","","","","NA"
"-61.68","56.55","NAIN A","8502801","2021-08-17 10:00","2021","08","17","10:00","14.5","","5.6","","55","","","","29","","35","","24.1","","100.47","","","","","","NA"
"-61.68","56.55","NAIN A","8502801","2021-08-17 11:00","2021","08","17","11:00","14.3","","6.0","","57","","","","30","","39","","24.1","","100.49","","","","","","Mainly Clear"
"-61.68","56.55","NAIN A","8502801","2021-08-17 12:00","2021","08","17","12:00","14.8","","5.9","","55","","","","30","","36","","24.1","","100.48","","","","","","NA"
"-61.68","56.55","NAIN A","8502801","2021-08-17 13:00","2021","08","17","13:00","14.9","","5.4","","53","","","","30","","50","","24.1","","100.50","","","","","","NA"
"-61.68","56.55","NAIN A","8502801","2021-08-17 14:00","2021","08","17","14:00","14.8","","5.2","","53","","","","31","","47","","24.1","","100.51","","","","","","Mostly Cloudy"
"-61.68","56.55","NAIN A","8502801","2021-08-17 15:00","2021","08","17","15:00","14.4","","5.5","","54","","","","31","","47","","24.1","","100.61","","","","","","NA"
"-61.68","56.55","NAIN A","8502801","2021-08-17 16:00","2021","08","17","16:00","15.8","","5.8","","51","","","","30","","37","","24.1","","100.64","","","","","","NA"
"-61.68","56.55","NAIN A","8502801","2021-08-17 17:00","2021","08","17","17:00","14.9","","5.9","","54","","","","33","","25","","24.1","","100.63","","","","","","Mostly Cloudy"
"-61.68","56.55","NAIN A","8502801","2021-08-17 18:00","2021","08","17","18:00","14.0","","6.3","","60","","","","31","","14","","24.1","","100.66","","","","","","NA"
"-61.68","56.55","NAIN A","8502801","2021-08-17 19:00","2021","08","17","19:00","15.5","","6.1","","53","","","","24","","7","","24.1","","100.70","","","","","","NA"
"-61.68","56.55","NAIN A","8502801","2021-08-17 20:00","2021","08","17","20:00"
"-61.68","56.55","NAIN A","8502801","2021-08-17 21:00","2021","08","17","21:00"
"-61.68","56.55","NAIN A","8502801","2021-08-17 22:00","2021","08","17","22:00"
"-61.68","56.55","NAIN A","8502801","2021-08-17 23:00","2021","08","17","23:00"
"-61.68","56.55","NAIN A","8502801","2021-08-18 00:00","2021","08","18","00:00"
"-61.68","56.55","NAIN A","8502801","2021-08-18 01:00","2021","08","18","01:00"
"-61.68","56.55","NAIN A","8502801","2021-08-18 02:00","2021","08","18","02:00"
"-61.68","56.55","NAIN A","8502801","2021-08-18 03:00","2021","08","18","03:00"
"-61.68","56.55","NAIN A","8502801","2021-08-18 04:00","2021","08","18","04:00","13.9","","5.8","","58","","","","24","","17","","24.1","","100.86","","","","","","NA"
"-61.68","56.55","NAIN A","8502801","2021-08-18 05:00","2021","08","18","05:00","13.0","","6.7","","65","","","","23","","12","","24.1","","100.86","","","","","","Cloudy"
"-61.68","56.55","NAIN A","8502801","2021-08-18 06:00","2021","08","18","06:00","13.6","","6.9","","64","","","","21","","8","","24.1","","100.88","","","","","","NA"
"-61.68","56.55","NAIN A","8502801","2021-08-18 07:00","2021","08","18","07:00","13.5","","7.6","","67","","","","23","","19","","24.1","","100.84","","","","","","NA"
"-61.68","56.55","NAIN A","8502801","2021-08-18 08:00","2021","08","18","08:00","13.4","","8.2","","70","","","","19","","13","","24.1","","100.79","","","","","","Cloudy"
"-61.68","56.55","NAIN A","8502801","2021-08-18 09:00","2021","08","18","09:00","13.7","","8.9","","72","","","","23","","14","","24.1","","100.77","","","","","","NA"
"-61.68","56.55","NAIN A","8502801","2021-08-18 10:00","2021","08","18","10:00","15.2","","9.6","","69","","","","18","","9","","24.1","","100.69","","","","","","NA"
"-61.68","56.55","NAIN A","8502801","2021-08-18 11:00","2021","08","18","11:00","15.5","","9.6","","68","","","","23","","3","","24.1","","100.71","","","","","","Cloudy"
"-61.68","56.55","NAIN A","8502801","2021-08-18 12:00","2021","08","18","12:00","14.8","","9.6","","71","","","","18","","8","","24.1","","100.61","","","","","","NA"
"-61.68","56.55","NAIN A","8502801","2021-08-18 13:00","2021","08","18","13:00","14.6","","9.5","","71","","","","20","","14","","24.1","","100.58","","","","","","NA"
"-61.68","56.55","NAIN A","8502801","2021-08-18 14:00","2021","08","18","14:00","14.4","","10.0","","75","","","","19","","16","","24.1","","100.53","","","","","","Rain Showers"
"-61.68","56.55","NAIN A","8502801","2021-08-18 15:00","2021","08","18","15:00","13.3","","10.0","","80","","","","36","","3","","24.1","","100.51","","","","","","NA"
"-61.68","56.55","NAIN A","8502801","2021-08-18 16:00","2021","08","18","16:00","13.8","","11.8","","87","","","","20","","10","","24.1","","100.52","","","","","","Drizzle"
"-61.68","56.55","NAIN A","8502801","2021-08-18 17:00","2021","08","18","17:00","14.3","","12.5","","89","","","","23","","4","","24.1","","100.48","","","","","","Cloudy"
"-61.68","56.55","NAIN A","8502801","2021-08-18 18:00","2021","08","18","18:00","14.6","","12.4","","86","","","","24","","9","","24.1","","100.45","","","","","","Rain Showers"
"-61.68","56.55","NAIN A","8502801","2021-08-18 19:00","2021","08","18","19:00","11.2","","10.3","","94","","","","34","","3","","24.1","","100.46","","","","","","Rain Showers"
"-61.68","56.55","NAIN A","8502801","2021-08-18 20:00","2021","08","18","20:00"
"-61.68","56.55","NAIN A","8502801","2021-08-18 21:00","2021","08","18","21:00"
"-61.68","56.55","NAIN A","8502801","2021-08-18 22:00","2021","08","18","22:00"
"-61.68","56.55","NAIN A","8502801","2021-08-18 23:00","2021","08","18","23:00"
"-61.68","56.55","NAIN A","8502801","2021-08-19 00:00","2021","08","19","00:00"
"-61.68","56.55","NAIN A","8502801","2021-08-19 01:00","2021","08","19","01:00"
"-61.68","56.55","NAIN A","8502801","2021-08-19 02:00","2021","08","19","02:00"
"-61.68","56.55","NAIN A","8502801","2021-08-19 03:00","2021","08","19","03:00"
"-61.68","56.55","NAIN A","8502801","2021-08-19 04:00","2021","08","19","04:00","9.3","","9.0","","98","","","","30","","9","","3.2","","100.44","","","","","","Drizzle,Fog"
"-61.68","56.55","NAIN A","8502801","2021-08-19 05:00","2021","08","19","05:00","9.5","","9.4","","99","","","","30","","5","","4.8","","100.46","","","","","","Rain Showers,Drizzle,Fog"
"-61.68","56.55","NAIN A","8502801","2021-08-19 06:00","2021","08","19","06:00","9.9","","9.8","","100","","","","30","","5","","3.2","","100.50","","","","","","Rain Showers,Drizzle,Fog"
"-61.68","56.55","NAIN A","8502801","2021-08-19 07:00","2021","08","19","07:00","9.8","","9.8","","100","","","","21","","7","","24.1","","100.50","","","","","","Rain,Drizzle"
"-61.68","56.55","NAIN A","8502801","2021-08-19 08:00","2021","08","19","08:00","9.5","","9.4","","100","","","","36","","1","","24.1","","100.49","","","","","","Cloudy"
"-61.68","56.55","NAIN A","8502801","2021-08-19 09:00","2021","08","19","09:00","9.3","","9.3","","100","","","","36","","3","","24.1","","100.50","","","","","","NA"
"-61.68","56.55","NAIN A","8502801","2021-08-19 10:00","2021","08","19","10:00","11.0","","10.9","","99","","","","36","","2","","24.1","","100.49","","","","","","NA"
"-61.68","56.55","NAIN A","8502801","2021-08-19 11:00","2021","08","19","11:00","13.7","","8.3","","69","","","","29","","34","","24.1","","100.49","","","","","","Mostly Cloudy"
"-61.68","56.55","NAIN A","8502801","2021-08-19 12:00","2021","08","19","12:00","14.2","","7.9","","65","","","","30","","43","","24.1","","100.50","","","","","","NA"
"-61.68","56.55","NAIN A","8502801","2021-08-19 13:00","2021","08","19","13:00","15.3","","8.3","","63","","","","29","","34","","24.1","","100.52","","","","","","NA"
"-61.68","56.55","NAIN A","8502801","2021-08-19 14:00","2021","08","19","14:00","15.6","","8.9","","64","","","","29","","23","","24.1","","100.55","","","","","","Cloudy"
"-61.68","56.55","NAIN A","8502801","2021-08-19 15:00","2021","08","19","15:00","15.0","","8.4","","64","","","","29","","30","","24.1","","100.55","","","","","","NA"
"-61.68","56.55","NAIN A","8502801","2021-08-19 16:00","2021","08","19","16:00","14.2","","8.6","","69","","","","30","","19","","24.1","","100.59","","","","","","NA"
"-61.68","56.55","NAIN A","8502801","2021-08-19 17:00","2021","08","19","17:00","10.7","","8.1","","84","","","","6","","22","","24.1","","100.66","","","","","","Cloudy"
"-61.68","56.55","NAIN A","8502801","2021-08-19 18:00","2021","08","19","18:00","9.6","","8.0","","90","","","","33","","4","","24.1","","100.70","","","","","","NA"
"-61.68","56.55","NAIN A","8502801","2021-08-19 19:00","2021","08","19","19:00","8.9","","7.7","","92","","","","36","","7","","24.1","","100.70","","","","","","NA"
"-61.68","56.55","NAIN A","8502801","2021-08-19 20:00","2021","08","19","20:00"
"-61.68","56.55","NAIN A","8502801","2021-08-19 21:00","2021","08","19","21:00"
"-61.68","56.55","NAIN A","8502801","2021-08-19 22:00","2021","08","19","22:00"
"-61.68","56.55","NAIN A","8502801","2021-08-19 23:00","2021","08","19","23:00"
"-61.68","56.55","NAIN A","8502801","2021-08-20 00:00","2021","08","20","00:00"
"-61.68","56.55","NAIN A","8502801","2021-08-20 01:00","2021","08","20","01:00"
"-61.68","56.55","NAIN A","8502801","2021-08-20 02:00","2021","08","20","02:00"
"-61.68","56.55","NAIN A","8502801","2021-08-20 03:00","2021","08","20","03:00"
"-61.68","56.55","NAIN A","8502801","2021-08-20 04:00","2021","08","20","04:00","10.7","","6.3","","74","","","","30","","28","","24.1","","100.75","","","","","","NA"
"-61.68","56.55","NAIN A","8502801","2021-08-20 05:00","2021","08","20","05:00","10.7","","5.3","","69","","","","29","","26","","24.1","","100.80","","","","","","Mostly Cloudy"
"-61.68","56.55","NAIN A","8502801","2021-08-20 06:00","2021","08","20","06:00","10.5","","5.3","","70","","","","29","","27","","24.1","","100.83","","","","","","NA"
"-61.68","56.55","NAIN A","8502801","2021-08-20 07:00","2021","08","20","07:00","10.5","","5.2","","70","","","","30","","30","","24.1","","100.89","","","","","","NA"
"-61.68","56.55","NAIN A","8502801","2021-08-20 08:00","2021","08","20","08:00","10.3","","4.9","","69","","","","30","","34","","24.1","","100.95","","","","","","Mostly Cloudy"
"-61.68","56.55","NAIN A","8502801","2021-08-20 09:00","2021","08","20","09:00","10.7","","5.0","","68","","","","30","","27","","24.1","","100.99","","","","","","NA"
"-61.68","56.55","NAIN A","8502801","2021-08-20 10:00","2021","08","20","10:00","12.4","","6.2","","66","","","","31","","14","","24.1","","101.00","","","","","","NA"
"-61.68","56.55","NAIN A","8502801","2021-08-20 11:00","2021","08","20","11:00","11.1","","7.7","","79","","","","5","","12","","24.1","","101.03","","","","","","Mostly Cloudy"
"-61.68","56.55","NAIN A","8502801","2021-08-20 12:00","2021","08","20","12:00","11.5","","6.6","","72","","","","13","","5","","24.1","","101.02","","","","","","NA"
"-61.68","56.55","NAIN A","8502801","2021-08-20 13:00","2021","08","20","13:00","12.4","","6.8","","69","","","","14","","5","","24.1","","101.01","","","","","","NA"
"-61.68","56.55","NAIN A","8502801","2021-08-20 14:00","2021","08","20","14:00","14.2","","6.7","","60","","","","36","","2","","24.1","","101.01","","","","","","Mostly Cloudy"
"-61.68","56.55","NAIN A","8502801","2021-08-20 15:00","2021","08","20","15:00","14.9","","5.5","","53","","","","28","","29","","24.1","","101.01","","","","","","NA"
"-61.68","56.55","NAIN A","8502801","2021-08-20 16:00","2021","08","20","16:00","13.5","","4.8","","56","","","","30","","41","","24.1","","101.04","","","","","","NA"
"-61.68","56.55","NAIN A","8502801","2021-08-20 17:00","2021","08","20","17:00","13.2","","3.5","","52","","","","29","","41","","24.1","","101.06","","","","","","Mostly Cloudy"
"-61.68","56.55","NAIN A","8502801","2021-08-20 18:00","2021","08","20","18:00","12.8","","4.2","","56","","","","29","","23","","24.1","","101.05","","","","","","NA"
"-61.68","56.55","NAIN A","8502801","2021-08-20 19:00","2021","08","20","19:00","12.0","","4.6","","60","","","","29","","32","","24.1","","101.05","","","","","","NA"
"-61.68","56.55","NAIN A","8502801","2021-08-20 20:00","2021","08","20","20:00"
"-61.68","56.55","NAIN A","8502801","2021-08-20 21:00","2021","08","20","21:00"
"-61.68","56.55","NAIN A","8502801","2021-08-20 22:00","2021","08","20","22:00"
"-61.68","56.55","NAIN A","8502801","2021-08-20 23:00","2021","08","20","23:00"
"-61.68","56.55","NAIN A","8502801","2021-08-21 00:00","2021","08","21","00:00"
"-61.68","56.55","NAIN A","8502801","2021-08-21 01:00","2021","08","21","01:00"
"-61.68","56.55","NAIN A","8502801","2021-08-21 02:00","2021","08","21","02:00"
"-61.68","56.55","NAIN A","8502801","2021-08-21 03:00","2021","08","21","03:00"
"-61.68","56.55","NAIN A","8502801","2021-08-21 04:00","2021","08","21","04:00","6.8","","5.1","","89","","","","29","","3","","24.1","","101.41","","","","","","NA"
"-61.68","56.55","NAIN A","8502801","2021-08-21 05:00","2021","08","21","05:00","6.1","","4.9","","92","","","","29","","4","","24.1","","101.48","","","","","","Mostly Cloudy"
"-61.68","56.55","NAIN A","8502801","2021-08-21 06:00","2021","08","21","06:00","6.9","","5.5","","91","","","","29","","8","","24.1","","101.54","","","","","","NA"
"-61.68","56.55","NAIN A","8502801","2021-08-21 07:00","2021","08","21","07:00","8.9","","4.8","","76","","","","30","","12","","24.1","","101.56","","","","","","NA"
"-61.68","56.55","NAIN A","8502801","2021-08-21 08:00","2021","08","21","08:00","8.1","","5.3","","82","","","","35","","12","","24.1","","101.61","","","","","","Mostly Cloudy"
"-61.68","56.55","NAIN A","8502801","2021-08-21 09:00","2021","08","21","09:00","10.0","","4.9","","70","","","","31","","21","","24.1","","101.63","","","","","","NA"
"-61.68","56.55","NAIN A","8502801","2021-08-21 10:00","2021","08","21","10:00","11.2","","5.4","","67","","","","35","","16","","24.1","","101.62","","","","","","NA"
"-61.68","56.55","NAIN A","8502801","2021-08-21 11:00","2021","08","21","11:00","13.0","","4.4","","56","","","","31","","20","","24.1","","101.59","","","","","","Mostly Cloudy"
"-61.68","56.55","NAIN A","8502801","2021-08-21 12:00","2021","08","21","12:00","13.2","","3.5","","52","","","","29","","11","","24.1","","101.60","","","","","","NA"
"-61.68","56.55","NAIN A","8502801","2021-08-21 13:00","2021","08","21","13:00","13.9","","4.3","","52","","","","30","","13","","24.1","","101.61","","","","","","NA"
"-61.68","56.55","NAIN A","8502801","2021-08-21 14:00","2021","08","21","14:00","9.6","","6.0","","78","","","","8","","27","","24.1","","101.66","","","","","","Cloudy"
"-61.68","56.55","NAIN A","8502801","2021-08-21 15:00","2021","08","21","15:00","9.6","","5.9","","78","","","","8","","29","","24.1","","101.70","","","","","","NA"
"-61.68","56.55","NAIN A","8502801","2021-08-21 16:00","2021","08","21","16:00","9.3","","5.7","","78","","","","9","","28","","24.1","","101.72","","","","","","NA"
"-61.68","56.55","NAIN A","8502801","2021-08-21 17:00","2021","08","21","17:00","9.3","","5.3","","76","","","","9","","26","","24.1","","101.75","","","","","","Mostly Cloudy"
"-61.68","56.55","NAIN A","8502801","2021-08-21 18:00","2021","08","21","18:00","9.0","","5.2","","77","","","","8","","21","","24.1","","101.75","","","","","","NA"
"-61.68","56.55","NAIN A","8502801","2021-08-21 19:00","2021","08","21","19:00","7.6","","5.3","","85","","","","7","","18","","24.1","","101.78","","","","","","NA"
"-61.68","56.55","NAIN A","8502801","2021-08-21 20:00","2021","08","21","20:00"
"-61.68","56.55","NAIN A","8502801","2021-08-21 21:00","2021","08","21","21:00"
"-61.68","56.55","NAIN A","8502801","2021-08-21 22:00","2021","08","21","22:00"
"-61.68","56.55","NAIN A","8502801","2021-08-21 23:00","2021","08","21","23:00"
"-61.68","56.55","NAIN A","8502801","2021-08-22 00:00","2021","08","22","00:00"
"-61.68","56.55","NAIN A","8502801","2021-08-22 01:00","2021","08","22","01:00"
"-61.68","56.55","NAIN A","8502801","2021-08-22 02:00","2021","08","22","02:00"
"-61.68","56.55","NAIN A","8502801","2021-08-22 03:00","2021","08","22","03:00"
"-61.68","56.55","NAIN A","8502801","2021-08-22 04:00","2021","08","22","04:00","4.8","","3.8","","94","","","","30","","5","","24.1","","101.81","","","","","","NA"
"-61.68","56.55","NAIN A","8502801","2021-08-22 05:00","2021","08","22","05:00"
"-61.68","56.55","NAIN A","8502801","2021-08-22 06:00","2021","08","22","06:00"
"-61.68","56.55","NAIN A","8502801","2021-08-22 07:00","2021","08","22","07:00","7.0","","5.7","","91","","","","9","","3","","24.1","","101.78","","","","","","NA"
"-61.68","56.55","NAIN A","8502801","2021-08-22 08:00","2021","08","22","08:00","7.4","","5.7","","89","","","","3","","3","","24.1","","101.77","","","","","","Mostly Cloudy"
"-61.68","56.55","NAIN A","8502801","2021-08-22 09:00","2021","08","22","09:00","10.7","","6.5","","75","","","","17","","12","","24.1","","101.72","","","","","","NA"
"-61.68","56.55","NAIN A","8502801","2021-08-22 10:00","2021","08","22","10:00","11.0","","6.8","","75","","","","12","","18","","24.1","","101.65","","","","","","NA"
"-61.68","56.55","NAIN A","8502801","2021-08-22 11:00","2021","08","22","11:00","9.5","","6.7","","82","","","","5","","7","","24.1","","101.60","","","","","","Mostly Cloudy"
"-61.68","56.55","NAIN A","8502801","2021-08-22 12:00","2021","08","22","12:00","12.1","","7.3","","72","","","","12","","9","","24.1","","101.55","","","","","","NA"
"-61.68","56.55","NAIN A","8502801","2021-08-22 13:00","2021","08","22","13:00","12.8","","7.0","","68","","","","13","","25","","24.1","","101.44","","","","","","NA"
"-61.68","56.55","NAIN A","8502801","2021-08-22 14:00","2021","08","22","14:00","13.5","","7.6","","67","","","","13","","29","","24.1","","101.37","","","","","","Cloudy"
"-61.68","56.55","NAIN A","8502801","2021-08-22 15:00","2021","08","22","15:00","13.7","","7.5","","66","","","","13","","33","","24.1","","101.28","","","","","","NA"
"-61.68","56.55","NAIN A","8502801","2021-08-22 16:00","2021","08","22","16:00","13.9","","7.3","","64","","","","13","","33","","24.1","","101.17","","","","","","NA"
"-61.68","56.55","NAIN A","8502801","2021-08-22 17:00","2021","08","22","17:00","12.7","","7.0","","68","","","","13","","28","","24.1","","101.14","","","","","","Mostly Cloudy"
"-61.68","56.55","NAIN A","8502801","2021-08-22 18:00","2021","08","22","18:00","11.8","","7.0","","72","","","","14","","31","","24.1","","101.10","","","","","","NA"
"-61.68","56.55","NAIN A","8502801","2021-08-22 19:00","2021","08","22","19:00","11.3","","7.2","","76","","","","14","","27","","24.1","","101.01","","","","","","NA"
"-61.68","56.55","NAIN A","8502801","2021-08-22 20:00","2021","08","22","20:00"
"-61.68","56.55","NAIN A","8502801","2021-08-22 21:00","2021","08","22","21:00"
"-61.68","56.55","NAIN A","8502801","2021-08-22 22:00","2021","08","22","22:00"
"-61.68","56.55","NAIN A","8502801","2021-08-22 23:00","2021","08","22","23:00"
"-61.68","56.55","NAIN A","8502801","2021-08-23 00:00","2021","08","23","00:00"
"-61.68","56.55","NAIN A","8502801","2021-08-23 01:00","2021","08","23","01:00"
"-61.68","56.55","NAIN A","8502801","2021-08-23 02:00","2021","08","23","02:00"
"-61.68","56.55","NAIN A","8502801","2021-08-23 03:00","2021","08","23","03:00"
"-61.68","56.55","NAIN A","8502801","2021-08-23 04:00","2021","08","23","04:00","12.9","","9.5","","79","","","","30","","46","","24.1","","100.82","","","","","","NA"
"-61.68","56.55","NAIN A","8502801","2021-08-23 05:00","2021","08","23","05:00","12.8","","9.5","","80","","","","30","","40","","24.1","","100.90","","","","","","Mainly Clear"
"-61.68","56.55","NAIN A","8502801","2021-08-23 06:00","2021","08","23","06:00","12.8","","8.7","","76","","","","31","","37","","24.1","","100.98","","","","","","NA"
"-61.68","56.55","NAIN A","8502801","2021-08-23 07:00","2021","08","23","07:00","13.1","","7.7","","69","","","","29","","38","","24.1","","101.05","","","","","","NA"
"-61.68","56.55","NAIN A","8502801","2021-08-23 08:00","2021","08","23","08:00","13.2","","6.8","","65","","","","30","","27","","24.1","","101.18","","","","","","Mostly Cloudy"
"-61.68","56.55","NAIN A","8502801","2021-08-23 09:00","2021","08","23","09:00","13.6","","6.9","","64","","","","29","","27","","24.1","","101.20","","","","","","NA"
"-61.68","56.55","NAIN A","8502801","2021-08-23 10:00","2021","08","23","10:00","14.2","","6.8","","61","","","","29","","28","","24.1","","101.19","","","","","","NA"
"-61.68","56.55","NAIN A","8502801","2021-08-23 11:00","2021","08","23","11:00","14.6","","5.9","","56","","","","30","","33","","24.1","","101.20","","","","","","Mainly Clear"
"-61.68","56.55","NAIN A","8502801","2021-08-23 12:00","2021","08","23","12:00","15.4","","5.4","","51","","","","30","","32","","24.1","","101.21","","","","","","NA"
"-61.68","56.55","NAIN A","8502801","2021-08-23 13:00","2021","08","23","13:00","15.9","","5.8","","51","","","","30","","31","","24.1","","101.18","","","","","","NA"
"-61.68","56.55","NAIN A","8502801","2021-08-23 14:00","2021","08","23","14:00","16.7","","6.1","","49","","","","31","","32","","24.1","","101.19","","","","","","Mainly Clear"
"-61.68","56.55","NAIN A","8502801","2021-08-23 15:00","2021","08","23","15:00","16.4","","6.5","","52","","","","31","","31","","24.1","","101.20","","","","","","NA"
"-61.68","56.55","NAIN A","8502801","2021-08-23 16:00","2021","08","23","16:00","15.7","","6.1","","53","","","","32","","26","","24.1","","101.20","","","","","","NA"
"-61.68","56.55","NAIN A","8502801","2021-08-23 17:00","2021","08","23","17:00","15.7","","6.2","","53","","","","31","","21","","24.1","","101.21","","","","","","Clear"
"-61.68","56.55","NAIN A","8502801","2021-08-23 18:00","2021","08","23","18:00","12.9","","6.1","","63","","","","34","","14","","24.1","","101.21","","","","","","NA"
"-61.68","56.55","NAIN A","8502801","2021-08-23 19:00","2021","08","23","19:00","14.8","","6.5","","57","","","","29","","10","","24.1","","101.21","","","","","","NA"
"-61.68","56.55","NAIN A","8502801","2021-08-23 20:00","2021","08","23","20:00"
"-61.68","56.55","NAIN A","8502801","2021-08-23 21:00","2021","08","23","21:00"
"-61.68","56.55","NAIN A","8502801","2021-08-23 22:00","2021","08","23","22:00"
"-61.68","56.55","NAIN A","8502801","2021-08-23 23:00","2021","08","23","23:00"
"-61.68","56.55","NAIN A","8502801","2021-08-24 00:00","2021","08","24","00:00"
"-61.68","56.55","NAIN A","8502801","2021-08-24 01:00","2021","08","24","01:00"
"-61.68","56.55","NAIN A","8502801","2021-08-24 02:00","2021","08","24","02:00"
"-61.68","56.55","NAIN A","8502801","2021-08-24 03:00","2021","08","24","03:00"
"-61.68","56.55","NAIN A","8502801","2021-08-24 04:00","2021","08","24","04:00","7.7","","5.4","","85","","","","29","","6","","24.1","","100.99","","","","","","NA"
"-61.68","56.55","NAIN A","8502801","2021-08-24 05:00","2021","08","24","05:00","7.3","","5.4","","87","","","","34","","5","","24.1","","100.95","","","","","","Mostly Cloudy"
"-61.68","56.55","NAIN A","8502801","2021-08-24 06:00","2021","08","24","06:00","7.9","","6.0","","87","","","","17","","5","","24.1","","100.91","","","","","","NA"
"-61.68","56.55","NAIN A","8502801","2021-08-24 07:00","2021","08","24","07:00","7.9","","6.1","","88","","","","11","","3","","24.1","","100.90","","","","","","NA"
"-61.68","56.55","NAIN A","8502801","2021-08-24 08:00","2021","08","24","08:00","8.9","","6.9","","87","","","","16","","4","","24.1","","100.85","","","","","","Cloudy"
"-61.68","56.55","NAIN A","8502801","2021-08-24 09:00","2021","08","24","09:00","10.3","","7.2","","81","","","","17","","7","","24.1","","100.81","","","","","","NA"
"-61.68","56.55","NAIN A","8502801","2021-08-24 10:00","2021","08","24","10:00","10.3","","7.0","","80","","","","35","","17","","24.1","","100.78","","","","","","NA"
"-61.68","56.55","NAIN A","8502801","2021-08-24 11:00","2021","08","24","11:00","12.3","","8.2","","76","","","","8","","4","","24.1","","100.71","","","","","","Mostly Cloudy"
"-61.68","56.55","NAIN A","8502801","2021-08-24 12:00","2021","08","24","12:00","12.6","","8.0","","73","","","","13","","10","","24.1","","100.66","","","","","","NA"
"-61.68","56.55","NAIN A","8502801","2021-08-24 13:00","2021","08","24","13:00","12.3","","7.7","","73","","","","9","","14","","24.1","","100.62","","","","","","NA"
"-61.68","56.55","NAIN A","8502801","2021-08-24 14:00","2021","08","24","14:00","12.9","","7.9","","71","","","","16","","6","","24.1","","100.57","","","","","","Mostly Cloudy"
"-61.68","56.55","NAIN A","8502801","2021-08-24 15:00","2021","08","24","15:00","12.1","","8.5","","79","","","","6","","9","","24.1","","100.56","","","","","","NA"
"-61.68","56.55","NAIN A","8502801","2021-08-24 16:00","2021","08","24","16:00","13.1","","9.1","","76","","","","36","","2","","24.1","","100.54","","","","","","NA"
"-61.68","56.55","NAIN A","8502801","2021-08-24 17:00","2021","08","24","17:00","11.9","","9.0","","82","","","","26","","3","","24.1","","100.55","","","","","","Mainly Clear"
"-61.68","56.55","NAIN A","8502801","2021-08-24 18:00","2021","08","24","18:00","11.1","","9.0","","87","","","","27","","4","","24.1","","100.59","","","","","","NA"
"-61.68","56.55","NAIN A","8502801","2021-08-24 19:00","2021","08","24","19:00","9.8","","8.5","","91","","","","36","","4","","24.1","","100.62","","","","","","NA"
"-61.68","56.55","NAIN A","8502801","2021-08-24 20:00","2021","08","24","20:00"
"-61.68","56.55","NAIN A","8502801","2021-08-24 21:00","2021","08","24","21:00"
"-61.68","56.55","NAIN A","8502801","2021-08-24 22:00","2021","08","24","22:00"
"-61.68","56.55","NAIN A","8502801","2021-08-24 23:00","2021","08","24","23:00"
"-61.68","56.55","NAIN A","8502801","2021-08-25 00:00","2021","08","25","00:00"
"-61.68","56.55","NAIN A","8502801","2021-08-25 01:00","2021","08","25","01:00"
"-61.68","56.55","NAIN A","8502801","2021-08-25 02:00","2021","08","25","02:00"
"-61.68","56.55","NAIN A","8502801","2021-08-25 03:00","2021","08","25","03:00"
"-61.68","56.55","NAIN A","8502801","2021-08-25 04:00","2021","08","25","04:00","12.2","","6.7","","69","","","","29","","23","","24.1","","100.90","","","","","","Rain Showers"
"-61.68","56.55","NAIN A","8502801","2021-08-25 05:00","2021","08","25","05:00","11.8","","6.3","","69","","","","29","","16","","24.1","","100.95","","","","","","Cloudy"
"-61.68","56.55","NAIN A","8502801","2021-08-25 06:00","2021","08","25","06:00","10.7","","6.2","","74","","","","29","","19","","24.1","","101.01","","","","","","NA"
"-61.68","56.55","NAIN A","8502801","2021-08-25 07:00","2021","08","25","07:00","12.6","","5.8","","63","","","","29","","26","","24.1","","101.08","","","","","","NA"
"-61.68","56.55","NAIN A","8502801","2021-08-25 08:00","2021","08","25","08:00","13.4","","6.6","","63","","","","30","","26","","24.1","","101.13","","","","","","Mostly Cloudy"
"-61.68","56.55","NAIN A","8502801","2021-08-25 09:00","2021","08","25","09:00","13.6","","7.1","","65","","","","30","","22","","24.1","","101.17","","","","","","NA"
"-61.68","56.55","NAIN A","8502801","2021-08-25 10:00","2021","08","25","10:00","13.2","","8.6","","73","","","","29","","18","","24.1","","101.23","","","","","","NA"
"-61.68","56.55","NAIN A","8502801","2021-08-25 11:00","2021","08","25","11:00","14.4","","7.2","","62","","","","33","","26","","24.1","","101.28","","","","","","Mostly Cloudy"
"-61.68","56.55","NAIN A","8502801","2021-08-25 12:00","2021","08","25","12:00","14.7","","8.2","","65","","","","2","","10","","24.1","","101.28","","","","","","NA"
"-61.68","56.55","NAIN A","8502801","2021-08-25 13:00","2021","08","25","13:00","15.2","","5.8","","53","","","","30","","45","","24.1","","101.30","","","","","","NA"
"-61.68","56.55","NAIN A","8502801","2021-08-25 14:00","2021","08","25","14:00","15.9","","5.1","","48","","","","30","","30","","24.1","","101.36","","","","","","Mostly Cloudy"
"-61.68","56.55","NAIN A","8502801","2021-08-25 15:00","2021","08","25","15:00","15.8","","2.4","","40","","","","30","","32","","24.1","","101.42","","","","","","NA"
"-61.68","56.55","NAIN A","8502801","2021-08-25 16:00","2021","08","25","16:00","14.3","","3.5","","48","","","","30","","39","","24.1","","101.47","","","","","","NA"
"-61.68","56.55","NAIN A","8502801","2021-08-25 17:00","2021","08","25","17:00","13.4","","3.6","","51","","","","30","","33","","24.1","","101.55","","","","","","Mostly Cloudy"
"-61.68","56.55","NAIN A","8502801","2021-08-25 18:00","2021","08","25","18:00","13.9","","4.1","","51","","","","29","","26","","24.1","","101.61","","","","","","NA"
"-61.68","56.55","NAIN A","8502801","2021-08-25 19:00","2021","08","25","19:00","12.9","","4.0","","55","","","","29","","26","","24.1","","101.67","","","","","","NA"
"-61.68","56.55","NAIN A","8502801","2021-08-25 20:00","2021","08","25","20:00"
"-61.68","56.55","NAIN A","8502801","2021-08-25 21:00","2021","08","25","21:00"
"-61.68","56.55","NAIN A","8502801","2021-08-25 22:00","2021","08","25","22:00"
"-61.68","56.55","NAIN A","8502801","2021-08-25 23:00","2021","08","25","23:00"
"-61.68","56.55","NAIN A","8502801","2021-08-26 00:00","2021","08","26","00:00"
"-61.68","56.55","NAIN A","8502801","2021-08-26 01:00","2021","08","26","01:00"
"-61.68","56.55","NAIN A","8502801","2021-08-26 02:00","2021","08","26","02:00"
"-61.68","56.55","NAIN A","8502801","2021-08-26 03:00","2021","08","26","03:00"
"-61.68","56.55","NAIN A","8502801","2021-08-26 04:00","2021","08","26","04:00","8.9","","3.4","","69","","","","28","","14","","24.1","","101.83","","","","","","NA"
"-61.68","56.55","NAIN A","8502801","2021-08-26 05:00","2021","08","26","05:00","8.7","","3.7","","71","","","","27","","11","","24.1","","101.85","","","","","","Mostly Cloudy"
"-61.68","56.55","NAIN A","8502801","2021-08-26 06:00","2021","08","26","06:00","8.4","","4.0","","74","","","","36","","3","","24.1","","101.87","","","","","","NA"
"-61.68","56.55","NAIN A","8502801","2021-08-26 07:00","2021","08","26","07:00","9.1","","4.8","","75","","","","11","","4","","24.1","","101.90","","","","","","NA"
"-61.68","56.55","NAIN A","8502801","2021-08-26 08:00","2021","08","26","08:00","9.1","","4.4","","72","","","","30","","16","","24.1","","101.87","","","","","","Mostly Cloudy"
"-61.68","56.55","NAIN A","8502801","2021-08-26 09:00","2021","08","26","09:00","10.7","","5.3","","69","","","","32","","15","","24.1","","101.81","","","","","","NA"
"-61.68","56.55","NAIN A","8502801","2021-08-26 10:00","2021","08","26","10:00","9.7","","4.5","","70","","","","36","","9","","24.1","","101.78","","","","","","NA"
"-61.68","56.55","NAIN A","8502801","2021-08-26 11:00","2021","08","26","11:00","11.1","","5.2","","67","","","","1","","13","","24.1","","101.77","","","","","","Mostly Cloudy"
"-61.68","56.55","NAIN A","8502801","2021-08-26 12:00","2021","08","26","12:00","11.4","","3.9","","60","","","","11","","5","","24.1","","101.70","","","","","","NA"
"-61.68","56.55","NAIN A","8502801","2021-08-26 13:00","2021","08","26","13:00","12.7","","4.5","","57","","","","11","","8","","24.1","","101.66","","","","","","NA"
"-61.68","56.55","NAIN A","8502801","2021-08-26 14:00","2021","08","26","14:00","12.4","","5.6","","63","","","","10","","11","","24.1","","101.62","","","","","","Mostly Cloudy"
"-61.68","56.55","NAIN A","8502801","2021-08-26 15:00","2021","08","26","15:00","10.6","","5.7","","71","","","","8","","18","","24.1","","101.58","","","","","","NA"
"-61.68","56.55","NAIN A","8502801","2021-08-26 16:00","2021","08","26","16:00","9.6","","5.2","","74","","","","8","","27","","24.1","","101.57","","","","","","NA"
"-61.68","56.55","NAIN A","8502801","2021-08-26 17:00","2021","08","26","17:00","9.4","","5.2","","75","","","","8","","23","","24.1","","101.60","","","","","","Mostly Cloudy"
"-61.68","56.55","NAIN A","8502801","2021-08-26 18:00","2021","08","26","18:00","8.4","","5.2","","80","","","","9","","16","","24.1","","101.64","","","","","","NA"
"-61.68","56.55","NAIN A","8502801","2021-08-26 19:00","2021","08","26","19:00","7.9","","5.4","","84","","","","9","","19","","24.1","","101.59","","","","","","NA"
"-61.68","56.55","NAIN A","8502801","2021-08-26 20:00","2021","08","26","20:00"
"-61.68","56.55","NAIN A","8502801","2021-08-26 21:00","2021","08","26","21:00"
"-61.68","56.55","NAIN A","8502801","2021-08-26 22:00","2021","08","26","22:00"
"-61.68","56.55","NAIN A","8502801","2021-08-26 23:00","2021","08","26","23:00"
"-61.68","56.55","NAIN A","8502801","2021-08-27 00:00","2021","08","27","00:00"
"-61.68","56.55","NAIN A","8502801","2021-08-27 01:00","2021","08","27","01:00"
"-61.68","56.55","NAIN A","8502801","2021-08-27 02:00","2021","08","27","02:00"
"-61.68","56.55","NAIN A","8502801","2021-08-27 03:00","2021","08","27","03:00"
"-61.68","56.55","NAIN A","8502801","2021-08-27 04:00","2021","08","27","04:00","6.6","","5.4","","92","","","","2","","14","","24.1","","101.52","","","","","","NA"
"-61.68","56.55","NAIN A","8502801","2021-08-27 05:00","2021","08","27","05:00","6.6","","5.4","","92","","","","2","","11","","24.1","","101.51","","","","","","Cloudy"
"-61.68","56.55","NAIN A","8502801","2021-08-27 06:00","2021","08","27","06:00","7.2","","5.4","","89","","","","35","","10","","24.1","","101.55","","","","","","NA"
"-61.68","56.55","NAIN A","8502801","2021-08-27 07:00","2021","08","27","07:00","7.8","","5.5","","85","","","","6","","7","","24.1","","101.58","","","","","","NA"
"-61.68","56.55","NAIN A","8502801","2021-08-27 08:00","2021","08","27","08:00","8.2","","5.8","","85","","","","5","","3","","24.1","","101.59","","","","","","Mostly Cloudy"
"-61.68","56.55","NAIN A","8502801","2021-08-27 09:00","2021","08","27","09:00","8.9","","5.4","","79","","","","7","","6","","24.1","","101.62","","","","","","NA"
"-61.68","56.55","NAIN A","8502801","2021-08-27 10:00","2021","08","27","10:00","10.5","","6.2","","74","","","","33","","4","","24.1","","101.63","","","","","","NA"
"-61.68","56.55","NAIN A","8502801","2021-08-27 11:00","2021","08","27","11:00","11.5","","5.7","","67","","","","15","","7","","24.1","","101.63","","","","","","Mostly Cloudy"
"-61.68","56.55","NAIN A","8502801","2021-08-27 12:00","2021","08","27","12:00","13.0","","5.1","","59","","","","14","","7","","24.1","","101.61","","","","","","NA"
"-61.68","56.55","NAIN A","8502801","2021-08-27 13:00","2021","08","27","13:00","13.4","","4.4","","54","","","","12","","9","","24.1","","101.62","","","","","","NA"
"-61.68","56.55","NAIN A","8502801","2021-08-27 14:00","2021","08","27","14:00","11.3","","5.0","","65","","","","8","","21","","24.1","","101.62","","","","","","Mostly Cloudy"
"-61.68","56.55","NAIN A","8502801","2021-08-27 15:00","2021","08","27","15:00","12.0","","5.8","","66","","","","10","","13","","24.1","","101.63","","","","","","NA"
"-61.68","56.55","NAIN A","8502801","2021-08-27 16:00","2021","08","27","16:00","10.6","","5.5","","70","","","","10","","17","","24.1","","101.63","","","","","","NA"
"-61.68","56.55","NAIN A","8502801","2021-08-27 17:00","2021","08","27","17:00","10.6","","5.6","","71","","","","8","","14","","24.1","","101.63","","","","","","Mainly Clear"
"-61.68","56.55","NAIN A","8502801","2021-08-27 18:00","2021","08","27","18:00","11.1","","5.8","","70","","","","30","","4","","24.1","","101.65","","","","","","NA"
"-61.68","56.55","NAIN A","8502801","2021-08-27 19:00","2021","08","27","19:00","10.5","","3.1","","60","","","","20","","8","","24.1","","101.70","","","","","","NA"
"-61.68","56.55","NAIN A","8502801","2021-08-27 20:00","2021","08","27","20:00"
"-61.68","56.55","NAIN A","8502801","2021-08-27 21:00","2021","08","27","21:00"
"-61.68","56.55","NAIN A","8502801","2021-08-27 22:00","2021","08","27","22:00"
"-61.68","56.55","NAIN A","8502801","2021-08-27 23:00","2021","08","27","23:00"
"-61.68","56.55","NAIN A","8502801","2021-08-28 00:00","2021","08","28","00:00"
"-61.68","56.55","NAIN A","8502801","2021-08-28 01:00","2021","08","28","01:00"
"-61.68","56.55","NAIN A","8502801","2021-08-28 02:00","2021","08","28","02:00"
"-61.68","56.55","NAIN A","8502801","2021-08-28 03:00","2021","08","28","03:00"
"-61.68","56.55","NAIN A","8502801","2021-08-28 04:00","2021","08","28","04:00","7.9","","5.3","","83","","","","36","","3","","24.1","","101.64","","","","","","NA"
"-61.68","56.55","NAIN A","8502801","2021-08-28 05:00","2021","08","28","05:00","8.8","","5.2","","78","","","","28","","5","","24.1","","101.69","","","","","","Mainly Clear"
"-61.68","56.55","NAIN A","8502801","2021-08-28 06:00","2021","08","28","06:00","11.4","","7.2","","76","","","","31","","20","","24.1","","101.73","","","","","","NA"
"-61.68","56.55","NAIN A","8502801","2021-08-28 07:00","2021","08","28","07:00","13.6","","7.6","","67","","","","30","","33","","24.1","","101.75","","","","","","NA"
"-61.68","56.55","NAIN A","8502801","2021-08-28 08:00","2021","08","28","08:00","14.6","","8.2","","65","","","","30","","36","","24.1","","101.79","","","","","","Clear"
"-61.68","56.55","NAIN A","8502801","2021-08-28 09:00","2021","08","28","09:00","15.1","","8.3","","63","","","","30","","33","","24.1","","101.81","","","","","","NA"
"-61.68","56.55","NAIN A","8502801","2021-08-28 10:00","2021","08","28","10:00","17.3","","8.9","","58","","","","30","","21","","24.1","","101.84","","","","","","NA"
"-61.68","56.55","NAIN A","8502801","2021-08-28 11:00","2021","08","28","11:00","17.5","","9.4","","59","","","","31","","24","","24.1","","101.81","","","","","","Mainly Clear"
"-61.68","56.55","NAIN A","8502801","2021-08-28 12:00","2021","08","28","12:00","18.5","","10.0","","57","","","","31","","18","","24.1","","101.82","","","","","","NA"
"-61.68","56.55","NAIN A","8502801","2021-08-28 13:00","2021","08","28","13:00","18.7","","9.3","","54","","","","29","","24","","24.1","","101.83","","","","","","NA"
"-61.68","56.55","NAIN A","8502801","2021-08-28 14:00","2021","08","28","14:00","19.4","","9.3","","52","","","","31","","28","","24.1","","101.84","","","","","","Mainly Clear"
"-61.68","56.55","NAIN A","8502801","2021-08-28 15:00","2021","08","28","15:00","19.3","","10.2","","55","","","","29","","30","","24.1","","101.86","","","","","","NA"
"-61.68","56.55","NAIN A","8502801","2021-08-28 16:00","2021","08","28","16:00","15.8","","8.1","","60","","","","36","","4","","24.1","","101.90","","","","","","NA"
"-61.68","56.55","NAIN A","8502801","2021-08-28 17:00","2021","08","28","17:00","11.1","","7.3","","77","","","","","","0","","24.1","","101.92","","","","","","Mainly Clear"
"-61.68","56.55","NAIN A","8502801","2021-08-28 18:00","2021","08","28","18:00","11.1","","7.2","","77","","","","2","","7","","24.1","","101.93","","","","","","NA"
"-61.68","56.55","NAIN A","8502801","2021-08-28 19:00","2021","08","28","19:00","9.8","","6.8","","82","","","","31","","5","","24.1","","101.95","","","","","","NA"
"-61.68","56.55","NAIN A","8502801","2021-08-28 20:00","2021","08","28","20:00"
"-61.68","56.55","NAIN A","8502801","2021-08-28 21:00","2021","08","28","21:00"
"-61.68","56.55","NAIN A","8502801","2021-08-28 22:00","2021","08","28","22:00"
"-61.68","56.55","NAIN A","8502801","2021-08-28 23:00","2021","08","28","23:00"
"-61.68","56.55","NAIN A","8502801","2021-08-29 00:00","2021","08","29","00:00"
"-61.68","56.55","NAIN A","8502801","2021-08-29 01:00","2021","08","29","01:00"
"-61.68","56.55","NAIN A","8502801","2021-08-29 02:00","2021","08","29","02:00"
"-61.68","56.55","NAIN A","8502801","2021-08-29 03:00","2021","08","29","03:00"
"-61.68","56.55","NAIN A","8502801","2021-08-29 04:00","2021","08","29","04:00","9.9","","6.7","","80","","","","12","","9","","24.1","","101.97","","","","","","NA"
"-61.68","56.55","NAIN A","8502801","2021-08-29 05:00","2021","08","29","05:00","12.9","","6.6","","66","","","","25","","4","","24.1","","102.00","","","","","","Mainly Clear"
"-61.68","56.55","NAIN A","8502801","2021-08-29 06:00","2021","08","29","06:00","10.1","","6.8","","80","","","","9","","7","","24.1","","102.03","","","","","","NA"
"-61.68","56.55","NAIN A","8502801","2021-08-29 07:00","2021","08","29","07:00","10.2","","6.9","","80","","","","16","","8","","24.1","","102.04","","","","","","NA"
"-61.68","56.55","NAIN A","8502801","2021-08-29 08:00","2021","08","29","08:00","12.2","","7.1","","71","","","","12","","10","","24.1","","102.06","","","","","","Mainly Clear"
"-61.68","56.55","NAIN A","8502801","2021-08-29 09:00","2021","08","29","09:00","13.0","","7.4","","69","","","","16","","7","","24.1","","102.02","","","","","","NA"
"-61.68","56.55","NAIN A","8502801","2021-08-29 10:00","2021","08","29","10:00","15.4","","7.6","","60","","","","15","","5","","24.1","","102.00","","","","","","NA"
"-61.68","56.55","NAIN A","8502801","2021-08-29 11:00","2021","08","29","11:00","15.8","","7.7","","58","","","","11","","5","","24.1","","101.94","","","","","","Mostly Cloudy"
"-61.68","56.55","NAIN A","8502801","2021-08-29 12:00","2021","08","29","12:00","19.2","","6.4","","43","","","","29","","15","","24.1","","101.88","","","","","","NA"
"-61.68","56.55","NAIN A","8502801","2021-08-29 13:00","2021","08","29","13:00","19.0","","5.4","","40","","","","30","","13","","24.1","","101.80","","","","","","NA"
"-61.68","56.55","NAIN A","8502801","2021-08-29 14:00","2021","08","29","14:00","18.2","","6.5","","46","","","","36","","3","","24.1","","101.75","","","","","","Mostly Cloudy"
"-61.68","56.55","NAIN A","8502801","2021-08-29 15:00","2021","08","29","15:00","18.7","","6.4","","44","","","","13","","8","","24.1","","101.72","","","","","","NA"
"-61.68","56.55","NAIN A","8502801","2021-08-29 16:00","2021","08","29","16:00","13.8","","7.3","","65","","","","30","","10","","24.1","","101.67","","","","","","NA"
"-61.68","56.55","NAIN A","8502801","2021-08-29 17:00","2021","08","29","17:00","15.2","","6.8","","57","","","","13","","27","","24.1","","101.62","","","","","","Mostly Cloudy"
"-61.68","56.55","NAIN A","8502801","2021-08-29 18:00","2021","08","29","18:00","13.9","","6.3","","60","","","","14","","23","","24.1","","101.60","","","","","","NA"
"-61.68","56.55","NAIN A","8502801","2021-08-29 19:00","2021","08","29","19:00","13.2","","6.2","","62","","","","12","","20","","24.1","","101.59","","","","","","NA"
"-61.68","56.55","NAIN A","8502801","2021-08-29 20:00","2021","08","29","20:00"
"-61.68","56.55","NAIN A","8502801","2021-08-29 21:00","2021","08","29","21:00"
"-61.68","56.55","NAIN A","8502801","2021-08-29 22:00","2021","08","29","22:00"
"-61.68","56.55","NAIN A","8502801","2021-08-29 23:00","2021","08","29","23:00"
"-61.68","56.55","NAIN A","8502801","2021-08-30 00:00","2021","08","30","00:00"
"-61.68","56.55","NAIN A","8502801","2021-08-30 01:00","2021","08","30","01:00"
"-61.68","56.55","NAIN A","8502801","2021-08-30 02:00","2021","08","30","02:00"
"-61.68","56.55","NAIN A","8502801","2021-08-30 03:00","2021","08","30","03:00"
"-61.68","56.55","NAIN A","8502801","2021-08-30 04:00","2021","08","30","04:00","8.1","","6.4","","89","","","","3","","4","","24.1","","101.27","","","","","","NA"
"-61.68","56.55","NAIN A","8502801","2021-08-30 05:00","2021","08","30","05:00","8.4","","6.6","","89","","","","0","","1","","24.1","","101.22","","","","","","Mostly Cloudy"
"-61.68","56.55","NAIN A","8502801","2021-08-30 06:00","2021","08","30","06:00","9.8","","6.4","","79","","","","36","","1","","24.1","","101.20","","","","","","NA"
"-61.68","56.55","NAIN A","8502801","2021-08-30 07:00","2021","08","30","07:00","8.6","","6.9","","89","","","","36","","1","","24.1","","101.17","","","","","","NA"
"-61.68","56.55","NAIN A","8502801","2021-08-30 08:00","2021","08","30","08:00","9.6","","6.6","","81","","","","36","","2","","24.1","","101.15","","","","","","Mostly Cloudy"
"-61.68","56.55","NAIN A","8502801","2021-08-30 09:00","2021","08","30","09:00","10.2","","7.0","","81","","","","30","","13","","24.1","","101.10","","","","","","NA"
"-61.68","56.55","NAIN A","8502801","2021-08-30 10:00","2021","08","30","10:00","11.9","","7.5","","74","","","","36","","3","","24.1","","101.06","","","","","","NA"
"-61.68","56.55","NAIN A","8502801","2021-08-30 11:00","2021","08","30","11:00","13.0","","8.4","","74","","","","7","","13","","24.1","","101.00","","","","","","Mainly Clear"
"-61.68","56.55","NAIN A","8502801","2021-08-30 12:00","2021","08","30","12:00","14.8","","7.9","","63","","","","8","","17","","24.1","","100.94","","","","","","NA"
"-61.68","56.55","NAIN A","8502801","2021-08-30 13:00","2021","08","30","13:00","13.0","","7.5","","69","","","","9","","30","","24.1","","100.87","","","","","","NA"
"-61.68","56.55","NAIN A","8502801","2021-08-30 14:00","2021","08","30","14:00","10.3","","7.3","","81","","","","9","","35","","24.1","","100.84","","","","","","Mostly Cloudy"
"-61.68","56.55","NAIN A","8502801","2021-08-30 15:00","2021","08","30","15:00","10.7","","7.2","","79","","","","9","","32","","24.1","","100.82","","","","","","NA"
"-61.68","56.55","NAIN A","8502801","2021-08-30 16:00","2021","08","30","16:00","10.2","","6.9","","80","","","","9","","25","","24.1","","100.82","","","","","","NA"
"-61.68","56.55","NAIN A","8502801","2021-08-30 17:00","2021","08","30","17:00","9.6","","6.8","","83","","","","8","","27","","24.1","","100.85","","","","","","Cloudy"
"-61.68","56.55","NAIN A","8502801","2021-08-30 18:00","2021","08","30","18:00","9.1","","6.3","","82","","","","10","","29","","24.1","","100.85","","","","","","NA"
"-61.68","56.55","NAIN A","8502801","2021-08-30 19:00","2021","08","30","19:00","7.9","","6.1","","89","","","","9","","28","","24.1","","100.91","","","","","","NA"
"-61.68","56.55","NAIN A","8502801","2021-08-30 20:00","2021","08","30","20:00"
"-61.68","56.55","NAIN A","8502801","2021-08-30 21:00","2021","08","30","21:00"
"-61.68","56.55","NAIN A","8502801","2021-08-30 22:00","2021","08","30","22:00"
"-61.68","56.55","NAIN A","8502801","2021-08-30 23:00","2021","08","30","23:00"
"-61.68","56.55","NAIN A","8502801","2021-08-31 00:00","2021","08","31","00:00"
"-61.68","56.55","NAIN A","8502801","2021-08-31 01:00","2021","08","31","01:00"
"-61.68","56.55","NAIN A","8502801","2021-08-31 02:00","2021","08","31","02:00"
"-61.68","56.55","NAIN A","8502801","2021-08-31 03:00","2021","08","31","03:00"
"-61.68","56.55","NAIN A","8502801","2021-08-31 04:00","2021","08","31","04:00","7.8","","6.7","","93","","","","12","","32","","24.1","","100.88","","","","","","NA"
"-61.68","56.55","NAIN A","8502801","2021-08-31 05:00","2021","08","31","05:00","7.7","","6.4","","91","","","","11","","29","","24.1","","100.90","","","","","","Cloudy"
"-61.68","56.55","NAIN A","8502801","2021-08-31 06:00","2021","08","31","06:00","7.8","","6.4","","91","","","","10","","27","","24.1","","100.90","","","","","","NA"
"-61.68","56.55","NAIN A","8502801","2021-08-31 07:00","2021","08","31","07:00","8.0","","6.2","","88","","","","9","","28","","24.1","","100.92","","","","","","NA"
"-61.68","56.55","NAIN A","8502801","2021-08-31 08:00","2021","08","31","08:00","7.8","","6.7","","93","","","","10","","28","","24.1","","100.96","","","","","","Cloudy"
"-61.68","56.55","NAIN A","8502801","2021-08-31 09:00","2021","08","31","09:00","8.0","","7.0","","93","","","","10","","36","","14.5","","100.98","","","","","","NA"
"-61.68","56.55","NAIN A","8502801","2021-08-31 10:00","2021","08","31","10:00","8.2","","6.9","","92","","","","10","","35","","20.9","","100.97","","","","","","NA"
"-61.68","56.55","NAIN A","8502801","2021-08-31 11:00","2021","08","31","11:00","8.0","","7.0","","94","","","","10","","38","","24.1","","101.00","","","","","","Rain Showers"
"-61.68","56.55","NAIN A","8502801","2021-08-31 12:00","2021","08","31","12:00","8.0","","6.7","","91","","","","10","","32","","24.1","","100.99","","","","","","NA"
"-61.68","56.55","NAIN A","8502801","2021-08-31 13:00","2021","08","31","13:00","8.0","","6.7","","91","","","","8","","26","","24.1","","100.99","","","","","","NA"
"-61.68","56.55","NAIN A","8502801","2021-08-31 14:00","2021","08","31","14:00","7.7","","6.9","","95","","","","7","","25","","24.1","","101.01","","","","","","Rain Showers"
"-61.68","56.55","NAIN A","8502801","2021-08-31 15:00","2021","08","31","15:00","7.5","","6.8","","96","","","","6","","28","","24.1","","101.04","","","","","","Rain Showers"
"-61.68","56.55","NAIN A","8502801","2021-08-31 16:00","2021","08","31","16:00","7.7","","7.2","","96","","","","7","","26","","4.8","","101.06","","","","","","Rain Showers,Fog"
"-61.68","56.55","NAIN A","8502801","2021-08-31 17:00","2021","08","31","17:00","7.8","","7.4","","98","","","","7","","28","","2.4","","101.08","","","","","","Rain,Fog"
"-61.68","56.55","NAIN A","8502801","2021-08-31 18:00","2021","08","31","18:00","7.6","","7.3","","98","","","","7","","34","","4.0","","101.14","","","","","","Rain,Fog"
"-61.68","56.55","NAIN A","8502801","2021-08-31 19:00","2021","08","31","19:00","7.5","","7.0","","97","","","","8","","28","","2.4","","101.21","","","","","","Rain,Fog"
"-61.68","56.55","NAIN A","8502801","2021-08-31 20:00","2021","08","31","20:00"
"-61.68","56.55","NAIN A","8502801","2021-08-31 21:00","2021","08","31","21:00"
"-61.68","56.55","NAIN A","8502801","2021-08-31 22:00","2021","08","31","22:00"
"-61.68","56.55","NAIN A","8502801","2021-08-31 23:00","2021","08","31","23:00"
