"Longitude (x)","Latitude (y)","Station Name","Climate ID","Date/Time (LST)","Year","Month","Day","Time (LST)","Temp (°C)","Temp Flag","Dew Point Temp (°C)","Dew Point Temp Flag","Rel Hum (%)","Rel Hum Flag","Precip. Amount (mm)","Precip. Amount Flag","Wind Dir (10s deg)","Wind Dir Flag","Wind Spd (km/h)","Wind Spd Flag","Visibility (km)","Visibility Flag","Stn Press (kPa)","Stn Press Flag","Hmdx","Hmdx Flag","Wind Chill","Wind Chill Flag","Weather"
"-88.31","49.69","LITTLE FLATLAND ISLAND (AUT)","6049470","2022-10-01 00:00","2022","10","01","00:00","9.2","","","M","","M","0.0","","6","","25","","","","99.51","","","","","","NA"
"-88.31","49.69","LITTLE FLATLAND ISLAND (AUT)","6049470","2022-10-01 01:00","2022","10","01","01:00","8.9","","","M","","M","0.0","","6","","21","","","","99.54","","","","","","NA"
"-88.31","49.69","LITTLE FLATLAND ISLAND (AUT)","6049470","2022-10-01 02:00","2022","10","01","02:00","8.6","","","M","","M","0.0","","6","","22","","","","99.59","","","","","","NA"
"-88.31","49.69","LITTLE FLATLAND ISLAND (AUT)","6049470","2022-10-01 03:00","2022","10","01","03:00","8.5","","","M","","M","0.0","","7","","23","","","","99.64","","","","","","NA"
"-88.31","49.69","LITTLE FLATLAND ISLAND (AUT)","6049470","2022-10-01 04:00","2022","10","01","04:00","8.3","","","M","","M","0.0","","8","","22","","","","99.69","","","","","","NA"
"-88.31","49.69","LITTLE FLATLAND ISLAND (AUT)","6049470","2022-10-01 05:00","2022","10","01","05:00","8.1","","","M","","M","0.0","","6","","23","","","","99.73","","","","","","NA"
"-88.31","49.69","LITTLE FLATLAND ISLAND (AUT)","6049470","2022-10-01 06:00","2022","10","01","06:00","8.0","","","M","","M","0.0","","7","","24","","","","99.78","","","","","","NA"
"-88.31","49.69","LITTLE FLATLAND ISLAND (AUT)","6049470","2022-10-01 07:00","2022","10","01","07:00","7.9","","","M","","M","0.0","","7","","26","","","","99.83","","","","","","NA"
"-88.31","49.69","LITTLE FLATLAND ISLAND (AUT)","6049470","2022-10-01 08:00","2022","10","01","08:00","7.5","","","M","","M","0.0","","6","","23","","","","99.88","","","","","","NA"
"-88.31","49.69","LITTLE FLATLAND ISLAND (AUT)","6049470","2022-10-01 09:00","2022","10","01","09:00","7.2","","","M","","M","0.0","","6","","22","","","","99.93","","","","","","NA"
"-88.31","49.69","LITTLE FLATLAND ISLAND (AUT)","6049470","2022-10-01 10:00","2022","10","01","10:00","7.8","","","M","","M","0.0","","8","","24","","","","100.00","","","","","","NA"
"-88.31","49.69","LITTLE FLATLAND ISLAND (AUT)","6049470","2022-10-01 11:00","2022","10","01","11:00","8.3","","","M","","M","0.0","","8","","23","","","","100.05","","","","","","NA"
"-88.31","49.69","LITTLE FLATLAND ISLAND (AUT)","6049470","2022-10-01 12:00","2022","10","01","12:00","8.3","","","M","","M","0.0","","8","","23","","","","100.06","","","","","","NA"
"-88.31","49.69","LITTLE FLATLAND ISLAND (AUT)","6049470","2022-10-01 13:00","2022","10","01","13:00","8.9","","","M","","M","0.0","","6","","18","","","","100.05","","","","","","NA"
"-88.31","49.69","LITTLE FLATLAND ISLAND (AUT)","6049470","2022-10-01 14:00","2022","10","01","14:00","9.8","","","M","","M","0.0","","7","","19","","","","100.01","","","","","","NA"
"-88.31","49.69","LITTLE FLATLAND ISLAND (AUT)","6049470","2022-10-01 15:00","2022","10","01","15:00","10.4","","","M","","M","0.0","","5","","10","","","","99.97","","","","","","NA"
"-88.31","49.69","LITTLE FLATLAND ISLAND (AUT)","6049470","2022-10-01 16:00","2022","10","01","16:00","11.4","","","M","","M","0.0","","35","","2","","","","99.95","","","","","","NA"
"-88.31","49.69","LITTLE FLATLAND ISLAND (AUT)","6049470","2022-10-01 17:00","2022","10","01","17:00","11.9","","","M","","M","0.0","","7","","17","","","","99.95","","","","","","NA"
"-88.31","49.69","LITTLE FLATLAND ISLAND (AUT)","6049470","2022-10-01 18:00","2022","10","01","18:00","11.5","","","M","","M","0.0","","9","","19","","","","99.97","","","","","","NA"
"-88.31","49.69","LITTLE FLATLAND ISLAND (AUT)","6049470","2022-10-01 19:00","2022","10","01","19:00","11.1","","","M","","M","0.0","","10","","22","","","","99.98","","","","","","NA"
"-88.31","49.69","LITTLE FLATLAND ISLAND (AUT)","6049470","2022-10-01 20:00","2022","10","01","20:00","9.9","","","M","","M","0.0","","9","","25","","","","100.03","","","","","","NA"
"-88.31","49.69","LITTLE FLATLAND ISLAND (AUT)","6049470","2022-10-01 21:00","2022","10","01","21:00","9.4","","","M","","M","0.0","","10","","25","","","","100.07","","","","","","NA"
"-88.31","49.69","LITTLE FLATLAND ISLAND (AUT)","6049470","2022-10-01 22:00","2022","10","01","22:00","8.7","","","M","","M","0.0","","11","","26","","","","100.06","","","","","","NA"
"-88.31","49.69","LITTLE FLATLAND ISLAND (AUT)","6049470","2022-10-01 23:00","2022","10","01","23:00","8.0","","","M","","M","0.0","","11","","29","","","","100.07","","","","","","NA"
"-88.31","49.69","LITTLE FLATLAND ISLAND (AUT)","6049470","2022-10-02 00:00","2022","10","02","00:00","6.9","","","M","","M","0.0","","13","","25","","","","100.05","","","","","","NA"
"-88.31","49.69","LITTLE FLATLAND ISLAND (AUT)","6049470","2022-10-02 01:00","2022","10","02","01:00","6.6","","","M","","M","0.0","","13","","21","","","","100.04","","","","","","NA"
"-88.31","49.69","LITTLE FLATLAND ISLAND (AUT)","6049470","2022-10-02 02:00","2022","10","02","02:00","6.3","","","M","","M","0.0","","14","","15","","","","100.01","","","","","","NA"
"-88.31","49.69","LITTLE FLATLAND ISLAND (AUT)","6049470","2022-10-02 03:00","2022","10","02","03:00","6.6","","","M","","M","0.0","","14","","17","","","","100.00","","","","","","NA"
"-88.31","49.69","LITTLE FLATLAND ISLAND (AUT)","6049470","2022-10-02 04:00","2022","10","02","04:00","7.1","","","M","","M","0.0","","17","","7","","","","100.01","","","","","","NA"
"-88.31","49.69","LITTLE FLATLAND ISLAND (AUT)","6049470","2022-10-02 05:00","2022","10","02","05:00","6.5","","","M","","M","0.0","","18","","7","","","","100.03","","","","","","NA"
"-88.31","49.69","LITTLE FLATLAND ISLAND (AUT)","6049470","2022-10-02 06:00","2022","10","02","06:00","6.3","","","M","","M","0.0","","18","","4","","","","100.06","","","","","","NA"
"-88.31","49.69","LITTLE FLATLAND ISLAND (AUT)","6049470","2022-10-02 07:00","2022","10","02","07:00","6.7","","","M","","M","0.0","","18","","10","","","","100.07","","","","","","NA"
"-88.31","49.69","LITTLE FLATLAND ISLAND (AUT)","6049470","2022-10-02 08:00","2022","10","02","08:00","8.1","","","M","","M","0.0","","19","","9","","","","100.08","","","","","","NA"
"-88.31","49.69","LITTLE FLATLAND ISLAND (AUT)","6049470","2022-10-02 09:00","2022","10","02","09:00","8.9","","","M","","M","0.0","","18","","10","","","","100.08","","","","","","NA"
"-88.31","49.69","LITTLE FLATLAND ISLAND (AUT)","6049470","2022-10-02 10:00","2022","10","02","10:00","9.5","","","M","","M","0.0","","19","","19","","","","100.04","","","","","","NA"
"-88.31","49.69","LITTLE FLATLAND ISLAND (AUT)","6049470","2022-10-02 11:00","2022","10","02","11:00","10.6","","","M","","M","0.0","","19","","21","","","","99.98","","","","","","NA"
"-88.31","49.69","LITTLE FLATLAND ISLAND (AUT)","6049470","2022-10-02 12:00","2022","10","02","12:00","12.6","","","M","","M","0.0","","19","","12","","","","99.91","","","","","","NA"
"-88.31","49.69","LITTLE FLATLAND ISLAND (AUT)","6049470","2022-10-02 13:00","2022","10","02","13:00","13.9","","","M","","M","0.0","","18","","6","","","","99.84","","","","","","NA"
"-88.31","49.69","LITTLE FLATLAND ISLAND (AUT)","6049470","2022-10-02 14:00","2022","10","02","14:00","15.0","","","M","","M","0.0","","16","","5","","","","99.75","","","","","","NA"
"-88.31","49.69","LITTLE FLATLAND ISLAND (AUT)","6049470","2022-10-02 15:00","2022","10","02","15:00","15.4","","","M","","M","0.0","","19","","4","","","","99.66","","","","","","NA"
"-88.31","49.69","LITTLE FLATLAND ISLAND (AUT)","6049470","2022-10-02 16:00","2022","10","02","16:00","14.8","","","M","","M","0.0","","17","","6","","","","99.62","","","","","","NA"
"-88.31","49.69","LITTLE FLATLAND ISLAND (AUT)","6049470","2022-10-02 17:00","2022","10","02","17:00","13.7","","","M","","M","0.0","","18","","6","","","","99.57","","","","","","NA"
"-88.31","49.69","LITTLE FLATLAND ISLAND (AUT)","6049470","2022-10-02 18:00","2022","10","02","18:00","12.1","","","M","","M","0.0","","19","","8","","","","99.56","","","","","","NA"
"-88.31","49.69","LITTLE FLATLAND ISLAND (AUT)","6049470","2022-10-02 19:00","2022","10","02","19:00","11.1","","","M","","M","0.0","","18","","12","","","","99.57","","","","","","NA"
"-88.31","49.69","LITTLE FLATLAND ISLAND (AUT)","6049470","2022-10-02 20:00","2022","10","02","20:00","10.5","","","M","","M","0.0","","19","","15","","","","99.53","","","","","","NA"
"-88.31","49.69","LITTLE FLATLAND ISLAND (AUT)","6049470","2022-10-02 21:00","2022","10","02","21:00","10.2","","","M","","M","0.0","","20","","27","","","","99.53","","","","","","NA"
"-88.31","49.69","LITTLE FLATLAND ISLAND (AUT)","6049470","2022-10-02 22:00","2022","10","02","22:00","9.8","","","M","","M","0.0","","19","","28","","","","99.50","","","","","","NA"
"-88.31","49.69","LITTLE FLATLAND ISLAND (AUT)","6049470","2022-10-02 23:00","2022","10","02","23:00","9.4","","","M","","M","0.0","","19","","24","","","","99.45","","","","","","NA"
"-88.31","49.69","LITTLE FLATLAND ISLAND (AUT)","6049470","2022-10-03 00:00","2022","10","03","00:00","9.4","","","M","","M","0.0","","20","","28","","","","99.41","","","","","","NA"
"-88.31","49.69","LITTLE FLATLAND ISLAND (AUT)","6049470","2022-10-03 01:00","2022","10","03","01:00","9.6","","","M","","M","0.0","","19","","19","","","","99.37","","","","","","NA"
"-88.31","49.69","LITTLE FLATLAND ISLAND (AUT)","6049470","2022-10-03 02:00","2022","10","03","02:00","9.7","","","M","","M","0.0","","19","","23","","","","99.35","","","","","","NA"
"-88.31","49.69","LITTLE FLATLAND ISLAND (AUT)","6049470","2022-10-03 03:00","2022","10","03","03:00","9.9","","","M","","M","0.0","","20","","20","","","","99.33","","","","","","NA"
"-88.31","49.69","LITTLE FLATLAND ISLAND (AUT)","6049470","2022-10-03 04:00","2022","10","03","04:00","10.0","","","M","","M","0.0","","20","","16","","","","99.31","","","","","","NA"
"-88.31","49.69","LITTLE FLATLAND ISLAND (AUT)","6049470","2022-10-03 05:00","2022","10","03","05:00","10.1","","","M","","M","0.0","","20","","12","","","","99.32","","","","","","NA"
"-88.31","49.69","LITTLE FLATLAND ISLAND (AUT)","6049470","2022-10-03 06:00","2022","10","03","06:00","10.4","","","M","","M","0.0","","20","","18","","","","99.26","","","","","","NA"
"-88.31","49.69","LITTLE FLATLAND ISLAND (AUT)","6049470","2022-10-03 07:00","2022","10","03","07:00","10.6","","","M","","M","0.0","","20","","16","","","","99.20","","","","","","NA"
"-88.31","49.69","LITTLE FLATLAND ISLAND (AUT)","6049470","2022-10-03 08:00","2022","10","03","08:00","11.4","","","M","","M","0.0","","20","","22","","","","99.18","","","","","","NA"
"-88.31","49.69","LITTLE FLATLAND ISLAND (AUT)","6049470","2022-10-03 09:00","2022","10","03","09:00","12.7","","","M","","M","0.0","","20","","13","","","","99.15","","","","","","NA"
"-88.31","49.69","LITTLE FLATLAND ISLAND (AUT)","6049470","2022-10-03 10:00","2022","10","03","10:00","13.2","","","M","","M","0.0","","19","","18","","","","99.13","","","","","","NA"
"-88.31","49.69","LITTLE FLATLAND ISLAND (AUT)","6049470","2022-10-03 11:00","2022","10","03","11:00","14.7","","","M","","M","0.0","","18","","11","","","","99.09","","","","","","NA"
"-88.31","49.69","LITTLE FLATLAND ISLAND (AUT)","6049470","2022-10-03 12:00","2022","10","03","12:00","14.3","","","M","","M","0.0","","19","","20","","","","99.10","","","","","","NA"
"-88.31","49.69","LITTLE FLATLAND ISLAND (AUT)","6049470","2022-10-03 13:00","2022","10","03","13:00","14.7","","","M","","M","0.0","","19","","18","","","","99.02","","","","","","NA"
"-88.31","49.69","LITTLE FLATLAND ISLAND (AUT)","6049470","2022-10-03 14:00","2022","10","03","14:00","15.8","","","M","","M","0.0","","19","","12","","","","98.94","","","","","","NA"
"-88.31","49.69","LITTLE FLATLAND ISLAND (AUT)","6049470","2022-10-03 15:00","2022","10","03","15:00","16.8","","","M","","M","0.0","","19","","12","","","","98.85","","","","","","NA"
"-88.31","49.69","LITTLE FLATLAND ISLAND (AUT)","6049470","2022-10-03 16:00","2022","10","03","16:00","16.5","","","M","","M","0.0","","22","","4","","","","98.80","","","","","","NA"
"-88.31","49.69","LITTLE FLATLAND ISLAND (AUT)","6049470","2022-10-03 17:00","2022","10","03","17:00","15.5","","","M","","M","0.0","","20","","15","","","","98.80","","","","","","NA"
"-88.31","49.69","LITTLE FLATLAND ISLAND (AUT)","6049470","2022-10-03 18:00","2022","10","03","18:00","14.7","","","M","","M","0.0","","20","","13","","","","98.82","","","","","","NA"
"-88.31","49.69","LITTLE FLATLAND ISLAND (AUT)","6049470","2022-10-03 19:00","2022","10","03","19:00","14.2","","","M","","M","0.0","","19","","12","","","","98.85","","","","","","NA"
"-88.31","49.69","LITTLE FLATLAND ISLAND (AUT)","6049470","2022-10-03 20:00","2022","10","03","20:00","13.5","","","M","","M","0.0","","19","","10","","","","98.87","","","","","","NA"
"-88.31","49.69","LITTLE FLATLAND ISLAND (AUT)","6049470","2022-10-03 21:00","2022","10","03","21:00","13.4","","","M","","M","0.0","","20","","14","","","","98.87","","","","","","NA"
"-88.31","49.69","LITTLE FLATLAND ISLAND (AUT)","6049470","2022-10-03 22:00","2022","10","03","22:00","13.2","","","M","","M","0.0","","19","","21","","","","98.85","","","","","","NA"
"-88.31","49.69","LITTLE FLATLAND ISLAND (AUT)","6049470","2022-10-03 23:00","2022","10","03","23:00","13.0","","","M","","M","0.0","","20","","12","","","","98.83","","","","","","NA"
"-88.31","49.69","LITTLE FLATLAND ISLAND (AUT)","6049470","2022-10-04 00:00","2022","10","04","00:00","12.8","","","M","","M","0.0","","20","","7","","","","98.86","","","","","","NA"
"-88.31","49.69","LITTLE FLATLAND ISLAND (AUT)","6049470","2022-10-04 01:00","2022","10","04","01:00","12.9","","","M","","M","0.0","","23","","5","","","","98.85","","","","","","NA"
"-88.31","49.69","LITTLE FLATLAND ISLAND (AUT)","6049470","2022-10-04 02:00","2022","10","04","02:00","11.8","","","M","","M","0.0","","9","","7","","","","98.83","","","","","","NA"
"-88.31","49.69","LITTLE FLATLAND ISLAND (AUT)","6049470","2022-10-04 03:00","2022","10","04","03:00","12.1","","","M","","M","0.0","","23","","9","","","","98.84","","","","","","NA"
"-88.31","49.69","LITTLE FLATLAND ISLAND (AUT)","6049470","2022-10-04 04:00","2022","10","04","04:00","12.5","","","M","","M","0.0","","22","","7","","","","98.85","","","","","","NA"
"-88.31","49.69","LITTLE FLATLAND ISLAND (AUT)","6049470","2022-10-04 05:00","2022","10","04","05:00","12.1","","","M","","M","0.0","","13","","5","","","","98.83","","","","","","NA"
"-88.31","49.69","LITTLE FLATLAND ISLAND (AUT)","6049470","2022-10-04 06:00","2022","10","04","06:00","12.5","","","M","","M","0.0","","20","","6","","","","98.83","","","","","","NA"
"-88.31","49.69","LITTLE FLATLAND ISLAND (AUT)","6049470","2022-10-04 07:00","2022","10","04","07:00","12.5","","","M","","M","0.0","","19","","10","","","","98.82","","","","","","NA"
"-88.31","49.69","LITTLE FLATLAND ISLAND (AUT)","6049470","2022-10-04 08:00","2022","10","04","08:00","12.8","","","M","","M","0.0","","20","","7","","","","98.81","","","","","","NA"
"-88.31","49.69","LITTLE FLATLAND ISLAND (AUT)","6049470","2022-10-04 09:00","2022","10","04","09:00","12.8","","","M","","M","0.0","","20","","9","","","","98.81","","","","","","NA"
"-88.31","49.69","LITTLE FLATLAND ISLAND (AUT)","6049470","2022-10-04 10:00","2022","10","04","10:00","13.2","","","M","","M","0.5","","21","","11","","","","98.82","","","","","","NA"
"-88.31","49.69","LITTLE FLATLAND ISLAND (AUT)","6049470","2022-10-04 11:00","2022","10","04","11:00","12.8","","","M","","M","0.5","","19","","9","","","","98.82","","","","","","NA"
"-88.31","49.69","LITTLE FLATLAND ISLAND (AUT)","6049470","2022-10-04 12:00","2022","10","04","12:00","13.4","","","M","","M","0.8","","20","","10","","","","98.78","","","","","","NA"
"-88.31","49.69","LITTLE FLATLAND ISLAND (AUT)","6049470","2022-10-04 13:00","2022","10","04","13:00","13.8","","","M","","M","0.3","","21","","2","","","","98.72","","","","","","NA"
"-88.31","49.69","LITTLE FLATLAND ISLAND (AUT)","6049470","2022-10-04 14:00","2022","10","04","14:00","14.1","","","M","","M","0.1","","20","","13","","","","98.67","","","","","","NA"
"-88.31","49.69","LITTLE FLATLAND ISLAND (AUT)","6049470","2022-10-04 15:00","2022","10","04","15:00","14.0","","","M","","M","0.1","","19","","13","","","","98.60","","","","","","NA"
"-88.31","49.69","LITTLE FLATLAND ISLAND (AUT)","6049470","2022-10-04 16:00","2022","10","04","16:00","14.2","","","M","","M","0.0","","19","","19","","","","98.58","","","","","","NA"
"-88.31","49.69","LITTLE FLATLAND ISLAND (AUT)","6049470","2022-10-04 17:00","2022","10","04","17:00","14.6","","","M","","M","0.0","","20","","15","","","","98.57","","","","","","NA"
"-88.31","49.69","LITTLE FLATLAND ISLAND (AUT)","6049470","2022-10-04 18:00","2022","10","04","18:00","13.4","","","M","","M","0.2","","18","","2","","","","98.57","","","","","","NA"
"-88.31","49.69","LITTLE FLATLAND ISLAND (AUT)","6049470","2022-10-04 19:00","2022","10","04","19:00","13.7","","","M","","M","0.0","","20","","4","","","","98.52","","","","","","NA"
"-88.31","49.69","LITTLE FLATLAND ISLAND (AUT)","6049470","2022-10-04 20:00","2022","10","04","20:00","13.5","","","M","","M","0.0","","19","","7","","","","98.48","","","","","","NA"
"-88.31","49.69","LITTLE FLATLAND ISLAND (AUT)","6049470","2022-10-04 21:00","2022","10","04","21:00","13.6","","","M","","M","0.0","","20","","19","","","","98.44","","","","","","NA"
"-88.31","49.69","LITTLE FLATLAND ISLAND (AUT)","6049470","2022-10-04 22:00","2022","10","04","22:00","13.3","","","M","","M","0.3","","20","","17","","","","98.42","","","","","","NA"
"-88.31","49.69","LITTLE FLATLAND ISLAND (AUT)","6049470","2022-10-04 23:00","2022","10","04","23:00","13.1","","","M","","M","0.0","","20","","22","","","","98.36","","","","","","NA"
"-88.31","49.69","LITTLE FLATLAND ISLAND (AUT)","6049470","2022-10-05 00:00","2022","10","05","00:00","13.0","","","M","","M","0.0","","19","","10","","","","98.31","","","","","","NA"
"-88.31","49.69","LITTLE FLATLAND ISLAND (AUT)","6049470","2022-10-05 01:00","2022","10","05","01:00","12.8","","","M","","M","0.0","","20","","22","","","","98.25","","","","","","NA"
"-88.31","49.69","LITTLE FLATLAND ISLAND (AUT)","6049470","2022-10-05 02:00","2022","10","05","02:00","12.8","","","M","","M","0.0","","20","","24","","","","98.20","","","","","","NA"
"-88.31","49.69","LITTLE FLATLAND ISLAND (AUT)","6049470","2022-10-05 03:00","2022","10","05","03:00","12.8","","","M","","M","0.0","","20","","17","","","","98.16","","","","","","NA"
"-88.31","49.69","LITTLE FLATLAND ISLAND (AUT)","6049470","2022-10-05 04:00","2022","10","05","04:00","12.7","","","M","","M","0.0","","20","","21","","","","98.11","","","","","","NA"
"-88.31","49.69","LITTLE FLATLAND ISLAND (AUT)","6049470","2022-10-05 05:00","2022","10","05","05:00","12.7","","","M","","M","0.0","","20","","11","","","","98.09","","","","","","NA"
"-88.31","49.69","LITTLE FLATLAND ISLAND (AUT)","6049470","2022-10-05 06:00","2022","10","05","06:00","12.7","","","M","","M","0.0","","20","","10","","","","98.09","","","","","","NA"
"-88.31","49.69","LITTLE FLATLAND ISLAND (AUT)","6049470","2022-10-05 07:00","2022","10","05","07:00","12.9","","","M","","M","0.8","","20","","9","","","","98.08","","","","","","NA"
"-88.31","49.69","LITTLE FLATLAND ISLAND (AUT)","6049470","2022-10-05 08:00","2022","10","05","08:00","13.2","","","M","","M","0.3","","21","","10","","","","98.08","","","","","","NA"
"-88.31","49.69","LITTLE FLATLAND ISLAND (AUT)","6049470","2022-10-05 09:00","2022","10","05","09:00","13.9","","","M","","M","0.0","","27","","21","","","","98.09","","","","","","NA"
"-88.31","49.69","LITTLE FLATLAND ISLAND (AUT)","6049470","2022-10-05 10:00","2022","10","05","10:00","13.8","","","M","","M","0.0","","27","","19","","","","98.10","","","","","","NA"
"-88.31","49.69","LITTLE FLATLAND ISLAND (AUT)","6049470","2022-10-05 11:00","2022","10","05","11:00","14.8","","","M","","M","0.0","","26","","15","","","","98.09","","","","","","NA"
"-88.31","49.69","LITTLE FLATLAND ISLAND (AUT)","6049470","2022-10-05 12:00","2022","10","05","12:00","15.4","","","M","","M","0.0","","27","","22","","","","98.08","","","","","","NA"
"-88.31","49.69","LITTLE FLATLAND ISLAND (AUT)","6049470","2022-10-05 13:00","2022","10","05","13:00","16.7","","","M","","M","0.0","","29","","8","","","","98.08","","","","","","NA"
"-88.31","49.69","LITTLE FLATLAND ISLAND (AUT)","6049470","2022-10-05 14:00","2022","10","05","14:00","15.6","","","M","","M","0.0","","12","","10","","","","98.05","","","","","","NA"
"-88.31","49.69","LITTLE FLATLAND ISLAND (AUT)","6049470","2022-10-05 15:00","2022","10","05","15:00","17.1","","","M","","M","0.0","","15","","6","","","","98.02","","","","","","NA"
"-88.31","49.69","LITTLE FLATLAND ISLAND (AUT)","6049470","2022-10-05 16:00","2022","10","05","16:00","14.5","","","M","","M","0.0","","2","","4","","","","98.05","","","","","","NA"
"-88.31","49.69","LITTLE FLATLAND ISLAND (AUT)","6049470","2022-10-05 17:00","2022","10","05","17:00","14.6","","","M","","M","0.0","","35","","9","","","","98.07","","","","","","NA"
"-88.31","49.69","LITTLE FLATLAND ISLAND (AUT)","6049470","2022-10-05 18:00","2022","10","05","18:00","14.2","","","M","","M","0.0","","33","","12","","","","98.11","","","","","","NA"
"-88.31","49.69","LITTLE FLATLAND ISLAND (AUT)","6049470","2022-10-05 19:00","2022","10","05","19:00","13.2","","","M","","M","0.1","","31","","15","","","","98.19","","","","","","NA"
"-88.31","49.69","LITTLE FLATLAND ISLAND (AUT)","6049470","2022-10-05 20:00","2022","10","05","20:00","13.7","","","M","","M","0.0","","31","","20","","","","98.19","","","","","","NA"
"-88.31","49.69","LITTLE FLATLAND ISLAND (AUT)","6049470","2022-10-05 21:00","2022","10","05","21:00","13.5","","","M","","M","0.0","","33","","24","","","","98.16","","","","","","NA"
"-88.31","49.69","LITTLE FLATLAND ISLAND (AUT)","6049470","2022-10-05 22:00","2022","10","05","22:00","12.7","","","M","","M","0.0","","35","","25","","","","98.18","","","","","","NA"
"-88.31","49.69","LITTLE FLATLAND ISLAND (AUT)","6049470","2022-10-05 23:00","2022","10","05","23:00","12.0","","","M","","M","0.0","","1","","31","","","","98.22","","","","","","NA"
"-88.31","49.69","LITTLE FLATLAND ISLAND (AUT)","6049470","2022-10-06 00:00","2022","10","06","00:00","11.4","","","M","","M","0.0","","36","","25","","","","98.27","","","","","","NA"
"-88.31","49.69","LITTLE FLATLAND ISLAND (AUT)","6049470","2022-10-06 01:00","2022","10","06","01:00","10.1","","","M","","M","0.2","","35","","26","","","","98.30","","","","","","NA"
"-88.31","49.69","LITTLE FLATLAND ISLAND (AUT)","6049470","2022-10-06 02:00","2022","10","06","02:00","10.0","","","M","","M","0.2","","34","","29","","","","98.34","","","","","","NA"
"-88.31","49.69","LITTLE FLATLAND ISLAND (AUT)","6049470","2022-10-06 03:00","2022","10","06","03:00","8.4","","","M","","M","1.9","","5","","44","","","","98.45","","","","","","NA"
"-88.31","49.69","LITTLE FLATLAND ISLAND (AUT)","6049470","2022-10-06 04:00","2022","10","06","04:00","7.8","","","M","","M","3.7","","5","","36","","","","98.54","","","","","","NA"
"-88.31","49.69","LITTLE FLATLAND ISLAND (AUT)","6049470","2022-10-06 05:00","2022","10","06","05:00","6.8","","","M","","M","2.2","","4","","41","","","","98.68","","","","","","NA"
"-88.31","49.69","LITTLE FLATLAND ISLAND (AUT)","6049470","2022-10-06 06:00","2022","10","06","06:00","6.8","","","M","","M","0.6","","4","","44","","","","98.81","","","","","","NA"
"-88.31","49.69","LITTLE FLATLAND ISLAND (AUT)","6049470","2022-10-06 07:00","2022","10","06","07:00","6.9","","","M","","M","0.0","","5","","47","","","","98.95","","","","","","NA"
"-88.31","49.69","LITTLE FLATLAND ISLAND (AUT)","6049470","2022-10-06 08:00","2022","10","06","08:00","6.0","","","M","","M","0.5","","3","","52","","","","99.11","","","","","","NA"
"-88.31","49.69","LITTLE FLATLAND ISLAND (AUT)","6049470","2022-10-06 09:00","2022","10","06","09:00","5.4","","","M","","M","0.0","","4","","50","","","","99.25","","","","","","NA"
"-88.31","49.69","LITTLE FLATLAND ISLAND (AUT)","6049470","2022-10-06 10:00","2022","10","06","10:00","5.2","","","M","","M","0.0","","4","","50","","","","99.36","","","","","","NA"
"-88.31","49.69","LITTLE FLATLAND ISLAND (AUT)","6049470","2022-10-06 11:00","2022","10","06","11:00","4.8","","","M","","M","0.0","","4","","45","","","","99.50","","","","","","NA"
"-88.31","49.69","LITTLE FLATLAND ISLAND (AUT)","6049470","2022-10-06 12:00","2022","10","06","12:00","4.8","","","M","","M","0.0","","3","","41","","","","99.59","","","","","","NA"
"-88.31","49.69","LITTLE FLATLAND ISLAND (AUT)","6049470","2022-10-06 13:00","2022","10","06","13:00","5.0","","","M","","M","0.0","","2","","38","","","","99.65","","","","","","NA"
"-88.31","49.69","LITTLE FLATLAND ISLAND (AUT)","6049470","2022-10-06 14:00","2022","10","06","14:00","5.0","","","M","","M","0.0","","1","","39","","","","99.69","","","","","","NA"
"-88.31","49.69","LITTLE FLATLAND ISLAND (AUT)","6049470","2022-10-06 15:00","2022","10","06","15:00","4.9","","","M","","M","0.0","","2","","40","","","","99.76","","","","","","NA"
"-88.31","49.69","LITTLE FLATLAND ISLAND (AUT)","6049470","2022-10-06 16:00","2022","10","06","16:00","4.8","","","M","","M","0.0","","1","","33","","","","99.83","","","","","","NA"
"-88.31","49.69","LITTLE FLATLAND ISLAND (AUT)","6049470","2022-10-06 17:00","2022","10","06","17:00","5.1","","","M","","M","0.0","","3","","36","","","","99.88","","","","","","NA"
"-88.31","49.69","LITTLE FLATLAND ISLAND (AUT)","6049470","2022-10-06 18:00","2022","10","06","18:00","5.0","","","M","","M","0.0","","2","","33","","","","99.91","","","","","","NA"
"-88.31","49.69","LITTLE FLATLAND ISLAND (AUT)","6049470","2022-10-06 19:00","2022","10","06","19:00","5.1","","","M","","M","0.0","","1","","34","","","","99.94","","","","","","NA"
"-88.31","49.69","LITTLE FLATLAND ISLAND (AUT)","6049470","2022-10-06 20:00","2022","10","06","20:00","5.1","","","M","","M","0.0","","2","","30","","","","99.98","","","","","","NA"
"-88.31","49.69","LITTLE FLATLAND ISLAND (AUT)","6049470","2022-10-06 21:00","2022","10","06","21:00","5.0","","","M","","M","0.0","","2","","33","","","","99.99","","","","","","NA"
"-88.31","49.69","LITTLE FLATLAND ISLAND (AUT)","6049470","2022-10-06 22:00","2022","10","06","22:00","4.6","","","M","","M","0.0","","2","","30","","","","100.03","","","","","","NA"
"-88.31","49.69","LITTLE FLATLAND ISLAND (AUT)","6049470","2022-10-06 23:00","2022","10","06","23:00","4.6","","","M","","M","0.0","","3","","27","","","","100.04","","","","","","NA"
"-88.31","49.69","LITTLE FLATLAND ISLAND (AUT)","6049470","2022-10-07 00:00","2022","10","07","00:00","4.1","","","M","","M","0.0","","3","","29","","","","100.05","","","","","","NA"
"-88.31","49.69","LITTLE FLATLAND ISLAND (AUT)","6049470","2022-10-07 01:00","2022","10","07","01:00","4.1","","","M","","M","0.0","","3","","25","","","","100.06","","","","","","NA"
"-88.31","49.69","LITTLE FLATLAND ISLAND (AUT)","6049470","2022-10-07 02:00","2022","10","07","02:00","3.9","","","M","","M","0.0","","4","","22","","","","100.06","","","","","","NA"
"-88.31","49.69","LITTLE FLATLAND ISLAND (AUT)","6049470","2022-10-07 03:00","2022","10","07","03:00","4.0","","","M","","M","0.0","","4","","21","","","","100.05","","","","","","NA"
"-88.31","49.69","LITTLE FLATLAND ISLAND (AUT)","6049470","2022-10-07 04:00","2022","10","07","04:00","3.5","","","M","","M","0.0","","3","","16","","","","100.05","","","","","","NA"
"-88.31","49.69","LITTLE FLATLAND ISLAND (AUT)","6049470","2022-10-07 05:00","2022","10","07","05:00","3.3","","","M","","M","0.1","","33","","17","","","","100.03","","","","","","NA"
"-88.31","49.69","LITTLE FLATLAND ISLAND (AUT)","6049470","2022-10-07 06:00","2022","10","07","06:00","3.4","","","M","","M","0.0","","36","","14","","","","100.03","","","","","","NA"
"-88.31","49.69","LITTLE FLATLAND ISLAND (AUT)","6049470","2022-10-07 07:00","2022","10","07","07:00","3.6","","","M","","M","0.0","","35","","13","","","","100.01","","","","","","NA"
"-88.31","49.69","LITTLE FLATLAND ISLAND (AUT)","6049470","2022-10-07 08:00","2022","10","07","08:00","3.5","","","M","","M","0.0","","32","","26","","","","100.02","","","","","","NA"
"-88.31","49.69","LITTLE FLATLAND ISLAND (AUT)","6049470","2022-10-07 09:00","2022","10","07","09:00","2.9","","","M","","M","0.0","","33","","19","","","","100.01","","","","","","NA"
"-88.31","49.69","LITTLE FLATLAND ISLAND (AUT)","6049470","2022-10-07 10:00","2022","10","07","10:00","3.4","","","M","","M","0.0","","30","","26","","","","99.97","","","","","","NA"
"-88.31","49.69","LITTLE FLATLAND ISLAND (AUT)","6049470","2022-10-07 11:00","2022","10","07","11:00","3.0","","","M","","M","0.0","","28","","28","","","","99.92","","","","","","NA"
"-88.31","49.69","LITTLE FLATLAND ISLAND (AUT)","6049470","2022-10-07 12:00","2022","10","07","12:00","3.3","","","M","","M","0.0","","28","","26","","","","99.84","","","","","","NA"
"-88.31","49.69","LITTLE FLATLAND ISLAND (AUT)","6049470","2022-10-07 13:00","2022","10","07","13:00","3.5","","","M","","M","0.0","","28","","27","","","","99.73","","","","","","NA"
"-88.31","49.69","LITTLE FLATLAND ISLAND (AUT)","6049470","2022-10-07 14:00","2022","10","07","14:00","3.4","","","M","","M","0.0","","27","","33","","","","99.63","","","","","","NA"
"-88.31","49.69","LITTLE FLATLAND ISLAND (AUT)","6049470","2022-10-07 15:00","2022","10","07","15:00","5.2","","","M","","M","0.0","","26","","24","","","","99.49","","","","","","NA"
"-88.31","49.69","LITTLE FLATLAND ISLAND (AUT)","6049470","2022-10-07 16:00","2022","10","07","16:00","5.4","","","M","","M","0.0","","26","","25","","","","99.32","","","","","","NA"
"-88.31","49.69","LITTLE FLATLAND ISLAND (AUT)","6049470","2022-10-07 17:00","2022","10","07","17:00","5.6","","","M","","M","0.0","","26","","20","","","","99.27","","","","","","NA"
"-88.31","49.69","LITTLE FLATLAND ISLAND (AUT)","6049470","2022-10-07 18:00","2022","10","07","18:00","4.8","","","M","","M","0.0","","23","","14","","","","99.14","","","","","","NA"
"-88.31","49.69","LITTLE FLATLAND ISLAND (AUT)","6049470","2022-10-07 19:00","2022","10","07","19:00","5.1","","","M","","M","0.0","","25","","19","","","","99.06","","","","","","NA"
"-88.31","49.69","LITTLE FLATLAND ISLAND (AUT)","6049470","2022-10-07 20:00","2022","10","07","20:00","5.3","","","M","","M","0.0","","25","","17","","","","99.01","","","","","","NA"
"-88.31","49.69","LITTLE FLATLAND ISLAND (AUT)","6049470","2022-10-07 21:00","2022","10","07","21:00","5.5","","","M","","M","0.0","","24","","14","","","","98.92","","","","","","NA"
"-88.31","49.69","LITTLE FLATLAND ISLAND (AUT)","6049470","2022-10-07 22:00","2022","10","07","22:00","5.8","","","M","","M","0.0","","25","","15","","","","98.84","","","","","","NA"
"-88.31","49.69","LITTLE FLATLAND ISLAND (AUT)","6049470","2022-10-07 23:00","2022","10","07","23:00","6.4","","","M","","M","0.0","","26","","29","","","","98.76","","","","","","NA"
"-88.31","49.69","LITTLE FLATLAND ISLAND (AUT)","6049470","2022-10-08 00:00","2022","10","08","00:00","7.4","","","M","","M","0.0","","29","","43","","","","98.69","","","","","","NA"
"-88.31","49.69","LITTLE FLATLAND ISLAND (AUT)","6049470","2022-10-08 01:00","2022","10","08","01:00","7.3","","","M","","M","0.0","","27","","40","","","","98.59","","","","","","NA"
"-88.31","49.69","LITTLE FLATLAND ISLAND (AUT)","6049470","2022-10-08 02:00","2022","10","08","02:00","7.1","","","M","","M","0.0","","27","","40","","","","98.51","","","","","","NA"
"-88.31","49.69","LITTLE FLATLAND ISLAND (AUT)","6049470","2022-10-08 03:00","2022","10","08","03:00","7.2","","","M","","M","0.0","","27","","37","","","","98.41","","","","","","NA"
"-88.31","49.69","LITTLE FLATLAND ISLAND (AUT)","6049470","2022-10-08 04:00","2022","10","08","04:00","7.7","","","M","","M","0.0","","27","","39","","","","98.33","","","","","","NA"
"-88.31","49.69","LITTLE FLATLAND ISLAND (AUT)","6049470","2022-10-08 05:00","2022","10","08","05:00","7.5","","","M","","M","0.0","","27","","39","","","","98.29","","","","","","NA"
"-88.31","49.69","LITTLE FLATLAND ISLAND (AUT)","6049470","2022-10-08 06:00","2022","10","08","06:00","7.7","","","M","","M","0.0","","27","","40","","","","98.24","","","","","","NA"
"-88.31","49.69","LITTLE FLATLAND ISLAND (AUT)","6049470","2022-10-08 07:00","2022","10","08","07:00","8.0","","","M","","M","0.0","","28","","41","","","","98.23","","","","","","NA"
"-88.31","49.69","LITTLE FLATLAND ISLAND (AUT)","6049470","2022-10-08 08:00","2022","10","08","08:00","8.4","","","M","","M","0.0","","29","","43","","","","98.20","","","","","","NA"
"-88.31","49.69","LITTLE FLATLAND ISLAND (AUT)","6049470","2022-10-08 09:00","2022","10","08","09:00","8.4","","","M","","M","0.0","","29","","43","","","","98.16","","","","","","NA"
"-88.31","49.69","LITTLE FLATLAND ISLAND (AUT)","6049470","2022-10-08 10:00","2022","10","08","10:00","8.5","","","M","","M","0.0","","30","","39","","","","98.16","","","","","","NA"
"-88.31","49.69","LITTLE FLATLAND ISLAND (AUT)","6049470","2022-10-08 11:00","2022","10","08","11:00","8.3","","","M","","M","0.0","","29","","31","","","","98.12","","","","","","NA"
"-88.31","49.69","LITTLE FLATLAND ISLAND (AUT)","6049470","2022-10-08 12:00","2022","10","08","12:00","9.0","","","M","","M","0.0","","30","","37","","","","98.11","","","","","","NA"
"-88.31","49.69","LITTLE FLATLAND ISLAND (AUT)","6049470","2022-10-08 13:00","2022","10","08","13:00","8.7","","","M","","M","0.0","","32","","26","","","","98.11","","","","","","NA"
"-88.31","49.69","LITTLE FLATLAND ISLAND (AUT)","6049470","2022-10-08 14:00","2022","10","08","14:00","9.6","","","M","","M","0.0","","31","","28","","","","98.06","","","","","","NA"
"-88.31","49.69","LITTLE FLATLAND ISLAND (AUT)","6049470","2022-10-08 15:00","2022","10","08","15:00","10.0","","","M","","M","0.0","","32","","26","","","","98.04","","","","","","NA"
"-88.31","49.69","LITTLE FLATLAND ISLAND (AUT)","6049470","2022-10-08 16:00","2022","10","08","16:00","10.4","","","M","","M","0.0","","32","","31","","","","98.05","","","","","","NA"
"-88.31","49.69","LITTLE FLATLAND ISLAND (AUT)","6049470","2022-10-08 17:00","2022","10","08","17:00","9.9","","","M","","M","0.0","","34","","27","","","","98.11","","","","","","NA"
"-88.31","49.69","LITTLE FLATLAND ISLAND (AUT)","6049470","2022-10-08 18:00","2022","10","08","18:00","9.4","","","M","","M","0.0","","34","","26","","","","98.18","","","","","","NA"
"-88.31","49.69","LITTLE FLATLAND ISLAND (AUT)","6049470","2022-10-08 19:00","2022","10","08","19:00","8.9","","","M","","M","0.0","","35","","26","","","","98.24","","","","","","NA"
"-88.31","49.69","LITTLE FLATLAND ISLAND (AUT)","6049470","2022-10-08 20:00","2022","10","08","20:00","8.0","","","M","","M","0.0","","2","","29","","","","98.27","","","","","","NA"
"-88.31","49.69","LITTLE FLATLAND ISLAND (AUT)","6049470","2022-10-08 21:00","2022","10","08","21:00","7.2","","","M","","M","0.0","","3","","27","","","","98.34","","","","","","NA"
"-88.31","49.69","LITTLE FLATLAND ISLAND (AUT)","6049470","2022-10-08 22:00","2022","10","08","22:00","5.8","","","M","","M","0.0","","2","","31","","","","98.43","","","","","","NA"
"-88.31","49.69","LITTLE FLATLAND ISLAND (AUT)","6049470","2022-10-08 23:00","2022","10","08","23:00","5.1","","","M","","M","0.0","","1","","32","","","","98.49","","","","","","NA"
"-88.31","49.69","LITTLE FLATLAND ISLAND (AUT)","6049470","2022-10-09 00:00","2022","10","09","00:00","4.7","","","M","","M","0.0","","36","","23","","","","98.53","","","","","","NA"
"-88.31","49.69","LITTLE FLATLAND ISLAND (AUT)","6049470","2022-10-09 01:00","2022","10","09","01:00","4.5","","","M","","M","0.0","","35","","17","","","","98.54","","","","","","NA"
"-88.31","49.69","LITTLE FLATLAND ISLAND (AUT)","6049470","2022-10-09 02:00","2022","10","09","02:00","4.5","","","M","","M","0.0","","34","","15","","","","98.58","","","","","","NA"
"-88.31","49.69","LITTLE FLATLAND ISLAND (AUT)","6049470","2022-10-09 03:00","2022","10","09","03:00","4.5","","","M","","M","0.0","","34","","15","","","","98.60","","","","","","NA"
"-88.31","49.69","LITTLE FLATLAND ISLAND (AUT)","6049470","2022-10-09 04:00","2022","10","09","04:00","4.3","","","M","","M","0.0","","36","","20","","","","98.61","","","","","","NA"
"-88.31","49.69","LITTLE FLATLAND ISLAND (AUT)","6049470","2022-10-09 05:00","2022","10","09","05:00","3.9","","","M","","M","0.0","","36","","18","","","","98.66","","","","","","NA"
"-88.31","49.69","LITTLE FLATLAND ISLAND (AUT)","6049470","2022-10-09 06:00","2022","10","09","06:00","3.9","","","M","","M","0.0","","34","","16","","","","98.72","","","","","","NA"
"-88.31","49.69","LITTLE FLATLAND ISLAND (AUT)","6049470","2022-10-09 07:00","2022","10","09","07:00","3.7","","","M","","M","0.0","","36","","18","","","","98.79","","","","","","NA"
"-88.31","49.69","LITTLE FLATLAND ISLAND (AUT)","6049470","2022-10-09 08:00","2022","10","09","08:00","3.7","","","M","","M","0.0","","1","","22","","","","98.86","","","","","","NA"
"-88.31","49.69","LITTLE FLATLAND ISLAND (AUT)","6049470","2022-10-09 09:00","2022","10","09","09:00","3.9","","","M","","M","0.0","","35","","19","","","","98.93","","","","","","NA"
"-88.31","49.69","LITTLE FLATLAND ISLAND (AUT)","6049470","2022-10-09 10:00","2022","10","09","10:00","4.9","","","M","","M","0.0","","2","","21","","","","98.97","","","","","","NA"
"-88.31","49.69","LITTLE FLATLAND ISLAND (AUT)","6049470","2022-10-09 11:00","2022","10","09","11:00","4.7","","","M","","M","0.0","","36","","18","","","","99.03","","","","","","NA"
"-88.31","49.69","LITTLE FLATLAND ISLAND (AUT)","6049470","2022-10-09 12:00","2022","10","09","12:00","4.9","","","M","","M","0.0","","34","","21","","","","99.07","","","","","","NA"
"-88.31","49.69","LITTLE FLATLAND ISLAND (AUT)","6049470","2022-10-09 13:00","2022","10","09","13:00","4.7","","","M","","M","0.0","","34","","18","","","","99.06","","","","","","NA"
"-88.31","49.69","LITTLE FLATLAND ISLAND (AUT)","6049470","2022-10-09 14:00","2022","10","09","14:00","4.7","","","M","","M","0.0","","34","","17","","","","99.05","","","","","","NA"
"-88.31","49.69","LITTLE FLATLAND ISLAND (AUT)","6049470","2022-10-09 15:00","2022","10","09","15:00","5.1","","","M","","M","0.0","","33","","14","","","","99.04","","","","","","NA"
"-88.31","49.69","LITTLE FLATLAND ISLAND (AUT)","6049470","2022-10-09 16:00","2022","10","09","16:00","5.9","","","M","","M","0.0","","31","","11","","","","99.00","","","","","","NA"
"-88.31","49.69","LITTLE FLATLAND ISLAND (AUT)","6049470","2022-10-09 17:00","2022","10","09","17:00","5.8","","","M","","M","0.0","","34","","8","","","","99.02","","","","","","NA"
"-88.31","49.69","LITTLE FLATLAND ISLAND (AUT)","6049470","2022-10-09 18:00","2022","10","09","18:00","3.7","","","M","","M","0.0","","34","","2","","","","99.00","","","","","","NA"
"-88.31","49.69","LITTLE FLATLAND ISLAND (AUT)","6049470","2022-10-09 19:00","2022","10","09","19:00","2.7","","","M","","M","0.0","","36","","3","","","","99.02","","","","","","NA"
"-88.31","49.69","LITTLE FLATLAND ISLAND (AUT)","6049470","2022-10-09 20:00","2022","10","09","20:00","2.6","","","M","","M","0.0","","23","","3","","","","99.01","","","","","","NA"
"-88.31","49.69","LITTLE FLATLAND ISLAND (AUT)","6049470","2022-10-09 21:00","2022","10","09","21:00","4.3","","","M","","M","0.0","","22","","5","","","","99.02","","","","","","NA"
"-88.31","49.69","LITTLE FLATLAND ISLAND (AUT)","6049470","2022-10-09 22:00","2022","10","09","22:00","4.8","","","M","","M","0.0","","24","","8","","","","99.02","","","","","","NA"
"-88.31","49.69","LITTLE FLATLAND ISLAND (AUT)","6049470","2022-10-09 23:00","2022","10","09","23:00","5.2","","","M","","M","0.0","","25","","7","","","","99.03","","","","","","NA"
"-88.31","49.69","LITTLE FLATLAND ISLAND (AUT)","6049470","2022-10-10 00:00","2022","10","10","00:00","5.2","","","M","","M","0.0","","23","","8","","","","99.01","","","","","","NA"
"-88.31","49.69","LITTLE FLATLAND ISLAND (AUT)","6049470","2022-10-10 01:00","2022","10","10","01:00","5.1","","","M","","M","0.0","","23","","6","","","","99.00","","","","","","NA"
"-88.31","49.69","LITTLE FLATLAND ISLAND (AUT)","6049470","2022-10-10 02:00","2022","10","10","02:00","5.1","","","M","","M","0.0","","23","","6","","","","98.98","","","","","","NA"
"-88.31","49.69","LITTLE FLATLAND ISLAND (AUT)","6049470","2022-10-10 03:00","2022","10","10","03:00","5.1","","","M","","M","0.0","","25","","12","","","","98.94","","","","","","NA"
"-88.31","49.69","LITTLE FLATLAND ISLAND (AUT)","6049470","2022-10-10 04:00","2022","10","10","04:00","5.2","","","M","","M","0.0","","24","","7","","","","98.93","","","","","","NA"
"-88.31","49.69","LITTLE FLATLAND ISLAND (AUT)","6049470","2022-10-10 05:00","2022","10","10","05:00","4.8","","","M","","M","0.0","","22","","11","","","","98.92","","","","","","NA"
"-88.31","49.69","LITTLE FLATLAND ISLAND (AUT)","6049470","2022-10-10 06:00","2022","10","10","06:00","4.6","","","M","","M","0.0","","24","","12","","","","98.95","","","","","","NA"
"-88.31","49.69","LITTLE FLATLAND ISLAND (AUT)","6049470","2022-10-10 07:00","2022","10","10","07:00","4.3","","","M","","M","0.0","","22","","10","","","","98.97","","","","","","NA"
"-88.31","49.69","LITTLE FLATLAND ISLAND (AUT)","6049470","2022-10-10 08:00","2022","10","10","08:00","4.9","","","M","","M","0.0","","23","","10","","","","98.94","","","","","","NA"
"-88.31","49.69","LITTLE FLATLAND ISLAND (AUT)","6049470","2022-10-10 09:00","2022","10","10","09:00","6.0","","","M","","M","0.0","","22","","9","","","","98.94","","","","","","NA"
"-88.31","49.69","LITTLE FLATLAND ISLAND (AUT)","6049470","2022-10-10 10:00","2022","10","10","10:00","7.7","","","M","","M","0.0","","22","","10","","","","98.91","","","","","","NA"
"-88.31","49.69","LITTLE FLATLAND ISLAND (AUT)","6049470","2022-10-10 11:00","2022","10","10","11:00","8.6","","","M","","M","0.0","","20","","11","","","","98.87","","","","","","NA"
"-88.31","49.69","LITTLE FLATLAND ISLAND (AUT)","6049470","2022-10-10 12:00","2022","10","10","12:00","10.4","","","M","","M","0.0","","21","","11","","","","98.81","","","","","","NA"
"-88.31","49.69","LITTLE FLATLAND ISLAND (AUT)","6049470","2022-10-10 13:00","2022","10","10","13:00","11.3","","","M","","M","0.0","","21","","10","","","","98.71","","","","","","NA"
"-88.31","49.69","LITTLE FLATLAND ISLAND (AUT)","6049470","2022-10-10 14:00","2022","10","10","14:00","11.6","","","M","","M","0.0","","19","","15","","","","98.58","","","","","","NA"
"-88.31","49.69","LITTLE FLATLAND ISLAND (AUT)","6049470","2022-10-10 15:00","2022","10","10","15:00","12.6","","","M","","M","0.0","","19","","8","","","","98.45","","","","","","NA"
"-88.31","49.69","LITTLE FLATLAND ISLAND (AUT)","6049470","2022-10-10 16:00","2022","10","10","16:00","11.6","","","M","","M","0.0","","19","","7","","","","98.36","","","","","","NA"
"-88.31","49.69","LITTLE FLATLAND ISLAND (AUT)","6049470","2022-10-10 17:00","2022","10","10","17:00","11.1","","","M","","M","0.0","","18","","12","","","","98.28","","","","","","NA"
"-88.31","49.69","LITTLE FLATLAND ISLAND (AUT)","6049470","2022-10-10 18:00","2022","10","10","18:00","10.4","","","M","","M","0.0","","18","","14","","","","98.22","","","","","","NA"
"-88.31","49.69","LITTLE FLATLAND ISLAND (AUT)","6049470","2022-10-10 19:00","2022","10","10","19:00","9.9","","","M","","M","0.0","","19","","27","","","","98.19","","","","","","NA"
"-88.31","49.69","LITTLE FLATLAND ISLAND (AUT)","6049470","2022-10-10 20:00","2022","10","10","20:00","9.5","","","M","","M","0.0","","20","","28","","","","98.16","","","","","","NA"
"-88.31","49.69","LITTLE FLATLAND ISLAND (AUT)","6049470","2022-10-10 21:00","2022","10","10","21:00","9.2","","","M","","M","0.0","","20","","24","","","","98.15","","","","","","NA"
"-88.31","49.69","LITTLE FLATLAND ISLAND (AUT)","6049470","2022-10-10 22:00","2022","10","10","22:00","9.1","","","M","","M","0.0","","20","","23","","","","98.17","","","","","","NA"
"-88.31","49.69","LITTLE FLATLAND ISLAND (AUT)","6049470","2022-10-10 23:00","2022","10","10","23:00","9.1","","","M","","M","0.0","","20","","28","","","","98.13","","","","","","NA"
"-88.31","49.69","LITTLE FLATLAND ISLAND (AUT)","6049470","2022-10-11 00:00","2022","10","11","00:00","8.9","","","M","","M","0.0","","19","","28","","","","98.12","","","","","","NA"
"-88.31","49.69","LITTLE FLATLAND ISLAND (AUT)","6049470","2022-10-11 01:00","2022","10","11","01:00","8.8","","","M","","M","0.0","","19","","17","","","","98.06","","","","","","NA"
"-88.31","49.69","LITTLE FLATLAND ISLAND (AUT)","6049470","2022-10-11 02:00","2022","10","11","02:00","9.0","","","M","","M","0.0","","19","","28","","","","97.99","","","","","","NA"
"-88.31","49.69","LITTLE FLATLAND ISLAND (AUT)","6049470","2022-10-11 03:00","2022","10","11","03:00","9.0","","","M","","M","0.0","","20","","23","","","","97.93","","","","","","NA"
"-88.31","49.69","LITTLE FLATLAND ISLAND (AUT)","6049470","2022-10-11 04:00","2022","10","11","04:00","9.1","","","M","","M","0.0","","20","","18","","","","97.88","","","","","","NA"
"-88.31","49.69","LITTLE FLATLAND ISLAND (AUT)","6049470","2022-10-11 05:00","2022","10","11","05:00","9.3","","","M","","M","0.0","","19","","17","","","","97.86","","","","","","NA"
"-88.31","49.69","LITTLE FLATLAND ISLAND (AUT)","6049470","2022-10-11 06:00","2022","10","11","06:00","9.4","","","M","","M","0.0","","19","","11","","","","97.85","","","","","","NA"
"-88.31","49.69","LITTLE FLATLAND ISLAND (AUT)","6049470","2022-10-11 07:00","2022","10","11","07:00","8.9","","","M","","M","0.0","","16","","6","","","","97.81","","","","","","NA"
"-88.31","49.69","LITTLE FLATLAND ISLAND (AUT)","6049470","2022-10-11 08:00","2022","10","11","08:00","9.6","","","M","","M","0.0","","17","","7","","","","97.75","","","","","","NA"
"-88.31","49.69","LITTLE FLATLAND ISLAND (AUT)","6049470","2022-10-11 09:00","2022","10","11","09:00","11.0","","","M","","M","0.0","","18","","8","","","","97.71","","","","","","NA"
"-88.31","49.69","LITTLE FLATLAND ISLAND (AUT)","6049470","2022-10-11 10:00","2022","10","11","10:00","12.5","","","M","","M","0.0","","19","","8","","","","97.61","","","","","","NA"
"-88.31","49.69","LITTLE FLATLAND ISLAND (AUT)","6049470","2022-10-11 11:00","2022","10","11","11:00","14.2","","","M","","M","0.0","","18","","8","","","","97.57","","","","","","NA"
"-88.31","49.69","LITTLE FLATLAND ISLAND (AUT)","6049470","2022-10-11 12:00","2022","10","11","12:00","14.7","","","M","","M","0.0","","21","","5","","","","97.45","","","","","","NA"
"-88.31","49.69","LITTLE FLATLAND ISLAND (AUT)","6049470","2022-10-11 13:00","2022","10","11","13:00","15.0","","","M","","M","0.0","","18","","7","","","","97.35","","","","","","NA"
"-88.31","49.69","LITTLE FLATLAND ISLAND (AUT)","6049470","2022-10-11 14:00","2022","10","11","14:00","17.2","","","M","","M","0.0","","19","","13","","","","97.26","","","","","","NA"
"-88.31","49.69","LITTLE FLATLAND ISLAND (AUT)","6049470","2022-10-11 15:00","2022","10","11","15:00","16.0","","","M","","M","0.0","","19","","9","","","","97.17","","","","","","NA"
"-88.31","49.69","LITTLE FLATLAND ISLAND (AUT)","6049470","2022-10-11 16:00","2022","10","11","16:00","15.0","","","M","","M","0.0","","19","","8","","","","97.08","","","","","","NA"
"-88.31","49.69","LITTLE FLATLAND ISLAND (AUT)","6049470","2022-10-11 17:00","2022","10","11","17:00","14.0","","","M","","M","0.0","","19","","9","","","","97.00","","","","","","NA"
"-88.31","49.69","LITTLE FLATLAND ISLAND (AUT)","6049470","2022-10-11 18:00","2022","10","11","18:00","14.2","","","M","","M","0.0","","19","","14","","","","96.91","","","","","","NA"
"-88.31","49.69","LITTLE FLATLAND ISLAND (AUT)","6049470","2022-10-11 19:00","2022","10","11","19:00","14.1","","","M","","M","0.0","","18","","13","","","","96.91","","","","","","NA"
"-88.31","49.69","LITTLE FLATLAND ISLAND (AUT)","6049470","2022-10-11 20:00","2022","10","11","20:00","13.7","","","M","","M","0.0","","17","","9","","","","96.84","","","","","","NA"
"-88.31","49.69","LITTLE FLATLAND ISLAND (AUT)","6049470","2022-10-11 21:00","2022","10","11","21:00","14.6","","","M","","M","0.0","","19","","11","","","","96.87","","","","","","NA"
"-88.31","49.69","LITTLE FLATLAND ISLAND (AUT)","6049470","2022-10-11 22:00","2022","10","11","22:00","13.7","","","M","","M","0.0","","19","","12","","","","96.81","","","","","","NA"
"-88.31","49.69","LITTLE FLATLAND ISLAND (AUT)","6049470","2022-10-11 23:00","2022","10","11","23:00","13.2","","","M","","M","0.0","","17","","9","","","","96.74","","","","","","NA"
"-88.31","49.69","LITTLE FLATLAND ISLAND (AUT)","6049470","2022-10-12 00:00","2022","10","12","00:00","13.6","","","M","","M","0.0","","19","","12","","","","96.70","","","","","","NA"
"-88.31","49.69","LITTLE FLATLAND ISLAND (AUT)","6049470","2022-10-12 01:00","2022","10","12","01:00","13.4","","","M","","M","0.0","","19","","6","","","","96.66","","","","","","NA"
"-88.31","49.69","LITTLE FLATLAND ISLAND (AUT)","6049470","2022-10-12 02:00","2022","10","12","02:00","12.7","","","M","","M","0.5","","17","","7","","","","96.54","","","","","","NA"
"-88.31","49.69","LITTLE FLATLAND ISLAND (AUT)","6049470","2022-10-12 03:00","2022","10","12","03:00","12.5","","","M","","M","0.0","","18","","6","","","","96.51","","","","","","NA"
"-88.31","49.69","LITTLE FLATLAND ISLAND (AUT)","6049470","2022-10-12 04:00","2022","10","12","04:00","12.7","","","M","","M","0.3","","19","","8","","","","96.46","","","","","","NA"
"-88.31","49.69","LITTLE FLATLAND ISLAND (AUT)","6049470","2022-10-12 05:00","2022","10","12","05:00","12.1","","","M","","M","5.1","","17","","6","","","","96.37","","","","","","NA"
"-88.31","49.69","LITTLE FLATLAND ISLAND (AUT)","6049470","2022-10-12 06:00","2022","10","12","06:00","12.2","","","M","","M","0.1","","18","","4","","","","96.35","","","","","","NA"
"-88.31","49.69","LITTLE FLATLAND ISLAND (AUT)","6049470","2022-10-12 07:00","2022","10","12","07:00","13.0","","","M","","M","0.0","","18","","5","","","","96.23","","","","","","NA"
"-88.31","49.69","LITTLE FLATLAND ISLAND (AUT)","6049470","2022-10-12 08:00","2022","10","12","08:00","12.5","","","M","","M","0.9","","23","","7","","","","96.13","","","","","","NA"
"-88.31","49.69","LITTLE FLATLAND ISLAND (AUT)","6049470","2022-10-12 09:00","2022","10","12","09:00","11.2","","","M","","M","5.8","","28","","31","","","","96.24","","","","","","NA"
"-88.31","49.69","LITTLE FLATLAND ISLAND (AUT)","6049470","2022-10-12 10:00","2022","10","12","10:00","10.3","","","M","","M","5.0","","29","","41","","","","96.20","","","","","","NA"
"-88.31","49.69","LITTLE FLATLAND ISLAND (AUT)","6049470","2022-10-12 11:00","2022","10","12","11:00","9.8","","","M","","M","1.3","","31","","25","","","","96.25","","","","","","NA"
"-88.31","49.69","LITTLE FLATLAND ISLAND (AUT)","6049470","2022-10-12 12:00","2022","10","12","12:00","9.8","","","M","","M","0.1","","29","","22","","","","96.30","","","","","","NA"
"-88.31","49.69","LITTLE FLATLAND ISLAND (AUT)","6049470","2022-10-12 13:00","2022","10","12","13:00","9.5","","","M","","M","0.2","","28","","27","","","","96.24","","","","","","NA"
"-88.31","49.69","LITTLE FLATLAND ISLAND (AUT)","6049470","2022-10-12 14:00","2022","10","12","14:00","9.2","","","M","","M","0.1","","27","","25","","","","96.24","","","","","","NA"
"-88.31","49.69","LITTLE FLATLAND ISLAND (AUT)","6049470","2022-10-12 15:00","2022","10","12","15:00","9.3","","","M","","M","0.8","","29","","26","","","","96.25","","","","","","NA"
"-88.31","49.69","LITTLE FLATLAND ISLAND (AUT)","6049470","2022-10-12 16:00","2022","10","12","16:00","8.6","","","M","","M","1.3","","29","","37","","","","96.25","","","","","","NA"
"-88.31","49.69","LITTLE FLATLAND ISLAND (AUT)","6049470","2022-10-12 17:00","2022","10","12","17:00","8.3","","","M","","M","0.6","","30","","39","","","","96.30","","","","","","NA"
"-88.31","49.69","LITTLE FLATLAND ISLAND (AUT)","6049470","2022-10-12 18:00","2022","10","12","18:00","8.6","","","M","","M","0.0","","31","","33","","","","96.39","","","","","","NA"
"-88.31","49.69","LITTLE FLATLAND ISLAND (AUT)","6049470","2022-10-12 19:00","2022","10","12","19:00","8.6","","","M","","M","0.0","","30","","17","","","","96.46","","","","","","NA"
"-88.31","49.69","LITTLE FLATLAND ISLAND (AUT)","6049470","2022-10-12 20:00","2022","10","12","20:00","7.1","","","M","","M","0.8","","25","","8","","","","96.51","","","","","","NA"
"-88.31","49.69","LITTLE FLATLAND ISLAND (AUT)","6049470","2022-10-12 21:00","2022","10","12","21:00","8.6","","","M","","M","0.0","","28","","32","","","","96.53","","","","","","NA"
"-88.31","49.69","LITTLE FLATLAND ISLAND (AUT)","6049470","2022-10-12 22:00","2022","10","12","22:00","8.5","","","M","","M","0.0","","29","","39","","","","96.54","","","","","","NA"
"-88.31","49.69","LITTLE FLATLAND ISLAND (AUT)","6049470","2022-10-12 23:00","2022","10","12","23:00","8.1","","","M","","M","0.0","","28","","32","","","","96.56","","","","","","NA"
"-88.31","49.69","LITTLE FLATLAND ISLAND (AUT)","6049470","2022-10-13 00:00","2022","10","13","00:00","7.7","","","M","","M","0.0","","27","","35","","","","96.57","","","","","","NA"
"-88.31","49.69","LITTLE FLATLAND ISLAND (AUT)","6049470","2022-10-13 01:00","2022","10","13","01:00","7.5","","","M","","M","0.0","","28","","32","","","","96.56","","","","","","NA"
"-88.31","49.69","LITTLE FLATLAND ISLAND (AUT)","6049470","2022-10-13 02:00","2022","10","13","02:00","7.0","","","M","","M","0.0","","27","","23","","","","96.57","","","","","","NA"
"-88.31","49.69","LITTLE FLATLAND ISLAND (AUT)","6049470","2022-10-13 03:00","2022","10","13","03:00","6.9","","","M","","M","0.0","","28","","28","","","","96.52","","","","","","NA"
"-88.31","49.69","LITTLE FLATLAND ISLAND (AUT)","6049470","2022-10-13 04:00","2022","10","13","04:00","6.6","","","M","","M","0.0","","29","","25","","","","96.52","","","","","","NA"
"-88.31","49.69","LITTLE FLATLAND ISLAND (AUT)","6049470","2022-10-13 05:00","2022","10","13","05:00","6.5","","","M","","M","0.0","","30","","24","","","","96.55","","","","","","NA"
"-88.31","49.69","LITTLE FLATLAND ISLAND (AUT)","6049470","2022-10-13 06:00","2022","10","13","06:00","5.8","","","M","","M","0.0","","31","","26","","","","96.56","","","","","","NA"
"-88.31","49.69","LITTLE FLATLAND ISLAND (AUT)","6049470","2022-10-13 07:00","2022","10","13","07:00","6.0","","","M","","M","0.0","","31","","25","","","","96.57","","","","","","NA"
"-88.31","49.69","LITTLE FLATLAND ISLAND (AUT)","6049470","2022-10-13 08:00","2022","10","13","08:00","5.8","","","M","","M","0.0","","31","","20","","","","96.62","","","","","","NA"
"-88.31","49.69","LITTLE FLATLAND ISLAND (AUT)","6049470","2022-10-13 09:00","2022","10","13","09:00","5.5","","","M","","M","0.0","","29","","23","","","","96.65","","","","","","NA"
"-88.31","49.69","LITTLE FLATLAND ISLAND (AUT)","6049470","2022-10-13 10:00","2022","10","13","10:00","5.1","","","M","","M","0.4","","31","","19","","","","96.67","","","","","","NA"
"-88.31","49.69","LITTLE FLATLAND ISLAND (AUT)","6049470","2022-10-13 11:00","2022","10","13","11:00","5.5","","","M","","M","0.1","","28","","24","","","","96.68","","","","","","NA"
"-88.31","49.69","LITTLE FLATLAND ISLAND (AUT)","6049470","2022-10-13 12:00","2022","10","13","12:00","6.0","","","M","","M","0.0","","28","","18","","","","96.68","","","","","","NA"
"-88.31","49.69","LITTLE FLATLAND ISLAND (AUT)","6049470","2022-10-13 13:00","2022","10","13","13:00","6.5","","","M","","M","0.0","","29","","17","","","","96.67","","","","","","NA"
"-88.31","49.69","LITTLE FLATLAND ISLAND (AUT)","6049470","2022-10-13 14:00","2022","10","13","14:00","7.4","","","M","","M","0.0","","28","","7","","","","96.66","","","","","","NA"
"-88.31","49.69","LITTLE FLATLAND ISLAND (AUT)","6049470","2022-10-13 15:00","2022","10","13","15:00","6.5","","","M","","M","0.0","","11","","3","","","","96.68","","","","","","NA"
"-88.31","49.69","LITTLE FLATLAND ISLAND (AUT)","6049470","2022-10-13 16:00","2022","10","13","16:00","6.9","","","M","","M","0.0","","29","","2","","","","96.71","","","","","","NA"
"-88.31","49.69","LITTLE FLATLAND ISLAND (AUT)","6049470","2022-10-13 17:00","2022","10","13","17:00","6.5","","","M","","M","0.0","","26","","16","","","","96.77","","","","","","NA"
"-88.31","49.69","LITTLE FLATLAND ISLAND (AUT)","6049470","2022-10-13 18:00","2022","10","13","18:00","5.7","","","M","","M","0.0","","25","","8","","","","96.83","","","","","","NA"
"-88.31","49.69","LITTLE FLATLAND ISLAND (AUT)","6049470","2022-10-13 19:00","2022","10","13","19:00","5.2","","","M","","M","0.0","","23","","7","","","","96.87","","","","","","NA"
"-88.31","49.69","LITTLE FLATLAND ISLAND (AUT)","6049470","2022-10-13 20:00","2022","10","13","20:00","5.3","","","M","","M","0.0","","24","","6","","","","96.87","","","","","","NA"
"-88.31","49.69","LITTLE FLATLAND ISLAND (AUT)","6049470","2022-10-13 21:00","2022","10","13","21:00","5.5","","","M","","M","0.0","","23","","8","","","","96.86","","","","","","NA"
"-88.31","49.69","LITTLE FLATLAND ISLAND (AUT)","6049470","2022-10-13 22:00","2022","10","13","22:00","4.9","","","M","","M","0.0","","25","","7","","","","96.84","","","","","","NA"
"-88.31","49.69","LITTLE FLATLAND ISLAND (AUT)","6049470","2022-10-13 23:00","2022","10","13","23:00","4.5","","","M","","M","0.0","","25","","13","","","","96.84","","","","","","NA"
"-88.31","49.69","LITTLE FLATLAND ISLAND (AUT)","6049470","2022-10-14 00:00","2022","10","14","00:00","4.2","","","M","","M","0.0","","25","","8","","","","96.82","","","","","","NA"
"-88.31","49.69","LITTLE FLATLAND ISLAND (AUT)","6049470","2022-10-14 01:00","2022","10","14","01:00","3.7","","","M","","M","0.0","","23","","5","","","","96.83","","","","","","NA"
"-88.31","49.69","LITTLE FLATLAND ISLAND (AUT)","6049470","2022-10-14 02:00","2022","10","14","02:00","3.4","","","M","","M","0.0","","27","","8","","","","96.83","","","","","","NA"
"-88.31","49.69","LITTLE FLATLAND ISLAND (AUT)","6049470","2022-10-14 03:00","2022","10","14","03:00","3.1","","","M","","M","0.0","","26","","6","","","","96.82","","","","","","NA"
"-88.31","49.69","LITTLE FLATLAND ISLAND (AUT)","6049470","2022-10-14 04:00","2022","10","14","04:00","2.4","","","M","","M","0.0","","23","","3","","","","96.83","","","","","","NA"
"-88.31","49.69","LITTLE FLATLAND ISLAND (AUT)","6049470","2022-10-14 05:00","2022","10","14","05:00","4.3","","","M","","M","0.0","","15","","8","","","","96.85","","","","","","NA"
"-88.31","49.69","LITTLE FLATLAND ISLAND (AUT)","6049470","2022-10-14 06:00","2022","10","14","06:00","3.9","","","M","","M","0.0","","15","","7","","","","96.85","","","","","","NA"
"-88.31","49.69","LITTLE FLATLAND ISLAND (AUT)","6049470","2022-10-14 07:00","2022","10","14","07:00","3.6","","","M","","M","0.0","","15","","6","","","","96.88","","","","","","NA"
"-88.31","49.69","LITTLE FLATLAND ISLAND (AUT)","6049470","2022-10-14 08:00","2022","10","14","08:00","4.4","","","M","","M","0.0","","11","","14","","","","96.93","","","","","","NA"
"-88.31","49.69","LITTLE FLATLAND ISLAND (AUT)","6049470","2022-10-14 09:00","2022","10","14","09:00","5.4","","","M","","M","0.0","","11","","11","","","","96.94","","","","","","NA"
"-88.31","49.69","LITTLE FLATLAND ISLAND (AUT)","6049470","2022-10-14 10:00","2022","10","14","10:00","5.3","","","M","","M","0.0","","11","","9","","","","96.93","","","","","","NA"
"-88.31","49.69","LITTLE FLATLAND ISLAND (AUT)","6049470","2022-10-14 11:00","2022","10","14","11:00","5.4","","","M","","M","0.0","","8","","8","","","","96.95","","","","","","NA"
"-88.31","49.69","LITTLE FLATLAND ISLAND (AUT)","6049470","2022-10-14 12:00","2022","10","14","12:00","5.8","","","M","","M","0.0","","5","","4","","","","96.95","","","","","","NA"
"-88.31","49.69","LITTLE FLATLAND ISLAND (AUT)","6049470","2022-10-14 13:00","2022","10","14","13:00","6.5","","","M","","M","0.0","","5","","7","","","","96.94","","","","","","NA"
"-88.31","49.69","LITTLE FLATLAND ISLAND (AUT)","6049470","2022-10-14 14:00","2022","10","14","14:00","6.6","","","M","","M","0.0","","3","","12","","","","96.95","","","","","","NA"
"-88.31","49.69","LITTLE FLATLAND ISLAND (AUT)","6049470","2022-10-14 15:00","2022","10","14","15:00","6.4","","","M","","M","0.0","","3","","16","","","","96.98","","","","","","NA"
"-88.31","49.69","LITTLE FLATLAND ISLAND (AUT)","6049470","2022-10-14 16:00","2022","10","14","16:00","7.4","","","M","","M","0.0","","3","","19","","","","97.01","","","","","","NA"
"-88.31","49.69","LITTLE FLATLAND ISLAND (AUT)","6049470","2022-10-14 17:00","2022","10","14","17:00","6.7","","","M","","M","0.0","","7","","22","","","","97.06","","","","","","NA"
"-88.31","49.69","LITTLE FLATLAND ISLAND (AUT)","6049470","2022-10-14 18:00","2022","10","14","18:00","6.9","","","M","","M","0.0","","10","","18","","","","97.11","","","","","","NA"
"-88.31","49.69","LITTLE FLATLAND ISLAND (AUT)","6049470","2022-10-14 19:00","2022","10","14","19:00","6.9","","","M","","M","0.0","","8","","14","","","","97.14","","","","","","NA"
"-88.31","49.69","LITTLE FLATLAND ISLAND (AUT)","6049470","2022-10-14 20:00","2022","10","14","20:00","6.8","","","M","","M","0.0","","7","","18","","","","97.16","","","","","","NA"
"-88.31","49.69","LITTLE FLATLAND ISLAND (AUT)","6049470","2022-10-14 21:00","2022","10","14","21:00","6.5","","","M","","M","0.0","","9","","21","","","","97.14","","","","","","NA"
"-88.31","49.69","LITTLE FLATLAND ISLAND (AUT)","6049470","2022-10-14 22:00","2022","10","14","22:00","5.9","","","M","","M","0.0","","10","","18","","","","97.15","","","","","","NA"
"-88.31","49.69","LITTLE FLATLAND ISLAND (AUT)","6049470","2022-10-14 23:00","2022","10","14","23:00","5.3","","","M","","M","0.0","","12","","18","","","","97.11","","","","","","NA"
"-88.31","49.69","LITTLE FLATLAND ISLAND (AUT)","6049470","2022-10-15 00:00","2022","10","15","00:00","5.2","","","M","","M","0.0","","13","","18","","","","97.09","","","","","","NA"
"-88.31","49.69","LITTLE FLATLAND ISLAND (AUT)","6049470","2022-10-15 01:00","2022","10","15","01:00","5.5","","","M","","M","0.0","","15","","10","","","","97.11","","","","","","NA"
"-88.31","49.69","LITTLE FLATLAND ISLAND (AUT)","6049470","2022-10-15 02:00","2022","10","15","02:00","5.6","","","M","","M","0.0","","20","","7","","","","97.12","","","","","","NA"
"-88.31","49.69","LITTLE FLATLAND ISLAND (AUT)","6049470","2022-10-15 03:00","2022","10","15","03:00","5.4","","","M","","M","0.1","","18","","7","","","","97.13","","","","","","NA"
"-88.31","49.69","LITTLE FLATLAND ISLAND (AUT)","6049470","2022-10-15 04:00","2022","10","15","04:00","5.3","","","M","","M","0.1","","19","","9","","","","97.13","","","","","","NA"
"-88.31","49.69","LITTLE FLATLAND ISLAND (AUT)","6049470","2022-10-15 05:00","2022","10","15","05:00","5.3","","","M","","M","0.0","","18","","7","","","","97.12","","","","","","NA"
"-88.31","49.69","LITTLE FLATLAND ISLAND (AUT)","6049470","2022-10-15 06:00","2022","10","15","06:00","5.2","","","M","","M","0.1","","20","","17","","","","97.13","","","","","","NA"
"-88.31","49.69","LITTLE FLATLAND ISLAND (AUT)","6049470","2022-10-15 07:00","2022","10","15","07:00","5.1","","","M","","M","0.0","","18","","9","","","","97.13","","","","","","NA"
"-88.31","49.69","LITTLE FLATLAND ISLAND (AUT)","6049470","2022-10-15 08:00","2022","10","15","08:00","5.3","","","M","","M","0.0","","18","","8","","","","97.15","","","","","","NA"
"-88.31","49.69","LITTLE FLATLAND ISLAND (AUT)","6049470","2022-10-15 09:00","2022","10","15","09:00","5.4","","","M","","M","0.0","","21","","11","","","","97.15","","","","","","NA"
"-88.31","49.69","LITTLE FLATLAND ISLAND (AUT)","6049470","2022-10-15 10:00","2022","10","15","10:00","4.3","","","M","","M","0.9","","22","","7","","","","97.15","","","","","","NA"
"-88.31","49.69","LITTLE FLATLAND ISLAND (AUT)","6049470","2022-10-15 11:00","2022","10","15","11:00","6.0","","","M","","M","1.3","","30","","16","","","","97.15","","","","","","NA"
"-88.31","49.69","LITTLE FLATLAND ISLAND (AUT)","6049470","2022-10-15 12:00","2022","10","15","12:00","6.5","","","M","","M","0.0","","29","","21","","","","97.17","","","","","","NA"
"-88.31","49.69","LITTLE FLATLAND ISLAND (AUT)","6049470","2022-10-15 13:00","2022","10","15","13:00","6.6","","","M","","M","0.0","","30","","23","","","","97.19","","","","","","NA"
"-88.31","49.69","LITTLE FLATLAND ISLAND (AUT)","6049470","2022-10-15 14:00","2022","10","15","14:00","6.9","","","M","","M","0.0","","30","","22","","","","97.19","","","","","","NA"
"-88.31","49.69","LITTLE FLATLAND ISLAND (AUT)","6049470","2022-10-15 15:00","2022","10","15","15:00","6.9","","","M","","M","0.0","","32","","16","","","","97.23","","","","","","NA"
"-88.31","49.69","LITTLE FLATLAND ISLAND (AUT)","6049470","2022-10-15 16:00","2022","10","15","16:00","6.9","","","M","","M","0.0","","33","","17","","","","97.28","","","","","","NA"
"-88.31","49.69","LITTLE FLATLAND ISLAND (AUT)","6049470","2022-10-15 17:00","2022","10","15","17:00","6.7","","","M","","M","0.0","","34","","15","","","","97.35","","","","","","NA"
"-88.31","49.69","LITTLE FLATLAND ISLAND (AUT)","6049470","2022-10-15 18:00","2022","10","15","18:00","6.6","","","M","","M","0.0","","34","","14","","","","97.41","","","","","","NA"
"-88.31","49.69","LITTLE FLATLAND ISLAND (AUT)","6049470","2022-10-15 19:00","2022","10","15","19:00","6.9","","","M","","M","0.0","","33","","15","","","","97.46","","","","","","NA"
"-88.31","49.69","LITTLE FLATLAND ISLAND (AUT)","6049470","2022-10-15 20:00","2022","10","15","20:00","6.4","","","M","","M","0.0","","36","","13","","","","97.50","","","","","","NA"
"-88.31","49.69","LITTLE FLATLAND ISLAND (AUT)","6049470","2022-10-15 21:00","2022","10","15","21:00","6.8","","","M","","M","0.0","","34","","15","","","","97.52","","","","","","NA"
"-88.31","49.69","LITTLE FLATLAND ISLAND (AUT)","6049470","2022-10-15 22:00","2022","10","15","22:00","6.7","","","M","","M","0.0","","36","","12","","","","97.55","","","","","","NA"
"-88.31","49.69","LITTLE FLATLAND ISLAND (AUT)","6049470","2022-10-15 23:00","2022","10","15","23:00","6.9","","","M","","M","0.0","","35","","11","","","","97.56","","","","","","NA"
"-88.31","49.69","LITTLE FLATLAND ISLAND (AUT)","6049470","2022-10-16 00:00","2022","10","16","00:00","6.9","","","M","","M","0.0","","36","","15","","","","97.57","","","","","","NA"
"-88.31","49.69","LITTLE FLATLAND ISLAND (AUT)","6049470","2022-10-16 01:00","2022","10","16","01:00","7.0","","","M","","M","0.0","","36","","16","","","","97.60","","","","","","NA"
"-88.31","49.69","LITTLE FLATLAND ISLAND (AUT)","6049470","2022-10-16 02:00","2022","10","16","02:00","7.2","","","M","","M","0.0","","32","","20","","","","97.63","","","","","","NA"
"-88.31","49.69","LITTLE FLATLAND ISLAND (AUT)","6049470","2022-10-16 03:00","2022","10","16","03:00","7.0","","","M","","M","0.0","","33","","20","","","","97.67","","","","","","NA"
"-88.31","49.69","LITTLE FLATLAND ISLAND (AUT)","6049470","2022-10-16 04:00","2022","10","16","04:00","6.9","","","M","","M","0.0","","34","","17","","","","97.70","","","","","","NA"
"-88.31","49.69","LITTLE FLATLAND ISLAND (AUT)","6049470","2022-10-16 05:00","2022","10","16","05:00","6.7","","","M","","M","0.0","","34","","18","","","","97.73","","","","","","NA"
"-88.31","49.69","LITTLE FLATLAND ISLAND (AUT)","6049470","2022-10-16 06:00","2022","10","16","06:00","6.7","","","M","","M","0.0","","34","","18","","","","97.76","","","","","","NA"
"-88.31","49.69","LITTLE FLATLAND ISLAND (AUT)","6049470","2022-10-16 07:00","2022","10","16","07:00","6.4","","","M","","M","0.0","","34","","21","","","","97.77","","","","","","NA"
"-88.31","49.69","LITTLE FLATLAND ISLAND (AUT)","6049470","2022-10-16 08:00","2022","10","16","08:00","6.2","","","M","","M","0.0","","36","","16","","","","97.82","","","","","","NA"
"-88.31","49.69","LITTLE FLATLAND ISLAND (AUT)","6049470","2022-10-16 09:00","2022","10","16","09:00","6.3","","","M","","M","0.0","","35","","18","","","","97.85","","","","","","NA"
"-88.31","49.69","LITTLE FLATLAND ISLAND (AUT)","6049470","2022-10-16 10:00","2022","10","16","10:00","6.0","","","M","","M","0.0","","36","","19","","","","97.89","","","","","","NA"
"-88.31","49.69","LITTLE FLATLAND ISLAND (AUT)","6049470","2022-10-16 11:00","2022","10","16","11:00","5.9","","","M","","M","0.0","","35","","14","","","","97.92","","","","","","NA"
"-88.31","49.69","LITTLE FLATLAND ISLAND (AUT)","6049470","2022-10-16 12:00","2022","10","16","12:00","6.1","","","M","","M","0.0","","1","","14","","","","97.96","","","","","","NA"
"-88.31","49.69","LITTLE FLATLAND ISLAND (AUT)","6049470","2022-10-16 13:00","2022","10","16","13:00","5.7","","","M","","M","0.0","","6","","16","","","","97.95","","","","","","NA"
"-88.31","49.69","LITTLE FLATLAND ISLAND (AUT)","6049470","2022-10-16 14:00","2022","10","16","14:00","6.1","","","M","","M","0.0","","1","","14","","","","97.95","","","","","","NA"
"-88.31","49.69","LITTLE FLATLAND ISLAND (AUT)","6049470","2022-10-16 15:00","2022","10","16","15:00","6.0","","","M","","M","0.1","","35","","13","","","","97.96","","","","","","NA"
"-88.31","49.69","LITTLE FLATLAND ISLAND (AUT)","6049470","2022-10-16 16:00","2022","10","16","16:00","4.7","","","M","","M","0.5","","33","","39","","","","97.96","","","","","","NA"
"-88.31","49.69","LITTLE FLATLAND ISLAND (AUT)","6049470","2022-10-16 17:00","2022","10","16","17:00","4.1","","","M","","M","0.0","","34","","40","","","","98.03","","","","","","NA"
"-88.31","49.69","LITTLE FLATLAND ISLAND (AUT)","6049470","2022-10-16 18:00","2022","10","16","18:00","3.4","","","M","","M","0.0","","35","","44","","","","98.08","","","","","","NA"
"-88.31","49.69","LITTLE FLATLAND ISLAND (AUT)","6049470","2022-10-16 19:00","2022","10","16","19:00","3.0","","","M","","M","0.0","","35","","37","","","","98.17","","","","","","NA"
"-88.31","49.69","LITTLE FLATLAND ISLAND (AUT)","6049470","2022-10-16 20:00","2022","10","16","20:00","2.8","","","M","","M","0.0","","36","","44","","","","98.23","","","","","","NA"
"-88.31","49.69","LITTLE FLATLAND ISLAND (AUT)","6049470","2022-10-16 21:00","2022","10","16","21:00","2.2","","","M","","M","0.0","","36","","44","","","","98.28","","","","","","NA"
"-88.31","49.69","LITTLE FLATLAND ISLAND (AUT)","6049470","2022-10-16 22:00","2022","10","16","22:00","1.6","","","M","","M","0.0","","36","","48","","","","98.33","","","","","","NA"
"-88.31","49.69","LITTLE FLATLAND ISLAND (AUT)","6049470","2022-10-16 23:00","2022","10","16","23:00","1.8","","","M","","M","0.0","","36","","48","","","","98.40","","","","","","NA"
"-88.31","49.69","LITTLE FLATLAND ISLAND (AUT)","6049470","2022-10-17 00:00","2022","10","17","00:00","1.3","","","M","","M","0.0","","36","","51","","","","98.43","","","","","","NA"
"-88.31","49.69","LITTLE FLATLAND ISLAND (AUT)","6049470","2022-10-17 01:00","2022","10","17","01:00","0.9","","","M","","M","0.0","","35","","40","","","","98.45","","","","","","NA"
"-88.31","49.69","LITTLE FLATLAND ISLAND (AUT)","6049470","2022-10-17 02:00","2022","10","17","02:00","1.2","","","M","","M","0.0","","35","","44","","","","98.48","","","","","","NA"
"-88.31","49.69","LITTLE FLATLAND ISLAND (AUT)","6049470","2022-10-17 03:00","2022","10","17","03:00","1.4","","","M","","M","0.0","","36","","43","","","","98.50","","","","","","NA"
"-88.31","49.69","LITTLE FLATLAND ISLAND (AUT)","6049470","2022-10-17 04:00","2022","10","17","04:00","1.3","","","M","","M","0.0","","36","","42","","","","98.53","","","","","","NA"
"-88.31","49.69","LITTLE FLATLAND ISLAND (AUT)","6049470","2022-10-17 05:00","2022","10","17","05:00","1.0","","","M","","M","0.0","","36","","41","","","","98.61","","","","","","NA"
"-88.31","49.69","LITTLE FLATLAND ISLAND (AUT)","6049470","2022-10-17 06:00","2022","10","17","06:00","1.1","","","M","","M","0.0","","36","","43","","","","98.64","","","","","","NA"
"-88.31","49.69","LITTLE FLATLAND ISLAND (AUT)","6049470","2022-10-17 07:00","2022","10","17","07:00","0.9","","","M","","M","0.0","","36","","45","","","","98.71","","","","","","NA"
"-88.31","49.69","LITTLE FLATLAND ISLAND (AUT)","6049470","2022-10-17 08:00","2022","10","17","08:00","0.9","","","M","","M","0.0","","36","","47","","","","98.75","","","","","","NA"
"-88.31","49.69","LITTLE FLATLAND ISLAND (AUT)","6049470","2022-10-17 09:00","2022","10","17","09:00","0.8","","","M","","M","0.0","","1","","49","","","","98.82","","","","","","NA"
"-88.31","49.69","LITTLE FLATLAND ISLAND (AUT)","6049470","2022-10-17 10:00","2022","10","17","10:00","0.8","","","M","","M","0.0","","2","","48","","","","98.87","","","","","","NA"
"-88.31","49.69","LITTLE FLATLAND ISLAND (AUT)","6049470","2022-10-17 11:00","2022","10","17","11:00","0.8","","","M","","M","0.0","","1","","48","","","","98.92","","","","","","NA"
"-88.31","49.69","LITTLE FLATLAND ISLAND (AUT)","6049470","2022-10-17 12:00","2022","10","17","12:00","1.2","","","M","","M","0.0","","36","","39","","","","98.97","","","","","","NA"
"-88.31","49.69","LITTLE FLATLAND ISLAND (AUT)","6049470","2022-10-17 13:00","2022","10","17","13:00","0.8","","","M","","M","0.0","","36","","43","","","","99.00","","","","","","NA"
"-88.31","49.69","LITTLE FLATLAND ISLAND (AUT)","6049470","2022-10-17 14:00","2022","10","17","14:00","1.2","","","M","","M","0.0","","36","","41","","","","99.01","","","","","","NA"
"-88.31","49.69","LITTLE FLATLAND ISLAND (AUT)","6049470","2022-10-17 15:00","2022","10","17","15:00","1.2","","","M","","M","0.0","","36","","40","","","","99.04","","","","","","NA"
"-88.31","49.69","LITTLE FLATLAND ISLAND (AUT)","6049470","2022-10-17 16:00","2022","10","17","16:00","1.7","","","M","","M","0.0","","36","","41","","","","99.08","","","","","","NA"
"-88.31","49.69","LITTLE FLATLAND ISLAND (AUT)","6049470","2022-10-17 17:00","2022","10","17","17:00","1.4","","","M","","M","0.0","","35","","44","","","","99.14","","","","","","NA"
"-88.31","49.69","LITTLE FLATLAND ISLAND (AUT)","6049470","2022-10-17 18:00","2022","10","17","18:00","1.5","","","M","","M","0.0","","36","","44","","","","99.20","","","","","","NA"
"-88.31","49.69","LITTLE FLATLAND ISLAND (AUT)","6049470","2022-10-17 19:00","2022","10","17","19:00","1.7","","","M","","M","0.0","","35","","43","","","","99.24","","","","","","NA"
"-88.31","49.69","LITTLE FLATLAND ISLAND (AUT)","6049470","2022-10-17 20:00","2022","10","17","20:00","1.4","","","M","","M","0.0","","36","","49","","","","99.25","","","","","","NA"
"-88.31","49.69","LITTLE FLATLAND ISLAND (AUT)","6049470","2022-10-17 21:00","2022","10","17","21:00","1.8","","","M","","M","0.0","","36","","44","","","","99.24","","","","","","NA"
"-88.31","49.69","LITTLE FLATLAND ISLAND (AUT)","6049470","2022-10-17 22:00","2022","10","17","22:00","1.5","","","M","","M","0.0","","1","","46","","","","99.27","","","","","","NA"
"-88.31","49.69","LITTLE FLATLAND ISLAND (AUT)","6049470","2022-10-17 23:00","2022","10","17","23:00","1.3","","","M","","M","0.0","","1","","46","","","","99.25","","","","","","NA"
"-88.31","49.69","LITTLE FLATLAND ISLAND (AUT)","6049470","2022-10-18 00:00","2022","10","18","00:00","1.0","","","M","","M","0.0","","36","","44","","","","99.24","","","","","","NA"
"-88.31","49.69","LITTLE FLATLAND ISLAND (AUT)","6049470","2022-10-18 01:00","2022","10","18","01:00","1.0","","","M","","M","0.0","","36","","46","","","","99.23","","","","","","NA"
"-88.31","49.69","LITTLE FLATLAND ISLAND (AUT)","6049470","2022-10-18 02:00","2022","10","18","02:00","0.9","","","M","","M","0.0","","36","","41","","","","99.24","","","","","","NA"
"-88.31","49.69","LITTLE FLATLAND ISLAND (AUT)","6049470","2022-10-18 03:00","2022","10","18","03:00","0.9","","","M","","M","0.0","","36","","42","","","","99.24","","","","","","NA"
"-88.31","49.69","LITTLE FLATLAND ISLAND (AUT)","6049470","2022-10-18 04:00","2022","10","18","04:00","0.8","","","M","","M","0.0","","36","","42","","","","99.22","","","","","","NA"
"-88.31","49.69","LITTLE FLATLAND ISLAND (AUT)","6049470","2022-10-18 05:00","2022","10","18","05:00","1.1","","","M","","M","0.0","","36","","44","","","","99.24","","","","","","NA"
"-88.31","49.69","LITTLE FLATLAND ISLAND (AUT)","6049470","2022-10-18 06:00","2022","10","18","06:00","1.1","","","M","","M","0.0","","36","","45","","","","99.26","","","","","","NA"
"-88.31","49.69","LITTLE FLATLAND ISLAND (AUT)","6049470","2022-10-18 07:00","2022","10","18","07:00","1.8","","","M","","M","0.0","","1","","49","","","","99.28","","","","","","NA"
"-88.31","49.69","LITTLE FLATLAND ISLAND (AUT)","6049470","2022-10-18 08:00","2022","10","18","08:00","2.4","","","M","","M","0.0","","1","","45","","","","99.28","","","","","","NA"
"-88.31","49.69","LITTLE FLATLAND ISLAND (AUT)","6049470","2022-10-18 09:00","2022","10","18","09:00","2.2","","","M","","M","0.0","","36","","37","","","","99.27","","","","","","NA"
"-88.31","49.69","LITTLE FLATLAND ISLAND (AUT)","6049470","2022-10-18 10:00","2022","10","18","10:00","2.6","","","M","","M","0.0","","1","","49","","","","99.26","","","","","","NA"
"-88.31","49.69","LITTLE FLATLAND ISLAND (AUT)","6049470","2022-10-18 11:00","2022","10","18","11:00","3.2","","","M","","M","0.0","","36","","41","","","","99.24","","","","","","NA"
"-88.31","49.69","LITTLE FLATLAND ISLAND (AUT)","6049470","2022-10-18 12:00","2022","10","18","12:00","3.9","","","M","","M","0.0","","1","","45","","","","99.23","","","","","","NA"
"-88.31","49.69","LITTLE FLATLAND ISLAND (AUT)","6049470","2022-10-18 13:00","2022","10","18","13:00","4.3","","","M","","M","0.0","","36","","41","","","","99.20","","","","","","NA"
"-88.31","49.69","LITTLE FLATLAND ISLAND (AUT)","6049470","2022-10-18 14:00","2022","10","18","14:00","4.5","","","M","","M","0.0","","1","","42","","","","99.15","","","","","","NA"
"-88.31","49.69","LITTLE FLATLAND ISLAND (AUT)","6049470","2022-10-18 15:00","2022","10","18","15:00","5.0","","","M","","M","0.0","","36","","34","","","","99.13","","","","","","NA"
"-88.31","49.69","LITTLE FLATLAND ISLAND (AUT)","6049470","2022-10-18 16:00","2022","10","18","16:00","4.7","","","M","","M","0.0","","36","","38","","","","99.12","","","","","","NA"
"-88.31","49.69","LITTLE FLATLAND ISLAND (AUT)","6049470","2022-10-18 17:00","2022","10","18","17:00","4.6","","","M","","M","0.0","","1","","36","","","","99.12","","","","","","NA"
"-88.31","49.69","LITTLE FLATLAND ISLAND (AUT)","6049470","2022-10-18 18:00","2022","10","18","18:00","4.5","","","M","","M","0.0","","36","","35","","","","99.13","","","","","","NA"
"-88.31","49.69","LITTLE FLATLAND ISLAND (AUT)","6049470","2022-10-18 19:00","2022","10","18","19:00","4.3","","","M","","M","0.0","","1","","40","","","","99.15","","","","","","NA"
"-88.31","49.69","LITTLE FLATLAND ISLAND (AUT)","6049470","2022-10-18 20:00","2022","10","18","20:00","3.7","","","M","","M","0.0","","2","","36","","","","99.11","","","","","","NA"
"-88.31","49.69","LITTLE FLATLAND ISLAND (AUT)","6049470","2022-10-18 21:00","2022","10","18","21:00","2.3","","","M","","M","0.0","","1","","38","","","","99.05","","","","","","NA"
"-88.31","49.69","LITTLE FLATLAND ISLAND (AUT)","6049470","2022-10-18 22:00","2022","10","18","22:00","2.3","","","M","","M","0.0","","3","","36","","","","99.03","","","","","","NA"
"-88.31","49.69","LITTLE FLATLAND ISLAND (AUT)","6049470","2022-10-18 23:00","2022","10","18","23:00","2.2","","","M","","M","0.0","","1","","32","","","","98.98","","","","","","NA"
"-88.31","49.69","LITTLE FLATLAND ISLAND (AUT)","6049470","2022-10-19 00:00","2022","10","19","00:00","1.7","","","M","","M","0.0","","36","","29","","","","98.91","","","","","","NA"
"-88.31","49.69","LITTLE FLATLAND ISLAND (AUT)","6049470","2022-10-19 01:00","2022","10","19","01:00","1.7","","","M","","M","0.0","","35","","27","","","","98.89","","","","","","NA"
"-88.31","49.69","LITTLE FLATLAND ISLAND (AUT)","6049470","2022-10-19 02:00","2022","10","19","02:00","1.6","","","M","","M","0.0","","35","","27","","","","98.82","","","","","","NA"
"-88.31","49.69","LITTLE FLATLAND ISLAND (AUT)","6049470","2022-10-19 03:00","2022","10","19","03:00","1.4","","","M","","M","0.0","","36","","28","","","","98.74","","","","","","NA"
"-88.31","49.69","LITTLE FLATLAND ISLAND (AUT)","6049470","2022-10-19 04:00","2022","10","19","04:00","0.8","","","M","","M","0.0","","35","","32","","","","98.61","","","","","","NA"
"-88.31","49.69","LITTLE FLATLAND ISLAND (AUT)","6049470","2022-10-19 05:00","2022","10","19","05:00","1.3","","","M","","M","0.0","","34","","35","","","","98.54","","","","","","NA"
"-88.31","49.69","LITTLE FLATLAND ISLAND (AUT)","6049470","2022-10-19 06:00","2022","10","19","06:00","0.8","","","M","","M","0.0","","36","","30","","","","98.48","","","","","","NA"
"-88.31","49.69","LITTLE FLATLAND ISLAND (AUT)","6049470","2022-10-19 07:00","2022","10","19","07:00","0.7","","","M","","M","0.0","","34","","32","","","","98.43","","","","","","NA"
"-88.31","49.69","LITTLE FLATLAND ISLAND (AUT)","6049470","2022-10-19 08:00","2022","10","19","08:00","0.8","","","M","","M","0.0","","36","","35","","","","98.41","","","","","","NA"
"-88.31","49.69","LITTLE FLATLAND ISLAND (AUT)","6049470","2022-10-19 09:00","2022","10","19","09:00","0.5","","","M","","M","0.0","","35","","32","","","","98.38","","","","","","NA"
"-88.31","49.69","LITTLE FLATLAND ISLAND (AUT)","6049470","2022-10-19 10:00","2022","10","19","10:00","0.5","","","M","","M","0.0","","35","","35","","","","98.30","","","","","","NA"
"-88.31","49.69","LITTLE FLATLAND ISLAND (AUT)","6049470","2022-10-19 11:00","2022","10","19","11:00","1.1","","","M","","M","0.0","","34","","32","","","","98.22","","","","","","NA"
"-88.31","49.69","LITTLE FLATLAND ISLAND (AUT)","6049470","2022-10-19 12:00","2022","10","19","12:00","2.2","","","M","","M","0.0","","34","","27","","","","98.14","","","","","","NA"
"-88.31","49.69","LITTLE FLATLAND ISLAND (AUT)","6049470","2022-10-19 13:00","2022","10","19","13:00","2.8","","","M","","M","0.0","","33","","30","","","","98.01","","","","","","NA"
"-88.31","49.69","LITTLE FLATLAND ISLAND (AUT)","6049470","2022-10-19 14:00","2022","10","19","14:00","3.9","","","M","","M","0.0","","34","","27","","","","97.90","","","","","","NA"
"-88.31","49.69","LITTLE FLATLAND ISLAND (AUT)","6049470","2022-10-19 15:00","2022","10","19","15:00","4.7","","","M","","M","0.0","","33","","28","","","","97.83","","","","","","NA"
"-88.31","49.69","LITTLE FLATLAND ISLAND (AUT)","6049470","2022-10-19 16:00","2022","10","19","16:00","5.7","","","M","","M","0.0","","33","","32","","","","97.74","","","","","","NA"
"-88.31","49.69","LITTLE FLATLAND ISLAND (AUT)","6049470","2022-10-19 17:00","2022","10","19","17:00","5.9","","","M","","M","0.0","","34","","36","","","","97.67","","","","","","NA"
"-88.31","49.69","LITTLE FLATLAND ISLAND (AUT)","6049470","2022-10-19 18:00","2022","10","19","18:00","6.4","","","M","","M","0.0","","32","","37","","","","97.62","","","","","","NA"
"-88.31","49.69","LITTLE FLATLAND ISLAND (AUT)","6049470","2022-10-19 19:00","2022","10","19","19:00","5.3","","","M","","M","0.0","","33","","40","","","","97.62","","","","","","NA"
"-88.31","49.69","LITTLE FLATLAND ISLAND (AUT)","6049470","2022-10-19 20:00","2022","10","19","20:00","5.1","","","M","","M","0.0","","34","","33","","","","97.55","","","","","","NA"
"-88.31","49.69","LITTLE FLATLAND ISLAND (AUT)","6049470","2022-10-19 21:00","2022","10","19","21:00","4.8","","","M","","M","0.0","","34","","33","","","","97.52","","","","","","NA"
"-88.31","49.69","LITTLE FLATLAND ISLAND (AUT)","6049470","2022-10-19 22:00","2022","10","19","22:00","4.4","","","M","","M","0.0","","34","","29","","","","97.49","","","","","","NA"
"-88.31","49.69","LITTLE FLATLAND ISLAND (AUT)","6049470","2022-10-19 23:00","2022","10","19","23:00","3.8","","","M","","M","0.0","","35","","28","","","","97.43","","","","","","NA"
"-88.31","49.69","LITTLE FLATLAND ISLAND (AUT)","6049470","2022-10-20 00:00","2022","10","20","00:00","3.1","","","M","","M","0.0","","35","","25","","","","97.37","","","","","","NA"
"-88.31","49.69","LITTLE FLATLAND ISLAND (AUT)","6049470","2022-10-20 01:00","2022","10","20","01:00","3.1","","","M","","M","0.0","","35","","26","","","","97.33","","","","","","NA"
"-88.31","49.69","LITTLE FLATLAND ISLAND (AUT)","6049470","2022-10-20 02:00","2022","10","20","02:00","2.8","","","M","","M","0.0","","35","","26","","","","97.26","","","","","","NA"
"-88.31","49.69","LITTLE FLATLAND ISLAND (AUT)","6049470","2022-10-20 03:00","2022","10","20","03:00","2.6","","","M","","M","0.0","","35","","22","","","","97.23","","","","","","NA"
"-88.31","49.69","LITTLE FLATLAND ISLAND (AUT)","6049470","2022-10-20 04:00","2022","10","20","04:00","2.6","","","M","","M","0.0","","36","","22","","","","97.25","","","","","","NA"
"-88.31","49.69","LITTLE FLATLAND ISLAND (AUT)","6049470","2022-10-20 05:00","2022","10","20","05:00","2.5","","","M","","M","0.0","","35","","21","","","","97.22","","","","","","NA"
"-88.31","49.69","LITTLE FLATLAND ISLAND (AUT)","6049470","2022-10-20 06:00","2022","10","20","06:00","2.3","","","M","","M","0.0","","36","","22","","","","97.23","","","","","","NA"
"-88.31","49.69","LITTLE FLATLAND ISLAND (AUT)","6049470","2022-10-20 07:00","2022","10","20","07:00","2.0","","","M","","M","0.0","","36","","18","","","","97.25","","","","","","NA"
"-88.31","49.69","LITTLE FLATLAND ISLAND (AUT)","6049470","2022-10-20 08:00","2022","10","20","08:00","1.8","","","M","","M","0.0","","35","","15","","","","97.24","","","","","","NA"
"-88.31","49.69","LITTLE FLATLAND ISLAND (AUT)","6049470","2022-10-20 09:00","2022","10","20","09:00","2.6","","","M","","M","0.0","","33","","14","","","","97.23","","","","","","NA"
"-88.31","49.69","LITTLE FLATLAND ISLAND (AUT)","6049470","2022-10-20 10:00","2022","10","20","10:00","3.2","","","M","","M","0.0","","32","","14","","","","97.20","","","","","","NA"
"-88.31","49.69","LITTLE FLATLAND ISLAND (AUT)","6049470","2022-10-20 11:00","2022","10","20","11:00","3.2","","","M","","M","0.0","","29","","15","","","","97.19","","","","","","NA"
"-88.31","49.69","LITTLE FLATLAND ISLAND (AUT)","6049470","2022-10-20 12:00","2022","10","20","12:00","3.6","","","M","","M","0.0","","27","","17","","","","97.14","","","","","","NA"
"-88.31","49.69","LITTLE FLATLAND ISLAND (AUT)","6049470","2022-10-20 13:00","2022","10","20","13:00","4.5","","","M","","M","0.0","","28","","23","","","","97.10","","","","","","NA"
"-88.31","49.69","LITTLE FLATLAND ISLAND (AUT)","6049470","2022-10-20 14:00","2022","10","20","14:00","6.2","","","M","","M","0.0","","26","","12","","","","97.02","","","","","","NA"
"-88.31","49.69","LITTLE FLATLAND ISLAND (AUT)","6049470","2022-10-20 15:00","2022","10","20","15:00","6.7","","","M","","M","0.0","","23","","7","","","","96.98","","","","","","NA"
"-88.31","49.69","LITTLE FLATLAND ISLAND (AUT)","6049470","2022-10-20 16:00","2022","10","20","16:00","6.5","","","M","","M","0.0","","20","","10","","","","96.89","","","","","","NA"
"-88.31","49.69","LITTLE FLATLAND ISLAND (AUT)","6049470","2022-10-20 17:00","2022","10","20","17:00","7.3","","","M","","M","0.0","","20","","9","","","","96.87","","","","","","NA"
"-88.31","49.69","LITTLE FLATLAND ISLAND (AUT)","6049470","2022-10-20 18:00","2022","10","20","18:00","7.6","","","M","","M","0.0","","22","","8","","","","96.86","","","","","","NA"
"-88.31","49.69","LITTLE FLATLAND ISLAND (AUT)","6049470","2022-10-20 19:00","2022","10","20","19:00","7.8","","","M","","M","0.0","","22","","10","","","","96.79","","","","","","NA"
"-88.31","49.69","LITTLE FLATLAND ISLAND (AUT)","6049470","2022-10-20 20:00","2022","10","20","20:00","7.8","","","M","","M","0.0","","21","","11","","","","96.78","","","","","","NA"
"-88.31","49.69","LITTLE FLATLAND ISLAND (AUT)","6049470","2022-10-20 21:00","2022","10","20","21:00","7.9","","","M","","M","0.0","","21","","15","","","","96.69","","","","","","NA"
"-88.31","49.69","LITTLE FLATLAND ISLAND (AUT)","6049470","2022-10-20 22:00","2022","10","20","22:00","7.6","","","M","","M","0.0","","21","","15","","","","96.68","","","","","","NA"
"-88.31","49.69","LITTLE FLATLAND ISLAND (AUT)","6049470","2022-10-20 23:00","2022","10","20","23:00","7.4","","","M","","M","0.0","","21","","12","","","","96.65","","","","","","NA"
"-88.31","49.69","LITTLE FLATLAND ISLAND (AUT)","6049470","2022-10-21 00:00","2022","10","21","00:00","6.3","","","M","","M","0.4","","21","","11","","","","96.61","","","","","","NA"
"-88.31","49.69","LITTLE FLATLAND ISLAND (AUT)","6049470","2022-10-21 01:00","2022","10","21","01:00","6.7","","","M","","M","0.0","","20","","19","","","","96.54","","","","","","NA"
"-88.31","49.69","LITTLE FLATLAND ISLAND (AUT)","6049470","2022-10-21 02:00","2022","10","21","02:00","7.1","","","M","","M","0.1","","19","","13","","","","96.40","","","","","","NA"
"-88.31","49.69","LITTLE FLATLAND ISLAND (AUT)","6049470","2022-10-21 03:00","2022","10","21","03:00","7.9","","","M","","M","0.0","","19","","17","","","","96.26","","","","","","NA"
"-88.31","49.69","LITTLE FLATLAND ISLAND (AUT)","6049470","2022-10-21 04:00","2022","10","21","04:00","7.6","","","M","","M","0.0","","19","","16","","","","96.19","","","","","","NA"
"-88.31","49.69","LITTLE FLATLAND ISLAND (AUT)","6049470","2022-10-21 05:00","2022","10","21","05:00","7.8","","","M","","M","0.0","","19","","16","","","","96.04","","","","","","NA"
"-88.31","49.69","LITTLE FLATLAND ISLAND (AUT)","6049470","2022-10-21 06:00","2022","10","21","06:00","8.0","","","M","","M","0.0","","17","","8","","","","95.93","","","","","","NA"
"-88.31","49.69","LITTLE FLATLAND ISLAND (AUT)","6049470","2022-10-21 07:00","2022","10","21","07:00","8.1","","","M","","M","0.0","","21","","18","","","","96.02","","","","","","NA"
"-88.31","49.69","LITTLE FLATLAND ISLAND (AUT)","6049470","2022-10-21 08:00","2022","10","21","08:00","7.9","","","M","","M","0.0","","20","","15","","","","96.07","","","","","","NA"
"-88.31","49.69","LITTLE FLATLAND ISLAND (AUT)","6049470","2022-10-21 09:00","2022","10","21","09:00","8.4","","","M","","M","0.0","","21","","13","","","","96.09","","","","","","NA"
"-88.31","49.69","LITTLE FLATLAND ISLAND (AUT)","6049470","2022-10-21 10:00","2022","10","21","10:00","9.2","","","M","","M","0.0","","22","","12","","","","96.16","","","","","","NA"
"-88.31","49.69","LITTLE FLATLAND ISLAND (AUT)","6049470","2022-10-21 11:00","2022","10","21","11:00","9.4","","","M","","M","0.0","","28","","34","","","","96.23","","","","","","NA"
"-88.31","49.69","LITTLE FLATLAND ISLAND (AUT)","6049470","2022-10-21 12:00","2022","10","21","12:00","9.6","","","M","","M","0.0","","29","","30","","","","96.33","","","","","","NA"
"-88.31","49.69","LITTLE FLATLAND ISLAND (AUT)","6049470","2022-10-21 13:00","2022","10","21","13:00","10.1","","","M","","M","0.0","","27","","15","","","","96.38","","","","","","NA"
"-88.31","49.69","LITTLE FLATLAND ISLAND (AUT)","6049470","2022-10-21 14:00","2022","10","21","14:00","12.3","","","M","","M","0.0","","22","","7","","","","96.40","","","","","","NA"
"-88.31","49.69","LITTLE FLATLAND ISLAND (AUT)","6049470","2022-10-21 15:00","2022","10","21","15:00","13.0","","","M","","M","0.0","","21","","2","","","","96.42","","","","","","NA"
"-88.31","49.69","LITTLE FLATLAND ISLAND (AUT)","6049470","2022-10-21 16:00","2022","10","21","16:00","11.8","","","M","","M","0.0","","19","","10","","","","96.47","","","","","","NA"
"-88.31","49.69","LITTLE FLATLAND ISLAND (AUT)","6049470","2022-10-21 17:00","2022","10","21","17:00","11.8","","","M","","M","0.0","","24","","8","","","","96.55","","","","","","NA"
"-88.31","49.69","LITTLE FLATLAND ISLAND (AUT)","6049470","2022-10-21 18:00","2022","10","21","18:00","10.6","","","M","","M","0.0","","25","","11","","","","96.65","","","","","","NA"
"-88.31","49.69","LITTLE FLATLAND ISLAND (AUT)","6049470","2022-10-21 19:00","2022","10","21","19:00","10.8","","","M","","M","0.0","","23","","7","","","","96.72","","","","","","NA"
"-88.31","49.69","LITTLE FLATLAND ISLAND (AUT)","6049470","2022-10-21 20:00","2022","10","21","20:00","10.5","","","M","","M","0.0","","22","","8","","","","96.81","","","","","","NA"
"-88.31","49.69","LITTLE FLATLAND ISLAND (AUT)","6049470","2022-10-21 21:00","2022","10","21","21:00","11.4","","","M","","M","0.0","","27","","28","","","","96.88","","","","","","NA"
"-88.31","49.69","LITTLE FLATLAND ISLAND (AUT)","6049470","2022-10-21 22:00","2022","10","21","22:00","10.0","","","M","","M","0.0","","26","","21","","","","96.95","","","","","","NA"
"-88.31","49.69","LITTLE FLATLAND ISLAND (AUT)","6049470","2022-10-21 23:00","2022","10","21","23:00","9.0","","","M","","M","0.0","","23","","6","","","","97.00","","","","","","NA"
"-88.31","49.69","LITTLE FLATLAND ISLAND (AUT)","6049470","2022-10-22 00:00","2022","10","22","00:00","9.3","","","M","","M","0.0","","21","","8","","","","97.03","","","","","","NA"
"-88.31","49.69","LITTLE FLATLAND ISLAND (AUT)","6049470","2022-10-22 01:00","2022","10","22","01:00","9.1","","","M","","M","0.0","","20","","9","","","","97.05","","","","","","NA"
"-88.31","49.69","LITTLE FLATLAND ISLAND (AUT)","6049470","2022-10-22 02:00","2022","10","22","02:00","9.0","","","M","","M","0.0","","22","","7","","","","97.11","","","","","","NA"
"-88.31","49.69","LITTLE FLATLAND ISLAND (AUT)","6049470","2022-10-22 03:00","2022","10","22","03:00","9.4","","","M","","M","0.0","","27","","21","","","","97.23","","","","","","NA"
"-88.31","49.69","LITTLE FLATLAND ISLAND (AUT)","6049470","2022-10-22 04:00","2022","10","22","04:00","9.0","","","M","","M","0.0","","29","","18","","","","97.26","","","","","","NA"
"-88.31","49.69","LITTLE FLATLAND ISLAND (AUT)","6049470","2022-10-22 05:00","2022","10","22","05:00","8.2","","","M","","M","0.0","","27","","9","","","","97.31","","","","","","NA"
"-88.31","49.69","LITTLE FLATLAND ISLAND (AUT)","6049470","2022-10-22 06:00","2022","10","22","06:00","8.6","","","M","","M","0.0","","20","","5","","","","97.36","","","","","","NA"
"-88.31","49.69","LITTLE FLATLAND ISLAND (AUT)","6049470","2022-10-22 07:00","2022","10","22","07:00","8.5","","","M","","M","0.0","","19","","7","","","","97.36","","","","","","NA"
"-88.31","49.69","LITTLE FLATLAND ISLAND (AUT)","6049470","2022-10-22 08:00","2022","10","22","08:00","8.6","","","M","","M","0.0","","19","","3","","","","97.40","","","","","","NA"
"-88.31","49.69","LITTLE FLATLAND ISLAND (AUT)","6049470","2022-10-22 09:00","2022","10","22","09:00","9.0","","","M","","M","0.0","","23","","5","","","","97.56","","","","","","NA"
"-88.31","49.69","LITTLE FLATLAND ISLAND (AUT)","6049470","2022-10-22 10:00","2022","10","22","10:00","9.0","","","M","","M","0.0","","23","","3","","","","97.65","","","","","","NA"
"-88.31","49.69","LITTLE FLATLAND ISLAND (AUT)","6049470","2022-10-22 11:00","2022","10","22","11:00","8.9","","","M","","M","0.0","","19","","6","","","","97.67","","","","","","NA"
"-88.31","49.69","LITTLE FLATLAND ISLAND (AUT)","6049470","2022-10-22 12:00","2022","10","22","12:00","9.3","","","M","","M","0.0","","19","","6","","","","97.71","","","","","","NA"
"-88.31","49.69","LITTLE FLATLAND ISLAND (AUT)","6049470","2022-10-22 13:00","2022","10","22","13:00","9.9","","","M","","M","0.0","","18","","4","","","","97.72","","","","","","NA"
"-88.31","49.69","LITTLE FLATLAND ISLAND (AUT)","6049470","2022-10-22 14:00","2022","10","22","14:00","9.9","","","M","","M","0.0","","19","","7","","","","97.76","","","","","","NA"
"-88.31","49.69","LITTLE FLATLAND ISLAND (AUT)","6049470","2022-10-22 15:00","2022","10","22","15:00","9.1","","","M","","M","0.0","","2","","2","","","","97.78","","","","","","NA"
"-88.31","49.69","LITTLE FLATLAND ISLAND (AUT)","6049470","2022-10-22 16:00","2022","10","22","16:00","8.7","","","M","","M","0.0","","4","","11","","","","97.80","","","","","","NA"
"-88.31","49.69","LITTLE FLATLAND ISLAND (AUT)","6049470","2022-10-22 17:00","2022","10","22","17:00","8.9","","","M","","M","0.0","","4","","11","","","","97.81","","","","","","NA"
"-88.31","49.69","LITTLE FLATLAND ISLAND (AUT)","6049470","2022-10-22 18:00","2022","10","22","18:00","9.4","","","M","","M","0.0","","5","","16","","","","97.86","","","","","","NA"
"-88.31","49.69","LITTLE FLATLAND ISLAND (AUT)","6049470","2022-10-22 19:00","2022","10","22","19:00","9.4","","","M","","M","0.0","","8","","15","","","","97.93","","","","","","NA"
"-88.31","49.69","LITTLE FLATLAND ISLAND (AUT)","6049470","2022-10-22 20:00","2022","10","22","20:00","9.2","","","M","","M","0.0","","8","","13","","","","97.98","","","","","","NA"
"-88.31","49.69","LITTLE FLATLAND ISLAND (AUT)","6049470","2022-10-22 21:00","2022","10","22","21:00","9.6","","","M","","M","0.0","","9","","17","","","","97.95","","","","","","NA"
"-88.31","49.69","LITTLE FLATLAND ISLAND (AUT)","6049470","2022-10-22 22:00","2022","10","22","22:00","9.6","","","M","","M","0.0","","10","","22","","","","97.95","","","","","","NA"
"-88.31","49.69","LITTLE FLATLAND ISLAND (AUT)","6049470","2022-10-22 23:00","2022","10","22","23:00","9.4","","","M","","M","0.0","","9","","23","","","","97.94","","","","","","NA"
"-88.31","49.69","LITTLE FLATLAND ISLAND (AUT)","6049470","2022-10-23 00:00","2022","10","23","00:00","9.4","","","M","","M","0.0","","10","","18","","","","97.97","","","","","","NA"
"-88.31","49.69","LITTLE FLATLAND ISLAND (AUT)","6049470","2022-10-23 01:00","2022","10","23","01:00","9.3","","","M","","M","0.0","","10","","15","","","","97.97","","","","","","NA"
"-88.31","49.69","LITTLE FLATLAND ISLAND (AUT)","6049470","2022-10-23 02:00","2022","10","23","02:00","9.2","","","M","","M","0.0","","9","","24","","","","97.93","","","","","","NA"
"-88.31","49.69","LITTLE FLATLAND ISLAND (AUT)","6049470","2022-10-23 03:00","2022","10","23","03:00","9.1","","","M","","M","0.0","","10","","25","","","","97.92","","","","","","NA"
"-88.31","49.69","LITTLE FLATLAND ISLAND (AUT)","6049470","2022-10-23 04:00","2022","10","23","04:00","8.9","","","M","","M","0.0","","11","","18","","","","97.92","","","","","","NA"
"-88.31","49.69","LITTLE FLATLAND ISLAND (AUT)","6049470","2022-10-23 05:00","2022","10","23","05:00","8.5","","","M","","M","0.0","","11","","19","","","","97.93","","","","","","NA"
"-88.31","49.69","LITTLE FLATLAND ISLAND (AUT)","6049470","2022-10-23 06:00","2022","10","23","06:00","8.4","","","M","","M","0.0","","10","","19","","","","97.94","","","","","","NA"
"-88.31","49.69","LITTLE FLATLAND ISLAND (AUT)","6049470","2022-10-23 07:00","2022","10","23","07:00","8.3","","","M","","M","0.0","","9","","21","","","","97.93","","","","","","NA"
"-88.31","49.69","LITTLE FLATLAND ISLAND (AUT)","6049470","2022-10-23 08:00","2022","10","23","08:00","8.3","","","M","","M","0.0","","10","","22","","","","97.97","","","","","","NA"
"-88.31","49.69","LITTLE FLATLAND ISLAND (AUT)","6049470","2022-10-23 09:00","2022","10","23","09:00","8.7","","","M","","M","0.0","","9","","20","","","","97.99","","","","","","NA"
"-88.31","49.69","LITTLE FLATLAND ISLAND (AUT)","6049470","2022-10-23 10:00","2022","10","23","10:00","8.9","","","M","","M","0.0","","7","","16","","","","98.03","","","","","","NA"
"-88.31","49.69","LITTLE FLATLAND ISLAND (AUT)","6049470","2022-10-23 11:00","2022","10","23","11:00","9.5","","","M","","M","0.0","","5","","14","","","","98.05","","","","","","NA"
"-88.31","49.69","LITTLE FLATLAND ISLAND (AUT)","6049470","2022-10-23 12:00","2022","10","23","12:00","10.3","","","M","","M","0.0","","3","","8","","","","98.06","","","","","","NA"
"-88.31","49.69","LITTLE FLATLAND ISLAND (AUT)","6049470","2022-10-23 13:00","2022","10","23","13:00","11.4","","","M","","M","0.0","","2","","15","","","","98.05","","","","","","NA"
"-88.31","49.69","LITTLE FLATLAND ISLAND (AUT)","6049470","2022-10-23 14:00","2022","10","23","14:00","11.9","","","M","","M","0.0","","2","","14","","","","98.01","","","","","","NA"
"-88.31","49.69","LITTLE FLATLAND ISLAND (AUT)","6049470","2022-10-23 15:00","2022","10","23","15:00","14.2","","","M","","M","0.0","","28","","5","","","","98.00","","","","","","NA"
"-88.31","49.69","LITTLE FLATLAND ISLAND (AUT)","6049470","2022-10-23 16:00","2022","10","23","16:00","15.1","","","M","","M","0.0","","26","","3","","","","97.97","","","","","","NA"
"-88.31","49.69","LITTLE FLATLAND ISLAND (AUT)","6049470","2022-10-23 17:00","2022","10","23","17:00","12.0","","","M","","M","0.0","","13","","4","","","","97.98","","","","","","NA"
"-88.31","49.69","LITTLE FLATLAND ISLAND (AUT)","6049470","2022-10-23 18:00","2022","10","23","18:00","11.0","","","M","","M","0.0","","20","","5","","","","98.05","","","","","","NA"
"-88.31","49.69","LITTLE FLATLAND ISLAND (AUT)","6049470","2022-10-23 19:00","2022","10","23","19:00","10.7","","","M","","M","0.0","","11","","22","","","","98.06","","","","","","NA"
"-88.31","49.69","LITTLE FLATLAND ISLAND (AUT)","6049470","2022-10-23 20:00","2022","10","23","20:00","11.2","","","M","","M","0.0","","9","","20","","","","98.04","","","","","","NA"
"-88.31","49.69","LITTLE FLATLAND ISLAND (AUT)","6049470","2022-10-23 21:00","2022","10","23","21:00","11.2","","","M","","M","0.0","","9","","23","","","","98.00","","","","","","NA"
"-88.31","49.69","LITTLE FLATLAND ISLAND (AUT)","6049470","2022-10-23 22:00","2022","10","23","22:00","11.3","","","M","","M","0.0","","10","","24","","","","97.92","","","","","","NA"
"-88.31","49.69","LITTLE FLATLAND ISLAND (AUT)","6049470","2022-10-23 23:00","2022","10","23","23:00","11.5","","","M","","M","0.0","","9","","21","","","","97.88","","","","","","NA"
"-88.31","49.69","LITTLE FLATLAND ISLAND (AUT)","6049470","2022-10-24 00:00","2022","10","24","00:00","11.8","","","M","","M","0.0","","15","","17","","","","97.86","","","","","","NA"
"-88.31","49.69","LITTLE FLATLAND ISLAND (AUT)","6049470","2022-10-24 01:00","2022","10","24","01:00","11.5","","","M","","M","0.0","","13","","21","","","","97.80","","","","","","NA"
"-88.31","49.69","LITTLE FLATLAND ISLAND (AUT)","6049470","2022-10-24 02:00","2022","10","24","02:00","11.5","","","M","","M","0.0","","12","","19","","","","97.70","","","","","","NA"
"-88.31","49.69","LITTLE FLATLAND ISLAND (AUT)","6049470","2022-10-24 03:00","2022","10","24","03:00","11.5","","","M","","M","0.0","","14","","13","","","","97.62","","","","","","NA"
"-88.31","49.69","LITTLE FLATLAND ISLAND (AUT)","6049470","2022-10-24 04:00","2022","10","24","04:00","12.9","","","M","","M","0.0","","16","","10","","","","97.56","","","","","","NA"
"-88.31","49.69","LITTLE FLATLAND ISLAND (AUT)","6049470","2022-10-24 05:00","2022","10","24","05:00","12.3","","","M","","M","0.0","","16","","13","","","","97.50","","","","","","NA"
"-88.31","49.69","LITTLE FLATLAND ISLAND (AUT)","6049470","2022-10-24 06:00","2022","10","24","06:00","11.7","","","M","","M","0.3","","16","","10","","","","97.52","","","","","","NA"
"-88.31","49.69","LITTLE FLATLAND ISLAND (AUT)","6049470","2022-10-24 07:00","2022","10","24","07:00","11.2","","","M","","M","0.0","","17","","4","","","","97.50","","","","","","NA"
"-88.31","49.69","LITTLE FLATLAND ISLAND (AUT)","6049470","2022-10-24 08:00","2022","10","24","08:00","10.7","","","M","","M","1.0","","14","","28","","","","97.27","","","","","","NA"
"-88.31","49.69","LITTLE FLATLAND ISLAND (AUT)","6049470","2022-10-24 09:00","2022","10","24","09:00","11.2","","","M","","M","0.2","","17","","9","","","","97.30","","","","","","NA"
"-88.31","49.69","LITTLE FLATLAND ISLAND (AUT)","6049470","2022-10-24 10:00","2022","10","24","10:00","11.0","","","M","","M","0.0","","18","","5","","","","97.31","","","","","","NA"
"-88.31","49.69","LITTLE FLATLAND ISLAND (AUT)","6049470","2022-10-24 11:00","2022","10","24","11:00","11.1","","","M","","M","1.5","","14","","25","","","","97.18","","","","","","NA"
"-88.31","49.69","LITTLE FLATLAND ISLAND (AUT)","6049470","2022-10-24 12:00","2022","10","24","12:00","11.1","","","M","","M","0.1","","15","","20","","","","97.13","","","","","","NA"
"-88.31","49.69","LITTLE FLATLAND ISLAND (AUT)","6049470","2022-10-24 13:00","2022","10","24","13:00","11.3","","","M","","M","0.0","","16","","8","","","","97.10","","","","","","NA"
"-88.31","49.69","LITTLE FLATLAND ISLAND (AUT)","6049470","2022-10-24 14:00","2022","10","24","14:00","12.1","","","M","","M","0.0","","18","","7","","","","96.99","","","","","","NA"
"-88.31","49.69","LITTLE FLATLAND ISLAND (AUT)","6049470","2022-10-24 15:00","2022","10","24","15:00","11.6","","","M","","M","0.0","","21","","4","","","","96.99","","","","","","NA"
"-88.31","49.69","LITTLE FLATLAND ISLAND (AUT)","6049470","2022-10-24 16:00","2022","10","24","16:00","11.8","","","M","","M","0.0","","19","","8","","","","96.97","","","","","","NA"
"-88.31","49.69","LITTLE FLATLAND ISLAND (AUT)","6049470","2022-10-24 17:00","2022","10","24","17:00","11.4","","","M","","M","0.0","","18","","5","","","","96.94","","","","","","NA"
"-88.31","49.69","LITTLE FLATLAND ISLAND (AUT)","6049470","2022-10-24 18:00","2022","10","24","18:00","11.3","","","M","","M","0.0","","19","","7","","","","96.90","","","","","","NA"
"-88.31","49.69","LITTLE FLATLAND ISLAND (AUT)","6049470","2022-10-24 19:00","2022","10","24","19:00","11.9","","","M","","M","0.1","","19","","9","","","","96.91","","","","","","NA"
"-88.31","49.69","LITTLE FLATLAND ISLAND (AUT)","6049470","2022-10-24 20:00","2022","10","24","20:00","11.0","","","M","","M","0.0","","19","","8","","","","96.86","","","","","","NA"
"-88.31","49.69","LITTLE FLATLAND ISLAND (AUT)","6049470","2022-10-24 21:00","2022","10","24","21:00","11.7","","","M","","M","0.0","","19","","11","","","","96.81","","","","","","NA"
"-88.31","49.69","LITTLE FLATLAND ISLAND (AUT)","6049470","2022-10-24 22:00","2022","10","24","22:00","11.8","","","M","","M","0.0","","19","","13","","","","96.88","","","","","","NA"
"-88.31","49.69","LITTLE FLATLAND ISLAND (AUT)","6049470","2022-10-24 23:00","2022","10","24","23:00","11.2","","","M","","M","0.0","","19","","19","","","","96.83","","","","","","NA"
"-88.31","49.69","LITTLE FLATLAND ISLAND (AUT)","6049470","2022-10-25 00:00","2022","10","25","00:00","10.9","","","M","","M","1.3","","21","","5","","","","96.79","","","","","","NA"
"-88.31","49.69","LITTLE FLATLAND ISLAND (AUT)","6049470","2022-10-25 01:00","2022","10","25","01:00","10.9","","","M","","M","1.3","","19","","11","","","","96.75","","","","","","NA"
"-88.31","49.69","LITTLE FLATLAND ISLAND (AUT)","6049470","2022-10-25 02:00","2022","10","25","02:00","10.5","","","M","","M","0.3","","19","","10","","","","96.75","","","","","","NA"
"-88.31","49.69","LITTLE FLATLAND ISLAND (AUT)","6049470","2022-10-25 03:00","2022","10","25","03:00","9.9","","","M","","M","0.3","","19","","15","","","","96.69","","","","","","NA"
"-88.31","49.69","LITTLE FLATLAND ISLAND (AUT)","6049470","2022-10-25 04:00","2022","10","25","04:00","9.4","","","M","","M","0.6","","20","","15","","","","96.74","","","","","","NA"
"-88.31","49.69","LITTLE FLATLAND ISLAND (AUT)","6049470","2022-10-25 05:00","2022","10","25","05:00","9.3","","","M","","M","0.4","","20","","13","","","","96.72","","","","","","NA"
"-88.31","49.69","LITTLE FLATLAND ISLAND (AUT)","6049470","2022-10-25 06:00","2022","10","25","06:00","9.2","","","M","","M","0.6","","21","","12","","","","96.76","","","","","","NA"
"-88.31","49.69","LITTLE FLATLAND ISLAND (AUT)","6049470","2022-10-25 07:00","2022","10","25","07:00","9.0","","","M","","M","0.1","","22","","11","","","","96.76","","","","","","NA"
"-88.31","49.69","LITTLE FLATLAND ISLAND (AUT)","6049470","2022-10-25 08:00","2022","10","25","08:00","8.4","","","M","","M","0.0","","22","","10","","","","96.83","","","","","","NA"
"-88.31","49.69","LITTLE FLATLAND ISLAND (AUT)","6049470","2022-10-25 09:00","2022","10","25","09:00","8.3","","","M","","M","0.0","","24","","9","","","","96.90","","","","","","NA"
"-88.31","49.69","LITTLE FLATLAND ISLAND (AUT)","6049470","2022-10-25 10:00","2022","10","25","10:00","8.5","","","M","","M","0.0","","24","","13","","","","96.95","","","","","","NA"
"-88.31","49.69","LITTLE FLATLAND ISLAND (AUT)","6049470","2022-10-25 11:00","2022","10","25","11:00","7.6","","","M","","M","0.0","","26","","25","","","","97.01","","","","","","NA"
"-88.31","49.69","LITTLE FLATLAND ISLAND (AUT)","6049470","2022-10-25 12:00","2022","10","25","12:00","8.2","","","M","","M","0.0","","23","","8","","","","97.03","","","","","","NA"
"-88.31","49.69","LITTLE FLATLAND ISLAND (AUT)","6049470","2022-10-25 13:00","2022","10","25","13:00","8.2","","","M","","M","0.0","","23","","10","","","","97.08","","","","","","NA"
"-88.31","49.69","LITTLE FLATLAND ISLAND (AUT)","6049470","2022-10-25 14:00","2022","10","25","14:00","8.1","","","M","","M","0.0","","22","","13","","","","97.11","","","","","","NA"
"-88.31","49.69","LITTLE FLATLAND ISLAND (AUT)","6049470","2022-10-25 15:00","2022","10","25","15:00","8.4","","","M","","M","0.0","","26","","26","","","","97.16","","","","","","NA"
"-88.31","49.69","LITTLE FLATLAND ISLAND (AUT)","6049470","2022-10-25 16:00","2022","10","25","16:00","7.3","","","M","","M","0.0","","29","","35","","","","97.21","","","","","","NA"
"-88.31","49.69","LITTLE FLATLAND ISLAND (AUT)","6049470","2022-10-25 17:00","2022","10","25","17:00","7.2","","","M","","M","0.0","","27","","23","","","","97.24","","","","","","NA"
"-88.31","49.69","LITTLE FLATLAND ISLAND (AUT)","6049470","2022-10-25 18:00","2022","10","25","18:00","6.9","","","M","","M","0.0","","27","","24","","","","97.42","","","","","","NA"
"-88.31","49.69","LITTLE FLATLAND ISLAND (AUT)","6049470","2022-10-25 19:00","2022","10","25","19:00","6.7","","","M","","M","0.0","","29","","32","","","","97.42","","","","","","NA"
"-88.31","49.69","LITTLE FLATLAND ISLAND (AUT)","6049470","2022-10-25 20:00","2022","10","25","20:00","6.4","","","M","","M","0.0","","29","","33","","","","97.50","","","","","","NA"
"-88.31","49.69","LITTLE FLATLAND ISLAND (AUT)","6049470","2022-10-25 21:00","2022","10","25","21:00","6.1","","","M","","M","0.0","","29","","34","","","","97.55","","","","","","NA"
"-88.31","49.69","LITTLE FLATLAND ISLAND (AUT)","6049470","2022-10-25 22:00","2022","10","25","22:00","5.7","","","M","","M","0.0","","29","","34","","","","97.62","","","","","","NA"
"-88.31","49.69","LITTLE FLATLAND ISLAND (AUT)","6049470","2022-10-25 23:00","2022","10","25","23:00","5.1","","","M","","M","0.0","","30","","35","","","","97.60","","","","","","NA"
"-88.31","49.69","LITTLE FLATLAND ISLAND (AUT)","6049470","2022-10-26 00:00","2022","10","26","00:00","4.9","","","M","","M","0.0","","29","","35","","","","97.64","","","","","","NA"
"-88.31","49.69","LITTLE FLATLAND ISLAND (AUT)","6049470","2022-10-26 01:00","2022","10","26","01:00","4.7","","","M","","M","0.0","","29","","28","","","","97.67","","","","","","NA"
"-88.31","49.69","LITTLE FLATLAND ISLAND (AUT)","6049470","2022-10-26 02:00","2022","10","26","02:00","4.4","","","M","","M","0.0","","29","","32","","","","97.71","","","","","","NA"
"-88.31","49.69","LITTLE FLATLAND ISLAND (AUT)","6049470","2022-10-26 03:00","2022","10","26","03:00","4.4","","","M","","M","0.0","","30","","33","","","","97.75","","","","","","NA"
"-88.31","49.69","LITTLE FLATLAND ISLAND (AUT)","6049470","2022-10-26 04:00","2022","10","26","04:00","4.0","","","M","","M","0.0","","29","","35","","","","97.78","","","","","","NA"
"-88.31","49.69","LITTLE FLATLAND ISLAND (AUT)","6049470","2022-10-26 05:00","2022","10","26","05:00","3.7","","","M","","M","0.0","","29","","33","","","","97.86","","","","","","NA"
"-88.31","49.69","LITTLE FLATLAND ISLAND (AUT)","6049470","2022-10-26 06:00","2022","10","26","06:00","3.5","","","M","","M","0.0","","31","","35","","","","97.85","","","","","","NA"
"-88.31","49.69","LITTLE FLATLAND ISLAND (AUT)","6049470","2022-10-26 07:00","2022","10","26","07:00","3.5","","","M","","M","0.0","","30","","34","","","","97.89","","","","","","NA"
"-88.31","49.69","LITTLE FLATLAND ISLAND (AUT)","6049470","2022-10-26 08:00","2022","10","26","08:00","3.0","","","M","","M","0.0","","30","","38","","","","97.95","","","","","","NA"
"-88.31","49.69","LITTLE FLATLAND ISLAND (AUT)","6049470","2022-10-26 09:00","2022","10","26","09:00","3.1","","","M","","M","0.0","","31","","28","","","","98.03","","","","","","NA"
"-88.31","49.69","LITTLE FLATLAND ISLAND (AUT)","6049470","2022-10-26 10:00","2022","10","26","10:00","3.5","","","M","","M","0.0","","30","","33","","","","98.08","","","","","","NA"
"-88.31","49.69","LITTLE FLATLAND ISLAND (AUT)","6049470","2022-10-26 11:00","2022","10","26","11:00","3.2","","","M","","M","0.0","","30","","31","","","","98.11","","","","","","NA"
"-88.31","49.69","LITTLE FLATLAND ISLAND (AUT)","6049470","2022-10-26 12:00","2022","10","26","12:00","3.8","","","M","","M","0.0","","30","","29","","","","98.14","","","","","","NA"
"-88.31","49.69","LITTLE FLATLAND ISLAND (AUT)","6049470","2022-10-26 13:00","2022","10","26","13:00","4.2","","","M","","M","0.0","","30","","28","","","","98.14","","","","","","NA"
"-88.31","49.69","LITTLE FLATLAND ISLAND (AUT)","6049470","2022-10-26 14:00","2022","10","26","14:00","4.5","","","M","","M","0.0","","29","","29","","","","98.15","","","","","","NA"
"-88.31","49.69","LITTLE FLATLAND ISLAND (AUT)","6049470","2022-10-26 15:00","2022","10","26","15:00","4.4","","","M","","M","0.0","","29","","30","","","","98.17","","","","","","NA"
"-88.31","49.69","LITTLE FLATLAND ISLAND (AUT)","6049470","2022-10-26 16:00","2022","10","26","16:00","4.4","","","M","","M","0.0","","30","","25","","","","98.22","","","","","","NA"
"-88.31","49.69","LITTLE FLATLAND ISLAND (AUT)","6049470","2022-10-26 17:00","2022","10","26","17:00","4.7","","","M","","M","0.0","","30","","34","","","","98.27","","","","","","NA"
"-88.31","49.69","LITTLE FLATLAND ISLAND (AUT)","6049470","2022-10-26 18:00","2022","10","26","18:00","4.7","","","M","","M","0.0","","31","","30","","","","98.35","","","","","","NA"
"-88.31","49.69","LITTLE FLATLAND ISLAND (AUT)","6049470","2022-10-26 19:00","2022","10","26","19:00","4.5","","","M","","M","0.0","","31","","28","","","","98.42","","","","","","NA"
"-88.31","49.69","LITTLE FLATLAND ISLAND (AUT)","6049470","2022-10-26 20:00","2022","10","26","20:00","3.9","","","M","","M","0.0","","31","","35","","","","98.48","","","","","","NA"
"-88.31","49.69","LITTLE FLATLAND ISLAND (AUT)","6049470","2022-10-26 21:00","2022","10","26","21:00","4.0","","","M","","M","0.0","","30","","27","","","","98.54","","","","","","NA"
"-88.31","49.69","LITTLE FLATLAND ISLAND (AUT)","6049470","2022-10-26 22:00","2022","10","26","22:00","3.5","","","M","","M","0.0","","31","","38","","","","98.60","","","","","","NA"
"-88.31","49.69","LITTLE FLATLAND ISLAND (AUT)","6049470","2022-10-26 23:00","2022","10","26","23:00","3.6","","","M","","M","0.0","","30","","29","","","","98.66","","","","","","NA"
"-88.31","49.69","LITTLE FLATLAND ISLAND (AUT)","6049470","2022-10-27 00:00","2022","10","27","00:00","3.7","","","M","","M","0.0","","30","","28","","","","98.68","","","","","","NA"
"-88.31","49.69","LITTLE FLATLAND ISLAND (AUT)","6049470","2022-10-27 01:00","2022","10","27","01:00","3.7","","","M","","M","0.0","","29","","30","","","","98.72","","","","","","NA"
"-88.31","49.69","LITTLE FLATLAND ISLAND (AUT)","6049470","2022-10-27 02:00","2022","10","27","02:00","3.6","","","M","","M","0.0","","30","","31","","","","98.78","","","","","","NA"
"-88.31","49.69","LITTLE FLATLAND ISLAND (AUT)","6049470","2022-10-27 03:00","2022","10","27","03:00","3.6","","","M","","M","0.0","","31","","28","","","","98.86","","","","","","NA"
"-88.31","49.69","LITTLE FLATLAND ISLAND (AUT)","6049470","2022-10-27 04:00","2022","10","27","04:00","3.7","","","M","","M","0.0","","30","","23","","","","98.92","","","","","","NA"
"-88.31","49.69","LITTLE FLATLAND ISLAND (AUT)","6049470","2022-10-27 05:00","2022","10","27","05:00","3.3","","","M","","M","0.0","","26","","21","","","","98.97","","","","","","NA"
"-88.31","49.69","LITTLE FLATLAND ISLAND (AUT)","6049470","2022-10-27 06:00","2022","10","27","06:00","3.4","","","M","","M","0.0","","27","","25","","","","99.02","","","","","","NA"
"-88.31","49.69","LITTLE FLATLAND ISLAND (AUT)","6049470","2022-10-27 07:00","2022","10","27","07:00","2.7","","","M","","M","0.0","","24","","9","","","","99.08","","","","","","NA"
"-88.31","49.69","LITTLE FLATLAND ISLAND (AUT)","6049470","2022-10-27 08:00","2022","10","27","08:00","2.7","","","M","","M","0.0","","24","","14","","","","99.18","","","","","","NA"
"-88.31","49.69","LITTLE FLATLAND ISLAND (AUT)","6049470","2022-10-27 09:00","2022","10","27","09:00","3.0","","","M","","M","0.0","","24","","9","","","","99.25","","","","","","NA"
"-88.31","49.69","LITTLE FLATLAND ISLAND (AUT)","6049470","2022-10-27 10:00","2022","10","27","10:00","4.5","","","M","","M","0.0","","23","","9","","","","99.27","","","","","","NA"
"-88.31","49.69","LITTLE FLATLAND ISLAND (AUT)","6049470","2022-10-27 11:00","2022","10","27","11:00","5.2","","","M","","M","0.0","","20","","10","","","","99.27","","","","","","NA"
"-88.31","49.69","LITTLE FLATLAND ISLAND (AUT)","6049470","2022-10-27 12:00","2022","10","27","12:00","5.6","","","M","","M","0.0","","20","","12","","","","99.28","","","","","","NA"
"-88.31","49.69","LITTLE FLATLAND ISLAND (AUT)","6049470","2022-10-27 13:00","2022","10","27","13:00","6.5","","","M","","M","0.0","","19","","17","","","","99.23","","","","","","NA"
"-88.31","49.69","LITTLE FLATLAND ISLAND (AUT)","6049470","2022-10-27 14:00","2022","10","27","14:00","7.4","","","M","","M","0.0","","19","","19","","","","99.17","","","","","","NA"
"-88.31","49.69","LITTLE FLATLAND ISLAND (AUT)","6049470","2022-10-27 15:00","2022","10","27","15:00","8.5","","","M","","M","0.0","","19","","10","","","","99.13","","","","","","NA"
"-88.31","49.69","LITTLE FLATLAND ISLAND (AUT)","6049470","2022-10-27 16:00","2022","10","27","16:00","8.2","","","M","","M","0.0","","18","","11","","","","99.11","","","","","","NA"
"-88.31","49.69","LITTLE FLATLAND ISLAND (AUT)","6049470","2022-10-27 17:00","2022","10","27","17:00","6.8","","","M","","M","0.0","","19","","10","","","","99.09","","","","","","NA"
"-88.31","49.69","LITTLE FLATLAND ISLAND (AUT)","6049470","2022-10-27 18:00","2022","10","27","18:00","6.1","","","M","","M","0.0","","19","","26","","","","99.16","","","","","","NA"
"-88.31","49.69","LITTLE FLATLAND ISLAND (AUT)","6049470","2022-10-27 19:00","2022","10","27","19:00","5.4","","","M","","M","0.0","","19","","26","","","","99.17","","","","","","NA"
"-88.31","49.69","LITTLE FLATLAND ISLAND (AUT)","6049470","2022-10-27 20:00","2022","10","27","20:00","5.5","","","M","","M","0.0","","18","","18","","","","99.15","","","","","","NA"
"-88.31","49.69","LITTLE FLATLAND ISLAND (AUT)","6049470","2022-10-27 21:00","2022","10","27","21:00","5.8","","","M","","M","0.0","","19","","23","","","","99.13","","","","","","NA"
"-88.31","49.69","LITTLE FLATLAND ISLAND (AUT)","6049470","2022-10-27 22:00","2022","10","27","22:00","6.3","","","M","","M","0.0","","19","","22","","","","99.11","","","","","","NA"
"-88.31","49.69","LITTLE FLATLAND ISLAND (AUT)","6049470","2022-10-27 23:00","2022","10","27","23:00","6.9","","","M","","M","0.0","","19","","30","","","","99.08","","","","","","NA"
"-88.31","49.69","LITTLE FLATLAND ISLAND (AUT)","6049470","2022-10-28 00:00","2022","10","28","00:00","7.5","","","M","","M","0.0","","20","","26","","","","99.08","","","","","","NA"
"-88.31","49.69","LITTLE FLATLAND ISLAND (AUT)","6049470","2022-10-28 01:00","2022","10","28","01:00","7.5","","","M","","M","0.0","","20","","31","","","","99.05","","","","","","NA"
"-88.31","49.69","LITTLE FLATLAND ISLAND (AUT)","6049470","2022-10-28 02:00","2022","10","28","02:00","8.2","","","M","","M","0.0","","20","","21","","","","99.03","","","","","","NA"
"-88.31","49.69","LITTLE FLATLAND ISLAND (AUT)","6049470","2022-10-28 03:00","2022","10","28","03:00","8.3","","","M","","M","0.0","","20","","27","","","","98.98","","","","","","NA"
"-88.31","49.69","LITTLE FLATLAND ISLAND (AUT)","6049470","2022-10-28 04:00","2022","10","28","04:00","8.4","","","M","","M","0.0","","20","","28","","","","98.93","","","","","","NA"
"-88.31","49.69","LITTLE FLATLAND ISLAND (AUT)","6049470","2022-10-28 05:00","2022","10","28","05:00","8.6","","","M","","M","0.0","","20","","29","","","","98.90","","","","","","NA"
"-88.31","49.69","LITTLE FLATLAND ISLAND (AUT)","6049470","2022-10-28 06:00","2022","10","28","06:00","8.7","","","M","","M","0.0","","20","","30","","","","98.89","","","","","","NA"
"-88.31","49.69","LITTLE FLATLAND ISLAND (AUT)","6049470","2022-10-28 07:00","2022","10","28","07:00","8.6","","","M","","M","0.0","","19","","28","","","","98.88","","","","","","NA"
"-88.31","49.69","LITTLE FLATLAND ISLAND (AUT)","6049470","2022-10-28 08:00","2022","10","28","08:00","8.5","","","M","","M","0.0","","20","","29","","","","98.90","","","","","","NA"
"-88.31","49.69","LITTLE FLATLAND ISLAND (AUT)","6049470","2022-10-28 09:00","2022","10","28","09:00","8.8","","","M","","M","0.0","","20","","24","","","","98.89","","","","","","NA"
"-88.31","49.69","LITTLE FLATLAND ISLAND (AUT)","6049470","2022-10-28 10:00","2022","10","28","10:00","10.4","","","M","","M","0.0","","20","","19","","","","98.85","","","","","","NA"
"-88.31","49.69","LITTLE FLATLAND ISLAND (AUT)","6049470","2022-10-28 11:00","2022","10","28","11:00","11.5","","","M","","M","0.0","","20","","18","","","","98.82","","","","","","NA"
"-88.31","49.69","LITTLE FLATLAND ISLAND (AUT)","6049470","2022-10-28 12:00","2022","10","28","12:00","11.6","","","M","","M","0.0","","20","","28","","","","98.77","","","","","","NA"
"-88.31","49.69","LITTLE FLATLAND ISLAND (AUT)","6049470","2022-10-28 13:00","2022","10","28","13:00","14.0","","","M","","M","0.0","","21","","18","","","","98.69","","","","","","NA"
"-88.31","49.69","LITTLE FLATLAND ISLAND (AUT)","6049470","2022-10-28 14:00","2022","10","28","14:00","14.4","","","M","","M","0.0","","21","","18","","","","98.62","","","","","","NA"
"-88.31","49.69","LITTLE FLATLAND ISLAND (AUT)","6049470","2022-10-28 15:00","2022","10","28","15:00","14.8","","","M","","M","0.0","","21","","19","","","","98.58","","","","","","NA"
"-88.31","49.69","LITTLE FLATLAND ISLAND (AUT)","6049470","2022-10-28 16:00","2022","10","28","16:00","12.8","","","M","","M","0.0","","20","","16","","","","98.56","","","","","","NA"
"-88.31","49.69","LITTLE FLATLAND ISLAND (AUT)","6049470","2022-10-28 17:00","2022","10","28","17:00","11.4","","","M","","M","0.0","","20","","24","","","","98.58","","","","","","NA"
"-88.31","49.69","LITTLE FLATLAND ISLAND (AUT)","6049470","2022-10-28 18:00","2022","10","28","18:00","10.7","","","M","","M","0.0","","19","","26","","","","98.64","","","","","","NA"
"-88.31","49.69","LITTLE FLATLAND ISLAND (AUT)","6049470","2022-10-28 19:00","2022","10","28","19:00","10.0","","","M","","M","0.0","","20","","25","","","","98.67","","","","","","NA"
"-88.31","49.69","LITTLE FLATLAND ISLAND (AUT)","6049470","2022-10-28 20:00","2022","10","28","20:00","9.6","","","M","","M","0.0","","20","","22","","","","98.70","","","","","","NA"
"-88.31","49.69","LITTLE FLATLAND ISLAND (AUT)","6049470","2022-10-28 21:00","2022","10","28","21:00","9.7","","","M","","M","0.0","","20","","20","","","","98.66","","","","","","NA"
"-88.31","49.69","LITTLE FLATLAND ISLAND (AUT)","6049470","2022-10-28 22:00","2022","10","28","22:00","10.0","","","M","","M","0.0","","20","","19","","","","98.66","","","","","","NA"
"-88.31","49.69","LITTLE FLATLAND ISLAND (AUT)","6049470","2022-10-28 23:00","2022","10","28","23:00","10.3","","","M","","M","0.0","","20","","15","","","","98.62","","","","","","NA"
"-88.31","49.69","LITTLE FLATLAND ISLAND (AUT)","6049470","2022-10-29 00:00","2022","10","29","00:00","11.2","","","M","","M","0.0","","21","","17","","","","98.63","","","","","","NA"
"-88.31","49.69","LITTLE FLATLAND ISLAND (AUT)","6049470","2022-10-29 01:00","2022","10","29","01:00","10.3","","","M","","M","0.0","","21","","16","","","","98.64","","","","","","NA"
"-88.31","49.69","LITTLE FLATLAND ISLAND (AUT)","6049470","2022-10-29 02:00","2022","10","29","02:00","9.4","","","M","","M","0.0","","20","","14","","","","98.63","","","","","","NA"
"-88.31","49.69","LITTLE FLATLAND ISLAND (AUT)","6049470","2022-10-29 03:00","2022","10","29","03:00","9.6","","","M","","M","0.0","","21","","17","","","","98.61","","","","","","NA"
"-88.31","49.69","LITTLE FLATLAND ISLAND (AUT)","6049470","2022-10-29 04:00","2022","10","29","04:00","9.1","","","M","","M","0.0","","20","","15","","","","98.59","","","","","","NA"
"-88.31","49.69","LITTLE FLATLAND ISLAND (AUT)","6049470","2022-10-29 05:00","2022","10","29","05:00","9.3","","","M","","M","0.0","","19","","19","","","","98.58","","","","","","NA"
"-88.31","49.69","LITTLE FLATLAND ISLAND (AUT)","6049470","2022-10-29 06:00","2022","10","29","06:00","10.1","","","M","","M","0.0","","21","","14","","","","98.62","","","","","","NA"
"-88.31","49.69","LITTLE FLATLAND ISLAND (AUT)","6049470","2022-10-29 07:00","2022","10","29","07:00","9.5","","","M","","M","0.0","","20","","12","","","","98.61","","","","","","NA"
"-88.31","49.69","LITTLE FLATLAND ISLAND (AUT)","6049470","2022-10-29 08:00","2022","10","29","08:00","9.6","","","M","","M","0.0","","20","","13","","","","98.60","","","","","","NA"
"-88.31","49.69","LITTLE FLATLAND ISLAND (AUT)","6049470","2022-10-29 09:00","2022","10","29","09:00","10.1","","","M","","M","0.0","","21","","13","","","","98.66","","","","","","NA"
"-88.31","49.69","LITTLE FLATLAND ISLAND (AUT)","6049470","2022-10-29 10:00","2022","10","29","10:00","10.2","","","M","","M","0.0","","21","","10","","","","98.70","","","","","","NA"
"-88.31","49.69","LITTLE FLATLAND ISLAND (AUT)","6049470","2022-10-29 11:00","2022","10","29","11:00","11.1","","","M","","M","0.0","","21","","10","","","","98.75","","","","","","NA"
"-88.31","49.69","LITTLE FLATLAND ISLAND (AUT)","6049470","2022-10-29 12:00","2022","10","29","12:00","11.7","","","M","","M","0.0","","20","","9","","","","98.78","","","","","","NA"
"-88.31","49.69","LITTLE FLATLAND ISLAND (AUT)","6049470","2022-10-29 13:00","2022","10","29","13:00","11.1","","","M","","M","0.0","","17","","3","","","","98.74","","","","","","NA"
"-88.31","49.69","LITTLE FLATLAND ISLAND (AUT)","6049470","2022-10-29 14:00","2022","10","29","14:00","12.0","","","M","","M","0.0","","19","","4","","","","98.62","","","","","","NA"
"-88.31","49.69","LITTLE FLATLAND ISLAND (AUT)","6049470","2022-10-29 15:00","2022","10","29","15:00","12.9","","","M","","M","0.0","","18","","5","","","","98.61","","","","","","NA"
"-88.31","49.69","LITTLE FLATLAND ISLAND (AUT)","6049470","2022-10-29 16:00","2022","10","29","16:00","11.1","","","M","","M","0.0","","30","","2","","","","98.62","","","","","","NA"
"-88.31","49.69","LITTLE FLATLAND ISLAND (AUT)","6049470","2022-10-29 17:00","2022","10","29","17:00","9.9","","","M","","M","0.0","","14","","4","","","","98.59","","","","","","NA"
"-88.31","49.69","LITTLE FLATLAND ISLAND (AUT)","6049470","2022-10-29 18:00","2022","10","29","18:00","9.3","","","M","","M","0.0","","13","","6","","","","98.59","","","","","","NA"
"-88.31","49.69","LITTLE FLATLAND ISLAND (AUT)","6049470","2022-10-29 19:00","2022","10","29","19:00","8.7","","","M","","M","0.0","","18","","3","","","","98.58","","","","","","NA"
"-88.31","49.69","LITTLE FLATLAND ISLAND (AUT)","6049470","2022-10-29 20:00","2022","10","29","20:00","8.4","","","M","","M","0.0","","19","","4","","","","98.59","","","","","","NA"
"-88.31","49.69","LITTLE FLATLAND ISLAND (AUT)","6049470","2022-10-29 21:00","2022","10","29","21:00","7.9","","","M","","M","0.0","","19","","4","","","","98.54","","","","","","NA"
"-88.31","49.69","LITTLE FLATLAND ISLAND (AUT)","6049470","2022-10-29 22:00","2022","10","29","22:00","7.7","","","M","","M","0.0","","19","","5","","","","98.49","","","","","","NA"
"-88.31","49.69","LITTLE FLATLAND ISLAND (AUT)","6049470","2022-10-29 23:00","2022","10","29","23:00","8.3","","","M","","M","0.0","","19","","7","","","","98.41","","","","","","NA"
"-88.31","49.69","LITTLE FLATLAND ISLAND (AUT)","6049470","2022-10-30 00:00","2022","10","30","00:00","8.6","","","M","","M","0.0","","20","","17","","","","98.38","","","","","","NA"
"-88.31","49.69","LITTLE FLATLAND ISLAND (AUT)","6049470","2022-10-30 01:00","2022","10","30","01:00","8.3","","","M","","M","0.0","","19","","16","","","","98.34","","","","","","NA"
"-88.31","49.69","LITTLE FLATLAND ISLAND (AUT)","6049470","2022-10-30 02:00","2022","10","30","02:00","8.4","","","M","","M","0.0","","20","","17","","","","98.30","","","","","","NA"
"-88.31","49.69","LITTLE FLATLAND ISLAND (AUT)","6049470","2022-10-30 03:00","2022","10","30","03:00","8.5","","","M","","M","0.0","","20","","15","","","","98.26","","","","","","NA"
"-88.31","49.69","LITTLE FLATLAND ISLAND (AUT)","6049470","2022-10-30 04:00","2022","10","30","04:00","8.5","","","M","","M","0.0","","21","","14","","","","98.22","","","","","","NA"
"-88.31","49.69","LITTLE FLATLAND ISLAND (AUT)","6049470","2022-10-30 05:00","2022","10","30","05:00","8.3","","","M","","M","0.0","","20","","11","","","","98.20","","","","","","NA"
"-88.31","49.69","LITTLE FLATLAND ISLAND (AUT)","6049470","2022-10-30 06:00","2022","10","30","06:00","8.1","","","M","","M","0.0","","21","","10","","","","98.19","","","","","","NA"
"-88.31","49.69","LITTLE FLATLAND ISLAND (AUT)","6049470","2022-10-30 07:00","2022","10","30","07:00","8.0","","","M","","M","0.0","","21","","9","","","","98.17","","","","","","NA"
"-88.31","49.69","LITTLE FLATLAND ISLAND (AUT)","6049470","2022-10-30 08:00","2022","10","30","08:00","8.2","","","M","","M","0.0","","22","","10","","","","98.20","","","","","","NA"
"-88.31","49.69","LITTLE FLATLAND ISLAND (AUT)","6049470","2022-10-30 09:00","2022","10","30","09:00","9.2","","","M","","M","0.0","","23","","7","","","","98.23","","","","","","NA"
"-88.31","49.69","LITTLE FLATLAND ISLAND (AUT)","6049470","2022-10-30 10:00","2022","10","30","10:00","9.0","","","M","","M","0.0","","26","","22","","","","98.25","","","","","","NA"
"-88.31","49.69","LITTLE FLATLAND ISLAND (AUT)","6049470","2022-10-30 11:00","2022","10","30","11:00","9.2","","","M","","M","0.0","","27","","21","","","","98.26","","","","","","NA"
"-88.31","49.69","LITTLE FLATLAND ISLAND (AUT)","6049470","2022-10-30 12:00","2022","10","30","12:00","9.2","","","M","","M","0.0","","28","","19","","","","98.27","","","","","","NA"
"-88.31","49.69","LITTLE FLATLAND ISLAND (AUT)","6049470","2022-10-30 13:00","2022","10","30","13:00","9.6","","","M","","M","0.0","","28","","14","","","","98.24","","","","","","NA"
"-88.31","49.69","LITTLE FLATLAND ISLAND (AUT)","6049470","2022-10-30 14:00","2022","10","30","14:00","9.9","","","M","","M","0.0","","29","","15","","","","98.22","","","","","","NA"
"-88.31","49.69","LITTLE FLATLAND ISLAND (AUT)","6049470","2022-10-30 15:00","2022","10","30","15:00","10.3","","","M","","M","0.0","","30","","7","","","","98.20","","","","","","NA"
"-88.31","49.69","LITTLE FLATLAND ISLAND (AUT)","6049470","2022-10-30 16:00","2022","10","30","16:00","11.9","","","M","","M","0.0","","25","","6","","","","98.19","","","","","","NA"
"-88.31","49.69","LITTLE FLATLAND ISLAND (AUT)","6049470","2022-10-30 17:00","2022","10","30","17:00","8.9","","","M","","M","0.0","","14","","6","","","","98.16","","","","","","NA"
"-88.31","49.69","LITTLE FLATLAND ISLAND (AUT)","6049470","2022-10-30 18:00","2022","10","30","18:00","7.4","","","M","","M","0.0","","22","","5","","","","98.16","","","","","","NA"
"-88.31","49.69","LITTLE FLATLAND ISLAND (AUT)","6049470","2022-10-30 19:00","2022","10","30","19:00","6.6","","","M","","M","0.0","","25","","4","","","","98.19","","","","","","NA"
"-88.31","49.69","LITTLE FLATLAND ISLAND (AUT)","6049470","2022-10-30 20:00","2022","10","30","20:00","6.7","","","M","","M","0.0","","23","","4","","","","98.17","","","","","","NA"
"-88.31","49.69","LITTLE FLATLAND ISLAND (AUT)","6049470","2022-10-30 21:00","2022","10","30","21:00","6.1","","","M","","M","0.0","","22","","6","","","","98.16","","","","","","NA"
"-88.31","49.69","LITTLE FLATLAND ISLAND (AUT)","6049470","2022-10-30 22:00","2022","10","30","22:00","6.7","","","M","","M","0.0","","16","","6","","","","98.14","","","","","","NA"
"-88.31","49.69","LITTLE FLATLAND ISLAND (AUT)","6049470","2022-10-30 23:00","2022","10","30","23:00","5.7","","","M","","M","0.0","","17","","4","","","","98.12","","","","","","NA"
"-88.31","49.69","LITTLE FLATLAND ISLAND (AUT)","6049470","2022-10-31 00:00","2022","10","31","00:00","5.4","","","M","","M","0.0","","20","","8","","","","98.10","","","","","","NA"
"-88.31","49.69","LITTLE FLATLAND ISLAND (AUT)","6049470","2022-10-31 01:00","2022","10","31","01:00","4.8","","","M","","M","0.0","","19","","5","","","","98.09","","","","","","NA"
"-88.31","49.69","LITTLE FLATLAND ISLAND (AUT)","6049470","2022-10-31 02:00","2022","10","31","02:00","5.1","","","M","","M","0.0","","16","","7","","","","98.03","","","","","","NA"
"-88.31","49.69","LITTLE FLATLAND ISLAND (AUT)","6049470","2022-10-31 03:00","2022","10","31","03:00","5.4","","","M","","M","0.0","","18","","5","","","","98.01","","","","","","NA"
"-88.31","49.69","LITTLE FLATLAND ISLAND (AUT)","6049470","2022-10-31 04:00","2022","10","31","04:00","5.1","","","M","","M","0.0","","19","","4","","","","97.96","","","","","","NA"
"-88.31","49.69","LITTLE FLATLAND ISLAND (AUT)","6049470","2022-10-31 05:00","2022","10","31","05:00","5.4","","","M","","M","0.0","","19","","5","","","","97.92","","","","","","NA"
"-88.31","49.69","LITTLE FLATLAND ISLAND (AUT)","6049470","2022-10-31 06:00","2022","10","31","06:00","6.0","","","M","","M","0.0","","18","","6","","","","97.84","","","","","","NA"
"-88.31","49.69","LITTLE FLATLAND ISLAND (AUT)","6049470","2022-10-31 07:00","2022","10","31","07:00","6.0","","","M","","M","0.0","","19","","9","","","","97.79","","","","","","NA"
"-88.31","49.69","LITTLE FLATLAND ISLAND (AUT)","6049470","2022-10-31 08:00","2022","10","31","08:00","6.2","","","M","","M","0.0","","19","","19","","","","97.77","","","","","","NA"
"-88.31","49.69","LITTLE FLATLAND ISLAND (AUT)","6049470","2022-10-31 09:00","2022","10","31","09:00","6.5","","","M","","M","0.0","","20","","13","","","","97.75","","","","","","NA"
"-88.31","49.69","LITTLE FLATLAND ISLAND (AUT)","6049470","2022-10-31 10:00","2022","10","31","10:00","7.6","","","M","","M","0.0","","19","","12","","","","97.68","","","","","","NA"
"-88.31","49.69","LITTLE FLATLAND ISLAND (AUT)","6049470","2022-10-31 11:00","2022","10","31","11:00","8.3","","","M","","M","0.0","","19","","25","","","","97.60","","","","","","NA"
"-88.31","49.69","LITTLE FLATLAND ISLAND (AUT)","6049470","2022-10-31 12:00","2022","10","31","12:00","9.1","","","M","","M","0.0","","19","","23","","","","97.55","","","","","","NA"
"-88.31","49.69","LITTLE FLATLAND ISLAND (AUT)","6049470","2022-10-31 13:00","2022","10","31","13:00","10.9","","","M","","M","0.0","","19","","12","","","","97.41","","","","","","NA"
"-88.31","49.69","LITTLE FLATLAND ISLAND (AUT)","6049470","2022-10-31 14:00","2022","10","31","14:00","12.5","","","M","","M","0.0","","19","","7","","","","97.30","","","","","","NA"
"-88.31","49.69","LITTLE FLATLAND ISLAND (AUT)","6049470","2022-10-31 15:00","2022","10","31","15:00","12.3","","","M","","M","0.0","","20","","24","","","","97.25","","","","","","NA"
"-88.31","49.69","LITTLE FLATLAND ISLAND (AUT)","6049470","2022-10-31 16:00","2022","10","31","16:00","11.5","","","M","","M","0.0","","19","","17","","","","97.26","","","","","","NA"
"-88.31","49.69","LITTLE FLATLAND ISLAND (AUT)","6049470","2022-10-31 17:00","2022","10","31","17:00","10.4","","","M","","M","0.0","","19","","14","","","","97.24","","","","","","NA"
"-88.31","49.69","LITTLE FLATLAND ISLAND (AUT)","6049470","2022-10-31 18:00","2022","10","31","18:00","9.7","","","M","","M","0.0","","20","","17","","","","97.28","","","","","","NA"
"-88.31","49.69","LITTLE FLATLAND ISLAND (AUT)","6049470","2022-10-31 19:00","2022","10","31","19:00","9.4","","","M","","M","0.0","","20","","18","","","","97.32","","","","","","NA"
"-88.31","49.69","LITTLE FLATLAND ISLAND (AUT)","6049470","2022-10-31 20:00","2022","10","31","20:00","8.9","","","M","","M","0.0","","19","","26","","","","97.36","","","","","","NA"
"-88.31","49.69","LITTLE FLATLAND ISLAND (AUT)","6049470","2022-10-31 21:00","2022","10","31","21:00","8.9","","","M","","M","0.0","","19","","13","","","","97.35","","","","","","NA"
"-88.31","49.69","LITTLE FLATLAND ISLAND (AUT)","6049470","2022-10-31 22:00","2022","10","31","22:00","9.0","","","M","","M","0.0","","19","","19","","","","97.38","","","","","","NA"
"-88.31","49.69","LITTLE FLATLAND ISLAND (AUT)","6049470","2022-10-31 23:00","2022","10","31","23:00","9.7","","","M","","M","0.0","","21","","14","","","","97.41","","","","","","NA"
