"Longitude (x)","Latitude (y)","Station Name","Climate ID","Date/Time (LST)","Year","Month","Day","Time (LST)","Temp (°C)","Temp Flag","Dew Point Temp (°C)","Dew Point Temp Flag","Rel Hum (%)","Rel Hum Flag","Precip. Amount (mm)","Precip. Amount Flag","Wind Dir (10s deg)","Wind Dir Flag","Wind Spd (km/h)","Wind Spd Flag","Visibility (km)","Visibility Flag","Stn Press (kPa)","Stn Press Flag","Hmdx","Hmdx Flag","Wind Chill","Wind Chill Flag","Weather"
"-100.27","70.63","GATESHEAD ISLAND","2402332","2018-10-01 00:00","2018","10","01","00:00","-6.6","","-7.5","","93","","0.0","","35","","13","","","","100.58","","","","-12","","NA"
"-100.27","70.63","GATESHEAD ISLAND","2402332","2018-10-01 01:00","2018","10","01","01:00","-6.9","","-8.2","","90","","0.0","","35","","21","","","","100.60","","","","-14","","NA"
"-100.27","70.63","GATESHEAD ISLAND","2402332","2018-10-01 02:00","2018","10","01","02:00","-7.3","","-8.8","","89","","0.0","","36","","22","","","","100.63","","","","-15","","NA"
"-100.27","70.63","GATESHEAD ISLAND","2402332","2018-10-01 03:00","2018","10","01","03:00","-7.4","","-8.9","","89","","0.0","","1","","26","","","","100.65","","","","-16","","NA"
"-100.27","70.63","GATESHEAD ISLAND","2402332","2018-10-01 04:00","2018","10","01","04:00","-7.1","","-8.3","","91","","0.0","","1","","17","","","","100.66","","","","-14","","NA"
"-100.27","70.63","GATESHEAD ISLAND","2402332","2018-10-01 05:00","2018","10","01","05:00","-7.0","","-7.9","","93","","0.0","","34","","11","","","","100.64","","","","-12","","NA"
"-100.27","70.63","GATESHEAD ISLAND","2402332","2018-10-01 06:00","2018","10","01","06:00","-6.9","","-8.3","","90","","0.0","","33","","16","","","","100.58","","","","-13","","NA"
"-100.27","70.63","GATESHEAD ISLAND","2402332","2018-10-01 07:00","2018","10","01","07:00","-7.6","","-8.7","","92","","0.0","","30","","12","","","","100.51","","","","-13","","NA"
"-100.27","70.63","GATESHEAD ISLAND","2402332","2018-10-01 08:00","2018","10","01","08:00","-8.6","","-9.4","","94","","0.0","","29","","17","","","","100.45","","","","-15","","NA"
"-100.27","70.63","GATESHEAD ISLAND","2402332","2018-10-01 09:00","2018","10","01","09:00","-7.8","","-8.5","","95","","0.0","","28","","16","","","","100.37","","","","-14","","NA"
"-100.27","70.63","GATESHEAD ISLAND","2402332","2018-10-01 10:00","2018","10","01","10:00","-8.3","","-9.0","","95","","0.0","","24","","14","","","","100.30","","","","-14","","NA"
"-100.27","70.63","GATESHEAD ISLAND","2402332","2018-10-01 11:00","2018","10","01","11:00","-8.2","","-9.0","","94","","0.0","","23","","18","","","","100.21","","","","-15","","NA"
"-100.27","70.63","GATESHEAD ISLAND","2402332","2018-10-01 12:00","2018","10","01","12:00","-7.9","","-8.7","","94","","0.0","","20","","21","","","","100.13","","","","-15","","NA"
"-100.27","70.63","GATESHEAD ISLAND","2402332","2018-10-01 13:00","2018","10","01","13:00","-8.1","","-9.2","","91","","0.0","","20","","24","","","","100.06","","","","-16","","NA"
"-100.27","70.63","GATESHEAD ISLAND","2402332","2018-10-01 14:00","2018","10","01","14:00","-7.8","","-9.0","","91","","0.0","","18","","25","","","","99.99","","","","-16","","NA"
"-100.27","70.63","GATESHEAD ISLAND","2402332","2018-10-01 15:00","2018","10","01","15:00","-7.8","","-8.9","","92","","0.0","","16","","23","","","","99.94","","","","-16","","NA"
"-100.27","70.63","GATESHEAD ISLAND","2402332","2018-10-01 16:00","2018","10","01","16:00","-7.7","","-8.7","","93","","0.0","","14","","21","","","","99.93","","","","-15","","NA"
"-100.27","70.63","GATESHEAD ISLAND","2402332","2018-10-01 17:00","2018","10","01","17:00","-7.3","","-8.2","","93","","0.0","","13","","27","","","","99.96","","","","-16","","NA"
"-100.27","70.63","GATESHEAD ISLAND","2402332","2018-10-01 18:00","2018","10","01","18:00","-6.9","","-7.9","","92","","0.0","","13","","28","","","","100.03","","","","-15","","NA"
"-100.27","70.63","GATESHEAD ISLAND","2402332","2018-10-01 19:00","2018","10","01","19:00","-6.7","","-8.0","","91","","0.0","","12","","37","","","","100.10","","","","-16","","NA"
"-100.27","70.63","GATESHEAD ISLAND","2402332","2018-10-01 20:00","2018","10","01","20:00","-7.3","","-8.4","","92","","0.0","","11","","38","","","","100.21","","","","-17","","NA"
"-100.27","70.63","GATESHEAD ISLAND","2402332","2018-10-01 21:00","2018","10","01","21:00","-8.4","","-9.9","","89","","0.0","","11","","30","","","","100.37","","","","-17","","NA"
"-100.27","70.63","GATESHEAD ISLAND","2402332","2018-10-01 22:00","2018","10","01","22:00","-7.9","","-9.5","","88","","0.0","","8","","29","","","","100.45","","","","-17","","NA"
"-100.27","70.63","GATESHEAD ISLAND","2402332","2018-10-01 23:00","2018","10","01","23:00","-8.5","","-10.6","","84","","0.0","","6","","25","","","","100.56","","","","-17","","NA"
"-100.27","70.63","GATESHEAD ISLAND","2402332","2018-10-02 00:00","2018","10","02","00:00","-10.5","","-12.1","","88","","0.0","","6","","26","","","","100.67","","","","-20","","NA"
"-100.27","70.63","GATESHEAD ISLAND","2402332","2018-10-02 01:00","2018","10","02","01:00","-11.6","","-12.8","","91","","0.0","","6","","19","","","","100.75","","","","-20","","NA"
"-100.27","70.63","GATESHEAD ISLAND","2402332","2018-10-02 02:00","2018","10","02","02:00","-11.9","","-13.3","","89","","0.0","","5","","16","","","","100.83","","","","-19","","NA"
"-100.27","70.63","GATESHEAD ISLAND","2402332","2018-10-02 03:00","2018","10","02","03:00","-10.2","","-11.4","","91","","0.0","","5","","16","","","","100.88","","","","-17","","NA"
"-100.27","70.63","GATESHEAD ISLAND","2402332","2018-10-02 04:00","2018","10","02","04:00","-9.2","","-10.0","","94","","0.0","","4","","10","","","","100.94","","","","-14","","NA"
"-100.27","70.63","GATESHEAD ISLAND","2402332","2018-10-02 05:00","2018","10","02","05:00","-8.2","","-9.4","","91","","0.0","","4","","35","","","","101.00","","","","-18","","NA"
"-100.27","70.63","GATESHEAD ISLAND","2402332","2018-10-02 06:00","2018","10","02","06:00","-8.1","","-9.3","","91","","0.0","","4","","30","","","","101.06","","","","-17","","NA"
"-100.27","70.63","GATESHEAD ISLAND","2402332","2018-10-02 07:00","2018","10","02","07:00","-7.9","","-9.1","","91","","0.0","","3","","27","","","","101.11","","","","-16","","NA"
"-100.27","70.63","GATESHEAD ISLAND","2402332","2018-10-02 08:00","2018","10","02","08:00","-8.2","","-9.5","","90","","0.0","","3","","24","","","","101.15","","","","-16","","NA"
"-100.27","70.63","GATESHEAD ISLAND","2402332","2018-10-02 09:00","2018","10","02","09:00","-8.4","","-9.6","","92","","0.0","","1","","18","","","","101.18","","","","-15","","NA"
"-100.27","70.63","GATESHEAD ISLAND","2402332","2018-10-02 10:00","2018","10","02","10:00","-7.4","","-8.6","","91","","0.0","","1","","19","","","","101.20","","","","-14","","NA"
"-100.27","70.63","GATESHEAD ISLAND","2402332","2018-10-02 11:00","2018","10","02","11:00","-6.7","","-7.7","","93","","0.0","","1","","21","","","","101.22","","","","-14","","NA"
"-100.27","70.63","GATESHEAD ISLAND","2402332","2018-10-02 12:00","2018","10","02","12:00","-6.3","","-7.3","","92","","0.0","","36","","25","","","","101.24","","","","-14","","NA"
"-100.27","70.63","GATESHEAD ISLAND","2402332","2018-10-02 13:00","2018","10","02","13:00","-6.1","","-7.4","","91","","0.0","","1","","25","","","","101.26","","","","-14","","NA"
"-100.27","70.63","GATESHEAD ISLAND","2402332","2018-10-02 14:00","2018","10","02","14:00","-6.3","","-7.6","","91","","0.0","","36","","24","","","","101.26","","","","-14","","NA"
"-100.27","70.63","GATESHEAD ISLAND","2402332","2018-10-02 15:00","2018","10","02","15:00","-6.1","","-7.3","","91","","0.0","","1","","23","","","","101.28","","","","-13","","NA"
"-100.27","70.63","GATESHEAD ISLAND","2402332","2018-10-02 16:00","2018","10","02","16:00","-5.9","","-7.1","","91","","0.0","","36","","23","","","","101.29","","","","-13","","NA"
"-100.27","70.63","GATESHEAD ISLAND","2402332","2018-10-02 17:00","2018","10","02","17:00","-5.9","","-7.1","","91","","0.0","","36","","25","","","","101.32","","","","-13","","NA"
"-100.27","70.63","GATESHEAD ISLAND","2402332","2018-10-02 18:00","2018","10","02","18:00","-5.8","","-7.0","","91","","0.0","","1","","22","","","","101.33","","","","-13","","NA"
"-100.27","70.63","GATESHEAD ISLAND","2402332","2018-10-02 19:00","2018","10","02","19:00","-6.1","","-7.2","","92","","0.0","","36","","20","","","","101.32","","","","-13","","NA"
"-100.27","70.63","GATESHEAD ISLAND","2402332","2018-10-02 20:00","2018","10","02","20:00","-8.2","","-9.3","","92","","0.0","","1","","19","","","","101.34","","","","-15","","NA"
"-100.27","70.63","GATESHEAD ISLAND","2402332","2018-10-02 21:00","2018","10","02","21:00","-9.6","","-10.4","","94","","0.0","","1","","19","","","","101.34","","","","-17","","NA"
"-100.27","70.63","GATESHEAD ISLAND","2402332","2018-10-02 22:00","2018","10","02","22:00","-7.5","","-8.6","","91","","0.0","","1","","23","","","","101.34","","","","-15","","NA"
"-100.27","70.63","GATESHEAD ISLAND","2402332","2018-10-02 23:00","2018","10","02","23:00","-5.8","","-7.4","","89","","0.0","","1","","27","","","","101.33","","","","-14","","NA"
"-100.27","70.63","GATESHEAD ISLAND","2402332","2018-10-03 00:00","2018","10","03","00:00","-5.7","","-7.1","","89","","0.0","","2","","27","","","","101.34","","","","-14","","NA"
"-100.27","70.63","GATESHEAD ISLAND","2402332","2018-10-03 01:00","2018","10","03","01:00","-5.6","","-7.0","","90","","0.0","","2","","30","","","","101.35","","","","-14","","NA"
"-100.27","70.63","GATESHEAD ISLAND","2402332","2018-10-03 02:00","2018","10","03","02:00","-5.6","","-6.8","","91","","0.0","","1","","23","","","","101.37","","","","-13","","NA"
"-100.27","70.63","GATESHEAD ISLAND","2402332","2018-10-03 03:00","2018","10","03","03:00","-5.8","","-7.0","","91","","0.0","","1","","25","","","","101.38","","","","-13","","NA"
"-100.27","70.63","GATESHEAD ISLAND","2402332","2018-10-03 04:00","2018","10","03","04:00","-5.6","","-6.7","","92","","0.0","","1","","22","","","","101.41","","","","-13","","NA"
"-100.27","70.63","GATESHEAD ISLAND","2402332","2018-10-03 05:00","2018","10","03","05:00","-5.8","","-6.8","","93","","0.0","","36","","20","","","","101.43","","","","-13","","NA"
"-100.27","70.63","GATESHEAD ISLAND","2402332","2018-10-03 06:00","2018","10","03","06:00","-5.7","","-6.6","","94","","0.0","","1","","23","","","","101.43","","","","-13","","NA"
"-100.27","70.63","GATESHEAD ISLAND","2402332","2018-10-03 07:00","2018","10","03","07:00","-5.5","","-6.4","","93","","0.0","","1","","24","","","","101.44","","","","-13","","NA"
"-100.27","70.63","GATESHEAD ISLAND","2402332","2018-10-03 08:00","2018","10","03","08:00","-5.4","","-6.3","","93","","0.0","","1","","22","","","","101.45","","","","-12","","NA"
"-100.27","70.63","GATESHEAD ISLAND","2402332","2018-10-03 09:00","2018","10","03","09:00","-5.5","","-6.4","","93","","0.0","","36","","24","","","","101.46","","","","-13","","NA"
"-100.27","70.63","GATESHEAD ISLAND","2402332","2018-10-03 10:00","2018","10","03","10:00","-5.5","","-6.5","","93","","0.0","","36","","23","","","","101.43","","","","-13","","NA"
"-100.27","70.63","GATESHEAD ISLAND","2402332","2018-10-03 11:00","2018","10","03","11:00","-5.8","","-7.0","","91","","0.0","","1","","32","","","","101.42","","","","-14","","NA"
"-100.27","70.63","GATESHEAD ISLAND","2402332","2018-10-03 12:00","2018","10","03","12:00","-5.9","","-7.3","","90","","0.0","","36","","29","","","","101.45","","","","-14","","NA"
"-100.27","70.63","GATESHEAD ISLAND","2402332","2018-10-03 13:00","2018","10","03","13:00","-6.8","","-8.3","","89","","0.0","","35","","21","","","","101.46","","","","-14","","NA"
"-100.27","70.63","GATESHEAD ISLAND","2402332","2018-10-03 14:00","2018","10","03","14:00","-7.3","","-8.6","","90","","0.0","","34","","24","","","","101.45","","","","-15","","NA"
"-100.27","70.63","GATESHEAD ISLAND","2402332","2018-10-03 15:00","2018","10","03","15:00","-7.9","","-9.2","","91","","0.0","","35","","24","","","","101.45","","","","-16","","NA"
"-100.27","70.63","GATESHEAD ISLAND","2402332","2018-10-03 16:00","2018","10","03","16:00","-8.0","","-9.3","","91","","0.0","","35","","17","","","","101.46","","","","-15","","NA"
"-100.27","70.63","GATESHEAD ISLAND","2402332","2018-10-03 17:00","2018","10","03","17:00","-7.4","","-8.2","","94","","0.0","","36","","16","","","","101.49","","","","-14","","NA"
"-100.27","70.63","GATESHEAD ISLAND","2402332","2018-10-03 18:00","2018","10","03","18:00","-6.9","","-7.9","","93","","0.0","","2","","12","","","","101.50","","","","-12","","NA"
"-100.27","70.63","GATESHEAD ISLAND","2402332","2018-10-03 19:00","2018","10","03","19:00","-7.0","","-7.9","","94","","0.0","","35","","14","","","","101.49","","","","-13","","NA"
"-100.27","70.63","GATESHEAD ISLAND","2402332","2018-10-03 20:00","2018","10","03","20:00","-6.9","","-7.6","","94","","0.0","","35","","14","","","","101.48","","","","-13","","NA"
"-100.27","70.63","GATESHEAD ISLAND","2402332","2018-10-03 21:00","2018","10","03","21:00","-6.4","","-7.1","","95","","0.0","","1","","14","","","","101.49","","","","-12","","NA"
"-100.27","70.63","GATESHEAD ISLAND","2402332","2018-10-03 22:00","2018","10","03","22:00","-6.0","","-6.6","","95","","0.0","","1","","9","","","","101.49","","","","-10","","NA"
"-100.27","70.63","GATESHEAD ISLAND","2402332","2018-10-03 23:00","2018","10","03","23:00","-4.9","","-5.6","","95","","0.0","","3","","13","","","","101.49","","","","-10","","NA"
"-100.27","70.63","GATESHEAD ISLAND","2402332","2018-10-04 00:00","2018","10","04","00:00","-4.9","","-6.2","","91","","0.0","","6","","19","","","","101.51","","","","-11","","NA"
"-100.27","70.63","GATESHEAD ISLAND","2402332","2018-10-04 01:00","2018","10","04","01:00","-6.6","","-7.9","","91","","0.0","","4","","20","","","","101.54","","","","-14","","NA"
"-100.27","70.63","GATESHEAD ISLAND","2402332","2018-10-04 02:00","2018","10","04","02:00","-7.3","","-8.1","","94","","0.0","","3","","20","","","","101.55","","","","-14","","NA"
"-100.27","70.63","GATESHEAD ISLAND","2402332","2018-10-04 03:00","2018","10","04","03:00","-6.3","","-7.3","","93","","0.0","","5","","24","","","","101.57","","","","-14","","NA"
"-100.27","70.63","GATESHEAD ISLAND","2402332","2018-10-04 04:00","2018","10","04","04:00","-6.6","","-7.2","","95","","0.0","","4","","18","","","","101.58","","","","-13","","NA"
"-100.27","70.63","GATESHEAD ISLAND","2402332","2018-10-04 05:00","2018","10","04","05:00","-7.6","","-8.3","","94","","0.0","","3","","21","","","","101.57","","","","-15","","NA"
"-100.27","70.63","GATESHEAD ISLAND","2402332","2018-10-04 06:00","2018","10","04","06:00","-10.3","","-11.1","","94","","0.0","","2","","18","","","","101.60","","","","-18","","NA"
"-100.27","70.63","GATESHEAD ISLAND","2402332","2018-10-04 07:00","2018","10","04","07:00","-9.7","","-10.6","","94","","0.0","","2","","22","","","","101.60","","","","-18","","NA"
"-100.27","70.63","GATESHEAD ISLAND","2402332","2018-10-04 08:00","2018","10","04","08:00","-8.6","","-9.4","","94","","0.0","","3","","22","","","","101.61","","","","-16","","NA"
"-100.27","70.63","GATESHEAD ISLAND","2402332","2018-10-04 09:00","2018","10","04","09:00","-6.8","","-7.4","","95","","0.0","","5","","29","","","","101.63","","","","-15","","NA"
"-100.27","70.63","GATESHEAD ISLAND","2402332","2018-10-04 10:00","2018","10","04","10:00","-7.4","","-8.3","","94","","0.0","","4","","21","","","","101.65","","","","-15","","NA"
"-100.27","70.63","GATESHEAD ISLAND","2402332","2018-10-04 11:00","2018","10","04","11:00","-7.1","","-8.2","","92","","0.0","","4","","22","","","","101.63","","","","-15","","NA"
"-100.27","70.63","GATESHEAD ISLAND","2402332","2018-10-04 12:00","2018","10","04","12:00","-6.2","","-7.1","","93","","0.0","","6","","27","","","","101.64","","","","-14","","NA"
"-100.27","70.63","GATESHEAD ISLAND","2402332","2018-10-04 13:00","2018","10","04","13:00","-6.0","","-7.4","","90","","0.0","","6","","23","","","","101.66","","","","-13","","NA"
"-100.27","70.63","GATESHEAD ISLAND","2402332","2018-10-04 14:00","2018","10","04","14:00","-5.9","","-7.2","","90","","0.0","","4","","26","","","","101.66","","","","-14","","NA"
"-100.27","70.63","GATESHEAD ISLAND","2402332","2018-10-04 15:00","2018","10","04","15:00","-5.9","","-7.4","","90","","0.0","","4","","25","","","","101.71","","","","-13","","NA"
"-100.27","70.63","GATESHEAD ISLAND","2402332","2018-10-04 16:00","2018","10","04","16:00","-7.4","","-8.6","","91","","0.0","","2","","19","","","","101.75","","","","-14","","NA"
"-100.27","70.63","GATESHEAD ISLAND","2402332","2018-10-04 17:00","2018","10","04","17:00","-8.3","","-9.0","","94","","0.0","","36","","15","","","","101.79","","","","-15","","NA"
"-100.27","70.63","GATESHEAD ISLAND","2402332","2018-10-04 18:00","2018","10","04","18:00","-7.8","","-8.3","","96","","0.0","","3","","20","","","","101.80","","","","-15","","NA"
"-100.27","70.63","GATESHEAD ISLAND","2402332","2018-10-04 19:00","2018","10","04","19:00","-8.9","","-9.8","","94","","0.0","","3","","21","","","","101.81","","","","-17","","NA"
"-100.27","70.63","GATESHEAD ISLAND","2402332","2018-10-04 20:00","2018","10","04","20:00","-9.8","","-10.5","","95","","0.0","","2","","15","","","","101.83","","","","-16","","NA"
"-100.27","70.63","GATESHEAD ISLAND","2402332","2018-10-04 21:00","2018","10","04","21:00","-9.1","","-9.9","","94","","0.0","","3","","20","","","","101.85","","","","-17","","NA"
"-100.27","70.63","GATESHEAD ISLAND","2402332","2018-10-04 22:00","2018","10","04","22:00","-8.7","","-9.5","","94","","0.0","","2","","15","","","","101.87","","","","-15","","NA"
"-100.27","70.63","GATESHEAD ISLAND","2402332","2018-10-04 23:00","2018","10","04","23:00","-6.8","","-7.6","","94","","0.0","","2","","17","","","","101.87","","","","-13","","NA"
"-100.27","70.63","GATESHEAD ISLAND","2402332","2018-10-05 00:00","2018","10","05","00:00","-6.3","","-7.3","","93","","0.0","","4","","19","","","","101.91","","","","-13","","NA"
"-100.27","70.63","GATESHEAD ISLAND","2402332","2018-10-05 01:00","2018","10","05","01:00","-6.5","","-7.5","","92","","0.0","","4","","20","","","","101.92","","","","-13","","NA"
"-100.27","70.63","GATESHEAD ISLAND","2402332","2018-10-05 02:00","2018","10","05","02:00","-7.8","","-8.7","","93","","0.0","","5","","20","","","","101.96","","","","-15","","NA"
"-100.27","70.63","GATESHEAD ISLAND","2402332","2018-10-05 03:00","2018","10","05","03:00","-8.9","","-9.7","","94","","0.0","","3","","18","","","","102.00","","","","-16","","NA"
"-100.27","70.63","GATESHEAD ISLAND","2402332","2018-10-05 04:00","2018","10","05","04:00","-9.3","","-10.1","","94","","0.0","","4","","19","","","","102.02","","","","-17","","NA"
"-100.27","70.63","GATESHEAD ISLAND","2402332","2018-10-05 05:00","2018","10","05","05:00","-10.9","","-11.8","","93","","0.0","","3","","17","","","","102.06","","","","-18","","NA"
"-100.27","70.63","GATESHEAD ISLAND","2402332","2018-10-05 06:00","2018","10","05","06:00","-11.5","","-12.3","","94","","0.2","","36","","15","","","","102.07","","","","-19","","NA"
"-100.27","70.63","GATESHEAD ISLAND","2402332","2018-10-05 07:00","2018","10","05","07:00","-12.1","","-13.2","","92","","0.0","","36","","15","","","","102.08","","","","-19","","NA"
"-100.27","70.63","GATESHEAD ISLAND","2402332","2018-10-05 08:00","2018","10","05","08:00","-11.4","","-12.5","","92","","0.0","","36","","16","","","","102.09","","","","-19","","NA"
"-100.27","70.63","GATESHEAD ISLAND","2402332","2018-10-05 09:00","2018","10","05","09:00","-11.7","","-12.8","","91","","0.2","","34","","17","","","","102.08","","","","-19","","NA"
"-100.27","70.63","GATESHEAD ISLAND","2402332","2018-10-05 10:00","2018","10","05","10:00","-11.4","","-12.5","","91","","0.0","","35","","19","","","","102.09","","","","-19","","NA"
"-100.27","70.63","GATESHEAD ISLAND","2402332","2018-10-05 11:00","2018","10","05","11:00","-10.4","","-11.5","","91","","0.0","","34","","21","","","","102.10","","","","-19","","NA"
"-100.27","70.63","GATESHEAD ISLAND","2402332","2018-10-05 12:00","2018","10","05","12:00","-10.6","","-11.8","","91","","0.0","","33","","20","","","","102.11","","","","-19","","NA"
"-100.27","70.63","GATESHEAD ISLAND","2402332","2018-10-05 13:00","2018","10","05","13:00","-9.2","","-10.1","","94","","0.0","","34","","25","","","","102.13","","","","-18","","NA"
"-100.27","70.63","GATESHEAD ISLAND","2402332","2018-10-05 14:00","2018","10","05","14:00","-9.3","","-10.2","","93","","0.2","","34","","25","","","","102.13","","","","-18","","NA"
"-100.27","70.63","GATESHEAD ISLAND","2402332","2018-10-05 15:00","2018","10","05","15:00","-9.6","","-10.5","","93","","0.0","","34","","20","","","","102.17","","","","-17","","NA"
"-100.27","70.63","GATESHEAD ISLAND","2402332","2018-10-05 16:00","2018","10","05","16:00","-10.3","","-11.2","","93","","0.0","","35","","21","","","","102.19","","","","-18","","NA"
"-100.27","70.63","GATESHEAD ISLAND","2402332","2018-10-05 17:00","2018","10","05","17:00","-10.2","","-11.1","","93","","0.0","","35","","19","","","","102.20","","","","-18","","NA"
"-100.27","70.63","GATESHEAD ISLAND","2402332","2018-10-05 18:00","2018","10","05","18:00","-10.5","","-11.4","","93","","0.0","","35","","12","","","","102.20","","","","-17","","NA"
"-100.27","70.63","GATESHEAD ISLAND","2402332","2018-10-05 19:00","2018","10","05","19:00","-8.9","","-9.7","","94","","0.0","","36","","21","","","","102.20","","","","-17","","NA"
"-100.27","70.63","GATESHEAD ISLAND","2402332","2018-10-05 20:00","2018","10","05","20:00","-9.3","","-10.2","","93","","0.0","","35","","19","","","","102.19","","","","-17","","NA"
"-100.27","70.63","GATESHEAD ISLAND","2402332","2018-10-05 21:00","2018","10","05","21:00","-8.4","","-9.2","","94","","0.0","","34","","29","","","","102.15","","","","-17","","NA"
"-100.27","70.63","GATESHEAD ISLAND","2402332","2018-10-05 22:00","2018","10","05","22:00","-7.7","","-8.5","","94","","0.0","","35","","26","","","","102.12","","","","-16","","NA"
"-100.27","70.63","GATESHEAD ISLAND","2402332","2018-10-05 23:00","2018","10","05","23:00","-8.1","","-8.9","","94","","0.0","","33","","29","","","","102.11","","","","-17","","NA"
"-100.27","70.63","GATESHEAD ISLAND","2402332","2018-10-06 00:00","2018","10","06","00:00","-9.8","","-10.8","","93","","0.0","","32","","27","","","","102.10","","","","-19","","NA"
"-100.27","70.63","GATESHEAD ISLAND","2402332","2018-10-06 01:00","2018","10","06","01:00","-11.1","","-12.1","","92","","0.0","","31","","25","","","","102.04","","","","-20","","NA"
"-100.27","70.63","GATESHEAD ISLAND","2402332","2018-10-06 02:00","2018","10","06","02:00","-12.9","","-14.1","","91","","0.0","","31","","21","","","","102.02","","","","-22","","NA"
"-100.27","70.63","GATESHEAD ISLAND","2402332","2018-10-06 03:00","2018","10","06","03:00","-13.5","","-14.7","","90","","0.0","","31","","22","","","","101.99","","","","-23","","NA"
"-100.27","70.63","GATESHEAD ISLAND","2402332","2018-10-06 04:00","2018","10","06","04:00","-13.8","","-15.1","","90","","0.0","","31","","21","","","","101.95","","","","-23","","NA"
"-100.27","70.63","GATESHEAD ISLAND","2402332","2018-10-06 05:00","2018","10","06","05:00","-14.3","","-15.6","","90","","0.0","","30","","20","","","","101.90","","","","-23","","NA"
"-100.27","70.63","GATESHEAD ISLAND","2402332","2018-10-06 06:00","2018","10","06","06:00","-13.5","","-14.7","","90","","0.0","","30","","24","","","","101.79","","","","-23","","NA"
"-100.27","70.63","GATESHEAD ISLAND","2402332","2018-10-06 07:00","2018","10","06","07:00","-13.2","","-14.4","","90","","0.0","","30","","25","","","","101.68","","","","-23","","NA"
"-100.27","70.63","GATESHEAD ISLAND","2402332","2018-10-06 08:00","2018","10","06","08:00","-11.0","","-12.1","","92","","0.0","","30","","32","","","","101.57","","","","-21","","NA"
"-100.27","70.63","GATESHEAD ISLAND","2402332","2018-10-06 09:00","2018","10","06","09:00","-10.2","","-11.2","","93","","0.0","","31","","36","","","","101.50","","","","-21","","NA"
"-100.27","70.63","GATESHEAD ISLAND","2402332","2018-10-06 10:00","2018","10","06","10:00","-9.0","","-9.9","","93","","0.0","","31","","34","","","","101.45","","","","-19","","NA"
"-100.27","70.63","GATESHEAD ISLAND","2402332","2018-10-06 11:00","2018","10","06","11:00","-8.4","","-9.3","","93","","0.0","","31","","30","","","","101.40","","","","-17","","NA"
"-100.27","70.63","GATESHEAD ISLAND","2402332","2018-10-06 12:00","2018","10","06","12:00","-7.8","","-8.7","","94","","0.3","","31","","44","","","","101.27","","","","-18","","NA"
"-100.27","70.63","GATESHEAD ISLAND","2402332","2018-10-06 13:00","2018","10","06","13:00","-7.0","","-7.8","","94","","0.0","","31","","42","","","","101.23","","","","-17","","NA"
"-100.27","70.63","GATESHEAD ISLAND","2402332","2018-10-06 14:00","2018","10","06","14:00","-6.6","","-7.3","","95","","0.0","","31","","42","","","","101.19","","","","-16","","NA"
"-100.27","70.63","GATESHEAD ISLAND","2402332","2018-10-06 15:00","2018","10","06","15:00","-6.3","","-7.0","","95","","0.0","","31","","43","","","","101.15","","","","-16","","NA"
"-100.27","70.63","GATESHEAD ISLAND","2402332","2018-10-06 16:00","2018","10","06","16:00","-5.8","","-6.4","","95","","0.0","","31","","42","","","","101.11","","","","-15","","NA"
"-100.27","70.63","GATESHEAD ISLAND","2402332","2018-10-06 17:00","2018","10","06","17:00","-5.1","","-5.7","","96","","0.0","","31","","40","","","","101.06","","","","-14","","NA"
"-100.27","70.63","GATESHEAD ISLAND","2402332","2018-10-06 18:00","2018","10","06","18:00","-4.7","","-5.2","","96","","0.0","","32","","41","","","","101.02","","","","-14","","NA"
"-100.27","70.63","GATESHEAD ISLAND","2402332","2018-10-06 19:00","2018","10","06","19:00","-4.9","","-5.5","","95","","0.0","","32","","42","","","","100.95","","","","-14","","NA"
"-100.27","70.63","GATESHEAD ISLAND","2402332","2018-10-06 20:00","2018","10","06","20:00","-5.3","","-6.0","","95","","0.0","","32","","52","","","","100.87","","","","-16","","NA"
"-100.27","70.63","GATESHEAD ISLAND","2402332","2018-10-06 21:00","2018","10","06","21:00","-5.7","","-6.5","","94","","0.0","","32","","51","","","","100.81","","","","-16","","NA"
"-100.27","70.63","GATESHEAD ISLAND","2402332","2018-10-06 22:00","2018","10","06","22:00","-6.7","","-7.7","","93","","0.0","","32","","42","","","","100.78","","","","-17","","NA"
"-100.27","70.63","GATESHEAD ISLAND","2402332","2018-10-06 23:00","2018","10","06","23:00","-7.0","","-8.1","","91","","0.0","","30","","38","","","","100.72","","","","-17","","NA"
"-100.27","70.63","GATESHEAD ISLAND","2402332","2018-10-07 00:00","2018","10","07","00:00","-4.4","","-5.8","","90","","0.0","","31","","39","","","","100.64","","","","-13","","NA"
"-100.27","70.63","GATESHEAD ISLAND","2402332","2018-10-07 01:00","2018","10","07","01:00","-4.0","","-5.9","","87","","0.0","","31","","40","","","","100.55","","","","-13","","NA"
"-100.27","70.63","GATESHEAD ISLAND","2402332","2018-10-07 02:00","2018","10","07","02:00","-3.4","","-5.6","","84","","0.0","","32","","50","","","","100.51","","","","-13","","NA"
"-100.27","70.63","GATESHEAD ISLAND","2402332","2018-10-07 03:00","2018","10","07","03:00","-4.1","","-5.5","","90","","0.0","","34","","60","","","","100.47","","","","-14","","NA"
"-100.27","70.63","GATESHEAD ISLAND","2402332","2018-10-07 04:00","2018","10","07","04:00","-4.7","","-6.0","","91","","0.0","","34","","53","","","","100.45","","","","-15","","NA"
"-100.27","70.63","GATESHEAD ISLAND","2402332","2018-10-07 05:00","2018","10","07","05:00","-4.8","","-6.0","","91","","0.0","","33","","45","","","","100.50","","","","-14","","NA"
"-100.27","70.63","GATESHEAD ISLAND","2402332","2018-10-07 06:00","2018","10","07","06:00","-4.9","","-6.6","","88","","0.0","","34","","58","","","","100.55","","","","-15","","NA"
"-100.27","70.63","GATESHEAD ISLAND","2402332","2018-10-07 07:00","2018","10","07","07:00","-5.5","","-7.1","","89","","0.0","","35","","55","","","","100.59","","","","-16","","NA"
"-100.27","70.63","GATESHEAD ISLAND","2402332","2018-10-07 08:00","2018","10","07","08:00","-5.5","","-7.0","","89","","0.0","","34","","53","","","","100.61","","","","-16","","NA"
"-100.27","70.63","GATESHEAD ISLAND","2402332","2018-10-07 09:00","2018","10","07","09:00","-5.8","","-7.7","","87","","","M","35","","46","","","","","M","","","-16","","NA"
"-100.27","70.63","GATESHEAD ISLAND","2402332","2018-10-07 10:00","2018","10","07","10:00","-5.5","","-6.9","","90","","0.0","","33","","33","","","","100.80","","","","-14","","NA"
"-100.27","70.63","GATESHEAD ISLAND","2402332","2018-10-07 11:00","2018","10","07","11:00","-5.5","","-7.1","","88","","0.0","","33","","30","","","","100.85","","","","-14","","NA"
"-100.27","70.63","GATESHEAD ISLAND","2402332","2018-10-07 12:00","2018","10","07","12:00","-5.7","","-6.8","","92","","0.0","","33","","41","","","","100.88","","","","-15","","NA"
"-100.27","70.63","GATESHEAD ISLAND","2402332","2018-10-07 13:00","2018","10","07","13:00","-6.5","","-7.5","","93","","0.0","","32","","39","","","","100.86","","","","-16","","NA"
"-100.27","70.63","GATESHEAD ISLAND","2402332","2018-10-07 14:00","2018","10","07","14:00","-6.4","","-7.1","","95","","0.0","","32","","37","","","","100.87","","","","-16","","NA"
"-100.27","70.63","GATESHEAD ISLAND","2402332","2018-10-07 15:00","2018","10","07","15:00","-5.8","","-6.5","","95","","0.0","","32","","37","","","","100.87","","","","-15","","NA"
"-100.27","70.63","GATESHEAD ISLAND","2402332","2018-10-07 16:00","2018","10","07","16:00","-5.5","","-6.3","","94","","0.0","","33","","43","","","","100.87","","","","-15","","NA"
"-100.27","70.63","GATESHEAD ISLAND","2402332","2018-10-07 17:00","2018","10","07","17:00","-5.4","","-6.2","","94","","0.0","","33","","42","","","","100.87","","","","-15","","NA"
"-100.27","70.63","GATESHEAD ISLAND","2402332","2018-10-07 18:00","2018","10","07","18:00","-5.5","","-6.2","","95","","0.0","","33","","41","","","","100.85","","","","-15","","NA"
"-100.27","70.63","GATESHEAD ISLAND","2402332","2018-10-07 19:00","2018","10","07","19:00","-5.7","","-6.6","","94","","0.3","","33","","39","","","","100.83","","","","-15","","NA"
"-100.27","70.63","GATESHEAD ISLAND","2402332","2018-10-07 20:00","2018","10","07","20:00","-6.6","","-7.4","","94","","0.0","","33","","48","","","","100.79","","","","-17","","NA"
"-100.27","70.63","GATESHEAD ISLAND","2402332","2018-10-07 21:00","2018","10","07","21:00","-6.9","","-7.7","","94","","0.0","","33","","49","","","","100.81","","","","-17","","NA"
"-100.27","70.63","GATESHEAD ISLAND","2402332","2018-10-07 22:00","2018","10","07","22:00","-7.2","","-8.4","","91","","0.0","","33","","44","","","","100.88","","","","-17","","NA"
"-100.27","70.63","GATESHEAD ISLAND","2402332","2018-10-07 23:00","2018","10","07","23:00","-7.3","","-8.6","","91","","0.0","","33","","42","","","","100.87","","","","-17","","NA"
"-100.27","70.63","GATESHEAD ISLAND","2402332","2018-10-08 00:00","2018","10","08","00:00","-7.1","","-8.3","","91","","0.0","","32","","41","","","","100.91","","","","-17","","NA"
"-100.27","70.63","GATESHEAD ISLAND","2402332","2018-10-08 01:00","2018","10","08","01:00","-6.7","","-7.9","","91","","0.0","","32","","43","","","","100.93","","","","-17","","NA"
"-100.27","70.63","GATESHEAD ISLAND","2402332","2018-10-08 02:00","2018","10","08","02:00","-6.3","","-7.4","","92","","0.0","","33","","40","","","","100.98","","","","-16","","NA"
"-100.27","70.63","GATESHEAD ISLAND","2402332","2018-10-08 03:00","2018","10","08","03:00","-6.1","","-7.1","","92","","0.0","","33","","35","","","","101.07","","","","-15","","NA"
"-100.27","70.63","GATESHEAD ISLAND","2402332","2018-10-08 04:00","2018","10","08","04:00","-6.0","","-7.0","","93","","0.3","","33","","31","","","","101.13","","","","-14","","NA"
"-100.27","70.63","GATESHEAD ISLAND","2402332","2018-10-08 05:00","2018","10","08","05:00","-6.0","","-7.1","","92","","0.0","","33","","41","","","","101.12","","","","-16","","NA"
"-100.27","70.63","GATESHEAD ISLAND","2402332","2018-10-08 06:00","2018","10","08","06:00","-6.0","","-7.2","","91","","0.0","","33","","43","","","","101.14","","","","-16","","NA"
"-100.27","70.63","GATESHEAD ISLAND","2402332","2018-10-08 07:00","2018","10","08","07:00","-6.1","","-7.3","","91","","0.0","","33","","39","","","","101.20","","","","-15","","NA"
"-100.27","70.63","GATESHEAD ISLAND","2402332","2018-10-08 08:00","2018","10","08","08:00","-6.1","","-7.2","","92","","0.0","","33","","46","","","","101.21","","","","-16","","NA"
"-100.27","70.63","GATESHEAD ISLAND","2402332","2018-10-08 09:00","2018","10","08","09:00","-6.2","","-7.4","","91","","0.0","","33","","41","","","","101.25","","","","-16","","NA"
"-100.27","70.63","GATESHEAD ISLAND","2402332","2018-10-08 10:00","2018","10","08","10:00","-6.4","","-7.5","","92","","0.0","","33","","47","","","","101.26","","","","-17","","NA"
"-100.27","70.63","GATESHEAD ISLAND","2402332","2018-10-08 11:00","2018","10","08","11:00","-6.4","","-7.4","","93","","0.0","","32","","40","","","","101.31","","","","-16","","NA"
"-100.27","70.63","GATESHEAD ISLAND","2402332","2018-10-08 12:00","2018","10","08","12:00","-6.0","","-7.1","","92","","0.0","","34","","40","","","","101.35","","","","-15","","NA"
"-100.27","70.63","GATESHEAD ISLAND","2402332","2018-10-08 13:00","2018","10","08","13:00","-6.2","","-6.9","","95","","0.0","","33","","37","","","","101.42","","","","-15","","NA"
"-100.27","70.63","GATESHEAD ISLAND","2402332","2018-10-08 14:00","2018","10","08","14:00","-6.1","","-6.8","","95","","0.0","","33","","36","","","","101.48","","","","-15","","NA"
"-100.27","70.63","GATESHEAD ISLAND","2402332","2018-10-08 15:00","2018","10","08","15:00","-5.7","","-6.7","","93","","0.0","","33","","36","","","","101.53","","","","-15","","NA"
"-100.27","70.63","GATESHEAD ISLAND","2402332","2018-10-08 16:00","2018","10","08","16:00","-5.8","","-6.8","","92","","0.0","","34","","36","","","","101.56","","","","-15","","NA"
"-100.27","70.63","GATESHEAD ISLAND","2402332","2018-10-08 17:00","2018","10","08","17:00","-5.6","","-6.7","","92","","0.0","","34","","33","","","","101.59","","","","-14","","NA"
"-100.27","70.63","GATESHEAD ISLAND","2402332","2018-10-08 18:00","2018","10","08","18:00","-5.8","","-6.9","","92","","0.0","","33","","35","","","","101.61","","","","-15","","NA"
"-100.27","70.63","GATESHEAD ISLAND","2402332","2018-10-08 19:00","2018","10","08","19:00","-6.6","","-8.0","","90","","0.0","","32","","39","","","","101.61","","","","-16","","NA"
"-100.27","70.63","GATESHEAD ISLAND","2402332","2018-10-08 20:00","2018","10","08","20:00","-8.8","","-10.3","","88","","0.0","","31","","24","","","","101.65","","","","-17","","NA"
"-100.27","70.63","GATESHEAD ISLAND","2402332","2018-10-08 21:00","2018","10","08","21:00","-9.9","","-11.2","","90","","0.0","","31","","26","","","","101.64","","","","-19","","NA"
"-100.27","70.63","GATESHEAD ISLAND","2402332","2018-10-08 22:00","2018","10","08","22:00","-11.2","","-12.4","","91","","0.0","","30","","23","","","","101.66","","","","-20","","NA"
"-100.27","70.63","GATESHEAD ISLAND","2402332","2018-10-08 23:00","2018","10","08","23:00","-10.7","","-12.5","","87","","0.0","","30","","27","","","","101.66","","","","-20","","NA"
"-100.27","70.63","GATESHEAD ISLAND","2402332","2018-10-09 00:00","2018","10","09","00:00","-10.6","","-12.6","","85","","0.0","","30","","26","","","","101.66","","","","-20","","NA"
"-100.27","70.63","GATESHEAD ISLAND","2402332","2018-10-09 01:00","2018","10","09","01:00","-11.1","","-12.9","","86","","0.0","","30","","23","","","","101.62","","","","-20","","NA"
"-100.27","70.63","GATESHEAD ISLAND","2402332","2018-10-09 02:00","2018","10","09","02:00","-10.0","","-12.2","","84","","0.0","","31","","28","","","","101.63","","","","-19","","NA"
"-100.27","70.63","GATESHEAD ISLAND","2402332","2018-10-09 03:00","2018","10","09","03:00","-9.7","","-11.9","","84","","0.0","","30","","33","","","","101.61","","","","-20","","NA"
"-100.27","70.63","GATESHEAD ISLAND","2402332","2018-10-09 04:00","2018","10","09","04:00","-10.4","","-12.5","","85","","0.0","","30","","25","","","","101.64","","","","-19","","NA"
"-100.27","70.63","GATESHEAD ISLAND","2402332","2018-10-09 05:00","2018","10","09","05:00","-9.7","","-12.0","","83","","0.0","","30","","28","","","","101.58","","","","-19","","NA"
"-100.27","70.63","GATESHEAD ISLAND","2402332","2018-10-09 06:00","2018","10","09","06:00","-9.8","","-12.3","","82","","0.0","","29","","30","","","","101.54","","","","-19","","NA"
"-100.27","70.63","GATESHEAD ISLAND","2402332","2018-10-09 07:00","2018","10","09","07:00","-9.8","","-12.3","","82","","0.0","","29","","29","","","","101.51","","","","-19","","NA"
"-100.27","70.63","GATESHEAD ISLAND","2402332","2018-10-09 08:00","2018","10","09","08:00","-9.6","","-11.8","","84","","0.0","","29","","27","","","","101.49","","","","-19","","NA"
"-100.27","70.63","GATESHEAD ISLAND","2402332","2018-10-09 09:00","2018","10","09","09:00","-8.8","","-11.0","","84","","0.0","","30","","24","","","","101.48","","","","-17","","NA"
"-100.27","70.63","GATESHEAD ISLAND","2402332","2018-10-09 10:00","2018","10","09","10:00","-8.6","","-10.9","","84","","0.0","","30","","21","","","","101.48","","","","-16","","NA"
"-100.27","70.63","GATESHEAD ISLAND","2402332","2018-10-09 11:00","2018","10","09","11:00","-8.3","","-10.5","","84","","0.0","","29","","25","","","","101.48","","","","-17","","NA"
"-100.27","70.63","GATESHEAD ISLAND","2402332","2018-10-09 12:00","2018","10","09","12:00","-7.8","","-10.2","","83","","0.0","","30","","28","","","","101.46","","","","-16","","NA"
"-100.27","70.63","GATESHEAD ISLAND","2402332","2018-10-09 13:00","2018","10","09","13:00","-7.7","","-10.1","","83","","0.0","","30","","25","","","","101.45","","","","-16","","NA"
"-100.27","70.63","GATESHEAD ISLAND","2402332","2018-10-09 14:00","2018","10","09","14:00","-7.8","","-10.2","","83","","0.0","","30","","20","","","","101.44","","","","-15","","NA"
"-100.27","70.63","GATESHEAD ISLAND","2402332","2018-10-09 15:00","2018","10","09","15:00","-8.4","","-10.7","","84","","0.0","","30","","20","","","","101.44","","","","-16","","NA"
"-100.27","70.63","GATESHEAD ISLAND","2402332","2018-10-09 16:00","2018","10","09","16:00","-9.5","","-11.4","","86","","0.0","","28","","19","","","","101.45","","","","-17","","NA"
"-100.27","70.63","GATESHEAD ISLAND","2402332","2018-10-09 17:00","2018","10","09","17:00","-9.6","","-11.3","","88","","0.0","","28","","22","","","","101.45","","","","-18","","NA"
"-100.27","70.63","GATESHEAD ISLAND","2402332","2018-10-09 18:00","2018","10","09","18:00","-9.3","","-10.9","","88","","0.0","","29","","23","","","","101.45","","","","-18","","NA"
"-100.27","70.63","GATESHEAD ISLAND","2402332","2018-10-09 19:00","2018","10","09","19:00","-9.1","","-10.6","","89","","0.0","","29","","23","","","","101.44","","","","-17","","NA"
"-100.27","70.63","GATESHEAD ISLAND","2402332","2018-10-09 20:00","2018","10","09","20:00","-8.8","","-10.2","","90","","0.0","","28","","24","","","","101.44","","","","-17","","NA"
"-100.27","70.63","GATESHEAD ISLAND","2402332","2018-10-09 21:00","2018","10","09","21:00","-9.2","","-10.3","","92","","0.0","","27","","21","","","","101.44","","","","-17","","NA"
"-100.27","70.63","GATESHEAD ISLAND","2402332","2018-10-09 22:00","2018","10","09","22:00","-9.4","","-10.2","","94","","0.0","","27","","21","","","","101.41","","","","-17","","NA"
"-100.27","70.63","GATESHEAD ISLAND","2402332","2018-10-09 23:00","2018","10","09","23:00","-9.5","","-10.3","","94","","0.0","","26","","19","","","","101.42","","","","-17","","NA"
"-100.27","70.63","GATESHEAD ISLAND","2402332","2018-10-10 00:00","2018","10","10","00:00","-8.8","","-9.5","","95","","0.0","","26","","22","","","","101.41","","","","-17","","NA"
"-100.27","70.63","GATESHEAD ISLAND","2402332","2018-10-10 01:00","2018","10","10","01:00","-6.9","","-7.5","","95","","0.0","","28","","29","","","","101.40","","","","-15","","NA"
"-100.27","70.63","GATESHEAD ISLAND","2402332","2018-10-10 02:00","2018","10","10","02:00","-6.4","","-7.1","","95","","0.0","","27","","26","","","","101.39","","","","-14","","NA"
"-100.27","70.63","GATESHEAD ISLAND","2402332","2018-10-10 03:00","2018","10","10","03:00","-5.8","","-6.4","","95","","0.0","","27","","24","","","","101.37","","","","-13","","NA"
"-100.27","70.63","GATESHEAD ISLAND","2402332","2018-10-10 04:00","2018","10","10","04:00","-5.6","","-6.2","","96","","0.0","","27","","27","","","","101.41","","","","-13","","NA"
"-100.27","70.63","GATESHEAD ISLAND","2402332","2018-10-10 05:00","2018","10","10","05:00","-5.9","","-6.6","","95","","0.0","","27","","23","","","","101.41","","","","-13","","NA"
"-100.27","70.63","GATESHEAD ISLAND","2402332","2018-10-10 06:00","2018","10","10","06:00","-6.3","","-7.0","","95","","0.0","","27","","17","","","","101.40","","","","-13","","NA"
"-100.27","70.63","GATESHEAD ISLAND","2402332","2018-10-10 07:00","2018","10","10","07:00","-6.7","","-7.4","","95","","0.0","","28","","12","","","","101.39","","","","-12","","NA"
"-100.27","70.63","GATESHEAD ISLAND","2402332","2018-10-10 08:00","2018","10","10","08:00","-6.8","","-7.6","","95","","0.0","","26","","12","","","","101.39","","","","-12","","NA"
"-100.27","70.63","GATESHEAD ISLAND","2402332","2018-10-10 09:00","2018","10","10","09:00","-8.7","","-9.6","","93","","0.0","","25","","13","","","","101.39","","","","-15","","NA"
"-100.27","70.63","GATESHEAD ISLAND","2402332","2018-10-10 10:00","2018","10","10","10:00","-9.1","","-10.0","","93","","0.0","","28","","11","","","","101.39","","","","-15","","NA"
"-100.27","70.63","GATESHEAD ISLAND","2402332","2018-10-10 11:00","2018","10","10","11:00","-9.3","","-10.2","","93","","0.0","","28","","17","","","","101.40","","","","-16","","NA"
"-100.27","70.63","GATESHEAD ISLAND","2402332","2018-10-10 12:00","2018","10","10","12:00","-8.3","","-9.1","","94","","0.0","","26","","13","","","","101.40","","","","-14","","NA"
"-100.27","70.63","GATESHEAD ISLAND","2402332","2018-10-10 13:00","2018","10","10","13:00","-7.6","","-8.4","","94","","0.0","","27","","17","","","","101.40","","","","-14","","NA"
"-100.27","70.63","GATESHEAD ISLAND","2402332","2018-10-10 14:00","2018","10","10","14:00","-7.2","","-8.0","","94","","0.0","","26","","13","","","","101.40","","","","-13","","NA"
"-100.27","70.63","GATESHEAD ISLAND","2402332","2018-10-10 15:00","2018","10","10","15:00","-7.2","","-7.9","","94","","0.0","","25","","14","","","","101.38","","","","-13","","NA"
"-100.27","70.63","GATESHEAD ISLAND","2402332","2018-10-10 16:00","2018","10","10","16:00","-7.0","","-7.7","","95","","0.0","","24","","11","","","","101.34","","","","-12","","NA"
"-100.27","70.63","GATESHEAD ISLAND","2402332","2018-10-10 17:00","2018","10","10","17:00","-7.1","","-7.8","","95","","0.0","","22","","12","","","","101.33","","","","-12","","NA"
"-100.27","70.63","GATESHEAD ISLAND","2402332","2018-10-10 18:00","2018","10","10","18:00","-7.0","","-7.7","","95","","0.0","","23","","14","","","","101.28","","","","-13","","NA"
"-100.27","70.63","GATESHEAD ISLAND","2402332","2018-10-10 19:00","2018","10","10","19:00","-7.1","","-7.8","","95","","0.0","","24","","12","","","","101.23","","","","-12","","NA"
"-100.27","70.63","GATESHEAD ISLAND","2402332","2018-10-10 20:00","2018","10","10","20:00","-6.7","","-7.4","","95","","0.0","","24","","13","","","","101.19","","","","-12","","NA"
"-100.27","70.63","GATESHEAD ISLAND","2402332","2018-10-10 21:00","2018","10","10","21:00","-6.6","","-7.3","","95","","0.0","","24","","12","","","","101.14","","","","-12","","NA"
"-100.27","70.63","GATESHEAD ISLAND","2402332","2018-10-10 22:00","2018","10","10","22:00","-6.4","","-7.1","","95","","0.0","","25","","11","","","","101.10","","","","-11","","NA"
"-100.27","70.63","GATESHEAD ISLAND","2402332","2018-10-10 23:00","2018","10","10","23:00","-6.2","","-6.9","","95","","0.0","","25","","9","","","","101.05","","","","-10","","NA"
"-100.27","70.63","GATESHEAD ISLAND","2402332","2018-10-11 00:00","2018","10","11","00:00","-6.1","","-6.8","","95","","","M","28","","11","","","","","M","","","-11","","NA"
"-100.27","70.63","GATESHEAD ISLAND","2402332","2018-10-11 01:00","2018","10","11","01:00","-6.4","","-7.0","","95","","0.0","","29","","13","","","","100.95","","","","-12","","NA"
"-100.27","70.63","GATESHEAD ISLAND","2402332","2018-10-11 02:00","2018","10","11","02:00","-6.2","","-6.9","","95","","0.0","","29","","10","","","","100.91","","","","-11","","NA"
"-100.27","70.63","GATESHEAD ISLAND","2402332","2018-10-11 03:00","2018","10","11","03:00","-6.3","","-7.0","","95","","0.0","","27","","12","","","","100.86","","","","-11","","NA"
"-100.27","70.63","GATESHEAD ISLAND","2402332","2018-10-11 04:00","2018","10","11","04:00","-6.0","","-6.6","","95","","0.0","","27","","12","","","","100.81","","","","-11","","NA"
"-100.27","70.63","GATESHEAD ISLAND","2402332","2018-10-11 05:00","2018","10","11","05:00","-6.1","","-6.7","","95","","0.0","","27","","13","","","","100.75","","","","-11","","NA"
"-100.27","70.63","GATESHEAD ISLAND","2402332","2018-10-11 06:00","2018","10","11","06:00","-6.5","","-7.2","","95","","0.0","","26","","12","","","","100.72","","","","-12","","NA"
"-100.27","70.63","GATESHEAD ISLAND","2402332","2018-10-11 07:00","2018","10","11","07:00","-6.4","","-7.0","","95","","0.0","","27","","12","","","","100.68","","","","-12","","NA"
"-100.27","70.63","GATESHEAD ISLAND","2402332","2018-10-11 08:00","2018","10","11","08:00","-6.7","","-7.4","","95","","0.0","","26","","13","","","","100.64","","","","-12","","NA"
"-100.27","70.63","GATESHEAD ISLAND","2402332","2018-10-11 09:00","2018","10","11","09:00","-8.0","","-8.8","","94","","0.0","","28","","10","","","","100.63","","","","-13","","NA"
"-100.27","70.63","GATESHEAD ISLAND","2402332","2018-10-11 10:00","2018","10","11","10:00","-8.2","","-9.0","","94","","0.0","","27","","9","","","","100.60","","","","-13","","NA"
"-100.27","70.63","GATESHEAD ISLAND","2402332","2018-10-11 11:00","2018","10","11","11:00","-7.6","","-8.3","","94","","0.0","","27","","15","","","","100.56","","","","-14","","NA"
"-100.27","70.63","GATESHEAD ISLAND","2402332","2018-10-11 12:00","2018","10","11","12:00","-7.3","","-8.0","","94","","0.0","","27","","12","","","","100.56","","","","-13","","NA"
"-100.27","70.63","GATESHEAD ISLAND","2402332","2018-10-11 13:00","2018","10","11","13:00","-7.5","","-8.2","","94","","0.0","","28","","11","","","","100.55","","","","-13","","NA"
"-100.27","70.63","GATESHEAD ISLAND","2402332","2018-10-11 14:00","2018","10","11","14:00","-7.7","","-8.5","","94","","0.0","","29","","10","","","","100.55","","","","-13","","NA"
"-100.27","70.63","GATESHEAD ISLAND","2402332","2018-10-11 15:00","2018","10","11","15:00","-7.8","","-8.6","","94","","0.0","","28","","11","","","","100.54","","","","-13","","NA"
"-100.27","70.63","GATESHEAD ISLAND","2402332","2018-10-11 16:00","2018","10","11","16:00","-8.1","","-8.9","","94","","0.0","","30","","11","","","","100.52","","","","-13","","NA"
"-100.27","70.63","GATESHEAD ISLAND","2402332","2018-10-11 17:00","2018","10","11","17:00","-8.0","","-8.8","","94","","0.0","","30","","12","","","","100.51","","","","-13","","NA"
"-100.27","70.63","GATESHEAD ISLAND","2402332","2018-10-11 18:00","2018","10","11","18:00","-8.0","","-8.8","","94","","0.0","","31","","11","","","","100.49","","","","-13","","NA"
"-100.27","70.63","GATESHEAD ISLAND","2402332","2018-10-11 19:00","2018","10","11","19:00","-8.0","","-8.8","","94","","0.0","","31","","10","","","","100.48","","","","-13","","NA"
"-100.27","70.63","GATESHEAD ISLAND","2402332","2018-10-11 20:00","2018","10","11","20:00","-7.3","","-8.0","","95","","0.0","","33","","13","","","","100.47","","","","-13","","NA"
"-100.27","70.63","GATESHEAD ISLAND","2402332","2018-10-11 21:00","2018","10","11","21:00","-7.2","","-7.9","","95","","0.0","","32","","11","","","","100.46","","","","-12","","NA"
"-100.27","70.63","GATESHEAD ISLAND","2402332","2018-10-11 22:00","2018","10","11","22:00","-6.7","","-7.4","","95","","0.0","","32","","16","","","","100.47","","","","-13","","NA"
"-100.27","70.63","GATESHEAD ISLAND","2402332","2018-10-11 23:00","2018","10","11","23:00","-7.5","","-8.3","","94","","0.0","","32","","14","","","","100.47","","","","-13","","NA"
"-100.27","70.63","GATESHEAD ISLAND","2402332","2018-10-12 00:00","2018","10","12","00:00","-7.3","","-8.1","","94","","0.0","","32","","9","","","","100.50","","","","-12","","NA"
"-100.27","70.63","GATESHEAD ISLAND","2402332","2018-10-12 01:00","2018","10","12","01:00","-7.4","","-8.2","","94","","0.0","","32","","12","","","","100.50","","","","-13","","NA"
"-100.27","70.63","GATESHEAD ISLAND","2402332","2018-10-12 02:00","2018","10","12","02:00","-9.3","","-10.2","","93","","0.0","","31","","9","","","","100.51","","","","-14","","NA"
"-100.27","70.63","GATESHEAD ISLAND","2402332","2018-10-12 03:00","2018","10","12","03:00","-11.5","","-12.6","","91","","0.0","","31","","11","","","","100.52","","","","-17","","NA"
"-100.27","70.63","GATESHEAD ISLAND","2402332","2018-10-12 04:00","2018","10","12","04:00","-8.7","","-9.5","","94","","0.0","","31","","12","","","","100.52","","","","-14","","NA"
"-100.27","70.63","GATESHEAD ISLAND","2402332","2018-10-12 05:00","2018","10","12","05:00","-7.6","","-8.5","","94","","0.0","","33","","20","","","","100.53","","","","-15","","NA"
"-100.27","70.63","GATESHEAD ISLAND","2402332","2018-10-12 06:00","2018","10","12","06:00","-9.0","","-9.9","","93","","0.0","","32","","14","","","","100.56","","","","-15","","NA"
"-100.27","70.63","GATESHEAD ISLAND","2402332","2018-10-12 07:00","2018","10","12","07:00","-8.8","","-9.7","","93","","0.0","","32","","15","","","","100.56","","","","-15","","NA"
"-100.27","70.63","GATESHEAD ISLAND","2402332","2018-10-12 08:00","2018","10","12","08:00","-8.2","","-9.0","","94","","0.0","","31","","15","","","","100.57","","","","-15","","NA"
"-100.27","70.63","GATESHEAD ISLAND","2402332","2018-10-12 09:00","2018","10","12","09:00","-7.1","","-7.8","","95","","0.0","","31","","14","","","","100.59","","","","-13","","NA"
"-100.27","70.63","GATESHEAD ISLAND","2402332","2018-10-12 10:00","2018","10","12","10:00","-6.4","","-7.0","","95","","0.0","","32","","15","","","","100.62","","","","-12","","NA"
"-100.27","70.63","GATESHEAD ISLAND","2402332","2018-10-12 11:00","2018","10","12","11:00","-6.2","","-6.8","","95","","0.0","","32","","13","","","","100.65","","","","-12","","NA"
"-100.27","70.63","GATESHEAD ISLAND","2402332","2018-10-12 12:00","2018","10","12","12:00","-6.1","","-6.8","","95","","0.0","","31","","16","","","","100.66","","","","-12","","NA"
"-100.27","70.63","GATESHEAD ISLAND","2402332","2018-10-12 13:00","2018","10","12","13:00","-7.8","","-8.6","","94","","0.0","","32","","18","","","","100.67","","","","-15","","NA"
"-100.27","70.63","GATESHEAD ISLAND","2402332","2018-10-12 14:00","2018","10","12","14:00","-8.1","","-8.9","","94","","0.0","","32","","17","","","","100.70","","","","-15","","NA"
"-100.27","70.63","GATESHEAD ISLAND","2402332","2018-10-12 15:00","2018","10","12","15:00","-7.8","","-8.5","","94","","0.0","","31","","17","","","","100.72","","","","-14","","NA"
"-100.27","70.63","GATESHEAD ISLAND","2402332","2018-10-12 16:00","2018","10","12","16:00","-7.9","","-8.7","","94","","0.0","","32","","16","","","","100.74","","","","-14","","NA"
"-100.27","70.63","GATESHEAD ISLAND","2402332","2018-10-12 17:00","2018","10","12","17:00","-7.7","","-8.5","","94","","0.0","","32","","16","","","","100.79","","","","-14","","NA"
"-100.27","70.63","GATESHEAD ISLAND","2402332","2018-10-12 18:00","2018","10","12","18:00","-8.2","","-9.0","","94","","0.0","","31","","11","","","","100.82","","","","-13","","NA"
"-100.27","70.63","GATESHEAD ISLAND","2402332","2018-10-12 19:00","2018","10","12","19:00","-7.8","","-8.6","","94","","0.0","","31","","10","","","","100.83","","","","-13","","NA"
"-100.27","70.63","GATESHEAD ISLAND","2402332","2018-10-12 20:00","2018","10","12","20:00","-8.5","","-9.3","","94","","0.0","","34","","20","","","","100.86","","","","-16","","NA"
"-100.27","70.63","GATESHEAD ISLAND","2402332","2018-10-12 21:00","2018","10","12","21:00","-9.4","","-10.3","","93","","0.0","","32","","17","","","","100.87","","","","-16","","NA"
"-100.27","70.63","GATESHEAD ISLAND","2402332","2018-10-12 22:00","2018","10","12","22:00","-9.0","","-9.9","","93","","0.0","","32","","23","","","","100.89","","","","-17","","NA"
"-100.27","70.63","GATESHEAD ISLAND","2402332","2018-10-12 23:00","2018","10","12","23:00","-10.1","","-11.1","","93","","0.0","","30","","18","","","","100.90","","","","-18","","NA"
"-100.27","70.63","GATESHEAD ISLAND","2402332","2018-10-13 00:00","2018","10","13","00:00","-10.3","","-11.3","","92","","0.0","","29","","22","","","","100.90","","","","-19","","NA"
"-100.27","70.63","GATESHEAD ISLAND","2402332","2018-10-13 01:00","2018","10","13","01:00","-9.5","","-10.4","","93","","0.0","","29","","23","","","","100.91","","","","-18","","NA"
"-100.27","70.63","GATESHEAD ISLAND","2402332","2018-10-13 02:00","2018","10","13","02:00","-9.3","","-10.2","","93","","0.0","","30","","15","","","","100.93","","","","-16","","NA"
"-100.27","70.63","GATESHEAD ISLAND","2402332","2018-10-13 03:00","2018","10","13","03:00","-9.3","","-10.2","","93","","0.0","","29","","13","","","","100.94","","","","-15","","NA"
"-100.27","70.63","GATESHEAD ISLAND","2402332","2018-10-13 04:00","2018","10","13","04:00","-8.7","","-9.6","","94","","0.0","","28","","17","","","","100.94","","","","-16","","NA"
"-100.27","70.63","GATESHEAD ISLAND","2402332","2018-10-13 05:00","2018","10","13","05:00","-9.2","","-10.2","","93","","0.0","","32","","20","","","","100.96","","","","-17","","NA"
"-100.27","70.63","GATESHEAD ISLAND","2402332","2018-10-13 06:00","2018","10","13","06:00","-10.5","","-11.5","","92","","0.0","","31","","18","","","","100.96","","","","-18","","NA"
"-100.27","70.63","GATESHEAD ISLAND","2402332","2018-10-13 07:00","2018","10","13","07:00","-10.0","","-10.9","","93","","0.0","","31","","23","","","","100.95","","","","-18","","NA"
"-100.27","70.63","GATESHEAD ISLAND","2402332","2018-10-13 08:00","2018","10","13","08:00","-10.2","","-11.2","","92","","0.0","","31","","28","","","","100.96","","","","-19","","NA"
"-100.27","70.63","GATESHEAD ISLAND","2402332","2018-10-13 09:00","2018","10","13","09:00","-10.2","","-11.2","","92","","0.0","","30","","27","","","","100.94","","","","-19","","NA"
"-100.27","70.63","GATESHEAD ISLAND","2402332","2018-10-13 10:00","2018","10","13","10:00","-10.8","","-11.9","","92","","0.0","","30","","29","","","","100.95","","","","-20","","NA"
"-100.27","70.63","GATESHEAD ISLAND","2402332","2018-10-13 11:00","2018","10","13","11:00","-10.5","","-11.5","","92","","0.0","","30","","28","","","","100.94","","","","-20","","NA"
"-100.27","70.63","GATESHEAD ISLAND","2402332","2018-10-13 12:00","2018","10","13","12:00","-11.0","","-12.1","","91","","0.0","","32","","33","","","","100.95","","","","-21","","NA"
"-100.27","70.63","GATESHEAD ISLAND","2402332","2018-10-13 13:00","2018","10","13","13:00","-10.8","","-11.9","","92","","0.0","","30","","37","","","","100.93","","","","-21","","NA"
"-100.27","70.63","GATESHEAD ISLAND","2402332","2018-10-13 14:00","2018","10","13","14:00","-11.8","","-13.0","","91","","0.0","","33","","36","","","","100.98","","","","-23","","NA"
"-100.27","70.63","GATESHEAD ISLAND","2402332","2018-10-13 15:00","2018","10","13","15:00","-11.9","","-13.1","","91","","0.0","","33","","30","","","","101.03","","","","-22","","NA"
"-100.27","70.63","GATESHEAD ISLAND","2402332","2018-10-13 16:00","2018","10","13","16:00","-11.9","","-13.1","","91","","0.0","","33","","32","","","","101.06","","","","-22","","NA"
"-100.27","70.63","GATESHEAD ISLAND","2402332","2018-10-13 17:00","2018","10","13","17:00","-12.2","","-13.4","","91","","0.0","","34","","34","","","","101.11","","","","-23","","NA"
"-100.27","70.63","GATESHEAD ISLAND","2402332","2018-10-13 18:00","2018","10","13","18:00","-11.9","","-13.0","","91","","0.0","","32","","31","","","","101.11","","","","-22","","NA"
"-100.27","70.63","GATESHEAD ISLAND","2402332","2018-10-13 19:00","2018","10","13","19:00","-11.8","","-13.0","","91","","0.0","","31","","28","","","","101.09","","","","-22","","NA"
"-100.27","70.63","GATESHEAD ISLAND","2402332","2018-10-13 20:00","2018","10","13","20:00","-11.2","","-12.3","","92","","0.0","","30","","27","","","","101.06","","","","-21","","NA"
"-100.27","70.63","GATESHEAD ISLAND","2402332","2018-10-13 21:00","2018","10","13","21:00","-10.6","","-11.7","","92","","0.0","","32","","34","","","","101.05","","","","-21","","NA"
"-100.27","70.63","GATESHEAD ISLAND","2402332","2018-10-13 22:00","2018","10","13","22:00","-11.2","","-12.3","","92","","0.0","","32","","34","","","","101.08","","","","-22","","NA"
"-100.27","70.63","GATESHEAD ISLAND","2402332","2018-10-13 23:00","2018","10","13","23:00","-11.1","","-12.2","","92","","0.0","","33","","33","","","","101.09","","","","-21","","NA"
"-100.27","70.63","GATESHEAD ISLAND","2402332","2018-10-14 00:00","2018","10","14","00:00","-11.4","","-12.5","","92","","0.0","","33","","36","","","","101.10","","","","-22","","NA"
"-100.27","70.63","GATESHEAD ISLAND","2402332","2018-10-14 01:00","2018","10","14","01:00","-11.7","","-12.8","","91","","0.0","","32","","29","","","","101.13","","","","-22","","NA"
"-100.27","70.63","GATESHEAD ISLAND","2402332","2018-10-14 02:00","2018","10","14","02:00","-12.4","","-13.6","","91","","0.0","","33","","30","","","","101.14","","","","-23","","NA"
"-100.27","70.63","GATESHEAD ISLAND","2402332","2018-10-14 03:00","2018","10","14","03:00","-12.7","","-13.9","","91","","0.0","","32","","24","","","","101.14","","","","-22","","NA"
"-100.27","70.63","GATESHEAD ISLAND","2402332","2018-10-14 04:00","2018","10","14","04:00","-14.2","","-15.6","","90","","0.0","","31","","26","","","","101.14","","","","-24","","NA"
"-100.27","70.63","GATESHEAD ISLAND","2402332","2018-10-14 05:00","2018","10","14","05:00","-14.9","","-16.3","","89","","0.0","","31","","22","","","","101.13","","","","-24","","NA"
"-100.27","70.63","GATESHEAD ISLAND","2402332","2018-10-14 06:00","2018","10","14","06:00","-15.7","","-17.2","","88","","0.0","","32","","19","","","","101.14","","","","-25","","NA"
"-100.27","70.63","GATESHEAD ISLAND","2402332","2018-10-14 07:00","2018","10","14","07:00","-16.3","","-17.8","","89","","0.0","","32","","18","","","","101.10","","","","-25","","NA"
"-100.27","70.63","GATESHEAD ISLAND","2402332","2018-10-14 08:00","2018","10","14","08:00","-15.9","","-17.3","","89","","0.0","","32","","20","","","","101.06","","","","-25","","NA"
"-100.27","70.63","GATESHEAD ISLAND","2402332","2018-10-14 09:00","2018","10","14","09:00","-15.6","","-17.0","","89","","0.0","","32","","14","","","","101.03","","","","-23","","NA"
"-100.27","70.63","GATESHEAD ISLAND","2402332","2018-10-14 10:00","2018","10","14","10:00","-17.3","","-19.0","","87","","0.0","","29","","8","","","","101.04","","","","-23","","NA"
"-100.27","70.63","GATESHEAD ISLAND","2402332","2018-10-14 11:00","2018","10","14","11:00","-17.5","","-19.2","","87","","0.0","","29","","15","","","","101.04","","","","-26","","NA"
"-100.27","70.63","GATESHEAD ISLAND","2402332","2018-10-14 12:00","2018","10","14","12:00","-17.2","","-18.9","","86","","0.0","","30","","14","","","","101.00","","","","-25","","NA"
"-100.27","70.63","GATESHEAD ISLAND","2402332","2018-10-14 13:00","2018","10","14","13:00","-16.3","","-17.8","","88","","0.0","","30","","13","","","","101.00","","","","-24","","NA"
"-100.27","70.63","GATESHEAD ISLAND","2402332","2018-10-14 14:00","2018","10","14","14:00","-15.5","","-17.0","","88","","0.0","","30","","12","","","","100.99","","","","-23","","NA"
"-100.27","70.63","GATESHEAD ISLAND","2402332","2018-10-14 15:00","2018","10","14","15:00","-16.7","","-18.2","","88","","0.0","","28","","14","","","","100.97","","","","-25","","NA"
"-100.27","70.63","GATESHEAD ISLAND","2402332","2018-10-14 16:00","2018","10","14","16:00","-16.4","","-17.9","","88","","0.0","","29","","16","","","","100.95","","","","-25","","NA"
"-100.27","70.63","GATESHEAD ISLAND","2402332","2018-10-14 17:00","2018","10","14","17:00","-16.5","","-18.1","","88","","0.0","","31","","13","","","","100.93","","","","-24","","NA"
"-100.27","70.63","GATESHEAD ISLAND","2402332","2018-10-14 18:00","2018","10","14","18:00","-15.1","","-16.5","","89","","0.0","","32","","12","","","","100.89","","","","-22","","NA"
"-100.27","70.63","GATESHEAD ISLAND","2402332","2018-10-14 19:00","2018","10","14","19:00","-14.5","","-15.9","","90","","0.0","","32","","16","","","","100.85","","","","-23","","NA"
"-100.27","70.63","GATESHEAD ISLAND","2402332","2018-10-14 20:00","2018","10","14","20:00","-13.8","","-15.1","","90","","0.0","","31","","9","","","","100.82","","","","-19","","NA"
"-100.27","70.63","GATESHEAD ISLAND","2402332","2018-10-14 21:00","2018","10","14","21:00","-12.9","","-14.1","","91","","0.0","","30","","4","","","","100.82","","","","-16","","NA"
"-100.27","70.63","GATESHEAD ISLAND","2402332","2018-10-14 22:00","2018","10","14","22:00","-12.3","","-13.4","","91","","0.0","","30","","5","","","","100.82","","","","-16","","NA"
"-100.27","70.63","GATESHEAD ISLAND","2402332","2018-10-14 23:00","2018","10","14","23:00","-11.9","","-13.0","","91","","0.0","","31","","6","","","","100.82","","","","-16","","NA"
"-100.27","70.63","GATESHEAD ISLAND","2402332","2018-10-15 00:00","2018","10","15","00:00","-11.8","","-13.0","","91","","0.0","","33","","10","","","","100.82","","","","-17","","NA"
"-100.27","70.63","GATESHEAD ISLAND","2402332","2018-10-15 01:00","2018","10","15","01:00","-13.0","","-14.2","","90","","0.0","","33","","15","","","","100.79","","","","-20","","NA"
"-100.27","70.63","GATESHEAD ISLAND","2402332","2018-10-15 02:00","2018","10","15","02:00","-14.3","","-15.7","","89","","0.0","","31","","11","","","","100.78","","","","-21","","NA"
"-100.27","70.63","GATESHEAD ISLAND","2402332","2018-10-15 03:00","2018","10","15","03:00","-15.5","","-16.9","","89","","0.0","","30","","10","","","","100.77","","","","-22","","NA"
"-100.27","70.63","GATESHEAD ISLAND","2402332","2018-10-15 04:00","2018","10","15","04:00","-12.5","","-13.7","","91","","0.0","","31","","13","","","","100.77","","","","-19","","NA"
"-100.27","70.63","GATESHEAD ISLAND","2402332","2018-10-15 05:00","2018","10","15","05:00","-12.9","","-14.1","","90","","0.0","","31","","12","","","","100.77","","","","-19","","NA"
"-100.27","70.63","GATESHEAD ISLAND","2402332","2018-10-15 06:00","2018","10","15","06:00","-14.0","","-15.3","","89","","0.0","","31","","11","","","","100.77","","","","-20","","NA"
"-100.27","70.63","GATESHEAD ISLAND","2402332","2018-10-15 07:00","2018","10","15","07:00","-14.5","","-16.0","","89","","0.0","","30","","11","","","","100.76","","","","-21","","NA"
"-100.27","70.63","GATESHEAD ISLAND","2402332","2018-10-15 08:00","2018","10","15","08:00","-14.7","","-16.0","","89","","0.0","","30","","13","","","","100.74","","","","-22","","NA"
"-100.27","70.63","GATESHEAD ISLAND","2402332","2018-10-15 09:00","2018","10","15","09:00","-14.4","","-15.8","","89","","0.0","","31","","13","","","","100.73","","","","-22","","NA"
"-100.27","70.63","GATESHEAD ISLAND","2402332","2018-10-15 10:00","2018","10","15","10:00","-14.0","","-15.4","","89","","0.0","","29","","11","","","","100.75","","","","-20","","NA"
"-100.27","70.63","GATESHEAD ISLAND","2402332","2018-10-15 11:00","2018","10","15","11:00","-12.4","","-13.6","","91","","0.0","","30","","13","","","","100.73","","","","-19","","NA"
"-100.27","70.63","GATESHEAD ISLAND","2402332","2018-10-15 12:00","2018","10","15","12:00","-12.4","","-13.7","","90","","0.0","","32","","22","","","","100.72","","","","-21","","NA"
"-100.27","70.63","GATESHEAD ISLAND","2402332","2018-10-15 13:00","2018","10","15","13:00","-12.9","","-14.2","","90","","0.0","","31","","19","","","","100.73","","","","-21","","NA"
"-100.27","70.63","GATESHEAD ISLAND","2402332","2018-10-15 14:00","2018","10","15","14:00","-13.1","","-14.3","","90","","0.0","","31","","18","","","","100.71","","","","-21","","NA"
"-100.27","70.63","GATESHEAD ISLAND","2402332","2018-10-15 15:00","2018","10","15","15:00","-13.5","","-14.9","","90","","0.0","","30","","16","","","","100.71","","","","-21","","NA"
"-100.27","70.63","GATESHEAD ISLAND","2402332","2018-10-15 16:00","2018","10","15","16:00","-14.2","","-15.5","","90","","0.0","","30","","18","","","","100.70","","","","-23","","NA"
"-100.27","70.63","GATESHEAD ISLAND","2402332","2018-10-15 17:00","2018","10","15","17:00","-13.3","","-14.6","","90","","0.0","","31","","19","","","","100.69","","","","-22","","NA"
"-100.27","70.63","GATESHEAD ISLAND","2402332","2018-10-15 18:00","2018","10","15","18:00","-13.0","","-14.3","","90","","0.0","","31","","20","","","","100.67","","","","-22","","NA"
"-100.27","70.63","GATESHEAD ISLAND","2402332","2018-10-15 19:00","2018","10","15","19:00","-12.5","","-13.7","","91","","0.0","","31","","20","","","","100.64","","","","-21","","NA"
"-100.27","70.63","GATESHEAD ISLAND","2402332","2018-10-15 20:00","2018","10","15","20:00","-12.5","","-13.7","","91","","0.0","","31","","19","","","","100.62","","","","-21","","NA"
"-100.27","70.63","GATESHEAD ISLAND","2402332","2018-10-15 21:00","2018","10","15","21:00","-13.1","","-14.4","","90","","0.0","","32","","21","","","","100.63","","","","-22","","NA"
"-100.27","70.63","GATESHEAD ISLAND","2402332","2018-10-15 22:00","2018","10","15","22:00","-12.4","","-13.6","","91","","0.0","","32","","20","","","","100.65","","","","-21","","NA"
"-100.27","70.63","GATESHEAD ISLAND","2402332","2018-10-15 23:00","2018","10","15","23:00","-12.2","","-13.4","","91","","0.0","","32","","23","","","","100.67","","","","-21","","NA"
"-100.27","70.63","GATESHEAD ISLAND","2402332","2018-10-16 00:00","2018","10","16","00:00","-12.0","","-13.2","","91","","0.0","","32","","25","","","","100.69","","","","-21","","NA"
"-100.27","70.63","GATESHEAD ISLAND","2402332","2018-10-16 01:00","2018","10","16","01:00","-12.0","","-13.1","","91","","0.0","","32","","23","","","","100.73","","","","-21","","NA"
"-100.27","70.63","GATESHEAD ISLAND","2402332","2018-10-16 02:00","2018","10","16","02:00","-11.8","","-12.9","","91","","0.0","","32","","24","","","","100.77","","","","-21","","NA"
"-100.27","70.63","GATESHEAD ISLAND","2402332","2018-10-16 03:00","2018","10","16","03:00","-12.5","","-13.7","","91","","0.0","","32","","21","","","","100.79","","","","-21","","NA"
"-100.27","70.63","GATESHEAD ISLAND","2402332","2018-10-16 04:00","2018","10","16","04:00","-12.4","","-13.5","","91","","0.0","","31","","20","","","","100.82","","","","-21","","NA"
"-100.27","70.63","GATESHEAD ISLAND","2402332","2018-10-16 05:00","2018","10","16","05:00","-13.8","","-15.1","","89","","0.0","","30","","18","","","","100.82","","","","-22","","NA"
"-100.27","70.63","GATESHEAD ISLAND","2402332","2018-10-16 06:00","2018","10","16","06:00","-13.4","","-14.5","","91","","0.0","","29","","16","","","","100.80","","","","-21","","NA"
"-100.27","70.63","GATESHEAD ISLAND","2402332","2018-10-16 07:00","2018","10","16","07:00","-12.0","","-13.2","","91","","0.0","","30","","21","","","","100.78","","","","-21","","NA"
"-100.27","70.63","GATESHEAD ISLAND","2402332","2018-10-16 08:00","2018","10","16","08:00","-12.4","","-13.6","","91","","0.0","","30","","27","","","","100.78","","","","-22","","NA"
"-100.27","70.63","GATESHEAD ISLAND","2402332","2018-10-16 09:00","2018","10","16","09:00","-12.7","","-14.0","","90","","0.0","","29","","26","","","","100.77","","","","-22","","NA"
"-100.27","70.63","GATESHEAD ISLAND","2402332","2018-10-16 10:00","2018","10","16","10:00","-12.5","","-13.7","","90","","0.0","","30","","25","","","","100.74","","","","-22","","NA"
"-100.27","70.63","GATESHEAD ISLAND","2402332","2018-10-16 11:00","2018","10","16","11:00","-12.1","","-13.4","","91","","0.0","","29","","26","","","","100.73","","","","-22","","NA"
"-100.27","70.63","GATESHEAD ISLAND","2402332","2018-10-16 12:00","2018","10","16","12:00","-11.3","","-12.6","","91","","0.0","","30","","27","","","","100.72","","","","-21","","NA"
"-100.27","70.63","GATESHEAD ISLAND","2402332","2018-10-16 13:00","2018","10","16","13:00","-11.2","","-12.5","","90","","0.0","","31","","25","","","","100.74","","","","-20","","NA"
"-100.27","70.63","GATESHEAD ISLAND","2402332","2018-10-16 14:00","2018","10","16","14:00","-11.0","","-12.3","","90","","0.0","","30","","17","","","","100.74","","","","-18","","NA"
"-100.27","70.63","GATESHEAD ISLAND","2402332","2018-10-16 15:00","2018","10","16","15:00","-11.1","","-12.4","","90","","0.0","","31","","21","","","","100.72","","","","-19","","NA"
"-100.27","70.63","GATESHEAD ISLAND","2402332","2018-10-16 16:00","2018","10","16","16:00","-10.9","","-12.0","","91","","0.0","","29","","22","","","","100.71","","","","-19","","NA"
"-100.27","70.63","GATESHEAD ISLAND","2402332","2018-10-16 17:00","2018","10","16","17:00","-11.0","","-12.1","","91","","0.0","","29","","27","","","","100.69","","","","-20","","NA"
"-100.27","70.63","GATESHEAD ISLAND","2402332","2018-10-16 18:00","2018","10","16","18:00","-10.8","","-12.0","","92","","0.0","","29","","24","","","","100.70","","","","-20","","NA"
"-100.27","70.63","GATESHEAD ISLAND","2402332","2018-10-16 19:00","2018","10","16","19:00","-11.0","","-12.1","","92","","0.0","","29","","25","","","","100.66","","","","-20","","NA"
"-100.27","70.63","GATESHEAD ISLAND","2402332","2018-10-16 20:00","2018","10","16","20:00","-10.8","","-11.9","","91","","0.0","","30","","24","","","","100.63","","","","-20","","NA"
"-100.27","70.63","GATESHEAD ISLAND","2402332","2018-10-16 21:00","2018","10","16","21:00","-10.8","","-12.0","","91","","0.0","","29","","24","","","","100.62","","","","-20","","NA"
"-100.27","70.63","GATESHEAD ISLAND","2402332","2018-10-16 22:00","2018","10","16","22:00","-10.9","","-12.0","","92","","0.0","","29","","23","","","","100.59","","","","-20","","NA"
"-100.27","70.63","GATESHEAD ISLAND","2402332","2018-10-16 23:00","2018","10","16","23:00","-10.9","","-12.0","","92","","0.0","","29","","26","","","","100.57","","","","-20","","NA"
"-100.27","70.63","GATESHEAD ISLAND","2402332","2018-10-17 00:00","2018","10","17","00:00","-11.3","","-12.5","","91","","0.0","","29","","24","","","","100.56","","","","-20","","NA"
"-100.27","70.63","GATESHEAD ISLAND","2402332","2018-10-17 01:00","2018","10","17","01:00","-12.1","","-13.3","","91","","0.0","","29","","22","","","","100.53","","","","-21","","NA"
"-100.27","70.63","GATESHEAD ISLAND","2402332","2018-10-17 02:00","2018","10","17","02:00","-12.1","","-13.3","","91","","0.0","","28","","25","","","","100.49","","","","-21","","NA"
"-100.27","70.63","GATESHEAD ISLAND","2402332","2018-10-17 03:00","2018","10","17","03:00","-12.8","","-14.0","","90","","0.0","","29","","23","","","","100.49","","","","-22","","NA"
"-100.27","70.63","GATESHEAD ISLAND","2402332","2018-10-17 04:00","2018","10","17","04:00","-12.9","","-14.1","","91","","0.0","","29","","24","","","","100.48","","","","-22","","NA"
"-100.27","70.63","GATESHEAD ISLAND","2402332","2018-10-17 05:00","2018","10","17","05:00","-12.4","","-13.7","","91","","0.0","","29","","24","","","","100.43","","","","-22","","NA"
"-100.27","70.63","GATESHEAD ISLAND","2402332","2018-10-17 06:00","2018","10","17","06:00","-12.1","","-13.3","","91","","0.0","","29","","22","","","","100.39","","","","-21","","NA"
"-100.27","70.63","GATESHEAD ISLAND","2402332","2018-10-17 07:00","2018","10","17","07:00","-12.1","","-13.3","","91","","0.0","","29","","21","","","","100.30","","","","-21","","NA"
"-100.27","70.63","GATESHEAD ISLAND","2402332","2018-10-17 08:00","2018","10","17","08:00","-12.6","","-13.8","","90","","0.0","","28","","20","","","","100.26","","","","-21","","NA"
"-100.27","70.63","GATESHEAD ISLAND","2402332","2018-10-17 09:00","2018","10","17","09:00","-12.2","","-13.4","","91","","0.0","","29","","20","","","","100.25","","","","-21","","NA"
"-100.27","70.63","GATESHEAD ISLAND","2402332","2018-10-17 10:00","2018","10","17","10:00","-11.7","","-12.9","","91","","0.0","","29","","20","","","","100.22","","","","-20","","NA"
"-100.27","70.63","GATESHEAD ISLAND","2402332","2018-10-17 11:00","2018","10","17","11:00","-11.4","","-12.7","","90","","0.0","","29","","21","","","","100.21","","","","-20","","NA"
"-100.27","70.63","GATESHEAD ISLAND","2402332","2018-10-17 12:00","2018","10","17","12:00","-12.9","","-14.6","","87","","0.0","","28","","19","","","","100.18","","","","-21","","NA"
"-100.27","70.63","GATESHEAD ISLAND","2402332","2018-10-17 13:00","2018","10","17","13:00","-13.8","","-15.1","","90","","0.0","","27","","17","","","","100.16","","","","-22","","NA"
"-100.27","70.63","GATESHEAD ISLAND","2402332","2018-10-17 14:00","2018","10","17","14:00","-12.3","","-13.5","","90","","0.0","","28","","18","","","","100.14","","","","-20","","NA"
"-100.27","70.63","GATESHEAD ISLAND","2402332","2018-10-17 15:00","2018","10","17","15:00","-12.8","","-14.2","","90","","0.0","","28","","16","","","","100.11","","","","-20","","NA"
"-100.27","70.63","GATESHEAD ISLAND","2402332","2018-10-17 16:00","2018","10","17","16:00","-14.9","","-16.3","","89","","0.0","","28","","17","","","","100.08","","","","-23","","NA"
"-100.27","70.63","GATESHEAD ISLAND","2402332","2018-10-17 17:00","2018","10","17","17:00","-15.4","","-16.7","","90","","0.0","","28","","15","","","","100.08","","","","-23","","NA"
"-100.27","70.63","GATESHEAD ISLAND","2402332","2018-10-17 18:00","2018","10","17","18:00","-14.6","","-15.9","","90","","0.0","","29","","13","","","","100.05","","","","-22","","NA"
"-100.27","70.63","GATESHEAD ISLAND","2402332","2018-10-17 19:00","2018","10","17","19:00","-14.8","","-16.1","","90","","0.0","","30","","13","","","","100.01","","","","-22","","NA"
"-100.27","70.63","GATESHEAD ISLAND","2402332","2018-10-17 20:00","2018","10","17","20:00","-16.3","","-17.9","","88","","0.0","","31","","10","","","","99.98","","","","-23","","NA"
"-100.27","70.63","GATESHEAD ISLAND","2402332","2018-10-17 21:00","2018","10","17","21:00","-16.5","","-18.0","","88","","0.0","","31","","8","","","","99.96","","","","-22","","NA"
"-100.27","70.63","GATESHEAD ISLAND","2402332","2018-10-17 22:00","2018","10","17","22:00","-15.9","","-17.4","","88","","0.0","","29","","8","","","","99.94","","","","-21","","NA"
"-100.27","70.63","GATESHEAD ISLAND","2402332","2018-10-17 23:00","2018","10","17","23:00","-15.1","","-16.5","","89","","0.0","","27","","11","","","","99.95","","","","-22","","NA"
"-100.27","70.63","GATESHEAD ISLAND","2402332","2018-10-18 00:00","2018","10","18","00:00","-14.8","","-16.2","","89","","0.0","","30","","13","","","","99.92","","","","-22","","NA"
"-100.27","70.63","GATESHEAD ISLAND","2402332","2018-10-18 01:00","2018","10","18","01:00","-15.9","","-17.4","","88","","0.0","","28","","10","","","","99.91","","","","-22","","NA"
"-100.27","70.63","GATESHEAD ISLAND","2402332","2018-10-18 02:00","2018","10","18","02:00","-16.2","","-17.7","","88","","0.0","","27","","10","","","","99.92","","","","-23","","NA"
"-100.27","70.63","GATESHEAD ISLAND","2402332","2018-10-18 03:00","2018","10","18","03:00","-14.6","","-16.0","","90","","0.0","","26","","10","","","","99.93","","","","-21","","NA"
"-100.27","70.63","GATESHEAD ISLAND","2402332","2018-10-18 04:00","2018","10","18","04:00","-14.5","","-15.9","","89","","0.0","","27","","10","","","","99.93","","","","-21","","NA"
"-100.27","70.63","GATESHEAD ISLAND","2402332","2018-10-18 05:00","2018","10","18","05:00","-14.3","","-15.6","","89","","0.0","","29","","9","","","","99.92","","","","-20","","NA"
"-100.27","70.63","GATESHEAD ISLAND","2402332","2018-10-18 06:00","2018","10","18","06:00","-15.1","","-16.6","","89","","0.0","","30","","6","","","","99.95","","","","-19","","NA"
"-100.27","70.63","GATESHEAD ISLAND","2402332","2018-10-18 07:00","2018","10","18","07:00","-15.1","","-16.5","","89","","0.0","","30","","8","","","","99.98","","","","-20","","NA"
"-100.27","70.63","GATESHEAD ISLAND","2402332","2018-10-18 08:00","2018","10","18","08:00","-15.0","","-16.4","","89","","0.0","","33","","6","","","","99.96","","","","-19","","NA"
"-100.27","70.63","GATESHEAD ISLAND","2402332","2018-10-18 09:00","2018","10","18","09:00","-14.9","","-16.4","","89","","0.0","","32","","8","","","","99.99","","","","-20","","NA"
"-100.27","70.63","GATESHEAD ISLAND","2402332","2018-10-18 10:00","2018","10","18","10:00","-14.4","","-15.8","","89","","0.0","","33","","7","","","","100.05","","","","-19","","NA"
"-100.27","70.63","GATESHEAD ISLAND","2402332","2018-10-18 11:00","2018","10","18","11:00","-13.8","","-15.2","","89","","0.2","","32","","4","","","","100.08","","","","-17","","NA"
"-100.27","70.63","GATESHEAD ISLAND","2402332","2018-10-18 12:00","2018","10","18","12:00","-13.4","","-14.7","","90","","0.0","","31","","7","","","","100.13","","","","-18","","NA"
"-100.27","70.63","GATESHEAD ISLAND","2402332","2018-10-18 13:00","2018","10","18","13:00","-13.3","","-14.6","","90","","0.0","","33","","5","","","","100.18","","","","-17","","NA"
"-100.27","70.63","GATESHEAD ISLAND","2402332","2018-10-18 14:00","2018","10","18","14:00","-12.9","","-14.2","","90","","0.2","","31","","7","","","","100.23","","","","-17","","NA"
"-100.27","70.63","GATESHEAD ISLAND","2402332","2018-10-18 15:00","2018","10","18","15:00","-13.1","","-14.4","","90","","0.0","","30","","7","","","","100.29","","","","-18","","NA"
"-100.27","70.63","GATESHEAD ISLAND","2402332","2018-10-18 16:00","2018","10","18","16:00","-13.5","","-14.8","","90","","0.0","","31","","9","","","","100.34","","","","-19","","NA"
"-100.27","70.63","GATESHEAD ISLAND","2402332","2018-10-18 17:00","2018","10","18","17:00","-12.3","","-13.4","","91","","0.0","","34","","8","","","","100.41","","","","-17","","NA"
"-100.27","70.63","GATESHEAD ISLAND","2402332","2018-10-18 18:00","2018","10","18","18:00","-11.2","","-12.2","","92","","0.0","","36","","10","","","","100.47","","","","-17","","NA"
"-100.27","70.63","GATESHEAD ISLAND","2402332","2018-10-18 19:00","2018","10","18","19:00","-11.5","","-12.6","","92","","0.0","","2","","10","","","","100.54","","","","-17","","NA"
"-100.27","70.63","GATESHEAD ISLAND","2402332","2018-10-18 20:00","2018","10","18","20:00","-13.2","","-14.5","","90","","0.0","","2","","11","","","","100.59","","","","-19","","NA"
"-100.27","70.63","GATESHEAD ISLAND","2402332","2018-10-18 21:00","2018","10","18","21:00","-12.9","","-14.1","","91","","0.0","","35","","8","","","","100.68","","","","-18","","NA"
"-100.27","70.63","GATESHEAD ISLAND","2402332","2018-10-18 22:00","2018","10","18","22:00","-12.2","","-13.3","","91","","0.0","","1","","14","","","","100.76","","","","-19","","NA"
"-100.27","70.63","GATESHEAD ISLAND","2402332","2018-10-18 23:00","2018","10","18","23:00","-12.5","","-13.7","","91","","0.0","","35","","13","","","","100.84","","","","-19","","NA"
"-100.27","70.63","GATESHEAD ISLAND","2402332","2018-10-19 00:00","2018","10","19","00:00","-12.2","","-13.3","","91","","0.0","","34","","12","","","","100.94","","","","-19","","NA"
"-100.27","70.63","GATESHEAD ISLAND","2402332","2018-10-19 01:00","2018","10","19","01:00","-11.9","","-13.0","","91","","0.0","","34","","15","","","","101.00","","","","-19","","NA"
"-100.27","70.63","GATESHEAD ISLAND","2402332","2018-10-19 02:00","2018","10","19","02:00","-12.8","","-14.1","","90","","0.0","","34","","17","","","","101.08","","","","-21","","NA"
"-100.27","70.63","GATESHEAD ISLAND","2402332","2018-10-19 03:00","2018","10","19","03:00","-14.7","","-16.1","","89","","0.0","","34","","18","","","","101.17","","","","-23","","NA"
"-100.27","70.63","GATESHEAD ISLAND","2402332","2018-10-19 04:00","2018","10","19","04:00","-16.5","","-18.1","","87","","0.0","","33","","15","","","","101.25","","","","-25","","NA"
"-100.27","70.63","GATESHEAD ISLAND","2402332","2018-10-19 05:00","2018","10","19","05:00","-19.0","","-20.8","","86","","0.0","","33","","14","","","","101.33","","","","-28","","NA"
"-100.27","70.63","GATESHEAD ISLAND","2402332","2018-10-19 06:00","2018","10","19","06:00","-19.4","","-21.2","","86","","0.0","","33","","13","","","","101.39","","","","-28","","NA"
"-100.27","70.63","GATESHEAD ISLAND","2402332","2018-10-19 07:00","2018","10","19","07:00","-15.7","","-17.1","","89","","0.0","","33","","16","","","","101.41","","","","-24","","NA"
"-100.27","70.63","GATESHEAD ISLAND","2402332","2018-10-19 08:00","2018","10","19","08:00","-14.0","","-15.3","","90","","0.0","","32","","15","","","","101.46","","","","-22","","NA"
"-100.27","70.63","GATESHEAD ISLAND","2402332","2018-10-19 09:00","2018","10","19","09:00","-12.2","","-13.4","","91","","0.0","","31","","16","","","","101.48","","","","-20","","NA"
"-100.27","70.63","GATESHEAD ISLAND","2402332","2018-10-19 10:00","2018","10","19","10:00","-11.0","","-12.1","","92","","0.0","","32","","20","","","","101.51","","","","-19","","NA"
"-100.27","70.63","GATESHEAD ISLAND","2402332","2018-10-19 11:00","2018","10","19","11:00","-10.7","","-11.8","","92","","0.0","","33","","22","","","","101.53","","","","-19","","NA"
"-100.27","70.63","GATESHEAD ISLAND","2402332","2018-10-19 12:00","2018","10","19","12:00","-11.3","","-12.4","","91","","0.0","","31","","25","","","","101.55","","","","-20","","NA"
"-100.27","70.63","GATESHEAD ISLAND","2402332","2018-10-19 13:00","2018","10","19","13:00","-11.9","","-13.1","","91","","0.0","","32","","26","","","","101.57","","","","-21","","NA"
"-100.27","70.63","GATESHEAD ISLAND","2402332","2018-10-19 14:00","2018","10","19","14:00","-11.3","","-12.3","","92","","0.0","","31","","27","","","","101.57","","","","-21","","NA"
"-100.27","70.63","GATESHEAD ISLAND","2402332","2018-10-19 15:00","2018","10","19","15:00","-11.4","","-12.5","","91","","0.0","","32","","26","","","","101.55","","","","-21","","NA"
"-100.27","70.63","GATESHEAD ISLAND","2402332","2018-10-19 16:00","2018","10","19","16:00","-11.2","","-12.2","","92","","0.0","","31","","24","","","","101.57","","","","-20","","NA"
"-100.27","70.63","GATESHEAD ISLAND","2402332","2018-10-19 17:00","2018","10","19","17:00","-11.5","","-12.6","","91","","0.0","","32","","23","","","","101.57","","","","-20","","NA"
"-100.27","70.63","GATESHEAD ISLAND","2402332","2018-10-19 18:00","2018","10","19","18:00","-11.9","","-13.1","","91","","0.0","","31","","23","","","","101.55","","","","-21","","NA"
"-100.27","70.63","GATESHEAD ISLAND","2402332","2018-10-19 19:00","2018","10","19","19:00","-12.4","","-13.6","","91","","0.0","","32","","20","","","","101.50","","","","-21","","NA"
"-100.27","70.63","GATESHEAD ISLAND","2402332","2018-10-19 20:00","2018","10","19","20:00","-12.9","","-14.1","","91","","0.0","","31","","16","","","","101.48","","","","-21","","NA"
"-100.27","70.63","GATESHEAD ISLAND","2402332","2018-10-19 21:00","2018","10","19","21:00","-13.1","","-14.3","","90","","0.0","","31","","12","","","","101.42","","","","-20","","NA"
"-100.27","70.63","GATESHEAD ISLAND","2402332","2018-10-19 22:00","2018","10","19","22:00","-13.3","","-14.6","","90","","0.0","","31","","11","","","","101.38","","","","-20","","NA"
"-100.27","70.63","GATESHEAD ISLAND","2402332","2018-10-19 23:00","2018","10","19","23:00","-13.3","","-14.5","","90","","0.0","","30","","8","","","","101.35","","","","-18","","NA"
"-100.27","70.63","GATESHEAD ISLAND","2402332","2018-10-20 00:00","2018","10","20","00:00","-13.3","","-14.6","","90","","0.0","","29","","7","","","","101.33","","","","-18","","NA"
"-100.27","70.63","GATESHEAD ISLAND","2402332","2018-10-20 01:00","2018","10","20","01:00","-13.3","","-14.5","","90","","0.0","","32","","6","","","","101.30","","","","-17","","NA"
"-100.27","70.63","GATESHEAD ISLAND","2402332","2018-10-20 02:00","2018","10","20","02:00","-13.0","","-14.2","","90","","0.0","","33","","4","","","","101.29","","","","-16","","NA"
"-100.27","70.63","GATESHEAD ISLAND","2402332","2018-10-20 03:00","2018","10","20","03:00","-12.9","","-14.1","","91","","0.0","","10","","2","","","","101.21","","","","-14","","NA"
"-100.27","70.63","GATESHEAD ISLAND","2402332","2018-10-20 04:00","2018","10","20","04:00","-13.1","","-14.4","","90","","0.0","","8","","5","","","","101.17","","","","-16","","NA"
"-100.27","70.63","GATESHEAD ISLAND","2402332","2018-10-20 05:00","2018","10","20","05:00","-13.9","","-15.2","","90","","0.0","","9","","5","","","","101.14","","","","-17","","NA"
"-100.27","70.63","GATESHEAD ISLAND","2402332","2018-10-20 06:00","2018","10","20","06:00","-14.0","","-15.3","","90","","0.0","","7","","5","","","","101.05","","","","-17","","NA"
"-100.27","70.63","GATESHEAD ISLAND","2402332","2018-10-20 07:00","2018","10","20","07:00","-14.3","","-15.6","","89","","0.0","","10","","5","","","","100.96","","","","-18","","NA"
"-100.27","70.63","GATESHEAD ISLAND","2402332","2018-10-20 08:00","2018","10","20","08:00","-13.5","","-14.7","","90","","0.0","","13","","11","","","","100.95","","","","-20","","NA"
"-100.27","70.63","GATESHEAD ISLAND","2402332","2018-10-20 09:00","2018","10","20","09:00","-13.5","","-14.7","","90","","0.0","","12","","8","","","","100.87","","","","-19","","NA"
"-100.27","70.63","GATESHEAD ISLAND","2402332","2018-10-20 10:00","2018","10","20","10:00","-13.3","","-14.6","","90","","0.0","","13","","11","","","","100.83","","","","-20","","NA"
"-100.27","70.63","GATESHEAD ISLAND","2402332","2018-10-20 11:00","2018","10","20","11:00","-13.5","","-14.8","","90","","0.0","","14","","11","","","","100.82","","","","-20","","NA"
"-100.27","70.63","GATESHEAD ISLAND","2402332","2018-10-20 12:00","2018","10","20","12:00","-13.7","","-14.9","","90","","0.0","","12","","9","","","","100.76","","","","-19","","NA"
"-100.27","70.63","GATESHEAD ISLAND","2402332","2018-10-20 13:00","2018","10","20","13:00","-14.1","","-15.4","","89","","0.0","","12","","5","","","","100.76","","","","-18","","NA"
"-100.27","70.63","GATESHEAD ISLAND","2402332","2018-10-20 14:00","2018","10","20","14:00","-15.5","","-16.9","","88","","0.0","","11","","4","","","","100.73","","","","-18","","NA"
"-100.27","70.63","GATESHEAD ISLAND","2402332","2018-10-20 15:00","2018","10","20","15:00","-14.9","","-16.3","","89","","0.0","","11","","4","","","","100.74","","","","-18","","NA"
"-100.27","70.63","GATESHEAD ISLAND","2402332","2018-10-20 16:00","2018","10","20","16:00","-15.5","","-17.0","","88","","0.0","","12","","5","","","","100.73","","","","-19","","NA"
"-100.27","70.63","GATESHEAD ISLAND","2402332","2018-10-20 17:00","2018","10","20","17:00","-14.9","","-16.3","","89","","0.0","","11","","5","","","","100.72","","","","-18","","NA"
"-100.27","70.63","GATESHEAD ISLAND","2402332","2018-10-20 18:00","2018","10","20","18:00","-14.6","","-16.0","","89","","0.0","","11","","6","","","","100.70","","","","-19","","NA"
"-100.27","70.63","GATESHEAD ISLAND","2402332","2018-10-20 19:00","2018","10","20","19:00","-14.2","","-15.5","","90","","0.0","","11","","6","","","","100.70","","","","-18","","NA"
"-100.27","70.63","GATESHEAD ISLAND","2402332","2018-10-20 20:00","2018","10","20","20:00","-13.7","","-15.0","","90","","0.0","","12","","6","","","","100.71","","","","-18","","NA"
"-100.27","70.63","GATESHEAD ISLAND","2402332","2018-10-20 21:00","2018","10","20","21:00","-13.4","","-14.6","","90","","0.0","","13","","6","","","","100.75","","","","-17","","NA"
"-100.27","70.63","GATESHEAD ISLAND","2402332","2018-10-20 22:00","2018","10","20","22:00","-13.1","","-14.4","","90","","0.0","","13","","6","","","","100.76","","","","-17","","NA"
"-100.27","70.63","GATESHEAD ISLAND","2402332","2018-10-20 23:00","2018","10","20","23:00","-13.6","","-14.9","","90","","0.0","","11","","5","","","","100.79","","","","-17","","NA"
"-100.27","70.63","GATESHEAD ISLAND","2402332","2018-10-21 00:00","2018","10","21","00:00","-14.4","","-15.8","","89","","0.0","","9","","5","","","","100.85","","","","-18","","NA"
"-100.27","70.63","GATESHEAD ISLAND","2402332","2018-10-21 01:00","2018","10","21","01:00","-13.5","","-14.8","","90","","0.0","","10","","5","","","","100.88","","","","-17","","NA"
"-100.27","70.63","GATESHEAD ISLAND","2402332","2018-10-21 02:00","2018","10","21","02:00","-13.2","","-14.5","","90","","0.0","","10","","4","","","","100.92","","","","-16","","NA"
"-100.27","70.63","GATESHEAD ISLAND","2402332","2018-10-21 03:00","2018","10","21","03:00","-13.4","","-14.7","","90","","0.0","","9","","4","","","","100.96","","","","-16","","NA"
"-100.27","70.63","GATESHEAD ISLAND","2402332","2018-10-21 04:00","2018","10","21","04:00","-13.4","","-14.7","","90","","0.0","","9","","5","","","","101.01","","","","-17","","NA"
"-100.27","70.63","GATESHEAD ISLAND","2402332","2018-10-21 05:00","2018","10","21","05:00","-13.2","","-14.4","","90","","0.0","","11","","5","","","","101.03","","","","-17","","NA"
"-100.27","70.63","GATESHEAD ISLAND","2402332","2018-10-21 06:00","2018","10","21","06:00","-13.5","","-14.7","","90","","0.0","","11","","6","","","","101.09","","","","-18","","NA"
"-100.27","70.63","GATESHEAD ISLAND","2402332","2018-10-21 07:00","2018","10","21","07:00","-13.5","","-14.8","","90","","0.0","","9","","5","","","","101.14","","","","-17","","NA"
"-100.27","70.63","GATESHEAD ISLAND","2402332","2018-10-21 08:00","2018","10","21","08:00","-13.5","","-14.8","","90","","0.2","","10","","4","","","","101.19","","","","-16","","NA"
"-100.27","70.63","GATESHEAD ISLAND","2402332","2018-10-21 09:00","2018","10","21","09:00","-13.4","","-14.7","","90","","0.0","","9","","4","","","","101.23","","","","-16","","NA"
"-100.27","70.63","GATESHEAD ISLAND","2402332","2018-10-21 10:00","2018","10","21","10:00","-13.6","","-14.9","","90","","0.3","","9","","5","","","","101.28","","","","-17","","NA"
"-100.27","70.63","GATESHEAD ISLAND","2402332","2018-10-21 11:00","2018","10","21","11:00","-13.8","","-15.1","","90","","0.0","","7","","5","","","","101.33","","","","-17","","NA"
"-100.27","70.63","GATESHEAD ISLAND","2402332","2018-10-21 12:00","2018","10","21","12:00","-14.1","","-15.5","","90","","0.0","","7","","5","","","","101.36","","","","-18","","NA"
"-100.27","70.63","GATESHEAD ISLAND","2402332","2018-10-21 13:00","2018","10","21","13:00","-14.2","","-15.6","","89","","0.0","","6","","5","","","","101.41","","","","-18","","NA"
"-100.27","70.63","GATESHEAD ISLAND","2402332","2018-10-21 14:00","2018","10","21","14:00","-14.5","","-15.9","","89","","0.0","","5","","8","","","","101.47","","","","-20","","NA"
"-100.27","70.63","GATESHEAD ISLAND","2402332","2018-10-21 15:00","2018","10","21","15:00","-15.0","","-16.4","","89","","0.0","","5","","9","","","","101.52","","","","-21","","NA"
"-100.27","70.63","GATESHEAD ISLAND","2402332","2018-10-21 16:00","2018","10","21","16:00","-15.4","","-16.9","","89","","0.0","","4","","8","","","","101.56","","","","-21","","NA"
"-100.27","70.63","GATESHEAD ISLAND","2402332","2018-10-21 17:00","2018","10","21","17:00","-16.9","","-18.5","","87","","0.0","","2","","9","","","","101.63","","","","-23","","NA"
"-100.27","70.63","GATESHEAD ISLAND","2402332","2018-10-21 18:00","2018","10","21","18:00","-17.8","","-19.5","","86","","0.0","","3","","7","","","","101.66","","","","-23","","NA"
"-100.27","70.63","GATESHEAD ISLAND","2402332","2018-10-21 19:00","2018","10","21","19:00","-17.1","","-18.7","","88","","0.0","","4","","7","","","","101.72","","","","-22","","NA"
"-100.27","70.63","GATESHEAD ISLAND","2402332","2018-10-21 20:00","2018","10","21","20:00","-18.1","","-19.9","","86","","0.0","","4","","8","","","","101.77","","","","-24","","NA"
"-100.27","70.63","GATESHEAD ISLAND","2402332","2018-10-21 21:00","2018","10","21","21:00","-18.9","","-20.7","","86","","0.0","","4","","8","","","","101.80","","","","-25","","NA"
"-100.27","70.63","GATESHEAD ISLAND","2402332","2018-10-21 22:00","2018","10","21","22:00","-19.7","","-21.5","","85","","0.0","","4","","7","","","","101.85","","","","-25","","NA"
"-100.27","70.63","GATESHEAD ISLAND","2402332","2018-10-21 23:00","2018","10","21","23:00","-19.4","","-21.2","","86","","0.0","","5","","6","","","","101.89","","","","-24","","NA"
"-100.27","70.63","GATESHEAD ISLAND","2402332","2018-10-22 00:00","2018","10","22","00:00","-21.4","","-23.5","","84","","0.0","","2","","4","","","","101.94","","","","-25","","NA"
"-100.27","70.63","GATESHEAD ISLAND","2402332","2018-10-22 01:00","2018","10","22","01:00"
"-100.27","70.63","GATESHEAD ISLAND","2402332","2018-10-22 02:00","2018","10","22","02:00"
"-100.27","70.63","GATESHEAD ISLAND","2402332","2018-10-22 03:00","2018","10","22","03:00","-23.5","","-25.8","","81","","0.0","","1","","4","","","","102.13","","","","-27","","NA"
"-100.27","70.63","GATESHEAD ISLAND","2402332","2018-10-22 04:00","2018","10","22","04:00","-25.3","","-27.8","","80","","0.0","","34","","8","","","","102.18","","","","-32","","NA"
"-100.27","70.63","GATESHEAD ISLAND","2402332","2018-10-22 05:00","2018","10","22","05:00","-24.6","","-27.0","","81","","0.0","","36","","8","","","","102.22","","","","-32","","NA"
"-100.27","70.63","GATESHEAD ISLAND","2402332","2018-10-22 06:00","2018","10","22","06:00","-24.5","","-26.9","","81","","0.0","","34","","5","","","","102.26","","","","-29","","NA"
"-100.27","70.63","GATESHEAD ISLAND","2402332","2018-10-22 07:00","2018","10","22","07:00","-25.8","","-28.3","","80","","0.0","","33","","5","","","","102.30","","","","-31","","NA"
"-100.27","70.63","GATESHEAD ISLAND","2402332","2018-10-22 08:00","2018","10","22","08:00","-25.9","","-28.4","","79","","0.0","","33","","6","","","","102.32","","","","-32","","NA"
"-100.27","70.63","GATESHEAD ISLAND","2402332","2018-10-22 09:00","2018","10","22","09:00","-25.9","","-28.3","","80","","0.2","","33","","5","","","","102.39","","","","-31","","NA"
"-100.27","70.63","GATESHEAD ISLAND","2402332","2018-10-22 10:00","2018","10","22","10:00","-25.1","","-27.4","","82","","0.2","","33","","5","","","","102.43","","","","-30","","NA"
"-100.27","70.63","GATESHEAD ISLAND","2402332","2018-10-22 11:00","2018","10","22","11:00","-25.0","","-27.0","","84","","0.2","","33","","6","","","","102.48","","","","-31","","NA"
"-100.27","70.63","GATESHEAD ISLAND","2402332","2018-10-22 12:00","2018","10","22","12:00","-23.7","","-25.5","","85","","0.3","","31","","4","","","","102.51","","","","-28","","NA"
"-100.27","70.63","GATESHEAD ISLAND","2402332","2018-10-22 13:00","2018","10","22","13:00","-24.2","","-25.9","","86","","0.0","","33","","5","","","","102.55","","","","-29","","NA"
"-100.27","70.63","GATESHEAD ISLAND","2402332","2018-10-22 14:00","2018","10","22","14:00","-24.7","","-26.1","","88","","0.0","","32","","3","","","","102.60","","","","-28","","NA"
"-100.27","70.63","GATESHEAD ISLAND","2402332","2018-10-22 15:00","2018","10","22","15:00","-26.4","","-28.6","","82","","0.0","","32","","3","","","","102.65","","","","-29","","NA"
"-100.27","70.63","GATESHEAD ISLAND","2402332","2018-10-22 16:00","2018","10","22","16:00","-26.6","","-29.2","","78","","0.0","","31","","3","","","","102.70","","","","-30","","NA"
"-100.27","70.63","GATESHEAD ISLAND","2402332","2018-10-22 17:00","2018","10","22","17:00","-26.5","","-29.1","","79","","0.0","","35","","4","","","","102.70","","","","-31","","NA"
"-100.27","70.63","GATESHEAD ISLAND","2402332","2018-10-22 18:00","2018","10","22","18:00","-27.4","","-30.1","","78","","0.0","","33","","3","","","","102.73","","","","-31","","NA"
"-100.27","70.63","GATESHEAD ISLAND","2402332","2018-10-22 19:00","2018","10","22","19:00","-27.6","","-30.3","","78","","0.0","","33","","2","","","","102.74","","","","-30","","NA"
"-100.27","70.63","GATESHEAD ISLAND","2402332","2018-10-22 20:00","2018","10","22","20:00","-27.4","","-30.1","","78","","0.0","","32","","3","","","","102.78","","","","-31","","NA"
"-100.27","70.63","GATESHEAD ISLAND","2402332","2018-10-22 21:00","2018","10","22","21:00","-27.5","","-30.2","","78","","0.0","","33","","2","","","","102.79","","","","-30","","NA"
"-100.27","70.63","GATESHEAD ISLAND","2402332","2018-10-22 22:00","2018","10","22","22:00","-27.1","","-29.8","","78","","0.0","","33","","2","","","","102.80","","","","-29","","NA"
"-100.27","70.63","GATESHEAD ISLAND","2402332","2018-10-22 23:00","2018","10","22","23:00","-27.3","","-29.9","","78","","0.0","","33","","2","","","","102.84","","","","-29","","NA"
"-100.27","70.63","GATESHEAD ISLAND","2402332","2018-10-23 00:00","2018","10","23","00:00","-27.4","","-30.1","","78","","0.0","","31","","1","","","","102.88","","","","-28","","NA"
"-100.27","70.63","GATESHEAD ISLAND","2402332","2018-10-23 01:00","2018","10","23","01:00","-27.5","","-30.2","","78","","0.0","","32","","1","","","","102.89","","","","-29","","NA"
"-100.27","70.63","GATESHEAD ISLAND","2402332","2018-10-23 02:00","2018","10","23","02:00","-27.7","","-30.4","","77","","0.0","","35","","2","","","","102.93","","","","-30","","NA"
"-100.27","70.63","GATESHEAD ISLAND","2402332","2018-10-23 03:00","2018","10","23","03:00","-25.8","","-28.3","","79","","0.0","","36","","1","","","","102.91","","","","-27","","NA"
"-100.27","70.63","GATESHEAD ISLAND","2402332","2018-10-23 04:00","2018","10","23","04:00","-26.8","","-29.5","","78","","0.0","","","","","M","","","102.96","","","","","","NA"
"-100.27","70.63","GATESHEAD ISLAND","2402332","2018-10-23 05:00","2018","10","23","05:00","-26.8","","-29.5","","78","","0.0","","","","","M","","","102.94","","","","","","NA"
"-100.27","70.63","GATESHEAD ISLAND","2402332","2018-10-23 06:00","2018","10","23","06:00","-27.3","","-29.9","","78","","0.0","","","","","M","","","102.98","","","","","","NA"
"-100.27","70.63","GATESHEAD ISLAND","2402332","2018-10-23 07:00","2018","10","23","07:00","-27.6","","-30.3","","78","","0.0","","","","","M","","","102.95","","","","","","NA"
"-100.27","70.63","GATESHEAD ISLAND","2402332","2018-10-23 08:00","2018","10","23","08:00","-27.5","","-30.3","","78","","0.0","","","","","M","","","102.98","","","","","","NA"
"-100.27","70.63","GATESHEAD ISLAND","2402332","2018-10-23 09:00","2018","10","23","09:00","-26.7","","-29.0","","81","","0.0","","","","","M","","","102.99","","","","","","NA"
"-100.27","70.63","GATESHEAD ISLAND","2402332","2018-10-23 10:00","2018","10","23","10:00","-25.0","","-27.2","","82","","0.3","","","","","M","","","102.98","","","","","","NA"
"-100.27","70.63","GATESHEAD ISLAND","2402332","2018-10-23 11:00","2018","10","23","11:00","-23.8","","-25.4","","86","","0.4","","","","","M","","","102.99","","","","","","NA"
"-100.27","70.63","GATESHEAD ISLAND","2402332","2018-10-23 12:00","2018","10","23","12:00","-23.6","","-25.5","","84","","0.5","","","","","M","","","103.01","","","","","","NA"
"-100.27","70.63","GATESHEAD ISLAND","2402332","2018-10-23 13:00","2018","10","23","13:00","-23.8","","-25.8","","83","","0.0","","","","","M","","","103.00","","","","","","NA"
"-100.27","70.63","GATESHEAD ISLAND","2402332","2018-10-23 14:00","2018","10","23","14:00","-24.0","","-26.1","","83","","0.0","","","","","M","","","102.98","","","","","","NA"
"-100.27","70.63","GATESHEAD ISLAND","2402332","2018-10-23 15:00","2018","10","23","15:00","-24.2","","-26.5","","81","","0.0","","","","","M","","","102.99","","","","","","NA"
"-100.27","70.63","GATESHEAD ISLAND","2402332","2018-10-23 16:00","2018","10","23","16:00","-24.9","","-27.3","","80","","0.0","","","","","M","","","103.02","","","","","","NA"
"-100.27","70.63","GATESHEAD ISLAND","2402332","2018-10-23 17:00","2018","10","23","17:00","-24.9","","-27.2","","81","","0.0","","","","","M","","","103.01","","","","","","NA"
"-100.27","70.63","GATESHEAD ISLAND","2402332","2018-10-23 18:00","2018","10","23","18:00","-23.7","","-25.9","","82","","0.0","","","","","M","","","103.01","","","","","","NA"
"-100.27","70.63","GATESHEAD ISLAND","2402332","2018-10-23 19:00","2018","10","23","19:00","-23.8","","-26.1","","81","","0.0","","","","","M","","","103.01","","","","","","NA"
"-100.27","70.63","GATESHEAD ISLAND","2402332","2018-10-23 20:00","2018","10","23","20:00","-24.7","","-27.1","","80","","0.0","","","","","M","","","103.00","","","","","","NA"
"-100.27","70.63","GATESHEAD ISLAND","2402332","2018-10-23 21:00","2018","10","23","21:00","-24.3","","-26.7","","81","","0.0","","","","","M","","","103.00","","","","","","NA"
"-100.27","70.63","GATESHEAD ISLAND","2402332","2018-10-23 22:00","2018","10","23","22:00","-24.1","","-26.5","","81","","0.0","","","","","M","","","103.00","","","","","","NA"
"-100.27","70.63","GATESHEAD ISLAND","2402332","2018-10-23 23:00","2018","10","23","23:00","-23.9","","-26.3","","81","","0.0","","","","","M","","","103.03","","","","","","NA"
"-100.27","70.63","GATESHEAD ISLAND","2402332","2018-10-24 00:00","2018","10","24","00:00","-23.8","","-26.2","","81","","0.0","","","","","M","","","103.07","","","","","","NA"
"-100.27","70.63","GATESHEAD ISLAND","2402332","2018-10-24 01:00","2018","10","24","01:00","-23.8","","-26.2","","81","","0.0","","","","","M","","","103.08","","","","","","NA"
"-100.27","70.63","GATESHEAD ISLAND","2402332","2018-10-24 02:00","2018","10","24","02:00","-23.6","","-25.9","","81","","0.0","","","","","M","","","103.11","","","","","","NA"
"-100.27","70.63","GATESHEAD ISLAND","2402332","2018-10-24 03:00","2018","10","24","03:00"
"-100.27","70.63","GATESHEAD ISLAND","2402332","2018-10-24 04:00","2018","10","24","04:00","-23.5","","-25.7","","82","","0.0","","","","","M","","","103.08","","","","","","NA"
"-100.27","70.63","GATESHEAD ISLAND","2402332","2018-10-24 05:00","2018","10","24","05:00","-23.2","","-25.5","","82","","0.0","","","","","M","","","103.07","","","","","","NA"
"-100.27","70.63","GATESHEAD ISLAND","2402332","2018-10-24 06:00","2018","10","24","06:00","-23.6","","-25.9","","81","","0.0","","","","","M","","","103.10","","","","","","NA"
"-100.27","70.63","GATESHEAD ISLAND","2402332","2018-10-24 07:00","2018","10","24","07:00","-23.5","","-25.8","","81","","0.0","","","","","M","","","103.12","","","","","","NA"
"-100.27","70.63","GATESHEAD ISLAND","2402332","2018-10-24 08:00","2018","10","24","08:00","-23.1","","-25.3","","82","","0.0","","","","","M","","","103.13","","","","","","NA"
"-100.27","70.63","GATESHEAD ISLAND","2402332","2018-10-24 09:00","2018","10","24","09:00","-22.7","","-24.9","","82","","0.0","","","","","M","","","103.15","","","","","","NA"
"-100.27","70.63","GATESHEAD ISLAND","2402332","2018-10-24 10:00","2018","10","24","10:00","-23.2","","-25.5","","82","","0.0","","","","","M","","","103.12","","","","","","NA"
"-100.27","70.63","GATESHEAD ISLAND","2402332","2018-10-24 11:00","2018","10","24","11:00","-23.3","","-25.5","","82","","0.0","","","","","M","","","103.10","","","","","","NA"
"-100.27","70.63","GATESHEAD ISLAND","2402332","2018-10-24 12:00","2018","10","24","12:00","-23.3","","-25.4","","83","","0.0","","","","","M","","","103.12","","","","","","NA"
"-100.27","70.63","GATESHEAD ISLAND","2402332","2018-10-24 13:00","2018","10","24","13:00","-23.6","","-25.9","","82","","0.0","","","","","M","","","103.13","","","","","","NA"
"-100.27","70.63","GATESHEAD ISLAND","2402332","2018-10-24 14:00","2018","10","24","14:00","-23.7","","-26.0","","81","","0.0","","","","","M","","","103.09","","","","","","NA"
"-100.27","70.63","GATESHEAD ISLAND","2402332","2018-10-24 15:00","2018","10","24","15:00","-23.8","","-26.1","","81","","0.0","","","","","M","","","103.06","","","","","","NA"
"-100.27","70.63","GATESHEAD ISLAND","2402332","2018-10-24 16:00","2018","10","24","16:00","-25.1","","-27.6","","80","","0.0","","","","","M","","","103.04","","","","","","NA"
"-100.27","70.63","GATESHEAD ISLAND","2402332","2018-10-24 17:00","2018","10","24","17:00","-25.6","","-28.1","","80","","0.0","","","","","M","","","103.02","","","","","","NA"
"-100.27","70.63","GATESHEAD ISLAND","2402332","2018-10-24 18:00","2018","10","24","18:00","-24.4","","-26.8","","81","","0.0","","","","","M","","","103.00","","","","","","NA"
"-100.27","70.63","GATESHEAD ISLAND","2402332","2018-10-24 19:00","2018","10","24","19:00","-24.0","","-26.3","","81","","0.0","","","","","M","","","102.96","","","","","","NA"
"-100.27","70.63","GATESHEAD ISLAND","2402332","2018-10-24 20:00","2018","10","24","20:00","-24.1","","-26.4","","81","","0.0","","","","","M","","","102.90","","","","","","NA"
"-100.27","70.63","GATESHEAD ISLAND","2402332","2018-10-24 21:00","2018","10","24","21:00","-22.7","","-24.9","","82","","0.0","","","","","M","","","102.89","","","","","","NA"
"-100.27","70.63","GATESHEAD ISLAND","2402332","2018-10-24 22:00","2018","10","24","22:00","-23.5","","-25.7","","82","","0.0","","","","","M","","","102.84","","","","","","NA"
"-100.27","70.63","GATESHEAD ISLAND","2402332","2018-10-24 23:00","2018","10","24","23:00","-22.7","","-24.9","","82","","0.0","","","","","M","","","102.79","","","","","","NA"
"-100.27","70.63","GATESHEAD ISLAND","2402332","2018-10-25 00:00","2018","10","25","00:00","-22.0","","-24.0","","84","","0.0","","","","","M","","","102.75","","","","","","NA"
"-100.27","70.63","GATESHEAD ISLAND","2402332","2018-10-25 01:00","2018","10","25","01:00","-22.5","","-24.6","","82","","0.0","","","","","M","","","102.74","","","","","","NA"
"-100.27","70.63","GATESHEAD ISLAND","2402332","2018-10-25 02:00","2018","10","25","02:00","-21.8","","-24.0","","83","","0.0","","","","","M","","","102.70","","","","","","NA"
"-100.27","70.63","GATESHEAD ISLAND","2402332","2018-10-25 03:00","2018","10","25","03:00","-21.2","","-23.3","","84","","0.0","","","","","M","","","102.66","","","","","","NA"
"-100.27","70.63","GATESHEAD ISLAND","2402332","2018-10-25 04:00","2018","10","25","04:00","-20.8","","-22.8","","84","","0.0","","","","","M","","","102.58","","","","","","NA"
"-100.27","70.63","GATESHEAD ISLAND","2402332","2018-10-25 05:00","2018","10","25","05:00","-19.7","","-21.6","","85","","0.0","","13","","26","","","","102.51","","","","-31","","NA"
"-100.27","70.63","GATESHEAD ISLAND","2402332","2018-10-25 06:00","2018","10","25","06:00","-19.2","","-21.0","","85","","0.0","","13","","27","","","","102.44","","","","-31","","NA"
"-100.27","70.63","GATESHEAD ISLAND","2402332","2018-10-25 07:00","2018","10","25","07:00","-18.8","","-20.7","","86","","0.0","","13","","31","","","","102.35","","","","-31","","NA"
"-100.27","70.63","GATESHEAD ISLAND","2402332","2018-10-25 08:00","2018","10","25","08:00","-18.4","","-20.1","","86","","0.0","","13","","32","","","","102.29","","","","-31","","NA"
"-100.27","70.63","GATESHEAD ISLAND","2402332","2018-10-25 09:00","2018","10","25","09:00","-17.6","","-19.3","","87","","0.0","","13","","33","","","","102.25","","","","-30","","NA"
"-100.27","70.63","GATESHEAD ISLAND","2402332","2018-10-25 10:00","2018","10","25","10:00","-16.8","","-18.4","","87","","0.0","","13","","34","","","","102.18","","","","-29","","NA"
"-100.27","70.63","GATESHEAD ISLAND","2402332","2018-10-25 11:00","2018","10","25","11:00","-16.6","","-18.2","","87","","0.0","","13","","39","","","","102.13","","","","-29","","NA"
"-100.27","70.63","GATESHEAD ISLAND","2402332","2018-10-25 12:00","2018","10","25","12:00","-16.2","","-17.7","","88","","0.2","","13","","42","","","","102.08","","","","-29","","NA"
"-100.27","70.63","GATESHEAD ISLAND","2402332","2018-10-25 13:00","2018","10","25","13:00","-15.9","","-17.5","","88","","0.0","","13","","43","","","","102.04","","","","-29","","NA"
"-100.27","70.63","GATESHEAD ISLAND","2402332","2018-10-25 14:00","2018","10","25","14:00","-15.2","","-16.8","","88","","0.0","","13","","49","","","","101.93","","","","-29","","NA"
"-100.27","70.63","GATESHEAD ISLAND","2402332","2018-10-25 15:00","2018","10","25","15:00","-14.8","","-16.4","","88","","0.0","","13","","51","","","","101.85","","","","-28","","NA"
"-100.27","70.63","GATESHEAD ISLAND","2402332","2018-10-25 16:00","2018","10","25","16:00","-14.2","","-15.7","","88","","0.0","","13","","52","","","","101.79","","","","-28","","NA"
"-100.27","70.63","GATESHEAD ISLAND","2402332","2018-10-25 17:00","2018","10","25","17:00","-13.9","","-15.4","","89","","0.2","","13","","50","","","","101.72","","","","-27","","NA"
"-100.27","70.63","GATESHEAD ISLAND","2402332","2018-10-25 18:00","2018","10","25","18:00","-13.7","","-15.1","","89","","0.0","","13","","51","","","","101.66","","","","-27","","NA"
"-100.27","70.63","GATESHEAD ISLAND","2402332","2018-10-25 19:00","2018","10","25","19:00","-13.3","","-14.6","","90","","0.2","","12","","54","","","","101.61","","","","-27","","NA"
"-100.27","70.63","GATESHEAD ISLAND","2402332","2018-10-25 20:00","2018","10","25","20:00","-13.3","","-14.6","","90","","0.2","","12","","55","","","","101.56","","","","-27","","NA"
"-100.27","70.63","GATESHEAD ISLAND","2402332","2018-10-25 21:00","2018","10","25","21:00","-13.0","","-14.3","","90","","0.0","","13","","54","","","","101.52","","","","-26","","NA"
"-100.27","70.63","GATESHEAD ISLAND","2402332","2018-10-25 22:00","2018","10","25","22:00","-12.8","","-14.1","","90","","0.3","","13","","53","","","","101.51","","","","-26","","NA"
"-100.27","70.63","GATESHEAD ISLAND","2402332","2018-10-25 23:00","2018","10","25","23:00","-12.0","","-13.2","","91","","0.2","","13","","51","","","","101.46","","","","-25","","NA"
"-100.27","70.63","GATESHEAD ISLAND","2402332","2018-10-26 00:00","2018","10","26","00:00","-11.6","","-12.8","","91","","0.0","","13","","49","","","","101.43","","","","-24","","NA"
"-100.27","70.63","GATESHEAD ISLAND","2402332","2018-10-26 01:00","2018","10","26","01:00","-11.4","","-12.6","","91","","0.2","","13","","53","","","","101.40","","","","-24","","NA"
"-100.27","70.63","GATESHEAD ISLAND","2402332","2018-10-26 02:00","2018","10","26","02:00","-11.3","","-12.5","","91","","0.2","","13","","55","","","","101.36","","","","-24","","NA"
"-100.27","70.63","GATESHEAD ISLAND","2402332","2018-10-26 03:00","2018","10","26","03:00","-10.9","","-12.0","","91","","0.0","","13","","53","","","","101.31","","","","-23","","NA"
"-100.27","70.63","GATESHEAD ISLAND","2402332","2018-10-26 04:00","2018","10","26","04:00","-10.4","","-11.6","","91","","0.2","","13","","50","","","","101.28","","","","-22","","NA"
"-100.27","70.63","GATESHEAD ISLAND","2402332","2018-10-26 05:00","2018","10","26","05:00","-10.2","","-11.3","","91","","0.0","","13","","51","","","","101.20","","","","-22","","NA"
"-100.27","70.63","GATESHEAD ISLAND","2402332","2018-10-26 06:00","2018","10","26","06:00","-10.0","","-11.1","","91","","0.0","","13","","50","","","","101.19","","","","-22","","NA"
"-100.27","70.63","GATESHEAD ISLAND","2402332","2018-10-26 07:00","2018","10","26","07:00","-9.6","","-10.7","","91","","0.2","","13","","51","","","","101.15","","","","-21","","NA"
"-100.27","70.63","GATESHEAD ISLAND","2402332","2018-10-26 08:00","2018","10","26","08:00","-9.2","","-10.4","","91","","0.0","","13","","54","","","","101.11","","","","-21","","NA"
"-100.27","70.63","GATESHEAD ISLAND","2402332","2018-10-26 09:00","2018","10","26","09:00","-8.9","","-10.1","","92","","0.0","","13","","52","","","","101.07","","","","-20","","NA"
"-100.27","70.63","GATESHEAD ISLAND","2402332","2018-10-26 10:00","2018","10","26","10:00"
"-100.27","70.63","GATESHEAD ISLAND","2402332","2018-10-26 11:00","2018","10","26","11:00","-9.1","","-10.2","","92","","0.3","","12","","53","","","","100.99","","","","-21","","NA"
"-100.27","70.63","GATESHEAD ISLAND","2402332","2018-10-26 12:00","2018","10","26","12:00","-9.1","","-10.3","","91","","0.0","","12","","51","","","","100.95","","","","-21","","NA"
"-100.27","70.63","GATESHEAD ISLAND","2402332","2018-10-26 13:00","2018","10","26","13:00","-9.0","","-10.2","","92","","0.0","","12","","50","","","","100.88","","","","-20","","NA"
"-100.27","70.63","GATESHEAD ISLAND","2402332","2018-10-26 14:00","2018","10","26","14:00","-8.8","","-10.0","","91","","0.0","","12","","45","","","","100.82","","","","-20","","NA"
"-100.27","70.63","GATESHEAD ISLAND","2402332","2018-10-26 15:00","2018","10","26","15:00","-8.6","","-9.7","","92","","0.2","","12","","44","","","","100.75","","","","-19","","NA"
"-100.27","70.63","GATESHEAD ISLAND","2402332","2018-10-26 16:00","2018","10","26","16:00","-8.4","","-9.4","","93","","0.0","","12","","44","","","","100.69","","","","-19","","NA"
"-100.27","70.63","GATESHEAD ISLAND","2402332","2018-10-26 17:00","2018","10","26","17:00","-8.2","","-9.2","","92","","0.0","","12","","46","","","","100.64","","","","-19","","NA"
"-100.27","70.63","GATESHEAD ISLAND","2402332","2018-10-26 18:00","2018","10","26","18:00","-8.1","","-9.2","","92","","0.0","","12","","46","","","","100.58","","","","-19","","NA"
"-100.27","70.63","GATESHEAD ISLAND","2402332","2018-10-26 19:00","2018","10","26","19:00","-8.7","","-9.8","","92","","0.0","","11","","37","","","","100.54","","","","-19","","NA"
"-100.27","70.63","GATESHEAD ISLAND","2402332","2018-10-26 20:00","2018","10","26","20:00","-9.2","","-10.4","","91","","0.0","","11","","44","","","","100.48","","","","-20","","NA"
"-100.27","70.63","GATESHEAD ISLAND","2402332","2018-10-26 21:00","2018","10","26","21:00","-9.7","","-10.9","","91","","0.0","","11","","44","","","","100.43","","","","-21","","NA"
"-100.27","70.63","GATESHEAD ISLAND","2402332","2018-10-26 22:00","2018","10","26","22:00","-9.8","","-11.1","","90","","0.0","","11","","44","","","","100.39","","","","-21","","NA"
"-100.27","70.63","GATESHEAD ISLAND","2402332","2018-10-26 23:00","2018","10","26","23:00","-9.8","","-11.0","","90","","0.0","","11","","41","","","","100.35","","","","-21","","NA"
"-100.27","70.63","GATESHEAD ISLAND","2402332","2018-10-27 00:00","2018","10","27","00:00","-9.7","","-11.0","","90","","0.0","","11","","41","","","","100.32","","","","-20","","NA"
"-100.27","70.63","GATESHEAD ISLAND","2402332","2018-10-27 01:00","2018","10","27","01:00","-9.4","","-10.7","","90","","0.0","","10","","41","","","","100.32","","","","-20","","NA"
"-100.27","70.63","GATESHEAD ISLAND","2402332","2018-10-27 02:00","2018","10","27","02:00","-9.3","","-10.7","","90","","0.0","","10","","36","","","","100.33","","","","-19","","NA"
"-100.27","70.63","GATESHEAD ISLAND","2402332","2018-10-27 03:00","2018","10","27","03:00","-9.2","","-10.5","","90","","0.0","","10","","37","","","","100.31","","","","-19","","NA"
"-100.27","70.63","GATESHEAD ISLAND","2402332","2018-10-27 04:00","2018","10","27","04:00","-9.1","","-10.5","","90","","0.0","","10","","34","","","","100.33","","","","-19","","NA"
"-100.27","70.63","GATESHEAD ISLAND","2402332","2018-10-27 05:00","2018","10","27","05:00","-9.1","","-10.5","","90","","0.0","","9","","30","","","","100.33","","","","-18","","NA"
"-100.27","70.63","GATESHEAD ISLAND","2402332","2018-10-27 06:00","2018","10","27","06:00","-9.0","","-10.4","","90","","0.0","","9","","30","","","","100.35","","","","-18","","NA"
"-100.27","70.63","GATESHEAD ISLAND","2402332","2018-10-27 07:00","2018","10","27","07:00","-9.8","","-11.2","","90","","0.0","","9","","25","","","","100.38","","","","-19","","NA"
"-100.27","70.63","GATESHEAD ISLAND","2402332","2018-10-27 08:00","2018","10","27","08:00","-10.3","","-11.8","","89","","0.0","","8","","28","","","","100.44","","","","-20","","NA"
"-100.27","70.63","GATESHEAD ISLAND","2402332","2018-10-27 09:00","2018","10","27","09:00","-10.7","","-12.2","","88","","0.0","","8","","25","","","","100.48","","","","-20","","NA"
"-100.27","70.63","GATESHEAD ISLAND","2402332","2018-10-27 10:00","2018","10","27","10:00","-11.4","","-12.9","","88","","0.0","","8","","19","","","","100.53","","","","-19","","NA"
"-100.27","70.63","GATESHEAD ISLAND","2402332","2018-10-27 11:00","2018","10","27","11:00","-11.7","","-13.3","","88","","0.0","","7","","18","","","","100.56","","","","-20","","NA"
"-100.27","70.63","GATESHEAD ISLAND","2402332","2018-10-27 12:00","2018","10","27","12:00","-12.8","","-14.2","","89","","0.0","","6","","17","","","","100.59","","","","-21","","NA"
"-100.27","70.63","GATESHEAD ISLAND","2402332","2018-10-27 13:00","2018","10","27","13:00","-12.0","","-13.5","","89","","0.0","","7","","20","","","","100.62","","","","-20","","NA"
"-100.27","70.63","GATESHEAD ISLAND","2402332","2018-10-27 14:00","2018","10","27","14:00","-12.6","","-13.9","","90","","0.0","","6","","18","","","","100.67","","","","-21","","NA"
"-100.27","70.63","GATESHEAD ISLAND","2402332","2018-10-27 15:00","2018","10","27","15:00","-13.1","","-14.5","","89","","0.0","","6","","17","","","","100.72","","","","-21","","NA"
"-100.27","70.63","GATESHEAD ISLAND","2402332","2018-10-27 16:00","2018","10","27","16:00","-13.9","","-15.1","","91","","0.0","","5","","16","","","","100.78","","","","-22","","NA"
"-100.27","70.63","GATESHEAD ISLAND","2402332","2018-10-27 17:00","2018","10","27","17:00","-14.0","","-15.3","","90","","0.0","","5","","18","","","","100.83","","","","-22","","NA"
"-100.27","70.63","GATESHEAD ISLAND","2402332","2018-10-27 18:00","2018","10","27","18:00","-14.2","","-15.4","","90","","0.0","","5","","17","","","","100.87","","","","-22","","NA"
"-100.27","70.63","GATESHEAD ISLAND","2402332","2018-10-27 19:00","2018","10","27","19:00","-13.9","","-15.2","","90","","0.0","","5","","17","","","","100.91","","","","-22","","NA"
"-100.27","70.63","GATESHEAD ISLAND","2402332","2018-10-27 20:00","2018","10","27","20:00","-14.5","","-15.8","","90","","0.0","","6","","17","","","","100.95","","","","-23","","NA"
"-100.27","70.63","GATESHEAD ISLAND","2402332","2018-10-27 21:00","2018","10","27","21:00","-14.5","","-15.8","","90","","0.0","","6","","16","","","","101.00","","","","-23","","NA"
"-100.27","70.63","GATESHEAD ISLAND","2402332","2018-10-27 22:00","2018","10","27","22:00","-15.0","","-16.3","","89","","0.0","","6","","18","","","","101.04","","","","-24","","NA"
"-100.27","70.63","GATESHEAD ISLAND","2402332","2018-10-27 23:00","2018","10","27","23:00","-14.4","","-15.7","","90","","0.0","","7","","16","","","","101.07","","","","-22","","NA"
"-100.27","70.63","GATESHEAD ISLAND","2402332","2018-10-28 00:00","2018","10","28","00:00","-14.4","","-15.7","","90","","0.0","","7","","16","","","","101.13","","","","-22","","NA"
"-100.27","70.63","GATESHEAD ISLAND","2402332","2018-10-28 01:00","2018","10","28","01:00","-14.8","","-16.2","","89","","0.0","","8","","11","","","","101.15","","","","-21","","NA"
"-100.27","70.63","GATESHEAD ISLAND","2402332","2018-10-28 02:00","2018","10","28","02:00","-14.5","","-15.9","","89","","0.0","","9","","12","","","","101.19","","","","-21","","NA"
"-100.27","70.63","GATESHEAD ISLAND","2402332","2018-10-28 03:00","2018","10","28","03:00","-14.1","","-15.4","","90","","0.0","","11","","9","","","","101.25","","","","-20","","NA"
"-100.27","70.63","GATESHEAD ISLAND","2402332","2018-10-28 04:00","2018","10","28","04:00","-14.1","","-15.4","","90","","0.0","","9","","7","","","","101.29","","","","-19","","NA"
"-100.27","70.63","GATESHEAD ISLAND","2402332","2018-10-28 05:00","2018","10","28","05:00","-13.2","","-14.4","","90","","0.0","","8","","7","","","","101.33","","","","-18","","NA"
"-100.27","70.63","GATESHEAD ISLAND","2402332","2018-10-28 06:00","2018","10","28","06:00","-13.8","","-15.1","","90","","0.0","","9","","7","","","","101.37","","","","-18","","NA"
"-100.27","70.63","GATESHEAD ISLAND","2402332","2018-10-28 07:00","2018","10","28","07:00","-14.9","","-16.3","","89","","0.0","","11","","6","","","","101.38","","","","-19","","NA"
"-100.27","70.63","GATESHEAD ISLAND","2402332","2018-10-28 08:00","2018","10","28","08:00","-15.2","","-16.7","","89","","0.0","","11","","6","","","","101.42","","","","-19","","NA"
"-100.27","70.63","GATESHEAD ISLAND","2402332","2018-10-28 09:00","2018","10","28","09:00","-14.8","","-16.2","","89","","0.0","","11","","6","","","","101.46","","","","-19","","NA"
"-100.27","70.63","GATESHEAD ISLAND","2402332","2018-10-28 10:00","2018","10","28","10:00","-14.8","","-16.2","","89","","0.0","","12","","5","","","","101.50","","","","-18","","NA"
"-100.27","70.63","GATESHEAD ISLAND","2402332","2018-10-28 11:00","2018","10","28","11:00","-15.0","","-16.4","","89","","0.0","","12","","5","","","","101.54","","","","-19","","NA"
"-100.27","70.63","GATESHEAD ISLAND","2402332","2018-10-28 12:00","2018","10","28","12:00","-14.1","","-15.5","","89","","0.0","","12","","5","","","","101.57","","","","-18","","NA"
"-100.27","70.63","GATESHEAD ISLAND","2402332","2018-10-28 13:00","2018","10","28","13:00","-14.1","","-15.6","","88","","0.0","","12","","13","","","","101.58","","","","-21","","NA"
"-100.27","70.63","GATESHEAD ISLAND","2402332","2018-10-28 14:00","2018","10","28","14:00","-14.2","","-15.7","","89","","0.0","","12","","16","","","","101.58","","","","-22","","NA"
"-100.27","70.63","GATESHEAD ISLAND","2402332","2018-10-28 15:00","2018","10","28","15:00","-14.8","","-16.1","","89","","0.0","","12","","14","","","","101.59","","","","-22","","NA"
"-100.27","70.63","GATESHEAD ISLAND","2402332","2018-10-28 16:00","2018","10","28","16:00","-15.2","","-16.6","","89","","0.0","","13","","13","","","","101.61","","","","-23","","NA"
"-100.27","70.63","GATESHEAD ISLAND","2402332","2018-10-28 17:00","2018","10","28","17:00","-15.6","","-17.1","","88","","0.0","","14","","14","","","","101.63","","","","-23","","NA"
"-100.27","70.63","GATESHEAD ISLAND","2402332","2018-10-28 18:00","2018","10","28","18:00","-15.6","","-17.1","","88","","0.0","","13","","12","","","","101.66","","","","-23","","NA"
"-100.27","70.63","GATESHEAD ISLAND","2402332","2018-10-28 19:00","2018","10","28","19:00","-15.2","","-16.7","","89","","0.0","","14","","9","","","","101.68","","","","-21","","NA"
"-100.27","70.63","GATESHEAD ISLAND","2402332","2018-10-28 20:00","2018","10","28","20:00","-15.9","","-17.3","","88","","0.0","","14","","15","","","","101.69","","","","-24","","NA"
"-100.27","70.63","GATESHEAD ISLAND","2402332","2018-10-28 21:00","2018","10","28","21:00","-15.4","","-16.8","","89","","0.0","","14","","12","","","","101.71","","","","-22","","NA"
"-100.27","70.63","GATESHEAD ISLAND","2402332","2018-10-28 22:00","2018","10","28","22:00","-15.2","","-16.6","","89","","0.0","","14","","11","","","","101.72","","","","-22","","NA"
"-100.27","70.63","GATESHEAD ISLAND","2402332","2018-10-28 23:00","2018","10","28","23:00","-15.4","","-16.8","","89","","0.0","","14","","10","","","","101.71","","","","-22","","NA"
"-100.27","70.63","GATESHEAD ISLAND","2402332","2018-10-29 00:00","2018","10","29","00:00","-15.4","","-16.9","","89","","0.0","","15","","8","","","","101.72","","","","-21","","NA"
"-100.27","70.63","GATESHEAD ISLAND","2402332","2018-10-29 01:00","2018","10","29","01:00","-15.1","","-16.5","","89","","0.0","","14","","8","","","","101.74","","","","-20","","NA"
"-100.27","70.63","GATESHEAD ISLAND","2402332","2018-10-29 02:00","2018","10","29","02:00","-15.4","","-16.9","","89","","0.0","","14","","7","","","","101.76","","","","-20","","NA"
"-100.27","70.63","GATESHEAD ISLAND","2402332","2018-10-29 03:00","2018","10","29","03:00","-15.4","","-16.8","","89","","0.0","","14","","6","","","","101.76","","","","-20","","NA"
"-100.27","70.63","GATESHEAD ISLAND","2402332","2018-10-29 04:00","2018","10","29","04:00","-15.3","","-16.8","","89","","0.0","","15","","5","","","","101.78","","","","-19","","NA"
"-100.27","70.63","GATESHEAD ISLAND","2402332","2018-10-29 05:00","2018","10","29","05:00","-15.2","","-16.6","","89","","0.0","","16","","2","","","","101.79","","","","-17","","NA"
"-100.27","70.63","GATESHEAD ISLAND","2402332","2018-10-29 06:00","2018","10","29","06:00","-16.3","","-17.9","","88","","0.0","","15","","1","","","","101.79","","","","-17","","NA"
"-100.27","70.63","GATESHEAD ISLAND","2402332","2018-10-29 07:00","2018","10","29","07:00","-16.5","","-18.0","","88","","0.0","","","","","M","","","101.82","","","","","","NA"
"-100.27","70.63","GATESHEAD ISLAND","2402332","2018-10-29 08:00","2018","10","29","08:00","-16.2","","-17.7","","88","","0.0","","","","","M","","","101.84","","","","","","NA"
"-100.27","70.63","GATESHEAD ISLAND","2402332","2018-10-29 09:00","2018","10","29","09:00","-16.5","","-18.1","","87","","0.0","","","","","M","","","101.85","","","","","","NA"
"-100.27","70.63","GATESHEAD ISLAND","2402332","2018-10-29 10:00","2018","10","29","10:00","-16.8","","-18.4","","88","","0.0","","","","","M","","","101.85","","","","","","NA"
"-100.27","70.63","GATESHEAD ISLAND","2402332","2018-10-29 11:00","2018","10","29","11:00","-15.6","","-17.1","","88","","0.0","","","","","M","","","101.86","","","","","","NA"
"-100.27","70.63","GATESHEAD ISLAND","2402332","2018-10-29 12:00","2018","10","29","12:00","-14.2","","-15.2","","92","","0.0","","","","","M","","","101.88","","","","","","NA"
"-100.27","70.63","GATESHEAD ISLAND","2402332","2018-10-29 13:00","2018","10","29","13:00","-14.4","","-15.9","","88","","0.0","","","","","M","","","101.90","","","","","","NA"
"-100.27","70.63","GATESHEAD ISLAND","2402332","2018-10-29 14:00","2018","10","29","14:00","-14.8","","-16.2","","89","","0.0","","","","","M","","","101.93","","","","","","NA"
"-100.27","70.63","GATESHEAD ISLAND","2402332","2018-10-29 15:00","2018","10","29","15:00","-15.7","","-17.2","","88","","0.0","","","","","M","","","101.97","","","","","","NA"
"-100.27","70.63","GATESHEAD ISLAND","2402332","2018-10-29 16:00","2018","10","29","16:00","-15.4","","-16.6","","90","","0.0","","","","","M","","","102.02","","","","","","NA"
"-100.27","70.63","GATESHEAD ISLAND","2402332","2018-10-29 17:00","2018","10","29","17:00","-15.5","","-17.0","","88","","0.0","","","","","M","","","102.02","","","","","","NA"
"-100.27","70.63","GATESHEAD ISLAND","2402332","2018-10-29 18:00","2018","10","29","18:00","-15.9","","-17.4","","88","","0.0","","","","","M","","","102.01","","","","","","NA"
"-100.27","70.63","GATESHEAD ISLAND","2402332","2018-10-29 19:00","2018","10","29","19:00","-16.0","","-17.5","","89","","0.0","","","","","M","","","102.04","","","","","","NA"
"-100.27","70.63","GATESHEAD ISLAND","2402332","2018-10-29 20:00","2018","10","29","20:00","-16.5","","-18.0","","88","","0.0","","","","","M","","","102.05","","","","","","NA"
"-100.27","70.63","GATESHEAD ISLAND","2402332","2018-10-29 21:00","2018","10","29","21:00","-15.5","","-16.9","","89","","0.0","","","","","M","","","102.06","","","","","","NA"
"-100.27","70.63","GATESHEAD ISLAND","2402332","2018-10-29 22:00","2018","10","29","22:00","-15.8","","-17.3","","88","","0.0","","","","","M","","","102.05","","","","","","NA"
"-100.27","70.63","GATESHEAD ISLAND","2402332","2018-10-29 23:00","2018","10","29","23:00","-15.8","","-17.3","","88","","0.0","","","","","M","","","102.05","","","","","","NA"
"-100.27","70.63","GATESHEAD ISLAND","2402332","2018-10-30 00:00","2018","10","30","00:00","-16.5","","-18.1","","88","","0.0","","","","","M","","","102.08","","","","","","NA"
"-100.27","70.63","GATESHEAD ISLAND","2402332","2018-10-30 01:00","2018","10","30","01:00","-16.6","","-18.1","","88","","0.0","","","","","M","","","102.10","","","","","","NA"
"-100.27","70.63","GATESHEAD ISLAND","2402332","2018-10-30 02:00","2018","10","30","02:00","-16.7","","-18.2","","88","","0.0","","","","","M","","","102.12","","","","","","NA"
"-100.27","70.63","GATESHEAD ISLAND","2402332","2018-10-30 03:00","2018","10","30","03:00","-16.4","","-17.9","","88","","0.0","","","","","M","","","102.12","","","","","","NA"
"-100.27","70.63","GATESHEAD ISLAND","2402332","2018-10-30 04:00","2018","10","30","04:00","-16.6","","-18.2","","88","","0.0","","","","","M","","","102.15","","","","","","NA"
"-100.27","70.63","GATESHEAD ISLAND","2402332","2018-10-30 05:00","2018","10","30","05:00","-16.6","","-18.3","","87","","0.0","","","","","M","","","102.15","","","","","","NA"
"-100.27","70.63","GATESHEAD ISLAND","2402332","2018-10-30 06:00","2018","10","30","06:00","-15.9","","-17.4","","88","","0.0","","","","","M","","","102.13","","","","","","NA"
"-100.27","70.63","GATESHEAD ISLAND","2402332","2018-10-30 07:00","2018","10","30","07:00","-15.0","","-16.4","","89","","0.0","","","","","M","","","102.16","","","","","","NA"
"-100.27","70.63","GATESHEAD ISLAND","2402332","2018-10-30 08:00","2018","10","30","08:00","-15.6","","-17.2","","87","","0.0","","","","","M","","","102.15","","","","","","NA"
"-100.27","70.63","GATESHEAD ISLAND","2402332","2018-10-30 09:00","2018","10","30","09:00","-14.6","","-15.9","","89","","0.0","","","","","M","","","102.15","","","","","","NA"
"-100.27","70.63","GATESHEAD ISLAND","2402332","2018-10-30 10:00","2018","10","30","10:00","-13.6","","-15.1","","89","","0.0","","","","","M","","","102.15","","","","","","NA"
"-100.27","70.63","GATESHEAD ISLAND","2402332","2018-10-30 11:00","2018","10","30","11:00","-14.0","","-15.4","","89","","0.0","","","","","M","","","102.15","","","","","","NA"
"-100.27","70.63","GATESHEAD ISLAND","2402332","2018-10-30 12:00","2018","10","30","12:00","-14.2","","-15.8","","87","","0.0","","","","","M","","","102.15","","","","","","NA"
"-100.27","70.63","GATESHEAD ISLAND","2402332","2018-10-30 13:00","2018","10","30","13:00","-14.2","","-15.8","","88","","0.0","","","","","M","","","102.17","","","","","","NA"
"-100.27","70.63","GATESHEAD ISLAND","2402332","2018-10-30 14:00","2018","10","30","14:00","-14.2","","-15.6","","89","","0.0","","","","","M","","","102.17","","","","","","NA"
"-100.27","70.63","GATESHEAD ISLAND","2402332","2018-10-30 15:00","2018","10","30","15:00","-14.4","","-15.8","","89","","0.0","","","","","M","","","102.20","","","","","","NA"
"-100.27","70.63","GATESHEAD ISLAND","2402332","2018-10-30 16:00","2018","10","30","16:00","-14.1","","-15.5","","89","","0.0","","","","","M","","","102.21","","","","","","NA"
"-100.27","70.63","GATESHEAD ISLAND","2402332","2018-10-30 17:00","2018","10","30","17:00","-14.8","","-16.1","","89","","0.0","","","","","M","","","102.19","","","","","","NA"
"-100.27","70.63","GATESHEAD ISLAND","2402332","2018-10-30 18:00","2018","10","30","18:00","-14.6","","-16.0","","89","","0.0","","","","","M","","","102.18","","","","","","NA"
"-100.27","70.63","GATESHEAD ISLAND","2402332","2018-10-30 19:00","2018","10","30","19:00","-14.7","","-16.1","","89","","0.0","","","","","M","","","102.17","","","","","","NA"
"-100.27","70.63","GATESHEAD ISLAND","2402332","2018-10-30 20:00","2018","10","30","20:00","-15.7","","-17.1","","89","","0.0","","","","","M","","","102.16","","","","","","NA"
"-100.27","70.63","GATESHEAD ISLAND","2402332","2018-10-30 21:00","2018","10","30","21:00","-17.8","","-19.3","","88","","0.0","","","","","M","","","102.17","","","","","","NA"
"-100.27","70.63","GATESHEAD ISLAND","2402332","2018-10-30 22:00","2018","10","30","22:00","-15.9","","-17.3","","88","","0.0","","","","","M","","","102.17","","","","","","NA"
"-100.27","70.63","GATESHEAD ISLAND","2402332","2018-10-30 23:00","2018","10","30","23:00","-16.0","","-17.5","","88","","0.0","","","","","M","","","102.19","","","","","","NA"
"-100.27","70.63","GATESHEAD ISLAND","2402332","2018-10-31 00:00","2018","10","31","00:00","-15.8","","-17.3","","88","","0.0","","","","","M","","","102.18","","","","","","NA"
"-100.27","70.63","GATESHEAD ISLAND","2402332","2018-10-31 01:00","2018","10","31","01:00","-15.4","","-16.9","","88","","0.0","","","","","M","","","102.20","","","","","","NA"
"-100.27","70.63","GATESHEAD ISLAND","2402332","2018-10-31 02:00","2018","10","31","02:00","-15.8","","-17.3","","88","","0.0","","","","","M","","","102.18","","","","","","NA"
"-100.27","70.63","GATESHEAD ISLAND","2402332","2018-10-31 03:00","2018","10","31","03:00","-15.2","","-16.6","","89","","0.0","","","","","M","","","102.19","","","","","","NA"
"-100.27","70.63","GATESHEAD ISLAND","2402332","2018-10-31 04:00","2018","10","31","04:00","-14.4","","-15.8","","89","","0.0","","","","","M","","","102.20","","","","","","NA"
"-100.27","70.63","GATESHEAD ISLAND","2402332","2018-10-31 05:00","2018","10","31","05:00","-13.7","","-15.0","","90","","0.0","","","","","M","","","102.20","","","","","","NA"
"-100.27","70.63","GATESHEAD ISLAND","2402332","2018-10-31 06:00","2018","10","31","06:00","-13.2","","-14.5","","90","","0.0","","","","","M","","","102.18","","","","","","NA"
"-100.27","70.63","GATESHEAD ISLAND","2402332","2018-10-31 07:00","2018","10","31","07:00","-12.8","","-14.0","","91","","0.0","","","","","M","","","102.19","","","","","","NA"
"-100.27","70.63","GATESHEAD ISLAND","2402332","2018-10-31 08:00","2018","10","31","08:00","-12.7","","-13.9","","91","","0.0","","","","","M","","","102.21","","","","","","NA"
"-100.27","70.63","GATESHEAD ISLAND","2402332","2018-10-31 09:00","2018","10","31","09:00","-12.5","","-13.7","","91","","0.0","","","","","M","","","102.21","","","","","","NA"
"-100.27","70.63","GATESHEAD ISLAND","2402332","2018-10-31 10:00","2018","10","31","10:00","-12.2","","-13.4","","91","","0.0","","","","","M","","","102.21","","","","","","NA"
"-100.27","70.63","GATESHEAD ISLAND","2402332","2018-10-31 11:00","2018","10","31","11:00","-12.0","","-13.2","","91","","0.0","","","","","M","","","102.23","","","","","","NA"
"-100.27","70.63","GATESHEAD ISLAND","2402332","2018-10-31 12:00","2018","10","31","12:00","-11.4","","-12.6","","91","","0.0","","","","","M","","","102.25","","","","","","NA"
"-100.27","70.63","GATESHEAD ISLAND","2402332","2018-10-31 13:00","2018","10","31","13:00","-11.1","","-12.2","","92","","0.0","","","","","M","","","102.29","","","","","","NA"
"-100.27","70.63","GATESHEAD ISLAND","2402332","2018-10-31 14:00","2018","10","31","14:00","-10.8","","-11.8","","92","","0.0","","","","","M","","","102.32","","","","","","NA"
"-100.27","70.63","GATESHEAD ISLAND","2402332","2018-10-31 15:00","2018","10","31","15:00","-10.6","","-11.6","","92","","0.0","","","","","M","","","102.36","","","","","","NA"
"-100.27","70.63","GATESHEAD ISLAND","2402332","2018-10-31 16:00","2018","10","31","16:00","-10.4","","-11.4","","92","","0.0","","","","","M","","","102.38","","","","","","NA"
"-100.27","70.63","GATESHEAD ISLAND","2402332","2018-10-31 17:00","2018","10","31","17:00","-10.3","","-11.3","","92","","0.0","","","","","M","","","102.37","","","","","","NA"
"-100.27","70.63","GATESHEAD ISLAND","2402332","2018-10-31 18:00","2018","10","31","18:00","-10.3","","-11.3","","92","","0.0","","","","","M","","","102.40","","","","","","NA"
"-100.27","70.63","GATESHEAD ISLAND","2402332","2018-10-31 19:00","2018","10","31","19:00","-10.6","","-11.6","","92","","0.0","","","","","M","","","102.39","","","","","","NA"
"-100.27","70.63","GATESHEAD ISLAND","2402332","2018-10-31 20:00","2018","10","31","20:00","-10.6","","-11.6","","92","","0.0","","","","","M","","","102.40","","","","","","NA"
"-100.27","70.63","GATESHEAD ISLAND","2402332","2018-10-31 21:00","2018","10","31","21:00","-11.0","","-12.1","","92","","0.0","","","","","M","","","102.41","","","","","","NA"
"-100.27","70.63","GATESHEAD ISLAND","2402332","2018-10-31 22:00","2018","10","31","22:00","-11.0","","-12.0","","92","","0.0","","","","","M","","","102.41","","","","","","NA"
"-100.27","70.63","GATESHEAD ISLAND","2402332","2018-10-31 23:00","2018","10","31","23:00","-11.2","","-12.3","","92","","0.0","","","","","M","","","102.44","","","","","","NA"
