"Longitude (x)","Latitude (y)","Station Name","Climate ID","Date/Time (LST)","Year","Month","Day","Time (LST)","Temp (°C)","Temp Flag","Dew Point Temp (°C)","Dew Point Temp Flag","Rel Hum (%)","Rel Hum Flag","Precip. Amount (mm)","Precip. Amount Flag","Wind Dir (10s deg)","Wind Dir Flag","Wind Spd (km/h)","Wind Spd Flag","Visibility (km)","Visibility Flag","Stn Press (kPa)","Stn Press Flag","Hmdx","Hmdx Flag","Wind Chill","Wind Chill Flag","Weather"
"-81.24","68.78","SANIRAJAK AIRPORT","2402354","2022-11-01 00:00","2022","11","01","00:00","-15.4","","-18.0","","81","","610.4","","28","","8","","16.1","","100.43","","","","-21","","NA"
"-81.24","68.78","SANIRAJAK AIRPORT","2402354","2022-11-01 01:00","2022","11","01","01:00","-15.4","","-17.7","","83","","","M","31","","9","","16.1","","100.40","","","","-21","","NA"
"-81.24","68.78","SANIRAJAK AIRPORT","2402354","2022-11-01 02:00","2022","11","01","02:00","-16.2","","-18.3","","84","","609.6","","31","","11","","16.1","","100.38","","","","-23","","NA"
"-81.24","68.78","SANIRAJAK AIRPORT","2402354","2022-11-01 03:00","2022","11","01","03:00","-17.2","","-19.4","","83","","","M","32","","13","","16.1","","100.37","","","","-25","","NA"
"-81.24","68.78","SANIRAJAK AIRPORT","2402354","2022-11-01 04:00","2022","11","01","04:00","-18.0","","-19.9","","85","","610.4","","33","","18","","16.1","","100.35","","","","-27","","NA"
"-81.24","68.78","SANIRAJAK AIRPORT","2402354","2022-11-01 05:00","2022","11","01","05:00","-17.7","","-19.6","","86","","608.8","","33","","18","","16.1","","100.32","","","","-27","","NA"
"-81.24","68.78","SANIRAJAK AIRPORT","2402354","2022-11-01 06:00","2022","11","01","06:00","-16.7","","-18.4","","87","","609.6","","33","","18","","16.1","","100.26","","","","-26","","NA"
"-81.24","68.78","SANIRAJAK AIRPORT","2402354","2022-11-01 07:00","2022","11","01","07:00","-13.6","","-15.6","","85","","","M","2","","21","","16.1","","100.25","","","","-23","","NA"
"-81.24","68.78","SANIRAJAK AIRPORT","2402354","2022-11-01 08:00","2022","11","01","08:00","-13.2","","-15.1","","86","","609.6","","1","","22","","16.1","","100.22","","","","-22","","Snow"
"-81.24","68.78","SANIRAJAK AIRPORT","2402354","2022-11-01 09:00","2022","11","01","09:00","-12.6","","-14.3","","87","","609.6","","2","","24","","16.1","","100.18","","","","-22","","Snow"
"-81.24","68.78","SANIRAJAK AIRPORT","2402354","2022-11-01 10:00","2022","11","01","10:00","-12.0","","-13.6","","88","","609.6","","1","","26","","16.1","","100.11","","","","-22","","Snow"
"-81.24","68.78","SANIRAJAK AIRPORT","2402354","2022-11-01 11:00","2022","11","01","11:00","-11.5","","-12.8","","90","","","M","1","","30","","16.1","","100.06","","","","-21","","Snow"
"-81.24","68.78","SANIRAJAK AIRPORT","2402354","2022-11-01 12:00","2022","11","01","12:00","-11.5","","-12.4","","93","","","M","36","","32","","2.0","","100.04","","","","-22","","Snow"
"-81.24","68.78","SANIRAJAK AIRPORT","2402354","2022-11-01 13:00","2022","11","01","13:00","-11.3","","-12.1","","94","","","M","36","","37","","1.6","","100.00","","","","-22","","Snow"
"-81.24","68.78","SANIRAJAK AIRPORT","2402354","2022-11-01 14:00","2022","11","01","14:00","-11.3","","-12.0","","95","","","M","36","","43","","1.0","","99.97","","","","-23","","Snow,Blowing Snow"
"-81.24","68.78","SANIRAJAK AIRPORT","2402354","2022-11-01 15:00","2022","11","01","15:00","-11.2","","-11.5","","98","","609.6","","35","","39","","0.6","","99.97","","","","-22","","Moderate Snow,Blowing Snow"
"-81.24","68.78","SANIRAJAK AIRPORT","2402354","2022-11-01 16:00","2022","11","01","16:00","-11.5","","-11.5","","100","","","M","34","","45","","0.8","","99.95","","","","-23","","Moderate Snow,Blowing Snow"
"-81.24","68.78","SANIRAJAK AIRPORT","2402354","2022-11-01 17:00","2022","11","01","17:00","-11.0","","-11.0","","100","","","M","34","","46","","0.8","","99.96","","","","-23","","Moderate Snow,Blowing Snow"
"-81.24","68.78","SANIRAJAK AIRPORT","2402354","2022-11-01 18:00","2022","11","01","18:00","-10.2","","-10.2","","100","","","M","35","","46","","0.6","","99.96","","","","-22","","Moderate Snow"
"-81.24","68.78","SANIRAJAK AIRPORT","2402354","2022-11-01 19:00","2022","11","01","19:00","-10.6","","-10.6","","100","","","M","35","","50","","0.6","","99.97","","","","-23","","Moderate Snow,Blowing Snow"
"-81.24","68.78","SANIRAJAK AIRPORT","2402354","2022-11-01 20:00","2022","11","01","20:00","-10.6","","-11.0","","97","","","M","36","","52","","0.6","","99.95","","","","-23","","Moderate Snow,Blowing Snow"
"-81.24","68.78","SANIRAJAK AIRPORT","2402354","2022-11-01 21:00","2022","11","01","21:00","-11.1","","-11.1","","100","","","M","35","","52","","0.4","","99.97","","","","-23","","Heavy Snow,Blowing Snow"
"-81.24","68.78","SANIRAJAK AIRPORT","2402354","2022-11-01 22:00","2022","11","01","22:00","-11.3","","-11.5","","99","","609.6","","35","","52","","0.4","","99.99","","","","-24","","Heavy Snow,Blowing Snow"
"-81.24","68.78","SANIRAJAK AIRPORT","2402354","2022-11-01 23:00","2022","11","01","23:00","-13.1","","-13.6","","96","","","M","34","","55","","0.6","","100.02","","","","-26","","Moderate Snow,Blowing Snow"
"-81.24","68.78","SANIRAJAK AIRPORT","2402354","2022-11-02 00:00","2022","11","02","00:00","-13.1","","-13.4","","98","","609.6","","34","","54","","0.6","","100.04","","","","-26","","Moderate Snow,Blowing Snow"
"-81.24","68.78","SANIRAJAK AIRPORT","2402354","2022-11-02 01:00","2022","11","02","01:00","-13.8","","-14.5","","95","","608.8","","33","","55","","0.6","","100.09","","","","-27","","Moderate Snow,Blowing Snow"
"-81.24","68.78","SANIRAJAK AIRPORT","2402354","2022-11-02 02:00","2022","11","02","02:00","-14.3","","-15.3","","93","","610.4","","33","","52","","0.8","","100.15","","","","-28","","Moderate Snow,Blowing Snow"
"-81.24","68.78","SANIRAJAK AIRPORT","2402354","2022-11-02 03:00","2022","11","02","03:00","-15.4","","-16.7","","90","","","M","33","","52","","1.2","","100.20","","","","-29","","Snow,Blowing Snow"
"-81.24","68.78","SANIRAJAK AIRPORT","2402354","2022-11-02 04:00","2022","11","02","04:00","-16.5","","-17.9","","89","","608.8","","33","","52","","0.8","","100.23","","","","-31","","Moderate Snow,Blowing Snow"
"-81.24","68.78","SANIRAJAK AIRPORT","2402354","2022-11-02 05:00","2022","11","02","05:00","-17.0","","-18.5","","88","","609.6","","33","","54","","0.8","","100.27","","","","-32","","Moderate Snow,Blowing Snow"
"-81.24","68.78","SANIRAJAK AIRPORT","2402354","2022-11-02 06:00","2022","11","02","06:00","-17.1","","-18.5","","89","","","M","33","","54","","0.8","","100.31","","","","-32","","Moderate Snow,Blowing Snow"
"-81.24","68.78","SANIRAJAK AIRPORT","2402354","2022-11-02 07:00","2022","11","02","07:00","-17.3","","-18.8","","88","","","M","33","","55","","0.8","","100.35","","","","-32","","Moderate Snow,Blowing Snow"
"-81.24","68.78","SANIRAJAK AIRPORT","2402354","2022-11-02 08:00","2022","11","02","08:00","-17.2","","-18.9","","87","","","M","33","","52","","1.2","","100.38","","","","-32","","Snow,Blowing Snow"
"-81.24","68.78","SANIRAJAK AIRPORT","2402354","2022-11-02 09:00","2022","11","02","09:00","-17.2","","-18.7","","88","","","M","33","","50","","0.8","","100.42","","","","-32","","Moderate Snow,Blowing Snow"
"-81.24","68.78","SANIRAJAK AIRPORT","2402354","2022-11-02 10:00","2022","11","02","10:00","-17.9","","-19.4","","88","","","M","32","","52","","0.8","","100.47","","","","-33","","Moderate Snow,Blowing Snow"
"-81.24","68.78","SANIRAJAK AIRPORT","2402354","2022-11-02 11:00","2022","11","02","11:00","-17.6","","-19.3","","87","","","M","32","","54","","0.8","","100.48","","","","-33","","Moderate Snow,Blowing Snow"
"-81.24","68.78","SANIRAJAK AIRPORT","2402354","2022-11-02 12:00","2022","11","02","12:00","-17.8","","-19.5","","87","","","M","32","","55","","1.0","","100.51","","","","-33","","Snow,Blowing Snow"
"-81.24","68.78","SANIRAJAK AIRPORT","2402354","2022-11-02 13:00","2022","11","02","13:00","-17.5","","-19.3","","86","","","M","32","","46","","1.6","","100.53","","","","-32","","Snow,Blowing Snow"
"-81.24","68.78","SANIRAJAK AIRPORT","2402354","2022-11-02 14:00","2022","11","02","14:00","-17.2","","-18.9","","87","","","M","32","","48","","1.2","","100.54","","","","-31","","Snow,Blowing Snow"
"-81.24","68.78","SANIRAJAK AIRPORT","2402354","2022-11-02 15:00","2022","11","02","15:00","-17.9","","-19.7","","86","","","M","32","","54","","1.0","","100.56","","","","-33","","Snow,Blowing Snow"
"-81.24","68.78","SANIRAJAK AIRPORT","2402354","2022-11-02 16:00","2022","11","02","16:00","-18.1","","-20.0","","85","","","M","32","","48","","1.6","","100.61","","","","-33","","Snow,Blowing Snow"
"-81.24","68.78","SANIRAJAK AIRPORT","2402354","2022-11-02 17:00","2022","11","02","17:00","-19.2","","-21.4","","83","","609.6","","31","","37","","11.3","","100.65","","","","-33","","NA"
"-81.24","68.78","SANIRAJAK AIRPORT","2402354","2022-11-02 18:00","2022","11","02","18:00","-19.6","","-21.8","","83","","610.4","","31","","37","","14.5","","100.64","","","","-33","","NA"
"-81.24","68.78","SANIRAJAK AIRPORT","2402354","2022-11-02 19:00","2022","11","02","19:00","-20.4","","-22.6","","83","","405.6","","31","","32","","16.1","","100.62","","","","-33","","NA"
"-81.24","68.78","SANIRAJAK AIRPORT","2402354","2022-11-02 20:00","2022","11","02","20:00","-20.8","","-23.1","","82","","0.0","","31","","32","","16.1","","100.60","","","","-34","","NA"
"-81.24","68.78","SANIRAJAK AIRPORT","2402354","2022-11-02 21:00","2022","11","02","21:00","-20.6","","-22.9","","82","","0.0","","31","","30","","16.1","","100.57","","","","-33","","NA"
"-81.24","68.78","SANIRAJAK AIRPORT","2402354","2022-11-02 22:00","2022","11","02","22:00","-21.2","","-23.4","","83","","0.0","","31","","30","","16.1","","100.54","","","","-34","","NA"
"-81.24","68.78","SANIRAJAK AIRPORT","2402354","2022-11-02 23:00","2022","11","02","23:00","-21.6","","-23.9","","82","","0.0","","31","","26","","16.1","","100.53","","","","-34","","NA"
"-81.24","68.78","SANIRAJAK AIRPORT","2402354","2022-11-03 00:00","2022","11","03","00:00","-21.9","","-24.2","","82","","0.0","","31","","26","","16.1","","100.51","","","","-34","","NA"
"-81.24","68.78","SANIRAJAK AIRPORT","2402354","2022-11-03 01:00","2022","11","03","01:00","-22.3","","-24.5","","83","","0.0","","31","","26","","16.1","","100.48","","","","-35","","NA"
"-81.24","68.78","SANIRAJAK AIRPORT","2402354","2022-11-03 02:00","2022","11","03","02:00","-22.0","","-24.3","","82","","0.0","","31","","26","","16.1","","100.45","","","","-34","","NA"
"-81.24","68.78","SANIRAJAK AIRPORT","2402354","2022-11-03 03:00","2022","11","03","03:00","-21.5","","-23.7","","83","","0.0","","32","","28","","16.1","","100.45","","","","-34","","NA"
"-81.24","68.78","SANIRAJAK AIRPORT","2402354","2022-11-03 04:00","2022","11","03","04:00","-21.3","","-23.8","","81","","0.0","","31","","28","","16.1","","100.41","","","","-34","","NA"
"-81.24","68.78","SANIRAJAK AIRPORT","2402354","2022-11-03 05:00","2022","11","03","05:00","-21.2","","-23.8","","80","","0.0","","31","","32","","16.1","","100.40","","","","-34","","NA"
"-81.24","68.78","SANIRAJAK AIRPORT","2402354","2022-11-03 06:00","2022","11","03","06:00","-21.6","","-24.0","","81","","0.0","","31","","30","","16.1","","100.39","","","","-35","","NA"
"-81.24","68.78","SANIRAJAK AIRPORT","2402354","2022-11-03 07:00","2022","11","03","07:00","-21.5","","-23.9","","81","","0.0","","31","","30","","16.1","","100.36","","","","-35","","NA"
"-81.24","68.78","SANIRAJAK AIRPORT","2402354","2022-11-03 08:00","2022","11","03","08:00","-23.2","","-25.6","","81","","0.0","","30","","22","","16.1","","100.34","","","","-35","","NA"
"-81.24","68.78","SANIRAJAK AIRPORT","2402354","2022-11-03 09:00","2022","11","03","09:00","-23.3","","-25.7","","81","","0.0","","30","","22","","16.1","","100.30","","","","-35","","NA"
"-81.24","68.78","SANIRAJAK AIRPORT","2402354","2022-11-03 10:00","2022","11","03","10:00","-22.4","","-24.8","","81","","0.0","","30","","26","","16.1","","100.28","","","","-35","","NA"
"-81.24","68.78","SANIRAJAK AIRPORT","2402354","2022-11-03 11:00","2022","11","03","11:00","-21.9","","-24.8","","78","","0.0","","29","","28","","16.1","","100.27","","","","-35","","NA"
"-81.24","68.78","SANIRAJAK AIRPORT","2402354","2022-11-03 12:00","2022","11","03","12:00","-22.1","","-24.7","","80","","132.1","","","M","","M","","M","100.26","","","","","","NA"
"-81.24","68.78","SANIRAJAK AIRPORT","2402354","2022-11-03 13:00","2022","11","03","13:00","-21.9","","-24.2","","82","","102.6","","27","","21","","16.1","","100.24","","","","-33","","NA"
"-81.24","68.78","SANIRAJAK AIRPORT","2402354","2022-11-03 14:00","2022","11","03","14:00","-22.1","","-24.2","","83","","0.0","","27","","21","","16.1","","100.23","","","","-33","","NA"
"-81.24","68.78","SANIRAJAK AIRPORT","2402354","2022-11-03 15:00","2022","11","03","15:00","-21.5","","-23.7","","83","","0.0","","28","","28","","16.1","","100.24","","","","-34","","NA"
"-81.24","68.78","SANIRAJAK AIRPORT","2402354","2022-11-03 16:00","2022","11","03","16:00","-21.9","","-24.3","","81","","0.0","","28","","26","","16.1","","100.21","","","","-34","","NA"
"-81.24","68.78","SANIRAJAK AIRPORT","2402354","2022-11-03 17:00","2022","11","03","17:00","-22.3","","-24.9","","80","","0.0","","28","","22","","16.1","","100.18","","","","-34","","NA"
"-81.24","68.78","SANIRAJAK AIRPORT","2402354","2022-11-03 18:00","2022","11","03","18:00","-23.3","","-25.7","","81","","0.0","","26","","18","","16.1","","100.15","","","","-34","","NA"
"-81.24","68.78","SANIRAJAK AIRPORT","2402354","2022-11-03 19:00","2022","11","03","19:00","-22.7","","-25.4","","79","","0.0","","24","","13","","16.1","","100.12","","","","-32","","NA"
"-81.24","68.78","SANIRAJAK AIRPORT","2402354","2022-11-03 20:00","2022","11","03","20:00","-23.0","","-25.3","","82","","0.0","","22","","17","","16.1","","100.08","","","","-33","","NA"
"-81.24","68.78","SANIRAJAK AIRPORT","2402354","2022-11-03 21:00","2022","11","03","21:00","-23.5","","-25.8","","82","","0.0","","23","","15","","16.1","","100.02","","","","-33","","NA"
"-81.24","68.78","SANIRAJAK AIRPORT","2402354","2022-11-03 22:00","2022","11","03","22:00","-23.8","","-25.9","","83","","0.0","","23","","17","","16.1","","99.96","","","","-34","","NA"
"-81.24","68.78","SANIRAJAK AIRPORT","2402354","2022-11-03 23:00","2022","11","03","23:00","-24.4","","-26.5","","83","","0.0","","25","","17","","16.1","","99.91","","","","-35","","NA"
"-81.24","68.78","SANIRAJAK AIRPORT","2402354","2022-11-04 00:00","2022","11","04","00:00","-25.0","","-27.5","","80","","0.0","","25","","17","","16.1","","99.87","","","","-36","","NA"
"-81.24","68.78","SANIRAJAK AIRPORT","2402354","2022-11-04 01:00","2022","11","04","01:00","-25.1","","-27.6","","80","","0.0","","25","","15","","16.1","","99.84","","","","-35","","NA"
"-81.24","68.78","SANIRAJAK AIRPORT","2402354","2022-11-04 02:00","2022","11","04","02:00","-25.3","","-27.7","","81","","0.0","","26","","15","","16.1","","99.79","","","","-36","","NA"
"-81.24","68.78","SANIRAJAK AIRPORT","2402354","2022-11-04 03:00","2022","11","04","03:00","-24.8","","-27.0","","82","","0.0","","26","","11","","16.1","","99.73","","","","-33","","NA"
"-81.24","68.78","SANIRAJAK AIRPORT","2402354","2022-11-04 04:00","2022","11","04","04:00","-24.7","","-26.9","","82","","0.0","","28","","13","","16.1","","99.68","","","","-34","","NA"
"-81.24","68.78","SANIRAJAK AIRPORT","2402354","2022-11-04 05:00","2022","11","04","05:00","-24.4","","-26.5","","83","","0.0","","27","","9","","16.1","","99.65","","","","-32","","NA"
"-81.24","68.78","SANIRAJAK AIRPORT","2402354","2022-11-04 06:00","2022","11","04","06:00","-25.0","","-27.0","","84","","0.0","","31","","15","","16.1","","99.63","","","","-35","","NA"
"-81.24","68.78","SANIRAJAK AIRPORT","2402354","2022-11-04 07:00","2022","11","04","07:00","-24.8","","-26.7","","85","","0.0","","31","","17","","16.1","","99.62","","","","-36","","NA"
"-81.24","68.78","SANIRAJAK AIRPORT","2402354","2022-11-04 08:00","2022","11","04","08:00","-25.2","","-27.2","","84","","0.0","","31","","17","","16.1","","99.57","","","","-36","","NA"
"-81.24","68.78","SANIRAJAK AIRPORT","2402354","2022-11-04 09:00","2022","11","04","09:00","-25.1","","-27.2","","83","","0.0","","30","","17","","16.1","","99.57","","","","-36","","NA"
"-81.24","68.78","SANIRAJAK AIRPORT","2402354","2022-11-04 10:00","2022","11","04","10:00","-25.4","","-27.5","","83","","0.0","","30","","17","","16.1","","99.54","","","","-36","","NA"
"-81.24","68.78","SANIRAJAK AIRPORT","2402354","2022-11-04 11:00","2022","11","04","11:00","-24.8","","-26.8","","84","","0.0","","30","","17","","16.1","","99.52","","","","-36","","NA"
"-81.24","68.78","SANIRAJAK AIRPORT","2402354","2022-11-04 12:00","2022","11","04","12:00","-24.2","","-26.2","","84","","0.0","","30","","15","","16.1","","99.51","","","","-34","","NA"
"-81.24","68.78","SANIRAJAK AIRPORT","2402354","2022-11-04 13:00","2022","11","04","13:00","-23.4","","-25.3","","85","","0.0","","29","","9","","16.1","","99.49","","","","-31","","NA"
"-81.24","68.78","SANIRAJAK AIRPORT","2402354","2022-11-04 14:00","2022","11","04","14:00","-22.9","","-24.9","","84","","0.0","","29","","9","","16.1","","99.46","","","","-30","","NA"
"-81.24","68.78","SANIRAJAK AIRPORT","2402354","2022-11-04 15:00","2022","11","04","15:00","-24.1","","-26.1","","84","","0.0","","26","","8","","16.1","","99.46","","","","-31","","NA"
"-81.24","68.78","SANIRAJAK AIRPORT","2402354","2022-11-04 16:00","2022","11","04","16:00","-23.6","","-25.6","","84","","0.0","","25","","9","","16.1","","99.47","","","","-31","","NA"
"-81.24","68.78","SANIRAJAK AIRPORT","2402354","2022-11-04 17:00","2022","11","04","17:00","-23.1","","-25.0","","85","","0.0","","26","","17","","16.1","","99.48","","","","-34","","NA"
"-81.24","68.78","SANIRAJAK AIRPORT","2402354","2022-11-04 18:00","2022","11","04","18:00","-22.6","","-24.2","","87","","0.0","","28","","9","","9.7","","99.49","","","","-30","","Fog"
"-81.24","68.78","SANIRAJAK AIRPORT","2402354","2022-11-04 19:00","2022","11","04","19:00","-21.9","","-23.7","","86","","0.0","","25","","8","","16.1","","99.46","","","","-28","","NA"
"-81.24","68.78","SANIRAJAK AIRPORT","2402354","2022-11-04 20:00","2022","11","04","20:00","-21.0","","-22.8","","86","","0.0","","24","","13","","8.1","","99.50","","","","-30","","Snow"
"-81.24","68.78","SANIRAJAK AIRPORT","2402354","2022-11-04 21:00","2022","11","04","21:00","-20.8","","-22.6","","86","","0.0","","24","","17","","16.1","","99.49","","","","-31","","NA"
"-81.24","68.78","SANIRAJAK AIRPORT","2402354","2022-11-04 22:00","2022","11","04","22:00","-20.3","","-22.0","","86","","0.0","","25","","18","","16.1","","99.51","","","","-30","","NA"
"-81.24","68.78","SANIRAJAK AIRPORT","2402354","2022-11-04 23:00","2022","11","04","23:00","-18.5","","-19.9","","89","","479.3","","28","","11","","6.4","","99.55","","","","-26","","Fog"
"-81.24","68.78","SANIRAJAK AIRPORT","2402354","2022-11-05 00:00","2022","11","05","00:00","-16.1","","-17.1","","92","","610.4","","28","","26","","11.3","","99.61","","","","-27","","Snow"
"-81.24","68.78","SANIRAJAK AIRPORT","2402354","2022-11-05 01:00","2022","11","05","01:00","-17.2","","-18.6","","89","","609.6","","26","","17","","8.1","","99.66","","","","-26","","Snow"
"-81.24","68.78","SANIRAJAK AIRPORT","2402354","2022-11-05 02:00","2022","11","05","02:00","-16.2","","-17.6","","89","","608.8","","29","","28","","6.4","","99.73","","","","-27","","Snow"
"-81.24","68.78","SANIRAJAK AIRPORT","2402354","2022-11-05 03:00","2022","11","05","03:00","-16.2","","-17.5","","90","","609.6","","26","","21","","8.1","","99.78","","","","-26","","Snow"
"-81.24","68.78","SANIRAJAK AIRPORT","2402354","2022-11-05 04:00","2022","11","05","04:00","-15.5","","-16.8","","90","","","M","31","","32","","11.3","","99.82","","","","-27","","Snow"
"-81.24","68.78","SANIRAJAK AIRPORT","2402354","2022-11-05 05:00","2022","11","05","05:00","-16.9","","-18.4","","88","","609.6","","28","","28","","16.1","","99.93","","","","-28","","NA"
"-81.24","68.78","SANIRAJAK AIRPORT","2402354","2022-11-05 06:00","2022","11","05","06:00","-17.3","","-18.8","","88","","609.6","","29","","34","","16.1","","99.95","","","","-30","","NA"
"-81.24","68.78","SANIRAJAK AIRPORT","2402354","2022-11-05 07:00","2022","11","05","07:00","-17.0","","-18.7","","87","","608.9","","28","","35","","6.4","","100.05","","","","-29","","Fog"
"-81.24","68.78","SANIRAJAK AIRPORT","2402354","2022-11-05 08:00","2022","11","05","08:00","-17.4","","-19.4","","85","","610.4","","28","","35","","12.9","","100.13","","","","-30","","NA"
"-81.24","68.78","SANIRAJAK AIRPORT","2402354","2022-11-05 09:00","2022","11","05","09:00","-18.2","","-20.4","","83","","","M","27","","32","","16.1","","100.23","","","","-31","","NA"
"-81.24","68.78","SANIRAJAK AIRPORT","2402354","2022-11-05 10:00","2022","11","05","10:00","-18.3","","-20.5","","83","","608.8","","28","","37","","14.5","","100.27","","","","-31","","NA"
"-81.24","68.78","SANIRAJAK AIRPORT","2402354","2022-11-05 11:00","2022","11","05","11:00","-18.2","","-20.7","","81","","","M","29","","43","","8.1","","100.35","","","","-32","","Haze"
"-81.24","68.78","SANIRAJAK AIRPORT","2402354","2022-11-05 12:00","2022","11","05","12:00","-17.8","","-20.3","","81","","","M","30","","39","","9.7","","100.44","","","","-31","","Fog"
"-81.24","68.78","SANIRAJAK AIRPORT","2402354","2022-11-05 13:00","2022","11","05","13:00","-18.6","","-21.3","","80","","608.8","","30","","35","","16.1","","100.55","","","","-32","","NA"
"-81.24","68.78","SANIRAJAK AIRPORT","2402354","2022-11-05 14:00","2022","11","05","14:00","-19.7","","-22.2","","81","","609.6","","23","","9","","16.1","","100.66","","","","-26","","NA"
"-81.24","68.78","SANIRAJAK AIRPORT","2402354","2022-11-05 15:00","2022","11","05","15:00","-20.8","","-23.3","","81","","304.0","","26","","24","","16.1","","100.77","","","","-32","","NA"
"-81.24","68.78","SANIRAJAK AIRPORT","2402354","2022-11-05 16:00","2022","11","05","16:00","-20.9","","-23.6","","79","","0.0","","25","","18","","16.1","","100.90","","","","-31","","NA"
"-81.24","68.78","SANIRAJAK AIRPORT","2402354","2022-11-05 17:00","2022","11","05","17:00","-20.6","","-23.2","","80","","0.0","","28","","28","","16.1","","100.99","","","","-33","","NA"
"-81.24","68.78","SANIRAJAK AIRPORT","2402354","2022-11-05 18:00","2022","11","05","18:00","-21.2","","-23.8","","80","","50.8","","28","","17","","16.1","","101.08","","","","-31","","NA"
"-81.24","68.78","SANIRAJAK AIRPORT","2402354","2022-11-05 19:00","2022","11","05","19:00","-21.1","","-23.8","","79","","0.0","","24","","13","","16.1","","101.19","","","","-30","","NA"
"-81.24","68.78","SANIRAJAK AIRPORT","2402354","2022-11-05 20:00","2022","11","05","20:00","-20.5","","-23.5","","77","","0.0","","","M","8","","16.1","","101.31","","","","-27","","NA"
"-81.24","68.78","SANIRAJAK AIRPORT","2402354","2022-11-05 21:00","2022","11","05","21:00","-21.6","","-24.2","","80","","0.0","","29","","26","","16.1","","101.33","","","","-34","","NA"
"-81.24","68.78","SANIRAJAK AIRPORT","2402354","2022-11-05 22:00","2022","11","05","22:00","-21.6","","-24.3","","79","","0.0","","27","","28","","16.1","","101.41","","","","-34","","NA"
"-81.24","68.78","SANIRAJAK AIRPORT","2402354","2022-11-05 23:00","2022","11","05","23:00","-21.4","","-24.3","","78","","0.0","","14","","9","","16.1","","101.51","","","","-28","","NA"
"-81.24","68.78","SANIRAJAK AIRPORT","2402354","2022-11-06 00:00","2022","11","06","00:00","-21.6","","-24.6","","77","","0.0","","28","","15","","16.1","","101.58","","","","-31","","NA"
"-81.24","68.78","SANIRAJAK AIRPORT","2402354","2022-11-06 01:00","2022","11","06","01:00","-21.0","","-24.2","","76","","0.0","","25","","9","","16.1","","101.67","","","","-28","","NA"
"-81.24","68.78","SANIRAJAK AIRPORT","2402354","2022-11-06 02:00","2022","11","06","02:00","-21.6","","-24.5","","78","","0.0","","25","","21","","16.1","","101.72","","","","-33","","NA"
"-81.24","68.78","SANIRAJAK AIRPORT","2402354","2022-11-06 03:00","2022","11","06","03:00","-21.5","","-24.1","","80","","0.0","","24","","21","","16.1","","101.73","","","","-33","","NA"
"-81.24","68.78","SANIRAJAK AIRPORT","2402354","2022-11-06 04:00","2022","11","06","04:00","-22.2","","-24.7","","80","","0.0","","","","0","","16.1","","101.78","","","","","","NA"
"-81.24","68.78","SANIRAJAK AIRPORT","2402354","2022-11-06 05:00","2022","11","06","05:00","-19.6","","-22.8","","76","","30.5","","22","","9","","16.1","","101.80","","","","-26","","NA"
"-81.24","68.78","SANIRAJAK AIRPORT","2402354","2022-11-06 06:00","2022","11","06","06:00","-19.9","","-22.8","","78","","416.6","","26","","5","","16.1","","101.83","","","","-24","","NA"
"-81.24","68.78","SANIRAJAK AIRPORT","2402354","2022-11-06 07:00","2022","11","06","07:00","-19.8","","-22.9","","77","","436.1","","29","","9","","16.1","","101.84","","","","-27","","NA"
"-81.24","68.78","SANIRAJAK AIRPORT","2402354","2022-11-06 08:00","2022","11","06","08:00","-20.0","","-22.3","","82","","304.8","","26","","8","","16.1","","101.86","","","","-26","","NA"
"-81.24","68.78","SANIRAJAK AIRPORT","2402354","2022-11-06 09:00","2022","11","06","09:00","-18.7","","-21.8","","77","","","M","","","0","","16.1","","101.87","","","","","","NA"
"-81.24","68.78","SANIRAJAK AIRPORT","2402354","2022-11-06 10:00","2022","11","06","10:00","-16.4","","-18.8","","82","","609.6","","","M","4","","16.1","","101.86","","","","-19","","NA"
"-81.24","68.78","SANIRAJAK AIRPORT","2402354","2022-11-06 11:00","2022","11","06","11:00","-16.4","","-18.1","","87","","","M","22","","8","","16.1","","101.86","","","","-22","","NA"
"-81.24","68.78","SANIRAJAK AIRPORT","2402354","2022-11-06 12:00","2022","11","06","12:00","-15.5","","-17.9","","82","","610.4","","22","","5","","16.1","","101.87","","","","-19","","NA"
"-81.24","68.78","SANIRAJAK AIRPORT","2402354","2022-11-06 13:00","2022","11","06","13:00","-15.2","","-17.3","","84","","","M","17","","4","","16.1","","101.85","","","","-18","","NA"
"-81.24","68.78","SANIRAJAK AIRPORT","2402354","2022-11-06 14:00","2022","11","06","14:00","-11.9","","-15.0","","78","","609.6","","20","","15","","16.1","","101.82","","","","-19","","NA"
"-81.24","68.78","SANIRAJAK AIRPORT","2402354","2022-11-06 15:00","2022","11","06","15:00","-10.6","","-13.9","","77","","","M","19","","17","","16.1","","101.79","","","","-18","","NA"
"-81.24","68.78","SANIRAJAK AIRPORT","2402354","2022-11-06 16:00","2022","11","06","16:00","-10.4","","-12.6","","84","","609.6","","18","","15","","16.1","","101.78","","","","-17","","NA"
"-81.24","68.78","SANIRAJAK AIRPORT","2402354","2022-11-06 17:00","2022","11","06","17:00","-9.0","","-11.5","","82","","","M","18","","22","","16.1","","101.74","","","","-17","","NA"
"-81.24","68.78","SANIRAJAK AIRPORT","2402354","2022-11-06 18:00","2022","11","06","18:00","-8.6","","-10.9","","84","","608.8","","18","","22","","16.1","","101.72","","","","-16","","NA"
"-81.24","68.78","SANIRAJAK AIRPORT","2402354","2022-11-06 19:00","2022","11","06","19:00","-8.6","","-10.0","","90","","609.6","","18","","17","","16.1","","101.71","","","","-15","","NA"
"-81.24","68.78","SANIRAJAK AIRPORT","2402354","2022-11-06 20:00","2022","11","06","20:00","-8.9","","-10.4","","89","","","M","20","","15","","16.1","","101.70","","","","-15","","NA"
"-81.24","68.78","SANIRAJAK AIRPORT","2402354","2022-11-06 21:00","2022","11","06","21:00","-9.9","","-9.9","","100","","610.3","","20","","15","","16.1","","101.67","","","","-17","","NA"
"-81.24","68.78","SANIRAJAK AIRPORT","2402354","2022-11-06 22:00","2022","11","06","22:00","-7.6","","-8.9","","91","","","M","20","","18","","16.1","","101.66","","","","-14","","NA"
"-81.24","68.78","SANIRAJAK AIRPORT","2402354","2022-11-06 23:00","2022","11","06","23:00","-10.5","","-11.0","","96","","","M","25","","13","","16.1","","101.72","","","","-17","","NA"
"-81.24","68.78","SANIRAJAK AIRPORT","2402354","2022-11-07 00:00","2022","11","07","00:00","-9.0","","-10.5","","89","","609.6","","19","","11","","16.1","","101.70","","","","-14","","NA"
"-81.24","68.78","SANIRAJAK AIRPORT","2402354","2022-11-07 01:00","2022","11","07","01:00","-7.4","","-9.4","","86","","","M","19","","17","","16.1","","101.67","","","","-14","","NA"
"-81.24","68.78","SANIRAJAK AIRPORT","2402354","2022-11-07 02:00","2022","11","07","02:00","-6.0","","-8.3","","84","","610.4","","18","","21","","16.1","","101.62","","","","-13","","NA"
"-81.24","68.78","SANIRAJAK AIRPORT","2402354","2022-11-07 03:00","2022","11","07","03:00","-5.3","","-8.2","","80","","","M","19","","28","","16.1","","101.59","","","","-13","","NA"
"-81.24","68.78","SANIRAJAK AIRPORT","2402354","2022-11-07 04:00","2022","11","07","04:00","-4.9","","-7.8","","81","","608.8","","19","","30","","16.1","","101.57","","","","-13","","NA"
"-81.24","68.78","SANIRAJAK AIRPORT","2402354","2022-11-07 05:00","2022","11","07","05:00","-4.8","","-7.7","","80","","","M","19","","32","","16.1","","101.55","","","","-13","","NA"
"-81.24","68.78","SANIRAJAK AIRPORT","2402354","2022-11-07 06:00","2022","11","07","06:00","-5.1","","-7.6","","83","","","M","19","","35","","16.1","","101.52","","","","-14","","Snow"
"-81.24","68.78","SANIRAJAK AIRPORT","2402354","2022-11-07 07:00","2022","11","07","07:00","-5.1","","-7.2","","85","","","M","20","","34","","16.1","","101.53","","","","-14","","Snow"
"-81.24","68.78","SANIRAJAK AIRPORT","2402354","2022-11-07 08:00","2022","11","07","08:00","-5.0","","-7.0","","86","","","M","20","","26","","16.1","","101.54","","","","-12","","Snow"
"-81.24","68.78","SANIRAJAK AIRPORT","2402354","2022-11-07 09:00","2022","11","07","09:00","-5.0","","-6.5","","89","","","M","20","","30","","16.1","","101.53","","","","-13","","Snow"
"-81.24","68.78","SANIRAJAK AIRPORT","2402354","2022-11-07 10:00","2022","11","07","10:00","-5.4","","-5.7","","98","","","M","21","","34","","2.8","","101.54","","","","-14","","Snow"
"-81.24","68.78","SANIRAJAK AIRPORT","2402354","2022-11-07 11:00","2022","11","07","11:00","-5.5","","-5.8","","98","","","M","21","","32","","8.1","","101.55","","","","-14","","Snow"
"-81.24","68.78","SANIRAJAK AIRPORT","2402354","2022-11-07 12:00","2022","11","07","12:00","-5.7","","-5.7","","100","","609.6","","21","","34","","4.8","","101.55","","","","-14","","Snow"
"-81.24","68.78","SANIRAJAK AIRPORT","2402354","2022-11-07 13:00","2022","11","07","13:00","-11.8","","-12.6","","94","","","M","31","","30","","2.0","","101.66","","","","-22","","Snow"
"-81.24","68.78","SANIRAJAK AIRPORT","2402354","2022-11-07 14:00","2022","11","07","14:00","-13.2","","-14.3","","92","","609.6","","31","","32","","6.4","","101.70","","","","-24","","Snow"
"-81.24","68.78","SANIRAJAK AIRPORT","2402354","2022-11-07 15:00","2022","11","07","15:00","-14.1","","-15.4","","90","","","M","31","","30","","11.3","","101.75","","","","-25","","Snow"
"-81.24","68.78","SANIRAJAK AIRPORT","2402354","2022-11-07 16:00","2022","11","07","16:00","-14.7","","-16.1","","89","","609.6","","31","","32","","4.8","","101.77","","","","-26","","Snow"
"-81.24","68.78","SANIRAJAK AIRPORT","2402354","2022-11-07 17:00","2022","11","07","17:00","-15.5","","-17.1","","88","","","M","31","","28","","6.4","","101.83","","","","-26","","Snow"
"-81.24","68.78","SANIRAJAK AIRPORT","2402354","2022-11-07 18:00","2022","11","07","18:00","-16.1","","-17.8","","87","","608.8","","32","","30","","11.3","","101.86","","","","-27","","Snow"
"-81.24","68.78","SANIRAJAK AIRPORT","2402354","2022-11-07 19:00","2022","11","07","19:00","-16.7","","-18.7","","85","","","M","32","","28","","16.1","","101.87","","","","-28","","NA"
"-81.24","68.78","SANIRAJAK AIRPORT","2402354","2022-11-07 20:00","2022","11","07","20:00","-16.7","","-18.5","","86","","","M","32","","30","","16.1","","101.89","","","","-28","","Snow"
"-81.24","68.78","SANIRAJAK AIRPORT","2402354","2022-11-07 21:00","2022","11","07","21:00","-16.4","","-18.6","","83","","","M","33","","26","","16.1","","101.92","","","","-27","","Snow"
"-81.24","68.78","SANIRAJAK AIRPORT","2402354","2022-11-07 22:00","2022","11","07","22:00","-16.5","","-18.7","","84","","608.8","","33","","30","","16.1","","101.92","","","","-28","","Snow"
"-81.24","68.78","SANIRAJAK AIRPORT","2402354","2022-11-07 23:00","2022","11","07","23:00","-16.5","","-18.6","","84","","","M","33","","30","","16.1","","101.93","","","","-28","","Snow"
"-81.24","68.78","SANIRAJAK AIRPORT","2402354","2022-11-08 00:00","2022","11","08","00:00","-16.5","","-18.8","","83","","609.6","","32","","26","","16.1","","101.93","","","","-27","","Snow"
"-81.24","68.78","SANIRAJAK AIRPORT","2402354","2022-11-08 01:00","2022","11","08","01:00","-16.6","","-19.0","","82","","","M","32","","28","","16.1","","101.94","","","","-28","","Snow"
"-81.24","68.78","SANIRAJAK AIRPORT","2402354","2022-11-08 02:00","2022","11","08","02:00","-16.6","","-19.1","","81","","609.6","","33","","26","","16.1","","101.97","","","","-27","","Snow"
"-81.24","68.78","SANIRAJAK AIRPORT","2402354","2022-11-08 03:00","2022","11","08","03:00","-16.8","","-19.2","","82","","","M","33","","26","","16.1","","101.95","","","","-28","","Snow"
"-81.24","68.78","SANIRAJAK AIRPORT","2402354","2022-11-08 04:00","2022","11","08","04:00","-16.8","","-19.2","","82","","609.6","","33","","26","","16.1","","101.97","","","","-28","","Snow"
"-81.24","68.78","SANIRAJAK AIRPORT","2402354","2022-11-08 05:00","2022","11","08","05:00","-17.0","","-19.7","","80","","610.4","","33","","28","","16.1","","101.97","","","","-28","","Snow"
"-81.24","68.78","SANIRAJAK AIRPORT","2402354","2022-11-08 06:00","2022","11","08","06:00","-17.3","","-19.8","","81","","","M","33","","28","","16.1","","102.00","","","","-29","","Snow"
"-81.24","68.78","SANIRAJAK AIRPORT","2402354","2022-11-08 07:00","2022","11","08","07:00","-17.5","","-20.1","","81","","609.6","","33","","28","","16.1","","102.00","","","","-29","","NA"
"-81.24","68.78","SANIRAJAK AIRPORT","2402354","2022-11-08 08:00","2022","11","08","08:00","-18.0","","-20.7","","80","","","M","33","","34","","16.1","","102.00","","","","-31","","NA"
"-81.24","68.78","SANIRAJAK AIRPORT","2402354","2022-11-08 09:00","2022","11","08","09:00","-18.9","","-21.7","","79","","","M","33","","32","","16.1","","101.99","","","","-31","","NA"
"-81.24","68.78","SANIRAJAK AIRPORT","2402354","2022-11-08 10:00","2022","11","08","10:00","-20.8","","-23.3","","81","","447.1","","32","","28","","16.1","","101.98","","","","-33","","NA"
"-81.24","68.78","SANIRAJAK AIRPORT","2402354","2022-11-08 11:00","2022","11","08","11:00","-22.7","","-25.1","","81","","0.0","","32","","24","","16.1","","101.99","","","","-35","","NA"
"-81.24","68.78","SANIRAJAK AIRPORT","2402354","2022-11-08 12:00","2022","11","08","12:00","-23.2","","-25.6","","81","","0.0","","32","","26","","16.1","","101.99","","","","-36","","NA"
"-81.24","68.78","SANIRAJAK AIRPORT","2402354","2022-11-08 13:00","2022","11","08","13:00","-23.2","","-25.8","","80","","0.0","","32","","28","","16.1","","101.99","","","","-36","","NA"
"-81.24","68.78","SANIRAJAK AIRPORT","2402354","2022-11-08 14:00","2022","11","08","14:00","-23.5","","-25.9","","81","","0.0","","32","","28","","16.1","","102.01","","","","-37","","NA"
"-81.24","68.78","SANIRAJAK AIRPORT","2402354","2022-11-08 15:00","2022","11","08","15:00","-24.1","","-26.6","","80","","0.0","","31","","26","","16.1","","102.02","","","","-37","","NA"
"-81.24","68.78","SANIRAJAK AIRPORT","2402354","2022-11-08 16:00","2022","11","08","16:00","-24.0","","-26.4","","81","","0.0","","32","","26","","16.1","","102.02","","","","-37","","NA"
"-81.24","68.78","SANIRAJAK AIRPORT","2402354","2022-11-08 17:00","2022","11","08","17:00","-23.5","","-25.9","","81","","0.0","","32","","24","","16.1","","102.02","","","","-36","","NA"
"-81.24","68.78","SANIRAJAK AIRPORT","2402354","2022-11-08 18:00","2022","11","08","18:00","-23.4","","-25.7","","82","","0.0","","30","","24","","16.1","","102.00","","","","-36","","NA"
"-81.24","68.78","SANIRAJAK AIRPORT","2402354","2022-11-08 19:00","2022","11","08","19:00","-24.1","","-26.5","","81","","0.0","","30","","22","","16.1","","101.95","","","","-36","","NA"
"-81.24","68.78","SANIRAJAK AIRPORT","2402354","2022-11-08 20:00","2022","11","08","20:00","-24.5","","-27.0","","80","","0.0","","31","","28","","16.1","","101.91","","","","-38","","NA"
"-81.24","68.78","SANIRAJAK AIRPORT","2402354","2022-11-08 21:00","2022","11","08","21:00","-24.7","","-27.2","","80","","0.0","","32","","32","","16.1","","101.91","","","","-39","","NA"
"-81.24","68.78","SANIRAJAK AIRPORT","2402354","2022-11-08 22:00","2022","11","08","22:00","-24.8","","-27.5","","79","","0.0","","31","","24","","16.1","","101.90","","","","-38","","NA"
"-81.24","68.78","SANIRAJAK AIRPORT","2402354","2022-11-08 23:00","2022","11","08","23:00","-24.6","","-27.3","","79","","0.0","","31","","30","","16.1","","101.87","","","","-39","","NA"
"-81.24","68.78","SANIRAJAK AIRPORT","2402354","2022-11-09 00:00","2022","11","09","00:00","-24.7","","-27.4","","79","","0.0","","30","","21","","16.1","","101.84","","","","-37","","NA"
"-81.24","68.78","SANIRAJAK AIRPORT","2402354","2022-11-09 01:00","2022","11","09","01:00","-24.3","","-26.8","","80","","0.0","","31","","32","","16.1","","101.82","","","","-39","","NA"
"-81.24","68.78","SANIRAJAK AIRPORT","2402354","2022-11-09 02:00","2022","11","09","02:00","-24.2","","-26.9","","79","","0.0","","32","","26","","16.1","","101.83","","","","-37","","NA"
"-81.24","68.78","SANIRAJAK AIRPORT","2402354","2022-11-09 03:00","2022","11","09","03:00","-24.7","","-27.2","","80","","0.0","","30","","28","","16.1","","101.82","","","","-38","","NA"
"-81.24","68.78","SANIRAJAK AIRPORT","2402354","2022-11-09 04:00","2022","11","09","04:00","-24.3","","-26.8","","80","","0.0","","32","","34","","16.1","","101.81","","","","-39","","NA"
"-81.24","68.78","SANIRAJAK AIRPORT","2402354","2022-11-09 05:00","2022","11","09","05:00","-24.8","","-27.3","","80","","0.0","","30","","24","","16.1","","101.80","","","","-38","","NA"
"-81.24","68.78","SANIRAJAK AIRPORT","2402354","2022-11-09 06:00","2022","11","09","06:00","-24.6","","-27.3","","79","","0.0","","30","","28","","16.1","","101.80","","","","-38","","NA"
"-81.24","68.78","SANIRAJAK AIRPORT","2402354","2022-11-09 07:00","2022","11","09","07:00","-23.7","","-26.2","","80","","0.0","","32","","26","","16.1","","101.75","","","","-37","","NA"
"-81.24","68.78","SANIRAJAK AIRPORT","2402354","2022-11-09 08:00","2022","11","09","08:00","-24.0","","-26.4","","81","","0.0","","32","","28","","16.1","","101.74","","","","-37","","NA"
"-81.24","68.78","SANIRAJAK AIRPORT","2402354","2022-11-09 09:00","2022","11","09","09:00","-23.8","","-26.4","","79","","0.0","","31","","30","","16.1","","101.73","","","","-38","","NA"
"-81.24","68.78","SANIRAJAK AIRPORT","2402354","2022-11-09 10:00","2022","11","09","10:00","-24.8","","-27.5","","79","","0.0","","31","","32","","16.1","","101.70","","","","-39","","NA"
"-81.24","68.78","SANIRAJAK AIRPORT","2402354","2022-11-09 11:00","2022","11","09","11:00","-23.5","","-25.9","","81","","0.0","","33","","32","","16.1","","101.66","","","","-38","","NA"
"-81.24","68.78","SANIRAJAK AIRPORT","2402354","2022-11-09 12:00","2022","11","09","12:00","-23.8","","-26.5","","79","","0.0","","32","","26","","16.1","","101.65","","","","-37","","NA"
"-81.24","68.78","SANIRAJAK AIRPORT","2402354","2022-11-09 13:00","2022","11","09","13:00","-23.7","","-26.4","","79","","0.0","","32","","26","","16.1","","101.67","","","","-37","","NA"
"-81.24","68.78","SANIRAJAK AIRPORT","2402354","2022-11-09 14:00","2022","11","09","14:00","-23.9","","-26.6","","79","","0.0","","32","","28","","16.1","","101.64","","","","-37","","NA"
"-81.24","68.78","SANIRAJAK AIRPORT","2402354","2022-11-09 15:00","2022","11","09","15:00","-24.4","","-26.8","","81","","0.0","","32","","26","","16.1","","101.64","","","","-37","","NA"
"-81.24","68.78","SANIRAJAK AIRPORT","2402354","2022-11-09 16:00","2022","11","09","16:00","-25.3","","-27.8","","80","","0.0","","32","","28","","16.1","","101.62","","","","-39","","NA"
"-81.24","68.78","SANIRAJAK AIRPORT","2402354","2022-11-09 17:00","2022","11","09","17:00","-25.6","","-28.1","","80","","0.0","","32","","30","","16.1","","101.62","","","","-40","","NA"
"-81.24","68.78","SANIRAJAK AIRPORT","2402354","2022-11-09 18:00","2022","11","09","18:00","-26.0","","-28.6","","79","","0.0","","32","","28","","16.1","","101.60","","","","-40","","NA"
"-81.24","68.78","SANIRAJAK AIRPORT","2402354","2022-11-09 19:00","2022","11","09","19:00","-26.5","","-29.3","","78","","0.0","","31","","28","","16.1","","101.57","","","","-41","","NA"
"-81.24","68.78","SANIRAJAK AIRPORT","2402354","2022-11-09 20:00","2022","11","09","20:00","-26.3","","-28.9","","79","","0.0","","31","","26","","16.1","","101.53","","","","-40","","NA"
"-81.24","68.78","SANIRAJAK AIRPORT","2402354","2022-11-09 21:00","2022","11","09","21:00","-26.6","","-29.4","","78","","0.0","","31","","26","","16.1","","101.52","","","","-40","","NA"
"-81.24","68.78","SANIRAJAK AIRPORT","2402354","2022-11-09 22:00","2022","11","09","22:00","-26.5","","-29.3","","78","","0.0","","30","","18","","16.1","","101.52","","","","-38","","NA"
"-81.24","68.78","SANIRAJAK AIRPORT","2402354","2022-11-09 23:00","2022","11","09","23:00","-26.6","","-29.4","","78","","0.0","","31","","28","","16.1","","101.47","","","","-41","","NA"
"-81.24","68.78","SANIRAJAK AIRPORT","2402354","2022-11-10 00:00","2022","11","10","00:00","-26.7","","-29.5","","78","","0.0","","31","","24","","16.1","","101.46","","","","-40","","NA"
"-81.24","68.78","SANIRAJAK AIRPORT","2402354","2022-11-10 01:00","2022","11","10","01:00","-26.1","","-29.0","","77","","0.0","","32","","32","","16.1","","101.43","","","","-41","","NA"
"-81.24","68.78","SANIRAJAK AIRPORT","2402354","2022-11-10 02:00","2022","11","10","02:00","-26.1","","-29.0","","77","","0.0","","31","","24","","16.1","","101.44","","","","-39","","NA"
"-81.24","68.78","SANIRAJAK AIRPORT","2402354","2022-11-10 03:00","2022","11","10","03:00","-26.0","","-28.8","","78","","0.0","","30","","17","","16.1","","101.44","","","","-37","","NA"
"-81.24","68.78","SANIRAJAK AIRPORT","2402354","2022-11-10 04:00","2022","11","10","04:00","-25.5","","-28.3","","78","","0.0","","31","","24","","16.1","","101.42","","","","-38","","NA"
"-81.24","68.78","SANIRAJAK AIRPORT","2402354","2022-11-10 05:00","2022","11","10","05:00","-24.9","","-27.6","","79","","0.0","","32","","28","","16.1","","101.40","","","","-39","","NA"
"-81.24","68.78","SANIRAJAK AIRPORT","2402354","2022-11-10 06:00","2022","11","10","06:00","-24.6","","-27.3","","79","","0.0","","31","","28","","16.1","","101.38","","","","-38","","NA"
"-81.24","68.78","SANIRAJAK AIRPORT","2402354","2022-11-10 07:00","2022","11","10","07:00","-24.0","","-26.5","","80","","0.0","","31","","22","","16.1","","101.35","","","","-36","","NA"
"-81.24","68.78","SANIRAJAK AIRPORT","2402354","2022-11-10 08:00","2022","11","10","08:00","-23.1","","-25.5","","81","","0.0","","32","","24","","16.1","","101.34","","","","-35","","NA"
"-81.24","68.78","SANIRAJAK AIRPORT","2402354","2022-11-10 09:00","2022","11","10","09:00","-22.4","","-24.7","","82","","0.0","","32","","26","","16.1","","101.32","","","","-35","","NA"
"-81.24","68.78","SANIRAJAK AIRPORT","2402354","2022-11-10 10:00","2022","11","10","10:00","-21.8","","-24.1","","82","","0.0","","30","","21","","16.1","","101.32","","","","-33","","NA"
"-81.24","68.78","SANIRAJAK AIRPORT","2402354","2022-11-10 11:00","2022","11","10","11:00","-21.4","","-23.6","","83","","0.0","","32","","30","","16.1","","101.28","","","","-34","","NA"
"-81.24","68.78","SANIRAJAK AIRPORT","2402354","2022-11-10 12:00","2022","11","10","12:00","-19.8","","-22.0","","83","","30.5","","32","","34","","16.1","","101.28","","","","-33","","NA"
"-81.24","68.78","SANIRAJAK AIRPORT","2402354","2022-11-10 13:00","2022","11","10","13:00","-19.8","","-22.1","","82","","","M","32","","35","","9.7","","101.28","","","","-33","","Fog"
"-81.24","68.78","SANIRAJAK AIRPORT","2402354","2022-11-10 14:00","2022","11","10","14:00","-19.4","","-21.5","","84","","609.6","","32","","37","","8.1","","101.29","","","","-33","","Fog"
"-81.24","68.78","SANIRAJAK AIRPORT","2402354","2022-11-10 15:00","2022","11","10","15:00","-18.9","","-20.8","","85","","610.3","","32","","43","","3.2","","101.25","","","","-33","","Snow,Blowing Snow"
"-81.24","68.78","SANIRAJAK AIRPORT","2402354","2022-11-10 16:00","2022","11","10","16:00","-18.2","","-20.1","","85","","","M","32","","37","","8.1","","101.28","","","","-31","","Fog"
"-81.24","68.78","SANIRAJAK AIRPORT","2402354","2022-11-10 17:00","2022","11","10","17:00","-17.3","","-19.0","","87","","","M","32","","41","","2.0","","101.28","","","","-31","","Snow,Blowing Snow"
"-81.24","68.78","SANIRAJAK AIRPORT","2402354","2022-11-10 18:00","2022","11","10","18:00","-17.6","","-19.3","","87","","609.6","","32","","46","","2.0","","101.26","","","","-32","","Snow,Blowing Snow"
"-81.24","68.78","SANIRAJAK AIRPORT","2402354","2022-11-10 19:00","2022","11","10","19:00","-17.6","","-19.3","","87","","","M","31","","45","","3.6","","101.26","","","","-32","","Snow,Blowing Snow"
"-81.24","68.78","SANIRAJAK AIRPORT","2402354","2022-11-10 20:00","2022","11","10","20:00","-17.2","","-19.0","","86","","","M","31","","41","","4.8","","101.24","","","","-31","","Snow"
"-81.24","68.78","SANIRAJAK AIRPORT","2402354","2022-11-10 21:00","2022","11","10","21:00","-16.6","","-18.3","","87","","609.6","","32","","37","","6.4","","101.28","","","","-29","","Fog"
"-81.24","68.78","SANIRAJAK AIRPORT","2402354","2022-11-10 22:00","2022","11","10","22:00","-17.0","","-18.8","","86","","609.6","","31","","28","","16.1","","101.28","","","","-28","","NA"
"-81.24","68.78","SANIRAJAK AIRPORT","2402354","2022-11-10 23:00","2022","11","10","23:00","-15.9","","-17.7","","86","","","M","31","","37","","9.7","","101.23","","","","-28","","Fog"
"-81.24","68.78","SANIRAJAK AIRPORT","2402354","2022-11-11 00:00","2022","11","11","00:00","-15.2","","-16.9","","87","","608.8","","32","","39","","8.1","","101.22","","","","-28","","Fog"
"-81.24","68.78","SANIRAJAK AIRPORT","2402354","2022-11-11 01:00","2022","11","11","01:00","-15.6","","-17.3","","87","","609.6","","32","","48","","2.8","","101.23","","","","-29","","Snow,Blowing Snow"
"-81.24","68.78","SANIRAJAK AIRPORT","2402354","2022-11-11 02:00","2022","11","11","02:00","-16.6","","-18.4","","86","","609.6","","31","","32","","9.7","","101.30","","","","-28","","Fog"
"-81.24","68.78","SANIRAJAK AIRPORT","2402354","2022-11-11 03:00","2022","11","11","03:00","-17.3","","-19.0","","87","","610.4","","31","","35","","8.1","","101.27","","","","-30","","Fog"
"-81.24","68.78","SANIRAJAK AIRPORT","2402354","2022-11-11 04:00","2022","11","11","04:00","-16.7","","-18.3","","88","","","M","31","","35","","12.9","","101.32","","","","-29","","NA"
"-81.24","68.78","SANIRAJAK AIRPORT","2402354","2022-11-11 05:00","2022","11","11","05:00","-16.1","","-18.1","","85","","","M","29","","28","","16.1","","101.37","","","","-27","","NA"
"-81.24","68.78","SANIRAJAK AIRPORT","2402354","2022-11-11 06:00","2022","11","11","06:00","-15.7","","-17.2","","89","","","M","31","","32","","14.5","","101.36","","","","-27","","NA"
"-81.24","68.78","SANIRAJAK AIRPORT","2402354","2022-11-11 07:00","2022","11","11","07:00","-15.4","","-16.7","","90","","","M","32","","46","","1.6","","101.35","","","","-29","","Snow,Blowing Snow"
"-81.24","68.78","SANIRAJAK AIRPORT","2402354","2022-11-11 08:00","2022","11","11","08:00","-15.4","","-16.8","","89","","609.6","","32","","52","","1.6","","101.35","","","","-29","","Snow,Blowing Snow"
"-81.24","68.78","SANIRAJAK AIRPORT","2402354","2022-11-11 09:00","2022","11","11","09:00","-16.4","","-18.0","","88","","609.6","","30","","43","","2.4","","101.35","","","","-30","","Snow,Blowing Snow"
"-81.24","68.78","SANIRAJAK AIRPORT","2402354","2022-11-11 10:00","2022","11","11","10:00","-16.5","","-18.2","","87","","608.8","","32","","45","","4.8","","101.34","","","","-30","","Snow"
"-81.24","68.78","SANIRAJAK AIRPORT","2402354","2022-11-11 11:00","2022","11","11","11:00","-16.4","","-18.1","","87","","610.4","","32","","41","","6.4","","101.33","","","","-29","","Fog"
"-81.24","68.78","SANIRAJAK AIRPORT","2402354","2022-11-11 12:00","2022","11","11","12:00","-16.9","","-18.7","","86","","","M","32","","32","","16.1","","101.35","","","","-29","","NA"
"-81.24","68.78","SANIRAJAK AIRPORT","2402354","2022-11-11 13:00","2022","11","11","13:00","-16.8","","-18.5","","87","","","M","32","","34","","9.7","","101.35","","","","-29","","Fog"
"-81.24","68.78","SANIRAJAK AIRPORT","2402354","2022-11-11 14:00","2022","11","11","14:00","-15.3","","-17.0","","87","","","M","30","","32","","16.1","","101.37","","","","-27","","NA"
"-81.24","68.78","SANIRAJAK AIRPORT","2402354","2022-11-11 15:00","2022","11","11","15:00","-15.4","","-17.2","","86","","","M","31","","34","","14.5","","101.37","","","","-27","","NA"
"-81.24","68.78","SANIRAJAK AIRPORT","2402354","2022-11-11 16:00","2022","11","11","16:00","-16.6","","-18.4","","86","","609.6","","30","","30","","16.1","","101.39","","","","-28","","NA"
"-81.24","68.78","SANIRAJAK AIRPORT","2402354","2022-11-11 17:00","2022","11","11","17:00","-16.4","","-18.2","","86","","609.6","","30","","32","","16.1","","101.37","","","","-28","","NA"
"-81.24","68.78","SANIRAJAK AIRPORT","2402354","2022-11-11 18:00","2022","11","11","18:00","-15.7","","-17.7","","85","","608.8","","30","","32","","16.1","","101.35","","","","-27","","NA"
"-81.24","68.78","SANIRAJAK AIRPORT","2402354","2022-11-11 19:00","2022","11","11","19:00","-15.4","","-17.2","","86","","","M","31","","41","","11.3","","101.32","","","","-28","","NA"
"-81.24","68.78","SANIRAJAK AIRPORT","2402354","2022-11-11 20:00","2022","11","11","20:00","-15.2","","-17.2","","85","","609.6","","30","","24","","16.1","","101.33","","","","-25","","NA"
"-81.24","68.78","SANIRAJAK AIRPORT","2402354","2022-11-11 21:00","2022","11","11","21:00","-15.1","","-16.9","","86","","609.6","","31","","30","","16.1","","101.26","","","","-26","","NA"
"-81.24","68.78","SANIRAJAK AIRPORT","2402354","2022-11-11 22:00","2022","11","11","22:00","-15.1","","-17.0","","85","","608.8","","31","","26","","16.1","","101.24","","","","-25","","NA"
"-81.24","68.78","SANIRAJAK AIRPORT","2402354","2022-11-11 23:00","2022","11","11","23:00","-15.5","","-17.2","","87","","","M","31","","11","","16.1","","101.20","","","","-22","","NA"
"-81.24","68.78","SANIRAJAK AIRPORT","2402354","2022-11-12 00:00","2022","11","12","00:00","-16.0","","-17.8","","86","","","M","28","","13","","16.1","","101.15","","","","-24","","NA"
"-81.24","68.78","SANIRAJAK AIRPORT","2402354","2022-11-12 01:00","2022","11","12","01:00","-16.3","","-18.0","","87","","","M","31","","18","","16.1","","101.10","","","","-25","","NA"
"-81.24","68.78","SANIRAJAK AIRPORT","2402354","2022-11-12 02:00","2022","11","12","02:00","-14.6","","-16.7","","84","","608.8","","32","","34","","16.1","","101.04","","","","-26","","NA"
"-81.24","68.78","SANIRAJAK AIRPORT","2402354","2022-11-12 03:00","2022","11","12","03:00","-14.2","","-16.5","","83","","","M","30","","17","","16.1","","101.08","","","","-22","","NA"
"-81.24","68.78","SANIRAJAK AIRPORT","2402354","2022-11-12 04:00","2022","11","12","04:00","-14.2","","-16.1","","86","","610.4","","25","","17","","16.1","","101.08","","","","-22","","NA"
"-81.24","68.78","SANIRAJAK AIRPORT","2402354","2022-11-12 05:00","2022","11","12","05:00","-14.8","","-16.4","","88","","","M","26","","13","","12.9","","101.03","","","","-22","","NA"
"-81.24","68.78","SANIRAJAK AIRPORT","2402354","2022-11-12 06:00","2022","11","12","06:00","-14.4","","-16.1","","87","","609.6","","19","","5","","16.1","","101.03","","","","-18","","NA"
"-81.24","68.78","SANIRAJAK AIRPORT","2402354","2022-11-12 07:00","2022","11","12","07:00","-13.9","","-15.6","","87","","","M","21","","9","","16.1","","100.95","","","","-20","","NA"
"-81.24","68.78","SANIRAJAK AIRPORT","2402354","2022-11-12 08:00","2022","11","12","08:00","-13.3","","-15.9","","81","","610.4","","22","","9","","16.1","","100.92","","","","-19","","NA"
"-81.24","68.78","SANIRAJAK AIRPORT","2402354","2022-11-12 09:00","2022","11","12","09:00","-13.7","","-15.9","","84","","","M","22","","8","","16.1","","100.88","","","","-19","","NA"
"-81.24","68.78","SANIRAJAK AIRPORT","2402354","2022-11-12 10:00","2022","11","12","10:00","-13.6","","-16.2","","81","","609.6","","22","","9","","16.1","","100.86","","","","-19","","NA"
"-81.24","68.78","SANIRAJAK AIRPORT","2402354","2022-11-12 11:00","2022","11","12","11:00","-13.3","","-15.6","","83","","609.6","","22","","11","","16.1","","100.78","","","","-20","","NA"
"-81.24","68.78","SANIRAJAK AIRPORT","2402354","2022-11-12 12:00","2022","11","12","12:00","-13.0","","-15.0","","85","","","M","","M","4","","16.1","","100.78","","","","-16","","NA"
"-81.24","68.78","SANIRAJAK AIRPORT","2402354","2022-11-12 13:00","2022","11","12","13:00","-12.7","","-14.3","","88","","609.6","","23","","11","","11.3","","100.73","","","","-19","","Snow"
"-81.24","68.78","SANIRAJAK AIRPORT","2402354","2022-11-12 14:00","2022","11","12","14:00","-12.8","","-15.0","","84","","608.8","","22","","8","","16.1","","100.65","","","","-18","","Snow"
"-81.24","68.78","SANIRAJAK AIRPORT","2402354","2022-11-12 15:00","2022","11","12","15:00","-12.5","","-15.0","","82","","","M","25","","8","","12.9","","100.62","","","","-17","","Snow"
"-81.24","68.78","SANIRAJAK AIRPORT","2402354","2022-11-12 16:00","2022","11","12","16:00","-12.8","","-13.4","","95","","","M","24","","8","","2.4","","100.58","","","","-18","","Snow"
"-81.24","68.78","SANIRAJAK AIRPORT","2402354","2022-11-12 17:00","2022","11","12","17:00","-12.9","","-13.3","","97","","","M","26","","8","","9.7","","100.55","","","","-18","","Snow"
"-81.24","68.78","SANIRAJAK AIRPORT","2402354","2022-11-12 18:00","2022","11","12","18:00","-12.7","","-13.2","","96","","608.8","","25","","9","","2.4","","100.51","","","","-18","","Snow"
"-81.24","68.78","SANIRAJAK AIRPORT","2402354","2022-11-12 19:00","2022","11","12","19:00","-12.7","","-13.3","","95","","","M","27","","15","","4.0","","100.45","","","","-20","","Snow"
"-81.24","68.78","SANIRAJAK AIRPORT","2402354","2022-11-12 20:00","2022","11","12","20:00","-13.3","","-14.5","","91","","","M","29","","15","","16.1","","100.41","","","","-21","","Snow"
"-81.24","68.78","SANIRAJAK AIRPORT","2402354","2022-11-12 21:00","2022","11","12","21:00","-13.3","","-14.3","","92","","","M","30","","15","","11.3","","100.37","","","","-21","","Snow"
"-81.24","68.78","SANIRAJAK AIRPORT","2402354","2022-11-12 22:00","2022","11","12","22:00","-13.9","","-15.2","","90","","609.6","","31","","18","","9.7","","100.35","","","","-22","","Snow"
"-81.24","68.78","SANIRAJAK AIRPORT","2402354","2022-11-12 23:00","2022","11","12","23:00","-15.5","","-16.7","","91","","608.1","","32","","15","","12.9","","100.34","","","","-24","","Snow"
"-81.24","68.78","SANIRAJAK AIRPORT","2402354","2022-11-13 00:00","2022","11","13","00:00","-14.6","","-15.5","","93","","","M","31","","13","","9.7","","100.33","","","","-22","","Snow"
"-81.24","68.78","SANIRAJAK AIRPORT","2402354","2022-11-13 01:00","2022","11","13","01:00","-14.6","","-15.6","","92","","608.8","","32","","8","","16.1","","100.30","","","","-20","","NA"
"-81.24","68.78","SANIRAJAK AIRPORT","2402354","2022-11-13 02:00","2022","11","13","02:00","-16.4","","-17.2","","94","","","M","30","","9","","16.1","","100.31","","","","-22","","NA"
"-81.24","68.78","SANIRAJAK AIRPORT","2402354","2022-11-13 03:00","2022","11","13","03:00","-17.1","","-17.3","","98","","609.6","","30","","15","","16.1","","100.34","","","","-26","","NA"
"-81.24","68.78","SANIRAJAK AIRPORT","2402354","2022-11-13 04:00","2022","11","13","04:00","-17.0","","-18.4","","89","","608.6","","30","","13","","16.1","","100.36","","","","-25","","NA"
"-81.24","68.78","SANIRAJAK AIRPORT","2402354","2022-11-13 05:00","2022","11","13","05:00","-18.1","","-19.2","","91","","","M","32","","18","","16.1","","100.37","","","","-28","","Snow"
"-81.24","68.78","SANIRAJAK AIRPORT","2402354","2022-11-13 06:00","2022","11","13","06:00","-16.3","","-17.3","","92","","","M","33","","18","","9.7","","100.38","","","","-25","","Snow"
"-81.24","68.78","SANIRAJAK AIRPORT","2402354","2022-11-13 07:00","2022","11","13","07:00","-16.4","","-17.8","","89","","","M","32","","21","","11.3","","100.45","","","","-26","","Snow"
"-81.24","68.78","SANIRAJAK AIRPORT","2402354","2022-11-13 08:00","2022","11","13","08:00","-16.7","","-18.0","","90","","608.6","","31","","18","","16.1","","100.49","","","","-26","","NA"
"-81.24","68.78","SANIRAJAK AIRPORT","2402354","2022-11-13 09:00","2022","11","13","09:00","-15.1","","-16.3","","91","","","M","32","","24","","11.3","","100.51","","","","-25","","Snow"
"-81.24","68.78","SANIRAJAK AIRPORT","2402354","2022-11-13 10:00","2022","11","13","10:00","-13.2","","-13.4","","98","","","M","35","","22","","4.0","","100.54","","","","-22","","Snow"
"-81.24","68.78","SANIRAJAK AIRPORT","2402354","2022-11-13 11:00","2022","11","13","11:00","-12.2","","-13.9","","87","","","M","2","","28","","8.1","","100.61","","","","-22","","Snow"
"-81.24","68.78","SANIRAJAK AIRPORT","2402354","2022-11-13 12:00","2022","11","13","12:00","-11.9","","-13.9","","85","","","M","2","","26","","6.4","","100.67","","","","-21","","Snow"
"-81.24","68.78","SANIRAJAK AIRPORT","2402354","2022-11-13 13:00","2022","11","13","13:00","-11.6","","-14.1","","82","","610.6","","2","","28","","6.4","","100.77","","","","-21","","Snow"
"-81.24","68.78","SANIRAJAK AIRPORT","2402354","2022-11-13 14:00","2022","11","13","14:00","-12.8","","-13.4","","95","","","M","34","","34","","1.0","","100.87","","","","-24","","Snow"
"-81.24","68.78","SANIRAJAK AIRPORT","2402354","2022-11-13 15:00","2022","11","13","15:00","-14.0","","-14.6","","95","","","M","34","","39","","0.6","","100.99","","","","-26","","Moderate Snow,Blowing Snow"
"-81.24","68.78","SANIRAJAK AIRPORT","2402354","2022-11-13 16:00","2022","11","13","16:00","-14.3","","-15.3","","92","","608.6","","35","","35","","2.4","","101.08","","","","-26","","Snow"
"-81.24","68.78","SANIRAJAK AIRPORT","2402354","2022-11-13 17:00","2022","11","13","17:00","-15.4","","-16.7","","90","","","M","34","","35","","2.0","","101.14","","","","-27","","Snow"
"-81.24","68.78","SANIRAJAK AIRPORT","2402354","2022-11-13 18:00","2022","11","13","18:00","-16.6","","-18.0","","89","","","M","35","","34","","4.8","","101.22","","","","-29","","Fog"
"-81.24","68.78","SANIRAJAK AIRPORT","2402354","2022-11-13 19:00","2022","11","13","19:00","-16.3","","-17.9","","88","","609.6","","35","","32","","6.4","","101.26","","","","-28","","Snow"
"-81.24","68.78","SANIRAJAK AIRPORT","2402354","2022-11-13 20:00","2022","11","13","20:00","-18.7","","-20.5","","86","","609.6","","33","","30","","9.7","","101.34","","","","-31","","Fog"
"-81.24","68.78","SANIRAJAK AIRPORT","2402354","2022-11-13 21:00","2022","11","13","21:00","-17.9","","-19.6","","87","","","M","34","","34","","8.1","","101.39","","","","-30","","Fog"
"-81.24","68.78","SANIRAJAK AIRPORT","2402354","2022-11-13 22:00","2022","11","13","22:00","-20.5","","-22.5","","84","","345.4","","33","","30","","16.1","","101.43","","","","-33","","NA"
"-81.24","68.78","SANIRAJAK AIRPORT","2402354","2022-11-13 23:00","2022","11","13","23:00","-21.5","","-23.7","","83","","0.0","","32","","24","","16.1","","101.46","","","","-33","","NA"
"-81.24","68.78","SANIRAJAK AIRPORT","2402354","2022-11-14 00:00","2022","11","14","00:00","-20.9","","-23.2","","82","","0.0","","31","","26","","16.1","","101.51","","","","-33","","NA"
"-81.24","68.78","SANIRAJAK AIRPORT","2402354","2022-11-14 01:00","2022","11","14","01:00","-22.4","","-24.8","","81","","0.0","","32","","30","","16.1","","101.51","","","","-36","","NA"
"-81.24","68.78","SANIRAJAK AIRPORT","2402354","2022-11-14 02:00","2022","11","14","02:00","-22.7","","-25.1","","81","","0.0","","29","","22","","16.1","","101.58","","","","-34","","NA"
"-81.24","68.78","SANIRAJAK AIRPORT","2402354","2022-11-14 03:00","2022","11","14","03:00","-23.0","","-25.6","","80","","0.0","","31","","22","","16.1","","101.61","","","","-35","","NA"
"-81.24","68.78","SANIRAJAK AIRPORT","2402354","2022-11-14 04:00","2022","11","14","04:00","-22.9","","-25.3","","81","","0.0","","31","","26","","16.1","","101.62","","","","-36","","NA"
"-81.24","68.78","SANIRAJAK AIRPORT","2402354","2022-11-14 05:00","2022","11","14","05:00","-23.0","","-25.3","","82","","0.0","","32","","32","","16.1","","101.65","","","","-37","","NA"
"-81.24","68.78","SANIRAJAK AIRPORT","2402354","2022-11-14 06:00","2022","11","14","06:00","-23.0","","-25.3","","82","","0.0","","32","","32","","16.1","","101.66","","","","-37","","NA"
"-81.24","68.78","SANIRAJAK AIRPORT","2402354","2022-11-14 07:00","2022","11","14","07:00","-23.3","","-25.6","","82","","0.0","","32","","28","","16.1","","101.67","","","","-36","","NA"
"-81.24","68.78","SANIRAJAK AIRPORT","2402354","2022-11-14 08:00","2022","11","14","08:00","-24.2","","-26.6","","81","","0.0","","31","","26","","16.1","","101.69","","","","-37","","NA"
"-81.24","68.78","SANIRAJAK AIRPORT","2402354","2022-11-14 09:00","2022","11","14","09:00","-23.8","","-26.2","","81","","0.0","","33","","24","","16.1","","101.68","","","","-36","","NA"
"-81.24","68.78","SANIRAJAK AIRPORT","2402354","2022-11-14 10:00","2022","11","14","10:00","-23.4","","-25.8","","81","","0.0","","33","","21","","16.1","","101.66","","","","-35","","NA"
"-81.24","68.78","SANIRAJAK AIRPORT","2402354","2022-11-14 11:00","2022","11","14","11:00","-23.5","","-26.0","","80","","0.0","","31","","24","","16.1","","101.67","","","","-36","","NA"
"-81.24","68.78","SANIRAJAK AIRPORT","2402354","2022-11-14 12:00","2022","11","14","12:00","-23.6","","-26.1","","80","","0.0","","32","","24","","16.1","","101.67","","","","-36","","NA"
"-81.24","68.78","SANIRAJAK AIRPORT","2402354","2022-11-14 13:00","2022","11","14","13:00","-23.2","","-25.8","","80","","0.0","","31","","17","","16.1","","101.70","","","","-34","","NA"
"-81.24","68.78","SANIRAJAK AIRPORT","2402354","2022-11-14 14:00","2022","11","14","14:00","-24.3","","-26.8","","80","","0.0","","31","","28","","16.1","","101.69","","","","-38","","NA"
"-81.24","68.78","SANIRAJAK AIRPORT","2402354","2022-11-14 15:00","2022","11","14","15:00","-23.7","","-26.2","","80","","0.0","","31","","24","","16.1","","101.69","","","","-36","","NA"
"-81.24","68.78","SANIRAJAK AIRPORT","2402354","2022-11-14 16:00","2022","11","14","16:00","-23.7","","-26.2","","80","","0.0","","32","","28","","16.1","","101.68","","","","-37","","NA"
"-81.24","68.78","SANIRAJAK AIRPORT","2402354","2022-11-14 17:00","2022","11","14","17:00","-24.0","","-26.7","","79","","0.0","","31","","22","","16.1","","101.71","","","","-36","","NA"
"-81.24","68.78","SANIRAJAK AIRPORT","2402354","2022-11-14 18:00","2022","11","14","18:00","-24.2","","-26.9","","79","","0.0","","32","","26","","16.1","","101.68","","","","-37","","NA"
"-81.24","68.78","SANIRAJAK AIRPORT","2402354","2022-11-14 19:00","2022","11","14","19:00","-25.0","","-27.7","","79","","0.0","","31","","22","","16.1","","101.66","","","","-37","","NA"
"-81.24","68.78","SANIRAJAK AIRPORT","2402354","2022-11-14 20:00","2022","11","14","20:00","-24.5","","-27.1","","79","","0.0","","32","","26","","16.1","","101.62","","","","-38","","NA"
"-81.24","68.78","SANIRAJAK AIRPORT","2402354","2022-11-14 21:00","2022","11","14","21:00","-24.6","","-27.3","","79","","0.0","","31","","26","","16.1","","101.60","","","","-38","","NA"
"-81.24","68.78","SANIRAJAK AIRPORT","2402354","2022-11-14 22:00","2022","11","14","22:00","-24.5","","-27.0","","80","","0.0","","31","","22","","16.1","","101.62","","","","-37","","NA"
"-81.24","68.78","SANIRAJAK AIRPORT","2402354","2022-11-14 23:00","2022","11","14","23:00","-23.9","","-26.3","","81","","0.0","","31","","28","","16.1","","101.61","","","","-37","","NA"
"-81.24","68.78","SANIRAJAK AIRPORT","2402354","2022-11-15 00:00","2022","11","15","00:00","-24.0","","-26.4","","81","","0.0","","31","","26","","16.1","","101.62","","","","-37","","NA"
"-81.24","68.78","SANIRAJAK AIRPORT","2402354","2022-11-15 01:00","2022","11","15","01:00","-23.6","","-25.9","","82","","0.0","","30","","34","","11.3","","101.62","","","","-38","","NA"
"-81.24","68.78","SANIRAJAK AIRPORT","2402354","2022-11-15 02:00","2022","11","15","02:00","-22.6","","-24.7","","83","","0.0","","30","","34","","6.4","","101.62","","","","-37","","Fog"
"-81.24","68.78","SANIRAJAK AIRPORT","2402354","2022-11-15 03:00","2022","11","15","03:00","-21.6","","-23.8","","83","","0.0","","31","","37","","4.0","","101.66","","","","-36","","Fog"
"-81.24","68.78","SANIRAJAK AIRPORT","2402354","2022-11-15 04:00","2022","11","15","04:00","-22.9","","-25.2","","82","","0.0","","31","","30","","16.1","","101.68","","","","-36","","NA"
"-81.24","68.78","SANIRAJAK AIRPORT","2402354","2022-11-15 05:00","2022","11","15","05:00","-23.4","","-25.8","","81","","0.0","","31","","28","","16.1","","101.67","","","","-37","","NA"
"-81.24","68.78","SANIRAJAK AIRPORT","2402354","2022-11-15 06:00","2022","11","15","06:00","-23.1","","-25.4","","82","","0.0","","31","","32","","16.1","","101.67","","","","-37","","NA"
"-81.24","68.78","SANIRAJAK AIRPORT","2402354","2022-11-15 07:00","2022","11","15","07:00","-23.3","","-25.6","","82","","0.0","","31","","18","","16.1","","101.73","","","","-34","","NA"
"-81.24","68.78","SANIRAJAK AIRPORT","2402354","2022-11-15 08:00","2022","11","15","08:00","-22.7","","-25.1","","81","","0.0","","31","","28","","16.1","","101.76","","","","-36","","NA"
"-81.24","68.78","SANIRAJAK AIRPORT","2402354","2022-11-15 09:00","2022","11","15","09:00","-22.5","","-24.8","","82","","0.0","","31","","28","","16.1","","101.77","","","","-35","","NA"
"-81.24","68.78","SANIRAJAK AIRPORT","2402354","2022-11-15 10:00","2022","11","15","10:00","-22.5","","-24.9","","81","","0.0","","31","","28","","16.1","","101.78","","","","-35","","NA"
"-81.24","68.78","SANIRAJAK AIRPORT","2402354","2022-11-15 11:00","2022","11","15","11:00","-22.1","","-24.5","","81","","0.0","","32","","35","","12.9","","101.78","","","","-36","","NA"
"-81.24","68.78","SANIRAJAK AIRPORT","2402354","2022-11-15 12:00","2022","11","15","12:00","-21.4","","-23.7","","82","","0.0","","32","","35","","8.1","","101.80","","","","-35","","Haze"
"-81.24","68.78","SANIRAJAK AIRPORT","2402354","2022-11-15 13:00","2022","11","15","13:00","-21.1","","-23.3","","83","","0.0","","31","","32","","8.1","","101.83","","","","-34","","Fog"
"-81.24","68.78","SANIRAJAK AIRPORT","2402354","2022-11-15 14:00","2022","11","15","14:00","-20.5","","-22.5","","84","","0.0","","32","","37","","9.7","","101.83","","","","-34","","Fog"
"-81.24","68.78","SANIRAJAK AIRPORT","2402354","2022-11-15 15:00","2022","11","15","15:00","-19.8","","-21.9","","84","","90.7","","32","","35","","16.1","","101.84","","","","-33","","NA"
"-81.24","68.78","SANIRAJAK AIRPORT","2402354","2022-11-15 16:00","2022","11","15","16:00","-19.6","","-21.8","","83","","610.3","","31","","32","","16.1","","101.89","","","","-32","","NA"
"-81.24","68.78","SANIRAJAK AIRPORT","2402354","2022-11-15 17:00","2022","11","15","17:00","-19.7","","-21.9","","83","","","M","31","","32","","16.1","","101.90","","","","-33","","NA"
"-81.24","68.78","SANIRAJAK AIRPORT","2402354","2022-11-15 18:00","2022","11","15","18:00","-19.8","","-22.0","","83","","","M","31","","26","","16.1","","101.95","","","","-32","","NA"
"-81.24","68.78","SANIRAJAK AIRPORT","2402354","2022-11-15 19:00","2022","11","15","19:00","-19.1","","-21.2","","84","","","M","30","","26","","16.1","","101.93","","","","-31","","NA"
"-81.24","68.78","SANIRAJAK AIRPORT","2402354","2022-11-15 20:00","2022","11","15","20:00","-17.8","","-19.9","","84","","610.4","","31","","24","","16.1","","101.92","","","","-29","","NA"
"-81.24","68.78","SANIRAJAK AIRPORT","2402354","2022-11-15 21:00","2022","11","15","21:00","-18.3","","-20.2","","85","","608.8","","31","","26","","16.1","","101.89","","","","-30","","NA"
"-81.24","68.78","SANIRAJAK AIRPORT","2402354","2022-11-15 22:00","2022","11","15","22:00","-18.8","","-20.7","","86","","","M","31","","26","","16.1","","101.86","","","","-30","","NA"
"-81.24","68.78","SANIRAJAK AIRPORT","2402354","2022-11-15 23:00","2022","11","15","23:00","-18.2","","-20.0","","86","","607.0","","31","","24","","16.1","","101.86","","","","-29","","NA"
"-81.24","68.78","SANIRAJAK AIRPORT","2402354","2022-11-16 00:00","2022","11","16","00:00","-17.3","","-19.4","","84","","","M","31","","35","","16.1","","101.91","","","","-30","","Snow"
"-81.24","68.78","SANIRAJAK AIRPORT","2402354","2022-11-16 01:00","2022","11","16","01:00","-19.2","","-21.3","","84","","609.6","","31","","28","","16.1","","101.92","","","","-31","","NA"
"-81.24","68.78","SANIRAJAK AIRPORT","2402354","2022-11-16 02:00","2022","11","16","02:00","-18.2","","-20.1","","85","","","M","30","","21","","16.1","","101.92","","","","-28","","NA"
"-81.24","68.78","SANIRAJAK AIRPORT","2402354","2022-11-16 03:00","2022","11","16","03:00","-16.5","","-18.5","","85","","609.6","","30","","24","","16.1","","101.91","","","","-27","","Snow"
"-81.24","68.78","SANIRAJAK AIRPORT","2402354","2022-11-16 04:00","2022","11","16","04:00","-16.4","","-18.1","","87","","","M","32","","32","","6.4","","101.87","","","","-28","","Snow"
"-81.24","68.78","SANIRAJAK AIRPORT","2402354","2022-11-16 05:00","2022","11","16","05:00","-16.5","","-18.2","","87","","609.6","","32","","34","","4.8","","101.83","","","","-29","","Snow"
"-81.24","68.78","SANIRAJAK AIRPORT","2402354","2022-11-16 06:00","2022","11","16","06:00","-16.6","","-18.2","","88","","609.6","","31","","43","","2.4","","101.79","","","","-30","","Snow,Blowing Snow"
"-81.24","68.78","SANIRAJAK AIRPORT","2402354","2022-11-16 07:00","2022","11","16","07:00","-17.1","","-18.8","","87","","","M","31","","30","","11.3","","101.84","","","","-29","","NA"
"-81.24","68.78","SANIRAJAK AIRPORT","2402354","2022-11-16 08:00","2022","11","16","08:00","-18.0","","-20.1","","84","","609.6","","32","","28","","16.1","","101.86","","","","-30","","NA"
"-81.24","68.78","SANIRAJAK AIRPORT","2402354","2022-11-16 09:00","2022","11","16","09:00","-19.2","","-21.4","","83","","","M","33","","34","","16.1","","101.85","","","","-32","","NA"
"-81.24","68.78","SANIRAJAK AIRPORT","2402354","2022-11-16 10:00","2022","11","16","10:00","-20.4","","-22.7","","82","","386.1","","33","","35","","14.5","","101.87","","","","-34","","NA"
"-81.24","68.78","SANIRAJAK AIRPORT","2402354","2022-11-16 11:00","2022","11","16","11:00","-21.2","","-23.8","","80","","0.0","","30","","11","","16.1","","101.90","","","","-29","","NA"
"-81.24","68.78","SANIRAJAK AIRPORT","2402354","2022-11-16 12:00","2022","11","16","12:00","-21.7","","-24.0","","82","","0.0","","33","","24","","16.1","","101.88","","","","-34","","NA"
"-81.24","68.78","SANIRAJAK AIRPORT","2402354","2022-11-16 13:00","2022","11","16","13:00","-22.9","","-25.3","","81","","0.0","","32","","30","","16.1","","101.85","","","","-36","","NA"
"-81.24","68.78","SANIRAJAK AIRPORT","2402354","2022-11-16 14:00","2022","11","16","14:00","-22.7","","-25.1","","81","","0.0","","32","","43","","4.8","","101.81","","","","-38","","Fog"
"-81.24","68.78","SANIRAJAK AIRPORT","2402354","2022-11-16 15:00","2022","11","16","15:00","-22.9","","-25.3","","81","","0.0","","32","","39","","16.1","","101.83","","","","-38","","NA"
"-81.24","68.78","SANIRAJAK AIRPORT","2402354","2022-11-16 16:00","2022","11","16","16:00","-22.6","","-24.9","","82","","0.0","","32","","48","","4.0","","101.75","","","","-39","","Blowing Snow"
"-81.24","68.78","SANIRAJAK AIRPORT","2402354","2022-11-16 17:00","2022","11","16","17:00","-22.7","","-25.1","","81","","0.0","","32","","28","","16.1","","101.84","","","","-36","","NA"
"-81.24","68.78","SANIRAJAK AIRPORT","2402354","2022-11-16 18:00","2022","11","16","18:00","-22.4","","-24.8","","81","","0.0","","32","","32","","16.1","","101.81","","","","-36","","NA"
"-81.24","68.78","SANIRAJAK AIRPORT","2402354","2022-11-16 19:00","2022","11","16","19:00","-23.2","","-25.6","","81","","0.0","","32","","30","","16.1","","101.75","","","","-37","","NA"
"-81.24","68.78","SANIRAJAK AIRPORT","2402354","2022-11-16 20:00","2022","11","16","20:00","-23.2","","-25.6","","81","","0.0","","32","","24","","16.1","","101.76","","","","-36","","NA"
"-81.24","68.78","SANIRAJAK AIRPORT","2402354","2022-11-16 21:00","2022","11","16","21:00","-23.3","","-25.7","","81","","0.0","","32","","32","","16.1","","101.71","","","","-37","","NA"
"-81.24","68.78","SANIRAJAK AIRPORT","2402354","2022-11-16 22:00","2022","11","16","22:00","-23.1","","-25.4","","82","","0.0","","32","","35","","16.1","","101.65","","","","-37","","NA"
"-81.24","68.78","SANIRAJAK AIRPORT","2402354","2022-11-16 23:00","2022","11","16","23:00","-22.4","","-24.6","","82","","0.0","","32","","35","","16.1","","101.59","","","","-37","","NA"
"-81.24","68.78","SANIRAJAK AIRPORT","2402354","2022-11-17 00:00","2022","11","17","00:00","-21.8","","-24.0","","83","","0.0","","33","","30","","16.1","","101.52","","","","-35","","NA"
"-81.24","68.78","SANIRAJAK AIRPORT","2402354","2022-11-17 01:00","2022","11","17","01:00","-20.5","","-22.7","","83","","0.0","","33","","30","","16.1","","101.51","","","","-33","","NA"
"-81.24","68.78","SANIRAJAK AIRPORT","2402354","2022-11-17 02:00","2022","11","17","02:00","-19.4","","-21.5","","84","","405.6","","32","","30","","16.1","","101.46","","","","-32","","NA"
"-81.24","68.78","SANIRAJAK AIRPORT","2402354","2022-11-17 03:00","2022","11","17","03:00","-19.0","","-21.1","","84","","","M","31","","26","","16.1","","101.43","","","","-31","","NA"
"-81.24","68.78","SANIRAJAK AIRPORT","2402354","2022-11-17 04:00","2022","11","17","04:00","-20.7","","-22.9","","83","","375.9","","31","","30","","16.1","","101.39","","","","-33","","NA"
"-81.24","68.78","SANIRAJAK AIRPORT","2402354","2022-11-17 05:00","2022","11","17","05:00","-22.3","","-24.6","","82","","0.0","","31","","32","","16.1","","101.32","","","","-36","","NA"
"-81.24","68.78","SANIRAJAK AIRPORT","2402354","2022-11-17 06:00","2022","11","17","06:00","-22.6","","-25.0","","81","","0.0","","32","","32","","16.1","","101.28","","","","-36","","NA"
"-81.24","68.78","SANIRAJAK AIRPORT","2402354","2022-11-17 07:00","2022","11","17","07:00","-22.9","","-25.3","","81","","0.0","","31","","28","","16.1","","101.20","","","","-36","","NA"
"-81.24","68.78","SANIRAJAK AIRPORT","2402354","2022-11-17 08:00","2022","11","17","08:00","-24.2","","-26.6","","81","","0.0","","31","","26","","16.1","","101.16","","","","-37","","NA"
"-81.24","68.78","SANIRAJAK AIRPORT","2402354","2022-11-17 09:00","2022","11","17","09:00","-24.0","","-26.4","","81","","0.0","","32","","28","","16.1","","101.09","","","","-37","","NA"
"-81.24","68.78","SANIRAJAK AIRPORT","2402354","2022-11-17 10:00","2022","11","17","10:00","-24.0","","-26.4","","81","","0.0","","31","","26","","16.1","","101.04","","","","-37","","NA"
"-81.24","68.78","SANIRAJAK AIRPORT","2402354","2022-11-17 11:00","2022","11","17","11:00","-24.8","","-27.3","","80","","0.0","","31","","24","","16.1","","100.96","","","","-38","","NA"
"-81.24","68.78","SANIRAJAK AIRPORT","2402354","2022-11-17 12:00","2022","11","17","12:00","-23.1","","-25.4","","82","","0.0","","32","","24","","16.1","","100.92","","","","-35","","NA"
"-81.24","68.78","SANIRAJAK AIRPORT","2402354","2022-11-17 13:00","2022","11","17","13:00","-21.6","","-23.8","","83","","0.0","","31","","26","","16.1","","100.89","","","","-34","","NA"
"-81.24","68.78","SANIRAJAK AIRPORT","2402354","2022-11-17 14:00","2022","11","17","14:00","-21.0","","-23.0","","85","","0.0","","31","","21","","16.1","","100.85","","","","-32","","NA"
"-81.24","68.78","SANIRAJAK AIRPORT","2402354","2022-11-17 15:00","2022","11","17","15:00","-20.5","","-22.3","","86","","0.0","","32","","24","","16.1","","100.80","","","","-32","","NA"
"-81.24","68.78","SANIRAJAK AIRPORT","2402354","2022-11-17 16:00","2022","11","17","16:00","-19.9","","-21.4","","88","","50.8","","31","","21","","11.3","","100.78","","","","-31","","NA"
"-81.24","68.78","SANIRAJAK AIRPORT","2402354","2022-11-17 17:00","2022","11","17","17:00","-19.8","","-21.6","","86","","609.6","","31","","24","","2.0","","100.75","","","","-31","","Snow"
"-81.24","68.78","SANIRAJAK AIRPORT","2402354","2022-11-17 18:00","2022","11","17","18:00","-19.5","","-21.3","","86","","609.6","","31","","21","","2.0","","100.71","","","","-30","","Snow"
"-81.24","68.78","SANIRAJAK AIRPORT","2402354","2022-11-17 19:00","2022","11","17","19:00","-19.7","","-21.4","","87","","","M","32","","22","","4.0","","100.69","","","","-31","","Snow"
"-81.24","68.78","SANIRAJAK AIRPORT","2402354","2022-11-17 20:00","2022","11","17","20:00","-20.0","","-21.8","","86","","","M","32","","22","","4.0","","100.67","","","","-31","","Snow"
"-81.24","68.78","SANIRAJAK AIRPORT","2402354","2022-11-17 21:00","2022","11","17","21:00","-19.7","","-21.5","","86","","","M","32","","26","","4.0","","100.64","","","","-31","","Snow"
"-81.24","68.78","SANIRAJAK AIRPORT","2402354","2022-11-17 22:00","2022","11","17","22:00","-18.7","","-20.2","","88","","609.6","","33","","24","","2.4","","100.62","","","","-30","","Snow"
"-81.24","68.78","SANIRAJAK AIRPORT","2402354","2022-11-17 23:00","2022","11","17","23:00","-16.9","","-18.7","","86","","","M","1","","22","","9.7","","100.62","","","","-27","","Snow"
"-81.24","68.78","SANIRAJAK AIRPORT","2402354","2022-11-18 00:00","2022","11","18","00:00","-17.5","","-19.1","","88","","610.6","","2","","22","","8.1","","100.59","","","","-28","","Snow"
"-81.24","68.78","SANIRAJAK AIRPORT","2402354","2022-11-18 01:00","2022","11","18","01:00","-17.4","","-18.4","","92","","","M","2","","18","","12.9","","100.59","","","","-27","","Snow"
"-81.24","68.78","SANIRAJAK AIRPORT","2402354","2022-11-18 02:00","2022","11","18","02:00","-18.0","","-19.3","","90","","","M","3","","22","","16.1","","100.62","","","","-28","","Snow"
"-81.24","68.78","SANIRAJAK AIRPORT","2402354","2022-11-18 03:00","2022","11","18","03:00","-18.2","","-19.7","","88","","","M","1","","15","","16.1","","100.63","","","","-27","","Snow"
"-81.24","68.78","SANIRAJAK AIRPORT","2402354","2022-11-18 04:00","2022","11","18","04:00","-18.0","","-19.5","","88","","","M","35","","15","","16.1","","100.65","","","","-27","","NA"
"-81.24","68.78","SANIRAJAK AIRPORT","2402354","2022-11-18 05:00","2022","11","18","05:00","-18.2","","-19.8","","88","","609.6","","34","","18","","16.1","","100.64","","","","-28","","NA"
"-81.24","68.78","SANIRAJAK AIRPORT","2402354","2022-11-18 06:00","2022","11","18","06:00","-17.7","","-19.0","","90","","","M","4","","8","","14.5","","100.63","","","","-24","","Snow"
"-81.24","68.78","SANIRAJAK AIRPORT","2402354","2022-11-18 07:00","2022","11","18","07:00","-19.6","","-21.2","","87","","608.6","","33","","28","","2.0","","100.61","","","","-32","","Snow"
"-81.24","68.78","SANIRAJAK AIRPORT","2402354","2022-11-18 08:00","2022","11","18","08:00","-20.5","","-22.4","","85","","243.9","","32","","28","","2.8","","100.61","","","","-33","","Snow"
"-81.24","68.78","SANIRAJAK AIRPORT","2402354","2022-11-18 09:00","2022","11","18","09:00","-20.0","","-21.8","","86","","123.0","","32","","28","","2.8","","100.60","","","","-32","","Snow"
"-81.24","68.78","SANIRAJAK AIRPORT","2402354","2022-11-18 10:00","2022","11","18","10:00","-19.6","","-21.2","","87","","466.4","","32","","28","","1.6","","100.58","","","","-32","","Snow"
"-81.24","68.78","SANIRAJAK AIRPORT","2402354","2022-11-18 11:00","2022","11","18","11:00","-19.8","","-21.5","","87","","609.7","","33","","28","","1.6","","100.58","","","","-32","","Snow"
"-81.24","68.78","SANIRAJAK AIRPORT","2402354","2022-11-18 12:00","2022","11","18","12:00","-20.5","","-22.3","","86","","274.3","","32","","28","","3.2","","100.56","","","","-33","","Fog"
"-81.24","68.78","SANIRAJAK AIRPORT","2402354","2022-11-18 13:00","2022","11","18","13:00","-20.7","","-22.5","","86","","0.0","","32","","26","","4.8","","100.55","","","","-33","","Fog"
"-81.24","68.78","SANIRAJAK AIRPORT","2402354","2022-11-18 14:00","2022","11","18","14:00","-21.0","","-22.9","","85","","0.0","","33","","22","","16.1","","100.56","","","","-32","","NA"
"-81.24","68.78","SANIRAJAK AIRPORT","2402354","2022-11-18 15:00","2022","11","18","15:00","-22.6","","-24.5","","85","","0.0","","31","","24","","4.8","","100.52","","","","-35","","Fog"
"-81.24","68.78","SANIRAJAK AIRPORT","2402354","2022-11-18 16:00","2022","11","18","16:00","-20.2","","-22.0","","86","","0.0","","32","","26","","2.0","","100.48","","","","-32","","Snow"
"-81.24","68.78","SANIRAJAK AIRPORT","2402354","2022-11-18 17:00","2022","11","18","17:00","-19.7","","-21.5","","86","","497.8","","33","","26","","2.8","","100.49","","","","-31","","Fog"
"-81.24","68.78","SANIRAJAK AIRPORT","2402354","2022-11-18 18:00","2022","11","18","18:00","-19.5","","-21.3","","86","","","M","35","","24","","4.8","","100.49","","","","-31","","Snow"
"-81.24","68.78","SANIRAJAK AIRPORT","2402354","2022-11-18 19:00","2022","11","18","19:00","-19.2","","-21.5","","82","","609.6","","36","","26","","8.1","","100.46","","","","-31","","Snow"
"-81.24","68.78","SANIRAJAK AIRPORT","2402354","2022-11-18 20:00","2022","11","18","20:00","-19.2","","-21.3","","84","","478.5","","35","","30","","3.2","","100.42","","","","-32","","Snow"
"-81.24","68.78","SANIRAJAK AIRPORT","2402354","2022-11-18 21:00","2022","11","18","21:00","-20.3","","-22.1","","86","","61.0","","33","","30","","2.4","","100.38","","","","-33","","Snow"
"-81.24","68.78","SANIRAJAK AIRPORT","2402354","2022-11-18 22:00","2022","11","18","22:00","-19.6","","-21.4","","86","","415.6","","33","","30","","2.4","","100.38","","","","-32","","Fog"
"-81.24","68.78","SANIRAJAK AIRPORT","2402354","2022-11-18 23:00","2022","11","18","23:00","-19.7","","-21.5","","86","","","M","32","","28","","3.2","","100.35","","","","-32","","Snow"
"-81.24","68.78","SANIRAJAK AIRPORT","2402354","2022-11-19 00:00","2022","11","19","00:00","-20.1","","-22.0","","85","","355.6","","32","","28","","6.4","","100.31","","","","-32","","Fog"
"-81.24","68.78","SANIRAJAK AIRPORT","2402354","2022-11-19 01:00","2022","11","19","01:00","-21.4","","-23.5","","84","","","M","30","","32","","4.8","","100.29","","","","-35","","Fog"
"-81.24","68.78","SANIRAJAK AIRPORT","2402354","2022-11-19 02:00","2022","11","19","02:00","-21.7","","-23.7","","84","","0.0","","31","","26","","4.0","","100.28","","","","-34","","Fog"
"-81.24","68.78","SANIRAJAK AIRPORT","2402354","2022-11-19 03:00","2022","11","19","03:00","-23.9","","-26.3","","81","","0.0","","31","","26","","4.8","","100.29","","","","-37","","Snow"
"-81.24","68.78","SANIRAJAK AIRPORT","2402354","2022-11-19 04:00","2022","11","19","04:00","-24.8","","-27.2","","81","","0.0","","32","","22","","14.5","","100.31","","","","-37","","NA"
"-81.24","68.78","SANIRAJAK AIRPORT","2402354","2022-11-19 05:00","2022","11","19","05:00","-24.4","","-26.7","","82","","0.0","","31","","21","","9.7","","100.31","","","","-36","","Snow"
"-81.24","68.78","SANIRAJAK AIRPORT","2402354","2022-11-19 06:00","2022","11","19","06:00","-25.3","","-27.7","","81","","0.0","","31","","26","","11.3","","100.33","","","","-39","","Snow"
"-81.24","68.78","SANIRAJAK AIRPORT","2402354","2022-11-19 07:00","2022","11","19","07:00","-25.4","","-27.9","","80","","0.0","","32","","24","","8.1","","100.33","","","","-38","","Snow"
"-81.24","68.78","SANIRAJAK AIRPORT","2402354","2022-11-19 08:00","2022","11","19","08:00","-26.6","","-29.2","","79","","0.0","","31","","21","","16.1","","100.33","","","","-39","","NA"
"-81.24","68.78","SANIRAJAK AIRPORT","2402354","2022-11-19 09:00","2022","11","19","09:00","-27.2","","-30.0","","78","","0.0","","31","","22","","16.1","","100.33","","","","-40","","NA"
"-81.24","68.78","SANIRAJAK AIRPORT","2402354","2022-11-19 10:00","2022","11","19","10:00","-27.7","","-30.4","","78","","0.0","","31","","18","","16.1","","100.35","","","","-40","","NA"
"-81.24","68.78","SANIRAJAK AIRPORT","2402354","2022-11-19 11:00","2022","11","19","11:00","-28.0","","-30.7","","78","","0.0","","32","","17","","16.1","","100.36","","","","-40","","NA"
"-81.24","68.78","SANIRAJAK AIRPORT","2402354","2022-11-19 12:00","2022","11","19","12:00","-27.0","","-29.8","","78","","0.0","","32","","15","","16.1","","100.38","","","","-38","","NA"
"-81.24","68.78","SANIRAJAK AIRPORT","2402354","2022-11-19 13:00","2022","11","19","13:00","-27.1","","-29.9","","78","","0.0","","31","","11","","16.1","","100.42","","","","-36","","NA"
"-81.24","68.78","SANIRAJAK AIRPORT","2402354","2022-11-19 14:00","2022","11","19","14:00","-27.6","","-30.3","","78","","0.0","","30","","11","","16.1","","100.46","","","","-37","","NA"
"-81.24","68.78","SANIRAJAK AIRPORT","2402354","2022-11-19 15:00","2022","11","19","15:00","-28.2","","-30.9","","78","","0.0","","30","","11","","16.1","","100.48","","","","-38","","NA"
"-81.24","68.78","SANIRAJAK AIRPORT","2402354","2022-11-19 16:00","2022","11","19","16:00","-29.3","","-32.0","","78","","0.0","","28","","11","","16.1","","100.53","","","","-39","","NA"
"-81.24","68.78","SANIRAJAK AIRPORT","2402354","2022-11-19 17:00","2022","11","19","17:00","-28.6","","-31.3","","78","","0.0","","28","","15","","14.5","","100.57","","","","-40","","NA"
"-81.24","68.78","SANIRAJAK AIRPORT","2402354","2022-11-19 18:00","2022","11","19","18:00","-28.7","","-31.2","","80","","0.0","","28","","17","","14.5","","100.60","","","","-41","","NA"
"-81.24","68.78","SANIRAJAK AIRPORT","2402354","2022-11-19 19:00","2022","11","19","19:00","-28.8","","-31.4","","79","","0.0","","29","","13","","16.1","","100.61","","","","-39","","Snow"
"-81.24","68.78","SANIRAJAK AIRPORT","2402354","2022-11-19 20:00","2022","11","19","20:00","-29.0","","-31.6","","79","","0.0","","28","","9","","16.1","","100.60","","","","-37","","NA"
"-81.24","68.78","SANIRAJAK AIRPORT","2402354","2022-11-19 21:00","2022","11","19","21:00","-28.0","","-30.5","","80","","0.0","","32","","5","","16.1","","100.58","","","","-33","","NA"
"-81.24","68.78","SANIRAJAK AIRPORT","2402354","2022-11-19 22:00","2022","11","19","22:00","-27.8","","-30.4","","79","","0.0","","36","","5","","16.1","","100.58","","","","-33","","NA"
"-81.24","68.78","SANIRAJAK AIRPORT","2402354","2022-11-19 23:00","2022","11","19","23:00","-21.8","","-23.8","","84","","0.0","","11","","8","","16.1","","100.58","","","","-28","","NA"
"-81.24","68.78","SANIRAJAK AIRPORT","2402354","2022-11-20 00:00","2022","11","20","00:00","-20.5","","-23.1","","80","","0.0","","13","","17","","16.1","","100.56","","","","-30","","NA"
"-81.24","68.78","SANIRAJAK AIRPORT","2402354","2022-11-20 01:00","2022","11","20","01:00","-20.6","","-23.1","","81","","0.0","","13","","18","","16.1","","100.55","","","","-31","","NA"
"-81.24","68.78","SANIRAJAK AIRPORT","2402354","2022-11-20 02:00","2022","11","20","02:00","-20.6","","-23.1","","81","","0.0","","13","","17","","16.1","","100.53","","","","-30","","NA"
"-81.24","68.78","SANIRAJAK AIRPORT","2402354","2022-11-20 03:00","2022","11","20","03:00","-19.4","","-21.7","","82","","325.9","","12","","15","","16.1","","100.49","","","","-28","","Snow"
"-81.24","68.78","SANIRAJAK AIRPORT","2402354","2022-11-20 04:00","2022","11","20","04:00","-18.2","","-20.6","","82","","","M","10","","17","","16.1","","100.45","","","","-27","","Snow"
"-81.24","68.78","SANIRAJAK AIRPORT","2402354","2022-11-20 05:00","2022","11","20","05:00","-17.2","","-18.9","","87","","608.8","","8","","17","","3.2","","100.37","","","","-26","","Snow"
"-81.24","68.78","SANIRAJAK AIRPORT","2402354","2022-11-20 06:00","2022","11","20","06:00","-13.6","","-14.6","","92","","609.6","","13","","39","","2.0","","100.28","","","","-25","","Snow,Blowing Snow"
"-81.24","68.78","SANIRAJAK AIRPORT","2402354","2022-11-20 07:00","2022","11","20","07:00","-14.4","","-15.7","","90","","","M","13","","43","","1.6","","100.20","","","","-27","","Snow,Blowing Snow"
"-81.24","68.78","SANIRAJAK AIRPORT","2402354","2022-11-20 08:00","2022","11","20","08:00","-14.7","","-16.2","","89","","","M","12","","45","","1.2","","100.14","","","","-28","","Snow,Blowing Snow"
"-81.24","68.78","SANIRAJAK AIRPORT","2402354","2022-11-20 09:00","2022","11","20","09:00","-14.5","","-15.9","","89","","609.6","","12","","58","","0.8","","100.05","","","","-29","","Moderate Snow,Blowing Snow"
"-81.24","68.78","SANIRAJAK AIRPORT","2402354","2022-11-20 10:00","2022","11","20","10:00","-14.7","","-16.3","","88","","","M","12","","63","","0.6","","99.92","","","","-29","","Moderate Snow,Blowing Snow"
"-81.24","68.78","SANIRAJAK AIRPORT","2402354","2022-11-20 11:00","2022","11","20","11:00","-14.9","","-16.5","","88","","610.4","","11","","59","","0.8","","99.83","","","","-29","","Moderate Snow,Blowing Snow"
"-81.24","68.78","SANIRAJAK AIRPORT","2402354","2022-11-20 12:00","2022","11","20","12:00","-14.5","","-16.4","","86","","","M","11","","59","","3.2","","99.75","","","","-29","","Snow,Blowing Snow"
"-81.24","68.78","SANIRAJAK AIRPORT","2402354","2022-11-20 13:00","2022","11","20","13:00","-13.5","","-15.8","","83","","609.6","","11","","55","","4.8","","99.69","","","","-27","","Snow"
"-81.24","68.78","SANIRAJAK AIRPORT","2402354","2022-11-20 14:00","2022","11","20","14:00","-12.8","","-15.5","","81","","609.6","","11","","58","","2.8","","99.64","","","","-26","","Snow,Blowing Snow"
"-81.24","68.78","SANIRAJAK AIRPORT","2402354","2022-11-20 15:00","2022","11","20","15:00","-12.5","","-14.1","","88","","","M","12","","58","","1.2","","99.61","","","","-26","","Snow,Blowing Snow"
"-81.24","68.78","SANIRAJAK AIRPORT","2402354","2022-11-20 16:00","2022","11","20","16:00","-11.8","","-12.7","","94","","","M","12","","50","","1.2","","99.62","","","","-24","","Snow,Blowing Snow"
"-81.24","68.78","SANIRAJAK AIRPORT","2402354","2022-11-20 17:00","2022","11","20","17:00","-11.5","","-12.0","","96","","609.6","","12","","55","","0.8","","99.65","","","","-24","","Moderate Snow,Blowing Snow"
"-81.24","68.78","SANIRAJAK AIRPORT","2402354","2022-11-20 18:00","2022","11","20","18:00","-11.0","","-11.1","","99","","609.6","","12","","45","","0.8","","99.70","","","","-23","","Moderate Snow,Blowing Snow"
"-81.24","68.78","SANIRAJAK AIRPORT","2402354","2022-11-20 19:00","2022","11","20","19:00","-10.2","","-10.4","","99","","609.6","","13","","45","","1.6","","99.74","","","","-22","","Snow"
"-81.24","68.78","SANIRAJAK AIRPORT","2402354","2022-11-20 20:00","2022","11","20","20:00","-9.8","","-9.9","","99","","609.6","","13","","41","","1.6","","99.78","","","","-21","","Snow"
"-81.24","68.78","SANIRAJAK AIRPORT","2402354","2022-11-20 21:00","2022","11","20","21:00","-10.2","","-10.3","","99","","","M","13","","41","","1.6","","99.84","","","","-21","","Snow"
"-81.24","68.78","SANIRAJAK AIRPORT","2402354","2022-11-20 22:00","2022","11","20","22:00","-10.2","","-10.3","","99","","609.6","","13","","37","","2.0","","99.90","","","","-21","","Snow"
"-81.24","68.78","SANIRAJAK AIRPORT","2402354","2022-11-20 23:00","2022","11","20","23:00","-9.8","","-9.8","","100","","603.8","","13","","34","","2.4","","99.96","","","","-20","","Snow"
"-81.24","68.78","SANIRAJAK AIRPORT","2402354","2022-11-21 00:00","2022","11","21","00:00","-11.6","","-12.9","","90","","","M","20","","17","","4.8","","100.07","","","","-19","","Snow"
"-81.24","68.78","SANIRAJAK AIRPORT","2402354","2022-11-21 01:00","2022","11","21","01:00","-13.0","","-14.3","","90","","","M","20","","11","","16.1","","100.17","","","","-19","","Snow"
"-81.24","68.78","SANIRAJAK AIRPORT","2402354","2022-11-21 02:00","2022","11","21","02:00","-14.1","","-15.8","","87","","","M","19","","11","","16.1","","100.27","","","","-21","","Snow"
"-81.24","68.78","SANIRAJAK AIRPORT","2402354","2022-11-21 03:00","2022","11","21","03:00","-14.7","","-16.3","","88","","","M","20","","5","","12.9","","100.36","","","","-18","","Snow"
"-81.24","68.78","SANIRAJAK AIRPORT","2402354","2022-11-21 04:00","2022","11","21","04:00","-16.1","","-17.5","","89","","","M","36","","5","","16.1","","100.42","","","","-20","","Snow"
"-81.24","68.78","SANIRAJAK AIRPORT","2402354","2022-11-21 05:00","2022","11","21","05:00","-12.7","","-13.7","","92","","","M","13","","22","","16.1","","100.47","","","","-22","","Snow"
"-81.24","68.78","SANIRAJAK AIRPORT","2402354","2022-11-21 06:00","2022","11","21","06:00","-12.4","","-13.7","","90","","609.6","","11","","22","","16.1","","100.52","","","","-21","","Snow"
"-81.24","68.78","SANIRAJAK AIRPORT","2402354","2022-11-21 07:00","2022","11","21","07:00","-12.6","","-14.3","","87","","609.6","","11","","24","","16.1","","100.55","","","","-22","","Snow"
"-81.24","68.78","SANIRAJAK AIRPORT","2402354","2022-11-21 08:00","2022","11","21","08:00","-12.6","","-14.2","","88","","609.6","","10","","24","","16.1","","100.57","","","","-22","","Snow"
"-81.24","68.78","SANIRAJAK AIRPORT","2402354","2022-11-21 09:00","2022","11","21","09:00","-13.6","","-15.5","","86","","","M","10","","22","","16.1","","100.60","","","","-23","","NA"
"-81.24","68.78","SANIRAJAK AIRPORT","2402354","2022-11-21 10:00","2022","11","21","10:00","-13.8","","-15.7","","86","","609.6","","8","","24","","16.1","","100.62","","","","-23","","NA"
"-81.24","68.78","SANIRAJAK AIRPORT","2402354","2022-11-21 11:00","2022","11","21","11:00","-14.2","","-16.1","","86","","","M","9","","26","","16.1","","100.63","","","","-24","","NA"
"-81.24","68.78","SANIRAJAK AIRPORT","2402354","2022-11-21 12:00","2022","11","21","12:00","-14.2","","-16.1","","86","","608.8","","9","","24","","16.1","","100.66","","","","-24","","NA"
"-81.24","68.78","SANIRAJAK AIRPORT","2402354","2022-11-21 13:00","2022","11","21","13:00","-14.5","","-16.2","","87","","","M","9","","24","","16.1","","100.69","","","","-24","","Snow"
"-81.24","68.78","SANIRAJAK AIRPORT","2402354","2022-11-21 14:00","2022","11","21","14:00","-14.9","","-16.5","","88","","","M","8","","17","","16.1","","100.71","","","","-23","","NA"
"-81.24","68.78","SANIRAJAK AIRPORT","2402354","2022-11-21 15:00","2022","11","21","15:00","-15.6","","-16.9","","90","","609.6","","7","","15","","16.1","","100.75","","","","-24","","Snow"
"-81.24","68.78","SANIRAJAK AIRPORT","2402354","2022-11-21 16:00","2022","11","21","16:00","-14.4","","-16.0","","88","","","M","8","","22","","16.1","","100.78","","","","-24","","Snow"
"-81.24","68.78","SANIRAJAK AIRPORT","2402354","2022-11-21 17:00","2022","11","21","17:00","-17.9","","-18.9","","92","","","M","8","","13","","16.1","","100.81","","","","-26","","NA"
"-81.24","68.78","SANIRAJAK AIRPORT","2402354","2022-11-21 18:00","2022","11","21","18:00","-18.5","","-20.0","","88","","609.6","","7","","15","","16.1","","100.85","","","","-27","","NA"
"-81.24","68.78","SANIRAJAK AIRPORT","2402354","2022-11-21 19:00","2022","11","21","19:00","-20.2","","-21.6","","89","","","M","4","","15","","16.1","","100.87","","","","-29","","NA"
"-81.24","68.78","SANIRAJAK AIRPORT","2402354","2022-11-21 20:00","2022","11","21","20:00","-20.0","","-21.9","","85","","375.2","","5","","15","","16.1","","100.86","","","","-29","","NA"
"-81.24","68.78","SANIRAJAK AIRPORT","2402354","2022-11-21 21:00","2022","11","21","21:00","-22.8","","-23.8","","92","","406.4","","2","","11","","2.8","","100.83","","","","-31","","Fog"
"-81.24","68.78","SANIRAJAK AIRPORT","2402354","2022-11-21 22:00","2022","11","21","22:00","-23.1","","-23.3","","99","","325.1","","2","","11","","6.4","","100.82","","","","-31","","Fog"
"-81.24","68.78","SANIRAJAK AIRPORT","2402354","2022-11-21 23:00","2022","11","21","23:00","-22.0","","-23.6","","88","","244.6","","2","","11","","16.1","","100.79","","","","-30","","NA"
"-81.24","68.78","SANIRAJAK AIRPORT","2402354","2022-11-22 00:00","2022","11","22","00:00","-26.4","","-28.5","","83","","162.6","","33","","15","","16.1","","100.80","","","","-37","","NA"
"-81.24","68.78","SANIRAJAK AIRPORT","2402354","2022-11-22 01:00","2022","11","22","01:00","-26.7","","-28.8","","83","","0.0","","35","","21","","16.1","","100.82","","","","-39","","NA"
"-81.24","68.78","SANIRAJAK AIRPORT","2402354","2022-11-22 02:00","2022","11","22","02:00","-24.9","","-26.9","","84","","0.0","","36","","15","","8.1","","100.85","","","","-35","","Fog"
"-81.24","68.78","SANIRAJAK AIRPORT","2402354","2022-11-22 03:00","2022","11","22","03:00","-26.8","","-29.0","","82","","0.0","","36","","18","","16.1","","100.85","","","","-38","","NA"
"-81.24","68.78","SANIRAJAK AIRPORT","2402354","2022-11-22 04:00","2022","11","22","04:00","-25.1","","-27.1","","84","","0.0","","36","","21","","16.1","","100.87","","","","-37","","NA"
"-81.24","68.78","SANIRAJAK AIRPORT","2402354","2022-11-22 05:00","2022","11","22","05:00","-24.4","","-27.1","","79","","0.0","","36","","15","","16.1","","100.90","","","","-35","","NA"
"-81.24","68.78","SANIRAJAK AIRPORT","2402354","2022-11-22 06:00","2022","11","22","06:00","-22.4","","-24.2","","86","","0.0","","1","","18","","16.1","","100.92","","","","-33","","NA"
"-81.24","68.78","SANIRAJAK AIRPORT","2402354","2022-11-22 07:00","2022","11","22","07:00","-24.2","","-25.7","","88","","0.0","","1","","18","","16.1","","100.93","","","","-35","","NA"
"-81.24","68.78","SANIRAJAK AIRPORT","2402354","2022-11-22 08:00","2022","11","22","08:00","-26.4","","-28.9","","80","","0.0","","34","","18","","16.1","","100.92","","","","-38","","NA"
"-81.24","68.78","SANIRAJAK AIRPORT","2402354","2022-11-22 09:00","2022","11","22","09:00","-24.8","","-26.7","","84","","0.0","","1","","17","","16.1","","100.92","","","","-36","","NA"
"-81.24","68.78","SANIRAJAK AIRPORT","2402354","2022-11-22 10:00","2022","11","22","10:00","-28.4","","-31.1","","78","","0.0","","33","","18","","16.1","","100.96","","","","-40","","NA"
"-81.24","68.78","SANIRAJAK AIRPORT","2402354","2022-11-22 11:00","2022","11","22","11:00","-28.2","","-30.8","","79","","0.0","","35","","21","","16.1","","100.97","","","","-41","","NA"
"-81.24","68.78","SANIRAJAK AIRPORT","2402354","2022-11-22 12:00","2022","11","22","12:00","-27.0","","-29.5","","80","","0.0","","2","","15","","16.1","","100.97","","","","-38","","NA"
"-81.24","68.78","SANIRAJAK AIRPORT","2402354","2022-11-22 13:00","2022","11","22","13:00","-28.2","","-30.8","","79","","0.0","","33","","22","","16.1","","101.00","","","","-41","","NA"
"-81.24","68.78","SANIRAJAK AIRPORT","2402354","2022-11-22 14:00","2022","11","22","14:00","-28.7","","-31.3","","79","","0.0","","35","","18","","16.1","","100.99","","","","-41","","NA"
"-81.24","68.78","SANIRAJAK AIRPORT","2402354","2022-11-22 15:00","2022","11","22","15:00","-29.3","","-32.1","","77","","0.0","","32","","18","","16.1","","101.04","","","","-42","","NA"
"-81.24","68.78","SANIRAJAK AIRPORT","2402354","2022-11-22 16:00","2022","11","22","16:00","-28.8","","-31.5","","78","","0.0","","32","","24","","16.1","","101.06","","","","-43","","NA"
"-81.24","68.78","SANIRAJAK AIRPORT","2402354","2022-11-22 17:00","2022","11","22","17:00","-29.1","","-31.9","","77","","0.0","","33","","21","","16.1","","101.09","","","","-42","","NA"
"-81.24","68.78","SANIRAJAK AIRPORT","2402354","2022-11-22 18:00","2022","11","22","18:00","-30.2","","-33.2","","76","","0.0","","33","","15","","16.1","","101.12","","","","-42","","NA"
"-81.24","68.78","SANIRAJAK AIRPORT","2402354","2022-11-22 19:00","2022","11","22","19:00","-30.2","","-33.2","","76","","0.0","","34","","15","","16.1","","101.11","","","","-42","","NA"
"-81.24","68.78","SANIRAJAK AIRPORT","2402354","2022-11-22 20:00","2022","11","22","20:00","-28.9","","-31.6","","78","","0.0","","31","","22","","16.1","","101.11","","","","-42","","NA"
"-81.24","68.78","SANIRAJAK AIRPORT","2402354","2022-11-22 21:00","2022","11","22","21:00","-29.0","","-32.0","","76","","0.0","","32","","22","","16.1","","101.08","","","","-42","","NA"
"-81.24","68.78","SANIRAJAK AIRPORT","2402354","2022-11-22 22:00","2022","11","22","22:00","-29.2","","-32.0","","77","","0.0","","31","","17","","16.1","","101.11","","","","-41","","NA"
"-81.24","68.78","SANIRAJAK AIRPORT","2402354","2022-11-22 23:00","2022","11","22","23:00","-27.8","","-30.8","","76","","0.0","","29","","13","","16.1","","101.11","","","","-38","","NA"
"-81.24","68.78","SANIRAJAK AIRPORT","2402354","2022-11-23 00:00","2022","11","23","00:00","-30.3","","-33.4","","75","","0.0","","31","","15","","16.1","","101.14","","","","-42","","NA"
"-81.24","68.78","SANIRAJAK AIRPORT","2402354","2022-11-23 01:00","2022","11","23","01:00","-30.3","","-33.4","","75","","0.0","","31","","15","","16.1","","101.17","","","","-42","","NA"
"-81.24","68.78","SANIRAJAK AIRPORT","2402354","2022-11-23 02:00","2022","11","23","02:00","-29.9","","-33.0","","75","","0.0","","31","","18","","16.1","","101.19","","","","-42","","NA"
"-81.24","68.78","SANIRAJAK AIRPORT","2402354","2022-11-23 03:00","2022","11","23","03:00","-29.4","","-32.6","","75","","0.0","","30","","15","","16.1","","101.22","","","","-41","","NA"
"-81.24","68.78","SANIRAJAK AIRPORT","2402354","2022-11-23 04:00","2022","11","23","04:00","-30.6","","-33.8","","74","","0.0","","30","","13","","16.1","","101.26","","","","-41","","NA"
"-81.24","68.78","SANIRAJAK AIRPORT","2402354","2022-11-23 05:00","2022","11","23","05:00","-30.0","","-32.8","","77","","0.0","","26","","13","","16.1","","101.32","","","","-41","","NA"
"-81.24","68.78","SANIRAJAK AIRPORT","2402354","2022-11-23 06:00","2022","11","23","06:00","-29.2","","-31.9","","78","","0.0","","29","","17","","16.1","","101.33","","","","-41","","NA"
"-81.24","68.78","SANIRAJAK AIRPORT","2402354","2022-11-23 07:00","2022","11","23","07:00","-29.0","","-31.6","","79","","0.0","","31","","17","","16.1","","101.35","","","","-41","","NA"
"-81.24","68.78","SANIRAJAK AIRPORT","2402354","2022-11-23 08:00","2022","11","23","08:00","-29.0","","-31.7","","78","","0.0","","28","","9","","16.1","","101.38","","","","-37","","NA"
"-81.24","68.78","SANIRAJAK AIRPORT","2402354","2022-11-23 09:00","2022","11","23","09:00","-28.6","","-31.0","","80","","0.0","","31","","9","","16.1","","101.41","","","","-37","","NA"
"-81.24","68.78","SANIRAJAK AIRPORT","2402354","2022-11-23 10:00","2022","11","23","10:00","-31.0","","-33.8","","77","","0.0","","26","","11","","16.1","","101.44","","","","-41","","NA"
"-81.24","68.78","SANIRAJAK AIRPORT","2402354","2022-11-23 11:00","2022","11","23","11:00","-30.4","","-33.2","","77","","0.0","","28","","9","","16.1","","101.49","","","","-39","","NA"
"-81.24","68.78","SANIRAJAK AIRPORT","2402354","2022-11-23 12:00","2022","11","23","12:00","-30.2","","-33.0","","77","","0.0","","31","","9","","16.1","","101.55","","","","-39","","NA"
"-81.24","68.78","SANIRAJAK AIRPORT","2402354","2022-11-23 13:00","2022","11","23","13:00","-30.6","","-33.4","","77","","0.0","","31","","8","","16.1","","101.60","","","","-39","","NA"
"-81.24","68.78","SANIRAJAK AIRPORT","2402354","2022-11-23 14:00","2022","11","23","14:00","-31.7","","-34.8","","75","","0.0","","28","","8","","4.8","","101.64","","","","-40","","Haze"
"-81.24","68.78","SANIRAJAK AIRPORT","2402354","2022-11-23 15:00","2022","11","23","15:00","-31.7","","-34.8","","75","","0.0","","29","","8","","16.1","","101.68","","","","-40","","NA"
"-81.24","68.78","SANIRAJAK AIRPORT","2402354","2022-11-23 16:00","2022","11","23","16:00","-29.9","","-32.7","","77","","0.0","","32","","11","","4.0","","101.71","","","","-40","","Haze"
"-81.24","68.78","SANIRAJAK AIRPORT","2402354","2022-11-23 17:00","2022","11","23","17:00","-30.5","","-33.4","","76","","0.0","","32","","11","","16.1","","101.73","","","","-40","","NA"
"-81.24","68.78","SANIRAJAK AIRPORT","2402354","2022-11-23 18:00","2022","11","23","18:00","-30.8","","-33.7","","76","","0.0","","32","","8","","16.1","","101.75","","","","-39","","NA"
"-81.24","68.78","SANIRAJAK AIRPORT","2402354","2022-11-23 19:00","2022","11","23","19:00","-30.7","","-33.7","","76","","0.0","","32","","9","","16.1","","101.79","","","","-39","","NA"
"-81.24","68.78","SANIRAJAK AIRPORT","2402354","2022-11-23 20:00","2022","11","23","20:00","-31.3","","-34.3","","75","","0.0","","34","","11","","16.1","","101.82","","","","-41","","NA"
"-81.24","68.78","SANIRAJAK AIRPORT","2402354","2022-11-23 21:00","2022","11","23","21:00","-31.4","","-34.4","","76","","0.0","","34","","11","","11.3","","101.83","","","","-41","","NA"
"-81.24","68.78","SANIRAJAK AIRPORT","2402354","2022-11-23 22:00","2022","11","23","22:00","-31.1","","-34.0","","76","","0.0","","32","","9","","11.3","","101.84","","","","-40","","NA"
"-81.24","68.78","SANIRAJAK AIRPORT","2402354","2022-11-23 23:00","2022","11","23","23:00","-28.8","","-31.5","","78","","0.0","","32","","9","","16.1","","101.85","","","","-37","","NA"
"-81.24","68.78","SANIRAJAK AIRPORT","2402354","2022-11-24 00:00","2022","11","24","00:00","-26.1","","-28.6","","80","","0.0","","32","","9","","16.1","","101.85","","","","-34","","NA"
"-81.24","68.78","SANIRAJAK AIRPORT","2402354","2022-11-24 01:00","2022","11","24","01:00","-25.8","","-28.3","","80","","0.0","","31","","13","","16.1","","101.86","","","","-35","","NA"
"-81.24","68.78","SANIRAJAK AIRPORT","2402354","2022-11-24 02:00","2022","11","24","02:00","-24.6","","-26.9","","82","","0.0","","31","","13","","0.6","","101.86","","","","-34","","Freezing Fog"
"-81.24","68.78","SANIRAJAK AIRPORT","2402354","2022-11-24 03:00","2022","11","24","03:00","-24.2","","-26.5","","82","","0.0","","30","","9","","1.2","","101.88","","","","-32","","Fog"
"-81.24","68.78","SANIRAJAK AIRPORT","2402354","2022-11-24 04:00","2022","11","24","04:00","-23.7","","-25.8","","83","","0.0","","30","","9","","2.0","","101.87","","","","-31","","Snow"
"-81.24","68.78","SANIRAJAK AIRPORT","2402354","2022-11-24 05:00","2022","11","24","05:00","-23.3","","-25.4","","83","","0.0","","29","","13","","8.1","","101.89","","","","-32","","Fog"
"-81.24","68.78","SANIRAJAK AIRPORT","2402354","2022-11-24 06:00","2022","11","24","06:00","-23.1","","-25.2","","83","","0.0","","31","","13","","4.0","","101.89","","","","-32","","Snow"
"-81.24","68.78","SANIRAJAK AIRPORT","2402354","2022-11-24 07:00","2022","11","24","07:00","-23.4","","-25.5","","83","","0.0","","30","","15","","16.1","","101.87","","","","-33","","Snow"
"-81.24","68.78","SANIRAJAK AIRPORT","2402354","2022-11-24 08:00","2022","11","24","08:00","-22.2","","-24.2","","84","","0.0","","30","","17","","9.7","","101.86","","","","-32","","Snow"
"-81.24","68.78","SANIRAJAK AIRPORT","2402354","2022-11-24 09:00","2022","11","24","09:00","-22.4","","-24.4","","84","","0.0","","31","","21","","16.1","","101.85","","","","-34","","Snow"
"-81.24","68.78","SANIRAJAK AIRPORT","2402354","2022-11-24 10:00","2022","11","24","10:00","-22.1","","-24.1","","84","","0.0","","31","","18","","16.1","","101.84","","","","-33","","Snow"
"-81.24","68.78","SANIRAJAK AIRPORT","2402354","2022-11-24 11:00","2022","11","24","11:00","-22.3","","-24.3","","84","","0.0","","31","","21","","6.4","","101.83","","","","-34","","Snow"
"-81.24","68.78","SANIRAJAK AIRPORT","2402354","2022-11-24 12:00","2022","11","24","12:00","-21.9","","-23.9","","84","","0.0","","32","","17","","8.1","","101.84","","","","-32","","Snow"
"-81.24","68.78","SANIRAJAK AIRPORT","2402354","2022-11-24 13:00","2022","11","24","13:00","-22.5","","-24.5","","84","","0.0","","32","","21","","9.7","","101.82","","","","-34","","Fog"
"-81.24","68.78","SANIRAJAK AIRPORT","2402354","2022-11-24 14:00","2022","11","24","14:00","-22.7","","-24.7","","84","","0.0","","30","","21","","16.1","","101.84","","","","-34","","NA"
"-81.24","68.78","SANIRAJAK AIRPORT","2402354","2022-11-24 15:00","2022","11","24","15:00","-22.8","","-24.8","","84","","0.0","","31","","21","","6.4","","101.83","","","","-34","","Snow"
"-81.24","68.78","SANIRAJAK AIRPORT","2402354","2022-11-24 16:00","2022","11","24","16:00","-22.3","","-24.3","","84","","0.0","","30","","24","","16.1","","101.84","","","","-34","","NA"
"-81.24","68.78","SANIRAJAK AIRPORT","2402354","2022-11-24 17:00","2022","11","24","17:00","-22.2","","-24.2","","84","","0.0","","30","","21","","16.1","","101.82","","","","-34","","NA"
"-81.24","68.78","SANIRAJAK AIRPORT","2402354","2022-11-24 18:00","2022","11","24","18:00","-21.5","","-23.4","","85","","0.0","","32","","22","","16.1","","101.79","","","","-33","","NA"
"-81.24","68.78","SANIRAJAK AIRPORT","2402354","2022-11-24 19:00","2022","11","24","19:00","-21.5","","-23.4","","85","","0.0","","32","","24","","16.1","","101.79","","","","-33","","NA"
"-81.24","68.78","SANIRAJAK AIRPORT","2402354","2022-11-24 20:00","2022","11","24","20:00","-21.1","","-23.0","","85","","0.0","","33","","24","","16.1","","101.77","","","","-33","","Snow"
"-81.24","68.78","SANIRAJAK AIRPORT","2402354","2022-11-24 21:00","2022","11","24","21:00","-21.1","","-23.0","","85","","0.0","","33","","22","","16.1","","101.73","","","","-32","","Snow"
"-81.24","68.78","SANIRAJAK AIRPORT","2402354","2022-11-24 22:00","2022","11","24","22:00","-21.1","","-23.0","","85","","0.0","","33","","22","","16.1","","101.71","","","","-32","","NA"
"-81.24","68.78","SANIRAJAK AIRPORT","2402354","2022-11-24 23:00","2022","11","24","23:00","-21.1","","-23.0","","85","","0.0","","31","","22","","16.1","","101.68","","","","-32","","NA"
"-81.24","68.78","SANIRAJAK AIRPORT","2402354","2022-11-25 00:00","2022","11","25","00:00","-21.0","","-22.8","","86","","0.0","","32","","21","","16.1","","101.66","","","","-32","","NA"
"-81.24","68.78","SANIRAJAK AIRPORT","2402354","2022-11-25 01:00","2022","11","25","01:00","-20.8","","-22.6","","86","","0.0","","32","","15","","16.1","","101.63","","","","-30","","Snow"
"-81.24","68.78","SANIRAJAK AIRPORT","2402354","2022-11-25 02:00","2022","11","25","02:00","-21.0","","-22.9","","85","","0.0","","31","","15","","16.1","","101.63","","","","-30","","NA"
"-81.24","68.78","SANIRAJAK AIRPORT","2402354","2022-11-25 03:00","2022","11","25","03:00","-21.1","","-22.9","","86","","0.0","","30","","15","","16.1","","101.61","","","","-30","","NA"
"-81.24","68.78","SANIRAJAK AIRPORT","2402354","2022-11-25 04:00","2022","11","25","04:00","-20.9","","-22.7","","86","","0.0","","31","","17","","16.1","","101.55","","","","-31","","Snow"
"-81.24","68.78","SANIRAJAK AIRPORT","2402354","2022-11-25 05:00","2022","11","25","05:00","-20.7","","-22.5","","86","","0.0","","31","","15","","16.1","","101.51","","","","-30","","NA"
"-81.24","68.78","SANIRAJAK AIRPORT","2402354","2022-11-25 06:00","2022","11","25","06:00","-20.5","","-22.3","","86","","0.0","","30","","18","","16.1","","101.47","","","","-31","","NA"
"-81.24","68.78","SANIRAJAK AIRPORT","2402354","2022-11-25 07:00","2022","11","25","07:00","-19.4","","-21.0","","87","","325.1","","33","","18","","16.1","","101.42","","","","-29","","NA"
"-81.24","68.78","SANIRAJAK AIRPORT","2402354","2022-11-25 08:00","2022","11","25","08:00","-19.3","","-21.0","","87","","609.6","","33","","15","","16.1","","101.39","","","","-28","","NA"
"-81.24","68.78","SANIRAJAK AIRPORT","2402354","2022-11-25 09:00","2022","11","25","09:00","-19.0","","-20.5","","88","","","M","33","","17","","16.1","","101.37","","","","-28","","Snow"
"-81.24","68.78","SANIRAJAK AIRPORT","2402354","2022-11-25 10:00","2022","11","25","10:00","-18.6","","-20.1","","88","","","M","34","","18","","16.1","","101.33","","","","-28","","Snow"
"-81.24","68.78","SANIRAJAK AIRPORT","2402354","2022-11-25 11:00","2022","11","25","11:00","-18.4","","-19.8","","89","","","M","34","","21","","16.1","","101.32","","","","-29","","Snow"
"-81.24","68.78","SANIRAJAK AIRPORT","2402354","2022-11-25 12:00","2022","11","25","12:00","-18.1","","-19.5","","89","","","M","34","","28","","16.1","","101.28","","","","-30","","Snow"
"-81.24","68.78","SANIRAJAK AIRPORT","2402354","2022-11-25 13:00","2022","11","25","13:00","-18.3","","-19.8","","88","","","M","33","","17","","16.1","","101.26","","","","-28","","NA"
"-81.24","68.78","SANIRAJAK AIRPORT","2402354","2022-11-25 14:00","2022","11","25","14:00","-21.2","","-23.2","","84","","549.4","","33","","21","","16.1","","101.24","","","","-32","","NA"
"-81.24","68.78","SANIRAJAK AIRPORT","2402354","2022-11-25 15:00","2022","11","25","15:00","-24.0","","-26.2","","82","","0.0","","33","","24","","16.1","","101.21","","","","-37","","NA"
"-81.24","68.78","SANIRAJAK AIRPORT","2402354","2022-11-25 16:00","2022","11","25","16:00","-26.4","","-28.9","","80","","0.0","","33","","17","","16.1","","101.21","","","","-38","","NA"
"-81.24","68.78","SANIRAJAK AIRPORT","2402354","2022-11-25 17:00","2022","11","25","17:00","-27.1","","-29.6","","80","","0.0","","33","","18","","16.1","","101.22","","","","-39","","NA"
"-81.24","68.78","SANIRAJAK AIRPORT","2402354","2022-11-25 18:00","2022","11","25","18:00","-27.2","","-29.5","","81","","0.0","","33","","21","","16.1","","101.18","","","","-40","","NA"
"-81.24","68.78","SANIRAJAK AIRPORT","2402354","2022-11-25 19:00","2022","11","25","19:00","-28.0","","-30.6","","79","","0.0","","33","","18","","16.1","","101.19","","","","-40","","NA"
"-81.24","68.78","SANIRAJAK AIRPORT","2402354","2022-11-25 20:00","2022","11","25","20:00","-28.4","","-31.1","","78","","0.0","","32","","15","","16.1","","101.15","","","","-39","","NA"
"-81.24","68.78","SANIRAJAK AIRPORT","2402354","2022-11-25 21:00","2022","11","25","21:00","-29.2","","-31.9","","78","","0.0","","32","","21","","16.1","","101.14","","","","-42","","NA"
"-81.24","68.78","SANIRAJAK AIRPORT","2402354","2022-11-25 22:00","2022","11","25","22:00","-27.9","","-30.5","","79","","0.0","","31","","13","","16.1","","101.13","","","","-38","","NA"
"-81.24","68.78","SANIRAJAK AIRPORT","2402354","2022-11-25 23:00","2022","11","25","23:00","-27.8","","-30.5","","78","","0.0","","31","","9","","16.1","","101.13","","","","-36","","NA"
"-81.24","68.78","SANIRAJAK AIRPORT","2402354","2022-11-26 00:00","2022","11","26","00:00","-27.6","","-30.2","","79","","0.0","","25","","8","","16.1","","101.13","","","","-35","","NA"
"-81.24","68.78","SANIRAJAK AIRPORT","2402354","2022-11-26 01:00","2022","11","26","01:00","-24.1","","-26.2","","83","","0.0","","29","","13","","16.1","","101.15","","","","-33","","NA"
"-81.24","68.78","SANIRAJAK AIRPORT","2402354","2022-11-26 02:00","2022","11","26","02:00","-21.5","","-23.4","","85","","0.0","","31","","22","","16.1","","101.13","","","","-33","","Snow"
"-81.24","68.78","SANIRAJAK AIRPORT","2402354","2022-11-26 03:00","2022","11","26","03:00","-21.6","","-23.5","","85","","0.0","","29","","21","","16.1","","101.13","","","","-33","","NA"
"-81.24","68.78","SANIRAJAK AIRPORT","2402354","2022-11-26 04:00","2022","11","26","04:00","-21.1","","-23.0","","85","","0.0","","31","","18","","16.1","","101.14","","","","-31","","NA"
"-81.24","68.78","SANIRAJAK AIRPORT","2402354","2022-11-26 05:00","2022","11","26","05:00","-20.7","","-22.6","","85","","0.0","","31","","18","","16.1","","101.15","","","","-31","","NA"
"-81.24","68.78","SANIRAJAK AIRPORT","2402354","2022-11-26 06:00","2022","11","26","06:00","-23.8","","-26.1","","82","","0.0","","30","","21","","16.1","","101.16","","","","-36","","NA"
"-81.24","68.78","SANIRAJAK AIRPORT","2402354","2022-11-26 07:00","2022","11","26","07:00","-25.1","","-27.3","","82","","0.0","","31","","22","","16.1","","101.16","","","","-37","","NA"
"-81.24","68.78","SANIRAJAK AIRPORT","2402354","2022-11-26 08:00","2022","11","26","08:00","-26.0","","-28.4","","81","","0.0","","33","","21","","16.1","","101.18","","","","-38","","NA"
"-81.24","68.78","SANIRAJAK AIRPORT","2402354","2022-11-26 09:00","2022","11","26","09:00","-25.6","","-28.1","","80","","0.0","","33","","18","","16.1","","101.18","","","","-37","","NA"
"-81.24","68.78","SANIRAJAK AIRPORT","2402354","2022-11-26 10:00","2022","11","26","10:00","-26.2","","-28.6","","80","","0.0","","33","","22","","16.1","","101.22","","","","-39","","NA"
"-81.24","68.78","SANIRAJAK AIRPORT","2402354","2022-11-26 11:00","2022","11","26","11:00","-27.4","","-29.9","","80","","0.0","","32","","24","","16.1","","101.23","","","","-41","","NA"
"-81.24","68.78","SANIRAJAK AIRPORT","2402354","2022-11-26 12:00","2022","11","26","12:00","-29.0","","-31.8","","78","","0.0","","31","","21","","16.1","","101.24","","","","-42","","NA"
"-81.24","68.78","SANIRAJAK AIRPORT","2402354","2022-11-26 13:00","2022","11","26","13:00","-28.9","","-31.6","","78","","0.0","","32","","22","","16.1","","101.25","","","","-42","","NA"
"-81.24","68.78","SANIRAJAK AIRPORT","2402354","2022-11-26 14:00","2022","11","26","14:00","-29.3","","-32.1","","77","","0.0","","32","","18","","16.1","","101.27","","","","-42","","NA"
"-81.24","68.78","SANIRAJAK AIRPORT","2402354","2022-11-26 15:00","2022","11","26","15:00","-30.4","","-33.4","","76","","0.0","","31","","18","","16.1","","101.32","","","","-43","","NA"
"-81.24","68.78","SANIRAJAK AIRPORT","2402354","2022-11-26 16:00","2022","11","26","16:00","-30.2","","-33.0","","77","","0.0","","33","","18","","16.1","","101.35","","","","-43","","NA"
"-81.24","68.78","SANIRAJAK AIRPORT","2402354","2022-11-26 17:00","2022","11","26","17:00","-30.3","","-33.3","","76","","0.0","","32","","18","","16.1","","101.38","","","","-43","","NA"
"-81.24","68.78","SANIRAJAK AIRPORT","2402354","2022-11-26 18:00","2022","11","26","18:00","-29.9","","-32.7","","77","","0.0","","31","","21","","16.1","","101.39","","","","-43","","NA"
"-81.24","68.78","SANIRAJAK AIRPORT","2402354","2022-11-26 19:00","2022","11","26","19:00","-30.1","","-33.0","","77","","0.0","","33","","15","","16.1","","101.40","","","","-42","","NA"
"-81.24","68.78","SANIRAJAK AIRPORT","2402354","2022-11-26 20:00","2022","11","26","20:00","-28.6","","-31.3","","78","","0.0","","32","","28","","16.1","","101.40","","","","-43","","NA"
"-81.24","68.78","SANIRAJAK AIRPORT","2402354","2022-11-26 21:00","2022","11","26","21:00","-28.5","","-31.2","","78","","0.0","","33","","21","","16.1","","101.41","","","","-41","","NA"
"-81.24","68.78","SANIRAJAK AIRPORT","2402354","2022-11-26 22:00","2022","11","26","22:00","-29.1","","-31.8","","78","","0.0","","32","","18","","16.1","","101.41","","","","-41","","NA"
"-81.24","68.78","SANIRAJAK AIRPORT","2402354","2022-11-26 23:00","2022","11","26","23:00","-27.6","","-30.3","","78","","0.0","","32","","22","","16.1","","101.40","","","","-41","","NA"
"-81.24","68.78","SANIRAJAK AIRPORT","2402354","2022-11-27 00:00","2022","11","27","00:00","-28.8","","-31.7","","77","","0.0","","31","","21","","16.1","","101.40","","","","-42","","NA"
"-81.24","68.78","SANIRAJAK AIRPORT","2402354","2022-11-27 01:00","2022","11","27","01:00","-28.1","","-30.8","","78","","0.0","","32","","18","","16.1","","101.41","","","","-40","","NA"
"-81.24","68.78","SANIRAJAK AIRPORT","2402354","2022-11-27 02:00","2022","11","27","02:00","-28.0","","-30.7","","78","","0.0","","32","","18","","16.1","","101.43","","","","-40","","NA"
"-81.24","68.78","SANIRAJAK AIRPORT","2402354","2022-11-27 03:00","2022","11","27","03:00","-28.2","","-30.9","","78","","0.0","","32","","26","","16.1","","101.44","","","","-42","","NA"
"-81.24","68.78","SANIRAJAK AIRPORT","2402354","2022-11-27 04:00","2022","11","27","04:00","-27.8","","-30.4","","79","","0.0","","32","","22","","16.1","","101.48","","","","-41","","NA"
"-81.24","68.78","SANIRAJAK AIRPORT","2402354","2022-11-27 05:00","2022","11","27","05:00","-27.1","","-29.6","","80","","0.0","","32","","24","","16.1","","101.48","","","","-40","","NA"
"-81.24","68.78","SANIRAJAK AIRPORT","2402354","2022-11-27 06:00","2022","11","27","06:00","-26.6","","-29.1","","80","","0.0","","32","","22","","16.1","","101.48","","","","-39","","NA"
"-81.24","68.78","SANIRAJAK AIRPORT","2402354","2022-11-27 07:00","2022","11","27","07:00","-25.5","","-27.7","","82","","0.0","","32","","15","","16.1","","101.50","","","","-36","","NA"
"-81.24","68.78","SANIRAJAK AIRPORT","2402354","2022-11-27 08:00","2022","11","27","08:00","-23.7","","-25.8","","83","","0.0","","31","","11","","16.1","","101.48","","","","-32","","NA"
"-81.24","68.78","SANIRAJAK AIRPORT","2402354","2022-11-27 09:00","2022","11","27","09:00","-24.6","","-27.0","","81","","0.0","","30","","15","","16.1","","101.46","","","","-35","","NA"
"-81.24","68.78","SANIRAJAK AIRPORT","2402354","2022-11-27 10:00","2022","11","27","10:00","-26.5","","-29.1","","79","","0.0","","28","","11","","16.1","","101.47","","","","-35","","NA"
"-81.24","68.78","SANIRAJAK AIRPORT","2402354","2022-11-27 11:00","2022","11","27","11:00","-25.6","","-28.0","","81","","0.0","","26","","11","","16.1","","101.45","","","","-34","","NA"
"-81.24","68.78","SANIRAJAK AIRPORT","2402354","2022-11-27 12:00","2022","11","27","12:00","-25.0","","-27.2","","82","","0.0","","27","","13","","16.1","","101.42","","","","-34","","NA"
"-81.24","68.78","SANIRAJAK AIRPORT","2402354","2022-11-27 13:00","2022","11","27","13:00","-23.2","","-25.3","","83","","0.0","","27","","15","","16.1","","101.39","","","","-33","","NA"
"-81.24","68.78","SANIRAJAK AIRPORT","2402354","2022-11-27 14:00","2022","11","27","14:00","-22.5","","-24.5","","84","","0.0","","29","","9","","16.1","","101.42","","","","-30","","Snow"
"-81.24","68.78","SANIRAJAK AIRPORT","2402354","2022-11-27 15:00","2022","11","27","15:00","-22.1","","-24.1","","84","","0.0","","27","","4","","14.5","","101.43","","","","-26","","Snow"
"-81.24","68.78","SANIRAJAK AIRPORT","2402354","2022-11-27 16:00","2022","11","27","16:00","-21.3","","-23.3","","84","","0.0","","27","","11","","16.1","","101.45","","","","-29","","Snow"
"-81.24","68.78","SANIRAJAK AIRPORT","2402354","2022-11-27 17:00","2022","11","27","17:00","-19.8","","-21.6","","86","","193.0","","26","","9","","16.1","","101.44","","","","-27","","Snow"
"-81.24","68.78","SANIRAJAK AIRPORT","2402354","2022-11-27 18:00","2022","11","27","18:00","-19.2","","-20.7","","88","","497.8","","27","","17","","16.1","","101.41","","","","-29","","Snow"
"-81.24","68.78","SANIRAJAK AIRPORT","2402354","2022-11-27 19:00","2022","11","27","19:00","-19.6","","-21.2","","87","","","M","29","","17","","16.1","","101.42","","","","-29","","NA"
"-81.24","68.78","SANIRAJAK AIRPORT","2402354","2022-11-27 20:00","2022","11","27","20:00","-18.6","","-20.1","","88","","610.6","","30","","21","","16.1","","101.43","","","","-29","","NA"
"-81.24","68.78","SANIRAJAK AIRPORT","2402354","2022-11-27 21:00","2022","11","27","21:00","-18.2","","-19.7","","88","","","M","30","","22","","16.1","","101.42","","","","-29","","NA"
"-81.24","68.78","SANIRAJAK AIRPORT","2402354","2022-11-27 22:00","2022","11","27","22:00","-18.0","","-19.4","","89","","608.6","","31","","21","","16.1","","101.44","","","","-28","","NA"
"-81.24","68.78","SANIRAJAK AIRPORT","2402354","2022-11-27 23:00","2022","11","27","23:00","-17.6","","-19.0","","89","","","M","32","","18","","16.1","","101.45","","","","-27","","NA"
"-81.24","68.78","SANIRAJAK AIRPORT","2402354","2022-11-28 00:00","2022","11","28","00:00","-19.2","","-20.9","","87","","610.6","","33","","26","","16.1","","101.48","","","","-31","","NA"
"-81.24","68.78","SANIRAJAK AIRPORT","2402354","2022-11-28 01:00","2022","11","28","01:00","-24.3","","-26.6","","82","","171.7","","32","","24","","16.1","","101.51","","","","-37","","NA"
"-81.24","68.78","SANIRAJAK AIRPORT","2402354","2022-11-28 02:00","2022","11","28","02:00","-26.6","","-29.1","","80","","0.0","","31","","26","","16.1","","101.54","","","","-40","","NA"
"-81.24","68.78","SANIRAJAK AIRPORT","2402354","2022-11-28 03:00","2022","11","28","03:00","-26.0","","-28.5","","80","","0.0","","32","","26","","16.1","","101.58","","","","-40","","NA"
"-81.24","68.78","SANIRAJAK AIRPORT","2402354","2022-11-28 04:00","2022","11","28","04:00","-27.8","","-30.5","","78","","0.0","","32","","28","","16.1","","101.57","","","","-42","","NA"
"-81.24","68.78","SANIRAJAK AIRPORT","2402354","2022-11-28 05:00","2022","11","28","05:00","-28.3","","-31.0","","78","","0.0","","32","","26","","16.1","","101.67","","","","-43","","NA"
"-81.24","68.78","SANIRAJAK AIRPORT","2402354","2022-11-28 06:00","2022","11","28","06:00","-28.6","","-31.3","","78","","0.0","","32","","22","","16.1","","101.70","","","","-42","","NA"
"-81.24","68.78","SANIRAJAK AIRPORT","2402354","2022-11-28 07:00","2022","11","28","07:00","-29.0","","-31.7","","78","","0.0","","32","","28","","16.1","","101.74","","","","-44","","NA"
"-81.24","68.78","SANIRAJAK AIRPORT","2402354","2022-11-28 08:00","2022","11","28","08:00","-29.3","","-32.1","","77","","0.0","","32","","30","","16.1","","101.74","","","","-45","","NA"
"-81.24","68.78","SANIRAJAK AIRPORT","2402354","2022-11-28 09:00","2022","11","28","09:00","-29.4","","-32.2","","77","","0.0","","33","","24","","16.1","","101.74","","","","-43","","NA"
"-81.24","68.78","SANIRAJAK AIRPORT","2402354","2022-11-28 10:00","2022","11","28","10:00","-29.8","","-32.8","","76","","0.0","","32","","30","","16.1","","101.76","","","","-45","","NA"
"-81.24","68.78","SANIRAJAK AIRPORT","2402354","2022-11-28 11:00","2022","11","28","11:00","-29.6","","-32.3","","78","","0.0","","32","","28","","16.1","","101.77","","","","-45","","NA"
"-81.24","68.78","SANIRAJAK AIRPORT","2402354","2022-11-28 12:00","2022","11","28","12:00","-29.5","","-32.3","","77","","0.0","","33","","28","","16.1","","101.79","","","","-45","","NA"
"-81.24","68.78","SANIRAJAK AIRPORT","2402354","2022-11-28 13:00","2022","11","28","13:00","-30.2","","-33.2","","76","","0.0","","32","","28","","16.1","","101.81","","","","-45","","NA"
"-81.24","68.78","SANIRAJAK AIRPORT","2402354","2022-11-28 14:00","2022","11","28","14:00","-30.8","","-33.9","","75","","0.0","","32","","28","","16.1","","101.84","","","","-46","","NA"
"-81.24","68.78","SANIRAJAK AIRPORT","2402354","2022-11-28 15:00","2022","11","28","15:00","-31.3","","-34.4","","75","","0.0","","32","","26","","16.1","","101.86","","","","-46","","NA"
"-81.24","68.78","SANIRAJAK AIRPORT","2402354","2022-11-28 16:00","2022","11","28","16:00","-31.1","","-34.2","","75","","0.0","","31","","32","","16.1","","101.88","","","","-47","","NA"
"-81.24","68.78","SANIRAJAK AIRPORT","2402354","2022-11-28 17:00","2022","11","28","17:00","-31.0","","-33.9","","76","","0.0","","32","","32","","16.1","","101.91","","","","-47","","NA"
"-81.24","68.78","SANIRAJAK AIRPORT","2402354","2022-11-28 18:00","2022","11","28","18:00","-30.7","","-33.8","","75","","0.0","","33","","34","","6.4","","101.91","","","","-47","","Haze"
"-81.24","68.78","SANIRAJAK AIRPORT","2402354","2022-11-28 19:00","2022","11","28","19:00","-31.2","","-34.3","","75","","0.0","","","","0","","16.1","","102.00","","","","","","NA"
"-81.24","68.78","SANIRAJAK AIRPORT","2402354","2022-11-28 20:00","2022","11","28","20:00","-31.8","","-35.0","","74","","0.0","","33","","9","","16.1","","101.98","","","","-41","","NA"
"-81.24","68.78","SANIRAJAK AIRPORT","2402354","2022-11-28 21:00","2022","11","28","21:00","-31.3","","-34.4","","75","","0.0","","31","","34","","16.1","","101.93","","","","-48","","NA"
"-81.24","68.78","SANIRAJAK AIRPORT","2402354","2022-11-28 22:00","2022","11","28","22:00","-31.2","","-34.3","","75","","0.0","","32","","37","","6.4","","101.92","","","","-49","","Haze"
"-81.24","68.78","SANIRAJAK AIRPORT","2402354","2022-11-28 23:00","2022","11","28","23:00","-30.9","","-34.0","","75","","0.0","","32","","30","","4.8","","101.95","","","","-47","","Haze"
"-81.24","68.78","SANIRAJAK AIRPORT","2402354","2022-11-29 00:00","2022","11","29","00:00","-30.7","","-33.8","","75","","0.0","","32","","34","","4.0","","101.95","","","","-47","","Haze"
"-81.24","68.78","SANIRAJAK AIRPORT","2402354","2022-11-29 01:00","2022","11","29","01:00","-30.6","","-33.7","","75","","0.0","","32","","32","","4.8","","101.96","","","","-47","","Haze"
"-81.24","68.78","SANIRAJAK AIRPORT","2402354","2022-11-29 02:00","2022","11","29","02:00","-30.7","","-33.8","","75","","0.0","","32","","35","","4.0","","101.96","","","","-48","","Haze"
"-81.24","68.78","SANIRAJAK AIRPORT","2402354","2022-11-29 03:00","2022","11","29","03:00","-30.9","","-34.0","","75","","0.0","","33","","30","","12.9","","101.99","","","","-47","","NA"
"-81.24","68.78","SANIRAJAK AIRPORT","2402354","2022-11-29 04:00","2022","11","29","04:00","-30.4","","-33.4","","76","","0.0","","32","","35","","4.8","","102.02","","","","-47","","Haze"
"-81.24","68.78","SANIRAJAK AIRPORT","2402354","2022-11-29 05:00","2022","11","29","05:00","-30.2","","-33.2","","76","","0.0","","32","","32","","6.4","","102.06","","","","-46","","Haze"
"-81.24","68.78","SANIRAJAK AIRPORT","2402354","2022-11-29 06:00","2022","11","29","06:00","-30.2","","-33.2","","75","","0.0","","32","","28","","12.9","","102.08","","","","-45","","NA"
"-81.24","68.78","SANIRAJAK AIRPORT","2402354","2022-11-29 07:00","2022","11","29","07:00","-30.3","","-33.3","","76","","0.0","","31","","28","","12.9","","102.09","","","","-46","","NA"
"-81.24","68.78","SANIRAJAK AIRPORT","2402354","2022-11-29 08:00","2022","11","29","08:00","-30.7","","-33.8","","75","","0.0","","32","","30","","11.3","","102.11","","","","-47","","NA"
"-81.24","68.78","SANIRAJAK AIRPORT","2402354","2022-11-29 09:00","2022","11","29","09:00","-30.8","","-33.9","","75","","0.0","","32","","34","","6.4","","102.11","","","","-47","","Haze"
"-81.24","68.78","SANIRAJAK AIRPORT","2402354","2022-11-29 10:00","2022","11","29","10:00","-30.8","","-34.0","","74","","0.0","","31","","28","","16.1","","102.14","","","","-46","","NA"
"-81.24","68.78","SANIRAJAK AIRPORT","2402354","2022-11-29 11:00","2022","11","29","11:00","-31.3","","-34.5","","74","","0.0","","31","","28","","12.9","","102.12","","","","-47","","NA"
"-81.24","68.78","SANIRAJAK AIRPORT","2402354","2022-11-29 12:00","2022","11","29","12:00","-31.6","","-34.8","","74","","0.0","","31","","35","","6.4","","102.16","","","","-49","","Haze"
"-81.24","68.78","SANIRAJAK AIRPORT","2402354","2022-11-29 13:00","2022","11","29","13:00","-31.8","","-35.0","","74","","0.0","","31","","30","","16.1","","102.20","","","","-48","","NA"
"-81.24","68.78","SANIRAJAK AIRPORT","2402354","2022-11-29 14:00","2022","11","29","14:00","-32.0","","-35.3","","74","","0.0","","32","","24","","16.1","","102.24","","","","-47","","NA"
"-81.24","68.78","SANIRAJAK AIRPORT","2402354","2022-11-29 15:00","2022","11","29","15:00","-32.3","","-35.6","","73","","0.0","","31","","21","","16.1","","102.32","","","","-46","","NA"
"-81.24","68.78","SANIRAJAK AIRPORT","2402354","2022-11-29 16:00","2022","11","29","16:00","-32.4","","-35.7","","73","","0.0","","30","","22","","16.1","","102.36","","","","-47","","NA"
"-81.24","68.78","SANIRAJAK AIRPORT","2402354","2022-11-29 17:00","2022","11","29","17:00","-32.5","","-35.8","","73","","0.0","","32","","22","","16.1","","102.37","","","","-47","","NA"
"-81.24","68.78","SANIRAJAK AIRPORT","2402354","2022-11-29 18:00","2022","11","29","18:00","-33.0","","-36.5","","72","","0.0","","33","","15","","16.1","","102.38","","","","-45","","NA"
"-81.24","68.78","SANIRAJAK AIRPORT","2402354","2022-11-29 19:00","2022","11","29","19:00","-33.0","","-36.3","","73","","0.0","","31","","18","","16.1","","102.39","","","","-46","","NA"
"-81.24","68.78","SANIRAJAK AIRPORT","2402354","2022-11-29 20:00","2022","11","29","20:00","-32.7","","-36.0","","73","","0.0","","31","","18","","16.1","","102.40","","","","-46","","NA"
"-81.24","68.78","SANIRAJAK AIRPORT","2402354","2022-11-29 21:00","2022","11","29","21:00","-32.4","","-35.9","","72","","0.0","","29","","18","","16.1","","102.42","","","","-45","","NA"
"-81.24","68.78","SANIRAJAK AIRPORT","2402354","2022-11-29 22:00","2022","11","29","22:00","-32.4","","-35.9","","72","","0.0","","29","","22","","16.1","","102.41","","","","-47","","NA"
"-81.24","68.78","SANIRAJAK AIRPORT","2402354","2022-11-29 23:00","2022","11","29","23:00","-32.9","","-36.2","","73","","0.0","","28","","21","","16.1","","102.44","","","","-47","","NA"
"-81.24","68.78","SANIRAJAK AIRPORT","2402354","2022-11-30 00:00","2022","11","30","00:00","-32.2","","-35.6","","73","","0.0","","30","","26","","16.1","","102.45","","","","-48","","NA"
"-81.24","68.78","SANIRAJAK AIRPORT","2402354","2022-11-30 01:00","2022","11","30","01:00","-33.2","","-36.7","","72","","0.0","","29","","21","","16.1","","102.47","","","","-47","","NA"
"-81.24","68.78","SANIRAJAK AIRPORT","2402354","2022-11-30 02:00","2022","11","30","02:00","-33.5","","-36.9","","72","","0.0","","30","","18","","16.1","","102.48","","","","-47","","NA"
"-81.24","68.78","SANIRAJAK AIRPORT","2402354","2022-11-30 03:00","2022","11","30","03:00","-33.3","","-36.8","","72","","0.0","","31","","15","","16.1","","102.46","","","","-45","","NA"
"-81.24","68.78","SANIRAJAK AIRPORT","2402354","2022-11-30 04:00","2022","11","30","04:00","-34.7","","-38.3","","71","","0.0","","28","","13","","16.1","","102.45","","","","-46","","NA"
"-81.24","68.78","SANIRAJAK AIRPORT","2402354","2022-11-30 05:00","2022","11","30","05:00","-34.2","","-37.6","","72","","0.0","","22","","11","","16.1","","102.48","","","","-45","","NA"
"-81.24","68.78","SANIRAJAK AIRPORT","2402354","2022-11-30 06:00","2022","11","30","06:00","-33.7","","-37.1","","72","","0.0","","22","","9","","16.1","","102.47","","","","-43","","NA"
"-81.24","68.78","SANIRAJAK AIRPORT","2402354","2022-11-30 07:00","2022","11","30","07:00","-33.7","","-37.1","","72","","0.0","","23","","11","","16.1","","102.45","","","","-44","","NA"
"-81.24","68.78","SANIRAJAK AIRPORT","2402354","2022-11-30 08:00","2022","11","30","08:00","-33.4","","-36.8","","72","","0.0","","25","","13","","16.1","","102.39","","","","-45","","NA"
"-81.24","68.78","SANIRAJAK AIRPORT","2402354","2022-11-30 09:00","2022","11","30","09:00","-32.4","","-35.7","","73","","0.0","","24","","15","","16.1","","102.34","","","","-44","","NA"
"-81.24","68.78","SANIRAJAK AIRPORT","2402354","2022-11-30 10:00","2022","11","30","10:00","-32.2","","-35.5","","73","","0.0","","24","","11","","16.1","","102.34","","","","-42","","NA"
"-81.24","68.78","SANIRAJAK AIRPORT","2402354","2022-11-30 11:00","2022","11","30","11:00","-31.6","","-35.0","","73","","0.0","","24","","13","","16.1","","102.32","","","","-43","","NA"
"-81.24","68.78","SANIRAJAK AIRPORT","2402354","2022-11-30 12:00","2022","11","30","12:00","-32.2","","-35.4","","74","","0.0","","28","","13","","16.1","","102.33","","","","-43","","NA"
"-81.24","68.78","SANIRAJAK AIRPORT","2402354","2022-11-30 13:00","2022","11","30","13:00","-31.3","","-34.5","","74","","0.0","","25","","9","","16.1","","102.33","","","","-40","","NA"
"-81.24","68.78","SANIRAJAK AIRPORT","2402354","2022-11-30 14:00","2022","11","30","14:00","-29.5","","-32.6","","75","","0.0","","25","","11","","16.1","","102.33","","","","-39","","NA"
"-81.24","68.78","SANIRAJAK AIRPORT","2402354","2022-11-30 15:00","2022","11","30","15:00","-30.2","","-33.3","","75","","0.0","","25","","11","","16.1","","102.34","","","","-40","","NA"
"-81.24","68.78","SANIRAJAK AIRPORT","2402354","2022-11-30 16:00","2022","11","30","16:00","-29.8","","-32.9","","75","","0.0","","27","","9","","16.1","","102.34","","","","-38","","NA"
"-81.24","68.78","SANIRAJAK AIRPORT","2402354","2022-11-30 17:00","2022","11","30","17:00","-29.3","","-32.1","","77","","0.0","","28","","17","","16.1","","102.32","","","","-41","","NA"
"-81.24","68.78","SANIRAJAK AIRPORT","2402354","2022-11-30 18:00","2022","11","30","18:00","-28.7","","-31.8","","75","","0.0","","26","","9","","16.1","","102.32","","","","-37","","NA"
"-81.24","68.78","SANIRAJAK AIRPORT","2402354","2022-11-30 19:00","2022","11","30","19:00","-29.3","","-32.4","","75","","0.0","","29","","9","","16.1","","102.32","","","","-38","","NA"
"-81.24","68.78","SANIRAJAK AIRPORT","2402354","2022-11-30 20:00","2022","11","30","20:00","-28.9","","-32.1","","75","","0.0","","29","","9","","16.1","","102.31","","","","-37","","NA"
"-81.24","68.78","SANIRAJAK AIRPORT","2402354","2022-11-30 21:00","2022","11","30","21:00","-29.0","","-32.0","","76","","0.0","","25","","8","","16.1","","102.31","","","","-37","","NA"
"-81.24","68.78","SANIRAJAK AIRPORT","2402354","2022-11-30 22:00","2022","11","30","22:00","-28.7","","-31.8","","75","","0.0","","27","","8","","16.1","","102.30","","","","-36","","NA"
"-81.24","68.78","SANIRAJAK AIRPORT","2402354","2022-11-30 23:00","2022","11","30","23:00","-28.5","","-31.4","","77","","0.0","","26","","9","","16.1","","102.31","","","","-37","","NA"
