"Longitude (x)","Latitude (y)","Station Name","Climate ID","Date/Time (LST)","Year","Month","Day","Time (LST)","Temp (°C)","Temp Flag","Dew Point Temp (°C)","Dew Point Temp Flag","Rel Hum (%)","Rel Hum Flag","Precip. Amount (mm)","Precip. Amount Flag","Wind Dir (10s deg)","Wind Dir Flag","Wind Spd (km/h)","Wind Spd Flag","Visibility (km)","Visibility Flag","Stn Press (kPa)","Stn Press Flag","Hmdx","Hmdx Flag","Wind Chill","Wind Chill Flag","Weather"
"-81.24","68.78","SANIRAJAK AIRPORT","2402354","2022-12-01 00:00","2022","12","01","00:00","-29.4","","-32.2","","77","","0.0","","33","","8","","16.1","","102.30","","","","-37","","NA"
"-81.24","68.78","SANIRAJAK AIRPORT","2402354","2022-12-01 01:00","2022","12","01","01:00","-29.3","","-32.4","","75","","0.0","","33","","5","","16.1","","102.30","","","","-35","","NA"
"-81.24","68.78","SANIRAJAK AIRPORT","2402354","2022-12-01 02:00","2022","12","01","02:00","-30.9","","-33.8","","76","","0.0","","34","","11","","16.1","","102.29","","","","-41","","NA"
"-81.24","68.78","SANIRAJAK AIRPORT","2402354","2022-12-01 03:00","2022","12","01","03:00","-30.2","","-33.0","","77","","0.0","","33","","5","","16.1","","102.33","","","","-36","","NA"
"-81.24","68.78","SANIRAJAK AIRPORT","2402354","2022-12-01 04:00","2022","12","01","04:00","-30.1","","-33.0","","76","","0.0","","","","0","","16.1","","102.32","","","","","","NA"
"-81.24","68.78","SANIRAJAK AIRPORT","2402354","2022-12-01 05:00","2022","12","01","05:00","-23.8","","-24.3","","96","","0.0","","19","","17","","16.1","","102.33","","","","-34","","NA"
"-81.24","68.78","SANIRAJAK AIRPORT","2402354","2022-12-01 06:00","2022","12","01","06:00","-23.0","","-25.0","","84","","0.0","","19","","17","","14.5","","102.32","","","","-33","","Snow"
"-81.24","68.78","SANIRAJAK AIRPORT","2402354","2022-12-01 07:00","2022","12","01","07:00","-22.7","","-24.8","","83","","0.0","","17","","22","","16.1","","102.31","","","","-34","","NA"
"-81.24","68.78","SANIRAJAK AIRPORT","2402354","2022-12-01 08:00","2022","12","01","08:00","-23.3","","-25.4","","83","","0.0","","16","","22","","16.1","","102.31","","","","-35","","NA"
"-81.24","68.78","SANIRAJAK AIRPORT","2402354","2022-12-01 09:00","2022","12","01","09:00","-23.5","","-25.7","","83","","0.0","","15","","18","","16.1","","102.26","","","","-34","","NA"
"-81.24","68.78","SANIRAJAK AIRPORT","2402354","2022-12-01 10:00","2022","12","01","10:00","-22.9","","-25.2","","82","","0.0","","15","","21","","16.1","","102.26","","","","-34","","NA"
"-81.24","68.78","SANIRAJAK AIRPORT","2402354","2022-12-01 11:00","2022","12","01","11:00","-22.2","","-24.1","","85","","0.0","","14","","22","","16.1","","102.27","","","","-34","","NA"
"-81.24","68.78","SANIRAJAK AIRPORT","2402354","2022-12-01 12:00","2022","12","01","12:00","-21.7","","-23.8","","84","","0.0","","13","","21","","16.1","","102.24","","","","-33","","NA"
"-81.24","68.78","SANIRAJAK AIRPORT","2402354","2022-12-01 13:00","2022","12","01","13:00","-21.7","","-23.7","","84","","0.0","","13","","17","","16.1","","102.20","","","","-32","","NA"
"-81.24","68.78","SANIRAJAK AIRPORT","2402354","2022-12-01 14:00","2022","12","01","14:00","-21.9","","-23.8","","85","","0.0","","9","","15","","16.1","","102.13","","","","-31","","NA"
"-81.24","68.78","SANIRAJAK AIRPORT","2402354","2022-12-01 15:00","2022","12","01","15:00","-21.5","","-23.3","","86","","0.0","","5","","21","","16.1","","102.02","","","","-33","","NA"
"-81.24","68.78","SANIRAJAK AIRPORT","2402354","2022-12-01 16:00","2022","12","01","16:00","-20.8","","-23.4","","80","","0.0","","5","","32","","14.5","","101.95","","","","-34","","NA"
"-81.24","68.78","SANIRAJAK AIRPORT","2402354","2022-12-01 17:00","2022","12","01","17:00","-20.7","","-23.0","","82","","0.0","","5","","35","","4.8","","101.86","","","","-34","","Fog"
"-81.24","68.78","SANIRAJAK AIRPORT","2402354","2022-12-01 18:00","2022","12","01","18:00","-20.3","","-22.6","","82","","0.0","","7","","34","","6.4","","101.77","","","","-34","","Snow"
"-81.24","68.78","SANIRAJAK AIRPORT","2402354","2022-12-01 19:00","2022","12","01","19:00","-19.7","","-22.5","","79","","447.0","","8","","30","","9.7","","101.67","","","","-32","","Snow"
"-81.24","68.78","SANIRAJAK AIRPORT","2402354","2022-12-01 20:00","2022","12","01","20:00","-19.3","","-21.6","","82","","","M","8","","32","","8.1","","101.56","","","","-32","","Snow"
"-81.24","68.78","SANIRAJAK AIRPORT","2402354","2022-12-01 21:00","2022","12","01","21:00","-18.3","","-20.8","","81","","","M","8","","34","","16.1","","101.42","","","","-31","","NA"
"-81.24","68.78","SANIRAJAK AIRPORT","2402354","2022-12-01 22:00","2022","12","01","22:00","-17.4","","-19.9","","81","","","M","9","","32","","16.1","","101.30","","","","-30","","NA"
"-81.24","68.78","SANIRAJAK AIRPORT","2402354","2022-12-01 23:00","2022","12","01","23:00","-17.4","","-19.5","","84","","609.1","","9","","37","","4.0","","101.17","","","","-30","","Snow"
"-81.24","68.78","SANIRAJAK AIRPORT","2402354","2022-12-02 00:00","2022","12","02","00:00","-17.3","","-19.5","","83","","609.6","","9","","37","","6.4","","101.06","","","","-30","","Snow"
"-81.24","68.78","SANIRAJAK AIRPORT","2402354","2022-12-02 01:00","2022","12","02","01:00","-16.9","","-19.0","","84","","","M","9","","39","","3.2","","100.95","","","","-30","","Snow"
"-81.24","68.78","SANIRAJAK AIRPORT","2402354","2022-12-02 02:00","2022","12","02","02:00","-16.7","","-18.7","","85","","608.6","","9","","34","","4.0","","100.88","","","","-29","","Snow"
"-81.24","68.78","SANIRAJAK AIRPORT","2402354","2022-12-02 03:00","2022","12","02","03:00","-16.5","","-18.4","","86","","","M","10","","32","","2.4","","100.80","","","","-28","","Snow"
"-81.24","68.78","SANIRAJAK AIRPORT","2402354","2022-12-02 04:00","2022","12","02","04:00","-16.3","","-18.3","","85","","","M","10","","32","","2.8","","100.70","","","","-28","","Snow"
"-81.24","68.78","SANIRAJAK AIRPORT","2402354","2022-12-02 05:00","2022","12","02","05:00","-16.1","","-18.2","","84","","","M","10","","35","","2.4","","100.61","","","","-28","","Snow"
"-81.24","68.78","SANIRAJAK AIRPORT","2402354","2022-12-02 06:00","2022","12","02","06:00","-15.9","","-18.0","","84","","609.6","","9","","32","","3.2","","100.49","","","","-28","","Snow"
"-81.24","68.78","SANIRAJAK AIRPORT","2402354","2022-12-02 07:00","2022","12","02","07:00","-16.3","","-18.1","","86","","610.6","","7","","32","","2.4","","100.36","","","","-28","","Snow"
"-81.24","68.78","SANIRAJAK AIRPORT","2402354","2022-12-02 08:00","2022","12","02","08:00","-16.3","","-18.0","","87","","","M","7","","30","","4.0","","100.22","","","","-28","","Snow"
"-81.24","68.78","SANIRAJAK AIRPORT","2402354","2022-12-02 09:00","2022","12","02","09:00","-16.0","","-17.7","","87","","608.6","","9","","28","","2.4","","100.08","","","","-27","","Snow"
"-81.24","68.78","SANIRAJAK AIRPORT","2402354","2022-12-02 10:00","2022","12","02","10:00","-15.8","","-17.8","","85","","609.6","","8","","28","","6.4","","99.92","","","","-27","","Snow"
"-81.24","68.78","SANIRAJAK AIRPORT","2402354","2022-12-02 11:00","2022","12","02","11:00","-15.3","","-17.1","","86","","610.6","","5","","22","","2.8","","99.76","","","","-25","","Snow"
"-81.24","68.78","SANIRAJAK AIRPORT","2402354","2022-12-02 12:00","2022","12","02","12:00","-14.9","","-16.6","","87","","","M","7","","22","","3.2","","99.63","","","","-24","","Snow"
"-81.24","68.78","SANIRAJAK AIRPORT","2402354","2022-12-02 13:00","2022","12","02","13:00","-14.9","","-16.4","","89","","","M","3","","24","","2.4","","99.47","","","","-25","","Snow"
"-81.24","68.78","SANIRAJAK AIRPORT","2402354","2022-12-02 14:00","2022","12","02","14:00","-14.8","","-16.4","","88","","","M","3","","24","","2.4","","99.38","","","","-25","","Snow"
"-81.24","68.78","SANIRAJAK AIRPORT","2402354","2022-12-02 15:00","2022","12","02","15:00","-15.1","","-16.5","","89","","","M","1","","22","","2.4","","99.28","","","","-25","","Snow"
"-81.24","68.78","SANIRAJAK AIRPORT","2402354","2022-12-02 16:00","2022","12","02","16:00","-16.4","","-18.0","","88","","","M","35","","30","","2.4","","99.17","","","","-28","","Snow"
"-81.24","68.78","SANIRAJAK AIRPORT","2402354","2022-12-02 17:00","2022","12","02","17:00","-17.5","","-19.2","","87","","","M","35","","35","","2.8","","99.08","","","","-30","","Snow"
"-81.24","68.78","SANIRAJAK AIRPORT","2402354","2022-12-02 18:00","2022","12","02","18:00","-18.4","","-20.1","","87","","609.6","","34","","37","","3.2","","99.03","","","","-32","","Snow"
"-81.24","68.78","SANIRAJAK AIRPORT","2402354","2022-12-02 19:00","2022","12","02","19:00","-18.5","","-20.3","","86","","","M","33","","28","","4.8","","98.94","","","","-30","","Snow"
"-81.24","68.78","SANIRAJAK AIRPORT","2402354","2022-12-02 20:00","2022","12","02","20:00","-19.3","","-21.1","","86","","","M","32","","34","","3.2","","98.92","","","","-32","","Snow"
"-81.24","68.78","SANIRAJAK AIRPORT","2402354","2022-12-02 21:00","2022","12","02","21:00","-19.6","","-21.5","","85","","608.6","","31","","32","","6.4","","98.91","","","","-32","","Fog"
"-81.24","68.78","SANIRAJAK AIRPORT","2402354","2022-12-02 22:00","2022","12","02","22:00","-19.9","","-21.8","","85","","","M","32","","32","","2.8","","98.88","","","","-33","","Snow"
"-81.24","68.78","SANIRAJAK AIRPORT","2402354","2022-12-02 23:00","2022","12","02","23:00","-21.2","","-23.2","","84","","142.2","","31","","26","","16.1","","98.88","","","","-33","","Snow"
"-81.24","68.78","SANIRAJAK AIRPORT","2402354","2022-12-03 00:00","2022","12","03","00:00","-21.9","","-24.1","","83","","0.0","","31","","26","","14.5","","98.93","","","","-34","","NA"
"-81.24","68.78","SANIRAJAK AIRPORT","2402354","2022-12-03 01:00","2022","12","03","01:00","-22.4","","-24.7","","82","","0.0","","29","","26","","16.1","","99.03","","","","-35","","NA"
"-81.24","68.78","SANIRAJAK AIRPORT","2402354","2022-12-03 02:00","2022","12","03","02:00","-23.4","","-25.8","","81","","0.0","","29","","18","","16.1","","99.12","","","","-34","","NA"
"-81.24","68.78","SANIRAJAK AIRPORT","2402354","2022-12-03 03:00","2022","12","03","03:00","-24.0","","-26.4","","81","","0.0","","29","","21","","16.1","","99.24","","","","-36","","NA"
"-81.24","68.78","SANIRAJAK AIRPORT","2402354","2022-12-03 04:00","2022","12","03","04:00","-24.3","","-26.7","","81","","0.0","","29","","24","","16.1","","99.36","","","","-37","","NA"
"-81.24","68.78","SANIRAJAK AIRPORT","2402354","2022-12-03 05:00","2022","12","03","05:00","-23.9","","-26.3","","81","","0.0","","30","","24","","16.1","","99.47","","","","-36","","NA"
"-81.24","68.78","SANIRAJAK AIRPORT","2402354","2022-12-03 06:00","2022","12","03","06:00","-25.0","","-27.7","","79","","0.0","","29","","21","","16.1","","99.59","","","","-37","","Snow"
"-81.24","68.78","SANIRAJAK AIRPORT","2402354","2022-12-03 07:00","2022","12","03","07:00","-25.9","","-28.5","","79","","0.0","","29","","18","","16.1","","99.72","","","","-37","","NA"
"-81.24","68.78","SANIRAJAK AIRPORT","2402354","2022-12-03 08:00","2022","12","03","08:00","-27.6","","-30.5","","77","","0.0","","28","","22","","16.1","","99.83","","","","-41","","NA"
"-81.24","68.78","SANIRAJAK AIRPORT","2402354","2022-12-03 09:00","2022","12","03","09:00","-27.9","","-30.8","","77","","0.0","","28","","22","","16.1","","99.93","","","","-41","","NA"
"-81.24","68.78","SANIRAJAK AIRPORT","2402354","2022-12-03 10:00","2022","12","03","10:00","-27.9","","-30.8","","77","","0.0","","28","","21","","16.1","","100.01","","","","-41","","Snow"
"-81.24","68.78","SANIRAJAK AIRPORT","2402354","2022-12-03 11:00","2022","12","03","11:00","-28.8","","-31.7","","77","","0.0","","26","","17","","16.1","","100.13","","","","-41","","NA"
"-81.24","68.78","SANIRAJAK AIRPORT","2402354","2022-12-03 12:00","2022","12","03","12:00","-29.8","","-32.5","","78","","0.0","","28","","13","","16.1","","100.23","","","","-40","","NA"
"-81.24","68.78","SANIRAJAK AIRPORT","2402354","2022-12-03 13:00","2022","12","03","13:00","-30.6","","-33.6","","76","","0.0","","26","","8","","16.1","","100.36","","","","-39","","NA"
"-81.24","68.78","SANIRAJAK AIRPORT","2402354","2022-12-03 14:00","2022","12","03","14:00","-30.8","","-33.8","","75","","0.0","","27","","11","","16.1","","100.47","","","","-41","","NA"
"-81.24","68.78","SANIRAJAK AIRPORT","2402354","2022-12-03 15:00","2022","12","03","15:00","-31.1","","-34.2","","75","","0.0","","31","","9","","16.1","","100.57","","","","-40","","NA"
"-81.24","68.78","SANIRAJAK AIRPORT","2402354","2022-12-03 16:00","2022","12","03","16:00","-32.0","","-35.2","","74","","0.0","","26","","8","","16.1","","100.66","","","","-40","","NA"
"-81.24","68.78","SANIRAJAK AIRPORT","2402354","2022-12-03 17:00","2022","12","03","17:00","-32.0","","-34.9","","76","","0.0","","25","","9","","16.1","","100.76","","","","-41","","NA"
"-81.24","68.78","SANIRAJAK AIRPORT","2402354","2022-12-03 18:00","2022","12","03","18:00","-33.0","","-36.2","","74","","0.0","","26","","8","","16.1","","100.88","","","","-41","","NA"
"-81.24","68.78","SANIRAJAK AIRPORT","2402354","2022-12-03 19:00","2022","12","03","19:00","-31.6","","-34.5","","76","","0.0","","31","","4","","16.1","","101.00","","","","-36","","NA"
"-81.24","68.78","SANIRAJAK AIRPORT","2402354","2022-12-03 20:00","2022","12","03","20:00","-32.3","","-35.5","","74","","0.0","","32","","11","","16.1","","101.07","","","","-42","","NA"
"-81.24","68.78","SANIRAJAK AIRPORT","2402354","2022-12-03 21:00","2022","12","03","21:00","-32.6","","-35.7","","75","","0.0","","33","","13","","16.1","","101.19","","","","-44","","NA"
"-81.24","68.78","SANIRAJAK AIRPORT","2402354","2022-12-03 22:00","2022","12","03","22:00","-32.7","","-36.0","","73","","0.0","","34","","18","","16.1","","101.23","","","","-46","","NA"
"-81.24","68.78","SANIRAJAK AIRPORT","2402354","2022-12-03 23:00","2022","12","03","23:00","-32.2","","-35.7","","72","","0.0","","35","","18","","16.1","","101.33","","","","-45","","NA"
"-81.24","68.78","SANIRAJAK AIRPORT","2402354","2022-12-04 00:00","2022","12","04","00:00","-32.2","","-35.6","","73","","0.0","","35","","17","","16.1","","101.41","","","","-45","","NA"
"-81.24","68.78","SANIRAJAK AIRPORT","2402354","2022-12-04 01:00","2022","12","04","01:00","-32.9","","-36.2","","73","","0.0","","36","","15","","16.1","","101.45","","","","-45","","NA"
"-81.24","68.78","SANIRAJAK AIRPORT","2402354","2022-12-04 02:00","2022","12","04","02:00","-31.4","","-33.9","","79","","0.0","","5","","9","","16.1","","101.48","","","","-40","","NA"
"-81.24","68.78","SANIRAJAK AIRPORT","2402354","2022-12-04 03:00","2022","12","04","03:00","-24.3","","-26.3","","84","","0.0","","6","","17","","16.1","","101.47","","","","-35","","NA"
"-81.24","68.78","SANIRAJAK AIRPORT","2402354","2022-12-04 04:00","2022","12","04","04:00","-23.2","","-25.2","","84","","0.0","","3","","17","","16.1","","101.48","","","","-34","","NA"
"-81.24","68.78","SANIRAJAK AIRPORT","2402354","2022-12-04 05:00","2022","12","04","05:00","-27.2","","-29.8","","79","","0.0","","35","","22","","4.0","","101.46","","","","-40","","Snow"
"-81.24","68.78","SANIRAJAK AIRPORT","2402354","2022-12-04 06:00","2022","12","04","06:00","-22.3","","-24.2","","85","","0.0","","4","","26","","16.1","","101.44","","","","-35","","NA"
"-81.24","68.78","SANIRAJAK AIRPORT","2402354","2022-12-04 07:00","2022","12","04","07:00","-21.3","","-23.2","","85","","0.0","","4","","32","","4.0","","101.32","","","","-35","","Fog"
"-81.24","68.78","SANIRAJAK AIRPORT","2402354","2022-12-04 08:00","2022","12","04","08:00","-21.5","","-23.4","","85","","0.0","","2","","35","","1.6","","101.25","","","","-35","","Snow"
"-81.24","68.78","SANIRAJAK AIRPORT","2402354","2022-12-04 09:00","2022","12","04","09:00","-21.6","","-23.5","","85","","0.0","","2","","39","","2.0","","101.19","","","","-36","","Snow,Blowing Snow"
"-81.24","68.78","SANIRAJAK AIRPORT","2402354","2022-12-04 10:00","2022","12","04","10:00","-21.3","","-23.2","","85","","0.0","","2","","39","","1.6","","101.13","","","","-36","","Snow,Blowing Snow"
"-81.24","68.78","SANIRAJAK AIRPORT","2402354","2022-12-04 11:00","2022","12","04","11:00","-24.6","","-26.9","","82","","0.0","","35","","37","","0.8","","101.04","","","","-40","","Moderate Snow"
"-81.24","68.78","SANIRAJAK AIRPORT","2402354","2022-12-04 12:00","2022","12","04","12:00","-24.6","","-26.9","","82","","0.0","","35","","46","","0.6","","100.89","","","","-41","","Moderate Snow,Blowing Snow"
"-81.24","68.78","SANIRAJAK AIRPORT","2402354","2022-12-04 13:00","2022","12","04","13:00","-23.6","","-25.6","","84","","0.0","","36","","43","","0.6","","100.74","","","","-39","","Heavy Snow,Blowing Snow"
"-81.24","68.78","SANIRAJAK AIRPORT","2402354","2022-12-04 14:00","2022","12","04","14:00","-21.6","","-23.5","","85","","0.0","","36","","41","","0.6","","100.68","","","","-36","","Moderate Snow,Blowing Snow"
"-81.24","68.78","SANIRAJAK AIRPORT","2402354","2022-12-04 15:00","2022","12","04","15:00","-20.6","","-22.4","","86","","0.0","","36","","41","","1.2","","100.58","","","","-35","","Snow,Blowing Snow"
"-81.24","68.78","SANIRAJAK AIRPORT","2402354","2022-12-04 16:00","2022","12","04","16:00","-20.6","","-22.5","","85","","0.1","","35","","46","","0.8","","100.57","","","","-36","","Moderate Snow,Blowing Snow"
"-81.24","68.78","SANIRAJAK AIRPORT","2402354","2022-12-04 17:00","2022","12","04","17:00","-20.2","","-22.0","","86","","0.1","","36","","46","","0.8","","100.50","","","","-35","","Moderate Snow,Blowing Snow"
"-81.24","68.78","SANIRAJAK AIRPORT","2402354","2022-12-04 18:00","2022","12","04","18:00","-18.8","","-20.2","","89","","467.4","","36","","45","","1.0","","100.42","","","","-33","","Snow,Blowing Snow"
"-81.24","68.78","SANIRAJAK AIRPORT","2402354","2022-12-04 19:00","2022","12","04","19:00","-17.6","","-18.8","","90","","","M","35","","35","","1.0","","100.35","","","","-30","","Snow"
"-81.24","68.78","SANIRAJAK AIRPORT","2402354","2022-12-04 20:00","2022","12","04","20:00","-14.1","","-14.7","","95","","609.6","","1","","35","","1.2","","100.33","","","","-26","","Snow"
"-81.24","68.78","SANIRAJAK AIRPORT","2402354","2022-12-04 21:00","2022","12","04","21:00","-11.8","","-11.8","","100","","","M","2","","35","","2.4","","100.28","","","","-23","","Snow"
"-81.24","68.78","SANIRAJAK AIRPORT","2402354","2022-12-04 22:00","2022","12","04","22:00","-9.7","","-9.7","","100","","609.6","","3","","28","","4.0","","100.22","","","","-19","","Snow"
"-81.24","68.78","SANIRAJAK AIRPORT","2402354","2022-12-04 23:00","2022","12","04","23:00","-8.3","","-8.3","","100","","","M","5","","24","","2.8","","100.16","","","","-16","","Snow"
"-81.24","68.78","SANIRAJAK AIRPORT","2402354","2022-12-05 00:00","2022","12","05","00:00","-7.9","","-7.9","","100","","609.6","","5","","26","","3.2","","100.12","","","","-16","","Snow"
"-81.24","68.78","SANIRAJAK AIRPORT","2402354","2022-12-05 01:00","2022","12","05","01:00","-7.5","","-7.5","","100","","","M","6","","22","","3.6","","100.11","","","","-15","","Snow"
"-81.24","68.78","SANIRAJAK AIRPORT","2402354","2022-12-05 02:00","2022","12","05","02:00","-6.6","","-6.6","","100","","609.6","","8","","24","","4.8","","100.08","","","","-14","","Snow"
"-81.24","68.78","SANIRAJAK AIRPORT","2402354","2022-12-05 03:00","2022","12","05","03:00","-7.1","","","M","","M","","M","8","","22","","6.4","","100.07","","","","-15","","Snow"
"-81.24","68.78","SANIRAJAK AIRPORT","2402354","2022-12-05 04:00","2022","12","05","04:00","-6.7","","-6.7","","100","","609.6","","8","","21","","9.7","","100.07","","","","-14","","Snow"
"-81.24","68.78","SANIRAJAK AIRPORT","2402354","2022-12-05 05:00","2022","12","05","05:00","-6.5","","","M","","M","","M","8","","18","","6.4","","100.05","","","","-13","","Snow"
"-81.24","68.78","SANIRAJAK AIRPORT","2402354","2022-12-05 06:00","2022","12","05","06:00","-5.8","","-5.8","","100","","609.6","","10","","21","","8.1","","100.01","","","","-13","","Rain,Snow"
"-81.24","68.78","SANIRAJAK AIRPORT","2402354","2022-12-05 07:00","2022","12","05","07:00","-6.0","","-6.0","","100","","","M","9","","22","","4.8","","99.96","","","","-13","","Snow"
"-81.24","68.78","SANIRAJAK AIRPORT","2402354","2022-12-05 08:00","2022","12","05","08:00","-6.1","","","M","","M","","M","9","","21","","3.2","","99.97","","","","-13","","Snow"
"-81.24","68.78","SANIRAJAK AIRPORT","2402354","2022-12-05 09:00","2022","12","05","09:00","-6.0","","-6.0","","100","","","M","10","","18","","3.2","","99.97","","","","-12","","Snow"
"-81.24","68.78","SANIRAJAK AIRPORT","2402354","2022-12-05 10:00","2022","12","05","10:00","-6.6","","-6.6","","100","","610.4","","11","","15","","4.8","","99.98","","","","-13","","Snow"
"-81.24","68.78","SANIRAJAK AIRPORT","2402354","2022-12-05 11:00","2022","12","05","11:00","-7.0","","","M","","M","","M","12","","15","","4.8","","100.00","","","","-13","","Snow"
"-81.24","68.78","SANIRAJAK AIRPORT","2402354","2022-12-05 12:00","2022","12","05","12:00","-6.6","","-6.6","","100","","609.6","","17","","32","","4.0","","100.09","","","","-15","","Snow"
"-81.24","68.78","SANIRAJAK AIRPORT","2402354","2022-12-05 13:00","2022","12","05","13:00","-9.1","","-9.4","","98","","609.6","","19","","30","","9.7","","100.22","","","","-18","","Snow"
"-81.24","68.78","SANIRAJAK AIRPORT","2402354","2022-12-05 14:00","2022","12","05","14:00","-11.4","","-12.3","","93","","","M","18","","35","","8.1","","100.47","","","","-22","","Fog"
"-81.24","68.78","SANIRAJAK AIRPORT","2402354","2022-12-05 15:00","2022","12","05","15:00","-12.7","","-14.0","","90","","609.6","","18","","37","","9.7","","100.67","","","","-24","","Fog"
"-81.24","68.78","SANIRAJAK AIRPORT","2402354","2022-12-05 16:00","2022","12","05","16:00","-13.3","","-13.8","","96","","","M","18","","22","","16.1","","100.88","","","","-22","","NA"
"-81.24","68.78","SANIRAJAK AIRPORT","2402354","2022-12-05 17:00","2022","12","05","17:00","-14.7","","-15.2","","96","","610.4","","16","","18","","16.1","","101.03","","","","-23","","Snow"
"-81.24","68.78","SANIRAJAK AIRPORT","2402354","2022-12-05 18:00","2022","12","05","18:00","-13.5","","-13.6","","99","","609.6","","12","","15","","16.1","","101.15","","","","-21","","NA"
"-81.24","68.78","SANIRAJAK AIRPORT","2402354","2022-12-05 19:00","2022","12","05","19:00","-13.5","","-13.9","","97","","","M","13","","18","","16.1","","101.23","","","","-22","","NA"
"-81.24","68.78","SANIRAJAK AIRPORT","2402354","2022-12-05 20:00","2022","12","05","20:00","-13.3","","-13.7","","97","","608.8","","14","","22","","16.1","","101.31","","","","-22","","NA"
"-81.24","68.78","SANIRAJAK AIRPORT","2402354","2022-12-05 21:00","2022","12","05","21:00","-13.3","","-14.3","","92","","610.4","","15","","28","","16.1","","101.36","","","","-24","","NA"
"-81.24","68.78","SANIRAJAK AIRPORT","2402354","2022-12-05 22:00","2022","12","05","22:00","-13.9","","-15.6","","87","","609.6","","17","","24","","16.1","","101.44","","","","-24","","NA"
"-81.24","68.78","SANIRAJAK AIRPORT","2402354","2022-12-05 23:00","2022","12","05","23:00","-14.5","","-16.2","","87","","","M","14","","17","","16.1","","101.55","","","","-23","","NA"
"-81.24","68.78","SANIRAJAK AIRPORT","2402354","2022-12-06 00:00","2022","12","06","00:00","-15.1","","-16.8","","87","","","M","16","","13","","16.1","","101.58","","","","-22","","NA"
"-81.24","68.78","SANIRAJAK AIRPORT","2402354","2022-12-06 01:00","2022","12","06","01:00","-16.3","","-17.7","","89","","","M","13","","8","","16.1","","101.59","","","","-22","","NA"
"-81.24","68.78","SANIRAJAK AIRPORT","2402354","2022-12-06 02:00","2022","12","06","02:00","-17.1","","-18.0","","93","","609.6","","13","","13","","16.1","","101.60","","","","-25","","NA"
"-81.24","68.78","SANIRAJAK AIRPORT","2402354","2022-12-06 03:00","2022","12","06","03:00","-17.5","","-17.8","","98","","","M","11","","13","","16.1","","101.61","","","","-25","","NA"
"-81.24","68.78","SANIRAJAK AIRPORT","2402354","2022-12-06 04:00","2022","12","06","04:00","-16.3","","-16.3","","100","","","M","12","","5","","16.1","","101.63","","","","-20","","NA"
"-81.24","68.78","SANIRAJAK AIRPORT","2402354","2022-12-06 05:00","2022","12","06","05:00","-16.6","","-17.5","","93","","","M","10","","9","","16.1","","101.63","","","","-23","","NA"
"-81.24","68.78","SANIRAJAK AIRPORT","2402354","2022-12-06 06:00","2022","12","06","06:00","-16.8","","-18.1","","90","","609.6","","8","","11","","16.1","","101.63","","","","-24","","NA"
"-81.24","68.78","SANIRAJAK AIRPORT","2402354","2022-12-06 07:00","2022","12","06","07:00","-16.5","","-17.7","","91","","609.6","","9","","13","","16.1","","101.64","","","","-24","","NA"
"-81.24","68.78","SANIRAJAK AIRPORT","2402354","2022-12-06 08:00","2022","12","06","08:00","-17.1","","-18.4","","90","","","M","8","","15","","9.7","","101.61","","","","-26","","Snow"
"-81.24","68.78","SANIRAJAK AIRPORT","2402354","2022-12-06 09:00","2022","12","06","09:00","-16.5","","-17.6","","91","","610.4","","9","","17","","16.1","","101.58","","","","-25","","Snow"
"-81.24","68.78","SANIRAJAK AIRPORT","2402354","2022-12-06 10:00","2022","12","06","10:00","-16.3","","-17.3","","92","","","M","7","","17","","14.5","","101.54","","","","-25","","Snow"
"-81.24","68.78","SANIRAJAK AIRPORT","2402354","2022-12-06 11:00","2022","12","06","11:00","-16.2","","-17.1","","93","","608.8","","8","","17","","16.1","","101.51","","","","-25","","Snow"
"-81.24","68.78","SANIRAJAK AIRPORT","2402354","2022-12-06 12:00","2022","12","06","12:00","-15.4","","-16.3","","93","","609.6","","8","","21","","16.1","","101.48","","","","-25","","NA"
"-81.24","68.78","SANIRAJAK AIRPORT","2402354","2022-12-06 13:00","2022","12","06","13:00","-15.4","","-16.4","","92","","610.3","","6","","21","","16.1","","101.42","","","","-25","","NA"
"-81.24","68.78","SANIRAJAK AIRPORT","2402354","2022-12-06 14:00","2022","12","06","14:00","-15.3","","-16.4","","92","","","M","7","","18","","16.1","","101.37","","","","-24","","NA"
"-81.24","68.78","SANIRAJAK AIRPORT","2402354","2022-12-06 15:00","2022","12","06","15:00","-15.1","","-15.9","","94","","","M","8","","21","","16.1","","101.29","","","","-25","","NA"
"-81.24","68.78","SANIRAJAK AIRPORT","2402354","2022-12-06 16:00","2022","12","06","16:00","-15.2","","-15.9","","95","","","M","6","","18","","16.1","","101.22","","","","-24","","NA"
"-81.24","68.78","SANIRAJAK AIRPORT","2402354","2022-12-06 17:00","2022","12","06","17:00","-13.2","","-13.5","","98","","610.3","","7","","26","","16.1","","101.13","","","","-23","","Snow"
"-81.24","68.78","SANIRAJAK AIRPORT","2402354","2022-12-06 18:00","2022","12","06","18:00","-12.7","","-12.8","","99","","","M","6","","32","","14.5","","100.97","","","","-23","","Snow"
"-81.24","68.78","SANIRAJAK AIRPORT","2402354","2022-12-06 19:00","2022","12","06","19:00","-12.0","","-12.0","","100","","608.8","","6","","35","","1.6","","100.85","","","","-23","","Snow"
"-81.24","68.78","SANIRAJAK AIRPORT","2402354","2022-12-06 20:00","2022","12","06","20:00","-11.7","","-11.7","","100","","609.6","","7","","39","","1.6","","100.74","","","","-23","","Snow"
"-81.24","68.78","SANIRAJAK AIRPORT","2402354","2022-12-06 21:00","2022","12","06","21:00","-10.2","","-10.2","","100","","610.4","","9","","32","","1.6","","100.66","","","","-20","","Snow"
"-81.24","68.78","SANIRAJAK AIRPORT","2402354","2022-12-06 22:00","2022","12","06","22:00","-9.5","","-9.5","","100","","609.6","","14","","43","","3.6","","100.68","","","","-20","","Snow"
"-81.24","68.78","SANIRAJAK AIRPORT","2402354","2022-12-06 23:00","2022","12","06","23:00","-11.6","","-11.7","","100","","","M","17","","41","","2.4","","100.80","","","","-23","","Snow,Blowing Snow"
"-81.24","68.78","SANIRAJAK AIRPORT","2402354","2022-12-07 00:00","2022","12","07","00:00","-11.8","","-11.8","","100","","","M","16","","45","","2.4","","100.91","","","","-24","","Snow,Blowing Snow"
"-81.24","68.78","SANIRAJAK AIRPORT","2402354","2022-12-07 01:00","2022","12","07","01:00","-12.9","","-13.4","","96","","609.6","","16","","48","","2.4","","101.05","","","","-26","","Snow,Blowing Snow"
"-81.24","68.78","SANIRAJAK AIRPORT","2402354","2022-12-07 02:00","2022","12","07","02:00","-13.6","","-14.6","","92","","","M","17","","46","","2.0","","101.23","","","","-26","","Snow,Blowing Snow"
"-81.24","68.78","SANIRAJAK AIRPORT","2402354","2022-12-07 03:00","2022","12","07","03:00","-14.9","","-16.2","","90","","608.8","","17","","46","","2.4","","101.35","","","","-28","","Snow,Blowing Snow"
"-81.24","68.78","SANIRAJAK AIRPORT","2402354","2022-12-07 04:00","2022","12","07","04:00","-15.2","","-16.8","","88","","","M","18","","37","","3.6","","101.50","","","","-27","","Snow"
"-81.24","68.78","SANIRAJAK AIRPORT","2402354","2022-12-07 05:00","2022","12","07","05:00","-17.3","","-19.3","","85","","","M","20","","37","","2.0","","101.66","","","","-30","","Snow"
"-81.24","68.78","SANIRAJAK AIRPORT","2402354","2022-12-07 06:00","2022","12","07","06:00","-19.2","","-21.1","","85","","609.6","","19","","35","","4.0","","101.74","","","","-32","","Snow"
"-81.24","68.78","SANIRAJAK AIRPORT","2402354","2022-12-07 07:00","2022","12","07","07:00","-20.6","","-22.8","","83","","396.2","","20","","32","","12.9","","101.89","","","","-34","","NA"
"-81.24","68.78","SANIRAJAK AIRPORT","2402354","2022-12-07 08:00","2022","12","07","08:00","-21.4","","-23.8","","81","","0.0","","20","","24","","16.1","","102.05","","","","-33","","NA"
"-81.24","68.78","SANIRAJAK AIRPORT","2402354","2022-12-07 09:00","2022","12","07","09:00","-19.2","","-21.4","","83","","325.1","","18","","24","","16.1","","102.12","","","","-30","","NA"
"-81.24","68.78","SANIRAJAK AIRPORT","2402354","2022-12-07 10:00","2022","12","07","10:00","-18.8","","-21.2","","82","","609.6","","18","","26","","9.7","","102.23","","","","-30","","Fog"
"-81.24","68.78","SANIRAJAK AIRPORT","2402354","2022-12-07 11:00","2022","12","07","11:00","-18.4","","-20.9","","81","","","M","18","","17","","16.1","","102.29","","","","-28","","Snow"
"-81.24","68.78","SANIRAJAK AIRPORT","2402354","2022-12-07 12:00","2022","12","07","12:00","-17.7","","-20.2","","81","","","M","14","","17","","12.9","","102.32","","","","-27","","NA"
"-81.24","68.78","SANIRAJAK AIRPORT","2402354","2022-12-07 13:00","2022","12","07","13:00","-17.5","","-19.9","","82","","","M","16","","13","","16.1","","102.34","","","","-25","","NA"
"-81.24","68.78","SANIRAJAK AIRPORT","2402354","2022-12-07 14:00","2022","12","07","14:00","-17.2","","-19.4","","83","","","M","15","","13","","16.1","","102.39","","","","-25","","NA"
"-81.24","68.78","SANIRAJAK AIRPORT","2402354","2022-12-07 15:00","2022","12","07","15:00","-19.1","","-20.9","","86","","","M","16","","15","","16.1","","102.50","","","","-28","","NA"
"-81.24","68.78","SANIRAJAK AIRPORT","2402354","2022-12-07 16:00","2022","12","07","16:00","-19.1","","-20.6","","88","","548.6","","16","","22","","16.1","","102.55","","","","-30","","NA"
"-81.24","68.78","SANIRAJAK AIRPORT","2402354","2022-12-07 17:00","2022","12","07","17:00","-19.0","","-20.5","","88","","609.6","","16","","22","","16.1","","102.59","","","","-30","","NA"
"-81.24","68.78","SANIRAJAK AIRPORT","2402354","2022-12-07 18:00","2022","12","07","18:00","-19.8","","-21.2","","89","","457.2","","15","","21","","16.1","","102.64","","","","-30","","NA"
"-81.24","68.78","SANIRAJAK AIRPORT","2402354","2022-12-07 19:00","2022","12","07","19:00","-19.5","","-20.9","","89","","","M","14","","13","","16.1","","102.69","","","","-28","","NA"
"-81.24","68.78","SANIRAJAK AIRPORT","2402354","2022-12-07 20:00","2022","12","07","20:00","-19.9","","-21.3","","89","","","M","13","","13","","16.1","","102.71","","","","-28","","NA"
"-81.24","68.78","SANIRAJAK AIRPORT","2402354","2022-12-07 21:00","2022","12","07","21:00","-18.4","","-19.8","","89","","608.6","","11","","13","","16.1","","102.65","","","","-26","","NA"
"-81.24","68.78","SANIRAJAK AIRPORT","2402354","2022-12-07 22:00","2022","12","07","22:00","-17.4","","-18.7","","90","","","M","9","","18","","16.1","","102.55","","","","-27","","NA"
"-81.24","68.78","SANIRAJAK AIRPORT","2402354","2022-12-07 23:00","2022","12","07","23:00","-15.8","","-17.4","","88","","","M","9","","28","","16.1","","102.47","","","","-27","","NA"
"-81.24","68.78","SANIRAJAK AIRPORT","2402354","2022-12-08 00:00","2022","12","08","00:00","-15.1","","-16.4","","90","","","M","9","","34","","4.8","","102.31","","","","-27","","Snow"
"-81.24","68.78","SANIRAJAK AIRPORT","2402354","2022-12-08 01:00","2022","12","08","01:00","-14.2","","-15.0","","94","","","M","9","","32","","4.0","","102.21","","","","-25","","Snow"
"-81.24","68.78","SANIRAJAK AIRPORT","2402354","2022-12-08 02:00","2022","12","08","02:00","-13.3","","-14.2","","93","","","M","9","","34","","1.6","","102.08","","","","-24","","Snow"
"-81.24","68.78","SANIRAJAK AIRPORT","2402354","2022-12-08 03:00","2022","12","08","03:00","-13.5","","-14.9","","89","","","M","9","","32","","11.3","","101.94","","","","-24","","Snow"
"-81.24","68.78","SANIRAJAK AIRPORT","2402354","2022-12-08 04:00","2022","12","08","04:00","-13.3","","-14.7","","90","","","M","8","","35","","14.5","","101.80","","","","-25","","NA"
"-81.24","68.78","SANIRAJAK AIRPORT","2402354","2022-12-08 05:00","2022","12","08","05:00","-13.1","","-15.1","","85","","","M","8","","28","","16.1","","101.60","","","","-23","","Snow"
"-81.24","68.78","SANIRAJAK AIRPORT","2402354","2022-12-08 06:00","2022","12","08","06:00","-12.7","","-14.2","","89","","610.6","","7","","34","","2.0","","101.41","","","","-24","","Snow"
"-81.24","68.78","SANIRAJAK AIRPORT","2402354","2022-12-08 07:00","2022","12","08","07:00","-12.8","","-13.8","","92","","","M","5","","37","","1.6","","101.19","","","","-24","","Snow"
"-81.24","68.78","SANIRAJAK AIRPORT","2402354","2022-12-08 08:00","2022","12","08","08:00","-12.5","","-13.3","","94","","608.6","","5","","34","","1.6","","101.04","","","","-23","","Snow"
"-81.24","68.78","SANIRAJAK AIRPORT","2402354","2022-12-08 09:00","2022","12","08","09:00","-12.2","","-13.0","","94","","","M","5","","28","","3.2","","100.91","","","","-22","","Snow"
"-81.24","68.78","SANIRAJAK AIRPORT","2402354","2022-12-08 10:00","2022","12","08","10:00","-12.1","","-13.2","","92","","610.7","","6","","22","","2.8","","100.84","","","","-21","","Snow"
"-81.24","68.78","SANIRAJAK AIRPORT","2402354","2022-12-08 11:00","2022","12","08","11:00","-13.1","","-13.5","","97","","","M","6","","11","","8.1","","100.78","","","","-19","","Snow"
"-81.24","68.78","SANIRAJAK AIRPORT","2402354","2022-12-08 12:00","2022","12","08","12:00","-13.3","","-13.3","","100","","","M","13","","5","","11.3","","100.74","","","","-17","","Snow"
"-81.24","68.78","SANIRAJAK AIRPORT","2402354","2022-12-08 13:00","2022","12","08","13:00","-13.8","","-14.0","","99","","","M","18","","18","","16.1","","100.75","","","","-22","","Snow"
"-81.24","68.78","SANIRAJAK AIRPORT","2402354","2022-12-08 14:00","2022","12","08","14:00","-13.7","","-14.1","","97","","","M","19","","21","","6.4","","100.83","","","","-23","","Snow"
"-81.24","68.78","SANIRAJAK AIRPORT","2402354","2022-12-08 15:00","2022","12","08","15:00","-14.5","","-15.7","","91","","","M","19","","26","","6.4","","100.92","","","","-25","","Snow"
"-81.24","68.78","SANIRAJAK AIRPORT","2402354","2022-12-08 16:00","2022","12","08","16:00","-16.7","","-18.1","","89","","","M","19","","26","","3.2","","101.06","","","","-28","","Snow"
"-81.24","68.78","SANIRAJAK AIRPORT","2402354","2022-12-08 17:00","2022","12","08","17:00","-19.7","","-21.2","","88","","579.1","","21","","18","","16.1","","101.18","","","","-30","","NA"
"-81.24","68.78","SANIRAJAK AIRPORT","2402354","2022-12-08 18:00","2022","12","08","18:00","-17.3","","-18.6","","90","","","M","19","","24","","4.0","","101.30","","","","-28","","Fog"
"-81.24","68.78","SANIRAJAK AIRPORT","2402354","2022-12-08 19:00","2022","12","08","19:00","-18.8","","-20.1","","90","","608.6","","18","","26","","6.4","","101.39","","","","-30","","Snow"
"-81.24","68.78","SANIRAJAK AIRPORT","2402354","2022-12-08 20:00","2022","12","08","20:00","-19.9","","-21.7","","86","","609.6","","20","","30","","16.1","","101.52","","","","-32","","NA"
"-81.24","68.78","SANIRAJAK AIRPORT","2402354","2022-12-08 21:00","2022","12","08","21:00","-20.5","","-22.4","","85","","61.0","","20","","28","","16.1","","101.66","","","","-33","","NA"
"-81.24","68.78","SANIRAJAK AIRPORT","2402354","2022-12-08 22:00","2022","12","08","22:00","-20.8","","-22.7","","85","","0.0","","20","","34","","8.1","","101.81","","","","-34","","Fog"
"-81.24","68.78","SANIRAJAK AIRPORT","2402354","2022-12-08 23:00","2022","12","08","23:00","-21.6","","-23.6","","84","","0.0","","20","","30","","16.1","","101.90","","","","-35","","NA"
"-81.24","68.78","SANIRAJAK AIRPORT","2402354","2022-12-09 00:00","2022","12","09","00:00","-22.3","","-24.6","","82","","0.0","","20","","22","","16.1","","102.02","","","","-34","","NA"
"-81.24","68.78","SANIRAJAK AIRPORT","2402354","2022-12-09 01:00","2022","12","09","01:00","-22.5","","-25.0","","81","","0.0","","20","","22","","16.1","","102.16","","","","-34","","NA"
"-81.24","68.78","SANIRAJAK AIRPORT","2402354","2022-12-09 02:00","2022","12","09","02:00","-23.0","","-25.3","","82","","0.0","","19","","24","","16.1","","102.24","","","","-35","","NA"
"-81.24","68.78","SANIRAJAK AIRPORT","2402354","2022-12-09 03:00","2022","12","09","03:00","-23.4","","-26.1","","79","","0.0","","20","","26","","16.1","","102.32","","","","-36","","NA"
"-81.24","68.78","SANIRAJAK AIRPORT","2402354","2022-12-09 04:00","2022","12","09","04:00","-24.1","","-26.8","","79","","0.0","","21","","21","","16.1","","102.43","","","","-36","","NA"
"-81.24","68.78","SANIRAJAK AIRPORT","2402354","2022-12-09 05:00","2022","12","09","05:00","-23.9","","-26.3","","81","","0.0","","19","","22","","16.1","","102.48","","","","-36","","NA"
"-81.24","68.78","SANIRAJAK AIRPORT","2402354","2022-12-09 06:00","2022","12","09","06:00","-26.4","","-29.0","","80","","0.0","","23","","15","","16.1","","102.56","","","","-37","","NA"
"-81.24","68.78","SANIRAJAK AIRPORT","2402354","2022-12-09 07:00","2022","12","09","07:00","-26.7","","-29.0","","81","","0.0","","23","","21","","16.1","","102.62","","","","-39","","NA"
"-81.24","68.78","SANIRAJAK AIRPORT","2402354","2022-12-09 08:00","2022","12","09","08:00","-28.3","","-30.9","","79","","0.0","","28","","9","","16.1","","102.72","","","","-37","","NA"
"-81.24","68.78","SANIRAJAK AIRPORT","2402354","2022-12-09 09:00","2022","12","09","09:00","-27.8","","-30.2","","81","","0.0","","23","","9","","16.1","","102.72","","","","-36","","NA"
"-81.24","68.78","SANIRAJAK AIRPORT","2402354","2022-12-09 10:00","2022","12","09","10:00","-27.2","","-30.1","","77","","0.0","","25","","9","","16.1","","102.77","","","","-35","","NA"
"-81.24","68.78","SANIRAJAK AIRPORT","2402354","2022-12-09 11:00","2022","12","09","11:00","-28.6","","-31.3","","78","","0.0","","22","","9","","16.1","","102.82","","","","-37","","NA"
"-81.24","68.78","SANIRAJAK AIRPORT","2402354","2022-12-09 12:00","2022","12","09","12:00","-27.3","","-30.0","","78","","0.0","","23","","13","","16.1","","102.87","","","","-37","","NA"
"-81.24","68.78","SANIRAJAK AIRPORT","2402354","2022-12-09 13:00","2022","12","09","13:00","-26.4","","-29.4","","76","","0.0","","25","","8","","16.1","","102.88","","","","-34","","NA"
"-81.24","68.78","SANIRAJAK AIRPORT","2402354","2022-12-09 14:00","2022","12","09","14:00","-26.9","","-29.7","","78","","0.0","","28","","8","","16.1","","102.94","","","","-34","","NA"
"-81.24","68.78","SANIRAJAK AIRPORT","2402354","2022-12-09 15:00","2022","12","09","15:00","-25.9","","-29.0","","76","","0.0","","28","","9","","16.1","","102.95","","","","-34","","NA"
"-81.24","68.78","SANIRAJAK AIRPORT","2402354","2022-12-09 16:00","2022","12","09","16:00","-25.4","","-28.5","","76","","0.0","","26","","5","","16.1","","103.01","","","","-30","","NA"
"-81.24","68.78","SANIRAJAK AIRPORT","2402354","2022-12-09 17:00","2022","12","09","17:00","-25.8","","-28.7","","77","","0.0","","31","","5","","16.1","","103.03","","","","-31","","NA"
"-81.24","68.78","SANIRAJAK AIRPORT","2402354","2022-12-09 18:00","2022","12","09","18:00","-25.7","","-28.3","","79","","0.0","","32","","11","","11.3","","103.06","","","","-34","","Snow"
"-81.24","68.78","SANIRAJAK AIRPORT","2402354","2022-12-09 19:00","2022","12","09","19:00","-24.2","","-26.7","","80","","0.0","","34","","15","","3.2","","103.06","","","","-34","","Snow"
"-81.24","68.78","SANIRAJAK AIRPORT","2402354","2022-12-09 20:00","2022","12","09","20:00","-24.3","","-26.7","","81","","0.0","","34","","15","","8.1","","103.06","","","","-34","","Snow"
"-81.24","68.78","SANIRAJAK AIRPORT","2402354","2022-12-09 21:00","2022","12","09","21:00","-24.1","","-26.5","","81","","0.0","","35","","15","","4.8","","103.08","","","","-34","","Snow"
"-81.24","68.78","SANIRAJAK AIRPORT","2402354","2022-12-09 22:00","2022","12","09","22:00","-23.6","","-26.0","","81","","0.0","","34","","18","","8.1","","103.09","","","","-34","","Snow"
"-81.24","68.78","SANIRAJAK AIRPORT","2402354","2022-12-09 23:00","2022","12","09","23:00","-23.8","","-26.2","","81","","0.0","","33","","21","","16.1","","103.12","","","","-36","","Snow"
"-81.24","68.78","SANIRAJAK AIRPORT","2402354","2022-12-10 00:00","2022","12","10","00:00","-23.3","","-26.1","","78","","0.0","","31","","21","","16.1","","103.16","","","","-35","","Snow"
"-81.24","68.78","SANIRAJAK AIRPORT","2402354","2022-12-10 01:00","2022","12","10","01:00","-25.8","","-28.9","","76","","0.0","","30","","18","","16.1","","103.22","","","","-37","","NA"
"-81.24","68.78","SANIRAJAK AIRPORT","2402354","2022-12-10 02:00","2022","12","10","02:00","-24.6","","-27.4","","78","","0.0","","29","","15","","16.1","","103.27","","","","-35","","NA"
"-81.24","68.78","SANIRAJAK AIRPORT","2402354","2022-12-10 03:00","2022","12","10","03:00","-23.5","","-26.3","","78","","0.0","","23","","13","","16.1","","103.36","","","","-33","","NA"
"-81.24","68.78","SANIRAJAK AIRPORT","2402354","2022-12-10 04:00","2022","12","10","04:00","-24.9","","-27.6","","79","","0.0","","21","","9","","16.1","","103.42","","","","-33","","NA"
"-81.24","68.78","SANIRAJAK AIRPORT","2402354","2022-12-10 05:00","2022","12","10","05:00","-24.7","","-27.2","","80","","0.0","","16","","8","","16.1","","103.43","","","","-32","","NA"
"-81.24","68.78","SANIRAJAK AIRPORT","2402354","2022-12-10 06:00","2022","12","10","06:00","-19.9","","-22.0","","84","","40.6","","17","","22","","16.1","","103.45","","","","-31","","NA"
"-81.24","68.78","SANIRAJAK AIRPORT","2402354","2022-12-10 07:00","2022","12","10","07:00","-20.6","","-22.6","","84","","163.3","","19","","18","","16.1","","103.49","","","","-31","","NA"
"-81.24","68.78","SANIRAJAK AIRPORT","2402354","2022-12-10 08:00","2022","12","10","08:00","-20.6","","-23.2","","80","","0.0","","20","","17","","16.1","","103.53","","","","-30","","NA"
"-81.24","68.78","SANIRAJAK AIRPORT","2402354","2022-12-10 09:00","2022","12","10","09:00","-20.8","","-23.9","","77","","0.0","","19","","21","","16.1","","103.56","","","","-32","","NA"
"-81.24","68.78","SANIRAJAK AIRPORT","2402354","2022-12-10 10:00","2022","12","10","10:00","-19.8","","-22.0","","83","","142.2","","17","","21","","14.5","","103.58","","","","-30","","NA"
"-81.24","68.78","SANIRAJAK AIRPORT","2402354","2022-12-10 11:00","2022","12","10","11:00","-18.5","","-20.6","","84","","","M","16","","26","","6.4","","103.57","","","","-30","","Snow"
"-81.24","68.78","SANIRAJAK AIRPORT","2402354","2022-12-10 12:00","2022","12","10","12:00","-18.1","","-20.2","","84","","609.6","","15","","22","","11.3","","103.58","","","","-29","","NA"
"-81.24","68.78","SANIRAJAK AIRPORT","2402354","2022-12-10 13:00","2022","12","10","13:00","-17.6","","-19.6","","85","","","M","15","","26","","14.5","","103.59","","","","-29","","Snow"
"-81.24","68.78","SANIRAJAK AIRPORT","2402354","2022-12-10 14:00","2022","12","10","14:00","-16.8","","-18.6","","86","","609.6","","14","","24","","9.7","","103.61","","","","-27","","Snow"
"-81.24","68.78","SANIRAJAK AIRPORT","2402354","2022-12-10 15:00","2022","12","10","15:00","-15.9","","-17.5","","88","","","M","13","","26","","6.4","","103.58","","","","-27","","Snow"
"-81.24","68.78","SANIRAJAK AIRPORT","2402354","2022-12-10 16:00","2022","12","10","16:00","-14.9","","-16.2","","90","","","M","13","","21","","9.7","","103.60","","","","-24","","Snow"
"-81.24","68.78","SANIRAJAK AIRPORT","2402354","2022-12-10 17:00","2022","12","10","17:00","-14.0","","-15.2","","91","","","M","13","","26","","4.8","","103.58","","","","-24","","Snow"
"-81.24","68.78","SANIRAJAK AIRPORT","2402354","2022-12-10 18:00","2022","12","10","18:00","-13.3","","-14.6","","90","","609.6","","14","","30","","4.8","","103.57","","","","-24","","Snow"
"-81.24","68.78","SANIRAJAK AIRPORT","2402354","2022-12-10 19:00","2022","12","10","19:00","-12.7","","-13.9","","91","","609.6","","14","","28","","4.8","","103.57","","","","-23","","Snow"
"-81.24","68.78","SANIRAJAK AIRPORT","2402354","2022-12-10 20:00","2022","12","10","20:00","-12.6","","-13.5","","93","","608.8","","13","","26","","8.1","","103.55","","","","-22","","Snow"
"-81.24","68.78","SANIRAJAK AIRPORT","2402354","2022-12-10 21:00","2022","12","10","21:00","-12.1","","-12.9","","94","","","M","13","","26","","8.1","","103.54","","","","-22","","Snow"
"-81.24","68.78","SANIRAJAK AIRPORT","2402354","2022-12-10 22:00","2022","12","10","22:00","-11.6","","-12.2","","96","","609.6","","13","","22","","8.1","","103.54","","","","-20","","Snow"
"-81.24","68.78","SANIRAJAK AIRPORT","2402354","2022-12-10 23:00","2022","12","10","23:00","-11.1","","-11.6","","96","","","M","13","","24","","8.1","","103.54","","","","-20","","Snow"
"-81.24","68.78","SANIRAJAK AIRPORT","2402354","2022-12-11 00:00","2022","12","11","00:00","-10.6","","-11.0","","97","","","M","13","","24","","4.8","","103.53","","","","-19","","Snow"
"-81.24","68.78","SANIRAJAK AIRPORT","2402354","2022-12-11 01:00","2022","12","11","01:00","-10.5","","-11.6","","92","","609.6","","13","","28","","16.1","","103.54","","","","-20","","Snow"
"-81.24","68.78","SANIRAJAK AIRPORT","2402354","2022-12-11 02:00","2022","12","11","02:00","-10.5","","-11.6","","92","","","M","14","","30","","16.1","","103.55","","","","-20","","Snow"
"-81.24","68.78","SANIRAJAK AIRPORT","2402354","2022-12-11 03:00","2022","12","11","03:00","-10.5","","-11.2","","95","","609.6","","12","","26","","16.1","","103.57","","","","-20","","Snow"
"-81.24","68.78","SANIRAJAK AIRPORT","2402354","2022-12-11 04:00","2022","12","11","04:00","-10.3","","-10.6","","97","","608.8","","12","","26","","8.1","","103.57","","","","-19","","Snow"
"-81.24","68.78","SANIRAJAK AIRPORT","2402354","2022-12-11 05:00","2022","12","11","05:00","-10.2","","-10.3","","99","","609.6","","12","","24","","4.8","","103.57","","","","-19","","Snow"
"-81.24","68.78","SANIRAJAK AIRPORT","2402354","2022-12-11 06:00","2022","12","11","06:00","-10.0","","-10.1","","99","","610.4","","13","","26","","6.4","","103.57","","","","-19","","Snow"
"-81.24","68.78","SANIRAJAK AIRPORT","2402354","2022-12-11 07:00","2022","12","11","07:00","-9.7","","-9.8","","99","","609.6","","13","","28","","16.1","","103.59","","","","-19","","Snow"
"-81.24","68.78","SANIRAJAK AIRPORT","2402354","2022-12-11 08:00","2022","12","11","08:00","-9.7","","-10.0","","98","","608.8","","13","","28","","4.8","","103.58","","","","-19","","Snow"
"-81.24","68.78","SANIRAJAK AIRPORT","2402354","2022-12-11 09:00","2022","12","11","09:00","-9.5","","-9.5","","100","","","M","14","","30","","3.2","","103.58","","","","-19","","Snow"
"-81.24","68.78","SANIRAJAK AIRPORT","2402354","2022-12-11 10:00","2022","12","11","10:00","-9.5","","-9.5","","100","","","M","14","","34","","4.0","","103.56","","","","-19","","Snow"
"-81.24","68.78","SANIRAJAK AIRPORT","2402354","2022-12-11 11:00","2022","12","11","11:00","-9.4","","-9.5","","99","","","M","13","","32","","6.4","","103.54","","","","-19","","Snow"
"-81.24","68.78","SANIRAJAK AIRPORT","2402354","2022-12-11 12:00","2022","12","11","12:00","-9.9","","-10.0","","99","","","M","12","","32","","3.2","","103.53","","","","-20","","Snow"
"-81.24","68.78","SANIRAJAK AIRPORT","2402354","2022-12-11 13:00","2022","12","11","13:00","-9.9","","-10.2","","98","","608.8","","13","","34","","4.8","","103.48","","","","-20","","Snow"
"-81.24","68.78","SANIRAJAK AIRPORT","2402354","2022-12-11 14:00","2022","12","11","14:00","-10.3","","-10.6","","98","","","M","12","","34","","2.4","","103.43","","","","-20","","Snow"
"-81.24","68.78","SANIRAJAK AIRPORT","2402354","2022-12-11 15:00","2022","12","11","15:00","-10.8","","-11.2","","97","","","M","13","","32","","2.4","","103.40","","","","-21","","Snow"
"-81.24","68.78","SANIRAJAK AIRPORT","2402354","2022-12-11 16:00","2022","12","11","16:00","-11.2","","-11.9","","94","","610.4","","13","","39","","2.8","","103.39","","","","-22","","Snow"
"-81.24","68.78","SANIRAJAK AIRPORT","2402354","2022-12-11 17:00","2022","12","11","17:00","-11.7","","-12.4","","95","","608.8","","13","","39","","2.0","","103.34","","","","-23","","Snow"
"-81.24","68.78","SANIRAJAK AIRPORT","2402354","2022-12-11 18:00","2022","12","11","18:00","-11.6","","-12.3","","95","","","M","13","","43","","2.4","","103.30","","","","-23","","Snow,Blowing Snow"
"-81.24","68.78","SANIRAJAK AIRPORT","2402354","2022-12-11 19:00","2022","12","11","19:00","-11.5","","-12.2","","95","","","M","13","","43","","2.8","","103.28","","","","-23","","Snow,Blowing Snow"
"-81.24","68.78","SANIRAJAK AIRPORT","2402354","2022-12-11 20:00","2022","12","11","20:00","-11.5","","-12.4","","93","","610.4","","14","","46","","2.0","","103.21","","","","-23","","Snow,Blowing Snow"
"-81.24","68.78","SANIRAJAK AIRPORT","2402354","2022-12-11 21:00","2022","12","11","21:00","-11.5","","-12.3","","94","","","M","13","","39","","2.4","","103.12","","","","-23","","Snow,Blowing Snow"
"-81.24","68.78","SANIRAJAK AIRPORT","2402354","2022-12-11 22:00","2022","12","11","22:00","-11.3","","-12.1","","94","","","M","14","","41","","3.6","","103.04","","","","-23","","Snow,Blowing Snow"
"-81.24","68.78","SANIRAJAK AIRPORT","2402354","2022-12-11 23:00","2022","12","11","23:00","-11.2","","-11.9","","95","","603.0","","13","","37","","4.8","","103.00","","","","-22","","Snow"
"-81.24","68.78","SANIRAJAK AIRPORT","2402354","2022-12-12 00:00","2022","12","12","00:00","-10.8","","-11.3","","96","","","M","14","","37","","12.9","","102.94","","","","-21","","Snow"
"-81.24","68.78","SANIRAJAK AIRPORT","2402354","2022-12-12 01:00","2022","12","12","01:00","-10.3","","-10.6","","98","","","M","14","","37","","16.1","","102.86","","","","-21","","Snow"
"-81.24","68.78","SANIRAJAK AIRPORT","2402354","2022-12-12 02:00","2022","12","12","02:00","-9.6","","-9.6","","100","","609.6","","14","","34","","16.1","","102.83","","","","-20","","Snow"
"-81.24","68.78","SANIRAJAK AIRPORT","2402354","2022-12-12 03:00","2022","12","12","03:00","-8.5","","-8.5","","100","","609.6","","15","","26","","16.1","","102.80","","","","-17","","NA"
"-81.24","68.78","SANIRAJAK AIRPORT","2402354","2022-12-12 04:00","2022","12","12","04:00","-7.9","","-8.0","","99","","609.6","","17","","34","","16.1","","102.75","","","","-17","","NA"
"-81.24","68.78","SANIRAJAK AIRPORT","2402354","2022-12-12 05:00","2022","12","12","05:00","-9.5","","-12.0","","82","","609.6","","21","","28","","16.1","","102.71","","","","-19","","Snow"
"-81.24","68.78","SANIRAJAK AIRPORT","2402354","2022-12-12 06:00","2022","12","12","06:00","-11.4","","-13.4","","85","","609.6","","22","","22","","9.7","","102.72","","","","-20","","Snow"
"-81.24","68.78","SANIRAJAK AIRPORT","2402354","2022-12-12 07:00","2022","12","12","07:00","-11.5","","-12.3","","94","","","M","21","","22","","2.4","","102.66","","","","-20","","Snow"
"-81.24","68.78","SANIRAJAK AIRPORT","2402354","2022-12-12 08:00","2022","12","12","08:00","-12.0","","-13.3","","90","","609.6","","19","","17","","16.1","","102.62","","","","-20","","Snow"
"-81.24","68.78","SANIRAJAK AIRPORT","2402354","2022-12-12 09:00","2022","12","12","09:00","-12.1","","-14.7","","81","","","M","21","","21","","16.1","","102.58","","","","-21","","NA"
"-81.24","68.78","SANIRAJAK AIRPORT","2402354","2022-12-12 10:00","2022","12","12","10:00","-13.3","","-15.6","","83","","609.6","","23","","24","","16.1","","102.58","","","","-23","","NA"
"-81.24","68.78","SANIRAJAK AIRPORT","2402354","2022-12-12 11:00","2022","12","12","11:00","-16.6","","-18.7","","84","","","M","22","","21","","16.1","","102.57","","","","-26","","NA"
"-81.24","68.78","SANIRAJAK AIRPORT","2402354","2022-12-12 12:00","2022","12","12","12:00","-18.2","","-20.1","","85","","","M","22","","21","","16.1","","102.54","","","","-28","","NA"
"-81.24","68.78","SANIRAJAK AIRPORT","2402354","2022-12-12 13:00","2022","12","12","13:00","-20.3","","-22.2","","85","","447.0","","19","","11","","8.1","","102.54","","","","-28","","Fog"
"-81.24","68.78","SANIRAJAK AIRPORT","2402354","2022-12-12 14:00","2022","12","12","14:00","-19.2","","-21.8","","80","","223.5","","23","","13","","16.1","","102.62","","","","-27","","NA"
"-81.24","68.78","SANIRAJAK AIRPORT","2402354","2022-12-12 15:00","2022","12","12","15:00","-18.0","","-20.2","","83","","","M","25","","17","","16.1","","102.62","","","","-27","","NA"
"-81.24","68.78","SANIRAJAK AIRPORT","2402354","2022-12-12 16:00","2022","12","12","16:00","-18.9","","-21.3","","82","","","M","24","","18","","16.1","","102.66","","","","-29","","NA"
"-81.24","68.78","SANIRAJAK AIRPORT","2402354","2022-12-12 17:00","2022","12","12","17:00","-20.7","","-22.7","","84","","142.2","","22","","21","","16.1","","102.71","","","","-32","","NA"
"-81.24","68.78","SANIRAJAK AIRPORT","2402354","2022-12-12 18:00","2022","12","12","18:00","-19.9","","-21.8","","85","","30.5","","23","","21","","16.1","","102.74","","","","-31","","NA"
"-81.24","68.78","SANIRAJAK AIRPORT","2402354","2022-12-12 19:00","2022","12","12","19:00","-18.3","","-20.2","","85","","","M","22","","18","","16.1","","102.79","","","","-28","","NA"
"-81.24","68.78","SANIRAJAK AIRPORT","2402354","2022-12-12 20:00","2022","12","12","20:00","-17.7","","-19.9","","83","","","M","22","","18","","16.1","","102.81","","","","-27","","NA"
"-81.24","68.78","SANIRAJAK AIRPORT","2402354","2022-12-12 21:00","2022","12","12","21:00","-20.0","","-21.8","","86","","","M","25","","21","","16.1","","102.83","","","","-31","","NA"
"-81.24","68.78","SANIRAJAK AIRPORT","2402354","2022-12-12 22:00","2022","12","12","22:00","-18.4","","-20.3","","85","","","M","22","","15","","16.1","","102.88","","","","-27","","NA"
"-81.24","68.78","SANIRAJAK AIRPORT","2402354","2022-12-12 23:00","2022","12","12","23:00","-17.0","","-19.2","","83","","","M","23","","17","","16.1","","102.90","","","","-26","","NA"
"-81.24","68.78","SANIRAJAK AIRPORT","2402354","2022-12-13 00:00","2022","12","13","00:00","-16.2","","-18.4","","84","","","M","21","","5","","16.1","","102.93","","","","-20","","NA"
"-81.24","68.78","SANIRAJAK AIRPORT","2402354","2022-12-13 01:00","2022","12","13","01:00","-15.5","","-17.8","","83","","","M","23","","5","","16.1","","102.95","","","","-19","","NA"
"-81.24","68.78","SANIRAJAK AIRPORT","2402354","2022-12-13 02:00","2022","12","13","02:00","-15.7","","-17.6","","85","","","M","18","","9","","16.1","","102.95","","","","-22","","NA"
"-81.24","68.78","SANIRAJAK AIRPORT","2402354","2022-12-13 03:00","2022","12","13","03:00","-15.6","","-15.8","","99","","","M","15","","9","","16.1","","102.99","","","","-22","","NA"
"-81.24","68.78","SANIRAJAK AIRPORT","2402354","2022-12-13 04:00","2022","12","13","04:00","-17.0","","-17.8","","93","","","M","13","","13","","16.1","","102.98","","","","-25","","NA"
"-81.24","68.78","SANIRAJAK AIRPORT","2402354","2022-12-13 05:00","2022","12","13","05:00","-16.8","","-17.3","","96","","","M","13","","17","","16.1","","102.95","","","","-26","","NA"
"-81.24","68.78","SANIRAJAK AIRPORT","2402354","2022-12-13 06:00","2022","12","13","06:00","-15.8","","-16.7","","93","","","M","15","","21","","16.1","","102.92","","","","-25","","NA"
"-81.24","68.78","SANIRAJAK AIRPORT","2402354","2022-12-13 07:00","2022","12","13","07:00","-15.3","","-16.3","","92","","","M","15","","18","","16.1","","102.90","","","","-24","","NA"
"-81.24","68.78","SANIRAJAK AIRPORT","2402354","2022-12-13 08:00","2022","12","13","08:00","-14.5","","-15.3","","94","","","M","14","","18","","16.1","","102.84","","","","-23","","NA"
"-81.24","68.78","SANIRAJAK AIRPORT","2402354","2022-12-13 09:00","2022","12","13","09:00","-14.2","","-15.0","","94","","","M","15","","18","","14.5","","102.80","","","","-23","","Snow"
"-81.24","68.78","SANIRAJAK AIRPORT","2402354","2022-12-13 10:00","2022","12","13","10:00","-13.3","","-13.9","","95","","","M","15","","21","","14.5","","102.76","","","","-22","","Snow"
"-81.24","68.78","SANIRAJAK AIRPORT","2402354","2022-12-13 11:00","2022","12","13","11:00","-12.8","","-13.3","","96","","","M","15","","21","","14.5","","102.71","","","","-22","","Snow"
"-81.24","68.78","SANIRAJAK AIRPORT","2402354","2022-12-13 12:00","2022","12","13","12:00","-12.0","","-12.2","","99","","","M","14","","21","","6.4","","102.64","","","","-21","","Snow"
"-81.24","68.78","SANIRAJAK AIRPORT","2402354","2022-12-13 13:00","2022","12","13","13:00","-11.1","","-11.1","","100","","","M","13","","22","","9.7","","102.56","","","","-20","","Snow"
"-81.24","68.78","SANIRAJAK AIRPORT","2402354","2022-12-13 14:00","2022","12","13","14:00","-9.9","","-9.9","","100","","","M","13","","26","","8.1","","102.47","","","","-19","","Snow"
"-81.24","68.78","SANIRAJAK AIRPORT","2402354","2022-12-13 15:00","2022","12","13","15:00","-8.6","","-8.6","","100","","","M","14","","24","","8.1","","102.40","","","","-17","","Snow"
"-81.24","68.78","SANIRAJAK AIRPORT","2402354","2022-12-13 16:00","2022","12","13","16:00","-8.1","","-8.1","","100","","609.6","","15","","26","","12.9","","102.33","","","","-16","","Rain,Snow"
"-81.24","68.78","SANIRAJAK AIRPORT","2402354","2022-12-13 17:00","2022","12","13","17:00","-8.0","","-8.0","","100","","609.6","","15","","32","","6.4","","102.24","","","","-17","","Snow"
"-81.24","68.78","SANIRAJAK AIRPORT","2402354","2022-12-13 18:00","2022","12","13","18:00","-8.1","","-8.1","","100","","608.6","","15","","26","","4.8","","102.16","","","","-16","","Snow"
"-81.24","68.78","SANIRAJAK AIRPORT","2402354","2022-12-13 19:00","2022","12","13","19:00","-8.0","","-8.0","","100","","","M","15","","32","","8.1","","102.06","","","","-17","","Snow"
"-81.24","68.78","SANIRAJAK AIRPORT","2402354","2022-12-13 20:00","2022","12","13","20:00","-7.9","","-7.9","","100","","","M","15","","30","","8.1","","101.95","","","","-17","","Snow"
"-81.24","68.78","SANIRAJAK AIRPORT","2402354","2022-12-13 21:00","2022","12","13","21:00","-7.6","","-7.6","","100","","","M","15","","30","","9.7","","101.80","","","","-16","","Snow"
"-81.24","68.78","SANIRAJAK AIRPORT","2402354","2022-12-13 22:00","2022","12","13","22:00","-7.3","","-7.3","","100","","","M","15","","26","","11.3","","101.68","","","","-15","","Snow"
"-81.24","68.78","SANIRAJAK AIRPORT","2402354","2022-12-13 23:00","2022","12","13","23:00","-7.0","","-7.0","","100","","","M","15","","26","","12.9","","101.57","","","","-15","","Snow"
"-81.24","68.78","SANIRAJAK AIRPORT","2402354","2022-12-14 00:00","2022","12","14","00:00","-6.8","","-6.8","","100","","","M","15","","24","","14.5","","101.48","","","","-14","","Snow"
"-81.24","68.78","SANIRAJAK AIRPORT","2402354","2022-12-14 01:00","2022","12","14","01:00","-7.4","","-7.4","","100","","","M","16","","18","","16.1","","101.40","","","","-14","","Snow"
"-81.24","68.78","SANIRAJAK AIRPORT","2402354","2022-12-14 02:00","2022","12","14","02:00","-7.3","","-7.3","","100","","","M","18","","17","","16.1","","101.38","","","","-14","","NA"
"-81.24","68.78","SANIRAJAK AIRPORT","2402354","2022-12-14 03:00","2022","12","14","03:00","-8.4","","-8.4","","100","","610.6","","20","","21","","16.1","","101.38","","","","-16","","NA"
"-81.24","68.78","SANIRAJAK AIRPORT","2402354","2022-12-14 04:00","2022","12","14","04:00","-9.2","","-9.3","","99","","","M","19","","21","","16.1","","101.38","","","","-17","","NA"
"-81.24","68.78","SANIRAJAK AIRPORT","2402354","2022-12-14 05:00","2022","12","14","05:00","-9.4","","-9.6","","98","","","M","19","","15","","16.1","","101.40","","","","-16","","NA"
"-81.24","68.78","SANIRAJAK AIRPORT","2402354","2022-12-14 06:00","2022","12","14","06:00","-9.2","","-9.5","","98","","","M","19","","18","","16.1","","101.38","","","","-16","","Snow"
"-81.24","68.78","SANIRAJAK AIRPORT","2402354","2022-12-14 07:00","2022","12","14","07:00","-8.6","","-8.8","","99","","","M","19","","21","","8.1","","101.33","","","","-16","","Snow"
"-81.24","68.78","SANIRAJAK AIRPORT","2402354","2022-12-14 08:00","2022","12","14","08:00","-8.5","","-9.6","","92","","609.6","","19","","24","","8.1","","101.32","","","","-17","","Snow"
"-81.24","68.78","SANIRAJAK AIRPORT","2402354","2022-12-14 09:00","2022","12","14","09:00","-8.6","","-9.3","","95","","","M","19","","28","","9.7","","101.31","","","","-17","","Snow"
"-81.24","68.78","SANIRAJAK AIRPORT","2402354","2022-12-14 10:00","2022","12","14","10:00","-8.5","","-8.8","","98","","","M","20","","32","","4.0","","101.30","","","","-18","","Snow"
"-81.24","68.78","SANIRAJAK AIRPORT","2402354","2022-12-14 11:00","2022","12","14","11:00","-8.2","","-8.2","","100","","","M","20","","30","","1.6","","101.29","","","","-17","","Snow"
"-81.24","68.78","SANIRAJAK AIRPORT","2402354","2022-12-14 12:00","2022","12","14","12:00","-7.8","","-7.8","","100","","","M","19","","26","","1.6","","101.26","","","","-16","","Snow"
"-81.24","68.78","SANIRAJAK AIRPORT","2402354","2022-12-14 13:00","2022","12","14","13:00","-6.8","","-6.8","","100","","","M","18","","26","","2.4","","101.20","","","","-15","","Snow"
"-81.24","68.78","SANIRAJAK AIRPORT","2402354","2022-12-14 14:00","2022","12","14","14:00","-6.6","","-6.6","","100","","","M","19","","30","","1.2","","101.11","","","","-15","","Snow"
"-81.24","68.78","SANIRAJAK AIRPORT","2402354","2022-12-14 15:00","2022","12","14","15:00","-7.2","","-7.2","","100","","","M","21","","45","","1.2","","101.07","","","","-18","","Snow"
"-81.24","68.78","SANIRAJAK AIRPORT","2402354","2022-12-14 16:00","2022","12","14","16:00","-8.8","","-8.8","","100","","","M","22","","37","","1.2","","101.14","","","","-19","","Snow"
"-81.24","68.78","SANIRAJAK AIRPORT","2402354","2022-12-14 17:00","2022","12","14","17:00","-9.4","","-9.4","","100","","610.6","","21","","34","","1.2","","101.15","","","","-19","","Snow"
"-81.24","68.78","SANIRAJAK AIRPORT","2402354","2022-12-14 18:00","2022","12","14","18:00","-9.7","","-9.7","","100","","609.6","","23","","30","","1.6","","101.16","","","","-19","","Snow"
"-81.24","68.78","SANIRAJAK AIRPORT","2402354","2022-12-14 19:00","2022","12","14","19:00","-10.1","","-10.2","","99","","609.6","","23","","35","","1.6","","101.16","","","","-20","","Snow"
"-81.24","68.78","SANIRAJAK AIRPORT","2402354","2022-12-14 20:00","2022","12","14","20:00","-10.4","","-10.5","","99","","608.6","","23","","34","","1.2","","101.18","","","","-21","","Snow"
"-81.24","68.78","SANIRAJAK AIRPORT","2402354","2022-12-14 21:00","2022","12","14","21:00","-10.5","","-10.8","","98","","609.6","","24","","30","","2.4","","101.21","","","","-20","","Snow"
"-81.24","68.78","SANIRAJAK AIRPORT","2402354","2022-12-14 22:00","2022","12","14","22:00","-10.7","","-11.7","","92","","","M","22","","28","","14.5","","101.20","","","","-20","","NA"
"-81.24","68.78","SANIRAJAK AIRPORT","2402354","2022-12-14 23:00","2022","12","14","23:00","-10.8","","-12.9","","85","","602.0","","24","","28","","16.1","","101.23","","","","-20","","NA"
"-81.24","68.78","SANIRAJAK AIRPORT","2402354","2022-12-15 00:00","2022","12","15","00:00","-13.2","","-15.4","","84","","608.6","","28","","21","","14.5","","101.31","","","","-22","","NA"
"-81.24","68.78","SANIRAJAK AIRPORT","2402354","2022-12-15 01:00","2022","12","15","01:00","-17.8","","-20.2","","82","","609.6","","32","","9","","16.1","","101.37","","","","-24","","NA"
"-81.24","68.78","SANIRAJAK AIRPORT","2402354","2022-12-15 02:00","2022","12","15","02:00","-19.2","","-21.6","","82","","","M","25","","18","","16.1","","101.41","","","","-29","","NA"
"-81.24","68.78","SANIRAJAK AIRPORT","2402354","2022-12-15 03:00","2022","12","15","03:00","-19.7","","-22.3","","80","","608.6","","29","","15","","16.1","","101.49","","","","-29","","NA"
"-81.24","68.78","SANIRAJAK AIRPORT","2402354","2022-12-15 04:00","2022","12","15","04:00","-19.4","","-22.0","","80","","345.4","","25","","35","","16.1","","101.56","","","","-33","","NA"
"-81.24","68.78","SANIRAJAK AIRPORT","2402354","2022-12-15 05:00","2022","12","15","05:00","-20.1","","-23.3","","76","","223.5","","23","","17","","16.1","","101.62","","","","-30","","NA"
"-81.24","68.78","SANIRAJAK AIRPORT","2402354","2022-12-15 06:00","2022","12","15","06:00","-20.1","","-22.6","","81","","0.0","","23","","18","","16.1","","101.68","","","","-30","","NA"
"-81.24","68.78","SANIRAJAK AIRPORT","2402354","2022-12-15 07:00","2022","12","15","07:00","-18.2","","-20.6","","82","","578.1","","22","","21","","16.1","","101.74","","","","-28","","NA"
"-81.24","68.78","SANIRAJAK AIRPORT","2402354","2022-12-15 08:00","2022","12","15","08:00","-17.9","","-20.4","","81","","609.6","","23","","37","","6.4","","101.79","","","","-31","","Fog"
"-81.24","68.78","SANIRAJAK AIRPORT","2402354","2022-12-15 09:00","2022","12","15","09:00","-18.7","","-21.2","","81","","609.6","","24","","37","","3.6","","101.81","","","","-32","","Fog"
"-81.24","68.78","SANIRAJAK AIRPORT","2402354","2022-12-15 10:00","2022","12","15","10:00","-19.5","","-21.8","","82","","610.7","","25","","41","","3.6","","101.87","","","","-34","","Blowing Snow"
"-81.24","68.78","SANIRAJAK AIRPORT","2402354","2022-12-15 11:00","2022","12","15","11:00","-20.6","","-23.2","","80","","456.2","","22","","28","","16.1","","102.00","","","","-33","","NA"
"-81.24","68.78","SANIRAJAK AIRPORT","2402354","2022-12-15 12:00","2022","12","15","12:00","-20.7","","-23.3","","80","","0.0","","25","","26","","16.1","","102.07","","","","-33","","NA"
"-81.24","68.78","SANIRAJAK AIRPORT","2402354","2022-12-15 13:00","2022","12","15","13:00","-21.0","","-23.6","","80","","0.0","","19","","18","","16.1","","102.16","","","","-31","","NA"
"-81.24","68.78","SANIRAJAK AIRPORT","2402354","2022-12-15 14:00","2022","12","15","14:00","-20.8","","-23.6","","79","","0.0","","26","","28","","16.1","","102.18","","","","-33","","NA"
"-81.24","68.78","SANIRAJAK AIRPORT","2402354","2022-12-15 15:00","2022","12","15","15:00","-22.7","","-25.0","","82","","0.0","","23","","17","","16.1","","102.29","","","","-33","","NA"
"-81.24","68.78","SANIRAJAK AIRPORT","2402354","2022-12-15 16:00","2022","12","15","16:00","-21.5","","-24.0","","81","","0.0","","26","","22","","16.1","","102.32","","","","-33","","NA"
"-81.24","68.78","SANIRAJAK AIRPORT","2402354","2022-12-15 17:00","2022","12","15","17:00","-20.8","","-23.7","","78","","0.0","","23","","24","","16.1","","102.39","","","","-32","","NA"
"-81.24","68.78","SANIRAJAK AIRPORT","2402354","2022-12-15 18:00","2022","12","15","18:00","-21.0","","-23.3","","82","","0.0","","22","","22","","16.1","","102.43","","","","-32","","NA"
"-81.24","68.78","SANIRAJAK AIRPORT","2402354","2022-12-15 19:00","2022","12","15","19:00","-19.5","","-22.0","","81","","284.5","","23","","15","","16.1","","102.52","","","","-28","","NA"
"-81.24","68.78","SANIRAJAK AIRPORT","2402354","2022-12-15 20:00","2022","12","15","20:00","-19.6","","-21.9","","82","","","M","25","","26","","16.1","","102.51","","","","-31","","NA"
"-81.24","68.78","SANIRAJAK AIRPORT","2402354","2022-12-15 21:00","2022","12","15","21:00","-21.1","","-23.3","","83","","91.4","","23","","21","","16.1","","102.50","","","","-32","","NA"
"-81.24","68.78","SANIRAJAK AIRPORT","2402354","2022-12-15 22:00","2022","12","15","22:00","-22.0","","-24.0","","84","","0.0","","22","","15","","16.1","","102.53","","","","-32","","NA"
"-81.24","68.78","SANIRAJAK AIRPORT","2402354","2022-12-15 23:00","2022","12","15","23:00","-21.3","","-23.7","","81","","0.0","","25","","17","","16.1","","102.58","","","","-31","","NA"
"-81.24","68.78","SANIRAJAK AIRPORT","2402354","2022-12-16 00:00","2022","12","16","00:00","-21.7","","-23.8","","84","","0.0","","21","","8","","16.1","","102.64","","","","-28","","NA"
"-81.24","68.78","SANIRAJAK AIRPORT","2402354","2022-12-16 01:00","2022","12","16","01:00","-23.0","","-25.1","","83","","0.0","","25","","13","","16.1","","102.64","","","","-32","","NA"
"-81.24","68.78","SANIRAJAK AIRPORT","2402354","2022-12-16 02:00","2022","12","16","02:00","-21.8","","-24.0","","83","","0.0","","26","","9","","16.1","","102.63","","","","-29","","NA"
"-81.24","68.78","SANIRAJAK AIRPORT","2402354","2022-12-16 03:00","2022","12","16","03:00","-22.4","","-24.7","","82","","0.0","","24","","11","","16.1","","102.70","","","","-31","","NA"
"-81.24","68.78","SANIRAJAK AIRPORT","2402354","2022-12-16 04:00","2022","12","16","04:00","-21.6","","-23.9","","82","","0.0","","","M","4","","16.1","","102.70","","","","-25","","NA"
"-81.24","68.78","SANIRAJAK AIRPORT","2402354","2022-12-16 05:00","2022","12","16","05:00","-21.1","","-23.3","","83","","0.0","","26","","8","","16.1","","102.70","","","","-28","","NA"
"-81.24","68.78","SANIRAJAK AIRPORT","2402354","2022-12-16 06:00","2022","12","16","06:00","-20.0","","-22.1","","84","","0.0","","24","","8","","16.1","","102.71","","","","-26","","NA"
"-81.24","68.78","SANIRAJAK AIRPORT","2402354","2022-12-16 07:00","2022","12","16","07:00","-19.8","","-21.9","","84","","609.6","","31","","8","","16.1","","102.63","","","","-26","","NA"
"-81.24","68.78","SANIRAJAK AIRPORT","2402354","2022-12-16 08:00","2022","12","16","08:00","-18.8","","-20.9","","84","","609.6","","34","","5","","16.1","","102.58","","","","-23","","NA"
"-81.24","68.78","SANIRAJAK AIRPORT","2402354","2022-12-16 09:00","2022","12","16","09:00","-18.5","","-20.6","","84","","","M","35","","13","","16.1","","102.54","","","","-27","","NA"
"-81.24","68.78","SANIRAJAK AIRPORT","2402354","2022-12-16 10:00","2022","12","16","10:00","-18.1","","-20.3","","83","","","M","1","","9","","16.1","","102.50","","","","-24","","Snow"
"-81.24","68.78","SANIRAJAK AIRPORT","2402354","2022-12-16 11:00","2022","12","16","11:00","-16.5","","-18.4","","86","","","M","9","","11","","4.0","","102.41","","","","-23","","Snow"
"-81.24","68.78","SANIRAJAK AIRPORT","2402354","2022-12-16 12:00","2022","12","16","12:00","-16.2","","-18.0","","86","","609.6","","8","","17","","3.6","","102.32","","","","-25","","Snow"
"-81.24","68.78","SANIRAJAK AIRPORT","2402354","2022-12-16 13:00","2022","12","16","13:00","-15.9","","-17.8","","86","","608.8","","8","","18","","16.1","","102.23","","","","-25","","Snow"
"-81.24","68.78","SANIRAJAK AIRPORT","2402354","2022-12-16 14:00","2022","12","16","14:00","-15.1","","-16.7","","88","","","M","7","","26","","4.8","","102.14","","","","-25","","Snow"
"-81.24","68.78","SANIRAJAK AIRPORT","2402354","2022-12-16 15:00","2022","12","16","15:00","-15.1","","-16.7","","88","","","M","8","","22","","12.9","","102.05","","","","-25","","Snow"
"-81.24","68.78","SANIRAJAK AIRPORT","2402354","2022-12-16 16:00","2022","12","16","16:00","-15.4","","-17.0","","88","","609.6","","8","","28","","11.3","","101.97","","","","-26","","Snow"
"-81.24","68.78","SANIRAJAK AIRPORT","2402354","2022-12-16 17:00","2022","12","16","17:00","-15.4","","-16.8","","89","","608.8","","8","","30","","2.0","","101.83","","","","-27","","Snow"
"-81.24","68.78","SANIRAJAK AIRPORT","2402354","2022-12-16 18:00","2022","12","16","18:00","-15.5","","-16.9","","89","","","M","7","","32","","1.6","","101.70","","","","-27","","Snow"
"-81.24","68.78","SANIRAJAK AIRPORT","2402354","2022-12-16 19:00","2022","12","16","19:00","-15.5","","-16.9","","89","","610.3","","6","","30","","2.8","","101.56","","","","-27","","Snow"
"-81.24","68.78","SANIRAJAK AIRPORT","2402354","2022-12-16 20:00","2022","12","16","20:00","-14.7","","-16.0","","90","","609.6","","6","","24","","2.8","","101.45","","","","-25","","Snow"
"-81.24","68.78","SANIRAJAK AIRPORT","2402354","2022-12-16 21:00","2022","12","16","21:00","-14.1","","-15.4","","90","","","M","4","","22","","3.2","","101.29","","","","-23","","Snow"
"-81.24","68.78","SANIRAJAK AIRPORT","2402354","2022-12-16 22:00","2022","12","16","22:00","-14.2","","-15.5","","90","","","M","3","","22","","12.9","","101.19","","","","-24","","Snow"
"-81.24","68.78","SANIRAJAK AIRPORT","2402354","2022-12-16 23:00","2022","12","16","23:00","-13.8","","-15.0","","91","","602.0","","3","","21","","8.1","","101.11","","","","-23","","Snow"
"-81.24","68.78","SANIRAJAK AIRPORT","2402354","2022-12-17 00:00","2022","12","17","00:00","-13.1","","-14.1","","92","","608.8","","3","","18","","3.2","","101.01","","","","-21","","Snow"
"-81.24","68.78","SANIRAJAK AIRPORT","2402354","2022-12-17 01:00","2022","12","17","01:00","-13.2","","-14.2","","92","","","M","1","","13","","8.1","","100.95","","","","-20","","Snow"
"-81.24","68.78","SANIRAJAK AIRPORT","2402354","2022-12-17 02:00","2022","12","17","02:00","-13.2","","-14.1","","93","","","M","35","","9","","11.3","","100.94","","","","-19","","Snow"
"-81.24","68.78","SANIRAJAK AIRPORT","2402354","2022-12-17 03:00","2022","12","17","03:00","-13.2","","-14.2","","92","","610.4","","31","","11","","16.1","","100.93","","","","-19","","Snow"
"-81.24","68.78","SANIRAJAK AIRPORT","2402354","2022-12-17 04:00","2022","12","17","04:00","-13.6","","-14.8","","91","","","M","31","","18","","4.8","","100.96","","","","-22","","Snow"
"-81.24","68.78","SANIRAJAK AIRPORT","2402354","2022-12-17 05:00","2022","12","17","05:00","-14.5","","-15.8","","90","","608.8","","31","","18","","2.4","","101.01","","","","-23","","Snow"
"-81.24","68.78","SANIRAJAK AIRPORT","2402354","2022-12-17 06:00","2022","12","17","06:00","-15.2","","-16.8","","88","","609.6","","32","","22","","16.1","","101.05","","","","-25","","Snow"
"-81.24","68.78","SANIRAJAK AIRPORT","2402354","2022-12-17 07:00","2022","12","17","07:00","-15.3","","-16.7","","89","","","M","31","","22","","8.1","","101.10","","","","-25","","Snow"
"-81.24","68.78","SANIRAJAK AIRPORT","2402354","2022-12-17 08:00","2022","12","17","08:00","-19.0","","-21.4","","82","","609.6","","31","","26","","16.1","","101.14","","","","-31","","Snow"
"-81.24","68.78","SANIRAJAK AIRPORT","2402354","2022-12-17 09:00","2022","12","17","09:00","-23.5","","-25.6","","83","","121.2","","31","","22","","16.1","","101.19","","","","-35","","NA"
"-81.24","68.78","SANIRAJAK AIRPORT","2402354","2022-12-17 10:00","2022","12","17","10:00","-25.1","","-27.1","","84","","0.0","","31","","26","","16.1","","101.26","","","","-38","","NA"
"-81.24","68.78","SANIRAJAK AIRPORT","2402354","2022-12-17 11:00","2022","12","17","11:00","-25.3","","-27.4","","83","","0.0","","30","","22","","16.1","","101.35","","","","-38","","NA"
"-81.24","68.78","SANIRAJAK AIRPORT","2402354","2022-12-17 12:00","2022","12","17","12:00","-26.5","","-28.9","","81","","0.0","","30","","24","","16.1","","101.43","","","","-40","","NA"
"-81.24","68.78","SANIRAJAK AIRPORT","2402354","2022-12-17 13:00","2022","12","17","13:00","-26.2","","-28.4","","82","","0.0","","30","","22","","16.1","","101.50","","","","-39","","NA"
"-81.24","68.78","SANIRAJAK AIRPORT","2402354","2022-12-17 14:00","2022","12","17","14:00","-24.7","","-26.9","","82","","0.0","","30","","28","","16.1","","101.56","","","","-38","","NA"
"-81.24","68.78","SANIRAJAK AIRPORT","2402354","2022-12-17 15:00","2022","12","17","15:00","-24.9","","-27.3","","81","","0.0","","31","","26","","16.1","","101.65","","","","-38","","NA"
"-81.24","68.78","SANIRAJAK AIRPORT","2402354","2022-12-17 16:00","2022","12","17","16:00","-25.9","","-28.5","","79","","0.0","","31","","24","","16.1","","101.74","","","","-39","","NA"
"-81.24","68.78","SANIRAJAK AIRPORT","2402354","2022-12-17 17:00","2022","12","17","17:00","-27.7","","-30.4","","78","","0.0","","31","","24","","16.1","","101.81","","","","-41","","NA"
"-81.24","68.78","SANIRAJAK AIRPORT","2402354","2022-12-17 18:00","2022","12","17","18:00","-28.1","","-30.8","","78","","0.0","","31","","22","","16.1","","101.85","","","","-41","","NA"
"-81.24","68.78","SANIRAJAK AIRPORT","2402354","2022-12-17 19:00","2022","12","17","19:00","-28.0","","-30.6","","79","","0.0","","33","","18","","16.1","","101.90","","","","-40","","NA"
"-81.24","68.78","SANIRAJAK AIRPORT","2402354","2022-12-17 20:00","2022","12","17","20:00","-26.2","","-28.7","","80","","0.0","","32","","18","","16.1","","101.94","","","","-38","","NA"
"-81.24","68.78","SANIRAJAK AIRPORT","2402354","2022-12-17 21:00","2022","12","17","21:00","-24.4","","-27.0","","80","","0.0","","32","","18","","16.1","","101.98","","","","-35","","NA"
"-81.24","68.78","SANIRAJAK AIRPORT","2402354","2022-12-17 22:00","2022","12","17","22:00","-24.9","","-27.6","","79","","0.0","","33","","21","","16.1","","101.98","","","","-37","","NA"
"-81.24","68.78","SANIRAJAK AIRPORT","2402354","2022-12-17 23:00","2022","12","17","23:00","-25.3","","-27.8","","80","","0.0","","33","","21","","16.1","","102.00","","","","-37","","NA"
"-81.24","68.78","SANIRAJAK AIRPORT","2402354","2022-12-18 00:00","2022","12","18","00:00","-25.0","","-27.7","","79","","0.0","","33","","22","","16.1","","102.01","","","","-37","","NA"
"-81.24","68.78","SANIRAJAK AIRPORT","2402354","2022-12-18 01:00","2022","12","18","01:00","-25.5","","-28.1","","79","","0.0","","33","","18","","16.1","","102.02","","","","-37","","NA"
"-81.24","68.78","SANIRAJAK AIRPORT","2402354","2022-12-18 02:00","2022","12","18","02:00","-26.1","","-28.7","","79","","0.0","","33","","15","","16.1","","102.08","","","","-37","","NA"
"-81.24","68.78","SANIRAJAK AIRPORT","2402354","2022-12-18 03:00","2022","12","18","03:00","-25.2","","-28.0","","78","","0.0","","33","","21","","16.1","","102.10","","","","-37","","NA"
"-81.24","68.78","SANIRAJAK AIRPORT","2402354","2022-12-18 04:00","2022","12","18","04:00","-25.4","","-28.1","","79","","0.0","","33","","22","","16.1","","102.08","","","","-38","","NA"
"-81.24","68.78","SANIRAJAK AIRPORT","2402354","2022-12-18 05:00","2022","12","18","05:00","-23.3","","-26.0","","79","","0.0","","33","","26","","16.1","","102.09","","","","-36","","NA"
"-81.24","68.78","SANIRAJAK AIRPORT","2402354","2022-12-18 06:00","2022","12","18","06:00","-22.9","","-25.5","","80","","0.0","","33","","24","","14.5","","102.09","","","","-35","","Snow"
"-81.24","68.78","SANIRAJAK AIRPORT","2402354","2022-12-18 07:00","2022","12","18","07:00","-22.7","","-25.1","","81","","0.0","","34","","21","","6.4","","102.09","","","","-34","","Snow"
"-81.24","68.78","SANIRAJAK AIRPORT","2402354","2022-12-18 08:00","2022","12","18","08:00","-22.5","","-24.8","","82","","0.1","","33","","22","","4.0","","102.10","","","","-34","","Snow"
"-81.24","68.78","SANIRAJAK AIRPORT","2402354","2022-12-18 09:00","2022","12","18","09:00","-22.5","","-24.8","","82","","0.0","","34","","21","","11.3","","102.09","","","","-34","","Snow"
"-81.24","68.78","SANIRAJAK AIRPORT","2402354","2022-12-18 10:00","2022","12","18","10:00","-22.5","","-24.8","","82","","0.1","","32","","22","","8.1","","102.12","","","","-34","","Snow"
"-81.24","68.78","SANIRAJAK AIRPORT","2402354","2022-12-18 11:00","2022","12","18","11:00","-22.3","","-24.7","","81","","0.0","","32","","26","","9.7","","102.13","","","","-35","","Snow"
"-81.24","68.78","SANIRAJAK AIRPORT","2402354","2022-12-18 12:00","2022","12","18","12:00","-22.8","","-25.1","","82","","0.0","","31","","24","","4.8","","102.13","","","","-35","","Snow"
"-81.24","68.78","SANIRAJAK AIRPORT","2402354","2022-12-18 13:00","2022","12","18","13:00","-24.3","","-26.8","","80","","0.0","","31","","24","","16.1","","102.18","","","","-37","","Snow"
"-81.24","68.78","SANIRAJAK AIRPORT","2402354","2022-12-18 14:00","2022","12","18","14:00","-24.9","","-27.4","","80","","0.0","","31","","18","","16.1","","102.23","","","","-36","","NA"
"-81.24","68.78","SANIRAJAK AIRPORT","2402354","2022-12-18 15:00","2022","12","18","15:00","-28.3","","-31.2","","77","","0.0","","31","","26","","16.1","","102.33","","","","-43","","NA"
"-81.24","68.78","SANIRAJAK AIRPORT","2402354","2022-12-18 16:00","2022","12","18","16:00","-31.4","","-34.2","","77","","0.0","","30","","22","","16.1","","102.42","","","","-45","","NA"
"-81.24","68.78","SANIRAJAK AIRPORT","2402354","2022-12-18 17:00","2022","12","18","17:00","-33.7","","-36.7","","75","","0.0","","29","","17","","16.1","","102.50","","","","-47","","NA"
"-81.24","68.78","SANIRAJAK AIRPORT","2402354","2022-12-18 18:00","2022","12","18","18:00","-36.2","","-39.4","","73","","0.0","","29","","21","","16.1","","102.62","","","","-51","","NA"
"-81.24","68.78","SANIRAJAK AIRPORT","2402354","2022-12-18 19:00","2022","12","18","19:00","-35.9","","-39.1","","73","","0.0","","28","","24","","16.1","","102.68","","","","-52","","NA"
"-81.24","68.78","SANIRAJAK AIRPORT","2402354","2022-12-18 20:00","2022","12","18","20:00","-36.1","","-39.3","","73","","0.0","","28","","21","","16.1","","102.77","","","","-51","","NA"
"-81.24","68.78","SANIRAJAK AIRPORT","2402354","2022-12-18 21:00","2022","12","18","21:00","-36.6","","-39.8","","73","","0.0","","28","","17","","16.1","","102.86","","","","-50","","NA"
"-81.24","68.78","SANIRAJAK AIRPORT","2402354","2022-12-18 22:00","2022","12","18","22:00","-36.7","","-40.0","","72","","0.0","","27","","13","","16.1","","102.96","","","","-49","","NA"
"-81.24","68.78","SANIRAJAK AIRPORT","2402354","2022-12-18 23:00","2022","12","18","23:00","-36.7","","-40.1","","72","","0.0","","24","","13","","16.1","","103.05","","","","-49","","NA"
"-81.24","68.78","SANIRAJAK AIRPORT","2402354","2022-12-19 00:00","2022","12","19","00:00","-37.6","","-41.2","","70","","0.0","","26","","11","","16.1","","103.20","","","","-49","","NA"
"-81.24","68.78","SANIRAJAK AIRPORT","2402354","2022-12-19 01:00","2022","12","19","01:00","-38.1","","-41.7","","70","","0.0","","25","","8","","16.1","","103.28","","","","-47","","NA"
"-81.24","68.78","SANIRAJAK AIRPORT","2402354","2022-12-19 02:00","2022","12","19","02:00","-37.3","","-40.9","","70","","0.0","","28","","11","","16.1","","103.40","","","","-48","","NA"
"-81.24","68.78","SANIRAJAK AIRPORT","2402354","2022-12-19 03:00","2022","12","19","03:00","-36.8","","-40.4","","70","","0.0","","26","","9","","16.1","","103.49","","","","-47","","NA"
"-81.24","68.78","SANIRAJAK AIRPORT","2402354","2022-12-19 04:00","2022","12","19","04:00","-37.6","","-41.0","","71","","0.0","","26","","9","","16.1","","103.58","","","","-48","","NA"
"-81.24","68.78","SANIRAJAK AIRPORT","2402354","2022-12-19 05:00","2022","12","19","05:00","-35.5","","-39.0","","71","","0.0","","25","","13","","16.1","","103.68","","","","-47","","NA"
"-81.24","68.78","SANIRAJAK AIRPORT","2402354","2022-12-19 06:00","2022","12","19","06:00","-36.0","","-39.3","","73","","0.0","","26","","11","","16.1","","103.76","","","","-47","","NA"
"-81.24","68.78","SANIRAJAK AIRPORT","2402354","2022-12-19 07:00","2022","12","19","07:00","-36.9","","-40.4","","71","","0.0","","28","","15","","16.1","","103.82","","","","-50","","NA"
"-81.24","68.78","SANIRAJAK AIRPORT","2402354","2022-12-19 08:00","2022","12","19","08:00","-36.1","","-39.4","","72","","0.0","","29","","9","","16.1","","103.89","","","","-46","","NA"
"-81.24","68.78","SANIRAJAK AIRPORT","2402354","2022-12-19 09:00","2022","12","19","09:00","-36.2","","-39.7","","71","","0.0","","29","","18","","4.8","","103.93","","","","-50","","Haze"
"-81.24","68.78","SANIRAJAK AIRPORT","2402354","2022-12-19 10:00","2022","12","19","10:00","-36.6","","-40.4","","69","","0.0","","29","","18","","8.1","","104.00","","","","-51","","Haze"
"-81.24","68.78","SANIRAJAK AIRPORT","2402354","2022-12-19 11:00","2022","12","19","11:00","-36.5","","-40.0","","71","","0.0","","28","","9","","9.7","","104.06","","","","-46","","Haze"
"-81.24","68.78","SANIRAJAK AIRPORT","2402354","2022-12-19 12:00","2022","12","19","12:00","-37.2","","-41.1","","68","","0.0","","28","","13","","16.1","","104.11","","","","-49","","NA"
"-81.24","68.78","SANIRAJAK AIRPORT","2402354","2022-12-19 13:00","2022","12","19","13:00","-37.8","","-41.7","","68","","0.0","","30","","18","","16.1","","104.14","","","","-52","","NA"
"-81.24","68.78","SANIRAJAK AIRPORT","2402354","2022-12-19 14:00","2022","12","19","14:00","-33.9","","-36.8","","76","","0.0","","29","","9","","16.1","","104.19","","","","-43","","NA"
"-81.24","68.78","SANIRAJAK AIRPORT","2402354","2022-12-19 15:00","2022","12","19","15:00","-36.6","","-40.2","","70","","0.0","","17","","5","","3.2","","104.24","","","","-43","","Haze"
"-81.24","68.78","SANIRAJAK AIRPORT","2402354","2022-12-19 16:00","2022","12","19","16:00","-32.6","","-35.6","","76","","0.0","","","","0","","16.1","","104.30","","","","","","NA"
"-81.24","68.78","SANIRAJAK AIRPORT","2402354","2022-12-19 17:00","2022","12","19","17:00","-36.8","","-40.6","","69","","0.0","","24","","4","","16.1","","104.33","","","","-42","","NA"
"-81.24","68.78","SANIRAJAK AIRPORT","2402354","2022-12-19 18:00","2022","12","19","18:00","-37.2","","-41.4","","66","","0.0","","26","","8","","16.1","","104.34","","","","-46","","NA"
"-81.24","68.78","SANIRAJAK AIRPORT","2402354","2022-12-19 19:00","2022","12","19","19:00","-37.3","","-41.1","","69","","0.0","","31","","8","","16.1","","104.35","","","","-47","","NA"
"-81.24","68.78","SANIRAJAK AIRPORT","2402354","2022-12-19 20:00","2022","12","19","20:00","-35.8","","-39.0","","73","","0.0","","30","","11","","16.1","","104.34","","","","-47","","NA"
"-81.24","68.78","SANIRAJAK AIRPORT","2402354","2022-12-19 21:00","2022","12","19","21:00","-37.3","","-41.2","","68","","0.0","","27","","8","","16.1","","104.29","","","","-47","","NA"
"-81.24","68.78","SANIRAJAK AIRPORT","2402354","2022-12-19 22:00","2022","12","19","22:00","-39.2","","-43.3","","66","","0.0","","31","","5","","16.1","","104.25","","","","-46","","NA"
"-81.24","68.78","SANIRAJAK AIRPORT","2402354","2022-12-19 23:00","2022","12","19","23:00","-39.6","","-43.5","","68","","0.0","","30","","5","","16.1","","104.25","","","","-47","","NA"
"-81.24","68.78","SANIRAJAK AIRPORT","2402354","2022-12-20 00:00","2022","12","20","00:00","-40.1","","-44.4","","65","","0.0","","35","","5","","14.5","","104.27","","","","-47","","NA"
"-81.24","68.78","SANIRAJAK AIRPORT","2402354","2022-12-20 01:00","2022","12","20","01:00","-41.0","","-45.4","","64","","0.0","","32","","13","","16.1","","104.27","","","","-54","","NA"
"-81.24","68.78","SANIRAJAK AIRPORT","2402354","2022-12-20 02:00","2022","12","20","02:00","-39.0","","-43.1","","66","","0.0","","30","","9","","16.1","","104.29","","","","-49","","NA"
"-81.24","68.78","SANIRAJAK AIRPORT","2402354","2022-12-20 03:00","2022","12","20","03:00","-39.9","","-44.0","","66","","0.0","","28","","8","","16.1","","104.31","","","","-50","","NA"
"-81.24","68.78","SANIRAJAK AIRPORT","2402354","2022-12-20 04:00","2022","12","20","04:00","-38.2","","-41.9","","69","","0.0","","30","","17","","16.1","","104.30","","","","-52","","NA"
"-81.24","68.78","SANIRAJAK AIRPORT","2402354","2022-12-20 05:00","2022","12","20","05:00","-38.2","","-42.2","","67","","0.0","","32","","22","","16.1","","104.28","","","","-54","","NA"
"-81.24","68.78","SANIRAJAK AIRPORT","2402354","2022-12-20 06:00","2022","12","20","06:00","-37.7","","-41.6","","68","","0.0","","32","","22","","16.1","","104.28","","","","-53","","NA"
"-81.24","68.78","SANIRAJAK AIRPORT","2402354","2022-12-20 07:00","2022","12","20","07:00","-37.4","","-41.2","","69","","0.0","","31","","24","","16.1","","104.25","","","","-54","","NA"
"-81.24","68.78","SANIRAJAK AIRPORT","2402354","2022-12-20 08:00","2022","12","20","08:00","-38.1","","-42.4","","65","","0.0","","31","","21","","16.1","","104.22","","","","-54","","NA"
"-81.24","68.78","SANIRAJAK AIRPORT","2402354","2022-12-20 09:00","2022","12","20","09:00","-37.9","","-42.1","","66","","0.0","","31","","21","","16.1","","104.23","","","","-53","","NA"
"-81.24","68.78","SANIRAJAK AIRPORT","2402354","2022-12-20 10:00","2022","12","20","10:00","-37.4","","-41.0","","70","","0.0","","31","","22","","16.1","","104.22","","","","-53","","NA"
"-81.24","68.78","SANIRAJAK AIRPORT","2402354","2022-12-20 11:00","2022","12","20","11:00","-38.2","","-42.2","","67","","0.0","","31","","22","","9.7","","104.22","","","","-54","","Haze"
"-81.24","68.78","SANIRAJAK AIRPORT","2402354","2022-12-20 12:00","2022","12","20","12:00","-38.7","","-42.7","","67","","0.0","","30","","17","","16.1","","104.21","","","","-53","","NA"
"-81.24","68.78","SANIRAJAK AIRPORT","2402354","2022-12-20 13:00","2022","12","20","13:00","-36.6","","-40.2","","70","","0.0","","30","","26","","16.1","","104.19","","","","-53","","NA"
"-81.24","68.78","SANIRAJAK AIRPORT","2402354","2022-12-20 14:00","2022","12","20","14:00","-38.6","","-42.8","","66","","0.0","","32","","21","","14.5","","104.19","","","","-54","","Snow"
"-81.24","68.78","SANIRAJAK AIRPORT","2402354","2022-12-20 15:00","2022","12","20","15:00","-38.3","","-42.3","","67","","0.0","","32","","28","","16.1","","104.18","","","","-56","","NA"
"-81.24","68.78","SANIRAJAK AIRPORT","2402354","2022-12-20 16:00","2022","12","20","16:00","-39.1","","-43.2","","66","","0.0","","32","","22","","16.1","","104.21","","","","-55","","NA"
"-81.24","68.78","SANIRAJAK AIRPORT","2402354","2022-12-20 17:00","2022","12","20","17:00","-40.1","","-44.4","","65","","0.0","","32","","17","","16.1","","104.21","","","","-55","","NA"
"-81.24","68.78","SANIRAJAK AIRPORT","2402354","2022-12-20 18:00","2022","12","20","18:00","-39.2","","-43.3","","66","","0.0","","32","","15","","16.1","","104.22","","","","-53","","NA"
"-81.24","68.78","SANIRAJAK AIRPORT","2402354","2022-12-20 19:00","2022","12","20","19:00","-38.5","","-42.5","","67","","0.0","","31","","21","","16.1","","104.21","","","","-54","","NA"
"-81.24","68.78","SANIRAJAK AIRPORT","2402354","2022-12-20 20:00","2022","12","20","20:00","-39.3","","-43.4","","66","","0.0","","32","","21","","16.1","","104.18","","","","-55","","NA"
"-81.24","68.78","SANIRAJAK AIRPORT","2402354","2022-12-20 21:00","2022","12","20","21:00","-39.4","","-43.5","","66","","0.0","","32","","21","","16.1","","104.16","","","","-55","","NA"
"-81.24","68.78","SANIRAJAK AIRPORT","2402354","2022-12-20 22:00","2022","12","20","22:00","-38.2","","-42.1","","68","","0.0","","32","","26","","16.1","","104.14","","","","-55","","NA"
"-81.24","68.78","SANIRAJAK AIRPORT","2402354","2022-12-20 23:00","2022","12","20","23:00","-38.9","","-42.9","","67","","0.0","","32","","26","","16.1","","104.15","","","","-56","","NA"
"-81.24","68.78","SANIRAJAK AIRPORT","2402354","2022-12-21 00:00","2022","12","21","00:00","-38.5","","-42.6","","66","","0.0","","32","","22","","16.1","","104.14","","","","-54","","NA"
"-81.24","68.78","SANIRAJAK AIRPORT","2402354","2022-12-21 01:00","2022","12","21","01:00","-38.2","","-42.2","","67","","0.0","","32","","15","","16.1","","104.16","","","","-52","","NA"
"-81.24","68.78","SANIRAJAK AIRPORT","2402354","2022-12-21 02:00","2022","12","21","02:00","-39.1","","-43.2","","66","","0.0","","33","","21","","16.1","","104.11","","","","-55","","NA"
"-81.24","68.78","SANIRAJAK AIRPORT","2402354","2022-12-21 03:00","2022","12","21","03:00","-38.9","","-42.9","","67","","0.0","","33","","22","","14.5","","104.12","","","","-55","","NA"
"-81.24","68.78","SANIRAJAK AIRPORT","2402354","2022-12-21 04:00","2022","12","21","04:00","-37.5","","-41.4","","68","","0.0","","33","","22","","16.1","","104.12","","","","-53","","Snow"
"-81.24","68.78","SANIRAJAK AIRPORT","2402354","2022-12-21 05:00","2022","12","21","05:00","-37.7","","-41.6","","68","","0.0","","34","","21","","16.1","","104.10","","","","-53","","NA"
"-81.24","68.78","SANIRAJAK AIRPORT","2402354","2022-12-21 06:00","2022","12","21","06:00","-37.6","","-41.5","","68","","0.0","","34","","22","","16.1","","104.09","","","","-53","","NA"
"-81.24","68.78","SANIRAJAK AIRPORT","2402354","2022-12-21 07:00","2022","12","21","07:00","-36.9","","-40.7","","69","","0.0","","34","","26","","16.1","","104.08","","","","-54","","NA"
"-81.24","68.78","SANIRAJAK AIRPORT","2402354","2022-12-21 08:00","2022","12","21","08:00","-37.0","","-40.9","","68","","0.0","","34","","22","","16.1","","104.07","","","","-53","","Snow"
"-81.24","68.78","SANIRAJAK AIRPORT","2402354","2022-12-21 09:00","2022","12","21","09:00","-37.7","","-41.6","","68","","0.0","","33","","22","","16.1","","104.06","","","","-53","","Snow"
"-81.24","68.78","SANIRAJAK AIRPORT","2402354","2022-12-21 10:00","2022","12","21","10:00","-37.9","","-41.9","","67","","0.0","","33","","18","","16.1","","104.04","","","","-52","","Snow"
"-81.24","68.78","SANIRAJAK AIRPORT","2402354","2022-12-21 11:00","2022","12","21","11:00","-37.2","","-41.1","","68","","0.0","","34","","22","","16.1","","104.02","","","","-53","","Snow"
"-81.24","68.78","SANIRAJAK AIRPORT","2402354","2022-12-21 12:00","2022","12","21","12:00","-37.9","","-41.9","","67","","0.0","","34","","22","","16.1","","103.99","","","","-54","","NA"
"-81.24","68.78","SANIRAJAK AIRPORT","2402354","2022-12-21 13:00","2022","12","21","13:00","-36.5","","-40.3","","69","","0.0","","34","","22","","16.1","","103.98","","","","-52","","NA"
"-81.24","68.78","SANIRAJAK AIRPORT","2402354","2022-12-21 14:00","2022","12","21","14:00","-35.6","","-39.3","","70","","0.0","","34","","24","","11.3","","103.99","","","","-51","","Snow"
"-81.24","68.78","SANIRAJAK AIRPORT","2402354","2022-12-21 15:00","2022","12","21","15:00","-36.3","","-40.1","","69","","0.0","","34","","22","","9.7","","104.00","","","","-52","","Snow"
"-81.24","68.78","SANIRAJAK AIRPORT","2402354","2022-12-21 16:00","2022","12","21","16:00","-36.9","","-40.8","","68","","0.0","","34","","22","","6.4","","103.98","","","","-52","","Snow"
"-81.24","68.78","SANIRAJAK AIRPORT","2402354","2022-12-21 17:00","2022","12","21","17:00","-37.0","","-40.9","","68","","0.0","","34","","21","","11.3","","103.97","","","","-52","","Snow"
"-81.24","68.78","SANIRAJAK AIRPORT","2402354","2022-12-21 18:00","2022","12","21","18:00","-36.5","","-40.3","","69","","0.0","","34","","22","","4.8","","103.94","","","","-52","","Snow"
"-81.24","68.78","SANIRAJAK AIRPORT","2402354","2022-12-21 19:00","2022","12","21","19:00","-36.8","","-40.6","","69","","0.0","","34","","22","","6.4","","103.94","","","","-52","","Snow"
"-81.24","68.78","SANIRAJAK AIRPORT","2402354","2022-12-21 20:00","2022","12","21","20:00","-35.7","","-39.4","","70","","0.0","","34","","26","","4.8","","103.91","","","","-52","","Snow"
"-81.24","68.78","SANIRAJAK AIRPORT","2402354","2022-12-21 21:00","2022","12","21","21:00","-36.1","","-39.9","","69","","0.0","","34","","24","","6.4","","103.91","","","","-52","","Snow"
"-81.24","68.78","SANIRAJAK AIRPORT","2402354","2022-12-21 22:00","2022","12","21","22:00","-36.2","","-40.0","","69","","0.0","","34","","22","","4.8","","103.88","","","","-52","","Snow"
"-81.24","68.78","SANIRAJAK AIRPORT","2402354","2022-12-21 23:00","2022","12","21","23:00","-36.1","","-39.9","","69","","0.0","","34","","26","","9.7","","103.87","","","","-53","","Snow"
"-81.24","68.78","SANIRAJAK AIRPORT","2402354","2022-12-22 00:00","2022","12","22","00:00","-35.8","","-39.5","","70","","0.0","","34","","24","","12.9","","103.85","","","","-52","","NA"
"-81.24","68.78","SANIRAJAK AIRPORT","2402354","2022-12-22 01:00","2022","12","22","01:00","-34.9","","-38.4","","71","","0.0","","33","","28","","4.8","","103.83","","","","-52","","Haze"
"-81.24","68.78","SANIRAJAK AIRPORT","2402354","2022-12-22 02:00","2022","12","22","02:00","-34.7","","-38.3","","71","","0.0","","34","","22","","4.8","","103.86","","","","-50","","Snow"
"-81.24","68.78","SANIRAJAK AIRPORT","2402354","2022-12-22 03:00","2022","12","22","03:00","-34.4","","-38.0","","71","","0.0","","34","","22","","4.8","","103.86","","","","-49","","Snow"
"-81.24","68.78","SANIRAJAK AIRPORT","2402354","2022-12-22 04:00","2022","12","22","04:00","-34.0","","-37.4","","72","","0.0","","34","","22","","4.8","","103.85","","","","-49","","Snow"
"-81.24","68.78","SANIRAJAK AIRPORT","2402354","2022-12-22 05:00","2022","12","22","05:00","-33.5","","-36.9","","72","","0.0","","34","","22","","4.8","","103.83","","","","-48","","Haze"
"-81.24","68.78","SANIRAJAK AIRPORT","2402354","2022-12-22 06:00","2022","12","22","06:00","-33.3","","-36.7","","72","","0.0","","34","","24","","8.1","","103.84","","","","-48","","Snow"
"-81.24","68.78","SANIRAJAK AIRPORT","2402354","2022-12-22 07:00","2022","12","22","07:00","-33.0","","-36.3","","73","","0.0","","34","","24","","6.4","","103.85","","","","-48","","Snow"
"-81.24","68.78","SANIRAJAK AIRPORT","2402354","2022-12-22 08:00","2022","12","22","08:00","-33.4","","-36.7","","73","","0.0","","35","","22","","6.4","","103.85","","","","-48","","Snow"
"-81.24","68.78","SANIRAJAK AIRPORT","2402354","2022-12-22 09:00","2022","12","22","09:00","-33.3","","-36.7","","72","","0.0","","35","","24","","6.4","","103.84","","","","-48","","Snow"
"-81.24","68.78","SANIRAJAK AIRPORT","2402354","2022-12-22 10:00","2022","12","22","10:00","-31.0","","-34.2","","74","","0.0","","35","","24","","3.6","","103.86","","","","-45","","Snow"
"-81.24","68.78","SANIRAJAK AIRPORT","2402354","2022-12-22 11:00","2022","12","22","11:00","-31.0","","-34.1","","75","","0.0","","35","","22","","4.0","","103.85","","","","-45","","Snow"
"-81.24","68.78","SANIRAJAK AIRPORT","2402354","2022-12-22 12:00","2022","12","22","12:00","-31.0","","-34.2","","74","","0.0","","34","","22","","9.7","","103.85","","","","-45","","Haze"
"-81.24","68.78","SANIRAJAK AIRPORT","2402354","2022-12-22 13:00","2022","12","22","13:00","-30.4","","-33.5","","75","","0.0","","34","","26","","11.3","","103.86","","","","-45","","Snow"
"-81.24","68.78","SANIRAJAK AIRPORT","2402354","2022-12-22 14:00","2022","12","22","14:00","-29.9","","-32.9","","76","","0.0","","35","","24","","14.5","","103.87","","","","-44","","NA"
"-81.24","68.78","SANIRAJAK AIRPORT","2402354","2022-12-22 15:00","2022","12","22","15:00","-29.6","","-32.6","","76","","0.0","","35","","24","","16.1","","103.85","","","","-44","","NA"
"-81.24","68.78","SANIRAJAK AIRPORT","2402354","2022-12-22 16:00","2022","12","22","16:00","-29.0","","-31.9","","77","","0.0","","35","","21","","16.1","","103.87","","","","-42","","NA"
"-81.24","68.78","SANIRAJAK AIRPORT","2402354","2022-12-22 17:00","2022","12","22","17:00","-29.1","","-31.9","","77","","0.0","","35","","24","","16.1","","103.88","","","","-43","","NA"
"-81.24","68.78","SANIRAJAK AIRPORT","2402354","2022-12-22 18:00","2022","12","22","18:00","-28.9","","-31.8","","77","","0.0","","35","","24","","16.1","","103.90","","","","-43","","NA"
"-81.24","68.78","SANIRAJAK AIRPORT","2402354","2022-12-22 19:00","2022","12","22","19:00","-28.4","","-31.3","","77","","0.0","","35","","22","","16.1","","103.90","","","","-42","","NA"
"-81.24","68.78","SANIRAJAK AIRPORT","2402354","2022-12-22 20:00","2022","12","22","20:00","-28.0","","-30.7","","78","","0.0","","35","","24","","16.1","","103.91","","","","-42","","NA"
"-81.24","68.78","SANIRAJAK AIRPORT","2402354","2022-12-22 21:00","2022","12","22","21:00","-27.1","","-29.7","","79","","0.0","","36","","21","","6.4","","103.89","","","","-40","","Snow"
"-81.24","68.78","SANIRAJAK AIRPORT","2402354","2022-12-22 22:00","2022","12","22","22:00","-27.0","","-29.6","","79","","0.0","","35","","26","","3.2","","103.87","","","","-41","","Fog"
"-81.24","68.78","SANIRAJAK AIRPORT","2402354","2022-12-22 23:00","2022","12","22","23:00","-25.7","","-28.1","","81","","0.0","","36","","21","","4.0","","103.89","","","","-38","","Snow"
"-81.24","68.78","SANIRAJAK AIRPORT","2402354","2022-12-23 00:00","2022","12","23","00:00","-24.9","","-27.3","","81","","0.0","","36","","21","","6.4","","103.91","","","","-37","","Snow"
"-81.24","68.78","SANIRAJAK AIRPORT","2402354","2022-12-23 01:00","2022","12","23","01:00","-22.4","","-24.3","","85","","0.0","","1","","21","","6.4","","103.89","","","","-34","","Fog"
"-81.24","68.78","SANIRAJAK AIRPORT","2402354","2022-12-23 02:00","2022","12","23","02:00","-23.2","","-25.3","","83","","0.0","","36","","21","","6.4","","103.92","","","","-35","","Snow"
"-81.24","68.78","SANIRAJAK AIRPORT","2402354","2022-12-23 03:00","2022","12","23","03:00","-22.4","","-24.4","","84","","0.0","","1","","21","","6.4","","103.93","","","","-34","","Snow"
"-81.24","68.78","SANIRAJAK AIRPORT","2402354","2022-12-23 04:00","2022","12","23","04:00","-21.0","","-22.6","","87","","0.0","","2","","18","","4.8","","103.91","","","","-31","","Snow"
"-81.24","68.78","SANIRAJAK AIRPORT","2402354","2022-12-23 05:00","2022","12","23","05:00","-19.7","","-21.5","","86","","294.6","","3","","26","","14.5","","103.89","","","","-31","","NA"
"-81.24","68.78","SANIRAJAK AIRPORT","2402354","2022-12-23 06:00","2022","12","23","06:00","-19.9","","-21.7","","86","","609.6","","2","","30","","6.4","","103.89","","","","-32","","Snow"
"-81.24","68.78","SANIRAJAK AIRPORT","2402354","2022-12-23 07:00","2022","12","23","07:00","-22.6","","-24.7","","83","","162.6","","36","","24","","2.4","","103.88","","","","-35","","Snow"
"-81.24","68.78","SANIRAJAK AIRPORT","2402354","2022-12-23 08:00","2022","12","23","08:00","-20.9","","-22.3","","89","","0.0","","2","","24","","3.6","","103.86","","","","-33","","Snow"
"-81.24","68.78","SANIRAJAK AIRPORT","2402354","2022-12-23 09:00","2022","12","23","09:00","-19.7","","-21.5","","86","","284.5","","2","","28","","4.8","","103.85","","","","-32","","Snow"
"-81.24","68.78","SANIRAJAK AIRPORT","2402354","2022-12-23 10:00","2022","12","23","10:00","-19.0","","-20.7","","87","","609.6","","3","","26","","6.4","","103.82","","","","-31","","Snow"
"-81.24","68.78","SANIRAJAK AIRPORT","2402354","2022-12-23 11:00","2022","12","23","11:00","-19.0","","-20.7","","87","","609.6","","3","","30","","4.8","","103.80","","","","-31","","Snow"
"-81.24","68.78","SANIRAJAK AIRPORT","2402354","2022-12-23 12:00","2022","12","23","12:00","-18.7","","-20.2","","88","","609.6","","3","","28","","3.6","","103.75","","","","-31","","Snow"
"-81.24","68.78","SANIRAJAK AIRPORT","2402354","2022-12-23 13:00","2022","12","23","13:00","-18.6","","-20.1","","88","","609.6","","4","","26","","4.8","","103.71","","","","-30","","Snow"
"-81.24","68.78","SANIRAJAK AIRPORT","2402354","2022-12-23 14:00","2022","12","23","14:00","-18.3","","-19.8","","88","","","M","3","","26","","4.0","","103.72","","","","-30","","Snow"
"-81.24","68.78","SANIRAJAK AIRPORT","2402354","2022-12-23 15:00","2022","12","23","15:00","-18.2","","-19.7","","88","","609.5","","3","","24","","6.4","","103.69","","","","-29","","Snow"
"-81.24","68.78","SANIRAJAK AIRPORT","2402354","2022-12-23 16:00","2022","12","23","16:00","-18.2","","-19.7","","88","","","M","3","","22","","9.7","","103.67","","","","-29","","Snow"
"-81.24","68.78","SANIRAJAK AIRPORT","2402354","2022-12-23 17:00","2022","12","23","17:00","-17.2","","-18.6","","89","","609.6","","3","","22","","11.3","","103.65","","","","-27","","Snow"
"-81.24","68.78","SANIRAJAK AIRPORT","2402354","2022-12-23 18:00","2022","12","23","18:00","-16.1","","-17.4","","90","","","M","3","","21","","16.1","","103.63","","","","-26","","Snow"
"-81.24","68.78","SANIRAJAK AIRPORT","2402354","2022-12-23 19:00","2022","12","23","19:00","-15.1","","-16.3","","91","","608.6","","3","","17","","16.1","","103.58","","","","-24","","Snow"
"-81.24","68.78","SANIRAJAK AIRPORT","2402354","2022-12-23 20:00","2022","12","23","20:00","-13.7","","-14.3","","95","","","M","9","","11","","16.1","","103.55","","","","-20","","Snow"
"-81.24","68.78","SANIRAJAK AIRPORT","2402354","2022-12-23 21:00","2022","12","23","21:00","-13.8","","-14.7","","93","","","M","11","","15","","16.1","","103.53","","","","-21","","Snow"
"-81.24","68.78","SANIRAJAK AIRPORT","2402354","2022-12-23 22:00","2022","12","23","22:00","-13.5","","-14.0","","96","","","M","12","","15","","16.1","","103.51","","","","-21","","Snow"
"-81.24","68.78","SANIRAJAK AIRPORT","2402354","2022-12-23 23:00","2022","12","23","23:00","-13.4","","-14.0","","95","","607.1","","13","","13","","16.1","","103.48","","","","-20","","Snow"
"-81.24","68.78","SANIRAJAK AIRPORT","2402354","2022-12-24 00:00","2022","12","24","00:00","-17.4","","-18.8","","89","","","M","27","","8","","12.9","","103.45","","","","-23","","Snow"
"-81.24","68.78","SANIRAJAK AIRPORT","2402354","2022-12-24 01:00","2022","12","24","01:00","-20.2","","-21.8","","87","","436.9","","29","","9","","16.1","","103.47","","","","-27","","Snow"
"-81.24","68.78","SANIRAJAK AIRPORT","2402354","2022-12-24 02:00","2022","12","24","02:00","-21.5","","-23.4","","85","","120.9","","31","","13","","4.8","","103.46","","","","-30","","Snow"
"-81.24","68.78","SANIRAJAK AIRPORT","2402354","2022-12-24 03:00","2022","12","24","03:00","-23.6","","-25.6","","84","","0.0","","32","","9","","16.1","","103.45","","","","-31","","Snow"
"-81.24","68.78","SANIRAJAK AIRPORT","2402354","2022-12-24 04:00","2022","12","24","04:00","-23.2","","-25.3","","83","","0.0","","31","","11","","16.1","","103.44","","","","-31","","Snow"
"-81.24","68.78","SANIRAJAK AIRPORT","2402354","2022-12-24 05:00","2022","12","24","05:00","-24.7","","-26.9","","82","","0.0","","31","","18","","16.1","","103.42","","","","-36","","Snow"
"-81.24","68.78","SANIRAJAK AIRPORT","2402354","2022-12-24 06:00","2022","12","24","06:00","-24.3","","-26.4","","83","","0.0","","31","","17","","11.3","","103.42","","","","-35","","Snow"
"-81.24","68.78","SANIRAJAK AIRPORT","2402354","2022-12-24 07:00","2022","12","24","07:00","-25.1","","-27.3","","82","","0.1","","32","","21","","16.1","","103.42","","","","-37","","Snow"
"-81.24","68.78","SANIRAJAK AIRPORT","2402354","2022-12-24 08:00","2022","12","24","08:00","-25.7","","-28.1","","81","","0.0","","32","","22","","16.1","","103.39","","","","-38","","Snow"
"-81.24","68.78","SANIRAJAK AIRPORT","2402354","2022-12-24 09:00","2022","12","24","09:00","-25.3","","-27.7","","81","","0.0","","33","","21","","16.1","","103.39","","","","-37","","NA"
"-81.24","68.78","SANIRAJAK AIRPORT","2402354","2022-12-24 10:00","2022","12","24","10:00","-25.0","","-27.2","","82","","0.0","","33","","22","","16.1","","103.36","","","","-37","","NA"
"-81.24","68.78","SANIRAJAK AIRPORT","2402354","2022-12-24 11:00","2022","12","24","11:00","-20.9","","-22.8","","85","","0.0","","33","","21","","16.1","","103.35","","","","-32","","NA"
"-81.24","68.78","SANIRAJAK AIRPORT","2402354","2022-12-24 12:00","2022","12","24","12:00","-21.7","","-23.6","","85","","0.0","","33","","18","","16.1","","103.30","","","","-32","","NA"
"-81.24","68.78","SANIRAJAK AIRPORT","2402354","2022-12-24 13:00","2022","12","24","13:00","-20.1","","-21.8","","87","","0.0","","33","","22","","16.1","","103.28","","","","-31","","NA"
"-81.24","68.78","SANIRAJAK AIRPORT","2402354","2022-12-24 14:00","2022","12","24","14:00","-19.0","","-20.7","","87","","456.2","","33","","21","","16.1","","103.24","","","","-29","","Snow"
"-81.24","68.78","SANIRAJAK AIRPORT","2402354","2022-12-24 15:00","2022","12","24","15:00","-17.8","","-19.1","","90","","","M","35","","21","","16.1","","103.18","","","","-28","","Snow"
"-81.24","68.78","SANIRAJAK AIRPORT","2402354","2022-12-24 16:00","2022","12","24","16:00","-17.5","","-18.9","","89","","","M","35","","17","","16.1","","103.18","","","","-27","","NA"
"-81.24","68.78","SANIRAJAK AIRPORT","2402354","2022-12-24 17:00","2022","12","24","17:00","-17.3","","-18.7","","89","","","M","34","","21","","16.1","","103.11","","","","-27","","Snow"
"-81.24","68.78","SANIRAJAK AIRPORT","2402354","2022-12-24 18:00","2022","12","24","18:00","-16.8","","-18.2","","89","","609.6","","36","","18","","14.5","","103.08","","","","-26","","NA"
"-81.24","68.78","SANIRAJAK AIRPORT","2402354","2022-12-24 19:00","2022","12","24","19:00","-17.8","","-19.2","","89","","","M","36","","22","","3.2","","103.00","","","","-28","","Fog"
"-81.24","68.78","SANIRAJAK AIRPORT","2402354","2022-12-24 20:00","2022","12","24","20:00","-17.9","","-19.4","","88","","","M","36","","22","","4.8","","102.99","","","","-28","","Fog"
"-81.24","68.78","SANIRAJAK AIRPORT","2402354","2022-12-24 21:00","2022","12","24","21:00","-18.4","","-19.9","","88","","","M","35","","21","","16.1","","103.00","","","","-29","","NA"
"-81.24","68.78","SANIRAJAK AIRPORT","2402354","2022-12-24 22:00","2022","12","24","22:00","-19.0","","-20.7","","87","","","M","36","","22","","14.5","","102.90","","","","-30","","Snow"
"-81.24","68.78","SANIRAJAK AIRPORT","2402354","2022-12-24 23:00","2022","12","24","23:00","-19.2","","-20.9","","87","","","M","35","","26","","6.4","","102.85","","","","-31","","Fog"
"-81.24","68.78","SANIRAJAK AIRPORT","2402354","2022-12-25 00:00","2022","12","25","00:00","-19.5","","-21.2","","87","","","M","36","","24","","4.8","","102.79","","","","-31","","Fog"
"-81.24","68.78","SANIRAJAK AIRPORT","2402354","2022-12-25 01:00","2022","12","25","01:00","-19.5","","-21.2","","87","","","M","36","","22","","4.8","","102.75","","","","-30","","Fog"
"-81.24","68.78","SANIRAJAK AIRPORT","2402354","2022-12-25 02:00","2022","12","25","02:00","-19.6","","-21.2","","87","","","M","36","","26","","2.4","","102.69","","","","-31","","Fog"
"-81.24","68.78","SANIRAJAK AIRPORT","2402354","2022-12-25 03:00","2022","12","25","03:00","-19.6","","-21.2","","87","","","M","36","","26","","8.1","","102.63","","","","-31","","Fog"
"-81.24","68.78","SANIRAJAK AIRPORT","2402354","2022-12-25 04:00","2022","12","25","04:00","-19.7","","-21.3","","87","","","M","35","","24","","16.1","","102.56","","","","-31","","NA"
"-81.24","68.78","SANIRAJAK AIRPORT","2402354","2022-12-25 05:00","2022","12","25","05:00","-19.6","","-21.2","","87","","608.6","","35","","26","","9.7","","102.51","","","","-31","","Fog"
"-81.24","68.78","SANIRAJAK AIRPORT","2402354","2022-12-25 06:00","2022","12","25","06:00","-19.5","","-21.2","","87","","","M","35","","28","","4.8","","102.45","","","","-32","","Fog"
"-81.24","68.78","SANIRAJAK AIRPORT","2402354","2022-12-25 07:00","2022","12","25","07:00","-19.3","","-21.0","","87","","609.6","","36","","26","","3.2","","102.40","","","","-31","","Snow"
"-81.24","68.78","SANIRAJAK AIRPORT","2402354","2022-12-25 08:00","2022","12","25","08:00","-19.5","","-21.2","","87","","","M","36","","28","","3.2","","102.36","","","","-32","","Snow"
"-81.24","68.78","SANIRAJAK AIRPORT","2402354","2022-12-25 09:00","2022","12","25","09:00","-18.4","","-19.9","","88","","","M","1","","28","","3.2","","102.30","","","","-30","","Snow"
"-81.24","68.78","SANIRAJAK AIRPORT","2402354","2022-12-25 10:00","2022","12","25","10:00","-19.7","","-21.5","","86","","609.6","","35","","28","","9.7","","102.29","","","","-32","","Snow"
"-81.24","68.78","SANIRAJAK AIRPORT","2402354","2022-12-25 11:00","2022","12","25","11:00","-20.1","","-21.9","","86","","254.0","","35","","26","","8.1","","102.29","","","","-32","","Fog"
"-81.24","68.78","SANIRAJAK AIRPORT","2402354","2022-12-25 12:00","2022","12","25","12:00","-20.4","","-22.2","","86","","386.1","","36","","28","","4.0","","102.23","","","","-33","","Snow"
"-81.24","68.78","SANIRAJAK AIRPORT","2402354","2022-12-25 13:00","2022","12","25","13:00","-20.4","","-22.2","","86","","0.0","","35","","28","","4.8","","102.15","","","","-33","","Snow"
"-81.24","68.78","SANIRAJAK AIRPORT","2402354","2022-12-25 14:00","2022","12","25","14:00","-20.3","","-22.1","","86","","0.0","","36","","26","","2.8","","102.09","","","","-32","","Snow"
"-81.24","68.78","SANIRAJAK AIRPORT","2402354","2022-12-25 15:00","2022","12","25","15:00","-18.0","","-19.4","","89","","243.0","","4","","32","","4.0","","102.03","","","","-30","","Snow"
"-81.24","68.78","SANIRAJAK AIRPORT","2402354","2022-12-25 16:00","2022","12","25","16:00","-18.7","","-20.4","","87","","610.4","","2","","30","","12.9","","101.97","","","","-31","","NA"
"-81.24","68.78","SANIRAJAK AIRPORT","2402354","2022-12-25 17:00","2022","12","25","17:00","-20.3","","-22.1","","86","","589.3","","36","","18","","16.1","","101.91","","","","-30","","NA"
"-81.24","68.78","SANIRAJAK AIRPORT","2402354","2022-12-25 18:00","2022","12","25","18:00","-20.5","","-22.3","","86","","0.0","","36","","26","","16.1","","101.85","","","","-32","","NA"
"-81.24","68.78","SANIRAJAK AIRPORT","2402354","2022-12-25 19:00","2022","12","25","19:00","-21.7","","-23.6","","85","","0.0","","35","","24","","16.1","","101.85","","","","-34","","NA"
"-81.24","68.78","SANIRAJAK AIRPORT","2402354","2022-12-25 20:00","2022","12","25","20:00","-22.0","","-24.0","","84","","0.0","","35","","26","","16.1","","101.82","","","","-34","","NA"
"-81.24","68.78","SANIRAJAK AIRPORT","2402354","2022-12-25 21:00","2022","12","25","21:00","-21.7","","-23.6","","85","","0.0","","36","","28","","16.1","","101.76","","","","-34","","NA"
"-81.24","68.78","SANIRAJAK AIRPORT","2402354","2022-12-25 22:00","2022","12","25","22:00","-21.3","","-23.2","","85","","0.0","","36","","28","","9.7","","101.72","","","","-34","","Fog"
"-81.24","68.78","SANIRAJAK AIRPORT","2402354","2022-12-25 23:00","2022","12","25","23:00","-22.1","","-24.1","","84","","0.0","","35","","28","","4.8","","101.67","","","","-35","","Snow"
"-81.24","68.78","SANIRAJAK AIRPORT","2402354","2022-12-26 00:00","2022","12","26","00:00","-22.5","","-24.5","","84","","0.0","","36","","30","","6.4","","101.59","","","","-36","","Fog"
"-81.24","68.78","SANIRAJAK AIRPORT","2402354","2022-12-26 01:00","2022","12","26","01:00","-22.6","","-24.6","","84","","0.0","","36","","30","","14.5","","101.56","","","","-36","","NA"
"-81.24","68.78","SANIRAJAK AIRPORT","2402354","2022-12-26 02:00","2022","12","26","02:00","-22.4","","-24.4","","84","","0.0","","35","","28","","8.1","","101.55","","","","-35","","Fog"
"-81.24","68.78","SANIRAJAK AIRPORT","2402354","2022-12-26 03:00","2022","12","26","03:00","-22.0","","-24.0","","84","","0.0","","35","","30","","6.4","","101.49","","","","-35","","Snow"
"-81.24","68.78","SANIRAJAK AIRPORT","2402354","2022-12-26 04:00","2022","12","26","04:00","-21.7","","-23.6","","85","","0.0","","36","","28","","4.0","","101.44","","","","-34","","Fog"
"-81.24","68.78","SANIRAJAK AIRPORT","2402354","2022-12-26 05:00","2022","12","26","05:00","-22.5","","-24.5","","84","","0.0","","35","","26","","3.6","","101.48","","","","-35","","Snow"
"-81.24","68.78","SANIRAJAK AIRPORT","2402354","2022-12-26 06:00","2022","12","26","06:00","-22.7","","-24.7","","84","","0.0","","35","","26","","12.9","","101.46","","","","-35","","NA"
"-81.24","68.78","SANIRAJAK AIRPORT","2402354","2022-12-26 07:00","2022","12","26","07:00","-22.5","","-24.5","","84","","0.0","","36","","24","","11.3","","101.41","","","","-35","","NA"
"-81.24","68.78","SANIRAJAK AIRPORT","2402354","2022-12-26 08:00","2022","12","26","08:00","-22.9","","-24.9","","84","","0.0","","36","","24","","16.1","","101.38","","","","-35","","NA"
"-81.24","68.78","SANIRAJAK AIRPORT","2402354","2022-12-26 09:00","2022","12","26","09:00","-22.5","","-24.5","","84","","0.0","","36","","28","","16.1","","101.37","","","","-35","","NA"
"-81.24","68.78","SANIRAJAK AIRPORT","2402354","2022-12-26 10:00","2022","12","26","10:00","-22.3","","-24.3","","84","","0.0","","36","","26","","16.1","","101.33","","","","-35","","NA"
"-81.24","68.78","SANIRAJAK AIRPORT","2402354","2022-12-26 11:00","2022","12","26","11:00","-22.8","","-24.8","","84","","0.0","","36","","22","","16.1","","101.30","","","","-35","","NA"
"-81.24","68.78","SANIRAJAK AIRPORT","2402354","2022-12-26 12:00","2022","12","26","12:00","-22.4","","-24.3","","85","","0.0","","36","","24","","16.1","","101.23","","","","-34","","NA"
"-81.24","68.78","SANIRAJAK AIRPORT","2402354","2022-12-26 13:00","2022","12","26","13:00","-22.4","","-24.4","","84","","0.0","","35","","22","","16.1","","101.21","","","","-34","","NA"
"-81.24","68.78","SANIRAJAK AIRPORT","2402354","2022-12-26 14:00","2022","12","26","14:00","-22.3","","-24.3","","84","","0.0","","35","","22","","16.1","","101.16","","","","-34","","NA"
"-81.24","68.78","SANIRAJAK AIRPORT","2402354","2022-12-26 15:00","2022","12","26","15:00","-21.6","","-23.5","","85","","0.0","","35","","21","","4.0","","101.15","","","","-33","","Snow"
"-81.24","68.78","SANIRAJAK AIRPORT","2402354","2022-12-26 16:00","2022","12","26","16:00","-21.8","","-23.8","","84","","0.0","","35","","24","","16.1","","101.12","","","","-34","","NA"
"-81.24","68.78","SANIRAJAK AIRPORT","2402354","2022-12-26 17:00","2022","12","26","17:00","-21.9","","-23.9","","84","","0.0","","35","","24","","16.1","","101.13","","","","-34","","NA"
"-81.24","68.78","SANIRAJAK AIRPORT","2402354","2022-12-26 18:00","2022","12","26","18:00","-21.6","","-23.5","","85","","0.0","","36","","24","","16.1","","101.16","","","","-33","","NA"
"-81.24","68.78","SANIRAJAK AIRPORT","2402354","2022-12-26 19:00","2022","12","26","19:00","-21.6","","-23.5","","85","","0.0","","36","","26","","16.1","","101.13","","","","-34","","NA"
"-81.24","68.78","SANIRAJAK AIRPORT","2402354","2022-12-26 20:00","2022","12","26","20:00","-21.2","","-23.1","","85","","0.0","","36","","24","","16.1","","101.10","","","","-33","","NA"
"-81.24","68.78","SANIRAJAK AIRPORT","2402354","2022-12-26 21:00","2022","12","26","21:00","-20.9","","-22.7","","86","","0.0","","1","","18","","16.1","","101.10","","","","-31","","NA"
"-81.24","68.78","SANIRAJAK AIRPORT","2402354","2022-12-26 22:00","2022","12","26","22:00","-20.9","","-22.9","","84","","0.0","","35","","18","","16.1","","101.07","","","","-31","","NA"
"-81.24","68.78","SANIRAJAK AIRPORT","2402354","2022-12-26 23:00","2022","12","26","23:00","-21.4","","-23.3","","85","","0.0","","35","","24","","16.1","","101.02","","","","-33","","NA"
"-81.24","68.78","SANIRAJAK AIRPORT","2402354","2022-12-27 00:00","2022","12","27","00:00","-21.2","","-23.1","","85","","0.0","","35","","24","","16.1","","100.99","","","","-33","","NA"
"-81.24","68.78","SANIRAJAK AIRPORT","2402354","2022-12-27 01:00","2022","12","27","01:00","-20.7","","-22.5","","86","","0.0","","35","","22","","8.1","","100.98","","","","-32","","Fog"
"-81.24","68.78","SANIRAJAK AIRPORT","2402354","2022-12-27 02:00","2022","12","27","02:00","-21.0","","-22.9","","85","","0.0","","34","","22","","16.1","","100.99","","","","-32","","NA"
"-81.24","68.78","SANIRAJAK AIRPORT","2402354","2022-12-27 03:00","2022","12","27","03:00","-20.6","","-22.4","","86","","0.0","","35","","21","","16.1","","100.97","","","","-31","","NA"
"-81.24","68.78","SANIRAJAK AIRPORT","2402354","2022-12-27 04:00","2022","12","27","04:00","-20.6","","-22.4","","86","","0.0","","35","","21","","16.1","","100.94","","","","-31","","NA"
"-81.24","68.78","SANIRAJAK AIRPORT","2402354","2022-12-27 05:00","2022","12","27","05:00","-20.7","","-22.5","","86","","0.0","","35","","18","","16.1","","100.94","","","","-31","","NA"
"-81.24","68.78","SANIRAJAK AIRPORT","2402354","2022-12-27 06:00","2022","12","27","06:00","-20.7","","-22.5","","86","","0.0","","34","","22","","16.1","","100.94","","","","-32","","NA"
"-81.24","68.78","SANIRAJAK AIRPORT","2402354","2022-12-27 07:00","2022","12","27","07:00","-20.7","","-22.5","","86","","0.0","","34","","22","","16.1","","100.95","","","","-32","","NA"
"-81.24","68.78","SANIRAJAK AIRPORT","2402354","2022-12-27 08:00","2022","12","27","08:00","-20.7","","-22.5","","86","","0.0","","35","","22","","16.1","","100.92","","","","-32","","NA"
"-81.24","68.78","SANIRAJAK AIRPORT","2402354","2022-12-27 09:00","2022","12","27","09:00","-20.7","","-22.5","","86","","0.0","","35","","22","","16.1","","100.92","","","","-32","","NA"
"-81.24","68.78","SANIRAJAK AIRPORT","2402354","2022-12-27 10:00","2022","12","27","10:00","-21.1","","-23.0","","85","","0.0","","35","","22","","16.1","","100.91","","","","-32","","NA"
"-81.24","68.78","SANIRAJAK AIRPORT","2402354","2022-12-27 11:00","2022","12","27","11:00","-22.7","","-24.8","","83","","0.0","","34","","18","","16.1","","100.94","","","","-33","","NA"
"-81.24","68.78","SANIRAJAK AIRPORT","2402354","2022-12-27 12:00","2022","12","27","12:00","-25.1","","-27.5","","81","","0.0","","33","","22","","16.1","","100.94","","","","-37","","NA"
"-81.24","68.78","SANIRAJAK AIRPORT","2402354","2022-12-27 13:00","2022","12","27","13:00","-25.1","","-27.4","","81","","0.0","","34","","22","","16.1","","100.94","","","","-37","","NA"
"-81.24","68.78","SANIRAJAK AIRPORT","2402354","2022-12-27 14:00","2022","12","27","14:00","-27.0","","-29.6","","79","","0.0","","34","","17","","16.1","","100.93","","","","-38","","NA"
"-81.24","68.78","SANIRAJAK AIRPORT","2402354","2022-12-27 15:00","2022","12","27","15:00","-27.1","","-29.6","","80","","0.0","","33","","22","","16.1","","100.97","","","","-40","","NA"
"-81.24","68.78","SANIRAJAK AIRPORT","2402354","2022-12-27 16:00","2022","12","27","16:00","-27.0","","-29.5","","80","","0.0","","34","","18","","16.1","","100.98","","","","-39","","NA"
"-81.24","68.78","SANIRAJAK AIRPORT","2402354","2022-12-27 17:00","2022","12","27","17:00","-25.3","","-27.5","","82","","0.0","","32","","18","","16.1","","101.04","","","","-37","","NA"
"-81.24","68.78","SANIRAJAK AIRPORT","2402354","2022-12-27 18:00","2022","12","27","18:00","-24.2","","-26.5","","82","","0.0","","34","","21","","16.1","","101.02","","","","-36","","NA"
"-81.24","68.78","SANIRAJAK AIRPORT","2402354","2022-12-27 19:00","2022","12","27","19:00","-23.6","","-25.7","","83","","0.0","","33","","18","","16.1","","101.07","","","","-34","","NA"
"-81.24","68.78","SANIRAJAK AIRPORT","2402354","2022-12-27 20:00","2022","12","27","20:00","-23.5","","-25.6","","83","","0.0","","34","","15","","16.1","","101.04","","","","-33","","NA"
"-81.24","68.78","SANIRAJAK AIRPORT","2402354","2022-12-27 21:00","2022","12","27","21:00","-23.1","","-25.2","","83","","0.0","","33","","17","","16.1","","101.06","","","","-34","","NA"
"-81.24","68.78","SANIRAJAK AIRPORT","2402354","2022-12-27 22:00","2022","12","27","22:00","-22.7","","-24.7","","84","","0.0","","34","","21","","16.1","","101.02","","","","-34","","NA"
"-81.24","68.78","SANIRAJAK AIRPORT","2402354","2022-12-27 23:00","2022","12","27","23:00","-22.4","","-24.4","","84","","0.0","","34","","18","","16.1","","101.05","","","","-33","","NA"
"-81.24","68.78","SANIRAJAK AIRPORT","2402354","2022-12-28 00:00","2022","12","28","00:00","-22.3","","-24.3","","84","","0.0","","34","","17","","16.1","","101.09","","","","-33","","NA"
"-81.24","68.78","SANIRAJAK AIRPORT","2402354","2022-12-28 01:00","2022","12","28","01:00","-21.7","","-23.6","","85","","0.0","","34","","22","","16.1","","101.10","","","","-33","","NA"
"-81.24","68.78","SANIRAJAK AIRPORT","2402354","2022-12-28 02:00","2022","12","28","02:00","-21.4","","-23.3","","85","","0.0","","34","","24","","16.1","","101.12","","","","-33","","Snow"
"-81.24","68.78","SANIRAJAK AIRPORT","2402354","2022-12-28 03:00","2022","12","28","03:00","-21.3","","-23.2","","85","","0.0","","34","","26","","4.0","","101.16","","","","-33","","Snow"
"-81.24","68.78","SANIRAJAK AIRPORT","2402354","2022-12-28 04:00","2022","12","28","04:00","-20.9","","-22.7","","86","","0.0","","35","","26","","4.8","","101.14","","","","-33","","Snow"
"-81.24","68.78","SANIRAJAK AIRPORT","2402354","2022-12-28 05:00","2022","12","28","05:00","-20.8","","-22.7","","85","","0.0","","35","","32","","6.4","","101.17","","","","-34","","Snow"
"-81.24","68.78","SANIRAJAK AIRPORT","2402354","2022-12-28 06:00","2022","12","28","06:00","-21.3","","-23.2","","85","","0.0","","35","","24","","11.3","","101.21","","","","-33","","Snow"
"-81.24","68.78","SANIRAJAK AIRPORT","2402354","2022-12-28 07:00","2022","12","28","07:00","-22.5","","-24.7","","83","","0.0","","34","","22","","16.1","","101.25","","","","-34","","NA"
"-81.24","68.78","SANIRAJAK AIRPORT","2402354","2022-12-28 08:00","2022","12","28","08:00","-23.9","","-26.1","","82","","0.0","","34","","21","","16.1","","101.28","","","","-36","","NA"
"-81.24","68.78","SANIRAJAK AIRPORT","2402354","2022-12-28 09:00","2022","12","28","09:00","-23.9","","-26.2","","82","","0.0","","33","","21","","16.1","","101.31","","","","-36","","NA"
"-81.24","68.78","SANIRAJAK AIRPORT","2402354","2022-12-28 10:00","2022","12","28","10:00","-26.1","","-28.6","","80","","0.0","","34","","22","","16.1","","101.37","","","","-39","","NA"
"-81.24","68.78","SANIRAJAK AIRPORT","2402354","2022-12-28 11:00","2022","12","28","11:00","-27.8","","-30.4","","79","","0.0","","33","","24","","16.1","","101.43","","","","-41","","NA"
"-81.24","68.78","SANIRAJAK AIRPORT","2402354","2022-12-28 12:00","2022","12","28","12:00","-28.3","","-31.0","","78","","0.0","","33","","24","","16.1","","101.45","","","","-42","","NA"
"-81.24","68.78","SANIRAJAK AIRPORT","2402354","2022-12-28 13:00","2022","12","28","13:00","-29.3","","-32.1","","77","","0.0","","33","","26","","16.1","","101.49","","","","-44","","NA"
"-81.24","68.78","SANIRAJAK AIRPORT","2402354","2022-12-28 14:00","2022","12","28","14:00","-30.4","","-33.5","","75","","0.0","","32","","21","","16.1","","101.55","","","","-44","","NA"
"-81.24","68.78","SANIRAJAK AIRPORT","2402354","2022-12-28 15:00","2022","12","28","15:00","-30.8","","-33.7","","76","","0.0","","32","","18","","16.1","","101.64","","","","-43","","NA"
"-81.24","68.78","SANIRAJAK AIRPORT","2402354","2022-12-28 16:00","2022","12","28","16:00","-30.0","","-33.0","","76","","0.0","","32","","24","","16.1","","101.70","","","","-44","","NA"
"-81.24","68.78","SANIRAJAK AIRPORT","2402354","2022-12-28 17:00","2022","12","28","17:00","-30.2","","-33.2","","76","","0.0","","32","","28","","16.1","","101.74","","","","-45","","NA"
"-81.24","68.78","SANIRAJAK AIRPORT","2402354","2022-12-28 18:00","2022","12","28","18:00","-31.0","","-33.9","","76","","0.0","","32","","26","","16.1","","101.80","","","","-46","","NA"
"-81.24","68.78","SANIRAJAK AIRPORT","2402354","2022-12-28 19:00","2022","12","28","19:00","-30.7","","-33.7","","76","","0.0","","32","","34","","16.1","","101.81","","","","-47","","NA"
"-81.24","68.78","SANIRAJAK AIRPORT","2402354","2022-12-28 20:00","2022","12","28","20:00","-31.1","","-34.0","","76","","0.0","","31","","28","","16.1","","101.86","","","","-47","","NA"
"-81.24","68.78","SANIRAJAK AIRPORT","2402354","2022-12-28 21:00","2022","12","28","21:00","-31.1","","-34.0","","76","","0.0","","32","","32","","16.1","","101.82","","","","-47","","NA"
"-81.24","68.78","SANIRAJAK AIRPORT","2402354","2022-12-28 22:00","2022","12","28","22:00","-31.3","","-34.5","","74","","0.0","","31","","32","","16.1","","101.86","","","","-48","","NA"
"-81.24","68.78","SANIRAJAK AIRPORT","2402354","2022-12-28 23:00","2022","12","28","23:00","-31.9","","-35.1","","74","","0.0","","32","","28","","16.1","","101.88","","","","-48","","NA"
"-81.24","68.78","SANIRAJAK AIRPORT","2402354","2022-12-29 00:00","2022","12","29","00:00","-32.1","","-35.1","","76","","0.0","","32","","26","","16.1","","101.92","","","","-47","","NA"
"-81.24","68.78","SANIRAJAK AIRPORT","2402354","2022-12-29 01:00","2022","12","29","01:00","-31.8","","-35.0","","74","","0.0","","32","","28","","16.1","","101.97","","","","-48","","NA"
"-81.24","68.78","SANIRAJAK AIRPORT","2402354","2022-12-29 02:00","2022","12","29","02:00","-32.2","","-35.4","","74","","0.0","","31","","26","","16.1","","102.04","","","","-48","","NA"
"-81.24","68.78","SANIRAJAK AIRPORT","2402354","2022-12-29 03:00","2022","12","29","03:00","-32.3","","-35.5","","74","","0.0","","32","","21","","16.1","","102.08","","","","-46","","NA"
"-81.24","68.78","SANIRAJAK AIRPORT","2402354","2022-12-29 04:00","2022","12","29","04:00","-31.1","","-34.2","","75","","0.0","","32","","32","","9.7","","102.09","","","","-47","","Haze"
"-81.24","68.78","SANIRAJAK AIRPORT","2402354","2022-12-29 05:00","2022","12","29","05:00","-31.2","","-34.3","","75","","0.0","","32","","30","","16.1","","102.12","","","","-47","","NA"
"-81.24","68.78","SANIRAJAK AIRPORT","2402354","2022-12-29 06:00","2022","12","29","06:00","-31.8","","-35.0","","74","","0.0","","32","","17","","16.1","","102.14","","","","-44","","NA"
"-81.24","68.78","SANIRAJAK AIRPORT","2402354","2022-12-29 07:00","2022","12","29","07:00","-31.9","","-35.0","","75","","0.0","","32","","22","","16.1","","102.12","","","","-46","","NA"
"-81.24","68.78","SANIRAJAK AIRPORT","2402354","2022-12-29 08:00","2022","12","29","08:00","-31.8","","-35.0","","74","","0.0","","31","","28","","16.1","","102.15","","","","-48","","NA"
"-81.24","68.78","SANIRAJAK AIRPORT","2402354","2022-12-29 09:00","2022","12","29","09:00","-31.7","","-34.9","","74","","0.0","","31","","32","","16.1","","102.16","","","","-48","","NA"
"-81.24","68.78","SANIRAJAK AIRPORT","2402354","2022-12-29 10:00","2022","12","29","10:00","-32.0","","-35.2","","74","","0.0","","31","","35","","14.5","","102.14","","","","-49","","NA"
"-81.24","68.78","SANIRAJAK AIRPORT","2402354","2022-12-29 11:00","2022","12","29","11:00","-31.9","","-35.1","","74","","0.0","","31","","28","","16.1","","102.21","","","","-48","","NA"
"-81.24","68.78","SANIRAJAK AIRPORT","2402354","2022-12-29 12:00","2022","12","29","12:00","-32.2","","-35.4","","74","","0.0","","31","","28","","16.1","","102.21","","","","-48","","NA"
"-81.24","68.78","SANIRAJAK AIRPORT","2402354","2022-12-29 13:00","2022","12","29","13:00","-31.9","","-35.1","","74","","0.0","","31","","21","","16.1","","102.22","","","","-46","","NA"
"-81.24","68.78","SANIRAJAK AIRPORT","2402354","2022-12-29 14:00","2022","12","29","14:00","-32.1","","-35.3","","74","","0.0","","31","","32","","16.1","","102.20","","","","-49","","NA"
"-81.24","68.78","SANIRAJAK AIRPORT","2402354","2022-12-29 15:00","2022","12","29","15:00","-32.4","","-35.7","","73","","0.0","","32","","18","","16.1","","102.25","","","","-45","","NA"
"-81.24","68.78","SANIRAJAK AIRPORT","2402354","2022-12-29 16:00","2022","12","29","16:00","-32.6","","-35.8","","74","","0.0","","32","","24","","16.1","","102.25","","","","-48","","NA"
"-81.24","68.78","SANIRAJAK AIRPORT","2402354","2022-12-29 17:00","2022","12","29","17:00","-32.0","","-35.2","","74","","0.0","","30","","26","","16.1","","102.31","","","","-47","","NA"
"-81.24","68.78","SANIRAJAK AIRPORT","2402354","2022-12-29 18:00","2022","12","29","18:00","-32.7","","-36.0","","73","","0.0","","30","","26","","16.1","","102.33","","","","-48","","NA"
"-81.24","68.78","SANIRAJAK AIRPORT","2402354","2022-12-29 19:00","2022","12","29","19:00","-32.2","","-35.4","","74","","0.0","","31","","22","","16.1","","102.30","","","","-46","","NA"
"-81.24","68.78","SANIRAJAK AIRPORT","2402354","2022-12-29 20:00","2022","12","29","20:00","-32.5","","-35.8","","73","","0.0","","31","","28","","16.1","","102.25","","","","-48","","NA"
"-81.24","68.78","SANIRAJAK AIRPORT","2402354","2022-12-29 21:00","2022","12","29","21:00","-33.3","","-36.5","","73","","0.0","","30","","18","","16.1","","102.24","","","","-47","","NA"
"-81.24","68.78","SANIRAJAK AIRPORT","2402354","2022-12-29 22:00","2022","12","29","22:00","-34.0","","-37.4","","72","","0.0","","30","","24","","16.1","","102.24","","","","-49","","NA"
"-81.24","68.78","SANIRAJAK AIRPORT","2402354","2022-12-29 23:00","2022","12","29","23:00","-33.4","","-36.6","","74","","0.0","","30","","22","","16.1","","102.21","","","","-48","","NA"
"-81.24","68.78","SANIRAJAK AIRPORT","2402354","2022-12-30 00:00","2022","12","30","00:00","-34.9","","-38.3","","72","","0.0","","30","","18","","16.1","","102.22","","","","-49","","NA"
"-81.24","68.78","SANIRAJAK AIRPORT","2402354","2022-12-30 01:00","2022","12","30","01:00","-33.3","","-36.3","","75","","0.0","","30","","18","","16.1","","102.22","","","","-47","","NA"
"-81.24","68.78","SANIRAJAK AIRPORT","2402354","2022-12-30 02:00","2022","12","30","02:00","-33.8","","-37.0","","74","","0.0","","31","","22","","16.1","","102.18","","","","-49","","NA"
"-81.24","68.78","SANIRAJAK AIRPORT","2402354","2022-12-30 03:00","2022","12","30","03:00","-33.1","","-36.4","","73","","0.0","","32","","13","","16.1","","102.16","","","","-44","","NA"
"-81.24","68.78","SANIRAJAK AIRPORT","2402354","2022-12-30 04:00","2022","12","30","04:00","-32.9","","-36.2","","73","","0.0","","31","","13","","16.1","","102.18","","","","-44","","NA"
"-81.24","68.78","SANIRAJAK AIRPORT","2402354","2022-12-30 05:00","2022","12","30","05:00","-33.1","","-36.4","","73","","0.0","","31","","8","","16.1","","102.13","","","","-42","","NA"
"-81.24","68.78","SANIRAJAK AIRPORT","2402354","2022-12-30 06:00","2022","12","30","06:00","-32.5","","-36.0","","72","","0.0","","29","","5","","16.1","","102.08","","","","-38","","NA"
"-81.24","68.78","SANIRAJAK AIRPORT","2402354","2022-12-30 07:00","2022","12","30","07:00","-31.3","","-34.3","","76","","0.0","","30","","8","","16.1","","102.00","","","","-40","","NA"
"-81.24","68.78","SANIRAJAK AIRPORT","2402354","2022-12-30 08:00","2022","12","30","08:00","-31.7","","-34.9","","74","","0.0","","34","","8","","16.1","","101.96","","","","-40","","NA"
"-81.24","68.78","SANIRAJAK AIRPORT","2402354","2022-12-30 09:00","2022","12","30","09:00","-30.1","","-33.1","","76","","0.0","","33","","5","","16.1","","101.88","","","","-36","","NA"
"-81.24","68.78","SANIRAJAK AIRPORT","2402354","2022-12-30 10:00","2022","12","30","10:00","-28.4","","-31.2","","78","","0.0","","31","","4","","16.1","","101.85","","","","-33","","Snow"
"-81.24","68.78","SANIRAJAK AIRPORT","2402354","2022-12-30 11:00","2022","12","30","11:00","-27.3","","-29.9","","79","","0.0","","32","","4","","16.1","","101.80","","","","-32","","NA"
"-81.24","68.78","SANIRAJAK AIRPORT","2402354","2022-12-30 12:00","2022","12","30","12:00","-25.7","","-28.2","","80","","0.0","","31","","4","","16.1","","101.74","","","","-30","","Snow"
"-81.24","68.78","SANIRAJAK AIRPORT","2402354","2022-12-30 13:00","2022","12","30","13:00","-25.1","","-27.6","","80","","0.0","","31","","9","","11.3","","101.70","","","","-33","","Snow"
"-81.24","68.78","SANIRAJAK AIRPORT","2402354","2022-12-30 14:00","2022","12","30","14:00","-26.5","","-29.1","","79","","0.0","","33","","11","","8.1","","101.65","","","","-35","","Snow"
"-81.24","68.78","SANIRAJAK AIRPORT","2402354","2022-12-30 15:00","2022","12","30","15:00","-26.2","","-28.7","","80","","0.0","","33","","9","","8.1","","101.60","","","","-34","","Snow"
"-81.24","68.78","SANIRAJAK AIRPORT","2402354","2022-12-30 16:00","2022","12","30","16:00","-25.3","","-27.8","","80","","0.0","","33","","8","","16.1","","101.57","","","","-32","","Snow"
"-81.24","68.78","SANIRAJAK AIRPORT","2402354","2022-12-30 17:00","2022","12","30","17:00","-25.1","","-27.5","","81","","0.0","","34","","8","","4.8","","101.52","","","","-32","","Snow"
"-81.24","68.78","SANIRAJAK AIRPORT","2402354","2022-12-30 18:00","2022","12","30","18:00","-26.7","","-29.3","","79","","0.0","","33","","13","","8.1","","101.51","","","","-37","","Snow"
"-81.24","68.78","SANIRAJAK AIRPORT","2402354","2022-12-30 19:00","2022","12","30","19:00","-26.2","","-28.7","","80","","0.0","","35","","11","","8.1","","101.45","","","","-35","","Snow"
"-81.24","68.78","SANIRAJAK AIRPORT","2402354","2022-12-30 20:00","2022","12","30","20:00","-24.6","","-26.9","","82","","0.0","","33","","5","","4.8","","101.38","","","","-29","","Snow"
"-81.24","68.78","SANIRAJAK AIRPORT","2402354","2022-12-30 21:00","2022","12","30","21:00","-23.9","","-26.2","","82","","0.0","","33","","9","","4.8","","101.34","","","","-31","","Snow"
"-81.24","68.78","SANIRAJAK AIRPORT","2402354","2022-12-30 22:00","2022","12","30","22:00","-24.0","","-26.3","","82","","0.0","","34","","9","","6.4","","101.31","","","","-31","","Snow"
"-81.24","68.78","SANIRAJAK AIRPORT","2402354","2022-12-30 23:00","2022","12","30","23:00","-23.4","","-25.5","","83","","0.0","","35","","9","","4.8","","101.28","","","","-31","","Snow"
"-81.24","68.78","SANIRAJAK AIRPORT","2402354","2022-12-31 00:00","2022","12","31","00:00","-23.3","","-25.4","","83","","0.0","","36","","4","","12.9","","101.22","","","","-27","","Snow"
"-81.24","68.78","SANIRAJAK AIRPORT","2402354","2022-12-31 01:00","2022","12","31","01:00","-23.1","","-25.2","","83","","0.0","","36","","8","","6.4","","101.19","","","","-30","","Snow"
"-81.24","68.78","SANIRAJAK AIRPORT","2402354","2022-12-31 02:00","2022","12","31","02:00","-24.5","","-26.7","","82","","0.0","","1","","8","","8.1","","101.18","","","","-32","","Snow"
"-81.24","68.78","SANIRAJAK AIRPORT","2402354","2022-12-31 03:00","2022","12","31","03:00","-24.4","","-26.8","","81","","0.0","","","","0","","6.4","","101.19","","","","","","Snow"
"-81.24","68.78","SANIRAJAK AIRPORT","2402354","2022-12-31 04:00","2022","12","31","04:00","-26.6","","-29.3","","79","","0.0","","1","","5","","11.3","","101.18","","","","-32","","Snow"
"-81.24","68.78","SANIRAJAK AIRPORT","2402354","2022-12-31 05:00","2022","12","31","05:00","-27.5","","-30.2","","79","","0.0","","5","","8","","16.1","","101.17","","","","-35","","Snow"
"-81.24","68.78","SANIRAJAK AIRPORT","2402354","2022-12-31 06:00","2022","12","31","06:00","-24.7","","-26.8","","83","","0.0","","11","","5","","16.1","","101.16","","","","-30","","Snow"
"-81.24","68.78","SANIRAJAK AIRPORT","2402354","2022-12-31 07:00","2022","12","31","07:00","-20.7","","-22.5","","86","","0.0","","11","","11","","16.1","","101.15","","","","-28","","Snow"
"-81.24","68.78","SANIRAJAK AIRPORT","2402354","2022-12-31 08:00","2022","12","31","08:00","-21.2","","-23.2","","84","","0.0","","9","","9","","12.9","","101.14","","","","-28","","Snow"
"-81.24","68.78","SANIRAJAK AIRPORT","2402354","2022-12-31 09:00","2022","12","31","09:00","-22.1","","-24.2","","83","","0.0","","9","","13","","6.4","","101.12","","","","-31","","Snow"
"-81.24","68.78","SANIRAJAK AIRPORT","2402354","2022-12-31 10:00","2022","12","31","10:00","-23.1","","-25.1","","84","","0.0","","8","","11","","16.1","","101.11","","","","-31","","NA"
"-81.24","68.78","SANIRAJAK AIRPORT","2402354","2022-12-31 11:00","2022","12","31","11:00","-30.8","","-33.5","","78","","0.0","","1","","8","","16.1","","101.12","","","","-39","","NA"
"-81.24","68.78","SANIRAJAK AIRPORT","2402354","2022-12-31 12:00","2022","12","31","12:00","-23.5","","-25.4","","85","","0.0","","7","","13","","9.7","","101.13","","","","-33","","Fog"
"-81.24","68.78","SANIRAJAK AIRPORT","2402354","2022-12-31 13:00","2022","12","31","13:00","-23.0","","-24.9","","85","","0.0","","7","","13","","16.1","","101.12","","","","-32","","NA"
"-81.24","68.78","SANIRAJAK AIRPORT","2402354","2022-12-31 14:00","2022","12","31","14:00","-25.0","","-27.3","","82","","0.0","","1","","8","","16.1","","101.14","","","","-32","","NA"
"-81.24","68.78","SANIRAJAK AIRPORT","2402354","2022-12-31 15:00","2022","12","31","15:00","-21.4","","-23.3","","85","","0.0","","7","","13","","14.5","","101.14","","","","-30","","NA"
"-81.24","68.78","SANIRAJAK AIRPORT","2402354","2022-12-31 16:00","2022","12","31","16:00","-24.4","","-26.7","","82","","0.0","","36","","11","","16.1","","101.17","","","","-33","","NA"
"-81.24","68.78","SANIRAJAK AIRPORT","2402354","2022-12-31 17:00","2022","12","31","17:00","-22.0","","-23.9","","85","","0.0","","4","","13","","16.1","","101.18","","","","-31","","NA"
"-81.24","68.78","SANIRAJAK AIRPORT","2402354","2022-12-31 18:00","2022","12","31","18:00","-23.2","","-25.3","","83","","0.0","","36","","15","","9.7","","101.21","","","","-33","","Snow"
"-81.24","68.78","SANIRAJAK AIRPORT","2402354","2022-12-31 19:00","2022","12","31","19:00","-23.5","","-25.6","","83","","0.0","","1","","11","","16.1","","101.20","","","","-32","","Snow"
"-81.24","68.78","SANIRAJAK AIRPORT","2402354","2022-12-31 20:00","2022","12","31","20:00","-23.5","","-25.6","","83","","0.0","","1","","13","","11.3","","101.19","","","","-33","","NA"
"-81.24","68.78","SANIRAJAK AIRPORT","2402354","2022-12-31 21:00","2022","12","31","21:00","-25.4","","-27.8","","81","","0.0","","35","","13","","12.9","","101.14","","","","-35","","NA"
"-81.24","68.78","SANIRAJAK AIRPORT","2402354","2022-12-31 22:00","2022","12","31","22:00","-25.3","","-27.7","","81","","0.0","","35","","17","","11.3","","101.13","","","","-36","","NA"
"-81.24","68.78","SANIRAJAK AIRPORT","2402354","2022-12-31 23:00","2022","12","31","23:00","-25.1","","-27.5","","81","","0.0","","35","","15","","4.8","","101.11","","","","-35","","Fog"
