"Longitude (x)","Latitude (y)","Station Name","Climate ID","Date/Time (LST)","Year","Month","Day","Time (LST)","Temp (°C)","Temp Flag","Dew Point Temp (°C)","Dew Point Temp Flag","Rel Hum (%)","Rel Hum Flag","Precip. Amount (mm)","Precip. Amount Flag","Wind Dir (10s deg)","Wind Dir Flag","Wind Spd (km/h)","Wind Spd Flag","Visibility (km)","Visibility Flag","Stn Press (kPa)","Stn Press Flag","Hmdx","Hmdx Flag","Wind Chill","Wind Chill Flag","Weather"
"-115.14","67.82","KUGLUKTUK A","2300905","2023-02-01 00:00","2023","02","01","00:00","-34.3","","-38.1","","69","","","M","24","","29","","","M","102.44","","","","-51","","NA"
"-115.14","67.82","KUGLUKTUK A","2300905","2023-02-01 01:00","2023","02","01","01:00","-32.5","","-36.3","","70","","","M","26","","32","","","M","102.45","","","","-49","","NA"
"-115.14","67.82","KUGLUKTUK A","2300905","2023-02-01 02:00","2023","02","01","02:00","-32.4","","-36.6","","67","","","M","25","","26","","","M","102.47","","","","-48","","NA"
"-115.14","67.82","KUGLUKTUK A","2300905","2023-02-01 03:00","2023","02","01","03:00","-34.2","","-38.3","","67","","","M","23","","23","","","M","102.47","","","","-49","","NA"
"-115.14","67.82","KUGLUKTUK A","2300905","2023-02-01 04:00","2023","02","01","04:00","-34.9","","-38.8","","68","","","M","22","","25","","","M","102.45","","","","-51","","NA"
"-115.14","67.82","KUGLUKTUK A","2300905","2023-02-01 05:00","2023","02","01","05:00","-33.4","","-37.5","","68","","","M","24","","28","","","M","102.43","","","","-50","","NA"
"-115.14","67.82","KUGLUKTUK A","2300905","2023-02-01 06:00","2023","02","01","06:00","-33.5","","-37.7","","67","","","M","23","","30","","","M","102.42","","","","-50","","NA"
"-115.14","67.82","KUGLUKTUK A","2300905","2023-02-01 07:00","2023","02","01","07:00","-32.8","","-36.8","","68","","","M","24","","33","","","M","102.43","","","","-50","","NA"
"-115.14","67.82","KUGLUKTUK A","2300905","2023-02-01 08:00","2023","02","01","08:00","-33.9","","-38.0","","67","","","M","23","","27","","","M","102.46","","","","-50","","NA"
"-115.14","67.82","KUGLUKTUK A","2300905","2023-02-01 09:00","2023","02","01","09:00","-34.5","","-38.7","","67","","","M","23","","25","","","M","102.48","","","","-50","","NA"
"-115.14","67.82","KUGLUKTUK A","2300905","2023-02-01 10:00","2023","02","01","10:00","-33.5","","-37.7","","67","","","M","24","","31","","","M","102.49","","","","-50","","NA"
"-115.14","67.82","KUGLUKTUK A","2300905","2023-02-01 11:00","2023","02","01","11:00","-33.9","","-38.1","","67","","","M","23","","30","","","M","102.51","","","","-51","","NA"
"-115.14","67.82","KUGLUKTUK A","2300905","2023-02-01 12:00","2023","02","01","12:00","-33.4","","-37.7","","66","","","M","23","","29","","","M","102.54","","","","-50","","NA"
"-115.14","67.82","KUGLUKTUK A","2300905","2023-02-01 13:00","2023","02","01","13:00","-33.8","","-38.0","","66","","","M","23","","26","","","M","102.57","","","","-50","","NA"
"-115.14","67.82","KUGLUKTUK A","2300905","2023-02-01 14:00","2023","02","01","14:00","-33.9","","-38.2","","66","","","M","23","","24","","","M","102.59","","","","-49","","NA"
"-115.14","67.82","KUGLUKTUK A","2300905","2023-02-01 15:00","2023","02","01","15:00","-33.9","","-38.2","","66","","","M","23","","31","","","M","102.62","","","","-51","","NA"
"-115.14","67.82","KUGLUKTUK A","2300905","2023-02-01 16:00","2023","02","01","16:00","-34.1","","-38.4","","66","","","M","22","","26","","","M","102.65","","","","-50","","NA"
"-115.14","67.82","KUGLUKTUK A","2300905","2023-02-01 17:00","2023","02","01","17:00","-34.6","","-38.8","","67","","","M","23","","27","","","M","102.66","","","","-51","","NA"
"-115.14","67.82","KUGLUKTUK A","2300905","2023-02-01 18:00","2023","02","01","18:00","-34.8","","-39.0","","66","","","M","22","","21","","","M","102.65","","","","-49","","NA"
"-115.14","67.82","KUGLUKTUK A","2300905","2023-02-01 19:00","2023","02","01","19:00","-35.2","","-39.4","","66","","","M","23","","22","","","M","102.63","","","","-50","","NA"
"-115.14","67.82","KUGLUKTUK A","2300905","2023-02-01 20:00","2023","02","01","20:00","-35.1","","-39.4","","66","","","M","22","","24","","","M","102.62","","","","-51","","NA"
"-115.14","67.82","KUGLUKTUK A","2300905","2023-02-01 21:00","2023","02","01","21:00","-35.6","","-39.8","","66","","","M","22","","23","","","M","102.57","","","","-51","","NA"
"-115.14","67.82","KUGLUKTUK A","2300905","2023-02-01 22:00","2023","02","01","22:00","-35.6","","-39.8","","66","","","M","23","","22","","","M","102.53","","","","-51","","NA"
"-115.14","67.82","KUGLUKTUK A","2300905","2023-02-01 23:00","2023","02","01","23:00","-36.2","","-40.2","","68","","","M","22","","23","","","M","102.52","","","","-52","","NA"
"-115.14","67.82","KUGLUKTUK A","2300905","2023-02-02 00:00","2023","02","02","00:00","-36.4","","-40.5","","67","","","M","23","","20","","","M","102.53","","","","-51","","NA"
"-115.14","67.82","KUGLUKTUK A","2300905","2023-02-02 01:00","2023","02","02","01:00","-36.7","","-40.8","","67","","","M","22","","23","","","M","102.50","","","","-52","","NA"
"-115.14","67.82","KUGLUKTUK A","2300905","2023-02-02 02:00","2023","02","02","02:00","-36.7","","-40.7","","67","","","M","22","","22","","","M","102.46","","","","-52","","NA"
"-115.14","67.82","KUGLUKTUK A","2300905","2023-02-02 03:00","2023","02","02","03:00","-36.2","","-40.2","","68","","","M","23","","19","","","M","102.42","","","","-51","","NA"
"-115.14","67.82","KUGLUKTUK A","2300905","2023-02-02 04:00","2023","02","02","04:00","-36.3","","-40.5","","66","","","M","23","","27","","","M","102.38","","","","-53","","NA"
"-115.14","67.82","KUGLUKTUK A","2300905","2023-02-02 05:00","2023","02","02","05:00","-34.3","","-38.6","","66","","","M","23","","28","","","M","102.32","","","","-51","","NA"
"-115.14","67.82","KUGLUKTUK A","2300905","2023-02-02 06:00","2023","02","02","06:00","-34.9","","-39.2","","66","","","M","23","","23","","","M","102.27","","","","-50","","NA"
"-115.14","67.82","KUGLUKTUK A","2300905","2023-02-02 07:00","2023","02","02","07:00","-34.2","","-38.5","","66","","","M","23","","23","","","M","102.24","","","","-49","","NA"
"-115.14","67.82","KUGLUKTUK A","2300905","2023-02-02 08:00","2023","02","02","08:00","-34.0","","-38.4","","66","","","M","22","","20","","","M","102.18","","","","-48","","NA"
"-115.14","67.82","KUGLUKTUK A","2300905","2023-02-02 09:00","2023","02","02","09:00","-34.4","","-38.8","","65","","","M","22","","16","","","M","102.12","","","","-47","","NA"
"-115.14","67.82","KUGLUKTUK A","2300905","2023-02-02 10:00","2023","02","02","10:00","-35.2","","-39.4","","66","","","M","22","","22","","","M","102.08","","","","-50","","NA"
"-115.14","67.82","KUGLUKTUK A","2300905","2023-02-02 11:00","2023","02","02","11:00","-33.4","","-37.7","","66","","","M","23","","12","","","M","102.05","","","","-44","","NA"
"-115.14","67.82","KUGLUKTUK A","2300905","2023-02-02 12:00","2023","02","02","12:00","-34.2","","-38.8","","64","","","M","23","","10","","","M","102.00","","","","-44","","NA"
"-115.14","67.82","KUGLUKTUK A","2300905","2023-02-02 13:00","2023","02","02","13:00","-36.5","","-40.7","","66","","","M","1","","3","","","M","101.96","","","","-40","","NA"
"-115.14","67.82","KUGLUKTUK A","2300905","2023-02-02 14:00","2023","02","02","14:00","-34.8","","-39.0","","66","","","M","25","","2","","","M","101.93","","","","-37","","NA"
"-115.14","67.82","KUGLUKTUK A","2300905","2023-02-02 15:00","2023","02","02","15:00","-35.4","","-39.1","","69","","","M","10","","3","","","M","101.90","","","","-39","","NA"
"-115.14","67.82","KUGLUKTUK A","2300905","2023-02-02 16:00","2023","02","02","16:00","-34.7","","-38.6","","69","","","M","13","","2","","","M","101.84","","","","-37","","NA"
"-115.14","67.82","KUGLUKTUK A","2300905","2023-02-02 17:00","2023","02","02","17:00","-35.5","","-39.2","","70","","","M","24","","9","","","M","101.80","","","","-45","","NA"
"-115.14","67.82","KUGLUKTUK A","2300905","2023-02-02 18:00","2023","02","02","18:00","-36.3","","-39.9","","70","","","M","23","","13","","","M","101.74","","","","-48","","NA"
"-115.14","67.82","KUGLUKTUK A","2300905","2023-02-02 19:00","2023","02","02","19:00","-37.7","","-41.5","","69","","","M","0","","1","","","M","101.69","","","","-39","","NA"
"-115.14","67.82","KUGLUKTUK A","2300905","2023-02-02 20:00","2023","02","02","20:00","-38.3","","-41.9","","70","","","M","22","","18","","","M","101.63","","","","-53","","NA"
"-115.14","67.82","KUGLUKTUK A","2300905","2023-02-02 21:00","2023","02","02","21:00","-38.3","","-41.9","","70","","","M","22","","11","","","M","101.59","","","","-50","","NA"
"-115.14","67.82","KUGLUKTUK A","2300905","2023-02-02 22:00","2023","02","02","22:00","-37.1","","-40.5","","71","","","M","25","","12","","","M","101.55","","","","-49","","NA"
"-115.14","67.82","KUGLUKTUK A","2300905","2023-02-02 23:00","2023","02","02","23:00","-37.8","","-41.3","","71","","","M","24","","16","","","M","101.50","","","","-51","","NA"
"-115.14","67.82","KUGLUKTUK A","2300905","2023-02-03 00:00","2023","02","03","00:00","-37.4","","-40.9","","71","","","M","23","","21","","","M","101.45","","","","-53","","NA"
"-115.14","67.82","KUGLUKTUK A","2300905","2023-02-03 01:00","2023","02","03","01:00","-38.2","","-41.8","","70","","","M","22","","11","","","M","101.44","","","","-50","","NA"
"-115.14","67.82","KUGLUKTUK A","2300905","2023-02-03 02:00","2023","02","03","02:00","-37.8","","-41.5","","70","","","M","25","","4","","","M","101.42","","","","-43","","NA"
"-115.14","67.82","KUGLUKTUK A","2300905","2023-02-03 03:00","2023","02","03","03:00","-38.4","","-42.1","","69","","","M","23","","13","","","M","101.39","","","","-51","","NA"
"-115.14","67.82","KUGLUKTUK A","2300905","2023-02-03 04:00","2023","02","03","04:00","-38.0","","-41.7","","69","","","M","23","","15","","","M","101.37","","","","-51","","NA"
"-115.14","67.82","KUGLUKTUK A","2300905","2023-02-03 05:00","2023","02","03","05:00","-39.7","","-43.5","","68","","","M","22","","14","","","M","101.33","","","","-53","","NA"
"-115.14","67.82","KUGLUKTUK A","2300905","2023-02-03 06:00","2023","02","03","06:00","-38.6","","-42.4","","68","","","M","28","","5","","","M","101.31","","","","-45","","NA"
"-115.14","67.82","KUGLUKTUK A","2300905","2023-02-03 07:00","2023","02","03","07:00","-38.2","","-42.1","","68","","","M","24","","7","","","M","101.30","","","","-47","","NA"
"-115.14","67.82","KUGLUKTUK A","2300905","2023-02-03 08:00","2023","02","03","08:00","-38.9","","-42.8","","68","","","M","23","","19","","","M","101.26","","","","-54","","NA"
"-115.14","67.82","KUGLUKTUK A","2300905","2023-02-03 09:00","2023","02","03","09:00","-38.6","","-42.4","","68","","","M","23","","21","","","M","101.23","","","","-54","","NA"
"-115.14","67.82","KUGLUKTUK A","2300905","2023-02-03 10:00","2023","02","03","10:00","-39.8","","-43.8","","67","","","M","23","","16","","","M","101.22","","","","-54","","NA"
"-115.14","67.82","KUGLUKTUK A","2300905","2023-02-03 11:00","2023","02","03","11:00","-39.6","","-43.5","","67","","","M","22","","20","","","M","101.22","","","","-55","","NA"
"-115.14","67.82","KUGLUKTUK A","2300905","2023-02-03 12:00","2023","02","03","12:00","-38.2","","-42.0","","68","","","M","36","","7","","","M","101.23","","","","-47","","NA"
"-115.14","67.82","KUGLUKTUK A","2300905","2023-02-03 13:00","2023","02","03","13:00","-38.6","","-42.5","","68","","","M","26","","6","","","M","101.24","","","","-46","","NA"
"-115.14","67.82","KUGLUKTUK A","2300905","2023-02-03 14:00","2023","02","03","14:00","-38.8","","-42.7","","68","","","M","23","","13","","","M","101.22","","","","-51","","NA"
"-115.14","67.82","KUGLUKTUK A","2300905","2023-02-03 15:00","2023","02","03","15:00","-37.9","","-41.7","","68","","","M","23","","19","","","M","101.20","","","","-53","","NA"
"-115.14","67.82","KUGLUKTUK A","2300905","2023-02-03 16:00","2023","02","03","16:00","-37.7","","-41.5","","68","","","M","23","","21","","","M","101.20","","","","-53","","NA"
"-115.14","67.82","KUGLUKTUK A","2300905","2023-02-03 17:00","2023","02","03","17:00","-38.5","","-42.3","","68","","","M","22","","18","","","M","101.19","","","","-53","","NA"
"-115.14","67.82","KUGLUKTUK A","2300905","2023-02-03 18:00","2023","02","03","18:00","-39.0","","-42.9","","68","","","M","23","","18","","","M","101.16","","","","-54","","NA"
"-115.14","67.82","KUGLUKTUK A","2300905","2023-02-03 19:00","2023","02","03","19:00","-39.5","","-43.4","","67","","","M","22","","19","","","M","101.14","","","","-55","","NA"
"-115.14","67.82","KUGLUKTUK A","2300905","2023-02-03 20:00","2023","02","03","20:00","-39.4","","-43.3","","67","","","M","23","","21","","","M","101.12","","","","-55","","NA"
"-115.14","67.82","KUGLUKTUK A","2300905","2023-02-03 21:00","2023","02","03","21:00","-39.0","","-43.0","","67","","","M","23","","22","","","M","101.11","","","","-55","","NA"
"-115.14","67.82","KUGLUKTUK A","2300905","2023-02-03 22:00","2023","02","03","22:00","-39.0","","-42.9","","67","","","M","22","","23","","","M","101.12","","","","-55","","NA"
"-115.14","67.82","KUGLUKTUK A","2300905","2023-02-03 23:00","2023","02","03","23:00","-39.0","","-42.9","","67","","","M","22","","25","","","M","101.10","","","","-56","","NA"
"-115.14","67.82","KUGLUKTUK A","2300905","2023-02-04 00:00","2023","02","04","00:00","-38.4","","-42.3","","68","","","M","23","","21","","","M","101.11","","","","-54","","NA"
"-115.14","67.82","KUGLUKTUK A","2300905","2023-02-04 01:00","2023","02","04","01:00","-38.5","","-42.4","","68","","","M","22","","23","","","M","101.11","","","","-55","","NA"
"-115.14","67.82","KUGLUKTUK A","2300905","2023-02-04 02:00","2023","02","04","02:00","-38.4","","-42.3","","68","","","M","22","","25","","","M","101.11","","","","-55","","NA"
"-115.14","67.82","KUGLUKTUK A","2300905","2023-02-04 03:00","2023","02","04","03:00","-38.5","","-42.4","","68","","","M","22","","26","","","M","101.13","","","","-56","","NA"
"-115.14","67.82","KUGLUKTUK A","2300905","2023-02-04 04:00","2023","02","04","04:00","-38.3","","-42.2","","68","","","M","22","","25","","","M","101.12","","","","-55","","NA"
"-115.14","67.82","KUGLUKTUK A","2300905","2023-02-04 05:00","2023","02","04","05:00","-38.4","","-42.3","","68","","","M","22","","6","","","M","101.14","","","","-46","","NA"
"-115.14","67.82","KUGLUKTUK A","2300905","2023-02-04 06:00","2023","02","04","06:00","-38.3","","-42.1","","68","","","M","22","","19","","","M","101.11","","","","-53","","NA"
"-115.14","67.82","KUGLUKTUK A","2300905","2023-02-04 07:00","2023","02","04","07:00","-38.1","","-42.0","","68","","","M","22","","22","","","M","101.12","","","","-54","","NA"
"-115.14","67.82","KUGLUKTUK A","2300905","2023-02-04 08:00","2023","02","04","08:00","-38.3","","-42.1","","68","","","M","21","","12","","","M","101.12","","","","-50","","NA"
"-115.14","67.82","KUGLUKTUK A","2300905","2023-02-04 09:00","2023","02","04","09:00","-37.6","","-41.4","","68","","","M","24","","7","","","M","101.12","","","","-46","","NA"
"-115.14","67.82","KUGLUKTUK A","2300905","2023-02-04 10:00","2023","02","04","10:00","-37.4","","-41.2","","69","","","M","21","","6","","","M","101.13","","","","-45","","NA"
"-115.14","67.82","KUGLUKTUK A","2300905","2023-02-04 11:00","2023","02","04","11:00","-37.8","","-41.6","","68","","","M","23","","25","","","M","101.12","","","","-54","","NA"
"-115.14","67.82","KUGLUKTUK A","2300905","2023-02-04 12:00","2023","02","04","12:00","-38.0","","-41.9","","68","","","M","22","","21","","","M","101.13","","","","-54","","NA"
"-115.14","67.82","KUGLUKTUK A","2300905","2023-02-04 13:00","2023","02","04","13:00","-36.0","","-39.8","","69","","","M","23","","26","","","M","101.15","","","","-52","","NA"
"-115.14","67.82","KUGLUKTUK A","2300905","2023-02-04 14:00","2023","02","04","14:00","-36.1","","-39.9","","69","","","M","22","","24","","","M","101.13","","","","-52","","NA"
"-115.14","67.82","KUGLUKTUK A","2300905","2023-02-04 15:00","2023","02","04","15:00","-35.9","","-39.6","","69","","","M","22","","20","","","M","101.13","","","","-51","","NA"
"-115.14","67.82","KUGLUKTUK A","2300905","2023-02-04 16:00","2023","02","04","16:00","-36.4","","-40.2","","69","","","M","23","","25","","","M","101.11","","","","-53","","NA"
"-115.14","67.82","KUGLUKTUK A","2300905","2023-02-04 17:00","2023","02","04","17:00","-36.9","","-40.7","","69","","","M","22","","25","","","M","101.10","","","","-53","","NA"
"-115.14","67.82","KUGLUKTUK A","2300905","2023-02-04 18:00","2023","02","04","18:00","-36.9","","-40.7","","69","","","M","22","","26","","","M","101.06","","","","-54","","NA"
"-115.14","67.82","KUGLUKTUK A","2300905","2023-02-04 19:00","2023","02","04","19:00","-37.1","","-40.9","","69","","","M","22","","23","","","M","101.03","","","","-53","","NA"
"-115.14","67.82","KUGLUKTUK A","2300905","2023-02-04 20:00","2023","02","04","20:00","-37.0","","-40.9","","69","","","M","22","","22","","","M","101.00","","","","-53","","NA"
"-115.14","67.82","KUGLUKTUK A","2300905","2023-02-04 21:00","2023","02","04","21:00","-36.9","","-40.7","","69","","","M","22","","20","","","M","100.98","","","","-52","","NA"
"-115.14","67.82","KUGLUKTUK A","2300905","2023-02-04 22:00","2023","02","04","22:00","-36.1","","-40.0","","69","","","M","30","","3","","","M","100.93","","","","-40","","NA"
"-115.14","67.82","KUGLUKTUK A","2300905","2023-02-04 23:00","2023","02","04","23:00","-36.8","","-40.7","","69","","","M","22","","19","","","M","100.90","","","","-51","","NA"
"-115.14","67.82","KUGLUKTUK A","2300905","2023-02-05 00:00","2023","02","05","00:00","-36.4","","-40.2","","69","","","M","22","","13","","","M","100.85","","","","-48","","NA"
"-115.14","67.82","KUGLUKTUK A","2300905","2023-02-05 01:00","2023","02","05","01:00","-36.7","","-40.5","","69","","","M","26","","6","","","M","100.81","","","","-44","","NA"
"-115.14","67.82","KUGLUKTUK A","2300905","2023-02-05 02:00","2023","02","05","02:00","-36.3","","-40.1","","69","","","M","22","","21","","","M","100.73","","","","-51","","NA"
"-115.14","67.82","KUGLUKTUK A","2300905","2023-02-05 03:00","2023","02","05","03:00","-36.4","","-40.1","","69","","","M","25","","15","","","M","100.68","","","","-49","","NA"
"-115.14","67.82","KUGLUKTUK A","2300905","2023-02-05 04:00","2023","02","05","04:00","-36.5","","-40.3","","69","","","M","26","","5","","","M","100.62","","","","-43","","NA"
"-115.14","67.82","KUGLUKTUK A","2300905","2023-02-05 05:00","2023","02","05","05:00","-35.7","","-39.4","","70","","","M","24","","16","","","M","100.59","","","","-49","","NA"
"-115.14","67.82","KUGLUKTUK A","2300905","2023-02-05 06:00","2023","02","05","06:00","-38.5","","-42.5","","67","","","M","30","","12","","","M","100.55","","","","-50","","NA"
"-115.14","67.82","KUGLUKTUK A","2300905","2023-02-05 07:00","2023","02","05","07:00","-36.9","","-40.7","","69","","","M","25","","10","","","M","100.49","","","","-47","","NA"
"-115.14","67.82","KUGLUKTUK A","2300905","2023-02-05 08:00","2023","02","05","08:00","-36.1","","-39.8","","69","","","M","16","","7","","","M","100.43","","","","-44","","NA"
"-115.14","67.82","KUGLUKTUK A","2300905","2023-02-05 09:00","2023","02","05","09:00","-34.9","","-38.6","","70","","","M","23","","24","","","M","100.39","","","","-50","","NA"
"-115.14","67.82","KUGLUKTUK A","2300905","2023-02-05 10:00","2023","02","05","10:00","-36.8","","-40.6","","69","","","M","22","","27","","","M","100.38","","","","-54","","NA"
"-115.14","67.82","KUGLUKTUK A","2300905","2023-02-05 11:00","2023","02","05","11:00","-36.8","","-40.6","","69","","","M","22","","25","","","M","100.35","","","","-53","","NA"
"-115.14","67.82","KUGLUKTUK A","2300905","2023-02-05 12:00","2023","02","05","12:00","-35.5","","-39.3","","69","","","M","26","","5","","","M","100.38","","","","-42","","NA"
"-115.14","67.82","KUGLUKTUK A","2300905","2023-02-05 13:00","2023","02","05","13:00","-35.6","","-39.4","","69","","","M","26","","2","","","M","100.35","","","","-38","","NA"
"-115.14","67.82","KUGLUKTUK A","2300905","2023-02-05 14:00","2023","02","05","14:00","-35.3","","-39.1","","69","","","M","23","","21","","","M","100.34","","","","-50","","NA"
"-115.14","67.82","KUGLUKTUK A","2300905","2023-02-05 15:00","2023","02","05","15:00","-35.6","","-39.4","","69","","","M","18","","9","","","M","100.34","","","","-45","","NA"
"-115.14","67.82","KUGLUKTUK A","2300905","2023-02-05 16:00","2023","02","05","16:00","-36.5","","-40.3","","69","","","M","23","","20","","","M","100.33","","","","-51","","NA"
"-115.14","67.82","KUGLUKTUK A","2300905","2023-02-05 17:00","2023","02","05","17:00","-36.7","","-40.5","","69","","","M","22","","18","","","M","100.32","","","","-51","","NA"
"-115.14","67.82","KUGLUKTUK A","2300905","2023-02-05 18:00","2023","02","05","18:00","-36.1","","-39.8","","69","","","M","23","","19","","","M","100.30","","","","-50","","NA"
"-115.14","67.82","KUGLUKTUK A","2300905","2023-02-05 19:00","2023","02","05","19:00","-35.1","","-38.8","","70","","","M","21","","8","","","M","100.32","","","","-44","","NA"
"-115.14","67.82","KUGLUKTUK A","2300905","2023-02-05 20:00","2023","02","05","20:00","-37.2","","-41.0","","69","","","M","22","","21","","","M","100.31","","","","-53","","NA"
"-115.14","67.82","KUGLUKTUK A","2300905","2023-02-05 21:00","2023","02","05","21:00","-36.6","","-40.4","","69","","","M","23","","17","","","M","100.29","","","","-50","","NA"
"-115.14","67.82","KUGLUKTUK A","2300905","2023-02-05 22:00","2023","02","05","22:00","-37.0","","-40.9","","68","","","M","23","","18","","","M","100.29","","","","-51","","NA"
"-115.14","67.82","KUGLUKTUK A","2300905","2023-02-05 23:00","2023","02","05","23:00","-37.2","","-41.1","","68","","","M","20","","15","","","M","100.28","","","","-50","","NA"
"-115.14","67.82","KUGLUKTUK A","2300905","2023-02-06 00:00","2023","02","06","00:00","-35.7","","-39.4","","69","","","M","23","","24","","","M","100.27","","","","-52","","NA"
"-115.14","67.82","KUGLUKTUK A","2300905","2023-02-06 01:00","2023","02","06","01:00","-36.6","","-40.5","","69","","","M","22","","22","","","M","100.30","","","","-52","","NA"
"-115.14","67.82","KUGLUKTUK A","2300905","2023-02-06 02:00","2023","02","06","02:00","-36.0","","-39.7","","69","","","M","25","","9","","","M","100.30","","","","-46","","NA"
"-115.14","67.82","KUGLUKTUK A","2300905","2023-02-06 03:00","2023","02","06","03:00","-37.0","","-40.9","","69","","","M","23","","21","","","M","100.28","","","","-52","","NA"
"-115.14","67.82","KUGLUKTUK A","2300905","2023-02-06 04:00","2023","02","06","04:00","-36.7","","-40.5","","69","","","M","22","","23","","","M","100.28","","","","-52","","NA"
"-115.14","67.82","KUGLUKTUK A","2300905","2023-02-06 05:00","2023","02","06","05:00","-36.0","","-39.7","","69","","","M","23","","27","","","M","100.26","","","","-53","","NA"
"-115.14","67.82","KUGLUKTUK A","2300905","2023-02-06 06:00","2023","02","06","06:00","-36.5","","-40.3","","69","","","M","22","","18","","","M","100.26","","","","-51","","NA"
"-115.14","67.82","KUGLUKTUK A","2300905","2023-02-06 07:00","2023","02","06","07:00","-35.6","","-39.3","","70","","","M","21","","13","","","M","100.24","","","","-47","","NA"
"-115.14","67.82","KUGLUKTUK A","2300905","2023-02-06 08:00","2023","02","06","08:00","-36.1","","-39.9","","69","","","M","22","","21","","","M","100.22","","","","-51","","NA"
"-115.14","67.82","KUGLUKTUK A","2300905","2023-02-06 09:00","2023","02","06","09:00","-36.4","","-40.2","","69","","","M","23","","23","","","M","100.23","","","","-52","","NA"
"-115.14","67.82","KUGLUKTUK A","2300905","2023-02-06 10:00","2023","02","06","10:00","-35.8","","-39.6","","69","","","M","23","","26","","","M","100.23","","","","-52","","NA"
"-115.14","67.82","KUGLUKTUK A","2300905","2023-02-06 11:00","2023","02","06","11:00","-35.5","","-39.2","","69","","","M","23","","22","","","M","100.25","","","","-51","","NA"
"-115.14","67.82","KUGLUKTUK A","2300905","2023-02-06 12:00","2023","02","06","12:00","-34.3","","-38.0","","70","","","M","24","","16","","","M","100.26","","","","-47","","NA"
"-115.14","67.82","KUGLUKTUK A","2300905","2023-02-06 13:00","2023","02","06","13:00","-34.9","","-38.7","","70","","","M","22","","18","","","M","100.26","","","","-49","","NA"
"-115.14","67.82","KUGLUKTUK A","2300905","2023-02-06 14:00","2023","02","06","14:00","-34.6","","-38.3","","70","","","M","24","","17","","","M","100.25","","","","-48","","NA"
"-115.14","67.82","KUGLUKTUK A","2300905","2023-02-06 15:00","2023","02","06","15:00","-33.4","","-37.0","","71","","","M","24","","25","","","M","100.23","","","","-49","","NA"
"-115.14","67.82","KUGLUKTUK A","2300905","2023-02-06 16:00","2023","02","06","16:00","-33.7","","-37.4","","71","","","M","25","","20","","","M","100.23","","","","-48","","NA"
"-115.14","67.82","KUGLUKTUK A","2300905","2023-02-06 17:00","2023","02","06","17:00","-34.2","","-37.9","","70","","","M","25","","17","","","M","100.25","","","","-47","","NA"
"-115.14","67.82","KUGLUKTUK A","2300905","2023-02-06 18:00","2023","02","06","18:00","-34.7","","-38.4","","70","","","M","23","","18","","","M","100.28","","","","-48","","NA"
"-115.14","67.82","KUGLUKTUK A","2300905","2023-02-06 19:00","2023","02","06","19:00","-34.2","","-37.9","","70","","","M","24","","21","","","M","100.28","","","","-49","","NA"
"-115.14","67.82","KUGLUKTUK A","2300905","2023-02-06 20:00","2023","02","06","20:00","-34.2","","-37.9","","71","","","M","25","","24","","","M","100.26","","","","-50","","NA"
"-115.14","67.82","KUGLUKTUK A","2300905","2023-02-06 21:00","2023","02","06","21:00","-33.9","","-37.5","","71","","","M","26","","5","","","M","100.29","","","","-40","","NA"
"-115.14","67.82","KUGLUKTUK A","2300905","2023-02-06 22:00","2023","02","06","22:00","-36.3","","-40.0","","69","","","M","22","","15","","","M","100.28","","","","-49","","NA"
"-115.14","67.82","KUGLUKTUK A","2300905","2023-02-06 23:00","2023","02","06","23:00","-35.5","","-39.2","","70","","","M","23","","16","","","M","100.28","","","","-49","","NA"
"-115.14","67.82","KUGLUKTUK A","2300905","2023-02-07 00:00","2023","02","07","00:00","-35.0","","-38.7","","70","","","M","24","","9","","","M","100.32","","","","-45","","NA"
"-115.14","67.82","KUGLUKTUK A","2300905","2023-02-07 01:00","2023","02","07","01:00","-37.5","","-41.3","","68","","","M","21","","4","","","M","100.31","","","","-43","","NA"
"-115.14","67.82","KUGLUKTUK A","2300905","2023-02-07 02:00","2023","02","07","02:00","-36.2","","-39.9","","69","","","M","24","","7","","","M","100.33","","","","-44","","NA"
"-115.14","67.82","KUGLUKTUK A","2300905","2023-02-07 03:00","2023","02","07","03:00","-36.1","","-39.9","","69","","","M","20","","3","","","M","100.35","","","","-40","","NA"
"-115.14","67.82","KUGLUKTUK A","2300905","2023-02-07 04:00","2023","02","07","04:00","-38.1","","-42.0","","68","","","M","36","","6","","","M","100.38","","","","-46","","NA"
"-115.14","67.82","KUGLUKTUK A","2300905","2023-02-07 05:00","2023","02","07","05:00","-37.4","","-41.1","","69","","","M","25","","5","","","M","100.41","","","","-44","","NA"
"-115.14","67.82","KUGLUKTUK A","2300905","2023-02-07 06:00","2023","02","07","06:00","-37.1","","-40.9","","69","","","M","20","","6","","","M","100.43","","","","-45","","NA"
"-115.14","67.82","KUGLUKTUK A","2300905","2023-02-07 07:00","2023","02","07","07:00","-38.1","","-42.0","","68","","","M","22","","21","","","M","100.45","","","","-54","","NA"
"-115.14","67.82","KUGLUKTUK A","2300905","2023-02-07 08:00","2023","02","07","08:00","-36.9","","-40.7","","69","","","M","23","","19","","","M","100.46","","","","-51","","NA"
"-115.14","67.82","KUGLUKTUK A","2300905","2023-02-07 09:00","2023","02","07","09:00","-37.5","","-41.4","","68","","","M","23","","18","","","M","100.51","","","","-52","","NA"
"-115.14","67.82","KUGLUKTUK A","2300905","2023-02-07 10:00","2023","02","07","10:00","-38.0","","-41.8","","68","","","M","13","","7","","","M","100.55","","","","-47","","NA"
"-115.14","67.82","KUGLUKTUK A","2300905","2023-02-07 11:00","2023","02","07","11:00","-35.4","","-39.1","","70","","","M","21","","4","","","M","100.56","","","","-40","","NA"
"-115.14","67.82","KUGLUKTUK A","2300905","2023-02-07 12:00","2023","02","07","12:00","-35.0","","-38.8","","70","","","M","23","","14","","","M","100.59","","","","-47","","NA"
"-115.14","67.82","KUGLUKTUK A","2300905","2023-02-07 13:00","2023","02","07","13:00","-34.8","","-38.5","","70","","","M","24","","12","","","M","100.65","","","","-46","","NA"
"-115.14","67.82","KUGLUKTUK A","2300905","2023-02-07 14:00","2023","02","07","14:00","-36.1","","-39.9","","69","","","M","23","","8","","","M","100.67","","","","-45","","NA"
"-115.14","67.82","KUGLUKTUK A","2300905","2023-02-07 15:00","2023","02","07","15:00","-36.5","","-40.3","","69","","","M","22","","13","","","M","100.71","","","","-49","","NA"
"-115.14","67.82","KUGLUKTUK A","2300905","2023-02-07 16:00","2023","02","07","16:00","-36.3","","-40.1","","69","","","M","22","","17","","","M","100.75","","","","-50","","NA"
"-115.14","67.82","KUGLUKTUK A","2300905","2023-02-07 17:00","2023","02","07","17:00","-36.3","","-40.0","","69","","","M","23","","17","","","M","100.77","","","","-50","","NA"
"-115.14","67.82","KUGLUKTUK A","2300905","2023-02-07 18:00","2023","02","07","18:00","-36.1","","-39.9","","69","","","M","22","","17","","","M","100.79","","","","-50","","NA"
"-115.14","67.82","KUGLUKTUK A","2300905","2023-02-07 19:00","2023","02","07","19:00","-37.0","","-40.9","","69","","","M","0","","1","","","M","100.83","","","","-38","","NA"
"-115.14","67.82","KUGLUKTUK A","2300905","2023-02-07 20:00","2023","02","07","20:00","-37.4","","-41.2","","68","","","M","21","","11","","","M","100.85","","","","-49","","NA"
"-115.14","67.82","KUGLUKTUK A","2300905","2023-02-07 21:00","2023","02","07","21:00","-36.2","","-40.0","","69","","","M","","","0","","","M","100.85","","","","","","NA"
"-115.14","67.82","KUGLUKTUK A","2300905","2023-02-07 22:00","2023","02","07","22:00","-36.8","","-40.6","","69","","","M","22","","8","","","M","100.88","","","","-46","","NA"
"-115.14","67.82","KUGLUKTUK A","2300905","2023-02-07 23:00","2023","02","07","23:00","-36.3","","-40.1","","69","","","M","19","","9","","","M","100.92","","","","-46","","NA"
"-115.14","67.82","KUGLUKTUK A","2300905","2023-02-08 00:00","2023","02","08","00:00","-35.6","","-39.3","","70","","","M","18","","8","","","M","100.95","","","","-45","","NA"
"-115.14","67.82","KUGLUKTUK A","2300905","2023-02-08 01:00","2023","02","08","01:00","-36.2","","-40.0","","69","","","M","22","","18","","","M","100.98","","","","-50","","NA"
"-115.14","67.82","KUGLUKTUK A","2300905","2023-02-08 02:00","2023","02","08","02:00","-36.2","","-40.0","","69","","","M","22","","20","","","M","101.00","","","","-51","","NA"
"-115.14","67.82","KUGLUKTUK A","2300905","2023-02-08 03:00","2023","02","08","03:00","-34.9","","-38.6","","70","","","M","29","","8","","","M","101.06","","","","-44","","NA"
"-115.14","67.82","KUGLUKTUK A","2300905","2023-02-08 04:00","2023","02","08","04:00","-36.5","","-40.2","","69","","","M","23","","15","","","M","101.07","","","","-49","","NA"
"-115.14","67.82","KUGLUKTUK A","2300905","2023-02-08 05:00","2023","02","08","05:00","-36.0","","-39.8","","69","","","M","22","","22","","","M","101.11","","","","-51","","NA"
"-115.14","67.82","KUGLUKTUK A","2300905","2023-02-08 06:00","2023","02","08","06:00","-35.4","","-39.1","","70","","","M","23","","9","","","M","101.13","","","","-45","","NA"
"-115.14","67.82","KUGLUKTUK A","2300905","2023-02-08 07:00","2023","02","08","07:00","-34.3","","-37.9","","70","","","M","29","","7","","","M","101.18","","","","-42","","NA"
"-115.14","67.82","KUGLUKTUK A","2300905","2023-02-08 08:00","2023","02","08","08:00","-33.1","","-36.6","","71","","","M","17","","8","","","M","101.15","","","","-42","","NA"
"-115.14","67.82","KUGLUKTUK A","2300905","2023-02-08 09:00","2023","02","08","09:00","-31.9","","-35.4","","72","","","M","21","","5","","","M","101.19","","","","-38","","NA"
"-115.14","67.82","KUGLUKTUK A","2300905","2023-02-08 10:00","2023","02","08","10:00","-32.2","","-35.7","","72","","","M","29","","4","","","M","101.23","","","","-37","","NA"
"-115.14","67.82","KUGLUKTUK A","2300905","2023-02-08 11:00","2023","02","08","11:00","-30.9","","-34.3","","73","","","M","29","","4","","","M","101.31","","","","-35","","NA"
"-115.14","67.82","KUGLUKTUK A","2300905","2023-02-08 12:00","2023","02","08","12:00","-30.4","","-33.8","","73","","","M","30","","1","","","M","101.35","","","","-32","","NA"
"-115.14","67.82","KUGLUKTUK A","2300905","2023-02-08 13:00","2023","02","08","13:00","-29.3","","-32.6","","74","","","M","33","","1","","","M","101.40","","","","-30","","NA"
"-115.14","67.82","KUGLUKTUK A","2300905","2023-02-08 14:00","2023","02","08","14:00","-29.2","","-32.5","","74","","","M","12","","3","","","M","101.41","","","","-33","","NA"
"-115.14","67.82","KUGLUKTUK A","2300905","2023-02-08 15:00","2023","02","08","15:00","-28.6","","-31.9","","74","","","M","3","","3","","","M","101.48","","","","-32","","NA"
"-115.14","67.82","KUGLUKTUK A","2300905","2023-02-08 16:00","2023","02","08","16:00","-28.4","","-31.6","","74","","","M","6","","6","","","M","101.54","","","","-35","","NA"
"-115.14","67.82","KUGLUKTUK A","2300905","2023-02-08 17:00","2023","02","08","17:00","-28.0","","-31.2","","75","","","M","6","","4","","","M","101.58","","","","-32","","NA"
"-115.14","67.82","KUGLUKTUK A","2300905","2023-02-08 18:00","2023","02","08","18:00","-27.9","","-31.1","","75","","","M","8","","6","","","M","101.63","","","","-34","","NA"
"-115.14","67.82","KUGLUKTUK A","2300905","2023-02-08 19:00","2023","02","08","19:00","-27.7","","-30.9","","75","","","M","35","","3","","","M","101.69","","","","-31","","NA"
"-115.14","67.82","KUGLUKTUK A","2300905","2023-02-08 20:00","2023","02","08","20:00","-28.0","","-31.2","","75","","","M","36","","4","","","M","101.71","","","","-32","","NA"
"-115.14","67.82","KUGLUKTUK A","2300905","2023-02-08 21:00","2023","02","08","21:00","-28.8","","-32.0","","74","","","M","26","","2","","","M","101.76","","","","-31","","NA"
"-115.14","67.82","KUGLUKTUK A","2300905","2023-02-08 22:00","2023","02","08","22:00","-30.1","","-33.4","","73","","","M","28","","10","","","M","101.79","","","","-39","","NA"
"-115.14","67.82","KUGLUKTUK A","2300905","2023-02-08 23:00","2023","02","08","23:00","-30.9","","-34.2","","73","","","M","27","","7","","","M","101.83","","","","-38","","NA"
"-115.14","67.82","KUGLUKTUK A","2300905","2023-02-09 00:00","2023","02","09","00:00","-30.6","","-34.0","","73","","","M","31","","4","","","M","101.85","","","","-35","","NA"
"-115.14","67.82","KUGLUKTUK A","2300905","2023-02-09 01:00","2023","02","09","01:00","-33.1","","-36.6","","71","","","M","22","","4","","","M","101.86","","","","-38","","NA"
"-115.14","67.82","KUGLUKTUK A","2300905","2023-02-09 02:00","2023","02","09","02:00","-30.7","","-34.0","","73","","","M","25","","3","","","M","101.89","","","","-34","","NA"
"-115.14","67.82","KUGLUKTUK A","2300905","2023-02-09 03:00","2023","02","09","03:00","-32.2","","-35.7","","72","","","M","24","","4","","","M","101.89","","","","-37","","NA"
"-115.14","67.82","KUGLUKTUK A","2300905","2023-02-09 04:00","2023","02","09","04:00","-32.2","","-35.6","","72","","","M","22","","4","","","M","101.91","","","","-37","","NA"
"-115.14","67.82","KUGLUKTUK A","2300905","2023-02-09 05:00","2023","02","09","05:00","-32.4","","-35.8","","72","","","M","21","","3","","","M","101.89","","","","-36","","NA"
"-115.14","67.82","KUGLUKTUK A","2300905","2023-02-09 06:00","2023","02","09","06:00","-30.6","","-33.9","","73","","","M","35","","4","","","M","101.89","","","","-35","","NA"
"-115.14","67.82","KUGLUKTUK A","2300905","2023-02-09 07:00","2023","02","09","07:00","-29.8","","-33.1","","74","","","M","1","","4","","","M","101.89","","","","-34","","NA"
"-115.14","67.82","KUGLUKTUK A","2300905","2023-02-09 08:00","2023","02","09","08:00","-28.9","","-32.1","","74","","","M","32","","1","","","M","101.86","","","","-30","","NA"
"-115.14","67.82","KUGLUKTUK A","2300905","2023-02-09 09:00","2023","02","09","09:00","-28.9","","-32.1","","74","","","M","23","","4","","","M","101.86","","","","-33","","NA"
"-115.14","67.82","KUGLUKTUK A","2300905","2023-02-09 10:00","2023","02","09","10:00","-28.8","","-32.0","","74","","","M","21","","3","","","M","101.87","","","","-32","","NA"
"-115.14","67.82","KUGLUKTUK A","2300905","2023-02-09 11:00","2023","02","09","11:00","-28.3","","-31.5","","75","","","M","22","","4","","","M","101.87","","","","-33","","NA"
"-115.14","67.82","KUGLUKTUK A","2300905","2023-02-09 12:00","2023","02","09","12:00","-28.0","","-31.2","","75","","","M","29","","4","","","M","101.91","","","","-32","","NA"
"-115.14","67.82","KUGLUKTUK A","2300905","2023-02-09 13:00","2023","02","09","13:00","-27.9","","-31.1","","75","","","M","27","","7","","","M","101.93","","","","-35","","NA"
"-115.14","67.82","KUGLUKTUK A","2300905","2023-02-09 14:00","2023","02","09","14:00","-27.6","","-30.7","","75","","","M","29","","5","","","M","101.95","","","","-33","","NA"
"-115.14","67.82","KUGLUKTUK A","2300905","2023-02-09 15:00","2023","02","09","15:00","-27.7","","-30.8","","75","","","M","27","","6","","","M","101.95","","","","-34","","NA"
"-115.14","67.82","KUGLUKTUK A","2300905","2023-02-09 16:00","2023","02","09","16:00","-28.6","","-31.8","","75","","","M","23","","9","","","M","101.97","","","","-37","","NA"
"-115.14","67.82","KUGLUKTUK A","2300905","2023-02-09 17:00","2023","02","09","17:00","-28.6","","-31.8","","75","","","M","23","","7","","","M","101.98","","","","-36","","NA"
"-115.14","67.82","KUGLUKTUK A","2300905","2023-02-09 18:00","2023","02","09","18:00","-29.2","","-32.5","","74","","","M","22","","4","","","M","101.99","","","","-34","","NA"
"-115.14","67.82","KUGLUKTUK A","2300905","2023-02-09 19:00","2023","02","09","19:00","-29.9","","-33.2","","74","","","M","24","","6","","","M","101.98","","","","-36","","NA"
"-115.14","67.82","KUGLUKTUK A","2300905","2023-02-09 20:00","2023","02","09","20:00","-30.4","","-33.7","","73","","","M","22","","11","","","M","102.00","","","","-40","","NA"
"-115.14","67.82","KUGLUKTUK A","2300905","2023-02-09 21:00","2023","02","09","21:00","-30.2","","-33.5","","74","","","M","25","","11","","","M","101.99","","","","-40","","NA"
"-115.14","67.82","KUGLUKTUK A","2300905","2023-02-09 22:00","2023","02","09","22:00","-30.5","","-33.9","","73","","","M","22","","14","","","M","101.97","","","","-42","","NA"
"-115.14","67.82","KUGLUKTUK A","2300905","2023-02-09 23:00","2023","02","09","23:00","-31.1","","-34.4","","73","","","M","23","","14","","","M","101.98","","","","-42","","NA"
"-115.14","67.82","KUGLUKTUK A","2300905","2023-02-10 00:00","2023","02","10","00:00","-32.8","","-36.3","","72","","","M","22","","9","","","M","101.99","","","","-42","","NA"
"-115.14","67.82","KUGLUKTUK A","2300905","2023-02-10 01:00","2023","02","10","01:00","-31.9","","-35.4","","72","","","M","22","","15","","","M","101.99","","","","-44","","NA"
"-115.14","67.82","KUGLUKTUK A","2300905","2023-02-10 02:00","2023","02","10","02:00","-31.1","","-34.5","","73","","","M","23","","6","","","M","102.00","","","","-38","","NA"
"-115.14","67.82","KUGLUKTUK A","2300905","2023-02-10 03:00","2023","02","10","03:00","-32.2","","-35.6","","72","","","M","22","","10","","","M","101.98","","","","-42","","NA"
"-115.14","67.82","KUGLUKTUK A","2300905","2023-02-10 04:00","2023","02","10","04:00","-32.5","","-35.9","","72","","","M","23","","11","","","M","101.98","","","","-43","","NA"
"-115.14","67.82","KUGLUKTUK A","2300905","2023-02-10 05:00","2023","02","10","05:00","-33.3","","-36.9","","71","","","M","22","","6","","","M","101.93","","","","-40","","NA"
"-115.14","67.82","KUGLUKTUK A","2300905","2023-02-10 06:00","2023","02","10","06:00","-33.5","","-37.1","","71","","","M","17","","4","","","M","101.90","","","","-38","","NA"
"-115.14","67.82","KUGLUKTUK A","2300905","2023-02-10 07:00","2023","02","10","07:00","-35.1","","-38.8","","70","","","M","22","","5","","","M","101.88","","","","-41","","NA"
"-115.14","67.82","KUGLUKTUK A","2300905","2023-02-10 08:00","2023","02","10","08:00","-36.7","","-40.5","","69","","","M","1","","6","","","M","101.84","","","","-44","","NA"
"-115.14","67.82","KUGLUKTUK A","2300905","2023-02-10 09:00","2023","02","10","09:00","-35.8","","-39.5","","70","","","M","35","","5","","","M","101.82","","","","-42","","NA"
"-115.14","67.82","KUGLUKTUK A","2300905","2023-02-10 10:00","2023","02","10","10:00","-36.2","","-40.0","","70","","","M","34","","5","","","M","101.80","","","","-43","","NA"
"-115.14","67.82","KUGLUKTUK A","2300905","2023-02-10 11:00","2023","02","10","11:00","-36.0","","-39.7","","70","","","M","18","","5","","","M","101.80","","","","-42","","NA"
"-115.14","67.82","KUGLUKTUK A","2300905","2023-02-10 12:00","2023","02","10","12:00","-35.3","","-38.9","","70","","","M","36","","3","","","M","101.76","","","","-39","","NA"
"-115.14","67.82","KUGLUKTUK A","2300905","2023-02-10 13:00","2023","02","10","13:00","-35.0","","-38.7","","70","","","M","32","","3","","","M","101.73","","","","-39","","NA"
"-115.14","67.82","KUGLUKTUK A","2300905","2023-02-10 14:00","2023","02","10","14:00","-34.4","","-38.0","","71","","","M","2","","7","","","M","101.68","","","","-42","","NA"
"-115.14","67.82","KUGLUKTUK A","2300905","2023-02-10 15:00","2023","02","10","15:00","-33.7","","-37.3","","71","","","M","5","","5","","","M","101.64","","","","-40","","NA"
"-115.14","67.82","KUGLUKTUK A","2300905","2023-02-10 16:00","2023","02","10","16:00","-34.1","","-37.7","","71","","","M","5","","6","","","M","101.57","","","","-41","","NA"
"-115.14","67.82","KUGLUKTUK A","2300905","2023-02-10 17:00","2023","02","10","17:00","-34.5","","-38.1","","71","","","M","2","","10","","","M","101.52","","","","-45","","NA"
"-115.14","67.82","KUGLUKTUK A","2300905","2023-02-10 18:00","2023","02","10","18:00","-34.3","","-37.9","","71","","","M","3","","10","","","M","101.43","","","","-44","","NA"
"-115.14","67.82","KUGLUKTUK A","2300905","2023-02-10 19:00","2023","02","10","19:00","-34.6","","-38.2","","71","","","M","3","","13","","","M","101.39","","","","-46","","NA"
"-115.14","67.82","KUGLUKTUK A","2300905","2023-02-10 20:00","2023","02","10","20:00","-35.2","","-38.9","","70","","","M","2","","6","","","M","101.31","","","","-42","","NA"
"-115.14","67.82","KUGLUKTUK A","2300905","2023-02-10 21:00","2023","02","10","21:00","-34.8","","-38.4","","70","","","M","3","","8","","","M","101.25","","","","-44","","NA"
"-115.14","67.82","KUGLUKTUK A","2300905","2023-02-10 22:00","2023","02","10","22:00","-34.6","","-38.3","","71","","","M","3","","4","","","M","101.18","","","","-40","","NA"
"-115.14","67.82","KUGLUKTUK A","2300905","2023-02-10 23:00","2023","02","10","23:00","-34.4","","-38.0","","71","","","M","3","","5","","","M","101.11","","","","-41","","NA"
"-115.14","67.82","KUGLUKTUK A","2300905","2023-02-11 00:00","2023","02","11","00:00","-33.7","","-37.2","","71","","","M","3","","9","","","M","101.01","","","","-43","","NA"
"-115.14","67.82","KUGLUKTUK A","2300905","2023-02-11 01:00","2023","02","11","01:00","-33.3","","-36.9","","71","","","M","3","","10","","","M","100.93","","","","-43","","NA"
"-115.14","67.82","KUGLUKTUK A","2300905","2023-02-11 02:00","2023","02","11","02:00","-32.8","","-36.4","","72","","","M","2","","6","","","M","100.84","","","","-40","","NA"
"-115.14","67.82","KUGLUKTUK A","2300905","2023-02-11 03:00","2023","02","11","03:00","-31.8","","-35.3","","72","","","M","2","","11","","","M","100.75","","","","-42","","NA"
"-115.14","67.82","KUGLUKTUK A","2300905","2023-02-11 04:00","2023","02","11","04:00","-30.7","","-34.1","","73","","","M","3","","16","","","M","100.62","","","","-43","","NA"
"-115.14","67.82","KUGLUKTUK A","2300905","2023-02-11 05:00","2023","02","11","05:00","-29.8","","-33.1","","74","","","M","3","","10","","","M","100.52","","","","-39","","NA"
"-115.14","67.82","KUGLUKTUK A","2300905","2023-02-11 06:00","2023","02","11","06:00","-30.2","","-33.5","","73","","","M","16","","3","","","M","100.44","","","","-34","","NA"
"-115.14","67.82","KUGLUKTUK A","2300905","2023-02-11 07:00","2023","02","11","07:00","-29.7","","-33.0","","74","","","M","11","","4","","","M","100.33","","","","-34","","NA"
"-115.14","67.82","KUGLUKTUK A","2300905","2023-02-11 08:00","2023","02","11","08:00","-27.9","","-31.1","","75","","","M","34","","3","","","M","100.27","","","","-31","","NA"
"-115.14","67.82","KUGLUKTUK A","2300905","2023-02-11 09:00","2023","02","11","09:00","-26.9","","-30.0","","76","","","M","2","","3","","","M","100.20","","","","-30","","NA"
"-115.14","67.82","KUGLUKTUK A","2300905","2023-02-11 10:00","2023","02","11","10:00","-26.4","","-29.4","","76","","","M","7","","4","","","M","100.16","","","","-31","","NA"
"-115.14","67.82","KUGLUKTUK A","2300905","2023-02-11 11:00","2023","02","11","11:00","-26.1","","-29.1","","76","","","M","3","","7","","","M","100.11","","","","-33","","NA"
"-115.14","67.82","KUGLUKTUK A","2300905","2023-02-11 12:00","2023","02","11","12:00","-26.4","","-29.4","","76","","","M","1","","16","","","M","100.11","","","","-37","","NA"
"-115.14","67.82","KUGLUKTUK A","2300905","2023-02-11 13:00","2023","02","11","13:00","-26.6","","-29.7","","76","","","M","34","","19","","","M","100.16","","","","-39","","NA"
"-115.14","67.82","KUGLUKTUK A","2300905","2023-02-11 14:00","2023","02","11","14:00","-28.7","","-31.9","","74","","","M","32","","12","","","M","100.15","","","","-39","","NA"
"-115.14","67.82","KUGLUKTUK A","2300905","2023-02-11 15:00","2023","02","11","15:00","-29.8","","-33.0","","74","","","M","26","","22","","","M","100.19","","","","-43","","NA"
"-115.14","67.82","KUGLUKTUK A","2300905","2023-02-11 16:00","2023","02","11","16:00","-29.0","","-32.2","","75","","","M","25","","13","","","M","100.18","","","","-39","","NA"
"-115.14","67.82","KUGLUKTUK A","2300905","2023-02-11 17:00","2023","02","11","17:00","-29.5","","-32.8","","74","","","M","24","","17","","","M","100.18","","","","-42","","NA"
"-115.14","67.82","KUGLUKTUK A","2300905","2023-02-11 18:00","2023","02","11","18:00","-28.2","","-31.3","","75","","","M","28","","14","","","M","100.20","","","","-39","","NA"
"-115.14","67.82","KUGLUKTUK A","2300905","2023-02-11 19:00","2023","02","11","19:00","-27.7","","-30.8","","75","","","M","28","","11","","","M","100.19","","","","-37","","NA"
"-115.14","67.82","KUGLUKTUK A","2300905","2023-02-11 20:00","2023","02","11","20:00","-27.5","","-30.6","","75","","","M","28","","10","","","M","100.21","","","","-36","","NA"
"-115.14","67.82","KUGLUKTUK A","2300905","2023-02-11 21:00","2023","02","11","21:00","-27.2","","-30.3","","76","","","M","32","","14","","","M","100.21","","","","-38","","NA"
"-115.14","67.82","KUGLUKTUK A","2300905","2023-02-11 22:00","2023","02","11","22:00","-27.0","","-30.1","","76","","","M","32","","16","","","M","100.22","","","","-38","","NA"
"-115.14","67.82","KUGLUKTUK A","2300905","2023-02-11 23:00","2023","02","11","23:00","-27.4","","-30.5","","75","","","M","34","","17","","","M","100.26","","","","-39","","NA"
"-115.14","67.82","KUGLUKTUK A","2300905","2023-02-12 00:00","2023","02","12","00:00","-27.2","","-30.3","","76","","","M","32","","11","","","M","100.27","","","","-36","","NA"
"-115.14","67.82","KUGLUKTUK A","2300905","2023-02-12 01:00","2023","02","12","01:00","-27.2","","-30.3","","76","","","M","30","","9","","","M","100.30","","","","-35","","NA"
"-115.14","67.82","KUGLUKTUK A","2300905","2023-02-12 02:00","2023","02","12","02:00","-27.9","","-31.1","","75","","","M","35","","18","","","M","100.31","","","","-40","","NA"
"-115.14","67.82","KUGLUKTUK A","2300905","2023-02-12 03:00","2023","02","12","03:00","-28.8","","-32.1","","74","","","M","35","","21","","","M","100.36","","","","-42","","NA"
"-115.14","67.82","KUGLUKTUK A","2300905","2023-02-12 04:00","2023","02","12","04:00","-30.4","","-33.8","","73","","","M","34","","10","","","M","100.41","","","","-40","","NA"
"-115.14","67.82","KUGLUKTUK A","2300905","2023-02-12 05:00","2023","02","12","05:00","-29.8","","-33.1","","74","","","M","35","","22","","","M","100.41","","","","-43","","NA"
"-115.14","67.82","KUGLUKTUK A","2300905","2023-02-12 06:00","2023","02","12","06:00","-31.3","","-34.6","","73","","","M","33","","6","","","M","100.48","","","","-38","","NA"
"-115.14","67.82","KUGLUKTUK A","2300905","2023-02-12 07:00","2023","02","12","07:00","-30.8","","-34.0","","74","","","M","29","","5","","","M","100.51","","","","-37","","NA"
"-115.14","67.82","KUGLUKTUK A","2300905","2023-02-12 08:00","2023","02","12","08:00","-31.2","","-34.5","","73","","","M","35","","7","","","M","100.52","","","","-39","","NA"
"-115.14","67.82","KUGLUKTUK A","2300905","2023-02-12 09:00","2023","02","12","09:00","-31.3","","-34.7","","73","","","M","26","","3","","","M","100.51","","","","-35","","NA"
"-115.14","67.82","KUGLUKTUK A","2300905","2023-02-12 10:00","2023","02","12","10:00","-32.5","","-36.0","","72","","","M","22","","13","","","M","100.52","","","","-44","","NA"
"-115.14","67.82","KUGLUKTUK A","2300905","2023-02-12 11:00","2023","02","12","11:00","-33.7","","-37.2","","72","","","M","23","","19","","","M","100.54","","","","-47","","NA"
"-115.14","67.82","KUGLUKTUK A","2300905","2023-02-12 12:00","2023","02","12","12:00","-33.5","","-37.0","","71","","","M","23","","24","","","M","100.57","","","","-49","","NA"
"-115.14","67.82","KUGLUKTUK A","2300905","2023-02-12 13:00","2023","02","12","13:00","-34.9","","-38.6","","70","","","M","22","","18","","","M","100.58","","","","-49","","NA"
"-115.14","67.82","KUGLUKTUK A","2300905","2023-02-12 14:00","2023","02","12","14:00","-34.8","","-38.4","","70","","","M","22","","21","","","M","100.58","","","","-49","","NA"
"-115.14","67.82","KUGLUKTUK A","2300905","2023-02-12 15:00","2023","02","12","15:00","-35.2","","-38.8","","70","","","M","22","","19","","","M","100.58","","","","-49","","NA"
"-115.14","67.82","KUGLUKTUK A","2300905","2023-02-12 16:00","2023","02","12","16:00","-36.0","","-39.7","","70","","","M","21","","19","","","M","100.57","","","","-50","","NA"
"-115.14","67.82","KUGLUKTUK A","2300905","2023-02-12 17:00","2023","02","12","17:00","-36.9","","-40.7","","69","","","M","22","","19","","","M","100.57","","","","-51","","NA"
"-115.14","67.82","KUGLUKTUK A","2300905","2023-02-12 18:00","2023","02","12","18:00","-35.7","","-39.3","","70","","","M","23","","27","","","M","100.55","","","","-52","","NA"
"-115.14","67.82","KUGLUKTUK A","2300905","2023-02-12 19:00","2023","02","12","19:00","-35.9","","-39.6","","70","","","M","23","","28","","","M","100.53","","","","-53","","NA"
"-115.14","67.82","KUGLUKTUK A","2300905","2023-02-12 20:00","2023","02","12","20:00","-35.5","","-39.2","","70","","","M","24","","27","","","M","100.54","","","","-52","","NA"
"-115.14","67.82","KUGLUKTUK A","2300905","2023-02-12 21:00","2023","02","12","21:00","-35.0","","-38.6","","70","","","M","24","","29","","","M","100.52","","","","-52","","NA"
"-115.14","67.82","KUGLUKTUK A","2300905","2023-02-12 22:00","2023","02","12","22:00","-35.8","","-39.5","","70","","","M","22","","25","","","M","100.53","","","","-52","","NA"
"-115.14","67.82","KUGLUKTUK A","2300905","2023-02-12 23:00","2023","02","12","23:00","-35.6","","-39.3","","70","","","M","23","","27","","","M","100.53","","","","-52","","NA"
"-115.14","67.82","KUGLUKTUK A","2300905","2023-02-13 00:00","2023","02","13","00:00","-36.0","","-39.7","","70","","","M","23","","21","","","M","100.53","","","","-51","","NA"
"-115.14","67.82","KUGLUKTUK A","2300905","2023-02-13 01:00","2023","02","13","01:00","-35.4","","-39.1","","70","","","M","23","","24","","","M","100.53","","","","-51","","NA"
"-115.14","67.82","KUGLUKTUK A","2300905","2023-02-13 02:00","2023","02","13","02:00","-34.9","","-38.5","","70","","","M","23","","25","","","M","100.56","","","","-51","","NA"
"-115.14","67.82","KUGLUKTUK A","2300905","2023-02-13 03:00","2023","02","13","03:00","-32.8","","-36.3","","72","","","M","24","","30","","","M","100.55","","","","-49","","NA"
"-115.14","67.82","KUGLUKTUK A","2300905","2023-02-13 04:00","2023","02","13","04:00","-34.5","","-38.1","","71","","","M","23","","28","","","M","100.57","","","","-51","","NA"
"-115.14","67.82","KUGLUKTUK A","2300905","2023-02-13 05:00","2023","02","13","05:00","-34.1","","-37.6","","71","","","M","23","","27","","","M","100.58","","","","-50","","NA"
"-115.14","67.82","KUGLUKTUK A","2300905","2023-02-13 06:00","2023","02","13","06:00","-33.9","","-37.5","","71","","","M","22","","28","","","M","100.59","","","","-50","","NA"
"-115.14","67.82","KUGLUKTUK A","2300905","2023-02-13 07:00","2023","02","13","07:00","-34.6","","-38.2","","71","","","M","23","","26","","","M","100.59","","","","-51","","NA"
"-115.14","67.82","KUGLUKTUK A","2300905","2023-02-13 08:00","2023","02","13","08:00","-32.2","","-35.7","","72","","","M","24","","31","","","M","100.62","","","","-49","","NA"
"-115.14","67.82","KUGLUKTUK A","2300905","2023-02-13 09:00","2023","02","13","09:00","-33.4","","-36.9","","71","","","M","23","","24","","","M","100.65","","","","-49","","NA"
"-115.14","67.82","KUGLUKTUK A","2300905","2023-02-13 10:00","2023","02","13","10:00","-32.4","","-35.8","","72","","","M","23","","26","","","M","100.65","","","","-48","","NA"
"-115.14","67.82","KUGLUKTUK A","2300905","2023-02-13 11:00","2023","02","13","11:00","-32.9","","-36.5","","71","","","M","23","","26","","","M","100.65","","","","-48","","NA"
"-115.14","67.82","KUGLUKTUK A","2300905","2023-02-13 12:00","2023","02","13","12:00","-32.0","","-35.5","","72","","","M","22","","22","","","M","100.66","","","","-46","","NA"
"-115.14","67.82","KUGLUKTUK A","2300905","2023-02-13 13:00","2023","02","13","13:00","-31.1","","-34.6","","72","","","M","23","","23","","","M","100.69","","","","-45","","NA"
"-115.14","67.82","KUGLUKTUK A","2300905","2023-02-13 14:00","2023","02","13","14:00","-30.4","","-33.9","","72","","","M","25","","26","","","M","100.74","","","","-45","","NA"
"-115.14","67.82","KUGLUKTUK A","2300905","2023-02-13 15:00","2023","02","13","15:00","-30.5","","-33.9","","73","","","M","24","","27","","","M","100.78","","","","-46","","NA"
"-115.14","67.82","KUGLUKTUK A","2300905","2023-02-13 16:00","2023","02","13","16:00","-28.6","","-32.0","","73","","","M","26","","27","","","M","100.85","","","","-43","","NA"
"-115.14","67.82","KUGLUKTUK A","2300905","2023-02-13 17:00","2023","02","13","17:00","-28.5","","-31.9","","73","","","M","26","","30","","","M","100.88","","","","-44","","NA"
"-115.14","67.82","KUGLUKTUK A","2300905","2023-02-13 18:00","2023","02","13","18:00","-29.3","","-32.6","","73","","","M","26","","32","","","M","100.91","","","","-45","","NA"
"-115.14","67.82","KUGLUKTUK A","2300905","2023-02-13 19:00","2023","02","13","19:00","-28.2","","-31.5","","74","","","M","25","","28","","","M","100.93","","","","-43","","NA"
"-115.14","67.82","KUGLUKTUK A","2300905","2023-02-13 20:00","2023","02","13","20:00","-28.0","","-31.7","","71","","","M","26","","26","","","M","100.97","","","","-42","","NA"
"-115.14","67.82","KUGLUKTUK A","2300905","2023-02-13 21:00","2023","02","13","21:00","-27.9","","-31.6","","71","","","M","28","","23","","","M","101.02","","","","-41","","NA"
"-115.14","67.82","KUGLUKTUK A","2300905","2023-02-13 22:00","2023","02","13","22:00","-28.1","","-31.4","","74","","","M","27","","27","","","M","101.06","","","","-42","","NA"
"-115.14","67.82","KUGLUKTUK A","2300905","2023-02-13 23:00","2023","02","13","23:00","-27.6","","-31.3","","72","","","M","28","","27","","","M","101.10","","","","-42","","NA"
"-115.14","67.82","KUGLUKTUK A","2300905","2023-02-14 00:00","2023","02","14","00:00","-27.2","","-30.9","","72","","","M","29","","27","","","M","101.19","","","","-41","","NA"
"-115.14","67.82","KUGLUKTUK A","2300905","2023-02-14 01:00","2023","02","14","01:00","-27.2","","-31.2","","69","","","M","31","","30","","","M","101.23","","","","-42","","NA"
"-115.14","67.82","KUGLUKTUK A","2300905","2023-02-14 02:00","2023","02","14","02:00","-27.9","","-32.0","","68","","","M","31","","27","","","M","101.32","","","","-42","","NA"
"-115.14","67.82","KUGLUKTUK A","2300905","2023-02-14 03:00","2023","02","14","03:00","-27.7","","-31.8","","69","","","M","33","","28","","","M","101.38","","","","-42","","NA"
"-115.14","67.82","KUGLUKTUK A","2300905","2023-02-14 04:00","2023","02","14","04:00","-28.7","","-33.1","","67","","","M","34","","17","","","M","101.47","","","","-41","","NA"
"-115.14","67.82","KUGLUKTUK A","2300905","2023-02-14 05:00","2023","02","14","05:00","-29.4","","-33.2","","70","","","M","33","","10","","","M","101.52","","","","-38","","NA"
"-115.14","67.82","KUGLUKTUK A","2300905","2023-02-14 06:00","2023","02","14","06:00","-30.2","","-33.5","","73","","","M","28","","10","","","M","101.57","","","","-39","","NA"
"-115.14","67.82","KUGLUKTUK A","2300905","2023-02-14 07:00","2023","02","14","07:00","-30.1","","-33.2","","75","","","M","26","","21","","","M","101.59","","","","-44","","NA"
"-115.14","67.82","KUGLUKTUK A","2300905","2023-02-14 08:00","2023","02","14","08:00","-29.4","","-32.7","","74","","","M","27","","28","","","M","101.60","","","","-44","","NA"
"-115.14","67.82","KUGLUKTUK A","2300905","2023-02-14 09:00","2023","02","14","09:00","-30.3","","-33.6","","73","","","M","27","","27","","","M","101.64","","","","-45","","NA"
"-115.14","67.82","KUGLUKTUK A","2300905","2023-02-14 10:00","2023","02","14","10:00","-30.3","","-33.7","","73","","","M","28","","21","","","M","101.72","","","","-44","","NA"
"-115.14","67.82","KUGLUKTUK A","2300905","2023-02-14 11:00","2023","02","14","11:00","-30.7","","-34.4","","71","","","M","31","","13","","","M","101.77","","","","-41","","NA"
"-115.14","67.82","KUGLUKTUK A","2300905","2023-02-14 12:00","2023","02","14","12:00","-29.8","","-33.5","","71","","","M","30","","10","","","M","101.82","","","","-39","","NA"
"-115.14","67.82","KUGLUKTUK A","2300905","2023-02-14 13:00","2023","02","14","13:00","-31.0","","-34.5","","72","","","M","21","","9","","","M","101.88","","","","-40","","NA"
"-115.14","67.82","KUGLUKTUK A","2300905","2023-02-14 14:00","2023","02","14","14:00","-30.6","","-34.5","","70","","","M","27","","14","","","M","101.94","","","","-42","","NA"
"-115.14","67.82","KUGLUKTUK A","2300905","2023-02-14 15:00","2023","02","14","15:00","-30.8","","-34.8","","69","","","M","27","","19","","","M","101.99","","","","-44","","NA"
"-115.14","67.82","KUGLUKTUK A","2300905","2023-02-14 16:00","2023","02","14","16:00","-31.2","","-35.2","","69","","","M","26","","26","","","M","102.05","","","","-46","","NA"
"-115.14","67.82","KUGLUKTUK A","2300905","2023-02-14 17:00","2023","02","14","17:00","-30.9","","-34.4","","72","","","M","26","","27","","","M","102.10","","","","-46","","NA"
"-115.14","67.82","KUGLUKTUK A","2300905","2023-02-14 18:00","2023","02","14","18:00","-31.2","","-34.7","","72","","","M","26","","26","","","M","102.10","","","","-46","","NA"
"-115.14","67.82","KUGLUKTUK A","2300905","2023-02-14 19:00","2023","02","14","19:00","-31.5","","-35.1","","71","","","M","26","","30","","","M","102.11","","","","-48","","NA"
"-115.14","67.82","KUGLUKTUK A","2300905","2023-02-14 20:00","2023","02","14","20:00","-31.5","","-35.1","","71","","","M","26","","28","","","M","102.13","","","","-47","","NA"
"-115.14","67.82","KUGLUKTUK A","2300905","2023-02-14 21:00","2023","02","14","21:00","-30.2","","-33.7","","72","","","M","26","","31","","","M","102.12","","","","-46","","NA"
"-115.14","67.82","KUGLUKTUK A","2300905","2023-02-14 22:00","2023","02","14","22:00","-30.1","","-33.6","","72","","","M","26","","30","","","M","102.13","","","","-46","","NA"
"-115.14","67.82","KUGLUKTUK A","2300905","2023-02-14 23:00","2023","02","14","23:00","-29.9","","-33.3","","73","","","M","26","","31","","","M","102.14","","","","-46","","NA"
"-115.14","67.82","KUGLUKTUK A","2300905","2023-02-15 00:00","2023","02","15","00:00","-29.4","","-32.9","","73","","","M","26","","27","","","M","102.14","","","","-44","","NA"
"-115.14","67.82","KUGLUKTUK A","2300905","2023-02-15 01:00","2023","02","15","01:00","-29.7","","-33.1","","73","","","M","26","","33","","","M","102.15","","","","-46","","NA"
"-115.14","67.82","KUGLUKTUK A","2300905","2023-02-15 02:00","2023","02","15","02:00","-30.2","","-33.8","","72","","","M","26","","31","","","M","102.17","","","","-46","","NA"
"-115.14","67.82","KUGLUKTUK A","2300905","2023-02-15 03:00","2023","02","15","03:00","-30.9","","-34.4","","72","","","M","27","","27","","","M","102.19","","","","-46","","NA"
"-115.14","67.82","KUGLUKTUK A","2300905","2023-02-15 04:00","2023","02","15","04:00","-30.7","","-34.2","","72","","","M","26","","27","","","M","102.21","","","","-46","","NA"
"-115.14","67.82","KUGLUKTUK A","2300905","2023-02-15 05:00","2023","02","15","05:00","-32.1","","-35.6","","72","","","M","25","","28","","","M","102.19","","","","-48","","NA"
"-115.14","67.82","KUGLUKTUK A","2300905","2023-02-15 06:00","2023","02","15","06:00","-30.8","","-34.2","","72","","","M","26","","28","","","M","102.20","","","","-46","","NA"
"-115.14","67.82","KUGLUKTUK A","2300905","2023-02-15 07:00","2023","02","15","07:00","-31.4","","-34.9","","72","","","M","25","","25","","","M","102.21","","","","-46","","NA"
"-115.14","67.82","KUGLUKTUK A","2300905","2023-02-15 08:00","2023","02","15","08:00","-33.7","","-37.2","","71","","","M","24","","26","","","M","102.21","","","","-49","","NA"
"-115.14","67.82","KUGLUKTUK A","2300905","2023-02-15 09:00","2023","02","15","09:00","-33.1","","-36.7","","71","","","M","24","","28","","","M","102.21","","","","-49","","NA"
"-115.14","67.82","KUGLUKTUK A","2300905","2023-02-15 10:00","2023","02","15","10:00","-31.7","","-35.2","","72","","","M","24","","26","","","M","102.21","","","","-47","","NA"
"-115.14","67.82","KUGLUKTUK A","2300905","2023-02-15 11:00","2023","02","15","11:00","-30.8","","-34.4","","71","","","M","26","","32","","","M","102.21","","","","-47","","NA"
"-115.14","67.82","KUGLUKTUK A","2300905","2023-02-15 12:00","2023","02","15","12:00","-31.5","","-35.3","","70","","","M","26","","31","","","M","102.21","","","","-48","","NA"
"-115.14","67.82","KUGLUKTUK A","2300905","2023-02-15 13:00","2023","02","15","13:00","-31.5","","-35.4","","70","","","M","26","","29","","","M","102.20","","","","-47","","NA"
"-115.14","67.82","KUGLUKTUK A","2300905","2023-02-15 14:00","2023","02","15","14:00","-31.4","","-35.2","","70","","","M","26","","27","","","M","102.21","","","","-47","","NA"
"-115.14","67.82","KUGLUKTUK A","2300905","2023-02-15 15:00","2023","02","15","15:00","-33.0","","-36.9","","69","","","M","23","","22","","","M","102.22","","","","-47","","NA"
"-115.14","67.82","KUGLUKTUK A","2300905","2023-02-15 16:00","2023","02","15","16:00","-33.5","","-37.4","","69","","","M","22","","20","","","M","102.23","","","","-48","","NA"
"-115.14","67.82","KUGLUKTUK A","2300905","2023-02-15 17:00","2023","02","15","17:00","-34.0","","-37.7","","70","","","M","24","","22","","","M","102.20","","","","-49","","NA"
"-115.14","67.82","KUGLUKTUK A","2300905","2023-02-15 18:00","2023","02","15","18:00","-34.5","","-38.3","","69","","","M","23","","22","","","M","102.16","","","","-49","","NA"
"-115.14","67.82","KUGLUKTUK A","2300905","2023-02-15 19:00","2023","02","15","19:00","-33.6","","-37.2","","71","","","M","24","","25","","","M","102.10","","","","-49","","NA"
"-115.14","67.82","KUGLUKTUK A","2300905","2023-02-15 20:00","2023","02","15","20:00","-33.9","","-37.5","","71","","","M","24","","26","","","M","102.05","","","","-50","","NA"
"-115.14","67.82","KUGLUKTUK A","2300905","2023-02-15 21:00","2023","02","15","21:00","-33.8","","-37.3","","71","","","M","25","","22","","","M","101.99","","","","-49","","NA"
"-115.14","67.82","KUGLUKTUK A","2300905","2023-02-15 22:00","2023","02","15","22:00","-32.9","","-36.5","","71","","","M","25","","22","","","M","101.96","","","","-47","","NA"
"-115.14","67.82","KUGLUKTUK A","2300905","2023-02-15 23:00","2023","02","15","23:00","-35.5","","-39.3","","69","","","M","22","","23","","","M","101.96","","","","-51","","NA"
"-115.14","67.82","KUGLUKTUK A","2300905","2023-02-16 00:00","2023","02","16","00:00","-34.5","","-38.1","","70","","","M","23","","26","","","M","101.91","","","","-51","","NA"
"-115.14","67.82","KUGLUKTUK A","2300905","2023-02-16 01:00","2023","02","16","01:00","-36.1","","-39.8","","69","","","M","23","","26","","","M","101.86","","","","-53","","NA"
"-115.14","67.82","KUGLUKTUK A","2300905","2023-02-16 02:00","2023","02","16","02:00","-34.4","","-38.0","","71","","","M","24","","28","","","M","101.82","","","","-51","","NA"
"-115.14","67.82","KUGLUKTUK A","2300905","2023-02-16 03:00","2023","02","16","03:00","-35.0","","-38.7","","70","","","M","23","","28","","","M","101.79","","","","-52","","NA"
"-115.14","67.82","KUGLUKTUK A","2300905","2023-02-16 04:00","2023","02","16","04:00","-34.2","","-37.9","","70","","","M","24","","31","","","M","101.76","","","","-51","","NA"
"-115.14","67.82","KUGLUKTUK A","2300905","2023-02-16 05:00","2023","02","16","05:00","-35.6","","-39.3","","70","","","M","22","","27","","","M","101.74","","","","-52","","NA"
"-115.14","67.82","KUGLUKTUK A","2300905","2023-02-16 06:00","2023","02","16","06:00","-34.6","","-38.2","","70","","","M","25","","35","","","M","101.69","","","","-53","","NA"
"-115.14","67.82","KUGLUKTUK A","2300905","2023-02-16 07:00","2023","02","16","07:00","-36.9","","-40.7","","69","","","M","23","","23","","","M","101.68","","","","-53","","NA"
"-115.14","67.82","KUGLUKTUK A","2300905","2023-02-16 08:00","2023","02","16","08:00","-35.5","","-39.2","","70","","","M","24","","23","","","M","101.65","","","","-51","","NA"
"-115.14","67.82","KUGLUKTUK A","2300905","2023-02-16 09:00","2023","02","16","09:00","-32.6","","-36.2","","71","","","M","26","","32","","","M","101.61","","","","-49","","NA"
"-115.14","67.82","KUGLUKTUK A","2300905","2023-02-16 10:00","2023","02","16","10:00","-32.1","","-35.8","","70","","","M","26","","31","","","M","101.57","","","","-49","","NA"
"-115.14","67.82","KUGLUKTUK A","2300905","2023-02-16 11:00","2023","02","16","11:00","-31.5","","-35.1","","71","","","M","25","","29","","","M","101.57","","","","-47","","NA"
"-115.14","67.82","KUGLUKTUK A","2300905","2023-02-16 12:00","2023","02","16","12:00","-32.1","","-35.8","","71","","","M","24","","26","","","M","101.57","","","","-47","","NA"
"-115.14","67.82","KUGLUKTUK A","2300905","2023-02-16 13:00","2023","02","16","13:00","-31.5","","-35.1","","71","","","M","25","","32","","","M","101.50","","","","-48","","NA"
"-115.14","67.82","KUGLUKTUK A","2300905","2023-02-16 14:00","2023","02","16","14:00","-30.7","","-34.3","","72","","","M","27","","30","","","M","101.54","","","","-47","","NA"
"-115.14","67.82","KUGLUKTUK A","2300905","2023-02-16 15:00","2023","02","16","15:00","-30.3","","-33.9","","72","","","M","28","","25","","","M","101.55","","","","-45","","NA"
"-115.14","67.82","KUGLUKTUK A","2300905","2023-02-16 16:00","2023","02","16","16:00","-29.9","","-33.4","","72","","","M","29","","22","","","M","101.62","","","","-44","","NA"
"-115.14","67.82","KUGLUKTUK A","2300905","2023-02-16 17:00","2023","02","16","17:00","-31.3","","-34.8","","72","","","M","27","","21","","","M","101.64","","","","-45","","NA"
"-115.14","67.82","KUGLUKTUK A","2300905","2023-02-16 18:00","2023","02","16","18:00","-32.5","","-36.0","","71","","","M","26","","23","","","M","101.67","","","","-47","","NA"
"-115.14","67.82","KUGLUKTUK A","2300905","2023-02-16 19:00","2023","02","16","19:00","-32.8","","-36.4","","71","","","M","26","","23","","","M","101.68","","","","-48","","NA"
"-115.14","67.82","KUGLUKTUK A","2300905","2023-02-16 20:00","2023","02","16","20:00","-33.1","","-36.7","","71","","","M","26","","25","","","M","101.68","","","","-48","","NA"
"-115.14","67.82","KUGLUKTUK A","2300905","2023-02-16 21:00","2023","02","16","21:00","-33.2","","-36.8","","71","","","M","26","","27","","","M","101.68","","","","-49","","NA"
"-115.14","67.82","KUGLUKTUK A","2300905","2023-02-16 22:00","2023","02","16","22:00","-33.6","","-37.3","","71","","","M","26","","24","","","M","101.69","","","","-49","","NA"
"-115.14","67.82","KUGLUKTUK A","2300905","2023-02-16 23:00","2023","02","16","23:00","-34.0","","-37.6","","70","","","M","26","","25","","","M","101.69","","","","-50","","NA"
"-115.14","67.82","KUGLUKTUK A","2300905","2023-02-17 00:00","2023","02","17","00:00","-34.1","","-37.8","","70","","","M","27","","27","","","M","101.69","","","","-50","","NA"
"-115.14","67.82","KUGLUKTUK A","2300905","2023-02-17 01:00","2023","02","17","01:00","-34.9","","-38.6","","70","","","M","26","","24","","","M","101.70","","","","-50","","NA"
"-115.14","67.82","KUGLUKTUK A","2300905","2023-02-17 02:00","2023","02","17","02:00","-34.5","","-38.2","","70","","","M","26","","25","","","M","101.71","","","","-50","","NA"
"-115.14","67.82","KUGLUKTUK A","2300905","2023-02-17 03:00","2023","02","17","03:00","-36.4","","-40.3","","68","","","M","24","","23","","","M","101.72","","","","-52","","NA"
"-115.14","67.82","KUGLUKTUK A","2300905","2023-02-17 04:00","2023","02","17","04:00","-34.8","","-38.5","","70","","","M","24","","26","","","M","101.68","","","","-51","","NA"
"-115.14","67.82","KUGLUKTUK A","2300905","2023-02-17 05:00","2023","02","17","05:00","-33.6","","-37.3","","70","","","M","26","","34","","","M","101.64","","","","-51","","NA"
"-115.14","67.82","KUGLUKTUK A","2300905","2023-02-17 06:00","2023","02","17","06:00","-32.5","","-36.2","","70","","","M","25","","30","","","M","101.62","","","","-49","","NA"
"-115.14","67.82","KUGLUKTUK A","2300905","2023-02-17 07:00","2023","02","17","07:00","-32.8","","-36.5","","70","","","M","25","","24","","","M","101.60","","","","-48","","NA"
"-115.14","67.82","KUGLUKTUK A","2300905","2023-02-17 08:00","2023","02","17","08:00","-32.0","","-35.7","","71","","","M","25","","28","","","M","101.55","","","","-48","","NA"
"-115.14","67.82","KUGLUKTUK A","2300905","2023-02-17 09:00","2023","02","17","09:00","-31.9","","-35.5","","71","","","M","26","","30","","","M","101.53","","","","-48","","NA"
"-115.14","67.82","KUGLUKTUK A","2300905","2023-02-17 10:00","2023","02","17","10:00","-32.7","","-36.5","","70","","","M","24","","22","","","M","101.53","","","","-47","","NA"
"-115.14","67.82","KUGLUKTUK A","2300905","2023-02-17 11:00","2023","02","17","11:00","-33.1","","-36.9","","70","","","M","24","","26","","","M","101.50","","","","-49","","NA"
"-115.14","67.82","KUGLUKTUK A","2300905","2023-02-17 12:00","2023","02","17","12:00","-32.9","","-36.8","","69","","","M","24","","23","","","M","101.50","","","","-48","","NA"
"-115.14","67.82","KUGLUKTUK A","2300905","2023-02-17 13:00","2023","02","17","13:00","-32.3","","-36.1","","70","","","M","26","","27","","","M","101.49","","","","-48","","NA"
"-115.14","67.82","KUGLUKTUK A","2300905","2023-02-17 14:00","2023","02","17","14:00","-32.8","","-36.7","","69","","","M","23","","23","","","M","101.49","","","","-48","","NA"
"-115.14","67.82","KUGLUKTUK A","2300905","2023-02-17 15:00","2023","02","17","15:00","-31.8","","-35.6","","70","","","M","24","","23","","","M","101.47","","","","-46","","NA"
"-115.14","67.82","KUGLUKTUK A","2300905","2023-02-17 16:00","2023","02","17","16:00","-31.3","","-35.1","","70","","","M","26","","32","","","M","101.47","","","","-48","","NA"
"-115.14","67.82","KUGLUKTUK A","2300905","2023-02-17 17:00","2023","02","17","17:00","-30.7","","-34.5","","70","","","M","26","","36","","","M","101.47","","","","-48","","NA"
"-115.14","67.82","KUGLUKTUK A","2300905","2023-02-17 18:00","2023","02","17","18:00","-31.9","","-35.6","","70","","","M","26","","30","","","M","101.46","","","","-48","","NA"
"-115.14","67.82","KUGLUKTUK A","2300905","2023-02-17 19:00","2023","02","17","19:00","-33.2","","-36.8","","71","","","M","26","","25","","","M","101.49","","","","-49","","NA"
"-115.14","67.82","KUGLUKTUK A","2300905","2023-02-17 20:00","2023","02","17","20:00","-32.9","","-36.3","","72","","","M","26","","22","","","M","101.48","","","","-47","","NA"
"-115.14","67.82","KUGLUKTUK A","2300905","2023-02-17 21:00","2023","02","17","21:00","-32.5","","-36.1","","71","","","M","27","","22","","","M","101.50","","","","-47","","NA"
"-115.14","67.82","KUGLUKTUK A","2300905","2023-02-17 22:00","2023","02","17","22:00","-33.7","","-37.3","","71","","","M","24","","18","","","M","101.49","","","","-47","","NA"
"-115.14","67.82","KUGLUKTUK A","2300905","2023-02-17 23:00","2023","02","17","23:00","-33.0","","-36.6","","70","","","M","26","","25","","","M","101.51","","","","-48","","NA"
"-115.14","67.82","KUGLUKTUK A","2300905","2023-02-18 00:00","2023","02","18","00:00","-32.9","","-36.6","","71","","","M","26","","26","","","M","101.55","","","","-48","","NA"
"-115.14","67.82","KUGLUKTUK A","2300905","2023-02-18 01:00","2023","02","18","01:00","-36.3","","-40.1","","69","","","M","23","","18","","","M","101.56","","","","-50","","NA"
"-115.14","67.82","KUGLUKTUK A","2300905","2023-02-18 02:00","2023","02","18","02:00","-34.0","","-37.7","","70","","","M","27","","27","","","M","101.58","","","","-50","","NA"
"-115.14","67.82","KUGLUKTUK A","2300905","2023-02-18 03:00","2023","02","18","03:00","-34.3","","-37.9","","70","","","M","26","","23","","","M","101.62","","","","-49","","NA"
"-115.14","67.82","KUGLUKTUK A","2300905","2023-02-18 04:00","2023","02","18","04:00","-35.1","","-38.7","","71","","","M","25","","21","","","M","101.60","","","","-50","","NA"
"-115.14","67.82","KUGLUKTUK A","2300905","2023-02-18 05:00","2023","02","18","05:00","-34.7","","-38.3","","71","","","M","26","","24","","","M","101.62","","","","-50","","NA"
"-115.14","67.82","KUGLUKTUK A","2300905","2023-02-18 06:00","2023","02","18","06:00","-35.7","","-39.4","","70","","","M","25","","22","","","M","101.60","","","","-51","","NA"
"-115.14","67.82","KUGLUKTUK A","2300905","2023-02-18 07:00","2023","02","18","07:00","-37.0","","-40.8","","69","","","M","22","","19","","","M","101.61","","","","-52","","NA"
"-115.14","67.82","KUGLUKTUK A","2300905","2023-02-18 08:00","2023","02","18","08:00","-36.6","","-40.4","","69","","","M","23","","18","","","M","101.62","","","","-51","","NA"
"-115.14","67.82","KUGLUKTUK A","2300905","2023-02-18 09:00","2023","02","18","09:00","-37.0","","-40.7","","69","","","M","23","","19","","","M","101.61","","","","-52","","NA"
"-115.14","67.82","KUGLUKTUK A","2300905","2023-02-18 10:00","2023","02","18","10:00","-35.0","","-38.7","","70","","","M","24","","26","","","M","101.59","","","","-51","","NA"
"-115.14","67.82","KUGLUKTUK A","2300905","2023-02-18 11:00","2023","02","18","11:00","-34.2","","-37.8","","71","","","M","24","","23","","","M","101.55","","","","-49","","NA"
"-115.14","67.82","KUGLUKTUK A","2300905","2023-02-18 12:00","2023","02","18","12:00","-34.2","","-38.0","","69","","","M","24","","23","","","M","101.54","","","","-49","","NA"
"-115.14","67.82","KUGLUKTUK A","2300905","2023-02-18 13:00","2023","02","18","13:00","-33.5","","-37.2","","70","","","M","24","","22","","","M","101.50","","","","-48","","NA"
"-115.14","67.82","KUGLUKTUK A","2300905","2023-02-18 14:00","2023","02","18","14:00","-32.7","","-36.4","","70","","","M","24","","22","","","M","101.47","","","","-47","","NA"
"-115.14","67.82","KUGLUKTUK A","2300905","2023-02-18 15:00","2023","02","18","15:00","-32.3","","-35.9","","71","","","M","23","","23","","","M","101.47","","","","-47","","NA"
"-115.14","67.82","KUGLUKTUK A","2300905","2023-02-18 16:00","2023","02","18","16:00","-33.7","","-37.3","","71","","","M","23","","27","","","M","101.44","","","","-50","","NA"
"-115.14","67.82","KUGLUKTUK A","2300905","2023-02-18 17:00","2023","02","18","17:00","-34.5","","-38.1","","71","","","M","24","","26","","","M","101.42","","","","-51","","NA"
"-115.14","67.82","KUGLUKTUK A","2300905","2023-02-18 18:00","2023","02","18","18:00","-34.9","","-38.6","","70","","","M","23","","26","","","M","101.37","","","","-51","","NA"
"-115.14","67.82","KUGLUKTUK A","2300905","2023-02-18 19:00","2023","02","18","19:00","-34.6","","-38.1","","71","","","M","24","","23","","","M","101.31","","","","-50","","NA"
"-115.14","67.82","KUGLUKTUK A","2300905","2023-02-18 20:00","2023","02","18","20:00","-34.0","","-37.8","","69","","","M","25","","30","","","M","101.26","","","","-51","","NA"
"-115.14","67.82","KUGLUKTUK A","2300905","2023-02-18 21:00","2023","02","18","21:00","-34.5","","-38.6","","67","","","M","24","","30","","","M","101.25","","","","-51","","NA"
"-115.14","67.82","KUGLUKTUK A","2300905","2023-02-18 22:00","2023","02","18","22:00","-34.7","","-38.6","","69","","","M","23","","26","","","M","101.24","","","","-51","","NA"
"-115.14","67.82","KUGLUKTUK A","2300905","2023-02-18 23:00","2023","02","18","23:00","-35.5","","-39.2","","69","","","M","24","","31","","","M","101.21","","","","-53","","NA"
"-115.14","67.82","KUGLUKTUK A","2300905","2023-02-19 00:00","2023","02","19","00:00","-36.2","","-40.0","","68","","","M","23","","25","","","M","101.18","","","","-52","","NA"
"-115.14","67.82","KUGLUKTUK A","2300905","2023-02-19 01:00","2023","02","19","01:00","-35.9","","-39.8","","69","","","M","22","","24","","","M","101.16","","","","-52","","NA"
"-115.14","67.82","KUGLUKTUK A","2300905","2023-02-19 02:00","2023","02","19","02:00","-35.0","","-39.0","","68","","","M","24","","32","","","M","101.15","","","","-53","","NA"
"-115.14","67.82","KUGLUKTUK A","2300905","2023-02-19 03:00","2023","02","19","03:00","-34.5","","-38.5","","68","","","M","24","","31","","","M","101.13","","","","-52","","NA"
"-115.14","67.82","KUGLUKTUK A","2300905","2023-02-19 04:00","2023","02","19","04:00","-34.4","","-38.2","","69","","","M","25","","27","","","M","101.13","","","","-51","","NA"
"-115.14","67.82","KUGLUKTUK A","2300905","2023-02-19 05:00","2023","02","19","05:00","-32.3","","-36.0","","71","","","M","26","","34","","","M","101.09","","","","-49","","NA"
"-115.14","67.82","KUGLUKTUK A","2300905","2023-02-19 06:00","2023","02","19","06:00","-31.2","","-34.8","","71","","","M","25","","33","","","M","101.10","","","","-48","","NA"
"-115.14","67.82","KUGLUKTUK A","2300905","2023-02-19 07:00","2023","02","19","07:00","-31.4","","-35.2","","70","","","M","25","","37","","","M","101.04","","","","-49","","NA"
"-115.14","67.82","KUGLUKTUK A","2300905","2023-02-19 08:00","2023","02","19","08:00","-32.4","","-36.5","","68","","","M","24","","38","","","M","101.02","","","","-50","","NA"
"-115.14","67.82","KUGLUKTUK A","2300905","2023-02-19 09:00","2023","02","19","09:00","-33.2","","-37.2","","69","","","M","24","","33","","","M","101.02","","","","-50","","NA"
"-115.14","67.82","KUGLUKTUK A","2300905","2023-02-19 10:00","2023","02","19","10:00","-32.8","","-36.5","","70","","","M","24","","31","","","M","101.03","","","","-49","","NA"
"-115.14","67.82","KUGLUKTUK A","2300905","2023-02-19 11:00","2023","02","19","11:00","-31.8","","-35.6","","70","","","M","25","","30","","","M","101.06","","","","-48","","NA"
"-115.14","67.82","KUGLUKTUK A","2300905","2023-02-19 12:00","2023","02","19","12:00","-30.2","","-33.9","","71","","","M","26","","22","","","M","101.08","","","","-44","","NA"
"-115.14","67.82","KUGLUKTUK A","2300905","2023-02-19 13:00","2023","02","19","13:00","-30.0","","-33.8","","71","","","M","26","","26","","","M","101.09","","","","-45","","NA"
"-115.14","67.82","KUGLUKTUK A","2300905","2023-02-19 14:00","2023","02","19","14:00","-30.2","","-34.2","","69","","","M","26","","25","","","M","101.13","","","","-45","","NA"
"-115.14","67.82","KUGLUKTUK A","2300905","2023-02-19 15:00","2023","02","19","15:00","-30.1","","-34.0","","69","","","M","27","","24","","","M","101.13","","","","-44","","NA"
"-115.14","67.82","KUGLUKTUK A","2300905","2023-02-19 16:00","2023","02","19","16:00","-30.2","","-33.8","","71","","","M","27","","25","","","M","101.20","","","","-45","","NA"
"-115.14","67.82","KUGLUKTUK A","2300905","2023-02-19 17:00","2023","02","19","17:00","-30.1","","-33.9","","71","","","M","28","","14","","","M","101.28","","","","-41","","NA"
"-115.14","67.82","KUGLUKTUK A","2300905","2023-02-19 18:00","2023","02","19","18:00","-30.2","","-33.8","","71","","","M","28","","16","","","M","101.31","","","","-42","","NA"
"-115.14","67.82","KUGLUKTUK A","2300905","2023-02-19 19:00","2023","02","19","19:00","-30.0","","-33.5","","73","","","M","29","","9","","","M","101.40","","","","-39","","NA"
"-115.14","67.82","KUGLUKTUK A","2300905","2023-02-19 20:00","2023","02","19","20:00","-29.6","","-33.1","","73","","","M","31","","25","","","M","101.46","","","","-44","","NA"
"-115.14","67.82","KUGLUKTUK A","2300905","2023-02-19 21:00","2023","02","19","21:00","-29.9","","-33.3","","73","","","M","30","","20","","","M","101.54","","","","-43","","NA"
"-115.14","67.82","KUGLUKTUK A","2300905","2023-02-19 22:00","2023","02","19","22:00","-29.8","","-33.3","","72","","","M","28","","19","","","M","101.58","","","","-43","","NA"
"-115.14","67.82","KUGLUKTUK A","2300905","2023-02-19 23:00","2023","02","19","23:00","-29.6","","-33.1","","72","","","M","27","","21","","","M","101.60","","","","-43","","NA"
"-115.14","67.82","KUGLUKTUK A","2300905","2023-02-20 00:00","2023","02","20","00:00","-29.3","","-32.8","","72","","","M","28","","22","","","M","101.62","","","","-43","","NA"
"-115.14","67.82","KUGLUKTUK A","2300905","2023-02-20 01:00","2023","02","20","01:00","-29.6","","-33.1","","73","","","M","27","","8","","","M","101.69","","","","-38","","NA"
"-115.14","67.82","KUGLUKTUK A","2300905","2023-02-20 02:00","2023","02","20","02:00","-29.0","","-32.4","","73","","","M","25","","9","","","M","101.77","","","","-37","","NA"
"-115.14","67.82","KUGLUKTUK A","2300905","2023-02-20 03:00","2023","02","20","03:00","-29.4","","-32.9","","72","","","M","24","","11","","","M","101.79","","","","-39","","NA"
"-115.14","67.82","KUGLUKTUK A","2300905","2023-02-20 04:00","2023","02","20","04:00","-29.9","","-33.3","","73","","","M","33","","16","","","M","101.85","","","","-42","","NA"
"-115.14","67.82","KUGLUKTUK A","2300905","2023-02-20 05:00","2023","02","20","05:00","-29.7","","-32.9","","74","","","M","32","","25","","","M","101.87","","","","-44","","NA"
"-115.14","67.82","KUGLUKTUK A","2300905","2023-02-20 06:00","2023","02","20","06:00","-29.3","","-32.5","","74","","","M","33","","30","","","M","101.93","","","","-45","","NA"
"-115.14","67.82","KUGLUKTUK A","2300905","2023-02-20 07:00","2023","02","20","07:00","-29.2","","-32.5","","74","","","M","32","","27","","","M","102.00","","","","-44","","NA"
"-115.14","67.82","KUGLUKTUK A","2300905","2023-02-20 08:00","2023","02","20","08:00","-29.1","","-32.3","","74","","","M","33","","28","","","M","102.01","","","","-44","","NA"
"-115.14","67.82","KUGLUKTUK A","2300905","2023-02-20 09:00","2023","02","20","09:00","-27.9","","-31.0","","75","","","M","28","","18","","","M","102.06","","","","-40","","NA"
"-115.14","67.82","KUGLUKTUK A","2300905","2023-02-20 10:00","2023","02","20","10:00","-27.2","","-30.3","","76","","","M","33","","23","","","M","102.11","","","","-40","","NA"
"-115.14","67.82","KUGLUKTUK A","2300905","2023-02-20 11:00","2023","02","20","11:00","-26.1","","-29.5","","74","","","M","33","","22","","","M","102.18","","","","-39","","NA"
"-115.14","67.82","KUGLUKTUK A","2300905","2023-02-20 12:00","2023","02","20","12:00","-25.3","","-29.0","","72","","","M","34","","17","","","M","102.22","","","","-36","","NA"
"-115.14","67.82","KUGLUKTUK A","2300905","2023-02-20 13:00","2023","02","20","13:00","-23.0","","-27.5","","68","","","M","29","","10","","","M","102.31","","","","-31","","NA"
"-115.14","67.82","KUGLUKTUK A","2300905","2023-02-20 14:00","2023","02","20","14:00","-22.8","","-27.7","","65","","","M","26","","16","","","M","102.38","","","","-33","","NA"
"-115.14","67.82","KUGLUKTUK A","2300905","2023-02-20 15:00","2023","02","20","15:00","-23.8","","-28.8","","64","","","M","25","","18","","","M","102.40","","","","-35","","NA"
"-115.14","67.82","KUGLUKTUK A","2300905","2023-02-20 16:00","2023","02","20","16:00","-25.4","","-29.8","","68","","","M","26","","33","","","M","102.43","","","","-40","","NA"
"-115.14","67.82","KUGLUKTUK A","2300905","2023-02-20 17:00","2023","02","20","17:00","-25.6","","-30.2","","66","","","M","26","","33","","","M","102.47","","","","-40","","NA"
"-115.14","67.82","KUGLUKTUK A","2300905","2023-02-20 18:00","2023","02","20","18:00","-28.7","","-32.9","","68","","","M","21","","18","","","M","102.50","","","","-41","","NA"
"-115.14","67.82","KUGLUKTUK A","2300905","2023-02-20 19:00","2023","02","20","19:00","-28.4","","-32.5","","69","","","M","22","","22","","","M","102.51","","","","-42","","NA"
"-115.14","67.82","KUGLUKTUK A","2300905","2023-02-20 20:00","2023","02","20","20:00","-27.9","","-32.1","","68","","","M","23","","26","","","M","102.54","","","","-42","","NA"
"-115.14","67.82","KUGLUKTUK A","2300905","2023-02-20 21:00","2023","02","20","21:00","-29.3","","-33.2","","70","","","M","23","","19","","","M","102.56","","","","-42","","NA"
"-115.14","67.82","KUGLUKTUK A","2300905","2023-02-20 22:00","2023","02","20","22:00","-29.3","","-33.2","","70","","","M","22","","22","","","M","102.57","","","","-43","","NA"
"-115.14","67.82","KUGLUKTUK A","2300905","2023-02-20 23:00","2023","02","20","23:00","-25.9","","-29.6","","72","","","M","26","","20","","","M","102.56","","","","-38","","NA"
"-115.14","67.82","KUGLUKTUK A","2300905","2023-02-21 00:00","2023","02","21","00:00","-26.4","","-30.2","","70","","","M","26","","24","","","M","102.57","","","","-40","","NA"
"-115.14","67.82","KUGLUKTUK A","2300905","2023-02-21 01:00","2023","02","21","01:00","-29.6","","-33.5","","70","","","M","22","","25","","","M","102.59","","","","-44","","NA"
"-115.14","67.82","KUGLUKTUK A","2300905","2023-02-21 02:00","2023","02","21","02:00","-28.9","","-33.0","","69","","","M","22","","24","","","M","102.61","","","","-43","","NA"
"-115.14","67.82","KUGLUKTUK A","2300905","2023-02-21 03:00","2023","02","21","03:00","-29.6","","-33.6","","69","","","M","22","","26","","","M","102.64","","","","-44","","NA"
"-115.14","67.82","KUGLUKTUK A","2300905","2023-02-21 04:00","2023","02","21","04:00","-29.5","","-33.6","","68","","","M","21","","21","","","M","102.66","","","","-43","","NA"
"-115.14","67.82","KUGLUKTUK A","2300905","2023-02-21 05:00","2023","02","21","05:00","-28.0","","-32.3","","68","","","M","23","","31","","","M","102.65","","","","-43","","NA"
"-115.14","67.82","KUGLUKTUK A","2300905","2023-02-21 06:00","2023","02","21","06:00","-27.4","","-31.9","","66","","","M","23","","32","","","M","102.66","","","","-43","","NA"
"-115.14","67.82","KUGLUKTUK A","2300905","2023-02-21 07:00","2023","02","21","07:00","-27.2","","-31.4","","68","","","M","23","","36","","","M","102.66","","","","-43","","NA"
"-115.14","67.82","KUGLUKTUK A","2300905","2023-02-21 08:00","2023","02","21","08:00","-25.9","","-30.9","","64","","","M","25","","36","","","M","102.68","","","","-41","","NA"
"-115.14","67.82","KUGLUKTUK A","2300905","2023-02-21 09:00","2023","02","21","09:00","-27.2","","-32.1","","64","","","M","23","","32","","","M","102.70","","","","-42","","NA"
"-115.14","67.82","KUGLUKTUK A","2300905","2023-02-21 10:00","2023","02","21","10:00","-27.9","","-32.2","","67","","","M","23","","27","","","M","102.72","","","","-42","","NA"
"-115.14","67.82","KUGLUKTUK A","2300905","2023-02-21 11:00","2023","02","21","11:00","-25.0","","-30.5","","61","","","M","26","","26","","","M","102.74","","","","-38","","NA"
"-115.14","67.82","KUGLUKTUK A","2300905","2023-02-21 12:00","2023","02","21","12:00","-25.4","","-30.6","","63","","","M","24","","27","","","M","102.76","","","","-39","","NA"
"-115.14","67.82","KUGLUKTUK A","2300905","2023-02-21 13:00","2023","02","21","13:00","-25.3","","-29.8","","67","","","M","23","","25","","","M","102.77","","","","-38","","NA"
"-115.14","67.82","KUGLUKTUK A","2300905","2023-02-21 14:00","2023","02","21","14:00","-24.6","","-29.4","","65","","","M","22","","21","","","M","102.80","","","","-37","","NA"
"-115.14","67.82","KUGLUKTUK A","2300905","2023-02-21 15:00","2023","02","21","15:00","-22.8","","-28.4","","61","","","M","26","","18","","","M","102.82","","","","-33","","NA"
"-115.14","67.82","KUGLUKTUK A","2300905","2023-02-21 16:00","2023","02","21","16:00","-23.9","","-29.3","","62","","","M","24","","23","","","M","102.83","","","","-36","","NA"
"-115.14","67.82","KUGLUKTUK A","2300905","2023-02-21 17:00","2023","02","21","17:00","-25.7","","-30.8","","63","","","M","25","","22","","","M","102.86","","","","-38","","NA"
"-115.14","67.82","KUGLUKTUK A","2300905","2023-02-21 18:00","2023","02","21","18:00","-27.1","","-31.7","","65","","","M","25","","19","","","M","102.90","","","","-39","","NA"
"-115.14","67.82","KUGLUKTUK A","2300905","2023-02-21 19:00","2023","02","21","19:00","-26.6","","-31.0","","67","","","M","27","","24","","","M","102.93","","","","-40","","NA"
"-115.14","67.82","KUGLUKTUK A","2300905","2023-02-21 20:00","2023","02","21","20:00","-26.8","","-30.9","","69","","","M","26","","25","","","M","102.94","","","","-40","","NA"
"-115.14","67.82","KUGLUKTUK A","2300905","2023-02-21 21:00","2023","02","21","21:00","-28.5","","-32.2","","71","","","M","25","","32","","","M","102.93","","","","-44","","NA"
"-115.14","67.82","KUGLUKTUK A","2300905","2023-02-21 22:00","2023","02","21","22:00","-28.4","","-31.9","","73","","","M","26","","30","","","M","102.90","","","","-44","","NA"
"-115.14","67.82","KUGLUKTUK A","2300905","2023-02-21 23:00","2023","02","21","23:00","-28.8","","-32.4","","72","","","M","23","","23","","","M","102.91","","","","-42","","NA"
"-115.14","67.82","KUGLUKTUK A","2300905","2023-02-22 00:00","2023","02","22","00:00","-28.0","","-31.7","","71","","","M","26","","25","","","M","102.95","","","","-42","","NA"
"-115.14","67.82","KUGLUKTUK A","2300905","2023-02-22 01:00","2023","02","22","01:00","-28.2","","-31.7","","73","","","M","26","","30","","","M","102.93","","","","-43","","NA"
"-115.14","67.82","KUGLUKTUK A","2300905","2023-02-22 02:00","2023","02","22","02:00","-28.9","","-32.4","","73","","","M","23","","24","","","M","102.93","","","","-43","","NA"
"-115.14","67.82","KUGLUKTUK A","2300905","2023-02-22 03:00","2023","02","22","03:00","-26.0","","-29.8","","71","","","M","25","","28","","","M","102.91","","","","-40","","NA"
"-115.14","67.82","KUGLUKTUK A","2300905","2023-02-22 04:00","2023","02","22","04:00","-25.9","","-29.7","","71","","","M","25","","24","","","M","102.92","","","","-39","","NA"
"-115.14","67.82","KUGLUKTUK A","2300905","2023-02-22 05:00","2023","02","22","05:00","-24.3","","-28.4","","69","","","M","28","","22","","","M","102.93","","","","-36","","NA"
"-115.14","67.82","KUGLUKTUK A","2300905","2023-02-22 06:00","2023","02","22","06:00","-23.9","","-28.5","","66","","","M","27","","29","","","M","102.93","","","","-37","","NA"
"-115.14","67.82","KUGLUKTUK A","2300905","2023-02-22 07:00","2023","02","22","07:00","-24.4","","-29.1","","66","","","M","25","","32","","","M","102.92","","","","-39","","NA"
"-115.14","67.82","KUGLUKTUK A","2300905","2023-02-22 08:00","2023","02","22","08:00","-23.8","","-27.9","","69","","","M","29","","35","","","M","102.94","","","","-38","","NA"
"-115.14","67.82","KUGLUKTUK A","2300905","2023-02-22 09:00","2023","02","22","09:00","-23.3","","-27.7","","68","","","M","26","","20","","","M","103.02","","","","-35","","NA"
"-115.14","67.82","KUGLUKTUK A","2300905","2023-02-22 10:00","2023","02","22","10:00","-23.4","","-27.0","","73","","","M","31","","18","","","M","103.09","","","","-34","","NA"
"-115.14","67.82","KUGLUKTUK A","2300905","2023-02-22 11:00","2023","02","22","11:00","-24.1","","-27.7","","73","","","M","32","","31","","","M","103.11","","","","-38","","NA"
"-115.14","67.82","KUGLUKTUK A","2300905","2023-02-22 12:00","2023","02","22","12:00","-23.9","","-27.3","","74","","","M","32","","37","","","M","103.15","","","","-39","","NA"
"-115.14","67.82","KUGLUKTUK A","2300905","2023-02-22 13:00","2023","02","22","13:00","-25.2","","-28.9","","72","","","M","31","","28","","","M","103.25","","","","-39","","NA"
"-115.14","67.82","KUGLUKTUK A","2300905","2023-02-22 14:00","2023","02","22","14:00","-25.6","","-29.5","","71","","","M","31","","30","","","M","103.34","","","","-40","","NA"
"-115.14","67.82","KUGLUKTUK A","2300905","2023-02-22 15:00","2023","02","22","15:00","-26.0","","-29.3","","74","","","M","32","","30","","","M","103.39","","","","-40","","NA"
"-115.14","67.82","KUGLUKTUK A","2300905","2023-02-22 16:00","2023","02","22","16:00","-26.5","","-29.7","","74","","","M","32","","23","","","M","103.48","","","","-39","","NA"
"-115.14","67.82","KUGLUKTUK A","2300905","2023-02-22 17:00","2023","02","22","17:00","-27.1","","-30.5","","73","","","M","31","","21","","","M","103.57","","","","-40","","NA"
"-115.14","67.82","KUGLUKTUK A","2300905","2023-02-22 18:00","2023","02","22","18:00","-27.8","","-31.5","","72","","","M","31","","21","","","M","103.60","","","","-41","","NA"
"-115.14","67.82","KUGLUKTUK A","2300905","2023-02-22 19:00","2023","02","22","19:00","-28.7","","-32.3","","72","","","M","30","","17","","","M","103.69","","","","-41","","NA"
"-115.14","67.82","KUGLUKTUK A","2300905","2023-02-22 20:00","2023","02","22","20:00","-29.1","","-32.5","","73","","","M","26","","16","","","M","103.77","","","","-41","","NA"
"-115.14","67.82","KUGLUKTUK A","2300905","2023-02-22 21:00","2023","02","22","21:00","-29.4","","-33.0","","72","","","M","26","","19","","","M","103.81","","","","-42","","NA"
"-115.14","67.82","KUGLUKTUK A","2300905","2023-02-22 22:00","2023","02","22","22:00","-29.0","","-32.2","","74","","","M","26","","25","","","M","103.84","","","","-43","","NA"
"-115.14","67.82","KUGLUKTUK A","2300905","2023-02-22 23:00","2023","02","22","23:00","-29.5","","-33.0","","72","","","M","25","","22","","","M","103.85","","","","-43","","NA"
"-115.14","67.82","KUGLUKTUK A","2300905","2023-02-23 00:00","2023","02","23","00:00","-27.9","","-31.6","","71","","","M","25","","31","","","M","103.83","","","","-43","","NA"
"-115.14","67.82","KUGLUKTUK A","2300905","2023-02-23 01:00","2023","02","23","01:00","-28.4","","-32.2","","71","","","M","26","","32","","","M","103.82","","","","-44","","NA"
"-115.14","67.82","KUGLUKTUK A","2300905","2023-02-23 02:00","2023","02","23","02:00","-27.9","","-31.7","","70","","","M","26","","35","","","M","103.81","","","","-44","","NA"
"-115.14","67.82","KUGLUKTUK A","2300905","2023-02-23 03:00","2023","02","23","03:00","-27.4","","-31.1","","71","","","M","26","","39","","","M","103.79","","","","-44","","NA"
"-115.14","67.82","KUGLUKTUK A","2300905","2023-02-23 04:00","2023","02","23","04:00","-28.0","","-31.9","","70","","","M","26","","34","","","M","103.78","","","","-44","","NA"
"-115.14","67.82","KUGLUKTUK A","2300905","2023-02-23 05:00","2023","02","23","05:00","-27.3","","-31.3","","70","","","M","25","","33","","","M","103.74","","","","-43","","NA"
"-115.14","67.82","KUGLUKTUK A","2300905","2023-02-23 06:00","2023","02","23","06:00","-28.3","","-32.1","","71","","","M","25","","34","","","M","103.70","","","","-44","","NA"
"-115.14","67.82","KUGLUKTUK A","2300905","2023-02-23 07:00","2023","02","23","07:00","-28.8","","-32.9","","68","","","M","24","","28","","","M","103.65","","","","-44","","NA"
"-115.14","67.82","KUGLUKTUK A","2300905","2023-02-23 08:00","2023","02","23","08:00","-29.5","","-34.0","","66","","","M","23","","24","","","M","103.61","","","","-44","","NA"
"-115.14","67.82","KUGLUKTUK A","2300905","2023-02-23 09:00","2023","02","23","09:00","-29.7","","-34.1","","66","","","M","22","","22","","","M","103.55","","","","-43","","NA"
"-115.14","67.82","KUGLUKTUK A","2300905","2023-02-23 10:00","2023","02","23","10:00","-30.7","","-35.0","","67","","","M","22","","30","","","M","103.46","","","","-47","","NA"
"-115.14","67.82","KUGLUKTUK A","2300905","2023-02-23 11:00","2023","02","23","11:00","-29.3","","-33.7","","67","","","M","22","","30","","","M","103.36","","","","-45","","NA"
"-115.14","67.82","KUGLUKTUK A","2300905","2023-02-23 12:00","2023","02","23","12:00","-28.2","","-32.8","","66","","","M","22","","27","","","M","103.25","","","","-43","","NA"
"-115.14","67.82","KUGLUKTUK A","2300905","2023-02-23 13:00","2023","02","23","13:00","-27.8","","-32.4","","66","","","M","23","","20","","","M","103.14","","","","-40","","NA"
"-115.14","67.82","KUGLUKTUK A","2300905","2023-02-23 14:00","2023","02","23","14:00","-27.4","","-31.8","","67","","","M","22","","20","","","M","102.98","","","","-40","","NA"
"-115.14","67.82","KUGLUKTUK A","2300905","2023-02-23 15:00","2023","02","23","15:00","-27.2","","-31.4","","68","","","M","22","","9","","","M","102.90","","","","-35","","NA"
"-115.14","67.82","KUGLUKTUK A","2300905","2023-02-23 16:00","2023","02","23","16:00","-27.6","","-31.6","","69","","","M","22","","16","","","M","102.79","","","","-39","","NA"
"-115.14","67.82","KUGLUKTUK A","2300905","2023-02-23 17:00","2023","02","23","17:00","-28.8","","-32.9","","69","","","M","23","","17","","","M","102.67","","","","-41","","NA"
"-115.14","67.82","KUGLUKTUK A","2300905","2023-02-23 18:00","2023","02","23","18:00","-27.3","","-31.6","","68","","","M","24","","30","","","M","102.53","","","","-42","","NA"
"-115.14","67.82","KUGLUKTUK A","2300905","2023-02-23 19:00","2023","02","23","19:00","-28.4","","-32.9","","66","","","M","24","","21","","","M","102.41","","","","-41","","NA"
"-115.14","67.82","KUGLUKTUK A","2300905","2023-02-23 20:00","2023","02","23","20:00","-28.1","","-32.6","","66","","","M","30","","5","","","M","102.27","","","","-33","","NA"
"-115.14","67.82","KUGLUKTUK A","2300905","2023-02-23 21:00","2023","02","23","21:00","-29.1","","-33.4","","67","","","M","23","","17","","","M","102.10","","","","-41","","NA"
"-115.14","67.82","KUGLUKTUK A","2300905","2023-02-23 22:00","2023","02","23","22:00","-28.6","","-33.0","","67","","","M","23","","16","","","M","101.95","","","","-40","","NA"
"-115.14","67.82","KUGLUKTUK A","2300905","2023-02-23 23:00","2023","02","23","23:00","-27.1","","-31.4","","68","","","M","27","","5","","","M","101.80","","","","-32","","NA"
"-115.14","67.82","KUGLUKTUK A","2300905","2023-02-24 00:00","2023","02","24","00:00","-27.0","","-31.5","","67","","","M","26","","3","","","M","101.63","","","","-30","","NA"
"-115.14","67.82","KUGLUKTUK A","2300905","2023-02-24 01:00","2023","02","24","01:00","-26.4","","-31.5","","63","","","M","24","","5","","","M","101.45","","","","-32","","NA"
"-115.14","67.82","KUGLUKTUK A","2300905","2023-02-24 02:00","2023","02","24","02:00","-29.2","","-33.4","","68","","","M","32","","7","","","M","101.31","","","","-36","","NA"
"-115.14","67.82","KUGLUKTUK A","2300905","2023-02-24 03:00","2023","02","24","03:00","-25.5","","-30.1","","66","","","M","23","","13","","","M","101.17","","","","-35","","NA"
"-115.14","67.82","KUGLUKTUK A","2300905","2023-02-24 04:00","2023","02","24","04:00","-26.6","","-30.8","","68","","","M","23","","14","","","M","100.98","","","","-37","","NA"
"-115.14","67.82","KUGLUKTUK A","2300905","2023-02-24 05:00","2023","02","24","05:00","-24.1","","-28.8","","66","","","M","24","","10","","","M","100.82","","","","-32","","NA"
"-115.14","67.82","KUGLUKTUK A","2300905","2023-02-24 06:00","2023","02","24","06:00","-29.9","","-33.6","","71","","","M","35","","5","","","M","100.70","","","","-36","","NA"
"-115.14","67.82","KUGLUKTUK A","2300905","2023-02-24 07:00","2023","02","24","07:00","-25.7","","-30.1","","67","","","M","11","","4","","","M","100.53","","","","-30","","NA"
"-115.14","67.82","KUGLUKTUK A","2300905","2023-02-24 08:00","2023","02","24","08:00","-27.5","","-32.8","","62","","","M","33","","5","","","M","100.42","","","","-33","","NA"
"-115.14","67.82","KUGLUKTUK A","2300905","2023-02-24 09:00","2023","02","24","09:00","-29.2","","-33.0","","70","","","M","31","","3","","","M","100.32","","","","-33","","NA"
"-115.14","67.82","KUGLUKTUK A","2300905","2023-02-24 10:00","2023","02","24","10:00","-24.6","","-29.1","","67","","","M","18","","5","","","M","100.24","","","","-29","","NA"
"-115.14","67.82","KUGLUKTUK A","2300905","2023-02-24 11:00","2023","02","24","11:00","-26.1","","-30.6","","66","","","M","21","","2","","","M","100.14","","","","-28","","NA"
"-115.14","67.82","KUGLUKTUK A","2300905","2023-02-24 12:00","2023","02","24","12:00","-28.9","","-33.7","","64","","","M","29","","3","","","M","100.05","","","","-32","","NA"
"-115.14","67.82","KUGLUKTUK A","2300905","2023-02-24 13:00","2023","02","24","13:00","-27.0","","-31.7","","66","","","M","20","","8","","","M","99.97","","","","-34","","NA"
"-115.14","67.82","KUGLUKTUK A","2300905","2023-02-24 14:00","2023","02","24","14:00","-26.6","","-31.2","","66","","","M","29","","4","","","M","99.91","","","","-31","","NA"
"-115.14","67.82","KUGLUKTUK A","2300905","2023-02-24 15:00","2023","02","24","15:00","-25.6","","-30.4","","65","","","M","21","","18","","","M","99.84","","","","-37","","NA"
"-115.14","67.82","KUGLUKTUK A","2300905","2023-02-24 16:00","2023","02","24","16:00","-26.1","","-30.9","","65","","","M","21","","25","","","M","99.76","","","","-39","","NA"
"-115.14","67.82","KUGLUKTUK A","2300905","2023-02-24 17:00","2023","02","24","17:00","-27.7","","-32.0","","68","","","M","23","","24","","","M","99.72","","","","-41","","NA"
"-115.14","67.82","KUGLUKTUK A","2300905","2023-02-24 18:00","2023","02","24","18:00","-28.6","","-33.1","","66","","","M","22","","21","","","M","99.68","","","","-42","","NA"
"-115.14","67.82","KUGLUKTUK A","2300905","2023-02-24 19:00","2023","02","24","19:00","-29.7","","-34.1","","66","","","M","23","","19","","","M","99.64","","","","-42","","NA"
"-115.14","67.82","KUGLUKTUK A","2300905","2023-02-24 20:00","2023","02","24","20:00","-29.8","","-34.0","","67","","","M","23","","21","","","M","99.58","","","","-43","","NA"
"-115.14","67.82","KUGLUKTUK A","2300905","2023-02-24 21:00","2023","02","24","21:00","-29.6","","-33.9","","67","","","M","22","","24","","","M","99.53","","","","-44","","NA"
"-115.14","67.82","KUGLUKTUK A","2300905","2023-02-24 22:00","2023","02","24","22:00","-29.0","","-33.2","","68","","","M","22","","25","","","M","99.49","","","","-43","","NA"
"-115.14","67.82","KUGLUKTUK A","2300905","2023-02-24 23:00","2023","02","24","23:00","-29.6","","-33.7","","68","","","M","22","","22","","","M","99.45","","","","-43","","NA"
"-115.14","67.82","KUGLUKTUK A","2300905","2023-02-25 00:00","2023","02","25","00:00","-29.2","","-33.2","","69","","","M","22","","21","","","M","99.42","","","","-42","","NA"
"-115.14","67.82","KUGLUKTUK A","2300905","2023-02-25 01:00","2023","02","25","01:00","-29.8","","-33.7","","69","","","M","21","","14","","","M","99.40","","","","-41","","NA"
"-115.14","67.82","KUGLUKTUK A","2300905","2023-02-25 02:00","2023","02","25","02:00","-28.7","","-32.5","","70","","","M","21","","18","","","M","99.36","","","","-41","","NA"
"-115.14","67.82","KUGLUKTUK A","2300905","2023-02-25 03:00","2023","02","25","03:00","-26.9","","-30.9","","70","","","M","21","","17","","","M","99.33","","","","-38","","NA"
"-115.14","67.82","KUGLUKTUK A","2300905","2023-02-25 04:00","2023","02","25","04:00","-26.6","","-30.4","","71","","","M","22","","22","","","M","99.31","","","","-39","","NA"
"-115.14","67.82","KUGLUKTUK A","2300905","2023-02-25 05:00","2023","02","25","05:00","-26.0","","-29.5","","73","","","M","21","","18","","","M","99.26","","","","-37","","NA"
"-115.14","67.82","KUGLUKTUK A","2300905","2023-02-25 06:00","2023","02","25","06:00","-25.5","","-29.0","","73","","","M","22","","15","","","M","99.24","","","","-36","","NA"
"-115.14","67.82","KUGLUKTUK A","2300905","2023-02-25 07:00","2023","02","25","07:00","-26.2","","-30.0","","71","","","M","33","","5","","","M","99.24","","","","-31","","NA"
"-115.14","67.82","KUGLUKTUK A","2300905","2023-02-25 08:00","2023","02","25","08:00","-27.8","","-31.0","","74","","","M","34","","7","","","M","99.26","","","","-35","","NA"
"-115.14","67.82","KUGLUKTUK A","2300905","2023-02-25 09:00","2023","02","25","09:00","-25.6","","-28.9","","75","","","M","25","","16","","","M","99.31","","","","-36","","NA"
"-115.14","67.82","KUGLUKTUK A","2300905","2023-02-25 10:00","2023","02","25","10:00","-24.8","","-27.9","","75","","","M","26","","28","","","M","99.34","","","","-38","","NA"
"-115.14","67.82","KUGLUKTUK A","2300905","2023-02-25 11:00","2023","02","25","11:00","-24.1","","-27.4","","75","","","M","26","","23","","","M","99.38","","","","-36","","NA"
"-115.14","67.82","KUGLUKTUK A","2300905","2023-02-25 12:00","2023","02","25","12:00","-23.8","","-27.3","","73","","","M","28","","23","","","M","99.42","","","","-36","","NA"
"-115.14","67.82","KUGLUKTUK A","2300905","2023-02-25 13:00","2023","02","25","13:00","-21.9","","-25.5","","73","","","M","26","","28","","","M","99.47","","","","-35","","NA"
"-115.14","67.82","KUGLUKTUK A","2300905","2023-02-25 14:00","2023","02","25","14:00","-20.9","","-24.2","","76","","","M","26","","29","","","M","99.48","","","","-34","","NA"
"-115.14","67.82","KUGLUKTUK A","2300905","2023-02-25 15:00","2023","02","25","15:00","-19.8","","-23.2","","75","","","M","27","","14","","","M","99.53","","","","-29","","NA"
"-115.14","67.82","KUGLUKTUK A","2300905","2023-02-25 16:00","2023","02","25","16:00","-19.1","","-22.6","","75","","","M","26","","21","","","M","99.51","","","","-30","","NA"
"-115.14","67.82","KUGLUKTUK A","2300905","2023-02-25 17:00","2023","02","25","17:00","-21.1","","-24.0","","78","","","M","23","","13","","","M","99.47","","","","-30","","NA"
"-115.14","67.82","KUGLUKTUK A","2300905","2023-02-25 18:00","2023","02","25","18:00","-21.6","","-24.6","","77","","","M","24","","28","","","M","99.43","","","","-34","","NA"
"-115.14","67.82","KUGLUKTUK A","2300905","2023-02-25 19:00","2023","02","25","19:00","-20.2","","-23.2","","78","","","M","24","","30","","","M","99.41","","","","-33","","NA"
"-115.14","67.82","KUGLUKTUK A","2300905","2023-02-25 20:00","2023","02","25","20:00","-20.5","","-22.9","","82","","","M","23","","28","","","M","99.40","","","","-33","","NA"
"-115.14","67.82","KUGLUKTUK A","2300905","2023-02-25 21:00","2023","02","25","21:00","-19.7","","-22.1","","81","","","M","23","","30","","","M","99.37","","","","-32","","NA"
"-115.14","67.82","KUGLUKTUK A","2300905","2023-02-25 22:00","2023","02","25","22:00","-16.3","","-18.5","","83","","","M","24","","36","","","M","99.34","","","","-29","","NA"
"-115.14","67.82","KUGLUKTUK A","2300905","2023-02-25 23:00","2023","02","25","23:00","-14.7","","-17.1","","82","","","M","25","","34","","","M","99.34","","","","-26","","NA"
"-115.14","67.82","KUGLUKTUK A","2300905","2023-02-26 00:00","2023","02","26","00:00","-15.3","","-18.2","","79","","","M","26","","32","","","M","99.38","","","","-27","","NA"
"-115.14","67.82","KUGLUKTUK A","2300905","2023-02-26 01:00","2023","02","26","01:00","-15.6","","-18.2","","81","","","M","26","","23","","","M","99.43","","","","-26","","NA"
"-115.14","67.82","KUGLUKTUK A","2300905","2023-02-26 02:00","2023","02","26","02:00","-15.7","","-17.9","","84","","","M","27","","13","","","M","99.48","","","","-23","","NA"
"-115.14","67.82","KUGLUKTUK A","2300905","2023-02-26 03:00","2023","02","26","03:00","-15.9","","-18.8","","79","","","M","30","","10","","","M","99.54","","","","-22","","NA"
"-115.14","67.82","KUGLUKTUK A","2300905","2023-02-26 04:00","2023","02","26","04:00","-16.1","","-20.0","","73","","","M","30","","16","","","M","99.56","","","","-25","","NA"
"-115.14","67.82","KUGLUKTUK A","2300905","2023-02-26 05:00","2023","02","26","05:00","-16.7","","-20.0","","76","","","M","30","","17","","","M","99.61","","","","-26","","NA"
"-115.14","67.82","KUGLUKTUK A","2300905","2023-02-26 06:00","2023","02","26","06:00","-17.0","","-20.8","","73","","","M","29","","17","","","M","99.65","","","","-26","","NA"
"-115.14","67.82","KUGLUKTUK A","2300905","2023-02-26 07:00","2023","02","26","07:00","-16.8","","-21.2","","69","","","M","27","","18","","","M","99.73","","","","-26","","NA"
"-115.14","67.82","KUGLUKTUK A","2300905","2023-02-26 08:00","2023","02","26","08:00","-17.5","","-22.1","","68","","","M","28","","23","","","M","99.80","","","","-28","","NA"
"-115.14","67.82","KUGLUKTUK A","2300905","2023-02-26 09:00","2023","02","26","09:00","-19.0","","-23.9","","66","","","M","29","","31","","","M","99.85","","","","-31","","NA"
"-115.14","67.82","KUGLUKTUK A","2300905","2023-02-26 10:00","2023","02","26","10:00","-19.7","","-24.2","","68","","","M","29","","27","","","M","99.93","","","","-32","","NA"
"-115.14","67.82","KUGLUKTUK A","2300905","2023-02-26 11:00","2023","02","26","11:00","-20.1","","-24.7","","67","","","M","28","","26","","","M","100.00","","","","-32","","NA"
"-115.14","67.82","KUGLUKTUK A","2300905","2023-02-26 12:00","2023","02","26","12:00","-20.2","","-24.5","","69","","","M","29","","22","","","M","100.06","","","","-31","","NA"
"-115.14","67.82","KUGLUKTUK A","2300905","2023-02-26 13:00","2023","02","26","13:00","-18.9","","-23.4","","68","","","M","24","","18","","","M","100.13","","","","-29","","NA"
"-115.14","67.82","KUGLUKTUK A","2300905","2023-02-26 14:00","2023","02","26","14:00","-18.5","","-22.8","","69","","","M","24","","19","","","M","100.20","","","","-28","","NA"
"-115.14","67.82","KUGLUKTUK A","2300905","2023-02-26 15:00","2023","02","26","15:00","-18.6","","-22.9","","70","","","M","26","","20","","","M","100.26","","","","-29","","NA"
"-115.14","67.82","KUGLUKTUK A","2300905","2023-02-26 16:00","2023","02","26","16:00","-19.2","","-22.9","","73","","","M","25","","19","","","M","100.32","","","","-29","","NA"
"-115.14","67.82","KUGLUKTUK A","2300905","2023-02-26 17:00","2023","02","26","17:00","-18.5","","-22.5","","71","","","M","27","","18","","","M","100.36","","","","-28","","NA"
"-115.14","67.82","KUGLUKTUK A","2300905","2023-02-26 18:00","2023","02","26","18:00","-19.0","","-22.6","","73","","","M","24","","17","","","M","100.40","","","","-28","","NA"
"-115.14","67.82","KUGLUKTUK A","2300905","2023-02-26 19:00","2023","02","26","19:00","-18.8","","-22.3","","75","","","M","25","","21","","","M","100.48","","","","-29","","NA"
"-115.14","67.82","KUGLUKTUK A","2300905","2023-02-26 20:00","2023","02","26","20:00","-19.4","","-22.8","","75","","","M","24","","22","","","M","100.53","","","","-30","","NA"
"-115.14","67.82","KUGLUKTUK A","2300905","2023-02-26 21:00","2023","02","26","21:00","-21.3","","-25.2","","71","","","M","26","","24","","","M","100.57","","","","-33","","NA"
"-115.14","67.82","KUGLUKTUK A","2300905","2023-02-26 22:00","2023","02","26","22:00","-21.5","","-25.8","","69","","","M","26","","27","","","M","100.65","","","","-34","","NA"
"-115.14","67.82","KUGLUKTUK A","2300905","2023-02-26 23:00","2023","02","26","23:00","-22.6","","-27.0","","67","","","M","26","","30","","","M","100.71","","","","-36","","NA"
"-115.14","67.82","KUGLUKTUK A","2300905","2023-02-27 00:00","2023","02","27","00:00","-25.3","","-29.5","","68","","","M","25","","31","","","M","100.76","","","","-40","","NA"
"-115.14","67.82","KUGLUKTUK A","2300905","2023-02-27 01:00","2023","02","27","01:00","-24.2","","-28.0","","72","","","M","25","","28","","","M","100.84","","","","-38","","NA"
"-115.14","67.82","KUGLUKTUK A","2300905","2023-02-27 02:00","2023","02","27","02:00","-27.3","","-31.1","","71","","","M","25","","27","","","M","100.91","","","","-41","","NA"
"-115.14","67.82","KUGLUKTUK A","2300905","2023-02-27 03:00","2023","02","27","03:00","-28.1","","-31.9","","70","","","M","24","","30","","","M","100.99","","","","-43","","NA"
"-115.14","67.82","KUGLUKTUK A","2300905","2023-02-27 04:00","2023","02","27","04:00","-26.1","","-29.7","","73","","","M","26","","27","","","M","101.04","","","","-40","","NA"
"-115.14","67.82","KUGLUKTUK A","2300905","2023-02-27 05:00","2023","02","27","05:00","-26.0","","-29.4","","74","","","M","25","","25","","","M","101.08","","","","-39","","NA"
"-115.14","67.82","KUGLUKTUK A","2300905","2023-02-27 06:00","2023","02","27","06:00","-28.4","","-31.8","","73","","","M","25","","26","","","M","101.10","","","","-43","","NA"
"-115.14","67.82","KUGLUKTUK A","2300905","2023-02-27 07:00","2023","02","27","07:00","-28.6","","-31.9","","74","","","M","23","","26","","","M","101.13","","","","-43","","NA"
"-115.14","67.82","KUGLUKTUK A","2300905","2023-02-27 08:00","2023","02","27","08:00","-28.9","","-32.2","","74","","","M","23","","24","","","M","101.14","","","","-43","","NA"
"-115.14","67.82","KUGLUKTUK A","2300905","2023-02-27 09:00","2023","02","27","09:00","-29.1","","-32.7","","72","","","M","23","","23","","","M","101.17","","","","-43","","NA"
"-115.14","67.82","KUGLUKTUK A","2300905","2023-02-27 10:00","2023","02","27","10:00","-28.8","","-32.2","","73","","","M","23","","24","","","M","101.17","","","","-43","","NA"
"-115.14","67.82","KUGLUKTUK A","2300905","2023-02-27 11:00","2023","02","27","11:00","-27.9","","-31.4","","72","","","M","15","","6","","","M","101.19","","","","-34","","NA"
"-115.14","67.82","KUGLUKTUK A","2300905","2023-02-27 12:00","2023","02","27","12:00","-26.5","","-30.1","","72","","","M","23","","7","","","M","101.22","","","","-33","","NA"
"-115.14","67.82","KUGLUKTUK A","2300905","2023-02-27 13:00","2023","02","27","13:00","-26.0","","-30.2","","68","","","M","24","","14","","","M","101.22","","","","-36","","NA"
"-115.14","67.82","KUGLUKTUK A","2300905","2023-02-27 14:00","2023","02","27","14:00","-26.0","","-30.4","","67","","","M","23","","5","","","M","101.23","","","","-31","","NA"
"-115.14","67.82","KUGLUKTUK A","2300905","2023-02-27 15:00","2023","02","27","15:00","-25.2","","-30.0","","65","","","M","27","","4","","","M","101.23","","","","-29","","NA"
"-115.14","67.82","KUGLUKTUK A","2300905","2023-02-27 16:00","2023","02","27","16:00","-26.3","","-30.7","","67","","","M","23","","7","","","M","101.23","","","","-33","","NA"
"-115.14","67.82","KUGLUKTUK A","2300905","2023-02-27 17:00","2023","02","27","17:00","-26.1","","-30.3","","69","","","M","25","","4","","","M","101.23","","","","-30","","NA"
"-115.14","67.82","KUGLUKTUK A","2300905","2023-02-27 18:00","2023","02","27","18:00","-27.2","","-31.2","","69","","","M","35","","2","","","M","101.22","","","","-29","","NA"
"-115.14","67.82","KUGLUKTUK A","2300905","2023-02-27 19:00","2023","02","27","19:00","-27.0","","-31.1","","69","","","M","25","","5","","","M","101.20","","","","-32","","NA"
"-115.14","67.82","KUGLUKTUK A","2300905","2023-02-27 20:00","2023","02","27","20:00","-27.1","","-30.9","","70","","","M","23","","3","","","M","101.17","","","","-30","","NA"
"-115.14","67.82","KUGLUKTUK A","2300905","2023-02-27 21:00","2023","02","27","21:00","-27.8","","-31.9","","69","","","M","25","","5","","","M","101.17","","","","-33","","NA"
"-115.14","67.82","KUGLUKTUK A","2300905","2023-02-27 22:00","2023","02","27","22:00","-27.0","","-30.9","","70","","","M","19","","4","","","M","101.13","","","","-31","","NA"
"-115.14","67.82","KUGLUKTUK A","2300905","2023-02-27 23:00","2023","02","27","23:00","-26.4","","-30.5","","69","","","M","20","","2","","","M","101.09","","","","-28","","NA"
"-115.14","67.82","KUGLUKTUK A","2300905","2023-02-28 00:00","2023","02","28","00:00","-26.9","","-30.7","","71","","","M","6","","1","","","M","101.07","","","","-28","","NA"
"-115.14","67.82","KUGLUKTUK A","2300905","2023-02-28 01:00","2023","02","28","01:00","-26.6","","-30.6","","69","","","M","0","","1","","","M","101.04","","","","-28","","NA"
"-115.14","67.82","KUGLUKTUK A","2300905","2023-02-28 02:00","2023","02","28","02:00","-27.4","","-31.2","","71","","","M","9","","3","","","M","101.05","","","","-31","","NA"
"-115.14","67.82","KUGLUKTUK A","2300905","2023-02-28 03:00","2023","02","28","03:00","-26.4","","-30.1","","72","","","M","15","","6","","","M","100.98","","","","-32","","NA"
"-115.14","67.82","KUGLUKTUK A","2300905","2023-02-28 04:00","2023","02","28","04:00","-24.7","","-27.6","","77","","","M","35","","16","","","M","101.02","","","","-35","","NA"
"-115.14","67.82","KUGLUKTUK A","2300905","2023-02-28 05:00","2023","02","28","05:00","-23.4","","-26.1","","79","","","M","2","","6","","","M","101.06","","","","-29","","NA"
"-115.14","67.82","KUGLUKTUK A","2300905","2023-02-28 06:00","2023","02","28","06:00","-25.5","","-28.6","","76","","","M","24","","7","","","M","101.09","","","","-32","","NA"
"-115.14","67.82","KUGLUKTUK A","2300905","2023-02-28 07:00","2023","02","28","07:00","-26.3","","-29.5","","75","","","M","23","","18","","","M","101.11","","","","-38","","NA"
"-115.14","67.82","KUGLUKTUK A","2300905","2023-02-28 08:00","2023","02","28","08:00","-25.9","","-29.2","","75","","","M","23","","17","","","M","101.15","","","","-37","","NA"
"-115.14","67.82","KUGLUKTUK A","2300905","2023-02-28 09:00","2023","02","28","09:00","-25.1","","-28.5","","74","","","M","31","","8","","","M","101.17","","","","-32","","NA"
"-115.14","67.82","KUGLUKTUK A","2300905","2023-02-28 10:00","2023","02","28","10:00","-25.9","","-29.4","","73","","","M","30","","7","","","M","101.18","","","","-33","","NA"
"-115.14","67.82","KUGLUKTUK A","2300905","2023-02-28 11:00","2023","02","28","11:00","-26.6","","-29.9","","74","","","M","22","","8","","","M","101.18","","","","-34","","NA"
"-115.14","67.82","KUGLUKTUK A","2300905","2023-02-28 12:00","2023","02","28","12:00","-26.8","","-30.1","","74","","","M","23","","16","","","M","101.18","","","","-38","","NA"
"-115.14","67.82","KUGLUKTUK A","2300905","2023-02-28 13:00","2023","02","28","13:00","-26.2","","-29.7","","73","","","M","23","","13","","","M","101.18","","","","-36","","NA"
"-115.14","67.82","KUGLUKTUK A","2300905","2023-02-28 14:00","2023","02","28","14:00","-26.0","","-29.4","","73","","","M","22","","10","","","M","101.17","","","","-34","","NA"
"-115.14","67.82","KUGLUKTUK A","2300905","2023-02-28 15:00","2023","02","28","15:00","-26.6","","-30.0","","74","","","M","22","","10","","","M","101.16","","","","-35","","NA"
"-115.14","67.82","KUGLUKTUK A","2300905","2023-02-28 16:00","2023","02","28","16:00","-27.0","","-30.5","","73","","","M","21","","12","","","M","101.14","","","","-37","","NA"
"-115.14","67.82","KUGLUKTUK A","2300905","2023-02-28 17:00","2023","02","28","17:00","-26.9","","-30.1","","75","","","M","23","","7","","","M","101.10","","","","-34","","NA"
"-115.14","67.82","KUGLUKTUK A","2300905","2023-02-28 18:00","2023","02","28","18:00","-27.7","","-30.6","","77","","","M","18","","5","","","M","101.03","","","","-33","","NA"
"-115.14","67.82","KUGLUKTUK A","2300905","2023-02-28 19:00","2023","02","28","19:00","-28.7","","-31.5","","77","","","M","13","","5","","","M","100.96","","","","-34","","NA"
"-115.14","67.82","KUGLUKTUK A","2300905","2023-02-28 20:00","2023","02","28","20:00","-27.9","","-30.7","","77","","","M","9","","9","","","M","100.90","","","","-36","","NA"
"-115.14","67.82","KUGLUKTUK A","2300905","2023-02-28 21:00","2023","02","28","21:00","-26.9","","-29.9","","76","","","M","8","","12","","","M","100.82","","","","-36","","NA"
"-115.14","67.82","KUGLUKTUK A","2300905","2023-02-28 22:00","2023","02","28","22:00","-26.8","","-29.8","","76","","","M","8","","13","","","M","100.75","","","","-37","","NA"
"-115.14","67.82","KUGLUKTUK A","2300905","2023-02-28 23:00","2023","02","28","23:00","-25.6","","-28.6","","77","","","M","8","","18","","","M","100.64","","","","-37","","NA"
