"Longitude (x)","Latitude (y)","Station Name","Climate ID","Date/Time (LST)","Year","Month","Day","Time (LST)","Temp (°C)","Temp Flag","Dew Point Temp (°C)","Dew Point Temp Flag","Rel Hum (%)","Rel Hum Flag","Precip. Amount (mm)","Precip. Amount Flag","Wind Dir (10s deg)","Wind Dir Flag","Wind Spd (km/h)","Wind Spd Flag","Visibility (km)","Visibility Flag","Stn Press (kPa)","Stn Press Flag","Hmdx","Hmdx Flag","Wind Chill","Wind Chill Flag","Weather"
"-123.53","48.30","RACE ROCKS","1016640","2019-06-01 00:00","2019","06","01","00:00","10.3","","9.5","","95","","","","28","","69","","","","101.21","","","","","","NA"
"-123.53","48.30","RACE ROCKS","1016640","2019-06-01 01:00","2019","06","01","01:00","10.9","","9.6","","92","","","","29","","57","","","","101.20","","","","","","NA"
"-123.53","48.30","RACE ROCKS","1016640","2019-06-01 02:00","2019","06","01","02:00","10.5","","9.7","","95","","","","28","","68","","","","101.16","","","","","","NA"
"-123.53","48.30","RACE ROCKS","1016640","2019-06-01 03:00","2019","06","01","03:00","10.7","","9.6","","93","","","","28","","63","","","","101.19","","","","","","NA"
"-123.53","48.30","RACE ROCKS","1016640","2019-06-01 04:00","2019","06","01","04:00","10.4","","9.9","","96","","","","27","","52","","","","101.19","","","","","","NA"
"-123.53","48.30","RACE ROCKS","1016640","2019-06-01 05:00","2019","06","01","05:00","10.4","","9.9","","97","","","","27","","51","","","","101.24","","","","","","NA"
"-123.53","48.30","RACE ROCKS","1016640","2019-06-01 06:00","2019","06","01","06:00","10.6","","10.0","","96","","","","27","","49","","","","101.27","","","","","","NA"
"-123.53","48.30","RACE ROCKS","1016640","2019-06-01 07:00","2019","06","01","07:00","10.6","","10.0","","96","","","","27","","46","","","","101.30","","","","","","NA"
"-123.53","48.30","RACE ROCKS","1016640","2019-06-01 08:00","2019","06","01","08:00","10.9","","10.4","","97","","","","28","","50","","","","101.31","","","","","","NA"
"-123.53","48.30","RACE ROCKS","1016640","2019-06-01 09:00","2019","06","01","09:00","12.5","","11.4","","93","","","","28","","47","","","","101.31","","","","","","NA"
"-123.53","48.30","RACE ROCKS","1016640","2019-06-01 10:00","2019","06","01","10:00","13.9","","11.3","","85","","","","29","","40","","","","101.29","","","","","","NA"
"-123.53","48.30","RACE ROCKS","1016640","2019-06-01 11:00","2019","06","01","11:00","14.8","","11.3","","79","","","","29","","37","","","","101.25","","","","","","NA"
"-123.53","48.30","RACE ROCKS","1016640","2019-06-01 12:00","2019","06","01","12:00","15.6","","11.5","","77","","","","29","","41","","","","101.21","","","","","","NA"
"-123.53","48.30","RACE ROCKS","1016640","2019-06-01 13:00","2019","06","01","13:00","15.1","","11.3","","78","","","","28","","47","","","","101.17","","","","","","NA"
"-123.53","48.30","RACE ROCKS","1016640","2019-06-01 14:00","2019","06","01","14:00","13.1","","10.1","","82","","","","28","","53","","","","101.17","","","","","","NA"
"-123.53","48.30","RACE ROCKS","1016640","2019-06-01 15:00","2019","06","01","15:00","12.0","","9.8","","86","","","","28","","61","","","","101.11","","","","","","NA"
"-123.53","48.30","RACE ROCKS","1016640","2019-06-01 16:00","2019","06","01","16:00","12.7","","9.8","","83","","","","28","","54","","","","101.08","","","","","","NA"
"-123.53","48.30","RACE ROCKS","1016640","2019-06-01 17:00","2019","06","01","17:00","14.0","","9.8","","75","","","","28","","50","","","","101.06","","","","","","NA"
"-123.53","48.30","RACE ROCKS","1016640","2019-06-01 18:00","2019","06","01","18:00","13.6","","9.5","","76","","","","27","","61","","","","100.92","","","","","","NA"
"-123.53","48.30","RACE ROCKS","1016640","2019-06-01 19:00","2019","06","01","19:00","13.3","","9.3","","76","","","","28","","57","","","","100.93","","","","","","NA"
"-123.53","48.30","RACE ROCKS","1016640","2019-06-01 20:00","2019","06","01","20:00","13.1","","9.5","","79","","","","28","","57","","","","100.93","","","","","","NA"
"-123.53","48.30","RACE ROCKS","1016640","2019-06-01 21:00","2019","06","01","21:00","12.3","","9.7","","85","","","","29","","47","","","","101.03","","","","","","NA"
"-123.53","48.30","RACE ROCKS","1016640","2019-06-01 22:00","2019","06","01","22:00","11.9","","9.7","","87","","","","28","","49","","","","100.96","","","","","","NA"
"-123.53","48.30","RACE ROCKS","1016640","2019-06-01 23:00","2019","06","01","23:00","12.9","","9.4","","79","","","","29","","41","","","","100.99","","","","","","NA"
"-123.53","48.30","RACE ROCKS","1016640","2019-06-02 00:00","2019","06","02","00:00","11.6","","8.9","","83","","","","28","","35","","","","100.98","","","","","","NA"
"-123.53","48.30","RACE ROCKS","1016640","2019-06-02 01:00","2019","06","02","01:00","11.0","","9.3","","89","","","","28","","35","","","","100.97","","","","","","NA"
"-123.53","48.30","RACE ROCKS","1016640","2019-06-02 02:00","2019","06","02","02:00","9.9","","9.1","","95","","","","26","","26","","","","100.98","","","","","","NA"
"-123.53","48.30","RACE ROCKS","1016640","2019-06-02 03:00","2019","06","02","03:00","9.4","","8.9","","97","","","","26","","27","","","","100.97","","","","","","NA"
"-123.53","48.30","RACE ROCKS","1016640","2019-06-02 04:00","2019","06","02","04:00","9.4","","9.0","","97","","","","26","","29","","","","100.95","","","","","","NA"
"-123.53","48.30","RACE ROCKS","1016640","2019-06-02 05:00","2019","06","02","05:00","9.4","","9.0","","97","","","","27","","33","","","","100.95","","","","","","NA"
"-123.53","48.30","RACE ROCKS","1016640","2019-06-02 06:00","2019","06","02","06:00","9.4","","9.0","","97","","","","27","","26","","","","100.97","","","","","","NA"
"-123.53","48.30","RACE ROCKS","1016640","2019-06-02 07:00","2019","06","02","07:00","9.2","","8.8","","98","","","","26","","20","","","","100.97","","","","","","NA"
"-123.53","48.30","RACE ROCKS","1016640","2019-06-02 08:00","2019","06","02","08:00","9.2","","8.8","","98","","","","26","","30","","","","100.97","","","","","","NA"
"-123.53","48.30","RACE ROCKS","1016640","2019-06-02 09:00","2019","06","02","09:00","9.4","","9.0","","98","","","","27","","35","","","","100.97","","","","","","NA"
"-123.53","48.30","RACE ROCKS","1016640","2019-06-02 10:00","2019","06","02","10:00","9.3","","8.9","","98","","","","26","","35","","","","100.91","","","","","","NA"
"-123.53","48.30","RACE ROCKS","1016640","2019-06-02 11:00","2019","06","02","11:00","10.4","","10.0","","98","","","","26","","33","","","","100.92","","","","","","NA"
"-123.53","48.30","RACE ROCKS","1016640","2019-06-02 12:00","2019","06","02","12:00","11.2","","10.7","","97","","","","26","","31","","","","100.92","","","","","","NA"
"-123.53","48.30","RACE ROCKS","1016640","2019-06-02 13:00","2019","06","02","13:00","12.3","","10.1","","86","","","","25","","41","","","","100.89","","","","","","NA"
"-123.53","48.30","RACE ROCKS","1016640","2019-06-02 14:00","2019","06","02","14:00","12.4","","8.9","","79","","","","25","","48","","","","100.85","","","","","","NA"
"-123.53","48.30","RACE ROCKS","1016640","2019-06-02 15:00","2019","06","02","15:00","14.3","","7.5","","64","","","","27","","40","","","","100.88","","","","","","NA"
"-123.53","48.30","RACE ROCKS","1016640","2019-06-02 16:00","2019","06","02","16:00","15.2","","6.8","","57","","","","28","","57","","","","100.82","","","","","","NA"
"-123.53","48.30","RACE ROCKS","1016640","2019-06-02 17:00","2019","06","02","17:00","14.4","","6.0","","57","","","","28","","71","","","","100.78","","","","","","NA"
"-123.53","48.30","RACE ROCKS","1016640","2019-06-02 18:00","2019","06","02","18:00","12.8","","7.2","","68","","","","28","","72","","","","100.82","","","","","","NA"
"-123.53","48.30","RACE ROCKS","1016640","2019-06-02 19:00","2019","06","02","19:00","11.9","","8.5","","79","","","","28","","72","","","","100.84","","","","","","NA"
"-123.53","48.30","RACE ROCKS","1016640","2019-06-02 20:00","2019","06","02","20:00","11.2","","9.2","","87","","","","28","","63","","","","100.92","","","","","","NA"
"-123.53","48.30","RACE ROCKS","1016640","2019-06-02 21:00","2019","06","02","21:00","11.3","","8.9","","85","","","","27","","61","","","","100.97","","","","","","NA"
"-123.53","48.30","RACE ROCKS","1016640","2019-06-02 22:00","2019","06","02","22:00","11.1","","8.4","","83","","","","27","","57","","","","101.02","","","","","","NA"
"-123.53","48.30","RACE ROCKS","1016640","2019-06-02 23:00","2019","06","02","23:00","11.1","","8.1","","81","","","","27","","59","","","","101.02","","","","","","NA"
"-123.53","48.30","RACE ROCKS","1016640","2019-06-03 00:00","2019","06","03","00:00","11.2","","7.5","","78","","","","27","","61","","","","101.00","","","","","","NA"
"-123.53","48.30","RACE ROCKS","1016640","2019-06-03 01:00","2019","06","03","01:00","11.1","","7.2","","77","","","","26","","63","","","","101.05","","","","","","NA"
"-123.53","48.30","RACE ROCKS","1016640","2019-06-03 02:00","2019","06","03","02:00","10.7","","8.0","","83","","","","26","","58","","","","101.16","","","","","","NA"
"-123.53","48.30","RACE ROCKS","1016640","2019-06-03 03:00","2019","06","03","03:00","10.5","","8.3","","86","","","","26","","46","","","","101.26","","","","","","NA"
"-123.53","48.30","RACE ROCKS","1016640","2019-06-03 04:00","2019","06","03","04:00","10.7","","8.3","","85","","","","27","","46","","","","101.30","","","","","","NA"
"-123.53","48.30","RACE ROCKS","1016640","2019-06-03 05:00","2019","06","03","05:00","10.8","","8.9","","88","","","","30","","28","","","","101.41","","","","","","NA"
"-123.53","48.30","RACE ROCKS","1016640","2019-06-03 06:00","2019","06","03","06:00","10.6","","9.2","","91","","","","28","","29","","","","101.47","","","","","","NA"
"-123.53","48.30","RACE ROCKS","1016640","2019-06-03 07:00","2019","06","03","07:00","10.4","","9.2","","92","","","","27","","29","","","","101.51","","","","","","NA"
"-123.53","48.30","RACE ROCKS","1016640","2019-06-03 08:00","2019","06","03","08:00","10.5","","9.4","","93","","","","27","","36","","","","101.52","","","","","","NA"
"-123.53","48.30","RACE ROCKS","1016640","2019-06-03 09:00","2019","06","03","09:00","10.9","","8.2","","83","","","","28","","43","","","","101.59","","","","","","NA"
"-123.53","48.30","RACE ROCKS","1016640","2019-06-03 10:00","2019","06","03","10:00","11.0","","7.8","","80","","","","27","","54","","","","101.58","","","","","","NA"
"-123.53","48.30","RACE ROCKS","1016640","2019-06-03 11:00","2019","06","03","11:00","11.2","","6.8","","74","","","","28","","52","","","","101.63","","","","","","NA"
"-123.53","48.30","RACE ROCKS","1016640","2019-06-03 12:00","2019","06","03","12:00","12.1","","5.4","","64","","","","28","","52","","","","101.62","","","","","","NA"
"-123.53","48.30","RACE ROCKS","1016640","2019-06-03 13:00","2019","06","03","13:00","12.7","","4.5","","57","","","","28","","56","","","","101.58","","","","","","NA"
"-123.53","48.30","RACE ROCKS","1016640","2019-06-03 14:00","2019","06","03","14:00","12.3","","6.5","","68","","","","28","","57","","","","101.59","","","","","","NA"
"-123.53","48.30","RACE ROCKS","1016640","2019-06-03 15:00","2019","06","03","15:00","13.1","","4.3","","55","","","","28","","59","","","","101.56","","","","","","NA"
"-123.53","48.30","RACE ROCKS","1016640","2019-06-03 16:00","2019","06","03","16:00","13.5","","3.5","","51","","","","29","","56","","","","101.56","","","","","","NA"
"-123.53","48.30","RACE ROCKS","1016640","2019-06-03 17:00","2019","06","03","17:00","12.6","","4.3","","57","","","","28","","62","","","","101.54","","","","","","NA"
"-123.53","48.30","RACE ROCKS","1016640","2019-06-03 18:00","2019","06","03","18:00","12.6","","4.5","","58","","","","29","","58","","","","101.55","","","","","","NA"
"-123.53","48.30","RACE ROCKS","1016640","2019-06-03 19:00","2019","06","03","19:00","11.1","","8.2","","83","","","","28","","58","","","","101.58","","","","","","NA"
"-123.53","48.30","RACE ROCKS","1016640","2019-06-03 20:00","2019","06","03","20:00","10.8","","8.0","","83","","","","27","","48","","","","101.61","","","","","","NA"
"-123.53","48.30","RACE ROCKS","1016640","2019-06-03 21:00","2019","06","03","21:00","11.0","","7.6","","80","","","","27","","57","","","","101.61","","","","","","NA"
"-123.53","48.30","RACE ROCKS","1016640","2019-06-03 22:00","2019","06","03","22:00","10.8","","7.2","","79","","","","26","","57","","","","101.58","","","","","","NA"
"-123.53","48.30","RACE ROCKS","1016640","2019-06-03 23:00","2019","06","03","23:00","10.6","","6.9","","78","","","","26","","49","","","","101.58","","","","","","NA"
"-123.53","48.30","RACE ROCKS","1016640","2019-06-04 00:00","2019","06","04","00:00","10.5","","6.9","","78","","","","26","","50","","","","101.60","","","","","","NA"
"-123.53","48.30","RACE ROCKS","1016640","2019-06-04 01:00","2019","06","04","01:00","10.6","","6.9","","78","","","","26","","46","","","","101.62","","","","","","NA"
"-123.53","48.30","RACE ROCKS","1016640","2019-06-04 02:00","2019","06","04","02:00","10.4","","7.0","","80","","","","26","","46","","","","101.63","","","","","","NA"
"-123.53","48.30","RACE ROCKS","1016640","2019-06-04 03:00","2019","06","04","03:00","10.3","","6.9","","80","","","","26","","47","","","","101.66","","","","","","NA"
"-123.53","48.30","RACE ROCKS","1016640","2019-06-04 04:00","2019","06","04","04:00","10.2","","6.9","","80","","","","26","","51","","","","101.61","","","","","","NA"
"-123.53","48.30","RACE ROCKS","1016640","2019-06-04 05:00","2019","06","04","05:00","10.3","","7.1","","81","","","","26","","47","","","","101.67","","","","","","NA"
"-123.53","48.30","RACE ROCKS","1016640","2019-06-04 06:00","2019","06","04","06:00","10.3","","7.7","","84","","","","28","","28","","","","101.77","","","","","","NA"
"-123.53","48.30","RACE ROCKS","1016640","2019-06-04 07:00","2019","06","04","07:00","10.3","","7.7","","84","","","","27","","37","","","","101.76","","","","","","NA"
"-123.53","48.30","RACE ROCKS","1016640","2019-06-04 08:00","2019","06","04","08:00","10.0","","7.6","","85","","","","27","","31","","","","101.79","","","","","","NA"
"-123.53","48.30","RACE ROCKS","1016640","2019-06-04 09:00","2019","06","04","09:00","10.2","","7.9","","86","","","","27","","34","","","","101.80","","","","","","NA"
"-123.53","48.30","RACE ROCKS","1016640","2019-06-04 10:00","2019","06","04","10:00","10.4","","7.3","","81","","","","27","","41","","","","101.78","","","","","","NA"
"-123.53","48.30","RACE ROCKS","1016640","2019-06-04 11:00","2019","06","04","11:00","10.9","","7.0","","77","","","","27","","34","","","","101.78","","","","","","NA"
"-123.53","48.30","RACE ROCKS","1016640","2019-06-04 12:00","2019","06","04","12:00","11.2","","7.3","","77","","","","25","","27","","","","101.78","","","","","","NA"
"-123.53","48.30","RACE ROCKS","1016640","2019-06-04 13:00","2019","06","04","13:00","11.0","","7.8","","81","","","","22","","29","","","","101.73","","","","","","NA"
"-123.53","48.30","RACE ROCKS","1016640","2019-06-04 14:00","2019","06","04","14:00","11.4","","7.3","","76","","","","22","","32","","","","101.70","","","","","","NA"
"-123.53","48.30","RACE ROCKS","1016640","2019-06-04 15:00","2019","06","04","15:00","11.4","","7.4","","76","","","","26","","41","","","","101.61","","","","","","NA"
"-123.53","48.30","RACE ROCKS","1016640","2019-06-04 16:00","2019","06","04","16:00","11.2","","7.5","","78","","","","27","","40","","","","101.59","","","","","","NA"
"-123.53","48.30","RACE ROCKS","1016640","2019-06-04 17:00","2019","06","04","17:00","12.1","","6.3","","68","","","","28","","40","","","","101.52","","","","","","NA"
"-123.53","48.30","RACE ROCKS","1016640","2019-06-04 18:00","2019","06","04","18:00","11.1","","7.4","","78","","","","27","","47","","","","101.45","","","","","","NA"
"-123.53","48.30","RACE ROCKS","1016640","2019-06-04 19:00","2019","06","04","19:00","11.9","","6.6","","70","","","","27","","38","","","","101.41","","","","","","NA"
"-123.53","48.30","RACE ROCKS","1016640","2019-06-04 20:00","2019","06","04","20:00","11.1","","7.7","","80","","","","27","","39","","","","101.39","","","","","","NA"
"-123.53","48.30","RACE ROCKS","1016640","2019-06-04 21:00","2019","06","04","21:00","10.8","","8.0","","83","","","","28","","43","","","","101.38","","","","","","NA"
"-123.53","48.30","RACE ROCKS","1016640","2019-06-04 22:00","2019","06","04","22:00","10.3","","8.5","","89","","","","28","","45","","","","101.35","","","","","","NA"
"-123.53","48.30","RACE ROCKS","1016640","2019-06-04 23:00","2019","06","04","23:00","10.2","","8.6","","90","","","","27","","42","","","","101.31","","","","","","NA"
"-123.53","48.30","RACE ROCKS","1016640","2019-06-05 00:00","2019","06","05","00:00","10.1","","8.7","","91","","","","26","","42","","","","101.28","","","","","","NA"
"-123.53","48.30","RACE ROCKS","1016640","2019-06-05 01:00","2019","06","05","01:00","10.1","","8.5","","90","","","","24","","31","","","","101.27","","","","","","NA"
"-123.53","48.30","RACE ROCKS","1016640","2019-06-05 02:00","2019","06","05","02:00","10.1","","7.9","","86","","","","22","","29","","","","101.27","","","","","","NA"
"-123.53","48.30","RACE ROCKS","1016640","2019-06-05 03:00","2019","06","05","03:00","10.2","","7.3","","82","","","","22","","28","","","","101.24","","","","","","NA"
"-123.53","48.30","RACE ROCKS","1016640","2019-06-05 04:00","2019","06","05","04:00","10.2","","7.8","","85","","","","24","","29","","","","101.20","","","","","","NA"
"-123.53","48.30","RACE ROCKS","1016640","2019-06-05 05:00","2019","06","05","05:00","10.3","","7.7","","84","","","","25","","30","","","","101.20","","","","","","NA"
"-123.53","48.30","RACE ROCKS","1016640","2019-06-05 06:00","2019","06","05","06:00","10.4","","7.1","","80","","","","25","","17","","","","101.18","","","","","","NA"
"-123.53","48.30","RACE ROCKS","1016640","2019-06-05 07:00","2019","06","05","07:00","10.3","","6.8","","78","","","","25","","21","","","","101.20","","","","","","NA"
"-123.53","48.30","RACE ROCKS","1016640","2019-06-05 08:00","2019","06","05","08:00","10.1","","8.1","","87","","","","26","","18","","","","101.17","","","","","","NA"
"-123.53","48.30","RACE ROCKS","1016640","2019-06-05 09:00","2019","06","05","09:00","10.3","","7.9","","85","","","","25","","16","","","","101.16","","","","","","NA"
"-123.53","48.30","RACE ROCKS","1016640","2019-06-05 10:00","2019","06","05","10:00","10.7","","7.2","","79","","","","25","","17","","","","101.19","","","","","","NA"
"-123.53","48.30","RACE ROCKS","1016640","2019-06-05 11:00","2019","06","05","11:00","11.5","","6.2","","70","","","","26","","11","","","","101.18","","","","","","NA"
"-123.53","48.30","RACE ROCKS","1016640","2019-06-05 12:00","2019","06","05","12:00","12.0","","5.2","","63","","","","24","","12","","","","101.18","","","","","","NA"
"-123.53","48.30","RACE ROCKS","1016640","2019-06-05 13:00","2019","06","05","13:00","12.6","","5.2","","60","","","","25","","5","","","","101.19","","","","","","NA"
"-123.53","48.30","RACE ROCKS","1016640","2019-06-05 14:00","2019","06","05","14:00","12.1","","4.2","","58","","","","23","","7","","","","101.20","","","","","","NA"
"-123.53","48.30","RACE ROCKS","1016640","2019-06-05 15:00","2019","06","05","15:00","12.7","","5.4","","61","","","","24","","5","","","","101.20","","","","","","NA"
"-123.53","48.30","RACE ROCKS","1016640","2019-06-05 16:00","2019","06","05","16:00","10.9","","8.7","","87","","","","25","","23","","","","101.18","","","","","","NA"
"-123.53","48.30","RACE ROCKS","1016640","2019-06-05 17:00","2019","06","05","17:00","11.9","","8.0","","77","","","","28","","49","","","","101.12","","","","","","NA"
"-123.53","48.30","RACE ROCKS","1016640","2019-06-05 18:00","2019","06","05","18:00","12.0","","7.8","","75","","","","28","","49","","","","101.09","","","","","","NA"
"-123.53","48.30","RACE ROCKS","1016640","2019-06-05 19:00","2019","06","05","19:00","12.4","","7.4","","72","","","","29","","56","","","","101.07","","","","","","NA"
"-123.53","48.30","RACE ROCKS","1016640","2019-06-05 20:00","2019","06","05","20:00","11.8","","7.8","","77","","","","30","","39","","","","101.16","","","","","","NA"
"-123.53","48.30","RACE ROCKS","1016640","2019-06-05 21:00","2019","06","05","21:00","11.4","","7.4","","76","","","","29","","37","","","","101.20","","","","","","NA"
"-123.53","48.30","RACE ROCKS","1016640","2019-06-05 22:00","2019","06","05","22:00","11.4","","7.4","","77","","","","29","","33","","","","101.23","","","","","","NA"
"-123.53","48.30","RACE ROCKS","1016640","2019-06-05 23:00","2019","06","05","23:00","10.7","","7.8","","82","","","","28","","35","","","","101.20","","","","","","NA"
"-123.53","48.30","RACE ROCKS","1016640","2019-06-06 00:00","2019","06","06","00:00","10.5","","7.6","","82","","","","28","","41","","","","101.18","","","","","","NA"
"-123.53","48.30","RACE ROCKS","1016640","2019-06-06 01:00","2019","06","06","01:00","10.1","","7.6","","85","","","","27","","29","","","","101.19","","","","","","NA"
"-123.53","48.30","RACE ROCKS","1016640","2019-06-06 02:00","2019","06","06","02:00","10.1","","7.4","","83","","","","27","","25","","","","101.19","","","","","","NA"
"-123.53","48.30","RACE ROCKS","1016640","2019-06-06 03:00","2019","06","06","03:00","10.0","","7.2","","83","","","","28","","26","","","","101.19","","","","","","NA"
"-123.53","48.30","RACE ROCKS","1016640","2019-06-06 04:00","2019","06","06","04:00","9.7","","6.4","","80","","","","29","","20","","","","101.17","","","","","","NA"
"-123.53","48.30","RACE ROCKS","1016640","2019-06-06 05:00","2019","06","06","05:00","10.0","","5.8","","75","","","","30","","19","","","","101.17","","","","","","NA"
"-123.53","48.30","RACE ROCKS","1016640","2019-06-06 06:00","2019","06","06","06:00","10.0","","6.4","","79","","","","20","","11","","","","101.18","","","","","","NA"
"-123.53","48.30","RACE ROCKS","1016640","2019-06-06 07:00","2019","06","06","07:00","9.9","","6.5","","79","","","","26","","13","","","","101.16","","","","","","NA"
"-123.53","48.30","RACE ROCKS","1016640","2019-06-06 08:00","2019","06","06","08:00","10.0","","6.4","","78","","","","20","","8","","","","101.17","","","","","","NA"
"-123.53","48.30","RACE ROCKS","1016640","2019-06-06 09:00","2019","06","06","09:00","11.0","","6.9","","76","","","","17","","9","","","","101.18","","","","","","NA"
"-123.53","48.30","RACE ROCKS","1016640","2019-06-06 10:00","2019","06","06","10:00","12.3","","7.6","","73","","","","18","","3","","","","101.17","","","","","","NA"
"-123.53","48.30","RACE ROCKS","1016640","2019-06-06 11:00","2019","06","06","11:00","11.8","","6.8","","72","","","","14","","11","","","","101.13","","","","","","NA"
"-123.53","48.30","RACE ROCKS","1016640","2019-06-06 12:00","2019","06","06","12:00","11.0","","7.0","","76","","","","23","","14","","","","101.15","","","","","","NA"
"-123.53","48.30","RACE ROCKS","1016640","2019-06-06 13:00","2019","06","06","13:00","13.9","","7.7","","66","","","","17","","3","","","","101.11","","","","","","NA"
"-123.53","48.30","RACE ROCKS","1016640","2019-06-06 14:00","2019","06","06","14:00","11.2","","6.1","","71","","","","22","","22","","","","101.14","","","","","","NA"
"-123.53","48.30","RACE ROCKS","1016640","2019-06-06 15:00","2019","06","06","15:00","10.9","","6.7","","75","","","","27","","14","","","","101.13","","","","","","NA"
"-123.53","48.30","RACE ROCKS","1016640","2019-06-06 16:00","2019","06","06","16:00","10.9","","6.8","","76","","","","26","","21","","","","101.14","","","","","","NA"
"-123.53","48.30","RACE ROCKS","1016640","2019-06-06 17:00","2019","06","06","17:00","11.6","","5.5","","66","","","","26","","18","","","","101.12","","","","","","NA"
"-123.53","48.30","RACE ROCKS","1016640","2019-06-06 18:00","2019","06","06","18:00","11.2","","6.0","","70","","","","29","","27","","","","101.09","","","","","","NA"
"-123.53","48.30","RACE ROCKS","1016640","2019-06-06 19:00","2019","06","06","19:00","11.5","","6.2","","70","","","","28","","22","","","","101.08","","","","","","NA"
"-123.53","48.30","RACE ROCKS","1016640","2019-06-06 20:00","2019","06","06","20:00","11.2","","6.5","","73","","","","29","","23","","","","101.08","","","","","","NA"
"-123.53","48.30","RACE ROCKS","1016640","2019-06-06 21:00","2019","06","06","21:00","10.7","","7.0","","78","","","","29","","21","","","","101.11","","","","","","NA"
"-123.53","48.30","RACE ROCKS","1016640","2019-06-06 22:00","2019","06","06","22:00","11.0","","6.8","","75","","","","29","","25","","","","101.11","","","","","","NA"
"-123.53","48.30","RACE ROCKS","1016640","2019-06-06 23:00","2019","06","06","23:00","10.5","","7.1","","79","","","","28","","29","","","","101.10","","","","","","NA"
"-123.53","48.30","RACE ROCKS","1016640","2019-06-07 00:00","2019","06","07","00:00","9.3","","7.8","","90","","","","23","","25","","","","101.13","","","","","","NA"
"-123.53","48.30","RACE ROCKS","1016640","2019-06-07 01:00","2019","06","07","01:00","9.6","","8.6","","94","","","","26","","25","","","","101.15","","","","","","NA"
"-123.53","48.30","RACE ROCKS","1016640","2019-06-07 02:00","2019","06","07","02:00","9.7","","8.7","","93","","","","27","","39","","","","101.18","","","","","","NA"
"-123.53","48.30","RACE ROCKS","1016640","2019-06-07 03:00","2019","06","07","03:00","9.9","","8.8","","93","","","","28","","33","","","","101.20","","","","","","NA"
"-123.53","48.30","RACE ROCKS","1016640","2019-06-07 04:00","2019","06","07","04:00","10.2","","8.0","","86","","","","28","","29","","","","101.24","","","","","","NA"
"-123.53","48.30","RACE ROCKS","1016640","2019-06-07 05:00","2019","06","07","05:00","10.1","","7.4","","84","","","","26","","33","","","","101.24","","","","","","NA"
"-123.53","48.30","RACE ROCKS","1016640","2019-06-07 06:00","2019","06","07","06:00","9.8","","8.0","","89","","","","28","","28","","","","101.27","","","","","","NA"
"-123.53","48.30","RACE ROCKS","1016640","2019-06-07 07:00","2019","06","07","07:00","9.5","","8.0","","90","","","","28","","30","","","","101.30","","","","","","NA"
"-123.53","48.30","RACE ROCKS","1016640","2019-06-07 08:00","2019","06","07","08:00","9.6","","7.7","","88","","","","28","","31","","","","101.36","","","","","","NA"
"-123.53","48.30","RACE ROCKS","1016640","2019-06-07 09:00","2019","06","07","09:00","9.6","","8.1","","90","","","","27","","26","","","","101.41","","","","","","NA"
"-123.53","48.30","RACE ROCKS","1016640","2019-06-07 10:00","2019","06","07","10:00","10.3","","7.6","","84","","","","28","","30","","","","101.40","","","","","","NA"
"-123.53","48.30","RACE ROCKS","1016640","2019-06-07 11:00","2019","06","07","11:00","10.9","","6.4","","73","","","","28","","34","","","","101.41","","","","","","NA"
"-123.53","48.30","RACE ROCKS","1016640","2019-06-07 12:00","2019","06","07","12:00","11.4","","6.4","","71","","","","28","","29","","","","101.42","","","","","","NA"
"-123.53","48.30","RACE ROCKS","1016640","2019-06-07 13:00","2019","06","07","13:00","10.6","","7.5","","81","","","","21","","19","","","","101.44","","","","","","NA"
"-123.53","48.30","RACE ROCKS","1016640","2019-06-07 14:00","2019","06","07","14:00","11.4","","7.4","","76","","","","23","","20","","","","101.49","","","","","","NA"
"-123.53","48.30","RACE ROCKS","1016640","2019-06-07 15:00","2019","06","07","15:00","11.0","","7.6","","80","","","","27","","29","","","","101.51","","","","","","NA"
"-123.53","48.30","RACE ROCKS","1016640","2019-06-07 16:00","2019","06","07","16:00","11.9","","7.1","","72","","","","28","","29","","","","101.53","","","","","","NA"
"-123.53","48.30","RACE ROCKS","1016640","2019-06-07 17:00","2019","06","07","17:00","11.2","","8.2","","82","","","","28","","35","","","","101.55","","","","","","NA"
"-123.53","48.30","RACE ROCKS","1016640","2019-06-07 18:00","2019","06","07","18:00","11.2","","8.6","","84","","","","28","","38","","","","101.59","","","","","","NA"
"-123.53","48.30","RACE ROCKS","1016640","2019-06-07 19:00","2019","06","07","19:00","12.0","","7.2","","72","","","","29","","38","","","","101.66","","","","","","NA"
"-123.53","48.30","RACE ROCKS","1016640","2019-06-07 20:00","2019","06","07","20:00","11.8","","7.0","","72","","","","29","","38","","","","101.70","","","","","","NA"
"-123.53","48.30","RACE ROCKS","1016640","2019-06-07 21:00","2019","06","07","21:00","11.7","","7.2","","74","","","","28","","37","","","","101.78","","","","","","NA"
"-123.53","48.30","RACE ROCKS","1016640","2019-06-07 22:00","2019","06","07","22:00","11.0","","7.6","","79","","","","28","","40","","","","101.84","","","","","","NA"
"-123.53","48.30","RACE ROCKS","1016640","2019-06-07 23:00","2019","06","07","23:00","10.4","","8.8","","90","","","","28","","46","","","","101.89","","","","","","NA"
"-123.53","48.30","RACE ROCKS","1016640","2019-06-08 00:00","2019","06","08","00:00","10.6","","8.4","","86","","","","28","","45","","","","101.95","","","","","","NA"
"-123.53","48.30","RACE ROCKS","1016640","2019-06-08 01:00","2019","06","08","01:00","10.4","","8.0","","85","","","","27","","40","","","","102.01","","","","","","NA"
"-123.53","48.30","RACE ROCKS","1016640","2019-06-08 02:00","2019","06","08","02:00","10.4","","7.6","","83","","","","27","","37","","","","102.06","","","","","","NA"
"-123.53","48.30","RACE ROCKS","1016640","2019-06-08 03:00","2019","06","08","03:00","10.3","","7.4","","82","","","","28","","39","","","","102.09","","","","","","NA"
"-123.53","48.30","RACE ROCKS","1016640","2019-06-08 04:00","2019","06","08","04:00","10.3","","7.5","","83","","","","28","","37","","","","102.13","","","","","","NA"
"-123.53","48.30","RACE ROCKS","1016640","2019-06-08 05:00","2019","06","08","05:00","10.4","","8.2","","87","","","","28","","32","","","","102.20","","","","","","NA"
"-123.53","48.30","RACE ROCKS","1016640","2019-06-08 06:00","2019","06","08","06:00","10.7","","8.1","","84","","","","28","","31","","","","102.27","","","","","","NA"
"-123.53","48.30","RACE ROCKS","1016640","2019-06-08 07:00","2019","06","08","07:00","10.6","","8.2","","85","","","","28","","33","","","","102.31","","","","","","NA"
"-123.53","48.30","RACE ROCKS","1016640","2019-06-08 08:00","2019","06","08","08:00","10.2","","8.2","","87","","","","27","","33","","","","102.35","","","","","","NA"
"-123.53","48.30","RACE ROCKS","1016640","2019-06-08 09:00","2019","06","08","09:00","10.6","","8.2","","85","","","","28","","33","","","","102.38","","","","","","NA"
"-123.53","48.30","RACE ROCKS","1016640","2019-06-08 10:00","2019","06","08","10:00","11.3","","8.3","","82","","","","28","","35","","","","102.40","","","","","","NA"
"-123.53","48.30","RACE ROCKS","1016640","2019-06-08 11:00","2019","06","08","11:00","11.9","","7.4","","74","","","","28","","39","","","","102.42","","","","","","NA"
"-123.53","48.30","RACE ROCKS","1016640","2019-06-08 12:00","2019","06","08","12:00","11.2","","8.1","","81","","","","28","","35","","","","102.45","","","","","","NA"
"-123.53","48.30","RACE ROCKS","1016640","2019-06-08 13:00","2019","06","08","13:00","11.2","","8.4","","83","","","","26","","28","","","","102.49","","","","","","NA"
"-123.53","48.30","RACE ROCKS","1016640","2019-06-08 14:00","2019","06","08","14:00","12.1","","7.3","","73","","","","28","","46","","","","102.48","","","","","","NA"
"-123.53","48.30","RACE ROCKS","1016640","2019-06-08 15:00","2019","06","08","15:00","12.2","","7.5","","73","","","","28","","44","","","","102.49","","","","","","NA"
"-123.53","48.30","RACE ROCKS","1016640","2019-06-08 16:00","2019","06","08","16:00","13.8","","6.9","","63","","","","28","","44","","","","102.47","","","","","","NA"
"-123.53","48.30","RACE ROCKS","1016640","2019-06-08 17:00","2019","06","08","17:00","14.5","","7.2","","61","","","","28","","45","","","","102.47","","","","","","NA"
"-123.53","48.30","RACE ROCKS","1016640","2019-06-08 18:00","2019","06","08","18:00","13.9","","7.5","","66","","","","28","","36","","","","102.50","","","","","","NA"
"-123.53","48.30","RACE ROCKS","1016640","2019-06-08 19:00","2019","06","08","19:00","14.0","","7.3","","64","","","","28","","34","","","","102.52","","","","","","NA"
"-123.53","48.30","RACE ROCKS","1016640","2019-06-08 20:00","2019","06","08","20:00","12.3","","7.1","","71","","","","28","","38","","","","102.55","","","","","","NA"
"-123.53","48.30","RACE ROCKS","1016640","2019-06-08 21:00","2019","06","08","21:00","11.9","","7.2","","72","","","","28","","35","","","","102.59","","","","","","NA"
"-123.53","48.30","RACE ROCKS","1016640","2019-06-08 22:00","2019","06","08","22:00","11.2","","8.4","","83","","","","27","","41","","","","102.57","","","","","","NA"
"-123.53","48.30","RACE ROCKS","1016640","2019-06-08 23:00","2019","06","08","23:00","10.4","","9.1","","92","","","","27","","46","","","","102.56","","","","","","NA"
"-123.53","48.30","RACE ROCKS","1016640","2019-06-09 00:00","2019","06","09","00:00","10.1","","8.8","","92","","","","27","","31","","","","102.61","","","","","","NA"
"-123.53","48.30","RACE ROCKS","1016640","2019-06-09 01:00","2019","06","09","01:00","10.2","","8.2","","87","","","","26","","33","","","","102.56","","","","","","NA"
"-123.53","48.30","RACE ROCKS","1016640","2019-06-09 02:00","2019","06","09","02:00","9.9","","7.9","","87","","","","26","","24","","","","102.58","","","","","","NA"
"-123.53","48.30","RACE ROCKS","1016640","2019-06-09 03:00","2019","06","09","03:00","9.8","","7.9","","88","","","","27","","23","","","","102.58","","","","","","NA"
"-123.53","48.30","RACE ROCKS","1016640","2019-06-09 04:00","2019","06","09","04:00","9.8","","7.8","","87","","","","28","","21","","","","102.58","","","","","","NA"
"-123.53","48.30","RACE ROCKS","1016640","2019-06-09 05:00","2019","06","09","05:00","9.7","","8.0","","89","","","","28","","16","","","","102.57","","","","","","NA"
"-123.53","48.30","RACE ROCKS","1016640","2019-06-09 06:00","2019","06","09","06:00","9.6","","7.9","","89","","","","27","","23","","","","102.59","","","","","","NA"
"-123.53","48.30","RACE ROCKS","1016640","2019-06-09 07:00","2019","06","09","07:00","9.8","","7.8","","88","","","","27","","18","","","","102.59","","","","","","NA"
"-123.53","48.30","RACE ROCKS","1016640","2019-06-09 08:00","2019","06","09","08:00","9.6","","7.8","","89","","","","27","","21","","","","102.59","","","","","","NA"
"-123.53","48.30","RACE ROCKS","1016640","2019-06-09 09:00","2019","06","09","09:00","9.9","","7.9","","88","","","","26","","22","","","","102.57","","","","","","NA"
"-123.53","48.30","RACE ROCKS","1016640","2019-06-09 10:00","2019","06","09","10:00","10.1","","8.1","","88","","","","26","","26","","","","102.54","","","","","","NA"
"-123.53","48.30","RACE ROCKS","1016640","2019-06-09 11:00","2019","06","09","11:00","10.5","","8.2","","86","","","","27","","31","","","","102.53","","","","","","NA"
"-123.53","48.30","RACE ROCKS","1016640","2019-06-09 12:00","2019","06","09","12:00","10.3","","8.5","","88","","","","25","","24","","","","102.51","","","","","","NA"
"-123.53","48.30","RACE ROCKS","1016640","2019-06-09 13:00","2019","06","09","13:00","10.5","","8.5","","88","","","","26","","24","","","","102.47","","","","","","NA"
"-123.53","48.30","RACE ROCKS","1016640","2019-06-09 14:00","2019","06","09","14:00","10.6","","8.9","","90","","","","26","","31","","","","102.45","","","","","","NA"
"-123.53","48.30","RACE ROCKS","1016640","2019-06-09 15:00","2019","06","09","15:00","10.7","","9.0","","89","","","","27","","33","","","","102.42","","","","","","NA"
"-123.53","48.30","RACE ROCKS","1016640","2019-06-09 16:00","2019","06","09","16:00","10.9","","9.2","","89","","","","26","","32","","","","102.39","","","","","","NA"
"-123.53","48.30","RACE ROCKS","1016640","2019-06-09 17:00","2019","06","09","17:00","11.3","","8.8","","85","","","","27","","42","","","","102.33","","","","","","NA"
"-123.53","48.30","RACE ROCKS","1016640","2019-06-09 18:00","2019","06","09","18:00","11.3","","8.9","","86","","","","27","","35","","","","102.34","","","","","","NA"
"-123.53","48.30","RACE ROCKS","1016640","2019-06-09 19:00","2019","06","09","19:00","10.8","","8.7","","87","","","","27","","36","","","","102.31","","","","","","NA"
"-123.53","48.30","RACE ROCKS","1016640","2019-06-09 20:00","2019","06","09","20:00","10.6","","8.8","","89","","","","26","","32","","","","102.32","","","","","","NA"
"-123.53","48.30","RACE ROCKS","1016640","2019-06-09 21:00","2019","06","09","21:00","10.8","","9.1","","89","","","","26","","34","","","","102.33","","","","","","NA"
"-123.53","48.30","RACE ROCKS","1016640","2019-06-09 22:00","2019","06","09","22:00","10.9","","9.4","","91","","","","28","","41","","","","102.33","","","","","","NA"
"-123.53","48.30","RACE ROCKS","1016640","2019-06-09 23:00","2019","06","09","23:00","10.9","","9.4","","91","","","","27","","37","","","","102.31","","","","","","NA"
"-123.53","48.30","RACE ROCKS","1016640","2019-06-10 00:00","2019","06","10","00:00","12.0","","9.5","","85","","","","27","","32","","","","102.27","","","","","","NA"
"-123.53","48.30","RACE ROCKS","1016640","2019-06-10 01:00","2019","06","10","01:00","11.5","","9.0","","84","","","","27","","32","","","","102.27","","","","","","NA"
"-123.53","48.30","RACE ROCKS","1016640","2019-06-10 02:00","2019","06","10","02:00","10.7","","9.0","","90","","","","26","","34","","","","102.27","","","","","","NA"
"-123.53","48.30","RACE ROCKS","1016640","2019-06-10 03:00","2019","06","10","03:00","10.5","","9.1","","91","","","","27","","33","","","","102.27","","","","","","NA"
"-123.53","48.30","RACE ROCKS","1016640","2019-06-10 04:00","2019","06","10","04:00","11.6","","9.3","","86","","","","28","","34","","","","102.27","","","","","","NA"
"-123.53","48.30","RACE ROCKS","1016640","2019-06-10 05:00","2019","06","10","05:00","10.6","","8.8","","89","","","","27","","26","","","","102.27","","","","","","NA"
"-123.53","48.30","RACE ROCKS","1016640","2019-06-10 06:00","2019","06","10","06:00","11.2","","8.9","","86","","","","27","","16","","","","102.27","","","","","","NA"
"-123.53","48.30","RACE ROCKS","1016640","2019-06-10 07:00","2019","06","10","07:00","12.7","","8.0","","73","","","","29","","25","","","","102.28","","","","","","NA"
"-123.53","48.30","RACE ROCKS","1016640","2019-06-10 08:00","2019","06","10","08:00","13.3","","8.7","","74","","","","28","","12","","","","102.32","","","","","","NA"
"-123.53","48.30","RACE ROCKS","1016640","2019-06-10 09:00","2019","06","10","09:00","10.8","","9.4","","91","","","","26","","21","","","","102.35","","","","","","NA"
"-123.53","48.30","RACE ROCKS","1016640","2019-06-10 10:00","2019","06","10","10:00","11.0","","9.5","","91","","","","25","","21","","","","102.34","","","","","","NA"
"-123.53","48.30","RACE ROCKS","1016640","2019-06-10 11:00","2019","06","10","11:00","11.4","","9.6","","89","","","","25","","13","","","","102.35","","","","","","NA"
"-123.53","48.30","RACE ROCKS","1016640","2019-06-10 12:00","2019","06","10","12:00","10.9","","9.5","","91","","","","22","","18","","","","102.35","","","","","","NA"
"-123.53","48.30","RACE ROCKS","1016640","2019-06-10 13:00","2019","06","10","13:00","10.8","","9.5","","92","","","","23","","21","","","","102.33","","","","","","NA"
"-123.53","48.30","RACE ROCKS","1016640","2019-06-10 14:00","2019","06","10","14:00","11.4","","10.4","","94","","","","24","","24","","","","102.31","","","","","","NA"
"-123.53","48.30","RACE ROCKS","1016640","2019-06-10 15:00","2019","06","10","15:00","11.7","","10.6","","93","","","","23","","27","","","","102.27","","","","","","NA"
"-123.53","48.30","RACE ROCKS","1016640","2019-06-10 16:00","2019","06","10","16:00","11.7","","10.5","","93","","","","23","","24","","","","102.27","","","","","","NA"
"-123.53","48.30","RACE ROCKS","1016640","2019-06-10 17:00","2019","06","10","17:00","12.1","","10.7","","92","","","","24","","29","","","","102.19","","","","","","NA"
"-123.53","48.30","RACE ROCKS","1016640","2019-06-10 18:00","2019","06","10","18:00","12.1","","10.8","","91","","","","25","","28","","","","102.18","","","","","","NA"
"-123.53","48.30","RACE ROCKS","1016640","2019-06-10 19:00","2019","06","10","19:00","11.7","","10.8","","95","","","","24","","28","","","","102.16","","","","","","NA"
"-123.53","48.30","RACE ROCKS","1016640","2019-06-10 20:00","2019","06","10","20:00","11.1","","10.6","","97","","","","27","","36","","","","102.16","","","","","","NA"
"-123.53","48.30","RACE ROCKS","1016640","2019-06-10 21:00","2019","06","10","21:00","10.8","","10.4","","97","","","","26","","29","","","","102.19","","","","","","NA"
"-123.53","48.30","RACE ROCKS","1016640","2019-06-10 22:00","2019","06","10","22:00","10.5","","10.1","","97","","","","26","","30","","","","102.21","","","","","","NA"
"-123.53","48.30","RACE ROCKS","1016640","2019-06-10 23:00","2019","06","10","23:00","10.4","","10.0","","97","","","","26","","28","","","","102.24","","","","","","NA"
"-123.53","48.30","RACE ROCKS","1016640","2019-06-11 00:00","2019","06","11","00:00","10.3","","9.9","","98","","","","26","","25","","","","102.26","","","","","","NA"
"-123.53","48.30","RACE ROCKS","1016640","2019-06-11 01:00","2019","06","11","01:00","10.3","","10.0","","98","","","","27","","23","","","","102.24","","","","","","NA"
"-123.53","48.30","RACE ROCKS","1016640","2019-06-11 02:00","2019","06","11","02:00","10.1","","9.7","","98","","","","26","","14","","","","102.24","","","","","","NA"
"-123.53","48.30","RACE ROCKS","1016640","2019-06-11 03:00","2019","06","11","03:00","12.2","","11.8","","98","","","","2","","7","","","","102.24","","","","","","NA"
"-123.53","48.30","RACE ROCKS","1016640","2019-06-11 04:00","2019","06","11","04:00","13.3","","12.9","","97","","","","5","","11","","","","102.25","","","","","","NA"
"-123.53","48.30","RACE ROCKS","1016640","2019-06-11 05:00","2019","06","11","05:00","15.0","","13.5","","91","","","","4","","11","","","","102.26","","","","","","NA"
"-123.53","48.30","RACE ROCKS","1016640","2019-06-11 06:00","2019","06","11","06:00","13.7","","12.3","","92","","","","7","","9","","","","102.27","","","","","","NA"
"-123.53","48.30","RACE ROCKS","1016640","2019-06-11 07:00","2019","06","11","07:00","15.9","","14.4","","91","","","","13","","18","","","","102.25","","","","","","NA"
"-123.53","48.30","RACE ROCKS","1016640","2019-06-11 08:00","2019","06","11","08:00","17.1","","13.1","","77","","","","12","","20","","","","102.23","","","","","","NA"
"-123.53","48.30","RACE ROCKS","1016640","2019-06-11 09:00","2019","06","11","09:00","16.8","","13.1","","79","","","","13","","26","","","","102.20","","","","","","NA"
"-123.53","48.30","RACE ROCKS","1016640","2019-06-11 10:00","2019","06","11","10:00","17.5","","13.5","","77","","","","10","","25","","","","102.16","","","","","","NA"
"-123.53","48.30","RACE ROCKS","1016640","2019-06-11 11:00","2019","06","11","11:00","18.5","","13.4","","72","","","","11","","26","","","","102.11","","","","","","NA"
"-123.53","48.30","RACE ROCKS","1016640","2019-06-11 12:00","2019","06","11","12:00","19.2","","12.5","","65","","","","11","","26","","","","102.03","","","","","","NA"
"-123.53","48.30","RACE ROCKS","1016640","2019-06-11 13:00","2019","06","11","13:00","19.9","","12.2","","61","","","","12","","26","","","","101.94","","","","","","NA"
"-123.53","48.30","RACE ROCKS","1016640","2019-06-11 14:00","2019","06","11","14:00","19.0","","12.3","","65","","","","13","","23","","","","101.87","","","","","","NA"
"-123.53","48.30","RACE ROCKS","1016640","2019-06-11 15:00","2019","06","11","15:00","20.5","","12.1","","59","","","","13","","18","","","","101.80","","","","","","NA"
"-123.53","48.30","RACE ROCKS","1016640","2019-06-11 16:00","2019","06","11","16:00","22.2","","11.7","","52","","","","14","","21","","","","101.70","","","","","","NA"
"-123.53","48.30","RACE ROCKS","1016640","2019-06-11 17:00","2019","06","11","17:00","23.1","","11.1","","47","","","","14","","19","","","","101.62","","25","","","","NA"
"-123.53","48.30","RACE ROCKS","1016640","2019-06-11 18:00","2019","06","11","18:00","20.5","","11.0","","54","","","","7","","3","","","","101.55","","","","","","NA"
"-123.53","48.30","RACE ROCKS","1016640","2019-06-11 19:00","2019","06","11","19:00","25.0","","10.6","","40","","","","10","","12","","","","101.49","","27","","","","NA"
"-123.53","48.30","RACE ROCKS","1016640","2019-06-11 20:00","2019","06","11","20:00","22.1","","10.2","","47","","","","4","","1","","","","101.47","","","","","","NA"
"-123.53","48.30","RACE ROCKS","1016640","2019-06-11 21:00","2019","06","11","21:00","17.7","","10.7","","63","","","","25","","8","","","","101.47","","","","","","NA"
"-123.53","48.30","RACE ROCKS","1016640","2019-06-11 22:00","2019","06","11","22:00","17.7","","10.6","","63","","","","29","","8","","","","101.43","","","","","","NA"
"-123.53","48.30","RACE ROCKS","1016640","2019-06-11 23:00","2019","06","11","23:00","20.3","","10.5","","54","","","","2","","4","","","","101.40","","","","","","NA"
"-123.53","48.30","RACE ROCKS","1016640","2019-06-12 00:00","2019","06","12","00:00","20.7","","10.3","","51","","","","4","","8","","","","101.35","","","","","","NA"
"-123.53","48.30","RACE ROCKS","1016640","2019-06-12 01:00","2019","06","12","01:00","20.4","","11.0","","55","","","","4","","12","","","","101.31","","","","","","NA"
"-123.53","48.30","RACE ROCKS","1016640","2019-06-12 02:00","2019","06","12","02:00","20.0","","10.6","","55","","","","4","","14","","","","101.28","","","","","","NA"
"-123.53","48.30","RACE ROCKS","1016640","2019-06-12 03:00","2019","06","12","03:00","17.3","","11.3","","68","","","","5","","12","","","","101.26","","","","","","NA"
"-123.53","48.30","RACE ROCKS","1016640","2019-06-12 04:00","2019","06","12","04:00","17.7","","10.1","","61","","","","6","","16","","","","101.24","","","","","","NA"
"-123.53","48.30","RACE ROCKS","1016640","2019-06-12 05:00","2019","06","12","05:00","15.9","","11.5","","75","","","","5","","14","","","","101.24","","","","","","NA"
"-123.53","48.30","RACE ROCKS","1016640","2019-06-12 06:00","2019","06","12","06:00","18.3","","12.3","","68","","","","8","","13","","","","101.23","","","","","","NA"
"-123.53","48.30","RACE ROCKS","1016640","2019-06-12 07:00","2019","06","12","07:00","19.2","","11.6","","62","","","","10","","21","","","","101.19","","","","","","NA"
"-123.53","48.30","RACE ROCKS","1016640","2019-06-12 08:00","2019","06","12","08:00","19.3","","12.3","","64","","","","9","","28","","","","101.14","","","","","","NA"
"-123.53","48.30","RACE ROCKS","1016640","2019-06-12 09:00","2019","06","12","09:00","18.4","","12.2","","67","","","","9","","24","","","","101.13","","","","","","NA"
"-123.53","48.30","RACE ROCKS","1016640","2019-06-12 10:00","2019","06","12","10:00","18.1","","12.0","","67","","","","12","","18","","","","101.10","","","","","","NA"
"-123.53","48.30","RACE ROCKS","1016640","2019-06-12 11:00","2019","06","12","11:00","19.2","","12.4","","65","","","","14","","15","","","","101.04","","","","","","NA"
"-123.53","48.30","RACE ROCKS","1016640","2019-06-12 12:00","2019","06","12","12:00","20.5","","12.4","","60","","","","14","","16","","","","101.00","","","","","","NA"
"-123.53","48.30","RACE ROCKS","1016640","2019-06-12 13:00","2019","06","12","13:00","22.9","","11.9","","50","","","","13","","18","","","","100.91","","25","","","","NA"
"-123.53","48.30","RACE ROCKS","1016640","2019-06-12 14:00","2019","06","12","14:00","22.2","","11.7","","51","","","","14","","9","","","","100.88","","","","","","NA"
"-123.53","48.30","RACE ROCKS","1016640","2019-06-12 15:00","2019","06","12","15:00","24.9","","12.4","","46","","","","10","","2","","","","100.83","","27","","","","NA"
"-123.53","48.30","RACE ROCKS","1016640","2019-06-12 16:00","2019","06","12","16:00","27.7","","10.9","","35","","","","","","0","","","","100.74","","29","","","","NA"
"-123.53","48.30","RACE ROCKS","1016640","2019-06-12 17:00","2019","06","12","17:00","21.9","","11.9","","53","","","","19","","4","","","","100.70","","","","","","NA"
"-123.53","48.30","RACE ROCKS","1016640","2019-06-12 18:00","2019","06","12","18:00","20.0","","12.0","","60","","","","27","","25","","","","100.63","","","","","","NA"
"-123.53","48.30","RACE ROCKS","1016640","2019-06-12 19:00","2019","06","12","19:00","14.8","","11.3","","79","","","","26","","44","","","","100.55","","","","","","NA"
"-123.53","48.30","RACE ROCKS","1016640","2019-06-12 20:00","2019","06","12","20:00","14.5","","11.1","","81","","","","26","","54","","","","100.46","","","","","","NA"
"-123.53","48.30","RACE ROCKS","1016640","2019-06-12 21:00","2019","06","12","21:00","12.6","","11.3","","92","","","","26","","53","","","","100.52","","","","","","NA"
"-123.53","48.30","RACE ROCKS","1016640","2019-06-12 22:00","2019","06","12","22:00","13.2","","12.0","","93","","","","26","","61","","","","100.50","","","","","","NA"
"-123.53","48.30","RACE ROCKS","1016640","2019-06-12 23:00","2019","06","12","23:00","15.3","","11.3","","77","","","","27","","51","","","","100.53","","","","","","NA"
"-123.53","48.30","RACE ROCKS","1016640","2019-06-13 00:00","2019","06","13","00:00","15.3","","10.8","","75","","","","26","","58","","","","100.48","","","","","","NA"
"-123.53","48.30","RACE ROCKS","1016640","2019-06-13 01:00","2019","06","13","01:00","17.2","","11.3","","68","","","","27","","58","","","","100.49","","","","","","NA"
"-123.53","48.30","RACE ROCKS","1016640","2019-06-13 02:00","2019","06","13","02:00","12.4","","10.5","","88","","","","26","","54","","","","100.51","","","","","","NA"
"-123.53","48.30","RACE ROCKS","1016640","2019-06-13 03:00","2019","06","13","03:00","12.2","","10.8","","91","","","","27","","59","","","","100.58","","","","","","NA"
"-123.53","48.30","RACE ROCKS","1016640","2019-06-13 04:00","2019","06","13","04:00","14.0","","10.9","","82","","","","27","","56","","","","100.58","","","","","","NA"
"-123.53","48.30","RACE ROCKS","1016640","2019-06-13 05:00","2019","06","13","05:00","12.3","","10.3","","88","","","","27","","58","","","","100.63","","","","","","NA"
"-123.53","48.30","RACE ROCKS","1016640","2019-06-13 06:00","2019","06","13","06:00","12.6","","10.5","","87","","","","27","","55","","","","100.75","","","","","","NA"
"-123.53","48.30","RACE ROCKS","1016640","2019-06-13 07:00","2019","06","13","07:00","12.6","","10.5","","87","","","","28","","68","","","","100.72","","","","","","NA"
"-123.53","48.30","RACE ROCKS","1016640","2019-06-13 08:00","2019","06","13","08:00","12.4","","10.4","","87","","","","28","","68","","","","100.74","","","","","","NA"
"-123.53","48.30","RACE ROCKS","1016640","2019-06-13 09:00","2019","06","13","09:00","13.4","","10.4","","82","","","","27","","71","","","","100.73","","","","","","NA"
"-123.53","48.30","RACE ROCKS","1016640","2019-06-13 10:00","2019","06","13","10:00","13.5","","10.1","","80","","","","28","","64","","","","100.87","","","","","","NA"
"-123.53","48.30","RACE ROCKS","1016640","2019-06-13 11:00","2019","06","13","11:00","13.3","","9.7","","79","","","","29","","59","","","","100.90","","","","","","NA"
"-123.53","48.30","RACE ROCKS","1016640","2019-06-13 12:00","2019","06","13","12:00","13.2","","9.7","","79","","","","28","","73","","","","100.90","","","","","","NA"
"-123.53","48.30","RACE ROCKS","1016640","2019-06-13 13:00","2019","06","13","13:00","13.0","","9.6","","80","","","","28","","70","","","","100.90","","","","","","NA"
"-123.53","48.30","RACE ROCKS","1016640","2019-06-13 14:00","2019","06","13","14:00","12.9","","9.6","","80","","","","28","","74","","","","100.92","","","","","","NA"
"-123.53","48.30","RACE ROCKS","1016640","2019-06-13 15:00","2019","06","13","15:00","13.2","","9.7","","79","","","","28","","76","","","","100.90","","","","","","NA"
"-123.53","48.30","RACE ROCKS","1016640","2019-06-13 16:00","2019","06","13","16:00","13.3","","9.4","","78","","","","28","","79","","","","100.88","","","","","","NA"
"-123.53","48.30","RACE ROCKS","1016640","2019-06-13 17:00","2019","06","13","17:00","13.0","","9.4","","79","","","","28","","68","","","","100.91","","","","","","NA"
"-123.53","48.30","RACE ROCKS","1016640","2019-06-13 18:00","2019","06","13","18:00","12.2","","9.9","","86","","","","28","","69","","","","100.97","","","","","","NA"
"-123.53","48.30","RACE ROCKS","1016640","2019-06-13 19:00","2019","06","13","19:00","12.2","","9.9","","86","","","","28","","68","","","","100.95","","","","","","NA"
"-123.53","48.30","RACE ROCKS","1016640","2019-06-13 20:00","2019","06","13","20:00","11.6","","10.2","","91","","","","28","","66","","","","100.98","","","","","","NA"
"-123.53","48.30","RACE ROCKS","1016640","2019-06-13 21:00","2019","06","13","21:00","11.3","","10.1","","92","","","","27","","69","","","","100.98","","","","","","NA"
"-123.53","48.30","RACE ROCKS","1016640","2019-06-13 22:00","2019","06","13","22:00","11.2","","10.1","","93","","","","27","","63","","","","101.01","","","","","","NA"
"-123.53","48.30","RACE ROCKS","1016640","2019-06-13 23:00","2019","06","13","23:00","11.1","","10.1","","94","","","","27","","56","","","","101.08","","","","","","NA"
"-123.53","48.30","RACE ROCKS","1016640","2019-06-14 00:00","2019","06","14","00:00","11.1","","10.1","","94","","","","27","","53","","","","101.09","","","","","","NA"
"-123.53","48.30","RACE ROCKS","1016640","2019-06-14 01:00","2019","06","14","01:00","11.0","","10.1","","94","","","","27","","54","","","","101.11","","","","","","NA"
"-123.53","48.30","RACE ROCKS","1016640","2019-06-14 02:00","2019","06","14","02:00","11.3","","10.1","","92","","","","28","","51","","","","101.16","","","","","","NA"
"-123.53","48.30","RACE ROCKS","1016640","2019-06-14 03:00","2019","06","14","03:00","11.5","","10.1","","91","","","","29","","47","","","","101.23","","","","","","NA"
"-123.53","48.30","RACE ROCKS","1016640","2019-06-14 04:00","2019","06","14","04:00","11.6","","9.8","","89","","","","29","","45","","","","101.25","","","","","","NA"
"-123.53","48.30","RACE ROCKS","1016640","2019-06-14 05:00","2019","06","14","05:00","11.6","","9.8","","89","","","","29","","36","","","","101.31","","","","","","NA"
"-123.53","48.30","RACE ROCKS","1016640","2019-06-14 06:00","2019","06","14","06:00","11.9","","9.6","","86","","","","28","","36","","","","101.39","","","","","","NA"
"-123.53","48.30","RACE ROCKS","1016640","2019-06-14 07:00","2019","06","14","07:00","12.2","","9.4","","83","","","","29","","39","","","","101.42","","","","","","NA"
"-123.53","48.30","RACE ROCKS","1016640","2019-06-14 08:00","2019","06","14","08:00","12.3","","9.2","","81","","","","28","","39","","","","101.43","","","","","","NA"
"-123.53","48.30","RACE ROCKS","1016640","2019-06-14 09:00","2019","06","14","09:00","12.5","","9.0","","79","","","","28","","37","","","","101.47","","","","","","NA"
"-123.53","48.30","RACE ROCKS","1016640","2019-06-14 10:00","2019","06","14","10:00","13.2","","9.1","","76","","","","28","","35","","","","101.50","","","","","","NA"
"-123.53","48.30","RACE ROCKS","1016640","2019-06-14 11:00","2019","06","14","11:00","13.8","","9.2","","74","","","","28","","30","","","","101.52","","","","","","NA"
"-123.53","48.30","RACE ROCKS","1016640","2019-06-14 12:00","2019","06","14","12:00","14.0","","9.1","","72","","","","28","","28","","","","101.53","","","","","","NA"
"-123.53","48.30","RACE ROCKS","1016640","2019-06-14 13:00","2019","06","14","13:00","13.3","","9.9","","80","","","","26","","26","","","","101.52","","","","","","NA"
"-123.53","48.30","RACE ROCKS","1016640","2019-06-14 14:00","2019","06","14","14:00","12.9","","9.5","","80","","","","27","","29","","","","101.51","","","","","","NA"
"-123.53","48.30","RACE ROCKS","1016640","2019-06-14 15:00","2019","06","14","15:00","13.1","","9.8","","80","","","","27","","34","","","","101.49","","","","","","NA"
"-123.53","48.30","RACE ROCKS","1016640","2019-06-14 16:00","2019","06","14","16:00","13.8","","9.9","","77","","","","27","","38","","","","101.42","","","","","","NA"
"-123.53","48.30","RACE ROCKS","1016640","2019-06-14 17:00","2019","06","14","17:00","13.1","","10.2","","83","","","","27","","35","","","","101.40","","","","","","NA"
"-123.53","48.30","RACE ROCKS","1016640","2019-06-14 18:00","2019","06","14","18:00","12.3","","9.5","","83","","","","28","","42","","","","101.38","","","","","","NA"
"-123.53","48.30","RACE ROCKS","1016640","2019-06-14 19:00","2019","06","14","19:00","12.2","","9.2","","82","","","","28","","46","","","","101.37","","","","","","NA"
"-123.53","48.30","RACE ROCKS","1016640","2019-06-14 20:00","2019","06","14","20:00","11.9","","9.4","","85","","","","28","","47","","","","101.38","","","","","","NA"
"-123.53","48.30","RACE ROCKS","1016640","2019-06-14 21:00","2019","06","14","21:00","11.7","","9.4","","86","","","","28","","37","","","","101.43","","","","","","NA"
"-123.53","48.30","RACE ROCKS","1016640","2019-06-14 22:00","2019","06","14","22:00","11.4","","9.3","","87","","","","27","","45","","","","101.42","","","","","","NA"
"-123.53","48.30","RACE ROCKS","1016640","2019-06-14 23:00","2019","06","14","23:00","11.0","","9.6","","91","","","","27","","46","","","","101.39","","","","","","NA"
"-123.53","48.30","RACE ROCKS","1016640","2019-06-15 00:00","2019","06","15","00:00","11.1","","9.7","","91","","","","27","","47","","","","101.40","","","","","","NA"
"-123.53","48.30","RACE ROCKS","1016640","2019-06-15 01:00","2019","06","15","01:00","11.0","","10.1","","95","","","","27","","46","","","","101.42","","","","","","NA"
"-123.53","48.30","RACE ROCKS","1016640","2019-06-15 02:00","2019","06","15","02:00","10.8","","10.2","","96","","","","27","","45","","","","101.44","","","","","","NA"
"-123.53","48.30","RACE ROCKS","1016640","2019-06-15 03:00","2019","06","15","03:00","11.1","","10.4","","95","","","","27","","46","","","","101.42","","","","","","NA"
"-123.53","48.30","RACE ROCKS","1016640","2019-06-15 04:00","2019","06","15","04:00","11.1","","10.3","","95","","","","27","","41","","","","101.42","","","","","","NA"
"-123.53","48.30","RACE ROCKS","1016640","2019-06-15 05:00","2019","06","15","05:00","10.5","","10.0","","97","","","","27","","37","","","","101.43","","","","","","NA"
"-123.53","48.30","RACE ROCKS","1016640","2019-06-15 06:00","2019","06","15","06:00","10.4","","10.0","","97","","","","27","","36","","","","101.46","","","","","","NA"
"-123.53","48.30","RACE ROCKS","1016640","2019-06-15 07:00","2019","06","15","07:00","10.7","","10.2","","97","","","","27","","35","","","","101.50","","","","","","NA"
"-123.53","48.30","RACE ROCKS","1016640","2019-06-15 08:00","2019","06","15","08:00","10.7","","10.0","","96","","","","27","","35","","","","101.50","","","","","","NA"
"-123.53","48.30","RACE ROCKS","1016640","2019-06-15 09:00","2019","06","15","09:00","10.9","","10.0","","95","","","","26","","36","","","","101.50","","","","","","NA"
"-123.53","48.30","RACE ROCKS","1016640","2019-06-15 10:00","2019","06","15","10:00","11.2","","10.1","","93","","","","28","","39","","","","101.49","","","","","","NA"
"-123.53","48.30","RACE ROCKS","1016640","2019-06-15 11:00","2019","06","15","11:00","11.2","","9.9","","92","","","","27","","40","","","","101.50","","","","","","NA"
"-123.53","48.30","RACE ROCKS","1016640","2019-06-15 12:00","2019","06","15","12:00","11.0","","9.9","","93","","","","27","","38","","","","101.49","","","","","","NA"
"-123.53","48.30","RACE ROCKS","1016640","2019-06-15 13:00","2019","06","15","13:00","11.4","","10.1","","91","","","","27","","35","","","","101.46","","","","","","NA"
"-123.53","48.30","RACE ROCKS","1016640","2019-06-15 14:00","2019","06","15","14:00","11.3","","10.0","","92","","","","27","","37","","","","101.43","","","","","","NA"
"-123.53","48.30","RACE ROCKS","1016640","2019-06-15 15:00","2019","06","15","15:00","11.4","","10.0","","91","","","","27","","48","","","","101.37","","","","","","NA"
"-123.53","48.30","RACE ROCKS","1016640","2019-06-15 16:00","2019","06","15","16:00","11.3","","9.9","","91","","","","27","","53","","","","101.28","","","","","","NA"
"-123.53","48.30","RACE ROCKS","1016640","2019-06-15 17:00","2019","06","15","17:00","12.9","","10.2","","84","","","","28","","57","","","","101.23","","","","","","NA"
"-123.53","48.30","RACE ROCKS","1016640","2019-06-15 18:00","2019","06","15","18:00","12.7","","10.0","","84","","","","28","","66","","","","101.17","","","","","","NA"
"-123.53","48.30","RACE ROCKS","1016640","2019-06-15 19:00","2019","06","15","19:00","11.6","","9.6","","88","","","","27","","73","","","","101.20","","","","","","NA"
"-123.53","48.30","RACE ROCKS","1016640","2019-06-15 20:00","2019","06","15","20:00","11.2","","9.6","","89","","","","27","","64","","","","101.24","","","","","","NA"
"-123.53","48.30","RACE ROCKS","1016640","2019-06-15 21:00","2019","06","15","21:00","11.4","","9.9","","91","","","","27","","62","","","","101.26","","","","","","NA"
"-123.53","48.30","RACE ROCKS","1016640","2019-06-15 22:00","2019","06","15","22:00","11.3","","10.0","","91","","","","27","","61","","","","101.28","","","","","","NA"
"-123.53","48.30","RACE ROCKS","1016640","2019-06-15 23:00","2019","06","15","23:00","11.2","","10.0","","92","","","","27","","63","","","","101.26","","","","","","NA"
"-123.53","48.30","RACE ROCKS","1016640","2019-06-16 00:00","2019","06","16","00:00","10.9","","10.1","","95","","","","27","","57","","","","101.26","","","","","","NA"
"-123.53","48.30","RACE ROCKS","1016640","2019-06-16 01:00","2019","06","16","01:00","11.0","","10.4","","96","","","","27","","55","","","","101.26","","","","","","NA"
"-123.53","48.30","RACE ROCKS","1016640","2019-06-16 02:00","2019","06","16","02:00","10.9","","10.4","","97","","","","27","","49","","","","101.27","","","","","","NA"
"-123.53","48.30","RACE ROCKS","1016640","2019-06-16 03:00","2019","06","16","03:00","11.0","","10.5","","97","","","","27","","50","","","","101.28","","","","","","NA"
"-123.53","48.30","RACE ROCKS","1016640","2019-06-16 04:00","2019","06","16","04:00","11.4","","10.7","","95","","","","27","","51","","","","101.30","","","","","","NA"
"-123.53","48.30","RACE ROCKS","1016640","2019-06-16 05:00","2019","06","16","05:00","12.1","","10.9","","92","","","","28","","49","","","","101.34","","","","","","NA"
"-123.53","48.30","RACE ROCKS","1016640","2019-06-16 06:00","2019","06","16","06:00","13.0","","10.9","","87","","","","28","","41","","","","101.36","","","","","","NA"
"-123.53","48.30","RACE ROCKS","1016640","2019-06-16 07:00","2019","06","16","07:00","13.1","","10.8","","86","","","","28","","37","","","","101.38","","","","","","NA"
"-123.53","48.30","RACE ROCKS","1016640","2019-06-16 08:00","2019","06","16","08:00","12.3","","10.5","","88","","","","28","","47","","","","101.40","","","","","","NA"
"-123.53","48.30","RACE ROCKS","1016640","2019-06-16 09:00","2019","06","16","09:00","13.2","","10.7","","85","","","","28","","42","","","","101.41","","","","","","NA"
"-123.53","48.30","RACE ROCKS","1016640","2019-06-16 10:00","2019","06","16","10:00","11.7","","10.2","","90","","","","25","","33","","","","101.39","","","","","","NA"
"-123.53","48.30","RACE ROCKS","1016640","2019-06-16 11:00","2019","06","16","11:00","11.7","","10.3","","92","","","","25","","35","","","","101.36","","","","","","NA"
"-123.53","48.30","RACE ROCKS","1016640","2019-06-16 12:00","2019","06","16","12:00","11.4","","10.4","","94","","","","23","","32","","","","101.39","","","","","","NA"
"-123.53","48.30","RACE ROCKS","1016640","2019-06-16 13:00","2019","06","16","13:00","13.1","","10.6","","85","","","","28","","53","","","","101.33","","","","","","NA"
"-123.53","48.30","RACE ROCKS","1016640","2019-06-16 14:00","2019","06","16","14:00","12.3","","10.3","","88","","","","28","","56","","","","101.30","","","","","","NA"
"-123.53","48.30","RACE ROCKS","1016640","2019-06-16 15:00","2019","06","16","15:00","14.8","","11.4","","80","","","","28","","55","","","","101.30","","","","","","NA"
"-123.53","48.30","RACE ROCKS","1016640","2019-06-16 16:00","2019","06","16","16:00","14.5","","11.2","","81","","","","28","","52","","","","101.25","","","","","","NA"
"-123.53","48.30","RACE ROCKS","1016640","2019-06-16 17:00","2019","06","16","17:00","14.3","","11.4","","83","","","","28","","54","","","","101.21","","","","","","NA"
"-123.53","48.30","RACE ROCKS","1016640","2019-06-16 18:00","2019","06","16","18:00","12.5","","11.0","","90","","","","28","","68","","","","101.21","","","","","","NA"
"-123.53","48.30","RACE ROCKS","1016640","2019-06-16 19:00","2019","06","16","19:00","12.4","","11.1","","92","","","","28","","63","","","","101.24","","","","","","NA"
"-123.53","48.30","RACE ROCKS","1016640","2019-06-16 20:00","2019","06","16","20:00","11.9","","10.7","","92","","","","28","","62","","","","101.21","","","","","","NA"
"-123.53","48.30","RACE ROCKS","1016640","2019-06-16 21:00","2019","06","16","21:00","11.8","","10.5","","92","","","","28","","59","","","","101.29","","","","","","NA"
"-123.53","48.30","RACE ROCKS","1016640","2019-06-16 22:00","2019","06","16","22:00","11.6","","10.5","","93","","","","27","","69","","","","101.26","","","","","","NA"
"-123.53","48.30","RACE ROCKS","1016640","2019-06-16 23:00","2019","06","16","23:00","11.3","","10.6","","96","","","","27","","65","","","","101.22","","","","","","NA"
"-123.53","48.30","RACE ROCKS","1016640","2019-06-17 00:00","2019","06","17","00:00","11.2","","10.5","","96","","","","27","","60","","","","101.27","","","","","","NA"
"-123.53","48.30","RACE ROCKS","1016640","2019-06-17 01:00","2019","06","17","01:00","10.9","","10.3","","96","","","","27","","54","","","","101.31","","","","","","NA"
"-123.53","48.30","RACE ROCKS","1016640","2019-06-17 02:00","2019","06","17","02:00","11.7","","10.4","","92","","","","28","","57","","","","101.34","","","","","","NA"
"-123.53","48.30","RACE ROCKS","1016640","2019-06-17 03:00","2019","06","17","03:00","10.8","","10.1","","96","","","","27","","51","","","","101.37","","","","","","NA"
"-123.53","48.30","RACE ROCKS","1016640","2019-06-17 04:00","2019","06","17","04:00","11.0","","10.3","","95","","","","27","","50","","","","101.40","","","","","","NA"
"-123.53","48.30","RACE ROCKS","1016640","2019-06-17 05:00","2019","06","17","05:00","10.8","","10.1","","96","","","","27","","48","","","","101.45","","","","","","NA"
"-123.53","48.30","RACE ROCKS","1016640","2019-06-17 06:00","2019","06","17","06:00","11.3","","10.4","","94","","","","28","","53","","","","101.50","","","","","","NA"
"-123.53","48.30","RACE ROCKS","1016640","2019-06-17 07:00","2019","06","17","07:00","11.7","","10.5","","92","","","","28","","47","","","","101.55","","","","","","NA"
"-123.53","48.30","RACE ROCKS","1016640","2019-06-17 08:00","2019","06","17","08:00","12.2","","10.6","","90","","","","28","","53","","","","101.55","","","","","","NA"
"-123.53","48.30","RACE ROCKS","1016640","2019-06-17 09:00","2019","06","17","09:00","12.7","","10.8","","88","","","","29","","54","","","","101.58","","","","","","NA"
"-123.53","48.30","RACE ROCKS","1016640","2019-06-17 10:00","2019","06","17","10:00","13.7","","11.2","","85","","","","29","","47","","","","101.60","","","","","","NA"
"-123.53","48.30","RACE ROCKS","1016640","2019-06-17 11:00","2019","06","17","11:00","14.2","","11.2","","82","","","","28","","51","","","","101.58","","","","","","NA"
"-123.53","48.30","RACE ROCKS","1016640","2019-06-17 12:00","2019","06","17","12:00","14.7","","11.6","","82","","","","28","","51","","","","101.64","","","","","","NA"
"-123.53","48.30","RACE ROCKS","1016640","2019-06-17 13:00","2019","06","17","13:00","13.4","","11.0","","86","","","","28","","60","","","","101.58","","","","","","NA"
"-123.53","48.30","RACE ROCKS","1016640","2019-06-17 14:00","2019","06","17","14:00","15.0","","11.8","","81","","","","28","","64","","","","101.57","","","","","","NA"
"-123.53","48.30","RACE ROCKS","1016640","2019-06-17 15:00","2019","06","17","15:00","14.4","","11.7","","84","","","","28","","69","","","","101.53","","","","","","NA"
"-123.53","48.30","RACE ROCKS","1016640","2019-06-17 16:00","2019","06","17","16:00","14.3","","11.9","","86","","","","28","","67","","","","101.53","","","","","","NA"
"-123.53","48.30","RACE ROCKS","1016640","2019-06-17 17:00","2019","06","17","17:00","14.8","","12.1","","84","","","","28","","70","","","","101.51","","","","","","NA"
"-123.53","48.30","RACE ROCKS","1016640","2019-06-17 18:00","2019","06","17","18:00","15.1","","12.2","","83","","","","28","","74","","","","101.49","","","","","","NA"
"-123.53","48.30","RACE ROCKS","1016640","2019-06-17 19:00","2019","06","17","19:00","15.8","","12.3","","80","","","","28","","55","","","","101.64","","","","","","NA"
"-123.53","48.30","RACE ROCKS","1016640","2019-06-17 20:00","2019","06","17","20:00","13.0","","11.7","","92","","","","29","","64","","","","101.64","","","","","","NA"
"-123.53","48.30","RACE ROCKS","1016640","2019-06-17 21:00","2019","06","17","21:00","12.1","","11.3","","95","","","","28","","55","","","","101.68","","","","","","NA"
"-123.53","48.30","RACE ROCKS","1016640","2019-06-17 22:00","2019","06","17","22:00","11.5","","11.0","","97","","","","27","","54","","","","101.63","","","","","","NA"
"-123.53","48.30","RACE ROCKS","1016640","2019-06-17 23:00","2019","06","17","23:00","11.6","","11.1","","97","","","","27","","61","","","","101.60","","","","","","NA"
"-123.53","48.30","RACE ROCKS","1016640","2019-06-18 00:00","2019","06","18","00:00","11.5","","11.0","","97","","","","27","","42","","","","101.69","","","","","","NA"
"-123.53","48.30","RACE ROCKS","1016640","2019-06-18 01:00","2019","06","18","01:00","11.4","","11.0","","97","","","","27","","44","","","","101.70","","","","","","NA"
"-123.53","48.30","RACE ROCKS","1016640","2019-06-18 02:00","2019","06","18","02:00","12.0","","11.5","","97","","","","27","","53","","","","101.70","","","","","","NA"
"-123.53","48.30","RACE ROCKS","1016640","2019-06-18 03:00","2019","06","18","03:00","12.0","","11.1","","94","","","","28","","61","","","","101.66","","","","","","NA"
"-123.53","48.30","RACE ROCKS","1016640","2019-06-18 04:00","2019","06","18","04:00","11.5","","10.6","","94","","","","27","","54","","","","101.70","","","","","","NA"
"-123.53","48.30","RACE ROCKS","1016640","2019-06-18 05:00","2019","06","18","05:00","11.7","","10.6","","93","","","","27","","50","","","","101.80","","","","","","NA"
"-123.53","48.30","RACE ROCKS","1016640","2019-06-18 06:00","2019","06","18","06:00","11.4","","10.5","","94","","","","27","","43","","","","101.90","","","","","","NA"
"-123.53","48.30","RACE ROCKS","1016640","2019-06-18 07:00","2019","06","18","07:00","11.0","","10.1","","94","","","","27","","40","","","","101.90","","","","","","NA"
"-123.53","48.30","RACE ROCKS","1016640","2019-06-18 08:00","2019","06","18","08:00","12.6","","10.5","","87","","","","28","","47","","","","101.93","","","","","","NA"
"-123.53","48.30","RACE ROCKS","1016640","2019-06-18 09:00","2019","06","18","09:00","12.4","","10.0","","85","","","","28","","47","","","","101.95","","","","","","NA"
"-123.53","48.30","RACE ROCKS","1016640","2019-06-18 10:00","2019","06","18","10:00","12.7","","9.9","","83","","","","28","","49","","","","101.97","","","","","","NA"
"-123.53","48.30","RACE ROCKS","1016640","2019-06-18 11:00","2019","06","18","11:00","11.9","","9.7","","87","","","","27","","57","","","","101.89","","","","","","NA"
"-123.53","48.30","RACE ROCKS","1016640","2019-06-18 12:00","2019","06","18","12:00","11.6","","9.6","","88","","","","27","","52","","","","101.94","","","","","","NA"
"-123.53","48.30","RACE ROCKS","1016640","2019-06-18 13:00","2019","06","18","13:00","11.8","","9.7","","87","","","","27","","58","","","","101.88","","","","","","NA"
"-123.53","48.30","RACE ROCKS","1016640","2019-06-18 14:00","2019","06","18","14:00","13.2","","10.0","","81","","","","28","","54","","","","101.87","","","","","","NA"
"-123.53","48.30","RACE ROCKS","1016640","2019-06-18 15:00","2019","06","18","15:00","14.2","","9.8","","75","","","","28","","61","","","","101.84","","","","","","NA"
"-123.53","48.30","RACE ROCKS","1016640","2019-06-18 16:00","2019","06","18","16:00","13.1","","9.5","","79","","","","29","","61","","","","101.83","","","","","","NA"
"-123.53","48.30","RACE ROCKS","1016640","2019-06-18 17:00","2019","06","18","17:00","13.0","","8.6","","74","","","","28","","71","","","","101.74","","","","","","NA"
"-123.53","48.30","RACE ROCKS","1016640","2019-06-18 18:00","2019","06","18","18:00","12.7","","8.5","","75","","","","28","","66","","","","101.78","","","","","","NA"
"-123.53","48.30","RACE ROCKS","1016640","2019-06-18 19:00","2019","06","18","19:00","12.7","","8.2","","74","","","","28","","72","","","","101.80","","","","","","NA"
"-123.53","48.30","RACE ROCKS","1016640","2019-06-18 20:00","2019","06","18","20:00","11.9","","8.4","","79","","","","27","","69","","","","101.68","","","","","","NA"
"-123.53","48.30","RACE ROCKS","1016640","2019-06-18 21:00","2019","06","18","21:00","12.0","","8.1","","77","","","","27","","70","","","","101.68","","","","","","NA"
"-123.53","48.30","RACE ROCKS","1016640","2019-06-18 22:00","2019","06","18","22:00","11.9","","8.0","","77","","","","27","","70","","","","101.69","","","","","","NA"
"-123.53","48.30","RACE ROCKS","1016640","2019-06-18 23:00","2019","06","18","23:00","11.9","","7.9","","77","","","","26","","68","","","","101.71","","","","","","NA"
"-123.53","48.30","RACE ROCKS","1016640","2019-06-19 00:00","2019","06","19","00:00","12.0","","7.7","","75","","","","26","","64","","","","101.66","","","","","","NA"
"-123.53","48.30","RACE ROCKS","1016640","2019-06-19 01:00","2019","06","19","01:00","11.6","","7.7","","77","","","","26","","55","","","","101.73","","","","","","NA"
"-123.53","48.30","RACE ROCKS","1016640","2019-06-19 02:00","2019","06","19","02:00","11.7","","7.5","","75","","","","26","","56","","","","101.73","","","","","","NA"
"-123.53","48.30","RACE ROCKS","1016640","2019-06-19 03:00","2019","06","19","03:00","11.6","","7.8","","77","","","","27","","48","","","","101.78","","","","","","NA"
"-123.53","48.30","RACE ROCKS","1016640","2019-06-19 04:00","2019","06","19","04:00","11.4","","8.0","","79","","","","27","","37","","","","101.84","","","","","","NA"
"-123.53","48.30","RACE ROCKS","1016640","2019-06-19 05:00","2019","06","19","05:00","11.5","","8.1","","80","","","","26","","36","","","","101.84","","","","","","NA"
"-123.53","48.30","RACE ROCKS","1016640","2019-06-19 06:00","2019","06","19","06:00","11.5","","8.1","","79","","","","26","","39","","","","101.83","","","","","","NA"
"-123.53","48.30","RACE ROCKS","1016640","2019-06-19 07:00","2019","06","19","07:00","11.1","","8.7","","85","","","","29","","36","","","","101.86","","","","","","NA"
"-123.53","48.30","RACE ROCKS","1016640","2019-06-19 08:00","2019","06","19","08:00","10.5","","8.5","","87","","","","28","","46","","","","101.82","","","","","","NA"
"-123.53","48.30","RACE ROCKS","1016640","2019-06-19 09:00","2019","06","19","09:00","10.7","","8.5","","87","","","","28","","56","","","","101.79","","","","","","NA"
"-123.53","48.30","RACE ROCKS","1016640","2019-06-19 10:00","2019","06","19","10:00","11.0","","8.2","","83","","","","28","","57","","","","101.80","","","","","","NA"
"-123.53","48.30","RACE ROCKS","1016640","2019-06-19 11:00","2019","06","19","11:00","11.6","","8.1","","79","","","","28","","56","","","","101.80","","","","","","NA"
"-123.53","48.30","RACE ROCKS","1016640","2019-06-19 12:00","2019","06","19","12:00","11.9","","7.8","","76","","","","28","","55","","","","101.76","","","","","","NA"
"-123.53","48.30","RACE ROCKS","1016640","2019-06-19 13:00","2019","06","19","13:00","12.0","","7.5","","74","","","","27","","63","","","","101.70","","","","","","NA"
"-123.53","48.30","RACE ROCKS","1016640","2019-06-19 14:00","2019","06","19","14:00","12.3","","7.3","","71","","","","28","","62","","","","101.70","","","","","","NA"
"-123.53","48.30","RACE ROCKS","1016640","2019-06-19 15:00","2019","06","19","15:00","12.2","","7.0","","71","","","","28","","64","","","","101.66","","","","","","NA"
"-123.53","48.30","RACE ROCKS","1016640","2019-06-19 16:00","2019","06","19","16:00","12.3","","6.8","","69","","","","27","","65","","","","101.63","","","","","","NA"
"-123.53","48.30","RACE ROCKS","1016640","2019-06-19 17:00","2019","06","19","17:00","12.8","","7.1","","68","","","","28","","55","","","","101.66","","","","","","NA"
"-123.53","48.30","RACE ROCKS","1016640","2019-06-19 18:00","2019","06","19","18:00","12.3","","7.6","","73","","","","28","","70","","","","101.58","","","","","","NA"
"-123.53","48.30","RACE ROCKS","1016640","2019-06-19 19:00","2019","06","19","19:00","11.9","","7.8","","76","","","","27","","57","","","","101.62","","","","","","NA"
"-123.53","48.30","RACE ROCKS","1016640","2019-06-19 20:00","2019","06","19","20:00","11.5","","7.7","","78","","","","27","","49","","","","101.57","","","","","","NA"
"-123.53","48.30","RACE ROCKS","1016640","2019-06-19 21:00","2019","06","19","21:00","11.4","","7.7","","78","","","","27","","49","","","","101.53","","","","","","NA"
"-123.53","48.30","RACE ROCKS","1016640","2019-06-19 22:00","2019","06","19","22:00","11.3","","7.6","","78","","","","28","","46","","","","101.56","","","","","","NA"
"-123.53","48.30","RACE ROCKS","1016640","2019-06-19 23:00","2019","06","19","23:00","11.1","","7.7","","80","","","","26","","48","","","","101.47","","","","","","NA"
"-123.53","48.30","RACE ROCKS","1016640","2019-06-20 00:00","2019","06","20","00:00","10.9","","7.8","","81","","","","27","","51","","","","101.45","","","","","","NA"
"-123.53","48.30","RACE ROCKS","1016640","2019-06-20 01:00","2019","06","20","01:00","10.2","","8.5","","89","","","","26","","39","","","","101.46","","","","","","NA"
"-123.53","48.30","RACE ROCKS","1016640","2019-06-20 02:00","2019","06","20","02:00","10.4","","8.8","","90","","","","27","","45","","","","101.46","","","","","","NA"
"-123.53","48.30","RACE ROCKS","1016640","2019-06-20 03:00","2019","06","20","03:00","10.0","","8.8","","92","","","","28","","34","","","","101.51","","","","","","NA"
"-123.53","48.30","RACE ROCKS","1016640","2019-06-20 04:00","2019","06","20","04:00","10.6","","8.5","","87","","","","28","","31","","","","101.51","","","","","","NA"
"-123.53","48.30","RACE ROCKS","1016640","2019-06-20 05:00","2019","06","20","05:00","10.7","","8.0","","83","","","","29","","24","","","","101.56","","","","","","NA"
"-123.53","48.30","RACE ROCKS","1016640","2019-06-20 06:00","2019","06","20","06:00","10.6","","7.9","","84","","","","28","","29","","","","101.54","","","","","","NA"
"-123.53","48.30","RACE ROCKS","1016640","2019-06-20 07:00","2019","06","20","07:00","11.2","","7.7","","79","","","","29","","22","","","","101.59","","","","","","NA"
"-123.53","48.30","RACE ROCKS","1016640","2019-06-20 08:00","2019","06","20","08:00","11.8","","7.8","","77","","","","29","","16","","","","101.61","","","","","","NA"
"-123.53","48.30","RACE ROCKS","1016640","2019-06-20 09:00","2019","06","20","09:00","11.8","","7.5","","75","","","","26","","20","","","","101.58","","","","","","NA"
"-123.53","48.30","RACE ROCKS","1016640","2019-06-20 10:00","2019","06","20","10:00","11.2","","7.8","","80","","","","26","","27","","","","101.53","","","","","","NA"
"-123.53","48.30","RACE ROCKS","1016640","2019-06-20 11:00","2019","06","20","11:00","11.0","","8.2","","83","","","","25","","24","","","","101.51","","","","","","NA"
"-123.53","48.30","RACE ROCKS","1016640","2019-06-20 12:00","2019","06","20","12:00","11.1","","8.8","","86","","","","25","","24","","","","101.49","","","","","","NA"
"-123.53","48.30","RACE ROCKS","1016640","2019-06-20 13:00","2019","06","20","13:00","11.2","","9.2","","88","","","","24","","25","","","","101.47","","","","","","NA"
"-123.53","48.30","RACE ROCKS","1016640","2019-06-20 14:00","2019","06","20","14:00","12.1","","8.8","","80","","","","25","","33","","","","101.40","","","","","","NA"
"-123.53","48.30","RACE ROCKS","1016640","2019-06-20 15:00","2019","06","20","15:00","16.3","","6.8","","53","","","","29","","45","","","","101.38","","","","","","NA"
"-123.53","48.30","RACE ROCKS","1016640","2019-06-20 16:00","2019","06","20","16:00","16.5","","6.0","","50","","","","29","","45","","","","101.32","","","","","","NA"
"-123.53","48.30","RACE ROCKS","1016640","2019-06-20 17:00","2019","06","20","17:00","15.3","","5.9","","53","","","","28","","53","","","","101.24","","","","","","NA"
"-123.53","48.30","RACE ROCKS","1016640","2019-06-20 18:00","2019","06","20","18:00","15.5","","6.0","","53","","","","29","","55","","","","101.26","","","","","","NA"
"-123.53","48.30","RACE ROCKS","1016640","2019-06-20 19:00","2019","06","20","19:00","13.6","","6.0","","60","","","","28","","59","","","","101.26","","","","","","NA"
"-123.53","48.30","RACE ROCKS","1016640","2019-06-20 20:00","2019","06","20","20:00","12.8","","8.4","","74","","","","28","","58","","","","101.27","","","","","","NA"
"-123.53","48.30","RACE ROCKS","1016640","2019-06-20 21:00","2019","06","20","21:00","12.3","","8.5","","78","","","","28","","54","","","","101.29","","","","","","NA"
"-123.53","48.30","RACE ROCKS","1016640","2019-06-20 22:00","2019","06","20","22:00","12.1","","8.5","","79","","","","28","","51","","","","101.33","","","","","","NA"
"-123.53","48.30","RACE ROCKS","1016640","2019-06-20 23:00","2019","06","20","23:00","12.1","","8.5","","79","","","","28","","48","","","","101.36","","","","","","NA"
"-123.53","48.30","RACE ROCKS","1016640","2019-06-21 00:00","2019","06","21","00:00","12.2","","8.4","","78","","","","28","","43","","","","101.39","","","","","","NA"
"-123.53","48.30","RACE ROCKS","1016640","2019-06-21 01:00","2019","06","21","01:00","12.4","","8.3","","76","","","","29","","39","","","","101.44","","","","","","NA"
"-123.53","48.30","RACE ROCKS","1016640","2019-06-21 02:00","2019","06","21","02:00","12.4","","8.4","","77","","","","28","","34","","","","101.47","","","","","","NA"
"-123.53","48.30","RACE ROCKS","1016640","2019-06-21 03:00","2019","06","21","03:00","12.3","","8.5","","78","","","","28","","31","","","","101.50","","","","","","NA"
"-123.53","48.30","RACE ROCKS","1016640","2019-06-21 04:00","2019","06","21","04:00","11.4","","8.9","","85","","","","26","","29","","","","101.52","","","","","","NA"
"-123.53","48.30","RACE ROCKS","1016640","2019-06-21 05:00","2019","06","21","05:00","10.9","","8.8","","87","","","","26","","31","","","","101.55","","","","","","NA"
"-123.53","48.30","RACE ROCKS","1016640","2019-06-21 06:00","2019","06","21","06:00","11.1","","9.0","","87","","","","27","","26","","","","101.62","","","","","","NA"
"-123.53","48.30","RACE ROCKS","1016640","2019-06-21 07:00","2019","06","21","07:00","11.1","","9.1","","87","","","","25","","24","","","","101.67","","","","","","NA"
"-123.53","48.30","RACE ROCKS","1016640","2019-06-21 08:00","2019","06","21","08:00","11.0","","8.8","","86","","","","25","","23","","","","101.70","","","","","","NA"
"-123.53","48.30","RACE ROCKS","1016640","2019-06-21 09:00","2019","06","21","09:00","11.0","","8.8","","86","","","","25","","21","","","","101.72","","","","","","NA"
"-123.53","48.30","RACE ROCKS","1016640","2019-06-21 10:00","2019","06","21","10:00","11.3","","8.8","","85","","","","27","","20","","","","101.74","","","","","","NA"
"-123.53","48.30","RACE ROCKS","1016640","2019-06-21 11:00","2019","06","21","11:00","11.6","","9.1","","84","","","","22","","6","","","","101.78","","","","","","NA"
"-123.53","48.30","RACE ROCKS","1016640","2019-06-21 12:00","2019","06","21","12:00","15.1","","9.7","","70","","","","0","","1","","","","101.78","","","","","","NA"
"-123.53","48.30","RACE ROCKS","1016640","2019-06-21 13:00","2019","06","21","13:00","13.2","","9.3","","77","","","","4","","2","","","","101.76","","","","","","NA"
"-123.53","48.30","RACE ROCKS","1016640","2019-06-21 14:00","2019","06","21","14:00","14.8","","9.5","","71","","","","8","","4","","","","101.75","","","","","","NA"
"-123.53","48.30","RACE ROCKS","1016640","2019-06-21 15:00","2019","06","21","15:00","12.0","","9.7","","86","","","","27","","24","","","","101.75","","","","","","NA"
"-123.53","48.30","RACE ROCKS","1016640","2019-06-21 16:00","2019","06","21","16:00","11.8","","10.1","","90","","","","26","","30","","","","101.71","","","","","","NA"
"-123.53","48.30","RACE ROCKS","1016640","2019-06-21 17:00","2019","06","21","17:00","11.7","","10.0","","89","","","","26","","33","","","","101.71","","","","","","NA"
"-123.53","48.30","RACE ROCKS","1016640","2019-06-21 18:00","2019","06","21","18:00","11.5","","9.9","","90","","","","25","","36","","","","101.69","","","","","","NA"
"-123.53","48.30","RACE ROCKS","1016640","2019-06-21 19:00","2019","06","21","19:00","11.8","","9.6","","87","","","","27","","48","","","","101.65","","","","","","NA"
"-123.53","48.30","RACE ROCKS","1016640","2019-06-21 20:00","2019","06","21","20:00","12.7","","9.7","","82","","","","27","","49","","","","101.64","","","","","","NA"
"-123.53","48.30","RACE ROCKS","1016640","2019-06-21 21:00","2019","06","21","21:00","12.6","","9.5","","82","","","","27","","49","","","","101.71","","","","","","NA"
"-123.53","48.30","RACE ROCKS","1016640","2019-06-21 22:00","2019","06","21","22:00","12.0","","9.3","","84","","","","28","","46","","","","101.76","","","","","","NA"
"-123.53","48.30","RACE ROCKS","1016640","2019-06-21 23:00","2019","06","21","23:00","11.3","","9.2","","87","","","","28","","51","","","","101.80","","","","","","NA"
"-123.53","48.30","RACE ROCKS","1016640","2019-06-22 00:00","2019","06","22","00:00","11.6","","9.4","","87","","","","27","","59","","","","101.74","","","","","","NA"
"-123.53","48.30","RACE ROCKS","1016640","2019-06-22 01:00","2019","06","22","01:00","11.4","","9.3","","87","","","","28","","62","","","","101.77","","","","","","NA"
"-123.53","48.30","RACE ROCKS","1016640","2019-06-22 02:00","2019","06","22","02:00","10.8","","9.5","","91","","","","27","","55","","","","101.81","","","","","","NA"
"-123.53","48.30","RACE ROCKS","1016640","2019-06-22 03:00","2019","06","22","03:00","10.6","","9.6","","93","","","","27","","49","","","","101.83","","","","","","NA"
"-123.53","48.30","RACE ROCKS","1016640","2019-06-22 04:00","2019","06","22","04:00","10.7","","9.8","","94","","","","27","","50","","","","101.83","","","","","","NA"
"-123.53","48.30","RACE ROCKS","1016640","2019-06-22 05:00","2019","06","22","05:00","10.6","","9.8","","95","","","","27","","49","","","","101.84","","","","","","NA"
"-123.53","48.30","RACE ROCKS","1016640","2019-06-22 06:00","2019","06","22","06:00","10.6","","9.8","","95","","","","27","","51","","","","101.86","","","","","","NA"
"-123.53","48.30","RACE ROCKS","1016640","2019-06-22 07:00","2019","06","22","07:00","10.4","","9.6","","95","","","","27","","45","","","","101.89","","","","","","NA"
"-123.53","48.30","RACE ROCKS","1016640","2019-06-22 08:00","2019","06","22","08:00","10.5","","9.5","","94","","","","27","","52","","","","101.90","","","","","","NA"
"-123.53","48.30","RACE ROCKS","1016640","2019-06-22 09:00","2019","06","22","09:00","11.2","","9.4","","89","","","","28","","48","","","","101.92","","","","","","NA"
"-123.53","48.30","RACE ROCKS","1016640","2019-06-22 10:00","2019","06","22","10:00","11.6","","9.2","","85","","","","29","","56","","","","101.90","","","","","","NA"
"-123.53","48.30","RACE ROCKS","1016640","2019-06-22 11:00","2019","06","22","11:00","11.6","","9.1","","85","","","","28","","53","","","","101.89","","","","","","NA"
"-123.53","48.30","RACE ROCKS","1016640","2019-06-22 12:00","2019","06","22","12:00","12.9","","9.1","","77","","","","28","","54","","","","101.85","","","","","","NA"
"-123.53","48.30","RACE ROCKS","1016640","2019-06-22 13:00","2019","06","22","13:00","14.0","","8.4","","69","","","","29","","46","","","","101.85","","","","","","NA"
"-123.53","48.30","RACE ROCKS","1016640","2019-06-22 14:00","2019","06","22","14:00","13.0","","8.9","","76","","","","28","","54","","","","101.82","","","","","","NA"
"-123.53","48.30","RACE ROCKS","1016640","2019-06-22 15:00","2019","06","22","15:00","13.9","","9.7","","76","","","","28","","51","","","","101.81","","","","","","NA"
"-123.53","48.30","RACE ROCKS","1016640","2019-06-22 16:00","2019","06","22","16:00","14.1","","10.2","","77","","","","29","","49","","","","101.81","","","","","","NA"
"-123.53","48.30","RACE ROCKS","1016640","2019-06-22 17:00","2019","06","22","17:00","13.1","","9.6","","79","","","","28","","55","","","","101.74","","","","","","NA"
"-123.53","48.30","RACE ROCKS","1016640","2019-06-22 18:00","2019","06","22","18:00","12.4","","9.8","","85","","","","28","","58","","","","101.75","","","","","","NA"
"-123.53","48.30","RACE ROCKS","1016640","2019-06-22 19:00","2019","06","22","19:00","11.8","","9.9","","89","","","","28","","57","","","","101.74","","","","","","NA"
"-123.53","48.30","RACE ROCKS","1016640","2019-06-22 20:00","2019","06","22","20:00","11.0","","9.8","","92","","","","27","","64","","","","101.69","","","","","","NA"
"-123.53","48.30","RACE ROCKS","1016640","2019-06-22 21:00","2019","06","22","21:00","11.6","","9.4","","87","","","","27","","64","","","","101.73","","","","","","NA"
"-123.53","48.30","RACE ROCKS","1016640","2019-06-22 22:00","2019","06","22","22:00","11.3","","9.1","","86","","","","27","","61","","","","101.72","","","","","","NA"
"-123.53","48.30","RACE ROCKS","1016640","2019-06-22 23:00","2019","06","22","23:00","11.2","","9.1","","87","","","","27","","55","","","","101.73","","","","","","NA"
"-123.53","48.30","RACE ROCKS","1016640","2019-06-23 00:00","2019","06","23","00:00","11.1","","9.1","","88","","","","27","","57","","","","101.71","","","","","","NA"
"-123.53","48.30","RACE ROCKS","1016640","2019-06-23 01:00","2019","06","23","01:00","10.8","","9.1","","89","","","","27","","57","","","","101.68","","","","","","NA"
"-123.53","48.30","RACE ROCKS","1016640","2019-06-23 02:00","2019","06","23","02:00","10.9","","9.0","","88","","","","27","","48","","","","101.73","","","","","","NA"
"-123.53","48.30","RACE ROCKS","1016640","2019-06-23 03:00","2019","06","23","03:00","11.0","","9.2","","89","","","","28","","49","","","","101.73","","","","","","NA"
"-123.53","48.30","RACE ROCKS","1016640","2019-06-23 04:00","2019","06","23","04:00","11.1","","9.2","","88","","","","28","","52","","","","101.72","","","","","","NA"
"-123.53","48.30","RACE ROCKS","1016640","2019-06-23 05:00","2019","06","23","05:00","11.4","","9.2","","87","","","","28","","46","","","","101.70","","","","","","NA"
"-123.53","48.30","RACE ROCKS","1016640","2019-06-23 06:00","2019","06","23","06:00","11.4","","9.2","","87","","","","28","","50","","","","101.71","","","","","","NA"
"-123.53","48.30","RACE ROCKS","1016640","2019-06-23 07:00","2019","06","23","07:00","11.5","","8.9","","84","","","","28","","51","","","","101.69","","","","","","NA"
"-123.53","48.30","RACE ROCKS","1016640","2019-06-23 08:00","2019","06","23","08:00","11.4","","8.7","","83","","","","28","","52","","","","101.70","","","","","","NA"
"-123.53","48.30","RACE ROCKS","1016640","2019-06-23 09:00","2019","06","23","09:00","11.6","","8.4","","81","","","","27","","63","","","","101.64","","","","","","NA"
"-123.53","48.30","RACE ROCKS","1016640","2019-06-23 10:00","2019","06","23","10:00","12.4","","8.4","","77","","","","27","","58","","","","101.68","","","","","","NA"
"-123.53","48.30","RACE ROCKS","1016640","2019-06-23 11:00","2019","06","23","11:00","12.0","","8.7","","80","","","","28","","46","","","","101.77","","","","","","NA"
"-123.53","48.30","RACE ROCKS","1016640","2019-06-23 12:00","2019","06","23","12:00","11.3","","9.1","","86","","","","28","","47","","","","101.77","","","","","","NA"
"-123.53","48.30","RACE ROCKS","1016640","2019-06-23 13:00","2019","06","23","13:00","11.4","","9.1","","86","","","","28","","50","","","","101.77","","","","","","NA"
"-123.53","48.30","RACE ROCKS","1016640","2019-06-23 14:00","2019","06","23","14:00","11.7","","8.8","","82","","","","28","","45","","","","101.77","","","","","","NA"
"-123.53","48.30","RACE ROCKS","1016640","2019-06-23 15:00","2019","06","23","15:00","12.1","","8.9","","81","","","","28","","48","","","","101.76","","","","","","NA"
"-123.53","48.30","RACE ROCKS","1016640","2019-06-23 16:00","2019","06","23","16:00","12.5","","9.0","","79","","","","28","","50","","","","101.73","","","","","","NA"
"-123.53","48.30","RACE ROCKS","1016640","2019-06-23 17:00","2019","06","23","17:00","11.6","","9.1","","85","","","","27","","47","","","","101.71","","","","","","NA"
"-123.53","48.30","RACE ROCKS","1016640","2019-06-23 18:00","2019","06","23","18:00","11.7","","9.7","","87","","","","26","","45","","","","101.65","","","","","","NA"
"-123.53","48.30","RACE ROCKS","1016640","2019-06-23 19:00","2019","06","23","19:00","11.2","","9.3","","88","","","","27","","38","","","","101.67","","","","","","NA"
"-123.53","48.30","RACE ROCKS","1016640","2019-06-23 20:00","2019","06","23","20:00","11.4","","9.3","","87","","","","27","","51","","","","101.60","","","","","","NA"
"-123.53","48.30","RACE ROCKS","1016640","2019-06-23 21:00","2019","06","23","21:00","11.8","","9.2","","84","","","","27","","55","","","","101.58","","","","","","NA"
"-123.53","48.30","RACE ROCKS","1016640","2019-06-23 22:00","2019","06","23","22:00","11.8","","8.8","","82","","","","27","","54","","","","101.55","","","","","","NA"
"-123.53","48.30","RACE ROCKS","1016640","2019-06-23 23:00","2019","06","23","23:00","11.5","","9.0","","85","","","","27","","45","","","","101.57","","","","","","NA"
"-123.53","48.30","RACE ROCKS","1016640","2019-06-24 00:00","2019","06","24","00:00","11.6","","8.9","","84","","","","27","","44","","","","101.53","","","","","","NA"
"-123.53","48.30","RACE ROCKS","1016640","2019-06-24 01:00","2019","06","24","01:00","11.4","","9.0","","85","","","","27","","36","","","","101.54","","","","","","NA"
"-123.53","48.30","RACE ROCKS","1016640","2019-06-24 02:00","2019","06","24","02:00","11.0","","9.4","","90","","","","27","","41","","","","101.50","","","","","","NA"
"-123.53","48.30","RACE ROCKS","1016640","2019-06-24 03:00","2019","06","24","03:00","10.9","","9.5","","91","","","","26","","45","","","","101.45","","","","","","NA"
"-123.53","48.30","RACE ROCKS","1016640","2019-06-24 04:00","2019","06","24","04:00","10.9","","9.3","","90","","","","27","","42","","","","101.46","","","","","","NA"
"-123.53","48.30","RACE ROCKS","1016640","2019-06-24 05:00","2019","06","24","05:00","10.9","","9.5","","91","","","","28","","40","","","","101.47","","","","","","NA"
"-123.53","48.30","RACE ROCKS","1016640","2019-06-24 06:00","2019","06","24","06:00","10.6","","9.5","","93","","","","28","","35","","","","101.46","","","","","","NA"
"-123.53","48.30","RACE ROCKS","1016640","2019-06-24 07:00","2019","06","24","07:00","10.7","","9.5","","93","","","","27","","34","","","","101.43","","","","","","NA"
"-123.53","48.30","RACE ROCKS","1016640","2019-06-24 08:00","2019","06","24","08:00","10.7","","9.4","","92","","","","27","","37","","","","101.42","","","","","","NA"
"-123.53","48.30","RACE ROCKS","1016640","2019-06-24 09:00","2019","06","24","09:00","11.0","","9.0","","88","","","","27","","39","","","","101.41","","","","","","NA"
"-123.53","48.30","RACE ROCKS","1016640","2019-06-24 10:00","2019","06","24","10:00","11.0","","9.0","","88","","","","27","","36","","","","101.38","","","","","","NA"
"-123.53","48.30","RACE ROCKS","1016640","2019-06-24 11:00","2019","06","24","11:00","11.2","","9.0","","86","","","","27","","34","","","","101.39","","","","","","NA"
"-123.53","48.30","RACE ROCKS","1016640","2019-06-24 12:00","2019","06","24","12:00","12.9","","7.7","","70","","","","28","","39","","","","101.36","","","","","","NA"
"-123.53","48.30","RACE ROCKS","1016640","2019-06-24 13:00","2019","06","24","13:00","13.2","","7.1","","66","","","","28","","35","","","","101.34","","","","","","NA"
"-123.53","48.30","RACE ROCKS","1016640","2019-06-24 14:00","2019","06","24","14:00","14.1","","5.8","","57","","","","28","","30","","","","101.29","","","","","","NA"
"-123.53","48.30","RACE ROCKS","1016640","2019-06-24 15:00","2019","06","24","15:00","12.2","","8.7","","79","","","","26","","29","","","","101.24","","","","","","NA"
"-123.53","48.30","RACE ROCKS","1016640","2019-06-24 16:00","2019","06","24","16:00","12.0","","9.1","","82","","","","26","","31","","","","101.18","","","","","","NA"
"-123.53","48.30","RACE ROCKS","1016640","2019-06-24 17:00","2019","06","24","17:00","12.2","","8.8","","80","","","","28","","44","","","","101.12","","","","","","NA"
"-123.53","48.30","RACE ROCKS","1016640","2019-06-24 18:00","2019","06","24","18:00","12.6","","8.8","","78","","","","27","","37","","","","101.07","","","","","","NA"
"-123.53","48.30","RACE ROCKS","1016640","2019-06-24 19:00","2019","06","24","19:00","13.0","","7.2","","68","","","","27","","39","","","","101.04","","","","","","NA"
"-123.53","48.30","RACE ROCKS","1016640","2019-06-24 20:00","2019","06","24","20:00","12.6","","6.9","","68","","","","28","","40","","","","100.99","","","","","","NA"
"-123.53","48.30","RACE ROCKS","1016640","2019-06-24 21:00","2019","06","24","21:00","12.4","","6.9","","69","","","","27","","38","","","","100.98","","","","","","NA"
"-123.53","48.30","RACE ROCKS","1016640","2019-06-24 22:00","2019","06","24","22:00","11.3","","7.8","","79","","","","27","","33","","","","100.98","","","","","","NA"
"-123.53","48.30","RACE ROCKS","1016640","2019-06-24 23:00","2019","06","24","23:00","11.0","","9.0","","88","","","","25","","31","","","","100.97","","","","","","NA"
"-123.53","48.30","RACE ROCKS","1016640","2019-06-25 00:00","2019","06","25","00:00","11.0","","8.9","","87","","","","25","","29","","","","100.94","","","","","","NA"
"-123.53","48.30","RACE ROCKS","1016640","2019-06-25 01:00","2019","06","25","01:00","10.7","","8.9","","89","","","","27","","24","","","","100.92","","","","","","NA"
"-123.53","48.30","RACE ROCKS","1016640","2019-06-25 02:00","2019","06","25","02:00","10.6","","8.8","","89","","","","27","","24","","","","100.88","","","","","","NA"
"-123.53","48.30","RACE ROCKS","1016640","2019-06-25 03:00","2019","06","25","03:00","10.4","","8.6","","88","","","","26","","18","","","","100.86","","","","","","NA"
"-123.53","48.30","RACE ROCKS","1016640","2019-06-25 04:00","2019","06","25","04:00","10.0","","8.4","","90","","","","28","","8","","","","100.86","","","","","","NA"
"-123.53","48.30","RACE ROCKS","1016640","2019-06-25 05:00","2019","06","25","05:00","10.7","","7.9","","83","","","","27","","11","","","","100.87","","","","","","NA"
"-123.53","48.30","RACE ROCKS","1016640","2019-06-25 06:00","2019","06","25","06:00","11.4","","8.6","","83","","","","32","","4","","","","100.88","","","","","","NA"
"-123.53","48.30","RACE ROCKS","1016640","2019-06-25 07:00","2019","06","25","07:00","12.2","","8.3","","77","","","","2","","2","","","","100.88","","","","","","NA"
"-123.53","48.30","RACE ROCKS","1016640","2019-06-25 08:00","2019","06","25","08:00","12.3","","8.4","","77","","","","8","","12","","","","100.87","","","","","","NA"
"-123.53","48.30","RACE ROCKS","1016640","2019-06-25 09:00","2019","06","25","09:00","12.5","","9.1","","80","","","","11","","11","","","","100.86","","","","","","NA"
"-123.53","48.30","RACE ROCKS","1016640","2019-06-25 10:00","2019","06","25","10:00","13.5","","10.3","","81","","","","11","","11","","","","100.86","","","","","","NA"
"-123.53","48.30","RACE ROCKS","1016640","2019-06-25 11:00","2019","06","25","11:00","13.9","","10.4","","79","","","","14","","9","","","","100.84","","","","","","NA"
"-123.53","48.30","RACE ROCKS","1016640","2019-06-25 12:00","2019","06","25","12:00","13.7","","10.4","","80","","","","14","","11","","","","100.81","","","","","","NA"
"-123.53","48.30","RACE ROCKS","1016640","2019-06-25 13:00","2019","06","25","13:00","15.0","","10.3","","73","","","","16","","9","","","","100.80","","","","","","NA"
"-123.53","48.30","RACE ROCKS","1016640","2019-06-25 14:00","2019","06","25","14:00","13.7","","8.7","","72","","","","27","","25","","","","100.78","","","","","","NA"
"-123.53","48.30","RACE ROCKS","1016640","2019-06-25 15:00","2019","06","25","15:00","13.9","","8.7","","71","","","","27","","34","","","","100.72","","","","","","NA"
"-123.53","48.30","RACE ROCKS","1016640","2019-06-25 16:00","2019","06","25","16:00","12.7","","10.2","","85","","","","26","","28","","","","100.71","","","","","","NA"
"-123.53","48.30","RACE ROCKS","1016640","2019-06-25 17:00","2019","06","25","17:00","12.8","","10.0","","83","","","","25","","32","","","","100.67","","","","","","NA"
"-123.53","48.30","RACE ROCKS","1016640","2019-06-25 18:00","2019","06","25","18:00","12.4","","9.4","","82","","","","28","","33","","","","100.70","","","","","","NA"
"-123.53","48.30","RACE ROCKS","1016640","2019-06-25 19:00","2019","06","25","19:00","12.2","","9.6","","84","","","","26","","35","","","","100.73","","","","","","NA"
"-123.53","48.30","RACE ROCKS","1016640","2019-06-25 20:00","2019","06","25","20:00","12.2","","9.4","","83","","","","25","","43","","","","100.73","","","","","","NA"
"-123.53","48.30","RACE ROCKS","1016640","2019-06-25 21:00","2019","06","25","21:00","12.7","","9.1","","78","","","","28","","42","","","","100.79","","","","","","NA"
"-123.53","48.30","RACE ROCKS","1016640","2019-06-25 22:00","2019","06","25","22:00","13.6","","8.0","","69","","","","28","","39","","","","100.79","","","","","","NA"
"-123.53","48.30","RACE ROCKS","1016640","2019-06-25 23:00","2019","06","25","23:00","12.1","","9.8","","86","","","","27","","39","","","","100.81","","","","","","NA"
"-123.53","48.30","RACE ROCKS","1016640","2019-06-26 00:00","2019","06","26","00:00","11.7","","9.8","","88","","","","27","","42","","","","100.79","","","","","","NA"
"-123.53","48.30","RACE ROCKS","1016640","2019-06-26 01:00","2019","06","26","01:00","11.5","","9.8","","89","","","","26","","35","","","","100.83","","","","","","NA"
"-123.53","48.30","RACE ROCKS","1016640","2019-06-26 02:00","2019","06","26","02:00","11.4","","9.8","","90","","","","27","","34","","","","100.83","","","","","","NA"
"-123.53","48.30","RACE ROCKS","1016640","2019-06-26 03:00","2019","06","26","03:00","12.1","","10.1","","88","","","","27","","37","","","","100.80","","","","","","NA"
"-123.53","48.30","RACE ROCKS","1016640","2019-06-26 04:00","2019","06","26","04:00","11.7","","10.2","","90","","","","27","","31","","","","100.83","","","","","","NA"
"-123.53","48.30","RACE ROCKS","1016640","2019-06-26 05:00","2019","06","26","05:00","11.9","","10.1","","89","","","","27","","33","","","","100.86","","","","","","NA"
"-123.53","48.30","RACE ROCKS","1016640","2019-06-26 06:00","2019","06","26","06:00","11.8","","10.4","","91","","","","26","","27","","","","100.89","","","","","","NA"
"-123.53","48.30","RACE ROCKS","1016640","2019-06-26 07:00","2019","06","26","07:00","12.0","","10.4","","90","","","","26","","27","","","","100.90","","","","","","NA"
"-123.53","48.30","RACE ROCKS","1016640","2019-06-26 08:00","2019","06","26","08:00","11.8","","10.3","","90","","","","27","","27","","","","100.91","","","","","","NA"
"-123.53","48.30","RACE ROCKS","1016640","2019-06-26 09:00","2019","06","26","09:00","12.5","","10.4","","87","","","","27","","25","","","","100.90","","","","","","NA"
"-123.53","48.30","RACE ROCKS","1016640","2019-06-26 10:00","2019","06","26","10:00","11.8","","10.5","","91","","","","25","","25","","","","100.88","","","","","","NA"
"-123.53","48.30","RACE ROCKS","1016640","2019-06-26 11:00","2019","06","26","11:00","12.1","","10.7","","91","","","","26","","21","","","","100.87","","","","","","NA"
"-123.53","48.30","RACE ROCKS","1016640","2019-06-26 12:00","2019","06","26","12:00","12.2","","10.6","","90","","","","26","","20","","","","100.86","","","","","","NA"
"-123.53","48.30","RACE ROCKS","1016640","2019-06-26 13:00","2019","06","26","13:00","12.4","","10.5","","88","","","","26","","26","","","","100.79","","","","","","NA"
"-123.53","48.30","RACE ROCKS","1016640","2019-06-26 14:00","2019","06","26","14:00","12.4","","10.8","","90","","","","26","","29","","","","100.78","","","","","","NA"
"-123.53","48.30","RACE ROCKS","1016640","2019-06-26 15:00","2019","06","26","15:00","12.2","","10.7","","91","","","","27","","37","","","","100.72","","","","","","NA"
"-123.53","48.30","RACE ROCKS","1016640","2019-06-26 16:00","2019","06","26","16:00","12.3","","10.6","","89","","","","26","","35","","","","100.70","","","","","","NA"
"-123.53","48.30","RACE ROCKS","1016640","2019-06-26 17:00","2019","06","26","17:00","12.4","","11.0","","91","","","","27","","40","","","","100.76","","","","","","NA"
"-123.53","48.30","RACE ROCKS","1016640","2019-06-26 18:00","2019","06","26","18:00","12.8","","10.8","","87","","","","27","","39","","","","100.80","","","","","","NA"
"-123.53","48.30","RACE ROCKS","1016640","2019-06-26 19:00","2019","06","26","19:00","12.6","","10.9","","90","","","","25","","28","","","","100.85","","","","","","NA"
"-123.53","48.30","RACE ROCKS","1016640","2019-06-26 20:00","2019","06","26","20:00","12.5","","10.9","","90","","","","25","","29","","","","100.79","","","","","","NA"
"-123.53","48.30","RACE ROCKS","1016640","2019-06-26 21:00","2019","06","26","21:00","12.6","","11.3","","92","","","","25","","32","","","","100.83","","","","","","NA"
"-123.53","48.30","RACE ROCKS","1016640","2019-06-26 22:00","2019","06","26","22:00","12.3","","11.0","","92","","","","26","","34","","","","100.85","","","","","","NA"
"-123.53","48.30","RACE ROCKS","1016640","2019-06-26 23:00","2019","06","26","23:00","13.4","","10.7","","84","","","","27","","42","","","","100.82","","","","","","NA"
"-123.53","48.30","RACE ROCKS","1016640","2019-06-27 00:00","2019","06","27","00:00","12.9","","10.5","","85","","","","27","","41","","","","100.81","","","","","","NA"
"-123.53","48.30","RACE ROCKS","1016640","2019-06-27 01:00","2019","06","27","01:00","13.1","","10.9","","87","","","","27","","38","","","","100.80","","","","","","NA"
"-123.53","48.30","RACE ROCKS","1016640","2019-06-27 02:00","2019","06","27","02:00","13.5","","10.8","","84","","","","27","","36","","","","100.79","","","","","","NA"
"-123.53","48.30","RACE ROCKS","1016640","2019-06-27 03:00","2019","06","27","03:00","13.4","","10.8","","84","","","","28","","39","","","","100.83","","","","","","NA"
"-123.53","48.30","RACE ROCKS","1016640","2019-06-27 04:00","2019","06","27","04:00","12.8","","11.1","","89","","","","28","","33","","","","100.93","","","","","","NA"
"-123.53","48.30","RACE ROCKS","1016640","2019-06-27 05:00","2019","06","27","05:00","12.7","","11.2","","91","","","","28","","26","","","","100.99","","","","","","NA"
"-123.53","48.30","RACE ROCKS","1016640","2019-06-27 06:00","2019","06","27","06:00","12.4","","11.1","","92","","","","27","","26","","","","101.02","","","","","","NA"
"-123.53","48.30","RACE ROCKS","1016640","2019-06-27 07:00","2019","06","27","07:00","12.0","","11.0","","94","","","","28","","20","","","","101.07","","","","","","NA"
"-123.53","48.30","RACE ROCKS","1016640","2019-06-27 08:00","2019","06","27","08:00","12.9","","11.3","","90","","","","28","","21","","","","101.11","","","","","","NA"
"-123.53","48.30","RACE ROCKS","1016640","2019-06-27 09:00","2019","06","27","09:00","12.3","","11.1","","92","","","","22","","13","","","","101.19","","","","","","NA"
"-123.53","48.30","RACE ROCKS","1016640","2019-06-27 10:00","2019","06","27","10:00","12.9","","11.1","","89","","","","21","","17","","","","101.24","","","","","","NA"
"-123.53","48.30","RACE ROCKS","1016640","2019-06-27 11:00","2019","06","27","11:00","13.4","","11.2","","86","","","","25","","19","","","","101.28","","","","","","NA"
"-123.53","48.30","RACE ROCKS","1016640","2019-06-27 12:00","2019","06","27","12:00","13.1","","11.2","","88","","","","24","","14","","","","101.35","","","","","","NA"
"-123.53","48.30","RACE ROCKS","1016640","2019-06-27 13:00","2019","06","27","13:00","13.8","","11.0","","84","","","","25","","16","","","","101.35","","","","","","NA"
"-123.53","48.30","RACE ROCKS","1016640","2019-06-27 14:00","2019","06","27","14:00","14.6","","11.0","","79","","","","24","","18","","","","101.36","","","","","","NA"
"-123.53","48.30","RACE ROCKS","1016640","2019-06-27 15:00","2019","06","27","15:00","13.6","","10.9","","84","","","","23","","24","","","","101.38","","","","","","NA"
"-123.53","48.30","RACE ROCKS","1016640","2019-06-27 16:00","2019","06","27","16:00","13.5","","10.7","","83","","","","27","","37","","","","101.36","","","","","","NA"
"-123.53","48.30","RACE ROCKS","1016640","2019-06-27 17:00","2019","06","27","17:00","12.5","","11.0","","91","","","","28","","26","","","","101.42","","","","","","NA"
"-123.53","48.30","RACE ROCKS","1016640","2019-06-27 18:00","2019","06","27","18:00","12.2","","11.0","","92","","","","27","","31","","","","101.43","","","","","","NA"
"-123.53","48.30","RACE ROCKS","1016640","2019-06-27 19:00","2019","06","27","19:00","12.0","","11.1","","94","","","","27","","24","","","","101.44","","","","","","NA"
"-123.53","48.30","RACE ROCKS","1016640","2019-06-27 20:00","2019","06","27","20:00","12.2","","11.1","","94","","","","25","","23","","","","101.45","","","","","","NA"
"-123.53","48.30","RACE ROCKS","1016640","2019-06-27 21:00","2019","06","27","21:00","12.1","","11.2","","94","","","","25","","19","","","","101.50","","","","","","NA"
"-123.53","48.30","RACE ROCKS","1016640","2019-06-27 22:00","2019","06","27","22:00","12.4","","11.2","","92","","","","25","","27","","","","101.50","","","","","","NA"
"-123.53","48.30","RACE ROCKS","1016640","2019-06-27 23:00","2019","06","27","23:00","12.8","","11.1","","90","","","","24","","30","","","","101.48","","","","","","NA"
"-123.53","48.30","RACE ROCKS","1016640","2019-06-28 00:00","2019","06","28","00:00","12.5","","10.8","","89","","","","27","","22","","","","101.52","","","","","","NA"
"-123.53","48.30","RACE ROCKS","1016640","2019-06-28 01:00","2019","06","28","01:00","12.2","","10.9","","92","","","","26","","19","","","","101.53","","","","","","NA"
"-123.53","48.30","RACE ROCKS","1016640","2019-06-28 02:00","2019","06","28","02:00","12.0","","10.7","","92","","","","26","","23","","","","101.53","","","","","","NA"
"-123.53","48.30","RACE ROCKS","1016640","2019-06-28 03:00","2019","06","28","03:00","12.2","","10.9","","92","","","","24","","21","","","","101.55","","","","","","NA"
"-123.53","48.30","RACE ROCKS","1016640","2019-06-28 04:00","2019","06","28","04:00","12.3","","10.7","","90","","","","26","","22","","","","101.55","","","","","","NA"
"-123.53","48.30","RACE ROCKS","1016640","2019-06-28 05:00","2019","06","28","05:00","11.9","","10.6","","92","","","","23","","12","","","","101.57","","","","","","NA"
"-123.53","48.30","RACE ROCKS","1016640","2019-06-28 06:00","2019","06","28","06:00","12.5","","11.0","","91","","","","21","","9","","","","101.60","","","","","","NA"
"-123.53","48.30","RACE ROCKS","1016640","2019-06-28 07:00","2019","06","28","07:00","12.7","","10.3","","86","","","","22","","8","","","","101.62","","","","","","NA"
"-123.53","48.30","RACE ROCKS","1016640","2019-06-28 08:00","2019","06","28","08:00","12.6","","10.0","","84","","","","24","","10","","","","101.60","","","","","","NA"
"-123.53","48.30","RACE ROCKS","1016640","2019-06-28 09:00","2019","06","28","09:00","12.7","","10.4","","86","","","","23","","7","","","","101.63","","","","","","NA"
"-123.53","48.30","RACE ROCKS","1016640","2019-06-28 10:00","2019","06","28","10:00","15.4","","11.5","","78","","","","17","","7","","","","101.64","","","","","","NA"
"-123.53","48.30","RACE ROCKS","1016640","2019-06-28 11:00","2019","06","28","11:00","15.5","","10.9","","74","","","","17","","8","","","","101.64","","","","","","NA"
"-123.53","48.30","RACE ROCKS","1016640","2019-06-28 12:00","2019","06","28","12:00","13.8","","11.1","","84","","","","19","","8","","","","101.64","","","","","","NA"
"-123.53","48.30","RACE ROCKS","1016640","2019-06-28 13:00","2019","06","28","13:00","14.0","","11.4","","84","","","","18","","10","","","","101.63","","","","","","NA"
"-123.53","48.30","RACE ROCKS","1016640","2019-06-28 14:00","2019","06","28","14:00","14.7","","10.3","","75","","","","20","","11","","","","101.62","","","","","","NA"
"-123.53","48.30","RACE ROCKS","1016640","2019-06-28 15:00","2019","06","28","15:00","14.1","","11.2","","83","","","","26","","22","","","","101.62","","","","","","NA"
"-123.53","48.30","RACE ROCKS","1016640","2019-06-28 16:00","2019","06","28","16:00","13.6","","10.9","","84","","","","26","","26","","","","101.62","","","","","","NA"
"-123.53","48.30","RACE ROCKS","1016640","2019-06-28 17:00","2019","06","28","17:00","13.3","","11.1","","86","","","","23","","25","","","","101.61","","","","","","NA"
"-123.53","48.30","RACE ROCKS","1016640","2019-06-28 18:00","2019","06","28","18:00","12.9","","11.2","","89","","","","23","","22","","","","101.62","","","","","","NA"
"-123.53","48.30","RACE ROCKS","1016640","2019-06-28 19:00","2019","06","28","19:00","12.8","","11.2","","90","","","","25","","23","","","","101.63","","","","","","NA"
"-123.53","48.30","RACE ROCKS","1016640","2019-06-28 20:00","2019","06","28","20:00","13.2","","11.5","","90","","","","25","","21","","","","101.63","","","","","","NA"
"-123.53","48.30","RACE ROCKS","1016640","2019-06-28 21:00","2019","06","28","21:00","13.2","","11.7","","91","","","","25","","21","","","","101.63","","","","","","NA"
"-123.53","48.30","RACE ROCKS","1016640","2019-06-28 22:00","2019","06","28","22:00","13.1","","11.8","","92","","","","28","","30","","","","101.58","","","","","","NA"
"-123.53","48.30","RACE ROCKS","1016640","2019-06-28 23:00","2019","06","28","23:00","12.8","","11.8","","94","","","","26","","25","","","","101.59","","","","","","NA"
"-123.53","48.30","RACE ROCKS","1016640","2019-06-29 00:00","2019","06","29","00:00","12.4","","11.7","","95","","","","27","","22","","","","101.63","","","","","","NA"
"-123.53","48.30","RACE ROCKS","1016640","2019-06-29 01:00","2019","06","29","01:00","12.5","","11.7","","95","","","","28","","21","","","","101.64","","","","","","NA"
"-123.53","48.30","RACE ROCKS","1016640","2019-06-29 02:00","2019","06","29","02:00","12.3","","11.6","","95","","","","28","","23","","","","101.64","","","","","","NA"
"-123.53","48.30","RACE ROCKS","1016640","2019-06-29 03:00","2019","06","29","03:00","11.8","","11.3","","97","","","","27","","22","","","","101.63","","","","","","NA"
"-123.53","48.30","RACE ROCKS","1016640","2019-06-29 04:00","2019","06","29","04:00","11.3","","10.8","","97","","","","27","","23","","","","101.62","","","","","","NA"
"-123.53","48.30","RACE ROCKS","1016640","2019-06-29 05:00","2019","06","29","05:00","11.6","","11.0","","96","","","","27","","23","","","","101.66","","","","","","NA"
"-123.53","48.30","RACE ROCKS","1016640","2019-06-29 06:00","2019","06","29","06:00","11.6","","10.6","","94","","","","27","","20","","","","101.71","","","","","","NA"
"-123.53","48.30","RACE ROCKS","1016640","2019-06-29 07:00","2019","06","29","07:00","11.0","","10.3","","95","","","","26","","19","","","","101.74","","","","","","NA"
"-123.53","48.30","RACE ROCKS","1016640","2019-06-29 08:00","2019","06","29","08:00","11.7","","11.1","","96","","","","27","","14","","","","101.77","","","","","","NA"
"-123.53","48.30","RACE ROCKS","1016640","2019-06-29 09:00","2019","06","29","09:00","12.6","","11.0","","90","","","","25","","13","","","","101.80","","","","","","NA"
"-123.53","48.30","RACE ROCKS","1016640","2019-06-29 10:00","2019","06","29","10:00","12.3","","11.0","","92","","","","25","","9","","","","101.82","","","","","","NA"
"-123.53","48.30","RACE ROCKS","1016640","2019-06-29 11:00","2019","06","29","11:00","12.6","","11.3","","92","","","","23","","10","","","","101.80","","","","","","NA"
"-123.53","48.30","RACE ROCKS","1016640","2019-06-29 12:00","2019","06","29","12:00","13.1","","11.1","","88","","","","22","","7","","","","101.81","","","","","","NA"
"-123.53","48.30","RACE ROCKS","1016640","2019-06-29 13:00","2019","06","29","13:00","14.1","","11.2","","83","","","","24","","6","","","","101.81","","","","","","NA"
"-123.53","48.30","RACE ROCKS","1016640","2019-06-29 14:00","2019","06","29","14:00","13.7","","11.6","","88","","","","25","","15","","","","101.79","","","","","","NA"
"-123.53","48.30","RACE ROCKS","1016640","2019-06-29 15:00","2019","06","29","15:00","13.3","","11.5","","89","","","","26","","21","","","","101.77","","","","","","NA"
"-123.53","48.30","RACE ROCKS","1016640","2019-06-29 16:00","2019","06","29","16:00","13.9","","11.6","","86","","","","26","","24","","","","101.72","","","","","","NA"
"-123.53","48.30","RACE ROCKS","1016640","2019-06-29 17:00","2019","06","29","17:00","13.7","","11.7","","88","","","","26","","25","","","","101.66","","","","","","NA"
"-123.53","48.30","RACE ROCKS","1016640","2019-06-29 18:00","2019","06","29","18:00","14.0","","11.8","","87","","","","26","","24","","","","101.64","","","","","","NA"
"-123.53","48.30","RACE ROCKS","1016640","2019-06-29 19:00","2019","06","29","19:00","13.5","","11.6","","89","","","","25","","26","","","","101.65","","","","","","NA"
"-123.53","48.30","RACE ROCKS","1016640","2019-06-29 20:00","2019","06","29","20:00","13.2","","11.8","","91","","","","26","","25","","","","101.69","","","","","","NA"
"-123.53","48.30","RACE ROCKS","1016640","2019-06-29 21:00","2019","06","29","21:00","13.3","","11.8","","91","","","","26","","23","","","","101.73","","","","","","NA"
"-123.53","48.30","RACE ROCKS","1016640","2019-06-29 22:00","2019","06","29","22:00","13.2","","11.9","","92","","","","26","","21","","","","101.73","","","","","","NA"
"-123.53","48.30","RACE ROCKS","1016640","2019-06-29 23:00","2019","06","29","23:00","13.5","","11.2","","87","","","","27","","20","","","","101.72","","","","","","NA"
"-123.53","48.30","RACE ROCKS","1016640","2019-06-30 00:00","2019","06","30","00:00","13.4","","11.4","","88","","","","27","","24","","","","101.72","","","","","","NA"
"-123.53","48.30","RACE ROCKS","1016640","2019-06-30 01:00","2019","06","30","01:00","13.0","","10.9","","87","","","","27","","22","","","","101.70","","","","","","NA"
"-123.53","48.30","RACE ROCKS","1016640","2019-06-30 02:00","2019","06","30","02:00","12.9","","10.7","","87","","","","26","","18","","","","101.72","","","","","","NA"
"-123.53","48.30","RACE ROCKS","1016640","2019-06-30 03:00","2019","06","30","03:00","13.6","","11.2","","85","","","","27","","13","","","","101.71","","","","","","NA"
"-123.53","48.30","RACE ROCKS","1016640","2019-06-30 04:00","2019","06","30","04:00","13.3","","10.7","","85","","","","27","","7","","","","101.71","","","","","","NA"
"-123.53","48.30","RACE ROCKS","1016640","2019-06-30 05:00","2019","06","30","05:00","13.9","","10.3","","79","","","","7","","4","","","","101.75","","","","","","NA"
"-123.53","48.30","RACE ROCKS","1016640","2019-06-30 06:00","2019","06","30","06:00","13.3","","10.5","","83","","","","21","","2","","","","101.78","","","","","","NA"
"-123.53","48.30","RACE ROCKS","1016640","2019-06-30 07:00","2019","06","30","07:00","15.9","","12.8","","82","","","","","","0","","","","101.81","","","","","","NA"
"-123.53","48.30","RACE ROCKS","1016640","2019-06-30 08:00","2019","06","30","08:00","14.8","","10.8","","77","","","","0","","1","","","","101.81","","","","","","NA"
"-123.53","48.30","RACE ROCKS","1016640","2019-06-30 09:00","2019","06","30","09:00","16.1","","11.2","","73","","","","11","","1","","","","101.80","","","","","","NA"
"-123.53","48.30","RACE ROCKS","1016640","2019-06-30 10:00","2019","06","30","10:00","16.6","","11.2","","70","","","","17","","9","","","","101.77","","","","","","NA"
"-123.53","48.30","RACE ROCKS","1016640","2019-06-30 11:00","2019","06","30","11:00","15.3","","11.5","","78","","","","17","","11","","","","101.75","","","","","","NA"
"-123.53","48.30","RACE ROCKS","1016640","2019-06-30 12:00","2019","06","30","12:00","17.7","","11.9","","69","","","","15","","7","","","","101.72","","","","","","NA"
"-123.53","48.30","RACE ROCKS","1016640","2019-06-30 13:00","2019","06","30","13:00","17.3","","11.6","","69","","","","19","","4","","","","101.68","","","","","","NA"
"-123.53","48.30","RACE ROCKS","1016640","2019-06-30 14:00","2019","06","30","14:00","17.6","","11.8","","69","","","","18","","2","","","","101.62","","","","","","NA"
"-123.53","48.30","RACE ROCKS","1016640","2019-06-30 15:00","2019","06","30","15:00","16.9","","11.8","","72","","","","24","","13","","","","101.57","","","","","","NA"
"-123.53","48.30","RACE ROCKS","1016640","2019-06-30 16:00","2019","06","30","16:00","16.1","","10.9","","71","","","","28","","34","","","","101.50","","","","","","NA"
"-123.53","48.30","RACE ROCKS","1016640","2019-06-30 17:00","2019","06","30","17:00","16.7","","9.8","","64","","","","27","","35","","","","101.45","","","","","","NA"
"-123.53","48.30","RACE ROCKS","1016640","2019-06-30 18:00","2019","06","30","18:00","14.4","","11.8","","85","","","","26","","33","","","","101.43","","","","","","NA"
"-123.53","48.30","RACE ROCKS","1016640","2019-06-30 19:00","2019","06","30","19:00","13.9","","12.0","","89","","","","25","","31","","","","101.43","","","","","","NA"
"-123.53","48.30","RACE ROCKS","1016640","2019-06-30 20:00","2019","06","30","20:00","13.8","","12.0","","89","","","","26","","34","","","","101.43","","","","","","NA"
"-123.53","48.30","RACE ROCKS","1016640","2019-06-30 21:00","2019","06","30","21:00","13.5","","12.2","","92","","","","26","","40","","","","101.43","","","","","","NA"
"-123.53","48.30","RACE ROCKS","1016640","2019-06-30 22:00","2019","06","30","22:00","13.8","","12.0","","89","","","","27","","46","","","","101.42","","","","","","NA"
"-123.53","48.30","RACE ROCKS","1016640","2019-06-30 23:00","2019","06","30","23:00","14.2","","11.5","","84","","","","27","","44","","","","101.39","","","","","","NA"
