"Longitude (x)","Latitude (y)","Station Name","Climate ID","Date/Time (LST)","Year","Month","Day","Time (LST)","Temp (°C)","Temp Flag","Dew Point Temp (°C)","Dew Point Temp Flag","Rel Hum (%)","Rel Hum Flag","Precip. Amount (mm)","Precip. Amount Flag","Wind Dir (10s deg)","Wind Dir Flag","Wind Spd (km/h)","Wind Spd Flag","Visibility (km)","Visibility Flag","Stn Press (kPa)","Stn Press Flag","Hmdx","Hmdx Flag","Wind Chill","Wind Chill Flag","Weather"
"-77.70","53.63","LA GRANDE RIVIERE A","7093716","2022-01-01 00:00","2022","01","01","00:00","-20.4","","-23.1","","79","","","","25","","23","","8.1","","98.14","","","","-32","","Snow"
"-77.70","53.63","LA GRANDE RIVIERE A","7093716","2022-01-01 01:00","2022","01","01","01:00","-21.4","","-24.1","","79","","","","25","","20","","11.3","","98.24","","","","-32","","Snow"
"-77.70","53.63","LA GRANDE RIVIERE A","7093716","2022-01-01 02:00","2022","01","01","02:00","-22.7","","-25.2","","80","","","","23","","17","","24.1","","98.37","","","","-33","","Ice Crystals"
"-77.70","53.63","LA GRANDE RIVIERE A","7093716","2022-01-01 03:00","2022","01","01","03:00","-23.5","","-25.9","","81","","","","23","","14","","24.1","","98.46","","","","-33","","Ice Crystals"
"-77.70","53.63","LA GRANDE RIVIERE A","7093716","2022-01-01 04:00","2022","01","01","04:00","-24.2","","-26.7","","81","","","","24","","12","","24.1","","98.47","","","","-33","","Snow"
"-77.70","53.63","LA GRANDE RIVIERE A","7093716","2022-01-01 05:00","2022","01","01","05:00","-24.8","","-27.3","","80","","","","21","","10","","24.1","","98.50","","","","-33","","Snow"
"-77.70","53.63","LA GRANDE RIVIERE A","7093716","2022-01-01 06:00","2022","01","01","06:00","-25.4","","-28.0","","80","","","","21","","12","","24.1","","98.54","","","","-35","","Snow"
"-77.70","53.63","LA GRANDE RIVIERE A","7093716","2022-01-01 07:00","2022","01","01","07:00","-26.2","","-28.8","","80","","","","21","","14","","24.1","","98.57","","","","-36","","Ice Crystals"
"-77.70","53.63","LA GRANDE RIVIERE A","7093716","2022-01-01 08:00","2022","01","01","08:00","-27.3","","-30.0","","78","","","","21","","13","","24.1","","98.63","","","","-37","","Ice Crystals"
"-77.70","53.63","LA GRANDE RIVIERE A","7093716","2022-01-01 09:00","2022","01","01","09:00","-27.6","","-30.4","","78","","","","21","","13","","24.1","","98.68","","","","-38","","Ice Crystals"
"-77.70","53.63","LA GRANDE RIVIERE A","7093716","2022-01-01 10:00","2022","01","01","10:00","-26.3","","-29.0","","79","","","","21","","15","","24.1","","98.76","","","","-37","","Ice Crystals"
"-77.70","53.63","LA GRANDE RIVIERE A","7093716","2022-01-01 11:00","2022","01","01","11:00","-24.2","","-26.9","","79","","","","24","","18","","24.1","","98.82","","","","-35","","Ice Crystals"
"-77.70","53.63","LA GRANDE RIVIERE A","7093716","2022-01-01 12:00","2022","01","01","12:00","-23.3","","-26.0","","79","","","","24","","17","","24.1","","98.78","","","","-34","","Ice Crystals"
"-77.70","53.63","LA GRANDE RIVIERE A","7093716","2022-01-01 13:00","2022","01","01","13:00","-23.1","","-25.9","","78","","","","24","","26","","24.1","","98.78","","","","-36","","Ice Crystals"
"-77.70","53.63","LA GRANDE RIVIERE A","7093716","2022-01-01 14:00","2022","01","01","14:00","-22.9","","-25.8","","78","","","","23","","20","","24.1","","98.81","","","","-34","","Ice Crystals"
"-77.70","53.63","LA GRANDE RIVIERE A","7093716","2022-01-01 15:00","2022","01","01","15:00","-23.1","","-26.2","","76","","","","22","","18","","24.1","","98.87","","","","-34","","Ice Crystals"
"-77.70","53.63","LA GRANDE RIVIERE A","7093716","2022-01-01 16:00","2022","01","01","16:00","-24.4","","-27.1","","79","","","","22","","10","","24.1","","98.93","","","","-32","","Ice Crystals"
"-77.70","53.63","LA GRANDE RIVIERE A","7093716","2022-01-01 17:00","2022","01","01","17:00","-25.5","","-28.0","","80","","","","20","","10","","24.1","","99.01","","","","-34","","Ice Crystals"
"-77.70","53.63","LA GRANDE RIVIERE A","7093716","2022-01-01 18:00","2022","01","01","18:00","-26.4","","-29.0","","80","","","","21","","8","","24.1","","99.04","","","","-34","","Ice Crystals"
"-77.70","53.63","LA GRANDE RIVIERE A","7093716","2022-01-01 19:00","2022","01","01","19:00","-26.4","","-28.9","","80","","","","21","","14","","24.1","","99.06","","","","-37","","Ice Crystals"
"-77.70","53.63","LA GRANDE RIVIERE A","7093716","2022-01-01 20:00","2022","01","01","20:00","-26.5","","-29.1","","79","","","","19","","16","","24.1","","99.08","","","","-37","","Ice Crystals"
"-77.70","53.63","LA GRANDE RIVIERE A","7093716","2022-01-01 21:00","2022","01","01","21:00","-25.9","","-28.4","","80","","","","20","","13","","24.1","","99.09","","","","-36","","Ice Crystals"
"-77.70","53.63","LA GRANDE RIVIERE A","7093716","2022-01-01 22:00","2022","01","01","22:00","-24.8","","-27.3","","80","","","","19","","14","","16.1","","99.09","","","","-35","","Ice Crystals"
"-77.70","53.63","LA GRANDE RIVIERE A","7093716","2022-01-01 23:00","2022","01","01","23:00","-24.2","","-26.7","","80","","","","19","","14","","16.1","","99.10","","","","-34","","Snow"
"-77.70","53.63","LA GRANDE RIVIERE A","7093716","2022-01-02 00:00","2022","01","02","00:00","-24.0","","-26.6","","80","","","","19","","15","","16.1","","99.09","","","","-34","","Snow"
"-77.70","53.63","LA GRANDE RIVIERE A","7093716","2022-01-02 01:00","2022","01","02","01:00","-24.3","","-26.9","","80","","","","18","","12","","24.1","","99.04","","","","-33","","Snow"
"-77.70","53.63","LA GRANDE RIVIERE A","7093716","2022-01-02 02:00","2022","01","02","02:00","-24.3","","-26.9","","80","","","","18","","9","","24.1","","99.04","","","","-32","","Snow"
"-77.70","53.63","LA GRANDE RIVIERE A","7093716","2022-01-02 03:00","2022","01","02","03:00","-24.2","","-26.8","","79","","","","18","","9","","11.3","","99.07","","","","-32","","Snow"
"-77.70","53.63","LA GRANDE RIVIERE A","7093716","2022-01-02 04:00","2022","01","02","04:00","-24.2","","-26.9","","79","","","","20","","9","","16.1","","99.09","","","","-32","","Snow"
"-77.70","53.63","LA GRANDE RIVIERE A","7093716","2022-01-02 05:00","2022","01","02","05:00","-24.6","","-27.3","","79","","","","18","","8","","16.1","","99.11","","","","-32","","Snow"
"-77.70","53.63","LA GRANDE RIVIERE A","7093716","2022-01-02 06:00","2022","01","02","06:00","-24.6","","-27.3","","79","","","","19","","9","","11.3","","99.14","","","","-32","","Snow"
"-77.70","53.63","LA GRANDE RIVIERE A","7093716","2022-01-02 07:00","2022","01","02","07:00","-24.3","","-26.9","","79","","","","19","","8","","16.1","","99.13","","","","-31","","Snow"
"-77.70","53.63","LA GRANDE RIVIERE A","7093716","2022-01-02 08:00","2022","01","02","08:00","-24.0","","-26.7","","79","","","","21","","8","","11.3","","99.13","","","","-31","","Snow"
"-77.70","53.63","LA GRANDE RIVIERE A","7093716","2022-01-02 09:00","2022","01","02","09:00","-23.6","","-26.3","","79","","","","22","","9","","8.1","","99.13","","","","-31","","Snow"
"-77.70","53.63","LA GRANDE RIVIERE A","7093716","2022-01-02 10:00","2022","01","02","10:00","-23.5","","-26.1","","79","","","","17","","9","","16.1","","99.11","","","","-31","","Snow"
"-77.70","53.63","LA GRANDE RIVIERE A","7093716","2022-01-02 11:00","2022","01","02","11:00","-22.7","","-25.4","","80","","","","20","","10","","16.1","","99.09","","","","-30","","Snow"
"-77.70","53.63","LA GRANDE RIVIERE A","7093716","2022-01-02 12:00","2022","01","02","12:00","-22.3","","-24.9","","79","","","","20","","14","","16.1","","99.07","","","","-32","","Snow"
"-77.70","53.63","LA GRANDE RIVIERE A","7093716","2022-01-02 13:00","2022","01","02","13:00","-22.2","","-24.9","","79","","","","21","","13","","8.1","","99.05","","","","-31","","Snow"
"-77.70","53.63","LA GRANDE RIVIERE A","7093716","2022-01-02 14:00","2022","01","02","14:00","-21.9","","-24.6","","79","","","","20","","13","","16.1","","99.08","","","","-31","","Snow"
"-77.70","53.63","LA GRANDE RIVIERE A","7093716","2022-01-02 15:00","2022","01","02","15:00","-22.1","","-24.7","","79","","","","18","","13","","16.1","","99.11","","","","-31","","Snow"
"-77.70","53.63","LA GRANDE RIVIERE A","7093716","2022-01-02 16:00","2022","01","02","16:00","-22.4","","-25.1","","79","","","","19","","16","","16.1","","99.18","","","","-32","","Snow"
"-77.70","53.63","LA GRANDE RIVIERE A","7093716","2022-01-02 17:00","2022","01","02","17:00","-22.6","","-25.3","","79","","","","19","","14","","16.1","","99.20","","","","-32","","Snow"
"-77.70","53.63","LA GRANDE RIVIERE A","7093716","2022-01-02 18:00","2022","01","02","18:00","-22.7","","-25.4","","79","","","","20","","17","","11.3","","99.20","","","","-33","","Snow"
"-77.70","53.63","LA GRANDE RIVIERE A","7093716","2022-01-02 19:00","2022","01","02","19:00","-22.9","","-25.5","","79","","","","20","","16","","16.1","","99.20","","","","-33","","Snow"
"-77.70","53.63","LA GRANDE RIVIERE A","7093716","2022-01-02 20:00","2022","01","02","20:00","-22.8","","-25.4","","80","","","","20","","12","","24.1","","99.16","","","","-31","","Snow"
"-77.70","53.63","LA GRANDE RIVIERE A","7093716","2022-01-02 21:00","2022","01","02","21:00","-22.3","","-24.7","","81","","","","20","","16","","16.1","","99.16","","","","-32","","Snow"
"-77.70","53.63","LA GRANDE RIVIERE A","7093716","2022-01-02 22:00","2022","01","02","22:00","-21.6","","-23.9","","82","","","","20","","16","","11.3","","99.14","","","","-31","","Snow"
"-77.70","53.63","LA GRANDE RIVIERE A","7093716","2022-01-02 23:00","2022","01","02","23:00","-21.4","","-23.9","","80","","","","21","","16","","11.3","","99.15","","","","-31","","Snow"
"-77.70","53.63","LA GRANDE RIVIERE A","7093716","2022-01-03 00:00","2022","01","03","00:00","-21.7","","-24.3","","80","","","","22","","16","","8.1","","99.16","","","","-31","","Snow"
"-77.70","53.63","LA GRANDE RIVIERE A","7093716","2022-01-03 01:00","2022","01","03","01:00","-22.2","","-24.8","","80","","","","21","","16","","17.7","","99.15","","","","-32","","Snow"
"-77.70","53.63","LA GRANDE RIVIERE A","7093716","2022-01-03 02:00","2022","01","03","02:00","-22.6","","-25.2","","80","","","","21","","19","","11.3","","99.19","","","","-33","","Snow"
"-77.70","53.63","LA GRANDE RIVIERE A","7093716","2022-01-03 03:00","2022","01","03","03:00","-22.7","","-25.3","","80","","","","21","","16","","16.1","","99.23","","","","-33","","Snow"
"-77.70","53.63","LA GRANDE RIVIERE A","7093716","2022-01-03 04:00","2022","01","03","04:00","-22.6","","-25.1","","81","","","","21","","19","","11.3","","99.21","","","","-33","","Snow"
"-77.70","53.63","LA GRANDE RIVIERE A","7093716","2022-01-03 05:00","2022","01","03","05:00","-23.0","","-25.4","","81","","","","21","","13","","11.3","","99.20","","","","-32","","Snow"
"-77.70","53.63","LA GRANDE RIVIERE A","7093716","2022-01-03 06:00","2022","01","03","06:00","-23.2","","-25.7","","81","","","","21","","14","","8.1","","99.23","","","","-33","","Snow"
"-77.70","53.63","LA GRANDE RIVIERE A","7093716","2022-01-03 07:00","2022","01","03","07:00","-22.7","","-25.1","","81","","","","20","","20","","8.1","","99.24","","","","-34","","Snow"
"-77.70","53.63","LA GRANDE RIVIERE A","7093716","2022-01-03 08:00","2022","01","03","08:00","-22.1","","-24.6","","81","","","","21","","17","","9.7","","99.23","","","","-32","","Snow"
"-77.70","53.63","LA GRANDE RIVIERE A","7093716","2022-01-03 09:00","2022","01","03","09:00","-21.9","","-24.5","","80","","","","21","","19","","9.7","","99.28","","","","-33","","Snow"
"-77.70","53.63","LA GRANDE RIVIERE A","7093716","2022-01-03 10:00","2022","01","03","10:00","-22.2","","-24.8","","80","","","","21","","22","","12.9","","99.29","","","","-34","","Snow"
"-77.70","53.63","LA GRANDE RIVIERE A","7093716","2022-01-03 11:00","2022","01","03","11:00","-22.0","","-24.6","","80","","","","21","","23","","16.1","","99.26","","","","-34","","Snow"
"-77.70","53.63","LA GRANDE RIVIERE A","7093716","2022-01-03 12:00","2022","01","03","12:00","-22.0","","-24.7","","79","","","","21","","22","","16.1","","99.25","","","","-34","","Snow"
"-77.70","53.63","LA GRANDE RIVIERE A","7093716","2022-01-03 13:00","2022","01","03","13:00","-21.6","","-24.4","","78","","","","20","","19","","16.1","","99.25","","","","-32","","Snow"
"-77.70","53.63","LA GRANDE RIVIERE A","7093716","2022-01-03 14:00","2022","01","03","14:00","-21.4","","-24.2","","78","","","","22","","16","","16.1","","99.29","","","","-31","","Snow"
"-77.70","53.63","LA GRANDE RIVIERE A","7093716","2022-01-03 15:00","2022","01","03","15:00","-21.0","","-24.0","","77","","","","23","","22","","16.1","","99.32","","","","-32","","Snow"
"-77.70","53.63","LA GRANDE RIVIERE A","7093716","2022-01-03 16:00","2022","01","03","16:00","-21.1","","-23.9","","79","","","","21","","17","","16.1","","99.36","","","","-31","","Snow"
"-77.70","53.63","LA GRANDE RIVIERE A","7093716","2022-01-03 17:00","2022","01","03","17:00","-21.0","","-23.7","","80","","","","22","","14","","16.1","","99.38","","","","-30","","Snow"
"-77.70","53.63","LA GRANDE RIVIERE A","7093716","2022-01-03 18:00","2022","01","03","18:00","-21.2","","-23.8","","81","","","","21","","15","","24.1","","99.40","","","","-31","","Snow"
"-77.70","53.63","LA GRANDE RIVIERE A","7093716","2022-01-03 19:00","2022","01","03","19:00","-21.5","","-24.0","","81","","","","20","","14","","16.1","","99.39","","","","-31","","Snow"
"-77.70","53.63","LA GRANDE RIVIERE A","7093716","2022-01-03 20:00","2022","01","03","20:00","-21.5","","-23.9","","81","","","","22","","14","","16.1","","99.35","","","","-31","","Snow"
"-77.70","53.63","LA GRANDE RIVIERE A","7093716","2022-01-03 21:00","2022","01","03","21:00","-21.4","","-23.8","","81","","","","19","","14","","24.1","","99.29","","","","-30","","Snow"
"-77.70","53.63","LA GRANDE RIVIERE A","7093716","2022-01-03 22:00","2022","01","03","22:00","-21.5","","-23.8","","82","","","","19","","15","","19.3","","99.26","","","","-31","","Snow"
"-77.70","53.63","LA GRANDE RIVIERE A","7093716","2022-01-03 23:00","2022","01","03","23:00","-21.6","","-24.0","","81","","","","18","","10","","11.3","","99.21","","","","-29","","Snow"
"-77.70","53.63","LA GRANDE RIVIERE A","7093716","2022-01-04 00:00","2022","01","04","00:00","-21.6","","-24.0","","81","","","","20","","10","","11.3","","99.21","","","","-29","","Snow"
"-77.70","53.63","LA GRANDE RIVIERE A","7093716","2022-01-04 01:00","2022","01","04","01:00","-21.3","","-23.8","","81","","","","24","","10","","11.3","","99.21","","","","-29","","Snow"
"-77.70","53.63","LA GRANDE RIVIERE A","7093716","2022-01-04 02:00","2022","01","04","02:00","-21.1","","-23.6","","81","","","","25","","14","","11.3","","99.21","","","","-30","","Snow"
"-77.70","53.63","LA GRANDE RIVIERE A","7093716","2022-01-04 03:00","2022","01","04","03:00","-21.2","","-23.8","","81","","","","24","","8","","11.3","","99.22","","","","-28","","Snow"
"-77.70","53.63","LA GRANDE RIVIERE A","7093716","2022-01-04 04:00","2022","01","04","04:00","-21.4","","-24.0","","80","","","","21","","11","","24.1","","99.23","","","","-29","","Snow"
"-77.70","53.63","LA GRANDE RIVIERE A","7093716","2022-01-04 05:00","2022","01","04","05:00","-21.9","","-24.2","","82","","","","24","","15","","24.1","","99.19","","","","-31","","Snow"
"-77.70","53.63","LA GRANDE RIVIERE A","7093716","2022-01-04 06:00","2022","01","04","06:00","-22.1","","-24.0","","85","","","","26","","10","","24.1","","99.17","","","","-30","","Snow"
"-77.70","53.63","LA GRANDE RIVIERE A","7093716","2022-01-04 07:00","2022","01","04","07:00","-23.0","","-25.0","","84","","","","27","","12","","24.1","","99.20","","","","-32","","Snow"
"-77.70","53.63","LA GRANDE RIVIERE A","7093716","2022-01-04 08:00","2022","01","04","08:00","-23.6","","-25.7","","83","","","","24","","10","","9.7","","99.20","","","","-32","","Snow"
"-77.70","53.63","LA GRANDE RIVIERE A","7093716","2022-01-04 09:00","2022","01","04","09:00","-24.1","","-26.5","","81","","","","23","","8","","9.7","","99.24","","","","-31","","Snow"
"-77.70","53.63","LA GRANDE RIVIERE A","7093716","2022-01-04 10:00","2022","01","04","10:00","-22.6","","-25.0","","81","","","","23","","12","","9.7","","99.25","","","","-31","","Snow"
"-77.70","53.63","LA GRANDE RIVIERE A","7093716","2022-01-04 11:00","2022","01","04","11:00","-21.7","","-24.1","","81","","","","21","","16","","16.1","","99.23","","","","-31","","Snow"
"-77.70","53.63","LA GRANDE RIVIERE A","7093716","2022-01-04 12:00","2022","01","04","12:00","-20.8","","-23.2","","81","","","","22","","13","","16.1","","99.18","","","","-29","","Snow"
"-77.70","53.63","LA GRANDE RIVIERE A","7093716","2022-01-04 13:00","2022","01","04","13:00","-20.6","","-23.0","","81","","","","20","","19","","19.3","","99.14","","","","-31","","Snow"
"-77.70","53.63","LA GRANDE RIVIERE A","7093716","2022-01-04 14:00","2022","01","04","14:00","-20.5","","-22.8","","82","","","","20","","11","","16.1","","99.13","","","","-28","","Snow"
"-77.70","53.63","LA GRANDE RIVIERE A","7093716","2022-01-04 15:00","2022","01","04","15:00","-20.1","","-22.4","","82","","","","22","","13","","16.1","","99.16","","","","-29","","Snow"
"-77.70","53.63","LA GRANDE RIVIERE A","7093716","2022-01-04 16:00","2022","01","04","16:00","-20.4","","-22.7","","82","","","","21","","10","","16.1","","99.18","","","","-28","","Snow"
"-77.70","53.63","LA GRANDE RIVIERE A","7093716","2022-01-04 17:00","2022","01","04","17:00","-20.3","","-22.6","","82","","","","22","","16","","4.0","","99.21","","","","-30","","Snow"
"-77.70","53.63","LA GRANDE RIVIERE A","7093716","2022-01-04 18:00","2022","01","04","18:00","-21.1","","-23.6","","81","","","","23","","12","","4.0","","99.21","","","","-29","","Snow"
"-77.70","53.63","LA GRANDE RIVIERE A","7093716","2022-01-04 19:00","2022","01","04","19:00","-22.1","","-24.5","","81","","","","21","","11","","24.1","","99.21","","","","-30","","Snow"
"-77.70","53.63","LA GRANDE RIVIERE A","7093716","2022-01-04 20:00","2022","01","04","20:00","-22.1","","-24.5","","81","","","","21","","16","","24.1","","99.22","","","","-32","","Snow"
"-77.70","53.63","LA GRANDE RIVIERE A","7093716","2022-01-04 21:00","2022","01","04","21:00","-22.7","","-25.2","","81","","","","22","","13","","24.1","","99.24","","","","-32","","Ice Crystals"
"-77.70","53.63","LA GRANDE RIVIERE A","7093716","2022-01-04 22:00","2022","01","04","22:00","-23.1","","-25.6","","80","","","","22","","13","","24.1","","99.25","","","","-32","","Ice Crystals"
"-77.70","53.63","LA GRANDE RIVIERE A","7093716","2022-01-04 23:00","2022","01","04","23:00","-22.2","","-24.7","","81","","","","22","","14","","16.1","","99.24","","","","-31","","Snow"
"-77.70","53.63","LA GRANDE RIVIERE A","7093716","2022-01-05 00:00","2022","01","05","00:00","-21.7","","-24.2","","81","","","","23","","14","","24.1","","99.24","","","","-31","","Snow"
"-77.70","53.63","LA GRANDE RIVIERE A","7093716","2022-01-05 01:00","2022","01","05","01:00","-21.4","","-23.9","","81","","","","24","","14","","24.1","","99.26","","","","-30","","Snow"
"-77.70","53.63","LA GRANDE RIVIERE A","7093716","2022-01-05 02:00","2022","01","05","02:00","-21.8","","-24.2","","81","","","","25","","20","","24.1","","99.31","","","","-33","","Snow"
"-77.70","53.63","LA GRANDE RIVIERE A","7093716","2022-01-05 03:00","2022","01","05","03:00","-22.2","","-24.7","","81","","","","25","","17","","11.3","","99.33","","","","-32","","Snow"
"-77.70","53.63","LA GRANDE RIVIERE A","7093716","2022-01-05 04:00","2022","01","05","04:00","-23.0","","-25.5","","80","","","","24","","13","","24.1","","99.30","","","","-32","","Snow"
"-77.70","53.63","LA GRANDE RIVIERE A","7093716","2022-01-05 05:00","2022","01","05","05:00","-23.8","","-26.3","","80","","","","25","","13","","24.1","","99.26","","","","-33","","Snow"
"-77.70","53.63","LA GRANDE RIVIERE A","7093716","2022-01-05 06:00","2022","01","05","06:00","-24.3","","-26.8","","80","","","","23","","12","","24.1","","99.22","","","","-33","","Snow"
"-77.70","53.63","LA GRANDE RIVIERE A","7093716","2022-01-05 07:00","2022","01","05","07:00","-24.0","","-26.6","","80","","","","24","","13","","24.1","","99.22","","","","-33","","Snow"
"-77.70","53.63","LA GRANDE RIVIERE A","7093716","2022-01-05 08:00","2022","01","05","08:00","-24.0","","-26.6","","80","","","","22","","14","","16.1","","99.23","","","","-34","","Snow"
"-77.70","53.63","LA GRANDE RIVIERE A","7093716","2022-01-05 09:00","2022","01","05","09:00","-23.4","","-25.9","","80","","","","21","","15","","16.1","","99.21","","","","-33","","Snow"
"-77.70","53.63","LA GRANDE RIVIERE A","7093716","2022-01-05 10:00","2022","01","05","10:00","-22.7","","-25.2","","80","","","","23","","13","","16.1","","99.24","","","","-32","","Snow"
"-77.70","53.63","LA GRANDE RIVIERE A","7093716","2022-01-05 11:00","2022","01","05","11:00","-22.0","","-24.5","","81","","","","23","","12","","16.1","","99.25","","","","-30","","Snow"
"-77.70","53.63","LA GRANDE RIVIERE A","7093716","2022-01-05 12:00","2022","01","05","12:00","-21.6","","-24.1","","81","","","","22","","11","","24.1","","99.21","","","","-30","","Snow"
"-77.70","53.63","LA GRANDE RIVIERE A","7093716","2022-01-05 13:00","2022","01","05","13:00","-21.3","","-23.7","","81","","","","23","","13","","19.3","","99.14","","","","-30","","Snow"
"-77.70","53.63","LA GRANDE RIVIERE A","7093716","2022-01-05 14:00","2022","01","05","14:00","-20.9","","-23.2","","81","","","","22","","9","","19.3","","99.12","","","","-28","","Snow"
"-77.70","53.63","LA GRANDE RIVIERE A","7093716","2022-01-05 15:00","2022","01","05","15:00","-20.7","","-23.0","","82","","","","23","","12","","6.4","","99.14","","","","-29","","Snow"
"-77.70","53.63","LA GRANDE RIVIERE A","7093716","2022-01-05 16:00","2022","01","05","16:00","-20.4","","-22.6","","82","","","","25","","8","","6.4","","99.14","","","","-27","","Snow"
"-77.70","53.63","LA GRANDE RIVIERE A","7093716","2022-01-05 17:00","2022","01","05","17:00","-20.2","","-22.5","","82","","","","27","","10","","6.4","","99.17","","","","-27","","Snow"
"-77.70","53.63","LA GRANDE RIVIERE A","7093716","2022-01-05 18:00","2022","01","05","18:00","-20.1","","-22.4","","82","","","","24","","6","","19.3","","99.18","","","","-25","","Snow"
"-77.70","53.63","LA GRANDE RIVIERE A","7093716","2022-01-05 19:00","2022","01","05","19:00","-20.1","","-22.4","","82","","","","23","","8","","16.1","","99.17","","","","-26","","Snow"
"-77.70","53.63","LA GRANDE RIVIERE A","7093716","2022-01-05 20:00","2022","01","05","20:00","-19.9","","-22.2","","82","","","","20","","13","","16.1","","99.19","","","","-28","","Snow"
"-77.70","53.63","LA GRANDE RIVIERE A","7093716","2022-01-05 21:00","2022","01","05","21:00","-19.8","","-22.1","","82","","","","24","","6","","11.3","","99.18","","","","-25","","Snow"
"-77.70","53.63","LA GRANDE RIVIERE A","7093716","2022-01-05 22:00","2022","01","05","22:00","-20.0","","-22.2","","82","","","","27","","6","","16.1","","99.17","","","","-25","","Ice Crystals"
"-77.70","53.63","LA GRANDE RIVIERE A","7093716","2022-01-05 23:00","2022","01","05","23:00","-20.0","","-22.2","","82","","","","30","","5","","16.1","","99.18","","","","-24","","Ice Crystals"
"-77.70","53.63","LA GRANDE RIVIERE A","7093716","2022-01-06 00:00","2022","01","06","00:00","-19.7","","-21.9","","83","","","","34","","5","","16.1","","99.16","","","","-24","","Ice Crystals"
"-77.70","53.63","LA GRANDE RIVIERE A","7093716","2022-01-06 01:00","2022","01","06","01:00","-19.9","","-22.1","","82","","","","32","","10","","24.1","","99.15","","","","-27","","Ice Crystals"
"-77.70","53.63","LA GRANDE RIVIERE A","7093716","2022-01-06 02:00","2022","01","06","02:00","-20.1","","-22.4","","82","","","","32","","8","","24.1","","99.17","","","","-26","","Ice Crystals"
"-77.70","53.63","LA GRANDE RIVIERE A","7093716","2022-01-06 03:00","2022","01","06","03:00","-20.3","","-22.6","","82","","","","35","","7","","24.1","","99.20","","","","-26","","Ice Crystals"
"-77.70","53.63","LA GRANDE RIVIERE A","7093716","2022-01-06 04:00","2022","01","06","04:00","-20.8","","-23.1","","82","","","","34","","9","","24.1","","99.21","","","","-28","","Snow"
"-77.70","53.63","LA GRANDE RIVIERE A","7093716","2022-01-06 05:00","2022","01","06","05:00","-21.5","","-24.0","","81","","","","35","","10","","24.1","","99.22","","","","-29","","Snow"
"-77.70","53.63","LA GRANDE RIVIERE A","7093716","2022-01-06 06:00","2022","01","06","06:00","-22.1","","-24.6","","81","","","","33","","8","","24.1","","99.27","","","","-29","","Snow"
"-77.70","53.63","LA GRANDE RIVIERE A","7093716","2022-01-06 07:00","2022","01","06","07:00","-22.6","","-25.1","","80","","","","32","","8","","16.1","","99.30","","","","-29","","Snow"
"-77.70","53.63","LA GRANDE RIVIERE A","7093716","2022-01-06 08:00","2022","01","06","08:00","-23.3","","-25.8","","80","","","","32","","5","","12.9","","99.31","","","","-28","","Snow"
"-77.70","53.63","LA GRANDE RIVIERE A","7093716","2022-01-06 09:00","2022","01","06","09:00","-24.4","","-27.1","","79","","","","28","","3","","11.3","","99.32","","","","-27","","Snow"
"-77.70","53.63","LA GRANDE RIVIERE A","7093716","2022-01-06 10:00","2022","01","06","10:00","-24.5","","-27.2","","79","","","","27","","7","","16.1","","99.36","","","","-31","","Snow"
"-77.70","53.63","LA GRANDE RIVIERE A","7093716","2022-01-06 11:00","2022","01","06","11:00","-23.6","","-26.2","","79","","","","26","","6","","16.1","","99.36","","","","-29","","Ice Crystals"
"-77.70","53.63","LA GRANDE RIVIERE A","7093716","2022-01-06 12:00","2022","01","06","12:00","-22.7","","-25.3","","80","","","","28","","8","","12.9","","99.32","","","","-29","","Ice Crystals"
"-77.70","53.63","LA GRANDE RIVIERE A","7093716","2022-01-06 13:00","2022","01","06","13:00","-22.5","","-25.0","","80","","","","27","","9","","19.3","","99.31","","","","-30","","Ice Crystals"
"-77.70","53.63","LA GRANDE RIVIERE A","7093716","2022-01-06 14:00","2022","01","06","14:00","-22.6","","-25.1","","80","","","","27","","10","","24.1","","99.29","","","","-30","","Ice Crystals"
"-77.70","53.63","LA GRANDE RIVIERE A","7093716","2022-01-06 15:00","2022","01","06","15:00","-22.4","","-24.9","","81","","","","25","","11","","24.1","","99.33","","","","-31","","Ice Crystals"
"-77.70","53.63","LA GRANDE RIVIERE A","7093716","2022-01-06 16:00","2022","01","06","16:00","-23.6","","-26.2","","79","","","","25","","8","","24.1","","99.37","","","","-30","","Ice Crystals"
"-77.70","53.63","LA GRANDE RIVIERE A","7093716","2022-01-06 17:00","2022","01","06","17:00","-24.3","","-27.0","","79","","","","23","","8","","24.1","","99.38","","","","-31","","Ice Crystals"
"-77.70","53.63","LA GRANDE RIVIERE A","7093716","2022-01-06 18:00","2022","01","06","18:00","-24.6","","-27.3","","79","","","","22","","10","","24.1","","99.41","","","","-33","","Ice Crystals"
"-77.70","53.63","LA GRANDE RIVIERE A","7093716","2022-01-06 19:00","2022","01","06","19:00","-24.8","","-27.5","","79","","","","22","","10","","24.1","","99.40","","","","-33","","Ice Crystals"
"-77.70","53.63","LA GRANDE RIVIERE A","7093716","2022-01-06 20:00","2022","01","06","20:00","-24.8","","-27.5","","79","","","","22","","11","","24.1","","99.40","","","","-33","","Ice Crystals"
"-77.70","53.63","LA GRANDE RIVIERE A","7093716","2022-01-06 21:00","2022","01","06","21:00","-25.8","","-28.5","","78","","","","22","","10","","24.1","","99.41","","","","-34","","Ice Crystals"
"-77.70","53.63","LA GRANDE RIVIERE A","7093716","2022-01-06 22:00","2022","01","06","22:00","-25.2","","-27.9","","79","","","","22","","11","","24.1","","99.38","","","","-34","","Snow"
"-77.70","53.63","LA GRANDE RIVIERE A","7093716","2022-01-06 23:00","2022","01","06","23:00","-24.3","","-27.0","","79","","","","22","","10","","24.1","","99.34","","","","-32","","Snow"
"-77.70","53.63","LA GRANDE RIVIERE A","7093716","2022-01-07 00:00","2022","01","07","00:00","-24.8","","-27.5","","79","","","","21","","11","","24.1","","99.34","","","","-33","","Snow"
"-77.70","53.63","LA GRANDE RIVIERE A","7093716","2022-01-07 01:00","2022","01","07","01:00","-24.8","","-27.4","","79","","","","21","","14","","24.1","","99.38","","","","-35","","Snow"
"-77.70","53.63","LA GRANDE RIVIERE A","7093716","2022-01-07 02:00","2022","01","07","02:00","-24.4","","-27.1","","79","","","","21","","14","","24.1","","99.37","","","","-34","","Snow"
"-77.70","53.63","LA GRANDE RIVIERE A","7093716","2022-01-07 03:00","2022","01","07","03:00","-24.2","","-26.9","","79","","","","19","","14","","24.1","","99.37","","","","-34","","Snow"
"-77.70","53.63","LA GRANDE RIVIERE A","7093716","2022-01-07 04:00","2022","01","07","04:00","-24.5","","-27.2","","79","","","","20","","14","","24.1","","99.37","","","","-34","","Snow"
"-77.70","53.63","LA GRANDE RIVIERE A","7093716","2022-01-07 05:00","2022","01","07","05:00","-24.6","","-27.3","","79","","","","20","","12","","24.1","","99.38","","","","-34","","Snow"
"-77.70","53.63","LA GRANDE RIVIERE A","7093716","2022-01-07 06:00","2022","01","07","06:00","-24.5","","-27.2","","79","","","","20","","11","","9.7","","99.40","","","","-33","","Snow"
"-77.70","53.63","LA GRANDE RIVIERE A","7093716","2022-01-07 07:00","2022","01","07","07:00","-24.6","","-27.2","","79","","","","23","","9","","6.4","","99.43","","","","-32","","Snow"
"-77.70","53.63","LA GRANDE RIVIERE A","7093716","2022-01-07 08:00","2022","01","07","08:00","-24.9","","-27.6","","79","","","","21","","10","","12.9","","99.40","","","","-33","","Snow"
"-77.70","53.63","LA GRANDE RIVIERE A","7093716","2022-01-07 09:00","2022","01","07","09:00","-25.3","","-28.1","","78","","","","19","","13","","12.9","","99.41","","","","-35","","Snow"
"-77.70","53.63","LA GRANDE RIVIERE A","7093716","2022-01-07 10:00","2022","01","07","10:00","-24.9","","-27.7","","78","","","","20","","14","","19.3","","99.44","","","","-35","","Snow,Ice Crystals"
"-77.70","53.63","LA GRANDE RIVIERE A","7093716","2022-01-07 11:00","2022","01","07","11:00","-23.1","","-25.7","","80","","","","21","","13","","24.1","","99.47","","","","-32","","Ice Crystals"
"-77.70","53.63","LA GRANDE RIVIERE A","7093716","2022-01-07 12:00","2022","01","07","12:00","-21.5","","-23.9","","81","","","","23","","16","","12.9","","99.41","","","","-31","","Ice Crystals"
"-77.70","53.63","LA GRANDE RIVIERE A","7093716","2022-01-07 13:00","2022","01","07","13:00","-20.9","","-23.4","","81","","","","22","","18","","24.1","","99.38","","","","-31","","Ice Crystals"
"-77.70","53.63","LA GRANDE RIVIERE A","7093716","2022-01-07 14:00","2022","01","07","14:00","-20.5","","-22.9","","82","","","","23","","14","","24.1","","99.38","","","","-29","","Ice Crystals"
"-77.70","53.63","LA GRANDE RIVIERE A","7093716","2022-01-07 15:00","2022","01","07","15:00","-20.6","","-23.0","","81","","","","22","","12","","24.1","","99.41","","","","-29","","Ice Crystals"
"-77.70","53.63","LA GRANDE RIVIERE A","7093716","2022-01-07 16:00","2022","01","07","16:00","-21.7","","-24.2","","81","","","","21","","10","","16.1","","99.48","","","","-29","","Ice Crystals"
"-77.70","53.63","LA GRANDE RIVIERE A","7093716","2022-01-07 17:00","2022","01","07","17:00","-22.8","","-25.4","","80","","","","21","","11","","24.1","","99.53","","","","-31","","Ice Crystals"
"-77.70","53.63","LA GRANDE RIVIERE A","7093716","2022-01-07 18:00","2022","01","07","18:00","-23.6","","-26.1","","80","","","","21","","10","","24.1","","99.53","","","","-32","","Ice Crystals"
"-77.70","53.63","LA GRANDE RIVIERE A","7093716","2022-01-07 19:00","2022","01","07","19:00","-24.3","","-27.0","","79","","","","22","","12","","24.1","","99.55","","","","-33","","Ice Crystals"
"-77.70","53.63","LA GRANDE RIVIERE A","7093716","2022-01-07 20:00","2022","01","07","20:00","-25.0","","-27.7","","79","","","","21","","10","","24.1","","99.58","","","","-33","","Ice Crystals"
"-77.70","53.63","LA GRANDE RIVIERE A","7093716","2022-01-07 21:00","2022","01","07","21:00","-24.7","","-27.4","","79","","","","20","","17","","24.1","","99.59","","","","-36","","Snow"
"-77.70","53.63","LA GRANDE RIVIERE A","7093716","2022-01-07 22:00","2022","01","07","22:00","-24.7","","-27.4","","79","","","","20","","14","","12.9","","99.62","","","","-35","","Snow"
"-77.70","53.63","LA GRANDE RIVIERE A","7093716","2022-01-07 23:00","2022","01","07","23:00","-24.9","","-27.6","","79","","","","19","","12","","24.1","","99.64","","","","-34","","Snow"
"-77.70","53.63","LA GRANDE RIVIERE A","7093716","2022-01-08 00:00","2022","01","08","00:00","-25.0","","-27.7","","79","","","","21","","13","","24.1","","99.71","","","","-34","","Snow"
"-77.70","53.63","LA GRANDE RIVIERE A","7093716","2022-01-08 01:00","2022","01","08","01:00","-24.8","","-27.4","","79","","","","19","","14","","24.1","","99.63","","","","-35","","Snow"
"-77.70","53.63","LA GRANDE RIVIERE A","7093716","2022-01-08 02:00","2022","01","08","02:00","-25.0","","-27.8","","78","","","","20","","14","","24.1","","99.72","","","","-35","","Snow"
"-77.70","53.63","LA GRANDE RIVIERE A","7093716","2022-01-08 03:00","2022","01","08","03:00","-25.2","","-28.0","","78","","","","19","","14","","24.1","","99.77","","","","-35","","Snow"
"-77.70","53.63","LA GRANDE RIVIERE A","7093716","2022-01-08 04:00","2022","01","08","04:00","-25.2","","-27.9","","78","","","","19","","11","","24.1","","99.81","","","","-34","","Snow"
"-77.70","53.63","LA GRANDE RIVIERE A","7093716","2022-01-08 05:00","2022","01","08","05:00","-24.9","","-27.6","","79","","","","20","","12","","16.1","","99.82","","","","-34","","Snow"
"-77.70","53.63","LA GRANDE RIVIERE A","7093716","2022-01-08 06:00","2022","01","08","06:00","-25.3","","-28.1","","78","","","","18","","12","","24.1","","99.85","","","","-34","","Snow"
"-77.70","53.63","LA GRANDE RIVIERE A","7093716","2022-01-08 07:00","2022","01","08","07:00","-25.6","","-28.3","","78","","","","17","","13","","24.1","","99.83","","","","-35","","Snow"
"-77.70","53.63","LA GRANDE RIVIERE A","7093716","2022-01-08 08:00","2022","01","08","08:00","-25.1","","-27.8","","78","","","","17","","16","","24.1","","99.83","","","","-36","","Snow"
"-77.70","53.63","LA GRANDE RIVIERE A","7093716","2022-01-08 09:00","2022","01","08","09:00","-25.8","","-28.6","","78","","","","18","","17","","24.1","","99.78","","","","-37","","Ice Crystals"
"-77.70","53.63","LA GRANDE RIVIERE A","7093716","2022-01-08 10:00","2022","01","08","10:00","-25.1","","-27.8","","78","","","","18","","18","","16.1","","99.80","","","","-36","","Ice Crystals"
"-77.70","53.63","LA GRANDE RIVIERE A","7093716","2022-01-08 11:00","2022","01","08","11:00","-23.0","","-25.6","","80","","","","17","","23","","24.1","","99.68","","","","-35","","Ice Crystals"
"-77.70","53.63","LA GRANDE RIVIERE A","7093716","2022-01-08 12:00","2022","01","08","12:00","-21.4","","-23.8","","81","","","","18","","11","","19.3","","99.59","","","","-29","","Ice Crystals"
"-77.70","53.63","LA GRANDE RIVIERE A","7093716","2022-01-08 13:00","2022","01","08","13:00","-19.9","","-22.2","","82","","","","16","","24","","9.7","","99.41","","","","-31","","Ice Crystals"
"-77.70","53.63","LA GRANDE RIVIERE A","7093716","2022-01-08 14:00","2022","01","08","14:00","-18.9","","-21.1","","83","","","","14","","26","","8.1","","99.27","","","","-30","","Snow"
"-77.70","53.63","LA GRANDE RIVIERE A","7093716","2022-01-08 15:00","2022","01","08","15:00","-18.4","","-20.5","","83","","","","14","","26","","8.1","","99.09","","","","-30","","Snow"
"-77.70","53.63","LA GRANDE RIVIERE A","7093716","2022-01-08 16:00","2022","01","08","16:00","-17.5","","-19.6","","84","","","","15","","22","","12.9","","99.01","","","","-28","","Snow"
"-77.70","53.63","LA GRANDE RIVIERE A","7093716","2022-01-08 17:00","2022","01","08","17:00","-16.4","","-18.3","","85","","","","14","","27","","4.0","","98.87","","","","-27","","Snow,Blowing Snow"
"-77.70","53.63","LA GRANDE RIVIERE A","7093716","2022-01-08 18:00","2022","01","08","18:00","-15.4","","-17.2","","86","","","","14","","28","","2.4","","98.69","","","","-26","","Snow,Blowing Snow"
"-77.70","53.63","LA GRANDE RIVIERE A","7093716","2022-01-08 19:00","2022","01","08","19:00","-15.4","","-17.3","","86","","","","15","","33","","2.0","","98.54","","","","-27","","Snow,Blowing Snow"
"-77.70","53.63","LA GRANDE RIVIERE A","7093716","2022-01-08 20:00","2022","01","08","20:00","-15.1","","-16.9","","86","","","","15","","27","","3.2","","98.42","","","","-26","","Snow,Blowing Snow"
"-77.70","53.63","LA GRANDE RIVIERE A","7093716","2022-01-08 21:00","2022","01","08","21:00","-14.6","","-16.4","","87","","","","16","","34","","2.4","","98.23","","","","-26","","Snow"
"-77.70","53.63","LA GRANDE RIVIERE A","7093716","2022-01-08 22:00","2022","01","08","22:00","-14.3","","-16.0","","87","","","","16","","28","","2.4","","98.09","","","","-25","","Snow"
"-77.70","53.63","LA GRANDE RIVIERE A","7093716","2022-01-08 23:00","2022","01","08","23:00","-13.8","","-15.5","","87","","","","16","","27","","2.4","","97.95","","","","-24","","Snow"
"-77.70","53.63","LA GRANDE RIVIERE A","7093716","2022-01-09 00:00","2022","01","09","00:00","-13.1","","-14.7","","88","","","","16","","27","","3.2","","97.85","","","","-23","","Snow"
"-77.70","53.63","LA GRANDE RIVIERE A","7093716","2022-01-09 01:00","2022","01","09","01:00","-12.4","","-13.9","","89","","","","16","","23","","3.2","","97.73","","","","-21","","Snow"
"-77.70","53.63","LA GRANDE RIVIERE A","7093716","2022-01-09 02:00","2022","01","09","02:00","-11.8","","-13.3","","89","","","","16","","21","","4.0","","97.61","","","","-20","","Snow"
"-77.70","53.63","LA GRANDE RIVIERE A","7093716","2022-01-09 03:00","2022","01","09","03:00","-11.0","","-12.4","","90","","","","16","","21","","3.2","","97.44","","","","-19","","Snow"
"-77.70","53.63","LA GRANDE RIVIERE A","7093716","2022-01-09 04:00","2022","01","09","04:00","-10.3","","-11.6","","90","","","","15","","21","","2.4","","97.30","","","","-18","","Snow"
"-77.70","53.63","LA GRANDE RIVIERE A","7093716","2022-01-09 05:00","2022","01","09","05:00","-9.7","","-10.9","","91","","","","16","","25","","4.0","","97.14","","","","-18","","Snow"
"-77.70","53.63","LA GRANDE RIVIERE A","7093716","2022-01-09 06:00","2022","01","09","06:00","-9.1","","-10.2","","91","","","","17","","21","","2.4","","97.00","","","","-17","","Snow"
"-77.70","53.63","LA GRANDE RIVIERE A","7093716","2022-01-09 07:00","2022","01","09","07:00","-8.7","","-9.8","","92","","","","18","","18","","3.2","","96.86","","","","-16","","Snow"
"-77.70","53.63","LA GRANDE RIVIERE A","7093716","2022-01-09 08:00","2022","01","09","08:00","-8.3","","-9.4","","92","","","","18","","17","","2.4","","96.73","","","","-15","","Snow"
"-77.70","53.63","LA GRANDE RIVIERE A","7093716","2022-01-09 09:00","2022","01","09","09:00","-8.0","","-9.0","","92","","","","21","","16","","1.6","","96.64","","","","-15","","Snow"
"-77.70","53.63","LA GRANDE RIVIERE A","7093716","2022-01-09 10:00","2022","01","09","10:00","-8.8","","-9.9","","91","","","","26","","27","","4.0","","96.63","","","","-18","","Freezing Drizzle,Snow"
"-77.70","53.63","LA GRANDE RIVIERE A","7093716","2022-01-09 11:00","2022","01","09","11:00","-11.4","","-12.9","","89","","","","27","","30","","1.6","","96.68","","","","-21","","Snow"
"-77.70","53.63","LA GRANDE RIVIERE A","7093716","2022-01-09 12:00","2022","01","09","12:00","-13.7","","-15.6","","86","","","","27","","36","","2.4","","96.71","","","","-25","","Snow"
"-77.70","53.63","LA GRANDE RIVIERE A","7093716","2022-01-09 13:00","2022","01","09","13:00","-15.9","","-18.4","","81","","","","26","","42","","3.2","","96.71","","","","-29","","Snow,Blowing Snow"
"-77.70","53.63","LA GRANDE RIVIERE A","7093716","2022-01-09 14:00","2022","01","09","14:00","-18.0","","-20.9","","78","","","","25","","41","","3.2","","96.83","","","","-32","","Snow Showers,Blowing Snow"
"-77.70","53.63","LA GRANDE RIVIERE A","7093716","2022-01-09 15:00","2022","01","09","15:00","-18.1","","-21.1","","78","","","","26","","44","","3.2","","96.89","","","","-32","","Snow Showers,Blowing Snow"
"-77.70","53.63","LA GRANDE RIVIERE A","7093716","2022-01-09 16:00","2022","01","09","16:00","-18.6","","-21.4","","79","","","","25","","39","","1.6","","97.02","","","","-32","","Snow Showers,Blowing Snow"
"-77.70","53.63","LA GRANDE RIVIERE A","7093716","2022-01-09 17:00","2022","01","09","17:00","-18.9","","-21.8","","78","","","","26","","48","","1.6","","97.14","","","","-34","","Snow Showers,Blowing Snow"
"-77.70","53.63","LA GRANDE RIVIERE A","7093716","2022-01-09 18:00","2022","01","09","18:00","-20.3","","-23.3","","78","","","","26","","50","","2.4","","97.24","","","","-36","","Snow Showers,Blowing Snow"
"-77.70","53.63","LA GRANDE RIVIERE A","7093716","2022-01-09 19:00","2022","01","09","19:00","-20.9","","-23.9","","77","","","","26","","46","","2.0","","97.31","","","","-36","","Snow,Blowing Snow"
"-77.70","53.63","LA GRANDE RIVIERE A","7093716","2022-01-09 20:00","2022","01","09","20:00","-21.4","","-24.4","","78","","","","26","","46","","1.6","","97.41","","","","-37","","Snow,Blowing Snow"
"-77.70","53.63","LA GRANDE RIVIERE A","7093716","2022-01-09 21:00","2022","01","09","21:00","-22.1","","-25.1","","77","","","","26","","49","","1.0","","97.48","","","","-38","","Snow,Blowing Snow"
"-77.70","53.63","LA GRANDE RIVIERE A","7093716","2022-01-09 22:00","2022","01","09","22:00","-22.6","","-25.6","","77","","","","26","","48","","1.6","","97.58","","","","-39","","Snow,Blowing Snow"
"-77.70","53.63","LA GRANDE RIVIERE A","7093716","2022-01-09 23:00","2022","01","09","23:00","-23.1","","-26.1","","77","","","","26","","41","","2.0","","97.66","","","","-38","","Snow,Blowing Snow"
"-77.70","53.63","LA GRANDE RIVIERE A","7093716","2022-01-10 00:00","2022","01","10","00:00","-23.7","","-26.7","","77","","","","26","","39","","1.6","","97.75","","","","-39","","Snow,Blowing Snow"
"-77.70","53.63","LA GRANDE RIVIERE A","7093716","2022-01-10 01:00","2022","01","10","01:00","-24.1","","-27.3","","76","","","","27","","44","","2.4","","97.84","","","","-40","","Snow,Blowing Snow"
"-77.70","53.63","LA GRANDE RIVIERE A","7093716","2022-01-10 02:00","2022","01","10","02:00","-24.8","","-28.0","","75","","","","26","","27","","2.4","","97.96","","","","-38","","Snow,Blowing Snow"
"-77.70","53.63","LA GRANDE RIVIERE A","7093716","2022-01-10 03:00","2022","01","10","03:00","-25.5","","-28.7","","75","","","","26","","38","","2.0","","98.01","","","","-41","","Snow,Blowing Snow"
"-77.70","53.63","LA GRANDE RIVIERE A","7093716","2022-01-10 04:00","2022","01","10","04:00","-25.9","","-29.1","","75","","","","26","","36","","2.4","","98.05","","","","-41","","Snow,Blowing Snow"
"-77.70","53.63","LA GRANDE RIVIERE A","7093716","2022-01-10 05:00","2022","01","10","05:00","-26.6","","-29.8","","74","","","","26","","37","","2.4","","98.12","","","","-42","","Snow,Blowing Snow"
"-77.70","53.63","LA GRANDE RIVIERE A","7093716","2022-01-10 06:00","2022","01","10","06:00","-26.9","","-30.3","","74","","","","25","","33","","2.4","","98.21","","","","-42","","Snow,Blowing Snow"
"-77.70","53.63","LA GRANDE RIVIERE A","7093716","2022-01-10 07:00","2022","01","10","07:00","-27.2","","-30.5","","74","","","","26","","34","","2.4","","98.25","","","","-43","","Snow,Blowing Snow"
"-77.70","53.63","LA GRANDE RIVIERE A","7093716","2022-01-10 08:00","2022","01","10","08:00","-27.1","","-30.5","","74","","","","26","","32","","2.4","","98.32","","","","-42","","Snow,Blowing Snow"
"-77.70","53.63","LA GRANDE RIVIERE A","7093716","2022-01-10 09:00","2022","01","10","09:00","-27.1","","-30.4","","74","","","","26","","33","","2.0","","98.37","","","","-42","","Snow,Blowing Snow"
"-77.70","53.63","LA GRANDE RIVIERE A","7093716","2022-01-10 10:00","2022","01","10","10:00","-26.8","","-30.3","","73","","","","26","","31","","2.0","","98.47","","","","-42","","Snow,Blowing Snow"
"-77.70","53.63","LA GRANDE RIVIERE A","7093716","2022-01-10 11:00","2022","01","10","11:00","-26.3","","-29.8","","73","","","","26","","31","","2.0","","98.54","","","","-41","","Snow,Blowing Snow"
"-77.70","53.63","LA GRANDE RIVIERE A","7093716","2022-01-10 12:00","2022","01","10","12:00","-25.6","","-29.0","","74","","","","26","","27","","2.4","","98.61","","","","-39","","Snow,Blowing Snow"
"-77.70","53.63","LA GRANDE RIVIERE A","7093716","2022-01-10 13:00","2022","01","10","13:00","-25.2","","-28.7","","74","","","","26","","30","","2.4","","98.67","","","","-39","","Snow,Blowing Snow"
"-77.70","53.63","LA GRANDE RIVIERE A","7093716","2022-01-10 14:00","2022","01","10","14:00","-24.9","","-28.1","","75","","","","26","","24","","1.6","","98.76","","","","-38","","Snow,Blowing Snow"
"-77.70","53.63","LA GRANDE RIVIERE A","7093716","2022-01-10 15:00","2022","01","10","15:00","-24.8","","-28.0","","75","","","","25","","27","","1.6","","98.87","","","","-38","","Snow,Blowing Snow"
"-77.70","53.63","LA GRANDE RIVIERE A","7093716","2022-01-10 16:00","2022","01","10","16:00","-25.1","","-28.2","","75","","","","25","","27","","2.0","","99.02","","","","-39","","Snow,Blowing Snow"
"-77.70","53.63","LA GRANDE RIVIERE A","7093716","2022-01-10 17:00","2022","01","10","17:00","-25.2","","-28.3","","76","","","","26","","24","","2.4","","99.11","","","","-38","","Snow,Blowing Snow"
"-77.70","53.63","LA GRANDE RIVIERE A","7093716","2022-01-10 18:00","2022","01","10","18:00","-25.9","","-29.4","","73","","","","27","","33","","9.7","","99.20","","","","-41","","Snow,Blowing Snow"
"-77.70","53.63","LA GRANDE RIVIERE A","7093716","2022-01-10 19:00","2022","01","10","19:00","-26.4","","-29.7","","75","","","","27","","29","","6.4","","99.27","","","","-41","","Snow,Blowing Snow"
"-77.70","53.63","LA GRANDE RIVIERE A","7093716","2022-01-10 20:00","2022","01","10","20:00","-27.0","","-30.0","","76","","","","25","","20","","9.7","","99.33","","","","-39","","Snow,Blowing Snow"
"-77.70","53.63","LA GRANDE RIVIERE A","7093716","2022-01-10 21:00","2022","01","10","21:00","-27.7","","-30.6","","77","","","","25","","20","","9.7","","99.38","","","","-40","","Snow"
"-77.70","53.63","LA GRANDE RIVIERE A","7093716","2022-01-10 22:00","2022","01","10","22:00","-28.1","","-30.9","","77","","","","25","","20","","8.1","","99.42","","","","-41","","Snow"
"-77.70","53.63","LA GRANDE RIVIERE A","7093716","2022-01-10 23:00","2022","01","10","23:00","-28.5","","-31.4","","76","","","","24","","20","","12.9","","99.41","","","","-41","","Snow"
"-77.70","53.63","LA GRANDE RIVIERE A","7093716","2022-01-11 00:00","2022","01","11","00:00","-28.9","","-31.8","","77","","","","24","","19","","16.1","","99.45","","","","-41","","Snow"
"-77.70","53.63","LA GRANDE RIVIERE A","7093716","2022-01-11 01:00","2022","01","11","01:00","-29.1","","-32.0","","76","","","","24","","21","","11.3","","99.45","","","","-42","","Snow"
"-77.70","53.63","LA GRANDE RIVIERE A","7093716","2022-01-11 02:00","2022","01","11","02:00","-29.6","","-32.6","","76","","","","24","","18","","16.1","","99.52","","","","-42","","Snow"
"-77.70","53.63","LA GRANDE RIVIERE A","7093716","2022-01-11 03:00","2022","01","11","03:00","-30.9","","-34.0","","75","","","","22","","15","","24.1","","99.54","","","","-43","","Snow"
"-77.70","53.63","LA GRANDE RIVIERE A","7093716","2022-01-11 04:00","2022","01","11","04:00","-31.7","","-34.7","","75","","","","22","","16","","24.1","","99.49","","","","-44","","Snow"
"-77.70","53.63","LA GRANDE RIVIERE A","7093716","2022-01-11 05:00","2022","01","11","05:00","-31.4","","-34.4","","75","","","","21","","16","","24.1","","99.48","","","","-44","","Snow"
"-77.70","53.63","LA GRANDE RIVIERE A","7093716","2022-01-11 06:00","2022","01","11","06:00","-32.3","","-35.4","","75","","","","21","","13","","24.1","","99.51","","","","-43","","Snow"
"-77.70","53.63","LA GRANDE RIVIERE A","7093716","2022-01-11 07:00","2022","01","11","07:00","-32.4","","-35.5","","74","","","","20","","13","","24.1","","99.48","","","","-44","","Ice Crystals"
"-77.70","53.63","LA GRANDE RIVIERE A","7093716","2022-01-11 08:00","2022","01","11","08:00","-32.2","","-35.4","","74","","","","20","","16","","16.1","","99.44","","","","-45","","Ice Crystals"
"-77.70","53.63","LA GRANDE RIVIERE A","7093716","2022-01-11 09:00","2022","01","11","09:00","-32.2","","-35.3","","74","","","","20","","15","","16.1","","99.38","","","","-44","","Ice Crystals"
"-77.70","53.63","LA GRANDE RIVIERE A","7093716","2022-01-11 10:00","2022","01","11","10:00","-29.9","","-33.0","","75","","","","20","","21","","2.4","","99.34","","","","-43","","Ice Crystals"
"-77.70","53.63","LA GRANDE RIVIERE A","7093716","2022-01-11 11:00","2022","01","11","11:00","-28.9","","-32.0","","75","","","","20","","22","","3.2","","99.24","","","","-42","","Ice Crystals"
"-77.70","53.63","LA GRANDE RIVIERE A","7093716","2022-01-11 12:00","2022","01","11","12:00","-29.1","","-32.1","","75","","","","19","","21","","4.8","","99.12","","","","-42","","Ice Crystals"
"-77.70","53.63","LA GRANDE RIVIERE A","7093716","2022-01-11 13:00","2022","01","11","13:00","-28.5","","-31.6","","76","","","","18","","18","","6.4","","99.02","","","","-41","","Ice Crystals"
"-77.70","53.63","LA GRANDE RIVIERE A","7093716","2022-01-11 14:00","2022","01","11","14:00","-28.4","","-31.5","","75","","","","17","","20","","12.9","","98.88","","","","-41","","Ice Crystals"
"-77.70","53.63","LA GRANDE RIVIERE A","7093716","2022-01-11 15:00","2022","01","11","15:00","-28.6","","-31.8","","75","","","","17","","23","","12.9","","98.74","","","","-42","","Ice Crystals"
"-77.70","53.63","LA GRANDE RIVIERE A","7093716","2022-01-11 16:00","2022","01","11","16:00","-28.1","","-31.1","","76","","","","14","","24","","19.3","","98.54","","","","-42","","Ice Crystals"
"-77.70","53.63","LA GRANDE RIVIERE A","7093716","2022-01-11 17:00","2022","01","11","17:00","-27.4","","-30.5","","76","","","","15","","28","","4.8","","98.38","","","","-42","","Snow"
"-77.70","53.63","LA GRANDE RIVIERE A","7093716","2022-01-11 18:00","2022","01","11","18:00","-26.6","","-29.7","","76","","","","15","","30","","3.2","","98.22","","","","-41","","Snow"
"-77.70","53.63","LA GRANDE RIVIERE A","7093716","2022-01-11 19:00","2022","01","11","19:00","-25.4","","-28.6","","75","","","","16","","25","","3.2","","98.05","","","","-39","","Snow"
"-77.70","53.63","LA GRANDE RIVIERE A","7093716","2022-01-11 20:00","2022","01","11","20:00","-24.6","","-27.8","","75","","","","16","","28","","2.0","","97.86","","","","-38","","Snow,Blowing Snow"
"-77.70","53.63","LA GRANDE RIVIERE A","7093716","2022-01-11 21:00","2022","01","11","21:00","-23.4","","-26.4","","76","","","","16","","22","","2.4","","97.73","","","","-35","","Snow,Blowing Snow"
"-77.70","53.63","LA GRANDE RIVIERE A","7093716","2022-01-11 22:00","2022","01","11","22:00","-22.4","","-25.3","","77","","","","16","","22","","2.4","","97.59","","","","-34","","Snow,Blowing Snow"
"-77.70","53.63","LA GRANDE RIVIERE A","7093716","2022-01-11 23:00","2022","01","11","23:00","-21.4","","-24.4","","77","","","","17","","22","","11.3","","97.47","","","","-33","","Snow,Blowing Snow"
"-77.70","53.63","LA GRANDE RIVIERE A","7093716","2022-01-12 00:00","2022","01","12","00:00","-20.8","","-23.6","","79","","","","17","","20","","2.4","","97.35","","","","-31","","Snow,Blowing Snow"
"-77.70","53.63","LA GRANDE RIVIERE A","7093716","2022-01-12 01:00","2022","01","12","01:00","-20.1","","-22.9","","79","","","","17","","18","","2.0","","97.27","","","","-30","","Snow,Blowing Snow"
"-77.70","53.63","LA GRANDE RIVIERE A","7093716","2022-01-12 02:00","2022","01","12","02:00","-19.8","","-22.5","","80","","","","17","","17","","2.4","","97.23","","","","-29","","Snow,Blowing Snow"
"-77.70","53.63","LA GRANDE RIVIERE A","7093716","2022-01-12 03:00","2022","01","12","03:00","-19.5","","-22.0","","81","","","","19","","10","","9.7","","97.23","","","","-27","","Snow"
"-77.70","53.63","LA GRANDE RIVIERE A","7093716","2022-01-12 04:00","2022","01","12","04:00","-20.1","","-22.6","","81","","","","24","","13","","24.1","","97.28","","","","-29","","Snow"
"-77.70","53.63","LA GRANDE RIVIERE A","7093716","2022-01-12 05:00","2022","01","12","05:00","-21.7","","-23.9","","83","","","","27","","24","","9.7","","97.41","","","","-34","","Snow"
"-77.70","53.63","LA GRANDE RIVIERE A","7093716","2022-01-12 06:00","2022","01","12","06:00","-23.2","","-25.8","","80","","","","29","","23","","9.7","","97.63","","","","-35","","Snow"
"-77.70","53.63","LA GRANDE RIVIERE A","7093716","2022-01-12 07:00","2022","01","12","07:00","-24.9","","-27.6","","79","","","","28","","18","","19.3","","97.82","","","","-36","","Snow"
"-77.70","53.63","LA GRANDE RIVIERE A","7093716","2022-01-12 08:00","2022","01","12","08:00","-24.8","","-27.5","","79","","","","28","","25","","12.9","","97.95","","","","-38","","Snow"
"-77.70","53.63","LA GRANDE RIVIERE A","7093716","2022-01-12 09:00","2022","01","12","09:00","-25.3","","-28.0","","79","","","","28","","22","","16.1","","98.07","","","","-38","","Ice Crystals"
"-77.70","53.63","LA GRANDE RIVIERE A","7093716","2022-01-12 10:00","2022","01","12","10:00","-24.9","","-27.7","","78","","","","27","","26","","16.1","","98.24","","","","-38","","Ice Crystals"
"-77.70","53.63","LA GRANDE RIVIERE A","7093716","2022-01-12 11:00","2022","01","12","11:00","-25.4","","-28.9","","73","","","","29","","26","","9.7","","98.40","","","","-39","","Ice Crystals"
"-77.70","53.63","LA GRANDE RIVIERE A","7093716","2022-01-12 12:00","2022","01","12","12:00","-25.8","","-29.5","","72","","","","28","","26","","3.2","","98.45","","","","-39","","Ice Crystals"
"-77.70","53.63","LA GRANDE RIVIERE A","7093716","2022-01-12 13:00","2022","01","12","13:00","-25.3","","-29.6","","68","","","","27","","29","","4.8","","98.54","","","","-39","","Ice Crystals"
"-77.70","53.63","LA GRANDE RIVIERE A","7093716","2022-01-12 14:00","2022","01","12","14:00","-25.4","","-29.7","","68","","","","28","","30","","4.8","","98.64","","","","-40","","Ice Crystals"
"-77.70","53.63","LA GRANDE RIVIERE A","7093716","2022-01-12 15:00","2022","01","12","15:00","-25.6","","-29.4","","71","","","","26","","17","","6.4","","98.74","","","","-37","","Ice Crystals"
"-77.70","53.63","LA GRANDE RIVIERE A","7093716","2022-01-12 16:00","2022","01","12","16:00","-25.8","","-29.9","","69","","","","24","","16","","12.9","","98.83","","","","-37","","Ice Crystals"
"-77.70","53.63","LA GRANDE RIVIERE A","7093716","2022-01-12 17:00","2022","01","12","17:00","-27.0","","-30.1","","76","","","","24","","12","","24.1","","98.91","","","","-37","","Ice Crystals"
"-77.70","53.63","LA GRANDE RIVIERE A","7093716","2022-01-12 18:00","2022","01","12","18:00","-27.0","","-30.0","","77","","","","23","","13","","24.1","","98.99","","","","-37","","Ice Crystals"
"-77.70","53.63","LA GRANDE RIVIERE A","7093716","2022-01-12 19:00","2022","01","12","19:00","-28.5","","-31.2","","78","","","","19","","13","","24.1","","99.00","","","","-39","","Ice Crystals"
"-77.70","53.63","LA GRANDE RIVIERE A","7093716","2022-01-12 20:00","2022","01","12","20:00","-28.7","","-31.3","","79","","","","21","","13","","24.1","","99.01","","","","-39","","Ice Crystals"
"-77.70","53.63","LA GRANDE RIVIERE A","7093716","2022-01-12 21:00","2022","01","12","21:00","-29.4","","-32.0","","79","","","","19","","15","","24.1","","98.97","","","","-41","","Ice Crystals"
"-77.70","53.63","LA GRANDE RIVIERE A","7093716","2022-01-12 22:00","2022","01","12","22:00","-29.3","","-32.0","","78","","","","19","","13","","24.1","","98.96","","","","-40","","Ice Crystals"
"-77.70","53.63","LA GRANDE RIVIERE A","7093716","2022-01-12 23:00","2022","01","12","23:00","-29.3","","-32.1","","77","","","","18","","14","","24.1","","98.93","","","","-40","","Ice Crystals"
"-77.70","53.63","LA GRANDE RIVIERE A","7093716","2022-01-13 00:00","2022","01","13","00:00","-28.8","","-31.6","","78","","","","18","","17","","24.1","","98.89","","","","-41","","Ice Crystals"
"-77.70","53.63","LA GRANDE RIVIERE A","7093716","2022-01-13 01:00","2022","01","13","01:00","-29.0","","-31.8","","78","","","","18","","15","","24.1","","98.84","","","","-40","","Ice Crystals"
"-77.70","53.63","LA GRANDE RIVIERE A","7093716","2022-01-13 02:00","2022","01","13","02:00","-29.4","","-32.1","","77","","","","17","","16","","24.1","","98.86","","","","-41","","Ice Crystals"
"-77.70","53.63","LA GRANDE RIVIERE A","7093716","2022-01-13 03:00","2022","01","13","03:00","-29.1","","-31.9","","78","","","","18","","17","","24.1","","98.85","","","","-41","","Ice Crystals"
"-77.70","53.63","LA GRANDE RIVIERE A","7093716","2022-01-13 04:00","2022","01","13","04:00","-29.0","","-31.8","","78","","","","17","","17","","24.1","","98.81","","","","-41","","Ice Crystals"
"-77.70","53.63","LA GRANDE RIVIERE A","7093716","2022-01-13 05:00","2022","01","13","05:00","-29.3","","-32.1","","77","","","","17","","18","","24.1","","98.77","","","","-42","","Ice Crystals"
"-77.70","53.63","LA GRANDE RIVIERE A","7093716","2022-01-13 06:00","2022","01","13","06:00","-29.3","","-32.1","","77","","","","17","","16","","24.1","","98.72","","","","-41","","NA"
"-77.70","53.63","LA GRANDE RIVIERE A","7093716","2022-01-13 07:00","2022","01","13","07:00","-29.2","","-32.0","","77","","","","17","","16","","24.1","","98.67","","","","-41","","Mainly Clear"
"-77.70","53.63","LA GRANDE RIVIERE A","7093716","2022-01-13 08:00","2022","01","13","08:00","-29.0","","-31.8","","78","","","","16","","17","","24.1","","98.65","","","","-41","","NA"
"-77.70","53.63","LA GRANDE RIVIERE A","7093716","2022-01-13 09:00","2022","01","13","09:00","-29.2","","-32.1","","76","","","","16","","15","","24.1","","98.64","","","","-40","","NA"
"-77.70","53.63","LA GRANDE RIVIERE A","7093716","2022-01-13 10:00","2022","01","13","10:00","-27.1","","-29.9","","77","","","","15","","18","","24.1","","98.62","","","","-39","","Mostly Cloudy"
"-77.70","53.63","LA GRANDE RIVIERE A","7093716","2022-01-13 11:00","2022","01","13","11:00","-25.6","","-28.4","","78","","","","13","","15","","24.1","","98.58","","","","-36","","Ice Crystals"
"-77.70","53.63","LA GRANDE RIVIERE A","7093716","2022-01-13 12:00","2022","01","13","12:00","-23.4","","-26.2","","79","","","","13","","12","","24.1","","98.50","","","","-32","","Ice Crystals"
"-77.70","53.63","LA GRANDE RIVIERE A","7093716","2022-01-13 13:00","2022","01","13","13:00","-22.3","","-25.0","","79","","","","15","","17","","8.1","","98.48","","","","-33","","Ice Crystals"
"-77.70","53.63","LA GRANDE RIVIERE A","7093716","2022-01-13 14:00","2022","01","13","14:00","-21.7","","-24.4","","79","","","","17","","9","","9.7","","98.51","","","","-29","","Snow"
"-77.70","53.63","LA GRANDE RIVIERE A","7093716","2022-01-13 15:00","2022","01","13","15:00","-21.6","","-24.3","","79","","","","20","","6","","4.0","","98.58","","","","-27","","Snow"
"-77.70","53.63","LA GRANDE RIVIERE A","7093716","2022-01-13 16:00","2022","01","13","16:00","-22.5","","-25.2","","79","","","","28","","5","","4.8","","98.62","","","","-27","","Snow"
"-77.70","53.63","LA GRANDE RIVIERE A","7093716","2022-01-13 17:00","2022","01","13","17:00","-23.2","","-25.8","","80","","","","30","","5","","16.1","","98.70","","","","-28","","Snow"
"-77.70","53.63","LA GRANDE RIVIERE A","7093716","2022-01-13 18:00","2022","01","13","18:00","-24.2","","-26.9","","79","","","","30","","8","","8.1","","98.81","","","","-31","","Snow"
"-77.70","53.63","LA GRANDE RIVIERE A","7093716","2022-01-13 19:00","2022","01","13","19:00","-25.3","","-28.1","","78","","","","31","","11","","19.3","","98.93","","","","-34","","Snow"
"-77.70","53.63","LA GRANDE RIVIERE A","7093716","2022-01-13 20:00","2022","01","13","20:00","-26.1","","-28.9","","78","","","","30","","10","","19.3","","99.02","","","","-34","","Snow"
"-77.70","53.63","LA GRANDE RIVIERE A","7093716","2022-01-13 21:00","2022","01","13","21:00","-27.1","","-30.0","","77","","","","32","","16","","9.7","","99.13","","","","-38","","Snow"
"-77.70","53.63","LA GRANDE RIVIERE A","7093716","2022-01-13 22:00","2022","01","13","22:00","-28.2","","-31.2","","76","","","","31","","12","","24.1","","99.20","","","","-38","","Snow"
"-77.70","53.63","LA GRANDE RIVIERE A","7093716","2022-01-13 23:00","2022","01","13","23:00","-30.4","","-33.4","","76","","","","28","","13","","24.1","","99.26","","","","-41","","Snow"
"-77.70","53.63","LA GRANDE RIVIERE A","7093716","2022-01-14 00:00","2022","01","14","00:00","-30.8","","-33.7","","76","","","","25","","13","","24.1","","99.34","","","","-42","","Snow"
"-77.70","53.63","LA GRANDE RIVIERE A","7093716","2022-01-14 01:00","2022","01","14","01:00","-32.5","","-35.5","","75","","","","25","","12","","24.1","","99.39","","","","-43","","Snow"
"-77.70","53.63","LA GRANDE RIVIERE A","7093716","2022-01-14 02:00","2022","01","14","02:00","-32.9","","-35.9","","75","","","","26","","16","","12.9","","99.50","","","","-45","","Ice Crystals"
"-77.70","53.63","LA GRANDE RIVIERE A","7093716","2022-01-14 03:00","2022","01","14","03:00","-33.2","","-36.4","","74","","","","25","","12","","24.1","","99.65","","","","-44","","Ice Crystals"
"-77.70","53.63","LA GRANDE RIVIERE A","7093716","2022-01-14 04:00","2022","01","14","04:00","-33.6","","-36.9","","73","","","","25","","8","","24.1","","99.75","","","","-42","","Ice Crystals"
"-77.70","53.63","LA GRANDE RIVIERE A","7093716","2022-01-14 05:00","2022","01","14","05:00","-34.2","","-37.4","","74","","","","27","","13","","24.1","","99.88","","","","-46","","Ice Crystals"
"-77.70","53.63","LA GRANDE RIVIERE A","7093716","2022-01-14 06:00","2022","01","14","06:00","-34.0","","-37.1","","74","","","","25","","9","","19.3","","100.01","","","","-43","","Ice Crystals"
"-77.70","53.63","LA GRANDE RIVIERE A","7093716","2022-01-14 07:00","2022","01","14","07:00","-34.6","","-37.8","","73","","","","26","","14","","19.3","","100.11","","","","-47","","Ice Crystals"
"-77.70","53.63","LA GRANDE RIVIERE A","7093716","2022-01-14 08:00","2022","01","14","08:00","-35.0","","-38.4","","72","","","","25","","11","","8.1","","100.23","","","","-46","","Ice Crystals"
"-77.70","53.63","LA GRANDE RIVIERE A","7093716","2022-01-14 09:00","2022","01","14","09:00","-34.9","","-38.2","","72","","","","26","","10","","4.8","","100.31","","","","-45","","Ice Crystals"
"-77.70","53.63","LA GRANDE RIVIERE A","7093716","2022-01-14 10:00","2022","01","14","10:00","-33.1","","-36.5","","73","","","","25","","9","","16.1","","100.44","","","","-42","","Ice Crystals"
"-77.70","53.63","LA GRANDE RIVIERE A","7093716","2022-01-14 11:00","2022","01","14","11:00","-30.0","","-33.1","","75","","","","26","","10","","24.1","","100.55","","","","-39","","Ice Crystals"
"-77.70","53.63","LA GRANDE RIVIERE A","7093716","2022-01-14 12:00","2022","01","14","12:00","-28.1","","-31.2","","76","","","","27","","10","","19.3","","100.67","","","","-37","","Ice Crystals"
"-77.70","53.63","LA GRANDE RIVIERE A","7093716","2022-01-14 13:00","2022","01","14","13:00","-27.4","","-30.4","","76","","","","27","","14","","19.3","","100.73","","","","-38","","Ice Crystals"
"-77.70","53.63","LA GRANDE RIVIERE A","7093716","2022-01-14 14:00","2022","01","14","14:00","-26.7","","-29.7","","77","","","","28","","18","","24.1","","100.80","","","","-38","","Ice Crystals"
"-77.70","53.63","LA GRANDE RIVIERE A","7093716","2022-01-14 15:00","2022","01","14","15:00","-26.8","","-29.7","","77","","","","27","","16","","19.3","","100.88","","","","-38","","Ice Crystals"
"-77.70","53.63","LA GRANDE RIVIERE A","7093716","2022-01-14 16:00","2022","01","14","16:00","-28.1","","-31.1","","76","","","","27","","11","","24.1","","100.95","","","","-37","","Ice Crystals"
"-77.70","53.63","LA GRANDE RIVIERE A","7093716","2022-01-14 17:00","2022","01","14","17:00","-28.5","","-31.5","","76","","","","24","","12","","24.1","","101.01","","","","-38","","Ice Crystals"
"-77.70","53.63","LA GRANDE RIVIERE A","7093716","2022-01-14 18:00","2022","01","14","18:00","-28.7","","-31.7","","76","","","","25","","13","","24.1","","101.05","","","","-39","","NA"
"-77.70","53.63","LA GRANDE RIVIERE A","7093716","2022-01-14 19:00","2022","01","14","19:00","-29.4","","-32.5","","75","","","","24","","10","","24.1","","101.09","","","","-38","","Mainly Clear"
"-77.70","53.63","LA GRANDE RIVIERE A","7093716","2022-01-14 20:00","2022","01","14","20:00","-30.5","","-33.7","","75","","","","26","","12","","24.1","","101.10","","","","-41","","NA"
"-77.70","53.63","LA GRANDE RIVIERE A","7093716","2022-01-14 21:00","2022","01","14","21:00","-31.2","","-34.4","","74","","","","25","","8","","24.1","","101.12","","","","-39","","NA"
"-77.70","53.63","LA GRANDE RIVIERE A","7093716","2022-01-14 22:00","2022","01","14","22:00","-30.3","","-33.4","","75","","","","25","","9","","24.1","","101.12","","","","-39","","Ice Crystals"
"-77.70","53.63","LA GRANDE RIVIERE A","7093716","2022-01-14 23:00","2022","01","14","23:00","-30.2","","-33.3","","75","","","","22","","9","","12.9","","101.08","","","","-39","","Ice Crystals"
"-77.70","53.63","LA GRANDE RIVIERE A","7093716","2022-01-15 00:00","2022","01","15","00:00","-30.3","","-33.5","","74","","","","20","","9","","12.9","","101.04","","","","-39","","Ice Crystals"
"-77.70","53.63","LA GRANDE RIVIERE A","7093716","2022-01-15 01:00","2022","01","15","01:00","-30.3","","-33.4","","75","","","","20","","12","","19.3","","100.99","","","","-41","","Ice Crystals"
"-77.70","53.63","LA GRANDE RIVIERE A","7093716","2022-01-15 02:00","2022","01","15","02:00","-29.9","","-33.0","","75","","","","21","","12","","19.3","","100.95","","","","-40","","Ice Crystals"
"-77.70","53.63","LA GRANDE RIVIERE A","7093716","2022-01-15 03:00","2022","01","15","03:00","-29.8","","-32.9","","75","","","","21","","12","","24.1","","100.92","","","","-40","","Ice Crystals"
"-77.70","53.63","LA GRANDE RIVIERE A","7093716","2022-01-15 04:00","2022","01","15","04:00","-30.2","","-33.4","","74","","","","21","","15","","19.3","","100.84","","","","-42","","Ice Crystals"
"-77.70","53.63","LA GRANDE RIVIERE A","7093716","2022-01-15 05:00","2022","01","15","05:00","-30.4","","-33.6","","74","","","","20","","13","","12.9","","100.82","","","","-41","","Ice Crystals"
"-77.70","53.63","LA GRANDE RIVIERE A","7093716","2022-01-15 06:00","2022","01","15","06:00","-31.0","","-34.2","","74","","","","19","","14","","19.3","","100.74","","","","-42","","NA"
"-77.70","53.63","LA GRANDE RIVIERE A","7093716","2022-01-15 07:00","2022","01","15","07:00","-30.2","","-33.4","","75","","","","20","","14","","24.1","","100.70","","","","-41","","Mainly Clear"
"-77.70","53.63","LA GRANDE RIVIERE A","7093716","2022-01-15 08:00","2022","01","15","08:00","-30.1","","-33.3","","75","","","","20","","15","","24.1","","100.62","","","","-42","","NA"
"-77.70","53.63","LA GRANDE RIVIERE A","7093716","2022-01-15 09:00","2022","01","15","09:00","-28.8","","-31.9","","76","","","","19","","21","","6.4","","100.52","","","","-42","","Ice Crystals"
"-77.70","53.63","LA GRANDE RIVIERE A","7093716","2022-01-15 10:00","2022","01","15","10:00","-27.6","","-30.5","","76","","","","19","","14","","8.1","","100.51","","","","-38","","Ice Crystals"
"-77.70","53.63","LA GRANDE RIVIERE A","7093716","2022-01-15 11:00","2022","01","15","11:00","-25.2","","-28.0","","78","","","","20","","21","","8.1","","100.33","","","","-37","","Ice Crystals"
"-77.70","53.63","LA GRANDE RIVIERE A","7093716","2022-01-15 12:00","2022","01","15","12:00","-24.3","","-27.1","","78","","","","20","","23","","4.8","","100.17","","","","-37","","Ice Crystals"
"-77.70","53.63","LA GRANDE RIVIERE A","7093716","2022-01-15 13:00","2022","01","15","13:00","-24.0","","-26.8","","79","","","","20","","26","","9.7","","100.06","","","","-37","","Ice Crystals"
"-77.70","53.63","LA GRANDE RIVIERE A","7093716","2022-01-15 14:00","2022","01","15","14:00","-24.1","","-26.8","","79","","","","19","","23","","19.3","","99.88","","","","-36","","Ice Crystals"
"-77.70","53.63","LA GRANDE RIVIERE A","7093716","2022-01-15 15:00","2022","01","15","15:00","-24.3","","-27.0","","79","","","","19","","23","","24.1","","99.82","","","","-37","","Ice Crystals"
"-77.70","53.63","LA GRANDE RIVIERE A","7093716","2022-01-15 16:00","2022","01","15","16:00","-24.8","","-27.6","","78","","","","19","","19","","24.1","","99.67","","","","-36","","Ice Crystals"
"-77.70","53.63","LA GRANDE RIVIERE A","7093716","2022-01-15 17:00","2022","01","15","17:00","-25.2","","-28.0","","78","","","","18","","24","","24.1","","99.50","","","","-38","","Ice Crystals"
"-77.70","53.63","LA GRANDE RIVIERE A","7093716","2022-01-15 18:00","2022","01","15","18:00","-24.9","","-27.7","","78","","","","18","","26","","24.1","","99.38","","","","-38","","NA"
"-77.70","53.63","LA GRANDE RIVIERE A","7093716","2022-01-15 19:00","2022","01","15","19:00","-25.1","","-27.9","","78","","","","18","","32","","24.1","","99.21","","","","-40","","Mainly Clear"
"-77.70","53.63","LA GRANDE RIVIERE A","7093716","2022-01-15 20:00","2022","01","15","20:00","-23.9","","-26.5","","79","","","","18","","29","","24.1","","99.07","","","","-37","","NA"
"-77.70","53.63","LA GRANDE RIVIERE A","7093716","2022-01-15 21:00","2022","01","15","21:00","-22.8","","-25.4","","80","","","","17","","29","","24.1","","98.87","","","","-36","","NA"
"-77.70","53.63","LA GRANDE RIVIERE A","7093716","2022-01-15 22:00","2022","01","15","22:00","-22.0","","-24.5","","80","","","","19","","25","","24.1","","98.74","","","","-34","","Cloudy"
"-77.70","53.63","LA GRANDE RIVIERE A","7093716","2022-01-15 23:00","2022","01","15","23:00","-21.3","","-23.8","","81","","","","19","","23","","24.1","","98.62","","","","-33","","NA"
"-77.70","53.63","LA GRANDE RIVIERE A","7093716","2022-01-16 00:00","2022","01","16","00:00","-20.8","","-23.2","","81","","","","18","","29","","24.1","","98.55","","","","-33","","Snow"
"-77.70","53.63","LA GRANDE RIVIERE A","7093716","2022-01-16 01:00","2022","01","16","01:00","-20.1","","-22.5","","81","","","","18","","27","","12.9","","98.39","","","","-32","","Snow"
"-77.70","53.63","LA GRANDE RIVIERE A","7093716","2022-01-16 02:00","2022","01","16","02:00","-19.8","","-22.1","","82","","","","17","","26","","3.2","","98.31","","","","-32","","Snow"
"-77.70","53.63","LA GRANDE RIVIERE A","7093716","2022-01-16 03:00","2022","01","16","03:00","-18.9","","-21.2","","82","","","","17","","25","","4.8","","98.18","","","","-30","","Snow"
"-77.70","53.63","LA GRANDE RIVIERE A","7093716","2022-01-16 04:00","2022","01","16","04:00","-18.2","","-20.5","","82","","","","18","","23","","2.4","","98.07","","","","-29","","Snow"
"-77.70","53.63","LA GRANDE RIVIERE A","7093716","2022-01-16 05:00","2022","01","16","05:00","-17.3","","-19.6","","83","","","","18","","18","","2.4","","98.02","","","","-27","","Snow"
"-77.70","53.63","LA GRANDE RIVIERE A","7093716","2022-01-16 06:00","2022","01","16","06:00","-16.4","","-18.7","","83","","","","19","","27","","1.2","","97.93","","","","-27","","Snow"
"-77.70","53.63","LA GRANDE RIVIERE A","7093716","2022-01-16 07:00","2022","01","16","07:00","-15.2","","-17.5","","83","","","","19","","27","","2.4","","97.87","","","","-26","","Snow,Blowing Snow"
"-77.70","53.63","LA GRANDE RIVIERE A","7093716","2022-01-16 08:00","2022","01","16","08:00","-14.6","","-16.8","","83","","","","19","","27","","2.0","","97.84","","","","-25","","Snow,Blowing Snow"
"-77.70","53.63","LA GRANDE RIVIERE A","7093716","2022-01-16 09:00","2022","01","16","09:00","-13.9","","-16.1","","84","","","","19","","25","","2.0","","97.80","","","","-24","","Snow,Blowing Snow"
"-77.70","53.63","LA GRANDE RIVIERE A","7093716","2022-01-16 10:00","2022","01","16","10:00","-12.9","","-15.1","","84","","","","19","","28","","2.4","","97.78","","","","-23","","Snow,Blowing Snow"
"-77.70","53.63","LA GRANDE RIVIERE A","7093716","2022-01-16 11:00","2022","01","16","11:00","-12.5","","-14.6","","84","","","","19","","25","","1.2","","97.74","","","","-22","","Snow,Blowing Snow"
"-77.70","53.63","LA GRANDE RIVIERE A","7093716","2022-01-16 12:00","2022","01","16","12:00","-11.8","","-14.1","","83","","","","19","","26","","2.0","","97.69","","","","-21","","Snow,Blowing Snow"
"-77.70","53.63","LA GRANDE RIVIERE A","7093716","2022-01-16 13:00","2022","01","16","13:00","-11.4","","-13.6","","84","","","","20","","23","","2.0","","97.67","","","","-20","","Snow,Blowing Snow"
"-77.70","53.63","LA GRANDE RIVIERE A","7093716","2022-01-16 14:00","2022","01","16","14:00","-11.3","","-13.5","","84","","","","19","","26","","2.0","","97.64","","","","-21","","Snow,Blowing Snow"
"-77.70","53.63","LA GRANDE RIVIERE A","7093716","2022-01-16 15:00","2022","01","16","15:00","-11.4","","-13.4","","85","","","","19","","22","","1.6","","97.65","","","","-20","","Snow,Blowing Snow"
"-77.70","53.63","LA GRANDE RIVIERE A","7093716","2022-01-16 16:00","2022","01","16","16:00","-11.5","","-13.4","","86","","","","19","","21","","2.0","","97.66","","","","-20","","Snow,Blowing Snow"
"-77.70","53.63","LA GRANDE RIVIERE A","7093716","2022-01-16 17:00","2022","01","16","17:00","-11.3","","-13.1","","86","","","","19","","19","","2.0","","97.68","","","","-19","","Snow,Blowing Snow"
"-77.70","53.63","LA GRANDE RIVIERE A","7093716","2022-01-16 18:00","2022","01","16","18:00","-11.3","","-13.1","","87","","","","19","","18","","2.4","","97.70","","","","-19","","Snow,Blowing Snow"
"-77.70","53.63","LA GRANDE RIVIERE A","7093716","2022-01-16 19:00","2022","01","16","19:00","-11.9","","-13.5","","88","","","","18","","14","","2.8","","97.73","","","","-19","","Snow,Blowing Snow"
"-77.70","53.63","LA GRANDE RIVIERE A","7093716","2022-01-16 20:00","2022","01","16","20:00","-11.8","","-13.4","","88","","","","19","","15","","2.4","","97.75","","","","-19","","Snow"
"-77.70","53.63","LA GRANDE RIVIERE A","7093716","2022-01-16 21:00","2022","01","16","21:00","-11.0","","-12.6","","88","","","","24","","15","","2.8","","97.74","","","","-18","","Snow"
"-77.70","53.63","LA GRANDE RIVIERE A","7093716","2022-01-16 22:00","2022","01","16","22:00","-14.5","","-16.7","","84","","","","29","","13","","3.2","","97.83","","","","-22","","Snow"
"-77.70","53.63","LA GRANDE RIVIERE A","7093716","2022-01-16 23:00","2022","01","16","23:00","-16.9","","-18.9","","85","","","","29","","14","","24.1","","97.91","","","","-25","","Snow"
"-77.70","53.63","LA GRANDE RIVIERE A","7093716","2022-01-17 00:00","2022","01","17","00:00","-19.4","","-21.4","","84","","","","28","","12","","19.3","","97.98","","","","-27","","Snow"
"-77.70","53.63","LA GRANDE RIVIERE A","7093716","2022-01-17 01:00","2022","01","17","01:00","-18.8","","-20.8","","84","","","","27","","14","","24.1","","98.02","","","","-27","","Snow"
"-77.70","53.63","LA GRANDE RIVIERE A","7093716","2022-01-17 02:00","2022","01","17","02:00","-21.8","","-23.6","","86","","","","26","","9","","24.1","","98.10","","","","-29","","Snow"
"-77.70","53.63","LA GRANDE RIVIERE A","7093716","2022-01-17 03:00","2022","01","17","03:00","-23.8","","-25.9","","83","","","","28","","12","","24.1","","98.13","","","","-33","","Snow"
"-77.70","53.63","LA GRANDE RIVIERE A","7093716","2022-01-17 04:00","2022","01","17","04:00","-25.5","","-27.4","","85","","","","28","","10","","24.1","","98.14","","","","-34","","Mainly Clear"
"-77.70","53.63","LA GRANDE RIVIERE A","7093716","2022-01-17 05:00","2022","01","17","05:00","-25.9","","-28.0","","83","","","","25","","10","","24.1","","98.14","","","","-34","","NA"
"-77.70","53.63","LA GRANDE RIVIERE A","7093716","2022-01-17 06:00","2022","01","17","06:00","-26.1","","-28.5","","81","","","","21","","9","","24.1","","98.20","","","","-34","","NA"
"-77.70","53.63","LA GRANDE RIVIERE A","7093716","2022-01-17 07:00","2022","01","17","07:00","-25.8","","-28.3","","79","","","","21","","9","","24.1","","98.19","","","","-34","","Mainly Clear"
"-77.70","53.63","LA GRANDE RIVIERE A","7093716","2022-01-17 08:00","2022","01","17","08:00","-24.6","","-27.3","","79","","","","22","","9","","24.1","","98.18","","","","-32","","Snow"
"-77.70","53.63","LA GRANDE RIVIERE A","7093716","2022-01-17 09:00","2022","01","17","09:00","-25.2","","-27.9","","79","","","","24","","7","","24.1","","98.10","","","","-32","","NA"
"-77.70","53.63","LA GRANDE RIVIERE A","7093716","2022-01-17 10:00","2022","01","17","10:00","-24.6","","-27.1","","80","","","","24","","9","","24.1","","98.03","","","","-32","","Mainly Clear"
"-77.70","53.63","LA GRANDE RIVIERE A","7093716","2022-01-17 11:00","2022","01","17","11:00","-22.4","","-25.0","","80","","","","18","","14","","24.1","","98.14","","","","-32","","NA"
"-77.70","53.63","LA GRANDE RIVIERE A","7093716","2022-01-17 12:00","2022","01","17","12:00","-21.5","","-23.9","","81","","","","24","","14","","24.1","","98.12","","","","-31","","NA"
"-77.70","53.63","LA GRANDE RIVIERE A","7093716","2022-01-17 13:00","2022","01","17","13:00","-21.4","","-23.9","","80","","","","26","","16","","24.1","","98.11","","","","-31","","Mainly Clear"
"-77.70","53.63","LA GRANDE RIVIERE A","7093716","2022-01-17 14:00","2022","01","17","14:00","-21.1","","-24.1","","78","","","","26","","15","","24.1","","98.10","","","","-30","","NA"
"-77.70","53.63","LA GRANDE RIVIERE A","7093716","2022-01-17 15:00","2022","01","17","15:00","-22.1","","-25.4","","75","","","","27","","16","","24.1","","98.11","","","","-32","","NA"
"-77.70","53.63","LA GRANDE RIVIERE A","7093716","2022-01-17 16:00","2022","01","17","16:00","-22.9","","-25.8","","78","","","","29","","12","","24.1","","98.07","","","","-32","","Mainly Clear"
"-77.70","53.63","LA GRANDE RIVIERE A","7093716","2022-01-17 17:00","2022","01","17","17:00","-24.6","","-27.2","","79","","","","30","","15","","24.1","","98.03","","","","-35","","NA"
"-77.70","53.63","LA GRANDE RIVIERE A","7093716","2022-01-17 18:00","2022","01","17","18:00","-26.4","","-28.8","","81","","","","29","","8","","24.1","","98.02","","","","-34","","NA"
"-77.70","53.63","LA GRANDE RIVIERE A","7093716","2022-01-17 19:00","2022","01","17","19:00","-27.6","","-30.2","","79","","","","30","","8","","24.1","","98.06","","","","-35","","Mainly Clear"
"-77.70","53.63","LA GRANDE RIVIERE A","7093716","2022-01-17 20:00","2022","01","17","20:00","-28.5","","-31.1","","79","","","","30","","6","","24.1","","98.06","","","","-35","","NA"
"-77.70","53.63","LA GRANDE RIVIERE A","7093716","2022-01-17 21:00","2022","01","17","21:00","-31.1","","-33.9","","77","","","","36","","2","","16.1","","98.12","","","","-33","","Ice Crystals"
"-77.70","53.63","LA GRANDE RIVIERE A","7093716","2022-01-17 22:00","2022","01","17","22:00","-30.3","","-32.8","","79","","","","28","","7","","24.1","","98.09","","","","-38","","Ice Crystals"
"-77.70","53.63","LA GRANDE RIVIERE A","7093716","2022-01-17 23:00","2022","01","17","23:00","-32.6","","-35.2","","78","","","","27","","11","","24.1","","98.02","","","","-43","","Ice Crystals"
"-77.70","53.63","LA GRANDE RIVIERE A","7093716","2022-01-18 00:00","2022","01","18","00:00","-31.8","","-34.5","","77","","","","25","","8","","24.1","","98.03","","","","-40","","Ice Crystals"
"-77.70","53.63","LA GRANDE RIVIERE A","7093716","2022-01-18 01:00","2022","01","18","01:00","-32.4","","-35.4","","75","","","","24","","10","","16.1","","98.03","","","","-42","","Ice Crystals"
"-77.70","53.63","LA GRANDE RIVIERE A","7093716","2022-01-18 02:00","2022","01","18","02:00","-32.0","","-35.2","","74","","","","25","","14","","9.7","","98.04","","","","-43","","Snow"
"-77.70","53.63","LA GRANDE RIVIERE A","7093716","2022-01-18 03:00","2022","01","18","03:00","-34.0","","-37.2","","74","","","","26","","14","","24.1","","98.05","","","","-46","","Snow"
"-77.70","53.63","LA GRANDE RIVIERE A","7093716","2022-01-18 04:00","2022","01","18","04:00","-34.0","","-37.2","","73","","","","26","","14","","12.9","","98.09","","","","-46","","Snow"
"-77.70","53.63","LA GRANDE RIVIERE A","7093716","2022-01-18 05:00","2022","01","18","05:00","-32.6","","-35.8","","74","","","","25","","13","","12.9","","98.13","","","","-44","","Snow"
"-77.70","53.63","LA GRANDE RIVIERE A","7093716","2022-01-18 06:00","2022","01","18","06:00","-31.7","","-34.8","","75","","","","25","","13","","16.1","","98.18","","","","-43","","Ice Crystals"
"-77.70","53.63","LA GRANDE RIVIERE A","7093716","2022-01-18 07:00","2022","01","18","07:00","-32.3","","-35.4","","74","","","","26","","14","","24.1","","98.25","","","","-44","","Ice Crystals"
"-77.70","53.63","LA GRANDE RIVIERE A","7093716","2022-01-18 08:00","2022","01","18","08:00","-31.6","","-34.8","","74","","","","26","","14","","24.1","","98.34","","","","-43","","Snow"
"-77.70","53.63","LA GRANDE RIVIERE A","7093716","2022-01-18 09:00","2022","01","18","09:00","-31.1","","-34.3","","74","","","","25","","13","","24.1","","98.39","","","","-42","","Snow"
"-77.70","53.63","LA GRANDE RIVIERE A","7093716","2022-01-18 10:00","2022","01","18","10:00","-29.4","","-32.5","","75","","","","26","","12","","24.1","","98.44","","","","-39","","Snow"
"-77.70","53.63","LA GRANDE RIVIERE A","7093716","2022-01-18 11:00","2022","01","18","11:00","-26.2","","-29.1","","77","","","","27","","18","","24.1","","98.50","","","","-38","","NA"
"-77.70","53.63","LA GRANDE RIVIERE A","7093716","2022-01-18 12:00","2022","01","18","12:00","-24.5","","-27.2","","78","","","","27","","17","","24.1","","98.50","","","","-35","","NA"
"-77.70","53.63","LA GRANDE RIVIERE A","7093716","2022-01-18 13:00","2022","01","18","13:00","-23.9","","-26.6","","79","","","","25","","18","","24.1","","98.52","","","","-35","","Mainly Clear"
"-77.70","53.63","LA GRANDE RIVIERE A","7093716","2022-01-18 14:00","2022","01","18","14:00","-23.7","","-26.4","","79","","","","25","","22","","24.1","","98.58","","","","-36","","NA"
"-77.70","53.63","LA GRANDE RIVIERE A","7093716","2022-01-18 15:00","2022","01","18","15:00","-23.9","","-26.7","","78","","","","25","","17","","24.1","","98.61","","","","-35","","NA"
"-77.70","53.63","LA GRANDE RIVIERE A","7093716","2022-01-18 16:00","2022","01","18","16:00","-24.9","","-27.8","","78","","","","25","","14","","24.1","","98.67","","","","-35","","Mainly Clear"
"-77.70","53.63","LA GRANDE RIVIERE A","7093716","2022-01-18 17:00","2022","01","18","17:00","-25.7","","-28.6","","78","","","","22","","9","","24.1","","98.75","","","","-33","","NA"
"-77.70","53.63","LA GRANDE RIVIERE A","7093716","2022-01-18 18:00","2022","01","18","18:00","-25.8","","-28.6","","78","","","","19","","8","","24.1","","98.80","","","","-33","","Snow"
"-77.70","53.63","LA GRANDE RIVIERE A","7093716","2022-01-18 19:00","2022","01","18","19:00","-26.6","","-29.4","","77","","","","22","","9","","19.3","","98.81","","","","-35","","Snow"
"-77.70","53.63","LA GRANDE RIVIERE A","7093716","2022-01-18 20:00","2022","01","18","20:00","-26.4","","-29.2","","78","","","","22","","13","","24.1","","98.79","","","","-36","","Ice Crystals"
"-77.70","53.63","LA GRANDE RIVIERE A","7093716","2022-01-18 21:00","2022","01","18","21:00","-27.4","","-30.3","","77","","","","21","","12","","24.1","","98.82","","","","-37","","Ice Crystals"
"-77.70","53.63","LA GRANDE RIVIERE A","7093716","2022-01-18 22:00","2022","01","18","22:00","-28.5","","-31.4","","76","","","","19","","10","","12.9","","98.83","","","","-37","","Ice Crystals"
"-77.70","53.63","LA GRANDE RIVIERE A","7093716","2022-01-18 23:00","2022","01","18","23:00","-29.0","","-31.9","","76","","","","18","","13","","24.1","","98.83","","","","-39","","Ice Crystals"
"-77.70","53.63","LA GRANDE RIVIERE A","7093716","2022-01-19 00:00","2022","01","19","00:00","-29.5","","-32.5","","76","","","","18","","10","","24.1","","98.80","","","","-39","","Ice Crystals"
"-77.70","53.63","LA GRANDE RIVIERE A","7093716","2022-01-19 01:00","2022","01","19","01:00","-29.9","","-33.0","","75","","","","18","","17","","24.1","","98.81","","","","-42","","Ice Crystals"
"-77.70","53.63","LA GRANDE RIVIERE A","7093716","2022-01-19 02:00","2022","01","19","02:00","-29.4","","-32.4","","76","","","","18","","14","","24.1","","98.82","","","","-40","","Ice Crystals"
"-77.70","53.63","LA GRANDE RIVIERE A","7093716","2022-01-19 03:00","2022","01","19","03:00","-29.6","","-32.6","","75","","","","18","","14","","24.1","","98.82","","","","-41","","Ice Crystals"
"-77.70","53.63","LA GRANDE RIVIERE A","7093716","2022-01-19 04:00","2022","01","19","04:00","-30.4","","-33.5","","75","","","","15","","9","","19.3","","98.78","","","","-39","","Ice Crystals"
"-77.70","53.63","LA GRANDE RIVIERE A","7093716","2022-01-19 05:00","2022","01","19","05:00","-29.9","","-33.0","","75","","","","15","","12","","24.1","","98.74","","","","-40","","Ice Crystals"
"-77.70","53.63","LA GRANDE RIVIERE A","7093716","2022-01-19 06:00","2022","01","19","06:00","-30.9","","-34.0","","75","","","","11","","7","","24.1","","98.73","","","","-38","","NA"
"-77.70","53.63","LA GRANDE RIVIERE A","7093716","2022-01-19 07:00","2022","01","19","07:00","-31.8","","-35.0","","74","","","","9","","6","","24.1","","98.71","","","","-39","","Mostly Cloudy"
"-77.70","53.63","LA GRANDE RIVIERE A","7093716","2022-01-19 08:00","2022","01","19","08:00","-31.7","","-34.9","","74","","","","9","","6","","24.1","","98.73","","","","-38","","NA"
"-77.70","53.63","LA GRANDE RIVIERE A","7093716","2022-01-19 09:00","2022","01","19","09:00","-31.5","","-34.7","","74","","","","10","","8","","24.1","","98.71","","","","-40","","NA"
"-77.70","53.63","LA GRANDE RIVIERE A","7093716","2022-01-19 10:00","2022","01","19","10:00","-30.8","","-33.9","","75","","","","8","","9","","24.1","","98.73","","","","-40","","Mostly Cloudy"
"-77.70","53.63","LA GRANDE RIVIERE A","7093716","2022-01-19 11:00","2022","01","19","11:00","-29.6","","-32.7","","75","","","","5","","7","","24.1","","98.67","","","","-37","","NA"
"-77.70","53.63","LA GRANDE RIVIERE A","7093716","2022-01-19 12:00","2022","01","19","12:00","-27.9","","-30.9","","76","","","","5","","8","","24.1","","98.64","","","","-36","","NA"
"-77.70","53.63","LA GRANDE RIVIERE A","7093716","2022-01-19 13:00","2022","01","19","13:00","-27.2","","-30.2","","76","","","","5","","7","","24.1","","98.64","","","","-34","","Mostly Cloudy"
"-77.70","53.63","LA GRANDE RIVIERE A","7093716","2022-01-19 14:00","2022","01","19","14:00","-27.1","","-30.1","","77","","","","5","","6","","24.1","","98.63","","","","-33","","NA"
"-77.70","53.63","LA GRANDE RIVIERE A","7093716","2022-01-19 15:00","2022","01","19","15:00","-25.6","","-28.4","","78","","","","2","","5","","24.1","","98.68","","","","-31","","NA"
"-77.70","53.63","LA GRANDE RIVIERE A","7093716","2022-01-19 16:00","2022","01","19","16:00","-26.1","","-28.9","","77","","","","4","","4","","24.1","","98.73","","","","-30","","Mostly Cloudy"
"-77.70","53.63","LA GRANDE RIVIERE A","7093716","2022-01-19 17:00","2022","01","19","17:00","-27.3","","-30.3","","76","","","","32","","5","","24.1","","98.79","","","","-33","","NA"
"-77.70","53.63","LA GRANDE RIVIERE A","7093716","2022-01-19 18:00","2022","01","19","18:00","-27.7","","-30.6","","77","","","","32","","5","","24.1","","98.84","","","","-33","","Snow"
"-77.70","53.63","LA GRANDE RIVIERE A","7093716","2022-01-19 19:00","2022","01","19","19:00","-30.2","","-33.3","","75","","","","29","","10","","24.1","","98.91","","","","-39","","Ice Crystals"
"-77.70","53.63","LA GRANDE RIVIERE A","7093716","2022-01-19 20:00","2022","01","19","20:00","-29.7","","-32.8","","75","","","","28","","8","","24.1","","98.97","","","","-38","","Ice Crystals"
"-77.70","53.63","LA GRANDE RIVIERE A","7093716","2022-01-19 21:00","2022","01","19","21:00","-27.9","","-30.8","","77","","","","30","","12","","24.1","","99.00","","","","-38","","Snow"
"-77.70","53.63","LA GRANDE RIVIERE A","7093716","2022-01-19 22:00","2022","01","19","22:00","-28.4","","-31.4","","76","","","","27","","10","","24.1","","99.04","","","","-37","","Snow"
"-77.70","53.63","LA GRANDE RIVIERE A","7093716","2022-01-19 23:00","2022","01","19","23:00","-28.4","","-31.4","","76","","","","25","","8","","24.1","","99.10","","","","-36","","Snow"
"-77.70","53.63","LA GRANDE RIVIERE A","7093716","2022-01-20 00:00","2022","01","20","00:00","-28.5","","-31.5","","76","","","","25","","8","","24.1","","99.15","","","","-36","","Snow"
"-77.70","53.63","LA GRANDE RIVIERE A","7093716","2022-01-20 01:00","2022","01","20","01:00","-30.1","","-33.2","","75","","","","26","","10","","24.1","","99.18","","","","-39","","Snow"
"-77.70","53.63","LA GRANDE RIVIERE A","7093716","2022-01-20 02:00","2022","01","20","02:00","-29.9","","-33.0","","75","","","","25","","10","","24.1","","99.24","","","","-39","","Snow"
"-77.70","53.63","LA GRANDE RIVIERE A","7093716","2022-01-20 03:00","2022","01","20","03:00","-29.4","","-32.5","","75","","","","25","","14","","24.1","","99.32","","","","-40","","Snow"
"-77.70","53.63","LA GRANDE RIVIERE A","7093716","2022-01-20 04:00","2022","01","20","04:00","-30.0","","-33.1","","75","","","","25","","15","","24.1","","99.37","","","","-41","","Snow"
"-77.70","53.63","LA GRANDE RIVIERE A","7093716","2022-01-20 05:00","2022","01","20","05:00","-30.3","","-33.4","","75","","","","25","","12","","19.3","","99.42","","","","-41","","Snow"
"-77.70","53.63","LA GRANDE RIVIERE A","7093716","2022-01-20 06:00","2022","01","20","06:00","-29.9","","-33.0","","75","","","","24","","18","","24.1","","99.47","","","","-42","","Ice Crystals"
"-77.70","53.63","LA GRANDE RIVIERE A","7093716","2022-01-20 07:00","2022","01","20","07:00","-30.2","","-33.3","","75","","","","22","","14","","24.1","","99.50","","","","-41","","Ice Crystals"
"-77.70","53.63","LA GRANDE RIVIERE A","7093716","2022-01-20 08:00","2022","01","20","08:00","-30.7","","-33.8","","75","","","","23","","17","","6.4","","99.52","","","","-43","","Ice Crystals"
"-77.70","53.63","LA GRANDE RIVIERE A","7093716","2022-01-20 09:00","2022","01","20","09:00","-31.1","","-34.3","","74","","","","21","","14","","6.4","","99.53","","","","-42","","Ice Crystals"
"-77.70","53.63","LA GRANDE RIVIERE A","7093716","2022-01-20 10:00","2022","01","20","10:00","-29.0","","-32.1","","75","","","","24","","16","","6.4","","99.58","","","","-41","","Ice Crystals"
"-77.70","53.63","LA GRANDE RIVIERE A","7093716","2022-01-20 11:00","2022","01","20","11:00","-27.9","","-30.9","","76","","","","23","","17","","4.8","","99.61","","","","-40","","Ice Crystals"
"-77.70","53.63","LA GRANDE RIVIERE A","7093716","2022-01-20 12:00","2022","01","20","12:00","-27.0","","-29.9","","77","","","","22","","26","","9.7","","99.60","","","","-41","","Ice Crystals"
"-77.70","53.63","LA GRANDE RIVIERE A","7093716","2022-01-20 13:00","2022","01","20","13:00","-26.5","","-29.4","","77","","","","22","","23","","9.7","","99.59","","","","-39","","Ice Crystals"
"-77.70","53.63","LA GRANDE RIVIERE A","7093716","2022-01-20 14:00","2022","01","20","14:00","-25.9","","-28.7","","77","","","","22","","24","","9.7","","99.60","","","","-39","","Ice Crystals"
"-77.70","53.63","LA GRANDE RIVIERE A","7093716","2022-01-20 15:00","2022","01","20","15:00","-26.0","","-28.8","","77","","","","21","","23","","11.3","","99.60","","","","-39","","Ice Crystals"
"-77.70","53.63","LA GRANDE RIVIERE A","7093716","2022-01-20 16:00","2022","01","20","16:00","-26.3","","-29.2","","77","","","","22","","23","","16.1","","99.61","","","","-39","","Ice Crystals"
"-77.70","53.63","LA GRANDE RIVIERE A","7093716","2022-01-20 17:00","2022","01","20","17:00","-26.4","","-29.2","","77","","","","20","","23","","12.9","","99.69","","","","-39","","Ice Crystals"
"-77.70","53.63","LA GRANDE RIVIERE A","7093716","2022-01-20 18:00","2022","01","20","18:00","-26.8","","-29.7","","77","","","","21","","23","","6.4","","99.72","","","","-40","","Snow"
"-77.70","53.63","LA GRANDE RIVIERE A","7093716","2022-01-20 19:00","2022","01","20","19:00","-27.3","","-30.3","","77","","","","21","","24","","11.3","","99.74","","","","-41","","Snow"
"-77.70","53.63","LA GRANDE RIVIERE A","7093716","2022-01-20 20:00","2022","01","20","20:00","-27.4","","-30.3","","77","","","","20","","22","","24.1","","99.70","","","","-40","","Snow"
"-77.70","53.63","LA GRANDE RIVIERE A","7093716","2022-01-20 21:00","2022","01","20","21:00","-27.0","","-29.9","","77","","","","20","","22","","11.3","","99.69","","","","-40","","Snow"
"-77.70","53.63","LA GRANDE RIVIERE A","7093716","2022-01-20 22:00","2022","01","20","22:00","-26.4","","-29.3","","77","","","","20","","21","","11.3","","99.69","","","","-39","","Snow"
"-77.70","53.63","LA GRANDE RIVIERE A","7093716","2022-01-20 23:00","2022","01","20","23:00","-25.6","","-28.4","","78","","","","21","","20","","16.1","","99.65","","","","-38","","Snow"
"-77.70","53.63","LA GRANDE RIVIERE A","7093716","2022-01-21 00:00","2022","01","21","00:00","-25.3","","-28.1","","78","","","","20","","19","","11.3","","99.63","","","","-37","","Snow"
"-77.70","53.63","LA GRANDE RIVIERE A","7093716","2022-01-21 01:00","2022","01","21","01:00","-25.7","","-28.5","","78","","","","20","","22","","24.1","","99.60","","","","-38","","Ice Crystals"
"-77.70","53.63","LA GRANDE RIVIERE A","7093716","2022-01-21 02:00","2022","01","21","02:00","-25.5","","-28.3","","78","","","","19","","23","","24.1","","99.56","","","","-38","","Ice Crystals"
"-77.70","53.63","LA GRANDE RIVIERE A","7093716","2022-01-21 03:00","2022","01","21","03:00","-25.0","","-27.8","","78","","","","20","","20","","11.3","","99.61","","","","-37","","Ice Crystals"
"-77.70","53.63","LA GRANDE RIVIERE A","7093716","2022-01-21 04:00","2022","01","21","04:00","-25.2","","-28.0","","78","","","","19","","18","","11.3","","99.60","","","","-36","","Ice Crystals"
"-77.70","53.63","LA GRANDE RIVIERE A","7093716","2022-01-21 05:00","2022","01","21","05:00","-25.5","","-28.3","","78","","","","20","","20","","11.3","","99.62","","","","-37","","Ice Crystals"
"-77.70","53.63","LA GRANDE RIVIERE A","7093716","2022-01-21 06:00","2022","01","21","06:00","-25.3","","-28.1","","78","","","","19","","19","","11.3","","99.63","","","","-37","","Ice Crystals"
"-77.70","53.63","LA GRANDE RIVIERE A","7093716","2022-01-21 07:00","2022","01","21","07:00","-24.3","","-26.9","","79","","","","20","","23","","9.7","","99.61","","","","-37","","Ice Crystals"
"-77.70","53.63","LA GRANDE RIVIERE A","7093716","2022-01-21 08:00","2022","01","21","08:00","-24.1","","-26.8","","79","","","","19","","20","","6.4","","99.59","","","","-36","","Ice Crystals"
"-77.70","53.63","LA GRANDE RIVIERE A","7093716","2022-01-21 09:00","2022","01","21","09:00","-24.7","","-27.5","","78","","","","18","","22","","8.1","","99.54","","","","-37","","Ice Crystals"
"-77.70","53.63","LA GRANDE RIVIERE A","7093716","2022-01-21 10:00","2022","01","21","10:00","-24.2","","-26.9","","79","","","","18","","19","","9.7","","99.50","","","","-36","","Ice Crystals"
"-77.70","53.63","LA GRANDE RIVIERE A","7093716","2022-01-21 11:00","2022","01","21","11:00","-21.9","","-24.4","","80","","","","20","","31","","12.9","","99.49","","","","-35","","Ice Crystals"
"-77.70","53.63","LA GRANDE RIVIERE A","7093716","2022-01-21 12:00","2022","01","21","12:00","-20.4","","-22.9","","81","","","","19","","30","","19.3","","99.41","","","","-33","","Ice Crystals"
"-77.70","53.63","LA GRANDE RIVIERE A","7093716","2022-01-21 13:00","2022","01","21","13:00","-18.4","","-20.7","","83","","","","19","","28","","24.1","","99.26","","","","-30","","Ice Crystals"
"-77.70","53.63","LA GRANDE RIVIERE A","7093716","2022-01-21 14:00","2022","01","21","14:00","-17.2","","-19.4","","83","","","","19","","31","","24.1","","99.16","","","","-29","","Ice Crystals"
"-77.70","53.63","LA GRANDE RIVIERE A","7093716","2022-01-21 15:00","2022","01","21","15:00","-16.4","","-18.6","","83","","","","19","","28","","24.1","","99.11","","","","-28","","Ice Crystals"
"-77.70","53.63","LA GRANDE RIVIERE A","7093716","2022-01-21 16:00","2022","01","21","16:00","-15.4","","-17.9","","82","","","","18","","29","","24.1","","99.03","","","","-26","","Ice Crystals"
"-77.70","53.63","LA GRANDE RIVIERE A","7093716","2022-01-21 17:00","2022","01","21","17:00","-15.3","","-17.8","","81","","","","18","","34","","24.1","","98.89","","","","-27","","NA"
"-77.70","53.63","LA GRANDE RIVIERE A","7093716","2022-01-21 18:00","2022","01","21","18:00","-14.0","","-16.5","","81","","","","18","","32","","24.1","","98.81","","","","-25","","NA"
"-77.70","53.63","LA GRANDE RIVIERE A","7093716","2022-01-21 19:00","2022","01","21","19:00","-12.9","","-15.4","","82","","","","18","","36","","24.1","","98.71","","","","-24","","Mostly Cloudy"
"-77.70","53.63","LA GRANDE RIVIERE A","7093716","2022-01-21 20:00","2022","01","21","20:00","-11.7","","-14.4","","80","","","","19","","36","","24.1","","98.60","","","","-23","","NA"
"-77.70","53.63","LA GRANDE RIVIERE A","7093716","2022-01-21 21:00","2022","01","21","21:00","-10.7","","-13.7","","79","","","","20","","41","","24.1","","98.54","","","","-22","","NA"
"-77.70","53.63","LA GRANDE RIVIERE A","7093716","2022-01-21 22:00","2022","01","21","22:00","-10.4","","-13.6","","78","","","","20","","39","","24.1","","98.43","","","","-21","","Cloudy"
"-77.70","53.63","LA GRANDE RIVIERE A","7093716","2022-01-21 23:00","2022","01","21","23:00","-10.8","","-13.9","","78","","","","19","","31","","24.1","","98.36","","","","-21","","NA"
"-77.70","53.63","LA GRANDE RIVIERE A","7093716","2022-01-22 00:00","2022","01","22","00:00","-11.1","","-14.2","","78","","","","19","","33","","24.1","","98.23","","","","-21","","NA"
"-77.70","53.63","LA GRANDE RIVIERE A","7093716","2022-01-22 01:00","2022","01","22","01:00","-11.4","","-14.1","","81","","","","19","","36","","6.4","","98.13","","","","-22","","Snow,Blowing Snow"
"-77.70","53.63","LA GRANDE RIVIERE A","7093716","2022-01-22 02:00","2022","01","22","02:00","-11.3","","-13.5","","84","","","","20","","34","","1.6","","98.09","","","","-22","","Snow,Blowing Snow"
"-77.70","53.63","LA GRANDE RIVIERE A","7093716","2022-01-22 03:00","2022","01","22","03:00","-11.2","","-13.2","","85","","","","19","","33","","2.4","","98.03","","","","-22","","Snow,Blowing Snow"
"-77.70","53.63","LA GRANDE RIVIERE A","7093716","2022-01-22 04:00","2022","01","22","04:00","-11.0","","-13.0","","85","","","","19","","33","","2.4","","97.97","","","","-21","","Snow,Blowing Snow"
"-77.70","53.63","LA GRANDE RIVIERE A","7093716","2022-01-22 05:00","2022","01","22","05:00","-11.1","","-13.0","","86","","","","19","","33","","1.6","","97.89","","","","-21","","Snow,Blowing Snow"
"-77.70","53.63","LA GRANDE RIVIERE A","7093716","2022-01-22 06:00","2022","01","22","06:00","-10.7","","-12.5","","86","","","","19","","29","","1.6","","97.83","","","","-20","","Snow,Blowing Snow"
"-77.70","53.63","LA GRANDE RIVIERE A","7093716","2022-01-22 07:00","2022","01","22","07:00","-10.1","","-11.9","","87","","","","19","","27","","1.6","","97.75","","","","-19","","Snow,Blowing Snow"
"-77.70","53.63","LA GRANDE RIVIERE A","7093716","2022-01-22 08:00","2022","01","22","08:00","-9.8","","-11.4","","88","","","","19","","26","","1.0","","97.67","","","","-19","","Snow,Blowing Snow"
"-77.70","53.63","LA GRANDE RIVIERE A","7093716","2022-01-22 09:00","2022","01","22","09:00","-9.5","","-11.2","","88","","","","19","","26","","0.8","","97.61","","","","-18","","Moderate Snow,Blowing Snow"
"-77.70","53.63","LA GRANDE RIVIERE A","7093716","2022-01-22 10:00","2022","01","22","10:00","-9.1","","-10.9","","87","","","","20","","29","","0.8","","97.58","","","","-18","","Moderate Snow,Blowing Snow"
"-77.70","53.63","LA GRANDE RIVIERE A","7093716","2022-01-22 11:00","2022","01","22","11:00","-14.9","","-17.4","","82","","","","28","","27","","1.6","","97.72","","","","-25","","Snow"
"-77.70","53.63","LA GRANDE RIVIERE A","7093716","2022-01-22 12:00","2022","01","22","12:00","-15.9","","-18.6","","80","","","","29","","22","","1.6","","97.75","","","","-26","","Snow"
"-77.70","53.63","LA GRANDE RIVIERE A","7093716","2022-01-22 13:00","2022","01","22","13:00","-17.1","","-20.3","","76","","","","28","","23","","2.4","","97.79","","","","-27","","Snow"
"-77.70","53.63","LA GRANDE RIVIERE A","7093716","2022-01-22 14:00","2022","01","22","14:00","-17.7","","-20.9","","76","","","","28","","27","","2.4","","97.82","","","","-29","","Snow"
"-77.70","53.63","LA GRANDE RIVIERE A","7093716","2022-01-22 15:00","2022","01","22","15:00","-18.9","","-21.8","","78","","","","27","","23","","3.2","","97.89","","","","-30","","Snow"
"-77.70","53.63","LA GRANDE RIVIERE A","7093716","2022-01-22 16:00","2022","01","22","16:00","-19.8","","-22.7","","78","","","","30","","14","","2.4","","97.97","","","","-29","","Snow"
"-77.70","53.63","LA GRANDE RIVIERE A","7093716","2022-01-22 17:00","2022","01","22","17:00","-21.4","","-24.5","","76","","","","28","","16","","4.8","","98.03","","","","-31","","Snow"
"-77.70","53.63","LA GRANDE RIVIERE A","7093716","2022-01-22 18:00","2022","01","22","18:00","-22.2","","-24.9","","79","","","","29","","10","","9.7","","98.05","","","","-30","","Snow"
"-77.70","53.63","LA GRANDE RIVIERE A","7093716","2022-01-22 19:00","2022","01","22","19:00","-23.3","","-26.1","","79","","","","30","","6","","11.3","","98.07","","","","-29","","Snow"
"-77.70","53.63","LA GRANDE RIVIERE A","7093716","2022-01-22 20:00","2022","01","22","20:00","-23.7","","-26.3","","80","","","","29","","10","","16.1","","98.13","","","","-32","","Snow"
"-77.70","53.63","LA GRANDE RIVIERE A","7093716","2022-01-22 21:00","2022","01","22","21:00","-23.7","","-26.7","","77","","","","29","","10","","11.3","","98.15","","","","-32","","Snow"
"-77.70","53.63","LA GRANDE RIVIERE A","7093716","2022-01-22 22:00","2022","01","22","22:00","-24.1","","-27.1","","77","","","","29","","12","","16.1","","98.13","","","","-33","","Snow"
"-77.70","53.63","LA GRANDE RIVIERE A","7093716","2022-01-22 23:00","2022","01","22","23:00","-24.8","","-27.5","","79","","","","29","","8","","16.1","","98.14","","","","-32","","Snow"
"-77.70","53.63","LA GRANDE RIVIERE A","7093716","2022-01-23 00:00","2022","01","23","00:00","-26.9","","-29.3","","80","","","","25","","6","","24.1","","98.11","","","","-33","","Snow"
"-77.70","53.63","LA GRANDE RIVIERE A","7093716","2022-01-23 01:00","2022","01","23","01:00","-28.5","","-30.9","","80","","","","24","","8","","24.1","","98.06","","","","-36","","Ice Crystals"
"-77.70","53.63","LA GRANDE RIVIERE A","7093716","2022-01-23 02:00","2022","01","23","02:00","-30.0","","-32.5","","79","","","","22","","9","","24.1","","98.04","","","","-39","","Ice Crystals"
"-77.70","53.63","LA GRANDE RIVIERE A","7093716","2022-01-23 03:00","2022","01","23","03:00","-28.6","","-31.1","","80","","","","22","","12","","24.1","","98.00","","","","-38","","Ice Crystals"
"-77.70","53.63","LA GRANDE RIVIERE A","7093716","2022-01-23 04:00","2022","01","23","04:00","-29.0","","-31.4","","80","","","","24","","11","","24.1","","97.97","","","","-38","","Ice Crystals"
"-77.70","53.63","LA GRANDE RIVIERE A","7093716","2022-01-23 05:00","2022","01","23","05:00","-29.7","","-32.4","","78","","","","24","","10","","11.3","","97.97","","","","-39","","Ice Crystals"
"-77.70","53.63","LA GRANDE RIVIERE A","7093716","2022-01-23 06:00","2022","01","23","06:00","-30.0","","-32.7","","78","","","","24","","11","","24.1","","97.98","","","","-40","","Ice Crystals"
"-77.70","53.63","LA GRANDE RIVIERE A","7093716","2022-01-23 07:00","2022","01","23","07:00","-29.4","","-32.0","","79","","","","24","","14","","24.1","","97.97","","","","-40","","Ice Crystals"
"-77.70","53.63","LA GRANDE RIVIERE A","7093716","2022-01-23 08:00","2022","01","23","08:00","-29.7","","-32.6","","76","","","","21","","13","","6.4","","97.98","","","","-40","","Ice Crystals"
"-77.70","53.63","LA GRANDE RIVIERE A","7093716","2022-01-23 09:00","2022","01","23","09:00","-29.2","","-32.2","","76","","","","22","","11","","8.1","","97.92","","","","-39","","Ice Crystals"
"-77.70","53.63","LA GRANDE RIVIERE A","7093716","2022-01-23 10:00","2022","01","23","10:00","-28.2","","-31.1","","76","","","","21","","12","","11.3","","97.92","","","","-38","","Ice Crystals"
"-77.70","53.63","LA GRANDE RIVIERE A","7093716","2022-01-23 11:00","2022","01","23","11:00","-26.5","","-29.3","","77","","","","24","","20","","12.9","","97.88","","","","-39","","Ice Crystals"
"-77.70","53.63","LA GRANDE RIVIERE A","7093716","2022-01-23 12:00","2022","01","23","12:00","-25.5","","-28.4","","77","","","","21","","18","","4.8","","97.83","","","","-37","","Ice Crystals"
"-77.70","53.63","LA GRANDE RIVIERE A","7093716","2022-01-23 13:00","2022","01","23","13:00","-25.5","","-28.5","","77","","","","22","","17","","6.4","","97.78","","","","-37","","Ice Crystals"
"-77.70","53.63","LA GRANDE RIVIERE A","7093716","2022-01-23 14:00","2022","01","23","14:00","-25.4","","-28.7","","75","","","","22","","19","","6.4","","97.77","","","","-37","","Ice Crystals"
"-77.70","53.63","LA GRANDE RIVIERE A","7093716","2022-01-23 15:00","2022","01","23","15:00","-26.0","","-29.6","","72","","","","23","","21","","8.1","","97.81","","","","-38","","Ice Crystals"
"-77.70","53.63","LA GRANDE RIVIERE A","7093716","2022-01-23 16:00","2022","01","23","16:00","-26.8","","-30.3","","73","","","","22","","23","","6.4","","97.83","","","","-40","","Ice Crystals"
"-77.70","53.63","LA GRANDE RIVIERE A","7093716","2022-01-23 17:00","2022","01","23","17:00","-27.5","","-31.0","","72","","","","22","","14","","24.1","","97.86","","","","-38","","Ice Crystals"
"-77.70","53.63","LA GRANDE RIVIERE A","7093716","2022-01-23 18:00","2022","01","23","18:00","-28.2","","-31.5","","74","","","","21","","11","","24.1","","97.88","","","","-38","","Ice Crystals"
"-77.70","53.63","LA GRANDE RIVIERE A","7093716","2022-01-23 19:00","2022","01","23","19:00","-28.6","","-31.6","","76","","","","21","","11","","24.1","","97.87","","","","-38","","Ice Crystals"
"-77.70","53.63","LA GRANDE RIVIERE A","7093716","2022-01-23 20:00","2022","01","23","20:00","-28.7","","-31.6","","76","","","","21","","14","","16.1","","97.88","","","","-39","","Ice Crystals"
"-77.70","53.63","LA GRANDE RIVIERE A","7093716","2022-01-23 21:00","2022","01","23","21:00","-28.5","","-31.5","","76","","","","20","","14","","16.1","","97.85","","","","-39","","Ice Crystals"
"-77.70","53.63","LA GRANDE RIVIERE A","7093716","2022-01-23 22:00","2022","01","23","22:00","-29.2","","-32.2","","76","","","","19","","12","","16.1","","97.81","","","","-39","","Ice Crystals"
"-77.70","53.63","LA GRANDE RIVIERE A","7093716","2022-01-23 23:00","2022","01","23","23:00","-29.4","","-32.3","","76","","","","17","","13","","24.1","","97.77","","","","-40","","Ice Crystals"
"-77.70","53.63","LA GRANDE RIVIERE A","7093716","2022-01-24 00:00","2022","01","24","00:00","-29.3","","-32.2","","76","","","","18","","14","","24.1","","97.72","","","","-40","","Ice Crystals"
"-77.70","53.63","LA GRANDE RIVIERE A","7093716","2022-01-24 01:00","2022","01","24","01:00","-29.3","","-32.3","","76","","","","17","","11","","24.1","","97.66","","","","-39","","Ice Crystals"
"-77.70","53.63","LA GRANDE RIVIERE A","7093716","2022-01-24 02:00","2022","01","24","02:00","-28.9","","-31.8","","76","","","","18","","17","","24.1","","97.65","","","","-41","","Ice Crystals"
"-77.70","53.63","LA GRANDE RIVIERE A","7093716","2022-01-24 03:00","2022","01","24","03:00","-29.6","","-32.6","","75","","","","18","","15","","16.1","","97.64","","","","-41","","Snow"
"-77.70","53.63","LA GRANDE RIVIERE A","7093716","2022-01-24 04:00","2022","01","24","04:00","-30.3","","-33.3","","76","","","","17","","13","","11.3","","97.61","","","","-41","","Snow"
"-77.70","53.63","LA GRANDE RIVIERE A","7093716","2022-01-24 05:00","2022","01","24","05:00","-30.3","","-33.3","","75","","","","17","","13","","24.1","","97.61","","","","-41","","Ice Crystals"
"-77.70","53.63","LA GRANDE RIVIERE A","7093716","2022-01-24 06:00","2022","01","24","06:00","-29.8","","-32.9","","75","","","","17","","14","","11.3","","97.62","","","","-41","","Ice Crystals"
"-77.70","53.63","LA GRANDE RIVIERE A","7093716","2022-01-24 07:00","2022","01","24","07:00","-29.3","","-32.3","","75","","","","18","","14","","11.3","","97.62","","","","-40","","Snow"
"-77.70","53.63","LA GRANDE RIVIERE A","7093716","2022-01-24 08:00","2022","01","24","08:00","-28.8","","-31.8","","76","","","","17","","16","","8.1","","97.61","","","","-40","","Snow"
"-77.70","53.63","LA GRANDE RIVIERE A","7093716","2022-01-24 09:00","2022","01","24","09:00","-28.8","","-31.9","","76","","","","19","","13","","6.4","","97.63","","","","-39","","Snow"
"-77.70","53.63","LA GRANDE RIVIERE A","7093716","2022-01-24 10:00","2022","01","24","10:00","-27.8","","-30.9","","75","","","","18","","13","","2.0","","97.65","","","","-38","","Snow"
"-77.70","53.63","LA GRANDE RIVIERE A","7093716","2022-01-24 11:00","2022","01","24","11:00","-27.3","","-30.4","","75","","","","20","","13","","3.2","","97.68","","","","-37","","Snow"
"-77.70","53.63","LA GRANDE RIVIERE A","7093716","2022-01-24 12:00","2022","01","24","12:00","-26.4","","-30.1","","72","","","","23","","19","","8.1","","97.68","","","","-38","","Snow"
"-77.70","53.63","LA GRANDE RIVIERE A","7093716","2022-01-24 13:00","2022","01","24","13:00","-26.1","","-30.3","","69","","","","24","","18","","6.4","","97.70","","","","-38","","Snow"
"-77.70","53.63","LA GRANDE RIVIERE A","7093716","2022-01-24 14:00","2022","01","24","14:00","-26.3","","-30.8","","67","","","","25","","17","","4.8","","97.75","","","","-38","","Snow"
"-77.70","53.63","LA GRANDE RIVIERE A","7093716","2022-01-24 15:00","2022","01","24","15:00","-26.3","","-31.6","","61","","","","26","","18","","6.4","","97.82","","","","-38","","Snow"
"-77.70","53.63","LA GRANDE RIVIERE A","7093716","2022-01-24 16:00","2022","01","24","16:00","-26.7","","-31.6","","65","","","","24","","12","","11.3","","97.90","","","","-36","","Snow"
"-77.70","53.63","LA GRANDE RIVIERE A","7093716","2022-01-24 17:00","2022","01","24","17:00","-28.2","","-31.6","","73","","","","23","","9","","24.1","","97.97","","","","-36","","Ice Crystals"
"-77.70","53.63","LA GRANDE RIVIERE A","7093716","2022-01-24 18:00","2022","01","24","18:00","-28.9","","-31.8","","76","","","","22","","10","","24.1","","98.06","","","","-38","","Ice Crystals"
"-77.70","53.63","LA GRANDE RIVIERE A","7093716","2022-01-24 19:00","2022","01","24","19:00","-28.6","","-31.5","","76","","","","23","","16","","24.1","","98.11","","","","-40","","Ice Crystals"
"-77.70","53.63","LA GRANDE RIVIERE A","7093716","2022-01-24 20:00","2022","01","24","20:00","-28.6","","-31.4","","77","","","","22","","15","","24.1","","98.16","","","","-40","","Ice Crystals"
"-77.70","53.63","LA GRANDE RIVIERE A","7093716","2022-01-24 21:00","2022","01","24","21:00","-28.9","","-31.9","","77","","","","21","","13","","16.1","","98.19","","","","-39","","Ice Crystals"
"-77.70","53.63","LA GRANDE RIVIERE A","7093716","2022-01-24 22:00","2022","01","24","22:00","-28.3","","-31.4","","76","","","","22","","15","","11.3","","98.23","","","","-39","","Snow"
"-77.70","53.63","LA GRANDE RIVIERE A","7093716","2022-01-24 23:00","2022","01","24","23:00","-28.2","","-31.3","","75","","","","23","","11","","24.1","","98.23","","","","-38","","Snow"
"-77.70","53.63","LA GRANDE RIVIERE A","7093716","2022-01-25 00:00","2022","01","25","00:00","-28.3","","-31.3","","75","","","","23","","11","","24.1","","98.24","","","","-38","","Ice Crystals"
"-77.70","53.63","LA GRANDE RIVIERE A","7093716","2022-01-25 01:00","2022","01","25","01:00","-28.9","","-31.8","","76","","","","21","","12","","24.1","","98.24","","","","-39","","Ice Crystals"
"-77.70","53.63","LA GRANDE RIVIERE A","7093716","2022-01-25 02:00","2022","01","25","02:00","-29.6","","-32.5","","76","","","","21","","9","","24.1","","98.24","","","","-38","","Ice Crystals"
"-77.70","53.63","LA GRANDE RIVIERE A","7093716","2022-01-25 03:00","2022","01","25","03:00","-29.4","","-32.3","","77","","","","22","","13","","24.1","","98.32","","","","-40","","NA"
"-77.70","53.63","LA GRANDE RIVIERE A","7093716","2022-01-25 04:00","2022","01","25","04:00","-29.5","","-32.6","","75","","","","22","","12","","11.3","","98.34","","","","-40","","Snow"
"-77.70","53.63","LA GRANDE RIVIERE A","7093716","2022-01-25 05:00","2022","01","25","05:00","-30.1","","-33.2","","75","","","","20","","11","","11.3","","98.40","","","","-40","","Snow"
"-77.70","53.63","LA GRANDE RIVIERE A","7093716","2022-01-25 06:00","2022","01","25","06:00","-30.4","","-33.5","","75","","","","20","","14","","16.1","","98.46","","","","-42","","Snow"
"-77.70","53.63","LA GRANDE RIVIERE A","7093716","2022-01-25 07:00","2022","01","25","07:00","-30.9","","-34.0","","75","","","","19","","15","","24.1","","98.52","","","","-43","","Ice Crystals"
"-77.70","53.63","LA GRANDE RIVIERE A","7093716","2022-01-25 08:00","2022","01","25","08:00","-31.6","","-34.7","","75","","","","21","","14","","24.1","","98.58","","","","-43","","Ice Crystals"
"-77.70","53.63","LA GRANDE RIVIERE A","7093716","2022-01-25 09:00","2022","01","25","09:00","-31.5","","-34.6","","75","","","","20","","17","","3.2","","98.65","","","","-44","","Ice Crystals"
"-77.70","53.63","LA GRANDE RIVIERE A","7093716","2022-01-25 10:00","2022","01","25","10:00","-30.2","","-33.2","","75","","","","20","","12","","9.7","","98.74","","","","-40","","Ice Crystals"
"-77.70","53.63","LA GRANDE RIVIERE A","7093716","2022-01-25 11:00","2022","01","25","11:00","-28.0","","-31.1","","75","","","","24","","16","","12.9","","98.78","","","","-39","","Ice Crystals"
"-77.70","53.63","LA GRANDE RIVIERE A","7093716","2022-01-25 12:00","2022","01","25","12:00","-26.9","","-30.0","","75","","","","24","","17","","9.7","","98.79","","","","-38","","Ice Crystals"
"-77.70","53.63","LA GRANDE RIVIERE A","7093716","2022-01-25 13:00","2022","01","25","13:00","-26.3","","-29.9","","72","","","","25","","26","","12.9","","98.84","","","","-40","","Ice Crystals"
"-77.70","53.63","LA GRANDE RIVIERE A","7093716","2022-01-25 14:00","2022","01","25","14:00","-25.9","","-30.1","","69","","","","26","","22","","12.9","","98.90","","","","-38","","Ice Crystals"
"-77.70","53.63","LA GRANDE RIVIERE A","7093716","2022-01-25 15:00","2022","01","25","15:00","-26.1","","-30.6","","67","","","","25","","21","","16.1","","98.99","","","","-38","","Ice Crystals"
"-77.70","53.63","LA GRANDE RIVIERE A","7093716","2022-01-25 16:00","2022","01","25","16:00","-26.7","","-30.5","","71","","","","24","","20","","24.1","","99.08","","","","-39","","Ice Crystals"
"-77.70","53.63","LA GRANDE RIVIERE A","7093716","2022-01-25 17:00","2022","01","25","17:00","-27.7","","-30.8","","76","","","","22","","15","","24.1","","99.15","","","","-39","","Ice Crystals"
"-77.70","53.63","LA GRANDE RIVIERE A","7093716","2022-01-25 18:00","2022","01","25","18:00","-28.8","","-31.6","","77","","","","22","","15","","24.1","","99.20","","","","-40","","Ice Crystals"
"-77.70","53.63","LA GRANDE RIVIERE A","7093716","2022-01-25 19:00","2022","01","25","19:00","-29.2","","-32.1","","76","","","","21","","18","","24.1","","99.25","","","","-41","","Ice Crystals"
"-77.70","53.63","LA GRANDE RIVIERE A","7093716","2022-01-25 20:00","2022","01","25","20:00","-29.7","","-32.6","","76","","","","21","","17","","24.1","","99.26","","","","-42","","Ice Crystals"
"-77.70","53.63","LA GRANDE RIVIERE A","7093716","2022-01-25 21:00","2022","01","25","21:00","-29.2","","-32.0","","77","","","","22","","19","","11.3","","99.25","","","","-42","","Ice Crystals"
"-77.70","53.63","LA GRANDE RIVIERE A","7093716","2022-01-25 22:00","2022","01","25","22:00","-29.5","","-32.5","","76","","","","21","","16","","11.3","","99.27","","","","-41","","Ice Crystals"
"-77.70","53.63","LA GRANDE RIVIERE A","7093716","2022-01-25 23:00","2022","01","25","23:00","-29.1","","-32.0","","76","","","","21","","18","","11.3","","99.22","","","","-41","","Ice Crystals"
"-77.70","53.63","LA GRANDE RIVIERE A","7093716","2022-01-26 00:00","2022","01","26","00:00","-29.7","","-32.8","","75","","","","21","","19","","16.1","","99.23","","","","-42","","Ice Crystals"
"-77.70","53.63","LA GRANDE RIVIERE A","7093716","2022-01-26 01:00","2022","01","26","01:00","-30.6","","-33.7","","75","","","","20","","16","","16.1","","99.20","","","","-43","","Ice Crystals"
"-77.70","53.63","LA GRANDE RIVIERE A","7093716","2022-01-26 02:00","2022","01","26","02:00","-30.3","","-33.4","","75","","","","21","","18","","24.1","","99.20","","","","-43","","Ice Crystals"
"-77.70","53.63","LA GRANDE RIVIERE A","7093716","2022-01-26 03:00","2022","01","26","03:00","-29.9","","-33.0","","76","","","","20","","19","","24.1","","99.23","","","","-43","","Ice Crystals"
"-77.70","53.63","LA GRANDE RIVIERE A","7093716","2022-01-26 04:00","2022","01","26","04:00","-30.1","","-33.2","","75","","","","20","","19","","24.1","","99.23","","","","-43","","Ice Crystals"
"-77.70","53.63","LA GRANDE RIVIERE A","7093716","2022-01-26 05:00","2022","01","26","05:00","-30.1","","-33.2","","75","","","","20","","21","","11.3","","99.22","","","","-44","","Ice Crystals"
"-77.70","53.63","LA GRANDE RIVIERE A","7093716","2022-01-26 06:00","2022","01","26","06:00","-29.7","","-32.8","","75","","","","20","","22","","11.3","","99.22","","","","-43","","Ice Crystals"
"-77.70","53.63","LA GRANDE RIVIERE A","7093716","2022-01-26 07:00","2022","01","26","07:00","-29.7","","-32.9","","75","","","","19","","26","","11.3","","99.17","","","","-44","","Ice Crystals"
"-77.70","53.63","LA GRANDE RIVIERE A","7093716","2022-01-26 08:00","2022","01","26","08:00","-29.9","","-33.0","","75","","","","19","","24","","11.3","","99.18","","","","-44","","Ice Crystals"
"-77.70","53.63","LA GRANDE RIVIERE A","7093716","2022-01-26 09:00","2022","01","26","09:00","-29.7","","-32.9","","75","","","","18","","17","","12.9","","99.13","","","","-42","","Ice Crystals"
"-77.70","53.63","LA GRANDE RIVIERE A","7093716","2022-01-26 10:00","2022","01","26","10:00","-27.8","","-30.9","","76","","","","18","","26","","12.9","","99.12","","","","-42","","Ice Crystals"
"-77.70","53.63","LA GRANDE RIVIERE A","7093716","2022-01-26 11:00","2022","01","26","11:00","-26.3","","-29.2","","77","","","","19","","25","","9.7","","99.02","","","","-40","","Ice Crystals"
"-77.70","53.63","LA GRANDE RIVIERE A","7093716","2022-01-26 12:00","2022","01","26","12:00","-25.4","","-28.4","","76","","","","19","","35","","9.7","","98.95","","","","-41","","Ice Crystals,Blowing Snow"
"-77.70","53.63","LA GRANDE RIVIERE A","7093716","2022-01-26 13:00","2022","01","26","13:00","-24.2","","-27.5","","75","","","","19","","31","","11.3","","98.80","","","","-38","","Ice Crystals,Blowing Snow"
"-77.70","53.63","LA GRANDE RIVIERE A","7093716","2022-01-26 14:00","2022","01","26","14:00","-23.4","","-27.4","","71","","","","18","","35","","12.9","","98.69","","","","-38","","Ice Crystals,Blowing Snow"
"-77.70","53.63","LA GRANDE RIVIERE A","7093716","2022-01-26 15:00","2022","01","26","15:00","-23.6","","-27.7","","70","","","","18","","34","","19.3","","98.57","","","","-38","","Ice Crystals,Blowing Snow"
"-77.70","53.63","LA GRANDE RIVIERE A","7093716","2022-01-26 16:00","2022","01","26","16:00","-22.7","","-27.0","","69","","","","18","","29","","24.1","","98.42","","","","-36","","Ice Crystals,Blowing Snow"
"-77.70","53.63","LA GRANDE RIVIERE A","7093716","2022-01-26 17:00","2022","01","26","17:00","-21.8","","-26.2","","68","","","","17","","39","","24.1","","98.30","","","","-36","","Blowing Snow"
"-77.70","53.63","LA GRANDE RIVIERE A","7093716","2022-01-26 18:00","2022","01","26","18:00","-21.4","","-25.6","","69","","","","17","","36","","24.1","","98.10","","","","-35","","Snow,Blowing Snow"
"-77.70","53.63","LA GRANDE RIVIERE A","7093716","2022-01-26 19:00","2022","01","26","19:00","-20.5","","-24.5","","71","","","","17","","31","","24.1","","98.00","","","","-33","","Snow,Blowing Snow"
"-77.70","53.63","LA GRANDE RIVIERE A","7093716","2022-01-26 20:00","2022","01","26","20:00","-19.8","","-23.7","","71","","","","17","","35","","24.1","","97.95","","","","-33","","Snow,Blowing Snow"
"-77.70","53.63","LA GRANDE RIVIERE A","7093716","2022-01-26 21:00","2022","01","26","21:00","-19.0","","-22.8","","73","","","","17","","36","","4.8","","97.80","","","","-32","","Snow,Blowing Snow"
"-77.70","53.63","LA GRANDE RIVIERE A","7093716","2022-01-26 22:00","2022","01","26","22:00","-18.7","","-22.0","","75","","","","17","","40","","8.1","","97.63","","","","-32","","Snow,Blowing Snow"
"-77.70","53.63","LA GRANDE RIVIERE A","7093716","2022-01-26 23:00","2022","01","26","23:00","-17.9","","-20.9","","78","","","","17","","35","","2.4","","97.48","","","","-31","","Snow,Blowing Snow"
"-77.70","53.63","LA GRANDE RIVIERE A","7093716","2022-01-27 00:00","2022","01","27","00:00","-17.3","","-19.9","","81","","","","17","","32","","2.4","","97.35","","","","-29","","Snow,Blowing Snow"
"-77.70","53.63","LA GRANDE RIVIERE A","7093716","2022-01-27 01:00","2022","01","27","01:00","-16.1","","-18.6","","82","","","","17","","33","","2.4","","97.23","","","","-28","","Snow,Blowing Snow"
"-77.70","53.63","LA GRANDE RIVIERE A","7093716","2022-01-27 02:00","2022","01","27","02:00","-15.5","","-17.9","","82","","","","18","","27","","2.4","","97.13","","","","-26","","Snow,Blowing Snow"
"-77.70","53.63","LA GRANDE RIVIERE A","7093716","2022-01-27 03:00","2022","01","27","03:00","-14.6","","-17.0","","82","","","","17","","30","","2.4","","97.05","","","","-26","","Snow,Blowing Snow"
"-77.70","53.63","LA GRANDE RIVIERE A","7093716","2022-01-27 04:00","2022","01","27","04:00","-13.5","","-15.7","","84","","","","19","","28","","2.0","","96.98","","","","-24","","Snow,Blowing Snow"
"-77.70","53.63","LA GRANDE RIVIERE A","7093716","2022-01-27 05:00","2022","01","27","05:00","-12.4","","-14.5","","85","","","","18","","28","","2.4","","96.91","","","","-22","","Snow,Blowing Snow"
"-77.70","53.63","LA GRANDE RIVIERE A","7093716","2022-01-27 06:00","2022","01","27","06:00","-11.6","","-13.6","","86","","","","22","","27","","2.4","","96.90","","","","-21","","Snow"
"-77.70","53.63","LA GRANDE RIVIERE A","7093716","2022-01-27 07:00","2022","01","27","07:00","-12.6","","-15.0","","82","","","","24","","33","","2.0","","96.96","","","","-23","","Snow,Blowing Snow"
"-77.70","53.63","LA GRANDE RIVIERE A","7093716","2022-01-27 08:00","2022","01","27","08:00","-13.6","","-16.2","","81","","","","24","","31","","2.4","","97.02","","","","-24","","Snow,Blowing Snow"
"-77.70","53.63","LA GRANDE RIVIERE A","7093716","2022-01-27 09:00","2022","01","27","09:00","-18.2","","-20.9","","80","","","","26","","28","","2.4","","97.24","","","","-30","","Snow,Blowing Snow"
"-77.70","53.63","LA GRANDE RIVIERE A","7093716","2022-01-27 10:00","2022","01","27","10:00","-20.3","","-23.3","","77","","","","27","","43","","1.6","","97.39","","","","-35","","Snow,Blowing Snow"
"-77.70","53.63","LA GRANDE RIVIERE A","7093716","2022-01-27 11:00","2022","01","27","11:00","-21.3","","-25.0","","73","","","","26","","35","","3.2","","97.53","","","","-35","","Snow,Blowing Snow"
"-77.70","53.63","LA GRANDE RIVIERE A","7093716","2022-01-27 12:00","2022","01","27","12:00","-21.2","","-24.8","","74","","","","26","","43","","1.6","","97.61","","","","-36","","Snow,Blowing Snow"
"-77.70","53.63","LA GRANDE RIVIERE A","7093716","2022-01-27 13:00","2022","01","27","13:00","-21.6","","-25.3","","72","","","","27","","49","","1.2","","97.73","","","","-37","","Snow,Blowing Snow"
"-77.70","53.63","LA GRANDE RIVIERE A","7093716","2022-01-27 14:00","2022","01","27","14:00","-22.0","","-25.9","","71","","","","27","","37","","3.2","","97.88","","","","-36","","Snow,Blowing Snow"
"-77.70","53.63","LA GRANDE RIVIERE A","7093716","2022-01-27 15:00","2022","01","27","15:00","-22.6","","-26.1","","73","","","","25","","38","","2.4","","98.01","","","","-37","","Snow,Blowing Snow"
"-77.70","53.63","LA GRANDE RIVIERE A","7093716","2022-01-27 16:00","2022","01","27","16:00","-22.7","","-26.2","","73","","","","26","","37","","1.6","","98.14","","","","-37","","Snow,Blowing Snow"
"-77.70","53.63","LA GRANDE RIVIERE A","7093716","2022-01-27 17:00","2022","01","27","17:00","-23.2","","-26.8","","73","","","","27","","37","","2.4","","98.30","","","","-38","","Snow,Blowing Snow"
"-77.70","53.63","LA GRANDE RIVIERE A","7093716","2022-01-27 18:00","2022","01","27","18:00","-23.8","","-27.2","","74","","","","26","","29","","11.3","","98.45","","","","-37","","Snow"
"-77.70","53.63","LA GRANDE RIVIERE A","7093716","2022-01-27 19:00","2022","01","27","19:00","-24.0","","-27.4","","74","","","","26","","34","","12.9","","98.53","","","","-39","","Snow"
"-77.70","53.63","LA GRANDE RIVIERE A","7093716","2022-01-27 20:00","2022","01","27","20:00","-24.5","","-27.7","","75","","","","26","","25","","24.1","","98.64","","","","-37","","Snow"
"-77.70","53.63","LA GRANDE RIVIERE A","7093716","2022-01-27 21:00","2022","01","27","21:00","-24.6","","-27.9","","75","","","","27","","27","","24.1","","98.72","","","","-38","","Snow"
"-77.70","53.63","LA GRANDE RIVIERE A","7093716","2022-01-27 22:00","2022","01","27","22:00","-25.4","","-28.4","","77","","","","26","","20","","24.1","","98.77","","","","-37","","Snow"
"-77.70","53.63","LA GRANDE RIVIERE A","7093716","2022-01-27 23:00","2022","01","27","23:00","-25.5","","-28.4","","77","","","","25","","19","","24.1","","98.83","","","","-37","","Snow"
"-77.70","53.63","LA GRANDE RIVIERE A","7093716","2022-01-28 00:00","2022","01","28","00:00","-26.1","","-28.9","","77","","","","25","","14","","9.7","","98.92","","","","-36","","Snow"
"-77.70","53.63","LA GRANDE RIVIERE A","7093716","2022-01-28 01:00","2022","01","28","01:00","-25.7","","-28.5","","78","","","","25","","18","","4.8","","98.94","","","","-37","","Snow"
"-77.70","53.63","LA GRANDE RIVIERE A","7093716","2022-01-28 02:00","2022","01","28","02:00","-25.9","","-28.7","","78","","","","24","","18","","24.1","","99.01","","","","-37","","Snow"
"-77.70","53.63","LA GRANDE RIVIERE A","7093716","2022-01-28 03:00","2022","01","28","03:00","-25.6","","-28.3","","79","","","","24","","23","","19.3","","99.08","","","","-38","","Ice Crystals"
"-77.70","53.63","LA GRANDE RIVIERE A","7093716","2022-01-28 04:00","2022","01","28","04:00","-26.1","","-28.7","","79","","","","24","","19","","24.1","","99.14","","","","-38","","Ice Crystals"
"-77.70","53.63","LA GRANDE RIVIERE A","7093716","2022-01-28 05:00","2022","01","28","05:00","-26.3","","-29.1","","78","","","","24","","18","","11.3","","99.22","","","","-38","","Ice Crystals"
"-77.70","53.63","LA GRANDE RIVIERE A","7093716","2022-01-28 06:00","2022","01","28","06:00","-26.6","","-29.4","","78","","","","23","","18","","24.1","","99.28","","","","-38","","Ice Crystals"
"-77.70","53.63","LA GRANDE RIVIERE A","7093716","2022-01-28 07:00","2022","01","28","07:00","-26.7","","-29.5","","78","","","","23","","17","","16.1","","99.32","","","","-38","","Ice Crystals"
"-77.70","53.63","LA GRANDE RIVIERE A","7093716","2022-01-28 08:00","2022","01","28","08:00","-27.1","","-30.0","","77","","","","22","","14","","8.1","","99.33","","","","-37","","Ice Crystals"
"-77.70","53.63","LA GRANDE RIVIERE A","7093716","2022-01-28 09:00","2022","01","28","09:00","-28.1","","-31.0","","77","","","","20","","15","","8.1","","99.35","","","","-39","","Snow"
"-77.70","53.63","LA GRANDE RIVIERE A","7093716","2022-01-28 10:00","2022","01","28","10:00","-27.1","","-29.9","","78","","","","20","","20","","8.1","","99.38","","","","-39","","Snow"
"-77.70","53.63","LA GRANDE RIVIERE A","7093716","2022-01-28 11:00","2022","01","28","11:00","-25.2","","-28.0","","78","","","","23","","21","","6.4","","99.41","","","","-37","","Ice Crystals"
"-77.70","53.63","LA GRANDE RIVIERE A","7093716","2022-01-28 12:00","2022","01","28","12:00","-24.0","","-26.8","","78","","","","22","","26","","3.2","","99.40","","","","-37","","Ice Crystals"
"-77.70","53.63","LA GRANDE RIVIERE A","7093716","2022-01-28 13:00","2022","01","28","13:00","-23.1","","-26.0","","77","","","","21","","22","","6.4","","99.44","","","","-35","","Ice Crystals"
"-77.70","53.63","LA GRANDE RIVIERE A","7093716","2022-01-28 14:00","2022","01","28","14:00","-22.3","","-25.9","","73","","","","23","","21","","4.8","","99.43","","","","-34","","Ice Crystals"
"-77.70","53.63","LA GRANDE RIVIERE A","7093716","2022-01-28 15:00","2022","01","28","15:00","-22.3","","-26.0","","73","","","","22","","24","","4.8","","99.44","","","","-34","","Ice Crystals"
"-77.70","53.63","LA GRANDE RIVIERE A","7093716","2022-01-28 16:00","2022","01","28","16:00","-23.4","","-26.9","","74","","","","21","","21","","24.1","","99.48","","","","-35","","Ice Crystals"
"-77.70","53.63","LA GRANDE RIVIERE A","7093716","2022-01-28 17:00","2022","01","28","17:00","-24.3","","-27.3","","77","","","","20","","18","","24.1","","99.52","","","","-35","","Ice Crystals"
"-77.70","53.63","LA GRANDE RIVIERE A","7093716","2022-01-28 18:00","2022","01","28","18:00","-25.3","","-28.2","","77","","","","19","","19","","24.1","","99.58","","","","-37","","Ice Crystals"
"-77.70","53.63","LA GRANDE RIVIERE A","7093716","2022-01-28 19:00","2022","01","28","19:00","-25.7","","-28.5","","78","","","","20","","16","","24.1","","99.63","","","","-36","","Ice Crystals"
"-77.70","53.63","LA GRANDE RIVIERE A","7093716","2022-01-28 20:00","2022","01","28","20:00","-24.9","","-27.6","","79","","","","21","","16","","24.1","","99.69","","","","-35","","Ice Crystals"
"-77.70","53.63","LA GRANDE RIVIERE A","7093716","2022-01-28 21:00","2022","01","28","21:00","-24.5","","-27.1","","79","","","","20","","15","","11.3","","99.71","","","","-35","","Ice Crystals"
"-77.70","53.63","LA GRANDE RIVIERE A","7093716","2022-01-28 22:00","2022","01","28","22:00","-23.9","","-26.6","","79","","","","19","","13","","11.3","","99.72","","","","-33","","Snow"
"-77.70","53.63","LA GRANDE RIVIERE A","7093716","2022-01-28 23:00","2022","01","28","23:00","-24.2","","-26.8","","79","","","","19","","10","","12.9","","99.72","","","","-32","","Snow"
"-77.70","53.63","LA GRANDE RIVIERE A","7093716","2022-01-29 00:00","2022","01","29","00:00","-24.4","","-27.1","","79","","","","19","","10","","24.1","","99.74","","","","-32","","Snow"
"-77.70","53.63","LA GRANDE RIVIERE A","7093716","2022-01-29 01:00","2022","01","29","01:00","-25.1","","-27.7","","79","","","","18","","12","","24.1","","99.72","","","","-34","","Snow"
"-77.70","53.63","LA GRANDE RIVIERE A","7093716","2022-01-29 02:00","2022","01","29","02:00","-26.1","","-28.6","","79","","","","16","","14","","24.1","","99.74","","","","-36","","Snow"
"-77.70","53.63","LA GRANDE RIVIERE A","7093716","2022-01-29 03:00","2022","01","29","03:00","-26.5","","-29.2","","79","","","","17","","15","","24.1","","99.77","","","","-37","","Snow"
"-77.70","53.63","LA GRANDE RIVIERE A","7093716","2022-01-29 04:00","2022","01","29","04:00","-26.9","","-29.6","","78","","","","17","","16","","24.1","","99.77","","","","-38","","Snow"
"-77.70","53.63","LA GRANDE RIVIERE A","7093716","2022-01-29 05:00","2022","01","29","05:00","-27.1","","-29.8","","79","","","","17","","14","","24.1","","99.79","","","","-37","","Snow"
"-77.70","53.63","LA GRANDE RIVIERE A","7093716","2022-01-29 06:00","2022","01","29","06:00","-26.2","","-28.9","","79","","","","17","","12","","24.1","","99.77","","","","-36","","Snow"
"-77.70","53.63","LA GRANDE RIVIERE A","7093716","2022-01-29 07:00","2022","01","29","07:00","-26.0","","-28.7","","79","","","","17","","16","","24.1","","99.81","","","","-37","","Snow"
"-77.70","53.63","LA GRANDE RIVIERE A","7093716","2022-01-29 08:00","2022","01","29","08:00","-26.6","","-29.3","","78","","","","17","","13","","24.1","","99.82","","","","-36","","Snow"
"-77.70","53.63","LA GRANDE RIVIERE A","7093716","2022-01-29 09:00","2022","01","29","09:00","-27.3","","-30.1","","78","","","","16","","14","","24.1","","99.79","","","","-38","","Ice Crystals"
"-77.70","53.63","LA GRANDE RIVIERE A","7093716","2022-01-29 10:00","2022","01","29","10:00","-25.5","","-28.1","","79","","","","17","","14","","24.1","","99.76","","","","-35","","Ice Crystals"
"-77.70","53.63","LA GRANDE RIVIERE A","7093716","2022-01-29 11:00","2022","01","29","11:00","-24.8","","-27.5","","79","","","","17","","17","","24.1","","99.75","","","","-36","","Ice Crystals"
"-77.70","53.63","LA GRANDE RIVIERE A","7093716","2022-01-29 12:00","2022","01","29","12:00","-22.9","","-25.6","","80","","","","15","","12","","24.1","","99.65","","","","-32","","Ice Crystals"
"-77.70","53.63","LA GRANDE RIVIERE A","7093716","2022-01-29 13:00","2022","01","29","13:00","-21.8","","-24.7","","78","","","","16","","10","","24.1","","99.59","","","","-29","","Ice Crystals"
"-77.70","53.63","LA GRANDE RIVIERE A","7093716","2022-01-29 14:00","2022","01","29","14:00","-21.4","","-24.6","","76","","","","18","","7","","24.1","","99.53","","","","-27","","Ice Crystals"
"-77.70","53.63","LA GRANDE RIVIERE A","7093716","2022-01-29 15:00","2022","01","29","15:00","-21.1","","-24.7","","73","","","","20","","11","","16.1","","99.52","","","","-29","","Ice Crystals"
"-77.70","53.63","LA GRANDE RIVIERE A","7093716","2022-01-29 16:00","2022","01","29","16:00","-21.3","","-24.5","","75","","","","18","","5","","24.1","","99.46","","","","-26","","Ice Crystals"
"-77.70","53.63","LA GRANDE RIVIERE A","7093716","2022-01-29 17:00","2022","01","29","17:00","-22.7","","-25.4","","79","","","","11","","4","","24.1","","99.43","","","","-26","","Ice Crystals"
"-77.70","53.63","LA GRANDE RIVIERE A","7093716","2022-01-29 18:00","2022","01","29","18:00","-23.1","","-25.5","","82","","","","11","","7","","16.1","","99.44","","","","-29","","Snow"
"-77.70","53.63","LA GRANDE RIVIERE A","7093716","2022-01-29 19:00","2022","01","29","19:00","-23.0","","-25.4","","82","","","","11","","4","","24.1","","99.37","","","","-27","","Snow"
"-77.70","53.63","LA GRANDE RIVIERE A","7093716","2022-01-29 20:00","2022","01","29","20:00","-24.5","","-26.9","","81","","","","12","","10","","24.1","","99.30","","","","-33","","Snow"
"-77.70","53.63","LA GRANDE RIVIERE A","7093716","2022-01-29 21:00","2022","01","29","21:00","-24.1","","-26.7","","80","","","","36","","2","","19.3","","99.25","","","","-26","","Snow"
"-77.70","53.63","LA GRANDE RIVIERE A","7093716","2022-01-29 22:00","2022","01","29","22:00","-25.6","","-28.2","","79","","","","33","","3","","24.1","","99.15","","","","-29","","Snow"
"-77.70","53.63","LA GRANDE RIVIERE A","7093716","2022-01-29 23:00","2022","01","29","23:00","-26.2","","-28.7","","80","","","","36","","3","","24.1","","99.06","","","","-29","","Snow"
"-77.70","53.63","LA GRANDE RIVIERE A","7093716","2022-01-30 00:00","2022","01","30","00:00","-24.4","","-26.6","","83","","","","2","","4","","24.1","","99.02","","","","-28","","Ice Crystals"
"-77.70","53.63","LA GRANDE RIVIERE A","7093716","2022-01-30 01:00","2022","01","30","01:00","-24.5","","-26.8","","81","","","","5","","8","","24.1","","98.97","","","","-32","","Ice Crystals"
"-77.70","53.63","LA GRANDE RIVIERE A","7093716","2022-01-30 02:00","2022","01","30","02:00","-25.7","","-28.1","","80","","","","36","","4","","24.1","","98.95","","","","-30","","Ice Crystals"
"-77.70","53.63","LA GRANDE RIVIERE A","7093716","2022-01-30 03:00","2022","01","30","03:00","-28.3","","-31.4","","75","","","","36","","3","","24.1","","98.96","","","","-32","","Ice Crystals"
"-77.70","53.63","LA GRANDE RIVIERE A","7093716","2022-01-30 04:00","2022","01","30","04:00","-28.5","","-31.5","","76","","","","31","","3","","24.1","","98.94","","","","-32","","Mainly Clear"
"-77.70","53.63","LA GRANDE RIVIERE A","7093716","2022-01-30 05:00","2022","01","30","05:00","-25.8","","-28.1","","81","","","","36","","5","","24.1","","98.90","","","","-31","","Snow"
"-77.70","53.63","LA GRANDE RIVIERE A","7093716","2022-01-30 06:00","2022","01","30","06:00","-26.9","","-29.5","","79","","","","35","","3","","24.1","","98.89","","","","-30","","NA"
"-77.70","53.63","LA GRANDE RIVIERE A","7093716","2022-01-30 07:00","2022","01","30","07:00","-29.2","","-32.1","","76","","","","31","","6","","24.1","","98.83","","","","-36","","Clear"
"-77.70","53.63","LA GRANDE RIVIERE A","7093716","2022-01-30 08:00","2022","01","30","08:00","-29.8","","-32.8","","76","","","","28","","5","","24.1","","98.80","","","","-35","","NA"
"-77.70","53.63","LA GRANDE RIVIERE A","7093716","2022-01-30 09:00","2022","01","30","09:00","-28.2","","-31.2","","76","","","","31","","4","","24.1","","98.74","","","","-33","","NA"
"-77.70","53.63","LA GRANDE RIVIERE A","7093716","2022-01-30 10:00","2022","01","30","10:00","-27.1","","-30.0","","77","","","","26","","6","","24.1","","98.79","","","","-33","","Clear"
"-77.70","53.63","LA GRANDE RIVIERE A","7093716","2022-01-30 11:00","2022","01","30","11:00","-22.9","","-25.5","","80","","","","30","","9","","24.1","","98.80","","","","-30","","NA"
"-77.70","53.63","LA GRANDE RIVIERE A","7093716","2022-01-30 12:00","2022","01","30","12:00","-21.8","","-24.4","","80","","","","31","","16","","24.1","","98.78","","","","-32","","NA"
"-77.70","53.63","LA GRANDE RIVIERE A","7093716","2022-01-30 13:00","2022","01","30","13:00","-21.9","","-24.4","","80","","","","29","","14","","24.1","","98.73","","","","-31","","Mainly Clear"
"-77.70","53.63","LA GRANDE RIVIERE A","7093716","2022-01-30 14:00","2022","01","30","14:00","-21.8","","-24.4","","80","","","","27","","16","","24.1","","98.77","","","","-32","","NA"
"-77.70","53.63","LA GRANDE RIVIERE A","7093716","2022-01-30 15:00","2022","01","30","15:00","-22.1","","-25.0","","78","","","","29","","16","","24.1","","98.83","","","","-32","","NA"
"-77.70","53.63","LA GRANDE RIVIERE A","7093716","2022-01-30 16:00","2022","01","30","16:00","-23.4","","-26.2","","78","","","","27","","11","","24.1","","98.87","","","","-32","","Snow"
"-77.70","53.63","LA GRANDE RIVIERE A","7093716","2022-01-30 17:00","2022","01","30","17:00","-24.3","","-27.0","","79","","","","29","","10","","11.3","","98.94","","","","-32","","Ice Crystals"
"-77.70","53.63","LA GRANDE RIVIERE A","7093716","2022-01-30 18:00","2022","01","30","18:00","-26.0","","-28.7","","79","","","","28","","6","","24.1","","98.98","","","","-32","","Ice Crystals"
"-77.70","53.63","LA GRANDE RIVIERE A","7093716","2022-01-30 19:00","2022","01","30","19:00","-27.1","","-29.7","","79","","","","27","","11","","24.1","","99.03","","","","-36","","Ice Crystals"
"-77.70","53.63","LA GRANDE RIVIERE A","7093716","2022-01-30 20:00","2022","01","30","20:00","-28.2","","-30.9","","78","","","","26","","13","","24.1","","99.07","","","","-38","","Ice Crystals"
"-77.70","53.63","LA GRANDE RIVIERE A","7093716","2022-01-30 21:00","2022","01","30","21:00","-29.9","","-32.8","","77","","","","26","","10","","24.1","","99.07","","","","-39","","Ice Crystals"
"-77.70","53.63","LA GRANDE RIVIERE A","7093716","2022-01-30 22:00","2022","01","30","22:00","-31.0","","-33.8","","77","","","","26","","13","","24.1","","99.09","","","","-42","","Ice Crystals"
"-77.70","53.63","LA GRANDE RIVIERE A","7093716","2022-01-30 23:00","2022","01","30","23:00","-31.3","","-34.1","","76","","","","27","","9","","24.1","","99.13","","","","-40","","Ice Crystals"
"-77.70","53.63","LA GRANDE RIVIERE A","7093716","2022-01-31 00:00","2022","01","31","00:00","-31.1","","-34.0","","76","","","","23","","9","","24.1","","99.19","","","","-40","","Ice Crystals"
"-77.70","53.63","LA GRANDE RIVIERE A","7093716","2022-01-31 01:00","2022","01","31","01:00","-31.1","","-34.0","","76","","","","22","","7","","24.1","","99.22","","","","-39","","Ice Crystals"
"-77.70","53.63","LA GRANDE RIVIERE A","7093716","2022-01-31 02:00","2022","01","31","02:00","-31.6","","-34.6","","75","","","","21","","7","","24.1","","99.29","","","","-39","","Ice Crystals"
"-77.70","53.63","LA GRANDE RIVIERE A","7093716","2022-01-31 03:00","2022","01","31","03:00","-31.4","","-34.4","","75","","","","20","","10","","24.1","","99.37","","","","-41","","Snow"
"-77.70","53.63","LA GRANDE RIVIERE A","7093716","2022-01-31 04:00","2022","01","31","04:00","-30.6","","-33.5","","76","","","","22","","7","","24.1","","99.44","","","","-38","","Snow"
"-77.70","53.63","LA GRANDE RIVIERE A","7093716","2022-01-31 05:00","2022","01","31","05:00","-31.1","","-34.1","","75","","","","20","","6","","19.3","","99.53","","","","-38","","Ice Crystals"
"-77.70","53.63","LA GRANDE RIVIERE A","7093716","2022-01-31 06:00","2022","01","31","06:00","-31.3","","-34.4","","75","","","","21","","7","","24.1","","99.60","","","","-39","","Ice Crystals"
"-77.70","53.63","LA GRANDE RIVIERE A","7093716","2022-01-31 07:00","2022","01","31","07:00","-31.1","","-34.2","","75","","","","19","","10","","16.1","","99.67","","","","-40","","Ice Crystals"
"-77.70","53.63","LA GRANDE RIVIERE A","7093716","2022-01-31 08:00","2022","01","31","08:00","-31.5","","-34.6","","74","","","","19","","14","","8.1","","99.74","","","","-43","","Ice Crystals"
"-77.70","53.63","LA GRANDE RIVIERE A","7093716","2022-01-31 09:00","2022","01","31","09:00","-30.4","","-33.5","","75","","","","22","","8","","8.1","","99.78","","","","-38","","Ice Crystals"
"-77.70","53.63","LA GRANDE RIVIERE A","7093716","2022-01-31 10:00","2022","01","31","10:00","-27.5","","-30.4","","77","","","","21","","5","","16.1","","99.81","","","","-33","","Ice Crystals"
"-77.70","53.63","LA GRANDE RIVIERE A","7093716","2022-01-31 11:00","2022","01","31","11:00","-25.4","","-28.2","","78","","","","21","","13","","24.1","","99.93","","","","-35","","Ice Crystals"
"-77.70","53.63","LA GRANDE RIVIERE A","7093716","2022-01-31 12:00","2022","01","31","12:00","-23.6","","-26.3","","79","","","","20","","9","","24.1","","99.91","","","","-31","","Ice Crystals"
"-77.70","53.63","LA GRANDE RIVIERE A","7093716","2022-01-31 13:00","2022","01","31","13:00"
"-77.70","53.63","LA GRANDE RIVIERE A","7093716","2022-01-31 14:00","2022","01","31","14:00","-22.2","","-24.8","","80","","","","22","","15","","16.1","","100.00","","","","-32","","Ice Crystals"
"-77.70","53.63","LA GRANDE RIVIERE A","7093716","2022-01-31 15:00","2022","01","31","15:00","-22.1","","-24.8","","79","","","","18","","15","","24.1","","100.04","","","","-32","","Ice Crystals"
"-77.70","53.63","LA GRANDE RIVIERE A","7093716","2022-01-31 16:00","2022","01","31","16:00","-22.5","","-25.3","","79","","","","16","","11","","24.1","","100.07","","","","-31","","Ice Crystals"
"-77.70","53.63","LA GRANDE RIVIERE A","7093716","2022-01-31 17:00","2022","01","31","17:00","-23.7","","-26.5","","79","","","","15","","8","","24.1","","100.12","","","","-31","","Ice Crystals"
"-77.70","53.63","LA GRANDE RIVIERE A","7093716","2022-01-31 18:00","2022","01","31","18:00","-24.5","","-27.2","","79","","","","15","","13","","24.1","","100.15","","","","-34","","NA"
"-77.70","53.63","LA GRANDE RIVIERE A","7093716","2022-01-31 19:00","2022","01","31","19:00","-25.1","","-27.9","","78","","","","14","","12","","24.1","","100.19","","","","-34","","Mainly Clear"
"-77.70","53.63","LA GRANDE RIVIERE A","7093716","2022-01-31 20:00","2022","01","31","20:00","-25.7","","-28.4","","78","","","","14","","20","","24.1","","100.19","","","","-38","","NA"
"-77.70","53.63","LA GRANDE RIVIERE A","7093716","2022-01-31 21:00","2022","01","31","21:00","-27.0","","-30.0","","76","","","","12","","16","","24.1","","100.18","","","","-38","","NA"
"-77.70","53.63","LA GRANDE RIVIERE A","7093716","2022-01-31 22:00","2022","01","31","22:00","-27.3","","-30.2","","77","","","","12","","18","","24.1","","100.14","","","","-39","","Mostly Cloudy"
"-77.70","53.63","LA GRANDE RIVIERE A","7093716","2022-01-31 23:00","2022","01","31","23:00","-25.6","","-28.4","","78","","","","12","","16","","24.1","","100.08","","","","-36","","NA"
