"Longitude (x)","Latitude (y)","Station Name","Climate ID","Date/Time (LST)","Year","Month","Day","Time (LST)","Temp (°C)","Temp Flag","Dew Point Temp (°C)","Dew Point Temp Flag","Rel Hum (%)","Rel Hum Flag","Precip. Amount (mm)","Precip. Amount Flag","Wind Dir (10s deg)","Wind Dir Flag","Wind Spd (km/h)","Wind Spd Flag","Visibility (km)","Visibility Flag","Stn Press (kPa)","Stn Press Flag","Hmdx","Hmdx Flag","Wind Chill","Wind Chill Flag","Weather"
"-115.14","67.82","KUGLUKTUK A","2300903","2023-02-01 00:00","2023","02","01","00:00","-34.3","","-38.1","","69","","","","24","","29","","24.1","","102.44","","","","-51","","Blowing Snow"
"-115.14","67.82","KUGLUKTUK A","2300903","2023-02-01 01:00","2023","02","01","01:00","-32.5","","-36.3","","70","","","","26","","32","","24.1","","102.45","","","","-49","","Ice Crystals,Blowing Snow"
"-115.14","67.82","KUGLUKTUK A","2300903","2023-02-01 02:00","2023","02","01","02:00","-32.4","","-36.6","","67","","","","25","","26","","24.1","","102.47","","","","-48","","Ice Crystals,Blowing Snow"
"-115.14","67.82","KUGLUKTUK A","2300903","2023-02-01 03:00","2023","02","01","03:00","-34.2","","-38.3","","67","","","","23","","23","","24.1","","102.47","","","","-49","","Ice Crystals"
"-115.14","67.82","KUGLUKTUK A","2300903","2023-02-01 04:00","2023","02","01","04:00","-34.9","","-38.8","","68","","","","22","","25","","24.1","","102.45","","","","-51","","Ice Crystals"
"-115.14","67.82","KUGLUKTUK A","2300903","2023-02-01 05:00","2023","02","01","05:00","-33.4","","-37.5","","68","","","","24","","28","","24.1","","102.43","","","","-50","","Ice Crystals"
"-115.14","67.82","KUGLUKTUK A","2300903","2023-02-01 06:00","2023","02","01","06:00","-33.5","","-37.7","","67","","","","23","","30","","24.1","","102.42","","","","-50","","Ice Crystals,Blowing Snow"
"-115.14","67.82","KUGLUKTUK A","2300903","2023-02-01 07:00","2023","02","01","07:00","-32.8","","-36.8","","68","","","","24","","33","","24.1","","102.43","","","","-50","","NA"
"-115.14","67.82","KUGLUKTUK A","2300903","2023-02-01 08:00","2023","02","01","08:00","-33.9","","-38.0","","67","","","","23","","27","","24.1","","102.46","","","","-50","","Clear"
"-115.14","67.82","KUGLUKTUK A","2300903","2023-02-01 09:00","2023","02","01","09:00","-34.5","","-38.7","","67","","","","23","","25","","24.1","","102.48","","","","-50","","NA"
"-115.14","67.82","KUGLUKTUK A","2300903","2023-02-01 10:00","2023","02","01","10:00","-33.5","","-37.7","","67","","","","24","","31","","24.1","","102.49","","","","-50","","Blowing Snow"
"-115.14","67.82","KUGLUKTUK A","2300903","2023-02-01 11:00","2023","02","01","11:00","-33.9","","-38.1","","67","","","","23","","30","","24.1","","102.51","","","","-51","","Blowing Snow"
"-115.14","67.82","KUGLUKTUK A","2300903","2023-02-01 12:00","2023","02","01","12:00","-33.4","","-37.7","","66","","","","23","","29","","24.1","","102.54","","","","-50","","Blowing Snow"
"-115.14","67.82","KUGLUKTUK A","2300903","2023-02-01 13:00","2023","02","01","13:00","-33.8","","-38.0","","66","","","","23","","26","","24.1","","102.57","","","","-50","","Blowing Snow"
"-115.14","67.82","KUGLUKTUK A","2300903","2023-02-01 14:00","2023","02","01","14:00","-33.9","","-38.2","","66","","","","23","","24","","24.1","","102.59","","","","-49","","Clear"
"-115.14","67.82","KUGLUKTUK A","2300903","2023-02-01 15:00","2023","02","01","15:00","-33.9","","-38.2","","66","","","","23","","31","","24.1","","102.62","","","","-51","","Blowing Snow"
"-115.14","67.82","KUGLUKTUK A","2300903","2023-02-01 16:00","2023","02","01","16:00","-34.1","","-38.4","","66","","","","22","","26","","24.1","","102.65","","","","-50","","NA"
"-115.14","67.82","KUGLUKTUK A","2300903","2023-02-01 17:00","2023","02","01","17:00","-34.6","","-38.8","","67","","","","23","","27","","24.1","","102.66","","","","-51","","Clear"
"-115.14","67.82","KUGLUKTUK A","2300903","2023-02-01 18:00","2023","02","01","18:00","-34.8","","-39.0","","66","","","","22","","21","","24.1","","102.65","","","","-49","","NA"
"-115.14","67.82","KUGLUKTUK A","2300903","2023-02-01 19:00","2023","02","01","19:00","-35.2","","-39.4","","66","","","","23","","22","","24.1","","102.63","","","","-50","","NA"
"-115.14","67.82","KUGLUKTUK A","2300903","2023-02-01 20:00","2023","02","01","20:00","-35.1","","-39.4","","66","","","","22","","24","","24.1","","102.62","","","","-51","","Clear"
"-115.14","67.82","KUGLUKTUK A","2300903","2023-02-01 21:00","2023","02","01","21:00","-35.6","","-39.8","","66","","","","22","","23","","24.1","","102.57","","","","-51","","NA"
"-115.14","67.82","KUGLUKTUK A","2300903","2023-02-01 22:00","2023","02","01","22:00","-35.6","","-39.8","","66","","","","23","","22","","24.1","","102.53","","","","-51","","NA"
"-115.14","67.82","KUGLUKTUK A","2300903","2023-02-01 23:00","2023","02","01","23:00","-36.2","","-40.2","","68","","","","22","","23","","24.1","","102.52","","","","-52","","Clear"
"-115.14","67.82","KUGLUKTUK A","2300903","2023-02-02 00:00","2023","02","02","00:00","-36.4","","-40.5","","67","","","","23","","20","","24.1","","102.53","","","","-51","","NA"
"-115.14","67.82","KUGLUKTUK A","2300903","2023-02-02 01:00","2023","02","02","01:00","-36.7","","-40.8","","67","","","","22","","23","","24.1","","102.50","","","","-52","","NA"
"-115.14","67.82","KUGLUKTUK A","2300903","2023-02-02 02:00","2023","02","02","02:00","-36.7","","-40.7","","67","","","","22","","22","","24.1","","102.46","","","","-52","","Clear"
"-115.14","67.82","KUGLUKTUK A","2300903","2023-02-02 03:00","2023","02","02","03:00","-36.2","","-40.2","","68","","","","23","","19","","24.1","","102.42","","","","-51","","NA"
"-115.14","67.82","KUGLUKTUK A","2300903","2023-02-02 04:00","2023","02","02","04:00","-36.3","","-40.5","","66","","","","23","","27","","24.1","","102.38","","","","-53","","NA"
"-115.14","67.82","KUGLUKTUK A","2300903","2023-02-02 05:00","2023","02","02","05:00","-34.3","","-38.6","","66","","","","23","","28","","24.1","","102.32","","","","-51","","Clear"
"-115.14","67.82","KUGLUKTUK A","2300903","2023-02-02 06:00","2023","02","02","06:00","-34.9","","-39.2","","66","","","","23","","23","","24.1","","102.27","","","","-50","","NA"
"-115.14","67.82","KUGLUKTUK A","2300903","2023-02-02 07:00","2023","02","02","07:00","-34.2","","-38.5","","66","","","","23","","23","","24.1","","102.24","","","","-49","","NA"
"-115.14","67.82","KUGLUKTUK A","2300903","2023-02-02 08:00","2023","02","02","08:00","-34.0","","-38.4","","66","","","","22","","20","","24.1","","102.18","","","","-48","","Clear"
"-115.14","67.82","KUGLUKTUK A","2300903","2023-02-02 09:00","2023","02","02","09:00","-34.4","","-38.8","","65","","","","22","","16","","24.1","","102.12","","","","-47","","NA"
"-115.14","67.82","KUGLUKTUK A","2300903","2023-02-02 10:00","2023","02","02","10:00","-35.2","","-39.4","","66","","","","22","","22","","24.1","","102.08","","","","-50","","NA"
"-115.14","67.82","KUGLUKTUK A","2300903","2023-02-02 11:00","2023","02","02","11:00","-33.4","","-37.7","","66","","","","23","","12","","24.1","","102.05","","","","-44","","Clear"
"-115.14","67.82","KUGLUKTUK A","2300903","2023-02-02 12:00","2023","02","02","12:00","-34.2","","-38.8","","64","","","","23","","10","","24.1","","102.00","","","","-44","","NA"
"-115.14","67.82","KUGLUKTUK A","2300903","2023-02-02 13:00","2023","02","02","13:00","-36.5","","-40.7","","66","","","","1","","3","","24.1","","101.96","","","","-40","","NA"
"-115.14","67.82","KUGLUKTUK A","2300903","2023-02-02 14:00","2023","02","02","14:00","-34.8","","-39.0","","66","","","","36","","2","","24.1","","101.93","","","","-37","","Clear"
"-115.14","67.82","KUGLUKTUK A","2300903","2023-02-02 15:00","2023","02","02","15:00","-35.4","","-39.1","","69","","","","36","","3","","24.1","","101.90","","","","-39","","NA"
"-115.14","67.82","KUGLUKTUK A","2300903","2023-02-02 16:00","2023","02","02","16:00","-34.7","","-38.6","","69","","","","36","","2","","24.1","","101.84","","","","-37","","NA"
"-115.14","67.82","KUGLUKTUK A","2300903","2023-02-02 17:00","2023","02","02","17:00","-35.5","","-39.2","","70","","","","24","","9","","24.1","","101.80","","","","-45","","Clear"
"-115.14","67.82","KUGLUKTUK A","2300903","2023-02-02 18:00","2023","02","02","18:00","-36.3","","-39.9","","70","","","","23","","13","","24.1","","101.74","","","","-48","","NA"
"-115.14","67.82","KUGLUKTUK A","2300903","2023-02-02 19:00","2023","02","02","19:00","-37.7","","-41.5","","69","","","","0","","1","","24.1","","101.69","","","","-39","","NA"
"-115.14","67.82","KUGLUKTUK A","2300903","2023-02-02 20:00","2023","02","02","20:00","-38.3","","-41.9","","70","","","","22","","18","","24.1","","101.63","","","","-53","","Clear"
"-115.14","67.82","KUGLUKTUK A","2300903","2023-02-02 21:00","2023","02","02","21:00","-38.3","","-41.9","","70","","","","22","","11","","24.1","","101.59","","","","-50","","NA"
"-115.14","67.82","KUGLUKTUK A","2300903","2023-02-02 22:00","2023","02","02","22:00","-37.1","","-40.5","","71","","","","25","","12","","24.1","","101.55","","","","-49","","NA"
"-115.14","67.82","KUGLUKTUK A","2300903","2023-02-02 23:00","2023","02","02","23:00","-37.8","","-41.3","","71","","","","24","","16","","24.1","","101.50","","","","-51","","Clear"
"-115.14","67.82","KUGLUKTUK A","2300903","2023-02-03 00:00","2023","02","03","00:00","-37.4","","-40.9","","71","","","","23","","21","","24.1","","101.45","","","","-53","","NA"
"-115.14","67.82","KUGLUKTUK A","2300903","2023-02-03 01:00","2023","02","03","01:00","-38.2","","-41.8","","70","","","","22","","11","","24.1","","101.44","","","","-50","","NA"
"-115.14","67.82","KUGLUKTUK A","2300903","2023-02-03 02:00","2023","02","03","02:00","-37.8","","-41.5","","70","","","","25","","4","","24.1","","101.42","","","","-43","","Clear"
"-115.14","67.82","KUGLUKTUK A","2300903","2023-02-03 03:00","2023","02","03","03:00","-38.4","","-42.1","","69","","","","23","","13","","24.1","","101.39","","","","-51","","NA"
"-115.14","67.82","KUGLUKTUK A","2300903","2023-02-03 04:00","2023","02","03","04:00","-38.0","","-41.7","","69","","","","23","","15","","24.1","","101.37","","","","-51","","NA"
"-115.14","67.82","KUGLUKTUK A","2300903","2023-02-03 05:00","2023","02","03","05:00","-39.7","","-43.5","","68","","","","22","","14","","24.1","","101.33","","","","-53","","Clear"
"-115.14","67.82","KUGLUKTUK A","2300903","2023-02-03 06:00","2023","02","03","06:00","-38.6","","-42.4","","68","","","","28","","5","","24.1","","101.31","","","","-45","","NA"
"-115.14","67.82","KUGLUKTUK A","2300903","2023-02-03 07:00","2023","02","03","07:00","-38.2","","-42.1","","68","","","","24","","7","","24.1","","101.30","","","","-47","","NA"
"-115.14","67.82","KUGLUKTUK A","2300903","2023-02-03 08:00","2023","02","03","08:00","-38.9","","-42.8","","68","","","","23","","19","","24.1","","101.26","","","","-54","","Clear"
"-115.14","67.82","KUGLUKTUK A","2300903","2023-02-03 09:00","2023","02","03","09:00","-38.6","","-42.4","","68","","","","23","","21","","24.1","","101.23","","","","-54","","NA"
"-115.14","67.82","KUGLUKTUK A","2300903","2023-02-03 10:00","2023","02","03","10:00","-39.8","","-43.8","","67","","","","23","","16","","24.1","","101.22","","","","-54","","NA"
"-115.14","67.82","KUGLUKTUK A","2300903","2023-02-03 11:00","2023","02","03","11:00","-39.6","","-43.5","","67","","","","22","","20","","24.1","","101.22","","","","-55","","Clear"
"-115.14","67.82","KUGLUKTUK A","2300903","2023-02-03 12:00","2023","02","03","12:00","-38.2","","-42.0","","68","","","","36","","7","","24.1","","101.23","","","","-47","","NA"
"-115.14","67.82","KUGLUKTUK A","2300903","2023-02-03 13:00","2023","02","03","13:00","-38.6","","-42.5","","68","","","","26","","6","","24.1","","101.24","","","","-46","","NA"
"-115.14","67.82","KUGLUKTUK A","2300903","2023-02-03 14:00","2023","02","03","14:00","-38.8","","-42.7","","68","","","","23","","13","","24.1","","101.22","","","","-51","","Clear"
"-115.14","67.82","KUGLUKTUK A","2300903","2023-02-03 15:00","2023","02","03","15:00","-37.9","","-41.7","","68","","","","23","","19","","24.1","","101.20","","","","-53","","NA"
"-115.14","67.82","KUGLUKTUK A","2300903","2023-02-03 16:00","2023","02","03","16:00","-37.7","","-41.5","","68","","","","23","","21","","24.1","","101.20","","","","-53","","NA"
"-115.14","67.82","KUGLUKTUK A","2300903","2023-02-03 17:00","2023","02","03","17:00","-38.5","","-42.3","","68","","","","22","","18","","24.1","","101.19","","","","-53","","Clear"
"-115.14","67.82","KUGLUKTUK A","2300903","2023-02-03 18:00","2023","02","03","18:00","-39.0","","-42.9","","68","","","","23","","18","","24.1","","101.16","","","","-54","","NA"
"-115.14","67.82","KUGLUKTUK A","2300903","2023-02-03 19:00","2023","02","03","19:00","-39.5","","-43.4","","67","","","","22","","19","","24.1","","101.14","","","","-55","","NA"
"-115.14","67.82","KUGLUKTUK A","2300903","2023-02-03 20:00","2023","02","03","20:00","-39.4","","-43.3","","67","","","","23","","21","","24.1","","101.12","","","","-55","","Ice Crystals"
"-115.14","67.82","KUGLUKTUK A","2300903","2023-02-03 21:00","2023","02","03","21:00","-39.0","","-43.0","","67","","","","23","","22","","24.1","","101.11","","","","-55","","NA"
"-115.14","67.82","KUGLUKTUK A","2300903","2023-02-03 22:00","2023","02","03","22:00","-39.0","","-42.9","","67","","","","22","","23","","24.1","","101.12","","","","-55","","NA"
"-115.14","67.82","KUGLUKTUK A","2300903","2023-02-03 23:00","2023","02","03","23:00","-39.0","","-42.9","","67","","","","22","","25","","24.1","","101.10","","","","-56","","Clear"
"-115.14","67.82","KUGLUKTUK A","2300903","2023-02-04 00:00","2023","02","04","00:00","-38.4","","-42.3","","68","","","","23","","21","","24.1","","101.11","","","","-54","","NA"
"-115.14","67.82","KUGLUKTUK A","2300903","2023-02-04 01:00","2023","02","04","01:00","-38.5","","-42.4","","68","","","","22","","23","","24.1","","101.11","","","","-55","","NA"
"-115.14","67.82","KUGLUKTUK A","2300903","2023-02-04 02:00","2023","02","04","02:00","-38.4","","-42.3","","68","","","","22","","25","","24.1","","101.11","","","","-55","","Clear"
"-115.14","67.82","KUGLUKTUK A","2300903","2023-02-04 03:00","2023","02","04","03:00","-38.5","","-42.4","","68","","","","22","","26","","24.1","","101.13","","","","-56","","NA"
"-115.14","67.82","KUGLUKTUK A","2300903","2023-02-04 04:00","2023","02","04","04:00","-38.3","","-42.2","","68","","","","22","","25","","24.1","","101.12","","","","-55","","NA"
"-115.14","67.82","KUGLUKTUK A","2300903","2023-02-04 05:00","2023","02","04","05:00","-38.4","","-42.3","","68","","","","22","","6","","24.1","","101.14","","","","-46","","Clear"
"-115.14","67.82","KUGLUKTUK A","2300903","2023-02-04 06:00","2023","02","04","06:00","-38.3","","-42.1","","68","","","","22","","19","","24.1","","101.11","","","","-53","","NA"
"-115.14","67.82","KUGLUKTUK A","2300903","2023-02-04 07:00","2023","02","04","07:00","-38.1","","-42.0","","68","","","","22","","22","","24.1","","101.12","","","","-54","","NA"
"-115.14","67.82","KUGLUKTUK A","2300903","2023-02-04 08:00","2023","02","04","08:00","-38.3","","-42.1","","68","","","","21","","12","","24.1","","101.12","","","","-50","","Mainly Clear"
"-115.14","67.82","KUGLUKTUK A","2300903","2023-02-04 09:00","2023","02","04","09:00","-37.6","","-41.4","","68","","","","24","","7","","24.1","","101.12","","","","-46","","NA"
"-115.14","67.82","KUGLUKTUK A","2300903","2023-02-04 10:00","2023","02","04","10:00","-37.4","","-41.2","","69","","","","21","","6","","24.1","","101.13","","","","-45","","NA"
"-115.14","67.82","KUGLUKTUK A","2300903","2023-02-04 11:00","2023","02","04","11:00","-37.8","","-41.6","","68","","","","23","","25","","24.1","","101.12","","","","-54","","Mainly Clear"
"-115.14","67.82","KUGLUKTUK A","2300903","2023-02-04 12:00","2023","02","04","12:00","-38.0","","-41.9","","68","","","","22","","21","","24.1","","101.13","","","","-54","","NA"
"-115.14","67.82","KUGLUKTUK A","2300903","2023-02-04 13:00","2023","02","04","13:00","-36.0","","-39.8","","69","","","","23","","26","","24.1","","101.15","","","","-52","","NA"
"-115.14","67.82","KUGLUKTUK A","2300903","2023-02-04 14:00","2023","02","04","14:00","-36.1","","-39.9","","69","","","","22","","24","","24.1","","101.13","","","","-52","","Mostly Cloudy"
"-115.14","67.82","KUGLUKTUK A","2300903","2023-02-04 15:00","2023","02","04","15:00","-35.9","","-39.6","","69","","","","22","","20","","24.1","","101.13","","","","-51","","NA"
"-115.14","67.82","KUGLUKTUK A","2300903","2023-02-04 16:00","2023","02","04","16:00","-36.4","","-40.2","","69","","","","23","","25","","24.1","","101.11","","","","-53","","NA"
"-115.14","67.82","KUGLUKTUK A","2300903","2023-02-04 17:00","2023","02","04","17:00","-36.9","","-40.7","","69","","","","22","","25","","24.1","","101.10","","","","-53","","Ice Crystals"
"-115.14","67.82","KUGLUKTUK A","2300903","2023-02-04 18:00","2023","02","04","18:00","-36.9","","-40.7","","69","","","","22","","26","","24.1","","101.06","","","","-54","","Ice Crystals"
"-115.14","67.82","KUGLUKTUK A","2300903","2023-02-04 19:00","2023","02","04","19:00","-37.1","","-40.9","","69","","","","22","","23","","24.1","","101.03","","","","-53","","Ice Crystals"
"-115.14","67.82","KUGLUKTUK A","2300903","2023-02-04 20:00","2023","02","04","20:00","-37.0","","-40.9","","69","","","","22","","22","","24.1","","101.00","","","","-53","","Ice Crystals"
"-115.14","67.82","KUGLUKTUK A","2300903","2023-02-04 21:00","2023","02","04","21:00","-36.9","","-40.7","","69","","","","22","","20","","24.1","","100.98","","","","-52","","NA"
"-115.14","67.82","KUGLUKTUK A","2300903","2023-02-04 22:00","2023","02","04","22:00","-36.1","","-40.0","","69","","","","30","","3","","24.1","","100.93","","","","-40","","NA"
"-115.14","67.82","KUGLUKTUK A","2300903","2023-02-04 23:00","2023","02","04","23:00","-36.8","","-40.7","","69","","","","22","","19","","24.1","","100.90","","","","-51","","Clear"
"-115.14","67.82","KUGLUKTUK A","2300903","2023-02-05 00:00","2023","02","05","00:00","-36.4","","-40.2","","69","","","","22","","13","","24.1","","100.85","","","","-48","","NA"
"-115.14","67.82","KUGLUKTUK A","2300903","2023-02-05 01:00","2023","02","05","01:00","-36.7","","-40.5","","69","","","","26","","6","","24.1","","100.81","","","","-44","","NA"
"-115.14","67.82","KUGLUKTUK A","2300903","2023-02-05 02:00","2023","02","05","02:00","-36.3","","-40.1","","69","","","","22","","21","","24.1","","100.73","","","","-51","","Clear"
"-115.14","67.82","KUGLUKTUK A","2300903","2023-02-05 03:00","2023","02","05","03:00","-36.4","","-40.1","","69","","","","25","","15","","24.1","","100.68","","","","-49","","NA"
"-115.14","67.82","KUGLUKTUK A","2300903","2023-02-05 04:00","2023","02","05","04:00","-36.5","","-40.3","","69","","","","26","","5","","24.1","","100.62","","","","-43","","NA"
"-115.14","67.82","KUGLUKTUK A","2300903","2023-02-05 05:00","2023","02","05","05:00","-35.7","","-39.4","","70","","","","24","","16","","24.1","","100.59","","","","-49","","Clear"
"-115.14","67.82","KUGLUKTUK A","2300903","2023-02-05 06:00","2023","02","05","06:00","-38.5","","-42.5","","67","","","","30","","12","","24.1","","100.55","","","","-50","","NA"
"-115.14","67.82","KUGLUKTUK A","2300903","2023-02-05 07:00","2023","02","05","07:00","-36.9","","-40.7","","69","","","","25","","10","","24.1","","100.49","","","","-47","","NA"
"-115.14","67.82","KUGLUKTUK A","2300903","2023-02-05 08:00","2023","02","05","08:00","-36.1","","-39.8","","69","","","","16","","7","","24.1","","100.43","","","","-44","","Clear"
"-115.14","67.82","KUGLUKTUK A","2300903","2023-02-05 09:00","2023","02","05","09:00","-34.9","","-38.6","","70","","","","23","","24","","24.1","","100.39","","","","-50","","NA"
"-115.14","67.82","KUGLUKTUK A","2300903","2023-02-05 10:00","2023","02","05","10:00","-36.8","","-40.6","","69","","","","22","","27","","24.1","","100.38","","","","-54","","NA"
"-115.14","67.82","KUGLUKTUK A","2300903","2023-02-05 11:00","2023","02","05","11:00","-36.8","","-40.6","","69","","","","22","","25","","24.1","","100.35","","","","-53","","Mainly Clear"
"-115.14","67.82","KUGLUKTUK A","2300903","2023-02-05 12:00","2023","02","05","12:00","-35.5","","-39.3","","69","","","","26","","5","","24.1","","100.38","","","","-42","","NA"
"-115.14","67.82","KUGLUKTUK A","2300903","2023-02-05 13:00","2023","02","05","13:00","-35.6","","-39.4","","69","","","","36","","2","","24.1","","100.35","","","","-38","","NA"
"-115.14","67.82","KUGLUKTUK A","2300903","2023-02-05 14:00","2023","02","05","14:00","-35.3","","-39.1","","69","","","","23","","21","","24.1","","100.34","","","","-50","","Clear"
"-115.14","67.82","KUGLUKTUK A","2300903","2023-02-05 15:00","2023","02","05","15:00","-35.6","","-39.4","","69","","","","18","","9","","24.1","","100.34","","","","-45","","NA"
"-115.14","67.82","KUGLUKTUK A","2300903","2023-02-05 16:00","2023","02","05","16:00","-36.5","","-40.3","","69","","","","23","","20","","24.1","","100.33","","","","-51","","NA"
"-115.14","67.82","KUGLUKTUK A","2300903","2023-02-05 17:00","2023","02","05","17:00","-36.7","","-40.5","","69","","","","22","","18","","24.1","","100.32","","","","-51","","Mainly Clear"
"-115.14","67.82","KUGLUKTUK A","2300903","2023-02-05 18:00","2023","02","05","18:00","-36.1","","-39.8","","69","","","","23","","19","","24.1","","100.30","","","","-50","","NA"
"-115.14","67.82","KUGLUKTUK A","2300903","2023-02-05 19:00","2023","02","05","19:00","-35.1","","-38.8","","70","","","","21","","8","","24.1","","100.32","","","","-44","","Ice Crystals"
"-115.14","67.82","KUGLUKTUK A","2300903","2023-02-05 20:00","2023","02","05","20:00","-37.2","","-41.0","","69","","","","22","","21","","24.1","","100.31","","","","-53","","Ice Crystals"
"-115.14","67.82","KUGLUKTUK A","2300903","2023-02-05 21:00","2023","02","05","21:00","-36.6","","-40.4","","69","","","","23","","17","","24.1","","100.29","","","","-50","","Ice Crystals"
"-115.14","67.82","KUGLUKTUK A","2300903","2023-02-05 22:00","2023","02","05","22:00","-37.0","","-40.9","","68","","","","23","","18","","24.1","","100.29","","","","-51","","NA"
"-115.14","67.82","KUGLUKTUK A","2300903","2023-02-05 23:00","2023","02","05","23:00","-37.2","","-41.1","","68","","","","20","","15","","24.1","","100.28","","","","-50","","Ice Crystals"
"-115.14","67.82","KUGLUKTUK A","2300903","2023-02-06 00:00","2023","02","06","00:00","-35.7","","-39.4","","69","","","","23","","24","","24.1","","100.27","","","","-52","","NA"
"-115.14","67.82","KUGLUKTUK A","2300903","2023-02-06 01:00","2023","02","06","01:00","-36.6","","-40.5","","69","","","","22","","22","","24.1","","100.30","","","","-52","","NA"
"-115.14","67.82","KUGLUKTUK A","2300903","2023-02-06 02:00","2023","02","06","02:00","-36.0","","-39.7","","69","","","","25","","9","","24.1","","100.30","","","","-46","","Clear"
"-115.14","67.82","KUGLUKTUK A","2300903","2023-02-06 03:00","2023","02","06","03:00","-37.0","","-40.9","","69","","","","23","","21","","24.1","","100.28","","","","-52","","NA"
"-115.14","67.82","KUGLUKTUK A","2300903","2023-02-06 04:00","2023","02","06","04:00","-36.7","","-40.5","","69","","","","22","","23","","24.1","","100.28","","","","-52","","NA"
"-115.14","67.82","KUGLUKTUK A","2300903","2023-02-06 05:00","2023","02","06","05:00","-36.0","","-39.7","","69","","","","23","","27","","24.1","","100.26","","","","-53","","Clear"
"-115.14","67.82","KUGLUKTUK A","2300903","2023-02-06 06:00","2023","02","06","06:00","-36.5","","-40.3","","69","","","","22","","18","","24.1","","100.26","","","","-51","","NA"
"-115.14","67.82","KUGLUKTUK A","2300903","2023-02-06 07:00","2023","02","06","07:00","-35.6","","-39.3","","70","","","","21","","13","","24.1","","100.24","","","","-47","","NA"
"-115.14","67.82","KUGLUKTUK A","2300903","2023-02-06 08:00","2023","02","06","08:00","-36.1","","-39.9","","69","","","","22","","21","","24.1","","100.22","","","","-51","","Clear"
"-115.14","67.82","KUGLUKTUK A","2300903","2023-02-06 09:00","2023","02","06","09:00","-36.4","","-40.2","","69","","","","23","","23","","24.1","","100.23","","","","-52","","NA"
"-115.14","67.82","KUGLUKTUK A","2300903","2023-02-06 10:00","2023","02","06","10:00","-35.8","","-39.6","","69","","","","23","","26","","24.1","","100.23","","","","-52","","NA"
"-115.14","67.82","KUGLUKTUK A","2300903","2023-02-06 11:00","2023","02","06","11:00","-35.5","","-39.2","","69","","","","23","","22","","24.1","","100.25","","","","-51","","Clear"
"-115.14","67.82","KUGLUKTUK A","2300903","2023-02-06 12:00","2023","02","06","12:00","-34.3","","-38.0","","70","","","","24","","16","","24.1","","100.26","","","","-47","","NA"
"-115.14","67.82","KUGLUKTUK A","2300903","2023-02-06 13:00","2023","02","06","13:00","-34.9","","-38.7","","70","","","","22","","18","","24.1","","100.26","","","","-49","","NA"
"-115.14","67.82","KUGLUKTUK A","2300903","2023-02-06 14:00","2023","02","06","14:00","-34.6","","-38.3","","70","","","","24","","17","","24.1","","100.25","","","","-48","","Clear"
"-115.14","67.82","KUGLUKTUK A","2300903","2023-02-06 15:00","2023","02","06","15:00","-33.4","","-37.0","","71","","","","24","","25","","24.1","","100.23","","","","-49","","NA"
"-115.14","67.82","KUGLUKTUK A","2300903","2023-02-06 16:00","2023","02","06","16:00","-33.7","","-37.4","","71","","","","25","","20","","24.1","","100.23","","","","-48","","NA"
"-115.14","67.82","KUGLUKTUK A","2300903","2023-02-06 17:00","2023","02","06","17:00","-34.2","","-37.9","","70","","","","25","","17","","24.1","","100.25","","","","-47","","Clear"
"-115.14","67.82","KUGLUKTUK A","2300903","2023-02-06 18:00","2023","02","06","18:00","-34.7","","-38.4","","70","","","","23","","18","","24.1","","100.28","","","","-48","","NA"
"-115.14","67.82","KUGLUKTUK A","2300903","2023-02-06 19:00","2023","02","06","19:00","-34.2","","-37.9","","70","","","","24","","21","","24.1","","100.28","","","","-49","","NA"
"-115.14","67.82","KUGLUKTUK A","2300903","2023-02-06 20:00","2023","02","06","20:00","-34.2","","-37.9","","71","","","","25","","24","","24.1","","100.26","","","","-50","","Clear"
"-115.14","67.82","KUGLUKTUK A","2300903","2023-02-06 21:00","2023","02","06","21:00","-33.9","","-37.5","","71","","","","26","","5","","24.1","","100.29","","","","-40","","Ice Crystals"
"-115.14","67.82","KUGLUKTUK A","2300903","2023-02-06 22:00","2023","02","06","22:00","-36.3","","-40.0","","69","","","","22","","15","","24.1","","100.28","","","","-49","","Ice Crystals"
"-115.14","67.82","KUGLUKTUK A","2300903","2023-02-06 23:00","2023","02","06","23:00","-35.5","","-39.2","","70","","","","23","","16","","24.1","","100.28","","","","-49","","Ice Crystals"
"-115.14","67.82","KUGLUKTUK A","2300903","2023-02-07 00:00","2023","02","07","00:00","-35.0","","-38.7","","70","","","","24","","9","","24.1","","100.32","","","","-45","","Ice Crystals"
"-115.14","67.82","KUGLUKTUK A","2300903","2023-02-07 01:00","2023","02","07","01:00","-37.5","","-41.3","","68","","","","21","","4","","24.1","","100.31","","","","-43","","Ice Crystals"
"-115.14","67.82","KUGLUKTUK A","2300903","2023-02-07 02:00","2023","02","07","02:00","-36.2","","-39.9","","69","","","","24","","7","","24.1","","100.33","","","","-44","","Ice Crystals"
"-115.14","67.82","KUGLUKTUK A","2300903","2023-02-07 03:00","2023","02","07","03:00","-36.1","","-39.9","","69","","","","20","","3","","24.1","","100.35","","","","-40","","NA"
"-115.14","67.82","KUGLUKTUK A","2300903","2023-02-07 04:00","2023","02","07","04:00","-38.1","","-42.0","","68","","","","36","","6","","24.1","","100.38","","","","-46","","NA"
"-115.14","67.82","KUGLUKTUK A","2300903","2023-02-07 05:00","2023","02","07","05:00","-37.4","","-41.1","","69","","","","25","","5","","19.3","","100.41","","","","-44","","Ice Crystals"
"-115.14","67.82","KUGLUKTUK A","2300903","2023-02-07 06:00","2023","02","07","06:00","-37.1","","-40.9","","69","","","","20","","6","","19.3","","100.43","","","","-45","","Ice Crystals"
"-115.14","67.82","KUGLUKTUK A","2300903","2023-02-07 07:00","2023","02","07","07:00","-38.1","","-42.0","","68","","","","22","","21","","19.3","","100.45","","","","-54","","Ice Crystals"
"-115.14","67.82","KUGLUKTUK A","2300903","2023-02-07 08:00","2023","02","07","08:00","-36.9","","-40.7","","69","","","","23","","19","","24.1","","100.46","","","","-51","","Ice Crystals"
"-115.14","67.82","KUGLUKTUK A","2300903","2023-02-07 09:00","2023","02","07","09:00","-37.5","","-41.4","","68","","","","23","","18","","24.1","","100.51","","","","-52","","NA"
"-115.14","67.82","KUGLUKTUK A","2300903","2023-02-07 10:00","2023","02","07","10:00","-38.0","","-41.8","","68","","","","13","","7","","24.1","","100.55","","","","-47","","NA"
"-115.14","67.82","KUGLUKTUK A","2300903","2023-02-07 11:00","2023","02","07","11:00","-35.4","","-39.1","","70","","","","21","","4","","24.1","","100.56","","","","-40","","Mostly Cloudy"
"-115.14","67.82","KUGLUKTUK A","2300903","2023-02-07 12:00","2023","02","07","12:00","-35.0","","-38.8","","70","","","","23","","14","","24.1","","100.59","","","","-47","","NA"
"-115.14","67.82","KUGLUKTUK A","2300903","2023-02-07 13:00","2023","02","07","13:00","-34.8","","-38.5","","70","","","","24","","12","","24.1","","100.65","","","","-46","","NA"
"-115.14","67.82","KUGLUKTUK A","2300903","2023-02-07 14:00","2023","02","07","14:00","-36.1","","-39.9","","69","","","","23","","8","","24.1","","100.67","","","","-45","","Mainly Clear"
"-115.14","67.82","KUGLUKTUK A","2300903","2023-02-07 15:00","2023","02","07","15:00","-36.5","","-40.3","","69","","","","22","","13","","24.1","","100.71","","","","-49","","NA"
"-115.14","67.82","KUGLUKTUK A","2300903","2023-02-07 16:00","2023","02","07","16:00","-36.3","","-40.1","","69","","","","22","","17","","24.1","","100.75","","","","-50","","NA"
"-115.14","67.82","KUGLUKTUK A","2300903","2023-02-07 17:00","2023","02","07","17:00","-36.3","","-40.0","","69","","","","23","","17","","24.1","","100.77","","","","-50","","Clear"
"-115.14","67.82","KUGLUKTUK A","2300903","2023-02-07 18:00","2023","02","07","18:00","-36.1","","-39.9","","69","","","","22","","17","","24.1","","100.79","","","","-50","","Ice Crystals"
"-115.14","67.82","KUGLUKTUK A","2300903","2023-02-07 19:00","2023","02","07","19:00","-37.0","","-40.9","","69","","","","0","","1","","19.3","","100.83","","","","-38","","Ice Crystals"
"-115.14","67.82","KUGLUKTUK A","2300903","2023-02-07 20:00","2023","02","07","20:00","-37.4","","-41.2","","68","","","","21","","11","","19.3","","100.85","","","","-49","","Ice Crystals"
"-115.14","67.82","KUGLUKTUK A","2300903","2023-02-07 21:00","2023","02","07","21:00","-36.2","","-40.0","","69","","","","","","0","","19.3","","100.85","","","","","","Ice Crystals"
"-115.14","67.82","KUGLUKTUK A","2300903","2023-02-07 22:00","2023","02","07","22:00","-36.8","","-40.6","","69","","","","22","","8","","12.9","","100.88","","","","-46","","Ice Crystals"
"-115.14","67.82","KUGLUKTUK A","2300903","2023-02-07 23:00","2023","02","07","23:00","-36.3","","-40.1","","69","","","","19","","9","","16.1","","100.92","","","","-46","","Ice Crystals"
"-115.14","67.82","KUGLUKTUK A","2300903","2023-02-08 00:00","2023","02","08","00:00","-35.6","","-39.3","","70","","","","18","","8","","12.9","","100.95","","","","-45","","Ice Crystals"
"-115.14","67.82","KUGLUKTUK A","2300903","2023-02-08 01:00","2023","02","08","01:00","-36.2","","-40.0","","69","","","","22","","18","","16.1","","100.98","","","","-50","","Ice Crystals"
"-115.14","67.82","KUGLUKTUK A","2300903","2023-02-08 02:00","2023","02","08","02:00","-36.2","","-40.0","","69","","","","22","","20","","19.3","","101.00","","","","-51","","Ice Crystals"
"-115.14","67.82","KUGLUKTUK A","2300903","2023-02-08 03:00","2023","02","08","03:00","-34.9","","-38.6","","70","","","","29","","8","","24.1","","101.06","","","","-44","","NA"
"-115.14","67.82","KUGLUKTUK A","2300903","2023-02-08 04:00","2023","02","08","04:00","-36.5","","-40.2","","69","","","","23","","15","","24.1","","101.07","","","","-49","","NA"
"-115.14","67.82","KUGLUKTUK A","2300903","2023-02-08 05:00","2023","02","08","05:00","-36.0","","-39.8","","69","","","","22","","22","","24.1","","101.11","","","","-51","","Mainly Clear"
"-115.14","67.82","KUGLUKTUK A","2300903","2023-02-08 06:00","2023","02","08","06:00","-35.4","","-39.1","","70","","","","23","","9","","19.3","","101.13","","","","-45","","Ice Crystals"
"-115.14","67.82","KUGLUKTUK A","2300903","2023-02-08 07:00","2023","02","08","07:00","-34.3","","-37.9","","70","","","","29","","7","","24.1","","101.18","","","","-42","","Ice Crystals"
"-115.14","67.82","KUGLUKTUK A","2300903","2023-02-08 08:00","2023","02","08","08:00","-33.1","","-36.6","","71","","","","17","","8","","24.1","","101.15","","","","-42","","Cloudy"
"-115.14","67.82","KUGLUKTUK A","2300903","2023-02-08 09:00","2023","02","08","09:00","-31.9","","-35.4","","72","","","","21","","5","","24.1","","101.19","","","","-38","","NA"
"-115.14","67.82","KUGLUKTUK A","2300903","2023-02-08 10:00","2023","02","08","10:00","-32.2","","-35.7","","72","","","","29","","4","","19.3","","101.23","","","","-37","","Ice Crystals"
"-115.14","67.82","KUGLUKTUK A","2300903","2023-02-08 11:00","2023","02","08","11:00","-30.9","","-34.3","","73","","","","29","","4","","24.1","","101.31","","","","-35","","Snow"
"-115.14","67.82","KUGLUKTUK A","2300903","2023-02-08 12:00","2023","02","08","12:00","-30.4","","-33.8","","73","","","","36","","1","","9.7","","101.35","","","","-32","","Snow"
"-115.14","67.82","KUGLUKTUK A","2300903","2023-02-08 13:00","2023","02","08","13:00","-29.3","","-32.6","","74","","","","36","","1","","16.1","","101.40","","","","-30","","Ice Crystals"
"-115.14","67.82","KUGLUKTUK A","2300903","2023-02-08 14:00","2023","02","08","14:00","-29.2","","-32.5","","74","","","","36","","3","","6.4","","101.41","","","","-33","","Ice Crystals"
"-115.14","67.82","KUGLUKTUK A","2300903","2023-02-08 15:00","2023","02","08","15:00","-28.6","","-31.9","","74","","","","3","","3","","12.9","","101.48","","","","-32","","Ice Crystals"
"-115.14","67.82","KUGLUKTUK A","2300903","2023-02-08 16:00","2023","02","08","16:00","-28.4","","-31.6","","74","","","","6","","6","","16.1","","101.54","","","","-35","","Ice Crystals"
"-115.14","67.82","KUGLUKTUK A","2300903","2023-02-08 17:00","2023","02","08","17:00","-28.0","","-31.2","","75","","","","6","","4","","16.1","","101.58","","","","-32","","Ice Crystals"
"-115.14","67.82","KUGLUKTUK A","2300903","2023-02-08 18:00","2023","02","08","18:00","-27.9","","-31.1","","75","","","","8","","6","","16.1","","101.63","","","","-34","","Ice Crystals"
"-115.14","67.82","KUGLUKTUK A","2300903","2023-02-08 19:00","2023","02","08","19:00","-27.7","","-30.9","","75","","","","35","","3","","16.1","","101.69","","","","-31","","Ice Crystals"
"-115.14","67.82","KUGLUKTUK A","2300903","2023-02-08 20:00","2023","02","08","20:00","-28.0","","-31.2","","75","","","","36","","4","","19.3","","101.71","","","","-32","","Ice Crystals"
"-115.14","67.82","KUGLUKTUK A","2300903","2023-02-08 21:00","2023","02","08","21:00","-28.8","","-32.0","","74","","","","36","","2","","24.1","","101.76","","","","-31","","Ice Crystals"
"-115.14","67.82","KUGLUKTUK A","2300903","2023-02-08 22:00","2023","02","08","22:00","-30.1","","-33.4","","73","","","","28","","10","","24.1","","101.79","","","","-39","","Ice Crystals"
"-115.14","67.82","KUGLUKTUK A","2300903","2023-02-08 23:00","2023","02","08","23:00","-30.9","","-34.2","","73","","","","27","","7","","24.1","","101.83","","","","-38","","Ice Crystals"
"-115.14","67.82","KUGLUKTUK A","2300903","2023-02-09 00:00","2023","02","09","00:00","-30.6","","-34.0","","73","","","","31","","4","","24.1","","101.85","","","","-35","","Ice Crystals"
"-115.14","67.82","KUGLUKTUK A","2300903","2023-02-09 01:00","2023","02","09","01:00","-33.1","","-36.6","","71","","","","22","","4","","24.1","","101.86","","","","-38","","NA"
"-115.14","67.82","KUGLUKTUK A","2300903","2023-02-09 02:00","2023","02","09","02:00","-30.7","","-34.0","","73","","","","25","","3","","24.1","","101.89","","","","-34","","Clear"
"-115.14","67.82","KUGLUKTUK A","2300903","2023-02-09 03:00","2023","02","09","03:00","-32.2","","-35.7","","72","","","","24","","4","","24.1","","101.89","","","","-37","","NA"
"-115.14","67.82","KUGLUKTUK A","2300903","2023-02-09 04:00","2023","02","09","04:00","-32.2","","-35.6","","72","","","","22","","4","","19.3","","101.91","","","","-37","","Ice Crystals"
"-115.14","67.82","KUGLUKTUK A","2300903","2023-02-09 05:00","2023","02","09","05:00","-32.4","","-35.8","","72","","","","36","","3","","16.1","","101.89","","","","-36","","Snow"
"-115.14","67.82","KUGLUKTUK A","2300903","2023-02-09 06:00","2023","02","09","06:00","-30.6","","-33.9","","73","","","","35","","4","","12.9","","101.89","","","","-35","","Snow"
"-115.14","67.82","KUGLUKTUK A","2300903","2023-02-09 07:00","2023","02","09","07:00","-29.8","","-33.1","","74","","","","1","","4","","16.1","","101.89","","","","-34","","Snow"
"-115.14","67.82","KUGLUKTUK A","2300903","2023-02-09 08:00","2023","02","09","08:00","-28.9","","-32.1","","74","","","","36","","1","","16.1","","101.86","","","","-30","","Snow"
"-115.14","67.82","KUGLUKTUK A","2300903","2023-02-09 09:00","2023","02","09","09:00","-28.9","","-32.1","","74","","","","23","","4","","19.3","","101.86","","","","-33","","Snow"
"-115.14","67.82","KUGLUKTUK A","2300903","2023-02-09 10:00","2023","02","09","10:00","-28.8","","-32.0","","74","","","","21","","3","","19.3","","101.87","","","","-32","","Snow"
"-115.14","67.82","KUGLUKTUK A","2300903","2023-02-09 11:00","2023","02","09","11:00","-28.3","","-31.5","","75","","","","22","","4","","24.1","","101.87","","","","-33","","Snow"
"-115.14","67.82","KUGLUKTUK A","2300903","2023-02-09 12:00","2023","02","09","12:00","-28.0","","-31.2","","75","","","","29","","4","","24.1","","101.91","","","","-32","","Snow"
"-115.14","67.82","KUGLUKTUK A","2300903","2023-02-09 13:00","2023","02","09","13:00","-27.9","","-31.1","","75","","","","27","","7","","16.1","","101.93","","","","-35","","Snow"
"-115.14","67.82","KUGLUKTUK A","2300903","2023-02-09 14:00","2023","02","09","14:00","-27.6","","-30.7","","75","","","","29","","5","","12.9","","101.95","","","","-33","","Snow"
"-115.14","67.82","KUGLUKTUK A","2300903","2023-02-09 15:00","2023","02","09","15:00","-27.7","","-30.8","","75","","","","27","","6","","16.1","","101.95","","","","-34","","Ice Crystals"
"-115.14","67.82","KUGLUKTUK A","2300903","2023-02-09 16:00","2023","02","09","16:00","-28.6","","-31.8","","75","","","","23","","9","","16.1","","101.97","","","","-37","","Ice Crystals"
"-115.14","67.82","KUGLUKTUK A","2300903","2023-02-09 17:00","2023","02","09","17:00","-28.6","","-31.8","","75","","","","23","","7","","19.3","","101.98","","","","-36","","Ice Crystals"
"-115.14","67.82","KUGLUKTUK A","2300903","2023-02-09 18:00","2023","02","09","18:00","-29.2","","-32.5","","74","","","","22","","4","","16.1","","101.99","","","","-34","","Ice Crystals"
"-115.14","67.82","KUGLUKTUK A","2300903","2023-02-09 19:00","2023","02","09","19:00","-29.9","","-33.2","","74","","","","24","","6","","16.1","","101.98","","","","-36","","Ice Crystals"
"-115.14","67.82","KUGLUKTUK A","2300903","2023-02-09 20:00","2023","02","09","20:00","-30.4","","-33.7","","73","","","","22","","11","","19.3","","102.00","","","","-40","","Ice Crystals"
"-115.14","67.82","KUGLUKTUK A","2300903","2023-02-09 21:00","2023","02","09","21:00","-30.2","","-33.5","","74","","","","25","","11","","19.3","","101.99","","","","-40","","Ice Crystals"
"-115.14","67.82","KUGLUKTUK A","2300903","2023-02-09 22:00","2023","02","09","22:00","-30.5","","-33.9","","73","","","","22","","14","","24.1","","101.97","","","","-42","","Ice Crystals"
"-115.14","67.82","KUGLUKTUK A","2300903","2023-02-09 23:00","2023","02","09","23:00","-31.1","","-34.4","","73","","","","23","","14","","24.1","","101.98","","","","-42","","Ice Crystals"
"-115.14","67.82","KUGLUKTUK A","2300903","2023-02-10 00:00","2023","02","10","00:00","-32.8","","-36.3","","72","","","","22","","9","","24.1","","101.99","","","","-42","","Ice Crystals"
"-115.14","67.82","KUGLUKTUK A","2300903","2023-02-10 01:00","2023","02","10","01:00","-31.9","","-35.4","","72","","","","22","","15","","24.1","","101.99","","","","-44","","Ice Crystals"
"-115.14","67.82","KUGLUKTUK A","2300903","2023-02-10 02:00","2023","02","10","02:00","-31.1","","-34.5","","73","","","","23","","6","","24.1","","102.00","","","","-38","","Ice Crystals"
"-115.14","67.82","KUGLUKTUK A","2300903","2023-02-10 03:00","2023","02","10","03:00","-32.2","","-35.6","","72","","","","22","","10","","24.1","","101.98","","","","-42","","Ice Crystals"
"-115.14","67.82","KUGLUKTUK A","2300903","2023-02-10 04:00","2023","02","10","04:00","-32.5","","-35.9","","72","","","","23","","11","","24.1","","101.98","","","","-43","","Ice Crystals"
"-115.14","67.82","KUGLUKTUK A","2300903","2023-02-10 05:00","2023","02","10","05:00","-33.3","","-36.9","","71","","","","22","","6","","24.1","","101.93","","","","-40","","Ice Crystals"
"-115.14","67.82","KUGLUKTUK A","2300903","2023-02-10 06:00","2023","02","10","06:00","-33.5","","-37.1","","71","","","","17","","4","","24.1","","101.90","","","","-38","","Ice Crystals"
"-115.14","67.82","KUGLUKTUK A","2300903","2023-02-10 07:00","2023","02","10","07:00","-35.1","","-38.8","","70","","","","22","","5","","24.1","","101.88","","","","-41","","NA"
"-115.14","67.82","KUGLUKTUK A","2300903","2023-02-10 08:00","2023","02","10","08:00","-36.7","","-40.5","","69","","","","1","","6","","24.1","","101.84","","","","-44","","Clear"
"-115.14","67.82","KUGLUKTUK A","2300903","2023-02-10 09:00","2023","02","10","09:00","-35.8","","-39.5","","70","","","","35","","5","","24.1","","101.82","","","","-42","","NA"
"-115.14","67.82","KUGLUKTUK A","2300903","2023-02-10 10:00","2023","02","10","10:00","-36.2","","-40.0","","70","","","","34","","5","","24.1","","101.80","","","","-43","","NA"
"-115.14","67.82","KUGLUKTUK A","2300903","2023-02-10 11:00","2023","02","10","11:00","-36.0","","-39.7","","70","","","","18","","5","","24.1","","101.80","","","","-42","","Mainly Clear"
"-115.14","67.82","KUGLUKTUK A","2300903","2023-02-10 12:00","2023","02","10","12:00","-35.3","","-38.9","","70","","","","36","","3","","24.1","","101.76","","","","-39","","NA"
"-115.14","67.82","KUGLUKTUK A","2300903","2023-02-10 13:00","2023","02","10","13:00","-35.0","","-38.7","","70","","","","32","","3","","24.1","","101.73","","","","-39","","NA"
"-115.14","67.82","KUGLUKTUK A","2300903","2023-02-10 14:00","2023","02","10","14:00","-34.4","","-38.0","","71","","","","2","","7","","24.1","","101.68","","","","-42","","Mostly Cloudy"
"-115.14","67.82","KUGLUKTUK A","2300903","2023-02-10 15:00","2023","02","10","15:00","-33.7","","-37.3","","71","","","","5","","5","","24.1","","101.64","","","","-40","","NA"
"-115.14","67.82","KUGLUKTUK A","2300903","2023-02-10 16:00","2023","02","10","16:00","-34.1","","-37.7","","71","","","","5","","6","","24.1","","101.57","","","","-41","","NA"
"-115.14","67.82","KUGLUKTUK A","2300903","2023-02-10 17:00","2023","02","10","17:00","-34.5","","-38.1","","71","","","","2","","10","","24.1","","101.52","","","","-45","","Mainly Clear"
"-115.14","67.82","KUGLUKTUK A","2300903","2023-02-10 18:00","2023","02","10","18:00","-34.3","","-37.9","","71","","","","3","","10","","24.1","","101.43","","","","-44","","NA"
"-115.14","67.82","KUGLUKTUK A","2300903","2023-02-10 19:00","2023","02","10","19:00","-34.6","","-38.2","","71","","","","3","","13","","24.1","","101.39","","","","-46","","NA"
"-115.14","67.82","KUGLUKTUK A","2300903","2023-02-10 20:00","2023","02","10","20:00","-35.2","","-38.9","","70","","","","2","","6","","24.1","","101.31","","","","-42","","Ice Crystals"
"-115.14","67.82","KUGLUKTUK A","2300903","2023-02-10 21:00","2023","02","10","21:00","-34.8","","-38.4","","70","","","","3","","8","","19.3","","101.25","","","","-44","","Ice Crystals"
"-115.14","67.82","KUGLUKTUK A","2300903","2023-02-10 22:00","2023","02","10","22:00","-34.6","","-38.3","","71","","","","3","","4","","16.1","","101.18","","","","-40","","Ice Crystals"
"-115.14","67.82","KUGLUKTUK A","2300903","2023-02-10 23:00","2023","02","10","23:00","-34.4","","-38.0","","71","","","","3","","5","","19.3","","101.11","","","","-41","","Ice Crystals"
"-115.14","67.82","KUGLUKTUK A","2300903","2023-02-11 00:00","2023","02","11","00:00","-33.7","","-37.2","","71","","","","3","","9","","19.3","","101.01","","","","-43","","Ice Crystals"
"-115.14","67.82","KUGLUKTUK A","2300903","2023-02-11 01:00","2023","02","11","01:00","-33.3","","-36.9","","71","","","","3","","10","","19.3","","100.93","","","","-43","","Ice Crystals"
"-115.14","67.82","KUGLUKTUK A","2300903","2023-02-11 02:00","2023","02","11","02:00","-32.8","","-36.4","","72","","","","2","","6","","19.3","","100.84","","","","-40","","Ice Crystals"
"-115.14","67.82","KUGLUKTUK A","2300903","2023-02-11 03:00","2023","02","11","03:00","-31.8","","-35.3","","72","","","","2","","11","","16.1","","100.75","","","","-42","","Snow"
"-115.14","67.82","KUGLUKTUK A","2300903","2023-02-11 04:00","2023","02","11","04:00","-30.7","","-34.1","","73","","","","3","","16","","6.4","","100.62","","","","-43","","Snow"
"-115.14","67.82","KUGLUKTUK A","2300903","2023-02-11 05:00","2023","02","11","05:00","-29.8","","-33.1","","74","","","","3","","10","","6.4","","100.52","","","","-39","","Snow"
"-115.14","67.82","KUGLUKTUK A","2300903","2023-02-11 06:00","2023","02","11","06:00","-30.2","","-33.5","","73","","","","16","","3","","2.4","","100.44","","","","-34","","Snow"
"-115.14","67.82","KUGLUKTUK A","2300903","2023-02-11 07:00","2023","02","11","07:00","-29.7","","-33.0","","74","","","","11","","4","","2.4","","100.33","","","","-34","","Snow"
"-115.14","67.82","KUGLUKTUK A","2300903","2023-02-11 08:00","2023","02","11","08:00","-27.9","","-31.1","","75","","","","36","","3","","3.2","","100.27","","","","-31","","Snow"
"-115.14","67.82","KUGLUKTUK A","2300903","2023-02-11 09:00","2023","02","11","09:00","-26.9","","-30.0","","76","","","","2","","3","","6.4","","100.20","","","","-30","","Snow"
"-115.14","67.82","KUGLUKTUK A","2300903","2023-02-11 10:00","2023","02","11","10:00","-26.4","","-29.4","","76","","","","7","","4","","4.8","","100.16","","","","-31","","Snow"
"-115.14","67.82","KUGLUKTUK A","2300903","2023-02-11 11:00","2023","02","11","11:00","-26.1","","-29.1","","76","","","","3","","7","","3.2","","100.11","","","","-33","","Snow"
"-115.14","67.82","KUGLUKTUK A","2300903","2023-02-11 12:00","2023","02","11","12:00","-26.4","","-29.4","","76","","","","1","","16","","2.4","","100.11","","","","-37","","Snow"
"-115.14","67.82","KUGLUKTUK A","2300903","2023-02-11 13:00","2023","02","11","13:00","-26.6","","-29.7","","76","","","","34","","19","","8.1","","100.16","","","","-39","","Ice Crystals"
"-115.14","67.82","KUGLUKTUK A","2300903","2023-02-11 14:00","2023","02","11","14:00","-28.7","","-31.9","","74","","","","32","","12","","24.1","","100.15","","","","-39","","Mainly Clear"
"-115.14","67.82","KUGLUKTUK A","2300903","2023-02-11 15:00","2023","02","11","15:00","-29.8","","-33.0","","74","","","","26","","22","","24.1","","100.19","","","","-43","","NA"
"-115.14","67.82","KUGLUKTUK A","2300903","2023-02-11 16:00","2023","02","11","16:00","-29.0","","-32.2","","75","","","","25","","13","","24.1","","100.18","","","","-39","","NA"
"-115.14","67.82","KUGLUKTUK A","2300903","2023-02-11 17:00","2023","02","11","17:00","-29.5","","-32.8","","74","","","","24","","17","","24.1","","100.18","","","","-42","","Cloudy"
"-115.14","67.82","KUGLUKTUK A","2300903","2023-02-11 18:00","2023","02","11","18:00","-28.2","","-31.3","","75","","","","28","","14","","16.1","","100.20","","","","-39","","Ice Crystals"
"-115.14","67.82","KUGLUKTUK A","2300903","2023-02-11 19:00","2023","02","11","19:00","-27.7","","-30.8","","75","","","","28","","11","","16.1","","100.19","","","","-37","","Snow"
"-115.14","67.82","KUGLUKTUK A","2300903","2023-02-11 20:00","2023","02","11","20:00","-27.5","","-30.6","","75","","","","28","","10","","9.7","","100.21","","","","-36","","Snow"
"-115.14","67.82","KUGLUKTUK A","2300903","2023-02-11 21:00","2023","02","11","21:00","-27.2","","-30.3","","76","","","","32","","14","","9.7","","100.21","","","","-38","","Snow"
"-115.14","67.82","KUGLUKTUK A","2300903","2023-02-11 22:00","2023","02","11","22:00","-27.0","","-30.1","","76","","","","32","","16","","9.7","","100.22","","","","-38","","Snow"
"-115.14","67.82","KUGLUKTUK A","2300903","2023-02-11 23:00","2023","02","11","23:00","-27.4","","-30.5","","75","","","","34","","17","","9.7","","100.26","","","","-39","","Snow"
"-115.14","67.82","KUGLUKTUK A","2300903","2023-02-12 00:00","2023","02","12","00:00","-27.2","","-30.3","","76","","","","32","","11","","12.9","","100.27","","","","-36","","Snow"
"-115.14","67.82","KUGLUKTUK A","2300903","2023-02-12 01:00","2023","02","12","01:00","-27.2","","-30.3","","76","","","","30","","9","","9.7","","100.30","","","","-35","","Snow"
"-115.14","67.82","KUGLUKTUK A","2300903","2023-02-12 02:00","2023","02","12","02:00","-27.9","","-31.1","","75","","","","35","","18","","12.9","","100.31","","","","-40","","Snow"
"-115.14","67.82","KUGLUKTUK A","2300903","2023-02-12 03:00","2023","02","12","03:00","-28.8","","-32.1","","74","","","","35","","21","","12.9","","100.36","","","","-42","","Snow"
"-115.14","67.82","KUGLUKTUK A","2300903","2023-02-12 04:00","2023","02","12","04:00","-30.4","","-33.8","","73","","","","34","","10","","16.1","","100.41","","","","-40","","Snow"
"-115.14","67.82","KUGLUKTUK A","2300903","2023-02-12 05:00","2023","02","12","05:00","-29.8","","-33.1","","74","","","","35","","22","","16.1","","100.41","","","","-43","","Snow"
"-115.14","67.82","KUGLUKTUK A","2300903","2023-02-12 06:00","2023","02","12","06:00","-31.3","","-34.6","","73","","","","33","","6","","19.3","","100.48","","","","-38","","Snow"
"-115.14","67.82","KUGLUKTUK A","2300903","2023-02-12 07:00","2023","02","12","07:00","-30.8","","-34.0","","74","","","","29","","5","","19.3","","100.51","","","","-37","","Ice Crystals"
"-115.14","67.82","KUGLUKTUK A","2300903","2023-02-12 08:00","2023","02","12","08:00","-31.2","","-34.5","","73","","","","35","","7","","19.3","","100.52","","","","-39","","Ice Crystals"
"-115.14","67.82","KUGLUKTUK A","2300903","2023-02-12 09:00","2023","02","12","09:00","-31.3","","-34.7","","73","","","","26","","3","","24.1","","100.51","","","","-35","","Ice Crystals"
"-115.14","67.82","KUGLUKTUK A","2300903","2023-02-12 10:00","2023","02","12","10:00","-32.5","","-36.0","","72","","","","22","","13","","24.1","","100.52","","","","-44","","NA"
"-115.14","67.82","KUGLUKTUK A","2300903","2023-02-12 11:00","2023","02","12","11:00","-33.7","","-37.2","","72","","","","23","","19","","24.1","","100.54","","","","-47","","Clear"
"-115.14","67.82","KUGLUKTUK A","2300903","2023-02-12 12:00","2023","02","12","12:00","-33.5","","-37.0","","71","","","","23","","24","","24.1","","100.57","","","","-49","","Blowing Snow"
"-115.14","67.82","KUGLUKTUK A","2300903","2023-02-12 13:00","2023","02","12","13:00","-34.9","","-38.6","","70","","","","22","","18","","24.1","","100.58","","","","-49","","NA"
"-115.14","67.82","KUGLUKTUK A","2300903","2023-02-12 14:00","2023","02","12","14:00","-34.8","","-38.4","","70","","","","22","","21","","24.1","","100.58","","","","-49","","Clear"
"-115.14","67.82","KUGLUKTUK A","2300903","2023-02-12 15:00","2023","02","12","15:00","-35.2","","-38.8","","70","","","","22","","19","","24.1","","100.58","","","","-49","","NA"
"-115.14","67.82","KUGLUKTUK A","2300903","2023-02-12 16:00","2023","02","12","16:00","-36.0","","-39.7","","70","","","","21","","19","","24.1","","100.57","","","","-50","","NA"
"-115.14","67.82","KUGLUKTUK A","2300903","2023-02-12 17:00","2023","02","12","17:00","-36.9","","-40.7","","69","","","","22","","19","","24.1","","100.57","","","","-51","","Clear"
"-115.14","67.82","KUGLUKTUK A","2300903","2023-02-12 18:00","2023","02","12","18:00","-35.7","","-39.3","","70","","","","23","","27","","24.1","","100.55","","","","-52","","NA"
"-115.14","67.82","KUGLUKTUK A","2300903","2023-02-12 19:00","2023","02","12","19:00","-35.9","","-39.6","","70","","","","23","","28","","24.1","","100.53","","","","-53","","Blowing Snow"
"-115.14","67.82","KUGLUKTUK A","2300903","2023-02-12 20:00","2023","02","12","20:00","-35.5","","-39.2","","70","","","","24","","27","","19.3","","100.54","","","","-52","","Ice Crystals,Blowing Snow"
"-115.14","67.82","KUGLUKTUK A","2300903","2023-02-12 21:00","2023","02","12","21:00","-35.0","","-38.6","","70","","","","24","","29","","19.3","","100.52","","","","-52","","Ice Crystals,Blowing Snow"
"-115.14","67.82","KUGLUKTUK A","2300903","2023-02-12 22:00","2023","02","12","22:00","-35.8","","-39.5","","70","","","","22","","25","","19.3","","100.53","","","","-52","","Ice Crystals,Blowing Snow"
"-115.14","67.82","KUGLUKTUK A","2300903","2023-02-12 23:00","2023","02","12","23:00","-35.6","","-39.3","","70","","","","23","","27","","19.3","","100.53","","","","-52","","Ice Crystals,Blowing Snow"
"-115.14","67.82","KUGLUKTUK A","2300903","2023-02-13 00:00","2023","02","13","00:00","-36.0","","-39.7","","70","","","","23","","21","","19.3","","100.53","","","","-51","","Ice Crystals"
"-115.14","67.82","KUGLUKTUK A","2300903","2023-02-13 01:00","2023","02","13","01:00","-35.4","","-39.1","","70","","","","23","","24","","19.3","","100.53","","","","-51","","Ice Crystals"
"-115.14","67.82","KUGLUKTUK A","2300903","2023-02-13 02:00","2023","02","13","02:00","-34.9","","-38.5","","70","","","","23","","25","","19.3","","100.56","","","","-51","","Ice Crystals,Blowing Snow"
"-115.14","67.82","KUGLUKTUK A","2300903","2023-02-13 03:00","2023","02","13","03:00","-32.8","","-36.3","","72","","","","24","","30","","19.3","","100.55","","","","-49","","Ice Crystals,Blowing Snow"
"-115.14","67.82","KUGLUKTUK A","2300903","2023-02-13 04:00","2023","02","13","04:00","-34.5","","-38.1","","71","","","","23","","28","","19.3","","100.57","","","","-51","","Ice Crystals,Blowing Snow"
"-115.14","67.82","KUGLUKTUK A","2300903","2023-02-13 05:00","2023","02","13","05:00","-34.1","","-37.6","","71","","","","23","","27","","24.1","","100.58","","","","-50","","Ice Crystals,Blowing Snow"
"-115.14","67.82","KUGLUKTUK A","2300903","2023-02-13 06:00","2023","02","13","06:00","-33.9","","-37.5","","71","","","","22","","28","","24.1","","100.59","","","","-50","","Ice Crystals,Blowing Snow"
"-115.14","67.82","KUGLUKTUK A","2300903","2023-02-13 07:00","2023","02","13","07:00","-34.6","","-38.2","","71","","","","23","","26","","24.1","","100.59","","","","-51","","Ice Crystals,Blowing Snow"
"-115.14","67.82","KUGLUKTUK A","2300903","2023-02-13 08:00","2023","02","13","08:00","-32.2","","-35.7","","72","","","","24","","31","","24.1","","100.62","","","","-49","","Blowing Snow"
"-115.14","67.82","KUGLUKTUK A","2300903","2023-02-13 09:00","2023","02","13","09:00","-33.4","","-36.9","","71","","","","23","","24","","2.0","","100.65","","","","-49","","Fog,Blowing Snow"
"-115.14","67.82","KUGLUKTUK A","2300903","2023-02-13 10:00","2023","02","13","10:00","-32.4","","-35.8","","72","","","","23","","26","","2.0","","100.65","","","","-48","","Fog,Blowing Snow"
"-115.14","67.82","KUGLUKTUK A","2300903","2023-02-13 11:00","2023","02","13","11:00","-32.9","","-36.5","","71","","","","23","","26","","6.4","","100.65","","","","-48","","Fog,Blowing Snow"
"-115.14","67.82","KUGLUKTUK A","2300903","2023-02-13 12:00","2023","02","13","12:00","-32.0","","-35.5","","72","","","","22","","22","","8.1","","100.66","","","","-46","","Fog,Blowing Snow"
"-115.14","67.82","KUGLUKTUK A","2300903","2023-02-13 13:00","2023","02","13","13:00","-31.1","","-34.6","","72","","","","23","","23","","3.6","","100.69","","","","-45","","Fog,Blowing Snow"
"-115.14","67.82","KUGLUKTUK A","2300903","2023-02-13 14:00","2023","02","13","14:00","-30.4","","-33.9","","72","","","","25","","26","","12.9","","100.74","","","","-45","","Ice Crystals,Blowing Snow"
"-115.14","67.82","KUGLUKTUK A","2300903","2023-02-13 15:00","2023","02","13","15:00","-30.5","","-33.9","","73","","","","24","","27","","3.6","","100.78","","","","-46","","Ice Crystals,Blowing Snow"
"-115.14","67.82","KUGLUKTUK A","2300903","2023-02-13 16:00","2023","02","13","16:00","-28.6","","-32.0","","73","","","","26","","27","","2.4","","100.85","","","","-43","","Ice Crystals,Blowing Snow"
"-115.14","67.82","KUGLUKTUK A","2300903","2023-02-13 17:00","2023","02","13","17:00","-28.5","","-31.9","","73","","","","26","","30","","2.8","","100.88","","","","-44","","Ice Crystals,Blowing Snow"
"-115.14","67.82","KUGLUKTUK A","2300903","2023-02-13 18:00","2023","02","13","18:00","-29.3","","-32.6","","73","","","","26","","32","","2.4","","100.91","","","","-45","","Ice Crystals,Blowing Snow"
"-115.14","67.82","KUGLUKTUK A","2300903","2023-02-13 19:00","2023","02","13","19:00","-28.2","","-31.5","","74","","","","25","","28","","1.6","","100.93","","","","-43","","Ice Crystals,Blowing Snow"
"-115.14","67.82","KUGLUKTUK A","2300903","2023-02-13 20:00","2023","02","13","20:00","-28.0","","-31.7","","71","","","","26","","26","","12.9","","100.97","","","","-42","","Snow,Blowing Snow"
"-115.14","67.82","KUGLUKTUK A","2300903","2023-02-13 21:00","2023","02","13","21:00","-27.9","","-31.6","","71","","","","28","","23","","4.8","","101.02","","","","-41","","Snow,Blowing Snow"
"-115.14","67.82","KUGLUKTUK A","2300903","2023-02-13 22:00","2023","02","13","22:00","-28.1","","-31.4","","74","","","","27","","27","","1.6","","101.06","","","","-42","","Snow Grains,Fog"
"-115.14","67.82","KUGLUKTUK A","2300903","2023-02-13 23:00","2023","02","13","23:00","-27.6","","-31.3","","72","","","","28","","27","","2.0","","101.10","","","","-42","","Snow,Fog,Blowing Snow"
"-115.14","67.82","KUGLUKTUK A","2300903","2023-02-14 00:00","2023","02","14","00:00","-27.2","","-30.9","","72","","","","29","","27","","2.0","","101.19","","","","-41","","Snow,Fog,Blowing Snow"
"-115.14","67.82","KUGLUKTUK A","2300903","2023-02-14 01:00","2023","02","14","01:00","-27.2","","-31.2","","69","","","","31","","30","","4.8","","101.23","","","","-42","","Snow,Fog,Blowing Snow"
"-115.14","67.82","KUGLUKTUK A","2300903","2023-02-14 02:00","2023","02","14","02:00","-27.9","","-32.0","","68","","","","31","","27","","16.1","","101.32","","","","-42","","Snow,Blowing Snow"
"-115.14","67.82","KUGLUKTUK A","2300903","2023-02-14 03:00","2023","02","14","03:00","-27.7","","-31.8","","69","","","","33","","28","","12.9","","101.38","","","","-42","","Snow,Blowing Snow"
"-115.14","67.82","KUGLUKTUK A","2300903","2023-02-14 04:00","2023","02","14","04:00","-28.7","","-33.1","","67","","","","34","","17","","12.9","","101.47","","","","-41","","Snow"
"-115.14","67.82","KUGLUKTUK A","2300903","2023-02-14 05:00","2023","02","14","05:00","-29.4","","-33.2","","70","","","","33","","10","","4.8","","101.52","","","","-38","","Ice Crystals,Fog"
"-115.14","67.82","KUGLUKTUK A","2300903","2023-02-14 06:00","2023","02","14","06:00","-30.2","","-33.5","","73","","","","28","","10","","16.1","","101.57","","","","-39","","Ice Crystals"
"-115.14","67.82","KUGLUKTUK A","2300903","2023-02-14 07:00","2023","02","14","07:00","-30.1","","-33.2","","75","","","","26","","21","","12.9","","101.59","","","","-44","","Ice Crystals,Fog"
"-115.14","67.82","KUGLUKTUK A","2300903","2023-02-14 08:00","2023","02","14","08:00","-29.4","","-32.7","","74","","","","27","","28","","12.9","","101.60","","","","-44","","Ice Crystals,Blowing Snow"
"-115.14","67.82","KUGLUKTUK A","2300903","2023-02-14 09:00","2023","02","14","09:00","-30.3","","-33.6","","73","","","","27","","27","","12.9","","101.64","","","","-45","","Ice Crystals,Blowing Snow"
"-115.14","67.82","KUGLUKTUK A","2300903","2023-02-14 10:00","2023","02","14","10:00","-30.3","","-33.7","","73","","","","28","","21","","12.9","","101.72","","","","-44","","Ice Crystals,Blowing Snow"
"-115.14","67.82","KUGLUKTUK A","2300903","2023-02-14 11:00","2023","02","14","11:00","-30.7","","-34.4","","71","","","","31","","13","","12.9","","101.77","","","","-41","","Ice Crystals"
"-115.14","67.82","KUGLUKTUK A","2300903","2023-02-14 12:00","2023","02","14","12:00","-29.8","","-33.5","","71","","","","30","","10","","12.9","","101.82","","","","-39","","Ice Crystals"
"-115.14","67.82","KUGLUKTUK A","2300903","2023-02-14 13:00","2023","02","14","13:00","-31.0","","-34.5","","72","","","","21","","9","","16.1","","101.88","","","","-40","","Ice Crystals"
"-115.14","67.82","KUGLUKTUK A","2300903","2023-02-14 14:00","2023","02","14","14:00","-30.6","","-34.5","","70","","","","27","","14","","16.1","","101.94","","","","-42","","Ice Crystals"
"-115.14","67.82","KUGLUKTUK A","2300903","2023-02-14 15:00","2023","02","14","15:00","-30.8","","-34.8","","69","","","","27","","19","","16.1","","101.99","","","","-44","","Ice Crystals"
"-115.14","67.82","KUGLUKTUK A","2300903","2023-02-14 16:00","2023","02","14","16:00","-31.2","","-35.2","","69","","","","26","","26","","12.9","","102.05","","","","-46","","Ice Crystals,Blowing Snow"
"-115.14","67.82","KUGLUKTUK A","2300903","2023-02-14 17:00","2023","02","14","17:00","-30.9","","-34.4","","72","","","","26","","27","","12.9","","102.10","","","","-46","","Ice Crystals,Blowing Snow"
"-115.14","67.82","KUGLUKTUK A","2300903","2023-02-14 18:00","2023","02","14","18:00","-31.2","","-34.7","","72","","","","26","","26","","12.9","","102.10","","","","-46","","Ice Crystals,Blowing Snow"
"-115.14","67.82","KUGLUKTUK A","2300903","2023-02-14 19:00","2023","02","14","19:00","-31.5","","-35.1","","71","","","","26","","30","","12.9","","102.11","","","","-48","","Ice Crystals,Blowing Snow"
"-115.14","67.82","KUGLUKTUK A","2300903","2023-02-14 20:00","2023","02","14","20:00","-31.5","","-35.1","","71","","","","26","","28","","12.9","","102.13","","","","-47","","Ice Crystals,Blowing Snow"
"-115.14","67.82","KUGLUKTUK A","2300903","2023-02-14 21:00","2023","02","14","21:00","-30.2","","-33.7","","72","","","","26","","31","","2.0","","102.12","","","","-46","","Snow,Blowing Snow"
"-115.14","67.82","KUGLUKTUK A","2300903","2023-02-14 22:00","2023","02","14","22:00","-30.1","","-33.6","","72","","","","26","","30","","2.0","","102.13","","","","-46","","Snow,Blowing Snow"
"-115.14","67.82","KUGLUKTUK A","2300903","2023-02-14 23:00","2023","02","14","23:00","-29.9","","-33.3","","73","","","","26","","31","","2.0","","102.14","","","","-46","","Snow,Blowing Snow"
"-115.14","67.82","KUGLUKTUK A","2300903","2023-02-15 00:00","2023","02","15","00:00","-29.4","","-32.9","","73","","","","26","","27","","1.6","","102.14","","","","-44","","Snow,Blowing Snow"
"-115.14","67.82","KUGLUKTUK A","2300903","2023-02-15 01:00","2023","02","15","01:00","-29.7","","-33.1","","73","","","","26","","33","","2.0","","102.15","","","","-46","","Snow,Blowing Snow"
"-115.14","67.82","KUGLUKTUK A","2300903","2023-02-15 02:00","2023","02","15","02:00","-30.2","","-33.8","","72","","","","26","","31","","2.4","","102.17","","","","-46","","Snow Grains,Fog,Blowing Snow"
"-115.14","67.82","KUGLUKTUK A","2300903","2023-02-15 03:00","2023","02","15","03:00","-30.9","","-34.4","","72","","","","27","","27","","9.7","","102.19","","","","-46","","Ice Crystals,Blowing Snow"
"-115.14","67.82","KUGLUKTUK A","2300903","2023-02-15 04:00","2023","02","15","04:00","-30.7","","-34.2","","72","","","","26","","27","","12.9","","102.21","","","","-46","","Ice Crystals,Blowing Snow"
"-115.14","67.82","KUGLUKTUK A","2300903","2023-02-15 05:00","2023","02","15","05:00","-32.1","","-35.6","","72","","","","25","","28","","16.1","","102.19","","","","-48","","Ice Crystals,Blowing Snow"
"-115.14","67.82","KUGLUKTUK A","2300903","2023-02-15 06:00","2023","02","15","06:00","-30.8","","-34.2","","72","","","","26","","28","","4.8","","102.20","","","","-46","","Ice Crystals,Blowing Snow"
"-115.14","67.82","KUGLUKTUK A","2300903","2023-02-15 07:00","2023","02","15","07:00","-31.4","","-34.9","","72","","","","25","","25","","19.3","","102.21","","","","-46","","Ice Crystals,Blowing Snow"
"-115.14","67.82","KUGLUKTUK A","2300903","2023-02-15 08:00","2023","02","15","08:00","-33.7","","-37.2","","71","","","","24","","26","","16.1","","102.21","","","","-49","","Ice Crystals,Blowing Snow"
"-115.14","67.82","KUGLUKTUK A","2300903","2023-02-15 09:00","2023","02","15","09:00","-33.1","","-36.7","","71","","","","24","","28","","9.7","","102.21","","","","-49","","Ice Crystals,Blowing Snow"
"-115.14","67.82","KUGLUKTUK A","2300903","2023-02-15 10:00","2023","02","15","10:00","-31.7","","-35.2","","72","","","","24","","26","","16.1","","102.21","","","","-47","","Ice Crystals,Blowing Snow"
"-115.14","67.82","KUGLUKTUK A","2300903","2023-02-15 11:00","2023","02","15","11:00","-30.8","","-34.4","","71","","","","26","","32","","19.3","","102.21","","","","-47","","Ice Crystals,Blowing Snow"
"-115.14","67.82","KUGLUKTUK A","2300903","2023-02-15 12:00","2023","02","15","12:00","-31.5","","-35.3","","70","","","","26","","31","","24.1","","102.21","","","","-48","","Ice Crystals,Blowing Snow"
"-115.14","67.82","KUGLUKTUK A","2300903","2023-02-15 13:00","2023","02","15","13:00","-31.5","","-35.4","","70","","","","26","","29","","24.1","","102.20","","","","-47","","Ice Crystals,Blowing Snow"
"-115.14","67.82","KUGLUKTUK A","2300903","2023-02-15 14:00","2023","02","15","14:00","-31.4","","-35.2","","70","","","","26","","27","","24.1","","102.21","","","","-47","","Ice Crystals,Blowing Snow"
"-115.14","67.82","KUGLUKTUK A","2300903","2023-02-15 15:00","2023","02","15","15:00","-33.0","","-36.9","","69","","","","23","","22","","24.1","","102.22","","","","-47","","Ice Crystals,Blowing Snow"
"-115.14","67.82","KUGLUKTUK A","2300903","2023-02-15 16:00","2023","02","15","16:00","-33.5","","-37.4","","69","","","","22","","20","","24.1","","102.23","","","","-48","","Ice Crystals"
"-115.14","67.82","KUGLUKTUK A","2300903","2023-02-15 17:00","2023","02","15","17:00","-34.0","","-37.7","","70","","","","24","","22","","24.1","","102.20","","","","-49","","Ice Crystals"
"-115.14","67.82","KUGLUKTUK A","2300903","2023-02-15 18:00","2023","02","15","18:00","-34.5","","-38.3","","69","","","","23","","22","","24.1","","102.16","","","","-49","","Ice Crystals,Blowing Snow"
"-115.14","67.82","KUGLUKTUK A","2300903","2023-02-15 19:00","2023","02","15","19:00","-33.6","","-37.2","","71","","","","24","","25","","24.1","","102.10","","","","-49","","Ice Crystals,Blowing Snow"
"-115.14","67.82","KUGLUKTUK A","2300903","2023-02-15 20:00","2023","02","15","20:00","-33.9","","-37.5","","71","","","","24","","26","","24.1","","102.05","","","","-50","","Ice Crystals,Blowing Snow"
"-115.14","67.82","KUGLUKTUK A","2300903","2023-02-15 21:00","2023","02","15","21:00","-33.8","","-37.3","","71","","","","25","","22","","24.1","","101.99","","","","-49","","Ice Crystals,Blowing Snow"
"-115.14","67.82","KUGLUKTUK A","2300903","2023-02-15 22:00","2023","02","15","22:00","-32.9","","-36.5","","71","","","","25","","22","","24.1","","101.96","","","","-47","","Ice Crystals"
"-115.14","67.82","KUGLUKTUK A","2300903","2023-02-15 23:00","2023","02","15","23:00","-35.5","","-39.3","","69","","","","22","","23","","24.1","","101.96","","","","-51","","Ice Crystals"
"-115.14","67.82","KUGLUKTUK A","2300903","2023-02-16 00:00","2023","02","16","00:00","-34.5","","-38.1","","70","","","","23","","26","","24.1","","101.91","","","","-51","","Ice Crystals,Blowing Snow"
"-115.14","67.82","KUGLUKTUK A","2300903","2023-02-16 01:00","2023","02","16","01:00","-36.1","","-39.8","","69","","","","23","","26","","19.3","","101.86","","","","-53","","Ice Crystals,Blowing Snow"
"-115.14","67.82","KUGLUKTUK A","2300903","2023-02-16 02:00","2023","02","16","02:00","-34.4","","-38.0","","71","","","","24","","28","","24.1","","101.82","","","","-51","","Ice Crystals,Blowing Snow"
"-115.14","67.82","KUGLUKTUK A","2300903","2023-02-16 03:00","2023","02","16","03:00","-35.0","","-38.7","","70","","","","23","","28","","24.1","","101.79","","","","-52","","Ice Crystals,Blowing Snow"
"-115.14","67.82","KUGLUKTUK A","2300903","2023-02-16 04:00","2023","02","16","04:00","-34.2","","-37.9","","70","","","","24","","31","","24.1","","101.76","","","","-51","","Ice Crystals,Blowing Snow"
"-115.14","67.82","KUGLUKTUK A","2300903","2023-02-16 05:00","2023","02","16","05:00","-35.6","","-39.3","","70","","","","22","","27","","24.1","","101.74","","","","-52","","Ice Crystals,Blowing Snow"
"-115.14","67.82","KUGLUKTUK A","2300903","2023-02-16 06:00","2023","02","16","06:00","-34.6","","-38.2","","70","","","","25","","35","","24.1","","101.69","","","","-53","","Ice Crystals,Blowing Snow"
"-115.14","67.82","KUGLUKTUK A","2300903","2023-02-16 07:00","2023","02","16","07:00","-36.9","","-40.7","","69","","","","23","","23","","19.3","","101.68","","","","-53","","Ice Crystals,Blowing Snow"
"-115.14","67.82","KUGLUKTUK A","2300903","2023-02-16 08:00","2023","02","16","08:00","-35.5","","-39.2","","70","","","","24","","23","","9.7","","101.65","","","","-51","","Ice Crystals,Blowing Snow"
"-115.14","67.82","KUGLUKTUK A","2300903","2023-02-16 09:00","2023","02","16","09:00","-32.6","","-36.2","","71","","","","26","","32","","8.1","","101.61","","","","-49","","Ice Crystals,Blowing Snow"
"-115.14","67.82","KUGLUKTUK A","2300903","2023-02-16 10:00","2023","02","16","10:00","-32.1","","-35.8","","70","","","","26","","31","","6.4","","101.57","","","","-49","","Ice Crystals,Blowing Snow"
"-115.14","67.82","KUGLUKTUK A","2300903","2023-02-16 11:00","2023","02","16","11:00","-31.5","","-35.1","","71","","","","25","","29","","2.0","","101.57","","","","-47","","Snow,Blowing Snow"
"-115.14","67.82","KUGLUKTUK A","2300903","2023-02-16 12:00","2023","02","16","12:00","-32.1","","-35.8","","71","","","","24","","26","","1.6","","101.57","","","","-47","","Ice Crystals,Blowing Snow"
"-115.14","67.82","KUGLUKTUK A","2300903","2023-02-16 13:00","2023","02","16","13:00","-31.5","","-35.1","","71","","","","25","","32","","1.6","","101.50","","","","-48","","Ice Crystals,Blowing Snow"
"-115.14","67.82","KUGLUKTUK A","2300903","2023-02-16 14:00","2023","02","16","14:00","-30.7","","-34.3","","72","","","","27","","30","","1.0","","101.54","","","","-47","","Ice Crystals,Blowing Snow"
"-115.14","67.82","KUGLUKTUK A","2300903","2023-02-16 15:00","2023","02","16","15:00","-30.3","","-33.9","","72","","","","28","","25","","1.0","","101.55","","","","-45","","Ice Crystals,Blowing Snow"
"-115.14","67.82","KUGLUKTUK A","2300903","2023-02-16 16:00","2023","02","16","16:00","-29.9","","-33.4","","72","","","","29","","22","","1.2","","101.62","","","","-44","","Ice Crystals,Blowing Snow"
"-115.14","67.82","KUGLUKTUK A","2300903","2023-02-16 17:00","2023","02","16","17:00","-31.3","","-34.8","","72","","","","27","","21","","1.2","","101.64","","","","-45","","Ice Crystals,Blowing Snow"
"-115.14","67.82","KUGLUKTUK A","2300903","2023-02-16 18:00","2023","02","16","18:00","-32.5","","-36.0","","71","","","","26","","23","","3.2","","101.67","","","","-47","","Ice Crystals,Blowing Snow"
"-115.14","67.82","KUGLUKTUK A","2300903","2023-02-16 19:00","2023","02","16","19:00","-32.8","","-36.4","","71","","","","26","","23","","3.2","","101.68","","","","-48","","Ice Crystals,Blowing Snow"
"-115.14","67.82","KUGLUKTUK A","2300903","2023-02-16 20:00","2023","02","16","20:00","-33.1","","-36.7","","71","","","","26","","25","","24.1","","101.68","","","","-48","","Ice Crystals,Blowing Snow"
"-115.14","67.82","KUGLUKTUK A","2300903","2023-02-16 21:00","2023","02","16","21:00","-33.2","","-36.8","","71","","","","26","","27","","24.1","","101.68","","","","-49","","Ice Crystals,Blowing Snow"
"-115.14","67.82","KUGLUKTUK A","2300903","2023-02-16 22:00","2023","02","16","22:00","-33.6","","-37.3","","71","","","","26","","24","","24.1","","101.69","","","","-49","","Ice Crystals"
"-115.14","67.82","KUGLUKTUK A","2300903","2023-02-16 23:00","2023","02","16","23:00","-34.0","","-37.6","","70","","","","26","","25","","24.1","","101.69","","","","-50","","Clear"
"-115.14","67.82","KUGLUKTUK A","2300903","2023-02-17 00:00","2023","02","17","00:00","-34.1","","-37.8","","70","","","","27","","27","","24.1","","101.69","","","","-50","","NA"
"-115.14","67.82","KUGLUKTUK A","2300903","2023-02-17 01:00","2023","02","17","01:00","-34.9","","-38.6","","70","","","","26","","24","","19.3","","101.70","","","","-50","","Ice Crystals"
"-115.14","67.82","KUGLUKTUK A","2300903","2023-02-17 02:00","2023","02","17","02:00","-34.5","","-38.2","","70","","","","26","","25","","16.1","","101.71","","","","-50","","Ice Crystals"
"-115.14","67.82","KUGLUKTUK A","2300903","2023-02-17 03:00","2023","02","17","03:00","-36.4","","-40.3","","68","","","","24","","23","","24.1","","101.72","","","","-52","","Ice Crystals"
"-115.14","67.82","KUGLUKTUK A","2300903","2023-02-17 04:00","2023","02","17","04:00","-34.8","","-38.5","","70","","","","24","","26","","2.4","","101.68","","","","-51","","Ice Crystals"
"-115.14","67.82","KUGLUKTUK A","2300903","2023-02-17 05:00","2023","02","17","05:00","-33.6","","-37.3","","70","","","","26","","34","","2.4","","101.64","","","","-51","","Ice Crystals,Blowing Snow"
"-115.14","67.82","KUGLUKTUK A","2300903","2023-02-17 06:00","2023","02","17","06:00","-32.5","","-36.2","","70","","","","25","","30","","3.2","","101.62","","","","-49","","Ice Crystals,Blowing Snow"
"-115.14","67.82","KUGLUKTUK A","2300903","2023-02-17 07:00","2023","02","17","07:00","-32.8","","-36.5","","70","","","","25","","24","","12.9","","101.60","","","","-48","","Ice Crystals,Blowing Snow"
"-115.14","67.82","KUGLUKTUK A","2300903","2023-02-17 08:00","2023","02","17","08:00","-32.0","","-35.7","","71","","","","25","","28","","3.2","","101.55","","","","-48","","Ice Crystals,Blowing Snow"
"-115.14","67.82","KUGLUKTUK A","2300903","2023-02-17 09:00","2023","02","17","09:00","-31.9","","-35.5","","71","","","","26","","30","","1.0","","101.53","","","","-48","","Ice Crystals,Blowing Snow"
"-115.14","67.82","KUGLUKTUK A","2300903","2023-02-17 10:00","2023","02","17","10:00","-32.7","","-36.5","","70","","","","24","","22","","2.4","","101.53","","","","-47","","Ice Crystals,Blowing Snow"
"-115.14","67.82","KUGLUKTUK A","2300903","2023-02-17 11:00","2023","02","17","11:00","-33.1","","-36.9","","70","","","","24","","26","","8.1","","101.50","","","","-49","","Ice Crystals,Blowing Snow"
"-115.14","67.82","KUGLUKTUK A","2300903","2023-02-17 12:00","2023","02","17","12:00","-32.9","","-36.8","","69","","","","24","","23","","8.1","","101.50","","","","-48","","Ice Crystals,Blowing Snow"
"-115.14","67.82","KUGLUKTUK A","2300903","2023-02-17 13:00","2023","02","17","13:00","-32.3","","-36.1","","70","","","","26","","27","","8.1","","101.49","","","","-48","","Ice Crystals,Blowing Snow"
"-115.14","67.82","KUGLUKTUK A","2300903","2023-02-17 14:00","2023","02","17","14:00","-32.8","","-36.7","","69","","","","23","","23","","12.9","","101.49","","","","-48","","Ice Crystals,Blowing Snow"
"-115.14","67.82","KUGLUKTUK A","2300903","2023-02-17 15:00","2023","02","17","15:00","-31.8","","-35.6","","70","","","","24","","23","","12.9","","101.47","","","","-46","","Ice Crystals,Blowing Snow"
"-115.14","67.82","KUGLUKTUK A","2300903","2023-02-17 16:00","2023","02","17","16:00","-31.3","","-35.1","","70","","","","26","","32","","12.9","","101.47","","","","-48","","Ice Crystals,Blowing Snow"
"-115.14","67.82","KUGLUKTUK A","2300903","2023-02-17 17:00","2023","02","17","17:00","-30.7","","-34.5","","70","","","","26","","36","","24.1","","101.47","","","","-48","","Ice Crystals,Blowing Snow"
"-115.14","67.82","KUGLUKTUK A","2300903","2023-02-17 18:00","2023","02","17","18:00","-31.9","","-35.6","","70","","","","26","","30","","24.1","","101.46","","","","-48","","Ice Crystals,Blowing Snow"
"-115.14","67.82","KUGLUKTUK A","2300903","2023-02-17 19:00","2023","02","17","19:00","-33.2","","-36.8","","71","","","","26","","25","","24.1","","101.49","","","","-49","","Ice Crystals,Blowing Snow"
"-115.14","67.82","KUGLUKTUK A","2300903","2023-02-17 20:00","2023","02","17","20:00","-32.9","","-36.3","","72","","","","26","","22","","24.1","","101.48","","","","-47","","Ice Crystals,Blowing Snow"
"-115.14","67.82","KUGLUKTUK A","2300903","2023-02-17 21:00","2023","02","17","21:00","-32.5","","-36.1","","71","","","","27","","22","","9.7","","101.50","","","","-47","","Ice Crystals,Blowing Snow"
"-115.14","67.82","KUGLUKTUK A","2300903","2023-02-17 22:00","2023","02","17","22:00","-33.7","","-37.3","","71","","","","24","","18","","6.4","","101.49","","","","-47","","Ice Crystals,Blowing Snow"
"-115.14","67.82","KUGLUKTUK A","2300903","2023-02-17 23:00","2023","02","17","23:00","-33.0","","-36.6","","70","","","","26","","25","","12.9","","101.51","","","","-48","","Ice Crystals,Blowing Snow"
"-115.14","67.82","KUGLUKTUK A","2300903","2023-02-18 00:00","2023","02","18","00:00","-32.9","","-36.6","","71","","","","26","","26","","24.1","","101.55","","","","-48","","Ice Crystals,Blowing Snow"
"-115.14","67.82","KUGLUKTUK A","2300903","2023-02-18 01:00","2023","02","18","01:00","-36.3","","-40.1","","69","","","","23","","18","","24.1","","101.56","","","","-50","","Ice Crystals"
"-115.14","67.82","KUGLUKTUK A","2300903","2023-02-18 02:00","2023","02","18","02:00","-34.0","","-37.7","","70","","","","27","","27","","24.1","","101.58","","","","-50","","Ice Crystals"
"-115.14","67.82","KUGLUKTUK A","2300903","2023-02-18 03:00","2023","02","18","03:00","-34.3","","-37.9","","70","","","","26","","23","","24.1","","101.62","","","","-49","","NA"
"-115.14","67.82","KUGLUKTUK A","2300903","2023-02-18 04:00","2023","02","18","04:00","-35.1","","-38.7","","71","","","","25","","21","","24.1","","101.60","","","","-50","","NA"
"-115.14","67.82","KUGLUKTUK A","2300903","2023-02-18 05:00","2023","02","18","05:00","-34.7","","-38.3","","71","","","","26","","24","","24.1","","101.62","","","","-50","","Ice Crystals"
"-115.14","67.82","KUGLUKTUK A","2300903","2023-02-18 06:00","2023","02","18","06:00","-35.7","","-39.4","","70","","","","25","","22","","24.1","","101.60","","","","-51","","NA"
"-115.14","67.82","KUGLUKTUK A","2300903","2023-02-18 07:00","2023","02","18","07:00","-37.0","","-40.8","","69","","","","22","","19","","24.1","","101.61","","","","-52","","Ice Crystals"
"-115.14","67.82","KUGLUKTUK A","2300903","2023-02-18 08:00","2023","02","18","08:00","-36.6","","-40.4","","69","","","","23","","18","","24.1","","101.62","","","","-51","","Ice Crystals"
"-115.14","67.82","KUGLUKTUK A","2300903","2023-02-18 09:00","2023","02","18","09:00","-37.0","","-40.7","","69","","","","23","","19","","24.1","","101.61","","","","-52","","Ice Crystals"
"-115.14","67.82","KUGLUKTUK A","2300903","2023-02-18 10:00","2023","02","18","10:00","-35.0","","-38.7","","70","","","","24","","26","","19.3","","101.59","","","","-51","","Ice Crystals,Blowing Snow"
"-115.14","67.82","KUGLUKTUK A","2300903","2023-02-18 11:00","2023","02","18","11:00","-34.2","","-37.8","","71","","","","24","","23","","19.3","","101.55","","","","-49","","Ice Crystals,Blowing Snow"
"-115.14","67.82","KUGLUKTUK A","2300903","2023-02-18 12:00","2023","02","18","12:00","-34.2","","-38.0","","69","","","","24","","23","","24.1","","101.54","","","","-49","","Ice Crystals"
"-115.14","67.82","KUGLUKTUK A","2300903","2023-02-18 13:00","2023","02","18","13:00","-33.5","","-37.2","","70","","","","24","","22","","24.1","","101.50","","","","-48","","Ice Crystals,Blowing Snow"
"-115.14","67.82","KUGLUKTUK A","2300903","2023-02-18 14:00","2023","02","18","14:00","-32.7","","-36.4","","70","","","","24","","22","","19.3","","101.47","","","","-47","","Ice Crystals,Blowing Snow"
"-115.14","67.82","KUGLUKTUK A","2300903","2023-02-18 15:00","2023","02","18","15:00","-32.3","","-35.9","","71","","","","23","","23","","19.3","","101.47","","","","-47","","Ice Crystals,Blowing Snow"
"-115.14","67.82","KUGLUKTUK A","2300903","2023-02-18 16:00","2023","02","18","16:00","-33.7","","-37.3","","71","","","","23","","27","","16.1","","101.44","","","","-50","","Ice Crystals,Blowing Snow"
"-115.14","67.82","KUGLUKTUK A","2300903","2023-02-18 17:00","2023","02","18","17:00","-34.5","","-38.1","","71","","","","24","","26","","19.3","","101.42","","","","-51","","Ice Crystals,Blowing Snow"
"-115.14","67.82","KUGLUKTUK A","2300903","2023-02-18 18:00","2023","02","18","18:00","-34.9","","-38.6","","70","","","","23","","26","","19.3","","101.37","","","","-51","","Ice Crystals,Blowing Snow"
"-115.14","67.82","KUGLUKTUK A","2300903","2023-02-18 19:00","2023","02","18","19:00","-34.6","","-38.1","","71","","","","24","","23","","19.3","","101.31","","","","-50","","Ice Crystals,Blowing Snow"
"-115.14","67.82","KUGLUKTUK A","2300903","2023-02-18 20:00","2023","02","18","20:00","-34.0","","-37.8","","69","","","","25","","30","","24.1","","101.26","","","","-51","","Blowing Snow"
"-115.14","67.82","KUGLUKTUK A","2300903","2023-02-18 21:00","2023","02","18","21:00","-34.5","","-38.6","","67","","","","24","","30","","24.1","","101.25","","","","-51","","Blowing Snow"
"-115.14","67.82","KUGLUKTUK A","2300903","2023-02-18 22:00","2023","02","18","22:00","-34.7","","-38.6","","69","","","","23","","26","","24.1","","101.24","","","","-51","","NA"
"-115.14","67.82","KUGLUKTUK A","2300903","2023-02-18 23:00","2023","02","18","23:00","-35.5","","-39.2","","69","","","","24","","31","","24.1","","101.21","","","","-53","","Clear"
"-115.14","67.82","KUGLUKTUK A","2300903","2023-02-19 00:00","2023","02","19","00:00","-36.2","","-40.0","","68","","","","23","","25","","24.1","","101.18","","","","-52","","Ice Crystals"
"-115.14","67.82","KUGLUKTUK A","2300903","2023-02-19 01:00","2023","02","19","01:00","-35.9","","-39.8","","69","","","","22","","24","","24.1","","101.16","","","","-52","","Ice Crystals"
"-115.14","67.82","KUGLUKTUK A","2300903","2023-02-19 02:00","2023","02","19","02:00","-35.0","","-39.0","","68","","","","24","","32","","24.1","","101.15","","","","-53","","Clear"
"-115.14","67.82","KUGLUKTUK A","2300903","2023-02-19 03:00","2023","02","19","03:00","-34.5","","-38.5","","68","","","","24","","31","","24.1","","101.13","","","","-52","","NA"
"-115.14","67.82","KUGLUKTUK A","2300903","2023-02-19 04:00","2023","02","19","04:00","-34.4","","-38.2","","69","","","","25","","27","","16.1","","101.13","","","","-51","","Ice Crystals,Blowing Snow"
"-115.14","67.82","KUGLUKTUK A","2300903","2023-02-19 05:00","2023","02","19","05:00","-32.3","","-36.0","","71","","","","26","","34","","6.4","","101.09","","","","-49","","Ice Crystals,Blowing Snow"
"-115.14","67.82","KUGLUKTUK A","2300903","2023-02-19 06:00","2023","02","19","06:00","-31.2","","-34.8","","71","","","","25","","33","","9.7","","101.10","","","","-48","","Ice Crystals,Blowing Snow"
"-115.14","67.82","KUGLUKTUK A","2300903","2023-02-19 07:00","2023","02","19","07:00","-31.4","","-35.2","","70","","","","25","","37","","4.8","","101.04","","","","-49","","Ice Crystals,Blowing Snow"
"-115.14","67.82","KUGLUKTUK A","2300903","2023-02-19 08:00","2023","02","19","08:00","-32.4","","-36.5","","68","","","","24","","38","","12.9","","101.02","","","","-50","","Ice Crystals,Blowing Snow"
"-115.14","67.82","KUGLUKTUK A","2300903","2023-02-19 09:00","2023","02","19","09:00","-33.2","","-37.2","","69","","","","24","","33","","1.6","","101.02","","","","-50","","Ice Crystals,Blowing Snow"
"-115.14","67.82","KUGLUKTUK A","2300903","2023-02-19 10:00","2023","02","19","10:00","-32.8","","-36.5","","70","","","","24","","31","","1.6","","101.03","","","","-49","","Ice Crystals,Blowing Snow"
"-115.14","67.82","KUGLUKTUK A","2300903","2023-02-19 11:00","2023","02","19","11:00","-31.8","","-35.6","","70","","","","25","","30","","1.6","","101.06","","","","-48","","Ice Crystals,Blowing Snow"
"-115.14","67.82","KUGLUKTUK A","2300903","2023-02-19 12:00","2023","02","19","12:00","-30.2","","-33.9","","71","","","","26","","22","","1.6","","101.08","","","","-44","","Ice Crystals,Blowing Snow"
"-115.14","67.82","KUGLUKTUK A","2300903","2023-02-19 13:00","2023","02","19","13:00","-30.0","","-33.8","","71","","","","26","","26","","1.6","","101.09","","","","-45","","Ice Crystals,Blowing Snow"
"-115.14","67.82","KUGLUKTUK A","2300903","2023-02-19 14:00","2023","02","19","14:00","-30.2","","-34.2","","69","","","","26","","25","","12.9","","101.13","","","","-45","","Ice Crystals,Blowing Snow"
"-115.14","67.82","KUGLUKTUK A","2300903","2023-02-19 15:00","2023","02","19","15:00","-30.1","","-34.0","","69","","","","27","","24","","19.3","","101.13","","","","-44","","Ice Crystals,Blowing Snow"
"-115.14","67.82","KUGLUKTUK A","2300903","2023-02-19 16:00","2023","02","19","16:00","-30.2","","-33.8","","71","","","","27","","25","","16.1","","101.20","","","","-45","","Ice Crystals,Blowing Snow"
"-115.14","67.82","KUGLUKTUK A","2300903","2023-02-19 17:00","2023","02","19","17:00","-30.1","","-33.9","","71","","","","28","","14","","2.4","","101.28","","","","-41","","Ice Crystals"
"-115.14","67.82","KUGLUKTUK A","2300903","2023-02-19 18:00","2023","02","19","18:00","-30.2","","-33.8","","71","","","","28","","16","","2.4","","101.31","","","","-42","","Ice Crystals"
"-115.14","67.82","KUGLUKTUK A","2300903","2023-02-19 19:00","2023","02","19","19:00","-30.0","","-33.5","","73","","","","29","","9","","1.6","","101.40","","","","-39","","Ice Crystals"
"-115.14","67.82","KUGLUKTUK A","2300903","2023-02-19 20:00","2023","02","19","20:00","-29.6","","-33.1","","73","","","","31","","25","","4.8","","101.46","","","","-44","","Ice Crystals,Blowing Snow"
"-115.14","67.82","KUGLUKTUK A","2300903","2023-02-19 21:00","2023","02","19","21:00","-29.9","","-33.3","","73","","","","30","","20","","3.2","","101.54","","","","-43","","Ice Crystals"
"-115.14","67.82","KUGLUKTUK A","2300903","2023-02-19 22:00","2023","02","19","22:00","-29.8","","-33.3","","72","","","","28","","19","","2.4","","101.58","","","","-43","","Ice Crystals"
"-115.14","67.82","KUGLUKTUK A","2300903","2023-02-19 23:00","2023","02","19","23:00","-29.6","","-33.1","","72","","","","27","","21","","8.1","","101.60","","","","-43","","Ice Crystals"
"-115.14","67.82","KUGLUKTUK A","2300903","2023-02-20 00:00","2023","02","20","00:00","-29.3","","-32.8","","72","","","","28","","22","","1.6","","101.62","","","","-43","","Ice Crystals"
"-115.14","67.82","KUGLUKTUK A","2300903","2023-02-20 01:00","2023","02","20","01:00","-29.6","","-33.1","","73","","","","27","","8","","2.0","","101.69","","","","-38","","Ice Crystals"
"-115.14","67.82","KUGLUKTUK A","2300903","2023-02-20 02:00","2023","02","20","02:00","-29.0","","-32.4","","73","","","","25","","9","","12.9","","101.77","","","","-37","","Ice Crystals"
"-115.14","67.82","KUGLUKTUK A","2300903","2023-02-20 03:00","2023","02","20","03:00","-29.4","","-32.9","","72","","","","24","","11","","1.6","","101.79","","","","-39","","Fog"
"-115.14","67.82","KUGLUKTUK A","2300903","2023-02-20 04:00","2023","02","20","04:00","-29.9","","-33.3","","73","","","","33","","16","","24.1","","101.85","","","","-42","","Ice Crystals"
"-115.14","67.82","KUGLUKTUK A","2300903","2023-02-20 05:00","2023","02","20","05:00","-29.7","","-32.9","","74","","","","32","","25","","16.1","","101.87","","","","-44","","Ice Crystals,Blowing Snow"
"-115.14","67.82","KUGLUKTUK A","2300903","2023-02-20 06:00","2023","02","20","06:00","-29.3","","-32.5","","74","","","","33","","30","","9.7","","101.93","","","","-45","","Ice Crystals,Blowing Snow"
"-115.14","67.82","KUGLUKTUK A","2300903","2023-02-20 07:00","2023","02","20","07:00","-29.2","","-32.5","","74","","","","32","","27","","24.1","","102.00","","","","-44","","Blowing Snow"
"-115.14","67.82","KUGLUKTUK A","2300903","2023-02-20 08:00","2023","02","20","08:00","-29.1","","-32.3","","74","","","","33","","28","","24.1","","102.01","","","","-44","","Blowing Snow"
"-115.14","67.82","KUGLUKTUK A","2300903","2023-02-20 09:00","2023","02","20","09:00","-27.9","","-31.0","","75","","","","28","","18","","16.1","","102.06","","","","-40","","NA"
"-115.14","67.82","KUGLUKTUK A","2300903","2023-02-20 10:00","2023","02","20","10:00","-27.2","","-30.3","","76","","","","33","","23","","24.1","","102.11","","","","-40","","NA"
"-115.14","67.82","KUGLUKTUK A","2300903","2023-02-20 11:00","2023","02","20","11:00","-26.1","","-29.5","","74","","","","33","","22","","24.1","","102.18","","","","-39","","Blowing Snow"
"-115.14","67.82","KUGLUKTUK A","2300903","2023-02-20 12:00","2023","02","20","12:00","-25.3","","-29.0","","72","","","","34","","17","","24.1","","102.22","","","","-36","","Blowing Snow"
"-115.14","67.82","KUGLUKTUK A","2300903","2023-02-20 13:00","2023","02","20","13:00","-23.0","","-27.5","","68","","","","29","","10","","24.1","","102.31","","","","-31","","NA"
"-115.14","67.82","KUGLUKTUK A","2300903","2023-02-20 14:00","2023","02","20","14:00","-22.8","","-27.7","","65","","","","26","","16","","24.1","","102.38","","","","-33","","Clear"
"-115.14","67.82","KUGLUKTUK A","2300903","2023-02-20 15:00","2023","02","20","15:00","-23.8","","-28.8","","64","","","","25","","18","","24.1","","102.40","","","","-35","","NA"
"-115.14","67.82","KUGLUKTUK A","2300903","2023-02-20 16:00","2023","02","20","16:00","-25.4","","-29.8","","68","","","","26","","33","","24.1","","102.43","","","","-40","","Blowing Snow"
"-115.14","67.82","KUGLUKTUK A","2300903","2023-02-20 17:00","2023","02","20","17:00","-25.6","","-30.2","","66","","","","26","","33","","24.1","","102.47","","","","-40","","Blowing Snow"
"-115.14","67.82","KUGLUKTUK A","2300903","2023-02-20 18:00","2023","02","20","18:00","-28.7","","-32.9","","68","","","","21","","18","","24.1","","102.50","","","","-41","","NA"
"-115.14","67.82","KUGLUKTUK A","2300903","2023-02-20 19:00","2023","02","20","19:00","-28.4","","-32.5","","69","","","","22","","22","","24.1","","102.51","","","","-42","","NA"
"-115.14","67.82","KUGLUKTUK A","2300903","2023-02-20 20:00","2023","02","20","20:00","-27.9","","-32.1","","68","","","","23","","26","","24.1","","102.54","","","","-42","","Clear"
"-115.14","67.82","KUGLUKTUK A","2300903","2023-02-20 21:00","2023","02","20","21:00","-29.3","","-33.2","","70","","","","23","","19","","24.1","","102.56","","","","-42","","NA"
"-115.14","67.82","KUGLUKTUK A","2300903","2023-02-20 22:00","2023","02","20","22:00","-29.3","","-33.2","","70","","","","22","","22","","24.1","","102.57","","","","-43","","NA"
"-115.14","67.82","KUGLUKTUK A","2300903","2023-02-20 23:00","2023","02","20","23:00","-25.9","","-29.6","","72","","","","26","","20","","24.1","","102.56","","","","-38","","Clear"
"-115.14","67.82","KUGLUKTUK A","2300903","2023-02-21 00:00","2023","02","21","00:00","-26.4","","-30.2","","70","","","","26","","24","","24.1","","102.57","","","","-40","","NA"
"-115.14","67.82","KUGLUKTUK A","2300903","2023-02-21 01:00","2023","02","21","01:00","-29.6","","-33.5","","70","","","","22","","25","","24.1","","102.59","","","","-44","","NA"
"-115.14","67.82","KUGLUKTUK A","2300903","2023-02-21 02:00","2023","02","21","02:00","-28.9","","-33.0","","69","","","","22","","24","","24.1","","102.61","","","","-43","","Clear"
"-115.14","67.82","KUGLUKTUK A","2300903","2023-02-21 03:00","2023","02","21","03:00","-29.6","","-33.6","","69","","","","22","","26","","24.1","","102.64","","","","-44","","NA"
"-115.14","67.82","KUGLUKTUK A","2300903","2023-02-21 04:00","2023","02","21","04:00","-29.5","","-33.6","","68","","","","21","","21","","24.1","","102.66","","","","-43","","NA"
"-115.14","67.82","KUGLUKTUK A","2300903","2023-02-21 05:00","2023","02","21","05:00","-28.0","","-32.3","","68","","","","23","","31","","24.1","","102.65","","","","-43","","Clear"
"-115.14","67.82","KUGLUKTUK A","2300903","2023-02-21 06:00","2023","02","21","06:00","-27.4","","-31.9","","66","","","","23","","32","","24.1","","102.66","","","","-43","","NA"
"-115.14","67.82","KUGLUKTUK A","2300903","2023-02-21 07:00","2023","02","21","07:00","-27.2","","-31.4","","68","","","","23","","36","","24.1","","102.66","","","","-43","","Blowing Snow"
"-115.14","67.82","KUGLUKTUK A","2300903","2023-02-21 08:00","2023","02","21","08:00","-25.9","","-30.9","","64","","","","25","","36","","24.1","","102.68","","","","-41","","Blowing Snow"
"-115.14","67.82","KUGLUKTUK A","2300903","2023-02-21 09:00","2023","02","21","09:00","-27.2","","-32.1","","64","","","","23","","32","","24.1","","102.70","","","","-42","","Blowing Snow"
"-115.14","67.82","KUGLUKTUK A","2300903","2023-02-21 10:00","2023","02","21","10:00","-27.9","","-32.2","","67","","","","23","","27","","24.1","","102.72","","","","-42","","Blowing Snow"
"-115.14","67.82","KUGLUKTUK A","2300903","2023-02-21 11:00","2023","02","21","11:00","-25.0","","-30.5","","61","","","","26","","26","","24.1","","102.74","","","","-38","","Blowing Snow"
"-115.14","67.82","KUGLUKTUK A","2300903","2023-02-21 12:00","2023","02","21","12:00","-25.4","","-30.6","","63","","","","24","","27","","24.1","","102.76","","","","-39","","Blowing Snow"
"-115.14","67.82","KUGLUKTUK A","2300903","2023-02-21 13:00","2023","02","21","13:00","-25.3","","-29.8","","67","","","","23","","25","","24.1","","102.77","","","","-38","","Blowing Snow"
"-115.14","67.82","KUGLUKTUK A","2300903","2023-02-21 14:00","2023","02","21","14:00","-24.6","","-29.4","","65","","","","22","","21","","24.1","","102.80","","","","-37","","Blowing Snow"
"-115.14","67.82","KUGLUKTUK A","2300903","2023-02-21 15:00","2023","02","21","15:00","-22.8","","-28.4","","61","","","","26","","18","","24.1","","102.82","","","","-33","","NA"
"-115.14","67.82","KUGLUKTUK A","2300903","2023-02-21 16:00","2023","02","21","16:00","-23.9","","-29.3","","62","","","","24","","23","","24.1","","102.83","","","","-36","","NA"
"-115.14","67.82","KUGLUKTUK A","2300903","2023-02-21 17:00","2023","02","21","17:00","-25.7","","-30.8","","63","","","","25","","22","","24.1","","102.86","","","","-38","","Mostly Cloudy"
"-115.14","67.82","KUGLUKTUK A","2300903","2023-02-21 18:00","2023","02","21","18:00","-27.1","","-31.7","","65","","","","25","","19","","24.1","","102.90","","","","-39","","NA"
"-115.14","67.82","KUGLUKTUK A","2300903","2023-02-21 19:00","2023","02","21","19:00","-26.6","","-31.0","","67","","","","27","","24","","24.1","","102.93","","","","-40","","NA"
"-115.14","67.82","KUGLUKTUK A","2300903","2023-02-21 20:00","2023","02","21","20:00","-26.8","","-30.9","","69","","","","26","","25","","24.1","","102.94","","","","-40","","Clear"
"-115.14","67.82","KUGLUKTUK A","2300903","2023-02-21 21:00","2023","02","21","21:00","-28.5","","-32.2","","71","","","","25","","32","","16.1","","102.93","","","","-44","","Ice Crystals,Blowing Snow"
"-115.14","67.82","KUGLUKTUK A","2300903","2023-02-21 22:00","2023","02","21","22:00","-28.4","","-31.9","","73","","","","26","","30","","24.1","","102.90","","","","-44","","Ice Crystals,Blowing Snow"
"-115.14","67.82","KUGLUKTUK A","2300903","2023-02-21 23:00","2023","02","21","23:00","-28.8","","-32.4","","72","","","","23","","23","","24.1","","102.91","","","","-42","","Clear"
"-115.14","67.82","KUGLUKTUK A","2300903","2023-02-22 00:00","2023","02","22","00:00","-28.0","","-31.7","","71","","","","26","","25","","24.1","","102.95","","","","-42","","NA"
"-115.14","67.82","KUGLUKTUK A","2300903","2023-02-22 01:00","2023","02","22","01:00","-28.2","","-31.7","","73","","","","26","","30","","24.1","","102.93","","","","-43","","NA"
"-115.14","67.82","KUGLUKTUK A","2300903","2023-02-22 02:00","2023","02","22","02:00","-28.9","","-32.4","","73","","","","23","","24","","24.1","","102.93","","","","-43","","Clear"
"-115.14","67.82","KUGLUKTUK A","2300903","2023-02-22 03:00","2023","02","22","03:00","-26.0","","-29.8","","71","","","","25","","28","","24.1","","102.91","","","","-40","","NA"
"-115.14","67.82","KUGLUKTUK A","2300903","2023-02-22 04:00","2023","02","22","04:00"
"-115.14","67.82","KUGLUKTUK A","2300903","2023-02-22 05:00","2023","02","22","05:00","-24.3","","-28.4","","69","","","","28","","22","","24.1","","102.93","","","","-36","","Mostly Cloudy"
"-115.14","67.82","KUGLUKTUK A","2300903","2023-02-22 06:00","2023","02","22","06:00","-23.9","","-28.5","","66","","","","27","","29","","19.3","","102.93","","","","-37","","Ice Crystals"
"-115.14","67.82","KUGLUKTUK A","2300903","2023-02-22 07:00","2023","02","22","07:00","-24.4","","-29.1","","66","","","","25","","32","","24.1","","102.92","","","","-39","","Blowing Snow"
"-115.14","67.82","KUGLUKTUK A","2300903","2023-02-22 08:00","2023","02","22","08:00","-23.8","","-27.9","","69","","","","29","","35","","16.1","","102.94","","","","-38","","Cloudy"
"-115.14","67.82","KUGLUKTUK A","2300903","2023-02-22 09:00","2023","02","22","09:00","-23.3","","-27.7","","68","","","","26","","20","","9.7","","103.02","","","","-35","","Fog,Blowing Snow"
"-115.14","67.82","KUGLUKTUK A","2300903","2023-02-22 10:00","2023","02","22","10:00","-23.4","","-27.0","","73","","","","31","","18","","2.4","","103.09","","","","-34","","Fog"
"-115.14","67.82","KUGLUKTUK A","2300903","2023-02-22 11:00","2023","02","22","11:00","-24.1","","-27.7","","73","","","","32","","31","","2.4","","103.11","","","","-38","","Fog,Blowing Snow"
"-115.14","67.82","KUGLUKTUK A","2300903","2023-02-22 12:00","2023","02","22","12:00","-23.9","","-27.3","","74","","","","32","","37","","4.8","","103.15","","","","-39","","Fog,Blowing Snow"
"-115.14","67.82","KUGLUKTUK A","2300903","2023-02-22 13:00","2023","02","22","13:00","-25.2","","-28.9","","72","","","","31","","28","","6.4","","103.25","","","","-39","","Fog,Blowing Snow"
"-115.14","67.82","KUGLUKTUK A","2300903","2023-02-22 14:00","2023","02","22","14:00","-25.6","","-29.5","","71","","","","31","","30","","9.7","","103.34","","","","-40","","Fog,Blowing Snow"
"-115.14","67.82","KUGLUKTUK A","2300903","2023-02-22 15:00","2023","02","22","15:00","-26.0","","-29.3","","74","","","","32","","30","","4.8","","103.39","","","","-40","","Fog,Blowing Snow"
"-115.14","67.82","KUGLUKTUK A","2300903","2023-02-22 16:00","2023","02","22","16:00","-26.5","","-29.7","","74","","","","32","","23","","4.8","","103.48","","","","-39","","Fog,Blowing Snow"
"-115.14","67.82","KUGLUKTUK A","2300903","2023-02-22 17:00","2023","02","22","17:00","-27.1","","-30.5","","73","","","","31","","21","","6.4","","103.57","","","","-40","","Fog"
"-115.14","67.82","KUGLUKTUK A","2300903","2023-02-22 18:00","2023","02","22","18:00","-27.8","","-31.5","","72","","","","31","","21","","9.7","","103.60","","","","-41","","Fog"
"-115.14","67.82","KUGLUKTUK A","2300903","2023-02-22 19:00","2023","02","22","19:00","-28.7","","-32.3","","72","","","","30","","17","","12.9","","103.69","","","","-41","","Ice Crystals"
"-115.14","67.82","KUGLUKTUK A","2300903","2023-02-22 20:00","2023","02","22","20:00","-29.1","","-32.5","","73","","","","26","","16","","12.9","","103.77","","","","-41","","Ice Crystals"
"-115.14","67.82","KUGLUKTUK A","2300903","2023-02-22 21:00","2023","02","22","21:00","-29.4","","-33.0","","72","","","","26","","19","","12.9","","103.81","","","","-42","","Ice Crystals"
"-115.14","67.82","KUGLUKTUK A","2300903","2023-02-22 22:00","2023","02","22","22:00","-29.0","","-32.2","","74","","","","26","","25","","16.1","","103.84","","","","-43","","Ice Crystals,Blowing Snow"
"-115.14","67.82","KUGLUKTUK A","2300903","2023-02-22 23:00","2023","02","22","23:00","-29.5","","-33.0","","72","","","","25","","22","","19.3","","103.85","","","","-43","","Ice Crystals,Blowing Snow"
"-115.14","67.82","KUGLUKTUK A","2300903","2023-02-23 00:00","2023","02","23","00:00","-27.9","","-31.6","","71","","","","25","","31","","16.1","","103.83","","","","-43","","Ice Crystals,Blowing Snow"
"-115.14","67.82","KUGLUKTUK A","2300903","2023-02-23 01:00","2023","02","23","01:00","-28.4","","-32.2","","71","","","","26","","32","","12.9","","103.82","","","","-44","","Ice Crystals,Blowing Snow"
"-115.14","67.82","KUGLUKTUK A","2300903","2023-02-23 02:00","2023","02","23","02:00","-27.9","","-31.7","","70","","","","26","","35","","12.9","","103.81","","","","-44","","Ice Crystals,Blowing Snow"
"-115.14","67.82","KUGLUKTUK A","2300903","2023-02-23 03:00","2023","02","23","03:00","-27.4","","-31.1","","71","","","","26","","39","","9.7","","103.79","","","","-44","","Ice Crystals,Blowing Snow"
"-115.14","67.82","KUGLUKTUK A","2300903","2023-02-23 04:00","2023","02","23","04:00","-28.0","","-31.9","","70","","","","26","","34","","9.7","","103.78","","","","-44","","Ice Crystals,Blowing Snow"
"-115.14","67.82","KUGLUKTUK A","2300903","2023-02-23 05:00","2023","02","23","05:00","-27.3","","-31.3","","70","","","","25","","33","","12.9","","103.74","","","","-43","","Ice Crystals,Blowing Snow"
"-115.14","67.82","KUGLUKTUK A","2300903","2023-02-23 06:00","2023","02","23","06:00","-28.3","","-32.1","","71","","","","25","","34","","12.9","","103.70","","","","-44","","Ice Crystals,Blowing Snow"
"-115.14","67.82","KUGLUKTUK A","2300903","2023-02-23 07:00","2023","02","23","07:00","-28.8","","-32.9","","68","","","","24","","28","","19.3","","103.65","","","","-44","","Ice Crystals,Blowing Snow"
"-115.14","67.82","KUGLUKTUK A","2300903","2023-02-23 08:00","2023","02","23","08:00","-29.5","","-34.0","","66","","","","23","","24","","19.3","","103.61","","","","-44","","Ice Crystals,Blowing Snow"
"-115.14","67.82","KUGLUKTUK A","2300903","2023-02-23 09:00","2023","02","23","09:00","-29.7","","-34.1","","66","","","","22","","22","","24.1","","103.55","","","","-43","","NA"
"-115.14","67.82","KUGLUKTUK A","2300903","2023-02-23 10:00","2023","02","23","10:00","-30.7","","-35.0","","67","","","","22","","30","","24.1","","103.46","","","","-47","","Blowing Snow"
"-115.14","67.82","KUGLUKTUK A","2300903","2023-02-23 11:00","2023","02","23","11:00","-29.3","","-33.7","","67","","","","22","","30","","24.1","","103.36","","","","-45","","Blowing Snow"
"-115.14","67.82","KUGLUKTUK A","2300903","2023-02-23 12:00","2023","02","23","12:00","-28.2","","-32.8","","66","","","","22","","27","","24.1","","103.25","","","","-43","","Blowing Snow"
"-115.14","67.82","KUGLUKTUK A","2300903","2023-02-23 13:00","2023","02","23","13:00","-27.8","","-32.4","","66","","","","23","","20","","24.1","","103.14","","","","-40","","Blowing Snow"
"-115.14","67.82","KUGLUKTUK A","2300903","2023-02-23 14:00","2023","02","23","14:00","-27.4","","-31.8","","67","","","","22","","20","","24.1","","102.98","","","","-40","","Clear"
"-115.14","67.82","KUGLUKTUK A","2300903","2023-02-23 15:00","2023","02","23","15:00","-27.2","","-31.4","","68","","","","22","","9","","24.1","","102.90","","","","-35","","NA"
"-115.14","67.82","KUGLUKTUK A","2300903","2023-02-23 16:00","2023","02","23","16:00","-27.6","","-31.6","","69","","","","22","","16","","24.1","","102.79","","","","-39","","NA"
"-115.14","67.82","KUGLUKTUK A","2300903","2023-02-23 17:00","2023","02","23","17:00","-28.8","","-32.9","","69","","","","23","","17","","24.1","","102.67","","","","-41","","Clear"
"-115.14","67.82","KUGLUKTUK A","2300903","2023-02-23 18:00","2023","02","23","18:00","-27.3","","-31.6","","68","","","","24","","30","","24.1","","102.53","","","","-42","","Blowing Snow"
"-115.14","67.82","KUGLUKTUK A","2300903","2023-02-23 19:00","2023","02","23","19:00","-28.4","","-32.9","","66","","","","24","","21","","24.1","","102.41","","","","-41","","Ice Crystals,Blowing Snow"
"-115.14","67.82","KUGLUKTUK A","2300903","2023-02-23 20:00","2023","02","23","20:00","-28.1","","-32.6","","66","","","","30","","5","","24.1","","102.27","","","","-33","","Ice Crystals"
"-115.14","67.82","KUGLUKTUK A","2300903","2023-02-23 21:00","2023","02","23","21:00","-29.1","","-33.4","","67","","","","23","","17","","24.1","","102.10","","","","-41","","Ice Crystals"
"-115.14","67.82","KUGLUKTUK A","2300903","2023-02-23 22:00","2023","02","23","22:00","-28.6","","-33.0","","67","","","","23","","16","","24.1","","101.95","","","","-40","","NA"
"-115.14","67.82","KUGLUKTUK A","2300903","2023-02-23 23:00","2023","02","23","23:00","-27.1","","-31.4","","68","","","","27","","5","","24.1","","101.80","","","","-32","","Clear"
"-115.14","67.82","KUGLUKTUK A","2300903","2023-02-24 00:00","2023","02","24","00:00","-27.0","","-31.5","","67","","","","26","","3","","24.1","","101.63","","","","-30","","NA"
"-115.14","67.82","KUGLUKTUK A","2300903","2023-02-24 01:00","2023","02","24","01:00","-26.4","","-31.5","","63","","","","24","","5","","24.1","","101.45","","","","-32","","NA"
"-115.14","67.82","KUGLUKTUK A","2300903","2023-02-24 02:00","2023","02","24","02:00","-29.2","","-33.4","","68","","","","32","","7","","24.1","","101.31","","","","-36","","Clear"
"-115.14","67.82","KUGLUKTUK A","2300903","2023-02-24 03:00","2023","02","24","03:00","-25.5","","-30.1","","66","","","","23","","13","","24.1","","101.17","","","","-35","","NA"
"-115.14","67.82","KUGLUKTUK A","2300903","2023-02-24 04:00","2023","02","24","04:00","-26.6","","-30.8","","68","","","","23","","14","","24.1","","100.98","","","","-37","","NA"
"-115.14","67.82","KUGLUKTUK A","2300903","2023-02-24 05:00","2023","02","24","05:00","-24.1","","-28.8","","66","","","","24","","10","","24.1","","100.82","","","","-32","","Clear"
"-115.14","67.82","KUGLUKTUK A","2300903","2023-02-24 06:00","2023","02","24","06:00","-29.9","","-33.6","","71","","","","35","","5","","24.1","","100.70","","","","-36","","NA"
"-115.14","67.82","KUGLUKTUK A","2300903","2023-02-24 07:00","2023","02","24","07:00","-25.7","","-30.1","","67","","","","11","","4","","24.1","","100.53","","","","-30","","NA"
"-115.14","67.82","KUGLUKTUK A","2300903","2023-02-24 08:00","2023","02","24","08:00","-27.5","","-32.8","","62","","","","33","","5","","24.1","","100.42","","","","-33","","Mainly Clear"
"-115.14","67.82","KUGLUKTUK A","2300903","2023-02-24 09:00","2023","02","24","09:00","-29.2","","-33.0","","70","","","","36","","3","","24.1","","100.32","","","","-33","","NA"
"-115.14","67.82","KUGLUKTUK A","2300903","2023-02-24 10:00","2023","02","24","10:00","-24.6","","-29.1","","67","","","","18","","5","","24.1","","100.24","","","","-29","","NA"
"-115.14","67.82","KUGLUKTUK A","2300903","2023-02-24 11:00","2023","02","24","11:00","-26.1","","-30.6","","66","","","","36","","2","","24.1","","100.14","","","","-28","","Mainly Clear"
"-115.14","67.82","KUGLUKTUK A","2300903","2023-02-24 12:00","2023","02","24","12:00","-28.9","","-33.7","","64","","","","29","","3","","24.1","","100.05","","","","-32","","NA"
"-115.14","67.82","KUGLUKTUK A","2300903","2023-02-24 13:00","2023","02","24","13:00","-27.0","","-31.7","","66","","","","20","","8","","24.1","","99.97","","","","-34","","NA"
"-115.14","67.82","KUGLUKTUK A","2300903","2023-02-24 14:00","2023","02","24","14:00","-26.6","","-31.2","","66","","","","29","","4","","24.1","","99.91","","","","-31","","Mainly Clear"
"-115.14","67.82","KUGLUKTUK A","2300903","2023-02-24 15:00","2023","02","24","15:00","-25.6","","-30.4","","65","","","","21","","18","","24.1","","99.84","","","","-37","","NA"
"-115.14","67.82","KUGLUKTUK A","2300903","2023-02-24 16:00","2023","02","24","16:00","-26.1","","-30.9","","65","","","","21","","25","","24.1","","99.76","","","","-39","","NA"
"-115.14","67.82","KUGLUKTUK A","2300903","2023-02-24 17:00","2023","02","24","17:00","-27.7","","-32.0","","68","","","","23","","24","","24.1","","99.72","","","","-41","","Mainly Clear"
"-115.14","67.82","KUGLUKTUK A","2300903","2023-02-24 18:00","2023","02","24","18:00","-28.6","","-33.1","","66","","","","22","","21","","24.1","","99.68","","","","-42","","NA"
"-115.14","67.82","KUGLUKTUK A","2300903","2023-02-24 19:00","2023","02","24","19:00","-29.7","","-34.1","","66","","","","23","","19","","24.1","","99.64","","","","-42","","NA"
"-115.14","67.82","KUGLUKTUK A","2300903","2023-02-24 20:00","2023","02","24","20:00","-29.8","","-34.0","","67","","","","23","","21","","24.1","","99.58","","","","-43","","Clear"
"-115.14","67.82","KUGLUKTUK A","2300903","2023-02-24 21:00","2023","02","24","21:00","-29.6","","-33.9","","67","","","","22","","24","","24.1","","99.53","","","","-44","","NA"
"-115.14","67.82","KUGLUKTUK A","2300903","2023-02-24 22:00","2023","02","24","22:00","-29.0","","-33.2","","68","","","","22","","25","","24.1","","99.49","","","","-43","","NA"
"-115.14","67.82","KUGLUKTUK A","2300903","2023-02-24 23:00","2023","02","24","23:00","-29.6","","-33.7","","68","","","","22","","22","","24.1","","99.45","","","","-43","","Clear"
"-115.14","67.82","KUGLUKTUK A","2300903","2023-02-25 00:00","2023","02","25","00:00","-29.2","","-33.2","","69","","","","22","","21","","24.1","","99.42","","","","-42","","NA"
"-115.14","67.82","KUGLUKTUK A","2300903","2023-02-25 01:00","2023","02","25","01:00","-29.8","","-33.7","","69","","","","21","","14","","24.1","","99.40","","","","-41","","NA"
"-115.14","67.82","KUGLUKTUK A","2300903","2023-02-25 02:00","2023","02","25","02:00","-28.7","","-32.5","","70","","","","21","","18","","24.1","","99.36","","","","-41","","Mainly Clear"
"-115.14","67.82","KUGLUKTUK A","2300903","2023-02-25 03:00","2023","02","25","03:00","-26.9","","-30.9","","70","","","","21","","17","","24.1","","99.33","","","","-38","","NA"
"-115.14","67.82","KUGLUKTUK A","2300903","2023-02-25 04:00","2023","02","25","04:00","-26.6","","-30.4","","71","","","","22","","22","","24.1","","99.31","","","","-39","","NA"
"-115.14","67.82","KUGLUKTUK A","2300903","2023-02-25 05:00","2023","02","25","05:00","-26.0","","-29.5","","73","","","","21","","18","","24.1","","99.26","","","","-37","","Mostly Cloudy"
"-115.14","67.82","KUGLUKTUK A","2300903","2023-02-25 06:00","2023","02","25","06:00","-25.5","","-29.0","","73","","","","22","","15","","24.1","","99.24","","","","-36","","NA"
"-115.14","67.82","KUGLUKTUK A","2300903","2023-02-25 07:00","2023","02","25","07:00","-26.2","","-30.0","","71","","","","33","","5","","24.1","","99.24","","","","-31","","NA"
"-115.14","67.82","KUGLUKTUK A","2300903","2023-02-25 08:00","2023","02","25","08:00","-27.8","","-31.0","","74","","","","34","","7","","19.3","","99.26","","","","-35","","Ice Crystals"
"-115.14","67.82","KUGLUKTUK A","2300903","2023-02-25 09:00","2023","02","25","09:00","-25.6","","-28.9","","75","","","","25","","16","","19.3","","99.31","","","","-36","","Ice Crystals"
"-115.14","67.82","KUGLUKTUK A","2300903","2023-02-25 10:00","2023","02","25","10:00","-24.8","","-27.9","","75","","","","26","","28","","24.1","","99.34","","","","-38","","Ice Crystals,Blowing Snow"
"-115.14","67.82","KUGLUKTUK A","2300903","2023-02-25 11:00","2023","02","25","11:00","-24.1","","-27.4","","75","","","","26","","23","","24.1","","99.38","","","","-36","","Ice Crystals,Blowing Snow"
"-115.14","67.82","KUGLUKTUK A","2300903","2023-02-25 12:00","2023","02","25","12:00","-23.8","","-27.3","","73","","","","28","","23","","24.1","","99.42","","","","-36","","Blowing Snow"
"-115.14","67.82","KUGLUKTUK A","2300903","2023-02-25 13:00","2023","02","25","13:00","-21.9","","-25.5","","73","","","","26","","28","","24.1","","99.47","","","","-35","","Blowing Snow"
"-115.14","67.82","KUGLUKTUK A","2300903","2023-02-25 14:00","2023","02","25","14:00","-20.9","","-24.2","","76","","","","26","","29","","2.8","","99.48","","","","-34","","Snow Pellets,Blowing Snow"
"-115.14","67.82","KUGLUKTUK A","2300903","2023-02-25 15:00","2023","02","25","15:00","-19.8","","-23.2","","75","","","","27","","14","","16.1","","99.53","","","","-29","","Ice Crystals"
"-115.14","67.82","KUGLUKTUK A","2300903","2023-02-25 16:00","2023","02","25","16:00","-19.1","","-22.6","","75","","","","26","","21","","24.1","","99.51","","","","-30","","NA"
"-115.14","67.82","KUGLUKTUK A","2300903","2023-02-25 17:00","2023","02","25","17:00","-21.1","","-24.0","","78","","","","23","","13","","24.1","","99.47","","","","-30","","Ice Crystals"
"-115.14","67.82","KUGLUKTUK A","2300903","2023-02-25 18:00","2023","02","25","18:00","-21.6","","-24.6","","77","","","","24","","28","","24.1","","99.43","","","","-34","","NA"
"-115.14","67.82","KUGLUKTUK A","2300903","2023-02-25 19:00","2023","02","25","19:00","-20.2","","-23.2","","78","","","","24","","30","","24.1","","99.41","","","","-33","","Blowing Snow"
"-115.14","67.82","KUGLUKTUK A","2300903","2023-02-25 20:00","2023","02","25","20:00","-20.5","","-22.9","","82","","","","23","","28","","24.1","","99.40","","","","-33","","Ice Crystals,Blowing Snow"
"-115.14","67.82","KUGLUKTUK A","2300903","2023-02-25 21:00","2023","02","25","21:00","-19.7","","-22.1","","81","","","","23","","30","","9.7","","99.37","","","","-32","","Ice Crystals,Blowing Snow"
"-115.14","67.82","KUGLUKTUK A","2300903","2023-02-25 22:00","2023","02","25","22:00","-16.3","","-18.5","","83","","","","24","","36","","19.3","","99.34","","","","-29","","Ice Crystals,Blowing Snow"
"-115.14","67.82","KUGLUKTUK A","2300903","2023-02-25 23:00","2023","02","25","23:00","-14.7","","-17.1","","82","","","","25","","34","","9.7","","99.34","","","","-26","","Snow,Blowing Snow"
"-115.14","67.82","KUGLUKTUK A","2300903","2023-02-26 00:00","2023","02","26","00:00","-15.3","","-18.2","","79","","","","26","","32","","19.3","","99.38","","","","-27","","Snow,Blowing Snow"
"-115.14","67.82","KUGLUKTUK A","2300903","2023-02-26 01:00","2023","02","26","01:00","-15.6","","-18.2","","81","","","","26","","23","","24.1","","99.43","","","","-26","","Snow,Blowing Snow"
"-115.14","67.82","KUGLUKTUK A","2300903","2023-02-26 02:00","2023","02","26","02:00","-15.7","","-17.9","","84","","","","27","","13","","12.9","","99.48","","","","-23","","Snow"
"-115.14","67.82","KUGLUKTUK A","2300903","2023-02-26 03:00","2023","02","26","03:00","-15.9","","-18.8","","79","","","","30","","10","","24.1","","99.54","","","","-22","","NA"
"-115.14","67.82","KUGLUKTUK A","2300903","2023-02-26 04:00","2023","02","26","04:00","-16.1","","-20.0","","73","","","","30","","16","","24.1","","99.56","","","","-25","","NA"
"-115.14","67.82","KUGLUKTUK A","2300903","2023-02-26 05:00","2023","02","26","05:00","-16.7","","-20.0","","76","","","","30","","17","","19.3","","99.61","","","","-26","","Snow"
"-115.14","67.82","KUGLUKTUK A","2300903","2023-02-26 06:00","2023","02","26","06:00","-17.0","","-20.8","","73","","","","29","","17","","24.1","","99.65","","","","-26","","Snow"
"-115.14","67.82","KUGLUKTUK A","2300903","2023-02-26 07:00","2023","02","26","07:00","-16.8","","-21.2","","69","","","","27","","18","","24.1","","99.73","","","","-26","","NA"
"-115.14","67.82","KUGLUKTUK A","2300903","2023-02-26 08:00","2023","02","26","08:00","-17.5","","-22.1","","68","","","","28","","23","","24.1","","99.80","","","","-28","","Ice Crystals"
"-115.14","67.82","KUGLUKTUK A","2300903","2023-02-26 09:00","2023","02","26","09:00","-19.0","","-23.9","","66","","","","29","","31","","24.1","","99.85","","","","-31","","Ice Crystals,Blowing Snow"
"-115.14","67.82","KUGLUKTUK A","2300903","2023-02-26 10:00","2023","02","26","10:00","-19.7","","-24.2","","68","","","","29","","27","","24.1","","99.93","","","","-32","","Blowing Snow"
"-115.14","67.82","KUGLUKTUK A","2300903","2023-02-26 11:00","2023","02","26","11:00","-20.1","","-24.7","","67","","","","28","","26","","24.1","","100.00","","","","-32","","Clear"
"-115.14","67.82","KUGLUKTUK A","2300903","2023-02-26 12:00","2023","02","26","12:00","-20.2","","-24.5","","69","","","","29","","22","","24.1","","100.06","","","","-31","","NA"
"-115.14","67.82","KUGLUKTUK A","2300903","2023-02-26 13:00","2023","02","26","13:00","-18.9","","-23.4","","68","","","","24","","18","","24.1","","100.13","","","","-29","","Ice Crystals"
"-115.14","67.82","KUGLUKTUK A","2300903","2023-02-26 14:00","2023","02","26","14:00","-18.5","","-22.8","","69","","","","24","","19","","24.1","","100.20","","","","-28","","Ice Crystals"
"-115.14","67.82","KUGLUKTUK A","2300903","2023-02-26 15:00","2023","02","26","15:00","-18.6","","-22.9","","70","","","","26","","20","","24.1","","100.26","","","","-29","","Ice Crystals"
"-115.14","67.82","KUGLUKTUK A","2300903","2023-02-26 16:00","2023","02","26","16:00","-19.2","","-22.9","","73","","","","25","","19","","24.1","","100.32","","","","-29","","Ice Crystals"
"-115.14","67.82","KUGLUKTUK A","2300903","2023-02-26 17:00","2023","02","26","17:00","-18.5","","-22.5","","71","","","","27","","18","","19.3","","100.36","","","","-28","","Ice Crystals"
"-115.14","67.82","KUGLUKTUK A","2300903","2023-02-26 18:00","2023","02","26","18:00","-19.0","","-22.6","","73","","","","24","","17","","19.3","","100.40","","","","-28","","Ice Crystals"
"-115.14","67.82","KUGLUKTUK A","2300903","2023-02-26 19:00","2023","02","26","19:00","-18.8","","-22.3","","75","","","","25","","21","","16.1","","100.48","","","","-29","","Snow"
"-115.14","67.82","KUGLUKTUK A","2300903","2023-02-26 20:00","2023","02","26","20:00","-19.4","","-22.8","","75","","","","24","","22","","19.3","","100.53","","","","-30","","Snow"
"-115.14","67.82","KUGLUKTUK A","2300903","2023-02-26 21:00","2023","02","26","21:00","-21.3","","-25.2","","71","","","","26","","24","","19.3","","100.57","","","","-33","","Snow"
"-115.14","67.82","KUGLUKTUK A","2300903","2023-02-26 22:00","2023","02","26","22:00","-21.5","","-25.8","","69","","","","26","","27","","24.1","","100.65","","","","-34","","Snow"
"-115.14","67.82","KUGLUKTUK A","2300903","2023-02-26 23:00","2023","02","26","23:00","-22.6","","-27.0","","67","","","","26","","30","","24.1","","100.71","","","","-36","","Snow,Blowing Snow"
"-115.14","67.82","KUGLUKTUK A","2300903","2023-02-27 00:00","2023","02","27","00:00","-25.3","","-29.5","","68","","","","25","","31","","24.1","","100.76","","","","-40","","NA"
"-115.14","67.82","KUGLUKTUK A","2300903","2023-02-27 01:00","2023","02","27","01:00","-24.2","","-28.0","","72","","","","25","","28","","19.3","","100.84","","","","-38","","Snow,Blowing Snow"
"-115.14","67.82","KUGLUKTUK A","2300903","2023-02-27 02:00","2023","02","27","02:00","-27.3","","-31.1","","71","","","","25","","27","","24.1","","100.91","","","","-41","","Snow,Blowing Snow"
"-115.14","67.82","KUGLUKTUK A","2300903","2023-02-27 03:00","2023","02","27","03:00","-28.1","","-31.9","","70","","","","24","","30","","24.1","","100.99","","","","-43","","NA"
"-115.14","67.82","KUGLUKTUK A","2300903","2023-02-27 04:00","2023","02","27","04:00","-26.1","","-29.7","","73","","","","26","","27","","24.1","","101.04","","","","-40","","NA"
"-115.14","67.82","KUGLUKTUK A","2300903","2023-02-27 05:00","2023","02","27","05:00","-26.0","","-29.4","","74","","","","25","","25","","24.1","","101.08","","","","-39","","Mainly Clear"
"-115.14","67.82","KUGLUKTUK A","2300903","2023-02-27 06:00","2023","02","27","06:00","-28.4","","-31.8","","73","","","","25","","26","","24.1","","101.10","","","","-43","","Ice Crystals"
"-115.14","67.82","KUGLUKTUK A","2300903","2023-02-27 07:00","2023","02","27","07:00","-28.6","","-31.9","","74","","","","23","","26","","12.9","","101.13","","","","-43","","Ice Crystals,Blowing Snow"
"-115.14","67.82","KUGLUKTUK A","2300903","2023-02-27 08:00","2023","02","27","08:00","-28.9","","-32.2","","74","","","","23","","24","","24.1","","101.14","","","","-43","","Clear"
"-115.14","67.82","KUGLUKTUK A","2300903","2023-02-27 09:00","2023","02","27","09:00","-29.1","","-32.7","","72","","","","23","","23","","24.1","","101.17","","","","-43","","NA"
"-115.14","67.82","KUGLUKTUK A","2300903","2023-02-27 10:00","2023","02","27","10:00","-28.8","","-32.2","","73","","","","23","","24","","24.1","","101.17","","","","-43","","NA"
"-115.14","67.82","KUGLUKTUK A","2300903","2023-02-27 11:00","2023","02","27","11:00","-27.9","","-31.4","","72","","","","15","","6","","24.1","","101.19","","","","-34","","Clear"
"-115.14","67.82","KUGLUKTUK A","2300903","2023-02-27 12:00","2023","02","27","12:00","-26.5","","-30.1","","72","","","","23","","7","","24.1","","101.22","","","","-33","","NA"
"-115.14","67.82","KUGLUKTUK A","2300903","2023-02-27 13:00","2023","02","27","13:00","-26.0","","-30.2","","68","","","","24","","14","","24.1","","101.22","","","","-36","","NA"
"-115.14","67.82","KUGLUKTUK A","2300903","2023-02-27 14:00","2023","02","27","14:00","-26.0","","-30.4","","67","","","","23","","5","","24.1","","101.23","","","","-31","","Mainly Clear"
"-115.14","67.82","KUGLUKTUK A","2300903","2023-02-27 15:00","2023","02","27","15:00","-25.2","","-30.0","","65","","","","27","","4","","19.3","","101.23","","","","-29","","NA"
"-115.14","67.82","KUGLUKTUK A","2300903","2023-02-27 16:00","2023","02","27","16:00","-26.3","","-30.7","","67","","","","23","","7","","24.1","","101.23","","","","-33","","NA"
"-115.14","67.82","KUGLUKTUK A","2300903","2023-02-27 17:00","2023","02","27","17:00","-26.1","","-30.3","","69","","","","25","","4","","24.1","","101.23","","","","-30","","Clear"
"-115.14","67.82","KUGLUKTUK A","2300903","2023-02-27 18:00","2023","02","27","18:00","-27.2","","-31.2","","69","","","","36","","2","","19.3","","101.22","","","","-29","","NA"
"-115.14","67.82","KUGLUKTUK A","2300903","2023-02-27 19:00","2023","02","27","19:00","-27.0","","-31.1","","69","","","","25","","5","","19.3","","101.20","","","","-32","","NA"
"-115.14","67.82","KUGLUKTUK A","2300903","2023-02-27 20:00","2023","02","27","20:00","-27.1","","-30.9","","70","","","","23","","3","","24.1","","101.17","","","","-30","","Clear"
"-115.14","67.82","KUGLUKTUK A","2300903","2023-02-27 21:00","2023","02","27","21:00","-27.8","","-31.9","","69","","","","25","","5","","24.1","","101.17","","","","-33","","NA"
"-115.14","67.82","KUGLUKTUK A","2300903","2023-02-27 22:00","2023","02","27","22:00","-27.0","","-30.9","","70","","","","19","","4","","24.1","","101.13","","","","-31","","NA"
"-115.14","67.82","KUGLUKTUK A","2300903","2023-02-27 23:00","2023","02","27","23:00","-26.4","","-30.5","","69","","","","36","","2","","24.1","","101.09","","","","-28","","Mostly Cloudy"
"-115.14","67.82","KUGLUKTUK A","2300903","2023-02-28 00:00","2023","02","28","00:00","-26.9","","-30.7","","71","","","","36","","1","","24.1","","101.07","","","","-28","","NA"
"-115.14","67.82","KUGLUKTUK A","2300903","2023-02-28 01:00","2023","02","28","01:00","-26.6","","-30.6","","69","","","","0","","1","","24.1","","101.04","","","","-28","","NA"
"-115.14","67.82","KUGLUKTUK A","2300903","2023-02-28 02:00","2023","02","28","02:00","-27.4","","-31.2","","71","","","","9","","3","","16.1","","101.05","","","","-31","","Snow"
"-115.14","67.82","KUGLUKTUK A","2300903","2023-02-28 03:00","2023","02","28","03:00","-26.4","","-30.1","","72","","","","15","","6","","12.9","","100.98","","","","-32","","Snow"
"-115.14","67.82","KUGLUKTUK A","2300903","2023-02-28 04:00","2023","02","28","04:00","-24.7","","-27.6","","77","","","","35","","16","","9.7","","101.02","","","","-35","","Snow"
"-115.14","67.82","KUGLUKTUK A","2300903","2023-02-28 05:00","2023","02","28","05:00","-23.4","","-26.1","","79","","","","2","","6","","9.7","","101.06","","","","-29","","Snow"
"-115.14","67.82","KUGLUKTUK A","2300903","2023-02-28 06:00","2023","02","28","06:00","-25.5","","-28.6","","76","","","","24","","7","","12.9","","101.09","","","","-32","","Snow"
"-115.14","67.82","KUGLUKTUK A","2300903","2023-02-28 07:00","2023","02","28","07:00","-26.3","","-29.5","","75","","","","23","","18","","12.9","","101.11","","","","-38","","Snow"
"-115.14","67.82","KUGLUKTUK A","2300903","2023-02-28 08:00","2023","02","28","08:00","-25.9","","-29.2","","75","","","","23","","17","","19.3","","101.15","","","","-37","","Ice Crystals"
"-115.14","67.82","KUGLUKTUK A","2300903","2023-02-28 09:00","2023","02","28","09:00","-25.1","","-28.5","","74","","","","31","","8","","6.4","","101.17","","","","-32","","Ice Crystals"
"-115.14","67.82","KUGLUKTUK A","2300903","2023-02-28 10:00","2023","02","28","10:00","-25.9","","-29.4","","73","","","","30","","7","","8.1","","101.18","","","","-33","","Ice Crystals"
"-115.14","67.82","KUGLUKTUK A","2300903","2023-02-28 11:00","2023","02","28","11:00","-26.6","","-29.9","","74","","","","22","","8","","24.1","","101.18","","","","-34","","Ice Crystals"
"-115.14","67.82","KUGLUKTUK A","2300903","2023-02-28 12:00","2023","02","28","12:00","-26.8","","-30.1","","74","","","","23","","16","","24.1","","101.18","","","","-38","","Ice Crystals"
"-115.14","67.82","KUGLUKTUK A","2300903","2023-02-28 13:00","2023","02","28","13:00","-26.2","","-29.7","","73","","","","23","","13","","12.9","","101.18","","","","-36","","Ice Crystals"
"-115.14","67.82","KUGLUKTUK A","2300903","2023-02-28 14:00","2023","02","28","14:00","-26.0","","-29.4","","73","","","","22","","10","","6.4","","101.17","","","","-34","","Ice Crystals"
"-115.14","67.82","KUGLUKTUK A","2300903","2023-02-28 15:00","2023","02","28","15:00","-26.6","","-30.0","","74","","","","22","","10","","8.1","","101.16","","","","-35","","Ice Crystals"
"-115.14","67.82","KUGLUKTUK A","2300903","2023-02-28 16:00","2023","02","28","16:00","-27.0","","-30.5","","73","","","","21","","12","","9.7","","101.14","","","","-37","","Ice Crystals"
"-115.14","67.82","KUGLUKTUK A","2300903","2023-02-28 17:00","2023","02","28","17:00","-26.9","","-30.1","","75","","","","23","","7","","16.1","","101.10","","","","-34","","Ice Crystals"
"-115.14","67.82","KUGLUKTUK A","2300903","2023-02-28 18:00","2023","02","28","18:00","-27.7","","-30.6","","77","","","","18","","5","","24.1","","101.03","","","","-33","","Ice Crystals"
"-115.14","67.82","KUGLUKTUK A","2300903","2023-02-28 19:00","2023","02","28","19:00","-28.7","","-31.5","","77","","","","13","","5","","24.1","","100.96","","","","-34","","NA"
"-115.14","67.82","KUGLUKTUK A","2300903","2023-02-28 20:00","2023","02","28","20:00","-27.9","","-30.7","","77","","","","9","","9","","9.7","","100.90","","","","-36","","Snow"
"-115.14","67.82","KUGLUKTUK A","2300903","2023-02-28 21:00","2023","02","28","21:00","-26.9","","-29.9","","76","","","","8","","12","","9.7","","100.82","","","","-36","","Snow"
"-115.14","67.82","KUGLUKTUK A","2300903","2023-02-28 22:00","2023","02","28","22:00","-26.8","","-29.8","","76","","","","8","","13","","9.7","","100.75","","","","-37","","Snow"
"-115.14","67.82","KUGLUKTUK A","2300903","2023-02-28 23:00","2023","02","28","23:00","-25.6","","-28.6","","77","","","","8","","18","","9.7","","100.64","","","","-37","","Snow"
