"Longitude (x)","Latitude (y)","Station Name","Climate ID","Date/Time (LST)","Year","Month","Day","Time (LST)","Temp (°C)","Temp Flag","Dew Point Temp (°C)","Dew Point Temp Flag","Rel Hum (%)","Rel Hum Flag","Precip. Amount (mm)","Precip. Amount Flag","Wind Dir (10s deg)","Wind Dir Flag","Wind Spd (km/h)","Wind Spd Flag","Visibility (km)","Visibility Flag","Stn Press (kPa)","Stn Press Flag","Hmdx","Hmdx Flag","Wind Chill","Wind Chill Flag","Weather"
"-94.20","72.02","FORT ROSS","2402051","2021-12-01 00:00","2021","12","01","00:00","-19.4","","","M","","M","0.0","","1","","9","","","","100.09","","","","-26","","NA"
"-94.20","72.02","FORT ROSS","2402051","2021-12-01 01:00","2021","12","01","01:00","-20.5","","","M","","M","0.0","","36","","9","","","","100.03","","","","-27","","NA"
"-94.20","72.02","FORT ROSS","2402051","2021-12-01 02:00","2021","12","01","02:00","-20.9","","","M","","M","0.0","","36","","10","","","","99.99","","","","-28","","NA"
"-94.20","72.02","FORT ROSS","2402051","2021-12-01 03:00","2021","12","01","03:00","-21.7","","","M","","M","0.0","","36","","8","","","","99.95","","","","-28","","NA"
"-94.20","72.02","FORT ROSS","2402051","2021-12-01 04:00","2021","12","01","04:00","-20.7","","","M","","M","0.0","","35","","7","","","","99.91","","","","-26","","NA"
"-94.20","72.02","FORT ROSS","2402051","2021-12-01 05:00","2021","12","01","05:00","-19.5","","","M","","M","0.0","","36","","9","","","","99.82","","","","-26","","NA"
"-94.20","72.02","FORT ROSS","2402051","2021-12-01 06:00","2021","12","01","06:00","-18.9","","","M","","M","0.0","","36","","26","","","","99.75","","","","-30","","NA"
"-94.20","72.02","FORT ROSS","2402051","2021-12-01 07:00","2021","12","01","07:00","-18.8","","","M","","M","0.0","","35","","27","","","","99.68","","","","-30","","NA"
"-94.20","72.02","FORT ROSS","2402051","2021-12-01 08:00","2021","12","01","08:00","-18.7","","","M","","M","0.0","","36","","32","","","","99.57","","","","-31","","NA"
"-94.20","72.02","FORT ROSS","2402051","2021-12-01 09:00","2021","12","01","09:00","-18.7","","","M","","M","0.0","","36","","26","","","","99.51","","","","-30","","NA"
"-94.20","72.02","FORT ROSS","2402051","2021-12-01 10:00","2021","12","01","10:00","-19.2","","","M","","M","0.0","","35","","21","","","","99.47","","","","-30","","NA"
"-94.20","72.02","FORT ROSS","2402051","2021-12-01 11:00","2021","12","01","11:00","-19.8","","","M","","M","0.0","","34","","24","","","","99.45","","","","-31","","NA"
"-94.20","72.02","FORT ROSS","2402051","2021-12-01 12:00","2021","12","01","12:00","-19.4","","","M","","M","0.0","","34","","23","","","","99.42","","","","-30","","NA"
"-94.20","72.02","FORT ROSS","2402051","2021-12-01 13:00","2021","12","01","13:00","-19.5","","","M","","M","0.0","","35","","27","","","","99.39","","","","-31","","NA"
"-94.20","72.02","FORT ROSS","2402051","2021-12-01 14:00","2021","12","01","14:00","-19.3","","","M","","M","0.0","","35","","31","","","","99.36","","","","-32","","NA"
"-94.20","72.02","FORT ROSS","2402051","2021-12-01 15:00","2021","12","01","15:00","-18.4","","","M","","M","0.0","","34","","28","","","","99.34","","","","-30","","NA"
"-94.20","72.02","FORT ROSS","2402051","2021-12-01 16:00","2021","12","01","16:00","-18.4","","","M","","M","0.0","","35","","21","","","","99.31","","","","-29","","NA"
"-94.20","72.02","FORT ROSS","2402051","2021-12-01 17:00","2021","12","01","17:00","-17.3","","","M","","M","0.0","","34","","28","","","","99.28","","","","-29","","NA"
"-94.20","72.02","FORT ROSS","2402051","2021-12-01 18:00","2021","12","01","18:00","-17.0","","","M","","M","0.0","","34","","25","","","","99.29","","","","-28","","NA"
"-94.20","72.02","FORT ROSS","2402051","2021-12-01 19:00","2021","12","01","19:00","-17.2","","","M","","M","0.0","","34","","26","","","","99.28","","","","-28","","NA"
"-94.20","72.02","FORT ROSS","2402051","2021-12-01 20:00","2021","12","01","20:00","-17.3","","","M","","M","0.0","","33","","22","","","","99.27","","","","-28","","NA"
"-94.20","72.02","FORT ROSS","2402051","2021-12-01 21:00","2021","12","01","21:00","-17.6","","","M","","M","0.0","","29","","16","","","","99.28","","","","-26","","NA"
"-94.20","72.02","FORT ROSS","2402051","2021-12-01 22:00","2021","12","01","22:00","-18.2","","","M","","M","0.0","","32","","13","","","","99.30","","","","-26","","NA"
"-94.20","72.02","FORT ROSS","2402051","2021-12-01 23:00","2021","12","01","23:00","-18.5","","","M","","M","0.0","","31","","15","","","","99.32","","","","-27","","NA"
"-94.20","72.02","FORT ROSS","2402051","2021-12-02 00:00","2021","12","02","00:00","-18.5","","","M","","M","0.0","","30","","9","","","","99.33","","","","-25","","NA"
"-94.20","72.02","FORT ROSS","2402051","2021-12-02 01:00","2021","12","02","01:00","-18.4","","","M","","M","0.0","","31","","23","","","","99.36","","","","-29","","NA"
"-94.20","72.02","FORT ROSS","2402051","2021-12-02 02:00","2021","12","02","02:00","-18.0","","","M","","M","0.0","","34","","12","","","","99.38","","","","-26","","NA"
"-94.20","72.02","FORT ROSS","2402051","2021-12-02 03:00","2021","12","02","03:00","-17.3","","","M","","M","0.0","","31","","34","","","","99.33","","","","-30","","NA"
"-94.20","72.02","FORT ROSS","2402051","2021-12-02 04:00","2021","12","02","04:00","-17.3","","","M","","M","0.0","","32","","48","","","","99.29","","","","-31","","NA"
"-94.20","72.02","FORT ROSS","2402051","2021-12-02 05:00","2021","12","02","05:00","-17.8","","","M","","M","0.0","","31","","36","","","","99.34","","","","-31","","NA"
"-94.20","72.02","FORT ROSS","2402051","2021-12-02 06:00","2021","12","02","06:00","-17.2","","","M","","M","0.0","","32","","33","","","","99.38","","","","-29","","NA"
"-94.20","72.02","FORT ROSS","2402051","2021-12-02 07:00","2021","12","02","07:00","-20.0","","","M","","M","0.0","","23","","45","","","","99.43","","","","-35","","NA"
"-94.20","72.02","FORT ROSS","2402051","2021-12-02 08:00","2021","12","02","08:00","-17.0","","","M","","M","0.0","","26","","36","","","","99.45","","","","-30","","NA"
"-94.20","72.02","FORT ROSS","2402051","2021-12-02 09:00","2021","12","02","09:00","-19.5","","","M","","M","0.0","","28","","38","","","","99.47","","","","-33","","NA"
"-94.20","72.02","FORT ROSS","2402051","2021-12-02 10:00","2021","12","02","10:00","-16.5","","","M","","M","0.0","","30","","36","","","","99.47","","","","-29","","NA"
"-94.20","72.02","FORT ROSS","2402051","2021-12-02 11:00","2021","12","02","11:00","-21.0","","","M","","M","0.0","","27","","51","","","","99.47","","","","-37","","NA"
"-94.20","72.02","FORT ROSS","2402051","2021-12-02 12:00","2021","12","02","12:00","-16.2","","","M","","M","0.0","","28","","31","","","","99.58","","","","-28","","NA"
"-94.20","72.02","FORT ROSS","2402051","2021-12-02 13:00","2021","12","02","13:00","-22.6","","","M","","M","0.0","","26","","45","","","","99.67","","","","-38","","NA"
"-94.20","72.02","FORT ROSS","2402051","2021-12-02 14:00","2021","12","02","14:00","-21.6","","","M","","M","0.0","","26","","39","","","","99.78","","","","-36","","NA"
"-94.20","72.02","FORT ROSS","2402051","2021-12-02 15:00","2021","12","02","15:00","-22.4","","","M","","M","0.0","","27","","40","","","","99.84","","","","-37","","NA"
"-94.20","72.02","FORT ROSS","2402051","2021-12-02 16:00","2021","12","02","16:00","-22.7","","","M","","M","0.0","","28","","38","","","","99.88","","","","-37","","NA"
"-94.20","72.02","FORT ROSS","2402051","2021-12-02 17:00","2021","12","02","17:00","-23.9","","","M","","M","0.0","","26","","37","","","","99.94","","","","-39","","NA"
"-94.20","72.02","FORT ROSS","2402051","2021-12-02 18:00","2021","12","02","18:00","-20.3","","","M","","M","0.0","","31","","34","","","","99.93","","","","-34","","NA"
"-94.20","72.02","FORT ROSS","2402051","2021-12-02 19:00","2021","12","02","19:00","-24.8","","","M","","M","0.0","","28","","35","","","","100.03","","","","-40","","NA"
"-94.20","72.02","FORT ROSS","2402051","2021-12-02 20:00","2021","12","02","20:00","-25.0","","","M","","M","0.0","","26","","35","","","","100.06","","","","-40","","NA"
"-94.20","72.02","FORT ROSS","2402051","2021-12-02 21:00","2021","12","02","21:00","-24.9","","","M","","M","0.0","","25","","32","","","","100.12","","","","-39","","NA"
"-94.20","72.02","FORT ROSS","2402051","2021-12-02 22:00","2021","12","02","22:00","-26.7","","","M","","M","0.0","","23","","39","","","","100.12","","","","-43","","NA"
"-94.20","72.02","FORT ROSS","2402051","2021-12-02 23:00","2021","12","02","23:00","-27.0","","","M","","M","0.0","","25","","54","","","","100.12","","","","-45","","NA"
"-94.20","72.02","FORT ROSS","2402051","2021-12-03 00:00","2021","12","03","00:00","-26.6","","","M","","M","0.0","","28","","55","","","","100.10","","","","-45","","NA"
"-94.20","72.02","FORT ROSS","2402051","2021-12-03 01:00","2021","12","03","01:00","-26.6","","","M","","M","0.0","","29","","51","","","","100.11","","","","-45","","NA"
"-94.20","72.02","FORT ROSS","2402051","2021-12-03 02:00","2021","12","03","02:00","-26.6","","","M","","M","0.0","","29","","45","","","","100.17","","","","-44","","NA"
"-94.20","72.02","FORT ROSS","2402051","2021-12-03 03:00","2021","12","03","03:00","-28.4","","","M","","M","0.0","","27","","29","","","","100.27","","","","-43","","NA"
"-94.20","72.02","FORT ROSS","2402051","2021-12-03 04:00","2021","12","03","04:00","-28.8","","","M","","M","0.0","","29","","41","","","","100.32","","","","-46","","NA"
"-94.20","72.02","FORT ROSS","2402051","2021-12-03 05:00","2021","12","03","05:00","-28.4","","","M","","M","0.0","","29","","27","","","","100.36","","","","-43","","NA"
"-94.20","72.02","FORT ROSS","2402051","2021-12-03 06:00","2021","12","03","06:00","-28.4","","","M","","M","0.0","","29","","27","","","","100.41","","","","-43","","NA"
"-94.20","72.02","FORT ROSS","2402051","2021-12-03 07:00","2021","12","03","07:00","-29.0","","","M","","M","0.0","","29","","30","","","","100.39","","","","-44","","NA"
"-94.20","72.02","FORT ROSS","2402051","2021-12-03 08:00","2021","12","03","08:00","-28.9","","","M","","M","0.0","","27","","26","","","","100.38","","","","-43","","NA"
"-94.20","72.02","FORT ROSS","2402051","2021-12-03 09:00","2021","12","03","09:00","-28.7","","","M","","M","0.0","","29","","32","","","","100.36","","","","-44","","NA"
"-94.20","72.02","FORT ROSS","2402051","2021-12-03 10:00","2021","12","03","10:00","-28.8","","","M","","M","0.0","","28","","31","","","","100.36","","","","-44","","NA"
"-94.20","72.02","FORT ROSS","2402051","2021-12-03 11:00","2021","12","03","11:00","-29.0","","","M","","M","0.0","","26","","18","","","","100.37","","","","-41","","NA"
"-94.20","72.02","FORT ROSS","2402051","2021-12-03 12:00","2021","12","03","12:00","-29.1","","","M","","M","0.0","","28","","35","","","","100.33","","","","-45","","NA"
"-94.20","72.02","FORT ROSS","2402051","2021-12-03 13:00","2021","12","03","13:00","-28.2","","","M","","M","0.0","","28","","20","","","","100.40","","","","-41","","NA"
"-94.20","72.02","FORT ROSS","2402051","2021-12-03 14:00","2021","12","03","14:00","-28.6","","","M","","M","0.0","","25","","32","","","","100.40","","","","-44","","NA"
"-94.20","72.02","FORT ROSS","2402051","2021-12-03 15:00","2021","12","03","15:00","-27.1","","","M","","M","0.0","","31","","25","","","","100.40","","","","-41","","NA"
"-94.20","72.02","FORT ROSS","2402051","2021-12-03 16:00","2021","12","03","16:00","-27.4","","","M","","M","0.0","","30","","26","","","","100.35","","","","-41","","NA"
"-94.20","72.02","FORT ROSS","2402051","2021-12-03 17:00","2021","12","03","17:00","-26.5","","","M","","M","0.0","","31","","26","","","","100.34","","","","-40","","NA"
"-94.20","72.02","FORT ROSS","2402051","2021-12-03 18:00","2021","12","03","18:00","-26.6","","","M","","M","0.0","","29","","26","","","","100.31","","","","-40","","NA"
"-94.20","72.02","FORT ROSS","2402051","2021-12-03 19:00","2021","12","03","19:00","-26.3","","","M","","M","0.0","","30","","26","","","","100.30","","","","-40","","NA"
"-94.20","72.02","FORT ROSS","2402051","2021-12-03 20:00","2021","12","03","20:00","-27.1","","","M","","M","0.0","","29","","29","","","","100.28","","","","-42","","NA"
"-94.20","72.02","FORT ROSS","2402051","2021-12-03 21:00","2021","12","03","21:00","-27.2","","","M","","M","0.0","","29","","24","","","","100.29","","","","-41","","NA"
"-94.20","72.02","FORT ROSS","2402051","2021-12-03 22:00","2021","12","03","22:00","-27.5","","","M","","M","0.0","","27","","23","","","","100.27","","","","-41","","NA"
"-94.20","72.02","FORT ROSS","2402051","2021-12-03 23:00","2021","12","03","23:00","-25.9","","","M","","M","0.0","","26","","17","","","","100.22","","","","-37","","NA"
"-94.20","72.02","FORT ROSS","2402051","2021-12-04 00:00","2021","12","04","00:00","-25.1","","","M","","M","0.0","","29","","17","","","","100.19","","","","-36","","NA"
"-94.20","72.02","FORT ROSS","2402051","2021-12-04 01:00","2021","12","04","01:00","-24.9","","","M","","M","0.0","","31","","13","","","","100.16","","","","-34","","NA"
"-94.20","72.02","FORT ROSS","2402051","2021-12-04 02:00","2021","12","04","02:00","-25.2","","","M","","M","0.0","","26","","9","","","","100.13","","","","-33","","NA"
"-94.20","72.02","FORT ROSS","2402051","2021-12-04 03:00","2021","12","04","03:00","-25.2","","","M","","M","0.0","","25","","18","","","","100.06","","","","-36","","NA"
"-94.20","72.02","FORT ROSS","2402051","2021-12-04 04:00","2021","12","04","04:00","-24.8","","","M","","M","0.0","","28","","7","","","","100.03","","","","-31","","NA"
"-94.20","72.02","FORT ROSS","2402051","2021-12-04 05:00","2021","12","04","05:00","-25.2","","","M","","M","0.0","","30","","13","","","","100.00","","","","-35","","NA"
"-94.20","72.02","FORT ROSS","2402051","2021-12-04 06:00","2021","12","04","06:00","-26.2","","","M","","M","0.0","","28","","15","","","","99.93","","","","-37","","NA"
"-94.20","72.02","FORT ROSS","2402051","2021-12-04 07:00","2021","12","04","07:00","-26.8","","","M","","M","0.0","","25","","10","","","","99.86","","","","-35","","NA"
"-94.20","72.02","FORT ROSS","2402051","2021-12-04 08:00","2021","12","04","08:00","-25.9","","","M","","M","0.0","","17","","2","","","","99.81","","","","-28","","NA"
"-94.20","72.02","FORT ROSS","2402051","2021-12-04 09:00","2021","12","04","09:00","-23.8","","","M","","M","0.2","","27","","4","","","","99.74","","","","-28","","NA"
"-94.20","72.02","FORT ROSS","2402051","2021-12-04 10:00","2021","12","04","10:00","-24.3","","","M","","M","0.3","","24","","13","","","","99.68","","","","-34","","NA"
"-94.20","72.02","FORT ROSS","2402051","2021-12-04 11:00","2021","12","04","11:00","-24.3","","","M","","M","0.0","","25","","28","","","","99.59","","","","-38","","NA"
"-94.20","72.02","FORT ROSS","2402051","2021-12-04 12:00","2021","12","04","12:00","-21.8","","","M","","M","0.0","","24","","17","","","","99.51","","","","-32","","NA"
"-94.20","72.02","FORT ROSS","2402051","2021-12-04 13:00","2021","12","04","13:00","-22.3","","","M","","M","0.0","","25","","32","","","","99.47","","","","-36","","NA"
"-94.20","72.02","FORT ROSS","2402051","2021-12-04 14:00","2021","12","04","14:00","-21.0","","","M","","M","0.0","","25","","32","","","","99.45","","","","-34","","NA"
"-94.20","72.02","FORT ROSS","2402051","2021-12-04 15:00","2021","12","04","15:00","-21.1","","","M","","M","0.0","","24","","30","","","","99.46","","","","-34","","NA"
"-94.20","72.02","FORT ROSS","2402051","2021-12-04 16:00","2021","12","04","16:00","-17.9","","","M","","M","0.0","","32","","26","","","","99.41","","","","-29","","NA"
"-94.20","72.02","FORT ROSS","2402051","2021-12-04 17:00","2021","12","04","17:00","-21.7","","","M","","M","0.0","","26","","36","","","","99.38","","","","-36","","NA"
"-94.20","72.02","FORT ROSS","2402051","2021-12-04 18:00","2021","12","04","18:00","-20.9","","","M","","M","0.0","","30","","46","","","","99.33","","","","-36","","NA"
"-94.20","72.02","FORT ROSS","2402051","2021-12-04 19:00","2021","12","04","19:00","-23.5","","","M","","M","0.0","","29","","39","","","","99.29","","","","-39","","NA"
"-94.20","72.02","FORT ROSS","2402051","2021-12-04 20:00","2021","12","04","20:00","-24.7","","","M","","M","0.0","","28","","50","","","","99.27","","","","-42","","NA"
"-94.20","72.02","FORT ROSS","2402051","2021-12-04 21:00","2021","12","04","21:00","-23.8","","","M","","M","0.0","","30","","40","","","","99.25","","","","-39","","NA"
"-94.20","72.02","FORT ROSS","2402051","2021-12-04 22:00","2021","12","04","22:00","-21.8","","","M","","M","0.0","","29","","26","","","","99.22","","","","-34","","NA"
"-94.20","72.02","FORT ROSS","2402051","2021-12-04 23:00","2021","12","04","23:00","-21.6","","","M","","M","0.0","","28","","31","","","","99.18","","","","-35","","NA"
"-94.20","72.02","FORT ROSS","2402051","2021-12-05 00:00","2021","12","05","00:00","-20.8","","","M","","M","0.0","","29","","24","","","","99.19","","","","-32","","NA"
"-94.20","72.02","FORT ROSS","2402051","2021-12-05 01:00","2021","12","05","01:00","-20.3","","","M","","M","0.0","","29","","29","","","","99.19","","","","-33","","NA"
"-94.20","72.02","FORT ROSS","2402051","2021-12-05 02:00","2021","12","05","02:00","-19.8","","","M","","M","0.0","","30","","19","","","","99.22","","","","-30","","NA"
"-94.20","72.02","FORT ROSS","2402051","2021-12-05 03:00","2021","12","05","03:00","-19.5","","","M","","M","0.0","","30","","11","","","","99.24","","","","-27","","NA"
"-94.20","72.02","FORT ROSS","2402051","2021-12-05 04:00","2021","12","05","04:00","-19.5","","","M","","M","0.0","","28","","17","","","","99.24","","","","-29","","NA"
"-94.20","72.02","FORT ROSS","2402051","2021-12-05 05:00","2021","12","05","05:00","-19.8","","","M","","M","0.0","","27","","20","","","","99.22","","","","-30","","NA"
"-94.20","72.02","FORT ROSS","2402051","2021-12-05 06:00","2021","12","05","06:00","-19.4","","","M","","M","0.0","","28","","18","","","","99.21","","","","-29","","NA"
"-94.20","72.02","FORT ROSS","2402051","2021-12-05 07:00","2021","12","05","07:00","-20.0","","","M","","M","0.0","","25","","20","","","","99.20","","","","-30","","NA"
"-94.20","72.02","FORT ROSS","2402051","2021-12-05 08:00","2021","12","05","08:00","-18.6","","","M","","M","0.0","","27","","18","","","","99.22","","","","-28","","NA"
"-94.20","72.02","FORT ROSS","2402051","2021-12-05 09:00","2021","12","05","09:00","-17.9","","","M","","M","0.0","","27","","15","","","","99.24","","","","-26","","NA"
"-94.20","72.02","FORT ROSS","2402051","2021-12-05 10:00","2021","12","05","10:00","-15.7","","","M","","M","0.0","","31","","17","","","","99.26","","","","-24","","NA"
"-94.20","72.02","FORT ROSS","2402051","2021-12-05 11:00","2021","12","05","11:00","-16.1","","","M","","M","0.0","","28","","7","","","","99.28","","","","-21","","NA"
"-94.20","72.02","FORT ROSS","2402051","2021-12-05 12:00","2021","12","05","12:00","-18.6","","","M","","M","0.0","","30","","30","","","","99.26","","","","-31","","NA"
"-94.20","72.02","FORT ROSS","2402051","2021-12-05 13:00","2021","12","05","13:00","-23.3","","","M","","M","0.0","","26","","35","","","","99.25","","","","-38","","NA"
"-94.20","72.02","FORT ROSS","2402051","2021-12-05 14:00","2021","12","05","14:00","-23.6","","","M","","M","0.0","","26","","31","","","","99.32","","","","-37","","NA"
"-94.20","72.02","FORT ROSS","2402051","2021-12-05 15:00","2021","12","05","15:00","-21.0","","","M","","M","0.0","","27","","40","","","","99.33","","","","-35","","NA"
"-94.20","72.02","FORT ROSS","2402051","2021-12-05 16:00","2021","12","05","16:00","-23.0","","","M","","M","0.0","","30","","43","","","","99.39","","","","-39","","NA"
"-94.20","72.02","FORT ROSS","2402051","2021-12-05 17:00","2021","12","05","17:00","-23.3","","","M","","M","0.0","","29","","44","","","","99.41","","","","-39","","NA"
"-94.20","72.02","FORT ROSS","2402051","2021-12-05 18:00","2021","12","05","18:00","-24.6","","","M","","M","0.0","","27","","34","","","","99.44","","","","-39","","NA"
"-94.20","72.02","FORT ROSS","2402051","2021-12-05 19:00","2021","12","05","19:00","-24.0","","","M","","M","0.0","","27","","33","","","","99.39","","","","-38","","NA"
"-94.20","72.02","FORT ROSS","2402051","2021-12-05 20:00","2021","12","05","20:00","-23.5","","","M","","M","0.0","","28","","33","","","","99.34","","","","-38","","NA"
"-94.20","72.02","FORT ROSS","2402051","2021-12-05 21:00","2021","12","05","21:00","-23.4","","","M","","M","0.0","","25","","23","","","","99.34","","","","-36","","NA"
"-94.20","72.02","FORT ROSS","2402051","2021-12-05 22:00","2021","12","05","22:00","-23.0","","","M","","M","0.0","","28","","42","","","","99.30","","","","-38","","NA"
"-94.20","72.02","FORT ROSS","2402051","2021-12-05 23:00","2021","12","05","23:00","-23.5","","","M","","M","0.0","","27","","36","","","","99.29","","","","-38","","NA"
"-94.20","72.02","FORT ROSS","2402051","2021-12-06 00:00","2021","12","06","00:00","-24.2","","","M","","M","0.0","","27","","39","","","","99.25","","","","-40","","NA"
"-94.20","72.02","FORT ROSS","2402051","2021-12-06 01:00","2021","12","06","01:00","-23.9","","","M","","M","0.0","","27","","35","","","","99.24","","","","-39","","NA"
"-94.20","72.02","FORT ROSS","2402051","2021-12-06 02:00","2021","12","06","02:00","-23.5","","","M","","M","0.0","","28","","33","","","","99.24","","","","-38","","NA"
"-94.20","72.02","FORT ROSS","2402051","2021-12-06 03:00","2021","12","06","03:00","-22.9","","","M","","M","0.0","","27","","28","","","","99.24","","","","-36","","NA"
"-94.20","72.02","FORT ROSS","2402051","2021-12-06 04:00","2021","12","06","04:00","-22.8","","","M","","M","0.0","","29","","22","","","","99.29","","","","-35","","NA"
"-94.20","72.02","FORT ROSS","2402051","2021-12-06 05:00","2021","12","06","05:00","-22.7","","","M","","M","0.0","","27","","25","","","","99.27","","","","-35","","NA"
"-94.20","72.02","FORT ROSS","2402051","2021-12-06 06:00","2021","12","06","06:00","-22.6","","","M","","M","0.0","","28","","34","","","","99.25","","","","-37","","NA"
"-94.20","72.02","FORT ROSS","2402051","2021-12-06 07:00","2021","12","06","07:00","-22.1","","","M","","M","0.0","","23","","22","","","","99.28","","","","-34","","NA"
"-94.20","72.02","FORT ROSS","2402051","2021-12-06 08:00","2021","12","06","08:00","-20.7","","","M","","M","0.0","","24","","25","","","","99.21","","","","-33","","NA"
"-94.20","72.02","FORT ROSS","2402051","2021-12-06 09:00","2021","12","06","09:00"
"-94.20","72.02","FORT ROSS","2402051","2021-12-06 10:00","2021","12","06","10:00","-18.1","","","M","","M","0.0","","31","","31","","","","99.22","","","","-30","","NA"
"-94.20","72.02","FORT ROSS","2402051","2021-12-06 11:00","2021","12","06","11:00","-17.3","","","M","","M","0.0","","29","","47","","","","99.25","","","","-31","","NA"
"-94.20","72.02","FORT ROSS","2402051","2021-12-06 12:00","2021","12","06","12:00","-16.6","","","M","","M","0.0","","29","","38","","","","99.29","","","","-29","","NA"
"-94.20","72.02","FORT ROSS","2402051","2021-12-06 13:00","2021","12","06","13:00","-16.4","","","M","","M","0.0","","28","","32","","","","99.35","","","","-28","","NA"
"-94.20","72.02","FORT ROSS","2402051","2021-12-06 14:00","2021","12","06","14:00","-14.6","","","M","","M","0.0","","28","","32","","","","99.38","","","","-26","","NA"
"-94.20","72.02","FORT ROSS","2402051","2021-12-06 15:00","2021","12","06","15:00","-15.2","","","M","","M","0.0","","28","","31","","","","99.43","","","","-26","","NA"
"-94.20","72.02","FORT ROSS","2402051","2021-12-06 16:00","2021","12","06","16:00","-15.0","","","M","","M","0.0","","25","","8","","","","99.54","","","","-20","","NA"
"-94.20","72.02","FORT ROSS","2402051","2021-12-06 17:00","2021","12","06","17:00","-16.1","","","M","","M","0.0","","32","","18","","","","99.60","","","","-25","","NA"
"-94.20","72.02","FORT ROSS","2402051","2021-12-06 18:00","2021","12","06","18:00","-16.0","","","M","","M","0.0","","28","","29","","","","99.60","","","","-27","","NA"
"-94.20","72.02","FORT ROSS","2402051","2021-12-06 19:00","2021","12","06","19:00","-18.6","","","M","","M","0.0","","25","","22","","","","99.67","","","","-29","","NA"
"-94.20","72.02","FORT ROSS","2402051","2021-12-06 20:00","2021","12","06","20:00","-18.6","","","M","","M","0.0","","25","","15","","","","99.70","","","","-27","","NA"
"-94.20","72.02","FORT ROSS","2402051","2021-12-06 21:00","2021","12","06","21:00","-20.0","","","M","","M","0.0","","27","","19","","","","99.77","","","","-30","","NA"
"-94.20","72.02","FORT ROSS","2402051","2021-12-06 22:00","2021","12","06","22:00","-20.7","","","M","","M","0.0","","24","","24","","","","99.78","","","","-32","","NA"
"-94.20","72.02","FORT ROSS","2402051","2021-12-06 23:00","2021","12","06","23:00","-20.8","","","M","","M","0.0","","25","","30","","","","99.83","","","","-34","","NA"
"-94.20","72.02","FORT ROSS","2402051","2021-12-07 00:00","2021","12","07","00:00","-19.7","","","M","","M","0.0","","26","","32","","","","99.83","","","","-33","","NA"
"-94.20","72.02","FORT ROSS","2402051","2021-12-07 01:00","2021","12","07","01:00","-15.7","","","M","","M","0.0","","30","","17","","","","99.85","","","","-24","","NA"
"-94.20","72.02","FORT ROSS","2402051","2021-12-07 02:00","2021","12","07","02:00","-20.6","","","M","","M","0.0","","27","","40","","","","99.90","","","","-35","","NA"
"-94.20","72.02","FORT ROSS","2402051","2021-12-07 03:00","2021","12","07","03:00","-21.5","","","M","","M","0.0","","26","","35","","","","99.98","","","","-35","","NA"
"-94.20","72.02","FORT ROSS","2402051","2021-12-07 04:00","2021","12","07","04:00","-21.3","","","M","","M","0.0","","26","","33","","","","100.00","","","","-35","","NA"
"-94.20","72.02","FORT ROSS","2402051","2021-12-07 05:00","2021","12","07","05:00","-20.8","","","M","","M","0.0","","25","","28","","","","100.00","","","","-33","","NA"
"-94.20","72.02","FORT ROSS","2402051","2021-12-07 06:00","2021","12","07","06:00","-19.3","","","M","","M","0.0","","25","","22","","","","99.94","","","","-30","","NA"
"-94.20","72.02","FORT ROSS","2402051","2021-12-07 07:00","2021","12","07","07:00","-18.3","","","M","","M","0.0","","28","","16","","","","99.97","","","","-27","","NA"
"-94.20","72.02","FORT ROSS","2402051","2021-12-07 08:00","2021","12","07","08:00","-18.5","","","M","","M","0.0","","30","","11","","","","99.97","","","","-26","","NA"
"-94.20","72.02","FORT ROSS","2402051","2021-12-07 09:00","2021","12","07","09:00","-18.5","","","M","","M","0.0","","30","","25","","","","100.00","","","","-30","","NA"
"-94.20","72.02","FORT ROSS","2402051","2021-12-07 10:00","2021","12","07","10:00","-19.4","","","M","","M","0.0","","28","","17","","","","100.03","","","","-29","","NA"
"-94.20","72.02","FORT ROSS","2402051","2021-12-07 11:00","2021","12","07","11:00","-18.7","","","M","","M","0.0","","32","","18","","","","100.02","","","","-28","","NA"
"-94.20","72.02","FORT ROSS","2402051","2021-12-07 12:00","2021","12","07","12:00","-19.5","","","M","","M","0.0","","27","","16","","","","100.02","","","","-29","","NA"
"-94.20","72.02","FORT ROSS","2402051","2021-12-07 13:00","2021","12","07","13:00","-20.3","","","M","","M","0.0","","24","","18","","","","100.02","","","","-30","","NA"
"-94.20","72.02","FORT ROSS","2402051","2021-12-07 14:00","2021","12","07","14:00","-20.4","","","M","","M","0.0","","25","","22","","","","100.02","","","","-31","","NA"
"-94.20","72.02","FORT ROSS","2402051","2021-12-07 15:00","2021","12","07","15:00","-20.4","","","M","","M","0.0","","23","","14","","","","100.03","","","","-29","","NA"
"-94.20","72.02","FORT ROSS","2402051","2021-12-07 16:00","2021","12","07","16:00","-20.5","","","M","","M","0.0","","26","","13","","","","100.04","","","","-29","","NA"
"-94.20","72.02","FORT ROSS","2402051","2021-12-07 17:00","2021","12","07","17:00","-19.5","","","M","","M","0.0","","28","","15","","","","100.02","","","","-28","","NA"
"-94.20","72.02","FORT ROSS","2402051","2021-12-07 18:00","2021","12","07","18:00","-19.3","","","M","","M","0.0","","31","","17","","","","99.94","","","","-29","","NA"
"-94.20","72.02","FORT ROSS","2402051","2021-12-07 19:00","2021","12","07","19:00","-20.7","","","M","","M","0.0","","36","","4","","","","99.93","","","","-24","","NA"
"-94.20","72.02","FORT ROSS","2402051","2021-12-07 20:00","2021","12","07","20:00","-20.7","","","M","","M","0.0","","30","","2","","","","99.90","","","","-22","","NA"
"-94.20","72.02","FORT ROSS","2402051","2021-12-07 21:00","2021","12","07","21:00","-20.8","","","M","","M","0.0","","30","","8","","","","99.84","","","","-27","","NA"
"-94.20","72.02","FORT ROSS","2402051","2021-12-07 22:00","2021","12","07","22:00","-20.7","","","M","","M","0.0","","7","","1","","","","99.80","","","","-22","","NA"
"-94.20","72.02","FORT ROSS","2402051","2021-12-07 23:00","2021","12","07","23:00","-22.8","","","M","","M","0.0","","1","","7","","","","99.79","","","","-29","","NA"
"-94.20","72.02","FORT ROSS","2402051","2021-12-08 00:00","2021","12","08","00:00","-22.4","","","M","","M","0.0","","0","","1","","","","99.77","","","","-23","","NA"
"-94.20","72.02","FORT ROSS","2402051","2021-12-08 01:00","2021","12","08","01:00","-21.9","","","M","","M","0.0","","9","","1","","","","99.74","","","","-23","","NA"
"-94.20","72.02","FORT ROSS","2402051","2021-12-08 02:00","2021","12","08","02:00","-22.3","","","M","","M","0.0","","26","","6","","","","99.71","","","","-28","","NA"
"-94.20","72.02","FORT ROSS","2402051","2021-12-08 03:00","2021","12","08","03:00","-20.8","","","M","","M","0.3","","28","","7","","","","99.69","","","","-27","","NA"
"-94.20","72.02","FORT ROSS","2402051","2021-12-08 04:00","2021","12","08","04:00","-20.8","","","M","","M","0.3","","26","","17","","","","99.65","","","","-31","","NA"
"-94.20","72.02","FORT ROSS","2402051","2021-12-08 05:00","2021","12","08","05:00","-22.2","","","M","","M","0.0","","33","","9","","","","99.61","","","","-29","","NA"
"-94.20","72.02","FORT ROSS","2402051","2021-12-08 06:00","2021","12","08","06:00","-23.7","","","M","","M","0.0","","35","","7","","","","99.58","","","","-30","","NA"
"-94.20","72.02","FORT ROSS","2402051","2021-12-08 07:00","2021","12","08","07:00","-22.0","","","M","","M","0.0","","31","","7","","","","99.53","","","","-28","","NA"
"-94.20","72.02","FORT ROSS","2402051","2021-12-08 08:00","2021","12","08","08:00","-23.5","","","M","","M","0.0","","36","","6","","","","99.52","","","","-29","","NA"
"-94.20","72.02","FORT ROSS","2402051","2021-12-08 09:00","2021","12","08","09:00","-22.4","","","M","","M","0.0","","26","","7","","","","99.51","","","","-28","","NA"
"-94.20","72.02","FORT ROSS","2402051","2021-12-08 10:00","2021","12","08","10:00","-22.8","","","M","","M","0.0","","25","","10","","","","99.52","","","","-31","","NA"
"-94.20","72.02","FORT ROSS","2402051","2021-12-08 11:00","2021","12","08","11:00","-22.8","","","M","","M","0.0","","25","","9","","","","99.50","","","","-30","","NA"
"-94.20","72.02","FORT ROSS","2402051","2021-12-08 12:00","2021","12","08","12:00","-22.7","","","M","","M","0.0","","22","","10","","","","99.52","","","","-30","","NA"
"-94.20","72.02","FORT ROSS","2402051","2021-12-08 13:00","2021","12","08","13:00","-23.1","","","M","","M","0.0","","26","","8","","","","99.51","","","","-30","","NA"
"-94.20","72.02","FORT ROSS","2402051","2021-12-08 14:00","2021","12","08","14:00","-22.8","","","M","","M","0.0","","23","","8","","","","99.53","","","","-30","","NA"
"-94.20","72.02","FORT ROSS","2402051","2021-12-08 15:00","2021","12","08","15:00","-22.1","","","M","","M","0.0","","22","","10","","","","99.55","","","","-30","","NA"
"-94.20","72.02","FORT ROSS","2402051","2021-12-08 16:00","2021","12","08","16:00","-22.6","","","M","","M","0.0","","19","","7","","","","99.56","","","","-29","","NA"
"-94.20","72.02","FORT ROSS","2402051","2021-12-08 17:00","2021","12","08","17:00","-22.6","","","M","","M","0.0","","15","","7","","","","99.56","","","","-29","","NA"
"-94.20","72.02","FORT ROSS","2402051","2021-12-08 18:00","2021","12","08","18:00","-22.5","","","M","","M","0.0","","17","","9","","","","99.56","","","","-30","","NA"
"-94.20","72.02","FORT ROSS","2402051","2021-12-08 19:00","2021","12","08","19:00","-22.5","","","M","","M","0.0","","22","","5","","","","99.57","","","","-27","","NA"
"-94.20","72.02","FORT ROSS","2402051","2021-12-08 20:00","2021","12","08","20:00","-22.3","","","M","","M","0.0","","22","","4","","","","99.60","","","","-26","","NA"
"-94.20","72.02","FORT ROSS","2402051","2021-12-08 21:00","2021","12","08","21:00","-22.6","","","M","","M","0.0","","15","","5","","","","99.65","","","","-27","","NA"
"-94.20","72.02","FORT ROSS","2402051","2021-12-08 22:00","2021","12","08","22:00","-22.2","","","M","","M","0.0","","19","","7","","","","99.71","","","","-28","","NA"
"-94.20","72.02","FORT ROSS","2402051","2021-12-08 23:00","2021","12","08","23:00","-22.4","","","M","","M","0.0","","23","","4","","","","99.72","","","","-26","","NA"
"-94.20","72.02","FORT ROSS","2402051","2021-12-09 00:00","2021","12","09","00:00","-22.2","","","M","","M","0.0","","18","","6","","","","99.75","","","","-28","","NA"
"-94.20","72.02","FORT ROSS","2402051","2021-12-09 01:00","2021","12","09","01:00","-22.4","","","M","","M","0.0","","25","","4","","","","99.82","","","","-26","","NA"
"-94.20","72.02","FORT ROSS","2402051","2021-12-09 02:00","2021","12","09","02:00","-21.9","","","M","","M","0.0","","25","","3","","","","99.83","","","","-25","","NA"
"-94.20","72.02","FORT ROSS","2402051","2021-12-09 03:00","2021","12","09","03:00","-21.4","","","M","","M","0.0","","17","","3","","","","99.88","","","","-24","","NA"
"-94.20","72.02","FORT ROSS","2402051","2021-12-09 04:00","2021","12","09","04:00","-21.4","","","M","","M","0.0","","1","","1","","","","99.92","","","","-22","","NA"
"-94.20","72.02","FORT ROSS","2402051","2021-12-09 05:00","2021","12","09","05:00","-21.3","","","M","","M","0.0","","2","","3","","","","99.98","","","","-24","","NA"
"-94.20","72.02","FORT ROSS","2402051","2021-12-09 06:00","2021","12","09","06:00","-21.4","","","M","","M","0.0","","1","","2","","","","99.99","","","","-23","","NA"
"-94.20","72.02","FORT ROSS","2402051","2021-12-09 07:00","2021","12","09","07:00","-21.9","","","M","","M","0.0","","2","","2","","","","100.04","","","","-24","","NA"
"-94.20","72.02","FORT ROSS","2402051","2021-12-09 08:00","2021","12","09","08:00","-21.9","","","M","","M","0.0","","2","","3","","","","100.10","","","","-25","","NA"
"-94.20","72.02","FORT ROSS","2402051","2021-12-09 09:00","2021","12","09","09:00","-21.2","","","M","","M","0.0","","35","","6","","","","100.14","","","","-26","","NA"
"-94.20","72.02","FORT ROSS","2402051","2021-12-09 10:00","2021","12","09","10:00","-20.2","","","M","","M","0.2","","0","","1","","","","100.17","","","","-21","","NA"
"-94.20","72.02","FORT ROSS","2402051","2021-12-09 11:00","2021","12","09","11:00","-20.0","","","M","","M","0.2","","","","0","","","","100.20","","","","","","NA"
"-94.20","72.02","FORT ROSS","2402051","2021-12-09 12:00","2021","12","09","12:00","-19.2","","","M","","M","0.0","","24","","4","","","","100.22","","","","-23","","NA"
"-94.20","72.02","FORT ROSS","2402051","2021-12-09 13:00","2021","12","09","13:00","-19.2","","","M","","M","0.2","","23","","5","","","","100.28","","","","-23","","NA"
"-94.20","72.02","FORT ROSS","2402051","2021-12-09 14:00","2021","12","09","14:00","-19.1","","","M","","M","0.0","","26","","5","","","","100.31","","","","-23","","NA"
"-94.20","72.02","FORT ROSS","2402051","2021-12-09 15:00","2021","12","09","15:00","-19.0","","","M","","M","0.0","","26","","5","","","","100.36","","","","-23","","NA"
"-94.20","72.02","FORT ROSS","2402051","2021-12-09 16:00","2021","12","09","16:00","-18.8","","","M","","M","0.0","","25","","8","","","","100.39","","","","-25","","NA"
"-94.20","72.02","FORT ROSS","2402051","2021-12-09 17:00","2021","12","09","17:00","-18.5","","","M","","M","0.0","","26","","6","","","","100.41","","","","-23","","NA"
"-94.20","72.02","FORT ROSS","2402051","2021-12-09 18:00","2021","12","09","18:00","-18.5","","","M","","M","0.0","","24","","6","","","","100.44","","","","-23","","NA"
"-94.20","72.02","FORT ROSS","2402051","2021-12-09 19:00","2021","12","09","19:00","-18.5","","","M","","M","0.0","","27","","1","","","","100.45","","","","-19","","NA"
"-94.20","72.02","FORT ROSS","2402051","2021-12-09 20:00","2021","12","09","20:00","-17.9","","","M","","M","0.0","","1","","6","","","","100.46","","","","-23","","NA"
"-94.20","72.02","FORT ROSS","2402051","2021-12-09 21:00","2021","12","09","21:00","-18.0","","","M","","M","0.0","","36","","4","","","","100.46","","","","-21","","NA"
"-94.20","72.02","FORT ROSS","2402051","2021-12-09 22:00","2021","12","09","22:00","-17.8","","","M","","M","0.0","","29","","6","","","","100.50","","","","-22","","NA"
"-94.20","72.02","FORT ROSS","2402051","2021-12-09 23:00","2021","12","09","23:00","-17.7","","","M","","M","0.0","","36","","2","","","","100.50","","","","-19","","NA"
"-94.20","72.02","FORT ROSS","2402051","2021-12-10 00:00","2021","12","10","00:00","-17.7","","","M","","M","0.0","","36","","2","","","","100.51","","","","-19","","NA"
"-94.20","72.02","FORT ROSS","2402051","2021-12-10 01:00","2021","12","10","01:00","-17.4","","","M","","M","0.0","","9","","4","","","","100.51","","","","-21","","NA"
"-94.20","72.02","FORT ROSS","2402051","2021-12-10 02:00","2021","12","10","02:00","-17.4","","","M","","M","0.0","","18","","6","","","","100.54","","","","-22","","NA"
"-94.20","72.02","FORT ROSS","2402051","2021-12-10 03:00","2021","12","10","03:00","-17.7","","","M","","M","0.0","","21","","6","","","","100.57","","","","-22","","NA"
"-94.20","72.02","FORT ROSS","2402051","2021-12-10 04:00","2021","12","10","04:00","-17.9","","","M","","M","0.0","","18","","7","","","","100.57","","","","-23","","NA"
"-94.20","72.02","FORT ROSS","2402051","2021-12-10 05:00","2021","12","10","05:00","-18.6","","","M","","M","0.0","","18","","11","","","","100.59","","","","-26","","NA"
"-94.20","72.02","FORT ROSS","2402051","2021-12-10 06:00","2021","12","10","06:00","-18.9","","","M","","M","0.0","","20","","8","","","","100.58","","","","-25","","NA"
"-94.20","72.02","FORT ROSS","2402051","2021-12-10 07:00","2021","12","10","07:00","-18.7","","","M","","M","0.0","","20","","5","","","","100.58","","","","-23","","NA"
"-94.20","72.02","FORT ROSS","2402051","2021-12-10 08:00","2021","12","10","08:00","-19.0","","","M","","M","0.0","","17","","9","","","","100.57","","","","-26","","NA"
"-94.20","72.02","FORT ROSS","2402051","2021-12-10 09:00","2021","12","10","09:00","-19.0","","","M","","M","0.0","","19","","6","","","","100.57","","","","-24","","NA"
"-94.20","72.02","FORT ROSS","2402051","2021-12-10 10:00","2021","12","10","10:00","-18.9","","","M","","M","0.0","","19","","4","","","","100.57","","","","-22","","NA"
"-94.20","72.02","FORT ROSS","2402051","2021-12-10 11:00","2021","12","10","11:00","-18.6","","","M","","M","0.0","","20","","3","","","","100.56","","","","-21","","NA"
"-94.20","72.02","FORT ROSS","2402051","2021-12-10 12:00","2021","12","10","12:00","-19.0","","","M","","M","0.0","","18","","6","","","","100.59","","","","-24","","NA"
"-94.20","72.02","FORT ROSS","2402051","2021-12-10 13:00","2021","12","10","13:00","-18.6","","","M","","M","0.0","","20","","5","","","","100.61","","","","-23","","NA"
"-94.20","72.02","FORT ROSS","2402051","2021-12-10 14:00","2021","12","10","14:00","-18.9","","","M","","M","0.0","","19","","8","","","","100.62","","","","-25","","NA"
"-94.20","72.02","FORT ROSS","2402051","2021-12-10 15:00","2021","12","10","15:00","-19.1","","","M","","M","0.0","","21","","5","","","","100.62","","","","-23","","NA"
"-94.20","72.02","FORT ROSS","2402051","2021-12-10 16:00","2021","12","10","16:00","-18.6","","","M","","M","0.0","","23","","4","","","","100.62","","","","-22","","NA"
"-94.20","72.02","FORT ROSS","2402051","2021-12-10 17:00","2021","12","10","17:00","-18.9","","","M","","M","0.0","","22","","4","","","","100.63","","","","-22","","NA"
"-94.20","72.02","FORT ROSS","2402051","2021-12-10 18:00","2021","12","10","18:00","-19.0","","","M","","M","0.0","","23","","3","","","","100.60","","","","-21","","NA"
"-94.20","72.02","FORT ROSS","2402051","2021-12-10 19:00","2021","12","10","19:00","-18.8","","","M","","M","0.0","","","","0","","","","100.60","","","","","","NA"
"-94.20","72.02","FORT ROSS","2402051","2021-12-10 20:00","2021","12","10","20:00","-18.9","","","M","","M","0.0","","25","","1","","","","100.59","","","","-20","","NA"
"-94.20","72.02","FORT ROSS","2402051","2021-12-10 21:00","2021","12","10","21:00","-18.9","","","M","","M","0.0","","","","0","","","","100.60","","","","","","NA"
"-94.20","72.02","FORT ROSS","2402051","2021-12-10 22:00","2021","12","10","22:00","-18.9","","","M","","M","0.0","","17","","2","","","","100.60","","","","-21","","NA"
"-94.20","72.02","FORT ROSS","2402051","2021-12-10 23:00","2021","12","10","23:00","-19.0","","","M","","M","0.0","","6","","2","","","","100.59","","","","-21","","NA"
"-94.20","72.02","FORT ROSS","2402051","2021-12-11 00:00","2021","12","11","00:00","-19.2","","","M","","M","0.0","","14","","1","","","","100.60","","","","-20","","NA"
"-94.20","72.02","FORT ROSS","2402051","2021-12-11 01:00","2021","12","11","01:00","-19.2","","","M","","M","0.0","","","","0","","","","100.60","","","","","","NA"
"-94.20","72.02","FORT ROSS","2402051","2021-12-11 02:00","2021","12","11","02:00","-19.2","","","M","","M","0.0","","27","","2","","","","100.60","","","","-21","","NA"
"-94.20","72.02","FORT ROSS","2402051","2021-12-11 03:00","2021","12","11","03:00","-19.0","","","M","","M","0.0","","","","0","","","","100.61","","","","","","NA"
"-94.20","72.02","FORT ROSS","2402051","2021-12-11 04:00","2021","12","11","04:00","-18.9","","","M","","M","0.0","","","","0","","","","100.60","","","","","","NA"
"-94.20","72.02","FORT ROSS","2402051","2021-12-11 05:00","2021","12","11","05:00","-18.8","","","M","","M","0.0","","","","0","","","","100.57","","","","","","NA"
"-94.20","72.02","FORT ROSS","2402051","2021-12-11 06:00","2021","12","11","06:00","-19.5","","","M","","M","0.0","","23","","2","","","","100.55","","","","-21","","NA"
"-94.20","72.02","FORT ROSS","2402051","2021-12-11 07:00","2021","12","11","07:00","-19.5","","","M","","M","0.0","","","","0","","","","100.56","","","","","","NA"
"-94.20","72.02","FORT ROSS","2402051","2021-12-11 08:00","2021","12","11","08:00","-19.3","","","M","","M","0.0","","","","0","","","","100.57","","","","","","NA"
"-94.20","72.02","FORT ROSS","2402051","2021-12-11 09:00","2021","12","11","09:00","-19.8","","","M","","M","0.0","","24","","1","","","","100.55","","","","-21","","NA"
"-94.20","72.02","FORT ROSS","2402051","2021-12-11 10:00","2021","12","11","10:00","-20.3","","","M","","M","0.0","","","","0","","","","100.54","","","","","","NA"
"-94.20","72.02","FORT ROSS","2402051","2021-12-11 11:00","2021","12","11","11:00","-20.3","","","M","","M","0.4","","15","","2","","","","100.54","","","","-22","","NA"
"-94.20","72.02","FORT ROSS","2402051","2021-12-11 12:00","2021","12","11","12:00","-19.9","","","M","","M","0.0","","","","0","","","","100.54","","","","","","NA"
"-94.20","72.02","FORT ROSS","2402051","2021-12-11 13:00","2021","12","11","13:00","-19.6","","","M","","M","0.2","","23","","2","","","","100.53","","","","-21","","NA"
"-94.20","72.02","FORT ROSS","2402051","2021-12-11 14:00","2021","12","11","14:00","-19.9","","","M","","M","0.0","","22","","1","","","","100.54","","","","-21","","NA"
"-94.20","72.02","FORT ROSS","2402051","2021-12-11 15:00","2021","12","11","15:00","-19.7","","","M","","M","0.0","","0","","1","","","","100.55","","","","-21","","NA"
"-94.20","72.02","FORT ROSS","2402051","2021-12-11 16:00","2021","12","11","16:00","-19.7","","","M","","M","0.0","","","","0","","","","100.56","","","","","","NA"
"-94.20","72.02","FORT ROSS","2402051","2021-12-11 17:00","2021","12","11","17:00","-19.0","","","M","","M","0.0","","34","","2","","","","100.56","","","","-21","","NA"
"-94.20","72.02","FORT ROSS","2402051","2021-12-11 18:00","2021","12","11","18:00","-19.1","","","M","","M","0.0","","36","","2","","","","100.55","","","","-21","","NA"
"-94.20","72.02","FORT ROSS","2402051","2021-12-11 19:00","2021","12","11","19:00","-19.1","","","M","","M","0.0","","","","0","","","","100.54","","","","","","NA"
"-94.20","72.02","FORT ROSS","2402051","2021-12-11 20:00","2021","12","11","20:00","-20.9","","","M","","M","0.0","","2","","3","","","","100.54","","","","-24","","NA"
"-94.20","72.02","FORT ROSS","2402051","2021-12-11 21:00","2021","12","11","21:00","-21.7","","","M","","M","0.0","","36","","3","","","","100.55","","","","-24","","NA"
"-94.20","72.02","FORT ROSS","2402051","2021-12-11 22:00","2021","12","11","22:00","-20.6","","","M","","M","0.0","","0","","1","","","","100.55","","","","-21","","NA"
"-94.20","72.02","FORT ROSS","2402051","2021-12-11 23:00","2021","12","11","23:00","-20.4","","","M","","M","0.0","","","","0","","","","100.58","","","","","","NA"
"-94.20","72.02","FORT ROSS","2402051","2021-12-12 00:00","2021","12","12","00:00","-21.1","","","M","","M","0.0","","1","","2","","","","100.57","","","","-23","","NA"
"-94.20","72.02","FORT ROSS","2402051","2021-12-12 01:00","2021","12","12","01:00","-21.1","","","M","","M","0.0","","1","","3","","","","100.57","","","","-24","","NA"
"-94.20","72.02","FORT ROSS","2402051","2021-12-12 02:00","2021","12","12","02:00","-22.0","","","M","","M","0.0","","","","0","","","","100.60","","","","","","NA"
"-94.20","72.02","FORT ROSS","2402051","2021-12-12 03:00","2021","12","12","03:00","-20.9","","","M","","M","0.0","","","","0","","","","100.63","","","","","","NA"
"-94.20","72.02","FORT ROSS","2402051","2021-12-12 04:00","2021","12","12","04:00","-20.8","","","M","","M","0.0","","1","","2","","","","100.62","","","","-23","","NA"
"-94.20","72.02","FORT ROSS","2402051","2021-12-12 05:00","2021","12","12","05:00","-20.5","","","M","","M","0.0","","34","","1","","","","100.62","","","","-21","","NA"
"-94.20","72.02","FORT ROSS","2402051","2021-12-12 06:00","2021","12","12","06:00","-20.3","","","M","","M","0.2","","","","0","","","","100.58","","","","","","NA"
"-94.20","72.02","FORT ROSS","2402051","2021-12-12 07:00","2021","12","12","07:00","-18.8","","","M","","M","0.2","","24","","2","","","","100.57","","","","-20","","NA"
"-94.20","72.02","FORT ROSS","2402051","2021-12-12 08:00","2021","12","12","08:00","-19.6","","","M","","M","0.0","","","","0","","","","100.59","","","","","","NA"
"-94.20","72.02","FORT ROSS","2402051","2021-12-12 09:00","2021","12","12","09:00","-18.9","","","M","","M","0.0","","20","","3","","","","100.61","","","","-21","","NA"
"-94.20","72.02","FORT ROSS","2402051","2021-12-12 10:00","2021","12","12","10:00","-18.2","","","M","","M","0.0","","24","","10","","","","100.61","","","","-25","","NA"
"-94.20","72.02","FORT ROSS","2402051","2021-12-12 11:00","2021","12","12","11:00","-18.8","","","M","","M","0.0","","27","","2","","","","100.62","","","","-20","","NA"
"-94.20","72.02","FORT ROSS","2402051","2021-12-12 12:00","2021","12","12","12:00","-18.3","","","M","","M","0.0","","35","","2","","","","100.63","","","","-20","","NA"
"-94.20","72.02","FORT ROSS","2402051","2021-12-12 13:00","2021","12","12","13:00","-18.0","","","M","","M","0.0","","","","0","","","","100.65","","","","","","NA"
"-94.20","72.02","FORT ROSS","2402051","2021-12-12 14:00","2021","12","12","14:00","-18.2","","","M","","M","0.0","","0","","1","","","","100.68","","","","-19","","NA"
"-94.20","72.02","FORT ROSS","2402051","2021-12-12 15:00","2021","12","12","15:00","-18.9","","","M","","M","0.0","","0","","1","","","","100.70","","","","-20","","NA"
"-94.20","72.02","FORT ROSS","2402051","2021-12-12 16:00","2021","12","12","16:00","-17.8","","","M","","M","0.0","","26","","3","","","","100.71","","","","-20","","NA"
"-94.20","72.02","FORT ROSS","2402051","2021-12-12 17:00","2021","12","12","17:00","-17.6","","","M","","M","0.0","","28","","4","","","","100.73","","","","-21","","NA"
"-94.20","72.02","FORT ROSS","2402051","2021-12-12 18:00","2021","12","12","18:00","-17.7","","","M","","M","0.0","","4","","6","","","","100.72","","","","-22","","NA"
"-94.20","72.02","FORT ROSS","2402051","2021-12-12 19:00","2021","12","12","19:00","-17.6","","","M","","M","0.0","","27","","9","","","","100.69","","","","-24","","NA"
"-94.20","72.02","FORT ROSS","2402051","2021-12-12 20:00","2021","12","12","20:00","-16.9","","","M","","M","0.0","","23","","12","","","","100.65","","","","-24","","NA"
"-94.20","72.02","FORT ROSS","2402051","2021-12-12 21:00","2021","12","12","21:00","-16.4","","","M","","M","0.0","","30","","3","","","","100.67","","","","-19","","NA"
"-94.20","72.02","FORT ROSS","2402051","2021-12-12 22:00","2021","12","12","22:00","-16.4","","","M","","M","0.0","","27","","5","","","","100.63","","","","-20","","NA"
"-94.20","72.02","FORT ROSS","2402051","2021-12-12 23:00","2021","12","12","23:00","-16.6","","","M","","M","0.0","","25","","18","","","","100.59","","","","-26","","NA"
"-94.20","72.02","FORT ROSS","2402051","2021-12-13 00:00","2021","12","13","00:00","-16.6","","","M","","M","0.0","","26","","23","","","","100.59","","","","-27","","NA"
"-94.20","72.02","FORT ROSS","2402051","2021-12-13 01:00","2021","12","13","01:00","-16.4","","","M","","M","0.0","","29","","20","","","","100.58","","","","-26","","NA"
"-94.20","72.02","FORT ROSS","2402051","2021-12-13 02:00","2021","12","13","02:00","-16.0","","","M","","M","0.0","","26","","18","","","","100.58","","","","-25","","NA"
"-94.20","72.02","FORT ROSS","2402051","2021-12-13 03:00","2021","12","13","03:00","-16.2","","","M","","M","0.0","","29","","17","","","","100.58","","","","-25","","NA"
"-94.20","72.02","FORT ROSS","2402051","2021-12-13 04:00","2021","12","13","04:00","-16.6","","","M","","M","0.0","","27","","22","","","","100.57","","","","-27","","NA"
"-94.20","72.02","FORT ROSS","2402051","2021-12-13 05:00","2021","12","13","05:00","-16.6","","","M","","M","0.0","","26","","5","","","","100.56","","","","-20","","NA"
"-94.20","72.02","FORT ROSS","2402051","2021-12-13 06:00","2021","12","13","06:00","-17.0","","","M","","M","0.0","","31","","5","","","","100.53","","","","-21","","NA"
"-94.20","72.02","FORT ROSS","2402051","2021-12-13 07:00","2021","12","13","07:00","-18.2","","","M","","M","0.0","","29","","36","","","","100.49","","","","-31","","NA"
"-94.20","72.02","FORT ROSS","2402051","2021-12-13 08:00","2021","12","13","08:00","-18.4","","","M","","M","0.0","","28","","34","","","","100.50","","","","-31","","NA"
"-94.20","72.02","FORT ROSS","2402051","2021-12-13 09:00","2021","12","13","09:00","-19.0","","","M","","M","0.0","","29","","46","","","","100.44","","","","-34","","NA"
"-94.20","72.02","FORT ROSS","2402051","2021-12-13 10:00","2021","12","13","10:00","-19.2","","","M","","M","0.0","","29","","47","","","","100.41","","","","-34","","NA"
"-94.20","72.02","FORT ROSS","2402051","2021-12-13 11:00","2021","12","13","11:00","-19.1","","","M","","M","0.0","","25","","37","","","","100.41","","","","-33","","NA"
"-94.20","72.02","FORT ROSS","2402051","2021-12-13 12:00","2021","12","13","12:00","-19.0","","","M","","M","0.0","","29","","46","","","","100.37","","","","-34","","NA"
"-94.20","72.02","FORT ROSS","2402051","2021-12-13 13:00","2021","12","13","13:00","-18.8","","","M","","M","0.0","","29","","46","","","","100.41","","","","-33","","NA"
"-94.20","72.02","FORT ROSS","2402051","2021-12-13 14:00","2021","12","13","14:00","-18.9","","","M","","M","0.0","","28","","43","","","","100.43","","","","-33","","NA"
"-94.20","72.02","FORT ROSS","2402051","2021-12-13 15:00","2021","12","13","15:00","-19.1","","","M","","M","0.0","","25","","41","","","","100.44","","","","-33","","NA"
"-94.20","72.02","FORT ROSS","2402051","2021-12-13 16:00","2021","12","13","16:00","-19.4","","","M","","M","0.0","","27","","48","","","","100.37","","","","-34","","NA"
"-94.20","72.02","FORT ROSS","2402051","2021-12-13 17:00","2021","12","13","17:00","-19.7","","","M","","M","0.0","","28","","55","","","","100.36","","","","-36","","NA"
"-94.20","72.02","FORT ROSS","2402051","2021-12-13 18:00","2021","12","13","18:00","-19.5","","","M","","M","0.0","","29","","50","","","","100.31","","","","-35","","NA"
"-94.20","72.02","FORT ROSS","2402051","2021-12-13 19:00","2021","12","13","19:00","-20.1","","","M","","M","0.0","","26","","49","","","","100.28","","","","-35","","NA"
"-94.20","72.02","FORT ROSS","2402051","2021-12-13 20:00","2021","12","13","20:00","-21.1","","","M","","M","0.0","","25","","43","","","","100.27","","","","-36","","NA"
"-94.20","72.02","FORT ROSS","2402051","2021-12-13 21:00","2021","12","13","21:00","-21.8","","","M","","M","0.0","","28","","46","","","","100.23","","","","-37","","NA"
"-94.20","72.02","FORT ROSS","2402051","2021-12-13 22:00","2021","12","13","22:00","-22.7","","","M","","M","0.0","","27","","44","","","","100.24","","","","-38","","NA"
"-94.20","72.02","FORT ROSS","2402051","2021-12-13 23:00","2021","12","13","23:00","-22.1","","","M","","M","0.0","","28","","45","","","","100.24","","","","-38","","NA"
"-94.20","72.02","FORT ROSS","2402051","2021-12-14 00:00","2021","12","14","00:00","-22.5","","","M","","M","0.0","","27","","45","","","","100.21","","","","-38","","NA"
"-94.20","72.02","FORT ROSS","2402051","2021-12-14 01:00","2021","12","14","01:00","-23.8","","","M","","M","0.0","","25","","23","","","","100.30","","","","-36","","NA"
"-94.20","72.02","FORT ROSS","2402051","2021-12-14 02:00","2021","12","14","02:00","-24.4","","","M","","M","0.0","","29","","44","","","","100.39","","","","-41","","NA"
"-94.20","72.02","FORT ROSS","2402051","2021-12-14 03:00","2021","12","14","03:00","-23.9","","","M","","M","0.0","","32","","16","","","","100.51","","","","-34","","NA"
"-94.20","72.02","FORT ROSS","2402051","2021-12-14 04:00","2021","12","14","04:00","-23.6","","","M","","M","0.0","","26","","24","","","","100.53","","","","-36","","NA"
"-94.20","72.02","FORT ROSS","2402051","2021-12-14 05:00","2021","12","14","05:00","-22.3","","","M","","M","0.0","","29","","38","","","","100.50","","","","-37","","NA"
"-94.20","72.02","FORT ROSS","2402051","2021-12-14 06:00","2021","12","14","06:00","-21.2","","","M","","M","0.0","","29","","47","","","","100.51","","","","-37","","NA"
"-94.20","72.02","FORT ROSS","2402051","2021-12-14 07:00","2021","12","14","07:00","-20.9","","","M","","M","0.0","","29","","27","","","","100.59","","","","-33","","NA"
"-94.20","72.02","FORT ROSS","2402051","2021-12-14 08:00","2021","12","14","08:00","-20.5","","","M","","M","0.0","","29","","30","","","","100.62","","","","-33","","NA"
"-94.20","72.02","FORT ROSS","2402051","2021-12-14 09:00","2021","12","14","09:00","-20.2","","","M","","M","0.0","","31","","38","","","","100.62","","","","-34","","NA"
"-94.20","72.02","FORT ROSS","2402051","2021-12-14 10:00","2021","12","14","10:00","-20.2","","","M","","M","0.0","","28","","17","","","","100.72","","","","-30","","NA"
"-94.20","72.02","FORT ROSS","2402051","2021-12-14 11:00","2021","12","14","11:00","-20.2","","","M","","M","0.0","","29","","34","","","","100.70","","","","-34","","NA"
"-94.20","72.02","FORT ROSS","2402051","2021-12-14 12:00","2021","12","14","12:00","-20.4","","","M","","M","0.0","","27","","17","","","","100.86","","","","-30","","NA"
"-94.20","72.02","FORT ROSS","2402051","2021-12-14 13:00","2021","12","14","13:00","-20.4","","","M","","M","0.0","","28","","34","","","","100.92","","","","-34","","NA"
"-94.20","72.02","FORT ROSS","2402051","2021-12-14 14:00","2021","12","14","14:00","-20.3","","","M","","M","0.0","","27","","32","","","","101.01","","","","-33","","NA"
"-94.20","72.02","FORT ROSS","2402051","2021-12-14 15:00","2021","12","14","15:00","-20.8","","","M","","M","0.0","","27","","31","","","","101.05","","","","-34","","NA"
"-94.20","72.02","FORT ROSS","2402051","2021-12-14 16:00","2021","12","14","16:00","-20.4","","","M","","M","0.0","","28","","58","","","","101.01","","","","-37","","NA"
"-94.20","72.02","FORT ROSS","2402051","2021-12-14 17:00","2021","12","14","17:00","-20.2","","","M","","M","0.0","","27","","23","","","","101.21","","","","-31","","NA"
"-94.20","72.02","FORT ROSS","2402051","2021-12-14 18:00","2021","12","14","18:00","-20.1","","","M","","M","0.0","","27","","27","","","","101.27","","","","-32","","NA"
"-94.20","72.02","FORT ROSS","2402051","2021-12-14 19:00","2021","12","14","19:00","-19.8","","","M","","M","0.0","","27","","32","","","","101.28","","","","-33","","NA"
"-94.20","72.02","FORT ROSS","2402051","2021-12-14 20:00","2021","12","14","20:00","-20.9","","","M","","M","0.0","","26","","29","","","","101.31","","","","-34","","NA"
"-94.20","72.02","FORT ROSS","2402051","2021-12-14 21:00","2021","12","14","21:00","-21.5","","","M","","M","0.0","","25","","31","","","","101.35","","","","-35","","NA"
"-94.20","72.02","FORT ROSS","2402051","2021-12-14 22:00","2021","12","14","22:00","-22.5","","","M","","M","0.0","","26","","30","","","","101.41","","","","-36","","NA"
"-94.20","72.02","FORT ROSS","2402051","2021-12-14 23:00","2021","12","14","23:00","-23.2","","","M","","M","0.0","","28","","28","","","","101.42","","","","-36","","NA"
"-94.20","72.02","FORT ROSS","2402051","2021-12-15 00:00","2021","12","15","00:00","-23.6","","","M","","M","0.0","","23","","30","","","","101.48","","","","-37","","NA"
"-94.20","72.02","FORT ROSS","2402051","2021-12-15 01:00","2021","12","15","01:00","-23.7","","","M","","M","0.0","","25","","30","","","","101.47","","","","-37","","NA"
"-94.20","72.02","FORT ROSS","2402051","2021-12-15 02:00","2021","12","15","02:00","-24.2","","","M","","M","0.0","","25","","37","","","","101.50","","","","-39","","NA"
"-94.20","72.02","FORT ROSS","2402051","2021-12-15 03:00","2021","12","15","03:00","-25.7","","","M","","M","0.0","","25","","40","","","","101.50","","","","-42","","NA"
"-94.20","72.02","FORT ROSS","2402051","2021-12-15 04:00","2021","12","15","04:00","-25.8","","","M","","M","0.0","","27","","32","","","","101.52","","","","-41","","NA"
"-94.20","72.02","FORT ROSS","2402051","2021-12-15 05:00","2021","12","15","05:00","-26.3","","","M","","M","0.0","","26","","42","","","","101.55","","","","-43","","NA"
"-94.20","72.02","FORT ROSS","2402051","2021-12-15 06:00","2021","12","15","06:00","-26.0","","","M","","M","0.0","","26","","43","","","","101.48","","","","-43","","NA"
"-94.20","72.02","FORT ROSS","2402051","2021-12-15 07:00","2021","12","15","07:00","-26.1","","","M","","M","0.0","","27","","64","","","","101.34","","","","-45","","NA"
"-94.20","72.02","FORT ROSS","2402051","2021-12-15 08:00","2021","12","15","08:00","-26.3","","","M","","M","0.0","","26","","61","","","","101.38","","","","-45","","NA"
"-94.20","72.02","FORT ROSS","2402051","2021-12-15 09:00","2021","12","15","09:00","-26.1","","","M","","M","0.0","","27","","58","","","","101.36","","","","-45","","NA"
"-94.20","72.02","FORT ROSS","2402051","2021-12-15 10:00","2021","12","15","10:00","-25.4","","","M","","M","0.0","","26","","38","","","","101.61","","","","-41","","NA"
"-94.20","72.02","FORT ROSS","2402051","2021-12-15 11:00","2021","12","15","11:00","-26.9","","","M","","M","0.0","","25","","38","","","","101.64","","","","-43","","NA"
"-94.20","72.02","FORT ROSS","2402051","2021-12-15 12:00","2021","12","15","12:00","-27.2","","","M","","M","0.0","","26","","30","","","","101.70","","","","-42","","NA"
"-94.20","72.02","FORT ROSS","2402051","2021-12-15 13:00","2021","12","15","13:00","-27.3","","","M","","M","0.0","","26","","31","","","","101.71","","","","-42","","NA"
"-94.20","72.02","FORT ROSS","2402051","2021-12-15 14:00","2021","12","15","14:00","-26.8","","","M","","M","0.0","","24","","25","","","","101.78","","","","-40","","NA"
"-94.20","72.02","FORT ROSS","2402051","2021-12-15 15:00","2021","12","15","15:00","-27.3","","","M","","M","0.0","","25","","24","","","","101.78","","","","-41","","NA"
"-94.20","72.02","FORT ROSS","2402051","2021-12-15 16:00","2021","12","15","16:00","-26.3","","","M","","M","0.0","","25","","31","","","","101.79","","","","-41","","NA"
"-94.20","72.02","FORT ROSS","2402051","2021-12-15 17:00","2021","12","15","17:00","-27.0","","","M","","M","0.0","","25","","33","","","","101.76","","","","-42","","NA"
"-94.20","72.02","FORT ROSS","2402051","2021-12-15 18:00","2021","12","15","18:00","-27.2","","","M","","M","0.0","","26","","36","","","","101.74","","","","-43","","NA"
"-94.20","72.02","FORT ROSS","2402051","2021-12-15 19:00","2021","12","15","19:00","-27.1","","","M","","M","0.0","","19","","27","","","","101.71","","","","-41","","NA"
"-94.20","72.02","FORT ROSS","2402051","2021-12-15 20:00","2021","12","15","20:00","-28.0","","","M","","M","0.0","","26","","39","","","","101.66","","","","-45","","NA"
"-94.20","72.02","FORT ROSS","2402051","2021-12-15 21:00","2021","12","15","21:00","-27.2","","","M","","M","0.0","","23","","29","","","","101.68","","","","-42","","NA"
"-94.20","72.02","FORT ROSS","2402051","2021-12-15 22:00","2021","12","15","22:00","-27.7","","","M","","M","0.0","","28","","32","","","","101.65","","","","-43","","NA"
"-94.20","72.02","FORT ROSS","2402051","2021-12-15 23:00","2021","12","15","23:00","-27.0","","","M","","M","0.0","","26","","31","","","","101.64","","","","-42","","NA"
"-94.20","72.02","FORT ROSS","2402051","2021-12-16 00:00","2021","12","16","00:00","-26.5","","","M","","M","0.0","","28","","48","","","","101.57","","","","-44","","NA"
"-94.20","72.02","FORT ROSS","2402051","2021-12-16 01:00","2021","12","16","01:00","-26.4","","","M","","M","0.0","","28","","51","","","","101.52","","","","-44","","NA"
"-94.20","72.02","FORT ROSS","2402051","2021-12-16 02:00","2021","12","16","02:00","-27.0","","","M","","M","0.0","","27","","20","","","","101.66","","","","-39","","NA"
"-94.20","72.02","FORT ROSS","2402051","2021-12-16 03:00","2021","12","16","03:00","-27.6","","","M","","M","0.0","","27","","32","","","","101.62","","","","-43","","NA"
"-94.20","72.02","FORT ROSS","2402051","2021-12-16 04:00","2021","12","16","04:00","-27.0","","","M","","M","0.0","","27","","34","","","","101.60","","","","-42","","NA"
"-94.20","72.02","FORT ROSS","2402051","2021-12-16 05:00","2021","12","16","05:00","-27.4","","","M","","M","0.0","","26","","39","","","","101.54","","","","-44","","NA"
"-94.20","72.02","FORT ROSS","2402051","2021-12-16 06:00","2021","12","16","06:00","-26.0","","","M","","M","0.0","","28","","31","","","","101.51","","","","-41","","NA"
"-94.20","72.02","FORT ROSS","2402051","2021-12-16 07:00","2021","12","16","07:00","-26.6","","","M","","M","0.0","","24","","38","","","","101.52","","","","-43","","NA"
"-94.20","72.02","FORT ROSS","2402051","2021-12-16 08:00","2021","12","16","08:00","-27.3","","","M","","M","0.0","","26","","35","","","","101.51","","","","-43","","NA"
"-94.20","72.02","FORT ROSS","2402051","2021-12-16 09:00","2021","12","16","09:00","-27.4","","","M","","M","0.0","","28","","44","","","","101.45","","","","-45","","NA"
"-94.20","72.02","FORT ROSS","2402051","2021-12-16 10:00","2021","12","16","10:00","-28.3","","","M","","M","0.0","","26","","42","","","","101.47","","","","-46","","NA"
"-94.20","72.02","FORT ROSS","2402051","2021-12-16 11:00","2021","12","16","11:00","-27.6","","","M","","M","0.0","","28","","45","","","","101.40","","","","-45","","NA"
"-94.20","72.02","FORT ROSS","2402051","2021-12-16 12:00","2021","12","16","12:00","-26.4","","","M","","M","0.0","","29","","39","","","","101.41","","","","-43","","NA"
"-94.20","72.02","FORT ROSS","2402051","2021-12-16 13:00","2021","12","16","13:00","-24.9","","","M","","M","0.0","","30","","39","","","","101.35","","","","-41","","NA"
"-94.20","72.02","FORT ROSS","2402051","2021-12-16 14:00","2021","12","16","14:00","-24.9","","","M","","M","0.0","","30","","27","","","","101.40","","","","-38","","NA"
"-94.20","72.02","FORT ROSS","2402051","2021-12-16 15:00","2021","12","16","15:00","-24.7","","","M","","M","0.0","","30","","32","","","","101.36","","","","-39","","NA"
"-94.20","72.02","FORT ROSS","2402051","2021-12-16 16:00","2021","12","16","16:00","-26.5","","","M","","M","0.0","","25","","41","","","","101.35","","","","-43","","NA"
"-94.20","72.02","FORT ROSS","2402051","2021-12-16 17:00","2021","12","16","17:00","-26.7","","","M","","M","0.0","","26","","42","","","","101.33","","","","-43","","NA"
"-94.20","72.02","FORT ROSS","2402051","2021-12-16 18:00","2021","12","16","18:00","-26.5","","","M","","M","0.0","","28","","38","","","","101.32","","","","-43","","NA"
"-94.20","72.02","FORT ROSS","2402051","2021-12-16 19:00","2021","12","16","19:00","-26.6","","","M","","M","0.0","","27","","31","","","","101.33","","","","-41","","NA"
"-94.20","72.02","FORT ROSS","2402051","2021-12-16 20:00","2021","12","16","20:00","-27.3","","","M","","M","0.0","","27","","38","","","","101.34","","","","-44","","NA"
"-94.20","72.02","FORT ROSS","2402051","2021-12-16 21:00","2021","12","16","21:00","-26.9","","","M","","M","0.0","","28","","34","","","","101.34","","","","-42","","NA"
"-94.20","72.02","FORT ROSS","2402051","2021-12-16 22:00","2021","12","16","22:00","-26.7","","","M","","M","0.0","","29","","27","","","","101.35","","","","-41","","NA"
"-94.20","72.02","FORT ROSS","2402051","2021-12-16 23:00","2021","12","16","23:00","-28.2","","","M","","M","0.0","","27","","37","","","","101.33","","","","-45","","NA"
"-94.20","72.02","FORT ROSS","2402051","2021-12-17 00:00","2021","12","17","00:00","-28.6","","","M","","M","0.0","","27","","38","","","","101.36","","","","-45","","NA"
"-94.20","72.02","FORT ROSS","2402051","2021-12-17 01:00","2021","12","17","01:00","-28.8","","","M","","M","0.0","","28","","43","","","","101.39","","","","-46","","NA"
"-94.20","72.02","FORT ROSS","2402051","2021-12-17 02:00","2021","12","17","02:00","-28.5","","","M","","M","0.0","","26","","25","","","","101.47","","","","-43","","NA"
"-94.20","72.02","FORT ROSS","2402051","2021-12-17 03:00","2021","12","17","03:00","-27.5","","","M","","M","0.0","","27","","26","","","","101.50","","","","-41","","NA"
"-94.20","72.02","FORT ROSS","2402051","2021-12-17 04:00","2021","12","17","04:00","-27.3","","","M","","M","0.0","","29","","34","","","","101.50","","","","-43","","NA"
"-94.20","72.02","FORT ROSS","2402051","2021-12-17 05:00","2021","12","17","05:00","-28.0","","","M","","M","0.0","","27","","38","","","","101.49","","","","-44","","NA"
"-94.20","72.02","FORT ROSS","2402051","2021-12-17 06:00","2021","12","17","06:00","-28.1","","","M","","M","0.0","","29","","37","","","","101.52","","","","-44","","NA"
"-94.20","72.02","FORT ROSS","2402051","2021-12-17 07:00","2021","12","17","07:00","-25.6","","","M","","M","0.0","","28","","27","","","","101.55","","","","-39","","NA"
"-94.20","72.02","FORT ROSS","2402051","2021-12-17 08:00","2021","12","17","08:00","-25.7","","","M","","M","0.0","","29","","21","","","","101.61","","","","-38","","NA"
"-94.20","72.02","FORT ROSS","2402051","2021-12-17 09:00","2021","12","17","09:00","-26.9","","","M","","M","0.0","","18","","8","","","","101.64","","","","-34","","NA"
"-94.20","72.02","FORT ROSS","2402051","2021-12-17 10:00","2021","12","17","10:00","-27.0","","","M","","M","0.0","","27","","24","","","","101.67","","","","-40","","NA"
"-94.20","72.02","FORT ROSS","2402051","2021-12-17 11:00","2021","12","17","11:00","-27.7","","","M","","M","0.0","","26","","34","","","","101.70","","","","-43","","NA"
"-94.20","72.02","FORT ROSS","2402051","2021-12-17 12:00","2021","12","17","12:00","-27.8","","","M","","M","0.0","","26","","37","","","","101.69","","","","-44","","NA"
"-94.20","72.02","FORT ROSS","2402051","2021-12-17 13:00","2021","12","17","13:00","-28.1","","","M","","M","0.0","","25","","31","","","","101.75","","","","-43","","NA"
"-94.20","72.02","FORT ROSS","2402051","2021-12-17 14:00","2021","12","17","14:00","-26.7","","","M","","M","0.0","","25","","12","","","","101.80","","","","-36","","NA"
"-94.20","72.02","FORT ROSS","2402051","2021-12-17 15:00","2021","12","17","15:00","-27.7","","","M","","M","0.0","","25","","24","","","","101.81","","","","-41","","NA"
"-94.20","72.02","FORT ROSS","2402051","2021-12-17 16:00","2021","12","17","16:00","-27.8","","","M","","M","0.0","","28","","32","","","","101.82","","","","-43","","NA"
"-94.20","72.02","FORT ROSS","2402051","2021-12-17 17:00","2021","12","17","17:00","-27.6","","","M","","M","0.0","","28","","21","","","","101.86","","","","-40","","NA"
"-94.20","72.02","FORT ROSS","2402051","2021-12-17 18:00","2021","12","17","18:00","-26.0","","","M","","M","0.0","","30","","20","","","","101.84","","","","-38","","NA"
"-94.20","72.02","FORT ROSS","2402051","2021-12-17 19:00","2021","12","17","19:00","-26.3","","","M","","M","0.0","","33","","10","","","","101.86","","","","-35","","NA"
"-94.20","72.02","FORT ROSS","2402051","2021-12-17 20:00","2021","12","17","20:00","-27.9","","","M","","M","0.0","","24","","13","","","","101.85","","","","-38","","NA"
"-94.20","72.02","FORT ROSS","2402051","2021-12-17 21:00","2021","12","17","21:00","-28.0","","","M","","M","0.0","","30","","6","","","","101.85","","","","-34","","NA"
"-94.20","72.02","FORT ROSS","2402051","2021-12-17 22:00","2021","12","17","22:00","-28.0","","","M","","M","0.0","","3","","2","","","","101.86","","","","-30","","NA"
"-94.20","72.02","FORT ROSS","2402051","2021-12-17 23:00","2021","12","17","23:00","-28.0","","","M","","M","0.0","","25","","11","","","","101.85","","","","-37","","NA"
"-94.20","72.02","FORT ROSS","2402051","2021-12-18 00:00","2021","12","18","00:00","-27.3","","","M","","M","0.0","","33","","6","","","","101.86","","","","-33","","NA"
"-94.20","72.02","FORT ROSS","2402051","2021-12-18 01:00","2021","12","18","01:00","-26.4","","","M","","M","0.0","","32","","15","","","","101.86","","","","-37","","NA"
"-94.20","72.02","FORT ROSS","2402051","2021-12-18 02:00","2021","12","18","02:00","-27.1","","","M","","M","0.0","","35","","26","","","","101.85","","","","-41","","NA"
"-94.20","72.02","FORT ROSS","2402051","2021-12-18 03:00","2021","12","18","03:00","-27.1","","","M","","M","0.0","","35","","25","","","","101.85","","","","-41","","NA"
"-94.20","72.02","FORT ROSS","2402051","2021-12-18 04:00","2021","12","18","04:00","-27.2","","","M","","M","0.0","","35","","18","","","","101.85","","","","-39","","NA"
"-94.20","72.02","FORT ROSS","2402051","2021-12-18 05:00","2021","12","18","05:00","-26.8","","","M","","M","0.0","","36","","20","","","","101.78","","","","-39","","NA"
"-94.20","72.02","FORT ROSS","2402051","2021-12-18 06:00","2021","12","18","06:00","-26.2","","","M","","M","0.0","","31","","7","","","","101.74","","","","-33","","NA"
"-94.20","72.02","FORT ROSS","2402051","2021-12-18 07:00","2021","12","18","07:00","-26.2","","","M","","M","0.0","","34","","21","","","","101.68","","","","-39","","NA"
"-94.20","72.02","FORT ROSS","2402051","2021-12-18 08:00","2021","12","18","08:00","-26.7","","","M","","M","0.0","","36","","13","","","","101.63","","","","-37","","NA"
"-94.20","72.02","FORT ROSS","2402051","2021-12-18 09:00","2021","12","18","09:00","-26.4","","","M","","M","0.0","","33","","10","","","","101.56","","","","-35","","NA"
"-94.20","72.02","FORT ROSS","2402051","2021-12-18 10:00","2021","12","18","10:00","-27.5","","","M","","M","0.0","","30","","6","","","","101.50","","","","-34","","NA"
"-94.20","72.02","FORT ROSS","2402051","2021-12-18 11:00","2021","12","18","11:00","-27.7","","","M","","M","0.0","","22","","1","","","","101.43","","","","-29","","NA"
"-94.20","72.02","FORT ROSS","2402051","2021-12-18 12:00","2021","12","18","12:00","-24.9","","","M","","M","0.0","","32","","9","","","","101.35","","","","-33","","NA"
"-94.20","72.02","FORT ROSS","2402051","2021-12-18 13:00","2021","12","18","13:00","-25.9","","","M","","M","0.0","","33","","16","","","","101.31","","","","-37","","NA"
"-94.20","72.02","FORT ROSS","2402051","2021-12-18 14:00","2021","12","18","14:00","-27.5","","","M","","M","0.0","","28","","21","","","","101.26","","","","-40","","NA"
"-94.20","72.02","FORT ROSS","2402051","2021-12-18 15:00","2021","12","18","15:00","-26.1","","","M","","M","0.0","","31","","13","","","","101.22","","","","-36","","NA"
"-94.20","72.02","FORT ROSS","2402051","2021-12-18 16:00","2021","12","18","16:00","-24.8","","","M","","M","0.0","","34","","24","","","","101.13","","","","-38","","NA"
"-94.20","72.02","FORT ROSS","2402051","2021-12-18 17:00","2021","12","18","17:00","-25.7","","","M","","M","0.0","","27","","19","","","","101.02","","","","-37","","NA"
"-94.20","72.02","FORT ROSS","2402051","2021-12-18 18:00","2021","12","18","18:00","-27.6","","","M","","M","0.0","","24","","26","","","","100.94","","","","-42","","NA"
"-94.20","72.02","FORT ROSS","2402051","2021-12-18 19:00","2021","12","18","19:00","-23.6","","","M","","M","0.0","","31","","32","","","","100.81","","","","-38","","NA"
"-94.20","72.02","FORT ROSS","2402051","2021-12-18 20:00","2021","12","18","20:00"
"-94.20","72.02","FORT ROSS","2402051","2021-12-18 21:00","2021","12","18","21:00","-23.0","","","M","","M","0.0","","27","","19","","","","100.70","","","","-34","","NA"
"-94.20","72.02","FORT ROSS","2402051","2021-12-18 22:00","2021","12","18","22:00","-21.8","","","M","","M","0.0","","30","","15","","","","100.64","","","","-31","","NA"
"-94.20","72.02","FORT ROSS","2402051","2021-12-18 23:00","2021","12","18","23:00"
"-94.20","72.02","FORT ROSS","2402051","2021-12-19 00:00","2021","12","19","00:00","-22.8","","","M","","M","0.0","","26","","9","","","","100.53","","","","-30","","NA"
"-94.20","72.02","FORT ROSS","2402051","2021-12-19 01:00","2021","12","19","01:00","-23.4","","","M","","M","0.0","","26","","23","","","","100.51","","","","-36","","NA"
"-94.20","72.02","FORT ROSS","2402051","2021-12-19 02:00","2021","12","19","02:00","-24.6","","","M","","M","0.0","","26","","31","","","","100.49","","","","-39","","NA"
"-94.20","72.02","FORT ROSS","2402051","2021-12-19 03:00","2021","12","19","03:00","-25.0","","","M","","M","0.0","","27","","24","","","","100.50","","","","-38","","NA"
"-94.20","72.02","FORT ROSS","2402051","2021-12-19 04:00","2021","12","19","04:00","-25.0","","","M","","M","0.0","","25","","34","","","","100.46","","","","-40","","NA"
"-94.20","72.02","FORT ROSS","2402051","2021-12-19 05:00","2021","12","19","05:00","-25.0","","","M","","M","0.0","","25","","35","","","","100.43","","","","-40","","NA"
"-94.20","72.02","FORT ROSS","2402051","2021-12-19 06:00","2021","12","19","06:00","-23.5","","","M","","M","0.0","","25","","24","","","","100.42","","","","-36","","NA"
"-94.20","72.02","FORT ROSS","2402051","2021-12-19 07:00","2021","12","19","07:00","-22.3","","","M","","M","0.0","","25","","19","","","","100.42","","","","-33","","NA"
"-94.20","72.02","FORT ROSS","2402051","2021-12-19 08:00","2021","12","19","08:00","-18.4","","","M","","M","0.0","","34","","29","","","","100.39","","","","-30","","NA"
"-94.20","72.02","FORT ROSS","2402051","2021-12-19 09:00","2021","12","19","09:00","-18.1","","","M","","M","0.0","","34","","26","","","","100.35","","","","-29","","NA"
"-94.20","72.02","FORT ROSS","2402051","2021-12-19 10:00","2021","12","19","10:00","-17.8","","","M","","M","0.0","","35","","35","","","","100.30","","","","-30","","NA"
"-94.20","72.02","FORT ROSS","2402051","2021-12-19 11:00","2021","12","19","11:00","-17.1","","","M","","M","0.0","","35","","36","","","","100.25","","","","-30","","NA"
"-94.20","72.02","FORT ROSS","2402051","2021-12-19 12:00","2021","12","19","12:00","-16.2","","","M","","M","0.0","","35","","39","","","","100.22","","","","-29","","NA"
"-94.20","72.02","FORT ROSS","2402051","2021-12-19 13:00","2021","12","19","13:00","-15.3","","","M","","M","0.0","","35","","37","","","","100.18","","","","-27","","NA"
"-94.20","72.02","FORT ROSS","2402051","2021-12-19 14:00","2021","12","19","14:00","-13.8","","","M","","M","0.0","","35","","41","","","","100.13","","","","-26","","NA"
"-94.20","72.02","FORT ROSS","2402051","2021-12-19 15:00","2021","12","19","15:00","-13.3","","","M","","M","0.0","","35","","45","","","","100.10","","","","-26","","NA"
"-94.20","72.02","FORT ROSS","2402051","2021-12-19 16:00","2021","12","19","16:00","-10.3","","","M","","M","0.0","","2","","37","","","","100.07","","","","-21","","NA"
"-94.20","72.02","FORT ROSS","2402051","2021-12-19 17:00","2021","12","19","17:00","-9.8","","","M","","M","0.0","","3","","40","","","","100.07","","","","-20","","NA"
"-94.20","72.02","FORT ROSS","2402051","2021-12-19 18:00","2021","12","19","18:00","-11.5","","","M","","M","0.0","","9","","38","","","","100.13","","","","-23","","NA"
"-94.20","72.02","FORT ROSS","2402051","2021-12-19 19:00","2021","12","19","19:00","-13.5","","","M","","M","0.0","","8","","39","","","","100.22","","","","-25","","NA"
"-94.20","72.02","FORT ROSS","2402051","2021-12-19 20:00","2021","12","19","20:00","-14.7","","","M","","M","0.0","","8","","35","","","","100.28","","","","-26","","NA"
"-94.20","72.02","FORT ROSS","2402051","2021-12-19 21:00","2021","12","19","21:00","-15.3","","","M","","M","0.0","","7","","27","","","","100.35","","","","-26","","NA"
"-94.20","72.02","FORT ROSS","2402051","2021-12-19 22:00","2021","12","19","22:00","-15.9","","","M","","M","0.0","","9","","41","","","","100.34","","","","-29","","NA"
"-94.20","72.02","FORT ROSS","2402051","2021-12-19 23:00","2021","12","19","23:00","-17.7","","","M","","M","0.0","","10","","38","","","","100.47","","","","-31","","NA"
"-94.20","72.02","FORT ROSS","2402051","2021-12-20 00:00","2021","12","20","00:00","-17.8","","","M","","M","0.0","","5","","22","","","","100.51","","","","-28","","NA"
"-94.20","72.02","FORT ROSS","2402051","2021-12-20 01:00","2021","12","20","01:00","-16.4","","","M","","M","0.0","","6","","28","","","","100.46","","","","-28","","NA"
"-94.20","72.02","FORT ROSS","2402051","2021-12-20 02:00","2021","12","20","02:00","-18.1","","","M","","M","0.0","","7","","35","","","","100.43","","","","-31","","NA"
"-94.20","72.02","FORT ROSS","2402051","2021-12-20 03:00","2021","12","20","03:00","-17.4","","","M","","M","0.0","","6","","29","","","","100.43","","","","-29","","NA"
"-94.20","72.02","FORT ROSS","2402051","2021-12-20 04:00","2021","12","20","04:00","-16.2","","","M","","M","0.0","","6","","31","","","","100.38","","","","-28","","NA"
"-94.20","72.02","FORT ROSS","2402051","2021-12-20 05:00","2021","12","20","05:00","-16.5","","","M","","M","0.0","","6","","34","","","","100.29","","","","-29","","NA"
"-94.20","72.02","FORT ROSS","2402051","2021-12-20 06:00","2021","12","20","06:00","-15.8","","","M","","M","0.0","","6","","34","","","","100.19","","","","-28","","NA"
"-94.20","72.02","FORT ROSS","2402051","2021-12-20 07:00","2021","12","20","07:00","-16.2","","","M","","M","0.0","","5","","30","","","","100.14","","","","-28","","NA"
"-94.20","72.02","FORT ROSS","2402051","2021-12-20 08:00","2021","12","20","08:00","-15.5","","","M","","M","0.0","","6","","32","","","","100.04","","","","-27","","NA"
"-94.20","72.02","FORT ROSS","2402051","2021-12-20 09:00","2021","12","20","09:00","-14.6","","","M","","M","0.0","","6","","37","","","","99.92","","","","-27","","NA"
"-94.20","72.02","FORT ROSS","2402051","2021-12-20 10:00","2021","12","20","10:00","-14.6","","","M","","M","0.0","","6","","33","","","","99.86","","","","-26","","NA"
"-94.20","72.02","FORT ROSS","2402051","2021-12-20 11:00","2021","12","20","11:00","-14.9","","","M","","M","0.0","","8","","30","","","","99.79","","","","-26","","NA"
"-94.20","72.02","FORT ROSS","2402051","2021-12-20 12:00","2021","12","20","12:00","-14.9","","","M","","M","0.0","","6","","28","","","","99.69","","","","-26","","NA"
"-94.20","72.02","FORT ROSS","2402051","2021-12-20 13:00","2021","12","20","13:00","-15.1","","","M","","M","0.0","","6","","28","","","","99.59","","","","-26","","NA"
"-94.20","72.02","FORT ROSS","2402051","2021-12-20 14:00","2021","12","20","14:00","-17.7","","","M","","M","0.0","","13","","28","","","","99.58","","","","-29","","NA"
"-94.20","72.02","FORT ROSS","2402051","2021-12-20 15:00","2021","12","20","15:00","-19.4","","","M","","M","0.0","","12","","21","","","","99.58","","","","-30","","NA"
"-94.20","72.02","FORT ROSS","2402051","2021-12-20 16:00","2021","12","20","16:00","-22.0","","","M","","M","0.0","","12","","14","","","","99.60","","","","-31","","NA"
"-94.20","72.02","FORT ROSS","2402051","2021-12-20 17:00","2021","12","20","17:00","-22.4","","","M","","M","0.0","","12","","17","","","","99.61","","","","-33","","NA"
"-94.20","72.02","FORT ROSS","2402051","2021-12-20 18:00","2021","12","20","18:00","-22.4","","","M","","M","0.0","","10","","19","","","","99.57","","","","-33","","NA"
"-94.20","72.02","FORT ROSS","2402051","2021-12-20 19:00","2021","12","20","19:00","-23.2","","","M","","M","0.0","","11","","22","","","","99.56","","","","-35","","NA"
"-94.20","72.02","FORT ROSS","2402051","2021-12-20 20:00","2021","12","20","20:00","-24.3","","","M","","M","0.0","","11","","26","","","","99.60","","","","-37","","NA"
"-94.20","72.02","FORT ROSS","2402051","2021-12-20 21:00","2021","12","20","21:00","-25.1","","","M","","M","0.0","","11","","27","","","","99.66","","","","-39","","NA"
"-94.20","72.02","FORT ROSS","2402051","2021-12-20 22:00","2021","12","20","22:00","-25.2","","","M","","M","0.0","","11","","32","","","","99.67","","","","-40","","NA"
"-94.20","72.02","FORT ROSS","2402051","2021-12-20 23:00","2021","12","20","23:00","-25.8","","","M","","M","0.2","","12","","31","","","","99.74","","","","-40","","NA"
"-94.20","72.02","FORT ROSS","2402051","2021-12-21 00:00","2021","12","21","00:00","-26.3","","","M","","M","0.0","","13","","29","","","","99.82","","","","-41","","NA"
"-94.20","72.02","FORT ROSS","2402051","2021-12-21 01:00","2021","12","21","01:00","-26.4","","","M","","M","0.0","","12","","26","","","","99.89","","","","-40","","NA"
"-94.20","72.02","FORT ROSS","2402051","2021-12-21 02:00","2021","12","21","02:00","-26.5","","","M","","M","0.0","","11","","32","","","","99.97","","","","-41","","NA"
"-94.20","72.02","FORT ROSS","2402051","2021-12-21 03:00","2021","12","21","03:00","-26.5","","","M","","M","0.0","","14","","26","","","","100.05","","","","-40","","NA"
"-94.20","72.02","FORT ROSS","2402051","2021-12-21 04:00","2021","12","21","04:00","-27.5","","","M","","M","0.0","","13","","23","","","","100.10","","","","-41","","NA"
"-94.20","72.02","FORT ROSS","2402051","2021-12-21 05:00","2021","12","21","05:00","-26.6","","","M","","M","0.0","","11","","31","","","","100.18","","","","-41","","NA"
"-94.20","72.02","FORT ROSS","2402051","2021-12-21 06:00","2021","12","21","06:00","-27.0","","","M","","M","0.0","","11","","27","","","","100.29","","","","-41","","NA"
"-94.20","72.02","FORT ROSS","2402051","2021-12-21 07:00","2021","12","21","07:00","-26.8","","","M","","M","0.0","","12","","25","","","","100.38","","","","-40","","NA"
"-94.20","72.02","FORT ROSS","2402051","2021-12-21 08:00","2021","12","21","08:00","-27.4","","","M","","M","0.0","","13","","26","","","","100.48","","","","-41","","NA"
"-94.20","72.02","FORT ROSS","2402051","2021-12-21 09:00","2021","12","21","09:00","-28.5","","","M","","M","0.0","","14","","16","","","","100.61","","","","-40","","NA"
"-94.20","72.02","FORT ROSS","2402051","2021-12-21 10:00","2021","12","21","10:00","-28.6","","","M","","M","0.0","","16","","12","","","","100.70","","","","-38","","NA"
"-94.20","72.02","FORT ROSS","2402051","2021-12-21 11:00","2021","12","21","11:00","-28.8","","","M","","M","0.0","","20","","7","","","","100.81","","","","-36","","NA"
"-94.20","72.02","FORT ROSS","2402051","2021-12-21 12:00","2021","12","21","12:00","-28.8","","","M","","M","0.0","","15","","21","","","","100.92","","","","-42","","NA"
"-94.20","72.02","FORT ROSS","2402051","2021-12-21 13:00","2021","12","21","13:00","-28.9","","","M","","M","0.0","","14","","17","","","","101.00","","","","-41","","NA"
"-94.20","72.02","FORT ROSS","2402051","2021-12-21 14:00","2021","12","21","14:00","-29.4","","","M","","M","0.0","","19","","7","","","","101.12","","","","-37","","NA"
"-94.20","72.02","FORT ROSS","2402051","2021-12-21 15:00","2021","12","21","15:00","-29.1","","","M","","M","0.0","","13","","18","","","","101.20","","","","-41","","NA"
"-94.20","72.02","FORT ROSS","2402051","2021-12-21 16:00","2021","12","21","16:00","-29.0","","","M","","M","0.0","","22","","6","","","","101.27","","","","-35","","NA"
"-94.20","72.02","FORT ROSS","2402051","2021-12-21 17:00","2021","12","21","17:00","-29.0","","","M","","M","0.0","","10","","5","","","","101.35","","","","-34","","NA"
"-94.20","72.02","FORT ROSS","2402051","2021-12-21 18:00","2021","12","21","18:00","-29.4","","","M","","M","0.0","","14","","4","","","","101.42","","","","-34","","NA"
"-94.20","72.02","FORT ROSS","2402051","2021-12-21 19:00","2021","12","21","19:00","-30.0","","","M","","M","0.0","","32","","4","","","","101.41","","","","-35","","NA"
"-94.20","72.02","FORT ROSS","2402051","2021-12-21 20:00","2021","12","21","20:00","-30.0","","","M","","M","0.0","","35","","13","","","","101.43","","","","-41","","NA"
"-94.20","72.02","FORT ROSS","2402051","2021-12-21 21:00","2021","12","21","21:00","-28.6","","","M","","M","0.0","","8","","17","","","","101.41","","","","-40","","NA"
"-94.20","72.02","FORT ROSS","2402051","2021-12-21 22:00","2021","12","21","22:00","-27.5","","","M","","M","0.2","","9","","15","","","","101.38","","","","-38","","NA"
"-94.20","72.02","FORT ROSS","2402051","2021-12-21 23:00","2021","12","21","23:00","-29.3","","","M","","M","0.0","","1","","8","","","","101.32","","","","-37","","NA"
"-94.20","72.02","FORT ROSS","2402051","2021-12-22 00:00","2021","12","22","00:00","-30.4","","","M","","M","0.0","","35","","13","","","","101.35","","","","-41","","NA"
"-94.20","72.02","FORT ROSS","2402051","2021-12-22 01:00","2021","12","22","01:00","-31.0","","","M","","M","0.0","","35","","14","","","","101.34","","","","-42","","NA"
"-94.20","72.02","FORT ROSS","2402051","2021-12-22 02:00","2021","12","22","02:00","-30.7","","","M","","M","0.0","","36","","16","","","","101.24","","","","-43","","NA"
"-94.20","72.02","FORT ROSS","2402051","2021-12-22 03:00","2021","12","22","03:00","-28.9","","","M","","M","0.0","","1","","20","","","","101.21","","","","-42","","NA"
"-94.20","72.02","FORT ROSS","2402051","2021-12-22 04:00","2021","12","22","04:00","-29.5","","","M","","M","0.0","","35","","17","","","","101.10","","","","-42","","NA"
"-94.20","72.02","FORT ROSS","2402051","2021-12-22 05:00","2021","12","22","05:00","-27.3","","","M","","M","0.0","","25","","4","","","","100.89","","","","-32","","NA"
"-94.20","72.02","FORT ROSS","2402051","2021-12-22 06:00","2021","12","22","06:00","-27.8","","","M","","M","0.0","","4","","1","","","","100.82","","","","-29","","NA"
"-94.20","72.02","FORT ROSS","2402051","2021-12-22 07:00","2021","12","22","07:00","-27.9","","","M","","M","0.0","","17","","3","","","","100.65","","","","-31","","NA"
"-94.20","72.02","FORT ROSS","2402051","2021-12-22 08:00","2021","12","22","08:00","-23.6","","","M","","M","0.3","","28","","10","","","","100.48","","","","-32","","NA"
"-94.20","72.02","FORT ROSS","2402051","2021-12-22 09:00","2021","12","22","09:00","-22.2","","","M","","M","0.3","","22","","1","","","","100.40","","","","-23","","NA"
"-94.20","72.02","FORT ROSS","2402051","2021-12-22 10:00","2021","12","22","10:00","-21.6","","","M","","M","0.0","","28","","18","","","","100.22","","","","-32","","NA"
"-94.20","72.02","FORT ROSS","2402051","2021-12-22 11:00","2021","12","22","11:00","-21.7","","","M","","M","0.0","","27","","16","","","","100.15","","","","-31","","NA"
"-94.20","72.02","FORT ROSS","2402051","2021-12-22 12:00","2021","12","22","12:00","-22.4","","","M","","M","0.0","","28","","23","","","","100.08","","","","-34","","NA"
"-94.20","72.02","FORT ROSS","2402051","2021-12-22 13:00","2021","12","22","13:00","-22.3","","","M","","M","0.0","","25","","18","","","","100.01","","","","-33","","NA"
"-94.20","72.02","FORT ROSS","2402051","2021-12-22 14:00","2021","12","22","14:00","-20.9","","","M","","M","0.0","","26","","19","","","","99.99","","","","-31","","NA"
"-94.20","72.02","FORT ROSS","2402051","2021-12-22 15:00","2021","12","22","15:00","-21.4","","","M","","M","0.0","","26","","25","","","","99.88","","","","-33","","NA"
"-94.20","72.02","FORT ROSS","2402051","2021-12-22 16:00","2021","12","22","16:00","-20.1","","","M","","M","0.0","","27","","16","","","","99.82","","","","-30","","NA"
"-94.20","72.02","FORT ROSS","2402051","2021-12-22 17:00","2021","12","22","17:00","-19.7","","","M","","M","0.0","","27","","11","","","","99.78","","","","-27","","NA"
"-94.20","72.02","FORT ROSS","2402051","2021-12-22 18:00","2021","12","22","18:00","-18.4","","","M","","M","0.2","","28","","11","","","","99.72","","","","-26","","NA"
"-94.20","72.02","FORT ROSS","2402051","2021-12-22 19:00","2021","12","22","19:00","-20.9","","","M","","M","0.0","","25","","33","","","","99.64","","","","-34","","NA"
"-94.20","72.02","FORT ROSS","2402051","2021-12-22 20:00","2021","12","22","20:00","-20.0","","","M","","M","0.0","","25","","29","","","","99.62","","","","-32","","NA"
"-94.20","72.02","FORT ROSS","2402051","2021-12-22 21:00","2021","12","22","21:00","-19.6","","","M","","M","0.0","","25","","27","","","","99.58","","","","-31","","NA"
"-94.20","72.02","FORT ROSS","2402051","2021-12-22 22:00","2021","12","22","22:00","-18.8","","","M","","M","0.0","","25","","14","","","","99.64","","","","-27","","NA"
"-94.20","72.02","FORT ROSS","2402051","2021-12-22 23:00","2021","12","22","23:00","-18.9","","","M","","M","0.0","","25","","28","","","","99.57","","","","-31","","NA"
"-94.20","72.02","FORT ROSS","2402051","2021-12-23 00:00","2021","12","23","00:00","-19.6","","","M","","M","0.0","","25","","25","","","","99.57","","","","-31","","NA"
"-94.20","72.02","FORT ROSS","2402051","2021-12-23 01:00","2021","12","23","01:00","-19.6","","","M","","M","0.0","","25","","28","","","","99.62","","","","-32","","NA"
"-94.20","72.02","FORT ROSS","2402051","2021-12-23 02:00","2021","12","23","02:00","-19.7","","","M","","M","0.0","","26","","27","","","","99.60","","","","-32","","NA"
"-94.20","72.02","FORT ROSS","2402051","2021-12-23 03:00","2021","12","23","03:00","-20.9","","","M","","M","0.0","","25","","36","","","","99.63","","","","-35","","NA"
"-94.20","72.02","FORT ROSS","2402051","2021-12-23 04:00","2021","12","23","04:00","-21.3","","","M","","M","0.0","","26","","42","","","","99.67","","","","-36","","NA"
"-94.20","72.02","FORT ROSS","2402051","2021-12-23 05:00","2021","12","23","05:00","-22.1","","","M","","M","0.0","","26","","42","","","","99.75","","","","-37","","NA"
"-94.20","72.02","FORT ROSS","2402051","2021-12-23 06:00","2021","12","23","06:00","-23.0","","","M","","M","0.0","","26","","41","","","","99.86","","","","-38","","NA"
"-94.20","72.02","FORT ROSS","2402051","2021-12-23 07:00","2021","12","23","07:00","-23.8","","","M","","M","0.0","","26","","42","","","","99.99","","","","-40","","NA"
"-94.20","72.02","FORT ROSS","2402051","2021-12-23 08:00","2021","12","23","08:00","-24.3","","","M","","M","0.0","","26","","40","","","","100.13","","","","-40","","NA"
"-94.20","72.02","FORT ROSS","2402051","2021-12-23 09:00","2021","12","23","09:00","-24.2","","","M","","M","0.0","","24","","37","","","","100.29","","","","-39","","NA"
"-94.20","72.02","FORT ROSS","2402051","2021-12-23 10:00","2021","12","23","10:00","-24.3","","","M","","M","0.0","","25","","29","","","","100.44","","","","-38","","NA"
"-94.20","72.02","FORT ROSS","2402051","2021-12-23 11:00","2021","12","23","11:00","-24.1","","","M","","M","0.0","","23","","28","","","","100.61","","","","-38","","NA"
"-94.20","72.02","FORT ROSS","2402051","2021-12-23 12:00","2021","12","23","12:00","-24.5","","","M","","M","0.0","","22","","20","","","","100.79","","","","-36","","NA"
"-94.20","72.02","FORT ROSS","2402051","2021-12-23 13:00","2021","12","23","13:00","-24.8","","","M","","M","0.0","","23","","20","","","","100.97","","","","-37","","NA"
"-94.20","72.02","FORT ROSS","2402051","2021-12-23 14:00","2021","12","23","14:00","-24.7","","","M","","M","0.0","","23","","13","","","","101.11","","","","-34","","NA"
"-94.20","72.02","FORT ROSS","2402051","2021-12-23 15:00","2021","12","23","15:00","-24.8","","","M","","M","0.0","","19","","13","","","","101.23","","","","-34","","NA"
"-94.20","72.02","FORT ROSS","2402051","2021-12-23 16:00","2021","12","23","16:00","-24.8","","","M","","M","0.0","","18","","11","","","","101.36","","","","-33","","NA"
"-94.20","72.02","FORT ROSS","2402051","2021-12-23 17:00","2021","12","23","17:00","-24.8","","","M","","M","0.0","","17","","6","","","","101.46","","","","-31","","NA"
"-94.20","72.02","FORT ROSS","2402051","2021-12-23 18:00","2021","12","23","18:00","-24.9","","","M","","M","0.0","","0","","1","","","","101.52","","","","-26","","NA"
"-94.20","72.02","FORT ROSS","2402051","2021-12-23 19:00","2021","12","23","19:00","-25.4","","","M","","M","0.0","","1","","8","","","","101.59","","","","-33","","NA"
"-94.20","72.02","FORT ROSS","2402051","2021-12-23 20:00","2021","12","23","20:00","-25.8","","","M","","M","0.0","","1","","5","","","","101.67","","","","-31","","NA"
"-94.20","72.02","FORT ROSS","2402051","2021-12-23 21:00","2021","12","23","21:00","-26.3","","","M","","M","0.0","","14","","6","","","","101.79","","","","-32","","NA"
"-94.20","72.02","FORT ROSS","2402051","2021-12-23 22:00","2021","12","23","22:00","-26.3","","","M","","M","0.0","","13","","8","","","","101.87","","","","-34","","NA"
"-94.20","72.02","FORT ROSS","2402051","2021-12-23 23:00","2021","12","23","23:00","-27.2","","","M","","M","0.0","","13","","11","","","","102.00","","","","-36","","NA"
"-94.20","72.02","FORT ROSS","2402051","2021-12-24 00:00","2021","12","24","00:00","-25.3","","","M","","M","0.0","","13","","20","","","","102.08","","","","-37","","NA"
"-94.20","72.02","FORT ROSS","2402051","2021-12-24 01:00","2021","12","24","01:00","-26.7","","","M","","M","0.0","","14","","21","","","","102.18","","","","-39","","NA"
"-94.20","72.02","FORT ROSS","2402051","2021-12-24 02:00","2021","12","24","02:00","-26.5","","","M","","M","0.0","","13","","22","","","","102.24","","","","-39","","NA"
"-94.20","72.02","FORT ROSS","2402051","2021-12-24 03:00","2021","12","24","03:00","-27.9","","","M","","M","0.0","","20","","7","","","","102.36","","","","-35","","NA"
"-94.20","72.02","FORT ROSS","2402051","2021-12-24 04:00","2021","12","24","04:00","-28.8","","","M","","M","0.0","","26","","5","","","","102.43","","","","-34","","NA"
"-94.20","72.02","FORT ROSS","2402051","2021-12-24 05:00","2021","12","24","05:00","-30.6","","","M","","M","0.0","","15","","4","","","","102.51","","","","-35","","NA"
"-94.20","72.02","FORT ROSS","2402051","2021-12-24 06:00","2021","12","24","06:00","-29.8","","","M","","M","0.0","","12","","2","","","","102.58","","","","-32","","NA"
"-94.20","72.02","FORT ROSS","2402051","2021-12-24 07:00","2021","12","24","07:00","-30.0","","","M","","M","0.0","","1","","7","","","","102.60","","","","-37","","NA"
"-94.20","72.02","FORT ROSS","2402051","2021-12-24 08:00","2021","12","24","08:00","-29.9","","","M","","M","0.0","","3","","7","","","","102.70","","","","-37","","NA"
"-94.20","72.02","FORT ROSS","2402051","2021-12-24 09:00","2021","12","24","09:00","-30.6","","","M","","M","0.0","","34","","1","","","","102.78","","","","-32","","NA"
"-94.20","72.02","FORT ROSS","2402051","2021-12-24 10:00","2021","12","24","10:00","-31.0","","","M","","M","0.0","","22","","1","","","","102.83","","","","-32","","NA"
"-94.20","72.02","FORT ROSS","2402051","2021-12-24 11:00","2021","12","24","11:00","-30.4","","","M","","M","0.0","","0","","1","","","","102.91","","","","-32","","NA"
"-94.20","72.02","FORT ROSS","2402051","2021-12-24 12:00","2021","12","24","12:00","-30.2","","","M","","M","0.0","","3","","9","","","","102.95","","","","-39","","NA"
"-94.20","72.02","FORT ROSS","2402051","2021-12-24 13:00","2021","12","24","13:00","-31.9","","","M","","M","0.0","","3","","1","","","","102.98","","","","-33","","NA"
"-94.20","72.02","FORT ROSS","2402051","2021-12-24 14:00","2021","12","24","14:00","-31.3","","","M","","M","0.0","","19","","2","","","","103.03","","","","-34","","NA"
"-94.20","72.02","FORT ROSS","2402051","2021-12-24 15:00","2021","12","24","15:00","-31.6","","","M","","M","0.0","","34","","4","","","","103.08","","","","-36","","NA"
"-94.20","72.02","FORT ROSS","2402051","2021-12-24 16:00","2021","12","24","16:00","-30.8","","","M","","M","0.0","","","","0","","","","103.14","","","","","","NA"
"-94.20","72.02","FORT ROSS","2402051","2021-12-24 17:00","2021","12","24","17:00","-31.0","","","M","","M","0.0","","1","","7","","","","103.13","","","","-38","","NA"
"-94.20","72.02","FORT ROSS","2402051","2021-12-24 18:00","2021","12","24","18:00","-32.1","","","M","","M","0.0","","35","","12","","","","103.14","","","","-43","","NA"
"-94.20","72.02","FORT ROSS","2402051","2021-12-24 19:00","2021","12","24","19:00","-31.2","","","M","","M","0.0","","1","","6","","","","103.12","","","","-38","","NA"
"-94.20","72.02","FORT ROSS","2402051","2021-12-24 20:00","2021","12","24","20:00","-30.5","","","M","","M","0.2","","34","","7","","","","103.13","","","","-38","","NA"
"-94.20","72.02","FORT ROSS","2402051","2021-12-24 21:00","2021","12","24","21:00","-31.7","","","M","","M","0.0","","35","","11","","","","103.13","","","","-42","","NA"
"-94.20","72.02","FORT ROSS","2402051","2021-12-24 22:00","2021","12","24","22:00","-30.6","","","M","","M","0.0","","34","","8","","","","103.19","","","","-39","","NA"
"-94.20","72.02","FORT ROSS","2402051","2021-12-24 23:00","2021","12","24","23:00","-31.6","","","M","","M","0.0","","36","","10","","","","103.22","","","","-41","","NA"
"-94.20","72.02","FORT ROSS","2402051","2021-12-25 00:00","2021","12","25","00:00","-31.3","","","M","","M","0.0","","35","","6","","","","103.23","","","","-38","","NA"
"-94.20","72.02","FORT ROSS","2402051","2021-12-25 01:00","2021","12","25","01:00","-30.7","","","M","","M","0.0","","0","","1","","","","103.22","","","","-32","","NA"
"-94.20","72.02","FORT ROSS","2402051","2021-12-25 02:00","2021","12","25","02:00","-30.5","","","M","","M","0.0","","21","","6","","","","103.24","","","","-37","","NA"
"-94.20","72.02","FORT ROSS","2402051","2021-12-25 03:00","2021","12","25","03:00","-30.0","","","M","","M","0.0","","15","","3","","","","103.24","","","","-33","","NA"
"-94.20","72.02","FORT ROSS","2402051","2021-12-25 04:00","2021","12","25","04:00","-28.4","","","M","","M","0.3","","18","","7","","","","103.24","","","","-35","","NA"
"-94.20","72.02","FORT ROSS","2402051","2021-12-25 05:00","2021","12","25","05:00","-31.3","","","M","","M","0.0","","1","","7","","","","103.27","","","","-39","","NA"
"-94.20","72.02","FORT ROSS","2402051","2021-12-25 06:00","2021","12","25","06:00","-29.7","","","M","","M","0.0","","18","","2","","","","103.30","","","","-32","","NA"
"-94.20","72.02","FORT ROSS","2402051","2021-12-25 07:00","2021","12","25","07:00","-29.0","","","M","","M","0.0","","2","","5","","","","103.29","","","","-34","","NA"
"-94.20","72.02","FORT ROSS","2402051","2021-12-25 08:00","2021","12","25","08:00","-29.3","","","M","","M","0.0","","31","","6","","","","103.33","","","","-36","","NA"
"-94.20","72.02","FORT ROSS","2402051","2021-12-25 09:00","2021","12","25","09:00","-31.1","","","M","","M","0.0","","2","","6","","","","103.34","","","","-38","","NA"
"-94.20","72.02","FORT ROSS","2402051","2021-12-25 10:00","2021","12","25","10:00","-29.0","","","M","","M","0.0","","17","","3","","","","103.37","","","","-32","","NA"
"-94.20","72.02","FORT ROSS","2402051","2021-12-25 11:00","2021","12","25","11:00","-28.9","","","M","","M","0.0","","1","","3","","","","103.40","","","","-32","","NA"
"-94.20","72.02","FORT ROSS","2402051","2021-12-25 12:00","2021","12","25","12:00"
"-94.20","72.02","FORT ROSS","2402051","2021-12-25 13:00","2021","12","25","13:00","-29.8","","","M","","M","0.0","","35","","4","","","","103.47","","","","-34","","NA"
"-94.20","72.02","FORT ROSS","2402051","2021-12-25 14:00","2021","12","25","14:00","-29.0","","","M","","M","0.0","","0","","1","","","","103.46","","","","-30","","NA"
"-94.20","72.02","FORT ROSS","2402051","2021-12-25 15:00","2021","12","25","15:00","-28.9","","","M","","M","0.0","","34","","4","","","","103.50","","","","-33","","NA"
"-94.20","72.02","FORT ROSS","2402051","2021-12-25 16:00","2021","12","25","16:00","-30.6","","","M","","M","0.0","","1","","4","","","","103.53","","","","-35","","NA"
"-94.20","72.02","FORT ROSS","2402051","2021-12-25 17:00","2021","12","25","17:00","-28.9","","","M","","M","0.0","","3","","1","","","","103.57","","","","-30","","NA"
"-94.20","72.02","FORT ROSS","2402051","2021-12-25 18:00","2021","12","25","18:00","-28.8","","","M","","M","0.0","","36","","2","","","","103.60","","","","-31","","NA"
"-94.20","72.02","FORT ROSS","2402051","2021-12-25 19:00","2021","12","25","19:00","-29.9","","","M","","M","0.0","","35","","6","","","","103.58","","","","-36","","NA"
"-94.20","72.02","FORT ROSS","2402051","2021-12-25 20:00","2021","12","25","20:00","-29.9","","","M","","M","0.0","","31","","3","","","","103.61","","","","-33","","NA"
"-94.20","72.02","FORT ROSS","2402051","2021-12-25 21:00","2021","12","25","21:00","-29.6","","","M","","M","0.0","","1","","4","","","","103.64","","","","-34","","NA"
"-94.20","72.02","FORT ROSS","2402051","2021-12-25 22:00","2021","12","25","22:00","-29.0","","","M","","M","0.0","","35","","8","","","","103.63","","","","-37","","NA"
"-94.20","72.02","FORT ROSS","2402051","2021-12-25 23:00","2021","12","25","23:00","-30.2","","","M","","M","0.0","","29","","3","","","","103.62","","","","-34","","NA"
"-94.20","72.02","FORT ROSS","2402051","2021-12-26 00:00","2021","12","26","00:00","-29.8","","","M","","M","0.0","","36","","5","","","","103.58","","","","-35","","NA"
"-94.20","72.02","FORT ROSS","2402051","2021-12-26 01:00","2021","12","26","01:00","-29.6","","","M","","M","0.0","","29","","2","","","","103.61","","","","-32","","NA"
"-94.20","72.02","FORT ROSS","2402051","2021-12-26 02:00","2021","12","26","02:00","-29.4","","","M","","M","0.0","","35","","8","","","","103.58","","","","-37","","NA"
"-94.20","72.02","FORT ROSS","2402051","2021-12-26 03:00","2021","12","26","03:00","-29.2","","","M","","M","0.0","","35","","14","","","","103.54","","","","-40","","NA"
"-94.20","72.02","FORT ROSS","2402051","2021-12-26 04:00","2021","12","26","04:00","-28.7","","","M","","M","0.0","","35","","4","","","","103.57","","","","-33","","NA"
"-94.20","72.02","FORT ROSS","2402051","2021-12-26 05:00","2021","12","26","05:00","-27.3","","","M","","M","0.0","","35","","11","","","","103.55","","","","-36","","NA"
"-94.20","72.02","FORT ROSS","2402051","2021-12-26 06:00","2021","12","26","06:00","-26.9","","","M","","M","0.0","","34","","14","","","","103.54","","","","-37","","NA"
"-94.20","72.02","FORT ROSS","2402051","2021-12-26 07:00","2021","12","26","07:00","-28.2","","","M","","M","0.0","","36","","17","","","","103.52","","","","-40","","NA"
"-94.20","72.02","FORT ROSS","2402051","2021-12-26 08:00","2021","12","26","08:00","-27.1","","","M","","M","0.0","","35","","12","","","","103.48","","","","-37","","NA"
"-94.20","72.02","FORT ROSS","2402051","2021-12-26 09:00","2021","12","26","09:00","-25.3","","","M","","M","0.0","","36","","18","","","","103.45","","","","-37","","NA"
"-94.20","72.02","FORT ROSS","2402051","2021-12-26 10:00","2021","12","26","10:00","-25.2","","","M","","M","0.0","","34","","14","","","","103.40","","","","-35","","NA"
"-94.20","72.02","FORT ROSS","2402051","2021-12-26 11:00","2021","12","26","11:00","-24.4","","","M","","M","0.0","","36","","17","","","","103.36","","","","-35","","NA"
"-94.20","72.02","FORT ROSS","2402051","2021-12-26 12:00","2021","12","26","12:00","-23.7","","","M","","M","0.0","","1","","17","","","","103.31","","","","-34","","NA"
"-94.20","72.02","FORT ROSS","2402051","2021-12-26 13:00","2021","12","26","13:00","-23.2","","","M","","M","0.0","","36","","17","","","","103.24","","","","-34","","NA"
"-94.20","72.02","FORT ROSS","2402051","2021-12-26 14:00","2021","12","26","14:00","-23.3","","","M","","M","0.0","","1","","25","","","","103.17","","","","-36","","NA"
"-94.20","72.02","FORT ROSS","2402051","2021-12-26 15:00","2021","12","26","15:00","-24.3","","","M","","M","0.0","","1","","25","","","","103.09","","","","-37","","NA"
"-94.20","72.02","FORT ROSS","2402051","2021-12-26 16:00","2021","12","26","16:00","-24.9","","","M","","M","0.0","","1","","27","","","","103.00","","","","-38","","NA"
"-94.20","72.02","FORT ROSS","2402051","2021-12-26 17:00","2021","12","26","17:00","-25.2","","","M","","M","0.0","","1","","25","","","","102.98","","","","-38","","NA"
"-94.20","72.02","FORT ROSS","2402051","2021-12-26 18:00","2021","12","26","18:00","-25.1","","","M","","M","0.0","","1","","26","","","","102.88","","","","-38","","NA"
"-94.20","72.02","FORT ROSS","2402051","2021-12-26 19:00","2021","12","26","19:00","-25.0","","","M","","M","0.0","","1","","28","","","","102.79","","","","-39","","NA"
"-94.20","72.02","FORT ROSS","2402051","2021-12-26 20:00","2021","12","26","20:00","-25.0","","","M","","M","0.0","","1","","31","","","","102.71","","","","-39","","NA"
"-94.20","72.02","FORT ROSS","2402051","2021-12-26 21:00","2021","12","26","21:00","-25.2","","","M","","M","0.0","","1","","26","","","","102.63","","","","-39","","NA"
"-94.20","72.02","FORT ROSS","2402051","2021-12-26 22:00","2021","12","26","22:00","-25.1","","","M","","M","0.0","","1","","31","","","","102.49","","","","-39","","NA"
"-94.20","72.02","FORT ROSS","2402051","2021-12-26 23:00","2021","12","26","23:00","-25.3","","","M","","M","0.0","","1","","26","","","","102.45","","","","-39","","NA"
"-94.20","72.02","FORT ROSS","2402051","2021-12-27 00:00","2021","12","27","00:00","-25.5","","","M","","M","0.0","","36","","28","","","","102.35","","","","-39","","NA"
"-94.20","72.02","FORT ROSS","2402051","2021-12-27 01:00","2021","12","27","01:00","-25.3","","","M","","M","0.0","","1","","28","","","","102.27","","","","-39","","NA"
"-94.20","72.02","FORT ROSS","2402051","2021-12-27 02:00","2021","12","27","02:00","-25.2","","","M","","M","0.0","","1","","28","","","","102.19","","","","-39","","NA"
"-94.20","72.02","FORT ROSS","2402051","2021-12-27 03:00","2021","12","27","03:00","-25.3","","","M","","M","0.0","","1","","24","","","","102.14","","","","-38","","NA"
"-94.20","72.02","FORT ROSS","2402051","2021-12-27 04:00","2021","12","27","04:00","-24.8","","","M","","M","0.0","","1","","26","","","","102.05","","","","-38","","NA"
"-94.20","72.02","FORT ROSS","2402051","2021-12-27 05:00","2021","12","27","05:00","-25.1","","","M","","M","0.0","","1","","26","","","","101.96","","","","-38","","NA"
"-94.20","72.02","FORT ROSS","2402051","2021-12-27 06:00","2021","12","27","06:00","-24.4","","","M","","M","0.0","","36","","29","","","","101.89","","","","-38","","NA"
"-94.20","72.02","FORT ROSS","2402051","2021-12-27 07:00","2021","12","27","07:00","-24.7","","","M","","M","0.0","","1","","28","","","","101.81","","","","-38","","NA"
"-94.20","72.02","FORT ROSS","2402051","2021-12-27 08:00","2021","12","27","08:00","-24.9","","","M","","M","0.0","","36","","28","","","","101.76","","","","-39","","NA"
"-94.20","72.02","FORT ROSS","2402051","2021-12-27 09:00","2021","12","27","09:00","-24.7","","","M","","M","0.0","","36","","30","","","","101.71","","","","-39","","NA"
"-94.20","72.02","FORT ROSS","2402051","2021-12-27 10:00","2021","12","27","10:00","-25.2","","","M","","M","0.0","","36","","32","","","","101.65","","","","-40","","NA"
"-94.20","72.02","FORT ROSS","2402051","2021-12-27 11:00","2021","12","27","11:00","-25.5","","","M","","M","0.0","","1","","31","","","","101.58","","","","-40","","NA"
"-94.20","72.02","FORT ROSS","2402051","2021-12-27 12:00","2021","12","27","12:00","-25.3","","","M","","M","0.0","","36","","31","","","","101.57","","","","-40","","NA"
"-94.20","72.02","FORT ROSS","2402051","2021-12-27 13:00","2021","12","27","13:00","-25.5","","","M","","M","0.0","","36","","29","","","","101.52","","","","-40","","NA"
"-94.20","72.02","FORT ROSS","2402051","2021-12-27 14:00","2021","12","27","14:00","-25.1","","","M","","M","0.0","","36","","27","","","","101.48","","","","-39","","NA"
"-94.20","72.02","FORT ROSS","2402051","2021-12-27 15:00","2021","12","27","15:00","-24.2","","","M","","M","0.0","","36","","27","","","","101.47","","","","-37","","NA"
"-94.20","72.02","FORT ROSS","2402051","2021-12-27 16:00","2021","12","27","16:00","-23.6","","","M","","M","0.0","","36","","28","","","","101.43","","","","-37","","NA"
"-94.20","72.02","FORT ROSS","2402051","2021-12-27 17:00","2021","12","27","17:00","-24.2","","","M","","M","0.0","","36","","32","","","","101.40","","","","-38","","NA"
"-94.20","72.02","FORT ROSS","2402051","2021-12-27 18:00","2021","12","27","18:00","-23.7","","","M","","M","0.0","","36","","32","","","","101.36","","","","-38","","NA"
"-94.20","72.02","FORT ROSS","2402051","2021-12-27 19:00","2021","12","27","19:00","-24.3","","","M","","M","0.0","","1","","32","","","","101.35","","","","-39","","NA"
"-94.20","72.02","FORT ROSS","2402051","2021-12-27 20:00","2021","12","27","20:00","-25.4","","","M","","M","0.0","","1","","28","","","","101.35","","","","-39","","NA"
"-94.20","72.02","FORT ROSS","2402051","2021-12-27 21:00","2021","12","27","21:00","-24.6","","","M","","M","0.0","","1","","25","","","","101.35","","","","-38","","NA"
"-94.20","72.02","FORT ROSS","2402051","2021-12-27 22:00","2021","12","27","22:00","-24.3","","","M","","M","0.0","","36","","28","","","","101.33","","","","-38","","NA"
"-94.20","72.02","FORT ROSS","2402051","2021-12-27 23:00","2021","12","27","23:00","-24.7","","","M","","M","0.0","","36","","22","","","","101.36","","","","-37","","NA"
"-94.20","72.02","FORT ROSS","2402051","2021-12-28 00:00","2021","12","28","00:00","-23.9","","","M","","M","0.0","","1","","23","","","","101.32","","","","-36","","NA"
"-94.20","72.02","FORT ROSS","2402051","2021-12-28 01:00","2021","12","28","01:00","-23.2","","","M","","M","0.0","","36","","20","","","","101.35","","","","-35","","NA"
"-94.20","72.02","FORT ROSS","2402051","2021-12-28 02:00","2021","12","28","02:00","-23.3","","","M","","M","0.0","","36","","15","","","","101.38","","","","-33","","NA"
"-94.20","72.02","FORT ROSS","2402051","2021-12-28 03:00","2021","12","28","03:00","-24.2","","","M","","M","0.0","","36","","15","","","","101.40","","","","-34","","NA"
"-94.20","72.02","FORT ROSS","2402051","2021-12-28 04:00","2021","12","28","04:00","-23.1","","","M","","M","0.0","","36","","11","","","","101.42","","","","-31","","NA"
"-94.20","72.02","FORT ROSS","2402051","2021-12-28 05:00","2021","12","28","05:00","-22.4","","","M","","M","0.0","","36","","17","","","","101.44","","","","-33","","NA"
"-94.20","72.02","FORT ROSS","2402051","2021-12-28 06:00","2021","12","28","06:00","-21.9","","","M","","M","0.0","","33","","7","","","","101.47","","","","-28","","NA"
"-94.20","72.02","FORT ROSS","2402051","2021-12-28 07:00","2021","12","28","07:00","-21.7","","","M","","M","0.0","","28","","4","","","","101.52","","","","-25","","NA"
"-94.20","72.02","FORT ROSS","2402051","2021-12-28 08:00","2021","12","28","08:00","-22.7","","","M","","M","0.0","","25","","8","","","","101.55","","","","-29","","NA"
"-94.20","72.02","FORT ROSS","2402051","2021-12-28 09:00","2021","12","28","09:00","-24.0","","","M","","M","0.0","","25","","14","","","","101.61","","","","-34","","NA"
"-94.20","72.02","FORT ROSS","2402051","2021-12-28 10:00","2021","12","28","10:00","-24.2","","","M","","M","0.0","","25","","6","","","","101.62","","","","-30","","NA"
"-94.20","72.02","FORT ROSS","2402051","2021-12-28 11:00","2021","12","28","11:00","-24.6","","","M","","M","0.0","","25","","19","","","","101.68","","","","-36","","NA"
"-94.20","72.02","FORT ROSS","2402051","2021-12-28 12:00","2021","12","28","12:00","-23.9","","","M","","M","0.0","","26","","23","","","","101.67","","","","-36","","NA"
"-94.20","72.02","FORT ROSS","2402051","2021-12-28 13:00","2021","12","28","13:00","-25.1","","","M","","M","0.0","","24","","16","","","","101.79","","","","-36","","NA"
"-94.20","72.02","FORT ROSS","2402051","2021-12-28 14:00","2021","12","28","14:00","-25.1","","","M","","M","0.0","","25","","21","","","","101.84","","","","-37","","NA"
"-94.20","72.02","FORT ROSS","2402051","2021-12-28 15:00","2021","12","28","15:00","-24.7","","","M","","M","0.0","","25","","21","","","","101.87","","","","-37","","NA"
"-94.20","72.02","FORT ROSS","2402051","2021-12-28 16:00","2021","12","28","16:00","-24.6","","","M","","M","0.0","","23","","21","","","","101.97","","","","-37","","NA"
"-94.20","72.02","FORT ROSS","2402051","2021-12-28 17:00","2021","12","28","17:00","-24.2","","","M","","M","0.0","","23","","16","","","","102.01","","","","-35","","NA"
"-94.20","72.02","FORT ROSS","2402051","2021-12-28 18:00","2021","12","28","18:00","-23.6","","","M","","M","0.0","","23","","23","","","","102.05","","","","-36","","NA"
"-94.20","72.02","FORT ROSS","2402051","2021-12-28 19:00","2021","12","28","19:00","-24.4","","","M","","M","0.0","","24","","34","","","","102.06","","","","-39","","NA"
"-94.20","72.02","FORT ROSS","2402051","2021-12-28 20:00","2021","12","28","20:00","-23.8","","","M","","M","0.0","","25","","17","","","","102.08","","","","-34","","NA"
"-94.20","72.02","FORT ROSS","2402051","2021-12-28 21:00","2021","12","28","21:00","-24.0","","","M","","M","0.0","","25","","10","","","","102.12","","","","-32","","NA"
"-94.20","72.02","FORT ROSS","2402051","2021-12-28 22:00","2021","12","28","22:00","-23.9","","","M","","M","0.0","","26","","21","","","","102.19","","","","-36","","NA"
"-94.20","72.02","FORT ROSS","2402051","2021-12-28 23:00","2021","12","28","23:00","-23.8","","","M","","M","0.0","","24","","17","","","","102.26","","","","-34","","NA"
"-94.20","72.02","FORT ROSS","2402051","2021-12-29 00:00","2021","12","29","00:00","-24.3","","","M","","M","0.0","","28","","12","","","","102.26","","","","-33","","NA"
"-94.20","72.02","FORT ROSS","2402051","2021-12-29 01:00","2021","12","29","01:00","-25.5","","","M","","M","0.0","","23","","10","","","","102.29","","","","-34","","NA"
"-94.20","72.02","FORT ROSS","2402051","2021-12-29 02:00","2021","12","29","02:00","-25.8","","","M","","M","0.0","","25","","18","","","","102.32","","","","-37","","NA"
"-94.20","72.02","FORT ROSS","2402051","2021-12-29 03:00","2021","12","29","03:00","-24.6","","","M","","M","0.0","","21","","10","","","","102.33","","","","-33","","NA"
"-94.20","72.02","FORT ROSS","2402051","2021-12-29 04:00","2021","12","29","04:00","-26.3","","","M","","M","0.0","","17","","9","","","","102.33","","","","-34","","NA"
"-94.20","72.02","FORT ROSS","2402051","2021-12-29 05:00","2021","12","29","05:00","-25.9","","","M","","M","0.0","","17","","3","","","","102.33","","","","-29","","NA"
"-94.20","72.02","FORT ROSS","2402051","2021-12-29 06:00","2021","12","29","06:00","-25.2","","","M","","M","0.0","","2","","6","","","","102.29","","","","-31","","NA"
"-94.20","72.02","FORT ROSS","2402051","2021-12-29 07:00","2021","12","29","07:00","-24.5","","","M","","M","0.0","","2","","8","","","","102.26","","","","-32","","NA"
"-94.20","72.02","FORT ROSS","2402051","2021-12-29 08:00","2021","12","29","08:00","-23.4","","","M","","M","0.0","","36","","9","","","","102.26","","","","-31","","NA"
"-94.20","72.02","FORT ROSS","2402051","2021-12-29 09:00","2021","12","29","09:00","-22.7","","","M","","M","0.2","","1","","7","","","","102.26","","","","-29","","NA"
"-94.20","72.02","FORT ROSS","2402051","2021-12-29 10:00","2021","12","29","10:00","-22.2","","","M","","M","0.0","","32","","3","","","","102.26","","","","-25","","NA"
"-94.20","72.02","FORT ROSS","2402051","2021-12-29 11:00","2021","12","29","11:00","-22.2","","","M","","M","0.2","","36","","6","","","","102.25","","","","-28","","NA"
"-94.20","72.02","FORT ROSS","2402051","2021-12-29 12:00","2021","12","29","12:00","-21.9","","","M","","M","0.0","","1","","5","","","","102.26","","","","-26","","NA"
"-94.20","72.02","FORT ROSS","2402051","2021-12-29 13:00","2021","12","29","13:00","-21.6","","","M","","M","0.0","","2","","3","","","","102.25","","","","-24","","NA"
"-94.20","72.02","FORT ROSS","2402051","2021-12-29 14:00","2021","12","29","14:00","-21.4","","","M","","M","0.0","","35","","3","","","","102.27","","","","-24","","NA"
"-94.20","72.02","FORT ROSS","2402051","2021-12-29 15:00","2021","12","29","15:00","-21.2","","","M","","M","0.0","","19","","5","","","","102.27","","","","-26","","NA"
"-94.20","72.02","FORT ROSS","2402051","2021-12-29 16:00","2021","12","29","16:00","-21.2","","","M","","M","0.2","","35","","8","","","","102.27","","","","-28","","NA"
"-94.20","72.02","FORT ROSS","2402051","2021-12-29 17:00","2021","12","29","17:00","-20.6","","","M","","M","0.0","","2","","3","","","","102.27","","","","-23","","NA"
"-94.20","72.02","FORT ROSS","2402051","2021-12-29 18:00","2021","12","29","18:00","-20.2","","","M","","M","0.0","","36","","5","","","","102.24","","","","-25","","NA"
"-94.20","72.02","FORT ROSS","2402051","2021-12-29 19:00","2021","12","29","19:00","-19.7","","","M","","M","0.0","","35","","5","","","","102.21","","","","-24","","NA"
"-94.20","72.02","FORT ROSS","2402051","2021-12-29 20:00","2021","12","29","20:00","-20.5","","","M","","M","0.0","","35","","10","","","","102.24","","","","-28","","NA"
"-94.20","72.02","FORT ROSS","2402051","2021-12-29 21:00","2021","12","29","21:00","-23.2","","","M","","M","0.0","","36","","14","","","","102.19","","","","-33","","NA"
"-94.20","72.02","FORT ROSS","2402051","2021-12-29 22:00","2021","12","29","22:00","-23.7","","","M","","M","0.0","","36","","14","","","","102.17","","","","-33","","NA"
"-94.20","72.02","FORT ROSS","2402051","2021-12-29 23:00","2021","12","29","23:00","-23.8","","","M","","M","0.0","","35","","14","","","","102.18","","","","-33","","NA"
"-94.20","72.02","FORT ROSS","2402051","2021-12-30 00:00","2021","12","30","00:00","-24.2","","","M","","M","0.0","","36","","12","","","","102.19","","","","-33","","NA"
"-94.20","72.02","FORT ROSS","2402051","2021-12-30 01:00","2021","12","30","01:00","-24.3","","","M","","M","0.0","","36","","12","","","","102.22","","","","-33","","NA"
"-94.20","72.02","FORT ROSS","2402051","2021-12-30 02:00","2021","12","30","02:00","-25.5","","","M","","M","0.0","","35","","16","","","","102.19","","","","-36","","NA"
"-94.20","72.02","FORT ROSS","2402051","2021-12-30 03:00","2021","12","30","03:00","-25.2","","","M","","M","0.0","","36","","19","","","","102.17","","","","-37","","NA"
"-94.20","72.02","FORT ROSS","2402051","2021-12-30 04:00","2021","12","30","04:00","-24.4","","","M","","M","0.0","","1","","22","","","","102.14","","","","-37","","NA"
"-94.20","72.02","FORT ROSS","2402051","2021-12-30 05:00","2021","12","30","05:00","-25.5","","","M","","M","0.2","","36","","18","","","","102.14","","","","-37","","NA"
"-94.20","72.02","FORT ROSS","2402051","2021-12-30 06:00","2021","12","30","06:00","-26.2","","","M","","M","0.0","","36","","18","","","","102.11","","","","-38","","NA"
"-94.20","72.02","FORT ROSS","2402051","2021-12-30 07:00","2021","12","30","07:00","-26.5","","","M","","M","0.0","","36","","15","","","","102.08","","","","-37","","NA"
"-94.20","72.02","FORT ROSS","2402051","2021-12-30 08:00","2021","12","30","08:00","-25.6","","","M","","M","0.0","","36","","13","","","","102.07","","","","-35","","NA"
"-94.20","72.02","FORT ROSS","2402051","2021-12-30 09:00","2021","12","30","09:00","-26.1","","","M","","M","0.0","","36","","12","","","","102.04","","","","-35","","NA"
"-94.20","72.02","FORT ROSS","2402051","2021-12-30 10:00","2021","12","30","10:00","-26.0","","","M","","M","0.0","","36","","17","","","","102.00","","","","-37","","NA"
"-94.20","72.02","FORT ROSS","2402051","2021-12-30 11:00","2021","12","30","11:00","-26.0","","","M","","M","0.0","","1","","18","","","","102.01","","","","-37","","NA"
"-94.20","72.02","FORT ROSS","2402051","2021-12-30 12:00","2021","12","30","12:00","-24.7","","","M","","M","0.0","","35","","15","","","","101.97","","","","-35","","NA"
"-94.20","72.02","FORT ROSS","2402051","2021-12-30 13:00","2021","12","30","13:00","-23.9","","","M","","M","0.0","","36","","18","","","","101.91","","","","-35","","NA"
"-94.20","72.02","FORT ROSS","2402051","2021-12-30 14:00","2021","12","30","14:00","-24.2","","","M","","M","0.2","","1","","16","","","","101.90","","","","-35","","NA"
"-94.20","72.02","FORT ROSS","2402051","2021-12-30 15:00","2021","12","30","15:00","-22.8","","","M","","M","0.0","","2","","22","","","","101.88","","","","-35","","NA"
"-94.20","72.02","FORT ROSS","2402051","2021-12-30 16:00","2021","12","30","16:00","-24.2","","","M","","M","0.0","","36","","23","","","","101.86","","","","-37","","NA"
"-94.20","72.02","FORT ROSS","2402051","2021-12-30 17:00","2021","12","30","17:00","-24.2","","","M","","M","0.0","","36","","22","","","","101.82","","","","-36","","NA"
"-94.20","72.02","FORT ROSS","2402051","2021-12-30 18:00","2021","12","30","18:00","-23.1","","","M","","M","0.0","","1","","30","","","","101.78","","","","-37","","NA"
"-94.20","72.02","FORT ROSS","2402051","2021-12-30 19:00","2021","12","30","19:00","-23.8","","","M","","M","0.0","","36","","23","","","","101.75","","","","-36","","NA"
"-94.20","72.02","FORT ROSS","2402051","2021-12-30 20:00","2021","12","30","20:00"
"-94.20","72.02","FORT ROSS","2402051","2021-12-30 21:00","2021","12","30","21:00","-23.1","","","M","","M","0.0","","36","","26","","","","101.70","","","","-36","","NA"
"-94.20","72.02","FORT ROSS","2402051","2021-12-30 22:00","2021","12","30","22:00","-22.8","","","M","","M","0.0","","36","","28","","","","101.66","","","","-36","","NA"
"-94.20","72.02","FORT ROSS","2402051","2021-12-30 23:00","2021","12","30","23:00","-23.2","","","M","","M","0.0","","36","","27","","","","101.63","","","","-36","","NA"
"-94.20","72.02","FORT ROSS","2402051","2021-12-31 00:00","2021","12","31","00:00","-22.7","","","M","","M","0.0","","36","","28","","","","101.61","","","","-36","","NA"
"-94.20","72.02","FORT ROSS","2402051","2021-12-31 01:00","2021","12","31","01:00","-22.6","","","M","","M","0.0","","1","","28","","","","101.61","","","","-36","","NA"
"-94.20","72.02","FORT ROSS","2402051","2021-12-31 02:00","2021","12","31","02:00","-21.9","","","M","","M","0.0","","36","","27","","","","101.59","","","","-34","","NA"
"-94.20","72.02","FORT ROSS","2402051","2021-12-31 03:00","2021","12","31","03:00","-22.5","","","M","","M","0.0","","36","","27","","","","101.60","","","","-35","","NA"
"-94.20","72.02","FORT ROSS","2402051","2021-12-31 04:00","2021","12","31","04:00","-21.8","","","M","","M","0.0","","36","","28","","","","101.57","","","","-35","","NA"
"-94.20","72.02","FORT ROSS","2402051","2021-12-31 05:00","2021","12","31","05:00","-22.0","","","M","","M","0.0","","36","","27","","","","101.54","","","","-35","","NA"
"-94.20","72.02","FORT ROSS","2402051","2021-12-31 06:00","2021","12","31","06:00","-21.2","","","M","","M","0.0","","36","","29","","","","101.54","","","","-34","","NA"
"-94.20","72.02","FORT ROSS","2402051","2021-12-31 07:00","2021","12","31","07:00","-21.7","","","M","","M","0.0","","1","","22","","","","101.52","","","","-33","","NA"
"-94.20","72.02","FORT ROSS","2402051","2021-12-31 08:00","2021","12","31","08:00","-21.4","","","M","","M","0.0","","36","","26","","","","101.51","","","","-34","","NA"
"-94.20","72.02","FORT ROSS","2402051","2021-12-31 09:00","2021","12","31","09:00","-21.4","","","M","","M","0.0","","1","","26","","","","101.48","","","","-34","","NA"
"-94.20","72.02","FORT ROSS","2402051","2021-12-31 10:00","2021","12","31","10:00","-21.2","","","M","","M","0.0","","36","","24","","","","101.46","","","","-33","","NA"
"-94.20","72.02","FORT ROSS","2402051","2021-12-31 11:00","2021","12","31","11:00","-21.2","","","M","","M","0.0","","36","","22","","","","101.44","","","","-32","","NA"
"-94.20","72.02","FORT ROSS","2402051","2021-12-31 12:00","2021","12","31","12:00","-22.5","","","M","","M","0.0","","36","","22","","","","101.45","","","","-34","","NA"
"-94.20","72.02","FORT ROSS","2402051","2021-12-31 13:00","2021","12","31","13:00","-23.5","","","M","","M","0.0","","36","","23","","","","101.45","","","","-36","","NA"
"-94.20","72.02","FORT ROSS","2402051","2021-12-31 14:00","2021","12","31","14:00","-23.2","","","M","","M","0.0","","36","","18","","","","101.46","","","","-34","","NA"
"-94.20","72.02","FORT ROSS","2402051","2021-12-31 15:00","2021","12","31","15:00","-23.3","","","M","","M","0.0","","35","","18","","","","101.42","","","","-34","","NA"
"-94.20","72.02","FORT ROSS","2402051","2021-12-31 16:00","2021","12","31","16:00","-22.6","","","M","","M","0.0","","36","","19","","","","101.41","","","","-33","","NA"
"-94.20","72.02","FORT ROSS","2402051","2021-12-31 17:00","2021","12","31","17:00","-23.4","","","M","","M","0.0","","34","","15","","","","101.41","","","","-33","","NA"
"-94.20","72.02","FORT ROSS","2402051","2021-12-31 18:00","2021","12","31","18:00","-22.5","","","M","","M","0.0","","1","","20","","","","101.39","","","","-34","","NA"
"-94.20","72.02","FORT ROSS","2402051","2021-12-31 19:00","2021","12","31","19:00","-22.4","","","M","","M","0.0","","1","","24","","","","101.37","","","","-34","","NA"
"-94.20","72.02","FORT ROSS","2402051","2021-12-31 20:00","2021","12","31","20:00","-22.7","","","M","","M","0.0","","1","","23","","","","101.35","","","","-35","","NA"
"-94.20","72.02","FORT ROSS","2402051","2021-12-31 21:00","2021","12","31","21:00","-21.8","","","M","","M","0.0","","36","","21","","","","101.33","","","","-33","","NA"
"-94.20","72.02","FORT ROSS","2402051","2021-12-31 22:00","2021","12","31","22:00","-20.6","","","M","","M","0.0","","36","","25","","","","101.28","","","","-32","","NA"
"-94.20","72.02","FORT ROSS","2402051","2021-12-31 23:00","2021","12","31","23:00","-21.2","","","M","","M","0.0","","36","","25","","","","101.23","","","","-33","","NA"
