"Longitude (x)","Latitude (y)","Station Name","Climate ID","Date/Time (LST)","Year","Month","Day","Time (LST)","Temp (°C)","Temp Flag","Dew Point Temp (°C)","Dew Point Temp Flag","Rel Hum (%)","Rel Hum Flag","Precip. Amount (mm)","Precip. Amount Flag","Wind Dir (10s deg)","Wind Dir Flag","Wind Spd (km/h)","Wind Spd Flag","Visibility (km)","Visibility Flag","Stn Press (kPa)","Stn Press Flag","Hmdx","Hmdx Flag","Wind Chill","Wind Chill Flag","Weather"
"-76.60","44.23","KINGSTON A","6104149","2020-11-01 00:00","2020","11","01","00:00"
"-76.60","44.23","KINGSTON A","6104149","2020-11-01 01:00","2020","11","01","01:00"
"-76.60","44.23","KINGSTON A","6104149","2020-11-01 02:00","2020","11","01","02:00"
"-76.60","44.23","KINGSTON A","6104149","2020-11-01 03:00","2020","11","01","03:00"
"-76.60","44.23","KINGSTON A","6104149","2020-11-01 04:00","2020","11","01","04:00"
"-76.60","44.23","KINGSTON A","6104149","2020-11-01 05:00","2020","11","01","05:00"
"-76.60","44.23","KINGSTON A","6104149","2020-11-01 06:00","2020","11","01","06:00","6.9","","3.7","","80","","","","17","","47","","24.1","","100.02","","","","","","NA"
"-76.60","44.23","KINGSTON A","6104149","2020-11-01 07:00","2020","11","01","07:00","7.5","","3.9","","78","","","","17","","48","","24.1","","99.84","","","","","","Cloudy"
"-76.60","44.23","KINGSTON A","6104149","2020-11-01 08:00","2020","11","01","08:00","8.2","","4.7","","79","","","","18","","51","","24.1","","99.72","","","","","","NA"
"-76.60","44.23","KINGSTON A","6104149","2020-11-01 09:00","2020","11","01","09:00","8.6","","5.0","","78","","","","17","","41","","24.1","","99.58","","","","","","NA"
"-76.60","44.23","KINGSTON A","6104149","2020-11-01 10:00","2020","11","01","10:00","8.6","","6.0","","83","","","","18","","46","","24.1","","99.40","","","","","","Rain Showers"
"-76.60","44.23","KINGSTON A","6104149","2020-11-01 11:00","2020","11","01","11:00","8.5","","7.0","","90","","","","17","","49","","6.4","","99.20","","","","","","Rain Showers,Fog"
"-76.60","44.23","KINGSTON A","6104149","2020-11-01 12:00","2020","11","01","12:00","9.2","","7.6","","89","","","","18","","39","","8.1","","99.05","","","","","","Rain Showers,Fog"
"-76.60","44.23","KINGSTON A","6104149","2020-11-01 13:00","2020","11","01","13:00","9.7","","7.5","","86","","","","20","","50","","24.1","","98.96","","","","","","Rain Showers"
"-76.60","44.23","KINGSTON A","6104149","2020-11-01 14:00","2020","11","01","14:00","8.5","","6.9","","90","","","","26","","27","","9.7","","99.01","","","","","","Rain Showers,Fog"
"-76.60","44.23","KINGSTON A","6104149","2020-11-01 15:00","2020","11","01","15:00","6.8","","3.1","","77","","","","26","","26","","24.1","","99.09","","","","","","Rain Showers"
"-76.60","44.23","KINGSTON A","6104149","2020-11-01 16:00","2020","11","01","16:00","7.5","","3.5","","76","","","","25","","21","","24.1","","99.09","","","","","","Mostly Cloudy"
"-76.60","44.23","KINGSTON A","6104149","2020-11-01 17:00","2020","11","01","17:00","6.5","","2.8","","77","","","","27","","20","","24.1","","99.23","","","","","","NA"
"-76.60","44.23","KINGSTON A","6104149","2020-11-01 18:00","2020","11","01","18:00","4.0","","1.9","","86","","","","27","","23","","24.1","","99.43","","","","","","NA"
"-76.60","44.23","KINGSTON A","6104149","2020-11-01 19:00","2020","11","01","19:00","3.4","","0.1","","79","","","","28","","19","","24.1","","99.51","","","","","","Mostly Cloudy"
"-76.60","44.23","KINGSTON A","6104149","2020-11-01 20:00","2020","11","01","20:00","2.9","","0.2","","82","","","","26","","19","","24.1","","99.51","","","","","","NA"
"-76.60","44.23","KINGSTON A","6104149","2020-11-01 21:00","2020","11","01","21:00","2.7","","-1.3","","75","","","","26","","18","","24.1","","99.47","","","","","","NA"
"-76.60","44.23","KINGSTON A","6104149","2020-11-01 22:00","2020","11","01","22:00","1.6","","-2.6","","73","","","","28","","17","","24.1","","99.40","","","","","","Mainly Clear"
"-76.60","44.23","KINGSTON A","6104149","2020-11-01 23:00","2020","11","01","23:00","0.8","","-2.5","","79","","","","27","","18","","24.1","","99.35","","","","","","NA"
"-76.60","44.23","KINGSTON A","6104149","2020-11-02 00:00","2020","11","02","00:00"
"-76.60","44.23","KINGSTON A","6104149","2020-11-02 01:00","2020","11","02","01:00"
"-76.60","44.23","KINGSTON A","6104149","2020-11-02 02:00","2020","11","02","02:00"
"-76.60","44.23","KINGSTON A","6104149","2020-11-02 03:00","2020","11","02","03:00"
"-76.60","44.23","KINGSTON A","6104149","2020-11-02 04:00","2020","11","02","04:00"
"-76.60","44.23","KINGSTON A","6104149","2020-11-02 05:00","2020","11","02","05:00"
"-76.60","44.23","KINGSTON A","6104149","2020-11-02 06:00","2020","11","02","06:00","-1.0","","-8.7","","56","","","","33","","40","","24.1","","99.88","","","","-9","","NA"
"-76.60","44.23","KINGSTON A","6104149","2020-11-02 07:00","2020","11","02","07:00","-1.7","","-8.9","","58","","","","32","","28","","24.1","","100.01","","","","-8","","Mostly Cloudy"
"-76.60","44.23","KINGSTON A","6104149","2020-11-02 08:00","2020","11","02","08:00","-2.0","","-8.7","","61","","","","32","","22","","24.1","","100.15","","","","-8","","NA"
"-76.60","44.23","KINGSTON A","6104149","2020-11-02 09:00","2020","11","02","09:00","-1.7","","-9.3","","56","","","","32","","28","","24.1","","100.20","","","","-8","","NA"
"-76.60","44.23","KINGSTON A","6104149","2020-11-02 10:00","2020","11","02","10:00","-1.1","","-10.0","","51","","","","29","","32","","24.1","","100.21","","","","-8","","Mostly Cloudy"
"-76.60","44.23","KINGSTON A","6104149","2020-11-02 11:00","2020","11","02","11:00","-0.6","","-10.2","","48","","","","30","","30","","24.1","","100.21","","","","-7","","NA"
"-76.60","44.23","KINGSTON A","6104149","2020-11-02 12:00","2020","11","02","12:00","0.8","","-9.6","","46","","","","29","","22","","24.1","","100.15","","","","","","NA"
"-76.60","44.23","KINGSTON A","6104149","2020-11-02 13:00","2020","11","02","13:00","1.4","","-8.8","","47","","","","25","","25","","24.1","","100.08","","","","","","Mainly Clear"
"-76.60","44.23","KINGSTON A","6104149","2020-11-02 14:00","2020","11","02","14:00","2.0","","-9.6","","42","","","","26","","27","","24.1","","100.03","","","","","","NA"
"-76.60","44.23","KINGSTON A","6104149","2020-11-02 15:00","2020","11","02","15:00","1.8","","-9.9","","42","","","","27","","30","","24.1","","99.96","","","","","","NA"
"-76.60","44.23","KINGSTON A","6104149","2020-11-02 16:00","2020","11","02","16:00","0.6","","-6.2","","61","","","","25","","15","","24.1","","99.91","","","","","","Cloudy"
"-76.60","44.23","KINGSTON A","6104149","2020-11-02 17:00","2020","11","02","17:00","0.6","","-3.2","","76","","","","25","","20","","24.1","","99.80","","","","","","NA"
"-76.60","44.23","KINGSTON A","6104149","2020-11-02 18:00","2020","11","02","18:00","1.8","","-3.0","","71","","","","26","","19","","24.1","","99.61","","","","","","NA"
"-76.60","44.23","KINGSTON A","6104149","2020-11-02 19:00","2020","11","02","19:00","3.5","","-1.8","","68","","","","25","","24","","24.1","","99.48","","","","","","Cloudy"
"-76.60","44.23","KINGSTON A","6104149","2020-11-02 20:00","2020","11","02","20:00","5.5","","-2.6","","56","","","","25","","32","","24.1","","99.30","","","","","","Snow Showers"
"-76.60","44.23","KINGSTON A","6104149","2020-11-02 21:00","2020","11","02","21:00","6.4","","-2.8","","52","","","","25","","40","","24.1","","99.12","","","","","","Snow Showers"
"-76.60","44.23","KINGSTON A","6104149","2020-11-02 22:00","2020","11","02","22:00","5.9","","-3.2","","52","","","","26","","32","","24.1","","99.08","","","","","","Snow Showers"
"-76.60","44.23","KINGSTON A","6104149","2020-11-02 23:00","2020","11","02","23:00","6.0","","-2.1","","56","","","","29","","22","","24.1","","99.17","","","","","","Rain Showers"
"-76.60","44.23","KINGSTON A","6104149","2020-11-03 00:00","2020","11","03","00:00"
"-76.60","44.23","KINGSTON A","6104149","2020-11-03 01:00","2020","11","03","01:00"
"-76.60","44.23","KINGSTON A","6104149","2020-11-03 02:00","2020","11","03","02:00"
"-76.60","44.23","KINGSTON A","6104149","2020-11-03 03:00","2020","11","03","03:00"
"-76.60","44.23","KINGSTON A","6104149","2020-11-03 04:00","2020","11","03","04:00"
"-76.60","44.23","KINGSTON A","6104149","2020-11-03 05:00","2020","11","03","05:00"
"-76.60","44.23","KINGSTON A","6104149","2020-11-03 06:00","2020","11","03","06:00","-0.2","","-5.7","","67","","","","35","","22","","24.1","","100.10","","","","-6","","NA"
"-76.60","44.23","KINGSTON A","6104149","2020-11-03 07:00","2020","11","03","07:00","-2.1","","-6.9","","70","","","","36","","10","","24.1","","100.36","","","","-6","","Mainly Clear"
"-76.60","44.23","KINGSTON A","6104149","2020-11-03 08:00","2020","11","03","08:00","-0.1","","-8.0","","55","","","","32","","18","","24.1","","100.49","","","","-5","","NA"
"-76.60","44.23","KINGSTON A","6104149","2020-11-03 09:00","2020","11","03","09:00","-0.4","","-8.3","","55","","","","33","","24","","24.1","","100.62","","","","-6","","NA"
"-76.60","44.23","KINGSTON A","6104149","2020-11-03 10:00","2020","11","03","10:00","0.0","","-9.0","","51","","","","31","","17","","24.1","","100.72","","","","-5","","Mostly Cloudy"
"-76.60","44.23","KINGSTON A","6104149","2020-11-03 11:00","2020","11","03","11:00","-0.3","","-9.2","","52","","","","36","","15","","24.1","","100.87","","","","-5","","NA"
"-76.60","44.23","KINGSTON A","6104149","2020-11-03 12:00","2020","11","03","12:00","0.4","","-8.6","","51","","","","32","","13","","24.1","","100.93","","","","","","NA"
"-76.60","44.23","KINGSTON A","6104149","2020-11-03 13:00","2020","11","03","13:00","-0.1","","-9.0","","51","","","","34","","20","","24.1","","100.98","","","","-5","","Cloudy"
"-76.60","44.23","KINGSTON A","6104149","2020-11-03 14:00","2020","11","03","14:00","0.0","","-9.0","","51","","","","33","","14","","24.1","","101.00","","","","-4","","NA"
"-76.60","44.23","KINGSTON A","6104149","2020-11-03 15:00","2020","11","03","15:00","0.3","","-8.9","","50","","","","33","","6","","24.1","","101.05","","","","","","NA"
"-76.60","44.23","KINGSTON A","6104149","2020-11-03 16:00","2020","11","03","16:00","0.4","","-8.5","","52","","","","36","","5","","24.1","","101.10","","","","","","Mostly Cloudy"
"-76.60","44.23","KINGSTON A","6104149","2020-11-03 17:00","2020","11","03","17:00","-0.4","","-7.5","","59","","","","8","","7","","24.1","","101.13","","","","-3","","NA"
"-76.60","44.23","KINGSTON A","6104149","2020-11-03 18:00","2020","11","03","18:00","-0.1","","-7.3","","58","","","","6","","7","","24.1","","101.20","","","","-3","","NA"
"-76.60","44.23","KINGSTON A","6104149","2020-11-03 19:00","2020","11","03","19:00","0.1","","-6.9","","59","","","","7","","7","","24.1","","101.24","","","","","","Cloudy"
"-76.60","44.23","KINGSTON A","6104149","2020-11-03 20:00","2020","11","03","20:00","0.5","","-7.2","","57","","","","8","","11","","24.1","","101.26","","","","","","NA"
"-76.60","44.23","KINGSTON A","6104149","2020-11-03 21:00","2020","11","03","21:00","1.0","","-5.7","","61","","","","11","","15","","24.1","","101.27","","","","","","NA"
"-76.60","44.23","KINGSTON A","6104149","2020-11-03 22:00","2020","11","03","22:00","1.2","","-5.7","","60","","","","11","","18","","24.1","","101.25","","","","","","Cloudy"
"-76.60","44.23","KINGSTON A","6104149","2020-11-03 23:00","2020","11","03","23:00","1.0","","-5.3","","63","","","","10","","15","","24.1","","101.30","","","","","","NA"
"-76.60","44.23","KINGSTON A","6104149","2020-11-04 00:00","2020","11","04","00:00"
"-76.60","44.23","KINGSTON A","6104149","2020-11-04 01:00","2020","11","04","01:00"
"-76.60","44.23","KINGSTON A","6104149","2020-11-04 02:00","2020","11","04","02:00"
"-76.60","44.23","KINGSTON A","6104149","2020-11-04 03:00","2020","11","04","03:00"
"-76.60","44.23","KINGSTON A","6104149","2020-11-04 04:00","2020","11","04","04:00"
"-76.60","44.23","KINGSTON A","6104149","2020-11-04 05:00","2020","11","04","05:00"
"-76.60","44.23","KINGSTON A","6104149","2020-11-04 06:00","2020","11","04","06:00","6.8","","4.3","","84","","","","18","","29","","24.1","","101.15","","","","","","NA"
"-76.60","44.23","KINGSTON A","6104149","2020-11-04 07:00","2020","11","04","07:00","7.9","","5.0","","82","","","","18","","32","","24.1","","101.14","","","","","","Mainly Clear"
"-76.60","44.23","KINGSTON A","6104149","2020-11-04 08:00","2020","11","04","08:00","9.5","","5.7","","77","","","","19","","30","","24.1","","101.17","","","","","","NA"
"-76.60","44.23","KINGSTON A","6104149","2020-11-04 09:00","2020","11","04","09:00","10.1","","6.0","","76","","","","18","","33","","24.1","","101.19","","","","","","NA"
"-76.60","44.23","KINGSTON A","6104149","2020-11-04 10:00","2020","11","04","10:00","10.1","","5.9","","75","","","","18","","27","","24.1","","101.21","","","","","","Mainly Clear"
"-76.60","44.23","KINGSTON A","6104149","2020-11-04 11:00","2020","11","04","11:00","12.1","","6.4","","68","","","","19","","30","","24.1","","101.20","","","","","","NA"
"-76.60","44.23","KINGSTON A","6104149","2020-11-04 12:00","2020","11","04","12:00","12.6","","7.2","","70","","","","19","","24","","24.1","","101.15","","","","","","NA"
"-76.60","44.23","KINGSTON A","6104149","2020-11-04 13:00","2020","11","04","13:00","13.2","","7.5","","68","","","","19","","25","","24.1","","101.12","","","","","","Clear"
"-76.60","44.23","KINGSTON A","6104149","2020-11-04 14:00","2020","11","04","14:00","12.9","","8.4","","74","","","","18","","16","","24.1","","101.10","","","","","","NA"
"-76.60","44.23","KINGSTON A","6104149","2020-11-04 15:00","2020","11","04","15:00","14.1","","8.3","","68","","","","20","","14","","24.1","","101.08","","","","","","NA"
"-76.60","44.23","KINGSTON A","6104149","2020-11-04 16:00","2020","11","04","16:00","12.9","","9.0","","77","","","","19","","15","","24.1","","101.06","","","","","","Clear"
"-76.60","44.23","KINGSTON A","6104149","2020-11-04 17:00","2020","11","04","17:00","12.0","","8.5","","79","","","","20","","15","","24.1","","101.03","","","","","","NA"
"-76.60","44.23","KINGSTON A","6104149","2020-11-04 18:00","2020","11","04","18:00","12.3","","7.9","","74","","","","22","","14","","24.1","","101.05","","","","","","NA"
"-76.60","44.23","KINGSTON A","6104149","2020-11-04 19:00","2020","11","04","19:00","12.2","","8.4","","77","","","","21","","17","","24.1","","101.05","","","","","","Clear"
"-76.60","44.23","KINGSTON A","6104149","2020-11-04 20:00","2020","11","04","20:00","12.4","","8.2","","75","","","","22","","15","","24.1","","101.08","","","","","","NA"
"-76.60","44.23","KINGSTON A","6104149","2020-11-04 21:00","2020","11","04","21:00","12.7","","8.3","","74","","","","19","","20","","24.1","","101.09","","","","","","NA"
"-76.60","44.23","KINGSTON A","6104149","2020-11-04 22:00","2020","11","04","22:00","12.3","","8.5","","77","","","","18","","24","","24.1","","101.10","","","","","","Clear"
"-76.60","44.23","KINGSTON A","6104149","2020-11-04 23:00","2020","11","04","23:00","12.5","","8.0","","74","","","","19","","28","","24.1","","101.11","","","","","","NA"
"-76.60","44.23","KINGSTON A","6104149","2020-11-05 00:00","2020","11","05","00:00"
"-76.60","44.23","KINGSTON A","6104149","2020-11-05 01:00","2020","11","05","01:00"
"-76.60","44.23","KINGSTON A","6104149","2020-11-05 02:00","2020","11","05","02:00"
"-76.60","44.23","KINGSTON A","6104149","2020-11-05 03:00","2020","11","05","03:00"
"-76.60","44.23","KINGSTON A","6104149","2020-11-05 04:00","2020","11","05","04:00"
"-76.60","44.23","KINGSTON A","6104149","2020-11-05 05:00","2020","11","05","05:00"
"-76.60","44.23","KINGSTON A","6104149","2020-11-05 06:00","2020","11","05","06:00","12.2","","7.5","","73","","","","20","","26","","24.1","","101.07","","","","","","NA"
"-76.60","44.23","KINGSTON A","6104149","2020-11-05 07:00","2020","11","05","07:00","12.1","","7.6","","74","","","","20","","22","","24.1","","101.11","","","","","","Mainly Clear"
"-76.60","44.23","KINGSTON A","6104149","2020-11-05 08:00","2020","11","05","08:00","12.7","","7.9","","72","","","","19","","21","","24.1","","101.15","","","","","","NA"
"-76.60","44.23","KINGSTON A","6104149","2020-11-05 09:00","2020","11","05","09:00","13.4","","7.6","","68","","","","19","","28","","24.1","","101.14","","","","","","NA"
"-76.60","44.23","KINGSTON A","6104149","2020-11-05 10:00","2020","11","05","10:00","14.0","","7.4","","64","","","","20","","28","","24.1","","101.11","","","","","","Mostly Cloudy"
"-76.60","44.23","KINGSTON A","6104149","2020-11-05 11:00","2020","11","05","11:00","15.1","","6.9","","58","","","","20","","32","","24.1","","101.06","","","","","","NA"
"-76.60","44.23","KINGSTON A","6104149","2020-11-05 12:00","2020","11","05","12:00","15.4","","7.1","","58","","","","20","","28","","24.1","","101.05","","","","","","NA"
"-76.60","44.23","KINGSTON A","6104149","2020-11-05 13:00","2020","11","05","13:00","15.7","","7.3","","57","","","","20","","27","","24.1","","101.01","","","","","","Mostly Cloudy"
"-76.60","44.23","KINGSTON A","6104149","2020-11-05 14:00","2020","11","05","14:00","16.5","","7.6","","55","","","","20","","23","","24.1","","100.97","","","","","","NA"
"-76.60","44.23","KINGSTON A","6104149","2020-11-05 15:00","2020","11","05","15:00","15.6","","7.2","","57","","","","20","","21","","24.1","","100.95","","","","","","NA"
"-76.60","44.23","KINGSTON A","6104149","2020-11-05 16:00","2020","11","05","16:00","14.5","","7.4","","62","","","","21","","8","","24.1","","100.92","","","","","","Mostly Cloudy"
"-76.60","44.23","KINGSTON A","6104149","2020-11-05 17:00","2020","11","05","17:00","14.3","","7.2","","62","","","","25","","9","","24.1","","100.94","","","","","","NA"
"-76.60","44.23","KINGSTON A","6104149","2020-11-05 18:00","2020","11","05","18:00","13.5","","8.0","","69","","","","24","","9","","24.1","","100.99","","","","","","NA"
"-76.60","44.23","KINGSTON A","6104149","2020-11-05 19:00","2020","11","05","19:00","12.9","","7.5","","70","","","","23","","9","","24.1","","101.00","","","","","","Cloudy"
"-76.60","44.23","KINGSTON A","6104149","2020-11-05 20:00","2020","11","05","20:00","12.2","","7.8","","74","","","","21","","10","","24.1","","101.00","","","","","","NA"
"-76.60","44.23","KINGSTON A","6104149","2020-11-05 21:00","2020","11","05","21:00","11.8","","9.6","","86","","","","18","","12","","24.1","","100.99","","","","","","NA"
"-76.60","44.23","KINGSTON A","6104149","2020-11-05 22:00","2020","11","05","22:00","11.7","","9.0","","83","","","","21","","12","","24.1","","101.02","","","","","","Cloudy"
"-76.60","44.23","KINGSTON A","6104149","2020-11-05 23:00","2020","11","05","23:00","11.7","","9.1","","84","","","","21","","8","","24.1","","101.02","","","","","","NA"
"-76.60","44.23","KINGSTON A","6104149","2020-11-06 00:00","2020","11","06","00:00"
"-76.60","44.23","KINGSTON A","6104149","2020-11-06 01:00","2020","11","06","01:00"
"-76.60","44.23","KINGSTON A","6104149","2020-11-06 02:00","2020","11","06","02:00"
"-76.60","44.23","KINGSTON A","6104149","2020-11-06 03:00","2020","11","06","03:00"
"-76.60","44.23","KINGSTON A","6104149","2020-11-06 04:00","2020","11","06","04:00"
"-76.60","44.23","KINGSTON A","6104149","2020-11-06 05:00","2020","11","06","05:00"
"-76.60","44.23","KINGSTON A","6104149","2020-11-06 06:00","2020","11","06","06:00","11.7","","7.6","","76","","","","23","","13","","24.1","","100.93","","","","","","NA"
"-76.60","44.23","KINGSTON A","6104149","2020-11-06 07:00","2020","11","06","07:00","11.6","","8.0","","78","","","","23","","17","","24.1","","100.98","","","","","","Mainly Clear"
"-76.60","44.23","KINGSTON A","6104149","2020-11-06 08:00","2020","11","06","08:00","12.3","","8.4","","77","","","","23","","16","","24.1","","101.02","","","","","","NA"
"-76.60","44.23","KINGSTON A","6104149","2020-11-06 09:00","2020","11","06","09:00","13.8","","8.5","","70","","","","22","","21","","24.1","","100.99","","","","","","NA"
"-76.60","44.23","KINGSTON A","6104149","2020-11-06 10:00","2020","11","06","10:00","15.2","","8.8","","65","","","","22","","20","","24.1","","100.98","","","","","","Mostly Cloudy"
"-76.60","44.23","KINGSTON A","6104149","2020-11-06 11:00","2020","11","06","11:00","14.1","","8.9","","71","","","","24","","24","","24.1","","100.97","","","","","","NA"
"-76.60","44.23","KINGSTON A","6104149","2020-11-06 12:00","2020","11","06","12:00","14.3","","9.0","","70","","","","23","","25","","24.1","","100.91","","","","","","NA"
"-76.60","44.23","KINGSTON A","6104149","2020-11-06 13:00","2020","11","06","13:00","15.3","","9.1","","66","","","","23","","23","","24.1","","100.87","","","","","","Mostly Cloudy"
"-76.60","44.23","KINGSTON A","6104149","2020-11-06 14:00","2020","11","06","14:00","16.1","","9.2","","64","","","","23","","26","","24.1","","100.84","","","","","","NA"
"-76.60","44.23","KINGSTON A","6104149","2020-11-06 15:00","2020","11","06","15:00","15.9","","9.5","","66","","","","23","","22","","24.1","","100.85","","","","","","NA"
"-76.60","44.23","KINGSTON A","6104149","2020-11-06 16:00","2020","11","06","16:00","15.2","","9.8","","70","","","","23","","18","","24.1","","100.87","","","","","","Mostly Cloudy"
"-76.60","44.23","KINGSTON A","6104149","2020-11-06 17:00","2020","11","06","17:00","14.2","","9.6","","73","","","","22","","16","","24.1","","100.86","","","","","","NA"
"-76.60","44.23","KINGSTON A","6104149","2020-11-06 18:00","2020","11","06","18:00","13.7","","9.7","","77","","","","24","","19","","24.1","","100.91","","","","","","NA"
"-76.60","44.23","KINGSTON A","6104149","2020-11-06 19:00","2020","11","06","19:00","13.6","","9.2","","75","","","","24","","21","","24.1","","100.91","","","","","","Mostly Cloudy"
"-76.60","44.23","KINGSTON A","6104149","2020-11-06 20:00","2020","11","06","20:00","12.8","","9.3","","79","","","","24","","15","","24.1","","100.93","","","","","","NA"
"-76.60","44.23","KINGSTON A","6104149","2020-11-06 21:00","2020","11","06","21:00","12.4","","9.1","","80","","","","24","","15","","24.1","","100.93","","","","","","NA"
"-76.60","44.23","KINGSTON A","6104149","2020-11-06 22:00","2020","11","06","22:00","13.0","","8.8","","75","","","","25","","19","","24.1","","100.98","","","","","","Mainly Clear"
"-76.60","44.23","KINGSTON A","6104149","2020-11-06 23:00","2020","11","06","23:00","11.9","","9.3","","84","","","","25","","15","","24.1","","100.96","","","","","","NA"
"-76.60","44.23","KINGSTON A","6104149","2020-11-07 00:00","2020","11","07","00:00"
"-76.60","44.23","KINGSTON A","6104149","2020-11-07 01:00","2020","11","07","01:00"
"-76.60","44.23","KINGSTON A","6104149","2020-11-07 02:00","2020","11","07","02:00"
"-76.60","44.23","KINGSTON A","6104149","2020-11-07 03:00","2020","11","07","03:00"
"-76.60","44.23","KINGSTON A","6104149","2020-11-07 04:00","2020","11","07","04:00"
"-76.60","44.23","KINGSTON A","6104149","2020-11-07 05:00","2020","11","07","05:00"
"-76.60","44.23","KINGSTON A","6104149","2020-11-07 06:00","2020","11","07","06:00","10.5","","8.2","","85","","","","21","","15","","24.1","","101.10","","","","","","NA"
"-76.60","44.23","KINGSTON A","6104149","2020-11-07 07:00","2020","11","07","07:00","11.1","","8.4","","83","","","","21","","15","","24.1","","101.14","","","","","","Mainly Clear"
"-76.60","44.23","KINGSTON A","6104149","2020-11-07 08:00","2020","11","07","08:00","11.7","","9.0","","84","","","","21","","10","","24.1","","101.20","","","","","","NA"
"-76.60","44.23","KINGSTON A","6104149","2020-11-07 09:00","2020","11","07","09:00","13.4","","9.7","","78","","","","21","","17","","24.1","","101.19","","","","","","NA"
"-76.60","44.23","KINGSTON A","6104149","2020-11-07 10:00","2020","11","07","10:00","15.1","","10.6","","75","","","","21","","13","","24.1","","101.18","","","","","","Mainly Clear"
"-76.60","44.23","KINGSTON A","6104149","2020-11-07 11:00","2020","11","07","11:00","15.8","","9.9","","68","","","","22","","16","","24.1","","101.17","","","","","","NA"
"-76.60","44.23","KINGSTON A","6104149","2020-11-07 12:00","2020","11","07","12:00","16.7","","9.8","","63","","","","24","","23","","24.1","","101.12","","","","","","NA"
"-76.60","44.23","KINGSTON A","6104149","2020-11-07 13:00","2020","11","07","13:00","17.4","","9.8","","61","","","","24","","21","","24.1","","101.07","","","","","","Mainly Clear"
"-76.60","44.23","KINGSTON A","6104149","2020-11-07 14:00","2020","11","07","14:00","17.8","","10.1","","60","","","","23","","19","","24.1","","101.06","","","","","","NA"
"-76.60","44.23","KINGSTON A","6104149","2020-11-07 15:00","2020","11","07","15:00","17.4","","9.5","","59","","","","24","","20","","24.1","","101.07","","","","","","NA"
"-76.60","44.23","KINGSTON A","6104149","2020-11-07 16:00","2020","11","07","16:00","13.0","","10.2","","83","","","","18","","20","","24.1","","101.09","","","","","","Mostly Cloudy"
"-76.60","44.23","KINGSTON A","6104149","2020-11-07 17:00","2020","11","07","17:00","13.1","","9.5","","79","","","","20","","12","","24.1","","101.12","","","","","","NA"
"-76.60","44.23","KINGSTON A","6104149","2020-11-07 18:00","2020","11","07","18:00","13.5","","8.9","","73","","","","23","","12","","24.1","","101.15","","","","","","NA"
"-76.60","44.23","KINGSTON A","6104149","2020-11-07 19:00","2020","11","07","19:00","13.0","","8.4","","73","","","","24","","9","","24.1","","101.15","","","","","","Mostly Cloudy"
"-76.60","44.23","KINGSTON A","6104149","2020-11-07 20:00","2020","11","07","20:00","12.5","","8.6","","77","","","","24","","13","","24.1","","101.19","","","","","","NA"
"-76.60","44.23","KINGSTON A","6104149","2020-11-07 21:00","2020","11","07","21:00","12.2","","8.2","","77","","","","24","","10","","24.1","","101.23","","","","","","NA"
"-76.60","44.23","KINGSTON A","6104149","2020-11-07 22:00","2020","11","07","22:00","11.8","","7.7","","76","","","","26","","5","","24.1","","101.27","","","","","","Mainly Clear"
"-76.60","44.23","KINGSTON A","6104149","2020-11-07 23:00","2020","11","07","23:00","10.7","","7.5","","81","","","","19","","10","","24.1","","101.28","","","","","","NA"
"-76.60","44.23","KINGSTON A","6104149","2020-11-08 00:00","2020","11","08","00:00"
"-76.60","44.23","KINGSTON A","6104149","2020-11-08 01:00","2020","11","08","01:00"
"-76.60","44.23","KINGSTON A","6104149","2020-11-08 02:00","2020","11","08","02:00"
"-76.60","44.23","KINGSTON A","6104149","2020-11-08 03:00","2020","11","08","03:00"
"-76.60","44.23","KINGSTON A","6104149","2020-11-08 04:00","2020","11","08","04:00"
"-76.60","44.23","KINGSTON A","6104149","2020-11-08 05:00","2020","11","08","05:00"
"-76.60","44.23","KINGSTON A","6104149","2020-11-08 06:00","2020","11","08","06:00","5.6","","5.5","","100","","","","20","","4","","24.1","","101.55","","","","","","NA"
"-76.60","44.23","KINGSTON A","6104149","2020-11-08 07:00","2020","11","08","07:00","4.7","","4.7","","100","","","","20","","3","","19.3","","101.60","","","","","","Mainly Clear"
"-76.60","44.23","KINGSTON A","6104149","2020-11-08 08:00","2020","11","08","08:00","6.3","","6.2","","99","","","","24","","3","","19.3","","101.67","","","","","","NA"
"-76.60","44.23","KINGSTON A","6104149","2020-11-08 09:00","2020","11","08","09:00","11.6","","9.4","","86","","","","17","","8","","19.3","","101.70","","","","","","NA"
"-76.60","44.23","KINGSTON A","6104149","2020-11-08 10:00","2020","11","08","10:00","13.0","","9.8","","80","","","","19","","14","","24.1","","101.72","","","","","","Mainly Clear"
"-76.60","44.23","KINGSTON A","6104149","2020-11-08 11:00","2020","11","08","11:00","13.7","","10.4","","81","","","","19","","16","","24.1","","101.74","","","","","","NA"
"-76.60","44.23","KINGSTON A","6104149","2020-11-08 12:00","2020","11","08","12:00","13.4","","9.8","","79","","","","18","","15","","24.1","","101.67","","","","","","NA"
"-76.60","44.23","KINGSTON A","6104149","2020-11-08 13:00","2020","11","08","13:00","13.3","","10.2","","81","","","","17","","17","","24.1","","101.64","","","","","","Clear"
"-76.60","44.23","KINGSTON A","6104149","2020-11-08 14:00","2020","11","08","14:00","13.2","","9.9","","80","","","","17","","14","","24.1","","101.62","","","","","","NA"
"-76.60","44.23","KINGSTON A","6104149","2020-11-08 15:00","2020","11","08","15:00","13.2","","9.7","","79","","","","18","","8","","24.1","","101.61","","","","","","NA"
"-76.60","44.23","KINGSTON A","6104149","2020-11-08 16:00","2020","11","08","16:00","12.0","","9.8","","86","","","","16","","12","","24.1","","101.60","","","","","","Clear"
"-76.60","44.23","KINGSTON A","6104149","2020-11-08 17:00","2020","11","08","17:00","10.2","","9.1","","93","","","","16","","8","","24.1","","101.61","","","","","","NA"
"-76.60","44.23","KINGSTON A","6104149","2020-11-08 18:00","2020","11","08","18:00","8.6","","8.1","","96","","","","18","","5","","24.1","","101.61","","","","","","NA"
"-76.60","44.23","KINGSTON A","6104149","2020-11-08 19:00","2020","11","08","19:00","8.9","","8.7","","99","","","","16","","3","","24.1","","101.59","","","","","","Clear"
"-76.60","44.23","KINGSTON A","6104149","2020-11-08 20:00","2020","11","08","20:00","9.9","","9.8","","99","","","","15","","9","","24.1","","101.60","","","","","","NA"
"-76.60","44.23","KINGSTON A","6104149","2020-11-08 21:00","2020","11","08","21:00","8.7","","8.7","","100","","","","17","","5","","24.1","","101.60","","","","","","NA"
"-76.60","44.23","KINGSTON A","6104149","2020-11-08 22:00","2020","11","08","22:00","6.6","","6.6","","100","","","","36","","1","","24.1","","101.61","","","","","","Clear"
"-76.60","44.23","KINGSTON A","6104149","2020-11-08 23:00","2020","11","08","23:00","6.1","","6.1","","100","","","","36","","1","","16.1","","101.58","","","","","","NA"
"-76.60","44.23","KINGSTON A","6104149","2020-11-09 00:00","2020","11","09","00:00"
"-76.60","44.23","KINGSTON A","6104149","2020-11-09 01:00","2020","11","09","01:00"
"-76.60","44.23","KINGSTON A","6104149","2020-11-09 02:00","2020","11","09","02:00"
"-76.60","44.23","KINGSTON A","6104149","2020-11-09 03:00","2020","11","09","03:00"
"-76.60","44.23","KINGSTON A","6104149","2020-11-09 04:00","2020","11","09","04:00"
"-76.60","44.23","KINGSTON A","6104149","2020-11-09 05:00","2020","11","09","05:00"
"-76.60","44.23","KINGSTON A","6104149","2020-11-09 06:00","2020","11","09","06:00","3.0","","2.8","","98","","","","2","","3","","24.1","","101.56","","","","","","NA"
"-76.60","44.23","KINGSTON A","6104149","2020-11-09 07:00","2020","11","09","07:00","3.0","","2.6","","98","","","","6","","4","","24.1","","101.57","","","","","","Mainly Clear"
"-76.60","44.23","KINGSTON A","6104149","2020-11-09 08:00","2020","11","09","08:00","8.5","","8.4","","100","","","","15","","5","","24.1","","101.58","","","","","","NA"
"-76.60","44.23","KINGSTON A","6104149","2020-11-09 09:00","2020","11","09","09:00","12.1","","10.9","","92","","","","18","","13","","24.1","","101.60","","","","","","NA"
"-76.60","44.23","KINGSTON A","6104149","2020-11-09 10:00","2020","11","09","10:00","12.8","","9.9","","82","","","","19","","13","","24.1","","101.55","","","","","","Mainly Clear"
"-76.60","44.23","KINGSTON A","6104149","2020-11-09 11:00","2020","11","09","11:00","13.1","","9.4","","78","","","","18","","16","","24.1","","101.51","","","","","","NA"
"-76.60","44.23","KINGSTON A","6104149","2020-11-09 12:00","2020","11","09","12:00","13.3","","9.7","","78","","","","17","","16","","24.1","","101.42","","","","","","NA"
"-76.60","44.23","KINGSTON A","6104149","2020-11-09 13:00","2020","11","09","13:00","12.9","","9.8","","81","","","","16","","14","","24.1","","101.33","","","","","","Mostly Cloudy"
"-76.60","44.23","KINGSTON A","6104149","2020-11-09 14:00","2020","11","09","14:00","12.4","","9.4","","82","","","","16","","9","","24.1","","101.25","","","","","","NA"
"-76.60","44.23","KINGSTON A","6104149","2020-11-09 15:00","2020","11","09","15:00","12.9","","9.1","","77","","","","13","","3","","24.1","","101.20","","","","","","NA"
"-76.60","44.23","KINGSTON A","6104149","2020-11-09 16:00","2020","11","09","16:00","12.9","","7.5","","70","","","","11","","4","","24.1","","101.14","","","","","","Mostly Cloudy"
"-76.60","44.23","KINGSTON A","6104149","2020-11-09 17:00","2020","11","09","17:00","12.1","","7.3","","72","","","","1","","4","","24.1","","101.12","","","","","","NA"
"-76.60","44.23","KINGSTON A","6104149","2020-11-09 18:00","2020","11","09","18:00","10.8","","7.5","","80","","","","36","","7","","24.1","","101.12","","","","","","NA"
"-76.60","44.23","KINGSTON A","6104149","2020-11-09 19:00","2020","11","09","19:00","9.4","","6.9","","85","","","","36","","3","","24.1","","101.09","","","","","","Mainly Clear"
"-76.60","44.23","KINGSTON A","6104149","2020-11-09 20:00","2020","11","09","20:00","8.1","","6.1","","87","","","","3","","4","","24.1","","101.04","","","","","","NA"
"-76.60","44.23","KINGSTON A","6104149","2020-11-09 21:00","2020","11","09","21:00","7.7","","5.6","","87","","","","36","","4","","24.1","","100.99","","","","","","NA"
"-76.60","44.23","KINGSTON A","6104149","2020-11-09 22:00","2020","11","09","22:00","6.8","","5.0","","89","","","","8","","4","","24.1","","100.94","","","","","","Clear"
"-76.60","44.23","KINGSTON A","6104149","2020-11-09 23:00","2020","11","09","23:00","9.6","","6.5","","80","","","","18","","7","","24.1","","100.89","","","","","","NA"
"-76.60","44.23","KINGSTON A","6104149","2020-11-10 00:00","2020","11","10","00:00"
"-76.60","44.23","KINGSTON A","6104149","2020-11-10 01:00","2020","11","10","01:00"
"-76.60","44.23","KINGSTON A","6104149","2020-11-10 02:00","2020","11","10","02:00"
"-76.60","44.23","KINGSTON A","6104149","2020-11-10 03:00","2020","11","10","03:00"
"-76.60","44.23","KINGSTON A","6104149","2020-11-10 04:00","2020","11","10","04:00"
"-76.60","44.23","KINGSTON A","6104149","2020-11-10 05:00","2020","11","10","05:00"
"-76.60","44.23","KINGSTON A","6104149","2020-11-10 06:00","2020","11","10","06:00","10.5","","10.4","","99","","","","17","","9","","24.1","","100.73","","","","","","NA"
"-76.60","44.23","KINGSTON A","6104149","2020-11-10 07:00","2020","11","10","07:00","10.0","","9.6","","97","","","","18","","8","","24.1","","100.72","","","","","","Mainly Clear"
"-76.60","44.23","KINGSTON A","6104149","2020-11-10 08:00","2020","11","10","08:00","12.3","","11.3","","94","","","","20","","10","","24.1","","100.72","","","","","","NA"
"-76.60","44.23","KINGSTON A","6104149","2020-11-10 09:00","2020","11","10","09:00","13.7","","11.6","","87","","","","19","","14","","24.1","","100.69","","","","","","NA"
"-76.60","44.23","KINGSTON A","6104149","2020-11-10 10:00","2020","11","10","10:00","14.9","","12.2","","83","","","","18","","12","","24.1","","100.71","","","","","","Mostly Cloudy"
"-76.60","44.23","KINGSTON A","6104149","2020-11-10 11:00","2020","11","10","11:00","15.0","","11.9","","82","","","","18","","16","","24.1","","100.66","","","","","","NA"
"-76.60","44.23","KINGSTON A","6104149","2020-11-10 12:00","2020","11","10","12:00","16.0","","12.2","","78","","","","18","","14","","24.1","","100.57","","","","","","NA"
"-76.60","44.23","KINGSTON A","6104149","2020-11-10 13:00","2020","11","10","13:00","15.3","","12.0","","80","","","","19","","9","","24.1","","100.50","","","","","","Mostly Cloudy"
"-76.60","44.23","KINGSTON A","6104149","2020-11-10 14:00","2020","11","10","14:00","15.7","","12.2","","79","","","","17","","9","","24.1","","100.44","","","","","","NA"
"-76.60","44.23","KINGSTON A","6104149","2020-11-10 15:00","2020","11","10","15:00","16.8","","12.4","","75","","","","23","","8","","24.1","","100.39","","","","","","NA"
"-76.60","44.23","KINGSTON A","6104149","2020-11-10 16:00","2020","11","10","16:00","17.3","","12.0","","71","","","","20","","5","","24.1","","100.37","","","","","","Mainly Clear"
"-76.60","44.23","KINGSTON A","6104149","2020-11-10 17:00","2020","11","10","17:00","17.2","","12.0","","71","","","","17","","12","","24.1","","100.33","","","","","","NA"
"-76.60","44.23","KINGSTON A","6104149","2020-11-10 18:00","2020","11","10","18:00","15.8","","11.8","","77","","","","17","","10","","24.1","","100.30","","","","","","NA"
"-76.60","44.23","KINGSTON A","6104149","2020-11-10 19:00","2020","11","10","19:00","14.6","","11.7","","83","","","","18","","13","","24.1","","100.29","","","","","","Mainly Clear"
"-76.60","44.23","KINGSTON A","6104149","2020-11-10 20:00","2020","11","10","20:00","14.8","","11.9","","83","","","","16","","15","","24.1","","100.23","","","","","","NA"
"-76.60","44.23","KINGSTON A","6104149","2020-11-10 21:00","2020","11","10","21:00","15.1","","11.7","","80","","","","17","","20","","24.1","","100.22","","","","","","NA"
"-76.60","44.23","KINGSTON A","6104149","2020-11-10 22:00","2020","11","10","22:00","14.0","","11.7","","86","","","","18","","20","","24.1","","100.21","","","","","","Clear"
"-76.60","44.23","KINGSTON A","6104149","2020-11-10 23:00","2020","11","10","23:00","13.9","","11.8","","87","","","","17","","15","","24.1","","100.16","","","","","","NA"
"-76.60","44.23","KINGSTON A","6104149","2020-11-11 00:00","2020","11","11","00:00"
"-76.60","44.23","KINGSTON A","6104149","2020-11-11 01:00","2020","11","11","01:00"
"-76.60","44.23","KINGSTON A","6104149","2020-11-11 02:00","2020","11","11","02:00"
"-76.60","44.23","KINGSTON A","6104149","2020-11-11 03:00","2020","11","11","03:00"
"-76.60","44.23","KINGSTON A","6104149","2020-11-11 04:00","2020","11","11","04:00"
"-76.60","44.23","KINGSTON A","6104149","2020-11-11 05:00","2020","11","11","05:00"
"-76.60","44.23","KINGSTON A","6104149","2020-11-11 06:00","2020","11","11","06:00","13.6","","13.0","","96","","","","19","","27","","12.9","","99.96","","","","","","Rain"
"-76.60","44.23","KINGSTON A","6104149","2020-11-11 07:00","2020","11","11","07:00","13.6","","13.3","","98","","","","18","","27","","16.1","","99.92","","","","","","Rain"
"-76.60","44.23","KINGSTON A","6104149","2020-11-11 08:00","2020","11","11","08:00","13.4","","13.3","","99","","","","17","","26","","8.1","","99.89","","","","","","Rain,Fog"
"-76.60","44.23","KINGSTON A","6104149","2020-11-11 09:00","2020","11","11","09:00","13.8","","13.7","","99","","","","18","","27","","19.3","","99.89","","","","","","Rain"
"-76.60","44.23","KINGSTON A","6104149","2020-11-11 10:00","2020","11","11","10:00","13.9","","13.6","","98","","","","20","","27","","19.3","","99.89","","","","","","Rain"
"-76.60","44.23","KINGSTON A","6104149","2020-11-11 11:00","2020","11","11","11:00","14.2","","13.7","","97","","","","19","","33","","16.1","","99.84","","","","","","Rain"
"-76.60","44.23","KINGSTON A","6104149","2020-11-11 12:00","2020","11","11","12:00","14.3","","13.9","","97","","","","19","","33","","24.1","","99.80","","","","","","NA"
"-76.60","44.23","KINGSTON A","6104149","2020-11-11 13:00","2020","11","11","13:00","14.5","","14.2","","98","","","","23","","29","","16.1","","99.79","","","","","","Cloudy"
"-76.60","44.23","KINGSTON A","6104149","2020-11-11 14:00","2020","11","11","14:00","15.8","","13.9","","88","","","","23","","23","","24.1","","99.78","","","","","","NA"
"-76.60","44.23","KINGSTON A","6104149","2020-11-11 15:00","2020","11","11","15:00","15.6","","11.9","","78","","","","24","","22","","24.1","","99.79","","","","","","NA"
"-76.60","44.23","KINGSTON A","6104149","2020-11-11 16:00","2020","11","11","16:00","14.9","","11.2","","78","","","","23","","22","","24.1","","99.80","","","","","","Mostly Cloudy"
"-76.60","44.23","KINGSTON A","6104149","2020-11-11 17:00","2020","11","11","17:00","13.3","","9.8","","79","","","","25","","10","","24.1","","99.92","","","","","","NA"
"-76.60","44.23","KINGSTON A","6104149","2020-11-11 18:00","2020","11","11","18:00","12.7","","6.9","","68","","","","26","","16","","24.1","","100.03","","","","","","NA"
"-76.60","44.23","KINGSTON A","6104149","2020-11-11 19:00","2020","11","11","19:00","10.9","","4.7","","66","","","","29","","16","","24.1","","100.12","","","","","","Mainly Clear"
"-76.60","44.23","KINGSTON A","6104149","2020-11-11 20:00","2020","11","11","20:00","9.2","","2.5","","63","","","","28","","14","","24.1","","100.29","","","","","","NA"
"-76.60","44.23","KINGSTON A","6104149","2020-11-11 21:00","2020","11","11","21:00","7.5","","2.1","","68","","","","30","","17","","24.1","","100.37","","","","","","NA"
"-76.60","44.23","KINGSTON A","6104149","2020-11-11 22:00","2020","11","11","22:00","6.1","","1.3","","71","","","","31","","16","","24.1","","100.45","","","","","","Mainly Clear"
"-76.60","44.23","KINGSTON A","6104149","2020-11-11 23:00","2020","11","11","23:00","5.0","","1.0","","75","","","","29","","9","","24.1","","100.53","","","","","","NA"
"-76.60","44.23","KINGSTON A","6104149","2020-11-12 00:00","2020","11","12","00:00"
"-76.60","44.23","KINGSTON A","6104149","2020-11-12 01:00","2020","11","12","01:00"
"-76.60","44.23","KINGSTON A","6104149","2020-11-12 02:00","2020","11","12","02:00"
"-76.60","44.23","KINGSTON A","6104149","2020-11-12 03:00","2020","11","12","03:00"
"-76.60","44.23","KINGSTON A","6104149","2020-11-12 04:00","2020","11","12","04:00"
"-76.60","44.23","KINGSTON A","6104149","2020-11-12 05:00","2020","11","12","05:00"
"-76.60","44.23","KINGSTON A","6104149","2020-11-12 06:00","2020","11","12","06:00","2.7","","0.2","","84","","","","30","","8","","24.1","","100.89","","","","","","NA"
"-76.60","44.23","KINGSTON A","6104149","2020-11-12 07:00","2020","11","12","07:00","2.2","","0.1","","86","","","","29","","10","","24.1","","101.00","","","","","","Mainly Clear"
"-76.60","44.23","KINGSTON A","6104149","2020-11-12 08:00","2020","11","12","08:00","2.4","","0.3","","86","","","","30","","7","","24.1","","101.05","","","","","","NA"
"-76.60","44.23","KINGSTON A","6104149","2020-11-12 09:00","2020","11","12","09:00","3.3","","0.7","","83","","","","28","","9","","24.1","","101.14","","","","","","NA"
"-76.60","44.23","KINGSTON A","6104149","2020-11-12 10:00","2020","11","12","10:00","5.1","","0.3","","71","","","","32","","10","","24.1","","101.15","","","","","","Mostly Cloudy"
"-76.60","44.23","KINGSTON A","6104149","2020-11-12 11:00","2020","11","12","11:00","5.6","","-1.0","","63","","","","35","","8","","24.1","","101.11","","","","","","NA"
"-76.60","44.23","KINGSTON A","6104149","2020-11-12 12:00","2020","11","12","12:00","6.7","","-0.5","","60","","","","36","","8","","24.1","","101.04","","","","","","NA"
"-76.60","44.23","KINGSTON A","6104149","2020-11-12 13:00","2020","11","12","13:00","7.5","","-1.4","","53","","","","1","","8","","24.1","","101.00","","","","","","Mainly Clear"
"-76.60","44.23","KINGSTON A","6104149","2020-11-12 14:00","2020","11","12","14:00","8.3","","-1.2","","51","","","","33","","6","","24.1","","101.03","","","","","","NA"
"-76.60","44.23","KINGSTON A","6104149","2020-11-12 15:00","2020","11","12","15:00","8.5","","-2.0","","47","","","","30","","3","","24.1","","101.03","","","","","","NA"
"-76.60","44.23","KINGSTON A","6104149","2020-11-12 16:00","2020","11","12","16:00","7.5","","-1.8","","52","","","","1","","8","","24.1","","101.03","","","","","","Mainly Clear"
"-76.60","44.23","KINGSTON A","6104149","2020-11-12 17:00","2020","11","12","17:00","5.4","","-0.6","","65","","","","9","","4","","24.1","","100.95","","","","","","NA"
"-76.60","44.23","KINGSTON A","6104149","2020-11-12 18:00","2020","11","12","18:00","4.7","","-2.2","","61","","","","6","","5","","24.1","","100.92","","","","","","NA"
"-76.60","44.23","KINGSTON A","6104149","2020-11-12 19:00","2020","11","12","19:00","3.4","","-2.1","","67","","","","8","","4","","24.1","","100.98","","","","","","Mainly Clear"
"-76.60","44.23","KINGSTON A","6104149","2020-11-12 20:00","2020","11","12","20:00","0.7","","-1.1","","88","","","","1","","3","","24.1","","101.03","","","","","","NA"
"-76.60","44.23","KINGSTON A","6104149","2020-11-12 21:00","2020","11","12","21:00","-0.7","","-1.7","","93","","","","35","","9","","24.1","","101.04","","","","-4","","NA"
"-76.60","44.23","KINGSTON A","6104149","2020-11-12 22:00","2020","11","12","22:00","-0.9","","-1.9","","93","","","","35","","8","","24.1","","101.03","","","","-4","","Mainly Clear"
"-76.60","44.23","KINGSTON A","6104149","2020-11-12 23:00","2020","11","12","23:00","-2.0","","-2.9","","94","","","","2","","5","","24.1","","100.95","","","","-4","","NA"
"-76.60","44.23","KINGSTON A","6104149","2020-11-13 00:00","2020","11","13","00:00"
"-76.60","44.23","KINGSTON A","6104149","2020-11-13 01:00","2020","11","13","01:00"
"-76.60","44.23","KINGSTON A","6104149","2020-11-13 02:00","2020","11","13","02:00"
"-76.60","44.23","KINGSTON A","6104149","2020-11-13 03:00","2020","11","13","03:00"
"-76.60","44.23","KINGSTON A","6104149","2020-11-13 04:00","2020","11","13","04:00"
"-76.60","44.23","KINGSTON A","6104149","2020-11-13 05:00","2020","11","13","05:00"
"-76.60","44.23","KINGSTON A","6104149","2020-11-13 06:00","2020","11","13","06:00","0.0","","-1.0","","92","","","","6","","14","","24.1","","100.51","","","","-4","","NA"
"-76.60","44.23","KINGSTON A","6104149","2020-11-13 07:00","2020","11","13","07:00","0.6","","-0.8","","90","","","","4","","12","","24.1","","100.45","","","","","","Mostly Cloudy"
"-76.60","44.23","KINGSTON A","6104149","2020-11-13 08:00","2020","11","13","08:00","1.2","","-0.3","","90","","","","4","","11","","24.1","","100.40","","","","","","NA"
"-76.60","44.23","KINGSTON A","6104149","2020-11-13 09:00","2020","11","13","09:00","1.9","","0.2","","89","","","","6","","7","","24.1","","100.38","","","","","","NA"
"-76.60","44.23","KINGSTON A","6104149","2020-11-13 10:00","2020","11","13","10:00","3.2","","1.2","","87","","","","6","","6","","24.1","","100.28","","","","","","Mostly Cloudy"
"-76.60","44.23","KINGSTON A","6104149","2020-11-13 11:00","2020","11","13","11:00","5.4","","2.3","","80","","","","22","","22","","24.1","","100.31","","","","","","NA"
"-76.60","44.23","KINGSTON A","6104149","2020-11-13 12:00","2020","11","13","12:00","5.9","","2.5","","79","","","","29","","5","","24.1","","100.14","","","","","","NA"
"-76.60","44.23","KINGSTON A","6104149","2020-11-13 13:00","2020","11","13","13:00","6.2","","2.6","","78","","","","23","","7","","24.1","","100.09","","","","","","Mostly Cloudy"
"-76.60","44.23","KINGSTON A","6104149","2020-11-13 14:00","2020","11","13","14:00","6.9","","2.6","","74","","","","25","","16","","24.1","","100.16","","","","","","NA"
"-76.60","44.23","KINGSTON A","6104149","2020-11-13 15:00","2020","11","13","15:00","7.0","","1.5","","68","","","","26","","20","","24.1","","100.18","","","","","","NA"
"-76.60","44.23","KINGSTON A","6104149","2020-11-13 16:00","2020","11","13","16:00","6.7","","1.7","","71","","","","27","","15","","24.1","","100.22","","","","","","Mostly Cloudy"
"-76.60","44.23","KINGSTON A","6104149","2020-11-13 17:00","2020","11","13","17:00","6.2","","2.0","","75","","","","27","","14","","24.1","","100.30","","","","","","NA"
"-76.60","44.23","KINGSTON A","6104149","2020-11-13 18:00","2020","11","13","18:00","5.0","","2.1","","81","","","","27","","7","","24.1","","100.33","","","","","","NA"
"-76.60","44.23","KINGSTON A","6104149","2020-11-13 19:00","2020","11","13","19:00","6.5","","3.9","","84","","","","26","","15","","24.1","","100.38","","","","","","Mostly Cloudy"
"-76.60","44.23","KINGSTON A","6104149","2020-11-13 20:00","2020","11","13","20:00","6.7","","3.7","","81","","","","26","","12","","24.1","","100.37","","","","","","NA"
"-76.60","44.23","KINGSTON A","6104149","2020-11-13 21:00","2020","11","13","21:00","6.6","","3.8","","82","","","","26","","13","","24.1","","100.37","","","","","","NA"
"-76.60","44.23","KINGSTON A","6104149","2020-11-13 22:00","2020","11","13","22:00","5.9","","2.5","","79","","","","29","","14","","24.1","","100.41","","","","","","Mostly Cloudy"
"-76.60","44.23","KINGSTON A","6104149","2020-11-13 23:00","2020","11","13","23:00","4.9","","2.1","","82","","","","28","","14","","24.1","","100.43","","","","","","NA"
"-76.60","44.23","KINGSTON A","6104149","2020-11-14 00:00","2020","11","14","00:00"
"-76.60","44.23","KINGSTON A","6104149","2020-11-14 01:00","2020","11","14","01:00"
"-76.60","44.23","KINGSTON A","6104149","2020-11-14 02:00","2020","11","14","02:00"
"-76.60","44.23","KINGSTON A","6104149","2020-11-14 03:00","2020","11","14","03:00"
"-76.60","44.23","KINGSTON A","6104149","2020-11-14 04:00","2020","11","14","04:00"
"-76.60","44.23","KINGSTON A","6104149","2020-11-14 05:00","2020","11","14","05:00"
"-76.60","44.23","KINGSTON A","6104149","2020-11-14 06:00","2020","11","14","06:00","3.6","","-3.1","","61","","","","29","","13","","24.1","","100.86","","","","","","NA"
"-76.60","44.23","KINGSTON A","6104149","2020-11-14 07:00","2020","11","14","07:00","3.0","","-3.3","","63","","","","29","","9","","24.1","","100.93","","","","","","Cloudy"
"-76.60","44.23","KINGSTON A","6104149","2020-11-14 08:00","2020","11","14","08:00","3.1","","-3.5","","62","","","","30","","9","","24.1","","100.98","","","","","","NA"
"-76.60","44.23","KINGSTON A","6104149","2020-11-14 09:00","2020","11","14","09:00","4.0","","-4.4","","54","","","","29","","13","","24.1","","101.02","","","","","","NA"
"-76.60","44.23","KINGSTON A","6104149","2020-11-14 10:00","2020","11","14","10:00","4.5","","-5.6","","48","","","","30","","16","","24.1","","101.03","","","","","","Mainly Clear"
"-76.60","44.23","KINGSTON A","6104149","2020-11-14 11:00","2020","11","14","11:00","5.2","","-6.5","","43","","","","29","","17","","24.1","","101.05","","","","","","NA"
"-76.60","44.23","KINGSTON A","6104149","2020-11-14 12:00","2020","11","14","12:00","5.9","","-6.4","","41","","","","32","","24","","24.1","","101.05","","","","","","NA"
"-76.60","44.23","KINGSTON A","6104149","2020-11-14 13:00","2020","11","14","13:00","6.4","","-6.1","","40","","","","31","","11","","24.1","","101.08","","","","","","Mainly Clear"
"-76.60","44.23","KINGSTON A","6104149","2020-11-14 14:00","2020","11","14","14:00","6.8","","-7.1","","36","","","","28","","15","","24.1","","101.10","","","","","","NA"
"-76.60","44.23","KINGSTON A","6104149","2020-11-14 15:00","2020","11","14","15:00","6.6","","-6.9","","37","","","","29","","15","","24.1","","101.13","","","","","","NA"
"-76.60","44.23","KINGSTON A","6104149","2020-11-14 16:00","2020","11","14","16:00","6.0","","-7.8","","36","","","","25","","9","","24.1","","101.16","","","","","","Clear"
"-76.60","44.23","KINGSTON A","6104149","2020-11-14 17:00","2020","11","14","17:00","5.2","","-7.5","","39","","","","26","","6","","24.1","","101.23","","","","","","NA"
"-76.60","44.23","KINGSTON A","6104149","2020-11-14 18:00","2020","11","14","18:00","4.7","","-5.2","","49","","","","26","","9","","24.1","","101.26","","","","","","NA"
"-76.60","44.23","KINGSTON A","6104149","2020-11-14 19:00","2020","11","14","19:00","4.1","","-2.8","","61","","","","27","","10","","24.1","","101.28","","","","","","Clear"
"-76.60","44.23","KINGSTON A","6104149","2020-11-14 20:00","2020","11","14","20:00","0.7","","-3.4","","74","","","","0","","1","","24.1","","101.19","","","","","","NA"
"-76.60","44.23","KINGSTON A","6104149","2020-11-14 21:00","2020","11","14","21:00","-0.8","","-3.4","","83","","","","3","","3","","24.1","","101.17","","","","-2","","NA"
"-76.60","44.23","KINGSTON A","6104149","2020-11-14 22:00","2020","11","14","22:00","-1.6","","-3.8","","85","","","","2","","3","","24.1","","101.14","","","","-3","","Clear"
"-76.60","44.23","KINGSTON A","6104149","2020-11-14 23:00","2020","11","14","23:00","-2.4","","-3.7","","91","","","","2","","5","","24.1","","101.15","","","","-4","","NA"
"-76.60","44.23","KINGSTON A","6104149","2020-11-15 00:00","2020","11","15","00:00"
"-76.60","44.23","KINGSTON A","6104149","2020-11-15 01:00","2020","11","15","01:00"
"-76.60","44.23","KINGSTON A","6104149","2020-11-15 02:00","2020","11","15","02:00"
"-76.60","44.23","KINGSTON A","6104149","2020-11-15 03:00","2020","11","15","03:00"
"-76.60","44.23","KINGSTON A","6104149","2020-11-15 04:00","2020","11","15","04:00"
"-76.60","44.23","KINGSTON A","6104149","2020-11-15 05:00","2020","11","15","05:00"
"-76.60","44.23","KINGSTON A","6104149","2020-11-15 06:00","2020","11","15","06:00","5.7","","-0.1","","66","","","","14","","27","","24.1","","100.47","","","","","","NA"
"-76.60","44.23","KINGSTON A","6104149","2020-11-15 07:00","2020","11","15","07:00","6.5","","1.0","","68","","","","15","","43","","24.1","","100.33","","","","","","Rain Showers"
"-76.60","44.23","KINGSTON A","6104149","2020-11-15 08:00","2020","11","15","08:00","6.3","","2.0","","74","","","","14","","35","","24.1","","100.04","","","","","","Rain Showers"
"-76.60","44.23","KINGSTON A","6104149","2020-11-15 09:00","2020","11","15","09:00","7.3","","2.0","","69","","","","14","","39","","24.1","","99.86","","","","","","NA"
"-76.60","44.23","KINGSTON A","6104149","2020-11-15 10:00","2020","11","15","10:00","7.1","","2.2","","71","","","","15","","46","","24.1","","99.76","","","","","","Rain Showers"
"-76.60","44.23","KINGSTON A","6104149","2020-11-15 11:00","2020","11","15","11:00","7.0","","2.8","","75","","","","15","","47","","19.3","","99.57","","","","","","Rain Showers"
"-76.60","44.23","KINGSTON A","6104149","2020-11-15 12:00","2020","11","15","12:00","7.6","","4.0","","78","","","","16","","47","","24.1","","99.30","","","","","","Rain Showers"
"-76.60","44.23","KINGSTON A","6104149","2020-11-15 13:00","2020","11","15","13:00","8.2","","4.7","","78","","","","16","","51","","16.1","","99.07","","","","","","Cloudy"
"-76.60","44.23","KINGSTON A","6104149","2020-11-15 14:00","2020","11","15","14:00","8.4","","6.1","","85","","","","16","","55","","24.1","","98.80","","","","","","NA"
"-76.60","44.23","KINGSTON A","6104149","2020-11-15 15:00","2020","11","15","15:00","9.1","","6.4","","83","","","","16","","52","","24.1","","98.69","","","","","","NA"
"-76.60","44.23","KINGSTON A","6104149","2020-11-15 16:00","2020","11","15","16:00","9.0","","6.7","","86","","","","16","","59","","16.1","","98.51","","","","","","Rain Showers"
"-76.60","44.23","KINGSTON A","6104149","2020-11-15 17:00","2020","11","15","17:00","8.5","","7.6","","94","","","","16","","57","","6.4","","98.50","","","","","","Rain Showers,Fog"
"-76.60","44.23","KINGSTON A","6104149","2020-11-15 18:00","2020","11","15","18:00","9.2","","5.7","","79","","","","22","","50","","12.9","","98.65","","","","","","Rain Showers"
"-76.60","44.23","KINGSTON A","6104149","2020-11-15 19:00","2020","11","15","19:00","9.3","","4.5","","72","","","","23","","60","","19.3","","98.65","","","","","","Rain Showers"
"-76.60","44.23","KINGSTON A","6104149","2020-11-15 20:00","2020","11","15","20:00","9.3","","4.5","","72","","","","24","","40","","24.1","","98.83","","","","","","NA"
"-76.60","44.23","KINGSTON A","6104149","2020-11-15 21:00","2020","11","15","21:00","9.3","","3.0","","65","","","","24","","48","","24.1","","98.85","","","","","","NA"
"-76.60","44.23","KINGSTON A","6104149","2020-11-15 22:00","2020","11","15","22:00","9.0","","3.4","","68","","","","24","","42","","24.1","","98.88","","","","","","Cloudy"
"-76.60","44.23","KINGSTON A","6104149","2020-11-15 23:00","2020","11","15","23:00","8.7","","2.2","","63","","","","24","","61","","24.1","","98.87","","","","","","NA"
"-76.60","44.23","KINGSTON A","6104149","2020-11-16 00:00","2020","11","16","00:00"
"-76.60","44.23","KINGSTON A","6104149","2020-11-16 01:00","2020","11","16","01:00"
"-76.60","44.23","KINGSTON A","6104149","2020-11-16 02:00","2020","11","16","02:00"
"-76.60","44.23","KINGSTON A","6104149","2020-11-16 03:00","2020","11","16","03:00"
"-76.60","44.23","KINGSTON A","6104149","2020-11-16 04:00","2020","11","16","04:00"
"-76.60","44.23","KINGSTON A","6104149","2020-11-16 05:00","2020","11","16","05:00"
"-76.60","44.23","KINGSTON A","6104149","2020-11-16 06:00","2020","11","16","06:00","5.5","","0.1","","68","","","","25","","35","","24.1","","99.43","","","","","","NA"
"-76.60","44.23","KINGSTON A","6104149","2020-11-16 07:00","2020","11","16","07:00","5.2","","-0.5","","67","","","","26","","35","","24.1","","99.51","","","","","","Cloudy"
"-76.60","44.23","KINGSTON A","6104149","2020-11-16 08:00","2020","11","16","08:00","5.1","","-0.5","","67","","","","25","","36","","24.1","","99.63","","","","","","NA"
"-76.60","44.23","KINGSTON A","6104149","2020-11-16 09:00","2020","11","16","09:00","5.8","","0.2","","67","","","","26","","31","","24.1","","99.70","","","","","","NA"
"-76.60","44.23","KINGSTON A","6104149","2020-11-16 10:00","2020","11","16","10:00","5.9","","-0.7","","63","","","","25","","43","","24.1","","99.75","","","","","","Mostly Cloudy"
"-76.60","44.23","KINGSTON A","6104149","2020-11-16 11:00","2020","11","16","11:00","6.2","","-1.0","","60","","","","25","","43","","24.1","","99.80","","","","","","NA"
"-76.60","44.23","KINGSTON A","6104149","2020-11-16 12:00","2020","11","16","12:00","7.2","","0.8","","63","","","","25","","32","","24.1","","99.78","","","","","","NA"
"-76.60","44.23","KINGSTON A","6104149","2020-11-16 13:00","2020","11","16","13:00","6.2","","-0.8","","61","","","","25","","40","","24.1","","99.82","","","","","","Mostly Cloudy"
"-76.60","44.23","KINGSTON A","6104149","2020-11-16 14:00","2020","11","16","14:00","5.7","","-0.4","","65","","","","26","","28","","24.1","","99.86","","","","","","NA"
"-76.60","44.23","KINGSTON A","6104149","2020-11-16 15:00","2020","11","16","15:00","5.4","","-0.4","","66","","","","24","","32","","24.1","","99.88","","","","","","NA"
"-76.60","44.23","KINGSTON A","6104149","2020-11-16 16:00","2020","11","16","16:00","5.0","","-1.6","","62","","","","26","","32","","24.1","","99.94","","","","","","Cloudy"
"-76.60","44.23","KINGSTON A","6104149","2020-11-16 17:00","2020","11","16","17:00","4.9","","-2.0","","61","","","","25","","31","","24.1","","100.01","","","","","","NA"
"-76.60","44.23","KINGSTON A","6104149","2020-11-16 18:00","2020","11","16","18:00","4.5","","-2.4","","61","","","","26","","19","","24.1","","100.08","","","","","","NA"
"-76.60","44.23","KINGSTON A","6104149","2020-11-16 19:00","2020","11","16","19:00","4.3","","-2.9","","60","","","","26","","23","","24.1","","100.13","","","","","","Cloudy"
"-76.60","44.23","KINGSTON A","6104149","2020-11-16 20:00","2020","11","16","20:00","4.0","","-2.8","","61","","","","25","","30","","24.1","","100.17","","","","","","NA"
"-76.60","44.23","KINGSTON A","6104149","2020-11-16 21:00","2020","11","16","21:00","3.8","","-3.0","","61","","","","26","","25","","24.1","","100.21","","","","","","NA"
"-76.60","44.23","KINGSTON A","6104149","2020-11-16 22:00","2020","11","16","22:00","3.7","","-3.2","","61","","","","26","","23","","24.1","","100.18","","","","","","Cloudy"
"-76.60","44.23","KINGSTON A","6104149","2020-11-16 23:00","2020","11","16","23:00","3.6","","-3.5","","60","","","","26","","26","","24.1","","100.15","","","","","","NA"
"-76.60","44.23","KINGSTON A","6104149","2020-11-17 00:00","2020","11","17","00:00"
"-76.60","44.23","KINGSTON A","6104149","2020-11-17 01:00","2020","11","17","01:00"
"-76.60","44.23","KINGSTON A","6104149","2020-11-17 02:00","2020","11","17","02:00"
"-76.60","44.23","KINGSTON A","6104149","2020-11-17 03:00","2020","11","17","03:00"
"-76.60","44.23","KINGSTON A","6104149","2020-11-17 04:00","2020","11","17","04:00"
"-76.60","44.23","KINGSTON A","6104149","2020-11-17 05:00","2020","11","17","05:00"
"-76.60","44.23","KINGSTON A","6104149","2020-11-17 06:00","2020","11","17","06:00","1.4","","-2.1","","78","","","","31","","9","","24.1","","100.08","","","","","","Snow"
"-76.60","44.23","KINGSTON A","6104149","2020-11-17 07:00","2020","11","17","07:00","1.0","","-1.6","","83","","","","31","","12","","24.1","","100.11","","","","","","Mostly Cloudy"
"-76.60","44.23","KINGSTON A","6104149","2020-11-17 08:00","2020","11","17","08:00","1.3","","-1.2","","83","","","","29","","8","","24.1","","100.18","","","","","","NA"
"-76.60","44.23","KINGSTON A","6104149","2020-11-17 09:00","2020","11","17","09:00","1.8","","-1.2","","81","","","","29","","11","","24.1","","100.23","","","","","","NA"
"-76.60","44.23","KINGSTON A","6104149","2020-11-17 10:00","2020","11","17","10:00","2.5","","-2.3","","70","","","","30","","16","","24.1","","100.28","","","","","","Mostly Cloudy"
"-76.60","44.23","KINGSTON A","6104149","2020-11-17 11:00","2020","11","17","11:00","3.1","","-5.0","","55","","","","31","","18","","24.1","","100.31","","","","","","NA"
"-76.60","44.23","KINGSTON A","6104149","2020-11-17 12:00","2020","11","17","12:00","4.0","","-5.6","","50","","","","29","","17","","24.1","","100.33","","","","","","NA"
"-76.60","44.23","KINGSTON A","6104149","2020-11-17 13:00","2020","11","17","13:00","3.3","","-3.8","","60","","","","33","","28","","24.1","","100.35","","","","","","Mostly Cloudy"
"-76.60","44.23","KINGSTON A","6104149","2020-11-17 14:00","2020","11","17","14:00","1.6","","-3.8","","68","","","","32","","30","","12.9","","100.43","","","","","","Snow Showers"
"-76.60","44.23","KINGSTON A","6104149","2020-11-17 15:00","2020","11","17","15:00","1.9","","-5.9","","57","","","","32","","16","","24.1","","100.47","","","","","","Snow Showers"
"-76.60","44.23","KINGSTON A","6104149","2020-11-17 16:00","2020","11","17","16:00","0.9","","-6.0","","60","","","","29","","17","","24.1","","100.61","","","","","","Mostly Cloudy"
"-76.60","44.23","KINGSTON A","6104149","2020-11-17 17:00","2020","11","17","17:00","-0.4","","-5.4","","69","","","","31","","20","","24.1","","100.73","","","","-6","","NA"
"-76.60","44.23","KINGSTON A","6104149","2020-11-17 18:00","2020","11","17","18:00","-1.2","","-7.4","","63","","","","31","","13","","24.1","","100.84","","","","-5","","NA"
"-76.60","44.23","KINGSTON A","6104149","2020-11-17 19:00","2020","11","17","19:00","-1.5","","-9.8","","53","","","","31","","21","","24.1","","100.99","","","","-7","","Mostly Cloudy"
"-76.60","44.23","KINGSTON A","6104149","2020-11-17 20:00","2020","11","17","20:00","-2.0","","-9.7","","56","","","","31","","17","","24.1","","101.09","","","","-7","","NA"
"-76.60","44.23","KINGSTON A","6104149","2020-11-17 21:00","2020","11","17","21:00","-2.9","","-9.7","","60","","","","34","","19","","24.1","","101.20","","","","-9","","NA"
"-76.60","44.23","KINGSTON A","6104149","2020-11-17 22:00","2020","11","17","22:00","-4.2","","-11.9","","55","","","","34","","22","","24.1","","101.30","","","","-11","","Mostly Cloudy"
"-76.60","44.23","KINGSTON A","6104149","2020-11-17 23:00","2020","11","17","23:00","-5.6","","-12.8","","57","","","","34","","25","","24.1","","101.41","","","","-13","","NA"
"-76.60","44.23","KINGSTON A","6104149","2020-11-18 00:00","2020","11","18","00:00"
"-76.60","44.23","KINGSTON A","6104149","2020-11-18 01:00","2020","11","18","01:00"
"-76.60","44.23","KINGSTON A","6104149","2020-11-18 02:00","2020","11","18","02:00"
"-76.60","44.23","KINGSTON A","6104149","2020-11-18 03:00","2020","11","18","03:00"
"-76.60","44.23","KINGSTON A","6104149","2020-11-18 04:00","2020","11","18","04:00"
"-76.60","44.23","KINGSTON A","6104149","2020-11-18 05:00","2020","11","18","05:00"
"-76.60","44.23","KINGSTON A","6104149","2020-11-18 06:00","2020","11","18","06:00","-8.5","","-12.9","","71","","","","31","","9","","24.1","","102.09","","","","-13","","NA"
"-76.60","44.23","KINGSTON A","6104149","2020-11-18 07:00","2020","11","18","07:00","-8.9","","-12.3","","77","","","","28","","7","","24.1","","102.15","","","","-13","","Mainly Clear"
"-76.60","44.23","KINGSTON A","6104149","2020-11-18 08:00","2020","11","18","08:00","-7.2","","-11.2","","74","","","","31","","5","","24.1","","102.24","","","","-10","","NA"
"-76.60","44.23","KINGSTON A","6104149","2020-11-18 09:00","2020","11","18","09:00","-5.9","","-11.7","","64","","","","33","","9","","24.1","","102.29","","","","-10","","NA"
"-76.60","44.23","KINGSTON A","6104149","2020-11-18 10:00","2020","11","18","10:00","-5.0","","-11.9","","59","","","","33","","9","","24.1","","102.34","","","","-9","","Cloudy"
"-76.60","44.23","KINGSTON A","6104149","2020-11-18 11:00","2020","11","18","11:00","-4.9","","-12.8","","54","","","","32","","9","","24.1","","102.33","","","","-9","","Snow"
"-76.60","44.23","KINGSTON A","6104149","2020-11-18 12:00","2020","11","18","12:00","-4.6","","-13.4","","51","","","","36","","1","","24.1","","102.30","","","","-5","","NA"
"-76.60","44.23","KINGSTON A","6104149","2020-11-18 13:00","2020","11","18","13:00","-3.6","","-12.4","","51","","","","29","","10","","24.1","","102.29","","","","-8","","Mostly Cloudy"
"-76.60","44.23","KINGSTON A","6104149","2020-11-18 14:00","2020","11","18","14:00","-2.4","","-12.4","","47","","","","30","","12","","24.1","","102.25","","","","-7","","NA"
"-76.60","44.23","KINGSTON A","6104149","2020-11-18 15:00","2020","11","18","15:00","-2.6","","-12.7","","46","","","","29","","8","","24.1","","102.24","","","","-6","","NA"
"-76.60","44.23","KINGSTON A","6104149","2020-11-18 16:00","2020","11","18","16:00","-3.0","","-12.8","","47","","","","28","","5","","24.1","","102.29","","","","-5","","Mainly Clear"
"-76.60","44.23","KINGSTON A","6104149","2020-11-18 17:00","2020","11","18","17:00","-3.5","","-13.1","","48","","","","32","","4","","24.1","","102.26","","","","-5","","NA"
"-76.60","44.23","KINGSTON A","6104149","2020-11-18 18:00","2020","11","18","18:00","-4.7","","-12.1","","57","","","","26","","5","","24.1","","102.25","","","","-7","","NA"
"-76.60","44.23","KINGSTON A","6104149","2020-11-18 19:00","2020","11","18","19:00","-3.7","","-11.4","","55","","","","27","","7","","24.1","","102.25","","","","-7","","Mainly Clear"
"-76.60","44.23","KINGSTON A","6104149","2020-11-18 20:00","2020","11","18","20:00","-2.8","","-10.6","","55","","","","27","","11","","24.1","","102.21","","","","-7","","NA"
"-76.60","44.23","KINGSTON A","6104149","2020-11-18 21:00","2020","11","18","21:00","-3.9","","-10.6","","60","","","","31","","8","","24.1","","102.17","","","","-7","","NA"
"-76.60","44.23","KINGSTON A","6104149","2020-11-18 22:00","2020","11","18","22:00","-3.6","","-10.4","","59","","","","36","","1","","24.1","","102.17","","","","-4","","Mostly Cloudy"
"-76.60","44.23","KINGSTON A","6104149","2020-11-18 23:00","2020","11","18","23:00","-1.1","","-6.7","","66","","","","19","","15","","24.1","","102.04","","","","-6","","NA"
"-76.60","44.23","KINGSTON A","6104149","2020-11-19 00:00","2020","11","19","00:00"
"-76.60","44.23","KINGSTON A","6104149","2020-11-19 01:00","2020","11","19","01:00"
"-76.60","44.23","KINGSTON A","6104149","2020-11-19 02:00","2020","11","19","02:00"
"-76.60","44.23","KINGSTON A","6104149","2020-11-19 03:00","2020","11","19","03:00"
"-76.60","44.23","KINGSTON A","6104149","2020-11-19 04:00","2020","11","19","04:00"
"-76.60","44.23","KINGSTON A","6104149","2020-11-19 05:00","2020","11","19","05:00"
"-76.60","44.23","KINGSTON A","6104149","2020-11-19 06:00","2020","11","19","06:00","3.5","","-0.1","","77","","","","18","","33","","24.1","","101.50","","","","","","NA"
"-76.60","44.23","KINGSTON A","6104149","2020-11-19 07:00","2020","11","19","07:00","3.3","","0.3","","81","","","","17","","36","","24.1","","101.33","","","","","","Mostly Cloudy"
"-76.60","44.23","KINGSTON A","6104149","2020-11-19 08:00","2020","11","19","08:00","3.1","","-0.1","","79","","","","17","","36","","24.1","","101.26","","","","","","NA"
"-76.60","44.23","KINGSTON A","6104149","2020-11-19 09:00","2020","11","19","09:00","4.3","","-0.8","","69","","","","18","","40","","24.1","","101.23","","","","","","NA"
"-76.60","44.23","KINGSTON A","6104149","2020-11-19 10:00","2020","11","19","10:00","5.6","","-0.9","","63","","","","18","","44","","24.1","","101.06","","","","","","Mostly Cloudy"
"-76.60","44.23","KINGSTON A","6104149","2020-11-19 11:00","2020","11","19","11:00","7.2","","0.1","","61","","","","19","","43","","24.1","","100.95","","","","","","NA"
"-76.60","44.23","KINGSTON A","6104149","2020-11-19 12:00","2020","11","19","12:00","8.0","","0.8","","60","","","","20","","41","","24.1","","100.84","","","","","","NA"
"-76.60","44.23","KINGSTON A","6104149","2020-11-19 13:00","2020","11","19","13:00","10.0","","1.5","","55","","","","20","","37","","24.1","","100.72","","","","","","Mostly Cloudy"
"-76.60","44.23","KINGSTON A","6104149","2020-11-19 14:00","2020","11","19","14:00","9.6","","1.9","","58","","","","20","","36","","24.1","","100.70","","","","","","NA"
"-76.60","44.23","KINGSTON A","6104149","2020-11-19 15:00","2020","11","19","15:00","10.0","","2.9","","61","","","","19","","33","","24.1","","100.61","","","","","","NA"
"-76.60","44.23","KINGSTON A","6104149","2020-11-19 16:00","2020","11","19","16:00","9.8","","3.2","","63","","","","20","","32","","24.1","","100.63","","","","","","Mostly Cloudy"
"-76.60","44.23","KINGSTON A","6104149","2020-11-19 17:00","2020","11","19","17:00","9.7","","3.5","","65","","","","20","","30","","24.1","","100.62","","","","","","NA"
"-76.60","44.23","KINGSTON A","6104149","2020-11-19 18:00","2020","11","19","18:00","9.7","","4.5","","70","","","","19","","29","","24.1","","100.62","","","","","","NA"
"-76.60","44.23","KINGSTON A","6104149","2020-11-19 19:00","2020","11","19","19:00","9.8","","3.9","","67","","","","20","","25","","24.1","","100.66","","","","","","Mostly Cloudy"
"-76.60","44.23","KINGSTON A","6104149","2020-11-19 20:00","2020","11","19","20:00","9.9","","3.8","","66","","","","22","","16","","24.1","","100.69","","","","","","NA"
"-76.60","44.23","KINGSTON A","6104149","2020-11-19 21:00","2020","11","19","21:00","9.9","","4.0","","67","","","","22","","18","","24.1","","100.69","","","","","","NA"
"-76.60","44.23","KINGSTON A","6104149","2020-11-19 22:00","2020","11","19","22:00","10.3","","4.1","","65","","","","22","","19","","24.1","","100.70","","","","","","Cloudy"
"-76.60","44.23","KINGSTON A","6104149","2020-11-19 23:00","2020","11","19","23:00","10.1","","4.8","","69","","","","22","","18","","24.1","","100.67","","","","","","NA"
"-76.60","44.23","KINGSTON A","6104149","2020-11-20 00:00","2020","11","20","00:00"
"-76.60","44.23","KINGSTON A","6104149","2020-11-20 01:00","2020","11","20","01:00"
"-76.60","44.23","KINGSTON A","6104149","2020-11-20 02:00","2020","11","20","02:00"
"-76.60","44.23","KINGSTON A","6104149","2020-11-20 03:00","2020","11","20","03:00"
"-76.60","44.23","KINGSTON A","6104149","2020-11-20 04:00","2020","11","20","04:00"
"-76.60","44.23","KINGSTON A","6104149","2020-11-20 05:00","2020","11","20","05:00"
"-76.60","44.23","KINGSTON A","6104149","2020-11-20 06:00","2020","11","20","06:00","10.9","","6.0","","72","","","","21","","17","","24.1","","100.75","","","","","","NA"
"-76.60","44.23","KINGSTON A","6104149","2020-11-20 07:00","2020","11","20","07:00","10.9","","5.9","","71","","","","21","","21","","24.1","","100.77","","","","","","Cloudy"
"-76.60","44.23","KINGSTON A","6104149","2020-11-20 08:00","2020","11","20","08:00","10.9","","6.3","","73","","","","21","","19","","24.1","","100.79","","","","","","NA"
"-76.60","44.23","KINGSTON A","6104149","2020-11-20 09:00","2020","11","20","09:00","11.4","","6.2","","70","","","","20","","17","","24.1","","100.80","","","","","","NA"
"-76.60","44.23","KINGSTON A","6104149","2020-11-20 10:00","2020","11","20","10:00","12.3","","6.0","","65","","","","19","","30","","24.1","","100.76","","","","","","Mostly Cloudy"
"-76.60","44.23","KINGSTON A","6104149","2020-11-20 11:00","2020","11","20","11:00","13.9","","5.9","","58","","","","21","","20","","24.1","","100.75","","","","","","NA"
"-76.60","44.23","KINGSTON A","6104149","2020-11-20 12:00","2020","11","20","12:00","14.9","","3.7","","47","","","","23","","33","","24.1","","100.70","","","","","","NA"
"-76.60","44.23","KINGSTON A","6104149","2020-11-20 13:00","2020","11","20","13:00","14.2","","3.8","","49","","","","24","","31","","24.1","","100.66","","","","","","Cloudy"
"-76.60","44.23","KINGSTON A","6104149","2020-11-20 14:00","2020","11","20","14:00","13.9","","4.7","","54","","","","23","","23","","24.1","","100.64","","","","","","NA"
"-76.60","44.23","KINGSTON A","6104149","2020-11-20 15:00","2020","11","20","15:00","13.9","","4.3","","52","","","","23","","33","","24.1","","100.66","","","","","","NA"
"-76.60","44.23","KINGSTON A","6104149","2020-11-20 16:00","2020","11","20","16:00","13.5","","4.7","","55","","","","24","","33","","24.1","","100.73","","","","","","Mostly Cloudy"
"-76.60","44.23","KINGSTON A","6104149","2020-11-20 17:00","2020","11","20","17:00","12.3","","5.4","","62","","","","24","","29","","24.1","","100.79","","","","","","NA"
"-76.60","44.23","KINGSTON A","6104149","2020-11-20 18:00","2020","11","20","18:00","11.8","","5.7","","66","","","","24","","30","","24.1","","100.84","","","","","","NA"
"-76.60","44.23","KINGSTON A","6104149","2020-11-20 19:00","2020","11","20","19:00","12.0","","5.3","","63","","","","25","","28","","24.1","","100.91","","","","","","Mostly Cloudy"
"-76.60","44.23","KINGSTON A","6104149","2020-11-20 20:00","2020","11","20","20:00","11.2","","5.8","","69","","","","25","","22","","24.1","","100.95","","","","","","NA"
"-76.60","44.23","KINGSTON A","6104149","2020-11-20 21:00","2020","11","20","21:00","10.3","","6.0","","74","","","","25","","18","","24.1","","101.01","","","","","","NA"
"-76.60","44.23","KINGSTON A","6104149","2020-11-20 22:00","2020","11","20","22:00","9.9","","5.0","","72","","","","27","","14","","24.1","","101.06","","","","","","Mainly Clear"
"-76.60","44.23","KINGSTON A","6104149","2020-11-20 23:00","2020","11","20","23:00","8.9","","5.0","","76","","","","28","","19","","24.1","","101.15","","","","","","NA"
"-76.60","44.23","KINGSTON A","6104149","2020-11-21 00:00","2020","11","21","00:00"
"-76.60","44.23","KINGSTON A","6104149","2020-11-21 01:00","2020","11","21","01:00"
"-76.60","44.23","KINGSTON A","6104149","2020-11-21 02:00","2020","11","21","02:00"
"-76.60","44.23","KINGSTON A","6104149","2020-11-21 03:00","2020","11","21","03:00"
"-76.60","44.23","KINGSTON A","6104149","2020-11-21 04:00","2020","11","21","04:00"
"-76.60","44.23","KINGSTON A","6104149","2020-11-21 05:00","2020","11","21","05:00"
"-76.60","44.23","KINGSTON A","6104149","2020-11-21 06:00","2020","11","21","06:00","3.0","","-2.0","","69","","","","26","","10","","24.1","","101.72","","","","","","NA"
"-76.60","44.23","KINGSTON A","6104149","2020-11-21 07:00","2020","11","21","07:00","3.4","","-2.2","","67","","","","27","","18","","24.1","","101.80","","","","","","Mostly Cloudy"
"-76.60","44.23","KINGSTON A","6104149","2020-11-21 08:00","2020","11","21","08:00","2.7","","-2.4","","69","","","","28","","12","","24.1","","101.87","","","","","","NA"
"-76.60","44.23","KINGSTON A","6104149","2020-11-21 09:00","2020","11","21","09:00","3.8","","-2.3","","64","","","","30","","19","","24.1","","101.90","","","","","","NA"
"-76.60","44.23","KINGSTON A","6104149","2020-11-21 10:00","2020","11","21","10:00","5.3","","-2.2","","59","","","","33","","18","","24.1","","101.93","","","","","","Mostly Cloudy"
"-76.60","44.23","KINGSTON A","6104149","2020-11-21 11:00","2020","11","21","11:00","5.9","","-2.1","","57","","","","34","","18","","24.1","","101.96","","","","","","NA"
"-76.60","44.23","KINGSTON A","6104149","2020-11-21 12:00","2020","11","21","12:00","5.9","","-3.7","","50","","","","28","","13","","24.1","","101.93","","","","","","NA"
"-76.60","44.23","KINGSTON A","6104149","2020-11-21 13:00","2020","11","21","13:00","5.9","","-3.4","","51","","","","28","","14","","24.1","","101.93","","","","","","Cloudy"
"-76.60","44.23","KINGSTON A","6104149","2020-11-21 14:00","2020","11","21","14:00","5.1","","-3.9","","52","","","","32","","21","","24.1","","101.96","","","","","","NA"
"-76.60","44.23","KINGSTON A","6104149","2020-11-21 15:00","2020","11","21","15:00","4.8","","-5.0","","49","","","","30","","14","","24.1","","101.99","","","","","","NA"
"-76.60","44.23","KINGSTON A","6104149","2020-11-21 16:00","2020","11","21","16:00","4.3","","-5.4","","49","","","","31","","14","","24.1","","102.07","","","","","","Mostly Cloudy"
"-76.60","44.23","KINGSTON A","6104149","2020-11-21 17:00","2020","11","21","17:00","3.8","","-5.2","","52","","","","32","","8","","24.1","","102.11","","","","","","NA"
"-76.60","44.23","KINGSTON A","6104149","2020-11-21 18:00","2020","11","21","18:00","2.8","","-3.5","","63","","","","4","","10","","24.1","","102.19","","","","","","NA"
"-76.60","44.23","KINGSTON A","6104149","2020-11-21 19:00","2020","11","21","19:00","2.3","","-3.7","","64","","","","4","","16","","24.1","","102.24","","","","","","Cloudy"
"-76.60","44.23","KINGSTON A","6104149","2020-11-21 20:00","2020","11","21","20:00","1.8","","-3.6","","68","","","","5","","10","","24.1","","102.25","","","","","","NA"
"-76.60","44.23","KINGSTON A","6104149","2020-11-21 21:00","2020","11","21","21:00","1.8","","-3.7","","67","","","","5","","8","","24.1","","102.26","","","","","","NA"
"-76.60","44.23","KINGSTON A","6104149","2020-11-21 22:00","2020","11","21","22:00","1.6","","-3.7","","68","","","","4","","9","","24.1","","102.27","","","","","","Cloudy"
"-76.60","44.23","KINGSTON A","6104149","2020-11-21 23:00","2020","11","21","23:00","1.6","","-4.0","","67","","","","4","","7","","24.1","","102.26","","","","","","NA"
"-76.60","44.23","KINGSTON A","6104149","2020-11-22 00:00","2020","11","22","00:00"
"-76.60","44.23","KINGSTON A","6104149","2020-11-22 01:00","2020","11","22","01:00"
"-76.60","44.23","KINGSTON A","6104149","2020-11-22 02:00","2020","11","22","02:00"
"-76.60","44.23","KINGSTON A","6104149","2020-11-22 03:00","2020","11","22","03:00"
"-76.60","44.23","KINGSTON A","6104149","2020-11-22 04:00","2020","11","22","04:00"
"-76.60","44.23","KINGSTON A","6104149","2020-11-22 05:00","2020","11","22","05:00"
"-76.60","44.23","KINGSTON A","6104149","2020-11-22 06:00","2020","11","22","06:00","0.5","","-4.8","","67","","","","6","","11","","24.1","","102.17","","","","","","NA"
"-76.60","44.23","KINGSTON A","6104149","2020-11-22 07:00","2020","11","22","07:00","0.4","","-4.6","","69","","","","5","","13","","24.1","","102.12","","","","","","Cloudy"
"-76.60","44.23","KINGSTON A","6104149","2020-11-22 08:00","2020","11","22","08:00","0.6","","-4.1","","71","","","","6","","12","","24.1","","102.12","","","","","","NA"
"-76.60","44.23","KINGSTON A","6104149","2020-11-22 09:00","2020","11","22","09:00","1.2","","-3.8","","69","","","","7","","12","","24.1","","102.13","","","","","","NA"
"-76.60","44.23","KINGSTON A","6104149","2020-11-22 10:00","2020","11","22","10:00","2.0","","-3.1","","69","","","","8","","12","","24.1","","102.09","","","","","","Cloudy"
"-76.60","44.23","KINGSTON A","6104149","2020-11-22 11:00","2020","11","22","11:00","2.5","","-4.2","","61","","","","8","","18","","24.1","","101.97","","","","","","NA"
"-76.60","44.23","KINGSTON A","6104149","2020-11-22 12:00","2020","11","22","12:00","0.3","","-0.6","","94","","","","11","","12","","1.6","","101.86","","","","","","Snow,Fog"
"-76.60","44.23","KINGSTON A","6104149","2020-11-22 13:00","2020","11","22","13:00","0.0","","-0.3","","97","","","","7","","14","","1.6","","101.70","","","","-4","","Snow,Fog"
"-76.60","44.23","KINGSTON A","6104149","2020-11-22 14:00","2020","11","22","14:00","0.0","","-0.2","","98","","","","5","","16","","2.4","","101.56","","","","-5","","Snow,Fog"
"-76.60","44.23","KINGSTON A","6104149","2020-11-22 15:00","2020","11","22","15:00","0.0","","-0.2","","98","","","","5","","19","","1.6","","101.32","","","","-5","","Snow,Fog"
"-76.60","44.23","KINGSTON A","6104149","2020-11-22 16:00","2020","11","22","16:00","0.2","","-0.2","","97","","","","4","","20","","2.4","","101.22","","","","","","Snow,Fog"
"-76.60","44.23","KINGSTON A","6104149","2020-11-22 17:00","2020","11","22","17:00","0.2","","-0.4","","96","","","","6","","25","","9.7","","101.05","","","","","","Rain,Snow"
"-76.60","44.23","KINGSTON A","6104149","2020-11-22 18:00","2020","11","22","18:00","0.3","","-0.4","","96","","","","6","","23","","9.7","","100.91","","","","","","Rain,Snow,Fog"
"-76.60","44.23","KINGSTON A","6104149","2020-11-22 19:00","2020","11","22","19:00","0.4","","-0.2","","96","","","","6","","16","","9.7","","100.78","","","","","","Rain,Snow,Fog"
"-76.60","44.23","KINGSTON A","6104149","2020-11-22 20:00","2020","11","22","20:00","0.4","","0.0","","97","","","","6","","15","","9.7","","100.61","","","","","","Rain,Fog"
"-76.60","44.23","KINGSTON A","6104149","2020-11-22 21:00","2020","11","22","21:00","0.4","","0.1","","97","","","","5","","20","","8.1","","100.49","","","","","","Rain,Fog"
"-76.60","44.23","KINGSTON A","6104149","2020-11-22 22:00","2020","11","22","22:00","0.6","","0.4","","98","","","","7","","21","","8.1","","100.35","","","","","","Rain,Fog"
"-76.60","44.23","KINGSTON A","6104149","2020-11-22 23:00","2020","11","22","23:00","0.6","","0.4","","98","","","","35","","16","","4.8","","100.24","","","","","","Rain,Fog"
"-76.60","44.23","KINGSTON A","6104149","2020-11-23 00:00","2020","11","23","00:00"
"-76.60","44.23","KINGSTON A","6104149","2020-11-23 01:00","2020","11","23","01:00"
"-76.60","44.23","KINGSTON A","6104149","2020-11-23 02:00","2020","11","23","02:00"
"-76.60","44.23","KINGSTON A","6104149","2020-11-23 03:00","2020","11","23","03:00"
"-76.60","44.23","KINGSTON A","6104149","2020-11-23 04:00","2020","11","23","04:00"
"-76.60","44.23","KINGSTON A","6104149","2020-11-23 05:00","2020","11","23","05:00"
"-76.60","44.23","KINGSTON A","6104149","2020-11-23 06:00","2020","11","23","06:00","0.0","","-1.4","","90","","","","30","","12","","24.1","","100.34","","","","-4","","NA"
"-76.60","44.23","KINGSTON A","6104149","2020-11-23 07:00","2020","11","23","07:00","-0.5","","-2.2","","88","","","","28","","18","","24.1","","100.47","","","","-6","","Mostly Cloudy"
"-76.60","44.23","KINGSTON A","6104149","2020-11-23 08:00","2020","11","23","08:00","-0.5","","-2.3","","88","","","","28","","14","","24.1","","100.61","","","","-5","","NA"
"-76.60","44.23","KINGSTON A","6104149","2020-11-23 09:00","2020","11","23","09:00","-0.2","","-2.3","","86","","","","28","","18","","24.1","","100.66","","","","-5","","NA"
"-76.60","44.23","KINGSTON A","6104149","2020-11-23 10:00","2020","11","23","10:00","0.5","","-2.0","","84","","","","28","","15","","24.1","","100.69","","","","","","Mostly Cloudy"
"-76.60","44.23","KINGSTON A","6104149","2020-11-23 11:00","2020","11","23","11:00","0.4","","-2.2","","83","","","","29","","20","","24.1","","100.71","","","","","","NA"
"-76.60","44.23","KINGSTON A","6104149","2020-11-23 12:00","2020","11","23","12:00","0.4","","-2.1","","83","","","","30","","20","","24.1","","100.72","","","","","","NA"
"-76.60","44.23","KINGSTON A","6104149","2020-11-23 13:00","2020","11","23","13:00","1.8","","-1.9","","76","","","","32","","16","","24.1","","100.71","","","","","","Mainly Clear"
"-76.60","44.23","KINGSTON A","6104149","2020-11-23 14:00","2020","11","23","14:00","2.4","","-1.9","","74","","","","30","","17","","24.1","","100.73","","","","","","NA"
"-76.60","44.23","KINGSTON A","6104149","2020-11-23 15:00","2020","11","23","15:00","3.1","","-1.5","","72","","","","27","","12","","24.1","","100.75","","","","","","NA"
"-76.60","44.23","KINGSTON A","6104149","2020-11-23 16:00","2020","11","23","16:00","2.3","","-1.4","","77","","","","27","","12","","24.1","","100.82","","","","","","Mostly Cloudy"
"-76.60","44.23","KINGSTON A","6104149","2020-11-23 17:00","2020","11","23","17:00","1.5","","-1.4","","81","","","","28","","7","","24.1","","100.87","","","","","","NA"
"-76.60","44.23","KINGSTON A","6104149","2020-11-23 18:00","2020","11","23","18:00","1.6","","-1.0","","83","","","","28","","8","","24.1","","100.93","","","","","","NA"
"-76.60","44.23","KINGSTON A","6104149","2020-11-23 19:00","2020","11","23","19:00","1.3","","-0.8","","86","","","","29","","8","","24.1","","100.96","","","","","","Mostly Cloudy"
"-76.60","44.23","KINGSTON A","6104149","2020-11-23 20:00","2020","11","23","20:00","1.1","","-0.7","","88","","","","29","","5","","24.1","","100.99","","","","","","NA"
"-76.60","44.23","KINGSTON A","6104149","2020-11-23 21:00","2020","11","23","21:00","1.2","","-0.4","","89","","","","31","","5","","24.1","","101.02","","","","","","NA"
"-76.60","44.23","KINGSTON A","6104149","2020-11-23 22:00","2020","11","23","22:00","0.4","","-0.7","","92","","","","33","","6","","24.1","","101.04","","","","","","Mostly Cloudy"
"-76.60","44.23","KINGSTON A","6104149","2020-11-23 23:00","2020","11","23","23:00","1.0","","-0.4","","91","","","","32","","8","","24.1","","101.07","","","","","","NA"
"-76.60","44.23","KINGSTON A","6104149","2020-11-24 00:00","2020","11","24","00:00"
"-76.60","44.23","KINGSTON A","6104149","2020-11-24 01:00","2020","11","24","01:00"
"-76.60","44.23","KINGSTON A","6104149","2020-11-24 02:00","2020","11","24","02:00"
"-76.60","44.23","KINGSTON A","6104149","2020-11-24 03:00","2020","11","24","03:00"
"-76.60","44.23","KINGSTON A","6104149","2020-11-24 04:00","2020","11","24","04:00"
"-76.60","44.23","KINGSTON A","6104149","2020-11-24 05:00","2020","11","24","05:00"
"-76.60","44.23","KINGSTON A","6104149","2020-11-24 06:00","2020","11","24","06:00","-1.0","","-3.8","","81","","","","36","","26","","24.1","","101.55","","","","-7","","NA"
"-76.60","44.23","KINGSTON A","6104149","2020-11-24 07:00","2020","11","24","07:00","-2.5","","-6.5","","74","","","","35","","21","","24.1","","101.73","","","","-9","","Mostly Cloudy"
"-76.60","44.23","KINGSTON A","6104149","2020-11-24 08:00","2020","11","24","08:00","-3.0","","-6.6","","76","","","","1","","22","","24.1","","101.82","","","","-9","","NA"
"-76.60","44.23","KINGSTON A","6104149","2020-11-24 09:00","2020","11","24","09:00","-3.8","","-8.3","","71","","","","2","","13","","24.1","","101.93","","","","-9","","NA"
"-76.60","44.23","KINGSTON A","6104149","2020-11-24 10:00","2020","11","24","10:00","-3.1","","-8.9","","64","","","","1","","19","","24.1","","101.98","","","","-9","","Mostly Cloudy"
"-76.60","44.23","KINGSTON A","6104149","2020-11-24 11:00","2020","11","24","11:00","-2.8","","-10.0","","58","","","","36","","19","","24.1","","102.00","","","","-9","","NA"
"-76.60","44.23","KINGSTON A","6104149","2020-11-24 12:00","2020","11","24","12:00","-2.9","","-10.7","","55","","","","35","","5","","24.1","","101.98","","","","-5","","NA"
"-76.60","44.23","KINGSTON A","6104149","2020-11-24 13:00","2020","11","24","13:00","-2.1","","-10.0","","55","","","","5","","13","","24.1","","101.93","","","","-7","","Mostly Cloudy"
"-76.60","44.23","KINGSTON A","6104149","2020-11-24 14:00","2020","11","24","14:00","-2.0","","-10.7","","52","","","","4","","13","","24.1","","101.90","","","","-6","","NA"
"-76.60","44.23","KINGSTON A","6104149","2020-11-24 15:00","2020","11","24","15:00","-2.3","","-11.5","","50","","","","1","","6","","24.1","","101.93","","","","-5","","NA"
"-76.60","44.23","KINGSTON A","6104149","2020-11-24 16:00","2020","11","24","16:00","-3.1","","-10.6","","56","","","","6","","9","","24.1","","101.94","","","","-7","","Mostly Cloudy"
"-76.60","44.23","KINGSTON A","6104149","2020-11-24 17:00","2020","11","24","17:00","-3.7","","-10.4","","60","","","","5","","11","","24.1","","101.89","","","","-8","","NA"
"-76.60","44.23","KINGSTON A","6104149","2020-11-24 18:00","2020","11","24","18:00","-4.1","","-10.2","","63","","","","6","","7","","24.1","","101.89","","","","-7","","NA"
"-76.60","44.23","KINGSTON A","6104149","2020-11-24 19:00","2020","11","24","19:00","-4.2","","-10.4","","62","","","","5","","13","","24.1","","101.88","","","","-9","","Mostly Cloudy"
"-76.60","44.23","KINGSTON A","6104149","2020-11-24 20:00","2020","11","24","20:00","-4.2","","-9.5","","67","","","","6","","14","","24.1","","101.81","","","","-9","","NA"
"-76.60","44.23","KINGSTON A","6104149","2020-11-24 21:00","2020","11","24","21:00","-4.2","","-9.1","","69","","","","6","","15","","24.1","","101.77","","","","-10","","NA"
"-76.60","44.23","KINGSTON A","6104149","2020-11-24 22:00","2020","11","24","22:00","-4.0","","-8.4","","72","","","","5","","12","","24.1","","101.70","","","","-9","","Cloudy"
"-76.60","44.23","KINGSTON A","6104149","2020-11-24 23:00","2020","11","24","23:00","-3.9","","-8.1","","73","","","","5","","18","","24.1","","101.53","","","","-10","","NA"
"-76.60","44.23","KINGSTON A","6104149","2020-11-25 00:00","2020","11","25","00:00"
"-76.60","44.23","KINGSTON A","6104149","2020-11-25 01:00","2020","11","25","01:00"
"-76.60","44.23","KINGSTON A","6104149","2020-11-25 02:00","2020","11","25","02:00"
"-76.60","44.23","KINGSTON A","6104149","2020-11-25 03:00","2020","11","25","03:00"
"-76.60","44.23","KINGSTON A","6104149","2020-11-25 04:00","2020","11","25","04:00"
"-76.60","44.23","KINGSTON A","6104149","2020-11-25 05:00","2020","11","25","05:00"
"-76.60","44.23","KINGSTON A","6104149","2020-11-25 06:00","2020","11","25","06:00","-0.4","","-0.6","","98","","","","8","","15","","6.4","","100.99","","","","-5","","Snow,Fog"
"-76.60","44.23","KINGSTON A","6104149","2020-11-25 07:00","2020","11","25","07:00","4.5","","0.4","","74","","","","16","","31","","19.3","","100.91","","","","","","Cloudy"
"-76.60","44.23","KINGSTON A","6104149","2020-11-25 08:00","2020","11","25","08:00","5.0","","0.8","","74","","","","17","","27","","24.1","","100.86","","","","","","NA"
"-76.60","44.23","KINGSTON A","6104149","2020-11-25 09:00","2020","11","25","09:00","5.3","","0.9","","73","","","","18","","31","","24.1","","100.88","","","","","","NA"
"-76.60","44.23","KINGSTON A","6104149","2020-11-25 10:00","2020","11","25","10:00","5.7","","1.7","","76","","","","17","","30","","24.1","","100.83","","","","","","Cloudy"
"-76.60","44.23","KINGSTON A","6104149","2020-11-25 11:00","2020","11","25","11:00","6.5","","2.0","","73","","","","18","","30","","24.1","","100.81","","","","","","NA"
"-76.60","44.23","KINGSTON A","6104149","2020-11-25 12:00","2020","11","25","12:00","6.7","","3.0","","77","","","","17","","29","","24.1","","100.75","","","","","","NA"
"-76.60","44.23","KINGSTON A","6104149","2020-11-25 13:00","2020","11","25","13:00","7.9","","2.5","","69","","","","18","","32","","24.1","","100.72","","","","","","Cloudy"
"-76.60","44.23","KINGSTON A","6104149","2020-11-25 14:00","2020","11","25","14:00","8.0","","3.0","","71","","","","18","","27","","24.1","","100.68","","","","","","NA"
"-76.60","44.23","KINGSTON A","6104149","2020-11-25 15:00","2020","11","25","15:00","8.3","","3.9","","73","","","","18","","30","","24.1","","100.62","","","","","","NA"
"-76.60","44.23","KINGSTON A","6104149","2020-11-25 16:00","2020","11","25","16:00","8.4","","4.1","","74","","","","19","","26","","24.1","","100.64","","","","","","Cloudy"
"-76.60","44.23","KINGSTON A","6104149","2020-11-25 17:00","2020","11","25","17:00","8.5","","4.7","","77","","","","18","","21","","24.1","","100.64","","","","","","NA"
"-76.60","44.23","KINGSTON A","6104149","2020-11-25 18:00","2020","11","25","18:00","8.4","","5.0","","79","","","","17","","21","","24.1","","100.65","","","","","","NA"
"-76.60","44.23","KINGSTON A","6104149","2020-11-25 19:00","2020","11","25","19:00","8.3","","4.5","","77","","","","18","","27","","24.1","","100.68","","","","","","Cloudy"
"-76.60","44.23","KINGSTON A","6104149","2020-11-25 20:00","2020","11","25","20:00","7.4","","6.2","","92","","","","19","","26","","16.1","","100.71","","","","","","Rain"
"-76.60","44.23","KINGSTON A","6104149","2020-11-25 21:00","2020","11","25","21:00","7.2","","6.5","","96","","","","17","","28","","12.9","","100.64","","","","","","Rain"
"-76.60","44.23","KINGSTON A","6104149","2020-11-25 22:00","2020","11","25","22:00","7.3","","6.6","","95","","","","17","","28","","12.9","","100.64","","","","","","Rain"
"-76.60","44.23","KINGSTON A","6104149","2020-11-25 23:00","2020","11","25","23:00","7.3","","6.7","","96","","","","16","","22","","12.9","","100.57","","","","","","Rain"
"-76.60","44.23","KINGSTON A","6104149","2020-11-26 00:00","2020","11","26","00:00"
"-76.60","44.23","KINGSTON A","6104149","2020-11-26 01:00","2020","11","26","01:00"
"-76.60","44.23","KINGSTON A","6104149","2020-11-26 02:00","2020","11","26","02:00"
"-76.60","44.23","KINGSTON A","6104149","2020-11-26 03:00","2020","11","26","03:00"
"-76.60","44.23","KINGSTON A","6104149","2020-11-26 04:00","2020","11","26","04:00"
"-76.60","44.23","KINGSTON A","6104149","2020-11-26 05:00","2020","11","26","05:00"
"-76.60","44.23","KINGSTON A","6104149","2020-11-26 06:00","2020","11","26","06:00","6.6","","6.5","","99","","","","9","","5","","8.1","","100.09","","","","","","Rain,Fog"
"-76.60","44.23","KINGSTON A","6104149","2020-11-26 07:00","2020","11","26","07:00","7.3","","7.0","","98","","","","11","","11","","9.7","","100.01","","","","","","Rain,Fog"
"-76.60","44.23","KINGSTON A","6104149","2020-11-26 08:00","2020","11","26","08:00","7.8","","7.5","","98","","","","13","","5","","19.3","","100.02","","","","","","Rain"
"-76.60","44.23","KINGSTON A","6104149","2020-11-26 09:00","2020","11","26","09:00","8.6","","8.1","","97","","","","13","","7","","8.1","","100.00","","","","","","Rain,Fog"
"-76.60","44.23","KINGSTON A","6104149","2020-11-26 10:00","2020","11","26","10:00","9.1","","8.6","","96","","","","14","","10","","16.1","","100.01","","","","","","Rain"
"-76.60","44.23","KINGSTON A","6104149","2020-11-26 11:00","2020","11","26","11:00","9.1","","8.6","","97","","","","15","","9","","9.7","","100.00","","","","","","Rain,Fog"
"-76.60","44.23","KINGSTON A","6104149","2020-11-26 12:00","2020","11","26","12:00","9.4","","8.9","","96","","","","19","","14","","24.1","","99.95","","","","","","NA"
"-76.60","44.23","KINGSTON A","6104149","2020-11-26 13:00","2020","11","26","13:00","9.6","","9.2","","98","","","","19","","9","","24.1","","99.95","","","","","","Cloudy"
"-76.60","44.23","KINGSTON A","6104149","2020-11-26 14:00","2020","11","26","14:00","10.1","","9.6","","96","","","","20","","9","","24.1","","99.96","","","","","","NA"
"-76.60","44.23","KINGSTON A","6104149","2020-11-26 15:00","2020","11","26","15:00","10.1","","9.4","","96","","","","21","","14","","3.2","","100.01","","","","","","Fog"
"-76.60","44.23","KINGSTON A","6104149","2020-11-26 16:00","2020","11","26","16:00","10.4","","10.2","","98","","","","23","","18","","6.4","","100.08","","","","","","Drizzle,Fog"
"-76.60","44.23","KINGSTON A","6104149","2020-11-26 17:00","2020","11","26","17:00","9.6","","9.6","","99","","","","23","","19","","3.2","","100.14","","","","","","Drizzle,Fog"
"-76.60","44.23","KINGSTON A","6104149","2020-11-26 18:00","2020","11","26","18:00","9.4","","9.2","","98","","","","25","","13","","6.4","","100.23","","","","","","Fog"
"-76.60","44.23","KINGSTON A","6104149","2020-11-26 19:00","2020","11","26","19:00","9.2","","9.1","","99","","","","25","","13","","4.8","","100.33","","","","","","Fog"
"-76.60","44.23","KINGSTON A","6104149","2020-11-26 20:00","2020","11","26","20:00","9.2","","8.7","","97","","","","25","","14","","8.1","","100.39","","","","","","Fog"
"-76.60","44.23","KINGSTON A","6104149","2020-11-26 21:00","2020","11","26","21:00","9.2","","8.2","","94","","","","24","","17","","12.9","","100.43","","","","","","NA"
"-76.60","44.23","KINGSTON A","6104149","2020-11-26 22:00","2020","11","26","22:00","9.0","","8.1","","94","","","","24","","16","","12.9","","100.46","","","","","","Rain"
"-76.60","44.23","KINGSTON A","6104149","2020-11-26 23:00","2020","11","26","23:00","8.6","","7.8","","95","","","","25","","17","","12.9","","100.52","","","","","","Rain"
"-76.60","44.23","KINGSTON A","6104149","2020-11-27 00:00","2020","11","27","00:00"
"-76.60","44.23","KINGSTON A","6104149","2020-11-27 01:00","2020","11","27","01:00"
"-76.60","44.23","KINGSTON A","6104149","2020-11-27 02:00","2020","11","27","02:00"
"-76.60","44.23","KINGSTON A","6104149","2020-11-27 03:00","2020","11","27","03:00"
"-76.60","44.23","KINGSTON A","6104149","2020-11-27 04:00","2020","11","27","04:00"
"-76.60","44.23","KINGSTON A","6104149","2020-11-27 05:00","2020","11","27","05:00"
"-76.60","44.23","KINGSTON A","6104149","2020-11-27 06:00","2020","11","27","06:00","6.1","","4.6","","90","","","","2","","3","","24.1","","100.70","","","","","","NA"
"-76.60","44.23","KINGSTON A","6104149","2020-11-27 07:00","2020","11","27","07:00","5.9","","4.5","","90","","","","22","","8","","24.1","","100.74","","","","","","Cloudy"
"-76.60","44.23","KINGSTON A","6104149","2020-11-27 08:00","2020","11","27","08:00","6.4","","4.5","","87","","","","20","","7","","24.1","","100.75","","","","","","NA"
"-76.60","44.23","KINGSTON A","6104149","2020-11-27 09:00","2020","11","27","09:00","7.2","","4.3","","82","","","","21","","5","","24.1","","100.75","","","","","","NA"
"-76.60","44.23","KINGSTON A","6104149","2020-11-27 10:00","2020","11","27","10:00","7.7","","5.2","","84","","","","21","","7","","24.1","","100.74","","","","","","Cloudy"
"-76.60","44.23","KINGSTON A","6104149","2020-11-27 11:00","2020","11","27","11:00","8.3","","5.7","","84","","","","20","","8","","24.1","","100.68","","","","","","NA"
"-76.60","44.23","KINGSTON A","6104149","2020-11-27 12:00","2020","11","27","12:00","8.4","","6.4","","87","","","","19","","13","","24.1","","100.62","","","","","","NA"
"-76.60","44.23","KINGSTON A","6104149","2020-11-27 13:00","2020","11","27","13:00","8.3","","5.1","","80","","","","23","","15","","24.1","","100.54","","","","","","Cloudy"
"-76.60","44.23","KINGSTON A","6104149","2020-11-27 14:00","2020","11","27","14:00","8.2","","3.5","","72","","","","23","","17","","24.1","","100.49","","","","","","NA"
"-76.60","44.23","KINGSTON A","6104149","2020-11-27 15:00","2020","11","27","15:00","7.8","","3.4","","73","","","","23","","17","","24.1","","100.48","","","","","","NA"
"-76.60","44.23","KINGSTON A","6104149","2020-11-27 16:00","2020","11","27","16:00","7.5","","3.4","","75","","","","26","","12","","24.1","","100.46","","","","","","Cloudy"
"-76.60","44.23","KINGSTON A","6104149","2020-11-27 17:00","2020","11","27","17:00","7.2","","3.1","","75","","","","25","","14","","24.1","","100.45","","","","","","NA"
"-76.60","44.23","KINGSTON A","6104149","2020-11-27 18:00","2020","11","27","18:00","6.8","","3.6","","80","","","","23","","11","","24.1","","100.42","","","","","","NA"
"-76.60","44.23","KINGSTON A","6104149","2020-11-27 19:00","2020","11","27","19:00","6.8","","3.4","","79","","","","24","","12","","24.1","","100.43","","","","","","Cloudy"
"-76.60","44.23","KINGSTON A","6104149","2020-11-27 20:00","2020","11","27","20:00","7.0","","4.1","","82","","","","24","","11","","24.1","","100.43","","","","","","NA"
"-76.60","44.23","KINGSTON A","6104149","2020-11-27 21:00","2020","11","27","21:00","6.7","","3.7","","81","","","","26","","13","","24.1","","100.40","","","","","","NA"
"-76.60","44.23","KINGSTON A","6104149","2020-11-27 22:00","2020","11","27","22:00","6.4","","3.5","","82","","","","26","","8","","24.1","","100.39","","","","","","Cloudy"
"-76.60","44.23","KINGSTON A","6104149","2020-11-27 23:00","2020","11","27","23:00","5.8","","3.4","","84","","","","26","","6","","24.1","","100.37","","","","","","NA"
"-76.60","44.23","KINGSTON A","6104149","2020-11-28 00:00","2020","11","28","00:00"
"-76.60","44.23","KINGSTON A","6104149","2020-11-28 01:00","2020","11","28","01:00"
"-76.60","44.23","KINGSTON A","6104149","2020-11-28 02:00","2020","11","28","02:00"
"-76.60","44.23","KINGSTON A","6104149","2020-11-28 03:00","2020","11","28","03:00"
"-76.60","44.23","KINGSTON A","6104149","2020-11-28 04:00","2020","11","28","04:00"
"-76.60","44.23","KINGSTON A","6104149","2020-11-28 05:00","2020","11","28","05:00"
"-76.60","44.23","KINGSTON A","6104149","2020-11-28 06:00","2020","11","28","06:00","4.6","","3.1","","90","","","","28","","7","","19.3","","100.20","","","","","","NA"
"-76.60","44.23","KINGSTON A","6104149","2020-11-28 07:00","2020","11","28","07:00","3.9","","3.0","","94","","","","27","","4","","9.7","","100.19","","","","","","Fog"
"-76.60","44.23","KINGSTON A","6104149","2020-11-28 08:00","2020","11","28","08:00","4.7","","3.5","","92","","","","25","","5","","12.9","","100.21","","","","","","NA"
"-76.60","44.23","KINGSTON A","6104149","2020-11-28 09:00","2020","11","28","09:00","3.7","","2.5","","92","","","","32","","14","","16.1","","100.27","","","","","","NA"
"-76.60","44.23","KINGSTON A","6104149","2020-11-28 10:00","2020","11","28","10:00","4.5","","2.7","","88","","","","28","","18","","24.1","","100.32","","","","","","Mostly Cloudy"
"-76.60","44.23","KINGSTON A","6104149","2020-11-28 11:00","2020","11","28","11:00","5.8","","2.0","","77","","","","28","","23","","24.1","","100.33","","","","","","NA"
"-76.60","44.23","KINGSTON A","6104149","2020-11-28 12:00","2020","11","28","12:00","6.8","","0.8","","65","","","","27","","22","","24.1","","100.33","","","","","","NA"
"-76.60","44.23","KINGSTON A","6104149","2020-11-28 13:00","2020","11","28","13:00","6.1","","-2.4","","54","","","","28","","27","","24.1","","100.37","","","","","","Mostly Cloudy"
"-76.60","44.23","KINGSTON A","6104149","2020-11-28 14:00","2020","11","28","14:00","6.5","","-1.9","","55","","","","28","","18","","24.1","","100.41","","","","","","NA"
"-76.60","44.23","KINGSTON A","6104149","2020-11-28 15:00","2020","11","28","15:00","5.8","","-2.0","","57","","","","28","","14","","24.1","","100.38","","","","","","NA"
"-76.60","44.23","KINGSTON A","6104149","2020-11-28 16:00","2020","11","28","16:00","6.0","","-1.3","","59","","","","26","","20","","24.1","","100.41","","","","","","Mostly Cloudy"
"-76.60","44.23","KINGSTON A","6104149","2020-11-28 17:00","2020","11","28","17:00","5.6","","-0.5","","65","","","","24","","29","","24.1","","100.43","","","","","","NA"
"-76.60","44.23","KINGSTON A","6104149","2020-11-28 18:00","2020","11","28","18:00","5.4","","-0.2","","67","","","","25","","21","","24.1","","100.46","","","","","","NA"
"-76.60","44.23","KINGSTON A","6104149","2020-11-28 19:00","2020","11","28","19:00","5.3","","0.6","","72","","","","24","","22","","24.1","","100.45","","","","","","Mostly Cloudy"
"-76.60","44.23","KINGSTON A","6104149","2020-11-28 20:00","2020","11","28","20:00","5.1","","0.8","","73","","","","22","","19","","24.1","","100.46","","","","","","NA"
"-76.60","44.23","KINGSTON A","6104149","2020-11-28 21:00","2020","11","28","21:00","5.5","","0.7","","71","","","","23","","27","","24.1","","100.46","","","","","","NA"
"-76.60","44.23","KINGSTON A","6104149","2020-11-28 22:00","2020","11","28","22:00","5.6","","0.3","","68","","","","24","","29","","24.1","","100.46","","","","","","Mostly Cloudy"
"-76.60","44.23","KINGSTON A","6104149","2020-11-28 23:00","2020","11","28","23:00","5.1","","0.9","","74","","","","26","","21","","24.1","","100.50","","","","","","NA"
"-76.60","44.23","KINGSTON A","6104149","2020-11-29 00:00","2020","11","29","00:00"
"-76.60","44.23","KINGSTON A","6104149","2020-11-29 01:00","2020","11","29","01:00"
"-76.60","44.23","KINGSTON A","6104149","2020-11-29 02:00","2020","11","29","02:00"
"-76.60","44.23","KINGSTON A","6104149","2020-11-29 03:00","2020","11","29","03:00"
"-76.60","44.23","KINGSTON A","6104149","2020-11-29 04:00","2020","11","29","04:00"
"-76.60","44.23","KINGSTON A","6104149","2020-11-29 05:00","2020","11","29","05:00"
"-76.60","44.23","KINGSTON A","6104149","2020-11-29 06:00","2020","11","29","06:00","5.7","","2.1","","77","","","","25","","23","","24.1","","100.49","","","","","","NA"
"-76.60","44.23","KINGSTON A","6104149","2020-11-29 07:00","2020","11","29","07:00","5.3","","2.2","","80","","","","23","","16","","24.1","","100.53","","","","","","Mainly Clear"
"-76.60","44.23","KINGSTON A","6104149","2020-11-29 08:00","2020","11","29","08:00","5.2","","3.0","","86","","","","23","","16","","24.1","","100.55","","","","","","NA"
"-76.60","44.23","KINGSTON A","6104149","2020-11-29 09:00","2020","11","29","09:00","6.4","","3.3","","81","","","","23","","17","","24.1","","100.54","","","","","","NA"
"-76.60","44.23","KINGSTON A","6104149","2020-11-29 10:00","2020","11","29","10:00","7.7","","3.5","","75","","","","23","","18","","24.1","","100.56","","","","","","Mostly Cloudy"
"-76.60","44.23","KINGSTON A","6104149","2020-11-29 11:00","2020","11","29","11:00","7.1","","3.4","","78","","","","26","","14","","24.1","","100.56","","","","","","NA"
"-76.60","44.23","KINGSTON A","6104149","2020-11-29 12:00","2020","11","29","12:00","8.4","","4.0","","74","","","","23","","12","","24.1","","100.50","","","","","","NA"
"-76.60","44.23","KINGSTON A","6104149","2020-11-29 13:00","2020","11","29","13:00","8.7","","3.2","","69","","","","21","","21","","24.1","","100.47","","","","","","Mainly Clear"
"-76.60","44.23","KINGSTON A","6104149","2020-11-29 14:00","2020","11","29","14:00","9.0","","3.3","","68","","","","23","","20","","24.1","","100.44","","","","","","NA"
"-76.60","44.23","KINGSTON A","6104149","2020-11-29 15:00","2020","11","29","15:00","8.0","","4.0","","76","","","","23","","19","","24.1","","100.45","","","","","","NA"
"-76.60","44.23","KINGSTON A","6104149","2020-11-29 16:00","2020","11","29","16:00","7.3","","2.0","","69","","","","21","","19","","24.1","","100.45","","","","","","Mostly Cloudy"
"-76.60","44.23","KINGSTON A","6104149","2020-11-29 17:00","2020","11","29","17:00","6.9","","3.3","","78","","","","19","","13","","24.1","","100.43","","","","","","NA"
"-76.60","44.23","KINGSTON A","6104149","2020-11-29 18:00","2020","11","29","18:00","7.4","","4.3","","81","","","","16","","13","","24.1","","100.40","","","","","","NA"
"-76.60","44.23","KINGSTON A","6104149","2020-11-29 19:00","2020","11","29","19:00","7.3","","5.0","","85","","","","16","","13","","24.1","","100.35","","","","","","Mostly Cloudy"
"-76.60","44.23","KINGSTON A","6104149","2020-11-29 20:00","2020","11","29","20:00","7.9","","3.5","","74","","","","17","","18","","24.1","","100.33","","","","","","NA"
"-76.60","44.23","KINGSTON A","6104149","2020-11-29 21:00","2020","11","29","21:00","7.9","","3.5","","74","","","","16","","18","","24.1","","100.30","","","","","","NA"
"-76.60","44.23","KINGSTON A","6104149","2020-11-29 22:00","2020","11","29","22:00","7.8","","4.1","","77","","","","18","","18","","24.1","","100.29","","","","","","Mostly Cloudy"
"-76.60","44.23","KINGSTON A","6104149","2020-11-29 23:00","2020","11","29","23:00","7.7","","4.2","","78","","","","17","","22","","24.1","","100.25","","","","","","NA"
"-76.60","44.23","KINGSTON A","6104149","2020-11-30 00:00","2020","11","30","00:00"
"-76.60","44.23","KINGSTON A","6104149","2020-11-30 01:00","2020","11","30","01:00"
"-76.60","44.23","KINGSTON A","6104149","2020-11-30 02:00","2020","11","30","02:00"
"-76.60","44.23","KINGSTON A","6104149","2020-11-30 03:00","2020","11","30","03:00"
"-76.60","44.23","KINGSTON A","6104149","2020-11-30 04:00","2020","11","30","04:00"
"-76.60","44.23","KINGSTON A","6104149","2020-11-30 05:00","2020","11","30","05:00"
"-76.60","44.23","KINGSTON A","6104149","2020-11-30 06:00","2020","11","30","06:00","7.5","","2.2","","69","","","","15","","19","","24.1","","99.92","","","","","","NA"
"-76.60","44.23","KINGSTON A","6104149","2020-11-30 07:00","2020","11","30","07:00","7.7","","2.2","","68","","","","14","","17","","24.1","","99.83","","","","","","Cloudy"
"-76.60","44.23","KINGSTON A","6104149","2020-11-30 08:00","2020","11","30","08:00","6.8","","2.0","","71","","","","7","","11","","24.1","","99.79","","","","","","NA"
"-76.60","44.23","KINGSTON A","6104149","2020-11-30 09:00","2020","11","30","09:00","4.4","","1.1","","79","","","","3","","7","","24.1","","99.74","","","","","","Rain"
"-76.60","44.23","KINGSTON A","6104149","2020-11-30 10:00","2020","11","30","10:00","4.6","","1.1","","78","","","","3","","8","","19.3","","99.69","","","","","","Rain"
"-76.60","44.23","KINGSTON A","6104149","2020-11-30 11:00","2020","11","30","11:00","4.2","","2.9","","91","","","","3","","12","","8.1","","99.55","","","","","","Rain,Fog"
"-76.60","44.23","KINGSTON A","6104149","2020-11-30 12:00","2020","11","30","12:00","4.6","","3.8","","95","","","","4","","17","","8.1","","99.31","","","","","","Rain,Fog"
"-76.60","44.23","KINGSTON A","6104149","2020-11-30 13:00","2020","11","30","13:00","5.0","","4.4","","96","","","","4","","25","","8.1","","99.04","","","","","","Rain,Fog"
"-76.60","44.23","KINGSTON A","6104149","2020-11-30 14:00","2020","11","30","14:00","5.2","","4.7","","96","","","","3","","22","","6.4","","98.77","","","","","","Rain,Fog"
"-76.60","44.23","KINGSTON A","6104149","2020-11-30 15:00","2020","11","30","15:00","5.1","","4.6","","97","","","","2","","27","","4.8","","98.54","","","","","","Rain,Fog"
"-76.60","44.23","KINGSTON A","6104149","2020-11-30 16:00","2020","11","30","16:00","4.9","","4.3","","96","","","","2","","27","","3.2","","98.42","","","","","","Rain,Fog"
"-76.60","44.23","KINGSTON A","6104149","2020-11-30 17:00","2020","11","30","17:00","4.7","","4.1","","96","","","","3","","23","","4.0","","98.35","","","","","","Rain,Fog"
"-76.60","44.23","KINGSTON A","6104149","2020-11-30 18:00","2020","11","30","18:00","4.4","","3.7","","95","","","","2","","26","","4.8","","98.31","","","","","","Rain,Fog"
"-76.60","44.23","KINGSTON A","6104149","2020-11-30 19:00","2020","11","30","19:00","4.3","","3.7","","95","","","","2","","28","","6.4","","98.30","","","","","","Rain,Fog"
"-76.60","44.23","KINGSTON A","6104149","2020-11-30 20:00","2020","11","30","20:00","4.2","","3.7","","96","","","","2","","21","","6.4","","98.29","","","","","","Rain,Fog"
"-76.60","44.23","KINGSTON A","6104149","2020-11-30 21:00","2020","11","30","21:00","4.3","","3.8","","96","","","","3","","18","","1.0","","98.39","","","","","","Rain,Fog"
"-76.60","44.23","KINGSTON A","6104149","2020-11-30 22:00","2020","11","30","22:00","4.4","","4.1","","98","","","","36","","18","","6.4","","98.38","","","","","","Rain,Fog"
"-76.60","44.23","KINGSTON A","6104149","2020-11-30 23:00","2020","11","30","23:00","4.0","","3.7","","97","","","","1","","15","","6.4","","98.46","","","","","","Rain,Fog"
