"Longitude (x)","Latitude (y)","Station Name","Climate ID","Date/Time (LST)","Year","Month","Day","Time (LST)","Temp (°C)","Temp Flag","Dew Point Temp (°C)","Dew Point Temp Flag","Rel Hum (%)","Rel Hum Flag","Precip. Amount (mm)","Precip. Amount Flag","Wind Dir (10s deg)","Wind Dir Flag","Wind Spd (km/h)","Wind Spd Flag","Visibility (km)","Visibility Flag","Stn Press (kPa)","Stn Press Flag","Hmdx","Hmdx Flag","Wind Chill","Wind Chill Flag","Weather"
"-95.85","68.64","GJOA HAVEN A","2302337","2023-02-01 00:00","2023","02","01","00:00","-37.8","","-42.3","","64","","0.0","","4","","13","","8.1","","100.70","","","","-50","","Snow"
"-95.85","68.64","GJOA HAVEN A","2302337","2023-02-01 01:00","2023","02","01","01:00","-37.8","","-42.3","","64","","0.0","","4","","17","","6.4","","100.71","","","","-52","","Haze"
"-95.85","68.64","GJOA HAVEN A","2302337","2023-02-01 02:00","2023","02","01","02:00","-38.2","","-42.7","","64","","0.0","","5","","11","","14.5","","100.76","","","","-50","","NA"
"-95.85","68.64","GJOA HAVEN A","2302337","2023-02-01 03:00","2023","02","01","03:00","-38.6","","-43.2","","63","","0.0","","5","","17","","14.5","","100.79","","","","-53","","NA"
"-95.85","68.64","GJOA HAVEN A","2302337","2023-02-01 04:00","2023","02","01","04:00","-39.8","","-44.4","","63","","0.0","","4","","17","","14.5","","100.83","","","","-54","","NA"
"-95.85","68.64","GJOA HAVEN A","2302337","2023-02-01 05:00","2023","02","01","05:00","-38.9","","-43.5","","63","","0.0","","2","","21","","14.5","","100.86","","","","-55","","NA"
"-95.85","68.64","GJOA HAVEN A","2302337","2023-02-01 06:00","2023","02","01","06:00","-38.9","","-43.5","","63","","0.0","","3","","18","","14.5","","100.87","","","","-54","","NA"
"-95.85","68.64","GJOA HAVEN A","2302337","2023-02-01 07:00","2023","02","01","07:00","-38.8","","-43.4","","63","","0.0","","2","","17","","14.5","","100.88","","","","-53","","NA"
"-95.85","68.64","GJOA HAVEN A","2302337","2023-02-01 08:00","2023","02","01","08:00","-39.7","","-44.3","","63","","0.0","","3","","18","","8.1","","100.87","","","","-55","","Haze"
"-95.85","68.64","GJOA HAVEN A","2302337","2023-02-01 09:00","2023","02","01","09:00","-39.6","","-44.2","","63","","0.0","","1","","15","","12.9","","100.92","","","","-53","","NA"
"-95.85","68.64","GJOA HAVEN A","2302337","2023-02-01 10:00","2023","02","01","10:00","-38.0","","-42.6","","63","","0.0","","1","","15","","12.9","","100.90","","","","-51","","NA"
"-95.85","68.64","GJOA HAVEN A","2302337","2023-02-01 11:00","2023","02","01","11:00","-36.8","","-41.0","","66","","0.0","","2","","11","","14.5","","100.89","","","","-48","","NA"
"-95.85","68.64","GJOA HAVEN A","2302337","2023-02-01 12:00","2023","02","01","12:00","-36.1","","-40.4","","66","","0.0","","","","0","","14.5","","100.90","","","","","","NA"
"-95.85","68.64","GJOA HAVEN A","2302337","2023-02-01 13:00","2023","02","01","13:00","-38.4","","-43.2","","62","","0.0","","25","","8","","1.2","","100.92","","","","-48","","Haze"
"-95.85","68.64","GJOA HAVEN A","2302337","2023-02-01 14:00","2023","02","01","14:00","-38.2","","-42.5","","65","","0.0","","29","","17","","8.1","","100.92","","","","-52","","Haze"
"-95.85","68.64","GJOA HAVEN A","2302337","2023-02-01 15:00","2023","02","01","15:00","-37.9","","-42.4","","64","","0.0","","28","","11","","2.8","","100.93","","","","-49","","Haze"
"-95.85","68.64","GJOA HAVEN A","2302337","2023-02-01 16:00","2023","02","01","16:00","-37.5","","-42.0","","64","","0.0","","27","","8","","11.3","","100.94","","","","-47","","NA"
"-95.85","68.64","GJOA HAVEN A","2302337","2023-02-01 17:00","2023","02","01","17:00","-39.4","","-44.1","","62","","0.0","","24","","13","","1.2","","100.94","","","","-52","","Haze"
"-95.85","68.64","GJOA HAVEN A","2302337","2023-02-01 18:00","2023","02","01","18:00","-39.6","","-44.3","","62","","0.0","","27","","11","","1.2","","100.94","","","","-51","","Haze"
"-95.85","68.64","GJOA HAVEN A","2302337","2023-02-01 19:00","2023","02","01","19:00","-38.4","","-43.0","","63","","0.0","","27","","11","","4.8","","100.94","","","","-50","","Haze"
"-95.85","68.64","GJOA HAVEN A","2302337","2023-02-01 20:00","2023","02","01","20:00","-39.5","","-44.2","","62","","0.0","","24","","9","","1.2","","100.91","","","","-50","","Haze"
"-95.85","68.64","GJOA HAVEN A","2302337","2023-02-01 21:00","2023","02","01","21:00","-39.7","","-44.6","","61","","0.0","","24","","11","","1.6","","100.90","","","","-51","","Haze"
"-95.85","68.64","GJOA HAVEN A","2302337","2023-02-01 22:00","2023","02","01","22:00","-39.1","","-43.7","","63","","0.0","","25","","9","","1.2","","100.91","","","","-49","","Haze"
"-95.85","68.64","GJOA HAVEN A","2302337","2023-02-01 23:00","2023","02","01","23:00","-39.2","","-43.9","","62","","0.0","","23","","9","","1.2","","100.91","","","","-49","","Haze"
"-95.85","68.64","GJOA HAVEN A","2302337","2023-02-02 00:00","2023","02","02","00:00","-38.4","","-43.0","","63","","0.0","","23","","13","","2.4","","100.93","","","","-51","","Haze"
"-95.85","68.64","GJOA HAVEN A","2302337","2023-02-02 01:00","2023","02","02","01:00","-38.7","","-43.4","","62","","0.0","","25","","9","","2.4","","100.94","","","","-49","","Haze"
"-95.85","68.64","GJOA HAVEN A","2302337","2023-02-02 02:00","2023","02","02","02:00","-38.1","","-42.7","","63","","0.0","","22","","11","","2.0","","100.94","","","","-49","","Haze"
"-95.85","68.64","GJOA HAVEN A","2302337","2023-02-02 03:00","2023","02","02","03:00","-36.8","","-41.2","","65","","0.0","","27","","17","","6.4","","100.91","","","","-51","","Haze"
"-95.85","68.64","GJOA HAVEN A","2302337","2023-02-02 04:00","2023","02","02","04:00","-36.9","","-41.3","","65","","0.0","","26","","13","","6.4","","100.92","","","","-49","","Haze"
"-95.85","68.64","GJOA HAVEN A","2302337","2023-02-02 05:00","2023","02","02","05:00","-36.7","","-41.1","","65","","0.0","","26","","13","","11.3","","100.92","","","","-49","","NA"
"-95.85","68.64","GJOA HAVEN A","2302337","2023-02-02 06:00","2023","02","02","06:00","-35.8","","-40.1","","66","","0.0","","26","","17","","6.4","","100.93","","","","-49","","Haze"
"-95.85","68.64","GJOA HAVEN A","2302337","2023-02-02 07:00","2023","02","02","07:00","-36.8","","-41.2","","65","","0.0","","28","","18","","11.3","","100.90","","","","-51","","NA"
"-95.85","68.64","GJOA HAVEN A","2302337","2023-02-02 08:00","2023","02","02","08:00","-37.1","","-41.6","","64","","0.0","","28","","11","","11.3","","100.91","","","","-48","","NA"
"-95.85","68.64","GJOA HAVEN A","2302337","2023-02-02 09:00","2023","02","02","09:00","-37.1","","-41.5","","65","","0.0","","27","","17","","6.4","","100.90","","","","-51","","Haze"
"-95.85","68.64","GJOA HAVEN A","2302337","2023-02-02 10:00","2023","02","02","10:00","-36.8","","-41.2","","65","","0.0","","27","","17","","11.3","","100.88","","","","-51","","NA"
"-95.85","68.64","GJOA HAVEN A","2302337","2023-02-02 11:00","2023","02","02","11:00","-36.6","","-41.0","","65","","0.0","","30","","22","","8.1","","100.87","","","","-52","","Haze"
"-95.85","68.64","GJOA HAVEN A","2302337","2023-02-02 12:00","2023","02","02","12:00","-35.9","","-40.2","","66","","0.0","","30","","28","","2.8","","100.87","","","","-53","","Snow"
"-95.85","68.64","GJOA HAVEN A","2302337","2023-02-02 13:00","2023","02","02","13:00","-35.0","","-39.1","","67","","0.0","","29","","26","","4.0","","100.87","","","","-51","","Snow"
"-95.85","68.64","GJOA HAVEN A","2302337","2023-02-02 14:00","2023","02","02","14:00","-34.1","","-38.1","","68","","0.1","","29","","26","","1.6","","100.85","","","","-50","","Snow"
"-95.85","68.64","GJOA HAVEN A","2302337","2023-02-02 15:00","2023","02","02","15:00","-33.6","","-37.6","","68","","0.0","","29","","30","","1.2","","100.87","","","","-50","","Snow"
"-95.85","68.64","GJOA HAVEN A","2302337","2023-02-02 16:00","2023","02","02","16:00","-33.0","","-36.9","","69","","0.0","","29","","30","","1.6","","100.85","","","","-50","","Haze"
"-95.85","68.64","GJOA HAVEN A","2302337","2023-02-02 17:00","2023","02","02","17:00","-32.2","","-36.0","","70","","0.0","","28","","26","","1.6","","100.84","","","","-48","","Snow"
"-95.85","68.64","GJOA HAVEN A","2302337","2023-02-02 18:00","2023","02","02","18:00","-31.9","","-35.7","","70","","0.0","","28","","26","","2.0","","100.80","","","","-47","","Snow"
"-95.85","68.64","GJOA HAVEN A","2302337","2023-02-02 19:00","2023","02","02","19:00","-30.0","","-33.5","","72","","0.0","","28","","26","","2.4","","100.76","","","","-45","","Haze"
"-95.85","68.64","GJOA HAVEN A","2302337","2023-02-02 20:00","2023","02","02","20:00","-30.1","","-33.6","","72","","0.0","","28","","21","","4.8","","100.74","","","","-44","","Haze"
"-95.85","68.64","GJOA HAVEN A","2302337","2023-02-02 21:00","2023","02","02","21:00","-30.3","","-33.8","","72","","0.0","","29","","24","","4.0","","100.70","","","","-45","","Haze"
"-95.85","68.64","GJOA HAVEN A","2302337","2023-02-02 22:00","2023","02","02","22:00","-30.7","","-34.2","","72","","0.0","","30","","26","","4.0","","100.69","","","","-46","","Haze"
"-95.85","68.64","GJOA HAVEN A","2302337","2023-02-02 23:00","2023","02","02","23:00","-30.9","","-34.6","","71","","0.0","","30","","28","","3.2","","100.69","","","","-46","","Haze"
"-95.85","68.64","GJOA HAVEN A","2302337","2023-02-03 00:00","2023","02","03","00:00","-31.2","","-34.9","","71","","0.0","","31","","28","","8.1","","100.68","","","","-47","","Haze"
"-95.85","68.64","GJOA HAVEN A","2302337","2023-02-03 01:00","2023","02","03","01:00","-31.4","","-35.0","","71","","0.0","","32","","30","","2.4","","100.69","","","","-47","","Haze"
"-95.85","68.64","GJOA HAVEN A","2302337","2023-02-03 02:00","2023","02","03","02:00","-31.9","","-35.7","","70","","0.0","","32","","26","","4.8","","100.70","","","","-47","","Haze"
"-95.85","68.64","GJOA HAVEN A","2302337","2023-02-03 03:00","2023","02","03","03:00","-31.7","","-35.3","","71","","0.0","","33","","24","","9.7","","100.70","","","","-46","","Haze"
"-95.85","68.64","GJOA HAVEN A","2302337","2023-02-03 04:00","2023","02","03","04:00","-32.5","","-36.3","","70","","0.0","","34","","18","","6.4","","100.67","","","","-46","","Haze"
"-95.85","68.64","GJOA HAVEN A","2302337","2023-02-03 05:00","2023","02","03","05:00","-33.2","","-37.1","","69","","0.0","","34","","18","","6.4","","100.68","","","","-46","","Haze"
"-95.85","68.64","GJOA HAVEN A","2302337","2023-02-03 06:00","2023","02","03","06:00","-33.3","","-37.2","","69","","0.0","","32","","17","","9.7","","100.69","","","","-46","","Snow"
"-95.85","68.64","GJOA HAVEN A","2302337","2023-02-03 07:00","2023","02","03","07:00","-32.8","","-36.7","","69","","0.0","","32","","18","","11.3","","100.69","","","","-46","","NA"
"-95.85","68.64","GJOA HAVEN A","2302337","2023-02-03 08:00","2023","02","03","08:00","-32.8","","-36.7","","69","","0.0","","34","","21","","8.1","","100.64","","","","-47","","Haze"
"-95.85","68.64","GJOA HAVEN A","2302337","2023-02-03 09:00","2023","02","03","09:00","-33.7","","-37.7","","68","","0.0","","33","","22","","12.9","","100.62","","","","-48","","NA"
"-95.85","68.64","GJOA HAVEN A","2302337","2023-02-03 10:00","2023","02","03","10:00","-33.6","","-37.5","","69","","0.0","","34","","22","","12.9","","100.61","","","","-48","","NA"
"-95.85","68.64","GJOA HAVEN A","2302337","2023-02-03 11:00","2023","02","03","11:00","-32.9","","-36.8","","69","","0.0","","34","","21","","11.3","","100.60","","","","-47","","NA"
"-95.85","68.64","GJOA HAVEN A","2302337","2023-02-03 12:00","2023","02","03","12:00","-33.3","","-37.0","","70","","0.0","","33","","18","","11.3","","100.61","","","","-47","","NA"
"-95.85","68.64","GJOA HAVEN A","2302337","2023-02-03 13:00","2023","02","03","13:00","-31.7","","-35.3","","71","","0.0","","32","","22","","14.5","","100.58","","","","-46","","NA"
"-95.85","68.64","GJOA HAVEN A","2302337","2023-02-03 14:00","2023","02","03","14:00","-31.9","","-35.7","","70","","0.0","","33","","21","","16.1","","100.61","","","","-46","","NA"
"-95.85","68.64","GJOA HAVEN A","2302337","2023-02-03 15:00","2023","02","03","15:00","-32.0","","-35.5","","72","","0.0","","34","","17","","14.5","","100.61","","","","-45","","NA"
"-95.85","68.64","GJOA HAVEN A","2302337","2023-02-03 16:00","2023","02","03","16:00","-34.2","","-38.2","","68","","0.0","","28","","11","","9.7","","100.61","","","","-45","","Haze"
"-95.85","68.64","GJOA HAVEN A","2302337","2023-02-03 17:00","2023","02","03","17:00","-34.5","","-38.2","","70","","0.0","","28","","9","","9.7","","100.59","","","","-44","","Snow"
"-95.85","68.64","GJOA HAVEN A","2302337","2023-02-03 18:00","2023","02","03","18:00","-35.4","","-39.7","","66","","0.0","","28","","13","","11.3","","100.57","","","","-47","","NA"
"-95.85","68.64","GJOA HAVEN A","2302337","2023-02-03 19:00","2023","02","03","19:00","-35.3","","-39.3","","68","","0.0","","25","","8","","11.3","","100.56","","","","-44","","NA"
"-95.85","68.64","GJOA HAVEN A","2302337","2023-02-03 20:00","2023","02","03","20:00","-36.4","","-40.8","","65","","0.0","","24","","9","","6.4","","100.54","","","","-46","","Haze"
"-95.85","68.64","GJOA HAVEN A","2302337","2023-02-03 21:00","2023","02","03","21:00","-36.6","","-41.0","","65","","0.0","","25","","9","","11.3","","100.54","","","","-46","","NA"
"-95.85","68.64","GJOA HAVEN A","2302337","2023-02-03 22:00","2023","02","03","22:00","-36.5","","-40.7","","66","","0.0","","27","","13","","6.4","","100.55","","","","-49","","Snow"
"-95.85","68.64","GJOA HAVEN A","2302337","2023-02-03 23:00","2023","02","03","23:00","-37.3","","-41.7","","65","","0.0","","25","","13","","8.1","","100.56","","","","-49","","Haze"
"-95.85","68.64","GJOA HAVEN A","2302337","2023-02-04 00:00","2023","02","04","00:00","-37.2","","-41.6","","65","","0.0","","23","","9","","3.6","","100.57","","","","-47","","Snow"
"-95.85","68.64","GJOA HAVEN A","2302337","2023-02-04 01:00","2023","02","04","01:00","-36.9","","-41.4","","64","","0.0","","22","","9","","12.9","","100.58","","","","-47","","NA"
"-95.85","68.64","GJOA HAVEN A","2302337","2023-02-04 02:00","2023","02","04","02:00","-36.8","","-41.2","","65","","0.0","","24","","8","","11.3","","100.62","","","","-46","","NA"
"-95.85","68.64","GJOA HAVEN A","2302337","2023-02-04 03:00","2023","02","04","03:00","-36.9","","-41.3","","65","","0.0","","24","","11","","8.1","","100.61","","","","-48","","Snow"
"-95.85","68.64","GJOA HAVEN A","2302337","2023-02-04 04:00","2023","02","04","04:00","-37.4","","-41.8","","65","","0.0","","23","","11","","12.9","","100.61","","","","-49","","NA"
"-95.85","68.64","GJOA HAVEN A","2302337","2023-02-04 05:00","2023","02","04","05:00","-37.5","","-42.0","","64","","0.0","","22","","13","","12.9","","100.60","","","","-50","","NA"
"-95.85","68.64","GJOA HAVEN A","2302337","2023-02-04 06:00","2023","02","04","06:00","-37.6","","-42.1","","64","","0.0","","23","","13","","11.3","","100.62","","","","-50","","NA"
"-95.85","68.64","GJOA HAVEN A","2302337","2023-02-04 07:00","2023","02","04","07:00","-37.7","","-42.2","","64","","0.0","","21","","13","","12.9","","100.61","","","","-50","","NA"
"-95.85","68.64","GJOA HAVEN A","2302337","2023-02-04 08:00","2023","02","04","08:00","-37.8","","-42.4","","63","","0.0","","22","","17","","6.4","","100.60","","","","-52","","Haze"
"-95.85","68.64","GJOA HAVEN A","2302337","2023-02-04 09:00","2023","02","04","09:00","-37.9","","-42.4","","64","","0.0","","22","","15","","9.7","","100.61","","","","-51","","Haze"
"-95.85","68.64","GJOA HAVEN A","2302337","2023-02-04 10:00","2023","02","04","10:00","-37.6","","-42.1","","64","","0.0","","23","","13","","6.4","","100.62","","","","-50","","Haze"
"-95.85","68.64","GJOA HAVEN A","2302337","2023-02-04 11:00","2023","02","04","11:00","-37.6","","-42.1","","64","","0.0","","15","","9","","4.0","","100.64","","","","-48","","Haze"
"-95.85","68.64","GJOA HAVEN A","2302337","2023-02-04 12:00","2023","02","04","12:00","-38.3","","-42.8","","64","","0.0","","21","","11","","12.9","","100.59","","","","-50","","NA"
"-95.85","68.64","GJOA HAVEN A","2302337","2023-02-04 13:00","2023","02","04","13:00","-37.8","","-42.4","","63","","0.0","","22","","13","","9.7","","100.60","","","","-50","","Haze"
"-95.85","68.64","GJOA HAVEN A","2302337","2023-02-04 14:00","2023","02","04","14:00","-38.1","","-42.7","","63","","0.0","","23","","13","","4.8","","100.59","","","","-50","","Haze"
"-95.85","68.64","GJOA HAVEN A","2302337","2023-02-04 15:00","2023","02","04","15:00","-38.7","","-43.5","","62","","0.0","","20","","11","","11.3","","100.60","","","","-50","","NA"
"-95.85","68.64","GJOA HAVEN A","2302337","2023-02-04 16:00","2023","02","04","16:00","-38.7","","-43.3","","63","","0.0","","24","","9","","2.0","","100.59","","","","-49","","Haze"
"-95.85","68.64","GJOA HAVEN A","2302337","2023-02-04 17:00","2023","02","04","17:00","-39.2","","-43.9","","62","","0.0","","25","","11","","1.2","","100.56","","","","-51","","Haze"
"-95.85","68.64","GJOA HAVEN A","2302337","2023-02-04 18:00","2023","02","04","18:00","-38.7","","-43.3","","63","","0.0","","24","","9","","1.6","","100.53","","","","-49","","Haze"
"-95.85","68.64","GJOA HAVEN A","2302337","2023-02-04 19:00","2023","02","04","19:00","-39.3","","-44.0","","62","","0.0","","24","","9","","1.6","","100.51","","","","-50","","Haze"
"-95.85","68.64","GJOA HAVEN A","2302337","2023-02-04 20:00","2023","02","04","20:00","-39.5","","-44.1","","63","","0.0","","27","","8","","1.2","","100.49","","","","-49","","Haze"
"-95.85","68.64","GJOA HAVEN A","2302337","2023-02-04 21:00","2023","02","04","21:00","-40.3","","-45.0","","62","","0.0","","26","","9","","1.2","","100.45","","","","-51","","Haze"
"-95.85","68.64","GJOA HAVEN A","2302337","2023-02-04 22:00","2023","02","04","22:00","-40.4","","-45.4","","60","","0.0","","27","","9","","3.2","","100.42","","","","-51","","Haze"
"-95.85","68.64","GJOA HAVEN A","2302337","2023-02-04 23:00","2023","02","04","23:00","-40.4","","-45.2","","61","","0.0","","24","","9","","1.2","","100.35","","","","-51","","Haze"
"-95.85","68.64","GJOA HAVEN A","2302337","2023-02-05 00:00","2023","02","05","00:00","-41.0","","-46.0","","60","","0.0","","24","","13","","1.2","","100.31","","","","-54","","Haze"
"-95.85","68.64","GJOA HAVEN A","2302337","2023-02-05 01:00","2023","02","05","01:00","-40.1","","-44.8","","62","","0.0","","24","","11","","1.2","","100.32","","","","-52","","Haze"
"-95.85","68.64","GJOA HAVEN A","2302337","2023-02-05 02:00","2023","02","05","02:00","-40.1","","-45.0","","61","","0.0","","25","","17","","1.2","","100.31","","","","-55","","Haze"
"-95.85","68.64","GJOA HAVEN A","2302337","2023-02-05 03:00","2023","02","05","03:00","-40.2","","-45.1","","61","","0.0","","25","","15","","2.0","","100.27","","","","-54","","Haze"
"-95.85","68.64","GJOA HAVEN A","2302337","2023-02-05 04:00","2023","02","05","04:00","-39.8","","-44.5","","62","","0.0","","25","","18","","2.0","","100.22","","","","-55","","Haze"
"-95.85","68.64","GJOA HAVEN A","2302337","2023-02-05 05:00","2023","02","05","05:00","-40.1","","-45.0","","61","","0.0","","24","","11","","2.8","","100.18","","","","-52","","Haze"
"-95.85","68.64","GJOA HAVEN A","2302337","2023-02-05 06:00","2023","02","05","06:00","-40.1","","-44.9","","61","","0.0","","25","","13","","2.4","","100.13","","","","-53","","Haze"
"-95.85","68.64","GJOA HAVEN A","2302337","2023-02-05 07:00","2023","02","05","07:00","-39.7","","-44.4","","62","","0.0","","24","","17","","1.6","","100.07","","","","-54","","Haze"
"-95.85","68.64","GJOA HAVEN A","2302337","2023-02-05 08:00","2023","02","05","08:00","-39.6","","-44.3","","62","","0.0","","24","","24","","2.0","","100.00","","","","-57","","Haze"
"-95.85","68.64","GJOA HAVEN A","2302337","2023-02-05 09:00","2023","02","05","09:00","-40.0","","-44.7","","62","","0.0","","24","","22","","2.4","","99.99","","","","-56","","Haze"
"-95.85","68.64","GJOA HAVEN A","2302337","2023-02-05 10:00","2023","02","05","10:00","-39.2","","-43.9","","62","","0.0","","24","","18","","4.8","","99.98","","","","-54","","Haze"
"-95.85","68.64","GJOA HAVEN A","2302337","2023-02-05 11:00","2023","02","05","11:00","-38.3","","-42.9","","63","","0.0","","23","","21","","4.8","","99.94","","","","-54","","Haze"
"-95.85","68.64","GJOA HAVEN A","2302337","2023-02-05 12:00","2023","02","05","12:00","-37.4","","-41.9","","64","","0.0","","23","","24","","4.8","","99.88","","","","-54","","Haze"
"-95.85","68.64","GJOA HAVEN A","2302337","2023-02-05 13:00","2023","02","05","13:00","-36.6","","-41.0","","65","","0.0","","23","","18","","4.8","","99.87","","","","-51","","Haze"
"-95.85","68.64","GJOA HAVEN A","2302337","2023-02-05 14:00","2023","02","05","14:00","-36.5","","-40.9","","65","","0.0","","23","","21","","4.8","","99.82","","","","-52","","Haze"
"-95.85","68.64","GJOA HAVEN A","2302337","2023-02-05 15:00","2023","02","05","15:00","-36.3","","-40.7","","65","","0.0","","24","","26","","6.4","","99.82","","","","-53","","Haze"
"-95.85","68.64","GJOA HAVEN A","2302337","2023-02-05 16:00","2023","02","05","16:00","-36.3","","-40.7","","65","","0.0","","23","","24","","6.4","","99.79","","","","-52","","Haze"
"-95.85","68.64","GJOA HAVEN A","2302337","2023-02-05 17:00","2023","02","05","17:00","-36.2","","-40.6","","65","","0.0","","23","","18","","6.4","","99.76","","","","-50","","Haze"
"-95.85","68.64","GJOA HAVEN A","2302337","2023-02-05 18:00","2023","02","05","18:00","-36.2","","-40.6","","65","","0.0","","23","","24","","4.8","","99.73","","","","-52","","Haze"
"-95.85","68.64","GJOA HAVEN A","2302337","2023-02-05 19:00","2023","02","05","19:00","-36.0","","-40.2","","66","","0.0","","23","","24","","6.4","","99.72","","","","-52","","Haze"
"-95.85","68.64","GJOA HAVEN A","2302337","2023-02-05 20:00","2023","02","05","20:00","-35.8","","-40.1","","66","","0.0","","22","","24","","3.6","","99.68","","","","-52","","Haze"
"-95.85","68.64","GJOA HAVEN A","2302337","2023-02-05 21:00","2023","02","05","21:00","-35.3","","-39.6","","66","","0.0","","21","","18","","4.8","","99.66","","","","-49","","Haze"
"-95.85","68.64","GJOA HAVEN A","2302337","2023-02-05 22:00","2023","02","05","22:00","-35.2","","-39.5","","66","","0.0","","23","","21","","6.4","","99.64","","","","-50","","Haze"
"-95.85","68.64","GJOA HAVEN A","2302337","2023-02-05 23:00","2023","02","05","23:00","-35.1","","-39.2","","67","","0.0","","23","","22","","6.4","","99.64","","","","-50","","Haze"
"-95.85","68.64","GJOA HAVEN A","2302337","2023-02-06 00:00","2023","02","06","00:00","-34.6","","-38.7","","67","","0.0","","23","","21","","8.1","","99.64","","","","-49","","Haze"
"-95.85","68.64","GJOA HAVEN A","2302337","2023-02-06 01:00","2023","02","06","01:00","-35.1","","-39.3","","67","","0.0","","21","","18","","8.1","","99.68","","","","-49","","Haze"
"-95.85","68.64","GJOA HAVEN A","2302337","2023-02-06 02:00","2023","02","06","02:00","-36.4","","-40.8","","65","","0.0","","22","","21","","11.3","","99.67","","","","-51","","NA"
"-95.85","68.64","GJOA HAVEN A","2302337","2023-02-06 03:00","2023","02","06","03:00","-36.8","","-41.2","","65","","0.0","","22","","21","","9.7","","99.63","","","","-52","","Haze"
"-95.85","68.64","GJOA HAVEN A","2302337","2023-02-06 04:00","2023","02","06","04:00","-37.8","","-42.3","","64","","0.0","","22","","22","","6.4","","99.62","","","","-54","","Haze"
"-95.85","68.64","GJOA HAVEN A","2302337","2023-02-06 05:00","2023","02","06","05:00","-38.3","","-42.8","","64","","0.0","","23","","21","","4.8","","99.59","","","","-54","","Haze"
"-95.85","68.64","GJOA HAVEN A","2302337","2023-02-06 06:00","2023","02","06","06:00","-38.1","","-42.6","","64","","0.0","","22","","18","","8.1","","99.57","","","","-53","","Snow"
"-95.85","68.64","GJOA HAVEN A","2302337","2023-02-06 07:00","2023","02","06","07:00","-36.8","","-41.2","","65","","0.0","","22","","21","","9.7","","99.58","","","","-52","","Haze"
"-95.85","68.64","GJOA HAVEN A","2302337","2023-02-06 08:00","2023","02","06","08:00","-35.6","","-39.9","","66","","0.0","","22","","22","","6.4","","99.54","","","","-51","","Haze"
"-95.85","68.64","GJOA HAVEN A","2302337","2023-02-06 09:00","2023","02","06","09:00","-35.2","","-39.5","","66","","0.0","","22","","22","","4.0","","99.55","","","","-50","","Haze"
"-95.85","68.64","GJOA HAVEN A","2302337","2023-02-06 10:00","2023","02","06","10:00","-35.6","","-39.9","","66","","0.0","","22","","24","","4.8","","99.57","","","","-51","","Haze"
"-95.85","68.64","GJOA HAVEN A","2302337","2023-02-06 11:00","2023","02","06","11:00","-35.6","","-39.9","","66","","0.0","","24","","21","","4.8","","99.59","","","","-50","","Haze"
"-95.85","68.64","GJOA HAVEN A","2302337","2023-02-06 12:00","2023","02","06","12:00","-35.9","","-40.3","","65","","0.0","","24","","22","","6.4","","99.62","","","","-51","","Haze"
"-95.85","68.64","GJOA HAVEN A","2302337","2023-02-06 13:00","2023","02","06","13:00","-36.3","","-40.7","","65","","0.0","","24","","18","","8.1","","99.64","","","","-50","","Haze"
"-95.85","68.64","GJOA HAVEN A","2302337","2023-02-06 14:00","2023","02","06","14:00","-36.5","","-40.9","","65","","0.0","","23","","22","","9.7","","99.66","","","","-52","","Haze"
"-95.85","68.64","GJOA HAVEN A","2302337","2023-02-06 15:00","2023","02","06","15:00","-36.8","","-41.3","","64","","0.0","","22","","18","","11.3","","99.70","","","","-51","","NA"
"-95.85","68.64","GJOA HAVEN A","2302337","2023-02-06 16:00","2023","02","06","16:00","-37.4","","-41.9","","64","","0.0","","22","","21","","11.3","","99.71","","","","-53","","NA"
"-95.85","68.64","GJOA HAVEN A","2302337","2023-02-06 17:00","2023","02","06","17:00","-37.6","","-42.1","","64","","0.0","","22","","22","","11.3","","99.74","","","","-53","","NA"
"-95.85","68.64","GJOA HAVEN A","2302337","2023-02-06 18:00","2023","02","06","18:00","-37.6","","-42.1","","64","","0.0","","23","","24","","11.3","","99.74","","","","-54","","NA"
"-95.85","68.64","GJOA HAVEN A","2302337","2023-02-06 19:00","2023","02","06","19:00","-37.7","","-42.2","","64","","0.0","","23","","22","","9.7","","99.73","","","","-53","","Haze"
"-95.85","68.64","GJOA HAVEN A","2302337","2023-02-06 20:00","2023","02","06","20:00","-37.5","","-42.0","","64","","0.0","","24","","21","","11.3","","99.73","","","","-53","","NA"
"-95.85","68.64","GJOA HAVEN A","2302337","2023-02-06 21:00","2023","02","06","21:00","-37.5","","-42.0","","64","","0.0","","23","","18","","11.3","","99.75","","","","-52","","NA"
"-95.85","68.64","GJOA HAVEN A","2302337","2023-02-06 22:00","2023","02","06","22:00","-37.6","","-42.1","","64","","0.0","","22","","18","","11.3","","99.78","","","","-52","","NA"
"-95.85","68.64","GJOA HAVEN A","2302337","2023-02-06 23:00","2023","02","06","23:00","-37.7","","-42.2","","64","","0.0","","23","","22","","11.3","","99.80","","","","-53","","NA"
"-95.85","68.64","GJOA HAVEN A","2302337","2023-02-07 00:00","2023","02","07","00:00","-37.8","","-42.3","","64","","0.0","","23","","21","","11.3","","99.81","","","","-53","","NA"
"-95.85","68.64","GJOA HAVEN A","2302337","2023-02-07 01:00","2023","02","07","01:00","-37.7","","-42.2","","64","","0.0","","24","","22","","12.9","","99.84","","","","-53","","NA"
"-95.85","68.64","GJOA HAVEN A","2302337","2023-02-07 02:00","2023","02","07","02:00","-37.7","","-42.2","","64","","0.0","","24","","21","","12.9","","99.85","","","","-53","","NA"
"-95.85","68.64","GJOA HAVEN A","2302337","2023-02-07 03:00","2023","02","07","03:00","-38.0","","-42.5","","64","","0.0","","24","","18","","11.3","","99.88","","","","-52","","NA"
"-95.85","68.64","GJOA HAVEN A","2302337","2023-02-07 04:00","2023","02","07","04:00","-37.6","","-42.1","","64","","0.0","","23","","21","","12.9","","99.88","","","","-53","","NA"
"-95.85","68.64","GJOA HAVEN A","2302337","2023-02-07 05:00","2023","02","07","05:00","-37.8","","-42.3","","64","","0.0","","24","","17","","12.9","","99.89","","","","-52","","NA"
"-95.85","68.64","GJOA HAVEN A","2302337","2023-02-07 06:00","2023","02","07","06:00","-38.1","","-42.7","","63","","0.0","","24","","21","","11.3","","99.90","","","","-54","","NA"
"-95.85","68.64","GJOA HAVEN A","2302337","2023-02-07 07:00","2023","02","07","07:00","-38.0","","-42.5","","64","","0.0","","23","","15","","9.7","","99.93","","","","-51","","Haze"
"-95.85","68.64","GJOA HAVEN A","2302337","2023-02-07 08:00","2023","02","07","08:00","-38.1","","-42.7","","64","","0.0","","24","","17","","4.8","","99.96","","","","-52","","Haze"
"-95.85","68.64","GJOA HAVEN A","2302337","2023-02-07 09:00","2023","02","07","09:00","-37.9","","-42.4","","64","","0.0","","24","","17","","2.4","","100.01","","","","-52","","Snow"
"-95.85","68.64","GJOA HAVEN A","2302337","2023-02-07 10:00","2023","02","07","10:00","-37.2","","-41.7","","64","","0.0","","25","","17","","8.1","","100.00","","","","-51","","Snow"
"-95.85","68.64","GJOA HAVEN A","2302337","2023-02-07 11:00","2023","02","07","11:00","-36.3","","-40.7","","65","","0.0","","25","","15","","6.4","","100.03","","","","-49","","Haze"
"-95.85","68.64","GJOA HAVEN A","2302337","2023-02-07 12:00","2023","02","07","12:00","-35.5","","-39.8","","66","","0.0","","25","","13","","6.4","","100.08","","","","-47","","Haze"
"-95.85","68.64","GJOA HAVEN A","2302337","2023-02-07 13:00","2023","02","07","13:00","-35.1","","-39.2","","67","","0.0","","23","","13","","9.7","","100.10","","","","-47","","Haze"
"-95.85","68.64","GJOA HAVEN A","2302337","2023-02-07 14:00","2023","02","07","14:00","-35.7","","-40.0","","66","","0.0","","25","","13","","9.7","","100.13","","","","-48","","Haze"
"-95.85","68.64","GJOA HAVEN A","2302337","2023-02-07 15:00","2023","02","07","15:00","-35.9","","-40.2","","66","","0.0","","25","","11","","6.4","","100.15","","","","-47","","Haze"
"-95.85","68.64","GJOA HAVEN A","2302337","2023-02-07 16:00","2023","02","07","16:00","-36.3","","-40.6","","66","","0.0","","25","","13","","8.1","","100.17","","","","-48","","Haze"
"-95.85","68.64","GJOA HAVEN A","2302337","2023-02-07 17:00","2023","02","07","17:00","-36.7","","-40.9","","66","","0.0","","24","","9","","8.1","","100.20","","","","-47","","Haze"
"-95.85","68.64","GJOA HAVEN A","2302337","2023-02-07 18:00","2023","02","07","18:00","-37.1","","-41.6","","64","","0.0","","26","","11","","9.7","","100.23","","","","-48","","Haze"
"-95.85","68.64","GJOA HAVEN A","2302337","2023-02-07 19:00","2023","02","07","19:00","-36.6","","-41.0","","65","","0.0","","27","","11","","9.7","","100.26","","","","-48","","Haze"
"-95.85","68.64","GJOA HAVEN A","2302337","2023-02-07 20:00","2023","02","07","20:00","-36.8","","-41.1","","65","","0.0","","27","","5","","11.3","","100.28","","","","-43","","NA"
"-95.85","68.64","GJOA HAVEN A","2302337","2023-02-07 21:00","2023","02","07","21:00","-36.7","","-41.2","","64","","0.0","","28","","11","","12.9","","100.30","","","","-48","","NA"
"-95.85","68.64","GJOA HAVEN A","2302337","2023-02-07 22:00","2023","02","07","22:00","-36.8","","-41.2","","65","","0.0","","28","","11","","14.5","","100.35","","","","-48","","NA"
"-95.85","68.64","GJOA HAVEN A","2302337","2023-02-07 23:00","2023","02","07","23:00","-36.3","","-40.5","","66","","0.0","","31","","4","","14.5","","100.39","","","","-41","","NA"
"-95.85","68.64","GJOA HAVEN A","2302337","2023-02-08 00:00","2023","02","08","00:00","-36.6","","-41.0","","65","","0.0","","26","","5","","12.9","","100.43","","","","-43","","NA"
"-95.85","68.64","GJOA HAVEN A","2302337","2023-02-08 01:00","2023","02","08","01:00","-36.7","","-41.1","","65","","0.0","","24","","5","","12.9","","100.50","","","","-43","","NA"
"-95.85","68.64","GJOA HAVEN A","2302337","2023-02-08 02:00","2023","02","08","02:00","-35.9","","-40.2","","66","","0.0","","22","","5","","9.7","","100.51","","","","-42","","Haze"
"-95.85","68.64","GJOA HAVEN A","2302337","2023-02-08 03:00","2023","02","08","03:00","-35.1","","-39.2","","67","","0.0","","22","","8","","9.7","","100.56","","","","-44","","Haze"
"-95.85","68.64","GJOA HAVEN A","2302337","2023-02-08 04:00","2023","02","08","04:00","-34.3","","-38.5","","67","","0.0","","24","","15","","12.9","","100.61","","","","-47","","NA"
"-95.85","68.64","GJOA HAVEN A","2302337","2023-02-08 05:00","2023","02","08","05:00","-34.9","","-39.0","","67","","0.0","","25","","13","","11.3","","100.67","","","","-47","","NA"
"-95.85","68.64","GJOA HAVEN A","2302337","2023-02-08 06:00","2023","02","08","06:00","-34.0","","-38.0","","68","","0.0","","25","","17","","4.8","","100.71","","","","-47","","Haze"
"-95.85","68.64","GJOA HAVEN A","2302337","2023-02-08 07:00","2023","02","08","07:00","-34.0","","-38.0","","68","","0.0","","25","","17","","6.4","","100.77","","","","-47","","Haze"
"-95.85","68.64","GJOA HAVEN A","2302337","2023-02-08 08:00","2023","02","08","08:00","-33.5","","-37.5","","68","","0.0","","25","","13","","1.6","","100.80","","","","-45","","Haze"
"-95.85","68.64","GJOA HAVEN A","2302337","2023-02-08 09:00","2023","02","08","09:00","-33.3","","-37.2","","69","","0.0","","24","","15","","3.6","","100.85","","","","-45","","Snow"
"-95.85","68.64","GJOA HAVEN A","2302337","2023-02-08 10:00","2023","02","08","10:00","-33.0","","-36.9","","69","","0.0","","24","","15","","6.4","","100.89","","","","-45","","Snow"
"-95.85","68.64","GJOA HAVEN A","2302337","2023-02-08 11:00","2023","02","08","11:00","-32.4","","-36.3","","69","","0.0","","24","","17","","4.8","","100.93","","","","-45","","Snow"
"-95.85","68.64","GJOA HAVEN A","2302337","2023-02-08 12:00","2023","02","08","12:00","-31.9","","-35.7","","70","","0.0","","24","","17","","3.6","","100.97","","","","-44","","Snow"
"-95.85","68.64","GJOA HAVEN A","2302337","2023-02-08 13:00","2023","02","08","13:00","-31.7","","-35.5","","70","","0.0","","24","","18","","3.6","","101.02","","","","-45","","Haze"
"-95.85","68.64","GJOA HAVEN A","2302337","2023-02-08 14:00","2023","02","08","14:00","-31.8","","-35.6","","70","","0.0","","24","","15","","4.8","","101.07","","","","-44","","Haze"
"-95.85","68.64","GJOA HAVEN A","2302337","2023-02-08 15:00","2023","02","08","15:00","-31.8","","-35.6","","70","","0.0","","23","","17","","8.1","","101.11","","","","-44","","Snow"
"-95.85","68.64","GJOA HAVEN A","2302337","2023-02-08 16:00","2023","02","08","16:00","-31.8","","-35.6","","70","","0.0","","23","","17","","11.3","","101.15","","","","-44","","NA"
"-95.85","68.64","GJOA HAVEN A","2302337","2023-02-08 17:00","2023","02","08","17:00","-31.9","","-35.7","","70","","0.0","","23","","18","","9.7","","101.20","","","","-45","","Haze"
"-95.85","68.64","GJOA HAVEN A","2302337","2023-02-08 18:00","2023","02","08","18:00","-31.9","","-35.7","","70","","0.0","","23","","15","","9.7","","101.23","","","","-44","","Haze"
"-95.85","68.64","GJOA HAVEN A","2302337","2023-02-08 19:00","2023","02","08","19:00","-31.9","","-35.7","","70","","0.0","","23","","18","","9.7","","101.23","","","","-45","","Haze"
"-95.85","68.64","GJOA HAVEN A","2302337","2023-02-08 20:00","2023","02","08","20:00","-32.0","","-35.8","","70","","0.0","","24","","17","","9.7","","101.23","","","","-45","","Haze"
"-95.85","68.64","GJOA HAVEN A","2302337","2023-02-08 21:00","2023","02","08","21:00","-31.8","","-35.6","","70","","0.0","","23","","15","","9.7","","101.22","","","","-44","","Haze"
"-95.85","68.64","GJOA HAVEN A","2302337","2023-02-08 22:00","2023","02","08","22:00","-31.7","","-35.5","","70","","0.0","","22","","17","","8.1","","101.24","","","","-44","","Haze"
"-95.85","68.64","GJOA HAVEN A","2302337","2023-02-08 23:00","2023","02","08","23:00","-32.3","","-36.1","","70","","0.0","","22","","18","","6.4","","101.24","","","","-45","","Snow"
"-95.85","68.64","GJOA HAVEN A","2302337","2023-02-09 00:00","2023","02","09","00:00","-33.1","","-37.0","","69","","0.0","","22","","17","","9.7","","101.26","","","","-46","","Haze"
"-95.85","68.64","GJOA HAVEN A","2302337","2023-02-09 01:00","2023","02","09","01:00","-32.8","","-36.7","","69","","0.0","","22","","15","","6.4","","101.29","","","","-45","","Snow"
"-95.85","68.64","GJOA HAVEN A","2302337","2023-02-09 02:00","2023","02","09","02:00","-32.1","","-35.9","","70","","0.0","","23","","13","","8.1","","101.32","","","","-43","","Haze"
"-95.85","68.64","GJOA HAVEN A","2302337","2023-02-09 03:00","2023","02","09","03:00","-31.9","","-35.7","","70","","0.0","","22","","13","","12.9","","101.32","","","","-43","","NA"
"-95.85","68.64","GJOA HAVEN A","2302337","2023-02-09 04:00","2023","02","09","04:00","-31.8","","-35.6","","70","","0.0","","22","","13","","8.1","","101.31","","","","-43","","Haze"
"-95.85","68.64","GJOA HAVEN A","2302337","2023-02-09 05:00","2023","02","09","05:00","-32.0","","-35.8","","70","","0.0","","22","","11","","11.3","","101.28","","","","-42","","NA"
"-95.85","68.64","GJOA HAVEN A","2302337","2023-02-09 06:00","2023","02","09","06:00","-33.0","","-36.9","","69","","0.0","","22","","15","","11.3","","101.27","","","","-45","","NA"
"-95.85","68.64","GJOA HAVEN A","2302337","2023-02-09 07:00","2023","02","09","07:00","-33.2","","-37.1","","69","","0.0","","23","","17","","8.1","","101.25","","","","-46","","Haze"
"-95.85","68.64","GJOA HAVEN A","2302337","2023-02-09 08:00","2023","02","09","08:00","-33.0","","-36.9","","69","","0.0","","23","","11","","9.7","","101.25","","","","-43","","Snow"
"-95.85","68.64","GJOA HAVEN A","2302337","2023-02-09 09:00","2023","02","09","09:00","-33.6","","-37.6","","68","","0.0","","24","","11","","4.8","","101.22","","","","-44","","Haze"
"-95.85","68.64","GJOA HAVEN A","2302337","2023-02-09 10:00","2023","02","09","10:00","-33.1","","-37.0","","69","","0.0","","24","","9","","6.4","","101.23","","","","-42","","Haze"
"-95.85","68.64","GJOA HAVEN A","2302337","2023-02-09 11:00","2023","02","09","11:00","-33.1","","-37.0","","69","","0.0","","21","","13","","4.0","","101.19","","","","-44","","Snow"
"-95.85","68.64","GJOA HAVEN A","2302337","2023-02-09 12:00","2023","02","09","12:00","-33.6","","-37.6","","68","","0.0","","23","","15","","8.1","","101.16","","","","-46","","Haze"
"-95.85","68.64","GJOA HAVEN A","2302337","2023-02-09 13:00","2023","02","09","13:00","-33.6","","-37.6","","68","","0.0","","25","","13","","9.7","","101.16","","","","-45","","Haze"
"-95.85","68.64","GJOA HAVEN A","2302337","2023-02-09 14:00","2023","02","09","14:00","-33.6","","-37.6","","68","","0.0","","25","","11","","8.1","","101.17","","","","-44","","Haze"
"-95.85","68.64","GJOA HAVEN A","2302337","2023-02-09 15:00","2023","02","09","15:00","-33.2","","-37.1","","69","","0.0","","24","","9","","8.1","","101.18","","","","-42","","Snow"
"-95.85","68.64","GJOA HAVEN A","2302337","2023-02-09 16:00","2023","02","09","16:00","-32.9","","-36.8","","69","","0.0","","23","","8","","6.4","","101.14","","","","-41","","Snow"
"-95.85","68.64","GJOA HAVEN A","2302337","2023-02-09 17:00","2023","02","09","17:00","-33.0","","-36.9","","69","","0.0","","25","","11","","6.4","","101.13","","","","-43","","Snow"
"-95.85","68.64","GJOA HAVEN A","2302337","2023-02-09 18:00","2023","02","09","18:00","-33.4","","-37.3","","69","","0.0","","26","","8","","6.4","","101.11","","","","-42","","Snow"
"-95.85","68.64","GJOA HAVEN A","2302337","2023-02-09 19:00","2023","02","09","19:00","-34.1","","-38.1","","68","","0.0","","30","","8","","11.3","","101.04","","","","-43","","Snow"
"-95.85","68.64","GJOA HAVEN A","2302337","2023-02-09 20:00","2023","02","09","20:00","-33.6","","-37.5","","69","","0.0","","30","","4","","9.7","","101.05","","","","-38","","Snow"
"-95.85","68.64","GJOA HAVEN A","2302337","2023-02-09 21:00","2023","02","09","21:00","-34.9","","-38.9","","68","","0.0","","30","","8","","12.9","","101.00","","","","-44","","NA"
"-95.85","68.64","GJOA HAVEN A","2302337","2023-02-09 22:00","2023","02","09","22:00","-34.8","","-38.9","","67","","0.0","","34","","9","","11.3","","101.01","","","","-44","","Snow"
"-95.85","68.64","GJOA HAVEN A","2302337","2023-02-09 23:00","2023","02","09","23:00","-34.2","","-38.2","","68","","0.0","","35","","11","","8.1","","101.00","","","","-45","","Snow"
"-95.85","68.64","GJOA HAVEN A","2302337","2023-02-10 00:00","2023","02","10","00:00","-34.3","","-38.3","","68","","0.0","","36","","8","","6.4","","100.99","","","","-43","","Snow"
"-95.85","68.64","GJOA HAVEN A","2302337","2023-02-10 01:00","2023","02","10","01:00","-34.5","","-38.5","","68","","0.0","","35","","13","","11.3","","101.00","","","","-46","","NA"
"-95.85","68.64","GJOA HAVEN A","2302337","2023-02-10 02:00","2023","02","10","02:00","-34.4","","-38.4","","68","","0.0","","36","","18","","11.3","","100.99","","","","-48","","NA"
"-95.85","68.64","GJOA HAVEN A","2302337","2023-02-10 03:00","2023","02","10","03:00","-34.0","","-38.0","","68","","0.0","","35","","17","","9.7","","100.98","","","","-47","","Haze"
"-95.85","68.64","GJOA HAVEN A","2302337","2023-02-10 04:00","2023","02","10","04:00","-33.6","","-37.5","","69","","0.0","","34","","17","","9.7","","100.99","","","","-47","","Haze"
"-95.85","68.64","GJOA HAVEN A","2302337","2023-02-10 05:00","2023","02","10","05:00","-34.8","","-38.9","","67","","0.0","","34","","17","","11.3","","100.99","","","","-48","","NA"
"-95.85","68.64","GJOA HAVEN A","2302337","2023-02-10 06:00","2023","02","10","06:00","-35.4","","-39.5","","67","","0.0","","4","","11","","9.7","","101.00","","","","-46","","Haze"
"-95.85","68.64","GJOA HAVEN A","2302337","2023-02-10 07:00","2023","02","10","07:00","-35.2","","-39.3","","67","","0.0","","34","","24","","12.9","","100.99","","","","-51","","NA"
"-95.85","68.64","GJOA HAVEN A","2302337","2023-02-10 08:00","2023","02","10","08:00","-36.3","","-40.5","","66","","0.0","","34","","22","","9.7","","101.01","","","","-52","","Haze"
"-95.85","68.64","GJOA HAVEN A","2302337","2023-02-10 09:00","2023","02","10","09:00","-37.4","","-41.7","","65","","0.0","","32","","26","","8.1","","101.00","","","","-54","","Haze"
"-95.85","68.64","GJOA HAVEN A","2302337","2023-02-10 10:00","2023","02","10","10:00","-37.4","","-41.9","","64","","0.0","","33","","26","","6.4","","100.99","","","","-54","","Haze"
"-95.85","68.64","GJOA HAVEN A","2302337","2023-02-10 11:00","2023","02","10","11:00","-37.6","","-42.1","","64","","0.0","","32","","18","","11.3","","101.03","","","","-52","","NA"
"-95.85","68.64","GJOA HAVEN A","2302337","2023-02-10 12:00","2023","02","10","12:00","-37.6","","-42.1","","64","","0.0","","32","","22","","9.7","","101.01","","","","-53","","Haze"
"-95.85","68.64","GJOA HAVEN A","2302337","2023-02-10 13:00","2023","02","10","13:00","-37.4","","-41.9","","64","","0.0","","33","","21","","9.7","","101.00","","","","-53","","Haze"
"-95.85","68.64","GJOA HAVEN A","2302337","2023-02-10 14:00","2023","02","10","14:00","-37.8","","-42.3","","64","","0.0","","32","","22","","4.8","","101.03","","","","-54","","Haze"
"-95.85","68.64","GJOA HAVEN A","2302337","2023-02-10 15:00","2023","02","10","15:00","-38.0","","-42.6","","63","","0.0","","32","","28","","8.1","","101.03","","","","-56","","Haze"
"-95.85","68.64","GJOA HAVEN A","2302337","2023-02-10 16:00","2023","02","10","16:00","-38.0","","-42.5","","64","","0.0","","32","","28","","8.1","","101.01","","","","-56","","Haze"
"-95.85","68.64","GJOA HAVEN A","2302337","2023-02-10 17:00","2023","02","10","17:00","-38.3","","-42.9","","63","","0.0","","25","","5","","6.4","","101.05","","","","-45","","Haze"
"-95.85","68.64","GJOA HAVEN A","2302337","2023-02-10 18:00","2023","02","10","18:00","-37.8","","-42.3","","64","","0.0","","30","","15","","6.4","","101.05","","","","-51","","Haze"
"-95.85","68.64","GJOA HAVEN A","2302337","2023-02-10 19:00","2023","02","10","19:00","-38.1","","-42.6","","64","","0.0","","30","","13","","4.8","","101.02","","","","-50","","Haze"
"-95.85","68.64","GJOA HAVEN A","2302337","2023-02-10 20:00","2023","02","10","20:00","-38.3","","-42.9","","63","","0.0","","32","","18","","4.8","","100.96","","","","-53","","Haze"
"-95.85","68.64","GJOA HAVEN A","2302337","2023-02-10 21:00","2023","02","10","21:00","-38.0","","-42.5","","64","","0.0","","33","","17","","4.0","","100.91","","","","-52","","Haze"
"-95.85","68.64","GJOA HAVEN A","2302337","2023-02-10 22:00","2023","02","10","22:00","-37.8","","-42.3","","64","","0.0","","32","","30","","3.2","","100.88","","","","-56","","Haze"
"-95.85","68.64","GJOA HAVEN A","2302337","2023-02-10 23:00","2023","02","10","23:00","-38.0","","-42.6","","63","","0.0","","32","","26","","4.0","","100.90","","","","-55","","Haze"
"-95.85","68.64","GJOA HAVEN A","2302337","2023-02-11 00:00","2023","02","11","00:00","-38.3","","-42.9","","63","","0.0","","32","","28","","4.8","","100.88","","","","-56","","Haze"
"-95.85","68.64","GJOA HAVEN A","2302337","2023-02-11 01:00","2023","02","11","01:00","-38.1","","-42.6","","64","","0.0","","32","","32","","4.8","","100.88","","","","-57","","Haze"
"-95.85","68.64","GJOA HAVEN A","2302337","2023-02-11 02:00","2023","02","11","02:00","-38.6","","-43.2","","63","","0.0","","27","","11","","2.8","","100.89","","","","-50","","Haze"
"-95.85","68.64","GJOA HAVEN A","2302337","2023-02-11 03:00","2023","02","11","03:00","-38.9","","-43.5","","63","","0.0","","27","","13","","2.8","","100.85","","","","-51","","Haze"
"-95.85","68.64","GJOA HAVEN A","2302337","2023-02-11 04:00","2023","02","11","04:00","-38.8","","-43.4","","63","","0.0","","27","","15","","3.6","","100.84","","","","-52","","Haze"
"-95.85","68.64","GJOA HAVEN A","2302337","2023-02-11 05:00","2023","02","11","05:00","-39.1","","-43.8","","63","","0.0","","27","","18","","2.8","","100.76","","","","-54","","Haze"
"-95.85","68.64","GJOA HAVEN A","2302337","2023-02-11 06:00","2023","02","11","06:00","-39.1","","-43.8","","62","","0.0","","27","","13","","3.6","","100.71","","","","-52","","Haze"
"-95.85","68.64","GJOA HAVEN A","2302337","2023-02-11 07:00","2023","02","11","07:00","-39.2","","-44.0","","61","","0.0","","26","","15","","2.4","","100.69","","","","-53","","Haze"
"-95.85","68.64","GJOA HAVEN A","2302337","2023-02-11 08:00","2023","02","11","08:00","-39.2","","-43.9","","62","","0.0","","27","","15","","2.4","","100.64","","","","-53","","Haze"
"-95.85","68.64","GJOA HAVEN A","2302337","2023-02-11 09:00","2023","02","11","09:00","-39.0","","-43.4","","64","","0.0","","28","","17","","1.0","","100.60","","","","-53","","Haze"
"-95.85","68.64","GJOA HAVEN A","2302337","2023-02-11 10:00","2023","02","11","10:00","-38.7","","-43.3","","63","","0.0","","25","","13","","1.2","","100.56","","","","-51","","Haze"
"-95.85","68.64","GJOA HAVEN A","2302337","2023-02-11 11:00","2023","02","11","11:00","-38.0","","-42.6","","63","","0.0","","28","","11","","2.4","","100.54","","","","-49","","Haze"
"-95.85","68.64","GJOA HAVEN A","2302337","2023-02-11 12:00","2023","02","11","12:00","-37.0","","-41.5","","64","","0.0","","27","","17","","3.2","","100.53","","","","-51","","Haze"
"-95.85","68.64","GJOA HAVEN A","2302337","2023-02-11 13:00","2023","02","11","13:00","-37.5","","-42.0","","64","","0.0","","26","","21","","8.1","","100.48","","","","-53","","Haze"
"-95.85","68.64","GJOA HAVEN A","2302337","2023-02-11 14:00","2023","02","11","14:00","-37.8","","-42.4","","63","","0.0","","25","","17","","9.7","","100.50","","","","-52","","Haze"
"-95.85","68.64","GJOA HAVEN A","2302337","2023-02-11 15:00","2023","02","11","15:00","-38.0","","-42.6","","63","","0.0","","23","","15","","4.8","","100.47","","","","-51","","Haze"
"-95.85","68.64","GJOA HAVEN A","2302337","2023-02-11 16:00","2023","02","11","16:00","-38.6","","-43.4","","62","","0.0","","24","","15","","2.4","","100.44","","","","-52","","Haze"
"-95.85","68.64","GJOA HAVEN A","2302337","2023-02-11 17:00","2023","02","11","17:00","-38.6","","-43.2","","63","","0.0","","25","","18","","2.4","","100.42","","","","-53","","Haze"
"-95.85","68.64","GJOA HAVEN A","2302337","2023-02-11 18:00","2023","02","11","18:00","-38.6","","-43.2","","63","","0.0","","22","","11","","2.0","","100.37","","","","-50","","Haze"
"-95.85","68.64","GJOA HAVEN A","2302337","2023-02-11 19:00","2023","02","11","19:00","-38.4","","-42.9","","64","","0.0","","24","","11","","2.0","","100.31","","","","-50","","Snow"
"-95.85","68.64","GJOA HAVEN A","2302337","2023-02-11 20:00","2023","02","11","20:00","-38.5","","-43.1","","63","","0.0","","23","","17","","2.4","","100.28","","","","-53","","Haze"
"-95.85","68.64","GJOA HAVEN A","2302337","2023-02-11 21:00","2023","02","11","21:00","-38.5","","-43.1","","63","","0.0","","23","","21","","2.0","","100.24","","","","-54","","Haze"
"-95.85","68.64","GJOA HAVEN A","2302337","2023-02-11 22:00","2023","02","11","22:00","-38.5","","-43.1","","63","","0.0","","23","","21","","2.4","","100.18","","","","-54","","Haze"
"-95.85","68.64","GJOA HAVEN A","2302337","2023-02-11 23:00","2023","02","11","23:00","-38.6","","-43.3","","62","","0.0","","22","","18","","2.4","","100.16","","","","-53","","Haze"
"-95.85","68.64","GJOA HAVEN A","2302337","2023-02-12 00:00","2023","02","12","00:00","-38.6","","-43.4","","62","","0.0","","22","","17","","2.0","","100.14","","","","-53","","Haze"
"-95.85","68.64","GJOA HAVEN A","2302337","2023-02-12 01:00","2023","02","12","01:00","-39.7","","-44.6","","61","","0.0","","20","","17","","9.7","","100.16","","","","-54","","Haze"
"-95.85","68.64","GJOA HAVEN A","2302337","2023-02-12 02:00","2023","02","12","02:00","-39.5","","-44.4","","61","","0.0","","21","","17","","4.8","","100.12","","","","-54","","Haze"
"-95.85","68.64","GJOA HAVEN A","2302337","2023-02-12 03:00","2023","02","12","03:00","-39.5","","-44.2","","62","","0.0","","21","","15","","3.6","","100.12","","","","-53","","Haze"
"-95.85","68.64","GJOA HAVEN A","2302337","2023-02-12 04:00","2023","02","12","04:00","-39.3","","-44.0","","62","","0.0","","22","","21","","2.8","","100.08","","","","-55","","Haze"
"-95.85","68.64","GJOA HAVEN A","2302337","2023-02-12 05:00","2023","02","12","05:00","-39.3","","-44.0","","62","","0.0","","22","","22","","4.0","","100.02","","","","-56","","Haze"
"-95.85","68.64","GJOA HAVEN A","2302337","2023-02-12 06:00","2023","02","12","06:00","-39.2","","-43.9","","62","","0.0","","21","","22","","3.2","","99.99","","","","-55","","Haze"
"-95.85","68.64","GJOA HAVEN A","2302337","2023-02-12 07:00","2023","02","12","07:00","-39.3","","-44.0","","62","","0.0","","22","","15","","2.0","","99.98","","","","-53","","Haze"
"-95.85","68.64","GJOA HAVEN A","2302337","2023-02-12 08:00","2023","02","12","08:00","-39.7","","-44.4","","62","","0.0","","19","","11","","8.1","","99.95","","","","-51","","Haze"
"-95.85","68.64","GJOA HAVEN A","2302337","2023-02-12 09:00","2023","02","12","09:00","-39.3","","-44.0","","62","","0.0","","20","","11","","8.1","","99.95","","","","-51","","Haze"
"-95.85","68.64","GJOA HAVEN A","2302337","2023-02-12 10:00","2023","02","12","10:00","-39.1","","-44.0","","61","","0.0","","19","","13","","11.3","","99.91","","","","-52","","NA"
"-95.85","68.64","GJOA HAVEN A","2302337","2023-02-12 11:00","2023","02","12","11:00","-37.7","","-42.3","","63","","0.0","","18","","11","","9.7","","99.91","","","","-49","","Haze"
"-95.85","68.64","GJOA HAVEN A","2302337","2023-02-12 12:00","2023","02","12","12:00","-37.5","","-42.2","","63","","0.0","","19","","17","","11.3","","99.88","","","","-51","","NA"
"-95.85","68.64","GJOA HAVEN A","2302337","2023-02-12 13:00","2023","02","12","13:00","-36.3","","-40.7","","65","","0.0","","20","","18","","11.3","","99.84","","","","-50","","NA"
"-95.85","68.64","GJOA HAVEN A","2302337","2023-02-12 14:00","2023","02","12","14:00","-36.1","","-40.5","","65","","0.0","","21","","15","","9.7","","99.80","","","","-49","","Haze"
"-95.85","68.64","GJOA HAVEN A","2302337","2023-02-12 15:00","2023","02","12","15:00","-36.8","","-41.2","","65","","0.0","","19","","9","","9.7","","99.83","","","","-47","","Haze"
"-95.85","68.64","GJOA HAVEN A","2302337","2023-02-12 16:00","2023","02","12","16:00","-36.4","","-40.8","","65","","0.0","","13","","11","","11.3","","99.82","","","","-47","","Snow"
"-95.85","68.64","GJOA HAVEN A","2302337","2023-02-12 17:00","2023","02","12","17:00","-36.0","","-40.4","","65","","0.0","","13","","9","","11.3","","99.81","","","","-46","","NA"
"-95.85","68.64","GJOA HAVEN A","2302337","2023-02-12 18:00","2023","02","12","18:00","-36.4","","-40.8","","65","","0.0","","12","","11","","11.3","","99.78","","","","-47","","NA"
"-95.85","68.64","GJOA HAVEN A","2302337","2023-02-12 19:00","2023","02","12","19:00","-36.3","","-40.7","","65","","0.0","","16","","17","","11.3","","99.75","","","","-50","","NA"
"-95.85","68.64","GJOA HAVEN A","2302337","2023-02-12 20:00","2023","02","12","20:00","-35.6","","-39.9","","66","","0.0","","16","","11","","11.3","","99.73","","","","-46","","NA"
"-95.85","68.64","GJOA HAVEN A","2302337","2023-02-12 21:00","2023","02","12","21:00","-35.5","","-39.8","","66","","0.0","","16","","9","","11.3","","99.71","","","","-45","","NA"
"-95.85","68.64","GJOA HAVEN A","2302337","2023-02-12 22:00","2023","02","12","22:00","-36.1","","-40.3","","66","","0.0","","11","","9","","11.3","","99.69","","","","-46","","NA"
"-95.85","68.64","GJOA HAVEN A","2302337","2023-02-12 23:00","2023","02","12","23:00","-36.4","","-40.6","","66","","0.0","","9","","8","","11.3","","99.70","","","","-45","","NA"
"-95.85","68.64","GJOA HAVEN A","2302337","2023-02-13 00:00","2023","02","13","00:00","-36.8","","-41.2","","65","","0.0","","9","","9","","11.3","","99.70","","","","-47","","NA"
"-95.85","68.64","GJOA HAVEN A","2302337","2023-02-13 01:00","2023","02","13","01:00","-36.2","","-40.5","","66","","0.0","","10","","9","","11.3","","99.70","","","","-46","","NA"
"-95.85","68.64","GJOA HAVEN A","2302337","2023-02-13 02:00","2023","02","13","02:00","-36.3","","-40.7","","65","","0.0","","8","","9","","11.3","","99.71","","","","-46","","NA"
"-95.85","68.64","GJOA HAVEN A","2302337","2023-02-13 03:00","2023","02","13","03:00","-36.4","","-40.8","","65","","0.0","","11","","8","","11.3","","99.71","","","","-45","","NA"
"-95.85","68.64","GJOA HAVEN A","2302337","2023-02-13 04:00","2023","02","13","04:00","-36.5","","-40.7","","66","","0.0","","11","","8","","11.3","","99.71","","","","-46","","NA"
"-95.85","68.64","GJOA HAVEN A","2302337","2023-02-13 05:00","2023","02","13","05:00","-36.1","","-40.5","","65","","0.0","","2","","8","","11.3","","99.73","","","","-45","","NA"
"-95.85","68.64","GJOA HAVEN A","2302337","2023-02-13 06:00","2023","02","13","06:00","-35.8","","-40.1","","66","","0.0","","3","","13","","8.1","","99.73","","","","-48","","Haze"
"-95.85","68.64","GJOA HAVEN A","2302337","2023-02-13 07:00","2023","02","13","07:00","-35.9","","-40.2","","66","","0.0","","6","","9","","9.7","","99.73","","","","-46","","Haze"
"-95.85","68.64","GJOA HAVEN A","2302337","2023-02-13 08:00","2023","02","13","08:00","-36.0","","-40.2","","66","","0.0","","3","","11","","11.3","","99.74","","","","-47","","Snow"
"-95.85","68.64","GJOA HAVEN A","2302337","2023-02-13 09:00","2023","02","13","09:00","-36.3","","-40.7","","65","","0.0","","3","","11","","11.3","","99.79","","","","-47","","NA"
"-95.85","68.64","GJOA HAVEN A","2302337","2023-02-13 10:00","2023","02","13","10:00","-35.3","","-39.4","","67","","0.0","","5","","5","","11.3","","99.78","","","","-42","","NA"
"-95.85","68.64","GJOA HAVEN A","2302337","2023-02-13 11:00","2023","02","13","11:00","-34.9","","-39.0","","67","","0.0","","6","","9","","11.3","","99.78","","","","-44","","NA"
"-95.85","68.64","GJOA HAVEN A","2302337","2023-02-13 12:00","2023","02","13","12:00","-34.2","","-38.4","","67","","0.0","","7","","8","","8.1","","99.80","","","","-43","","Haze"
"-95.85","68.64","GJOA HAVEN A","2302337","2023-02-13 13:00","2023","02","13","13:00","-33.9","","-38.1","","67","","0.0","","5","","9","","8.1","","99.82","","","","-43","","Haze"
"-95.85","68.64","GJOA HAVEN A","2302337","2023-02-13 14:00","2023","02","13","14:00","-33.9","","-38.1","","67","","0.0","","6","","11","","8.1","","99.85","","","","-44","","Haze"
"-95.85","68.64","GJOA HAVEN A","2302337","2023-02-13 15:00","2023","02","13","15:00","-35.0","","-39.1","","67","","0.0","","5","","9","","11.3","","99.90","","","","-45","","NA"
"-95.85","68.64","GJOA HAVEN A","2302337","2023-02-13 16:00","2023","02","13","16:00","-35.5","","-39.9","","65","","0.0","","3","","9","","11.3","","99.92","","","","-45","","NA"
"-95.85","68.64","GJOA HAVEN A","2302337","2023-02-13 17:00","2023","02","13","17:00","-35.9","","-40.2","","66","","0.0","","4","","11","","11.3","","99.93","","","","-47","","NA"
"-95.85","68.64","GJOA HAVEN A","2302337","2023-02-13 18:00","2023","02","13","18:00","-36.7","","-41.1","","65","","0.0","","5","","11","","11.3","","99.97","","","","-48","","NA"
"-95.85","68.64","GJOA HAVEN A","2302337","2023-02-13 19:00","2023","02","13","19:00","-36.4","","-40.8","","65","","0.0","","6","","9","","9.7","","99.98","","","","-46","","Haze"
"-95.85","68.64","GJOA HAVEN A","2302337","2023-02-13 20:00","2023","02","13","20:00","-36.4","","-40.9","","64","","0.0","","3","","8","","11.3","","100.00","","","","-45","","NA"
"-95.85","68.64","GJOA HAVEN A","2302337","2023-02-13 21:00","2023","02","13","21:00","-36.7","","-41.2","","64","","0.0","","4","","8","","8.1","","100.01","","","","-46","","Haze"
"-95.85","68.64","GJOA HAVEN A","2302337","2023-02-13 22:00","2023","02","13","22:00","-36.8","","-41.2","","65","","0.0","","4","","9","","11.3","","100.02","","","","-47","","NA"
"-95.85","68.64","GJOA HAVEN A","2302337","2023-02-13 23:00","2023","02","13","23:00","-37.2","","-41.6","","64","","0.0","","5","","11","","11.3","","100.04","","","","-48","","NA"
"-95.85","68.64","GJOA HAVEN A","2302337","2023-02-14 00:00","2023","02","14","00:00","-37.6","","-42.1","","64","","0.0","","2","","9","","11.3","","100.08","","","","-48","","NA"
"-95.85","68.64","GJOA HAVEN A","2302337","2023-02-14 01:00","2023","02","14","01:00","-37.4","","-41.8","","65","","0.0","","4","","5","","11.3","","100.10","","","","-44","","NA"
"-95.85","68.64","GJOA HAVEN A","2302337","2023-02-14 02:00","2023","02","14","02:00","-38.0","","-42.5","","64","","0.0","","1","","11","","11.3","","100.16","","","","-49","","NA"
"-95.85","68.64","GJOA HAVEN A","2302337","2023-02-14 03:00","2023","02","14","03:00","-38.2","","-42.7","","64","","0.0","","3","","13","","11.3","","100.17","","","","-51","","NA"
"-95.85","68.64","GJOA HAVEN A","2302337","2023-02-14 04:00","2023","02","14","04:00","-37.3","","-41.7","","65","","0.0","","5","","5","","11.3","","100.17","","","","-44","","NA"
"-95.85","68.64","GJOA HAVEN A","2302337","2023-02-14 05:00","2023","02","14","05:00","-37.1","","-41.5","","65","","0.0","","3","","8","","11.3","","100.21","","","","-46","","NA"
"-95.85","68.64","GJOA HAVEN A","2302337","2023-02-14 06:00","2023","02","14","06:00","-36.9","","-41.3","","65","","0.0","","3","","5","","11.3","","100.25","","","","-43","","NA"
"-95.85","68.64","GJOA HAVEN A","2302337","2023-02-14 07:00","2023","02","14","07:00","-37.9","","-42.4","","64","","0.0","","4","","8","","11.3","","100.27","","","","-47","","NA"
"-95.85","68.64","GJOA HAVEN A","2302337","2023-02-14 08:00","2023","02","14","08:00","-36.5","","-40.7","","66","","0.0","","","M","4","","11.3","","100.29","","","","-42","","NA"
"-95.85","68.64","GJOA HAVEN A","2302337","2023-02-14 09:00","2023","02","14","09:00","-38.3","","-43.2","","61","","0.0","","2","","8","","11.3","","100.31","","","","-48","","NA"
"-95.85","68.64","GJOA HAVEN A","2302337","2023-02-14 10:00","2023","02","14","10:00","-36.7","","-41.1","","65","","0.0","","2","","5","","11.3","","100.33","","","","-43","","NA"
"-95.85","68.64","GJOA HAVEN A","2302337","2023-02-14 11:00","2023","02","14","11:00","-36.1","","-40.5","","65","","0.0","","34","","4","","11.3","","100.36","","","","-41","","NA"
"-95.85","68.64","GJOA HAVEN A","2302337","2023-02-14 12:00","2023","02","14","12:00","-36.2","","-40.6","","65","","0.0","","29","","8","","11.3","","100.35","","","","-45","","NA"
"-95.85","68.64","GJOA HAVEN A","2302337","2023-02-14 13:00","2023","02","14","13:00","-37.5","","-42.2","","63","","0.0","","29","","11","","9.7","","100.36","","","","-49","","Haze"
"-95.85","68.64","GJOA HAVEN A","2302337","2023-02-14 14:00","2023","02","14","14:00","-35.9","","-40.6","","63","","0.0","","27","","5","","8.1","","100.38","","","","-42","","Haze"
"-95.85","68.64","GJOA HAVEN A","2302337","2023-02-14 15:00","2023","02","14","15:00","-36.2","","-40.9","","63","","0.0","","32","","9","","11.3","","100.40","","","","-46","","NA"
"-95.85","68.64","GJOA HAVEN A","2302337","2023-02-14 16:00","2023","02","14","16:00","-39.0","","-43.8","","62","","0.0","","32","","15","","8.1","","100.39","","","","-53","","Haze"
"-95.85","68.64","GJOA HAVEN A","2302337","2023-02-14 17:00","2023","02","14","17:00","-39.0","","-43.7","","63","","0.0","","31","","18","","8.1","","100.38","","","","-54","","Haze"
"-95.85","68.64","GJOA HAVEN A","2302337","2023-02-14 18:00","2023","02","14","18:00","-38.7","","-43.4","","63","","0.0","","31","","18","","4.0","","100.38","","","","-53","","Snow"
"-95.85","68.64","GJOA HAVEN A","2302337","2023-02-14 19:00","2023","02","14","19:00","-39.0","","-43.8","","62","","0.0","","31","","18","","8.1","","100.35","","","","-54","","Haze"
"-95.85","68.64","GJOA HAVEN A","2302337","2023-02-14 20:00","2023","02","14","20:00","-39.5","","-44.2","","62","","0.0","","30","","21","","4.8","","100.37","","","","-55","","Haze"
"-95.85","68.64","GJOA HAVEN A","2302337","2023-02-14 21:00","2023","02","14","21:00","-39.2","","-43.9","","62","","0.0","","30","","21","","4.8","","100.31","","","","-55","","Snow"
"-95.85","68.64","GJOA HAVEN A","2302337","2023-02-14 22:00","2023","02","14","22:00","-39.4","","-44.1","","62","","0.0","","28","","17","","4.8","","100.29","","","","-54","","Haze"
"-95.85","68.64","GJOA HAVEN A","2302337","2023-02-14 23:00","2023","02","14","23:00","-39.5","","-44.2","","62","","0.0","","26","","15","","2.0","","100.23","","","","-53","","Snow"
"-95.85","68.64","GJOA HAVEN A","2302337","2023-02-15 00:00","2023","02","15","00:00","-39.8","","-44.5","","62","","0.0","","25","","15","","4.0","","100.22","","","","-53","","Haze"
"-95.85","68.64","GJOA HAVEN A","2302337","2023-02-15 01:00","2023","02","15","01:00","-39.5","","-44.2","","62","","0.0","","26","","21","","2.4","","100.17","","","","-55","","Haze"
"-95.85","68.64","GJOA HAVEN A","2302337","2023-02-15 02:00","2023","02","15","02:00","-39.2","","-43.9","","62","","0.0","","25","","21","","3.2","","100.16","","","","-55","","Snow"
"-95.85","68.64","GJOA HAVEN A","2302337","2023-02-15 03:00","2023","02","15","03:00","-39.5","","-44.2","","62","","0.0","","27","","22","","2.8","","100.14","","","","-56","","Haze"
"-95.85","68.64","GJOA HAVEN A","2302337","2023-02-15 04:00","2023","02","15","04:00","-39.8","","-44.5","","62","","0.0","","26","","17","","3.2","","100.12","","","","-54","","Snow"
"-95.85","68.64","GJOA HAVEN A","2302337","2023-02-15 05:00","2023","02","15","05:00","-39.6","","-44.3","","62","","0.0","","25","","17","","3.6","","100.11","","","","-54","","Haze"
"-95.85","68.64","GJOA HAVEN A","2302337","2023-02-15 06:00","2023","02","15","06:00","-38.7","","-43.5","","62","","0.0","","26","","17","","3.2","","100.06","","","","-53","","Snow"
"-95.85","68.64","GJOA HAVEN A","2302337","2023-02-15 07:00","2023","02","15","07:00","-38.4","","-43.0","","63","","0.0","","","M","4","","3.2","","100.08","","","","-44","","Snow"
"-95.85","68.64","GJOA HAVEN A","2302337","2023-02-15 08:00","2023","02","15","08:00","-38.8","","-43.4","","63","","0.0","","30","","5","","9.7","","100.06","","","","-46","","Snow"
"-95.85","68.64","GJOA HAVEN A","2302337","2023-02-15 09:00","2023","02","15","09:00","-38.7","","-43.5","","62","","0.0","","29","","5","","6.4","","100.06","","","","-45","","Snow"
"-95.85","68.64","GJOA HAVEN A","2302337","2023-02-15 10:00","2023","02","15","10:00","-39.1","","-43.8","","62","","0.0","","34","","17","","11.3","","100.05","","","","-53","","NA"
"-95.85","68.64","GJOA HAVEN A","2302337","2023-02-15 11:00","2023","02","15","11:00","-38.7","","-43.5","","62","","0.0","","33","","13","","11.3","","100.09","","","","-51","","NA"
"-95.85","68.64","GJOA HAVEN A","2302337","2023-02-15 12:00","2023","02","15","12:00","-38.4","","-43.2","","62","","0.0","","33","","17","","9.7","","100.07","","","","-53","","Haze"
"-95.85","68.64","GJOA HAVEN A","2302337","2023-02-15 13:00","2023","02","15","13:00","-38.8","","-43.7","","61","","0.0","","32","","18","","9.7","","100.08","","","","-53","","Haze"
"-95.85","68.64","GJOA HAVEN A","2302337","2023-02-15 14:00","2023","02","15","14:00","-39.4","","-44.3","","61","","0.0","","33","","18","","9.7","","100.13","","","","-54","","Haze"
"-95.85","68.64","GJOA HAVEN A","2302337","2023-02-15 15:00","2023","02","15","15:00","-39.4","","-44.1","","62","","0.0","","34","","22","","6.4","","100.14","","","","-56","","Haze"
"-95.85","68.64","GJOA HAVEN A","2302337","2023-02-15 16:00","2023","02","15","16:00","-40.0","","-44.9","","61","","0.0","","35","","24","","6.4","","100.17","","","","-57","","Haze"
"-95.85","68.64","GJOA HAVEN A","2302337","2023-02-15 17:00","2023","02","15","17:00","-39.9","","-44.6","","62","","0.0","","36","","22","","8.1","","100.18","","","","-56","","Haze"
"-95.85","68.64","GJOA HAVEN A","2302337","2023-02-15 18:00","2023","02","15","18:00","-40.5","","-45.3","","61","","0.0","","36","","26","","9.7","","100.20","","","","-58","","Haze"
"-95.85","68.64","GJOA HAVEN A","2302337","2023-02-15 19:00","2023","02","15","19:00","-40.5","","-45.3","","61","","0.0","","36","","24","","9.7","","100.21","","","","-58","","Haze"
"-95.85","68.64","GJOA HAVEN A","2302337","2023-02-15 20:00","2023","02","15","20:00","-39.9","","-44.8","","61","","0.0","","33","","26","","11.3","","100.19","","","","-57","","NA"
"-95.85","68.64","GJOA HAVEN A","2302337","2023-02-15 21:00","2023","02","15","21:00","-40.3","","-45.0","","62","","0.0","","30","","11","","2.4","","100.19","","","","-52","","Haze"
"-95.85","68.64","GJOA HAVEN A","2302337","2023-02-15 22:00","2023","02","15","22:00","-40.0","","-44.9","","61","","0.0","","30","","9","","2.8","","100.17","","","","-50","","Haze"
"-95.85","68.64","GJOA HAVEN A","2302337","2023-02-15 23:00","2023","02","15","23:00","-39.6","","-44.3","","62","","0.0","","","M","4","","8.1","","100.17","","","","-45","","Haze"
"-95.85","68.64","GJOA HAVEN A","2302337","2023-02-16 00:00","2023","02","16","00:00","-38.6","","-43.2","","63","","0.0","","32","","15","","11.3","","100.15","","","","-52","","NA"
"-95.85","68.64","GJOA HAVEN A","2302337","2023-02-16 01:00","2023","02","16","01:00","-37.6","","-42.1","","64","","0.0","","29","","13","","4.8","","100.12","","","","-50","","Haze"
"-95.85","68.64","GJOA HAVEN A","2302337","2023-02-16 02:00","2023","02","16","02:00","-36.7","","-41.2","","64","","0.0","","28","","15","","2.0","","100.11","","","","-50","","Snow"
"-95.85","68.64","GJOA HAVEN A","2302337","2023-02-16 03:00","2023","02","16","03:00","-37.1","","-41.6","","64","","0.0","","29","","15","","9.7","","100.11","","","","-50","","Haze"
"-95.85","68.64","GJOA HAVEN A","2302337","2023-02-16 04:00","2023","02","16","04:00","-37.1","","-41.6","","64","","0.0","","30","","17","","4.0","","100.10","","","","-51","","Snow"
"-95.85","68.64","GJOA HAVEN A","2302337","2023-02-16 05:00","2023","02","16","05:00","-37.7","","-42.2","","64","","0.0","","31","","15","","9.7","","100.11","","","","-51","","Haze"
"-95.85","68.64","GJOA HAVEN A","2302337","2023-02-16 06:00","2023","02","16","06:00","-37.8","","-42.3","","64","","0.0","","32","","24","","8.1","","100.08","","","","-54","","Haze"
"-95.85","68.64","GJOA HAVEN A","2302337","2023-02-16 07:00","2023","02","16","07:00","-38.7","","-43.3","","63","","0.0","","32","","28","","6.4","","100.09","","","","-56","","Haze"
"-95.85","68.64","GJOA HAVEN A","2302337","2023-02-16 08:00","2023","02","16","08:00","-40.1","","-44.9","","61","","0.0","","32","","21","","6.4","","100.08","","","","-56","","Haze"
"-95.85","68.64","GJOA HAVEN A","2302337","2023-02-16 09:00","2023","02","16","09:00","-39.5","","-44.2","","62","","0.0","","32","","34","","6.4","","100.06","","","","-59","","Haze"
"-95.85","68.64","GJOA HAVEN A","2302337","2023-02-16 10:00","2023","02","16","10:00","-38.0","","-42.6","","63","","0.0","","32","","30","","3.2","","100.06","","","","-56","","Haze"
"-95.85","68.64","GJOA HAVEN A","2302337","2023-02-16 11:00","2023","02","16","11:00","-37.5","","-42.1","","64","","0.0","","32","","35","","2.4","","100.04","","","","-57","","Haze"
"-95.85","68.64","GJOA HAVEN A","2302337","2023-02-16 12:00","2023","02","16","12:00","-37.0","","-41.5","","64","","0.0","","32","","37","","2.4","","100.07","","","","-56","","Haze"
"-95.85","68.64","GJOA HAVEN A","2302337","2023-02-16 13:00","2023","02","16","13:00","-36.5","","-40.9","","65","","0.0","","32","","35","","2.0","","100.10","","","","-55","","Haze"
"-95.85","68.64","GJOA HAVEN A","2302337","2023-02-16 14:00","2023","02","16","14:00","-36.5","","-41.0","","64","","0.0","","32","","39","","2.0","","100.12","","","","-56","","Haze"
"-95.85","68.64","GJOA HAVEN A","2302337","2023-02-16 15:00","2023","02","16","15:00","-37.5","","-42.2","","63","","0.0","","33","","34","","3.2","","100.17","","","","-56","","Haze"
"-95.85","68.64","GJOA HAVEN A","2302337","2023-02-16 16:00","2023","02","16","16:00","-38.5","","-43.1","","63","","0.0","","33","","32","","6.4","","100.18","","","","-57","","Haze"
"-95.85","68.64","GJOA HAVEN A","2302337","2023-02-16 17:00","2023","02","16","17:00","-38.5","","-43.1","","63","","0.0","","34","","9","","9.7","","100.25","","","","-49","","Haze"
"-95.85","68.64","GJOA HAVEN A","2302337","2023-02-16 18:00","2023","02","16","18:00","-38.7","","-43.4","","62","","0.0","","31","","32","","4.0","","100.20","","","","-57","","Haze"
"-95.85","68.64","GJOA HAVEN A","2302337","2023-02-16 19:00","2023","02","16","19:00","-38.4","","-43.0","","63","","0.0","","32","","32","","4.8","","100.20","","","","-57","","Haze"
"-95.85","68.64","GJOA HAVEN A","2302337","2023-02-16 20:00","2023","02","16","20:00","-38.4","","-43.0","","63","","0.0","","33","","21","","4.8","","100.23","","","","-54","","Haze"
"-95.85","68.64","GJOA HAVEN A","2302337","2023-02-16 21:00","2023","02","16","21:00","-38.4","","-43.0","","63","","0.0","","32","","32","","4.8","","100.18","","","","-57","","Haze"
"-95.85","68.64","GJOA HAVEN A","2302337","2023-02-16 22:00","2023","02","16","22:00","-38.7","","-43.4","","62","","0.0","","29","","13","","8.1","","100.22","","","","-51","","Haze"
"-95.85","68.64","GJOA HAVEN A","2302337","2023-02-16 23:00","2023","02","16","23:00","-39.9","","-44.8","","61","","0.0","","29","","15","","9.7","","100.21","","","","-54","","Haze"
"-95.85","68.64","GJOA HAVEN A","2302337","2023-02-17 00:00","2023","02","17","00:00","-39.5","","-44.2","","62","","0.0","","31","","15","","6.4","","100.21","","","","-53","","Snow"
"-95.85","68.64","GJOA HAVEN A","2302337","2023-02-17 01:00","2023","02","17","01:00","-39.4","","-44.1","","62","","0.0","","29","","17","","8.1","","100.23","","","","-54","","Haze"
"-95.85","68.64","GJOA HAVEN A","2302337","2023-02-17 02:00","2023","02","17","02:00","-39.4","","-44.1","","62","","0.0","","30","","22","","9.7","","100.23","","","","-56","","Haze"
"-95.85","68.64","GJOA HAVEN A","2302337","2023-02-17 03:00","2023","02","17","03:00","-38.9","","-43.5","","63","","0.0","","32","","22","","9.7","","100.25","","","","-55","","Haze"
"-95.85","68.64","GJOA HAVEN A","2302337","2023-02-17 04:00","2023","02","17","04:00","-38.8","","-43.6","","62","","0.0","","33","","22","","8.1","","100.25","","","","-55","","Haze"
"-95.85","68.64","GJOA HAVEN A","2302337","2023-02-17 05:00","2023","02","17","05:00","-37.7","","-42.2","","64","","0.0","","33","","22","","6.4","","100.23","","","","-53","","Haze"
"-95.85","68.64","GJOA HAVEN A","2302337","2023-02-17 06:00","2023","02","17","06:00","-38.3","","-42.9","","63","","0.0","","34","","21","","6.4","","100.23","","","","-54","","Haze"
"-95.85","68.64","GJOA HAVEN A","2302337","2023-02-17 07:00","2023","02","17","07:00","-38.4","","-43.0","","63","","0.0","","35","","24","","8.1","","100.22","","","","-55","","Haze"
"-95.85","68.64","GJOA HAVEN A","2302337","2023-02-17 08:00","2023","02","17","08:00","-38.5","","-43.1","","63","","0.0","","35","","15","","6.4","","100.25","","","","-52","","Snow"
"-95.85","68.64","GJOA HAVEN A","2302337","2023-02-17 09:00","2023","02","17","09:00","-38.1","","-42.7","","63","","0.0","","34","","17","","9.7","","100.25","","","","-52","","Haze"
"-95.85","68.64","GJOA HAVEN A","2302337","2023-02-17 10:00","2023","02","17","10:00","-37.8","","-42.4","","63","","0.0","","34","","15","","4.8","","100.22","","","","-51","","Snow"
"-95.85","68.64","GJOA HAVEN A","2302337","2023-02-17 11:00","2023","02","17","11:00","-37.6","","-42.3","","63","","0.0","","34","","13","","6.4","","100.24","","","","-50","","Snow"
"-95.85","68.64","GJOA HAVEN A","2302337","2023-02-17 12:00","2023","02","17","12:00","-38.1","","-42.8","","63","","0.0","","34","","15","","11.3","","100.25","","","","-51","","NA"
"-95.85","68.64","GJOA HAVEN A","2302337","2023-02-17 13:00","2023","02","17","13:00","-38.0","","-42.6","","63","","0.0","","34","","17","","11.3","","100.25","","","","-52","","NA"
"-95.85","68.64","GJOA HAVEN A","2302337","2023-02-17 14:00","2023","02","17","14:00","-38.7","","-43.5","","62","","0.0","","35","","15","","11.3","","100.25","","","","-52","","NA"
"-95.85","68.64","GJOA HAVEN A","2302337","2023-02-17 15:00","2023","02","17","15:00","-39.2","","-43.9","","62","","0.0","","34","","15","","11.3","","100.26","","","","-53","","NA"
"-95.85","68.64","GJOA HAVEN A","2302337","2023-02-17 16:00","2023","02","17","16:00","-40.1","","-45.0","","61","","0.0","","35","","15","","11.3","","100.27","","","","-54","","NA"
"-95.85","68.64","GJOA HAVEN A","2302337","2023-02-17 17:00","2023","02","17","17:00","-39.8","","-44.5","","62","","0.0","","36","","17","","11.3","","100.27","","","","-54","","NA"
"-95.85","68.64","GJOA HAVEN A","2302337","2023-02-17 18:00","2023","02","17","18:00","-40.2","","-45.1","","61","","0.0","","1","","11","","11.3","","100.26","","","","-52","","NA"
"-95.85","68.64","GJOA HAVEN A","2302337","2023-02-17 19:00","2023","02","17","19:00","-40.3","","-45.2","","61","","0.0","","1","","13","","11.3","","100.25","","","","-53","","NA"
"-95.85","68.64","GJOA HAVEN A","2302337","2023-02-17 20:00","2023","02","17","20:00","-40.7","","-45.5","","61","","0.0","","2","","13","","4.8","","100.24","","","","-54","","Snow"
"-95.85","68.64","GJOA HAVEN A","2302337","2023-02-17 21:00","2023","02","17","21:00","-40.5","","-45.3","","61","","0.0","","4","","11","","3.2","","100.21","","","","-52","","Snow"
"-95.85","68.64","GJOA HAVEN A","2302337","2023-02-17 22:00","2023","02","17","22:00","-41.6","","-46.6","","60","","0.0","","3","","13","","11.3","","100.20","","","","-55","","NA"
"-95.85","68.64","GJOA HAVEN A","2302337","2023-02-17 23:00","2023","02","17","23:00","-41.8","","-46.9","","59","","0.0","","5","","13","","11.3","","100.20","","","","-55","","NA"
"-95.85","68.64","GJOA HAVEN A","2302337","2023-02-18 00:00","2023","02","18","00:00","-42.2","","-47.3","","59","","0.0","","6","","13","","11.3","","100.19","","","","-55","","NA"
"-95.85","68.64","GJOA HAVEN A","2302337","2023-02-18 01:00","2023","02","18","01:00","-42.6","","-47.8","","58","","0.0","","4","","8","","12.9","","100.20","","","","-53","","NA"
"-95.85","68.64","GJOA HAVEN A","2302337","2023-02-18 02:00","2023","02","18","02:00","-42.6","","-47.7","","59","","0.0","","3","","9","","12.9","","100.22","","","","-54","","NA"
"-95.85","68.64","GJOA HAVEN A","2302337","2023-02-18 03:00","2023","02","18","03:00","-42.2","","-47.3","","59","","0.0","","2","","9","","11.3","","100.24","","","","-53","","NA"
"-95.85","68.64","GJOA HAVEN A","2302337","2023-02-18 04:00","2023","02","18","04:00","-42.6","","-47.8","","58","","0.0","","36","","8","","3.6","","100.21","","","","-53","","Haze"
"-95.85","68.64","GJOA HAVEN A","2302337","2023-02-18 05:00","2023","02","18","05:00","-41.9","","-47.0","","59","","0.0","","31","","13","","8.1","","100.19","","","","-55","","Snow"
"-95.85","68.64","GJOA HAVEN A","2302337","2023-02-18 06:00","2023","02","18","06:00","-41.2","","-46.2","","60","","0.0","","29","","17","","2.8","","100.17","","","","-56","","Snow"
"-95.85","68.64","GJOA HAVEN A","2302337","2023-02-18 07:00","2023","02","18","07:00","-41.3","","-46.4","","59","","0.0","","26","","9","","1.2","","100.14","","","","-52","","Haze"
"-95.85","68.64","GJOA HAVEN A","2302337","2023-02-18 08:00","2023","02","18","08:00","-39.9","","-44.6","","62","","0.0","","30","","17","","1.6","","100.09","","","","-54","","Snow"
"-95.85","68.64","GJOA HAVEN A","2302337","2023-02-18 09:00","2023","02","18","09:00","-38.8","","-43.6","","62","","0.0","","31","","17","","8.1","","100.07","","","","-53","","Haze"
"-95.85","68.64","GJOA HAVEN A","2302337","2023-02-18 10:00","2023","02","18","10:00","-37.7","","-42.3","","63","","0.0","","31","","18","","4.0","","100.02","","","","-52","","Snow"
"-95.85","68.64","GJOA HAVEN A","2302337","2023-02-18 11:00","2023","02","18","11:00","-36.2","","-40.6","","65","","0.0","","30","","18","","4.8","","99.98","","","","-50","","Snow"
"-95.85","68.64","GJOA HAVEN A","2302337","2023-02-18 12:00","2023","02","18","12:00","-34.8","","-38.9","","67","","0.0","","28","","17","","4.8","","99.94","","","","-48","","Snow"
"-95.85","68.64","GJOA HAVEN A","2302337","2023-02-18 13:00","2023","02","18","13:00","-33.5","","-37.5","","68","","0.0","","31","","28","","3.2","","99.89","","","","-50","","Snow"
"-95.85","68.64","GJOA HAVEN A","2302337","2023-02-18 14:00","2023","02","18","14:00","-33.4","","-37.4","","68","","0.0","","29","","21","","6.4","","99.86","","","","-48","","Snow"
"-95.85","68.64","GJOA HAVEN A","2302337","2023-02-18 15:00","2023","02","18","15:00","-33.3","","-37.3","","68","","0.0","","30","","30","","2.8","","99.86","","","","-50","","Haze"
"-95.85","68.64","GJOA HAVEN A","2302337","2023-02-18 16:00","2023","02","18","16:00","-34.2","","-38.4","","67","","0.0","","29","","30","","2.4","","99.83","","","","-51","","Snow"
"-95.85","68.64","GJOA HAVEN A","2302337","2023-02-18 17:00","2023","02","18","17:00","-34.9","","-39.1","","66","","0.0","","29","","30","","2.8","","99.83","","","","-52","","Snow"
"-95.85","68.64","GJOA HAVEN A","2302337","2023-02-18 18:00","2023","02","18","18:00","-35.7","","-40.0","","66","","0.0","","30","","21","","4.0","","99.81","","","","-51","","Snow"
"-95.85","68.64","GJOA HAVEN A","2302337","2023-02-18 19:00","2023","02","18","19:00","-36.4","","-40.8","","65","","0.0","","30","","24","","4.8","","99.75","","","","-52","","Snow"
"-95.85","68.64","GJOA HAVEN A","2302337","2023-02-18 20:00","2023","02","18","20:00","-37.4","","-41.9","","64","","0.0","","30","","21","","11.3","","99.69","","","","-53","","NA"
"-95.85","68.64","GJOA HAVEN A","2302337","2023-02-18 21:00","2023","02","18","21:00","-38.5","","-43.1","","63","","0.0","","29","","17","","11.3","","99.66","","","","-53","","NA"
"-95.85","68.64","GJOA HAVEN A","2302337","2023-02-18 22:00","2023","02","18","22:00","-39.3","","-44.0","","62","","0.0","","29","","15","","9.7","","99.63","","","","-53","","Haze"
"-95.85","68.64","GJOA HAVEN A","2302337","2023-02-18 23:00","2023","02","18","23:00","-39.6","","-44.3","","62","","0.0","","29","","18","","9.7","","99.59","","","","-54","","Haze"
"-95.85","68.64","GJOA HAVEN A","2302337","2023-02-19 00:00","2023","02","19","00:00","-40.4","","-45.3","","61","","0.0","","29","","17","","9.7","","99.58","","","","-55","","Haze"
"-95.85","68.64","GJOA HAVEN A","2302337","2023-02-19 01:00","2023","02","19","01:00","-40.2","","-44.9","","62","","0.0","","30","","17","","3.2","","99.54","","","","-55","","Snow"
"-95.85","68.64","GJOA HAVEN A","2302337","2023-02-19 02:00","2023","02","19","02:00","-40.3","","-45.2","","61","","0.0","","27","","9","","2.4","","99.51","","","","-51","","Haze"
"-95.85","68.64","GJOA HAVEN A","2302337","2023-02-19 03:00","2023","02","19","03:00","-40.6","","-45.4","","61","","0.0","","32","","17","","9.7","","99.49","","","","-55","","Haze"
"-95.85","68.64","GJOA HAVEN A","2302337","2023-02-19 04:00","2023","02","19","04:00","-40.7","","-45.5","","61","","0.0","","31","","13","","4.0","","99.50","","","","-54","","Haze"
"-95.85","68.64","GJOA HAVEN A","2302337","2023-02-19 05:00","2023","02","19","05:00","-40.6","","-45.4","","61","","0.0","","33","","22","","6.4","","99.48","","","","-57","","Haze"
"-95.85","68.64","GJOA HAVEN A","2302337","2023-02-19 06:00","2023","02","19","06:00","-40.4","","-45.3","","61","","0.0","","35","","21","","6.4","","99.45","","","","-57","","Haze"
"-95.85","68.64","GJOA HAVEN A","2302337","2023-02-19 07:00","2023","02","19","07:00","-40.6","","-45.4","","61","","0.0","","34","","18","","6.4","","99.46","","","","-56","","Haze"
"-95.85","68.64","GJOA HAVEN A","2302337","2023-02-19 08:00","2023","02","19","08:00","-40.0","","-44.7","","62","","0.0","","34","","24","","6.4","","99.43","","","","-57","","Haze"
"-95.85","68.64","GJOA HAVEN A","2302337","2023-02-19 09:00","2023","02","19","09:00","-39.4","","-44.1","","62","","0.0","","33","","26","","8.1","","99.40","","","","-57","","Haze"
"-95.85","68.64","GJOA HAVEN A","2302337","2023-02-19 10:00","2023","02","19","10:00","-38.4","","-43.0","","63","","0.0","","33","","26","","2.8","","99.38","","","","-56","","Haze"
"-95.85","68.64","GJOA HAVEN A","2302337","2023-02-19 11:00","2023","02","19","11:00","-37.6","","-42.1","","64","","0.0","","33","","28","","4.0","","99.39","","","","-55","","Haze"
"-95.85","68.64","GJOA HAVEN A","2302337","2023-02-19 12:00","2023","02","19","12:00","-38.0","","-42.6","","63","","0.0","","34","","22","","4.8","","99.41","","","","-54","","Haze"
"-95.85","68.64","GJOA HAVEN A","2302337","2023-02-19 13:00","2023","02","19","13:00","-37.5","","-42.0","","64","","0.0","","32","","17","","9.7","","99.46","","","","-51","","Haze"
"-95.85","68.64","GJOA HAVEN A","2302337","2023-02-19 14:00","2023","02","19","14:00","-38.6","","-43.4","","62","","0.0","","31","","18","","6.4","","99.47","","","","-53","","Haze"
"-95.85","68.64","GJOA HAVEN A","2302337","2023-02-19 15:00","2023","02","19","15:00","-37.9","","-42.5","","63","","0.0","","32","","22","","9.7","","99.47","","","","-54","","Haze"
"-95.85","68.64","GJOA HAVEN A","2302337","2023-02-19 16:00","2023","02","19","16:00","-38.3","","-42.9","","63","","0.0","","32","","15","","6.4","","99.51","","","","-52","","Snow"
"-95.85","68.64","GJOA HAVEN A","2302337","2023-02-19 17:00","2023","02","19","17:00","-37.9","","-42.5","","63","","0.0","","33","","15","","4.8","","99.51","","","","-51","","Snow"
"-95.85","68.64","GJOA HAVEN A","2302337","2023-02-19 18:00","2023","02","19","18:00","-38.4","","-43.0","","63","","0.0","","31","","17","","4.8","","99.51","","","","-53","","Snow"
"-95.85","68.64","GJOA HAVEN A","2302337","2023-02-19 19:00","2023","02","19","19:00","-38.4","","-43.0","","63","","0.0","","33","","18","","4.8","","99.52","","","","-53","","Snow"
"-95.85","68.64","GJOA HAVEN A","2302337","2023-02-19 20:00","2023","02","19","20:00","-38.4","","-43.0","","63","","0.0","","33","","18","","9.7","","99.54","","","","-53","","Snow"
"-95.85","68.64","GJOA HAVEN A","2302337","2023-02-19 21:00","2023","02","19","21:00","-38.6","","-43.2","","63","","0.0","","34","","15","","6.4","","99.56","","","","-52","","Snow"
"-95.85","68.64","GJOA HAVEN A","2302337","2023-02-19 22:00","2023","02","19","22:00","-38.4","","-43.0","","63","","0.0","","35","","15","","2.8","","99.57","","","","-52","","Snow"
"-95.85","68.64","GJOA HAVEN A","2302337","2023-02-19 23:00","2023","02","19","23:00","-39.0","","-43.8","","62","","0.0","","35","","15","","4.0","","99.58","","","","-53","","Snow"
"-95.85","68.64","GJOA HAVEN A","2302337","2023-02-20 00:00","2023","02","20","00:00","-39.7","","-44.6","","61","","0.0","","35","","18","","11.3","","99.62","","","","-55","","NA"
"-95.85","68.64","GJOA HAVEN A","2302337","2023-02-20 01:00","2023","02","20","01:00","-40.5","","-45.3","","61","","0.0","","35","","18","","11.3","","99.65","","","","-56","","NA"
"-95.85","68.64","GJOA HAVEN A","2302337","2023-02-20 02:00","2023","02","20","02:00","-41.1","","-46.1","","60","","0.0","","36","","17","","11.3","","99.68","","","","-56","","NA"
"-95.85","68.64","GJOA HAVEN A","2302337","2023-02-20 03:00","2023","02","20","03:00","-41.0","","-46.0","","60","","0.0","","1","","13","","11.3","","99.71","","","","-54","","NA"
"-95.85","68.64","GJOA HAVEN A","2302337","2023-02-20 04:00","2023","02","20","04:00","-41.0","","-46.0","","60","","0.0","","2","","17","","12.9","","99.75","","","","-56","","NA"
"-95.85","68.64","GJOA HAVEN A","2302337","2023-02-20 05:00","2023","02","20","05:00","-41.7","","-46.7","","60","","0.0","","3","","17","","12.9","","99.81","","","","-57","","NA"
"-95.85","68.64","GJOA HAVEN A","2302337","2023-02-20 06:00","2023","02","20","06:00","-42.3","","-47.4","","59","","0.0","","4","","15","","11.3","","99.86","","","","-57","","NA"
"-95.85","68.64","GJOA HAVEN A","2302337","2023-02-20 07:00","2023","02","20","07:00","-42.5","","-47.6","","59","","0.0","","2","","15","","11.3","","99.90","","","","-57","","NA"
"-95.85","68.64","GJOA HAVEN A","2302337","2023-02-20 08:00","2023","02","20","08:00","-42.1","","-47.2","","59","","0.0","","5","","15","","11.3","","99.94","","","","-56","","NA"
"-95.85","68.64","GJOA HAVEN A","2302337","2023-02-20 09:00","2023","02","20","09:00","-41.0","","-46.0","","60","","0.0","","6","","11","","11.3","","99.98","","","","-53","","NA"
"-95.85","68.64","GJOA HAVEN A","2302337","2023-02-20 10:00","2023","02","20","10:00","-40.3","","-45.3","","60","","0.0","","2","","11","","9.7","","100.05","","","","-52","","Haze"
"-95.85","68.64","GJOA HAVEN A","2302337","2023-02-20 11:00","2023","02","20","11:00","-39.3","","-44.2","","61","","0.0","","6","","15","","11.3","","100.08","","","","-53","","NA"
"-95.85","68.64","GJOA HAVEN A","2302337","2023-02-20 12:00","2023","02","20","12:00","-39.9","","-44.9","","60","","0.0","","6","","17","","11.3","","100.12","","","","-54","","NA"
"-95.85","68.64","GJOA HAVEN A","2302337","2023-02-20 13:00","2023","02","20","13:00","-40.1","","-45.1","","60","","0.0","","7","","18","","11.3","","100.18","","","","-55","","NA"
"-95.85","68.64","GJOA HAVEN A","2302337","2023-02-20 14:00","2023","02","20","14:00","-40.7","","-45.9","","59","","0.0","","5","","9","","11.3","","100.25","","","","-51","","NA"
"-95.85","68.64","GJOA HAVEN A","2302337","2023-02-20 15:00","2023","02","20","15:00","-40.9","","-45.9","","60","","0.0","","7","","15","","4.8","","100.28","","","","-55","","Haze"
"-95.85","68.64","GJOA HAVEN A","2302337","2023-02-20 16:00","2023","02","20","16:00","-41.8","","-46.8","","60","","0.0","","5","","11","","11.3","","100.39","","","","-54","","NA"
"-95.85","68.64","GJOA HAVEN A","2302337","2023-02-20 17:00","2023","02","20","17:00","-42.9","","-48.1","","58","","0.0","","5","","15","","11.3","","100.41","","","","-57","","NA"
"-95.85","68.64","GJOA HAVEN A","2302337","2023-02-20 18:00","2023","02","20","18:00","-42.6","","-47.8","","58","","0.0","","5","","13","","11.3","","100.43","","","","-56","","NA"
"-95.85","68.64","GJOA HAVEN A","2302337","2023-02-20 19:00","2023","02","20","19:00","-42.9","","-48.1","","58","","0.0","","4","","13","","11.3","","100.48","","","","-56","","NA"
"-95.85","68.64","GJOA HAVEN A","2302337","2023-02-20 20:00","2023","02","20","20:00","-43.1","","-48.3","","58","","0.0","","3","","13","","11.3","","100.52","","","","-57","","NA"
"-95.85","68.64","GJOA HAVEN A","2302337","2023-02-20 21:00","2023","02","20","21:00","-43.3","","-48.5","","58","","0.0","","3","","17","","11.3","","100.55","","","","-59","","NA"
"-95.85","68.64","GJOA HAVEN A","2302337","2023-02-20 22:00","2023","02","20","22:00","-43.4","","-48.8","","57","","0.0","","36","","15","","11.3","","100.56","","","","-58","","NA"
"-95.85","68.64","GJOA HAVEN A","2302337","2023-02-20 23:00","2023","02","20","23:00","-42.7","","-47.8","","59","","0.0","","2","","13","","11.3","","100.58","","","","-56","","NA"
"-95.85","68.64","GJOA HAVEN A","2302337","2023-02-21 00:00","2023","02","21","00:00","-42.5","","-47.6","","59","","0.0","","2","","13","","11.3","","100.60","","","","-56","","NA"
"-95.85","68.64","GJOA HAVEN A","2302337","2023-02-21 01:00","2023","02","21","01:00","-42.7","","-47.9","","58","","0.0","","2","","15","","11.3","","100.59","","","","-57","","NA"
"-95.85","68.64","GJOA HAVEN A","2302337","2023-02-21 02:00","2023","02","21","02:00","-41.9","","-47.0","","59","","0.0","","2","","21","","9.7","","100.59","","","","-58","","Haze"
"-95.85","68.64","GJOA HAVEN A","2302337","2023-02-21 03:00","2023","02","21","03:00","-41.6","","-46.6","","60","","0.0","","2","","17","","12.9","","100.62","","","","-57","","NA"
"-95.85","68.64","GJOA HAVEN A","2302337","2023-02-21 04:00","2023","02","21","04:00","-41.6","","-46.7","","59","","0.0","","4","","11","","11.3","","100.59","","","","-54","","NA"
"-95.85","68.64","GJOA HAVEN A","2302337","2023-02-21 05:00","2023","02","21","05:00","-42.3","","-47.4","","59","","0.0","","1","","9","","8.1","","100.62","","","","-53","","Haze"
"-95.85","68.64","GJOA HAVEN A","2302337","2023-02-21 06:00","2023","02","21","06:00","-40.4","","-45.3","","61","","0.0","","3","","5","","11.3","","100.59","","","","-47","","Snow"
"-95.85","68.64","GJOA HAVEN A","2302337","2023-02-21 07:00","2023","02","21","07:00","-41.9","","-47.2","","58","","0.0","","26","","8","","0.4","","100.59","","","","-52","","Haze"
"-95.85","68.64","GJOA HAVEN A","2302337","2023-02-21 08:00","2023","02","21","08:00","-40.7","","-45.7","","60","","0.0","","28","","9","","4.0","","100.59","","","","-51","","Haze"
"-95.85","68.64","GJOA HAVEN A","2302337","2023-02-21 09:00","2023","02","21","09:00","-40.0","","-44.9","","61","","0.0","","30","","13","","6.4","","100.61","","","","-53","","Haze"
"-95.85","68.64","GJOA HAVEN A","2302337","2023-02-21 10:00","2023","02","21","10:00","-38.7","","-43.6","","61","","0.0","","30","","8","","8.1","","100.59","","","","-48","","Haze"
"-95.85","68.64","GJOA HAVEN A","2302337","2023-02-21 11:00","2023","02","21","11:00","-39.4","","-44.3","","61","","0.0","","31","","15","","4.8","","100.55","","","","-53","","Haze"
"-95.85","68.64","GJOA HAVEN A","2302337","2023-02-21 12:00","2023","02","21","12:00","-38.9","","-43.8","","61","","0.0","","29","","9","","2.8","","100.57","","","","-49","","Haze"
"-95.85","68.64","GJOA HAVEN A","2302337","2023-02-21 13:00","2023","02","21","13:00","-39.7","","-44.7","","60","","0.0","","28","","8","","2.0","","100.58","","","","-49","","Haze"
"-95.85","68.64","GJOA HAVEN A","2302337","2023-02-21 14:00","2023","02","21","14:00","-39.2","","-44.1","","61","","0.0","","33","","11","","6.4","","100.58","","","","-51","","Haze"
"-95.85","68.64","GJOA HAVEN A","2302337","2023-02-21 15:00","2023","02","21","15:00","-39.5","","-44.3","","61","","0.0","","35","","15","","4.8","","100.58","","","","-53","","Haze"
"-95.85","68.64","GJOA HAVEN A","2302337","2023-02-21 16:00","2023","02","21","16:00","-39.9","","-44.8","","61","","0.0","","34","","13","","11.3","","100.60","","","","-53","","NA"
"-95.85","68.64","GJOA HAVEN A","2302337","2023-02-21 17:00","2023","02","21","17:00","-38.4","","-42.9","","64","","0.0","","35","","11","","11.3","","100.58","","","","-50","","NA"
"-95.85","68.64","GJOA HAVEN A","2302337","2023-02-21 18:00","2023","02","21","18:00","-39.5","","-44.2","","62","","0.0","","32","","21","","11.3","","100.57","","","","-55","","NA"
"-95.85","68.64","GJOA HAVEN A","2302337","2023-02-21 19:00","2023","02","21","19:00","-40.2","","-45.1","","61","","0.0","","33","","21","","4.8","","100.56","","","","-56","","Haze"
"-95.85","68.64","GJOA HAVEN A","2302337","2023-02-21 20:00","2023","02","21","20:00","-40.9","","-45.9","","60","","0.0","","35","","21","","6.4","","100.56","","","","-57","","Haze"
"-95.85","68.64","GJOA HAVEN A","2302337","2023-02-21 21:00","2023","02","21","21:00","-41.7","","-46.8","","59","","0.0","","36","","18","","6.4","","100.58","","","","-57","","Haze"
"-95.85","68.64","GJOA HAVEN A","2302337","2023-02-21 22:00","2023","02","21","22:00","-41.7","","-46.8","","59","","0.0","","35","","22","","6.4","","100.54","","","","-59","","Haze"
"-95.85","68.64","GJOA HAVEN A","2302337","2023-02-21 23:00","2023","02","21","23:00","-41.0","","-46.0","","60","","0.0","","36","","22","","6.4","","100.54","","","","-58","","Haze"
"-95.85","68.64","GJOA HAVEN A","2302337","2023-02-22 00:00","2023","02","22","00:00","-40.7","","-45.7","","60","","0.0","","35","","24","","4.8","","100.57","","","","-58","","Haze"
"-95.85","68.64","GJOA HAVEN A","2302337","2023-02-22 01:00","2023","02","22","01:00","-39.6","","-44.3","","62","","0.0","","34","","28","","3.6","","100.56","","","","-58","","Haze"
"-95.85","68.64","GJOA HAVEN A","2302337","2023-02-22 02:00","2023","02","22","02:00","-39.2","","-43.9","","62","","0.0","","34","","26","","4.8","","100.61","","","","-57","","Haze"
"-95.85","68.64","GJOA HAVEN A","2302337","2023-02-22 03:00","2023","02","22","03:00","-38.8","","-43.4","","63","","0.0","","33","","32","","4.8","","100.59","","","","-58","","Snow"
"-95.85","68.64","GJOA HAVEN A","2302337","2023-02-22 04:00","2023","02","22","04:00","-38.6","","-43.2","","63","","0.0","","33","","30","","4.8","","100.58","","","","-57","","Haze"
"-95.85","68.64","GJOA HAVEN A","2302337","2023-02-22 05:00","2023","02","22","05:00","-38.5","","-43.3","","62","","0.0","","33","","32","","4.0","","100.56","","","","-57","","Haze"
"-95.85","68.64","GJOA HAVEN A","2302337","2023-02-22 06:00","2023","02","22","06:00","-38.2","","-42.8","","63","","0.0","","32","","34","","3.6","","100.57","","","","-57","","Haze"
"-95.85","68.64","GJOA HAVEN A","2302337","2023-02-22 07:00","2023","02","22","07:00","-38.1","","-42.9","","62","","0.0","","32","","35","","3.6","","100.56","","","","-57","","Haze"
"-95.85","68.64","GJOA HAVEN A","2302337","2023-02-22 08:00","2023","02","22","08:00","-37.8","","-42.4","","63","","0.0","","32","","37","","4.0","","100.60","","","","-57","","Haze"
"-95.85","68.64","GJOA HAVEN A","2302337","2023-02-22 09:00","2023","02","22","09:00","-37.3","","-41.8","","64","","0.0","","33","","39","","3.2","","100.63","","","","-57","","Haze"
"-95.85","68.64","GJOA HAVEN A","2302337","2023-02-22 10:00","2023","02","22","10:00","-36.6","","-41.1","","64","","0.0","","33","","39","","2.8","","100.65","","","","-56","","Haze"
"-95.85","68.64","GJOA HAVEN A","2302337","2023-02-22 11:00","2023","02","22","11:00","-36.0","","-40.4","","65","","0.0","","33","","32","","3.6","","100.70","","","","-54","","Haze"
"-95.85","68.64","GJOA HAVEN A","2302337","2023-02-22 12:00","2023","02","22","12:00","-35.8","","-40.2","","65","","0.0","","34","","30","","2.8","","100.75","","","","-53","","Haze"
"-95.85","68.64","GJOA HAVEN A","2302337","2023-02-22 13:00","2023","02","22","13:00","-35.4","","-39.8","","65","","0.0","","34","","34","","2.4","","100.79","","","","-54","","Haze"
"-95.85","68.64","GJOA HAVEN A","2302337","2023-02-22 14:00","2023","02","22","14:00","-35.5","","-39.9","","65","","0.0","","33","","32","","2.0","","100.90","","","","-53","","Haze"
"-95.85","68.64","GJOA HAVEN A","2302337","2023-02-22 15:00","2023","02","22","15:00","-35.5","","-39.8","","66","","0.0","","33","","43","","1.6","","100.92","","","","-55","","Blowing Snow"
"-95.85","68.64","GJOA HAVEN A","2302337","2023-02-22 16:00","2023","02","22","16:00","-35.1","","-39.4","","66","","0.0","","34","","30","","3.2","","101.02","","","","-52","","Haze"
"-95.85","68.64","GJOA HAVEN A","2302337","2023-02-22 17:00","2023","02","22","17:00","-35.4","","-39.7","","66","","0.0","","33","","24","","4.8","","101.07","","","","-51","","Haze"
"-95.85","68.64","GJOA HAVEN A","2302337","2023-02-22 18:00","2023","02","22","18:00","-35.2","","-39.5","","66","","0.0","","33","","17","","2.4","","101.14","","","","-49","","Haze"
"-95.85","68.64","GJOA HAVEN A","2302337","2023-02-22 19:00","2023","02","22","19:00","-35.1","","-39.4","","66","","0.0","","34","","24","","2.0","","101.15","","","","-51","","Haze"
"-95.85","68.64","GJOA HAVEN A","2302337","2023-02-22 20:00","2023","02","22","20:00","-35.3","","-39.6","","66","","0.0","","33","","35","","1.2","","101.11","","","","-54","","Snow"
"-95.85","68.64","GJOA HAVEN A","2302337","2023-02-22 21:00","2023","02","22","21:00","-35.1","","-39.2","","67","","0.0","","33","","32","","2.0","","101.21","","","","-53","","Haze"
"-95.85","68.64","GJOA HAVEN A","2302337","2023-02-22 22:00","2023","02","22","22:00","-34.6","","-38.7","","67","","0.0","","33","","30","","1.6","","101.24","","","","-52","","Haze"
"-95.85","68.64","GJOA HAVEN A","2302337","2023-02-22 23:00","2023","02","22","23:00","-34.0","","-38.0","","68","","0.0","","32","","30","","2.4","","101.25","","","","-51","","Haze"
"-95.85","68.64","GJOA HAVEN A","2302337","2023-02-23 00:00","2023","02","23","00:00","-33.0","","-36.9","","69","","0.0","","32","","34","","1.6","","101.28","","","","-50","","Snow"
"-95.85","68.64","GJOA HAVEN A","2302337","2023-02-23 01:00","2023","02","23","01:00","-34.1","","-38.3","","67","","0.0","","32","","32","","2.0","","101.28","","","","-51","","Haze"
"-95.85","68.64","GJOA HAVEN A","2302337","2023-02-23 02:00","2023","02","23","02:00","-34.5","","-38.6","","67","","0.0","","31","","24","","4.0","","101.30","","","","-50","","Haze"
"-95.85","68.64","GJOA HAVEN A","2302337","2023-02-23 03:00","2023","02","23","03:00","-33.7","","-37.6","","69","","0.0","","31","","35","","2.4","","101.26","","","","-52","","Snow"
"-95.85","68.64","GJOA HAVEN A","2302337","2023-02-23 04:00","2023","02","23","04:00","-31.7","","-35.5","","70","","0.0","","33","","37","","1.2","","101.23","","","","-49","","Snow"
"-95.85","68.64","GJOA HAVEN A","2302337","2023-02-23 05:00","2023","02","23","05:00","-32.5","","-36.4","","69","","0.0","","33","","26","","2.4","","101.22","","","","-48","","Haze"
"-95.85","68.64","GJOA HAVEN A","2302337","2023-02-23 06:00","2023","02","23","06:00","-32.0","","-35.8","","70","","0.0","","33","","32","","1.6","","101.18","","","","-49","","Snow"
"-95.85","68.64","GJOA HAVEN A","2302337","2023-02-23 07:00","2023","02","23","07:00","-31.6","","-35.4","","70","","0.0","","34","","26","","1.2","","101.22","","","","-47","","Snow"
"-95.85","68.64","GJOA HAVEN A","2302337","2023-02-23 08:00","2023","02","23","08:00","-32.1","","-35.9","","70","","0.0","","33","","34","","1.0","","101.16","","","","-49","","Haze"
"-95.85","68.64","GJOA HAVEN A","2302337","2023-02-23 09:00","2023","02","23","09:00","-32.3","","-36.1","","70","","0.0","","34","","28","","1.2","","101.14","","","","-48","","Haze"
"-95.85","68.64","GJOA HAVEN A","2302337","2023-02-23 10:00","2023","02","23","10:00","-32.2","","-36.1","","69","","0.0","","33","","30","","1.2","","101.14","","","","-48","","Haze"
"-95.85","68.64","GJOA HAVEN A","2302337","2023-02-23 11:00","2023","02","23","11:00","-31.6","","-35.4","","70","","0.0","","33","","32","","0.8","","101.09","","","","-48","","Haze"
"-95.85","68.64","GJOA HAVEN A","2302337","2023-02-23 12:00","2023","02","23","12:00","-31.1","","-34.9","","70","","0.0","","33","","35","","0.8","","101.02","","","","-48","","Haze"
"-95.85","68.64","GJOA HAVEN A","2302337","2023-02-23 13:00","2023","02","23","13:00","-30.8","","-34.5","","71","","0.0","","33","","35","","0.8","","100.98","","","","-48","","Moderate Snow"
"-95.85","68.64","GJOA HAVEN A","2302337","2023-02-23 14:00","2023","02","23","14:00","-30.9","","-34.6","","71","","0.0","","34","","30","","1.0","","100.96","","","","-47","","Haze"
"-95.85","68.64","GJOA HAVEN A","2302337","2023-02-23 15:00","2023","02","23","15:00","-31.2","","-35.0","","70","","0.0","","34","","28","","2.0","","100.90","","","","-47","","Haze"
"-95.85","68.64","GJOA HAVEN A","2302337","2023-02-23 16:00","2023","02","23","16:00","-31.9","","-35.7","","70","","0.0","","33","","30","","3.2","","100.84","","","","-48","","Haze"
"-95.85","68.64","GJOA HAVEN A","2302337","2023-02-23 17:00","2023","02","23","17:00","-33.0","","-36.9","","69","","0.0","","32","","26","","4.8","","100.77","","","","-49","","Haze"
"-95.85","68.64","GJOA HAVEN A","2302337","2023-02-23 18:00","2023","02","23","18:00","-33.8","","-37.8","","68","","0.0","","32","","26","","4.8","","100.70","","","","-50","","Haze"
"-95.85","68.64","GJOA HAVEN A","2302337","2023-02-23 19:00","2023","02","23","19:00","-34.5","","-38.6","","67","","0.0","","32","","22","","4.8","","100.64","","","","-49","","Snow"
"-95.85","68.64","GJOA HAVEN A","2302337","2023-02-23 20:00","2023","02","23","20:00","-35.2","","-39.3","","67","","0.0","","33","","24","","4.0","","100.56","","","","-51","","Haze"
"-95.85","68.64","GJOA HAVEN A","2302337","2023-02-23 21:00","2023","02","23","21:00","-35.9","","-40.2","","66","","0.0","","32","","24","","4.8","","100.48","","","","-52","","Haze"
"-95.85","68.64","GJOA HAVEN A","2302337","2023-02-23 22:00","2023","02","23","22:00","-36.2","","-40.4","","66","","0.0","","34","","28","","4.0","","100.41","","","","-53","","Haze"
"-95.85","68.64","GJOA HAVEN A","2302337","2023-02-23 23:00","2023","02","23","23:00","-36.9","","-41.3","","65","","0.0","","35","","26","","3.2","","100.37","","","","-54","","Haze"
"-95.85","68.64","GJOA HAVEN A","2302337","2023-02-24 00:00","2023","02","24","00:00","-37.3","","-41.8","","64","","0.0","","36","","24","","2.8","","100.31","","","","-54","","Haze"
"-95.85","68.64","GJOA HAVEN A","2302337","2023-02-24 01:00","2023","02","24","01:00","-37.7","","-42.2","","64","","0.0","","36","","24","","4.8","","100.25","","","","-54","","Haze"
"-95.85","68.64","GJOA HAVEN A","2302337","2023-02-24 02:00","2023","02","24","02:00","-37.7","","-42.2","","64","","0.0","","34","","28","","8.1","","100.23","","","","-55","","Haze"
"-95.85","68.64","GJOA HAVEN A","2302337","2023-02-24 03:00","2023","02","24","03:00","-38.0","","-42.5","","64","","0.0","","34","","24","","9.7","","100.21","","","","-54","","Haze"
"-95.85","68.64","GJOA HAVEN A","2302337","2023-02-24 04:00","2023","02","24","04:00","-38.4","","-42.9","","64","","0.0","","34","","24","","9.7","","100.17","","","","-55","","Haze"
"-95.85","68.64","GJOA HAVEN A","2302337","2023-02-24 05:00","2023","02","24","05:00","-38.1","","-42.6","","64","","0.0","","34","","26","","8.1","","100.08","","","","-55","","Haze"
"-95.85","68.64","GJOA HAVEN A","2302337","2023-02-24 06:00","2023","02","24","06:00","-38.6","","-43.2","","63","","0.0","","33","","17","","8.1","","100.01","","","","-53","","Haze"
"-95.85","68.64","GJOA HAVEN A","2302337","2023-02-24 07:00","2023","02","24","07:00","-39.0","","-43.6","","63","","0.0","","32","","30","","6.4","","99.93","","","","-57","","Haze"
"-95.85","68.64","GJOA HAVEN A","2302337","2023-02-24 08:00","2023","02","24","08:00","-37.7","","-42.0","","65","","0.0","","34","","26","","8.1","","99.86","","","","-55","","Haze"
"-95.85","68.64","GJOA HAVEN A","2302337","2023-02-24 09:00","2023","02","24","09:00","-36.6","","-41.0","","65","","0.0","","34","","28","","4.8","","99.79","","","","-54","","Haze"
"-95.85","68.64","GJOA HAVEN A","2302337","2023-02-24 10:00","2023","02","24","10:00","-36.2","","-40.6","","65","","0.0","","30","","15","","4.8","","99.76","","","","-49","","Haze"
"-95.85","68.64","GJOA HAVEN A","2302337","2023-02-24 11:00","2023","02","24","11:00","-37.3","","-41.8","","64","","0.0","","31","","21","","9.7","","99.65","","","","-53","","Haze"
"-95.85","68.64","GJOA HAVEN A","2302337","2023-02-24 12:00","2023","02","24","12:00","-36.8","","-41.3","","64","","0.0","","30","","18","","6.4","","99.58","","","","-51","","Haze"
"-95.85","68.64","GJOA HAVEN A","2302337","2023-02-24 13:00","2023","02","24","13:00","-36.6","","-41.1","","64","","0.0","","29","","24","","9.7","","99.52","","","","-53","","Haze"
"-95.85","68.64","GJOA HAVEN A","2302337","2023-02-24 14:00","2023","02","24","14:00","-36.8","","-41.3","","64","","0.0","","29","","17","","6.4","","99.51","","","","-51","","Haze"
"-95.85","68.64","GJOA HAVEN A","2302337","2023-02-24 15:00","2023","02","24","15:00","-37.1","","-41.6","","64","","0.0","","28","","22","","6.4","","99.42","","","","-53","","Haze"
"-95.85","68.64","GJOA HAVEN A","2302337","2023-02-24 16:00","2023","02","24","16:00","-37.5","","-42.0","","64","","0.0","","27","","18","","9.7","","99.39","","","","-52","","Haze"
"-95.85","68.64","GJOA HAVEN A","2302337","2023-02-24 17:00","2023","02","24","17:00","-38.4","","-43.2","","62","","0.0","","25","","9","","4.0","","99.35","","","","-49","","Haze"
"-95.85","68.64","GJOA HAVEN A","2302337","2023-02-24 18:00","2023","02","24","18:00","-37.9","","-42.4","","64","","0.0","","29","","17","","3.2","","99.24","","","","-52","","Snow"
"-95.85","68.64","GJOA HAVEN A","2302337","2023-02-24 19:00","2023","02","24","19:00","-38.5","","-43.1","","63","","0.0","","27","","13","","4.0","","99.18","","","","-51","","Snow"
"-95.85","68.64","GJOA HAVEN A","2302337","2023-02-24 20:00","2023","02","24","20:00","-38.0","","-42.6","","63","","0.0","","24","","18","","4.8","","99.12","","","","-52","","Snow"
"-95.85","68.64","GJOA HAVEN A","2302337","2023-02-24 21:00","2023","02","24","21:00","-37.1","","-41.6","","64","","0.0","","26","","21","","6.4","","99.04","","","","-52","","Snow"
"-95.85","68.64","GJOA HAVEN A","2302337","2023-02-24 22:00","2023","02","24","22:00","-36.7","","-41.1","","65","","0.0","","25","","18","","2.4","","98.95","","","","-51","","Snow"
"-95.85","68.64","GJOA HAVEN A","2302337","2023-02-24 23:00","2023","02","24","23:00","-35.4","","-39.7","","66","","0.0","","25","","17","","2.4","","98.91","","","","-49","","Snow"
"-95.85","68.64","GJOA HAVEN A","2302337","2023-02-25 00:00","2023","02","25","00:00","-34.7","","-38.8","","67","","0.0","","22","","18","","3.6","","98.90","","","","-48","","Snow"
"-95.85","68.64","GJOA HAVEN A","2302337","2023-02-25 01:00","2023","02","25","01:00","-34.9","","-39.0","","67","","0.0","","24","","13","","4.8","","98.85","","","","-47","","Snow"
"-95.85","68.64","GJOA HAVEN A","2302337","2023-02-25 02:00","2023","02","25","02:00","-34.6","","-38.7","","67","","0.0","","26","","17","","11.3","","98.83","","","","-48","","Snow"
"-95.85","68.64","GJOA HAVEN A","2302337","2023-02-25 03:00","2023","02","25","03:00","-34.4","","-38.6","","67","","0.0","","28","","24","","2.8","","98.78","","","","-50","","Snow"
"-95.85","68.64","GJOA HAVEN A","2302337","2023-02-25 04:00","2023","02","25","04:00","-34.2","","-38.2","","68","","0.0","","27","","24","","4.8","","98.76","","","","-50","","Snow"
"-95.85","68.64","GJOA HAVEN A","2302337","2023-02-25 05:00","2023","02","25","05:00","-33.8","","-37.8","","68","","0.0","","26","","21","","4.0","","98.73","","","","-48","","Snow"
"-95.85","68.64","GJOA HAVEN A","2302337","2023-02-25 06:00","2023","02","25","06:00","-33.2","","-37.2","","68","","0.0","","28","","26","","4.8","","98.68","","","","-49","","Snow"
"-95.85","68.64","GJOA HAVEN A","2302337","2023-02-25 07:00","2023","02","25","07:00","-33.2","","-37.2","","68","","0.0","","26","","21","","4.8","","98.66","","","","-47","","Snow"
"-95.85","68.64","GJOA HAVEN A","2302337","2023-02-25 08:00","2023","02","25","08:00","-32.8","","-36.7","","69","","0.0","","24","","17","","4.8","","98.64","","","","-46","","Snow"
"-95.85","68.64","GJOA HAVEN A","2302337","2023-02-25 09:00","2023","02","25","09:00","-31.8","","-35.6","","70","","0.0","","25","","17","","4.0","","98.63","","","","-44","","Snow"
"-95.85","68.64","GJOA HAVEN A","2302337","2023-02-25 10:00","2023","02","25","10:00","-31.9","","-35.7","","70","","0.0","","25","","18","","2.8","","98.63","","","","-45","","Snow"
"-95.85","68.64","GJOA HAVEN A","2302337","2023-02-25 11:00","2023","02","25","11:00","-32.1","","-35.9","","70","","0.0","","25","","15","","4.8","","98.62","","","","-44","","Snow"
"-95.85","68.64","GJOA HAVEN A","2302337","2023-02-25 12:00","2023","02","25","12:00","-32.4","","-36.3","","69","","0.0","","26","","24","","6.4","","98.59","","","","-47","","Haze"
"-95.85","68.64","GJOA HAVEN A","2302337","2023-02-25 13:00","2023","02","25","13:00","-31.7","","-35.5","","70","","0.0","","26","","15","","4.0","","98.63","","","","-44","","Snow"
"-95.85","68.64","GJOA HAVEN A","2302337","2023-02-25 14:00","2023","02","25","14:00","-31.6","","-35.4","","70","","0.0","","29","","9","","4.0","","98.65","","","","-40","","Snow"
"-95.85","68.64","GJOA HAVEN A","2302337","2023-02-25 15:00","2023","02","25","15:00","-31.8","","-35.6","","70","","0.0","","29","","18","","2.8","","98.64","","","","-45","","Snow"
"-95.85","68.64","GJOA HAVEN A","2302337","2023-02-25 16:00","2023","02","25","16:00","-32.1","","-36.0","","69","","0.0","","29","","15","","4.8","","98.68","","","","-44","","Snow"
"-95.85","68.64","GJOA HAVEN A","2302337","2023-02-25 17:00","2023","02","25","17:00","-33.3","","-37.3","","68","","0.0","","25","","13","","6.4","","98.67","","","","-45","","Snow"
"-95.85","68.64","GJOA HAVEN A","2302337","2023-02-25 18:00","2023","02","25","18:00","-33.4","","-37.3","","69","","0.0","","27","","13","","6.4","","98.68","","","","-45","","Snow"
"-95.85","68.64","GJOA HAVEN A","2302337","2023-02-25 19:00","2023","02","25","19:00","-32.9","","-36.7","","70","","0.0","","27","","17","","8.1","","98.70","","","","-46","","Snow"
"-95.85","68.64","GJOA HAVEN A","2302337","2023-02-25 20:00","2023","02","25","20:00","-34.2","","-38.3","","67","","0.0","","29","","18","","11.3","","98.69","","","","-48","","NA"
"-95.85","68.64","GJOA HAVEN A","2302337","2023-02-25 21:00","2023","02","25","21:00","-33.1","","-37.0","","69","","0.0","","33","","22","","11.3","","98.72","","","","-48","","NA"
"-95.85","68.64","GJOA HAVEN A","2302337","2023-02-25 22:00","2023","02","25","22:00","-34.4","","-38.4","","68","","0.0","","30","","9","","6.4","","98.74","","","","-44","","Haze"
"-95.85","68.64","GJOA HAVEN A","2302337","2023-02-25 23:00","2023","02","25","23:00","-33.3","","-37.0","","70","","0.0","","33","","26","","6.4","","98.75","","","","-49","","Haze"
"-95.85","68.64","GJOA HAVEN A","2302337","2023-02-26 00:00","2023","02","26","00:00","-34.9","","-39.0","","67","","0.0","","29","","11","","4.8","","98.82","","","","-46","","Snow"
"-95.85","68.64","GJOA HAVEN A","2302337","2023-02-26 01:00","2023","02","26","01:00","-36.4","","-40.7","","66","","0.0","","29","","11","","12.9","","98.85","","","","-47","","NA"
"-95.85","68.64","GJOA HAVEN A","2302337","2023-02-26 02:00","2023","02","26","02:00","-36.2","","-40.6","","65","","0.0","","24","","11","","9.7","","98.88","","","","-47","","Haze"
"-95.85","68.64","GJOA HAVEN A","2302337","2023-02-26 03:00","2023","02","26","03:00","-35.6","","-39.7","","67","","0.0","","26","","9","","12.9","","98.92","","","","-45","","NA"
"-95.85","68.64","GJOA HAVEN A","2302337","2023-02-26 04:00","2023","02","26","04:00","-33.4","","-37.4","","68","","0.0","","30","","13","","12.9","","98.98","","","","-45","","NA"
"-95.85","68.64","GJOA HAVEN A","2302337","2023-02-26 05:00","2023","02","26","05:00","-37.1","","-41.6","","64","","0.0","","24","","13","","11.3","","99.06","","","","-49","","NA"
"-95.85","68.64","GJOA HAVEN A","2302337","2023-02-26 06:00","2023","02","26","06:00","-36.4","","-40.7","","66","","0.0","","25","","9","","8.1","","99.09","","","","-46","","Haze"
"-95.85","68.64","GJOA HAVEN A","2302337","2023-02-26 07:00","2023","02","26","07:00","-36.7","","-40.9","","66","","0.0","","28","","11","","9.7","","99.12","","","","-48","","Haze"
"-95.85","68.64","GJOA HAVEN A","2302337","2023-02-26 08:00","2023","02","26","08:00","-36.9","","-41.3","","65","","0.0","","23","","11","","11.3","","99.18","","","","-48","","NA"
"-95.85","68.64","GJOA HAVEN A","2302337","2023-02-26 09:00","2023","02","26","09:00","-36.7","","-41.1","","65","","0.0","","23","","9","","8.1","","99.25","","","","-47","","Haze"
"-95.85","68.64","GJOA HAVEN A","2302337","2023-02-26 10:00","2023","02","26","10:00","-34.7","","-38.8","","67","","0.0","","27","","9","","8.1","","99.33","","","","-44","","Haze"
"-95.85","68.64","GJOA HAVEN A","2302337","2023-02-26 11:00","2023","02","26","11:00","-35.6","","-40.0","","65","","0.0","","24","","9","","9.7","","99.39","","","","-45","","Haze"
"-95.85","68.64","GJOA HAVEN A","2302337","2023-02-26 12:00","2023","02","26","12:00","-34.7","","-39.0","","66","","0.0","","25","","8","","11.3","","99.47","","","","-43","","NA"
"-95.85","68.64","GJOA HAVEN A","2302337","2023-02-26 13:00","2023","02","26","13:00","-34.8","","-39.2","","65","","0.0","","20","","8","","9.7","","99.53","","","","-44","","Haze"
"-95.85","68.64","GJOA HAVEN A","2302337","2023-02-26 14:00","2023","02","26","14:00","-35.4","","-39.7","","66","","0.0","","20","","9","","9.7","","99.60","","","","-45","","Haze"
"-95.85","68.64","GJOA HAVEN A","2302337","2023-02-26 15:00","2023","02","26","15:00","-35.0","","-39.3","","66","","0.0","","18","","15","","9.7","","99.64","","","","-48","","Haze"
"-95.85","68.64","GJOA HAVEN A","2302337","2023-02-26 16:00","2023","02","26","16:00","-35.6","","-39.9","","66","","0.0","","13","","13","","12.9","","99.68","","","","-47","","NA"
"-95.85","68.64","GJOA HAVEN A","2302337","2023-02-26 17:00","2023","02","26","17:00","-35.8","","-40.1","","66","","0.0","","13","","17","","12.9","","99.75","","","","-49","","NA"
"-95.85","68.64","GJOA HAVEN A","2302337","2023-02-26 18:00","2023","02","26","18:00","-35.7","","-40.0","","66","","0.0","","16","","17","","12.9","","99.78","","","","-49","","NA"
"-95.85","68.64","GJOA HAVEN A","2302337","2023-02-26 19:00","2023","02","26","19:00","-35.7","","-40.0","","66","","0.0","","15","","15","","11.3","","99.84","","","","-48","","NA"
"-95.85","68.64","GJOA HAVEN A","2302337","2023-02-26 20:00","2023","02","26","20:00","-35.7","","-40.0","","66","","0.0","","14","","15","","12.9","","99.87","","","","-48","","NA"
"-95.85","68.64","GJOA HAVEN A","2302337","2023-02-26 21:00","2023","02","26","21:00","-35.3","","-39.4","","67","","0.0","","16","","15","","12.9","","99.90","","","","-48","","NA"
"-95.85","68.64","GJOA HAVEN A","2302337","2023-02-26 22:00","2023","02","26","22:00","-36.2","","-40.7","","64","","0.0","","10","","13","","12.9","","99.95","","","","-48","","NA"
"-95.85","68.64","GJOA HAVEN A","2302337","2023-02-26 23:00","2023","02","26","23:00","-37.8","","-42.3","","64","","0.0","","9","","11","","12.9","","99.99","","","","-49","","NA"
"-95.85","68.64","GJOA HAVEN A","2302337","2023-02-27 00:00","2023","02","27","00:00","-37.7","","-42.3","","64","","0.0","","9","","13","","12.9","","100.02","","","","-50","","NA"
"-95.85","68.64","GJOA HAVEN A","2302337","2023-02-27 01:00","2023","02","27","01:00","-37.8","","-42.2","","65","","0.0","","12","","13","","12.9","","100.06","","","","-50","","NA"
"-95.85","68.64","GJOA HAVEN A","2302337","2023-02-27 02:00","2023","02","27","02:00","-38.3","","-43.1","","62","","0.0","","7","","11","","12.9","","100.09","","","","-50","","NA"
"-95.85","68.64","GJOA HAVEN A","2302337","2023-02-27 03:00","2023","02","27","03:00","-38.0","","-42.6","","63","","0.0","","9","","9","","12.9","","100.15","","","","-48","","NA"
"-95.85","68.64","GJOA HAVEN A","2302337","2023-02-27 04:00","2023","02","27","04:00","-37.8","","-42.3","","64","","0.0","","10","","9","","12.9","","100.18","","","","-48","","NA"
"-95.85","68.64","GJOA HAVEN A","2302337","2023-02-27 05:00","2023","02","27","05:00","-38.3","","-42.9","","63","","0.0","","5","","9","","12.9","","100.17","","","","-48","","NA"
"-95.85","68.64","GJOA HAVEN A","2302337","2023-02-27 06:00","2023","02","27","06:00","-38.3","","-42.8","","64","","0.0","","8","","11","","12.9","","100.17","","","","-50","","NA"
"-95.85","68.64","GJOA HAVEN A","2302337","2023-02-27 07:00","2023","02","27","07:00","-39.7","","-44.4","","62","","0.0","","5","","13","","12.9","","100.20","","","","-52","","NA"
"-95.85","68.64","GJOA HAVEN A","2302337","2023-02-27 08:00","2023","02","27","08:00","-39.6","","-44.3","","62","","0.0","","5","","13","","12.9","","100.22","","","","-52","","NA"
"-95.85","68.64","GJOA HAVEN A","2302337","2023-02-27 09:00","2023","02","27","09:00","-38.9","","-43.5","","63","","0.0","","7","","11","","11.3","","100.24","","","","-50","","NA"
"-95.85","68.64","GJOA HAVEN A","2302337","2023-02-27 10:00","2023","02","27","10:00","-37.7","","-42.2","","64","","0.0","","9","","4","","12.9","","100.22","","","","-43","","NA"
"-95.85","68.64","GJOA HAVEN A","2302337","2023-02-27 11:00","2023","02","27","11:00","-37.5","","-42.2","","63","","0.0","","4","","8","","11.3","","100.21","","","","-47","","NA"
"-95.85","68.64","GJOA HAVEN A","2302337","2023-02-27 12:00","2023","02","27","12:00","-37.4","","-42.1","","63","","0.0","","1","","9","","12.9","","100.23","","","","-47","","NA"
"-95.85","68.64","GJOA HAVEN A","2302337","2023-02-27 13:00","2023","02","27","13:00","-37.4","","-42.1","","63","","0.0","","3","","13","","12.9","","100.26","","","","-50","","NA"
"-95.85","68.64","GJOA HAVEN A","2302337","2023-02-27 14:00","2023","02","27","14:00","-37.5","","-42.2","","63","","0.0","","2","","15","","11.3","","100.28","","","","-51","","NA"
"-95.85","68.64","GJOA HAVEN A","2302337","2023-02-27 15:00","2023","02","27","15:00","-37.4","","-42.1","","63","","0.0","","3","","18","","12.9","","100.33","","","","-52","","NA"
"-95.85","68.64","GJOA HAVEN A","2302337","2023-02-27 16:00","2023","02","27","16:00","-38.0","","-42.6","","63","","0.0","","4","","18","","12.9","","100.37","","","","-52","","NA"
"-95.85","68.64","GJOA HAVEN A","2302337","2023-02-27 17:00","2023","02","27","17:00","-37.6","","-42.1","","64","","0.0","","3","","13","","12.9","","100.40","","","","-50","","NA"
"-95.85","68.64","GJOA HAVEN A","2302337","2023-02-27 18:00","2023","02","27","18:00","-38.4","","-43.0","","63","","0.0","","3","","17","","12.9","","100.43","","","","-53","","NA"
"-95.85","68.64","GJOA HAVEN A","2302337","2023-02-27 19:00","2023","02","27","19:00","-38.4","","-43.0","","63","","0.0","","4","","18","","12.9","","100.46","","","","-53","","NA"
"-95.85","68.64","GJOA HAVEN A","2302337","2023-02-27 20:00","2023","02","27","20:00","-38.3","","-42.9","","63","","0.0","","3","","17","","12.9","","100.51","","","","-52","","NA"
"-95.85","68.64","GJOA HAVEN A","2302337","2023-02-27 21:00","2023","02","27","21:00","-38.3","","-42.9","","63","","0.0","","3","","21","","12.9","","100.51","","","","-54","","NA"
"-95.85","68.64","GJOA HAVEN A","2302337","2023-02-27 22:00","2023","02","27","22:00","-38.1","","-42.7","","63","","0.0","","2","","13","","12.9","","100.52","","","","-50","","NA"
"-95.85","68.64","GJOA HAVEN A","2302337","2023-02-27 23:00","2023","02","27","23:00","-37.8","","-42.3","","64","","0.0","","3","","17","","12.9","","100.57","","","","-52","","NA"
"-95.85","68.64","GJOA HAVEN A","2302337","2023-02-28 00:00","2023","02","28","00:00","-37.7","","-42.2","","64","","0.0","","36","","15","","11.3","","100.58","","","","-51","","NA"
"-95.85","68.64","GJOA HAVEN A","2302337","2023-02-28 01:00","2023","02","28","01:00","-37.2","","-41.7","","64","","0.0","","34","","15","","11.3","","100.62","","","","-50","","NA"
"-95.85","68.64","GJOA HAVEN A","2302337","2023-02-28 02:00","2023","02","28","02:00","-36.7","","-40.9","","66","","0.0","","32","","15","","11.3","","100.63","","","","-50","","NA"
"-95.85","68.64","GJOA HAVEN A","2302337","2023-02-28 03:00","2023","02","28","03:00","-38.3","","-42.8","","64","","0.0","","30","","15","","4.8","","100.65","","","","-52","","Haze"
"-95.85","68.64","GJOA HAVEN A","2302337","2023-02-28 04:00","2023","02","28","04:00","-35.4","","-39.7","","66","","0.0","","30","","11","","11.3","","100.68","","","","-46","","NA"
"-95.85","68.64","GJOA HAVEN A","2302337","2023-02-28 05:00","2023","02","28","05:00","-37.3","","-41.8","","64","","0.0","","26","","9","","9.7","","100.70","","","","-47","","Snow"
"-95.85","68.64","GJOA HAVEN A","2302337","2023-02-28 06:00","2023","02","28","06:00","-39.2","","-43.9","","62","","0.0","","24","","11","","1.2","","100.72","","","","-51","","Haze"
"-95.85","68.64","GJOA HAVEN A","2302337","2023-02-28 07:00","2023","02","28","07:00","-38.6","","-43.2","","63","","0.0","","23","","9","","1.2","","100.76","","","","-49","","Haze"
"-95.85","68.64","GJOA HAVEN A","2302337","2023-02-28 08:00","2023","02","28","08:00","-38.6","","-43.2","","63","","0.0","","25","","15","","1.2","","100.77","","","","-52","","Haze"
"-95.85","68.64","GJOA HAVEN A","2302337","2023-02-28 09:00","2023","02","28","09:00","-38.3","","-42.9","","63","","0.0","","25","","13","","2.4","","100.79","","","","-51","","Haze"
"-95.85","68.64","GJOA HAVEN A","2302337","2023-02-28 10:00","2023","02","28","10:00","-38.1","","-42.7","","63","","0.0","","23","","13","","6.4","","100.80","","","","-50","","Haze"
"-95.85","68.64","GJOA HAVEN A","2302337","2023-02-28 11:00","2023","02","28","11:00","-36.8","","-41.3","","64","","0.0","","26","","13","","9.7","","100.82","","","","-49","","Haze"
"-95.85","68.64","GJOA HAVEN A","2302337","2023-02-28 12:00","2023","02","28","12:00","-36.9","","-41.4","","64","","0.0","","23","","13","","4.8","","100.86","","","","-49","","Haze"
"-95.85","68.64","GJOA HAVEN A","2302337","2023-02-28 13:00","2023","02","28","13:00","-36.0","","-40.4","","65","","0.0","","23","","21","","9.7","","100.91","","","","-51","","Haze"
"-95.85","68.64","GJOA HAVEN A","2302337","2023-02-28 14:00","2023","02","28","14:00","-35.5","","-39.9","","65","","0.0","","24","","22","","9.7","","100.92","","","","-51","","Haze"
"-95.85","68.64","GJOA HAVEN A","2302337","2023-02-28 15:00","2023","02","28","15:00","-35.6","","-40.0","","65","","0.0","","22","","21","","11.3","","100.98","","","","-50","","NA"
"-95.85","68.64","GJOA HAVEN A","2302337","2023-02-28 16:00","2023","02","28","16:00","-36.4","","-40.9","","64","","0.0","","22","","24","","11.3","","101.00","","","","-52","","NA"
"-95.85","68.64","GJOA HAVEN A","2302337","2023-02-28 17:00","2023","02","28","17:00","-37.1","","-41.6","","64","","0.0","","22","","22","","11.3","","101.05","","","","-53","","NA"
"-95.85","68.64","GJOA HAVEN A","2302337","2023-02-28 18:00","2023","02","28","18:00","-37.7","","-42.2","","64","","0.0","","22","","22","","11.3","","101.06","","","","-53","","NA"
"-95.85","68.64","GJOA HAVEN A","2302337","2023-02-28 19:00","2023","02","28","19:00","-37.9","","-42.5","","63","","0.0","","22","","22","","11.3","","101.08","","","","-54","","NA"
"-95.85","68.64","GJOA HAVEN A","2302337","2023-02-28 20:00","2023","02","28","20:00","-38.2","","-42.8","","63","","0.0","","21","","22","","11.3","","101.11","","","","-54","","NA"
"-95.85","68.64","GJOA HAVEN A","2302337","2023-02-28 21:00","2023","02","28","21:00","-38.4","","-43.0","","63","","0.0","","21","","24","","11.3","","101.11","","","","-55","","NA"
"-95.85","68.64","GJOA HAVEN A","2302337","2023-02-28 22:00","2023","02","28","22:00","-37.9","","-42.5","","63","","0.0","","20","","24","","11.3","","101.12","","","","-54","","Snow"
"-95.85","68.64","GJOA HAVEN A","2302337","2023-02-28 23:00","2023","02","28","23:00","-37.5","","-42.0","","64","","0.0","","20","","22","","8.1","","101.13","","","","-53","","Snow"
