"Longitude (x)","Latitude (y)","Station Name","Climate ID","Date/Time (LST)","Year","Month","Day","Time (LST)","Temp (°C)","Temp Flag","Dew Point Temp (°C)","Dew Point Temp Flag","Rel Hum (%)","Rel Hum Flag","Precip. Amount (mm)","Precip. Amount Flag","Wind Dir (10s deg)","Wind Dir Flag","Wind Spd (km/h)","Wind Spd Flag","Visibility (km)","Visibility Flag","Stn Press (kPa)","Stn Press Flag","Hmdx","Hmdx Flag","Wind Chill","Wind Chill Flag","Weather"
"-59.19","55.08","MAKKOVIK A","8502588","2018-05-01 00:00","2018","05","01","00:00"
"-59.19","55.08","MAKKOVIK A","8502588","2018-05-01 01:00","2018","05","01","01:00"
"-59.19","55.08","MAKKOVIK A","8502588","2018-05-01 02:00","2018","05","01","02:00"
"-59.19","55.08","MAKKOVIK A","8502588","2018-05-01 03:00","2018","05","01","03:00"
"-59.19","55.08","MAKKOVIK A","8502588","2018-05-01 04:00","2018","05","01","04:00"
"-59.19","55.08","MAKKOVIK A","8502588","2018-05-01 05:00","2018","05","01","05:00","5.5","","-2.0","","59","","","","22","","31","","24.1","","99.97","","","","","","Mainly Clear"
"-59.19","55.08","MAKKOVIK A","8502588","2018-05-01 06:00","2018","05","01","06:00","6.0","","-1.6","","58","","","","22","","28","","24.1","","99.97","","","","","","NA"
"-59.19","55.08","MAKKOVIK A","8502588","2018-05-01 07:00","2018","05","01","07:00","7.1","","-0.7","","58","","","","23","","29","","24.1","","99.97","","","","","","NA"
"-59.19","55.08","MAKKOVIK A","8502588","2018-05-01 08:00","2018","05","01","08:00","8.1","","-0.3","","55","","","","24","","24","","24.1","","99.97","","","","","","Mainly Clear"
"-59.19","55.08","MAKKOVIK A","8502588","2018-05-01 09:00","2018","05","01","09:00","9.9","","0.0","","50","","","","23","","23","","24.1","","99.92","","","","","","NA"
"-59.19","55.08","MAKKOVIK A","8502588","2018-05-01 10:00","2018","05","01","10:00","10.5","","-0.2","","47","","","","25","","22","","24.1","","99.89","","","","","","NA"
"-59.19","55.08","MAKKOVIK A","8502588","2018-05-01 11:00","2018","05","01","11:00","11.2","","-1.1","","42","","","","27","","22","","24.1","","99.88","","","","","","Clear"
"-59.19","55.08","MAKKOVIK A","8502588","2018-05-01 12:00","2018","05","01","12:00","8.5","","-0.4","","53","","","","36","","18","","24.1","","99.88","","","","","","NA"
"-59.19","55.08","MAKKOVIK A","8502588","2018-05-01 13:00","2018","05","01","13:00","3.5","","-1.9","","67","","","","3","","16","","24.1","","99.94","","","","","","NA"
"-59.19","55.08","MAKKOVIK A","8502588","2018-05-01 14:00","2018","05","01","14:00","4.0","","-1.5","","67","","","","36","","12","","24.1","","99.94","","","","","","Mainly Clear"
"-59.19","55.08","MAKKOVIK A","8502588","2018-05-01 15:00","2018","05","01","15:00","1.9","","-1.5","","78","","","","4","","14","","24.1","","100.00","","","","","","NA"
"-59.19","55.08","MAKKOVIK A","8502588","2018-05-01 16:00","2018","05","01","16:00","1.5","","-1.1","","83","","","","4","","9","","24.1","","100.04","","","","","","NA"
"-59.19","55.08","MAKKOVIK A","8502588","2018-05-01 17:00","2018","05","01","17:00"
"-59.19","55.08","MAKKOVIK A","8502588","2018-05-01 18:00","2018","05","01","18:00"
"-59.19","55.08","MAKKOVIK A","8502588","2018-05-01 19:00","2018","05","01","19:00"
"-59.19","55.08","MAKKOVIK A","8502588","2018-05-01 20:00","2018","05","01","20:00"
"-59.19","55.08","MAKKOVIK A","8502588","2018-05-01 21:00","2018","05","01","21:00"
"-59.19","55.08","MAKKOVIK A","8502588","2018-05-01 22:00","2018","05","01","22:00"
"-59.19","55.08","MAKKOVIK A","8502588","2018-05-01 23:00","2018","05","01","23:00"
"-59.19","55.08","MAKKOVIK A","8502588","2018-05-02 00:00","2018","05","02","00:00"
"-59.19","55.08","MAKKOVIK A","8502588","2018-05-02 01:00","2018","05","02","01:00"
"-59.19","55.08","MAKKOVIK A","8502588","2018-05-02 02:00","2018","05","02","02:00"
"-59.19","55.08","MAKKOVIK A","8502588","2018-05-02 03:00","2018","05","02","03:00"
"-59.19","55.08","MAKKOVIK A","8502588","2018-05-02 04:00","2018","05","02","04:00"
"-59.19","55.08","MAKKOVIK A","8502588","2018-05-02 05:00","2018","05","02","05:00","-3.9","","-4.6","","95","","","","31","","19","","16.1","","100.11","","","","-10","","Snow"
"-59.19","55.08","MAKKOVIK A","8502588","2018-05-02 06:00","2018","05","02","06:00","-3.9","","-6.0","","85","","","","33","","25","","24.1","","100.15","","","","-11","","Snow"
"-59.19","55.08","MAKKOVIK A","8502588","2018-05-02 07:00","2018","05","02","07:00","-5.1","","-10.8","","65","","","","32","","10","","24.1","","100.18","","","","-9","","NA"
"-59.19","55.08","MAKKOVIK A","8502588","2018-05-02 08:00","2018","05","02","08:00","-5.4","","-10.2","","69","","","","31","","18","","24.1","","100.22","","","","-12","","Mostly Cloudy"
"-59.19","55.08","MAKKOVIK A","8502588","2018-05-02 09:00","2018","05","02","09:00","-5.3","","-9.8","","71","","","","30","","16","","24.1","","100.23","","","","-11","","NA"
"-59.19","55.08","MAKKOVIK A","8502588","2018-05-02 10:00","2018","05","02","10:00","-5.3","","-9.7","","72","","","","29","","16","","24.1","","100.26","","","","-11","","NA"
"-59.19","55.08","MAKKOVIK A","8502588","2018-05-02 11:00","2018","05","02","11:00","-5.0","","-9.5","","71","","","","32","","22","","24.1","","100.27","","","","-12","","Mostly Cloudy"
"-59.19","55.08","MAKKOVIK A","8502588","2018-05-02 12:00","2018","05","02","12:00","-4.9","","-9.1","","72","","","","33","","22","","24.1","","100.29","","","","-12","","NA"
"-59.19","55.08","MAKKOVIK A","8502588","2018-05-02 13:00","2018","05","02","13:00","-4.6","","-7.9","","78","","","","31","","20","","24.1","","100.31","","","","-11","","NA"
"-59.19","55.08","MAKKOVIK A","8502588","2018-05-02 14:00","2018","05","02","14:00","-4.4","","-7.3","","80","","","","33","","15","","24.1","","100.32","","","","-10","","Mostly Cloudy"
"-59.19","55.08","MAKKOVIK A","8502588","2018-05-02 15:00","2018","05","02","15:00","-4.0","","-6.5","","82","","","","34","","16","","24.1","","100.35","","","","-10","","NA"
"-59.19","55.08","MAKKOVIK A","8502588","2018-05-02 16:00","2018","05","02","16:00","-3.5","","-6.5","","80","","","","35","","22","","24.1","","100.37","","","","-10","","NA"
"-59.19","55.08","MAKKOVIK A","8502588","2018-05-02 17:00","2018","05","02","17:00"
"-59.19","55.08","MAKKOVIK A","8502588","2018-05-02 18:00","2018","05","02","18:00"
"-59.19","55.08","MAKKOVIK A","8502588","2018-05-02 19:00","2018","05","02","19:00"
"-59.19","55.08","MAKKOVIK A","8502588","2018-05-02 20:00","2018","05","02","20:00"
"-59.19","55.08","MAKKOVIK A","8502588","2018-05-02 21:00","2018","05","02","21:00"
"-59.19","55.08","MAKKOVIK A","8502588","2018-05-02 22:00","2018","05","02","22:00"
"-59.19","55.08","MAKKOVIK A","8502588","2018-05-02 23:00","2018","05","02","23:00"
"-59.19","55.08","MAKKOVIK A","8502588","2018-05-03 00:00","2018","05","03","00:00"
"-59.19","55.08","MAKKOVIK A","8502588","2018-05-03 01:00","2018","05","03","01:00"
"-59.19","55.08","MAKKOVIK A","8502588","2018-05-03 02:00","2018","05","03","02:00"
"-59.19","55.08","MAKKOVIK A","8502588","2018-05-03 03:00","2018","05","03","03:00"
"-59.19","55.08","MAKKOVIK A","8502588","2018-05-03 04:00","2018","05","03","04:00"
"-59.19","55.08","MAKKOVIK A","8502588","2018-05-03 05:00","2018","05","03","05:00","-9.2","","-11.6","","83","","","","31","","19","","16.1","","100.83","","","","-17","","Snow"
"-59.19","55.08","MAKKOVIK A","8502588","2018-05-03 06:00","2018","05","03","06:00","-9.7","","-13.6","","73","","","","33","","10","","19.3","","100.91","","","","-15","","Snow"
"-59.19","55.08","MAKKOVIK A","8502588","2018-05-03 07:00","2018","05","03","07:00","-9.7","","-13.8","","72","","","","28","","17","","19.3","","100.98","","","","-17","","Snow"
"-59.19","55.08","MAKKOVIK A","8502588","2018-05-03 08:00","2018","05","03","08:00","-9.5","","-14.5","","67","","","","30","","19","","24.1","","101.03","","","","-17","","Snow"
"-59.19","55.08","MAKKOVIK A","8502588","2018-05-03 09:00","2018","05","03","09:00","-8.9","","-14.2","","66","","","","30","","17","","24.1","","101.04","","","","-16","","NA"
"-59.19","55.08","MAKKOVIK A","8502588","2018-05-03 10:00","2018","05","03","10:00","-8.2","","-13.9","","64","","","","33","","14","","24.1","","101.08","","","","-14","","NA"
"-59.19","55.08","MAKKOVIK A","8502588","2018-05-03 11:00","2018","05","03","11:00","-7.8","","-13.7","","63","","","","31","","17","","24.1","","101.09","","","","-14","","Mainly Clear"
"-59.19","55.08","MAKKOVIK A","8502588","2018-05-03 12:00","2018","05","03","12:00","-7.7","","-13.6","","63","","","","31","","18","","24.1","","101.06","","","","-15","","NA"
"-59.19","55.08","MAKKOVIK A","8502588","2018-05-03 13:00","2018","05","03","13:00","-7.1","","-13.1","","63","","","","31","","16","","24.1","","101.08","","","","-13","","NA"
"-59.19","55.08","MAKKOVIK A","8502588","2018-05-03 14:00","2018","05","03","14:00","-6.6","","-12.5","","63","","","","30","","16","","24.1","","101.07","","","","-13","","Clear"
"-59.19","55.08","MAKKOVIK A","8502588","2018-05-03 15:00","2018","05","03","15:00","-5.9","","-13.2","","57","","","","30","","7","","24.1","","101.05","","","","-9","","NA"
"-59.19","55.08","MAKKOVIK A","8502588","2018-05-03 16:00","2018","05","03","16:00","-5.4","","-13.7","","53","","","","35","","4","","24.1","","101.03","","","","-7","","NA"
"-59.19","55.08","MAKKOVIK A","8502588","2018-05-03 17:00","2018","05","03","17:00"
"-59.19","55.08","MAKKOVIK A","8502588","2018-05-03 18:00","2018","05","03","18:00"
"-59.19","55.08","MAKKOVIK A","8502588","2018-05-03 19:00","2018","05","03","19:00"
"-59.19","55.08","MAKKOVIK A","8502588","2018-05-03 20:00","2018","05","03","20:00"
"-59.19","55.08","MAKKOVIK A","8502588","2018-05-03 21:00","2018","05","03","21:00"
"-59.19","55.08","MAKKOVIK A","8502588","2018-05-03 22:00","2018","05","03","22:00"
"-59.19","55.08","MAKKOVIK A","8502588","2018-05-03 23:00","2018","05","03","23:00"
"-59.19","55.08","MAKKOVIK A","8502588","2018-05-04 00:00","2018","05","04","00:00"
"-59.19","55.08","MAKKOVIK A","8502588","2018-05-04 01:00","2018","05","04","01:00"
"-59.19","55.08","MAKKOVIK A","8502588","2018-05-04 02:00","2018","05","04","02:00"
"-59.19","55.08","MAKKOVIK A","8502588","2018-05-04 03:00","2018","05","04","03:00"
"-59.19","55.08","MAKKOVIK A","8502588","2018-05-04 04:00","2018","05","04","04:00"
"-59.19","55.08","MAKKOVIK A","8502588","2018-05-04 05:00","2018","05","04","05:00","-5.1","","-13.6","","52","","","","21","","7","","24.1","","100.48","","","","-8","","Mostly Cloudy"
"-59.19","55.08","MAKKOVIK A","8502588","2018-05-04 06:00","2018","05","04","06:00","-3.5","","-12.7","","49","","","","23","","6","","24.1","","100.44","","","","-6","","NA"
"-59.19","55.08","MAKKOVIK A","8502588","2018-05-04 07:00","2018","05","04","07:00","-2.3","","-11.4","","50","","","","36","","2","","24.1","","100.37","","","","-3","","NA"
"-59.19","55.08","MAKKOVIK A","8502588","2018-05-04 08:00","2018","05","04","08:00","-0.6","","-11.0","","46","","","","36","","1","","24.1","","100.31","","","","-1","","Mostly Cloudy"
"-59.19","55.08","MAKKOVIK A","8502588","2018-05-04 09:00","2018","05","04","09:00","0.9","","-10.3","","43","","","","36","","2","","24.1","","100.25","","","","","","NA"
"-59.19","55.08","MAKKOVIK A","8502588","2018-05-04 10:00","2018","05","04","10:00","2.3","","-7.8","","48","","","","8","","4","","24.1","","100.18","","","","","","NA"
"-59.19","55.08","MAKKOVIK A","8502588","2018-05-04 11:00","2018","05","04","11:00","1.7","","-7.7","","50","","","","29","","6","","24.1","","100.09","","","","","","Mostly Cloudy"
"-59.19","55.08","MAKKOVIK A","8502588","2018-05-04 12:00","2018","05","04","12:00","4.6","","-6.7","","44","","","","27","","7","","24.1","","100.02","","","","","","NA"
"-59.19","55.08","MAKKOVIK A","8502588","2018-05-04 13:00","2018","05","04","13:00","6.5","","-5.0","","43","","","","23","","18","","24.1","","99.95","","","","","","NA"
"-59.19","55.08","MAKKOVIK A","8502588","2018-05-04 14:00","2018","05","04","14:00","6.6","","-5.0","","43","","","","23","","26","","24.1","","99.92","","","","","","Mainly Clear"
"-59.19","55.08","MAKKOVIK A","8502588","2018-05-04 15:00","2018","05","04","15:00","7.5","","-4.2","","43","","","","23","","23","","24.1","","99.90","","","","","","NA"
"-59.19","55.08","MAKKOVIK A","8502588","2018-05-04 16:00","2018","05","04","16:00","6.8","","-2.4","","52","","","","24","","28","","24.1","","99.92","","","","","","NA"
"-59.19","55.08","MAKKOVIK A","8502588","2018-05-04 17:00","2018","05","04","17:00"
"-59.19","55.08","MAKKOVIK A","8502588","2018-05-04 18:00","2018","05","04","18:00"
"-59.19","55.08","MAKKOVIK A","8502588","2018-05-04 19:00","2018","05","04","19:00"
"-59.19","55.08","MAKKOVIK A","8502588","2018-05-04 20:00","2018","05","04","20:00"
"-59.19","55.08","MAKKOVIK A","8502588","2018-05-04 21:00","2018","05","04","21:00"
"-59.19","55.08","MAKKOVIK A","8502588","2018-05-04 22:00","2018","05","04","22:00"
"-59.19","55.08","MAKKOVIK A","8502588","2018-05-04 23:00","2018","05","04","23:00"
"-59.19","55.08","MAKKOVIK A","8502588","2018-05-05 00:00","2018","05","05","00:00"
"-59.19","55.08","MAKKOVIK A","8502588","2018-05-05 01:00","2018","05","05","01:00"
"-59.19","55.08","MAKKOVIK A","8502588","2018-05-05 02:00","2018","05","05","02:00"
"-59.19","55.08","MAKKOVIK A","8502588","2018-05-05 03:00","2018","05","05","03:00"
"-59.19","55.08","MAKKOVIK A","8502588","2018-05-05 04:00","2018","05","05","04:00"
"-59.19","55.08","MAKKOVIK A","8502588","2018-05-05 05:00","2018","05","05","05:00","2.7","","-3.6","","63","","","","22","","14","","24.1","","99.82","","","","","","Mainly Clear"
"-59.19","55.08","MAKKOVIK A","8502588","2018-05-05 06:00","2018","05","05","06:00","3.2","","-3.4","","62","","","","24","","5","","24.1","","99.80","","","","","","NA"
"-59.19","55.08","MAKKOVIK A","8502588","2018-05-05 07:00","2018","05","05","07:00","4.3","","-3.8","","56","","","","36","","2","","24.1","","99.79","","","","","","NA"
"-59.19","55.08","MAKKOVIK A","8502588","2018-05-05 08:00","2018","05","05","08:00","5.3","","-3.0","","55","","","","36","","2","","24.1","","99.70","","","","","","Mostly Cloudy"
"-59.19","55.08","MAKKOVIK A","8502588","2018-05-05 09:00","2018","05","05","09:00","4.8","","-3.1","","56","","","","3","","7","","24.1","","99.68","","","","","","NA"
"-59.19","55.08","MAKKOVIK A","8502588","2018-05-05 10:00","2018","05","05","10:00","4.6","","-2.8","","59","","","","5","","8","","24.1","","99.62","","","","","","NA"
"-59.19","55.08","MAKKOVIK A","8502588","2018-05-05 11:00","2018","05","05","11:00","5.4","","-2.6","","56","","","","9","","14","","24.1","","99.55","","","","","","Mostly Cloudy"
"-59.19","55.08","MAKKOVIK A","8502588","2018-05-05 12:00","2018","05","05","12:00","5.8","","-3.5","","51","","","","10","","22","","24.1","","99.46","","","","","","NA"
"-59.19","55.08","MAKKOVIK A","8502588","2018-05-05 13:00","2018","05","05","13:00","4.5","","-2.3","","61","","","","10","","22","","24.1","","99.31","","","","","","NA"
"-59.19","55.08","MAKKOVIK A","8502588","2018-05-05 14:00","2018","05","05","14:00","4.5","","-3.1","","58","","","","10","","32","","24.1","","99.19","","","","","","Mostly Cloudy"
"-59.19","55.08","MAKKOVIK A","8502588","2018-05-05 15:00","2018","05","05","15:00","3.1","","-2.2","","68","","","","9","","35","","24.1","","99.12","","","","","","NA"
"-59.19","55.08","MAKKOVIK A","8502588","2018-05-05 16:00","2018","05","05","16:00","1.7","","-1.7","","78","","","","10","","41","","24.1","","99.09","","","","","","NA"
"-59.19","55.08","MAKKOVIK A","8502588","2018-05-05 17:00","2018","05","05","17:00"
"-59.19","55.08","MAKKOVIK A","8502588","2018-05-05 18:00","2018","05","05","18:00"
"-59.19","55.08","MAKKOVIK A","8502588","2018-05-05 19:00","2018","05","05","19:00"
"-59.19","55.08","MAKKOVIK A","8502588","2018-05-05 20:00","2018","05","05","20:00"
"-59.19","55.08","MAKKOVIK A","8502588","2018-05-05 21:00","2018","05","05","21:00"
"-59.19","55.08","MAKKOVIK A","8502588","2018-05-05 22:00","2018","05","05","22:00"
"-59.19","55.08","MAKKOVIK A","8502588","2018-05-05 23:00","2018","05","05","23:00"
"-59.19","55.08","MAKKOVIK A","8502588","2018-05-06 00:00","2018","05","06","00:00"
"-59.19","55.08","MAKKOVIK A","8502588","2018-05-06 01:00","2018","05","06","01:00"
"-59.19","55.08","MAKKOVIK A","8502588","2018-05-06 02:00","2018","05","06","02:00"
"-59.19","55.08","MAKKOVIK A","8502588","2018-05-06 03:00","2018","05","06","03:00"
"-59.19","55.08","MAKKOVIK A","8502588","2018-05-06 04:00","2018","05","06","04:00"
"-59.19","55.08","MAKKOVIK A","8502588","2018-05-06 05:00","2018","05","06","05:00","-0.5","","-0.5","","100","","","","28","","6","","3.2","","99.52","","","","-3","","Snow"
"-59.19","55.08","MAKKOVIK A","8502588","2018-05-06 06:00","2018","05","06","06:00","-0.3","","-0.4","","100","","","","30","","11","","3.2","","99.59","","","","-4","","Snow"
"-59.19","55.08","MAKKOVIK A","8502588","2018-05-06 07:00","2018","05","06","07:00","-0.1","","-0.2","","99","","","","28","","10","","4.0","","99.64","","","","-3","","Snow"
"-59.19","55.08","MAKKOVIK A","8502588","2018-05-06 08:00","2018","05","06","08:00","0.0","","-0.2","","99","","","","30","","9","","4.8","","99.69","","","","-3","","Drizzle"
"-59.19","55.08","MAKKOVIK A","8502588","2018-05-06 09:00","2018","05","06","09:00","0.1","","-0.2","","98","","","","30","","13","","8.1","","99.72","","","","","","Fog"
"-59.19","55.08","MAKKOVIK A","8502588","2018-05-06 10:00","2018","05","06","10:00","0.2","","-0.3","","97","","","","30","","14","","16.1","","99.78","","","","","","NA"
"-59.19","55.08","MAKKOVIK A","8502588","2018-05-06 11:00","2018","05","06","11:00","0.5","","-0.2","","95","","","","31","","11","","9.7","","99.83","","","","","","Snow"
"-59.19","55.08","MAKKOVIK A","8502588","2018-05-06 12:00","2018","05","06","12:00","1.5","","0.2","","91","","","","27","","9","","24.1","","99.85","","","","","","NA"
"-59.19","55.08","MAKKOVIK A","8502588","2018-05-06 13:00","2018","05","06","13:00","1.7","","0.2","","90","","","","28","","10","","24.1","","99.89","","","","","","NA"
"-59.19","55.08","MAKKOVIK A","8502588","2018-05-06 14:00","2018","05","06","14:00","1.8","","0.2","","89","","","","32","","10","","24.1","","99.92","","","","","","Mostly Cloudy"
"-59.19","55.08","MAKKOVIK A","8502588","2018-05-06 15:00","2018","05","06","15:00","1.6","","0.0","","89","","","","31","","10","","24.1","","99.94","","","","","","NA"
"-59.19","55.08","MAKKOVIK A","8502588","2018-05-06 16:00","2018","05","06","16:00","1.5","","0.0","","90","","","","36","","7","","24.1","","99.95","","","","","","NA"
"-59.19","55.08","MAKKOVIK A","8502588","2018-05-06 17:00","2018","05","06","17:00"
"-59.19","55.08","MAKKOVIK A","8502588","2018-05-06 18:00","2018","05","06","18:00"
"-59.19","55.08","MAKKOVIK A","8502588","2018-05-06 19:00","2018","05","06","19:00"
"-59.19","55.08","MAKKOVIK A","8502588","2018-05-06 20:00","2018","05","06","20:00"
"-59.19","55.08","MAKKOVIK A","8502588","2018-05-06 21:00","2018","05","06","21:00"
"-59.19","55.08","MAKKOVIK A","8502588","2018-05-06 22:00","2018","05","06","22:00"
"-59.19","55.08","MAKKOVIK A","8502588","2018-05-06 23:00","2018","05","06","23:00"
"-59.19","55.08","MAKKOVIK A","8502588","2018-05-07 00:00","2018","05","07","00:00"
"-59.19","55.08","MAKKOVIK A","8502588","2018-05-07 01:00","2018","05","07","01:00"
"-59.19","55.08","MAKKOVIK A","8502588","2018-05-07 02:00","2018","05","07","02:00"
"-59.19","55.08","MAKKOVIK A","8502588","2018-05-07 03:00","2018","05","07","03:00"
"-59.19","55.08","MAKKOVIK A","8502588","2018-05-07 04:00","2018","05","07","04:00"
"-59.19","55.08","MAKKOVIK A","8502588","2018-05-07 05:00","2018","05","07","05:00","-4.4","","-10.3","","64","","","","28","","28","","24.1","","100.20","","","","-12","","Mostly Cloudy"
"-59.19","55.08","MAKKOVIK A","8502588","2018-05-07 06:00","2018","05","07","06:00","-6.1","","-11.2","","67","","","","27","","36","","24.1","","100.22","","","","-15","","NA"
"-59.19","55.08","MAKKOVIK A","8502588","2018-05-07 07:00","2018","05","07","07:00","-5.8","","-11.5","","65","","","","27","","40","","24.1","","100.19","","","","-15","","NA"
"-59.19","55.08","MAKKOVIK A","8502588","2018-05-07 08:00","2018","05","07","08:00","-5.6","","-11.4","","64","","","","27","","35","","24.1","","100.18","","","","-14","","Clear"
"-59.19","55.08","MAKKOVIK A","8502588","2018-05-07 09:00","2018","05","07","09:00","-4.8","","-10.9","","63","","","","25","","37","","24.1","","100.15","","","","-14","","NA"
"-59.19","55.08","MAKKOVIK A","8502588","2018-05-07 10:00","2018","05","07","10:00","-4.3","","-10.8","","61","","","","27","","35","","24.1","","100.10","","","","-13","","NA"
"-59.19","55.08","MAKKOVIK A","8502588","2018-05-07 11:00","2018","05","07","11:00","-4.2","","-11.1","","59","","","","27","","41","","24.1","","100.07","","","","-13","","Mostly Cloudy"
"-59.19","55.08","MAKKOVIK A","8502588","2018-05-07 12:00","2018","05","07","12:00","-3.3","","-10.1","","60","","","","26","","44","","24.1","","100.01","","","","-12","","NA"
"-59.19","55.08","MAKKOVIK A","8502588","2018-05-07 13:00","2018","05","07","13:00","-3.2","","-9.8","","60","","","","27","","37","","24.1","","100.01","","","","-11","","NA"
"-59.19","55.08","MAKKOVIK A","8502588","2018-05-07 14:00","2018","05","07","14:00","-3.7","","-6.8","","79","","","","26","","34","","4.8","","99.98","","","","-12","","Snow"
"-59.19","55.08","MAKKOVIK A","8502588","2018-05-07 15:00","2018","05","07","15:00","-3.7","","-6.3","","82","","","","26","","34","","3.2","","99.97","","","","-12","","Snow"
"-59.19","55.08","MAKKOVIK A","8502588","2018-05-07 16:00","2018","05","07","16:00","-3.8","","-5.8","","87","","","","26","","40","","2.4","","99.99","","","","-12","","Snow,Blowing Snow"
"-59.19","55.08","MAKKOVIK A","8502588","2018-05-07 17:00","2018","05","07","17:00"
"-59.19","55.08","MAKKOVIK A","8502588","2018-05-07 18:00","2018","05","07","18:00"
"-59.19","55.08","MAKKOVIK A","8502588","2018-05-07 19:00","2018","05","07","19:00"
"-59.19","55.08","MAKKOVIK A","8502588","2018-05-07 20:00","2018","05","07","20:00"
"-59.19","55.08","MAKKOVIK A","8502588","2018-05-07 21:00","2018","05","07","21:00"
"-59.19","55.08","MAKKOVIK A","8502588","2018-05-07 22:00","2018","05","07","22:00"
"-59.19","55.08","MAKKOVIK A","8502588","2018-05-07 23:00","2018","05","07","23:00"
"-59.19","55.08","MAKKOVIK A","8502588","2018-05-08 00:00","2018","05","08","00:00"
"-59.19","55.08","MAKKOVIK A","8502588","2018-05-08 01:00","2018","05","08","01:00"
"-59.19","55.08","MAKKOVIK A","8502588","2018-05-08 02:00","2018","05","08","02:00"
"-59.19","55.08","MAKKOVIK A","8502588","2018-05-08 03:00","2018","05","08","03:00"
"-59.19","55.08","MAKKOVIK A","8502588","2018-05-08 04:00","2018","05","08","04:00"
"-59.19","55.08","MAKKOVIK A","8502588","2018-05-08 05:00","2018","05","08","05:00","-6.1","","-11.1","","68","","","","20","","17","","24.1","","100.35","","","","-12","","Clear"
"-59.19","55.08","MAKKOVIK A","8502588","2018-05-08 06:00","2018","05","08","06:00","-4.4","","-11.0","","60","","","","21","","12","","24.1","","100.29","","","","-9","","NA"
"-59.19","55.08","MAKKOVIK A","8502588","2018-05-08 07:00","2018","05","08","07:00","-2.0","","-11.0","","51","","","","20","","15","","24.1","","100.17","","","","-7","","NA"
"-59.19","55.08","MAKKOVIK A","8502588","2018-05-08 08:00","2018","05","08","08:00","-0.8","","-10.5","","48","","","","14","","13","","24.1","","99.96","","","","-5","","Clear"
"-59.19","55.08","MAKKOVIK A","8502588","2018-05-08 09:00","2018","05","08","09:00","1.2","","-8.9","","47","","","","15","","32","","24.1","","99.68","","","","","","NA"
"-59.19","55.08","MAKKOVIK A","8502588","2018-05-08 10:00","2018","05","08","10:00","1.9","","-8.3","","47","","","","15","","34","","24.1","","99.50","","","","","","NA"
"-59.19","55.08","MAKKOVIK A","8502588","2018-05-08 11:00","2018","05","08","11:00","0.0","","-3.7","","76","","","","19","","37","","3.2","","99.45","","","","-7","","Snow"
"-59.19","55.08","MAKKOVIK A","8502588","2018-05-08 12:00","2018","05","08","12:00","-0.4","","-1.6","","91","","","","13","","18","","3.2","","99.21","","","","-5","","Snow"
"-59.19","55.08","MAKKOVIK A","8502588","2018-05-08 13:00","2018","05","08","13:00","2.1","","-1.0","","80","","","","19","","37","","4.8","","99.01","","","","","","Rain"
"-59.19","55.08","MAKKOVIK A","8502588","2018-05-08 14:00","2018","05","08","14:00","3.9","","0.0","","76","","","","22","","37","","16.1","","98.80","","","","","","Mostly Cloudy"
"-59.19","55.08","MAKKOVIK A","8502588","2018-05-08 15:00","2018","05","08","15:00","5.5","","0.3","","69","","","","24","","41","","24.1","","98.68","","","","","","NA"
"-59.19","55.08","MAKKOVIK A","8502588","2018-05-08 16:00","2018","05","08","16:00","5.1","","0.8","","74","","","","24","","42","","24.1","","98.72","","","","","","NA"
"-59.19","55.08","MAKKOVIK A","8502588","2018-05-08 17:00","2018","05","08","17:00"
"-59.19","55.08","MAKKOVIK A","8502588","2018-05-08 18:00","2018","05","08","18:00"
"-59.19","55.08","MAKKOVIK A","8502588","2018-05-08 19:00","2018","05","08","19:00"
"-59.19","55.08","MAKKOVIK A","8502588","2018-05-08 20:00","2018","05","08","20:00"
"-59.19","55.08","MAKKOVIK A","8502588","2018-05-08 21:00","2018","05","08","21:00"
"-59.19","55.08","MAKKOVIK A","8502588","2018-05-08 22:00","2018","05","08","22:00"
"-59.19","55.08","MAKKOVIK A","8502588","2018-05-08 23:00","2018","05","08","23:00"
"-59.19","55.08","MAKKOVIK A","8502588","2018-05-09 00:00","2018","05","09","00:00"
"-59.19","55.08","MAKKOVIK A","8502588","2018-05-09 01:00","2018","05","09","01:00"
"-59.19","55.08","MAKKOVIK A","8502588","2018-05-09 02:00","2018","05","09","02:00"
"-59.19","55.08","MAKKOVIK A","8502588","2018-05-09 03:00","2018","05","09","03:00"
"-59.19","55.08","MAKKOVIK A","8502588","2018-05-09 04:00","2018","05","09","04:00"
"-59.19","55.08","MAKKOVIK A","8502588","2018-05-09 05:00","2018","05","09","05:00","-5.5","","-11.6","","62","","","","27","","71","","24.1","","99.70","","","","-17","","Mostly Cloudy"
"-59.19","55.08","MAKKOVIK A","8502588","2018-05-09 06:00","2018","05","09","06:00","-5.6","","-11.6","","63","","","","27","","70","","24.1","","99.79","","","","-17","","NA"
"-59.19","55.08","MAKKOVIK A","8502588","2018-05-09 07:00","2018","05","09","07:00","-5.6","","-11.0","","66","","","","27","","56","","11.3","","99.91","","","","-16","","Snow"
"-59.19","55.08","MAKKOVIK A","8502588","2018-05-09 08:00","2018","05","09","08:00","-5.4","","-10.3","","68","","","","28","","60","","4.8","","99.99","","","","-16","","Snow"
"-59.19","55.08","MAKKOVIK A","8502588","2018-05-09 09:00","2018","05","09","09:00","-4.8","","-9.9","","68","","","","27","","59","","4.8","","100.15","","","","-15","","Snow"
"-59.19","55.08","MAKKOVIK A","8502588","2018-05-09 10:00","2018","05","09","10:00","-4.6","","-9.1","","71","","","","27","","61","","4.8","","100.32","","","","-15","","Snow"
"-59.19","55.08","MAKKOVIK A","8502588","2018-05-09 11:00","2018","05","09","11:00","-5.2","","-7.0","","87","","","","28","","48","","1.0","","100.52","","","","-15","","Snow,Blowing Snow"
"-59.19","55.08","MAKKOVIK A","8502588","2018-05-09 12:00","2018","05","09","12:00","-4.9","","-6.6","","88","","","","29","","46","","1.0","","100.69","","","","-14","","Snow,Blowing Snow"
"-59.19","55.08","MAKKOVIK A","8502588","2018-05-09 13:00","2018","05","09","13:00","-4.1","","-8.0","","74","","","","29","","50","","4.0","","100.87","","","","-14","","Snow,Blowing Snow"
"-59.19","55.08","MAKKOVIK A","8502588","2018-05-09 14:00","2018","05","09","14:00","-3.0","","-8.5","","66","","","","30","","39","","16.1","","101.03","","","","-11","","Cloudy"
"-59.19","55.08","MAKKOVIK A","8502588","2018-05-09 15:00","2018","05","09","15:00","-2.7","","-8.8","","63","","","","30","","30","","24.1","","101.15","","","","-10","","NA"
"-59.19","55.08","MAKKOVIK A","8502588","2018-05-09 16:00","2018","05","09","16:00","-2.3","","-9.8","","56","","","","30","","32","","24.1","","101.23","","","","-10","","NA"
"-59.19","55.08","MAKKOVIK A","8502588","2018-05-09 17:00","2018","05","09","17:00"
"-59.19","55.08","MAKKOVIK A","8502588","2018-05-09 18:00","2018","05","09","18:00"
"-59.19","55.08","MAKKOVIK A","8502588","2018-05-09 19:00","2018","05","09","19:00"
"-59.19","55.08","MAKKOVIK A","8502588","2018-05-09 20:00","2018","05","09","20:00"
"-59.19","55.08","MAKKOVIK A","8502588","2018-05-09 21:00","2018","05","09","21:00"
"-59.19","55.08","MAKKOVIK A","8502588","2018-05-09 22:00","2018","05","09","22:00"
"-59.19","55.08","MAKKOVIK A","8502588","2018-05-09 23:00","2018","05","09","23:00"
"-59.19","55.08","MAKKOVIK A","8502588","2018-05-10 00:00","2018","05","10","00:00"
"-59.19","55.08","MAKKOVIK A","8502588","2018-05-10 01:00","2018","05","10","01:00"
"-59.19","55.08","MAKKOVIK A","8502588","2018-05-10 02:00","2018","05","10","02:00"
"-59.19","55.08","MAKKOVIK A","8502588","2018-05-10 03:00","2018","05","10","03:00"
"-59.19","55.08","MAKKOVIK A","8502588","2018-05-10 04:00","2018","05","10","04:00"
"-59.19","55.08","MAKKOVIK A","8502588","2018-05-10 05:00","2018","05","10","05:00","-3.9","","-11.0","","58","","","","13","","4","","24.1","","100.84","","","","-6","","Clear"
"-59.19","55.08","MAKKOVIK A","8502588","2018-05-10 06:00","2018","05","10","06:00","-0.7","","-10.6","","47","","","","15","","6","","24.1","","100.62","","","","-3","","NA"
"-59.19","55.08","MAKKOVIK A","8502588","2018-05-10 07:00","2018","05","10","07:00","2.3","","-8.9","","43","","","","22","","30","","24.1","","100.49","","","","","","NA"
"-59.19","55.08","MAKKOVIK A","8502588","2018-05-10 08:00","2018","05","10","08:00","3.6","","-8.4","","41","","","","20","","39","","24.1","","100.34","","","","","","Cloudy"
"-59.19","55.08","MAKKOVIK A","8502588","2018-05-10 09:00","2018","05","10","09:00","3.2","","-6.4","","49","","","","19","","18","","19.3","","100.13","","","","","","Snow"
"-59.19","55.08","MAKKOVIK A","8502588","2018-05-10 10:00","2018","05","10","10:00","3.8","","-6.1","","48","","","","13","","17","","19.3","","99.92","","","","","","Rain"
"-59.19","55.08","MAKKOVIK A","8502588","2018-05-10 11:00","2018","05","10","11:00","6.5","","-4.3","","46","","","","20","","21","","24.1","","99.72","","","","","","Mostly Cloudy"
"-59.19","55.08","MAKKOVIK A","8502588","2018-05-10 12:00","2018","05","10","12:00","7.9","","-3.5","","44","","","","21","","32","","24.1","","99.49","","","","","","NA"
"-59.19","55.08","MAKKOVIK A","8502588","2018-05-10 13:00","2018","05","10","13:00","9.0","","-3.2","","42","","","","21","","33","","24.1","","99.28","","","","","","NA"
"-59.19","55.08","MAKKOVIK A","8502588","2018-05-10 14:00","2018","05","10","14:00","10.8","","-3.1","","37","","","","22","","42","","24.1","","99.10","","","","","","Mostly Cloudy"
"-59.19","55.08","MAKKOVIK A","8502588","2018-05-10 15:00","2018","05","10","15:00","11.5","","-2.8","","37","","","","22","","49","","24.1","","98.93","","","","","","NA"
"-59.19","55.08","MAKKOVIK A","8502588","2018-05-10 16:00","2018","05","10","16:00","11.7","","-3.0","","36","","","","22","","37","","24.1","","98.81","","","","","","NA"
"-59.19","55.08","MAKKOVIK A","8502588","2018-05-10 17:00","2018","05","10","17:00"
"-59.19","55.08","MAKKOVIK A","8502588","2018-05-10 18:00","2018","05","10","18:00"
"-59.19","55.08","MAKKOVIK A","8502588","2018-05-10 19:00","2018","05","10","19:00"
"-59.19","55.08","MAKKOVIK A","8502588","2018-05-10 20:00","2018","05","10","20:00"
"-59.19","55.08","MAKKOVIK A","8502588","2018-05-10 21:00","2018","05","10","21:00"
"-59.19","55.08","MAKKOVIK A","8502588","2018-05-10 22:00","2018","05","10","22:00"
"-59.19","55.08","MAKKOVIK A","8502588","2018-05-10 23:00","2018","05","10","23:00"
"-59.19","55.08","MAKKOVIK A","8502588","2018-05-11 00:00","2018","05","11","00:00"
"-59.19","55.08","MAKKOVIK A","8502588","2018-05-11 01:00","2018","05","11","01:00"
"-59.19","55.08","MAKKOVIK A","8502588","2018-05-11 02:00","2018","05","11","02:00"
"-59.19","55.08","MAKKOVIK A","8502588","2018-05-11 03:00","2018","05","11","03:00"
"-59.19","55.08","MAKKOVIK A","8502588","2018-05-11 04:00","2018","05","11","04:00"
"-59.19","55.08","MAKKOVIK A","8502588","2018-05-11 05:00","2018","05","11","05:00","6.4","","-0.2","","63","","","","21","","39","","24.1","","97.77","","","","","","Mostly Cloudy"
"-59.19","55.08","MAKKOVIK A","8502588","2018-05-11 06:00","2018","05","11","06:00","6.0","","0.2","","66","","","","22","","37","","24.1","","97.67","","","","","","NA"
"-59.19","55.08","MAKKOVIK A","8502588","2018-05-11 07:00","2018","05","11","07:00","5.1","","0.9","","74","","","","22","","24","","24.1","","97.62","","","","","","NA"
"-59.19","55.08","MAKKOVIK A","8502588","2018-05-11 08:00","2018","05","11","08:00","5.7","","1.7","","76","","","","20","","26","","24.1","","97.54","","","","","","Cloudy"
"-59.19","55.08","MAKKOVIK A","8502588","2018-05-11 09:00","2018","05","11","09:00","5.6","","1.6","","75","","","","21","","25","","19.3","","97.46","","","","","","Rain"
"-59.19","55.08","MAKKOVIK A","8502588","2018-05-11 10:00","2018","05","11","10:00","5.7","","1.5","","74","","","","21","","25","","24.1","","97.32","","","","","","NA"
"-59.19","55.08","MAKKOVIK A","8502588","2018-05-11 11:00","2018","05","11","11:00","6.1","","1.6","","73","","","","22","","15","","24.1","","97.23","","","","","","Mostly Cloudy"
"-59.19","55.08","MAKKOVIK A","8502588","2018-05-11 12:00","2018","05","11","12:00","5.7","","1.6","","75","","","","25","","17","","24.1","","97.15","","","","","","NA"
"-59.19","55.08","MAKKOVIK A","8502588","2018-05-11 13:00","2018","05","11","13:00","5.2","","1.9","","79","","","","25","","22","","24.1","","97.06","","","","","","NA"
"-59.19","55.08","MAKKOVIK A","8502588","2018-05-11 14:00","2018","05","11","14:00","4.6","","2.6","","87","","","","23","","16","","11.3","","97.04","","","","","","Rain"
"-59.19","55.08","MAKKOVIK A","8502588","2018-05-11 15:00","2018","05","11","15:00","3.6","","2.7","","94","","","","25","","18","","11.3","","96.98","","","","","","Rain"
"-59.19","55.08","MAKKOVIK A","8502588","2018-05-11 16:00","2018","05","11","16:00","-0.6","","-1.4","","95","","","","29","","35","","3.2","","97.02","","","","-8","","Snow"
"-59.19","55.08","MAKKOVIK A","8502588","2018-05-11 17:00","2018","05","11","17:00"
"-59.19","55.08","MAKKOVIK A","8502588","2018-05-11 18:00","2018","05","11","18:00"
"-59.19","55.08","MAKKOVIK A","8502588","2018-05-11 19:00","2018","05","11","19:00"
"-59.19","55.08","MAKKOVIK A","8502588","2018-05-11 20:00","2018","05","11","20:00"
"-59.19","55.08","MAKKOVIK A","8502588","2018-05-11 21:00","2018","05","11","21:00"
"-59.19","55.08","MAKKOVIK A","8502588","2018-05-11 22:00","2018","05","11","22:00"
"-59.19","55.08","MAKKOVIK A","8502588","2018-05-11 23:00","2018","05","11","23:00"
"-59.19","55.08","MAKKOVIK A","8502588","2018-05-12 00:00","2018","05","12","00:00"
"-59.19","55.08","MAKKOVIK A","8502588","2018-05-12 01:00","2018","05","12","01:00"
"-59.19","55.08","MAKKOVIK A","8502588","2018-05-12 02:00","2018","05","12","02:00"
"-59.19","55.08","MAKKOVIK A","8502588","2018-05-12 03:00","2018","05","12","03:00"
"-59.19","55.08","MAKKOVIK A","8502588","2018-05-12 04:00","2018","05","12","04:00"
"-59.19","55.08","MAKKOVIK A","8502588","2018-05-12 05:00","2018","05","12","05:00","-7.5","","-11.3","","75","","","","26","","54","","8.1","","98.98","","","","-19","","Snow,Blowing Snow"
"-59.19","55.08","MAKKOVIK A","8502588","2018-05-12 06:00","2018","05","12","06:00","-7.8","","-12.3","","70","","","","27","","57","","6.4","","99.08","","","","-19","","Snow,Blowing Snow"
"-59.19","55.08","MAKKOVIK A","8502588","2018-05-12 07:00","2018","05","12","07:00","-7.5","","-12.7","","67","","","","27","","53","","16.1","","99.17","","","","-19","","Blowing Snow"
"-59.19","55.08","MAKKOVIK A","8502588","2018-05-12 08:00","2018","05","12","08:00","-6.7","","-12.5","","64","","","","26","","55","","24.1","","99.19","","","","-18","","Blowing Snow"
"-59.19","55.08","MAKKOVIK A","8502588","2018-05-12 09:00","2018","05","12","09:00","-5.6","","-11.2","","65","","","","26","","52","","24.1","","99.18","","","","-16","","Blowing Snow"
"-59.19","55.08","MAKKOVIK A","8502588","2018-05-12 10:00","2018","05","12","10:00","-4.5","","-10.9","","61","","","","27","","55","","24.1","","99.18","","","","-15","","Blowing Snow"
"-59.19","55.08","MAKKOVIK A","8502588","2018-05-12 11:00","2018","05","12","11:00","-3.2","","-10.4","","58","","","","27","","49","","24.1","","99.24","","","","-12","","Mostly Cloudy"
"-59.19","55.08","MAKKOVIK A","8502588","2018-05-12 12:00","2018","05","12","12:00","-2.7","","-10.2","","56","","","","27","","52","","24.1","","99.28","","","","-12","","NA"
"-59.19","55.08","MAKKOVIK A","8502588","2018-05-12 13:00","2018","05","12","13:00","-2.1","","-9.6","","57","","","","27","","44","","24.1","","99.30","","","","-11","","NA"
"-59.19","55.08","MAKKOVIK A","8502588","2018-05-12 14:00","2018","05","12","14:00","-1.5","","-9.0","","57","","","","27","","39","","24.1","","99.32","","","","-9","","Mostly Cloudy"
"-59.19","55.08","MAKKOVIK A","8502588","2018-05-12 15:00","2018","05","12","15:00","-0.9","","-9.7","","52","","","","27","","52","","24.1","","99.30","","","","-10","","NA"
"-59.19","55.08","MAKKOVIK A","8502588","2018-05-12 16:00","2018","05","12","16:00","-0.8","","-9.9","","50","","","","27","","47","","24.1","","99.35","","","","-9","","NA"
"-59.19","55.08","MAKKOVIK A","8502588","2018-05-12 17:00","2018","05","12","17:00"
"-59.19","55.08","MAKKOVIK A","8502588","2018-05-12 18:00","2018","05","12","18:00"
"-59.19","55.08","MAKKOVIK A","8502588","2018-05-12 19:00","2018","05","12","19:00"
"-59.19","55.08","MAKKOVIK A","8502588","2018-05-12 20:00","2018","05","12","20:00"
"-59.19","55.08","MAKKOVIK A","8502588","2018-05-12 21:00","2018","05","12","21:00"
"-59.19","55.08","MAKKOVIK A","8502588","2018-05-12 22:00","2018","05","12","22:00"
"-59.19","55.08","MAKKOVIK A","8502588","2018-05-12 23:00","2018","05","12","23:00"
"-59.19","55.08","MAKKOVIK A","8502588","2018-05-13 00:00","2018","05","13","00:00"
"-59.19","55.08","MAKKOVIK A","8502588","2018-05-13 01:00","2018","05","13","01:00"
"-59.19","55.08","MAKKOVIK A","8502588","2018-05-13 02:00","2018","05","13","02:00"
"-59.19","55.08","MAKKOVIK A","8502588","2018-05-13 03:00","2018","05","13","03:00"
"-59.19","55.08","MAKKOVIK A","8502588","2018-05-13 04:00","2018","05","13","04:00"
"-59.19","55.08","MAKKOVIK A","8502588","2018-05-13 05:00","2018","05","13","05:00","-5.9","","-9.6","","75","","","","29","","45","","4.0","","99.86","","","","-16","","Snow,Blowing Snow"
"-59.19","55.08","MAKKOVIK A","8502588","2018-05-13 06:00","2018","05","13","06:00","-7.0","","-12.9","","63","","","","26","","37","","24.1","","99.97","","","","-16","","NA"
"-59.19","55.08","MAKKOVIK A","8502588","2018-05-13 07:00","2018","05","13","07:00","-7.3","","-15.2","","54","","","","28","","37","","24.1","","100.02","","","","-17","","NA"
"-59.19","55.08","MAKKOVIK A","8502588","2018-05-13 08:00","2018","05","13","08:00","-7.1","","-14.9","","54","","","","27","","34","","24.1","","100.06","","","","-16","","Mostly Cloudy"
"-59.19","55.08","MAKKOVIK A","8502588","2018-05-13 09:00","2018","05","13","09:00","-7.8","","-13.6","","63","","","","30","","37","","24.1","","100.10","","","","-18","","NA"
"-59.19","55.08","MAKKOVIK A","8502588","2018-05-13 10:00","2018","05","13","10:00","-7.6","","-14.1","","60","","","","31","","32","","24.1","","100.11","","","","-17","","NA"
"-59.19","55.08","MAKKOVIK A","8502588","2018-05-13 11:00","2018","05","13","11:00","-7.0","","-14.0","","58","","","","28","","42","","24.1","","100.09","","","","-17","","Mostly Cloudy"
"-59.19","55.08","MAKKOVIK A","8502588","2018-05-13 12:00","2018","05","13","12:00","-6.8","","-15.3","","51","","","","28","","34","","24.1","","100.10","","","","-16","","NA"
"-59.19","55.08","MAKKOVIK A","8502588","2018-05-13 13:00","2018","05","13","13:00","-6.0","","-15.2","","48","","","","29","","37","","24.1","","100.10","","","","-15","","NA"
"-59.19","55.08","MAKKOVIK A","8502588","2018-05-13 14:00","2018","05","13","14:00","-5.4","","-15.8","","44","","","","29","","31","","24.1","","100.07","","","","-14","","Mostly Cloudy"
"-59.19","55.08","MAKKOVIK A","8502588","2018-05-13 15:00","2018","05","13","15:00","-3.8","","-13.4","","48","","","","27","","24","","24.1","","100.03","","","","-11","","NA"
"-59.19","55.08","MAKKOVIK A","8502588","2018-05-13 16:00","2018","05","13","16:00","-4.0","","-13.9","","47","","","","30","","22","","24.1","","99.99","","","","-11","","NA"
"-59.19","55.08","MAKKOVIK A","8502588","2018-05-13 17:00","2018","05","13","17:00"
"-59.19","55.08","MAKKOVIK A","8502588","2018-05-13 18:00","2018","05","13","18:00"
"-59.19","55.08","MAKKOVIK A","8502588","2018-05-13 19:00","2018","05","13","19:00"
"-59.19","55.08","MAKKOVIK A","8502588","2018-05-13 20:00","2018","05","13","20:00"
"-59.19","55.08","MAKKOVIK A","8502588","2018-05-13 21:00","2018","05","13","21:00"
"-59.19","55.08","MAKKOVIK A","8502588","2018-05-13 22:00","2018","05","13","22:00"
"-59.19","55.08","MAKKOVIK A","8502588","2018-05-13 23:00","2018","05","13","23:00"
"-59.19","55.08","MAKKOVIK A","8502588","2018-05-14 00:00","2018","05","14","00:00"
"-59.19","55.08","MAKKOVIK A","8502588","2018-05-14 01:00","2018","05","14","01:00"
"-59.19","55.08","MAKKOVIK A","8502588","2018-05-14 02:00","2018","05","14","02:00"
"-59.19","55.08","MAKKOVIK A","8502588","2018-05-14 03:00","2018","05","14","03:00"
"-59.19","55.08","MAKKOVIK A","8502588","2018-05-14 04:00","2018","05","14","04:00"
"-59.19","55.08","MAKKOVIK A","8502588","2018-05-14 05:00","2018","05","14","05:00","-1.4","","-3.0","","89","","","","14","","13","","4.8","","98.54","","","","-6","","Snow"
"-59.19","55.08","MAKKOVIK A","8502588","2018-05-14 06:00","2018","05","14","06:00","-0.9","","-1.6","","95","","","","8","","5","","9.7","","98.49","","","","-3","","Freezing Rain,Fog"
"-59.19","55.08","MAKKOVIK A","8502588","2018-05-14 07:00","2018","05","14","07:00","-0.7","","-1.1","","97","","","","36","","3","","9.7","","98.41","","","","-2","","Freezing Rain,Fog"
"-59.19","55.08","MAKKOVIK A","8502588","2018-05-14 08:00","2018","05","14","08:00","1.1","","0.8","","98","","","","36","","3","","9.7","","98.34","","","","","","Rain,Fog"
"-59.19","55.08","MAKKOVIK A","8502588","2018-05-14 09:00","2018","05","14","09:00","2.4","","1.9","","97","","","","36","","2","","16.1","","98.27","","","","","","Rain"
"-59.19","55.08","MAKKOVIK A","8502588","2018-05-14 10:00","2018","05","14","10:00","2.1","","1.5","","96","","","","31","","7","","19.3","","98.29","","","","","","Rain"
"-59.19","55.08","MAKKOVIK A","8502588","2018-05-14 11:00","2018","05","14","11:00","1.8","","1.3","","97","","","","30","","16","","19.3","","98.36","","","","","","Cloudy"
"-59.19","55.08","MAKKOVIK A","8502588","2018-05-14 12:00","2018","05","14","12:00","0.2","","-0.3","","97","","","","29","","21","","19.3","","98.48","","","","","","NA"
"-59.19","55.08","MAKKOVIK A","8502588","2018-05-14 13:00","2018","05","14","13:00","-0.8","","-1.6","","94","","","","31","","25","","19.3","","98.55","","","","-7","","Snow"
"-59.19","55.08","MAKKOVIK A","8502588","2018-05-14 14:00","2018","05","14","14:00","-0.4","","-1.8","","90","","","","25","","16","","24.1","","98.65","","","","-5","","Cloudy"
"-59.19","55.08","MAKKOVIK A","8502588","2018-05-14 15:00","2018","05","14","15:00","-0.6","","-2.4","","88","","","","28","","16","","24.1","","98.71","","","","-5","","Snow Showers"
"-59.19","55.08","MAKKOVIK A","8502588","2018-05-14 16:00","2018","05","14","16:00","-0.3","","-2.1","","88","","","","29","","14","","24.1","","98.80","","","","-5","","NA"
"-59.19","55.08","MAKKOVIK A","8502588","2018-05-14 17:00","2018","05","14","17:00"
"-59.19","55.08","MAKKOVIK A","8502588","2018-05-14 18:00","2018","05","14","18:00"
"-59.19","55.08","MAKKOVIK A","8502588","2018-05-14 19:00","2018","05","14","19:00"
"-59.19","55.08","MAKKOVIK A","8502588","2018-05-14 20:00","2018","05","14","20:00"
"-59.19","55.08","MAKKOVIK A","8502588","2018-05-14 21:00","2018","05","14","21:00"
"-59.19","55.08","MAKKOVIK A","8502588","2018-05-14 22:00","2018","05","14","22:00"
"-59.19","55.08","MAKKOVIK A","8502588","2018-05-14 23:00","2018","05","14","23:00"
"-59.19","55.08","MAKKOVIK A","8502588","2018-05-15 00:00","2018","05","15","00:00"
"-59.19","55.08","MAKKOVIK A","8502588","2018-05-15 01:00","2018","05","15","01:00"
"-59.19","55.08","MAKKOVIK A","8502588","2018-05-15 02:00","2018","05","15","02:00"
"-59.19","55.08","MAKKOVIK A","8502588","2018-05-15 03:00","2018","05","15","03:00"
"-59.19","55.08","MAKKOVIK A","8502588","2018-05-15 04:00","2018","05","15","04:00"
"-59.19","55.08","MAKKOVIK A","8502588","2018-05-15 05:00","2018","05","15","05:00","-3.0","","-3.7","","94","","","","10","","7","","24.1","","99.39","","","","-6","","Mostly Cloudy"
"-59.19","55.08","MAKKOVIK A","8502588","2018-05-15 06:00","2018","05","15","06:00","-1.1","","-2.5","","90","","","","24","","9","","24.1","","99.50","","","","-4","","NA"
"-59.19","55.08","MAKKOVIK A","8502588","2018-05-15 07:00","2018","05","15","07:00","0.5","","-4.9","","67","","","","24","","16","","24.1","","99.43","","","","","","NA"
"-59.19","55.08","MAKKOVIK A","8502588","2018-05-15 08:00","2018","05","15","08:00","1.3","","-5.4","","61","","","","24","","12","","24.1","","99.41","","","","","","Mostly Cloudy"
"-59.19","55.08","MAKKOVIK A","8502588","2018-05-15 09:00","2018","05","15","09:00","2.2","","-4.7","","60","","","","18","","7","","24.1","","99.35","","","","","","NA"
"-59.19","55.08","MAKKOVIK A","8502588","2018-05-15 10:00","2018","05","15","10:00","3.9","","-4.3","","55","","","","28","","8","","24.1","","99.29","","","","","","NA"
"-59.19","55.08","MAKKOVIK A","8502588","2018-05-15 11:00","2018","05","15","11:00","3.6","","-3.0","","62","","","","35","","3","","24.1","","99.19","","","","","","Mostly Cloudy"
"-59.19","55.08","MAKKOVIK A","8502588","2018-05-15 12:00","2018","05","15","12:00","7.2","","-1.4","","54","","","","23","","18","","24.1","","99.06","","","","","","NA"
"-59.19","55.08","MAKKOVIK A","8502588","2018-05-15 13:00","2018","05","15","13:00","6.9","","-2.0","","53","","","","24","","15","","24.1","","98.96","","","","","","NA"
"-59.19","55.08","MAKKOVIK A","8502588","2018-05-15 14:00","2018","05","15","14:00","4.5","","-0.7","","69","","","","18","","22","","24.1","","98.93","","","","","","Rain"
"-59.19","55.08","MAKKOVIK A","8502588","2018-05-15 15:00","2018","05","15","15:00","3.4","","1.2","","85","","","","20","","13","","24.1","","98.87","","","","","","Rain"
"-59.19","55.08","MAKKOVIK A","8502588","2018-05-15 16:00","2018","05","15","16:00","2.4","","1.4","","93","","","","24","","10","","16.1","","98.81","","","","","","Rain"
"-59.19","55.08","MAKKOVIK A","8502588","2018-05-15 17:00","2018","05","15","17:00"
"-59.19","55.08","MAKKOVIK A","8502588","2018-05-15 18:00","2018","05","15","18:00"
"-59.19","55.08","MAKKOVIK A","8502588","2018-05-15 19:00","2018","05","15","19:00"
"-59.19","55.08","MAKKOVIK A","8502588","2018-05-15 20:00","2018","05","15","20:00"
"-59.19","55.08","MAKKOVIK A","8502588","2018-05-15 21:00","2018","05","15","21:00"
"-59.19","55.08","MAKKOVIK A","8502588","2018-05-15 22:00","2018","05","15","22:00"
"-59.19","55.08","MAKKOVIK A","8502588","2018-05-15 23:00","2018","05","15","23:00"
"-59.19","55.08","MAKKOVIK A","8502588","2018-05-16 00:00","2018","05","16","00:00"
"-59.19","55.08","MAKKOVIK A","8502588","2018-05-16 01:00","2018","05","16","01:00"
"-59.19","55.08","MAKKOVIK A","8502588","2018-05-16 02:00","2018","05","16","02:00"
"-59.19","55.08","MAKKOVIK A","8502588","2018-05-16 03:00","2018","05","16","03:00"
"-59.19","55.08","MAKKOVIK A","8502588","2018-05-16 04:00","2018","05","16","04:00"
"-59.19","55.08","MAKKOVIK A","8502588","2018-05-16 05:00","2018","05","16","05:00","-6.7","","-12.0","","66","","","","27","","50","","24.1","","99.13","","","","-17","","Cloudy"
"-59.19","55.08","MAKKOVIK A","8502588","2018-05-16 06:00","2018","05","16","06:00","-6.5","","-11.1","","70","","","","27","","51","","8.1","","99.20","","","","-17","","Snow"
"-59.19","55.08","MAKKOVIK A","8502588","2018-05-16 07:00","2018","05","16","07:00","-6.1","","-10.9","","69","","","","27","","51","","16.1","","99.28","","","","-17","","Snow,Blowing Snow"
"-59.19","55.08","MAKKOVIK A","8502588","2018-05-16 08:00","2018","05","16","08:00","-5.1","","-12.1","","58","","","","29","","61","","24.1","","99.30","","","","-16","","Mostly Cloudy"
"-59.19","55.08","MAKKOVIK A","8502588","2018-05-16 09:00","2018","05","16","09:00","-5.1","","-12.7","","55","","","","27","","67","","24.1","","99.42","","","","-16","","NA"
"-59.19","55.08","MAKKOVIK A","8502588","2018-05-16 10:00","2018","05","16","10:00","-4.8","","-12.2","","57","","","","28","","49","","24.1","","99.57","","","","-15","","NA"
"-59.19","55.08","MAKKOVIK A","8502588","2018-05-16 11:00","2018","05","16","11:00","-5.5","","-13.9","","52","","","","29","","73","","24.1","","99.57","","","","-17","","Mostly Cloudy"
"-59.19","55.08","MAKKOVIK A","8502588","2018-05-16 12:00","2018","05","16","12:00","-5.0","","-13.4","","52","","","","28","","68","","24.1","","99.65","","","","-16","","NA"
"-59.19","55.08","MAKKOVIK A","8502588","2018-05-16 13:00","2018","05","16","13:00","-4.6","","-12.8","","53","","","","27","","71","","24.1","","99.76","","","","-16","","NA"
"-59.19","55.08","MAKKOVIK A","8502588","2018-05-16 14:00","2018","05","16","14:00","-4.7","","-13.7","","50","","","","28","","61","","24.1","","99.94","","","","-15","","Mostly Cloudy"
"-59.19","55.08","MAKKOVIK A","8502588","2018-05-16 15:00","2018","05","16","15:00","-4.2","","-12.8","","51","","","","28","","40","","24.1","","100.06","","","","-13","","NA"
"-59.19","55.08","MAKKOVIK A","8502588","2018-05-16 16:00","2018","05","16","16:00","-4.5","","-13.5","","49","","","","28","","48","","24.1","","100.13","","","","-14","","NA"
"-59.19","55.08","MAKKOVIK A","8502588","2018-05-16 17:00","2018","05","16","17:00"
"-59.19","55.08","MAKKOVIK A","8502588","2018-05-16 18:00","2018","05","16","18:00"
"-59.19","55.08","MAKKOVIK A","8502588","2018-05-16 19:00","2018","05","16","19:00"
"-59.19","55.08","MAKKOVIK A","8502588","2018-05-16 20:00","2018","05","16","20:00"
"-59.19","55.08","MAKKOVIK A","8502588","2018-05-16 21:00","2018","05","16","21:00"
"-59.19","55.08","MAKKOVIK A","8502588","2018-05-16 22:00","2018","05","16","22:00"
"-59.19","55.08","MAKKOVIK A","8502588","2018-05-16 23:00","2018","05","16","23:00"
"-59.19","55.08","MAKKOVIK A","8502588","2018-05-17 00:00","2018","05","17","00:00"
"-59.19","55.08","MAKKOVIK A","8502588","2018-05-17 01:00","2018","05","17","01:00"
"-59.19","55.08","MAKKOVIK A","8502588","2018-05-17 02:00","2018","05","17","02:00"
"-59.19","55.08","MAKKOVIK A","8502588","2018-05-17 03:00","2018","05","17","03:00"
"-59.19","55.08","MAKKOVIK A","8502588","2018-05-17 04:00","2018","05","17","04:00"
"-59.19","55.08","MAKKOVIK A","8502588","2018-05-17 05:00","2018","05","17","05:00","-6.3","","-13.7","","56","","","","27","","28","","24.1","","100.18","","","","-14","","Clear"
"-59.19","55.08","MAKKOVIK A","8502588","2018-05-17 06:00","2018","05","17","06:00","-5.7","","-14.0","","52","","","","27","","29","","24.1","","100.20","","","","-14","","NA"
"-59.19","55.08","MAKKOVIK A","8502588","2018-05-17 07:00","2018","05","17","07:00","-5.9","","-15.4","","47","","","","28","","36","","24.1","","100.19","","","","-15","","NA"
"-59.19","55.08","MAKKOVIK A","8502588","2018-05-17 08:00","2018","05","17","08:00","-5.4","","-15.5","","45","","","","27","","36","","24.1","","100.18","","","","-14","","Clear"
"-59.19","55.08","MAKKOVIK A","8502588","2018-05-17 09:00","2018","05","17","09:00","-5.0","","-15.2","","45","","","","29","","35","","24.1","","100.12","","","","-14","","NA"
"-59.19","55.08","MAKKOVIK A","8502588","2018-05-17 10:00","2018","05","17","10:00","-4.5","","-14.8","","45","","","","29","","39","","24.1","","100.08","","","","-13","","NA"
"-59.19","55.08","MAKKOVIK A","8502588","2018-05-17 11:00","2018","05","17","11:00","-3.9","","-13.9","","46","","","","28","","35","","24.1","","100.08","","","","-12","","Mostly Cloudy"
"-59.19","55.08","MAKKOVIK A","8502588","2018-05-17 12:00","2018","05","17","12:00","-3.7","","-13.0","","49","","","","29","","40","","24.1","","100.08","","","","-12","","NA"
"-59.19","55.08","MAKKOVIK A","8502588","2018-05-17 13:00","2018","05","17","13:00","-2.7","","-13.4","","44","","","","26","","40","","24.1","","100.07","","","","-11","","NA"
"-59.19","55.08","MAKKOVIK A","8502588","2018-05-17 14:00","2018","05","17","14:00","-3.4","","-13.5","","46","","","","28","","41","","24.1","","100.10","","","","-12","","Mostly Cloudy"
"-59.19","55.08","MAKKOVIK A","8502588","2018-05-17 15:00","2018","05","17","15:00","-2.5","","-12.7","","45","","","","26","","41","","24.1","","100.08","","","","-11","","NA"
"-59.19","55.08","MAKKOVIK A","8502588","2018-05-17 16:00","2018","05","17","16:00","-2.3","","-11.1","","51","","","","29","","37","","24.1","","100.10","","","","-10","","NA"
"-59.19","55.08","MAKKOVIK A","8502588","2018-05-17 17:00","2018","05","17","17:00"
"-59.19","55.08","MAKKOVIK A","8502588","2018-05-17 18:00","2018","05","17","18:00"
"-59.19","55.08","MAKKOVIK A","8502588","2018-05-17 19:00","2018","05","17","19:00"
"-59.19","55.08","MAKKOVIK A","8502588","2018-05-17 20:00","2018","05","17","20:00"
"-59.19","55.08","MAKKOVIK A","8502588","2018-05-17 21:00","2018","05","17","21:00"
"-59.19","55.08","MAKKOVIK A","8502588","2018-05-17 22:00","2018","05","17","22:00"
"-59.19","55.08","MAKKOVIK A","8502588","2018-05-17 23:00","2018","05","17","23:00"
"-59.19","55.08","MAKKOVIK A","8502588","2018-05-18 00:00","2018","05","18","00:00"
"-59.19","55.08","MAKKOVIK A","8502588","2018-05-18 01:00","2018","05","18","01:00"
"-59.19","55.08","MAKKOVIK A","8502588","2018-05-18 02:00","2018","05","18","02:00"
"-59.19","55.08","MAKKOVIK A","8502588","2018-05-18 03:00","2018","05","18","03:00"
"-59.19","55.08","MAKKOVIK A","8502588","2018-05-18 04:00","2018","05","18","04:00"
"-59.19","55.08","MAKKOVIK A","8502588","2018-05-18 05:00","2018","05","18","05:00","-5.5","","-11.5","","63","","","","25","","34","","24.1","","100.18","","","","-14","","Mainly Clear"
"-59.19","55.08","MAKKOVIK A","8502588","2018-05-18 06:00","2018","05","18","06:00","-4.4","","-11.3","","59","","","","26","","46","","24.1","","100.13","","","","-14","","NA"
"-59.19","55.08","MAKKOVIK A","8502588","2018-05-18 07:00","2018","05","18","07:00","-3.5","","-11.0","","56","","","","26","","48","","24.1","","100.10","","","","-13","","NA"
"-59.19","55.08","MAKKOVIK A","8502588","2018-05-18 08:00","2018","05","18","08:00","-3.2","","-11.0","","55","","","","27","","47","","24.1","","100.06","","","","-12","","Cloudy"
"-59.19","55.08","MAKKOVIK A","8502588","2018-05-18 09:00","2018","05","18","09:00","-2.8","","-9.7","","59","","","","27","","50","","24.1","","100.09","","","","-12","","NA"
"-59.19","55.08","MAKKOVIK A","8502588","2018-05-18 10:00","2018","05","18","10:00","-2.0","","-8.2","","63","","","","28","","40","","24.1","","100.09","","","","-10","","Snow"
"-59.19","55.08","MAKKOVIK A","8502588","2018-05-18 11:00","2018","05","18","11:00","-1.7","","-8.0","","62","","","","28","","48","","24.1","","100.09","","","","-10","","Snow"
"-59.19","55.08","MAKKOVIK A","8502588","2018-05-18 12:00","2018","05","18","12:00","-1.6","","-5.5","","75","","","","28","","44","","4.8","","100.12","","","","-10","","Snow"
"-59.19","55.08","MAKKOVIK A","8502588","2018-05-18 13:00","2018","05","18","13:00","-1.8","","-5.9","","74","","","","28","","49","","4.0","","100.13","","","","-11","","Snow"
"-59.19","55.08","MAKKOVIK A","8502588","2018-05-18 14:00","2018","05","18","14:00","-1.5","","-5.5","","74","","","","28","","41","","4.0","","100.15","","","","-9","","Snow"
"-59.19","55.08","MAKKOVIK A","8502588","2018-05-18 15:00","2018","05","18","15:00","-1.0","","-6.7","","66","","","","29","","46","","8.1","","100.17","","","","-9","","Snow"
"-59.19","55.08","MAKKOVIK A","8502588","2018-05-18 16:00","2018","05","18","16:00","-1.3","","-6.0","","70","","","","28","","48","","8.1","","100.21","","","","-10","","Snow"
"-59.19","55.08","MAKKOVIK A","8502588","2018-05-18 17:00","2018","05","18","17:00"
"-59.19","55.08","MAKKOVIK A","8502588","2018-05-18 18:00","2018","05","18","18:00"
"-59.19","55.08","MAKKOVIK A","8502588","2018-05-18 19:00","2018","05","18","19:00"
"-59.19","55.08","MAKKOVIK A","8502588","2018-05-18 20:00","2018","05","18","20:00"
"-59.19","55.08","MAKKOVIK A","8502588","2018-05-18 21:00","2018","05","18","21:00"
"-59.19","55.08","MAKKOVIK A","8502588","2018-05-18 22:00","2018","05","18","22:00"
"-59.19","55.08","MAKKOVIK A","8502588","2018-05-18 23:00","2018","05","18","23:00"
"-59.19","55.08","MAKKOVIK A","8502588","2018-05-19 00:00","2018","05","19","00:00"
"-59.19","55.08","MAKKOVIK A","8502588","2018-05-19 01:00","2018","05","19","01:00"
"-59.19","55.08","MAKKOVIK A","8502588","2018-05-19 02:00","2018","05","19","02:00"
"-59.19","55.08","MAKKOVIK A","8502588","2018-05-19 03:00","2018","05","19","03:00"
"-59.19","55.08","MAKKOVIK A","8502588","2018-05-19 04:00","2018","05","19","04:00"
"-59.19","55.08","MAKKOVIK A","8502588","2018-05-19 05:00","2018","05","19","05:00","-4.9","","-10.2","","66","","","","26","","36","","24.1","","100.88","","","","-14","","Mostly Cloudy"
"-59.19","55.08","MAKKOVIK A","8502588","2018-05-19 06:00","2018","05","19","06:00","-4.2","","-9.5","","66","","","","28","","30","","24.1","","100.87","","","","-12","","NA"
"-59.19","55.08","MAKKOVIK A","8502588","2018-05-19 07:00","2018","05","19","07:00","-3.6","","-9.1","","66","","","","28","","26","","24.1","","100.86","","","","-11","","NA"
"-59.19","55.08","MAKKOVIK A","8502588","2018-05-19 08:00","2018","05","19","08:00","-3.8","","-9.9","","63","","","","29","","34","","24.1","","100.84","","","","-12","","Mostly Cloudy"
"-59.19","55.08","MAKKOVIK A","8502588","2018-05-19 09:00","2018","05","19","09:00","-2.7","","-9.0","","62","","","","29","","28","","24.1","","100.85","","","","-10","","NA"
"-59.19","55.08","MAKKOVIK A","8502588","2018-05-19 10:00","2018","05","19","10:00","-1.8","","-8.5","","61","","","","30","","29","","24.1","","100.80","","","","-9","","NA"
"-59.19","55.08","MAKKOVIK A","8502588","2018-05-19 11:00","2018","05","19","11:00","-1.3","","-8.1","","60","","","","29","","22","","24.1","","100.80","","","","-7","","Mainly Clear"
"-59.19","55.08","MAKKOVIK A","8502588","2018-05-19 12:00","2018","05","19","12:00","-0.9","","-7.6","","60","","","","31","","25","","24.1","","100.78","","","","-7","","NA"
"-59.19","55.08","MAKKOVIK A","8502588","2018-05-19 13:00","2018","05","19","13:00","-0.1","","-7.8","","57","","","","29","","28","","24.1","","100.79","","","","-6","","NA"
"-59.19","55.08","MAKKOVIK A","8502588","2018-05-19 14:00","2018","05","19","14:00","-0.1","","-7.1","","60","","","","31","","23","","24.1","","100.81","","","","-6","","Mainly Clear"
"-59.19","55.08","MAKKOVIK A","8502588","2018-05-19 15:00","2018","05","19","15:00","-0.4","","-7.4","","60","","","","36","","13","","24.1","","100.79","","","","-5","","NA"
"-59.19","55.08","MAKKOVIK A","8502588","2018-05-19 16:00","2018","05","19","16:00","-1.3","","-6.5","","68","","","","1","","15","","24.1","","100.80","","","","-6","","NA"
"-59.19","55.08","MAKKOVIK A","8502588","2018-05-19 17:00","2018","05","19","17:00"
"-59.19","55.08","MAKKOVIK A","8502588","2018-05-19 18:00","2018","05","19","18:00"
"-59.19","55.08","MAKKOVIK A","8502588","2018-05-19 19:00","2018","05","19","19:00"
"-59.19","55.08","MAKKOVIK A","8502588","2018-05-19 20:00","2018","05","19","20:00"
"-59.19","55.08","MAKKOVIK A","8502588","2018-05-19 21:00","2018","05","19","21:00"
"-59.19","55.08","MAKKOVIK A","8502588","2018-05-19 22:00","2018","05","19","22:00"
"-59.19","55.08","MAKKOVIK A","8502588","2018-05-19 23:00","2018","05","19","23:00"
"-59.19","55.08","MAKKOVIK A","8502588","2018-05-20 00:00","2018","05","20","00:00"
"-59.19","55.08","MAKKOVIK A","8502588","2018-05-20 01:00","2018","05","20","01:00"
"-59.19","55.08","MAKKOVIK A","8502588","2018-05-20 02:00","2018","05","20","02:00"
"-59.19","55.08","MAKKOVIK A","8502588","2018-05-20 03:00","2018","05","20","03:00"
"-59.19","55.08","MAKKOVIK A","8502588","2018-05-20 04:00","2018","05","20","04:00"
"-59.19","55.08","MAKKOVIK A","8502588","2018-05-20 05:00","2018","05","20","05:00","-2.7","","-5.5","","81","","","","36","","1","","24.1","","100.04","","","","-3","","Cloudy"
"-59.19","55.08","MAKKOVIK A","8502588","2018-05-20 06:00","2018","05","20","06:00","-0.4","","-5.3","","70","","","","18","","4","","24.1","","99.95","","","","-2","","NA"
"-59.19","55.08","MAKKOVIK A","8502588","2018-05-20 07:00","2018","05","20","07:00","0.0","","-3.1","","80","","","","36","","2","","19.3","","99.82","","","","-1","","Snow"
"-59.19","55.08","MAKKOVIK A","8502588","2018-05-20 08:00","2018","05","20","08:00","0.4","","-1.4","","87","","","","2","","5","","6.4","","99.71","","","","","","Snow"
"-59.19","55.08","MAKKOVIK A","8502588","2018-05-20 09:00","2018","05","20","09:00","-0.2","","-1.2","","93","","","","5","","12","","9.7","","99.52","","","","-4","","Freezing Rain"
"-59.19","55.08","MAKKOVIK A","8502588","2018-05-20 10:00","2018","05","20","10:00","1.3","","0.4","","94","","","","9","","10","","6.4","","99.35","","","","","","Rain"
"-59.19","55.08","MAKKOVIK A","8502588","2018-05-20 11:00","2018","05","20","11:00","1.1","","0.3","","94","","","","10","","22","","6.4","","99.19","","","","","","Snow"
"-59.19","55.08","MAKKOVIK A","8502588","2018-05-20 12:00","2018","05","20","12:00","0.6","","-0.2","","95","","","","9","","14","","4.8","","99.07","","","","","","Snow"
"-59.19","55.08","MAKKOVIK A","8502588","2018-05-20 13:00","2018","05","20","13:00","0.2","","-0.2","","97","","","","7","","13","","2.0","","98.94","","","","","","Snow"
"-59.19","55.08","MAKKOVIK A","8502588","2018-05-20 14:00","2018","05","20","14:00","-0.6","","-0.9","","98","","","","4","","17","","1.6","","98.82","","","","-6","","Snow"
"-59.19","55.08","MAKKOVIK A","8502588","2018-05-20 15:00","2018","05","20","15:00","-1.5","","-1.8","","98","","","","3","","15","","1.0","","98.77","","","","-6","","Snow"
"-59.19","55.08","MAKKOVIK A","8502588","2018-05-20 16:00","2018","05","20","16:00","-1.7","","-1.8","","99","","","","3","","20","","1.0","","98.77","","","","-7","","Snow"
"-59.19","55.08","MAKKOVIK A","8502588","2018-05-20 17:00","2018","05","20","17:00"
"-59.19","55.08","MAKKOVIK A","8502588","2018-05-20 18:00","2018","05","20","18:00"
"-59.19","55.08","MAKKOVIK A","8502588","2018-05-20 19:00","2018","05","20","19:00"
"-59.19","55.08","MAKKOVIK A","8502588","2018-05-20 20:00","2018","05","20","20:00"
"-59.19","55.08","MAKKOVIK A","8502588","2018-05-20 21:00","2018","05","20","21:00"
"-59.19","55.08","MAKKOVIK A","8502588","2018-05-20 22:00","2018","05","20","22:00"
"-59.19","55.08","MAKKOVIK A","8502588","2018-05-20 23:00","2018","05","20","23:00"
"-59.19","55.08","MAKKOVIK A","8502588","2018-05-21 00:00","2018","05","21","00:00"
"-59.19","55.08","MAKKOVIK A","8502588","2018-05-21 01:00","2018","05","21","01:00"
"-59.19","55.08","MAKKOVIK A","8502588","2018-05-21 02:00","2018","05","21","02:00"
"-59.19","55.08","MAKKOVIK A","8502588","2018-05-21 03:00","2018","05","21","03:00"
"-59.19","55.08","MAKKOVIK A","8502588","2018-05-21 04:00","2018","05","21","04:00"
"-59.19","55.08","MAKKOVIK A","8502588","2018-05-21 05:00","2018","05","21","05:00","-3.8","","-4.7","","93","","","","29","","18","","6.4","","99.39","","","","-10","","Snow"
"-59.19","55.08","MAKKOVIK A","8502588","2018-05-21 06:00","2018","05","21","06:00","-3.5","","-4.4","","94","","","","30","","18","","8.1","","99.42","","","","-9","","Snow"
"-59.19","55.08","MAKKOVIK A","8502588","2018-05-21 07:00","2018","05","21","07:00","-3.2","","-4.2","","93","","","","31","","25","","8.1","","99.46","","","","-10","","Snow"
"-59.19","55.08","MAKKOVIK A","8502588","2018-05-21 08:00","2018","05","21","08:00","-2.9","","-3.8","","94","","","","30","","21","","4.8","","99.50","","","","-9","","Snow"
"-59.19","55.08","MAKKOVIK A","8502588","2018-05-21 09:00","2018","05","21","09:00","-2.5","","-4.0","","89","","","","31","","18","","8.1","","99.53","","","","-8","","Snow"
"-59.19","55.08","MAKKOVIK A","8502588","2018-05-21 10:00","2018","05","21","10:00","-2.3","","-4.5","","85","","","","34","","17","","9.7","","99.57","","","","-8","","Snow"
"-59.19","55.08","MAKKOVIK A","8502588","2018-05-21 11:00","2018","05","21","11:00","-2.4","","-6.0","","76","","","","35","","17","","11.3","","99.62","","","","-8","","Snow"
"-59.19","55.08","MAKKOVIK A","8502588","2018-05-21 12:00","2018","05","21","12:00","-2.1","","-5.3","","79","","","","35","","16","","24.1","","99.66","","","","-7","","NA"
"-59.19","55.08","MAKKOVIK A","8502588","2018-05-21 13:00","2018","05","21","13:00","-2.5","","-6.2","","76","","","","35","","16","","24.1","","99.71","","","","-8","","NA"
"-59.19","55.08","MAKKOVIK A","8502588","2018-05-21 14:00","2018","05","21","14:00","-2.6","","-6.5","","75","","","","35","","14","","24.1","","99.77","","","","-7","","Mostly Cloudy"
"-59.19","55.08","MAKKOVIK A","8502588","2018-05-21 15:00","2018","05","21","15:00","-2.5","","-6.4","","75","","","","33","","15","","24.1","","99.79","","","","-7","","NA"
"-59.19","55.08","MAKKOVIK A","8502588","2018-05-21 16:00","2018","05","21","16:00","-2.6","","-6.5","","75","","","","33","","16","","24.1","","99.83","","","","-8","","NA"
"-59.19","55.08","MAKKOVIK A","8502588","2018-05-21 17:00","2018","05","21","17:00"
"-59.19","55.08","MAKKOVIK A","8502588","2018-05-21 18:00","2018","05","21","18:00"
"-59.19","55.08","MAKKOVIK A","8502588","2018-05-21 19:00","2018","05","21","19:00"
"-59.19","55.08","MAKKOVIK A","8502588","2018-05-21 20:00","2018","05","21","20:00"
"-59.19","55.08","MAKKOVIK A","8502588","2018-05-21 21:00","2018","05","21","21:00"
"-59.19","55.08","MAKKOVIK A","8502588","2018-05-21 22:00","2018","05","21","22:00"
"-59.19","55.08","MAKKOVIK A","8502588","2018-05-21 23:00","2018","05","21","23:00"
"-59.19","55.08","MAKKOVIK A","8502588","2018-05-22 00:00","2018","05","22","00:00"
"-59.19","55.08","MAKKOVIK A","8502588","2018-05-22 01:00","2018","05","22","01:00"
"-59.19","55.08","MAKKOVIK A","8502588","2018-05-22 02:00","2018","05","22","02:00"
"-59.19","55.08","MAKKOVIK A","8502588","2018-05-22 03:00","2018","05","22","03:00"
"-59.19","55.08","MAKKOVIK A","8502588","2018-05-22 04:00","2018","05","22","04:00"
"-59.19","55.08","MAKKOVIK A","8502588","2018-05-22 05:00","2018","05","22","05:00","-3.2","","-6.4","","79","","","","28","","18","","24.1","","100.32","","","","-9","","Mainly Clear"
"-59.19","55.08","MAKKOVIK A","8502588","2018-05-22 06:00","2018","05","22","06:00","-3.1","","-7.7","","71","","","","27","","24","","24.1","","100.33","","","","-10","","NA"
"-59.19","55.08","MAKKOVIK A","8502588","2018-05-22 07:00","2018","05","22","07:00","-2.6","","-8.4","","64","","","","28","","25","","24.1","","100.34","","","","-9","","NA"
"-59.19","55.08","MAKKOVIK A","8502588","2018-05-22 08:00","2018","05","22","08:00","-2.3","","-8.1","","65","","","","29","","26","","24.1","","100.36","","","","-9","","Mostly Cloudy"
"-59.19","55.08","MAKKOVIK A","8502588","2018-05-22 09:00","2018","05","22","09:00","-1.5","","-7.3","","64","","","","29","","16","","24.1","","100.34","","","","-6","","NA"
"-59.19","55.08","MAKKOVIK A","8502588","2018-05-22 10:00","2018","05","22","10:00","-0.4","","-6.5","","63","","","","27","","17","","24.1","","100.29","","","","-5","","NA"
"-59.19","55.08","MAKKOVIK A","8502588","2018-05-22 11:00","2018","05","22","11:00","0.0","","-5.9","","65","","","","32","","9","","24.1","","100.24","","","","-3","","Mostly Cloudy"
"-59.19","55.08","MAKKOVIK A","8502588","2018-05-22 12:00","2018","05","22","12:00","-1.3","","-6.3","","69","","","","6","","13","","24.1","","100.18","","","","-6","","NA"
"-59.19","55.08","MAKKOVIK A","8502588","2018-05-22 13:00","2018","05","22","13:00","-0.9","","-5.8","","69","","","","8","","7","","24.1","","100.13","","","","-3","","NA"
"-59.19","55.08","MAKKOVIK A","8502588","2018-05-22 14:00","2018","05","22","14:00","-0.3","","-5.3","","69","","","","35","","4","","16.1","","100.08","","","","-2","","Snow Showers"
"-59.19","55.08","MAKKOVIK A","8502588","2018-05-22 15:00","2018","05","22","15:00","0.8","","-6.2","","60","","","","31","","16","","24.1","","100.05","","","","","","NA"
"-59.19","55.08","MAKKOVIK A","8502588","2018-05-22 16:00","2018","05","22","16:00","1.0","","-7.9","","52","","","","31","","14","","24.1","","100.00","","","","","","NA"
"-59.19","55.08","MAKKOVIK A","8502588","2018-05-22 17:00","2018","05","22","17:00"
"-59.19","55.08","MAKKOVIK A","8502588","2018-05-22 18:00","2018","05","22","18:00"
"-59.19","55.08","MAKKOVIK A","8502588","2018-05-22 19:00","2018","05","22","19:00"
"-59.19","55.08","MAKKOVIK A","8502588","2018-05-22 20:00","2018","05","22","20:00"
"-59.19","55.08","MAKKOVIK A","8502588","2018-05-22 21:00","2018","05","22","21:00"
"-59.19","55.08","MAKKOVIK A","8502588","2018-05-22 22:00","2018","05","22","22:00"
"-59.19","55.08","MAKKOVIK A","8502588","2018-05-22 23:00","2018","05","22","23:00"
"-59.19","55.08","MAKKOVIK A","8502588","2018-05-23 00:00","2018","05","23","00:00"
"-59.19","55.08","MAKKOVIK A","8502588","2018-05-23 01:00","2018","05","23","01:00"
"-59.19","55.08","MAKKOVIK A","8502588","2018-05-23 02:00","2018","05","23","02:00"
"-59.19","55.08","MAKKOVIK A","8502588","2018-05-23 03:00","2018","05","23","03:00"
"-59.19","55.08","MAKKOVIK A","8502588","2018-05-23 04:00","2018","05","23","04:00"
"-59.19","55.08","MAKKOVIK A","8502588","2018-05-23 05:00","2018","05","23","05:00","-3.9","","-9.4","","66","","","","29","","28","","24.1","","100.20","","","","-11","","Mostly Cloudy"
"-59.19","55.08","MAKKOVIK A","8502588","2018-05-23 06:00","2018","05","23","06:00","-4.2","","-10.0","","64","","","","29","","32","","24.1","","100.26","","","","-12","","NA"
"-59.19","55.08","MAKKOVIK A","8502588","2018-05-23 07:00","2018","05","23","07:00","-3.8","","-9.7","","64","","","","28","","23","","24.1","","100.32","","","","-11","","NA"
"-59.19","55.08","MAKKOVIK A","8502588","2018-05-23 08:00","2018","05","23","08:00","-2.8","","-9.8","","59","","","","29","","37","","24.1","","100.35","","","","-11","","Mainly Clear"
"-59.19","55.08","MAKKOVIK A","8502588","2018-05-23 09:00","2018","05","23","09:00","-2.6","","-9.2","","61","","","","31","","38","","24.1","","100.40","","","","-11","","NA"
"-59.19","55.08","MAKKOVIK A","8502588","2018-05-23 10:00","2018","05","23","10:00","-2.2","","-8.3","","63","","","","30","","23","","19.3","","100.45","","","","-8","","Snow Showers"
"-59.19","55.08","MAKKOVIK A","8502588","2018-05-23 11:00","2018","05","23","11:00","-1.9","","-8.0","","63","","","","31","","25","","24.1","","100.50","","","","-8","","Mostly Cloudy"
"-59.19","55.08","MAKKOVIK A","8502588","2018-05-23 12:00","2018","05","23","12:00","-1.3","","-7.6","","63","","","","31","","22","","24.1","","100.54","","","","-7","","NA"
"-59.19","55.08","MAKKOVIK A","8502588","2018-05-23 13:00","2018","05","23","13:00","-1.2","","-7.9","","61","","","","31","","20","","24.1","","100.57","","","","-7","","NA"
"-59.19","55.08","MAKKOVIK A","8502588","2018-05-23 14:00","2018","05","23","14:00","-1.1","","-8.0","","60","","","","32","","24","","24.1","","100.60","","","","-7","","Mostly Cloudy"
"-59.19","55.08","MAKKOVIK A","8502588","2018-05-23 15:00","2018","05","23","15:00","-0.8","","-8.0","","59","","","","31","","18","","24.1","","100.63","","","","-6","","NA"
"-59.19","55.08","MAKKOVIK A","8502588","2018-05-23 16:00","2018","05","23","16:00","-0.9","","-8.4","","57","","","","33","","16","","24.1","","100.66","","","","-6","","NA"
"-59.19","55.08","MAKKOVIK A","8502588","2018-05-23 17:00","2018","05","23","17:00"
"-59.19","55.08","MAKKOVIK A","8502588","2018-05-23 18:00","2018","05","23","18:00"
"-59.19","55.08","MAKKOVIK A","8502588","2018-05-23 19:00","2018","05","23","19:00"
"-59.19","55.08","MAKKOVIK A","8502588","2018-05-23 20:00","2018","05","23","20:00"
"-59.19","55.08","MAKKOVIK A","8502588","2018-05-23 21:00","2018","05","23","21:00"
"-59.19","55.08","MAKKOVIK A","8502588","2018-05-23 22:00","2018","05","23","22:00"
"-59.19","55.08","MAKKOVIK A","8502588","2018-05-23 23:00","2018","05","23","23:00"
"-59.19","55.08","MAKKOVIK A","8502588","2018-05-24 00:00","2018","05","24","00:00"
"-59.19","55.08","MAKKOVIK A","8502588","2018-05-24 01:00","2018","05","24","01:00"
"-59.19","55.08","MAKKOVIK A","8502588","2018-05-24 02:00","2018","05","24","02:00"
"-59.19","55.08","MAKKOVIK A","8502588","2018-05-24 03:00","2018","05","24","03:00"
"-59.19","55.08","MAKKOVIK A","8502588","2018-05-24 04:00","2018","05","24","04:00"
"-59.19","55.08","MAKKOVIK A","8502588","2018-05-24 05:00","2018","05","24","05:00","-3.6","","-9.2","","65","","","","28","","17","","24.1","","100.84","","","","-9","","Mostly Cloudy"
"-59.19","55.08","MAKKOVIK A","8502588","2018-05-24 06:00","2018","05","24","06:00","-3.4","","-9.5","","63","","","","31","","13","","24.1","","100.89","","","","-8","","NA"
"-59.19","55.08","MAKKOVIK A","8502588","2018-05-24 07:00","2018","05","24","07:00","-3.3","","-9.0","","65","","","","30","","16","","24.1","","100.90","","","","-9","","NA"
"-59.19","55.08","MAKKOVIK A","8502588","2018-05-24 08:00","2018","05","24","08:00","-3.0","","-8.9","","64","","","","30","","12","","24.1","","100.90","","","","-7","","Cloudy"
"-59.19","55.08","MAKKOVIK A","8502588","2018-05-24 09:00","2018","05","24","09:00","-2.3","","-8.1","","64","","","","30","","14","","24.1","","100.86","","","","-7","","NA"
"-59.19","55.08","MAKKOVIK A","8502588","2018-05-24 10:00","2018","05","24","10:00","-2.0","","-8.6","","61","","","","30","","15","","24.1","","100.83","","","","-7","","NA"
"-59.19","55.08","MAKKOVIK A","8502588","2018-05-24 11:00","2018","05","24","11:00","-1.4","","-9.2","","56","","","","32","","17","","24.1","","100.82","","","","-7","","Mostly Cloudy"
"-59.19","55.08","MAKKOVIK A","8502588","2018-05-24 12:00","2018","05","24","12:00","-1.3","","-8.9","","57","","","","30","","14","","24.1","","100.78","","","","-6","","NA"
"-59.19","55.08","MAKKOVIK A","8502588","2018-05-24 13:00","2018","05","24","13:00","-0.7","","-8.3","","56","","","","30","","9","","24.1","","100.75","","","","-4","","NA"
"-59.19","55.08","MAKKOVIK A","8502588","2018-05-24 14:00","2018","05","24","14:00","-0.6","","-8.8","","54","","","","1","","12","","24.1","","100.69","","","","-5","","Mostly Cloudy"
"-59.19","55.08","MAKKOVIK A","8502588","2018-05-24 15:00","2018","05","24","15:00","-0.7","","-7.8","","59","","","","1","","13","","24.1","","100.65","","","","-5","","NA"
"-59.19","55.08","MAKKOVIK A","8502588","2018-05-24 16:00","2018","05","24","16:00","-1.0","","-8.1","","59","","","","3","","11","","24.1","","100.64","","","","-5","","NA"
"-59.19","55.08","MAKKOVIK A","8502588","2018-05-24 17:00","2018","05","24","17:00"
"-59.19","55.08","MAKKOVIK A","8502588","2018-05-24 18:00","2018","05","24","18:00"
"-59.19","55.08","MAKKOVIK A","8502588","2018-05-24 19:00","2018","05","24","19:00"
"-59.19","55.08","MAKKOVIK A","8502588","2018-05-24 20:00","2018","05","24","20:00"
"-59.19","55.08","MAKKOVIK A","8502588","2018-05-24 21:00","2018","05","24","21:00"
"-59.19","55.08","MAKKOVIK A","8502588","2018-05-24 22:00","2018","05","24","22:00"
"-59.19","55.08","MAKKOVIK A","8502588","2018-05-24 23:00","2018","05","24","23:00"
"-59.19","55.08","MAKKOVIK A","8502588","2018-05-25 00:00","2018","05","25","00:00"
"-59.19","55.08","MAKKOVIK A","8502588","2018-05-25 01:00","2018","05","25","01:00"
"-59.19","55.08","MAKKOVIK A","8502588","2018-05-25 02:00","2018","05","25","02:00"
"-59.19","55.08","MAKKOVIK A","8502588","2018-05-25 03:00","2018","05","25","03:00"
"-59.19","55.08","MAKKOVIK A","8502588","2018-05-25 04:00","2018","05","25","04:00"
"-59.19","55.08","MAKKOVIK A","8502588","2018-05-25 05:00","2018","05","25","05:00","-4.3","","-9.3","","68","","","","24","","4","","24.1","","100.13","","","","-6","","Clear"
"-59.19","55.08","MAKKOVIK A","8502588","2018-05-25 06:00","2018","05","25","06:00","-3.1","","-8.0","","69","","","","36","","2","","24.1","","100.11","","","","-4","","NA"
"-59.19","55.08","MAKKOVIK A","8502588","2018-05-25 07:00","2018","05","25","07:00","-1.3","","-9.5","","54","","","","36","","2","","24.1","","100.10","","","","-2","","NA"
"-59.19","55.08","MAKKOVIK A","8502588","2018-05-25 08:00","2018","05","25","08:00","-1.1","","-8.0","","60","","","","30","","5","","24.1","","100.06","","","","-3","","Clear"
"-59.19","55.08","MAKKOVIK A","8502588","2018-05-25 09:00","2018","05","25","09:00","-0.3","","-9.0","","52","","","","4","","11","","24.1","","100.03","","","","-4","","NA"
"-59.19","55.08","MAKKOVIK A","8502588","2018-05-25 10:00","2018","05","25","10:00","-0.4","","-7.1","","61","","","","3","","13","","24.1","","99.97","","","","-5","","NA"
"-59.19","55.08","MAKKOVIK A","8502588","2018-05-25 11:00","2018","05","25","11:00","0.2","","-7.7","","56","","","","9","","19","","24.1","","99.93","","","","","","Clear"
"-59.19","55.08","MAKKOVIK A","8502588","2018-05-25 12:00","2018","05","25","12:00","0.3","","-7.0","","58","","","","11","","19","","24.1","","99.88","","","","","","NA"
"-59.19","55.08","MAKKOVIK A","8502588","2018-05-25 13:00","2018","05","25","13:00","0.6","","-7.3","","56","","","","11","","20","","24.1","","99.86","","","","","","NA"
"-59.19","55.08","MAKKOVIK A","8502588","2018-05-25 14:00","2018","05","25","14:00","0.7","","-6.5","","59","","","","9","","18","","24.1","","99.84","","","","","","Clear"
"-59.19","55.08","MAKKOVIK A","8502588","2018-05-25 15:00","2018","05","25","15:00","0.7","","-6.0","","61","","","","10","","22","","24.1","","99.84","","","","","","NA"
"-59.19","55.08","MAKKOVIK A","8502588","2018-05-25 16:00","2018","05","25","16:00","0.7","","-4.8","","66","","","","10","","18","","24.1","","99.85","","","","","","NA"
"-59.19","55.08","MAKKOVIK A","8502588","2018-05-25 17:00","2018","05","25","17:00"
"-59.19","55.08","MAKKOVIK A","8502588","2018-05-25 18:00","2018","05","25","18:00"
"-59.19","55.08","MAKKOVIK A","8502588","2018-05-25 19:00","2018","05","25","19:00"
"-59.19","55.08","MAKKOVIK A","8502588","2018-05-25 20:00","2018","05","25","20:00"
"-59.19","55.08","MAKKOVIK A","8502588","2018-05-25 21:00","2018","05","25","21:00"
"-59.19","55.08","MAKKOVIK A","8502588","2018-05-25 22:00","2018","05","25","22:00"
"-59.19","55.08","MAKKOVIK A","8502588","2018-05-25 23:00","2018","05","25","23:00"
"-59.19","55.08","MAKKOVIK A","8502588","2018-05-26 00:00","2018","05","26","00:00"
"-59.19","55.08","MAKKOVIK A","8502588","2018-05-26 01:00","2018","05","26","01:00"
"-59.19","55.08","MAKKOVIK A","8502588","2018-05-26 02:00","2018","05","26","02:00"
"-59.19","55.08","MAKKOVIK A","8502588","2018-05-26 03:00","2018","05","26","03:00"
"-59.19","55.08","MAKKOVIK A","8502588","2018-05-26 04:00","2018","05","26","04:00"
"-59.19","55.08","MAKKOVIK A","8502588","2018-05-26 05:00","2018","05","26","05:00","-2.7","","-5.3","","82","","","","14","","3","","24.1","","100.13","","","","-4","","Mostly Cloudy"
"-59.19","55.08","MAKKOVIK A","8502588","2018-05-26 06:00","2018","05","26","06:00","-2.1","","-4.9","","81","","","","36","","2","","24.1","","100.18","","","","-3","","NA"
"-59.19","55.08","MAKKOVIK A","8502588","2018-05-26 07:00","2018","05","26","07:00","-1.1","","-4.8","","76","","","","36","","1","","24.1","","100.25","","","","-1","","NA"
"-59.19","55.08","MAKKOVIK A","8502588","2018-05-26 08:00","2018","05","26","08:00","0.9","","-5.2","","64","","","","4","","6","","24.1","","100.28","","","","","","Mostly Cloudy"
"-59.19","55.08","MAKKOVIK A","8502588","2018-05-26 09:00","2018","05","26","09:00","1.9","","-3.3","","68","","","","32","","7","","24.1","","100.35","","","","","","NA"
"-59.19","55.08","MAKKOVIK A","8502588","2018-05-26 10:00","2018","05","26","10:00","3.1","","-5.4","","54","","","","1","","7","","24.1","","100.40","","","","","","NA"
"-59.19","55.08","MAKKOVIK A","8502588","2018-05-26 11:00","2018","05","26","11:00","2.3","","-6.1","","54","","","","4","","10","","24.1","","100.45","","","","","","Mainly Clear"
"-59.19","55.08","MAKKOVIK A","8502588","2018-05-26 12:00","2018","05","26","12:00","2.4","","-5.8","","55","","","","4","","10","","24.1","","100.51","","","","","","NA"
"-59.19","55.08","MAKKOVIK A","8502588","2018-05-26 13:00","2018","05","26","13:00","2.8","","-6.0","","52","","","","4","","10","","24.1","","100.53","","","","","","NA"
"-59.19","55.08","MAKKOVIK A","8502588","2018-05-26 14:00","2018","05","26","14:00","1.4","","-3.6","","70","","","","4","","16","","24.1","","100.59","","","","","","Clear"
"-59.19","55.08","MAKKOVIK A","8502588","2018-05-26 15:00","2018","05","26","15:00","1.1","","-2.6","","76","","","","4","","10","","24.1","","100.66","","","","","","NA"
"-59.19","55.08","MAKKOVIK A","8502588","2018-05-26 16:00","2018","05","26","16:00","1.4","","-3.8","","68","","","","4","","8","","24.1","","100.71","","","","","","NA"
"-59.19","55.08","MAKKOVIK A","8502588","2018-05-26 17:00","2018","05","26","17:00"
"-59.19","55.08","MAKKOVIK A","8502588","2018-05-26 18:00","2018","05","26","18:00"
"-59.19","55.08","MAKKOVIK A","8502588","2018-05-26 19:00","2018","05","26","19:00"
"-59.19","55.08","MAKKOVIK A","8502588","2018-05-26 20:00","2018","05","26","20:00"
"-59.19","55.08","MAKKOVIK A","8502588","2018-05-26 21:00","2018","05","26","21:00"
"-59.19","55.08","MAKKOVIK A","8502588","2018-05-26 22:00","2018","05","26","22:00"
"-59.19","55.08","MAKKOVIK A","8502588","2018-05-26 23:00","2018","05","26","23:00"
"-59.19","55.08","MAKKOVIK A","8502588","2018-05-27 00:00","2018","05","27","00:00"
"-59.19","55.08","MAKKOVIK A","8502588","2018-05-27 01:00","2018","05","27","01:00"
"-59.19","55.08","MAKKOVIK A","8502588","2018-05-27 02:00","2018","05","27","02:00"
"-59.19","55.08","MAKKOVIK A","8502588","2018-05-27 03:00","2018","05","27","03:00"
"-59.19","55.08","MAKKOVIK A","8502588","2018-05-27 04:00","2018","05","27","04:00"
"-59.19","55.08","MAKKOVIK A","8502588","2018-05-27 05:00","2018","05","27","05:00","-1.7","","-5.0","","78","","","","30","","21","","24.1","","101.35","","","","-8","","Cloudy"
"-59.19","55.08","MAKKOVIK A","8502588","2018-05-27 06:00","2018","05","27","06:00","-1.7","","-5.7","","75","","","","29","","24","","24.1","","101.40","","","","-8","","NA"
"-59.19","55.08","MAKKOVIK A","8502588","2018-05-27 07:00","2018","05","27","07:00","-1.6","","-5.9","","73","","","","31","","26","","24.1","","101.46","","","","-8","","Snow Showers"
"-59.19","55.08","MAKKOVIK A","8502588","2018-05-27 08:00","2018","05","27","08:00","-1.5","","-5.6","","74","","","","31","","23","","24.1","","101.51","","","","-8","","Snow Showers"
"-59.19","55.08","MAKKOVIK A","8502588","2018-05-27 09:00","2018","05","27","09:00","-1.2","","-5.3","","73","","","","31","","18","","24.1","","101.55","","","","-6","","NA"
"-59.19","55.08","MAKKOVIK A","8502588","2018-05-27 10:00","2018","05","27","10:00","-1.1","","-5.7","","71","","","","32","","18","","24.1","","101.56","","","","-6","","NA"
"-59.19","55.08","MAKKOVIK A","8502588","2018-05-27 11:00","2018","05","27","11:00","-0.9","","-5.9","","69","","","","31","","14","","24.1","","101.54","","","","-5","","Mostly Cloudy"
"-59.19","55.08","MAKKOVIK A","8502588","2018-05-27 12:00","2018","05","27","12:00","-0.2","","-6.0","","65","","","","31","","16","","24.1","","101.52","","","","-5","","NA"
"-59.19","55.08","MAKKOVIK A","8502588","2018-05-27 13:00","2018","05","27","13:00","0.0","","-6.7","","61","","","","1","","9","","24.1","","101.52","","","","-3","","NA"
"-59.19","55.08","MAKKOVIK A","8502588","2018-05-27 14:00","2018","05","27","14:00","0.5","","-6.8","","58","","","","34","","12","","24.1","","101.50","","","","","","Mainly Clear"
"-59.19","55.08","MAKKOVIK A","8502588","2018-05-27 15:00","2018","05","27","15:00","0.4","","-7.3","","57","","","","35","","4","","24.1","","101.48","","","","","","NA"
"-59.19","55.08","MAKKOVIK A","8502588","2018-05-27 16:00","2018","05","27","16:00","0.3","","-7.0","","58","","","","2","","10","","24.1","","101.46","","","","","","NA"
"-59.19","55.08","MAKKOVIK A","8502588","2018-05-27 17:00","2018","05","27","17:00"
"-59.19","55.08","MAKKOVIK A","8502588","2018-05-27 18:00","2018","05","27","18:00"
"-59.19","55.08","MAKKOVIK A","8502588","2018-05-27 19:00","2018","05","27","19:00"
"-59.19","55.08","MAKKOVIK A","8502588","2018-05-27 20:00","2018","05","27","20:00"
"-59.19","55.08","MAKKOVIK A","8502588","2018-05-27 21:00","2018","05","27","21:00"
"-59.19","55.08","MAKKOVIK A","8502588","2018-05-27 22:00","2018","05","27","22:00"
"-59.19","55.08","MAKKOVIK A","8502588","2018-05-27 23:00","2018","05","27","23:00"
"-59.19","55.08","MAKKOVIK A","8502588","2018-05-28 00:00","2018","05","28","00:00"
"-59.19","55.08","MAKKOVIK A","8502588","2018-05-28 01:00","2018","05","28","01:00"
"-59.19","55.08","MAKKOVIK A","8502588","2018-05-28 02:00","2018","05","28","02:00"
"-59.19","55.08","MAKKOVIK A","8502588","2018-05-28 03:00","2018","05","28","03:00"
"-59.19","55.08","MAKKOVIK A","8502588","2018-05-28 04:00","2018","05","28","04:00"
"-59.19","55.08","MAKKOVIK A","8502588","2018-05-28 05:00","2018","05","28","05:00","-0.8","","-6.8","","64","","","","36","","2","","24.1","","100.74","","","","-1","","Clear"
"-59.19","55.08","MAKKOVIK A","8502588","2018-05-28 06:00","2018","05","28","06:00","0.8","","-5.4","","63","","","","36","","2","","24.1","","100.63","","","","","","NA"
"-59.19","55.08","MAKKOVIK A","8502588","2018-05-28 07:00","2018","05","28","07:00","4.6","","-5.0","","50","","","","36","","3","","24.1","","100.48","","","","","","NA"
"-59.19","55.08","MAKKOVIK A","8502588","2018-05-28 08:00","2018","05","28","08:00","5.0","","-4.5","","51","","","","16","","18","","24.1","","100.32","","","","","","Mainly Clear"
"-59.19","55.08","MAKKOVIK A","8502588","2018-05-28 09:00","2018","05","28","09:00","6.2","","-4.2","","47","","","","15","","24","","24.1","","100.15","","","","","","NA"
"-59.19","55.08","MAKKOVIK A","8502588","2018-05-28 10:00","2018","05","28","10:00","8.4","","-4.4","","40","","","","14","","28","","24.1","","99.99","","","","","","NA"
"-59.19","55.08","MAKKOVIK A","8502588","2018-05-28 11:00","2018","05","28","11:00","9.8","","-4.0","","38","","","","14","","31","","24.1","","99.80","","","","","","Mainly Clear"
"-59.19","55.08","MAKKOVIK A","8502588","2018-05-28 12:00","2018","05","28","12:00","10.2","","-2.4","","41","","","","14","","20","","24.1","","99.68","","","","","","NA"
"-59.19","55.08","MAKKOVIK A","8502588","2018-05-28 13:00","2018","05","28","13:00","10.7","","-2.7","","39","","","","16","","24","","24.1","","99.53","","","","","","NA"
"-59.19","55.08","MAKKOVIK A","8502588","2018-05-28 14:00","2018","05","28","14:00","13.5","","-2.2","","34","","","","20","","16","","24.1","","99.45","","","","","","Mostly Cloudy"
"-59.19","55.08","MAKKOVIK A","8502588","2018-05-28 15:00","2018","05","28","15:00","13.2","","-2.2","","34","","","","21","","14","","24.1","","99.32","","","","","","NA"
"-59.19","55.08","MAKKOVIK A","8502588","2018-05-28 16:00","2018","05","28","16:00","11.9","","-0.6","","42","","","","17","","29","","24.1","","99.13","","","","","","Rain"
"-59.19","55.08","MAKKOVIK A","8502588","2018-05-28 17:00","2018","05","28","17:00"
"-59.19","55.08","MAKKOVIK A","8502588","2018-05-28 18:00","2018","05","28","18:00"
"-59.19","55.08","MAKKOVIK A","8502588","2018-05-28 19:00","2018","05","28","19:00"
"-59.19","55.08","MAKKOVIK A","8502588","2018-05-28 20:00","2018","05","28","20:00"
"-59.19","55.08","MAKKOVIK A","8502588","2018-05-28 21:00","2018","05","28","21:00"
"-59.19","55.08","MAKKOVIK A","8502588","2018-05-28 22:00","2018","05","28","22:00"
"-59.19","55.08","MAKKOVIK A","8502588","2018-05-28 23:00","2018","05","28","23:00"
"-59.19","55.08","MAKKOVIK A","8502588","2018-05-29 00:00","2018","05","29","00:00"
"-59.19","55.08","MAKKOVIK A","8502588","2018-05-29 01:00","2018","05","29","01:00"
"-59.19","55.08","MAKKOVIK A","8502588","2018-05-29 02:00","2018","05","29","02:00"
"-59.19","55.08","MAKKOVIK A","8502588","2018-05-29 03:00","2018","05","29","03:00"
"-59.19","55.08","MAKKOVIK A","8502588","2018-05-29 04:00","2018","05","29","04:00"
"-59.19","55.08","MAKKOVIK A","8502588","2018-05-29 05:00","2018","05","29","05:00","4.7","","1.2","","78","","","","26","","26","","24.1","","99.18","","","","","","Mostly Cloudy"
"-59.19","55.08","MAKKOVIK A","8502588","2018-05-29 06:00","2018","05","29","06:00","4.3","","0.2","","74","","","","25","","23","","24.1","","99.30","","","","","","NA"
"-59.19","55.08","MAKKOVIK A","8502588","2018-05-29 07:00","2018","05","29","07:00","4.5","","-0.8","","68","","","","28","","24","","24.1","","99.41","","","","","","NA"
"-59.19","55.08","MAKKOVIK A","8502588","2018-05-29 08:00","2018","05","29","08:00","3.6","","-1.9","","67","","","","30","","34","","24.1","","99.53","","","","","","Cloudy"
"-59.19","55.08","MAKKOVIK A","8502588","2018-05-29 09:00","2018","05","29","09:00","2.8","","-2.8","","67","","","","30","","36","","24.1","","99.65","","","","","","NA"
"-59.19","55.08","MAKKOVIK A","8502588","2018-05-29 10:00","2018","05","29","10:00","2.2","","-3.2","","67","","","","31","","34","","24.1","","99.81","","","","","","NA"
"-59.19","55.08","MAKKOVIK A","8502588","2018-05-29 11:00","2018","05","29","11:00","2.0","","-3.1","","69","","","","32","","30","","24.1","","99.92","","","","","","Cloudy"
"-59.19","55.08","MAKKOVIK A","8502588","2018-05-29 12:00","2018","05","29","12:00","1.9","","-4.1","","65","","","","32","","30","","24.1","","100.01","","","","","","NA"
"-59.19","55.08","MAKKOVIK A","8502588","2018-05-29 13:00","2018","05","29","13:00","2.1","","-4.3","","63","","","","31","","27","","24.1","","100.09","","","","","","NA"
"-59.19","55.08","MAKKOVIK A","8502588","2018-05-29 14:00","2018","05","29","14:00","3.2","","-4.1","","59","","","","31","","29","","24.1","","100.16","","","","","","Mostly Cloudy"
"-59.19","55.08","MAKKOVIK A","8502588","2018-05-29 15:00","2018","05","29","15:00","2.8","","-3.7","","62","","","","32","","23","","24.1","","100.25","","","","","","NA"
"-59.19","55.08","MAKKOVIK A","8502588","2018-05-29 16:00","2018","05","29","16:00","2.8","","-4.1","","60","","","","31","","27","","24.1","","100.33","","","","","","NA"
"-59.19","55.08","MAKKOVIK A","8502588","2018-05-29 17:00","2018","05","29","17:00"
"-59.19","55.08","MAKKOVIK A","8502588","2018-05-29 18:00","2018","05","29","18:00"
"-59.19","55.08","MAKKOVIK A","8502588","2018-05-29 19:00","2018","05","29","19:00"
"-59.19","55.08","MAKKOVIK A","8502588","2018-05-29 20:00","2018","05","29","20:00"
"-59.19","55.08","MAKKOVIK A","8502588","2018-05-29 21:00","2018","05","29","21:00"
"-59.19","55.08","MAKKOVIK A","8502588","2018-05-29 22:00","2018","05","29","22:00"
"-59.19","55.08","MAKKOVIK A","8502588","2018-05-29 23:00","2018","05","29","23:00"
"-59.19","55.08","MAKKOVIK A","8502588","2018-05-30 00:00","2018","05","30","00:00"
"-59.19","55.08","MAKKOVIK A","8502588","2018-05-30 01:00","2018","05","30","01:00"
"-59.19","55.08","MAKKOVIK A","8502588","2018-05-30 02:00","2018","05","30","02:00"
"-59.19","55.08","MAKKOVIK A","8502588","2018-05-30 03:00","2018","05","30","03:00"
"-59.19","55.08","MAKKOVIK A","8502588","2018-05-30 04:00","2018","05","30","04:00"
"-59.19","55.08","MAKKOVIK A","8502588","2018-05-30 05:00","2018","05","30","05:00","0.1","","-5.0","","69","","","","24","","24","","24.1","","100.81","","","","","","Clear"
"-59.19","55.08","MAKKOVIK A","8502588","2018-05-30 06:00","2018","05","30","06:00","1.5","","-4.8","","63","","","","24","","27","","24.1","","100.81","","","","","","NA"
"-59.19","55.08","MAKKOVIK A","8502588","2018-05-30 07:00","2018","05","30","07:00","3.0","","-4.5","","58","","","","24","","28","","24.1","","100.84","","","","","","NA"
"-59.19","55.08","MAKKOVIK A","8502588","2018-05-30 08:00","2018","05","30","08:00","4.4","","-4.5","","53","","","","25","","22","","24.1","","100.85","","","","","","Mainly Clear"
"-59.19","55.08","MAKKOVIK A","8502588","2018-05-30 09:00","2018","05","30","09:00","6.7","","-5.1","","43","","","","26","","19","","24.1","","100.85","","","","","","NA"
"-59.19","55.08","MAKKOVIK A","8502588","2018-05-30 10:00","2018","05","30","10:00","6.9","","-4.7","","43","","","","26","","16","","24.1","","100.83","","","","","","NA"
"-59.19","55.08","MAKKOVIK A","8502588","2018-05-30 11:00","2018","05","30","11:00","8.4","","-4.1","","41","","","","27","","25","","24.1","","100.78","","","","","","Mainly Clear"
"-59.19","55.08","MAKKOVIK A","8502588","2018-05-30 12:00","2018","05","30","12:00","8.1","","-3.0","","45","","","","28","","18","","24.1","","100.73","","","","","","NA"
"-59.19","55.08","MAKKOVIK A","8502588","2018-05-30 13:00","2018","05","30","13:00","9.0","","0.6","","56","","","","25","","21","","24.1","","100.69","","","","","","NA"
"-59.19","55.08","MAKKOVIK A","8502588","2018-05-30 14:00","2018","05","30","14:00","9.3","","0.4","","53","","","","23","","15","","24.1","","100.64","","","","","","Mainly Clear"
"-59.19","55.08","MAKKOVIK A","8502588","2018-05-30 15:00","2018","05","30","15:00","11.3","","0.2","","46","","","","23","","16","","24.1","","100.55","","","","","","NA"
"-59.19","55.08","MAKKOVIK A","8502588","2018-05-30 16:00","2018","05","30","16:00","11.8","","-0.1","","44","","","","23","","14","","24.1","","100.53","","","","","","NA"
"-59.19","55.08","MAKKOVIK A","8502588","2018-05-30 17:00","2018","05","30","17:00"
"-59.19","55.08","MAKKOVIK A","8502588","2018-05-30 18:00","2018","05","30","18:00"
"-59.19","55.08","MAKKOVIK A","8502588","2018-05-30 19:00","2018","05","30","19:00"
"-59.19","55.08","MAKKOVIK A","8502588","2018-05-30 20:00","2018","05","30","20:00"
"-59.19","55.08","MAKKOVIK A","8502588","2018-05-30 21:00","2018","05","30","21:00"
"-59.19","55.08","MAKKOVIK A","8502588","2018-05-30 22:00","2018","05","30","22:00"
"-59.19","55.08","MAKKOVIK A","8502588","2018-05-30 23:00","2018","05","30","23:00"
"-59.19","55.08","MAKKOVIK A","8502588","2018-05-31 00:00","2018","05","31","00:00"
"-59.19","55.08","MAKKOVIK A","8502588","2018-05-31 01:00","2018","05","31","01:00"
"-59.19","55.08","MAKKOVIK A","8502588","2018-05-31 02:00","2018","05","31","02:00"
"-59.19","55.08","MAKKOVIK A","8502588","2018-05-31 03:00","2018","05","31","03:00"
"-59.19","55.08","MAKKOVIK A","8502588","2018-05-31 04:00","2018","05","31","04:00"
"-59.19","55.08","MAKKOVIK A","8502588","2018-05-31 05:00","2018","05","31","05:00","8.8","","-1.0","","50","","","","21","","23","","24.1","","100.16","","","","","","Mainly Clear"
"-59.19","55.08","MAKKOVIK A","8502588","2018-05-31 06:00","2018","05","31","06:00","9.2","","-0.9","","49","","","","19","","15","","24.1","","100.20","","","","","","NA"
"-59.19","55.08","MAKKOVIK A","8502588","2018-05-31 07:00","2018","05","31","07:00","10.7","","-1.0","","44","","","","17","","12","","24.1","","100.27","","","","","","NA"
"-59.19","55.08","MAKKOVIK A","8502588","2018-05-31 08:00","2018","05","31","08:00","13.5","","-0.7","","38","","","","19","","8","","24.1","","100.26","","","","","","Mainly Clear"
"-59.19","55.08","MAKKOVIK A","8502588","2018-05-31 09:00","2018","05","31","09:00","16.6","","0.3","","33","","","","23","","10","","24.1","","100.23","","","","","","NA"
"-59.19","55.08","MAKKOVIK A","8502588","2018-05-31 10:00","2018","05","31","10:00","15.0","","-0.3","","35","","","","17","","7","","24.1","","100.24","","","","","","NA"
"-59.19","55.08","MAKKOVIK A","8502588","2018-05-31 11:00","2018","05","31","11:00","18.8","","1.0","","30","","","","23","","10","","24.1","","100.23","","","","","","Mainly Clear"
"-59.19","55.08","MAKKOVIK A","8502588","2018-05-31 12:00","2018","05","31","12:00","19.5","","2.1","","31","","","","23","","13","","24.1","","100.24","","","","","","NA"
"-59.19","55.08","MAKKOVIK A","8502588","2018-05-31 13:00","2018","05","31","13:00","20.3","","3.1","","32","","","","23","","11","","24.1","","100.20","","","","","","NA"
"-59.19","55.08","MAKKOVIK A","8502588","2018-05-31 14:00","2018","05","31","14:00","20.7","","4.4","","34","","","","21","","8","","24.1","","100.18","","","","","","Mainly Clear"
"-59.19","55.08","MAKKOVIK A","8502588","2018-05-31 15:00","2018","05","31","15:00","19.8","","5.2","","38","","","","18","","6","","24.1","","100.17","","","","","","NA"
"-59.19","55.08","MAKKOVIK A","8502588","2018-05-31 16:00","2018","05","31","16:00","20.9","","6.0","","38","","","","22","","10","","24.1","","100.14","","","","","","NA"
"-59.19","55.08","MAKKOVIK A","8502588","2018-05-31 17:00","2018","05","31","17:00"
"-59.19","55.08","MAKKOVIK A","8502588","2018-05-31 18:00","2018","05","31","18:00"
"-59.19","55.08","MAKKOVIK A","8502588","2018-05-31 19:00","2018","05","31","19:00"
"-59.19","55.08","MAKKOVIK A","8502588","2018-05-31 20:00","2018","05","31","20:00"
"-59.19","55.08","MAKKOVIK A","8502588","2018-05-31 21:00","2018","05","31","21:00"
"-59.19","55.08","MAKKOVIK A","8502588","2018-05-31 22:00","2018","05","31","22:00"
"-59.19","55.08","MAKKOVIK A","8502588","2018-05-31 23:00","2018","05","31","23:00"
