"Longitude (x)","Latitude (y)","Station Name","Climate ID","Date/Time (LST)","Year","Month","Day","Time (LST)","Temp (°C)","Temp Flag","Dew Point Temp (°C)","Dew Point Temp Flag","Rel Hum (%)","Rel Hum Flag","Precip. Amount (mm)","Precip. Amount Flag","Wind Dir (10s deg)","Wind Dir Flag","Wind Spd (km/h)","Wind Spd Flag","Visibility (km)","Visibility Flag","Stn Press (kPa)","Stn Press Flag","Hmdx","Hmdx Flag","Wind Chill","Wind Chill Flag","Weather"
"-93.58","69.55","TALOYOAK A","2403855","2023-01-01 00:00","2023","01","01","00:00","-28.1","","-31.1","","76","","","","5","","23","","4.8","","100.78","","","","-42","","Snow,Blowing Snow"
"-93.58","69.55","TALOYOAK A","2403855","2023-01-01 01:00","2023","01","01","01:00","-28.5","","-31.6","","75","","","","5","","24","","9.7","","100.76","","","","-42","","Snow,Blowing Snow"
"-93.58","69.55","TALOYOAK A","2403855","2023-01-01 02:00","2023","01","01","02:00","-28.7","","-31.8","","75","","","","6","","24","","9.7","","100.78","","","","-43","","Snow,Blowing Snow"
"-93.58","69.55","TALOYOAK A","2403855","2023-01-01 03:00","2023","01","01","03:00","-29.4","","-32.6","","75","","","","6","","23","","9.7","","100.78","","","","-43","","Snow,Blowing Snow"
"-93.58","69.55","TALOYOAK A","2403855","2023-01-01 04:00","2023","01","01","04:00","-29.6","","-32.7","","75","","","","6","","21","","9.7","","100.80","","","","-43","","Snow,Blowing Snow"
"-93.58","69.55","TALOYOAK A","2403855","2023-01-01 05:00","2023","01","01","05:00","-28.9","","-31.9","","75","","","","5","","24","","24.1","","100.76","","","","-43","","Ice Crystals"
"-93.58","69.55","TALOYOAK A","2403855","2023-01-01 06:00","2023","01","01","06:00","-29.2","","-32.4","","75","","","","5","","21","","19.3","","100.75","","","","-42","","Ice Crystals"
"-93.58","69.55","TALOYOAK A","2403855","2023-01-01 07:00","2023","01","01","07:00","-29.6","","-32.8","","74","","","","4","","16","","24.1","","100.72","","","","-41","","Ice Crystals,Blowing Snow"
"-93.58","69.55","TALOYOAK A","2403855","2023-01-01 08:00","2023","01","01","08:00","-28.1","","-31.1","","76","","","","5","","19","","24.1","","100.69","","","","-40","","Ice Crystals,Blowing Snow"
"-93.58","69.55","TALOYOAK A","2403855","2023-01-01 09:00","2023","01","01","09:00","-27.1","","-30.0","","76","","","","5","","16","","16.1","","100.71","","","","-38","","Snow"
"-93.58","69.55","TALOYOAK A","2403855","2023-01-01 10:00","2023","01","01","10:00","-26.3","","-29.2","","77","","","","6","","16","","24.1","","100.67","","","","-37","","Snow"
"-93.58","69.55","TALOYOAK A","2403855","2023-01-01 11:00","2023","01","01","11:00","-25.6","","-28.5","","77","","","","5","","15","","24.1","","100.65","","","","-36","","Snow"
"-93.58","69.55","TALOYOAK A","2403855","2023-01-01 12:00","2023","01","01","12:00"
"-93.58","69.55","TALOYOAK A","2403855","2023-01-01 13:00","2023","01","01","13:00"
"-93.58","69.55","TALOYOAK A","2403855","2023-01-01 14:00","2023","01","01","14:00"
"-93.58","69.55","TALOYOAK A","2403855","2023-01-01 15:00","2023","01","01","15:00"
"-93.58","69.55","TALOYOAK A","2403855","2023-01-01 16:00","2023","01","01","16:00"
"-93.58","69.55","TALOYOAK A","2403855","2023-01-01 17:00","2023","01","01","17:00"
"-93.58","69.55","TALOYOAK A","2403855","2023-01-01 18:00","2023","01","01","18:00"
"-93.58","69.55","TALOYOAK A","2403855","2023-01-01 19:00","2023","01","01","19:00"
"-93.58","69.55","TALOYOAK A","2403855","2023-01-01 20:00","2023","01","01","20:00"
"-93.58","69.55","TALOYOAK A","2403855","2023-01-01 21:00","2023","01","01","21:00"
"-93.58","69.55","TALOYOAK A","2403855","2023-01-01 22:00","2023","01","01","22:00"
"-93.58","69.55","TALOYOAK A","2403855","2023-01-01 23:00","2023","01","01","23:00"
"-93.58","69.55","TALOYOAK A","2403855","2023-01-02 00:00","2023","01","02","00:00"
"-93.58","69.55","TALOYOAK A","2403855","2023-01-02 01:00","2023","01","02","01:00"
"-93.58","69.55","TALOYOAK A","2403855","2023-01-02 02:00","2023","01","02","02:00","-32.9","","-36.2","","73","","","","2","","14","","24.1","","100.48","","","","-45","","Ice Crystals"
"-93.58","69.55","TALOYOAK A","2403855","2023-01-02 03:00","2023","01","02","03:00","-32.5","","-35.8","","73","","","","2","","13","","24.1","","100.49","","","","-44","","Ice Crystals"
"-93.58","69.55","TALOYOAK A","2403855","2023-01-02 04:00","2023","01","02","04:00","-34.3","","-37.8","","72","","","","4","","13","","24.1","","100.47","","","","-46","","Ice Crystals"
"-93.58","69.55","TALOYOAK A","2403855","2023-01-02 05:00","2023","01","02","05:00","-34.3","","-37.8","","72","","","","5","","5","","24.1","","100.46","","","","-41","","Ice Crystals"
"-93.58","69.55","TALOYOAK A","2403855","2023-01-02 06:00","2023","01","02","06:00","-33.1","","-36.5","","73","","","","4","","12","","24.1","","100.47","","","","-44","","Ice Crystals"
"-93.58","69.55","TALOYOAK A","2403855","2023-01-02 07:00","2023","01","02","07:00","-34.3","","-37.7","","72","","","","2","","11","","24.1","","100.43","","","","-45","","Ice Crystals"
"-93.58","69.55","TALOYOAK A","2403855","2023-01-02 08:00","2023","01","02","08:00","-35.0","","-38.5","","71","","","","1","","10","","24.1","","100.42","","","","-45","","Ice Crystals"
"-93.58","69.55","TALOYOAK A","2403855","2023-01-02 09:00","2023","01","02","09:00","-34.1","","-37.5","","72","","","","7","","4","","24.1","","100.41","","","","-39","","Ice Crystals"
"-93.58","69.55","TALOYOAK A","2403855","2023-01-02 10:00","2023","01","02","10:00","-33.3","","-36.8","","72","","","","1","","7","","24.1","","100.41","","","","-41","","Ice Crystals"
"-93.58","69.55","TALOYOAK A","2403855","2023-01-02 11:00","2023","01","02","11:00","-33.5","","-36.9","","72","","","","3","","11","","24.1","","100.43","","","","-44","","Ice Crystals"
"-93.58","69.55","TALOYOAK A","2403855","2023-01-02 12:00","2023","01","02","12:00","-33.9","","-37.4","","71","","","","2","","13","","24.1","","100.44","","","","-45","","Ice Crystals"
"-93.58","69.55","TALOYOAK A","2403855","2023-01-02 13:00","2023","01","02","13:00","-35.3","","-38.9","","70","","","","35","","15","","24.1","","100.44","","","","-48","","Ice Crystals"
"-93.58","69.55","TALOYOAK A","2403855","2023-01-02 14:00","2023","01","02","14:00","-33.1","","-36.5","","72","","","","1","","11","","24.1","","100.44","","","","-43","","Mostly Cloudy"
"-93.58","69.55","TALOYOAK A","2403855","2023-01-02 15:00","2023","01","02","15:00","-32.1","","-35.5","","73","","","","36","","9","","24.1","","100.42","","","","-41","","NA"
"-93.58","69.55","TALOYOAK A","2403855","2023-01-02 16:00","2023","01","02","16:00","-34.0","","-37.5","","71","","","","1","","13","","24.1","","100.49","","","","-45","","NA"
"-93.58","69.55","TALOYOAK A","2403855","2023-01-02 17:00","2023","01","02","17:00","-33.6","","-37.1","","72","","","","1","","10","","24.1","","100.51","","","","-43","","Mainly Clear"
"-93.58","69.55","TALOYOAK A","2403855","2023-01-02 18:00","2023","01","02","18:00","-35.0","","-38.5","","71","","","","36","","10","","24.1","","100.50","","","","-45","","NA"
"-93.58","69.55","TALOYOAK A","2403855","2023-01-02 19:00","2023","01","02","19:00","-35.1","","-38.7","","71","","","","2","","14","","24.1","","100.51","","","","-47","","NA"
"-93.58","69.55","TALOYOAK A","2403855","2023-01-02 20:00","2023","01","02","20:00","-34.7","","-38.3","","71","","","","9","","6","","24.1","","100.58","","","","-42","","Ice Crystals"
"-93.58","69.55","TALOYOAK A","2403855","2023-01-02 21:00","2023","01","02","21:00","-37.1","","-40.7","","70","","","","6","","4","","24.1","","100.58","","","","-42","","Ice Crystals"
"-93.58","69.55","TALOYOAK A","2403855","2023-01-02 22:00","2023","01","02","22:00","-35.0","","-38.6","","71","","","","1","","9","","24.1","","100.58","","","","-45","","Ice Crystals"
"-93.58","69.55","TALOYOAK A","2403855","2023-01-02 23:00","2023","01","02","23:00","-35.4","","-39.0","","71","","","","36","","11","","24.1","","100.58","","","","-46","","Ice Crystals"
"-93.58","69.55","TALOYOAK A","2403855","2023-01-03 00:00","2023","01","03","00:00","-35.4","","-39.0","","71","","","","36","","2","","24.1","","100.66","","","","-38","","Ice Crystals"
"-93.58","69.55","TALOYOAK A","2403855","2023-01-03 01:00","2023","01","03","01:00","-35.2","","-38.8","","71","","","","18","","7","","24.1","","100.66","","","","-43","","Ice Crystals"
"-93.58","69.55","TALOYOAK A","2403855","2023-01-03 02:00","2023","01","03","02:00","-36.2","","-39.8","","70","","","","15","","10","","24.1","","100.73","","","","-47","","Ice Crystals"
"-93.58","69.55","TALOYOAK A","2403855","2023-01-03 03:00","2023","01","03","03:00","-35.3","","-38.8","","71","","","","16","","12","","24.1","","100.76","","","","-47","","Ice Crystals"
"-93.58","69.55","TALOYOAK A","2403855","2023-01-03 04:00","2023","01","03","04:00","-34.8","","-38.3","","71","","","","16","","15","","24.1","","100.77","","","","-47","","Ice Crystals"
"-93.58","69.55","TALOYOAK A","2403855","2023-01-03 05:00","2023","01","03","05:00","-35.2","","-38.8","","71","","","","15","","17","","24.1","","100.76","","","","-49","","Ice Crystals"
"-93.58","69.55","TALOYOAK A","2403855","2023-01-03 06:00","2023","01","03","06:00","-34.9","","-38.5","","71","","","","15","","17","","24.1","","100.75","","","","-48","","Ice Crystals"
"-93.58","69.55","TALOYOAK A","2403855","2023-01-03 07:00","2023","01","03","07:00","-35.5","","-39.1","","70","","","","15","","15","","24.1","","100.78","","","","-48","","Ice Crystals"
"-93.58","69.55","TALOYOAK A","2403855","2023-01-03 08:00","2023","01","03","08:00","-35.8","","-39.4","","70","","","","15","","22","","24.1","","100.84","","","","-51","","Ice Crystals"
"-93.58","69.55","TALOYOAK A","2403855","2023-01-03 09:00","2023","01","03","09:00","-36.1","","-39.8","","70","","","","16","","21","","19.3","","100.86","","","","-51","","Ice Crystals"
"-93.58","69.55","TALOYOAK A","2403855","2023-01-03 10:00","2023","01","03","10:00","-36.0","","-39.7","","70","","","","15","","21","","14.5","","100.88","","","","-51","","Ice Crystals"
"-93.58","69.55","TALOYOAK A","2403855","2023-01-03 11:00","2023","01","03","11:00","-36.3","","-40.0","","70","","","","15","","22","","6.4","","100.88","","","","-52","","Ice Crystals,Fog"
"-93.58","69.55","TALOYOAK A","2403855","2023-01-03 12:00","2023","01","03","12:00","-36.1","","-39.8","","70","","","","15","","18","","9.7","","100.90","","","","-50","","Ice Crystals,Fog"
"-93.58","69.55","TALOYOAK A","2403855","2023-01-03 13:00","2023","01","03","13:00","-36.1","","-39.8","","70","","","","15","","19","","12.9","","100.98","","","","-50","","Ice Crystals"
"-93.58","69.55","TALOYOAK A","2403855","2023-01-03 14:00","2023","01","03","14:00","-36.1","","-39.8","","70","","","","15","","20","","14.5","","100.99","","","","-51","","Ice Crystals"
"-93.58","69.55","TALOYOAK A","2403855","2023-01-03 15:00","2023","01","03","15:00","-35.9","","-39.6","","70","","","","15","","17","","14.5","","101.04","","","","-49","","Ice Crystals"
"-93.58","69.55","TALOYOAK A","2403855","2023-01-03 16:00","2023","01","03","16:00","-35.4","","-39.1","","70","","","","15","","18","","14.5","","101.07","","","","-49","","Ice Crystals"
"-93.58","69.55","TALOYOAK A","2403855","2023-01-03 17:00","2023","01","03","17:00","-35.0","","-38.6","","71","","","","16","","18","","12.9","","101.07","","","","-49","","Ice Crystals"
"-93.58","69.55","TALOYOAK A","2403855","2023-01-03 18:00","2023","01","03","18:00","-35.2","","-38.8","","70","","","","16","","18","","12.9","","101.09","","","","-49","","Ice Crystals"
"-93.58","69.55","TALOYOAK A","2403855","2023-01-03 19:00","2023","01","03","19:00","-34.8","","-38.4","","71","","","","15","","22","","9.7","","101.07","","","","-50","","Ice Crystals"
"-93.58","69.55","TALOYOAK A","2403855","2023-01-03 20:00","2023","01","03","20:00","-33.5","","-37.0","","72","","","","15","","18","","9.7","","101.07","","","","-47","","Ice Crystals"
"-93.58","69.55","TALOYOAK A","2403855","2023-01-03 21:00","2023","01","03","21:00","-32.8","","-36.2","","72","","","","16","","18","","6.4","","101.09","","","","-46","","Ice Crystals"
"-93.58","69.55","TALOYOAK A","2403855","2023-01-03 22:00","2023","01","03","22:00","-30.7","","-34.0","","73","","","","17","","20","","9.7","","101.12","","","","-44","","Ice Crystals"
"-93.58","69.55","TALOYOAK A","2403855","2023-01-03 23:00","2023","01","03","23:00","-31.3","","-34.6","","73","","","","16","","23","","24.1","","101.09","","","","-46","","Ice Crystals"
"-93.58","69.55","TALOYOAK A","2403855","2023-01-04 00:00","2023","01","04","00:00","-32.0","","-35.4","","73","","","","18","","18","","16.1","","101.13","","","","-45","","Ice Crystals"
"-93.58","69.55","TALOYOAK A","2403855","2023-01-04 01:00","2023","01","04","01:00","-32.3","","-35.7","","72","","","","19","","23","","9.7","","101.16","","","","-47","","Ice Crystals"
"-93.58","69.55","TALOYOAK A","2403855","2023-01-04 02:00","2023","01","04","02:00","-33.4","","-36.9","","72","","","","17","","15","","4.8","","101.20","","","","-46","","Ice Crystals"
"-93.58","69.55","TALOYOAK A","2403855","2023-01-04 03:00","2023","01","04","03:00","-34.3","","-37.9","","71","","","","17","","19","","4.8","","101.22","","","","-48","","Ice Crystals"
"-93.58","69.55","TALOYOAK A","2403855","2023-01-04 04:00","2023","01","04","04:00","-35.0","","-38.5","","71","","","","17","","21","","6.4","","101.23","","","","-50","","Ice Crystals"
"-93.58","69.55","TALOYOAK A","2403855","2023-01-04 05:00","2023","01","04","05:00","-35.4","","-39.1","","70","","","","19","","19","","6.4","","101.25","","","","-50","","Ice Crystals"
"-93.58","69.55","TALOYOAK A","2403855","2023-01-04 06:00","2023","01","04","06:00","-35.6","","-39.2","","70","","","","19","","19","","12.9","","101.22","","","","-50","","Ice Crystals"
"-93.58","69.55","TALOYOAK A","2403855","2023-01-04 07:00","2023","01","04","07:00","-35.6","","-39.2","","70","","","","18","","17","","24.1","","101.21","","","","-49","","Ice Crystals"
"-93.58","69.55","TALOYOAK A","2403855","2023-01-04 08:00","2023","01","04","08:00","-35.9","","-39.6","","70","","","","17","","17","","24.1","","101.22","","","","-49","","Ice Crystals"
"-93.58","69.55","TALOYOAK A","2403855","2023-01-04 09:00","2023","01","04","09:00","-36.0","","-39.7","","70","","","","20","","19","","24.1","","101.19","","","","-50","","Ice Crystals"
"-93.58","69.55","TALOYOAK A","2403855","2023-01-04 10:00","2023","01","04","10:00","-36.3","","-40.0","","70","","","","18","","14","","19.3","","101.21","","","","-49","","Ice Crystals"
"-93.58","69.55","TALOYOAK A","2403855","2023-01-04 11:00","2023","01","04","11:00","-36.0","","-39.6","","70","","","","17","","16","","24.1","","101.21","","","","-49","","Ice Crystals"
"-93.58","69.55","TALOYOAK A","2403855","2023-01-04 12:00","2023","01","04","12:00","-35.5","","-39.2","","70","","","","17","","19","","14.5","","101.22","","","","-50","","Ice Crystals"
"-93.58","69.55","TALOYOAK A","2403855","2023-01-04 13:00","2023","01","04","13:00","-34.9","","-38.5","","71","","","","18","","17","","12.9","","101.21","","","","-48","","Ice Crystals"
"-93.58","69.55","TALOYOAK A","2403855","2023-01-04 14:00","2023","01","04","14:00","-34.9","","-38.5","","71","","","","16","","14","","12.9","","101.24","","","","-47","","Ice Crystals"
"-93.58","69.55","TALOYOAK A","2403855","2023-01-04 15:00","2023","01","04","15:00","-34.4","","-38.0","","71","","","","16","","14","","12.9","","101.23","","","","-46","","Ice Crystals"
"-93.58","69.55","TALOYOAK A","2403855","2023-01-04 16:00","2023","01","04","16:00","-34.4","","-38.0","","71","","","","16","","15","","12.9","","101.24","","","","-47","","Ice Crystals"
"-93.58","69.55","TALOYOAK A","2403855","2023-01-04 17:00","2023","01","04","17:00","-34.0","","-37.6","","71","","","","17","","16","","12.9","","101.24","","","","-47","","Ice Crystals"
"-93.58","69.55","TALOYOAK A","2403855","2023-01-04 18:00","2023","01","04","18:00","-33.5","","-37.0","","71","","","","18","","16","","14.5","","101.23","","","","-46","","Ice Crystals"
"-93.58","69.55","TALOYOAK A","2403855","2023-01-04 19:00","2023","01","04","19:00","-33.2","","-36.7","","72","","","","17","","15","","16.1","","101.21","","","","-45","","Ice Crystals"
"-93.58","69.55","TALOYOAK A","2403855","2023-01-04 20:00","2023","01","04","20:00","-32.9","","-36.3","","72","","","","16","","14","","16.1","","101.23","","","","-45","","Ice Crystals"
"-93.58","69.55","TALOYOAK A","2403855","2023-01-04 21:00","2023","01","04","21:00","-32.7","","-36.2","","72","","","","16","","12","","16.1","","101.24","","","","-43","","Ice Crystals"
"-93.58","69.55","TALOYOAK A","2403855","2023-01-04 22:00","2023","01","04","22:00","-32.6","","-36.0","","72","","","","17","","13","","16.1","","101.25","","","","-44","","Snow"
"-93.58","69.55","TALOYOAK A","2403855","2023-01-04 23:00","2023","01","04","23:00","-33.0","","-36.5","","72","","","","16","","10","","19.3","","101.25","","","","-43","","Snow"
"-93.58","69.55","TALOYOAK A","2403855","2023-01-05 00:00","2023","01","05","00:00","-33.4","","-36.9","","72","","","","13","","6","","16.1","","101.27","","","","-40","","Snow"
"-93.58","69.55","TALOYOAK A","2403855","2023-01-05 01:00","2023","01","05","01:00","-32.4","","-35.8","","72","","","","18","","9","","12.9","","101.28","","","","-41","","Snow"
"-93.58","69.55","TALOYOAK A","2403855","2023-01-05 02:00","2023","01","05","02:00","-31.9","","-35.3","","73","","","","13","","5","","9.7","","101.31","","","","-38","","Snow"
"-93.58","69.55","TALOYOAK A","2403855","2023-01-05 03:00","2023","01","05","03:00","-32.2","","-35.6","","72","","","","7","","5","","16.1","","101.31","","","","-38","","Snow"
"-93.58","69.55","TALOYOAK A","2403855","2023-01-05 04:00","2023","01","05","04:00","-31.9","","-35.3","","73","","","","4","","7","","16.1","","101.36","","","","-39","","Snow"
"-93.58","69.55","TALOYOAK A","2403855","2023-01-05 05:00","2023","01","05","05:00","-31.5","","-34.9","","73","","","","6","","8","","16.1","","101.35","","","","-40","","Snow"
"-93.58","69.55","TALOYOAK A","2403855","2023-01-05 06:00","2023","01","05","06:00","-31.6","","-34.9","","73","","","","6","","10","","19.3","","101.36","","","","-41","","Snow"
"-93.58","69.55","TALOYOAK A","2403855","2023-01-05 07:00","2023","01","05","07:00","-31.7","","-35.0","","73","","","","8","","9","","16.1","","101.39","","","","-41","","Snow"
"-93.58","69.55","TALOYOAK A","2403855","2023-01-05 08:00","2023","01","05","08:00","-31.0","","-34.4","","73","","","","12","","12","","16.1","","101.38","","","","-41","","Snow"
"-93.58","69.55","TALOYOAK A","2403855","2023-01-05 09:00","2023","01","05","09:00","-31.7","","-35.1","","73","","","","11","","9","","12.9","","101.40","","","","-41","","Snow"
"-93.58","69.55","TALOYOAK A","2403855","2023-01-05 10:00","2023","01","05","10:00","-32.0","","-35.4","","72","","","","14","","7","","9.7","","101.41","","","","-40","","Snow,Fog"
"-93.58","69.55","TALOYOAK A","2403855","2023-01-05 11:00","2023","01","05","11:00","-32.3","","-35.7","","72","","","","9","","7","","16.1","","101.44","","","","-40","","Snow Grains"
"-93.58","69.55","TALOYOAK A","2403855","2023-01-05 12:00","2023","01","05","12:00","-31.8","","-35.2","","73","","","","10","","5","","14.5","","101.47","","","","-38","","Snow Grains"
"-93.58","69.55","TALOYOAK A","2403855","2023-01-05 13:00","2023","01","05","13:00","-31.6","","-35.0","","73","","","","10","","5","","16.1","","101.48","","","","-37","","Snow Grains"
"-93.58","69.55","TALOYOAK A","2403855","2023-01-05 14:00","2023","01","05","14:00","-31.6","","-35.0","","73","","","","13","","5","","16.1","","101.51","","","","-37","","Snow Grains"
"-93.58","69.55","TALOYOAK A","2403855","2023-01-05 15:00","2023","01","05","15:00","-31.3","","-34.7","","73","","","","7","","6","","16.1","","101.54","","","","-38","","Snow,Snow Grains"
"-93.58","69.55","TALOYOAK A","2403855","2023-01-05 16:00","2023","01","05","16:00","-31.6","","-35.0","","73","","","","1","","7","","16.1","","101.55","","","","-39","","Snow Grains"
"-93.58","69.55","TALOYOAK A","2403855","2023-01-05 17:00","2023","01","05","17:00","-31.5","","-34.9","","73","","","","10","","7","","19.3","","101.56","","","","-39","","Snow Grains"
"-93.58","69.55","TALOYOAK A","2403855","2023-01-05 18:00","2023","01","05","18:00","-31.3","","-34.7","","73","","","","12","","4","","19.3","","101.57","","","","-36","","Snow Grains"
"-93.58","69.55","TALOYOAK A","2403855","2023-01-05 19:00","2023","01","05","19:00","-30.9","","-34.2","","73","","","","10","","3","","24.1","","101.59","","","","-34","","Snow Grains"
"-93.58","69.55","TALOYOAK A","2403855","2023-01-05 20:00","2023","01","05","20:00","-30.3","","-33.6","","74","","","","8","","4","","24.1","","101.58","","","","-35","","Snow Grains"
"-93.58","69.55","TALOYOAK A","2403855","2023-01-05 21:00","2023","01","05","21:00","-31.4","","-34.8","","73","","","","9","","7","","24.1","","101.57","","","","-39","","Snow Grains"
"-93.58","69.55","TALOYOAK A","2403855","2023-01-05 22:00","2023","01","05","22:00","-30.9","","-34.2","","73","","","","10","","4","","24.1","","101.60","","","","-35","","Snow"
"-93.58","69.55","TALOYOAK A","2403855","2023-01-05 23:00","2023","01","05","23:00","-30.6","","-33.9","","74","","","","11","","3","","24.1","","101.63","","","","-34","","Snow"
"-93.58","69.55","TALOYOAK A","2403855","2023-01-06 00:00","2023","01","06","00:00","-30.7","","-34.1","","73","","","","7","","5","","24.1","","101.63","","","","-36","","Snow"
"-93.58","69.55","TALOYOAK A","2403855","2023-01-06 01:00","2023","01","06","01:00","-30.5","","-33.8","","74","","","","7","","8","","24.1","","101.65","","","","-39","","Snow"
"-93.58","69.55","TALOYOAK A","2403855","2023-01-06 02:00","2023","01","06","02:00","-30.3","","-33.6","","74","","","","7","","10","","19.3","","101.68","","","","-40","","Snow"
"-93.58","69.55","TALOYOAK A","2403855","2023-01-06 03:00","2023","01","06","03:00","-30.4","","-33.7","","73","","","","7","","11","","24.1","","101.68","","","","-40","","Snow"
"-93.58","69.55","TALOYOAK A","2403855","2023-01-06 04:00","2023","01","06","04:00","-29.9","","-33.2","","74","","","","12","","4","","24.1","","101.72","","","","-34","","Snow"
"-93.58","69.55","TALOYOAK A","2403855","2023-01-06 05:00","2023","01","06","05:00","-30.5","","-33.8","","74","","","","14","","5","","24.1","","101.72","","","","-36","","Snow"
"-93.58","69.55","TALOYOAK A","2403855","2023-01-06 06:00","2023","01","06","06:00","-31.1","","-34.3","","73","","","","14","","9","","19.3","","101.72","","","","-40","","Snow"
"-93.58","69.55","TALOYOAK A","2403855","2023-01-06 07:00","2023","01","06","07:00","-31.8","","-35.2","","73","","","","17","","9","","24.1","","101.74","","","","-41","","Snow"
"-93.58","69.55","TALOYOAK A","2403855","2023-01-06 08:00","2023","01","06","08:00","-31.8","","-35.1","","73","","","","18","","9","","24.1","","101.75","","","","-41","","Snow"
"-93.58","69.55","TALOYOAK A","2403855","2023-01-06 09:00","2023","01","06","09:00","-32.3","","-35.6","","73","","","","17","","8","","24.1","","101.75","","","","-41","","Snow"
"-93.58","69.55","TALOYOAK A","2403855","2023-01-06 10:00","2023","01","06","10:00","-33.2","","-36.6","","72","","","","13","","4","","24.1","","101.77","","","","-38","","NA"
"-93.58","69.55","TALOYOAK A","2403855","2023-01-06 11:00","2023","01","06","11:00","-32.8","","-36.2","","72","","","","36","","1","","24.1","","101.80","","","","-34","","Mostly Cloudy"
"-93.58","69.55","TALOYOAK A","2403855","2023-01-06 12:00","2023","01","06","12:00","-32.4","","-35.7","","73","","","","36","","2","","19.3","","101.80","","","","-35","","Snow Grains"
"-93.58","69.55","TALOYOAK A","2403855","2023-01-06 13:00","2023","01","06","13:00","-31.7","","-35.1","","73","","","","15","","3","","19.3","","101.81","","","","-35","","Snow Grains"
"-93.58","69.55","TALOYOAK A","2403855","2023-01-06 14:00","2023","01","06","14:00","-31.0","","-34.3","","73","","","","21","","4","","19.3","","101.83","","","","-36","","Snow Grains"
"-93.58","69.55","TALOYOAK A","2403855","2023-01-06 15:00","2023","01","06","15:00","-30.0","","-33.3","","74","","","","17","","11","","19.3","","101.84","","","","-40","","Snow"
"-93.58","69.55","TALOYOAK A","2403855","2023-01-06 16:00","2023","01","06","16:00","-29.8","","-33.0","","74","","","","18","","13","","24.1","","101.86","","","","-40","","Snow"
"-93.58","69.55","TALOYOAK A","2403855","2023-01-06 17:00","2023","01","06","17:00","-29.3","","-32.4","","75","","","","18","","14","","19.3","","101.85","","","","-40","","Snow"
"-93.58","69.55","TALOYOAK A","2403855","2023-01-06 18:00","2023","01","06","18:00","-29.0","","-32.1","","75","","","","18","","12","","19.3","","101.85","","","","-39","","Snow"
"-93.58","69.55","TALOYOAK A","2403855","2023-01-06 19:00","2023","01","06","19:00","-28.6","","-31.8","","75","","","","16","","15","","16.1","","101.83","","","","-40","","Snow"
"-93.58","69.55","TALOYOAK A","2403855","2023-01-06 20:00","2023","01","06","20:00","-28.3","","-31.3","","76","","","","17","","13","","9.7","","101.82","","","","-39","","Snow Showers"
"-93.58","69.55","TALOYOAK A","2403855","2023-01-06 21:00","2023","01","06","21:00","-27.9","","-31.0","","76","","","","17","","13","","9.7","","101.81","","","","-38","","Snow Showers"
"-93.58","69.55","TALOYOAK A","2403855","2023-01-06 22:00","2023","01","06","22:00","-27.6","","-30.6","","76","","","","17","","11","","9.7","","101.80","","","","-37","","Snow Showers"
"-93.58","69.55","TALOYOAK A","2403855","2023-01-06 23:00","2023","01","06","23:00","-27.3","","-30.3","","76","","","","17","","11","","9.7","","101.79","","","","-36","","Snow Showers"
"-93.58","69.55","TALOYOAK A","2403855","2023-01-07 00:00","2023","01","07","00:00","-27.1","","-30.1","","76","","","","19","","13","","9.7","","101.80","","","","-37","","Snow Showers"
"-93.58","69.55","TALOYOAK A","2403855","2023-01-07 01:00","2023","01","07","01:00","-26.8","","-29.8","","77","","","","18","","13","","12.9","","101.80","","","","-37","","Snow Showers"
"-93.58","69.55","TALOYOAK A","2403855","2023-01-07 02:00","2023","01","07","02:00","-26.4","","-29.3","","77","","","","19","","10","","9.7","","101.84","","","","-35","","Snow Showers"
"-93.58","69.55","TALOYOAK A","2403855","2023-01-07 03:00","2023","01","07","03:00","-26.0","","-28.9","","77","","","","18","","9","","8.1","","101.83","","","","-34","","Snow Showers"
"-93.58","69.55","TALOYOAK A","2403855","2023-01-07 04:00","2023","01","07","04:00","-25.5","","-28.3","","78","","","","16","","8","","9.7","","101.81","","","","-33","","Snow Showers"
"-93.58","69.55","TALOYOAK A","2403855","2023-01-07 05:00","2023","01","07","05:00","-25.1","","-27.9","","78","","","","16","","9","","16.1","","101.79","","","","-33","","Snow"
"-93.58","69.55","TALOYOAK A","2403855","2023-01-07 06:00","2023","01","07","06:00","-24.4","","-27.1","","78","","","","16","","12","","16.1","","101.78","","","","-33","","Snow"
"-93.58","69.55","TALOYOAK A","2403855","2023-01-07 07:00","2023","01","07","07:00","-24.0","","-26.7","","79","","","","16","","9","","16.1","","101.75","","","","-31","","Snow"
"-93.58","69.55","TALOYOAK A","2403855","2023-01-07 08:00","2023","01","07","08:00","-23.4","","-26.1","","79","","","","20","","13","","9.7","","101.76","","","","-33","","Snow"
"-93.58","69.55","TALOYOAK A","2403855","2023-01-07 09:00","2023","01","07","09:00","-23.2","","-25.9","","79","","","","19","","14","","12.9","","101.74","","","","-33","","Snow"
"-93.58","69.55","TALOYOAK A","2403855","2023-01-07 10:00","2023","01","07","10:00","-23.0","","-25.6","","80","","","","18","","9","","12.9","","101.77","","","","-30","","Snow"
"-93.58","69.55","TALOYOAK A","2403855","2023-01-07 11:00","2023","01","07","11:00","-23.6","","-26.3","","79","","","","32","","5","","6.4","","101.78","","","","-28","","Snow"
"-93.58","69.55","TALOYOAK A","2403855","2023-01-07 12:00","2023","01","07","12:00","-23.7","","-26.4","","79","","","","35","","7","","4.8","","101.80","","","","-30","","Snow"
"-93.58","69.55","TALOYOAK A","2403855","2023-01-07 13:00","2023","01","07","13:00","-23.6","","-26.2","","79","","","","35","","5","","6.4","","101.81","","","","-28","","Snow"
"-93.58","69.55","TALOYOAK A","2403855","2023-01-07 14:00","2023","01","07","14:00","-23.2","","-25.8","","80","","","","2","","4","","9.7","","101.82","","","","-27","","Snow"
"-93.58","69.55","TALOYOAK A","2403855","2023-01-07 15:00","2023","01","07","15:00","-23.0","","-25.6","","80","","","","15","","5","","16.1","","101.83","","","","-28","","Snow"
"-93.58","69.55","TALOYOAK A","2403855","2023-01-07 16:00","2023","01","07","16:00","-23.4","","-26.0","","80","","","","26","","4","","19.3","","101.83","","","","-27","","Snow Grains"
"-93.58","69.55","TALOYOAK A","2403855","2023-01-07 17:00","2023","01","07","17:00","-23.2","","-25.8","","80","","","","21","","4","","19.3","","101.84","","","","-27","","Snow Grains"
"-93.58","69.55","TALOYOAK A","2403855","2023-01-07 18:00","2023","01","07","18:00","-23.4","","-26.1","","79","","","","27","","4","","16.1","","101.81","","","","-27","","Snow"
"-93.58","69.55","TALOYOAK A","2403855","2023-01-07 19:00","2023","01","07","19:00","-23.4","","-26.0","","79","","","","36","","2","","19.3","","101.81","","","","-25","","Snow"
"-93.58","69.55","TALOYOAK A","2403855","2023-01-07 20:00","2023","01","07","20:00","-23.2","","-25.8","","80","","","","36","","2","","16.1","","101.80","","","","-25","","Snow Grains"
"-93.58","69.55","TALOYOAK A","2403855","2023-01-07 21:00","2023","01","07","21:00","-22.9","","-25.4","","80","","","","4","","3","","16.1","","101.80","","","","-26","","Snow Pellets"
"-93.58","69.55","TALOYOAK A","2403855","2023-01-07 22:00","2023","01","07","22:00","-22.9","","-25.5","","80","","","","31","","4","","19.3","","101.80","","","","-27","","Snow Pellets"
"-93.58","69.55","TALOYOAK A","2403855","2023-01-07 23:00","2023","01","07","23:00","-22.7","","-25.2","","80","","","","3","","4","","16.1","","101.80","","","","-26","","Snow Pellets"
"-93.58","69.55","TALOYOAK A","2403855","2023-01-08 00:00","2023","01","08","00:00","-22.6","","-25.2","","80","","","","0","","1","","12.9","","101.80","","","","-24","","Snow Pellets"
"-93.58","69.55","TALOYOAK A","2403855","2023-01-08 01:00","2023","01","08","01:00","-22.5","","-25.0","","80","","","","3","","5","","12.9","","101.78","","","","-27","","Snow Pellets"
"-93.58","69.55","TALOYOAK A","2403855","2023-01-08 02:00","2023","01","08","02:00","-22.4","","-24.9","","80","","","","1","","4","","16.1","","101.79","","","","-26","","Snow Pellets"
"-93.58","69.55","TALOYOAK A","2403855","2023-01-08 03:00","2023","01","08","03:00","-22.2","","-24.7","","81","","","","34","","4","","16.1","","101.77","","","","-26","","Snow"
"-93.58","69.55","TALOYOAK A","2403855","2023-01-08 04:00","2023","01","08","04:00","-22.6","","-25.1","","80","","","","4","","12","","12.9","","101.76","","","","-31","","Snow"
"-93.58","69.55","TALOYOAK A","2403855","2023-01-08 05:00","2023","01","08","05:00","-22.6","","-25.2","","80","","","","7","","14","","16.1","","101.76","","","","-32","","Snow"
"-93.58","69.55","TALOYOAK A","2403855","2023-01-08 06:00","2023","01","08","06:00","-22.5","","-25.1","","80","","","","8","","12","","16.1","","101.75","","","","-31","","Snow"
"-93.58","69.55","TALOYOAK A","2403855","2023-01-08 07:00","2023","01","08","07:00","-22.8","","-25.4","","80","","","","7","","13","","16.1","","101.77","","","","-32","","Snow"
"-93.58","69.55","TALOYOAK A","2403855","2023-01-08 08:00","2023","01","08","08:00","-22.9","","-25.4","","80","","","","3","","9","","16.1","","101.78","","","","-30","","Snow"
"-93.58","69.55","TALOYOAK A","2403855","2023-01-08 09:00","2023","01","08","09:00","-23.4","","-26.0","","80","","","","4","","16","","14.5","","101.79","","","","-34","","Snow"
"-93.58","69.55","TALOYOAK A","2403855","2023-01-08 10:00","2023","01","08","10:00","-23.4","","-26.0","","80","","","","6","","11","","16.1","","101.80","","","","-32","","Snow"
"-93.58","69.55","TALOYOAK A","2403855","2023-01-08 11:00","2023","01","08","11:00","-23.3","","-25.9","","80","","","","4","","7","","19.3","","101.81","","","","-29","","Snow"
"-93.58","69.55","TALOYOAK A","2403855","2023-01-08 12:00","2023","01","08","12:00","-23.4","","-26.1","","80","","","","3","","12","","19.3","","101.84","","","","-32","","Snow"
"-93.58","69.55","TALOYOAK A","2403855","2023-01-08 13:00","2023","01","08","13:00","-23.9","","-26.5","","79","","","","3","","10","","24.1","","101.85","","","","-32","","Snow"
"-93.58","69.55","TALOYOAK A","2403855","2023-01-08 14:00","2023","01","08","14:00","-24.0","","-26.7","","79","","","","36","","7","","19.3","","101.88","","","","-30","","Snow"
"-93.58","69.55","TALOYOAK A","2403855","2023-01-08 15:00","2023","01","08","15:00","-24.6","","-27.2","","79","","","","1","","5","","24.1","","101.93","","","","-29","","Snow"
"-93.58","69.55","TALOYOAK A","2403855","2023-01-08 16:00","2023","01","08","16:00","-24.1","","-26.7","","79","","","","31","","7","","19.3","","101.95","","","","-30","","Snow"
"-93.58","69.55","TALOYOAK A","2403855","2023-01-08 17:00","2023","01","08","17:00","-24.3","","-27.0","","79","","","","35","","9","","19.3","","101.97","","","","-32","","Snow"
"-93.58","69.55","TALOYOAK A","2403855","2023-01-08 18:00","2023","01","08","18:00","-24.8","","-27.4","","79","","","","31","","4","","19.3","","101.99","","","","-29","","Snow"
"-93.58","69.55","TALOYOAK A","2403855","2023-01-08 19:00","2023","01","08","19:00","-25.3","","-28.1","","78","","","","34","","7","","6.4","","101.97","","","","-32","","Snow,Fog"
"-93.58","69.55","TALOYOAK A","2403855","2023-01-08 20:00","2023","01","08","20:00","-26.2","","-29.1","","78","","","","33","","9","","1.2","","102.02","","","","-34","","Snow,Fog"
"-93.58","69.55","TALOYOAK A","2403855","2023-01-08 21:00","2023","01","08","21:00","-27.5","","-30.5","","77","","","","1","","4","","1.0","","102.01","","","","-32","","Snow,Fog"
"-93.58","69.55","TALOYOAK A","2403855","2023-01-08 22:00","2023","01","08","22:00","-27.1","","-30.0","","77","","","","17","","4","","1.0","","102.02","","","","-31","","Snow,Fog"
"-93.58","69.55","TALOYOAK A","2403855","2023-01-08 23:00","2023","01","08","23:00","-27.1","","-30.0","","77","","","","20","","7","","1.2","","102.04","","","","-34","","Snow,Fog"
"-93.58","69.55","TALOYOAK A","2403855","2023-01-09 00:00","2023","01","09","00:00","-29.1","","-32.2","","75","","","","14","","9","","24.1","","102.04","","","","-38","","Ice Crystals"
"-93.58","69.55","TALOYOAK A","2403855","2023-01-09 01:00","2023","01","09","01:00","-29.9","","-33.0","","75","","","","15","","12","","24.1","","102.08","","","","-40","","Ice Crystals"
"-93.58","69.55","TALOYOAK A","2403855","2023-01-09 02:00","2023","01","09","02:00","-29.6","","-32.7","","75","","","","14","","13","","24.1","","102.06","","","","-40","","Ice Crystals"
"-93.58","69.55","TALOYOAK A","2403855","2023-01-09 03:00","2023","01","09","03:00","-30.3","","-33.5","","74","","","","16","","18","","24.1","","102.09","","","","-43","","Ice Crystals"
"-93.58","69.55","TALOYOAK A","2403855","2023-01-09 04:00","2023","01","09","04:00","-32.1","","-35.4","","73","","","","15","","17","","24.1","","102.08","","","","-45","","Ice Crystals"
"-93.58","69.55","TALOYOAK A","2403855","2023-01-09 05:00","2023","01","09","05:00","-31.9","","-35.2","","73","","","","16","","18","","12.9","","102.05","","","","-45","","Ice Crystals"
"-93.58","69.55","TALOYOAK A","2403855","2023-01-09 06:00","2023","01","09","06:00","-32.3","","-35.6","","73","","","","15","","21","","24.1","","102.05","","","","-46","","Ice Crystals"
"-93.58","69.55","TALOYOAK A","2403855","2023-01-09 07:00","2023","01","09","07:00","-32.6","","-36.0","","73","","","","15","","21","","12.9","","102.06","","","","-47","","Ice Crystals"
"-93.58","69.55","TALOYOAK A","2403855","2023-01-09 08:00","2023","01","09","08:00","-32.7","","-36.0","","73","","","","15","","19","","9.7","","102.07","","","","-46","","Ice Crystals"
"-93.58","69.55","TALOYOAK A","2403855","2023-01-09 09:00","2023","01","09","09:00","-33.2","","-36.6","","72","","","","15","","18","","9.7","","102.11","","","","-46","","Ice Crystals"
"-93.58","69.55","TALOYOAK A","2403855","2023-01-09 10:00","2023","01","09","10:00","-33.3","","-36.8","","72","","","","16","","19","","12.9","","102.14","","","","-47","","Ice Crystals"
"-93.58","69.55","TALOYOAK A","2403855","2023-01-09 11:00","2023","01","09","11:00","-33.5","","-37.0","","72","","","","16","","19","","16.1","","102.15","","","","-47","","Ice Crystals"
"-93.58","69.55","TALOYOAK A","2403855","2023-01-09 12:00","2023","01","09","12:00","-33.8","","-37.3","","72","","","","16","","17","","16.1","","102.13","","","","-47","","Ice Crystals"
"-93.58","69.55","TALOYOAK A","2403855","2023-01-09 13:00","2023","01","09","13:00"
"-93.58","69.55","TALOYOAK A","2403855","2023-01-09 14:00","2023","01","09","14:00"
"-93.58","69.55","TALOYOAK A","2403855","2023-01-09 15:00","2023","01","09","15:00","-32.7","","-36.0","","73","","","","17","","20","","16.1","","102.18","","","","-47","","Ice Crystals"
"-93.58","69.55","TALOYOAK A","2403855","2023-01-09 16:00","2023","01","09","16:00","-32.2","","-35.6","","73","","","","17","","20","","16.1","","102.16","","","","-46","","Ice Crystals"
"-93.58","69.55","TALOYOAK A","2403855","2023-01-09 17:00","2023","01","09","17:00","-32.0","","-35.3","","73","","","","18","","20","","16.1","","102.17","","","","-46","","Ice Crystals"
"-93.58","69.55","TALOYOAK A","2403855","2023-01-09 18:00","2023","01","09","18:00","-32.0","","-35.3","","73","","","","18","","18","","6.4","","102.15","","","","-45","","Snow,Fog"
"-93.58","69.55","TALOYOAK A","2403855","2023-01-09 19:00","2023","01","09","19:00","-32.6","","-36.0","","72","","","","18","","21","","12.9","","102.13","","","","-47","","Snow"
"-93.58","69.55","TALOYOAK A","2403855","2023-01-09 20:00","2023","01","09","20:00","-32.4","","-35.7","","73","","","","18","","16","","16.1","","102.10","","","","-45","","Snow"
"-93.58","69.55","TALOYOAK A","2403855","2023-01-09 21:00","2023","01","09","21:00","-31.7","","-35.0","","73","","","","18","","18","","9.7","","102.10","","","","-45","","Snow,Fog"
"-93.58","69.55","TALOYOAK A","2403855","2023-01-09 22:00","2023","01","09","22:00","-31.4","","-34.6","","73","","","","19","","23","","9.7","","102.09","","","","-46","","Snow,Fog"
"-93.58","69.55","TALOYOAK A","2403855","2023-01-09 23:00","2023","01","09","23:00","-31.4","","-34.7","","73","","","","19","","19","","3.2","","102.05","","","","-45","","Snow,Fog"
"-93.58","69.55","TALOYOAK A","2403855","2023-01-10 00:00","2023","01","10","00:00","-30.9","","-34.2","","74","","","","19","","17","","6.4","","102.05","","","","-43","","Snow,Fog"
"-93.58","69.55","TALOYOAK A","2403855","2023-01-10 01:00","2023","01","10","01:00","-29.4","","-32.6","","75","","","","19","","20","","6.4","","102.02","","","","-42","","Snow,Fog"
"-93.58","69.55","TALOYOAK A","2403855","2023-01-10 02:00","2023","01","10","02:00","-29.0","","-32.1","","75","","","","21","","23","","4.8","","101.98","","","","-43","","Snow,Fog"
"-93.58","69.55","TALOYOAK A","2403855","2023-01-10 03:00","2023","01","10","03:00","-28.8","","-31.9","","75","","","","19","","21","","6.4","","101.94","","","","-42","","Snow,Fog"
"-93.58","69.55","TALOYOAK A","2403855","2023-01-10 04:00","2023","01","10","04:00","-27.9","","-30.9","","76","","","","19","","20","","9.7","","101.87","","","","-40","","Snow"
"-93.58","69.55","TALOYOAK A","2403855","2023-01-10 05:00","2023","01","10","05:00","-27.8","","-30.9","","76","","","","18","","21","","8.1","","101.80","","","","-41","","Snow"
"-93.58","69.55","TALOYOAK A","2403855","2023-01-10 06:00","2023","01","10","06:00","-27.7","","-30.8","","76","","","","18","","17","","8.1","","101.76","","","","-39","","Snow"
"-93.58","69.55","TALOYOAK A","2403855","2023-01-10 07:00","2023","01","10","07:00","-27.2","","-30.1","","76","","","","19","","24","","9.7","","101.67","","","","-41","","Snow"
"-93.58","69.55","TALOYOAK A","2403855","2023-01-10 08:00","2023","01","10","08:00","-26.9","","-29.9","","77","","","","18","","25","","12.9","","101.61","","","","-40","","Snow"
"-93.58","69.55","TALOYOAK A","2403855","2023-01-10 09:00","2023","01","10","09:00","-25.5","","-28.3","","78","","","","18","","28","","12.9","","101.54","","","","-39","","Snow,Blowing Snow"
"-93.58","69.55","TALOYOAK A","2403855","2023-01-10 10:00","2023","01","10","10:00","-24.6","","-27.4","","78","","","","17","","27","","19.3","","101.41","","","","-38","","Snow"
"-93.58","69.55","TALOYOAK A","2403855","2023-01-10 11:00","2023","01","10","11:00","-23.3","","-25.9","","79","","","","17","","29","","19.3","","101.33","","","","-37","","Snow,Blowing Snow"
"-93.58","69.55","TALOYOAK A","2403855","2023-01-10 12:00","2023","01","10","12:00","-22.7","","-25.3","","80","","","","17","","30","","24.1","","101.23","","","","-36","","Snow,Blowing Snow"
"-93.58","69.55","TALOYOAK A","2403855","2023-01-10 13:00","2023","01","10","13:00","-22.6","","-25.1","","80","","","","17","","26","","16.1","","101.13","","","","-35","","Snow,Blowing Snow"
"-93.58","69.55","TALOYOAK A","2403855","2023-01-10 14:00","2023","01","10","14:00","-21.4","","-23.9","","81","","","","17","","30","","12.9","","101.04","","","","-34","","Snow,Blowing Snow"
"-93.58","69.55","TALOYOAK A","2403855","2023-01-10 15:00","2023","01","10","15:00","-20.7","","-23.1","","81","","","","18","","30","","16.1","","100.93","","","","-33","","Snow,Blowing Snow"
"-93.58","69.55","TALOYOAK A","2403855","2023-01-10 16:00","2023","01","10","16:00","-20.3","","-22.6","","82","","","","17","","38","","6.4","","100.81","","","","-34","","Snow,Blowing Snow"
"-93.58","69.55","TALOYOAK A","2403855","2023-01-10 17:00","2023","01","10","17:00","-19.6","","-21.9","","83","","","","18","","35","","3.2","","100.66","","","","-33","","Snow,Blowing Snow"
"-93.58","69.55","TALOYOAK A","2403855","2023-01-10 18:00","2023","01","10","18:00","-19.5","","-21.8","","83","","","","18","","36","","3.2","","100.58","","","","-33","","Snow,Blowing Snow"
"-93.58","69.55","TALOYOAK A","2403855","2023-01-10 19:00","2023","01","10","19:00","-19.1","","-21.3","","83","","","","19","","46","","2.0","","100.40","","","","-34","","Snow,Blowing Snow"
"-93.58","69.55","TALOYOAK A","2403855","2023-01-10 20:00","2023","01","10","20:00","-19.2","","-21.4","","83","","","","20","","42","","2.4","","100.31","","","","-33","","Snow,Blowing Snow"
"-93.58","69.55","TALOYOAK A","2403855","2023-01-10 21:00","2023","01","10","21:00","-19.7","","-22.0","","83","","","","20","","35","","4.8","","100.24","","","","-33","","Snow,Blowing Snow"
"-93.58","69.55","TALOYOAK A","2403855","2023-01-10 22:00","2023","01","10","22:00","-19.6","","-21.9","","83","","","","19","","38","","4.8","","100.15","","","","-33","","Snow,Blowing Snow"
"-93.58","69.55","TALOYOAK A","2403855","2023-01-10 23:00","2023","01","10","23:00","-19.6","","-21.8","","83","","","","20","","35","","9.7","","100.02","","","","-33","","Snow,Blowing Snow"
"-93.58","69.55","TALOYOAK A","2403855","2023-01-11 00:00","2023","01","11","00:00","-19.4","","-21.6","","83","","","","19","","31","","9.7","","99.95","","","","-32","","Snow,Blowing Snow"
"-93.58","69.55","TALOYOAK A","2403855","2023-01-11 01:00","2023","01","11","01:00","-19.3","","-21.5","","83","","","","19","","32","","8.1","","99.86","","","","-32","","Snow,Blowing Snow"
"-93.58","69.55","TALOYOAK A","2403855","2023-01-11 02:00","2023","01","11","02:00","-19.2","","-21.4","","83","","","","19","","28","","8.1","","99.80","","","","-31","","Snow,Blowing Snow"
"-93.58","69.55","TALOYOAK A","2403855","2023-01-11 03:00","2023","01","11","03:00","-19.4","","-21.6","","83","","","","19","","22","","19.3","","99.74","","","","-30","","Snow,Blowing Snow"
"-93.58","69.55","TALOYOAK A","2403855","2023-01-11 04:00","2023","01","11","04:00","-19.2","","-21.3","","83","","","","18","","15","","9.7","","99.69","","","","-28","","Snow"
"-93.58","69.55","TALOYOAK A","2403855","2023-01-11 05:00","2023","01","11","05:00","-19.1","","-21.3","","83","","","","18","","12","","9.7","","99.62","","","","-27","","Snow"
"-93.58","69.55","TALOYOAK A","2403855","2023-01-11 06:00","2023","01","11","06:00","-19.2","","-21.4","","83","","","","20","","5","","6.4","","99.63","","","","-23","","Snow Showers"
"-93.58","69.55","TALOYOAK A","2403855","2023-01-11 07:00","2023","01","11","07:00","-19.2","","-21.4","","83","","","","","","0","","6.4","","99.62","","","","","","Snow Showers"
"-93.58","69.55","TALOYOAK A","2403855","2023-01-11 08:00","2023","01","11","08:00","-19.8","","-22.0","","83","","","","36","","13","","12.9","","99.63","","","","-28","","Snow Showers"
"-93.58","69.55","TALOYOAK A","2403855","2023-01-11 09:00","2023","01","11","09:00","-20.1","","-22.4","","82","","","","36","","21","","6.4","","99.69","","","","-31","","Snow Showers"
"-93.58","69.55","TALOYOAK A","2403855","2023-01-11 10:00","2023","01","11","10:00","-20.9","","-23.2","","82","","","","1","","27","","6.4","","99.74","","","","-33","","Snow,Blowing Snow"
"-93.58","69.55","TALOYOAK A","2403855","2023-01-11 11:00","2023","01","11","11:00","-21.5","","-23.9","","81","","","","35","","27","","3.2","","99.80","","","","-34","","Snow Showers,Blowing Snow"
"-93.58","69.55","TALOYOAK A","2403855","2023-01-11 12:00","2023","01","11","12:00","-23.0","","-25.6","","80","","","","35","","27","","6.4","","99.88","","","","-36","","Snow,Blowing Snow"
"-93.58","69.55","TALOYOAK A","2403855","2023-01-11 13:00","2023","01","11","13:00","-24.4","","-27.0","","79","","","","35","","28","","19.3","","99.97","","","","-38","","Snow,Blowing Snow"
"-93.58","69.55","TALOYOAK A","2403855","2023-01-11 14:00","2023","01","11","14:00","-24.8","","-27.5","","78","","","","33","","34","","19.3","","100.08","","","","-40","","Snow,Blowing Snow"
"-93.58","69.55","TALOYOAK A","2403855","2023-01-11 15:00","2023","01","11","15:00","-25.6","","-28.4","","78","","","","32","","44","","4.0","","100.21","","","","-42","","Snow,Blowing Snow"
"-93.58","69.55","TALOYOAK A","2403855","2023-01-11 16:00","2023","01","11","16:00","-28.3","","-31.3","","76","","","","32","","41","","4.0","","100.31","","","","-45","","Snow,Blowing Snow"
"-93.58","69.55","TALOYOAK A","2403855","2023-01-11 17:00","2023","01","11","17:00","-29.1","","-32.1","","75","","","","32","","46","","4.0","","100.40","","","","-47","","Snow,Blowing Snow"
"-93.58","69.55","TALOYOAK A","2403855","2023-01-11 18:00","2023","01","11","18:00","-30.9","","-34.2","","74","","","","31","","34","","4.0","","100.58","","","","-48","","Snow,Blowing Snow"
"-93.58","69.55","TALOYOAK A","2403855","2023-01-11 19:00","2023","01","11","19:00","-31.5","","-34.7","","74","","","","31","","49","","1.2","","100.62","","","","-51","","Snow,Blowing Snow"
"-93.58","69.55","TALOYOAK A","2403855","2023-01-11 20:00","2023","01","11","20:00","-30.1","","-33.2","","75","","","","32","","52","","0.6","","100.66","","","","-49","","Snow,Blowing Snow"
"-93.58","69.55","TALOYOAK A","2403855","2023-01-11 21:00","2023","01","11","21:00","-30.4","","-33.6","","74","","","","33","","44","","0.8","","100.73","","","","-49","","Snow,Blowing Snow"
"-93.58","69.55","TALOYOAK A","2403855","2023-01-11 22:00","2023","01","11","22:00","-30.1","","-33.2","","75","","","","31","","37","","1.6","","100.83","","","","-47","","Snow,Blowing Snow"
"-93.58","69.55","TALOYOAK A","2403855","2023-01-11 23:00","2023","01","11","23:00","-29.6","","-32.6","","75","","","","32","","28","","2.0","","100.92","","","","-45","","Snow,Blowing Snow"
"-93.58","69.55","TALOYOAK A","2403855","2023-01-12 00:00","2023","01","12","00:00","-29.7","","-32.8","","75","","","","31","","37","","1.6","","100.91","","","","-47","","Snow,Blowing Snow"
"-93.58","69.55","TALOYOAK A","2403855","2023-01-12 01:00","2023","01","12","01:00","-30.2","","-33.4","","75","","","","31","","39","","2.0","","100.97","","","","-48","","Snow,Blowing Snow"
"-93.58","69.55","TALOYOAK A","2403855","2023-01-12 02:00","2023","01","12","02:00","-30.5","","-33.7","","74","","","","31","","37","","3.2","","101.00","","","","-48","","Snow,Blowing Snow"
"-93.58","69.55","TALOYOAK A","2403855","2023-01-12 03:00","2023","01","12","03:00","-30.3","","-33.5","","74","","","","31","","23","","9.7","","101.08","","","","-44","","Ice Crystals,Blowing Snow"
"-93.58","69.55","TALOYOAK A","2403855","2023-01-12 04:00","2023","01","12","04:00","-29.6","","-32.7","","75","","","","31","","32","","6.4","","101.08","","","","-46","","Ice Crystals,Blowing Snow"
"-93.58","69.55","TALOYOAK A","2403855","2023-01-12 05:00","2023","01","12","05:00","-28.8","","-31.9","","75","","","","31","","37","","6.4","","101.08","","","","-45","","Ice Crystals,Blowing Snow"
"-93.58","69.55","TALOYOAK A","2403855","2023-01-12 06:00","2023","01","12","06:00","-28.2","","-31.2","","76","","","","31","","25","","6.4","","101.11","","","","-42","","Ice Crystals,Blowing Snow"
"-93.58","69.55","TALOYOAK A","2403855","2023-01-12 07:00","2023","01","12","07:00","-28.3","","-31.4","","76","","","","29","","30","","9.7","","101.07","","","","-43","","Ice Crystals,Blowing Snow"
"-93.58","69.55","TALOYOAK A","2403855","2023-01-12 08:00","2023","01","12","08:00","-27.7","","-30.7","","76","","","","27","","20","","8.1","","101.07","","","","-40","","Ice Crystals,Blowing Snow"
"-93.58","69.55","TALOYOAK A","2403855","2023-01-12 09:00","2023","01","12","09:00","-28.2","","-31.2","","76","","","","19","","8","","6.4","","101.08","","","","-36","","Ice Crystals"
"-93.58","69.55","TALOYOAK A","2403855","2023-01-12 10:00","2023","01","12","10:00","-26.9","","-29.8","","77","","","","28","","17","","6.4","","101.11","","","","-38","","Ice Crystals,Blowing Snow"
"-93.58","69.55","TALOYOAK A","2403855","2023-01-12 11:00","2023","01","12","11:00","-26.2","","-29.0","","77","","","","28","","33","","8.1","","101.03","","","","-41","","Ice Crystals,Blowing Snow"
"-93.58","69.55","TALOYOAK A","2403855","2023-01-12 12:00","2023","01","12","12:00","-26.4","","-29.3","","77","","","","27","","29","","8.1","","101.03","","","","-41","","Ice Crystals,Blowing Snow"
"-93.58","69.55","TALOYOAK A","2403855","2023-01-12 13:00","2023","01","12","13:00","-25.5","","-28.3","","78","","","","26","","21","","8.1","","101.03","","","","-38","","Ice Crystals,Blowing Snow"
"-93.58","69.55","TALOYOAK A","2403855","2023-01-12 14:00","2023","01","12","14:00","-25.2","","-27.9","","78","","","","27","","24","","8.1","","100.98","","","","-38","","Snow,Blowing Snow"
"-93.58","69.55","TALOYOAK A","2403855","2023-01-12 15:00","2023","01","12","15:00","-25.2","","-27.9","","78","","","","28","","25","","8.1","","100.92","","","","-38","","Snow,Blowing Snow"
"-93.58","69.55","TALOYOAK A","2403855","2023-01-12 16:00","2023","01","12","16:00","-24.3","","-26.9","","79","","","","27","","30","","6.4","","100.86","","","","-38","","Snow,Blowing Snow"
"-93.58","69.55","TALOYOAK A","2403855","2023-01-12 17:00","2023","01","12","17:00","-24.5","","-27.3","","79","","","","27","","28","","8.1","","100.79","","","","-38","","Snow,Blowing Snow"
"-93.58","69.55","TALOYOAK A","2403855","2023-01-12 18:00","2023","01","12","18:00","-25.2","","-28.0","","78","","","","27","","28","","6.4","","100.75","","","","-39","","Snow,Blowing Snow"
"-93.58","69.55","TALOYOAK A","2403855","2023-01-12 19:00","2023","01","12","19:00","-25.8","","-28.6","","78","","","","27","","37","","4.0","","100.64","","","","-41","","Snow,Blowing Snow"
"-93.58","69.55","TALOYOAK A","2403855","2023-01-12 20:00","2023","01","12","20:00","-26.1","","-28.9","","77","","","","26","","26","","6.4","","100.58","","","","-40","","Snow,Blowing Snow"
"-93.58","69.55","TALOYOAK A","2403855","2023-01-12 21:00","2023","01","12","21:00"
"-93.58","69.55","TALOYOAK A","2403855","2023-01-12 22:00","2023","01","12","22:00","-26.6","","-29.5","","77","","","","28","","32","","8.1","","100.51","","","","-42","","Snow,Blowing Snow"
"-93.58","69.55","TALOYOAK A","2403855","2023-01-12 23:00","2023","01","12","23:00","-26.7","","-29.6","","77","","","","29","","32","","8.1","","100.47","","","","-42","","Snow,Blowing Snow"
"-93.58","69.55","TALOYOAK A","2403855","2023-01-13 00:00","2023","01","13","00:00","-26.7","","-29.6","","77","","","","28","","20","","9.7","","100.50","","","","-39","","Snow,Blowing Snow"
"-93.58","69.55","TALOYOAK A","2403855","2023-01-13 01:00","2023","01","13","01:00","-26.6","","-29.4","","77","","","","29","","26","","9.7","","100.46","","","","-40","","Snow,Blowing Snow"
"-93.58","69.55","TALOYOAK A","2403855","2023-01-13 02:00","2023","01","13","02:00","-26.8","","-29.8","","77","","","","28","","16","","12.9","","100.48","","","","-38","","Snow"
"-93.58","69.55","TALOYOAK A","2403855","2023-01-13 03:00","2023","01","13","03:00","-26.8","","-29.7","","77","","","","30","","19","","12.9","","100.46","","","","-39","","Snow"
"-93.58","69.55","TALOYOAK A","2403855","2023-01-13 04:00","2023","01","13","04:00"
"-93.58","69.55","TALOYOAK A","2403855","2023-01-13 05:00","2023","01","13","05:00","-28.2","","-31.2","","76","","","","31","","28","","19.3","","100.41","","","","-43","","Snow"
"-93.58","69.55","TALOYOAK A","2403855","2023-01-13 06:00","2023","01","13","06:00","-29.6","","-32.8","","75","","","","30","","17","","19.3","","100.40","","","","-42","","Ice Crystals"
"-93.58","69.55","TALOYOAK A","2403855","2023-01-13 07:00","2023","01","13","07:00","-31.1","","-34.3","","74","","","","31","","8","","24.1","","100.42","","","","-39","","Ice Crystals"
"-93.58","69.55","TALOYOAK A","2403855","2023-01-13 08:00","2023","01","13","08:00","-31.3","","-34.6","","74","","","","31","","26","","24.1","","100.42","","","","-46","","Mainly Clear"
"-93.58","69.55","TALOYOAK A","2403855","2023-01-13 09:00","2023","01","13","09:00","-31.9","","-35.2","","73","","","","31","","31","","16.1","","100.44","","","","-48","","Ice Crystals,Blowing Snow"
"-93.58","69.55","TALOYOAK A","2403855","2023-01-13 10:00","2023","01","13","10:00","-32.4","","-35.8","","73","","","","31","","25","","24.1","","100.48","","","","-48","","Ice Crystals,Blowing Snow"
"-93.58","69.55","TALOYOAK A","2403855","2023-01-13 11:00","2023","01","13","11:00","-33.4","","-36.8","","72","","","","31","","23","","24.1","","100.47","","","","-48","","Ice Crystals,Blowing Snow"
"-93.58","69.55","TALOYOAK A","2403855","2023-01-13 12:00","2023","01","13","12:00","-33.5","","-36.9","","72","","","","32","","25","","24.1","","100.49","","","","-49","","Ice Crystals,Blowing Snow"
"-93.58","69.55","TALOYOAK A","2403855","2023-01-13 13:00","2023","01","13","13:00","-34.1","","-37.6","","72","","","","33","","29","","12.9","","100.52","","","","-51","","Ice Crystals,Blowing Snow"
"-93.58","69.55","TALOYOAK A","2403855","2023-01-13 14:00","2023","01","13","14:00","-35.1","","-38.6","","71","","","","32","","30","","16.1","","100.55","","","","-52","","Ice Crystals,Blowing Snow"
"-93.58","69.55","TALOYOAK A","2403855","2023-01-13 15:00","2023","01","13","15:00","-35.0","","-38.6","","71","","","","33","","21","","14.5","","100.62","","","","-50","","Ice Crystals,Blowing Snow"
"-93.58","69.55","TALOYOAK A","2403855","2023-01-13 16:00","2023","01","13","16:00","-35.0","","-38.6","","71","","","","32","","26","","19.3","","100.67","","","","-51","","Ice Crystals,Blowing Snow"
"-93.58","69.55","TALOYOAK A","2403855","2023-01-13 17:00","2023","01","13","17:00","-34.8","","-38.3","","71","","","","30","","28","","16.1","","100.67","","","","-51","","Ice Crystals,Blowing Snow"
"-93.58","69.55","TALOYOAK A","2403855","2023-01-13 18:00","2023","01","13","18:00","-35.1","","-38.7","","71","","","","32","","23","","16.1","","100.67","","","","-50","","Ice Crystals,Blowing Snow"
"-93.58","69.55","TALOYOAK A","2403855","2023-01-13 19:00","2023","01","13","19:00","-34.9","","-38.4","","71","","","","31","","27","","16.1","","100.69","","","","-51","","Ice Crystals,Blowing Snow"
"-93.58","69.55","TALOYOAK A","2403855","2023-01-13 20:00","2023","01","13","20:00","-34.6","","-38.2","","71","","","","31","","31","","12.9","","100.65","","","","-52","","Ice Crystals,Blowing Snow"
"-93.58","69.55","TALOYOAK A","2403855","2023-01-13 21:00","2023","01","13","21:00","-34.6","","-38.1","","71","","","","30","","23","","12.9","","100.71","","","","-50","","Ice Crystals,Blowing Snow"
"-93.58","69.55","TALOYOAK A","2403855","2023-01-13 22:00","2023","01","13","22:00","-34.4","","-38.0","","71","","","","31","","22","","24.1","","100.71","","","","-49","","Ice Crystals"
"-93.58","69.55","TALOYOAK A","2403855","2023-01-13 23:00","2023","01","13","23:00","-34.9","","-38.4","","71","","","","31","","34","","3.2","","100.72","","","","-53","","Ice Crystals,Blowing Snow"
"-93.58","69.55","TALOYOAK A","2403855","2023-01-14 00:00","2023","01","14","00:00","-34.6","","-38.2","","71","","","","31","","23","","12.9","","100.77","","","","-50","","Ice Crystals"
"-93.58","69.55","TALOYOAK A","2403855","2023-01-14 01:00","2023","01","14","01:00","-33.3","","-36.7","","72","","","","32","","43","","6.4","","100.77","","","","-52","","Ice Crystals,Blowing Snow"
"-93.58","69.55","TALOYOAK A","2403855","2023-01-14 02:00","2023","01","14","02:00","-33.0","","-36.5","","72","","","","31","","47","","2.4","","100.71","","","","-53","","Ice Crystals,Blowing Snow"
"-93.58","69.55","TALOYOAK A","2403855","2023-01-14 03:00","2023","01","14","03:00","-33.0","","-36.4","","72","","","","31","","43","","2.4","","100.72","","","","-52","","Ice Crystals,Blowing Snow"
"-93.58","69.55","TALOYOAK A","2403855","2023-01-14 04:00","2023","01","14","04:00","-34.1","","-37.7","","71","","","","35","","22","","12.9","","100.78","","","","-49","","Ice Crystals,Blowing Snow"
"-93.58","69.55","TALOYOAK A","2403855","2023-01-14 05:00","2023","01","14","05:00","-34.2","","-37.8","","71","","","","32","","32","","8.1","","100.79","","","","-52","","Ice Crystals,Blowing Snow"
"-93.58","69.55","TALOYOAK A","2403855","2023-01-14 06:00","2023","01","14","06:00","-34.2","","-37.7","","71","","","","31","","43","","2.4","","100.74","","","","-54","","Ice Crystals,Blowing Snow"
"-93.58","69.55","TALOYOAK A","2403855","2023-01-14 07:00","2023","01","14","07:00","-33.7","","-37.2","","72","","","","31","","39","","2.4","","100.74","","","","-52","","Ice Crystals,Blowing Snow"
"-93.58","69.55","TALOYOAK A","2403855","2023-01-14 08:00","2023","01","14","08:00","-34.4","","-37.9","","71","","","","31","","39","","2.4","","100.78","","","","-53","","Ice Crystals,Blowing Snow"
"-93.58","69.55","TALOYOAK A","2403855","2023-01-14 09:00","2023","01","14","09:00","-34.7","","-38.3","","71","","","","31","","43","","4.8","","100.80","","","","-54","","Ice Crystals,Blowing Snow"
"-93.58","69.55","TALOYOAK A","2403855","2023-01-14 10:00","2023","01","14","10:00","-33.9","","-37.4","","72","","","","30","","14","","24.1","","100.83","","","","-46","","Ice Crystals"
"-93.58","69.55","TALOYOAK A","2403855","2023-01-14 11:00","2023","01","14","11:00","-32.8","","-36.2","","72","","","","32","","7","","24.1","","100.84","","","","-41","","Ice Crystals,Blowing Snow"
"-93.58","69.55","TALOYOAK A","2403855","2023-01-14 12:00","2023","01","14","12:00","-33.9","","-37.4","","72","","","","24","","8","","6.4","","100.86","","","","-43","","Ice Crystals,Blowing Snow"
"-93.58","69.55","TALOYOAK A","2403855","2023-01-14 13:00","2023","01","14","13:00","-33.6","","-37.0","","72","","","","29","","12","","12.9","","100.90","","","","-45","","Ice Crystals,Blowing Snow"
"-93.58","69.55","TALOYOAK A","2403855","2023-01-14 14:00","2023","01","14","14:00","-33.0","","-36.4","","72","","","","30","","25","","24.1","","100.93","","","","-48","","Ice Crystals,Blowing Snow"
"-93.58","69.55","TALOYOAK A","2403855","2023-01-14 15:00","2023","01","14","15:00","-33.6","","-37.0","","72","","","","29","","5","","24.1","","100.99","","","","-40","","Ice Crystals"
"-93.58","69.55","TALOYOAK A","2403855","2023-01-14 16:00","2023","01","14","16:00","-33.0","","-36.5","","72","","","","30","","14","","24.1","","100.97","","","","-45","","Ice Crystals,Blowing Snow"
"-93.58","69.55","TALOYOAK A","2403855","2023-01-14 17:00","2023","01","14","17:00","-32.6","","-36.0","","72","","","","26","","12","","24.1","","100.99","","","","-43","","Ice Crystals"
"-93.58","69.55","TALOYOAK A","2403855","2023-01-14 18:00","2023","01","14","18:00","-36.4","","-40.1","","70","","","","12","","9","","12.9","","101.00","","","","-46","","Ice Crystals"
"-93.58","69.55","TALOYOAK A","2403855","2023-01-14 19:00","2023","01","14","19:00","-35.6","","-39.2","","70","","","","18","","5","","24.1","","100.98","","","","-42","","Ice Crystals"
"-93.58","69.55","TALOYOAK A","2403855","2023-01-14 20:00","2023","01","14","20:00","-35.3","","-38.9","","70","","","","15","","5","","24.1","","101.00","","","","-42","","Ice Crystals"
"-93.58","69.55","TALOYOAK A","2403855","2023-01-14 21:00","2023","01","14","21:00","-36.3","","-39.9","","70","","","","12","","10","","24.1","","101.05","","","","-47","","Ice Crystals"
"-93.58","69.55","TALOYOAK A","2403855","2023-01-14 22:00","2023","01","14","22:00","-36.5","","-40.1","","70","","","","14","","5","","24.1","","101.07","","","","-43","","Ice Crystals"
"-93.58","69.55","TALOYOAK A","2403855","2023-01-14 23:00","2023","01","14","23:00","-36.2","","-39.8","","70","","","","19","","8","","24.1","","101.09","","","","-45","","Ice Crystals"
"-93.58","69.55","TALOYOAK A","2403855","2023-01-15 00:00","2023","01","15","00:00","-36.9","","-40.7","","69","","","","12","","10","","24.1","","101.11","","","","-47","","Ice Crystals"
"-93.58","69.55","TALOYOAK A","2403855","2023-01-15 01:00","2023","01","15","01:00","-37.1","","-40.8","","69","","","","14","","13","","24.1","","101.14","","","","-49","","Ice Crystals"
"-93.58","69.55","TALOYOAK A","2403855","2023-01-15 02:00","2023","01","15","02:00","-37.0","","-40.7","","69","","","","13","","13","","24.1","","101.20","","","","-49","","Ice Crystals"
"-93.58","69.55","TALOYOAK A","2403855","2023-01-15 03:00","2023","01","15","03:00","-37.3","","-41.0","","69","","","","15","","18","","24.1","","101.24","","","","-52","","Ice Crystals"
"-93.58","69.55","TALOYOAK A","2403855","2023-01-15 04:00","2023","01","15","04:00","-37.5","","-41.2","","69","","","","14","","19","","24.1","","101.29","","","","-52","","Ice Crystals"
"-93.58","69.55","TALOYOAK A","2403855","2023-01-15 05:00","2023","01","15","05:00","-37.5","","-41.3","","69","","","","14","","17","","24.1","","101.33","","","","-51","","Ice Crystals"
"-93.58","69.55","TALOYOAK A","2403855","2023-01-15 06:00","2023","01","15","06:00","-37.7","","-41.4","","69","","","","15","","14","","24.1","","101.34","","","","-50","","Ice Crystals"
"-93.58","69.55","TALOYOAK A","2403855","2023-01-15 07:00","2023","01","15","07:00","-37.5","","-41.2","","69","","","","15","","14","","24.1","","101.34","","","","-50","","Ice Crystals"
"-93.58","69.55","TALOYOAK A","2403855","2023-01-15 08:00","2023","01","15","08:00","-37.4","","-41.1","","69","","","","15","","16","","24.1","","101.39","","","","-51","","Ice Crystals"
"-93.58","69.55","TALOYOAK A","2403855","2023-01-15 09:00","2023","01","15","09:00","-37.9","","-41.7","","69","","","","15","","17","","24.1","","101.44","","","","-52","","Ice Crystals"
"-93.58","69.55","TALOYOAK A","2403855","2023-01-15 10:00","2023","01","15","10:00","-37.7","","-41.5","","69","","","","15","","16","","24.1","","101.48","","","","-51","","Ice Crystals"
"-93.58","69.55","TALOYOAK A","2403855","2023-01-15 11:00","2023","01","15","11:00","-37.8","","-41.5","","69","","","","15","","14","","24.1","","101.52","","","","-51","","Ice Crystals"
"-93.58","69.55","TALOYOAK A","2403855","2023-01-15 12:00","2023","01","15","12:00","-37.7","","-41.5","","69","","","","15","","17","","24.1","","101.57","","","","-52","","Ice Crystals"
"-93.58","69.55","TALOYOAK A","2403855","2023-01-15 13:00","2023","01","15","13:00","-37.6","","-41.4","","69","","","","16","","13","","24.1","","101.62","","","","-50","","Ice Crystals"
"-93.58","69.55","TALOYOAK A","2403855","2023-01-15 14:00","2023","01","15","14:00","-37.2","","-40.9","","69","","","","15","","12","","19.3","","101.67","","","","-49","","Ice Crystals"
"-93.58","69.55","TALOYOAK A","2403855","2023-01-15 15:00","2023","01","15","15:00","-36.6","","-40.3","","69","","","","16","","10","","19.3","","101.69","","","","-47","","Ice Crystals"
"-93.58","69.55","TALOYOAK A","2403855","2023-01-15 16:00","2023","01","15","16:00","-37.0","","-40.8","","69","","","","19","","9","","16.1","","101.73","","","","-47","","Snow,Ice Crystals"
"-93.58","69.55","TALOYOAK A","2403855","2023-01-15 17:00","2023","01","15","17:00","-36.8","","-40.6","","69","","","","16","","9","","16.1","","101.76","","","","-47","","Snow,Ice Crystals"
"-93.58","69.55","TALOYOAK A","2403855","2023-01-15 18:00","2023","01","15","18:00","-37.0","","-40.7","","69","","","","19","","5","","19.3","","101.79","","","","-44","","Snow,Ice Crystals"
"-93.58","69.55","TALOYOAK A","2403855","2023-01-15 19:00","2023","01","15","19:00","-36.7","","-40.4","","69","","","","17","","4","","16.1","","101.82","","","","-42","","Snow"
"-93.58","69.55","TALOYOAK A","2403855","2023-01-15 20:00","2023","01","15","20:00","-36.9","","-40.6","","69","","","","22","","4","","16.1","","101.83","","","","-42","","Snow"
"-93.58","69.55","TALOYOAK A","2403855","2023-01-15 21:00","2023","01","15","21:00","-37.9","","-41.7","","68","","","","36","","7","","16.1","","101.84","","","","-46","","Snow"
"-93.58","69.55","TALOYOAK A","2403855","2023-01-15 22:00","2023","01","15","22:00","-37.9","","-41.7","","69","","","","2","","4","","16.1","","101.88","","","","-43","","Snow"
"-93.58","69.55","TALOYOAK A","2403855","2023-01-15 23:00","2023","01","15","23:00"
"-93.58","69.55","TALOYOAK A","2403855","2023-01-16 00:00","2023","01","16","00:00","-38.6","","-42.4","","68","","","","5","","5","","16.1","","102.00","","","","-45","","Snow"
"-93.58","69.55","TALOYOAK A","2403855","2023-01-16 01:00","2023","01","16","01:00","-39.2","","-43.1","","68","","","","2","","11","","16.1","","102.02","","","","-51","","Ice Crystals"
"-93.58","69.55","TALOYOAK A","2403855","2023-01-16 02:00","2023","01","16","02:00","-40.3","","-44.2","","67","","","","2","","15","","24.1","","102.05","","","","-54","","Ice Crystals"
"-93.58","69.55","TALOYOAK A","2403855","2023-01-16 03:00","2023","01","16","03:00","-40.5","","-44.5","","67","","","","3","","15","","24.1","","102.08","","","","-54","","Ice Crystals"
"-93.58","69.55","TALOYOAK A","2403855","2023-01-16 04:00","2023","01","16","04:00","-40.5","","-44.4","","67","","","","5","","21","","24.1","","102.09","","","","-57","","Ice Crystals"
"-93.58","69.55","TALOYOAK A","2403855","2023-01-16 05:00","2023","01","16","05:00","-40.6","","-44.6","","67","","","","1","","17","","24.1","","102.10","","","","-55","","Ice Crystals"
"-93.58","69.55","TALOYOAK A","2403855","2023-01-16 06:00","2023","01","16","06:00","-40.9","","-44.9","","67","","","","1","","15","","24.1","","102.12","","","","-55","","Ice Crystals"
"-93.58","69.55","TALOYOAK A","2403855","2023-01-16 07:00","2023","01","16","07:00","-40.3","","-44.3","","67","","","","1","","18","","24.1","","102.15","","","","-55","","Ice Crystals"
"-93.58","69.55","TALOYOAK A","2403855","2023-01-16 08:00","2023","01","16","08:00","-40.5","","-44.4","","67","","","","1","","19","","24.1","","102.16","","","","-56","","Ice Crystals"
"-93.58","69.55","TALOYOAK A","2403855","2023-01-16 09:00","2023","01","16","09:00","-39.6","","-43.5","","67","","","","1","","22","","24.1","","102.20","","","","-56","","Ice Crystals"
"-93.58","69.55","TALOYOAK A","2403855","2023-01-16 10:00","2023","01","16","10:00","-39.6","","-43.5","","67","","","","2","","23","","24.1","","102.23","","","","-56","","Ice Crystals"
"-93.58","69.55","TALOYOAK A","2403855","2023-01-16 11:00","2023","01","16","11:00","-38.9","","-42.8","","68","","","","1","","22","","24.1","","102.24","","","","-55","","Ice Crystals"
"-93.58","69.55","TALOYOAK A","2403855","2023-01-16 12:00","2023","01","16","12:00","-39.0","","-42.9","","68","","","","1","","21","","24.1","","102.26","","","","-55","","Ice Crystals"
"-93.58","69.55","TALOYOAK A","2403855","2023-01-16 13:00","2023","01","16","13:00","-38.8","","-42.7","","68","","","","2","","23","","24.1","","102.28","","","","-55","","Ice Crystals"
"-93.58","69.55","TALOYOAK A","2403855","2023-01-16 14:00","2023","01","16","14:00","-38.3","","-42.1","","68","","","","2","","22","","24.1","","102.32","","","","-54","","Ice Crystals"
"-93.58","69.55","TALOYOAK A","2403855","2023-01-16 15:00","2023","01","16","15:00","-38.3","","-42.2","","68","","","","1","","21","","8.1","","102.33","","","","-54","","Ice Crystals,Fog"
"-93.58","69.55","TALOYOAK A","2403855","2023-01-16 16:00","2023","01","16","16:00","-37.8","","-41.6","","68","","","","2","","23","","6.4","","102.38","","","","-54","","Ice Crystals"
"-93.58","69.55","TALOYOAK A","2403855","2023-01-16 17:00","2023","01","16","17:00","-36.9","","-40.7","","69","","","","3","","22","","9.7","","102.38","","","","-52","","Ice Crystals"
"-93.58","69.55","TALOYOAK A","2403855","2023-01-16 18:00","2023","01","16","18:00","-37.3","","-41.1","","69","","","","1","","19","","9.7","","102.40","","","","-52","","Ice Crystals"
"-93.58","69.55","TALOYOAK A","2403855","2023-01-16 19:00","2023","01","16","19:00","-36.7","","-40.5","","69","","","","2","","16","","6.4","","102.42","","","","-50","","Ice Crystals"
"-93.58","69.55","TALOYOAK A","2403855","2023-01-16 20:00","2023","01","16","20:00","-36.5","","-40.2","","69","","","","4","","19","","9.7","","102.42","","","","-51","","Ice Crystals"
"-93.58","69.55","TALOYOAK A","2403855","2023-01-16 21:00","2023","01","16","21:00","-37.3","","-41.1","","69","","","","36","","18","","9.7","","102.41","","","","-52","","Ice Crystals"
"-93.58","69.55","TALOYOAK A","2403855","2023-01-16 22:00","2023","01","16","22:00","-37.4","","-41.2","","69","","","","2","","22","","9.7","","102.43","","","","-53","","Ice Crystals"
"-93.58","69.55","TALOYOAK A","2403855","2023-01-16 23:00","2023","01","16","23:00","-36.1","","-39.8","","70","","","","1","","16","","9.7","","102.45","","","","-49","","Ice Crystals"
"-93.58","69.55","TALOYOAK A","2403855","2023-01-17 00:00","2023","01","17","00:00","-36.1","","-39.9","","70","","","","1","","16","","9.7","","102.43","","","","-49","","Ice Crystals"
"-93.58","69.55","TALOYOAK A","2403855","2023-01-17 01:00","2023","01","17","01:00","-37.1","","-41.0","","69","","","","2","","14","","9.7","","102.46","","","","-50","","Ice Crystals"
"-93.58","69.55","TALOYOAK A","2403855","2023-01-17 02:00","2023","01","17","02:00","-36.9","","-40.7","","69","","","","1","","11","","8.1","","102.48","","","","-48","","Ice Crystals"
"-93.58","69.55","TALOYOAK A","2403855","2023-01-17 03:00","2023","01","17","03:00","-35.8","","-39.5","","70","","","","3","","16","","9.7","","102.50","","","","-49","","Ice Crystals"
"-93.58","69.55","TALOYOAK A","2403855","2023-01-17 04:00","2023","01","17","04:00"
"-93.58","69.55","TALOYOAK A","2403855","2023-01-17 05:00","2023","01","17","05:00","-36.8","","-40.5","","69","","","","1","","17","","9.7","","102.48","","","","-51","","Ice Crystals"
"-93.58","69.55","TALOYOAK A","2403855","2023-01-17 06:00","2023","01","17","06:00","-36.8","","-40.5","","69","","","","1","","14","","16.1","","102.47","","","","-49","","Ice Crystals"
"-93.58","69.55","TALOYOAK A","2403855","2023-01-17 07:00","2023","01","17","07:00","-36.2","","-40.0","","69","","","","1","","16","","16.1","","102.46","","","","-49","","Ice Crystals"
"-93.58","69.55","TALOYOAK A","2403855","2023-01-17 08:00","2023","01","17","08:00","-36.7","","-40.4","","69","","","","2","","20","","19.3","","102.46","","","","-52","","Ice Crystals"
"-93.58","69.55","TALOYOAK A","2403855","2023-01-17 09:00","2023","01","17","09:00","-36.9","","-40.7","","69","","","","1","","13","","24.1","","102.45","","","","-49","","Ice Crystals"
"-93.58","69.55","TALOYOAK A","2403855","2023-01-17 10:00","2023","01","17","10:00","-36.8","","-40.6","","69","","","","3","","17","","24.1","","102.43","","","","-51","","Ice Crystals"
"-93.58","69.55","TALOYOAK A","2403855","2023-01-17 11:00","2023","01","17","11:00","-37.2","","-40.9","","69","","","","2","","16","","24.1","","102.40","","","","-51","","Ice Crystals"
"-93.58","69.55","TALOYOAK A","2403855","2023-01-17 12:00","2023","01","17","12:00","-37.5","","-41.4","","68","","","","1","","13","","24.1","","102.40","","","","-50","","Ice Crystals"
"-93.58","69.55","TALOYOAK A","2403855","2023-01-17 13:00","2023","01","17","13:00","-38.1","","-42.0","","68","","","","36","","14","","24.1","","102.40","","","","-51","","Ice Crystals"
"-93.58","69.55","TALOYOAK A","2403855","2023-01-17 14:00","2023","01","17","14:00","-37.2","","-41.0","","69","","","","2","","20","","24.1","","102.41","","","","-52","","Ice Crystals"
"-93.58","69.55","TALOYOAK A","2403855","2023-01-17 15:00","2023","01","17","15:00","-36.9","","-40.7","","69","","","","1","","13","","24.1","","102.39","","","","-49","","Ice Crystals"
"-93.58","69.55","TALOYOAK A","2403855","2023-01-17 16:00","2023","01","17","16:00","-36.0","","-39.7","","70","","","","2","","14","","24.1","","102.37","","","","-48","","Ice Crystals"
"-93.58","69.55","TALOYOAK A","2403855","2023-01-17 17:00","2023","01","17","17:00","-35.8","","-39.5","","70","","","","2","","15","","24.1","","102.35","","","","-49","","Ice Crystals"
"-93.58","69.55","TALOYOAK A","2403855","2023-01-17 18:00","2023","01","17","18:00","-34.7","","-38.3","","70","","","","2","","18","","24.1","","102.31","","","","-48","","Ice Crystals"
"-93.58","69.55","TALOYOAK A","2403855","2023-01-17 19:00","2023","01","17","19:00","-33.9","","-37.5","","71","","","","1","","11","","24.1","","102.29","","","","-44","","Ice Crystals"
"-93.58","69.55","TALOYOAK A","2403855","2023-01-17 20:00","2023","01","17","20:00","-33.1","","-36.6","","71","","","","3","","14","","24.1","","102.26","","","","-45","","Ice Crystals"
"-93.58","69.55","TALOYOAK A","2403855","2023-01-17 21:00","2023","01","17","21:00"
"-93.58","69.55","TALOYOAK A","2403855","2023-01-17 22:00","2023","01","17","22:00"
"-93.58","69.55","TALOYOAK A","2403855","2023-01-17 23:00","2023","01","17","23:00"
"-93.58","69.55","TALOYOAK A","2403855","2023-01-18 00:00","2023","01","18","00:00"
"-93.58","69.55","TALOYOAK A","2403855","2023-01-18 01:00","2023","01","18","01:00"
"-93.58","69.55","TALOYOAK A","2403855","2023-01-18 02:00","2023","01","18","02:00"
"-93.58","69.55","TALOYOAK A","2403855","2023-01-18 03:00","2023","01","18","03:00"
"-93.58","69.55","TALOYOAK A","2403855","2023-01-18 04:00","2023","01","18","04:00"
"-93.58","69.55","TALOYOAK A","2403855","2023-01-18 05:00","2023","01","18","05:00"
"-93.58","69.55","TALOYOAK A","2403855","2023-01-18 06:00","2023","01","18","06:00"
"-93.58","69.55","TALOYOAK A","2403855","2023-01-18 07:00","2023","01","18","07:00"
"-93.58","69.55","TALOYOAK A","2403855","2023-01-18 08:00","2023","01","18","08:00"
"-93.58","69.55","TALOYOAK A","2403855","2023-01-18 09:00","2023","01","18","09:00"
"-93.58","69.55","TALOYOAK A","2403855","2023-01-18 10:00","2023","01","18","10:00","-26.2","","-29.1","","77","","","","7","","18","","12.9","","101.70","","","","-38","","Snow"
"-93.58","69.55","TALOYOAK A","2403855","2023-01-18 11:00","2023","01","18","11:00","-26.5","","-29.5","","77","","","","5","","22","","6.4","","101.67","","","","-39","","Snow"
"-93.58","69.55","TALOYOAK A","2403855","2023-01-18 12:00","2023","01","18","12:00","-26.4","","-29.3","","77","","","","6","","21","","11.3","","101.64","","","","-39","","Snow"
"-93.58","69.55","TALOYOAK A","2403855","2023-01-18 13:00","2023","01","18","13:00","-26.1","","-29.1","","77","","","","6","","14","","6.4","","101.64","","","","-36","","Snow Pellets"
"-93.58","69.55","TALOYOAK A","2403855","2023-01-18 14:00","2023","01","18","14:00","-25.5","","-28.3","","77","","","","9","","21","","14.5","","101.65","","","","-38","","Snow"
"-93.58","69.55","TALOYOAK A","2403855","2023-01-18 15:00","2023","01","18","15:00","-25.2","","-28.0","","78","","","","6","","24","","12.9","","101.60","","","","-38","","Snow"
"-93.58","69.55","TALOYOAK A","2403855","2023-01-18 16:00","2023","01","18","16:00","-25.0","","-27.8","","78","","","","6","","22","","16.1","","101.60","","","","-37","","Snow,Blowing Snow"
"-93.58","69.55","TALOYOAK A","2403855","2023-01-18 17:00","2023","01","18","17:00","-24.8","","-27.6","","78","","","","6","","25","","16.1","","101.60","","","","-38","","Snow,Blowing Snow"
"-93.58","69.55","TALOYOAK A","2403855","2023-01-18 18:00","2023","01","18","18:00","-24.8","","-27.5","","78","","","","5","","26","","6.4","","101.56","","","","-38","","Snow,Blowing Snow"
"-93.58","69.55","TALOYOAK A","2403855","2023-01-18 19:00","2023","01","18","19:00","-24.6","","-27.3","","78","","","","6","","27","","6.4","","101.51","","","","-38","","Snow,Blowing Snow"
"-93.58","69.55","TALOYOAK A","2403855","2023-01-18 20:00","2023","01","18","20:00","-24.8","","-27.6","","78","","","","6","","24","","6.4","","101.50","","","","-38","","Snow,Blowing Snow"
"-93.58","69.55","TALOYOAK A","2403855","2023-01-18 21:00","2023","01","18","21:00","-25.4","","-28.3","","78","","","","5","","26","","6.4","","101.49","","","","-39","","Snow,Blowing Snow"
"-93.58","69.55","TALOYOAK A","2403855","2023-01-18 22:00","2023","01","18","22:00","-25.8","","-28.6","","77","","","","5","","27","","6.4","","101.49","","","","-40","","Snow,Blowing Snow"
"-93.58","69.55","TALOYOAK A","2403855","2023-01-18 23:00","2023","01","18","23:00","-26.5","","-29.4","","77","","","","5","","25","","6.4","","101.50","","","","-40","","Snow,Blowing Snow"
"-93.58","69.55","TALOYOAK A","2403855","2023-01-19 00:00","2023","01","19","00:00"
"-93.58","69.55","TALOYOAK A","2403855","2023-01-19 01:00","2023","01","19","01:00","-27.5","","-30.5","","76","","","","6","","39","","6.4","","101.48","","","","-44","","Snow,Blowing Snow"
"-93.58","69.55","TALOYOAK A","2403855","2023-01-19 02:00","2023","01","19","02:00","-27.9","","-30.9","","76","","","","5","","36","","6.4","","101.47","","","","-44","","Snow,Blowing Snow"
"-93.58","69.55","TALOYOAK A","2403855","2023-01-19 03:00","2023","01","19","03:00","-28.4","","-31.5","","75","","","","5","","43","","6.4","","101.44","","","","-46","","Snow,Blowing Snow"
"-93.58","69.55","TALOYOAK A","2403855","2023-01-19 04:00","2023","01","19","04:00","-28.5","","-31.6","","75","","","","6","","33","","6.4","","101.47","","","","-44","","Snow,Blowing Snow"
"-93.58","69.55","TALOYOAK A","2403855","2023-01-19 05:00","2023","01","19","05:00","-28.8","","-31.9","","75","","","","5","","31","","3.2","","101.49","","","","-44","","Snow,Blowing Snow"
"-93.58","69.55","TALOYOAK A","2403855","2023-01-19 06:00","2023","01","19","06:00","-29.0","","-32.1","","75","","","","4","","30","","3.2","","101.50","","","","-44","","Snow,Blowing Snow"
"-93.58","69.55","TALOYOAK A","2403855","2023-01-19 07:00","2023","01","19","07:00","-29.6","","-32.8","","75","","","","4","","27","","4.0","","101.50","","","","-44","","Snow,Blowing Snow"
"-93.58","69.55","TALOYOAK A","2403855","2023-01-19 08:00","2023","01","19","08:00","-30.2","","-33.4","","74","","","","5","","25","","6.4","","101.44","","","","-45","","Snow,Blowing Snow"
"-93.58","69.55","TALOYOAK A","2403855","2023-01-19 09:00","2023","01","19","09:00","-30.6","","-33.9","","74","","","","4","","23","","8.1","","101.44","","","","-45","","Snow"
"-93.58","69.55","TALOYOAK A","2403855","2023-01-19 10:00","2023","01","19","10:00","-30.0","","-33.2","","74","","","","4","","30","","1.6","","101.39","","","","-46","","Snow,Blowing Snow"
"-93.58","69.55","TALOYOAK A","2403855","2023-01-19 11:00","2023","01","19","11:00","-30.7","","-33.9","","74","","","","5","","35","","1.2","","101.35","","","","-48","","Snow,Blowing Snow"
"-93.58","69.55","TALOYOAK A","2403855","2023-01-19 12:00","2023","01","19","12:00","-31.4","","-34.7","","73","","","","4","","36","","1.2","","101.36","","","","-49","","Snow,Blowing Snow"
"-93.58","69.55","TALOYOAK A","2403855","2023-01-19 13:00","2023","01","19","13:00","-30.9","","-34.2","","74","","","","5","","39","","1.2","","101.30","","","","-49","","Snow,Blowing Snow"
"-93.58","69.55","TALOYOAK A","2403855","2023-01-19 14:00","2023","01","19","14:00","-31.1","","-34.3","","74","","","","7","","41","","2.4","","101.28","","","","-49","","Blowing Snow"
"-93.58","69.55","TALOYOAK A","2403855","2023-01-19 15:00","2023","01","19","15:00","-31.5","","-34.8","","73","","","","5","","36","","2.4","","101.30","","","","-49","","Blowing Snow"
"-93.58","69.55","TALOYOAK A","2403855","2023-01-19 16:00","2023","01","19","16:00","-31.8","","-35.1","","73","","","","6","","39","","2.8","","101.24","","","","-50","","Blowing Snow"
"-93.58","69.55","TALOYOAK A","2403855","2023-01-19 17:00","2023","01","19","17:00","-31.4","","-34.7","","73","","","","5","","23","","1.6","","101.26","","","","-46","","Blowing Snow"
"-93.58","69.55","TALOYOAK A","2403855","2023-01-19 18:00","2023","01","19","18:00","-31.5","","-34.8","","73","","","","5","","42","","2.0","","101.15","","","","-50","","Blowing Snow"
"-93.58","69.55","TALOYOAK A","2403855","2023-01-19 19:00","2023","01","19","19:00","-31.9","","-35.3","","73","","","","4","","28","","2.8","","101.16","","","","-48","","Ice Crystals,Blowing Snow"
"-93.58","69.55","TALOYOAK A","2403855","2023-01-19 20:00","2023","01","19","20:00","-31.7","","-35.0","","73","","","","5","","27","","2.8","","101.09","","","","-47","","Ice Crystals,Blowing Snow"
"-93.58","69.55","TALOYOAK A","2403855","2023-01-19 21:00","2023","01","19","21:00","-31.1","","-34.4","","73","","","","4","","28","","3.2","","100.99","","","","-47","","Ice Crystals,Blowing Snow"
"-93.58","69.55","TALOYOAK A","2403855","2023-01-19 22:00","2023","01","19","22:00","-30.5","","-33.8","","74","","","","5","","27","","6.4","","100.90","","","","-46","","Ice Crystals,Blowing Snow"
"-93.58","69.55","TALOYOAK A","2403855","2023-01-19 23:00","2023","01","19","23:00","-29.8","","-33.0","","74","","","","7","","32","","3.2","","100.86","","","","-46","","Ice Crystals,Blowing Snow"
"-93.58","69.55","TALOYOAK A","2403855","2023-01-20 00:00","2023","01","20","00:00","-30.1","","-33.4","","74","","","","4","","23","","3.2","","100.80","","","","-44","","Ice Crystals,Blowing Snow"
"-93.58","69.55","TALOYOAK A","2403855","2023-01-20 01:00","2023","01","20","01:00","-30.8","","-34.0","","74","","","","6","","41","","1.2","","100.63","","","","-49","","Blowing Snow"
"-93.58","69.55","TALOYOAK A","2403855","2023-01-20 02:00","2023","01","20","02:00","-30.8","","-34.1","","74","","","","6","","40","","1.0","","100.56","","","","-49","","Blowing Snow"
"-93.58","69.55","TALOYOAK A","2403855","2023-01-20 03:00","2023","01","20","03:00","-30.5","","-33.7","","74","","","","6","","19","","1.6","","100.55","","","","-43","","Snow,Fog,Blowing Snow"
"-93.58","69.55","TALOYOAK A","2403855","2023-01-20 04:00","2023","01","20","04:00","-30.5","","-33.8","","74","","","","6","","36","","0.6","","100.42","","","","-47","","Snow,Blowing Snow"
"-93.58","69.55","TALOYOAK A","2403855","2023-01-20 05:00","2023","01","20","05:00","-30.9","","-34.2","","74","","","","6","","40","","0.6","","100.33","","","","-49","","Snow,Blowing Snow"
"-93.58","69.55","TALOYOAK A","2403855","2023-01-20 06:00","2023","01","20","06:00","-31.0","","-34.3","","73","","","","6","","54","","0.6","","100.17","","","","-51","","Snow,Blowing Snow"
"-93.58","69.55","TALOYOAK A","2403855","2023-01-20 07:00","2023","01","20","07:00","-30.8","","-34.1","","74","","","","6","","61","","0.4","","100.06","","","","-52","","Snow,Blowing Snow"
"-93.58","69.55","TALOYOAK A","2403855","2023-01-20 08:00","2023","01","20","08:00","-30.4","","-33.6","","74","","","","6","","37","","0.4","","100.15","","","","-48","","Snow,Blowing Snow"
"-93.58","69.55","TALOYOAK A","2403855","2023-01-20 09:00","2023","01","20","09:00","-30.1","","-33.3","","74","","","","5","","41","","0.2","","100.02","","","","-48","","Snow,Blowing Snow"
"-93.58","69.55","TALOYOAK A","2403855","2023-01-20 10:00","2023","01","20","10:00","-29.3","","-32.5","","75","","","","5","","41","","0.2","","99.96","","","","-47","","Snow,Blowing Snow"
"-93.58","69.55","TALOYOAK A","2403855","2023-01-20 11:00","2023","01","20","11:00","-29.1","","-32.3","","75","","","","5","","42","","0.2","","99.92","","","","-47","","Snow,Blowing Snow"
"-93.58","69.55","TALOYOAK A","2403855","2023-01-20 12:00","2023","01","20","12:00","-28.8","","-31.9","","75","","","","6","","48","","0.0","","99.76","","","","-47","","Snow,Blowing Snow"
"-93.58","69.55","TALOYOAK A","2403855","2023-01-20 13:00","2023","01","20","13:00","-28.5","","-31.6","","75","","","","6","","57","","0.0","","99.70","","","","-48","","Snow,Blowing Snow"
"-93.58","69.55","TALOYOAK A","2403855","2023-01-20 14:00","2023","01","20","14:00","-28.0","","-31.1","","76","","","","7","","47","","0.0","","99.74","","","","-46","","Snow,Blowing Snow"
"-93.58","69.55","TALOYOAK A","2403855","2023-01-20 15:00","2023","01","20","15:00","-27.9","","-30.9","","76","","","","7","","38","","0.2","","99.73","","","","-44","","Snow,Blowing Snow"
"-93.58","69.55","TALOYOAK A","2403855","2023-01-20 16:00","2023","01","20","16:00","-27.8","","-30.9","","76","","","","6","","43","","0.2","","99.70","","","","-45","","Snow,Blowing Snow"
"-93.58","69.55","TALOYOAK A","2403855","2023-01-20 17:00","2023","01","20","17:00","-28.0","","-31.1","","76","","","","6","","50","","0.0","","99.77","","","","-46","","Snow,Blowing Snow"
"-93.58","69.55","TALOYOAK A","2403855","2023-01-20 18:00","2023","01","20","18:00","-27.5","","-30.5","","76","","","","5","","40","","0.8","","99.73","","","","-44","","Snow,Blowing Snow"
"-93.58","69.55","TALOYOAK A","2403855","2023-01-20 19:00","2023","01","20","19:00","-28.3","","-31.4","","75","","","","3","","35","","1.2","","99.76","","","","-44","","Snow,Blowing Snow"
"-93.58","69.55","TALOYOAK A","2403855","2023-01-20 20:00","2023","01","20","20:00","-28.4","","-31.5","","75","","","","5","","47","","1.2","","99.77","","","","-46","","Snow,Blowing Snow"
"-93.58","69.55","TALOYOAK A","2403855","2023-01-20 21:00","2023","01","20","21:00"
"-93.58","69.55","TALOYOAK A","2403855","2023-01-20 22:00","2023","01","20","22:00"
"-93.58","69.55","TALOYOAK A","2403855","2023-01-20 23:00","2023","01","20","23:00"
"-93.58","69.55","TALOYOAK A","2403855","2023-01-21 00:00","2023","01","21","00:00","-28.3","","-31.4","","76","","","","5","","41","","3.2","","99.69","","","","-45","","Snow,Blowing Snow"
"-93.58","69.55","TALOYOAK A","2403855","2023-01-21 01:00","2023","01","21","01:00","-28.6","","-31.6","","75","","","","5","","44","","3.2","","99.76","","","","-46","","Snow,Blowing Snow"
"-93.58","69.55","TALOYOAK A","2403855","2023-01-21 02:00","2023","01","21","02:00","-28.7","","-31.8","","75","","","","2","","23","","3.2","","99.91","","","","-42","","Snow,Blowing Snow"
"-93.58","69.55","TALOYOAK A","2403855","2023-01-21 03:00","2023","01","21","03:00","-27.7","","-30.8","","76","","","","35","","16","","9.7","","100.00","","","","-39","","Ice Crystals"
"-93.58","69.55","TALOYOAK A","2403855","2023-01-21 04:00","2023","01","21","04:00","-27.5","","-30.5","","76","","","","1","","17","","9.7","","100.01","","","","-39","","Ice Crystals"
"-93.58","69.55","TALOYOAK A","2403855","2023-01-21 05:00","2023","01","21","05:00","-26.8","","-29.7","","77","","","","2","","20","","16.1","","99.99","","","","-39","","Ice Crystals"
"-93.58","69.55","TALOYOAK A","2403855","2023-01-21 06:00","2023","01","21","06:00","-26.2","","-29.1","","77","","","","2","","20","","16.1","","100.00","","","","-38","","Ice Crystals"
"-93.58","69.55","TALOYOAK A","2403855","2023-01-21 07:00","2023","01","21","07:00"
"-93.58","69.55","TALOYOAK A","2403855","2023-01-21 08:00","2023","01","21","08:00"
"-93.58","69.55","TALOYOAK A","2403855","2023-01-21 09:00","2023","01","21","09:00","-29.2","","-32.3","","75","","","","1","","10","","24.1","","100.04","","","","-38","","Ice Crystals"
"-93.58","69.55","TALOYOAK A","2403855","2023-01-21 10:00","2023","01","21","10:00","-29.8","","-33.1","","74","","","","23","","4","","24.1","","100.03","","","","-34","","Ice Crystals"
"-93.58","69.55","TALOYOAK A","2403855","2023-01-21 11:00","2023","01","21","11:00","-30.1","","-33.4","","74","","","","15","","6","","24.1","","100.05","","","","-37","","Ice Crystals"
"-93.58","69.55","TALOYOAK A","2403855","2023-01-21 12:00","2023","01","21","12:00","-29.3","","-32.4","","75","","","","16","","6","","24.1","","100.07","","","","-36","","Ice Crystals"
"-93.58","69.55","TALOYOAK A","2403855","2023-01-21 13:00","2023","01","21","13:00","-30.3","","-33.5","","74","","","","16","","12","","24.1","","100.04","","","","-41","","Ice Crystals"
"-93.58","69.55","TALOYOAK A","2403855","2023-01-21 14:00","2023","01","21","14:00","-30.4","","-33.6","","74","","","","15","","11","","24.1","","100.04","","","","-40","","Ice Crystals"
"-93.58","69.55","TALOYOAK A","2403855","2023-01-21 15:00","2023","01","21","15:00","-30.8","","-34.1","","74","","","","13","","8","","24.1","","100.06","","","","-39","","Ice Crystals"
"-93.58","69.55","TALOYOAK A","2403855","2023-01-21 16:00","2023","01","21","16:00","-31.1","","-34.3","","74","","","","14","","6","","24.1","","100.04","","","","-38","","Ice Crystals"
"-93.58","69.55","TALOYOAK A","2403855","2023-01-21 17:00","2023","01","21","17:00","-30.9","","-34.1","","74","","","","33","","10","","24.1","","100.06","","","","-40","","Ice Crystals"
"-93.58","69.55","TALOYOAK A","2403855","2023-01-21 18:00","2023","01","21","18:00"
"-93.58","69.55","TALOYOAK A","2403855","2023-01-21 19:00","2023","01","21","19:00"
"-93.58","69.55","TALOYOAK A","2403855","2023-01-21 20:00","2023","01","21","20:00"
"-93.58","69.55","TALOYOAK A","2403855","2023-01-21 21:00","2023","01","21","21:00","-35.7","","-39.3","","70","","","","2","","10","","24.1","","100.15","","","","-46","","Ice Crystals"
"-93.58","69.55","TALOYOAK A","2403855","2023-01-21 22:00","2023","01","21","22:00","-35.9","","-39.5","","70","","","","1","","9","","24.1","","100.22","","","","-46","","Ice Crystals"
"-93.58","69.55","TALOYOAK A","2403855","2023-01-21 23:00","2023","01","21","23:00","-36.8","","-40.5","","70","","","","1","","8","","24.1","","100.24","","","","-46","","Ice Crystals"
"-93.58","69.55","TALOYOAK A","2403855","2023-01-22 00:00","2023","01","22","00:00","-36.3","","-39.9","","70","","","","34","","9","","24.1","","100.28","","","","-46","","Ice Crystals"
"-93.58","69.55","TALOYOAK A","2403855","2023-01-22 01:00","2023","01","22","01:00","-36.2","","-39.9","","70","","","","35","","7","","24.1","","100.29","","","","-44","","Ice Crystals"
"-93.58","69.55","TALOYOAK A","2403855","2023-01-22 02:00","2023","01","22","02:00","-33.8","","-37.2","","72","","","","0","","1","","24.1","","100.34","","","","-35","","Clear"
"-93.58","69.55","TALOYOAK A","2403855","2023-01-22 03:00","2023","01","22","03:00","-35.1","","-38.7","","71","","","","18","","3","","24.1","","100.35","","","","-39","","NA"
"-93.58","69.55","TALOYOAK A","2403855","2023-01-22 04:00","2023","01","22","04:00","-36.3","","-39.9","","70","","","","15","","10","","24.1","","100.34","","","","-47","","NA"
"-93.58","69.55","TALOYOAK A","2403855","2023-01-22 05:00","2023","01","22","05:00","-36.4","","-40.1","","70","","","","15","","9","","19.3","","100.34","","","","-46","","Ice Crystals"
"-93.58","69.55","TALOYOAK A","2403855","2023-01-22 06:00","2023","01","22","06:00","-36.3","","-39.9","","70","","","","14","","6","","19.3","","100.35","","","","-44","","Ice Crystals"
"-93.58","69.55","TALOYOAK A","2403855","2023-01-22 07:00","2023","01","22","07:00","-36.6","","-40.3","","70","","","","15","","7","","24.1","","100.33","","","","-45","","Ice Crystals"
"-93.58","69.55","TALOYOAK A","2403855","2023-01-22 08:00","2023","01","22","08:00","-37.0","","-40.7","","69","","","","14","","7","","24.1","","100.30","","","","-45","","Ice Crystals"
"-93.58","69.55","TALOYOAK A","2403855","2023-01-22 09:00","2023","01","22","09:00","-36.6","","-40.3","","70","","","","13","","6","","24.1","","100.30","","","","-44","","Ice Crystals"
"-93.58","69.55","TALOYOAK A","2403855","2023-01-22 10:00","2023","01","22","10:00","-35.9","","-39.6","","70","","","","32","","35","","6.4","","100.25","","","","-54","","Ice Crystals,Blowing Snow"
"-93.58","69.55","TALOYOAK A","2403855","2023-01-22 11:00","2023","01","22","11:00","-35.7","","-39.3","","70","","","","32","","35","","3.2","","100.24","","","","-54","","Ice Crystals,Blowing Snow"
"-93.58","69.55","TALOYOAK A","2403855","2023-01-22 12:00","2023","01","22","12:00","-35.5","","-39.2","","70","","","","34","","26","","12.9","","100.31","","","","-52","","Ice Crystals,Blowing Snow"
"-93.58","69.55","TALOYOAK A","2403855","2023-01-22 13:00","2023","01","22","13:00","-34.5","","-38.1","","71","","","","34","","11","","16.1","","100.36","","","","-45","","Ice Crystals"
"-93.58","69.55","TALOYOAK A","2403855","2023-01-22 14:00","2023","01","22","14:00","-34.1","","-37.6","","71","","","","31","","16","","4.8","","100.42","","","","-47","","Ice Crystals,Fog"
"-93.58","69.55","TALOYOAK A","2403855","2023-01-22 15:00","2023","01","22","15:00","-34.2","","-37.8","","71","","","","30","","14","","16.1","","100.46","","","","-46","","Snow"
"-93.58","69.55","TALOYOAK A","2403855","2023-01-22 16:00","2023","01","22","16:00","-34.7","","-38.3","","71","","","","31","","17","","16.1","","100.47","","","","-48","","Snow"
"-93.58","69.55","TALOYOAK A","2403855","2023-01-22 17:00","2023","01","22","17:00","-35.4","","-39.0","","70","","","","35","","14","","16.1","","100.45","","","","-48","","Ice Crystals"
"-93.58","69.55","TALOYOAK A","2403855","2023-01-22 18:00","2023","01","22","18:00","-35.9","","-39.5","","70","","","","35","","8","","19.3","","100.45","","","","-45","","Ice Crystals"
"-93.58","69.55","TALOYOAK A","2403855","2023-01-22 19:00","2023","01","22","19:00","-36.6","","-40.3","","70","","","","36","","1","","19.3","","100.40","","","","-38","","Ice Crystals"
"-93.58","69.55","TALOYOAK A","2403855","2023-01-22 20:00","2023","01","22","20:00","-37.4","","-41.1","","69","","","","36","","9","","19.3","","100.41","","","","-47","","Ice Crystals"
"-93.58","69.55","TALOYOAK A","2403855","2023-01-22 21:00","2023","01","22","21:00","-36.5","","-40.2","","70","","","","35","","8","","24.1","","100.40","","","","-46","","Ice Crystals"
"-93.58","69.55","TALOYOAK A","2403855","2023-01-22 22:00","2023","01","22","22:00"
"-93.58","69.55","TALOYOAK A","2403855","2023-01-22 23:00","2023","01","22","23:00"
"-93.58","69.55","TALOYOAK A","2403855","2023-01-23 00:00","2023","01","23","00:00"
"-93.58","69.55","TALOYOAK A","2403855","2023-01-23 01:00","2023","01","23","01:00"
"-93.58","69.55","TALOYOAK A","2403855","2023-01-23 02:00","2023","01","23","02:00"
"-93.58","69.55","TALOYOAK A","2403855","2023-01-23 03:00","2023","01","23","03:00"
"-93.58","69.55","TALOYOAK A","2403855","2023-01-23 04:00","2023","01","23","04:00"
"-93.58","69.55","TALOYOAK A","2403855","2023-01-23 05:00","2023","01","23","05:00"
"-93.58","69.55","TALOYOAK A","2403855","2023-01-23 06:00","2023","01","23","06:00"
"-93.58","69.55","TALOYOAK A","2403855","2023-01-23 07:00","2023","01","23","07:00"
"-93.58","69.55","TALOYOAK A","2403855","2023-01-23 08:00","2023","01","23","08:00"
"-93.58","69.55","TALOYOAK A","2403855","2023-01-23 09:00","2023","01","23","09:00","-36.4","","-40.1","","70","","","","18","","5","","24.1","","100.63","","","","-43","","Ice Crystals"
"-93.58","69.55","TALOYOAK A","2403855","2023-01-23 10:00","2023","01","23","10:00","-36.3","","-40.0","","70","","","","15","","9","","24.1","","100.58","","","","-46","","NA"
"-93.58","69.55","TALOYOAK A","2403855","2023-01-23 11:00","2023","01","23","11:00","-35.8","","-39.5","","70","","","","17","","11","","24.1","","100.59","","","","-47","","Mostly Cloudy"
"-93.58","69.55","TALOYOAK A","2403855","2023-01-23 12:00","2023","01","23","12:00","-34.8","","-38.4","","70","","","","12","","9","","14.5","","100.58","","","","-44","","Snow"
"-93.58","69.55","TALOYOAK A","2403855","2023-01-23 13:00","2023","01","23","13:00","-33.7","","-37.2","","71","","","","14","","9","","12.9","","100.55","","","","-43","","Snow"
"-93.58","69.55","TALOYOAK A","2403855","2023-01-23 14:00","2023","01","23","14:00","-31.9","","-35.3","","72","","","","29","","22","","11.3","","100.53","","","","-46","","Snow"
"-93.58","69.55","TALOYOAK A","2403855","2023-01-23 15:00","2023","01","23","15:00","-32.1","","-35.6","","72","","","","30","","28","","3.2","","100.47","","","","-48","","Snow,Blowing Snow"
"-93.58","69.55","TALOYOAK A","2403855","2023-01-23 16:00","2023","01","23","16:00","-32.4","","-35.9","","72","","","","31","","31","","2.4","","100.44","","","","-49","","Snow,Blowing Snow"
"-93.58","69.55","TALOYOAK A","2403855","2023-01-23 17:00","2023","01","23","17:00","-32.1","","-35.6","","72","","","","30","","28","","2.4","","100.41","","","","-48","","Snow,Blowing Snow"
"-93.58","69.55","TALOYOAK A","2403855","2023-01-23 18:00","2023","01","23","18:00","-32.1","","-35.5","","72","","","","32","","37","","1.2","","100.40","","","","-50","","Snow,Blowing Snow"
"-93.58","69.55","TALOYOAK A","2403855","2023-01-23 19:00","2023","01","23","19:00","-31.1","","-34.5","","73","","","","31","","44","","1.2","","100.33","","","","-50","","Snow,Blowing Snow"
"-93.58","69.55","TALOYOAK A","2403855","2023-01-23 20:00","2023","01","23","20:00","-30.5","","-33.8","","74","","","","30","","37","","1.2","","100.29","","","","-48","","Snow,Blowing Snow"
"-93.58","69.55","TALOYOAK A","2403855","2023-01-23 21:00","2023","01","23","21:00","-30.6","","-33.9","","73","","","","30","","31","","1.6","","100.25","","","","-47","","Snow,Blowing Snow"
"-93.58","69.55","TALOYOAK A","2403855","2023-01-23 22:00","2023","01","23","22:00","-30.2","","-33.5","","74","","","","26","","6","","4.8","","100.25","","","","-37","","Snow,Blowing Snow"
"-93.58","69.55","TALOYOAK A","2403855","2023-01-23 23:00","2023","01","23","23:00","-29.4","","-32.6","","74","","","","25","","11","","4.8","","100.16","","","","-39","","Snow,Blowing Snow"
"-93.58","69.55","TALOYOAK A","2403855","2023-01-24 00:00","2023","01","24","00:00","-29.1","","-32.3","","75","","","","27","","21","","4.8","","100.12","","","","-42","","Snow,Blowing Snow"
"-93.58","69.55","TALOYOAK A","2403855","2023-01-24 01:00","2023","01","24","01:00","-27.9","","-31.0","","75","","","","29","","9","","4.8","","100.07","","","","-36","","Snow,Blowing Snow"
"-93.58","69.55","TALOYOAK A","2403855","2023-01-24 02:00","2023","01","24","02:00","-27.4","","-30.5","","76","","","","29","","14","","4.8","","100.07","","","","-38","","Snow,Blowing Snow"
"-93.58","69.55","TALOYOAK A","2403855","2023-01-24 03:00","2023","01","24","03:00","-28.5","","-31.7","","75","","","","29","","20","","4.8","","100.03","","","","-41","","Snow,Blowing Snow"
"-93.58","69.55","TALOYOAK A","2403855","2023-01-24 04:00","2023","01","24","04:00","-28.5","","-31.7","","75","","","","30","","13","","4.8","","100.01","","","","-39","","Snow,Blowing Snow"
"-93.58","69.55","TALOYOAK A","2403855","2023-01-24 05:00","2023","01","24","05:00","-28.9","","-32.1","","75","","","","33","","16","","9.7","","99.98","","","","-40","","Snow,Blowing Snow"
"-93.58","69.55","TALOYOAK A","2403855","2023-01-24 06:00","2023","01","24","06:00","-30.5","","-33.8","","73","","","","34","","19","","9.7","","99.99","","","","-43","","Snow,Blowing Snow"
"-93.58","69.55","TALOYOAK A","2403855","2023-01-24 07:00","2023","01","24","07:00","-32.3","","-35.7","","72","","","","1","","22","","9.7","","100.02","","","","-47","","Snow,Blowing Snow"
"-93.58","69.55","TALOYOAK A","2403855","2023-01-24 08:00","2023","01","24","08:00","-33.5","","-37.0","","72","","","","2","","20","","16.1","","100.07","","","","-48","","Snow,Blowing Snow"
"-93.58","69.55","TALOYOAK A","2403855","2023-01-24 09:00","2023","01","24","09:00","-34.4","","-37.9","","71","","","","2","","14","","19.3","","100.12","","","","-46","","NA"
"-93.58","69.55","TALOYOAK A","2403855","2023-01-24 10:00","2023","01","24","10:00","-35.9","","-39.6","","70","","","","3","","15","","20.9","","100.21","","","","-49","","NA"
"-93.58","69.55","TALOYOAK A","2403855","2023-01-24 11:00","2023","01","24","11:00","-35.7","","-39.3","","70","","","","36","","7","","19.3","","100.28","","","","-44","","Mainly Clear"
"-93.58","69.55","TALOYOAK A","2403855","2023-01-24 12:00","2023","01","24","12:00","-36.7","","-40.4","","69","","","","2","","12","","20.9","","100.35","","","","-48","","NA"
"-93.58","69.55","TALOYOAK A","2403855","2023-01-24 13:00","2023","01","24","13:00","-37.6","","-41.4","","69","","","","35","","14","","20.9","","100.45","","","","-50","","NA"
"-93.58","69.55","TALOYOAK A","2403855","2023-01-24 14:00","2023","01","24","14:00"
"-93.58","69.55","TALOYOAK A","2403855","2023-01-24 15:00","2023","01","24","15:00","-36.5","","-40.3","","69","","","","1","","10","","19.3","","100.59","","","","-47","","NA"
"-93.58","69.55","TALOYOAK A","2403855","2023-01-24 16:00","2023","01","24","16:00","-37.6","","-41.4","","69","","","","36","","20","","19.3","","100.65","","","","-53","","NA"
"-93.58","69.55","TALOYOAK A","2403855","2023-01-24 17:00","2023","01","24","17:00","-38.5","","-42.3","","68","","","","35","","12","","19.3","","100.66","","","","-50","","Mainly Clear"
"-93.58","69.55","TALOYOAK A","2403855","2023-01-24 18:00","2023","01","24","18:00","-38.0","","-41.8","","69","","","","1","","9","","22.5","","100.73","","","","-48","","NA"
"-93.58","69.55","TALOYOAK A","2403855","2023-01-24 19:00","2023","01","24","19:00","-37.0","","-40.8","","69","","","","32","","26","","24.1","","100.73","","","","-54","","NA"
"-93.58","69.55","TALOYOAK A","2403855","2023-01-24 20:00","2023","01","24","20:00","-37.2","","-41.0","","69","","","","35","","15","","24.1","","100.76","","","","-50","","Mainly Clear"
"-93.58","69.55","TALOYOAK A","2403855","2023-01-24 21:00","2023","01","24","21:00","-36.1","","-39.9","","69","","","","1","","9","","24.1","","100.76","","","","-46","","NA"
"-93.58","69.55","TALOYOAK A","2403855","2023-01-24 22:00","2023","01","24","22:00","-35.0","","-38.7","","70","","","","32","","8","","24.1","","100.76","","","","-44","","NA"
"-93.58","69.55","TALOYOAK A","2403855","2023-01-24 23:00","2023","01","24","23:00","-33.8","","-37.4","","71","","","","32","","19","","24.1","","100.75","","","","-48","","Mostly Cloudy"
"-93.58","69.55","TALOYOAK A","2403855","2023-01-25 00:00","2023","01","25","00:00","-32.4","","-35.9","","72","","","","34","","15","","24.1","","100.77","","","","-44","","Snow"
"-93.58","69.55","TALOYOAK A","2403855","2023-01-25 01:00","2023","01","25","01:00","-32.6","","-36.3","","71","","","","31","","15","","24.1","","100.78","","","","-45","","Snow"
"-93.58","69.55","TALOYOAK A","2403855","2023-01-25 02:00","2023","01","25","02:00","-34.2","","-37.9","","70","","","","33","","26","","19.3","","100.80","","","","-50","","Snow,Blowing Snow"
"-93.58","69.55","TALOYOAK A","2403855","2023-01-25 03:00","2023","01","25","03:00","-35.4","","-39.1","","69","","","","32","","28","","24.1","","100.81","","","","-52","","Snow,Blowing Snow"
"-93.58","69.55","TALOYOAK A","2403855","2023-01-25 04:00","2023","01","25","04:00","-35.5","","-39.2","","69","","","","32","","29","","24.1","","100.79","","","","-53","","Snow,Blowing Snow"
"-93.58","69.55","TALOYOAK A","2403855","2023-01-25 05:00","2023","01","25","05:00","-35.8","","-39.6","","69","","","","34","","20","","24.1","","100.81","","","","-50","","Snow,Blowing Snow"
"-93.58","69.55","TALOYOAK A","2403855","2023-01-25 06:00","2023","01","25","06:00","-33.4","","-37.0","","71","","","","31","","18","","24.1","","100.82","","","","-47","","Snow"
"-93.58","69.55","TALOYOAK A","2403855","2023-01-25 07:00","2023","01","25","07:00","-32.8","","-36.4","","71","","","","34","","6","","24.1","","100.80","","","","-40","","NA"
"-93.58","69.55","TALOYOAK A","2403855","2023-01-25 08:00","2023","01","25","08:00","-34.1","","-37.8","","70","","","","33","","22","","24.1","","100.77","","","","-49","","Mostly Cloudy"
"-93.58","69.55","TALOYOAK A","2403855","2023-01-25 09:00","2023","01","25","09:00","-33.2","","-36.9","","71","","","","32","","29","","24.1","","100.74","","","","-50","","Blowing Snow"
"-93.58","69.55","TALOYOAK A","2403855","2023-01-25 10:00","2023","01","25","10:00","-32.2","","-35.8","","71","","","","31","","22","","24.1","","100.71","","","","-46","","Blowing Snow"
"-93.58","69.55","TALOYOAK A","2403855","2023-01-25 11:00","2023","01","25","11:00","-31.6","","-35.2","","71","","","","31","","31","","24.1","","100.65","","","","-48","","Blowing Snow"
"-93.58","69.55","TALOYOAK A","2403855","2023-01-25 12:00","2023","01","25","12:00","-30.2","","-33.8","","72","","","","32","","28","","19.3","","100.59","","","","-45","","Blowing Snow"
"-93.58","69.55","TALOYOAK A","2403855","2023-01-25 13:00","2023","01","25","13:00","-32.0","","-35.6","","71","","","","31","","28","","19.3","","100.57","","","","-48","","Blowing Snow"
"-93.58","69.55","TALOYOAK A","2403855","2023-01-25 14:00","2023","01","25","14:00","-31.4","","-34.9","","72","","","","32","","24","","9.7","","100.57","","","","-46","","Snow,Blowing Snow"
"-93.58","69.55","TALOYOAK A","2403855","2023-01-25 15:00","2023","01","25","15:00","-31.6","","-35.1","","72","","","","31","","17","","9.7","","100.54","","","","-44","","Snow,Blowing Snow"
"-93.58","69.55","TALOYOAK A","2403855","2023-01-25 16:00","2023","01","25","16:00","-31.0","","-34.4","","73","","","","31","","30","","4.8","","100.47","","","","-47","","Snow,Blowing Snow"
"-93.58","69.55","TALOYOAK A","2403855","2023-01-25 17:00","2023","01","25","17:00","-30.6","","-34.0","","73","","","","32","","35","","4.0","","100.38","","","","-47","","Snow,Blowing Snow"
"-93.58","69.55","TALOYOAK A","2403855","2023-01-25 18:00","2023","01","25","18:00","-29.9","","-33.3","","73","","","","32","","35","","4.0","","100.29","","","","-46","","Snow,Blowing Snow"
"-93.58","69.55","TALOYOAK A","2403855","2023-01-25 19:00","2023","01","25","19:00","-29.6","","-32.9","","74","","","","31","","31","","6.4","","100.25","","","","-45","","Snow,Blowing Snow"
"-93.58","69.55","TALOYOAK A","2403855","2023-01-25 20:00","2023","01","25","20:00","-29.8","","-33.1","","74","","","","32","","30","","3.2","","100.20","","","","-45","","Snow,Blowing Snow"
"-93.58","69.55","TALOYOAK A","2403855","2023-01-25 21:00","2023","01","25","21:00","-29.7","","-33.0","","74","","","","32","","32","","3.2","","100.13","","","","-46","","Snow,Blowing Snow"
"-93.58","69.55","TALOYOAK A","2403855","2023-01-25 22:00","2023","01","25","22:00","-30.6","","-34.0","","73","","","","32","","22","","9.7","","100.11","","","","-44","","Snow,Blowing Snow"
"-93.58","69.55","TALOYOAK A","2403855","2023-01-25 23:00","2023","01","25","23:00","-31.2","","-34.6","","72","","","","32","","22","","9.7","","100.11","","","","-45","","Snow,Blowing Snow"
"-93.58","69.55","TALOYOAK A","2403855","2023-01-26 00:00","2023","01","26","00:00","-31.5","","-35.0","","72","","","","33","","17","","16.1","","100.13","","","","-44","","Snow,Blowing Snow"
"-93.58","69.55","TALOYOAK A","2403855","2023-01-26 01:00","2023","01","26","01:00","-32.1","","-35.8","","71","","","","35","","12","","16.1","","100.15","","","","-43","","Snow,Blowing Snow"
"-93.58","69.55","TALOYOAK A","2403855","2023-01-26 02:00","2023","01","26","02:00","-33.2","","-36.7","","71","","","","1","","13","","19.3","","100.18","","","","-44","","Snow,Blowing Snow"
"-93.58","69.55","TALOYOAK A","2403855","2023-01-26 03:00","2023","01","26","03:00","-33.1","","-36.5","","72","","","","2","","10","","24.1","","100.20","","","","-43","","Snow"
"-93.58","69.55","TALOYOAK A","2403855","2023-01-26 04:00","2023","01","26","04:00","-33.7","","-37.1","","72","","","","22","","4","","19.3","","100.20","","","","-39","","Snow"
"-93.58","69.55","TALOYOAK A","2403855","2023-01-26 05:00","2023","01","26","05:00","-34.0","","-37.5","","72","","","","23","","5","","24.1","","100.22","","","","-40","","Snow"
"-93.58","69.55","TALOYOAK A","2403855","2023-01-26 06:00","2023","01","26","06:00","-34.5","","-38.0","","71","","","","36","","3","","24.1","","100.21","","","","-38","","Snow"
"-93.58","69.55","TALOYOAK A","2403855","2023-01-26 07:00","2023","01","26","07:00","-34.0","","-37.5","","71","","","","22","","4","","24.1","","100.25","","","","-39","","Snow"
"-93.58","69.55","TALOYOAK A","2403855","2023-01-26 08:00","2023","01","26","08:00","-33.9","","-37.4","","71","","","","21","","6","","16.1","","100.29","","","","-41","","Snow"
"-93.58","69.55","TALOYOAK A","2403855","2023-01-26 09:00","2023","01","26","09:00","-33.6","","-37.1","","72","","","","16","","8","","16.1","","100.33","","","","-42","","Snow"
"-93.58","69.55","TALOYOAK A","2403855","2023-01-26 10:00","2023","01","26","10:00","-34.2","","-37.7","","71","","","","22","","9","","16.1","","100.35","","","","-44","","Snow"
"-93.58","69.55","TALOYOAK A","2403855","2023-01-26 11:00","2023","01","26","11:00","-34.5","","-38.0","","71","","","","16","","12","","14.5","","100.38","","","","-46","","Snow"
"-93.58","69.55","TALOYOAK A","2403855","2023-01-26 12:00","2023","01","26","12:00","-34.1","","-37.7","","71","","","","17","","16","","12.9","","100.40","","","","-47","","Snow"
"-93.58","69.55","TALOYOAK A","2403855","2023-01-26 13:00","2023","01","26","13:00","-34.1","","-37.7","","71","","","","16","","15","","9.7","","100.45","","","","-46","","Snow"
"-93.58","69.55","TALOYOAK A","2403855","2023-01-26 14:00","2023","01","26","14:00","-34.1","","-37.7","","71","","","","16","","14","","14.5","","100.47","","","","-46","","Snow"
"-93.58","69.55","TALOYOAK A","2403855","2023-01-26 15:00","2023","01","26","15:00","-34.8","","-38.4","","71","","","","16","","19","","24.1","","100.49","","","","-49","","NA"
"-93.58","69.55","TALOYOAK A","2403855","2023-01-26 16:00","2023","01","26","16:00","-35.0","","-38.6","","71","","","","15","","19","","24.1","","100.52","","","","-49","","Ice Crystals"
"-93.58","69.55","TALOYOAK A","2403855","2023-01-26 17:00","2023","01","26","17:00","-36.0","","-39.6","","70","","","","16","","22","","24.1","","100.52","","","","-51","","Ice Crystals"
"-93.58","69.55","TALOYOAK A","2403855","2023-01-26 18:00","2023","01","26","18:00","-36.2","","-39.8","","70","","","","16","","22","","19.3","","100.53","","","","-52","","Ice Crystals,Blowing Snow"
"-93.58","69.55","TALOYOAK A","2403855","2023-01-26 19:00","2023","01","26","19:00","-36.9","","-40.6","","69","","","","17","","23","","16.1","","100.56","","","","-53","","Ice Crystals,Blowing Snow"
"-93.58","69.55","TALOYOAK A","2403855","2023-01-26 20:00","2023","01","26","20:00","-36.9","","-40.6","","69","","","","16","","19","","9.7","","100.60","","","","-51","","Ice Crystals,Blowing Snow"
"-93.58","69.55","TALOYOAK A","2403855","2023-01-26 21:00","2023","01","26","21:00","-37.5","","-41.2","","69","","","","16","","21","","16.1","","100.61","","","","-53","","Ice Crystals"
"-93.58","69.55","TALOYOAK A","2403855","2023-01-26 22:00","2023","01","26","22:00","-37.7","","-41.4","","69","","","","16","","17","","16.1","","100.65","","","","-52","","Ice Crystals"
"-93.58","69.55","TALOYOAK A","2403855","2023-01-26 23:00","2023","01","26","23:00","-37.4","","-41.1","","69","","","","16","","15","","16.1","","100.73","","","","-51","","Ice Crystals"
"-93.58","69.55","TALOYOAK A","2403855","2023-01-27 00:00","2023","01","27","00:00","-37.1","","-40.8","","69","","","","17","","13","","19.3","","100.77","","","","-49","","Ice Crystals"
"-93.58","69.55","TALOYOAK A","2403855","2023-01-27 01:00","2023","01","27","01:00","-37.1","","-40.9","","69","","","","12","","5","","16.1","","100.85","","","","-44","","Ice Crystals"
"-93.58","69.55","TALOYOAK A","2403855","2023-01-27 02:00","2023","01","27","02:00","-36.9","","-40.6","","69","","","","3","","8","","24.1","","100.90","","","","-46","","Ice Crystals"
"-93.58","69.55","TALOYOAK A","2403855","2023-01-27 03:00","2023","01","27","03:00"
"-93.58","69.55","TALOYOAK A","2403855","2023-01-27 04:00","2023","01","27","04:00","-39.5","","-43.5","","67","","","","1","","11","","16.1","","100.96","","","","-51","","Ice Crystals"
"-93.58","69.55","TALOYOAK A","2403855","2023-01-27 05:00","2023","01","27","05:00","-39.2","","-43.0","","68","","","","1","","12","","19.3","","100.97","","","","-51","","Ice Crystals"
"-93.58","69.55","TALOYOAK A","2403855","2023-01-27 06:00","2023","01","27","06:00","-39.6","","-43.5","","67","","","","1","","13","","19.3","","101.01","","","","-52","","Ice Crystals"
"-93.58","69.55","TALOYOAK A","2403855","2023-01-27 07:00","2023","01","27","07:00","-39.7","","-43.5","","68","","","","1","","10","","24.1","","101.02","","","","-51","","Ice Crystals"
"-93.58","69.55","TALOYOAK A","2403855","2023-01-27 08:00","2023","01","27","08:00","-39.9","","-43.8","","67","","","","36","","12","","16.1","","101.07","","","","-52","","Ice Crystals"
"-93.58","69.55","TALOYOAK A","2403855","2023-01-27 09:00","2023","01","27","09:00","-39.6","","-43.5","","68","","","","36","","15","","24.1","","101.03","","","","-53","","Ice Crystals"
"-93.58","69.55","TALOYOAK A","2403855","2023-01-27 10:00","2023","01","27","10:00","-38.8","","-42.6","","68","","","","2","","17","","24.1","","101.07","","","","-53","","Ice Crystals"
"-93.58","69.55","TALOYOAK A","2403855","2023-01-27 11:00","2023","01","27","11:00","-38.7","","-42.5","","68","","","","2","","14","","24.1","","101.03","","","","-52","","Ice Crystals"
"-93.58","69.55","TALOYOAK A","2403855","2023-01-27 12:00","2023","01","27","12:00","-38.7","","-42.5","","68","","","","1","","14","","24.1","","101.07","","","","-52","","Ice Crystals"
"-93.58","69.55","TALOYOAK A","2403855","2023-01-27 13:00","2023","01","27","13:00","-37.6","","-41.4","","69","","","","2","","13","","24.1","","101.02","","","","-50","","Ice Crystals"
"-93.58","69.55","TALOYOAK A","2403855","2023-01-27 14:00","2023","01","27","14:00","-38.5","","-42.3","","69","","","","35","","8","","24.1","","101.02","","","","-48","","Ice Crystals"
"-93.58","69.55","TALOYOAK A","2403855","2023-01-27 15:00","2023","01","27","15:00","-36.7","","-40.3","","70","","","","32","","5","","24.1","","100.94","","","","-43","","Ice Crystals"
"-93.58","69.55","TALOYOAK A","2403855","2023-01-27 16:00","2023","01","27","16:00","-37.4","","-41.1","","69","","","","12","","7","","24.1","","100.92","","","","-46","","Ice Crystals"
"-93.58","69.55","TALOYOAK A","2403855","2023-01-27 17:00","2023","01","27","17:00","-37.0","","-40.7","","69","","","","13","","5","","24.1","","100.86","","","","-44","","Ice Crystals"
"-93.58","69.55","TALOYOAK A","2403855","2023-01-27 18:00","2023","01","27","18:00","-36.4","","-40.1","","70","","","","34","","4","","24.1","","100.76","","","","-42","","Ice Crystals"
"-93.58","69.55","TALOYOAK A","2403855","2023-01-27 19:00","2023","01","27","19:00","-36.5","","-40.2","","70","","","","13","","5","","24.1","","100.65","","","","-43","","Ice Crystals"
"-93.58","69.55","TALOYOAK A","2403855","2023-01-27 20:00","2023","01","27","20:00","-35.5","","-39.1","","71","","","","18","","6","","24.1","","100.61","","","","-43","","Ice Crystals"
"-93.58","69.55","TALOYOAK A","2403855","2023-01-27 21:00","2023","01","27","21:00","-36.0","","-39.7","","70","","","","18","","5","","24.1","","100.50","","","","-42","","Ice Crystals"
"-93.58","69.55","TALOYOAK A","2403855","2023-01-27 22:00","2023","01","27","22:00","-34.9","","-38.5","","71","","","","18","","6","","24.1","","100.39","","","","-42","","Ice Crystals"
"-93.58","69.55","TALOYOAK A","2403855","2023-01-27 23:00","2023","01","27","23:00","-33.8","","-37.4","","71","","","","21","","7","","24.1","","100.28","","","","-42","","Ice Crystals"
"-93.58","69.55","TALOYOAK A","2403855","2023-01-28 00:00","2023","01","28","00:00","-30.7","","-34.0","","74","","","","32","","11","","24.1","","100.17","","","","-41","","Ice Crystals"
"-93.58","69.55","TALOYOAK A","2403855","2023-01-28 01:00","2023","01","28","01:00","-29.0","","-32.3","","74","","","","15","","9","","24.1","","100.17","","","","-37","","Ice Crystals"
"-93.58","69.55","TALOYOAK A","2403855","2023-01-28 02:00","2023","01","28","02:00","-31.0","","-34.4","","73","","","","16","","7","","24.1","","100.15","","","","-38","","Ice Crystals"
"-93.58","69.55","TALOYOAK A","2403855","2023-01-28 03:00","2023","01","28","03:00","-27.5","","-30.5","","77","","","","33","","14","","24.1","","100.14","","","","-38","","Ice Crystals"
"-93.58","69.55","TALOYOAK A","2403855","2023-01-28 04:00","2023","01","28","04:00","-30.1","","-33.5","","73","","","","18","","3","","24.1","","100.15","","","","-33","","Snow"
"-93.58","69.55","TALOYOAK A","2403855","2023-01-28 05:00","2023","01","28","05:00","-30.4","","-33.8","","73","","","","17","","6","","24.1","","100.13","","","","-37","","Snow"
"-93.58","69.55","TALOYOAK A","2403855","2023-01-28 06:00","2023","01","28","06:00","-30.1","","-33.4","","74","","","","12","","7","","20.9","","100.15","","","","-37","","Snow"
"-93.58","69.55","TALOYOAK A","2403855","2023-01-28 07:00","2023","01","28","07:00","-29.8","","-33.1","","74","","","","19","","4","","14.5","","100.16","","","","-34","","Snow"
"-93.58","69.55","TALOYOAK A","2403855","2023-01-28 08:00","2023","01","28","08:00","-29.5","","-32.7","","74","","","","36","","3","","11.3","","100.16","","","","-33","","Snow"
"-93.58","69.55","TALOYOAK A","2403855","2023-01-28 09:00","2023","01","28","09:00","-28.6","","-31.8","","75","","","","18","","5","","19.3","","100.20","","","","-34","","Snow"
"-93.58","69.55","TALOYOAK A","2403855","2023-01-28 10:00","2023","01","28","10:00","-29.9","","-33.1","","74","","","","19","","11","","16.1","","100.23","","","","-40","","Snow"
"-93.58","69.55","TALOYOAK A","2403855","2023-01-28 11:00","2023","01","28","11:00","-30.4","","-33.7","","73","","","","16","","13","","19.3","","100.26","","","","-41","","Snow"
"-93.58","69.55","TALOYOAK A","2403855","2023-01-28 12:00","2023","01","28","12:00","-29.6","","-32.8","","74","","","","15","","11","","19.3","","100.29","","","","-39","","Snow"
"-93.58","69.55","TALOYOAK A","2403855","2023-01-28 13:00","2023","01","28","13:00","-30.3","","-33.6","","74","","","","17","","10","","24.1","","100.33","","","","-40","","Snow"
"-93.58","69.55","TALOYOAK A","2403855","2023-01-28 14:00","2023","01","28","14:00","-31.7","","-35.1","","73","","","","18","","12","","24.1","","100.36","","","","-42","","Ice Crystals"
"-93.58","69.55","TALOYOAK A","2403855","2023-01-28 15:00","2023","01","28","15:00","-32.7","","-36.1","","72","","","","16","","14","","24.1","","100.38","","","","-44","","Ice Crystals"
"-93.58","69.55","TALOYOAK A","2403855","2023-01-28 16:00","2023","01","28","16:00","-33.4","","-36.9","","72","","","","18","","17","","24.1","","100.41","","","","-46","","Ice Crystals"
"-93.58","69.55","TALOYOAK A","2403855","2023-01-28 17:00","2023","01","28","17:00","-34.1","","-37.6","","71","","","","16","","17","","24.1","","100.40","","","","-47","","Snow Showers"
"-93.58","69.55","TALOYOAK A","2403855","2023-01-28 18:00","2023","01","28","18:00","-34.1","","-37.7","","71","","","","15","","16","","24.1","","100.36","","","","-47","","Snow"
"-93.58","69.55","TALOYOAK A","2403855","2023-01-28 19:00","2023","01","28","19:00","-34.5","","-38.1","","71","","","","16","","16","","24.1","","100.35","","","","-47","","Snow"
"-93.58","69.55","TALOYOAK A","2403855","2023-01-28 20:00","2023","01","28","20:00","-34.2","","-37.8","","71","","","","15","","10","","24.1","","100.31","","","","-44","","Snow"
"-93.58","69.55","TALOYOAK A","2403855","2023-01-28 21:00","2023","01","28","21:00","-33.8","","-37.3","","71","","","","14","","8","","19.3","","100.33","","","","-42","","Snow,Ice Crystals"
"-93.58","69.55","TALOYOAK A","2403855","2023-01-28 22:00","2023","01","28","22:00","-33.0","","-36.5","","72","","","","22","","4","","19.3","","100.33","","","","-38","","Snow,Ice Crystals"
"-93.58","69.55","TALOYOAK A","2403855","2023-01-28 23:00","2023","01","28","23:00","-32.3","","-35.8","","72","","","","28","","6","","19.3","","100.27","","","","-39","","Snow,Ice Crystals"
"-93.58","69.55","TALOYOAK A","2403855","2023-01-29 00:00","2023","01","29","00:00","-34.0","","-37.5","","71","","","","33","","11","","24.1","","100.27","","","","-44","","NA"
"-93.58","69.55","TALOYOAK A","2403855","2023-01-29 01:00","2023","01","29","01:00","-33.9","","-37.4","","71","","","","29","","10","","24.1","","100.25","","","","-44","","NA"
"-93.58","69.55","TALOYOAK A","2403855","2023-01-29 02:00","2023","01","29","02:00","-33.5","","-37.1","","71","","","","31","","10","","24.1","","100.29","","","","-43","","Mainly Clear"
"-93.58","69.55","TALOYOAK A","2403855","2023-01-29 03:00","2023","01","29","03:00","-33.7","","-37.2","","71","","","","30","","9","","24.1","","100.27","","","","-43","","NA"
"-93.58","69.55","TALOYOAK A","2403855","2023-01-29 04:00","2023","01","29","04:00","-34.2","","-37.8","","70","","","","28","","15","","24.1","","100.24","","","","-47","","NA"
"-93.58","69.55","TALOYOAK A","2403855","2023-01-29 05:00","2023","01","29","05:00","-36.0","","-39.7","","70","","","","17","","14","","24.1","","100.16","","","","-48","","Mainly Clear"
"-93.58","69.55","TALOYOAK A","2403855","2023-01-29 06:00","2023","01","29","06:00","-36.3","","-40.0","","70","","","","20","","8","","24.1","","100.19","","","","-45","","NA"
"-93.58","69.55","TALOYOAK A","2403855","2023-01-29 07:00","2023","01","29","07:00","-36.5","","-40.1","","70","","","","13","","9","","24.1","","100.08","","","","-46","","Ice Crystals"
"-93.58","69.55","TALOYOAK A","2403855","2023-01-29 08:00","2023","01","29","08:00","-35.4","","-38.9","","71","","","","24","","5","","24.1","","100.06","","","","-42","","Ice Crystals"
"-93.58","69.55","TALOYOAK A","2403855","2023-01-29 09:00","2023","01","29","09:00","-36.4","","-40.0","","70","","","","19","","4","","24.1","","100.04","","","","-42","","Ice Crystals"
"-93.58","69.55","TALOYOAK A","2403855","2023-01-29 10:00","2023","01","29","10:00","-36.1","","-39.8","","70","","","","10","","5","","24.1","","100.03","","","","-43","","Ice Crystals"
"-93.58","69.55","TALOYOAK A","2403855","2023-01-29 11:00","2023","01","29","11:00","-37.0","","-40.7","","69","","","","7","","9","","24.1","","100.01","","","","-47","","Ice Crystals"
"-93.58","69.55","TALOYOAK A","2403855","2023-01-29 12:00","2023","01","29","12:00","-38.1","","-41.9","","68","","","","3","","16","","24.1","","100.00","","","","-52","","Ice Crystals"
"-93.58","69.55","TALOYOAK A","2403855","2023-01-29 13:00","2023","01","29","13:00","-38.3","","-42.1","","68","","","","1","","13","","24.1","","100.04","","","","-51","","Ice Crystals"
"-93.58","69.55","TALOYOAK A","2403855","2023-01-29 14:00","2023","01","29","14:00","-37.9","","-41.7","","69","","","","1","","15","","24.1","","100.06","","","","-51","","Ice Crystals"
"-93.58","69.55","TALOYOAK A","2403855","2023-01-29 15:00","2023","01","29","15:00","-38.4","","-42.2","","68","","","","2","","16","","24.1","","100.06","","","","-52","","Ice Crystals"
"-93.58","69.55","TALOYOAK A","2403855","2023-01-29 16:00","2023","01","29","16:00","-37.1","","-40.8","","69","","","","36","","21","","24.1","","100.07","","","","-52","","Ice Crystals"
"-93.58","69.55","TALOYOAK A","2403855","2023-01-29 17:00","2023","01","29","17:00","-35.4","","-39.0","","70","","","","2","","26","","19.3","","100.05","","","","-52","","Snow,Blowing Snow"
"-93.58","69.55","TALOYOAK A","2403855","2023-01-29 18:00","2023","01","29","18:00","-34.4","","-38.0","","71","","","","3","","31","","16.1","","100.08","","","","-52","","Snow,Blowing Snow"
"-93.58","69.55","TALOYOAK A","2403855","2023-01-29 19:00","2023","01","29","19:00","-34.0","","-37.6","","71","","","","4","","22","","16.1","","100.13","","","","-49","","Snow,Blowing Snow"
"-93.58","69.55","TALOYOAK A","2403855","2023-01-29 20:00","2023","01","29","20:00","-34.2","","-37.8","","71","","","","3","","30","","16.1","","100.17","","","","-51","","Snow,Blowing Snow"
"-93.58","69.55","TALOYOAK A","2403855","2023-01-29 21:00","2023","01","29","21:00","-34.9","","-38.6","","70","","","","3","","32","","9.7","","100.18","","","","-52","","Blowing Snow"
"-93.58","69.55","TALOYOAK A","2403855","2023-01-29 22:00","2023","01","29","22:00","-35.0","","-38.6","","70","","","","3","","34","","6.4","","100.22","","","","-53","","Blowing Snow"
"-93.58","69.55","TALOYOAK A","2403855","2023-01-29 23:00","2023","01","29","23:00","-34.5","","-38.0","","71","","","","3","","35","","8.1","","100.30","","","","-53","","Blowing Snow"
"-93.58","69.55","TALOYOAK A","2403855","2023-01-30 00:00","2023","01","30","00:00","-34.6","","-38.3","","70","","","","3","","29","","9.7","","100.33","","","","-51","","Blowing Snow"
"-93.58","69.55","TALOYOAK A","2403855","2023-01-30 01:00","2023","01","30","01:00","-35.0","","-38.7","","70","","","","1","","16","","11.3","","100.43","","","","-48","","NA"
"-93.58","69.55","TALOYOAK A","2403855","2023-01-30 02:00","2023","01","30","02:00","-35.2","","-38.9","","70","","","","1","","17","","11.3","","100.51","","","","-49","","Ice Crystals"
"-93.58","69.55","TALOYOAK A","2403855","2023-01-30 03:00","2023","01","30","03:00","-34.7","","-38.4","","70","","","","3","","32","","9.7","","100.53","","","","-52","","Blowing Snow"
"-93.58","69.55","TALOYOAK A","2403855","2023-01-30 04:00","2023","01","30","04:00","-34.6","","-38.3","","70","","","","3","","37","","6.4","","100.58","","","","-53","","Blowing Snow"
"-93.58","69.55","TALOYOAK A","2403855","2023-01-30 05:00","2023","01","30","05:00","-34.3","","-37.9","","71","","","","4","","34","","9.7","","100.65","","","","-52","","Blowing Snow"
"-93.58","69.55","TALOYOAK A","2403855","2023-01-30 06:00","2023","01","30","06:00","-34.4","","-38.1","","70","","","","3","","30","","4.0","","100.72","","","","-51","","Blowing Snow"
"-93.58","69.55","TALOYOAK A","2403855","2023-01-30 07:00","2023","01","30","07:00","-34.4","","-38.1","","70","","","","3","","34","","9.7","","100.76","","","","-52","","Blowing Snow"
"-93.58","69.55","TALOYOAK A","2403855","2023-01-30 08:00","2023","01","30","08:00","-35.4","","-39.0","","70","","","","3","","31","","9.7","","100.78","","","","-53","","Blowing Snow"
"-93.58","69.55","TALOYOAK A","2403855","2023-01-30 09:00","2023","01","30","09:00","-36.0","","-39.6","","70","","","","2","","24","","19.3","","100.89","","","","-52","","Blowing Snow"
"-93.58","69.55","TALOYOAK A","2403855","2023-01-30 10:00","2023","01","30","10:00","-34.6","","-38.2","","70","","","","2","","25","","24.1","","100.93","","","","-50","","Blowing Snow"
"-93.58","69.55","TALOYOAK A","2403855","2023-01-30 11:00","2023","01","30","11:00","-35.4","","-39.1","","69","","","","3","","24","","24.1","","100.90","","","","-51","","Blowing Snow"
"-93.58","69.55","TALOYOAK A","2403855","2023-01-30 12:00","2023","01","30","12:00","-35.7","","-39.5","","69","","","","5","","14","","24.1","","100.91","","","","-48","","Blowing Snow"
"-93.58","69.55","TALOYOAK A","2403855","2023-01-30 13:00","2023","01","30","13:00","-37.1","","-40.9","","69","","","","30","","10","","24.1","","100.94","","","","-48","","NA"
"-93.58","69.55","TALOYOAK A","2403855","2023-01-30 14:00","2023","01","30","14:00","-36.4","","-40.3","","69","","","","32","","8","","24.1","","100.94","","","","-45","","Mainly Clear"
"-93.58","69.55","TALOYOAK A","2403855","2023-01-30 15:00","2023","01","30","15:00","-35.6","","-39.4","","70","","","","34","","10","","24.1","","100.92","","","","-46","","NA"
"-93.58","69.55","TALOYOAK A","2403855","2023-01-30 16:00","2023","01","30","16:00","-35.6","","-39.5","","69","","","","32","","8","","24.1","","100.90","","","","-45","","Ice Crystals"
"-93.58","69.55","TALOYOAK A","2403855","2023-01-30 17:00","2023","01","30","17:00","-35.9","","-39.6","","70","","","","15","","8","","24.1","","100.82","","","","-45","","Ice Crystals"
"-93.58","69.55","TALOYOAK A","2403855","2023-01-30 18:00","2023","01","30","18:00","-35.4","","-39.1","","70","","","","18","","10","","24.1","","100.76","","","","-46","","Ice Crystals"
"-93.58","69.55","TALOYOAK A","2403855","2023-01-30 19:00","2023","01","30","19:00","-35.0","","-38.6","","71","","","","26","","4","","24.1","","100.69","","","","-40","","Ice Crystals"
"-93.58","69.55","TALOYOAK A","2403855","2023-01-30 20:00","2023","01","30","20:00","-35.2","","-38.9","","70","","","","16","","3","","9.7","","100.61","","","","-39","","Snow Showers"
"-93.58","69.55","TALOYOAK A","2403855","2023-01-30 21:00","2023","01","30","21:00","-35.2","","-38.8","","70","","","","16","","8","","16.1","","100.58","","","","-44","","Snow"
"-93.58","69.55","TALOYOAK A","2403855","2023-01-30 22:00","2023","01","30","22:00","-35.3","","-38.9","","71","","","","16","","8","","24.1","","100.53","","","","-44","","Snow"
"-93.58","69.55","TALOYOAK A","2403855","2023-01-30 23:00","2023","01","30","23:00","-35.6","","-39.2","","70","","","","17","","7","","24.1","","100.51","","","","-44","","Ice Crystals"
"-93.58","69.55","TALOYOAK A","2403855","2023-01-31 00:00","2023","01","31","00:00","-36.4","","-40.1","","70","","","","18","","7","","24.1","","100.50","","","","-45","","Ice Crystals"
"-93.58","69.55","TALOYOAK A","2403855","2023-01-31 01:00","2023","01","31","01:00","-35.9","","-39.6","","70","","","","17","","11","","16.1","","100.54","","","","-47","","Snow Grains"
"-93.58","69.55","TALOYOAK A","2403855","2023-01-31 02:00","2023","01","31","02:00","-35.5","","-39.1","","70","","","","16","","7","","16.1","","100.54","","","","-44","","Snow Grains"
"-93.58","69.55","TALOYOAK A","2403855","2023-01-31 03:00","2023","01","31","03:00","-36.4","","-40.0","","70","","","","17","","10","","19.3","","100.56","","","","-47","","Snow Grains"
"-93.58","69.55","TALOYOAK A","2403855","2023-01-31 04:00","2023","01","31","04:00","-36.7","","-40.5","","69","","","","36","","1","","16.1","","100.55","","","","-38","","Ice Crystals"
"-93.58","69.55","TALOYOAK A","2403855","2023-01-31 05:00","2023","01","31","05:00","-38.3","","-42.1","","68","","","","36","","10","","24.1","","100.57","","","","-49","","Ice Crystals"
"-93.58","69.55","TALOYOAK A","2403855","2023-01-31 06:00","2023","01","31","06:00","-38.9","","-42.8","","68","","","","36","","9","","24.1","","100.60","","","","-49","","Ice Crystals"
"-93.58","69.55","TALOYOAK A","2403855","2023-01-31 07:00","2023","01","31","07:00","-39.2","","-43.1","","68","","","","36","","7","","24.1","","100.60","","","","-48","","Ice Crystals"
"-93.58","69.55","TALOYOAK A","2403855","2023-01-31 08:00","2023","01","31","08:00","-39.0","","-42.8","","68","","","","1","","9","","24.1","","100.62","","","","-49","","Ice Crystals"
"-93.58","69.55","TALOYOAK A","2403855","2023-01-31 09:00","2023","01","31","09:00","-37.6","","-41.3","","69","","","","2","","9","","24.1","","100.65","","","","-48","","Ice Crystals"
"-93.58","69.55","TALOYOAK A","2403855","2023-01-31 10:00","2023","01","31","10:00","-39.1","","-43.0","","68","","","","2","","14","","16.1","","100.69","","","","-52","","Ice Crystals"
"-93.58","69.55","TALOYOAK A","2403855","2023-01-31 11:00","2023","01","31","11:00","-38.5","","-42.2","","69","","","","2","","15","","24.1","","100.69","","","","-52","","Ice Crystals"
"-93.58","69.55","TALOYOAK A","2403855","2023-01-31 12:00","2023","01","31","12:00","-38.0","","-41.8","","68","","","","3","","23","","24.1","","100.73","","","","-54","","Ice Crystals"
"-93.58","69.55","TALOYOAK A","2403855","2023-01-31 13:00","2023","01","31","13:00","-36.1","","-39.9","","70","","","","3","","28","","19.3","","100.77","","","","-53","","Ice Crystals,Blowing Snow"
"-93.58","69.55","TALOYOAK A","2403855","2023-01-31 14:00","2023","01","31","14:00","-36.7","","-40.4","","69","","","","4","","25","","24.1","","100.81","","","","-53","","Ice Crystals,Blowing Snow"
"-93.58","69.55","TALOYOAK A","2403855","2023-01-31 15:00","2023","01","31","15:00","-36.7","","-40.5","","69","","","","3","","28","","24.1","","100.85","","","","-54","","Ice Crystals,Blowing Snow"
"-93.58","69.55","TALOYOAK A","2403855","2023-01-31 16:00","2023","01","31","16:00","-37.8","","-41.6","","69","","","","3","","18","","24.1","","100.86","","","","-52","","Ice Crystals,Blowing Snow"
"-93.58","69.55","TALOYOAK A","2403855","2023-01-31 17:00","2023","01","31","17:00","-38.1","","-41.9","","69","","","","3","","16","","24.1","","100.87","","","","-52","","Ice Crystals"
"-93.58","69.55","TALOYOAK A","2403855","2023-01-31 18:00","2023","01","31","18:00","-35.5","","-39.0","","71","","","","5","","17","","24.1","","100.89","","","","-49","","Ice Crystals"
"-93.58","69.55","TALOYOAK A","2403855","2023-01-31 19:00","2023","01","31","19:00","-38.4","","-42.2","","68","","","","2","","16","","24.1","","100.94","","","","-52","","Snow"
"-93.58","69.55","TALOYOAK A","2403855","2023-01-31 20:00","2023","01","31","20:00","-37.0","","-40.8","","69","","","","3","","11","","9.7","","100.94","","","","-48","","Snow"
"-93.58","69.55","TALOYOAK A","2403855","2023-01-31 21:00","2023","01","31","21:00","-37.0","","-40.8","","69","","","","2","","12","","9.7","","100.95","","","","-49","","Snow"
"-93.58","69.55","TALOYOAK A","2403855","2023-01-31 22:00","2023","01","31","22:00","-37.4","","-41.2","","69","","","","1","","14","","19.3","","100.96","","","","-50","","Snow"
"-93.58","69.55","TALOYOAK A","2403855","2023-01-31 23:00","2023","01","31","23:00","-38.3","","-42.1","","68","","","","2","","15","","24.1","","100.99","","","","-52","","Ice Crystals"
