"Longitude (x)","Latitude (y)","Station Name","Climate ID","Date/Time (LST)","Year","Month","Day","Time (LST)","Temp (°C)","Temp Flag","Dew Point Temp (°C)","Dew Point Temp Flag","Rel Hum (%)","Rel Hum Flag","Precip. Amount (mm)","Precip. Amount Flag","Wind Dir (10s deg)","Wind Dir Flag","Wind Spd (km/h)","Wind Spd Flag","Visibility (km)","Visibility Flag","Stn Press (kPa)","Stn Press Flag","Hmdx","Hmdx Flag","Wind Chill","Wind Chill Flag","Weather"
"-93.58","69.55","TALOYOAK A","2403855","2023-02-01 00:00","2023","02","01","00:00","-37.9","","-41.7","","68","","","","1","","10","","24.1","","101.02","","","","-49","","Ice Crystals"
"-93.58","69.55","TALOYOAK A","2403855","2023-02-01 01:00","2023","02","01","01:00","-38.4","","-42.3","","68","","","","3","","18","","24.1","","101.05","","","","-53","","Ice Crystals"
"-93.58","69.55","TALOYOAK A","2403855","2023-02-01 02:00","2023","02","01","02:00","-37.4","","-41.1","","69","","","","3","","8","","24.1","","101.08","","","","-47","","Ice Crystals"
"-93.58","69.55","TALOYOAK A","2403855","2023-02-01 03:00","2023","02","01","03:00","-39.4","","-43.2","","68","","","","2","","13","","24.1","","101.14","","","","-52","","Ice Crystals"
"-93.58","69.55","TALOYOAK A","2403855","2023-02-01 04:00","2023","02","01","04:00","-39.1","","-42.9","","68","","","","2","","14","","24.1","","101.14","","","","-52","","Ice Crystals"
"-93.58","69.55","TALOYOAK A","2403855","2023-02-01 05:00","2023","02","01","05:00","-39.8","","-43.7","","67","","","","34","","9","","24.1","","101.18","","","","-50","","Ice Crystals"
"-93.58","69.55","TALOYOAK A","2403855","2023-02-01 06:00","2023","02","01","06:00","-38.4","","-42.1","","69","","","","4","","6","","24.1","","101.18","","","","-46","","Ice Crystals"
"-93.58","69.55","TALOYOAK A","2403855","2023-02-01 07:00","2023","02","01","07:00","-39.4","","-43.3","","68","","","","36","","10","","24.1","","101.15","","","","-50","","Ice Crystals"
"-93.58","69.55","TALOYOAK A","2403855","2023-02-01 08:00","2023","02","01","08:00","-37.2","","-40.9","","69","","","","1","","7","","19.3","","101.15","","","","-46","","Ice Crystals"
"-93.58","69.55","TALOYOAK A","2403855","2023-02-01 09:00","2023","02","01","09:00","-38.3","","-42.1","","68","","","","36","","6","","19.3","","101.15","","","","-46","","Ice Crystals"
"-93.58","69.55","TALOYOAK A","2403855","2023-02-01 10:00","2023","02","01","10:00","-39.2","","-43.1","","67","","","","17","","5","","24.1","","101.15","","","","-46","","Ice Crystals"
"-93.58","69.55","TALOYOAK A","2403855","2023-02-01 11:00","2023","02","01","11:00","-39.7","","-43.6","","67","","","","15","","12","","24.1","","101.13","","","","-52","","Ice Crystals"
"-93.58","69.55","TALOYOAK A","2403855","2023-02-01 12:00","2023","02","01","12:00","-37.9","","-41.7","","68","","","","16","","14","","24.1","","101.12","","","","-51","","Ice Crystals"
"-93.58","69.55","TALOYOAK A","2403855","2023-02-01 13:00","2023","02","01","13:00","-38.3","","-42.1","","68","","","","17","","12","","24.1","","101.12","","","","-50","","Ice Crystals"
"-93.58","69.55","TALOYOAK A","2403855","2023-02-01 14:00","2023","02","01","14:00","-38.8","","-42.8","","68","","","","17","","13","","24.1","","101.12","","","","-51","","Ice Crystals"
"-93.58","69.55","TALOYOAK A","2403855","2023-02-01 15:00","2023","02","01","15:00","-38.8","","-42.6","","68","","","","16","","15","","24.1","","101.16","","","","-52","","Ice Crystals"
"-93.58","69.55","TALOYOAK A","2403855","2023-02-01 16:00","2023","02","01","16:00","-38.8","","-42.7","","68","","","","16","","14","","24.1","","101.17","","","","-52","","Ice Crystals"
"-93.58","69.55","TALOYOAK A","2403855","2023-02-01 17:00","2023","02","01","17:00","-38.9","","-42.8","","68","","","","16","","15","","9.7","","101.17","","","","-52","","Fog"
"-93.58","69.55","TALOYOAK A","2403855","2023-02-01 18:00","2023","02","01","18:00","-39.6","","-43.5","","67","","","","16","","19","","9.7","","101.16","","","","-55","","Fog"
"-93.58","69.55","TALOYOAK A","2403855","2023-02-01 19:00","2023","02","01","19:00","-39.8","","-43.8","","67","","","","17","","18","","9.7","","101.15","","","","-55","","Fog"
"-93.58","69.55","TALOYOAK A","2403855","2023-02-01 20:00","2023","02","01","20:00","-40.6","","-44.6","","67","","","","16","","19","","9.7","","101.13","","","","-56","","Fog"
"-93.58","69.55","TALOYOAK A","2403855","2023-02-01 21:00","2023","02","01","21:00","-40.8","","-44.8","","66","","","","17","","21","","9.7","","101.11","","","","-57","","Fog"
"-93.58","69.55","TALOYOAK A","2403855","2023-02-01 22:00","2023","02","01","22:00","-40.8","","-44.9","","66","","","","17","","23","","6.4","","101.10","","","","-58","","Fog"
"-93.58","69.55","TALOYOAK A","2403855","2023-02-01 23:00","2023","02","01","23:00","-40.3","","-44.3","","67","","","","16","","26","","6.4","","101.09","","","","-58","","Fog"
"-93.58","69.55","TALOYOAK A","2403855","2023-02-02 00:00","2023","02","02","00:00","-40.4","","-44.4","","67","","","","17","","22","","4.8","","101.09","","","","-57","","Fog"
"-93.58","69.55","TALOYOAK A","2403855","2023-02-02 01:00","2023","02","02","01:00","-39.6","","-43.5","","67","","","","16","","21","","4.8","","101.07","","","","-56","","Fog"
"-93.58","69.55","TALOYOAK A","2403855","2023-02-02 02:00","2023","02","02","02:00","-38.7","","-42.6","","68","","","","17","","25","","4.8","","101.03","","","","-56","","Snow,Fog"
"-93.58","69.55","TALOYOAK A","2403855","2023-02-02 03:00","2023","02","02","03:00","-37.7","","-41.6","","68","","","","16","","22","","4.8","","101.00","","","","-53","","Snow,Fog"
"-93.58","69.55","TALOYOAK A","2403855","2023-02-02 04:00","2023","02","02","04:00","-36.5","","-40.3","","69","","","","15","","19","","6.4","","100.97","","","","-51","","Snow,Fog"
"-93.58","69.55","TALOYOAK A","2403855","2023-02-02 05:00","2023","02","02","05:00","-35.6","","-39.3","","70","","","","15","","26","","4.8","","100.93","","","","-52","","Snow,Fog"
"-93.58","69.55","TALOYOAK A","2403855","2023-02-02 06:00","2023","02","02","06:00","-34.2","","-37.8","","71","","","","22","","16","","8.1","","100.92","","","","-47","","Snow,Fog"
"-93.58","69.55","TALOYOAK A","2403855","2023-02-02 07:00","2023","02","02","07:00","-34.2","","-37.8","","71","","","","21","","6","","3.2","","100.88","","","","-41","","Ice Crystals,Fog"
"-93.58","69.55","TALOYOAK A","2403855","2023-02-02 08:00","2023","02","02","08:00","-35.0","","-38.7","","70","","","","21","","7","","3.2","","100.85","","","","-43","","Ice Crystals,Fog"
"-93.58","69.55","TALOYOAK A","2403855","2023-02-02 09:00","2023","02","02","09:00","-33.7","","-37.3","","71","","","","26","","11","","3.2","","100.83","","","","-44","","Ice Crystals,Fog"
"-93.58","69.55","TALOYOAK A","2403855","2023-02-02 10:00","2023","02","02","10:00","-34.7","","-38.4","","70","","","","29","","26","","9.7","","100.79","","","","-51","","Ice Crystals,Fog"
"-93.58","69.55","TALOYOAK A","2403855","2023-02-02 11:00","2023","02","02","11:00","-33.7","","-37.3","","71","","","","31","","18","","2.0","","100.77","","","","-47","","Ice Crystals,Fog"
"-93.58","69.55","TALOYOAK A","2403855","2023-02-02 12:00","2023","02","02","12:00","-32.9","","-36.5","","71","","","","29","","38","","1.2","","100.75","","","","-51","","Blowing Snow"
"-93.58","69.55","TALOYOAK A","2403855","2023-02-02 13:00","2023","02","02","13:00","-32.9","","-36.4","","71","","","","30","","33","","1.2","","100.79","","","","-50","","Blowing Snow"
"-93.58","69.55","TALOYOAK A","2403855","2023-02-02 14:00","2023","02","02","14:00","-33.8","","-37.4","","71","","","","31","","30","","2.4","","100.82","","","","-51","","Blowing Snow"
"-93.58","69.55","TALOYOAK A","2403855","2023-02-02 15:00","2023","02","02","15:00","-33.5","","-37.0","","71","","","","32","","25","","2.4","","100.81","","","","-49","","Blowing Snow"
"-93.58","69.55","TALOYOAK A","2403855","2023-02-02 16:00","2023","02","02","16:00","-33.1","","-36.7","","71","","","","33","","17","","11.3","","100.83","","","","-46","","NA"
"-93.58","69.55","TALOYOAK A","2403855","2023-02-02 17:00","2023","02","02","17:00","-32.3","","-35.8","","72","","","","27","","3","","16.1","","100.79","","","","-36","","Snow"
"-93.58","69.55","TALOYOAK A","2403855","2023-02-02 18:00","2023","02","02","18:00","-32.9","","-36.4","","72","","","","36","","1","","19.3","","100.75","","","","-34","","Snow"
"-93.58","69.55","TALOYOAK A","2403855","2023-02-02 19:00","2023","02","02","19:00","-33.1","","-36.7","","71","","","","34","","14","","16.1","","100.72","","","","-45","","Snow"
"-93.58","69.55","TALOYOAK A","2403855","2023-02-02 20:00","2023","02","02","20:00","-32.3","","-35.8","","72","","","","33","","21","","19.3","","100.69","","","","-46","","Snow"
"-93.58","69.55","TALOYOAK A","2403855","2023-02-02 21:00","2023","02","02","21:00","-32.0","","-35.4","","72","","","","33","","17","","19.3","","100.68","","","","-45","","Snow"
"-93.58","69.55","TALOYOAK A","2403855","2023-02-02 22:00","2023","02","02","22:00","-32.9","","-36.5","","71","","","","7","","12","","19.3","","100.72","","","","-44","","Snow"
"-93.58","69.55","TALOYOAK A","2403855","2023-02-02 23:00","2023","02","02","23:00","-33.3","","-36.9","","71","","","","4","","13","","19.3","","100.77","","","","-45","","Snow"
"-93.58","69.55","TALOYOAK A","2403855","2023-02-03 00:00","2023","02","03","00:00","-34.1","","-37.8","","71","","","","3","","16","","19.3","","100.80","","","","-47","","Snow"
"-93.58","69.55","TALOYOAK A","2403855","2023-02-03 01:00","2023","02","03","01:00","-35.0","","-38.7","","70","","","","2","","10","","24.1","","100.84","","","","-45","","Ice Crystals"
"-93.58","69.55","TALOYOAK A","2403855","2023-02-03 02:00","2023","02","03","02:00","-35.9","","-39.7","","70","","","","33","","13","","19.3","","100.87","","","","-48","","Snow"
"-93.58","69.55","TALOYOAK A","2403855","2023-02-03 03:00","2023","02","03","03:00","-37.1","","-41.0","","69","","","","35","","12","","24.1","","100.87","","","","-49","","Snow"
"-93.58","69.55","TALOYOAK A","2403855","2023-02-03 04:00","2023","02","03","04:00","-35.6","","-39.3","","70","","","","1","","7","","24.1","","100.87","","","","-44","","Ice Crystals"
"-93.58","69.55","TALOYOAK A","2403855","2023-02-03 05:00","2023","02","03","05:00","-36.0","","-39.7","","69","","","","9","","5","","19.3","","100.84","","","","-42","","Snow"
"-93.58","69.55","TALOYOAK A","2403855","2023-02-03 06:00","2023","02","03","06:00","-37.5","","-41.4","","68","","","","32","","4","","24.1","","100.86","","","","-43","","Snow"
"-93.58","69.55","TALOYOAK A","2403855","2023-02-03 07:00","2023","02","03","07:00","-36.0","","-39.8","","69","","","","36","","2","","24.1","","100.87","","","","-39","","Snow"
"-93.58","69.55","TALOYOAK A","2403855","2023-02-03 08:00","2023","02","03","08:00","-36.2","","-39.9","","70","","","","17","","5","","24.1","","100.84","","","","-43","","Snow"
"-93.58","69.55","TALOYOAK A","2403855","2023-02-03 09:00","2023","02","03","09:00","-36.6","","-40.4","","69","","","","19","","7","","24.1","","100.84","","","","-45","","NA"
"-93.58","69.55","TALOYOAK A","2403855","2023-02-03 10:00","2023","02","03","10:00","-36.1","","-39.9","","69","","","","17","","7","","24.1","","100.83","","","","-44","","NA"
"-93.58","69.55","TALOYOAK A","2403855","2023-02-03 11:00","2023","02","03","11:00","-36.6","","-40.3","","69","","","","21","","10","","24.1","","100.83","","","","-47","","Mostly Cloudy"
"-93.58","69.55","TALOYOAK A","2403855","2023-02-03 12:00","2023","02","03","12:00","-36.8","","-40.5","","69","","","","19","","8","","16.1","","100.82","","","","-46","","Snow"
"-93.58","69.55","TALOYOAK A","2403855","2023-02-03 13:00","2023","02","03","13:00","-36.8","","-40.6","","69","","","","17","","9","","19.3","","100.83","","","","-47","","NA"
"-93.58","69.55","TALOYOAK A","2403855","2023-02-03 14:00","2023","02","03","14:00","-37.7","","-41.5","","68","","","","20","","13","","17.7","","100.84","","","","-50","","Mainly Clear"
"-93.58","69.55","TALOYOAK A","2403855","2023-02-03 15:00","2023","02","03","15:00","-36.9","","-40.6","","69","","","","16","","13","","16.1","","100.84","","","","-49","","NA"
"-93.58","69.55","TALOYOAK A","2403855","2023-02-03 16:00","2023","02","03","16:00","-36.9","","-40.7","","69","","","","17","","15","","16.1","","100.85","","","","-50","","Snow"
"-93.58","69.55","TALOYOAK A","2403855","2023-02-03 17:00","2023","02","03","17:00","-36.9","","-40.7","","69","","","","17","","17","","16.1","","100.85","","","","-51","","Snow"
"-93.58","69.55","TALOYOAK A","2403855","2023-02-03 18:00","2023","02","03","18:00","-36.8","","-40.5","","69","","","","16","","17","","16.1","","100.82","","","","-51","","Snow"
"-93.58","69.55","TALOYOAK A","2403855","2023-02-03 19:00","2023","02","03","19:00","-36.9","","-40.6","","69","","","","16","","16","","16.1","","100.79","","","","-50","","Snow"
"-93.58","69.55","TALOYOAK A","2403855","2023-02-03 20:00","2023","02","03","20:00","-37.1","","-40.9","","69","","","","16","","17","","24.1","","100.81","","","","-51","","Snow"
"-93.58","69.55","TALOYOAK A","2403855","2023-02-03 21:00","2023","02","03","21:00","-37.7","","-41.5","","68","","","","16","","16","","24.1","","100.81","","","","-51","","Snow"
"-93.58","69.55","TALOYOAK A","2403855","2023-02-03 22:00","2023","02","03","22:00","-37.6","","-41.5","","68","","","","17","","17","","24.1","","100.82","","","","-52","","Snow"
"-93.58","69.55","TALOYOAK A","2403855","2023-02-03 23:00","2023","02","03","23:00","-37.4","","-41.2","","69","","","","17","","17","","16.1","","100.82","","","","-51","","Snow,Ice Crystals"
"-93.58","69.55","TALOYOAK A","2403855","2023-02-04 00:00","2023","02","04","00:00","-37.2","","-41.0","","69","","","","16","","15","","16.1","","100.83","","","","-50","","Snow,Ice Crystals"
"-93.58","69.55","TALOYOAK A","2403855","2023-02-04 01:00","2023","02","04","01:00","-37.3","","-41.1","","69","","","","17","","16","","12.9","","100.86","","","","-51","","Snow,Ice Crystals"
"-93.58","69.55","TALOYOAK A","2403855","2023-02-04 02:00","2023","02","04","02:00","-37.7","","-41.6","","68","","","","17","","15","","12.9","","100.89","","","","-51","","Snow,Ice Crystals"
"-93.58","69.55","TALOYOAK A","2403855","2023-02-04 03:00","2023","02","04","03:00","-38.1","","-41.9","","68","","","","17","","14","","12.9","","100.90","","","","-51","","Snow,Ice Crystals"
"-93.58","69.55","TALOYOAK A","2403855","2023-02-04 04:00","2023","02","04","04:00","-38.4","","-42.3","","68","","","","16","","14","","12.9","","100.91","","","","-51","","Snow,Ice Crystals"
"-93.58","69.55","TALOYOAK A","2403855","2023-02-04 05:00","2023","02","04","05:00","-38.3","","-42.1","","68","","","","17","","17","","16.1","","100.90","","","","-52","","Snow,Ice Crystals"
"-93.58","69.55","TALOYOAK A","2403855","2023-02-04 06:00","2023","02","04","06:00","-38.1","","-41.9","","68","","","","17","","16","","12.9","","100.92","","","","-52","","Snow,Ice Crystals"
"-93.58","69.55","TALOYOAK A","2403855","2023-02-04 07:00","2023","02","04","07:00","-38.1","","-42.0","","68","","","","16","","17","","12.9","","100.93","","","","-52","","Snow,Ice Crystals"
"-93.58","69.55","TALOYOAK A","2403855","2023-02-04 08:00","2023","02","04","08:00","-38.5","","-42.4","","68","","","","17","","19","","12.9","","100.94","","","","-53","","Snow,Ice Crystals"
"-93.58","69.55","TALOYOAK A","2403855","2023-02-04 09:00","2023","02","04","09:00","-38.5","","-42.4","","68","","","","17","","20","","12.9","","100.96","","","","-54","","Snow,Ice Crystals"
"-93.58","69.55","TALOYOAK A","2403855","2023-02-04 10:00","2023","02","04","10:00","-38.7","","-42.6","","68","","","","17","","15","","14.5","","100.97","","","","-52","","Snow,Ice Crystals"
"-93.58","69.55","TALOYOAK A","2403855","2023-02-04 11:00","2023","02","04","11:00","-38.6","","-42.5","","68","","","","18","","16","","14.5","","100.94","","","","-52","","Snow,Ice Crystals"
"-93.58","69.55","TALOYOAK A","2403855","2023-02-04 12:00","2023","02","04","12:00","-38.6","","-42.6","","68","","","","18","","15","","17.7","","100.94","","","","-52","","Snow,Ice Crystals"
"-93.58","69.55","TALOYOAK A","2403855","2023-02-04 13:00","2023","02","04","13:00","-38.7","","-42.6","","68","","","","17","","16","","16.1","","100.90","","","","-53","","Snow,Ice Crystals"
"-93.58","69.55","TALOYOAK A","2403855","2023-02-04 14:00","2023","02","04","14:00","-38.6","","-42.5","","68","","","","17","","14","","24.1","","100.92","","","","-52","","Clear"
"-93.58","69.55","TALOYOAK A","2403855","2023-02-04 15:00","2023","02","04","15:00","-39.1","","-43.0","","67","","","","17","","11","","24.1","","100.93","","","","-51","","NA"
"-93.58","69.55","TALOYOAK A","2403855","2023-02-04 16:00","2023","02","04","16:00","-39.4","","-43.3","","67","","","","17","","12","","24.1","","100.90","","","","-52","","NA"
"-93.58","69.55","TALOYOAK A","2403855","2023-02-04 17:00","2023","02","04","17:00","-39.5","","-43.4","","67","","","","17","","13","","24.1","","100.88","","","","-52","","Mainly Clear"
"-93.58","69.55","TALOYOAK A","2403855","2023-02-04 18:00","2023","02","04","18:00","-39.8","","-43.7","","67","","","","18","","12","","24.1","","100.86","","","","-52","","Ice Crystals"
"-93.58","69.55","TALOYOAK A","2403855","2023-02-04 19:00","2023","02","04","19:00","-40.0","","-44.0","","67","","","","18","","8","","24.1","","100.83","","","","-50","","Ice Crystals"
"-93.58","69.55","TALOYOAK A","2403855","2023-02-04 20:00","2023","02","04","20:00","-40.2","","-44.2","","67","","","","18","","9","","24.1","","100.77","","","","-51","","Snow,Ice Crystals"
"-93.58","69.55","TALOYOAK A","2403855","2023-02-04 21:00","2023","02","04","21:00","-40.4","","-44.4","","67","","","","18","","11","","24.1","","100.72","","","","-52","","Ice Crystals"
"-93.58","69.55","TALOYOAK A","2403855","2023-02-04 22:00","2023","02","04","22:00","-40.2","","-44.2","","67","","","","18","","12","","24.1","","100.66","","","","-53","","Ice Crystals"
"-93.58","69.55","TALOYOAK A","2403855","2023-02-04 23:00","2023","02","04","23:00","-40.0","","-44.0","","67","","","","17","","13","","24.1","","100.61","","","","-53","","Ice Crystals"
"-93.58","69.55","TALOYOAK A","2403855","2023-02-05 00:00","2023","02","05","00:00","-40.0","","-43.9","","67","","","","17","","14","","24.1","","100.57","","","","-53","","Ice Crystals"
"-93.58","69.55","TALOYOAK A","2403855","2023-02-05 01:00","2023","02","05","01:00","-40.0","","-43.9","","67","","","","16","","15","","24.1","","100.55","","","","-54","","Ice Crystals"
"-93.58","69.55","TALOYOAK A","2403855","2023-02-05 02:00","2023","02","05","02:00","-40.4","","-44.4","","67","","","","17","","18","","19.3","","100.52","","","","-55","","Ice Crystals"
"-93.58","69.55","TALOYOAK A","2403855","2023-02-05 03:00","2023","02","05","03:00","-40.4","","-44.4","","67","","","","17","","18","","19.3","","100.48","","","","-55","","Ice Crystals"
"-93.58","69.55","TALOYOAK A","2403855","2023-02-05 04:00","2023","02","05","04:00","-40.5","","-44.5","","67","","","","16","","16","","19.3","","100.44","","","","-55","","Ice Crystals"
"-93.58","69.55","TALOYOAK A","2403855","2023-02-05 05:00","2023","02","05","05:00","-40.4","","-44.4","","67","","","","16","","20","","19.3","","100.39","","","","-56","","Ice Crystals"
"-93.58","69.55","TALOYOAK A","2403855","2023-02-05 06:00","2023","02","05","06:00","-40.9","","-45.0","","66","","","","17","","22","","16.1","","100.33","","","","-58","","Ice Crystals"
"-93.58","69.55","TALOYOAK A","2403855","2023-02-05 07:00","2023","02","05","07:00","-41.0","","-45.1","","66","","","","16","","20","","12.9","","100.24","","","","-57","","Ice Crystals"
"-93.58","69.55","TALOYOAK A","2403855","2023-02-05 08:00","2023","02","05","08:00","-40.7","","-44.8","","66","","","","17","","21","","12.9","","100.21","","","","-57","","Ice Crystals"
"-93.58","69.55","TALOYOAK A","2403855","2023-02-05 09:00","2023","02","05","09:00","-41.0","","-45.0","","66","","","","17","","19","","19.3","","100.16","","","","-57","","Ice Crystals"
"-93.58","69.55","TALOYOAK A","2403855","2023-02-05 10:00","2023","02","05","10:00","-40.2","","-44.2","","67","","","","17","","21","","3.2","","100.13","","","","-56","","Snow Grains,Ice Crystals"
"-93.58","69.55","TALOYOAK A","2403855","2023-02-05 11:00","2023","02","05","11:00","-39.5","","-43.5","","67","","","","19","","22","","24.1","","100.09","","","","-56","","Ice Crystals"
"-93.58","69.55","TALOYOAK A","2403855","2023-02-05 12:00","2023","02","05","12:00","-39.8","","-43.8","","67","","","","17","","18","","16.1","","100.04","","","","-55","","Ice Crystals"
"-93.58","69.55","TALOYOAK A","2403855","2023-02-05 13:00","2023","02","05","13:00","-38.5","","-42.5","","68","","","","20","","22","","16.1","","100.02","","","","-54","","Ice Crystals"
"-93.58","69.55","TALOYOAK A","2403855","2023-02-05 14:00","2023","02","05","14:00","-38.1","","-42.0","","68","","","","21","","25","","8.1","","99.96","","","","-55","","Snow Grains,Ice Crystals"
"-93.58","69.55","TALOYOAK A","2403855","2023-02-05 15:00","2023","02","05","15:00","-37.3","","-41.2","","68","","","","21","","28","","4.8","","99.91","","","","-55","","Snow Grains,Ice Crystals"
"-93.58","69.55","TALOYOAK A","2403855","2023-02-05 16:00","2023","02","05","16:00","-37.2","","-41.1","","68","","","","22","","22","","2.8","","99.87","","","","-53","","Ice Crystals"
"-93.58","69.55","TALOYOAK A","2403855","2023-02-05 17:00","2023","02","05","17:00","-36.4","","-40.2","","69","","","","23","","10","","3.6","","99.89","","","","-47","","Ice Crystals"
"-93.58","69.55","TALOYOAK A","2403855","2023-02-05 18:00","2023","02","05","18:00","-36.1","","-39.9","","69","","","","24","","24","","3.6","","99.80","","","","-52","","Ice Crystals"
"-93.58","69.55","TALOYOAK A","2403855","2023-02-05 19:00","2023","02","05","19:00","-35.6","","-39.4","","70","","","","25","","22","","3.6","","99.79","","","","-51","","Ice Crystals"
"-93.58","69.55","TALOYOAK A","2403855","2023-02-05 20:00","2023","02","05","20:00","-35.8","","-39.5","","69","","","","24","","16","","3.6","","99.79","","","","-49","","Ice Crystals"
"-93.58","69.55","TALOYOAK A","2403855","2023-02-05 21:00","2023","02","05","21:00","-36.1","","-39.8","","69","","","","24","","7","","4.0","","99.79","","","","-44","","Ice Crystals"
"-93.58","69.55","TALOYOAK A","2403855","2023-02-05 22:00","2023","02","05","22:00","-35.8","","-39.5","","69","","","","24","","21","","4.0","","99.78","","","","-51","","Ice Crystals"
"-93.58","69.55","TALOYOAK A","2403855","2023-02-05 23:00","2023","02","05","23:00","-36.1","","-39.9","","69","","","","23","","17","","4.0","","99.75","","","","-50","","Ice Crystals"
"-93.58","69.55","TALOYOAK A","2403855","2023-02-06 00:00","2023","02","06","00:00","-36.5","","-40.2","","69","","","","23","","12","","4.0","","99.78","","","","-48","","Ice Crystals"
"-93.58","69.55","TALOYOAK A","2403855","2023-02-06 01:00","2023","02","06","01:00","-36.2","","-39.9","","69","","","","22","","25","","4.0","","99.75","","","","-52","","Ice Crystals"
"-93.58","69.55","TALOYOAK A","2403855","2023-02-06 02:00","2023","02","06","02:00","-36.2","","-39.9","","69","","","","20","","14","","4.0","","99.81","","","","-49","","Ice Crystals"
"-93.58","69.55","TALOYOAK A","2403855","2023-02-06 03:00","2023","02","06","03:00"
"-93.58","69.55","TALOYOAK A","2403855","2023-02-06 04:00","2023","02","06","04:00"
"-93.58","69.55","TALOYOAK A","2403855","2023-02-06 05:00","2023","02","06","05:00"
"-93.58","69.55","TALOYOAK A","2403855","2023-02-06 06:00","2023","02","06","06:00"
"-93.58","69.55","TALOYOAK A","2403855","2023-02-06 07:00","2023","02","06","07:00"
"-93.58","69.55","TALOYOAK A","2403855","2023-02-06 08:00","2023","02","06","08:00","-37.5","","-41.3","","68","","","","16","","23","","6.4","","99.79","","","","-54","","Ice Crystals"
"-93.58","69.55","TALOYOAK A","2403855","2023-02-06 09:00","2023","02","06","09:00","-37.6","","-41.5","","68","","","","17","","25","","4.8","","99.83","","","","-54","","Ice Crystals,Fog"
"-93.58","69.55","TALOYOAK A","2403855","2023-02-06 10:00","2023","02","06","10:00","-37.4","","-41.2","","68","","","","17","","26","","4.8","","99.83","","","","-54","","Ice Crystals,Fog"
"-93.58","69.55","TALOYOAK A","2403855","2023-02-06 11:00","2023","02","06","11:00","-36.8","","-40.6","","69","","","","17","","22","","6.4","","99.85","","","","-52","","Snow,Fog"
"-93.58","69.55","TALOYOAK A","2403855","2023-02-06 12:00","2023","02","06","12:00","-36.1","","-39.8","","69","","","","18","","20","","8.1","","99.87","","","","-51","","Snow,Fog"
"-93.58","69.55","TALOYOAK A","2403855","2023-02-06 13:00","2023","02","06","13:00","-35.9","","-39.6","","69","","","","18","","17","","12.9","","99.85","","","","-49","","Snow Grains"
"-93.58","69.55","TALOYOAK A","2403855","2023-02-06 14:00","2023","02","06","14:00","-36.2","","-40.0","","69","","","","18","","18","","19.3","","99.89","","","","-50","","Snow Grains"
"-93.58","69.55","TALOYOAK A","2403855","2023-02-06 15:00","2023","02","06","15:00","-36.7","","-40.5","","69","","","","17","","17","","24.1","","99.94","","","","-50","","NA"
"-93.58","69.55","TALOYOAK A","2403855","2023-02-06 16:00","2023","02","06","16:00","-37.6","","-41.4","","68","","","","17","","18","","24.1","","99.95","","","","-52","","NA"
"-93.58","69.55","TALOYOAK A","2403855","2023-02-06 17:00","2023","02","06","17:00","-37.9","","-41.7","","68","","","","19","","17","","24.1","","99.97","","","","-52","","Mainly Clear"
"-93.58","69.55","TALOYOAK A","2403855","2023-02-06 18:00","2023","02","06","18:00","-38.3","","-42.1","","68","","","","18","","21","","24.1","","99.99","","","","-54","","NA"
"-93.58","69.55","TALOYOAK A","2403855","2023-02-06 19:00","2023","02","06","19:00","-38.5","","-42.4","","68","","","","18","","21","","19.3","","100.02","","","","-54","","NA"
"-93.58","69.55","TALOYOAK A","2403855","2023-02-06 20:00","2023","02","06","20:00","-38.7","","-42.6","","68","","","","19","","15","","24.1","","100.00","","","","-52","","Clear"
"-93.58","69.55","TALOYOAK A","2403855","2023-02-06 21:00","2023","02","06","21:00","-38.8","","-42.7","","68","","","","19","","17","","24.1","","99.98","","","","-53","","NA"
"-93.58","69.55","TALOYOAK A","2403855","2023-02-06 22:00","2023","02","06","22:00","-38.7","","-42.6","","68","","","","19","","19","","24.1","","100.01","","","","-54","","Ice Crystals"
"-93.58","69.55","TALOYOAK A","2403855","2023-02-06 23:00","2023","02","06","23:00","-38.5","","-42.4","","68","","","","21","","22","","24.1","","100.04","","","","-54","","Ice Crystals"
"-93.58","69.55","TALOYOAK A","2403855","2023-02-07 00:00","2023","02","07","00:00","-38.6","","-42.5","","68","","","","20","","21","","24.1","","100.05","","","","-54","","Ice Crystals"
"-93.58","69.55","TALOYOAK A","2403855","2023-02-07 01:00","2023","02","07","01:00","-38.6","","-42.5","","68","","","","21","","26","","24.1","","100.05","","","","-56","","Ice Crystals"
"-93.58","69.55","TALOYOAK A","2403855","2023-02-07 02:00","2023","02","07","02:00","-38.5","","-42.4","","68","","","","19","","17","","24.1","","100.09","","","","-53","","Ice Crystals"
"-93.58","69.55","TALOYOAK A","2403855","2023-02-07 03:00","2023","02","07","03:00","-38.1","","-42.0","","68","","","","20","","20","","24.1","","100.09","","","","-53","","Ice Crystals"
"-93.58","69.55","TALOYOAK A","2403855","2023-02-07 04:00","2023","02","07","04:00","-38.4","","-42.3","","68","","","","19","","17","","24.1","","100.12","","","","-53","","Ice Crystals"
"-93.58","69.55","TALOYOAK A","2403855","2023-02-07 05:00","2023","02","07","05:00","-37.8","","-41.7","","68","","","","19","","19","","24.1","","100.14","","","","-53","","Ice Crystals"
"-93.58","69.55","TALOYOAK A","2403855","2023-02-07 06:00","2023","02","07","06:00","-37.8","","-41.6","","68","","","","19","","14","","24.1","","100.15","","","","-51","","Ice Crystals"
"-93.58","69.55","TALOYOAK A","2403855","2023-02-07 07:00","2023","02","07","07:00"
"-93.58","69.55","TALOYOAK A","2403855","2023-02-07 08:00","2023","02","07","08:00","-38.8","","-42.7","","68","","","","18","","14","","24.1","","100.21","","","","-52","","Ice Crystals"
"-93.58","69.55","TALOYOAK A","2403855","2023-02-07 09:00","2023","02","07","09:00","-39.1","","-43.1","","67","","","","16","","15","","24.1","","100.25","","","","-53","","Ice Crystals"
"-93.58","69.55","TALOYOAK A","2403855","2023-02-07 10:00","2023","02","07","10:00","-39.0","","-42.9","","67","","","","16","","16","","24.1","","100.26","","","","-53","","Ice Crystals"
"-93.58","69.55","TALOYOAK A","2403855","2023-02-07 11:00","2023","02","07","11:00","-38.5","","-42.4","","68","","","","17","","15","","24.1","","100.29","","","","-52","","Ice Crystals"
"-93.58","69.55","TALOYOAK A","2403855","2023-02-07 12:00","2023","02","07","12:00","-38.4","","-42.3","","68","","","","15","","13","","24.1","","100.30","","","","-51","","Ice Crystals"
"-93.58","69.55","TALOYOAK A","2403855","2023-02-07 13:00","2023","02","07","13:00","-38.3","","-42.2","","68","","","","14","","11","","24.1","","100.37","","","","-50","","Ice Crystals"
"-93.58","69.55","TALOYOAK A","2403855","2023-02-07 14:00","2023","02","07","14:00","-38.5","","-42.4","","68","","","","15","","9","","24.1","","100.40","","","","-49","","Ice Crystals"
"-93.58","69.55","TALOYOAK A","2403855","2023-02-07 15:00","2023","02","07","15:00","-38.2","","-42.1","","68","","","","15","","7","","24.1","","100.44","","","","-47","","Ice Crystals"
"-93.58","69.55","TALOYOAK A","2403855","2023-02-07 16:00","2023","02","07","16:00","-38.3","","-42.2","","68","","","","13","","5","","24.1","","100.47","","","","-45","","Ice Crystals"
"-93.58","69.55","TALOYOAK A","2403855","2023-02-07 17:00","2023","02","07","17:00","-38.2","","-42.1","","68","","","","17","","4","","16.1","","100.48","","","","-44","","Ice Crystals"
"-93.58","69.55","TALOYOAK A","2403855","2023-02-07 18:00","2023","02","07","18:00","-37.3","","-41.2","","68","","","","13","","4","","24.1","","100.50","","","","-43","","Ice Crystals"
"-93.58","69.55","TALOYOAK A","2403855","2023-02-07 19:00","2023","02","07","19:00","-37.2","","-41.0","","69","","","","13","","4","","24.1","","100.52","","","","-42","","Ice Crystals"
"-93.58","69.55","TALOYOAK A","2403855","2023-02-07 20:00","2023","02","07","20:00","-38.4","","-42.4","","68","","","","9","","3","","24.1","","100.58","","","","-42","","Ice Crystals"
"-93.58","69.55","TALOYOAK A","2403855","2023-02-07 21:00","2023","02","07","21:00","-37.7","","-41.5","","68","","","","10","","4","","24.1","","100.60","","","","-43","","Ice Crystals"
"-93.58","69.55","TALOYOAK A","2403855","2023-02-07 22:00","2023","02","07","22:00","-37.2","","-41.1","","68","","","","8","","7","","24.1","","100.64","","","","-46","","Ice Crystals"
"-93.58","69.55","TALOYOAK A","2403855","2023-02-07 23:00","2023","02","07","23:00","-37.4","","-41.3","","68","","","","5","","6","","24.1","","100.71","","","","-45","","Ice Crystals"
"-93.58","69.55","TALOYOAK A","2403855","2023-02-08 00:00","2023","02","08","00:00","-37.4","","-41.3","","68","","","","3","","6","","19.3","","100.73","","","","-45","","Ice Crystals"
"-93.58","69.55","TALOYOAK A","2403855","2023-02-08 01:00","2023","02","08","01:00","-38.0","","-41.8","","68","","","","36","","3","","19.3","","100.76","","","","-42","","Ice Crystals"
"-93.58","69.55","TALOYOAK A","2403855","2023-02-08 02:00","2023","02","08","02:00","-37.1","","-41.0","","68","","","","9","","5","","24.1","","100.79","","","","-44","","Ice Crystals"
"-93.58","69.55","TALOYOAK A","2403855","2023-02-08 03:00","2023","02","08","03:00","-36.5","","-40.3","","69","","","","9","","5","","24.1","","100.85","","","","-43","","Ice Crystals"
"-93.58","69.55","TALOYOAK A","2403855","2023-02-08 04:00","2023","02","08","04:00","-36.2","","-39.9","","69","","","","8","","5","","24.1","","100.90","","","","-43","","Ice Crystals"
"-93.58","69.55","TALOYOAK A","2403855","2023-02-08 05:00","2023","02","08","05:00","-35.8","","-39.5","","69","","","","9","","3","","19.3","","100.94","","","","-40","","Snow"
"-93.58","69.55","TALOYOAK A","2403855","2023-02-08 06:00","2023","02","08","06:00","-35.2","","-38.9","","70","","","","7","","5","","16.1","","101.01","","","","-42","","Snow"
"-93.58","69.55","TALOYOAK A","2403855","2023-02-08 07:00","2023","02","08","07:00","-35.2","","-39.0","","70","","","","11","","4","","12.9","","101.06","","","","-40","","Snow"
"-93.58","69.55","TALOYOAK A","2403855","2023-02-08 08:00","2023","02","08","08:00","-35.1","","-38.9","","70","","","","11","","4","","8.1","","101.10","","","","-40","","Snow"
"-93.58","69.55","TALOYOAK A","2403855","2023-02-08 09:00","2023","02","08","09:00","-35.2","","-39.0","","70","","","","13","","4","","19.3","","101.13","","","","-40","","NA"
"-93.58","69.55","TALOYOAK A","2403855","2023-02-08 10:00","2023","02","08","10:00","-35.5","","-39.3","","69","","","","12","","4","","19.3","","101.18","","","","-41","","NA"
"-93.58","69.55","TALOYOAK A","2403855","2023-02-08 11:00","2023","02","08","11:00","-35.9","","-39.7","","69","","","","15","","4","","24.1","","101.22","","","","-41","","Mostly Cloudy"
"-93.58","69.55","TALOYOAK A","2403855","2023-02-08 12:00","2023","02","08","12:00","-35.7","","-39.5","","69","","","","12","","4","","24.1","","101.27","","","","-41","","NA"
"-93.58","69.55","TALOYOAK A","2403855","2023-02-08 13:00","2023","02","08","13:00","-36.4","","-40.2","","69","","","","16","","7","","24.1","","101.31","","","","-45","","NA"
"-93.58","69.55","TALOYOAK A","2403855","2023-02-08 14:00","2023","02","08","14:00","-36.6","","-40.4","","69","","","","17","","9","","24.1","","101.37","","","","-46","","Mostly Cloudy"
"-93.58","69.55","TALOYOAK A","2403855","2023-02-08 15:00","2023","02","08","15:00","-36.2","","-40.0","","69","","","","16","","9","","24.1","","101.38","","","","-46","","NA"
"-93.58","69.55","TALOYOAK A","2403855","2023-02-08 16:00","2023","02","08","16:00","-35.5","","-39.2","","70","","","","17","","6","","19.3","","101.43","","","","-43","","NA"
"-93.58","69.55","TALOYOAK A","2403855","2023-02-08 17:00","2023","02","08","17:00","-36.0","","-39.8","","69","","","","8","","5","","24.1","","101.50","","","","-42","","Ice Crystals"
"-93.58","69.55","TALOYOAK A","2403855","2023-02-08 18:00","2023","02","08","18:00","-35.5","","-39.2","","70","","","","10","","3","","24.1","","101.52","","","","-39","","Ice Crystals"
"-93.58","69.55","TALOYOAK A","2403855","2023-02-08 19:00","2023","02","08","19:00","-35.7","","-39.4","","69","","","","6","","4","","24.1","","101.52","","","","-41","","Ice Crystals"
"-93.58","69.55","TALOYOAK A","2403855","2023-02-08 20:00","2023","02","08","20:00","-35.2","","-38.9","","70","","","","4","","7","","3.2","","101.52","","","","-43","","Snow,Fog"
"-93.58","69.55","TALOYOAK A","2403855","2023-02-08 21:00","2023","02","08","21:00","-34.9","","-38.5","","70","","","","2","","5","","4.8","","101.52","","","","-41","","Fog"
"-93.58","69.55","TALOYOAK A","2403855","2023-02-08 22:00","2023","02","08","22:00","-33.9","","-37.4","","71","","","","10","","7","","2.4","","101.54","","","","-42","","Fog"
"-93.58","69.55","TALOYOAK A","2403855","2023-02-08 23:00","2023","02","08","23:00","-33.0","","-36.5","","72","","","","17","","5","","3.2","","101.55","","","","-39","","Fog"
"-93.58","69.55","TALOYOAK A","2403855","2023-02-09 00:00","2023","02","09","00:00","-33.2","","-36.7","","72","","","","18","","3","","6.4","","101.58","","","","-37","","Snow"
"-93.58","69.55","TALOYOAK A","2403855","2023-02-09 01:00","2023","02","09","01:00","-33.4","","-36.9","","71","","","","19","","10","","4.8","","101.59","","","","-43","","Snow"
"-93.58","69.55","TALOYOAK A","2403855","2023-02-09 02:00","2023","02","09","02:00","-32.6","","-36.1","","72","","","","18","","14","","4.8","","101.62","","","","-44","","Snow"
"-93.58","69.55","TALOYOAK A","2403855","2023-02-09 03:00","2023","02","09","03:00","-32.2","","-35.7","","72","","","","19","","16","","9.7","","101.62","","","","-45","","Snow"
"-93.58","69.55","TALOYOAK A","2403855","2023-02-09 04:00","2023","02","09","04:00","-32.2","","-35.7","","72","","","","20","","16","","6.4","","101.61","","","","-45","","Snow"
"-93.58","69.55","TALOYOAK A","2403855","2023-02-09 05:00","2023","02","09","05:00","-32.0","","-35.5","","72","","","","19","","16","","8.1","","101.60","","","","-44","","Snow"
"-93.58","69.55","TALOYOAK A","2403855","2023-02-09 06:00","2023","02","09","06:00","-31.9","","-35.4","","72","","","","19","","14","","4.8","","101.59","","","","-43","","Snow"
"-93.58","69.55","TALOYOAK A","2403855","2023-02-09 07:00","2023","02","09","07:00","-31.9","","-35.3","","72","","","","19","","12","","9.7","","101.57","","","","-42","","Snow"
"-93.58","69.55","TALOYOAK A","2403855","2023-02-09 08:00","2023","02","09","08:00","-32.0","","-35.5","","72","","","","20","","14","","8.1","","101.55","","","","-43","","Snow"
"-93.58","69.55","TALOYOAK A","2403855","2023-02-09 09:00","2023","02","09","09:00","-32.2","","-35.7","","72","","","","19","","13","","9.7","","101.54","","","","-43","","Snow"
"-93.58","69.55","TALOYOAK A","2403855","2023-02-09 10:00","2023","02","09","10:00","-32.1","","-35.6","","72","","","","19","","14","","11.3","","101.52","","","","-44","","Snow"
"-93.58","69.55","TALOYOAK A","2403855","2023-02-09 11:00","2023","02","09","11:00","-31.9","","-35.4","","72","","","","19","","13","","14.5","","101.49","","","","-43","","Snow"
"-93.58","69.55","TALOYOAK A","2403855","2023-02-09 12:00","2023","02","09","12:00","-31.8","","-35.3","","72","","","","19","","11","","14.5","","101.47","","","","-42","","Snow"
"-93.58","69.55","TALOYOAK A","2403855","2023-02-09 13:00","2023","02","09","13:00","-31.7","","-35.2","","72","","","","19","","13","","14.5","","101.48","","","","-43","","Snow"
"-93.58","69.55","TALOYOAK A","2403855","2023-02-09 14:00","2023","02","09","14:00","-32.1","","-35.6","","72","","","","16","","11","","12.9","","101.48","","","","-42","","Snow"
"-93.58","69.55","TALOYOAK A","2403855","2023-02-09 15:00","2023","02","09","15:00","-32.0","","-35.4","","72","","","","21","","11","","12.9","","101.47","","","","-42","","Snow"
"-93.58","69.55","TALOYOAK A","2403855","2023-02-09 16:00","2023","02","09","16:00","-32.6","","-36.1","","72","","","","19","","11","","12.9","","101.47","","","","-43","","Snow"
"-93.58","69.55","TALOYOAK A","2403855","2023-02-09 17:00","2023","02","09","17:00","-32.9","","-36.4","","72","","","","19","","12","","12.9","","101.43","","","","-44","","Snow"
"-93.58","69.55","TALOYOAK A","2403855","2023-02-09 18:00","2023","02","09","18:00","-33.1","","-36.6","","71","","","","19","","10","","12.9","","101.38","","","","-43","","Snow"
"-93.58","69.55","TALOYOAK A","2403855","2023-02-09 19:00","2023","02","09","19:00","-33.2","","-36.7","","71","","","","19","","11","","12.9","","101.35","","","","-44","","Snow"
"-93.58","69.55","TALOYOAK A","2403855","2023-02-09 20:00","2023","02","09","20:00","-33.5","","-37.1","","71","","","","19","","8","","12.9","","101.32","","","","-42","","Snow"
"-93.58","69.55","TALOYOAK A","2403855","2023-02-09 21:00","2023","02","09","21:00","-33.4","","-36.9","","71","","","","18","","8","","9.7","","101.30","","","","-42","","Snow"
"-93.58","69.55","TALOYOAK A","2403855","2023-02-09 22:00","2023","02","09","22:00","-33.2","","-36.7","","71","","","","19","","8","","9.7","","101.24","","","","-42","","Snow"
"-93.58","69.55","TALOYOAK A","2403855","2023-02-09 23:00","2023","02","09","23:00","-33.3","","-36.8","","71","","","","19","","9","","8.1","","101.26","","","","-43","","Snow"
"-93.58","69.55","TALOYOAK A","2403855","2023-02-10 00:00","2023","02","10","00:00","-33.8","","-37.4","","71","","","","19","","9","","16.1","","101.22","","","","-43","","Snow"
"-93.58","69.55","TALOYOAK A","2403855","2023-02-10 01:00","2023","02","10","01:00","-34.0","","-37.6","","71","","","","18","","11","","16.1","","101.22","","","","-44","","Snow"
"-93.58","69.55","TALOYOAK A","2403855","2023-02-10 02:00","2023","02","10","02:00","-33.8","","-37.4","","71","","","","16","","4","","19.3","","101.19","","","","-39","","Snow"
"-93.58","69.55","TALOYOAK A","2403855","2023-02-10 03:00","2023","02","10","03:00","-34.7","","-38.3","","70","","","","32","","8","","24.1","","101.16","","","","-43","","Snow"
"-93.58","69.55","TALOYOAK A","2403855","2023-02-10 04:00","2023","02","10","04:00","-35.7","","-39.4","","70","","","","34","","7","","24.1","","101.15","","","","-44","","NA"
"-93.58","69.55","TALOYOAK A","2403855","2023-02-10 05:00","2023","02","10","05:00","-35.4","","-39.1","","70","","","","32","","3","","24.1","","101.12","","","","-39","","Mainly Clear"
"-93.58","69.55","TALOYOAK A","2403855","2023-02-10 06:00","2023","02","10","06:00","-35.3","","-38.9","","70","","","","36","","3","","24.1","","101.10","","","","-39","","NA"
"-93.58","69.55","TALOYOAK A","2403855","2023-02-10 07:00","2023","02","10","07:00","-36.0","","-39.6","","70","","","","30","","5","","24.1","","101.09","","","","-42","","NA"
"-93.58","69.55","TALOYOAK A","2403855","2023-02-10 08:00","2023","02","10","08:00","-36.7","","-40.4","","69","","","","36","","2","","24.1","","101.09","","","","-39","","Clear"
"-93.58","69.55","TALOYOAK A","2403855","2023-02-10 09:00","2023","02","10","09:00","-37.2","","-41.0","","69","","","","11","","5","","24.1","","101.07","","","","-44","","Ice Crystals"
"-93.58","69.55","TALOYOAK A","2403855","2023-02-10 10:00","2023","02","10","10:00","-37.7","","-41.5","","68","","","","10","","3","","24.1","","101.07","","","","-42","","Ice Crystals"
"-93.58","69.55","TALOYOAK A","2403855","2023-02-10 11:00","2023","02","10","11:00","-37.7","","-41.6","","68","","","","16","","5","","24.1","","101.07","","","","-44","","Ice Crystals"
"-93.58","69.55","TALOYOAK A","2403855","2023-02-10 12:00","2023","02","10","12:00","-37.9","","-41.8","","68","","","","13","","10","","24.1","","101.06","","","","-49","","Ice Crystals"
"-93.58","69.55","TALOYOAK A","2403855","2023-02-10 13:00","2023","02","10","13:00","-37.9","","-41.8","","68","","","","14","","8","","24.1","","101.07","","","","-47","","Ice Crystals"
"-93.58","69.55","TALOYOAK A","2403855","2023-02-10 14:00","2023","02","10","14:00","-38.4","","-42.3","","68","","","","14","","9","","24.1","","101.08","","","","-49","","Ice Crystals"
"-93.58","69.55","TALOYOAK A","2403855","2023-02-10 15:00","2023","02","10","15:00","-39.1","","-43.0","","67","","","","18","","10","","24.1","","101.09","","","","-50","","Ice Crystals"
"-93.58","69.55","TALOYOAK A","2403855","2023-02-10 16:00","2023","02","10","16:00","-38.9","","-42.7","","68","","","","17","","9","","24.1","","101.10","","","","-49","","Ice Crystals"
"-93.58","69.55","TALOYOAK A","2403855","2023-02-10 17:00","2023","02","10","17:00","-39.3","","-43.2","","67","","","","18","","10","","24.1","","101.09","","","","-50","","Ice Crystals"
"-93.58","69.55","TALOYOAK A","2403855","2023-02-10 18:00","2023","02","10","18:00","-39.0","","-42.9","","68","","","","19","","9","","24.1","","101.09","","","","-49","","Ice Crystals"
"-93.58","69.55","TALOYOAK A","2403855","2023-02-10 19:00","2023","02","10","19:00","-39.6","","-43.5","","67","","","","17","","11","","24.1","","101.06","","","","-51","","Ice Crystals"
"-93.58","69.55","TALOYOAK A","2403855","2023-02-10 20:00","2023","02","10","20:00","-39.3","","-43.2","","67","","","","20","","9","","24.1","","101.03","","","","-50","","Ice Crystals"
"-93.58","69.55","TALOYOAK A","2403855","2023-02-10 21:00","2023","02","10","21:00"
"-93.58","69.55","TALOYOAK A","2403855","2023-02-10 22:00","2023","02","10","22:00"
"-93.58","69.55","TALOYOAK A","2403855","2023-02-10 23:00","2023","02","10","23:00"
"-93.58","69.55","TALOYOAK A","2403855","2023-02-11 00:00","2023","02","11","00:00"
"-93.58","69.55","TALOYOAK A","2403855","2023-02-11 01:00","2023","02","11","01:00"
"-93.58","69.55","TALOYOAK A","2403855","2023-02-11 02:00","2023","02","11","02:00"
"-93.58","69.55","TALOYOAK A","2403855","2023-02-11 03:00","2023","02","11","03:00"
"-93.58","69.55","TALOYOAK A","2403855","2023-02-11 04:00","2023","02","11","04:00"
"-93.58","69.55","TALOYOAK A","2403855","2023-02-11 05:00","2023","02","11","05:00"
"-93.58","69.55","TALOYOAK A","2403855","2023-02-11 06:00","2023","02","11","06:00"
"-93.58","69.55","TALOYOAK A","2403855","2023-02-11 07:00","2023","02","11","07:00"
"-93.58","69.55","TALOYOAK A","2403855","2023-02-11 08:00","2023","02","11","08:00"
"-93.58","69.55","TALOYOAK A","2403855","2023-02-11 09:00","2023","02","11","09:00","-34.7","","-38.4","","70","","","","31","","23","","19.3","","100.56","","","","-50","","Ice Crystals,Blowing Snow"
"-93.58","69.55","TALOYOAK A","2403855","2023-02-11 10:00","2023","02","11","10:00","-34.0","","-37.6","","71","","","","29","","30","","12.9","","100.50","","","","-51","","Ice Crystals,Blowing Snow"
"-93.58","69.55","TALOYOAK A","2403855","2023-02-11 11:00","2023","02","11","11:00","-33.0","","-36.5","","71","","","","31","","24","","8.1","","100.50","","","","-48","","Ice Crystals,Blowing Snow"
"-93.58","69.55","TALOYOAK A","2403855","2023-02-11 12:00","2023","02","11","12:00","-32.2","","-35.7","","72","","","","30","","36","","6.4","","100.44","","","","-50","","Ice Crystals,Blowing Snow"
"-93.58","69.55","TALOYOAK A","2403855","2023-02-11 13:00","2023","02","11","13:00","-32.3","","-35.8","","72","","","","30","","31","","4.8","","100.46","","","","-49","","Ice Crystals,Blowing Snow"
"-93.58","69.55","TALOYOAK A","2403855","2023-02-11 14:00","2023","02","11","14:00","-32.8","","-36.3","","71","","","","31","","16","","11.3","","100.51","","","","-45","","Ice Crystals"
"-93.58","69.55","TALOYOAK A","2403855","2023-02-11 15:00","2023","02","11","15:00","-33.0","","-36.6","","71","","","","27","","10","","9.7","","100.52","","","","-43","","Ice Crystals"
"-93.58","69.55","TALOYOAK A","2403855","2023-02-11 16:00","2023","02","11","16:00","-32.8","","-36.4","","71","","","","27","","8","","4.0","","100.53","","","","-41","","Ice Crystals,Fog"
"-93.58","69.55","TALOYOAK A","2403855","2023-02-11 17:00","2023","02","11","17:00","-32.8","","-36.2","","72","","","","24","","3","","3.2","","100.49","","","","-36","","Snow,Fog"
"-93.58","69.55","TALOYOAK A","2403855","2023-02-11 18:00","2023","02","11","18:00","-32.9","","-36.4","","71","","","","30","","15","","4.8","","100.47","","","","-45","","Snow,Fog"
"-93.58","69.55","TALOYOAK A","2403855","2023-02-11 19:00","2023","02","11","19:00","-33.7","","-37.3","","71","","","","20","","8","","3.2","","100.42","","","","-42","","Snow,Fog"
"-93.58","69.55","TALOYOAK A","2403855","2023-02-11 20:00","2023","02","11","20:00","-34.5","","-38.1","","71","","","","21","","11","","3.2","","100.42","","","","-45","","Snow,Fog"
"-93.58","69.55","TALOYOAK A","2403855","2023-02-11 21:00","2023","02","11","21:00","-34.5","","-38.0","","71","","","","23","","8","","4.8","","100.39","","","","-43","","Fog"
"-93.58","69.55","TALOYOAK A","2403855","2023-02-11 22:00","2023","02","11","22:00","-35.5","","-39.2","","70","","","","23","","18","","4.8","","100.34","","","","-49","","Fog"
"-93.58","69.55","TALOYOAK A","2403855","2023-02-11 23:00","2023","02","11","23:00","-35.8","","-39.5","","70","","","","21","","21","","4.8","","100.34","","","","-51","","Fog"
"-93.58","69.55","TALOYOAK A","2403855","2023-02-12 00:00","2023","02","12","00:00","-35.5","","-39.1","","70","","","","18","","10","","4.8","","100.33","","","","-46","","Fog"
"-93.58","69.55","TALOYOAK A","2403855","2023-02-12 01:00","2023","02","12","01:00","-35.5","","-39.2","","70","","","","15","","14","","1.2","","100.34","","","","-48","","Fog"
"-93.58","69.55","TALOYOAK A","2403855","2023-02-12 02:00","2023","02","12","02:00","-36.2","","-39.9","","69","","","","16","","16","","1.2","","100.34","","","","-49","","Fog"
"-93.58","69.55","TALOYOAK A","2403855","2023-02-12 03:00","2023","02","12","03:00","-36.7","","-40.5","","69","","","","16","","12","","1.2","","100.33","","","","-48","","Fog"
"-93.58","69.55","TALOYOAK A","2403855","2023-02-12 04:00","2023","02","12","04:00","-37.4","","-41.2","","69","","","","15","","14","","1.2","","100.34","","","","-50","","Fog"
"-93.58","69.55","TALOYOAK A","2403855","2023-02-12 05:00","2023","02","12","05:00","-37.9","","-41.7","","68","","","","17","","18","","1.0","","100.32","","","","-52","","Fog"
"-93.58","69.55","TALOYOAK A","2403855","2023-02-12 06:00","2023","02","12","06:00","-38.5","","-42.4","","68","","","","17","","18","","1.2","","100.31","","","","-53","","Fog"
"-93.58","69.55","TALOYOAK A","2403855","2023-02-12 07:00","2023","02","12","07:00"
"-93.58","69.55","TALOYOAK A","2403855","2023-02-12 08:00","2023","02","12","08:00","-39.0","","-42.9","","68","","","","17","","18","","1.6","","100.27","","","","-54","","Fog"
"-93.58","69.55","TALOYOAK A","2403855","2023-02-12 09:00","2023","02","12","09:00","-38.9","","-42.8","","68","","","","17","","16","","24.1","","100.26","","","","-53","","NA"
"-93.58","69.55","TALOYOAK A","2403855","2023-02-12 10:00","2023","02","12","10:00","-38.7","","-42.6","","68","","","","17","","17","","24.1","","100.26","","","","-53","","Ice Crystals"
"-93.58","69.55","TALOYOAK A","2403855","2023-02-12 11:00","2023","02","12","11:00","-38.3","","-42.2","","68","","","","18","","21","","19.3","","100.24","","","","-54","","Ice Crystals"
"-93.58","69.55","TALOYOAK A","2403855","2023-02-12 12:00","2023","02","12","12:00","-38.1","","-42.0","","68","","","","18","","19","","19.3","","100.22","","","","-53","","Ice Crystals"
"-93.58","69.55","TALOYOAK A","2403855","2023-02-12 13:00","2023","02","12","13:00","-38.0","","-41.9","","68","","","","17","","16","","24.1","","100.19","","","","-52","","Ice Crystals"
"-93.58","69.55","TALOYOAK A","2403855","2023-02-12 14:00","2023","02","12","14:00","-38.4","","-42.3","","68","","","","17","","16","","24.1","","100.18","","","","-52","","Ice Crystals"
"-93.58","69.55","TALOYOAK A","2403855","2023-02-12 15:00","2023","02","12","15:00","-38.6","","-42.5","","68","","","","17","","13","","24.1","","100.20","","","","-51","","Ice Crystals"
"-93.58","69.55","TALOYOAK A","2403855","2023-02-12 16:00","2023","02","12","16:00","-38.5","","-42.4","","68","","","","17","","14","","24.1","","100.17","","","","-51","","Ice Crystals"
"-93.58","69.55","TALOYOAK A","2403855","2023-02-12 17:00","2023","02","12","17:00","-39.1","","-43.0","","68","","","","18","","10","","16.1","","100.15","","","","-50","","Ice Crystals"
"-93.58","69.55","TALOYOAK A","2403855","2023-02-12 18:00","2023","02","12","18:00","-39.1","","-43.0","","67","","","","20","","13","","16.1","","100.14","","","","-52","","Ice Crystals"
"-93.58","69.55","TALOYOAK A","2403855","2023-02-12 19:00","2023","02","12","19:00","-38.7","","-42.6","","68","","","","17","","11","","16.1","","100.13","","","","-50","","Ice Crystals"
"-93.58","69.55","TALOYOAK A","2403855","2023-02-12 20:00","2023","02","12","20:00","-38.8","","-42.7","","68","","","","19","","12","","16.1","","100.12","","","","-51","","Ice Crystals"
"-93.58","69.55","TALOYOAK A","2403855","2023-02-12 21:00","2023","02","12","21:00","-38.9","","-42.8","","68","","","","18","","5","","16.1","","100.09","","","","-46","","Snow,Ice Crystals"
"-93.58","69.55","TALOYOAK A","2403855","2023-02-12 22:00","2023","02","12","22:00","-38.8","","-42.7","","68","","","","36","","3","","16.1","","100.06","","","","-43","","Snow,Ice Crystals"
"-93.58","69.55","TALOYOAK A","2403855","2023-02-12 23:00","2023","02","12","23:00","-40.3","","-44.2","","67","","","","1","","8","","16.1","","100.07","","","","-50","","Snow,Ice Crystals"
"-93.58","69.55","TALOYOAK A","2403855","2023-02-13 00:00","2023","02","13","00:00","-40.5","","-44.4","","67","","","","22","","4","","16.1","","100.08","","","","-46","","Snow,Ice Crystals"
"-93.58","69.55","TALOYOAK A","2403855","2023-02-13 01:00","2023","02","13","01:00","-40.7","","-44.7","","67","","","","1","","7","","19.3","","100.07","","","","-50","","Snow,Ice Crystals"
"-93.58","69.55","TALOYOAK A","2403855","2023-02-13 02:00","2023","02","13","02:00","-40.1","","-44.1","","67","","","","4","","4","","19.3","","100.06","","","","-46","","Snow,Ice Crystals"
"-93.58","69.55","TALOYOAK A","2403855","2023-02-13 03:00","2023","02","13","03:00","-40.9","","-44.9","","66","","","","2","","9","","19.3","","100.10","","","","-52","","Snow,Ice Crystals"
"-93.58","69.55","TALOYOAK A","2403855","2023-02-13 04:00","2023","02","13","04:00","-40.6","","-44.6","","67","","","","3","","6","","19.3","","100.08","","","","-49","","Snow,Ice Crystals"
"-93.58","69.55","TALOYOAK A","2403855","2023-02-13 05:00","2023","02","13","05:00","-40.5","","-44.5","","67","","","","2","","12","","19.3","","100.09","","","","-53","","Snow,Ice Crystals"
"-93.58","69.55","TALOYOAK A","2403855","2023-02-13 06:00","2023","02","13","06:00","-41.2","","-45.3","","66","","","","1","","10","","19.3","","100.09","","","","-53","","Snow,Ice Crystals"
"-93.58","69.55","TALOYOAK A","2403855","2023-02-13 07:00","2023","02","13","07:00","-41.2","","-45.2","","66","","","","3","","15","","19.3","","100.10","","","","-55","","Snow,Ice Crystals"
"-93.58","69.55","TALOYOAK A","2403855","2023-02-13 08:00","2023","02","13","08:00","-41.1","","-45.2","","66","","","","2","","13","","16.1","","100.11","","","","-54","","Snow"
"-93.58","69.55","TALOYOAK A","2403855","2023-02-13 09:00","2023","02","13","09:00","-41.3","","-45.4","","66","","","","1","","13","","19.3","","100.11","","","","-54","","Ice Crystals"
"-93.58","69.55","TALOYOAK A","2403855","2023-02-13 10:00","2023","02","13","10:00","-40.2","","-44.2","","66","","","","2","","21","","24.1","","100.12","","","","-56","","Ice Crystals,Blowing Snow"
"-93.58","69.55","TALOYOAK A","2403855","2023-02-13 11:00","2023","02","13","11:00","-40.2","","-44.2","","66","","","","2","","14","","24.1","","100.14","","","","-54","","Ice Crystals,Blowing Snow"
"-93.58","69.55","TALOYOAK A","2403855","2023-02-13 12:00","2023","02","13","12:00","-39.5","","-43.5","","67","","","","2","","15","","19.3","","100.14","","","","-53","","Ice Crystals,Blowing Snow"
"-93.58","69.55","TALOYOAK A","2403855","2023-02-13 13:00","2023","02","13","13:00","-39.7","","-43.7","","67","","","","1","","14","","16.1","","100.17","","","","-53","","Ice Crystals,Blowing Snow"
"-93.58","69.55","TALOYOAK A","2403855","2023-02-13 14:00","2023","02","13","14:00","-39.1","","-43.1","","67","","","","1","","12","","16.1","","100.21","","","","-51","","Ice Crystals"
"-93.58","69.55","TALOYOAK A","2403855","2023-02-13 15:00","2023","02","13","15:00","-40.1","","-44.1","","67","","","","1","","20","","16.1","","100.24","","","","-56","","Ice Crystals"
"-93.58","69.55","TALOYOAK A","2403855","2023-02-13 16:00","2023","02","13","16:00","-40.0","","-44.0","","67","","","","2","","16","","24.1","","100.26","","","","-54","","Ice Crystals"
"-93.58","69.55","TALOYOAK A","2403855","2023-02-13 17:00","2023","02","13","17:00","-39.7","","-43.7","","67","","","","2","","15","","16.1","","100.27","","","","-53","","Ice Crystals"
"-93.58","69.55","TALOYOAK A","2403855","2023-02-13 18:00","2023","02","13","18:00","-40.4","","-44.4","","67","","","","1","","21","","16.1","","100.26","","","","-57","","Ice Crystals"
"-93.58","69.55","TALOYOAK A","2403855","2023-02-13 19:00","2023","02","13","19:00","-40.5","","-44.5","","66","","","","2","","17","","16.1","","100.30","","","","-55","","Ice Crystals"
"-93.58","69.55","TALOYOAK A","2403855","2023-02-13 20:00","2023","02","13","20:00","-41.0","","-45.1","","66","","","","2","","16","","16.1","","100.34","","","","-55","","Ice Crystals"
"-93.58","69.55","TALOYOAK A","2403855","2023-02-13 21:00","2023","02","13","21:00"
"-93.58","69.55","TALOYOAK A","2403855","2023-02-13 22:00","2023","02","13","22:00"
"-93.58","69.55","TALOYOAK A","2403855","2023-02-13 23:00","2023","02","13","23:00"
"-93.58","69.55","TALOYOAK A","2403855","2023-02-14 00:00","2023","02","14","00:00","-40.2","","-44.2","","67","","","","4","","16","","19.3","","100.39","","","","-54","","Ice Crystals"
"-93.58","69.55","TALOYOAK A","2403855","2023-02-14 01:00","2023","02","14","01:00","-39.7","","-43.6","","67","","","","2","","13","","19.3","","100.43","","","","-52","","Ice Crystals"
"-93.58","69.55","TALOYOAK A","2403855","2023-02-14 02:00","2023","02","14","02:00","-40.6","","-44.6","","66","","","","1","","13","","24.1","","100.45","","","","-54","","Ice Crystals"
"-93.58","69.55","TALOYOAK A","2403855","2023-02-14 03:00","2023","02","14","03:00","-39.9","","-43.9","","67","","","","1","","10","","19.3","","100.45","","","","-51","","Ice Crystals"
"-93.58","69.55","TALOYOAK A","2403855","2023-02-14 04:00","2023","02","14","04:00","-40.1","","-44.1","","67","","","","2","","11","","19.3","","100.48","","","","-52","","Ice Crystals"
"-93.58","69.55","TALOYOAK A","2403855","2023-02-14 05:00","2023","02","14","05:00","-40.0","","-44.0","","67","","","","4","","5","","24.1","","100.51","","","","-47","","Ice Crystals"
"-93.58","69.55","TALOYOAK A","2403855","2023-02-14 06:00","2023","02","14","06:00"
"-93.58","69.55","TALOYOAK A","2403855","2023-02-14 07:00","2023","02","14","07:00","-40.0","","-44.0","","67","","","","11","","4","","3.2","","100.53","","","","-46","","Ice Crystals,Fog"
"-93.58","69.55","TALOYOAK A","2403855","2023-02-14 08:00","2023","02","14","08:00","-40.2","","-44.2","","67","","","","15","","5","","3.2","","100.53","","","","-47","","Ice Crystals,Fog"
"-93.58","69.55","TALOYOAK A","2403855","2023-02-14 09:00","2023","02","14","09:00","-39.7","","-43.7","","67","","","","14","","5","","3.2","","100.54","","","","-47","","Fog"
"-93.58","69.55","TALOYOAK A","2403855","2023-02-14 10:00","2023","02","14","10:00","-39.1","","-43.1","","67","","","","16","","9","","24.1","","100.53","","","","-49","","Ice Crystals"
"-93.58","69.55","TALOYOAK A","2403855","2023-02-14 11:00","2023","02","14","11:00","-37.7","","-41.7","","68","","","","17","","12","","24.1","","100.53","","","","-49","","Ice Crystals"
"-93.58","69.55","TALOYOAK A","2403855","2023-02-14 12:00","2023","02","14","12:00","-37.7","","-41.6","","68","","","","15","","11","","24.1","","100.51","","","","-49","","Ice Crystals"
"-93.58","69.55","TALOYOAK A","2403855","2023-02-14 13:00","2023","02","14","13:00","-37.7","","-41.6","","68","","","","15","","14","","24.1","","100.52","","","","-50","","Ice Crystals"
"-93.58","69.55","TALOYOAK A","2403855","2023-02-14 14:00","2023","02","14","14:00","-37.6","","-41.5","","68","","","","15","","17","","24.1","","100.50","","","","-52","","Ice Crystals"
"-93.58","69.55","TALOYOAK A","2403855","2023-02-14 15:00","2023","02","14","15:00","-38.0","","-41.9","","68","","","","14","","15","","6.4","","100.47","","","","-51","","Fog"
"-93.58","69.55","TALOYOAK A","2403855","2023-02-14 16:00","2023","02","14","16:00","-38.1","","-42.0","","68","","","","15","","18","","8.1","","100.44","","","","-53","","Fog"
"-93.58","69.55","TALOYOAK A","2403855","2023-02-14 17:00","2023","02","14","17:00","-38.4","","-42.4","","68","","","","15","","18","","8.1","","100.42","","","","-53","","Fog"
"-93.58","69.55","TALOYOAK A","2403855","2023-02-14 18:00","2023","02","14","18:00","-38.5","","-42.5","","68","","","","15","","16","","9.7","","100.42","","","","-52","","Fog"
"-93.58","69.55","TALOYOAK A","2403855","2023-02-14 19:00","2023","02","14","19:00","-38.7","","-42.6","","67","","","","15","","17","","9.7","","100.39","","","","-53","","Fog"
"-93.58","69.55","TALOYOAK A","2403855","2023-02-14 20:00","2023","02","14","20:00","-37.9","","-41.8","","68","","","","18","","5","","8.1","","100.35","","","","-45","","Fog"
"-93.58","69.55","TALOYOAK A","2403855","2023-02-14 21:00","2023","02","14","21:00","-38.5","","-42.5","","68","","","","16","","8","","12.9","","100.30","","","","-48","","NA"
"-93.58","69.55","TALOYOAK A","2403855","2023-02-14 22:00","2023","02","14","22:00","-37.9","","-41.8","","68","","","","16","","5","","12.9","","100.25","","","","-45","","NA"
"-93.58","69.55","TALOYOAK A","2403855","2023-02-14 23:00","2023","02","14","23:00","-38.1","","-42.0","","68","","","","12","","15","","12.9","","100.26","","","","-51","","Mainly Clear"
"-93.58","69.55","TALOYOAK A","2403855","2023-02-15 00:00","2023","02","15","00:00","-36.5","","-40.2","","69","","","","20","","10","","8.1","","100.23","","","","-47","","Fog"
"-93.58","69.55","TALOYOAK A","2403855","2023-02-15 01:00","2023","02","15","01:00","-35.8","","-39.5","","69","","","","30","","3","","8.1","","100.22","","","","-40","","Snow,Fog"
"-93.58","69.55","TALOYOAK A","2403855","2023-02-15 02:00","2023","02","15","02:00","-35.7","","-39.5","","69","","","","22","","3","","12.9","","100.24","","","","-40","","Snow"
"-93.58","69.55","TALOYOAK A","2403855","2023-02-15 03:00","2023","02","15","03:00","-37.3","","-41.2","","68","","","","10","","5","","12.9","","100.24","","","","-44","","Snow"
"-93.58","69.55","TALOYOAK A","2403855","2023-02-15 04:00","2023","02","15","04:00","-36.3","","-40.1","","69","","","","29","","5","","12.9","","100.27","","","","-43","","Snow"
"-93.58","69.55","TALOYOAK A","2403855","2023-02-15 05:00","2023","02","15","05:00","-37.2","","-41.0","","68","","","","2","","4","","9.7","","100.24","","","","-42","","Snow,Fog"
"-93.58","69.55","TALOYOAK A","2403855","2023-02-15 06:00","2023","02","15","06:00","-38.1","","-42.0","","68","","","","15","","3","","9.7","","100.26","","","","-42","","Snow,Fog"
"-93.58","69.55","TALOYOAK A","2403855","2023-02-15 07:00","2023","02","15","07:00","-38.6","","-42.5","","68","","","","13","","7","","16.1","","100.26","","","","-47","","NA"
"-93.58","69.55","TALOYOAK A","2403855","2023-02-15 08:00","2023","02","15","08:00","-38.9","","-42.8","","67","","","","14","","11","","14.5","","100.29","","","","-50","","Mainly Clear"
"-93.58","69.55","TALOYOAK A","2403855","2023-02-15 09:00","2023","02","15","09:00","-38.6","","-42.6","","67","","","","16","","15","","24.1","","100.27","","","","-52","","Ice Crystals"
"-93.58","69.55","TALOYOAK A","2403855","2023-02-15 10:00","2023","02","15","10:00","-38.9","","-42.9","","67","","","","15","","9","","24.1","","100.30","","","","-49","","Ice Crystals"
"-93.58","69.55","TALOYOAK A","2403855","2023-02-15 11:00","2023","02","15","11:00","-38.7","","-42.6","","67","","","","14","","10","","24.1","","100.31","","","","-50","","Ice Crystals"
"-93.58","69.55","TALOYOAK A","2403855","2023-02-15 12:00","2023","02","15","12:00","-38.4","","-42.4","","67","","","","16","","10","","24.1","","100.32","","","","-49","","Ice Crystals"
"-93.58","69.55","TALOYOAK A","2403855","2023-02-15 13:00","2023","02","15","13:00","-38.8","","-42.8","","67","","","","18","","5","","24.1","","100.32","","","","-46","","Ice Crystals"
"-93.58","69.55","TALOYOAK A","2403855","2023-02-15 14:00","2023","02","15","14:00","-39.4","","-43.4","","67","","","","18","","5","","24.1","","100.37","","","","-46","","Ice Crystals"
"-93.58","69.55","TALOYOAK A","2403855","2023-02-15 15:00","2023","02","15","15:00","-40.1","","-44.2","","66","","","","17","","9","","24.1","","100.36","","","","-51","","Ice Crystals"
"-93.58","69.55","TALOYOAK A","2403855","2023-02-15 16:00","2023","02","15","16:00","-40.5","","-44.5","","66","","","","16","","13","","24.1","","100.39","","","","-53","","Ice Crystals"
"-93.58","69.55","TALOYOAK A","2403855","2023-02-15 17:00","2023","02","15","17:00","-40.1","","-44.1","","67","","","","16","","11","","24.1","","100.38","","","","-52","","Ice Crystals"
"-93.58","69.55","TALOYOAK A","2403855","2023-02-15 18:00","2023","02","15","18:00","-40.3","","-44.3","","67","","","","16","","11","","19.3","","100.36","","","","-52","","Ice Crystals"
"-93.58","69.55","TALOYOAK A","2403855","2023-02-15 19:00","2023","02","15","19:00","-40.5","","-44.5","","66","","","","13","","9","","16.1","","100.36","","","","-51","","Ice Crystals"
"-93.58","69.55","TALOYOAK A","2403855","2023-02-15 20:00","2023","02","15","20:00","-40.6","","-44.7","","66","","","","15","","13","","9.7","","100.35","","","","-54","","Fog"
"-93.58","69.55","TALOYOAK A","2403855","2023-02-15 21:00","2023","02","15","21:00","-40.7","","-44.8","","66","","","","16","","11","","9.7","","100.30","","","","-53","","Fog"
"-93.58","69.55","TALOYOAK A","2403855","2023-02-15 22:00","2023","02","15","22:00","-40.5","","-44.5","","66","","","","15","","14","","6.4","","100.28","","","","-54","","Fog"
"-93.58","69.55","TALOYOAK A","2403855","2023-02-15 23:00","2023","02","15","23:00","-40.6","","-44.6","","66","","","","17","","14","","8.1","","100.27","","","","-54","","Fog"
"-93.58","69.55","TALOYOAK A","2403855","2023-02-16 00:00","2023","02","16","00:00","-40.7","","-44.8","","66","","","","14","","13","","6.4","","100.25","","","","-54","","Fog"
"-93.58","69.55","TALOYOAK A","2403855","2023-02-16 01:00","2023","02","16","01:00","-41.6","","-45.7","","66","","","","17","","13","","6.4","","100.23","","","","-55","","Fog"
"-93.58","69.55","TALOYOAK A","2403855","2023-02-16 02:00","2023","02","16","02:00","-40.9","","-45.0","","66","","","","15","","12","","6.4","","100.22","","","","-53","","Fog"
"-93.58","69.55","TALOYOAK A","2403855","2023-02-16 03:00","2023","02","16","03:00","-40.7","","-44.8","","66","","","","15","","15","","9.7","","100.21","","","","-55","","Fog"
"-93.58","69.55","TALOYOAK A","2403855","2023-02-16 04:00","2023","02","16","04:00","-41.5","","-45.6","","66","","","","15","","11","","9.7","","100.22","","","","-54","","Fog"
"-93.58","69.55","TALOYOAK A","2403855","2023-02-16 05:00","2023","02","16","05:00","-41.6","","-45.7","","66","","","","17","","11","","6.4","","100.23","","","","-54","","Fog"
"-93.58","69.55","TALOYOAK A","2403855","2023-02-16 06:00","2023","02","16","06:00","-41.3","","-45.4","","66","","","","17","","16","","9.7","","100.21","","","","-56","","Fog"
"-93.58","69.55","TALOYOAK A","2403855","2023-02-16 07:00","2023","02","16","07:00","-41.1","","-45.2","","66","","","","16","","13","","6.4","","100.20","","","","-54","","Fog"
"-93.58","69.55","TALOYOAK A","2403855","2023-02-16 08:00","2023","02","16","08:00","-40.9","","-44.9","","66","","","","16","","12","","4.8","","100.20","","","","-53","","Snow,Fog"
"-93.58","69.55","TALOYOAK A","2403855","2023-02-16 09:00","2023","02","16","09:00","-40.0","","-44.0","","67","","","","16","","11","","4.0","","100.17","","","","-52","","Snow,Fog"
"-93.58","69.55","TALOYOAK A","2403855","2023-02-16 10:00","2023","02","16","10:00","-39.3","","-43.3","","67","","","","17","","11","","8.1","","100.18","","","","-51","","Snow,Fog"
"-93.58","69.55","TALOYOAK A","2403855","2023-02-16 11:00","2023","02","16","11:00","-38.9","","-42.8","","67","","","","17","","13","","8.1","","100.19","","","","-51","","Snow,Fog"
"-93.58","69.55","TALOYOAK A","2403855","2023-02-16 12:00","2023","02","16","12:00","-37.9","","-41.9","","68","","","","18","","12","","4.0","","100.19","","","","-50","","Snow,Fog"
"-93.58","69.55","TALOYOAK A","2403855","2023-02-16 13:00","2023","02","16","13:00","-37.0","","-40.9","","68","","","","17","","15","","4.0","","100.18","","","","-50","","Snow,Fog"
"-93.58","69.55","TALOYOAK A","2403855","2023-02-16 14:00","2023","02","16","14:00","-36.6","","-40.4","","69","","","","16","","16","","2.4","","100.19","","","","-50","","Snow"
"-93.58","69.55","TALOYOAK A","2403855","2023-02-16 15:00","2023","02","16","15:00","-35.4","","-39.1","","70","","","","19","","5","","3.2","","100.20","","","","-42","","Snow"
"-93.58","69.55","TALOYOAK A","2403855","2023-02-16 16:00","2023","02","16","16:00","-35.7","","-39.5","","69","","","","17","","4","","4.8","","100.22","","","","-41","","Snow"
"-93.58","69.55","TALOYOAK A","2403855","2023-02-16 17:00","2023","02","16","17:00","-36.3","","-40.1","","69","","","","4","","3","","4.8","","100.27","","","","-40","","Snow"
"-93.58","69.55","TALOYOAK A","2403855","2023-02-16 18:00","2023","02","16","18:00","-37.4","","-41.3","","68","","","","17","","3","","16.1","","100.25","","","","-41","","Snow"
"-93.58","69.55","TALOYOAK A","2403855","2023-02-16 19:00","2023","02","16","19:00","-38.8","","-42.7","","68","","","","2","","4","","24.1","","100.26","","","","-44","","Ice Crystals"
"-93.58","69.55","TALOYOAK A","2403855","2023-02-16 20:00","2023","02","16","20:00","-37.3","","-41.2","","68","","","","16","","4","","24.1","","100.29","","","","-43","","Ice Crystals"
"-93.58","69.55","TALOYOAK A","2403855","2023-02-16 21:00","2023","02","16","21:00","-41.1","","-45.2","","66","","","","33","","5","","19.3","","100.31","","","","-48","","Ice Crystals"
"-93.58","69.55","TALOYOAK A","2403855","2023-02-16 22:00","2023","02","16","22:00","-39.2","","-43.2","","67","","","","36","","10","","19.3","","100.33","","","","-50","","Ice Crystals"
"-93.58","69.55","TALOYOAK A","2403855","2023-02-16 23:00","2023","02","16","23:00","-39.7","","-43.7","","67","","","","3","","4","","16.1","","100.34","","","","-45","","Ice Crystals"
"-93.58","69.55","TALOYOAK A","2403855","2023-02-17 00:00","2023","02","17","00:00","-38.8","","-42.7","","68","","","","12","","4","","9.7","","100.40","","","","-44","","Ice Crystals,Fog"
"-93.58","69.55","TALOYOAK A","2403855","2023-02-17 01:00","2023","02","17","01:00","-39.3","","-43.2","","67","","","","21","","5","","9.7","","100.42","","","","-46","","Ice Crystals,Fog"
"-93.58","69.55","TALOYOAK A","2403855","2023-02-17 02:00","2023","02","17","02:00","-39.9","","-43.9","","67","","","","27","","6","","9.7","","100.48","","","","-48","","Snow,Fog"
"-93.58","69.55","TALOYOAK A","2403855","2023-02-17 03:00","2023","02","17","03:00","-40.0","","-44.0","","67","","","","19","","7","","16.1","","100.49","","","","-49","","Snow"
"-93.58","69.55","TALOYOAK A","2403855","2023-02-17 04:00","2023","02","17","04:00","-41.0","","-45.1","","66","","","","17","","8","","16.1","","100.50","","","","-51","","Ice Crystals"
"-93.58","69.55","TALOYOAK A","2403855","2023-02-17 05:00","2023","02","17","05:00","-41.4","","-45.5","","66","","","","19","","7","","16.1","","100.50","","","","-51","","Ice Crystals"
"-93.58","69.55","TALOYOAK A","2403855","2023-02-17 06:00","2023","02","17","06:00","-41.9","","-46.0","","66","","","","18","","9","","16.1","","100.52","","","","-53","","Ice Crystals"
"-93.58","69.55","TALOYOAK A","2403855","2023-02-17 07:00","2023","02","17","07:00","-42.4","","-46.5","","65","","","","14","","10","","19.3","","100.52","","","","-54","","Ice Crystals"
"-93.58","69.55","TALOYOAK A","2403855","2023-02-17 08:00","2023","02","17","08:00","-42.5","","-46.7","","65","","","","13","","5","","14.5","","100.54","","","","-50","","Ice Crystals"
"-93.58","69.55","TALOYOAK A","2403855","2023-02-17 09:00","2023","02","17","09:00","-42.4","","-46.6","","65","","","","0","","1","","14.5","","100.54","","","","-44","","Snow,Ice Crystals"
"-93.58","69.55","TALOYOAK A","2403855","2023-02-17 10:00","2023","02","17","10:00","-41.4","","-45.5","","65","","","","15","","5","","16.1","","100.55","","","","-49","","Snow,Ice Crystals"
"-93.58","69.55","TALOYOAK A","2403855","2023-02-17 11:00","2023","02","17","11:00","-41.2","","-45.3","","65","","","","17","","5","","16.1","","100.57","","","","-48","","Snow,Ice Crystals"
"-93.58","69.55","TALOYOAK A","2403855","2023-02-17 12:00","2023","02","17","12:00","-41.4","","-45.6","","65","","","","21","","3","","16.1","","100.58","","","","-46","","Snow,Ice Crystals"
"-93.58","69.55","TALOYOAK A","2403855","2023-02-17 13:00","2023","02","17","13:00","-41.4","","-45.6","","65","","","","10","","3","","6.4","","100.59","","","","-46","","Snow,Ice Crystals,Fog"
"-93.58","69.55","TALOYOAK A","2403855","2023-02-17 14:00","2023","02","17","14:00","-42.3","","-46.5","","65","","","","36","","2","","2.4","","100.61","","","","-45","","Ice Crystals,Fog"
"-93.58","69.55","TALOYOAK A","2403855","2023-02-17 15:00","2023","02","17","15:00","-42.6","","-46.9","","65","","","","36","","2","","2.4","","100.61","","","","-46","","Ice Crystals,Fog"
"-93.58","69.55","TALOYOAK A","2403855","2023-02-17 16:00","2023","02","17","16:00","-43.3","","-47.5","","65","","","","6","","4","","4.8","","100.60","","","","-49","","Ice Crystals,Fog"
"-93.58","69.55","TALOYOAK A","2403855","2023-02-17 17:00","2023","02","17","17:00","-44.9","","-49.1","","64","","","","36","","2","","4.8","","100.64","","","","-48","","Ice Crystals,Fog"
"-93.58","69.55","TALOYOAK A","2403855","2023-02-17 18:00","2023","02","17","18:00","-44.8","","-49.1","","64","","","","3","","7","","24.1","","100.63","","","","-54","","Ice Crystals"
"-93.58","69.55","TALOYOAK A","2403855","2023-02-17 19:00","2023","02","17","19:00","-43.4","","-47.6","","64","","","","2","","12","","24.1","","100.61","","","","-56","","Ice Crystals"
"-93.58","69.55","TALOYOAK A","2403855","2023-02-17 20:00","2023","02","17","20:00","-43.3","","-47.5","","65","","","","2","","11","","24.1","","100.58","","","","-56","","Ice Crystals"
"-93.58","69.55","TALOYOAK A","2403855","2023-02-17 21:00","2023","02","17","21:00","-43.4","","-47.6","","64","","","","1","","10","","24.1","","100.56","","","","-55","","Ice Crystals"
"-93.58","69.55","TALOYOAK A","2403855","2023-02-17 22:00","2023","02","17","22:00","-43.8","","-48.0","","64","","","","36","","8","","24.1","","100.53","","","","-54","","Ice Crystals"
"-93.58","69.55","TALOYOAK A","2403855","2023-02-17 23:00","2023","02","17","23:00","-43.0","","-47.1","","65","","","","36","","9","","24.1","","100.50","","","","-54","","Ice Crystals"
"-93.58","69.55","TALOYOAK A","2403855","2023-02-18 00:00","2023","02","18","00:00","-44.1","","-48.4","","64","","","","36","","2","","6.4","","100.48","","","","-47","","Ice Crystals,Fog"
"-93.58","69.55","TALOYOAK A","2403855","2023-02-18 01:00","2023","02","18","01:00","-43.9","","-48.2","","64","","","","16","","7","","6.4","","100.50","","","","-53","","Snow,Fog"
"-93.58","69.55","TALOYOAK A","2403855","2023-02-18 02:00","2023","02","18","02:00","-43.5","","-47.8","","64","","","","15","","6","","4.8","","100.45","","","","-52","","Snow,Fog"
"-93.58","69.55","TALOYOAK A","2403855","2023-02-18 03:00","2023","02","18","03:00","-42.5","","-46.7","","65","","","","16","","9","","6.4","","100.40","","","","-53","","Snow,Fog"
"-93.58","69.55","TALOYOAK A","2403855","2023-02-18 04:00","2023","02","18","04:00","-42.8","","-47.0","","65","","","","14","","12","","6.4","","100.34","","","","-56","","Snow,Fog"
"-93.58","69.55","TALOYOAK A","2403855","2023-02-18 05:00","2023","02","18","05:00","-41.5","","-45.6","","66","","","","14","","11","","6.4","","100.31","","","","-54","","Ice Crystals,Fog"
"-93.58","69.55","TALOYOAK A","2403855","2023-02-18 06:00","2023","02","18","06:00","-40.5","","-44.6","","66","","","","14","","11","","6.4","","100.26","","","","-52","","Ice Crystals,Fog"
"-93.58","69.55","TALOYOAK A","2403855","2023-02-18 07:00","2023","02","18","07:00","-40.0","","-44.0","","66","","","","14","","14","","9.7","","100.22","","","","-53","","Ice Crystals,Fog"
"-93.58","69.55","TALOYOAK A","2403855","2023-02-18 08:00","2023","02","18","08:00","-39.9","","-43.9","","66","","","","14","","16","","14.5","","100.15","","","","-54","","Ice Crystals"
"-93.58","69.55","TALOYOAK A","2403855","2023-02-18 09:00","2023","02","18","09:00","-39.3","","-43.4","","67","","","","14","","15","","8.1","","100.12","","","","-53","","Snow,Fog"
"-93.58","69.55","TALOYOAK A","2403855","2023-02-18 10:00","2023","02","18","10:00","-38.4","","-42.4","","67","","","","15","","20","","6.4","","100.06","","","","-54","","Snow,Fog"
"-93.58","69.55","TALOYOAK A","2403855","2023-02-18 11:00","2023","02","18","11:00","-38.0","","-42.0","","68","","","","16","","18","","6.4","","100.01","","","","-52","","Snow,Fog"
"-93.58","69.55","TALOYOAK A","2403855","2023-02-18 12:00","2023","02","18","12:00","-37.7","","-41.6","","68","","","","15","","20","","6.4","","99.96","","","","-53","","Snow,Fog"
"-93.58","69.55","TALOYOAK A","2403855","2023-02-18 13:00","2023","02","18","13:00","-36.9","","-40.8","","68","","","","15","","20","","6.4","","99.90","","","","-52","","Snow,Fog"
"-93.58","69.55","TALOYOAK A","2403855","2023-02-18 14:00","2023","02","18","14:00","-36.0","","-39.8","","69","","","","15","","13","","6.4","","99.86","","","","-48","","Snow,Fog"
"-93.58","69.55","TALOYOAK A","2403855","2023-02-18 15:00","2023","02","18","15:00","-35.7","","-39.5","","69","","","","17","","11","","6.4","","99.84","","","","-47","","Snow,Fog"
"-93.58","69.55","TALOYOAK A","2403855","2023-02-18 16:00","2023","02","18","16:00","-33.7","","-37.3","","71","","","","22","","7","","4.8","","99.81","","","","-42","","Snow,Fog"
"-93.58","69.55","TALOYOAK A","2403855","2023-02-18 17:00","2023","02","18","17:00","-32.9","","-36.5","","71","","","","31","","26","","8.1","","99.76","","","","-48","","Snow,Fog"
"-93.58","69.55","TALOYOAK A","2403855","2023-02-18 18:00","2023","02","18","18:00","-35.1","","-38.9","","69","","","","31","","26","","24.1","","99.72","","","","-51","","NA"
"-93.58","69.55","TALOYOAK A","2403855","2023-02-18 19:00","2023","02","18","19:00","-37.6","","-41.5","","68","","","","35","","15","","24.1","","99.70","","","","-51","","Ice Crystals"
"-93.58","69.55","TALOYOAK A","2403855","2023-02-18 20:00","2023","02","18","20:00","-38.8","","-42.8","","67","","","","1","","15","","24.1","","99.69","","","","-52","","Ice Crystals"
"-93.58","69.55","TALOYOAK A","2403855","2023-02-18 21:00","2023","02","18","21:00","-39.2","","-43.1","","67","","","","2","","18","","19.3","","99.68","","","","-54","","Ice Crystals"
"-93.58","69.55","TALOYOAK A","2403855","2023-02-18 22:00","2023","02","18","22:00","-37.7","","-41.5","","68","","","","4","","18","","19.3","","99.66","","","","-52","","Ice Crystals"
"-93.58","69.55","TALOYOAK A","2403855","2023-02-18 23:00","2023","02","18","23:00","-38.5","","-42.5","","67","","","","36","","11","","24.1","","99.65","","","","-50","","Ice Crystals"
"-93.58","69.55","TALOYOAK A","2403855","2023-02-19 00:00","2023","02","19","00:00","-39.2","","-43.1","","67","","","","8","","3","","24.1","","99.65","","","","-43","","Ice Crystals"
"-93.58","69.55","TALOYOAK A","2403855","2023-02-19 01:00","2023","02","19","01:00","-39.4","","-43.4","","67","","","","11","","5","","24.1","","99.67","","","","-46","","Ice Crystals"
"-93.58","69.55","TALOYOAK A","2403855","2023-02-19 02:00","2023","02","19","02:00","-40.3","","-44.4","","66","","","","23","","6","","19.3","","99.65","","","","-48","","Ice Crystals"
"-93.58","69.55","TALOYOAK A","2403855","2023-02-19 03:00","2023","02","19","03:00","-40.5","","-44.5","","66","","","","21","","5","","19.3","","99.65","","","","-48","","Snow"
"-93.58","69.55","TALOYOAK A","2403855","2023-02-19 04:00","2023","02","19","04:00","-40.4","","-44.5","","66","","","","16","","7","","9.7","","99.67","","","","-49","","Snow"
"-93.58","69.55","TALOYOAK A","2403855","2023-02-19 05:00","2023","02","19","05:00","-40.4","","-44.4","","66","","","","18","","8","","9.7","","99.67","","","","-50","","Snow"
"-93.58","69.55","TALOYOAK A","2403855","2023-02-19 06:00","2023","02","19","06:00","-41.0","","-45.0","","66","","","","18","","11","","16.1","","99.65","","","","-53","","Snow"
"-93.58","69.55","TALOYOAK A","2403855","2023-02-19 07:00","2023","02","19","07:00","-40.8","","-44.9","","66","","","","18","","11","","12.9","","99.63","","","","-53","","Snow"
"-93.58","69.55","TALOYOAK A","2403855","2023-02-19 08:00","2023","02","19","08:00","-40.3","","-44.4","","66","","","","18","","14","","12.9","","99.61","","","","-54","","Snow"
"-93.58","69.55","TALOYOAK A","2403855","2023-02-19 09:00","2023","02","19","09:00","-40.1","","-44.1","","66","","","","17","","16","","12.9","","99.60","","","","-54","","Snow"
"-93.58","69.55","TALOYOAK A","2403855","2023-02-19 10:00","2023","02","19","10:00","-39.8","","-43.8","","66","","","","17","","17","","14.5","","99.60","","","","-54","","Snow"
"-93.58","69.55","TALOYOAK A","2403855","2023-02-19 11:00","2023","02","19","11:00","-39.6","","-43.6","","67","","","","17","","21","","14.5","","99.59","","","","-56","","Snow"
"-93.58","69.55","TALOYOAK A","2403855","2023-02-19 12:00","2023","02","19","12:00","-39.7","","-43.8","","66","","","","16","","17","","12.9","","99.62","","","","-54","","Snow"
"-93.58","69.55","TALOYOAK A","2403855","2023-02-19 13:00","2023","02","19","13:00","-39.5","","-43.5","","67","","","","16","","17","","9.7","","99.66","","","","-54","","Snow,Fog"
"-93.58","69.55","TALOYOAK A","2403855","2023-02-19 14:00","2023","02","19","14:00","-39.4","","-43.4","","67","","","","17","","19","","3.2","","99.66","","","","-55","","Snow,Fog"
"-93.58","69.55","TALOYOAK A","2403855","2023-02-19 15:00","2023","02","19","15:00","-39.5","","-43.5","","67","","","","16","","17","","4.8","","99.69","","","","-54","","Snow,Fog"
"-93.58","69.55","TALOYOAK A","2403855","2023-02-19 16:00","2023","02","19","16:00","-39.8","","-43.8","","67","","","","16","","14","","12.9","","99.70","","","","-53","","Snow"
"-93.58","69.55","TALOYOAK A","2403855","2023-02-19 17:00","2023","02","19","17:00","-40.0","","-44.0","","67","","","","16","","16","","16.1","","99.73","","","","-54","","Ice Crystals"
"-93.58","69.55","TALOYOAK A","2403855","2023-02-19 18:00","2023","02","19","18:00","-39.9","","-43.9","","67","","","","16","","14","","16.1","","99.74","","","","-53","","Ice Crystals"
"-93.58","69.55","TALOYOAK A","2403855","2023-02-19 19:00","2023","02","19","19:00","-39.8","","-43.8","","67","","","","15","","9","","16.1","","99.79","","","","-50","","Ice Crystals"
"-93.58","69.55","TALOYOAK A","2403855","2023-02-19 20:00","2023","02","19","20:00","-40.2","","-44.2","","66","","","","36","","2","","19.3","","99.82","","","","-43","","Ice Crystals"
"-93.58","69.55","TALOYOAK A","2403855","2023-02-19 21:00","2023","02","19","21:00","-41.1","","-45.2","","66","","","","21","","5","","24.1","","99.88","","","","-48","","Ice Crystals"
"-93.58","69.55","TALOYOAK A","2403855","2023-02-19 22:00","2023","02","19","22:00","-42.7","","-46.9","","65","","","","34","","7","","19.3","","99.91","","","","-52","","Ice Crystals"
"-93.58","69.55","TALOYOAK A","2403855","2023-02-19 23:00","2023","02","19","23:00","-43.5","","-47.7","","64","","","","36","","9","","24.1","","99.93","","","","-55","","Ice Crystals"
"-93.58","69.55","TALOYOAK A","2403855","2023-02-20 00:00","2023","02","20","00:00","-43.2","","-47.4","","65","","","","1","","8","","24.1","","99.99","","","","-53","","Ice Crystals"
"-93.58","69.55","TALOYOAK A","2403855","2023-02-20 01:00","2023","02","20","01:00","-43.5","","-47.7","","64","","","","2","","13","","24.1","","100.04","","","","-57","","Ice Crystals"
"-93.58","69.55","TALOYOAK A","2403855","2023-02-20 02:00","2023","02","20","02:00","-43.9","","-48.1","","64","","","","1","","18","","24.1","","100.05","","","","-60","","Ice Crystals"
"-93.58","69.55","TALOYOAK A","2403855","2023-02-20 03:00","2023","02","20","03:00","-44.1","","-48.4","","64","","","","2","","18","","19.3","","100.11","","","","-60","","Ice Crystals"
"-93.58","69.55","TALOYOAK A","2403855","2023-02-20 04:00","2023","02","20","04:00","-43.4","","-47.6","","64","","","","3","","19","","24.1","","100.16","","","","-60","","Ice Crystals"
"-93.58","69.55","TALOYOAK A","2403855","2023-02-20 05:00","2023","02","20","05:00","-44.5","","-48.9","","63","","","","1","","14","","24.1","","100.20","","","","-59","","Ice Crystals"
"-93.58","69.55","TALOYOAK A","2403855","2023-02-20 06:00","2023","02","20","06:00","-43.0","","-47.2","","64","","","","3","","17","","19.3","","100.23","","","","-58","","Ice Crystals"
"-93.58","69.55","TALOYOAK A","2403855","2023-02-20 07:00","2023","02","20","07:00","-41.5","","-45.6","","65","","","","5","","22","","24.1","","100.27","","","","-58","","Ice Crystals"
"-93.58","69.55","TALOYOAK A","2403855","2023-02-20 08:00","2023","02","20","08:00","-41.1","","-45.1","","66","","","","5","","10","","24.1","","100.36","","","","-52","","Ice Crystals"
"-93.58","69.55","TALOYOAK A","2403855","2023-02-20 09:00","2023","02","20","09:00","-42.6","","-46.8","","64","","","","2","","13","","24.1","","100.40","","","","-56","","Ice Crystals"
"-93.58","69.55","TALOYOAK A","2403855","2023-02-20 10:00","2023","02","20","10:00","-41.7","","-45.9","","65","","","","33","","8","","24.1","","100.43","","","","-52","","Ice Crystals"
"-93.58","69.55","TALOYOAK A","2403855","2023-02-20 11:00","2023","02","20","11:00","-39.7","","-43.8","","66","","","","6","","15","","24.1","","100.47","","","","-53","","Ice Crystals"
"-93.58","69.55","TALOYOAK A","2403855","2023-02-20 12:00","2023","02","20","12:00","-41.8","","-46.0","","65","","","","2","","11","","24.1","","100.52","","","","-54","","Ice Crystals"
"-93.58","69.55","TALOYOAK A","2403855","2023-02-20 13:00","2023","02","20","13:00","-41.2","","-45.4","","65","","","","3","","15","","24.1","","100.57","","","","-55","","Ice Crystals"
"-93.58","69.55","TALOYOAK A","2403855","2023-02-20 14:00","2023","02","20","14:00","-41.0","","-45.2","","65","","","","5","","16","","24.1","","100.62","","","","-55","","Ice Crystals"
"-93.58","69.55","TALOYOAK A","2403855","2023-02-20 15:00","2023","02","20","15:00","-42.9","","-47.2","","64","","","","2","","16","","24.1","","100.67","","","","-58","","NA"
"-93.58","69.55","TALOYOAK A","2403855","2023-02-20 16:00","2023","02","20","16:00","-42.5","","-46.6","","65","","","","3","","17","","24.1","","100.74","","","","-58","","NA"
"-93.58","69.55","TALOYOAK A","2403855","2023-02-20 17:00","2023","02","20","17:00","-40.9","","-45.0","","66","","","","6","","17","","24.1","","100.76","","","","-56","","Clear"
"-93.58","69.55","TALOYOAK A","2403855","2023-02-20 18:00","2023","02","20","18:00","-42.8","","-47.0","","65","","","","2","","10","","24.1","","100.81","","","","-54","","NA"
"-93.58","69.55","TALOYOAK A","2403855","2023-02-20 19:00","2023","02","20","19:00","-44.3","","-48.6","","64","","","","35","","14","","24.1","","100.83","","","","-59","","NA"
"-93.58","69.55","TALOYOAK A","2403855","2023-02-20 20:00","2023","02","20","20:00","-42.3","","-46.4","","65","","","","2","","14","","24.1","","100.85","","","","-56","","Ice Crystals"
"-93.58","69.55","TALOYOAK A","2403855","2023-02-20 21:00","2023","02","20","21:00","-42.9","","-47.1","","65","","","","1","","15","","24.1","","100.84","","","","-57","","Ice Crystals"
"-93.58","69.55","TALOYOAK A","2403855","2023-02-20 22:00","2023","02","20","22:00"
"-93.58","69.55","TALOYOAK A","2403855","2023-02-20 23:00","2023","02","20","23:00"
"-93.58","69.55","TALOYOAK A","2403855","2023-02-21 00:00","2023","02","21","00:00"
"-93.58","69.55","TALOYOAK A","2403855","2023-02-21 01:00","2023","02","21","01:00"
"-93.58","69.55","TALOYOAK A","2403855","2023-02-21 02:00","2023","02","21","02:00"
"-93.58","69.55","TALOYOAK A","2403855","2023-02-21 03:00","2023","02","21","03:00"
"-93.58","69.55","TALOYOAK A","2403855","2023-02-21 04:00","2023","02","21","04:00"
"-93.58","69.55","TALOYOAK A","2403855","2023-02-21 05:00","2023","02","21","05:00"
"-93.58","69.55","TALOYOAK A","2403855","2023-02-21 06:00","2023","02","21","06:00"
"-93.58","69.55","TALOYOAK A","2403855","2023-02-21 07:00","2023","02","21","07:00"
"-93.58","69.55","TALOYOAK A","2403855","2023-02-21 08:00","2023","02","21","08:00"
"-93.58","69.55","TALOYOAK A","2403855","2023-02-21 09:00","2023","02","21","09:00"
"-93.58","69.55","TALOYOAK A","2403855","2023-02-21 10:00","2023","02","21","10:00","-41.8","","-46.0","","65","","","","36","","2","","16.1","","100.82","","","","-45","","Ice Crystals,Fog"
"-93.58","69.55","TALOYOAK A","2403855","2023-02-21 11:00","2023","02","21","11:00","-42.0","","-46.3","","64","","","","17","","4","","9.7","","100.81","","","","-48","","Ice Crystals,Fog"
"-93.58","69.55","TALOYOAK A","2403855","2023-02-21 12:00","2023","02","21","12:00","-41.8","","-46.0","","65","","","","18","","8","","24.1","","100.81","","","","-52","","Ice Crystals"
"-93.58","69.55","TALOYOAK A","2403855","2023-02-21 13:00","2023","02","21","13:00","-41.7","","-45.9","","65","","","","20","","6","","24.1","","100.82","","","","-50","","Ice Crystals"
"-93.58","69.55","TALOYOAK A","2403855","2023-02-21 14:00","2023","02","21","14:00","-41.9","","-46.1","","65","","","","17","","8","","24.1","","100.83","","","","-52","","Ice Crystals"
"-93.58","69.55","TALOYOAK A","2403855","2023-02-21 15:00","2023","02","21","15:00","-42.9","","-47.2","","64","","","","18","","10","","24.1","","100.85","","","","-55","","Ice Crystals"
"-93.58","69.55","TALOYOAK A","2403855","2023-02-21 16:00","2023","02","21","16:00","-43.9","","-48.2","","64","","","","19","","8","","24.1","","100.87","","","","-54","","NA"
"-93.58","69.55","TALOYOAK A","2403855","2023-02-21 17:00","2023","02","21","17:00","-44.6","","-48.9","","63","","","","17","","8","","24.1","","100.85","","","","-55","","Ice Crystals"
"-93.58","69.55","TALOYOAK A","2403855","2023-02-21 18:00","2023","02","21","18:00","-44.0","","-48.3","","64","","","","17","","9","","24.1","","100.85","","","","-55","","Ice Crystals"
"-93.58","69.55","TALOYOAK A","2403855","2023-02-21 19:00","2023","02","21","19:00","-45.0","","-49.3","","63","","","","20","","8","","24.1","","100.84","","","","-56","","Ice Crystals"
"-93.58","69.55","TALOYOAK A","2403855","2023-02-21 20:00","2023","02","21","20:00","-44.8","","-49.1","","63","","","","17","","6","","24.1","","100.82","","","","-54","","Ice Crystals"
"-93.58","69.55","TALOYOAK A","2403855","2023-02-21 21:00","2023","02","21","21:00","-45.3","","-49.6","","63","","","","18","","12","","24.1","","100.80","","","","-59","","Ice Crystals"
"-93.58","69.55","TALOYOAK A","2403855","2023-02-21 22:00","2023","02","21","22:00","-44.6","","-48.9","","64","","","","16","","15","","19.3","","100.78","","","","-59","","Ice Crystals"
"-93.58","69.55","TALOYOAK A","2403855","2023-02-21 23:00","2023","02","21","23:00","-44.2","","-48.5","","64","","","","16","","17","","19.3","","100.76","","","","-60","","Ice Crystals"
"-93.58","69.55","TALOYOAK A","2403855","2023-02-22 00:00","2023","02","22","00:00","-44.3","","-48.6","","64","","","","17","","19","","16.1","","100.77","","","","-61","","Ice Crystals"
"-93.58","69.55","TALOYOAK A","2403855","2023-02-22 01:00","2023","02","22","01:00","-44.7","","-49.1","","63","","","","16","","18","","19.3","","100.77","","","","-61","","Ice Crystals"
"-93.58","69.55","TALOYOAK A","2403855","2023-02-22 02:00","2023","02","22","02:00","-44.4","","-48.7","","64","","","","17","","18","","19.3","","100.75","","","","-60","","Ice Crystals"
"-93.58","69.55","TALOYOAK A","2403855","2023-02-22 03:00","2023","02","22","03:00","-44.0","","-48.3","","64","","","","16","","18","","19.3","","100.75","","","","-60","","Ice Crystals"
"-93.58","69.55","TALOYOAK A","2403855","2023-02-22 04:00","2023","02","22","04:00"
"-93.58","69.55","TALOYOAK A","2403855","2023-02-22 05:00","2023","02","22","05:00"
"-93.58","69.55","TALOYOAK A","2403855","2023-02-22 06:00","2023","02","22","06:00","-43.9","","-48.2","","64","","","","16","","17","","19.3","","100.73","","","","-59","","Ice Crystals"
"-93.58","69.55","TALOYOAK A","2403855","2023-02-22 07:00","2023","02","22","07:00","-43.5","","-47.8","","64","","","","16","","15","","19.3","","100.71","","","","-58","","Ice Crystals"
"-93.58","69.55","TALOYOAK A","2403855","2023-02-22 08:00","2023","02","22","08:00","-43.6","","-47.9","","64","","","","16","","12","","24.1","","100.75","","","","-57","","Ice Crystals"
"-93.58","69.55","TALOYOAK A","2403855","2023-02-22 09:00","2023","02","22","09:00","-42.8","","-47.1","","64","","","","17","","16","","24.1","","100.78","","","","-58","","Ice Crystals"
"-93.58","69.55","TALOYOAK A","2403855","2023-02-22 10:00","2023","02","22","10:00","-41.9","","-46.2","","65","","","","16","","19","","24.1","","100.83","","","","-58","","Ice Crystals"
"-93.58","69.55","TALOYOAK A","2403855","2023-02-22 11:00","2023","02","22","11:00","-41.3","","-45.5","","65","","","","16","","19","","24.1","","100.85","","","","-57","","Ice Crystals"
"-93.58","69.55","TALOYOAK A","2403855","2023-02-22 12:00","2023","02","22","12:00","-41.0","","-45.2","","65","","","","16","","21","","24.1","","100.89","","","","-57","","Ice Crystals"
"-93.58","69.55","TALOYOAK A","2403855","2023-02-22 13:00","2023","02","22","13:00","-40.8","","-44.9","","65","","","","16","","19","","24.1","","100.92","","","","-56","","Ice Crystals"
"-93.58","69.55","TALOYOAK A","2403855","2023-02-22 14:00","2023","02","22","14:00","-40.2","","-44.3","","66","","","","16","","18","","19.3","","100.95","","","","-55","","Ice Crystals"
"-93.58","69.55","TALOYOAK A","2403855","2023-02-22 15:00","2023","02","22","15:00","-40.1","","-44.2","","66","","","","15","","13","","16.1","","101.00","","","","-53","","Ice Crystals"
"-93.58","69.55","TALOYOAK A","2403855","2023-02-22 16:00","2023","02","22","16:00","-40.8","","-44.9","","66","","","","17","","14","","19.3","","101.07","","","","-54","","Ice Crystals"
"-93.58","69.55","TALOYOAK A","2403855","2023-02-22 17:00","2023","02","22","17:00","-40.7","","-44.8","","66","","","","17","","13","","24.1","","101.08","","","","-54","","Ice Crystals"
"-93.58","69.55","TALOYOAK A","2403855","2023-02-22 18:00","2023","02","22","18:00","-41.0","","-45.1","","66","","","","22","","10","","16.1","","101.11","","","","-52","","Ice Crystals"
"-93.58","69.55","TALOYOAK A","2403855","2023-02-22 19:00","2023","02","22","19:00","-41.1","","-45.3","","65","","","","21","","9","","19.3","","101.15","","","","-52","","Ice Crystals"
"-93.58","69.55","TALOYOAK A","2403855","2023-02-22 20:00","2023","02","22","20:00","-40.4","","-44.5","","66","","","","20","","9","","16.1","","101.19","","","","-51","","Ice Crystals"
"-93.58","69.55","TALOYOAK A","2403855","2023-02-22 21:00","2023","02","22","21:00","-40.1","","-44.2","","66","","","","19","","8","","19.3","","101.19","","","","-50","","Ice Crystals"
"-93.58","69.55","TALOYOAK A","2403855","2023-02-22 22:00","2023","02","22","22:00","-40.1","","-44.2","","66","","","","24","","8","","24.1","","101.24","","","","-50","","Ice Crystals"
"-93.58","69.55","TALOYOAK A","2403855","2023-02-22 23:00","2023","02","22","23:00","-40.3","","-44.4","","66","","","","21","","9","","24.1","","101.23","","","","-51","","Ice Crystals"
"-93.58","69.55","TALOYOAK A","2403855","2023-02-23 00:00","2023","02","23","00:00","-40.1","","-44.1","","66","","","","19","","8","","24.1","","101.23","","","","-50","","Ice Crystals"
"-93.58","69.55","TALOYOAK A","2403855","2023-02-23 01:00","2023","02","23","01:00","-40.1","","-44.2","","66","","","","18","","7","","24.1","","101.24","","","","-49","","Ice Crystals"
"-93.58","69.55","TALOYOAK A","2403855","2023-02-23 02:00","2023","02","23","02:00","-39.3","","-43.4","","67","","","","16","","8","","24.1","","101.25","","","","-49","","Ice Crystals"
"-93.58","69.55","TALOYOAK A","2403855","2023-02-23 03:00","2023","02","23","03:00","-38.0","","-42.0","","67","","","","15","","6","","24.1","","101.24","","","","-46","","Ice Crystals"
"-93.58","69.55","TALOYOAK A","2403855","2023-02-23 04:00","2023","02","23","04:00","-37.8","","-41.8","","68","","","","12","","5","","24.1","","101.22","","","","-44","","Ice Crystals"
"-93.58","69.55","TALOYOAK A","2403855","2023-02-23 05:00","2023","02","23","05:00","-40.4","","-44.5","","66","","","","36","","6","","24.1","","101.25","","","","-48","","Ice Crystals"
"-93.58","69.55","TALOYOAK A","2403855","2023-02-23 06:00","2023","02","23","06:00","-40.8","","-44.9","","66","","","","1","","9","","19.3","","101.27","","","","-51","","Ice Crystals"
"-93.58","69.55","TALOYOAK A","2403855","2023-02-23 07:00","2023","02","23","07:00","-41.1","","-45.2","","66","","","","36","","9","","24.1","","101.28","","","","-52","","Ice Crystals"
"-93.58","69.55","TALOYOAK A","2403855","2023-02-23 08:00","2023","02","23","08:00","-37.3","","-41.1","","68","","","","2","","6","","24.1","","101.23","","","","-45","","Ice Crystals"
"-93.58","69.55","TALOYOAK A","2403855","2023-02-23 09:00","2023","02","23","09:00","-36.5","","-40.3","","68","","","","36","","3","","19.3","","101.21","","","","-40","","Ice Crystals"
"-93.58","69.55","TALOYOAK A","2403855","2023-02-23 10:00","2023","02","23","10:00","-37.8","","-41.8","","67","","","","20","","8","","24.1","","101.20","","","","-47","","Ice Crystals"
"-93.58","69.55","TALOYOAK A","2403855","2023-02-23 11:00","2023","02","23","11:00","-36.5","","-40.4","","68","","","","18","","5","","24.1","","101.18","","","","-43","","Ice Crystals"
"-93.58","69.55","TALOYOAK A","2403855","2023-02-23 12:00","2023","02","23","12:00","-36.8","","-40.8","","68","","","","18","","8","","24.1","","101.09","","","","-46","","Ice Crystals"
"-93.58","69.55","TALOYOAK A","2403855","2023-02-23 13:00","2023","02","23","13:00","-36.9","","-40.8","","68","","","","18","","9","","24.1","","101.06","","","","-47","","Ice Crystals"
"-93.58","69.55","TALOYOAK A","2403855","2023-02-23 14:00","2023","02","23","14:00","-36.9","","-40.8","","68","","","","16","","7","","24.1","","101.04","","","","-45","","Ice Crystals"
"-93.58","69.55","TALOYOAK A","2403855","2023-02-23 15:00","2023","02","23","15:00","-37.4","","-41.4","","68","","","","17","","4","","24.1","","101.00","","","","-43","","Ice Crystals"
"-93.58","69.55","TALOYOAK A","2403855","2023-02-23 16:00","2023","02","23","16:00","-38.8","","-42.8","","67","","","","33","","4","","4.8","","100.95","","","","-44","","Ice Crystals,Fog"
"-93.58","69.55","TALOYOAK A","2403855","2023-02-23 17:00","2023","02","23","17:00","-38.9","","-42.8","","67","","","","2","","4","","16.1","","100.88","","","","-44","","Ice Crystals"
"-93.58","69.55","TALOYOAK A","2403855","2023-02-23 18:00","2023","02","23","18:00","-40.2","","-44.3","","66","","","","3","","4","","24.1","","100.85","","","","-46","","Ice Crystals"
"-93.58","69.55","TALOYOAK A","2403855","2023-02-23 19:00","2023","02","23","19:00","-38.7","","-42.7","","67","","","","36","","1","","24.1","","100.80","","","","-40","","NA"
"-93.58","69.55","TALOYOAK A","2403855","2023-02-23 20:00","2023","02","23","20:00","-40.4","","-44.5","","66","","","","35","","8","","24.1","","100.75","","","","-50","","Mainly Clear"
"-93.58","69.55","TALOYOAK A","2403855","2023-02-23 21:00","2023","02","23","21:00","-39.6","","-43.7","","67","","","","36","","12","","24.1","","100.70","","","","-52","","NA"
"-93.58","69.55","TALOYOAK A","2403855","2023-02-23 22:00","2023","02","23","22:00"
"-93.58","69.55","TALOYOAK A","2403855","2023-02-23 23:00","2023","02","23","23:00"
"-93.58","69.55","TALOYOAK A","2403855","2023-02-24 00:00","2023","02","24","00:00"
"-93.58","69.55","TALOYOAK A","2403855","2023-02-24 01:00","2023","02","24","01:00"
"-93.58","69.55","TALOYOAK A","2403855","2023-02-24 02:00","2023","02","24","02:00"
"-93.58","69.55","TALOYOAK A","2403855","2023-02-24 03:00","2023","02","24","03:00"
"-93.58","69.55","TALOYOAK A","2403855","2023-02-24 04:00","2023","02","24","04:00"
"-93.58","69.55","TALOYOAK A","2403855","2023-02-24 05:00","2023","02","24","05:00"
"-93.58","69.55","TALOYOAK A","2403855","2023-02-24 06:00","2023","02","24","06:00"
"-93.58","69.55","TALOYOAK A","2403855","2023-02-24 07:00","2023","02","24","07:00"
"-93.58","69.55","TALOYOAK A","2403855","2023-02-24 08:00","2023","02","24","08:00"
"-93.58","69.55","TALOYOAK A","2403855","2023-02-24 09:00","2023","02","24","09:00"
"-93.58","69.55","TALOYOAK A","2403855","2023-02-24 10:00","2023","02","24","10:00","-38.5","","-42.4","","67","","","","17","","10","","2.4","","99.82","","","","-49","","Snow Grains,Fog"
"-93.58","69.55","TALOYOAK A","2403855","2023-02-24 11:00","2023","02","24","11:00","-38.5","","-42.6","","67","","","","17","","15","","19.3","","99.70","","","","-52","","Ice Crystals"
"-93.58","69.55","TALOYOAK A","2403855","2023-02-24 12:00","2023","02","24","12:00","-37.8","","-41.8","","67","","","","17","","14","","16.1","","99.63","","","","-51","","Ice Crystals"
"-93.58","69.55","TALOYOAK A","2403855","2023-02-24 13:00","2023","02","24","13:00","-36.9","","-40.8","","68","","","","14","","9","","12.9","","99.57","","","","-47","","Ice Crystals"
"-93.58","69.55","TALOYOAK A","2403855","2023-02-24 14:00","2023","02","24","14:00","-37.3","","-41.2","","68","","","","14","","12","","8.1","","99.52","","","","-49","","Ice Crystals"
"-93.58","69.55","TALOYOAK A","2403855","2023-02-24 15:00","2023","02","24","15:00","-37.4","","-41.3","","68","","","","14","","12","","8.1","","99.44","","","","-49","","Ice Crystals"
"-93.58","69.55","TALOYOAK A","2403855","2023-02-24 16:00","2023","02","24","16:00","-37.7","","-41.6","","68","","","","15","","13","","8.1","","99.38","","","","-50","","Ice Crystals"
"-93.58","69.55","TALOYOAK A","2403855","2023-02-24 17:00","2023","02","24","17:00","-37.2","","-41.1","","68","","","","15","","16","","19.3","","99.33","","","","-51","","Ice Crystals"
"-93.58","69.55","TALOYOAK A","2403855","2023-02-24 18:00","2023","02","24","18:00","-36.8","","-40.7","","68","","","","13","","10","","16.1","","99.23","","","","-47","","Ice Crystals"
"-93.58","69.55","TALOYOAK A","2403855","2023-02-24 19:00","2023","02","24","19:00","-36.5","","-40.4","","69","","","","14","","15","","9.7","","99.16","","","","-49","","Snow,Fog"
"-93.58","69.55","TALOYOAK A","2403855","2023-02-24 20:00","2023","02","24","20:00","-34.7","","-38.4","","70","","","","16","","10","","6.4","","99.06","","","","-45","","Snow,Fog"
"-93.58","69.55","TALOYOAK A","2403855","2023-02-24 21:00","2023","02","24","21:00"
"-93.58","69.55","TALOYOAK A","2403855","2023-02-24 22:00","2023","02","24","22:00","-32.4","","-36.0","","71","","","","25","","16","","6.4","","98.92","","","","-45","","Snow Grains,Fog"
"-93.58","69.55","TALOYOAK A","2403855","2023-02-24 23:00","2023","02","24","23:00","-32.7","","-36.3","","71","","","","30","","22","","4.8","","98.93","","","","-47","","Snow Grains,Fog,Blowing Snow"
"-93.58","69.55","TALOYOAK A","2403855","2023-02-25 00:00","2023","02","25","00:00","-32.4","","-35.9","","71","","","","30","","15","","4.8","","98.87","","","","-44","","Snow Grains,Fog,Blowing Snow"
"-93.58","69.55","TALOYOAK A","2403855","2023-02-25 01:00","2023","02","25","01:00","-32.4","","-36.0","","71","","","","28","","18","","4.8","","98.86","","","","-45","","Snow Grains,Blowing Snow"
"-93.58","69.55","TALOYOAK A","2403855","2023-02-25 02:00","2023","02","25","02:00","-32.0","","-35.5","","72","","","","29","","31","","4.8","","98.80","","","","-48","","Snow Grains,Blowing Snow"
"-93.58","69.55","TALOYOAK A","2403855","2023-02-25 03:00","2023","02","25","03:00","-32.0","","-35.5","","72","","","","23","","9","","4.8","","98.80","","","","-41","","Snow"
"-93.58","69.55","TALOYOAK A","2403855","2023-02-25 04:00","2023","02","25","04:00","-31.3","","-34.8","","72","","","","28","","11","","4.8","","98.77","","","","-41","","Snow"
"-93.58","69.55","TALOYOAK A","2403855","2023-02-25 05:00","2023","02","25","05:00","-31.3","","-34.7","","72","","","","32","","4","","4.8","","98.76","","","","-36","","Snow"
"-93.58","69.55","TALOYOAK A","2403855","2023-02-25 06:00","2023","02","25","06:00","-30.8","","-34.2","","73","","","","30","","4","","6.4","","98.75","","","","-35","","Snow"
"-93.58","69.55","TALOYOAK A","2403855","2023-02-25 07:00","2023","02","25","07:00","-31.2","","-34.6","","73","","","","13","","11","","6.4","","98.73","","","","-41","","Snow"
"-93.58","69.55","TALOYOAK A","2403855","2023-02-25 08:00","2023","02","25","08:00","-31.2","","-34.7","","72","","","","26","","12","","9.7","","98.73","","","","-42","","Snow"
"-93.58","69.55","TALOYOAK A","2403855","2023-02-25 09:00","2023","02","25","09:00","-30.5","","-33.9","","73","","","","26","","17","","6.4","","98.68","","","","-43","","Snow,Fog"
"-93.58","69.55","TALOYOAK A","2403855","2023-02-25 10:00","2023","02","25","10:00","-30.4","","-33.8","","73","","","","21","","9","","6.4","","98.70","","","","-39","","Snow,Fog"
"-93.58","69.55","TALOYOAK A","2403855","2023-02-25 11:00","2023","02","25","11:00","-30.0","","-33.4","","73","","","","27","","14","","19.3","","98.68","","","","-41","","Snow"
"-93.58","69.55","TALOYOAK A","2403855","2023-02-25 12:00","2023","02","25","12:00","-30.4","","-33.8","","73","","","","29","","13","","11.3","","98.68","","","","-41","","Snow"
"-93.58","69.55","TALOYOAK A","2403855","2023-02-25 13:00","2023","02","25","13:00","-30.7","","-34.1","","73","","","","31","","9","","12.9","","98.71","","","","-39","","Snow"
"-93.58","69.55","TALOYOAK A","2403855","2023-02-25 14:00","2023","02","25","14:00","-30.8","","-34.2","","73","","","","32","","23","","12.9","","98.71","","","","-45","","Snow"
"-93.58","69.55","TALOYOAK A","2403855","2023-02-25 15:00","2023","02","25","15:00","-31.2","","-34.6","","73","","","","30","","26","","12.9","","98.72","","","","-46","","Snow"
"-93.58","69.55","TALOYOAK A","2403855","2023-02-25 16:00","2023","02","25","16:00","-31.6","","-35.1","","72","","","","33","","12","","11.3","","98.75","","","","-42","","Snow"
"-93.58","69.55","TALOYOAK A","2403855","2023-02-25 17:00","2023","02","25","17:00","-31.3","","-34.7","","73","","","","31","","32","","6.4","","98.71","","","","-48","","Snow,Blowing Snow"
"-93.58","69.55","TALOYOAK A","2403855","2023-02-25 18:00","2023","02","25","18:00","-32.1","","-35.6","","72","","","","31","","26","","11.3","","98.75","","","","-47","","Snow,Blowing Snow"
"-93.58","69.55","TALOYOAK A","2403855","2023-02-25 19:00","2023","02","25","19:00","-32.1","","-35.6","","72","","","","28","","10","","4.8","","98.80","","","","-42","","Snow"
"-93.58","69.55","TALOYOAK A","2403855","2023-02-25 20:00","2023","02","25","20:00","-30.9","","-34.2","","73","","","","27","","9","","9.7","","98.82","","","","-40","","Snow"
"-93.58","69.55","TALOYOAK A","2403855","2023-02-25 21:00","2023","02","25","21:00","-34.5","","-38.1","","70","","","","13","","9","","9.7","","98.84","","","","-44","","Snow"
"-93.58","69.55","TALOYOAK A","2403855","2023-02-25 22:00","2023","02","25","22:00","-35.2","","-38.8","","70","","","","16","","7","","12.9","","98.85","","","","-43","","Snow"
"-93.58","69.55","TALOYOAK A","2403855","2023-02-25 23:00","2023","02","25","23:00","-35.8","","-39.5","","70","","","","15","","10","","16.1","","98.90","","","","-46","","Snow"
"-93.58","69.55","TALOYOAK A","2403855","2023-02-26 00:00","2023","02","26","00:00","-36.0","","-39.8","","69","","","","16","","6","","9.7","","98.94","","","","-43","","Snow"
"-93.58","69.55","TALOYOAK A","2403855","2023-02-26 01:00","2023","02","26","01:00","-36.5","","-40.2","","69","","","","14","","10","","16.1","","99.00","","","","-47","","Snow"
"-93.58","69.55","TALOYOAK A","2403855","2023-02-26 02:00","2023","02","26","02:00","-37.0","","-40.8","","69","","","","14","","13","","16.1","","99.04","","","","-49","","Snow"
"-93.58","69.55","TALOYOAK A","2403855","2023-02-26 03:00","2023","02","26","03:00"
"-93.58","69.55","TALOYOAK A","2403855","2023-02-26 04:00","2023","02","26","04:00"
"-93.58","69.55","TALOYOAK A","2403855","2023-02-26 05:00","2023","02","26","05:00","-36.7","","-40.5","","69","","","","16","","15","","16.1","","99.24","","","","-50","","Snow"
"-93.58","69.55","TALOYOAK A","2403855","2023-02-26 06:00","2023","02","26","06:00","-38.0","","-41.9","","68","","","","17","","16","","19.3","","99.31","","","","-52","","Snow"
"-93.58","69.55","TALOYOAK A","2403855","2023-02-26 07:00","2023","02","26","07:00","-38.0","","-41.9","","68","","","","15","","14","","24.1","","99.38","","","","-51","","Ice Crystals"
"-93.58","69.55","TALOYOAK A","2403855","2023-02-26 08:00","2023","02","26","08:00","-37.1","","-40.9","","69","","","","16","","8","","16.1","","99.47","","","","-46","","Ice Crystals"
"-93.58","69.55","TALOYOAK A","2403855","2023-02-26 09:00","2023","02","26","09:00","-38.4","","-42.3","","68","","","","16","","9","","24.1","","99.57","","","","-49","","Ice Crystals"
"-93.58","69.55","TALOYOAK A","2403855","2023-02-26 10:00","2023","02","26","10:00","-38.0","","-41.9","","68","","","","15","","8","","24.1","","99.67","","","","-47","","Ice Crystals"
"-93.58","69.55","TALOYOAK A","2403855","2023-02-26 11:00","2023","02","26","11:00","-37.8","","-41.8","","68","","","","17","","7","","24.1","","99.76","","","","-46","","Mainly Clear"
"-93.58","69.55","TALOYOAK A","2403855","2023-02-26 12:00","2023","02","26","12:00","-37.5","","-41.4","","68","","","","36","","2","","24.1","","99.85","","","","-40","","NA"
"-93.58","69.55","TALOYOAK A","2403855","2023-02-26 13:00","2023","02","26","13:00","-37.7","","-41.6","","67","","","","3","","6","","24.1","","99.92","","","","-45","","NA"
"-93.58","69.55","TALOYOAK A","2403855","2023-02-26 14:00","2023","02","26","14:00","-37.3","","-41.2","","68","","","","3","","7","","24.1","","100.02","","","","-46","","Clear"
"-93.58","69.55","TALOYOAK A","2403855","2023-02-26 15:00","2023","02","26","15:00","-37.8","","-41.7","","68","","","","6","","5","","24.1","","100.08","","","","-44","","NA"
"-93.58","69.55","TALOYOAK A","2403855","2023-02-26 16:00","2023","02","26","16:00","-38.3","","-42.1","","68","","","","36","","3","","24.1","","100.14","","","","-42","","Ice Crystals"
"-93.58","69.55","TALOYOAK A","2403855","2023-02-26 17:00","2023","02","26","17:00","-39.3","","-43.3","","67","","","","36","","6","","24.1","","100.19","","","","-47","","Ice Crystals"
"-93.58","69.55","TALOYOAK A","2403855","2023-02-26 18:00","2023","02","26","18:00","-39.6","","-43.5","","67","","","","2","","9","","24.1","","100.24","","","","-50","","Ice Crystals"
"-93.58","69.55","TALOYOAK A","2403855","2023-02-26 19:00","2023","02","26","19:00","-39.9","","-43.9","","67","","","","4","","11","","24.1","","100.28","","","","-52","","Snow"
"-93.58","69.55","TALOYOAK A","2403855","2023-02-26 20:00","2023","02","26","20:00","-39.7","","-43.6","","67","","","","3","","13","","19.3","","100.33","","","","-52","","Snow"
"-93.58","69.55","TALOYOAK A","2403855","2023-02-26 21:00","2023","02","26","21:00","-39.5","","-43.4","","67","","","","1","","13","","16.1","","100.37","","","","-52","","Snow"
"-93.58","69.55","TALOYOAK A","2403855","2023-02-26 22:00","2023","02","26","22:00","-38.9","","-42.7","","68","","","","1","","13","","16.1","","100.39","","","","-51","","Snow"
"-93.58","69.55","TALOYOAK A","2403855","2023-02-26 23:00","2023","02","26","23:00","-39.5","","-43.5","","67","","","","2","","12","","16.1","","100.42","","","","-52","","Snow"
"-93.58","69.55","TALOYOAK A","2403855","2023-02-27 00:00","2023","02","27","00:00","-39.7","","-43.6","","67","","","","1","","12","","16.1","","100.47","","","","-52","","Snow"
"-93.58","69.55","TALOYOAK A","2403855","2023-02-27 01:00","2023","02","27","01:00","-39.1","","-43.0","","67","","","","3","","15","","16.1","","100.49","","","","-53","","Snow"
"-93.58","69.55","TALOYOAK A","2403855","2023-02-27 02:00","2023","02","27","02:00","-39.6","","-43.5","","67","","","","3","","13","","16.1","","100.54","","","","-52","","Snow"
"-93.58","69.55","TALOYOAK A","2403855","2023-02-27 03:00","2023","02","27","03:00"
"-93.58","69.55","TALOYOAK A","2403855","2023-02-27 04:00","2023","02","27","04:00"
"-93.58","69.55","TALOYOAK A","2403855","2023-02-27 05:00","2023","02","27","05:00","-38.0","","-41.9","","68","","","","3","","15","","16.1","","100.58","","","","-51","","Snow"
"-93.58","69.55","TALOYOAK A","2403855","2023-02-27 06:00","2023","02","27","06:00","-38.7","","-42.6","","68","","","","2","","12","","16.1","","100.58","","","","-51","","Snow"
"-93.58","69.55","TALOYOAK A","2403855","2023-02-27 07:00","2023","02","27","07:00","-38.0","","-41.9","","68","","","","4","","17","","16.1","","100.61","","","","-52","","Snow"
"-93.58","69.55","TALOYOAK A","2403855","2023-02-27 08:00","2023","02","27","08:00","-37.0","","-40.9","","69","","","","4","","16","","24.1","","100.58","","","","-50","","Ice Crystals"
"-93.58","69.55","TALOYOAK A","2403855","2023-02-27 09:00","2023","02","27","09:00","-37.0","","-40.9","","68","","","","3","","13","","19.3","","100.61","","","","-49","","Ice Crystals"
"-93.58","69.55","TALOYOAK A","2403855","2023-02-27 10:00","2023","02","27","10:00","-36.2","","-40.0","","69","","","","4","","14","","24.1","","100.60","","","","-49","","Ice Crystals"
"-93.58","69.55","TALOYOAK A","2403855","2023-02-27 11:00","2023","02","27","11:00","-35.5","","-39.2","","69","","","","4","","16","","24.1","","100.58","","","","-49","","Ice Crystals"
"-93.58","69.55","TALOYOAK A","2403855","2023-02-27 12:00","2023","02","27","12:00","-35.0","","-38.8","","70","","","","5","","13","","19.3","","100.59","","","","-47","","Ice Crystals"
"-93.58","69.55","TALOYOAK A","2403855","2023-02-27 13:00","2023","02","27","13:00","-36.9","","-40.8","","68","","","","36","","9","","24.1","","100.60","","","","-47","","Ice Crystals"
"-93.58","69.55","TALOYOAK A","2403855","2023-02-27 14:00","2023","02","27","14:00","-37.0","","-40.8","","68","","","","1","","12","","24.1","","100.66","","","","-49","","Ice Crystals"
"-93.58","69.55","TALOYOAK A","2403855","2023-02-27 15:00","2023","02","27","15:00","-36.2","","-40.0","","69","","","","2","","11","","24.1","","100.65","","","","-47","","Snow"
"-93.58","69.55","TALOYOAK A","2403855","2023-02-27 16:00","2023","02","27","16:00","-37.0","","-40.8","","69","","","","1","","10","","24.1","","100.68","","","","-48","","Snow"
"-93.58","69.55","TALOYOAK A","2403855","2023-02-27 17:00","2023","02","27","17:00","-38.3","","-42.2","","68","","","","1","","13","","24.1","","100.69","","","","-51","","Ice Crystals"
"-93.58","69.55","TALOYOAK A","2403855","2023-02-27 18:00","2023","02","27","18:00","-38.9","","-42.8","","68","","","","1","","13","","24.1","","100.73","","","","-51","","Ice Crystals"
"-93.58","69.55","TALOYOAK A","2403855","2023-02-27 19:00","2023","02","27","19:00","-38.4","","-42.2","","68","","","","1","","13","","19.3","","100.74","","","","-51","","Snow"
"-93.58","69.55","TALOYOAK A","2403855","2023-02-27 20:00","2023","02","27","20:00","-38.6","","-42.5","","68","","","","2","","11","","24.1","","100.76","","","","-50","","Snow"
"-93.58","69.55","TALOYOAK A","2403855","2023-02-27 21:00","2023","02","27","21:00","-38.3","","-42.2","","68","","","","1","","8","","24.1","","100.80","","","","-48","","Snow"
"-93.58","69.55","TALOYOAK A","2403855","2023-02-27 22:00","2023","02","27","22:00","-37.9","","-41.8","","68","","","","12","","4","","24.1","","100.80","","","","-43","","Snow"
"-93.58","69.55","TALOYOAK A","2403855","2023-02-27 23:00","2023","02","27","23:00","-37.0","","-40.8","","69","","","","9","","7","","24.1","","100.80","","","","-45","","Snow"
"-93.58","69.55","TALOYOAK A","2403855","2023-02-28 00:00","2023","02","28","00:00","-37.9","","-41.7","","68","","","","16","","6","","24.1","","100.78","","","","-46","","Snow"
"-93.58","69.55","TALOYOAK A","2403855","2023-02-28 01:00","2023","02","28","01:00","-38.6","","-42.5","","68","","","","14","","10","","24.1","","100.82","","","","-49","","Snow,Ice Crystals"
"-93.58","69.55","TALOYOAK A","2403855","2023-02-28 02:00","2023","02","28","02:00","-38.7","","-42.6","","68","","","","15","","12","","24.1","","100.82","","","","-51","","Ice Crystals"
"-93.58","69.55","TALOYOAK A","2403855","2023-02-28 03:00","2023","02","28","03:00","-38.6","","-42.5","","68","","","","15","","10","","24.1","","100.82","","","","-49","","Ice Crystals"
"-93.58","69.55","TALOYOAK A","2403855","2023-02-28 04:00","2023","02","28","04:00","-39.1","","-43.0","","67","","","","17","","14","","24.1","","100.83","","","","-52","","Ice Crystals"
"-93.58","69.55","TALOYOAK A","2403855","2023-02-28 05:00","2023","02","28","05:00","-39.6","","-43.6","","67","","","","16","","11","","24.1","","100.86","","","","-51","","Ice Crystals"
"-93.58","69.55","TALOYOAK A","2403855","2023-02-28 06:00","2023","02","28","06:00","-39.4","","-43.4","","67","","","","15","","10","","24.1","","100.87","","","","-50","","Ice Crystals"
"-93.58","69.55","TALOYOAK A","2403855","2023-02-28 07:00","2023","02","28","07:00","-39.2","","-43.2","","67","","","","16","","12","","24.1","","100.93","","","","-51","","Ice Crystals"
"-93.58","69.55","TALOYOAK A","2403855","2023-02-28 08:00","2023","02","28","08:00","-38.9","","-42.9","","67","","","","16","","13","","24.1","","100.96","","","","-51","","Ice Crystals"
"-93.58","69.55","TALOYOAK A","2403855","2023-02-28 09:00","2023","02","28","09:00","-38.4","","-42.4","","67","","","","15","","16","","16.1","","100.96","","","","-52","","Ice Crystals"
"-93.58","69.55","TALOYOAK A","2403855","2023-02-28 10:00","2023","02","28","10:00","-37.3","","-41.2","","68","","","","17","","18","","24.1","","101.01","","","","-52","","Ice Crystals"
"-93.58","69.55","TALOYOAK A","2403855","2023-02-28 11:00","2023","02","28","11:00","-37.0","","-40.9","","68","","","","15","","19","","12.9","","101.01","","","","-52","","Ice Crystals"
"-93.58","69.55","TALOYOAK A","2403855","2023-02-28 12:00","2023","02","28","12:00","-36.9","","-40.8","","68","","","","16","","18","","16.1","","101.07","","","","-51","","Ice Crystals"
"-93.58","69.55","TALOYOAK A","2403855","2023-02-28 13:00","2023","02","28","13:00","-36.9","","-40.8","","68","","","","16","","22","","16.1","","101.09","","","","-52","","Ice Crystals"
"-93.58","69.55","TALOYOAK A","2403855","2023-02-28 14:00","2023","02","28","14:00","-36.9","","-40.8","","68","","","","17","","22","","16.1","","101.16","","","","-52","","Ice Crystals,Blowing Snow"
"-93.58","69.55","TALOYOAK A","2403855","2023-02-28 15:00","2023","02","28","15:00","-37.3","","-41.2","","68","","","","17","","21","","16.1","","101.24","","","","-53","","Ice Crystals"
"-93.58","69.55","TALOYOAK A","2403855","2023-02-28 16:00","2023","02","28","16:00","-38.1","","-42.1","","68","","","","16","","18","","16.1","","101.26","","","","-53","","Ice Crystals,Blowing Snow"
"-93.58","69.55","TALOYOAK A","2403855","2023-02-28 17:00","2023","02","28","17:00","-38.6","","-42.5","","68","","","","16","","19","","19.3","","101.32","","","","-54","","Ice Crystals"
"-93.58","69.55","TALOYOAK A","2403855","2023-02-28 18:00","2023","02","28","18:00","-38.5","","-42.4","","68","","","","18","","22","","8.1","","101.36","","","","-54","","Snow Grains,Fog"
"-93.58","69.55","TALOYOAK A","2403855","2023-02-28 19:00","2023","02","28","19:00","-38.0","","-41.9","","68","","","","17","","22","","6.4","","101.40","","","","-54","","Snow Grains,Blowing Snow"
"-93.58","69.55","TALOYOAK A","2403855","2023-02-28 20:00","2023","02","28","20:00","-38.2","","-42.1","","68","","","","18","","25","","4.8","","101.43","","","","-55","","Snow,Blowing Snow"
"-93.58","69.55","TALOYOAK A","2403855","2023-02-28 21:00","2023","02","28","21:00","-39.0","","-43.0","","67","","","","18","","27","","4.8","","101.46","","","","-57","","Snow,Blowing Snow"
"-93.58","69.55","TALOYOAK A","2403855","2023-02-28 22:00","2023","02","28","22:00"
"-93.58","69.55","TALOYOAK A","2403855","2023-02-28 23:00","2023","02","28","23:00"
