"Longitude (x)","Latitude (y)","Station Name","Climate ID","Date/Time (LST)","Year","Month","Day","Time (LST)","Temp (°C)","Temp Flag","Dew Point Temp (°C)","Dew Point Temp Flag","Rel Hum (%)","Rel Hum Flag","Precip. Amount (mm)","Precip. Amount Flag","Wind Dir (10s deg)","Wind Dir Flag","Wind Spd (km/h)","Wind Spd Flag","Visibility (km)","Visibility Flag","Stn Press (kPa)","Stn Press Flag","Hmdx","Hmdx Flag","Wind Chill","Wind Chill Flag","Weather"
"-96.08","64.30","BAKER LAKE A","2300503","2021-11-01 00:00","2021","11","01","00:00","-5.2","","-7.0","","87","","","","35","","12","","24.1","","102.24","","","","-10","","Snow"
"-96.08","64.30","BAKER LAKE A","2300503","2021-11-01 01:00","2021","11","01","01:00","-5.4","","-8.2","","81","","","","34","","11","","24.1","","102.24","","","","-10","","Snow"
"-96.08","64.30","BAKER LAKE A","2300503","2021-11-01 02:00","2021","11","01","02:00","-5.5","","-8.1","","82","","","","33","","9","","24.1","","102.25","","","","-10","","Snow"
"-96.08","64.30","BAKER LAKE A","2300503","2021-11-01 03:00","2021","11","01","03:00","-5.3","","-7.9","","82","","","","35","","8","","24.1","","102.25","","","","-9","","Snow"
"-96.08","64.30","BAKER LAKE A","2300503","2021-11-01 04:00","2021","11","01","04:00","-5.3","","-8.1","","81","","","","31","","8","","24.1","","102.28","","","","-9","","Snow"
"-96.08","64.30","BAKER LAKE A","2300503","2021-11-01 05:00","2021","11","01","05:00","-5.3","","-7.8","","83","","","","31","","7","","24.1","","102.29","","","","-9","","Snow"
"-96.08","64.30","BAKER LAKE A","2300503","2021-11-01 06:00","2021","11","01","06:00","-5.2","","-7.8","","82","","","","34","","8","","24.1","","102.28","","","","-9","","Snow"
"-96.08","64.30","BAKER LAKE A","2300503","2021-11-01 07:00","2021","11","01","07:00","-5.3","","-7.7","","83","","","","2","","8","","24.1","","102.30","","","","-9","","Snow"
"-96.08","64.30","BAKER LAKE A","2300503","2021-11-01 08:00","2021","11","01","08:00","-5.9","","-7.6","","88","","","","2","","9","","24.1","","102.30","","","","-10","","Snow"
"-96.08","64.30","BAKER LAKE A","2300503","2021-11-01 09:00","2021","11","01","09:00","-6.3","","-7.9","","89","","","","3","","8","","24.1","","102.31","","","","-10","","Snow"
"-96.08","64.30","BAKER LAKE A","2300503","2021-11-01 10:00","2021","11","01","10:00","-5.9","","-7.7","","87","","","","1","","9","","24.1","","102.30","","","","-10","","Snow"
"-96.08","64.30","BAKER LAKE A","2300503","2021-11-01 11:00","2021","11","01","11:00","-6.1","","-8.2","","86","","","","1","","5","","24.1","","102.28","","","","-9","","Snow"
"-96.08","64.30","BAKER LAKE A","2300503","2021-11-01 12:00","2021","11","01","12:00","-5.4","","-8.2","","81","","","","31","","10","","32.2","","102.28","","","","-10","","Mostly Cloudy"
"-96.08","64.30","BAKER LAKE A","2300503","2021-11-01 13:00","2021","11","01","13:00","-5.4","","-8.4","","80","","","","35","","7","","32.2","","102.28","","","","-9","","NA"
"-96.08","64.30","BAKER LAKE A","2300503","2021-11-01 14:00","2021","11","01","14:00","-5.4","","-8.6","","78","","","","34","","8","","32.2","","102.28","","","","-9","","NA"
"-96.08","64.30","BAKER LAKE A","2300503","2021-11-01 15:00","2021","11","01","15:00","-5.2","","-8.3","","79","","","","34","","8","","32.2","","102.26","","","","-9","","Mostly Cloudy"
"-96.08","64.30","BAKER LAKE A","2300503","2021-11-01 16:00","2021","11","01","16:00","-5.9","","-8.7","","81","","","","36","","8","","32.2","","102.27","","","","-10","","NA"
"-96.08","64.30","BAKER LAKE A","2300503","2021-11-01 17:00","2021","11","01","17:00","-7.8","","-9.8","","86","","","","32","","8","","32.2","","102.25","","","","-12","","NA"
"-96.08","64.30","BAKER LAKE A","2300503","2021-11-01 18:00","2021","11","01","18:00","-7.8","","-9.8","","85","","","","31","","7","","24.1","","102.25","","","","-11","","Mainly Clear"
"-96.08","64.30","BAKER LAKE A","2300503","2021-11-01 19:00","2021","11","01","19:00","-8.3","","-10.3","","86","","","","31","","5","","24.1","","102.21","","","","-11","","NA"
"-96.08","64.30","BAKER LAKE A","2300503","2021-11-01 20:00","2021","11","01","20:00","-9.1","","-10.9","","87","","","","31","","8","","24.1","","102.18","","","","-13","","NA"
"-96.08","64.30","BAKER LAKE A","2300503","2021-11-01 21:00","2021","11","01","21:00","-8.7","","-10.7","","86","","","","33","","5","","24.1","","102.17","","","","-11","","Mainly Clear"
"-96.08","64.30","BAKER LAKE A","2300503","2021-11-01 22:00","2021","11","01","22:00","-8.1","","-9.5","","90","","","","25","","13","","24.1","","102.13","","","","-14","","NA"
"-96.08","64.30","BAKER LAKE A","2300503","2021-11-01 23:00","2021","11","01","23:00","-8.0","","-9.2","","91","","","","25","","10","","24.1","","102.10","","","","-13","","NA"
"-96.08","64.30","BAKER LAKE A","2300503","2021-11-02 00:00","2021","11","02","00:00","-7.7","","-9.0","","91","","","","22","","9","","24.1","","102.08","","","","-12","","Mainly Clear"
"-96.08","64.30","BAKER LAKE A","2300503","2021-11-02 01:00","2021","11","02","01:00","-7.8","","-8.6","","94","","","","22","","10","","4.8","","102.05","","","","-13","","Fog"
"-96.08","64.30","BAKER LAKE A","2300503","2021-11-02 02:00","2021","11","02","02:00","-8.4","","-9.6","","91","","","","20","","10","","24.1","","102.02","","","","-13","","NA"
"-96.08","64.30","BAKER LAKE A","2300503","2021-11-02 03:00","2021","11","02","03:00","-8.9","","-10.1","","91","","","","20","","10","","24.1","","102.01","","","","-14","","Mainly Clear"
"-96.08","64.30","BAKER LAKE A","2300503","2021-11-02 04:00","2021","11","02","04:00","-9.6","","-11.0","","90","","","","21","","9","","24.1","","101.97","","","","-14","","NA"
"-96.08","64.30","BAKER LAKE A","2300503","2021-11-02 05:00","2021","11","02","05:00","-9.7","","-11.0","","90","","","","24","","10","","24.1","","101.93","","","","-15","","NA"
"-96.08","64.30","BAKER LAKE A","2300503","2021-11-02 06:00","2021","11","02","06:00","-10.2","","-11.5","","90","","","","25","","9","","24.1","","101.90","","","","-15","","Mainly Clear"
"-96.08","64.30","BAKER LAKE A","2300503","2021-11-02 07:00","2021","11","02","07:00","-9.5","","-10.4","","93","","","","36","","1","","16.1","","101.84","","","","-10","","NA"
"-96.08","64.30","BAKER LAKE A","2300503","2021-11-02 08:00","2021","11","02","08:00","-9.1","","-10.1","","93","","","","23","","4","","4.8","","101.78","","","","-11","","Fog"
"-96.08","64.30","BAKER LAKE A","2300503","2021-11-02 09:00","2021","11","02","09:00","-9.0","","-10.0","","92","","","","26","","4","","1.0","","101.73","","","","-11","","Fog"
"-96.08","64.30","BAKER LAKE A","2300503","2021-11-02 10:00","2021","11","02","10:00","-7.8","","-8.8","","92","","","","24","","8","","4.8","","101.70","","","","-12","","Fog"
"-96.08","64.30","BAKER LAKE A","2300503","2021-11-02 11:00","2021","11","02","11:00","-6.7","","-7.7","","93","","","","21","","14","","16.1","","101.67","","","","-12","","NA"
"-96.08","64.30","BAKER LAKE A","2300503","2021-11-02 12:00","2021","11","02","12:00","-5.4","","-6.3","","94","","","","22","","11","","32.2","","101.62","","","","-10","","Mostly Cloudy"
"-96.08","64.30","BAKER LAKE A","2300503","2021-11-02 13:00","2021","11","02","13:00","-5.2","","-6.1","","94","","","","23","","9","","32.2","","101.59","","","","-9","","NA"
"-96.08","64.30","BAKER LAKE A","2300503","2021-11-02 14:00","2021","11","02","14:00","-4.7","","-5.5","","94","","","","20","","9","","32.2","","101.56","","","","-9","","NA"
"-96.08","64.30","BAKER LAKE A","2300503","2021-11-02 15:00","2021","11","02","15:00","-4.8","","-5.8","","93","","","","20","","11","","32.2","","101.50","","","","-9","","Mostly Cloudy"
"-96.08","64.30","BAKER LAKE A","2300503","2021-11-02 16:00","2021","11","02","16:00","-5.2","","-6.2","","93","","","","19","","16","","32.2","","101.47","","","","-11","","NA"
"-96.08","64.30","BAKER LAKE A","2300503","2021-11-02 17:00","2021","11","02","17:00","-5.0","","-6.2","","92","","","","22","","17","","24.1","","101.49","","","","-11","","NA"
"-96.08","64.30","BAKER LAKE A","2300503","2021-11-02 18:00","2021","11","02","18:00","-5.3","","-6.2","","93","","","","20","","18","","24.1","","101.43","","","","-12","","Mostly Cloudy"
"-96.08","64.30","BAKER LAKE A","2300503","2021-11-02 19:00","2021","11","02","19:00","-5.3","","-6.1","","94","","","","21","","14","","24.1","","101.40","","","","-11","","NA"
"-96.08","64.30","BAKER LAKE A","2300503","2021-11-02 20:00","2021","11","02","20:00","-4.7","","-5.7","","93","","","","22","","17","","24.1","","101.33","","","","-11","","NA"
"-96.08","64.30","BAKER LAKE A","2300503","2021-11-02 21:00","2021","11","02","21:00","-5.2","","-6.0","","94","","","","25","","7","","24.1","","101.29","","","","-8","","Cloudy"
"-96.08","64.30","BAKER LAKE A","2300503","2021-11-02 22:00","2021","11","02","22:00","-5.2","","-6.0","","94","","","","25","","16","","24.1","","101.25","","","","-11","","NA"
"-96.08","64.30","BAKER LAKE A","2300503","2021-11-02 23:00","2021","11","02","23:00","-5.8","","-6.8","","93","","","","25","","14","","24.1","","101.26","","","","-11","","NA"
"-96.08","64.30","BAKER LAKE A","2300503","2021-11-03 00:00","2021","11","03","00:00","-6.0","","-6.8","","94","","","","21","","12","","4.8","","101.23","","","","-11","","Fog"
"-96.08","64.30","BAKER LAKE A","2300503","2021-11-03 01:00","2021","11","03","01:00","-5.5","","-6.3","","94","","","","25","","9","","4.8","","101.22","","","","-10","","Snow,Fog"
"-96.08","64.30","BAKER LAKE A","2300503","2021-11-03 02:00","2021","11","03","02:00","-5.6","","-6.5","","94","","","","23","","11","","24.1","","101.19","","","","-10","","Snow"
"-96.08","64.30","BAKER LAKE A","2300503","2021-11-03 03:00","2021","11","03","03:00","-5.7","","-6.6","","93","","","","23","","13","","24.1","","101.14","","","","-11","","Snow"
"-96.08","64.30","BAKER LAKE A","2300503","2021-11-03 04:00","2021","11","03","04:00","-6.5","","-7.4","","93","","","","26","","8","","24.1","","101.14","","","","-10","","Snow"
"-96.08","64.30","BAKER LAKE A","2300503","2021-11-03 05:00","2021","11","03","05:00","-5.9","","-6.8","","93","","","","28","","10","","24.1","","101.10","","","","-10","","Snow"
"-96.08","64.30","BAKER LAKE A","2300503","2021-11-03 06:00","2021","11","03","06:00","-5.5","","-6.5","","93","","","","32","","8","","24.1","","101.09","","","","-9","","Snow"
"-96.08","64.30","BAKER LAKE A","2300503","2021-11-03 07:00","2021","11","03","07:00","-5.6","","-6.6","","93","","","","28","","5","","24.1","","101.06","","","","-8","","Snow"
"-96.08","64.30","BAKER LAKE A","2300503","2021-11-03 08:00","2021","11","03","08:00","-5.6","","-6.5","","94","","","","35","","7","","32.2","","101.07","","","","-9","","Snow"
"-96.08","64.30","BAKER LAKE A","2300503","2021-11-03 09:00","2021","11","03","09:00","-5.7","","-6.6","","93","","","","34","","11","","32.2","","101.09","","","","-10","","Cloudy"
"-96.08","64.30","BAKER LAKE A","2300503","2021-11-03 10:00","2021","11","03","10:00","-5.7","","-6.8","","92","","","","13","","3","","32.2","","101.10","","","","-7","","NA"
"-96.08","64.30","BAKER LAKE A","2300503","2021-11-03 11:00","2021","11","03","11:00","-5.5","","-6.7","","91","","","","31","","6","","24.1","","101.08","","","","-8","","NA"
"-96.08","64.30","BAKER LAKE A","2300503","2021-11-03 12:00","2021","11","03","12:00","-5.2","","-6.6","","90","","","","24","","6","","32.2","","101.09","","","","-8","","Cloudy"
"-96.08","64.30","BAKER LAKE A","2300503","2021-11-03 13:00","2021","11","03","13:00","-5.2","","-6.5","","90","","","","28","","7","","32.2","","101.06","","","","-8","","NA"
"-96.08","64.30","BAKER LAKE A","2300503","2021-11-03 14:00","2021","11","03","14:00","-5.1","","-6.4","","91","","","","21","","4","","32.2","","101.03","","","","-7","","NA"
"-96.08","64.30","BAKER LAKE A","2300503","2021-11-03 15:00","2021","11","03","15:00","-5.2","","-6.6","","90","","","","21","","4","","32.2","","101.03","","","","-7","","Cloudy"
"-96.08","64.30","BAKER LAKE A","2300503","2021-11-03 16:00","2021","11","03","16:00","-5.4","","-6.4","","93","","","","20","","8","","32.2","","101.03","","","","-9","","NA"
"-96.08","64.30","BAKER LAKE A","2300503","2021-11-03 17:00","2021","11","03","17:00","-5.0","","-5.8","","94","","","","10","","7","","24.1","","101.04","","","","-8","","NA"
"-96.08","64.30","BAKER LAKE A","2300503","2021-11-03 18:00","2021","11","03","18:00","-5.5","","-6.5","","93","","","","35","","10","","24.1","","101.05","","","","-10","","Cloudy"
"-96.08","64.30","BAKER LAKE A","2300503","2021-11-03 19:00","2021","11","03","19:00","-5.1","","-6.1","","92","","","","29","","4","","24.1","","101.00","","","","-7","","Snow"
"-96.08","64.30","BAKER LAKE A","2300503","2021-11-03 20:00","2021","11","03","20:00","-4.7","","-5.9","","92","","","","19","","8","","24.1","","100.96","","","","-8","","Snow"
"-96.08","64.30","BAKER LAKE A","2300503","2021-11-03 21:00","2021","11","03","21:00","-5.0","","-6.2","","91","","","","15","","20","","24.1","","100.91","","","","-12","","Snow"
"-96.08","64.30","BAKER LAKE A","2300503","2021-11-03 22:00","2021","11","03","22:00","-4.9","","-6.1","","91","","","","13","","19","","24.1","","100.91","","","","-11","","Snow"
"-96.08","64.30","BAKER LAKE A","2300503","2021-11-03 23:00","2021","11","03","23:00","-5.2","","-6.5","","91","","","","15","","16","","24.1","","100.89","","","","-11","","Snow"
"-96.08","64.30","BAKER LAKE A","2300503","2021-11-04 00:00","2021","11","04","00:00","-4.9","","-6.0","","92","","","","16","","21","","24.1","","100.85","","","","-12","","Snow"
"-96.08","64.30","BAKER LAKE A","2300503","2021-11-04 01:00","2021","11","04","01:00","-4.7","","-5.8","","92","","","","17","","13","","24.1","","100.80","","","","-10","","Snow"
"-96.08","64.30","BAKER LAKE A","2300503","2021-11-04 02:00","2021","11","04","02:00","-5.0","","-6.3","","91","","","","17","","18","","24.1","","100.76","","","","-11","","Snow"
"-96.08","64.30","BAKER LAKE A","2300503","2021-11-04 03:00","2021","11","04","03:00","-4.8","","-6.0","","91","","","","16","","20","","24.1","","100.72","","","","-11","","Cloudy"
"-96.08","64.30","BAKER LAKE A","2300503","2021-11-04 04:00","2021","11","04","04:00","-4.4","","-5.5","","91","","","","16","","22","","24.1","","100.68","","","","-11","","NA"
"-96.08","64.30","BAKER LAKE A","2300503","2021-11-04 05:00","2021","11","04","05:00","-4.5","","-5.8","","90","","","","16","","20","","24.1","","100.62","","","","-11","","NA"
"-96.08","64.30","BAKER LAKE A","2300503","2021-11-04 06:00","2021","11","04","06:00","-4.7","","-6.0","","91","","","","15","","24","","24.1","","100.59","","","","-12","","Cloudy"
"-96.08","64.30","BAKER LAKE A","2300503","2021-11-04 07:00","2021","11","04","07:00","-4.6","","-5.9","","91","","","","16","","22","","24.1","","100.55","","","","-11","","NA"
"-96.08","64.30","BAKER LAKE A","2300503","2021-11-04 08:00","2021","11","04","08:00","-4.6","","-6.1","","89","","","","17","","23","","32.2","","100.50","","","","-12","","NA"
"-96.08","64.30","BAKER LAKE A","2300503","2021-11-04 09:00","2021","11","04","09:00","-4.4","","-6.0","","88","","","","17","","19","","32.2","","100.45","","","","-11","","Cloudy"
"-96.08","64.30","BAKER LAKE A","2300503","2021-11-04 10:00","2021","11","04","10:00","-4.2","","-5.8","","89","","","","17","","23","","32.2","","100.42","","","","-11","","NA"
"-96.08","64.30","BAKER LAKE A","2300503","2021-11-04 11:00","2021","11","04","11:00","-3.8","","-5.3","","89","","","","17","","19","","32.2","","100.36","","","","-10","","NA"
"-96.08","64.30","BAKER LAKE A","2300503","2021-11-04 12:00","2021","11","04","12:00","-3.9","","-5.6","","88","","","","17","","21","","32.2","","100.32","","","","-10","","Cloudy"
"-96.08","64.30","BAKER LAKE A","2300503","2021-11-04 13:00","2021","11","04","13:00","-3.6","","-5.3","","88","","","","16","","17","","32.2","","100.29","","","","-9","","NA"
"-96.08","64.30","BAKER LAKE A","2300503","2021-11-04 14:00","2021","11","04","14:00","-3.2","","-5.1","","87","","","","15","","30","","32.2","","100.26","","","","-11","","NA"
"-96.08","64.30","BAKER LAKE A","2300503","2021-11-04 15:00","2021","11","04","15:00","-3.3","","-5.3","","86","","","","16","","22","","32.2","","100.23","","","","-10","","Cloudy"
"-96.08","64.30","BAKER LAKE A","2300503","2021-11-04 16:00","2021","11","04","16:00","-3.5","","-5.4","","87","","","","16","","23","","24.1","","100.19","","","","-10","","NA"
"-96.08","64.30","BAKER LAKE A","2300503","2021-11-04 17:00","2021","11","04","17:00","-3.5","","-5.1","","89","","","","14","","26","","24.1","","100.16","","","","-11","","NA"
"-96.08","64.30","BAKER LAKE A","2300503","2021-11-04 18:00","2021","11","04","18:00","-3.7","","-5.3","","89","","","","14","","24","","24.1","","100.11","","","","-11","","Cloudy"
"-96.08","64.30","BAKER LAKE A","2300503","2021-11-04 19:00","2021","11","04","19:00","-3.9","","-5.5","","88","","","","16","","23","","24.1","","100.08","","","","-11","","NA"
"-96.08","64.30","BAKER LAKE A","2300503","2021-11-04 20:00","2021","11","04","20:00","-4.2","","-5.6","","90","","","","17","","19","","24.1","","100.04","","","","-10","","NA"
"-96.08","64.30","BAKER LAKE A","2300503","2021-11-04 21:00","2021","11","04","21:00","-4.0","","-5.5","","90","","","","16","","25","","24.1","","100.03","","","","-11","","Cloudy"
"-96.08","64.30","BAKER LAKE A","2300503","2021-11-04 22:00","2021","11","04","22:00","-4.1","","-5.4","","90","","","","17","","23","","24.1","","100.01","","","","-11","","NA"
"-96.08","64.30","BAKER LAKE A","2300503","2021-11-04 23:00","2021","11","04","23:00","-4.2","","-5.4","","91","","","","17","","27","","24.1","","99.97","","","","-12","","NA"
"-96.08","64.30","BAKER LAKE A","2300503","2021-11-05 00:00","2021","11","05","00:00","-4.1","","-5.3","","91","","","","16","","26","","24.1","","99.93","","","","-11","","Cloudy"
"-96.08","64.30","BAKER LAKE A","2300503","2021-11-05 01:00","2021","11","05","01:00","-3.8","","-5.1","","91","","","","17","","24","","24.1","","99.89","","","","-11","","NA"
"-96.08","64.30","BAKER LAKE A","2300503","2021-11-05 02:00","2021","11","05","02:00","-4.0","","-5.2","","92","","","","16","","28","","24.1","","99.84","","","","-11","","NA"
"-96.08","64.30","BAKER LAKE A","2300503","2021-11-05 03:00","2021","11","05","03:00","-4.3","","-5.4","","92","","","","19","","19","","24.1","","99.90","","","","-10","","Cloudy"
"-96.08","64.30","BAKER LAKE A","2300503","2021-11-05 04:00","2021","11","05","04:00","-4.1","","-5.3","","92","","","","18","","19","","24.1","","99.86","","","","-10","","NA"
"-96.08","64.30","BAKER LAKE A","2300503","2021-11-05 05:00","2021","11","05","05:00","-4.3","","-5.4","","93","","","","18","","16","","24.1","","99.81","","","","-10","","NA"
"-96.08","64.30","BAKER LAKE A","2300503","2021-11-05 06:00","2021","11","05","06:00","-4.4","","-5.8","","90","","","","17","","23","","24.1","","99.85","","","","-11","","Cloudy"
"-96.08","64.30","BAKER LAKE A","2300503","2021-11-05 07:00","2021","11","05","07:00","-4.7","","-5.8","","92","","","","18","","22","","24.1","","99.85","","","","-12","","NA"
"-96.08","64.30","BAKER LAKE A","2300503","2021-11-05 08:00","2021","11","05","08:00","-4.7","","-5.8","","92","","","","19","","15","","16.1","","99.85","","","","-10","","Freezing Drizzle"
"-96.08","64.30","BAKER LAKE A","2300503","2021-11-05 09:00","2021","11","05","09:00","-4.6","","-5.8","","91","","","","21","","9","","16.1","","99.84","","","","-8","","Snow"
"-96.08","64.30","BAKER LAKE A","2300503","2021-11-05 10:00","2021","11","05","10:00","-4.3","","-5.8","","89","","","","20","","9","","32.2","","99.83","","","","-8","","NA"
"-96.08","64.30","BAKER LAKE A","2300503","2021-11-05 11:00","2021","11","05","11:00","-4.0","","-5.7","","88","","","","23","","12","","24.1","","99.86","","","","-9","","NA"
"-96.08","64.30","BAKER LAKE A","2300503","2021-11-05 12:00","2021","11","05","12:00","-3.9","","-6.0","","86","","","","26","","4","","24.1","","99.88","","","","-6","","Cloudy"
"-96.08","64.30","BAKER LAKE A","2300503","2021-11-05 13:00","2021","11","05","13:00","-4.0","","-6.1","","85","","","","29","","4","","24.1","","99.91","","","","-6","","NA"
"-96.08","64.30","BAKER LAKE A","2300503","2021-11-05 14:00","2021","11","05","14:00","-3.7","","-5.7","","86","","","","3","","8","","24.1","","99.92","","","","-7","","NA"
"-96.08","64.30","BAKER LAKE A","2300503","2021-11-05 15:00","2021","11","05","15:00","-3.7","","-5.4","","88","","","","36","","6","","24.1","","99.98","","","","-6","","Cloudy"
"-96.08","64.30","BAKER LAKE A","2300503","2021-11-05 16:00","2021","11","05","16:00","-3.7","","-5.1","","90","","","","33","","8","","24.1","","100.03","","","","-7","","Snow"
"-96.08","64.30","BAKER LAKE A","2300503","2021-11-05 17:00","2021","11","05","17:00","-3.3","","-4.8","","90","","","","32","","18","","16.1","","100.08","","","","-9","","Snow"
"-96.08","64.30","BAKER LAKE A","2300503","2021-11-05 18:00","2021","11","05","18:00","-3.2","","-4.8","","89","","","","33","","25","","16.1","","100.15","","","","-10","","Snow"
"-96.08","64.30","BAKER LAKE A","2300503","2021-11-05 19:00","2021","11","05","19:00","-3.0","","-4.5","","89","","","","33","","19","","24.1","","100.20","","","","-9","","Snow"
"-96.08","64.30","BAKER LAKE A","2300503","2021-11-05 20:00","2021","11","05","20:00","-3.0","","-4.8","","87","","","","33","","16","","24.1","","100.26","","","","-8","","Snow"
"-96.08","64.30","BAKER LAKE A","2300503","2021-11-05 21:00","2021","11","05","21:00","-3.0","","-5.2","","85","","","","33","","19","","24.1","","100.31","","","","-9","","Snow"
"-96.08","64.30","BAKER LAKE A","2300503","2021-11-05 22:00","2021","11","05","22:00","-2.9","","-5.0","","85","","","","33","","22","","24.1","","100.32","","","","-9","","NA"
"-96.08","64.30","BAKER LAKE A","2300503","2021-11-05 23:00","2021","11","05","23:00","-2.8","","-4.6","","88","","","","34","","19","","24.1","","100.38","","","","-9","","NA"
"-96.08","64.30","BAKER LAKE A","2300503","2021-11-06 00:00","2021","11","06","00:00","-2.8","","-4.1","","91","","","","33","","20","","24.1","","100.44","","","","-9","","Cloudy"
"-96.08","64.30","BAKER LAKE A","2300503","2021-11-06 01:00","2021","11","06","01:00","-2.8","","-4.0","","91","","","","34","","12","","24.1","","100.50","","","","-7","","NA"
"-96.08","64.30","BAKER LAKE A","2300503","2021-11-06 02:00","2021","11","06","02:00","-2.7","","-4.5","","88","","","","34","","21","","24.1","","100.51","","","","-9","","NA"
"-96.08","64.30","BAKER LAKE A","2300503","2021-11-06 03:00","2021","11","06","03:00","-2.9","","-4.3","","90","","","","34","","19","","24.1","","100.55","","","","-9","","Cloudy"
"-96.08","64.30","BAKER LAKE A","2300503","2021-11-06 04:00","2021","11","06","04:00","-2.9","","-5.0","","86","","","","33","","17","","24.1","","100.58","","","","-8","","NA"
"-96.08","64.30","BAKER LAKE A","2300503","2021-11-06 05:00","2021","11","06","05:00","-3.0","","-5.1","","86","","","","33","","14","","24.1","","100.60","","","","-8","","NA"
"-96.08","64.30","BAKER LAKE A","2300503","2021-11-06 06:00","2021","11","06","06:00","-2.9","","-4.6","","88","","","","32","","10","","24.1","","100.63","","","","-7","","Cloudy"
"-96.08","64.30","BAKER LAKE A","2300503","2021-11-06 07:00","2021","11","06","07:00","-2.6","","-4.1","","90","","","","32","","10","","16.1","","100.63","","","","-6","","Snow"
"-96.08","64.30","BAKER LAKE A","2300503","2021-11-06 08:00","2021","11","06","08:00","-2.5","","-4.1","","89","","","","33","","12","","32.2","","100.63","","","","-7","","Snow"
"-96.08","64.30","BAKER LAKE A","2300503","2021-11-06 09:00","2021","11","06","09:00","-2.4","","-4.1","","88","","","","31","","8","","32.2","","100.66","","","","-6","","Snow"
"-96.08","64.30","BAKER LAKE A","2300503","2021-11-06 10:00","2021","11","06","10:00","-2.7","","-4.3","","89","","","","30","","14","","32.2","","100.69","","","","-8","","NA"
"-96.08","64.30","BAKER LAKE A","2300503","2021-11-06 11:00","2021","11","06","11:00","-3.7","","-5.0","","91","","","","29","","18","","32.2","","100.71","","","","-10","","Snow"
"-96.08","64.30","BAKER LAKE A","2300503","2021-11-06 12:00","2021","11","06","12:00","-3.1","","-4.5","","90","","","","30","","18","","11.3","","100.72","","","","-9","","Snow"
"-96.08","64.30","BAKER LAKE A","2300503","2021-11-06 13:00","2021","11","06","13:00","-2.7","","-4.2","","89","","","","30","","12","","24.1","","100.73","","","","-7","","Snow"
"-96.08","64.30","BAKER LAKE A","2300503","2021-11-06 14:00","2021","11","06","14:00","-2.7","","-4.4","","88","","","","29","","13","","32.2","","100.74","","","","-7","","Snow"
"-96.08","64.30","BAKER LAKE A","2300503","2021-11-06 15:00","2021","11","06","15:00","-3.6","","-4.9","","90","","","","30","","16","","32.2","","100.76","","","","-9","","Mostly Cloudy"
"-96.08","64.30","BAKER LAKE A","2300503","2021-11-06 16:00","2021","11","06","16:00","-4.2","","-5.5","","91","","","","29","","4","","32.2","","100.78","","","","-6","","NA"
"-96.08","64.30","BAKER LAKE A","2300503","2021-11-06 17:00","2021","11","06","17:00","-5.7","","-6.7","","93","","","","36","","2","","24.1","","100.82","","","","-7","","NA"
"-96.08","64.30","BAKER LAKE A","2300503","2021-11-06 18:00","2021","11","06","18:00","-5.7","","-6.9","","91","","","","29","","4","","24.1","","100.83","","","","-8","","Mostly Cloudy"
"-96.08","64.30","BAKER LAKE A","2300503","2021-11-06 19:00","2021","11","06","19:00","-5.3","","-6.3","","93","","","","23","","10","","24.1","","100.84","","","","-10","","NA"
"-96.08","64.30","BAKER LAKE A","2300503","2021-11-06 20:00","2021","11","06","20:00","-5.2","","-6.3","","92","","","","26","","3","","24.1","","100.84","","","","-7","","NA"
"-96.08","64.30","BAKER LAKE A","2300503","2021-11-06 21:00","2021","11","06","21:00","-4.7","","-5.6","","93","","","","34","","7","","24.1","","100.83","","","","-8","","Mostly Cloudy"
"-96.08","64.30","BAKER LAKE A","2300503","2021-11-06 22:00","2021","11","06","22:00","-4.2","","-5.1","","94","","","","34","","7","","24.1","","100.83","","","","-7","","NA"
"-96.08","64.30","BAKER LAKE A","2300503","2021-11-06 23:00","2021","11","06","23:00","-4.3","","-5.2","","94","","","","35","","5","","24.1","","100.83","","","","-6","","NA"
"-96.08","64.30","BAKER LAKE A","2300503","2021-11-07 00:00","2021","11","07","00:00","-3.9","","-4.9","","93","","","","35","","8","","24.1","","100.83","","","","-7","","Cloudy"
"-96.08","64.30","BAKER LAKE A","2300503","2021-11-07 01:00","2021","11","07","01:00","-3.9","","-5.1","","92","","","","36","","9","","24.1","","100.84","","","","-8","","NA"
"-96.08","64.30","BAKER LAKE A","2300503","2021-11-07 02:00","2021","11","07","02:00"
"-96.08","64.30","BAKER LAKE A","2300503","2021-11-07 03:00","2021","11","07","03:00"
"-96.08","64.30","BAKER LAKE A","2300503","2021-11-07 04:00","2021","11","07","04:00"
"-96.08","64.30","BAKER LAKE A","2300503","2021-11-07 05:00","2021","11","07","05:00","-4.0","","-5.3","","90","","","","34","","10","","24.1","","100.83","","","","-8","","NA"
"-96.08","64.30","BAKER LAKE A","2300503","2021-11-07 06:00","2021","11","07","06:00","-4.0","","-5.3","","91","","","","36","","14","","24.1","","100.82","","","","-9","","Cloudy"
"-96.08","64.30","BAKER LAKE A","2300503","2021-11-07 07:00","2021","11","07","07:00","-3.6","","-4.7","","92","","","","1","","10","","24.1","","100.81","","","","-8","","NA"
"-96.08","64.30","BAKER LAKE A","2300503","2021-11-07 08:00","2021","11","07","08:00","-2.2","","-3.3","","93","","","","6","","13","","24.1","","100.82","","","","-7","","Snow"
"-96.08","64.30","BAKER LAKE A","2300503","2021-11-07 09:00","2021","11","07","09:00","-2.2","","-3.5","","91","","","","6","","16","","16.1","","100.83","","","","-7","","Snow"
"-96.08","64.30","BAKER LAKE A","2300503","2021-11-07 10:00","2021","11","07","10:00","-2.2","","-3.6","","90","","","","5","","15","","24.1","","100.79","","","","-7","","Snow"
"-96.08","64.30","BAKER LAKE A","2300503","2021-11-07 11:00","2021","11","07","11:00","-1.9","","-3.2","","91","","","","5","","17","","24.1","","100.77","","","","-7","","Snow"
"-96.08","64.30","BAKER LAKE A","2300503","2021-11-07 12:00","2021","11","07","12:00","-1.2","","-2.4","","92","","","","6","","17","","16.1","","100.73","","","","-6","","Snow"
"-96.08","64.30","BAKER LAKE A","2300503","2021-11-07 13:00","2021","11","07","13:00","0.0","","-0.6","","96","","","","11","","20","","16.1","","100.72","","","","-5","","Snow"
"-96.08","64.30","BAKER LAKE A","2300503","2021-11-07 14:00","2021","11","07","14:00","0.3","","-0.6","","94","","","","11","","23","","4.8","","100.72","","","","","","Snow"
"-96.08","64.30","BAKER LAKE A","2300503","2021-11-07 15:00","2021","11","07","15:00","0.3","","-0.5","","94","","","","11","","33","","6.4","","100.72","","","","","","Snow"
"-96.08","64.30","BAKER LAKE A","2300503","2021-11-07 16:00","2021","11","07","16:00","0.3","","-0.4","","95","","","","12","","30","","6.4","","100.73","","","","","","Snow"
"-96.08","64.30","BAKER LAKE A","2300503","2021-11-07 17:00","2021","11","07","17:00","0.4","","-0.4","","94","","","","12","","29","","8.1","","100.75","","","","","","Snow"
"-96.08","64.30","BAKER LAKE A","2300503","2021-11-07 18:00","2021","11","07","18:00","0.4","","-0.5","","94","","","","12","","25","","9.7","","100.76","","","","","","Snow"
"-96.08","64.30","BAKER LAKE A","2300503","2021-11-07 19:00","2021","11","07","19:00","0.3","","-0.8","","92","","","","12","","23","","16.1","","100.77","","","","","","NA"
"-96.08","64.30","BAKER LAKE A","2300503","2021-11-07 20:00","2021","11","07","20:00","0.3","","-1.3","","89","","","","11","","24","","24.1","","100.78","","","","","","NA"
"-96.08","64.30","BAKER LAKE A","2300503","2021-11-07 21:00","2021","11","07","21:00","0.0","","-2.0","","87","","","","11","","27","","24.1","","100.78","","","","-6","","Cloudy"
"-96.08","64.30","BAKER LAKE A","2300503","2021-11-07 22:00","2021","11","07","22:00","-0.2","","-1.9","","88","","","","12","","26","","24.1","","100.78","","","","-6","","NA"
"-96.08","64.30","BAKER LAKE A","2300503","2021-11-07 23:00","2021","11","07","23:00","-0.4","","-2.4","","87","","","","12","","32","","24.1","","100.77","","","","-7","","NA"
"-96.08","64.30","BAKER LAKE A","2300503","2021-11-08 00:00","2021","11","08","00:00","-0.4","","-2.4","","86","","","","11","","32","","24.1","","100.79","","","","-7","","Mostly Cloudy"
"-96.08","64.30","BAKER LAKE A","2300503","2021-11-08 01:00","2021","11","08","01:00","-0.6","","-2.6","","86","","","","11","","32","","24.1","","100.78","","","","-7","","Snow"
"-96.08","64.30","BAKER LAKE A","2300503","2021-11-08 02:00","2021","11","08","02:00","-0.6","","-2.9","","84","","","","11","","35","","24.1","","100.76","","","","-8","","Snow"
"-96.08","64.30","BAKER LAKE A","2300503","2021-11-08 03:00","2021","11","08","03:00","-0.6","","-3.0","","84","","","","11","","40","","24.1","","100.74","","","","-8","","Cloudy"
"-96.08","64.30","BAKER LAKE A","2300503","2021-11-08 04:00","2021","11","08","04:00","-2.2","","-3.4","","92","","","","7","","32","","24.1","","100.73","","","","-10","","Snow"
"-96.08","64.30","BAKER LAKE A","2300503","2021-11-08 05:00","2021","11","08","05:00","-2.0","","-3.0","","93","","","","8","","33","","16.1","","100.73","","","","-9","","Snow"
"-96.08","64.30","BAKER LAKE A","2300503","2021-11-08 06:00","2021","11","08","06:00","-2.3","","-3.3","","93","","","","8","","34","","12.9","","100.72","","","","-10","","Snow"
"-96.08","64.30","BAKER LAKE A","2300503","2021-11-08 07:00","2021","11","08","07:00","-2.4","","-3.8","","90","","","","8","","34","","16.1","","100.72","","","","-10","","Snow"
"-96.08","64.30","BAKER LAKE A","2300503","2021-11-08 08:00","2021","11","08","08:00","-2.6","","-4.1","","89","","","","8","","35","","24.1","","100.72","","","","-10","","Snow"
"-96.08","64.30","BAKER LAKE A","2300503","2021-11-08 09:00","2021","11","08","09:00","-2.8","","-4.2","","90","","","","8","","35","","12.9","","100.73","","","","-11","","Snow,Blowing Snow"
"-96.08","64.30","BAKER LAKE A","2300503","2021-11-08 10:00","2021","11","08","10:00","-2.8","","-4.3","","89","","","","7","","35","","12.9","","100.72","","","","-11","","Snow,Blowing Snow"
"-96.08","64.30","BAKER LAKE A","2300503","2021-11-08 11:00","2021","11","08","11:00","-2.8","","-4.2","","90","","","","7","","34","","4.8","","100.71","","","","-11","","Snow,Blowing Snow"
"-96.08","64.30","BAKER LAKE A","2300503","2021-11-08 12:00","2021","11","08","12:00","-2.9","","-4.5","","89","","","","7","","32","","12.9","","100.72","","","","-10","","Snow,Blowing Snow"
"-96.08","64.30","BAKER LAKE A","2300503","2021-11-08 13:00","2021","11","08","13:00","-2.7","","-4.4","","88","","","","7","","33","","12.9","","100.71","","","","-10","","Snow,Blowing Snow"
"-96.08","64.30","BAKER LAKE A","2300503","2021-11-08 14:00","2021","11","08","14:00","-3.0","","-4.7","","89","","","","6","","35","","14.5","","100.70","","","","-11","","Snow,Blowing Snow"
"-96.08","64.30","BAKER LAKE A","2300503","2021-11-08 15:00","2021","11","08","15:00","-3.1","","-4.7","","89","","","","6","","30","","6.4","","100.72","","","","-11","","Snow,Blowing Snow"
"-96.08","64.30","BAKER LAKE A","2300503","2021-11-08 16:00","2021","11","08","16:00","-3.2","","-4.7","","90","","","","5","","30","","6.4","","100.73","","","","-11","","Snow,Blowing Snow"
"-96.08","64.30","BAKER LAKE A","2300503","2021-11-08 17:00","2021","11","08","17:00","-3.2","","-4.8","","89","","","","5","","28","","16.1","","100.75","","","","-10","","Snow,Blowing Snow"
"-96.08","64.30","BAKER LAKE A","2300503","2021-11-08 18:00","2021","11","08","18:00","-2.8","","-4.3","","89","","","","5","","28","","24.1","","100.77","","","","-10","","Snow,Blowing Snow"
"-96.08","64.30","BAKER LAKE A","2300503","2021-11-08 19:00","2021","11","08","19:00","-2.6","","-4.1","","90","","","","5","","26","","24.1","","100.80","","","","-9","","Snow,Blowing Snow"
"-96.08","64.30","BAKER LAKE A","2300503","2021-11-08 20:00","2021","11","08","20:00","-2.5","","-4.0","","90","","","","6","","26","","24.1","","100.82","","","","-9","","Snow,Blowing Snow"
"-96.08","64.30","BAKER LAKE A","2300503","2021-11-08 21:00","2021","11","08","21:00","-2.1","","-3.5","","90","","","","5","","28","","24.1","","100.84","","","","-9","","Snow"
"-96.08","64.30","BAKER LAKE A","2300503","2021-11-08 22:00","2021","11","08","22:00","-2.3","","-3.7","","90","","","","6","","30","","24.1","","100.86","","","","-9","","Snow"
"-96.08","64.30","BAKER LAKE A","2300503","2021-11-08 23:00","2021","11","08","23:00","-2.4","","-3.9","","89","","","","6","","26","","24.1","","100.91","","","","-9","","NA"
"-96.08","64.30","BAKER LAKE A","2300503","2021-11-09 00:00","2021","11","09","00:00","-2.9","","-4.5","","89","","","","5","","24","","24.1","","100.96","","","","-10","","Snow"
"-96.08","64.30","BAKER LAKE A","2300503","2021-11-09 01:00","2021","11","09","01:00","-3.3","","-5.2","","87","","","","5","","26","","24.1","","101.00","","","","-10","","Snow"
"-96.08","64.30","BAKER LAKE A","2300503","2021-11-09 02:00","2021","11","09","02:00","-4.4","","-6.2","","87","","","","4","","25","","24.1","","101.08","","","","-12","","Snow"
"-96.08","64.30","BAKER LAKE A","2300503","2021-11-09 03:00","2021","11","09","03:00","-4.8","","-6.6","","87","","","","4","","22","","24.1","","101.13","","","","-12","","Snow"
"-96.08","64.30","BAKER LAKE A","2300503","2021-11-09 04:00","2021","11","09","04:00","-5.8","","-7.7","","87","","","","1","","18","","24.1","","101.22","","","","-12","","Snow"
"-96.08","64.30","BAKER LAKE A","2300503","2021-11-09 05:00","2021","11","09","05:00","-5.8","","-7.7","","87","","","","1","","21","","24.1","","101.28","","","","-13","","NA"
"-96.08","64.30","BAKER LAKE A","2300503","2021-11-09 06:00","2021","11","09","06:00","-6.3","","-8.3","","86","","","","1","","22","","24.1","","101.35","","","","-14","","Mainly Clear"
"-96.08","64.30","BAKER LAKE A","2300503","2021-11-09 07:00","2021","11","09","07:00","-6.3","","-8.3","","86","","","","36","","12","","24.1","","101.42","","","","-11","","NA"
"-96.08","64.30","BAKER LAKE A","2300503","2021-11-09 08:00","2021","11","09","08:00","-6.4","","-8.4","","86","","","","34","","9","","24.1","","101.46","","","","-11","","NA"
"-96.08","64.30","BAKER LAKE A","2300503","2021-11-09 09:00","2021","11","09","09:00","-6.0","","-7.7","","87","","","","36","","16","","40.2","","101.50","","","","-12","","Snow"
"-96.08","64.30","BAKER LAKE A","2300503","2021-11-09 10:00","2021","11","09","10:00","-7.0","","-8.8","","87","","","","35","","15","","40.2","","101.57","","","","-13","","Snow"
"-96.08","64.30","BAKER LAKE A","2300503","2021-11-09 11:00","2021","11","09","11:00","-6.5","","-8.6","","85","","","","36","","19","","40.2","","101.61","","","","-13","","Snow"
"-96.08","64.30","BAKER LAKE A","2300503","2021-11-09 12:00","2021","11","09","12:00","-6.5","","-8.5","","86","","","","34","","17","","40.2","","101.67","","","","-13","","Snow"
"-96.08","64.30","BAKER LAKE A","2300503","2021-11-09 13:00","2021","11","09","13:00","-8.6","","-10.6","","86","","","","34","","23","","40.2","","101.71","","","","-17","","NA"
"-96.08","64.30","BAKER LAKE A","2300503","2021-11-09 14:00","2021","11","09","14:00","-8.3","","-10.0","","88","","","","35","","32","","40.2","","101.77","","","","-18","","NA"
"-96.08","64.30","BAKER LAKE A","2300503","2021-11-09 15:00","2021","11","09","15:00","-8.3","","-10.3","","85","","","","33","","26","","40.2","","101.85","","","","-17","","Mostly Cloudy"
"-96.08","64.30","BAKER LAKE A","2300503","2021-11-09 16:00","2021","11","09","16:00","-7.9","","-10.1","","84","","","","34","","26","","40.2","","101.93","","","","-16","","NA"
"-96.08","64.30","BAKER LAKE A","2300503","2021-11-09 17:00","2021","11","09","17:00","-9.3","","-11.8","","82","","","","34","","28","","24.1","","101.99","","","","-18","","Snow"
"-96.08","64.30","BAKER LAKE A","2300503","2021-11-09 18:00","2021","11","09","18:00","-11.8","","-14.4","","81","","","","34","","33","","24.1","","102.02","","","","-22","","Snow"
"-96.08","64.30","BAKER LAKE A","2300503","2021-11-09 19:00","2021","11","09","19:00","-13.4","","-16.3","","80","","","","34","","37","","24.1","","102.05","","","","-25","","Snow,Blowing Snow"
"-96.08","64.30","BAKER LAKE A","2300503","2021-11-09 20:00","2021","11","09","20:00","-13.5","","-16.0","","82","","","","35","","33","","24.1","","102.12","","","","-25","","Snow,Blowing Snow"
"-96.08","64.30","BAKER LAKE A","2300503","2021-11-09 21:00","2021","11","09","21:00","-14.7","","-17.6","","79","","","","34","","34","","24.1","","102.15","","","","-26","","Snow"
"-96.08","64.30","BAKER LAKE A","2300503","2021-11-09 22:00","2021","11","09","22:00","-14.8","","-17.6","","80","","","","34","","15","","24.1","","102.22","","","","-23","","Snow"
"-96.08","64.30","BAKER LAKE A","2300503","2021-11-09 23:00","2021","11","09","23:00","-14.4","","-17.3","","79","","","","31","","16","","24.1","","102.26","","","","-22","","Snow"
"-96.08","64.30","BAKER LAKE A","2300503","2021-11-10 00:00","2021","11","10","00:00","-13.4","","-16.1","","80","","","","30","","19","","24.1","","102.30","","","","-22","","Snow"
"-96.08","64.30","BAKER LAKE A","2300503","2021-11-10 01:00","2021","11","10","01:00","-13.3","","-16.1","","79","","","","30","","22","","24.1","","102.33","","","","-22","","Snow"
"-96.08","64.30","BAKER LAKE A","2300503","2021-11-10 02:00","2021","11","10","02:00","-12.7","","-15.9","","77","","","","34","","22","","24.1","","102.36","","","","-22","","Snow"
"-96.08","64.30","BAKER LAKE A","2300503","2021-11-10 03:00","2021","11","10","03:00","-12.3","","-15.5","","77","","","","33","","17","","24.1","","102.39","","","","-20","","Snow"
"-96.08","64.30","BAKER LAKE A","2300503","2021-11-10 04:00","2021","11","10","04:00","-12.3","","-15.6","","77","","","","33","","25","","24.1","","102.42","","","","-22","","Snow"
"-96.08","64.30","BAKER LAKE A","2300503","2021-11-10 05:00","2021","11","10","05:00","-12.6","","-15.8","","77","","","","34","","22","","24.1","","102.44","","","","-22","","Snow"
"-96.08","64.30","BAKER LAKE A","2300503","2021-11-10 06:00","2021","11","10","06:00","-13.1","","-16.2","","77","","","","35","","23","","24.1","","102.45","","","","-22","","Snow"
"-96.08","64.30","BAKER LAKE A","2300503","2021-11-10 07:00","2021","11","10","07:00","-13.2","","-16.2","","78","","","","1","","26","","24.1","","102.49","","","","-23","","Snow"
"-96.08","64.30","BAKER LAKE A","2300503","2021-11-10 08:00","2021","11","10","08:00","-12.9","","-15.9","","79","","","","36","","21","","24.1","","102.51","","","","-22","","Snow"
"-96.08","64.30","BAKER LAKE A","2300503","2021-11-10 09:00","2021","11","10","09:00","-13.0","","-16.3","","76","","","","34","","19","","24.1","","102.55","","","","-21","","Snow"
"-96.08","64.30","BAKER LAKE A","2300503","2021-11-10 10:00","2021","11","10","10:00","-12.9","","-16.2","","77","","","","33","","21","","32.2","","102.58","","","","-22","","Snow"
"-96.08","64.30","BAKER LAKE A","2300503","2021-11-10 11:00","2021","11","10","11:00","-12.2","","-15.7","","75","","","","3","","14","","32.2","","102.61","","","","-19","","Snow"
"-96.08","64.30","BAKER LAKE A","2300503","2021-11-10 12:00","2021","11","10","12:00","-12.1","","-15.7","","75","","","","2","","15","","40.2","","102.65","","","","-19","","Snow"
"-96.08","64.30","BAKER LAKE A","2300503","2021-11-10 13:00","2021","11","10","13:00","-12.0","","-15.4","","76","","","","1","","8","","40.2","","102.71","","","","-17","","Snow"
"-96.08","64.30","BAKER LAKE A","2300503","2021-11-10 14:00","2021","11","10","14:00","-12.0","","-15.3","","77","","","","36","","21","","40.2","","102.75","","","","-21","","Snow"
"-96.08","64.30","BAKER LAKE A","2300503","2021-11-10 15:00","2021","11","10","15:00","-12.5","","-15.6","","78","","","","36","","18","","40.2","","102.78","","","","-21","","Snow"
"-96.08","64.30","BAKER LAKE A","2300503","2021-11-10 16:00","2021","11","10","16:00","-16.3","","-18.9","","81","","","","35","","11","","40.2","","102.86","","","","-23","","NA"
"-96.08","64.30","BAKER LAKE A","2300503","2021-11-10 17:00","2021","11","10","17:00","-16.2","","-18.8","","81","","","","33","","17","","24.1","","102.90","","","","-25","","NA"
"-96.08","64.30","BAKER LAKE A","2300503","2021-11-10 18:00","2021","11","10","18:00","-16.6","","-19.2","","81","","","","32","","15","","24.1","","102.96","","","","-25","","Mainly Clear"
"-96.08","64.30","BAKER LAKE A","2300503","2021-11-10 19:00","2021","11","10","19:00","-16.9","","-19.5","","81","","","","34","","18","","24.1","","102.99","","","","-26","","NA"
"-96.08","64.30","BAKER LAKE A","2300503","2021-11-10 20:00","2021","11","10","20:00","-16.5","","-19.0","","81","","","","35","","15","","24.1","","103.00","","","","-25","","NA"
"-96.08","64.30","BAKER LAKE A","2300503","2021-11-10 21:00","2021","11","10","21:00","-18.1","","-20.9","","79","","","","32","","15","","24.1","","103.06","","","","-27","","Mainly Clear"
"-96.08","64.30","BAKER LAKE A","2300503","2021-11-10 22:00","2021","11","10","22:00","-18.9","","-21.9","","78","","","","31","","18","","24.1","","103.10","","","","-29","","NA"
"-96.08","64.30","BAKER LAKE A","2300503","2021-11-10 23:00","2021","11","10","23:00","-18.3","","-21.2","","78","","","","33","","16","","24.1","","103.14","","","","-27","","NA"
"-96.08","64.30","BAKER LAKE A","2300503","2021-11-11 00:00","2021","11","11","00:00","-18.9","","-21.6","","79","","","","32","","13","","24.1","","103.18","","","","-27","","Mainly Clear"
"-96.08","64.30","BAKER LAKE A","2300503","2021-11-11 01:00","2021","11","11","01:00","-18.6","","-21.5","","79","","","","33","","14","","24.1","","103.21","","","","-27","","NA"
"-96.08","64.30","BAKER LAKE A","2300503","2021-11-11 02:00","2021","11","11","02:00","-18.7","","-21.4","","79","","","","33","","16","","24.1","","103.25","","","","-28","","NA"
"-96.08","64.30","BAKER LAKE A","2300503","2021-11-11 03:00","2021","11","11","03:00","-18.2","","-20.7","","81","","","","35","","12","","24.1","","103.29","","","","-26","","Mainly Clear"
"-96.08","64.30","BAKER LAKE A","2300503","2021-11-11 04:00","2021","11","11","04:00","-18.6","","-21.6","","78","","","","36","","9","","24.1","","103.32","","","","-25","","NA"
"-96.08","64.30","BAKER LAKE A","2300503","2021-11-11 05:00","2021","11","11","05:00","-19.1","","-22.0","","78","","","","34","","12","","24.1","","103.33","","","","-27","","NA"
"-96.08","64.30","BAKER LAKE A","2300503","2021-11-11 06:00","2021","11","11","06:00","-19.3","","-22.1","","79","","","","34","","10","","24.1","","103.38","","","","-26","","Mainly Clear"
"-96.08","64.30","BAKER LAKE A","2300503","2021-11-11 07:00","2021","11","11","07:00","-18.3","","-20.7","","82","","","","34","","12","","24.1","","103.38","","","","-26","","Ice Crystals"
"-96.08","64.30","BAKER LAKE A","2300503","2021-11-11 08:00","2021","11","11","08:00","-18.9","","-20.9","","84","","","","32","","13","","24.1","","103.41","","","","-27","","Ice Crystals"
"-96.08","64.30","BAKER LAKE A","2300503","2021-11-11 09:00","2021","11","11","09:00","-19.1","","-21.1","","84","","","","28","","9","","32.2","","103.48","","","","-26","","Ice Crystals"
"-96.08","64.30","BAKER LAKE A","2300503","2021-11-11 10:00","2021","11","11","10:00","-19.6","","-21.6","","85","","","","32","","13","","16.1","","103.53","","","","-28","","Ice Crystals"
"-96.08","64.30","BAKER LAKE A","2300503","2021-11-11 11:00","2021","11","11","11:00","-19.8","","-22.3","","81","","","","33","","9","","32.2","","103.57","","","","-27","","Ice Crystals"
"-96.08","64.30","BAKER LAKE A","2300503","2021-11-11 12:00","2021","11","11","12:00","-19.5","","-21.9","","81","","","","29","","6","","32.2","","103.59","","","","-24","","Ice Crystals"
"-96.08","64.30","BAKER LAKE A","2300503","2021-11-11 13:00","2021","11","11","13:00","-19.1","","-21.8","","80","","","","30","","16","","32.2","","103.58","","","","-28","","Ice Crystals"
"-96.08","64.30","BAKER LAKE A","2300503","2021-11-11 14:00","2021","11","11","14:00","-19.0","","-21.6","","80","","","","30","","19","","32.2","","103.59","","","","-29","","Ice Crystals"
"-96.08","64.30","BAKER LAKE A","2300503","2021-11-11 15:00","2021","11","11","15:00","-19.3","","-21.7","","82","","","","30","","18","","32.2","","103.60","","","","-29","","Clear"
"-96.08","64.30","BAKER LAKE A","2300503","2021-11-11 16:00","2021","11","11","16:00","-19.8","","-22.1","","83","","","","29","","19","","24.1","","103.65","","","","-30","","Ice Crystals"
"-96.08","64.30","BAKER LAKE A","2300503","2021-11-11 17:00","2021","11","11","17:00","-19.8","","-22.0","","83","","","","30","","14","","24.1","","103.66","","","","-29","","Ice Crystals"
"-96.08","64.30","BAKER LAKE A","2300503","2021-11-11 18:00","2021","11","11","18:00","-20.0","","-22.4","","81","","","","30","","6","","24.1","","103.68","","","","-25","","Ice Crystals"
"-96.08","64.30","BAKER LAKE A","2300503","2021-11-11 19:00","2021","11","11","19:00","-18.7","","-20.9","","83","","","","30","","7","","16.1","","103.70","","","","-24","","Ice Crystals"
"-96.08","64.30","BAKER LAKE A","2300503","2021-11-11 20:00","2021","11","11","20:00","-19.7","","-22.1","","81","","","","29","","11","","16.1","","103.70","","","","-27","","Ice Crystals"
"-96.08","64.30","BAKER LAKE A","2300503","2021-11-11 21:00","2021","11","11","21:00","-19.5","","-21.9","","82","","","","30","","8","","8.1","","103.67","","","","-26","","Ice Crystals"
"-96.08","64.30","BAKER LAKE A","2300503","2021-11-11 22:00","2021","11","11","22:00","-20.3","","-22.8","","81","","","","29","","10","","6.4","","103.70","","","","-28","","Ice Crystals"
"-96.08","64.30","BAKER LAKE A","2300503","2021-11-11 23:00","2021","11","11","23:00","-20.3","","-22.8","","81","","","","30","","3","","3.2","","103.71","","","","-23","","Ice Crystals"
"-96.08","64.30","BAKER LAKE A","2300503","2021-11-12 00:00","2021","11","12","00:00","-19.3","","-21.7","","82","","","","31","","7","","1.0","","103.69","","","","-25","","Ice Crystals,Fog"
"-96.08","64.30","BAKER LAKE A","2300503","2021-11-12 01:00","2021","11","12","01:00","-17.6","","-19.9","","83","","","","24","","7","","1.0","","103.66","","","","-23","","Ice Crystals,Fog"
"-96.08","64.30","BAKER LAKE A","2300503","2021-11-12 02:00","2021","11","12","02:00","-16.4","","-18.5","","84","","","","20","","8","","1.2","","103.64","","","","-22","","Snow,Fog"
"-96.08","64.30","BAKER LAKE A","2300503","2021-11-12 03:00","2021","11","12","03:00","-17.1","","-19.4","","83","","","","20","","13","","9.7","","103.61","","","","-25","","Snow"
"-96.08","64.30","BAKER LAKE A","2300503","2021-11-12 04:00","2021","11","12","04:00","-19.4","","-21.9","","81","","","","18","","9","","16.1","","103.57","","","","-26","","Snow"
"-96.08","64.30","BAKER LAKE A","2300503","2021-11-12 05:00","2021","11","12","05:00","-20.2","","-22.8","","81","","","","18","","9","","24.1","","103.52","","","","-27","","Snow"
"-96.08","64.30","BAKER LAKE A","2300503","2021-11-12 06:00","2021","11","12","06:00","-21.0","","-23.6","","80","","","","21","","10","","24.1","","103.52","","","","-28","","Ice Crystals"
"-96.08","64.30","BAKER LAKE A","2300503","2021-11-12 07:00","2021","11","12","07:00","-20.7","","-23.1","","81","","","","19","","6","","24.1","","103.47","","","","-26","","Ice Crystals"
"-96.08","64.30","BAKER LAKE A","2300503","2021-11-12 08:00","2021","11","12","08:00","-19.5","","-21.9","","81","","","","18","","7","","32.2","","103.42","","","","-25","","Ice Crystals"
"-96.08","64.30","BAKER LAKE A","2300503","2021-11-12 09:00","2021","11","12","09:00","-18.4","","-20.7","","82","","","","18","","11","","32.2","","103.39","","","","-26","","Mainly Clear"
"-96.08","64.30","BAKER LAKE A","2300503","2021-11-12 10:00","2021","11","12","10:00","-18.1","","-20.4","","82","","","","18","","10","","32.2","","103.35","","","","-25","","NA"
"-96.08","64.30","BAKER LAKE A","2300503","2021-11-12 11:00","2021","11","12","11:00","-16.4","","-18.6","","84","","","","18","","13","","32.2","","103.30","","","","-24","","NA"
"-96.08","64.30","BAKER LAKE A","2300503","2021-11-12 12:00","2021","11","12","12:00","-16.2","","-18.4","","84","","","","18","","13","","32.2","","103.24","","","","-24","","Mostly Cloudy"
"-96.08","64.30","BAKER LAKE A","2300503","2021-11-12 13:00","2021","11","12","13:00","-16.0","","-18.2","","84","","","","17","","9","","32.2","","103.16","","","","-22","","NA"
"-96.08","64.30","BAKER LAKE A","2300503","2021-11-12 14:00","2021","11","12","14:00","-15.7","","-17.8","","84","","","","17","","11","","32.2","","103.09","","","","-22","","NA"
"-96.08","64.30","BAKER LAKE A","2300503","2021-11-12 15:00","2021","11","12","15:00","-15.6","","-17.7","","84","","","","17","","10","","32.2","","103.05","","","","-22","","Mostly Cloudy"
"-96.08","64.30","BAKER LAKE A","2300503","2021-11-12 16:00","2021","11","12","16:00","-15.2","","-17.2","","85","","","","18","","13","","32.2","","102.99","","","","-23","","NA"
"-96.08","64.30","BAKER LAKE A","2300503","2021-11-12 17:00","2021","11","12","17:00","-14.4","","-16.2","","86","","","","15","","11","","24.1","","102.90","","","","-21","","NA"
"-96.08","64.30","BAKER LAKE A","2300503","2021-11-12 18:00","2021","11","12","18:00","-14.3","","-16.3","","85","","","","17","","11","","24.1","","102.81","","","","-21","","Mainly Clear"
"-96.08","64.30","BAKER LAKE A","2300503","2021-11-12 19:00","2021","11","12","19:00","-13.8","","-15.7","","86","","","","12","","11","","24.1","","102.73","","","","-20","","NA"
"-96.08","64.30","BAKER LAKE A","2300503","2021-11-12 20:00","2021","11","12","20:00","-14.2","","-16.1","","86","","","","16","","12","","24.1","","102.69","","","","-21","","NA"
"-96.08","64.30","BAKER LAKE A","2300503","2021-11-12 21:00","2021","11","12","21:00","-14.6","","-16.5","","85","","","","16","","10","","24.1","","102.62","","","","-21","","Mainly Clear"
"-96.08","64.30","BAKER LAKE A","2300503","2021-11-12 22:00","2021","11","12","22:00","-14.6","","-16.5","","85","","","","13","","7","","24.1","","102.57","","","","-19","","NA"
"-96.08","64.30","BAKER LAKE A","2300503","2021-11-12 23:00","2021","11","12","23:00","-14.3","","-16.2","","86","","","","15","","10","","24.1","","102.51","","","","-20","","NA"
"-96.08","64.30","BAKER LAKE A","2300503","2021-11-13 00:00","2021","11","13","00:00","-15.0","","-16.9","","85","","","","9","","5","","24.1","","102.45","","","","-19","","Mainly Clear"
"-96.08","64.30","BAKER LAKE A","2300503","2021-11-13 01:00","2021","11","13","01:00","-15.2","","-17.1","","85","","","","14","","9","","24.1","","102.41","","","","-21","","Ice Crystals"
"-96.08","64.30","BAKER LAKE A","2300503","2021-11-13 02:00","2021","11","13","02:00","-14.1","","-16.0","","86","","","","17","","12","","24.1","","102.37","","","","-21","","Ice Crystals"
"-96.08","64.30","BAKER LAKE A","2300503","2021-11-13 03:00","2021","11","13","03:00","-14.8","","-16.7","","85","","","","12","","12","","24.1","","102.30","","","","-22","","Ice Crystals"
"-96.08","64.30","BAKER LAKE A","2300503","2021-11-13 04:00","2021","11","13","04:00","-15.0","","-17.0","","85","","","","14","","17","","24.1","","102.24","","","","-23","","Ice Crystals"
"-96.08","64.30","BAKER LAKE A","2300503","2021-11-13 05:00","2021","11","13","05:00","-15.5","","-17.5","","85","","","","13","","11","","24.1","","102.18","","","","-22","","Ice Crystals"
"-96.08","64.30","BAKER LAKE A","2300503","2021-11-13 06:00","2021","11","13","06:00","-15.6","","-17.6","","85","","","","14","","14","","24.1","","102.14","","","","-23","","Ice Crystals"
"-96.08","64.30","BAKER LAKE A","2300503","2021-11-13 07:00","2021","11","13","07:00","-16.2","","-18.3","","84","","","","16","","10","","24.1","","102.10","","","","-23","","Ice Crystals"
"-96.08","64.30","BAKER LAKE A","2300503","2021-11-13 08:00","2021","11","13","08:00","-16.9","","-19.1","","84","","","","36","","2","","40.2","","102.07","","","","-18","","Ice Crystals"
"-96.08","64.30","BAKER LAKE A","2300503","2021-11-13 09:00","2021","11","13","09:00","-14.8","","-16.8","","85","","","","36","","2","","40.2","","102.05","","","","-16","","Snow"
"-96.08","64.30","BAKER LAKE A","2300503","2021-11-13 10:00","2021","11","13","10:00","-12.2","","-13.8","","88","","","","13","","7","","32.2","","102.01","","","","-17","","Snow"
"-96.08","64.30","BAKER LAKE A","2300503","2021-11-13 11:00","2021","11","13","11:00","-9.8","","-11.2","","90","","","","15","","16","","24.1","","101.97","","","","-17","","Snow"
"-96.08","64.30","BAKER LAKE A","2300503","2021-11-13 12:00","2021","11","13","12:00","-9.1","","-10.4","","90","","","","16","","23","","24.1","","101.96","","","","-17","","Snow"
"-96.08","64.30","BAKER LAKE A","2300503","2021-11-13 13:00","2021","11","13","13:00","-8.5","","-9.8","","91","","","","15","","22","","24.1","","101.93","","","","-16","","Snow"
"-96.08","64.30","BAKER LAKE A","2300503","2021-11-13 14:00","2021","11","13","14:00","-8.3","","-9.5","","91","","","","15","","20","","24.1","","101.92","","","","-16","","Snow"
"-96.08","64.30","BAKER LAKE A","2300503","2021-11-13 15:00","2021","11","13","15:00","-8.3","","-9.6","","91","","","","15","","25","","24.1","","101.91","","","","-17","","Snow"
"-96.08","64.30","BAKER LAKE A","2300503","2021-11-13 16:00","2021","11","13","16:00","-8.2","","-9.5","","91","","","","16","","23","","32.2","","101.89","","","","-16","","NA"
"-96.08","64.30","BAKER LAKE A","2300503","2021-11-13 17:00","2021","11","13","17:00","-8.1","","-9.3","","91","","","","17","","26","","24.1","","101.86","","","","-16","","NA"
"-96.08","64.30","BAKER LAKE A","2300503","2021-11-13 18:00","2021","11","13","18:00","-7.9","","-9.1","","91","","","","17","","21","","24.1","","101.83","","","","-15","","Snow"
"-96.08","64.30","BAKER LAKE A","2300503","2021-11-13 19:00","2021","11","13","19:00","-7.8","","-8.9","","91","","","","17","","24","","24.1","","101.81","","","","-16","","Snow"
"-96.08","64.30","BAKER LAKE A","2300503","2021-11-13 20:00","2021","11","13","20:00","-7.7","","-8.9","","91","","","","17","","26","","24.1","","101.77","","","","-16","","Snow"
"-96.08","64.30","BAKER LAKE A","2300503","2021-11-13 21:00","2021","11","13","21:00","-7.7","","-9.0","","91","","","","17","","25","","24.1","","101.73","","","","-16","","Snow"
"-96.08","64.30","BAKER LAKE A","2300503","2021-11-13 22:00","2021","11","13","22:00","-7.7","","-9.0","","90","","","","17","","23","","24.1","","101.68","","","","-15","","Snow"
"-96.08","64.30","BAKER LAKE A","2300503","2021-11-13 23:00","2021","11","13","23:00","-7.6","","-9.0","","90","","","","17","","22","","24.1","","101.64","","","","-15","","Snow"
"-96.08","64.30","BAKER LAKE A","2300503","2021-11-14 00:00","2021","11","14","00:00","-7.3","","-8.8","","89","","","","16","","23","","24.1","","101.61","","","","-15","","Snow"
"-96.08","64.30","BAKER LAKE A","2300503","2021-11-14 01:00","2021","11","14","01:00","-7.2","","-8.9","","87","","","","15","","28","","24.1","","101.56","","","","-16","","Snow"
"-96.08","64.30","BAKER LAKE A","2300503","2021-11-14 02:00","2021","11","14","02:00","-7.2","","-9.5","","84","","","","15","","30","","24.1","","101.52","","","","-16","","Snow"
"-96.08","64.30","BAKER LAKE A","2300503","2021-11-14 03:00","2021","11","14","03:00","-7.1","","-9.7","","82","","","","15","","32","","24.1","","101.47","","","","-16","","Snow"
"-96.08","64.30","BAKER LAKE A","2300503","2021-11-14 04:00","2021","11","14","04:00","-7.2","","-9.9","","82","","","","15","","31","","24.1","","101.42","","","","-16","","Snow"
"-96.08","64.30","BAKER LAKE A","2300503","2021-11-14 05:00","2021","11","14","05:00","-7.2","","-10.0","","81","","","","15","","31","","24.1","","101.39","","","","-16","","Snow"
"-96.08","64.30","BAKER LAKE A","2300503","2021-11-14 06:00","2021","11","14","06:00","-7.1","","-9.7","","82","","","","15","","30","","24.1","","101.34","","","","-16","","Snow"
"-96.08","64.30","BAKER LAKE A","2300503","2021-11-14 07:00","2021","11","14","07:00","-7.2","","-9.8","","81","","","","14","","34","","24.1","","101.27","","","","-16","","Snow"
"-96.08","64.30","BAKER LAKE A","2300503","2021-11-14 08:00","2021","11","14","08:00","-7.1","","-9.7","","82","","","","14","","34","","24.1","","101.20","","","","-16","","Snow"
"-96.08","64.30","BAKER LAKE A","2300503","2021-11-14 09:00","2021","11","14","09:00","-6.9","","-9.6","","81","","","","14","","34","","32.2","","101.14","","","","-16","","Snow"
"-96.08","64.30","BAKER LAKE A","2300503","2021-11-14 10:00","2021","11","14","10:00","-6.9","","-9.3","","83","","","","14","","34","","8.1","","101.09","","","","-16","","Snow"
"-96.08","64.30","BAKER LAKE A","2300503","2021-11-14 11:00","2021","11","14","11:00","-6.8","","-8.9","","86","","","","14","","28","","32.2","","101.06","","","","-15","","Snow"
"-96.08","64.30","BAKER LAKE A","2300503","2021-11-14 12:00","2021","11","14","12:00","-6.0","","-8.1","","85","","","","14","","31","","24.1","","100.98","","","","-14","","Snow"
"-96.08","64.30","BAKER LAKE A","2300503","2021-11-14 13:00","2021","11","14","13:00","-6.0","","-7.7","","88","","","","15","","32","","16.1","","100.92","","","","-15","","Snow"
"-96.08","64.30","BAKER LAKE A","2300503","2021-11-14 14:00","2021","11","14","14:00","-5.5","","-7.2","","87","","","","16","","31","","9.7","","100.89","","","","-14","","Snow"
"-96.08","64.30","BAKER LAKE A","2300503","2021-11-14 15:00","2021","11","14","15:00","-5.5","","-7.4","","86","","","","16","","33","","16.1","","100.83","","","","-14","","Snow"
"-96.08","64.30","BAKER LAKE A","2300503","2021-11-14 16:00","2021","11","14","16:00","-5.6","","-7.5","","87","","","","16","","32","","24.1","","100.82","","","","-14","","Snow"
"-96.08","64.30","BAKER LAKE A","2300503","2021-11-14 17:00","2021","11","14","17:00","-5.7","","-7.5","","87","","","","16","","30","","24.1","","100.78","","","","-14","","Snow"
"-96.08","64.30","BAKER LAKE A","2300503","2021-11-14 18:00","2021","11","14","18:00","-5.8","","-7.8","","86","","","","17","","28","","16.1","","100.77","","","","-14","","Snow"
"-96.08","64.30","BAKER LAKE A","2300503","2021-11-14 19:00","2021","11","14","19:00","-6.0","","-7.9","","87","","","","17","","26","","24.1","","100.70","","","","-14","","Snow"
"-96.08","64.30","BAKER LAKE A","2300503","2021-11-14 20:00","2021","11","14","20:00","-5.8","","-7.6","","87","","","","17","","23","","24.1","","100.68","","","","-13","","Snow"
"-96.08","64.30","BAKER LAKE A","2300503","2021-11-14 21:00","2021","11","14","21:00","-5.7","","-7.6","","87","","","","17","","29","","24.1","","100.63","","","","-14","","Snow"
"-96.08","64.30","BAKER LAKE A","2300503","2021-11-14 22:00","2021","11","14","22:00","-5.4","","-6.9","","89","","","","18","","21","","16.1","","100.62","","","","-12","","Snow"
"-96.08","64.30","BAKER LAKE A","2300503","2021-11-14 23:00","2021","11","14","23:00","-5.2","","-6.9","","88","","","","18","","24","","24.1","","100.60","","","","-12","","Snow"
"-96.08","64.30","BAKER LAKE A","2300503","2021-11-15 00:00","2021","11","15","00:00","-5.1","","-6.7","","88","","","","18","","20","","24.1","","100.61","","","","-12","","Snow"
"-96.08","64.30","BAKER LAKE A","2300503","2021-11-15 01:00","2021","11","15","01:00","-5.3","","-6.9","","88","","","","17","","22","","24.1","","100.59","","","","-12","","Snow"
"-96.08","64.30","BAKER LAKE A","2300503","2021-11-15 02:00","2021","11","15","02:00","-5.2","","-6.9","","88","","","","17","","22","","24.1","","100.59","","","","-12","","Snow"
"-96.08","64.30","BAKER LAKE A","2300503","2021-11-15 03:00","2021","11","15","03:00","-4.9","","-6.6","","88","","","","18","","21","","24.1","","100.59","","","","-12","","Snow"
"-96.08","64.30","BAKER LAKE A","2300503","2021-11-15 04:00","2021","11","15","04:00","-4.8","","-6.5","","88","","","","18","","22","","24.1","","100.59","","","","-12","","Snow"
"-96.08","64.30","BAKER LAKE A","2300503","2021-11-15 05:00","2021","11","15","05:00","-4.5","","-6.1","","89","","","","19","","12","","24.1","","100.59","","","","-9","","Snow"
"-96.08","64.30","BAKER LAKE A","2300503","2021-11-15 06:00","2021","11","15","06:00","-4.3","","-5.5","","91","","","","20","","15","","24.1","","100.61","","","","-10","","Snow"
"-96.08","64.30","BAKER LAKE A","2300503","2021-11-15 07:00","2021","11","15","07:00","-4.0","","-5.4","","90","","","","22","","17","","24.1","","100.63","","","","-10","","Snow"
"-96.08","64.30","BAKER LAKE A","2300503","2021-11-15 08:00","2021","11","15","08:00","-6.0","","-8.7","","81","","","","26","","18","","24.1","","100.67","","","","-12","","NA"
"-96.08","64.30","BAKER LAKE A","2300503","2021-11-15 09:00","2021","11","15","09:00","-6.9","","-9.4","","82","","","","8","","7","","32.2","","100.74","","","","-10","","Cloudy"
"-96.08","64.30","BAKER LAKE A","2300503","2021-11-15 10:00","2021","11","15","10:00","-7.6","","-10.4","","81","","","","1","","5","","32.2","","100.76","","","","-10","","NA"
"-96.08","64.30","BAKER LAKE A","2300503","2021-11-15 11:00","2021","11","15","11:00","-8.0","","-11.3","","77","","","","36","","2","","32.2","","100.79","","","","-9","","NA"
"-96.08","64.30","BAKER LAKE A","2300503","2021-11-15 12:00","2021","11","15","12:00","-8.1","","-11.3","","78","","","","36","","2","","32.2","","100.81","","","","-9","","Mostly Cloudy"
"-96.08","64.30","BAKER LAKE A","2300503","2021-11-15 13:00","2021","11","15","13:00","-8.4","","-11.5","","79","","","","26","","15","","32.2","","100.84","","","","-15","","NA"
"-96.08","64.30","BAKER LAKE A","2300503","2021-11-15 14:00","2021","11","15","14:00","-9.1","","-12.0","","79","","","","14","","4","","32.2","","100.88","","","","-11","","NA"
"-96.08","64.30","BAKER LAKE A","2300503","2021-11-15 15:00","2021","11","15","15:00","-9.3","","-12.0","","81","","","","36","","3","","32.2","","100.90","","","","-11","","Mostly Cloudy"
"-96.08","64.30","BAKER LAKE A","2300503","2021-11-15 16:00","2021","11","15","16:00","-9.5","","-11.9","","83","","","","29","","4","","24.1","","100.92","","","","-12","","NA"
"-96.08","64.30","BAKER LAKE A","2300503","2021-11-15 17:00","2021","11","15","17:00","-9.3","","-11.8","","82","","","","36","","2","","24.1","","100.95","","","","-10","","NA"
"-96.08","64.30","BAKER LAKE A","2300503","2021-11-15 18:00","2021","11","15","18:00","-8.9","","-11.6","","81","","","","33","","5","","24.1","","100.94","","","","-12","","Mostly Cloudy"
"-96.08","64.30","BAKER LAKE A","2300503","2021-11-15 19:00","2021","11","15","19:00","-8.8","","-11.1","","84","","","","36","","1","","24.1","","100.94","","","","-9","","NA"
"-96.08","64.30","BAKER LAKE A","2300503","2021-11-15 20:00","2021","11","15","20:00"
"-96.08","64.30","BAKER LAKE A","2300503","2021-11-15 21:00","2021","11","15","21:00","-8.7","","-10.9","","84","","","","36","","1","","24.1","","100.96","","","","-9","","Mostly Cloudy"
"-96.08","64.30","BAKER LAKE A","2300503","2021-11-15 22:00","2021","11","15","22:00","-8.9","","-11.0","","84","","","","30","","3","","24.1","","100.96","","","","-11","","NA"
"-96.08","64.30","BAKER LAKE A","2300503","2021-11-15 23:00","2021","11","15","23:00","-8.9","","-10.9","","85","","","","36","","1","","24.1","","100.99","","","","-9","","Snow"
"-96.08","64.30","BAKER LAKE A","2300503","2021-11-16 00:00","2021","11","16","00:00","-8.9","","-10.7","","87","","","","36","","3","","24.1","","101.02","","","","-11","","Snow"
"-96.08","64.30","BAKER LAKE A","2300503","2021-11-16 01:00","2021","11","16","01:00","-9.7","","-11.4","","87","","","","36","","2","","24.1","","101.06","","","","-11","","Snow"
"-96.08","64.30","BAKER LAKE A","2300503","2021-11-16 02:00","2021","11","16","02:00","-9.6","","-11.4","","87","","","","3","","3","","24.1","","101.10","","","","-11","","Snow"
"-96.08","64.30","BAKER LAKE A","2300503","2021-11-16 03:00","2021","11","16","03:00","-9.0","","-10.7","","87","","","","31","","13","","24.1","","101.15","","","","-15","","Snow"
"-96.08","64.30","BAKER LAKE A","2300503","2021-11-16 04:00","2021","11","16","04:00","-8.5","","-10.5","","86","","","","32","","11","","24.1","","101.20","","","","-14","","Snow"
"-96.08","64.30","BAKER LAKE A","2300503","2021-11-16 05:00","2021","11","16","05:00","-8.3","","-10.7","","83","","","","36","","3","","24.1","","101.25","","","","-10","","Snow"
"-96.08","64.30","BAKER LAKE A","2300503","2021-11-16 06:00","2021","11","16","06:00","-8.3","","-10.3","","86","","","","29","","10","","24.1","","101.32","","","","-13","","Snow"
"-96.08","64.30","BAKER LAKE A","2300503","2021-11-16 07:00","2021","11","16","07:00","-8.6","","-10.6","","86","","","","31","","9","","24.1","","101.36","","","","-13","","Snow"
"-96.08","64.30","BAKER LAKE A","2300503","2021-11-16 08:00","2021","11","16","08:00","-8.7","","-10.8","","85","","","","36","","1","","32.2","","101.39","","","","-9","","Snow"
"-96.08","64.30","BAKER LAKE A","2300503","2021-11-16 09:00","2021","11","16","09:00","-9.6","","-11.9","","83","","","","22","","10","","32.2","","101.44","","","","-15","","Cloudy"
"-96.08","64.30","BAKER LAKE A","2300503","2021-11-16 10:00","2021","11","16","10:00","-12.2","","-14.6","","83","","","","31","","27","","32.2","","101.50","","","","-22","","NA"
"-96.08","64.30","BAKER LAKE A","2300503","2021-11-16 11:00","2021","11","16","11:00","-13.0","","-15.6","","81","","","","31","","20","","32.2","","101.56","","","","-22","","NA"
"-96.08","64.30","BAKER LAKE A","2300503","2021-11-16 12:00","2021","11","16","12:00","-12.7","","-15.3","","81","","","","30","","18","","32.2","","101.63","","","","-21","","Mainly Clear"
"-96.08","64.30","BAKER LAKE A","2300503","2021-11-16 13:00","2021","11","16","13:00","-11.8","","-14.5","","81","","","","30","","19","","32.2","","101.65","","","","-20","","NA"
"-96.08","64.30","BAKER LAKE A","2300503","2021-11-16 14:00","2021","11","16","14:00","-11.2","","-13.9","","81","","","","30","","20","","32.2","","101.71","","","","-19","","NA"
"-96.08","64.30","BAKER LAKE A","2300503","2021-11-16 15:00","2021","11","16","15:00","-11.9","","-14.4","","82","","","","30","","19","","32.2","","101.77","","","","-20","","Mostly Cloudy"
"-96.08","64.30","BAKER LAKE A","2300503","2021-11-16 16:00","2021","11","16","16:00","-12.9","","-15.2","","83","","","","31","","16","","32.2","","101.80","","","","-21","","NA"
"-96.08","64.30","BAKER LAKE A","2300503","2021-11-16 17:00","2021","11","16","17:00","-11.8","","-14.1","","83","","","","30","","16","","24.1","","101.87","","","","-19","","NA"
"-96.08","64.30","BAKER LAKE A","2300503","2021-11-16 18:00","2021","11","16","18:00","-12.2","","-14.5","","83","","","","31","","18","","24.1","","101.87","","","","-20","","Mostly Cloudy"
"-96.08","64.30","BAKER LAKE A","2300503","2021-11-16 19:00","2021","11","16","19:00","-11.4","","-13.7","","83","","","","30","","18","","24.1","","101.93","","","","-19","","NA"
"-96.08","64.30","BAKER LAKE A","2300503","2021-11-16 20:00","2021","11","16","20:00","-11.4","","-13.7","","83","","","","30","","17","","24.1","","101.94","","","","-19","","NA"
"-96.08","64.30","BAKER LAKE A","2300503","2021-11-16 21:00","2021","11","16","21:00","-11.2","","-13.5","","84","","","","30","","18","","24.1","","101.98","","","","-19","","Mostly Cloudy"
"-96.08","64.30","BAKER LAKE A","2300503","2021-11-16 22:00","2021","11","16","22:00","-10.9","","-13.4","","82","","","","31","","20","","24.1","","101.99","","","","-19","","NA"
"-96.08","64.30","BAKER LAKE A","2300503","2021-11-16 23:00","2021","11","16","23:00","-11.3","","-13.8","","82","","","","31","","20","","24.1","","102.01","","","","-20","","NA"
"-96.08","64.30","BAKER LAKE A","2300503","2021-11-17 00:00","2021","11","17","00:00","-11.7","","-14.2","","82","","","","31","","19","","24.1","","102.03","","","","-20","","Cloudy"
"-96.08","64.30","BAKER LAKE A","2300503","2021-11-17 01:00","2021","11","17","01:00","-12.0","","-14.5","","82","","","","30","","25","","24.1","","102.04","","","","-21","","Snow"
"-96.08","64.30","BAKER LAKE A","2300503","2021-11-17 02:00","2021","11","17","02:00","-12.1","","-14.8","","80","","","","30","","27","","24.1","","102.07","","","","-22","","Snow"
"-96.08","64.30","BAKER LAKE A","2300503","2021-11-17 03:00","2021","11","17","03:00","-12.0","","-14.5","","82","","","","31","","22","","24.1","","102.08","","","","-21","","Snow"
"-96.08","64.30","BAKER LAKE A","2300503","2021-11-17 04:00","2021","11","17","04:00","-11.9","","-14.5","","81","","","","30","","23","","24.1","","102.10","","","","-21","","Snow"
"-96.08","64.30","BAKER LAKE A","2300503","2021-11-17 05:00","2021","11","17","05:00","-11.7","","-14.1","","82","","","","30","","21","","24.1","","102.10","","","","-20","","Snow"
"-96.08","64.30","BAKER LAKE A","2300503","2021-11-17 06:00","2021","11","17","06:00","-11.3","","-14.1","","80","","","","36","","22","","24.1","","102.15","","","","-20","","Snow"
"-96.08","64.30","BAKER LAKE A","2300503","2021-11-17 07:00","2021","11","17","07:00","-11.8","","-14.6","","80","","","","35","","25","","24.1","","102.18","","","","-21","","Snow"
"-96.08","64.30","BAKER LAKE A","2300503","2021-11-17 08:00","2021","11","17","08:00","-12.2","","-15.1","","79","","","","34","","22","","24.1","","102.21","","","","-21","","Snow"
"-96.08","64.30","BAKER LAKE A","2300503","2021-11-17 09:00","2021","11","17","09:00","-12.1","","-15.1","","79","","","","33","","27","","24.1","","102.19","","","","-22","","Snow"
"-96.08","64.30","BAKER LAKE A","2300503","2021-11-17 10:00","2021","11","17","10:00","-12.2","","-15.4","","77","","","","34","","30","","24.1","","102.20","","","","-22","","Snow"
"-96.08","64.30","BAKER LAKE A","2300503","2021-11-17 11:00","2021","11","17","11:00","-12.2","","-15.6","","76","","","","33","","29","","24.1","","102.23","","","","-22","","Snow"
"-96.08","64.30","BAKER LAKE A","2300503","2021-11-17 12:00","2021","11","17","12:00","-12.1","","-15.8","","75","","","","33","","26","","24.1","","102.25","","","","-22","","Snow"
"-96.08","64.30","BAKER LAKE A","2300503","2021-11-17 13:00","2021","11","17","13:00","-12.5","","-16.5","","73","","","","33","","22","","32.2","","102.26","","","","-21","","NA"
"-96.08","64.30","BAKER LAKE A","2300503","2021-11-17 14:00","2021","11","17","14:00","-14.6","","-17.5","","79","","","","31","","22","","32.2","","102.28","","","","-24","","NA"
"-96.08","64.30","BAKER LAKE A","2300503","2021-11-17 15:00","2021","11","17","15:00","-16.0","","-18.6","","80","","","","30","","24","","32.2","","102.29","","","","-26","","Mainly Clear"
"-96.08","64.30","BAKER LAKE A","2300503","2021-11-17 16:00","2021","11","17","16:00","-17.3","","-19.9","","80","","","","30","","26","","32.2","","102.32","","","","-28","","NA"
"-96.08","64.30","BAKER LAKE A","2300503","2021-11-17 17:00","2021","11","17","17:00","-17.9","","-20.8","","79","","","","31","","27","","24.1","","102.36","","","","-29","","NA"
"-96.08","64.30","BAKER LAKE A","2300503","2021-11-17 18:00","2021","11","17","18:00","-18.0","","-20.6","","80","","","","31","","29","","24.1","","102.36","","","","-30","","Ice Crystals"
"-96.08","64.30","BAKER LAKE A","2300503","2021-11-17 19:00","2021","11","17","19:00","-17.0","","-19.7","","80","","","","30","","25","","24.1","","102.34","","","","-28","","Snow"
"-96.08","64.30","BAKER LAKE A","2300503","2021-11-17 20:00","2021","11","17","20:00","-17.2","","-19.7","","81","","","","30","","28","","24.1","","102.31","","","","-29","","NA"
"-96.08","64.30","BAKER LAKE A","2300503","2021-11-17 21:00","2021","11","17","21:00","-18.2","","-21.0","","79","","","","30","","27","","24.1","","102.29","","","","-30","","Clear"
"-96.08","64.30","BAKER LAKE A","2300503","2021-11-17 22:00","2021","11","17","22:00","-17.9","","-20.5","","80","","","","31","","26","","24.1","","102.27","","","","-29","","NA"
"-96.08","64.30","BAKER LAKE A","2300503","2021-11-17 23:00","2021","11","17","23:00","-17.9","","-20.6","","80","","","","30","","25","","24.1","","102.26","","","","-29","","NA"
"-96.08","64.30","BAKER LAKE A","2300503","2021-11-18 00:00","2021","11","18","00:00","-18.6","","-21.3","","79","","","","30","","21","","24.1","","102.24","","","","-29","","Clear"
"-96.08","64.30","BAKER LAKE A","2300503","2021-11-18 01:00","2021","11","18","01:00","-17.9","","-20.6","","80","","","","30","","24","","24.1","","102.23","","","","-29","","NA"
"-96.08","64.30","BAKER LAKE A","2300503","2021-11-18 02:00","2021","11","18","02:00","-17.8","","-20.4","","80","","","","31","","19","","24.1","","102.21","","","","-27","","NA"
"-96.08","64.30","BAKER LAKE A","2300503","2021-11-18 03:00","2021","11","18","03:00","-17.4","","-20.1","","80","","","","30","","17","","24.1","","102.21","","","","-26","","Clear"
"-96.08","64.30","BAKER LAKE A","2300503","2021-11-18 04:00","2021","11","18","04:00","-17.0","","-19.6","","81","","","","31","","18","","24.1","","102.17","","","","-26","","NA"
"-96.08","64.30","BAKER LAKE A","2300503","2021-11-18 05:00","2021","11","18","05:00","-16.8","","-19.4","","81","","","","31","","16","","24.1","","102.16","","","","-25","","NA"
"-96.08","64.30","BAKER LAKE A","2300503","2021-11-18 06:00","2021","11","18","06:00","-15.0","","-17.9","","79","","","","33","","13","","24.1","","102.14","","","","-22","","Mostly Cloudy"
"-96.08","64.30","BAKER LAKE A","2300503","2021-11-18 07:00","2021","11","18","07:00","-15.2","","-18.1","","79","","","","33","","10","","24.1","","102.11","","","","-21","","NA"
"-96.08","64.30","BAKER LAKE A","2300503","2021-11-18 08:00","2021","11","18","08:00","-15.1","","-18.0","","79","","","","34","","12","","24.1","","102.09","","","","-22","","Snow"
"-96.08","64.30","BAKER LAKE A","2300503","2021-11-18 09:00","2021","11","18","09:00","-15.3","","-18.1","","79","","","","32","","12","","32.2","","102.04","","","","-22","","Snow"
"-96.08","64.30","BAKER LAKE A","2300503","2021-11-18 10:00","2021","11","18","10:00","-15.3","","-18.1","","80","","","","31","","10","","32.2","","102.00","","","","-22","","Snow"
"-96.08","64.30","BAKER LAKE A","2300503","2021-11-18 11:00","2021","11","18","11:00","-15.3","","-18.0","","80","","","","32","","6","","32.2","","101.96","","","","-20","","Snow"
"-96.08","64.30","BAKER LAKE A","2300503","2021-11-18 12:00","2021","11","18","12:00","-16.2","","-19.1","","79","","","","33","","8","","32.2","","101.93","","","","-22","","Snow"
"-96.08","64.30","BAKER LAKE A","2300503","2021-11-18 13:00","2021","11","18","13:00","-18.1","","-20.8","","79","","","","2","","6","","32.2","","101.87","","","","-23","","Snow"
"-96.08","64.30","BAKER LAKE A","2300503","2021-11-18 14:00","2021","11","18","14:00","-18.9","","-21.8","","78","","","","35","","8","","32.2","","101.84","","","","-25","","NA"
"-96.08","64.30","BAKER LAKE A","2300503","2021-11-18 15:00","2021","11","18","15:00","-19.7","","-22.0","","82","","","","35","","9","","32.2","","101.84","","","","-26","","Mainly Clear"
"-96.08","64.30","BAKER LAKE A","2300503","2021-11-18 16:00","2021","11","18","16:00","-20.6","","-23.3","","79","","","","31","","5","","32.2","","101.83","","","","-25","","NA"
"-96.08","64.30","BAKER LAKE A","2300503","2021-11-18 17:00","2021","11","18","17:00","-21.3","","-23.7","","81","","","","34","","11","","24.1","","101.80","","","","-29","","Ice Crystals"
"-96.08","64.30","BAKER LAKE A","2300503","2021-11-18 18:00","2021","11","18","18:00","-19.6","","-21.7","","84","","","","36","","8","","24.1","","101.72","","","","-26","","Ice Crystals"
"-96.08","64.30","BAKER LAKE A","2300503","2021-11-18 19:00","2021","11","18","19:00","-19.1","","-21.2","","83","","","","36","","10","","24.1","","101.66","","","","-26","","Ice Crystals"
"-96.08","64.30","BAKER LAKE A","2300503","2021-11-18 20:00","2021","11","18","20:00","-17.9","","-20.1","","83","","","","34","","8","","24.1","","101.59","","","","-24","","Snow"
"-96.08","64.30","BAKER LAKE A","2300503","2021-11-18 21:00","2021","11","18","21:00","-17.4","","-19.5","","84","","","","36","","2","","24.1","","101.57","","","","-19","","Ice Crystals"
"-96.08","64.30","BAKER LAKE A","2300503","2021-11-18 22:00","2021","11","18","22:00","-17.0","","-19.1","","84","","","","2","","7","","24.1","","101.51","","","","-22","","Ice Crystals"
"-96.08","64.30","BAKER LAKE A","2300503","2021-11-18 23:00","2021","11","18","23:00","-16.7","","-18.8","","84","","","","8","","5","","24.1","","101.45","","","","-21","","Ice Crystals"
"-96.08","64.30","BAKER LAKE A","2300503","2021-11-19 00:00","2021","11","19","00:00","-15.9","","-18.0","","84","","","","19","","17","","24.1","","101.38","","","","-25","","Snow"
"-96.08","64.30","BAKER LAKE A","2300503","2021-11-19 01:00","2021","11","19","01:00","-16.8","","-18.9","","83","","","","19","","19","","16.1","","101.36","","","","-26","","Snow"
"-96.08","64.30","BAKER LAKE A","2300503","2021-11-19 02:00","2021","11","19","02:00"
"-96.08","64.30","BAKER LAKE A","2300503","2021-11-19 03:00","2021","11","19","03:00","-17.4","","-19.6","","83","","","","17","","14","","24.1","","101.32","","","","-26","","Snow"
"-96.08","64.30","BAKER LAKE A","2300503","2021-11-19 04:00","2021","11","19","04:00"
"-96.08","64.30","BAKER LAKE A","2300503","2021-11-19 05:00","2021","11","19","05:00"
"-96.08","64.30","BAKER LAKE A","2300503","2021-11-19 06:00","2021","11","19","06:00","-19.1","","-21.4","","83","","","","20","","10","","24.1","","101.25","","","","-26","","Cloudy"
"-96.08","64.30","BAKER LAKE A","2300503","2021-11-19 07:00","2021","11","19","07:00","-18.3","","-20.6","","83","","","","12","","14","","24.1","","101.24","","","","-27","","Snow"
"-96.08","64.30","BAKER LAKE A","2300503","2021-11-19 08:00","2021","11","19","08:00","-18.3","","-20.7","","82","","","","13","","16","","24.1","","101.22","","","","-27","","Snow"
"-96.08","64.30","BAKER LAKE A","2300503","2021-11-19 09:00","2021","11","19","09:00","-19.0","","-21.3","","82","","","","14","","18","","24.1","","101.17","","","","-29","","Snow"
"-96.08","64.30","BAKER LAKE A","2300503","2021-11-19 10:00","2021","11","19","10:00","-19.6","","-22.0","","81","","","","12","","16","","16.1","","101.15","","","","-29","","Ice Crystals"
"-96.08","64.30","BAKER LAKE A","2300503","2021-11-19 11:00","2021","11","19","11:00","-19.3","","-21.8","","81","","","","13","","18","","24.1","","101.16","","","","-29","","Ice Crystals"
"-96.08","64.30","BAKER LAKE A","2300503","2021-11-19 12:00","2021","11","19","12:00","-19.3","","-21.8","","81","","","","14","","18","","16.1","","101.15","","","","-29","","Ice Crystals"
"-96.08","64.30","BAKER LAKE A","2300503","2021-11-19 13:00","2021","11","19","13:00","-18.9","","-21.3","","82","","","","14","","13","","16.1","","101.13","","","","-27","","Ice Crystals"
"-96.08","64.30","BAKER LAKE A","2300503","2021-11-19 14:00","2021","11","19","14:00","-18.3","","-20.8","","81","","","","11","","14","","24.1","","101.11","","","","-27","","Ice Crystals"
"-96.08","64.30","BAKER LAKE A","2300503","2021-11-19 15:00","2021","11","19","15:00","-17.6","","-19.9","","82","","","","11","","15","","16.1","","101.08","","","","-26","","Snow"
"-96.08","64.30","BAKER LAKE A","2300503","2021-11-19 16:00","2021","11","19","16:00","-17.0","","-19.2","","83","","","","13","","13","","8.1","","101.08","","","","-25","","Snow"
"-96.08","64.30","BAKER LAKE A","2300503","2021-11-19 17:00","2021","11","19","17:00","-16.4","","-18.6","","83","","","","11","","13","","9.7","","101.03","","","","-24","","Snow"
"-96.08","64.30","BAKER LAKE A","2300503","2021-11-19 18:00","2021","11","19","18:00","-15.7","","-17.8","","84","","","","9","","15","","8.1","","101.01","","","","-24","","Snow"
"-96.08","64.30","BAKER LAKE A","2300503","2021-11-19 19:00","2021","11","19","19:00","-16.1","","-18.3","","83","","","","7","","17","","11.3","","101.00","","","","-25","","Snow"
"-96.08","64.30","BAKER LAKE A","2300503","2021-11-19 20:00","2021","11","19","20:00","-16.4","","-18.6","","83","","","","5","","10","","16.1","","100.98","","","","-23","","Snow"
"-96.08","64.30","BAKER LAKE A","2300503","2021-11-19 21:00","2021","11","19","21:00","-16.1","","-18.3","","83","","","","6","","12","","12.9","","100.93","","","","-23","","Snow"
"-96.08","64.30","BAKER LAKE A","2300503","2021-11-19 22:00","2021","11","19","22:00","-15.2","","-17.4","","84","","","","7","","13","","12.9","","100.89","","","","-23","","Snow"
"-96.08","64.30","BAKER LAKE A","2300503","2021-11-19 23:00","2021","11","19","23:00","-14.7","","-16.9","","83","","","","5","","11","","16.1","","100.86","","","","-21","","Snow"
"-96.08","64.30","BAKER LAKE A","2300503","2021-11-20 00:00","2021","11","20","00:00","-14.0","","-16.3","","83","","","","4","","7","","16.1","","100.84","","","","-19","","Snow"
"-96.08","64.30","BAKER LAKE A","2300503","2021-11-20 01:00","2021","11","20","01:00","-13.4","","-15.4","","85","","","","5","","8","","16.1","","100.84","","","","-18","","Snow"
"-96.08","64.30","BAKER LAKE A","2300503","2021-11-20 02:00","2021","11","20","02:00","-12.8","","-14.8","","85","","","","7","","9","","16.1","","100.80","","","","-18","","Snow"
"-96.08","64.30","BAKER LAKE A","2300503","2021-11-20 03:00","2021","11","20","03:00","-13.3","","-15.4","","84","","","","3","","7","","24.1","","100.78","","","","-18","","Snow"
"-96.08","64.30","BAKER LAKE A","2300503","2021-11-20 04:00","2021","11","20","04:00","-12.6","","-14.7","","84","","","","2","","10","","24.1","","100.77","","","","-18","","Snow"
"-96.08","64.30","BAKER LAKE A","2300503","2021-11-20 05:00","2021","11","20","05:00","-12.1","","-14.2","","85","","","","2","","10","","24.1","","100.75","","","","-18","","Snow"
"-96.08","64.30","BAKER LAKE A","2300503","2021-11-20 06:00","2021","11","20","06:00","-11.4","","-13.5","","85","","","","3","","8","","24.1","","100.75","","","","-16","","Snow"
"-96.08","64.30","BAKER LAKE A","2300503","2021-11-20 07:00","2021","11","20","07:00","-11.0","","-12.9","","86","","","","1","","8","","16.1","","100.75","","","","-16","","Snow"
"-96.08","64.30","BAKER LAKE A","2300503","2021-11-20 08:00","2021","11","20","08:00","-11.0","","-13.1","","85","","","","36","","15","","24.1","","100.74","","","","-18","","Snow"
"-96.08","64.30","BAKER LAKE A","2300503","2021-11-20 09:00","2021","11","20","09:00","-10.9","","-13.0","","85","","","","35","","17","","4.8","","100.76","","","","-18","","Snow"
"-96.08","64.30","BAKER LAKE A","2300503","2021-11-20 10:00","2021","11","20","10:00","-10.2","","-12.0","","87","","","","1","","9","","9.7","","100.78","","","","-15","","Snow"
"-96.08","64.30","BAKER LAKE A","2300503","2021-11-20 11:00","2021","11","20","11:00","-8.4","","-10.1","","88","","","","10","","12","","4.8","","100.80","","","","-14","","Snow"
"-96.08","64.30","BAKER LAKE A","2300503","2021-11-20 12:00","2021","11","20","12:00","-8.5","","-10.0","","89","","","","10","","13","","4.8","","100.82","","","","-14","","Snow"
"-96.08","64.30","BAKER LAKE A","2300503","2021-11-20 13:00","2021","11","20","13:00","-8.8","","-10.8","","86","","","","10","","10","","4.8","","100.88","","","","-14","","Snow"
"-96.08","64.30","BAKER LAKE A","2300503","2021-11-20 14:00","2021","11","20","14:00","-9.8","","-11.7","","86","","","","7","","13","","2.0","","100.93","","","","-16","","Snow"
"-96.08","64.30","BAKER LAKE A","2300503","2021-11-20 15:00","2021","11","20","15:00","-15.0","","-17.4","","82","","","","35","","17","","8.1","","101.03","","","","-23","","Snow"
"-96.08","64.30","BAKER LAKE A","2300503","2021-11-20 16:00","2021","11","20","16:00","-14.4","","-16.6","","83","","","","34","","17","","20.9","","101.09","","","","-23","","Snow"
"-96.08","64.30","BAKER LAKE A","2300503","2021-11-20 17:00","2021","11","20","17:00","-13.7","","-16.4","","80","","","","35","","15","","24.1","","101.15","","","","-21","","Snow"
"-96.08","64.30","BAKER LAKE A","2300503","2021-11-20 18:00","2021","11","20","18:00","-13.7","","-16.4","","80","","","","36","","11","","24.1","","101.21","","","","-20","","Snow"
"-96.08","64.30","BAKER LAKE A","2300503","2021-11-20 19:00","2021","11","20","19:00","-13.7","","-16.1","","82","","","","35","","13","","24.1","","101.26","","","","-21","","Snow"
"-96.08","64.30","BAKER LAKE A","2300503","2021-11-20 20:00","2021","11","20","20:00","-14.2","","-16.8","","80","","","","36","","12","","24.1","","101.30","","","","-21","","Snow"
"-96.08","64.30","BAKER LAKE A","2300503","2021-11-20 21:00","2021","11","20","21:00","-14.3","","-17.0","","80","","","","34","","23","","24.1","","101.33","","","","-24","","Snow"
"-96.08","64.30","BAKER LAKE A","2300503","2021-11-20 22:00","2021","11","20","22:00","-14.7","","-17.7","","78","","","","34","","29","","24.1","","101.34","","","","-25","","Snow"
"-96.08","64.30","BAKER LAKE A","2300503","2021-11-20 23:00","2021","11","20","23:00","-15.8","","-18.9","","77","","","","34","","35","","24.1","","101.39","","","","-28","","Snow"
"-96.08","64.30","BAKER LAKE A","2300503","2021-11-21 00:00","2021","11","21","00:00","-16.7","","-19.9","","77","","","","34","","34","","24.1","","101.46","","","","-29","","Snow"
"-96.08","64.30","BAKER LAKE A","2300503","2021-11-21 01:00","2021","11","21","01:00","-17.4","","-20.6","","76","","","","34","","34","","24.1","","101.51","","","","-30","","Snow"
"-96.08","64.30","BAKER LAKE A","2300503","2021-11-21 02:00","2021","11","21","02:00","-17.9","","-21.2","","76","","","","33","","35","","24.1","","101.54","","","","-31","","Snow"
"-96.08","64.30","BAKER LAKE A","2300503","2021-11-21 03:00","2021","11","21","03:00","-18.4","","-21.8","","75","","","","34","","39","","24.1","","101.58","","","","-32","","Snow"
"-96.08","64.30","BAKER LAKE A","2300503","2021-11-21 04:00","2021","11","21","04:00","-19.4","","-22.7","","76","","","","33","","37","","24.1","","101.60","","","","-33","","Snow"
"-96.08","64.30","BAKER LAKE A","2300503","2021-11-21 05:00","2021","11","21","05:00","-20.2","","-23.6","","75","","","","33","","40","","24.1","","101.62","","","","-34","","Snow"
"-96.08","64.30","BAKER LAKE A","2300503","2021-11-21 06:00","2021","11","21","06:00","-20.8","","-24.1","","75","","","","34","","39","","24.1","","101.64","","","","-35","","Snow"
"-96.08","64.30","BAKER LAKE A","2300503","2021-11-21 07:00","2021","11","21","07:00","-21.3","","-24.7","","75","","","","33","","40","","24.1","","101.66","","","","-36","","Snow,Blowing Snow"
"-96.08","64.30","BAKER LAKE A","2300503","2021-11-21 08:00","2021","11","21","08:00","-21.7","","-25.0","","75","","","","32","","35","","24.1","","101.70","","","","-36","","Snow,Blowing Snow"
"-96.08","64.30","BAKER LAKE A","2300503","2021-11-21 09:00","2021","11","21","09:00","-21.7","","-25.1","","74","","","","32","","35","","24.1","","101.70","","","","-36","","Snow,Blowing Snow"
"-96.08","64.30","BAKER LAKE A","2300503","2021-11-21 10:00","2021","11","21","10:00","-21.9","","-25.4","","74","","","","32","","37","","24.1","","101.67","","","","-36","","Snow,Blowing Snow"
"-96.08","64.30","BAKER LAKE A","2300503","2021-11-21 11:00","2021","11","21","11:00","-21.8","","-26.0","","69","","","","32","","36","","32.2","","101.69","","","","-36","","Snow,Blowing Snow"
"-96.08","64.30","BAKER LAKE A","2300503","2021-11-21 12:00","2021","11","21","12:00","-23.6","","-27.5","","71","","","","31","","27","","32.2","","101.73","","","","-37","","Snow,Blowing Snow"
"-96.08","64.30","BAKER LAKE A","2300503","2021-11-21 13:00","2021","11","21","13:00","-25.4","","-29.2","","71","","","","31","","27","","32.2","","101.72","","","","-39","","Snow,Blowing Snow"
"-96.08","64.30","BAKER LAKE A","2300503","2021-11-21 14:00","2021","11","21","14:00","-25.7","","-29.8","","69","","","","35","","7","","40.2","","101.77","","","","-32","","NA"
"-96.08","64.30","BAKER LAKE A","2300503","2021-11-21 15:00","2021","11","21","15:00","-26.6","","-29.9","","74","","","","35","","7","","40.2","","101.78","","","","-33","","Mostly Cloudy"
"-96.08","64.30","BAKER LAKE A","2300503","2021-11-21 16:00","2021","11","21","16:00","-27.4","","-31.1","","71","","","","18","","5","","24.1","","101.81","","","","-33","","NA"
"-96.08","64.30","BAKER LAKE A","2300503","2021-11-21 17:00","2021","11","21","17:00","-26.9","","-30.4","","73","","","","31","","22","","24.1","","101.78","","","","-40","","NA"
"-96.08","64.30","BAKER LAKE A","2300503","2021-11-21 18:00","2021","11","21","18:00","-26.5","","-29.5","","77","","","","30","","23","","24.1","","101.79","","","","-39","","Mostly Cloudy"
"-96.08","64.30","BAKER LAKE A","2300503","2021-11-21 19:00","2021","11","21","19:00","-26.5","","-29.5","","76","","","","28","","5","","24.1","","101.78","","","","-32","","NA"
"-96.08","64.30","BAKER LAKE A","2300503","2021-11-21 20:00","2021","11","21","20:00","-27.2","","-30.2","","76","","","","30","","17","","24.1","","101.73","","","","-39","","NA"
"-96.08","64.30","BAKER LAKE A","2300503","2021-11-21 21:00","2021","11","21","21:00","-27.3","","-30.3","","76","","","","35","","15","","24.1","","101.71","","","","-38","","Ice Crystals"
"-96.08","64.30","BAKER LAKE A","2300503","2021-11-21 22:00","2021","11","21","22:00","-26.8","","-29.7","","77","","","","29","","17","","24.1","","101.69","","","","-38","","Ice Crystals"
"-96.08","64.30","BAKER LAKE A","2300503","2021-11-21 23:00","2021","11","21","23:00","-27.1","","-30.2","","76","","","","29","","26","","24.1","","101.64","","","","-41","","Ice Crystals"
"-96.08","64.30","BAKER LAKE A","2300503","2021-11-22 00:00","2021","11","22","00:00","-28.2","","-31.3","","75","","","","4","","3","","24.1","","101.66","","","","-31","","Ice Crystals"
"-96.08","64.30","BAKER LAKE A","2300503","2021-11-22 01:00","2021","11","22","01:00","-28.6","","-31.8","","75","","","","14","","4","","24.1","","101.68","","","","-33","","Ice Crystals"
"-96.08","64.30","BAKER LAKE A","2300503","2021-11-22 02:00","2021","11","22","02:00","-27.9","","-31.0","","76","","","","5","","9","","24.1","","101.68","","","","-36","","Ice Crystals"
"-96.08","64.30","BAKER LAKE A","2300503","2021-11-22 03:00","2021","11","22","03:00","-28.8","","-32.0","","75","","","","26","","5","","24.1","","101.68","","","","-34","","Ice Crystals"
"-96.08","64.30","BAKER LAKE A","2300503","2021-11-22 04:00","2021","11","22","04:00","-28.6","","-31.8","","75","","","","30","","4","","24.1","","101.67","","","","-33","","Ice Crystals"
"-96.08","64.30","BAKER LAKE A","2300503","2021-11-22 05:00","2021","11","22","05:00","-29.1","","-32.4","","74","","","","32","","5","","24.1","","101.67","","","","-35","","Ice Crystals"
"-96.08","64.30","BAKER LAKE A","2300503","2021-11-22 06:00","2021","11","22","06:00","-28.2","","-31.4","","75","","","","18","","5","","24.1","","101.62","","","","-34","","Ice Crystals"
"-96.08","64.30","BAKER LAKE A","2300503","2021-11-22 07:00","2021","11","22","07:00","-28.4","","-31.6","","75","","","","29","","13","","24.1","","101.60","","","","-39","","Ice Crystals"
"-96.08","64.30","BAKER LAKE A","2300503","2021-11-22 08:00","2021","11","22","08:00","-29.9","","-33.2","","73","","","","29","","12","","32.2","","101.57","","","","-40","","Ice Crystals"
"-96.08","64.30","BAKER LAKE A","2300503","2021-11-22 09:00","2021","11","22","09:00","-30.9","","-34.2","","73","","","","29","","5","","32.2","","101.58","","","","-37","","Ice Crystals"
"-96.08","64.30","BAKER LAKE A","2300503","2021-11-22 10:00","2021","11","22","10:00","-30.6","","-33.9","","73","","","","36","","1","","32.2","","101.54","","","","-32","","Ice Crystals"
"-96.08","64.30","BAKER LAKE A","2300503","2021-11-22 11:00","2021","11","22","11:00","-29.8","","-33.1","","74","","","","32","","11","","32.2","","101.48","","","","-39","","Ice Crystals"
"-96.08","64.30","BAKER LAKE A","2300503","2021-11-22 12:00","2021","11","22","12:00","-28.5","","-31.8","","74","","","","30","","18","","32.2","","101.44","","","","-41","","Clear"
"-96.08","64.30","BAKER LAKE A","2300503","2021-11-22 13:00","2021","11","22","13:00","-29.0","","-32.4","","73","","","","30","","38","","32.2","","101.38","","","","-46","","Ice Crystals"
"-96.08","64.30","BAKER LAKE A","2300503","2021-11-22 14:00","2021","11","22","14:00","-29.7","","-33.2","","72","","","","13","","3","","32.2","","101.47","","","","-33","","Ice Crystals"
"-96.08","64.30","BAKER LAKE A","2300503","2021-11-22 15:00","2021","11","22","15:00","-30.1","","-33.6","","72","","","","12","","3","","32.2","","101.46","","","","-33","","Ice Crystals"
"-96.08","64.30","BAKER LAKE A","2300503","2021-11-22 16:00","2021","11","22","16:00","-30.2","","-33.8","","72","","","","33","","5","","24.1","","101.40","","","","-36","","Ice Crystals"
"-96.08","64.30","BAKER LAKE A","2300503","2021-11-22 17:00","2021","11","22","17:00","-30.7","","-34.2","","72","","","","30","","17","","24.1","","101.30","","","","-43","","Ice Crystals"
"-96.08","64.30","BAKER LAKE A","2300503","2021-11-22 18:00","2021","11","22","18:00","-31.0","","-34.6","","71","","","","19","","6","","24.1","","101.32","","","","-38","","Ice Crystals"
"-96.08","64.30","BAKER LAKE A","2300503","2021-11-22 19:00","2021","11","22","19:00","-30.4","","-33.9","","72","","","","30","","37","","24.1","","101.19","","","","-48","","Ice Crystals"
"-96.08","64.30","BAKER LAKE A","2300503","2021-11-22 20:00","2021","11","22","20:00","-30.7","","-34.3","","72","","","","31","","19","","24.1","","101.18","","","","-44","","Ice Crystals"
"-96.08","64.30","BAKER LAKE A","2300503","2021-11-22 21:00","2021","11","22","21:00","-30.9","","-34.5","","72","","","","30","","34","","24.1","","101.04","","","","-48","","Ice Crystals"
"-96.08","64.30","BAKER LAKE A","2300503","2021-11-22 22:00","2021","11","22","22:00","-31.1","","-34.8","","71","","","","30","","30","","24.1","","100.97","","","","-47","","Ice Crystals"
"-96.08","64.30","BAKER LAKE A","2300503","2021-11-22 23:00","2021","11","22","23:00","-31.2","","-34.8","","71","","","","31","","9","","24.1","","100.98","","","","-40","","Ice Crystals"
"-96.08","64.30","BAKER LAKE A","2300503","2021-11-23 00:00","2021","11","23","00:00","-30.3","","-33.9","","72","","","","31","","23","","24.1","","100.90","","","","-44","","Ice Crystals"
"-96.08","64.30","BAKER LAKE A","2300503","2021-11-23 01:00","2021","11","23","01:00","-30.3","","-33.9","","72","","","","29","","34","","24.1","","100.78","","","","-47","","Ice Crystals"
"-96.08","64.30","BAKER LAKE A","2300503","2021-11-23 02:00","2021","11","23","02:00","-29.8","","-33.3","","72","","","","29","","30","","24.1","","100.73","","","","-45","","Ice Crystals"
"-96.08","64.30","BAKER LAKE A","2300503","2021-11-23 03:00","2021","11","23","03:00","-29.4","","-32.9","","73","","","","29","","32","","24.1","","100.62","","","","-45","","Ice Crystals"
"-96.08","64.30","BAKER LAKE A","2300503","2021-11-23 04:00","2021","11","23","04:00","-28.8","","-32.2","","73","","","","29","","28","","24.1","","100.51","","","","-44","","Ice Crystals"
"-96.08","64.30","BAKER LAKE A","2300503","2021-11-23 05:00","2021","11","23","05:00","-28.5","","-32.0","","73","","","","28","","28","","24.1","","100.38","","","","-43","","Ice Crystals"
"-96.08","64.30","BAKER LAKE A","2300503","2021-11-23 06:00","2021","11","23","06:00","-28.5","","-32.0","","72","","","","28","","28","","24.1","","100.23","","","","-43","","Ice Crystals"
"-96.08","64.30","BAKER LAKE A","2300503","2021-11-23 07:00","2021","11","23","07:00","-28.3","","-32.0","","71","","","","28","","28","","24.1","","100.03","","","","-43","","Ice Crystals"
"-96.08","64.30","BAKER LAKE A","2300503","2021-11-23 08:00","2021","11","23","08:00","-27.6","","-31.2","","72","","","","28","","28","","24.1","","99.85","","","","-42","","Ice Crystals"
"-96.08","64.30","BAKER LAKE A","2300503","2021-11-23 09:00","2021","11","23","09:00","-25.3","","-28.8","","73","","","","27","","30","","8.1","","99.60","","","","-39","","Snow"
"-96.08","64.30","BAKER LAKE A","2300503","2021-11-23 10:00","2021","11","23","10:00","-22.3","","-25.6","","75","","","","26","","25","","16.1","","99.34","","","","-35","","Snow"
"-96.08","64.30","BAKER LAKE A","2300503","2021-11-23 11:00","2021","11","23","11:00","-20.1","","-23.3","","76","","","","28","","29","","6.4","","99.01","","","","-33","","Snow,Blowing Snow"
"-96.08","64.30","BAKER LAKE A","2300503","2021-11-23 12:00","2021","11","23","12:00","-15.2","","-17.6","","82","","","","32","","35","","1.6","","98.67","","","","-27","","Snow,Blowing Snow"
"-96.08","64.30","BAKER LAKE A","2300503","2021-11-23 13:00","2021","11","23","13:00","-12.1","","-14.0","","86","","","","34","","61","","0.2","","98.39","","","","-26","","Snow,Blowing Snow"
"-96.08","64.30","BAKER LAKE A","2300503","2021-11-23 14:00","2021","11","23","14:00","-10.6","","-12.4","","87","","","","35","","64","","0.2","","98.32","","","","-24","","Snow,Blowing Snow"
"-96.08","64.30","BAKER LAKE A","2300503","2021-11-23 15:00","2021","11","23","15:00","-10.2","","-11.8","","88","","","","35","","73","","0.2","","98.34","","","","-24","","Snow,Blowing Snow"
"-96.08","64.30","BAKER LAKE A","2300503","2021-11-23 16:00","2021","11","23","16:00","-10.2","","-11.8","","88","","","","35","","67","","0.2","","98.41","","","","-23","","Snow,Blowing Snow"
"-96.08","64.30","BAKER LAKE A","2300503","2021-11-23 17:00","2021","11","23","17:00","-10.3","","-12.1","","87","","","","34","","66","","0.2","","98.46","","","","-23","","Snow,Blowing Snow"
"-96.08","64.30","BAKER LAKE A","2300503","2021-11-23 18:00","2021","11","23","18:00","-10.5","","-12.2","","87","","","","34","","66","","0.2","","98.45","","","","-24","","Snow,Blowing Snow"
"-96.08","64.30","BAKER LAKE A","2300503","2021-11-23 19:00","2021","11","23","19:00","-10.7","","-12.5","","87","","","","34","","64","","0.2","","98.46","","","","-24","","Snow,Blowing Snow"
"-96.08","64.30","BAKER LAKE A","2300503","2021-11-23 20:00","2021","11","23","20:00","-10.5","","-12.2","","87","","","","34","","66","","0.4","","98.46","","","","-24","","Snow,Blowing Snow"
"-96.08","64.30","BAKER LAKE A","2300503","2021-11-23 21:00","2021","11","23","21:00","-10.4","","-12.1","","87","","","","33","","59","","0.4","","98.46","","","","-23","","Snow,Blowing Snow"
"-96.08","64.30","BAKER LAKE A","2300503","2021-11-23 22:00","2021","11","23","22:00","-10.0","","-11.8","","87","","","","33","","59","","0.4","","98.51","","","","-23","","Snow,Blowing Snow"
"-96.08","64.30","BAKER LAKE A","2300503","2021-11-23 23:00","2021","11","23","23:00","-10.0","","-11.8","","86","","","","32","","54","","1.0","","98.51","","","","-22","","Snow,Blowing Snow"
"-96.08","64.30","BAKER LAKE A","2300503","2021-11-24 00:00","2021","11","24","00:00","-9.0","","-10.9","","87","","","","32","","47","","2.0","","98.54","","","","-20","","Snow,Blowing Snow"
"-96.08","64.30","BAKER LAKE A","2300503","2021-11-24 01:00","2021","11","24","01:00","-20.1","","-22.8","","79","","","","10","","17","","1.0","","98.83","","","","-30","","Snow"
"-96.08","64.30","BAKER LAKE A","2300503","2021-11-24 02:00","2021","11","24","02:00","-20.7","","-23.8","","77","","","","8","","17","","4.8","","99.00","","","","-31","","Snow"
"-96.08","64.30","BAKER LAKE A","2300503","2021-11-24 03:00","2021","11","24","03:00","-21.1","","-24.3","","76","","","","9","","13","","4.8","","99.17","","","","-30","","Snow"
"-96.08","64.30","BAKER LAKE A","2300503","2021-11-24 04:00","2021","11","24","04:00","-20.9","","-24.0","","77","","","","4","","4","","4.8","","99.27","","","","-24","","Snow"
"-96.08","64.30","BAKER LAKE A","2300503","2021-11-24 05:00","2021","11","24","05:00","-20.5","","-23.6","","77","","","","1","","4","","4.8","","99.37","","","","-24","","Snow"
"-96.08","64.30","BAKER LAKE A","2300503","2021-11-24 06:00","2021","11","24","06:00","-19.8","","-23.0","","76","","","","34","","7","","4.8","","99.44","","","","-25","","Snow"
"-96.08","64.30","BAKER LAKE A","2300503","2021-11-24 07:00","2021","11","24","07:00","-19.2","","-22.1","","78","","","","22","","7","","4.8","","99.52","","","","-25","","Snow"
"-96.08","64.30","BAKER LAKE A","2300503","2021-11-24 08:00","2021","11","24","08:00","-19.0","","-21.8","","79","","","","21","","12","","4.8","","99.58","","","","-27","","Snow"
"-96.08","64.30","BAKER LAKE A","2300503","2021-11-24 09:00","2021","11","24","09:00","-16.3","","-18.3","","84","","","","4","","4","","4.0","","99.57","","","","-19","","Snow"
"-96.08","64.30","BAKER LAKE A","2300503","2021-11-24 10:00","2021","11","24","10:00","-8.1","","-10.1","","86","","","","35","","41","","6.4","","99.61","","","","-18","","Snow,Blowing Snow"
"-96.08","64.30","BAKER LAKE A","2300503","2021-11-24 11:00","2021","11","24","11:00","-8.7","","-10.8","","85","","","","35","","46","","8.1","","99.68","","","","-20","","Snow,Blowing Snow"
"-96.08","64.30","BAKER LAKE A","2300503","2021-11-24 12:00","2021","11","24","12:00","-8.6","","-10.7","","85","","","","34","","46","","8.1","","99.78","","","","-19","","Snow,Blowing Snow"
"-96.08","64.30","BAKER LAKE A","2300503","2021-11-24 13:00","2021","11","24","13:00","-8.7","","-10.8","","85","","","","34","","49","","4.8","","99.87","","","","-20","","Snow,Blowing Snow"
"-96.08","64.30","BAKER LAKE A","2300503","2021-11-24 14:00","2021","11","24","14:00","-9.4","","-11.6","","84","","","","34","","47","","6.4","","100.00","","","","-21","","Snow,Blowing Snow"
"-96.08","64.30","BAKER LAKE A","2300503","2021-11-24 15:00","2021","11","24","15:00","-9.3","","-11.5","","84","","","","34","","47","","4.8","","100.11","","","","-21","","Snow,Blowing Snow"
"-96.08","64.30","BAKER LAKE A","2300503","2021-11-24 16:00","2021","11","24","16:00","-9.4","","-11.7","","83","","","","34","","45","","8.1","","100.24","","","","-20","","Snow,Blowing Snow"
"-96.08","64.30","BAKER LAKE A","2300503","2021-11-24 17:00","2021","11","24","17:00","-9.4","","-11.7","","84","","","","34","","49","","8.1","","100.34","","","","-21","","Snow,Blowing Snow"
"-96.08","64.30","BAKER LAKE A","2300503","2021-11-24 18:00","2021","11","24","18:00","-9.8","","-11.8","","85","","","","34","","54","","9.7","","100.42","","","","-22","","Snow,Blowing Snow"
"-96.08","64.30","BAKER LAKE A","2300503","2021-11-24 19:00","2021","11","24","19:00","-10.4","","-12.8","","83","","","","33","","52","","16.1","","100.49","","","","-22","","Snow,Blowing Snow"
"-96.08","64.30","BAKER LAKE A","2300503","2021-11-24 20:00","2021","11","24","20:00","-11.6","","-14.1","","82","","","","32","","48","","16.1","","100.54","","","","-24","","Snow,Blowing Snow"
"-96.08","64.30","BAKER LAKE A","2300503","2021-11-24 21:00","2021","11","24","21:00","-12.2","","-14.7","","82","","","","33","","51","","24.1","","100.56","","","","-25","","Snow,Blowing Snow"
"-96.08","64.30","BAKER LAKE A","2300503","2021-11-24 22:00","2021","11","24","22:00","-12.4","","-15.0","","82","","","","32","","50","","24.1","","100.60","","","","-25","","Snow,Blowing Snow"
"-96.08","64.30","BAKER LAKE A","2300503","2021-11-24 23:00","2021","11","24","23:00","-12.9","","-15.4","","82","","","","32","","49","","24.1","","100.66","","","","-26","","Snow,Blowing Snow"
"-96.08","64.30","BAKER LAKE A","2300503","2021-11-25 00:00","2021","11","25","00:00","-13.1","","-15.6","","82","","","","32","","45","","24.1","","100.74","","","","-25","","Snow,Blowing Snow"
"-96.08","64.30","BAKER LAKE A","2300503","2021-11-25 01:00","2021","11","25","01:00","-13.4","","-15.9","","82","","","","32","","50","","24.1","","100.81","","","","-26","","Blowing Snow"
"-96.08","64.30","BAKER LAKE A","2300503","2021-11-25 02:00","2021","11","25","02:00","-13.1","","-15.7","","81","","","","32","","48","","24.1","","100.92","","","","-26","","Blowing Snow"
"-96.08","64.30","BAKER LAKE A","2300503","2021-11-25 03:00","2021","11","25","03:00","-13.0","","-15.5","","82","","","","33","","45","","24.1","","101.01","","","","-25","","Blowing Snow"
"-96.08","64.30","BAKER LAKE A","2300503","2021-11-25 04:00","2021","11","25","04:00","-13.8","","-16.6","","80","","","","33","","37","","24.1","","101.08","","","","-25","","Blowing Snow"
"-96.08","64.30","BAKER LAKE A","2300503","2021-11-25 05:00","2021","11","25","05:00","-13.8","","-16.5","","80","","","","33","","30","","24.1","","101.15","","","","-24","","Snow,Blowing Snow"
"-96.08","64.30","BAKER LAKE A","2300503","2021-11-25 06:00","2021","11","25","06:00","-13.7","","-16.4","","80","","","","33","","39","","24.1","","101.14","","","","-26","","Snow,Blowing Snow"
"-96.08","64.30","BAKER LAKE A","2300503","2021-11-25 07:00","2021","11","25","07:00","-14.0","","-16.6","","80","","","","33","","39","","24.1","","101.16","","","","-26","","Snow,Blowing Snow"
"-96.08","64.30","BAKER LAKE A","2300503","2021-11-25 08:00","2021","11","25","08:00","-14.2","","-17.0","","79","","","","32","","33","","24.1","","101.18","","","","-25","","Snow,Blowing Snow"
"-96.08","64.30","BAKER LAKE A","2300503","2021-11-25 09:00","2021","11","25","09:00","-14.4","","-17.5","","78","","","","32","","36","","24.1","","101.20","","","","-26","","Blowing Snow"
"-96.08","64.30","BAKER LAKE A","2300503","2021-11-25 10:00","2021","11","25","10:00","-14.8","","-18.0","","77","","","","32","","28","","32.2","","101.25","","","","-25","","Blowing Snow"
"-96.08","64.30","BAKER LAKE A","2300503","2021-11-25 11:00","2021","11","25","11:00","-14.8","","-17.7","","79","","","","31","","32","","32.2","","101.27","","","","-26","","Blowing Snow"
"-96.08","64.30","BAKER LAKE A","2300503","2021-11-25 12:00","2021","11","25","12:00","-15.1","","-18.2","","77","","","","31","","30","","32.2","","101.36","","","","-26","","Blowing Snow"
"-96.08","64.30","BAKER LAKE A","2300503","2021-11-25 13:00","2021","11","25","13:00","-14.6","","-17.6","","78","","","","32","","35","","16.1","","101.39","","","","-26","","Blowing Snow"
"-96.08","64.30","BAKER LAKE A","2300503","2021-11-25 14:00","2021","11","25","14:00","-15.7","","-18.8","","78","","","","32","","25","","32.2","","101.39","","","","-26","","Blowing Snow"
"-96.08","64.30","BAKER LAKE A","2300503","2021-11-25 15:00","2021","11","25","15:00","-17.4","","-20.5","","77","","","","32","","23","","32.2","","101.41","","","","-28","","Blowing Snow"
"-96.08","64.30","BAKER LAKE A","2300503","2021-11-25 16:00","2021","11","25","16:00","-18.9","","-21.9","","77","","","","35","","9","","32.2","","101.48","","","","-25","","NA"
"-96.08","64.30","BAKER LAKE A","2300503","2021-11-25 17:00","2021","11","25","17:00","-19.8","","-23.0","","76","","","","30","","14","","24.1","","101.50","","","","-29","","NA"
"-96.08","64.30","BAKER LAKE A","2300503","2021-11-25 18:00","2021","11","25","18:00","-20.3","","-23.5","","76","","","","29","","13","","24.1","","101.49","","","","-29","","Clear"
"-96.08","64.30","BAKER LAKE A","2300503","2021-11-25 19:00","2021","11","25","19:00","-21.1","","-24.4","","76","","","","30","","19","","24.1","","101.46","","","","-32","","NA"
"-96.08","64.30","BAKER LAKE A","2300503","2021-11-25 20:00","2021","11","25","20:00","-21.7","","-24.8","","76","","","","29","","15","","24.1","","101.45","","","","-31","","NA"
"-96.08","64.30","BAKER LAKE A","2300503","2021-11-25 21:00","2021","11","25","21:00","-22.4","","-25.7","","75","","","","31","","28","","24.1","","101.42","","","","-35","","Clear"
"-96.08","64.30","BAKER LAKE A","2300503","2021-11-25 22:00","2021","11","25","22:00","-23.0","","-26.1","","76","","","","28","","18","","24.1","","101.43","","","","-34","","NA"
"-96.08","64.30","BAKER LAKE A","2300503","2021-11-25 23:00","2021","11","25","23:00","-23.9","","-26.8","","77","","","","29","","9","","24.1","","101.45","","","","-31","","NA"
"-96.08","64.30","BAKER LAKE A","2300503","2021-11-26 00:00","2021","11","26","00:00","-23.6","","-26.5","","78","","","","28","","17","","24.1","","101.45","","","","-34","","Clear"
"-96.08","64.30","BAKER LAKE A","2300503","2021-11-26 01:00","2021","11","26","01:00","-23.9","","-26.7","","78","","","","30","","18","","24.1","","101.46","","","","-35","","NA"
"-96.08","64.30","BAKER LAKE A","2300503","2021-11-26 02:00","2021","11","26","02:00","-24.4","","-27.3","","78","","","","29","","17","","24.1","","101.48","","","","-35","","NA"
"-96.08","64.30","BAKER LAKE A","2300503","2021-11-26 03:00","2021","11","26","03:00","-24.6","","-27.4","","78","","","","31","","22","","24.1","","101.47","","","","-37","","Clear"
"-96.08","64.30","BAKER LAKE A","2300503","2021-11-26 04:00","2021","11","26","04:00","-23.9","","-26.7","","78","","","","31","","21","","24.1","","101.47","","","","-36","","NA"
"-96.08","64.30","BAKER LAKE A","2300503","2021-11-26 05:00","2021","11","26","05:00","-24.1","","-26.7","","80","","","","30","","20","","24.1","","101.45","","","","-36","","NA"
"-96.08","64.30","BAKER LAKE A","2300503","2021-11-26 06:00","2021","11","26","06:00","-24.6","","-27.2","","79","","","","31","","18","","24.1","","101.43","","","","-36","","Clear"
"-96.08","64.30","BAKER LAKE A","2300503","2021-11-26 07:00","2021","11","26","07:00","-24.1","","-26.9","","79","","","","32","","17","","24.1","","101.45","","","","-35","","NA"
"-96.08","64.30","BAKER LAKE A","2300503","2021-11-26 08:00","2021","11","26","08:00","-24.6","","-27.4","","78","","","","31","","17","","24.1","","101.47","","","","-35","","NA"
"-96.08","64.30","BAKER LAKE A","2300503","2021-11-26 09:00","2021","11","26","09:00","-24.6","","-27.5","","78","","","","32","","14","","24.1","","101.48","","","","-34","","Clear"
"-96.08","64.30","BAKER LAKE A","2300503","2021-11-26 10:00","2021","11","26","10:00","-24.7","","-27.6","","77","","","","33","","13","","32.2","","101.46","","","","-34","","NA"
"-96.08","64.30","BAKER LAKE A","2300503","2021-11-26 11:00","2021","11","26","11:00","-24.9","","-27.9","","77","","","","32","","13","","32.2","","101.47","","","","-34","","NA"
"-96.08","64.30","BAKER LAKE A","2300503","2021-11-26 12:00","2021","11","26","12:00","-24.4","","-27.4","","77","","","","31","","7","","32.2","","101.47","","","","-31","","Clear"
"-96.08","64.30","BAKER LAKE A","2300503","2021-11-26 13:00","2021","11","26","13:00","-24.4","","-27.3","","77","","","","30","","7","","32.2","","101.50","","","","-31","","NA"
"-96.08","64.30","BAKER LAKE A","2300503","2021-11-26 14:00","2021","11","26","14:00","-25.4","","-28.4","","77","","","","35","","10","","32.2","","101.50","","","","-34","","NA"
"-96.08","64.30","BAKER LAKE A","2300503","2021-11-26 15:00","2021","11","26","15:00","-26.4","","-29.5","","76","","","","34","","9","","32.2","","101.53","","","","-34","","Clear"
"-96.08","64.30","BAKER LAKE A","2300503","2021-11-26 16:00","2021","11","26","16:00","-25.9","","-28.8","","77","","","","34","","7","","24.1","","101.53","","","","-33","","NA"
"-96.08","64.30","BAKER LAKE A","2300503","2021-11-26 17:00","2021","11","26","17:00","-25.3","","-28.1","","78","","","","34","","6","","24.1","","101.55","","","","-31","","NA"
"-96.08","64.30","BAKER LAKE A","2300503","2021-11-26 18:00","2021","11","26","18:00","-25.7","","-28.5","","78","","","","1","","10","","24.1","","101.53","","","","-34","","Mainly Clear"
"-96.08","64.30","BAKER LAKE A","2300503","2021-11-26 19:00","2021","11","26","19:00","-26.6","","-29.6","","76","","","","1","","6","","24.1","","101.54","","","","-33","","NA"
"-96.08","64.30","BAKER LAKE A","2300503","2021-11-26 20:00","2021","11","26","20:00","-25.8","","-28.6","","78","","","","1","","5","","24.1","","101.53","","","","-31","","NA"
"-96.08","64.30","BAKER LAKE A","2300503","2021-11-26 21:00","2021","11","26","21:00","-23.5","","-26.1","","79","","","","7","","8","","24.1","","101.51","","","","-30","","Mainly Clear"
"-96.08","64.30","BAKER LAKE A","2300503","2021-11-26 22:00","2021","11","26","22:00","-23.3","","-26.1","","79","","","","8","","12","","24.1","","101.49","","","","-32","","NA"
"-96.08","64.30","BAKER LAKE A","2300503","2021-11-26 23:00","2021","11","26","23:00","-22.5","","-25.3","","78","","","","8","","14","","6.4","","101.49","","","","-32","","Ice Crystals"
"-96.08","64.30","BAKER LAKE A","2300503","2021-11-27 00:00","2021","11","27","00:00","-23.1","","-25.8","","79","","","","6","","14","","24.1","","101.46","","","","-33","","Mainly Clear"
"-96.08","64.30","BAKER LAKE A","2300503","2021-11-27 01:00","2021","11","27","01:00","-23.3","","-26.1","","78","","","","6","","12","","24.1","","101.46","","","","-32","","NA"
"-96.08","64.30","BAKER LAKE A","2300503","2021-11-27 02:00","2021","11","27","02:00","-23.2","","-26.0","","78","","","","4","","13","","24.1","","101.45","","","","-32","","NA"
"-96.08","64.30","BAKER LAKE A","2300503","2021-11-27 03:00","2021","11","27","03:00","-24.4","","-27.4","","77","","","","1","","13","","24.1","","101.43","","","","-34","","Mainly Clear"
"-96.08","64.30","BAKER LAKE A","2300503","2021-11-27 04:00","2021","11","27","04:00","-21.9","","-24.7","","79","","","","8","","10","","24.1","","101.39","","","","-29","","Snow"
"-96.08","64.30","BAKER LAKE A","2300503","2021-11-27 05:00","2021","11","27","05:00","-19.1","","-21.8","","80","","","","7","","13","","24.1","","101.36","","","","-27","","Snow"
"-96.08","64.30","BAKER LAKE A","2300503","2021-11-27 06:00","2021","11","27","06:00","-18.1","","-20.6","","81","","","","10","","21","","24.1","","101.33","","","","-28","","Snow"
"-96.08","64.30","BAKER LAKE A","2300503","2021-11-27 07:00","2021","11","27","07:00","-17.8","","-20.4","","81","","","","9","","18","","24.1","","101.30","","","","-27","","Snow"
"-96.08","64.30","BAKER LAKE A","2300503","2021-11-27 08:00","2021","11","27","08:00","-16.3","","-18.8","","81","","","","8","","15","","24.1","","101.27","","","","-25","","Snow"
"-96.08","64.30","BAKER LAKE A","2300503","2021-11-27 09:00","2021","11","27","09:00","-14.7","","-16.9","","84","","","","9","","22","","16.1","","101.21","","","","-24","","Snow"
"-96.08","64.30","BAKER LAKE A","2300503","2021-11-27 10:00","2021","11","27","10:00","-12.4","","-14.3","","86","","","","11","","30","","9.7","","101.21","","","","-23","","Snow"
"-96.08","64.30","BAKER LAKE A","2300503","2021-11-27 11:00","2021","11","27","11:00","-11.1","","-12.8","","87","","","","11","","40","","2.4","","101.13","","","","-22","","Snow,Blowing Snow"
"-96.08","64.30","BAKER LAKE A","2300503","2021-11-27 12:00","2021","11","27","12:00","-9.7","","-11.3","","88","","","","11","","38","","2.4","","101.12","","","","-20","","Snow,Blowing Snow"
"-96.08","64.30","BAKER LAKE A","2300503","2021-11-27 13:00","2021","11","27","13:00","-9.0","","-10.7","","88","","","","11","","32","","6.4","","101.11","","","","-18","","Snow,Blowing Snow"
"-96.08","64.30","BAKER LAKE A","2300503","2021-11-27 14:00","2021","11","27","14:00","-8.8","","-10.6","","87","","","","11","","32","","4.8","","101.11","","","","-18","","Snow,Blowing Snow"
"-96.08","64.30","BAKER LAKE A","2300503","2021-11-27 15:00","2021","11","27","15:00","-8.7","","-10.3","","88","","","","11","","38","","4.8","","101.07","","","","-19","","Snow,Blowing Snow"
"-96.08","64.30","BAKER LAKE A","2300503","2021-11-27 16:00","2021","11","27","16:00","-8.4","","-9.9","","89","","","","11","","36","","4.8","","101.08","","","","-18","","Snow,Blowing Snow"
"-96.08","64.30","BAKER LAKE A","2300503","2021-11-27 17:00","2021","11","27","17:00","-8.2","","-9.9","","88","","","","11","","39","","8.1","","101.07","","","","-18","","Snow,Blowing Snow"
"-96.08","64.30","BAKER LAKE A","2300503","2021-11-27 18:00","2021","11","27","18:00","-8.2","","-9.8","","89","","","","11","","33","","6.4","","101.09","","","","-18","","Snow,Blowing Snow"
"-96.08","64.30","BAKER LAKE A","2300503","2021-11-27 19:00","2021","11","27","19:00","-8.2","","-9.8","","88","","","","12","","34","","12.9","","101.05","","","","-18","","Snow,Blowing Snow"
"-96.08","64.30","BAKER LAKE A","2300503","2021-11-27 20:00","2021","11","27","20:00","-7.9","","-9.7","","87","","","","12","","32","","8.1","","101.03","","","","-17","","Snow,Blowing Snow"
"-96.08","64.30","BAKER LAKE A","2300503","2021-11-27 21:00","2021","11","27","21:00","-8.0","","-9.6","","89","","","","12","","33","","9.7","","100.99","","","","-17","","Snow,Blowing Snow"
"-96.08","64.30","BAKER LAKE A","2300503","2021-11-27 22:00","2021","11","27","22:00","-7.9","","-9.4","","89","","","","12","","36","","16.1","","100.94","","","","-18","","Snow,Blowing Snow"
"-96.08","64.30","BAKER LAKE A","2300503","2021-11-27 23:00","2021","11","27","23:00","-7.8","","-9.2","","90","","","","13","","33","","4.8","","100.92","","","","-17","","Snow,Blowing Snow"
"-96.08","64.30","BAKER LAKE A","2300503","2021-11-28 00:00","2021","11","28","00:00","-7.7","","-9.1","","90","","","","14","","27","","8.1","","100.92","","","","-16","","Snow,Blowing Snow"
"-96.08","64.30","BAKER LAKE A","2300503","2021-11-28 01:00","2021","11","28","01:00","-9.2","","-11.7","","82","","","","28","","22","","24.1","","100.91","","","","-17","","Snow,Blowing Snow"
"-96.08","64.30","BAKER LAKE A","2300503","2021-11-28 02:00","2021","11","28","02:00","-10.9","","-13.2","","83","","","","28","","25","","24.1","","100.95","","","","-20","","Snow,Blowing Snow"
"-96.08","64.30","BAKER LAKE A","2300503","2021-11-28 03:00","2021","11","28","03:00","-11.7","","-14.2","","82","","","","29","","23","","24.1","","100.98","","","","-21","","Snow,Blowing Snow"
"-96.08","64.30","BAKER LAKE A","2300503","2021-11-28 04:00","2021","11","28","04:00","-12.6","","-15.7","","78","","","","29","","28","","24.1","","101.00","","","","-23","","Snow,Blowing Snow"
"-96.08","64.30","BAKER LAKE A","2300503","2021-11-28 05:00","2021","11","28","05:00","-13.8","","-17.0","","77","","","","29","","27","","24.1","","101.04","","","","-24","","Snow,Blowing Snow"
"-96.08","64.30","BAKER LAKE A","2300503","2021-11-28 06:00","2021","11","28","06:00","-15.3","","-18.5","","77","","","","29","","31","","24.1","","101.05","","","","-27","","Snow,Blowing Snow"
"-96.08","64.30","BAKER LAKE A","2300503","2021-11-28 07:00","2021","11","28","07:00","-18.0","","-21.2","","76","","","","29","","28","","24.1","","101.07","","","","-30","","Ice Crystals,Blowing Snow"
"-96.08","64.30","BAKER LAKE A","2300503","2021-11-28 08:00","2021","11","28","08:00","-19.7","","-23.0","","76","","","","28","","23","","24.1","","101.11","","","","-31","","Ice Crystals"
"-96.08","64.30","BAKER LAKE A","2300503","2021-11-28 09:00","2021","11","28","09:00","-20.9","","-23.8","","78","","","","24","","8","","32.2","","101.11","","","","-27","","Ice Crystals"
"-96.08","64.30","BAKER LAKE A","2300503","2021-11-28 10:00","2021","11","28","10:00","-21.4","","-24.3","","78","","","","36","","3","","32.2","","101.14","","","","-24","","NA"
"-96.08","64.30","BAKER LAKE A","2300503","2021-11-28 11:00","2021","11","28","11:00","-21.4","","-24.9","","74","","","","27","","16","","32.2","","101.14","","","","-31","","Ice Crystals"
"-96.08","64.30","BAKER LAKE A","2300503","2021-11-28 12:00","2021","11","28","12:00","-21.6","","-24.9","","76","","","","28","","18","","32.2","","101.13","","","","-32","","Mainly Clear"
"-96.08","64.30","BAKER LAKE A","2300503","2021-11-28 13:00","2021","11","28","13:00","-22.0","","-25.3","","75","","","","30","","3","","32.2","","101.12","","","","-25","","Ice Crystals"
"-96.08","64.30","BAKER LAKE A","2300503","2021-11-28 14:00","2021","11","28","14:00","-21.8","","-25.1","","75","","","","36","","10","","32.2","","101.15","","","","-29","","Ice Crystals"
"-96.08","64.30","BAKER LAKE A","2300503","2021-11-28 15:00","2021","11","28","15:00","-22.0","","-25.2","","76","","","","29","","22","","32.2","","101.13","","","","-34","","Ice Crystals"
"-96.08","64.30","BAKER LAKE A","2300503","2021-11-28 16:00","2021","11","28","16:00","-23.2","","-26.4","","75","","","","27","","13","","32.2","","101.12","","","","-32","","Ice Crystals"
"-96.08","64.30","BAKER LAKE A","2300503","2021-11-28 17:00","2021","11","28","17:00","-24.0","","-27.4","","74","","","","31","","10","","24.1","","101.11","","","","-32","","Ice Crystals"
"-96.08","64.30","BAKER LAKE A","2300503","2021-11-28 18:00","2021","11","28","18:00","-23.8","","-26.9","","76","","","","29","","8","","24.1","","101.08","","","","-31","","Ice Crystals"
"-96.08","64.30","BAKER LAKE A","2300503","2021-11-28 19:00","2021","11","28","19:00","-23.6","","-26.6","","77","","","","30","","6","","24.1","","101.03","","","","-29","","Ice Crystals"
"-96.08","64.30","BAKER LAKE A","2300503","2021-11-28 20:00","2021","11","28","20:00","-25.9","","-28.6","","78","","","","29","","27","","24.1","","100.99","","","","-40","","Ice Crystals"
"-96.08","64.30","BAKER LAKE A","2300503","2021-11-28 21:00","2021","11","28","21:00","-24.6","","-27.8","","76","","","","36","","4","","24.1","","100.96","","","","-29","","Ice Crystals"
"-96.08","64.30","BAKER LAKE A","2300503","2021-11-28 22:00","2021","11","28","22:00","-25.5","","-28.6","","76","","","","1","","4","","24.1","","100.92","","","","-30","","Ice Crystals"
"-96.08","64.30","BAKER LAKE A","2300503","2021-11-28 23:00","2021","11","28","23:00","-26.8","","-29.6","","77","","","","34","","9","","24.1","","100.89","","","","-35","","Ice Crystals"
"-96.08","64.30","BAKER LAKE A","2300503","2021-11-29 00:00","2021","11","29","00:00","-25.1","","-28.4","","74","","","","36","","3","","24.1","","100.88","","","","-28","","Ice Crystals"
"-96.08","64.30","BAKER LAKE A","2300503","2021-11-29 01:00","2021","11","29","01:00","-27.1","","-29.6","","80","","","","33","","8","","24.1","","100.83","","","","-35","","Ice Crystals"
"-96.08","64.30","BAKER LAKE A","2300503","2021-11-29 02:00","2021","11","29","02:00","-27.2","","-30.2","","76","","","","31","","7","","24.1","","100.77","","","","-34","","Ice Crystals"
"-96.08","64.30","BAKER LAKE A","2300503","2021-11-29 03:00","2021","11","29","03:00","-27.1","","-30.2","","76","","","","35","","7","","24.1","","100.74","","","","-34","","Ice Crystals"
"-96.08","64.30","BAKER LAKE A","2300503","2021-11-29 04:00","2021","11","29","04:00","-27.3","","-30.4","","75","","","","32","","9","","24.1","","100.67","","","","-35","","Ice Crystals"
"-96.08","64.30","BAKER LAKE A","2300503","2021-11-29 05:00","2021","11","29","05:00","-28.1","","-31.3","","75","","","","36","","3","","24.1","","100.65","","","","-31","","Ice Crystals"
"-96.08","64.30","BAKER LAKE A","2300503","2021-11-29 06:00","2021","11","29","06:00","-28.1","","-31.2","","75","","","","36","","5","","24.1","","100.54","","","","-33","","Ice Crystals"
"-96.08","64.30","BAKER LAKE A","2300503","2021-11-29 07:00","2021","11","29","07:00","-26.2","","-29.4","","76","","","","36","","12","","24.1","","100.50","","","","-36","","Ice Crystals"
"-96.08","64.30","BAKER LAKE A","2300503","2021-11-29 08:00","2021","11","29","08:00","-25.4","","-28.5","","76","","","","36","","3","","24.1","","100.39","","","","-28","","Ice Crystals"
"-96.08","64.30","BAKER LAKE A","2300503","2021-11-29 09:00","2021","11","29","09:00","-26.0","","-29.1","","76","","","","30","","3","","32.2","","100.33","","","","-29","","Mostly Cloudy"
"-96.08","64.30","BAKER LAKE A","2300503","2021-11-29 10:00","2021","11","29","10:00","-25.3","","-28.3","","76","","","","36","","2","","32.2","","100.29","","","","-27","","Ice Crystals"
"-96.08","64.30","BAKER LAKE A","2300503","2021-11-29 11:00","2021","11","29","11:00","-25.7","","-28.7","","77","","","","36","","3","","32.2","","100.23","","","","-29","","Ice Crystals"
"-96.08","64.30","BAKER LAKE A","2300503","2021-11-29 12:00","2021","11","29","12:00","-24.7","","-27.4","","78","","","","10","","4","","32.2","","100.16","","","","-29","","Ice Crystals"
"-96.08","64.30","BAKER LAKE A","2300503","2021-11-29 13:00","2021","11","29","13:00","-25.8","","-28.8","","77","","","","3","","6","","24.1","","100.12","","","","-32","","Ice Crystals"
"-96.08","64.30","BAKER LAKE A","2300503","2021-11-29 14:00","2021","11","29","14:00","-24.1","","-27.0","","78","","","","6","","14","","8.1","","100.07","","","","-34","","Ice Crystals"
"-96.08","64.30","BAKER LAKE A","2300503","2021-11-29 15:00","2021","11","29","15:00","-23.6","","-26.6","","77","","","","8","","14","","9.7","","100.05","","","","-33","","Ice Crystals"
"-96.08","64.30","BAKER LAKE A","2300503","2021-11-29 16:00","2021","11","29","16:00","-23.3","","-26.3","","77","","","","10","","21","","9.7","","100.02","","","","-35","","Ice Crystals"
"-96.08","64.30","BAKER LAKE A","2300503","2021-11-29 17:00","2021","11","29","17:00","-23.2","","-26.2","","77","","","","9","","18","","11.3","","99.99","","","","-34","","Ice Crystals"
"-96.08","64.30","BAKER LAKE A","2300503","2021-11-29 18:00","2021","11","29","18:00","-22.7","","-25.5","","78","","","","9","","19","","11.3","","99.98","","","","-34","","Ice Crystals"
"-96.08","64.30","BAKER LAKE A","2300503","2021-11-29 19:00","2021","11","29","19:00","-21.6","","-24.3","","79","","","","10","","14","","16.1","","99.94","","","","-31","","Ice Crystals"
"-96.08","64.30","BAKER LAKE A","2300503","2021-11-29 20:00","2021","11","29","20:00","-21.1","","-23.7","","79","","","","9","","15","","11.3","","99.91","","","","-30","","Snow"
"-96.08","64.30","BAKER LAKE A","2300503","2021-11-29 21:00","2021","11","29","21:00","-19.9","","-22.4","","80","","","","11","","19","","24.1","","99.87","","","","-30","","Snow"
"-96.08","64.30","BAKER LAKE A","2300503","2021-11-29 22:00","2021","11","29","22:00","-19.4","","-22.1","","80","","","","11","","17","","16.1","","99.84","","","","-29","","Snow"
"-96.08","64.30","BAKER LAKE A","2300503","2021-11-29 23:00","2021","11","29","23:00","-19.1","","-21.8","","80","","","","10","","16","","24.1","","99.87","","","","-28","","Ice Crystals"
"-96.08","64.30","BAKER LAKE A","2300503","2021-11-30 00:00","2021","11","30","00:00","-18.7","","-21.3","","80","","","","9","","12","","24.1","","99.86","","","","-26","","Snow"
"-96.08","64.30","BAKER LAKE A","2300503","2021-11-30 01:00","2021","11","30","01:00","-17.6","","-20.1","","82","","","","12","","14","","24.1","","99.82","","","","-26","","Snow"
"-96.08","64.30","BAKER LAKE A","2300503","2021-11-30 02:00","2021","11","30","02:00","-17.9","","-20.3","","81","","","","13","","8","","24.1","","99.83","","","","-24","","Snow"
"-96.08","64.30","BAKER LAKE A","2300503","2021-11-30 03:00","2021","11","30","03:00","-18.3","","-20.7","","82","","","","5","","6","","24.1","","99.88","","","","-23","","Snow"
"-96.08","64.30","BAKER LAKE A","2300503","2021-11-30 04:00","2021","11","30","04:00","-18.5","","-21.1","","81","","","","32","","5","","24.1","","99.91","","","","-23","","Snow"
"-96.08","64.30","BAKER LAKE A","2300503","2021-11-30 05:00","2021","11","30","05:00","-18.6","","-21.1","","81","","","","29","","3","","24.1","","99.93","","","","-21","","Snow"
"-96.08","64.30","BAKER LAKE A","2300503","2021-11-30 06:00","2021","11","30","06:00","-17.8","","-20.3","","81","","","","30","","4","","24.1","","99.97","","","","-21","","Snow"
"-96.08","64.30","BAKER LAKE A","2300503","2021-11-30 07:00","2021","11","30","07:00","-17.6","","-20.5","","79","","","","30","","15","","16.1","","100.00","","","","-26","","Snow"
"-96.08","64.30","BAKER LAKE A","2300503","2021-11-30 08:00","2021","11","30","08:00","-17.7","","-20.9","","76","","","","31","","29","","24.1","","100.04","","","","-29","","Snow,Blowing Snow"
"-96.08","64.30","BAKER LAKE A","2300503","2021-11-30 09:00","2021","11","30","09:00","-18.2","","-21.6","","75","","","","31","","30","","16.1","","100.09","","","","-30","","Snow"
"-96.08","64.30","BAKER LAKE A","2300503","2021-11-30 10:00","2021","11","30","10:00","-19.2","","-22.5","","75","","","","31","","32","","9.7","","100.14","","","","-32","","Snow"
"-96.08","64.30","BAKER LAKE A","2300503","2021-11-30 11:00","2021","11","30","11:00","-19.4","","-22.9","","74","","","","31","","32","","8.1","","100.14","","","","-32","","Snow"
"-96.08","64.30","BAKER LAKE A","2300503","2021-11-30 12:00","2021","11","30","12:00","-20.2","","-23.7","","74","","","","30","","31","","11.3","","100.14","","","","-33","","Snow,Blowing Snow"
"-96.08","64.30","BAKER LAKE A","2300503","2021-11-30 13:00","2021","11","30","13:00","-19.7","","-23.2","","74","","","","31","","34","","9.7","","100.14","","","","-33","","Snow,Blowing Snow"
"-96.08","64.30","BAKER LAKE A","2300503","2021-11-30 14:00","2021","11","30","14:00","-20.3","","-23.6","","75","","","","30","","27","","11.3","","100.18","","","","-32","","Snow,Blowing Snow"
"-96.08","64.30","BAKER LAKE A","2300503","2021-11-30 15:00","2021","11","30","15:00","-20.2","","-23.6","","75","","","","31","","31","","16.1","","100.15","","","","-33","","Snow,Blowing Snow"
"-96.08","64.30","BAKER LAKE A","2300503","2021-11-30 16:00","2021","11","30","16:00","-21.4","","-24.8","","74","","","","30","","18","","17.7","","100.22","","","","-32","","Snow,Blowing Snow"
"-96.08","64.30","BAKER LAKE A","2300503","2021-11-30 17:00","2021","11","30","17:00","-21.2","","-24.5","","75","","","","31","","40","","17.7","","100.16","","","","-36","","Snow,Blowing Snow"
"-96.08","64.30","BAKER LAKE A","2300503","2021-11-30 18:00","2021","11","30","18:00","-22.1","","-25.5","","75","","","","31","","36","","16.1","","100.15","","","","-36","","Snow,Blowing Snow"
"-96.08","64.30","BAKER LAKE A","2300503","2021-11-30 19:00","2021","11","30","19:00","-22.7","","-26.1","","74","","","","31","","24","","24.1","","100.17","","","","-35","","Ice Crystals"
"-96.08","64.30","BAKER LAKE A","2300503","2021-11-30 20:00","2021","11","30","20:00","-23.5","","-27.1","","73","","","","31","","32","","24.1","","100.13","","","","-38","","Ice Crystals,Blowing Snow"
"-96.08","64.30","BAKER LAKE A","2300503","2021-11-30 21:00","2021","11","30","21:00","-23.9","","-27.4","","73","","","","31","","35","","24.1","","100.09","","","","-39","","Ice Crystals,Blowing Snow"
"-96.08","64.30","BAKER LAKE A","2300503","2021-11-30 22:00","2021","11","30","22:00","-24.2","","-27.6","","74","","","","32","","34","","24.1","","100.07","","","","-39","","Ice Crystals,Blowing Snow"
"-96.08","64.30","BAKER LAKE A","2300503","2021-11-30 23:00","2021","11","30","23:00","-24.4","","-27.8","","74","","","","32","","43","","24.1","","100.00","","","","-40","","Ice Crystals,Blowing Snow"
