"Longitude (x)","Latitude (y)","Station Name","Climate ID","Date/Time (LST)","Year","Month","Day","Time (LST)","Temp (°C)","Temp Flag","Dew Point Temp (°C)","Dew Point Temp Flag","Rel Hum (%)","Rel Hum Flag","Precip. Amount (mm)","Precip. Amount Flag","Wind Dir (10s deg)","Wind Dir Flag","Wind Spd (km/h)","Wind Spd Flag","Visibility (km)","Visibility Flag","Stn Press (kPa)","Stn Press Flag","Hmdx","Hmdx Flag","Wind Chill","Wind Chill Flag","Weather"
"-96.08","64.30","BAKER LAKE A","2300503","2021-03-01 00:00","2021","03","01","00:00","-25.2","","-29.1","","71","","","","30","","39","","1.6","","100.35","","","","-41","","Snow,Blowing Snow"
"-96.08","64.30","BAKER LAKE A","2300503","2021-03-01 01:00","2021","03","01","01:00","-25.1","","-28.9","","71","","","","29","","34","","1.6","","100.34","","","","-40","","Snow,Blowing Snow"
"-96.08","64.30","BAKER LAKE A","2300503","2021-03-01 02:00","2021","03","01","02:00","-24.9","","-28.7","","71","","","","29","","35","","2.4","","100.36","","","","-40","","Snow,Blowing Snow"
"-96.08","64.30","BAKER LAKE A","2300503","2021-03-01 03:00","2021","03","01","03:00","-25.0","","-28.8","","71","","","","30","","36","","3.2","","100.37","","","","-40","","Snow,Blowing Snow"
"-96.08","64.30","BAKER LAKE A","2300503","2021-03-01 04:00","2021","03","01","04:00","-25.1","","-28.9","","71","","","","30","","37","","3.2","","100.33","","","","-40","","Snow,Blowing Snow"
"-96.08","64.30","BAKER LAKE A","2300503","2021-03-01 05:00","2021","03","01","05:00","-25.5","","-29.4","","70","","","","30","","34","","4.8","","100.34","","","","-40","","Ice Crystals,Blowing Snow"
"-96.08","64.30","BAKER LAKE A","2300503","2021-03-01 06:00","2021","03","01","06:00","-25.6","","-29.6","","70","","","","30","","27","","16.1","","100.37","","","","-39","","Ice Crystals,Blowing Snow"
"-96.08","64.30","BAKER LAKE A","2300503","2021-03-01 07:00","2021","03","01","07:00","-26.4","","-30.4","","70","","","","29","","33","","24.1","","100.36","","","","-41","","Ice Crystals,Blowing Snow"
"-96.08","64.30","BAKER LAKE A","2300503","2021-03-01 08:00","2021","03","01","08:00","-25.5","","-29.5","","70","","","","30","","36","","12.9","","100.36","","","","-41","","Ice Crystals,Blowing Snow"
"-96.08","64.30","BAKER LAKE A","2300503","2021-03-01 09:00","2021","03","01","09:00","-24.9","","-28.8","","70","","","","30","","31","","4.0","","100.34","","","","-39","","Snow,Blowing Snow"
"-96.08","64.30","BAKER LAKE A","2300503","2021-03-01 10:00","2021","03","01","10:00","-24.3","","-28.2","","71","","","","30","","31","","2.4","","100.37","","","","-38","","Snow,Blowing Snow"
"-96.08","64.30","BAKER LAKE A","2300503","2021-03-01 11:00","2021","03","01","11:00","-23.9","","-28.0","","70","","","","31","","28","","6.4","","100.37","","","","-37","","Snow,Blowing Snow"
"-96.08","64.30","BAKER LAKE A","2300503","2021-03-01 12:00","2021","03","01","12:00","-23.7","","-28.0","","68","","","","32","","27","","9.7","","100.43","","","","-37","","Snow,Blowing Snow"
"-96.08","64.30","BAKER LAKE A","2300503","2021-03-01 13:00","2021","03","01","13:00","-24.5","","-28.9","","67","","","","29","","28","","16.1","","100.44","","","","-38","","Snow,Blowing Snow"
"-96.08","64.30","BAKER LAKE A","2300503","2021-03-01 14:00","2021","03","01","14:00","-25.4","","-30.1","","65","","","","30","","27","","24.1","","100.46","","","","-39","","Snow,Blowing Snow"
"-96.08","64.30","BAKER LAKE A","2300503","2021-03-01 15:00","2021","03","01","15:00","-26.6","","-31.6","","64","","","","32","","22","","32.2","","100.51","","","","-39","","Ice Crystals,Blowing Snow"
"-96.08","64.30","BAKER LAKE A","2300503","2021-03-01 16:00","2021","03","01","16:00","-27.9","","-32.6","","65","","","","32","","30","","32.2","","100.53","","","","-43","","Ice Crystals,Blowing Snow"
"-96.08","64.30","BAKER LAKE A","2300503","2021-03-01 17:00","2021","03","01","17:00","-28.8","","-33.4","","65","","","","32","","23","","32.2","","100.60","","","","-42","","Ice Crystals"
"-96.08","64.30","BAKER LAKE A","2300503","2021-03-01 18:00","2021","03","01","18:00","-29.9","","-34.3","","66","","","","34","","27","","32.2","","100.65","","","","-45","","Ice Crystals"
"-96.08","64.30","BAKER LAKE A","2300503","2021-03-01 19:00","2021","03","01","19:00","-31.4","","-35.8","","66","","","","36","","15","","24.1","","100.69","","","","-43","","Ice Crystals"
"-96.08","64.30","BAKER LAKE A","2300503","2021-03-01 20:00","2021","03","01","20:00","-32.8","","-37.4","","65","","","","1","","16","","24.1","","100.74","","","","-45","","Ice Crystals"
"-96.08","64.30","BAKER LAKE A","2300503","2021-03-01 21:00","2021","03","01","21:00","-33.9","","-38.5","","64","","","","34","","8","","24.1","","100.76","","","","-43","","Ice Crystals"
"-96.08","64.30","BAKER LAKE A","2300503","2021-03-01 22:00","2021","03","01","22:00","-35.0","","-39.6","","64","","","","32","","18","","24.1","","100.80","","","","-49","","Ice Crystals"
"-96.08","64.30","BAKER LAKE A","2300503","2021-03-01 23:00","2021","03","01","23:00","-35.5","","-40.0","","64","","","","34","","20","","24.1","","100.84","","","","-50","","Ice Crystals"
"-96.08","64.30","BAKER LAKE A","2300503","2021-03-02 00:00","2021","03","02","00:00","-35.9","","-40.5","","63","","","","34","","22","","24.1","","100.90","","","","-51","","Ice Crystals"
"-96.08","64.30","BAKER LAKE A","2300503","2021-03-02 01:00","2021","03","02","01:00","-36.5","","-41.1","","63","","","","34","","19","","24.1","","100.92","","","","-51","","Ice Crystals"
"-96.08","64.30","BAKER LAKE A","2300503","2021-03-02 02:00","2021","03","02","02:00","-36.6","","-41.3","","63","","","","34","","15","","24.1","","100.94","","","","-50","","Ice Crystals"
"-96.08","64.30","BAKER LAKE A","2300503","2021-03-02 03:00","2021","03","02","03:00","-37.4","","-41.9","","64","","","","34","","18","","24.1","","101.01","","","","-52","","Ice Crystals"
"-96.08","64.30","BAKER LAKE A","2300503","2021-03-02 04:00","2021","03","02","04:00","-37.5","","-42.0","","64","","","","32","","13","","24.1","","101.00","","","","-50","","Ice Crystals"
"-96.08","64.30","BAKER LAKE A","2300503","2021-03-02 05:00","2021","03","02","05:00","-38.1","","-42.6","","64","","","","32","","9","","24.1","","101.04","","","","-48","","Ice Crystals"
"-96.08","64.30","BAKER LAKE A","2300503","2021-03-02 06:00","2021","03","02","06:00","-38.3","","-42.7","","64","","","","32","","13","","24.1","","101.13","","","","-51","","Ice Crystals"
"-96.08","64.30","BAKER LAKE A","2300503","2021-03-02 07:00","2021","03","02","07:00","-38.0","","-42.4","","65","","","","20","","7","","32.2","","101.16","","","","-47","","Ice Crystals"
"-96.08","64.30","BAKER LAKE A","2300503","2021-03-02 08:00","2021","03","02","08:00","-38.0","","-42.3","","65","","","","35","","3","","24.1","","101.19","","","","-42","","Ice Crystals"
"-96.08","64.30","BAKER LAKE A","2300503","2021-03-02 09:00","2021","03","02","09:00","-38.2","","-42.7","","64","","","","18","","5","","24.1","","101.21","","","","-45","","Ice Crystals"
"-96.08","64.30","BAKER LAKE A","2300503","2021-03-02 10:00","2021","03","02","10:00","-37.7","","-42.2","","64","","","","28","","4","","9.7","","101.20","","","","-43","","Ice Crystals,Fog"
"-96.08","64.30","BAKER LAKE A","2300503","2021-03-02 11:00","2021","03","02","11:00","-35.8","","-40.5","","63","","","","29","","9","","16.1","","101.23","","","","-45","","Ice Crystals"
"-96.08","64.30","BAKER LAKE A","2300503","2021-03-02 12:00","2021","03","02","12:00","-35.9","","-41.0","","61","","","","8","","5","","32.2","","101.21","","","","-42","","Ice Crystals"
"-96.08","64.30","BAKER LAKE A","2300503","2021-03-02 13:00","2021","03","02","13:00","-34.9","","-40.1","","60","","","","27","","3","","32.2","","101.22","","","","-39","","Ice Crystals"
"-96.08","64.30","BAKER LAKE A","2300503","2021-03-02 14:00","2021","03","02","14:00","-34.6","","-39.8","","60","","","","28","","4","","32.2","","101.27","","","","-40","","Ice Crystals"
"-96.08","64.30","BAKER LAKE A","2300503","2021-03-02 15:00","2021","03","02","15:00","-35.0","","-40.1","","61","","","","22","","7","","32.2","","101.31","","","","-43","","Ice Crystals"
"-96.08","64.30","BAKER LAKE A","2300503","2021-03-02 16:00","2021","03","02","16:00","-35.3","","-40.1","","62","","","","20","","5","","32.2","","101.34","","","","-42","","Ice Crystals"
"-96.08","64.30","BAKER LAKE A","2300503","2021-03-02 17:00","2021","03","02","17:00","-35.9","","-40.6","","63","","","","10","","4","","32.2","","101.33","","","","-41","","Ice Crystals"
"-96.08","64.30","BAKER LAKE A","2300503","2021-03-02 18:00","2021","03","02","18:00","-36.2","","-40.6","","65","","","","12","","3","","32.2","","101.36","","","","-40","","Ice Crystals"
"-96.08","64.30","BAKER LAKE A","2300503","2021-03-02 19:00","2021","03","02","19:00","-37.0","","-41.1","","66","","","","14","","8","","24.1","","101.38","","","","-46","","Ice Crystals"
"-96.08","64.30","BAKER LAKE A","2300503","2021-03-02 20:00","2021","03","02","20:00","-37.9","","-42.1","","66","","","","36","","1","","24.1","","101.40","","","","-39","","Ice Crystals"
"-96.08","64.30","BAKER LAKE A","2300503","2021-03-02 21:00","2021","03","02","21:00","-36.5","","-40.8","","65","","","","15","","9","","24.1","","101.39","","","","-46","","Ice Crystals"
"-96.08","64.30","BAKER LAKE A","2300503","2021-03-02 22:00","2021","03","02","22:00","-37.3","","-41.6","","65","","","","15","","5","","24.1","","101.39","","","","-44","","Ice Crystals"
"-96.08","64.30","BAKER LAKE A","2300503","2021-03-02 23:00","2021","03","02","23:00","-38.2","","-42.5","","65","","","","36","","3","","24.1","","101.39","","","","-42","","Ice Crystals"
"-96.08","64.30","BAKER LAKE A","2300503","2021-03-03 00:00","2021","03","03","00:00","-38.0","","-42.3","","65","","","","36","","1","","24.1","","101.44","","","","-39","","Ice Crystals"
"-96.08","64.30","BAKER LAKE A","2300503","2021-03-03 01:00","2021","03","03","01:00","-36.4","","-40.7","","65","","","","13","","4","","24.1","","101.50","","","","-42","","Snow"
"-96.08","64.30","BAKER LAKE A","2300503","2021-03-03 02:00","2021","03","03","02:00","-35.0","","-39.2","","66","","","","11","","14","","24.1","","101.53","","","","-47","","Snow"
"-96.08","64.30","BAKER LAKE A","2300503","2021-03-03 03:00","2021","03","03","03:00","-34.1","","-38.3","","67","","","","11","","17","","24.1","","101.53","","","","-47","","Snow"
"-96.08","64.30","BAKER LAKE A","2300503","2021-03-03 04:00","2021","03","03","04:00","-33.5","","-37.6","","67","","","","11","","13","","24.1","","101.54","","","","-45","","Snow"
"-96.08","64.30","BAKER LAKE A","2300503","2021-03-03 05:00","2021","03","03","05:00","-32.7","","-36.9","","67","","","","11","","10","","24.1","","101.54","","","","-42","","Snow"
"-96.08","64.30","BAKER LAKE A","2300503","2021-03-03 06:00","2021","03","03","06:00","-32.2","","-36.3","","68","","","","11","","16","","24.1","","101.57","","","","-45","","Snow"
"-96.08","64.30","BAKER LAKE A","2300503","2021-03-03 07:00","2021","03","03","07:00","-32.0","","-36.1","","68","","","","10","","13","","24.1","","101.56","","","","-43","","Snow"
"-96.08","64.30","BAKER LAKE A","2300503","2021-03-03 08:00","2021","03","03","08:00","-31.1","","-35.1","","68","","","","11","","18","","6.4","","101.54","","","","-44","","Snow"
"-96.08","64.30","BAKER LAKE A","2300503","2021-03-03 09:00","2021","03","03","09:00","-29.7","","-33.6","","69","","","","10","","22","","1.2","","101.51","","","","-43","","Snow"
"-96.08","64.30","BAKER LAKE A","2300503","2021-03-03 10:00","2021","03","03","10:00","-27.8","","-31.6","","70","","","","9","","27","","1.2","","101.48","","","","-42","","Snow,Blowing Snow"
"-96.08","64.30","BAKER LAKE A","2300503","2021-03-03 11:00","2021","03","03","11:00","-26.1","","-29.9","","71","","","","11","","36","","0.8","","101.41","","","","-42","","Snow,Blowing Snow"
"-96.08","64.30","BAKER LAKE A","2300503","2021-03-03 12:00","2021","03","03","12:00","-24.1","","-27.8","","72","","","","9","","24","","1.2","","101.39","","","","-37","","Snow,Blowing Snow"
"-96.08","64.30","BAKER LAKE A","2300503","2021-03-03 13:00","2021","03","03","13:00","-21.1","","-24.5","","75","","","","14","","34","","1.0","","101.35","","","","-35","","Snow,Blowing Snow"
"-96.08","64.30","BAKER LAKE A","2300503","2021-03-03 14:00","2021","03","03","14:00","-19.9","","-23.1","","76","","","","14","","34","","0.8","","101.35","","","","-33","","Snow,Blowing Snow"
"-96.08","64.30","BAKER LAKE A","2300503","2021-03-03 15:00","2021","03","03","15:00","-18.3","","-21.3","","77","","","","16","","34","","1.0","","101.39","","","","-31","","Snow,Blowing Snow"
"-96.08","64.30","BAKER LAKE A","2300503","2021-03-03 16:00","2021","03","03","16:00","-17.8","","-20.8","","78","","","","16","","28","","1.2","","101.44","","","","-29","","Snow,Blowing Snow"
"-96.08","64.30","BAKER LAKE A","2300503","2021-03-03 17:00","2021","03","03","17:00","-17.5","","-20.5","","78","","","","17","","25","","4.0","","101.52","","","","-28","","Snow,Blowing Snow"
"-96.08","64.30","BAKER LAKE A","2300503","2021-03-03 18:00","2021","03","03","18:00","-17.4","","-20.3","","78","","","","17","","21","","9.7","","101.60","","","","-27","","Snow,Blowing Snow"
"-96.08","64.30","BAKER LAKE A","2300503","2021-03-03 19:00","2021","03","03","19:00","-17.3","","-20.1","","79","","","","16","","18","","6.4","","101.68","","","","-27","","Snow,Blowing Snow"
"-96.08","64.30","BAKER LAKE A","2300503","2021-03-03 20:00","2021","03","03","20:00","-17.6","","-20.3","","80","","","","16","","10","","12.9","","101.76","","","","-24","","Snow"
"-96.08","64.30","BAKER LAKE A","2300503","2021-03-03 21:00","2021","03","03","21:00","-18.9","","-22.0","","77","","","","36","","1","","9.7","","101.86","","","","-20","","Snow"
"-96.08","64.30","BAKER LAKE A","2300503","2021-03-03 22:00","2021","03","03","22:00","-19.3","","-22.3","","77","","","","32","","4","","16.1","","101.91","","","","-23","","Snow"
"-96.08","64.30","BAKER LAKE A","2300503","2021-03-03 23:00","2021","03","03","23:00","-23.2","","-26.6","","74","","","","31","","27","","24.1","","102.03","","","","-36","","Snow"
"-96.08","64.30","BAKER LAKE A","2300503","2021-03-04 00:00","2021","03","04","00:00","-25.5","","-29.3","","71","","","","32","","36","","24.1","","102.13","","","","-41","","Blowing Snow"
"-96.08","64.30","BAKER LAKE A","2300503","2021-03-04 01:00","2021","03","04","01:00","-26.9","","-30.6","","71","","","","31","","36","","24.1","","102.25","","","","-43","","Blowing Snow"
"-96.08","64.30","BAKER LAKE A","2300503","2021-03-04 02:00","2021","03","04","02:00","-29.7","","-33.7","","69","","","","31","","41","","24.1","","102.38","","","","-47","","Blowing Snow"
"-96.08","64.30","BAKER LAKE A","2300503","2021-03-04 03:00","2021","03","04","03:00","-31.1","","-35.2","","68","","","","31","","43","","4.0","","102.50","","","","-49","","Blowing Snow"
"-96.08","64.30","BAKER LAKE A","2300503","2021-03-04 04:00","2021","03","04","04:00","-31.2","","-35.3","","68","","","","31","","51","","3.2","","102.60","","","","-51","","Blowing Snow"
"-96.08","64.30","BAKER LAKE A","2300503","2021-03-04 05:00","2021","03","04","05:00","-31.4","","-35.5","","68","","","","30","","39","","3.2","","102.73","","","","-49","","Blowing Snow"
"-96.08","64.30","BAKER LAKE A","2300503","2021-03-04 06:00","2021","03","04","06:00","-31.6","","-35.7","","68","","","","32","","44","","1.2","","102.85","","","","-50","","Blowing Snow"
"-96.08","64.30","BAKER LAKE A","2300503","2021-03-04 07:00","2021","03","04","07:00","-31.9","","-36.0","","68","","","","31","","37","","1.2","","103.00","","","","-50","","Blowing Snow"
"-96.08","64.30","BAKER LAKE A","2300503","2021-03-04 08:00","2021","03","04","08:00","-31.7","","-35.8","","68","","","","32","","49","","1.0","","103.05","","","","-51","","Blowing Snow"
"-96.08","64.30","BAKER LAKE A","2300503","2021-03-04 09:00","2021","03","04","09:00","-31.6","","-35.7","","68","","","","33","","51","","0.8","","103.18","","","","-51","","Blowing Snow"
"-96.08","64.30","BAKER LAKE A","2300503","2021-03-04 10:00","2021","03","04","10:00","-31.6","","-35.8","","67","","","","33","","50","","0.6","","103.28","","","","-51","","Blowing Snow"
"-96.08","64.30","BAKER LAKE A","2300503","2021-03-04 11:00","2021","03","04","11:00","-30.7","","-35.0","","67","","","","33","","54","","0.8","","103.38","","","","-51","","Blowing Snow"
"-96.08","64.30","BAKER LAKE A","2300503","2021-03-04 12:00","2021","03","04","12:00","-30.1","","-34.4","","67","","","","33","","48","","0.6","","103.49","","","","-49","","Blowing Snow"
"-96.08","64.30","BAKER LAKE A","2300503","2021-03-04 13:00","2021","03","04","13:00","-29.6","","-33.9","","67","","","","33","","46","","0.6","","103.62","","","","-48","","Blowing Snow"
"-96.08","64.30","BAKER LAKE A","2300503","2021-03-04 14:00","2021","03","04","14:00","-29.3","","-33.7","","67","","","","34","","46","","0.6","","103.71","","","","-48","","Blowing Snow"
"-96.08","64.30","BAKER LAKE A","2300503","2021-03-04 15:00","2021","03","04","15:00","-29.6","","-34.0","","67","","","","34","","45","","1.0","","103.82","","","","-48","","Blowing Snow"
"-96.08","64.30","BAKER LAKE A","2300503","2021-03-04 16:00","2021","03","04","16:00","-29.9","","-34.2","","67","","","","33","","48","","0.8","","103.91","","","","-49","","Blowing Snow"
"-96.08","64.30","BAKER LAKE A","2300503","2021-03-04 17:00","2021","03","04","17:00","-30.2","","-34.4","","68","","","","33","","45","","1.6","","104.00","","","","-49","","Blowing Snow"
"-96.08","64.30","BAKER LAKE A","2300503","2021-03-04 18:00","2021","03","04","18:00","-30.6","","-34.6","","68","","","","34","","54","","1.2","","104.03","","","","-50","","Blowing Snow"
"-96.08","64.30","BAKER LAKE A","2300503","2021-03-04 19:00","2021","03","04","19:00","-31.7","","-35.9","","67","","","","34","","46","","3.2","","104.15","","","","-51","","Blowing Snow"
"-96.08","64.30","BAKER LAKE A","2300503","2021-03-04 20:00","2021","03","04","20:00","-32.0","","-36.2","","67","","","","33","","43","","6.4","","104.23","","","","-51","","Blowing Snow"
"-96.08","64.30","BAKER LAKE A","2300503","2021-03-04 21:00","2021","03","04","21:00","-32.0","","-36.3","","67","","","","34","","45","","16.1","","104.26","","","","-51","","Blowing Snow"
"-96.08","64.30","BAKER LAKE A","2300503","2021-03-04 22:00","2021","03","04","22:00","-32.6","","-37.0","","66","","","","34","","39","","24.1","","104.30","","","","-51","","Blowing Snow"
"-96.08","64.30","BAKER LAKE A","2300503","2021-03-04 23:00","2021","03","04","23:00","-33.0","","-37.3","","66","","","","33","","41","","24.1","","104.31","","","","-52","","Blowing Snow"
"-96.08","64.30","BAKER LAKE A","2300503","2021-03-05 00:00","2021","03","05","00:00","-32.9","","-37.3","","65","","","","34","","38","","24.1","","104.35","","","","-51","","Blowing Snow"
"-96.08","64.30","BAKER LAKE A","2300503","2021-03-05 01:00","2021","03","05","01:00","-32.9","","-37.4","","65","","","","32","","35","","24.1","","104.39","","","","-50","","Blowing Snow"
"-96.08","64.30","BAKER LAKE A","2300503","2021-03-05 02:00","2021","03","05","02:00","-32.5","","-36.9","","66","","","","33","","39","","24.1","","104.41","","","","-51","","Blowing Snow"
"-96.08","64.30","BAKER LAKE A","2300503","2021-03-05 03:00","2021","03","05","03:00","-33.0","","-37.6","","64","","","","33","","27","","24.1","","104.47","","","","-49","","Blowing Snow"
"-96.08","64.30","BAKER LAKE A","2300503","2021-03-05 04:00","2021","03","05","04:00","-33.2","","-37.9","","64","","","","32","","20","","24.1","","104.50","","","","-47","","NA"
"-96.08","64.30","BAKER LAKE A","2300503","2021-03-05 05:00","2021","03","05","05:00","-33.3","","-38.1","","63","","","","33","","25","","24.1","","104.51","","","","-49","","NA"
"-96.08","64.30","BAKER LAKE A","2300503","2021-03-05 06:00","2021","03","05","06:00","-33.2","","-38.2","","62","","","","33","","21","","24.1","","104.54","","","","-47","","Blowing Snow"
"-96.08","64.30","BAKER LAKE A","2300503","2021-03-05 07:00","2021","03","05","07:00","-33.5","","-39.0","","59","","","","34","","19","","32.2","","104.55","","","","-47","","NA"
"-96.08","64.30","BAKER LAKE A","2300503","2021-03-05 08:00","2021","03","05","08:00","-32.6","","-38.5","","57","","","","35","","24","","32.2","","104.48","","","","-48","","NA"
"-96.08","64.30","BAKER LAKE A","2300503","2021-03-05 09:00","2021","03","05","09:00","-32.5","","-38.5","","56","","","","35","","14","","32.2","","104.45","","","","-44","","Clear"
"-96.08","64.30","BAKER LAKE A","2300503","2021-03-05 10:00","2021","03","05","10:00","-31.0","","-36.9","","57","","","","31","","4","","32.2","","104.42","","","","-36","","NA"
"-96.08","64.30","BAKER LAKE A","2300503","2021-03-05 11:00","2021","03","05","11:00","-30.8","","-36.7","","57","","","","33","","7","","32.2","","104.35","","","","-38","","NA"
"-96.08","64.30","BAKER LAKE A","2300503","2021-03-05 12:00","2021","03","05","12:00","-30.4","","-36.6","","56","","","","35","","7","","32.2","","104.32","","","","-38","","Clear"
"-96.08","64.30","BAKER LAKE A","2300503","2021-03-05 13:00","2021","03","05","13:00","-29.9","","-35.9","","57","","","","36","","8","","32.2","","104.24","","","","-38","","NA"
"-96.08","64.30","BAKER LAKE A","2300503","2021-03-05 14:00","2021","03","05","14:00","-29.6","","-35.5","","57","","","","36","","2","","32.2","","104.17","","","","-32","","NA"
"-96.08","64.30","BAKER LAKE A","2300503","2021-03-05 15:00","2021","03","05","15:00","-29.6","","-35.4","","58","","","","13","","5","","32.2","","104.11","","","","-35","","Clear"
"-96.08","64.30","BAKER LAKE A","2300503","2021-03-05 16:00","2021","03","05","16:00","-30.4","","-35.7","","61","","","","15","","6","","32.2","","104.02","","","","-37","","NA"
"-96.08","64.30","BAKER LAKE A","2300503","2021-03-05 17:00","2021","03","05","17:00","-31.0","","-35.7","","64","","","","17","","5","","32.2","","103.95","","","","-37","","NA"
"-96.08","64.30","BAKER LAKE A","2300503","2021-03-05 18:00","2021","03","05","18:00","-31.8","","-36.2","","66","","","","17","","4","","32.2","","103.85","","","","-36","","Clear"
"-96.08","64.30","BAKER LAKE A","2300503","2021-03-05 19:00","2021","03","05","19:00","-32.3","","-36.6","","66","","","","5","","7","","24.1","","103.75","","","","-40","","NA"
"-96.08","64.30","BAKER LAKE A","2300503","2021-03-05 20:00","2021","03","05","20:00","-32.3","","-36.7","","66","","","","10","","7","","24.1","","103.65","","","","-40","","NA"
"-96.08","64.30","BAKER LAKE A","2300503","2021-03-05 21:00","2021","03","05","21:00","-31.9","","-36.2","","66","","","","10","","11","","24.1","","103.51","","","","-42","","Clear"
"-96.08","64.30","BAKER LAKE A","2300503","2021-03-05 22:00","2021","03","05","22:00","-32.0","","-36.3","","67","","","","11","","13","","24.1","","103.38","","","","-43","","NA"
"-96.08","64.30","BAKER LAKE A","2300503","2021-03-05 23:00","2021","03","05","23:00","-31.2","","-35.5","","66","","","","11","","23","","24.1","","103.17","","","","-45","","NA"
"-96.08","64.30","BAKER LAKE A","2300503","2021-03-06 00:00","2021","03","06","00:00","-29.9","","-34.2","","67","","","","11","","19","","24.1","","103.13","","","","-43","","Mainly Clear"
"-96.08","64.30","BAKER LAKE A","2300503","2021-03-06 01:00","2021","03","06","01:00","-28.5","","-32.6","","69","","","","11","","19","","24.1","","103.00","","","","-41","","NA"
"-96.08","64.30","BAKER LAKE A","2300503","2021-03-06 02:00","2021","03","06","02:00","-26.1","","-30.1","","69","","","","13","","24","","24.1","","102.84","","","","-39","","NA"
"-96.08","64.30","BAKER LAKE A","2300503","2021-03-06 03:00","2021","03","06","03:00","-24.3","","-28.4","","70","","","","13","","30","","24.1","","102.66","","","","-38","","Mainly Clear"
"-96.08","64.30","BAKER LAKE A","2300503","2021-03-06 04:00","2021","03","06","04:00","-23.0","","-26.8","","72","","","","14","","41","","24.1","","102.51","","","","-38","","Blowing Snow"
"-96.08","64.30","BAKER LAKE A","2300503","2021-03-06 05:00","2021","03","06","05:00","-22.4","","-25.9","","74","","","","13","","43","","16.1","","102.38","","","","-38","","Blowing Snow"
"-96.08","64.30","BAKER LAKE A","2300503","2021-03-06 06:00","2021","03","06","06:00"
"-96.08","64.30","BAKER LAKE A","2300503","2021-03-06 07:00","2021","03","06","07:00","-20.9","","-24.1","","76","","","","13","","35","","12.9","","102.10","","","","-35","","Blowing Snow"
"-96.08","64.30","BAKER LAKE A","2300503","2021-03-06 08:00","2021","03","06","08:00","-19.8","","-22.9","","76","","","","14","","44","","4.0","","101.92","","","","-34","","Snow,Blowing Snow"
"-96.08","64.30","BAKER LAKE A","2300503","2021-03-06 09:00","2021","03","06","09:00","-19.0","","-22.0","","77","","","","14","","32","","1.6","","101.81","","","","-32","","Snow,Blowing Snow"
"-96.08","64.30","BAKER LAKE A","2300503","2021-03-06 10:00","2021","03","06","10:00","-18.3","","-21.3","","78","","","","14","","38","","1.2","","101.59","","","","-32","","Snow,Blowing Snow"
"-96.08","64.30","BAKER LAKE A","2300503","2021-03-06 11:00","2021","03","06","11:00","-17.3","","-20.1","","79","","","","13","","51","","0.2","","101.34","","","","-32","","Snow,Blowing Snow"
"-96.08","64.30","BAKER LAKE A","2300503","2021-03-06 12:00","2021","03","06","12:00","-16.8","","-19.6","","79","","","","14","","65","","0.2","","101.15","","","","-32","","Snow,Blowing Snow"
"-96.08","64.30","BAKER LAKE A","2300503","2021-03-06 13:00","2021","03","06","13:00","-16.5","","-19.3","","79","","","","14","","55","","0.4","","101.12","","","","-31","","Snow,Blowing Snow"
"-96.08","64.30","BAKER LAKE A","2300503","2021-03-06 14:00","2021","03","06","14:00","-16.2","","-19.0","","79","","","","15","","45","","1.2","","101.09","","","","-30","","Snow,Blowing Snow"
"-96.08","64.30","BAKER LAKE A","2300503","2021-03-06 15:00","2021","03","06","15:00","-15.8","","-18.5","","80","","","","13","","46","","1.2","","100.90","","","","-29","","Snow,Blowing Snow"
"-96.08","64.30","BAKER LAKE A","2300503","2021-03-06 16:00","2021","03","06","16:00","-15.3","","-17.9","","81","","","","16","","60","","0.6","","100.70","","","","-30","","Snow,Blowing Snow"
"-96.08","64.30","BAKER LAKE A","2300503","2021-03-06 17:00","2021","03","06","17:00","-15.1","","-17.6","","81","","","","15","","51","","0.6","","100.69","","","","-29","","Snow,Blowing Snow"
"-96.08","64.30","BAKER LAKE A","2300503","2021-03-06 18:00","2021","03","06","18:00","-14.8","","-17.2","","82","","","","15","","49","","0.8","","100.55","","","","-28","","Snow,Blowing Snow"
"-96.08","64.30","BAKER LAKE A","2300503","2021-03-06 19:00","2021","03","06","19:00","-14.5","","-16.9","","83","","","","15","","53","","0.8","","100.43","","","","-28","","Snow,Blowing Snow"
"-96.08","64.30","BAKER LAKE A","2300503","2021-03-06 20:00","2021","03","06","20:00","-14.1","","-16.4","","83","","","","15","","45","","4.0","","100.35","","","","-27","","Snow,Blowing Snow"
"-96.08","64.30","BAKER LAKE A","2300503","2021-03-06 21:00","2021","03","06","21:00","-13.9","","-16.2","","83","","","","15","","43","","4.8","","100.22","","","","-26","","Snow,Blowing Snow"
"-96.08","64.30","BAKER LAKE A","2300503","2021-03-06 22:00","2021","03","06","22:00","-13.5","","-15.8","","83","","","","15","","42","","9.7","","100.07","","","","-26","","Snow,Blowing Snow"
"-96.08","64.30","BAKER LAKE A","2300503","2021-03-06 23:00","2021","03","06","23:00","-13.1","","-15.2","","84","","","","15","","41","","12.9","","99.94","","","","-25","","Snow,Blowing Snow"
"-96.08","64.30","BAKER LAKE A","2300503","2021-03-07 00:00","2021","03","07","00:00","-12.6","","-14.7","","84","","","","15","","39","","16.1","","99.89","","","","-24","","Snow,Blowing Snow"
"-96.08","64.30","BAKER LAKE A","2300503","2021-03-07 01:00","2021","03","07","01:00","-12.2","","-14.2","","85","","","","16","","35","","16.1","","99.81","","","","-23","","Snow,Blowing Snow"
"-96.08","64.30","BAKER LAKE A","2300503","2021-03-07 02:00","2021","03","07","02:00","-11.8","","-13.8","","85","","","","15","","36","","4.0","","99.67","","","","-23","","Snow,Blowing Snow"
"-96.08","64.30","BAKER LAKE A","2300503","2021-03-07 03:00","2021","03","07","03:00","-11.4","","-13.4","","85","","","","15","","33","","6.4","","99.57","","","","-22","","Snow,Blowing Snow"
"-96.08","64.30","BAKER LAKE A","2300503","2021-03-07 04:00","2021","03","07","04:00","-11.0","","-13.1","","85","","","","16","","30","","16.1","","99.50","","","","-21","","Snow,Blowing Snow"
"-96.08","64.30","BAKER LAKE A","2300503","2021-03-07 05:00","2021","03","07","05:00","-10.4","","-12.4","","86","","","","16","","37","","16.1","","99.38","","","","-21","","Snow,Blowing Snow"
"-96.08","64.30","BAKER LAKE A","2300503","2021-03-07 06:00","2021","03","07","06:00","-10.3","","-12.2","","86","","","","15","","21","","16.1","","99.33","","","","-18","","Snow,Blowing Snow"
"-96.08","64.30","BAKER LAKE A","2300503","2021-03-07 07:00","2021","03","07","07:00","-10.0","","-12.0","","86","","","","13","","22","","24.1","","99.28","","","","-18","","Snow,Blowing Snow"
"-96.08","64.30","BAKER LAKE A","2300503","2021-03-07 08:00","2021","03","07","08:00","-9.1","","-11.0","","86","","","","14","","36","","16.1","","99.15","","","","-19","","Snow,Blowing Snow"
"-96.08","64.30","BAKER LAKE A","2300503","2021-03-07 09:00","2021","03","07","09:00","-8.9","","-10.8","","86","","","","14","","30","","8.1","","99.08","","","","-18","","Snow,Blowing Snow"
"-96.08","64.30","BAKER LAKE A","2300503","2021-03-07 10:00","2021","03","07","10:00","-8.1","","-9.9","","87","","","","13","","14","","24.1","","99.04","","","","-14","","Snow"
"-96.08","64.30","BAKER LAKE A","2300503","2021-03-07 11:00","2021","03","07","11:00","-6.2","","-7.9","","88","","","","21","","17","","24.1","","98.97","","","","-12","","Snow"
"-96.08","64.30","BAKER LAKE A","2300503","2021-03-07 12:00","2021","03","07","12:00","-6.5","","-8.8","","84","","","","25","","19","","32.2","","98.99","","","","-13","","Mostly Cloudy"
"-96.08","64.30","BAKER LAKE A","2300503","2021-03-07 13:00","2021","03","07","13:00","-8.4","","-11.0","","82","","","","29","","41","","32.2","","99.01","","","","-19","","Blowing Snow"
"-96.08","64.30","BAKER LAKE A","2300503","2021-03-07 14:00","2021","03","07","14:00","-10.7","","-13.5","","80","","","","30","","36","","32.2","","99.24","","","","-21","","Blowing Snow"
"-96.08","64.30","BAKER LAKE A","2300503","2021-03-07 15:00","2021","03","07","15:00","-13.1","","-15.9","","80","","","","30","","67","","0.2","","99.17","","","","-27","","Blowing Snow"
"-96.08","64.30","BAKER LAKE A","2300503","2021-03-07 16:00","2021","03","07","16:00","-14.8","","-17.9","","78","","","","31","","48","","2.4","","99.46","","","","-28","","Blowing Snow"
"-96.08","64.30","BAKER LAKE A","2300503","2021-03-07 17:00","2021","03","07","17:00","-15.8","","-19.1","","77","","","","30","","41","","32.2","","99.59","","","","-29","","Blowing Snow"
"-96.08","64.30","BAKER LAKE A","2300503","2021-03-07 18:00","2021","03","07","18:00","-17.1","","-20.1","","77","","","","30","","46","","24.1","","99.66","","","","-31","","Blowing Snow"
"-96.08","64.30","BAKER LAKE A","2300503","2021-03-07 19:00","2021","03","07","19:00","-16.3","","-19.4","","78","","","","30","","43","","24.1","","99.70","","","","-30","","Blowing Snow"
"-96.08","64.30","BAKER LAKE A","2300503","2021-03-07 20:00","2021","03","07","20:00","-16.1","","-19.2","","77","","","","30","","33","","24.1","","99.81","","","","-28","","Snow,Blowing Snow"
"-96.08","64.30","BAKER LAKE A","2300503","2021-03-07 21:00","2021","03","07","21:00","-16.2","","-19.4","","77","","","","31","","35","","24.1","","99.84","","","","-28","","Snow,Blowing Snow"
"-96.08","64.30","BAKER LAKE A","2300503","2021-03-07 22:00","2021","03","07","22:00","-16.4","","-19.7","","76","","","","30","","35","","24.1","","99.94","","","","-29","","Snow,Blowing Snow"
"-96.08","64.30","BAKER LAKE A","2300503","2021-03-07 23:00","2021","03","07","23:00","-16.9","","-20.3","","75","","","","30","","39","","24.1","","99.97","","","","-30","","Snow,Blowing Snow"
"-96.08","64.30","BAKER LAKE A","2300503","2021-03-08 00:00","2021","03","08","00:00","-17.2","","-20.5","","76","","","","30","","43","","24.1","","100.01","","","","-31","","Snow,Blowing Snow"
"-96.08","64.30","BAKER LAKE A","2300503","2021-03-08 01:00","2021","03","08","01:00","-17.3","","-20.6","","76","","","","30","","38","","24.1","","100.05","","","","-30","","Snow,Blowing Snow"
"-96.08","64.30","BAKER LAKE A","2300503","2021-03-08 02:00","2021","03","08","02:00","-17.4","","-20.8","","76","","","","30","","39","","24.1","","100.07","","","","-31","","Snow,Blowing Snow"
"-96.08","64.30","BAKER LAKE A","2300503","2021-03-08 03:00","2021","03","08","03:00","-17.4","","-20.7","","76","","","","31","","47","","16.1","","100.08","","","","-32","","Snow,Blowing Snow"
"-96.08","64.30","BAKER LAKE A","2300503","2021-03-08 04:00","2021","03","08","04:00","-17.8","","-21.2","","75","","","","31","","40","","16.1","","100.14","","","","-31","","Snow,Blowing Snow"
"-96.08","64.30","BAKER LAKE A","2300503","2021-03-08 05:00","2021","03","08","05:00","-18.1","","-21.6","","74","","","","31","","21","","24.1","","100.21","","","","-28","","Snow,Blowing Snow"
"-96.08","64.30","BAKER LAKE A","2300503","2021-03-08 06:00","2021","03","08","06:00","-18.3","","-21.9","","74","","","","30","","27","","24.1","","100.27","","","","-30","","Snow,Blowing Snow"
"-96.08","64.30","BAKER LAKE A","2300503","2021-03-08 07:00","2021","03","08","07:00","-19.2","","-22.9","","73","","","","29","","31","","24.1","","100.32","","","","-32","","Snow,Blowing Snow"
"-96.08","64.30","BAKER LAKE A","2300503","2021-03-08 08:00","2021","03","08","08:00","-20.1","","-23.8","","73","","","","31","","29","","24.1","","100.35","","","","-33","","Snow,Blowing Snow"
"-96.08","64.30","BAKER LAKE A","2300503","2021-03-08 09:00","2021","03","08","09:00","-21.0","","-24.9","","71","","","","31","","30","","16.1","","100.40","","","","-34","","Snow,Blowing Snow"
"-96.08","64.30","BAKER LAKE A","2300503","2021-03-08 10:00","2021","03","08","10:00","-22.1","","-26.4","","69","","","","30","","33","","16.1","","100.43","","","","-36","","Snow,Blowing Snow"
"-96.08","64.30","BAKER LAKE A","2300503","2021-03-08 11:00","2021","03","08","11:00","-21.4","","-25.5","","70","","","","30","","39","","16.1","","100.43","","","","-36","","Snow,Blowing Snow"
"-96.08","64.30","BAKER LAKE A","2300503","2021-03-08 12:00","2021","03","08","12:00","-20.9","","-25.1","","69","","","","31","","43","","16.1","","100.47","","","","-36","","Snow,Blowing Snow"
"-96.08","64.30","BAKER LAKE A","2300503","2021-03-08 13:00","2021","03","08","13:00","-20.5","","-24.8","","69","","","","30","","26","","16.1","","100.56","","","","-32","","Snow,Blowing Snow"
"-96.08","64.30","BAKER LAKE A","2300503","2021-03-08 14:00","2021","03","08","14:00","-19.9","","-24.2","","69","","","","31","","22","","16.1","","100.60","","","","-31","","Snow,Blowing Snow"
"-96.08","64.30","BAKER LAKE A","2300503","2021-03-08 15:00","2021","03","08","15:00","-19.6","","-23.9","","69","","","","31","","27","","16.1","","100.61","","","","-31","","Snow,Blowing Snow"
"-96.08","64.30","BAKER LAKE A","2300503","2021-03-08 16:00","2021","03","08","16:00","-19.7","","-23.9","","70","","","","30","","26","","16.1","","100.64","","","","-31","","Snow,Blowing Snow"
"-96.08","64.30","BAKER LAKE A","2300503","2021-03-08 17:00","2021","03","08","17:00","-19.8","","-23.9","","71","","","","30","","25","","16.1","","100.68","","","","-31","","Snow,Blowing Snow"
"-96.08","64.30","BAKER LAKE A","2300503","2021-03-08 18:00","2021","03","08","18:00","-20.6","","-24.9","","69","","","","29","","26","","24.1","","100.73","","","","-33","","Snow,Blowing Snow"
"-96.08","64.30","BAKER LAKE A","2300503","2021-03-08 19:00","2021","03","08","19:00","-22.2","","-26.4","","70","","","","30","","22","","24.1","","100.75","","","","-34","","Snow,Blowing Snow"
"-96.08","64.30","BAKER LAKE A","2300503","2021-03-08 20:00","2021","03","08","20:00","-23.7","","-28.0","","69","","","","29","","28","","24.1","","100.71","","","","-37","","Blowing Snow"
"-96.08","64.30","BAKER LAKE A","2300503","2021-03-08 21:00","2021","03","08","21:00","-24.6","","-28.8","","69","","","","29","","30","","24.1","","100.75","","","","-39","","Mainly Clear"
"-96.08","64.30","BAKER LAKE A","2300503","2021-03-08 22:00","2021","03","08","22:00","-26.3","","-30.4","","69","","","","29","","32","","24.1","","100.73","","","","-41","","Blowing Snow"
"-96.08","64.30","BAKER LAKE A","2300503","2021-03-08 23:00","2021","03","08","23:00","-27.4","","-31.6","","69","","","","28","","32","","24.1","","100.72","","","","-43","","Blowing Snow"
"-96.08","64.30","BAKER LAKE A","2300503","2021-03-09 00:00","2021","03","09","00:00","-28.1","","-32.2","","68","","","","27","","29","","24.1","","100.72","","","","-43","","Blowing Snow"
"-96.08","64.30","BAKER LAKE A","2300503","2021-03-09 01:00","2021","03","09","01:00","-28.8","","-33.0","","68","","","","26","","25","","24.1","","100.72","","","","-43","","Blowing Snow"
"-96.08","64.30","BAKER LAKE A","2300503","2021-03-09 02:00","2021","03","09","02:00"
"-96.08","64.30","BAKER LAKE A","2300503","2021-03-09 03:00","2021","03","09","03:00","-29.0","","-33.2","","67","","","","27","","37","","24.1","","100.66","","","","-46","","Blowing Snow"
"-96.08","64.30","BAKER LAKE A","2300503","2021-03-09 04:00","2021","03","09","04:00","-29.1","","-33.3","","68","","","","28","","33","","24.1","","100.67","","","","-45","","Blowing Snow"
"-96.08","64.30","BAKER LAKE A","2300503","2021-03-09 05:00","2021","03","09","05:00","-29.4","","-33.7","","67","","","","27","","27","","24.1","","100.69","","","","-44","","Blowing Snow"
"-96.08","64.30","BAKER LAKE A","2300503","2021-03-09 06:00","2021","03","09","06:00","-29.3","","-33.5","","68","","","","26","","24","","24.1","","100.70","","","","-43","","Blowing Snow"
"-96.08","64.30","BAKER LAKE A","2300503","2021-03-09 07:00","2021","03","09","07:00","-29.4","","-33.7","","67","","","","26","","23","","32.2","","100.68","","","","-43","","Blowing Snow"
"-96.08","64.30","BAKER LAKE A","2300503","2021-03-09 08:00","2021","03","09","08:00","-28.9","","-33.2","","67","","","","26","","28","","32.2","","100.67","","","","-44","","Blowing Snow"
"-96.08","64.30","BAKER LAKE A","2300503","2021-03-09 09:00","2021","03","09","09:00","-28.3","","-32.7","","67","","","","27","","29","","24.1","","100.67","","","","-43","","Blowing Snow"
"-96.08","64.30","BAKER LAKE A","2300503","2021-03-09 10:00","2021","03","09","10:00","-27.6","","-32.2","","66","","","","25","","16","","24.1","","100.73","","","","-39","","Snow"
"-96.08","64.30","BAKER LAKE A","2300503","2021-03-09 11:00","2021","03","09","11:00","-26.9","","-31.7","","65","","","","27","","22","","24.1","","100.74","","","","-40","","Snow,Blowing Snow"
"-96.08","64.30","BAKER LAKE A","2300503","2021-03-09 12:00","2021","03","09","12:00","-26.3","","-31.2","","64","","","","26","","24","","24.1","","100.75","","","","-39","","Snow,Blowing Snow"
"-96.08","64.30","BAKER LAKE A","2300503","2021-03-09 13:00","2021","03","09","13:00","-25.4","","-30.1","","66","","","","28","","36","","16.1","","100.72","","","","-41","","Snow,Blowing Snow"
"-96.08","64.30","BAKER LAKE A","2300503","2021-03-09 14:00","2021","03","09","14:00","-24.9","","-29.3","","68","","","","28","","40","","4.0","","100.71","","","","-41","","Snow,Blowing Snow"
"-96.08","64.30","BAKER LAKE A","2300503","2021-03-09 15:00","2021","03","09","15:00","-25.1","","-29.4","","68","","","","28","","34","","8.1","","100.77","","","","-40","","Snow,Blowing Snow"
"-96.08","64.30","BAKER LAKE A","2300503","2021-03-09 16:00","2021","03","09","16:00","-25.5","","-29.7","","69","","","","28","","23","","11.3","","100.85","","","","-38","","Snow,Blowing Snow"
"-96.08","64.30","BAKER LAKE A","2300503","2021-03-09 17:00","2021","03","09","17:00","-25.8","","-29.9","","69","","","","29","","35","","11.3","","100.84","","","","-41","","Snow,Blowing Snow"
"-96.08","64.30","BAKER LAKE A","2300503","2021-03-09 18:00","2021","03","09","18:00","-26.6","","-30.6","","69","","","","28","","30","","11.3","","100.84","","","","-41","","Snow,Blowing Snow"
"-96.08","64.30","BAKER LAKE A","2300503","2021-03-09 19:00","2021","03","09","19:00","-26.7","","-30.9","","68","","","","29","","26","","16.1","","100.89","","","","-40","","Snow,Blowing Snow"
"-96.08","64.30","BAKER LAKE A","2300503","2021-03-09 20:00","2021","03","09","20:00","-26.9","","-31.0","","68","","","","29","","34","","24.1","","100.84","","","","-42","","Snow,Blowing Snow"
"-96.08","64.30","BAKER LAKE A","2300503","2021-03-09 21:00","2021","03","09","21:00","-27.1","","-31.2","","69","","","","29","","44","","24.1","","100.79","","","","-44","","Snow,Blowing Snow"
"-96.08","64.30","BAKER LAKE A","2300503","2021-03-09 22:00","2021","03","09","22:00","-26.8","","-30.9","","69","","","","30","","39","","24.1","","100.80","","","","-43","","Snow,Blowing Snow"
"-96.08","64.30","BAKER LAKE A","2300503","2021-03-09 23:00","2021","03","09","23:00","-27.4","","-31.5","","69","","","","19","","20","","24.1","","100.92","","","","-40","","Snow,Blowing Snow"
"-96.08","64.30","BAKER LAKE A","2300503","2021-03-10 00:00","2021","03","10","00:00","-27.1","","-31.5","","67","","","","24","","4","","24.1","","100.92","","","","-31","","Snow"
"-96.08","64.30","BAKER LAKE A","2300503","2021-03-10 01:00","2021","03","10","01:00","-28.8","","-33.0","","68","","","","23","","16","","24.1","","100.94","","","","-40","","Snow,Blowing Snow"
"-96.08","64.30","BAKER LAKE A","2300503","2021-03-10 02:00","2021","03","10","02:00","-29.0","","-33.2","","68","","","","19","","12","","24.1","","100.96","","","","-39","","Snow"
"-96.08","64.30","BAKER LAKE A","2300503","2021-03-10 03:00","2021","03","10","03:00","-29.1","","-33.4","","67","","","","24","","10","","24.1","","100.94","","","","-38","","Snow"
"-96.08","64.30","BAKER LAKE A","2300503","2021-03-10 04:00","2021","03","10","04:00","-29.6","","-33.8","","68","","","","24","","7","","24.1","","100.94","","","","-37","","Snow"
"-96.08","64.30","BAKER LAKE A","2300503","2021-03-10 05:00","2021","03","10","05:00","-29.2","","-33.5","","67","","","","28","","13","","24.1","","100.96","","","","-40","","Snow"
"-96.08","64.30","BAKER LAKE A","2300503","2021-03-10 06:00","2021","03","10","06:00","-29.5","","-33.9","","66","","","","29","","14","","32.2","","100.97","","","","-40","","Ice Crystals"
"-96.08","64.30","BAKER LAKE A","2300503","2021-03-10 07:00","2021","03","10","07:00","-28.8","","-33.2","","66","","","","30","","23","","32.2","","100.98","","","","-42","","Ice Crystals"
"-96.08","64.30","BAKER LAKE A","2300503","2021-03-10 08:00","2021","03","10","08:00","-28.9","","-33.5","","65","","","","30","","22","","32.2","","101.00","","","","-42","","Ice Crystals"
"-96.08","64.30","BAKER LAKE A","2300503","2021-03-10 09:00","2021","03","10","09:00","-28.9","","-33.6","","64","","","","31","","22","","32.2","","101.01","","","","-42","","Ice Crystals"
"-96.08","64.30","BAKER LAKE A","2300503","2021-03-10 10:00","2021","03","10","10:00","-28.3","","-33.1","","64","","","","30","","25","","24.1","","101.06","","","","-42","","Snow"
"-96.08","64.30","BAKER LAKE A","2300503","2021-03-10 11:00","2021","03","10","11:00","-28.7","","-33.5","","64","","","","31","","22","","16.1","","101.08","","","","-42","","Snow"
"-96.08","64.30","BAKER LAKE A","2300503","2021-03-10 12:00","2021","03","10","12:00","-28.5","","-33.5","","63","","","","33","","27","","24.1","","101.10","","","","-43","","Snow,Blowing Snow"
"-96.08","64.30","BAKER LAKE A","2300503","2021-03-10 13:00","2021","03","10","13:00","-28.3","","-33.4","","62","","","","32","","21","","24.1","","101.11","","","","-41","","Ice Crystals,Blowing Snow"
"-96.08","64.30","BAKER LAKE A","2300503","2021-03-10 14:00","2021","03","10","14:00","-28.6","","-33.7","","62","","","","33","","22","","24.1","","101.14","","","","-42","","Ice Crystals,Blowing Snow"
"-96.08","64.30","BAKER LAKE A","2300503","2021-03-10 15:00","2021","03","10","15:00","-28.6","","-33.6","","63","","","","31","","21","","32.2","","101.15","","","","-42","","Ice Crystals,Blowing Snow"
"-96.08","64.30","BAKER LAKE A","2300503","2021-03-10 16:00","2021","03","10","16:00","-28.7","","-33.7","","63","","","","31","","29","","32.2","","101.14","","","","-44","","Ice Crystals,Blowing Snow"
"-96.08","64.30","BAKER LAKE A","2300503","2021-03-10 17:00","2021","03","10","17:00","-29.1","","-34.0","","63","","","","30","","17","","32.2","","101.19","","","","-41","","Ice Crystals,Blowing Snow"
"-96.08","64.30","BAKER LAKE A","2300503","2021-03-10 18:00","2021","03","10","18:00","-30.4","","-35.0","","65","","","","31","","28","","32.2","","101.17","","","","-46","","Ice Crystals,Blowing Snow"
"-96.08","64.30","BAKER LAKE A","2300503","2021-03-10 19:00","2021","03","10","19:00","-30.4","","-35.0","","65","","","","29","","14","","24.1","","101.21","","","","-42","","Ice Crystals"
"-96.08","64.30","BAKER LAKE A","2300503","2021-03-10 20:00","2021","03","10","20:00","-31.3","","-35.8","","65","","","","26","","5","","24.1","","101.24","","","","-37","","Ice Crystals"
"-96.08","64.30","BAKER LAKE A","2300503","2021-03-10 21:00","2021","03","10","21:00","-31.5","","-36.0","","65","","","","31","","13","","24.1","","101.22","","","","-42","","Ice Crystals"
"-96.08","64.30","BAKER LAKE A","2300503","2021-03-10 22:00","2021","03","10","22:00","-32.1","","-36.8","","64","","","","34","","11","","24.1","","101.25","","","","-42","","Ice Crystals"
"-96.08","64.30","BAKER LAKE A","2300503","2021-03-10 23:00","2021","03","10","23:00","-32.5","","-37.2","","64","","","","29","","14","","24.1","","101.26","","","","-44","","Ice Crystals"
"-96.08","64.30","BAKER LAKE A","2300503","2021-03-11 00:00","2021","03","11","00:00","-32.6","","-37.4","","63","","","","29","","16","","24.1","","101.25","","","","-45","","Ice Crystals"
"-96.08","64.30","BAKER LAKE A","2300503","2021-03-11 01:00","2021","03","11","01:00","-33.1","","-37.9","","63","","","","29","","17","","24.1","","101.26","","","","-46","","Ice Crystals"
"-96.08","64.30","BAKER LAKE A","2300503","2021-03-11 02:00","2021","03","11","02:00","-33.0","","-37.7","","64","","","","31","","12","","24.1","","101.28","","","","-44","","Ice Crystals"
"-96.08","64.30","BAKER LAKE A","2300503","2021-03-11 03:00","2021","03","11","03:00","-33.0","","-37.8","","64","","","","31","","14","","24.1","","101.28","","","","-45","","Ice Crystals"
"-96.08","64.30","BAKER LAKE A","2300503","2021-03-11 04:00","2021","03","11","04:00","-32.3","","-36.9","","65","","","","31","","27","","24.1","","101.26","","","","-48","","Ice Crystals"
"-96.08","64.30","BAKER LAKE A","2300503","2021-03-11 05:00","2021","03","11","05:00","-32.4","","-37.0","","65","","","","32","","16","","24.1","","101.30","","","","-45","","Ice Crystals"
"-96.08","64.30","BAKER LAKE A","2300503","2021-03-11 06:00","2021","03","11","06:00","-32.0","","-36.5","","65","","","","31","","33","","32.2","","101.26","","","","-49","","Ice Crystals"
"-96.08","64.30","BAKER LAKE A","2300503","2021-03-11 07:00","2021","03","11","07:00","-32.4","","-36.9","","65","","","","31","","40","","32.2","","101.27","","","","-51","","Ice Crystals,Blowing Snow"
"-96.08","64.30","BAKER LAKE A","2300503","2021-03-11 08:00","2021","03","11","08:00","-31.8","","-36.5","","64","","","","29","","20","","32.2","","101.30","","","","-45","","Ice Crystals,Blowing Snow"
"-96.08","64.30","BAKER LAKE A","2300503","2021-03-11 09:00","2021","03","11","09:00","-31.0","","-35.8","","63","","","","29","","21","","32.2","","101.26","","","","-45","","Ice Crystals,Blowing Snow"
"-96.08","64.30","BAKER LAKE A","2300503","2021-03-11 10:00","2021","03","11","10:00","-30.2","","-35.2","","63","","","","29","","25","","32.2","","101.27","","","","-45","","Ice Crystals,Blowing Snow"
"-96.08","64.30","BAKER LAKE A","2300503","2021-03-11 11:00","2021","03","11","11:00","-29.7","","-34.8","","62","","","","28","","25","","32.2","","101.29","","","","-44","","Ice Crystals,Blowing Snow"
"-96.08","64.30","BAKER LAKE A","2300503","2021-03-11 12:00","2021","03","11","12:00","-28.8","","-33.9","","62","","","","29","","9","","32.2","","101.29","","","","-37","","Ice Crystals"
"-96.08","64.30","BAKER LAKE A","2300503","2021-03-11 13:00","2021","03","11","13:00","-28.3","","-33.4","","62","","","","28","","22","","32.2","","101.27","","","","-42","","Ice Crystals"
"-96.08","64.30","BAKER LAKE A","2300503","2021-03-11 14:00","2021","03","11","14:00","-27.7","","-32.6","","64","","","","29","","14","","32.2","","101.23","","","","-38","","Ice Crystals"
"-96.08","64.30","BAKER LAKE A","2300503","2021-03-11 15:00","2021","03","11","15:00","-27.8","","-32.7","","64","","","","26","","16","","32.2","","101.28","","","","-39","","Ice Crystals"
"-96.08","64.30","BAKER LAKE A","2300503","2021-03-11 16:00","2021","03","11","16:00","-28.1","","-33.0","","64","","","","27","","16","","32.2","","101.25","","","","-39","","Ice Crystals"
"-96.08","64.30","BAKER LAKE A","2300503","2021-03-11 17:00","2021","03","11","17:00","-28.7","","-33.5","","64","","","","27","","19","","32.2","","101.26","","","","-41","","Ice Crystals"
"-96.08","64.30","BAKER LAKE A","2300503","2021-03-11 18:00","2021","03","11","18:00","-30.0","","-34.7","","65","","","","26","","27","","32.2","","101.23","","","","-45","","Clear"
"-96.08","64.30","BAKER LAKE A","2300503","2021-03-11 19:00","2021","03","11","19:00","-29.9","","-34.5","","65","","","","26","","20","","32.2","","101.26","","","","-43","","NA"
"-96.08","64.30","BAKER LAKE A","2300503","2021-03-11 20:00","2021","03","11","20:00","-31.2","","-35.8","","65","","","","29","","16","","24.1","","101.25","","","","-43","","NA"
"-96.08","64.30","BAKER LAKE A","2300503","2021-03-11 21:00","2021","03","11","21:00","-31.7","","-36.2","","65","","","","31","","7","","24.1","","101.22","","","","-39","","Ice Crystals"
"-96.08","64.30","BAKER LAKE A","2300503","2021-03-11 22:00","2021","03","11","22:00","-29.9","","-34.9","","63","","","","29","","7","","24.1","","101.23","","","","-37","","Ice Crystals"
"-96.08","64.30","BAKER LAKE A","2300503","2021-03-11 23:00","2021","03","11","23:00","-31.6","","-36.6","","63","","","","1","","4","","24.1","","101.22","","","","-36","","Ice Crystals"
"-96.08","64.30","BAKER LAKE A","2300503","2021-03-12 00:00","2021","03","12","00:00","-31.6","","-36.4","","63","","","","28","","25","","24.1","","101.22","","","","-47","","Ice Crystals"
"-96.08","64.30","BAKER LAKE A","2300503","2021-03-12 01:00","2021","03","12","01:00","-31.7","","-36.4","","64","","","","30","","25","","24.1","","101.23","","","","-47","","Ice Crystals"
"-96.08","64.30","BAKER LAKE A","2300503","2021-03-12 02:00","2021","03","12","02:00","-30.9","","-35.5","","65","","","","26","","3","","24.1","","101.26","","","","-34","","Ice Crystals,Blowing Snow"
"-96.08","64.30","BAKER LAKE A","2300503","2021-03-12 03:00","2021","03","12","03:00","-31.5","","-36.2","","64","","","","31","","26","","24.1","","101.22","","","","-47","","Ice Crystals"
"-96.08","64.30","BAKER LAKE A","2300503","2021-03-12 04:00","2021","03","12","04:00","-31.2","","-36.1","","63","","","","36","","3","","24.1","","101.25","","","","-35","","Ice Crystals"
"-96.08","64.30","BAKER LAKE A","2300503","2021-03-12 05:00","2021","03","12","05:00","-33.7","","-38.5","","63","","","","9","","3","","24.1","","101.27","","","","-37","","Ice Crystals"
"-96.08","64.30","BAKER LAKE A","2300503","2021-03-12 06:00","2021","03","12","06:00","-33.0","","-37.7","","64","","","","21","","4","","24.1","","101.31","","","","-38","","Ice Crystals"
"-96.08","64.30","BAKER LAKE A","2300503","2021-03-12 07:00","2021","03","12","07:00","-33.8","","-38.4","","64","","","","23","","5","","32.2","","101.31","","","","-40","","Ice Crystals"
"-96.08","64.30","BAKER LAKE A","2300503","2021-03-12 08:00","2021","03","12","08:00","-32.5","","-37.2","","64","","","","32","","10","","32.2","","101.28","","","","-42","","Ice Crystals"
"-96.08","64.30","BAKER LAKE A","2300503","2021-03-12 09:00","2021","03","12","09:00","-32.9","","-37.8","","63","","","","21","","4","","32.2","","101.31","","","","-38","","Ice Crystals"
"-96.08","64.30","BAKER LAKE A","2300503","2021-03-12 10:00","2021","03","12","10:00","-31.4","","-36.2","","63","","","","36","","1","","32.2","","101.34","","","","-33","","Ice Crystals"
"-96.08","64.30","BAKER LAKE A","2300503","2021-03-12 11:00","2021","03","12","11:00","-29.8","","-34.9","","62","","","","31","","5","","32.2","","101.35","","","","-35","","Ice Crystals"
"-96.08","64.30","BAKER LAKE A","2300503","2021-03-12 12:00","2021","03","12","12:00","-28.9","","-34.6","","59","","","","36","","3","","32.2","","101.40","","","","-32","","Ice Crystals"
"-96.08","64.30","BAKER LAKE A","2300503","2021-03-12 13:00","2021","03","12","13:00","-28.2","","-33.6","","61","","","","23","","8","","32.2","","101.39","","","","-36","","Ice Crystals"
"-96.08","64.30","BAKER LAKE A","2300503","2021-03-12 14:00","2021","03","12","14:00","-27.3","","-32.8","","60","","","","35","","10","","32.2","","101.40","","","","-36","","Ice Crystals"
"-96.08","64.30","BAKER LAKE A","2300503","2021-03-12 15:00","2021","03","12","15:00","-27.9","","-33.2","","62","","","","32","","8","","32.2","","101.43","","","","-36","","Ice Crystals"
"-96.08","64.30","BAKER LAKE A","2300503","2021-03-12 16:00","2021","03","12","16:00","-27.8","","-32.9","","62","","","","34","","16","","32.2","","101.46","","","","-39","","Ice Crystals"
"-96.08","64.30","BAKER LAKE A","2300503","2021-03-12 17:00","2021","03","12","17:00","-28.3","","-33.3","","63","","","","32","","12","","32.2","","101.50","","","","-38","","Ice Crystals"
"-96.08","64.30","BAKER LAKE A","2300503","2021-03-12 18:00","2021","03","12","18:00","-29.3","","-34.1","","64","","","","30","","18","","32.2","","101.52","","","","-42","","Ice Crystals"
"-96.08","64.30","BAKER LAKE A","2300503","2021-03-12 19:00","2021","03","12","19:00","-29.2","","-33.8","","65","","","","33","","28","","24.1","","101.56","","","","-44","","Ice Crystals"
"-96.08","64.30","BAKER LAKE A","2300503","2021-03-12 20:00","2021","03","12","20:00","-30.0","","-34.7","","65","","","","32","","24","","24.1","","101.61","","","","-44","","Ice Crystals"
"-96.08","64.30","BAKER LAKE A","2300503","2021-03-12 21:00","2021","03","12","21:00","-29.9","","-34.5","","65","","","","32","","30","","24.1","","101.66","","","","-45","","Ice Crystals"
"-96.08","64.30","BAKER LAKE A","2300503","2021-03-12 22:00","2021","03","12","22:00","-30.4","","-35.1","","65","","","","33","","21","","24.1","","101.71","","","","-44","","Ice Crystals"
"-96.08","64.30","BAKER LAKE A","2300503","2021-03-12 23:00","2021","03","12","23:00","-30.9","","-35.3","","66","","","","31","","32","","24.1","","101.75","","","","-47","","Ice Crystals,Blowing Snow"
"-96.08","64.30","BAKER LAKE A","2300503","2021-03-13 00:00","2021","03","13","00:00","-31.2","","-35.9","","65","","","","29","","20","","24.1","","101.82","","","","-45","","Ice Crystals,Blowing Snow"
"-96.08","64.30","BAKER LAKE A","2300503","2021-03-13 01:00","2021","03","13","01:00","-30.0","","-34.4","","66","","","","32","","22","","24.1","","101.86","","","","-44","","Ice Crystals,Blowing Snow"
"-96.08","64.30","BAKER LAKE A","2300503","2021-03-13 02:00","2021","03","13","02:00","-29.4","","-33.7","","67","","","","31","","30","","24.1","","101.90","","","","-45","","Ice Crystals,Blowing Snow"
"-96.08","64.30","BAKER LAKE A","2300503","2021-03-13 03:00","2021","03","13","03:00","-29.3","","-33.4","","68","","","","32","","42","","16.1","","101.85","","","","-47","","Ice Crystals,Blowing Snow"
"-96.08","64.30","BAKER LAKE A","2300503","2021-03-13 04:00","2021","03","13","04:00"
"-96.08","64.30","BAKER LAKE A","2300503","2021-03-13 05:00","2021","03","13","05:00","-30.7","","-34.9","","67","","","","32","","30","","8.1","","102.11","","","","-47","","Ice Crystals,Blowing Snow"
"-96.08","64.30","BAKER LAKE A","2300503","2021-03-13 06:00","2021","03","13","06:00","-31.1","","-35.2","","68","","","","32","","37","","2.4","","102.21","","","","-48","","Ice Crystals,Blowing Snow"
"-96.08","64.30","BAKER LAKE A","2300503","2021-03-13 07:00","2021","03","13","07:00","-31.4","","-35.7","","67","","","","32","","37","","1.0","","102.29","","","","-49","","Ice Crystals,Blowing Snow"
"-96.08","64.30","BAKER LAKE A","2300503","2021-03-13 08:00","2021","03","13","08:00","-31.1","","-35.4","","67","","","","33","","43","","0.8","","102.39","","","","-49","","Ice Crystals,Blowing Snow"
"-96.08","64.30","BAKER LAKE A","2300503","2021-03-13 09:00","2021","03","13","09:00","-30.6","","-35.0","","66","","","","32","","46","","0.8","","102.50","","","","-49","","Ice Crystals,Blowing Snow"
"-96.08","64.30","BAKER LAKE A","2300503","2021-03-13 10:00","2021","03","13","10:00","-29.9","","-34.3","","66","","","","32","","55","","0.8","","102.60","","","","-50","","Ice Crystals,Blowing Snow"
"-96.08","64.30","BAKER LAKE A","2300503","2021-03-13 11:00","2021","03","13","11:00","-29.4","","-33.9","","66","","","","33","","55","","0.6","","102.70","","","","-49","","Ice Crystals,Blowing Snow"
"-96.08","64.30","BAKER LAKE A","2300503","2021-03-13 12:00","2021","03","13","12:00","-28.1","","-32.5","","66","","","","32","","47","","0.6","","102.84","","","","-46","","Ice Crystals,Blowing Snow"
"-96.08","64.30","BAKER LAKE A","2300503","2021-03-13 13:00","2021","03","13","13:00","-26.7","","-31.1","","67","","","","33","","49","","0.6","","102.90","","","","-44","","Ice Crystals,Blowing Snow"
"-96.08","64.30","BAKER LAKE A","2300503","2021-03-13 14:00","2021","03","13","14:00","-26.0","","-30.5","","66","","","","33","","21","","2.4","","103.07","","","","-38","","Ice Crystals,Blowing Snow"
"-96.08","64.30","BAKER LAKE A","2300503","2021-03-13 15:00","2021","03","13","15:00","-26.0","","-30.4","","67","","","","32","","48","","1.6","","103.08","","","","-43","","Ice Crystals,Blowing Snow"
"-96.08","64.30","BAKER LAKE A","2300503","2021-03-13 16:00","2021","03","13","16:00","-25.2","","-29.6","","67","","","","33","","45","","4.8","","103.20","","","","-42","","Ice Crystals,Blowing Snow"
"-96.08","64.30","BAKER LAKE A","2300503","2021-03-13 17:00","2021","03","13","17:00","-25.5","","-30.0","","67","","","","33","","39","","16.1","","103.33","","","","-41","","Ice Crystals,Blowing Snow"
"-96.08","64.30","BAKER LAKE A","2300503","2021-03-13 18:00","2021","03","13","18:00","-25.1","","-29.5","","68","","","","32","","39","","16.1","","103.41","","","","-41","","Ice Crystals,Blowing Snow"
"-96.08","64.30","BAKER LAKE A","2300503","2021-03-13 19:00","2021","03","13","19:00","-26.9","","-31.0","","69","","","","32","","33","","16.1","","103.51","","","","-42","","Ice Crystals,Blowing Snow"
"-96.08","64.30","BAKER LAKE A","2300503","2021-03-13 20:00","2021","03","13","20:00","-27.4","","-31.5","","69","","","","31","","42","","16.1","","103.45","","","","-44","","Ice Crystals,Blowing Snow"
"-96.08","64.30","BAKER LAKE A","2300503","2021-03-13 21:00","2021","03","13","21:00","-25.9","","-30.3","","67","","","","33","","22","","24.1","","103.57","","","","-38","","Ice Crystals,Blowing Snow"
"-96.08","64.30","BAKER LAKE A","2300503","2021-03-13 22:00","2021","03","13","22:00","-28.4","","-32.7","","67","","","","30","","32","","24.1","","103.63","","","","-44","","Ice Crystals,Blowing Snow"
"-96.08","64.30","BAKER LAKE A","2300503","2021-03-13 23:00","2021","03","13","23:00","-28.6","","-33.1","","66","","","","29","","31","","24.1","","103.69","","","","-44","","Ice Crystals,Blowing Snow"
"-96.08","64.30","BAKER LAKE A","2300503","2021-03-14 00:00","2021","03","14","00:00","-29.0","","-33.4","","67","","","","30","","30","","24.1","","103.72","","","","-44","","Ice Crystals,Blowing Snow"
"-96.08","64.30","BAKER LAKE A","2300503","2021-03-14 01:00","2021","03","14","01:00","-28.8","","-33.3","","66","","","","31","","43","","24.1","","103.68","","","","-46","","Ice Crystals,Blowing Snow"
"-96.08","64.30","BAKER LAKE A","2300503","2021-03-14 02:00","2021","03","14","02:00","-29.6","","-34.2","","65","","","","34","","21","","24.1","","103.76","","","","-43","","Ice Crystals,Blowing Snow"
"-96.08","64.30","BAKER LAKE A","2300503","2021-03-14 03:00","2021","03","14","03:00","-28.9","","-33.6","","65","","","","33","","3","","24.1","","103.78","","","","-32","","Ice Crystals"
"-96.08","64.30","BAKER LAKE A","2300503","2021-03-14 04:00","2021","03","14","04:00","-29.6","","-34.3","","65","","","","30","","38","","24.1","","103.79","","","","-47","","Ice Crystals,Blowing Snow"
"-96.08","64.30","BAKER LAKE A","2300503","2021-03-14 05:00","2021","03","14","05:00","-29.9","","-34.6","","64","","","","29","","36","","24.1","","103.79","","","","-47","","NA"
"-96.08","64.30","BAKER LAKE A","2300503","2021-03-14 06:00","2021","03","14","06:00","-29.4","","-34.0","","65","","","","30","","34","","32.2","","103.77","","","","-46","","Ice Crystals,Blowing Snow"
"-96.08","64.30","BAKER LAKE A","2300503","2021-03-14 07:00","2021","03","14","07:00","-29.1","","-33.9","","64","","","","30","","37","","32.2","","103.75","","","","-46","","Ice Crystals,Blowing Snow"
"-96.08","64.30","BAKER LAKE A","2300503","2021-03-14 08:00","2021","03","14","08:00","-27.5","","-33.0","","60","","","","22","","7","","32.2","","103.77","","","","-34","","Ice Crystals"
"-96.08","64.30","BAKER LAKE A","2300503","2021-03-14 09:00","2021","03","14","09:00","-27.7","","-33.1","","61","","","","29","","11","","32.2","","103.73","","","","-37","","Ice Crystals"
"-96.08","64.30","BAKER LAKE A","2300503","2021-03-14 10:00","2021","03","14","10:00","-26.0","","-31.7","","60","","","","33","","5","","32.2","","103.72","","","","-31","","Ice Crystals"
"-96.08","64.30","BAKER LAKE A","2300503","2021-03-14 11:00","2021","03","14","11:00","-26.8","","-31.9","","63","","","","19","","6","","32.2","","103.66","","","","-33","","Ice Crystals"
"-96.08","64.30","BAKER LAKE A","2300503","2021-03-14 12:00","2021","03","14","12:00","-26.0","","-31.2","","62","","","","20","","3","","32.2","","103.61","","","","-29","","Ice Crystals"
"-96.08","64.30","BAKER LAKE A","2300503","2021-03-14 13:00","2021","03","14","13:00","-25.5","","-30.6","","63","","","","20","","4","","32.2","","103.55","","","","-30","","Ice Crystals"
"-96.08","64.30","BAKER LAKE A","2300503","2021-03-14 14:00","2021","03","14","14:00","-24.8","","-30.1","","62","","","","36","","12","","32.2","","103.49","","","","-34","","NA"
"-96.08","64.30","BAKER LAKE A","2300503","2021-03-14 15:00","2021","03","14","15:00","-24.4","","-29.5","","64","","","","1","","8","","32.2","","103.43","","","","-31","","Ice Crystals"
"-96.08","64.30","BAKER LAKE A","2300503","2021-03-14 16:00","2021","03","14","16:00","-24.4","","-29.4","","64","","","","4","","4","","32.2","","103.36","","","","-28","","Ice Crystals"
"-96.08","64.30","BAKER LAKE A","2300503","2021-03-14 17:00","2021","03","14","17:00","-24.7","","-29.5","","65","","","","36","","10","","32.2","","103.30","","","","-33","","Ice Crystals"
"-96.08","64.30","BAKER LAKE A","2300503","2021-03-14 18:00","2021","03","14","18:00","-24.3","","-28.8","","67","","","","1","","8","","32.2","","103.19","","","","-31","","Ice Crystals"
"-96.08","64.30","BAKER LAKE A","2300503","2021-03-14 19:00","2021","03","14","19:00","-24.2","","-28.6","","68","","","","1","","6","","24.1","","103.13","","","","-30","","Ice Crystals"
"-96.08","64.30","BAKER LAKE A","2300503","2021-03-14 20:00","2021","03","14","20:00","-25.1","","-29.4","","67","","","","7","","8","","24.1","","103.10","","","","-32","","Ice Crystals"
"-96.08","64.30","BAKER LAKE A","2300503","2021-03-14 21:00","2021","03","14","21:00","-25.4","","-29.7","","68","","","","4","","8","","24.1","","103.01","","","","-33","","Ice Crystals"
"-96.08","64.30","BAKER LAKE A","2300503","2021-03-14 22:00","2021","03","14","22:00","-26.2","","-30.3","","69","","","","36","","9","","24.1","","102.97","","","","-34","","Ice Crystals"
"-96.08","64.30","BAKER LAKE A","2300503","2021-03-14 23:00","2021","03","14","23:00","-25.4","","-29.5","","69","","","","2","","9","","24.1","","102.88","","","","-33","","NA"
"-96.08","64.30","BAKER LAKE A","2300503","2021-03-15 00:00","2021","03","15","00:00","-27.0","","-31.0","","70","","","","36","","11","","24.1","","102.84","","","","-36","","Mainly Clear"
"-96.08","64.30","BAKER LAKE A","2300503","2021-03-15 01:00","2021","03","15","01:00","-27.3","","-31.4","","69","","","","36","","11","","24.1","","102.75","","","","-36","","NA"
"-96.08","64.30","BAKER LAKE A","2300503","2021-03-15 02:00","2021","03","15","02:00","-26.5","","-30.5","","70","","","","2","","14","","24.1","","102.65","","","","-37","","NA"
"-96.08","64.30","BAKER LAKE A","2300503","2021-03-15 03:00","2021","03","15","03:00","-27.0","","-31.1","","69","","","","9","","6","","24.1","","102.58","","","","-33","","Mainly Clear"
"-96.08","64.30","BAKER LAKE A","2300503","2021-03-15 04:00","2021","03","15","04:00","-27.4","","-31.3","","70","","","","7","","5","","24.1","","102.55","","","","-33","","NA"
"-96.08","64.30","BAKER LAKE A","2300503","2021-03-15 05:00","2021","03","15","05:00","-27.9","","-31.8","","70","","","","36","","8","","24.1","","102.47","","","","-36","","NA"
"-96.08","64.30","BAKER LAKE A","2300503","2021-03-15 06:00","2021","03","15","06:00","-28.0","","-32.4","","67","","","","1","","7","","32.2","","102.40","","","","-35","","Mainly Clear"
"-96.08","64.30","BAKER LAKE A","2300503","2021-03-15 07:00","2021","03","15","07:00","-26.9","","-31.7","","65","","","","36","","8","","32.2","","102.38","","","","-34","","NA"
"-96.08","64.30","BAKER LAKE A","2300503","2021-03-15 08:00","2021","03","15","08:00","-26.6","","-31.5","","64","","","","36","","3","","32.2","","102.32","","","","-30","","NA"
"-96.08","64.30","BAKER LAKE A","2300503","2021-03-15 09:00","2021","03","15","09:00","-26.3","","-31.0","","65","","","","36","","5","","32.2","","102.17","","","","-31","","Mostly Cloudy"
"-96.08","64.30","BAKER LAKE A","2300503","2021-03-15 10:00","2021","03","15","10:00","-24.4","","-30.1","","60","","","","8","","17","","32.2","","102.12","","","","-35","","NA"
"-96.08","64.30","BAKER LAKE A","2300503","2021-03-15 11:00","2021","03","15","11:00","-23.8","","-29.5","","60","","","","8","","19","","32.2","","101.98","","","","-35","","NA"
"-96.08","64.30","BAKER LAKE A","2300503","2021-03-15 12:00","2021","03","15","12:00","-22.9","","-28.7","","60","","","","9","","20","","32.2","","101.88","","","","-34","","Mostly Cloudy"
"-96.08","64.30","BAKER LAKE A","2300503","2021-03-15 13:00","2021","03","15","13:00","-21.7","","-27.4","","61","","","","10","","17","","32.2","","101.78","","","","-32","","NA"
"-96.08","64.30","BAKER LAKE A","2300503","2021-03-15 14:00","2021","03","15","14:00","-21.1","","-26.6","","61","","","","9","","22","","32.2","","101.68","","","","-32","","NA"
"-96.08","64.30","BAKER LAKE A","2300503","2021-03-15 15:00","2021","03","15","15:00","-20.8","","-26.3","","62","","","","8","","21","","32.2","","101.55","","","","-32","","Mostly Cloudy"
"-96.08","64.30","BAKER LAKE A","2300503","2021-03-15 16:00","2021","03","15","16:00","-20.9","","-25.1","","69","","","","10","","20","","32.2","","101.46","","","","-32","","NA"
"-96.08","64.30","BAKER LAKE A","2300503","2021-03-15 17:00","2021","03","15","17:00","-21.1","","-25.2","","70","","","","10","","26","","32.2","","101.29","","","","-33","","NA"
"-96.08","64.30","BAKER LAKE A","2300503","2021-03-15 18:00","2021","03","15","18:00","-20.5","","-24.2","","73","","","","9","","19","","32.2","","101.22","","","","-31","","Mostly Cloudy"
"-96.08","64.30","BAKER LAKE A","2300503","2021-03-15 19:00","2021","03","15","19:00","-20.0","","-23.1","","77","","","","9","","28","","3.2","","101.06","","","","-32","","Snow,Blowing Snow"
"-96.08","64.30","BAKER LAKE A","2300503","2021-03-15 20:00","2021","03","15","20:00","-19.3","","-22.4","","77","","","","10","","31","","4.8","","100.95","","","","-32","","Snow,Blowing Snow"
"-96.08","64.30","BAKER LAKE A","2300503","2021-03-15 21:00","2021","03","15","21:00","-19.0","","-22.0","","78","","","","10","","37","","1.6","","100.80","","","","-32","","Snow,Blowing Snow"
"-96.08","64.30","BAKER LAKE A","2300503","2021-03-15 22:00","2021","03","15","22:00","-18.8","","-21.6","","78","","","","10","","35","","1.2","","100.61","","","","-32","","Snow,Blowing Snow"
"-96.08","64.30","BAKER LAKE A","2300503","2021-03-15 23:00","2021","03","15","23:00","-18.4","","-21.3","","79","","","","10","","39","","1.2","","100.47","","","","-32","","Snow,Blowing Snow"
"-96.08","64.30","BAKER LAKE A","2300503","2021-03-16 00:00","2021","03","16","00:00","-18.4","","-21.2","","79","","","","11","","40","","1.2","","100.33","","","","-32","","Snow,Blowing Snow"
"-96.08","64.30","BAKER LAKE A","2300503","2021-03-16 01:00","2021","03","16","01:00","-18.5","","-21.2","","79","","","","11","","34","","1.0","","100.20","","","","-31","","Snow,Blowing Snow"
"-96.08","64.30","BAKER LAKE A","2300503","2021-03-16 02:00","2021","03","16","02:00","-17.9","","-20.6","","80","","","","11","","34","","1.2","","100.06","","","","-30","","Snow,Blowing Snow"
"-96.08","64.30","BAKER LAKE A","2300503","2021-03-16 03:00","2021","03","16","03:00","-17.8","","-20.5","","80","","","","11","","34","","1.2","","99.94","","","","-30","","Snow,Blowing Snow"
"-96.08","64.30","BAKER LAKE A","2300503","2021-03-16 04:00","2021","03","16","04:00","-17.8","","-20.4","","80","","","","11","","29","","1.2","","99.82","","","","-30","","Snow,Blowing Snow"
"-96.08","64.30","BAKER LAKE A","2300503","2021-03-16 05:00","2021","03","16","05:00","-17.7","","-20.3","","80","","","","11","","23","","1.6","","99.70","","","","-28","","Snow,Blowing Snow"
"-96.08","64.30","BAKER LAKE A","2300503","2021-03-16 06:00","2021","03","16","06:00","-20.4","","-23.9","","74","","","","27","","32","","9.7","","99.64","","","","-33","","Snow,Blowing Snow"
"-96.08","64.30","BAKER LAKE A","2300503","2021-03-16 07:00","2021","03","16","07:00","-21.9","","-25.7","","72","","","","26","","24","","11.3","","99.66","","","","-34","","Snow,Blowing Snow"
"-96.08","64.30","BAKER LAKE A","2300503","2021-03-16 08:00","2021","03","16","08:00","-22.4","","-26.3","","71","","","","26","","22","","16.1","","99.59","","","","-34","","Snow,Blowing Snow"
"-96.08","64.30","BAKER LAKE A","2300503","2021-03-16 09:00","2021","03","16","09:00","-23.0","","-27.2","","69","","","","26","","22","","16.1","","99.60","","","","-35","","Snow,Blowing Snow"
"-96.08","64.30","BAKER LAKE A","2300503","2021-03-16 10:00","2021","03","16","10:00","-23.2","","-27.8","","67","","","","28","","17","","32.2","","99.55","","","","-34","","Ice Crystals"
"-96.08","64.30","BAKER LAKE A","2300503","2021-03-16 11:00","2021","03","16","11:00","-22.9","","-27.7","","65","","","","28","","17","","32.2","","99.56","","","","-33","","Ice Crystals"
"-96.08","64.30","BAKER LAKE A","2300503","2021-03-16 12:00","2021","03","16","12:00","-22.6","","-27.2","","66","","","","30","","17","","32.2","","99.59","","","","-33","","Ice Crystals"
"-96.08","64.30","BAKER LAKE A","2300503","2021-03-16 13:00","2021","03","16","13:00","-21.5","","-26.4","","65","","","","36","","6","","32.2","","99.64","","","","-27","","Ice Crystals"
"-96.08","64.30","BAKER LAKE A","2300503","2021-03-16 14:00","2021","03","16","14:00","-21.4","","-26.4","","64","","","","3","","8","","32.2","","99.71","","","","-28","","NA"
"-96.08","64.30","BAKER LAKE A","2300503","2021-03-16 15:00","2021","03","16","15:00","-21.9","","-26.5","","67","","","","2","","16","","32.2","","99.78","","","","-32","","Clear"
"-96.08","64.30","BAKER LAKE A","2300503","2021-03-16 16:00","2021","03","16","16:00","-21.7","","-26.2","","68","","","","35","","16","","32.2","","99.91","","","","-31","","NA"
"-96.08","64.30","BAKER LAKE A","2300503","2021-03-16 17:00","2021","03","16","17:00","-20.4","","-24.1","","73","","","","35","","29","","32.2","","100.05","","","","-33","","Blowing Snow"
"-96.08","64.30","BAKER LAKE A","2300503","2021-03-16 18:00","2021","03","16","18:00","-21.0","","-24.8","","72","","","","35","","26","","32.2","","100.21","","","","-33","","Blowing Snow"
"-96.08","64.30","BAKER LAKE A","2300503","2021-03-16 19:00","2021","03","16","19:00","-21.9","","-25.6","","73","","","","34","","28","","32.2","","100.34","","","","-35","","Blowing Snow"
"-96.08","64.30","BAKER LAKE A","2300503","2021-03-16 20:00","2021","03","16","20:00","-22.9","","-26.6","","72","","","","33","","35","","24.1","","100.45","","","","-37","","Blowing Snow"
"-96.08","64.30","BAKER LAKE A","2300503","2021-03-16 21:00","2021","03","16","21:00","-23.8","","-27.6","","72","","","","32","","35","","24.1","","100.55","","","","-38","","Blowing Snow"
"-96.08","64.30","BAKER LAKE A","2300503","2021-03-16 22:00","2021","03","16","22:00","-24.1","","-27.8","","72","","","","33","","38","","24.1","","100.65","","","","-39","","Blowing Snow"
"-96.08","64.30","BAKER LAKE A","2300503","2021-03-16 23:00","2021","03","16","23:00","-24.7","","-28.5","","72","","","","34","","39","","24.1","","100.71","","","","-40","","Blowing Snow"
"-96.08","64.30","BAKER LAKE A","2300503","2021-03-17 00:00","2021","03","17","00:00","-25.4","","-29.2","","71","","","","33","","39","","24.1","","100.83","","","","-41","","Blowing Snow"
"-96.08","64.30","BAKER LAKE A","2300503","2021-03-17 01:00","2021","03","17","01:00","-25.9","","-30.0","","69","","","","30","","38","","24.1","","100.98","","","","-42","","Blowing Snow"
"-96.08","64.30","BAKER LAKE A","2300503","2021-03-17 02:00","2021","03","17","02:00","-27.4","","-31.4","","69","","","","31","","42","","16.1","","101.04","","","","-44","","Blowing Snow"
"-96.08","64.30","BAKER LAKE A","2300503","2021-03-17 03:00","2021","03","17","03:00","-27.6","","-31.8","","68","","","","32","","39","","16.1","","101.14","","","","-44","","Blowing Snow"
"-96.08","64.30","BAKER LAKE A","2300503","2021-03-17 04:00","2021","03","17","04:00"
"-96.08","64.30","BAKER LAKE A","2300503","2021-03-17 05:00","2021","03","17","05:00","-28.7","","-32.9","","68","","","","30","","30","","24.1","","101.32","","","","-44","","Blowing Snow"
"-96.08","64.30","BAKER LAKE A","2300503","2021-03-17 06:00","2021","03","17","06:00","-28.5","","-32.8","","68","","","","29","","26","","24.1","","101.45","","","","-43","","Blowing Snow"
"-96.08","64.30","BAKER LAKE A","2300503","2021-03-17 07:00","2021","03","17","07:00","-27.6","","-31.8","","68","","","","30","","27","","32.2","","101.48","","","","-42","","Blowing Snow"
"-96.08","64.30","BAKER LAKE A","2300503","2021-03-17 08:00","2021","03","17","08:00","-27.5","","-31.9","","67","","","","29","","27","","32.2","","101.54","","","","-42","","Blowing Snow"
"-96.08","64.30","BAKER LAKE A","2300503","2021-03-17 09:00","2021","03","17","09:00","-26.9","","-31.4","","66","","","","29","","32","","32.2","","101.52","","","","-42","","Blowing Snow"
"-96.08","64.30","BAKER LAKE A","2300503","2021-03-17 10:00","2021","03","17","10:00","-26.0","","-30.5","","67","","","","29","","32","","32.2","","101.55","","","","-41","","Blowing Snow"
"-96.08","64.30","BAKER LAKE A","2300503","2021-03-17 11:00","2021","03","17","11:00","-24.8","","-29.2","","67","","","","29","","37","","32.2","","101.53","","","","-40","","Blowing Snow"
"-96.08","64.30","BAKER LAKE A","2300503","2021-03-17 12:00","2021","03","17","12:00","-23.8","","-28.4","","67","","","","29","","33","","32.2","","101.51","","","","-38","","Blowing Snow"
"-96.08","64.30","BAKER LAKE A","2300503","2021-03-17 13:00","2021","03","17","13:00","-22.6","","-27.5","","65","","","","29","","24","","32.2","","101.51","","","","-35","","Blowing Snow"
"-96.08","64.30","BAKER LAKE A","2300503","2021-03-17 14:00","2021","03","17","14:00","-21.0","","-26.2","","64","","","","27","","15","","32.2","","101.51","","","","-30","","Blowing Snow"
"-96.08","64.30","BAKER LAKE A","2300503","2021-03-17 15:00","2021","03","17","15:00","-21.9","","-26.5","","67","","","","27","","33","","32.2","","101.45","","","","-36","","Blowing Snow"
"-96.08","64.30","BAKER LAKE A","2300503","2021-03-17 16:00","2021","03","17","16:00","-22.1","","-26.2","","70","","","","26","","30","","24.1","","101.43","","","","-35","","Blowing Snow"
"-96.08","64.30","BAKER LAKE A","2300503","2021-03-17 17:00","2021","03","17","17:00","-22.1","","-26.3","","69","","","","27","","22","","24.1","","101.44","","","","-34","","Snow,Blowing Snow"
"-96.08","64.30","BAKER LAKE A","2300503","2021-03-17 18:00","2021","03","17","18:00","-22.5","","-26.6","","70","","","","32","","10","","32.2","","101.46","","","","-30","","Ice Crystals,Blowing Snow"
"-96.08","64.30","BAKER LAKE A","2300503","2021-03-17 19:00","2021","03","17","19:00","-22.7","","-26.4","","72","","","","24","","16","","24.1","","101.44","","","","-33","","Ice Crystals,Blowing Snow"
"-96.08","64.30","BAKER LAKE A","2300503","2021-03-17 20:00","2021","03","17","20:00","-22.8","","-26.5","","72","","","","27","","18","","16.1","","101.46","","","","-33","","Snow"
"-96.08","64.30","BAKER LAKE A","2300503","2021-03-17 21:00","2021","03","17","21:00","-23.0","","-26.8","","72","","","","9","","4","","24.1","","101.46","","","","-27","","Snow"
"-96.08","64.30","BAKER LAKE A","2300503","2021-03-17 22:00","2021","03","17","22:00","-23.5","","-27.4","","71","","","","36","","2","","24.1","","101.41","","","","-25","","Snow"
"-96.08","64.30","BAKER LAKE A","2300503","2021-03-17 23:00","2021","03","17","23:00","-25.6","","-29.0","","74","","","","31","","13","","24.1","","101.42","","","","-35","","NA"
"-96.08","64.30","BAKER LAKE A","2300503","2021-03-18 00:00","2021","03","18","00:00","-27.3","","-30.7","","74","","","","28","","5","","24.1","","101.45","","","","-33","","Mainly Clear"
"-96.08","64.30","BAKER LAKE A","2300503","2021-03-18 01:00","2021","03","18","01:00","-27.1","","-30.5","","74","","","","28","","5","","24.1","","101.45","","","","-32","","NA"
"-96.08","64.30","BAKER LAKE A","2300503","2021-03-18 02:00","2021","03","18","02:00"
"-96.08","64.30","BAKER LAKE A","2300503","2021-03-18 03:00","2021","03","18","03:00","-30.3","","-33.9","","72","","","","32","","8","","24.1","","101.47","","","","-38","","Mainly Clear"
"-96.08","64.30","BAKER LAKE A","2300503","2021-03-18 04:00","2021","03","18","04:00","-30.1","","-33.7","","72","","","","3","","4","","24.1","","101.38","","","","-35","","NA"
"-96.08","64.30","BAKER LAKE A","2300503","2021-03-18 05:00","2021","03","18","05:00","-30.0","","-33.5","","72","","","","36","","2","","24.1","","101.36","","","","-32","","NA"
"-96.08","64.30","BAKER LAKE A","2300503","2021-03-18 06:00","2021","03","18","06:00","-30.9","","-34.5","","71","","","","36","","2","","24.1","","101.35","","","","-33","","Mainly Clear"
"-96.08","64.30","BAKER LAKE A","2300503","2021-03-18 07:00","2021","03","18","07:00","-29.3","","-32.8","","72","","","","36","","1","","32.2","","101.27","","","","-30","","NA"
"-96.08","64.30","BAKER LAKE A","2300503","2021-03-18 08:00","2021","03","18","08:00","-28.2","","-31.8","","72","","","","11","","8","","24.1","","101.19","","","","-36","","NA"
"-96.08","64.30","BAKER LAKE A","2300503","2021-03-18 09:00","2021","03","18","09:00","-27.0","","-30.5","","72","","","","10","","10","","6.4","","101.10","","","","-36","","Ice Crystals"
"-96.08","64.30","BAKER LAKE A","2300503","2021-03-18 10:00","2021","03","18","10:00","-25.4","","-28.9","","73","","","","10","","15","","16.1","","101.06","","","","-36","","Ice Crystals"
"-96.08","64.30","BAKER LAKE A","2300503","2021-03-18 11:00","2021","03","18","11:00","-23.2","","-26.5","","75","","","","9","","24","","4.8","","100.91","","","","-36","","Snow"
"-96.08","64.30","BAKER LAKE A","2300503","2021-03-18 12:00","2021","03","18","12:00","-22.1","","-25.4","","75","","","","10","","22","","2.4","","100.78","","","","-34","","Snow"
"-96.08","64.30","BAKER LAKE A","2300503","2021-03-18 13:00","2021","03","18","13:00","-20.9","","-24.1","","76","","","","10","","28","","1.2","","100.63","","","","-33","","Snow,Blowing Snow"
"-96.08","64.30","BAKER LAKE A","2300503","2021-03-18 14:00","2021","03","18","14:00","-20.6","","-23.8","","76","","","","10","","32","","1.0","","100.52","","","","-34","","Snow,Blowing Snow"
"-96.08","64.30","BAKER LAKE A","2300503","2021-03-18 15:00","2021","03","18","15:00","-19.5","","-22.7","","76","","","","10","","30","","1.0","","100.42","","","","-32","","Snow,Blowing Snow"
"-96.08","64.30","BAKER LAKE A","2300503","2021-03-18 16:00","2021","03","18","16:00","-19.1","","-22.2","","77","","","","10","","36","","1.0","","100.34","","","","-32","","Snow,Blowing Snow"
"-96.08","64.30","BAKER LAKE A","2300503","2021-03-18 17:00","2021","03","18","17:00","-17.6","","-20.4","","79","","","","9","","34","","1.2","","100.32","","","","-30","","Snow,Blowing Snow"
"-96.08","64.30","BAKER LAKE A","2300503","2021-03-18 18:00","2021","03","18","18:00","-16.6","","-19.3","","80","","","","9","","34","","2.4","","100.29","","","","-29","","Snow,Blowing Snow"
"-96.08","64.30","BAKER LAKE A","2300503","2021-03-18 19:00","2021","03","18","19:00","-15.4","","-18.0","","81","","","","8","","30","","4.8","","100.33","","","","-27","","Snow,Blowing Snow"
"-96.08","64.30","BAKER LAKE A","2300503","2021-03-18 20:00","2021","03","18","20:00","-14.7","","-17.2","","82","","","","7","","26","","24.1","","100.36","","","","-25","","Snow"
"-96.08","64.30","BAKER LAKE A","2300503","2021-03-18 21:00","2021","03","18","21:00","-15.1","","-18.0","","79","","","","2","","15","","24.1","","100.47","","","","-23","","Snow"
"-96.08","64.30","BAKER LAKE A","2300503","2021-03-18 22:00","2021","03","18","22:00","-14.8","","-17.8","","79","","","","4","","18","","24.1","","100.49","","","","-23","","Snow"
"-96.08","64.30","BAKER LAKE A","2300503","2021-03-18 23:00","2021","03","18","23:00","-15.2","","-18.2","","78","","","","4","","15","","24.1","","100.59","","","","-23","","Snow"
"-96.08","64.30","BAKER LAKE A","2300503","2021-03-19 00:00","2021","03","19","00:00","-17.7","","-20.9","","77","","","","36","","12","","24.1","","100.68","","","","-25","","Snow"
"-96.08","64.30","BAKER LAKE A","2300503","2021-03-19 01:00","2021","03","19","01:00","-18.9","","-22.0","","77","","","","34","","24","","24.1","","100.79","","","","-30","","NA"
"-96.08","64.30","BAKER LAKE A","2300503","2021-03-19 02:00","2021","03","19","02:00","-19.9","","-22.9","","78","","","","32","","22","","24.1","","100.88","","","","-31","","NA"
"-96.08","64.30","BAKER LAKE A","2300503","2021-03-19 03:00","2021","03","19","03:00"
"-96.08","64.30","BAKER LAKE A","2300503","2021-03-19 04:00","2021","03","19","04:00"
"-96.08","64.30","BAKER LAKE A","2300503","2021-03-19 05:00","2021","03","19","05:00","-21.4","","-24.3","","78","","","","33","","20","","24.1","","101.03","","","","-32","","NA"
"-96.08","64.30","BAKER LAKE A","2300503","2021-03-19 06:00","2021","03","19","06:00","-21.0","","-23.8","","78","","","","34","","17","","32.2","","101.11","","","","-31","","Mainly Clear"
"-96.08","64.30","BAKER LAKE A","2300503","2021-03-19 07:00","2021","03","19","07:00","-22.1","","-25.0","","77","","","","33","","17","","32.2","","101.15","","","","-32","","Ice Crystals"
"-96.08","64.30","BAKER LAKE A","2300503","2021-03-19 08:00","2021","03","19","08:00","-21.4","","-24.3","","78","","","","33","","12","","32.2","","101.14","","","","-30","","Ice Crystals"
"-96.08","64.30","BAKER LAKE A","2300503","2021-03-19 09:00","2021","03","19","09:00","-21.4","","-24.4","","77","","","","35","","10","","32.2","","101.17","","","","-29","","Mainly Clear"
"-96.08","64.30","BAKER LAKE A","2300503","2021-03-19 10:00","2021","03","19","10:00","-20.6","","-23.8","","76","","","","36","","9","","32.2","","101.18","","","","-27","","NA"
"-96.08","64.30","BAKER LAKE A","2300503","2021-03-19 11:00","2021","03","19","11:00","-20.0","","-23.5","","74","","","","34","","12","","32.2","","101.27","","","","-28","","NA"
"-96.08","64.30","BAKER LAKE A","2300503","2021-03-19 12:00","2021","03","19","12:00","-19.0","","-22.7","","73","","","","36","","12","","32.2","","101.28","","","","-27","","Mostly Cloudy"
"-96.08","64.30","BAKER LAKE A","2300503","2021-03-19 13:00","2021","03","19","13:00","-17.7","","-21.3","","74","","","","6","","10","","32.2","","101.24","","","","-24","","NA"
"-96.08","64.30","BAKER LAKE A","2300503","2021-03-19 14:00","2021","03","19","14:00","-17.2","","-20.6","","75","","","","6","","7","","32.2","","101.26","","","","-22","","NA"
"-96.08","64.30","BAKER LAKE A","2300503","2021-03-19 15:00","2021","03","19","15:00","-17.1","","-20.5","","76","","","","10","","10","","32.2","","101.26","","","","-24","","Cloudy"
"-96.08","64.30","BAKER LAKE A","2300503","2021-03-19 16:00","2021","03","19","16:00","-17.8","","-20.9","","77","","","","8","","8","","32.2","","101.27","","","","-24","","NA"
"-96.08","64.30","BAKER LAKE A","2300503","2021-03-19 17:00","2021","03","19","17:00","-18.3","","-21.6","","75","","","","36","","9","","32.2","","101.29","","","","-25","","NA"
"-96.08","64.30","BAKER LAKE A","2300503","2021-03-19 18:00","2021","03","19","18:00","-18.6","","-21.7","","77","","","","3","","6","","32.2","","101.27","","","","-23","","Cloudy"
"-96.08","64.30","BAKER LAKE A","2300503","2021-03-19 19:00","2021","03","19","19:00","-18.9","","-22.0","","77","","","","2","","8","","32.2","","101.27","","","","-25","","NA"
"-96.08","64.30","BAKER LAKE A","2300503","2021-03-19 20:00","2021","03","19","20:00","-18.8","","-21.6","","79","","","","6","","13","","24.1","","101.25","","","","-27","","NA"
"-96.08","64.30","BAKER LAKE A","2300503","2021-03-19 21:00","2021","03","19","21:00","-18.8","","-21.7","","78","","","","7","","16","","24.1","","101.25","","","","-28","","Ice Crystals"
"-96.08","64.30","BAKER LAKE A","2300503","2021-03-19 22:00","2021","03","19","22:00","-19.1","","-22.1","","78","","","","8","","12","","24.1","","101.25","","","","-27","","Ice Crystals"
"-96.08","64.30","BAKER LAKE A","2300503","2021-03-19 23:00","2021","03","19","23:00","-19.8","","-22.6","","78","","","","7","","11","","24.1","","101.22","","","","-27","","Ice Crystals"
"-96.08","64.30","BAKER LAKE A","2300503","2021-03-20 00:00","2021","03","20","00:00","-19.8","","-22.8","","78","","","","6","","9","","24.1","","101.21","","","","-27","","Ice Crystals"
"-96.08","64.30","BAKER LAKE A","2300503","2021-03-20 01:00","2021","03","20","01:00","-22.4","","-25.6","","76","","","","36","","10","","24.1","","101.20","","","","-30","","Ice Crystals"
"-96.08","64.30","BAKER LAKE A","2300503","2021-03-20 02:00","2021","03","20","02:00","-23.1","","-26.0","","77","","","","35","","9","","24.1","","101.17","","","","-30","","Ice Crystals"
"-96.08","64.30","BAKER LAKE A","2300503","2021-03-20 03:00","2021","03","20","03:00","-22.3","","-25.1","","78","","","","2","","10","","24.1","","101.14","","","","-30","","Ice Crystals"
"-96.08","64.30","BAKER LAKE A","2300503","2021-03-20 04:00","2021","03","20","04:00","-21.7","","-24.5","","79","","","","5","","16","","24.1","","101.09","","","","-31","","Ice Crystals"
"-96.08","64.30","BAKER LAKE A","2300503","2021-03-20 05:00","2021","03","20","05:00","-21.6","","-24.6","","77","","","","7","","19","","24.1","","100.99","","","","-32","","Ice Crystals"
"-96.08","64.30","BAKER LAKE A","2300503","2021-03-20 06:00","2021","03","20","06:00","-22.1","","-25.3","","76","","","","5","","16","","16.1","","100.99","","","","-32","","Ice Crystals"
"-96.08","64.30","BAKER LAKE A","2300503","2021-03-20 07:00","2021","03","20","07:00","-21.5","","-24.5","","77","","","","8","","19","","16.1","","100.96","","","","-32","","Ice Crystals"
"-96.08","64.30","BAKER LAKE A","2300503","2021-03-20 08:00","2021","03","20","08:00","-21.4","","-24.4","","77","","","","7","","19","","6.4","","100.90","","","","-32","","Snow,Blowing Snow"
"-96.08","64.30","BAKER LAKE A","2300503","2021-03-20 09:00","2021","03","20","09:00","-20.1","","-23.3","","76","","","","8","","28","","2.4","","100.83","","","","-32","","Ice Crystals,Blowing Snow"
"-96.08","64.30","BAKER LAKE A","2300503","2021-03-20 10:00","2021","03","20","10:00","-19.8","","-23.4","","73","","","","7","","21","","3.2","","100.81","","","","-30","","Ice Crystals,Blowing Snow"
"-96.08","64.30","BAKER LAKE A","2300503","2021-03-20 11:00","2021","03","20","11:00","-19.0","","-22.4","","75","","","","8","","27","","8.1","","100.74","","","","-31","","Ice Crystals,Blowing Snow"
"-96.08","64.30","BAKER LAKE A","2300503","2021-03-20 12:00","2021","03","20","12:00","-18.0","","-21.4","","75","","","","9","","28","","8.1","","100.62","","","","-30","","Ice Crystals,Blowing Snow"
"-96.08","64.30","BAKER LAKE A","2300503","2021-03-20 13:00","2021","03","20","13:00","-17.2","","-20.6","","76","","","","8","","32","","8.1","","100.46","","","","-29","","Ice Crystals,Blowing Snow"
"-96.08","64.30","BAKER LAKE A","2300503","2021-03-20 14:00","2021","03","20","14:00","-16.7","","-20.0","","76","","","","7","","34","","8.1","","100.39","","","","-29","","Snow,Blowing Snow"
"-96.08","64.30","BAKER LAKE A","2300503","2021-03-20 15:00","2021","03","20","15:00","-16.4","","-19.5","","77","","","","8","","32","","8.1","","100.31","","","","-28","","Snow,Blowing Snow"
"-96.08","64.30","BAKER LAKE A","2300503","2021-03-20 16:00","2021","03","20","16:00","-16.6","","-19.5","","79","","","","8","","34","","1.0","","100.23","","","","-29","","Snow,Blowing Snow"
"-96.08","64.30","BAKER LAKE A","2300503","2021-03-20 17:00","2021","03","20","17:00","-16.3","","-19.0","","80","","","","8","","38","","1.0","","100.12","","","","-29","","Snow,Blowing Snow"
"-96.08","64.30","BAKER LAKE A","2300503","2021-03-20 18:00","2021","03","20","18:00","-15.5","","-18.1","","81","","","","8","","37","","1.0","","100.06","","","","-28","","Snow,Blowing Snow"
"-96.08","64.30","BAKER LAKE A","2300503","2021-03-20 19:00","2021","03","20","19:00","-15.3","","-17.8","","81","","","","9","","23","","1.0","","100.16","","","","-25","","Snow,Blowing Snow"
"-96.08","64.30","BAKER LAKE A","2300503","2021-03-20 20:00","2021","03","20","20:00","-15.2","","-17.6","","82","","","","9","","23","","1.2","","100.12","","","","-25","","Snow,Blowing Snow"
"-96.08","64.30","BAKER LAKE A","2300503","2021-03-20 21:00","2021","03","20","21:00","-15.1","","-17.6","","81","","","","7","","28","","2.4","","100.02","","","","-26","","Snow,Blowing Snow"
"-96.08","64.30","BAKER LAKE A","2300503","2021-03-20 22:00","2021","03","20","22:00","-15.0","","-17.6","","81","","","","7","","26","","2.4","","100.00","","","","-25","","Snow,Blowing Snow"
"-96.08","64.30","BAKER LAKE A","2300503","2021-03-20 23:00","2021","03","20","23:00","-15.0","","-17.7","","80","","","","7","","30","","2.4","","99.96","","","","-26","","Snow,Blowing Snow"
"-96.08","64.30","BAKER LAKE A","2300503","2021-03-21 00:00","2021","03","21","00:00","-14.9","","-17.6","","80","","","","6","","27","","4.8","","99.95","","","","-25","","Snow,Blowing Snow"
"-96.08","64.30","BAKER LAKE A","2300503","2021-03-21 01:00","2021","03","21","01:00","-14.7","","-17.6","","78","","","","7","","24","","12.9","","99.96","","","","-25","","Snow,Blowing Snow"
"-96.08","64.30","BAKER LAKE A","2300503","2021-03-21 02:00","2021","03","21","02:00","-14.5","","-17.6","","78","","","","5","","21","","16.1","","99.97","","","","-24","","Snow,Blowing Snow"
"-96.08","64.30","BAKER LAKE A","2300503","2021-03-21 03:00","2021","03","21","03:00","-14.6","","-17.8","","77","","","","4","","22","","24.1","","99.95","","","","-24","","Snow,Blowing Snow"
"-96.08","64.30","BAKER LAKE A","2300503","2021-03-21 04:00","2021","03","21","04:00","-14.6","","-17.8","","77","","","","4","","22","","24.1","","100.00","","","","-24","","Snow,Blowing Snow"
"-96.08","64.30","BAKER LAKE A","2300503","2021-03-21 05:00","2021","03","21","05:00","-15.2","","-18.3","","78","","","","3","","17","","24.1","","100.10","","","","-24","","Snow"
"-96.08","64.30","BAKER LAKE A","2300503","2021-03-21 06:00","2021","03","21","06:00","-16.9","","-19.8","","78","","","","2","","21","","16.1","","100.11","","","","-27","","Snow,Blowing Snow"
"-96.08","64.30","BAKER LAKE A","2300503","2021-03-21 07:00","2021","03","21","07:00","-18.2","","-21.3","","77","","","","36","","22","","32.2","","100.17","","","","-29","","Ice Crystals,Blowing Snow"
"-96.08","64.30","BAKER LAKE A","2300503","2021-03-21 08:00","2021","03","21","08:00","-19.5","","-22.9","","75","","","","35","","28","","32.2","","100.21","","","","-32","","Ice Crystals,Blowing Snow"
"-96.08","64.30","BAKER LAKE A","2300503","2021-03-21 09:00","2021","03","21","09:00","-18.7","","-22.3","","74","","","","35","","28","","32.2","","100.30","","","","-31","","Blowing Snow"
"-96.08","64.30","BAKER LAKE A","2300503","2021-03-21 10:00","2021","03","21","10:00","-18.2","","-22.0","","72","","","","35","","25","","32.2","","100.35","","","","-29","","Blowing Snow"
"-96.08","64.30","BAKER LAKE A","2300503","2021-03-21 11:00","2021","03","21","11:00","-16.2","","-20.3","","71","","","","1","","21","","32.2","","100.37","","","","-26","","Blowing Snow"
"-96.08","64.30","BAKER LAKE A","2300503","2021-03-21 12:00","2021","03","21","12:00","-15.1","","-19.1","","72","","","","1","","20","","32.2","","100.43","","","","-24","","Blowing Snow"
"-96.08","64.30","BAKER LAKE A","2300503","2021-03-21 13:00","2021","03","21","13:00","-14.9","","-18.9","","72","","","","1","","25","","32.2","","100.45","","","","-25","","Blowing Snow"
"-96.08","64.30","BAKER LAKE A","2300503","2021-03-21 14:00","2021","03","21","14:00","-15.4","","-19.4","","72","","","","36","","26","","32.2","","100.55","","","","-26","","Blowing Snow"
"-96.08","64.30","BAKER LAKE A","2300503","2021-03-21 15:00","2021","03","21","15:00","-16.6","","-20.4","","73","","","","35","","34","","32.2","","100.60","","","","-29","","Blowing Snow"
"-96.08","64.30","BAKER LAKE A","2300503","2021-03-21 16:00","2021","03","21","16:00","-17.9","","-21.5","","74","","","","35","","39","","32.2","","100.64","","","","-31","","Snow,Blowing Snow"
"-96.08","64.30","BAKER LAKE A","2300503","2021-03-21 17:00","2021","03","21","17:00","-18.3","","-21.8","","75","","","","36","","39","","32.2","","100.68","","","","-32","","Snow,Blowing Snow"
"-96.08","64.30","BAKER LAKE A","2300503","2021-03-21 18:00","2021","03","21","18:00","-18.6","","-22.1","","74","","","","36","","39","","32.2","","100.73","","","","-32","","Snow,Blowing Snow"
"-96.08","64.30","BAKER LAKE A","2300503","2021-03-21 19:00","2021","03","21","19:00","-18.6","","-22.2","","74","","","","1","","35","","24.1","","100.77","","","","-32","","Snow,Blowing Snow"
"-96.08","64.30","BAKER LAKE A","2300503","2021-03-21 20:00","2021","03","21","20:00","-19.4","","-23.0","","74","","","","1","","33","","24.1","","100.87","","","","-32","","Snow,Blowing Snow"
"-96.08","64.30","BAKER LAKE A","2300503","2021-03-21 21:00","2021","03","21","21:00","-20.7","","-24.3","","73","","","","1","","36","","24.1","","100.93","","","","-34","","Snow,Blowing Snow"
"-96.08","64.30","BAKER LAKE A","2300503","2021-03-21 22:00","2021","03","21","22:00","-21.4","","-25.0","","73","","","","2","","36","","24.1","","100.98","","","","-35","","Snow,Blowing Snow"
"-96.08","64.30","BAKER LAKE A","2300503","2021-03-21 23:00","2021","03","21","23:00","-22.0","","-25.6","","73","","","","2","","42","","12.9","","101.04","","","","-37","","Snow,Blowing Snow"
"-96.08","64.30","BAKER LAKE A","2300503","2021-03-22 00:00","2021","03","22","00:00","-22.5","","-26.2","","72","","","","2","","40","","24.1","","101.08","","","","-37","","Snow,Blowing Snow"
"-96.08","64.30","BAKER LAKE A","2300503","2021-03-22 01:00","2021","03","22","01:00","-23.1","","-26.9","","71","","","","1","","28","","24.1","","101.13","","","","-36","","Snow,Blowing Snow"
"-96.08","64.30","BAKER LAKE A","2300503","2021-03-22 02:00","2021","03","22","02:00","-23.7","","-27.7","","70","","","","2","","44","","24.1","","101.16","","","","-40","","Snow,Blowing Snow"
"-96.08","64.30","BAKER LAKE A","2300503","2021-03-22 03:00","2021","03","22","03:00","-24.3","","-28.3","","70","","","","1","","39","","24.1","","101.18","","","","-40","","Snow,Blowing Snow"
"-96.08","64.30","BAKER LAKE A","2300503","2021-03-22 04:00","2021","03","22","04:00"
"-96.08","64.30","BAKER LAKE A","2300503","2021-03-22 05:00","2021","03","22","05:00","-24.4","","-28.8","","68","","","","1","","33","","24.1","","101.30","","","","-39","","Snow,Blowing Snow"
"-96.08","64.30","BAKER LAKE A","2300503","2021-03-22 06:00","2021","03","22","06:00","-24.5","","-28.9","","68","","","","1","","40","","24.1","","101.39","","","","-40","","Snow,Blowing Snow"
"-96.08","64.30","BAKER LAKE A","2300503","2021-03-22 07:00","2021","03","22","07:00","-25.2","","-29.4","","68","","","","36","","40","","16.1","","101.42","","","","-41","","Ice Crystals,Blowing Snow"
"-96.08","64.30","BAKER LAKE A","2300503","2021-03-22 08:00","2021","03","22","08:00","-25.0","","-29.1","","70","","","","35","","45","","9.7","","101.48","","","","-42","","Snow,Blowing Snow"
"-96.08","64.30","BAKER LAKE A","2300503","2021-03-22 09:00","2021","03","22","09:00","-25.2","","-29.1","","70","","","","36","","46","","4.0","","101.57","","","","-42","","Snow,Blowing Snow"
"-96.08","64.30","BAKER LAKE A","2300503","2021-03-22 10:00","2021","03","22","10:00","-25.3","","-29.3","","70","","","","36","","50","","1.2","","101.59","","","","-43","","Snow,Blowing Snow"
"-96.08","64.30","BAKER LAKE A","2300503","2021-03-22 11:00","2021","03","22","11:00","-25.8","","-29.8","","70","","","","35","","55","","1.0","","101.61","","","","-44","","Snow,Blowing Snow"
"-96.08","64.30","BAKER LAKE A","2300503","2021-03-22 12:00","2021","03","22","12:00","-26.3","","-30.3","","70","","","","35","","54","","0.8","","101.65","","","","-44","","Snow,Blowing Snow"
"-96.08","64.30","BAKER LAKE A","2300503","2021-03-22 13:00","2021","03","22","13:00","-27.3","","-31.3","","69","","","","35","","57","","0.4","","101.72","","","","-46","","Blowing Snow"
"-96.08","64.30","BAKER LAKE A","2300503","2021-03-22 14:00","2021","03","22","14:00","-27.2","","-31.2","","69","","","","36","","48","","0.6","","101.81","","","","-45","","Blowing Snow"
"-96.08","64.30","BAKER LAKE A","2300503","2021-03-22 15:00","2021","03","22","15:00","-26.6","","-30.7","","69","","","","35","","53","","0.6","","101.90","","","","-45","","Blowing Snow"
"-96.08","64.30","BAKER LAKE A","2300503","2021-03-22 16:00","2021","03","22","16:00","-26.9","","-30.9","","69","","","","34","","55","","0.6","","101.96","","","","-45","","Blowing Snow"
"-96.08","64.30","BAKER LAKE A","2300503","2021-03-22 17:00","2021","03","22","17:00","-27.8","","-31.8","","69","","","","34","","53","","0.6","","102.07","","","","-46","","Blowing Snow"
"-96.08","64.30","BAKER LAKE A","2300503","2021-03-22 18:00","2021","03","22","18:00","-28.3","","-32.2","","69","","","","33","","52","","0.6","","102.18","","","","-47","","Blowing Snow"
"-96.08","64.30","BAKER LAKE A","2300503","2021-03-22 19:00","2021","03","22","19:00","-28.8","","-32.8","","69","","","","34","","50","","3.2","","102.26","","","","-47","","Blowing Snow"
"-96.08","64.30","BAKER LAKE A","2300503","2021-03-22 20:00","2021","03","22","20:00","-29.2","","-33.3","","69","","","","34","","53","","4.0","","102.34","","","","-48","","Blowing Snow"
"-96.08","64.30","BAKER LAKE A","2300503","2021-03-22 21:00","2021","03","22","21:00","-29.9","","-34.0","","68","","","","33","","49","","4.0","","102.39","","","","-49","","Blowing Snow"
"-96.08","64.30","BAKER LAKE A","2300503","2021-03-22 22:00","2021","03","22","22:00","-30.4","","-34.6","","68","","","","34","","48","","8.1","","102.47","","","","-49","","Blowing Snow"
"-96.08","64.30","BAKER LAKE A","2300503","2021-03-22 23:00","2021","03","22","23:00","-30.7","","-34.9","","67","","","","34","","46","","12.9","","102.55","","","","-49","","Blowing Snow"
"-96.08","64.30","BAKER LAKE A","2300503","2021-03-23 00:00","2021","03","23","00:00","-30.9","","-35.3","","67","","","","33","","45","","16.1","","102.58","","","","-50","","Blowing Snow"
"-96.08","64.30","BAKER LAKE A","2300503","2021-03-23 01:00","2021","03","23","01:00","-31.2","","-35.5","","67","","","","33","","57","","8.1","","102.59","","","","-52","","Blowing Snow"
"-96.08","64.30","BAKER LAKE A","2300503","2021-03-23 02:00","2021","03","23","02:00","-32.0","","-36.3","","67","","","","32","","52","","8.1","","102.69","","","","-52","","Blowing Snow"
"-96.08","64.30","BAKER LAKE A","2300503","2021-03-23 03:00","2021","03","23","03:00","-32.1","","-36.3","","67","","","","32","","45","","24.1","","102.77","","","","-51","","Blowing Snow"
"-96.08","64.30","BAKER LAKE A","2300503","2021-03-23 04:00","2021","03","23","04:00","-32.1","","-36.3","","67","","","","31","","54","","8.1","","102.77","","","","-52","","Blowing Snow"
"-96.08","64.30","BAKER LAKE A","2300503","2021-03-23 05:00","2021","03","23","05:00","-32.0","","-36.3","","67","","","","32","","48","","6.4","","102.87","","","","-51","","Blowing Snow"
"-96.08","64.30","BAKER LAKE A","2300503","2021-03-23 06:00","2021","03","23","06:00","-32.8","","-37.2","","66","","","","30","","50","","6.4","","102.95","","","","-53","","Blowing Snow"
"-96.08","64.30","BAKER LAKE A","2300503","2021-03-23 07:00","2021","03","23","07:00","-32.6","","-37.1","","65","","","","30","","44","","4.8","","102.98","","","","-52","","Blowing Snow"
"-96.08","64.30","BAKER LAKE A","2300503","2021-03-23 08:00","2021","03","23","08:00","-32.0","","-36.6","","65","","","","30","","52","","4.0","","103.00","","","","-52","","Blowing Snow"
"-96.08","64.30","BAKER LAKE A","2300503","2021-03-23 09:00","2021","03","23","09:00","-31.1","","-35.8","","64","","","","30","","47","","9.7","","103.02","","","","-50","","Ice Crystals,Blowing Snow"
"-96.08","64.30","BAKER LAKE A","2300503","2021-03-23 10:00","2021","03","23","10:00","-30.1","","-34.8","","65","","","","30","","45","","9.7","","103.01","","","","-48","","Ice Crystals,Blowing Snow"
"-96.08","64.30","BAKER LAKE A","2300503","2021-03-23 11:00","2021","03","23","11:00","-29.3","","-34.0","","64","","","","29","","45","","8.1","","103.05","","","","-47","","Ice Crystals,Blowing Snow"
"-96.08","64.30","BAKER LAKE A","2300503","2021-03-23 12:00","2021","03","23","12:00","-28.2","","-33.0","","64","","","","31","","35","","9.7","","103.11","","","","-44","","Ice Crystals,Blowing Snow"
"-96.08","64.30","BAKER LAKE A","2300503","2021-03-23 13:00","2021","03","23","13:00","-27.6","","-32.4","","65","","","","30","","46","","9.7","","103.09","","","","-45","","Ice Crystals,Blowing Snow"
"-96.08","64.30","BAKER LAKE A","2300503","2021-03-23 14:00","2021","03","23","14:00","-27.2","","-31.9","","65","","","","29","","47","","9.7","","103.09","","","","-45","","Ice Crystals,Blowing Snow"
"-96.08","64.30","BAKER LAKE A","2300503","2021-03-23 15:00","2021","03","23","15:00","-26.8","","-31.6","","65","","","","30","","39","","16.1","","103.12","","","","-43","","Ice Crystals,Blowing Snow"
"-96.08","64.30","BAKER LAKE A","2300503","2021-03-23 16:00","2021","03","23","16:00","-26.6","","-31.3","","66","","","","31","","44","","32.2","","103.12","","","","-44","","Ice Crystals,Blowing Snow"
"-96.08","64.30","BAKER LAKE A","2300503","2021-03-23 17:00","2021","03","23","17:00","-26.9","","-31.5","","66","","","","30","","44","","32.2","","103.08","","","","-44","","Ice Crystals,Blowing Snow"
"-96.08","64.30","BAKER LAKE A","2300503","2021-03-23 18:00","2021","03","23","18:00","-27.7","","-32.3","","66","","","","29","","28","","32.2","","103.12","","","","-42","","Ice Crystals,Blowing Snow"
"-96.08","64.30","BAKER LAKE A","2300503","2021-03-23 19:00","2021","03","23","19:00","-28.4","","-32.8","","67","","","","29","","33","","32.2","","103.11","","","","-44","","Ice Crystals,Blowing Snow"
"-96.08","64.30","BAKER LAKE A","2300503","2021-03-23 20:00","2021","03","23","20:00","-29.5","","-33.9","","67","","","","28","","27","","24.1","","103.13","","","","-44","","Ice Crystals,Blowing Snow"
"-96.08","64.30","BAKER LAKE A","2300503","2021-03-23 21:00","2021","03","23","21:00","-30.3","","-34.6","","67","","","","29","","40","","24.1","","103.11","","","","-48","","Ice Crystals,Blowing Snow"
"-96.08","64.30","BAKER LAKE A","2300503","2021-03-23 22:00","2021","03","23","22:00","-30.3","","-34.6","","67","","","","30","","36","","24.1","","103.08","","","","-47","","Ice Crystals,Blowing Snow"
"-96.08","64.30","BAKER LAKE A","2300503","2021-03-23 23:00","2021","03","23","23:00","-30.3","","-34.6","","67","","","","30","","41","","24.1","","103.04","","","","-48","","Ice Crystals,Blowing Snow"
"-96.08","64.30","BAKER LAKE A","2300503","2021-03-24 00:00","2021","03","24","00:00","-31.0","","-35.3","","67","","","","31","","31","","24.1","","103.07","","","","-47","","Ice Crystals,Blowing Snow"
"-96.08","64.30","BAKER LAKE A","2300503","2021-03-24 01:00","2021","03","24","01:00","-31.8","","-36.1","","66","","","","32","","27","","24.1","","103.08","","","","-47","","Ice Crystals,Blowing Snow"
"-96.08","64.30","BAKER LAKE A","2300503","2021-03-24 02:00","2021","03","24","02:00"
"-96.08","64.30","BAKER LAKE A","2300503","2021-03-24 03:00","2021","03","24","03:00","-31.9","","-36.3","","66","","","","31","","26","","24.1","","103.09","","","","-47","","Ice Crystals,Blowing Snow"
"-96.08","64.30","BAKER LAKE A","2300503","2021-03-24 04:00","2021","03","24","04:00"
"-96.08","64.30","BAKER LAKE A","2300503","2021-03-24 05:00","2021","03","24","05:00"
"-96.08","64.30","BAKER LAKE A","2300503","2021-03-24 06:00","2021","03","24","06:00","-32.5","","-36.9","","66","","","","30","","29","","32.2","","103.07","","","","-49","","Ice Crystals,Blowing Snow"
"-96.08","64.30","BAKER LAKE A","2300503","2021-03-24 07:00","2021","03","24","07:00","-32.3","","-36.8","","66","","","","32","","10","","32.2","","103.09","","","","-42","","Ice Crystals"
"-96.08","64.30","BAKER LAKE A","2300503","2021-03-24 08:00","2021","03","24","08:00","-31.2","","-35.8","","65","","","","2","","6","","32.2","","103.11","","","","-38","","Ice Crystals"
"-96.08","64.30","BAKER LAKE A","2300503","2021-03-24 09:00","2021","03","24","09:00","-31.9","","-36.8","","63","","","","7","","3","","32.2","","103.11","","","","-35","","Ice Crystals"
"-96.08","64.30","BAKER LAKE A","2300503","2021-03-24 10:00","2021","03","24","10:00","-31.1","","-36.0","","63","","","","14","","7","","32.2","","103.10","","","","-39","","Ice Crystals"
"-96.08","64.30","BAKER LAKE A","2300503","2021-03-24 11:00","2021","03","24","11:00","-29.2","","-34.2","","63","","","","30","","18","","32.2","","103.09","","","","-41","","Ice Crystals"
"-96.08","64.30","BAKER LAKE A","2300503","2021-03-24 12:00","2021","03","24","12:00","-28.4","","-33.4","","63","","","","4","","4","","32.2","","103.13","","","","-33","","Ice Crystals"
"-96.08","64.30","BAKER LAKE A","2300503","2021-03-24 13:00","2021","03","24","13:00","-28.2","","-33.3","","63","","","","35","","9","","32.2","","103.11","","","","-36","","Ice Crystals"
"-96.08","64.30","BAKER LAKE A","2300503","2021-03-24 14:00","2021","03","24","14:00","-27.4","","-32.4","","63","","","","36","","5","","32.2","","103.13","","","","-33","","Ice Crystals"
"-96.08","64.30","BAKER LAKE A","2300503","2021-03-24 15:00","2021","03","24","15:00","-26.9","","-31.8","","64","","","","26","","14","","32.2","","103.08","","","","-37","","Ice Crystals"
"-96.08","64.30","BAKER LAKE A","2300503","2021-03-24 16:00","2021","03","24","16:00","-27.4","","-32.4","","64","","","","29","","12","","32.2","","103.09","","","","-37","","Ice Crystals"
"-96.08","64.30","BAKER LAKE A","2300503","2021-03-24 17:00","2021","03","24","17:00","-27.7","","-32.5","","64","","","","31","","8","","32.2","","103.10","","","","-35","","Ice Crystals"
"-96.08","64.30","BAKER LAKE A","2300503","2021-03-24 18:00","2021","03","24","18:00","-29.0","","-33.5","","66","","","","27","","8","","32.2","","103.11","","","","-37","","Ice Crystals"
"-96.08","64.30","BAKER LAKE A","2300503","2021-03-24 19:00","2021","03","24","19:00","-29.5","","-33.7","","68","","","","25","","3","","32.2","","103.09","","","","-33","","Ice Crystals"
"-96.08","64.30","BAKER LAKE A","2300503","2021-03-24 20:00","2021","03","24","20:00","-31.1","","-35.0","","69","","","","36","","2","","24.1","","103.13","","","","-33","","Ice Crystals"
"-96.08","64.30","BAKER LAKE A","2300503","2021-03-24 21:00","2021","03","24","21:00","-31.6","","-35.5","","69","","","","33","","3","","24.1","","103.14","","","","-35","","Ice Crystals"
"-96.08","64.30","BAKER LAKE A","2300503","2021-03-24 22:00","2021","03","24","22:00","-32.0","","-36.0","","68","","","","29","","7","","24.1","","103.12","","","","-40","","Ice Crystals"
"-96.08","64.30","BAKER LAKE A","2300503","2021-03-24 23:00","2021","03","24","23:00","-32.3","","-36.2","","69","","","","18","","4","","24.1","","103.16","","","","-37","","Ice Crystals"
"-96.08","64.30","BAKER LAKE A","2300503","2021-03-25 00:00","2021","03","25","00:00","-35.2","","-39.4","","67","","","","25","","3","","24.1","","103.19","","","","-39","","Ice Crystals"
"-96.08","64.30","BAKER LAKE A","2300503","2021-03-25 01:00","2021","03","25","01:00","-34.9","","-39.0","","67","","","","36","","2","","24.1","","103.18","","","","-37","","Ice Crystals"
"-96.08","64.30","BAKER LAKE A","2300503","2021-03-25 02:00","2021","03","25","02:00","-35.4","","-39.5","","67","","","","36","","1","","24.1","","103.21","","","","-37","","Ice Crystals"
"-96.08","64.30","BAKER LAKE A","2300503","2021-03-25 03:00","2021","03","25","03:00","-35.3","","-39.4","","67","","","","36","","2","","24.1","","103.24","","","","-38","","Ice Crystals"
"-96.08","64.30","BAKER LAKE A","2300503","2021-03-25 04:00","2021","03","25","04:00","-35.1","","-39.2","","67","","","","1","","3","","24.1","","103.21","","","","-39","","Ice Crystals"
"-96.08","64.30","BAKER LAKE A","2300503","2021-03-25 05:00","2021","03","25","05:00","-35.0","","-39.1","","67","","","","36","","3","","24.1","","103.21","","","","-39","","Ice Crystals"
"-96.08","64.30","BAKER LAKE A","2300503","2021-03-25 06:00","2021","03","25","06:00","-36.4","","-40.6","","66","","","","36","","3","","32.2","","103.21","","","","-40","","Ice Crystals"
"-96.08","64.30","BAKER LAKE A","2300503","2021-03-25 07:00","2021","03","25","07:00","-35.5","","-39.7","","66","","","","1","","4","","32.2","","103.20","","","","-41","","Ice Crystals"
"-96.08","64.30","BAKER LAKE A","2300503","2021-03-25 08:00","2021","03","25","08:00","-36.7","","-41.0","","65","","","","10","","6","","32.2","","103.25","","","","-44","","Ice Crystals"
"-96.08","64.30","BAKER LAKE A","2300503","2021-03-25 09:00","2021","03","25","09:00","-35.3","","-39.6","","66","","","","36","","1","","32.2","","103.24","","","","-37","","Ice Crystals"
"-96.08","64.30","BAKER LAKE A","2300503","2021-03-25 10:00","2021","03","25","10:00","-35.0","","-39.2","","66","","","","36","","2","","32.2","","103.27","","","","-38","","Ice Crystals"
"-96.08","64.30","BAKER LAKE A","2300503","2021-03-25 11:00","2021","03","25","11:00","-33.3","","-37.6","","67","","","","5","","3","","32.2","","103.27","","","","-37","","Ice Crystals"
"-96.08","64.30","BAKER LAKE A","2300503","2021-03-25 12:00","2021","03","25","12:00","-32.0","","-36.2","","68","","","","11","","7","","32.2","","103.23","","","","-40","","Ice Crystals"
"-96.08","64.30","BAKER LAKE A","2300503","2021-03-25 13:00","2021","03","25","13:00","-30.8","","-34.9","","68","","","","11","","6","","32.2","","103.19","","","","-37","","Ice Crystals"
"-96.08","64.30","BAKER LAKE A","2300503","2021-03-25 14:00","2021","03","25","14:00","-29.9","","-33.9","","69","","","","10","","10","","32.2","","103.15","","","","-39","","Ice Crystals"
"-96.08","64.30","BAKER LAKE A","2300503","2021-03-25 15:00","2021","03","25","15:00","-29.0","","-32.9","","70","","","","8","","8","","32.2","","103.13","","","","-37","","Ice Crystals"
"-96.08","64.30","BAKER LAKE A","2300503","2021-03-25 16:00","2021","03","25","16:00","-28.2","","-32.0","","70","","","","10","","8","","32.2","","103.05","","","","-36","","Ice Crystals"
"-96.08","64.30","BAKER LAKE A","2300503","2021-03-25 17:00","2021","03","25","17:00","-28.2","","-32.0","","71","","","","11","","10","","32.2","","102.96","","","","-37","","Ice Crystals"
"-96.08","64.30","BAKER LAKE A","2300503","2021-03-25 18:00","2021","03","25","18:00","-28.8","","-32.7","","70","","","","11","","12","","32.2","","102.90","","","","-39","","Ice Crystals"
"-96.08","64.30","BAKER LAKE A","2300503","2021-03-25 19:00","2021","03","25","19:00","-29.5","","-33.3","","70","","","","9","","7","","32.2","","102.83","","","","-37","","Ice Crystals"
"-96.08","64.30","BAKER LAKE A","2300503","2021-03-25 20:00","2021","03","25","20:00","-29.5","","-33.3","","70","","","","8","","6","","24.1","","102.77","","","","-36","","Ice Crystals"
"-96.08","64.30","BAKER LAKE A","2300503","2021-03-25 21:00","2021","03","25","21:00","-29.6","","-33.4","","70","","","","11","","12","","24.1","","102.74","","","","-40","","Ice Crystals"
"-96.08","64.30","BAKER LAKE A","2300503","2021-03-25 22:00","2021","03","25","22:00","-28.5","","-32.3","","71","","","","11","","13","","24.1","","102.66","","","","-39","","Ice Crystals"
"-96.08","64.30","BAKER LAKE A","2300503","2021-03-25 23:00","2021","03","25","23:00","-28.2","","-31.9","","71","","","","9","","11","","24.1","","102.59","","","","-38","","Ice Crystals"
"-96.08","64.30","BAKER LAKE A","2300503","2021-03-26 00:00","2021","03","26","00:00","-27.4","","-31.1","","72","","","","10","","14","","24.1","","102.51","","","","-38","","Ice Crystals"
"-96.08","64.30","BAKER LAKE A","2300503","2021-03-26 01:00","2021","03","26","01:00","-26.4","","-30.0","","72","","","","10","","17","","24.1","","102.40","","","","-38","","Ice Crystals"
"-96.08","64.30","BAKER LAKE A","2300503","2021-03-26 02:00","2021","03","26","02:00","-25.6","","-29.1","","73","","","","9","","15","","24.1","","102.29","","","","-36","","Ice Crystals"
"-96.08","64.30","BAKER LAKE A","2300503","2021-03-26 03:00","2021","03","26","03:00","-23.7","","-27.0","","74","","","","11","","34","","24.1","","102.11","","","","-38","","Ice Crystals,Blowing Snow"
"-96.08","64.30","BAKER LAKE A","2300503","2021-03-26 04:00","2021","03","26","04:00","-23.2","","-26.5","","75","","","","10","","35","","24.1","","101.96","","","","-38","","Ice Crystals,Blowing Snow"
"-96.08","64.30","BAKER LAKE A","2300503","2021-03-26 05:00","2021","03","26","05:00","-21.4","","-24.5","","76","","","","13","","30","","4.0","","101.85","","","","-34","","Snow,Blowing Snow"
"-96.08","64.30","BAKER LAKE A","2300503","2021-03-26 06:00","2021","03","26","06:00","-20.5","","-23.5","","77","","","","13","","36","","1.2","","101.73","","","","-34","","Snow,Blowing Snow"
"-96.08","64.30","BAKER LAKE A","2300503","2021-03-26 07:00","2021","03","26","07:00","-20.2","","-23.1","","78","","","","14","","37","","1.2","","101.61","","","","-34","","Snow,Blowing Snow"
"-96.08","64.30","BAKER LAKE A","2300503","2021-03-26 08:00","2021","03","26","08:00","-19.5","","-22.4","","78","","","","14","","31","","6.4","","101.55","","","","-32","","Snow,Blowing Snow"
"-96.08","64.30","BAKER LAKE A","2300503","2021-03-26 09:00","2021","03","26","09:00","-19.0","","-22.0","","78","","","","14","","30","","6.4","","101.47","","","","-31","","Snow,Blowing Snow"
"-96.08","64.30","BAKER LAKE A","2300503","2021-03-26 10:00","2021","03","26","10:00","-18.5","","-22.2","","73","","","","15","","27","","12.9","","101.38","","","","-30","","Snow,Blowing Snow"
"-96.08","64.30","BAKER LAKE A","2300503","2021-03-26 11:00","2021","03","26","11:00","-18.0","","-21.8","","73","","","","15","","27","","24.1","","101.32","","","","-29","","Ice Crystals,Blowing Snow"
"-96.08","64.30","BAKER LAKE A","2300503","2021-03-26 12:00","2021","03","26","12:00","-17.1","","-20.8","","73","","","","16","","25","","24.1","","101.26","","","","-28","","Ice Crystals"
"-96.08","64.30","BAKER LAKE A","2300503","2021-03-26 13:00","2021","03","26","13:00","-16.1","","-20.0","","73","","","","17","","23","","24.1","","101.19","","","","-26","","Ice Crystals,Blowing Snow"
"-96.08","64.30","BAKER LAKE A","2300503","2021-03-26 14:00","2021","03","26","14:00","-16.1","","-19.7","","74","","","","16","","28","","32.2","","101.14","","","","-27","","Ice Crystals,Blowing Snow"
"-96.08","64.30","BAKER LAKE A","2300503","2021-03-26 15:00","2021","03","26","15:00","-16.1","","-19.6","","74","","","","15","","16","","32.2","","101.12","","","","-25","","Ice Crystals"
"-96.08","64.30","BAKER LAKE A","2300503","2021-03-26 16:00","2021","03","26","16:00","-16.1","","-19.7","","74","","","","15","","14","","32.2","","101.07","","","","-24","","Ice Crystals"
"-96.08","64.30","BAKER LAKE A","2300503","2021-03-26 17:00","2021","03","26","17:00","-17.2","","-20.4","","76","","","","15","","17","","32.2","","101.03","","","","-26","","Ice Crystals"
"-96.08","64.30","BAKER LAKE A","2300503","2021-03-26 18:00","2021","03","26","18:00","-18.3","","-21.2","","78","","","","36","","2","","32.2","","101.02","","","","-20","","Ice Crystals"
"-96.08","64.30","BAKER LAKE A","2300503","2021-03-26 19:00","2021","03","26","19:00","-19.9","","-22.7","","79","","","","14","","5","","32.2","","100.97","","","","-24","","Ice Crystals"
"-96.08","64.30","BAKER LAKE A","2300503","2021-03-26 20:00","2021","03","26","20:00","-21.7","","-24.4","","79","","","","35","","7","","24.1","","100.97","","","","-28","","Ice Crystals"
"-96.08","64.30","BAKER LAKE A","2300503","2021-03-26 21:00","2021","03","26","21:00","-23.8","","-26.8","","77","","","","1","","5","","24.1","","100.93","","","","-29","","Ice Crystals"
"-96.08","64.30","BAKER LAKE A","2300503","2021-03-26 22:00","2021","03","26","22:00","-22.9","","-25.7","","79","","","","35","","4","","24.1","","100.89","","","","-27","","Ice Crystals"
"-96.08","64.30","BAKER LAKE A","2300503","2021-03-26 23:00","2021","03","26","23:00","-23.3","","-26.1","","78","","","","32","","8","","24.1","","100.84","","","","-30","","Ice Crystals"
"-96.08","64.30","BAKER LAKE A","2300503","2021-03-27 00:00","2021","03","27","00:00","-23.7","","-26.8","","76","","","","6","","7","","24.1","","100.80","","","","-30","","Ice Crystals"
"-96.08","64.30","BAKER LAKE A","2300503","2021-03-27 01:00","2021","03","27","01:00","-23.4","","-26.4","","77","","","","34","","6","","24.1","","100.77","","","","-29","","Ice Crystals"
"-96.08","64.30","BAKER LAKE A","2300503","2021-03-27 02:00","2021","03","27","02:00","-23.4","","-26.5","","76","","","","32","","20","","24.1","","100.74","","","","-35","","Ice Crystals"
"-96.08","64.30","BAKER LAKE A","2300503","2021-03-27 03:00","2021","03","27","03:00","-23.4","","-26.5","","76","","","","32","","27","","24.1","","100.70","","","","-36","","Ice Crystals"
"-96.08","64.30","BAKER LAKE A","2300503","2021-03-27 04:00","2021","03","27","04:00","-24.3","","-27.5","","75","","","","32","","27","","24.1","","100.71","","","","-38","","Ice Crystals"
"-96.08","64.30","BAKER LAKE A","2300503","2021-03-27 05:00","2021","03","27","05:00","-24.8","","-28.2","","74","","","","31","","30","","24.1","","100.67","","","","-39","","Ice Crystals"
"-96.08","64.30","BAKER LAKE A","2300503","2021-03-27 06:00","2021","03","27","06:00","-25.2","","-28.5","","74","","","","31","","28","","32.2","","100.66","","","","-39","","Ice Crystals"
"-96.08","64.30","BAKER LAKE A","2300503","2021-03-27 07:00","2021","03","27","07:00","-25.3","","-28.7","","74","","","","31","","33","","24.1","","100.62","","","","-40","","Ice Crystals,Blowing Snow"
"-96.08","64.30","BAKER LAKE A","2300503","2021-03-27 08:00","2021","03","27","08:00","-24.2","","-27.5","","74","","","","31","","34","","32.2","","100.60","","","","-39","","Ice Crystals,Blowing Snow"
"-96.08","64.30","BAKER LAKE A","2300503","2021-03-27 09:00","2021","03","27","09:00","-25.3","","-28.7","","73","","","","30","","35","","32.2","","100.60","","","","-40","","Ice Crystals,Blowing Snow"
"-96.08","64.30","BAKER LAKE A","2300503","2021-03-27 10:00","2021","03","27","10:00","-25.0","","-28.5","","73","","","","30","","39","","32.2","","100.60","","","","-41","","Ice Crystals,Blowing Snow"
"-96.08","64.30","BAKER LAKE A","2300503","2021-03-27 11:00","2021","03","27","11:00","-24.6","","-28.1","","73","","","","31","","33","","32.2","","100.63","","","","-39","","Ice Crystals,Blowing Snow"
"-96.08","64.30","BAKER LAKE A","2300503","2021-03-27 12:00","2021","03","27","12:00","-23.8","","-27.3","","74","","","","31","","27","","24.1","","100.69","","","","-37","","Mostly Cloudy"
"-96.08","64.30","BAKER LAKE A","2300503","2021-03-27 13:00","2021","03","27","13:00","-23.9","","-27.5","","73","","","","32","","31","","24.1","","100.69","","","","-38","","Ice Crystals,Blowing Snow"
"-96.08","64.30","BAKER LAKE A","2300503","2021-03-27 14:00","2021","03","27","14:00","-23.3","","-26.9","","72","","","","33","","32","","24.1","","100.72","","","","-37","","Ice Crystals,Blowing Snow"
"-96.08","64.30","BAKER LAKE A","2300503","2021-03-27 15:00","2021","03","27","15:00","-23.0","","-26.7","","73","","","","32","","34","","6.4","","100.76","","","","-37","","Ice Crystals,Blowing Snow"
"-96.08","64.30","BAKER LAKE A","2300503","2021-03-27 16:00","2021","03","27","16:00","-22.3","","-26.3","","70","","","","32","","35","","16.1","","100.80","","","","-36","","Ice Crystals,Blowing Snow"
"-96.08","64.30","BAKER LAKE A","2300503","2021-03-27 17:00","2021","03","27","17:00","-22.8","","-26.8","","70","","","","32","","40","","16.1","","100.80","","","","-38","","Ice Crystals,Blowing Snow"
"-96.08","64.30","BAKER LAKE A","2300503","2021-03-27 18:00","2021","03","27","18:00","-23.4","","-27.4","","70","","","","32","","38","","24.1","","100.85","","","","-38","","Ice Crystals,Blowing Snow"
"-96.08","64.30","BAKER LAKE A","2300503","2021-03-27 19:00","2021","03","27","19:00","-23.7","","-27.6","","71","","","","32","","37","","24.1","","100.91","","","","-39","","Ice Crystals,Blowing Snow"
"-96.08","64.30","BAKER LAKE A","2300503","2021-03-27 20:00","2021","03","27","20:00","-24.2","","-28.0","","71","","","","32","","43","","24.1","","100.94","","","","-40","","Ice Crystals,Blowing Snow"
"-96.08","64.30","BAKER LAKE A","2300503","2021-03-27 21:00","2021","03","27","21:00","-24.7","","-28.7","","70","","","","32","","42","","24.1","","100.99","","","","-41","","Ice Crystals,Blowing Snow"
"-96.08","64.30","BAKER LAKE A","2300503","2021-03-27 22:00","2021","03","27","22:00","-25.3","","-29.4","","70","","","","31","","31","","24.1","","101.01","","","","-40","","Ice Crystals,Blowing Snow"
"-96.08","64.30","BAKER LAKE A","2300503","2021-03-27 23:00","2021","03","27","23:00","-26.1","","-30.1","","70","","","","32","","36","","24.1","","101.02","","","","-42","","Ice Crystals,Blowing Snow"
"-96.08","64.30","BAKER LAKE A","2300503","2021-03-28 00:00","2021","03","28","00:00","-26.6","","-30.8","","69","","","","32","","39","","24.1","","101.08","","","","-43","","Ice Crystals,Blowing Snow"
"-96.08","64.30","BAKER LAKE A","2300503","2021-03-28 01:00","2021","03","28","01:00","-27.6","","-31.8","","68","","","","32","","38","","24.1","","101.14","","","","-44","","Ice Crystals,Blowing Snow"
"-96.08","64.30","BAKER LAKE A","2300503","2021-03-28 02:00","2021","03","28","02:00","-27.7","","-31.8","","69","","","","32","","37","","24.1","","101.12","","","","-44","","Ice Crystals,Blowing Snow"
"-96.08","64.30","BAKER LAKE A","2300503","2021-03-28 03:00","2021","03","28","03:00","-28.4","","-32.4","","69","","","","31","","29","","24.1","","101.21","","","","-43","","Ice Crystals,Blowing Snow"
"-96.08","64.30","BAKER LAKE A","2300503","2021-03-28 04:00","2021","03","28","04:00","-29.1","","-33.2","","68","","","","31","","37","","24.1","","101.22","","","","-46","","Ice Crystals,Blowing Snow"
"-96.08","64.30","BAKER LAKE A","2300503","2021-03-28 05:00","2021","03","28","05:00","-29.3","","-33.4","","69","","","","32","","46","","16.1","","101.23","","","","-48","","Ice Crystals,Blowing Snow"
"-96.08","64.30","BAKER LAKE A","2300503","2021-03-28 06:00","2021","03","28","06:00","-29.9","","-34.0","","69","","","","32","","43","","9.7","","101.26","","","","-48","","Ice Crystals,Blowing Snow"
"-96.08","64.30","BAKER LAKE A","2300503","2021-03-28 07:00","2021","03","28","07:00","-29.5","","-33.8","","67","","","","32","","40","","9.7","","101.31","","","","-47","","Ice Crystals,Blowing Snow"
"-96.08","64.30","BAKER LAKE A","2300503","2021-03-28 08:00","2021","03","28","08:00","-30.4","","-34.9","","65","","","","30","","39","","12.9","","101.36","","","","-48","","Ice Crystals,Blowing Snow"
"-96.08","64.30","BAKER LAKE A","2300503","2021-03-28 09:00","2021","03","28","09:00","-30.1","","-34.7","","65","","","","31","","31","","9.7","","101.42","","","","-46","","Ice Crystals,Blowing Snow"
"-96.08","64.30","BAKER LAKE A","2300503","2021-03-28 10:00","2021","03","28","10:00","-28.9","","-33.7","","64","","","","32","","20","","16.1","","101.47","","","","-42","","Ice Crystals,Blowing Snow"
"-96.08","64.30","BAKER LAKE A","2300503","2021-03-28 11:00","2021","03","28","11:00","-27.6","","-32.4","","64","","","","32","","37","","16.1","","101.44","","","","-44","","Ice Crystals,Blowing Snow"
"-96.08","64.30","BAKER LAKE A","2300503","2021-03-28 12:00","2021","03","28","12:00","-27.0","","-31.9","","64","","","","31","","26","","32.2","","101.50","","","","-41","","Ice Crystals,Blowing Snow"
"-96.08","64.30","BAKER LAKE A","2300503","2021-03-28 13:00","2021","03","28","13:00","-26.2","","-31.2","","64","","","","31","","36","","32.2","","101.52","","","","-42","","Ice Crystals,Blowing Snow"
"-96.08","64.30","BAKER LAKE A","2300503","2021-03-28 14:00","2021","03","28","14:00","-25.7","","-30.8","","63","","","","32","","22","","32.2","","101.58","","","","-38","","Ice Crystals,Blowing Snow"
"-96.08","64.30","BAKER LAKE A","2300503","2021-03-28 15:00","2021","03","28","15:00","-25.3","","-30.5","","63","","","","32","","13","","32.2","","101.64","","","","-35","","Ice Crystals,Blowing Snow"
"-96.08","64.30","BAKER LAKE A","2300503","2021-03-28 16:00","2021","03","28","16:00","-25.5","","-30.6","","63","","","","32","","19","","32.2","","101.68","","","","-37","","Ice Crystals"
"-96.08","64.30","BAKER LAKE A","2300503","2021-03-28 17:00","2021","03","28","17:00","-25.8","","-30.8","","64","","","","32","","14","","32.2","","101.67","","","","-36","","Ice Crystals"
"-96.08","64.30","BAKER LAKE A","2300503","2021-03-28 18:00","2021","03","28","18:00","-26.3","","-31.3","","64","","","","17","","4","","32.2","","101.75","","","","-30","","Ice Crystals"
"-96.08","64.30","BAKER LAKE A","2300503","2021-03-28 19:00","2021","03","28","19:00","-27.9","","-32.5","","66","","","","30","","18","","32.2","","101.77","","","","-40","","Ice Crystals"
"-96.08","64.30","BAKER LAKE A","2300503","2021-03-28 20:00","2021","03","28","20:00","-28.8","","-33.2","","67","","","","30","","16","","32.2","","101.77","","","","-40","","Ice Crystals"
"-96.08","64.30","BAKER LAKE A","2300503","2021-03-28 21:00","2021","03","28","21:00","-30.1","","-34.5","","66","","","","30","","27","","24.1","","101.77","","","","-45","","Ice Crystals"
"-96.08","64.30","BAKER LAKE A","2300503","2021-03-28 22:00","2021","03","28","22:00","-29.3","","-33.8","","66","","","","32","","23","","24.1","","101.79","","","","-43","","Ice Crystals"
"-96.08","64.30","BAKER LAKE A","2300503","2021-03-28 23:00","2021","03","28","23:00","-30.3","","-34.7","","66","","","","31","","25","","24.1","","101.79","","","","-45","","Ice Crystals"
"-96.08","64.30","BAKER LAKE A","2300503","2021-03-29 00:00","2021","03","29","00:00","-30.4","","-34.8","","66","","","","31","","25","","24.1","","101.77","","","","-45","","Ice Crystals"
"-96.08","64.30","BAKER LAKE A","2300503","2021-03-29 01:00","2021","03","29","01:00","-31.1","","-35.5","","66","","","","30","","16","","24.1","","101.80","","","","-43","","Ice Crystals"
"-96.08","64.30","BAKER LAKE A","2300503","2021-03-29 02:00","2021","03","29","02:00","-30.4","","-34.6","","68","","","","30","","23","","24.1","","101.79","","","","-44","","Ice Crystals"
"-96.08","64.30","BAKER LAKE A","2300503","2021-03-29 03:00","2021","03","29","03:00","-31.6","","-35.7","","68","","","","36","","2","","24.1","","101.83","","","","-34","","Ice Crystals"
"-96.08","64.30","BAKER LAKE A","2300503","2021-03-29 04:00","2021","03","29","04:00","-30.9","","-35.1","","68","","","","5","","7","","24.1","","101.83","","","","-38","","Ice Crystals"
"-96.08","64.30","BAKER LAKE A","2300503","2021-03-29 05:00","2021","03","29","05:00","-31.1","","-35.4","","66","","","","32","","22","","32.2","","101.84","","","","-45","","Ice Crystals"
"-96.08","64.30","BAKER LAKE A","2300503","2021-03-29 06:00","2021","03","29","06:00","-30.9","","-35.3","","67","","","","30","","22","","32.2","","101.89","","","","-45","","Ice Crystals"
"-96.08","64.30","BAKER LAKE A","2300503","2021-03-29 07:00","2021","03","29","07:00","-31.5","","-36.1","","65","","","","30","","22","","32.2","","101.90","","","","-46","","Ice Crystals"
"-96.08","64.30","BAKER LAKE A","2300503","2021-03-29 08:00","2021","03","29","08:00","-30.9","","-35.6","","64","","","","30","","21","","32.2","","101.88","","","","-45","","Ice Crystals"
"-96.08","64.30","BAKER LAKE A","2300503","2021-03-29 09:00","2021","03","29","09:00","-30.6","","-35.4","","63","","","","30","","25","","32.2","","101.93","","","","-45","","Ice Crystals"
"-96.08","64.30","BAKER LAKE A","2300503","2021-03-29 10:00","2021","03","29","10:00","-29.8","","-34.8","","63","","","","30","","23","","32.2","","101.95","","","","-44","","Ice Crystals"
"-96.08","64.30","BAKER LAKE A","2300503","2021-03-29 11:00","2021","03","29","11:00","-28.8","","-33.7","","64","","","","29","","23","","32.2","","101.97","","","","-42","","Ice Crystals"
"-96.08","64.30","BAKER LAKE A","2300503","2021-03-29 12:00","2021","03","29","12:00","-27.6","","-32.4","","65","","","","29","","29","","32.2","","101.98","","","","-42","","Ice Crystals"
"-96.08","64.30","BAKER LAKE A","2300503","2021-03-29 13:00","2021","03","29","13:00","-26.8","","-31.7","","64","","","","29","","21","","32.2","","102.01","","","","-39","","Ice Crystals"
"-96.08","64.30","BAKER LAKE A","2300503","2021-03-29 14:00","2021","03","29","14:00","-26.2","","-31.1","","64","","","","31","","19","","32.2","","101.99","","","","-38","","Ice Crystals"
"-96.08","64.30","BAKER LAKE A","2300503","2021-03-29 15:00","2021","03","29","15:00","-26.0","","-31.0","","64","","","","30","","30","","32.2","","101.98","","","","-40","","Ice Crystals"
"-96.08","64.30","BAKER LAKE A","2300503","2021-03-29 16:00","2021","03","29","16:00","-26.7","","-31.5","","64","","","","31","","31","","32.2","","101.98","","","","-42","","Ice Crystals,Blowing Snow"
"-96.08","64.30","BAKER LAKE A","2300503","2021-03-29 17:00","2021","03","29","17:00","-27.1","","-32.0","","64","","","","31","","29","","32.2","","102.00","","","","-42","","Ice Crystals,Blowing Snow"
"-96.08","64.30","BAKER LAKE A","2300503","2021-03-29 18:00","2021","03","29","18:00","-27.8","","-32.7","","64","","","","30","","14","","32.2","","102.02","","","","-38","","Ice Crystals,Blowing Snow"
"-96.08","64.30","BAKER LAKE A","2300503","2021-03-29 19:00","2021","03","29","19:00","-28.9","","-33.5","","66","","","","29","","19","","32.2","","102.06","","","","-41","","Ice Crystals,Blowing Snow"
"-96.08","64.30","BAKER LAKE A","2300503","2021-03-29 20:00","2021","03","29","20:00","-29.5","","-34.0","","66","","","","30","","18","","24.1","","102.08","","","","-42","","Ice Crystals,Blowing Snow"
"-96.08","64.30","BAKER LAKE A","2300503","2021-03-29 21:00","2021","03","29","21:00","-31.3","","-35.7","","66","","","","15","","10","","24.1","","102.14","","","","-41","","Ice Crystals,Blowing Snow"
"-96.08","64.30","BAKER LAKE A","2300503","2021-03-29 22:00","2021","03","29","22:00","-31.1","","-35.4","","67","","","","21","","5","","24.1","","102.12","","","","-37","","Ice Crystals"
"-96.08","64.30","BAKER LAKE A","2300503","2021-03-29 23:00","2021","03","29","23:00","-31.9","","-36.3","","66","","","","10","","3","","24.1","","102.12","","","","-35","","Ice Crystals"
"-96.08","64.30","BAKER LAKE A","2300503","2021-03-30 00:00","2021","03","30","00:00","-30.9","","-35.3","","66","","","","30","","18","","24.1","","102.12","","","","-44","","Ice Crystals"
"-96.08","64.30","BAKER LAKE A","2300503","2021-03-30 01:00","2021","03","30","01:00","-30.7","","-35.2","","66","","","","30","","12","","24.1","","102.07","","","","-41","","Ice Crystals"
"-96.08","64.30","BAKER LAKE A","2300503","2021-03-30 02:00","2021","03","30","02:00"
"-96.08","64.30","BAKER LAKE A","2300503","2021-03-30 03:00","2021","03","30","03:00"
"-96.08","64.30","BAKER LAKE A","2300503","2021-03-30 04:00","2021","03","30","04:00","-32.7","","-37.0","","67","","","","30","","21","","24.1","","101.97","","","","-47","","Ice Crystals"
"-96.08","64.30","BAKER LAKE A","2300503","2021-03-30 05:00","2021","03","30","05:00","-34.4","","-38.4","","67","","","","11","","4","","24.1","","102.00","","","","-39","","Ice Crystals"
"-96.08","64.30","BAKER LAKE A","2300503","2021-03-30 06:00","2021","03","30","06:00","-36.8","","-40.9","","66","","","","34","","5","","32.2","","102.00","","","","-43","","Ice Crystals"
"-96.08","64.30","BAKER LAKE A","2300503","2021-03-30 07:00","2021","03","30","07:00","-35.7","","-39.9","","67","","","","36","","2","","32.2","","102.00","","","","-38","","Ice Crystals"
"-96.08","64.30","BAKER LAKE A","2300503","2021-03-30 08:00","2021","03","30","08:00","-34.0","","-38.2","","67","","","","29","","4","","32.2","","101.97","","","","-39","","Ice Crystals"
"-96.08","64.30","BAKER LAKE A","2300503","2021-03-30 09:00","2021","03","30","09:00","-33.5","","-37.8","","66","","","","6","","4","","32.2","","101.92","","","","-38","","Ice Crystals"
"-96.08","64.30","BAKER LAKE A","2300503","2021-03-30 10:00","2021","03","30","10:00","-30.9","","-35.5","","64","","","","28","","22","","32.2","","101.85","","","","-45","","Ice Crystals"
"-96.08","64.30","BAKER LAKE A","2300503","2021-03-30 11:00","2021","03","30","11:00","-30.4","","-35.2","","64","","","","29","","23","","32.2","","101.80","","","","-44","","Ice Crystals"
"-96.08","64.30","BAKER LAKE A","2300503","2021-03-30 12:00","2021","03","30","12:00","-29.1","","-34.0","","63","","","","31","","5","","32.2","","101.83","","","","-35","","Ice Crystals"
"-96.08","64.30","BAKER LAKE A","2300503","2021-03-30 13:00","2021","03","30","13:00","-29.1","","-34.1","","63","","","","24","","9","","32.2","","101.77","","","","-38","","Ice Crystals"
"-96.08","64.30","BAKER LAKE A","2300503","2021-03-30 14:00","2021","03","30","14:00","-28.5","","-33.6","","62","","","","27","","10","","32.2","","101.72","","","","-37","","Ice Crystals"
"-96.08","64.30","BAKER LAKE A","2300503","2021-03-30 15:00","2021","03","30","15:00","-27.7","","-32.9","","62","","","","27","","5","","32.2","","101.70","","","","-33","","Ice Crystals"
"-96.08","64.30","BAKER LAKE A","2300503","2021-03-30 16:00","2021","03","30","16:00","-27.6","","-32.9","","62","","","","26","","5","","32.2","","101.72","","","","-33","","NA"
"-96.08","64.30","BAKER LAKE A","2300503","2021-03-30 17:00","2021","03","30","17:00","-28.1","","-33.2","","62","","","","25","","11","","32.2","","101.72","","","","-37","","NA"
"-96.08","64.30","BAKER LAKE A","2300503","2021-03-30 18:00","2021","03","30","18:00","-28.6","","-33.5","","63","","","","25","","8","","32.2","","101.74","","","","-36","","Clear"
"-96.08","64.30","BAKER LAKE A","2300503","2021-03-30 19:00","2021","03","30","19:00","-30.5","","-35.1","","65","","","","20","","4","","32.2","","101.73","","","","-35","","NA"
"-96.08","64.30","BAKER LAKE A","2300503","2021-03-30 20:00","2021","03","30","20:00","-30.5","","-35.0","","66","","","","26","","17","","24.1","","101.70","","","","-43","","NA"
"-96.08","64.30","BAKER LAKE A","2300503","2021-03-30 21:00","2021","03","30","21:00","-31.4","","-35.8","","66","","","","23","","12","","24.1","","101.66","","","","-42","","Clear"
"-96.08","64.30","BAKER LAKE A","2300503","2021-03-30 22:00","2021","03","30","22:00","-31.5","","-35.9","","67","","","","22","","7","","24.1","","101.66","","","","-39","","NA"
"-96.08","64.30","BAKER LAKE A","2300503","2021-03-30 23:00","2021","03","30","23:00","-32.9","","-37.2","","66","","","","36","","2","","24.1","","101.65","","","","-35","","NA"
"-96.08","64.30","BAKER LAKE A","2300503","2021-03-31 00:00","2021","03","31","00:00","-34.1","","-38.3","","67","","","","16","","4","","24.1","","101.64","","","","-39","","Clear"
"-96.08","64.30","BAKER LAKE A","2300503","2021-03-31 01:00","2021","03","31","01:00","-34.6","","-38.5","","68","","","","36","","2","","24.1","","101.67","","","","-37","","NA"
"-96.08","64.30","BAKER LAKE A","2300503","2021-03-31 02:00","2021","03","31","02:00","-34.8","","-38.8","","68","","","","36","","1","","24.1","","101.70","","","","-36","","NA"
"-96.08","64.30","BAKER LAKE A","2300503","2021-03-31 03:00","2021","03","31","03:00","-35.5","","-39.6","","67","","","","36","","5","","24.1","","101.71","","","","-42","","Clear"
"-96.08","64.30","BAKER LAKE A","2300503","2021-03-31 04:00","2021","03","31","04:00","-34.7","","-38.8","","68","","","","36","","1","","24.1","","101.71","","","","-36","","NA"
"-96.08","64.30","BAKER LAKE A","2300503","2021-03-31 05:00","2021","03","31","05:00","-36.6","","-40.8","","66","","","","36","","1","","24.1","","101.76","","","","-38","","NA"
"-96.08","64.30","BAKER LAKE A","2300503","2021-03-31 06:00","2021","03","31","06:00","-34.2","","-38.2","","68","","","","36","","7","","32.2","","101.79","","","","-42","","Mainly Clear"
"-96.08","64.30","BAKER LAKE A","2300503","2021-03-31 07:00","2021","03","31","07:00","-33.4","","-37.5","","67","","","","1","","5","","32.2","","101.82","","","","-39","","NA"
"-96.08","64.30","BAKER LAKE A","2300503","2021-03-31 08:00","2021","03","31","08:00","-32.4","","-36.7","","67","","","","35","","5","","24.1","","101.82","","","","-38","","Ice Crystals"
"-96.08","64.30","BAKER LAKE A","2300503","2021-03-31 09:00","2021","03","31","09:00","-33.4","","-37.7","","66","","","","14","","3","","32.2","","101.85","","","","-37","","Ice Crystals"
"-96.08","64.30","BAKER LAKE A","2300503","2021-03-31 10:00","2021","03","31","10:00","-32.7","","-37.3","","65","","","","36","","2","","32.2","","101.89","","","","-35","","Ice Crystals"
"-96.08","64.30","BAKER LAKE A","2300503","2021-03-31 11:00","2021","03","31","11:00","-30.7","","-35.6","","63","","","","3","","5","","32.2","","101.91","","","","-36","","Ice Crystals"
"-96.08","64.30","BAKER LAKE A","2300503","2021-03-31 12:00","2021","03","31","12:00","-29.9","","-35.0","","62","","","","36","","9","","32.2","","101.91","","","","-38","","Ice Crystals"
"-96.08","64.30","BAKER LAKE A","2300503","2021-03-31 13:00","2021","03","31","13:00","-29.7","","-34.7","","63","","","","12","","4","","32.2","","101.96","","","","-34","","Ice Crystals"
"-96.08","64.30","BAKER LAKE A","2300503","2021-03-31 14:00","2021","03","31","14:00","-29.3","","-34.4","","63","","","","10","","5","","32.2","","101.97","","","","-35","","Ice Crystals"
"-96.08","64.30","BAKER LAKE A","2300503","2021-03-31 15:00","2021","03","31","15:00","-29.4","","-34.2","","64","","","","36","","1","","32.2","","101.97","","","","-31","","Ice Crystals"
"-96.08","64.30","BAKER LAKE A","2300503","2021-03-31 16:00","2021","03","31","16:00","-29.1","","-33.8","","65","","","","36","","3","","32.2","","101.99","","","","-32","","Ice Crystals"
"-96.08","64.30","BAKER LAKE A","2300503","2021-03-31 17:00","2021","03","31","17:00","-29.2","","-33.9","","65","","","","7","","3","","32.2","","101.99","","","","-33","","Ice Crystals"
"-96.08","64.30","BAKER LAKE A","2300503","2021-03-31 18:00","2021","03","31","18:00","-29.9","","-34.1","","67","","","","15","","4","","32.2","","102.04","","","","-34","","Ice Crystals"
"-96.08","64.30","BAKER LAKE A","2300503","2021-03-31 19:00","2021","03","31","19:00","-31.0","","-35.0","","69","","","","36","","2","","32.2","","102.05","","","","-33","","Ice Crystals"
"-96.08","64.30","BAKER LAKE A","2300503","2021-03-31 20:00","2021","03","31","20:00","-31.5","","-35.2","","70","","","","36","","5","","24.1","","102.06","","","","-37","","Ice Crystals"
"-96.08","64.30","BAKER LAKE A","2300503","2021-03-31 21:00","2021","03","31","21:00","-33.0","","-36.8","","69","","","","36","","7","","24.1","","102.06","","","","-41","","Ice Crystals"
"-96.08","64.30","BAKER LAKE A","2300503","2021-03-31 22:00","2021","03","31","22:00","-33.2","","-37.1","","69","","","","35","","10","","24.1","","102.05","","","","-43","","Ice Crystals"
"-96.08","64.30","BAKER LAKE A","2300503","2021-03-31 23:00","2021","03","31","23:00","-33.7","","-37.6","","69","","","","35","","14","","24.1","","102.05","","","","-46","","Ice Crystals"
