"Longitude (x)","Latitude (y)","Station Name","Climate ID","Date/Time (LST)","Year","Month","Day","Time (LST)","Temp (°C)","Temp Flag","Dew Point Temp (°C)","Dew Point Temp Flag","Rel Hum (%)","Rel Hum Flag","Precip. Amount (mm)","Precip. Amount Flag","Wind Dir (10s deg)","Wind Dir Flag","Wind Spd (km/h)","Wind Spd Flag","Visibility (km)","Visibility Flag","Stn Press (kPa)","Stn Press Flag","Hmdx","Hmdx Flag","Wind Chill","Wind Chill Flag","Weather"
"-105.27","55.15","LA RONGE A","4064155","2020-10-01 00:00","2020","10","01","00:00","4.8","","2.2","","83","","","","34","","7","","24.1","","98.48","","","","","","Cloudy"
"-105.27","55.15","LA RONGE A","4064155","2020-10-01 01:00","2020","10","01","01:00","4.3","","2.2","","86","","","","32","","8","","24.1","","98.49","","","","","","NA"
"-105.27","55.15","LA RONGE A","4064155","2020-10-01 02:00","2020","10","01","02:00","3.2","","1.3","","87","","","","32","","7","","24.1","","98.49","","","","","","NA"
"-105.27","55.15","LA RONGE A","4064155","2020-10-01 03:00","2020","10","01","03:00","1.5","","0.8","","95","","","","31","","5","","24.1","","98.50","","","","","","Mostly Cloudy"
"-105.27","55.15","LA RONGE A","4064155","2020-10-01 04:00","2020","10","01","04:00","0.3","","-0.4","","95","","","","28","","4","","24.1","","98.48","","","","","","NA"
"-105.27","55.15","LA RONGE A","4064155","2020-10-01 05:00","2020","10","01","05:00","-1.1","","-1.6","","97","","","","36","","3","","24.1","","98.49","","","","-2","","NA"
"-105.27","55.15","LA RONGE A","4064155","2020-10-01 06:00","2020","10","01","06:00","-2.2","","-2.5","","97","","","","28","","4","","24.1","","98.46","","","","-4","","Mainly Clear"
"-105.27","55.15","LA RONGE A","4064155","2020-10-01 07:00","2020","10","01","07:00","-3.1","","-3.5","","97","","","","25","","4","","3.2","","98.43","","","","-5","","Fog"
"-105.27","55.15","LA RONGE A","4064155","2020-10-01 08:00","2020","10","01","08:00","1.5","","1.2","","98","","","","28","","4","","24.1","","98.37","","","","","","NA"
"-105.27","55.15","LA RONGE A","4064155","2020-10-01 09:00","2020","10","01","09:00","1.9","","1.7","","99","","","","24","","9","","0.4","","98.36","","","","","","Fog"
"-105.27","55.15","LA RONGE A","4064155","2020-10-01 10:00","2020","10","01","10:00","4.2","","4.0","","99","","","","24","","7","","9.7","","98.39","","","","","","Fog"
"-105.27","55.15","LA RONGE A","4064155","2020-10-01 11:00","2020","10","01","11:00","6.7","","2.4","","74","","","","27","","6","","24.1","","98.33","","","","","","NA"
"-105.27","55.15","LA RONGE A","4064155","2020-10-01 12:00","2020","10","01","12:00","6.6","","0.7","","66","","","","23","","8","","24.1","","98.27","","","","","","Mostly Cloudy"
"-105.27","55.15","LA RONGE A","4064155","2020-10-01 13:00","2020","10","01","13:00","8.2","","0.0","","56","","","","26","","10","","24.1","","98.16","","","","","","NA"
"-105.27","55.15","LA RONGE A","4064155","2020-10-01 14:00","2020","10","01","14:00","7.9","","-0.9","","53","","","","22","","12","","24.1","","98.09","","","","","","NA"
"-105.27","55.15","LA RONGE A","4064155","2020-10-01 15:00","2020","10","01","15:00","7.8","","0.9","","61","","","","15","","12","","24.1","","98.00","","","","","","Cloudy"
"-105.27","55.15","LA RONGE A","4064155","2020-10-01 16:00","2020","10","01","16:00","7.6","","1.0","","63","","","","14","","9","","24.1","","97.92","","","","","","NA"
"-105.27","55.15","LA RONGE A","4064155","2020-10-01 17:00","2020","10","01","17:00","7.6","","0.8","","62","","","","15","","7","","24.1","","97.84","","","","","","NA"
"-105.27","55.15","LA RONGE A","4064155","2020-10-01 18:00","2020","10","01","18:00","7.5","","1.4","","65","","","","16","","4","","24.1","","97.79","","","","","","Cloudy"
"-105.27","55.15","LA RONGE A","4064155","2020-10-01 19:00","2020","10","01","19:00","7.1","","1.2","","66","","","","17","","6","","24.1","","97.74","","","","","","NA"
"-105.27","55.15","LA RONGE A","4064155","2020-10-01 20:00","2020","10","01","20:00","7.1","","1.0","","65","","","","18","","5","","24.1","","97.70","","","","","","NA"
"-105.27","55.15","LA RONGE A","4064155","2020-10-01 21:00","2020","10","01","21:00","7.1","","0.5","","63","","","","18","","7","","24.1","","97.61","","","","","","Cloudy"
"-105.27","55.15","LA RONGE A","4064155","2020-10-01 22:00","2020","10","01","22:00","7.3","","0.8","","63","","","","17","","8","","24.1","","97.55","","","","","","NA"
"-105.27","55.15","LA RONGE A","4064155","2020-10-01 23:00","2020","10","01","23:00","7.0","","1.6","","68","","","","17","","8","","24.1","","97.52","","","","","","NA"
"-105.27","55.15","LA RONGE A","4064155","2020-10-02 00:00","2020","10","02","00:00","6.5","","1.2","","69","","","","20","","9","","24.1","","97.50","","","","","","Cloudy"
"-105.27","55.15","LA RONGE A","4064155","2020-10-02 01:00","2020","10","02","01:00","4.9","","1.1","","77","","","","23","","5","","24.1","","97.47","","","","","","NA"
"-105.27","55.15","LA RONGE A","4064155","2020-10-02 02:00","2020","10","02","02:00","4.0","","1.1","","81","","","","36","","1","","24.1","","97.45","","","","","","NA"
"-105.27","55.15","LA RONGE A","4064155","2020-10-02 03:00","2020","10","02","03:00","3.2","","1.2","","86","","","","19","","3","","24.1","","97.43","","","","","","Mostly Cloudy"
"-105.27","55.15","LA RONGE A","4064155","2020-10-02 04:00","2020","10","02","04:00","2.5","","1.0","","90","","","","36","","1","","24.1","","97.42","","","","","","NA"
"-105.27","55.15","LA RONGE A","4064155","2020-10-02 05:00","2020","10","02","05:00","3.0","","1.4","","89","","","","36","","1","","24.1","","97.43","","","","","","NA"
"-105.27","55.15","LA RONGE A","4064155","2020-10-02 06:00","2020","10","02","06:00","3.5","","2.3","","92","","","","28","","4","","24.1","","97.44","","","","","","Mostly Cloudy"
"-105.27","55.15","LA RONGE A","4064155","2020-10-02 07:00","2020","10","02","07:00","3.7","","2.6","","93","","","","36","","3","","24.1","","97.45","","","","","","NA"
"-105.27","55.15","LA RONGE A","4064155","2020-10-02 08:00","2020","10","02","08:00","4.4","","2.6","","88","","","","22","","4","","24.1","","97.46","","","","","","NA"
"-105.27","55.15","LA RONGE A","4064155","2020-10-02 09:00","2020","10","02","09:00","6.1","","3.5","","83","","","","36","","3","","24.1","","97.45","","","","","","Cloudy"
"-105.27","55.15","LA RONGE A","4064155","2020-10-02 10:00","2020","10","02","10:00","7.2","","4.1","","81","","","","24","","5","","24.1","","97.48","","","","","","NA"
"-105.27","55.15","LA RONGE A","4064155","2020-10-02 11:00","2020","10","02","11:00","7.8","","4.2","","78","","","","36","","2","","24.1","","97.49","","","","","","NA"
"-105.27","55.15","LA RONGE A","4064155","2020-10-02 12:00","2020","10","02","12:00","8.5","","4.3","","75","","","","0","","1","","24.1","","97.53","","","","","","Cloudy"
"-105.27","55.15","LA RONGE A","4064155","2020-10-02 13:00","2020","10","02","13:00","9.8","","3.9","","67","","","","31","","7","","24.1","","97.55","","","","","","NA"
"-105.27","55.15","LA RONGE A","4064155","2020-10-02 14:00","2020","10","02","14:00","9.0","","4.0","","71","","","","2","","5","","24.1","","97.57","","","","","","NA"
"-105.27","55.15","LA RONGE A","4064155","2020-10-02 15:00","2020","10","02","15:00","9.2","","4.3","","71","","","","34","","8","","24.1","","97.59","","","","","","Cloudy"
"-105.27","55.15","LA RONGE A","4064155","2020-10-02 16:00","2020","10","02","16:00","9.2","","4.3","","71","","","","36","","8","","24.1","","97.64","","","","","","NA"
"-105.27","55.15","LA RONGE A","4064155","2020-10-02 17:00","2020","10","02","17:00","9.0","","4.1","","72","","","","33","","5","","24.1","","97.68","","","","","","NA"
"-105.27","55.15","LA RONGE A","4064155","2020-10-02 18:00","2020","10","02","18:00","8.6","","4.5","","75","","","","36","","3","","24.1","","97.69","","","","","","Mostly Cloudy"
"-105.27","55.15","LA RONGE A","4064155","2020-10-02 19:00","2020","10","02","19:00","5.9","","4.5","","90","","","","27","","6","","24.1","","97.72","","","","","","NA"
"-105.27","55.15","LA RONGE A","4064155","2020-10-02 20:00","2020","10","02","20:00","5.4","","3.8","","90","","","","32","","5","","24.1","","97.75","","","","","","NA"
"-105.27","55.15","LA RONGE A","4064155","2020-10-02 21:00","2020","10","02","21:00","3.1","","2.4","","95","","","","36","","2","","24.1","","97.75","","","","","","Mainly Clear"
"-105.27","55.15","LA RONGE A","4064155","2020-10-02 22:00","2020","10","02","22:00","1.9","","1.4","","96","","","","0","","1","","24.1","","97.77","","","","","","NA"
"-105.27","55.15","LA RONGE A","4064155","2020-10-02 23:00","2020","10","02","23:00","-0.2","","-0.9","","95","","","","0","","1","","24.1","","97.78","","","","-1","","NA"
"-105.27","55.15","LA RONGE A","4064155","2020-10-03 00:00","2020","10","03","00:00","0.1","","-0.6","","95","","","","36","","1","","24.1","","97.80","","","","","","Mainly Clear"
"-105.27","55.15","LA RONGE A","4064155","2020-10-03 01:00","2020","10","03","01:00","-0.4","","-0.9","","97","","","","0","","1","","24.1","","97.81","","","","-1","","NA"
"-105.27","55.15","LA RONGE A","4064155","2020-10-03 02:00","2020","10","03","02:00","1.1","","0.7","","97","","","","36","","3","","24.1","","97.82","","","","","","NA"
"-105.27","55.15","LA RONGE A","4064155","2020-10-03 03:00","2020","10","03","03:00","2.9","","2.5","","98","","","","25","","3","","24.1","","97.79","","","","","","Cloudy"
"-105.27","55.15","LA RONGE A","4064155","2020-10-03 04:00","2020","10","03","04:00","3.1","","2.9","","99","","","","25","","7","","24.1","","97.81","","","","","","NA"
"-105.27","55.15","LA RONGE A","4064155","2020-10-03 05:00","2020","10","03","05:00","4.0","","3.8","","98","","","","22","","6","","24.1","","97.83","","","","","","NA"
"-105.27","55.15","LA RONGE A","4064155","2020-10-03 06:00","2020","10","03","06:00","4.1","","3.5","","96","","","","23","","4","","24.1","","97.80","","","","","","Cloudy"
"-105.27","55.15","LA RONGE A","4064155","2020-10-03 07:00","2020","10","03","07:00","4.2","","3.2","","93","","","","19","","11","","24.1","","97.75","","","","","","NA"
"-105.27","55.15","LA RONGE A","4064155","2020-10-03 08:00","2020","10","03","08:00","4.0","","3.0","","94","","","","21","","5","","24.1","","97.73","","","","","","NA"
"-105.27","55.15","LA RONGE A","4064155","2020-10-03 09:00","2020","10","03","09:00","5.1","","3.7","","90","","","","18","","7","","24.1","","97.74","","","","","","Mostly Cloudy"
"-105.27","55.15","LA RONGE A","4064155","2020-10-03 10:00","2020","10","03","10:00","7.6","","4.3","","79","","","","19","","11","","24.1","","97.72","","","","","","NA"
"-105.27","55.15","LA RONGE A","4064155","2020-10-03 11:00","2020","10","03","11:00","9.1","","5.0","","75","","","","18","","11","","24.1","","97.67","","","","","","NA"
"-105.27","55.15","LA RONGE A","4064155","2020-10-03 12:00","2020","10","03","12:00","11.3","","4.6","","63","","","","19","","12","","24.1","","97.63","","","","","","Mostly Cloudy"
"-105.27","55.15","LA RONGE A","4064155","2020-10-03 13:00","2020","10","03","13:00","12.1","","3.7","","56","","","","19","","14","","24.1","","97.56","","","","","","NA"
"-105.27","55.15","LA RONGE A","4064155","2020-10-03 14:00","2020","10","03","14:00","12.0","","3.7","","56","","","","21","","17","","24.1","","97.49","","","","","","NA"
"-105.27","55.15","LA RONGE A","4064155","2020-10-03 15:00","2020","10","03","15:00","12.9","","2.4","","49","","","","19","","23","","24.1","","97.43","","","","","","Mostly Cloudy"
"-105.27","55.15","LA RONGE A","4064155","2020-10-03 16:00","2020","10","03","16:00","12.8","","2.8","","51","","","","19","","14","","24.1","","97.34","","","","","","NA"
"-105.27","55.15","LA RONGE A","4064155","2020-10-03 17:00","2020","10","03","17:00","12.5","","3.2","","53","","","","19","","19","","24.1","","97.24","","","","","","NA"
"-105.27","55.15","LA RONGE A","4064155","2020-10-03 18:00","2020","10","03","18:00","12.1","","3.5","","55","","","","19","","13","","24.1","","97.22","","","","","","Mostly Cloudy"
"-105.27","55.15","LA RONGE A","4064155","2020-10-03 19:00","2020","10","03","19:00","10.7","","3.0","","59","","","","19","","18","","24.1","","97.12","","","","","","NA"
"-105.27","55.15","LA RONGE A","4064155","2020-10-03 20:00","2020","10","03","20:00","10.0","","2.8","","61","","","","18","","17","","24.1","","97.10","","","","","","NA"
"-105.27","55.15","LA RONGE A","4064155","2020-10-03 21:00","2020","10","03","21:00","9.5","","2.7","","62","","","","19","","19","","24.1","","97.00","","","","","","Mostly Cloudy"
"-105.27","55.15","LA RONGE A","4064155","2020-10-03 22:00","2020","10","03","22:00","9.0","","2.3","","63","","","","19","","17","","24.1","","96.90","","","","","","NA"
"-105.27","55.15","LA RONGE A","4064155","2020-10-03 23:00","2020","10","03","23:00","8.9","","2.7","","65","","","","20","","16","","24.1","","96.80","","","","","","NA"
"-105.27","55.15","LA RONGE A","4064155","2020-10-04 00:00","2020","10","04","00:00","8.8","","3.2","","68","","","","20","","16","","24.1","","96.70","","","","","","Mostly Cloudy"
"-105.27","55.15","LA RONGE A","4064155","2020-10-04 01:00","2020","10","04","01:00","9.3","","3.1","","65","","","","20","","13","","24.1","","96.60","","","","","","NA"
"-105.27","55.15","LA RONGE A","4064155","2020-10-04 02:00","2020","10","04","02:00","9.6","","3.1","","64","","","","20","","19","","24.1","","96.47","","","","","","NA"
"-105.27","55.15","LA RONGE A","4064155","2020-10-04 03:00","2020","10","04","03:00","9.7","","3.4","","65","","","","19","","19","","24.1","","96.30","","","","","","Cloudy"
"-105.27","55.15","LA RONGE A","4064155","2020-10-04 04:00","2020","10","04","04:00","9.8","","4.0","","67","","","","19","","18","","24.1","","96.12","","","","","","NA"
"-105.27","55.15","LA RONGE A","4064155","2020-10-04 05:00","2020","10","04","05:00","10.4","","4.0","","64","","","","20","","19","","24.1","","95.95","","","","","","NA"
"-105.27","55.15","LA RONGE A","4064155","2020-10-04 06:00","2020","10","04","06:00","10.8","","4.1","","63","","","","21","","17","","24.1","","95.84","","","","","","Cloudy"
"-105.27","55.15","LA RONGE A","4064155","2020-10-04 07:00","2020","10","04","07:00","11.0","","4.5","","64","","","","23","","15","","24.1","","95.76","","","","","","NA"
"-105.27","55.15","LA RONGE A","4064155","2020-10-04 08:00","2020","10","04","08:00","11.4","","5.0","","64","","","","23","","13","","24.1","","95.72","","","","","","NA"
"-105.27","55.15","LA RONGE A","4064155","2020-10-04 09:00","2020","10","04","09:00","13.0","","5.6","","60","","","","24","","18","","24.1","","95.66","","","","","","Cloudy"
"-105.27","55.15","LA RONGE A","4064155","2020-10-04 10:00","2020","10","04","10:00","14.0","","6.7","","61","","","","25","","10","","24.1","","95.61","","","","","","NA"
"-105.27","55.15","LA RONGE A","4064155","2020-10-04 11:00","2020","10","04","11:00","15.4","","7.6","","59","","","","26","","14","","24.1","","95.59","","","","","","NA"
"-105.27","55.15","LA RONGE A","4064155","2020-10-04 12:00","2020","10","04","12:00","17.0","","8.1","","55","","","","26","","19","","24.1","","95.60","","","","","","Mostly Cloudy"
"-105.27","55.15","LA RONGE A","4064155","2020-10-04 13:00","2020","10","04","13:00","18.8","","8.7","","51","","","","27","","25","","24.1","","95.56","","","","","","NA"
"-105.27","55.15","LA RONGE A","4064155","2020-10-04 14:00","2020","10","04","14:00","19.7","","8.9","","49","","","","26","","16","","24.1","","95.51","","","","","","NA"
"-105.27","55.15","LA RONGE A","4064155","2020-10-04 15:00","2020","10","04","15:00","20.8","","9.9","","49","","","","29","","24","","24.1","","95.46","","","","","","Mainly Clear"
"-105.27","55.15","LA RONGE A","4064155","2020-10-04 16:00","2020","10","04","16:00","20.4","","10.5","","53","","","","28","","23","","24.1","","95.44","","","","","","NA"
"-105.27","55.15","LA RONGE A","4064155","2020-10-04 17:00","2020","10","04","17:00","19.8","","9.6","","51","","","","27","","21","","24.1","","95.39","","","","","","NA"
"-105.27","55.15","LA RONGE A","4064155","2020-10-04 18:00","2020","10","04","18:00","18.6","","8.2","","50","","","","28","","16","","24.1","","95.42","","","","","","Mostly Cloudy"
"-105.27","55.15","LA RONGE A","4064155","2020-10-04 19:00","2020","10","04","19:00","16.9","","6.0","","48","","","","27","","16","","24.1","","95.44","","","","","","NA"
"-105.27","55.15","LA RONGE A","4064155","2020-10-04 20:00","2020","10","04","20:00","16.0","","5.6","","50","","","","27","","15","","24.1","","95.50","","","","","","NA"
"-105.27","55.15","LA RONGE A","4064155","2020-10-04 21:00","2020","10","04","21:00","16.2","","4.8","","46","","","","28","","18","","24.1","","95.51","","","","","","Mostly Cloudy"
"-105.27","55.15","LA RONGE A","4064155","2020-10-04 22:00","2020","10","04","22:00","15.7","","4.0","","45","","","","29","","26","","24.1","","95.57","","","","","","NA"
"-105.27","55.15","LA RONGE A","4064155","2020-10-04 23:00","2020","10","04","23:00","14.6","","2.9","","45","","","","29","","24","","24.1","","95.60","","","","","","NA"
"-105.27","55.15","LA RONGE A","4064155","2020-10-05 00:00","2020","10","05","00:00","13.5","","2.0","","46","","","","29","","15","","24.1","","95.64","","","","","","Mostly Cloudy"
"-105.27","55.15","LA RONGE A","4064155","2020-10-05 01:00","2020","10","05","01:00","12.9","","2.3","","48","","","","28","","21","","24.1","","95.69","","","","","","NA"
"-105.27","55.15","LA RONGE A","4064155","2020-10-05 02:00","2020","10","05","02:00","11.4","","2.5","","54","","","","30","","26","","24.1","","95.75","","","","","","NA"
"-105.27","55.15","LA RONGE A","4064155","2020-10-05 03:00","2020","10","05","03:00","10.4","","3.0","","60","","","","29","","17","","24.1","","95.81","","","","","","Clear"
"-105.27","55.15","LA RONGE A","4064155","2020-10-05 04:00","2020","10","05","04:00","9.8","","2.2","","59","","","","27","","22","","24.1","","95.85","","","","","","NA"
"-105.27","55.15","LA RONGE A","4064155","2020-10-05 05:00","2020","10","05","05:00","9.2","","2.3","","62","","","","27","","23","","24.1","","95.90","","","","","","NA"
"-105.27","55.15","LA RONGE A","4064155","2020-10-05 06:00","2020","10","05","06:00","8.2","","2.5","","67","","","","28","","18","","24.1","","95.95","","","","","","Mainly Clear"
"-105.27","55.15","LA RONGE A","4064155","2020-10-05 07:00","2020","10","05","07:00","7.4","","2.6","","72","","","","26","","16","","24.1","","95.98","","","","","","NA"
"-105.27","55.15","LA RONGE A","4064155","2020-10-05 08:00","2020","10","05","08:00","7.7","","2.6","","70","","","","27","","24","","24.1","","96.01","","","","","","NA"
"-105.27","55.15","LA RONGE A","4064155","2020-10-05 09:00","2020","10","05","09:00","9.3","","2.9","","64","","","","27","","22","","24.1","","96.05","","","","","","Clear"
"-105.27","55.15","LA RONGE A","4064155","2020-10-05 10:00","2020","10","05","10:00","11.1","","3.5","","59","","","","27","","21","","24.1","","96.06","","","","","","NA"
"-105.27","55.15","LA RONGE A","4064155","2020-10-05 11:00","2020","10","05","11:00","12.6","","3.3","","53","","","","27","","27","","24.1","","96.06","","","","","","NA"
"-105.27","55.15","LA RONGE A","4064155","2020-10-05 12:00","2020","10","05","12:00","13.5","","3.4","","50","","","","27","","25","","24.1","","96.05","","","","","","Mainly Clear"
"-105.27","55.15","LA RONGE A","4064155","2020-10-05 13:00","2020","10","05","13:00","14.3","","2.6","","45","","","","28","","33","","24.1","","96.03","","","","","","NA"
"-105.27","55.15","LA RONGE A","4064155","2020-10-05 14:00","2020","10","05","14:00","15.2","","2.7","","43","","","","28","","23","","24.1","","96.00","","","","","","NA"
"-105.27","55.15","LA RONGE A","4064155","2020-10-05 15:00","2020","10","05","15:00","15.2","","2.4","","42","","","","27","","25","","24.1","","96.02","","","","","","Mainly Clear"
"-105.27","55.15","LA RONGE A","4064155","2020-10-05 16:00","2020","10","05","16:00","14.2","","2.2","","44","","","","27","","24","","24.1","","95.98","","","","","","NA"
"-105.27","55.15","LA RONGE A","4064155","2020-10-05 17:00","2020","10","05","17:00","13.8","","1.8","","44","","","","27","","18","","24.1","","95.94","","","","","","NA"
"-105.27","55.15","LA RONGE A","4064155","2020-10-05 18:00","2020","10","05","18:00","13.2","","1.6","","45","","","","27","","13","","24.1","","95.91","","","","","","Mostly Cloudy"
"-105.27","55.15","LA RONGE A","4064155","2020-10-05 19:00","2020","10","05","19:00","12.4","","1.7","","48","","","","26","","11","","24.1","","95.89","","","","","","NA"
"-105.27","55.15","LA RONGE A","4064155","2020-10-05 20:00","2020","10","05","20:00","11.6","","1.9","","51","","","","27","","8","","24.1","","95.85","","","","","","NA"
"-105.27","55.15","LA RONGE A","4064155","2020-10-05 21:00","2020","10","05","21:00","11.1","","3.0","","57","","","","27","","12","","24.1","","95.83","","","","","","Cloudy"
"-105.27","55.15","LA RONGE A","4064155","2020-10-05 22:00","2020","10","05","22:00","10.3","","4.1","","65","","","","27","","10","","24.1","","95.79","","","","","","NA"
"-105.27","55.15","LA RONGE A","4064155","2020-10-05 23:00","2020","10","05","23:00","9.8","","4.6","","70","","","","26","","10","","16.1","","95.80","","","","","","Rain Showers"
"-105.27","55.15","LA RONGE A","4064155","2020-10-06 00:00","2020","10","06","00:00","8.6","","6.2","","85","","","","25","","7","","16.1","","95.78","","","","","","Rain Showers"
"-105.27","55.15","LA RONGE A","4064155","2020-10-06 01:00","2020","10","06","01:00","8.0","","6.2","","88","","","","28","","5","","24.1","","95.77","","","","","","Rain Showers"
"-105.27","55.15","LA RONGE A","4064155","2020-10-06 02:00","2020","10","06","02:00","7.5","","6.7","","94","","","","31","","8","","16.1","","95.74","","","","","","Rain Showers"
"-105.27","55.15","LA RONGE A","4064155","2020-10-06 03:00","2020","10","06","03:00","7.4","","5.7","","89","","","","33","","8","","24.1","","95.74","","","","","","Cloudy"
"-105.27","55.15","LA RONGE A","4064155","2020-10-06 04:00","2020","10","06","04:00","7.3","","5.4","","88","","","","34","","7","","24.1","","95.75","","","","","","NA"
"-105.27","55.15","LA RONGE A","4064155","2020-10-06 05:00","2020","10","06","05:00","7.0","","5.5","","90","","","","33","","5","","24.1","","95.77","","","","","","NA"
"-105.27","55.15","LA RONGE A","4064155","2020-10-06 06:00","2020","10","06","06:00","7.0","","5.5","","90","","","","29","","7","","24.1","","95.83","","","","","","Cloudy"
"-105.27","55.15","LA RONGE A","4064155","2020-10-06 07:00","2020","10","06","07:00","7.2","","5.8","","91","","","","27","","7","","24.1","","95.86","","","","","","NA"
"-105.27","55.15","LA RONGE A","4064155","2020-10-06 08:00","2020","10","06","08:00","7.4","","5.7","","89","","","","27","","7","","24.1","","95.87","","","","","","NA"
"-105.27","55.15","LA RONGE A","4064155","2020-10-06 09:00","2020","10","06","09:00","7.8","","6.0","","88","","","","29","","9","","24.1","","95.91","","","","","","Mostly Cloudy"
"-105.27","55.15","LA RONGE A","4064155","2020-10-06 10:00","2020","10","06","10:00","8.5","","6.6","","88","","","","29","","10","","24.1","","95.94","","","","","","NA"
"-105.27","55.15","LA RONGE A","4064155","2020-10-06 11:00","2020","10","06","11:00","9.1","","6.3","","83","","","","27","","11","","24.1","","95.95","","","","","","NA"
"-105.27","55.15","LA RONGE A","4064155","2020-10-06 12:00","2020","10","06","12:00","10.0","","5.5","","74","","","","26","","11","","24.1","","95.95","","","","","","Mostly Cloudy"
"-105.27","55.15","LA RONGE A","4064155","2020-10-06 13:00","2020","10","06","13:00","10.7","","5.5","","70","","","","26","","13","","24.1","","95.93","","","","","","NA"
"-105.27","55.15","LA RONGE A","4064155","2020-10-06 14:00","2020","10","06","14:00","12.2","","6.6","","69","","","","28","","17","","24.1","","95.89","","","","","","NA"
"-105.27","55.15","LA RONGE A","4064155","2020-10-06 15:00","2020","10","06","15:00","12.8","","6.5","","65","","","","26","","16","","24.1","","95.89","","","","","","Mostly Cloudy"
"-105.27","55.15","LA RONGE A","4064155","2020-10-06 16:00","2020","10","06","16:00","12.2","","4.5","","59","","","","27","","21","","24.1","","95.91","","","","","","Rain Showers"
"-105.27","55.15","LA RONGE A","4064155","2020-10-06 17:00","2020","10","06","17:00","9.8","","5.7","","76","","","","29","","18","","24.1","","95.98","","","","","","NA"
"-105.27","55.15","LA RONGE A","4064155","2020-10-06 18:00","2020","10","06","18:00","9.9","","6.4","","79","","","","27","","12","","24.1","","96.04","","","","","","Mostly Cloudy"
"-105.27","55.15","LA RONGE A","4064155","2020-10-06 19:00","2020","10","06","19:00","8.8","","5.9","","82","","","","28","","18","","24.1","","96.13","","","","","","NA"
"-105.27","55.15","LA RONGE A","4064155","2020-10-06 20:00","2020","10","06","20:00","8.6","","5.6","","81","","","","28","","19","","24.1","","96.18","","","","","","NA"
"-105.27","55.15","LA RONGE A","4064155","2020-10-06 21:00","2020","10","06","21:00","8.5","","5.4","","81","","","","28","","14","","24.1","","96.25","","","","","","Mostly Cloudy"
"-105.27","55.15","LA RONGE A","4064155","2020-10-06 22:00","2020","10","06","22:00","8.1","","6.0","","87","","","","29","","17","","19.3","","96.31","","","","","","Rain Showers"
"-105.27","55.15","LA RONGE A","4064155","2020-10-06 23:00","2020","10","06","23:00","7.6","","5.8","","89","","","","32","","23","","19.3","","96.42","","","","","","Rain Showers"
"-105.27","55.15","LA RONGE A","4064155","2020-10-07 00:00","2020","10","07","00:00","6.7","","4.6","","87","","","","31","","18","","24.1","","96.53","","","","","","Mostly Cloudy"
"-105.27","55.15","LA RONGE A","4064155","2020-10-07 01:00","2020","10","07","01:00","7.4","","3.9","","78","","","","32","","28","","24.1","","96.63","","","","","","NA"
"-105.27","55.15","LA RONGE A","4064155","2020-10-07 02:00","2020","10","07","02:00","6.1","","3.0","","80","","","","30","","15","","24.1","","96.72","","","","","","NA"
"-105.27","55.15","LA RONGE A","4064155","2020-10-07 03:00","2020","10","07","03:00","6.5","","3.5","","81","","","","29","","13","","24.1","","96.76","","","","","","Cloudy"
"-105.27","55.15","LA RONGE A","4064155","2020-10-07 04:00","2020","10","07","04:00","6.1","","4.0","","86","","","","27","","18","","24.1","","96.79","","","","","","NA"
"-105.27","55.15","LA RONGE A","4064155","2020-10-07 05:00","2020","10","07","05:00","6.5","","4.1","","85","","","","27","","17","","24.1","","96.84","","","","","","NA"
"-105.27","55.15","LA RONGE A","4064155","2020-10-07 06:00","2020","10","07","06:00","5.5","","3.3","","86","","","","27","","13","","24.1","","96.89","","","","","","Mostly Cloudy"
"-105.27","55.15","LA RONGE A","4064155","2020-10-07 07:00","2020","10","07","07:00","5.2","","3.0","","85","","","","26","","16","","24.1","","96.94","","","","","","NA"
"-105.27","55.15","LA RONGE A","4064155","2020-10-07 08:00","2020","10","07","08:00","5.4","","3.2","","86","","","","26","","18","","24.1","","96.99","","","","","","NA"
"-105.27","55.15","LA RONGE A","4064155","2020-10-07 09:00","2020","10","07","09:00","7.0","","4.4","","83","","","","27","","17","","24.1","","97.08","","","","","","Mostly Cloudy"
"-105.27","55.15","LA RONGE A","4064155","2020-10-07 10:00","2020","10","07","10:00","8.9","","4.9","","76","","","","27","","22","","24.1","","97.13","","","","","","NA"
"-105.27","55.15","LA RONGE A","4064155","2020-10-07 11:00","2020","10","07","11:00","9.3","","2.4","","62","","","","32","","26","","24.1","","97.20","","","","","","NA"
"-105.27","55.15","LA RONGE A","4064155","2020-10-07 12:00","2020","10","07","12:00","9.4","","3.5","","67","","","","33","","18","","24.1","","97.25","","","","","","Mostly Cloudy"
"-105.27","55.15","LA RONGE A","4064155","2020-10-07 13:00","2020","10","07","13:00","11.2","","2.5","","55","","","","31","","19","","24.1","","97.25","","","","","","NA"
"-105.27","55.15","LA RONGE A","4064155","2020-10-07 14:00","2020","10","07","14:00","11.4","","2.2","","53","","","","30","","22","","24.1","","97.26","","","","","","NA"
"-105.27","55.15","LA RONGE A","4064155","2020-10-07 15:00","2020","10","07","15:00","11.1","","1.9","","53","","","","30","","23","","24.1","","97.28","","","","","","Mainly Clear"
"-105.27","55.15","LA RONGE A","4064155","2020-10-07 16:00","2020","10","07","16:00","9.3","","1.0","","56","","","","30","","20","","24.1","","97.30","","","","","","NA"
"-105.27","55.15","LA RONGE A","4064155","2020-10-07 17:00","2020","10","07","17:00","9.5","","0.9","","55","","","","29","","20","","24.1","","97.31","","","","","","NA"
"-105.27","55.15","LA RONGE A","4064155","2020-10-07 18:00","2020","10","07","18:00","7.8","","0.3","","59","","","","31","","18","","24.1","","97.32","","","","","","Mainly Clear"
"-105.27","55.15","LA RONGE A","4064155","2020-10-07 19:00","2020","10","07","19:00","5.0","","-0.3","","68","","","","29","","9","","24.1","","97.34","","","","","","NA"
"-105.27","55.15","LA RONGE A","4064155","2020-10-07 20:00","2020","10","07","20:00","5.5","","0.1","","68","","","","35","","10","","24.1","","97.33","","","","","","NA"
"-105.27","55.15","LA RONGE A","4064155","2020-10-07 21:00","2020","10","07","21:00","2.3","","-0.2","","83","","","","33","","7","","24.1","","97.34","","","","","","Clear"
"-105.27","55.15","LA RONGE A","4064155","2020-10-07 22:00","2020","10","07","22:00","-1.3","","-2.4","","92","","","","31","","3","","24.1","","97.33","","","","-2","","NA"
"-105.27","55.15","LA RONGE A","4064155","2020-10-07 23:00","2020","10","07","23:00","-0.1","","-1.6","","90","","","","0","","1","","24.1","","97.31","","","","0","","NA"
"-105.27","55.15","LA RONGE A","4064155","2020-10-08 00:00","2020","10","08","00:00","-1.9","","-3.0","","92","","","","36","","3","","24.1","","97.28","","","","-3","","Mainly Clear"
"-105.27","55.15","LA RONGE A","4064155","2020-10-08 01:00","2020","10","08","01:00","-0.8","","-1.8","","93","","","","4","","4","","24.1","","97.25","","","","-2","","NA"
"-105.27","55.15","LA RONGE A","4064155","2020-10-08 02:00","2020","10","08","02:00","0.1","","-2.0","","86","","","","7","","6","","24.1","","97.22","","","","","","NA"
"-105.27","55.15","LA RONGE A","4064155","2020-10-08 03:00","2020","10","08","03:00","2.2","","0.8","","91","","","","36","","3","","24.1","","97.18","","","","","","Mainly Clear"
"-105.27","55.15","LA RONGE A","4064155","2020-10-08 04:00","2020","10","08","04:00","1.8","","0.8","","92","","","","11","","4","","24.1","","97.10","","","","","","NA"
"-105.27","55.15","LA RONGE A","4064155","2020-10-08 05:00","2020","10","08","05:00","2.0","","1.6","","97","","","","36","","1","","24.1","","97.03","","","","","","NA"
"-105.27","55.15","LA RONGE A","4064155","2020-10-08 06:00","2020","10","08","06:00","4.2","","2.8","","91","","","","12","","10","","24.1","","96.94","","","","","","Mostly Cloudy"
"-105.27","55.15","LA RONGE A","4064155","2020-10-08 07:00","2020","10","08","07:00","4.8","","2.8","","87","","","","12","","9","","24.1","","96.86","","","","","","NA"
"-105.27","55.15","LA RONGE A","4064155","2020-10-08 08:00","2020","10","08","08:00","5.7","","2.5","","80","","","","14","","18","","24.1","","96.76","","","","","","NA"
"-105.27","55.15","LA RONGE A","4064155","2020-10-08 09:00","2020","10","08","09:00","6.0","","4.0","","87","","","","12","","14","","24.1","","96.66","","","","","","Rain"
"-105.27","55.15","LA RONGE A","4064155","2020-10-08 10:00","2020","10","08","10:00","6.2","","4.0","","85","","","","14","","13","","24.1","","96.56","","","","","","Rain"
"-105.27","55.15","LA RONGE A","4064155","2020-10-08 11:00","2020","10","08","11:00","6.7","","4.2","","84","","","","12","","22","","24.1","","96.43","","","","","","Rain"
"-105.27","55.15","LA RONGE A","4064155","2020-10-08 12:00","2020","10","08","12:00","6.0","","3.9","","87","","","","11","","30","","24.1","","96.19","","","","","","Rain"
"-105.27","55.15","LA RONGE A","4064155","2020-10-08 13:00","2020","10","08","13:00","5.9","","3.4","","84","","","","10","","32","","24.1","","95.97","","","","","","Rain"
"-105.27","55.15","LA RONGE A","4064155","2020-10-08 14:00","2020","10","08","14:00","5.9","","4.1","","88","","","","8","","21","","9.7","","96.04","","","","","","Rain,Fog"
"-105.27","55.15","LA RONGE A","4064155","2020-10-08 15:00","2020","10","08","15:00","5.4","","4.1","","91","","","","8","","19","","24.1","","95.92","","","","","","Rain,Fog"
"-105.27","55.15","LA RONGE A","4064155","2020-10-08 16:00","2020","10","08","16:00","5.4","","4.2","","92","","","","10","","33","","12.9","","95.72","","","","","","Rain"
"-105.27","55.15","LA RONGE A","4064155","2020-10-08 17:00","2020","10","08","17:00","5.8","","4.4","","91","","","","11","","25","","24.1","","95.66","","","","","","NA"
"-105.27","55.15","LA RONGE A","4064155","2020-10-08 18:00","2020","10","08","18:00","6.2","","4.8","","90","","","","11","","12","","24.1","","95.68","","","","","","Cloudy"
"-105.27","55.15","LA RONGE A","4064155","2020-10-08 19:00","2020","10","08","19:00","6.5","","4.1","","85","","","","12","","16","","24.1","","95.65","","","","","","NA"
"-105.27","55.15","LA RONGE A","4064155","2020-10-08 20:00","2020","10","08","20:00","6.3","","4.2","","87","","","","13","","12","","24.1","","95.62","","","","","","NA"
"-105.27","55.15","LA RONGE A","4064155","2020-10-08 21:00","2020","10","08","21:00","6.3","","4.3","","87","","","","14","","11","","24.1","","95.59","","","","","","Cloudy"
"-105.27","55.15","LA RONGE A","4064155","2020-10-08 22:00","2020","10","08","22:00","6.2","","4.4","","88","","","","13","","8","","24.1","","95.59","","","","","","NA"
"-105.27","55.15","LA RONGE A","4064155","2020-10-08 23:00","2020","10","08","23:00","6.4","","4.5","","87","","","","19","","4","","24.1","","95.60","","","","","","NA"
"-105.27","55.15","LA RONGE A","4064155","2020-10-09 00:00","2020","10","09","00:00","6.0","","4.7","","91","","","","30","","4","","24.1","","95.61","","","","","","Cloudy"
"-105.27","55.15","LA RONGE A","4064155","2020-10-09 01:00","2020","10","09","01:00","5.8","","4.7","","93","","","","29","","5","","24.1","","95.64","","","","","","NA"
"-105.27","55.15","LA RONGE A","4064155","2020-10-09 02:00","2020","10","09","02:00","4.7","","4.1","","96","","","","2","","17","","24.1","","95.70","","","","","","NA"
"-105.27","55.15","LA RONGE A","4064155","2020-10-09 03:00","2020","10","09","03:00","3.0","","2.5","","97","","","","3","","17","","16.1","","95.79","","","","","","Rain"
"-105.27","55.15","LA RONGE A","4064155","2020-10-09 04:00","2020","10","09","04:00","2.2","","1.5","","95","","","","2","","21","","16.1","","95.89","","","","","","Rain"
"-105.27","55.15","LA RONGE A","4064155","2020-10-09 05:00","2020","10","09","05:00","2.0","","1.1","","94","","","","2","","21","","16.1","","96.02","","","","","","Rain"
"-105.27","55.15","LA RONGE A","4064155","2020-10-09 06:00","2020","10","09","06:00","1.9","","1.0","","93","","","","2","","18","","16.1","","96.14","","","","","","Rain"
"-105.27","55.15","LA RONGE A","4064155","2020-10-09 07:00","2020","10","09","07:00","1.9","","0.5","","91","","","","2","","21","","16.1","","96.27","","","","","","Rain"
"-105.27","55.15","LA RONGE A","4064155","2020-10-09 08:00","2020","10","09","08:00","1.8","","0.5","","91","","","","2","","18","","19.3","","96.41","","","","","","Rain,Fog"
"-105.27","55.15","LA RONGE A","4064155","2020-10-09 09:00","2020","10","09","09:00","1.7","","0.2","","90","","","","3","","20","","19.3","","96.52","","","","","","Rain,Fog"
"-105.27","55.15","LA RONGE A","4064155","2020-10-09 10:00","2020","10","09","10:00","2.1","","0.3","","88","","","","2","","22","","24.1","","96.58","","","","","","NA"
"-105.27","55.15","LA RONGE A","4064155","2020-10-09 11:00","2020","10","09","11:00","3.1","","0.7","","84","","","","4","","18","","24.1","","96.60","","","","","","Rain"
"-105.27","55.15","LA RONGE A","4064155","2020-10-09 12:00","2020","10","09","12:00","3.6","","0.2","","79","","","","5","","14","","24.1","","96.74","","","","","","Rain"
"-105.27","55.15","LA RONGE A","4064155","2020-10-09 13:00","2020","10","09","13:00","3.6","","0.4","","80","","","","2","","17","","24.1","","96.76","","","","","","Rain"
"-105.27","55.15","LA RONGE A","4064155","2020-10-09 14:00","2020","10","09","14:00","4.2","","-0.4","","72","","","","5","","13","","24.1","","96.76","","","","","","Rain"
"-105.27","55.15","LA RONGE A","4064155","2020-10-09 15:00","2020","10","09","15:00","4.0","","-1.0","","70","","","","5","","11","","24.1","","96.85","","","","","","Cloudy"
"-105.27","55.15","LA RONGE A","4064155","2020-10-09 16:00","2020","10","09","16:00","4.7","","-0.8","","67","","","","5","","10","","24.1","","96.86","","","","","","NA"
"-105.27","55.15","LA RONGE A","4064155","2020-10-09 17:00","2020","10","09","17:00","4.1","","-1.6","","66","","","","7","","9","","24.1","","96.83","","","","","","NA"
"-105.27","55.15","LA RONGE A","4064155","2020-10-09 18:00","2020","10","09","18:00","3.6","","-1.4","","70","","","","10","","7","","24.1","","96.87","","","","","","Mostly Cloudy"
"-105.27","55.15","LA RONGE A","4064155","2020-10-09 19:00","2020","10","09","19:00","3.4","","-1.7","","70","","","","7","","10","","24.1","","96.88","","","","","","NA"
"-105.27","55.15","LA RONGE A","4064155","2020-10-09 20:00","2020","10","09","20:00","3.4","","-1.2","","72","","","","10","","17","","24.1","","96.85","","","","","","NA"
"-105.27","55.15","LA RONGE A","4064155","2020-10-09 21:00","2020","10","09","21:00","3.4","","-0.3","","76","","","","12","","13","","24.1","","96.86","","","","","","Cloudy"
"-105.27","55.15","LA RONGE A","4064155","2020-10-09 22:00","2020","10","09","22:00","3.1","","-0.8","","76","","","","13","","18","","24.1","","96.88","","","","","","NA"
"-105.27","55.15","LA RONGE A","4064155","2020-10-09 23:00","2020","10","09","23:00","2.9","","-1.1","","75","","","","13","","19","","24.1","","96.83","","","","","","NA"
"-105.27","55.15","LA RONGE A","4064155","2020-10-10 00:00","2020","10","10","00:00","2.9","","-0.7","","77","","","","13","","19","","24.1","","96.81","","","","","","Cloudy"
"-105.27","55.15","LA RONGE A","4064155","2020-10-10 01:00","2020","10","10","01:00","2.4","","-0.4","","82","","","","13","","27","","24.1","","96.76","","","","","","NA"
"-105.27","55.15","LA RONGE A","4064155","2020-10-10 02:00","2020","10","10","02:00","2.5","","0.1","","84","","","","15","","23","","24.1","","96.70","","","","","","NA"
"-105.27","55.15","LA RONGE A","4064155","2020-10-10 03:00","2020","10","10","03:00","2.3","","0.1","","85","","","","13","","22","","24.1","","96.62","","","","","","Cloudy"
"-105.27","55.15","LA RONGE A","4064155","2020-10-10 04:00","2020","10","10","04:00","2.4","","0.2","","85","","","","12","","19","","24.1","","96.56","","","","","","NA"
"-105.27","55.15","LA RONGE A","4064155","2020-10-10 05:00","2020","10","10","05:00","2.4","","-0.3","","82","","","","14","","28","","24.1","","96.48","","","","","","NA"
"-105.27","55.15","LA RONGE A","4064155","2020-10-10 06:00","2020","10","10","06:00","1.8","","-0.6","","84","","","","13","","34","","24.1","","96.42","","","","","","Cloudy"
"-105.27","55.15","LA RONGE A","4064155","2020-10-10 07:00","2020","10","10","07:00","2.1","","-0.2","","85","","","","12","","29","","24.1","","96.31","","","","","","NA"
"-105.27","55.15","LA RONGE A","4064155","2020-10-10 08:00","2020","10","10","08:00","2.7","","0.4","","85","","","","12","","25","","24.1","","96.12","","","","","","NA"
"-105.27","55.15","LA RONGE A","4064155","2020-10-10 09:00","2020","10","10","09:00","2.9","","0.4","","83","","","","12","","29","","24.1","","96.05","","","","","","Cloudy"
"-105.27","55.15","LA RONGE A","4064155","2020-10-10 10:00","2020","10","10","10:00","3.1","","1.0","","86","","","","12","","28","","24.1","","95.87","","","","","","NA"
"-105.27","55.15","LA RONGE A","4064155","2020-10-10 11:00","2020","10","10","11:00","4.2","","1.0","","79","","","","12","","34","","24.1","","95.72","","","","","","NA"
"-105.27","55.15","LA RONGE A","4064155","2020-10-10 12:00","2020","10","10","12:00","4.1","","0.6","","78","","","","12","","35","","24.1","","95.65","","","","","","Cloudy"
"-105.27","55.15","LA RONGE A","4064155","2020-10-10 13:00","2020","10","10","13:00","4.5","","1.1","","79","","","","12","","27","","24.1","","95.56","","","","","","NA"
"-105.27","55.15","LA RONGE A","4064155","2020-10-10 14:00","2020","10","10","14:00","5.0","","1.5","","78","","","","12","","31","","24.1","","95.39","","","","","","NA"
"-105.27","55.15","LA RONGE A","4064155","2020-10-10 15:00","2020","10","10","15:00","5.5","","2.0","","78","","","","12","","23","","24.1","","95.30","","","","","","Cloudy"
"-105.27","55.15","LA RONGE A","4064155","2020-10-10 16:00","2020","10","10","16:00","6.2","","2.5","","77","","","","11","","22","","24.1","","95.18","","","","","","NA"
"-105.27","55.15","LA RONGE A","4064155","2020-10-10 17:00","2020","10","10","17:00","6.2","","2.8","","79","","","","10","","17","","24.1","","95.11","","","","","","NA"
"-105.27","55.15","LA RONGE A","4064155","2020-10-10 18:00","2020","10","10","18:00","6.0","","3.0","","81","","","","8","","17","","24.1","","95.04","","","","","","Cloudy"
"-105.27","55.15","LA RONGE A","4064155","2020-10-10 19:00","2020","10","10","19:00","5.8","","3.8","","87","","","","8","","20","","24.1","","94.96","","","","","","NA"
"-105.27","55.15","LA RONGE A","4064155","2020-10-10 20:00","2020","10","10","20:00","5.7","","3.6","","86","","","","8","","18","","24.1","","94.88","","","","","","NA"
"-105.27","55.15","LA RONGE A","4064155","2020-10-10 21:00","2020","10","10","21:00","5.8","","3.6","","85","","","","8","","23","","24.1","","94.80","","","","","","Cloudy"
"-105.27","55.15","LA RONGE A","4064155","2020-10-10 22:00","2020","10","10","22:00","5.8","","3.7","","86","","","","8","","21","","24.1","","94.69","","","","","","NA"
"-105.27","55.15","LA RONGE A","4064155","2020-10-10 23:00","2020","10","10","23:00","5.7","","3.7","","86","","","","7","","16","","24.1","","94.62","","","","","","NA"
"-105.27","55.15","LA RONGE A","4064155","2020-10-11 00:00","2020","10","11","00:00","5.7","","3.8","","87","","","","8","","18","","24.1","","94.50","","","","","","Cloudy"
"-105.27","55.15","LA RONGE A","4064155","2020-10-11 01:00","2020","10","11","01:00","5.5","","3.6","","87","","","","7","","21","","24.1","","94.41","","","","","","NA"
"-105.27","55.15","LA RONGE A","4064155","2020-10-11 02:00","2020","10","11","02:00","5.5","","3.5","","87","","","","7","","19","","24.1","","94.33","","","","","","NA"
"-105.27","55.15","LA RONGE A","4064155","2020-10-11 03:00","2020","10","11","03:00","5.8","","3.9","","87","","","","7","","21","","24.1","","94.20","","","","","","Cloudy"
"-105.27","55.15","LA RONGE A","4064155","2020-10-11 04:00","2020","10","11","04:00","6.0","","4.0","","87","","","","8","","21","","24.1","","94.14","","","","","","NA"
"-105.27","55.15","LA RONGE A","4064155","2020-10-11 05:00","2020","10","11","05:00","6.1","","4.3","","88","","","","8","","14","","24.1","","94.07","","","","","","NA"
"-105.27","55.15","LA RONGE A","4064155","2020-10-11 06:00","2020","10","11","06:00","6.2","","4.3","","88","","","","8","","17","","24.1","","94.05","","","","","","Cloudy"
"-105.27","55.15","LA RONGE A","4064155","2020-10-11 07:00","2020","10","11","07:00","6.3","","4.5","","88","","","","8","","12","","24.1","","94.02","","","","","","NA"
"-105.27","55.15","LA RONGE A","4064155","2020-10-11 08:00","2020","10","11","08:00","6.3","","4.7","","89","","","","8","","12","","24.1","","93.95","","","","","","NA"
"-105.27","55.15","LA RONGE A","4064155","2020-10-11 09:00","2020","10","11","09:00","7.1","","5.3","","88","","","","10","","5","","24.1","","93.92","","","","","","Mostly Cloudy"
"-105.27","55.15","LA RONGE A","4064155","2020-10-11 10:00","2020","10","11","10:00","8.3","","5.6","","83","","","","14","","12","","24.1","","93.96","","","","","","NA"
"-105.27","55.15","LA RONGE A","4064155","2020-10-11 11:00","2020","10","11","11:00","7.3","","4.9","","84","","","","22","","17","","24.1","","94.02","","","","","","NA"
"-105.27","55.15","LA RONGE A","4064155","2020-10-11 12:00","2020","10","11","12:00","6.6","","4.3","","85","","","","23","","16","","24.1","","94.09","","","","","","Cloudy"
"-105.27","55.15","LA RONGE A","4064155","2020-10-11 13:00","2020","10","11","13:00","6.8","","4.7","","86","","","","23","","18","","24.1","","94.16","","","","","","NA"
"-105.27","55.15","LA RONGE A","4064155","2020-10-11 14:00","2020","10","11","14:00","6.7","","5.2","","90","","","","23","","21","","19.3","","94.24","","","","","","Drizzle"
"-105.27","55.15","LA RONGE A","4064155","2020-10-11 15:00","2020","10","11","15:00","6.0","","3.1","","82","","","","24","","30","","24.1","","94.37","","","","","","Cloudy"
"-105.27","55.15","LA RONGE A","4064155","2020-10-11 16:00","2020","10","11","16:00","4.1","","2.4","","89","","","","24","","27","","12.9","","94.44","","","","","","Drizzle"
"-105.27","55.15","LA RONGE A","4064155","2020-10-11 17:00","2020","10","11","17:00","3.6","","0.7","","82","","","","25","","21","","19.3","","94.56","","","","","","Drizzle"
"-105.27","55.15","LA RONGE A","4064155","2020-10-11 18:00","2020","10","11","18:00","3.1","","-0.1","","80","","","","25","","25","","24.1","","94.63","","","","","","Cloudy"
"-105.27","55.15","LA RONGE A","4064155","2020-10-11 19:00","2020","10","11","19:00","2.7","","-0.2","","81","","","","26","","26","","24.1","","94.67","","","","","","NA"
"-105.27","55.15","LA RONGE A","4064155","2020-10-11 20:00","2020","10","11","20:00","2.4","","-1.0","","78","","","","25","","34","","24.1","","94.68","","","","","","NA"
"-105.27","55.15","LA RONGE A","4064155","2020-10-11 21:00","2020","10","11","21:00","2.0","","-1.1","","80","","","","25","","33","","24.1","","94.67","","","","","","Cloudy"
"-105.27","55.15","LA RONGE A","4064155","2020-10-11 22:00","2020","10","11","22:00","1.4","","-0.4","","87","","","","25","","20","","24.1","","94.70","","","","","","Rain"
"-105.27","55.15","LA RONGE A","4064155","2020-10-11 23:00","2020","10","11","23:00","1.1","","-0.1","","91","","","","26","","19","","19.3","","94.69","","","","","","Snow"
"-105.27","55.15","LA RONGE A","4064155","2020-10-12 00:00","2020","10","12","00:00","0.7","","-0.2","","94","","","","26","","21","","12.9","","94.70","","","","","","Snow"
"-105.27","55.15","LA RONGE A","4064155","2020-10-12 01:00","2020","10","12","01:00","0.6","","-0.2","","94","","","","26","","18","","12.9","","94.71","","","","","","Snow"
"-105.27","55.15","LA RONGE A","4064155","2020-10-12 02:00","2020","10","12","02:00","0.7","","0.0","","95","","","","25","","21","","16.1","","94.73","","","","","","Snow"
"-105.27","55.15","LA RONGE A","4064155","2020-10-12 03:00","2020","10","12","03:00","0.6","","-0.1","","95","","","","26","","20","","9.7","","94.77","","","","","","Snow"
"-105.27","55.15","LA RONGE A","4064155","2020-10-12 04:00","2020","10","12","04:00","1.2","","0.2","","93","","","","27","","23","","16.1","","94.79","","","","","","Snow"
"-105.27","55.15","LA RONGE A","4064155","2020-10-12 05:00","2020","10","12","05:00","1.3","","0.0","","91","","","","26","","27","","9.7","","94.79","","","","","","Snow"
"-105.27","55.15","LA RONGE A","4064155","2020-10-12 06:00","2020","10","12","06:00","1.3","","0.1","","92","","","","26","","22","","12.9","","94.79","","","","","","Cloudy"
"-105.27","55.15","LA RONGE A","4064155","2020-10-12 07:00","2020","10","12","07:00","1.1","","-0.3","","91","","","","26","","26","","6.4","","94.80","","","","","","Snow"
"-105.27","55.15","LA RONGE A","4064155","2020-10-12 08:00","2020","10","12","08:00","1.0","","0.0","","93","","","","26","","22","","8.1","","94.82","","","","","","Rain,Snow"
"-105.27","55.15","LA RONGE A","4064155","2020-10-12 09:00","2020","10","12","09:00","1.0","","0.0","","93","","","","26","","26","","6.4","","94.83","","","","","","Snow"
"-105.27","55.15","LA RONGE A","4064155","2020-10-12 10:00","2020","10","12","10:00","1.7","","0.2","","90","","","","27","","28","","12.9","","94.83","","","","","","Snow"
"-105.27","55.15","LA RONGE A","4064155","2020-10-12 11:00","2020","10","12","11:00","2.4","","0.5","","87","","","","27","","32","","12.9","","94.89","","","","","","Snow"
"-105.27","55.15","LA RONGE A","4064155","2020-10-12 12:00","2020","10","12","12:00","2.9","","0.1","","82","","","","27","","36","","24.1","","94.93","","","","","","Rain"
"-105.27","55.15","LA RONGE A","4064155","2020-10-12 13:00","2020","10","12","13:00","4.2","","-1.0","","69","","","","27","","41","","24.1","","94.96","","","","","","NA"
"-105.27","55.15","LA RONGE A","4064155","2020-10-12 14:00","2020","10","12","14:00","4.9","","-1.6","","63","","","","27","","32","","24.1","","94.98","","","","","","NA"
"-105.27","55.15","LA RONGE A","4064155","2020-10-12 15:00","2020","10","12","15:00","4.8","","-3.0","","57","","","","27","","38","","24.1","","94.95","","","","","","Mostly Cloudy"
"-105.27","55.15","LA RONGE A","4064155","2020-10-12 16:00","2020","10","12","16:00","4.8","","-3.9","","53","","","","27","","36","","24.1","","94.98","","","","","","NA"
"-105.27","55.15","LA RONGE A","4064155","2020-10-12 17:00","2020","10","12","17:00","2.4","","-0.3","","82","","","","28","","26","","24.1","","95.05","","","","","","NA"
"-105.27","55.15","LA RONGE A","4064155","2020-10-12 18:00","2020","10","12","18:00","1.6","","0.2","","91","","","","27","","26","","19.3","","95.08","","","","","","Snow"
"-105.27","55.15","LA RONGE A","4064155","2020-10-12 19:00","2020","10","12","19:00","1.9","","-0.2","","86","","","","27","","22","","24.1","","95.06","","","","","","NA"
"-105.27","55.15","LA RONGE A","4064155","2020-10-12 20:00","2020","10","12","20:00","0.9","","-1.4","","85","","","","28","","31","","24.1","","95.10","","","","","","Snow"
"-105.27","55.15","LA RONGE A","4064155","2020-10-12 21:00","2020","10","12","21:00","1.9","","-2.0","","75","","","","27","","39","","24.1","","95.10","","","","","","Snow"
"-105.27","55.15","LA RONGE A","4064155","2020-10-12 22:00","2020","10","12","22:00","1.0","","-0.6","","89","","","","27","","25","","19.3","","95.10","","","","","","Snow"
"-105.27","55.15","LA RONGE A","4064155","2020-10-12 23:00","2020","10","12","23:00","0.9","","-0.7","","89","","","","27","","36","","19.3","","95.08","","","","","","Snow"
"-105.27","55.15","LA RONGE A","4064155","2020-10-13 00:00","2020","10","13","00:00","0.7","","-0.7","","91","","","","27","","30","","16.1","","95.12","","","","","","Snow"
"-105.27","55.15","LA RONGE A","4064155","2020-10-13 01:00","2020","10","13","01:00","0.6","","-0.9","","89","","","","27","","30","","9.7","","95.13","","","","","","Snow"
"-105.27","55.15","LA RONGE A","4064155","2020-10-13 02:00","2020","10","13","02:00","0.7","","-1.2","","87","","","","27","","35","","9.7","","95.17","","","","","","Snow"
"-105.27","55.15","LA RONGE A","4064155","2020-10-13 03:00","2020","10","13","03:00","0.3","","-1.1","","90","","","","28","","39","","8.1","","95.23","","","","","","Snow"
"-105.27","55.15","LA RONGE A","4064155","2020-10-13 04:00","2020","10","13","04:00","0.2","","-1.3","","90","","","","27","","36","","8.1","","95.29","","","","","","Snow"
"-105.27","55.15","LA RONGE A","4064155","2020-10-13 05:00","2020","10","13","05:00","0.2","","-1.9","","86","","","","28","","41","","12.9","","95.34","","","","","","Snow"
"-105.27","55.15","LA RONGE A","4064155","2020-10-13 06:00","2020","10","13","06:00","0.2","","-2.9","","80","","","","28","","49","","16.1","","95.42","","","","","","Snow"
"-105.27","55.15","LA RONGE A","4064155","2020-10-13 07:00","2020","10","13","07:00","0.2","","-3.2","","78","","","","28","","29","","16.1","","95.46","","","","","","Snow"
"-105.27","55.15","LA RONGE A","4064155","2020-10-13 08:00","2020","10","13","08:00","0.2","","-3.1","","79","","","","28","","29","","24.1","","95.54","","","","","","Snow"
"-105.27","55.15","LA RONGE A","4064155","2020-10-13 09:00","2020","10","13","09:00","0.4","","-4.0","","72","","","","27","","33","","24.1","","95.55","","","","","","Snow"
"-105.27","55.15","LA RONGE A","4064155","2020-10-13 10:00","2020","10","13","10:00","0.6","","-4.5","","69","","","","28","","33","","24.1","","95.61","","","","","","NA"
"-105.27","55.15","LA RONGE A","4064155","2020-10-13 11:00","2020","10","13","11:00","1.3","","-5.3","","62","","","","28","","40","","24.1","","95.63","","","","","","NA"
"-105.27","55.15","LA RONGE A","4064155","2020-10-13 12:00","2020","10","13","12:00","1.4","","-5.4","","61","","","","29","","39","","24.1","","95.65","","","","","","Mostly Cloudy"
"-105.27","55.15","LA RONGE A","4064155","2020-10-13 13:00","2020","10","13","13:00","2.8","","-5.9","","53","","","","27","","44","","24.1","","95.66","","","","","","NA"
"-105.27","55.15","LA RONGE A","4064155","2020-10-13 14:00","2020","10","13","14:00","2.3","","-5.9","","55","","","","29","","37","","24.1","","95.67","","","","","","NA"
"-105.27","55.15","LA RONGE A","4064155","2020-10-13 15:00","2020","10","13","15:00","2.7","","-5.9","","53","","","","29","","31","","24.1","","95.71","","","","","","Mostly Cloudy"
"-105.27","55.15","LA RONGE A","4064155","2020-10-13 16:00","2020","10","13","16:00","1.1","","-6.5","","57","","","","29","","30","","24.1","","95.72","","","","","","NA"
"-105.27","55.15","LA RONGE A","4064155","2020-10-13 17:00","2020","10","13","17:00","0.6","","-7.0","","57","","","","31","","34","","24.1","","95.73","","","","","","NA"
"-105.27","55.15","LA RONGE A","4064155","2020-10-13 18:00","2020","10","13","18:00","-0.7","","-7.7","","59","","","","30","","28","","24.1","","95.75","","","","-7","","Mostly Cloudy"
"-105.27","55.15","LA RONGE A","4064155","2020-10-13 19:00","2020","10","13","19:00","-1.3","","-7.8","","61","","","","30","","22","","24.1","","95.80","","","","-7","","NA"
"-105.27","55.15","LA RONGE A","4064155","2020-10-13 20:00","2020","10","13","20:00","-1.4","","-7.5","","64","","","","31","","29","","24.1","","95.80","","","","-8","","NA"
"-105.27","55.15","LA RONGE A","4064155","2020-10-13 21:00","2020","10","13","21:00","-1.8","","-7.5","","65","","","","30","","26","","24.1","","95.84","","","","-8","","Cloudy"
"-105.27","55.15","LA RONGE A","4064155","2020-10-13 22:00","2020","10","13","22:00","-1.9","","-8.2","","62","","","","30","","22","","24.1","","95.84","","","","-8","","NA"
"-105.27","55.15","LA RONGE A","4064155","2020-10-13 23:00","2020","10","13","23:00","-1.9","","-8.6","","61","","","","31","","24","","24.1","","95.85","","","","-8","","NA"
"-105.27","55.15","LA RONGE A","4064155","2020-10-14 00:00","2020","10","14","00:00","-2.3","","-8.9","","61","","","","31","","21","","24.1","","95.88","","","","-8","","Cloudy"
"-105.27","55.15","LA RONGE A","4064155","2020-10-14 01:00","2020","10","14","01:00","-2.6","","-8.8","","63","","","","32","","13","","24.1","","95.93","","","","-7","","NA"
"-105.27","55.15","LA RONGE A","4064155","2020-10-14 02:00","2020","10","14","02:00","-2.9","","-9.4","","61","","","","31","","26","","24.1","","95.98","","","","-10","","NA"
"-105.27","55.15","LA RONGE A","4064155","2020-10-14 03:00","2020","10","14","03:00","-3.4","","-9.5","","62","","","","32","","26","","24.1","","96.02","","","","-10","","Cloudy"
"-105.27","55.15","LA RONGE A","4064155","2020-10-14 04:00","2020","10","14","04:00","-3.4","","-9.4","","63","","","","32","","19","","24.1","","96.10","","","","-9","","NA"
"-105.27","55.15","LA RONGE A","4064155","2020-10-14 05:00","2020","10","14","05:00","-3.5","","-9.7","","62","","","","30","","25","","24.1","","96.18","","","","-10","","NA"
"-105.27","55.15","LA RONGE A","4064155","2020-10-14 06:00","2020","10","14","06:00","-3.3","","-8.9","","65","","","","29","","22","","24.1","","96.25","","","","-10","","Cloudy"
"-105.27","55.15","LA RONGE A","4064155","2020-10-14 07:00","2020","10","14","07:00","-3.5","","-9.6","","63","","","","29","","29","","24.1","","96.30","","","","-11","","NA"
"-105.27","55.15","LA RONGE A","4064155","2020-10-14 08:00","2020","10","14","08:00","-3.5","","-9.1","","65","","","","29","","17","","24.1","","96.34","","","","-9","","NA"
"-105.27","55.15","LA RONGE A","4064155","2020-10-14 09:00","2020","10","14","09:00","-3.2","","-9.6","","61","","","","31","","23","","24.1","","96.41","","","","-10","","Cloudy"
"-105.27","55.15","LA RONGE A","4064155","2020-10-14 10:00","2020","10","14","10:00","-2.6","","-8.9","","62","","","","30","","19","","24.1","","96.47","","","","-8","","NA"
"-105.27","55.15","LA RONGE A","4064155","2020-10-14 11:00","2020","10","14","11:00","-2.1","","-8.7","","61","","","","29","","22","","24.1","","96.51","","","","-8","","NA"
"-105.27","55.15","LA RONGE A","4064155","2020-10-14 12:00","2020","10","14","12:00","-1.6","","-9.6","","54","","","","26","","29","","24.1","","96.53","","","","-8","","Mostly Cloudy"
"-105.27","55.15","LA RONGE A","4064155","2020-10-14 13:00","2020","10","14","13:00","0.3","","-8.9","","50","","","","29","","30","","24.1","","96.56","","","","","","NA"
"-105.27","55.15","LA RONGE A","4064155","2020-10-14 14:00","2020","10","14","14:00","-1.1","","-9.4","","53","","","","29","","31","","24.1","","96.57","","","","-8","","NA"
"-105.27","55.15","LA RONGE A","4064155","2020-10-14 15:00","2020","10","14","15:00","-0.4","","-9.7","","50","","","","29","","32","","24.1","","96.58","","","","-7","","Mainly Clear"
"-105.27","55.15","LA RONGE A","4064155","2020-10-14 16:00","2020","10","14","16:00","-0.2","","-9.8","","49","","","","29","","29","","24.1","","96.63","","","","-7","","NA"
"-105.27","55.15","LA RONGE A","4064155","2020-10-14 17:00","2020","10","14","17:00","-0.9","","-9.3","","53","","","","28","","27","","24.1","","96.67","","","","-7","","NA"
"-105.27","55.15","LA RONGE A","4064155","2020-10-14 18:00","2020","10","14","18:00","-1.0","","-9.4","","53","","","","28","","31","","24.1","","96.72","","","","-8","","Mostly Cloudy"
"-105.27","55.15","LA RONGE A","4064155","2020-10-14 19:00","2020","10","14","19:00","-1.1","","-9.3","","54","","","","30","","28","","24.1","","96.76","","","","-8","","NA"
"-105.27","55.15","LA RONGE A","4064155","2020-10-14 20:00","2020","10","14","20:00","-2.4","","-9.7","","57","","","","30","","18","","24.1","","96.79","","","","-8","","NA"
"-105.27","55.15","LA RONGE A","4064155","2020-10-14 21:00","2020","10","14","21:00","-2.3","","-9.4","","59","","","","31","","21","","24.1","","96.83","","","","-8","","Mostly Cloudy"
"-105.27","55.15","LA RONGE A","4064155","2020-10-14 22:00","2020","10","14","22:00","-2.7","","-9.3","","61","","","","30","","22","","24.1","","96.85","","","","-9","","NA"
"-105.27","55.15","LA RONGE A","4064155","2020-10-14 23:00","2020","10","14","23:00","-3.1","","-10.3","","58","","","","32","","31","","24.1","","96.87","","","","-11","","NA"
"-105.27","55.15","LA RONGE A","4064155","2020-10-15 00:00","2020","10","15","00:00","-3.5","","-11.7","","53","","","","31","","31","","24.1","","96.88","","","","-11","","Cloudy"
"-105.27","55.15","LA RONGE A","4064155","2020-10-15 01:00","2020","10","15","01:00","-3.7","","-10.6","","59","","","","31","","19","","24.1","","96.86","","","","-10","","NA"
"-105.27","55.15","LA RONGE A","4064155","2020-10-15 02:00","2020","10","15","02:00","-3.6","","-11.0","","57","","","","31","","33","","24.1","","96.88","","","","-12","","NA"
"-105.27","55.15","LA RONGE A","4064155","2020-10-15 03:00","2020","10","15","03:00","-4.7","","-12.5","","55","","","","31","","35","","24.1","","96.93","","","","-13","","Snow"
"-105.27","55.15","LA RONGE A","4064155","2020-10-15 04:00","2020","10","15","04:00","-4.5","","-12.4","","54","","","","32","","34","","24.1","","96.95","","","","-13","","Snow"
"-105.27","55.15","LA RONGE A","4064155","2020-10-15 05:00","2020","10","15","05:00","-4.7","","-13.0","","52","","","","31","","26","","24.1","","96.95","","","","-12","","Snow"
"-105.27","55.15","LA RONGE A","4064155","2020-10-15 06:00","2020","10","15","06:00","-4.7","","-12.8","","53","","","","31","","28","","24.1","","96.96","","","","-12","","Snow"
"-105.27","55.15","LA RONGE A","4064155","2020-10-15 07:00","2020","10","15","07:00","-4.8","","-13.3","","52","","","","30","","29","","24.1","","96.98","","","","-13","","Snow"
"-105.27","55.15","LA RONGE A","4064155","2020-10-15 08:00","2020","10","15","08:00","-4.9","","-13.1","","53","","","","31","","36","","24.1","","96.98","","","","-14","","Snow"
"-105.27","55.15","LA RONGE A","4064155","2020-10-15 09:00","2020","10","15","09:00","-4.8","","-11.4","","60","","","","29","","29","","24.1","","97.02","","","","-13","","Snow"
"-105.27","55.15","LA RONGE A","4064155","2020-10-15 10:00","2020","10","15","10:00","-5.0","","-10.9","","63","","","","28","","33","","16.1","","97.05","","","","-13","","Snow,Blowing Snow"
"-105.27","55.15","LA RONGE A","4064155","2020-10-15 11:00","2020","10","15","11:00","-4.5","","-11.6","","58","","","","30","","29","","19.3","","97.06","","","","-12","","Snow"
"-105.27","55.15","LA RONGE A","4064155","2020-10-15 12:00","2020","10","15","12:00","-4.1","","-11.8","","56","","","","29","","35","","6.4","","97.06","","","","-12","","Snow"
"-105.27","55.15","LA RONGE A","4064155","2020-10-15 13:00","2020","10","15","13:00","-4.4","","-11.9","","56","","","","28","","39","","6.4","","97.07","","","","-13","","Snow,Blowing Snow"
"-105.27","55.15","LA RONGE A","4064155","2020-10-15 14:00","2020","10","15","14:00","-4.2","","-12.2","","54","","","","28","","33","","16.1","","97.10","","","","-12","","Snow"
"-105.27","55.15","LA RONGE A","4064155","2020-10-15 15:00","2020","10","15","15:00","-4.4","","-12.7","","52","","","","28","","35","","19.3","","97.10","","","","-13","","Snow"
"-105.27","55.15","LA RONGE A","4064155","2020-10-15 16:00","2020","10","15","16:00","-4.2","","-13.0","","51","","","","28","","38","","24.1","","97.12","","","","-13","","Snow"
"-105.27","55.15","LA RONGE A","4064155","2020-10-15 17:00","2020","10","15","17:00","-4.2","","-12.0","","55","","","","28","","26","","24.1","","97.14","","","","-11","","Snow"
"-105.27","55.15","LA RONGE A","4064155","2020-10-15 18:00","2020","10","15","18:00","-4.4","","-11.5","","58","","","","30","","34","","24.1","","97.12","","","","-13","","Snow"
"-105.27","55.15","LA RONGE A","4064155","2020-10-15 19:00","2020","10","15","19:00","-4.3","","-11.5","","57","","","","30","","24","","19.3","","97.11","","","","-11","","Snow"
"-105.27","55.15","LA RONGE A","4064155","2020-10-15 20:00","2020","10","15","20:00","-4.2","","-11.7","","56","","","","30","","32","","24.1","","97.11","","","","-12","","Snow"
"-105.27","55.15","LA RONGE A","4064155","2020-10-15 21:00","2020","10","15","21:00","-4.5","","-12.4","","54","","","","31","","39","","24.1","","97.08","","","","-13","","Snow"
"-105.27","55.15","LA RONGE A","4064155","2020-10-15 22:00","2020","10","15","22:00","-4.5","","-11.8","","57","","","","30","","27","","24.1","","97.04","","","","-12","","Snow"
"-105.27","55.15","LA RONGE A","4064155","2020-10-15 23:00","2020","10","15","23:00","-4.5","","-12.7","","53","","","","30","","32","","24.1","","97.00","","","","-13","","Snow"
"-105.27","55.15","LA RONGE A","4064155","2020-10-16 00:00","2020","10","16","00:00","-4.1","","-11.9","","55","","","","28","","27","","24.1","","96.96","","","","-11","","Snow"
"-105.27","55.15","LA RONGE A","4064155","2020-10-16 01:00","2020","10","16","01:00","-4.1","","-11.1","","58","","","","28","","20","","24.1","","96.90","","","","-10","","Snow"
"-105.27","55.15","LA RONGE A","4064155","2020-10-16 02:00","2020","10","16","02:00","-4.3","","-11.9","","56","","","","31","","37","","24.1","","96.84","","","","-13","","Snow"
"-105.27","55.15","LA RONGE A","4064155","2020-10-16 03:00","2020","10","16","03:00","-4.3","","-11.3","","58","","","","30","","26","","24.1","","96.81","","","","-12","","Snow"
"-105.27","55.15","LA RONGE A","4064155","2020-10-16 04:00","2020","10","16","04:00","-5.1","","-11.7","","60","","","","30","","22","","24.1","","96.78","","","","-12","","Snow"
"-105.27","55.15","LA RONGE A","4064155","2020-10-16 05:00","2020","10","16","05:00","-5.4","","-11.3","","63","","","","28","","30","","24.1","","96.72","","","","-14","","Snow"
"-105.27","55.15","LA RONGE A","4064155","2020-10-16 06:00","2020","10","16","06:00","-5.0","","-10.7","","65","","","","28","","14","","24.1","","96.66","","","","-10","","Cloudy"
"-105.27","55.15","LA RONGE A","4064155","2020-10-16 07:00","2020","10","16","07:00","-4.8","","-10.9","","63","","","","30","","22","","24.1","","96.62","","","","-12","","Snow"
"-105.27","55.15","LA RONGE A","4064155","2020-10-16 08:00","2020","10","16","08:00","-4.9","","-10.7","","64","","","","29","","23","","24.1","","96.58","","","","-12","","Snow"
"-105.27","55.15","LA RONGE A","4064155","2020-10-16 09:00","2020","10","16","09:00","-5.0","","-10.6","","65","","","","28","","14","","24.1","","96.56","","","","-10","","Snow"
"-105.27","55.15","LA RONGE A","4064155","2020-10-16 10:00","2020","10","16","10:00","-5.0","","-10.5","","65","","","","28","","24","","24.1","","96.51","","","","-12","","Snow"
"-105.27","55.15","LA RONGE A","4064155","2020-10-16 11:00","2020","10","16","11:00","-4.1","","-10.3","","62","","","","29","","26","","24.1","","96.47","","","","-11","","Snow"
"-105.27","55.15","LA RONGE A","4064155","2020-10-16 12:00","2020","10","16","12:00","-4.0","","-10.1","","63","","","","29","","25","","24.1","","96.46","","","","-11","","Snow"
"-105.27","55.15","LA RONGE A","4064155","2020-10-16 13:00","2020","10","16","13:00","-3.7","","-10.3","","61","","","","28","","25","","24.1","","96.45","","","","-11","","NA"
"-105.27","55.15","LA RONGE A","4064155","2020-10-16 14:00","2020","10","16","14:00","-3.3","","-9.9","","60","","","","29","","18","","24.1","","96.45","","","","-9","","NA"
"-105.27","55.15","LA RONGE A","4064155","2020-10-16 15:00","2020","10","16","15:00","-3.8","","-9.8","","63","","","","28","","27","","24.1","","96.45","","","","-11","","Cloudy"
"-105.27","55.15","LA RONGE A","4064155","2020-10-16 16:00","2020","10","16","16:00","-3.8","","-9.5","","65","","","","28","","27","","24.1","","96.47","","","","-11","","NA"
"-105.27","55.15","LA RONGE A","4064155","2020-10-16 17:00","2020","10","16","17:00","-4.2","","-9.7","","65","","","","30","","27","","24.1","","96.51","","","","-12","","NA"
"-105.27","55.15","LA RONGE A","4064155","2020-10-16 18:00","2020","10","16","18:00","-4.2","","-9.6","","66","","","","31","","21","","24.1","","96.56","","","","-11","","Cloudy"
"-105.27","55.15","LA RONGE A","4064155","2020-10-16 19:00","2020","10","16","19:00","-4.8","","-9.0","","73","","","","31","","18","","24.1","","96.60","","","","-11","","NA"
"-105.27","55.15","LA RONGE A","4064155","2020-10-16 20:00","2020","10","16","20:00","-4.9","","-9.4","","71","","","","30","","21","","24.1","","96.64","","","","-12","","Snow"
"-105.27","55.15","LA RONGE A","4064155","2020-10-16 21:00","2020","10","16","21:00","-4.5","","-9.1","","71","","","","30","","24","","24.1","","96.63","","","","-12","","Snow"
"-105.27","55.15","LA RONGE A","4064155","2020-10-16 22:00","2020","10","16","22:00","-4.7","","-9.4","","70","","","","30","","20","","24.1","","96.63","","","","-11","","Snow"
"-105.27","55.15","LA RONGE A","4064155","2020-10-16 23:00","2020","10","16","23:00","-4.5","","-9.0","","71","","","","30","","25","","24.1","","96.61","","","","-12","","Snow"
"-105.27","55.15","LA RONGE A","4064155","2020-10-17 00:00","2020","10","17","00:00","-4.3","","-8.4","","73","","","","29","","25","","24.1","","96.63","","","","-11","","Snow"
"-105.27","55.15","LA RONGE A","4064155","2020-10-17 01:00","2020","10","17","01:00","-4.4","","-8.6","","72","","","","30","","22","","19.3","","96.64","","","","-11","","Snow"
"-105.27","55.15","LA RONGE A","4064155","2020-10-17 02:00","2020","10","17","02:00","-4.6","","-8.1","","77","","","","28","","22","","24.1","","96.68","","","","-11","","Snow"
"-105.27","55.15","LA RONGE A","4064155","2020-10-17 03:00","2020","10","17","03:00","-5.1","","-7.5","","83","","","","28","","19","","19.3","","96.69","","","","-12","","Snow"
"-105.27","55.15","LA RONGE A","4064155","2020-10-17 04:00","2020","10","17","04:00","-5.0","","-7.4","","83","","","","28","","25","","24.1","","96.69","","","","-12","","Snow"
"-105.27","55.15","LA RONGE A","4064155","2020-10-17 05:00","2020","10","17","05:00","-4.8","","-7.3","","83","","","","27","","19","","19.3","","96.70","","","","-11","","Snow"
"-105.27","55.15","LA RONGE A","4064155","2020-10-17 06:00","2020","10","17","06:00","-4.7","","-6.9","","85","","","","27","","18","","19.3","","96.72","","","","-11","","Snow"
"-105.27","55.15","LA RONGE A","4064155","2020-10-17 07:00","2020","10","17","07:00","-4.8","","-6.9","","85","","","","27","","17","","19.3","","96.74","","","","-11","","Snow"
"-105.27","55.15","LA RONGE A","4064155","2020-10-17 08:00","2020","10","17","08:00","-4.6","","-6.7","","86","","","","27","","19","","12.9","","96.76","","","","-11","","Snow"
"-105.27","55.15","LA RONGE A","4064155","2020-10-17 09:00","2020","10","17","09:00","-4.5","","-6.3","","87","","","","28","","16","","4.8","","96.78","","","","-10","","Snow"
"-105.27","55.15","LA RONGE A","4064155","2020-10-17 10:00","2020","10","17","10:00","-4.0","","-6.9","","80","","","","29","","24","","6.4","","96.80","","","","-11","","Snow,Blowing Snow"
"-105.27","55.15","LA RONGE A","4064155","2020-10-17 11:00","2020","10","17","11:00","-3.3","","-7.3","","74","","","","30","","30","","19.3","","96.81","","","","-11","","Snow,Blowing Snow"
"-105.27","55.15","LA RONGE A","4064155","2020-10-17 12:00","2020","10","17","12:00","-2.8","","-7.8","","69","","","","29","","32","","19.3","","96.85","","","","-10","","Snow,Blowing Snow"
"-105.27","55.15","LA RONGE A","4064155","2020-10-17 13:00","2020","10","17","13:00","-2.5","","-6.8","","73","","","","29","","32","","6.4","","96.90","","","","-10","","Snow,Blowing Snow"
"-105.27","55.15","LA RONGE A","4064155","2020-10-17 14:00","2020","10","17","14:00","-2.8","","-5.9","","79","","","","29","","26","","19.3","","96.94","","","","-10","","Snow,Blowing Snow"
"-105.27","55.15","LA RONGE A","4064155","2020-10-17 15:00","2020","10","17","15:00","-2.4","","-5.9","","77","","","","29","","33","","3.2","","96.96","","","","-10","","Snow"
"-105.27","55.15","LA RONGE A","4064155","2020-10-17 16:00","2020","10","17","16:00","-2.4","","-6.2","","76","","","","29","","34","","6.4","","96.98","","","","-10","","Snow"
"-105.27","55.15","LA RONGE A","4064155","2020-10-17 17:00","2020","10","17","17:00","-2.7","","-6.2","","77","","","","29","","34","","9.7","","97.04","","","","-10","","Snow"
"-105.27","55.15","LA RONGE A","4064155","2020-10-17 18:00","2020","10","17","18:00","-2.9","","-6.8","","74","","","","30","","31","","24.1","","97.11","","","","-10","","Snow"
"-105.27","55.15","LA RONGE A","4064155","2020-10-17 19:00","2020","10","17","19:00","-3.1","","-7.0","","75","","","","30","","32","","9.7","","97.16","","","","-11","","Snow"
"-105.27","55.15","LA RONGE A","4064155","2020-10-17 20:00","2020","10","17","20:00","-3.7","","-6.9","","78","","","","30","","23","","16.1","","97.20","","","","-10","","Snow"
"-105.27","55.15","LA RONGE A","4064155","2020-10-17 21:00","2020","10","17","21:00","-3.9","","-7.1","","78","","","","30","","26","","16.1","","97.22","","","","-11","","Snow"
"-105.27","55.15","LA RONGE A","4064155","2020-10-17 22:00","2020","10","17","22:00","-4.3","","-7.1","","81","","","","29","","22","","16.1","","97.26","","","","-11","","Snow"
"-105.27","55.15","LA RONGE A","4064155","2020-10-17 23:00","2020","10","17","23:00","-4.3","","-7.1","","81","","","","30","","21","","24.1","","97.30","","","","-11","","Snow"
"-105.27","55.15","LA RONGE A","4064155","2020-10-18 00:00","2020","10","18","00:00","-4.5","","-7.2","","81","","","","29","","27","","24.1","","97.31","","","","-12","","Snow"
"-105.27","55.15","LA RONGE A","4064155","2020-10-18 01:00","2020","10","18","01:00","-4.5","","-7.0","","83","","","","30","","22","","24.1","","97.34","","","","-11","","Snow"
"-105.27","55.15","LA RONGE A","4064155","2020-10-18 02:00","2020","10","18","02:00","-4.5","","-7.1","","82","","","","30","","24","","24.1","","97.37","","","","-12","","Snow"
"-105.27","55.15","LA RONGE A","4064155","2020-10-18 03:00","2020","10","18","03:00","-4.9","","-7.1","","85","","","","29","","22","","24.1","","97.36","","","","-12","","Snow"
"-105.27","55.15","LA RONGE A","4064155","2020-10-18 04:00","2020","10","18","04:00","-4.9","","-6.8","","86","","","","29","","17","","24.1","","97.38","","","","-11","","Snow"
"-105.27","55.15","LA RONGE A","4064155","2020-10-18 05:00","2020","10","18","05:00","-4.6","","-7.0","","84","","","","30","","21","","24.1","","97.38","","","","-11","","Snow"
"-105.27","55.15","LA RONGE A","4064155","2020-10-18 06:00","2020","10","18","06:00","-4.7","","-6.8","","85","","","","30","","26","","24.1","","97.40","","","","-12","","Snow"
"-105.27","55.15","LA RONGE A","4064155","2020-10-18 07:00","2020","10","18","07:00","-4.8","","-6.4","","89","","","","29","","24","","19.3","","97.40","","","","-12","","Snow"
"-105.27","55.15","LA RONGE A","4064155","2020-10-18 08:00","2020","10","18","08:00","-5.3","","-7.4","","86","","","","30","","21","","24.1","","97.43","","","","-12","","NA"
"-105.27","55.15","LA RONGE A","4064155","2020-10-18 09:00","2020","10","18","09:00","-5.0","","-7.2","","85","","","","29","","24","","24.1","","97.47","","","","-12","","Cloudy"
"-105.27","55.15","LA RONGE A","4064155","2020-10-18 10:00","2020","10","18","10:00","-4.7","","-7.6","","80","","","","30","","20","","24.1","","97.48","","","","-11","","NA"
"-105.27","55.15","LA RONGE A","4064155","2020-10-18 11:00","2020","10","18","11:00","-4.2","","-7.5","","78","","","","31","","23","","24.1","","97.47","","","","-11","","NA"
"-105.27","55.15","LA RONGE A","4064155","2020-10-18 12:00","2020","10","18","12:00","-3.5","","-7.2","","75","","","","28","","24","","24.1","","97.47","","","","-10","","Mostly Cloudy"
"-105.27","55.15","LA RONGE A","4064155","2020-10-18 13:00","2020","10","18","13:00","-2.1","","-6.4","","72","","","","30","","21","","24.1","","97.47","","","","-8","","NA"
"-105.27","55.15","LA RONGE A","4064155","2020-10-18 14:00","2020","10","18","14:00","-2.2","","-6.3","","74","","","","31","","19","","24.1","","97.46","","","","-8","","NA"
"-105.27","55.15","LA RONGE A","4064155","2020-10-18 15:00","2020","10","18","15:00","-2.2","","-6.8","","71","","","","30","","20","","24.1","","97.45","","","","-8","","Cloudy"
"-105.27","55.15","LA RONGE A","4064155","2020-10-18 16:00","2020","10","18","16:00","-2.3","","-7.0","","70","","","","29","","17","","24.1","","97.48","","","","-8","","NA"
"-105.27","55.15","LA RONGE A","4064155","2020-10-18 17:00","2020","10","18","17:00","-2.4","","-7.4","","69","","","","32","","18","","24.1","","97.50","","","","-8","","NA"
"-105.27","55.15","LA RONGE A","4064155","2020-10-18 18:00","2020","10","18","18:00","-2.8","","-7.7","","69","","","","30","","13","","24.1","","97.51","","","","-7","","Cloudy"
"-105.27","55.15","LA RONGE A","4064155","2020-10-18 19:00","2020","10","18","19:00","-2.8","","-8.2","","67","","","","31","","14","","24.1","","97.52","","","","-8","","NA"
"-105.27","55.15","LA RONGE A","4064155","2020-10-18 20:00","2020","10","18","20:00","-3.0","","-8.4","","66","","","","30","","10","","24.1","","97.54","","","","-7","","NA"
"-105.27","55.15","LA RONGE A","4064155","2020-10-18 21:00","2020","10","18","21:00","-4.0","","-8.7","","70","","","","30","","9","","24.1","","97.56","","","","-8","","Cloudy"
"-105.27","55.15","LA RONGE A","4064155","2020-10-18 22:00","2020","10","18","22:00","-3.7","","-7.0","","78","","","","31","","4","","16.1","","97.57","","","","-5","","Snow"
"-105.27","55.15","LA RONGE A","4064155","2020-10-18 23:00","2020","10","18","23:00","-3.3","","-8.0","","70","","","","28","","6","","19.3","","97.57","","","","-6","","Snow"
"-105.27","55.15","LA RONGE A","4064155","2020-10-19 00:00","2020","10","19","00:00","-3.4","","-8.0","","70","","","","28","","8","","24.1","","97.56","","","","-7","","Snow"
"-105.27","55.15","LA RONGE A","4064155","2020-10-19 01:00","2020","10","19","01:00","-3.6","","-7.4","","75","","","","29","","10","","24.1","","97.57","","","","-8","","Snow"
"-105.27","55.15","LA RONGE A","4064155","2020-10-19 02:00","2020","10","19","02:00","-3.8","","-7.4","","76","","","","30","","12","","24.1","","97.57","","","","-8","","Snow"
"-105.27","55.15","LA RONGE A","4064155","2020-10-19 03:00","2020","10","19","03:00","-4.0","","-7.3","","78","","","","29","","7","","24.1","","97.59","","","","-7","","Snow"
"-105.27","55.15","LA RONGE A","4064155","2020-10-19 04:00","2020","10","19","04:00","-4.8","","-7.5","","82","","","","28","","8","","24.1","","97.58","","","","-8","","Snow"
"-105.27","55.15","LA RONGE A","4064155","2020-10-19 05:00","2020","10","19","05:00","-4.6","","-7.8","","78","","","","27","","8","","24.1","","97.56","","","","-8","","NA"
"-105.27","55.15","LA RONGE A","4064155","2020-10-19 06:00","2020","10","19","06:00","-5.2","","-8.3","","79","","","","25","","7","","24.1","","97.57","","","","-8","","Mostly Cloudy"
"-105.27","55.15","LA RONGE A","4064155","2020-10-19 07:00","2020","10","19","07:00","-7.0","","-9.4","","83","","","","22","","5","","24.1","","97.58","","","","-10","","NA"
"-105.27","55.15","LA RONGE A","4064155","2020-10-19 08:00","2020","10","19","08:00","-6.6","","-8.1","","89","","","","21","","9","","24.1","","97.56","","","","-11","","NA"
"-105.27","55.15","LA RONGE A","4064155","2020-10-19 09:00","2020","10","19","09:00","-5.4","","-7.7","","84","","","","22","","10","","24.1","","97.56","","","","-10","","Mainly Clear"
"-105.27","55.15","LA RONGE A","4064155","2020-10-19 10:00","2020","10","19","10:00","-3.3","","-9.2","","64","","","","20","","11","","24.1","","97.55","","","","-8","","NA"
"-105.27","55.15","LA RONGE A","4064155","2020-10-19 11:00","2020","10","19","11:00","-2.4","","-10.3","","55","","","","19","","13","","24.1","","97.54","","","","-7","","NA"
"-105.27","55.15","LA RONGE A","4064155","2020-10-19 12:00","2020","10","19","12:00","-1.4","","-9.0","","56","","","","25","","18","","24.1","","97.50","","","","-7","","Mostly Cloudy"
"-105.27","55.15","LA RONGE A","4064155","2020-10-19 13:00","2020","10","19","13:00","-2.2","","-9.7","","56","","","","24","","14","","24.1","","97.45","","","","-7","","NA"
"-105.27","55.15","LA RONGE A","4064155","2020-10-19 14:00","2020","10","19","14:00","-2.2","","-10.7","","52","","","","24","","7","","24.1","","97.36","","","","-5","","NA"
"-105.27","55.15","LA RONGE A","4064155","2020-10-19 15:00","2020","10","19","15:00","-1.9","","-10.9","","50","","","","19","","14","","24.1","","97.30","","","","-7","","Snow"
"-105.27","55.15","LA RONGE A","4064155","2020-10-19 16:00","2020","10","19","16:00","-2.2","","-9.8","","56","","","","21","","7","","19.3","","97.28","","","","-5","","Snow"
"-105.27","55.15","LA RONGE A","4064155","2020-10-19 17:00","2020","10","19","17:00","-2.6","","-10.3","","56","","","","21","","8","","16.1","","97.27","","","","-6","","Snow"
"-105.27","55.15","LA RONGE A","4064155","2020-10-19 18:00","2020","10","19","18:00","-3.0","","-10.3","","57","","","","22","","9","","12.9","","97.27","","","","-7","","Snow"
"-105.27","55.15","LA RONGE A","4064155","2020-10-19 19:00","2020","10","19","19:00","-3.1","","-10.2","","58","","","","20","","8","","19.3","","97.24","","","","-6","","Snow"
"-105.27","55.15","LA RONGE A","4064155","2020-10-19 20:00","2020","10","19","20:00","-3.3","","-10.5","","58","","","","19","","7","","24.1","","97.22","","","","-6","","NA"
"-105.27","55.15","LA RONGE A","4064155","2020-10-19 21:00","2020","10","19","21:00","-3.5","","-10.9","","57","","","","20","","9","","24.1","","97.20","","","","-7","","Cloudy"
"-105.27","55.15","LA RONGE A","4064155","2020-10-19 22:00","2020","10","19","22:00","-3.7","","-11.5","","55","","","","20","","12","","24.1","","97.19","","","","-8","","NA"
"-105.27","55.15","LA RONGE A","4064155","2020-10-19 23:00","2020","10","19","23:00","-3.8","","-11.5","","55","","","","20","","10","","24.1","","97.20","","","","-8","","NA"
"-105.27","55.15","LA RONGE A","4064155","2020-10-20 00:00","2020","10","20","00:00","-4.0","","-11.1","","58","","","","21","","9","","24.1","","97.17","","","","-8","","Cloudy"
"-105.27","55.15","LA RONGE A","4064155","2020-10-20 01:00","2020","10","20","01:00","-3.9","","-11.2","","57","","","","19","","8","","24.1","","97.15","","","","-7","","NA"
"-105.27","55.15","LA RONGE A","4064155","2020-10-20 02:00","2020","10","20","02:00","-3.7","","-11.4","","55","","","","19","","9","","24.1","","97.14","","","","-7","","NA"
"-105.27","55.15","LA RONGE A","4064155","2020-10-20 03:00","2020","10","20","03:00","-4.1","","-10.9","","59","","","","20","","6","","24.1","","97.13","","","","-7","","Cloudy"
"-105.27","55.15","LA RONGE A","4064155","2020-10-20 04:00","2020","10","20","04:00","-4.4","","-10.8","","61","","","","22","","6","","24.1","","97.13","","","","-7","","NA"
"-105.27","55.15","LA RONGE A","4064155","2020-10-20 05:00","2020","10","20","05:00","-4.7","","-10.6","","64","","","","22","","5","","24.1","","97.12","","","","-7","","NA"
"-105.27","55.15","LA RONGE A","4064155","2020-10-20 06:00","2020","10","20","06:00","-5.1","","-10.7","","65","","","","24","","7","","24.1","","97.12","","","","-8","","Cloudy"
"-105.27","55.15","LA RONGE A","4064155","2020-10-20 07:00","2020","10","20","07:00","-5.8","","-10.4","","70","","","","24","","4","","24.1","","97.12","","","","-8","","NA"
"-105.27","55.15","LA RONGE A","4064155","2020-10-20 08:00","2020","10","20","08:00","-6.0","","-9.9","","74","","","","3","","7","","24.1","","97.13","","","","-9","","NA"
"-105.27","55.15","LA RONGE A","4064155","2020-10-20 09:00","2020","10","20","09:00","-5.0","","-9.8","","69","","","","36","","2","","24.1","","97.16","","","","-6","","Cloudy"
"-105.27","55.15","LA RONGE A","4064155","2020-10-20 10:00","2020","10","20","10:00","-4.3","","-9.1","","69","","","","28","","6","","24.1","","97.16","","","","-7","","NA"
"-105.27","55.15","LA RONGE A","4064155","2020-10-20 11:00","2020","10","20","11:00","-3.2","","-8.9","","65","","","","36","","5","","24.1","","97.17","","","","-5","","NA"
"-105.27","55.15","LA RONGE A","4064155","2020-10-20 12:00","2020","10","20","12:00","-2.8","","-8.9","","63","","","","4","","7","","24.1","","97.16","","","","-6","","Cloudy"
"-105.27","55.15","LA RONGE A","4064155","2020-10-20 13:00","2020","10","20","13:00","-2.6","","-8.8","","62","","","","33","","4","","24.1","","97.15","","","","-4","","NA"
"-105.27","55.15","LA RONGE A","4064155","2020-10-20 14:00","2020","10","20","14:00","-2.7","","-9.9","","58","","","","35","","7","","24.1","","97.16","","","","-6","","Snow"
"-105.27","55.15","LA RONGE A","4064155","2020-10-20 15:00","2020","10","20","15:00","-3.0","","-9.6","","60","","","","25","","4","","24.1","","97.16","","","","-5","","Snow"
"-105.27","55.15","LA RONGE A","4064155","2020-10-20 16:00","2020","10","20","16:00","-2.8","","-10.0","","58","","","","29","","4","","24.1","","97.17","","","","-4","","NA"
"-105.27","55.15","LA RONGE A","4064155","2020-10-20 17:00","2020","10","20","17:00","-3.1","","-9.2","","63","","","","26","","3","","24.1","","97.17","","","","-4","","NA"
"-105.27","55.15","LA RONGE A","4064155","2020-10-20 18:00","2020","10","20","18:00","-3.5","","-9.1","","66","","","","34","","3","","24.1","","97.20","","","","-5","","Cloudy"
"-105.27","55.15","LA RONGE A","4064155","2020-10-20 19:00","2020","10","20","19:00","-3.9","","-8.4","","71","","","","30","","8","","24.1","","97.22","","","","-7","","NA"
"-105.27","55.15","LA RONGE A","4064155","2020-10-20 20:00","2020","10","20","20:00","-4.3","","-7.9","","76","","","","31","","7","","19.3","","97.23","","","","-7","","Snow"
"-105.27","55.15","LA RONGE A","4064155","2020-10-20 21:00","2020","10","20","21:00","-4.5","","-7.1","","82","","","","33","","3","","19.3","","97.24","","","","-6","","Snow"
"-105.27","55.15","LA RONGE A","4064155","2020-10-20 22:00","2020","10","20","22:00","-4.3","","-7.5","","78","","","","22","","5","","24.1","","97.27","","","","-6","","NA"
"-105.27","55.15","LA RONGE A","4064155","2020-10-20 23:00","2020","10","20","23:00","-4.4","","-7.7","","78","","","","21","","5","","24.1","","97.26","","","","-7","","NA"
"-105.27","55.15","LA RONGE A","4064155","2020-10-21 00:00","2020","10","21","00:00","-4.8","","-8.2","","77","","","","27","","5","","24.1","","97.25","","","","-7","","Cloudy"
"-105.27","55.15","LA RONGE A","4064155","2020-10-21 01:00","2020","10","21","01:00","-4.9","","-8.6","","75","","","","29","","8","","24.1","","97.25","","","","-8","","NA"
"-105.27","55.15","LA RONGE A","4064155","2020-10-21 02:00","2020","10","21","02:00","-4.7","","-8.6","","74","","","","28","","9","","24.1","","97.26","","","","-9","","NA"
"-105.27","55.15","LA RONGE A","4064155","2020-10-21 03:00","2020","10","21","03:00","-4.7","","-8.4","","75","","","","28","","9","","24.1","","97.29","","","","-9","","Cloudy"
"-105.27","55.15","LA RONGE A","4064155","2020-10-21 04:00","2020","10","21","04:00","-4.9","","-8.4","","77","","","","28","","9","","24.1","","97.31","","","","-9","","NA"
"-105.27","55.15","LA RONGE A","4064155","2020-10-21 05:00","2020","10","21","05:00","-5.3","","-8.1","","81","","","","28","","6","","24.1","","97.31","","","","-8","","NA"
"-105.27","55.15","LA RONGE A","4064155","2020-10-21 06:00","2020","10","21","06:00","-5.3","","-7.9","","82","","","","27","","6","","24.1","","97.33","","","","-8","","Cloudy"
"-105.27","55.15","LA RONGE A","4064155","2020-10-21 07:00","2020","10","21","07:00","-5.4","","-7.9","","83","","","","27","","7","","24.1","","97.36","","","","-9","","NA"
"-105.27","55.15","LA RONGE A","4064155","2020-10-21 08:00","2020","10","21","08:00","-5.6","","-8.0","","83","","","","25","","5","","24.1","","97.39","","","","-8","","NA"
"-105.27","55.15","LA RONGE A","4064155","2020-10-21 09:00","2020","10","21","09:00","-5.1","","-8.1","","79","","","","26","","5","","24.1","","97.41","","","","-7","","Mostly Cloudy"
"-105.27","55.15","LA RONGE A","4064155","2020-10-21 10:00","2020","10","21","10:00","-3.8","","-7.9","","74","","","","25","","6","","24.1","","97.45","","","","-6","","NA"
"-105.27","55.15","LA RONGE A","4064155","2020-10-21 11:00","2020","10","21","11:00","-2.8","","-7.5","","70","","","","29","","10","","24.1","","97.48","","","","-7","","NA"
"-105.27","55.15","LA RONGE A","4064155","2020-10-21 12:00","2020","10","21","12:00","-2.4","","-7.8","","67","","","","29","","10","","24.1","","97.49","","","","-6","","Snow"
"-105.27","55.15","LA RONGE A","4064155","2020-10-21 13:00","2020","10","21","13:00","-2.9","","-6.4","","77","","","","26","","15","","19.3","","97.50","","","","-8","","Snow"
"-105.27","55.15","LA RONGE A","4064155","2020-10-21 14:00","2020","10","21","14:00","-1.7","","-7.1","","67","","","","32","","14","","24.1","","97.52","","","","-6","","Snow Showers"
"-105.27","55.15","LA RONGE A","4064155","2020-10-21 15:00","2020","10","21","15:00","-1.3","","-9.7","","53","","","","30","","22","","24.1","","97.55","","","","-7","","Snow Showers"
"-105.27","55.15","LA RONGE A","4064155","2020-10-21 16:00","2020","10","21","16:00","-2.2","","-8.9","","60","","","","31","","18","","24.1","","97.60","","","","-8","","NA"
"-105.27","55.15","LA RONGE A","4064155","2020-10-21 17:00","2020","10","21","17:00","-2.7","","-9.4","","60","","","","30","","14","","24.1","","97.64","","","","-8","","NA"
"-105.27","55.15","LA RONGE A","4064155","2020-10-21 18:00","2020","10","21","18:00","-3.5","","-10.1","","60","","","","29","","12","","24.1","","97.71","","","","-8","","Cloudy"
"-105.27","55.15","LA RONGE A","4064155","2020-10-21 19:00","2020","10","21","19:00","-3.7","","-9.6","","64","","","","29","","8","","24.1","","97.77","","","","-7","","NA"
"-105.27","55.15","LA RONGE A","4064155","2020-10-21 20:00","2020","10","21","20:00","-4.1","","-9.6","","66","","","","29","","7","","24.1","","97.80","","","","-7","","NA"
"-105.27","55.15","LA RONGE A","4064155","2020-10-21 21:00","2020","10","21","21:00","-4.5","","-9.9","","66","","","","30","","5","","24.1","","97.81","","","","-7","","Cloudy"
"-105.27","55.15","LA RONGE A","4064155","2020-10-21 22:00","2020","10","21","22:00","-5.5","","-9.5","","73","","","","30","","5","","24.1","","97.85","","","","-8","","NA"
"-105.27","55.15","LA RONGE A","4064155","2020-10-21 23:00","2020","10","21","23:00","-6.7","","-9.7","","79","","","","30","","7","","24.1","","97.87","","","","-10","","NA"
"-105.27","55.15","LA RONGE A","4064155","2020-10-22 00:00","2020","10","22","00:00","-6.3","","-9.8","","77","","","","29","","9","","24.1","","97.90","","","","-11","","Mostly Cloudy"
"-105.27","55.15","LA RONGE A","4064155","2020-10-22 01:00","2020","10","22","01:00","-5.9","","-9.6","","76","","","","27","","6","","24.1","","97.94","","","","-9","","NA"
"-105.27","55.15","LA RONGE A","4064155","2020-10-22 02:00","2020","10","22","02:00","-7.1","","-9.7","","82","","","","28","","8","","24.1","","97.98","","","","-11","","NA"
"-105.27","55.15","LA RONGE A","4064155","2020-10-22 03:00","2020","10","22","03:00","-7.3","","-9.9","","82","","","","27","","9","","24.1","","98.01","","","","-12","","Mostly Cloudy"
"-105.27","55.15","LA RONGE A","4064155","2020-10-22 04:00","2020","10","22","04:00","-8.5","","-10.1","","88","","","","26","","7","","24.1","","98.06","","","","-12","","NA"
"-105.27","55.15","LA RONGE A","4064155","2020-10-22 05:00","2020","10","22","05:00","-7.9","","-9.3","","90","","","","27","","11","","24.1","","98.08","","","","-13","","NA"
"-105.27","55.15","LA RONGE A","4064155","2020-10-22 06:00","2020","10","22","06:00","-7.3","","-8.7","","90","","","","27","","9","","19.3","","98.10","","","","-12","","Snow"
"-105.27","55.15","LA RONGE A","4064155","2020-10-22 07:00","2020","10","22","07:00","-7.3","","-8.5","","91","","","","26","","7","","19.3","","98.12","","","","-11","","Snow"
"-105.27","55.15","LA RONGE A","4064155","2020-10-22 08:00","2020","10","22","08:00","-6.6","","-7.9","","91","","","","27","","7","","9.7","","98.16","","","","-10","","Snow"
"-105.27","55.15","LA RONGE A","4064155","2020-10-22 09:00","2020","10","22","09:00","-6.1","","-7.5","","90","","","","26","","11","","24.1","","98.21","","","","-11","","Snow"
"-105.27","55.15","LA RONGE A","4064155","2020-10-22 10:00","2020","10","22","10:00","-5.0","","-6.9","","86","","","","27","","12","","24.1","","98.24","","","","-10","","NA"
"-105.27","55.15","LA RONGE A","4064155","2020-10-22 11:00","2020","10","22","11:00","-3.7","","-6.8","","79","","","","29","","14","","24.1","","98.27","","","","-9","","NA"
"-105.27","55.15","LA RONGE A","4064155","2020-10-22 12:00","2020","10","22","12:00","-2.9","","-8.7","","64","","","","28","","19","","24.1","","98.30","","","","-9","","Cloudy"
"-105.27","55.15","LA RONGE A","4064155","2020-10-22 13:00","2020","10","22","13:00","-2.5","","-9.1","","61","","","","30","","22","","24.1","","98.29","","","","-9","","NA"
"-105.27","55.15","LA RONGE A","4064155","2020-10-22 14:00","2020","10","22","14:00","-1.8","","-8.8","","59","","","","30","","20","","24.1","","98.28","","","","-8","","NA"
"-105.27","55.15","LA RONGE A","4064155","2020-10-22 15:00","2020","10","22","15:00","-2.5","","-8.0","","66","","","","29","","23","","9.7","","98.32","","","","-9","","Snow"
"-105.27","55.15","LA RONGE A","4064155","2020-10-22 16:00","2020","10","22","16:00","-2.9","","-8.8","","64","","","","29","","23","","24.1","","98.35","","","","-9","","Snow"
"-105.27","55.15","LA RONGE A","4064155","2020-10-22 17:00","2020","10","22","17:00","-3.1","","-8.9","","64","","","","31","","14","","24.1","","98.39","","","","-8","","Snow"
"-105.27","55.15","LA RONGE A","4064155","2020-10-22 18:00","2020","10","22","18:00","-3.2","","-9.2","","64","","","","29","","23","","24.1","","98.42","","","","-10","","Snow"
"-105.27","55.15","LA RONGE A","4064155","2020-10-22 19:00","2020","10","22","19:00","-3.4","","-9.2","","64","","","","29","","22","","24.1","","98.43","","","","-10","","Snow"
"-105.27","55.15","LA RONGE A","4064155","2020-10-22 20:00","2020","10","22","20:00","-3.7","","-9.2","","66","","","","31","","21","","24.1","","98.45","","","","-10","","Snow"
"-105.27","55.15","LA RONGE A","4064155","2020-10-22 21:00","2020","10","22","21:00","-4.5","","-9.5","","68","","","","31","","22","","24.1","","98.47","","","","-11","","Snow"
"-105.27","55.15","LA RONGE A","4064155","2020-10-22 22:00","2020","10","22","22:00","-5.2","","-9.6","","71","","","","31","","21","","24.1","","98.50","","","","-12","","Snow"
"-105.27","55.15","LA RONGE A","4064155","2020-10-22 23:00","2020","10","22","23:00","-4.7","","-9.3","","70","","","","30","","21","","24.1","","98.49","","","","-11","","Snow"
"-105.27","55.15","LA RONGE A","4064155","2020-10-23 00:00","2020","10","23","00:00","-5.1","","-8.3","","78","","","","30","","14","","19.3","","98.47","","","","-10","","Snow"
"-105.27","55.15","LA RONGE A","4064155","2020-10-23 01:00","2020","10","23","01:00","-5.3","","-8.6","","78","","","","29","","16","","24.1","","98.47","","","","-11","","Snow"
"-105.27","55.15","LA RONGE A","4064155","2020-10-23 02:00","2020","10","23","02:00","-5.0","","-9.7","","70","","","","31","","17","","19.3","","98.48","","","","-11","","Snow"
"-105.27","55.15","LA RONGE A","4064155","2020-10-23 03:00","2020","10","23","03:00","-5.3","","-10.6","","67","","","","30","","19","","19.3","","98.49","","","","-12","","Snow"
"-105.27","55.15","LA RONGE A","4064155","2020-10-23 04:00","2020","10","23","04:00","-6.7","","-10.5","","74","","","","28","","13","","19.3","","98.47","","","","-12","","Snow"
"-105.27","55.15","LA RONGE A","4064155","2020-10-23 05:00","2020","10","23","05:00","-7.5","","-10.6","","79","","","","27","","10","","19.3","","98.47","","","","-12","","Snow"
"-105.27","55.15","LA RONGE A","4064155","2020-10-23 06:00","2020","10","23","06:00","-7.7","","-10.4","","81","","","","27","","12","","19.3","","98.46","","","","-13","","Snow"
"-105.27","55.15","LA RONGE A","4064155","2020-10-23 07:00","2020","10","23","07:00","-7.2","","-9.8","","82","","","","28","","12","","19.3","","98.45","","","","-13","","Snow"
"-105.27","55.15","LA RONGE A","4064155","2020-10-23 08:00","2020","10","23","08:00","-6.7","","-9.4","","81","","","","27","","12","","16.1","","98.45","","","","-12","","Snow"
"-105.27","55.15","LA RONGE A","4064155","2020-10-23 09:00","2020","10","23","09:00","-6.4","","-8.9","","82","","","","28","","16","","24.1","","98.44","","","","-13","","Snow"
"-105.27","55.15","LA RONGE A","4064155","2020-10-23 10:00","2020","10","23","10:00","-5.7","","-8.5","","81","","","","27","","14","","24.1","","98.44","","","","-11","","Snow"
"-105.27","55.15","LA RONGE A","4064155","2020-10-23 11:00","2020","10","23","11:00","-4.8","","-8.4","","76","","","","29","","19","","24.1","","98.44","","","","-11","","Snow"
"-105.27","55.15","LA RONGE A","4064155","2020-10-23 12:00","2020","10","23","12:00","-4.3","","-8.9","","70","","","","29","","19","","24.1","","98.40","","","","-10","","Snow"
"-105.27","55.15","LA RONGE A","4064155","2020-10-23 13:00","2020","10","23","13:00","-3.8","","-10.3","","61","","","","31","","20","","24.1","","98.36","","","","-10","","Snow"
"-105.27","55.15","LA RONGE A","4064155","2020-10-23 14:00","2020","10","23","14:00","-4.5","","-8.4","","75","","","","29","","19","","6.4","","98.34","","","","-11","","Snow"
"-105.27","55.15","LA RONGE A","4064155","2020-10-23 15:00","2020","10","23","15:00","-4.0","","-8.7","","70","","","","28","","19","","16.1","","98.32","","","","-10","","Snow Showers"
"-105.27","55.15","LA RONGE A","4064155","2020-10-23 16:00","2020","10","23","16:00","-4.4","","-9.9","","65","","","","29","","19","","24.1","","98.29","","","","-11","","Snow Showers"
"-105.27","55.15","LA RONGE A","4064155","2020-10-23 17:00","2020","10","23","17:00","-4.4","","-11.1","","60","","","","30","","18","","24.1","","98.28","","","","-10","","Snow Showers"
"-105.27","55.15","LA RONGE A","4064155","2020-10-23 18:00","2020","10","23","18:00","-4.8","","-10.0","","67","","","","30","","13","","24.1","","98.26","","","","-10","","Snow Showers"
"-105.27","55.15","LA RONGE A","4064155","2020-10-23 19:00","2020","10","23","19:00","-4.8","","-10.6","","64","","","","29","","16","","24.1","","98.23","","","","-11","","Snow Showers"
"-105.27","55.15","LA RONGE A","4064155","2020-10-23 20:00","2020","10","23","20:00","-5.0","","-10.0","","68","","","","30","","14","","24.1","","98.25","","","","-10","","Snow Showers"
"-105.27","55.15","LA RONGE A","4064155","2020-10-23 21:00","2020","10","23","21:00","-5.0","","-10.4","","66","","","","30","","14","","24.1","","98.26","","","","-10","","Snow Showers"
"-105.27","55.15","LA RONGE A","4064155","2020-10-23 22:00","2020","10","23","22:00","-5.2","","-10.2","","68","","","","29","","13","","24.1","","98.28","","","","-10","","Snow Showers"
"-105.27","55.15","LA RONGE A","4064155","2020-10-23 23:00","2020","10","23","23:00","-5.2","","-10.2","","68","","","","31","","13","","24.1","","98.31","","","","-10","","Snow Showers"
"-105.27","55.15","LA RONGE A","4064155","2020-10-24 00:00","2020","10","24","00:00","-5.4","","-9.2","","75","","","","30","","13","","19.3","","98.32","","","","-11","","Snow Showers"
"-105.27","55.15","LA RONGE A","4064155","2020-10-24 01:00","2020","10","24","01:00","-5.3","","-9.4","","73","","","","32","","11","","16.1","","98.31","","","","-10","","Snow Showers"
"-105.27","55.15","LA RONGE A","4064155","2020-10-24 02:00","2020","10","24","02:00","-5.8","","-11.7","","63","","","","33","","14","","24.1","","98.34","","","","-11","","Snow Showers"
"-105.27","55.15","LA RONGE A","4064155","2020-10-24 03:00","2020","10","24","03:00","-6.2","","-12.5","","61","","","","33","","13","","19.3","","98.37","","","","-12","","Snow Showers"
"-105.27","55.15","LA RONGE A","4064155","2020-10-24 04:00","2020","10","24","04:00","-6.2","","-12.5","","61","","","","34","","14","","16.1","","98.39","","","","-12","","Snow"
"-105.27","55.15","LA RONGE A","4064155","2020-10-24 05:00","2020","10","24","05:00","-6.5","","-12.4","","63","","","","31","","8","","19.3","","98.39","","","","-10","","Snow"
"-105.27","55.15","LA RONGE A","4064155","2020-10-24 06:00","2020","10","24","06:00","-6.3","","-12.3","","62","","","","33","","8","","19.3","","98.42","","","","-10","","Snow"
"-105.27","55.15","LA RONGE A","4064155","2020-10-24 07:00","2020","10","24","07:00","-6.4","","-12.0","","64","","","","31","","10","","19.3","","98.43","","","","-11","","Snow"
"-105.27","55.15","LA RONGE A","4064155","2020-10-24 08:00","2020","10","24","08:00","-6.3","","-10.6","","72","","","","29","","9","","24.1","","98.45","","","","-11","","Snow"
"-105.27","55.15","LA RONGE A","4064155","2020-10-24 09:00","2020","10","24","09:00","-6.0","","-9.5","","77","","","","25","","7","","24.1","","98.48","","","","-9","","Snow"
"-105.27","55.15","LA RONGE A","4064155","2020-10-24 10:00","2020","10","24","10:00","-5.2","","-8.6","","77","","","","30","","18","","24.1","","98.50","","","","-11","","Snow"
"-105.27","55.15","LA RONGE A","4064155","2020-10-24 11:00","2020","10","24","11:00","-5.0","","-9.9","","69","","","","32","","22","","24.1","","98.50","","","","-12","","Snow"
"-105.27","55.15","LA RONGE A","4064155","2020-10-24 12:00","2020","10","24","12:00","-5.0","","-9.3","","72","","","","31","","17","","16.1","","98.51","","","","-11","","Snow"
"-105.27","55.15","LA RONGE A","4064155","2020-10-24 13:00","2020","10","24","13:00","-4.4","","-10.2","","64","","","","30","","20","","24.1","","98.47","","","","-11","","Snow"
"-105.27","55.15","LA RONGE A","4064155","2020-10-24 14:00","2020","10","24","14:00","-4.5","","-12.1","","55","","","","31","","16","","24.1","","98.46","","","","-10","","NA"
"-105.27","55.15","LA RONGE A","4064155","2020-10-24 15:00","2020","10","24","15:00","-4.2","","-12.0","","55","","","","29","","18","","24.1","","98.43","","","","-10","","Snow"
"-105.27","55.15","LA RONGE A","4064155","2020-10-24 16:00","2020","10","24","16:00","-4.3","","-11.7","","57","","","","31","","17","","24.1","","98.43","","","","-10","","Snow"
"-105.27","55.15","LA RONGE A","4064155","2020-10-24 17:00","2020","10","24","17:00","-4.4","","-11.9","","56","","","","29","","17","","24.1","","98.40","","","","-10","","Snow"
"-105.27","55.15","LA RONGE A","4064155","2020-10-24 18:00","2020","10","24","18:00","-4.2","","-11.0","","59","","","","28","","17","","24.1","","98.42","","","","-10","","Snow"
"-105.27","55.15","LA RONGE A","4064155","2020-10-24 19:00","2020","10","24","19:00","-4.2","","-11.4","","58","","","","28","","15","","24.1","","98.41","","","","-10","","Snow"
"-105.27","55.15","LA RONGE A","4064155","2020-10-24 20:00","2020","10","24","20:00","-4.4","","-10.7","","62","","","","28","","13","","24.1","","98.41","","","","-9","","Snow"
"-105.27","55.15","LA RONGE A","4064155","2020-10-24 21:00","2020","10","24","21:00","-4.7","","-10.7","","63","","","","26","","13","","24.1","","98.41","","","","-10","","Snow"
"-105.27","55.15","LA RONGE A","4064155","2020-10-24 22:00","2020","10","24","22:00","-5.2","","-10.5","","66","","","","27","","14","","24.1","","98.39","","","","-11","","Snow"
"-105.27","55.15","LA RONGE A","4064155","2020-10-24 23:00","2020","10","24","23:00","-5.4","","-11.3","","63","","","","27","","16","","24.1","","98.38","","","","-11","","Snow"
"-105.27","55.15","LA RONGE A","4064155","2020-10-25 00:00","2020","10","25","00:00","-5.5","","-11.6","","63","","","","27","","16","","24.1","","98.35","","","","-11","","Snow"
"-105.27","55.15","LA RONGE A","4064155","2020-10-25 01:00","2020","10","25","01:00","-5.8","","-11.6","","64","","","","26","","14","","19.3","","98.32","","","","-11","","Snow"
"-105.27","55.15","LA RONGE A","4064155","2020-10-25 02:00","2020","10","25","02:00","-5.8","","-11.6","","64","","","","26","","12","","19.3","","98.28","","","","-11","","Snow"
"-105.27","55.15","LA RONGE A","4064155","2020-10-25 03:00","2020","10","25","03:00","-5.7","","-11.4","","64","","","","27","","12","","24.1","","98.26","","","","-11","","Snow"
"-105.27","55.15","LA RONGE A","4064155","2020-10-25 04:00","2020","10","25","04:00","-5.6","","-10.9","","66","","","","27","","12","","19.3","","98.23","","","","-11","","Snow"
"-105.27","55.15","LA RONGE A","4064155","2020-10-25 05:00","2020","10","25","05:00","-5.5","","-10.5","","68","","","","27","","10","","19.3","","98.21","","","","-10","","Snow"
"-105.27","55.15","LA RONGE A","4064155","2020-10-25 06:00","2020","10","25","06:00","-5.5","","-9.9","","71","","","","28","","13","","19.3","","98.19","","","","-11","","Snow"
"-105.27","55.15","LA RONGE A","4064155","2020-10-25 07:00","2020","10","25","07:00","-5.6","","-9.7","","73","","","","27","","13","","19.3","","98.19","","","","-11","","Snow"
"-105.27","55.15","LA RONGE A","4064155","2020-10-25 08:00","2020","10","25","08:00","-5.5","","-9.3","","75","","","","28","","14","","24.1","","98.17","","","","-11","","Snow"
"-105.27","55.15","LA RONGE A","4064155","2020-10-25 09:00","2020","10","25","09:00","-5.1","","-8.9","","75","","","","27","","15","","24.1","","98.18","","","","-11","","Snow"
"-105.27","55.15","LA RONGE A","4064155","2020-10-25 10:00","2020","10","25","10:00","-4.5","","-8.4","","74","","","","28","","15","","24.1","","98.16","","","","-10","","Snow"
"-105.27","55.15","LA RONGE A","4064155","2020-10-25 11:00","2020","10","25","11:00","-4.0","","-10.3","","62","","","","25","","14","","24.1","","98.11","","","","-9","","Snow"
"-105.27","55.15","LA RONGE A","4064155","2020-10-25 12:00","2020","10","25","12:00","-3.9","","-9.5","","65","","","","29","","11","","24.1","","98.07","","","","-8","","Snow"
"-105.27","55.15","LA RONGE A","4064155","2020-10-25 13:00","2020","10","25","13:00","-3.9","","-9.7","","64","","","","26","","15","","24.1","","98.01","","","","-9","","Snow"
"-105.27","55.15","LA RONGE A","4064155","2020-10-25 14:00","2020","10","25","14:00","-3.4","","-11.6","","53","","","","25","","14","","24.1","","97.94","","","","-8","","Snow"
"-105.27","55.15","LA RONGE A","4064155","2020-10-25 15:00","2020","10","25","15:00","-3.0","","-11.7","","52","","","","25","","12","","24.1","","97.86","","","","-7","","Snow"
"-105.27","55.15","LA RONGE A","4064155","2020-10-25 16:00","2020","10","25","16:00","-2.7","","-11.8","","50","","","","23","","12","","24.1","","97.78","","","","-7","","NA"
"-105.27","55.15","LA RONGE A","4064155","2020-10-25 17:00","2020","10","25","17:00","-3.6","","-11.6","","54","","","","22","","11","","24.1","","97.71","","","","-8","","NA"
"-105.27","55.15","LA RONGE A","4064155","2020-10-25 18:00","2020","10","25","18:00","-4.9","","-11.8","","59","","","","20","","10","","24.1","","97.66","","","","-9","","Mainly Clear"
"-105.27","55.15","LA RONGE A","4064155","2020-10-25 19:00","2020","10","25","19:00","-6.0","","-11.8","","64","","","","19","","11","","24.1","","97.62","","","","-11","","NA"
"-105.27","55.15","LA RONGE A","4064155","2020-10-25 20:00","2020","10","25","20:00","-6.8","","-11.9","","67","","","","18","","11","","24.1","","97.55","","","","-12","","NA"
"-105.27","55.15","LA RONGE A","4064155","2020-10-25 21:00","2020","10","25","21:00","-7.1","","-11.8","","69","","","","18","","12","","24.1","","97.48","","","","-12","","Clear"
"-105.27","55.15","LA RONGE A","4064155","2020-10-25 22:00","2020","10","25","22:00","-7.5","","-11.8","","71","","","","20","","10","","24.1","","97.40","","","","-12","","NA"
"-105.27","55.15","LA RONGE A","4064155","2020-10-25 23:00","2020","10","25","23:00","-8.1","","-12.0","","74","","","","19","","11","","24.1","","97.33","","","","-13","","NA"
"-105.27","55.15","LA RONGE A","4064155","2020-10-26 00:00","2020","10","26","00:00","-7.9","","-12.5","","70","","","","19","","12","","24.1","","97.21","","","","-13","","Mostly Cloudy"
"-105.27","55.15","LA RONGE A","4064155","2020-10-26 01:00","2020","10","26","01:00","-7.8","","-12.4","","70","","","","19","","11","","24.1","","97.09","","","","-13","","NA"
"-105.27","55.15","LA RONGE A","4064155","2020-10-26 02:00","2020","10","26","02:00","-8.2","","-12.7","","70","","","","20","","10","","24.1","","96.98","","","","-13","","NA"
"-105.27","55.15","LA RONGE A","4064155","2020-10-26 03:00","2020","10","26","03:00","-8.0","","-12.8","","68","","","","21","","10","","24.1","","96.89","","","","-13","","Mostly Cloudy"
"-105.27","55.15","LA RONGE A","4064155","2020-10-26 04:00","2020","10","26","04:00","-8.2","","-12.9","","69","","","","21","","12","","24.1","","96.83","","","","-14","","NA"
"-105.27","55.15","LA RONGE A","4064155","2020-10-26 05:00","2020","10","26","05:00","-8.7","","-12.9","","71","","","","22","","8","","24.1","","96.80","","","","-13","","NA"
"-105.27","55.15","LA RONGE A","4064155","2020-10-26 06:00","2020","10","26","06:00","-7.7","","-12.7","","68","","","","22","","10","","24.1","","96.75","","","","-13","","Mostly Cloudy"
"-105.27","55.15","LA RONGE A","4064155","2020-10-26 07:00","2020","10","26","07:00","-8.0","","-12.6","","70","","","","23","","10","","24.1","","96.74","","","","-13","","NA"
"-105.27","55.15","LA RONGE A","4064155","2020-10-26 08:00","2020","10","26","08:00","-9.3","","-12.7","","77","","","","23","","7","","24.1","","96.71","","","","-13","","NA"
"-105.27","55.15","LA RONGE A","4064155","2020-10-26 09:00","2020","10","26","09:00","-7.9","","-11.5","","75","","","","25","","8","","24.1","","96.73","","","","-12","","Clear"
"-105.27","55.15","LA RONGE A","4064155","2020-10-26 10:00","2020","10","26","10:00","-5.5","","-10.6","","68","","","","29","","12","","24.1","","96.72","","","","-10","","NA"
"-105.27","55.15","LA RONGE A","4064155","2020-10-26 11:00","2020","10","26","11:00","-3.7","","-10.1","","61","","","","28","","18","","24.1","","96.74","","","","-10","","NA"
"-105.27","55.15","LA RONGE A","4064155","2020-10-26 12:00","2020","10","26","12:00","-2.3","","-9.7","","57","","","","30","","21","","24.1","","96.75","","","","-8","","Clear"
"-105.27","55.15","LA RONGE A","4064155","2020-10-26 13:00","2020","10","26","13:00","-1.0","","-9.8","","52","","","","29","","21","","24.1","","96.74","","","","-7","","NA"
"-105.27","55.15","LA RONGE A","4064155","2020-10-26 14:00","2020","10","26","14:00","-0.8","","-9.9","","50","","","","29","","20","","24.1","","96.69","","","","-6","","NA"
"-105.27","55.15","LA RONGE A","4064155","2020-10-26 15:00","2020","10","26","15:00","-0.9","","-9.6","","52","","","","28","","24","","24.1","","96.69","","","","-7","","Mainly Clear"
"-105.27","55.15","LA RONGE A","4064155","2020-10-26 16:00","2020","10","26","16:00","-0.8","","-9.6","","52","","","","28","","18","","24.1","","96.70","","","","-6","","NA"
"-105.27","55.15","LA RONGE A","4064155","2020-10-26 17:00","2020","10","26","17:00","-1.6","","-9.2","","56","","","","28","","13","","24.1","","96.71","","","","-6","","NA"
"-105.27","55.15","LA RONGE A","4064155","2020-10-26 18:00","2020","10","26","18:00","-2.6","","-9.4","","60","","","","26","","8","","24.1","","96.66","","","","-6","","Mostly Cloudy"
"-105.27","55.15","LA RONGE A","4064155","2020-10-26 19:00","2020","10","26","19:00","-3.3","","-9.7","","61","","","","26","","9","","24.1","","96.61","","","","-7","","NA"
"-105.27","55.15","LA RONGE A","4064155","2020-10-26 20:00","2020","10","26","20:00","-3.6","","-10.0","","62","","","","27","","7","","24.1","","96.52","","","","-7","","NA"
"-105.27","55.15","LA RONGE A","4064155","2020-10-26 21:00","2020","10","26","21:00","-4.4","","-9.5","","68","","","","25","","9","","24.1","","96.43","","","","-8","","Mostly Cloudy"
"-105.27","55.15","LA RONGE A","4064155","2020-10-26 22:00","2020","10","26","22:00","-4.8","","-9.7","","69","","","","22","","11","","24.1","","96.33","","","","-9","","NA"
"-105.27","55.15","LA RONGE A","4064155","2020-10-26 23:00","2020","10","26","23:00","-4.7","","-9.0","","72","","","","23","","8","","24.1","","96.21","","","","-8","","NA"
"-105.27","55.15","LA RONGE A","4064155","2020-10-27 00:00","2020","10","27","00:00","-5.1","","-8.8","","76","","","","17","","5","","24.1","","96.04","","","","-7","","Cloudy"
"-105.27","55.15","LA RONGE A","4064155","2020-10-27 01:00","2020","10","27","01:00","-4.8","","-8.3","","76","","","","15","","4","","24.1","","95.99","","","","-7","","NA"
"-105.27","55.15","LA RONGE A","4064155","2020-10-27 02:00","2020","10","27","02:00","-4.7","","-5.9","","91","","","","18","","16","","2.4","","95.87","","","","-10","","Snow"
"-105.27","55.15","LA RONGE A","4064155","2020-10-27 03:00","2020","10","27","03:00","-4.6","","-5.7","","92","","","","17","","16","","2.4","","95.67","","","","-10","","Snow"
"-105.27","55.15","LA RONGE A","4064155","2020-10-27 04:00","2020","10","27","04:00","-3.9","","-5.2","","91","","","","16","","17","","4.8","","95.52","","","","-10","","Snow"
"-105.27","55.15","LA RONGE A","4064155","2020-10-27 05:00","2020","10","27","05:00","-3.4","","-5.0","","89","","","","16","","21","","9.7","","95.39","","","","-10","","Snow"
"-105.27","55.15","LA RONGE A","4064155","2020-10-27 06:00","2020","10","27","06:00","-3.2","","-4.7","","89","","","","14","","12","","16.1","","95.32","","","","-8","","Snow"
"-105.27","55.15","LA RONGE A","4064155","2020-10-27 07:00","2020","10","27","07:00","-3.0","","-4.4","","90","","","","12","","13","","16.1","","95.21","","","","-8","","Snow"
"-105.27","55.15","LA RONGE A","4064155","2020-10-27 08:00","2020","10","27","08:00","-2.9","","-4.5","","88","","","","13","","11","","24.1","","95.22","","","","-7","","Snow"
"-105.27","55.15","LA RONGE A","4064155","2020-10-27 09:00","2020","10","27","09:00","-2.6","","-4.2","","89","","","","12","","9","","24.1","","95.22","","","","-6","","Snow"
"-105.27","55.15","LA RONGE A","4064155","2020-10-27 10:00","2020","10","27","10:00","-2.3","","-4.1","","88","","","","12","","8","","24.1","","95.25","","","","-5","","Snow"
"-105.27","55.15","LA RONGE A","4064155","2020-10-27 11:00","2020","10","27","11:00","-2.2","","-4.0","","88","","","","15","","7","","24.1","","95.31","","","","-5","","Snow"
"-105.27","55.15","LA RONGE A","4064155","2020-10-27 12:00","2020","10","27","12:00","-2.0","","-3.8","","87","","","","10","","5","","19.3","","95.37","","","","-4","","Snow"
"-105.27","55.15","LA RONGE A","4064155","2020-10-27 13:00","2020","10","27","13:00","-1.8","","-3.6","","87","","","","9","","8","","19.3","","95.42","","","","-5","","Snow"
"-105.27","55.15","LA RONGE A","4064155","2020-10-27 14:00","2020","10","27","14:00","-1.9","","-2.9","","93","","","","8","","8","","3.2","","95.43","","","","-5","","Snow,Fog"
"-105.27","55.15","LA RONGE A","4064155","2020-10-27 15:00","2020","10","27","15:00","-2.0","","-3.2","","91","","","","8","","10","","2.4","","95.51","","","","-6","","Snow,Fog"
"-105.27","55.15","LA RONGE A","4064155","2020-10-27 16:00","2020","10","27","16:00","-2.2","","-4.0","","88","","","","8","","18","","1.6","","95.59","","","","-8","","Snow"
"-105.27","55.15","LA RONGE A","4064155","2020-10-27 17:00","2020","10","27","17:00","-2.6","","-3.9","","91","","","","9","","13","","1.6","","95.68","","","","-7","","Snow"
"-105.27","55.15","LA RONGE A","4064155","2020-10-27 18:00","2020","10","27","18:00","-2.7","","-4.1","","90","","","","9","","14","","1.6","","95.78","","","","-8","","Snow"
"-105.27","55.15","LA RONGE A","4064155","2020-10-27 19:00","2020","10","27","19:00","-2.9","","-4.3","","90","","","","9","","15","","1.6","","95.89","","","","-8","","Snow"
"-105.27","55.15","LA RONGE A","4064155","2020-10-27 20:00","2020","10","27","20:00","-2.4","","-3.8","","90","","","","6","","16","","1.6","","95.98","","","","-8","","Snow"
"-105.27","55.15","LA RONGE A","4064155","2020-10-27 21:00","2020","10","27","21:00","-2.2","","-3.4","","91","","","","6","","16","","4.8","","96.11","","","","-7","","Snow"
"-105.27","55.15","LA RONGE A","4064155","2020-10-27 22:00","2020","10","27","22:00","-2.8","","-4.1","","91","","","","2","","13","","4.8","","96.21","","","","-7","","Snow"
"-105.27","55.15","LA RONGE A","4064155","2020-10-27 23:00","2020","10","27","23:00","-2.5","","-4.5","","86","","","","2","","19","","8.1","","96.32","","","","-8","","Snow"
"-105.27","55.15","LA RONGE A","4064155","2020-10-28 00:00","2020","10","28","00:00","-2.9","","-4.6","","88","","","","2","","18","","9.7","","96.48","","","","-9","","Snow"
"-105.27","55.15","LA RONGE A","4064155","2020-10-28 01:00","2020","10","28","01:00","-4.1","","-6.6","","83","","","","3","","25","","12.9","","96.63","","","","-11","","Snow"
"-105.27","55.15","LA RONGE A","4064155","2020-10-28 02:00","2020","10","28","02:00","-4.8","","-7.1","","84","","","","3","","22","","19.3","","96.76","","","","-12","","Snow"
"-105.27","55.15","LA RONGE A","4064155","2020-10-28 03:00","2020","10","28","03:00","-4.7","","-6.9","","84","","","","5","","10","","19.3","","96.88","","","","-9","","Snow"
"-105.27","55.15","LA RONGE A","4064155","2020-10-28 04:00","2020","10","28","04:00","-4.7","","-7.1","","84","","","","3","","13","","16.1","","96.95","","","","-10","","Snow"
"-105.27","55.15","LA RONGE A","4064155","2020-10-28 05:00","2020","10","28","05:00","-5.2","","-7.3","","85","","","","36","","9","","12.9","","97.02","","","","-9","","Snow"
"-105.27","55.15","LA RONGE A","4064155","2020-10-28 06:00","2020","10","28","06:00","-5.7","","-8.0","","84","","","","2","","15","","8.1","","97.14","","","","-11","","Snow"
"-105.27","55.15","LA RONGE A","4064155","2020-10-28 07:00","2020","10","28","07:00","-5.7","","-7.8","","85","","","","6","","8","","6.4","","97.18","","","","-9","","Snow"
"-105.27","55.15","LA RONGE A","4064155","2020-10-28 08:00","2020","10","28","08:00","-6.1","","-7.9","","87","","","","2","","8","","6.4","","97.25","","","","-10","","Snow"
"-105.27","55.15","LA RONGE A","4064155","2020-10-28 09:00","2020","10","28","09:00","-6.0","","-8.0","","86","","","","1","","9","","12.9","","97.34","","","","-10","","Snow"
"-105.27","55.15","LA RONGE A","4064155","2020-10-28 10:00","2020","10","28","10:00","-5.8","","-7.7","","87","","","","1","","9","","4.8","","97.40","","","","-10","","Snow"
"-105.27","55.15","LA RONGE A","4064155","2020-10-28 11:00","2020","10","28","11:00","-5.2","","-7.1","","87","","","","36","","8","","9.7","","97.42","","","","-9","","Snow"
"-105.27","55.15","LA RONGE A","4064155","2020-10-28 12:00","2020","10","28","12:00","-4.4","","-6.8","","83","","","","15","","5","","16.1","","97.44","","","","-7","","Snow"
"-105.27","55.15","LA RONGE A","4064155","2020-10-28 13:00","2020","10","28","13:00","-4.1","","-6.8","","82","","","","17","","11","","12.9","","97.45","","","","-9","","Snow"
"-105.27","55.15","LA RONGE A","4064155","2020-10-28 14:00","2020","10","28","14:00","-3.8","","-6.2","","84","","","","16","","8","","19.3","","97.43","","","","-7","","Snow"
"-105.27","55.15","LA RONGE A","4064155","2020-10-28 15:00","2020","10","28","15:00","-3.4","","-5.9","","83","","","","16","","4","","24.1","","97.40","","","","-5","","Snow"
"-105.27","55.15","LA RONGE A","4064155","2020-10-28 16:00","2020","10","28","16:00","-3.3","","-5.3","","86","","","","16","","6","","16.1","","97.38","","","","-6","","Snow"
"-105.27","55.15","LA RONGE A","4064155","2020-10-28 17:00","2020","10","28","17:00","-3.1","","-4.6","","89","","","","16","","3","","8.1","","97.37","","","","-4","","Snow"
"-105.27","55.15","LA RONGE A","4064155","2020-10-28 18:00","2020","10","28","18:00","-2.9","","-4.3","","90","","","","19","","6","","9.7","","97.34","","","","-5","","Snow"
"-105.27","55.15","LA RONGE A","4064155","2020-10-28 19:00","2020","10","28","19:00","-2.8","","-4.1","","91","","","","17","","10","","24.1","","97.31","","","","-7","","Snow"
"-105.27","55.15","LA RONGE A","4064155","2020-10-28 20:00","2020","10","28","20:00","-2.3","","-4.1","","88","","","","19","","7","","24.1","","97.28","","","","-5","","Snow"
"-105.27","55.15","LA RONGE A","4064155","2020-10-28 21:00","2020","10","28","21:00","-2.7","","-4.5","","87","","","","20","","8","","24.1","","97.22","","","","-6","","Cloudy"
"-105.27","55.15","LA RONGE A","4064155","2020-10-28 22:00","2020","10","28","22:00","-2.6","","-4.9","","84","","","","19","","10","","24.1","","97.16","","","","-6","","NA"
"-105.27","55.15","LA RONGE A","4064155","2020-10-28 23:00","2020","10","28","23:00","-2.6","","-5.0","","84","","","","18","","15","","24.1","","97.11","","","","-8","","NA"
"-105.27","55.15","LA RONGE A","4064155","2020-10-29 00:00","2020","10","29","00:00","-2.9","","-4.9","","87","","","","18","","15","","24.1","","97.09","","","","-8","","Cloudy"
"-105.27","55.15","LA RONGE A","4064155","2020-10-29 01:00","2020","10","29","01:00","-3.0","","-5.0","","87","","","","18","","14","","24.1","","97.04","","","","-8","","NA"
"-105.27","55.15","LA RONGE A","4064155","2020-10-29 02:00","2020","10","29","02:00","-3.2","","-4.9","","88","","","","18","","14","","24.1","","96.97","","","","-8","","NA"
"-105.27","55.15","LA RONGE A","4064155","2020-10-29 03:00","2020","10","29","03:00","-3.0","","-4.7","","88","","","","18","","19","","24.1","","96.91","","","","-9","","Mostly Cloudy"
"-105.27","55.15","LA RONGE A","4064155","2020-10-29 04:00","2020","10","29","04:00","-3.1","","-4.8","","89","","","","18","","14","","24.1","","96.84","","","","-8","","NA"
"-105.27","55.15","LA RONGE A","4064155","2020-10-29 05:00","2020","10","29","05:00","-2.9","","-4.5","","88","","","","19","","12","","24.1","","96.79","","","","-7","","NA"
"-105.27","55.15","LA RONGE A","4064155","2020-10-29 06:00","2020","10","29","06:00","-2.7","","-4.5","","88","","","","20","","12","","24.1","","96.73","","","","-7","","Snow"
"-105.27","55.15","LA RONGE A","4064155","2020-10-29 07:00","2020","10","29","07:00","-3.2","","-4.7","","89","","","","20","","11","","19.3","","96.66","","","","-7","","Snow"
"-105.27","55.15","LA RONGE A","4064155","2020-10-29 08:00","2020","10","29","08:00","-3.8","","-5.0","","91","","","","22","","7","","24.1","","96.69","","","","-7","","Snow"
"-105.27","55.15","LA RONGE A","4064155","2020-10-29 09:00","2020","10","29","09:00","-4.0","","-5.2","","91","","","","22","","7","","24.1","","96.71","","","","-7","","Mostly Cloudy"
"-105.27","55.15","LA RONGE A","4064155","2020-10-29 10:00","2020","10","29","10:00","-3.1","","-4.5","","90","","","","25","","8","","24.1","","96.75","","","","-6","","NA"
"-105.27","55.15","LA RONGE A","4064155","2020-10-29 11:00","2020","10","29","11:00","-1.9","","-3.8","","87","","","","26","","9","","24.1","","96.76","","","","-5","","NA"
"-105.27","55.15","LA RONGE A","4064155","2020-10-29 12:00","2020","10","29","12:00","-0.7","","-3.0","","84","","","","28","","14","","24.1","","96.78","","","","-5","","Cloudy"
"-105.27","55.15","LA RONGE A","4064155","2020-10-29 13:00","2020","10","29","13:00","-0.2","","-2.8","","83","","","","31","","10","","24.1","","96.80","","","","-4","","NA"
"-105.27","55.15","LA RONGE A","4064155","2020-10-29 14:00","2020","10","29","14:00","0.2","","-3.0","","79","","","","33","","19","","24.1","","96.86","","","","","","NA"
"-105.27","55.15","LA RONGE A","4064155","2020-10-29 15:00","2020","10","29","15:00","-0.3","","-3.5","","79","","","","30","","17","","24.1","","96.94","","","","-5","","Cloudy"
"-105.27","55.15","LA RONGE A","4064155","2020-10-29 16:00","2020","10","29","16:00","-0.5","","-4.8","","73","","","","32","","22","","24.1","","97.03","","","","-6","","NA"
"-105.27","55.15","LA RONGE A","4064155","2020-10-29 17:00","2020","10","29","17:00","-1.6","","-6.2","","71","","","","32","","19","","24.1","","97.12","","","","-7","","NA"
"-105.27","55.15","LA RONGE A","4064155","2020-10-29 18:00","2020","10","29","18:00","-2.2","","-7.3","","68","","","","33","","19","","24.1","","97.22","","","","-8","","Cloudy"
"-105.27","55.15","LA RONGE A","4064155","2020-10-29 19:00","2020","10","29","19:00","-3.0","","-7.5","","71","","","","33","","11","","24.1","","97.28","","","","-7","","NA"
"-105.27","55.15","LA RONGE A","4064155","2020-10-29 20:00","2020","10","29","20:00","-3.4","","-8.5","","68","","","","32","","11","","24.1","","97.32","","","","-8","","NA"
"-105.27","55.15","LA RONGE A","4064155","2020-10-29 21:00","2020","10","29","21:00","-3.6","","-8.4","","70","","","","36","","11","","24.1","","97.39","","","","-8","","Cloudy"
"-105.27","55.15","LA RONGE A","4064155","2020-10-29 22:00","2020","10","29","22:00","-3.9","","-8.2","","73","","","","32","","8","","24.1","","97.43","","","","-7","","NA"
"-105.27","55.15","LA RONGE A","4064155","2020-10-29 23:00","2020","10","29","23:00","-4.3","","-8.7","","72","","","","32","","8","","24.1","","97.43","","","","-8","","NA"
"-105.27","55.15","LA RONGE A","4064155","2020-10-30 00:00","2020","10","30","00:00","-4.3","","-9.3","","69","","","","31","","10","","24.1","","97.44","","","","-8","","Cloudy"
"-105.27","55.15","LA RONGE A","4064155","2020-10-30 01:00","2020","10","30","01:00","-4.3","","-9.4","","68","","","","32","","5","","24.1","","97.43","","","","-6","","NA"
"-105.27","55.15","LA RONGE A","4064155","2020-10-30 02:00","2020","10","30","02:00","-4.9","","-8.5","","76","","","","33","","8","","24.1","","97.42","","","","-8","","NA"
"-105.27","55.15","LA RONGE A","4064155","2020-10-30 03:00","2020","10","30","03:00","-5.3","","-8.6","","78","","","","36","","10","","24.1","","97.38","","","","-10","","Cloudy"
"-105.27","55.15","LA RONGE A","4064155","2020-10-30 04:00","2020","10","30","04:00","-5.7","","-8.5","","81","","","","30","","8","","24.1","","97.37","","","","-9","","NA"
"-105.27","55.15","LA RONGE A","4064155","2020-10-30 05:00","2020","10","30","05:00","-5.9","","-8.5","","82","","","","32","","5","","24.1","","97.31","","","","-8","","NA"
"-105.27","55.15","LA RONGE A","4064155","2020-10-30 06:00","2020","10","30","06:00","-5.9","","-9.0","","79","","","","35","","5","","24.1","","97.21","","","","-8","","Cloudy"
"-105.27","55.15","LA RONGE A","4064155","2020-10-30 07:00","2020","10","30","07:00","-5.7","","-8.5","","81","","","","3","","3","","24.1","","97.12","","","","-7","","NA"
"-105.27","55.15","LA RONGE A","4064155","2020-10-30 08:00","2020","10","30","08:00","-5.9","","-8.1","","85","","","","27","","5","","24.1","","97.04","","","","-8","","NA"
"-105.27","55.15","LA RONGE A","4064155","2020-10-30 09:00","2020","10","30","09:00","-4.3","","-9.1","","69","","","","13","","14","","24.1","","96.97","","","","-9","","Cloudy"
"-105.27","55.15","LA RONGE A","4064155","2020-10-30 10:00","2020","10","30","10:00","-4.0","","-8.6","","70","","","","14","","24","","24.1","","96.88","","","","-11","","NA"
"-105.27","55.15","LA RONGE A","4064155","2020-10-30 11:00","2020","10","30","11:00","-4.0","","-9.3","","67","","","","14","","31","","24.1","","96.74","","","","-12","","NA"
"-105.27","55.15","LA RONGE A","4064155","2020-10-30 12:00","2020","10","30","12:00","-4.2","","-9.1","","69","","","","12","","21","","24.1","","96.62","","","","-11","","Cloudy"
"-105.27","55.15","LA RONGE A","4064155","2020-10-30 13:00","2020","10","30","13:00","-4.5","","-8.2","","76","","","","9","","26","","4.8","","96.34","","","","-12","","Snow,Blowing Snow"
"-105.27","55.15","LA RONGE A","4064155","2020-10-30 14:00","2020","10","30","14:00","-5.2","","-7.2","","86","","","","9","","27","","1.2","","96.12","","","","-13","","Snow,Blowing Snow"
"-105.27","55.15","LA RONGE A","4064155","2020-10-30 15:00","2020","10","30","15:00","-5.2","","-6.9","","88","","","","9","","27","","0.8","","96.01","","","","-13","","Snow,Blowing Snow"
"-105.27","55.15","LA RONGE A","4064155","2020-10-30 16:00","2020","10","30","16:00","-5.4","","-7.0","","89","","","","7","","24","","0.6","","95.85","","","","-13","","Moderate Snow"
"-105.27","55.15","LA RONGE A","4064155","2020-10-30 17:00","2020","10","30","17:00","-5.6","","-7.4","","87","","","","8","","32","","0.6","","95.76","","","","-14","","Moderate Snow"
"-105.27","55.15","LA RONGE A","4064155","2020-10-30 18:00","2020","10","30","18:00","-5.4","","-6.8","","90","","","","7","","25","","0.8","","95.67","","","","-13","","Moderate Snow"
"-105.27","55.15","LA RONGE A","4064155","2020-10-30 19:00","2020","10","30","19:00","-5.3","","-7.0","","88","","","","7","","25","","0.8","","95.60","","","","-13","","Moderate Snow"
"-105.27","55.15","LA RONGE A","4064155","2020-10-30 20:00","2020","10","30","20:00","-5.4","","-7.3","","87","","","","6","","38","","0.8","","95.53","","","","-14","","Moderate Snow"
"-105.27","55.15","LA RONGE A","4064155","2020-10-30 21:00","2020","10","30","21:00","-5.2","","-7.2","","86","","","","6","","35","","1.2","","95.50","","","","-14","","Snow"
"-105.27","55.15","LA RONGE A","4064155","2020-10-30 22:00","2020","10","30","22:00","-5.2","","-7.4","","85","","","","5","","35","","1.6","","95.51","","","","-14","","Snow"
"-105.27","55.15","LA RONGE A","4064155","2020-10-30 23:00","2020","10","30","23:00","-5.3","","-7.6","","84","","","","3","","30","","1.6","","95.59","","","","-13","","Snow"
"-105.27","55.15","LA RONGE A","4064155","2020-10-31 00:00","2020","10","31","00:00","-5.8","","-7.8","","86","","","","4","","23","","3.2","","95.62","","","","-13","","Snow,Blowing Snow"
"-105.27","55.15","LA RONGE A","4064155","2020-10-31 01:00","2020","10","31","01:00","-6.1","","-8.4","","84","","","","2","","25","","6.4","","95.71","","","","-14","","Snow,Blowing Snow"
"-105.27","55.15","LA RONGE A","4064155","2020-10-31 02:00","2020","10","31","02:00","-6.7","","-9.2","","83","","","","35","","17","","8.1","","95.87","","","","-13","","Snow,Blowing Snow"
"-105.27","55.15","LA RONGE A","4064155","2020-10-31 03:00","2020","10","31","03:00","-7.1","","-8.8","","88","","","","34","","16","","1.6","","95.96","","","","-13","","Snow,Blowing Snow"
"-105.27","55.15","LA RONGE A","4064155","2020-10-31 04:00","2020","10","31","04:00","-7.2","","-8.8","","89","","","","33","","19","","1.6","","96.11","","","","-14","","Snow,Blowing Snow"
"-105.27","55.15","LA RONGE A","4064155","2020-10-31 05:00","2020","10","31","05:00","-7.0","","-8.7","","88","","","","34","","14","","1.6","","96.26","","","","-13","","Snow,Blowing Snow"
"-105.27","55.15","LA RONGE A","4064155","2020-10-31 06:00","2020","10","31","06:00","-7.1","","-9.1","","86","","","","34","","18","","1.6","","96.44","","","","-14","","Snow,Blowing Snow"
"-105.27","55.15","LA RONGE A","4064155","2020-10-31 07:00","2020","10","31","07:00","-7.4","","-9.4","","86","","","","33","","15","","1.6","","96.63","","","","-14","","Snow,Blowing Snow"
"-105.27","55.15","LA RONGE A","4064155","2020-10-31 08:00","2020","10","31","08:00","-7.6","","-9.8","","84","","","","34","","10","","4.8","","96.80","","","","-12","","Snow"
"-105.27","55.15","LA RONGE A","4064155","2020-10-31 09:00","2020","10","31","09:00","-7.8","","-10.0","","84","","","","33","","12","","19.3","","96.99","","","","-13","","Snow"
"-105.27","55.15","LA RONGE A","4064155","2020-10-31 10:00","2020","10","31","10:00","-7.4","","-10.2","","81","","","","33","","19","","19.3","","97.15","","","","-14","","Snow"
"-105.27","55.15","LA RONGE A","4064155","2020-10-31 11:00","2020","10","31","11:00","-6.6","","-10.4","","75","","","","33","","11","","24.1","","97.30","","","","-12","","Snow"
"-105.27","55.15","LA RONGE A","4064155","2020-10-31 12:00","2020","10","31","12:00","-6.4","","-10.4","","73","","","","32","","16","","24.1","","97.42","","","","-13","","Snow"
"-105.27","55.15","LA RONGE A","4064155","2020-10-31 13:00","2020","10","31","13:00","-6.2","","-10.7","","71","","","","31","","13","","24.1","","97.51","","","","-12","","Snow"
"-105.27","55.15","LA RONGE A","4064155","2020-10-31 14:00","2020","10","31","14:00","-5.8","","-10.4","","70","","","","29","","11","","24.1","","97.54","","","","-11","","NA"
"-105.27","55.15","LA RONGE A","4064155","2020-10-31 15:00","2020","10","31","15:00","-6.2","","-9.8","","76","","","","27","","8","","24.1","","97.61","","","","-10","","Mainly Clear"
"-105.27","55.15","LA RONGE A","4064155","2020-10-31 16:00","2020","10","31","16:00","-5.9","","-9.5","","76","","","","23","","16","","24.1","","97.67","","","","-12","","NA"
"-105.27","55.15","LA RONGE A","4064155","2020-10-31 17:00","2020","10","31","17:00","-7.0","","-9.9","","80","","","","22","","8","","24.1","","97.70","","","","-11","","NA"
"-105.27","55.15","LA RONGE A","4064155","2020-10-31 18:00","2020","10","31","18:00","-8.1","","-9.8","","87","","","","22","","5","","24.1","","97.75","","","","-11","","Mostly Cloudy"
"-105.27","55.15","LA RONGE A","4064155","2020-10-31 19:00","2020","10","31","19:00","-6.6","","-8.9","","84","","","","22","","5","","24.1","","97.73","","","","-9","","NA"
"-105.27","55.15","LA RONGE A","4064155","2020-10-31 20:00","2020","10","31","20:00","-5.6","","-8.6","","80","","","","25","","13","","24.1","","97.73","","","","-11","","NA"
"-105.27","55.15","LA RONGE A","4064155","2020-10-31 21:00","2020","10","31","21:00","-5.5","","-8.0","","83","","","","22","","8","","19.3","","97.71","","","","-9","","Snow"
"-105.27","55.15","LA RONGE A","4064155","2020-10-31 22:00","2020","10","31","22:00","-5.5","","-7.8","","84","","","","20","","10","","16.1","","97.67","","","","-10","","Snow"
"-105.27","55.15","LA RONGE A","4064155","2020-10-31 23:00","2020","10","31","23:00","-5.6","","-8.0","","84","","","","18","","15","","19.3","","97.60","","","","-11","","Snow"
