"Longitude (x)","Latitude (y)","Station Name","Climate ID","Date/Time (LST)","Year","Month","Day","Time (LST)","Temp (°C)","Temp Flag","Dew Point Temp (°C)","Dew Point Temp Flag","Rel Hum (%)","Rel Hum Flag","Precip. Amount (mm)","Precip. Amount Flag","Wind Dir (10s deg)","Wind Dir Flag","Wind Spd (km/h)","Wind Spd Flag","Visibility (km)","Visibility Flag","Stn Press (kPa)","Stn Press Flag","Hmdx","Hmdx Flag","Wind Chill","Wind Chill Flag","Weather"
"-60.05","46.16","SYDNEY A","8205701","2019-08-01 00:00","2019","08","01","00:00","20.1","","18.4","","89","","","","23","","14","","24.1","","100.77","","26","","","","NA"
"-60.05","46.16","SYDNEY A","8205701","2019-08-01 01:00","2019","08","01","01:00","19.6","","18.3","","92","","","","23","","17","","24.1","","100.72","","","","","","NA"
"-60.05","46.16","SYDNEY A","8205701","2019-08-01 02:00","2019","08","01","02:00","19.3","","18.4","","94","","","","23","","17","","24.1","","100.68","","","","","","Mainly Clear"
"-60.05","46.16","SYDNEY A","8205701","2019-08-01 03:00","2019","08","01","03:00","18.9","","18.2","","96","","","","22","","13","","24.1","","100.68","","","","","","NA"
"-60.05","46.16","SYDNEY A","8205701","2019-08-01 04:00","2019","08","01","04:00","18.7","","18.2","","97","","","","23","","17","","24.1","","100.68","","","","","","NA"
"-60.05","46.16","SYDNEY A","8205701","2019-08-01 05:00","2019","08","01","05:00","18.9","","18.4","","97","","","","22","","16","","16.1","","100.65","","","","","","Mostly Cloudy"
"-60.05","46.16","SYDNEY A","8205701","2019-08-01 06:00","2019","08","01","06:00","19.6","","18.9","","96","","","","25","","19","","16.1","","100.71","","","","","","NA"
"-60.05","46.16","SYDNEY A","8205701","2019-08-01 07:00","2019","08","01","07:00","23.1","","19.9","","82","","","","23","","13","","16.1","","100.66","","31","","","","NA"
"-60.05","46.16","SYDNEY A","8205701","2019-08-01 08:00","2019","08","01","08:00","25.6","","21.0","","75","","","","22","","10","","24.1","","100.67","","34","","","","Mainly Clear"
"-60.05","46.16","SYDNEY A","8205701","2019-08-01 09:00","2019","08","01","09:00","27.0","","22.1","","74","","","","21","","13","","24.1","","100.68","","36","","","","NA"
"-60.05","46.16","SYDNEY A","8205701","2019-08-01 10:00","2019","08","01","10:00","28.1","","21.5","","67","","","","20","","17","","24.1","","100.64","","37","","","","NA"
"-60.05","46.16","SYDNEY A","8205701","2019-08-01 11:00","2019","08","01","11:00","29.5","","21.5","","61","","","","23","","19","","24.1","","100.62","","38","","","","Mainly Clear"
"-60.05","46.16","SYDNEY A","8205701","2019-08-01 12:00","2019","08","01","12:00","30.1","","21.2","","58","","","","24","","23","","24.1","","100.58","","39","","","","NA"
"-60.05","46.16","SYDNEY A","8205701","2019-08-01 13:00","2019","08","01","13:00","30.5","","21.4","","58","","","","26","","18","","24.1","","100.57","","39","","","","NA"
"-60.05","46.16","SYDNEY A","8205701","2019-08-01 14:00","2019","08","01","14:00","29.6","","20.7","","58","","","","28","","28","","24.1","","100.55","","38","","","","Mainly Clear"
"-60.05","46.16","SYDNEY A","8205701","2019-08-01 15:00","2019","08","01","15:00","28.0","","19.4","","59","","","","26","","20","","16.1","","100.60","","35","","","","NA"
"-60.05","46.16","SYDNEY A","8205701","2019-08-01 16:00","2019","08","01","16:00","23.9","","21.1","","85","","","","25","","23","","16.1","","100.68","","32","","","","Thunderstorms,Rain Showers"
"-60.05","46.16","SYDNEY A","8205701","2019-08-01 17:00","2019","08","01","17:00","22.0","","20.4","","91","","","","28","","20","","16.1","","100.64","","30","","","","Rain Showers"
"-60.05","46.16","SYDNEY A","8205701","2019-08-01 18:00","2019","08","01","18:00","21.8","","20.6","","93","","","","26","","9","","24.1","","100.60","","30","","","","NA"
"-60.05","46.16","SYDNEY A","8205701","2019-08-01 19:00","2019","08","01","19:00","21.4","","20.4","","94","","","","35","","4","","24.1","","100.62","","29","","","","NA"
"-60.05","46.16","SYDNEY A","8205701","2019-08-01 20:00","2019","08","01","20:00","20.6","","20.1","","97","","","","36","","3","","24.1","","100.68","","28","","","","Mostly Cloudy"
"-60.05","46.16","SYDNEY A","8205701","2019-08-01 21:00","2019","08","01","21:00","20.5","","19.9","","96","","","","28","","4","","24.1","","100.69","","28","","","","NA"
"-60.05","46.16","SYDNEY A","8205701","2019-08-01 22:00","2019","08","01","22:00","20.5","","19.7","","95","","","","27","","10","","24.1","","100.70","","28","","","","NA"
"-60.05","46.16","SYDNEY A","8205701","2019-08-01 23:00","2019","08","01","23:00","20.0","","19.4","","96","","","","28","","10","","24.1","","100.70","","27","","","","Mostly Cloudy"
"-60.05","46.16","SYDNEY A","8205701","2019-08-02 00:00","2019","08","02","00:00","19.2","","18.9","","98","","","","28","","7","","24.1","","100.70","","","","","","NA"
"-60.05","46.16","SYDNEY A","8205701","2019-08-02 01:00","2019","08","02","01:00","18.7","","18.4","","98","","","","27","","4","","24.1","","100.68","","","","","","NA"
"-60.05","46.16","SYDNEY A","8205701","2019-08-02 02:00","2019","08","02","02:00","16.2","","15.9","","98","","","","21","","3","","24.1","","100.67","","","","","","Mainly Clear"
"-60.05","46.16","SYDNEY A","8205701","2019-08-02 03:00","2019","08","02","03:00","16.0","","15.8","","99","","","","23","","5","","16.1","","100.66","","","","","","NA"
"-60.05","46.16","SYDNEY A","8205701","2019-08-02 04:00","2019","08","02","04:00","14.6","","14.4","","99","","","","27","","10","","24.1","","100.66","","","","","","NA"
"-60.05","46.16","SYDNEY A","8205701","2019-08-02 05:00","2019","08","02","05:00","15.1","","14.9","","99","","","","24","","9","","24.1","","100.68","","","","","","Mainly Clear"
"-60.05","46.16","SYDNEY A","8205701","2019-08-02 06:00","2019","08","02","06:00","16.9","","16.5","","98","","","","24","","11","","24.1","","100.69","","","","","","NA"
"-60.05","46.16","SYDNEY A","8205701","2019-08-02 07:00","2019","08","02","07:00","18.9","","17.3","","90","","","","24","","11","","24.1","","100.73","","","","","","NA"
"-60.05","46.16","SYDNEY A","8205701","2019-08-02 08:00","2019","08","02","08:00","21.8","","16.2","","70","","","","26","","14","","24.1","","100.75","","27","","","","Mainly Clear"
"-60.05","46.16","SYDNEY A","8205701","2019-08-02 09:00","2019","08","02","09:00","22.9","","15.4","","62","","","","27","","16","","24.1","","100.75","","27","","","","NA"
"-60.05","46.16","SYDNEY A","8205701","2019-08-02 10:00","2019","08","02","10:00","23.9","","14.0","","53","","","","29","","16","","24.1","","100.77","","27","","","","NA"
"-60.05","46.16","SYDNEY A","8205701","2019-08-02 11:00","2019","08","02","11:00","24.4","","14.8","","54","","","","27","","16","","24.1","","100.78","","28","","","","Mainly Clear"
"-60.05","46.16","SYDNEY A","8205701","2019-08-02 12:00","2019","08","02","12:00","25.0","","14.0","","50","","","","31","","15","","24.1","","100.73","","28","","","","NA"
"-60.05","46.16","SYDNEY A","8205701","2019-08-02 13:00","2019","08","02","13:00","25.9","","14.1","","47","","","","27","","11","","24.1","","100.69","","29","","","","NA"
"-60.05","46.16","SYDNEY A","8205701","2019-08-02 14:00","2019","08","02","14:00","26.8","","12.8","","42","","","","28","","23","","24.1","","100.68","","29","","","","Mainly Clear"
"-60.05","46.16","SYDNEY A","8205701","2019-08-02 15:00","2019","08","02","15:00","26.7","","13.3","","43","","","","29","","17","","24.1","","100.67","","30","","","","NA"
"-60.05","46.16","SYDNEY A","8205701","2019-08-02 16:00","2019","08","02","16:00","26.8","","13.0","","42","","","","29","","22","","24.1","","100.66","","30","","","","NA"
"-60.05","46.16","SYDNEY A","8205701","2019-08-02 17:00","2019","08","02","17:00","25.8","","11.6","","40","","","","30","","21","","24.1","","100.67","","28","","","","Clear"
"-60.05","46.16","SYDNEY A","8205701","2019-08-02 18:00","2019","08","02","18:00","24.8","","12.2","","45","","","","29","","14","","24.1","","100.68","","27","","","","NA"
"-60.05","46.16","SYDNEY A","8205701","2019-08-02 19:00","2019","08","02","19:00","22.4","","14.1","","59","","","","24","","7","","24.1","","100.73","","26","","","","NA"
"-60.05","46.16","SYDNEY A","8205701","2019-08-02 20:00","2019","08","02","20:00","19.4","","13.4","","68","","","","22","","11","","24.1","","100.74","","","","","","Mainly Clear"
"-60.05","46.16","SYDNEY A","8205701","2019-08-02 21:00","2019","08","02","21:00","19.0","","13.9","","72","","","","21","","10","","24.1","","100.74","","","","","","NA"
"-60.05","46.16","SYDNEY A","8205701","2019-08-02 22:00","2019","08","02","22:00","19.3","","13.7","","70","","","","21","","13","","24.1","","100.75","","","","","","NA"
"-60.05","46.16","SYDNEY A","8205701","2019-08-02 23:00","2019","08","02","23:00","20.0","","13.5","","66","","","","22","","15","","24.1","","100.75","","","","","","Mostly Cloudy"
"-60.05","46.16","SYDNEY A","8205701","2019-08-03 00:00","2019","08","03","00:00","19.2","","13.4","","69","","","","25","","13","","24.1","","100.73","","","","","","NA"
"-60.05","46.16","SYDNEY A","8205701","2019-08-03 01:00","2019","08","03","01:00","18.0","","14.4","","79","","","","25","","13","","24.1","","100.70","","","","","","NA"
"-60.05","46.16","SYDNEY A","8205701","2019-08-03 02:00","2019","08","03","02:00","16.7","","14.4","","86","","","","24","","16","","24.1","","100.71","","","","","","Mainly Clear"
"-60.05","46.16","SYDNEY A","8205701","2019-08-03 03:00","2019","08","03","03:00","15.9","","13.8","","87","","","","25","","14","","24.1","","100.73","","","","","","NA"
"-60.05","46.16","SYDNEY A","8205701","2019-08-03 04:00","2019","08","03","04:00","14.9","","13.1","","89","","","","24","","12","","24.1","","100.73","","","","","","NA"
"-60.05","46.16","SYDNEY A","8205701","2019-08-03 05:00","2019","08","03","05:00","14.8","","13.2","","90","","","","25","","14","","24.1","","100.77","","","","","","Mainly Clear"
"-60.05","46.16","SYDNEY A","8205701","2019-08-03 06:00","2019","08","03","06:00","16.9","","14.4","","85","","","","24","","12","","24.1","","100.80","","","","","","NA"
"-60.05","46.16","SYDNEY A","8205701","2019-08-03 07:00","2019","08","03","07:00","20.2","","15.6","","74","","","","24","","16","","24.1","","100.78","","25","","","","NA"
"-60.05","46.16","SYDNEY A","8205701","2019-08-03 08:00","2019","08","03","08:00","22.8","","15.8","","64","","","","24","","13","","24.1","","100.76","","27","","","","Mainly Clear"
"-60.05","46.16","SYDNEY A","8205701","2019-08-03 09:00","2019","08","03","09:00","25.1","","15.3","","54","","","","26","","15","","24.1","","100.76","","29","","","","NA"
"-60.05","46.16","SYDNEY A","8205701","2019-08-03 10:00","2019","08","03","10:00","25.8","","14.8","","50","","","","25","","22","","24.1","","100.76","","30","","","","NA"
"-60.05","46.16","SYDNEY A","8205701","2019-08-03 11:00","2019","08","03","11:00","27.0","","14.9","","47","","","","27","","19","","24.1","","100.71","","31","","","","Mainly Clear"
"-60.05","46.16","SYDNEY A","8205701","2019-08-03 12:00","2019","08","03","12:00","27.2","","14.8","","46","","","","28","","9","","24.1","","100.66","","31","","","","NA"
"-60.05","46.16","SYDNEY A","8205701","2019-08-03 13:00","2019","08","03","13:00","28.4","","13.9","","40","","","","25","","21","","24.1","","100.62","","32","","","","NA"
"-60.05","46.16","SYDNEY A","8205701","2019-08-03 14:00","2019","08","03","14:00","28.8","","14.4","","41","","","","28","","20","","24.1","","100.58","","32","","","","Mostly Cloudy"
"-60.05","46.16","SYDNEY A","8205701","2019-08-03 15:00","2019","08","03","15:00","28.9","","12.9","","37","","","","26","","23","","24.1","","100.53","","32","","","","NA"
"-60.05","46.16","SYDNEY A","8205701","2019-08-03 16:00","2019","08","03","16:00","28.4","","13.8","","40","","","","26","","17","","24.1","","100.52","","32","","","","NA"
"-60.05","46.16","SYDNEY A","8205701","2019-08-03 17:00","2019","08","03","17:00","26.2","","14.3","","47","","","","20","","14","","24.1","","100.49","","30","","","","Mostly Cloudy"
"-60.05","46.16","SYDNEY A","8205701","2019-08-03 18:00","2019","08","03","18:00","25.4","","14.8","","51","","","","21","","17","","24.1","","100.51","","29","","","","NA"
"-60.05","46.16","SYDNEY A","8205701","2019-08-03 19:00","2019","08","03","19:00","23.6","","12.3","","49","","","","21","","18","","24.1","","100.49","","26","","","","NA"
"-60.05","46.16","SYDNEY A","8205701","2019-08-03 20:00","2019","08","03","20:00","21.4","","11.6","","53","","","","20","","16","","24.1","","100.52","","","","","","Mostly Cloudy"
"-60.05","46.16","SYDNEY A","8205701","2019-08-03 21:00","2019","08","03","21:00","20.2","","11.9","","59","","","","21","","21","","24.1","","100.51","","","","","","NA"
"-60.05","46.16","SYDNEY A","8205701","2019-08-03 22:00","2019","08","03","22:00","18.1","","13.0","","72","","","","20","","17","","24.1","","100.48","","","","","","NA"
"-60.05","46.16","SYDNEY A","8205701","2019-08-03 23:00","2019","08","03","23:00","16.8","","14.6","","87","","","","21","","14","","24.1","","100.45","","","","","","Mainly Clear"
"-60.05","46.16","SYDNEY A","8205701","2019-08-04 00:00","2019","08","04","00:00","17.0","","15.6","","91","","","","21","","13","","24.1","","100.40","","","","","","NA"
"-60.05","46.16","SYDNEY A","8205701","2019-08-04 01:00","2019","08","04","01:00","16.9","","15.5","","91","","","","22","","18","","24.1","","100.35","","","","","","NA"
"-60.05","46.16","SYDNEY A","8205701","2019-08-04 02:00","2019","08","04","02:00","16.8","","15.6","","93","","","","20","","18","","24.1","","100.30","","","","","","Mostly Cloudy"
"-60.05","46.16","SYDNEY A","8205701","2019-08-04 03:00","2019","08","04","03:00","16.5","","15.3","","93","","","","22","","17","","24.1","","100.29","","","","","","NA"
"-60.05","46.16","SYDNEY A","8205701","2019-08-04 04:00","2019","08","04","04:00","16.3","","14.9","","91","","","","22","","14","","24.1","","100.29","","","","","","NA"
"-60.05","46.16","SYDNEY A","8205701","2019-08-04 05:00","2019","08","04","05:00","16.0","","14.4","","90","","","","21","","15","","24.1","","100.25","","","","","","Mostly Cloudy"
"-60.05","46.16","SYDNEY A","8205701","2019-08-04 06:00","2019","08","04","06:00","16.5","","14.2","","86","","","","20","","17","","24.1","","100.24","","","","","","NA"
"-60.05","46.16","SYDNEY A","8205701","2019-08-04 07:00","2019","08","04","07:00","17.4","","15.0","","86","","","","20","","17","","24.1","","100.23","","","","","","NA"
"-60.05","46.16","SYDNEY A","8205701","2019-08-04 08:00","2019","08","04","08:00","20.4","","16.8","","80","","","","20","","17","","24.1","","100.16","","26","","","","Mainly Clear"
"-60.05","46.16","SYDNEY A","8205701","2019-08-04 09:00","2019","08","04","09:00","22.3","","17.1","","72","","","","20","","28","","24.1","","100.12","","28","","","","NA"
"-60.05","46.16","SYDNEY A","8205701","2019-08-04 10:00","2019","08","04","10:00","23.6","","18.0","","71","","","","22","","22","","24.1","","100.12","","30","","","","NA"
"-60.05","46.16","SYDNEY A","8205701","2019-08-04 11:00","2019","08","04","11:00","24.5","","17.5","","65","","","","23","","22","","24.1","","100.11","","30","","","","Mostly Cloudy"
"-60.05","46.16","SYDNEY A","8205701","2019-08-04 12:00","2019","08","04","12:00","25.4","","16.9","","59","","","","24","","26","","24.1","","100.08","","31","","","","NA"
"-60.05","46.16","SYDNEY A","8205701","2019-08-04 13:00","2019","08","04","13:00","25.3","","16.8","","59","","","","23","","21","","24.1","","100.06","","30","","","","NA"
"-60.05","46.16","SYDNEY A","8205701","2019-08-04 14:00","2019","08","04","14:00","23.5","","18.8","","75","","","","30","","12","","24.1","","100.03","","30","","","","Moderate Rain"
"-60.05","46.16","SYDNEY A","8205701","2019-08-04 15:00","2019","08","04","15:00","25.4","","17.6","","62","","","","28","","14","","24.1","","100.02","","31","","","","Rain Showers"
"-60.05","46.16","SYDNEY A","8205701","2019-08-04 16:00","2019","08","04","16:00","23.8","","18.9","","74","","","","29","","7","","24.1","","100.04","","30","","","","NA"
"-60.05","46.16","SYDNEY A","8205701","2019-08-04 17:00","2019","08","04","17:00","24.5","","16.2","","60","","","","25","","11","","24.1","","100.05","","29","","","","Mostly Cloudy"
"-60.05","46.16","SYDNEY A","8205701","2019-08-04 18:00","2019","08","04","18:00","23.5","","16.7","","65","","","","30","","9","","24.1","","100.05","","29","","","","NA"
"-60.05","46.16","SYDNEY A","8205701","2019-08-04 19:00","2019","08","04","19:00","20.3","","18.4","","89","","","","17","","13","","24.1","","100.09","","27","","","","Rain Showers"
"-60.05","46.16","SYDNEY A","8205701","2019-08-04 20:00","2019","08","04","20:00","18.7","","18.2","","97","","","","16","","7","","24.1","","100.11","","","","","","Mostly Cloudy"
"-60.05","46.16","SYDNEY A","8205701","2019-08-04 21:00","2019","08","04","21:00","18.4","","17.9","","97","","","","22","","10","","24.1","","100.13","","","","","","NA"
"-60.05","46.16","SYDNEY A","8205701","2019-08-04 22:00","2019","08","04","22:00","18.2","","17.9","","97","","","","24","","12","","24.1","","100.08","","","","","","NA"
"-60.05","46.16","SYDNEY A","8205701","2019-08-04 23:00","2019","08","04","23:00","17.7","","17.0","","96","","","","29","","7","","24.1","","100.09","","","","","","Mostly Cloudy"
"-60.05","46.16","SYDNEY A","8205701","2019-08-05 00:00","2019","08","05","00:00","15.6","","15.3","","98","","","","36","","2","","24.1","","100.04","","","","","","NA"
"-60.05","46.16","SYDNEY A","8205701","2019-08-05 01:00","2019","08","05","01:00","13.7","","13.5","","99","","","","24","","4","","24.1","","100.00","","","","","","NA"
"-60.05","46.16","SYDNEY A","8205701","2019-08-05 02:00","2019","08","05","02:00","14.6","","14.4","","99","","","","26","","4","","24.1","","100.00","","","","","","Mostly Cloudy"
"-60.05","46.16","SYDNEY A","8205701","2019-08-05 03:00","2019","08","05","03:00","12.8","","12.6","","99","","","","23","","7","","24.1","","99.95","","","","","","NA"
"-60.05","46.16","SYDNEY A","8205701","2019-08-05 04:00","2019","08","05","04:00","12.3","","12.2","","99","","","","22","","6","","24.1","","99.96","","","","","","NA"
"-60.05","46.16","SYDNEY A","8205701","2019-08-05 05:00","2019","08","05","05:00","10.9","","10.8","","99","","","","20","","5","","24.1","","99.97","","","","","","Mainly Clear"
"-60.05","46.16","SYDNEY A","8205701","2019-08-05 06:00","2019","08","05","06:00","13.8","","13.7","","99","","","","23","","11","","24.1","","100.01","","","","","","NA"
"-60.05","46.16","SYDNEY A","8205701","2019-08-05 07:00","2019","08","05","07:00","16.7","","14.8","","88","","","","24","","10","","24.1","","100.02","","","","","","NA"
"-60.05","46.16","SYDNEY A","8205701","2019-08-05 08:00","2019","08","05","08:00","19.3","","16.3","","82","","","","26","","16","","24.1","","100.02","","","","","","Mainly Clear"
"-60.05","46.16","SYDNEY A","8205701","2019-08-05 09:00","2019","08","05","09:00","21.4","","15.0","","67","","","","27","","21","","24.1","","99.99","","25","","","","NA"
"-60.05","46.16","SYDNEY A","8205701","2019-08-05 10:00","2019","08","05","10:00","22.6","","14.3","","59","","","","25","","21","","24.1","","99.97","","26","","","","NA"
"-60.05","46.16","SYDNEY A","8205701","2019-08-05 11:00","2019","08","05","11:00","20.7","","15.3","","71","","","","27","","20","","24.1","","99.97","","25","","","","Mostly Cloudy"
"-60.05","46.16","SYDNEY A","8205701","2019-08-05 12:00","2019","08","05","12:00","23.6","","13.3","","52","","","","27","","27","","24.1","","99.94","","27","","","","NA"
"-60.05","46.16","SYDNEY A","8205701","2019-08-05 13:00","2019","08","05","13:00","23.3","","13.3","","53","","","","28","","23","","24.1","","99.96","","26","","","","NA"
"-60.05","46.16","SYDNEY A","8205701","2019-08-05 14:00","2019","08","05","14:00","24.0","","13.3","","51","","","","28","","28","","24.1","","99.96","","27","","","","Mostly Cloudy"
"-60.05","46.16","SYDNEY A","8205701","2019-08-05 15:00","2019","08","05","15:00","23.0","","14.2","","57","","","","29","","29","","24.1","","99.99","","26","","","","NA"
"-60.05","46.16","SYDNEY A","8205701","2019-08-05 16:00","2019","08","05","16:00","21.9","","12.6","","55","","","","29","","34","","24.1","","100.05","","","","","","NA"
"-60.05","46.16","SYDNEY A","8205701","2019-08-05 17:00","2019","08","05","17:00","21.3","","11.4","","53","","","","28","","33","","24.1","","100.06","","","","","","Mainly Clear"
"-60.05","46.16","SYDNEY A","8205701","2019-08-05 18:00","2019","08","05","18:00","19.3","","11.8","","62","","","","31","","23","","24.1","","100.14","","","","","","NA"
"-60.05","46.16","SYDNEY A","8205701","2019-08-05 19:00","2019","08","05","19:00","18.2","","12.3","","68","","","","32","","14","","24.1","","100.24","","","","","","NA"
"-60.05","46.16","SYDNEY A","8205701","2019-08-05 20:00","2019","08","05","20:00","16.8","","12.4","","75","","","","29","","12","","24.1","","100.30","","","","","","Mainly Clear"
"-60.05","46.16","SYDNEY A","8205701","2019-08-05 21:00","2019","08","05","21:00","16.1","","12.2","","77","","","","29","","12","","24.1","","100.35","","","","","","NA"
"-60.05","46.16","SYDNEY A","8205701","2019-08-05 22:00","2019","08","05","22:00","14.8","","12.0","","83","","","","30","","10","","24.1","","100.37","","","","","","NA"
"-60.05","46.16","SYDNEY A","8205701","2019-08-05 23:00","2019","08","05","23:00","13.2","","11.7","","91","","","","21","","9","","24.1","","100.41","","","","","","Mainly Clear"
"-60.05","46.16","SYDNEY A","8205701","2019-08-06 00:00","2019","08","06","00:00","12.7","","11.3","","91","","","","24","","13","","24.1","","100.44","","","","","","NA"
"-60.05","46.16","SYDNEY A","8205701","2019-08-06 01:00","2019","08","06","01:00","13.0","","11.9","","93","","","","25","","14","","24.1","","100.45","","","","","","NA"
"-60.05","46.16","SYDNEY A","8205701","2019-08-06 02:00","2019","08","06","02:00","13.5","","12.5","","94","","","","26","","18","","24.1","","100.45","","","","","","Mainly Clear"
"-60.05","46.16","SYDNEY A","8205701","2019-08-06 03:00","2019","08","06","03:00","13.2","","12.4","","94","","","","23","","12","","24.1","","100.49","","","","","","NA"
"-60.05","46.16","SYDNEY A","8205701","2019-08-06 04:00","2019","08","06","04:00","12.4","","11.9","","97","","","","22","","10","","24.1","","100.50","","","","","","NA"
"-60.05","46.16","SYDNEY A","8205701","2019-08-06 05:00","2019","08","06","05:00","12.0","","11.6","","97","","","","23","","9","","24.1","","100.56","","","","","","Mainly Clear"
"-60.05","46.16","SYDNEY A","8205701","2019-08-06 06:00","2019","08","06","06:00","14.5","","13.7","","94","","","","21","","6","","24.1","","100.64","","","","","","NA"
"-60.05","46.16","SYDNEY A","8205701","2019-08-06 07:00","2019","08","06","07:00","16.7","","15.0","","89","","","","22","","7","","24.1","","100.69","","","","","","NA"
"-60.05","46.16","SYDNEY A","8205701","2019-08-06 08:00","2019","08","06","08:00","19.4","","15.3","","77","","","","27","","12","","24.1","","100.71","","","","","","Mainly Clear"
"-60.05","46.16","SYDNEY A","8205701","2019-08-06 09:00","2019","08","06","09:00","22.0","","14.9","","64","","","","28","","16","","24.1","","100.71","","26","","","","NA"
"-60.05","46.16","SYDNEY A","8205701","2019-08-06 10:00","2019","08","06","10:00","22.8","","12.8","","52","","","","27","","23","","24.1","","100.70","","25","","","","NA"
"-60.05","46.16","SYDNEY A","8205701","2019-08-06 11:00","2019","08","06","11:00","24.0","","13.0","","50","","","","27","","22","","24.1","","100.72","","27","","","","Mostly Cloudy"
"-60.05","46.16","SYDNEY A","8205701","2019-08-06 12:00","2019","08","06","12:00","24.6","","13.1","","48","","","","28","","21","","24.1","","100.71","","27","","","","NA"
"-60.05","46.16","SYDNEY A","8205701","2019-08-06 13:00","2019","08","06","13:00","24.6","","13.7","","50","","","","27","","19","","24.1","","100.70","","28","","","","NA"
"-60.05","46.16","SYDNEY A","8205701","2019-08-06 14:00","2019","08","06","14:00","25.3","","13.0","","46","","","","26","","18","","24.1","","100.67","","28","","","","Mostly Cloudy"
"-60.05","46.16","SYDNEY A","8205701","2019-08-06 15:00","2019","08","06","15:00","25.4","","13.0","","46","","","","29","","16","","24.1","","100.67","","28","","","","NA"
"-60.05","46.16","SYDNEY A","8205701","2019-08-06 16:00","2019","08","06","16:00","24.7","","15.4","","56","","","","4","","13","","24.1","","100.68","","29","","","","NA"
"-60.05","46.16","SYDNEY A","8205701","2019-08-06 17:00","2019","08","06","17:00","24.4","","14.2","","52","","","","5","","10","","24.1","","100.71","","28","","","","Mostly Cloudy"
"-60.05","46.16","SYDNEY A","8205701","2019-08-06 18:00","2019","08","06","18:00","23.0","","14.4","","58","","","","12","","13","","24.1","","100.69","","27","","","","NA"
"-60.05","46.16","SYDNEY A","8205701","2019-08-06 19:00","2019","08","06","19:00","20.8","","15.4","","71","","","","15","","7","","24.1","","100.72","","25","","","","NA"
"-60.05","46.16","SYDNEY A","8205701","2019-08-06 20:00","2019","08","06","20:00","18.3","","14.7","","79","","","","16","","10","","24.1","","100.77","","","","","","Mainly Clear"
"-60.05","46.16","SYDNEY A","8205701","2019-08-06 21:00","2019","08","06","21:00","17.9","","14.5","","81","","","","20","","9","","24.1","","100.82","","","","","","NA"
"-60.05","46.16","SYDNEY A","8205701","2019-08-06 22:00","2019","08","06","22:00","16.9","","14.1","","83","","","","21","","9","","24.1","","100.84","","","","","","NA"
"-60.05","46.16","SYDNEY A","8205701","2019-08-06 23:00","2019","08","06","23:00","15.8","","13.8","","88","","","","21","","8","","24.1","","100.82","","","","","","Mainly Clear"
"-60.05","46.16","SYDNEY A","8205701","2019-08-07 00:00","2019","08","07","00:00","15.7","","13.5","","87","","","","22","","12","","24.1","","100.81","","","","","","NA"
"-60.05","46.16","SYDNEY A","8205701","2019-08-07 01:00","2019","08","07","01:00","14.7","","13.1","","90","","","","21","","5","","24.1","","100.79","","","","","","NA"
"-60.05","46.16","SYDNEY A","8205701","2019-08-07 02:00","2019","08","07","02:00","14.0","","12.2","","89","","","","25","","7","","24.1","","100.79","","","","","","Mainly Clear"
"-60.05","46.16","SYDNEY A","8205701","2019-08-07 03:00","2019","08","07","03:00","12.9","","12.2","","95","","","","20","","7","","24.1","","100.77","","","","","","NA"
"-60.05","46.16","SYDNEY A","8205701","2019-08-07 04:00","2019","08","07","04:00","13.9","","12.0","","88","","","","21","","9","","24.1","","100.77","","","","","","NA"
"-60.05","46.16","SYDNEY A","8205701","2019-08-07 05:00","2019","08","07","05:00","13.8","","11.9","","88","","","","21","","8","","24.1","","100.77","","","","","","Mostly Cloudy"
"-60.05","46.16","SYDNEY A","8205701","2019-08-07 06:00","2019","08","07","06:00","14.7","","12.7","","88","","","","18","","3","","24.1","","100.79","","","","","","NA"
"-60.05","46.16","SYDNEY A","8205701","2019-08-07 07:00","2019","08","07","07:00","17.0","","13.9","","82","","","","17","","5","","24.1","","100.80","","","","","","NA"
"-60.05","46.16","SYDNEY A","8205701","2019-08-07 08:00","2019","08","07","08:00","18.7","","17.4","","92","","","","16","","11","","24.1","","100.81","","","","","","Mostly Cloudy"
"-60.05","46.16","SYDNEY A","8205701","2019-08-07 09:00","2019","08","07","09:00","21.0","","15.9","","72","","","","16","","12","","24.1","","100.79","","26","","","","NA"
"-60.05","46.16","SYDNEY A","8205701","2019-08-07 10:00","2019","08","07","10:00","22.4","","14.6","","61","","","","14","","16","","24.1","","100.79","","26","","","","NA"
"-60.05","46.16","SYDNEY A","8205701","2019-08-07 11:00","2019","08","07","11:00","22.8","","13.1","","54","","","","15","","16","","24.1","","100.76","","26","","","","Mostly Cloudy"
"-60.05","46.16","SYDNEY A","8205701","2019-08-07 12:00","2019","08","07","12:00","23.1","","13.6","","55","","","","14","","16","","24.1","","100.75","","26","","","","NA"
"-60.05","46.16","SYDNEY A","8205701","2019-08-07 13:00","2019","08","07","13:00","23.6","","13.5","","52","","","","16","","17","","24.1","","100.71","","27","","","","NA"
"-60.05","46.16","SYDNEY A","8205701","2019-08-07 14:00","2019","08","07","14:00","23.7","","14.2","","55","","","","14","","16","","24.1","","100.72","","27","","","","Mostly Cloudy"
"-60.05","46.16","SYDNEY A","8205701","2019-08-07 15:00","2019","08","07","15:00","22.5","","13.7","","57","","","","15","","17","","24.1","","100.71","","26","","","","NA"
"-60.05","46.16","SYDNEY A","8205701","2019-08-07 16:00","2019","08","07","16:00","22.7","","14.0","","57","","","","18","","15","","24.1","","100.69","","26","","","","NA"
"-60.05","46.16","SYDNEY A","8205701","2019-08-07 17:00","2019","08","07","17:00","22.5","","14.5","","60","","","","18","","16","","24.1","","100.70","","26","","","","Mainly Clear"
"-60.05","46.16","SYDNEY A","8205701","2019-08-07 18:00","2019","08","07","18:00","21.4","","15.1","","67","","","","17","","10","","24.1","","100.72","","25","","","","NA"
"-60.05","46.16","SYDNEY A","8205701","2019-08-07 19:00","2019","08","07","19:00","19.0","","14.4","","74","","","","17","","9","","24.1","","100.76","","","","","","NA"
"-60.05","46.16","SYDNEY A","8205701","2019-08-07 20:00","2019","08","07","20:00","16.4","","13.0","","80","","","","16","","11","","24.1","","100.80","","","","","","Mainly Clear"
"-60.05","46.16","SYDNEY A","8205701","2019-08-07 21:00","2019","08","07","21:00","15.2","","13.5","","90","","","","17","","5","","24.1","","100.82","","","","","","NA"
"-60.05","46.16","SYDNEY A","8205701","2019-08-07 22:00","2019","08","07","22:00","13.3","","12.0","","91","","","","15","","8","","24.1","","100.82","","","","","","NA"
"-60.05","46.16","SYDNEY A","8205701","2019-08-07 23:00","2019","08","07","23:00","14.6","","14.1","","97","","","","20","","5","","24.1","","100.84","","","","","","Mainly Clear"
"-60.05","46.16","SYDNEY A","8205701","2019-08-08 00:00","2019","08","08","00:00","14.3","","13.8","","97","","","","18","","8","","24.1","","100.81","","","","","","NA"
"-60.05","46.16","SYDNEY A","8205701","2019-08-08 01:00","2019","08","08","01:00","12.6","","12.2","","97","","","","25","","5","","24.1","","100.86","","","","","","NA"
"-60.05","46.16","SYDNEY A","8205701","2019-08-08 02:00","2019","08","08","02:00","11.2","","10.9","","98","","","","25","","7","","24.1","","100.89","","","","","","Clear"
"-60.05","46.16","SYDNEY A","8205701","2019-08-08 03:00","2019","08","08","03:00","12.1","","11.9","","99","","","","36","","2","","24.1","","100.89","","","","","","NA"
"-60.05","46.16","SYDNEY A","8205701","2019-08-08 04:00","2019","08","08","04:00","10.3","","10.0","","98","","","","17","","3","","24.1","","100.87","","","","","","NA"
"-60.05","46.16","SYDNEY A","8205701","2019-08-08 05:00","2019","08","08","05:00","12.4","","12.1","","98","","","","16","","8","","16.1","","100.87","","","","","","Mainly Clear"
"-60.05","46.16","SYDNEY A","8205701","2019-08-08 06:00","2019","08","08","06:00","14.6","","14.3","","98","","","","17","","5","","24.1","","100.90","","","","","","NA"
"-60.05","46.16","SYDNEY A","8205701","2019-08-08 07:00","2019","08","08","07:00","18.1","","16.8","","92","","","","13","","12","","24.1","","100.92","","","","","","NA"
"-60.05","46.16","SYDNEY A","8205701","2019-08-08 08:00","2019","08","08","08:00","19.4","","16.1","","81","","","","15","","17","","24.1","","100.92","","","","","","Mostly Cloudy"
"-60.05","46.16","SYDNEY A","8205701","2019-08-08 09:00","2019","08","08","09:00","20.7","","14.3","","66","","","","14","","19","","24.1","","100.93","","","","","","NA"
"-60.05","46.16","SYDNEY A","8205701","2019-08-08 10:00","2019","08","08","10:00","21.3","","14.2","","63","","","","15","","22","","24.1","","100.93","","25","","","","NA"
"-60.05","46.16","SYDNEY A","8205701","2019-08-08 11:00","2019","08","08","11:00","21.7","","14.7","","64","","","","15","","21","","24.1","","100.87","","25","","","","Mostly Cloudy"
"-60.05","46.16","SYDNEY A","8205701","2019-08-08 12:00","2019","08","08","12:00","22.5","","15.0","","62","","","","15","","25","","24.1","","100.85","","26","","","","NA"
"-60.05","46.16","SYDNEY A","8205701","2019-08-08 13:00","2019","08","08","13:00","22.1","","15.3","","65","","","","15","","21","","24.1","","100.80","","26","","","","NA"
"-60.05","46.16","SYDNEY A","8205701","2019-08-08 14:00","2019","08","08","14:00","21.8","","14.9","","64","","","","15","","27","","24.1","","100.75","","26","","","","Mostly Cloudy"
"-60.05","46.16","SYDNEY A","8205701","2019-08-08 15:00","2019","08","08","15:00","21.5","","15.2","","67","","","","13","","25","","24.1","","100.73","","26","","","","NA"
"-60.05","46.16","SYDNEY A","8205701","2019-08-08 16:00","2019","08","08","16:00","20.7","","14.7","","68","","","","16","","27","","24.1","","100.73","","","","","","NA"
"-60.05","46.16","SYDNEY A","8205701","2019-08-08 17:00","2019","08","08","17:00","18.9","","14.7","","76","","","","16","","20","","24.1","","100.72","","","","","","Cloudy"
"-60.05","46.16","SYDNEY A","8205701","2019-08-08 18:00","2019","08","08","18:00","18.3","","14.8","","80","","","","15","","21","","24.1","","100.71","","","","","","NA"
"-60.05","46.16","SYDNEY A","8205701","2019-08-08 19:00","2019","08","08","19:00","17.9","","15.0","","83","","","","15","","18","","24.1","","100.71","","","","","","NA"
"-60.05","46.16","SYDNEY A","8205701","2019-08-08 20:00","2019","08","08","20:00","17.6","","15.5","","87","","","","14","","21","","16.1","","100.73","","","","","","Cloudy"
"-60.05","46.16","SYDNEY A","8205701","2019-08-08 21:00","2019","08","08","21:00","17.6","","15.6","","88","","","","14","","19","","16.1","","100.70","","","","","","NA"
"-60.05","46.16","SYDNEY A","8205701","2019-08-08 22:00","2019","08","08","22:00","17.1","","16.1","","94","","","","14","","23","","8.1","","100.60","","","","","","Drizzle,Fog"
"-60.05","46.16","SYDNEY A","8205701","2019-08-08 23:00","2019","08","08","23:00","16.7","","16.1","","96","","","","14","","26","","6.4","","100.53","","","","","","Drizzle,Fog"
"-60.05","46.16","SYDNEY A","8205701","2019-08-09 00:00","2019","08","09","00:00","16.7","","16.1","","97","","","","13","","23","","3.2","","100.43","","","","","","Drizzle,Fog"
"-60.05","46.16","SYDNEY A","8205701","2019-08-09 01:00","2019","08","09","01:00","16.7","","16.3","","97","","","","13","","27","","3.2","","100.36","","","","","","Drizzle,Fog"
"-60.05","46.16","SYDNEY A","8205701","2019-08-09 02:00","2019","08","09","02:00","16.8","","16.4","","98","","","","14","","28","","3.2","","100.28","","","","","","Drizzle,Fog"
"-60.05","46.16","SYDNEY A","8205701","2019-08-09 03:00","2019","08","09","03:00","16.9","","16.5","","98","","","","13","","24","","3.2","","100.18","","","","","","Drizzle,Fog"
"-60.05","46.16","SYDNEY A","8205701","2019-08-09 04:00","2019","08","09","04:00","17.0","","16.7","","98","","","","13","","24","","3.2","","100.11","","","","","","Rain,Fog"
"-60.05","46.16","SYDNEY A","8205701","2019-08-09 05:00","2019","08","09","05:00","17.3","","16.9","","97","","","","13","","23","","3.2","","100.04","","","","","","Rain,Fog"
"-60.05","46.16","SYDNEY A","8205701","2019-08-09 06:00","2019","08","09","06:00","17.6","","17.2","","98","","","","14","","27","","9.7","","100.02","","","","","","Rain,Fog"
"-60.05","46.16","SYDNEY A","8205701","2019-08-09 07:00","2019","08","09","07:00","18.2","","17.8","","98","","","","14","","32","","8.1","","99.96","","","","","","Drizzle,Fog"
"-60.05","46.16","SYDNEY A","8205701","2019-08-09 08:00","2019","08","09","08:00","19.0","","18.6","","98","","","","14","","32","","3.2","","99.87","","","","","","Drizzle,Fog"
"-60.05","46.16","SYDNEY A","8205701","2019-08-09 09:00","2019","08","09","09:00","19.7","","19.2","","97","","","","14","","23","","2.4","","99.86","","","","","","Drizzle,Fog"
"-60.05","46.16","SYDNEY A","8205701","2019-08-09 10:00","2019","08","09","10:00","20.1","","19.7","","97","","","","18","","14","","2.4","","99.82","","27","","","","Drizzle,Fog"
"-60.05","46.16","SYDNEY A","8205701","2019-08-09 11:00","2019","08","09","11:00","21.5","","20.4","","93","","","","18","","17","","16.1","","99.78","","29","","","","Cloudy"
"-60.05","46.16","SYDNEY A","8205701","2019-08-09 12:00","2019","08","09","12:00","23.5","","21.0","","86","","","","18","","15","","24.1","","99.74","","32","","","","NA"
"-60.05","46.16","SYDNEY A","8205701","2019-08-09 13:00","2019","08","09","13:00","24.3","","20.6","","80","","","","20","","20","","24.1","","99.72","","32","","","","NA"
"-60.05","46.16","SYDNEY A","8205701","2019-08-09 14:00","2019","08","09","14:00","22.1","","19.1","","83","","","","19","","21","","24.1","","99.71","","29","","","","Mostly Cloudy"
"-60.05","46.16","SYDNEY A","8205701","2019-08-09 15:00","2019","08","09","15:00","22.4","","19.3","","83","","","","21","","18","","24.1","","99.66","","29","","","","NA"
"-60.05","46.16","SYDNEY A","8205701","2019-08-09 16:00","2019","08","09","16:00","24.4","","19.8","","75","","","","19","","19","","24.1","","99.66","","32","","","","NA"
"-60.05","46.16","SYDNEY A","8205701","2019-08-09 17:00","2019","08","09","17:00","23.6","","19.3","","77","","","","20","","27","","24.1","","99.70","","31","","","","Mainly Clear"
"-60.05","46.16","SYDNEY A","8205701","2019-08-09 18:00","2019","08","09","18:00","22.1","","19.5","","84","","","","21","","21","","16.1","","99.71","","29","","","","NA"
"-60.05","46.16","SYDNEY A","8205701","2019-08-09 19:00","2019","08","09","19:00","21.3","","19.4","","89","","","","21","","22","","16.1","","99.73","","28","","","","NA"
"-60.05","46.16","SYDNEY A","8205701","2019-08-09 20:00","2019","08","09","20:00","20.9","","19.5","","92","","","","22","","13","","16.1","","99.78","","28","","","","Cloudy"
"-60.05","46.16","SYDNEY A","8205701","2019-08-09 21:00","2019","08","09","21:00","19.8","","18.6","","93","","","","21","","17","","16.1","","99.77","","","","","","NA"
"-60.05","46.16","SYDNEY A","8205701","2019-08-09 22:00","2019","08","09","22:00","19.3","","18.4","","94","","","","20","","22","","16.1","","99.75","","","","","","NA"
"-60.05","46.16","SYDNEY A","8205701","2019-08-09 23:00","2019","08","09","23:00","18.9","","18.2","","95","","","","20","","17","","16.1","","99.76","","","","","","Mostly Cloudy"
"-60.05","46.16","SYDNEY A","8205701","2019-08-10 00:00","2019","08","10","00:00","18.6","","17.9","","96","","","","21","","18","","16.1","","99.76","","","","","","NA"
"-60.05","46.16","SYDNEY A","8205701","2019-08-10 01:00","2019","08","10","01:00","18.1","","17.6","","97","","","","22","","10","","24.1","","99.74","","","","","","NA"
"-60.05","46.16","SYDNEY A","8205701","2019-08-10 02:00","2019","08","10","02:00","17.7","","17.3","","97","","","","22","","15","","16.1","","99.71","","","","","","Mainly Clear"
"-60.05","46.16","SYDNEY A","8205701","2019-08-10 03:00","2019","08","10","03:00","17.6","","17.3","","98","","","","23","","16","","2.4","","99.70","","","","","","Fog"
"-60.05","46.16","SYDNEY A","8205701","2019-08-10 04:00","2019","08","10","04:00","17.2","","17.0","","99","","","","22","","14","","0.8","","99.72","","","","","","Fog"
"-60.05","46.16","SYDNEY A","8205701","2019-08-10 05:00","2019","08","10","05:00","17.2","","17.0","","99","","","","23","","18","","1.0","","99.77","","","","","","Fog"
"-60.05","46.16","SYDNEY A","8205701","2019-08-10 06:00","2019","08","10","06:00","17.5","","17.4","","99","","","","22","","13","","1.0","","99.79","","","","","","Fog"
"-60.05","46.16","SYDNEY A","8205701","2019-08-10 07:00","2019","08","10","07:00","17.9","","17.7","","99","","","","22","","9","","1.2","","99.80","","","","","","Fog"
"-60.05","46.16","SYDNEY A","8205701","2019-08-10 08:00","2019","08","10","08:00","18.2","","18.0","","99","","","","21","","10","","2.0","","99.78","","","","","","Fog"
"-60.05","46.16","SYDNEY A","8205701","2019-08-10 09:00","2019","08","10","09:00","19.4","","18.6","","95","","","","21","","11","","4.8","","99.74","","","","","","Fog"
"-60.05","46.16","SYDNEY A","8205701","2019-08-10 10:00","2019","08","10","10:00","22.0","","18.9","","82","","","","21","","15","","24.1","","99.74","","29","","","","NA"
"-60.05","46.16","SYDNEY A","8205701","2019-08-10 11:00","2019","08","10","11:00","24.1","","18.6","","71","","","","21","","11","","24.1","","99.70","","31","","","","Mostly Cloudy"
"-60.05","46.16","SYDNEY A","8205701","2019-08-10 12:00","2019","08","10","12:00","25.8","","17.6","","60","","","","20","","16","","24.1","","99.66","","32","","","","NA"
"-60.05","46.16","SYDNEY A","8205701","2019-08-10 13:00","2019","08","10","13:00","24.8","","18.6","","68","","","","18","","16","","24.1","","99.64","","31","","","","NA"
"-60.05","46.16","SYDNEY A","8205701","2019-08-10 14:00","2019","08","10","14:00","25.0","","18.6","","67","","","","18","","23","","24.1","","99.61","","31","","","","Mostly Cloudy"
"-60.05","46.16","SYDNEY A","8205701","2019-08-10 15:00","2019","08","10","15:00","24.6","","18.5","","68","","","","19","","24","","24.1","","99.58","","31","","","","NA"
"-60.05","46.16","SYDNEY A","8205701","2019-08-10 16:00","2019","08","10","16:00","23.8","","15.9","","61","","","","22","","22","","24.1","","99.62","","28","","","","NA"
"-60.05","46.16","SYDNEY A","8205701","2019-08-10 17:00","2019","08","10","17:00","22.8","","16.5","","67","","","","21","","16","","24.1","","99.62","","28","","","","Mostly Cloudy"
"-60.05","46.16","SYDNEY A","8205701","2019-08-10 18:00","2019","08","10","18:00","21.2","","16.3","","73","","","","21","","18","","24.1","","99.67","","26","","","","NA"
"-60.05","46.16","SYDNEY A","8205701","2019-08-10 19:00","2019","08","10","19:00","19.5","","16.6","","83","","","","22","","10","","24.1","","99.76","","","","","","NA"
"-60.05","46.16","SYDNEY A","8205701","2019-08-10 20:00","2019","08","10","20:00","17.4","","14.4","","82","","","","2","","4","","24.1","","99.87","","","","","","Thunderstorms"
"-60.05","46.16","SYDNEY A","8205701","2019-08-10 21:00","2019","08","10","21:00","16.0","","14.1","","88","","","","16","","8","","24.1","","99.87","","","","","","NA"
"-60.05","46.16","SYDNEY A","8205701","2019-08-10 22:00","2019","08","10","22:00","15.8","","14.8","","94","","","","18","","14","","24.1","","99.85","","","","","","NA"
"-60.05","46.16","SYDNEY A","8205701","2019-08-10 23:00","2019","08","10","23:00","16.4","","15.8","","96","","","","21","","15","","24.1","","99.81","","","","","","Mainly Clear"
"-60.05","46.16","SYDNEY A","8205701","2019-08-11 00:00","2019","08","11","00:00","16.6","","15.9","","96","","","","21","","16","","24.1","","99.81","","","","","","NA"
"-60.05","46.16","SYDNEY A","8205701","2019-08-11 01:00","2019","08","11","01:00","16.6","","15.9","","96","","","","22","","17","","24.1","","99.80","","","","","","NA"
"-60.05","46.16","SYDNEY A","8205701","2019-08-11 02:00","2019","08","11","02:00","16.2","","15.7","","97","","","","20","","13","","24.1","","99.81","","","","","","Mainly Clear"
"-60.05","46.16","SYDNEY A","8205701","2019-08-11 03:00","2019","08","11","03:00","15.9","","15.3","","96","","","","27","","11","","24.1","","99.85","","","","","","NA"
"-60.05","46.16","SYDNEY A","8205701","2019-08-11 04:00","2019","08","11","04:00","14.8","","14.5","","98","","","","23","","10","","24.1","","99.85","","","","","","NA"
"-60.05","46.16","SYDNEY A","8205701","2019-08-11 05:00","2019","08","11","05:00","14.7","","14.3","","97","","","","21","","7","","24.1","","99.86","","","","","","Mainly Clear"
"-60.05","46.16","SYDNEY A","8205701","2019-08-11 06:00","2019","08","11","06:00","14.9","","14.5","","98","","","","22","","8","","24.1","","99.85","","","","","","NA"
"-60.05","46.16","SYDNEY A","8205701","2019-08-11 07:00","2019","08","11","07:00","18.1","","15.5","","85","","","","22","","10","","24.1","","99.90","","","","","","NA"
"-60.05","46.16","SYDNEY A","8205701","2019-08-11 08:00","2019","08","11","08:00","18.7","","16.1","","85","","","","18","","16","","24.1","","99.91","","","","","","Mostly Cloudy"
"-60.05","46.16","SYDNEY A","8205701","2019-08-11 09:00","2019","08","11","09:00","19.9","","15.8","","77","","","","21","","23","","24.1","","99.89","","","","","","NA"
"-60.05","46.16","SYDNEY A","8205701","2019-08-11 10:00","2019","08","11","10:00","22.3","","13.9","","58","","","","25","","25","","24.1","","99.85","","26","","","","NA"
"-60.05","46.16","SYDNEY A","8205701","2019-08-11 11:00","2019","08","11","11:00","22.9","","12.9","","53","","","","22","","29","","24.1","","99.82","","26","","","","Mainly Clear"
"-60.05","46.16","SYDNEY A","8205701","2019-08-11 12:00","2019","08","11","12:00","23.0","","13.4","","54","","","","25","","28","","24.1","","99.78","","26","","","","NA"
"-60.05","46.16","SYDNEY A","8205701","2019-08-11 13:00","2019","08","11","13:00","23.8","","12.6","","49","","","","25","","27","","24.1","","99.76","","26","","","","NA"
"-60.05","46.16","SYDNEY A","8205701","2019-08-11 14:00","2019","08","11","14:00","22.9","","12.1","","50","","","","25","","22","","24.1","","99.72","","25","","","","Mostly Cloudy"
"-60.05","46.16","SYDNEY A","8205701","2019-08-11 15:00","2019","08","11","15:00","23.8","","12.1","","47","","","","27","","23","","24.1","","99.73","","26","","","","NA"
"-60.05","46.16","SYDNEY A","8205701","2019-08-11 16:00","2019","08","11","16:00","23.2","","10.6","","45","","","","26","","32","","24.1","","99.74","","25","","","","NA"
"-60.05","46.16","SYDNEY A","8205701","2019-08-11 17:00","2019","08","11","17:00","22.4","","11.4","","49","","","","26","","21","","24.1","","99.75","","","","","","Mostly Cloudy"
"-60.05","46.16","SYDNEY A","8205701","2019-08-11 18:00","2019","08","11","18:00","19.9","","13.1","","64","","","","33","","11","","24.1","","99.78","","","","","","NA"
"-60.05","46.16","SYDNEY A","8205701","2019-08-11 19:00","2019","08","11","19:00","17.9","","13.8","","77","","","","16","","9","","24.1","","99.81","","","","","","NA"
"-60.05","46.16","SYDNEY A","8205701","2019-08-11 20:00","2019","08","11","20:00","17.4","","14.4","","82","","","","23","","10","","24.1","","99.84","","","","","","Mostly Cloudy"
"-60.05","46.16","SYDNEY A","8205701","2019-08-11 21:00","2019","08","11","21:00","17.6","","13.1","","74","","","","24","","17","","16.1","","99.91","","","","","","Rain Showers"
"-60.05","46.16","SYDNEY A","8205701","2019-08-11 22:00","2019","08","11","22:00","16.6","","13.0","","79","","","","29","","9","","24.1","","99.91","","","","","","NA"
"-60.05","46.16","SYDNEY A","8205701","2019-08-11 23:00","2019","08","11","23:00","16.1","","12.7","","80","","","","27","","7","","24.1","","99.87","","","","","","Mostly Cloudy"
"-60.05","46.16","SYDNEY A","8205701","2019-08-12 00:00","2019","08","12","00:00","14.8","","13.0","","89","","","","26","","9","","24.1","","99.86","","","","","","Rain"
"-60.05","46.16","SYDNEY A","8205701","2019-08-12 01:00","2019","08","12","01:00","13.7","","13.0","","95","","","","23","","13","","24.1","","99.83","","","","","","NA"
"-60.05","46.16","SYDNEY A","8205701","2019-08-12 02:00","2019","08","12","02:00","14.2","","13.3","","94","","","","22","","12","","24.1","","99.85","","","","","","Mainly Clear"
"-60.05","46.16","SYDNEY A","8205701","2019-08-12 03:00","2019","08","12","03:00","14.4","","13.4","","94","","","","21","","10","","24.1","","99.88","","","","","","NA"
"-60.05","46.16","SYDNEY A","8205701","2019-08-12 04:00","2019","08","12","04:00","14.4","","13.6","","95","","","","21","","16","","24.1","","99.90","","","","","","NA"
"-60.05","46.16","SYDNEY A","8205701","2019-08-12 05:00","2019","08","12","05:00","13.8","","13.1","","96","","","","18","","5","","24.1","","99.92","","","","","","Mostly Cloudy"
"-60.05","46.16","SYDNEY A","8205701","2019-08-12 06:00","2019","08","12","06:00","15.4","","14.1","","92","","","","22","","9","","24.1","","99.93","","","","","","NA"
"-60.05","46.16","SYDNEY A","8205701","2019-08-12 07:00","2019","08","12","07:00","17.4","","14.9","","85","","","","26","","18","","24.1","","99.99","","","","","","NA"
"-60.05","46.16","SYDNEY A","8205701","2019-08-12 08:00","2019","08","12","08:00","18.9","","14.7","","76","","","","26","","25","","24.1","","99.97","","","","","","Mainly Clear"
"-60.05","46.16","SYDNEY A","8205701","2019-08-12 09:00","2019","08","12","09:00","20.0","","14.1","","69","","","","26","","24","","24.1","","100.01","","","","","","NA"
"-60.05","46.16","SYDNEY A","8205701","2019-08-12 10:00","2019","08","12","10:00","21.1","","13.7","","62","","","","27","","28","","24.1","","100.04","","","","","","NA"
"-60.05","46.16","SYDNEY A","8205701","2019-08-12 11:00","2019","08","12","11:00","21.3","","14.0","","63","","","","27","","25","","24.1","","100.03","","25","","","","Mostly Cloudy"
"-60.05","46.16","SYDNEY A","8205701","2019-08-12 12:00","2019","08","12","12:00","21.7","","13.9","","61","","","","25","","20","","24.1","","100.01","","25","","","","NA"
"-60.05","46.16","SYDNEY A","8205701","2019-08-12 13:00","2019","08","12","13:00","22.8","","13.5","","55","","","","29","","28","","24.1","","100.00","","26","","","","NA"
"-60.05","46.16","SYDNEY A","8205701","2019-08-12 14:00","2019","08","12","14:00","22.9","","13.2","","54","","","","27","","19","","24.1","","99.98","","26","","","","Mostly Cloudy"
"-60.05","46.16","SYDNEY A","8205701","2019-08-12 15:00","2019","08","12","15:00","24.2","","14.2","","53","","","","22","","14","","24.1","","99.97","","28","","","","NA"
"-60.05","46.16","SYDNEY A","8205701","2019-08-12 16:00","2019","08","12","16:00","22.9","","13.8","","56","","","","24","","22","","24.1","","99.98","","26","","","","NA"
"-60.05","46.16","SYDNEY A","8205701","2019-08-12 17:00","2019","08","12","17:00","22.4","","14.8","","62","","","","22","","13","","24.1","","99.99","","26","","","","Mostly Cloudy"
"-60.05","46.16","SYDNEY A","8205701","2019-08-12 18:00","2019","08","12","18:00","21.3","","15.6","","69","","","","21","","16","","24.1","","100.00","","26","","","","NA"
"-60.05","46.16","SYDNEY A","8205701","2019-08-12 19:00","2019","08","12","19:00","20.3","","16.0","","76","","","","20","","8","","24.1","","100.03","","25","","","","NA"
"-60.05","46.16","SYDNEY A","8205701","2019-08-12 20:00","2019","08","12","20:00","19.8","","16.3","","80","","","","22","","12","","24.1","","100.06","","","","","","Mostly Cloudy"
"-60.05","46.16","SYDNEY A","8205701","2019-08-12 21:00","2019","08","12","21:00","19.7","","16.3","","81","","","","22","","12","","24.1","","100.07","","","","","","NA"
"-60.05","46.16","SYDNEY A","8205701","2019-08-12 22:00","2019","08","12","22:00","18.6","","17.1","","91","","","","24","","11","","16.1","","100.08","","","","","","Rain Showers"
"-60.05","46.16","SYDNEY A","8205701","2019-08-12 23:00","2019","08","12","23:00","18.3","","16.8","","91","","","","23","","9","","16.1","","100.07","","","","","","Rain Showers"
"-60.05","46.16","SYDNEY A","8205701","2019-08-13 00:00","2019","08","13","00:00","17.4","","16.3","","93","","","","22","","9","","24.1","","100.06","","","","","","NA"
"-60.05","46.16","SYDNEY A","8205701","2019-08-13 01:00","2019","08","13","01:00","17.4","","16.4","","93","","","","23","","8","","24.1","","100.06","","","","","","NA"
"-60.05","46.16","SYDNEY A","8205701","2019-08-13 02:00","2019","08","13","02:00","17.8","","16.8","","94","","","","24","","14","","24.1","","100.05","","","","","","Cloudy"
"-60.05","46.16","SYDNEY A","8205701","2019-08-13 03:00","2019","08","13","03:00","17.4","","16.5","","95","","","","23","","12","","24.1","","100.01","","","","","","Rain Showers"
"-60.05","46.16","SYDNEY A","8205701","2019-08-13 04:00","2019","08","13","04:00","16.6","","16.0","","96","","","","21","","10","","24.1","","99.98","","","","","","Rain Showers"
"-60.05","46.16","SYDNEY A","8205701","2019-08-13 05:00","2019","08","13","05:00","16.5","","16.0","","97","","","","19","","10","","24.1","","100.03","","","","","","Mostly Cloudy"
"-60.05","46.16","SYDNEY A","8205701","2019-08-13 06:00","2019","08","13","06:00","16.7","","15.9","","95","","","","19","","11","","24.1","","100.01","","","","","","NA"
"-60.05","46.16","SYDNEY A","8205701","2019-08-13 07:00","2019","08","13","07:00","17.0","","16.1","","94","","","","18","","19","","24.1","","99.96","","","","","","NA"
"-60.05","46.16","SYDNEY A","8205701","2019-08-13 08:00","2019","08","13","08:00","17.4","","15.8","","90","","","","20","","16","","24.1","","99.96","","","","","","Mostly Cloudy"
"-60.05","46.16","SYDNEY A","8205701","2019-08-13 09:00","2019","08","13","09:00","18.2","","16.2","","88","","","","22","","20","","24.1","","99.96","","","","","","NA"
"-60.05","46.16","SYDNEY A","8205701","2019-08-13 10:00","2019","08","13","10:00","17.8","","16.4","","92","","","","22","","17","","24.1","","99.89","","","","","","Rain"
"-60.05","46.16","SYDNEY A","8205701","2019-08-13 11:00","2019","08","13","11:00","20.1","","17.5","","85","","","","20","","16","","24.1","","99.86","","26","","","","Mostly Cloudy"
"-60.05","46.16","SYDNEY A","8205701","2019-08-13 12:00","2019","08","13","12:00","22.1","","17.3","","74","","","","22","","22","","24.1","","99.82","","28","","","","NA"
"-60.05","46.16","SYDNEY A","8205701","2019-08-13 13:00","2019","08","13","13:00","21.1","","17.9","","81","","","","21","","21","","24.1","","99.77","","27","","","","Rain Showers"
"-60.05","46.16","SYDNEY A","8205701","2019-08-13 14:00","2019","08","13","14:00","20.3","","18.5","","89","","","","20","","17","","24.1","","99.77","","27","","","","Rain Showers"
"-60.05","46.16","SYDNEY A","8205701","2019-08-13 15:00","2019","08","13","15:00","22.2","","18.8","","81","","","","22","","16","","24.1","","99.73","","29","","","","NA"
"-60.05","46.16","SYDNEY A","8205701","2019-08-13 16:00","2019","08","13","16:00","21.5","","18.2","","81","","","","22","","15","","24.1","","99.73","","28","","","","NA"
"-60.05","46.16","SYDNEY A","8205701","2019-08-13 17:00","2019","08","13","17:00","21.6","","18.1","","80","","","","21","","19","","24.1","","99.72","","28","","","","Mostly Cloudy"
"-60.05","46.16","SYDNEY A","8205701","2019-08-13 18:00","2019","08","13","18:00","21.1","","17.8","","81","","","","24","","17","","24.1","","99.77","","27","","","","NA"
"-60.05","46.16","SYDNEY A","8205701","2019-08-13 19:00","2019","08","13","19:00","18.2","","15.9","","86","","","","28","","30","","24.1","","99.93","","","","","","Rain Showers"
"-60.05","46.16","SYDNEY A","8205701","2019-08-13 20:00","2019","08","13","20:00","16.4","","15.8","","96","","","","24","","7","","24.1","","99.97","","","","","","Mainly Clear"
"-60.05","46.16","SYDNEY A","8205701","2019-08-13 21:00","2019","08","13","21:00","15.8","","15.0","","95","","","","24","","9","","24.1","","100.03","","","","","","NA"
"-60.05","46.16","SYDNEY A","8205701","2019-08-13 22:00","2019","08","13","22:00","14.2","","13.8","","97","","","","24","","9","","24.1","","100.09","","","","","","NA"
"-60.05","46.16","SYDNEY A","8205701","2019-08-13 23:00","2019","08","13","23:00","13.6","","13.2","","97","","","","22","","7","","24.1","","100.10","","","","","","Mainly Clear"
"-60.05","46.16","SYDNEY A","8205701","2019-08-14 00:00","2019","08","14","00:00","12.9","","12.6","","98","","","","25","","8","","24.1","","100.12","","","","","","NA"
"-60.05","46.16","SYDNEY A","8205701","2019-08-14 01:00","2019","08","14","01:00","12.4","","12.1","","98","","","","23","","10","","24.1","","100.13","","","","","","NA"
"-60.05","46.16","SYDNEY A","8205701","2019-08-14 02:00","2019","08","14","02:00","12.7","","12.4","","99","","","","28","","8","","24.1","","100.15","","","","","","Mainly Clear"
"-60.05","46.16","SYDNEY A","8205701","2019-08-14 03:00","2019","08","14","03:00","12.3","","11.9","","98","","","","24","","7","","24.1","","100.18","","","","","","NA"
"-60.05","46.16","SYDNEY A","8205701","2019-08-14 04:00","2019","08","14","04:00","11.0","","10.8","","98","","","","25","","14","","24.1","","100.19","","","","","","NA"
"-60.05","46.16","SYDNEY A","8205701","2019-08-14 05:00","2019","08","14","05:00","11.2","","10.9","","98","","","","26","","14","","24.1","","100.25","","","","","","Mainly Clear"
"-60.05","46.16","SYDNEY A","8205701","2019-08-14 06:00","2019","08","14","06:00","12.9","","12.5","","98","","","","23","","6","","24.1","","100.30","","","","","","NA"
"-60.05","46.16","SYDNEY A","8205701","2019-08-14 07:00","2019","08","14","07:00","15.7","","14.4","","92","","","","23","","10","","24.1","","100.36","","","","","","NA"
"-60.05","46.16","SYDNEY A","8205701","2019-08-14 08:00","2019","08","14","08:00","18.2","","14.9","","81","","","","27","","15","","24.1","","100.40","","","","","","Mainly Clear"
"-60.05","46.16","SYDNEY A","8205701","2019-08-14 09:00","2019","08","14","09:00","19.9","","14.1","","69","","","","27","","19","","24.1","","100.43","","","","","","NA"
"-60.05","46.16","SYDNEY A","8205701","2019-08-14 10:00","2019","08","14","10:00","21.0","","13.6","","62","","","","29","","18","","24.1","","100.43","","","","","","NA"
"-60.05","46.16","SYDNEY A","8205701","2019-08-14 11:00","2019","08","14","11:00","22.2","","13.8","","58","","","","28","","16","","24.1","","100.42","","25","","","","Mainly Clear"
"-60.05","46.16","SYDNEY A","8205701","2019-08-14 12:00","2019","08","14","12:00","22.4","","13.8","","58","","","","28","","9","","24.1","","100.40","","26","","","","NA"
"-60.05","46.16","SYDNEY A","8205701","2019-08-14 13:00","2019","08","14","13:00","23.0","","13.0","","53","","","","3","","9","","24.1","","100.40","","26","","","","NA"
"-60.05","46.16","SYDNEY A","8205701","2019-08-14 14:00","2019","08","14","14:00","22.2","","13.3","","57","","","","2","","10","","24.1","","100.38","","25","","","","Mostly Cloudy"
"-60.05","46.16","SYDNEY A","8205701","2019-08-14 15:00","2019","08","14","15:00","22.4","","14.4","","60","","","","10","","17","","24.1","","100.42","","26","","","","NA"
"-60.05","46.16","SYDNEY A","8205701","2019-08-14 16:00","2019","08","14","16:00","22.7","","15.0","","61","","","","13","","9","","24.1","","100.43","","27","","","","NA"
"-60.05","46.16","SYDNEY A","8205701","2019-08-14 17:00","2019","08","14","17:00","20.6","","14.9","","70","","","","13","","13","","24.1","","100.46","","25","","","","Mainly Clear"
"-60.05","46.16","SYDNEY A","8205701","2019-08-14 18:00","2019","08","14","18:00","20.8","","14.9","","69","","","","12","","9","","24.1","","100.48","","25","","","","NA"
"-60.05","46.16","SYDNEY A","8205701","2019-08-14 19:00","2019","08","14","19:00","18.2","","14.5","","78","","","","9","","9","","24.1","","100.55","","","","","","NA"
"-60.05","46.16","SYDNEY A","8205701","2019-08-14 20:00","2019","08","14","20:00","16.1","","14.5","","90","","","","8","","7","","24.1","","100.61","","","","","","Mainly Clear"
"-60.05","46.16","SYDNEY A","8205701","2019-08-14 21:00","2019","08","14","21:00","15.0","","14.2","","95","","","","9","","4","","24.1","","100.63","","","","","","NA"
"-60.05","46.16","SYDNEY A","8205701","2019-08-14 22:00","2019","08","14","22:00","13.1","","12.8","","98","","","","36","","2","","24.1","","100.64","","","","","","NA"
"-60.05","46.16","SYDNEY A","8205701","2019-08-14 23:00","2019","08","14","23:00","12.6","","12.3","","98","","","","14","","4","","24.1","","100.64","","","","","","Mainly Clear"
"-60.05","46.16","SYDNEY A","8205701","2019-08-15 00:00","2019","08","15","00:00","11.5","","11.2","","98","","","","36","","1","","24.1","","100.64","","","","","","NA"
"-60.05","46.16","SYDNEY A","8205701","2019-08-15 01:00","2019","08","15","01:00","11.3","","11.1","","98","","","","36","","1","","24.1","","100.65","","","","","","NA"
"-60.05","46.16","SYDNEY A","8205701","2019-08-15 02:00","2019","08","15","02:00","10.7","","10.4","","98","","","","36","","1","","24.1","","100.65","","","","","","Mainly Clear"
"-60.05","46.16","SYDNEY A","8205701","2019-08-15 03:00","2019","08","15","03:00","10.7","","10.4","","99","","","","17","","4","","24.1","","100.65","","","","","","NA"
"-60.05","46.16","SYDNEY A","8205701","2019-08-15 04:00","2019","08","15","04:00","10.0","","9.5","","97","","","","18","","3","","24.1","","100.68","","","","","","NA"
"-60.05","46.16","SYDNEY A","8205701","2019-08-15 05:00","2019","08","15","05:00","9.3","","8.8","","97","","","","27","","4","","24.1","","100.73","","","","","","Mostly Cloudy"
"-60.05","46.16","SYDNEY A","8205701","2019-08-15 06:00","2019","08","15","06:00","12.0","","11.8","","99","","","","24","","8","","24.1","","100.81","","","","","","NA"
"-60.05","46.16","SYDNEY A","8205701","2019-08-15 07:00","2019","08","15","07:00","17.0","","16.4","","96","","","","24","","6","","24.1","","100.80","","","","","","NA"
"-60.05","46.16","SYDNEY A","8205701","2019-08-15 08:00","2019","08","15","08:00","18.9","","15.8","","82","","","","24","","8","","24.1","","100.82","","","","","","Mainly Clear"
"-60.05","46.16","SYDNEY A","8205701","2019-08-15 09:00","2019","08","15","09:00","19.9","","15.0","","73","","","","25","","8","","24.1","","100.86","","","","","","NA"
"-60.05","46.16","SYDNEY A","8205701","2019-08-15 10:00","2019","08","15","10:00","21.9","","14.6","","63","","","","35","","4","","24.1","","100.90","","26","","","","NA"
"-60.05","46.16","SYDNEY A","8205701","2019-08-15 11:00","2019","08","15","11:00","22.2","","15.9","","67","","","","36","","12","","24.1","","100.92","","27","","","","Mainly Clear"
"-60.05","46.16","SYDNEY A","8205701","2019-08-15 12:00","2019","08","15","12:00","21.9","","11.8","","52","","","","6","","8","","24.1","","100.93","","","","","","NA"
"-60.05","46.16","SYDNEY A","8205701","2019-08-15 13:00","2019","08","15","13:00","23.9","","12.6","","49","","","","3","","11","","24.1","","100.94","","26","","","","NA"
"-60.05","46.16","SYDNEY A","8205701","2019-08-15 14:00","2019","08","15","14:00","23.2","","15.2","","60","","","","7","","12","","24.1","","100.94","","27","","","","Mainly Clear"
"-60.05","46.16","SYDNEY A","8205701","2019-08-15 15:00","2019","08","15","15:00","23.1","","15.5","","62","","","","7","","16","","24.1","","100.95","","27","","","","NA"
"-60.05","46.16","SYDNEY A","8205701","2019-08-15 16:00","2019","08","15","16:00","22.9","","14.9","","60","","","","8","","15","","24.1","","100.95","","27","","","","NA"
"-60.05","46.16","SYDNEY A","8205701","2019-08-15 17:00","2019","08","15","17:00","21.9","","13.6","","59","","","","5","","16","","24.1","","101.02","","25","","","","Mainly Clear"
"-60.05","46.16","SYDNEY A","8205701","2019-08-15 18:00","2019","08","15","18:00","20.3","","15.2","","72","","","","7","","16","","24.1","","101.07","","","","","","NA"
"-60.05","46.16","SYDNEY A","8205701","2019-08-15 19:00","2019","08","15","19:00","18.4","","14.3","","76","","","","6","","6","","24.1","","101.12","","","","","","NA"
"-60.05","46.16","SYDNEY A","8205701","2019-08-15 20:00","2019","08","15","20:00","15.3","","13.6","","89","","","","36","","2","","24.1","","101.23","","","","","","Mainly Clear"
"-60.05","46.16","SYDNEY A","8205701","2019-08-15 21:00","2019","08","15","21:00","14.4","","13.7","","96","","","","36","","2","","24.1","","101.26","","","","","","NA"
"-60.05","46.16","SYDNEY A","8205701","2019-08-15 22:00","2019","08","15","22:00","13.6","","13.2","","97","","","","14","","5","","24.1","","101.29","","","","","","NA"
"-60.05","46.16","SYDNEY A","8205701","2019-08-15 23:00","2019","08","15","23:00","12.9","","12.5","","98","","","","36","","3","","24.1","","101.30","","","","","","Clear"
"-60.05","46.16","SYDNEY A","8205701","2019-08-16 00:00","2019","08","16","00:00","12.3","","11.1","","92","","","","0","","1","","24.1","","101.31","","","","","","NA"
"-60.05","46.16","SYDNEY A","8205701","2019-08-16 01:00","2019","08","16","01:00","10.7","","10.4","","98","","","","36","","1","","24.1","","101.29","","","","","","NA"
"-60.05","46.16","SYDNEY A","8205701","2019-08-16 02:00","2019","08","16","02:00","10.8","","10.5","","98","","","","13","","6","","3.2","","101.29","","","","","","Clear"
"-60.05","46.16","SYDNEY A","8205701","2019-08-16 03:00","2019","08","16","03:00","10.4","","10.2","","99","","","","17","","4","","24.1","","101.30","","","","","","NA"
"-60.05","46.16","SYDNEY A","8205701","2019-08-16 04:00","2019","08","16","04:00","10.4","","10.0","","97","","","","36","","2","","24.1","","101.34","","","","","","NA"
"-60.05","46.16","SYDNEY A","8205701","2019-08-16 05:00","2019","08","16","05:00","11.5","","11.2","","98","","","","14","","4","","24.1","","101.36","","","","","","Mainly Clear"
"-60.05","46.16","SYDNEY A","8205701","2019-08-16 06:00","2019","08","16","06:00","10.8","","10.6","","98","","","","25","","12","","0.2","","101.41","","","","","","Fog"
"-60.05","46.16","SYDNEY A","8205701","2019-08-16 07:00","2019","08","16","07:00","15.8","","15.5","","98","","","","25","","4","","24.1","","101.42","","","","","","NA"
"-60.05","46.16","SYDNEY A","8205701","2019-08-16 08:00","2019","08","16","08:00","19.8","","16.9","","83","","","","11","","9","","24.1","","101.42","","","","","","Mostly Cloudy"
"-60.05","46.16","SYDNEY A","8205701","2019-08-16 09:00","2019","08","16","09:00","21.3","","16.6","","74","","","","13","","7","","24.1","","101.42","","26","","","","NA"
"-60.05","46.16","SYDNEY A","8205701","2019-08-16 10:00","2019","08","16","10:00","24.0","","16.9","","64","","","","7","","3","","24.1","","101.46","","29","","","","NA"
"-60.05","46.16","SYDNEY A","8205701","2019-08-16 11:00","2019","08","16","11:00","24.0","","13.4","","51","","","","30","","7","","24.1","","101.44","","27","","","","Mostly Cloudy"
"-60.05","46.16","SYDNEY A","8205701","2019-08-16 12:00","2019","08","16","12:00","24.3","","17.8","","67","","","","7","","12","","24.1","","101.44","","30","","","","NA"
"-60.05","46.16","SYDNEY A","8205701","2019-08-16 13:00","2019","08","16","13:00","24.0","","16.9","","64","","","","12","","19","","24.1","","101.42","","29","","","","NA"
"-60.05","46.16","SYDNEY A","8205701","2019-08-16 14:00","2019","08","16","14:00","23.1","","16.2","","65","","","","12","","20","","24.1","","101.38","","28","","","","Mostly Cloudy"
"-60.05","46.16","SYDNEY A","8205701","2019-08-16 15:00","2019","08","16","15:00","22.3","","15.6","","65","","","","17","","17","","24.1","","101.39","","27","","","","NA"
"-60.05","46.16","SYDNEY A","8205701","2019-08-16 16:00","2019","08","16","16:00","21.2","","13.7","","62","","","","17","","14","","24.1","","101.35","","","","","","NA"
"-60.05","46.16","SYDNEY A","8205701","2019-08-16 17:00","2019","08","16","17:00","21.2","","13.8","","62","","","","18","","11","","24.1","","101.32","","","","","","Mostly Cloudy"
"-60.05","46.16","SYDNEY A","8205701","2019-08-16 18:00","2019","08","16","18:00","21.4","","13.9","","62","","","","20","","16","","24.1","","101.34","","25","","","","NA"
"-60.05","46.16","SYDNEY A","8205701","2019-08-16 19:00","2019","08","16","19:00","19.8","","14.4","","71","","","","20","","15","","24.1","","101.37","","","","","","NA"
"-60.05","46.16","SYDNEY A","8205701","2019-08-16 20:00","2019","08","16","20:00","18.3","","14.6","","79","","","","17","","7","","24.1","","101.40","","","","","","Mostly Cloudy"
"-60.05","46.16","SYDNEY A","8205701","2019-08-16 21:00","2019","08","16","21:00","16.1","","14.2","","88","","","","16","","6","","24.1","","101.43","","","","","","NA"
"-60.05","46.16","SYDNEY A","8205701","2019-08-16 22:00","2019","08","16","22:00","14.5","","13.7","","95","","","","20","","7","","24.1","","101.41","","","","","","NA"
"-60.05","46.16","SYDNEY A","8205701","2019-08-16 23:00","2019","08","16","23:00","13.8","","13.1","","95","","","","36","","2","","24.1","","101.41","","","","","","Mainly Clear"
"-60.05","46.16","SYDNEY A","8205701","2019-08-17 00:00","2019","08","17","00:00","14.4","","13.6","","95","","","","36","","2","","24.1","","101.41","","","","","","NA"
"-60.05","46.16","SYDNEY A","8205701","2019-08-17 01:00","2019","08","17","01:00","13.1","","12.8","","98","","","","24","","8","","24.1","","101.42","","","","","","NA"
"-60.05","46.16","SYDNEY A","8205701","2019-08-17 02:00","2019","08","17","02:00","13.0","","12.8","","98","","","","23","","4","","24.1","","101.43","","","","","","Mostly Cloudy"
"-60.05","46.16","SYDNEY A","8205701","2019-08-17 03:00","2019","08","17","03:00","12.2","","11.9","","98","","","","25","","6","","24.1","","101.41","","","","","","NA"
"-60.05","46.16","SYDNEY A","8205701","2019-08-17 04:00","2019","08","17","04:00","12.2","","11.8","","97","","","","26","","5","","24.1","","101.41","","","","","","NA"
"-60.05","46.16","SYDNEY A","8205701","2019-08-17 05:00","2019","08","17","05:00","10.8","","10.5","","98","","","","19","","4","","24.1","","101.42","","","","","","Mainly Clear"
"-60.05","46.16","SYDNEY A","8205701","2019-08-17 06:00","2019","08","17","06:00","13.5","","13.3","","99","","","","23","","6","","24.1","","101.47","","","","","","NA"
"-60.05","46.16","SYDNEY A","8205701","2019-08-17 07:00","2019","08","17","07:00","17.4","","16.4","","94","","","","22","","5","","24.1","","101.44","","","","","","NA"
"-60.05","46.16","SYDNEY A","8205701","2019-08-17 08:00","2019","08","17","08:00","19.6","","16.5","","82","","","","16","","14","","24.1","","101.44","","","","","","Mainly Clear"
"-60.05","46.16","SYDNEY A","8205701","2019-08-17 09:00","2019","08","17","09:00","21.0","","16.5","","75","","","","16","","8","","24.1","","101.43","","26","","","","NA"
"-60.05","46.16","SYDNEY A","8205701","2019-08-17 10:00","2019","08","17","10:00","22.9","","15.3","","62","","","","19","","4","","24.1","","101.46","","27","","","","NA"
"-60.05","46.16","SYDNEY A","8205701","2019-08-17 11:00","2019","08","17","11:00","23.6","","15.5","","60","","","","15","","9","","24.1","","101.44","","28","","","","Mainly Clear"
"-60.05","46.16","SYDNEY A","8205701","2019-08-17 12:00","2019","08","17","12:00","24.1","","16.7","","63","","","","13","","16","","24.1","","101.40","","29","","","","NA"
"-60.05","46.16","SYDNEY A","8205701","2019-08-17 13:00","2019","08","17","13:00","24.1","","14.2","","53","","","","17","","20","","24.1","","101.38","","28","","","","NA"
"-60.05","46.16","SYDNEY A","8205701","2019-08-17 14:00","2019","08","17","14:00","24.3","","15.6","","58","","","","16","","16","","24.1","","101.38","","29","","","","Mainly Clear"
"-60.05","46.16","SYDNEY A","8205701","2019-08-17 15:00","2019","08","17","15:00","23.6","","14.7","","57","","","","16","","22","","24.1","","101.43","","27","","","","NA"
"-60.05","46.16","SYDNEY A","8205701","2019-08-17 16:00","2019","08","17","16:00","23.0","","14.3","","58","","","","16","","22","","24.1","","101.38","","27","","","","NA"
"-60.05","46.16","SYDNEY A","8205701","2019-08-17 17:00","2019","08","17","17:00","21.4","","15.4","","68","","","","17","","14","","24.1","","101.42","","26","","","","Mainly Clear"
"-60.05","46.16","SYDNEY A","8205701","2019-08-17 18:00","2019","08","17","18:00","20.7","","14.3","","66","","","","19","","16","","24.1","","101.40","","","","","","NA"
"-60.05","46.16","SYDNEY A","8205701","2019-08-17 19:00","2019","08","17","19:00","18.4","","15.2","","81","","","","19","","13","","24.1","","101.40","","","","","","NA"
"-60.05","46.16","SYDNEY A","8205701","2019-08-17 20:00","2019","08","17","20:00","16.5","","15.1","","91","","","","18","","7","","24.1","","101.37","","","","","","Mainly Clear"
"-60.05","46.16","SYDNEY A","8205701","2019-08-17 21:00","2019","08","17","21:00","16.2","","15.2","","94","","","","19","","7","","24.1","","101.40","","","","","","NA"
"-60.05","46.16","SYDNEY A","8205701","2019-08-17 22:00","2019","08","17","22:00","15.3","","14.7","","96","","","","19","","7","","24.1","","101.38","","","","","","NA"
"-60.05","46.16","SYDNEY A","8205701","2019-08-17 23:00","2019","08","17","23:00","16.0","","15.3","","95","","","","19","","7","","24.1","","101.35","","","","","","Mostly Cloudy"
"-60.05","46.16","SYDNEY A","8205701","2019-08-18 00:00","2019","08","18","00:00","15.9","","15.2","","95","","","","20","","7","","24.1","","101.35","","","","","","NA"
"-60.05","46.16","SYDNEY A","8205701","2019-08-18 01:00","2019","08","18","01:00","16.0","","15.4","","96","","","","21","","9","","24.1","","101.31","","","","","","NA"
"-60.05","46.16","SYDNEY A","8205701","2019-08-18 02:00","2019","08","18","02:00","16.3","","15.7","","96","","","","19","","5","","24.1","","101.28","","","","","","Cloudy"
"-60.05","46.16","SYDNEY A","8205701","2019-08-18 03:00","2019","08","18","03:00","15.9","","15.4","","97","","","","20","","7","","24.1","","101.28","","","","","","NA"
"-60.05","46.16","SYDNEY A","8205701","2019-08-18 04:00","2019","08","18","04:00","15.6","","15.3","","98","","","","19","","8","","24.1","","101.27","","","","","","NA"
"-60.05","46.16","SYDNEY A","8205701","2019-08-18 05:00","2019","08","18","05:00","15.7","","15.4","","98","","","","18","","5","","24.1","","101.32","","","","","","Mostly Cloudy"
"-60.05","46.16","SYDNEY A","8205701","2019-08-18 06:00","2019","08","18","06:00","14.6","","14.3","","98","","","","15","","8","","24.1","","101.27","","","","","","NA"
"-60.05","46.16","SYDNEY A","8205701","2019-08-18 07:00","2019","08","18","07:00","18.0","","16.7","","92","","","","17","","9","","24.1","","101.28","","","","","","NA"
"-60.05","46.16","SYDNEY A","8205701","2019-08-18 08:00","2019","08","18","08:00","20.0","","16.6","","81","","","","19","","17","","24.1","","101.28","","25","","","","Mostly Cloudy"
"-60.05","46.16","SYDNEY A","8205701","2019-08-18 09:00","2019","08","18","09:00","20.0","","15.3","","74","","","","20","","15","","24.1","","101.27","","","","","","NA"
"-60.05","46.16","SYDNEY A","8205701","2019-08-18 10:00","2019","08","18","10:00","20.5","","16.2","","76","","","","18","","14","","24.1","","101.23","","25","","","","NA"
"-60.05","46.16","SYDNEY A","8205701","2019-08-18 11:00","2019","08","18","11:00","21.4","","17.0","","76","","","","21","","12","","24.1","","101.20","","27","","","","Mostly Cloudy"
"-60.05","46.16","SYDNEY A","8205701","2019-08-18 12:00","2019","08","18","12:00","22.0","","17.0","","73","","","","18","","17","","24.1","","101.17","","27","","","","NA"
"-60.05","46.16","SYDNEY A","8205701","2019-08-18 13:00","2019","08","18","13:00","23.3","","17.5","","70","","","","19","","10","","24.1","","101.14","","29","","","","NA"
"-60.05","46.16","SYDNEY A","8205701","2019-08-18 14:00","2019","08","18","14:00","21.6","","16.6","","73","","","","17","","17","","24.1","","101.15","","27","","","","Mostly Cloudy"
"-60.05","46.16","SYDNEY A","8205701","2019-08-18 15:00","2019","08","18","15:00","20.5","","16.4","","77","","","","20","","16","","24.1","","101.16","","25","","","","NA"
"-60.05","46.16","SYDNEY A","8205701","2019-08-18 16:00","2019","08","18","16:00","20.1","","16.1","","78","","","","18","","13","","24.1","","101.11","","25","","","","NA"
"-60.05","46.16","SYDNEY A","8205701","2019-08-18 17:00","2019","08","18","17:00","18.3","","17.1","","93","","","","16","","10","","24.1","","101.07","","","","","","Rain"
"-60.05","46.16","SYDNEY A","8205701","2019-08-18 18:00","2019","08","18","18:00","18.5","","17.5","","94","","","","18","","13","","24.1","","101.11","","","","","","NA"
"-60.05","46.16","SYDNEY A","8205701","2019-08-18 19:00","2019","08","18","19:00","18.3","","17.5","","95","","","","20","","9","","24.1","","101.12","","","","","","NA"
"-60.05","46.16","SYDNEY A","8205701","2019-08-18 20:00","2019","08","18","20:00","18.2","","17.4","","95","","","","18","","12","","24.1","","101.10","","","","","","Mostly Cloudy"
"-60.05","46.16","SYDNEY A","8205701","2019-08-18 21:00","2019","08","18","21:00","18.1","","17.3","","95","","","","18","","8","","24.1","","101.11","","","","","","NA"
"-60.05","46.16","SYDNEY A","8205701","2019-08-18 22:00","2019","08","18","22:00","18.1","","17.3","","94","","","","18","","4","","16.1","","101.11","","","","","","NA"
"-60.05","46.16","SYDNEY A","8205701","2019-08-18 23:00","2019","08","18","23:00","18.0","","17.2","","95","","","","15","","5","","24.1","","101.07","","","","","","Cloudy"
"-60.05","46.16","SYDNEY A","8205701","2019-08-19 00:00","2019","08","19","00:00","17.3","","16.8","","97","","","","17","","5","","24.1","","101.05","","","","","","NA"
"-60.05","46.16","SYDNEY A","8205701","2019-08-19 01:00","2019","08","19","01:00","17.2","","16.9","","98","","","","17","","6","","24.1","","101.01","","","","","","NA"
"-60.05","46.16","SYDNEY A","8205701","2019-08-19 02:00","2019","08","19","02:00","17.9","","17.4","","96","","","","18","","7","","24.1","","100.99","","","","","","Cloudy"
"-60.05","46.16","SYDNEY A","8205701","2019-08-19 03:00","2019","08","19","03:00","18.1","","17.5","","96","","","","19","","8","","24.1","","101.00","","","","","","NA"
"-60.05","46.16","SYDNEY A","8205701","2019-08-19 04:00","2019","08","19","04:00","18.2","","17.6","","97","","","","18","","8","","16.1","","101.01","","","","","","NA"
"-60.05","46.16","SYDNEY A","8205701","2019-08-19 05:00","2019","08","19","05:00","18.1","","17.7","","97","","","","19","","5","","16.1","","101.03","","","","","","Cloudy"
"-60.05","46.16","SYDNEY A","8205701","2019-08-19 06:00","2019","08","19","06:00","18.3","","17.9","","98","","","","20","","9","","16.1","","101.07","","","","","","NA"
"-60.05","46.16","SYDNEY A","8205701","2019-08-19 07:00","2019","08","19","07:00","19.5","","18.6","","94","","","","19","","10","","24.1","","101.09","","","","","","NA"
"-60.05","46.16","SYDNEY A","8205701","2019-08-19 08:00","2019","08","19","08:00","20.0","","18.7","","92","","","","17","","14","","24.1","","101.08","","27","","","","Cloudy"
"-60.05","46.16","SYDNEY A","8205701","2019-08-19 09:00","2019","08","19","09:00","20.4","","19.3","","93","","","","17","","9","","24.1","","101.08","","27","","","","NA"
"-60.05","46.16","SYDNEY A","8205701","2019-08-19 10:00","2019","08","19","10:00","21.2","","19.5","","90","","","","18","","15","","24.1","","101.05","","28","","","","NA"
"-60.05","46.16","SYDNEY A","8205701","2019-08-19 11:00","2019","08","19","11:00","22.6","","19.6","","83","","","","18","","14","","24.1","","101.03","","30","","","","Mostly Cloudy"
"-60.05","46.16","SYDNEY A","8205701","2019-08-19 12:00","2019","08","19","12:00","23.9","","19.7","","77","","","","17","","14","","24.1","","100.99","","31","","","","NA"
"-60.05","46.16","SYDNEY A","8205701","2019-08-19 13:00","2019","08","19","13:00","23.4","","19.1","","76","","","","17","","21","","24.1","","100.95","","30","","","","NA"
"-60.05","46.16","SYDNEY A","8205701","2019-08-19 14:00","2019","08","19","14:00","22.9","","18.3","","75","","","","18","","25","","24.1","","100.91","","29","","","","Mostly Cloudy"
"-60.05","46.16","SYDNEY A","8205701","2019-08-19 15:00","2019","08","19","15:00","25.1","","18.6","","67","","","","20","","26","","24.1","","100.88","","32","","","","NA"
"-60.05","46.16","SYDNEY A","8205701","2019-08-19 16:00","2019","08","19","16:00","23.0","","18.8","","77","","","","19","","19","","24.1","","100.85","","30","","","","NA"
"-60.05","46.16","SYDNEY A","8205701","2019-08-19 17:00","2019","08","19","17:00","23.0","","18.9","","77","","","","19","","17","","24.1","","100.78","","30","","","","Mostly Cloudy"
"-60.05","46.16","SYDNEY A","8205701","2019-08-19 18:00","2019","08","19","18:00","21.9","","18.7","","82","","","","20","","17","","24.1","","100.76","","28","","","","NA"
"-60.05","46.16","SYDNEY A","8205701","2019-08-19 19:00","2019","08","19","19:00","20.3","","18.3","","88","","","","21","","16","","24.1","","100.72","","27","","","","NA"
"-60.05","46.16","SYDNEY A","8205701","2019-08-19 20:00","2019","08","19","20:00","20.1","","18.7","","91","","","","20","","13","","24.1","","100.74","","27","","","","Mostly Cloudy"
"-60.05","46.16","SYDNEY A","8205701","2019-08-19 21:00","2019","08","19","21:00","20.2","","18.9","","92","","","","21","","17","","24.1","","100.72","","27","","","","NA"
"-60.05","46.16","SYDNEY A","8205701","2019-08-19 22:00","2019","08","19","22:00","20.2","","18.9","","92","","","","22","","11","","16.1","","100.68","","27","","","","NA"
"-60.05","46.16","SYDNEY A","8205701","2019-08-19 23:00","2019","08","19","23:00","20.4","","19.2","","93","","","","21","","15","","16.1","","100.63","","27","","","","Cloudy"
"-60.05","46.16","SYDNEY A","8205701","2019-08-20 00:00","2019","08","20","00:00","19.9","","19.5","","98","","","","18","","16","","16.1","","100.56","","","","","","Rain"
"-60.05","46.16","SYDNEY A","8205701","2019-08-20 01:00","2019","08","20","01:00","20.0","","19.6","","98","","","","19","","17","","16.1","","100.49","","27","","","","Rain"
"-60.05","46.16","SYDNEY A","8205701","2019-08-20 02:00","2019","08","20","02:00","20.2","","19.7","","97","","","","21","","13","","16.1","","100.49","","28","","","","Rain"
"-60.05","46.16","SYDNEY A","8205701","2019-08-20 03:00","2019","08","20","03:00","20.2","","19.7","","97","","","","20","","18","","16.1","","100.45","","28","","","","NA"
"-60.05","46.16","SYDNEY A","8205701","2019-08-20 04:00","2019","08","20","04:00","20.1","","19.6","","97","","","","20","","13","","16.1","","100.38","","27","","","","NA"
"-60.05","46.16","SYDNEY A","8205701","2019-08-20 05:00","2019","08","20","05:00","20.2","","19.7","","97","","","","22","","13","","16.1","","100.39","","28","","","","Cloudy"
"-60.05","46.16","SYDNEY A","8205701","2019-08-20 06:00","2019","08","20","06:00","20.6","","19.9","","96","","","","21","","17","","11.3","","100.40","","28","","","","NA"
"-60.05","46.16","SYDNEY A","8205701","2019-08-20 07:00","2019","08","20","07:00","20.9","","20.1","","95","","","","22","","16","","11.3","","100.42","","29","","","","NA"
"-60.05","46.16","SYDNEY A","8205701","2019-08-20 08:00","2019","08","20","08:00","21.7","","20.7","","93","","","","23","","19","","24.1","","100.41","","30","","","","Mostly Cloudy"
"-60.05","46.16","SYDNEY A","8205701","2019-08-20 09:00","2019","08","20","09:00","23.1","","21.1","","88","","","","24","","23","","24.1","","100.39","","32","","","","NA"
"-60.05","46.16","SYDNEY A","8205701","2019-08-20 10:00","2019","08","20","10:00","24.9","","21.2","","80","","","","26","","19","","24.1","","100.40","","33","","","","NA"
"-60.05","46.16","SYDNEY A","8205701","2019-08-20 11:00","2019","08","20","11:00","24.5","","20.9","","80","","","","25","","26","","24.1","","100.43","","33","","","","Mostly Cloudy"
"-60.05","46.16","SYDNEY A","8205701","2019-08-20 12:00","2019","08","20","12:00","26.1","","20.8","","72","","","","27","","26","","24.1","","100.39","","34","","","","NA"
"-60.05","46.16","SYDNEY A","8205701","2019-08-20 13:00","2019","08","20","13:00","25.2","","20.1","","73","","","","28","","29","","24.1","","100.41","","33","","","","NA"
"-60.05","46.16","SYDNEY A","8205701","2019-08-20 14:00","2019","08","20","14:00","25.5","","17.6","","61","","","","28","","26","","24.1","","100.43","","31","","","","Mainly Clear"
"-60.05","46.16","SYDNEY A","8205701","2019-08-20 15:00","2019","08","20","15:00","25.4","","15.3","","53","","","","28","","29","","24.1","","100.44","","30","","","","NA"
"-60.05","46.16","SYDNEY A","8205701","2019-08-20 16:00","2019","08","20","16:00","25.0","","13.2","","47","","","","28","","25","","24.1","","100.46","","28","","","","NA"
"-60.05","46.16","SYDNEY A","8205701","2019-08-20 17:00","2019","08","20","17:00","23.5","","13.8","","54","","","","30","","23","","24.1","","100.50","","27","","","","Mainly Clear"
"-60.05","46.16","SYDNEY A","8205701","2019-08-20 18:00","2019","08","20","18:00","22.1","","14.1","","60","","","","30","","13","","24.1","","100.57","","26","","","","NA"
"-60.05","46.16","SYDNEY A","8205701","2019-08-20 19:00","2019","08","20","19:00","19.2","","13.9","","71","","","","28","","12","","24.1","","100.65","","","","","","NA"
"-60.05","46.16","SYDNEY A","8205701","2019-08-20 20:00","2019","08","20","20:00","16.9","","13.2","","79","","","","25","","10","","24.1","","100.76","","","","","","Mainly Clear"
"-60.05","46.16","SYDNEY A","8205701","2019-08-20 21:00","2019","08","20","21:00","16.2","","12.6","","79","","","","27","","11","","24.1","","100.76","","","","","","NA"
"-60.05","46.16","SYDNEY A","8205701","2019-08-20 22:00","2019","08","20","22:00","13.9","","11.6","","86","","","","21","","11","","24.1","","100.79","","","","","","NA"
"-60.05","46.16","SYDNEY A","8205701","2019-08-20 23:00","2019","08","20","23:00","13.5","","10.6","","82","","","","23","","12","","24.1","","100.77","","","","","","Mainly Clear"
"-60.05","46.16","SYDNEY A","8205701","2019-08-21 00:00","2019","08","21","00:00","14.9","","11.3","","79","","","","22","","9","","24.1","","100.79","","","","","","NA"
"-60.05","46.16","SYDNEY A","8205701","2019-08-21 01:00","2019","08","21","01:00","14.6","","12.3","","86","","","","23","","19","","24.1","","100.77","","","","","","NA"
"-60.05","46.16","SYDNEY A","8205701","2019-08-21 02:00","2019","08","21","02:00","14.3","","13.2","","93","","","","24","","16","","24.1","","100.79","","","","","","Mainly Clear"
"-60.05","46.16","SYDNEY A","8205701","2019-08-21 03:00","2019","08","21","03:00","14.7","","13.8","","94","","","","24","","14","","24.1","","100.77","","","","","","NA"
"-60.05","46.16","SYDNEY A","8205701","2019-08-21 04:00","2019","08","21","04:00","14.6","","13.5","","93","","","","24","","16","","24.1","","100.79","","","","","","NA"
"-60.05","46.16","SYDNEY A","8205701","2019-08-21 05:00","2019","08","21","05:00","14.9","","13.5","","91","","","","24","","17","","24.1","","100.85","","","","","","Mainly Clear"
"-60.05","46.16","SYDNEY A","8205701","2019-08-21 06:00","2019","08","21","06:00","16.4","","14.1","","86","","","","24","","16","","24.1","","100.90","","","","","","NA"
"-60.05","46.16","SYDNEY A","8205701","2019-08-21 07:00","2019","08","21","07:00","18.9","","15.0","","78","","","","24","","17","","24.1","","100.93","","","","","","NA"
"-60.05","46.16","SYDNEY A","8205701","2019-08-21 08:00","2019","08","21","08:00","21.8","","15.7","","68","","","","24","","15","","24.1","","100.94","","26","","","","Mainly Clear"
"-60.05","46.16","SYDNEY A","8205701","2019-08-21 09:00","2019","08","21","09:00","24.7","","15.6","","56","","","","26","","17","","24.1","","100.93","","29","","","","NA"
"-60.05","46.16","SYDNEY A","8205701","2019-08-21 10:00","2019","08","21","10:00","26.1","","15.4","","51","","","","24","","21","","24.1","","100.93","","30","","","","NA"
"-60.05","46.16","SYDNEY A","8205701","2019-08-21 11:00","2019","08","21","11:00","26.9","","13.5","","43","","","","24","","25","","24.1","","100.96","","30","","","","Mainly Clear"
"-60.05","46.16","SYDNEY A","8205701","2019-08-21 12:00","2019","08","21","12:00","27.9","","12.9","","39","","","","23","","26","","24.1","","100.93","","31","","","","NA"
"-60.05","46.16","SYDNEY A","8205701","2019-08-21 13:00","2019","08","21","13:00","27.9","","12.1","","37","","","","25","","25","","24.1","","100.90","","30","","","","NA"
"-60.05","46.16","SYDNEY A","8205701","2019-08-21 14:00","2019","08","21","14:00","28.3","","12.7","","37","","","","22","","25","","24.1","","100.87","","31","","","","Mostly Cloudy"
"-60.05","46.16","SYDNEY A","8205701","2019-08-21 15:00","2019","08","21","15:00","28.1","","13.8","","41","","","","23","","21","","24.1","","100.85","","31","","","","NA"
"-60.05","46.16","SYDNEY A","8205701","2019-08-21 16:00","2019","08","21","16:00","27.1","","15.4","","48","","","","21","","22","","24.1","","100.84","","31","","","","NA"
"-60.05","46.16","SYDNEY A","8205701","2019-08-21 17:00","2019","08","21","17:00","25.8","","15.8","","53","","","","21","","22","","24.1","","100.85","","30","","","","Mainly Clear"
"-60.05","46.16","SYDNEY A","8205701","2019-08-21 18:00","2019","08","21","18:00","23.6","","16.3","","63","","","","21","","16","","24.1","","100.85","","28","","","","NA"
"-60.05","46.16","SYDNEY A","8205701","2019-08-21 19:00","2019","08","21","19:00","21.2","","17.6","","80","","","","20","","13","","24.1","","100.89","","27","","","","NA"
"-60.05","46.16","SYDNEY A","8205701","2019-08-21 20:00","2019","08","21","20:00","19.1","","17.7","","92","","","","21","","14","","24.1","","100.95","","","","","","Mostly Cloudy"
"-60.05","46.16","SYDNEY A","8205701","2019-08-21 21:00","2019","08","21","21:00","18.6","","17.4","","93","","","","21","","12","","16.1","","100.92","","","","","","NA"
"-60.05","46.16","SYDNEY A","8205701","2019-08-21 22:00","2019","08","21","22:00","17.6","","16.5","","93","","","","22","","9","","16.1","","100.90","","","","","","NA"
"-60.05","46.16","SYDNEY A","8205701","2019-08-21 23:00","2019","08","21","23:00","17.7","","16.6","","94","","","","23","","20","","16.1","","100.89","","","","","","Mainly Clear"
"-60.05","46.16","SYDNEY A","8205701","2019-08-22 00:00","2019","08","22","00:00","18.0","","16.9","","93","","","","19","","15","","24.1","","100.84","","","","","","NA"
"-60.05","46.16","SYDNEY A","8205701","2019-08-22 01:00","2019","08","22","01:00","17.8","","17.1","","95","","","","20","","14","","24.1","","100.80","","","","","","NA"
"-60.05","46.16","SYDNEY A","8205701","2019-08-22 02:00","2019","08","22","02:00","17.8","","17.2","","97","","","","20","","9","","16.1","","100.76","","","","","","Mostly Cloudy"
"-60.05","46.16","SYDNEY A","8205701","2019-08-22 03:00","2019","08","22","03:00","17.9","","17.5","","97","","","","22","","7","","16.1","","100.74","","","","","","NA"
"-60.05","46.16","SYDNEY A","8205701","2019-08-22 04:00","2019","08","22","04:00","18.0","","17.6","","97","","","","17","","7","","16.1","","100.66","","","","","","NA"
"-60.05","46.16","SYDNEY A","8205701","2019-08-22 05:00","2019","08","22","05:00","18.2","","17.8","","97","","","","20","","7","","16.1","","100.67","","","","","","Mostly Cloudy"
"-60.05","46.16","SYDNEY A","8205701","2019-08-22 06:00","2019","08","22","06:00","18.6","","18.1","","97","","","","17","","15","","16.1","","100.67","","","","","","NA"
"-60.05","46.16","SYDNEY A","8205701","2019-08-22 07:00","2019","08","22","07:00","18.8","","18.3","","97","","","","15","","16","","16.1","","100.60","","","","","","Rain"
"-60.05","46.16","SYDNEY A","8205701","2019-08-22 08:00","2019","08","22","08:00","19.6","","18.4","","92","","","","14","","21","","16.1","","100.45","","","","","","Cloudy"
"-60.05","46.16","SYDNEY A","8205701","2019-08-22 09:00","2019","08","22","09:00","20.4","","19.7","","95","","","","16","","24","","4.8","","100.40","","28","","","","Rain,Fog"
"-60.05","46.16","SYDNEY A","8205701","2019-08-22 10:00","2019","08","22","10:00","21.0","","20.5","","97","","","","16","","21","","12.9","","100.32","","29","","","","Rain"
"-60.05","46.16","SYDNEY A","8205701","2019-08-22 11:00","2019","08","22","11:00","22.9","","21.5","","92","","","","21","","17","","16.1","","100.23","","32","","","","Cloudy"
"-60.05","46.16","SYDNEY A","8205701","2019-08-22 12:00","2019","08","22","12:00","24.5","","22.1","","86","","","","22","","25","","16.1","","100.19","","34","","","","NA"
"-60.05","46.16","SYDNEY A","8205701","2019-08-22 13:00","2019","08","22","13:00","25.3","","22.0","","82","","","","22","","26","","16.1","","100.14","","35","","","","NA"
"-60.05","46.16","SYDNEY A","8205701","2019-08-22 14:00","2019","08","22","14:00","26.4","","22.2","","78","","","","23","","30","","16.1","","100.09","","36","","","","Mostly Cloudy"
"-60.05","46.16","SYDNEY A","8205701","2019-08-22 15:00","2019","08","22","15:00","25.9","","21.9","","78","","","","21","","27","","24.1","","100.04","","35","","","","NA"
"-60.05","46.16","SYDNEY A","8205701","2019-08-22 16:00","2019","08","22","16:00","26.0","","21.5","","76","","","","21","","26","","24.1","","100.03","","35","","","","NA"
"-60.05","46.16","SYDNEY A","8205701","2019-08-22 17:00","2019","08","22","17:00","25.1","","21.6","","81","","","","23","","14","","24.1","","100.06","","34","","","","Mostly Cloudy"
"-60.05","46.16","SYDNEY A","8205701","2019-08-22 18:00","2019","08","22","18:00","24.4","","21.4","","83","","","","24","","14","","24.1","","100.09","","33","","","","NA"
"-60.05","46.16","SYDNEY A","8205701","2019-08-22 19:00","2019","08","22","19:00","23.0","","21.0","","88","","","","22","","13","","24.1","","100.14","","31","","","","NA"
"-60.05","46.16","SYDNEY A","8205701","2019-08-22 20:00","2019","08","22","20:00","21.8","","20.7","","94","","","","23","","13","","24.1","","100.21","","30","","","","Mainly Clear"
"-60.05","46.16","SYDNEY A","8205701","2019-08-22 21:00","2019","08","22","21:00","21.1","","20.3","","96","","","","20","","9","","24.1","","100.23","","29","","","","NA"
"-60.05","46.16","SYDNEY A","8205701","2019-08-22 22:00","2019","08","22","22:00","20.5","","19.9","","96","","","","18","","6","","24.1","","100.18","","28","","","","NA"
"-60.05","46.16","SYDNEY A","8205701","2019-08-22 23:00","2019","08","22","23:00","19.9","","19.5","","98","","","","19","","15","","24.1","","100.15","","","","","","Mainly Clear"
"-60.05","46.16","SYDNEY A","8205701","2019-08-23 00:00","2019","08","23","00:00","19.2","","19.0","","98","","","","20","","8","","1.2","","100.14","","","","","","Fog"
"-60.05","46.16","SYDNEY A","8205701","2019-08-23 01:00","2019","08","23","01:00","19.1","","18.9","","99","","","","20","","13","","1.2","","100.10","","","","","","Fog"
"-60.05","46.16","SYDNEY A","8205701","2019-08-23 02:00","2019","08","23","02:00","19.3","","19.1","","99","","","","19","","14","","4.8","","100.04","","","","","","Fog"
"-60.05","46.16","SYDNEY A","8205701","2019-08-23 03:00","2019","08","23","03:00","19.9","","19.7","","99","","","","22","","11","","1.6","","100.03","","","","","","Fog"
"-60.05","46.16","SYDNEY A","8205701","2019-08-23 04:00","2019","08","23","04:00","20.2","","20.1","","99","","","","22","","11","","1.6","","99.97","","28","","","","Fog"
"-60.05","46.16","SYDNEY A","8205701","2019-08-23 05:00","2019","08","23","05:00","20.5","","20.4","","99","","","","24","","19","","1.0","","99.97","","28","","","","Fog"
"-60.05","46.16","SYDNEY A","8205701","2019-08-23 06:00","2019","08","23","06:00","20.5","","20.4","","99","","","","26","","17","","1.6","","100.02","","28","","","","Fog"
"-60.05","46.16","SYDNEY A","8205701","2019-08-23 07:00","2019","08","23","07:00","21.4","","20.9","","97","","","","21","","14","","6.4","","100.03","","30","","","","Fog"
"-60.05","46.16","SYDNEY A","8205701","2019-08-23 08:00","2019","08","23","08:00","22.7","","20.7","","88","","","","23","","23","","16.1","","100.05","","31","","","","Mostly Cloudy"
"-60.05","46.16","SYDNEY A","8205701","2019-08-23 09:00","2019","08","23","09:00","23.0","","20.1","","83","","","","24","","28","","24.1","","100.04","","31","","","","NA"
"-60.05","46.16","SYDNEY A","8205701","2019-08-23 10:00","2019","08","23","10:00","25.3","","20.2","","73","","","","23","","26","","24.1","","100.04","","33","","","","NA"
"-60.05","46.16","SYDNEY A","8205701","2019-08-23 11:00","2019","08","23","11:00","25.8","","20.5","","72","","","","26","","19","","24.1","","100.02","","34","","","","Mostly Cloudy"
"-60.05","46.16","SYDNEY A","8205701","2019-08-23 12:00","2019","08","23","12:00","25.4","","20.5","","74","","","","23","","22","","24.1","","99.99","","33","","","","NA"
"-60.05","46.16","SYDNEY A","8205701","2019-08-23 13:00","2019","08","23","13:00","25.3","","20.4","","74","","","","30","","19","","24.1","","99.95","","33","","","","NA"
"-60.05","46.16","SYDNEY A","8205701","2019-08-23 14:00","2019","08","23","14:00","24.8","","19.7","","73","","","","27","","20","","24.1","","99.95","","32","","","","Cloudy"
"-60.05","46.16","SYDNEY A","8205701","2019-08-23 15:00","2019","08","23","15:00","24.5","","19.2","","72","","","","26","","17","","24.1","","99.96","","31","","","","Rain Showers"
"-60.05","46.16","SYDNEY A","8205701","2019-08-23 16:00","2019","08","23","16:00","23.3","","18.6","","74","","","","30","","18","","24.1","","100.02","","30","","","","Rain Showers"
"-60.05","46.16","SYDNEY A","8205701","2019-08-23 17:00","2019","08","23","17:00","23.0","","16.9","","68","","","","29","","18","","24.1","","100.06","","28","","","","Mostly Cloudy"
"-60.05","46.16","SYDNEY A","8205701","2019-08-23 18:00","2019","08","23","18:00","22.2","","17.2","","73","","","","26","","9","","24.1","","100.08","","28","","","","NA"
"-60.05","46.16","SYDNEY A","8205701","2019-08-23 19:00","2019","08","23","19:00","20.1","","16.5","","79","","","","25","","8","","24.1","","100.15","","25","","","","NA"
"-60.05","46.16","SYDNEY A","8205701","2019-08-23 20:00","2019","08","23","20:00","17.9","","15.7","","87","","","","28","","7","","24.1","","100.20","","","","","","Mostly Cloudy"
"-60.05","46.16","SYDNEY A","8205701","2019-08-23 21:00","2019","08","23","21:00","17.3","","15.6","","90","","","","23","","8","","24.1","","100.22","","","","","","NA"
"-60.05","46.16","SYDNEY A","8205701","2019-08-23 22:00","2019","08","23","22:00","15.4","","15.0","","97","","","","26","","5","","24.1","","100.24","","","","","","NA"
"-60.05","46.16","SYDNEY A","8205701","2019-08-23 23:00","2019","08","23","23:00","15.5","","15.0","","97","","","","23","","7","","24.1","","100.20","","","","","","Mostly Cloudy"
"-60.05","46.16","SYDNEY A","8205701","2019-08-24 00:00","2019","08","24","00:00","15.9","","15.0","","94","","","","23","","10","","24.1","","100.19","","","","","","NA"
"-60.05","46.16","SYDNEY A","8205701","2019-08-24 01:00","2019","08","24","01:00","16.2","","14.9","","92","","","","24","","10","","24.1","","100.20","","","","","","NA"
"-60.05","46.16","SYDNEY A","8205701","2019-08-24 02:00","2019","08","24","02:00","16.1","","14.9","","92","","","","24","","10","","24.1","","100.20","","","","","","Mostly Cloudy"
"-60.05","46.16","SYDNEY A","8205701","2019-08-24 03:00","2019","08","24","03:00","17.0","","15.4","","90","","","","26","","12","","24.1","","100.26","","","","","","NA"
"-60.05","46.16","SYDNEY A","8205701","2019-08-24 04:00","2019","08","24","04:00","16.7","","15.0","","90","","","","27","","11","","24.1","","100.29","","","","","","NA"
"-60.05","46.16","SYDNEY A","8205701","2019-08-24 05:00","2019","08","24","05:00","15.2","","14.2","","93","","","","31","","10","","24.1","","100.38","","","","","","Mainly Clear"
"-60.05","46.16","SYDNEY A","8205701","2019-08-24 06:00","2019","08","24","06:00","15.8","","14.2","","90","","","","32","","13","","24.1","","100.44","","","","","","NA"
"-60.05","46.16","SYDNEY A","8205701","2019-08-24 07:00","2019","08","24","07:00","18.4","","15.2","","81","","","","32","","14","","24.1","","100.53","","","","","","NA"
"-60.05","46.16","SYDNEY A","8205701","2019-08-24 08:00","2019","08","24","08:00","19.6","","14.2","","70","","","","32","","22","","24.1","","100.60","","","","","","Mostly Cloudy"
"-60.05","46.16","SYDNEY A","8205701","2019-08-24 09:00","2019","08","24","09:00","18.7","","14.8","","77","","","","36","","34","","24.1","","100.66","","","","","","NA"
"-60.05","46.16","SYDNEY A","8205701","2019-08-24 10:00","2019","08","24","10:00","19.0","","14.4","","74","","","","2","","32","","24.1","","100.75","","","","","","NA"
"-60.05","46.16","SYDNEY A","8205701","2019-08-24 11:00","2019","08","24","11:00","16.1","","14.3","","89","","","","1","","28","","9.7","","100.88","","","","","","Rain Showers"
"-60.05","46.16","SYDNEY A","8205701","2019-08-24 12:00","2019","08","24","12:00","16.9","","12.3","","74","","","","2","","36","","24.1","","100.99","","","","","","NA"
"-60.05","46.16","SYDNEY A","8205701","2019-08-24 13:00","2019","08","24","13:00","16.3","","11.3","","72","","","","35","","34","","16.1","","101.04","","","","","","Rain Showers"
"-60.05","46.16","SYDNEY A","8205701","2019-08-24 14:00","2019","08","24","14:00","16.1","","10.6","","69","","","","36","","33","","24.1","","101.13","","","","","","Rain Showers"
"-60.05","46.16","SYDNEY A","8205701","2019-08-24 15:00","2019","08","24","15:00","16.1","","10.4","","69","","","","35","","35","","24.1","","101.18","","","","","","Rain Showers"
"-60.05","46.16","SYDNEY A","8205701","2019-08-24 16:00","2019","08","24","16:00","16.1","","9.7","","66","","","","36","","34","","24.1","","101.24","","","","","","NA"
"-60.05","46.16","SYDNEY A","8205701","2019-08-24 17:00","2019","08","24","17:00","15.4","","9.1","","66","","","","36","","33","","24.1","","101.33","","","","","","Mostly Cloudy"
"-60.05","46.16","SYDNEY A","8205701","2019-08-24 18:00","2019","08","24","18:00","14.3","","8.4","","67","","","","36","","37","","24.1","","101.44","","","","","","NA"
"-60.05","46.16","SYDNEY A","8205701","2019-08-24 19:00","2019","08","24","19:00","13.7","","8.1","","69","","","","1","","29","","24.1","","101.54","","","","","","NA"
"-60.05","46.16","SYDNEY A","8205701","2019-08-24 20:00","2019","08","24","20:00","13.6","","8.1","","69","","","","1","","33","","24.1","","101.61","","","","","","Mostly Cloudy"
"-60.05","46.16","SYDNEY A","8205701","2019-08-24 21:00","2019","08","24","21:00","13.1","","8.4","","73","","","","1","","18","","24.1","","101.70","","","","","","NA"
"-60.05","46.16","SYDNEY A","8205701","2019-08-24 22:00","2019","08","24","22:00","13.2","","8.1","","71","","","","2","","28","","24.1","","101.74","","","","","","NA"
"-60.05","46.16","SYDNEY A","8205701","2019-08-24 23:00","2019","08","24","23:00","13.0","","8.3","","73","","","","2","","23","","24.1","","101.80","","","","","","Mostly Cloudy"
"-60.05","46.16","SYDNEY A","8205701","2019-08-25 00:00","2019","08","25","00:00","12.9","","8.5","","74","","","","2","","20","","24.1","","101.87","","","","","","NA"
"-60.05","46.16","SYDNEY A","8205701","2019-08-25 01:00","2019","08","25","01:00","13.4","","9.5","","77","","","","2","","18","","24.1","","101.85","","","","","","NA"
"-60.05","46.16","SYDNEY A","8205701","2019-08-25 02:00","2019","08","25","02:00","13.5","","10.3","","81","","","","4","","10","","24.1","","101.85","","","","","","Mostly Cloudy"
"-60.05","46.16","SYDNEY A","8205701","2019-08-25 03:00","2019","08","25","03:00","13.3","","10.9","","85","","","","3","","9","","24.1","","101.87","","","","","","NA"
"-60.05","46.16","SYDNEY A","8205701","2019-08-25 04:00","2019","08","25","04:00","12.7","","11.0","","89","","","","34","","7","","24.1","","101.91","","","","","","NA"
"-60.05","46.16","SYDNEY A","8205701","2019-08-25 05:00","2019","08","25","05:00","12.6","","11.1","","90","","","","12","","8","","24.1","","101.96","","","","","","Mostly Cloudy"
"-60.05","46.16","SYDNEY A","8205701","2019-08-25 06:00","2019","08","25","06:00","12.7","","11.8","","94","","","","36","","2","","24.1","","102.00","","","","","","Rain Showers"
"-60.05","46.16","SYDNEY A","8205701","2019-08-25 07:00","2019","08","25","07:00","15.0","","12.4","","85","","","","6","","4","","24.1","","102.07","","","","","","NA"
"-60.05","46.16","SYDNEY A","8205701","2019-08-25 08:00","2019","08","25","08:00","17.4","","12.2","","71","","","","9","","18","","24.1","","102.12","","","","","","Mostly Cloudy"
"-60.05","46.16","SYDNEY A","8205701","2019-08-25 09:00","2019","08","25","09:00","17.2","","11.3","","68","","","","10","","10","","24.1","","102.16","","","","","","NA"
"-60.05","46.16","SYDNEY A","8205701","2019-08-25 10:00","2019","08","25","10:00","18.7","","11.3","","62","","","","10","","14","","24.1","","102.20","","","","","","NA"
"-60.05","46.16","SYDNEY A","8205701","2019-08-25 11:00","2019","08","25","11:00","18.6","","10.2","","57","","","","7","","16","","24.1","","102.19","","","","","","Mainly Clear"
"-60.05","46.16","SYDNEY A","8205701","2019-08-25 12:00","2019","08","25","12:00","18.8","","9.6","","55","","","","8","","14","","24.1","","102.18","","","","","","NA"
"-60.05","46.16","SYDNEY A","8205701","2019-08-25 13:00","2019","08","25","13:00","19.2","","10.1","","55","","","","3","","16","","24.1","","102.18","","","","","","NA"
"-60.05","46.16","SYDNEY A","8205701","2019-08-25 14:00","2019","08","25","14:00","19.3","","9.3","","52","","","","4","","16","","24.1","","102.17","","","","","","Mainly Clear"
"-60.05","46.16","SYDNEY A","8205701","2019-08-25 15:00","2019","08","25","15:00","18.6","","8.7","","52","","","","7","","20","","24.1","","102.12","","","","","","NA"
"-60.05","46.16","SYDNEY A","8205701","2019-08-25 16:00","2019","08","25","16:00","18.1","","7.9","","51","","","","9","","14","","24.1","","102.13","","","","","","NA"
"-60.05","46.16","SYDNEY A","8205701","2019-08-25 17:00","2019","08","25","17:00","17.5","","8.3","","54","","","","10","","11","","24.1","","102.12","","","","","","Mainly Clear"
"-60.05","46.16","SYDNEY A","8205701","2019-08-25 18:00","2019","08","25","18:00","16.1","","8.4","","60","","","","10","","10","","24.1","","102.10","","","","","","NA"
"-60.05","46.16","SYDNEY A","8205701","2019-08-25 19:00","2019","08","25","19:00","13.4","","8.6","","72","","","","10","","9","","24.1","","102.07","","","","","","NA"
"-60.05","46.16","SYDNEY A","8205701","2019-08-25 20:00","2019","08","25","20:00","12.0","","8.6","","79","","","","36","","1","","24.1","","102.12","","","","","","Mostly Cloudy"
"-60.05","46.16","SYDNEY A","8205701","2019-08-25 21:00","2019","08","25","21:00","8.0","","6.8","","92","","","","36","","2","","24.1","","102.11","","","","","","NA"
"-60.05","46.16","SYDNEY A","8205701","2019-08-25 22:00","2019","08","25","22:00","7.3","","6.5","","95","","","","22","","3","","24.1","","102.11","","","","","","NA"
"-60.05","46.16","SYDNEY A","8205701","2019-08-25 23:00","2019","08","25","23:00","8.2","","7.0","","92","","","","28","","4","","24.1","","102.10","","","","","","Mainly Clear"
"-60.05","46.16","SYDNEY A","8205701","2019-08-26 00:00","2019","08","26","00:00","6.8","","5.4","","91","","","","36","","3","","24.1","","102.07","","","","","","NA"
"-60.05","46.16","SYDNEY A","8205701","2019-08-26 01:00","2019","08","26","01:00","5.7","","4.4","","91","","","","24","","3","","24.1","","102.03","","","","","","NA"
"-60.05","46.16","SYDNEY A","8205701","2019-08-26 02:00","2019","08","26","02:00","5.8","","5.4","","97","","","","24","","5","","24.1","","102.03","","","","","","Mainly Clear"
"-60.05","46.16","SYDNEY A","8205701","2019-08-26 03:00","2019","08","26","03:00","6.6","","5.5","","93","","","","32","","4","","24.1","","102.00","","","","","","NA"
"-60.05","46.16","SYDNEY A","8205701","2019-08-26 04:00","2019","08","26","04:00","5.7","","4.9","","95","","","","27","","6","","24.1","","102.00","","","","","","NA"
"-60.05","46.16","SYDNEY A","8205701","2019-08-26 05:00","2019","08","26","05:00","6.2","","5.0","","92","","","","34","","8","","24.1","","101.93","","","","","","Mostly Cloudy"
"-60.05","46.16","SYDNEY A","8205701","2019-08-26 06:00","2019","08","26","06:00","6.7","","5.5","","92","","","","36","","5","","24.1","","101.90","","","","","","NA"
"-60.05","46.16","SYDNEY A","8205701","2019-08-26 07:00","2019","08","26","07:00","11.5","","10.7","","95","","","","36","","1","","24.1","","101.91","","","","","","NA"
"-60.05","46.16","SYDNEY A","8205701","2019-08-26 08:00","2019","08","26","08:00","15.4","","11.5","","77","","","","11","","7","","24.1","","101.96","","","","","","Mostly Cloudy"
"-60.05","46.16","SYDNEY A","8205701","2019-08-26 09:00","2019","08","26","09:00","16.9","","10.4","","65","","","","9","","14","","24.1","","101.93","","","","","","NA"
"-60.05","46.16","SYDNEY A","8205701","2019-08-26 10:00","2019","08","26","10:00","17.8","","10.8","","63","","","","9","","16","","24.1","","101.89","","","","","","NA"
"-60.05","46.16","SYDNEY A","8205701","2019-08-26 11:00","2019","08","26","11:00","19.1","","10.4","","56","","","","5","","22","","24.1","","101.85","","","","","","Mostly Cloudy"
"-60.05","46.16","SYDNEY A","8205701","2019-08-26 12:00","2019","08","26","12:00","18.9","","10.5","","58","","","","6","","22","","24.1","","101.81","","","","","","NA"
"-60.05","46.16","SYDNEY A","8205701","2019-08-26 13:00","2019","08","26","13:00","18.5","","10.7","","60","","","","9","","14","","24.1","","101.73","","","","","","NA"
"-60.05","46.16","SYDNEY A","8205701","2019-08-26 14:00","2019","08","26","14:00","17.5","","11.0","","65","","","","6","","16","","24.1","","101.63","","","","","","Cloudy"
"-60.05","46.16","SYDNEY A","8205701","2019-08-26 15:00","2019","08","26","15:00","17.4","","11.0","","66","","","","8","","16","","24.1","","101.58","","","","","","NA"
"-60.05","46.16","SYDNEY A","8205701","2019-08-26 16:00","2019","08","26","16:00","17.3","","11.3","","68","","","","6","","15","","24.1","","101.52","","","","","","NA"
"-60.05","46.16","SYDNEY A","8205701","2019-08-26 17:00","2019","08","26","17:00","16.5","","11.0","","70","","","","6","","13","","24.1","","101.41","","","","","","Cloudy"
"-60.05","46.16","SYDNEY A","8205701","2019-08-26 18:00","2019","08","26","18:00","16.5","","11.0","","70","","","","6","","17","","24.1","","101.33","","","","","","NA"
"-60.05","46.16","SYDNEY A","8205701","2019-08-26 19:00","2019","08","26","19:00","16.3","","11.2","","71","","","","7","","14","","24.1","","101.31","","","","","","NA"
"-60.05","46.16","SYDNEY A","8205701","2019-08-26 20:00","2019","08","26","20:00","16.5","","11.5","","72","","","","6","","20","","24.1","","101.22","","","","","","Cloudy"
"-60.05","46.16","SYDNEY A","8205701","2019-08-26 21:00","2019","08","26","21:00","16.1","","12.0","","76","","","","5","","20","","24.1","","101.10","","","","","","NA"
"-60.05","46.16","SYDNEY A","8205701","2019-08-26 22:00","2019","08","26","22:00","16.6","","11.9","","73","","","","5","","25","","24.1","","101.05","","","","","","NA"
"-60.05","46.16","SYDNEY A","8205701","2019-08-26 23:00","2019","08","26","23:00","15.1","","13.3","","89","","","","5","","26","","24.1","","100.92","","","","","","Rain"
"-60.05","46.16","SYDNEY A","8205701","2019-08-27 00:00","2019","08","27","00:00","13.9","","11.8","","87","","","","6","","24","","24.1","","100.79","","","","","","Rain"
"-60.05","46.16","SYDNEY A","8205701","2019-08-27 01:00","2019","08","27","01:00","11.7","","10.8","","95","","","","5","","21","","24.1","","100.70","","","","","","Rain"
"-60.05","46.16","SYDNEY A","8205701","2019-08-27 02:00","2019","08","27","02:00","12.3","","11.7","","96","","","","5","","35","","3.2","","100.51","","","","","","Rain,Fog"
"-60.05","46.16","SYDNEY A","8205701","2019-08-27 03:00","2019","08","27","03:00","12.6","","12.1","","97","","","","3","","37","","3.2","","100.37","","","","","","Moderate Rain,Fog"
"-60.05","46.16","SYDNEY A","8205701","2019-08-27 04:00","2019","08","27","04:00","12.4","","12.0","","97","","","","3","","39","","1.6","","100.22","","","","","","Rain,Fog"
"-60.05","46.16","SYDNEY A","8205701","2019-08-27 05:00","2019","08","27","05:00","14.8","","14.6","","98","","","","3","","36","","2.0","","100.03","","","","","","Rain,Fog"
"-60.05","46.16","SYDNEY A","8205701","2019-08-27 06:00","2019","08","27","06:00","16.2","","15.9","","98","","","","5","","33","","1.2","","99.84","","","","","","Moderate Rain,Fog"
"-60.05","46.16","SYDNEY A","8205701","2019-08-27 07:00","2019","08","27","07:00","16.7","","16.4","","98","","","","5","","32","","1.2","","99.71","","","","","","Rain,Fog"
"-60.05","46.16","SYDNEY A","8205701","2019-08-27 08:00","2019","08","27","08:00","17.0","","16.7","","98","","","","4","","34","","1.2","","99.59","","","","","","Rain,Fog"
"-60.05","46.16","SYDNEY A","8205701","2019-08-27 09:00","2019","08","27","09:00","17.3","","17.0","","98","","","","4","","33","","1.2","","99.47","","","","","","Rain,Fog"
"-60.05","46.16","SYDNEY A","8205701","2019-08-27 10:00","2019","08","27","10:00","17.6","","17.4","","98","","","","3","","27","","1.2","","99.37","","","","","","Rain,Fog"
"-60.05","46.16","SYDNEY A","8205701","2019-08-27 11:00","2019","08","27","11:00","17.1","","16.8","","98","","","","35","","36","","1.2","","99.23","","","","","","Rain,Fog"
"-60.05","46.16","SYDNEY A","8205701","2019-08-27 12:00","2019","08","27","12:00","17.0","","16.7","","98","","","","34","","24","","2.4","","99.14","","","","","","Rain,Fog"
"-60.05","46.16","SYDNEY A","8205701","2019-08-27 13:00","2019","08","27","13:00","13.7","","13.3","","98","","","","27","","44","","4.0","","99.25","","","","","","Rain,Fog"
"-60.05","46.16","SYDNEY A","8205701","2019-08-27 14:00","2019","08","27","14:00","14.5","","13.8","","96","","","","26","","34","","6.4","","99.29","","","","","","Rain,Fog"
"-60.05","46.16","SYDNEY A","8205701","2019-08-27 15:00","2019","08","27","15:00","14.8","","14.2","","96","","","","23","","27","","16.1","","99.31","","","","","","Rain"
"-60.05","46.16","SYDNEY A","8205701","2019-08-27 16:00","2019","08","27","16:00","14.4","","13.7","","95","","","","23","","34","","8.1","","99.32","","","","","","Rain,Fog"
"-60.05","46.16","SYDNEY A","8205701","2019-08-27 17:00","2019","08","27","17:00","14.8","","14.2","","96","","","","26","","34","","4.8","","99.37","","","","","","Rain,Fog"
"-60.05","46.16","SYDNEY A","8205701","2019-08-27 18:00","2019","08","27","18:00","14.7","","14.2","","96","","","","25","","39","","11.3","","99.38","","","","","","Rain"
"-60.05","46.16","SYDNEY A","8205701","2019-08-27 19:00","2019","08","27","19:00","15.2","","14.3","","94","","","","26","","41","","11.3","","99.44","","","","","","NA"
"-60.05","46.16","SYDNEY A","8205701","2019-08-27 20:00","2019","08","27","20:00","15.2","","14.5","","96","","","","27","","34","","4.0","","99.61","","","","","","Rain,Fog"
"-60.05","46.16","SYDNEY A","8205701","2019-08-27 21:00","2019","08","27","21:00","15.8","","14.5","","92","","","","27","","30","","11.3","","99.73","","","","","","NA"
"-60.05","46.16","SYDNEY A","8205701","2019-08-27 22:00","2019","08","27","22:00","16.0","","13.9","","87","","","","29","","30","","24.1","","99.87","","","","","","NA"
"-60.05","46.16","SYDNEY A","8205701","2019-08-27 23:00","2019","08","27","23:00","15.5","","14.6","","94","","","","27","","20","","24.1","","99.90","","","","","","Cloudy"
"-60.05","46.16","SYDNEY A","8205701","2019-08-28 00:00","2019","08","28","00:00","15.7","","14.6","","93","","","","28","","21","","24.1","","99.97","","","","","","NA"
"-60.05","46.16","SYDNEY A","8205701","2019-08-28 01:00","2019","08","28","01:00","15.7","","14.8","","94","","","","28","","24","","24.1","","100.00","","","","","","Rain"
"-60.05","46.16","SYDNEY A","8205701","2019-08-28 02:00","2019","08","28","02:00","15.6","","14.8","","95","","","","26","","20","","24.1","","100.01","","","","","","Cloudy"
"-60.05","46.16","SYDNEY A","8205701","2019-08-28 03:00","2019","08","28","03:00","15.6","","14.8","","95","","","","27","","13","","24.1","","100.08","","","","","","NA"
"-60.05","46.16","SYDNEY A","8205701","2019-08-28 04:00","2019","08","28","04:00","15.5","","14.7","","95","","","","26","","17","","24.1","","100.14","","","","","","NA"
"-60.05","46.16","SYDNEY A","8205701","2019-08-28 05:00","2019","08","28","05:00","15.4","","14.8","","96","","","","26","","13","","24.1","","100.16","","","","","","Mostly Cloudy"
"-60.05","46.16","SYDNEY A","8205701","2019-08-28 06:00","2019","08","28","06:00","15.7","","14.8","","94","","","","26","","17","","24.1","","100.23","","","","","","NA"
"-60.05","46.16","SYDNEY A","8205701","2019-08-28 07:00","2019","08","28","07:00","16.7","","14.8","","88","","","","29","","19","","24.1","","100.29","","","","","","NA"
"-60.05","46.16","SYDNEY A","8205701","2019-08-28 08:00","2019","08","28","08:00","18.3","","14.8","","80","","","","30","","24","","24.1","","100.37","","","","","","Mostly Cloudy"
"-60.05","46.16","SYDNEY A","8205701","2019-08-28 09:00","2019","08","28","09:00","19.9","","15.0","","73","","","","31","","26","","24.1","","100.42","","","","","","NA"
"-60.05","46.16","SYDNEY A","8205701","2019-08-28 10:00","2019","08","28","10:00","20.1","","14.7","","71","","","","31","","24","","24.1","","100.46","","","","","","NA"
"-60.05","46.16","SYDNEY A","8205701","2019-08-28 11:00","2019","08","28","11:00","20.9","","15.2","","69","","","","33","","19","","24.1","","100.49","","25","","","","Mostly Cloudy"
"-60.05","46.16","SYDNEY A","8205701","2019-08-28 12:00","2019","08","28","12:00","21.0","","16.2","","74","","","","1","","22","","24.1","","100.52","","26","","","","NA"
"-60.05","46.16","SYDNEY A","8205701","2019-08-28 13:00","2019","08","28","13:00","21.0","","16.8","","77","","","","35","","17","","24.1","","100.57","","26","","","","NA"
"-60.05","46.16","SYDNEY A","8205701","2019-08-28 14:00","2019","08","28","14:00","21.5","","16.4","","72","","","","1","","19","","24.1","","100.59","","26","","","","Mainly Clear"
"-60.05","46.16","SYDNEY A","8205701","2019-08-28 15:00","2019","08","28","15:00","20.5","","15.4","","72","","","","3","","26","","24.1","","100.64","","25","","","","NA"
"-60.05","46.16","SYDNEY A","8205701","2019-08-28 16:00","2019","08","28","16:00","19.8","","16.1","","79","","","","1","","17","","24.1","","100.69","","","","","","NA"
"-60.05","46.16","SYDNEY A","8205701","2019-08-28 17:00","2019","08","28","17:00","19.4","","16.1","","81","","","","1","","17","","24.1","","100.73","","","","","","Mainly Clear"
"-60.05","46.16","SYDNEY A","8205701","2019-08-28 18:00","2019","08","28","18:00","18.3","","15.9","","86","","","","1","","13","","24.1","","100.79","","","","","","NA"
"-60.05","46.16","SYDNEY A","8205701","2019-08-28 19:00","2019","08","28","19:00","16.8","","15.3","","90","","","","34","","5","","24.1","","100.84","","","","","","NA"
"-60.05","46.16","SYDNEY A","8205701","2019-08-28 20:00","2019","08","28","20:00","15.3","","14.8","","97","","","","36","","2","","24.1","","100.93","","","","","","Mainly Clear"
"-60.05","46.16","SYDNEY A","8205701","2019-08-28 21:00","2019","08","28","21:00","13.3","","13.0","","98","","","","24","","3","","24.1","","100.94","","","","","","NA"
"-60.05","46.16","SYDNEY A","8205701","2019-08-28 22:00","2019","08","28","22:00","12.8","","12.5","","98","","","","23","","4","","24.1","","100.98","","","","","","NA"
"-60.05","46.16","SYDNEY A","8205701","2019-08-28 23:00","2019","08","28","23:00","13.7","","13.4","","98","","","","26","","4","","24.1","","100.99","","","","","","Mostly Cloudy"
"-60.05","46.16","SYDNEY A","8205701","2019-08-29 00:00","2019","08","29","00:00","13.7","","13.2","","97","","","","23","","4","","24.1","","101.04","","","","","","NA"
"-60.05","46.16","SYDNEY A","8205701","2019-08-29 01:00","2019","08","29","01:00","14.3","","13.9","","97","","","","18","","5","","24.1","","101.01","","","","","","NA"
"-60.05","46.16","SYDNEY A","8205701","2019-08-29 02:00","2019","08","29","02:00","15.1","","14.7","","98","","","","18","","4","","24.1","","101.03","","","","","","Mostly Cloudy"
"-60.05","46.16","SYDNEY A","8205701","2019-08-29 03:00","2019","08","29","03:00","13.4","","13.2","","98","","","","19","","4","","24.1","","101.02","","","","","","NA"
"-60.05","46.16","SYDNEY A","8205701","2019-08-29 04:00","2019","08","29","04:00","11.6","","11.3","","98","","","","36","","3","","24.1","","101.03","","","","","","NA"
"-60.05","46.16","SYDNEY A","8205701","2019-08-29 05:00","2019","08","29","05:00","10.9","","10.7","","98","","","","17","","5","","24.1","","101.07","","","","","","Mainly Clear"
"-60.05","46.16","SYDNEY A","8205701","2019-08-29 06:00","2019","08","29","06:00","10.9","","10.7","","99","","","","16","","7","","24.1","","101.12","","","","","","NA"
"-60.05","46.16","SYDNEY A","8205701","2019-08-29 07:00","2019","08","29","07:00","16.2","","16.0","","98","","","","16","","7","","16.1","","101.15","","","","","","NA"
"-60.05","46.16","SYDNEY A","8205701","2019-08-29 08:00","2019","08","29","08:00","17.4","","15.5","","89","","","","14","","17","","24.1","","101.13","","","","","","Mostly Cloudy"
"-60.05","46.16","SYDNEY A","8205701","2019-08-29 09:00","2019","08","29","09:00","19.3","","15.9","","80","","","","16","","18","","24.1","","101.14","","","","","","NA"
"-60.05","46.16","SYDNEY A","8205701","2019-08-29 10:00","2019","08","29","10:00","20.2","","16.2","","77","","","","16","","18","","24.1","","101.15","","25","","","","NA"
"-60.05","46.16","SYDNEY A","8205701","2019-08-29 11:00","2019","08","29","11:00","21.5","","16.3","","72","","","","17","","18","","24.1","","101.13","","26","","","","Mainly Clear"
"-60.05","46.16","SYDNEY A","8205701","2019-08-29 12:00","2019","08","29","12:00","21.7","","15.5","","68","","","","16","","26","","24.1","","101.07","","26","","","","NA"
"-60.05","46.16","SYDNEY A","8205701","2019-08-29 13:00","2019","08","29","13:00","21.7","","15.7","","68","","","","15","","25","","24.1","","101.04","","26","","","","NA"
"-60.05","46.16","SYDNEY A","8205701","2019-08-29 14:00","2019","08","29","14:00","21.5","","16.5","","73","","","","14","","27","","24.1","","101.00","","26","","","","Mainly Clear"
"-60.05","46.16","SYDNEY A","8205701","2019-08-29 15:00","2019","08","29","15:00","20.4","","14.9","","70","","","","18","","22","","24.1","","101.01","","","","","","NA"
"-60.05","46.16","SYDNEY A","8205701","2019-08-29 16:00","2019","08","29","16:00","20.2","","15.4","","74","","","","16","","25","","24.1","","100.99","","","","","","NA"
"-60.05","46.16","SYDNEY A","8205701","2019-08-29 17:00","2019","08","29","17:00","18.6","","14.4","","76","","","","17","","18","","24.1","","100.98","","","","","","Mostly Cloudy"
"-60.05","46.16","SYDNEY A","8205701","2019-08-29 18:00","2019","08","29","18:00","17.9","","15.0","","83","","","","16","","20","","24.1","","100.94","","","","","","NA"
"-60.05","46.16","SYDNEY A","8205701","2019-08-29 19:00","2019","08","29","19:00","16.7","","15.5","","93","","","","16","","22","","16.1","","100.95","","","","","","NA"
"-60.05","46.16","SYDNEY A","8205701","2019-08-29 20:00","2019","08","29","20:00","17.1","","16.0","","93","","","","16","","26","","16.1","","100.95","","","","","","Mostly Cloudy"
"-60.05","46.16","SYDNEY A","8205701","2019-08-29 21:00","2019","08","29","21:00","17.4","","16.0","","92","","","","16","","31","","16.1","","100.91","","","","","","NA"
"-60.05","46.16","SYDNEY A","8205701","2019-08-29 22:00","2019","08","29","22:00","17.8","","16.5","","92","","","","16","","30","","16.1","","100.86","","","","","","NA"
"-60.05","46.16","SYDNEY A","8205701","2019-08-29 23:00","2019","08","29","23:00","17.4","","17.0","","97","","","","16","","28","","4.8","","100.80","","","","","","Drizzle,Fog"
"-60.05","46.16","SYDNEY A","8205701","2019-08-30 00:00","2019","08","30","00:00","17.6","","17.4","","98","","","","16","","28","","1.6","","100.73","","","","","","Drizzle,Fog"
"-60.05","46.16","SYDNEY A","8205701","2019-08-30 01:00","2019","08","30","01:00","17.8","","17.6","","99","","","","16","","21","","1.2","","100.62","","","","","","Drizzle,Fog"
"-60.05","46.16","SYDNEY A","8205701","2019-08-30 02:00","2019","08","30","02:00","18.0","","17.8","","99","","","","16","","34","","1.6","","100.50","","","","","","Rain,Fog"
"-60.05","46.16","SYDNEY A","8205701","2019-08-30 03:00","2019","08","30","03:00","18.2","","18.0","","99","","","","16","","34","","1.6","","100.35","","","","","","Rain,Fog"
"-60.05","46.16","SYDNEY A","8205701","2019-08-30 04:00","2019","08","30","04:00","18.9","","18.6","","98","","","","17","","27","","3.2","","100.29","","","","","","Rain,Fog"
"-60.05","46.16","SYDNEY A","8205701","2019-08-30 05:00","2019","08","30","05:00","20.0","","19.6","","97","","","","19","","25","","4.8","","100.29","","27","","","","Rain,Fog"
"-60.05","46.16","SYDNEY A","8205701","2019-08-30 06:00","2019","08","30","06:00","20.5","","20.1","","98","","","","19","","24","","3.2","","100.26","","28","","","","Drizzle,Fog"
"-60.05","46.16","SYDNEY A","8205701","2019-08-30 07:00","2019","08","30","07:00","20.6","","20.3","","98","","","","23","","20","","1.6","","100.32","","28","","","","Drizzle,Fog"
"-60.05","46.16","SYDNEY A","8205701","2019-08-30 08:00","2019","08","30","08:00","21.4","","20.7","","96","","","","22","","20","","16.1","","100.35","","30","","","","Mostly Cloudy"
"-60.05","46.16","SYDNEY A","8205701","2019-08-30 09:00","2019","08","30","09:00","21.8","","21.0","","95","","","","24","","11","","16.1","","100.40","","30","","","","NA"
"-60.05","46.16","SYDNEY A","8205701","2019-08-30 10:00","2019","08","30","10:00","23.7","","21.0","","85","","","","23","","14","","24.1","","100.41","","32","","","","NA"
"-60.05","46.16","SYDNEY A","8205701","2019-08-30 11:00","2019","08","30","11:00","24.7","","20.6","","78","","","","25","","15","","24.1","","100.42","","33","","","","Mostly Cloudy"
"-60.05","46.16","SYDNEY A","8205701","2019-08-30 12:00","2019","08","30","12:00","24.5","","20.7","","79","","","","25","","13","","24.1","","100.41","","33","","","","NA"
"-60.05","46.16","SYDNEY A","8205701","2019-08-30 13:00","2019","08","30","13:00","25.0","","21.3","","80","","","","26","","16","","24.1","","100.42","","34","","","","NA"
"-60.05","46.16","SYDNEY A","8205701","2019-08-30 14:00","2019","08","30","14:00","25.4","","20.3","","73","","","","28","","13","","24.1","","100.41","","33","","","","Mostly Cloudy"
"-60.05","46.16","SYDNEY A","8205701","2019-08-30 15:00","2019","08","30","15:00","25.3","","19.1","","68","","","","27","","21","","24.1","","100.41","","32","","","","NA"
"-60.05","46.16","SYDNEY A","8205701","2019-08-30 16:00","2019","08","30","16:00","25.5","","18.9","","66","","","","27","","16","","24.1","","100.41","","32","","","","NA"
"-60.05","46.16","SYDNEY A","8205701","2019-08-30 17:00","2019","08","30","17:00","24.5","","18.7","","70","","","","26","","15","","24.1","","100.48","","31","","","","Mainly Clear"
"-60.05","46.16","SYDNEY A","8205701","2019-08-30 18:00","2019","08","30","18:00","23.0","","18.2","","74","","","","26","","11","","24.1","","100.52","","29","","","","NA"
"-60.05","46.16","SYDNEY A","8205701","2019-08-30 19:00","2019","08","30","19:00","19.9","","16.6","","81","","","","25","","8","","24.1","","100.56","","","","","","NA"
"-60.05","46.16","SYDNEY A","8205701","2019-08-30 20:00","2019","08","30","20:00","17.2","","15.9","","92","","","","22","","6","","24.1","","100.63","","","","","","Clear"
"-60.05","46.16","SYDNEY A","8205701","2019-08-30 21:00","2019","08","30","21:00","17.8","","16.3","","91","","","","22","","10","","24.1","","100.62","","","","","","NA"
"-60.05","46.16","SYDNEY A","8205701","2019-08-30 22:00","2019","08","30","22:00","16.9","","15.5","","91","","","","19","","8","","24.1","","100.61","","","","","","NA"
"-60.05","46.16","SYDNEY A","8205701","2019-08-30 23:00","2019","08","30","23:00","18.0","","16.5","","91","","","","21","","15","","24.1","","100.62","","","","","","Clear"
"-60.05","46.16","SYDNEY A","8205701","2019-08-31 00:00","2019","08","31","00:00","16.9","","15.9","","94","","","","20","","9","","24.1","","100.58","","","","","","NA"
"-60.05","46.16","SYDNEY A","8205701","2019-08-31 01:00","2019","08","31","01:00","16.4","","15.7","","95","","","","21","","8","","24.1","","100.59","","","","","","NA"
"-60.05","46.16","SYDNEY A","8205701","2019-08-31 02:00","2019","08","31","02:00","16.2","","15.5","","96","","","","23","","12","","24.1","","100.60","","","","","","Mostly Cloudy"
"-60.05","46.16","SYDNEY A","8205701","2019-08-31 03:00","2019","08","31","03:00","15.7","","15.2","","96","","","","23","","10","","24.1","","100.61","","","","","","NA"
"-60.05","46.16","SYDNEY A","8205701","2019-08-31 04:00","2019","08","31","04:00","14.9","","14.6","","98","","","","25","","10","","24.1","","100.64","","","","","","NA"
"-60.05","46.16","SYDNEY A","8205701","2019-08-31 05:00","2019","08","31","05:00","15.4","","14.8","","96","","","","24","","16","","24.1","","100.64","","","","","","Mainly Clear"
"-60.05","46.16","SYDNEY A","8205701","2019-08-31 06:00","2019","08","31","06:00","15.9","","15.0","","94","","","","25","","18","","24.1","","100.69","","","","","","NA"
"-60.05","46.16","SYDNEY A","8205701","2019-08-31 07:00","2019","08","31","07:00","17.8","","15.6","","87","","","","26","","18","","24.1","","100.71","","","","","","NA"
"-60.05","46.16","SYDNEY A","8205701","2019-08-31 08:00","2019","08","31","08:00","19.7","","16.0","","79","","","","27","","22","","24.1","","100.72","","","","","","Mainly Clear"
"-60.05","46.16","SYDNEY A","8205701","2019-08-31 09:00","2019","08","31","09:00","21.7","","16.2","","71","","","","26","","16","","24.1","","100.73","","26","","","","NA"
"-60.05","46.16","SYDNEY A","8205701","2019-08-31 10:00","2019","08","31","10:00","23.0","","15.7","","63","","","","27","","20","","24.1","","100.71","","27","","","","NA"
"-60.05","46.16","SYDNEY A","8205701","2019-08-31 11:00","2019","08","31","11:00","23.9","","15.6","","59","","","","29","","23","","24.1","","100.71","","28","","","","Mainly Clear"
"-60.05","46.16","SYDNEY A","8205701","2019-08-31 12:00","2019","08","31","12:00","24.9","","13.3","","48","","","","27","","29","","24.1","","100.71","","28","","","","NA"
"-60.05","46.16","SYDNEY A","8205701","2019-08-31 13:00","2019","08","31","13:00","24.0","","14.0","","53","","","","26","","29","","24.1","","100.72","","27","","","","NA"
"-60.05","46.16","SYDNEY A","8205701","2019-08-31 14:00","2019","08","31","14:00","23.9","","15.0","","57","","","","26","","21","","24.1","","100.73","","28","","","","Mainly Clear"
"-60.05","46.16","SYDNEY A","8205701","2019-08-31 15:00","2019","08","31","15:00","23.6","","11.8","","47","","","","27","","26","","24.1","","100.75","","26","","","","NA"
"-60.05","46.16","SYDNEY A","8205701","2019-08-31 16:00","2019","08","31","16:00","22.4","","12.8","","54","","","","28","","27","","24.1","","100.81","","25","","","","NA"
"-60.05","46.16","SYDNEY A","8205701","2019-08-31 17:00","2019","08","31","17:00","21.2","","12.1","","55","","","","30","","18","","24.1","","100.86","","","","","","Mainly Clear"
"-60.05","46.16","SYDNEY A","8205701","2019-08-31 18:00","2019","08","31","18:00","19.7","","12.1","","61","","","","29","","13","","24.1","","100.91","","","","","","NA"
"-60.05","46.16","SYDNEY A","8205701","2019-08-31 19:00","2019","08","31","19:00","17.0","","12.5","","74","","","","30","","11","","24.1","","100.99","","","","","","NA"
"-60.05","46.16","SYDNEY A","8205701","2019-08-31 20:00","2019","08","31","20:00","14.6","","12.3","","87","","","","25","","8","","24.1","","101.07","","","","","","Mostly Cloudy"
"-60.05","46.16","SYDNEY A","8205701","2019-08-31 21:00","2019","08","31","21:00","13.7","","11.5","","87","","","","25","","10","","24.1","","101.09","","","","","","NA"
"-60.05","46.16","SYDNEY A","8205701","2019-08-31 22:00","2019","08","31","22:00","12.7","","11.0","","89","","","","25","","10","","24.1","","101.10","","","","","","NA"
"-60.05","46.16","SYDNEY A","8205701","2019-08-31 23:00","2019","08","31","23:00","11.9","","10.6","","91","","","","24","","13","","24.1","","101.14","","","","","","Mainly Clear"
