"Longitude (x)","Latitude (y)","Station Name","Climate ID","Date/Time (LST)","Year","Month","Day","Time (LST)","Temp (°C)","Temp Flag","Dew Point Temp (°C)","Dew Point Temp Flag","Rel Hum (%)","Rel Hum Flag","Precip. Amount (mm)","Precip. Amount Flag","Wind Dir (10s deg)","Wind Dir Flag","Wind Spd (km/h)","Wind Spd Flag","Visibility (km)","Visibility Flag","Stn Press (kPa)","Stn Press Flag","Hmdx","Hmdx Flag","Wind Chill","Wind Chill Flag","Weather"
"-119.60","49.46","PENTICTON A","1126146","2023-04-01 00:00","2023","04","01","00:00","6.9","","0.1","","62","","","","18","","45","","24.1","","96.53","","","","","","NA"
"-119.60","49.46","PENTICTON A","1126146","2023-04-01 01:00","2023","04","01","01:00","6.2","","0.8","","68","","","","19","","37","","24.1","","96.45","","","","","","Cloudy"
"-119.60","49.46","PENTICTON A","1126146","2023-04-01 02:00","2023","04","01","02:00","5.7","","0.9","","71","","","","19","","36","","24.1","","96.38","","","","","","NA"
"-119.60","49.46","PENTICTON A","1126146","2023-04-01 03:00","2023","04","01","03:00","5.6","","0.7","","71","","","","20","","31","","24.1","","96.38","","","","","","NA"
"-119.60","49.46","PENTICTON A","1126146","2023-04-01 04:00","2023","04","01","04:00","5.4","","1.0","","73","","","","19","","26","","24.1","","96.39","","","","","","Cloudy"
"-119.60","49.46","PENTICTON A","1126146","2023-04-01 05:00","2023","04","01","05:00","5.2","","1.1","","75","","","","17","","11","","24.1","","96.40","","","","","","NA"
"-119.60","49.46","PENTICTON A","1126146","2023-04-01 06:00","2023","04","01","06:00","4.2","","0.6","","77","","","","5","","13","","24.1","","96.45","","","","","","Rain"
"-119.60","49.46","PENTICTON A","1126146","2023-04-01 07:00","2023","04","01","07:00","4.8","","-1.6","","63","","","","23","","3","","24.1","","96.50","","","","","","Mostly Cloudy"
"-119.60","49.46","PENTICTON A","1126146","2023-04-01 08:00","2023","04","01","08:00","6.0","","-3.7","","50","","","","10","","7","","24.1","","96.52","","","","","","NA"
"-119.60","49.46","PENTICTON A","1126146","2023-04-01 09:00","2023","04","01","09:00","6.8","","-5.8","","40","","","","9","","3","","24.1","","96.51","","","","","","NA"
"-119.60","49.46","PENTICTON A","1126146","2023-04-01 10:00","2023","04","01","10:00","7.6","","-5.8","","38","","","","33","","11","","24.1","","96.50","","","","","","Mostly Cloudy"
"-119.60","49.46","PENTICTON A","1126146","2023-04-01 11:00","2023","04","01","11:00","8.8","","-8.6","","28","","","","21","","7","","24.1","","96.49","","","","","","NA"
"-119.60","49.46","PENTICTON A","1126146","2023-04-01 12:00","2023","04","01","12:00","9.5","","-8.3","","28","","","","28","","14","","24.1","","96.50","","","","","","NA"
"-119.60","49.46","PENTICTON A","1126146","2023-04-01 13:00","2023","04","01","13:00","10.8","","-8.4","","25","","","","31","","12","","24.1","","96.46","","","","","","Mostly Cloudy"
"-119.60","49.46","PENTICTON A","1126146","2023-04-01 14:00","2023","04","01","14:00","10.1","","-7.7","","28","","","","27","","20","","24.1","","96.47","","","","","","NA"
"-119.60","49.46","PENTICTON A","1126146","2023-04-01 15:00","2023","04","01","15:00","8.5","","-8.5","","29","","","","22","","17","","24.1","","96.54","","","","","","NA"
"-119.60","49.46","PENTICTON A","1126146","2023-04-01 16:00","2023","04","01","16:00","8.5","","-6.0","","35","","","","17","","19","","24.1","","96.54","","","","","","Mostly Cloudy"
"-119.60","49.46","PENTICTON A","1126146","2023-04-01 17:00","2023","04","01","17:00","7.1","","-4.3","","44","","","","20","","17","","24.1","","96.64","","","","","","NA"
"-119.60","49.46","PENTICTON A","1126146","2023-04-01 18:00","2023","04","01","18:00","6.3","","-4.7","","45","","","","20","","14","","24.1","","96.66","","","","","","Rain Showers"
"-119.60","49.46","PENTICTON A","1126146","2023-04-01 19:00","2023","04","01","19:00","4.5","","-5.5","","48","","","","25","","9","","24.1","","96.68","","","","","","Mostly Cloudy"
"-119.60","49.46","PENTICTON A","1126146","2023-04-01 20:00","2023","04","01","20:00","4.9","","-7.1","","42","","","","21","","11","","24.1","","96.76","","","","","","NA"
"-119.60","49.46","PENTICTON A","1126146","2023-04-01 21:00","2023","04","01","21:00","6.2","","-9.4","","32","","","","23","","21","","24.1","","96.78","","","","","","NA"
"-119.60","49.46","PENTICTON A","1126146","2023-04-01 22:00","2023","04","01","22:00","6.2","","-10.3","","30","","","","25","","18","","24.1","","96.81","","","","","","Mostly Cloudy"
"-119.60","49.46","PENTICTON A","1126146","2023-04-01 23:00","2023","04","01","23:00","5.9","","-10.0","","31","","","","22","","16","","24.1","","96.83","","","","","","NA"
"-119.60","49.46","PENTICTON A","1126146","2023-04-02 00:00","2023","04","02","00:00","5.7","","-10.2","","31","","","","24","","26","","24.1","","96.88","","","","","","NA"
"-119.60","49.46","PENTICTON A","1126146","2023-04-02 01:00","2023","04","02","01:00","4.1","","-8.7","","39","","","","19","","9","","24.1","","96.90","","","","","","Mostly Cloudy"
"-119.60","49.46","PENTICTON A","1126146","2023-04-02 02:00","2023","04","02","02:00","2.5","","-6.3","","52","","","","16","","13","","24.1","","96.91","","","","","","NA"
"-119.60","49.46","PENTICTON A","1126146","2023-04-02 03:00","2023","04","02","03:00","2.5","","-7.3","","48","","","","15","","12","","24.1","","96.92","","","","","","NA"
"-119.60","49.46","PENTICTON A","1126146","2023-04-02 04:00","2023","04","02","04:00","1.1","","-6.6","","56","","","","18","","11","","24.1","","96.98","","","","","","Mainly Clear"
"-119.60","49.46","PENTICTON A","1126146","2023-04-02 05:00","2023","04","02","05:00","0.5","","-7.1","","57","","","","16","","12","","24.1","","97.00","","","","","","NA"
"-119.60","49.46","PENTICTON A","1126146","2023-04-02 06:00","2023","04","02","06:00","-3.2","","-8.4","","67","","","","36","","1","","24.1","","97.04","","","","-4","","NA"
"-119.60","49.46","PENTICTON A","1126146","2023-04-02 07:00","2023","04","02","07:00","1.4","","-6.9","","54","","","","18","","4","","24.1","","97.07","","","","","","Mainly Clear"
"-119.60","49.46","PENTICTON A","1126146","2023-04-02 08:00","2023","04","02","08:00","3.3","","-8.1","","43","","","","12","","5","","24.1","","97.07","","","","","","NA"
"-119.60","49.46","PENTICTON A","1126146","2023-04-02 09:00","2023","04","02","09:00","5.9","","-6.8","","40","","","","16","","13","","24.1","","97.03","","","","","","NA"
"-119.60","49.46","PENTICTON A","1126146","2023-04-02 10:00","2023","04","02","10:00","7.3","","-7.8","","33","","","","16","","14","","24.1","","96.99","","","","","","Mainly Clear"
"-119.60","49.46","PENTICTON A","1126146","2023-04-02 11:00","2023","04","02","11:00","8.4","","-9.1","","28","","","","16","","19","","24.1","","96.94","","","","","","NA"
"-119.60","49.46","PENTICTON A","1126146","2023-04-02 12:00","2023","04","02","12:00","9.9","","-9.8","","24","","","","17","","18","","24.1","","96.91","","","","","","NA"
"-119.60","49.46","PENTICTON A","1126146","2023-04-02 13:00","2023","04","02","13:00","9.3","","-9.6","","25","","","","17","","18","","24.1","","96.82","","","","","","Mostly Cloudy"
"-119.60","49.46","PENTICTON A","1126146","2023-04-02 14:00","2023","04","02","14:00","9.3","","-10.3","","24","","","","17","","20","","24.1","","96.79","","","","","","NA"
"-119.60","49.46","PENTICTON A","1126146","2023-04-02 15:00","2023","04","02","15:00","9.2","","-9.3","","26","","","","16","","13","","24.1","","96.78","","","","","","NA"
"-119.60","49.46","PENTICTON A","1126146","2023-04-02 16:00","2023","04","02","16:00","9.2","","-9.8","","25","","","","15","","10","","24.1","","96.78","","","","","","Mostly Cloudy"
"-119.60","49.46","PENTICTON A","1126146","2023-04-02 17:00","2023","04","02","17:00","8.7","","-9.5","","27","","","","0","","1","","24.1","","96.77","","","","","","NA"
"-119.60","49.46","PENTICTON A","1126146","2023-04-02 18:00","2023","04","02","18:00","7.2","","-5.9","","39","","","","16","","13","","24.1","","96.80","","","","","","NA"
"-119.60","49.46","PENTICTON A","1126146","2023-04-02 19:00","2023","04","02","19:00","5.7","","-4.8","","47","","","","9","","18","","24.1","","96.86","","","","","","Mostly Cloudy"
"-119.60","49.46","PENTICTON A","1126146","2023-04-02 20:00","2023","04","02","20:00","5.0","","-5.2","","48","","","","27","","7","","24.1","","96.94","","","","","","NA"
"-119.60","49.46","PENTICTON A","1126146","2023-04-02 21:00","2023","04","02","21:00","1.1","","-5.7","","60","","","","2","","7","","24.1","","96.97","","","","","","NA"
"-119.60","49.46","PENTICTON A","1126146","2023-04-02 22:00","2023","04","02","22:00","1.9","","-4.9","","61","","","","30","","3","","24.1","","96.99","","","","","","Mainly Clear"
"-119.60","49.46","PENTICTON A","1126146","2023-04-02 23:00","2023","04","02","23:00","1.6","","-5.0","","62","","","","2","","5","","24.1","","97.03","","","","","","NA"
"-119.60","49.46","PENTICTON A","1126146","2023-04-03 00:00","2023","04","03","00:00","0.0","","-5.6","","66","","","","36","","1","","24.1","","97.07","","","","0","","NA"
"-119.60","49.46","PENTICTON A","1126146","2023-04-03 01:00","2023","04","03","01:00","-1.9","","-6.2","","73","","","","33","","4","","24.1","","97.10","","","","-3","","Mostly Cloudy"
"-119.60","49.46","PENTICTON A","1126146","2023-04-03 02:00","2023","04","03","02:00","-1.2","","-6.2","","69","","","","1","","11","","24.1","","97.13","","","","-5","","NA"
"-119.60","49.46","PENTICTON A","1126146","2023-04-03 03:00","2023","04","03","03:00","-2.0","","-6.5","","72","","","","1","","13","","24.1","","97.17","","","","-6","","NA"
"-119.60","49.46","PENTICTON A","1126146","2023-04-03 04:00","2023","04","03","04:00","-2.8","","-6.4","","77","","","","35","","10","","24.1","","97.22","","","","-7","","Mainly Clear"
"-119.60","49.46","PENTICTON A","1126146","2023-04-03 05:00","2023","04","03","05:00","-3.4","","-6.9","","77","","","","35","","10","","24.1","","97.26","","","","-7","","NA"
"-119.60","49.46","PENTICTON A","1126146","2023-04-03 06:00","2023","04","03","06:00","-2.9","","-7.0","","73","","","","36","","14","","24.1","","97.30","","","","-8","","NA"
"-119.60","49.46","PENTICTON A","1126146","2023-04-03 07:00","2023","04","03","07:00","1.2","","-5.2","","62","","","","1","","9","","24.1","","97.33","","","","","","Clear"
"-119.60","49.46","PENTICTON A","1126146","2023-04-03 08:00","2023","04","03","08:00","2.8","","-5.4","","55","","","","34","","10","","24.1","","97.33","","","","","","NA"
"-119.60","49.46","PENTICTON A","1126146","2023-04-03 09:00","2023","04","03","09:00","4.9","","-4.7","","50","","","","33","","6","","24.1","","97.31","","","","","","NA"
"-119.60","49.46","PENTICTON A","1126146","2023-04-03 10:00","2023","04","03","10:00","6.7","","-5.4","","42","","","","35","","15","","24.1","","97.30","","","","","","Mainly Clear"
"-119.60","49.46","PENTICTON A","1126146","2023-04-03 11:00","2023","04","03","11:00","7.5","","-4.9","","41","","","","35","","17","","24.1","","97.24","","","","","","NA"
"-119.60","49.46","PENTICTON A","1126146","2023-04-03 12:00","2023","04","03","12:00","8.9","","-7.1","","31","","","","36","","23","","24.1","","97.18","","","","","","NA"
"-119.60","49.46","PENTICTON A","1126146","2023-04-03 13:00","2023","04","03","13:00","9.3","","-8.7","","27","","","","5","","9","","24.1","","97.14","","","","","","Mostly Cloudy"
"-119.60","49.46","PENTICTON A","1126146","2023-04-03 14:00","2023","04","03","14:00","8.7","","-7.9","","30","","","","35","","12","","24.1","","97.09","","","","","","NA"
"-119.60","49.46","PENTICTON A","1126146","2023-04-03 15:00","2023","04","03","15:00","8.8","","-9.3","","27","","","","29","","4","","24.1","","97.07","","","","","","NA"
"-119.60","49.46","PENTICTON A","1126146","2023-04-03 16:00","2023","04","03","16:00","8.0","","-6.2","","36","","","","27","","30","","24.1","","97.12","","","","","","Cloudy"
"-119.60","49.46","PENTICTON A","1126146","2023-04-03 17:00","2023","04","03","17:00","8.4","","-5.8","","36","","","","31","","8","","24.1","","97.13","","","","","","NA"
"-119.60","49.46","PENTICTON A","1126146","2023-04-03 18:00","2023","04","03","18:00","7.4","","-5.9","","38","","","","4","","12","","16.1","","97.17","","","","","","NA"
"-119.60","49.46","PENTICTON A","1126146","2023-04-03 19:00","2023","04","03","19:00","5.2","","-3.4","","54","","","","35","","10","","24.1","","97.26","","","","","","Mostly Cloudy"
"-119.60","49.46","PENTICTON A","1126146","2023-04-03 20:00","2023","04","03","20:00","2.1","","-4.5","","62","","","","32","","4","","24.1","","97.33","","","","","","NA"
"-119.60","49.46","PENTICTON A","1126146","2023-04-03 21:00","2023","04","03","21:00","0.7","","-4.6","","68","","","","3","","5","","24.1","","97.34","","","","","","NA"
"-119.60","49.46","PENTICTON A","1126146","2023-04-03 22:00","2023","04","03","22:00","0.5","","-4.8","","67","","","","3","","7","","24.1","","97.35","","","","","","Mostly Cloudy"
"-119.60","49.46","PENTICTON A","1126146","2023-04-03 23:00","2023","04","03","23:00","-0.3","","-5.0","","70","","","","4","","7","","24.1","","97.38","","","","-3","","NA"
"-119.60","49.46","PENTICTON A","1126146","2023-04-04 00:00","2023","04","04","00:00","-2.7","","-6.3","","77","","","","36","","3","","24.1","","97.40","","","","-4","","NA"
"-119.60","49.46","PENTICTON A","1126146","2023-04-04 01:00","2023","04","04","01:00","-3.8","","-7.1","","78","","","","36","","1","","24.1","","97.43","","","","-4","","Mainly Clear"
"-119.60","49.46","PENTICTON A","1126146","2023-04-04 02:00","2023","04","04","02:00","-3.5","","-6.0","","83","","","","","","0","","24.1","","97.45","","","","","","NA"
"-119.60","49.46","PENTICTON A","1126146","2023-04-04 03:00","2023","04","04","03:00","-5.2","","-7.6","","84","","","","36","","5","","24.1","","97.47","","","","-7","","NA"
"-119.60","49.46","PENTICTON A","1126146","2023-04-04 04:00","2023","04","04","04:00","-4.8","","-7.6","","81","","","","36","","3","","24.1","","97.52","","","","-6","","Mainly Clear"
"-119.60","49.46","PENTICTON A","1126146","2023-04-04 05:00","2023","04","04","05:00","-5.0","","-7.4","","84","","","","36","","1","","24.1","","97.59","","","","-5","","NA"
"-119.60","49.46","PENTICTON A","1126146","2023-04-04 06:00","2023","04","04","06:00","-3.8","","-6.2","","83","","","","0","","1","","24.1","","97.64","","","","-4","","NA"
"-119.60","49.46","PENTICTON A","1126146","2023-04-04 07:00","2023","04","04","07:00","-0.7","","-4.2","","77","","","","6","","3","","24.1","","97.68","","","","-2","","Mainly Clear"
"-119.60","49.46","PENTICTON A","1126146","2023-04-04 08:00","2023","04","04","08:00","3.0","","-4.4","","58","","","","35","","3","","24.1","","97.70","","","","","","NA"
"-119.60","49.46","PENTICTON A","1126146","2023-04-04 09:00","2023","04","04","09:00","5.7","","-4.8","","47","","","","1","","8","","24.1","","97.69","","","","","","NA"
"-119.60","49.46","PENTICTON A","1126146","2023-04-04 10:00","2023","04","04","10:00","7.9","","-5.8","","37","","","","4","","16","","24.1","","97.69","","","","","","Mainly Clear"
"-119.60","49.46","PENTICTON A","1126146","2023-04-04 11:00","2023","04","04","11:00","9.0","","-4.7","","38","","","","36","","16","","24.1","","97.65","","","","","","NA"
"-119.60","49.46","PENTICTON A","1126146","2023-04-04 12:00","2023","04","04","12:00","10.1","","-5.5","","33","","","","36","","15","","24.1","","97.62","","","","","","NA"
"-119.60","49.46","PENTICTON A","1126146","2023-04-04 13:00","2023","04","04","13:00","8.8","","-4.9","","38","","","","34","","18","","24.1","","97.61","","","","","","Mostly Cloudy"
"-119.60","49.46","PENTICTON A","1126146","2023-04-04 14:00","2023","04","04","14:00","11.1","","-7.0","","27","","","","29","","10","","24.1","","97.59","","","","","","NA"
"-119.60","49.46","PENTICTON A","1126146","2023-04-04 15:00","2023","04","04","15:00","11.2","","-7.9","","25","","","","35","","13","","24.1","","97.57","","","","","","NA"
"-119.60","49.46","PENTICTON A","1126146","2023-04-04 16:00","2023","04","04","16:00","10.6","","-8.9","","24","","","","30","","6","","24.1","","97.57","","","","","","Mostly Cloudy"
"-119.60","49.46","PENTICTON A","1126146","2023-04-04 17:00","2023","04","04","17:00","10.2","","-7.7","","28","","","","36","","12","","24.1","","97.60","","","","","","NA"
"-119.60","49.46","PENTICTON A","1126146","2023-04-04 18:00","2023","04","04","18:00","6.2","","-8.0","","35","","","","24","","7","","24.1","","97.60","","","","","","NA"
"-119.60","49.46","PENTICTON A","1126146","2023-04-04 19:00","2023","04","04","19:00","5.7","","-8.2","","36","","","","32","","10","","24.1","","97.69","","","","","","Mainly Clear"
"-119.60","49.46","PENTICTON A","1126146","2023-04-04 20:00","2023","04","04","20:00","6.0","","-8.2","","35","","","","23","","3","","24.1","","97.76","","","","","","NA"
"-119.60","49.46","PENTICTON A","1126146","2023-04-04 21:00","2023","04","04","21:00","2.0","","-7.9","","48","","","","31","","8","","24.1","","97.80","","","","","","NA"
"-119.60","49.46","PENTICTON A","1126146","2023-04-04 22:00","2023","04","04","22:00","-0.7","","-8.3","","56","","","","15","","4","","24.1","","97.83","","","","-2","","Clear"
"-119.60","49.46","PENTICTON A","1126146","2023-04-04 23:00","2023","04","04","23:00","-2.1","","-9.0","","59","","","","35","","3","","24.1","","97.86","","","","-3","","NA"
"-119.60","49.46","PENTICTON A","1126146","2023-04-05 00:00","2023","04","05","00:00","-2.9","","-8.4","","66","","","","1","","5","","24.1","","97.90","","","","-5","","NA"
"-119.60","49.46","PENTICTON A","1126146","2023-04-05 01:00","2023","04","05","01:00","-2.2","","-7.8","","65","","","","25","","3","","24.1","","97.92","","","","-3","","Clear"
"-119.60","49.46","PENTICTON A","1126146","2023-04-05 02:00","2023","04","05","02:00","-3.8","","-6.8","","79","","","","9","","4","","24.1","","97.92","","","","-5","","NA"
"-119.60","49.46","PENTICTON A","1126146","2023-04-05 03:00","2023","04","05","03:00","-4.1","","-8.9","","69","","","","36","","1","","24.1","","97.95","","","","-5","","NA"
"-119.60","49.46","PENTICTON A","1126146","2023-04-05 04:00","2023","04","05","04:00","-5.8","","-10.3","","71","","","","36","","2","","24.1","","97.95","","","","-7","","Clear"
"-119.60","49.46","PENTICTON A","1126146","2023-04-05 05:00","2023","04","05","05:00","-5.6","","-9.2","","76","","","","36","","2","","24.1","","97.98","","","","-7","","NA"
"-119.60","49.46","PENTICTON A","1126146","2023-04-05 06:00","2023","04","05","06:00","-3.4","","-7.1","","75","","","","7","","5","","24.1","","97.99","","","","-5","","NA"
"-119.60","49.46","PENTICTON A","1126146","2023-04-05 07:00","2023","04","05","07:00","0.0","","-4.4","","72","","","","17","","6","","24.1","","97.99","","","","-2","","Mainly Clear"
"-119.60","49.46","PENTICTON A","1126146","2023-04-05 08:00","2023","04","05","08:00","1.8","","-5.3","","59","","","","18","","8","","24.1","","97.97","","","","","","NA"
"-119.60","49.46","PENTICTON A","1126146","2023-04-05 09:00","2023","04","05","09:00","4.1","","-6.5","","46","","","","19","","8","","24.1","","97.91","","","","","","NA"
"-119.60","49.46","PENTICTON A","1126146","2023-04-05 10:00","2023","04","05","10:00","7.5","","-5.7","","38","","","","15","","15","","24.1","","97.82","","","","","","Mainly Clear"
"-119.60","49.46","PENTICTON A","1126146","2023-04-05 11:00","2023","04","05","11:00","9.0","","-5.9","","34","","","","16","","24","","24.1","","97.75","","","","","","NA"
"-119.60","49.46","PENTICTON A","1126146","2023-04-05 12:00","2023","04","05","12:00","9.8","","-6.1","","32","","","","17","","27","","24.1","","97.66","","","","","","NA"
"-119.60","49.46","PENTICTON A","1126146","2023-04-05 13:00","2023","04","05","13:00","10.6","","-5.6","","32","","","","17","","23","","24.1","","97.63","","","","","","Mostly Cloudy"
"-119.60","49.46","PENTICTON A","1126146","2023-04-05 14:00","2023","04","05","14:00","12.6","","-6.6","","25","","","","17","","25","","24.1","","97.57","","","","","","NA"
"-119.60","49.46","PENTICTON A","1126146","2023-04-05 15:00","2023","04","05","15:00","11.6","","-6.6","","27","","","","17","","23","","24.1","","97.49","","","","","","NA"
"-119.60","49.46","PENTICTON A","1126146","2023-04-05 16:00","2023","04","05","16:00","12.1","","-8.6","","23","","","","17","","31","","24.1","","97.43","","","","","","Mainly Clear"
"-119.60","49.46","PENTICTON A","1126146","2023-04-05 17:00","2023","04","05","17:00","12.0","","-8.7","","23","","","","17","","25","","24.1","","97.39","","","","","","NA"
"-119.60","49.46","PENTICTON A","1126146","2023-04-05 18:00","2023","04","05","18:00","10.6","","-6.9","","29","","","","17","","22","","24.1","","97.38","","","","","","NA"
"-119.60","49.46","PENTICTON A","1126146","2023-04-05 19:00","2023","04","05","19:00","8.9","","-6.3","","33","","","","18","","18","","24.1","","97.36","","","","","","Mainly Clear"
"-119.60","49.46","PENTICTON A","1126146","2023-04-05 20:00","2023","04","05","20:00","9.4","","-7.7","","29","","","","20","","20","","24.1","","97.44","","","","","","NA"
"-119.60","49.46","PENTICTON A","1126146","2023-04-05 21:00","2023","04","05","21:00","9.4","","-7.4","","30","","","","20","","22","","24.1","","97.44","","","","","","NA"
"-119.60","49.46","PENTICTON A","1126146","2023-04-05 22:00","2023","04","05","22:00","8.8","","-7.5","","31","","","","19","","24","","24.1","","97.46","","","","","","Mainly Clear"
"-119.60","49.46","PENTICTON A","1126146","2023-04-05 23:00","2023","04","05","23:00","7.9","","-7.2","","33","","","","20","","24","","24.1","","97.48","","","","","","NA"
"-119.60","49.46","PENTICTON A","1126146","2023-04-06 00:00","2023","04","06","00:00","7.9","","-6.5","","35","","","","20","","26","","24.1","","97.52","","","","","","NA"
"-119.60","49.46","PENTICTON A","1126146","2023-04-06 01:00","2023","04","06","01:00","7.3","","-5.3","","40","","","","19","","22","","24.1","","97.50","","","","","","Mostly Cloudy"
"-119.60","49.46","PENTICTON A","1126146","2023-04-06 02:00","2023","04","06","02:00","6.0","","-4.3","","47","","","","13","","16","","24.1","","97.51","","","","","","NA"
"-119.60","49.46","PENTICTON A","1126146","2023-04-06 03:00","2023","04","06","03:00","6.2","","-4.2","","47","","","","14","","19","","24.1","","97.50","","","","","","NA"
"-119.60","49.46","PENTICTON A","1126146","2023-04-06 04:00","2023","04","06","04:00","5.9","","-4.2","","48","","","","14","","18","","24.1","","97.49","","","","","","Mostly Cloudy"
"-119.60","49.46","PENTICTON A","1126146","2023-04-06 05:00","2023","04","06","05:00","6.1","","-3.8","","49","","","","14","","22","","24.1","","97.48","","","","","","NA"
"-119.60","49.46","PENTICTON A","1126146","2023-04-06 06:00","2023","04","06","06:00","6.4","","-3.8","","48","","","","16","","20","","24.1","","97.50","","","","","","NA"
"-119.60","49.46","PENTICTON A","1126146","2023-04-06 07:00","2023","04","06","07:00","7.1","","-3.3","","48","","","","16","","21","","24.1","","97.51","","","","","","Mostly Cloudy"
"-119.60","49.46","PENTICTON A","1126146","2023-04-06 08:00","2023","04","06","08:00","7.8","","-2.8","","47","","","","16","","20","","24.1","","97.49","","","","","","NA"
"-119.60","49.46","PENTICTON A","1126146","2023-04-06 09:00","2023","04","06","09:00","9.6","","-3.5","","39","","","","17","","25","","24.1","","97.47","","","","","","NA"
"-119.60","49.46","PENTICTON A","1126146","2023-04-06 10:00","2023","04","06","10:00","10.5","","-3.5","","37","","","","18","","30","","24.1","","97.46","","","","","","Cloudy"
"-119.60","49.46","PENTICTON A","1126146","2023-04-06 11:00","2023","04","06","11:00","10.0","","-2.6","","41","","","","16","","30","","24.1","","97.45","","","","","","NA"
"-119.60","49.46","PENTICTON A","1126146","2023-04-06 12:00","2023","04","06","12:00","10.7","","-0.6","","45","","","","18","","30","","24.1","","97.41","","","","","","NA"
"-119.60","49.46","PENTICTON A","1126146","2023-04-06 13:00","2023","04","06","13:00","11.0","","-0.2","","46","","","","16","","28","","24.1","","97.38","","","","","","Cloudy"
"-119.60","49.46","PENTICTON A","1126146","2023-04-06 14:00","2023","04","06","14:00","10.7","","0.5","","49","","","","16","","21","","24.1","","97.36","","","","","","NA"
"-119.60","49.46","PENTICTON A","1126146","2023-04-06 15:00","2023","04","06","15:00","10.2","","0.7","","51","","","","17","","23","","24.1","","97.29","","","","","","NA"
"-119.60","49.46","PENTICTON A","1126146","2023-04-06 16:00","2023","04","06","16:00","10.6","","0.3","","49","","","","18","","29","","24.1","","97.24","","","","","","Cloudy"
"-119.60","49.46","PENTICTON A","1126146","2023-04-06 17:00","2023","04","06","17:00","9.5","","0.6","","54","","","","16","","22","","24.1","","97.23","","","","","","NA"
"-119.60","49.46","PENTICTON A","1126146","2023-04-06 18:00","2023","04","06","18:00","9.7","","1.0","","55","","","","15","","25","","24.1","","97.19","","","","","","NA"
"-119.60","49.46","PENTICTON A","1126146","2023-04-06 19:00","2023","04","06","19:00","8.6","","1.4","","60","","","","17","","20","","24.1","","97.15","","","","","","Cloudy"
"-119.60","49.46","PENTICTON A","1126146","2023-04-06 20:00","2023","04","06","20:00","8.3","","1.7","","63","","","","17","","22","","24.1","","97.14","","","","","","NA"
"-119.60","49.46","PENTICTON A","1126146","2023-04-06 21:00","2023","04","06","21:00","8.8","","1.9","","62","","","","16","","22","","24.1","","97.13","","","","","","NA"
"-119.60","49.46","PENTICTON A","1126146","2023-04-06 22:00","2023","04","06","22:00","7.9","","2.3","","67","","","","17","","19","","24.1","","97.07","","","","","","Mostly Cloudy"
"-119.60","49.46","PENTICTON A","1126146","2023-04-06 23:00","2023","04","06","23:00","7.8","","2.8","","71","","","","18","","21","","24.1","","97.05","","","","","","NA"
"-119.60","49.46","PENTICTON A","1126146","2023-04-07 00:00","2023","04","07","00:00","8.8","","3.1","","67","","","","17","","20","","24.1","","97.02","","","","","","NA"
"-119.60","49.46","PENTICTON A","1126146","2023-04-07 01:00","2023","04","07","01:00","7.9","","3.2","","72","","","","15","","18","","24.1","","96.99","","","","","","Mostly Cloudy"
"-119.60","49.46","PENTICTON A","1126146","2023-04-07 02:00","2023","04","07","02:00","7.7","","3.7","","76","","","","14","","10","","24.1","","96.94","","","","","","NA"
"-119.60","49.46","PENTICTON A","1126146","2023-04-07 03:00","2023","04","07","03:00","7.6","","4.3","","80","","","","14","","17","","24.1","","96.91","","","","","","NA"
"-119.60","49.46","PENTICTON A","1126146","2023-04-07 04:00","2023","04","07","04:00","7.0","","5.0","","87","","","","15","","20","","24.1","","96.87","","","","","","Cloudy"
"-119.60","49.46","PENTICTON A","1126146","2023-04-07 05:00","2023","04","07","05:00","6.9","","5.0","","88","","","","15","","19","","24.1","","96.84","","","","","","Rain Showers"
"-119.60","49.46","PENTICTON A","1126146","2023-04-07 06:00","2023","04","07","06:00","7.1","","5.3","","88","","","","16","","17","","24.1","","96.85","","","","","","Rain"
"-119.60","49.46","PENTICTON A","1126146","2023-04-07 07:00","2023","04","07","07:00","7.1","","5.7","","91","","","","15","","20","","16.1","","96.86","","","","","","Rain"
"-119.60","49.46","PENTICTON A","1126146","2023-04-07 08:00","2023","04","07","08:00","7.5","","5.9","","90","","","","16","","17","","16.1","","96.86","","","","","","Rain"
"-119.60","49.46","PENTICTON A","1126146","2023-04-07 09:00","2023","04","07","09:00","7.6","","6.0","","89","","","","15","","21","","16.1","","96.84","","","","","","Rain"
"-119.60","49.46","PENTICTON A","1126146","2023-04-07 10:00","2023","04","07","10:00","8.2","","6.5","","89","","","","15","","16","","24.1","","96.84","","","","","","Rain"
"-119.60","49.46","PENTICTON A","1126146","2023-04-07 11:00","2023","04","07","11:00","9.3","","6.7","","84","","","","15","","19","","24.1","","96.82","","","","","","Rain"
"-119.60","49.46","PENTICTON A","1126146","2023-04-07 12:00","2023","04","07","12:00","10.2","","6.6","","78","","","","16","","17","","24.1","","96.78","","","","","","Rain"
"-119.60","49.46","PENTICTON A","1126146","2023-04-07 13:00","2023","04","07","13:00","10.7","","6.7","","76","","","","16","","16","","24.1","","96.73","","","","","","Cloudy"
"-119.60","49.46","PENTICTON A","1126146","2023-04-07 14:00","2023","04","07","14:00","10.4","","5.6","","72","","","","17","","14","","24.1","","96.68","","","","","","NA"
"-119.60","49.46","PENTICTON A","1126146","2023-04-07 15:00","2023","04","07","15:00","9.6","","5.9","","77","","","","17","","11","","24.1","","96.68","","","","","","Rain"
"-119.60","49.46","PENTICTON A","1126146","2023-04-07 16:00","2023","04","07","16:00","9.5","","6.7","","82","","","","17","","18","","16.1","","96.66","","","","","","Rain"
"-119.60","49.46","PENTICTON A","1126146","2023-04-07 17:00","2023","04","07","17:00","9.9","","6.9","","81","","","","17","","13","","24.1","","96.61","","","","","","NA"
"-119.60","49.46","PENTICTON A","1126146","2023-04-07 18:00","2023","04","07","18:00","9.4","","6.2","","80","","","","15","","9","","24.1","","96.62","","","","","","NA"
"-119.60","49.46","PENTICTON A","1126146","2023-04-07 19:00","2023","04","07","19:00","9.3","","6.5","","82","","","","18","","14","","19.3","","96.69","","","","","","Rain Showers"
"-119.60","49.46","PENTICTON A","1126146","2023-04-07 20:00","2023","04","07","20:00","8.4","","6.3","","86","","","","16","","8","","24.1","","96.71","","","","","","Rain Showers"
"-119.60","49.46","PENTICTON A","1126146","2023-04-07 21:00","2023","04","07","21:00","8.5","","3.8","","72","","","","19","","19","","24.1","","96.75","","","","","","NA"
"-119.60","49.46","PENTICTON A","1126146","2023-04-07 22:00","2023","04","07","22:00","7.6","","4.5","","81","","","","17","","14","","24.1","","96.81","","","","","","Cloudy"
"-119.60","49.46","PENTICTON A","1126146","2023-04-07 23:00","2023","04","07","23:00","6.8","","4.5","","85","","","","19","","12","","24.1","","96.84","","","","","","NA"
"-119.60","49.46","PENTICTON A","1126146","2023-04-08 00:00","2023","04","08","00:00","7.0","","4.7","","85","","","","23","","7","","24.1","","96.86","","","","","","NA"
"-119.60","49.46","PENTICTON A","1126146","2023-04-08 01:00","2023","04","08","01:00","3.8","","2.5","","91","","","","34","","4","","24.1","","96.87","","","","","","Mainly Clear"
"-119.60","49.46","PENTICTON A","1126146","2023-04-08 02:00","2023","04","08","02:00","2.8","","1.6","","92","","","","36","","10","","24.1","","96.93","","","","","","NA"
"-119.60","49.46","PENTICTON A","1126146","2023-04-08 03:00","2023","04","08","03:00","2.5","","1.5","","93","","","","36","","1","","24.1","","96.97","","","","","","NA"
"-119.60","49.46","PENTICTON A","1126146","2023-04-08 04:00","2023","04","08","04:00","2.3","","1.7","","96","","","","34","","5","","24.1","","97.03","","","","","","Mostly Cloudy"
"-119.60","49.46","PENTICTON A","1126146","2023-04-08 05:00","2023","04","08","05:00","2.5","","1.9","","95","","","","36","","2","","24.1","","97.07","","","","","","NA"
"-119.60","49.46","PENTICTON A","1126146","2023-04-08 06:00","2023","04","08","06:00","6.3","","4.8","","90","","","","18","","19","","24.1","","97.08","","","","","","NA"
"-119.60","49.46","PENTICTON A","1126146","2023-04-08 07:00","2023","04","08","07:00","6.6","","4.5","","86","","","","15","","21","","24.1","","97.13","","","","","","Cloudy"
"-119.60","49.46","PENTICTON A","1126146","2023-04-08 08:00","2023","04","08","08:00","7.5","","4.2","","80","","","","16","","22","","24.1","","97.17","","","","","","NA"
"-119.60","49.46","PENTICTON A","1126146","2023-04-08 09:00","2023","04","08","09:00","8.1","","3.0","","70","","","","18","","27","","24.1","","97.22","","","","","","NA"
"-119.60","49.46","PENTICTON A","1126146","2023-04-08 10:00","2023","04","08","10:00","8.4","","2.0","","64","","","","17","","22","","24.1","","97.26","","","","","","Cloudy"
"-119.60","49.46","PENTICTON A","1126146","2023-04-08 11:00","2023","04","08","11:00","8.8","","1.0","","58","","","","17","","24","","24.1","","97.27","","","","","","NA"
"-119.60","49.46","PENTICTON A","1126146","2023-04-08 12:00","2023","04","08","12:00","9.8","","1.0","","54","","","","19","","31","","24.1","","97.28","","","","","","NA"
"-119.60","49.46","PENTICTON A","1126146","2023-04-08 13:00","2023","04","08","13:00","10.3","","0.7","","51","","","","18","","37","","24.1","","97.31","","","","","","Cloudy"
"-119.60","49.46","PENTICTON A","1126146","2023-04-08 14:00","2023","04","08","14:00","11.0","","1.5","","52","","","","19","","35","","24.1","","97.31","","","","","","NA"
"-119.60","49.46","PENTICTON A","1126146","2023-04-08 15:00","2023","04","08","15:00","11.4","","1.4","","50","","","","17","","31","","24.1","","97.29","","","","","","NA"
"-119.60","49.46","PENTICTON A","1126146","2023-04-08 16:00","2023","04","08","16:00","11.4","","1.1","","49","","","","18","","30","","24.1","","97.31","","","","","","Cloudy"
"-119.60","49.46","PENTICTON A","1126146","2023-04-08 17:00","2023","04","08","17:00","11.9","","0.4","","45","","","","18","","29","","24.1","","97.33","","","","","","NA"
"-119.60","49.46","PENTICTON A","1126146","2023-04-08 18:00","2023","04","08","18:00","11.1","","0.4","","47","","","","18","","24","","24.1","","97.34","","","","","","NA"
"-119.60","49.46","PENTICTON A","1126146","2023-04-08 19:00","2023","04","08","19:00","10.1","","1.0","","53","","","","18","","27","","24.1","","97.40","","","","","","Cloudy"
"-119.60","49.46","PENTICTON A","1126146","2023-04-08 20:00","2023","04","08","20:00","10.3","","1.0","","52","","","","19","","37","","24.1","","97.49","","","","","","NA"
"-119.60","49.46","PENTICTON A","1126146","2023-04-08 21:00","2023","04","08","21:00","10.0","","0.9","","53","","","","18","","28","","24.1","","97.58","","","","","","NA"
"-119.60","49.46","PENTICTON A","1126146","2023-04-08 22:00","2023","04","08","22:00","9.8","","0.9","","54","","","","19","","32","","24.1","","97.58","","","","","","Cloudy"
"-119.60","49.46","PENTICTON A","1126146","2023-04-08 23:00","2023","04","08","23:00","8.2","","1.3","","61","","","","14","","16","","24.1","","97.64","","","","","","NA"
"-119.60","49.46","PENTICTON A","1126146","2023-04-09 00:00","2023","04","09","00:00","8.7","","1.2","","60","","","","13","","18","","24.1","","97.65","","","","","","NA"
"-119.60","49.46","PENTICTON A","1126146","2023-04-09 01:00","2023","04","09","01:00","8.3","","1.4","","62","","","","14","","20","","24.1","","97.61","","","","","","Cloudy"
"-119.60","49.46","PENTICTON A","1126146","2023-04-09 02:00","2023","04","09","02:00","8.7","","1.2","","59","","","","14","","22","","24.1","","97.57","","","","","","NA"
"-119.60","49.46","PENTICTON A","1126146","2023-04-09 03:00","2023","04","09","03:00","8.4","","1.1","","60","","","","15","","20","","24.1","","97.59","","","","","","NA"
"-119.60","49.46","PENTICTON A","1126146","2023-04-09 04:00","2023","04","09","04:00","8.8","","0.9","","57","","","","14","","28","","24.1","","97.53","","","","","","Cloudy"
"-119.60","49.46","PENTICTON A","1126146","2023-04-09 05:00","2023","04","09","05:00","8.8","","0.9","","58","","","","15","","24","","24.1","","97.50","","","","","","NA"
"-119.60","49.46","PENTICTON A","1126146","2023-04-09 06:00","2023","04","09","06:00","8.8","","0.6","","56","","","","16","","17","","24.1","","97.48","","","","","","NA"
"-119.60","49.46","PENTICTON A","1126146","2023-04-09 07:00","2023","04","09","07:00","9.7","","0.3","","52","","","","18","","30","","24.1","","97.50","","","","","","Mostly Cloudy"
"-119.60","49.46","PENTICTON A","1126146","2023-04-09 08:00","2023","04","09","08:00","10.5","","0.9","","51","","","","18","","41","","24.1","","97.47","","","","","","NA"
"-119.60","49.46","PENTICTON A","1126146","2023-04-09 09:00","2023","04","09","09:00","11.0","","2.1","","54","","","","19","","46","","24.1","","97.48","","","","","","NA"
"-119.60","49.46","PENTICTON A","1126146","2023-04-09 10:00","2023","04","09","10:00","11.7","","2.7","","54","","","","19","","48","","24.1","","97.49","","","","","","Cloudy"
"-119.60","49.46","PENTICTON A","1126146","2023-04-09 11:00","2023","04","09","11:00","11.8","","3.3","","56","","","","18","","44","","24.1","","97.43","","","","","","NA"
"-119.60","49.46","PENTICTON A","1126146","2023-04-09 12:00","2023","04","09","12:00","12.2","","3.7","","56","","","","17","","43","","24.1","","97.36","","","","","","NA"
"-119.60","49.46","PENTICTON A","1126146","2023-04-09 13:00","2023","04","09","13:00","12.8","","3.4","","53","","","","18","","45","","24.1","","97.31","","","","","","Mostly Cloudy"
"-119.60","49.46","PENTICTON A","1126146","2023-04-09 14:00","2023","04","09","14:00","13.3","","3.8","","52","","","","17","","45","","24.1","","97.30","","","","","","NA"
"-119.60","49.46","PENTICTON A","1126146","2023-04-09 15:00","2023","04","09","15:00","13.9","","4.4","","52","","","","18","","42","","24.1","","97.20","","","","","","NA"
"-119.60","49.46","PENTICTON A","1126146","2023-04-09 16:00","2023","04","09","16:00","13.6","","4.6","","54","","","","17","","46","","24.1","","97.13","","","","","","Cloudy"
"-119.60","49.46","PENTICTON A","1126146","2023-04-09 17:00","2023","04","09","17:00","13.3","","4.6","","55","","","","17","","42","","24.1","","97.10","","","","","","NA"
"-119.60","49.46","PENTICTON A","1126146","2023-04-09 18:00","2023","04","09","18:00","13.0","","4.9","","57","","","","18","","36","","24.1","","97.11","","","","","","NA"
"-119.60","49.46","PENTICTON A","1126146","2023-04-09 19:00","2023","04","09","19:00","12.9","","4.9","","58","","","","18","","38","","24.1","","97.11","","","","","","Mostly Cloudy"
"-119.60","49.46","PENTICTON A","1126146","2023-04-09 20:00","2023","04","09","20:00","13.1","","5.2","","58","","","","17","","34","","24.1","","97.19","","","","","","NA"
"-119.60","49.46","PENTICTON A","1126146","2023-04-09 21:00","2023","04","09","21:00","12.8","","5.9","","62","","","","18","","29","","24.1","","97.27","","","","","","NA"
"-119.60","49.46","PENTICTON A","1126146","2023-04-09 22:00","2023","04","09","22:00","12.5","","5.9","","64","","","","18","","33","","24.1","","97.35","","","","","","Cloudy"
"-119.60","49.46","PENTICTON A","1126146","2023-04-09 23:00","2023","04","09","23:00","12.4","","6.0","","65","","","","18","","20","","24.1","","97.43","","","","","","NA"
"-119.60","49.46","PENTICTON A","1126146","2023-04-10 00:00","2023","04","10","00:00","10.3","","5.7","","73","","","","18","","22","","24.1","","97.49","","","","","","NA"
"-119.60","49.46","PENTICTON A","1126146","2023-04-10 01:00","2023","04","10","01:00","10.5","","2.2","","56","","","","33","","13","","24.1","","97.58","","","","","","Cloudy"
"-119.60","49.46","PENTICTON A","1126146","2023-04-10 02:00","2023","04","10","02:00","9.8","","0.9","","54","","","","1","","12","","24.1","","97.60","","","","","","NA"
"-119.60","49.46","PENTICTON A","1126146","2023-04-10 03:00","2023","04","10","03:00","7.5","","5.0","","84","","","","25","","5","","24.1","","97.66","","","","","","Rain"
"-119.60","49.46","PENTICTON A","1126146","2023-04-10 04:00","2023","04","10","04:00","7.3","","4.8","","84","","","","30","","6","","24.1","","97.65","","","","","","Rain"
"-119.60","49.46","PENTICTON A","1126146","2023-04-10 05:00","2023","04","10","05:00","6.8","","4.7","","86","","","","36","","2","","24.1","","97.69","","","","","","Rain"
"-119.60","49.46","PENTICTON A","1126146","2023-04-10 06:00","2023","04","10","06:00","7.4","","3.4","","76","","","","35","","8","","24.1","","97.63","","","","","","NA"
"-119.60","49.46","PENTICTON A","1126146","2023-04-10 07:00","2023","04","10","07:00","8.1","","3.3","","72","","","","33","","9","","24.1","","97.62","","","","","","Cloudy"
"-119.60","49.46","PENTICTON A","1126146","2023-04-10 08:00","2023","04","10","08:00","8.8","","0.6","","56","","","","31","","6","","24.1","","97.58","","","","","","NA"
"-119.60","49.46","PENTICTON A","1126146","2023-04-10 09:00","2023","04","10","09:00","7.9","","3.0","","71","","","","11","","4","","24.1","","97.60","","","","","","Rain"
"-119.60","49.46","PENTICTON A","1126146","2023-04-10 10:00","2023","04","10","10:00","8.6","","1.6","","61","","","","28","","5","","19.3","","97.57","","","","","","Rain"
"-119.60","49.46","PENTICTON A","1126146","2023-04-10 11:00","2023","04","10","11:00","9.4","","2.3","","61","","","","31","","12","","19.3","","97.51","","","","","","Rain"
"-119.60","49.46","PENTICTON A","1126146","2023-04-10 12:00","2023","04","10","12:00","9.4","","1.1","","56","","","","34","","9","","24.1","","97.40","","","","","","Rain"
"-119.60","49.46","PENTICTON A","1126146","2023-04-10 13:00","2023","04","10","13:00","8.7","","2.2","","63","","","","36","","18","","19.3","","97.38","","","","","","Rain"
"-119.60","49.46","PENTICTON A","1126146","2023-04-10 14:00","2023","04","10","14:00","8.3","","3.1","","69","","","","1","","13","","19.3","","97.35","","","","","","Rain"
"-119.60","49.46","PENTICTON A","1126146","2023-04-10 15:00","2023","04","10","15:00","8.1","","4.0","","75","","","","35","","17","","24.1","","97.29","","","","","","Rain"
"-119.60","49.46","PENTICTON A","1126146","2023-04-10 16:00","2023","04","10","16:00","7.3","","3.7","","78","","","","36","","16","","24.1","","97.20","","","","","","Cloudy"
"-119.60","49.46","PENTICTON A","1126146","2023-04-10 17:00","2023","04","10","17:00","7.0","","3.6","","79","","","","36","","16","","24.1","","97.12","","","","","","NA"
"-119.60","49.46","PENTICTON A","1126146","2023-04-10 18:00","2023","04","10","18:00","6.6","","3.4","","80","","","","1","","16","","19.3","","97.06","","","","","","Rain"
"-119.60","49.46","PENTICTON A","1126146","2023-04-10 19:00","2023","04","10","19:00","5.6","","3.8","","88","","","","33","","10","","24.1","","97.02","","","","","","Rain"
"-119.60","49.46","PENTICTON A","1126146","2023-04-10 20:00","2023","04","10","20:00","5.4","","3.8","","89","","","","34","","11","","16.1","","97.03","","","","","","Rain"
"-119.60","49.46","PENTICTON A","1126146","2023-04-10 21:00","2023","04","10","21:00","5.1","","3.7","","90","","","","32","","11","","24.1","","96.96","","","","","","Rain"
"-119.60","49.46","PENTICTON A","1126146","2023-04-10 22:00","2023","04","10","22:00","5.0","","3.5","","90","","","","34","","10","","24.1","","96.88","","","","","","Rain"
"-119.60","49.46","PENTICTON A","1126146","2023-04-10 23:00","2023","04","10","23:00","5.4","","3.2","","85","","","","31","","10","","24.1","","96.84","","","","","","NA"
"-119.60","49.46","PENTICTON A","1126146","2023-04-11 00:00","2023","04","11","00:00","4.8","","3.3","","90","","","","31","","5","","24.1","","96.87","","","","","","NA"
"-119.60","49.46","PENTICTON A","1126146","2023-04-11 01:00","2023","04","11","01:00","4.9","","3.8","","92","","","","4","","5","","24.1","","96.84","","","","","","Rain"
"-119.60","49.46","PENTICTON A","1126146","2023-04-11 02:00","2023","04","11","02:00","4.8","","3.9","","94","","","","35","","7","","16.1","","96.84","","","","","","Rain"
"-119.60","49.46","PENTICTON A","1126146","2023-04-11 03:00","2023","04","11","03:00","4.6","","3.9","","95","","","","36","","2","","19.3","","96.85","","","","","","Rain"
"-119.60","49.46","PENTICTON A","1126146","2023-04-11 04:00","2023","04","11","04:00","4.4","","3.2","","92","","","","36","","2","","24.1","","96.82","","","","","","Rain"
"-119.60","49.46","PENTICTON A","1126146","2023-04-11 05:00","2023","04","11","05:00","3.7","","2.5","","92","","","","18","","5","","24.1","","96.79","","","","","","NA"
"-119.60","49.46","PENTICTON A","1126146","2023-04-11 06:00","2023","04","11","06:00","3.7","","2.9","","94","","","","19","","3","","24.1","","96.83","","","","","","NA"
"-119.60","49.46","PENTICTON A","1126146","2023-04-11 07:00","2023","04","11","07:00","4.8","","3.5","","91","","","","11","","5","","24.1","","96.88","","","","","","Mostly Cloudy"
"-119.60","49.46","PENTICTON A","1126146","2023-04-11 08:00","2023","04","11","08:00","4.9","","3.2","","88","","","","19","","7","","24.1","","96.90","","","","","","NA"
"-119.60","49.46","PENTICTON A","1126146","2023-04-11 09:00","2023","04","11","09:00","6.8","","3.5","","79","","","","16","","11","","24.1","","96.92","","","","","","NA"
"-119.60","49.46","PENTICTON A","1126146","2023-04-11 10:00","2023","04","11","10:00","8.7","","4.4","","74","","","","17","","12","","24.1","","96.94","","","","","","Mostly Cloudy"
"-119.60","49.46","PENTICTON A","1126146","2023-04-11 11:00","2023","04","11","11:00","10.1","","3.7","","64","","","","17","","5","","24.1","","96.94","","","","","","NA"
"-119.60","49.46","PENTICTON A","1126146","2023-04-11 12:00","2023","04","11","12:00","9.3","","1.3","","57","","","","19","","23","","24.1","","96.90","","","","","","NA"
"-119.60","49.46","PENTICTON A","1126146","2023-04-11 13:00","2023","04","11","13:00","9.6","","2.5","","61","","","","16","","10","","24.1","","96.91","","","","","","Mostly Cloudy"
"-119.60","49.46","PENTICTON A","1126146","2023-04-11 14:00","2023","04","11","14:00","8.5","","-1.0","","51","","","","27","","13","","24.1","","97.05","","","","","","Rain Showers"
"-119.60","49.46","PENTICTON A","1126146","2023-04-11 15:00","2023","04","11","15:00","7.2","","-1.8","","53","","","","7","","17","","24.1","","97.16","","","","","","NA"
"-119.60","49.46","PENTICTON A","1126146","2023-04-11 16:00","2023","04","11","16:00","8.2","","-2.0","","48","","","","8","","12","","24.1","","97.15","","","","","","Rain Showers"
"-119.60","49.46","PENTICTON A","1126146","2023-04-11 17:00","2023","04","11","17:00","7.4","","-0.6","","57","","","","17","","15","","24.1","","97.16","","","","","","NA"
"-119.60","49.46","PENTICTON A","1126146","2023-04-11 18:00","2023","04","11","18:00","6.9","","-0.1","","61","","","","36","","1","","24.1","","97.20","","","","","","NA"
"-119.60","49.46","PENTICTON A","1126146","2023-04-11 19:00","2023","04","11","19:00","5.1","","-0.6","","66","","","","27","","8","","24.1","","97.30","","","","","","Mainly Clear"
"-119.60","49.46","PENTICTON A","1126146","2023-04-11 20:00","2023","04","11","20:00","2.5","","-2.6","","69","","","","4","","8","","24.1","","97.37","","","","","","NA"
"-119.60","49.46","PENTICTON A","1126146","2023-04-11 21:00","2023","04","11","21:00","0.3","","-5.6","","64","","","","36","","13","","24.1","","97.42","","","","","","NA"
"-119.60","49.46","PENTICTON A","1126146","2023-04-11 22:00","2023","04","11","22:00","0.2","","-5.0","","68","","","","36","","1","","24.1","","97.46","","","","","","Mainly Clear"
"-119.60","49.46","PENTICTON A","1126146","2023-04-11 23:00","2023","04","11","23:00","-1.2","","-5.9","","70","","","","36","","1","","24.1","","97.47","","","","-2","","NA"
"-119.60","49.46","PENTICTON A","1126146","2023-04-12 00:00","2023","04","12","00:00","-1.9","","-5.7","","75","","","","1","","5","","24.1","","97.52","","","","-4","","NA"
"-119.60","49.46","PENTICTON A","1126146","2023-04-12 01:00","2023","04","12","01:00","-2.1","","-5.8","","76","","","","36","","2","","24.1","","97.49","","","","-3","","Mainly Clear"
"-119.60","49.46","PENTICTON A","1126146","2023-04-12 02:00","2023","04","12","02:00","-2.4","","-5.6","","79","","","","0","","1","","24.1","","97.46","","","","-3","","NA"
"-119.60","49.46","PENTICTON A","1126146","2023-04-12 03:00","2023","04","12","03:00","-2.7","","-5.5","","82","","","","36","","2","","24.1","","97.46","","","","-3","","NA"
"-119.60","49.46","PENTICTON A","1126146","2023-04-12 04:00","2023","04","12","04:00","-2.6","","-5.5","","80","","","","36","","3","","24.1","","97.48","","","","-4","","Mainly Clear"
"-119.60","49.46","PENTICTON A","1126146","2023-04-12 05:00","2023","04","12","05:00","-2.4","","-5.8","","77","","","","36","","2","","24.1","","97.50","","","","-3","","NA"
"-119.60","49.46","PENTICTON A","1126146","2023-04-12 06:00","2023","04","12","06:00","-1.3","","-4.3","","80","","","","8","","4","","24.1","","97.53","","","","-3","","NA"
"-119.60","49.46","PENTICTON A","1126146","2023-04-12 07:00","2023","04","12","07:00","1.4","","-2.1","","77","","","","17","","4","","24.1","","97.51","","","","","","Mainly Clear"
"-119.60","49.46","PENTICTON A","1126146","2023-04-12 08:00","2023","04","12","08:00","3.6","","-0.6","","74","","","","21","","5","","24.1","","97.48","","","","","","NA"
"-119.60","49.46","PENTICTON A","1126146","2023-04-12 09:00","2023","04","12","09:00","6.8","","-2.8","","51","","","","2","","3","","24.1","","97.46","","","","","","NA"
"-119.60","49.46","PENTICTON A","1126146","2023-04-12 10:00","2023","04","12","10:00","8.9","","-3.6","","41","","","","1","","18","","24.1","","97.43","","","","","","Mostly Cloudy"
"-119.60","49.46","PENTICTON A","1126146","2023-04-12 11:00","2023","04","12","11:00","8.5","","-3.9","","41","","","","36","","18","","24.1","","97.42","","","","","","NA"
"-119.60","49.46","PENTICTON A","1126146","2023-04-12 12:00","2023","04","12","12:00","10.4","","-3.9","","36","","","","36","","23","","24.1","","97.38","","","","","","NA"
"-119.60","49.46","PENTICTON A","1126146","2023-04-12 13:00","2023","04","12","13:00","10.7","","-3.5","","37","","","","36","","36","","24.1","","97.36","","","","","","Mostly Cloudy"
"-119.60","49.46","PENTICTON A","1126146","2023-04-12 14:00","2023","04","12","14:00","9.7","","-4.9","","35","","","","36","","29","","24.1","","97.35","","","","","","NA"
"-119.60","49.46","PENTICTON A","1126146","2023-04-12 15:00","2023","04","12","15:00","10.8","","-4.7","","33","","","","2","","25","","24.1","","97.31","","","","","","NA"
"-119.60","49.46","PENTICTON A","1126146","2023-04-12 16:00","2023","04","12","16:00","10.3","","-5.1","","33","","","","36","","21","","24.1","","97.27","","","","","","Mostly Cloudy"
"-119.60","49.46","PENTICTON A","1126146","2023-04-12 17:00","2023","04","12","17:00","9.3","","-4.6","","37","","","","36","","12","","24.1","","97.23","","","","","","NA"
"-119.60","49.46","PENTICTON A","1126146","2023-04-12 18:00","2023","04","12","18:00","9.6","","-3.9","","38","","","","36","","10","","24.1","","97.20","","","","","","NA"
"-119.60","49.46","PENTICTON A","1126146","2023-04-12 19:00","2023","04","12","19:00","7.7","","-2.9","","47","","","","35","","7","","24.1","","97.22","","","","","","Mostly Cloudy"
"-119.60","49.46","PENTICTON A","1126146","2023-04-12 20:00","2023","04","12","20:00","6.8","","-4.0","","46","","","","33","","12","","24.1","","97.28","","","","","","NA"
"-119.60","49.46","PENTICTON A","1126146","2023-04-12 21:00","2023","04","12","21:00","7.2","","-3.4","","47","","","","1","","10","","24.1","","97.29","","","","","","NA"
"-119.60","49.46","PENTICTON A","1126146","2023-04-12 22:00","2023","04","12","22:00","4.5","","-3.7","","55","","","","35","","11","","24.1","","97.28","","","","","","Mainly Clear"
"-119.60","49.46","PENTICTON A","1126146","2023-04-12 23:00","2023","04","12","23:00","1.4","","-4.5","","65","","","","2","","8","","24.1","","97.31","","","","","","NA"
"-119.60","49.46","PENTICTON A","1126146","2023-04-13 00:00","2023","04","13","00:00","-0.8","","-4.8","","74","","","","31","","5","","24.1","","97.32","","","","-2","","NA"
"-119.60","49.46","PENTICTON A","1126146","2023-04-13 01:00","2023","04","13","01:00","-1.1","","-5.1","","74","","","","26","","4","","24.1","","97.31","","","","-2","","Clear"
"-119.60","49.46","PENTICTON A","1126146","2023-04-13 02:00","2023","04","13","02:00","-1.3","","-4.9","","77","","","","36","","2","","24.1","","97.30","","","","-2","","NA"
"-119.60","49.46","PENTICTON A","1126146","2023-04-13 03:00","2023","04","13","03:00","-0.5","","-4.5","","75","","","","6","","3","","48.3","","97.32","","","","-1","","NA"
"-119.60","49.46","PENTICTON A","1126146","2023-04-13 04:00","2023","04","13","04:00","-1.0","","-4.0","","80","","","","36","","1","","24.1","","97.32","","","","-1","","Mainly Clear"
"-119.60","49.46","PENTICTON A","1126146","2023-04-13 05:00","2023","04","13","05:00","-0.6","","-3.9","","78","","","","0","","1","","24.1","","97.34","","","","-1","","NA"
"-119.60","49.46","PENTICTON A","1126146","2023-04-13 06:00","2023","04","13","06:00","0.6","","-2.4","","81","","","","36","","2","","24.1","","97.36","","","","","","NA"
"-119.60","49.46","PENTICTON A","1126146","2023-04-13 07:00","2023","04","13","07:00","2.8","","-1.2","","75","","","","36","","2","","24.1","","97.36","","","","","","Mainly Clear"
"-119.60","49.46","PENTICTON A","1126146","2023-04-13 08:00","2023","04","13","08:00","4.8","","-3.1","","56","","","","16","","4","","24.1","","97.33","","","","","","NA"
"-119.60","49.46","PENTICTON A","1126146","2023-04-13 09:00","2023","04","13","09:00","7.5","","-4.3","","43","","","","36","","1","","24.1","","97.29","","","","","","NA"
"-119.60","49.46","PENTICTON A","1126146","2023-04-13 10:00","2023","04","13","10:00","9.3","","-4.4","","38","","","","35","","12","","24.1","","97.25","","","","","","Mostly Cloudy"
"-119.60","49.46","PENTICTON A","1126146","2023-04-13 11:00","2023","04","13","11:00","10.4","","-4.0","","36","","","","20","","8","","24.1","","97.18","","","","","","NA"
"-119.60","49.46","PENTICTON A","1126146","2023-04-13 12:00","2023","04","13","12:00","12.3","","-5.4","","29","","","","3","","14","","24.1","","97.11","","","","","","NA"
"-119.60","49.46","PENTICTON A","1126146","2023-04-13 13:00","2023","04","13","13:00","12.2","","-6.8","","26","","","","9","","8","","24.1","","97.04","","","","","","Mostly Cloudy"
"-119.60","49.46","PENTICTON A","1126146","2023-04-13 14:00","2023","04","13","14:00","12.3","","-7.7","","24","","","","4","","9","","24.1","","96.98","","","","","","NA"
"-119.60","49.46","PENTICTON A","1126146","2023-04-13 15:00","2023","04","13","15:00","11.3","","-5.4","","31","","","","29","","28","","24.1","","96.98","","","","","","NA"
"-119.60","49.46","PENTICTON A","1126146","2023-04-13 16:00","2023","04","13","16:00","10.9","","-5.0","","32","","","","32","","16","","24.1","","96.98","","","","","","Mostly Cloudy"
"-119.60","49.46","PENTICTON A","1126146","2023-04-13 17:00","2023","04","13","17:00","9.6","","-3.3","","40","","","","36","","16","","24.1","","97.06","","","","","","NA"
"-119.60","49.46","PENTICTON A","1126146","2023-04-13 18:00","2023","04","13","18:00","7.8","","-2.1","","50","","","","14","","10","","24.1","","97.17","","","","","","Rain Showers"
"-119.60","49.46","PENTICTON A","1126146","2023-04-13 19:00","2023","04","13","19:00","7.0","","-0.9","","57","","","","26","","8","","24.1","","97.16","","","","","","Mostly Cloudy"
"-119.60","49.46","PENTICTON A","1126146","2023-04-13 20:00","2023","04","13","20:00","5.5","","-0.9","","63","","","","3","","9","","24.1","","97.19","","","","","","NA"
"-119.60","49.46","PENTICTON A","1126146","2023-04-13 21:00","2023","04","13","21:00","3.8","","-1.7","","67","","","","0","","1","","24.1","","97.22","","","","","","NA"
"-119.60","49.46","PENTICTON A","1126146","2023-04-13 22:00","2023","04","13","22:00","2.9","","-1.8","","71","","","","36","","2","","24.1","","97.26","","","","","","Mostly Cloudy"
"-119.60","49.46","PENTICTON A","1126146","2023-04-13 23:00","2023","04","13","23:00","1.2","","-1.9","","80","","","","36","","1","","24.1","","97.27","","","","","","NA"
"-119.60","49.46","PENTICTON A","1126146","2023-04-14 00:00","2023","04","14","00:00","0.8","","-2.4","","79","","","","36","","2","","24.1","","97.30","","","","","","NA"
"-119.60","49.46","PENTICTON A","1126146","2023-04-14 01:00","2023","04","14","01:00","-0.9","","-3.6","","82","","","","2","","5","","24.1","","97.31","","","","-3","","Mainly Clear"
"-119.60","49.46","PENTICTON A","1126146","2023-04-14 02:00","2023","04","14","02:00","-1.9","","-4.4","","83","","","","7","","4","","24.1","","97.34","","","","-3","","NA"
"-119.60","49.46","PENTICTON A","1126146","2023-04-14 03:00","2023","04","14","03:00","-0.7","","-3.1","","84","","","","12","","4","","24.1","","97.36","","","","-2","","NA"
"-119.60","49.46","PENTICTON A","1126146","2023-04-14 04:00","2023","04","14","04:00","-0.1","","-2.9","","81","","","","36","","1","","24.1","","97.38","","","","0","","Mostly Cloudy"
"-119.60","49.46","PENTICTON A","1126146","2023-04-14 05:00","2023","04","14","05:00","-0.4","","-3.1","","82","","","","36","","1","","24.1","","97.41","","","","-1","","NA"
"-119.60","49.46","PENTICTON A","1126146","2023-04-14 06:00","2023","04","14","06:00","-0.5","","-3.0","","84","","","","8","","3","","24.1","","97.46","","","","-1","","NA"
"-119.60","49.46","PENTICTON A","1126146","2023-04-14 07:00","2023","04","14","07:00","3.0","","-0.9","","75","","","","1","","4","","24.1","","97.48","","","","","","Mainly Clear"
"-119.60","49.46","PENTICTON A","1126146","2023-04-14 08:00","2023","04","14","08:00","5.5","","-2.3","","57","","","","35","","7","","24.1","","97.50","","","","","","NA"
"-119.60","49.46","PENTICTON A","1126146","2023-04-14 09:00","2023","04","14","09:00","6.9","","-2.8","","50","","","","34","","9","","24.1","","97.49","","","","","","NA"
"-119.60","49.46","PENTICTON A","1126146","2023-04-14 10:00","2023","04","14","10:00","8.6","","-3.6","","42","","","","36","","11","","24.1","","97.47","","","","","","Mainly Clear"
"-119.60","49.46","PENTICTON A","1126146","2023-04-14 11:00","2023","04","14","11:00","10.1","","-3.9","","37","","","","3","","7","","24.1","","97.42","","","","","","NA"
"-119.60","49.46","PENTICTON A","1126146","2023-04-14 12:00","2023","04","14","12:00","11.5","","-3.0","","36","","","","1","","13","","24.1","","97.36","","","","","","NA"
"-119.60","49.46","PENTICTON A","1126146","2023-04-14 13:00","2023","04","14","13:00","12.8","","-6.7","","25","","","","11","","7","","24.1","","97.32","","","","","","Mainly Clear"
"-119.60","49.46","PENTICTON A","1126146","2023-04-14 14:00","2023","04","14","14:00","11.8","","-4.8","","31","","","","33","","5","","24.1","","97.34","","","","","","NA"
"-119.60","49.46","PENTICTON A","1126146","2023-04-14 15:00","2023","04","14","15:00","13.4","","-5.5","","26","","","","19","","8","","24.1","","97.32","","","","","","NA"
"-119.60","49.46","PENTICTON A","1126146","2023-04-14 16:00","2023","04","14","16:00","14.1","","-3.8","","29","","","","17","","15","","24.1","","97.30","","","","","","Mainly Clear"
"-119.60","49.46","PENTICTON A","1126146","2023-04-14 17:00","2023","04","14","17:00","11.8","","-2.4","","37","","","","18","","17","","24.1","","97.30","","","","","","NA"
"-119.60","49.46","PENTICTON A","1126146","2023-04-14 18:00","2023","04","14","18:00","10.6","","-2.0","","41","","","","20","","7","","24.1","","97.31","","","","","","NA"
"-119.60","49.46","PENTICTON A","1126146","2023-04-14 19:00","2023","04","14","19:00","9.1","","-1.8","","46","","","","15","","10","","24.1","","97.35","","","","","","Mainly Clear"
"-119.60","49.46","PENTICTON A","1126146","2023-04-14 20:00","2023","04","14","20:00","8.8","","-2.4","","45","","","","15","","12","","24.1","","97.42","","","","","","NA"
"-119.60","49.46","PENTICTON A","1126146","2023-04-14 21:00","2023","04","14","21:00","8.6","","-3.1","","44","","","","15","","16","","24.1","","97.50","","","","","","NA"
"-119.60","49.46","PENTICTON A","1126146","2023-04-14 22:00","2023","04","14","22:00","8.1","","-3.0","","45","","","","17","","15","","24.1","","97.56","","","","","","Mainly Clear"
"-119.60","49.46","PENTICTON A","1126146","2023-04-14 23:00","2023","04","14","23:00","8.5","","-4.3","","40","","","","15","","15","","24.1","","97.61","","","","","","NA"
"-119.60","49.46","PENTICTON A","1126146","2023-04-15 00:00","2023","04","15","00:00","6.8","","-3.8","","47","","","","14","","11","","24.1","","97.64","","","","","","NA"
"-119.60","49.46","PENTICTON A","1126146","2023-04-15 01:00","2023","04","15","01:00","6.2","","-3.1","","51","","","","16","","7","","24.1","","97.67","","","","","","Mainly Clear"
"-119.60","49.46","PENTICTON A","1126146","2023-04-15 02:00","2023","04","15","02:00","5.7","","-3.8","","50","","","","36","","1","","32.2","","97.70","","","","","","NA"
"-119.60","49.46","PENTICTON A","1126146","2023-04-15 03:00","2023","04","15","03:00","2.7","","-3.8","","62","","","","35","","8","","24.1","","97.73","","","","","","NA"
"-119.60","49.46","PENTICTON A","1126146","2023-04-15 04:00","2023","04","15","04:00","6.1","","-2.1","","56","","","","14","","17","","24.1","","97.75","","","","","","Mainly Clear"
"-119.60","49.46","PENTICTON A","1126146","2023-04-15 05:00","2023","04","15","05:00","5.8","","-2.3","","56","","","","14","","9","","24.1","","97.80","","","","","","NA"
"-119.60","49.46","PENTICTON A","1126146","2023-04-15 06:00","2023","04","15","06:00","3.6","","-2.5","","65","","","","3","","9","","24.1","","97.82","","","","","","NA"
"-119.60","49.46","PENTICTON A","1126146","2023-04-15 07:00","2023","04","15","07:00","5.8","","-0.3","","65","","","","35","","12","","24.1","","97.85","","","","","","Mainly Clear"
"-119.60","49.46","PENTICTON A","1126146","2023-04-15 08:00","2023","04","15","08:00","10.0","","-1.4","","45","","","","14","","18","","24.1","","97.81","","","","","","NA"
"-119.60","49.46","PENTICTON A","1126146","2023-04-15 09:00","2023","04","15","09:00","12.0","","-1.6","","39","","","","16","","21","","24.1","","97.77","","","","","","NA"
"-119.60","49.46","PENTICTON A","1126146","2023-04-15 10:00","2023","04","15","10:00","13.1","","-2.0","","35","","","","17","","36","","24.1","","97.75","","","","","","Mostly Cloudy"
"-119.60","49.46","PENTICTON A","1126146","2023-04-15 11:00","2023","04","15","11:00","12.7","","-2.1","","35","","","","17","","32","","24.1","","97.72","","","","","","NA"
"-119.60","49.46","PENTICTON A","1126146","2023-04-15 12:00","2023","04","15","12:00","13.1","","-1.8","","36","","","","17","","28","","24.1","","97.68","","","","","","NA"
"-119.60","49.46","PENTICTON A","1126146","2023-04-15 13:00","2023","04","15","13:00","13.8","","-1.6","","34","","","","17","","29","","24.1","","97.67","","","","","","Cloudy"
"-119.60","49.46","PENTICTON A","1126146","2023-04-15 14:00","2023","04","15","14:00","13.2","","-2.4","","34","","","","18","","30","","24.1","","97.68","","","","","","NA"
"-119.60","49.46","PENTICTON A","1126146","2023-04-15 15:00","2023","04","15","15:00","13.6","","-2.6","","32","","","","21","","34","","24.1","","97.67","","","","","","NA"
"-119.60","49.46","PENTICTON A","1126146","2023-04-15 16:00","2023","04","15","16:00","12.0","","-1.4","","39","","","","17","","27","","24.1","","97.69","","","","","","Cloudy"
"-119.60","49.46","PENTICTON A","1126146","2023-04-15 17:00","2023","04","15","17:00","11.5","","-0.7","","43","","","","18","","20","","24.1","","97.71","","","","","","NA"
"-119.60","49.46","PENTICTON A","1126146","2023-04-15 18:00","2023","04","15","18:00","11.8","","-0.5","","43","","","","15","","18","","24.1","","97.70","","","","","","NA"
"-119.60","49.46","PENTICTON A","1126146","2023-04-15 19:00","2023","04","15","19:00","9.0","","1.0","","57","","","","18","","16","","24.1","","97.67","","","","","","Mostly Cloudy"
"-119.60","49.46","PENTICTON A","1126146","2023-04-15 20:00","2023","04","15","20:00","9.4","","0.9","","55","","","","18","","12","","24.1","","97.67","","","","","","NA"
"-119.60","49.46","PENTICTON A","1126146","2023-04-15 21:00","2023","04","15","21:00","9.2","","0.6","","55","","","","16","","8","","24.1","","97.66","","","","","","NA"
"-119.60","49.46","PENTICTON A","1126146","2023-04-15 22:00","2023","04","15","22:00","9.5","","0.4","","53","","","","12","","4","","24.1","","97.64","","","","","","Mostly Cloudy"
"-119.60","49.46","PENTICTON A","1126146","2023-04-15 23:00","2023","04","15","23:00","9.6","","0.3","","52","","","","14","","9","","24.1","","97.61","","","","","","NA"
"-119.60","49.46","PENTICTON A","1126146","2023-04-16 00:00","2023","04","16","00:00","8.1","","0.8","","59","","","","34","","4","","24.1","","97.58","","","","","","NA"
"-119.60","49.46","PENTICTON A","1126146","2023-04-16 01:00","2023","04","16","01:00","8.5","","0.6","","58","","","","16","","7","","24.1","","97.54","","","","","","Mostly Cloudy"
"-119.60","49.46","PENTICTON A","1126146","2023-04-16 02:00","2023","04","16","02:00","7.6","","1.1","","63","","","","36","","3","","24.1","","97.47","","","","","","NA"
"-119.60","49.46","PENTICTON A","1126146","2023-04-16 03:00","2023","04","16","03:00","7.1","","1.0","","65","","","","36","","7","","24.1","","97.44","","","","","","NA"
"-119.60","49.46","PENTICTON A","1126146","2023-04-16 04:00","2023","04","16","04:00","5.3","","0.9","","73","","","","31","","9","","24.1","","97.41","","","","","","Mostly Cloudy"
"-119.60","49.46","PENTICTON A","1126146","2023-04-16 05:00","2023","04","16","05:00","3.2","","0.0","","80","","","","35","","4","","24.1","","97.36","","","","","","NA"
"-119.60","49.46","PENTICTON A","1126146","2023-04-16 06:00","2023","04","16","06:00","4.9","","1.4","","78","","","","25","","7","","24.1","","97.31","","","","","","NA"
"-119.60","49.46","PENTICTON A","1126146","2023-04-16 07:00","2023","04","16","07:00","6.4","","1.6","","71","","","","20","","9","","24.1","","97.24","","","","","","Mostly Cloudy"
"-119.60","49.46","PENTICTON A","1126146","2023-04-16 08:00","2023","04","16","08:00","8.6","","1.5","","61","","","","36","","8","","24.1","","97.14","","","","","","NA"
"-119.60","49.46","PENTICTON A","1126146","2023-04-16 09:00","2023","04","16","09:00","9.3","","1.3","","57","","","","35","","10","","24.1","","97.04","","","","","","NA"
"-119.60","49.46","PENTICTON A","1126146","2023-04-16 10:00","2023","04","16","10:00","11.8","","2.3","","52","","","","17","","10","","24.1","","96.93","","","","","","Mostly Cloudy"
"-119.60","49.46","PENTICTON A","1126146","2023-04-16 11:00","2023","04","16","11:00","13.5","","1.0","","42","","","","16","","44","","24.1","","96.83","","","","","","NA"
"-119.60","49.46","PENTICTON A","1126146","2023-04-16 12:00","2023","04","16","12:00","13.2","","1.1","","44","","","","17","","38","","24.1","","96.72","","","","","","NA"
"-119.60","49.46","PENTICTON A","1126146","2023-04-16 13:00","2023","04","16","13:00","11.5","","2.4","","54","","","","17","","39","","24.1","","96.76","","","","","","Rain"
"-119.60","49.46","PENTICTON A","1126146","2023-04-16 14:00","2023","04","16","14:00","10.1","","3.7","","64","","","","17","","26","","24.1","","96.74","","","","","","Rain"
"-119.60","49.46","PENTICTON A","1126146","2023-04-16 15:00","2023","04","16","15:00","8.9","","4.8","","75","","","","18","","31","","24.1","","96.73","","","","","","Rain"
"-119.60","49.46","PENTICTON A","1126146","2023-04-16 16:00","2023","04","16","16:00","9.8","","4.1","","68","","","","19","","27","","24.1","","96.65","","","","","","Cloudy"
"-119.60","49.46","PENTICTON A","1126146","2023-04-16 17:00","2023","04","16","17:00","11.1","","4.4","","63","","","","19","","22","","24.1","","96.63","","","","","","NA"
"-119.60","49.46","PENTICTON A","1126146","2023-04-16 18:00","2023","04","16","18:00","10.7","","4.2","","64","","","","19","","25","","24.1","","96.61","","","","","","NA"
"-119.60","49.46","PENTICTON A","1126146","2023-04-16 19:00","2023","04","16","19:00","8.5","","4.3","","75","","","","18","","11","","24.1","","96.59","","","","","","Thunderstorms,Rain Showers"
"-119.60","49.46","PENTICTON A","1126146","2023-04-16 20:00","2023","04","16","20:00","6.0","","2.6","","79","","","","34","","3","","24.1","","96.68","","","","","","Thunderstorms,Rain Showers"
"-119.60","49.46","PENTICTON A","1126146","2023-04-16 21:00","2023","04","16","21:00","3.8","","2.1","","89","","","","36","","2","","24.1","","96.69","","","","","","NA"
"-119.60","49.46","PENTICTON A","1126146","2023-04-16 22:00","2023","04","16","22:00","4.5","","2.8","","89","","","","4","","4","","24.1","","96.72","","","","","","Mostly Cloudy"
"-119.60","49.46","PENTICTON A","1126146","2023-04-16 23:00","2023","04","16","23:00","4.2","","1.7","","84","","","","1","","18","","24.1","","96.80","","","","","","NA"
"-119.60","49.46","PENTICTON A","1126146","2023-04-17 00:00","2023","04","17","00:00","6.5","","-2.1","","54","","","","1","","26","","24.1","","96.90","","","","","","NA"
"-119.60","49.46","PENTICTON A","1126146","2023-04-17 01:00","2023","04","17","01:00","5.2","","-3.8","","52","","","","3","","22","","24.1","","97.02","","","","","","Mostly Cloudy"
"-119.60","49.46","PENTICTON A","1126146","2023-04-17 02:00","2023","04","17","02:00","4.2","","-5.0","","51","","","","28","","4","","24.1","","97.04","","","","","","NA"
"-119.60","49.46","PENTICTON A","1126146","2023-04-17 03:00","2023","04","17","03:00","1.3","","-4.1","","67","","","","6","","7","","24.1","","97.07","","","","","","NA"
"-119.60","49.46","PENTICTON A","1126146","2023-04-17 04:00","2023","04","17","04:00","-0.9","","-5.1","","73","","","","1","","4","","24.1","","97.10","","","","-2","","Mainly Clear"
"-119.60","49.46","PENTICTON A","1126146","2023-04-17 05:00","2023","04","17","05:00","-1.9","","-5.9","","74","","","","1","","9","","24.1","","97.10","","","","-5","","NA"
"-119.60","49.46","PENTICTON A","1126146","2023-04-17 06:00","2023","04","17","06:00","-0.2","","-4.8","","71","","","","6","","5","","24.1","","97.08","","","","-2","","NA"
"-119.60","49.46","PENTICTON A","1126146","2023-04-17 07:00","2023","04","17","07:00","3.4","","-2.7","","65","","","","16","","3","","24.1","","97.08","","","","","","Clear"
"-119.60","49.46","PENTICTON A","1126146","2023-04-17 08:00","2023","04","17","08:00","5.1","","-2.1","","60","","","","18","","11","","24.1","","97.05","","","","","","NA"
"-119.60","49.46","PENTICTON A","1126146","2023-04-17 09:00","2023","04","17","09:00","7.7","","-4.2","","42","","","","16","","17","","24.1","","96.96","","","","","","NA"
"-119.60","49.46","PENTICTON A","1126146","2023-04-17 10:00","2023","04","17","10:00","9.3","","-6.5","","32","","","","17","","25","","24.1","","96.88","","","","","","Mainly Clear"
"-119.60","49.46","PENTICTON A","1126146","2023-04-17 11:00","2023","04","17","11:00","10.7","","-7.7","","27","","","","17","","26","","24.1","","96.81","","","","","","NA"
"-119.60","49.46","PENTICTON A","1126146","2023-04-17 12:00","2023","04","17","12:00","11.5","","-5.0","","31","","","","17","","26","","24.1","","96.71","","","","","","NA"
"-119.60","49.46","PENTICTON A","1126146","2023-04-17 13:00","2023","04","17","13:00","12.4","","-8.9","","22","","","","17","","24","","24.1","","96.56","","","","","","Mainly Clear"
"-119.60","49.46","PENTICTON A","1126146","2023-04-17 14:00","2023","04","17","14:00","13.2","","-8.1","","22","","","","18","","21","","24.1","","96.40","","","","","","NA"
"-119.60","49.46","PENTICTON A","1126146","2023-04-17 15:00","2023","04","17","15:00","13.2","","-8.7","","21","","","","18","","24","","24.1","","96.29","","","","","","NA"
"-119.60","49.46","PENTICTON A","1126146","2023-04-17 16:00","2023","04","17","16:00","11.7","","-6.2","","28","","","","16","","26","","24.1","","96.26","","","","","","Mainly Clear"
"-119.60","49.46","PENTICTON A","1126146","2023-04-17 17:00","2023","04","17","17:00","10.9","","-4.7","","33","","","","17","","27","","24.1","","96.24","","","","","","NA"
"-119.60","49.46","PENTICTON A","1126146","2023-04-17 18:00","2023","04","17","18:00","10.4","","-4.2","","36","","","","17","","31","","24.1","","96.22","","","","","","NA"
"-119.60","49.46","PENTICTON A","1126146","2023-04-17 19:00","2023","04","17","19:00","8.2","","-1.2","","52","","","","18","","23","","24.1","","96.31","","","","","","Rain Showers"
"-119.60","49.46","PENTICTON A","1126146","2023-04-17 20:00","2023","04","17","20:00","7.5","","-0.6","","57","","","","18","","19","","24.1","","96.30","","","","","","Rain Showers"
"-119.60","49.46","PENTICTON A","1126146","2023-04-17 21:00","2023","04","17","21:00","7.4","","-1.0","","55","","","","17","","18","","24.1","","96.29","","","","","","NA"
"-119.60","49.46","PENTICTON A","1126146","2023-04-17 22:00","2023","04","17","22:00","6.6","","-0.2","","62","","","","14","","8","","24.1","","96.27","","","","","","Cloudy"
"-119.60","49.46","PENTICTON A","1126146","2023-04-17 23:00","2023","04","17","23:00","7.1","","-0.8","","57","","","","21","","8","","24.1","","96.22","","","","","","NA"
"-119.60","49.46","PENTICTON A","1126146","2023-04-18 00:00","2023","04","18","00:00","6.0","","-0.1","","65","","","","15","","9","","24.1","","96.19","","","","","","NA"
"-119.60","49.46","PENTICTON A","1126146","2023-04-18 01:00","2023","04","18","01:00","4.7","","0.0","","72","","","","30","","8","","24.1","","96.14","","","","","","Cloudy"
"-119.60","49.46","PENTICTON A","1126146","2023-04-18 02:00","2023","04","18","02:00","4.0","","0.2","","76","","","","1","","10","","24.1","","96.12","","","","","","NA"
"-119.60","49.46","PENTICTON A","1126146","2023-04-18 03:00","2023","04","18","03:00","4.3","","0.3","","75","","","","34","","10","","24.1","","96.09","","","","","","NA"
"-119.60","49.46","PENTICTON A","1126146","2023-04-18 04:00","2023","04","18","04:00","4.0","","0.4","","78","","","","32","","7","","24.1","","96.14","","","","","","Cloudy"
"-119.60","49.46","PENTICTON A","1126146","2023-04-18 05:00","2023","04","18","05:00","4.6","","0.8","","76","","","","1","","8","","24.1","","96.18","","","","","","NA"
"-119.60","49.46","PENTICTON A","1126146","2023-04-18 06:00","2023","04","18","06:00","5.7","","1.1","","72","","","","36","","3","","24.1","","96.24","","","","","","NA"
"-119.60","49.46","PENTICTON A","1126146","2023-04-18 07:00","2023","04","18","07:00","6.2","","2.3","","76","","","","19","","5","","24.1","","96.30","","","","","","Cloudy"
"-119.60","49.46","PENTICTON A","1126146","2023-04-18 08:00","2023","04","18","08:00","5.5","","0.9","","72","","","","5","","10","","24.1","","96.38","","","","","","NA"
"-119.60","49.46","PENTICTON A","1126146","2023-04-18 09:00","2023","04","18","09:00","7.0","","1.3","","67","","","","34","","5","","24.1","","96.45","","","","","","NA"
"-119.60","49.46","PENTICTON A","1126146","2023-04-18 10:00","2023","04","18","10:00","8.7","","0.9","","58","","","","15","","6","","24.1","","96.49","","","","","","Mostly Cloudy"
"-119.60","49.46","PENTICTON A","1126146","2023-04-18 11:00","2023","04","18","11:00","10.1","","-0.6","","47","","","","18","","16","","24.1","","96.54","","","","","","NA"
"-119.60","49.46","PENTICTON A","1126146","2023-04-18 12:00","2023","04","18","12:00","9.1","","-3.1","","42","","","","17","","22","","24.1","","96.60","","","","","","NA"
"-119.60","49.46","PENTICTON A","1126146","2023-04-18 13:00","2023","04","18","13:00","9.5","","-3.7","","39","","","","18","","19","","24.1","","96.65","","","","","","Mostly Cloudy"
"-119.60","49.46","PENTICTON A","1126146","2023-04-18 14:00","2023","04","18","14:00","11.2","","-5.3","","31","","","","19","","21","","24.1","","96.68","","","","","","NA"
"-119.60","49.46","PENTICTON A","1126146","2023-04-18 15:00","2023","04","18","15:00","10.7","","-6.0","","30","","","","19","","16","","24.1","","96.75","","","","","","NA"
"-119.60","49.46","PENTICTON A","1126146","2023-04-18 16:00","2023","04","18","16:00","8.7","","-2.3","","46","","","","2","","27","","24.1","","96.84","","","","","","Mostly Cloudy"
"-119.60","49.46","PENTICTON A","1126146","2023-04-18 17:00","2023","04","18","17:00","8.7","","-3.2","","43","","","","33","","12","","24.1","","96.94","","","","","","NA"
"-119.60","49.46","PENTICTON A","1126146","2023-04-18 18:00","2023","04","18","18:00","7.8","","-2.4","","48","","","","3","","14","","24.1","","97.03","","","","","","NA"
"-119.60","49.46","PENTICTON A","1126146","2023-04-18 19:00","2023","04","18","19:00","7.6","","-2.5","","49","","","","18","","7","","24.1","","97.12","","","","","","Cloudy"
"-119.60","49.46","PENTICTON A","1126146","2023-04-18 20:00","2023","04","18","20:00","6.1","","-1.6","","58","","","","13","","8","","24.1","","97.21","","","","","","NA"
"-119.60","49.46","PENTICTON A","1126146","2023-04-18 21:00","2023","04","18","21:00","3.7","","-2.6","","63","","","","2","","5","","24.1","","97.25","","","","","","NA"
"-119.60","49.46","PENTICTON A","1126146","2023-04-18 22:00","2023","04","18","22:00","2.0","","-3.3","","68","","","","3","","4","","24.1","","97.26","","","","","","Mostly Cloudy"
"-119.60","49.46","PENTICTON A","1126146","2023-04-18 23:00","2023","04","18","23:00","0.9","","-3.3","","73","","","","36","","4","","24.1","","97.27","","","","","","NA"
"-119.60","49.46","PENTICTON A","1126146","2023-04-19 00:00","2023","04","19","00:00","2.1","","-2.6","","71","","","","34","","10","","24.1","","97.33","","","","","","NA"
"-119.60","49.46","PENTICTON A","1126146","2023-04-19 01:00","2023","04","19","01:00","-1.0","","-3.9","","81","","","","34","","10","","24.1","","97.36","","","","-5","","Mostly Cloudy"
"-119.60","49.46","PENTICTON A","1126146","2023-04-19 02:00","2023","04","19","02:00","-2.2","","-5.0","","81","","","","35","","5","","24.1","","97.42","","","","-4","","NA"
"-119.60","49.46","PENTICTON A","1126146","2023-04-19 03:00","2023","04","19","03:00","-2.5","","-5.0","","83","","","","1","","7","","24.1","","97.47","","","","-5","","NA"
"-119.60","49.46","PENTICTON A","1126146","2023-04-19 04:00","2023","04","19","04:00","-3.3","","-5.3","","86","","","","32","","4","","24.1","","97.54","","","","-5","","Mainly Clear"
"-119.60","49.46","PENTICTON A","1126146","2023-04-19 05:00","2023","04","19","05:00","-2.3","","-4.6","","84","","","","1","","13","","24.1","","97.58","","","","-7","","NA"
"-119.60","49.46","PENTICTON A","1126146","2023-04-19 06:00","2023","04","19","06:00","-1.5","","-4.4","","81","","","","33","","10","","24.1","","97.64","","","","-5","","NA"
"-119.60","49.46","PENTICTON A","1126146","2023-04-19 07:00","2023","04","19","07:00","2.9","","-2.1","","69","","","","1","","8","","24.1","","97.68","","","","","","Mainly Clear"
"-119.60","49.46","PENTICTON A","1126146","2023-04-19 08:00","2023","04","19","08:00","4.3","","-1.5","","66","","","","36","","16","","24.1","","97.70","","","","","","NA"
"-119.60","49.46","PENTICTON A","1126146","2023-04-19 09:00","2023","04","19","09:00","5.5","","-1.1","","62","","","","35","","12","","24.1","","97.69","","","","","","NA"
"-119.60","49.46","PENTICTON A","1126146","2023-04-19 10:00","2023","04","19","10:00","6.9","","-1.4","","55","","","","35","","10","","32.2","","97.69","","","","","","Mainly Clear"
"-119.60","49.46","PENTICTON A","1126146","2023-04-19 11:00","2023","04","19","11:00","8.9","","-1.1","","49","","","","32","","8","","24.1","","97.66","","","","","","NA"
"-119.60","49.46","PENTICTON A","1126146","2023-04-19 12:00","2023","04","19","12:00","11.8","","-3.5","","34","","","","17","","14","","24.1","","97.62","","","","","","NA"
"-119.60","49.46","PENTICTON A","1126146","2023-04-19 13:00","2023","04","19","13:00","13.3","","-5.8","","26","","","","16","","24","","24.1","","97.60","","","","","","Mainly Clear"
"-119.60","49.46","PENTICTON A","1126146","2023-04-19 14:00","2023","04","19","14:00","13.8","","-5.3","","26","","","","16","","21","","24.1","","97.60","","","","","","NA"
"-119.60","49.46","PENTICTON A","1126146","2023-04-19 15:00","2023","04","19","15:00","12.4","","-4.7","","30","","","","17","","26","","24.1","","97.60","","","","","","NA"
"-119.60","49.46","PENTICTON A","1126146","2023-04-19 16:00","2023","04","19","16:00","12.1","","-4.7","","30","","","","8","","14","","24.1","","97.64","","","","","","Mainly Clear"
"-119.60","49.46","PENTICTON A","1126146","2023-04-19 17:00","2023","04","19","17:00","12.4","","-3.1","","34","","","","20","","27","","24.1","","97.70","","","","","","NA"
"-119.60","49.46","PENTICTON A","1126146","2023-04-19 18:00","2023","04","19","18:00","10.1","","-2.6","","41","","","","16","","14","","24.1","","97.80","","","","","","NA"
"-119.60","49.46","PENTICTON A","1126146","2023-04-19 19:00","2023","04","19","19:00","8.9","","-2.4","","45","","","","24","","4","","24.1","","97.88","","","","","","Mostly Cloudy"
"-119.60","49.46","PENTICTON A","1126146","2023-04-19 20:00","2023","04","19","20:00","8.8","","-3.0","","43","","","","16","","7","","24.1","","97.99","","","","","","NA"
"-119.60","49.46","PENTICTON A","1126146","2023-04-19 21:00","2023","04","19","21:00","8.2","","-1.2","","52","","","","1","","16","","24.1","","98.08","","","","","","NA"
"-119.60","49.46","PENTICTON A","1126146","2023-04-19 22:00","2023","04","19","22:00","6.7","","-0.1","","62","","","","1","","10","","24.1","","98.17","","","","","","Mostly Cloudy"
"-119.60","49.46","PENTICTON A","1126146","2023-04-19 23:00","2023","04","19","23:00","5.2","","-0.6","","66","","","","31","","7","","24.1","","98.23","","","","","","NA"
"-119.60","49.46","PENTICTON A","1126146","2023-04-20 00:00","2023","04","20","00:00","3.4","","-0.3","","77","","","","36","","3","","24.1","","98.28","","","","","","NA"
"-119.60","49.46","PENTICTON A","1126146","2023-04-20 01:00","2023","04","20","01:00","0.5","","-2.3","","81","","","","36","","8","","24.1","","98.33","","","","","","Mostly Cloudy"
"-119.60","49.46","PENTICTON A","1126146","2023-04-20 02:00","2023","04","20","02:00","0.2","","-2.8","","80","","","","5","","4","","24.1","","98.39","","","","","","NA"
"-119.60","49.46","PENTICTON A","1126146","2023-04-20 03:00","2023","04","20","03:00","-1.1","","-3.3","","85","","","","4","","3","","24.1","","98.45","","","","-2","","NA"
"-119.60","49.46","PENTICTON A","1126146","2023-04-20 04:00","2023","04","20","04:00","-2.6","","-4.6","","87","","","","1","","4","","24.1","","98.49","","","","-4","","Clear"
"-119.60","49.46","PENTICTON A","1126146","2023-04-20 05:00","2023","04","20","05:00","-3.2","","-5.1","","87","","","","36","","3","","24.1","","98.52","","","","-4","","NA"
"-119.60","49.46","PENTICTON A","1126146","2023-04-20 06:00","2023","04","20","06:00","-1.0","","-3.2","","86","","","","36","","1","","24.1","","98.54","","","","-1","","NA"
"-119.60","49.46","PENTICTON A","1126146","2023-04-20 07:00","2023","04","20","07:00","3.5","","-0.6","","74","","","","15","","6","","24.1","","98.59","","","","","","Mainly Clear"
"-119.60","49.46","PENTICTON A","1126146","2023-04-20 08:00","2023","04","20","08:00","6.1","","-2.0","","56","","","","17","","9","","24.1","","98.55","","","","","","NA"
"-119.60","49.46","PENTICTON A","1126146","2023-04-20 09:00","2023","04","20","09:00","8.5","","-1.6","","49","","","","15","","18","","24.1","","98.46","","","","","","NA"
"-119.60","49.46","PENTICTON A","1126146","2023-04-20 10:00","2023","04","20","10:00","9.7","","-1.2","","46","","","","16","","24","","24.1","","98.39","","","","","","Mostly Cloudy"
"-119.60","49.46","PENTICTON A","1126146","2023-04-20 11:00","2023","04","20","11:00","10.7","","-1.9","","41","","","","17","","26","","24.1","","98.33","","","","","","NA"
"-119.60","49.46","PENTICTON A","1126146","2023-04-20 12:00","2023","04","20","12:00","10.4","","-2.8","","39","","","","17","","27","","24.1","","98.27","","","","","","NA"
"-119.60","49.46","PENTICTON A","1126146","2023-04-20 13:00","2023","04","20","13:00","11.1","","-2.4","","39","","","","16","","34","","24.1","","98.25","","","","","","Cloudy"
"-119.60","49.46","PENTICTON A","1126146","2023-04-20 14:00","2023","04","20","14:00","10.3","","-3.5","","38","","","","17","","35","","24.1","","98.20","","","","","","NA"
"-119.60","49.46","PENTICTON A","1126146","2023-04-20 15:00","2023","04","20","15:00","10.3","","-3.3","","38","","","","17","","34","","24.1","","98.14","","","","","","NA"
"-119.60","49.46","PENTICTON A","1126146","2023-04-20 16:00","2023","04","20","16:00","10.3","","-4.1","","36","","","","17","","28","","24.1","","98.10","","","","","","Cloudy"
"-119.60","49.46","PENTICTON A","1126146","2023-04-20 17:00","2023","04","20","17:00","9.9","","-3.2","","40","","","","16","","27","","24.1","","98.04","","","","","","NA"
"-119.60","49.46","PENTICTON A","1126146","2023-04-20 18:00","2023","04","20","18:00","9.5","","-3.6","","39","","","","18","","29","","24.1","","97.99","","","","","","NA"
"-119.60","49.46","PENTICTON A","1126146","2023-04-20 19:00","2023","04","20","19:00","8.7","","-4.2","","40","","","","17","","25","","24.1","","97.98","","","","","","Cloudy"
"-119.60","49.46","PENTICTON A","1126146","2023-04-20 20:00","2023","04","20","20:00","8.4","","-3.6","","43","","","","17","","36","","16.1","","98.03","","","","","","NA"
"-119.60","49.46","PENTICTON A","1126146","2023-04-20 21:00","2023","04","20","21:00","6.7","","-1.4","","56","","","","17","","28","","12.9","","98.09","","","","","","Rain"
"-119.60","49.46","PENTICTON A","1126146","2023-04-20 22:00","2023","04","20","22:00","5.3","","0.4","","70","","","","16","","28","","12.9","","98.10","","","","","","Rain"
"-119.60","49.46","PENTICTON A","1126146","2023-04-20 23:00","2023","04","20","23:00","5.2","","0.2","","70","","","","18","","22","","16.1","","98.07","","","","","","NA"
"-119.60","49.46","PENTICTON A","1126146","2023-04-21 00:00","2023","04","21","00:00","4.8","","0.5","","74","","","","17","","15","","19.3","","98.08","","","","","","NA"
"-119.60","49.46","PENTICTON A","1126146","2023-04-21 01:00","2023","04","21","01:00","4.9","","0.4","","73","","","","16","","15","","24.1","","98.12","","","","","","Cloudy"
"-119.60","49.46","PENTICTON A","1126146","2023-04-21 02:00","2023","04","21","02:00","4.7","","0.5","","74","","","","17","","15","","24.1","","98.15","","","","","","NA"
"-119.60","49.46","PENTICTON A","1126146","2023-04-21 03:00","2023","04","21","03:00","4.5","","0.6","","76","","","","18","","15","","24.1","","98.23","","","","","","NA"
"-119.60","49.46","PENTICTON A","1126146","2023-04-21 04:00","2023","04","21","04:00","4.0","","0.7","","79","","","","18","","14","","24.1","","98.26","","","","","","Mostly Cloudy"
"-119.60","49.46","PENTICTON A","1126146","2023-04-21 05:00","2023","04","21","05:00","3.8","","0.4","","79","","","","17","","12","","24.1","","98.33","","","","","","NA"
"-119.60","49.46","PENTICTON A","1126146","2023-04-21 06:00","2023","04","21","06:00","4.3","","0.7","","77","","","","17","","7","","24.1","","98.40","","","","","","NA"
"-119.60","49.46","PENTICTON A","1126146","2023-04-21 07:00","2023","04","21","07:00","5.1","","0.9","","74","","","","14","","9","","24.1","","98.45","","","","","","Mainly Clear"
"-119.60","49.46","PENTICTON A","1126146","2023-04-21 08:00","2023","04","21","08:00","6.3","","0.2","","65","","","","15","","10","","24.1","","98.48","","","","","","NA"
"-119.60","49.46","PENTICTON A","1126146","2023-04-21 09:00","2023","04","21","09:00","8.3","","-1.0","","52","","","","18","","9","","24.1","","98.49","","","","","","NA"
"-119.60","49.46","PENTICTON A","1126146","2023-04-21 10:00","2023","04","21","10:00","8.9","","-1.4","","49","","","","14","","5","","24.1","","98.49","","","","","","Mostly Cloudy"
"-119.60","49.46","PENTICTON A","1126146","2023-04-21 11:00","2023","04","21","11:00","10.6","","-2.6","","39","","","","36","","10","","24.1","","98.49","","","","","","NA"
"-119.60","49.46","PENTICTON A","1126146","2023-04-21 12:00","2023","04","21","12:00","12.0","","-1.8","","38","","","","2","","12","","24.1","","98.50","","","","","","NA"
"-119.60","49.46","PENTICTON A","1126146","2023-04-21 13:00","2023","04","21","13:00","11.6","","-0.6","","43","","","","1","","17","","24.1","","98.48","","","","","","Mostly Cloudy"
"-119.60","49.46","PENTICTON A","1126146","2023-04-21 14:00","2023","04","21","14:00","11.8","","-1.2","","41","","","","1","","19","","24.1","","98.45","","","","","","NA"
"-119.60","49.46","PENTICTON A","1126146","2023-04-21 15:00","2023","04","21","15:00","11.0","","-0.1","","46","","","","34","","13","","24.1","","98.43","","","","","","NA"
"-119.60","49.46","PENTICTON A","1126146","2023-04-21 16:00","2023","04","21","16:00","11.0","","-1.6","","41","","","","36","","16","","24.1","","98.42","","","","","","Mostly Cloudy"
"-119.60","49.46","PENTICTON A","1126146","2023-04-21 17:00","2023","04","21","17:00","10.8","","-2.3","","40","","","","2","","7","","24.1","","98.41","","","","","","NA"
"-119.60","49.46","PENTICTON A","1126146","2023-04-21 18:00","2023","04","21","18:00","10.0","","-1.7","","44","","","","34","","6","","24.1","","98.41","","","","","","NA"
"-119.60","49.46","PENTICTON A","1126146","2023-04-21 19:00","2023","04","21","19:00","8.8","","-0.9","","51","","","","34","","8","","24.1","","98.40","","","","","","Cloudy"
"-119.60","49.46","PENTICTON A","1126146","2023-04-21 20:00","2023","04","21","20:00","8.2","","-0.6","","54","","","","35","","9","","24.1","","98.42","","","","","","NA"
"-119.60","49.46","PENTICTON A","1126146","2023-04-21 21:00","2023","04","21","21:00","7.8","","-0.1","","57","","","","34","","4","","24.1","","98.44","","","","","","NA"
"-119.60","49.46","PENTICTON A","1126146","2023-04-21 22:00","2023","04","21","22:00","7.7","","-0.6","","55","","","","4","","3","","24.1","","98.42","","","","","","Cloudy"
"-119.60","49.46","PENTICTON A","1126146","2023-04-21 23:00","2023","04","21","23:00","6.5","","1.4","","70","","","","19","","7","","24.1","","98.40","","","","","","NA"
"-119.60","49.46","PENTICTON A","1126146","2023-04-22 00:00","2023","04","22","00:00","6.5","","0.5","","65","","","","6","","4","","24.1","","98.39","","","","","","NA"
"-119.60","49.46","PENTICTON A","1126146","2023-04-22 01:00","2023","04","22","01:00","6.1","","0.2","","66","","","","36","","11","","24.1","","98.38","","","","","","Mostly Cloudy"
"-119.60","49.46","PENTICTON A","1126146","2023-04-22 02:00","2023","04","22","02:00","5.5","","0.0","","68","","","","","","0","","24.1","","98.34","","","","","","NA"
"-119.60","49.46","PENTICTON A","1126146","2023-04-22 03:00","2023","04","22","03:00","4.0","","0.0","","75","","","","36","","3","","24.1","","98.32","","","","","","NA"
"-119.60","49.46","PENTICTON A","1126146","2023-04-22 04:00","2023","04","22","04:00","2.9","","-1.4","","74","","","","36","","3","","24.1","","98.31","","","","","","Mostly Cloudy"
"-119.60","49.46","PENTICTON A","1126146","2023-04-22 05:00","2023","04","22","05:00","2.8","","-0.5","","79","","","","36","","2","","22.5","","98.29","","","","","","NA"
"-119.60","49.46","PENTICTON A","1126146","2023-04-22 06:00","2023","04","22","06:00","3.1","","-0.3","","78","","","","36","","2","","24.1","","98.27","","","","","","NA"
"-119.60","49.46","PENTICTON A","1126146","2023-04-22 07:00","2023","04","22","07:00","6.3","","0.8","","68","","","","15","","5","","24.1","","98.25","","","","","","Mostly Cloudy"
"-119.60","49.46","PENTICTON A","1126146","2023-04-22 08:00","2023","04","22","08:00","8.2","","0.0","","56","","","","36","","2","","24.1","","98.21","","","","","","NA"
"-119.60","49.46","PENTICTON A","1126146","2023-04-22 09:00","2023","04","22","09:00","8.8","","-0.6","","52","","","","15","","12","","24.1","","98.14","","","","","","NA"
"-119.60","49.46","PENTICTON A","1126146","2023-04-22 10:00","2023","04","22","10:00","10.6","","0.5","","49","","","","17","","21","","24.1","","98.06","","","","","","Cloudy"
"-119.60","49.46","PENTICTON A","1126146","2023-04-22 11:00","2023","04","22","11:00","12.1","","0.5","","45","","","","17","","19","","24.1","","97.98","","","","","","NA"
"-119.60","49.46","PENTICTON A","1126146","2023-04-22 12:00","2023","04","22","12:00","13.0","","0.6","","42","","","","17","","22","","24.1","","97.91","","","","","","NA"
"-119.60","49.46","PENTICTON A","1126146","2023-04-22 13:00","2023","04","22","13:00","14.2","","0.2","","38","","","","17","","22","","24.1","","97.83","","","","","","Cloudy"
"-119.60","49.46","PENTICTON A","1126146","2023-04-22 14:00","2023","04","22","14:00","14.5","","-0.5","","36","","","","16","","26","","24.1","","97.76","","","","","","NA"
"-119.60","49.46","PENTICTON A","1126146","2023-04-22 15:00","2023","04","22","15:00","14.9","","0.2","","36","","","","17","","21","","24.1","","97.66","","","","","","NA"
"-119.60","49.46","PENTICTON A","1126146","2023-04-22 16:00","2023","04","22","16:00","16.0","","1.0","","36","","","","16","","21","","24.1","","97.57","","","","","","Mostly Cloudy"
"-119.60","49.46","PENTICTON A","1126146","2023-04-22 17:00","2023","04","22","17:00","15.0","","1.6","","40","","","","18","","27","","24.1","","97.49","","","","","","NA"
"-119.60","49.46","PENTICTON A","1126146","2023-04-22 18:00","2023","04","22","18:00","13.1","","1.2","","44","","","","19","","20","","24.1","","97.43","","","","","","NA"
"-119.60","49.46","PENTICTON A","1126146","2023-04-22 19:00","2023","04","22","19:00","13.0","","1.3","","45","","","","18","","18","","24.1","","97.38","","","","","","Mostly Cloudy"
"-119.60","49.46","PENTICTON A","1126146","2023-04-22 20:00","2023","04","22","20:00","13.2","","1.4","","45","","","","19","","18","","24.1","","97.34","","","","","","NA"
"-119.60","49.46","PENTICTON A","1126146","2023-04-22 21:00","2023","04","22","21:00","13.2","","1.4","","44","","","","19","","24","","24.1","","97.28","","","","","","NA"
"-119.60","49.46","PENTICTON A","1126146","2023-04-22 22:00","2023","04","22","22:00","12.8","","1.5","","46","","","","19","","33","","24.1","","97.19","","","","","","Mostly Cloudy"
"-119.60","49.46","PENTICTON A","1126146","2023-04-22 23:00","2023","04","22","23:00","13.1","","1.4","","45","","","","19","","23","","24.1","","97.12","","","","","","NA"
"-119.60","49.46","PENTICTON A","1126146","2023-04-23 00:00","2023","04","23","00:00","12.9","","1.8","","47","","","","19","","29","","24.1","","97.12","","","","","","NA"
"-119.60","49.46","PENTICTON A","1126146","2023-04-23 01:00","2023","04","23","01:00","12.3","","2.7","","52","","","","17","","16","","24.1","","97.06","","","","","","Mostly Cloudy"
"-119.60","49.46","PENTICTON A","1126146","2023-04-23 02:00","2023","04","23","02:00","12.2","","2.4","","51","","","","17","","18","","24.1","","96.98","","","","","","NA"
"-119.60","49.46","PENTICTON A","1126146","2023-04-23 03:00","2023","04","23","03:00","12.1","","2.7","","52","","","","18","","23","","24.1","","96.94","","","","","","NA"
"-119.60","49.46","PENTICTON A","1126146","2023-04-23 04:00","2023","04","23","04:00","10.9","","4.0","","62","","","","19","","27","","19.3","","96.91","","","","","","Rain"
"-119.60","49.46","PENTICTON A","1126146","2023-04-23 05:00","2023","04","23","05:00","11.4","","2.9","","56","","","","19","","33","","24.1","","96.86","","","","","","NA"
"-119.60","49.46","PENTICTON A","1126146","2023-04-23 06:00","2023","04","23","06:00","10.8","","3.5","","60","","","","19","","27","","24.1","","96.86","","","","","","NA"
"-119.60","49.46","PENTICTON A","1126146","2023-04-23 07:00","2023","04","23","07:00","11.5","","3.1","","56","","","","19","","25","","24.1","","96.87","","","","","","Cloudy"
"-119.60","49.46","PENTICTON A","1126146","2023-04-23 08:00","2023","04","23","08:00","10.6","","3.1","","60","","","","18","","30","","24.1","","96.85","","","","","","Rain"
"-119.60","49.46","PENTICTON A","1126146","2023-04-23 09:00","2023","04","23","09:00","11.2","","2.8","","56","","","","17","","25","","24.1","","96.86","","","","","","NA"
"-119.60","49.46","PENTICTON A","1126146","2023-04-23 10:00","2023","04","23","10:00","11.7","","2.8","","54","","","","18","","27","","24.1","","96.86","","","","","","Rain"
"-119.60","49.46","PENTICTON A","1126146","2023-04-23 11:00","2023","04","23","11:00","12.7","","3.4","","53","","","","16","","21","","24.1","","96.82","","","","","","NA"
"-119.60","49.46","PENTICTON A","1126146","2023-04-23 12:00","2023","04","23","12:00","13.1","","3.6","","52","","","","16","","21","","24.1","","96.76","","","","","","NA"
"-119.60","49.46","PENTICTON A","1126146","2023-04-23 13:00","2023","04","23","13:00","12.9","","3.8","","54","","","","16","","22","","24.1","","96.73","","","","","","Cloudy"
"-119.60","49.46","PENTICTON A","1126146","2023-04-23 14:00","2023","04","23","14:00","13.2","","4.1","","54","","","","16","","17","","24.1","","96.68","","","","","","NA"
"-119.60","49.46","PENTICTON A","1126146","2023-04-23 15:00","2023","04","23","15:00","13.1","","4.4","","55","","","","16","","25","","24.1","","96.64","","","","","","NA"
"-119.60","49.46","PENTICTON A","1126146","2023-04-23 16:00","2023","04","23","16:00","13.1","","4.7","","56","","","","17","","19","","24.1","","96.63","","","","","","Mostly Cloudy"
"-119.60","49.46","PENTICTON A","1126146","2023-04-23 17:00","2023","04","23","17:00","12.8","","4.9","","59","","","","15","","16","","24.1","","96.63","","","","","","NA"
"-119.60","49.46","PENTICTON A","1126146","2023-04-23 18:00","2023","04","23","18:00","8.6","","6.3","","86","","","","34","","18","","24.1","","96.66","","","","","","Rain"
"-119.60","49.46","PENTICTON A","1126146","2023-04-23 19:00","2023","04","23","19:00","7.9","","6.6","","92","","","","34","","12","","24.1","","96.66","","","","","","Rain"
"-119.60","49.46","PENTICTON A","1126146","2023-04-23 20:00","2023","04","23","20:00","8.2","","6.8","","91","","","","33","","10","","24.1","","96.70","","","","","","Rain"
"-119.60","49.46","PENTICTON A","1126146","2023-04-23 21:00","2023","04","23","21:00","8.1","","7.0","","93","","","","2","","8","","24.1","","96.73","","","","","","Rain"
"-119.60","49.46","PENTICTON A","1126146","2023-04-23 22:00","2023","04","23","22:00","7.7","","6.5","","92","","","","2","","8","","12.9","","96.77","","","","","","Rain"
"-119.60","49.46","PENTICTON A","1126146","2023-04-23 23:00","2023","04","23","23:00","7.4","","6.5","","94","","","","31","","8","","24.1","","96.84","","","","","","Rain"
"-119.60","49.46","PENTICTON A","1126146","2023-04-24 00:00","2023","04","24","00:00","7.6","","6.0","","89","","","","31","","5","","24.1","","96.87","","","","","","Rain"
"-119.60","49.46","PENTICTON A","1126146","2023-04-24 01:00","2023","04","24","01:00","7.6","","5.6","","87","","","","29","","4","","24.1","","96.90","","","","","","Rain"
"-119.60","49.46","PENTICTON A","1126146","2023-04-24 02:00","2023","04","24","02:00","7.0","","5.9","","93","","","","4","","6","","24.1","","96.91","","","","","","Rain"
"-119.60","49.46","PENTICTON A","1126146","2023-04-24 03:00","2023","04","24","03:00","6.7","","5.4","","92","","","","3","","9","","24.1","","96.96","","","","","","NA"
"-119.60","49.46","PENTICTON A","1126146","2023-04-24 04:00","2023","04","24","04:00","6.1","","4.9","","92","","","","36","","11","","24.1","","97.03","","","","","","Mostly Cloudy"
"-119.60","49.46","PENTICTON A","1126146","2023-04-24 05:00","2023","04","24","05:00","5.7","","4.7","","93","","","","2","","7","","24.1","","97.08","","","","","","NA"
"-119.60","49.46","PENTICTON A","1126146","2023-04-24 06:00","2023","04","24","06:00","6.7","","5.7","","93","","","","5","","5","","24.1","","97.14","","","","","","NA"
"-119.60","49.46","PENTICTON A","1126146","2023-04-24 07:00","2023","04","24","07:00","8.1","","5.7","","85","","","","34","","9","","24.1","","97.21","","","","","","Mostly Cloudy"
"-119.60","49.46","PENTICTON A","1126146","2023-04-24 08:00","2023","04","24","08:00","9.2","","5.0","","75","","","","35","","5","","24.1","","97.24","","","","","","NA"
"-119.60","49.46","PENTICTON A","1126146","2023-04-24 09:00","2023","04","24","09:00","10.6","","5.1","","69","","","","1","","4","","80.5","","97.29","","","","","","NA"
"-119.60","49.46","PENTICTON A","1126146","2023-04-24 10:00","2023","04","24","10:00","12.1","","4.4","","59","","","","36","","11","","24.1","","97.35","","","","","","Mostly Cloudy"
"-119.60","49.46","PENTICTON A","1126146","2023-04-24 11:00","2023","04","24","11:00","13.3","","2.8","","49","","","","36","","8","","24.1","","97.39","","","","","","NA"
"-119.60","49.46","PENTICTON A","1126146","2023-04-24 12:00","2023","04","24","12:00","13.7","","1.4","","43","","","","34","","7","","24.1","","97.40","","","","","","NA"
"-119.60","49.46","PENTICTON A","1126146","2023-04-24 13:00","2023","04","24","13:00","13.9","","1.5","","43","","","","36","","7","","24.1","","97.43","","","","","","Mostly Cloudy"
"-119.60","49.46","PENTICTON A","1126146","2023-04-24 14:00","2023","04","24","14:00","14.7","","0.3","","37","","","","36","","1","","24.1","","97.45","","","","","","NA"
"-119.60","49.46","PENTICTON A","1126146","2023-04-24 15:00","2023","04","24","15:00","15.4","","1.8","","40","","","","36","","2","","24.1","","97.46","","","","","","NA"
"-119.60","49.46","PENTICTON A","1126146","2023-04-24 16:00","2023","04","24","16:00","15.6","","0.5","","35","","","","36","","1","","24.1","","97.45","","","","","","Mostly Cloudy"
"-119.60","49.46","PENTICTON A","1126146","2023-04-24 17:00","2023","04","24","17:00","16.0","","1.3","","37","","","","24","","8","","24.1","","97.44","","","","","","NA"
"-119.60","49.46","PENTICTON A","1126146","2023-04-24 18:00","2023","04","24","18:00","14.0","","2.9","","47","","","","1","","12","","24.1","","97.50","","","","","","NA"
"-119.60","49.46","PENTICTON A","1126146","2023-04-24 19:00","2023","04","24","19:00","11.8","","2.1","","51","","","","28","","5","","24.1","","97.60","","","","","","Mainly Clear"
"-119.60","49.46","PENTICTON A","1126146","2023-04-24 20:00","2023","04","24","20:00","10.9","","-0.2","","46","","","","36","","2","","24.1","","97.74","","","","","","NA"
"-119.60","49.46","PENTICTON A","1126146","2023-04-24 21:00","2023","04","24","21:00","8.9","","-0.5","","51","","","","31","","6","","24.1","","97.82","","","","","","NA"
"-119.60","49.46","PENTICTON A","1126146","2023-04-24 22:00","2023","04","24","22:00","5.2","","-0.5","","66","","","","1","","11","","24.1","","97.87","","","","","","Mainly Clear"
"-119.60","49.46","PENTICTON A","1126146","2023-04-24 23:00","2023","04","24","23:00","4.7","","-0.1","","71","","","","34","","8","","24.1","","97.97","","","","","","NA"
"-119.60","49.46","PENTICTON A","1126146","2023-04-25 00:00","2023","04","25","00:00","3.2","","-0.5","","76","","","","36","","3","","24.1","","97.97","","","","","","NA"
"-119.60","49.46","PENTICTON A","1126146","2023-04-25 01:00","2023","04","25","01:00","3.2","","-0.9","","75","","","","35","","4","","24.1","","97.99","","","","","","Clear"
"-119.60","49.46","PENTICTON A","1126146","2023-04-25 02:00","2023","04","25","02:00","1.1","","-2.1","","79","","","","36","","2","","24.1","","97.97","","","","","","NA"
"-119.60","49.46","PENTICTON A","1126146","2023-04-25 03:00","2023","04","25","03:00","1.2","","-1.3","","83","","","","35","","3","","24.1","","98.02","","","","","","NA"
"-119.60","49.46","PENTICTON A","1126146","2023-04-25 04:00","2023","04","25","04:00","1.7","","-1.4","","80","","","","36","","2","","24.1","","98.03","","","","","","Mainly Clear"
"-119.60","49.46","PENTICTON A","1126146","2023-04-25 05:00","2023","04","25","05:00","1.5","","-1.2","","83","","","","0","","1","","24.1","","98.04","","","","","","NA"
"-119.60","49.46","PENTICTON A","1126146","2023-04-25 06:00","2023","04","25","06:00","2.1","","-0.4","","84","","","","2","","8","","24.1","","98.09","","","","","","NA"
"-119.60","49.46","PENTICTON A","1126146","2023-04-25 07:00","2023","04","25","07:00","5.8","","1.1","","71","","","","15","","4","","24.1","","98.07","","","","","","Cloudy"
"-119.60","49.46","PENTICTON A","1126146","2023-04-25 08:00","2023","04","25","08:00","7.8","","0.8","","61","","","","17","","3","","24.1","","98.04","","","","","","NA"
"-119.60","49.46","PENTICTON A","1126146","2023-04-25 09:00","2023","04","25","09:00","10.2","","-0.4","","48","","","","28","","3","","24.1","","98.02","","","","","","NA"
"-119.60","49.46","PENTICTON A","1126146","2023-04-25 10:00","2023","04","25","10:00","12.0","","-0.3","","43","","","","18","","3","","24.1","","97.98","","","","","","Mostly Cloudy"
"-119.60","49.46","PENTICTON A","1126146","2023-04-25 11:00","2023","04","25","11:00","13.9","","-1.8","","34","","","","19","","7","","24.1","","97.93","","","","","","NA"
"-119.60","49.46","PENTICTON A","1126146","2023-04-25 12:00","2023","04","25","12:00","15.7","","-1.7","","30","","","","18","","8","","24.1","","97.85","","","","","","NA"
"-119.60","49.46","PENTICTON A","1126146","2023-04-25 13:00","2023","04","25","13:00","16.6","","-1.4","","29","","","","19","","9","","24.1","","97.81","","","","","","Mostly Cloudy"
"-119.60","49.46","PENTICTON A","1126146","2023-04-25 14:00","2023","04","25","14:00","17.8","","-0.8","","28","","","","20","","13","","24.1","","97.75","","","","","","NA"
"-119.60","49.46","PENTICTON A","1126146","2023-04-25 15:00","2023","04","25","15:00","19.1","","-0.5","","26","","","","16","","12","","24.1","","97.69","","","","","","NA"
"-119.60","49.46","PENTICTON A","1126146","2023-04-25 16:00","2023","04","25","16:00","19.3","","0.6","","28","","","","19","","11","","24.1","","97.63","","","","","","Mainly Clear"
"-119.60","49.46","PENTICTON A","1126146","2023-04-25 17:00","2023","04","25","17:00","18.3","","1.8","","33","","","","19","","7","","24.1","","97.60","","","","","","NA"
"-119.60","49.46","PENTICTON A","1126146","2023-04-25 18:00","2023","04","25","18:00","17.9","","1.1","","32","","","","17","","7","","24.1","","97.59","","","","","","NA"
"-119.60","49.46","PENTICTON A","1126146","2023-04-25 19:00","2023","04","25","19:00","13.9","","1.2","","42","","","","5","","4","","24.1","","97.62","","","","","","Mainly Clear"
"-119.60","49.46","PENTICTON A","1126146","2023-04-25 20:00","2023","04","25","20:00","9.6","","1.4","","57","","","","33","","16","","24.1","","97.75","","","","","","NA"
"-119.60","49.46","PENTICTON A","1126146","2023-04-25 21:00","2023","04","25","21:00","8.0","","0.7","","60","","","","36","","14","","24.1","","97.78","","","","","","NA"
"-119.60","49.46","PENTICTON A","1126146","2023-04-25 22:00","2023","04","25","22:00","10.1","","-0.7","","47","","","","4","","13","","24.1","","97.83","","","","","","Mainly Clear"
"-119.60","49.46","PENTICTON A","1126146","2023-04-25 23:00","2023","04","25","23:00","6.2","","1.4","","71","","","","15","","3","","24.1","","97.91","","","","","","NA"
"-119.60","49.46","PENTICTON A","1126146","2023-04-26 00:00","2023","04","26","00:00","4.9","","-1.0","","66","","","","2","","5","","24.1","","97.90","","","","","","NA"
"-119.60","49.46","PENTICTON A","1126146","2023-04-26 01:00","2023","04","26","01:00","5.7","","-0.3","","65","","","","24","","5","","24.1","","97.90","","","","","","Mainly Clear"
"-119.60","49.46","PENTICTON A","1126146","2023-04-26 02:00","2023","04","26","02:00","5.4","","0.0","","68","","","","9","","5","","24.1","","97.94","","","","","","NA"
"-119.60","49.46","PENTICTON A","1126146","2023-04-26 03:00","2023","04","26","03:00","5.7","","1.2","","73","","","","13","","5","","24.1","","97.89","","","","","","NA"
"-119.60","49.46","PENTICTON A","1126146","2023-04-26 04:00","2023","04","26","04:00","5.8","","1.3","","73","","","","7","","7","","24.1","","97.92","","","","","","Mostly Cloudy"
"-119.60","49.46","PENTICTON A","1126146","2023-04-26 05:00","2023","04","26","05:00","6.9","","2.2","","72","","","","36","","1","","24.1","","97.92","","","","","","NA"
"-119.60","49.46","PENTICTON A","1126146","2023-04-26 06:00","2023","04","26","06:00","7.9","","2.0","","66","","","","10","","4","","24.1","","97.87","","","","","","NA"
"-119.60","49.46","PENTICTON A","1126146","2023-04-26 07:00","2023","04","26","07:00","9.3","","3.3","","66","","","","3","","6","","24.1","","97.85","","","","","","Cloudy"
"-119.60","49.46","PENTICTON A","1126146","2023-04-26 08:00","2023","04","26","08:00","10.0","","3.3","","63","","","","18","","4","","24.1","","97.82","","","","","","NA"
"-119.60","49.46","PENTICTON A","1126146","2023-04-26 09:00","2023","04","26","09:00","11.1","","3.3","","59","","","","15","","8","","24.1","","97.77","","","","","","NA"
"-119.60","49.46","PENTICTON A","1126146","2023-04-26 10:00","2023","04","26","10:00","13.2","","3.0","","50","","","","17","","25","","24.1","","97.75","","","","","","Mostly Cloudy"
"-119.60","49.46","PENTICTON A","1126146","2023-04-26 11:00","2023","04","26","11:00","15.8","","3.5","","43","","","","16","","28","","24.1","","97.61","","","","","","NA"
"-119.60","49.46","PENTICTON A","1126146","2023-04-26 12:00","2023","04","26","12:00","17.1","","3.1","","39","","","","16","","31","","24.1","","97.52","","","","","","NA"
"-119.60","49.46","PENTICTON A","1126146","2023-04-26 13:00","2023","04","26","13:00","18.0","","3.4","","38","","","","17","","28","","24.1","","97.50","","","","","","Mostly Cloudy"
"-119.60","49.46","PENTICTON A","1126146","2023-04-26 14:00","2023","04","26","14:00","16.8","","4.7","","44","","","","18","","28","","24.1","","97.44","","","","","","NA"
"-119.60","49.46","PENTICTON A","1126146","2023-04-26 15:00","2023","04","26","15:00","17.4","","4.1","","41","","","","18","","23","","24.1","","97.39","","","","","","NA"
"-119.60","49.46","PENTICTON A","1126146","2023-04-26 16:00","2023","04","26","16:00","18.6","","5.0","","40","","","","17","","23","","24.1","","97.33","","","","","","Mostly Cloudy"
"-119.60","49.46","PENTICTON A","1126146","2023-04-26 17:00","2023","04","26","17:00","21.6","","4.6","","33","","","","26","","23","","24.1","","97.32","","","","","","NA"
"-119.60","49.46","PENTICTON A","1126146","2023-04-26 18:00","2023","04","26","18:00","19.5","","3.4","","34","","","","23","","15","","24.1","","97.29","","","","","","NA"
"-119.60","49.46","PENTICTON A","1126146","2023-04-26 19:00","2023","04","26","19:00","17.6","","2.4","","36","","","","25","","12","","24.1","","97.27","","","","","","Mainly Clear"
"-119.60","49.46","PENTICTON A","1126146","2023-04-26 20:00","2023","04","26","20:00","15.6","","0.6","","36","","","","4","","13","","24.1","","97.33","","","","","","NA"
"-119.60","49.46","PENTICTON A","1126146","2023-04-26 21:00","2023","04","26","21:00","15.4","","-0.1","","35","","","","33","","5","","24.1","","97.46","","","","","","NA"
"-119.60","49.46","PENTICTON A","1126146","2023-04-26 22:00","2023","04","26","22:00","14.0","","0.8","","40","","","","6","","16","","24.1","","97.55","","","","","","Mainly Clear"
"-119.60","49.46","PENTICTON A","1126146","2023-04-26 23:00","2023","04","26","23:00","9.2","","0.6","","55","","","","34","","5","","24.1","","97.67","","","","","","NA"
"-119.60","49.46","PENTICTON A","1126146","2023-04-27 00:00","2023","04","27","00:00","12.1","","0.4","","45","","","","30","","3","","24.1","","97.76","","","","","","NA"
"-119.60","49.46","PENTICTON A","1126146","2023-04-27 01:00","2023","04","27","01:00","10.2","","0.2","","50","","","","35","","10","","24.1","","97.85","","","","","","Clear"
"-119.60","49.46","PENTICTON A","1126146","2023-04-27 02:00","2023","04","27","02:00","6.3","","0.2","","65","","","","31","","5","","24.1","","97.94","","","","","","NA"
"-119.60","49.46","PENTICTON A","1126146","2023-04-27 03:00","2023","04","27","03:00","7.1","","0.4","","62","","","","33","","12","","24.1","","98.02","","","","","","NA"
"-119.60","49.46","PENTICTON A","1126146","2023-04-27 04:00","2023","04","27","04:00","7.9","","-0.9","","54","","","","35","","9","","24.1","","98.08","","","","","","Mainly Clear"
"-119.60","49.46","PENTICTON A","1126146","2023-04-27 05:00","2023","04","27","05:00","8.8","","-3.2","","42","","","","1","","15","","24.1","","98.19","","","","","","NA"
"-119.60","49.46","PENTICTON A","1126146","2023-04-27 06:00","2023","04","27","06:00","10.2","","-5.2","","33","","","","4","","12","","24.1","","98.31","","","","","","NA"
"-119.60","49.46","PENTICTON A","1126146","2023-04-27 07:00","2023","04","27","07:00","10.8","","-2.2","","40","","","","35","","13","","24.1","","98.36","","","","","","Cloudy"
"-119.60","49.46","PENTICTON A","1126146","2023-04-27 08:00","2023","04","27","08:00","13.3","","-6.9","","24","","","","2","","21","","24.1","","98.41","","","","","","NA"
"-119.60","49.46","PENTICTON A","1126146","2023-04-27 09:00","2023","04","27","09:00","14.1","","-6.7","","23","","","","36","","22","","24.1","","98.44","","","","","","NA"
"-119.60","49.46","PENTICTON A","1126146","2023-04-27 10:00","2023","04","27","10:00","15.5","","-8.0","","19","","","","36","","19","","24.1","","98.44","","","","","","Mostly Cloudy"
"-119.60","49.46","PENTICTON A","1126146","2023-04-27 11:00","2023","04","27","11:00","16.4","","-8.5","","17","","","","2","","16","","24.1","","98.43","","","","","","NA"
"-119.60","49.46","PENTICTON A","1126146","2023-04-27 12:00","2023","04","27","12:00","17.8","","-7.6","","17","","","","1","","13","","24.1","","98.37","","","","","","NA"
"-119.60","49.46","PENTICTON A","1126146","2023-04-27 13:00","2023","04","27","13:00","18.6","","-10.8","","13","","","","35","","13","","24.1","","98.31","","","","","","Mainly Clear"
"-119.60","49.46","PENTICTON A","1126146","2023-04-27 14:00","2023","04","27","14:00","19.3","","-8.0","","15","","","","36","","14","","24.1","","98.24","","","","","","NA"
"-119.60","49.46","PENTICTON A","1126146","2023-04-27 15:00","2023","04","27","15:00","18.7","","-5.9","","18","","","","33","","14","","24.1","","98.18","","","","","","NA"
"-119.60","49.46","PENTICTON A","1126146","2023-04-27 16:00","2023","04","27","16:00","18.5","","-5.5","","19","","","","35","","18","","24.1","","98.13","","","","","","Mainly Clear"
"-119.60","49.46","PENTICTON A","1126146","2023-04-27 17:00","2023","04","27","17:00","18.3","","-4.7","","20","","","","36","","16","","24.1","","98.10","","","","","","NA"
"-119.60","49.46","PENTICTON A","1126146","2023-04-27 18:00","2023","04","27","18:00","16.8","","-3.2","","25","","","","36","","11","","24.1","","98.08","","","","","","NA"
"-119.60","49.46","PENTICTON A","1126146","2023-04-27 19:00","2023","04","27","19:00","12.1","","-0.7","","41","","","","36","","9","","24.1","","98.09","","","","","","Mainly Clear"
"-119.60","49.46","PENTICTON A","1126146","2023-04-27 20:00","2023","04","27","20:00","11.2","","-1.8","","40","","","","36","","15","","24.1","","98.14","","","","","","NA"
"-119.60","49.46","PENTICTON A","1126146","2023-04-27 21:00","2023","04","27","21:00","10.6","","-2.5","","40","","","","2","","16","","24.1","","98.17","","","","","","NA"
"-119.60","49.46","PENTICTON A","1126146","2023-04-27 22:00","2023","04","27","22:00","9.3","","-2.7","","43","","","","36","","14","","24.1","","98.16","","","","","","Mainly Clear"
"-119.60","49.46","PENTICTON A","1126146","2023-04-27 23:00","2023","04","27","23:00","8.3","","-2.7","","46","","","","1","","13","","24.1","","98.19","","","","","","NA"
"-119.60","49.46","PENTICTON A","1126146","2023-04-28 00:00","2023","04","28","00:00","7.1","","-2.6","","50","","","","3","","10","","24.1","","98.22","","","","","","NA"
"-119.60","49.46","PENTICTON A","1126146","2023-04-28 01:00","2023","04","28","01:00","6.4","","-2.6","","52","","","","33","","4","","24.1","","98.22","","","","","","Mainly Clear"
"-119.60","49.46","PENTICTON A","1126146","2023-04-28 02:00","2023","04","28","02:00","4.6","","-1.7","","64","","","","0","","1","","24.1","","98.22","","","","","","NA"
"-119.60","49.46","PENTICTON A","1126146","2023-04-28 03:00","2023","04","28","03:00","6.1","","-1.7","","57","","","","2","","10","","24.1","","98.22","","","","","","NA"
"-119.60","49.46","PENTICTON A","1126146","2023-04-28 04:00","2023","04","28","04:00","6.0","","-0.6","","62","","","","2","","8","","24.1","","98.22","","","","","","Mostly Cloudy"
"-119.60","49.46","PENTICTON A","1126146","2023-04-28 05:00","2023","04","28","05:00","5.8","","-0.5","","64","","","","1","","3","","24.1","","98.21","","","","","","NA"
"-119.60","49.46","PENTICTON A","1126146","2023-04-28 06:00","2023","04","28","06:00","7.5","","0.3","","60","","","","36","","9","","24.1","","98.23","","","","","","NA"
"-119.60","49.46","PENTICTON A","1126146","2023-04-28 07:00","2023","04","28","07:00","10.6","","-0.8","","45","","","","35","","8","","24.1","","98.24","","","","","","Mainly Clear"
"-119.60","49.46","PENTICTON A","1126146","2023-04-28 08:00","2023","04","28","08:00","12.4","","-1.2","","39","","","","35","","13","","24.1","","98.21","","","","","","NA"
"-119.60","49.46","PENTICTON A","1126146","2023-04-28 09:00","2023","04","28","09:00","13.7","","-1.5","","35","","","","36","","13","","24.1","","98.12","","","","","","NA"
"-119.60","49.46","PENTICTON A","1126146","2023-04-28 10:00","2023","04","28","10:00","15.6","","-0.7","","33","","","","36","","10","","24.1","","98.05","","","","","","Mainly Clear"
"-119.60","49.46","PENTICTON A","1126146","2023-04-28 11:00","2023","04","28","11:00","17.9","","-1.2","","27","","","","25","","4","","24.1","","97.93","","","","","","NA"
"-119.60","49.46","PENTICTON A","1126146","2023-04-28 12:00","2023","04","28","12:00","18.2","","-0.5","","28","","","","36","","17","","24.1","","97.82","","","","","","NA"
"-119.60","49.46","PENTICTON A","1126146","2023-04-28 13:00","2023","04","28","13:00","19.6","","-0.6","","25","","","","36","","16","","24.1","","97.72","","","","","","Clear"
"-119.60","49.46","PENTICTON A","1126146","2023-04-28 14:00","2023","04","28","14:00","21.3","","0.0","","24","","","","34","","16","","24.1","","97.61","","","","","","NA"
"-119.60","49.46","PENTICTON A","1126146","2023-04-28 15:00","2023","04","28","15:00","25.5","","0.2","","19","","","","17","","20","","24.1","","97.51","","","","","","NA"
"-119.60","49.46","PENTICTON A","1126146","2023-04-28 16:00","2023","04","28","16:00","25.9","","-0.3","","18","","","","18","","22","","24.1","","97.44","","","","","","Clear"
"-119.60","49.46","PENTICTON A","1126146","2023-04-28 17:00","2023","04","28","17:00","25.1","","-0.9","","18","","","","17","","19","","24.1","","97.39","","","","","","NA"
"-119.60","49.46","PENTICTON A","1126146","2023-04-28 18:00","2023","04","28","18:00","20.9","","1.5","","27","","","","18","","18","","24.1","","97.36","","","","","","NA"
"-119.60","49.46","PENTICTON A","1126146","2023-04-28 19:00","2023","04","28","19:00","19.2","","1.5","","30","","","","18","","17","","24.1","","97.38","","","","","","Clear"
"-119.60","49.46","PENTICTON A","1126146","2023-04-28 20:00","2023","04","28","20:00","19.3","","1.1","","29","","","","13","","15","","24.1","","97.42","","","","","","NA"
"-119.60","49.46","PENTICTON A","1126146","2023-04-28 21:00","2023","04","28","21:00","17.5","","1.0","","33","","","","30","","9","","24.1","","97.47","","","","","","NA"
"-119.60","49.46","PENTICTON A","1126146","2023-04-28 22:00","2023","04","28","22:00","13.2","","1.2","","44","","","","32","","6","","24.1","","97.51","","","","","","Clear"
"-119.60","49.46","PENTICTON A","1126146","2023-04-28 23:00","2023","04","28","23:00","12.0","","0.8","","46","","","","2","","7","","24.1","","97.53","","","","","","NA"
"-119.60","49.46","PENTICTON A","1126146","2023-04-29 00:00","2023","04","29","00:00","10.6","","0.9","","51","","","","36","","7","","24.1","","97.58","","","","","","NA"
"-119.60","49.46","PENTICTON A","1126146","2023-04-29 01:00","2023","04","29","01:00","9.4","","1.2","","56","","","","34","","4","","24.1","","97.58","","","","","","Mainly Clear"
"-119.60","49.46","PENTICTON A","1126146","2023-04-29 02:00","2023","04","29","02:00","8.8","","1.2","","59","","","","36","","2","","24.1","","97.60","","","","","","NA"
"-119.60","49.46","PENTICTON A","1126146","2023-04-29 03:00","2023","04","29","03:00","6.5","","1.2","","69","","","","36","","2","","24.1","","97.60","","","","","","NA"
"-119.60","49.46","PENTICTON A","1126146","2023-04-29 04:00","2023","04","29","04:00","6.4","","1.2","","69","","","","6","","4","","24.1","","97.65","","","","","","Mainly Clear"
"-119.60","49.46","PENTICTON A","1126146","2023-04-29 05:00","2023","04","29","05:00","6.1","","0.5","","68","","","","35","","5","","24.1","","97.66","","","","","","NA"
"-119.60","49.46","PENTICTON A","1126146","2023-04-29 06:00","2023","04","29","06:00","8.2","","2.1","","65","","","","36","","2","","24.1","","97.69","","","","","","NA"
"-119.60","49.46","PENTICTON A","1126146","2023-04-29 07:00","2023","04","29","07:00","11.3","","3.1","","57","","","","20","","7","","24.1","","97.69","","","","","","Mainly Clear"
"-119.60","49.46","PENTICTON A","1126146","2023-04-29 08:00","2023","04","29","08:00","14.2","","3.1","","47","","","","16","","5","","24.1","","97.67","","","","","","NA"
"-119.60","49.46","PENTICTON A","1126146","2023-04-29 09:00","2023","04","29","09:00","15.6","","3.4","","44","","","","19","","6","","24.1","","97.61","","","","","","NA"
"-119.60","49.46","PENTICTON A","1126146","2023-04-29 10:00","2023","04","29","10:00","18.5","","1.7","","32","","","","34","","9","","24.1","","97.54","","","","","","Mainly Clear"
"-119.60","49.46","PENTICTON A","1126146","2023-04-29 11:00","2023","04","29","11:00","20.4","","2.8","","31","","","","36","","12","","24.1","","97.42","","","","","","NA"
"-119.60","49.46","PENTICTON A","1126146","2023-04-29 12:00","2023","04","29","12:00","20.8","","2.6","","30","","","","36","","21","","24.1","","97.32","","","","","","NA"
"-119.60","49.46","PENTICTON A","1126146","2023-04-29 13:00","2023","04","29","13:00","24.4","","3.3","","25","","","","33","","5","","24.1","","97.21","","","","","","Mainly Clear"
"-119.60","49.46","PENTICTON A","1126146","2023-04-29 14:00","2023","04","29","14:00","27.3","","3.0","","21","","","","17","","26","","24.1","","97.09","","26","","","","NA"
"-119.60","49.46","PENTICTON A","1126146","2023-04-29 15:00","2023","04","29","15:00","27.4","","3.6","","21","","","","17","","22","","24.1","","97.01","","26","","","","NA"
"-119.60","49.46","PENTICTON A","1126146","2023-04-29 16:00","2023","04","29","16:00","26.1","","3.7","","23","","","","17","","24","","24.1","","96.95","","25","","","","Clear"
"-119.60","49.46","PENTICTON A","1126146","2023-04-29 17:00","2023","04","29","17:00","26.7","","4.2","","23","","","","18","","19","","24.1","","96.90","","26","","","","NA"
"-119.60","49.46","PENTICTON A","1126146","2023-04-29 18:00","2023","04","29","18:00","22.5","","5.8","","33","","","","17","","10","","24.1","","96.88","","","","","","NA"
"-119.60","49.46","PENTICTON A","1126146","2023-04-29 19:00","2023","04","29","19:00","20.1","","6.2","","40","","","","17","","10","","24.1","","96.89","","","","","","Clear"
"-119.60","49.46","PENTICTON A","1126146","2023-04-29 20:00","2023","04","29","20:00","21.7","","5.4","","34","","","","36","","2","","24.1","","96.95","","","","","","NA"
"-119.60","49.46","PENTICTON A","1126146","2023-04-29 21:00","2023","04","29","21:00","15.5","","4.9","","49","","","","35","","3","","24.1","","96.97","","","","","","NA"
"-119.60","49.46","PENTICTON A","1126146","2023-04-29 22:00","2023","04","29","22:00","13.8","","3.7","","50","","","","29","","3","","24.1","","96.97","","","","","","Clear"
"-119.60","49.46","PENTICTON A","1126146","2023-04-29 23:00","2023","04","29","23:00","13.4","","4.8","","56","","","","9","","6","","24.1","","96.98","","","","","","NA"
"-119.60","49.46","PENTICTON A","1126146","2023-04-30 00:00","2023","04","30","00:00","11.6","","4.5","","62","","","","36","","2","","24.1","","97.00","","","","","","NA"
"-119.60","49.46","PENTICTON A","1126146","2023-04-30 01:00","2023","04","30","01:00","10.0","","3.7","","65","","","","36","","4","","24.1","","96.99","","","","","","Clear"
"-119.60","49.46","PENTICTON A","1126146","2023-04-30 02:00","2023","04","30","02:00","10.4","","3.3","","61","","","","3","","5","","24.1","","97.01","","","","","","NA"
"-119.60","49.46","PENTICTON A","1126146","2023-04-30 03:00","2023","04","30","03:00","10.1","","2.7","","60","","","","3","","10","","24.1","","97.01","","","","","","NA"
"-119.60","49.46","PENTICTON A","1126146","2023-04-30 04:00","2023","04","30","04:00","9.2","","3.2","","66","","","","1","","14","","24.1","","97.00","","","","","","Mainly Clear"
"-119.60","49.46","PENTICTON A","1126146","2023-04-30 05:00","2023","04","30","05:00","9.3","","2.5","","62","","","","1","","10","","24.1","","97.00","","","","","","NA"
"-119.60","49.46","PENTICTON A","1126146","2023-04-30 06:00","2023","04","30","06:00","11.7","","2.9","","55","","","","34","","12","","24.1","","97.01","","","","","","NA"
"-119.60","49.46","PENTICTON A","1126146","2023-04-30 07:00","2023","04","30","07:00","13.6","","3.2","","49","","","","1","","12","","24.1","","97.00","","","","","","Mainly Clear"
"-119.60","49.46","PENTICTON A","1126146","2023-04-30 08:00","2023","04","30","08:00","14.9","","3.7","","47","","","","35","","15","","24.1","","96.94","","","","","","NA"
"-119.60","49.46","PENTICTON A","1126146","2023-04-30 09:00","2023","04","30","09:00","15.6","","4.4","","47","","","","33","","14","","24.1","","96.88","","","","","","NA"
"-119.60","49.46","PENTICTON A","1126146","2023-04-30 10:00","2023","04","30","10:00","17.8","","4.5","","41","","","","34","","16","","24.1","","96.80","","","","","","Mostly Cloudy"
"-119.60","49.46","PENTICTON A","1126146","2023-04-30 11:00","2023","04","30","11:00","19.1","","4.0","","36","","","","34","","17","","24.1","","96.71","","","","","","NA"
"-119.60","49.46","PENTICTON A","1126146","2023-04-30 12:00","2023","04","30","12:00","20.5","","5.1","","36","","","","33","","18","","24.1","","96.58","","","","","","NA"
"-119.60","49.46","PENTICTON A","1126146","2023-04-30 13:00","2023","04","30","13:00","21.3","","5.2","","35","","","","35","","16","","24.1","","96.49","","","","","","Mostly Cloudy"
"-119.60","49.46","PENTICTON A","1126146","2023-04-30 14:00","2023","04","30","14:00","22.9","","5.1","","31","","","","1","","13","","24.1","","96.38","","","","","","NA"
"-119.60","49.46","PENTICTON A","1126146","2023-04-30 15:00","2023","04","30","15:00","23.8","","5.4","","30","","","","35","","12","","24.1","","96.31","","","","","","NA"
"-119.60","49.46","PENTICTON A","1126146","2023-04-30 16:00","2023","04","30","16:00","24.7","","5.2","","28","","","","35","","8","","24.1","","96.22","","","","","","Mainly Clear"
"-119.60","49.46","PENTICTON A","1126146","2023-04-30 17:00","2023","04","30","17:00","24.3","","6.6","","32","","","","34","","10","","24.1","","96.16","","","","","","NA"
"-119.60","49.46","PENTICTON A","1126146","2023-04-30 18:00","2023","04","30","18:00","23.7","","7.7","","35","","","","36","","11","","24.1","","96.11","","","","","","NA"
"-119.60","49.46","PENTICTON A","1126146","2023-04-30 19:00","2023","04","30","19:00","19.8","","5.9","","40","","","","2","","10","","24.1","","96.11","","","","","","Mostly Cloudy"
"-119.60","49.46","PENTICTON A","1126146","2023-04-30 20:00","2023","04","30","20:00","17.5","","8.2","","54","","","","36","","12","","24.1","","96.18","","","","","","NA"
"-119.60","49.46","PENTICTON A","1126146","2023-04-30 21:00","2023","04","30","21:00","20.3","","6.6","","41","","","","34","","17","","24.1","","96.29","","","","","","NA"
"-119.60","49.46","PENTICTON A","1126146","2023-04-30 22:00","2023","04","30","22:00","17.0","","6.0","","48","","","","36","","12","","24.1","","96.38","","","","","","Mostly Cloudy"
"-119.60","49.46","PENTICTON A","1126146","2023-04-30 23:00","2023","04","30","23:00","16.6","","5.6","","48","","","","35","","18","","24.1","","96.44","","","","","","NA"
