"Longitude (x)","Latitude (y)","Station Name","Climate ID","Date/Time (LST)","Year","Month","Day","Time (LST)","Temp (°C)","Temp Flag","Dew Point Temp (°C)","Dew Point Temp Flag","Rel Hum (%)","Rel Hum Flag","Precip. Amount (mm)","Precip. Amount Flag","Wind Dir (10s deg)","Wind Dir Flag","Wind Spd (km/h)","Wind Spd Flag","Visibility (km)","Visibility Flag","Stn Press (kPa)","Stn Press Flag","Hmdx","Hmdx Flag","Wind Chill","Wind Chill Flag","Weather"
"-85.81","79.99","EUREKA A","2401203","2021-12-01 00:00","2021","12","01","00:00","-36.0","","-39.8","","69","","","","8","","4","","24.1","","100.27","","","","-41","","Ice Crystals"
"-85.81","79.99","EUREKA A","2401203","2021-12-01 01:00","2021","12","01","01:00","-35.2","","-39.0","","69","","","","27","","9","","24.1","","100.26","","","","-45","","Ice Crystals"
"-85.81","79.99","EUREKA A","2401203","2021-12-01 02:00","2021","12","01","02:00","-34.8","","-38.5","","69","","","","29","","11","","24.1","","100.21","","","","-45","","Ice Crystals"
"-85.81","79.99","EUREKA A","2401203","2021-12-01 03:00","2021","12","01","03:00","-35.1","","-38.9","","69","","","","28","","8","","24.1","","100.17","","","","-44","","Ice Crystals"
"-85.81","79.99","EUREKA A","2401203","2021-12-01 04:00","2021","12","01","04:00","-35.0","","-38.8","","69","","","","24","","5","","24.1","","100.13","","","","-41","","Ice Crystals"
"-85.81","79.99","EUREKA A","2401203","2021-12-01 05:00","2021","12","01","05:00","-35.1","","-38.9","","69","","","","36","","2","","24.1","","100.05","","","","-38","","Ice Crystals"
"-85.81","79.99","EUREKA A","2401203","2021-12-01 06:00","2021","12","01","06:00","-36.1","","-39.9","","69","","","","31","","5","","24.1","","99.94","","","","-43","","Ice Crystals"
"-85.81","79.99","EUREKA A","2401203","2021-12-01 07:00","2021","12","01","07:00","-35.1","","-38.9","","69","","","","36","","3","","24.1","","99.87","","","","-39","","Ice Crystals"
"-85.81","79.99","EUREKA A","2401203","2021-12-01 08:00","2021","12","01","08:00","-36.5","","-40.4","","68","","","","34","","3","","24.1","","99.79","","","","-40","","Ice Crystals"
"-85.81","79.99","EUREKA A","2401203","2021-12-01 09:00","2021","12","01","09:00","-34.6","","-38.4","","70","","","","36","","3","","24.1","","99.70","","","","-38","","Ice Crystals"
"-85.81","79.99","EUREKA A","2401203","2021-12-01 10:00","2021","12","01","10:00","-34.2","","-37.9","","70","","","","23","","3","","24.1","","99.63","","","","-38","","Ice Crystals"
"-85.81","79.99","EUREKA A","2401203","2021-12-01 11:00","2021","12","01","11:00","-35.4","","-39.1","","69","","","","6","","4","","24.1","","99.52","","","","-40","","Ice Crystals"
"-85.81","79.99","EUREKA A","2401203","2021-12-01 12:00","2021","12","01","12:00","-34.5","","-38.1","","70","","","","30","","5","","24.1","","99.39","","","","-41","","Ice Crystals"
"-85.81","79.99","EUREKA A","2401203","2021-12-01 13:00","2021","12","01","13:00","-33.8","","-37.5","","70","","","","4","","3","","24.1","","99.27","","","","-37","","Ice Crystals"
"-85.81","79.99","EUREKA A","2401203","2021-12-01 14:00","2021","12","01","14:00","-32.1","","-35.7","","71","","","","31","","6","","24.1","","99.17","","","","-39","","Ice Crystals"
"-85.81","79.99","EUREKA A","2401203","2021-12-01 15:00","2021","12","01","15:00","-32.9","","-36.6","","71","","","","33","","4","","24.1","","99.04","","","","-38","","Ice Crystals"
"-85.81","79.99","EUREKA A","2401203","2021-12-01 16:00","2021","12","01","16:00","-35.1","","-38.9","","69","","","","13","","8","","24.1","","98.95","","","","-44","","Ice Crystals"
"-85.81","79.99","EUREKA A","2401203","2021-12-01 17:00","2021","12","01","17:00","-33.2","","-36.9","","70","","","","19","","5","","24.1","","98.85","","","","-39","","Ice Crystals"
"-85.81","79.99","EUREKA A","2401203","2021-12-01 18:00","2021","12","01","18:00","-32.0","","-35.5","","71","","","","27","","8","","24.1","","98.75","","","","-40","","Ice Crystals"
"-85.81","79.99","EUREKA A","2401203","2021-12-01 19:00","2021","12","01","19:00","-30.3","","-33.9","","72","","","","24","","4","","24.1","","98.64","","","","-35","","Ice Crystals"
"-85.81","79.99","EUREKA A","2401203","2021-12-01 20:00","2021","12","01","20:00","-24.2","","-27.0","","78","","","","36","","39","","24.1","","98.55","","","","-40","","Ice Crystals"
"-85.81","79.99","EUREKA A","2401203","2021-12-01 21:00","2021","12","01","21:00","-30.3","","-33.7","","73","","","","27","","8","","24.1","","98.48","","","","-38","","Ice Crystals"
"-85.81","79.99","EUREKA A","2401203","2021-12-01 22:00","2021","12","01","22:00"
"-85.81","79.99","EUREKA A","2401203","2021-12-01 23:00","2021","12","01","23:00"
"-85.81","79.99","EUREKA A","2401203","2021-12-02 00:00","2021","12","02","00:00","-30.2","","-33.7","","72","","","","15","","5","","24.1","","98.36","","","","-36","","Ice Crystals"
"-85.81","79.99","EUREKA A","2401203","2021-12-02 01:00","2021","12","02","01:00","-26.0","","-29.1","","75","","","","28","","21","","24.1","","98.35","","","","-38","","Ice Crystals,Blowing Snow"
"-85.81","79.99","EUREKA A","2401203","2021-12-02 02:00","2021","12","02","02:00","-27.5","","-30.7","","75","","","","35","","11","","24.1","","98.36","","","","-37","","Ice Crystals"
"-85.81","79.99","EUREKA A","2401203","2021-12-02 03:00","2021","12","02","03:00","-27.1","","-30.4","","74","","","","36","","1","","12.9","","98.34","","","","-28","","Ice Crystals,Blowing Snow"
"-85.81","79.99","EUREKA A","2401203","2021-12-02 04:00","2021","12","02","04:00","-27.0","","-30.2","","75","","","","33","","31","","12.9","","98.36","","","","-42","","Ice Crystals,Blowing Snow"
"-85.81","79.99","EUREKA A","2401203","2021-12-02 05:00","2021","12","02","05:00","-27.1","","-30.3","","75","","","","31","","17","","11.3","","98.37","","","","-39","","Ice Crystals,Blowing Snow"
"-85.81","79.99","EUREKA A","2401203","2021-12-02 06:00","2021","12","02","06:00","-28.5","","-31.9","","73","","","","25","","14","","9.7","","98.36","","","","-39","","Ice Crystals,Blowing Snow"
"-85.81","79.99","EUREKA A","2401203","2021-12-02 07:00","2021","12","02","07:00","-28.9","","-32.2","","73","","","","27","","22","","8.1","","98.37","","","","-42","","Ice Crystals,Blowing Snow"
"-85.81","79.99","EUREKA A","2401203","2021-12-02 08:00","2021","12","02","08:00","-29.2","","-32.6","","73","","","","26","","14","","24.1","","98.39","","","","-40","","Ice Crystals"
"-85.81","79.99","EUREKA A","2401203","2021-12-02 09:00","2021","12","02","09:00","-31.0","","-34.5","","72","","","","36","","2","","24.1","","98.46","","","","-33","","Ice Crystals"
"-85.81","79.99","EUREKA A","2401203","2021-12-02 10:00","2021","12","02","10:00","-34.1","","-37.7","","70","","","","14","","21","","24.1","","98.45","","","","-49","","Ice Crystals"
"-85.81","79.99","EUREKA A","2401203","2021-12-02 11:00","2021","12","02","11:00","-33.0","","-36.7","","70","","","","8","","7","","24.1","","98.52","","","","-41","","Ice Crystals"
"-85.81","79.99","EUREKA A","2401203","2021-12-02 12:00","2021","12","02","12:00","-31.8","","-35.4","","72","","","","21","","6","","24.1","","98.54","","","","-39","","Ice Crystals"
"-85.81","79.99","EUREKA A","2401203","2021-12-02 13:00","2021","12","02","13:00","-34.0","","-37.6","","70","","","","6","","6","","24.1","","98.60","","","","-41","","Ice Crystals"
"-85.81","79.99","EUREKA A","2401203","2021-12-02 14:00","2021","12","02","14:00","-33.9","","-37.5","","70","","","","36","","2","","24.1","","98.62","","","","-36","","Ice Crystals"
"-85.81","79.99","EUREKA A","2401203","2021-12-02 15:00","2021","12","02","15:00","-33.0","","-36.7","","71","","","","36","","1","","24.1","","98.65","","","","-34","","Ice Crystals"
"-85.81","79.99","EUREKA A","2401203","2021-12-02 16:00","2021","12","02","16:00","-34.2","","-38.0","","70","","","","36","","1","","24.1","","98.67","","","","-35","","Ice Crystals"
"-85.81","79.99","EUREKA A","2401203","2021-12-02 17:00","2021","12","02","17:00","-35.5","","-39.2","","69","","","","5","","3","","24.1","","98.75","","","","-39","","Ice Crystals"
"-85.81","79.99","EUREKA A","2401203","2021-12-02 18:00","2021","12","02","18:00","-33.8","","-37.4","","70","","","","31","","6","","24.1","","98.75","","","","-41","","Ice Crystals"
"-85.81","79.99","EUREKA A","2401203","2021-12-02 19:00","2021","12","02","19:00","-34.7","","-38.4","","70","","","","5","","4","","24.1","","98.75","","","","-40","","NA"
"-85.81","79.99","EUREKA A","2401203","2021-12-02 20:00","2021","12","02","20:00","-35.1","","-38.8","","70","","","","21","","6","","24.1","","98.82","","","","-42","","Ice Crystals"
"-85.81","79.99","EUREKA A","2401203","2021-12-02 21:00","2021","12","02","21:00","-35.0","","-38.7","","70","","","","34","","7","","24.1","","98.84","","","","-43","","Ice Crystals"
"-85.81","79.99","EUREKA A","2401203","2021-12-02 22:00","2021","12","02","22:00"
"-85.81","79.99","EUREKA A","2401203","2021-12-02 23:00","2021","12","02","23:00"
"-85.81","79.99","EUREKA A","2401203","2021-12-03 00:00","2021","12","03","00:00","-35.4","","-39.2","","69","","","","36","","1","","24.1","","98.92","","","","-37","","Ice Crystals"
"-85.81","79.99","EUREKA A","2401203","2021-12-03 01:00","2021","12","03","01:00","-35.8","","-39.6","","69","","","","15","","10","","24.1","","98.99","","","","-46","","Ice Crystals"
"-85.81","79.99","EUREKA A","2401203","2021-12-03 02:00","2021","12","03","02:00","-35.8","","-39.5","","69","","","","3","","4","","24.1","","99.02","","","","-41","","Ice Crystals"
"-85.81","79.99","EUREKA A","2401203","2021-12-03 03:00","2021","12","03","03:00","-35.4","","-39.1","","69","","","","36","","2","","24.1","","99.08","","","","-38","","Ice Crystals"
"-85.81","79.99","EUREKA A","2401203","2021-12-03 04:00","2021","12","03","04:00","-35.2","","-38.9","","69","","","","36","","2","","24.1","","99.10","","","","-38","","NA"
"-85.81","79.99","EUREKA A","2401203","2021-12-03 05:00","2021","12","03","05:00","-35.3","","-39.0","","69","","","","36","","2","","24.1","","99.14","","","","-38","","NA"
"-85.81","79.99","EUREKA A","2401203","2021-12-03 06:00","2021","12","03","06:00","-35.3","","-39.1","","69","","","","10","","4","","24.1","","99.17","","","","-40","","Ice Crystals"
"-85.81","79.99","EUREKA A","2401203","2021-12-03 07:00","2021","12","03","07:00","-35.5","","-39.2","","69","","","","36","","3","","24.1","","99.23","","","","-39","","NA"
"-85.81","79.99","EUREKA A","2401203","2021-12-03 08:00","2021","12","03","08:00","-35.2","","-38.9","","69","","","","36","","2","","24.1","","99.27","","","","-38","","NA"
"-85.81","79.99","EUREKA A","2401203","2021-12-03 09:00","2021","12","03","09:00","-34.3","","-38.0","","70","","","","6","","4","","24.1","","99.31","","","","-39","","Cloudy"
"-85.81","79.99","EUREKA A","2401203","2021-12-03 10:00","2021","12","03","10:00","-33.1","","-36.8","","71","","","","10","","4","","24.1","","99.37","","","","-38","","NA"
"-85.81","79.99","EUREKA A","2401203","2021-12-03 11:00","2021","12","03","11:00","-32.9","","-36.5","","71","","","","11","","4","","16.1","","99.44","","","","-38","","Snow"
"-85.81","79.99","EUREKA A","2401203","2021-12-03 12:00","2021","12","03","12:00","-32.4","","-36.0","","71","","","","36","","2","","6.4","","99.49","","","","-35","","Snow"
"-85.81","79.99","EUREKA A","2401203","2021-12-03 13:00","2021","12","03","13:00","-32.2","","-35.8","","71","","","","15","","4","","12.9","","99.55","","","","-37","","Snow"
"-85.81","79.99","EUREKA A","2401203","2021-12-03 14:00","2021","12","03","14:00","-32.0","","-35.6","","71","","","","10","","3","","12.9","","99.60","","","","-36","","Snow"
"-85.81","79.99","EUREKA A","2401203","2021-12-03 15:00","2021","12","03","15:00","-32.0","","-35.6","","71","","","","36","","3","","16.1","","99.66","","","","-36","","Snow"
"-85.81","79.99","EUREKA A","2401203","2021-12-03 16:00","2021","12","03","16:00","-32.2","","-35.8","","71","","","","36","","2","","24.1","","99.74","","","","-35","","Snow"
"-85.81","79.99","EUREKA A","2401203","2021-12-03 17:00","2021","12","03","17:00","-32.9","","-36.5","","71","","","","36","","2","","19.3","","99.78","","","","-35","","Snow"
"-85.81","79.99","EUREKA A","2401203","2021-12-03 18:00","2021","12","03","18:00","-32.5","","-36.1","","71","","","","5","","4","","19.3","","99.82","","","","-37","","Snow"
"-85.81","79.99","EUREKA A","2401203","2021-12-03 19:00","2021","12","03","19:00","-31.9","","-35.5","","71","","","","36","","1","","24.1","","99.88","","","","-33","","Snow"
"-85.81","79.99","EUREKA A","2401203","2021-12-03 20:00","2021","12","03","20:00","-31.3","","-34.8","","72","","","","5","","3","","24.1","","99.95","","","","-35","","Snow"
"-85.81","79.99","EUREKA A","2401203","2021-12-03 21:00","2021","12","03","21:00","-31.1","","-34.6","","72","","","","0","","1","","24.1","","99.98","","","","-32","","Snow"
"-85.81","79.99","EUREKA A","2401203","2021-12-03 22:00","2021","12","03","22:00"
"-85.81","79.99","EUREKA A","2401203","2021-12-03 23:00","2021","12","03","23:00"
"-85.81","79.99","EUREKA A","2401203","2021-12-04 00:00","2021","12","04","00:00","-31.5","","-35.0","","72","","","","36","","1","","24.1","","100.07","","","","-33","","Ice Crystals"
"-85.81","79.99","EUREKA A","2401203","2021-12-04 01:00","2021","12","04","01:00","-31.9","","-35.5","","72","","","","36","","2","","24.1","","100.11","","","","-34","","Ice Crystals"
"-85.81","79.99","EUREKA A","2401203","2021-12-04 02:00","2021","12","04","02:00","-31.9","","-35.5","","71","","","","36","","2","","24.1","","100.12","","","","-34","","Ice Crystals"
"-85.81","79.99","EUREKA A","2401203","2021-12-04 03:00","2021","12","04","03:00","-31.4","","-34.9","","72","","","","25","","4","","24.1","","100.12","","","","-36","","Snow"
"-85.81","79.99","EUREKA A","2401203","2021-12-04 04:00","2021","12","04","04:00","-31.7","","-35.3","","71","","","","24","","4","","24.1","","100.08","","","","-36","","Snow"
"-85.81","79.99","EUREKA A","2401203","2021-12-04 05:00","2021","12","04","05:00","-31.8","","-35.3","","72","","","","36","","1","","24.1","","100.08","","","","-33","","Snow"
"-85.81","79.99","EUREKA A","2401203","2021-12-04 06:00","2021","12","04","06:00","-31.6","","-35.2","","71","","","","32","","4","","24.1","","100.06","","","","-36","","Snow"
"-85.81","79.99","EUREKA A","2401203","2021-12-04 07:00","2021","12","04","07:00","-31.1","","-34.6","","72","","","","3","","3","","24.1","","100.01","","","","-35","","Snow"
"-85.81","79.99","EUREKA A","2401203","2021-12-04 08:00","2021","12","04","08:00","-30.8","","-34.3","","72","","","","30","","5","","24.1","","99.95","","","","-37","","Snow"
"-85.81","79.99","EUREKA A","2401203","2021-12-04 09:00","2021","12","04","09:00","-29.8","","-33.3","","73","","","","22","","5","","24.1","","99.90","","","","-35","","Snow"
"-85.81","79.99","EUREKA A","2401203","2021-12-04 10:00","2021","12","04","10:00","-30.1","","-33.6","","72","","","","36","","1","","24.1","","99.79","","","","-31","","Snow"
"-85.81","79.99","EUREKA A","2401203","2021-12-04 11:00","2021","12","04","11:00","-29.6","","-33.0","","73","","","","25","","4","","24.1","","99.67","","","","-34","","Snow"
"-85.81","79.99","EUREKA A","2401203","2021-12-04 12:00","2021","12","04","12:00","-28.7","","-32.1","","73","","","","28","","7","","24.1","","99.57","","","","-36","","Snow"
"-85.81","79.99","EUREKA A","2401203","2021-12-04 13:00","2021","12","04","13:00","-28.2","","-31.5","","74","","","","31","","5","","24.1","","99.48","","","","-34","","Snow"
"-85.81","79.99","EUREKA A","2401203","2021-12-04 14:00","2021","12","04","14:00","-27.9","","-31.2","","74","","","","29","","13","","24.1","","99.37","","","","-38","","Snow"
"-85.81","79.99","EUREKA A","2401203","2021-12-04 15:00","2021","12","04","15:00","-28.1","","-31.4","","74","","","","31","","10","","19.3","","99.28","","","","-37","","Snow,Blowing Snow"
"-85.81","79.99","EUREKA A","2401203","2021-12-04 16:00","2021","12","04","16:00","-28.9","","-32.2","","73","","","","5","","4","","24.1","","99.19","","","","-33","","Snow,Blowing Snow"
"-85.81","79.99","EUREKA A","2401203","2021-12-04 17:00","2021","12","04","17:00","-29.9","","-33.3","","73","","","","13","","3","","24.1","","99.09","","","","-33","","Snow"
"-85.81","79.99","EUREKA A","2401203","2021-12-04 18:00","2021","12","04","18:00","-30.6","","-34.1","","72","","","","7","","3","","24.1","","98.96","","","","-34","","Snow"
"-85.81","79.99","EUREKA A","2401203","2021-12-04 19:00","2021","12","04","19:00","-31.6","","-35.2","","72","","","","36","","3","","24.1","","98.89","","","","-35","","Snow"
"-85.81","79.99","EUREKA A","2401203","2021-12-04 20:00","2021","12","04","20:00","-33.7","","-37.4","","70","","","","6","","10","","24.1","","98.78","","","","-44","","Snow"
"-85.81","79.99","EUREKA A","2401203","2021-12-04 21:00","2021","12","04","21:00","-32.9","","-36.6","","71","","","","6","","8","","24.1","","98.69","","","","-41","","Mainly Clear"
"-85.81","79.99","EUREKA A","2401203","2021-12-04 22:00","2021","12","04","22:00"
"-85.81","79.99","EUREKA A","2401203","2021-12-04 23:00","2021","12","04","23:00"
"-85.81","79.99","EUREKA A","2401203","2021-12-05 00:00","2021","12","05","00:00","-30.7","","-34.1","","73","","","","19","","9","","24.1","","98.44","","","","-39","","Ice Crystals"
"-85.81","79.99","EUREKA A","2401203","2021-12-05 01:00","2021","12","05","01:00","-31.2","","-34.7","","72","","","","6","","5","","24.1","","98.41","","","","-37","","Ice Crystals"
"-85.81","79.99","EUREKA A","2401203","2021-12-05 02:00","2021","12","05","02:00","-28.8","","-32.1","","74","","","","36","","7","","24.1","","98.37","","","","-36","","Ice Crystals"
"-85.81","79.99","EUREKA A","2401203","2021-12-05 03:00","2021","12","05","03:00","-32.2","","-35.7","","72","","","","14","","16","","24.1","","98.35","","","","-45","","Ice Crystals"
"-85.81","79.99","EUREKA A","2401203","2021-12-05 04:00","2021","12","05","04:00","-32.5","","-36.1","","71","","","","14","","20","","24.1","","98.34","","","","-46","","Ice Crystals"
"-85.81","79.99","EUREKA A","2401203","2021-12-05 05:00","2021","12","05","05:00","-31.3","","-34.8","","72","","","","12","","12","","24.1","","98.31","","","","-42","","Ice Crystals"
"-85.81","79.99","EUREKA A","2401203","2021-12-05 06:00","2021","12","05","06:00","-31.5","","-35.0","","72","","","","14","","15","","24.1","","98.30","","","","-43","","Ice Crystals"
"-85.81","79.99","EUREKA A","2401203","2021-12-05 07:00","2021","12","05","07:00","-30.7","","-34.1","","73","","","","13","","5","","24.1","","98.32","","","","-36","","Ice Crystals"
"-85.81","79.99","EUREKA A","2401203","2021-12-05 08:00","2021","12","05","08:00","-31.2","","-34.7","","72","","","","13","","7","","24.1","","98.24","","","","-39","","Ice Crystals"
"-85.81","79.99","EUREKA A","2401203","2021-12-05 09:00","2021","12","05","09:00","-31.6","","-35.1","","72","","","","8","","5","","24.1","","98.19","","","","-37","","Ice Crystals"
"-85.81","79.99","EUREKA A","2401203","2021-12-05 10:00","2021","12","05","10:00","-31.8","","-35.4","","72","","","","13","","19","","24.1","","98.16","","","","-45","","Ice Crystals"
"-85.81","79.99","EUREKA A","2401203","2021-12-05 11:00","2021","12","05","11:00","-33.0","","-36.6","","71","","","","12","","8","","24.1","","98.17","","","","-41","","Ice Crystals"
"-85.81","79.99","EUREKA A","2401203","2021-12-05 12:00","2021","12","05","12:00","-33.7","","-37.4","","70","","","","8","","5","","24.1","","98.13","","","","-40","","Ice Crystals"
"-85.81","79.99","EUREKA A","2401203","2021-12-05 13:00","2021","12","05","13:00","-33.4","","-37.0","","71","","","","12","","6","","24.1","","98.10","","","","-40","","Ice Crystals"
"-85.81","79.99","EUREKA A","2401203","2021-12-05 14:00","2021","12","05","14:00","-32.3","","-35.9","","71","","","","8","","4","","24.1","","98.08","","","","-37","","Ice Crystals"
"-85.81","79.99","EUREKA A","2401203","2021-12-05 15:00","2021","12","05","15:00","-32.3","","-35.8","","71","","","","10","","5","","24.1","","98.05","","","","-38","","Ice Crystals"
"-85.81","79.99","EUREKA A","2401203","2021-12-05 16:00","2021","12","05","16:00","-32.5","","-36.1","","71","","","","11","","13","","24.1","","98.00","","","","-44","","Ice Crystals"
"-85.81","79.99","EUREKA A","2401203","2021-12-05 17:00","2021","12","05","17:00","-32.8","","-36.4","","71","","","","6","","4","","24.1","","97.98","","","","-38","","Ice Crystals"
"-85.81","79.99","EUREKA A","2401203","2021-12-05 18:00","2021","12","05","18:00","-33.0","","-36.6","","71","","","","7","","5","","24.1","","97.98","","","","-39","","Ice Crystals"
"-85.81","79.99","EUREKA A","2401203","2021-12-05 19:00","2021","12","05","19:00","-33.4","","-37.0","","71","","","","9","","3","","24.1","","97.94","","","","-37","","Ice Crystals"
"-85.81","79.99","EUREKA A","2401203","2021-12-05 20:00","2021","12","05","20:00","-32.0","","-35.5","","72","","","","36","","2","","24.1","","97.88","","","","-34","","Ice Crystals"
"-85.81","79.99","EUREKA A","2401203","2021-12-05 21:00","2021","12","05","21:00","-32.1","","-35.6","","72","","","","12","","10","","24.1","","97.84","","","","-42","","Ice Crystals"
"-85.81","79.99","EUREKA A","2401203","2021-12-05 22:00","2021","12","05","22:00"
"-85.81","79.99","EUREKA A","2401203","2021-12-05 23:00","2021","12","05","23:00"
"-85.81","79.99","EUREKA A","2401203","2021-12-06 00:00","2021","12","06","00:00","-33.3","","-37.0","","71","","","","6","","5","","24.1","","97.77","","","","-39","","Ice Crystals"
"-85.81","79.99","EUREKA A","2401203","2021-12-06 01:00","2021","12","06","01:00","-32.5","","-36.1","","71","","","","36","","2","","24.1","","97.78","","","","-35","","Ice Crystals"
"-85.81","79.99","EUREKA A","2401203","2021-12-06 02:00","2021","12","06","02:00","-33.8","","-37.5","","70","","","","7","","7","","24.1","","97.76","","","","-42","","Ice Crystals"
"-85.81","79.99","EUREKA A","2401203","2021-12-06 03:00","2021","12","06","03:00","-31.8","","-35.3","","72","","","","14","","5","","24.1","","97.82","","","","-38","","Ice Crystals"
"-85.81","79.99","EUREKA A","2401203","2021-12-06 04:00","2021","12","06","04:00","-33.1","","-36.7","","71","","","","11","","7","","24.1","","97.83","","","","-41","","Ice Crystals"
"-85.81","79.99","EUREKA A","2401203","2021-12-06 05:00","2021","12","06","05:00","-33.4","","-37.0","","70","","","","7","","4","","24.1","","97.87","","","","-38","","Ice Crystals"
"-85.81","79.99","EUREKA A","2401203","2021-12-06 06:00","2021","12","06","06:00","-31.5","","-35.0","","72","","","","12","","13","","16.1","","97.88","","","","-42","","Ice Crystals"
"-85.81","79.99","EUREKA A","2401203","2021-12-06 07:00","2021","12","06","07:00","-31.4","","-34.9","","72","","","","14","","8","","24.1","","97.92","","","","-40","","Ice Crystals"
"-85.81","79.99","EUREKA A","2401203","2021-12-06 08:00","2021","12","06","08:00","-31.8","","-35.2","","72","","","","3","","7","","24.1","","97.96","","","","-39","","Ice Crystals"
"-85.81","79.99","EUREKA A","2401203","2021-12-06 09:00","2021","12","06","09:00","-31.7","","-35.2","","71","","","","15","","10","","24.1","","98.03","","","","-41","","Ice Crystals"
"-85.81","79.99","EUREKA A","2401203","2021-12-06 10:00","2021","12","06","10:00","-32.1","","-35.7","","71","","","","7","","6","","24.1","","98.11","","","","-39","","Ice Crystals"
"-85.81","79.99","EUREKA A","2401203","2021-12-06 11:00","2021","12","06","11:00","-32.6","","-36.2","","71","","","","7","","5","","19.3","","98.18","","","","-39","","Ice Crystals"
"-85.81","79.99","EUREKA A","2401203","2021-12-06 12:00","2021","12","06","12:00","-31.8","","-35.4","","72","","","","36","","2","","24.1","","98.25","","","","-34","","Ice Crystals"
"-85.81","79.99","EUREKA A","2401203","2021-12-06 13:00","2021","12","06","13:00","-30.7","","-34.1","","72","","","","36","","4","","19.3","","98.35","","","","-35","","Ice Crystals"
"-85.81","79.99","EUREKA A","2401203","2021-12-06 14:00","2021","12","06","14:00","-31.6","","-35.2","","72","","","","19","","4","","24.1","","98.44","","","","-36","","Ice Crystals"
"-85.81","79.99","EUREKA A","2401203","2021-12-06 15:00","2021","12","06","15:00","-32.0","","-35.6","","71","","","","9","","5","","24.1","","98.51","","","","-38","","Ice Crystals"
"-85.81","79.99","EUREKA A","2401203","2021-12-06 16:00","2021","12","06","16:00","-33.2","","-36.8","","71","","","","7","","6","","24.1","","98.58","","","","-40","","Ice Crystals"
"-85.81","79.99","EUREKA A","2401203","2021-12-06 17:00","2021","12","06","17:00","-31.9","","-35.3","","72","","","","36","","2","","24.1","","98.64","","","","-34","","Ice Crystals"
"-85.81","79.99","EUREKA A","2401203","2021-12-06 18:00","2021","12","06","18:00","-31.4","","-34.9","","72","","","","36","","3","","24.1","","98.75","","","","-35","","Ice Crystals"
"-85.81","79.99","EUREKA A","2401203","2021-12-06 19:00","2021","12","06","19:00","-33.2","","-36.9","","71","","","","36","","2","","24.1","","98.78","","","","-36","","Ice Crystals"
"-85.81","79.99","EUREKA A","2401203","2021-12-06 20:00","2021","12","06","20:00","-33.5","","-37.1","","71","","","","5","","4","","24.1","","98.83","","","","-38","","Ice Crystals"
"-85.81","79.99","EUREKA A","2401203","2021-12-06 21:00","2021","12","06","21:00","-33.3","","-36.9","","71","","","","16","","5","","24.1","","98.92","","","","-39","","Ice Crystals"
"-85.81","79.99","EUREKA A","2401203","2021-12-06 22:00","2021","12","06","22:00"
"-85.81","79.99","EUREKA A","2401203","2021-12-06 23:00","2021","12","06","23:00"
"-85.81","79.99","EUREKA A","2401203","2021-12-07 00:00","2021","12","07","00:00","-33.1","","-36.7","","71","","","","6","","6","","24.1","","99.09","","","","-40","","Ice Crystals"
"-85.81","79.99","EUREKA A","2401203","2021-12-07 01:00","2021","12","07","01:00","-31.5","","-35.0","","72","","","","10","","4","","24.1","","99.16","","","","-36","","Ice Crystals"
"-85.81","79.99","EUREKA A","2401203","2021-12-07 02:00","2021","12","07","02:00","-31.9","","-35.5","","72","","","","36","","2","","24.1","","99.22","","","","-34","","Ice Crystals"
"-85.81","79.99","EUREKA A","2401203","2021-12-07 03:00","2021","12","07","03:00","-32.9","","-36.5","","71","","","","7","","7","","24.1","","99.27","","","","-41","","Ice Crystals"
"-85.81","79.99","EUREKA A","2401203","2021-12-07 04:00","2021","12","07","04:00","-31.0","","-34.5","","72","","","","36","","3","","24.1","","99.33","","","","-34","","Ice Crystals"
"-85.81","79.99","EUREKA A","2401203","2021-12-07 05:00","2021","12","07","05:00","-31.8","","-35.3","","72","","","","12","","5","","24.1","","99.39","","","","-38","","Ice Crystals"
"-85.81","79.99","EUREKA A","2401203","2021-12-07 06:00","2021","12","07","06:00","-31.7","","-35.3","","72","","","","12","","4","","24.1","","99.41","","","","-36","","Ice Crystals"
"-85.81","79.99","EUREKA A","2401203","2021-12-07 07:00","2021","12","07","07:00","-30.8","","-34.3","","72","","","","8","","3","","24.1","","99.43","","","","-34","","Snow"
"-85.81","79.99","EUREKA A","2401203","2021-12-07 08:00","2021","12","07","08:00","-29.2","","-32.5","","73","","","","5","","3","","9.7","","99.48","","","","-33","","Snow"
"-85.81","79.99","EUREKA A","2401203","2021-12-07 09:00","2021","12","07","09:00","-28.6","","-31.9","","74","","","","9","","4","","6.4","","99.49","","","","-33","","Snow"
"-85.81","79.99","EUREKA A","2401203","2021-12-07 10:00","2021","12","07","10:00","-27.6","","-30.9","","74","","","","15","","4","","16.1","","99.52","","","","-32","","Snow"
"-85.81","79.99","EUREKA A","2401203","2021-12-07 11:00","2021","12","07","11:00","-28.1","","-31.4","","74","","","","12","","7","","6.4","","99.53","","","","-35","","Snow"
"-85.81","79.99","EUREKA A","2401203","2021-12-07 12:00","2021","12","07","12:00","-28.4","","-31.8","","74","","","","8","","7","","24.1","","99.54","","","","-35","","Snow"
"-85.81","79.99","EUREKA A","2401203","2021-12-07 13:00","2021","12","07","13:00","-28.3","","-31.7","","73","","","","15","","12","","24.1","","99.56","","","","-38","","NA"
"-85.81","79.99","EUREKA A","2401203","2021-12-07 14:00","2021","12","07","14:00","-29.6","","-33.0","","73","","","","5","","4","","24.1","","99.58","","","","-34","","NA"
"-85.81","79.99","EUREKA A","2401203","2021-12-07 15:00","2021","12","07","15:00","-29.8","","-33.3","","73","","","","36","","2","","24.1","","99.56","","","","-32","","Clear"
"-85.81","79.99","EUREKA A","2401203","2021-12-07 16:00","2021","12","07","16:00","-28.3","","-31.6","","74","","","","28","","5","","24.1","","99.58","","","","-34","","NA"
"-85.81","79.99","EUREKA A","2401203","2021-12-07 17:00","2021","12","07","17:00","-27.9","","-31.2","","74","","","","24","","4","","24.1","","99.55","","","","-32","","NA"
"-85.81","79.99","EUREKA A","2401203","2021-12-07 18:00","2021","12","07","18:00","-28.1","","-31.4","","74","","","","36","","1","","24.1","","99.50","","","","-29","","Mainly Clear"
"-85.81","79.99","EUREKA A","2401203","2021-12-07 19:00","2021","12","07","19:00","-28.5","","-31.9","","74","","","","29","","5","","24.1","","99.44","","","","-34","","NA"
"-85.81","79.99","EUREKA A","2401203","2021-12-07 20:00","2021","12","07","20:00","-29.1","","-32.5","","73","","","","","","0","","24.1","","99.45","","","","","","NA"
"-85.81","79.99","EUREKA A","2401203","2021-12-07 21:00","2021","12","07","21:00","-30.0","","-33.5","","73","","","","36","","1","","24.1","","99.41","","","","-31","","Clear"
"-85.81","79.99","EUREKA A","2401203","2021-12-07 22:00","2021","12","07","22:00"
"-85.81","79.99","EUREKA A","2401203","2021-12-07 23:00","2021","12","07","23:00"
"-85.81","79.99","EUREKA A","2401203","2021-12-08 00:00","2021","12","08","00:00","-31.0","","-34.5","","72","","","","6","","4","","24.1","","99.32","","","","-36","","Ice Crystals"
"-85.81","79.99","EUREKA A","2401203","2021-12-08 01:00","2021","12","08","01:00","-28.6","","-31.9","","74","","","","17","","4","","24.1","","99.26","","","","-33","","Ice Crystals"
"-85.81","79.99","EUREKA A","2401203","2021-12-08 02:00","2021","12","08","02:00","-31.6","","-35.1","","72","","","","36","","1","","24.1","","99.23","","","","-33","","Ice Crystals"
"-85.81","79.99","EUREKA A","2401203","2021-12-08 03:00","2021","12","08","03:00","-31.4","","-34.9","","72","","","","4","","5","","24.1","","99.14","","","","-37","","Ice Crystals"
"-85.81","79.99","EUREKA A","2401203","2021-12-08 04:00","2021","12","08","04:00","-30.6","","-34.0","","73","","","","36","","2","","24.1","","99.08","","","","-33","","NA"
"-85.81","79.99","EUREKA A","2401203","2021-12-08 05:00","2021","12","08","05:00","-30.0","","-33.4","","73","","","","1","","4","","24.1","","98.98","","","","-35","","NA"
"-85.81","79.99","EUREKA A","2401203","2021-12-08 06:00","2021","12","08","06:00","-30.5","","-34.0","","72","","","","31","","5","","24.1","","98.89","","","","-36","","Ice Crystals"
"-85.81","79.99","EUREKA A","2401203","2021-12-08 07:00","2021","12","08","07:00","-30.3","","-33.7","","73","","","","28","","7","","24.1","","98.80","","","","-38","","Ice Crystals"
"-85.81","79.99","EUREKA A","2401203","2021-12-08 08:00","2021","12","08","08:00","-29.6","","-33.0","","73","","","","30","","9","","24.1","","98.69","","","","-38","","Ice Crystals"
"-85.81","79.99","EUREKA A","2401203","2021-12-08 09:00","2021","12","08","09:00","-29.5","","-32.9","","73","","","","32","","4","","24.1","","98.60","","","","-34","","Ice Crystals"
"-85.81","79.99","EUREKA A","2401203","2021-12-08 10:00","2021","12","08","10:00","-29.0","","-32.4","","73","","","","29","","17","","24.1","","98.52","","","","-41","","Ice Crystals"
"-85.81","79.99","EUREKA A","2401203","2021-12-08 11:00","2021","12","08","11:00","-24.9","","-28.0","","76","","","","29","","17","","24.1","","98.45","","","","-36","","Ice Crystals"
"-85.81","79.99","EUREKA A","2401203","2021-12-08 12:00","2021","12","08","12:00","-22.8","","-25.6","","78","","","","29","","12","","24.1","","98.38","","","","-31","","Ice Crystals"
"-85.81","79.99","EUREKA A","2401203","2021-12-08 13:00","2021","12","08","13:00","-23.2","","-26.1","","78","","","","29","","17","","24.1","","98.32","","","","-34","","Ice Crystals"
"-85.81","79.99","EUREKA A","2401203","2021-12-08 14:00","2021","12","08","14:00","-21.8","","-24.5","","79","","","","28","","17","","24.1","","98.24","","","","-32","","Ice Crystals"
"-85.81","79.99","EUREKA A","2401203","2021-12-08 15:00","2021","12","08","15:00","-22.3","","-25.1","","78","","","","29","","16","","24.1","","98.16","","","","-32","","Ice Crystals"
"-85.81","79.99","EUREKA A","2401203","2021-12-08 16:00","2021","12","08","16:00","-19.1","","-21.6","","81","","","","27","","16","","24.1","","98.10","","","","-28","","Ice Crystals"
"-85.81","79.99","EUREKA A","2401203","2021-12-08 17:00","2021","12","08","17:00","-20.6","","-23.1","","80","","","","26","","12","","24.1","","98.07","","","","-29","","Ice Crystals"
"-85.81","79.99","EUREKA A","2401203","2021-12-08 18:00","2021","12","08","18:00","-22.9","","-25.7","","78","","","","20","","8","","24.1","","98.03","","","","-30","","Ice Crystals"
"-85.81","79.99","EUREKA A","2401203","2021-12-08 19:00","2021","12","08","19:00","-23.9","","-26.7","","78","","","","20","","5","","24.1","","97.98","","","","-29","","Ice Crystals"
"-85.81","79.99","EUREKA A","2401203","2021-12-08 20:00","2021","12","08","20:00","-26.2","","-29.4","","75","","","","13","","22","","24.1","","97.98","","","","-39","","Ice Crystals"
"-85.81","79.99","EUREKA A","2401203","2021-12-08 21:00","2021","12","08","21:00","-27.2","","-30.4","","75","","","","9","","7","","19.3","","98.05","","","","-34","","Ice Crystals"
"-85.81","79.99","EUREKA A","2401203","2021-12-08 22:00","2021","12","08","22:00"
"-85.81","79.99","EUREKA A","2401203","2021-12-08 23:00","2021","12","08","23:00"
"-85.81","79.99","EUREKA A","2401203","2021-12-09 00:00","2021","12","09","00:00","-26.2","","-29.3","","76","","","","14","","20","","24.1","","98.17","","","","-38","","Ice Crystals"
"-85.81","79.99","EUREKA A","2401203","2021-12-09 01:00","2021","12","09","01:00","-25.3","","-28.3","","76","","","","14","","25","","24.1","","98.21","","","","-38","","Ice Crystals"
"-85.81","79.99","EUREKA A","2401203","2021-12-09 02:00","2021","12","09","02:00","-24.4","","-27.4","","77","","","","13","","28","","24.1","","98.26","","","","-38","","Ice Crystals"
"-85.81","79.99","EUREKA A","2401203","2021-12-09 03:00","2021","12","09","03:00","-24.3","","-27.3","","77","","","","14","","23","","24.1","","98.32","","","","-37","","Ice Crystals"
"-85.81","79.99","EUREKA A","2401203","2021-12-09 04:00","2021","12","09","04:00","-23.8","","-26.7","","77","","","","13","","23","","24.1","","98.37","","","","-36","","Ice Crystals"
"-85.81","79.99","EUREKA A","2401203","2021-12-09 05:00","2021","12","09","05:00","-24.7","","-27.6","","77","","","","15","","15","","24.1","","98.46","","","","-35","","Ice Crystals"
"-85.81","79.99","EUREKA A","2401203","2021-12-09 06:00","2021","12","09","06:00","-24.6","","-27.5","","77","","","","11","","4","","24.1","","98.49","","","","-29","","Ice Crystals"
"-85.81","79.99","EUREKA A","2401203","2021-12-09 07:00","2021","12","09","07:00","-28.5","","-31.9","","73","","","","17","","12","","22.5","","98.58","","","","-38","","Ice Crystals"
"-85.81","79.99","EUREKA A","2401203","2021-12-09 08:00","2021","12","09","08:00","-27.0","","-30.1","","76","","","","15","","7","","24.1","","98.65","","","","-34","","Ice Crystals"
"-85.81","79.99","EUREKA A","2401203","2021-12-09 09:00","2021","12","09","09:00","-27.9","","-31.1","","74","","","","36","","2","","24.1","","98.73","","","","-30","","Ice Crystals"
"-85.81","79.99","EUREKA A","2401203","2021-12-09 10:00","2021","12","09","10:00","-27.6","","-30.8","","75","","","","10","","7","","24.1","","98.80","","","","-34","","Ice Crystals"
"-85.81","79.99","EUREKA A","2401203","2021-12-09 11:00","2021","12","09","11:00","-28.2","","-31.5","","74","","","","7","","4","","24.1","","98.85","","","","-33","","Snow"
"-85.81","79.99","EUREKA A","2401203","2021-12-09 12:00","2021","12","09","12:00","-26.7","","-29.9","","76","","","","36","","3","","24.1","","98.94","","","","-30","","Snow"
"-85.81","79.99","EUREKA A","2401203","2021-12-09 13:00","2021","12","09","13:00","-25.4","","-28.5","","76","","","","27","","5","","24.1","","98.99","","","","-30","","Snow"
"-85.81","79.99","EUREKA A","2401203","2021-12-09 14:00","2021","12","09","14:00","-24.8","","-27.8","","77","","","","23","","4","","24.1","","99.04","","","","-29","","Snow"
"-85.81","79.99","EUREKA A","2401203","2021-12-09 15:00","2021","12","09","15:00","-24.6","","-27.6","","77","","","","36","","2","","24.1","","99.09","","","","-27","","Snow"
"-85.81","79.99","EUREKA A","2401203","2021-12-09 16:00","2021","12","09","16:00","-23.9","","-26.8","","77","","","","3","","4","","24.1","","99.16","","","","-28","","Snow"
"-85.81","79.99","EUREKA A","2401203","2021-12-09 17:00","2021","12","09","17:00","-24.8","","-27.8","","77","","","","33","","5","","24.1","","99.19","","","","-30","","Snow"
"-85.81","79.99","EUREKA A","2401203","2021-12-09 18:00","2021","12","09","18:00","-23.8","","-26.7","","77","","","","","","0","","24.1","","99.24","","","","","","Snow"
"-85.81","79.99","EUREKA A","2401203","2021-12-09 19:00","2021","12","09","19:00","-24.6","","-27.6","","77","","","","18","","5","","24.1","","99.28","","","","-29","","Snow"
"-85.81","79.99","EUREKA A","2401203","2021-12-09 20:00","2021","12","09","20:00","-24.1","","-27.0","","77","","","","36","","2","","24.1","","99.33","","","","-26","","Snow"
"-85.81","79.99","EUREKA A","2401203","2021-12-09 21:00","2021","12","09","21:00","-24.3","","-27.2","","77","","","","36","","2","","24.1","","99.35","","","","-26","","Snow"
"-85.81","79.99","EUREKA A","2401203","2021-12-09 22:00","2021","12","09","22:00"
"-85.81","79.99","EUREKA A","2401203","2021-12-09 23:00","2021","12","09","23:00"
"-85.81","79.99","EUREKA A","2401203","2021-12-10 00:00","2021","12","10","00:00","-24.2","","-27.2","","77","","","","34","","6","","24.1","","99.46","","","","-30","","Snow"
"-85.81","79.99","EUREKA A","2401203","2021-12-10 01:00","2021","12","10","01:00","-24.1","","-27.0","","77","","","","35","","4","","24.1","","99.50","","","","-28","","Snow"
"-85.81","79.99","EUREKA A","2401203","2021-12-10 02:00","2021","12","10","02:00","-23.7","","-26.6","","78","","","","2","","3","","24.1","","99.55","","","","-27","","Snow"
"-85.81","79.99","EUREKA A","2401203","2021-12-10 03:00","2021","12","10","03:00","-23.3","","-26.2","","78","","","","2","","5","","24.1","","99.57","","","","-28","","Snow"
"-85.81","79.99","EUREKA A","2401203","2021-12-10 04:00","2021","12","10","04:00","-24.1","","-27.1","","77","","","","30","","5","","24.1","","99.59","","","","-29","","Snow"
"-85.81","79.99","EUREKA A","2401203","2021-12-10 05:00","2021","12","10","05:00","-24.1","","-27.0","","77","","","","7","","4","","24.1","","99.61","","","","-28","","Snow"
"-85.81","79.99","EUREKA A","2401203","2021-12-10 06:00","2021","12","10","06:00","-24.2","","-27.1","","77","","","","4","","3","","24.1","","99.60","","","","-27","","Cloudy"
"-85.81","79.99","EUREKA A","2401203","2021-12-10 07:00","2021","12","10","07:00","-23.6","","-26.5","","78","","","","36","","2","","24.1","","99.62","","","","-26","","Snow"
"-85.81","79.99","EUREKA A","2401203","2021-12-10 08:00","2021","12","10","08:00","-23.6","","-26.4","","78","","","","36","","4","","24.1","","99.62","","","","-27","","Snow"
"-85.81","79.99","EUREKA A","2401203","2021-12-10 09:00","2021","12","10","09:00","-23.4","","-26.3","","78","","","","5","","3","","24.1","","99.62","","","","-26","","Snow"
"-85.81","79.99","EUREKA A","2401203","2021-12-10 10:00","2021","12","10","10:00","-23.0","","-25.8","","78","","","","36","","3","","24.1","","99.64","","","","-26","","Snow"
"-85.81","79.99","EUREKA A","2401203","2021-12-10 11:00","2021","12","10","11:00","-23.4","","-26.3","","78","","","","7","","3","","24.1","","99.64","","","","-26","","Snow"
"-85.81","79.99","EUREKA A","2401203","2021-12-10 12:00","2021","12","10","12:00","-22.9","","-25.8","","78","","","","36","","2","","24.1","","99.65","","","","-25","","Snow"
"-85.81","79.99","EUREKA A","2401203","2021-12-10 13:00","2021","12","10","13:00","-22.8","","-25.6","","78","","","","36","","2","","24.1","","99.64","","","","-25","","Snow"
"-85.81","79.99","EUREKA A","2401203","2021-12-10 14:00","2021","12","10","14:00","-23.0","","-25.8","","78","","","","6","","5","","24.1","","99.66","","","","-28","","Snow"
"-85.81","79.99","EUREKA A","2401203","2021-12-10 15:00","2021","12","10","15:00","-22.9","","-25.8","","78","","","","36","","1","","24.1","","99.67","","","","-24","","Snow"
"-85.81","79.99","EUREKA A","2401203","2021-12-10 16:00","2021","12","10","16:00","-22.9","","-25.7","","78","","","","36","","2","","24.1","","99.69","","","","-25","","Snow"
"-85.81","79.99","EUREKA A","2401203","2021-12-10 17:00","2021","12","10","17:00","-22.8","","-25.7","","78","","","","36","","1","","24.1","","99.70","","","","-24","","Snow"
"-85.81","79.99","EUREKA A","2401203","2021-12-10 18:00","2021","12","10","18:00","-22.6","","-25.3","","79","","","","36","","1","","24.1","","99.68","","","","-24","","Snow"
"-85.81","79.99","EUREKA A","2401203","2021-12-10 19:00","2021","12","10","19:00","-22.9","","-25.8","","78","","","","36","","3","","24.1","","99.66","","","","-26","","Snow"
"-85.81","79.99","EUREKA A","2401203","2021-12-10 20:00","2021","12","10","20:00","-22.6","","-25.3","","79","","","","3","","3","","24.1","","99.66","","","","-25","","Snow"
"-85.81","79.99","EUREKA A","2401203","2021-12-10 21:00","2021","12","10","21:00","-22.8","","-25.6","","78","","","","32","","3","","24.1","","99.64","","","","-26","","Snow"
"-85.81","79.99","EUREKA A","2401203","2021-12-10 22:00","2021","12","10","22:00"
"-85.81","79.99","EUREKA A","2401203","2021-12-10 23:00","2021","12","10","23:00"
"-85.81","79.99","EUREKA A","2401203","2021-12-11 00:00","2021","12","11","00:00","-22.3","","-25.1","","79","","","","36","","3","","24.1","","99.64","","","","-25","","Snow"
"-85.81","79.99","EUREKA A","2401203","2021-12-11 01:00","2021","12","11","01:00","-22.5","","-25.3","","79","","","","32","","4","","24.1","","99.64","","","","-26","","Snow"
"-85.81","79.99","EUREKA A","2401203","2021-12-11 02:00","2021","12","11","02:00","-22.2","","-24.9","","79","","","","26","","8","","24.1","","99.64","","","","-29","","Snow"
"-85.81","79.99","EUREKA A","2401203","2021-12-11 03:00","2021","12","11","03:00","-22.3","","-25.1","","79","","","","30","","5","","24.1","","99.64","","","","-27","","Snow"
"-85.81","79.99","EUREKA A","2401203","2021-12-11 04:00","2021","12","11","04:00","-22.5","","-25.2","","79","","","","35","","4","","24.1","","99.66","","","","-26","","Snow"
"-85.81","79.99","EUREKA A","2401203","2021-12-11 05:00","2021","12","11","05:00","-22.4","","-25.1","","79","","","","33","","9","","24.1","","99.65","","","","-30","","Snow"
"-85.81","79.99","EUREKA A","2401203","2021-12-11 06:00","2021","12","11","06:00","-22.3","","-25.1","","79","","","","36","","4","","24.1","","99.63","","","","-26","","Snow"
"-85.81","79.99","EUREKA A","2401203","2021-12-11 07:00","2021","12","11","07:00","-22.1","","-24.8","","79","","","","36","","1","","24.1","","99.63","","","","-23","","Snow"
"-85.81","79.99","EUREKA A","2401203","2021-12-11 08:00","2021","12","11","08:00","-22.3","","-25.0","","79","","","","0","","1","","24.1","","99.62","","","","-23","","Snow"
"-85.81","79.99","EUREKA A","2401203","2021-12-11 09:00","2021","12","11","09:00","-22.3","","-25.1","","79","","","","36","","1","","24.1","","99.62","","","","-23","","Snow"
"-85.81","79.99","EUREKA A","2401203","2021-12-11 10:00","2021","12","11","10:00","-22.1","","-24.8","","79","","","","3","","3","","24.1","","99.62","","","","-25","","Snow"
"-85.81","79.99","EUREKA A","2401203","2021-12-11 11:00","2021","12","11","11:00","-22.2","","-25.0","","79","","","","36","","2","","24.1","","99.61","","","","-24","","Snow"
"-85.81","79.99","EUREKA A","2401203","2021-12-11 12:00","2021","12","11","12:00","-22.2","","-25.0","","79","","","","36","","1","","24.1","","99.63","","","","-23","","Snow"
"-85.81","79.99","EUREKA A","2401203","2021-12-11 13:00","2021","12","11","13:00","-22.3","","-25.0","","79","","","","0","","1","","24.1","","99.62","","","","-23","","Snow"
"-85.81","79.99","EUREKA A","2401203","2021-12-11 14:00","2021","12","11","14:00","-22.5","","-25.3","","79","","","","11","","4","","24.1","","99.61","","","","-26","","Snow"
"-85.81","79.99","EUREKA A","2401203","2021-12-11 15:00","2021","12","11","15:00","-23.6","","-26.4","","78","","","","15","","4","","24.1","","99.62","","","","-27","","Snow"
"-85.81","79.99","EUREKA A","2401203","2021-12-11 16:00","2021","12","11","16:00","-24.4","","-27.4","","77","","","","17","","4","","24.1","","99.63","","","","-28","","Snow"
"-85.81","79.99","EUREKA A","2401203","2021-12-11 17:00","2021","12","11","17:00","-24.0","","-26.8","","78","","","","14","","3","","24.1","","99.62","","","","-27","","Snow"
"-85.81","79.99","EUREKA A","2401203","2021-12-11 18:00","2021","12","11","18:00","-25.3","","-28.4","","76","","","","13","","4","","24.1","","99.63","","","","-29","","Snow"
"-85.81","79.99","EUREKA A","2401203","2021-12-11 19:00","2021","12","11","19:00","-25.3","","-28.4","","76","","","","14","","6","","24.1","","99.62","","","","-31","","Snow"
"-85.81","79.99","EUREKA A","2401203","2021-12-11 20:00","2021","12","11","20:00","-25.6","","-28.6","","76","","","","36","","3","","24.1","","99.60","","","","-29","","Snow"
"-85.81","79.99","EUREKA A","2401203","2021-12-11 21:00","2021","12","11","21:00","-25.2","","-28.1","","77","","","","36","","3","","24.1","","99.61","","","","-28","","Ice Crystals"
"-85.81","79.99","EUREKA A","2401203","2021-12-11 22:00","2021","12","11","22:00"
"-85.81","79.99","EUREKA A","2401203","2021-12-11 23:00","2021","12","11","23:00"
"-85.81","79.99","EUREKA A","2401203","2021-12-12 00:00","2021","12","12","00:00","-25.8","","-28.8","","76","","","","31","","3","","24.1","","99.59","","","","-29","","Ice Crystals"
"-85.81","79.99","EUREKA A","2401203","2021-12-12 01:00","2021","12","12","01:00","-28.0","","-31.2","","75","","","","36","","1","","24.1","","99.56","","","","-29","","Ice Crystals"
"-85.81","79.99","EUREKA A","2401203","2021-12-12 02:00","2021","12","12","02:00","-29.4","","-32.7","","74","","","","31","","3","","24.1","","99.58","","","","-33","","Ice Crystals"
"-85.81","79.99","EUREKA A","2401203","2021-12-12 03:00","2021","12","12","03:00","-29.3","","-32.6","","74","","","","36","","3","","24.1","","99.61","","","","-33","","Ice Crystals"
"-85.81","79.99","EUREKA A","2401203","2021-12-12 04:00","2021","12","12","04:00","-30.5","","-33.9","","73","","","","36","","3","","24.1","","99.63","","","","-34","","Ice Crystals"
"-85.81","79.99","EUREKA A","2401203","2021-12-12 05:00","2021","12","12","05:00","-31.2","","-34.6","","72","","","","36","","3","","24.1","","99.64","","","","-35","","Ice Crystals"
"-85.81","79.99","EUREKA A","2401203","2021-12-12 06:00","2021","12","12","06:00","-29.5","","-32.8","","74","","","","15","","4","","24.1","","99.62","","","","-34","","Ice Crystals"
"-85.81","79.99","EUREKA A","2401203","2021-12-12 07:00","2021","12","12","07:00","-30.7","","-34.1","","73","","","","14","","5","","24.1","","99.63","","","","-36","","Ice Crystals"
"-85.81","79.99","EUREKA A","2401203","2021-12-12 08:00","2021","12","12","08:00","-32.8","","-36.4","","71","","","","5","","5","","24.1","","99.67","","","","-39","","Ice Crystals"
"-85.81","79.99","EUREKA A","2401203","2021-12-12 09:00","2021","12","12","09:00","-30.2","","-33.5","","73","","","","15","","3","","24.1","","99.64","","","","-34","","Ice Crystals"
"-85.81","79.99","EUREKA A","2401203","2021-12-12 10:00","2021","12","12","10:00","-30.5","","-33.9","","73","","","","36","","1","","24.1","","99.66","","","","-32","","Ice Crystals"
"-85.81","79.99","EUREKA A","2401203","2021-12-12 11:00","2021","12","12","11:00","-30.5","","-33.9","","73","","","","36","","2","","24.1","","99.66","","","","-33","","Ice Crystals"
"-85.81","79.99","EUREKA A","2401203","2021-12-12 12:00","2021","12","12","12:00","-32.2","","-35.7","","72","","","","13","","8","","24.1","","99.66","","","","-41","","Ice Crystals"
"-85.81","79.99","EUREKA A","2401203","2021-12-12 13:00","2021","12","12","13:00","-32.6","","-36.1","","72","","","","4","","5","","24.1","","99.67","","","","-39","","Ice Crystals"
"-85.81","79.99","EUREKA A","2401203","2021-12-12 14:00","2021","12","12","14:00","-29.8","","-33.1","","73","","","","10","","4","","24.1","","99.68","","","","-34","","Ice Crystals"
"-85.81","79.99","EUREKA A","2401203","2021-12-12 15:00","2021","12","12","15:00","-31.4","","-34.9","","72","","","","36","","2","","24.1","","99.69","","","","-34","","Ice Crystals"
"-85.81","79.99","EUREKA A","2401203","2021-12-12 16:00","2021","12","12","16:00","-32.2","","-35.7","","72","","","","7","","5","","24.1","","99.69","","","","-38","","Ice Crystals"
"-85.81","79.99","EUREKA A","2401203","2021-12-12 17:00","2021","12","12","17:00","-31.1","","-34.5","","73","","","","36","","1","","24.1","","99.69","","","","-32","","Ice Crystals"
"-85.81","79.99","EUREKA A","2401203","2021-12-12 18:00","2021","12","12","18:00","-33.0","","-36.5","","71","","","","7","","3","","24.1","","99.69","","","","-37","","Ice Crystals"
"-85.81","79.99","EUREKA A","2401203","2021-12-12 19:00","2021","12","12","19:00","-34.5","","-38.2","","70","","","","36","","3","","24.1","","99.70","","","","-38","","Ice Crystals"
"-85.81","79.99","EUREKA A","2401203","2021-12-12 20:00","2021","12","12","20:00","-32.6","","-36.1","","72","","","","36","","1","","24.1","","99.70","","","","-34","","Ice Crystals"
"-85.81","79.99","EUREKA A","2401203","2021-12-12 21:00","2021","12","12","21:00","-32.9","","-36.5","","71","","","","36","","1","","24.1","","99.69","","","","-34","","Ice Crystals"
"-85.81","79.99","EUREKA A","2401203","2021-12-12 22:00","2021","12","12","22:00"
"-85.81","79.99","EUREKA A","2401203","2021-12-12 23:00","2021","12","12","23:00"
"-85.81","79.99","EUREKA A","2401203","2021-12-13 00:00","2021","12","13","00:00","-34.3","","-37.9","","70","","","","36","","2","","24.1","","99.60","","","","-37","","Ice Crystals"
"-85.81","79.99","EUREKA A","2401203","2021-12-13 01:00","2021","12","13","01:00","-33.7","","-37.3","","71","","","","12","","3","","19.3","","99.59","","","","-37","","Ice Crystals"
"-85.81","79.99","EUREKA A","2401203","2021-12-13 02:00","2021","12","13","02:00","-34.7","","-38.3","","70","","","","36","","2","","12.9","","99.58","","","","-37","","Ice Crystals"
"-85.81","79.99","EUREKA A","2401203","2021-12-13 03:00","2021","12","13","03:00","-34.8","","-38.6","","70","","","","11","","4","","19.3","","99.56","","","","-40","","Ice Crystals"
"-85.81","79.99","EUREKA A","2401203","2021-12-13 04:00","2021","12","13","04:00","-34.7","","-38.4","","70","","","","7","","4","","12.9","","99.53","","","","-40","","Ice Crystals"
"-85.81","79.99","EUREKA A","2401203","2021-12-13 05:00","2021","12","13","05:00","-34.5","","-38.1","","70","","","","36","","2","","19.3","","99.49","","","","-37","","Ice Crystals"
"-85.81","79.99","EUREKA A","2401203","2021-12-13 06:00","2021","12","13","06:00","-34.9","","-38.6","","70","","","","36","","3","","6.4","","99.41","","","","-39","","Ice Crystals"
"-85.81","79.99","EUREKA A","2401203","2021-12-13 07:00","2021","12","13","07:00","-35.1","","-38.8","","70","","","","6","","6","","6.4","","99.36","","","","-42","","Ice Crystals"
"-85.81","79.99","EUREKA A","2401203","2021-12-13 08:00","2021","12","13","08:00","-35.2","","-39.0","","70","","","","21","","5","","6.4","","99.31","","","","-42","","Ice Crystals"
"-85.81","79.99","EUREKA A","2401203","2021-12-13 09:00","2021","12","13","09:00","-34.2","","-37.8","","70","","","","15","","5","","6.4","","99.27","","","","-40","","Ice Crystals"
"-85.81","79.99","EUREKA A","2401203","2021-12-13 10:00","2021","12","13","10:00","-34.2","","-37.8","","71","","","","36","","1","","12.9","","99.22","","","","-35","","Ice Crystals"
"-85.81","79.99","EUREKA A","2401203","2021-12-13 11:00","2021","12","13","11:00","-34.2","","-37.8","","70","","","","36","","3","","12.9","","99.17","","","","-38","","Ice Crystals"
"-85.81","79.99","EUREKA A","2401203","2021-12-13 12:00","2021","12","13","12:00","-33.4","","-37.0","","71","","","","19","","8","","24.1","","99.14","","","","-42","","Ice Crystals"
"-85.81","79.99","EUREKA A","2401203","2021-12-13 13:00","2021","12","13","13:00","-35.5","","-39.2","","70","","","","3","","3","","24.1","","99.09","","","","-39","","Ice Crystals"
"-85.81","79.99","EUREKA A","2401203","2021-12-13 14:00","2021","12","13","14:00","-35.1","","-38.8","","70","","","","7","","5","","24.1","","99.06","","","","-41","","Ice Crystals"
"-85.81","79.99","EUREKA A","2401203","2021-12-13 15:00","2021","12","13","15:00","-34.4","","-38.1","","70","","","","3","","3","","12.9","","99.01","","","","-38","","Ice Crystals"
"-85.81","79.99","EUREKA A","2401203","2021-12-13 16:00","2021","12","13","16:00","-35.6","","-39.3","","69","","","","11","","5","","12.9","","98.99","","","","-42","","Ice Crystals"
"-85.81","79.99","EUREKA A","2401203","2021-12-13 17:00","2021","12","13","17:00","-35.9","","-39.7","","69","","","","13","","9","","9.7","","98.96","","","","-46","","Ice Crystals"
"-85.81","79.99","EUREKA A","2401203","2021-12-13 18:00","2021","12","13","18:00","-35.0","","-38.7","","70","","","","12","","3","","12.9","","98.91","","","","-39","","Ice Crystals"
"-85.81","79.99","EUREKA A","2401203","2021-12-13 19:00","2021","12","13","19:00","-35.9","","-39.6","","69","","","","36","","2","","12.9","","98.86","","","","-38","","Ice Crystals"
"-85.81","79.99","EUREKA A","2401203","2021-12-13 20:00","2021","12","13","20:00","-36.4","","-40.1","","69","","","","10","","8","","12.9","","98.82","","","","-45","","Ice Crystals"
"-85.81","79.99","EUREKA A","2401203","2021-12-13 21:00","2021","12","13","21:00","-36.2","","-40.0","","69","","","","7","","8","","12.9","","98.80","","","","-45","","Ice Crystals"
"-85.81","79.99","EUREKA A","2401203","2021-12-13 22:00","2021","12","13","22:00"
"-85.81","79.99","EUREKA A","2401203","2021-12-13 23:00","2021","12","13","23:00"
"-85.81","79.99","EUREKA A","2401203","2021-12-14 00:00","2021","12","14","00:00","-34.8","","-38.6","","70","","","","13","","8","","24.1","","98.71","","","","-44","","Ice Crystals"
"-85.81","79.99","EUREKA A","2401203","2021-12-14 01:00","2021","12","14","01:00","-34.7","","-38.4","","70","","","","13","","7","","24.1","","98.72","","","","-43","","Ice Crystals"
"-85.81","79.99","EUREKA A","2401203","2021-12-14 02:00","2021","12","14","02:00","-33.5","","-37.1","","70","","","","36","","3","","24.1","","98.71","","","","-37","","Ice Crystals"
"-85.81","79.99","EUREKA A","2401203","2021-12-14 03:00","2021","12","14","03:00","-32.9","","-36.5","","71","","","","10","","7","","24.1","","98.69","","","","-41","","Ice Crystals"
"-85.81","79.99","EUREKA A","2401203","2021-12-14 04:00","2021","12","14","04:00","-33.7","","-37.4","","70","","","","8","","6","","19.3","","98.69","","","","-41","","Ice Crystals"
"-85.81","79.99","EUREKA A","2401203","2021-12-14 05:00","2021","12","14","05:00","-30.9","","-34.4","","73","","","","36","","3","","16.1","","98.69","","","","-34","","Ice Crystals"
"-85.81","79.99","EUREKA A","2401203","2021-12-14 06:00","2021","12","14","06:00","-30.9","","-34.4","","72","","","","9","","3","","19.3","","98.67","","","","-34","","Snow"
"-85.81","79.99","EUREKA A","2401203","2021-12-14 07:00","2021","12","14","07:00","-30.7","","-34.1","","72","","","","7","","3","","19.3","","98.66","","","","-34","","Snow"
"-85.81","79.99","EUREKA A","2401203","2021-12-14 08:00","2021","12","14","08:00","-31.0","","-34.5","","72","","","","5","","8","","12.9","","98.68","","","","-39","","Snow"
"-85.81","79.99","EUREKA A","2401203","2021-12-14 09:00","2021","12","14","09:00","-29.8","","-33.2","","73","","","","14","","9","","9.7","","98.69","","","","-38","","Snow"
"-85.81","79.99","EUREKA A","2401203","2021-12-14 10:00","2021","12","14","10:00","-29.1","","-32.5","","73","","","","13","","9","","9.7","","98.69","","","","-38","","Snow"
"-85.81","79.99","EUREKA A","2401203","2021-12-14 11:00","2021","12","14","11:00","-29.2","","-32.6","","73","","","","36","","2","","12.9","","98.72","","","","-31","","Ice Crystals"
"-85.81","79.99","EUREKA A","2401203","2021-12-14 12:00","2021","12","14","12:00","-30.6","","-34.1","","72","","","","5","","4","","12.9","","98.73","","","","-35","","Snow"
"-85.81","79.99","EUREKA A","2401203","2021-12-14 13:00","2021","12","14","13:00","-28.7","","-32.0","","74","","","","7","","4","","12.9","","98.74","","","","-33","","Snow"
"-85.81","79.99","EUREKA A","2401203","2021-12-14 14:00","2021","12","14","14:00","-29.9","","-33.3","","73","","","","12","","8","","24.1","","98.79","","","","-38","","Snow"
"-85.81","79.99","EUREKA A","2401203","2021-12-14 15:00","2021","12","14","15:00","-29.3","","-32.7","","73","","","","8","","7","","12.9","","98.87","","","","-36","","Snow"
"-85.81","79.99","EUREKA A","2401203","2021-12-14 16:00","2021","12","14","16:00","-27.9","","-31.1","","74","","","","36","","3","","12.9","","98.90","","","","-31","","Snow"
"-85.81","79.99","EUREKA A","2401203","2021-12-14 17:00","2021","12","14","17:00","-27.8","","-31.1","","74","","","","7","","4","","12.9","","98.93","","","","-32","","NA"
"-85.81","79.99","EUREKA A","2401203","2021-12-14 18:00","2021","12","14","18:00","-27.4","","-30.7","","74","","","","36","","3","","12.9","","98.95","","","","-31","","Snow"
"-85.81","79.99","EUREKA A","2401203","2021-12-14 19:00","2021","12","14","19:00","-27.5","","-30.7","","74","","","","4","","4","","12.9","","98.97","","","","-32","","Snow"
"-85.81","79.99","EUREKA A","2401203","2021-12-14 20:00","2021","12","14","20:00","-28.5","","-31.9","","73","","","","36","","2","","12.9","","99.05","","","","-31","","Snow"
"-85.81","79.99","EUREKA A","2401203","2021-12-14 21:00","2021","12","14","21:00","-28.8","","-32.2","","73","","","","6","","6","","24.1","","99.08","","","","-35","","Snow"
"-85.81","79.99","EUREKA A","2401203","2021-12-14 22:00","2021","12","14","22:00"
"-85.81","79.99","EUREKA A","2401203","2021-12-14 23:00","2021","12","14","23:00"
"-85.81","79.99","EUREKA A","2401203","2021-12-15 00:00","2021","12","15","00:00","-26.9","","-30.1","","75","","","","25","","5","","19.3","","99.20","","","","-32","","Snow"
"-85.81","79.99","EUREKA A","2401203","2021-12-15 01:00","2021","12","15","01:00","-27.1","","-30.3","","75","","","","4","","5","","19.3","","99.24","","","","-32","","Snow"
"-85.81","79.99","EUREKA A","2401203","2021-12-15 02:00","2021","12","15","02:00","-27.2","","-30.4","","75","","","","36","","2","","24.1","","99.28","","","","-29","","Snow"
"-85.81","79.99","EUREKA A","2401203","2021-12-15 03:00","2021","12","15","03:00","-27.9","","-31.1","","74","","","","29","","3","","24.1","","99.35","","","","-31","","Snow"
"-85.81","79.99","EUREKA A","2401203","2021-12-15 04:00","2021","12","15","04:00","-27.6","","-30.9","","75","","","","11","","5","","24.1","","99.38","","","","-33","","Snow"
"-85.81","79.99","EUREKA A","2401203","2021-12-15 05:00","2021","12","15","05:00","-28.5","","-31.8","","74","","","","7","","5","","24.1","","99.42","","","","-34","","Snow"
"-85.81","79.99","EUREKA A","2401203","2021-12-15 06:00","2021","12","15","06:00","-28.7","","-32.0","","74","","","","5","","5","","24.1","","99.45","","","","-34","","Snow"
"-85.81","79.99","EUREKA A","2401203","2021-12-15 07:00","2021","12","15","07:00","-28.6","","-31.9","","74","","","","7","","10","","24.1","","99.46","","","","-37","","Snow"
"-85.81","79.99","EUREKA A","2401203","2021-12-15 08:00","2021","12","15","08:00","-28.0","","-31.3","","74","","","","25","","9","","19.3","","99.53","","","","-36","","Ice Crystals"
"-85.81","79.99","EUREKA A","2401203","2021-12-15 09:00","2021","12","15","09:00","-27.9","","-31.2","","74","","","","24","","16","","8.1","","99.55","","","","-39","","Snow,Blowing Snow"
"-85.81","79.99","EUREKA A","2401203","2021-12-15 10:00","2021","12","15","10:00","-28.5","","-31.8","","74","","","","26","","17","","9.7","","99.59","","","","-40","","Snow,Blowing Snow"
"-85.81","79.99","EUREKA A","2401203","2021-12-15 11:00","2021","12","15","11:00","-28.9","","-32.2","","74","","","","29","","15","","12.9","","99.65","","","","-40","","Snow,Blowing Snow"
"-85.81","79.99","EUREKA A","2401203","2021-12-15 12:00","2021","12","15","12:00","-29.0","","-32.3","","74","","","","34","","20","","12.9","","99.67","","","","-42","","Snow,Blowing Snow"
"-85.81","79.99","EUREKA A","2401203","2021-12-15 13:00","2021","12","15","13:00","-29.3","","-32.7","","73","","","","26","","9","","12.9","","99.72","","","","-38","","Snow,Blowing Snow"
"-85.81","79.99","EUREKA A","2401203","2021-12-15 14:00","2021","12","15","14:00","-29.1","","-32.5","","73","","","","21","","7","","12.9","","99.77","","","","-36","","Snow,Blowing Snow"
"-85.81","79.99","EUREKA A","2401203","2021-12-15 15:00","2021","12","15","15:00","-29.3","","-32.7","","73","","","","5","","12","","12.9","","99.81","","","","-39","","Snow,Blowing Snow"
"-85.81","79.99","EUREKA A","2401203","2021-12-15 16:00","2021","12","15","16:00","-29.0","","-32.3","","74","","","","33","","16","","12.9","","99.87","","","","-41","","Snow,Blowing Snow"
"-85.81","79.99","EUREKA A","2401203","2021-12-15 17:00","2021","12","15","17:00","-28.1","","-31.4","","74","","","","27","","14","","12.9","","99.88","","","","-39","","Snow,Blowing Snow"
"-85.81","79.99","EUREKA A","2401203","2021-12-15 18:00","2021","12","15","18:00","-28.4","","-31.8","","74","","","","33","","6","","12.9","","99.94","","","","-35","","Snow,Blowing Snow"
"-85.81","79.99","EUREKA A","2401203","2021-12-15 19:00","2021","12","15","19:00","-28.2","","-31.4","","74","","","","30","","10","","12.9","","99.98","","","","-37","","Snow,Blowing Snow"
"-85.81","79.99","EUREKA A","2401203","2021-12-15 20:00","2021","12","15","20:00","-28.4","","-31.6","","74","","","","0","","1","","12.9","","100.01","","","","-29","","Snow,Blowing Snow"
"-85.81","79.99","EUREKA A","2401203","2021-12-15 21:00","2021","12","15","21:00","-28.8","","-32.1","","74","","","","27","","8","","9.7","","100.05","","","","-37","","Snow,Blowing Snow"
"-85.81","79.99","EUREKA A","2401203","2021-12-15 22:00","2021","12","15","22:00"
"-85.81","79.99","EUREKA A","2401203","2021-12-15 23:00","2021","12","15","23:00"
"-85.81","79.99","EUREKA A","2401203","2021-12-16 00:00","2021","12","16","00:00","-31.7","","-35.2","","72","","","","27","","7","","19.3","","100.14","","","","-39","","Snow,Blowing Snow"
"-85.81","79.99","EUREKA A","2401203","2021-12-16 01:00","2021","12","16","01:00","-32.5","","-36.1","","71","","","","13","","14","","24.1","","100.15","","","","-44","","Snow,Blowing Snow"
"-85.81","79.99","EUREKA A","2401203","2021-12-16 02:00","2021","12","16","02:00","-31.7","","-35.3","","72","","","","14","","9","","12.9","","100.22","","","","-41","","Snow"
"-85.81","79.99","EUREKA A","2401203","2021-12-16 03:00","2021","12","16","03:00","-32.7","","-36.3","","71","","","","7","","4","","12.9","","100.25","","","","-37","","Snow"
"-85.81","79.99","EUREKA A","2401203","2021-12-16 04:00","2021","12","16","04:00","-31.9","","-35.5","","72","","","","32","","5","","19.3","","100.25","","","","-38","","Snow"
"-85.81","79.99","EUREKA A","2401203","2021-12-16 05:00","2021","12","16","05:00","-32.9","","-36.5","","71","","","","36","","2","","24.1","","100.26","","","","-35","","Snow"
"-85.81","79.99","EUREKA A","2401203","2021-12-16 06:00","2021","12","16","06:00","-32.2","","-35.7","","72","","","","34","","3","","24.1","","100.25","","","","-36","","Snow"
"-85.81","79.99","EUREKA A","2401203","2021-12-16 07:00","2021","12","16","07:00","-31.9","","-35.5","","72","","","","0","","1","","24.1","","100.23","","","","-33","","Snow"
"-85.81","79.99","EUREKA A","2401203","2021-12-16 08:00","2021","12","16","08:00","-33.8","","-37.5","","70","","","","12","","8","","24.1","","100.22","","","","-42","","Snow"
"-85.81","79.99","EUREKA A","2401203","2021-12-16 09:00","2021","12","16","09:00","-33.9","","-37.6","","70","","","","4","","7","","24.1","","100.21","","","","-42","","Snow"
"-85.81","79.99","EUREKA A","2401203","2021-12-16 10:00","2021","12","16","10:00","-34.9","","-38.7","","70","","","","13","","14","","19.3","","100.19","","","","-47","","Ice Crystals"
"-85.81","79.99","EUREKA A","2401203","2021-12-16 11:00","2021","12","16","11:00","-35.0","","-38.7","","70","","","","36","","2","","24.1","","100.17","","","","-38","","Ice Crystals"
"-85.81","79.99","EUREKA A","2401203","2021-12-16 12:00","2021","12","16","12:00","-34.2","","-37.9","","70","","","","36","","3","","24.1","","100.14","","","","-38","","Ice Crystals"
"-85.81","79.99","EUREKA A","2401203","2021-12-16 13:00","2021","12","16","13:00","-35.8","","-39.5","","69","","","","10","","3","","24.1","","100.10","","","","-40","","Ice Crystals"
"-85.81","79.99","EUREKA A","2401203","2021-12-16 14:00","2021","12","16","14:00","-35.0","","-38.7","","70","","","","36","","2","","24.1","","100.11","","","","-38","","Ice Crystals"
"-85.81","79.99","EUREKA A","2401203","2021-12-16 15:00","2021","12","16","15:00","-36.2","","-40.0","","69","","","","0","","1","","24.1","","100.08","","","","-37","","Ice Crystals"
"-85.81","79.99","EUREKA A","2401203","2021-12-16 16:00","2021","12","16","16:00","-37.1","","-40.9","","69","","","","10","","7","","24.1","","100.05","","","","-46","","Ice Crystals"
"-85.81","79.99","EUREKA A","2401203","2021-12-16 17:00","2021","12","16","17:00","-36.7","","-40.5","","69","","","","8","","5","","24.1","","100.02","","","","-43","","Ice Crystals"
"-85.81","79.99","EUREKA A","2401203","2021-12-16 18:00","2021","12","16","18:00","-36.7","","-40.5","","69","","","","36","","3","","24.1","","99.99","","","","-41","","Ice Crystals"
"-85.81","79.99","EUREKA A","2401203","2021-12-16 19:00","2021","12","16","19:00","-36.5","","-40.3","","69","","","","30","","3","","24.1","","99.96","","","","-40","","Ice Crystals"
"-85.81","79.99","EUREKA A","2401203","2021-12-16 20:00","2021","12","16","20:00","-36.6","","-40.4","","69","","","","36","","2","","24.1","","99.95","","","","-39","","Ice Crystals"
"-85.81","79.99","EUREKA A","2401203","2021-12-16 21:00","2021","12","16","21:00","-36.8","","-40.6","","69","","","","36","","1","","12.9","","99.94","","","","-38","","Ice Crystals"
"-85.81","79.99","EUREKA A","2401203","2021-12-16 22:00","2021","12","16","22:00"
"-85.81","79.99","EUREKA A","2401203","2021-12-16 23:00","2021","12","16","23:00"
"-85.81","79.99","EUREKA A","2401203","2021-12-17 00:00","2021","12","17","00:00","-34.4","","-38.1","","70","","","","10","","4","","8.1","","99.90","","","","-39","","Snow"
"-85.81","79.99","EUREKA A","2401203","2021-12-17 01:00","2021","12","17","01:00","-35.1","","-38.9","","70","","","","10","","4","","6.4","","99.92","","","","-40","","Snow"
"-85.81","79.99","EUREKA A","2401203","2021-12-17 02:00","2021","12","17","02:00","-34.0","","-37.7","","70","","","","9","","5","","9.7","","99.95","","","","-40","","Snow"
"-85.81","79.99","EUREKA A","2401203","2021-12-17 03:00","2021","12","17","03:00","-32.4","","-35.9","","71","","","","36","","2","","9.7","","100.02","","","","-35","","Snow"
"-85.81","79.99","EUREKA A","2401203","2021-12-17 04:00","2021","12","17","04:00","-32.4","","-36.0","","71","","","","8","","3","","12.9","","100.07","","","","-36","","Snow"
"-85.81","79.99","EUREKA A","2401203","2021-12-17 05:00","2021","12","17","05:00","-32.2","","-35.8","","71","","","","12","","3","","12.9","","100.12","","","","-36","","Snow"
"-85.81","79.99","EUREKA A","2401203","2021-12-17 06:00","2021","12","17","06:00","-31.4","","-35.0","","72","","","","13","","17","","16.1","","100.15","","","","-44","","Snow"
"-85.81","79.99","EUREKA A","2401203","2021-12-17 07:00","2021","12","17","07:00","-31.7","","-35.2","","71","","","","14","","18","","19.3","","100.18","","","","-45","","Snow"
"-85.81","79.99","EUREKA A","2401203","2021-12-17 08:00","2021","12","17","08:00","-31.6","","-35.2","","72","","","","14","","17","","9.7","","100.25","","","","-44","","Snow"
"-85.81","79.99","EUREKA A","2401203","2021-12-17 09:00","2021","12","17","09:00","-31.2","","-34.7","","72","","","","14","","16","","12.9","","100.32","","","","-43","","Snow"
"-85.81","79.99","EUREKA A","2401203","2021-12-17 10:00","2021","12","17","10:00","-31.1","","-34.6","","72","","","","14","","16","","9.7","","100.39","","","","-43","","Snow"
"-85.81","79.99","EUREKA A","2401203","2021-12-17 11:00","2021","12","17","11:00","-31.1","","-34.6","","72","","","","14","","15","","12.9","","100.43","","","","-43","","Snow"
"-85.81","79.99","EUREKA A","2401203","2021-12-17 12:00","2021","12","17","12:00","-31.6","","-35.1","","71","","","","14","","17","","12.9","","100.52","","","","-44","","Snow"
"-85.81","79.99","EUREKA A","2401203","2021-12-17 13:00","2021","12","17","13:00","-31.3","","-34.8","","72","","","","15","","17","","9.7","","100.60","","","","-44","","Snow,Blowing Snow"
"-85.81","79.99","EUREKA A","2401203","2021-12-17 14:00","2021","12","17","14:00","-31.8","","-35.4","","71","","","","15","","9","","6.4","","100.66","","","","-41","","Snow,Blowing Snow"
"-85.81","79.99","EUREKA A","2401203","2021-12-17 15:00","2021","12","17","15:00","-31.7","","-35.2","","72","","","","14","","16","","6.4","","100.75","","","","-44","","Snow,Blowing Snow"
"-85.81","79.99","EUREKA A","2401203","2021-12-17 16:00","2021","12","17","16:00","-33.7","","-37.4","","70","","","","14","","12","","9.7","","100.80","","","","-45","","Snow,Blowing Snow"
"-85.81","79.99","EUREKA A","2401203","2021-12-17 17:00","2021","12","17","17:00","-33.5","","-37.1","","71","","","","9","","4","","24.1","","100.88","","","","-38","","Snow"
"-85.81","79.99","EUREKA A","2401203","2021-12-17 18:00","2021","12","17","18:00","-33.9","","-37.6","","70","","","","36","","3","","24.1","","100.93","","","","-38","","Snow"
"-85.81","79.99","EUREKA A","2401203","2021-12-17 19:00","2021","12","17","19:00","-33.4","","-37.1","","71","","","","13","","4","","19.3","","100.98","","","","-38","","Snow"
"-85.81","79.99","EUREKA A","2401203","2021-12-17 20:00","2021","12","17","20:00","-33.3","","-37.0","","71","","","","36","","1","","19.3","","101.03","","","","-35","","Snow"
"-85.81","79.99","EUREKA A","2401203","2021-12-17 21:00","2021","12","17","21:00","-33.2","","-36.8","","71","","","","14","","7","","24.1","","101.08","","","","-41","","Snow"
"-85.81","79.99","EUREKA A","2401203","2021-12-17 22:00","2021","12","17","22:00"
"-85.81","79.99","EUREKA A","2401203","2021-12-17 23:00","2021","12","17","23:00"
"-85.81","79.99","EUREKA A","2401203","2021-12-18 00:00","2021","12","18","00:00","-35.9","","-39.6","","69","","","","36","","1","","24.1","","101.20","","","","-37","","Ice Crystals"
"-85.81","79.99","EUREKA A","2401203","2021-12-18 01:00","2021","12","18","01:00","-34.7","","-38.4","","70","","","","18","","4","","24.1","","101.25","","","","-40","","Ice Crystals"
"-85.81","79.99","EUREKA A","2401203","2021-12-18 02:00","2021","12","18","02:00","-37.8","","-41.7","","68","","","","7","","4","","24.1","","101.29","","","","-43","","Ice Crystals"
"-85.81","79.99","EUREKA A","2401203","2021-12-18 03:00","2021","12","18","03:00","-37.0","","-40.9","","68","","","","36","","2","","24.1","","101.34","","","","-40","","Ice Crystals"
"-85.81","79.99","EUREKA A","2401203","2021-12-18 04:00","2021","12","18","04:00","-36.5","","-40.3","","69","","","","10","","5","","24.1","","101.38","","","","-43","","Ice Crystals"
"-85.81","79.99","EUREKA A","2401203","2021-12-18 05:00","2021","12","18","05:00","-37.5","","-41.4","","68","","","","36","","1","","24.1","","101.39","","","","-39","","Ice Crystals"
"-85.81","79.99","EUREKA A","2401203","2021-12-18 06:00","2021","12","18","06:00","-36.8","","-40.6","","69","","","","9","","5","","24.1","","101.42","","","","-43","","Ice Crystals"
"-85.81","79.99","EUREKA A","2401203","2021-12-18 07:00","2021","12","18","07:00","-37.8","","-41.6","","68","","","","36","","3","","19.3","","101.43","","","","-42","","Ice Crystals"
"-85.81","79.99","EUREKA A","2401203","2021-12-18 08:00","2021","12","18","08:00","-35.8","","-39.5","","69","","","","22","","5","","24.1","","101.44","","","","-42","","Ice Crystals"
"-85.81","79.99","EUREKA A","2401203","2021-12-18 09:00","2021","12","18","09:00","-37.5","","-41.3","","68","","","","29","","3","","19.3","","101.46","","","","-41","","Ice Crystals"
"-85.81","79.99","EUREKA A","2401203","2021-12-18 10:00","2021","12","18","10:00","-39.3","","-43.3","","67","","","","","","0","","24.1","","101.45","","","","","","Ice Crystals"
"-85.81","79.99","EUREKA A","2401203","2021-12-18 11:00","2021","12","18","11:00","-38.4","","-42.2","","68","","","","36","","2","","6.4","","101.42","","","","-41","","Ice Crystals"
"-85.81","79.99","EUREKA A","2401203","2021-12-18 12:00","2021","12","18","12:00","-38.1","","-42.0","","68","","","","29","","5","","9.7","","101.44","","","","-45","","Ice Crystals"
"-85.81","79.99","EUREKA A","2401203","2021-12-18 13:00","2021","12","18","13:00","-39.3","","-43.2","","67","","","","1","","3","","12.9","","101.39","","","","-43","","Ice Crystals"
"-85.81","79.99","EUREKA A","2401203","2021-12-18 14:00","2021","12","18","14:00","-38.9","","-42.8","","68","","","","1","","5","","16.1","","101.38","","","","-46","","Ice Crystals"
"-85.81","79.99","EUREKA A","2401203","2021-12-18 15:00","2021","12","18","15:00","-38.3","","-42.2","","68","","","","26","","8","","16.1","","101.41","","","","-48","","Ice Crystals"
"-85.81","79.99","EUREKA A","2401203","2021-12-18 16:00","2021","12","18","16:00","-38.1","","-42.1","","68","","","","32","","7","","12.9","","101.38","","","","-47","","Ice Crystals"
"-85.81","79.99","EUREKA A","2401203","2021-12-18 17:00","2021","12","18","17:00","-39.8","","-43.8","","67","","","","25","","6","","6.4","","101.38","","","","-48","","Ice Crystals"
"-85.81","79.99","EUREKA A","2401203","2021-12-18 18:00","2021","12","18","18:00","-38.1","","-42.0","","68","","","","28","","10","","6.4","","101.33","","","","-49","","Ice Crystals"
"-85.81","79.99","EUREKA A","2401203","2021-12-18 19:00","2021","12","18","19:00","-38.7","","-42.6","","67","","","","28","","7","","9.7","","101.29","","","","-47","","Ice Crystals"
"-85.81","79.99","EUREKA A","2401203","2021-12-18 20:00","2021","12","18","20:00","-38.4","","-42.4","","68","","","","28","","4","","9.7","","101.26","","","","-44","","Ice Crystals"
"-85.81","79.99","EUREKA A","2401203","2021-12-18 21:00","2021","12","18","21:00","-37.9","","-41.8","","68","","","","20","","7","","12.9","","101.19","","","","-46","","Ice Crystals"
"-85.81","79.99","EUREKA A","2401203","2021-12-18 22:00","2021","12","18","22:00"
"-85.81","79.99","EUREKA A","2401203","2021-12-18 23:00","2021","12","18","23:00"
"-85.81","79.99","EUREKA A","2401203","2021-12-19 00:00","2021","12","19","00:00","-36.4","","-40.2","","69","","","","30","","7","","24.1","","101.07","","","","-45","","Ice Crystals"
"-85.81","79.99","EUREKA A","2401203","2021-12-19 01:00","2021","12","19","01:00","-35.3","","-39.1","","69","","","","27","","13","","24.1","","101.05","","","","-47","","Ice Crystals"
"-85.81","79.99","EUREKA A","2401203","2021-12-19 02:00","2021","12","19","02:00","-34.3","","-38.0","","70","","","","27","","17","","24.1","","101.01","","","","-47","","Ice Crystals"
"-85.81","79.99","EUREKA A","2401203","2021-12-19 03:00","2021","12","19","03:00","-32.5","","-36.1","","71","","","","29","","13","","24.1","","100.99","","","","-44","","Ice Crystals"
"-85.81","79.99","EUREKA A","2401203","2021-12-19 04:00","2021","12","19","04:00","-33.4","","-37.1","","70","","","","29","","15","","24.1","","100.99","","","","-46","","NA"
"-85.81","79.99","EUREKA A","2401203","2021-12-19 05:00","2021","12","19","05:00","-30.8","","-34.3","","72","","","","28","","12","","24.1","","100.97","","","","-41","","NA"
"-85.81","79.99","EUREKA A","2401203","2021-12-19 06:00","2021","12","19","06:00","-32.6","","-36.3","","71","","","","25","","15","","24.1","","100.94","","","","-45","","Mostly Cloudy"
"-85.81","79.99","EUREKA A","2401203","2021-12-19 07:00","2021","12","19","07:00","-32.1","","-35.8","","71","","","","30","","7","","24.1","","100.93","","","","-40","","Ice Crystals"
"-85.81","79.99","EUREKA A","2401203","2021-12-19 08:00","2021","12","19","08:00","-32.9","","-36.5","","71","","","","25","","10","","24.1","","100.94","","","","-43","","Ice Crystals"
"-85.81","79.99","EUREKA A","2401203","2021-12-19 09:00","2021","12","19","09:00","-31.6","","-35.1","","71","","","","36","","2","","24.1","","100.95","","","","-34","","Ice Crystals"
"-85.81","79.99","EUREKA A","2401203","2021-12-19 10:00","2021","12","19","10:00","-32.8","","-36.4","","71","","","","17","","6","","24.1","","100.95","","","","-40","","Ice Crystals"
"-85.81","79.99","EUREKA A","2401203","2021-12-19 11:00","2021","12","19","11:00","-31.6","","-35.1","","71","","","","26","","5","","24.1","","100.97","","","","-37","","NA"
"-85.81","79.99","EUREKA A","2401203","2021-12-19 12:00","2021","12","19","12:00","-31.7","","-35.3","","71","","","","16","","4","","24.1","","101.02","","","","-36","","Mostly Cloudy"
"-85.81","79.99","EUREKA A","2401203","2021-12-19 13:00","2021","12","19","13:00","-30.9","","-34.4","","72","","","","23","","5","","24.1","","101.07","","","","-37","","NA"
"-85.81","79.99","EUREKA A","2401203","2021-12-19 14:00","2021","12","19","14:00","-31.0","","-34.6","","72","","","","15","","6","","24.1","","101.12","","","","-38","","NA"
"-85.81","79.99","EUREKA A","2401203","2021-12-19 15:00","2021","12","19","15:00","-30.8","","-34.3","","72","","","","18","","5","","24.1","","101.18","","","","-37","","Mostly Cloudy"
"-85.81","79.99","EUREKA A","2401203","2021-12-19 16:00","2021","12","19","16:00","-32.4","","-36.0","","71","","","","13","","16","","24.1","","101.24","","","","-45","","NA"
"-85.81","79.99","EUREKA A","2401203","2021-12-19 17:00","2021","12","19","17:00","-32.1","","-35.7","","71","","","","13","","14","","24.1","","101.28","","","","-44","","NA"
"-85.81","79.99","EUREKA A","2401203","2021-12-19 18:00","2021","12","19","18:00","-32.8","","-36.4","","71","","","","13","","18","","24.1","","101.32","","","","-46","","Mainly Clear"
"-85.81","79.99","EUREKA A","2401203","2021-12-19 19:00","2021","12","19","19:00","-33.5","","-37.1","","70","","","","5","","5","","24.1","","101.40","","","","-40","","NA"
"-85.81","79.99","EUREKA A","2401203","2021-12-19 20:00","2021","12","19","20:00","-32.1","","-35.7","","71","","","","36","","2","","24.1","","101.41","","","","-34","","NA"
"-85.81","79.99","EUREKA A","2401203","2021-12-19 21:00","2021","12","19","21:00","-32.5","","-36.1","","71","","","","8","","6","","24.1","","101.41","","","","-39","","Mostly Cloudy"
"-85.81","79.99","EUREKA A","2401203","2021-12-19 22:00","2021","12","19","22:00"
"-85.81","79.99","EUREKA A","2401203","2021-12-19 23:00","2021","12","19","23:00"
"-85.81","79.99","EUREKA A","2401203","2021-12-20 00:00","2021","12","20","00:00","-32.8","","-36.4","","71","","","","12","","4","","24.1","","101.54","","","","-38","","Mainly Clear"
"-85.81","79.99","EUREKA A","2401203","2021-12-20 01:00","2021","12","20","01:00","-31.3","","-34.8","","72","","","","33","","6","","24.1","","101.43","","","","-38","","NA"
"-85.81","79.99","EUREKA A","2401203","2021-12-20 02:00","2021","12","20","02:00","-33.2","","-36.8","","71","","","","12","","10","","24.1","","101.50","","","","-43","","NA"
"-85.81","79.99","EUREKA A","2401203","2021-12-20 03:00","2021","12","20","03:00","-32.7","","-36.4","","71","","","","36","","2","","24.1","","101.40","","","","-35","","Mostly Cloudy"
"-85.81","79.99","EUREKA A","2401203","2021-12-20 04:00","2021","12","20","04:00","-31.8","","-35.3","","71","","","","16","","13","","24.1","","101.47","","","","-43","","NA"
"-85.81","79.99","EUREKA A","2401203","2021-12-20 05:00","2021","12","20","05:00","-30.6","","-34.1","","72","","","","34","","3","","24.1","","101.43","","","","-34","","NA"
"-85.81","79.99","EUREKA A","2401203","2021-12-20 06:00","2021","12","20","06:00","-29.2","","-32.6","","73","","","","2","","4","","24.1","","101.37","","","","-34","","Cloudy"
"-85.81","79.99","EUREKA A","2401203","2021-12-20 07:00","2021","12","20","07:00","-29.4","","-32.8","","73","","","","24","","9","","24.1","","101.28","","","","-38","","NA"
"-85.81","79.99","EUREKA A","2401203","2021-12-20 08:00","2021","12","20","08:00","-26.8","","-30.0","","75","","","","32","","9","","24.1","","101.22","","","","-35","","Blowing Snow"
"-85.81","79.99","EUREKA A","2401203","2021-12-20 09:00","2021","12","20","09:00","-26.2","","-29.3","","76","","","","26","","11","","24.1","","101.19","","","","-35","","Cloudy"
"-85.81","79.99","EUREKA A","2401203","2021-12-20 10:00","2021","12","20","10:00","-27.8","","-31.1","","74","","","","34","","7","","24.1","","101.09","","","","-35","","NA"
"-85.81","79.99","EUREKA A","2401203","2021-12-20 11:00","2021","12","20","11:00","-26.8","","-30.1","","74","","","","36","","3","","24.1","","101.00","","","","-30","","NA"
"-85.81","79.99","EUREKA A","2401203","2021-12-20 12:00","2021","12","20","12:00","-26.2","","-29.4","","75","","","","32","","11","","24.1","","100.86","","","","-35","","Mostly Cloudy"
"-85.81","79.99","EUREKA A","2401203","2021-12-20 13:00","2021","12","20","13:00","-26.0","","-29.2","","75","","","","25","","13","","24.1","","100.78","","","","-36","","Ice Crystals"
"-85.81","79.99","EUREKA A","2401203","2021-12-20 14:00","2021","12","20","14:00","-23.9","","-26.9","","77","","","","31","","13","","24.1","","100.67","","","","-33","","Ice Crystals"
"-85.81","79.99","EUREKA A","2401203","2021-12-20 15:00","2021","12","20","15:00","-23.2","","-26.0","","78","","","","29","","25","","24.1","","100.56","","","","-36","","Snow,Blowing Snow"
"-85.81","79.99","EUREKA A","2401203","2021-12-20 16:00","2021","12","20","16:00","-20.7","","-23.4","","80","","","","30","","15","","24.1","","100.44","","","","-30","","Snow"
"-85.81","79.99","EUREKA A","2401203","2021-12-20 17:00","2021","12","20","17:00","-18.3","","-20.8","","81","","","","3","","26","","24.1","","100.28","","","","-30","","Snow,Blowing Snow"
"-85.81","79.99","EUREKA A","2401203","2021-12-20 18:00","2021","12","20","18:00","-16.4","","-18.5","","84","","","","36","","33","","24.1","","100.14","","","","-28","","Snow"
"-85.81","79.99","EUREKA A","2401203","2021-12-20 19:00","2021","12","20","19:00","-16.2","","-18.4","","84","","","","34","","33","","24.1","","99.98","","","","-28","","Snow,Blowing Snow"
"-85.81","79.99","EUREKA A","2401203","2021-12-20 20:00","2021","12","20","20:00","-15.2","","-17.3","","85","","","","1","","25","","24.1","","100.00","","","","-25","","Snow"
"-85.81","79.99","EUREKA A","2401203","2021-12-20 21:00","2021","12","20","21:00","-16.7","","-18.9","","83","","","","30","","9","","24.1","","99.96","","","","-23","","Snow,Blowing Snow"
"-85.81","79.99","EUREKA A","2401203","2021-12-20 22:00","2021","12","20","22:00"
"-85.81","79.99","EUREKA A","2401203","2021-12-20 23:00","2021","12","20","23:00"
"-85.81","79.99","EUREKA A","2401203","2021-12-21 00:00","2021","12","21","00:00","-19.6","","-22.1","","81","","","","13","","10","","24.1","","99.72","","","","-27","","Snow"
"-85.81","79.99","EUREKA A","2401203","2021-12-21 01:00","2021","12","21","01:00","-18.8","","-21.2","","81","","","","12","","7","","24.1","","99.70","","","","-24","","Snow"
"-85.81","79.99","EUREKA A","2401203","2021-12-21 02:00","2021","12","21","02:00","-17.9","","-20.3","","82","","","","25","","4","","24.1","","99.68","","","","-21","","Snow"
"-85.81","79.99","EUREKA A","2401203","2021-12-21 03:00","2021","12","21","03:00","-18.2","","-20.6","","82","","","","13","","20","","24.1","","99.71","","","","-28","","Snow"
"-85.81","79.99","EUREKA A","2401203","2021-12-21 04:00","2021","12","21","04:00","-16.6","","-19.0","","82","","","","24","","5","","24.1","","99.69","","","","-20","","Snow"
"-85.81","79.99","EUREKA A","2401203","2021-12-21 05:00","2021","12","21","05:00","-17.2","","-19.7","","81","","","","27","","3","","24.1","","99.57","","","","-20","","Snow"
"-85.81","79.99","EUREKA A","2401203","2021-12-21 06:00","2021","12","21","06:00","-17.0","","-19.6","","81","","","","30","","4","","24.1","","99.48","","","","-20","","Snow"
"-85.81","79.99","EUREKA A","2401203","2021-12-21 07:00","2021","12","21","07:00","-14.0","","-16.3","","83","","","","27","","30","","24.1","","99.42","","","","-25","","Snow"
"-85.81","79.99","EUREKA A","2401203","2021-12-21 08:00","2021","12","21","08:00","-12.3","","-15.0","","81","","","","28","","28","","24.1","","99.43","","","","-22","","Snow"
"-85.81","79.99","EUREKA A","2401203","2021-12-21 09:00","2021","12","21","09:00","-11.7","","-14.5","","80","","","","27","","23","","24.1","","99.47","","","","-21","","Snow"
"-85.81","79.99","EUREKA A","2401203","2021-12-21 10:00","2021","12","21","10:00","-14.1","","-16.7","","81","","","","27","","17","","24.1","","99.54","","","","-22","","Snow"
"-85.81","79.99","EUREKA A","2401203","2021-12-21 11:00","2021","12","21","11:00","-11.7","","-14.8","","78","","","","6","","4","","24.1","","99.60","","","","-14","","Snow"
"-85.81","79.99","EUREKA A","2401203","2021-12-21 12:00","2021","12","21","12:00","-12.8","","-15.6","","79","","","","26","","13","","24.1","","99.67","","","","-20","","Snow"
"-85.81","79.99","EUREKA A","2401203","2021-12-21 13:00","2021","12","21","13:00","-10.9","","-13.0","","85","","","","18","","9","","9.7","","99.79","","","","-16","","Snow"
"-85.81","79.99","EUREKA A","2401203","2021-12-21 14:00","2021","12","21","14:00","-10.4","","-12.0","","88","","","","16","","14","","9.7","","99.90","","","","-17","","Snow"
"-85.81","79.99","EUREKA A","2401203","2021-12-21 15:00","2021","12","21","15:00","-9.4","","-11.0","","88","","","","17","","32","","12.9","","99.99","","","","-19","","Snow,Blowing Snow"
"-85.81","79.99","EUREKA A","2401203","2021-12-21 16:00","2021","12","21","16:00","-10.8","","-12.6","","87","","","","14","","26","","9.7","","100.09","","","","-20","","Snow,Blowing Snow"
"-85.81","79.99","EUREKA A","2401203","2021-12-21 17:00","2021","12","21","17:00","-11.0","","-13.1","","85","","","","16","","23","","24.1","","100.18","","","","-20","","Snow,Blowing Snow"
"-85.81","79.99","EUREKA A","2401203","2021-12-21 18:00","2021","12","21","18:00","-11.1","","-13.5","","83","","","","13","","29","","24.1","","100.32","","","","-21","","Snow,Blowing Snow"
"-85.81","79.99","EUREKA A","2401203","2021-12-21 19:00","2021","12","21","19:00","-12.1","","-14.2","","85","","","","13","","34","","6.4","","100.41","","","","-23","","Snow,Blowing Snow"
"-85.81","79.99","EUREKA A","2401203","2021-12-21 20:00","2021","12","21","20:00","-12.9","","-15.2","","83","","","","13","","30","","24.1","","100.49","","","","-23","","Snow,Blowing Snow"
"-85.81","79.99","EUREKA A","2401203","2021-12-21 21:00","2021","12","21","21:00","-13.6","","-16.2","","81","","","","12","","27","","24.1","","100.57","","","","-24","","Snow,Blowing Snow"
"-85.81","79.99","EUREKA A","2401203","2021-12-21 22:00","2021","12","21","22:00"
"-85.81","79.99","EUREKA A","2401203","2021-12-21 23:00","2021","12","21","23:00"
"-85.81","79.99","EUREKA A","2401203","2021-12-22 00:00","2021","12","22","00:00","-13.8","","-17.1","","76","","","","13","","10","","24.1","","100.74","","","","-20","","Cloudy"
"-85.81","79.99","EUREKA A","2401203","2021-12-22 01:00","2021","12","22","01:00","-14.3","","-17.4","","78","","","","28","","12","","24.1","","100.73","","","","-21","","NA"
"-85.81","79.99","EUREKA A","2401203","2021-12-22 02:00","2021","12","22","02:00","-15.0","","-17.4","","83","","","","28","","22","","24.1","","100.71","","","","-25","","Snow,Blowing Snow"
"-85.81","79.99","EUREKA A","2401203","2021-12-22 03:00","2021","12","22","03:00","-14.2","","-16.4","","83","","","","34","","12","","24.1","","100.65","","","","-21","","Snow"
"-85.81","79.99","EUREKA A","2401203","2021-12-22 04:00","2021","12","22","04:00","-14.7","","-16.6","","86","","","","28","","22","","6.4","","100.62","","","","-24","","Snow,Blowing Snow"
"-85.81","79.99","EUREKA A","2401203","2021-12-22 05:00","2021","12","22","05:00","-14.7","","-16.8","","84","","","","30","","9","","6.4","","100.61","","","","-20","","Snow,Blowing Snow"
"-85.81","79.99","EUREKA A","2401203","2021-12-22 06:00","2021","12","22","06:00","-15.1","","-17.4","","83","","","","28","","13","","6.4","","100.55","","","","-22","","Snow,Blowing Snow"
"-85.81","79.99","EUREKA A","2401203","2021-12-22 07:00","2021","12","22","07:00","-15.4","","-17.7","","83","","","","30","","10","","6.4","","100.51","","","","-22","","Snow,Blowing Snow"
"-85.81","79.99","EUREKA A","2401203","2021-12-22 08:00","2021","12","22","08:00","-15.4","","-17.6","","84","","","","31","","5","","12.9","","100.50","","","","-19","","Snow"
"-85.81","79.99","EUREKA A","2401203","2021-12-22 09:00","2021","12","22","09:00","-14.9","","-17.2","","83","","","","32","","10","","6.4","","100.43","","","","-21","","Snow"
"-85.81","79.99","EUREKA A","2401203","2021-12-22 10:00","2021","12","22","10:00","-14.9","","-17.2","","83","","","","35","","11","","6.4","","100.37","","","","-21","","Snow"
"-85.81","79.99","EUREKA A","2401203","2021-12-22 11:00","2021","12","22","11:00","-14.7","","-16.8","","84","","","","31","","11","","6.4","","100.35","","","","-21","","Snow"
"-85.81","79.99","EUREKA A","2401203","2021-12-22 12:00","2021","12","22","12:00","-14.7","","-17.1","","82","","","","36","","3","","9.7","","100.36","","","","-17","","Snow"
"-85.81","79.99","EUREKA A","2401203","2021-12-22 13:00","2021","12","22","13:00","-15.7","","-18.1","","82","","","","4","","3","","24.1","","100.26","","","","-18","","Snow"
"-85.81","79.99","EUREKA A","2401203","2021-12-22 14:00","2021","12","22","14:00","-16.7","","-18.7","","84","","","","14","","14","","24.1","","100.28","","","","-25","","Snow"
"-85.81","79.99","EUREKA A","2401203","2021-12-22 15:00","2021","12","22","15:00","-18.2","","-20.4","","83","","","","6","","4","","24.1","","100.20","","","","-21","","Snow"
"-85.81","79.99","EUREKA A","2401203","2021-12-22 16:00","2021","12","22","16:00","-16.9","","-18.9","","85","","","","36","","2","","24.1","","100.17","","","","-18","","Ice Crystals"
"-85.81","79.99","EUREKA A","2401203","2021-12-22 17:00","2021","12","22","17:00","-17.6","","-19.6","","84","","","","14","","10","","24.1","","100.18","","","","-24","","Snow"
"-85.81","79.99","EUREKA A","2401203","2021-12-22 18:00","2021","12","22","18:00","-19.1","","-21.4","","83","","","","4","","8","","24.1","","100.05","","","","-25","","Snow"
"-85.81","79.99","EUREKA A","2401203","2021-12-22 19:00","2021","12","22","19:00","-19.5","","-21.8","","82","","","","19","","13","","24.1","","100.00","","","","-28","","Snow"
"-85.81","79.99","EUREKA A","2401203","2021-12-22 20:00","2021","12","22","20:00","-18.0","","-20.1","","84","","","","36","","2","","24.1","","99.89","","","","-20","","Snow"
"-85.81","79.99","EUREKA A","2401203","2021-12-22 21:00","2021","12","22","21:00","-19.4","","-21.7","","82","","","","16","","12","","24.1","","99.89","","","","-27","","Snow"
"-85.81","79.99","EUREKA A","2401203","2021-12-22 22:00","2021","12","22","22:00"
"-85.81","79.99","EUREKA A","2401203","2021-12-22 23:00","2021","12","22","23:00"
"-85.81","79.99","EUREKA A","2401203","2021-12-23 00:00","2021","12","23","00:00","-17.6","","-19.8","","83","","","","36","","4","","24.1","","99.75","","","","-21","","Snow"
"-85.81","79.99","EUREKA A","2401203","2021-12-23 01:00","2021","12","23","01:00","-17.1","","-19.3","","83","","","","8","","5","","24.1","","99.74","","","","-21","","Snow"
"-85.81","79.99","EUREKA A","2401203","2021-12-23 02:00","2021","12","23","02:00","-16.6","","-18.8","","84","","","","36","","3","","24.1","","99.66","","","","-19","","Snow"
"-85.81","79.99","EUREKA A","2401203","2021-12-23 03:00","2021","12","23","03:00","-16.8","","-18.8","","84","","","","19","","7","","24.1","","99.61","","","","-22","","Snow"
"-85.81","79.99","EUREKA A","2401203","2021-12-23 04:00","2021","12","23","04:00","-16.6","","-18.8","","84","","","","23","","5","","24.1","","99.53","","","","-20","","Snow"
"-85.81","79.99","EUREKA A","2401203","2021-12-23 05:00","2021","12","23","05:00","-16.8","","-19.0","","84","","","","26","","18","","24.1","","99.48","","","","-26","","Snow"
"-85.81","79.99","EUREKA A","2401203","2021-12-23 06:00","2021","12","23","06:00","-14.9","","-16.8","","85","","","","27","","16","","24.1","","99.43","","","","-23","","Snow"
"-85.81","79.99","EUREKA A","2401203","2021-12-23 07:00","2021","12","23","07:00","-14.5","","-16.5","","85","","","","30","","11","","24.1","","99.43","","","","-21","","Snow"
"-85.81","79.99","EUREKA A","2401203","2021-12-23 08:00","2021","12","23","08:00","-8.2","","-10.4","","85","","","","22","","7","","24.1","","99.41","","","","-12","","Snow"
"-85.81","79.99","EUREKA A","2401203","2021-12-23 09:00","2021","12","23","09:00","-7.4","","-10.8","","76","","","","17","","14","","24.1","","99.37","","","","-13","","Snow"
"-85.81","79.99","EUREKA A","2401203","2021-12-23 10:00","2021","12","23","10:00","-4.4","","-7.8","","77","","","","15","","29","","24.1","","99.43","","","","-12","","Snow"
"-85.81","79.99","EUREKA A","2401203","2021-12-23 11:00","2021","12","23","11:00","-5.5","","-8.3","","81","","","","12","","26","","24.1","","99.47","","","","-13","","Snow"
"-85.81","79.99","EUREKA A","2401203","2021-12-23 12:00","2021","12","23","12:00","-4.4","","-8.6","","72","","","","12","","14","","24.1","","99.50","","","","-10","","Snow"
"-85.81","79.99","EUREKA A","2401203","2021-12-23 13:00","2021","12","23","13:00","-4.9","","-9.7","","69","","","","36","","3","","24.1","","99.59","","","","-6","","Snow"
"-85.81","79.99","EUREKA A","2401203","2021-12-23 14:00","2021","12","23","14:00","-5.8","","-9.4","","76","","","","6","","8","","24.1","","99.66","","","","-10","","NA"
"-85.81","79.99","EUREKA A","2401203","2021-12-23 15:00","2021","12","23","15:00","-5.3","","-9.7","","71","","","","12","","16","","24.1","","99.75","","","","-11","","Mostly Cloudy"
"-85.81","79.99","EUREKA A","2401203","2021-12-23 16:00","2021","12","23","16:00","-8.7","","-13.3","","69","","","","11","","26","","24.1","","99.87","","","","-17","","NA"
"-85.81","79.99","EUREKA A","2401203","2021-12-23 17:00","2021","12","23","17:00","-8.2","","-13.0","","68","","","","12","","29","","24.1","","100.00","","","","-17","","NA"
"-85.81","79.99","EUREKA A","2401203","2021-12-23 18:00","2021","12","23","18:00","-10.8","","-13.8","","78","","","","13","","25","","24.1","","100.18","","","","-20","","Mainly Clear"
"-85.81","79.99","EUREKA A","2401203","2021-12-23 19:00","2021","12","23","19:00","-12.4","","-15.0","","81","","","","12","","18","","24.1","","100.28","","","","-20","","NA"
"-85.81","79.99","EUREKA A","2401203","2021-12-23 20:00","2021","12","23","20:00","-11.7","","-14.6","","80","","","","15","","7","","24.1","","100.43","","","","-16","","NA"
"-85.81","79.99","EUREKA A","2401203","2021-12-23 21:00","2021","12","23","21:00","-13.5","","-16.9","","76","","","","12","","21","","24.1","","100.54","","","","-22","","Clear"
"-85.81","79.99","EUREKA A","2401203","2021-12-23 22:00","2021","12","23","22:00"
"-85.81","79.99","EUREKA A","2401203","2021-12-23 23:00","2021","12","23","23:00"
"-85.81","79.99","EUREKA A","2401203","2021-12-24 00:00","2021","12","24","00:00","-16.6","","-19.5","","79","","","","13","","19","","24.1","","100.86","","","","-26","","Ice Crystals"
"-85.81","79.99","EUREKA A","2401203","2021-12-24 01:00","2021","12","24","01:00","-16.3","","-19.6","","76","","","","14","","25","","24.1","","100.95","","","","-27","","Ice Crystals"
"-85.81","79.99","EUREKA A","2401203","2021-12-24 02:00","2021","12","24","02:00","-16.1","","-19.9","","73","","","","13","","22","","24.1","","101.11","","","","-26","","NA"
"-85.81","79.99","EUREKA A","2401203","2021-12-24 03:00","2021","12","24","03:00","-16.7","","-20.8","","72","","","","13","","26","","24.1","","101.22","","","","-28","","Mostly Cloudy"
"-85.81","79.99","EUREKA A","2401203","2021-12-24 04:00","2021","12","24","04:00","-17.2","","-20.9","","73","","","","15","","23","","24.1","","101.31","","","","-28","","NA"
"-85.81","79.99","EUREKA A","2401203","2021-12-24 05:00","2021","12","24","05:00","-17.4","","-21.4","","71","","","","8","","3","","24.1","","101.45","","","","-20","","NA"
"-85.81","79.99","EUREKA A","2401203","2021-12-24 06:00","2021","12","24","06:00","-17.9","","-21.9","","71","","","","11","","23","","24.1","","101.56","","","","-29","","Mostly Cloudy"
"-85.81","79.99","EUREKA A","2401203","2021-12-24 07:00","2021","12","24","07:00","-19.0","","-22.9","","72","","","","13","","23","","24.1","","101.65","","","","-30","","NA"
"-85.81","79.99","EUREKA A","2401203","2021-12-24 08:00","2021","12","24","08:00","-20.0","","-23.9","","72","","","","14","","38","","24.1","","101.75","","","","-34","","Ice Crystals,Blowing Snow"
"-85.81","79.99","EUREKA A","2401203","2021-12-24 09:00","2021","12","24","09:00","-19.3","","-24.0","","67","","","","12","","25","","24.1","","101.82","","","","-31","","Ice Crystals,Blowing Snow"
"-85.81","79.99","EUREKA A","2401203","2021-12-24 10:00","2021","12","24","10:00","-19.1","","-24.2","","64","","","","14","","16","","16.1","","101.87","","","","-28","","Ice Crystals,Blowing Snow"
"-85.81","79.99","EUREKA A","2401203","2021-12-24 11:00","2021","12","24","11:00","-19.8","","-25.0","","64","","","","19","","10","","24.1","","102.00","","","","-27","","Ice Crystals,Blowing Snow"
"-85.81","79.99","EUREKA A","2401203","2021-12-24 12:00","2021","12","24","12:00","-20.4","","-25.5","","64","","","","14","","21","","24.1","","102.01","","","","-31","","Ice Crystals,Blowing Snow"
"-85.81","79.99","EUREKA A","2401203","2021-12-24 13:00","2021","12","24","13:00","-20.9","","-25.8","","65","","","","15","","30","","24.1","","102.04","","","","-34","","Ice Crystals,Blowing Snow"
"-85.81","79.99","EUREKA A","2401203","2021-12-24 14:00","2021","12","24","14:00","-21.5","","-26.2","","66","","","","14","","32","","24.1","","102.11","","","","-35","","Ice Crystals,Blowing Snow"
"-85.81","79.99","EUREKA A","2401203","2021-12-24 15:00","2021","12","24","15:00","-22.3","","-26.8","","67","","","","15","","10","","24.1","","102.17","","","","-30","","Ice Crystals"
"-85.81","79.99","EUREKA A","2401203","2021-12-24 16:00","2021","12","24","16:00","-22.5","","-27.1","","67","","","","14","","14","","24.1","","102.22","","","","-32","","NA"
"-85.81","79.99","EUREKA A","2401203","2021-12-24 17:00","2021","12","24","17:00","-23.5","","-27.9","","68","","","","12","","19","","24.1","","102.24","","","","-35","","NA"
"-85.81","79.99","EUREKA A","2401203","2021-12-24 18:00","2021","12","24","18:00","-23.3","","-28.0","","66","","","","14","","18","","24.1","","102.27","","","","-34","","Clear"
"-85.81","79.99","EUREKA A","2401203","2021-12-24 19:00","2021","12","24","19:00","-23.8","","-28.6","","65","","","","16","","13","","24.1","","102.28","","","","-33","","NA"
"-85.81","79.99","EUREKA A","2401203","2021-12-24 20:00","2021","12","24","20:00","-24.5","","-29.0","","67","","","","9","","6","","24.1","","102.27","","","","-30","","NA"
"-85.81","79.99","EUREKA A","2401203","2021-12-24 21:00","2021","12","24","21:00","-25.6","","-29.9","","68","","","","35","","3","","24.1","","102.27","","","","-29","","Mainly Clear"
"-85.81","79.99","EUREKA A","2401203","2021-12-24 22:00","2021","12","24","22:00"
"-85.81","79.99","EUREKA A","2401203","2021-12-24 23:00","2021","12","24","23:00"
"-85.81","79.99","EUREKA A","2401203","2021-12-25 00:00","2021","12","25","00:00","-25.5","","-29.1","","72","","","","16","","9","","24.1","","102.16","","","","-33","","Cloudy"
"-85.81","79.99","EUREKA A","2401203","2021-12-25 01:00","2021","12","25","01:00","-25.9","","-29.6","","72","","","","36","","1","","24.1","","102.10","","","","-27","","NA"
"-85.81","79.99","EUREKA A","2401203","2021-12-25 02:00","2021","12","25","02:00","-24.3","","-28.4","","70","","","","2","","3","","24.1","","102.09","","","","-27","","Ice Crystals"
"-85.81","79.99","EUREKA A","2401203","2021-12-25 03:00","2021","12","25","03:00","-22.1","","-25.3","","75","","","","26","","5","","24.1","","102.02","","","","-27","","Ice Crystals"
"-85.81","79.99","EUREKA A","2401203","2021-12-25 04:00","2021","12","25","04:00","-22.6","","-26.2","","73","","","","36","","2","","24.1","","101.98","","","","-24","","Ice Crystals"
"-85.81","79.99","EUREKA A","2401203","2021-12-25 05:00","2021","12","25","05:00","-21.9","","-25.6","","73","","","","31","","8","","24.1","","101.89","","","","-28","","Ice Crystals"
"-85.81","79.99","EUREKA A","2401203","2021-12-25 06:00","2021","12","25","06:00","-21.1","","-24.5","","74","","","","30","","4","","24.1","","101.82","","","","-25","","Ice Crystals"
"-85.81","79.99","EUREKA A","2401203","2021-12-25 07:00","2021","12","25","07:00","-20.0","","-23.3","","76","","","","27","","27","","24.1","","101.73","","","","-32","","Ice Crystals"
"-85.81","79.99","EUREKA A","2401203","2021-12-25 08:00","2021","12","25","08:00","-20.1","","-23.2","","77","","","","28","","29","","24.1","","101.64","","","","-33","","Ice Crystals,Blowing Snow"
"-85.81","79.99","EUREKA A","2401203","2021-12-25 09:00","2021","12","25","09:00","-19.9","","-23.1","","75","","","","28","","19","","24.1","","101.58","","","","-30","","Ice Crystals"
"-85.81","79.99","EUREKA A","2401203","2021-12-25 10:00","2021","12","25","10:00","-20.1","","-23.2","","77","","","","28","","31","","24.1","","101.50","","","","-33","","Ice Crystals,Blowing Snow"
"-85.81","79.99","EUREKA A","2401203","2021-12-25 11:00","2021","12","25","11:00","-20.0","","-23.1","","77","","","","27","","31","","24.1","","101.44","","","","-33","","Blowing Snow"
"-85.81","79.99","EUREKA A","2401203","2021-12-25 12:00","2021","12","25","12:00","-19.7","","-23.1","","75","","","","27","","27","","24.1","","101.43","","","","-32","","Blowing Snow"
"-85.81","79.99","EUREKA A","2401203","2021-12-25 13:00","2021","12","25","13:00","-19.7","","-23.0","","76","","","","28","","34","","19.3","","101.37","","","","-33","","Snow,Blowing Snow"
"-85.81","79.99","EUREKA A","2401203","2021-12-25 14:00","2021","12","25","14:00","-19.5","","-22.9","","75","","","","28","","35","","19.3","","101.33","","","","-33","","Snow,Blowing Snow"
"-85.81","79.99","EUREKA A","2401203","2021-12-25 15:00","2021","12","25","15:00","-19.7","","-23.1","","75","","","","27","","28","","16.1","","101.33","","","","-32","","Snow,Blowing Snow"
"-85.81","79.99","EUREKA A","2401203","2021-12-25 16:00","2021","12","25","16:00","-19.6","","-22.4","","79","","","","27","","38","","2.8","","101.36","","","","-33","","Snow,Blowing Snow"
"-85.81","79.99","EUREKA A","2401203","2021-12-25 17:00","2021","12","25","17:00","-19.6","","-22.5","","78","","","","27","","27","","3.2","","101.33","","","","-31","","Snow,Blowing Snow"
"-85.81","79.99","EUREKA A","2401203","2021-12-25 18:00","2021","12","25","18:00","-19.9","","-22.5","","80","","","","27","","32","","3.6","","101.36","","","","-33","","Snow,Blowing Snow"
"-85.81","79.99","EUREKA A","2401203","2021-12-25 19:00","2021","12","25","19:00","-19.8","","-22.8","","77","","","","29","","13","","3.2","","101.31","","","","-28","","Snow,Blowing Snow"
"-85.81","79.99","EUREKA A","2401203","2021-12-25 20:00","2021","12","25","20:00","-20.1","","-24.3","","69","","","","29","","23","","16.1","","101.41","","","","-31","","Snow,Blowing Snow"
"-85.81","79.99","EUREKA A","2401203","2021-12-25 21:00","2021","12","25","21:00","-20.1","","-23.7","","73","","","","31","","30","","6.4","","101.43","","","","-33","","Snow,Blowing Snow"
"-85.81","79.99","EUREKA A","2401203","2021-12-25 22:00","2021","12","25","22:00"
"-85.81","79.99","EUREKA A","2401203","2021-12-25 23:00","2021","12","25","23:00"
"-85.81","79.99","EUREKA A","2401203","2021-12-26 00:00","2021","12","26","00:00","-21.6","","-24.8","","76","","","","28","","23","","6.4","","101.57","","","","-33","","Snow,Blowing Snow"
"-85.81","79.99","EUREKA A","2401203","2021-12-26 01:00","2021","12","26","01:00","-21.8","","-24.8","","77","","","","27","","17","","8.1","","101.58","","","","-32","","Snow,Blowing Snow"
"-85.81","79.99","EUREKA A","2401203","2021-12-26 02:00","2021","12","26","02:00","-22.0","","-25.3","","75","","","","28","","23","","6.4","","101.66","","","","-34","","Snow,Blowing Snow"
"-85.81","79.99","EUREKA A","2401203","2021-12-26 03:00","2021","12","26","03:00","-22.6","","-25.5","","77","","","","28","","16","","4.8","","101.71","","","","-33","","Snow,Blowing Snow"
"-85.81","79.99","EUREKA A","2401203","2021-12-26 04:00","2021","12","26","04:00","-23.0","","-26.2","","76","","","","28","","19","","4.8","","101.77","","","","-34","","Snow,Blowing Snow"
"-85.81","79.99","EUREKA A","2401203","2021-12-26 05:00","2021","12","26","05:00","-23.8","","-26.8","","77","","","","28","","18","","6.4","","101.80","","","","-35","","Snow,Blowing Snow"
"-85.81","79.99","EUREKA A","2401203","2021-12-26 06:00","2021","12","26","06:00","-23.8","","-26.8","","77","","","","26","","23","","6.4","","101.86","","","","-36","","Snow,Blowing Snow"
"-85.81","79.99","EUREKA A","2401203","2021-12-26 07:00","2021","12","26","07:00","-23.9","","-27.0","","76","","","","27","","21","","6.4","","101.92","","","","-36","","Snow,Blowing Snow"
"-85.81","79.99","EUREKA A","2401203","2021-12-26 08:00","2021","12","26","08:00","-24.6","","-27.7","","76","","","","28","","22","","6.4","","101.97","","","","-37","","Snow,Blowing Snow"
"-85.81","79.99","EUREKA A","2401203","2021-12-26 09:00","2021","12","26","09:00","-25.0","","-28.0","","76","","","","27","","15","","6.4","","102.03","","","","-35","","Snow,Blowing Snow"
"-85.81","79.99","EUREKA A","2401203","2021-12-26 10:00","2021","12","26","10:00","-25.4","","-28.5","","76","","","","28","","12","","6.4","","102.07","","","","-35","","Snow,Blowing Snow"
"-85.81","79.99","EUREKA A","2401203","2021-12-26 11:00","2021","12","26","11:00","-26.1","","-29.3","","75","","","","26","","5","","6.4","","102.12","","","","-31","","Snow"
"-85.81","79.99","EUREKA A","2401203","2021-12-26 12:00","2021","12","26","12:00","-27.1","","-30.3","","75","","","","17","","5","","6.4","","102.14","","","","-32","","Snow,Blowing Snow"
"-85.81","79.99","EUREKA A","2401203","2021-12-26 13:00","2021","12","26","13:00","-29.1","","-32.6","","72","","","","14","","18","","24.1","","102.19","","","","-41","","Snow,Blowing Snow"
"-85.81","79.99","EUREKA A","2401203","2021-12-26 14:00","2021","12","26","14:00","-29.3","","-32.9","","71","","","","13","","18","","24.1","","102.22","","","","-42","","Snow,Blowing Snow"
"-85.81","79.99","EUREKA A","2401203","2021-12-26 15:00","2021","12","26","15:00","-29.9","","-33.6","","71","","","","13","","19","","24.1","","102.24","","","","-43","","Snow,Blowing Snow"
"-85.81","79.99","EUREKA A","2401203","2021-12-26 16:00","2021","12","26","16:00","-30.9","","-34.7","","70","","","","12","","21","","24.1","","102.23","","","","-45","","Snow"
"-85.81","79.99","EUREKA A","2401203","2021-12-26 17:00","2021","12","26","17:00","-31.3","","-35.2","","70","","","","12","","25","","24.1","","102.23","","","","-46","","Ice Crystals"
"-85.81","79.99","EUREKA A","2401203","2021-12-26 18:00","2021","12","26","18:00","-31.7","","-35.5","","70","","","","13","","24","","24.1","","102.24","","","","-46","","Ice Crystals"
"-85.81","79.99","EUREKA A","2401203","2021-12-26 19:00","2021","12","26","19:00","-32.1","","-35.9","","70","","","","13","","22","","24.1","","102.24","","","","-46","","Ice Crystals"
"-85.81","79.99","EUREKA A","2401203","2021-12-26 20:00","2021","12","26","20:00","-32.3","","-36.1","","70","","","","12","","18","","24.1","","102.20","","","","-45","","Ice Crystals"
"-85.81","79.99","EUREKA A","2401203","2021-12-26 21:00","2021","12","26","21:00","-33.0","","-36.6","","71","","","","13","","25","","24.1","","102.19","","","","-48","","Ice Crystals"
"-85.81","79.99","EUREKA A","2401203","2021-12-26 22:00","2021","12","26","22:00"
"-85.81","79.99","EUREKA A","2401203","2021-12-26 23:00","2021","12","26","23:00"
"-85.81","79.99","EUREKA A","2401203","2021-12-27 00:00","2021","12","27","00:00","-34.5","","-38.0","","71","","","","12","","12","","24.1","","102.10","","","","-46","","Ice Crystals"
"-85.81","79.99","EUREKA A","2401203","2021-12-27 01:00","2021","12","27","01:00","-35.3","","-38.5","","73","","","","6","","7","","24.1","","102.06","","","","-43","","Ice Crystals"
"-85.81","79.99","EUREKA A","2401203","2021-12-27 02:00","2021","12","27","02:00","-35.1","","-38.5","","72","","","","6","","4","","24.1","","102.03","","","","-40","","Ice Crystals"
"-85.81","79.99","EUREKA A","2401203","2021-12-27 03:00","2021","12","27","03:00","-36.6","","-40.0","","72","","","","10","","4","","24.1","","101.99","","","","-42","","Ice Crystals"
"-85.81","79.99","EUREKA A","2401203","2021-12-27 04:00","2021","12","27","04:00","-36.2","","-39.7","","71","","","","11","","4","","24.1","","101.97","","","","-41","","Ice Crystals"
"-85.81","79.99","EUREKA A","2401203","2021-12-27 05:00","2021","12","27","05:00","-36.0","","-39.4","","72","","","","36","","3","","24.1","","101.93","","","","-40","","Ice Crystals"
"-85.81","79.99","EUREKA A","2401203","2021-12-27 06:00","2021","12","27","06:00","-36.5","","-40.0","","71","","","","36","","3","","24.1","","101.87","","","","-40","","Ice Crystals"
"-85.81","79.99","EUREKA A","2401203","2021-12-27 07:00","2021","12","27","07:00","-37.1","","-40.6","","70","","","","36","","2","","24.1","","101.82","","","","-40","","Ice Crystals"
"-85.81","79.99","EUREKA A","2401203","2021-12-27 08:00","2021","12","27","08:00","-35.3","","-38.8","","71","","","","31","","5","","24.1","","101.80","","","","-42","","Ice Crystals"
"-85.81","79.99","EUREKA A","2401203","2021-12-27 09:00","2021","12","27","09:00","-35.1","","-38.6","","72","","","","31","","5","","19.3","","101.74","","","","-41","","Ice Crystals"
"-85.81","79.99","EUREKA A","2401203","2021-12-27 10:00","2021","12","27","10:00","-35.5","","-39.1","","71","","","","36","","2","","19.3","","101.73","","","","-38","","Ice Crystals"
"-85.81","79.99","EUREKA A","2401203","2021-12-27 11:00","2021","12","27","11:00","-35.9","","-39.5","","71","","","","32","","3","","24.1","","101.69","","","","-40","","Ice Crystals"
"-85.81","79.99","EUREKA A","2401203","2021-12-27 12:00","2021","12","27","12:00","-35.5","","-39.1","","70","","","","36","","2","","24.1","","101.61","","","","-38","","Ice Crystals"
"-85.81","79.99","EUREKA A","2401203","2021-12-27 13:00","2021","12","27","13:00","-37.3","","-41.0","","69","","","","","","0","","12.9","","101.57","","","","","","Ice Crystals"
"-85.81","79.99","EUREKA A","2401203","2021-12-27 14:00","2021","12","27","14:00","-36.9","","-40.7","","69","","","","23","","4","","12.9","","101.57","","","","-42","","Ice Crystals"
"-85.81","79.99","EUREKA A","2401203","2021-12-27 15:00","2021","12","27","15:00","-39.7","","-43.5","","68","","","","36","","2","","12.9","","101.52","","","","-42","","Ice Crystals"
"-85.81","79.99","EUREKA A","2401203","2021-12-27 16:00","2021","12","27","16:00","-37.6","","-41.3","","69","","","","6","","3","","12.9","","101.51","","","","-42","","Ice Crystals"
"-85.81","79.99","EUREKA A","2401203","2021-12-27 17:00","2021","12","27","17:00","-37.8","","-41.6","","69","","","","10","","4","","12.9","","101.48","","","","-43","","Ice Crystals"
"-85.81","79.99","EUREKA A","2401203","2021-12-27 18:00","2021","12","27","18:00","-38.6","","-42.5","","68","","","","7","","4","","12.9","","101.44","","","","-44","","Ice Crystals"
"-85.81","79.99","EUREKA A","2401203","2021-12-27 19:00","2021","12","27","19:00","-36.4","","-40.2","","69","","","","36","","3","","12.9","","101.41","","","","-40","","Ice Crystals"
"-85.81","79.99","EUREKA A","2401203","2021-12-27 20:00","2021","12","27","20:00","-38.5","","-42.3","","68","","","","13","","4","","12.9","","101.40","","","","-44","","Ice Crystals"
"-85.81","79.99","EUREKA A","2401203","2021-12-27 21:00","2021","12","27","21:00","-39.0","","-42.9","","68","","","","6","","7","","12.9","","101.36","","","","-48","","Ice Crystals"
"-85.81","79.99","EUREKA A","2401203","2021-12-27 22:00","2021","12","27","22:00"
"-85.81","79.99","EUREKA A","2401203","2021-12-27 23:00","2021","12","27","23:00"
"-85.81","79.99","EUREKA A","2401203","2021-12-28 00:00","2021","12","28","00:00","-39.1","","-43.0","","68","","","","7","","5","","8.1","","101.26","","","","-46","","Ice Crystals"
"-85.81","79.99","EUREKA A","2401203","2021-12-28 01:00","2021","12","28","01:00","-38.1","","-42.0","","68","","","","36","","2","","12.9","","101.25","","","","-41","","Ice Crystals"
"-85.81","79.99","EUREKA A","2401203","2021-12-28 02:00","2021","12","28","02:00","-38.2","","-42.1","","68","","","","10","","4","","19.3","","101.25","","","","-44","","Ice Crystals"
"-85.81","79.99","EUREKA A","2401203","2021-12-28 03:00","2021","12","28","03:00","-38.4","","-42.3","","68","","","","6","","3","","24.1","","101.23","","","","-42","","Ice Crystals"
"-85.81","79.99","EUREKA A","2401203","2021-12-28 04:00","2021","12","28","04:00","-38.7","","-42.5","","68","","","","16","","8","","9.7","","101.22","","","","-48","","Ice Crystals"
"-85.81","79.99","EUREKA A","2401203","2021-12-28 05:00","2021","12","28","05:00","-37.3","","-41.1","","68","","","","15","","5","","8.1","","101.21","","","","-44","","Ice Crystals"
"-85.81","79.99","EUREKA A","2401203","2021-12-28 06:00","2021","12","28","06:00","-39.3","","-43.2","","67","","","","8","","5","","19.3","","101.19","","","","-46","","Ice Crystals"
"-85.81","79.99","EUREKA A","2401203","2021-12-28 07:00","2021","12","28","07:00","-37.8","","-41.7","","68","","","","36","","3","","9.7","","101.19","","","","-42","","Ice Crystals"
"-85.81","79.99","EUREKA A","2401203","2021-12-28 08:00","2021","12","28","08:00","-38.0","","-41.9","","68","","","","5","","4","","9.7","","101.15","","","","-43","","Ice Crystals"
"-85.81","79.99","EUREKA A","2401203","2021-12-28 09:00","2021","12","28","09:00","-38.0","","-41.9","","68","","","","10","","5","","6.4","","101.16","","","","-45","","Ice Crystals"
"-85.81","79.99","EUREKA A","2401203","2021-12-28 10:00","2021","12","28","10:00","-40.0","","-44.0","","67","","","","5","","5","","8.1","","101.20","","","","-47","","Ice Crystals"
"-85.81","79.99","EUREKA A","2401203","2021-12-28 11:00","2021","12","28","11:00","-37.7","","-41.6","","68","","","","36","","2","","6.4","","101.17","","","","-40","","Ice Crystals"
"-85.81","79.99","EUREKA A","2401203","2021-12-28 12:00","2021","12","28","12:00","-36.9","","-40.7","","69","","","","36","","2","","6.4","","101.16","","","","-40","","Ice Crystals"
"-85.81","79.99","EUREKA A","2401203","2021-12-28 13:00","2021","12","28","13:00","-36.4","","-40.2","","69","","","","36","","2","","12.9","","101.18","","","","-39","","Ice Crystals"
"-85.81","79.99","EUREKA A","2401203","2021-12-28 14:00","2021","12","28","14:00","-37.6","","-41.5","","68","","","","14","","4","","12.9","","101.19","","","","-43","","Ice Crystals"
"-85.81","79.99","EUREKA A","2401203","2021-12-28 15:00","2021","12","28","15:00","-38.1","","-41.9","","68","","","","16","","3","","12.9","","101.21","","","","-42","","Ice Crystals"
"-85.81","79.99","EUREKA A","2401203","2021-12-28 16:00","2021","12","28","16:00","-37.6","","-41.5","","68","","","","12","","7","","12.9","","101.21","","","","-46","","Ice Crystals"
"-85.81","79.99","EUREKA A","2401203","2021-12-28 17:00","2021","12","28","17:00","-37.3","","-41.2","","68","","","","7","","5","","6.4","","101.22","","","","-44","","Ice Crystals"
"-85.81","79.99","EUREKA A","2401203","2021-12-28 18:00","2021","12","28","18:00","-38.4","","-42.3","","68","","","","6","","5","","12.9","","101.23","","","","-45","","Ice Crystals"
"-85.81","79.99","EUREKA A","2401203","2021-12-28 19:00","2021","12","28","19:00","-38.3","","-42.2","","68","","","","36","","2","","12.9","","101.20","","","","-41","","Ice Crystals"
"-85.81","79.99","EUREKA A","2401203","2021-12-28 20:00","2021","12","28","20:00","-37.4","","-41.3","","68","","","","9","","3","","6.4","","101.22","","","","-41","","Ice Crystals"
"-85.81","79.99","EUREKA A","2401203","2021-12-28 21:00","2021","12","28","21:00","-38.5","","-42.5","","68","","","","7","","4","","6.4","","101.21","","","","-44","","Ice Crystals"
"-85.81","79.99","EUREKA A","2401203","2021-12-28 22:00","2021","12","28","22:00"
"-85.81","79.99","EUREKA A","2401203","2021-12-28 23:00","2021","12","28","23:00"
"-85.81","79.99","EUREKA A","2401203","2021-12-29 00:00","2021","12","29","00:00","-37.5","","-41.4","","68","","","","36","","1","","24.1","","101.16","","","","-39","","Ice Crystals"
"-85.81","79.99","EUREKA A","2401203","2021-12-29 01:00","2021","12","29","01:00","-38.2","","-42.1","","68","","","","5","","3","","24.1","","101.13","","","","-42","","Ice Crystals"
"-85.81","79.99","EUREKA A","2401203","2021-12-29 02:00","2021","12","29","02:00","-37.6","","-41.5","","68","","","","4","","3","","24.1","","101.12","","","","-42","","Ice Crystals"
"-85.81","79.99","EUREKA A","2401203","2021-12-29 03:00","2021","12","29","03:00","-37.0","","-40.9","","68","","","","36","","2","","24.1","","101.11","","","","-40","","Ice Crystals"
"-85.81","79.99","EUREKA A","2401203","2021-12-29 04:00","2021","12","29","04:00","-38.6","","-42.5","","67","","","","13","","14","","24.1","","101.13","","","","-52","","Ice Crystals"
"-85.81","79.99","EUREKA A","2401203","2021-12-29 05:00","2021","12","29","05:00","-39.1","","-43.0","","67","","","","6","","4","","24.1","","101.10","","","","-45","","Ice Crystals"
"-85.81","79.99","EUREKA A","2401203","2021-12-29 06:00","2021","12","29","06:00","-37.9","","-41.8","","68","","","","0","","1","","24.1","","101.04","","","","-39","","Ice Crystals"
"-85.81","79.99","EUREKA A","2401203","2021-12-29 07:00","2021","12","29","07:00","-37.5","","-41.3","","68","","","","8","","3","","24.1","","101.04","","","","-41","","Ice Crystals"
"-85.81","79.99","EUREKA A","2401203","2021-12-29 08:00","2021","12","29","08:00","-38.0","","-41.9","","68","","","","20","","4","","24.1","","101.03","","","","-43","","Ice Crystals"
"-85.81","79.99","EUREKA A","2401203","2021-12-29 09:00","2021","12","29","09:00","-36.9","","-40.8","","68","","","","12","","7","","16.1","","101.04","","","","-45","","Ice Crystals"
"-85.81","79.99","EUREKA A","2401203","2021-12-29 10:00","2021","12","29","10:00","-39.0","","-43.0","","67","","","","11","","5","","19.3","","101.02","","","","-46","","Ice Crystals"
"-85.81","79.99","EUREKA A","2401203","2021-12-29 11:00","2021","12","29","11:00","-39.4","","-43.4","","67","","","","6","","6","","24.1","","101.00","","","","-47","","Ice Crystals"
"-85.81","79.99","EUREKA A","2401203","2021-12-29 12:00","2021","12","29","12:00","-39.0","","-43.0","","67","","","","36","","2","","24.1","","101.00","","","","-42","","Ice Crystals"
"-85.81","79.99","EUREKA A","2401203","2021-12-29 13:00","2021","12","29","13:00","-39.4","","-43.4","","67","","","","9","","9","","19.3","","101.00","","","","-50","","Ice Crystals"
"-85.81","79.99","EUREKA A","2401203","2021-12-29 14:00","2021","12","29","14:00","-40.1","","-44.1","","67","","","","6","","8","","19.3","","101.02","","","","-50","","Ice Crystals"
"-85.81","79.99","EUREKA A","2401203","2021-12-29 15:00","2021","12","29","15:00","-39.0","","-43.0","","67","","","","11","","8","","12.9","","101.06","","","","-49","","Ice Crystals"
"-85.81","79.99","EUREKA A","2401203","2021-12-29 16:00","2021","12","29","16:00","-38.5","","-42.4","","67","","","","7","","8","","12.9","","101.09","","","","-48","","Ice Crystals"
"-85.81","79.99","EUREKA A","2401203","2021-12-29 17:00","2021","12","29","17:00","-37.4","","-41.2","","68","","","","7","","6","","12.9","","101.08","","","","-45","","Ice Crystals"
"-85.81","79.99","EUREKA A","2401203","2021-12-29 18:00","2021","12","29","18:00","-36.6","","-40.4","","69","","","","10","","4","","12.9","","101.12","","","","-42","","Ice Crystals"
"-85.81","79.99","EUREKA A","2401203","2021-12-29 19:00","2021","12","29","19:00","-36.5","","-40.2","","69","","","","0","","1","","12.9","","101.16","","","","-38","","Ice Crystals"
"-85.81","79.99","EUREKA A","2401203","2021-12-29 20:00","2021","12","29","20:00","-38.0","","-41.9","","68","","","","11","","9","","12.9","","101.17","","","","-48","","Ice Crystals"
"-85.81","79.99","EUREKA A","2401203","2021-12-29 21:00","2021","12","29","21:00","-38.1","","-42.0","","68","","","","11","","8","","12.9","","101.21","","","","-47","","Ice Crystals"
"-85.81","79.99","EUREKA A","2401203","2021-12-29 22:00","2021","12","29","22:00"
"-85.81","79.99","EUREKA A","2401203","2021-12-29 23:00","2021","12","29","23:00"
"-85.81","79.99","EUREKA A","2401203","2021-12-30 00:00","2021","12","30","00:00","-36.6","","-40.5","","68","","","","13","","7","","24.1","","101.27","","","","-45","","Ice Crystals"
"-85.81","79.99","EUREKA A","2401203","2021-12-30 01:00","2021","12","30","01:00","-38.1","","-42.0","","68","","","","8","","3","","24.1","","101.31","","","","-42","","Ice Crystals"
"-85.81","79.99","EUREKA A","2401203","2021-12-30 02:00","2021","12","30","02:00","-37.9","","-41.8","","68","","","","6","","5","","19.3","","101.35","","","","-45","","Ice Crystals"
"-85.81","79.99","EUREKA A","2401203","2021-12-30 03:00","2021","12","30","03:00","-36.7","","-40.5","","69","","","","14","","8","","24.1","","101.42","","","","-46","","Ice Crystals"
"-85.81","79.99","EUREKA A","2401203","2021-12-30 04:00","2021","12","30","04:00","-38.2","","-42.1","","68","","","","8","","3","","24.1","","101.44","","","","-42","","Snow"
"-85.81","79.99","EUREKA A","2401203","2021-12-30 05:00","2021","12","30","05:00","-38.8","","-42.7","","67","","","","32","","3","","24.1","","101.44","","","","-43","","Ice Crystals"
"-85.81","79.99","EUREKA A","2401203","2021-12-30 06:00","2021","12","30","06:00","-36.9","","-40.7","","68","","","","36","","3","","24.1","","101.47","","","","-41","","Ice Crystals"
"-85.81","79.99","EUREKA A","2401203","2021-12-30 07:00","2021","12","30","07:00","-38.6","","-42.6","","67","","","","36","","2","","24.1","","101.51","","","","-41","","Ice Crystals"
"-85.81","79.99","EUREKA A","2401203","2021-12-30 08:00","2021","12","30","08:00","-37.2","","-41.1","","68","","","","16","","8","","24.1","","101.54","","","","-46","","Ice Crystals"
"-85.81","79.99","EUREKA A","2401203","2021-12-30 09:00","2021","12","30","09:00","-38.1","","-42.1","","68","","","","8","","3","","24.1","","101.57","","","","-42","","Snow"
"-85.81","79.99","EUREKA A","2401203","2021-12-30 10:00","2021","12","30","10:00","-36.2","","-40.1","","69","","","","36","","2","","24.1","","101.57","","","","-39","","Snow"
"-85.81","79.99","EUREKA A","2401203","2021-12-30 11:00","2021","12","30","11:00","-35.0","","-38.8","","69","","","","36","","3","","24.1","","101.58","","","","-39","","Snow"
"-85.81","79.99","EUREKA A","2401203","2021-12-30 12:00","2021","12","30","12:00","-35.3","","-39.1","","69","","","","36","","2","","24.1","","101.59","","","","-38","","Ice Crystals"
"-85.81","79.99","EUREKA A","2401203","2021-12-30 13:00","2021","12","30","13:00","-36.1","","-39.9","","69","","","","31","","3","","24.1","","101.60","","","","-40","","Snow"
"-85.81","79.99","EUREKA A","2401203","2021-12-30 14:00","2021","12","30","14:00","-36.2","","-40.1","","68","","","","28","","4","","24.1","","101.60","","","","-41","","Snow"
"-85.81","79.99","EUREKA A","2401203","2021-12-30 15:00","2021","12","30","15:00","-36.9","","-40.8","","68","","","","34","","5","","24.1","","101.62","","","","-43","","Snow"
"-85.81","79.99","EUREKA A","2401203","2021-12-30 16:00","2021","12","30","16:00","-36.1","","-39.9","","69","","","","30","","5","","24.1","","101.63","","","","-43","","Snow"
"-85.81","79.99","EUREKA A","2401203","2021-12-30 17:00","2021","12","30","17:00","-37.2","","-41.1","","68","","","","36","","2","","24.1","","101.65","","","","-40","","Snow"
"-85.81","79.99","EUREKA A","2401203","2021-12-30 18:00","2021","12","30","18:00","-36.7","","-40.6","","68","","","","29","","7","","24.1","","101.63","","","","-45","","Snow"
"-85.81","79.99","EUREKA A","2401203","2021-12-30 19:00","2021","12","30","19:00","-36.0","","-39.9","","69","","","","28","","4","","12.9","","101.64","","","","-41","","Snow"
"-85.81","79.99","EUREKA A","2401203","2021-12-30 20:00","2021","12","30","20:00","-36.2","","-40.0","","69","","","","36","","1","","6.4","","101.64","","","","-37","","Snow"
"-85.81","79.99","EUREKA A","2401203","2021-12-30 21:00","2021","12","30","21:00","-36.0","","-39.9","","69","","","","36","","1","","12.9","","101.65","","","","-37","","Snow"
"-85.81","79.99","EUREKA A","2401203","2021-12-30 22:00","2021","12","30","22:00"
"-85.81","79.99","EUREKA A","2401203","2021-12-30 23:00","2021","12","30","23:00"
"-85.81","79.99","EUREKA A","2401203","2021-12-31 00:00","2021","12","31","00:00","-37.2","","-41.0","","68","","","","36","","3","","24.1","","101.62","","","","-41","","Snow"
"-85.81","79.99","EUREKA A","2401203","2021-12-31 01:00","2021","12","31","01:00","-37.9","","-41.8","","68","","","","36","","1","","24.1","","101.61","","","","-39","","Snow"
"-85.81","79.99","EUREKA A","2401203","2021-12-31 02:00","2021","12","31","02:00","-37.4","","-41.3","","68","","","","11","","3","","24.1","","101.62","","","","-41","","Ice Crystals"
"-85.81","79.99","EUREKA A","2401203","2021-12-31 03:00","2021","12","31","03:00","-38.2","","-42.2","","68","","","","16","","3","","24.1","","101.61","","","","-42","","Ice Crystals"
"-85.81","79.99","EUREKA A","2401203","2021-12-31 04:00","2021","12","31","04:00","-39.3","","-43.2","","67","","","","7","","5","","24.1","","101.62","","","","-46","","Ice Crystals"
"-85.81","79.99","EUREKA A","2401203","2021-12-31 05:00","2021","12","31","05:00","-38.4","","-42.3","","68","","","","5","","4","","24.1","","101.61","","","","-44","","Ice Crystals"
"-85.81","79.99","EUREKA A","2401203","2021-12-31 06:00","2021","12","31","06:00","-38.9","","-42.8","","67","","","","12","","4","","24.1","","101.58","","","","-44","","Ice Crystals"
"-85.81","79.99","EUREKA A","2401203","2021-12-31 07:00","2021","12","31","07:00","-39.6","","-43.5","","67","","","","36","","2","","24.1","","101.56","","","","-42","","Ice Crystals"
"-85.81","79.99","EUREKA A","2401203","2021-12-31 08:00","2021","12","31","08:00","-38.9","","-42.8","","67","","","","9","","4","","24.1","","101.53","","","","-44","","Ice Crystals"
"-85.81","79.99","EUREKA A","2401203","2021-12-31 09:00","2021","12","31","09:00","-39.3","","-43.3","","67","","","","8","","3","","19.3","","101.51","","","","-43","","Ice Crystals"
"-85.81","79.99","EUREKA A","2401203","2021-12-31 10:00","2021","12","31","10:00","-39.4","","-43.4","","67","","","","7","","4","","24.1","","101.48","","","","-45","","Ice Crystals"
"-85.81","79.99","EUREKA A","2401203","2021-12-31 11:00","2021","12","31","11:00","-39.4","","-43.4","","67","","","","5","","3","","24.1","","101.45","","","","-44","","Ice Crystals"
"-85.81","79.99","EUREKA A","2401203","2021-12-31 12:00","2021","12","31","12:00","-39.3","","-43.2","","67","","","","36","","1","","24.1","","101.43","","","","-41","","Ice Crystals"
"-85.81","79.99","EUREKA A","2401203","2021-12-31 13:00","2021","12","31","13:00","-38.2","","-42.2","","68","","","","8","","4","","19.3","","101.41","","","","-44","","Ice Crystals"
"-85.81","79.99","EUREKA A","2401203","2021-12-31 14:00","2021","12","31","14:00","-38.9","","-42.8","","67","","","","36","","2","","19.3","","101.39","","","","-42","","Ice Crystals"
"-85.81","79.99","EUREKA A","2401203","2021-12-31 15:00","2021","12","31","15:00","-37.9","","-41.8","","68","","","","36","","2","","19.3","","101.39","","","","-41","","Ice Crystals"
"-85.81","79.99","EUREKA A","2401203","2021-12-31 16:00","2021","12","31","16:00","-38.9","","-42.9","","67","","","","12","","3","","24.1","","101.36","","","","-43","","Ice Crystals"
"-85.81","79.99","EUREKA A","2401203","2021-12-31 17:00","2021","12","31","17:00","-38.4","","-42.3","","67","","","","2","","4","","19.3","","101.34","","","","-44","","Ice Crystals"
"-85.81","79.99","EUREKA A","2401203","2021-12-31 18:00","2021","12","31","18:00","-37.1","","-41.0","","68","","","","36","","3","","19.3","","101.32","","","","-41","","Ice Crystals"
"-85.81","79.99","EUREKA A","2401203","2021-12-31 19:00","2021","12","31","19:00","-37.5","","-41.4","","68","","","","9","","4","","19.3","","101.29","","","","-43","","Ice Crystals"
"-85.81","79.99","EUREKA A","2401203","2021-12-31 20:00","2021","12","31","20:00","-38.0","","-41.9","","68","","","","5","","5","","19.3","","101.29","","","","-45","","Ice Crystals"
"-85.81","79.99","EUREKA A","2401203","2021-12-31 21:00","2021","12","31","21:00","-39.4","","-43.3","","67","","","","5","","3","","19.3","","101.29","","","","-44","","Ice Crystals"
"-85.81","79.99","EUREKA A","2401203","2021-12-31 22:00","2021","12","31","22:00"
"-85.81","79.99","EUREKA A","2401203","2021-12-31 23:00","2021","12","31","23:00"
