"Longitude (x)","Latitude (y)","Station Name","Climate ID","Date/Time (LST)","Year","Month","Day","Time (LST)","Temp (°C)","Temp Flag","Dew Point Temp (°C)","Dew Point Temp Flag","Rel Hum (%)","Rel Hum Flag","Precip. Amount (mm)","Precip. Amount Flag","Wind Dir (10s deg)","Wind Dir Flag","Wind Spd (km/h)","Wind Spd Flag","Visibility (km)","Visibility Flag","Stn Press (kPa)","Stn Press Flag","Hmdx","Hmdx Flag","Wind Chill","Wind Chill Flag","Weather"
"-115.14","67.82","KUGLUKTUK A","2300903","2022-12-01 00:00","2022","12","01","00:00","-29.1","","-32.3","","75","","","","5","","5","","24.1","","100.90","","","","-35","","Ice Crystals"
"-115.14","67.82","KUGLUKTUK A","2300903","2022-12-01 01:00","2022","12","01","01:00","-28.7","","-31.8","","75","","","","36","","2","","16.1","","100.87","","","","-31","","Ice Crystals"
"-115.14","67.82","KUGLUKTUK A","2300903","2022-12-01 02:00","2022","12","01","02:00","-29.1","","-32.2","","75","","","","36","","3","","24.1","","100.87","","","","-32","","Ice Crystals"
"-115.14","67.82","KUGLUKTUK A","2300903","2022-12-01 03:00","2022","12","01","03:00","-29.0","","-31.9","","77","","","","36","","3","","24.1","","100.84","","","","-32","","Ice Crystals"
"-115.14","67.82","KUGLUKTUK A","2300903","2022-12-01 04:00","2022","12","01","04:00","-27.9","","-30.7","","77","","","","36","","2","","24.1","","100.83","","","","-30","","Ice Crystals"
"-115.14","67.82","KUGLUKTUK A","2300903","2022-12-01 05:00","2022","12","01","05:00","-31.9","","-35.0","","75","","","","16","","6","","24.1","","100.85","","","","-39","","Clear"
"-115.14","67.82","KUGLUKTUK A","2300903","2022-12-01 06:00","2022","12","01","06:00","-31.1","","-34.1","","76","","","","19","","7","","24.1","","100.86","","","","-39","","NA"
"-115.14","67.82","KUGLUKTUK A","2300903","2022-12-01 07:00","2022","12","01","07:00","-28.8","","-31.7","","77","","","","36","","1","","24.1","","100.88","","","","-30","","NA"
"-115.14","67.82","KUGLUKTUK A","2300903","2022-12-01 08:00","2022","12","01","08:00","-30.5","","-33.4","","76","","","","36","","1","","24.1","","100.90","","","","-32","","Clear"
"-115.14","67.82","KUGLUKTUK A","2300903","2022-12-01 09:00","2022","12","01","09:00","-30.3","","-33.2","","76","","","","31","","4","","24.1","","100.94","","","","-35","","NA"
"-115.14","67.82","KUGLUKTUK A","2300903","2022-12-01 10:00","2022","12","01","10:00","-33.1","","-36.2","","74","","","","0","","1","","24.1","","100.99","","","","-34","","NA"
"-115.14","67.82","KUGLUKTUK A","2300903","2022-12-01 11:00","2022","12","01","11:00","-32.6","","-35.8","","74","","","","32","","4","","24.1","","101.03","","","","-37","","Clear"
"-115.14","67.82","KUGLUKTUK A","2300903","2022-12-01 12:00","2022","12","01","12:00","-33.5","","-36.9","","73","","","","36","","1","","24.1","","101.08","","","","-35","","NA"
"-115.14","67.82","KUGLUKTUK A","2300903","2022-12-01 13:00","2022","12","01","13:00","-31.9","","-35.2","","74","","","","28","","3","","24.1","","101.14","","","","-35","","NA"
"-115.14","67.82","KUGLUKTUK A","2300903","2022-12-01 14:00","2022","12","01","14:00","-31.2","","-34.5","","74","","","","31","","7","","16.1","","101.20","","","","-39","","Ice Crystals,Fog"
"-115.14","67.82","KUGLUKTUK A","2300903","2022-12-01 15:00","2022","12","01","15:00","-31.2","","-34.6","","73","","","","29","","8","","16.1","","101.27","","","","-39","","Ice Crystals,Fog"
"-115.14","67.82","KUGLUKTUK A","2300903","2022-12-01 16:00","2022","12","01","16:00","-33.1","","-36.5","","72","","","","28","","18","","16.1","","101.32","","","","-46","","Ice Crystals"
"-115.14","67.82","KUGLUKTUK A","2300903","2022-12-01 17:00","2022","12","01","17:00","-32.5","","-35.9","","73","","","","28","","17","","19.3","","101.38","","","","-45","","Ice Crystals"
"-115.14","67.82","KUGLUKTUK A","2300903","2022-12-01 18:00","2022","12","01","18:00","-33.1","","-36.6","","72","","","","27","","16","","24.1","","101.44","","","","-46","","Ice Crystals"
"-115.14","67.82","KUGLUKTUK A","2300903","2022-12-01 19:00","2022","12","01","19:00","-34.7","","-38.2","","71","","","","26","","12","","24.1","","101.47","","","","-46","","Ice Crystals"
"-115.14","67.82","KUGLUKTUK A","2300903","2022-12-01 20:00","2022","12","01","20:00","-33.6","","-37.1","","72","","","","25","","16","","24.1","","101.50","","","","-46","","Clear"
"-115.14","67.82","KUGLUKTUK A","2300903","2022-12-01 21:00","2022","12","01","21:00","-35.6","","-39.2","","70","","","","24","","18","","24.1","","101.57","","","","-49","","NA"
"-115.14","67.82","KUGLUKTUK A","2300903","2022-12-01 22:00","2022","12","01","22:00","-35.5","","-39.1","","70","","","","23","","21","","24.1","","101.58","","","","-50","","NA"
"-115.14","67.82","KUGLUKTUK A","2300903","2022-12-01 23:00","2022","12","01","23:00","-35.1","","-38.7","","71","","","","23","","19","","12.9","","101.61","","","","-49","","Ice Crystals"
"-115.14","67.82","KUGLUKTUK A","2300903","2022-12-02 00:00","2022","12","02","00:00","-35.3","","-39.0","","70","","","","22","","18","","12.9","","101.65","","","","-49","","Ice Crystals"
"-115.14","67.82","KUGLUKTUK A","2300903","2022-12-02 01:00","2022","12","02","01:00","-35.3","","-38.9","","70","","","","22","","17","","19.3","","101.65","","","","-49","","Ice Crystals"
"-115.14","67.82","KUGLUKTUK A","2300903","2022-12-02 02:00","2022","12","02","02:00","-35.4","","-39.0","","70","","","","22","","19","","24.1","","101.68","","","","-50","","Ice Crystals"
"-115.14","67.82","KUGLUKTUK A","2300903","2022-12-02 03:00","2022","12","02","03:00","-35.6","","-39.3","","70","","","","21","","16","","24.1","","101.69","","","","-49","","Ice Crystals"
"-115.14","67.82","KUGLUKTUK A","2300903","2022-12-02 04:00","2022","12","02","04:00","-36.5","","-40.2","","70","","","","21","","16","","24.1","","101.68","","","","-50","","Ice Crystals"
"-115.14","67.82","KUGLUKTUK A","2300903","2022-12-02 05:00","2022","12","02","05:00","-36.1","","-39.8","","70","","","","22","","20","","24.1","","101.65","","","","-51","","Ice Crystals"
"-115.14","67.82","KUGLUKTUK A","2300903","2022-12-02 06:00","2022","12","02","06:00","-36.5","","-40.1","","70","","","","22","","23","","24.1","","101.67","","","","-52","","Ice Crystals"
"-115.14","67.82","KUGLUKTUK A","2300903","2022-12-02 07:00","2022","12","02","07:00","-36.2","","-39.9","","70","","","","23","","23","","24.1","","101.65","","","","-52","","Ice Crystals"
"-115.14","67.82","KUGLUKTUK A","2300903","2022-12-02 08:00","2022","12","02","08:00","-36.4","","-40.0","","70","","","","22","","22","","24.1","","101.67","","","","-52","","Clear"
"-115.14","67.82","KUGLUKTUK A","2300903","2022-12-02 09:00","2022","12","02","09:00","-36.1","","-39.8","","70","","","","22","","21","","24.1","","101.64","","","","-51","","NA"
"-115.14","67.82","KUGLUKTUK A","2300903","2022-12-02 10:00","2022","12","02","10:00","-36.5","","-40.2","","70","","","","21","","15","","24.1","","101.63","","","","-49","","NA"
"-115.14","67.82","KUGLUKTUK A","2300903","2022-12-02 11:00","2022","12","02","11:00","-37.0","","-40.7","","69","","","","22","","20","","24.1","","101.54","","","","-52","","Clear"
"-115.14","67.82","KUGLUKTUK A","2300903","2022-12-02 12:00","2022","12","02","12:00","-36.6","","-40.3","","69","","","","21","","15","","24.1","","101.50","","","","-50","","NA"
"-115.14","67.82","KUGLUKTUK A","2300903","2022-12-02 13:00","2022","12","02","13:00","-36.6","","-40.3","","69","","","","21","","7","","24.1","","101.44","","","","-45","","Ice Crystals"
"-115.14","67.82","KUGLUKTUK A","2300903","2022-12-02 14:00","2022","12","02","14:00","-36.3","","-40.0","","70","","","","23","","16","","24.1","","101.36","","","","-50","","Ice Crystals"
"-115.14","67.82","KUGLUKTUK A","2300903","2022-12-02 15:00","2022","12","02","15:00","-36.7","","-40.4","","69","","","","18","","9","","24.1","","101.29","","","","-47","","Ice Crystals"
"-115.14","67.82","KUGLUKTUK A","2300903","2022-12-02 16:00","2022","12","02","16:00","-36.0","","-39.6","","70","","","","22","","7","","24.1","","101.20","","","","-44","","Ice Crystals"
"-115.14","67.82","KUGLUKTUK A","2300903","2022-12-02 17:00","2022","12","02","17:00","-35.6","","-39.2","","70","","","","28","","3","","24.1","","101.10","","","","-39","","Ice Crystals"
"-115.14","67.82","KUGLUKTUK A","2300903","2022-12-02 18:00","2022","12","02","18:00","-35.2","","-38.8","","70","","","","36","","2","","24.1","","101.00","","","","-38","","Ice Crystals"
"-115.14","67.82","KUGLUKTUK A","2300903","2022-12-02 19:00","2022","12","02","19:00","-35.7","","-39.4","","70","","","","19","","10","","24.1","","100.89","","","","-46","","Ice Crystals"
"-115.14","67.82","KUGLUKTUK A","2300903","2022-12-02 20:00","2022","12","02","20:00","-33.1","","-36.6","","71","","","","19","","12","","24.1","","100.76","","","","-44","","Ice Crystals"
"-115.14","67.82","KUGLUKTUK A","2300903","2022-12-02 21:00","2022","12","02","21:00","-32.0","","-35.5","","72","","","","20","","14","","24.1","","100.59","","","","-43","","Ice Crystals"
"-115.14","67.82","KUGLUKTUK A","2300903","2022-12-02 22:00","2022","12","02","22:00","-30.0","","-33.4","","73","","","","21","","20","","24.1","","100.49","","","","-43","","Ice Crystals"
"-115.14","67.82","KUGLUKTUK A","2300903","2022-12-02 23:00","2022","12","02","23:00","-29.1","","-32.4","","74","","","","20","","22","","24.1","","100.42","","","","-43","","Ice Crystals"
"-115.14","67.82","KUGLUKTUK A","2300903","2022-12-03 00:00","2022","12","03","00:00","-28.5","","-31.8","","74","","","","21","","23","","24.1","","100.32","","","","-42","","Ice Crystals"
"-115.14","67.82","KUGLUKTUK A","2300903","2022-12-03 01:00","2022","12","03","01:00","-27.2","","-30.4","","75","","","","19","","22","","19.3","","100.23","","","","-40","","Ice Crystals"
"-115.14","67.82","KUGLUKTUK A","2300903","2022-12-03 02:00","2022","12","03","02:00","-25.4","","-28.5","","76","","","","20","","25","","9.7","","100.11","","","","-39","","Snow"
"-115.14","67.82","KUGLUKTUK A","2300903","2022-12-03 03:00","2022","12","03","03:00","-25.0","","-28.1","","76","","","","20","","17","","12.9","","100.03","","","","-36","","Snow"
"-115.14","67.82","KUGLUKTUK A","2300903","2022-12-03 04:00","2022","12","03","04:00","-25.4","","-28.7","","74","","","","21","","17","","16.1","","99.90","","","","-36","","Snow"
"-115.14","67.82","KUGLUKTUK A","2300903","2022-12-03 05:00","2022","12","03","05:00","-24.3","","-28.0","","72","","","","19","","19","","16.1","","99.73","","","","-36","","Snow,Blowing Snow"
"-115.14","67.82","KUGLUKTUK A","2300903","2022-12-03 06:00","2022","12","03","06:00","-23.3","","-27.1","","71","","","","19","","22","","12.9","","99.63","","","","-35","","Snow,Blowing Snow"
"-115.14","67.82","KUGLUKTUK A","2300903","2022-12-03 07:00","2022","12","03","07:00","-22.9","","-26.4","","73","","","","20","","23","","12.9","","99.47","","","","-35","","Snow,Blowing Snow"
"-115.14","67.82","KUGLUKTUK A","2300903","2022-12-03 08:00","2022","12","03","08:00","-22.1","","-25.4","","74","","","","20","","26","","12.9","","99.40","","","","-35","","Snow,Blowing Snow"
"-115.14","67.82","KUGLUKTUK A","2300903","2022-12-03 09:00","2022","12","03","09:00","-21.6","","-24.9","","75","","","","19","","20","","9.7","","99.22","","","","-32","","Snow,Blowing Snow"
"-115.14","67.82","KUGLUKTUK A","2300903","2022-12-03 10:00","2022","12","03","10:00","-20.9","","-24.1","","76","","","","20","","28","","6.4","","99.06","","","","-33","","Snow,Blowing Snow"
"-115.14","67.82","KUGLUKTUK A","2300903","2022-12-03 11:00","2022","12","03","11:00","-20.5","","-23.5","","77","","","","20","","34","","2.0","","98.87","","","","-34","","Snow,Blowing Snow"
"-115.14","67.82","KUGLUKTUK A","2300903","2022-12-03 12:00","2022","12","03","12:00","-20.3","","-23.3","","77","","","","19","","30","","2.0","","98.68","","","","-33","","Snow,Blowing Snow"
"-115.14","67.82","KUGLUKTUK A","2300903","2022-12-03 13:00","2022","12","03","13:00","-19.4","","-22.3","","78","","","","19","","23","","2.4","","98.51","","","","-30","","Snow,Blowing Snow"
"-115.14","67.82","KUGLUKTUK A","2300903","2022-12-03 14:00","2022","12","03","14:00"
"-115.14","67.82","KUGLUKTUK A","2300903","2022-12-03 15:00","2022","12","03","15:00"
"-115.14","67.82","KUGLUKTUK A","2300903","2022-12-03 16:00","2022","12","03","16:00","-16.2","","-18.7","","81","","","","14","","13","","3.2","","98.13","","","","-24","","Snow"
"-115.14","67.82","KUGLUKTUK A","2300903","2022-12-03 17:00","2022","12","03","17:00","-16.9","","-19.5","","81","","","","5","","15","","3.6","","98.22","","","","-25","","Snow"
"-115.14","67.82","KUGLUKTUK A","2300903","2022-12-03 18:00","2022","12","03","18:00","-18.9","","-21.4","","81","","","","4","","29","","16.1","","98.54","","","","-31","","Ice Crystals,Blowing Snow"
"-115.14","67.82","KUGLUKTUK A","2300903","2022-12-03 19:00","2022","12","03","19:00","-19.9","","-22.4","","80","","","","3","","36","","16.1","","99.03","","","","-33","","Ice Crystals,Blowing Snow"
"-115.14","67.82","KUGLUKTUK A","2300903","2022-12-03 20:00","2022","12","03","20:00","-22.1","","-24.8","","79","","","","36","","46","","1.6","","99.54","","","","-38","","Blowing Snow"
"-115.14","67.82","KUGLUKTUK A","2300903","2022-12-03 21:00","2022","12","03","21:00","-23.9","","-26.8","","78","","","","36","","50","","1.2","","99.92","","","","-41","","Blowing Snow"
"-115.14","67.82","KUGLUKTUK A","2300903","2022-12-03 22:00","2022","12","03","22:00","-24.8","","-28.1","","75","","","","35","","36","","3.2","","100.37","","","","-40","","Snow,Blowing Snow"
"-115.14","67.82","KUGLUKTUK A","2300903","2022-12-03 23:00","2022","12","03","23:00","-25.2","","-28.4","","76","","","","35","","38","","3.2","","100.59","","","","-41","","Snow,Blowing Snow"
"-115.14","67.82","KUGLUKTUK A","2300903","2022-12-04 00:00","2022","12","04","00:00","-25.0","","-28.5","","73","","","","35","","26","","9.7","","100.81","","","","-38","","Snow,Blowing Snow"
"-115.14","67.82","KUGLUKTUK A","2300903","2022-12-04 01:00","2022","12","04","01:00","-24.8","","-28.5","","72","","","","35","","17","","12.9","","100.97","","","","-36","","Snow,Blowing Snow"
"-115.14","67.82","KUGLUKTUK A","2300903","2022-12-04 02:00","2022","12","04","02:00","-23.9","","-26.9","","77","","","","35","","12","","6.4","","101.15","","","","-33","","Ice Crystals"
"-115.14","67.82","KUGLUKTUK A","2300903","2022-12-04 03:00","2022","12","04","03:00","-23.3","","-26.3","","77","","","","36","","27","","16.1","","101.29","","","","-36","","Ice Crystals,Blowing Snow"
"-115.14","67.82","KUGLUKTUK A","2300903","2022-12-04 04:00","2022","12","04","04:00","-23.3","","-26.9","","73","","","","31","","17","","19.3","","101.46","","","","-34","","Ice Crystals"
"-115.14","67.82","KUGLUKTUK A","2300903","2022-12-04 05:00","2022","12","04","05:00","-23.2","","-26.9","","72","","","","32","","11","","19.3","","101.58","","","","-31","","Ice Crystals"
"-115.14","67.82","KUGLUKTUK A","2300903","2022-12-04 06:00","2022","12","04","06:00","-23.4","","-26.9","","73","","","","8","","3","","16.1","","101.68","","","","-26","","Ice Crystals"
"-115.14","67.82","KUGLUKTUK A","2300903","2022-12-04 07:00","2022","12","04","07:00","-23.0","","-26.8","","71","","","","36","","2","","19.3","","101.81","","","","-25","","Ice Crystals"
"-115.14","67.82","KUGLUKTUK A","2300903","2022-12-04 08:00","2022","12","04","08:00","-23.0","","-26.5","","74","","","","35","","8","","16.1","","101.93","","","","-30","","Ice Crystals"
"-115.14","67.82","KUGLUKTUK A","2300903","2022-12-04 09:00","2022","12","04","09:00","-23.0","","-26.2","","75","","","","35","","30","","8.1","","102.00","","","","-36","","Snow,Blowing Snow"
"-115.14","67.82","KUGLUKTUK A","2300903","2022-12-04 10:00","2022","12","04","10:00","-23.9","","-27.4","","74","","","","34","","44","","8.1","","102.09","","","","-40","","Blowing Snow"
"-115.14","67.82","KUGLUKTUK A","2300903","2022-12-04 11:00","2022","12","04","11:00","-24.2","","-27.5","","74","","","","33","","39","","8.1","","102.19","","","","-40","","Blowing Snow"
"-115.14","67.82","KUGLUKTUK A","2300903","2022-12-04 12:00","2022","12","04","12:00","-24.2","","-28.2","","71","","","","32","","35","","4.8","","102.32","","","","-39","","Blowing Snow"
"-115.14","67.82","KUGLUKTUK A","2300903","2022-12-04 13:00","2022","12","04","13:00","-24.7","","-28.2","","73","","","","33","","36","","1.6","","102.35","","","","-40","","Snow,Blowing Snow"
"-115.14","67.82","KUGLUKTUK A","2300903","2022-12-04 14:00","2022","12","04","14:00","-26.0","","-29.4","","74","","","","31","","41","","1.6","","102.42","","","","-42","","Snow,Blowing Snow"
"-115.14","67.82","KUGLUKTUK A","2300903","2022-12-04 15:00","2022","12","04","15:00","-26.9","","-30.3","","74","","","","33","","36","","2.0","","102.52","","","","-43","","Snow,Blowing Snow"
"-115.14","67.82","KUGLUKTUK A","2300903","2022-12-04 16:00","2022","12","04","16:00","-27.3","","-30.5","","75","","","","34","","45","","2.0","","102.57","","","","-45","","Blowing Snow"
"-115.14","67.82","KUGLUKTUK A","2300903","2022-12-04 17:00","2022","12","04","17:00","-27.4","","-31.1","","71","","","","35","","26","","3.2","","102.67","","","","-41","","Ice Crystals,Blowing Snow"
"-115.14","67.82","KUGLUKTUK A","2300903","2022-12-04 18:00","2022","12","04","18:00","-29.0","","-32.7","","71","","","","1","","30","","4.8","","102.80","","","","-44","","Ice Crystals,Blowing Snow"
"-115.14","67.82","KUGLUKTUK A","2300903","2022-12-04 19:00","2022","12","04","19:00","-29.3","","-33.2","","70","","","","1","","28","","16.1","","102.91","","","","-44","","Ice Crystals,Blowing Snow"
"-115.14","67.82","KUGLUKTUK A","2300903","2022-12-04 20:00","2022","12","04","20:00","-28.9","","-32.5","","72","","","","2","","29","","16.1","","103.03","","","","-44","","Ice Crystals,Blowing Snow"
"-115.14","67.82","KUGLUKTUK A","2300903","2022-12-04 21:00","2022","12","04","21:00","-28.4","","-31.8","","74","","","","2","","26","","16.1","","103.15","","","","-43","","Ice Crystals,Blowing Snow"
"-115.14","67.82","KUGLUKTUK A","2300903","2022-12-04 22:00","2022","12","04","22:00","-29.0","","-32.6","","72","","","","3","","21","","19.3","","103.27","","","","-42","","Ice Crystals,Blowing Snow"
"-115.14","67.82","KUGLUKTUK A","2300903","2022-12-04 23:00","2022","12","04","23:00","-29.7","","-33.3","","72","","","","3","","24","","19.3","","103.39","","","","-44","","Ice Crystals,Blowing Snow"
"-115.14","67.82","KUGLUKTUK A","2300903","2022-12-05 00:00","2022","12","05","00:00","-30.3","","-33.7","","73","","","","2","","23","","24.1","","103.48","","","","-44","","Ice Crystals,Blowing Snow"
"-115.14","67.82","KUGLUKTUK A","2300903","2022-12-05 01:00","2022","12","05","01:00","-30.9","","-34.3","","72","","","","1","","23","","24.1","","103.60","","","","-45","","Ice Crystals"
"-115.14","67.82","KUGLUKTUK A","2300903","2022-12-05 02:00","2022","12","05","02:00","-31.0","","-34.5","","72","","","","36","","26","","24.1","","103.69","","","","-46","","Ice Crystals"
"-115.14","67.82","KUGLUKTUK A","2300903","2022-12-05 03:00","2022","12","05","03:00","-31.2","","-34.8","","71","","","","36","","26","","24.1","","103.75","","","","-46","","Ice Crystals,Blowing Snow"
"-115.14","67.82","KUGLUKTUK A","2300903","2022-12-05 04:00","2022","12","05","04:00","-31.0","","-34.7","","71","","","","36","","22","","19.3","","103.76","","","","-45","","Ice Crystals,Blowing Snow"
"-115.14","67.82","KUGLUKTUK A","2300903","2022-12-05 05:00","2022","12","05","05:00","-30.9","","-34.6","","70","","","","35","","19","","19.3","","103.76","","","","-44","","Ice Crystals"
"-115.14","67.82","KUGLUKTUK A","2300903","2022-12-05 06:00","2022","12","05","06:00","-32.5","","-36.4","","69","","","","29","","13","","19.3","","103.75","","","","-44","","Ice Crystals"
"-115.14","67.82","KUGLUKTUK A","2300903","2022-12-05 07:00","2022","12","05","07:00","-34.8","","-38.4","","71","","","","23","","18","","24.1","","103.74","","","","-48","","Ice Crystals"
"-115.14","67.82","KUGLUKTUK A","2300903","2022-12-05 08:00","2022","12","05","08:00","-36.0","","-39.5","","71","","","","23","","25","","24.1","","103.70","","","","-52","","Ice Crystals"
"-115.14","67.82","KUGLUKTUK A","2300903","2022-12-05 09:00","2022","12","05","09:00","-36.0","","-39.6","","71","","","","22","","21","","24.1","","103.63","","","","-51","","Ice Crystals"
"-115.14","67.82","KUGLUKTUK A","2300903","2022-12-05 10:00","2022","12","05","10:00","-35.7","","-39.2","","71","","","","23","","26","","24.1","","103.57","","","","-52","","NA"
"-115.14","67.82","KUGLUKTUK A","2300903","2022-12-05 11:00","2022","12","05","11:00","-35.0","","-38.6","","70","","","","24","","31","","24.1","","103.49","","","","-52","","Blowing Snow"
"-115.14","67.82","KUGLUKTUK A","2300903","2022-12-05 12:00","2022","12","05","12:00","-35.0","","-38.7","","70","","","","23","","23","","24.1","","103.46","","","","-50","","NA"
"-115.14","67.82","KUGLUKTUK A","2300903","2022-12-05 13:00","2022","12","05","13:00","-35.3","","-38.9","","70","","","","23","","24","","24.1","","103.37","","","","-51","","NA"
"-115.14","67.82","KUGLUKTUK A","2300903","2022-12-05 14:00","2022","12","05","14:00","-35.1","","-38.8","","70","","","","23","","27","","24.1","","103.28","","","","-52","","Blowing Snow"
"-115.14","67.82","KUGLUKTUK A","2300903","2022-12-05 15:00","2022","12","05","15:00","-33.1","","-36.5","","72","","","","25","","29","","24.1","","103.23","","","","-49","","Blowing Snow"
"-115.14","67.82","KUGLUKTUK A","2300903","2022-12-05 16:00","2022","12","05","16:00","-34.0","","-37.7","","70","","","","24","","27","","24.1","","103.08","","","","-50","","Blowing Snow"
"-115.14","67.82","KUGLUKTUK A","2300903","2022-12-05 17:00","2022","12","05","17:00","-33.3","","-36.9","","71","","","","24","","30","","24.1","","103.00","","","","-50","","Blowing Snow"
"-115.14","67.82","KUGLUKTUK A","2300903","2022-12-05 18:00","2022","12","05","18:00","-33.2","","-36.8","","71","","","","25","","32","","24.1","","102.92","","","","-50","","Blowing Snow"
"-115.14","67.82","KUGLUKTUK A","2300903","2022-12-05 19:00","2022","12","05","19:00","-32.4","","-36.0","","71","","","","25","","33","","24.1","","102.81","","","","-49","","Blowing Snow"
"-115.14","67.82","KUGLUKTUK A","2300903","2022-12-05 20:00","2022","12","05","20:00","-31.7","","-35.7","","69","","","","26","","37","","24.1","","102.70","","","","-49","","Ice Crystals,Blowing Snow"
"-115.14","67.82","KUGLUKTUK A","2300903","2022-12-05 21:00","2022","12","05","21:00","-31.9","","-35.9","","68","","","","26","","35","","24.1","","102.54","","","","-49","","Ice Crystals,Blowing Snow"
"-115.14","67.82","KUGLUKTUK A","2300903","2022-12-05 22:00","2022","12","05","22:00","-31.4","","-35.6","","67","","","","25","","35","","24.1","","102.39","","","","-48","","Ice Crystals,Blowing Snow"
"-115.14","67.82","KUGLUKTUK A","2300903","2022-12-05 23:00","2022","12","05","23:00","-30.8","","-35.1","","67","","","","25","","39","","19.3","","102.24","","","","-48","","Ice Crystals,Blowing Snow"
"-115.14","67.82","KUGLUKTUK A","2300903","2022-12-06 00:00","2022","12","06","00:00","-30.7","","-34.8","","68","","","","26","","35","","24.1","","102.13","","","","-48","","Ice Crystals,Blowing Snow"
"-115.14","67.82","KUGLUKTUK A","2300903","2022-12-06 01:00","2022","12","06","01:00","-29.8","","-34.1","","67","","","","26","","26","","24.1","","102.07","","","","-44","","Ice Crystals,Blowing Snow"
"-115.14","67.82","KUGLUKTUK A","2300903","2022-12-06 02:00","2022","12","06","02:00","-29.3","","-33.5","","68","","","","24","","36","","24.1","","101.93","","","","-46","","Mainly Clear"
"-115.14","67.82","KUGLUKTUK A","2300903","2022-12-06 03:00","2022","12","06","03:00","-28.8","","-33.1","","67","","","","25","","35","","24.1","","101.81","","","","-45","","NA"
"-115.14","67.82","KUGLUKTUK A","2300903","2022-12-06 04:00","2022","12","06","04:00","-26.9","","-31.2","","67","","","","29","","26","","24.1","","101.70","","","","-41","","NA"
"-115.14","67.82","KUGLUKTUK A","2300903","2022-12-06 05:00","2022","12","06","05:00","-26.6","","-31.1","","67","","","","26","","32","","24.1","","101.58","","","","-42","","Mostly Cloudy"
"-115.14","67.82","KUGLUKTUK A","2300903","2022-12-06 06:00","2022","12","06","06:00","-25.5","","-29.2","","72","","","","31","","35","","12.9","","101.44","","","","-41","","Snow,Blowing Snow"
"-115.14","67.82","KUGLUKTUK A","2300903","2022-12-06 07:00","2022","12","06","07:00","-25.4","","-28.8","","74","","","","30","","25","","6.4","","101.34","","","","-39","","Snow,Blowing Snow"
"-115.14","67.82","KUGLUKTUK A","2300903","2022-12-06 08:00","2022","12","06","08:00","-25.2","","-28.5","","75","","","","29","","29","","2.4","","101.22","","","","-39","","Snow,Blowing Snow"
"-115.14","67.82","KUGLUKTUK A","2300903","2022-12-06 09:00","2022","12","06","09:00","-24.6","","-27.8","","75","","","","31","","25","","1.0","","101.12","","","","-38","","Snow,Blowing Snow"
"-115.14","67.82","KUGLUKTUK A","2300903","2022-12-06 10:00","2022","12","06","10:00","-24.5","","-27.7","","75","","","","30","","26","","2.4","","101.02","","","","-38","","Ice Crystals,Blowing Snow"
"-115.14","67.82","KUGLUKTUK A","2300903","2022-12-06 11:00","2022","12","06","11:00","-24.1","","-27.2","","76","","","","32","","33","","2.0","","100.93","","","","-38","","Ice Crystals,Blowing Snow"
"-115.14","67.82","KUGLUKTUK A","2300903","2022-12-06 12:00","2022","12","06","12:00","-23.6","","-26.6","","77","","","","33","","34","","1.0","","100.85","","","","-38","","Ice Crystals,Blowing Snow"
"-115.14","67.82","KUGLUKTUK A","2300903","2022-12-06 13:00","2022","12","06","13:00","-23.4","","-27.0","","73","","","","33","","32","","4.8","","100.79","","","","-37","","Ice Crystals,Blowing Snow"
"-115.14","67.82","KUGLUKTUK A","2300903","2022-12-06 14:00","2022","12","06","14:00","-23.2","","-26.6","","74","","","","34","","25","","4.8","","100.78","","","","-36","","Ice Crystals,Blowing Snow"
"-115.14","67.82","KUGLUKTUK A","2300903","2022-12-06 15:00","2022","12","06","15:00","-23.2","","-26.4","","76","","","","33","","23","","4.8","","100.76","","","","-35","","Ice Crystals,Blowing Snow"
"-115.14","67.82","KUGLUKTUK A","2300903","2022-12-06 16:00","2022","12","06","16:00","-23.9","","-27.0","","76","","","","22","","7","","6.4","","100.75","","","","-30","","Ice Crystals"
"-115.14","67.82","KUGLUKTUK A","2300903","2022-12-06 17:00","2022","12","06","17:00","-24.6","","-27.6","","77","","","","25","","16","","6.4","","100.73","","","","-35","","Ice Crystals"
"-115.14","67.82","KUGLUKTUK A","2300903","2022-12-06 18:00","2022","12","06","18:00","-26.1","","-29.1","","76","","","","21","","14","","1.6","","100.76","","","","-36","","Ice Crystals"
"-115.14","67.82","KUGLUKTUK A","2300903","2022-12-06 19:00","2022","12","06","19:00","-25.9","","-28.9","","76","","","","21","","13","","2.8","","100.79","","","","-36","","Ice Crystals"
"-115.14","67.82","KUGLUKTUK A","2300903","2022-12-06 20:00","2022","12","06","20:00","-27.6","","-30.7","","75","","","","19","","8","","9.7","","100.86","","","","-35","","Ice Crystals"
"-115.14","67.82","KUGLUKTUK A","2300903","2022-12-06 21:00","2022","12","06","21:00","-28.6","","-31.8","","75","","","","18","","11","","19.3","","100.95","","","","-38","","Ice Crystals"
"-115.14","67.82","KUGLUKTUK A","2300903","2022-12-06 22:00","2022","12","06","22:00","-29.0","","-32.0","","76","","","","14","","7","","24.1","","101.00","","","","-36","","Ice Crystals"
"-115.14","67.82","KUGLUKTUK A","2300903","2022-12-06 23:00","2022","12","06","23:00","-29.7","","-33.1","","73","","","","13","","9","","24.1","","101.06","","","","-38","","Mainly Clear"
"-115.14","67.82","KUGLUKTUK A","2300903","2022-12-07 00:00","2022","12","07","00:00","-30.2","","-33.9","","71","","","","9","","9","","24.1","","101.11","","","","-39","","NA"
"-115.14","67.82","KUGLUKTUK A","2300903","2022-12-07 01:00","2022","12","07","01:00","-29.7","","-33.8","","68","","","","9","","20","","24.1","","101.21","","","","-43","","NA"
"-115.14","67.82","KUGLUKTUK A","2300903","2022-12-07 02:00","2022","12","07","02:00","-30.6","","-34.9","","67","","","","12","","17","","24.1","","101.27","","","","-43","","Clear"
"-115.14","67.82","KUGLUKTUK A","2300903","2022-12-07 03:00","2022","12","07","03:00","-30.4","","-35.1","","65","","","","12","","14","","24.1","","101.33","","","","-42","","NA"
"-115.14","67.82","KUGLUKTUK A","2300903","2022-12-07 04:00","2022","12","07","04:00","-31.6","","-36.1","","65","","","","11","","16","","24.1","","101.37","","","","-44","","NA"
"-115.14","67.82","KUGLUKTUK A","2300903","2022-12-07 05:00","2022","12","07","05:00","-31.6","","-36.2","","65","","","","11","","14","","24.1","","101.42","","","","-43","","Clear"
"-115.14","67.82","KUGLUKTUK A","2300903","2022-12-07 06:00","2022","12","07","06:00","-32.4","","-36.9","","65","","","","11","","8","","24.1","","101.45","","","","-41","","NA"
"-115.14","67.82","KUGLUKTUK A","2300903","2022-12-07 07:00","2022","12","07","07:00","-33.0","","-37.4","","66","","","","11","","16","","24.1","","101.49","","","","-45","","NA"
"-115.14","67.82","KUGLUKTUK A","2300903","2022-12-07 08:00","2022","12","07","08:00","-31.8","","-36.6","","63","","","","9","","8","","24.1","","101.54","","","","-40","","Clear"
"-115.14","67.82","KUGLUKTUK A","2300903","2022-12-07 09:00","2022","12","07","09:00","-32.5","","-37.0","","65","","","","12","","13","","24.1","","101.59","","","","-44","","NA"
"-115.14","67.82","KUGLUKTUK A","2300903","2022-12-07 10:00","2022","12","07","10:00","-31.4","","-36.4","","63","","","","11","","13","","24.1","","101.64","","","","-42","","NA"
"-115.14","67.82","KUGLUKTUK A","2300903","2022-12-07 11:00","2022","12","07","11:00","-31.4","","-36.2","","64","","","","13","","5","","24.1","","101.67","","","","-37","","Mostly Cloudy"
"-115.14","67.82","KUGLUKTUK A","2300903","2022-12-07 12:00","2022","12","07","12:00","-31.5","","-36.3","","64","","","","36","","3","","24.1","","101.70","","","","-35","","NA"
"-115.14","67.82","KUGLUKTUK A","2300903","2022-12-07 13:00","2022","12","07","13:00","-32.6","","-37.3","","64","","","","23","","8","","24.1","","101.72","","","","-41","","NA"
"-115.14","67.82","KUGLUKTUK A","2300903","2022-12-07 14:00","2022","12","07","14:00","-33.0","","-37.4","","66","","","","23","","13","","24.1","","101.74","","","","-44","","Clear"
"-115.14","67.82","KUGLUKTUK A","2300903","2022-12-07 15:00","2022","12","07","15:00","-34.0","","-38.1","","68","","","","20","","8","","24.1","","101.74","","","","-43","","NA"
"-115.14","67.82","KUGLUKTUK A","2300903","2022-12-07 16:00","2022","12","07","16:00","-33.4","","-37.7","","67","","","","16","","7","","24.1","","101.72","","","","-41","","NA"
"-115.14","67.82","KUGLUKTUK A","2300903","2022-12-07 17:00","2022","12","07","17:00","-32.7","","-37.0","","67","","","","15","","4","","24.1","","101.75","","","","-37","","Clear"
"-115.14","67.82","KUGLUKTUK A","2300903","2022-12-07 18:00","2022","12","07","18:00","-32.9","","-37.2","","66","","","","21","","5","","24.1","","101.79","","","","-39","","NA"
"-115.14","67.82","KUGLUKTUK A","2300903","2022-12-07 19:00","2022","12","07","19:00","-33.9","","-38.2","","66","","","","19","","13","","24.1","","101.80","","","","-45","","NA"
"-115.14","67.82","KUGLUKTUK A","2300903","2022-12-07 20:00","2022","12","07","20:00","-32.8","","-37.0","","67","","","","29","","5","","24.1","","101.80","","","","-39","","Clear"
"-115.14","67.82","KUGLUKTUK A","2300903","2022-12-07 21:00","2022","12","07","21:00","-32.7","","-37.0","","67","","","","30","","7","","24.1","","101.80","","","","-40","","NA"
"-115.14","67.82","KUGLUKTUK A","2300903","2022-12-07 22:00","2022","12","07","22:00","-34.0","","-37.7","","70","","","","29","","8","","24.1","","101.80","","","","-43","","NA"
"-115.14","67.82","KUGLUKTUK A","2300903","2022-12-07 23:00","2022","12","07","23:00","-36.8","","-40.5","","70","","","","22","","11","","24.1","","101.78","","","","-48","","Clear"
"-115.14","67.82","KUGLUKTUK A","2300903","2022-12-08 00:00","2022","12","08","00:00","-35.9","","-39.5","","71","","","","2","","5","","24.1","","101.79","","","","-42","","NA"
"-115.14","67.82","KUGLUKTUK A","2300903","2022-12-08 01:00","2022","12","08","01:00","-36.2","","-39.8","","70","","","","23","","9","","24.1","","101.77","","","","-46","","NA"
"-115.14","67.82","KUGLUKTUK A","2300903","2022-12-08 02:00","2022","12","08","02:00","-37.6","","-41.2","","70","","","","22","","15","","24.1","","101.77","","","","-51","","Clear"
"-115.14","67.82","KUGLUKTUK A","2300903","2022-12-08 03:00","2022","12","08","03:00","-36.5","","-40.2","","70","","","","24","","8","","24.1","","101.77","","","","-46","","NA"
"-115.14","67.82","KUGLUKTUK A","2300903","2022-12-08 04:00","2022","12","08","04:00","-34.6","","-38.0","","72","","","","27","","7","","24.1","","101.75","","","","-43","","NA"
"-115.14","67.82","KUGLUKTUK A","2300903","2022-12-08 05:00","2022","12","08","05:00","-35.9","","-39.5","","70","","","","27","","12","","24.1","","101.72","","","","-47","","Clear"
"-115.14","67.82","KUGLUKTUK A","2300903","2022-12-08 06:00","2022","12","08","06:00","-35.1","","-38.7","","70","","","","22","","7","","24.1","","101.68","","","","-43","","Ice Crystals"
"-115.14","67.82","KUGLUKTUK A","2300903","2022-12-08 07:00","2022","12","08","07:00","-36.6","","-40.1","","71","","","","17","","5","","24.1","","101.66","","","","-43","","Ice Crystals"
"-115.14","67.82","KUGLUKTUK A","2300903","2022-12-08 08:00","2022","12","08","08:00","-36.2","","-39.7","","71","","","","5","","5","","24.1","","101.65","","","","-43","","Ice Crystals"
"-115.14","67.82","KUGLUKTUK A","2300903","2022-12-08 09:00","2022","12","08","09:00","-36.5","","-40.0","","71","","","","16","","4","","24.1","","101.63","","","","-42","","NA"
"-115.14","67.82","KUGLUKTUK A","2300903","2022-12-08 10:00","2022","12","08","10:00","-36.1","","-39.6","","71","","","","32","","4","","24.1","","101.62","","","","-41","","NA"
"-115.14","67.82","KUGLUKTUK A","2300903","2022-12-08 11:00","2022","12","08","11:00","-36.4","","-39.8","","71","","","","21","","3","","24.1","","101.59","","","","-40","","Clear"
"-115.14","67.82","KUGLUKTUK A","2300903","2022-12-08 12:00","2022","12","08","12:00","-36.5","","-40.0","","71","","","","36","","2","","24.1","","101.54","","","","-39","","NA"
"-115.14","67.82","KUGLUKTUK A","2300903","2022-12-08 13:00","2022","12","08","13:00","-36.5","","-40.0","","71","","","","36","","2","","24.1","","101.49","","","","-39","","NA"
"-115.14","67.82","KUGLUKTUK A","2300903","2022-12-08 14:00","2022","12","08","14:00","-36.7","","-40.3","","71","","","","34","","4","","24.1","","101.47","","","","-42","","Clear"
"-115.14","67.82","KUGLUKTUK A","2300903","2022-12-08 15:00","2022","12","08","15:00","-36.9","","-40.5","","70","","","","33","","3","","24.1","","101.45","","","","-41","","NA"
"-115.14","67.82","KUGLUKTUK A","2300903","2022-12-08 16:00","2022","12","08","16:00","-37.4","","-41.0","","70","","","","34","","8","","24.1","","101.41","","","","-47","","NA"
"-115.14","67.82","KUGLUKTUK A","2300903","2022-12-08 17:00","2022","12","08","17:00","-36.6","","-40.1","","70","","","","35","","6","","24.1","","101.38","","","","-44","","Clear"
"-115.14","67.82","KUGLUKTUK A","2300903","2022-12-08 18:00","2022","12","08","18:00","-37.5","","-41.1","","69","","","","14","","7","","24.1","","101.35","","","","-46","","NA"
"-115.14","67.82","KUGLUKTUK A","2300903","2022-12-08 19:00","2022","12","08","19:00","-35.8","","-39.4","","71","","","","33","","4","","24.1","","101.29","","","","-41","","NA"
"-115.14","67.82","KUGLUKTUK A","2300903","2022-12-08 20:00","2022","12","08","20:00","-34.1","","-37.5","","72","","","","30","","3","","24.1","","101.26","","","","-38","","Clear"
"-115.14","67.82","KUGLUKTUK A","2300903","2022-12-08 21:00","2022","12","08","21:00","-35.8","","-39.3","","71","","","","30","","8","","24.1","","101.24","","","","-45","","NA"
"-115.14","67.82","KUGLUKTUK A","2300903","2022-12-08 22:00","2022","12","08","22:00","-37.1","","-40.7","","70","","","","18","","4","","24.1","","101.22","","","","-42","","NA"
"-115.14","67.82","KUGLUKTUK A","2300903","2022-12-08 23:00","2022","12","08","23:00","-35.9","","-39.4","","71","","","","33","","3","","24.1","","101.24","","","","-40","","Clear"
"-115.14","67.82","KUGLUKTUK A","2300903","2022-12-09 00:00","2022","12","09","00:00","-35.7","","-39.2","","71","","","","31","","4","","24.1","","101.23","","","","-41","","NA"
"-115.14","67.82","KUGLUKTUK A","2300903","2022-12-09 01:00","2022","12","09","01:00","-36.3","","-39.8","","71","","","","33","","4","","24.1","","101.21","","","","-41","","NA"
"-115.14","67.82","KUGLUKTUK A","2300903","2022-12-09 02:00","2022","12","09","02:00","-36.2","","-39.8","","71","","","","28","","7","","24.1","","101.23","","","","-44","","Clear"
"-115.14","67.82","KUGLUKTUK A","2300903","2022-12-09 03:00","2022","12","09","03:00","-38.5","","-42.3","","69","","","","22","","9","","24.1","","101.26","","","","-49","","NA"
"-115.14","67.82","KUGLUKTUK A","2300903","2022-12-09 04:00","2022","12","09","04:00","-37.4","","-41.0","","69","","","","23","","4","","24.1","","101.26","","","","-43","","NA"
"-115.14","67.82","KUGLUKTUK A","2300903","2022-12-09 05:00","2022","12","09","05:00","-37.2","","-40.9","","70","","","","36","","1","","24.1","","101.26","","","","-39","","Clear"
"-115.14","67.82","KUGLUKTUK A","2300903","2022-12-09 06:00","2022","12","09","06:00","-37.4","","-41.1","","69","","","","26","","10","","24.1","","101.29","","","","-48","","NA"
"-115.14","67.82","KUGLUKTUK A","2300903","2022-12-09 07:00","2022","12","09","07:00","-38.2","","-42.0","","69","","","","22","","17","","24.1","","101.34","","","","-52","","NA"
"-115.14","67.82","KUGLUKTUK A","2300903","2022-12-09 08:00","2022","12","09","08:00","-37.7","","-41.5","","69","","","","25","","11","","24.1","","101.38","","","","-49","","Clear"
"-115.14","67.82","KUGLUKTUK A","2300903","2022-12-09 09:00","2022","12","09","09:00","-38.0","","-41.8","","69","","","","23","","14","","24.1","","101.40","","","","-51","","NA"
"-115.14","67.82","KUGLUKTUK A","2300903","2022-12-09 10:00","2022","12","09","10:00","-38.4","","-42.3","","68","","","","23","","19","","24.1","","101.46","","","","-53","","NA"
"-115.14","67.82","KUGLUKTUK A","2300903","2022-12-09 11:00","2022","12","09","11:00","-37.9","","-41.7","","69","","","","22","","20","","24.1","","101.52","","","","-53","","Clear"
"-115.14","67.82","KUGLUKTUK A","2300903","2022-12-09 12:00","2022","12","09","12:00","-37.8","","-41.6","","69","","","","22","","18","","24.1","","101.54","","","","-52","","NA"
"-115.14","67.82","KUGLUKTUK A","2300903","2022-12-09 13:00","2022","12","09","13:00","-36.8","","-40.6","","69","","","","23","","16","","24.1","","101.58","","","","-50","","NA"
"-115.14","67.82","KUGLUKTUK A","2300903","2022-12-09 14:00","2022","12","09","14:00","-36.5","","-40.2","","69","","","","23","","17","","24.1","","101.67","","","","-50","","Clear"
"-115.14","67.82","KUGLUKTUK A","2300903","2022-12-09 15:00","2022","12","09","15:00","-36.6","","-40.3","","69","","","","23","","16","","24.1","","101.69","","","","-50","","NA"
"-115.14","67.82","KUGLUKTUK A","2300903","2022-12-09 16:00","2022","12","09","16:00","-36.5","","-40.2","","69","","","","23","","15","","24.1","","101.77","","","","-49","","NA"
"-115.14","67.82","KUGLUKTUK A","2300903","2022-12-09 17:00","2022","12","09","17:00","-36.6","","-40.4","","69","","","","23","","17","","24.1","","101.83","","","","-50","","Clear"
"-115.14","67.82","KUGLUKTUK A","2300903","2022-12-09 18:00","2022","12","09","18:00","-37.2","","-41.0","","69","","","","21","","9","","24.1","","101.91","","","","-47","","NA"
"-115.14","67.82","KUGLUKTUK A","2300903","2022-12-09 19:00","2022","12","09","19:00","-36.8","","-40.5","","69","","","","22","","14","","24.1","","101.94","","","","-49","","NA"
"-115.14","67.82","KUGLUKTUK A","2300903","2022-12-09 20:00","2022","12","09","20:00","-36.8","","-40.5","","69","","","","22","","14","","24.1","","102.00","","","","-49","","Mainly Clear"
"-115.14","67.82","KUGLUKTUK A","2300903","2022-12-09 21:00","2022","12","09","21:00","-36.1","","-39.9","","70","","","","22","","12","","24.1","","102.05","","","","-48","","NA"
"-115.14","67.82","KUGLUKTUK A","2300903","2022-12-09 22:00","2022","12","09","22:00","-36.4","","-40.1","","69","","","","22","","11","","24.1","","102.10","","","","-47","","NA"
"-115.14","67.82","KUGLUKTUK A","2300903","2022-12-09 23:00","2022","12","09","23:00","-36.4","","-40.1","","69","","","","22","","9","","24.1","","102.14","","","","-46","","Ice Crystals"
"-115.14","67.82","KUGLUKTUK A","2300903","2022-12-10 00:00","2022","12","10","00:00","-35.4","","-39.1","","70","","","","36","","1","","24.1","","102.22","","","","-37","","Ice Crystals"
"-115.14","67.82","KUGLUKTUK A","2300903","2022-12-10 01:00","2022","12","10","01:00","-36.6","","-40.4","","69","","","","19","","4","","24.1","","102.27","","","","-42","","Ice Crystals"
"-115.14","67.82","KUGLUKTUK A","2300903","2022-12-10 02:00","2022","12","10","02:00","-35.2","","-38.9","","70","","","","25","","5","","24.1","","102.35","","","","-42","","Mostly Cloudy"
"-115.14","67.82","KUGLUKTUK A","2300903","2022-12-10 03:00","2022","12","10","03:00","-36.3","","-40.0","","69","","","","22","","9","","24.1","","102.41","","","","-46","","NA"
"-115.14","67.82","KUGLUKTUK A","2300903","2022-12-10 04:00","2022","12","10","04:00","-35.6","","-39.3","","70","","","","21","","12","","24.1","","102.45","","","","-47","","NA"
"-115.14","67.82","KUGLUKTUK A","2300903","2022-12-10 05:00","2022","12","10","05:00","-35.5","","-39.2","","70","","","","21","","12","","24.1","","102.49","","","","-47","","Mainly Clear"
"-115.14","67.82","KUGLUKTUK A","2300903","2022-12-10 06:00","2022","12","10","06:00","-34.9","","-38.5","","70","","","","24","","7","","24.1","","102.52","","","","-43","","NA"
"-115.14","67.82","KUGLUKTUK A","2300903","2022-12-10 07:00","2022","12","10","07:00","-34.9","","-38.6","","70","","","","3","","6","","24.1","","102.56","","","","-42","","NA"
"-115.14","67.82","KUGLUKTUK A","2300903","2022-12-10 08:00","2022","12","10","08:00","-35.1","","-38.8","","70","","","","19","","5","","24.1","","102.60","","","","-41","","Mainly Clear"
"-115.14","67.82","KUGLUKTUK A","2300903","2022-12-10 09:00","2022","12","10","09:00","-35.5","","-39.2","","70","","","","20","","10","","24.1","","102.67","","","","-46","","NA"
"-115.14","67.82","KUGLUKTUK A","2300903","2022-12-10 10:00","2022","12","10","10:00","-34.4","","-38.1","","71","","","","36","","2","","24.1","","102.70","","","","-37","","NA"
"-115.14","67.82","KUGLUKTUK A","2300903","2022-12-10 11:00","2022","12","10","11:00","-33.4","","-37.0","","71","","","","1","","5","","24.1","","102.73","","","","-39","","Mainly Clear"
"-115.14","67.82","KUGLUKTUK A","2300903","2022-12-10 12:00","2022","12","10","12:00","-34.0","","-37.6","","71","","","","4","","4","","24.1","","102.75","","","","-39","","NA"
"-115.14","67.82","KUGLUKTUK A","2300903","2022-12-10 13:00","2022","12","10","13:00","-33.3","","-36.8","","71","","","","36","","3","","24.1","","102.79","","","","-37","","NA"
"-115.14","67.82","KUGLUKTUK A","2300903","2022-12-10 14:00","2022","12","10","14:00","-34.0","","-37.6","","71","","","","14","","4","","24.1","","102.82","","","","-39","","Mainly Clear"
"-115.14","67.82","KUGLUKTUK A","2300903","2022-12-10 15:00","2022","12","10","15:00","-33.1","","-36.6","","71","","","","12","","3","","24.1","","102.85","","","","-37","","NA"
"-115.14","67.82","KUGLUKTUK A","2300903","2022-12-10 16:00","2022","12","10","16:00","-31.9","","-35.4","","72","","","","36","","3","","24.1","","102.86","","","","-35","","NA"
"-115.14","67.82","KUGLUKTUK A","2300903","2022-12-10 17:00","2022","12","10","17:00","-30.5","","-33.9","","73","","","","5","","12","","24.1","","102.87","","","","-41","","Mainly Clear"
"-115.14","67.82","KUGLUKTUK A","2300903","2022-12-10 18:00","2022","12","10","18:00","-31.7","","-35.1","","72","","","","12","","7","","24.1","","102.88","","","","-39","","NA"
"-115.14","67.82","KUGLUKTUK A","2300903","2022-12-10 19:00","2022","12","10","19:00","-30.8","","-34.2","","73","","","","14","","4","","24.1","","102.91","","","","-35","","NA"
"-115.14","67.82","KUGLUKTUK A","2300903","2022-12-10 20:00","2022","12","10","20:00","-29.4","","-32.7","","74","","","","36","","2","","24.1","","102.91","","","","-32","","Ice Crystals"
"-115.14","67.82","KUGLUKTUK A","2300903","2022-12-10 21:00","2022","12","10","21:00","-29.9","","-33.2","","74","","","","9","","8","","24.1","","102.92","","","","-38","","Ice Crystals"
"-115.14","67.82","KUGLUKTUK A","2300903","2022-12-10 22:00","2022","12","10","22:00","-32.0","","-35.4","","72","","","","14","","7","","24.1","","102.91","","","","-40","","Ice Crystals"
"-115.14","67.82","KUGLUKTUK A","2300903","2022-12-10 23:00","2022","12","10","23:00","-29.9","","-33.2","","74","","","","10","","18","","24.1","","102.89","","","","-42","","Ice Crystals"
"-115.14","67.82","KUGLUKTUK A","2300903","2022-12-11 00:00","2022","12","11","00:00","-29.0","","-32.2","","74","","","","10","","21","","24.1","","102.87","","","","-42","","Ice Crystals"
"-115.14","67.82","KUGLUKTUK A","2300903","2022-12-11 01:00","2022","12","11","01:00","-29.6","","-32.9","","74","","","","11","","20","","24.1","","102.89","","","","-43","","Ice Crystals"
"-115.14","67.82","KUGLUKTUK A","2300903","2022-12-11 02:00","2022","12","11","02:00","-28.9","","-32.1","","74","","","","10","","25","","19.3","","102.89","","","","-43","","Ice Crystals"
"-115.14","67.82","KUGLUKTUK A","2300903","2022-12-11 03:00","2022","12","11","03:00","-28.5","","-31.7","","75","","","","9","","15","","19.3","","102.93","","","","-40","","Ice Crystals"
"-115.14","67.82","KUGLUKTUK A","2300903","2022-12-11 04:00","2022","12","11","04:00","-28.2","","-31.4","","75","","","","10","","18","","19.3","","102.95","","","","-40","","Ice Crystals"
"-115.14","67.82","KUGLUKTUK A","2300903","2022-12-11 05:00","2022","12","11","05:00","-28.4","","-31.6","","75","","","","9","","17","","16.1","","102.96","","","","-40","","Ice Crystals"
"-115.14","67.82","KUGLUKTUK A","2300903","2022-12-11 06:00","2022","12","11","06:00","-28.3","","-31.5","","75","","","","10","","18","","12.9","","102.94","","","","-40","","Ice Crystals"
"-115.14","67.82","KUGLUKTUK A","2300903","2022-12-11 07:00","2022","12","11","07:00","-28.2","","-31.4","","75","","","","9","","20","","12.9","","102.95","","","","-41","","Ice Crystals"
"-115.14","67.82","KUGLUKTUK A","2300903","2022-12-11 08:00","2022","12","11","08:00","-28.3","","-31.5","","75","","","","8","","14","","19.3","","102.99","","","","-39","","Ice Crystals"
"-115.14","67.82","KUGLUKTUK A","2300903","2022-12-11 09:00","2022","12","11","09:00","-27.9","","-31.1","","75","","","","8","","11","","16.1","","102.98","","","","-37","","Ice Crystals"
"-115.14","67.82","KUGLUKTUK A","2300903","2022-12-11 10:00","2022","12","11","10:00","-27.8","","-30.9","","75","","","","6","","13","","16.1","","102.98","","","","-38","","Ice Crystals"
"-115.14","67.82","KUGLUKTUK A","2300903","2022-12-11 11:00","2022","12","11","11:00","-28.2","","-31.4","","75","","","","7","","5","","16.1","","102.97","","","","-34","","Ice Crystals"
"-115.14","67.82","KUGLUKTUK A","2300903","2022-12-11 12:00","2022","12","11","12:00","-28.5","","-31.6","","75","","","","7","","13","","19.3","","102.97","","","","-39","","Ice Crystals"
"-115.14","67.82","KUGLUKTUK A","2300903","2022-12-11 13:00","2022","12","11","13:00","-28.1","","-31.2","","75","","","","7","","16","","16.1","","102.94","","","","-39","","Ice Crystals"
"-115.14","67.82","KUGLUKTUK A","2300903","2022-12-11 14:00","2022","12","11","14:00","-28.7","","-31.9","","75","","","","1","","5","","12.9","","102.95","","","","-34","","Ice Crystals"
"-115.14","67.82","KUGLUKTUK A","2300903","2022-12-11 15:00","2022","12","11","15:00","-28.7","","-31.9","","75","","","","1","","4","","12.9","","102.95","","","","-33","","Ice Crystals"
"-115.14","67.82","KUGLUKTUK A","2300903","2022-12-11 16:00","2022","12","11","16:00","-29.0","","-32.2","","74","","","","36","","2","","12.9","","102.97","","","","-31","","Ice Crystals"
"-115.14","67.82","KUGLUKTUK A","2300903","2022-12-11 17:00","2022","12","11","17:00","-28.2","","-31.4","","75","","","","5","","6","","12.9","","102.95","","","","-34","","Ice Crystals"
"-115.14","67.82","KUGLUKTUK A","2300903","2022-12-11 18:00","2022","12","11","18:00","-28.2","","-31.3","","75","","","","7","","6","","12.9","","102.94","","","","-34","","Ice Crystals"
"-115.14","67.82","KUGLUKTUK A","2300903","2022-12-11 19:00","2022","12","11","19:00","-28.2","","-31.4","","75","","","","7","","8","","16.1","","102.89","","","","-36","","Ice Crystals"
"-115.14","67.82","KUGLUKTUK A","2300903","2022-12-11 20:00","2022","12","11","20:00","-28.5","","-31.7","","75","","","","36","","4","","16.1","","102.87","","","","-33","","Ice Crystals"
"-115.14","67.82","KUGLUKTUK A","2300903","2022-12-11 21:00","2022","12","11","21:00","-27.9","","-31.0","","75","","","","3","","8","","12.9","","102.85","","","","-36","","Ice Crystals"
"-115.14","67.82","KUGLUKTUK A","2300903","2022-12-11 22:00","2022","12","11","22:00","-27.6","","-30.7","","76","","","","5","","7","","16.1","","102.84","","","","-34","","Ice Crystals"
"-115.14","67.82","KUGLUKTUK A","2300903","2022-12-11 23:00","2022","12","11","23:00","-27.4","","-30.5","","76","","","","5","","8","","16.1","","102.78","","","","-35","","Ice Crystals"
"-115.14","67.82","KUGLUKTUK A","2300903","2022-12-12 00:00","2022","12","12","00:00","-27.0","","-30.0","","76","","","","6","","12","","16.1","","102.74","","","","-37","","Snow"
"-115.14","67.82","KUGLUKTUK A","2300903","2022-12-12 01:00","2022","12","12","01:00","-26.1","","-29.1","","77","","","","6","","9","","12.9","","102.69","","","","-34","","Snow"
"-115.14","67.82","KUGLUKTUK A","2300903","2022-12-12 02:00","2022","12","12","02:00","-25.8","","-28.7","","77","","","","5","","8","","12.9","","102.65","","","","-33","","Snow"
"-115.14","67.82","KUGLUKTUK A","2300903","2022-12-12 03:00","2022","12","12","03:00","-25.4","","-28.3","","77","","","","5","","7","","12.9","","102.58","","","","-32","","Snow"
"-115.14","67.82","KUGLUKTUK A","2300903","2022-12-12 04:00","2022","12","12","04:00","-24.7","","-27.6","","78","","","","7","","9","","16.1","","102.54","","","","-32","","Snow"
"-115.14","67.82","KUGLUKTUK A","2300903","2022-12-12 05:00","2022","12","12","05:00","-25.4","","-28.4","","77","","","","11","","3","","9.7","","102.49","","","","-28","","Snow"
"-115.14","67.82","KUGLUKTUK A","2300903","2022-12-12 06:00","2022","12","12","06:00","-25.5","","-28.4","","77","","","","11","","7","","12.9","","102.43","","","","-32","","Snow"
"-115.14","67.82","KUGLUKTUK A","2300903","2022-12-12 07:00","2022","12","12","07:00","-27.8","","-31.0","","75","","","","19","","7","","19.3","","102.36","","","","-35","","Snow"
"-115.14","67.82","KUGLUKTUK A","2300903","2022-12-12 08:00","2022","12","12","08:00","-26.7","","-29.7","","76","","","","13","","5","","19.3","","102.28","","","","-32","","Ice Crystals"
"-115.14","67.82","KUGLUKTUK A","2300903","2022-12-12 09:00","2022","12","12","09:00","-27.3","","-30.3","","76","","","","33","","4","","19.3","","102.22","","","","-32","","Ice Crystals"
"-115.14","67.82","KUGLUKTUK A","2300903","2022-12-12 10:00","2022","12","12","10:00","-28.2","","-31.2","","76","","","","28","","3","","19.3","","102.15","","","","-31","","Ice Crystals"
"-115.14","67.82","KUGLUKTUK A","2300903","2022-12-12 11:00","2022","12","12","11:00","-31.1","","-34.4","","73","","","","22","","11","","19.3","","102.09","","","","-41","","Ice Crystals"
"-115.14","67.82","KUGLUKTUK A","2300903","2022-12-12 12:00","2022","12","12","12:00","-31.0","","-34.3","","73","","","","22","","15","","19.3","","102.02","","","","-43","","Ice Crystals"
"-115.14","67.82","KUGLUKTUK A","2300903","2022-12-12 13:00","2022","12","12","13:00","-29.6","","-32.7","","75","","","","36","","1","","19.3","","101.91","","","","-31","","Ice Crystals"
"-115.14","67.82","KUGLUKTUK A","2300903","2022-12-12 14:00","2022","12","12","14:00","-31.5","","-34.9","","73","","","","17","","5","","24.1","","101.89","","","","-37","","Ice Crystals"
"-115.14","67.82","KUGLUKTUK A","2300903","2022-12-12 15:00","2022","12","12","15:00","-30.9","","-34.1","","74","","","","20","","5","","24.1","","101.84","","","","-37","","Ice Crystals"
"-115.14","67.82","KUGLUKTUK A","2300903","2022-12-12 16:00","2022","12","12","16:00","-30.5","","-33.8","","74","","","","4","","6","","24.1","","101.72","","","","-37","","Ice Crystals"
"-115.14","67.82","KUGLUKTUK A","2300903","2022-12-12 17:00","2022","12","12","17:00","-29.3","","-32.4","","75","","","","3","","3","","19.3","","101.69","","","","-33","","Ice Crystals"
"-115.14","67.82","KUGLUKTUK A","2300903","2022-12-12 18:00","2022","12","12","18:00","-28.8","","-32.0","","75","","","","10","","8","","24.1","","101.59","","","","-37","","Ice Crystals"
"-115.14","67.82","KUGLUKTUK A","2300903","2022-12-12 19:00","2022","12","12","19:00","-28.7","","-31.8","","75","","","","10","","8","","24.1","","101.49","","","","-36","","Ice Crystals"
"-115.14","67.82","KUGLUKTUK A","2300903","2022-12-12 20:00","2022","12","12","20:00","-25.4","","-28.2","","78","","","","10","","13","","24.1","","101.40","","","","-35","","Ice Crystals"
"-115.14","67.82","KUGLUKTUK A","2300903","2022-12-12 21:00","2022","12","12","21:00","-24.7","","-27.6","","78","","","","10","","23","","24.1","","101.29","","","","-37","","Ice Crystals,Blowing Snow"
"-115.14","67.82","KUGLUKTUK A","2300903","2022-12-12 22:00","2022","12","12","22:00","-23.3","","-26.0","","79","","","","10","","20","","24.1","","101.20","","","","-35","","Ice Crystals,Blowing Snow"
"-115.14","67.82","KUGLUKTUK A","2300903","2022-12-12 23:00","2022","12","12","23:00","-22.3","","-24.9","","80","","","","8","","18","","24.1","","101.10","","","","-33","","Ice Crystals"
"-115.14","67.82","KUGLUKTUK A","2300903","2022-12-13 00:00","2022","12","13","00:00","-20.5","","-22.9","","81","","","","9","","23","","24.1","","100.98","","","","-32","","Ice Crystals"
"-115.14","67.82","KUGLUKTUK A","2300903","2022-12-13 01:00","2022","12","13","01:00","-20.0","","-22.4","","81","","","","8","","23","","24.1","","100.85","","","","-31","","Ice Crystals"
"-115.14","67.82","KUGLUKTUK A","2300903","2022-12-13 02:00","2022","12","13","02:00","-19.2","","-21.6","","82","","","","8","","27","","24.1","","100.70","","","","-31","","Ice Crystals,Blowing Snow"
"-115.14","67.82","KUGLUKTUK A","2300903","2022-12-13 03:00","2022","12","13","03:00","-17.9","","-20.1","","83","","","","9","","31","","16.1","","100.57","","","","-30","","Ice Crystals,Blowing Snow"
"-115.14","67.82","KUGLUKTUK A","2300903","2022-12-13 04:00","2022","12","13","04:00","-16.6","","-18.7","","84","","","","11","","35","","16.1","","100.46","","","","-29","","Ice Crystals,Blowing Snow"
"-115.14","67.82","KUGLUKTUK A","2300903","2022-12-13 05:00","2022","12","13","05:00","-15.9","","-17.9","","85","","","","11","","46","","0.0","","100.16","","","","-29","","Moderate Snow,Blowing Snow"
"-115.14","67.82","KUGLUKTUK A","2300903","2022-12-13 06:00","2022","12","13","06:00","-15.5","","-17.4","","85","","","","12","","41","","0.0","","100.14","","","","-28","","Moderate Snow,Blowing Snow"
"-115.14","67.82","KUGLUKTUK A","2300903","2022-12-13 07:00","2022","12","13","07:00","-15.1","","-17.0","","86","","","","12","","28","","0.0","","100.10","","","","-26","","Moderate Snow,Blowing Snow"
"-115.14","67.82","KUGLUKTUK A","2300903","2022-12-13 08:00","2022","12","13","08:00","-14.4","","-16.3","","86","","","","12","","20","","1.2","","100.02","","","","-23","","Snow,Blowing Snow"
"-115.14","67.82","KUGLUKTUK A","2300903","2022-12-13 09:00","2022","12","13","09:00","-14.6","","-16.6","","85","","","","20","","19","","9.7","","99.93","","","","-23","","Snow,Blowing Snow"
"-115.14","67.82","KUGLUKTUK A","2300903","2022-12-13 10:00","2022","12","13","10:00","-14.2","","-16.2","","85","","","","21","","25","","4.8","","99.88","","","","-24","","Snow,Blowing Snow"
"-115.14","67.82","KUGLUKTUK A","2300903","2022-12-13 11:00","2022","12","13","11:00","-15.9","","-18.3","","82","","","","21","","23","","19.3","","99.85","","","","-26","","Blowing Snow"
"-115.14","67.82","KUGLUKTUK A","2300903","2022-12-13 12:00","2022","12","13","12:00","-15.5","","-18.1","","81","","","","21","","19","","4.8","","99.84","","","","-25","","Snow,Blowing Snow"
"-115.14","67.82","KUGLUKTUK A","2300903","2022-12-13 13:00","2022","12","13","13:00","-14.5","","-17.2","","80","","","","24","","20","","4.8","","99.81","","","","-24","","Snow"
"-115.14","67.82","KUGLUKTUK A","2300903","2022-12-13 14:00","2022","12","13","14:00","-15.9","","-18.8","","79","","","","24","","30","","9.7","","99.81","","","","-27","","Snow,Blowing Snow"
"-115.14","67.82","KUGLUKTUK A","2300903","2022-12-13 15:00","2022","12","13","15:00","-19.0","","-21.8","","79","","","","23","","35","","8.1","","99.83","","","","-32","","Snow,Blowing Snow"
"-115.14","67.82","KUGLUKTUK A","2300903","2022-12-13 16:00","2022","12","13","16:00","-20.1","","-22.9","","79","","","","24","","37","","3.2","","99.90","","","","-34","","Blowing Snow"
"-115.14","67.82","KUGLUKTUK A","2300903","2022-12-13 17:00","2022","12","13","17:00","-20.4","","-23.3","","78","","","","25","","40","","4.8","","99.95","","","","-35","","Blowing Snow"
"-115.14","67.82","KUGLUKTUK A","2300903","2022-12-13 18:00","2022","12","13","18:00","-20.4","","-23.2","","79","","","","24","","42","","4.8","","99.96","","","","-35","","Blowing Snow"
"-115.14","67.82","KUGLUKTUK A","2300903","2022-12-13 19:00","2022","12","13","19:00","-19.9","","-22.8","","78","","","","25","","45","","4.8","","99.94","","","","-35","","Blowing Snow"
"-115.14","67.82","KUGLUKTUK A","2300903","2022-12-13 20:00","2022","12","13","20:00","-19.3","","-21.9","","80","","","","26","","55","","1.6","","99.96","","","","-35","","Ice Crystals,Blowing Snow"
"-115.14","67.82","KUGLUKTUK A","2300903","2022-12-13 21:00","2022","12","13","21:00","-19.4","","-22.1","","80","","","","26","","45","","2.0","","100.07","","","","-34","","Ice Crystals,Blowing Snow"
"-115.14","67.82","KUGLUKTUK A","2300903","2022-12-13 22:00","2022","12","13","22:00","-19.3","","-22.1","","79","","","","25","","43","","3.2","","100.16","","","","-34","","Ice Crystals,Blowing Snow"
"-115.14","67.82","KUGLUKTUK A","2300903","2022-12-13 23:00","2022","12","13","23:00","-18.4","","-20.9","","81","","","","25","","45","","3.2","","100.23","","","","-33","","Ice Crystals,Blowing Snow"
"-115.14","67.82","KUGLUKTUK A","2300903","2022-12-14 00:00","2022","12","14","00:00","-18.2","","-20.9","","80","","","","26","","46","","3.2","","100.29","","","","-32","","Ice Crystals,Blowing Snow"
"-115.14","67.82","KUGLUKTUK A","2300903","2022-12-14 01:00","2022","12","14","01:00","-17.8","","-20.5","","79","","","","26","","48","","3.2","","100.36","","","","-32","","Ice Crystals,Blowing Snow"
"-115.14","67.82","KUGLUKTUK A","2300903","2022-12-14 02:00","2022","12","14","02:00","-18.0","","-20.7","","79","","","","26","","49","","3.2","","100.44","","","","-33","","Ice Crystals,Blowing Snow"
"-115.14","67.82","KUGLUKTUK A","2300903","2022-12-14 03:00","2022","12","14","03:00","-17.6","","-20.9","","76","","","","27","","42","","3.2","","100.56","","","","-31","","Ice Crystals,Blowing Snow"
"-115.14","67.82","KUGLUKTUK A","2300903","2022-12-14 04:00","2022","12","14","04:00","-17.9","","-21.1","","77","","","","26","","34","","24.1","","100.64","","","","-30","","Ice Crystals,Blowing Snow"
"-115.14","67.82","KUGLUKTUK A","2300903","2022-12-14 05:00","2022","12","14","05:00","-17.9","","-21.1","","76","","","","26","","31","","19.3","","100.72","","","","-30","","Ice Crystals,Blowing Snow"
"-115.14","67.82","KUGLUKTUK A","2300903","2022-12-14 06:00","2022","12","14","06:00","-17.1","","-20.7","","74","","","","27","","39","","16.1","","100.81","","","","-30","","Ice Crystals,Blowing Snow"
"-115.14","67.82","KUGLUKTUK A","2300903","2022-12-14 07:00","2022","12","14","07:00","-17.7","","-21.4","","74","","","","26","","32","","19.3","","100.90","","","","-30","","Ice Crystals,Blowing Snow"
"-115.14","67.82","KUGLUKTUK A","2300903","2022-12-14 08:00","2022","12","14","08:00","-17.8","","-20.8","","78","","","","26","","36","","19.3","","100.98","","","","-31","","Ice Crystals,Blowing Snow"
"-115.14","67.82","KUGLUKTUK A","2300903","2022-12-14 09:00","2022","12","14","09:00","-18.4","","-21.7","","75","","","","27","","31","","19.3","","101.08","","","","-31","","Ice Crystals,Blowing Snow"
"-115.14","67.82","KUGLUKTUK A","2300903","2022-12-14 10:00","2022","12","14","10:00","-19.1","","-22.8","","73","","","","26","","36","","19.3","","101.13","","","","-32","","Ice Crystals,Blowing Snow"
"-115.14","67.82","KUGLUKTUK A","2300903","2022-12-14 11:00","2022","12","14","11:00","-19.3","","-23.2","","72","","","","26","","34","","24.1","","101.23","","","","-32","","Ice Crystals,Blowing Snow"
"-115.14","67.82","KUGLUKTUK A","2300903","2022-12-14 12:00","2022","12","14","12:00","-19.3","","-23.1","","72","","","","26","","43","","24.1","","101.30","","","","-34","","Ice Crystals,Blowing Snow"
"-115.14","67.82","KUGLUKTUK A","2300903","2022-12-14 13:00","2022","12","14","13:00","-20.6","","-24.6","","71","","","","24","","34","","24.1","","101.41","","","","-34","","Ice Crystals,Blowing Snow"
"-115.14","67.82","KUGLUKTUK A","2300903","2022-12-14 14:00","2022","12","14","14:00","-19.4","","-23.5","","70","","","","27","","41","","24.1","","101.48","","","","-33","","Ice Crystals,Blowing Snow"
"-115.14","67.82","KUGLUKTUK A","2300903","2022-12-14 15:00","2022","12","14","15:00","-19.8","","-23.7","","72","","","","25","","35","","24.1","","101.55","","","","-33","","Ice Crystals,Blowing Snow"
"-115.14","67.82","KUGLUKTUK A","2300903","2022-12-14 16:00","2022","12","14","16:00","-18.9","","-22.9","","71","","","","26","","35","","24.1","","101.67","","","","-32","","Ice Crystals,Blowing Snow"
"-115.14","67.82","KUGLUKTUK A","2300903","2022-12-14 17:00","2022","12","14","17:00","-18.0","","-21.8","","73","","","","26","","36","","24.1","","101.74","","","","-31","","Ice Crystals,Blowing Snow"
"-115.14","67.82","KUGLUKTUK A","2300903","2022-12-14 18:00","2022","12","14","18:00","-17.8","","-21.6","","73","","","","26","","33","","19.3","","101.82","","","","-30","","Snow,Blowing Snow"
"-115.14","67.82","KUGLUKTUK A","2300903","2022-12-14 19:00","2022","12","14","19:00","-17.6","","-21.4","","73","","","","26","","32","","19.3","","101.88","","","","-30","","Snow,Blowing Snow"
"-115.14","67.82","KUGLUKTUK A","2300903","2022-12-14 20:00","2022","12","14","20:00","-17.5","","-21.1","","74","","","","25","","31","","19.3","","101.96","","","","-29","","Snow,Blowing Snow"
"-115.14","67.82","KUGLUKTUK A","2300903","2022-12-14 21:00","2022","12","14","21:00","-16.4","","-19.9","","75","","","","26","","31","","19.3","","102.02","","","","-28","","Snow,Blowing Snow"
"-115.14","67.82","KUGLUKTUK A","2300903","2022-12-14 22:00","2022","12","14","22:00","-16.2","","-19.7","","75","","","","26","","30","","24.1","","102.12","","","","-28","","Snow,Blowing Snow"
"-115.14","67.82","KUGLUKTUK A","2300903","2022-12-14 23:00","2022","12","14","23:00","-16.3","","-19.9","","74","","","","25","","32","","16.1","","102.20","","","","-28","","Snow"
"-115.14","67.82","KUGLUKTUK A","2300903","2022-12-15 00:00","2022","12","15","00:00","-16.5","","-20.2","","73","","","","26","","32","","24.1","","102.29","","","","-28","","Snow"
"-115.14","67.82","KUGLUKTUK A","2300903","2022-12-15 01:00","2022","12","15","01:00","-16.8","","-20.7","","72","","","","26","","34","","24.1","","102.37","","","","-29","","NA"
"-115.14","67.82","KUGLUKTUK A","2300903","2022-12-15 02:00","2022","12","15","02:00","-17.0","","-21.4","","70","","","","25","","29","","24.1","","102.48","","","","-28","","Cloudy"
"-115.14","67.82","KUGLUKTUK A","2300903","2022-12-15 03:00","2022","12","15","03:00","-17.6","","-21.7","","70","","","","24","","26","","24.1","","102.56","","","","-29","","NA"
"-115.14","67.82","KUGLUKTUK A","2300903","2022-12-15 04:00","2022","12","15","04:00","-17.4","","-21.1","","74","","","","24","","25","","24.1","","102.62","","","","-28","","NA"
"-115.14","67.82","KUGLUKTUK A","2300903","2022-12-15 05:00","2022","12","15","05:00","-16.5","","-19.8","","76","","","","27","","31","","24.1","","102.65","","","","-28","","Mostly Cloudy"
"-115.14","67.82","KUGLUKTUK A","2300903","2022-12-15 06:00","2022","12","15","06:00","-16.9","","-20.3","","75","","","","26","","36","","24.1","","102.74","","","","-29","","NA"
"-115.14","67.82","KUGLUKTUK A","2300903","2022-12-15 07:00","2022","12","15","07:00","-17.1","","-20.7","","74","","","","26","","30","","24.1","","102.81","","","","-29","","Snow Grains"
"-115.14","67.82","KUGLUKTUK A","2300903","2022-12-15 08:00","2022","12","15","08:00","-16.9","","-20.7","","73","","","","27","","30","","19.3","","102.86","","","","-29","","Snow,Blowing Snow"
"-115.14","67.82","KUGLUKTUK A","2300903","2022-12-15 09:00","2022","12","15","09:00","-17.4","","-21.1","","73","","","","27","","25","","16.1","","102.91","","","","-28","","Snow,Blowing Snow"
"-115.14","67.82","KUGLUKTUK A","2300903","2022-12-15 10:00","2022","12","15","10:00","-18.6","","-22.1","","75","","","","25","","21","","19.3","","102.95","","","","-29","","Snow,Blowing Snow"
"-115.14","67.82","KUGLUKTUK A","2300903","2022-12-15 11:00","2022","12","15","11:00","-19.7","","-23.5","","72","","","","24","","23","","24.1","","103.01","","","","-31","","Snow,Blowing Snow"
"-115.14","67.82","KUGLUKTUK A","2300903","2022-12-15 12:00","2022","12","15","12:00","-19.9","","-23.7","","72","","","","27","","19","","24.1","","103.03","","","","-30","","NA"
"-115.14","67.82","KUGLUKTUK A","2300903","2022-12-15 13:00","2022","12","15","13:00","-19.9","","-23.8","","72","","","","24","","25","","24.1","","103.06","","","","-31","","NA"
"-115.14","67.82","KUGLUKTUK A","2300903","2022-12-15 14:00","2022","12","15","14:00","-21.1","","-24.8","","73","","","","23","","19","","24.1","","103.11","","","","-32","","Mostly Cloudy"
"-115.14","67.82","KUGLUKTUK A","2300903","2022-12-15 15:00","2022","12","15","15:00","-21.1","","-24.5","","75","","","","22","","18","","16.1","","103.18","","","","-31","","Ice Crystals"
"-115.14","67.82","KUGLUKTUK A","2300903","2022-12-15 16:00","2022","12","15","16:00","-20.4","","-23.2","","78","","","","23","","21","","8.1","","103.20","","","","-31","","Snow"
"-115.14","67.82","KUGLUKTUK A","2300903","2022-12-15 17:00","2022","12","15","17:00","-21.4","","-24.2","","78","","","","22","","18","","12.9","","103.20","","","","-32","","Snow"
"-115.14","67.82","KUGLUKTUK A","2300903","2022-12-15 18:00","2022","12","15","18:00","-22.5","","-25.5","","77","","","","22","","21","","19.3","","103.18","","","","-34","","Ice Crystals"
"-115.14","67.82","KUGLUKTUK A","2300903","2022-12-15 19:00","2022","12","15","19:00","-23.7","","-26.8","","76","","","","22","","21","","24.1","","103.18","","","","-35","","NA"
"-115.14","67.82","KUGLUKTUK A","2300903","2022-12-15 20:00","2022","12","15","20:00","-23.8","","-26.7","","78","","","","22","","22","","24.1","","103.19","","","","-36","","Mainly Clear"
"-115.14","67.82","KUGLUKTUK A","2300903","2022-12-15 21:00","2022","12","15","21:00","-24.2","","-27.1","","77","","","","20","","16","","24.1","","103.25","","","","-35","","NA"
"-115.14","67.82","KUGLUKTUK A","2300903","2022-12-15 22:00","2022","12","15","22:00","-24.4","","-27.0","","79","","","","23","","26","","24.1","","103.22","","","","-37","","NA"
"-115.14","67.82","KUGLUKTUK A","2300903","2022-12-15 23:00","2022","12","15","23:00","-23.5","","-26.7","","75","","","","20","","22","","24.1","","103.27","","","","-35","","Clear"
"-115.14","67.82","KUGLUKTUK A","2300903","2022-12-16 00:00","2022","12","16","00:00","-22.2","","-25.7","","74","","","","21","","12","","24.1","","103.28","","","","-31","","NA"
"-115.14","67.82","KUGLUKTUK A","2300903","2022-12-16 01:00","2022","12","16","01:00","-21.3","","-24.6","","75","","","","25","","32","","24.1","","103.25","","","","-35","","NA"
"-115.14","67.82","KUGLUKTUK A","2300903","2022-12-16 02:00","2022","12","16","02:00","-21.2","","-25.2","","71","","","","25","","34","","24.1","","103.29","","","","-35","","Blowing Snow"
"-115.14","67.82","KUGLUKTUK A","2300903","2022-12-16 03:00","2022","12","16","03:00","-20.7","","-24.9","","69","","","","25","","32","","24.1","","103.31","","","","-34","","NA"
"-115.14","67.82","KUGLUKTUK A","2300903","2022-12-16 04:00","2022","12","16","04:00","-20.5","","-24.8","","69","","","","24","","30","","24.1","","103.34","","","","-33","","NA"
"-115.14","67.82","KUGLUKTUK A","2300903","2022-12-16 05:00","2022","12","16","05:00","-18.7","","-23.6","","66","","","","26","","27","","24.1","","103.32","","","","-30","","Mostly Cloudy"
"-115.14","67.82","KUGLUKTUK A","2300903","2022-12-16 06:00","2022","12","16","06:00","-20.3","","-24.3","","71","","","","22","","16","","24.1","","103.31","","","","-30","","NA"
"-115.14","67.82","KUGLUKTUK A","2300903","2022-12-16 07:00","2022","12","16","07:00","-18.1","","-22.5","","69","","","","24","","28","","24.1","","103.26","","","","-30","","NA"
"-115.14","67.82","KUGLUKTUK A","2300903","2022-12-16 08:00","2022","12","16","08:00","-18.0","","-21.9","","72","","","","24","","30","","24.1","","103.21","","","","-30","","Blowing Snow"
"-115.14","67.82","KUGLUKTUK A","2300903","2022-12-16 09:00","2022","12","16","09:00","-16.6","","-20.7","","71","","","","25","","35","","24.1","","103.18","","","","-29","","Snow,Blowing Snow"
"-115.14","67.82","KUGLUKTUK A","2300903","2022-12-16 10:00","2022","12","16","10:00","-16.6","","-19.7","","77","","","","26","","36","","19.3","","103.22","","","","-29","","Snow,Blowing Snow"
"-115.14","67.82","KUGLUKTUK A","2300903","2022-12-16 11:00","2022","12","16","11:00","-16.8","","-19.7","","78","","","","26","","39","","19.3","","103.25","","","","-30","","Snow,Blowing Snow"
"-115.14","67.82","KUGLUKTUK A","2300903","2022-12-16 12:00","2022","12","16","12:00","-16.6","","-20.6","","72","","","","29","","37","","19.3","","103.32","","","","-29","","Snow,Blowing Snow"
"-115.14","67.82","KUGLUKTUK A","2300903","2022-12-16 13:00","2022","12","16","13:00","-17.5","","-21.6","","71","","","","30","","36","","19.3","","103.38","","","","-30","","Blowing Snow"
"-115.14","67.82","KUGLUKTUK A","2300903","2022-12-16 14:00","2022","12","16","14:00","-17.9","","-22.2","","69","","","","29","","36","","19.3","","103.42","","","","-31","","Blowing Snow"
"-115.14","67.82","KUGLUKTUK A","2300903","2022-12-16 15:00","2022","12","16","15:00","-18.5","","-22.9","","69","","","","29","","38","","12.9","","103.45","","","","-32","","Ice Crystals,Blowing Snow"
"-115.14","67.82","KUGLUKTUK A","2300903","2022-12-16 16:00","2022","12","16","16:00","-19.1","","-23.4","","69","","","","28","","32","","16.1","","103.49","","","","-32","","Ice Crystals,Blowing Snow"
"-115.14","67.82","KUGLUKTUK A","2300903","2022-12-16 17:00","2022","12","16","17:00","-19.5","","-23.0","","74","","","","27","","35","","9.7","","103.47","","","","-33","","Ice Crystals,Blowing Snow"
"-115.14","67.82","KUGLUKTUK A","2300903","2022-12-16 18:00","2022","12","16","18:00","-19.6","","-22.4","","78","","","","27","","32","","9.7","","103.46","","","","-32","","Ice Crystals,Blowing Snow"
"-115.14","67.82","KUGLUKTUK A","2300903","2022-12-16 19:00","2022","12","16","19:00","-19.3","","-22.3","","78","","","","28","","40","","3.2","","103.41","","","","-33","","Snow,Blowing Snow"
"-115.14","67.82","KUGLUKTUK A","2300903","2022-12-16 20:00","2022","12","16","20:00","-19.4","","-22.7","","75","","","","28","","40","","6.4","","103.39","","","","-33","","Ice Crystals,Blowing Snow"
"-115.14","67.82","KUGLUKTUK A","2300903","2022-12-16 21:00","2022","12","16","21:00","-19.3","","-23.2","","72","","","","27","","37","","12.9","","103.41","","","","-33","","Ice Crystals,Blowing Snow"
"-115.14","67.82","KUGLUKTUK A","2300903","2022-12-16 22:00","2022","12","16","22:00","-19.6","","-23.5","","72","","","","28","","35","","19.3","","103.40","","","","-33","","Ice Crystals,Blowing Snow"
"-115.14","67.82","KUGLUKTUK A","2300903","2022-12-16 23:00","2022","12","16","23:00","-19.5","","-23.6","","70","","","","29","","39","","16.1","","103.42","","","","-33","","Ice Crystals,Blowing Snow"
"-115.14","67.82","KUGLUKTUK A","2300903","2022-12-17 00:00","2022","12","17","00:00","-19.8","","-23.5","","73","","","","29","","35","","16.1","","103.44","","","","-33","","Ice Crystals,Blowing Snow"
"-115.14","67.82","KUGLUKTUK A","2300903","2022-12-17 01:00","2022","12","17","01:00","-21.0","","-25.3","","69","","","","31","","46","","6.4","","103.51","","","","-36","","Blowing Snow"
"-115.14","67.82","KUGLUKTUK A","2300903","2022-12-17 02:00","2022","12","17","02:00","-22.0","","-26.6","","67","","","","30","","34","","19.3","","103.57","","","","-36","","Blowing Snow"
"-115.14","67.82","KUGLUKTUK A","2300903","2022-12-17 03:00","2022","12","17","03:00","-22.4","","-26.1","","73","","","","29","","31","","24.1","","103.58","","","","-36","","Blowing Snow"
"-115.14","67.82","KUGLUKTUK A","2300903","2022-12-17 04:00","2022","12","17","04:00","-22.5","","-26.4","","71","","","","31","","37","","1.6","","103.62","","","","-37","","Blowing Snow"
"-115.14","67.82","KUGLUKTUK A","2300903","2022-12-17 05:00","2022","12","17","05:00","-22.8","","-26.2","","74","","","","31","","40","","4.8","","103.64","","","","-38","","Blowing Snow"
"-115.14","67.82","KUGLUKTUK A","2300903","2022-12-17 06:00","2022","12","17","06:00","-22.9","","-26.8","","72","","","","30","","30","","6.4","","103.68","","","","-36","","Ice Crystals,Blowing Snow"
"-115.14","67.82","KUGLUKTUK A","2300903","2022-12-17 07:00","2022","12","17","07:00","-23.1","","-26.8","","72","","","","29","","26","","16.1","","103.69","","","","-36","","Ice Crystals,Blowing Snow"
"-115.14","67.82","KUGLUKTUK A","2300903","2022-12-17 08:00","2022","12","17","08:00","-23.4","","-27.2","","72","","","","29","","20","","16.1","","103.71","","","","-35","","Ice Crystals,Blowing Snow"
"-115.14","67.82","KUGLUKTUK A","2300903","2022-12-17 09:00","2022","12","17","09:00","-23.8","","-27.7","","71","","","","29","","31","","19.3","","103.71","","","","-38","","Ice Crystals,Blowing Snow"
"-115.14","67.82","KUGLUKTUK A","2300903","2022-12-17 10:00","2022","12","17","10:00","-24.1","","-28.0","","70","","","","29","","25","","16.1","","103.78","","","","-37","","Ice Crystals,Blowing Snow"
"-115.14","67.82","KUGLUKTUK A","2300903","2022-12-17 11:00","2022","12","17","11:00","-24.1","","-28.1","","70","","","","29","","25","","12.9","","103.80","","","","-37","","Ice Crystals,Blowing Snow"
"-115.14","67.82","KUGLUKTUK A","2300903","2022-12-17 12:00","2022","12","17","12:00","-24.0","","-27.8","","72","","","","27","","22","","4.8","","103.80","","","","-36","","Snow,Blowing Snow"
"-115.14","67.82","KUGLUKTUK A","2300903","2022-12-17 13:00","2022","12","17","13:00","-23.9","","-27.6","","72","","","","24","","23","","3.2","","103.81","","","","-36","","Snow,Blowing Snow"
"-115.14","67.82","KUGLUKTUK A","2300903","2022-12-17 14:00","2022","12","17","14:00","-23.4","","-26.9","","73","","","","24","","32","","2.4","","103.79","","","","-37","","Snow,Blowing Snow"
"-115.14","67.82","KUGLUKTUK A","2300903","2022-12-17 15:00","2022","12","17","15:00","-23.1","","-26.0","","78","","","","28","","21","","1.2","","103.80","","","","-35","","Snow,Blowing Snow"
"-115.14","67.82","KUGLUKTUK A","2300903","2022-12-17 16:00","2022","12","17","16:00","-22.6","","-25.6","","78","","","","28","","21","","2.0","","103.78","","","","-34","","Snow,Blowing Snow"
"-115.14","67.82","KUGLUKTUK A","2300903","2022-12-17 17:00","2022","12","17","17:00","-22.6","","-25.7","","76","","","","28","","28","","2.4","","103.76","","","","-36","","Snow,Blowing Snow"
"-115.14","67.82","KUGLUKTUK A","2300903","2022-12-17 18:00","2022","12","17","18:00","-22.5","","-25.8","","75","","","","26","","22","","3.2","","103.75","","","","-34","","Snow,Blowing Snow"
"-115.14","67.82","KUGLUKTUK A","2300903","2022-12-17 19:00","2022","12","17","19:00","-22.8","","-26.0","","76","","","","27","","26","","4.8","","103.73","","","","-35","","Snow,Blowing Snow"
"-115.14","67.82","KUGLUKTUK A","2300903","2022-12-17 20:00","2022","12","17","20:00","-22.7","","-26.0","","75","","","","28","","32","","2.0","","103.64","","","","-36","","Snow,Blowing Snow"
"-115.14","67.82","KUGLUKTUK A","2300903","2022-12-17 21:00","2022","12","17","21:00","-22.8","","-26.2","","74","","","","28","","25","","1.6","","103.61","","","","-35","","Ice Crystals,Blowing Snow"
"-115.14","67.82","KUGLUKTUK A","2300903","2022-12-17 22:00","2022","12","17","22:00","-23.3","","-26.7","","74","","","","28","","27","","4.0","","103.59","","","","-36","","Ice Crystals,Blowing Snow"
"-115.14","67.82","KUGLUKTUK A","2300903","2022-12-17 23:00","2022","12","17","23:00","-23.6","","-27.1","","74","","","","27","","32","","3.2","","103.53","","","","-38","","Ice Crystals,Blowing Snow"
"-115.14","67.82","KUGLUKTUK A","2300903","2022-12-18 00:00","2022","12","18","00:00","-24.2","","-27.6","","75","","","","26","","24","","4.8","","103.51","","","","-37","","Ice Crystals,Blowing Snow"
"-115.14","67.82","KUGLUKTUK A","2300903","2022-12-18 01:00","2022","12","18","01:00","-25.4","","-28.6","","75","","","","28","","28","","12.9","","103.49","","","","-39","","Ice Crystals,Blowing Snow"
"-115.14","67.82","KUGLUKTUK A","2300903","2022-12-18 02:00","2022","12","18","02:00","-26.5","","-29.6","","75","","","","28","","22","","19.3","","103.53","","","","-39","","Ice Crystals"
"-115.14","67.82","KUGLUKTUK A","2300903","2022-12-18 03:00","2022","12","18","03:00","-25.8","","-29.5","","72","","","","27","","26","","12.9","","103.51","","","","-39","","Ice Crystals"
"-115.14","67.82","KUGLUKTUK A","2300903","2022-12-18 04:00","2022","12","18","04:00","-26.3","","-30.1","","70","","","","28","","22","","4.8","","103.51","","","","-39","","Ice Crystals"
"-115.14","67.82","KUGLUKTUK A","2300903","2022-12-18 05:00","2022","12","18","05:00","-26.0","","-29.6","","73","","","","30","","22","","2.8","","103.47","","","","-39","","Ice Crystals,Blowing Snow"
"-115.14","67.82","KUGLUKTUK A","2300903","2022-12-18 06:00","2022","12","18","06:00","-26.9","","-30.5","","72","","","","25","","20","","3.2","","103.45","","","","-39","","Ice Crystals,Blowing Snow"
"-115.14","67.82","KUGLUKTUK A","2300903","2022-12-18 07:00","2022","12","18","07:00","-26.7","","-30.8","","69","","","","28","","22","","3.6","","103.43","","","","-39","","Ice Crystals,Blowing Snow"
"-115.14","67.82","KUGLUKTUK A","2300903","2022-12-18 08:00","2022","12","18","08:00","-26.7","","-30.9","","68","","","","26","","22","","8.1","","103.40","","","","-39","","Ice Crystals,Blowing Snow"
"-115.14","67.82","KUGLUKTUK A","2300903","2022-12-18 09:00","2022","12","18","09:00","-27.8","","-31.5","","71","","","","24","","27","","12.9","","103.35","","","","-42","","Ice Crystals,Blowing Snow"
"-115.14","67.82","KUGLUKTUK A","2300903","2022-12-18 10:00","2022","12","18","10:00","-27.4","","-31.4","","69","","","","24","","28","","12.9","","103.30","","","","-42","","Ice Crystals,Blowing Snow"
"-115.14","67.82","KUGLUKTUK A","2300903","2022-12-18 11:00","2022","12","18","11:00","-27.6","","-31.5","","70","","","","24","","26","","19.3","","103.25","","","","-42","","Snow,Blowing Snow"
"-115.14","67.82","KUGLUKTUK A","2300903","2022-12-18 12:00","2022","12","18","12:00","-27.7","","-31.9","","69","","","","24","","28","","24.1","","103.22","","","","-42","","Blowing Snow"
"-115.14","67.82","KUGLUKTUK A","2300903","2022-12-18 13:00","2022","12","18","13:00","-27.3","","-31.6","","68","","","","24","","24","","19.3","","103.20","","","","-41","","Blowing Snow"
"-115.14","67.82","KUGLUKTUK A","2300903","2022-12-18 14:00","2022","12","18","14:00","-27.0","","-31.3","","68","","","","24","","30","","12.9","","103.15","","","","-42","","Snow,Blowing Snow"
"-115.14","67.82","KUGLUKTUK A","2300903","2022-12-18 15:00","2022","12","18","15:00","-26.4","","-30.1","","72","","","","24","","31","","4.8","","103.12","","","","-41","","Snow,Blowing Snow"
"-115.14","67.82","KUGLUKTUK A","2300903","2022-12-18 16:00","2022","12","18","16:00","-25.9","","-29.3","","74","","","","24","","27","","6.4","","103.11","","","","-40","","Snow,Blowing Snow"
"-115.14","67.82","KUGLUKTUK A","2300903","2022-12-18 17:00","2022","12","18","17:00","-25.9","","-29.3","","73","","","","24","","32","","9.7","","103.08","","","","-41","","Snow,Blowing Snow"
"-115.14","67.82","KUGLUKTUK A","2300903","2022-12-18 18:00","2022","12","18","18:00","-25.5","","-29.1","","73","","","","25","","32","","12.9","","103.00","","","","-40","","Snow,Blowing Snow"
"-115.14","67.82","KUGLUKTUK A","2300903","2022-12-18 19:00","2022","12","18","19:00","-24.9","","-28.6","","72","","","","27","","34","","16.1","","103.01","","","","-40","","Ice Crystals,Blowing Snow"
"-115.14","67.82","KUGLUKTUK A","2300903","2022-12-18 20:00","2022","12","18","20:00","-24.5","","-28.0","","73","","","","26","","27","","9.7","","103.03","","","","-38","","Snow,Blowing Snow"
"-115.14","67.82","KUGLUKTUK A","2300903","2022-12-18 21:00","2022","12","18","21:00","-23.9","","-26.9","","77","","","","27","","35","","0.4","","103.02","","","","-39","","Moderate Snow,Blowing Snow"
"-115.14","67.82","KUGLUKTUK A","2300903","2022-12-18 22:00","2022","12","18","22:00","-23.8","","-26.7","","78","","","","29","","33","","0.2","","103.05","","","","-38","","Blowing Snow"
"-115.14","67.82","KUGLUKTUK A","2300903","2022-12-18 23:00","2022","12","18","23:00","-24.0","","-27.0","","77","","","","30","","27","","1.2","","103.12","","","","-37","","Ice Crystals,Blowing Snow"
"-115.14","67.82","KUGLUKTUK A","2300903","2022-12-19 00:00","2022","12","19","00:00","-25.1","","-28.5","","74","","","","29","","34","","4.8","","103.16","","","","-40","","Blowing Snow"
"-115.14","67.82","KUGLUKTUK A","2300903","2022-12-19 01:00","2022","12","19","01:00","-25.4","","-28.8","","74","","","","28","","28","","16.1","","103.21","","","","-39","","Ice Crystals"
"-115.14","67.82","KUGLUKTUK A","2300903","2022-12-19 02:00","2022","12","19","02:00","-26.0","","-29.4","","73","","","","27","","28","","19.3","","103.25","","","","-40","","Ice Crystals"
"-115.14","67.82","KUGLUKTUK A","2300903","2022-12-19 03:00","2022","12","19","03:00","-25.6","","-29.1","","73","","","","26","","28","","16.1","","103.27","","","","-39","","Ice Crystals"
"-115.14","67.82","KUGLUKTUK A","2300903","2022-12-19 04:00","2022","12","19","04:00","-25.3","","-28.6","","74","","","","25","","28","","4.8","","103.29","","","","-39","","Ice Crystals,Blowing Snow"
"-115.14","67.82","KUGLUKTUK A","2300903","2022-12-19 05:00","2022","12","19","05:00","-24.5","","-28.4","","71","","","","25","","21","","6.4","","103.29","","","","-36","","Ice Crystals,Blowing Snow"
"-115.14","67.82","KUGLUKTUK A","2300903","2022-12-19 06:00","2022","12","19","06:00","-24.2","","-28.1","","71","","","","24","","28","","16.1","","103.29","","","","-38","","Ice Crystals,Blowing Snow"
"-115.14","67.82","KUGLUKTUK A","2300903","2022-12-19 07:00","2022","12","19","07:00","-23.7","","-27.7","","71","","","","24","","34","","24.1","","103.27","","","","-38","","Ice Crystals,Blowing Snow"
"-115.14","67.82","KUGLUKTUK A","2300903","2022-12-19 08:00","2022","12","19","08:00","-22.4","","-26.4","","71","","","","25","","32","","24.1","","103.29","","","","-36","","Ice Crystals,Blowing Snow"
"-115.14","67.82","KUGLUKTUK A","2300903","2022-12-19 09:00","2022","12","19","09:00","-22.2","","-26.0","","72","","","","25","","32","","24.1","","103.29","","","","-36","","Ice Crystals,Blowing Snow"
"-115.14","67.82","KUGLUKTUK A","2300903","2022-12-19 10:00","2022","12","19","10:00","-21.4","","-25.2","","72","","","","26","","31","","9.7","","103.32","","","","-35","","Ice Crystals,Blowing Snow"
"-115.14","67.82","KUGLUKTUK A","2300903","2022-12-19 11:00","2022","12","19","11:00","-20.8","","-23.8","","77","","","","27","","33","","1.6","","103.37","","","","-34","","Ice Crystals,Blowing Snow"
"-115.14","67.82","KUGLUKTUK A","2300903","2022-12-19 12:00","2022","12","19","12:00","-20.3","","-24.0","","72","","","","27","","31","","6.4","","103.39","","","","-33","","Ice Crystals,Blowing Snow"
"-115.14","67.82","KUGLUKTUK A","2300903","2022-12-19 13:00","2022","12","19","13:00","-20.2","","-23.2","","78","","","","26","","28","","6.4","","103.40","","","","-32","","Ice Crystals,Blowing Snow"
"-115.14","67.82","KUGLUKTUK A","2300903","2022-12-19 14:00","2022","12","19","14:00","-19.6","","-22.9","","76","","","","26","","31","","2.4","","103.45","","","","-32","","Ice Crystals,Blowing Snow"
"-115.14","67.82","KUGLUKTUK A","2300903","2022-12-19 15:00","2022","12","19","15:00","-19.4","","-22.7","","76","","","","26","","25","","3.2","","103.50","","","","-31","","Ice Crystals,Blowing Snow"
"-115.14","67.82","KUGLUKTUK A","2300903","2022-12-19 16:00","2022","12","19","16:00","-19.2","","-22.6","","75","","","","29","","36","","6.4","","103.53","","","","-32","","Ice Crystals,Blowing Snow"
"-115.14","67.82","KUGLUKTUK A","2300903","2022-12-19 17:00","2022","12","19","17:00","-19.3","","-22.2","","78","","","","26","","34","","8.1","","103.56","","","","-32","","Ice Crystals,Blowing Snow"
"-115.14","67.82","KUGLUKTUK A","2300903","2022-12-19 18:00","2022","12","19","18:00","-22.0","","-25.1","","76","","","","24","","34","","8.1","","103.58","","","","-36","","Ice Crystals,Blowing Snow"
"-115.14","67.82","KUGLUKTUK A","2300903","2022-12-19 19:00","2022","12","19","19:00","-22.2","","-25.9","","72","","","","24","","31","","12.9","","103.59","","","","-36","","Ice Crystals,Blowing Snow"
"-115.14","67.82","KUGLUKTUK A","2300903","2022-12-19 20:00","2022","12","19","20:00","-23.4","","-27.1","","72","","","","24","","34","","12.9","","103.61","","","","-38","","Ice Crystals,Blowing Snow"
"-115.14","67.82","KUGLUKTUK A","2300903","2022-12-19 21:00","2022","12","19","21:00","-24.6","","-28.2","","73","","","","23","","29","","9.7","","103.63","","","","-38","","Ice Crystals,Blowing Snow"
"-115.14","67.82","KUGLUKTUK A","2300903","2022-12-19 22:00","2022","12","19","22:00","-25.3","","-29.3","","70","","","","24","","33","","24.1","","103.66","","","","-40","","Ice Crystals,Blowing Snow"
"-115.14","67.82","KUGLUKTUK A","2300903","2022-12-19 23:00","2022","12","19","23:00","-25.9","","-29.7","","71","","","","22","","31","","24.1","","103.71","","","","-40","","Clear"
"-115.14","67.82","KUGLUKTUK A","2300903","2022-12-20 00:00","2022","12","20","00:00","-26.0","","-29.9","","71","","","","23","","31","","24.1","","103.74","","","","-41","","NA"
"-115.14","67.82","KUGLUKTUK A","2300903","2022-12-20 01:00","2022","12","20","01:00","-25.9","","-29.8","","70","","","","22","","30","","24.1","","103.77","","","","-40","","NA"
"-115.14","67.82","KUGLUKTUK A","2300903","2022-12-20 02:00","2022","12","20","02:00","-25.1","","-29.0","","70","","","","23","","29","","24.1","","103.82","","","","-39","","Mainly Clear"
"-115.14","67.82","KUGLUKTUK A","2300903","2022-12-20 03:00","2022","12","20","03:00","-24.6","","-28.8","","69","","","","23","","29","","24.1","","103.86","","","","-38","","NA"
"-115.14","67.82","KUGLUKTUK A","2300903","2022-12-20 04:00","2022","12","20","04:00","-24.3","","-28.1","","72","","","","22","","29","","8.1","","103.85","","","","-38","","Ice Crystals"
"-115.14","67.82","KUGLUKTUK A","2300903","2022-12-20 05:00","2022","12","20","05:00","-24.3","","-27.9","","73","","","","23","","27","","19.3","","103.84","","","","-38","","Ice Crystals"
"-115.14","67.82","KUGLUKTUK A","2300903","2022-12-20 06:00","2022","12","20","06:00","-24.5","","-28.1","","73","","","","24","","25","","24.1","","103.84","","","","-37","","Ice Crystals"
"-115.14","67.82","KUGLUKTUK A","2300903","2022-12-20 07:00","2022","12","20","07:00","-23.9","","-27.7","","72","","","","23","","29","","24.1","","103.81","","","","-37","","Ice Crystals"
"-115.14","67.82","KUGLUKTUK A","2300903","2022-12-20 08:00","2022","12","20","08:00","-23.6","","-27.7","","70","","","","23","","31","","24.1","","103.81","","","","-37","","Ice Crystals"
"-115.14","67.82","KUGLUKTUK A","2300903","2022-12-20 09:00","2022","12","20","09:00","-23.1","","-26.9","","72","","","","24","","34","","16.1","","103.82","","","","-37","","Ice Crystals,Blowing Snow"
"-115.14","67.82","KUGLUKTUK A","2300903","2022-12-20 10:00","2022","12","20","10:00","-23.0","","-26.5","","73","","","","24","","33","","6.4","","103.83","","","","-37","","Ice Crystals,Blowing Snow"
"-115.14","67.82","KUGLUKTUK A","2300903","2022-12-20 11:00","2022","12","20","11:00","-23.0","","-26.2","","75","","","","24","","30","","4.8","","103.82","","","","-36","","Ice Crystals,Blowing Snow"
"-115.14","67.82","KUGLUKTUK A","2300903","2022-12-20 12:00","2022","12","20","12:00","-23.2","","-27.3","","70","","","","24","","29","","16.1","","103.82","","","","-37","","Ice Crystals,Blowing Snow"
"-115.14","67.82","KUGLUKTUK A","2300903","2022-12-20 13:00","2022","12","20","13:00","-24.0","","-28.2","","69","","","","22","","30","","24.1","","103.84","","","","-38","","Ice Crystals,Blowing Snow"
"-115.14","67.82","KUGLUKTUK A","2300903","2022-12-20 14:00","2022","12","20","14:00","-24.6","","-29.0","","68","","","","21","","28","","24.1","","103.82","","","","-38","","Ice Crystals,Blowing Snow"
"-115.14","67.82","KUGLUKTUK A","2300903","2022-12-20 15:00","2022","12","20","15:00","-24.3","","-28.5","","69","","","","22","","25","","24.1","","103.82","","","","-37","","Ice Crystals,Blowing Snow"
"-115.14","67.82","KUGLUKTUK A","2300903","2022-12-20 16:00","2022","12","20","16:00","-24.4","","-28.8","","68","","","","21","","32","","24.1","","103.82","","","","-39","","Ice Crystals,Blowing Snow"
"-115.14","67.82","KUGLUKTUK A","2300903","2022-12-20 17:00","2022","12","20","17:00","-24.5","","-28.8","","68","","","","22","","32","","24.1","","103.80","","","","-39","","Ice Crystals,Blowing Snow"
"-115.14","67.82","KUGLUKTUK A","2300903","2022-12-20 18:00","2022","12","20","18:00","-24.1","","-28.4","","68","","","","21","","29","","24.1","","103.75","","","","-38","","Ice Crystals,Blowing Snow"
"-115.14","67.82","KUGLUKTUK A","2300903","2022-12-20 19:00","2022","12","20","19:00","-23.0","","-27.2","","69","","","","23","","30","","24.1","","103.73","","","","-36","","Ice Crystals,Blowing Snow"
"-115.14","67.82","KUGLUKTUK A","2300903","2022-12-20 20:00","2022","12","20","20:00","-22.8","","-27.0","","70","","","","23","","29","","19.3","","103.72","","","","-36","","Ice Crystals,Blowing Snow"
"-115.14","67.82","KUGLUKTUK A","2300903","2022-12-20 21:00","2022","12","20","21:00","-23.0","","-27.1","","70","","","","23","","24","","19.3","","103.73","","","","-35","","Ice Crystals,Blowing Snow"
"-115.14","67.82","KUGLUKTUK A","2300903","2022-12-20 22:00","2022","12","20","22:00","-23.4","","-27.6","","69","","","","23","","26","","24.1","","103.74","","","","-36","","Ice Crystals,Blowing Snow"
"-115.14","67.82","KUGLUKTUK A","2300903","2022-12-20 23:00","2022","12","20","23:00","-23.3","","-27.4","","70","","","","24","","31","","24.1","","103.71","","","","-37","","Ice Crystals,Blowing Snow"
"-115.14","67.82","KUGLUKTUK A","2300903","2022-12-21 00:00","2022","12","21","00:00","-22.8","","-26.7","","71","","","","25","","30","","24.1","","103.75","","","","-36","","Ice Crystals,Blowing Snow"
"-115.14","67.82","KUGLUKTUK A","2300903","2022-12-21 01:00","2022","12","21","01:00","-23.1","","-26.9","","71","","","","23","","24","","24.1","","103.76","","","","-35","","Ice Crystals,Blowing Snow"
"-115.14","67.82","KUGLUKTUK A","2300903","2022-12-21 02:00","2022","12","21","02:00","-23.3","","-27.0","","72","","","","24","","30","","24.1","","103.76","","","","-37","","Ice Crystals,Blowing Snow"
"-115.14","67.82","KUGLUKTUK A","2300903","2022-12-21 03:00","2022","12","21","03:00","-23.5","","-27.5","","70","","","","24","","31","","24.1","","103.74","","","","-37","","Ice Crystals,Blowing Snow"
"-115.14","67.82","KUGLUKTUK A","2300903","2022-12-21 04:00","2022","12","21","04:00","-23.6","","-27.5","","71","","","","23","","26","","24.1","","103.71","","","","-36","","Ice Crystals,Blowing Snow"
"-115.14","67.82","KUGLUKTUK A","2300903","2022-12-21 05:00","2022","12","21","05:00","-23.4","","-27.3","","71","","","","24","","27","","12.9","","103.74","","","","-36","","Ice Crystals,Blowing Snow"
"-115.14","67.82","KUGLUKTUK A","2300903","2022-12-21 06:00","2022","12","21","06:00","-23.3","","-27.1","","72","","","","24","","28","","12.9","","103.74","","","","-36","","Ice Crystals,Blowing Snow"
"-115.14","67.82","KUGLUKTUK A","2300903","2022-12-21 07:00","2022","12","21","07:00","-23.2","","-26.8","","73","","","","24","","25","","8.1","","103.72","","","","-36","","Ice Crystals,Blowing Snow"
"-115.14","67.82","KUGLUKTUK A","2300903","2022-12-21 08:00","2022","12","21","08:00","-23.8","","-27.4","","73","","","","24","","33","","6.4","","103.71","","","","-38","","Ice Crystals,Blowing Snow"
"-115.14","67.82","KUGLUKTUK A","2300903","2022-12-21 09:00","2022","12","21","09:00","-23.8","","-27.1","","75","","","","25","","30","","6.4","","103.72","","","","-38","","Ice Crystals,Blowing Snow"
"-115.14","67.82","KUGLUKTUK A","2300903","2022-12-21 10:00","2022","12","21","10:00","-24.6","","-28.5","","71","","","","25","","28","","19.3","","103.77","","","","-38","","Ice Crystals,Blowing Snow"
"-115.14","67.82","KUGLUKTUK A","2300903","2022-12-21 11:00","2022","12","21","11:00","-24.9","","-28.5","","73","","","","27","","17","","9.7","","103.85","","","","-36","","Ice Crystals"
"-115.14","67.82","KUGLUKTUK A","2300903","2022-12-21 12:00","2022","12","21","12:00","-25.2","","-28.6","","74","","","","27","","19","","16.1","","103.87","","","","-37","","Ice Crystals"
"-115.14","67.82","KUGLUKTUK A","2300903","2022-12-21 13:00","2022","12","21","13:00","-24.8","","-28.3","","74","","","","25","","17","","6.4","","103.89","","","","-36","","Ice Crystals"
"-115.14","67.82","KUGLUKTUK A","2300903","2022-12-21 14:00","2022","12","21","14:00","-25.9","","-29.8","","70","","","","25","","29","","12.9","","103.87","","","","-40","","Ice Crystals,Blowing Snow"
"-115.14","67.82","KUGLUKTUK A","2300903","2022-12-21 15:00","2022","12","21","15:00","-26.5","","-30.6","","69","","","","26","","34","","16.1","","103.88","","","","-42","","Ice Crystals,Blowing Snow"
"-115.14","67.82","KUGLUKTUK A","2300903","2022-12-21 16:00","2022","12","21","16:00","-26.8","","-31.1","","68","","","","25","","33","","16.1","","103.90","","","","-42","","Ice Crystals,Blowing Snow"
"-115.14","67.82","KUGLUKTUK A","2300903","2022-12-21 17:00","2022","12","21","17:00","-27.1","","-30.9","","71","","","","26","","33","","12.9","","103.92","","","","-42","","Ice Crystals,Blowing Snow"
"-115.14","67.82","KUGLUKTUK A","2300903","2022-12-21 18:00","2022","12","21","18:00","-28.3","","-32.0","","71","","","","26","","28","","16.1","","103.96","","","","-43","","Ice Crystals,Blowing Snow"
"-115.14","67.82","KUGLUKTUK A","2300903","2022-12-21 19:00","2022","12","21","19:00","-29.3","","-33.1","","70","","","","27","","25","","16.1","","103.98","","","","-44","","Ice Crystals,Blowing Snow"
"-115.14","67.82","KUGLUKTUK A","2300903","2022-12-21 20:00","2022","12","21","20:00","-29.1","","-33.2","","68","","","","26","","22","","19.3","","103.99","","","","-43","","Ice Crystals,Blowing Snow"
"-115.14","67.82","KUGLUKTUK A","2300903","2022-12-21 21:00","2022","12","21","21:00","-31.1","","-35.2","","68","","","","26","","25","","24.1","","103.97","","","","-46","","Ice Crystals,Blowing Snow"
"-115.14","67.82","KUGLUKTUK A","2300903","2022-12-21 22:00","2022","12","21","22:00","-30.8","","-35.1","","66","","","","26","","28","","24.1","","103.97","","","","-46","","NA"
"-115.14","67.82","KUGLUKTUK A","2300903","2022-12-21 23:00","2022","12","21","23:00","-30.3","","-35.3","","63","","","","25","","29","","24.1","","103.98","","","","-46","","Mainly Clear"
"-115.14","67.82","KUGLUKTUK A","2300903","2022-12-22 00:00","2022","12","22","00:00","-30.7","","-35.6","","63","","","","26","","31","","24.1","","103.97","","","","-47","","NA"
"-115.14","67.82","KUGLUKTUK A","2300903","2022-12-22 01:00","2022","12","22","01:00","-30.9","","-35.6","","64","","","","24","","27","","24.1","","103.96","","","","-46","","NA"
"-115.14","67.82","KUGLUKTUK A","2300903","2022-12-22 02:00","2022","12","22","02:00","-32.4","","-36.9","","65","","","","22","","25","","24.1","","103.95","","","","-48","","Mainly Clear"
"-115.14","67.82","KUGLUKTUK A","2300903","2022-12-22 03:00","2022","12","22","03:00","-32.5","","-37.0","","65","","","","22","","24","","24.1","","103.92","","","","-47","","NA"
"-115.14","67.82","KUGLUKTUK A","2300903","2022-12-22 04:00","2022","12","22","04:00","-32.7","","-36.9","","67","","","","22","","23","","24.1","","103.89","","","","-47","","NA"
"-115.14","67.82","KUGLUKTUK A","2300903","2022-12-22 05:00","2022","12","22","05:00","-31.1","","-35.3","","67","","","","23","","23","","19.3","","103.82","","","","-45","","Ice Crystals"
"-115.14","67.82","KUGLUKTUK A","2300903","2022-12-22 06:00","2022","12","22","06:00","-30.2","","-34.2","","68","","","","23","","24","","19.3","","103.80","","","","-44","","Snow,Blowing Snow"
"-115.14","67.82","KUGLUKTUK A","2300903","2022-12-22 07:00","2022","12","22","07:00","-29.4","","-33.2","","71","","","","22","","21","","24.1","","103.77","","","","-43","","Snow,Blowing Snow"
"-115.14","67.82","KUGLUKTUK A","2300903","2022-12-22 08:00","2022","12","22","08:00","-29.8","","-33.8","","69","","","","22","","21","","24.1","","103.73","","","","-43","","Ice Crystals,Blowing Snow"
"-115.14","67.82","KUGLUKTUK A","2300903","2022-12-22 09:00","2022","12","22","09:00","-29.5","","-33.7","","67","","","","21","","23","","19.3","","103.70","","","","-43","","Ice Crystals,Blowing Snow"
"-115.14","67.82","KUGLUKTUK A","2300903","2022-12-22 10:00","2022","12","22","10:00","-29.4","","-33.9","","66","","","","22","","23","","24.1","","103.69","","","","-43","","Ice Crystals,Blowing Snow"
"-115.14","67.82","KUGLUKTUK A","2300903","2022-12-22 11:00","2022","12","22","11:00","-30.2","","-34.5","","67","","","","22","","21","","24.1","","103.68","","","","-44","","Ice Crystals"
"-115.14","67.82","KUGLUKTUK A","2300903","2022-12-22 12:00","2022","12","22","12:00","-29.9","","-34.3","","67","","","","23","","18","","24.1","","103.66","","","","-42","","Ice Crystals"
"-115.14","67.82","KUGLUKTUK A","2300903","2022-12-22 13:00","2022","12","22","13:00","-30.1","","-34.2","","68","","","","20","","16","","24.1","","103.66","","","","-42","","Ice Crystals"
"-115.14","67.82","KUGLUKTUK A","2300903","2022-12-22 14:00","2022","12","22","14:00","-30.1","","-34.0","","70","","","","22","","12","","19.3","","103.65","","","","-40","","Ice Crystals"
"-115.14","67.82","KUGLUKTUK A","2300903","2022-12-22 15:00","2022","12","22","15:00","-29.5","","-33.3","","70","","","","23","","18","","19.3","","103.67","","","","-42","","Ice Crystals"
"-115.14","67.82","KUGLUKTUK A","2300903","2022-12-22 16:00","2022","12","22","16:00","-30.0","","-34.1","","68","","","","22","","22","","19.3","","103.68","","","","-44","","Ice Crystals"
"-115.14","67.82","KUGLUKTUK A","2300903","2022-12-22 17:00","2022","12","22","17:00","-30.1","","-34.3","","67","","","","22","","17","","19.3","","103.69","","","","-42","","Ice Crystals"
"-115.14","67.82","KUGLUKTUK A","2300903","2022-12-22 18:00","2022","12","22","18:00","-29.3","","-33.4","","68","","","","23","","22","","24.1","","103.70","","","","-43","","Ice Crystals"
"-115.14","67.82","KUGLUKTUK A","2300903","2022-12-22 19:00","2022","12","22","19:00","-29.8","","-33.5","","71","","","","20","","16","","16.1","","103.73","","","","-42","","Ice Crystals"
"-115.14","67.82","KUGLUKTUK A","2300903","2022-12-22 20:00","2022","12","22","20:00","-28.9","","-33.5","","65","","","","21","","23","","19.3","","103.75","","","","-43","","Ice Crystals"
"-115.14","67.82","KUGLUKTUK A","2300903","2022-12-22 21:00","2022","12","22","21:00","-29.1","","-33.4","","67","","","","22","","12","","19.3","","103.78","","","","-39","","Ice Crystals"
"-115.14","67.82","KUGLUKTUK A","2300903","2022-12-22 22:00","2022","12","22","22:00","-30.4","","-34.5","","68","","","","22","","16","","24.1","","103.83","","","","-42","","Ice Crystals"
"-115.14","67.82","KUGLUKTUK A","2300903","2022-12-22 23:00","2022","12","22","23:00","-30.5","","-34.9","","67","","","","20","","15","","24.1","","103.89","","","","-42","","Ice Crystals"
"-115.14","67.82","KUGLUKTUK A","2300903","2022-12-23 00:00","2022","12","23","00:00","-30.3","","-34.7","","66","","","","19","","15","","24.1","","103.94","","","","-42","","Ice Crystals"
"-115.14","67.82","KUGLUKTUK A","2300903","2022-12-23 01:00","2022","12","23","01:00","-29.6","","-34.1","","66","","","","36","","2","","24.1","","104.00","","","","-32","","Ice Crystals"
"-115.14","67.82","KUGLUKTUK A","2300903","2022-12-23 02:00","2022","12","23","02:00","-30.0","","-34.4","","66","","","","20","","5","","24.1","","104.06","","","","-36","","Ice Crystals"
"-115.14","67.82","KUGLUKTUK A","2300903","2022-12-23 03:00","2022","12","23","03:00","-31.6","","-35.4","","69","","","","19","","8","","24.1","","104.11","","","","-40","","Ice Crystals"
"-115.14","67.82","KUGLUKTUK A","2300903","2022-12-23 04:00","2022","12","23","04:00","-31.6","","-35.6","","68","","","","36","","3","","24.1","","104.13","","","","-35","","Ice Crystals"
"-115.14","67.82","KUGLUKTUK A","2300903","2022-12-23 05:00","2022","12","23","05:00","-32.6","","-36.3","","71","","","","29","","6","","24.1","","104.19","","","","-40","","Clear"
"-115.14","67.82","KUGLUKTUK A","2300903","2022-12-23 06:00","2022","12","23","06:00","-31.8","","-35.1","","73","","","","31","","5","","24.1","","104.22","","","","-38","","Ice Crystals"
"-115.14","67.82","KUGLUKTUK A","2300903","2022-12-23 07:00","2022","12","23","07:00","-31.7","","-34.7","","75","","","","30","","7","","24.1","","104.22","","","","-39","","Ice Crystals"
"-115.14","67.82","KUGLUKTUK A","2300903","2022-12-23 08:00","2022","12","23","08:00","-32.0","","-35.0","","75","","","","30","","5","","24.1","","104.23","","","","-38","","Ice Crystals"
"-115.14","67.82","KUGLUKTUK A","2300903","2022-12-23 09:00","2022","12","23","09:00","-32.1","","-35.2","","75","","","","1","","5","","24.1","","104.27","","","","-38","","NA"
"-115.14","67.82","KUGLUKTUK A","2300903","2022-12-23 10:00","2022","12","23","10:00","-32.2","","-35.4","","74","","","","3","","3","","24.1","","104.31","","","","-36","","NA"
"-115.14","67.82","KUGLUKTUK A","2300903","2022-12-23 11:00","2022","12","23","11:00","-32.9","","-36.2","","73","","","","31","","3","","24.1","","104.32","","","","-37","","Clear"
"-115.14","67.82","KUGLUKTUK A","2300903","2022-12-23 12:00","2022","12","23","12:00","-33.1","","-36.4","","73","","","","1","","10","","24.1","","104.33","","","","-43","","NA"
"-115.14","67.82","KUGLUKTUK A","2300903","2022-12-23 13:00","2022","12","23","13:00","-33.6","","-37.0","","72","","","","5","","7","","24.1","","104.36","","","","-41","","Ice Crystals"
"-115.14","67.82","KUGLUKTUK A","2300903","2022-12-23 14:00","2022","12","23","14:00","-32.9","","-36.3","","73","","","","36","","5","","24.1","","104.38","","","","-39","","Ice Crystals"
"-115.14","67.82","KUGLUKTUK A","2300903","2022-12-23 15:00","2022","12","23","15:00","-34.2","","-37.6","","72","","","","36","","9","","24.1","","104.36","","","","-44","","Ice Crystals"
"-115.14","67.82","KUGLUKTUK A","2300903","2022-12-23 16:00","2022","12","23","16:00","-34.1","","-37.5","","72","","","","33","","5","","24.1","","104.35","","","","-40","","Ice Crystals"
"-115.14","67.82","KUGLUKTUK A","2300903","2022-12-23 17:00","2022","12","23","17:00","-36.3","","-39.8","","71","","","","30","","12","","24.1","","104.37","","","","-48","","Ice Crystals"
"-115.14","67.82","KUGLUKTUK A","2300903","2022-12-23 18:00","2022","12","23","18:00","-36.3","","-39.8","","71","","","","28","","9","","24.1","","104.35","","","","-46","","NA"
"-115.14","67.82","KUGLUKTUK A","2300903","2022-12-23 19:00","2022","12","23","19:00","-36.2","","-39.6","","71","","","","28","","8","","24.1","","104.32","","","","-45","","NA"
"-115.14","67.82","KUGLUKTUK A","2300903","2022-12-23 20:00","2022","12","23","20:00","-37.3","","-40.9","","70","","","","0","","1","","24.1","","104.32","","","","-39","","Ice Crystals"
"-115.14","67.82","KUGLUKTUK A","2300903","2022-12-23 21:00","2022","12","23","21:00","-36.9","","-40.4","","71","","","","36","","2","","24.1","","104.32","","","","-40","","Ice Crystals"
"-115.14","67.82","KUGLUKTUK A","2300903","2022-12-23 22:00","2022","12","23","22:00","-36.8","","-40.4","","70","","","","36","","2","","24.1","","104.32","","","","-39","","Ice Crystals"
"-115.14","67.82","KUGLUKTUK A","2300903","2022-12-23 23:00","2022","12","23","23:00","-38.0","","-41.7","","69","","","","22","","3","","24.1","","104.29","","","","-42","","Ice Crystals"
"-115.14","67.82","KUGLUKTUK A","2300903","2022-12-24 00:00","2022","12","24","00:00","-38.7","","-42.5","","69","","","","24","","5","","24.1","","104.27","","","","-45","","Ice Crystals"
"-115.14","67.82","KUGLUKTUK A","2300903","2022-12-24 01:00","2022","12","24","01:00","-36.5","","-40.0","","71","","","","36","","3","","24.1","","104.29","","","","-40","","Ice Crystals"
"-115.14","67.82","KUGLUKTUK A","2300903","2022-12-24 02:00","2022","12","24","02:00","-37.8","","-41.4","","69","","","","25","","4","","24.1","","104.29","","","","-43","","Ice Crystals"
"-115.14","67.82","KUGLUKTUK A","2300903","2022-12-24 03:00","2022","12","24","03:00","-39.3","","-43.1","","68","","","","26","","8","","24.1","","104.26","","","","-49","","Ice Crystals"
"-115.14","67.82","KUGLUKTUK A","2300903","2022-12-24 04:00","2022","12","24","04:00","-39.1","","-42.9","","68","","","","25","","8","","24.1","","104.25","","","","-49","","Ice Crystals"
"-115.14","67.82","KUGLUKTUK A","2300903","2022-12-24 05:00","2022","12","24","05:00","-38.3","","-42.0","","69","","","","36","","2","","24.1","","104.22","","","","-41","","Ice Crystals"
"-115.14","67.82","KUGLUKTUK A","2300903","2022-12-24 06:00","2022","12","24","06:00","-39.8","","-43.6","","68","","","","26","","8","","24.1","","104.24","","","","-49","","Ice Crystals"
"-115.14","67.82","KUGLUKTUK A","2300903","2022-12-24 07:00","2022","12","24","07:00","-38.5","","-42.3","","69","","","","26","","10","","24.1","","104.26","","","","-49","","Ice Crystals"
"-115.14","67.82","KUGLUKTUK A","2300903","2022-12-24 08:00","2022","12","24","08:00","-40.2","","-44.0","","68","","","","27","","7","","24.1","","104.23","","","","-49","","Clear"
"-115.14","67.82","KUGLUKTUK A","2300903","2022-12-24 09:00","2022","12","24","09:00","-37.6","","-41.3","","69","","","","28","","11","","24.1","","104.21","","","","-49","","NA"
"-115.14","67.82","KUGLUKTUK A","2300903","2022-12-24 10:00","2022","12","24","10:00","-38.2","","-42.0","","69","","","","26","","12","","24.1","","104.19","","","","-50","","NA"
"-115.14","67.82","KUGLUKTUK A","2300903","2022-12-24 11:00","2022","12","24","11:00","-40.3","","-44.2","","67","","","","23","","13","","24.1","","104.16","","","","-53","","Clear"
"-115.14","67.82","KUGLUKTUK A","2300903","2022-12-24 12:00","2022","12","24","12:00","-39.6","","-43.5","","67","","","","25","","11","","24.1","","104.14","","","","-51","","NA"
"-115.14","67.82","KUGLUKTUK A","2300903","2022-12-24 13:00","2022","12","24","13:00","-40.2","","-44.1","","67","","","","23","","13","","24.1","","104.10","","","","-53","","NA"
"-115.14","67.82","KUGLUKTUK A","2300903","2022-12-24 14:00","2022","12","24","14:00","-38.4","","-42.2","","68","","","","27","","12","","24.1","","104.09","","","","-50","","Clear"
"-115.14","67.82","KUGLUKTUK A","2300903","2022-12-24 15:00","2022","12","24","15:00","-39.9","","-43.9","","67","","","","23","","13","","24.1","","104.08","","","","-53","","NA"
"-115.14","67.82","KUGLUKTUK A","2300903","2022-12-24 16:00","2022","12","24","16:00","-39.9","","-43.8","","67","","","","26","","11","","24.1","","104.06","","","","-52","","NA"
"-115.14","67.82","KUGLUKTUK A","2300903","2022-12-24 17:00","2022","12","24","17:00","-39.8","","-43.7","","67","","","","27","","8","","24.1","","104.05","","","","-49","","Clear"
"-115.14","67.82","KUGLUKTUK A","2300903","2022-12-24 18:00","2022","12","24","18:00","-40.7","","-44.7","","67","","","","22","","17","","24.1","","104.04","","","","-55","","NA"
"-115.14","67.82","KUGLUKTUK A","2300903","2022-12-24 19:00","2022","12","24","19:00","-40.3","","-44.3","","67","","","","22","","17","","24.1","","104.03","","","","-55","","NA"
"-115.14","67.82","KUGLUKTUK A","2300903","2022-12-24 20:00","2022","12","24","20:00","-41.1","","-45.1","","66","","","","23","","14","","24.1","","103.98","","","","-55","","Ice Crystals"
"-115.14","67.82","KUGLUKTUK A","2300903","2022-12-24 21:00","2022","12","24","21:00","-40.1","","-44.1","","67","","","","24","","10","","24.1","","103.93","","","","-51","","Ice Crystals"
"-115.14","67.82","KUGLUKTUK A","2300903","2022-12-24 22:00","2022","12","24","22:00","-40.6","","-44.6","","67","","","","25","","9","","24.1","","103.91","","","","-51","","Ice Crystals"
"-115.14","67.82","KUGLUKTUK A","2300903","2022-12-24 23:00","2022","12","24","23:00","-40.0","","-44.0","","67","","","","22","","3","","24.1","","103.93","","","","-44","","Ice Crystals"
"-115.14","67.82","KUGLUKTUK A","2300903","2022-12-25 00:00","2022","12","25","00:00","-40.8","","-44.8","","66","","","","22","","14","","24.1","","103.95","","","","-54","","Ice Crystals"
"-115.14","67.82","KUGLUKTUK A","2300903","2022-12-25 01:00","2022","12","25","01:00","-40.8","","-44.9","","66","","","","22","","21","","24.1","","103.98","","","","-57","","Ice Crystals"
"-115.14","67.82","KUGLUKTUK A","2300903","2022-12-25 02:00","2022","12","25","02:00","-40.5","","-44.5","","67","","","","23","","17","","24.1","","103.94","","","","-55","","Ice Crystals"
"-115.14","67.82","KUGLUKTUK A","2300903","2022-12-25 03:00","2022","12","25","03:00","-40.9","","-44.9","","66","","","","23","","20","","24.1","","103.91","","","","-57","","Ice Crystals"
"-115.14","67.82","KUGLUKTUK A","2300903","2022-12-25 04:00","2022","12","25","04:00","-40.5","","-44.5","","67","","","","22","","19","","24.1","","103.92","","","","-56","","Ice Crystals"
"-115.14","67.82","KUGLUKTUK A","2300903","2022-12-25 05:00","2022","12","25","05:00","-40.5","","-44.5","","67","","","","22","","18","","24.1","","103.90","","","","-56","","Ice Crystals"
"-115.14","67.82","KUGLUKTUK A","2300903","2022-12-25 06:00","2022","12","25","06:00","-40.7","","-44.7","","66","","","","21","","16","","24.1","","103.92","","","","-55","","Ice Crystals"
"-115.14","67.82","KUGLUKTUK A","2300903","2022-12-25 07:00","2022","12","25","07:00","-40.4","","-44.4","","67","","","","22","","19","","24.1","","103.94","","","","-56","","Ice Crystals"
"-115.14","67.82","KUGLUKTUK A","2300903","2022-12-25 08:00","2022","12","25","08:00","-40.7","","-44.7","","66","","","","21","","17","","24.1","","103.93","","","","-55","","Ice Crystals"
"-115.14","67.82","KUGLUKTUK A","2300903","2022-12-25 09:00","2022","12","25","09:00","-40.4","","-44.4","","67","","","","22","","16","","24.1","","103.91","","","","-55","","NA"
"-115.14","67.82","KUGLUKTUK A","2300903","2022-12-25 10:00","2022","12","25","10:00","-40.5","","-44.5","","66","","","","22","","17","","24.1","","103.87","","","","-55","","NA"
"-115.14","67.82","KUGLUKTUK A","2300903","2022-12-25 11:00","2022","12","25","11:00","-40.5","","-44.5","","66","","","","22","","18","","24.1","","103.88","","","","-56","","Clear"
"-115.14","67.82","KUGLUKTUK A","2300903","2022-12-25 12:00","2022","12","25","12:00","-40.5","","-44.5","","66","","","","23","","16","","24.1","","103.83","","","","-55","","NA"
"-115.14","67.82","KUGLUKTUK A","2300903","2022-12-25 13:00","2022","12","25","13:00","-40.3","","-44.3","","67","","","","22","","17","","24.1","","103.80","","","","-55","","NA"
"-115.14","67.82","KUGLUKTUK A","2300903","2022-12-25 14:00","2022","12","25","14:00","-40.2","","-44.2","","67","","","","20","","7","","24.1","","103.79","","","","-49","","Clear"
"-115.14","67.82","KUGLUKTUK A","2300903","2022-12-25 15:00","2022","12","25","15:00","-40.2","","-44.2","","67","","","","21","","9","","24.1","","103.75","","","","-51","","NA"
"-115.14","67.82","KUGLUKTUK A","2300903","2022-12-25 16:00","2022","12","25","16:00","-40.3","","-44.3","","67","","","","21","","13","","24.1","","103.69","","","","-53","","NA"
"-115.14","67.82","KUGLUKTUK A","2300903","2022-12-25 17:00","2022","12","25","17:00","-40.4","","-44.4","","66","","","","30","","3","","24.1","","103.63","","","","-45","","Clear"
"-115.14","67.82","KUGLUKTUK A","2300903","2022-12-25 18:00","2022","12","25","18:00","-40.2","","-44.2","","67","","","","34","","3","","24.1","","103.59","","","","-44","","NA"
"-115.14","67.82","KUGLUKTUK A","2300903","2022-12-25 19:00","2022","12","25","19:00","-40.9","","-44.9","","66","","","","22","","9","","24.1","","103.56","","","","-52","","Ice Crystals"
"-115.14","67.82","KUGLUKTUK A","2300903","2022-12-25 20:00","2022","12","25","20:00","-40.1","","-44.1","","67","","","","21","","6","","24.1","","103.53","","","","-48","","Ice Crystals"
"-115.14","67.82","KUGLUKTUK A","2300903","2022-12-25 21:00","2022","12","25","21:00","-40.9","","-45.0","","66","","","","19","","9","","24.1","","103.48","","","","-52","","Ice Crystals"
"-115.14","67.82","KUGLUKTUK A","2300903","2022-12-25 22:00","2022","12","25","22:00","-39.8","","-43.7","","67","","","","32","","3","","24.1","","103.42","","","","-44","","Ice Crystals"
"-115.14","67.82","KUGLUKTUK A","2300903","2022-12-25 23:00","2022","12","25","23:00","-40.4","","-44.4","","67","","","","36","","3","","24.1","","103.31","","","","-45","","Ice Crystals"
"-115.14","67.82","KUGLUKTUK A","2300903","2022-12-26 00:00","2022","12","26","00:00","-40.2","","-44.2","","67","","","","36","","3","","4.8","","103.23","","","","-44","","Ice Crystals"
"-115.14","67.82","KUGLUKTUK A","2300903","2022-12-26 01:00","2022","12","26","01:00","-40.4","","-44.4","","67","","","","36","","2","","12.9","","103.17","","","","-43","","Ice Crystals"
"-115.14","67.82","KUGLUKTUK A","2300903","2022-12-26 02:00","2022","12","26","02:00","-40.1","","-44.1","","67","","","","25","","4","","19.3","","103.17","","","","-46","","Ice Crystals"
"-115.14","67.82","KUGLUKTUK A","2300903","2022-12-26 03:00","2022","12","26","03:00","-40.8","","-44.9","","66","","","","1","","5","","9.7","","103.09","","","","-48","","Ice Crystals"
"-115.14","67.82","KUGLUKTUK A","2300903","2022-12-26 04:00","2022","12","26","04:00","-40.3","","-44.3","","67","","","","36","","1","","9.7","","103.00","","","","-42","","Ice Crystals"
"-115.14","67.82","KUGLUKTUK A","2300903","2022-12-26 05:00","2022","12","26","05:00","-39.9","","-43.9","","67","","","","0","","1","","12.9","","102.90","","","","-41","","Ice Crystals"
"-115.14","67.82","KUGLUKTUK A","2300903","2022-12-26 06:00","2022","12","26","06:00","-41.8","","-45.9","","66","","","","20","","11","","9.7","","102.85","","","","-54","","Ice Crystals"
"-115.14","67.82","KUGLUKTUK A","2300903","2022-12-26 07:00","2022","12","26","07:00","-40.1","","-44.0","","67","","","","36","","3","","12.9","","102.77","","","","-44","","Ice Crystals"
"-115.14","67.82","KUGLUKTUK A","2300903","2022-12-26 08:00","2022","12","26","08:00","-40.4","","-44.4","","67","","","","36","","1","","24.1","","102.66","","","","-42","","Clear"
"-115.14","67.82","KUGLUKTUK A","2300903","2022-12-26 09:00","2022","12","26","09:00","-40.8","","-44.8","","66","","","","18","","8","","12.9","","102.59","","","","-51","","NA"
"-115.14","67.82","KUGLUKTUK A","2300903","2022-12-26 10:00","2022","12","26","10:00","-39.4","","-43.4","","67","","","","30","","5","","24.1","","102.54","","","","-46","","NA"
"-115.14","67.82","KUGLUKTUK A","2300903","2022-12-26 11:00","2022","12","26","11:00","-38.6","","-42.5","","68","","","","36","","4","","24.1","","102.44","","","","-44","","Mainly Clear"
"-115.14","67.82","KUGLUKTUK A","2300903","2022-12-26 12:00","2022","12","26","12:00","-40.0","","-44.0","","67","","","","36","","1","","24.1","","102.35","","","","-41","","NA"
"-115.14","67.82","KUGLUKTUK A","2300903","2022-12-26 13:00","2022","12","26","13:00","-40.1","","-44.1","","67","","","","16","","5","","12.9","","102.27","","","","-47","","NA"
"-115.14","67.82","KUGLUKTUK A","2300903","2022-12-26 14:00","2022","12","26","14:00","-38.9","","-42.8","","67","","","","28","","3","","12.9","","102.19","","","","-43","","Mostly Cloudy"
"-115.14","67.82","KUGLUKTUK A","2300903","2022-12-26 15:00","2022","12","26","15:00","-37.9","","-41.7","","68","","","","23","","5","","24.1","","102.19","","","","-45","","NA"
"-115.14","67.82","KUGLUKTUK A","2300903","2022-12-26 16:00","2022","12","26","16:00","-36.4","","-40.2","","69","","","","35","","6","","24.1","","102.09","","","","-44","","NA"
"-115.14","67.82","KUGLUKTUK A","2300903","2022-12-26 17:00","2022","12","26","17:00","-36.5","","-40.4","","69","","","","4","","6","","24.1","","101.99","","","","-44","","Mainly Clear"
"-115.14","67.82","KUGLUKTUK A","2300903","2022-12-26 18:00","2022","12","26","18:00","-34.0","","-37.6","","70","","","","1","","4","","24.1","","101.92","","","","-39","","NA"
"-115.14","67.82","KUGLUKTUK A","2300903","2022-12-26 19:00","2022","12","26","19:00","-32.5","","-36.1","","71","","","","36","","3","","24.1","","101.85","","","","-36","","NA"
"-115.14","67.82","KUGLUKTUK A","2300903","2022-12-26 20:00","2022","12","26","20:00","-27.1","","-30.3","","75","","","","10","","22","","24.1","","101.70","","","","-40","","Mostly Cloudy"
"-115.14","67.82","KUGLUKTUK A","2300903","2022-12-26 21:00","2022","12","26","21:00","-26.3","","-29.4","","75","","","","7","","17","","24.1","","101.67","","","","-38","","NA"
"-115.14","67.82","KUGLUKTUK A","2300903","2022-12-26 22:00","2022","12","26","22:00","-25.9","","-29.1","","76","","","","9","","25","","24.1","","101.61","","","","-39","","Ice Crystals"
"-115.14","67.82","KUGLUKTUK A","2300903","2022-12-26 23:00","2022","12","26","23:00","-25.0","","-28.1","","76","","","","8","","21","","24.1","","101.60","","","","-37","","Ice Crystals"
"-115.14","67.82","KUGLUKTUK A","2300903","2022-12-27 00:00","2022","12","27","00:00","-23.9","","-27.1","","75","","","","12","","13","","24.1","","101.53","","","","-33","","Ice Crystals"
"-115.14","67.82","KUGLUKTUK A","2300903","2022-12-27 01:00","2022","12","27","01:00","-24.1","","-27.6","","73","","","","10","","18","","19.3","","101.46","","","","-35","","Snow"
"-115.14","67.82","KUGLUKTUK A","2300903","2022-12-27 02:00","2022","12","27","02:00","-22.9","","-26.6","","73","","","","10","","22","","12.9","","101.39","","","","-35","","Snow,Blowing Snow"
"-115.14","67.82","KUGLUKTUK A","2300903","2022-12-27 03:00","2022","12","27","03:00","-22.6","","-26.1","","74","","","","8","","23","","12.9","","101.32","","","","-35","","Snow,Blowing Snow"
"-115.14","67.82","KUGLUKTUK A","2300903","2022-12-27 04:00","2022","12","27","04:00","-22.0","","-25.4","","75","","","","9","","25","","12.9","","101.26","","","","-34","","Snow,Blowing Snow"
"-115.14","67.82","KUGLUKTUK A","2300903","2022-12-27 05:00","2022","12","27","05:00","-21.8","","-24.9","","76","","","","10","","26","","9.7","","101.20","","","","-34","","Snow,Blowing Snow"
"-115.14","67.82","KUGLUKTUK A","2300903","2022-12-27 06:00","2022","12","27","06:00","-21.7","","-24.6","","78","","","","10","","26","","4.8","","101.12","","","","-34","","Snow,Blowing Snow"
"-115.14","67.82","KUGLUKTUK A","2300903","2022-12-27 07:00","2022","12","27","07:00","-21.1","","-24.4","","75","","","","11","","21","","4.8","","101.05","","","","-32","","Snow,Blowing Snow"
"-115.14","67.82","KUGLUKTUK A","2300903","2022-12-27 08:00","2022","12","27","08:00","-20.6","","-24.2","","73","","","","11","","22","","12.9","","101.02","","","","-32","","Snow,Blowing Snow"
"-115.14","67.82","KUGLUKTUK A","2300903","2022-12-27 09:00","2022","12","27","09:00","-20.3","","-23.6","","75","","","","10","","23","","4.8","","101.00","","","","-32","","Snow,Blowing Snow"
"-115.14","67.82","KUGLUKTUK A","2300903","2022-12-27 10:00","2022","12","27","10:00","-20.4","","-23.3","","78","","","","9","","21","","4.0","","100.98","","","","-31","","Snow,Blowing Snow"
"-115.14","67.82","KUGLUKTUK A","2300903","2022-12-27 11:00","2022","12","27","11:00","-20.1","","-23.1","","77","","","","11","","25","","4.0","","100.92","","","","-32","","Snow,Blowing Snow"
"-115.14","67.82","KUGLUKTUK A","2300903","2022-12-27 12:00","2022","12","27","12:00","-19.9","","-22.7","","78","","","","12","","17","","1.2","","100.91","","","","-30","","Snow,Blowing Snow"
"-115.14","67.82","KUGLUKTUK A","2300903","2022-12-27 13:00","2022","12","27","13:00","-19.6","","-22.5","","78","","","","12","","30","","0.8","","100.83","","","","-32","","Moderate Snow,Blowing Snow"
"-115.14","67.82","KUGLUKTUK A","2300903","2022-12-27 14:00","2022","12","27","14:00","-19.3","","-22.2","","78","","","","11","","13","","0.8","","100.85","","","","-28","","Moderate Snow,Blowing Snow"
"-115.14","67.82","KUGLUKTUK A","2300903","2022-12-27 15:00","2022","12","27","15:00","-19.1","","-22.2","","77","","","","13","","19","","1.0","","100.80","","","","-29","","Snow,Blowing Snow"
"-115.14","67.82","KUGLUKTUK A","2300903","2022-12-27 16:00","2022","12","27","16:00","-19.0","","-21.8","","79","","","","9","","20","","1.6","","100.79","","","","-29","","Snow,Blowing Snow"
"-115.14","67.82","KUGLUKTUK A","2300903","2022-12-27 17:00","2022","12","27","17:00","-18.4","","-21.2","","79","","","","12","","28","","1.6","","100.71","","","","-30","","Snow,Blowing Snow"
"-115.14","67.82","KUGLUKTUK A","2300903","2022-12-27 18:00","2022","12","27","18:00","-18.3","","-20.9","","80","","","","11","","26","","2.4","","100.69","","","","-30","","Ice Crystals,Blowing Snow"
"-115.14","67.82","KUGLUKTUK A","2300903","2022-12-27 19:00","2022","12","27","19:00","-18.0","","-20.6","","81","","","","11","","26","","2.4","","100.68","","","","-29","","Ice Crystals,Blowing Snow"
"-115.14","67.82","KUGLUKTUK A","2300903","2022-12-27 20:00","2022","12","27","20:00","-17.9","","-20.5","","80","","","","11","","21","","2.4","","100.65","","","","-28","","Ice Crystals,Blowing Snow"
"-115.14","67.82","KUGLUKTUK A","2300903","2022-12-27 21:00","2022","12","27","21:00","-17.6","","-20.2","","81","","","","13","","21","","3.2","","100.64","","","","-28","","Ice Crystals,Blowing Snow"
"-115.14","67.82","KUGLUKTUK A","2300903","2022-12-27 22:00","2022","12","27","22:00","-17.6","","-20.0","","82","","","","11","","16","","2.4","","100.66","","","","-26","","Ice Crystals,Blowing Snow"
"-115.14","67.82","KUGLUKTUK A","2300903","2022-12-27 23:00","2022","12","27","23:00","-17.7","","-19.9","","83","","","","11","","13","","2.4","","100.67","","","","-26","","Ice Crystals,Blowing Snow"
"-115.14","67.82","KUGLUKTUK A","2300903","2022-12-28 00:00","2022","12","28","00:00","-17.5","","-19.8","","83","","","","11","","16","","2.4","","100.68","","","","-26","","Ice Crystals,Blowing Snow"
"-115.14","67.82","KUGLUKTUK A","2300903","2022-12-28 01:00","2022","12","28","01:00","-17.1","","-20.0","","79","","","","14","","21","","3.2","","100.69","","","","-27","","Ice Crystals,Blowing Snow"
"-115.14","67.82","KUGLUKTUK A","2300903","2022-12-28 02:00","2022","12","28","02:00","-17.1","","-19.9","","79","","","","13","","20","","3.2","","100.71","","","","-27","","Ice Crystals,Blowing Snow"
"-115.14","67.82","KUGLUKTUK A","2300903","2022-12-28 03:00","2022","12","28","03:00","-17.1","","-19.5","","82","","","","11","","19","","3.2","","100.69","","","","-27","","Ice Crystals,Blowing Snow"
"-115.14","67.82","KUGLUKTUK A","2300903","2022-12-28 04:00","2022","12","28","04:00","-16.8","","-19.3","","81","","","","11","","21","","6.4","","100.67","","","","-27","","Ice Crystals,Blowing Snow"
"-115.14","67.82","KUGLUKTUK A","2300903","2022-12-28 05:00","2022","12","28","05:00","-16.5","","-19.0","","81","","","","12","","24","","4.8","","100.63","","","","-27","","Ice Crystals,Blowing Snow"
"-115.14","67.82","KUGLUKTUK A","2300903","2022-12-28 06:00","2022","12","28","06:00","-16.3","","-19.2","","78","","","","14","","21","","4.8","","100.60","","","","-26","","Ice Crystals,Blowing Snow"
"-115.14","67.82","KUGLUKTUK A","2300903","2022-12-28 07:00","2022","12","28","07:00","-17.0","","-20.8","","73","","","","14","","18","","16.1","","100.61","","","","-26","","Ice Crystals,Blowing Snow"
"-115.14","67.82","KUGLUKTUK A","2300903","2022-12-28 08:00","2022","12","28","08:00","-17.4","","-21.5","","71","","","","13","","19","","16.1","","100.61","","","","-27","","Ice Crystals,Blowing Snow"
"-115.14","67.82","KUGLUKTUK A","2300903","2022-12-28 09:00","2022","12","28","09:00","-17.7","","-22.2","","68","","","","14","","19","","16.1","","100.63","","","","-27","","Ice Crystals,Blowing Snow"
"-115.14","67.82","KUGLUKTUK A","2300903","2022-12-28 10:00","2022","12","28","10:00","-17.1","","-21.2","","71","","","","13","","16","","9.7","","100.61","","","","-26","","Snow"
"-115.14","67.82","KUGLUKTUK A","2300903","2022-12-28 11:00","2022","12","28","11:00","-16.8","","-19.6","","79","","","","13","","18","","6.4","","100.64","","","","-26","","Snow"
"-115.14","67.82","KUGLUKTUK A","2300903","2022-12-28 12:00","2022","12","28","12:00","-16.5","","-18.9","","82","","","","13","","14","","3.2","","100.63","","","","-24","","Snow"
"-115.14","67.82","KUGLUKTUK A","2300903","2022-12-28 13:00","2022","12","28","13:00","-16.7","","-19.0","","82","","","","12","","10","","3.2","","100.63","","","","-23","","Snow"
"-115.14","67.82","KUGLUKTUK A","2300903","2022-12-28 14:00","2022","12","28","14:00","-16.4","","-18.9","","81","","","","13","","8","","4.8","","100.62","","","","-22","","Snow"
"-115.14","67.82","KUGLUKTUK A","2300903","2022-12-28 15:00","2022","12","28","15:00","-16.3","","-18.7","","82","","","","12","","10","","2.4","","100.64","","","","-23","","Snow"
"-115.14","67.82","KUGLUKTUK A","2300903","2022-12-28 16:00","2022","12","28","16:00","-16.4","","-18.5","","84","","","","14","","8","","3.2","","100.63","","","","-22","","Snow"
"-115.14","67.82","KUGLUKTUK A","2300903","2022-12-28 17:00","2022","12","28","17:00","-16.2","","-18.3","","84","","","","10","","7","","6.4","","100.63","","","","-21","","Snow"
"-115.14","67.82","KUGLUKTUK A","2300903","2022-12-28 18:00","2022","12","28","18:00","-16.3","","-18.5","","83","","","","10","","7","","12.9","","100.64","","","","-21","","Snow"
"-115.14","67.82","KUGLUKTUK A","2300903","2022-12-28 19:00","2022","12","28","19:00","-16.5","","-18.9","","82","","","","11","","10","","12.9","","100.61","","","","-23","","Snow"
"-115.14","67.82","KUGLUKTUK A","2300903","2022-12-28 20:00","2022","12","28","20:00","-16.1","","-18.9","","79","","","","15","","5","","16.1","","100.61","","","","-20","","Snow"
"-115.14","67.82","KUGLUKTUK A","2300903","2022-12-28 21:00","2022","12","28","21:00","-16.5","","-19.4","","79","","","","17","","4","","19.3","","100.61","","","","-20","","Snow"
"-115.14","67.82","KUGLUKTUK A","2300903","2022-12-28 22:00","2022","12","28","22:00","-16.8","","-20.1","","76","","","","16","","9","","24.1","","100.61","","","","-23","","Snow"
"-115.14","67.82","KUGLUKTUK A","2300903","2022-12-28 23:00","2022","12","28","23:00","-18.5","","-22.1","","74","","","","18","","13","","24.1","","100.63","","","","-27","","Snow"
"-115.14","67.82","KUGLUKTUK A","2300903","2022-12-29 00:00","2022","12","29","00:00","-18.1","","-21.8","","73","","","","18","","13","","24.1","","100.62","","","","-26","","NA"
"-115.14","67.82","KUGLUKTUK A","2300903","2022-12-29 01:00","2022","12","29","01:00","-17.9","","-21.5","","74","","","","17","","9","","24.1","","100.61","","","","-24","","NA"
"-115.14","67.82","KUGLUKTUK A","2300903","2022-12-29 02:00","2022","12","29","02:00","-18.4","","-22.2","","73","","","","17","","4","","24.1","","100.63","","","","-22","","Cloudy"
"-115.14","67.82","KUGLUKTUK A","2300903","2022-12-29 03:00","2022","12","29","03:00","-17.8","","-21.5","","73","","","","17","","7","","24.1","","100.62","","","","-23","","NA"
"-115.14","67.82","KUGLUKTUK A","2300903","2022-12-29 04:00","2022","12","29","04:00","-17.6","","-21.3","","73","","","","17","","8","","24.1","","100.60","","","","-23","","NA"
"-115.14","67.82","KUGLUKTUK A","2300903","2022-12-29 05:00","2022","12","29","05:00","-17.6","","-20.9","","76","","","","21","","8","","24.1","","100.59","","","","-23","","Cloudy"
"-115.14","67.82","KUGLUKTUK A","2300903","2022-12-29 06:00","2022","12","29","06:00","-17.6","","-21.0","","75","","","","36","","3","","24.1","","100.56","","","","-20","","NA"
"-115.14","67.82","KUGLUKTUK A","2300903","2022-12-29 07:00","2022","12","29","07:00","-18.0","","-21.4","","75","","","","36","","3","","24.1","","100.55","","","","-20","","NA"
"-115.14","67.82","KUGLUKTUK A","2300903","2022-12-29 08:00","2022","12","29","08:00","-18.1","","-21.5","","74","","","","21","","7","","24.1","","100.53","","","","-23","","Mostly Cloudy"
"-115.14","67.82","KUGLUKTUK A","2300903","2022-12-29 09:00","2022","12","29","09:00","-18.6","","-21.7","","77","","","","18","","8","","24.1","","100.52","","","","-25","","NA"
"-115.14","67.82","KUGLUKTUK A","2300903","2022-12-29 10:00","2022","12","29","10:00","-21.3","","-24.3","","77","","","","20","","10","","24.1","","100.51","","","","-29","","NA"
"-115.14","67.82","KUGLUKTUK A","2300903","2022-12-29 11:00","2022","12","29","11:00","-22.5","","-25.9","","75","","","","20","","9","","24.1","","100.50","","","","-30","","Mainly Clear"
"-115.14","67.82","KUGLUKTUK A","2300903","2022-12-29 12:00","2022","12","29","12:00","-23.1","","-26.0","","78","","","","20","","8","","24.1","","100.49","","","","-30","","NA"
"-115.14","67.82","KUGLUKTUK A","2300903","2022-12-29 13:00","2022","12","29","13:00","-24.3","","-27.0","","79","","","","20","","10","","24.1","","100.49","","","","-32","","NA"
"-115.14","67.82","KUGLUKTUK A","2300903","2022-12-29 14:00","2022","12","29","14:00","-24.7","","-27.4","","78","","","","23","","10","","24.1","","100.50","","","","-33","","Mainly Clear"
"-115.14","67.82","KUGLUKTUK A","2300903","2022-12-29 15:00","2022","12","29","15:00","-22.9","","-25.6","","79","","","","28","","3","","24.1","","100.47","","","","-26","","NA"
"-115.14","67.82","KUGLUKTUK A","2300903","2022-12-29 16:00","2022","12","29","16:00","-22.9","","-25.5","","80","","","","36","","1","","24.1","","100.45","","","","-24","","Snow"
"-115.14","67.82","KUGLUKTUK A","2300903","2022-12-29 17:00","2022","12","29","17:00","-22.0","","-24.7","","79","","","","36","","1","","24.1","","100.43","","","","-23","","Snow"
"-115.14","67.82","KUGLUKTUK A","2300903","2022-12-29 18:00","2022","12","29","18:00","-21.6","","-24.1","","81","","","","36","","2","","24.1","","100.41","","","","-23","","Snow"
"-115.14","67.82","KUGLUKTUK A","2300903","2022-12-29 19:00","2022","12","29","19:00","-21.1","","-23.7","","80","","","","36","","1","","19.3","","100.40","","","","-22","","Snow"
"-115.14","67.82","KUGLUKTUK A","2300903","2022-12-29 20:00","2022","12","29","20:00","-20.9","","-23.4","","81","","","","36","","3","","19.3","","100.38","","","","-24","","Snow"
"-115.14","67.82","KUGLUKTUK A","2300903","2022-12-29 21:00","2022","12","29","21:00","-20.6","","-23.2","","80","","","","32","","5","","19.3","","100.37","","","","-25","","Snow"
"-115.14","67.82","KUGLUKTUK A","2300903","2022-12-29 22:00","2022","12","29","22:00","-20.5","","-22.8","","82","","","","30","","5","","19.3","","100.36","","","","-25","","Snow"
"-115.14","67.82","KUGLUKTUK A","2300903","2022-12-29 23:00","2022","12","29","23:00","-20.2","","-22.6","","82","","","","36","","2","","24.1","","100.38","","","","-22","","Snow"
"-115.14","67.82","KUGLUKTUK A","2300903","2022-12-30 00:00","2022","12","30","00:00","-20.1","","-22.5","","81","","","","36","","2","","19.3","","100.36","","","","-22","","Snow"
"-115.14","67.82","KUGLUKTUK A","2300903","2022-12-30 01:00","2022","12","30","01:00","-20.2","","-22.6","","82","","","","36","","1","","19.3","","100.36","","","","-21","","Snow"
"-115.14","67.82","KUGLUKTUK A","2300903","2022-12-30 02:00","2022","12","30","02:00","-20.1","","-22.5","","82","","","","36","","1","","24.1","","100.34","","","","-21","","Snow"
"-115.14","67.82","KUGLUKTUK A","2300903","2022-12-30 03:00","2022","12","30","03:00","-19.8","","-22.2","","81","","","","29","","3","","24.1","","100.34","","","","-22","","Snow"
"-115.14","67.82","KUGLUKTUK A","2300903","2022-12-30 04:00","2022","12","30","04:00","-19.3","","-21.9","","81","","","","2","","4","","24.1","","100.33","","","","-23","","Snow"
"-115.14","67.82","KUGLUKTUK A","2300903","2022-12-30 05:00","2022","12","30","05:00","-19.1","","-21.7","","81","","","","2","","4","","24.1","","100.30","","","","-22","","Snow"
"-115.14","67.82","KUGLUKTUK A","2300903","2022-12-30 06:00","2022","12","30","06:00","-19.3","","-21.7","","82","","","","12","","5","","24.1","","100.25","","","","-23","","Snow"
"-115.14","67.82","KUGLUKTUK A","2300903","2022-12-30 07:00","2022","12","30","07:00","-19.0","","-21.4","","82","","","","35","","6","","24.1","","100.25","","","","-24","","Snow"
"-115.14","67.82","KUGLUKTUK A","2300903","2022-12-30 08:00","2022","12","30","08:00","-18.5","","-20.8","","82","","","","5","","7","","24.1","","100.24","","","","-24","","Snow"
"-115.14","67.82","KUGLUKTUK A","2300903","2022-12-30 09:00","2022","12","30","09:00","-18.2","","-20.4","","83","","","","5","","5","","24.1","","100.24","","","","-22","","Snow"
"-115.14","67.82","KUGLUKTUK A","2300903","2022-12-30 10:00","2022","12","30","10:00","-17.6","","-19.9","","82","","","","7","","8","","19.3","","100.23","","","","-23","","Snow"
"-115.14","67.82","KUGLUKTUK A","2300903","2022-12-30 11:00","2022","12","30","11:00","-17.6","","-19.9","","83","","","","1","","6","","24.1","","100.24","","","","-22","","Snow"
"-115.14","67.82","KUGLUKTUK A","2300903","2022-12-30 12:00","2022","12","30","12:00","-17.1","","-19.5","","82","","","","3","","9","","24.1","","100.22","","","","-23","","Snow"
"-115.14","67.82","KUGLUKTUK A","2300903","2022-12-30 13:00","2022","12","30","13:00","-17.3","","-19.5","","83","","","","4","","9","","24.1","","100.23","","","","-24","","Snow"
"-115.14","67.82","KUGLUKTUK A","2300903","2022-12-30 14:00","2022","12","30","14:00","-16.9","","-19.2","","83","","","","5","","9","","24.1","","100.24","","","","-23","","Snow"
"-115.14","67.82","KUGLUKTUK A","2300903","2022-12-30 15:00","2022","12","30","15:00","-16.7","","-18.8","","84","","","","3","","13","","24.1","","100.23","","","","-24","","Snow"
"-115.14","67.82","KUGLUKTUK A","2300903","2022-12-30 16:00","2022","12","30","16:00","-16.6","","-18.5","","85","","","","3","","12","","24.1","","100.25","","","","-24","","Snow"
"-115.14","67.82","KUGLUKTUK A","2300903","2022-12-30 17:00","2022","12","30","17:00","-16.0","","-18.0","","84","","","","4","","12","","19.3","","100.24","","","","-23","","Snow"
"-115.14","67.82","KUGLUKTUK A","2300903","2022-12-30 18:00","2022","12","30","18:00","-16.0","","-18.1","","84","","","","6","","10","","19.3","","100.23","","","","-22","","Snow"
"-115.14","67.82","KUGLUKTUK A","2300903","2022-12-30 19:00","2022","12","30","19:00","-16.1","","-18.4","","83","","","","6","","18","","19.3","","100.23","","","","-25","","Snow"
"-115.14","67.82","KUGLUKTUK A","2300903","2022-12-30 20:00","2022","12","30","20:00","-16.5","","-18.6","","84","","","","4","","15","","19.3","","100.23","","","","-25","","Snow"
"-115.14","67.82","KUGLUKTUK A","2300903","2022-12-30 21:00","2022","12","30","21:00","-16.7","","-18.8","","84","","","","5","","13","","19.3","","100.25","","","","-24","","Snow"
"-115.14","67.82","KUGLUKTUK A","2300903","2022-12-30 22:00","2022","12","30","22:00","-16.9","","-19.1","","83","","","","5","","16","","19.3","","100.27","","","","-26","","Snow"
"-115.14","67.82","KUGLUKTUK A","2300903","2022-12-30 23:00","2022","12","30","23:00","-17.1","","-19.3","","83","","","","6","","14","","19.3","","100.31","","","","-25","","Snow"
"-115.14","67.82","KUGLUKTUK A","2300903","2022-12-31 00:00","2022","12","31","00:00","-17.4","","-19.6","","83","","","","7","","19","","19.3","","100.32","","","","-27","","Snow"
"-115.14","67.82","KUGLUKTUK A","2300903","2022-12-31 01:00","2022","12","31","01:00","-17.6","","-20.0","","82","","","","6","","18","","19.3","","100.33","","","","-27","","Snow"
"-115.14","67.82","KUGLUKTUK A","2300903","2022-12-31 02:00","2022","12","31","02:00","-17.9","","-20.3","","82","","","","7","","18","","16.1","","100.34","","","","-27","","Snow"
"-115.14","67.82","KUGLUKTUK A","2300903","2022-12-31 03:00","2022","12","31","03:00","-18.2","","-20.6","","81","","","","6","","18","","16.1","","100.36","","","","-28","","Snow"
"-115.14","67.82","KUGLUKTUK A","2300903","2022-12-31 04:00","2022","12","31","04:00","-18.3","","-20.8","","81","","","","6","","17","","19.3","","100.39","","","","-28","","NA"
"-115.14","67.82","KUGLUKTUK A","2300903","2022-12-31 05:00","2022","12","31","05:00","-18.3","","-20.8","","81","","","","7","","18","","19.3","","100.41","","","","-28","","Snow"
"-115.14","67.82","KUGLUKTUK A","2300903","2022-12-31 06:00","2022","12","31","06:00","-18.4","","-20.9","","81","","","","6","","19","","19.3","","100.39","","","","-28","","Snow"
"-115.14","67.82","KUGLUKTUK A","2300903","2022-12-31 07:00","2022","12","31","07:00","-19.1","","-21.6","","81","","","","6","","23","","16.1","","100.41","","","","-30","","Snow"
"-115.14","67.82","KUGLUKTUK A","2300903","2022-12-31 08:00","2022","12","31","08:00","-19.6","","-22.2","","81","","","","6","","21","","19.3","","100.43","","","","-30","","Snow"
"-115.14","67.82","KUGLUKTUK A","2300903","2022-12-31 09:00","2022","12","31","09:00","-20.1","","-22.6","","80","","","","7","","21","","19.3","","100.45","","","","-31","","Snow,Blowing Snow"
"-115.14","67.82","KUGLUKTUK A","2300903","2022-12-31 10:00","2022","12","31","10:00","-20.4","","-23.1","","80","","","","6","","24","","19.3","","100.50","","","","-32","","Snow,Blowing Snow"
"-115.14","67.82","KUGLUKTUK A","2300903","2022-12-31 11:00","2022","12","31","11:00","-20.6","","-23.3","","80","","","","7","","17","","19.3","","100.54","","","","-30","","Snow"
"-115.14","67.82","KUGLUKTUK A","2300903","2022-12-31 12:00","2022","12","31","12:00","-20.9","","-23.7","","79","","","","7","","23","","16.1","","100.55","","","","-32","","Snow,Blowing Snow"
"-115.14","67.82","KUGLUKTUK A","2300903","2022-12-31 13:00","2022","12","31","13:00","-21.1","","-23.9","","79","","","","5","","25","","12.9","","100.55","","","","-33","","Snow,Blowing Snow"
"-115.14","67.82","KUGLUKTUK A","2300903","2022-12-31 14:00","2022","12","31","14:00","-21.2","","-24.0","","79","","","","7","","17","","6.4","","100.60","","","","-31","","Snow"
"-115.14","67.82","KUGLUKTUK A","2300903","2022-12-31 15:00","2022","12","31","15:00","-21.1","","-24.0","","78","","","","6","","19","","6.4","","100.63","","","","-32","","Snow"
"-115.14","67.82","KUGLUKTUK A","2300903","2022-12-31 16:00","2022","12","31","16:00","-21.0","","-23.9","","78","","","","5","","18","","4.8","","100.65","","","","-31","","Snow"
"-115.14","67.82","KUGLUKTUK A","2300903","2022-12-31 17:00","2022","12","31","17:00","-20.9","","-23.8","","78","","","","6","","19","","2.4","","100.66","","","","-31","","Snow,Blowing Snow"
"-115.14","67.82","KUGLUKTUK A","2300903","2022-12-31 18:00","2022","12","31","18:00","-21.1","","-24.1","","78","","","","6","","18","","3.2","","100.68","","","","-31","","Snow,Blowing Snow"
"-115.14","67.82","KUGLUKTUK A","2300903","2022-12-31 19:00","2022","12","31","19:00","-21.3","","-24.3","","77","","","","6","","19","","3.2","","100.70","","","","-32","","Snow,Blowing Snow"
"-115.14","67.82","KUGLUKTUK A","2300903","2022-12-31 20:00","2022","12","31","20:00","-22.8","","-25.5","","79","","","","3","","27","","8.1","","100.74","","","","-36","","Snow,Blowing Snow"
"-115.14","67.82","KUGLUKTUK A","2300903","2022-12-31 21:00","2022","12","31","21:00","-21.8","","-24.5","","80","","","","4","","19","","12.9","","100.77","","","","-32","","Snow,Blowing Snow"
"-115.14","67.82","KUGLUKTUK A","2300903","2022-12-31 22:00","2022","12","31","22:00","-22.2","","-25.2","","77","","","","5","","23","","6.4","","100.80","","","","-34","","Snow,Blowing Snow"
"-115.14","67.82","KUGLUKTUK A","2300903","2022-12-31 23:00","2022","12","31","23:00","-22.4","","-25.6","","76","","","","4","","17","","8.1","","100.85","","","","-33","","Snow,Blowing Snow"
