"Longitude (x)","Latitude (y)","Station Name","Climate ID","Date/Time (LST)","Year","Month","Day","Time (LST)","Temp (°C)","Temp Flag","Dew Point Temp (°C)","Dew Point Temp Flag","Rel Hum (%)","Rel Hum Flag","Precip. Amount (mm)","Precip. Amount Flag","Wind Dir (10s deg)","Wind Dir Flag","Wind Spd (km/h)","Wind Spd Flag","Visibility (km)","Visibility Flag","Stn Press (kPa)","Stn Press Flag","Hmdx","Hmdx Flag","Wind Chill","Wind Chill Flag","Weather"
"-133.02","69.43","TUKTOYAKTUK","2203914","2022-03-01 00:00","2022","03","01","00:00","-24.5","","-27.5","","76","","","M","11","","12","","","","102.55","","","","-33","","NA"
"-133.02","69.43","TUKTOYAKTUK","2203914","2022-03-01 01:00","2022","03","01","01:00","-24.1","","-27.4","","74","","","M","11","","16","","","","102.56","","","","-34","","NA"
"-133.02","69.43","TUKTOYAKTUK","2203914","2022-03-01 02:00","2022","03","01","02:00","-23.1","","-26.6","","73","","","M","11","","18","","","","102.56","","","","-34","","NA"
"-133.02","69.43","TUKTOYAKTUK","2203914","2022-03-01 03:00","2022","03","01","03:00","-24.0","","-27.6","","72","","","M","11","","17","","","","102.58","","","","-35","","NA"
"-133.02","69.43","TUKTOYAKTUK","2203914","2022-03-01 04:00","2022","03","01","04:00","-24.2","","-27.8","","72","","","M","11","","16","","","","102.56","","","","-35","","NA"
"-133.02","69.43","TUKTOYAKTUK","2203914","2022-03-01 05:00","2022","03","01","05:00","-25.3","","-28.6","","74","","","M","10","","19","","","","102.54","","","","-37","","NA"
"-133.02","69.43","TUKTOYAKTUK","2203914","2022-03-01 06:00","2022","03","01","06:00","-24.9","","-28.4","","73","","","M","11","","27","","","","102.53","","","","-38","","NA"
"-133.02","69.43","TUKTOYAKTUK","2203914","2022-03-01 07:00","2022","03","01","07:00","-24.9","","-28.2","","74","","","M","11","","23","","","","102.54","","","","-37","","NA"
"-133.02","69.43","TUKTOYAKTUK","2203914","2022-03-01 08:00","2022","03","01","08:00","-25.5","","-28.8","","74","","","M","11","","22","","","","102.54","","","","-38","","NA"
"-133.02","69.43","TUKTOYAKTUK","2203914","2022-03-01 09:00","2022","03","01","09:00","-25.4","","-28.9","","73","","","M","12","","24","","","","102.59","","","","-38","","NA"
"-133.02","69.43","TUKTOYAKTUK","2203914","2022-03-01 10:00","2022","03","01","10:00","-25.0","","-28.7","","71","","","M","11","","22","","","","102.59","","","","-37","","NA"
"-133.02","69.43","TUKTOYAKTUK","2203914","2022-03-01 11:00","2022","03","01","11:00","-25.0","","-28.8","","70","","","M","10","","22","","","","102.62","","","","-37","","NA"
"-133.02","69.43","TUKTOYAKTUK","2203914","2022-03-01 12:00","2022","03","01","12:00","-23.7","","-28.2","","66","","","M","11","","23","","","","102.62","","","","-36","","NA"
"-133.02","69.43","TUKTOYAKTUK","2203914","2022-03-01 13:00","2022","03","01","13:00","-23.3","","-28.2","","64","","","M","11","","28","","","","102.59","","","","-36","","NA"
"-133.02","69.43","TUKTOYAKTUK","2203914","2022-03-01 14:00","2022","03","01","14:00","-22.6","","-27.5","","64","","","M","11","","32","","","","102.60","","","","-36","","NA"
"-133.02","69.43","TUKTOYAKTUK","2203914","2022-03-01 15:00","2022","03","01","15:00","-22.4","","-27.2","","65","","","M","12","","30","","","","102.59","","","","-36","","NA"
"-133.02","69.43","TUKTOYAKTUK","2203914","2022-03-01 16:00","2022","03","01","16:00","-21.5","","-26.3","","65","","","M","13","","28","","","","102.58","","","","-34","","NA"
"-133.02","69.43","TUKTOYAKTUK","2203914","2022-03-01 17:00","2022","03","01","17:00","-21.2","","-25.9","","66","","","M","13","","29","","","","102.55","","","","-34","","NA"
"-133.02","69.43","TUKTOYAKTUK","2203914","2022-03-01 18:00","2022","03","01","18:00","-21.5","","-25.7","","68","","","M","12","","23","","","","102.53","","","","-33","","NA"
"-133.02","69.43","TUKTOYAKTUK","2203914","2022-03-01 19:00","2022","03","01","19:00","-21.8","","-26.0","","68","","","M","12","","30","","","","102.48","","","","-35","","NA"
"-133.02","69.43","TUKTOYAKTUK","2203914","2022-03-01 20:00","2022","03","01","20:00","-22.3","","-26.4","","69","","","M","11","","22","","","","102.46","","","","-34","","NA"
"-133.02","69.43","TUKTOYAKTUK","2203914","2022-03-01 21:00","2022","03","01","21:00","-22.4","","-26.4","","70","","","M","11","","22","","","","102.42","","","","-34","","NA"
"-133.02","69.43","TUKTOYAKTUK","2203914","2022-03-01 22:00","2022","03","01","22:00","-22.4","","-26.3","","70","","","M","11","","19","","","","102.39","","","","-33","","NA"
"-133.02","69.43","TUKTOYAKTUK","2203914","2022-03-01 23:00","2022","03","01","23:00","-21.4","","-25.5","","69","","","M","13","","20","","","","102.37","","","","-32","","NA"
"-133.02","69.43","TUKTOYAKTUK","2203914","2022-03-02 00:00","2022","03","02","00:00","-21.1","","-25.3","","69","","","M","12","","26","","","","102.35","","","","-33","","NA"
"-133.02","69.43","TUKTOYAKTUK","2203914","2022-03-02 01:00","2022","03","02","01:00","-22.2","","-26.2","","70","","","M","11","","21","","","","102.35","","","","-34","","NA"
"-133.02","69.43","TUKTOYAKTUK","2203914","2022-03-02 02:00","2022","03","02","02:00","-22.6","","-26.5","","70","","","M","11","","32","","","","102.29","","","","-36","","NA"
"-133.02","69.43","TUKTOYAKTUK","2203914","2022-03-02 03:00","2022","03","02","03:00","-21.7","","-25.5","","71","","","M","12","","36","","","","102.22","","","","-36","","NA"
"-133.02","69.43","TUKTOYAKTUK","2203914","2022-03-02 04:00","2022","03","02","04:00","-21.8","","-25.7","","71","","","M","12","","33","","","","102.19","","","","-35","","NA"
"-133.02","69.43","TUKTOYAKTUK","2203914","2022-03-02 05:00","2022","03","02","05:00","-22.1","","-26.0","","71","","","M","11","","24","","","","102.17","","","","-34","","NA"
"-133.02","69.43","TUKTOYAKTUK","2203914","2022-03-02 06:00","2022","03","02","06:00","-22.0","","-25.8","","71","","","M","13","","27","","","","102.13","","","","-35","","NA"
"-133.02","69.43","TUKTOYAKTUK","2203914","2022-03-02 07:00","2022","03","02","07:00","-21.7","","-25.5","","72","","","M","13","","29","","","","102.07","","","","-35","","NA"
"-133.02","69.43","TUKTOYAKTUK","2203914","2022-03-02 08:00","2022","03","02","08:00","-21.8","","-25.5","","72","","","M","13","","31","","","","102.02","","","","-35","","NA"
"-133.02","69.43","TUKTOYAKTUK","2203914","2022-03-02 09:00","2022","03","02","09:00","-21.9","","-25.7","","71","","","M","13","","34","","","","101.98","","","","-36","","NA"
"-133.02","69.43","TUKTOYAKTUK","2203914","2022-03-02 10:00","2022","03","02","10:00","-21.9","","-25.9","","70","","","M","13","","30","","","","101.94","","","","-35","","NA"
"-133.02","69.43","TUKTOYAKTUK","2203914","2022-03-02 11:00","2022","03","02","11:00","-21.6","","-25.8","","69","","","M","13","","30","","","","101.91","","","","-35","","NA"
"-133.02","69.43","TUKTOYAKTUK","2203914","2022-03-02 12:00","2022","03","02","12:00","-21.1","","-25.5","","68","","","M","13","","31","","","","101.88","","","","-34","","NA"
"-133.02","69.43","TUKTOYAKTUK","2203914","2022-03-02 13:00","2022","03","02","13:00","-20.0","","-24.7","","67","","","M","13","","27","","","","101.84","","","","-32","","NA"
"-133.02","69.43","TUKTOYAKTUK","2203914","2022-03-02 14:00","2022","03","02","14:00","-19.3","","-24.0","","66","","","M","14","","28","","","","101.84","","","","-31","","NA"
"-133.02","69.43","TUKTOYAKTUK","2203914","2022-03-02 15:00","2022","03","02","15:00","-18.1","","-22.9","","66","","","M","15","","28","","","","101.82","","","","-30","","NA"
"-133.02","69.43","TUKTOYAKTUK","2203914","2022-03-02 16:00","2022","03","02","16:00","-17.8","","-22.2","","68","","","M","16","","26","","","","101.80","","","","-29","","NA"
"-133.02","69.43","TUKTOYAKTUK","2203914","2022-03-02 17:00","2022","03","02","17:00","-17.8","","-22.0","","70","","","M","16","","25","","","","101.77","","","","-29","","NA"
"-133.02","69.43","TUKTOYAKTUK","2203914","2022-03-02 18:00","2022","03","02","18:00","-18.2","","-21.9","","72","","","M","16","","22","","","","101.75","","","","-29","","NA"
"-133.02","69.43","TUKTOYAKTUK","2203914","2022-03-02 19:00","2022","03","02","19:00","-18.3","","-21.8","","74","","","M","17","","24","","","","101.70","","","","-29","","NA"
"-133.02","69.43","TUKTOYAKTUK","2203914","2022-03-02 20:00","2022","03","02","20:00","-18.2","","-21.7","","74","","","M","17","","23","","","","101.68","","","","-29","","NA"
"-133.02","69.43","TUKTOYAKTUK","2203914","2022-03-02 21:00","2022","03","02","21:00","-19.1","","-22.4","","75","","","M","17","","21","","","","101.67","","","","-30","","NA"
"-133.02","69.43","TUKTOYAKTUK","2203914","2022-03-02 22:00","2022","03","02","22:00","-19.4","","-22.6","","76","","","M","18","","19","","","","101.68","","","","-29","","NA"
"-133.02","69.43","TUKTOYAKTUK","2203914","2022-03-02 23:00","2022","03","02","23:00","-19.9","","-23.1","","76","","","M","16","","14","","","","101.68","","","","-29","","NA"
"-133.02","69.43","TUKTOYAKTUK","2203914","2022-03-03 00:00","2022","03","03","00:00","-20.3","","-23.2","","77","","","M","17","","17","","","","101.67","","","","-30","","NA"
"-133.02","69.43","TUKTOYAKTUK","2203914","2022-03-03 01:00","2022","03","03","01:00","-21.5","","-24.4","","77","","","M","15","","14","","","","101.66","","","","-31","","NA"
"-133.02","69.43","TUKTOYAKTUK","2203914","2022-03-03 02:00","2022","03","03","02:00","-21.3","","-24.0","","79","","","M","15","","16","","","","101.63","","","","-31","","NA"
"-133.02","69.43","TUKTOYAKTUK","2203914","2022-03-03 03:00","2022","03","03","03:00","-21.6","","-24.4","","78","","","M","15","","13","","","","101.65","","","","-30","","NA"
"-133.02","69.43","TUKTOYAKTUK","2203914","2022-03-03 04:00","2022","03","03","04:00","-21.4","","-24.2","","79","","","M","15","","16","","","","101.65","","","","-31","","NA"
"-133.02","69.43","TUKTOYAKTUK","2203914","2022-03-03 05:00","2022","03","03","05:00","-21.7","","-24.5","","78","","","M","15","","16","","","","101.62","","","","-31","","NA"
"-133.02","69.43","TUKTOYAKTUK","2203914","2022-03-03 06:00","2022","03","03","06:00","-21.8","","-24.6","","78","","","M","15","","16","","","","101.59","","","","-32","","NA"
"-133.02","69.43","TUKTOYAKTUK","2203914","2022-03-03 07:00","2022","03","03","07:00","-21.6","","-24.4","","78","","","M","15","","16","","","","101.57","","","","-31","","NA"
"-133.02","69.43","TUKTOYAKTUK","2203914","2022-03-03 08:00","2022","03","03","08:00","-21.4","","-24.2","","78","","","M","15","","18","","","","101.53","","","","-32","","NA"
"-133.02","69.43","TUKTOYAKTUK","2203914","2022-03-03 09:00","2022","03","03","09:00","-21.5","","-24.4","","77","","","M","14","","16","","","","101.53","","","","-31","","NA"
"-133.02","69.43","TUKTOYAKTUK","2203914","2022-03-03 10:00","2022","03","03","10:00","-21.3","","-24.4","","76","","","M","14","","14","","","","101.51","","","","-30","","NA"
"-133.02","69.43","TUKTOYAKTUK","2203914","2022-03-03 11:00","2022","03","03","11:00","-20.0","","-23.4","","74","","","M","15","","15","","","","101.51","","","","-29","","NA"
"-133.02","69.43","TUKTOYAKTUK","2203914","2022-03-03 12:00","2022","03","03","12:00","-19.6","","-23.3","","72","","","M","14","","13","","","","101.52","","","","-28","","NA"
"-133.02","69.43","TUKTOYAKTUK","2203914","2022-03-03 13:00","2022","03","03","13:00","-18.4","","-22.6","","69","","","M","15","","9","","","","101.52","","","","-25","","NA"
"-133.02","69.43","TUKTOYAKTUK","2203914","2022-03-03 14:00","2022","03","03","14:00","-18.1","","-21.5","","75","","","M","15","","13","","","","101.51","","","","-26","","NA"
"-133.02","69.43","TUKTOYAKTUK","2203914","2022-03-03 15:00","2022","03","03","15:00","-17.0","","-20.6","","74","","","M","15","","10","","","","101.51","","","","-24","","NA"
"-133.02","69.43","TUKTOYAKTUK","2203914","2022-03-03 16:00","2022","03","03","16:00","-16.7","","-20.0","","76","","","M","16","","7","","","","101.51","","","","-22","","NA"
"-133.02","69.43","TUKTOYAKTUK","2203914","2022-03-03 17:00","2022","03","03","17:00","-16.5","","-19.6","","77","","","M","17","","6","","","","101.53","","","","-21","","NA"
"-133.02","69.43","TUKTOYAKTUK","2203914","2022-03-03 18:00","2022","03","03","18:00","-16.1","","-19.2","","78","","","M","18","","5","","","","101.52","","","","-20","","NA"
"-133.02","69.43","TUKTOYAKTUK","2203914","2022-03-03 19:00","2022","03","03","19:00","-16.0","","-18.8","","79","","","M","15","","6","","","","101.49","","","","-20","","NA"
"-133.02","69.43","TUKTOYAKTUK","2203914","2022-03-03 20:00","2022","03","03","20:00","-17.2","","-20.0","","79","","","M","16","","7","","","","101.48","","","","-22","","NA"
"-133.02","69.43","TUKTOYAKTUK","2203914","2022-03-03 21:00","2022","03","03","21:00","-19.8","","-22.3","","80","","","M","15","","10","","","","101.49","","","","-27","","NA"
"-133.02","69.43","TUKTOYAKTUK","2203914","2022-03-03 22:00","2022","03","03","22:00","-20.1","","-22.4","","82","","","M","17","","8","","","","101.50","","","","-26","","NA"
"-133.02","69.43","TUKTOYAKTUK","2203914","2022-03-03 23:00","2022","03","03","23:00","-21.4","","-23.2","","85","","","M","17","","9","","","","101.48","","","","-28","","NA"
"-133.02","69.43","TUKTOYAKTUK","2203914","2022-03-04 00:00","2022","03","04","00:00","-17.8","","-20.0","","83","","","M","17","","9","","","","101.48","","","","-24","","NA"
"-133.02","69.43","TUKTOYAKTUK","2203914","2022-03-04 01:00","2022","03","04","01:00","-16.2","","-18.6","","82","","","M","16","","6","","","","101.47","","","","-21","","NA"
"-133.02","69.43","TUKTOYAKTUK","2203914","2022-03-04 02:00","2022","03","04","02:00","-17.7","","-20.2","","80","","","M","17","","10","","","","101.48","","","","-24","","NA"
"-133.02","69.43","TUKTOYAKTUK","2203914","2022-03-04 03:00","2022","03","04","03:00","-18.2","","-20.4","","83","","","M","16","","13","","","","101.48","","","","-26","","NA"
"-133.02","69.43","TUKTOYAKTUK","2203914","2022-03-04 04:00","2022","03","04","04:00","-18.0","","-20.4","","81","","","M","17","","12","","","","101.49","","","","-26","","NA"
"-133.02","69.43","TUKTOYAKTUK","2203914","2022-03-04 05:00","2022","03","04","05:00","-19.6","","-21.7","","83","","","M","15","","11","","","","101.49","","","","-27","","NA"
"-133.02","69.43","TUKTOYAKTUK","2203914","2022-03-04 06:00","2022","03","04","06:00","-20.0","","-22.2","","83","","","M","16","","15","","","","101.48","","","","-29","","NA"
"-133.02","69.43","TUKTOYAKTUK","2203914","2022-03-04 07:00","2022","03","04","07:00","-21.2","","-23.3","","83","","","M","17","","13","","","","101.47","","","","-30","","NA"
"-133.02","69.43","TUKTOYAKTUK","2203914","2022-03-04 08:00","2022","03","04","08:00","-21.1","","-23.3","","83","","","M","19","","14","","","","101.45","","","","-30","","NA"
"-133.02","69.43","TUKTOYAKTUK","2203914","2022-03-04 09:00","2022","03","04","09:00","-18.5","","-20.4","","85","","","M","21","","13","","","","101.46","","","","-27","","NA"
"-133.02","69.43","TUKTOYAKTUK","2203914","2022-03-04 10:00","2022","03","04","10:00","-17.2","","-19.2","","85","","","M","22","","13","","","","101.49","","","","-25","","NA"
"-133.02","69.43","TUKTOYAKTUK","2203914","2022-03-04 11:00","2022","03","04","11:00","-18.4","","-21.5","","76","","","M","22","","14","","","","101.51","","","","-27","","NA"
"-133.02","69.43","TUKTOYAKTUK","2203914","2022-03-04 12:00","2022","03","04","12:00","-17.8","","-21.0","","76","","","M","23","","10","","","","101.54","","","","-25","","NA"
"-133.02","69.43","TUKTOYAKTUK","2203914","2022-03-04 13:00","2022","03","04","13:00","-16.7","","-19.6","","78","","","M","23","","12","","","","101.55","","","","-24","","NA"
"-133.02","69.43","TUKTOYAKTUK","2203914","2022-03-04 14:00","2022","03","04","14:00","-16.1","","-19.8","","73","","","M","22","","7","","","","101.58","","","","-21","","NA"
"-133.02","69.43","TUKTOYAKTUK","2203914","2022-03-04 15:00","2022","03","04","15:00","-14.7","","-18.9","","70","","","M","29","","5","","","","101.59","","","","-18","","NA"
"-133.02","69.43","TUKTOYAKTUK","2203914","2022-03-04 16:00","2022","03","04","16:00","-14.6","","-19.4","","67","","","M","0","","1","","","","101.59","","","","-15","","NA"
"-133.02","69.43","TUKTOYAKTUK","2203914","2022-03-04 17:00","2022","03","04","17:00","-15.1","","-20.0","","66","","","M","13","","2","","","","101.60","","","","-17","","NA"
"-133.02","69.43","TUKTOYAKTUK","2203914","2022-03-04 18:00","2022","03","04","18:00","-17.5","","-20.8","","76","","","M","8","","6","","","","101.62","","","","-22","","NA"
"-133.02","69.43","TUKTOYAKTUK","2203914","2022-03-04 19:00","2022","03","04","19:00","-19.3","","-21.6","","81","","","M","11","","9","","","","101.57","","","","-26","","NA"
"-133.02","69.43","TUKTOYAKTUK","2203914","2022-03-04 20:00","2022","03","04","20:00","-19.8","","-21.9","","83","","","M","11","","10","","","","101.53","","","","-27","","NA"
"-133.02","69.43","TUKTOYAKTUK","2203914","2022-03-04 21:00","2022","03","04","21:00","-19.9","","-22.0","","83","","","M","12","","10","","","","101.53","","","","-27","","NA"
"-133.02","69.43","TUKTOYAKTUK","2203914","2022-03-04 22:00","2022","03","04","22:00","-20.8","","-23.1","","81","","","M","10","","13","","","","101.51","","","","-29","","NA"
"-133.02","69.43","TUKTOYAKTUK","2203914","2022-03-04 23:00","2022","03","04","23:00","-18.6","","-20.7","","83","","","M","11","","8","","","","101.49","","","","-25","","NA"
"-133.02","69.43","TUKTOYAKTUK","2203914","2022-03-05 00:00","2022","03","05","00:00","-19.5","","-21.8","","83","","","M","13","","9","","","","101.50","","","","-26","","NA"
"-133.02","69.43","TUKTOYAKTUK","2203914","2022-03-05 01:00","2022","03","05","01:00","-18.7","","-20.9","","83","","","M","11","","12","","","","101.49","","","","-26","","NA"
"-133.02","69.43","TUKTOYAKTUK","2203914","2022-03-05 02:00","2022","03","05","02:00","-18.0","","-20.1","","84","","","M","11","","18","","","","101.42","","","","-27","","NA"
"-133.02","69.43","TUKTOYAKTUK","2203914","2022-03-05 03:00","2022","03","05","03:00","-18.3","","-20.5","","83","","","M","12","","10","","","","101.40","","","","-25","","NA"
"-133.02","69.43","TUKTOYAKTUK","2203914","2022-03-05 04:00","2022","03","05","04:00","-18.5","","-20.7","","83","","","M","12","","8","","","","101.37","","","","-24","","NA"
"-133.02","69.43","TUKTOYAKTUK","2203914","2022-03-05 05:00","2022","03","05","05:00","-17.8","","-19.9","","83","","","M","13","","12","","","","101.32","","","","-25","","NA"
"-133.02","69.43","TUKTOYAKTUK","2203914","2022-03-05 06:00","2022","03","05","06:00","-15.0","","-17.1","","84","","","M","13","","17","","","","101.25","","","","-23","","NA"
"-133.02","69.43","TUKTOYAKTUK","2203914","2022-03-05 07:00","2022","03","05","07:00","-14.5","","-17.2","","80","","","M","14","","17","","","","101.20","","","","-23","","NA"
"-133.02","69.43","TUKTOYAKTUK","2203914","2022-03-05 08:00","2022","03","05","08:00","-14.8","","-17.5","","80","","","M","16","","18","","","","101.19","","","","-23","","NA"
"-133.02","69.43","TUKTOYAKTUK","2203914","2022-03-05 09:00","2022","03","05","09:00","-14.3","","-17.1","","79","","","M","17","","22","","","","101.14","","","","-24","","NA"
"-133.02","69.43","TUKTOYAKTUK","2203914","2022-03-05 10:00","2022","03","05","10:00","-12.6","","-15.9","","76","","","M","17","","24","","","","101.11","","","","-22","","NA"
"-133.02","69.43","TUKTOYAKTUK","2203914","2022-03-05 11:00","2022","03","05","11:00","-12.2","","-15.8","","74","","","M","18","","23","","","","101.11","","","","-21","","NA"
"-133.02","69.43","TUKTOYAKTUK","2203914","2022-03-05 12:00","2022","03","05","12:00","-9.5","","-13.0","","76","","","M","20","","20","","","","101.09","","","","-17","","NA"
"-133.02","69.43","TUKTOYAKTUK","2203914","2022-03-05 13:00","2022","03","05","13:00","-7.4","","-11.7","","71","","","M","23","","15","","","","101.09","","","","-14","","NA"
"-133.02","69.43","TUKTOYAKTUK","2203914","2022-03-05 14:00","2022","03","05","14:00","-6.9","","-10.9","","73","","","M","24","","22","","","","101.11","","","","-14","","NA"
"-133.02","69.43","TUKTOYAKTUK","2203914","2022-03-05 15:00","2022","03","05","15:00","-5.4","","-9.2","","75","","","M","25","","28","","","","101.09","","","","-13","","NA"
"-133.02","69.43","TUKTOYAKTUK","2203914","2022-03-05 16:00","2022","03","05","16:00","-5.4","","-8.9","","76","","","M","25","","32","","","","101.14","","","","-14","","NA"
"-133.02","69.43","TUKTOYAKTUK","2203914","2022-03-05 17:00","2022","03","05","17:00","-6.1","","-9.6","","76","","","M","24","","20","","","","101.19","","","","-13","","NA"
"-133.02","69.43","TUKTOYAKTUK","2203914","2022-03-05 18:00","2022","03","05","18:00","-6.3","","-9.5","","78","","","M","26","","29","","","","101.17","","","","-15","","NA"
"-133.02","69.43","TUKTOYAKTUK","2203914","2022-03-05 19:00","2022","03","05","19:00","-6.9","","-9.7","","80","","","M","26","","30","","","","101.18","","","","-15","","NA"
"-133.02","69.43","TUKTOYAKTUK","2203914","2022-03-05 20:00","2022","03","05","20:00","-8.4","","-11.1","","81","","","M","27","","23","","","","101.20","","","","-16","","NA"
"-133.02","69.43","TUKTOYAKTUK","2203914","2022-03-05 21:00","2022","03","05","21:00","-9.9","","-12.3","","83","","","M","25","","20","","","","101.24","","","","-18","","NA"
"-133.02","69.43","TUKTOYAKTUK","2203914","2022-03-05 22:00","2022","03","05","22:00","-9.6","","-12.2","","81","","","M","26","","25","","","","101.24","","","","-18","","NA"
"-133.02","69.43","TUKTOYAKTUK","2203914","2022-03-05 23:00","2022","03","05","23:00","-10.0","","-12.9","","79","","","M","25","","21","","","","101.25","","","","-18","","NA"
"-133.02","69.43","TUKTOYAKTUK","2203914","2022-03-06 00:00","2022","03","06","00:00","-9.8","","-12.6","","80","","","M","24","","16","","","","101.22","","","","-17","","NA"
"-133.02","69.43","TUKTOYAKTUK","2203914","2022-03-06 01:00","2022","03","06","01:00","-10.8","","-13.4","","81","","","M","27","","16","","","","101.23","","","","-18","","NA"
"-133.02","69.43","TUKTOYAKTUK","2203914","2022-03-06 02:00","2022","03","06","02:00","-10.9","","-13.6","","81","","","M","28","","17","","","","101.24","","","","-18","","NA"
"-133.02","69.43","TUKTOYAKTUK","2203914","2022-03-06 03:00","2022","03","06","03:00","-10.1","","-13.0","","80","","","M","29","","16","","","","101.27","","","","-17","","NA"
"-133.02","69.43","TUKTOYAKTUK","2203914","2022-03-06 04:00","2022","03","06","04:00","-11.6","","-14.1","","82","","","M","27","","8","","","","101.30","","","","-16","","NA"
"-133.02","69.43","TUKTOYAKTUK","2203914","2022-03-06 05:00","2022","03","06","05:00","-10.1","","-12.1","","86","","","M","28","","14","","","","101.36","","","","-17","","NA"
"-133.02","69.43","TUKTOYAKTUK","2203914","2022-03-06 06:00","2022","03","06","06:00","-11.8","","-13.0","","90","","","M","26","","11","","","","101.44","","","","-18","","NA"
"-133.02","69.43","TUKTOYAKTUK","2203914","2022-03-06 07:00","2022","03","06","07:00","-13.9","","-15.7","","86","","","M","30","","8","","","","101.51","","","","-19","","NA"
"-133.02","69.43","TUKTOYAKTUK","2203914","2022-03-06 08:00","2022","03","06","08:00","-15.0","","-16.7","","87","","","M","31","","12","","","","101.60","","","","-22","","NA"
"-133.02","69.43","TUKTOYAKTUK","2203914","2022-03-06 09:00","2022","03","06","09:00","-16.1","","-18.0","","85","","","M","30","","18","","","","101.69","","","","-25","","NA"
"-133.02","69.43","TUKTOYAKTUK","2203914","2022-03-06 10:00","2022","03","06","10:00","-16.8","","-18.9","","84","","","M","30","","20","","","","101.80","","","","-26","","NA"
"-133.02","69.43","TUKTOYAKTUK","2203914","2022-03-06 11:00","2022","03","06","11:00","-16.8","","-19.2","","82","","","M","31","","16","","","","101.94","","","","-25","","NA"
"-133.02","69.43","TUKTOYAKTUK","2203914","2022-03-06 12:00","2022","03","06","12:00","-16.3","","-19.1","","79","","","M","30","","14","","","","102.09","","","","-24","","NA"
"-133.02","69.43","TUKTOYAKTUK","2203914","2022-03-06 13:00","2022","03","06","13:00","-15.0","","-17.2","","84","","","M","34","","14","","","","102.21","","","","-23","","NA"
"-133.02","69.43","TUKTOYAKTUK","2203914","2022-03-06 14:00","2022","03","06","14:00","-14.2","","-16.5","","83","","","M","29","","12","","","","102.35","","","","-21","","NA"
"-133.02","69.43","TUKTOYAKTUK","2203914","2022-03-06 15:00","2022","03","06","15:00","-13.7","","-16.8","","77","","","M","26","","13","","","","102.49","","","","-21","","NA"
"-133.02","69.43","TUKTOYAKTUK","2203914","2022-03-06 16:00","2022","03","06","16:00","-12.7","","-14.9","","84","","","M","26","","15","","","","102.59","","","","-20","","NA"
"-133.02","69.43","TUKTOYAKTUK","2203914","2022-03-06 17:00","2022","03","06","17:00","-10.2","","-12.2","","85","","","M","28","","20","","","","102.70","","","","-18","","NA"
"-133.02","69.43","TUKTOYAKTUK","2203914","2022-03-06 18:00","2022","03","06","18:00","-11.4","","-13.4","","85","","","M","27","","19","","","","102.78","","","","-19","","NA"
"-133.02","69.43","TUKTOYAKTUK","2203914","2022-03-06 19:00","2022","03","06","19:00","-10.1","","-11.7","","88","","","M","28","","29","","","","102.86","","","","-20","","NA"
"-133.02","69.43","TUKTOYAKTUK","2203914","2022-03-06 20:00","2022","03","06","20:00","-10.2","","-11.7","","89","","","M","29","","30","","","","102.96","","","","-20","","NA"
"-133.02","69.43","TUKTOYAKTUK","2203914","2022-03-06 21:00","2022","03","06","21:00","-12.0","","-13.8","","86","","","M","30","","49","","","","103.04","","","","-24","","NA"
"-133.02","69.43","TUKTOYAKTUK","2203914","2022-03-06 22:00","2022","03","06","22:00","-13.5","","-15.3","","87","","","M","30","","49","","","","103.20","","","","-26","","NA"
"-133.02","69.43","TUKTOYAKTUK","2203914","2022-03-06 23:00","2022","03","06","23:00","-14.7","","-16.6","","86","","","M","31","","39","","","","103.38","","","","-27","","NA"
"-133.02","69.43","TUKTOYAKTUK","2203914","2022-03-07 00:00","2022","03","07","00:00","-14.7","","-16.5","","86","","","M","32","","37","","","","103.56","","","","-27","","NA"
"-133.02","69.43","TUKTOYAKTUK","2203914","2022-03-07 01:00","2022","03","07","01:00","-14.9","","-16.8","","85","","","M","32","","31","","","","103.74","","","","-26","","NA"
"-133.02","69.43","TUKTOYAKTUK","2203914","2022-03-07 02:00","2022","03","07","02:00","-15.8","","-18.2","","82","","","M","32","","27","","","","103.88","","","","-27","","NA"
"-133.02","69.43","TUKTOYAKTUK","2203914","2022-03-07 03:00","2022","03","07","03:00","-16.8","","-19.6","","79","","","M","32","","26","","","","104.02","","","","-28","","NA"
"-133.02","69.43","TUKTOYAKTUK","2203914","2022-03-07 04:00","2022","03","07","04:00","-16.3","","-18.8","","80","","","M","32","","26","","","","104.12","","","","-27","","NA"
"-133.02","69.43","TUKTOYAKTUK","2203914","2022-03-07 05:00","2022","03","07","05:00","-16.2","","-19.3","","77","","","M","31","","23","","","","104.23","","","","-26","","NA"
"-133.02","69.43","TUKTOYAKTUK","2203914","2022-03-07 06:00","2022","03","07","06:00","-16.6","","-19.7","","77","","","M","31","","21","","","","104.30","","","","-26","","NA"
"-133.02","69.43","TUKTOYAKTUK","2203914","2022-03-07 07:00","2022","03","07","07:00","-17.3","","-20.5","","76","","","M","31","","20","","","","104.34","","","","-27","","NA"
"-133.02","69.43","TUKTOYAKTUK","2203914","2022-03-07 08:00","2022","03","07","08:00","-17.4","","-19.8","","81","","","M","31","","22","","","","104.39","","","","-28","","NA"
"-133.02","69.43","TUKTOYAKTUK","2203914","2022-03-07 09:00","2022","03","07","09:00","-17.4","","-19.7","","82","","","M","31","","20","","","","104.41","","","","-27","","NA"
"-133.02","69.43","TUKTOYAKTUK","2203914","2022-03-07 10:00","2022","03","07","10:00","-18.0","","-20.9","","78","","","M","30","","21","","","","104.42","","","","-28","","NA"
"-133.02","69.43","TUKTOYAKTUK","2203914","2022-03-07 11:00","2022","03","07","11:00","-18.9","","-21.5","","80","","","M","31","","27","","","","104.46","","","","-31","","NA"
"-133.02","69.43","TUKTOYAKTUK","2203914","2022-03-07 12:00","2022","03","07","12:00","-18.0","","-21.2","","76","","","M","30","","21","","","","104.49","","","","-28","","NA"
"-133.02","69.43","TUKTOYAKTUK","2203914","2022-03-07 13:00","2022","03","07","13:00","-17.1","","-19.9","","79","","","M","28","","19","","","","104.51","","","","-27","","NA"
"-133.02","69.43","TUKTOYAKTUK","2203914","2022-03-07 14:00","2022","03","07","14:00","-16.3","","-19.5","","77","","","M","29","","19","","","","104.51","","","","-26","","NA"
"-133.02","69.43","TUKTOYAKTUK","2203914","2022-03-07 15:00","2022","03","07","15:00","-15.8","","-18.9","","77","","","M","28","","19","","","","104.53","","","","-25","","NA"
"-133.02","69.43","TUKTOYAKTUK","2203914","2022-03-07 16:00","2022","03","07","16:00","-15.4","","-18.2","","80","","","M","27","","17","","","","104.54","","","","-24","","NA"
"-133.02","69.43","TUKTOYAKTUK","2203914","2022-03-07 17:00","2022","03","07","17:00","-15.2","","-17.8","","81","","","M","23","","11","","","","104.49","","","","-22","","NA"
"-133.02","69.43","TUKTOYAKTUK","2203914","2022-03-07 18:00","2022","03","07","18:00","-15.3","","-17.6","","83","","","M","21","","8","","","","104.51","","","","-21","","NA"
"-133.02","69.43","TUKTOYAKTUK","2203914","2022-03-07 19:00","2022","03","07","19:00","-15.2","","-17.2","","85","","","M","22","","8","","","","104.48","","","","-21","","NA"
"-133.02","69.43","TUKTOYAKTUK","2203914","2022-03-07 20:00","2022","03","07","20:00","-14.8","","-16.8","","85","","","M","26","","12","","","","104.45","","","","-22","","NA"
"-133.02","69.43","TUKTOYAKTUK","2203914","2022-03-07 21:00","2022","03","07","21:00","-14.6","","-16.6","","84","","","M","26","","19","","","","104.46","","","","-23","","NA"
"-133.02","69.43","TUKTOYAKTUK","2203914","2022-03-07 22:00","2022","03","07","22:00","-14.8","","-16.9","","84","","","M","26","","17","","","","104.48","","","","-23","","NA"
"-133.02","69.43","TUKTOYAKTUK","2203914","2022-03-07 23:00","2022","03","07","23:00","-14.5","","-16.5","","85","","","M","27","","19","","","","104.50","","","","-23","","NA"
"-133.02","69.43","TUKTOYAKTUK","2203914","2022-03-08 00:00","2022","03","08","00:00","-14.2","","-16.2","","85","","","M","27","","18","","","","104.50","","","","-23","","NA"
"-133.02","69.43","TUKTOYAKTUK","2203914","2022-03-08 01:00","2022","03","08","01:00","-14.3","","-16.4","","84","","","M","26","","16","","","","104.50","","","","-22","","NA"
"-133.02","69.43","TUKTOYAKTUK","2203914","2022-03-08 02:00","2022","03","08","02:00","-14.3","","-16.4","","84","","","M","26","","15","","","","104.51","","","","-22","","NA"
"-133.02","69.43","TUKTOYAKTUK","2203914","2022-03-08 03:00","2022","03","08","03:00","-14.4","","-16.8","","82","","","M","27","","19","","","","104.50","","","","-23","","NA"
"-133.02","69.43","TUKTOYAKTUK","2203914","2022-03-08 04:00","2022","03","08","04:00","-14.7","","-17.2","","81","","","M","26","","20","","","","104.49","","","","-24","","NA"
"-133.02","69.43","TUKTOYAKTUK","2203914","2022-03-08 05:00","2022","03","08","05:00","-15.2","","-17.7","","81","","","M","27","","19","","","","104.48","","","","-24","","NA"
"-133.02","69.43","TUKTOYAKTUK","2203914","2022-03-08 06:00","2022","03","08","06:00","-17.5","","-20.0","","81","","","M","26","","15","","","","104.43","","","","-26","","NA"
"-133.02","69.43","TUKTOYAKTUK","2203914","2022-03-08 07:00","2022","03","08","07:00","-19.1","","-21.3","","83","","","M","30","","12","","","","104.40","","","","-27","","NA"
"-133.02","69.43","TUKTOYAKTUK","2203914","2022-03-08 08:00","2022","03","08","08:00","-21.2","","-23.6","","81","","","M","29","","10","","","","104.38","","","","-29","","NA"
"-133.02","69.43","TUKTOYAKTUK","2203914","2022-03-08 09:00","2022","03","08","09:00","-22.8","","-25.1","","82","","","M","30","","3","","","","104.30","","","","-26","","NA"
"-133.02","69.43","TUKTOYAKTUK","2203914","2022-03-08 10:00","2022","03","08","10:00","-23.3","","-25.7","","80","","","M","22","","3","","","","104.25","","","","-26","","NA"
"-133.02","69.43","TUKTOYAKTUK","2203914","2022-03-08 11:00","2022","03","08","11:00","-20.3","","-22.6","","82","","","M","18","","5","","","","104.19","","","","-25","","NA"
"-133.02","69.43","TUKTOYAKTUK","2203914","2022-03-08 12:00","2022","03","08","12:00","-19.2","","-21.4","","83","","","M","17","","6","","","","104.10","","","","-24","","NA"
"-133.02","69.43","TUKTOYAKTUK","2203914","2022-03-08 13:00","2022","03","08","13:00","-18.6","","-21.1","","81","","","M","18","","3","","","","104.02","","","","-21","","NA"
"-133.02","69.43","TUKTOYAKTUK","2203914","2022-03-08 14:00","2022","03","08","14:00","-18.2","","-20.6","","81","","","M","16","","4","","","","103.98","","","","-21","","NA"
"-133.02","69.43","TUKTOYAKTUK","2203914","2022-03-08 15:00","2022","03","08","15:00","-18.4","","-20.8","","82","","","M","12","","7","","","","103.86","","","","-24","","NA"
"-133.02","69.43","TUKTOYAKTUK","2203914","2022-03-08 16:00","2022","03","08","16:00","-18.0","","-20.2","","83","","","M","8","","7","","","","103.78","","","","-23","","NA"
"-133.02","69.43","TUKTOYAKTUK","2203914","2022-03-08 17:00","2022","03","08","17:00","-18.2","","-20.4","","83","","","M","8","","8","","","","103.67","","","","-24","","NA"
"-133.02","69.43","TUKTOYAKTUK","2203914","2022-03-08 18:00","2022","03","08","18:00","-18.0","","-20.2","","83","","","M","7","","11","","","","103.59","","","","-25","","NA"
"-133.02","69.43","TUKTOYAKTUK","2203914","2022-03-08 19:00","2022","03","08","19:00","-18.9","","-21.1","","83","","","M","7","","12","","","","103.45","","","","-27","","NA"
"-133.02","69.43","TUKTOYAKTUK","2203914","2022-03-08 20:00","2022","03","08","20:00","-19.7","","-21.9","","82","","","M","8","","10","","","","103.39","","","","-27","","NA"
"-133.02","69.43","TUKTOYAKTUK","2203914","2022-03-08 21:00","2022","03","08","21:00","-20.5","","-22.8","","82","","","M","7","","10","","","","103.27","","","","-28","","NA"
"-133.02","69.43","TUKTOYAKTUK","2203914","2022-03-08 22:00","2022","03","08","22:00","-21.3","","-23.7","","81","","","M","5","","9","","","","103.25","","","","-28","","NA"
"-133.02","69.43","TUKTOYAKTUK","2203914","2022-03-08 23:00","2022","03","08","23:00","-22.2","","-24.7","","80","","","M","5","","10","","","","103.21","","","","-30","","NA"
"-133.02","69.43","TUKTOYAKTUK","2203914","2022-03-09 00:00","2022","03","09","00:00","-22.3","","-24.7","","80","","","M","5","","9","","","","103.18","","","","-29","","NA"
"-133.02","69.43","TUKTOYAKTUK","2203914","2022-03-09 01:00","2022","03","09","01:00","-22.5","","-25.0","","80","","","M","4","","7","","","","103.17","","","","-29","","NA"
"-133.02","69.43","TUKTOYAKTUK","2203914","2022-03-09 02:00","2022","03","09","02:00","-21.8","","-24.2","","81","","","M","4","","8","","","","103.15","","","","-28","","NA"
"-133.02","69.43","TUKTOYAKTUK","2203914","2022-03-09 03:00","2022","03","09","03:00","-21.0","","-23.3","","81","","","M","1","","7","","","","103.14","","","","-27","","NA"
"-133.02","69.43","TUKTOYAKTUK","2203914","2022-03-09 04:00","2022","03","09","04:00","-20.9","","-23.3","","81","","","M","2","","10","","","","103.14","","","","-28","","NA"
"-133.02","69.43","TUKTOYAKTUK","2203914","2022-03-09 05:00","2022","03","09","05:00","-22.1","","-24.6","","80","","","M","36","","9","","","","103.15","","","","-29","","NA"
"-133.02","69.43","TUKTOYAKTUK","2203914","2022-03-09 06:00","2022","03","09","06:00","-24.2","","-26.9","","79","","","M","36","","8","","","","103.16","","","","-31","","NA"
"-133.02","69.43","TUKTOYAKTUK","2203914","2022-03-09 07:00","2022","03","09","07:00","-25.2","","-27.9","","78","","","M","34","","6","","","","103.22","","","","-31","","NA"
"-133.02","69.43","TUKTOYAKTUK","2203914","2022-03-09 08:00","2022","03","09","08:00","-25.9","","-28.7","","78","","","M","33","","6","","","","103.26","","","","-32","","NA"
"-133.02","69.43","TUKTOYAKTUK","2203914","2022-03-09 09:00","2022","03","09","09:00","-25.2","","-27.9","","78","","","M","34","","5","","","","103.32","","","","-30","","NA"
"-133.02","69.43","TUKTOYAKTUK","2203914","2022-03-09 10:00","2022","03","09","10:00","-24.0","","-26.7","","78","","","M","34","","6","","","","103.37","","","","-30","","NA"
"-133.02","69.43","TUKTOYAKTUK","2203914","2022-03-09 11:00","2022","03","09","11:00","-23.9","","-26.8","","77","","","M","35","","7","","","","103.43","","","","-30","","NA"
"-133.02","69.43","TUKTOYAKTUK","2203914","2022-03-09 12:00","2022","03","09","12:00","-24.3","","-27.4","","75","","","M","35","","6","","","","103.46","","","","-30","","NA"
"-133.02","69.43","TUKTOYAKTUK","2203914","2022-03-09 13:00","2022","03","09","13:00","-24.3","","-27.5","","75","","","M","35","","6","","","","103.53","","","","-30","","NA"
"-133.02","69.43","TUKTOYAKTUK","2203914","2022-03-09 14:00","2022","03","09","14:00","-23.9","","-27.2","","74","","","M","36","","4","","","","103.59","","","","-28","","NA"
"-133.02","69.43","TUKTOYAKTUK","2203914","2022-03-09 15:00","2022","03","09","15:00","-24.0","","-27.3","","74","","","M","32","","3","","","","103.62","","","","-27","","NA"
"-133.02","69.43","TUKTOYAKTUK","2203914","2022-03-09 16:00","2022","03","09","16:00","-24.4","","-27.6","","75","","","M","29","","9","","","","103.63","","","","-32","","NA"
"-133.02","69.43","TUKTOYAKTUK","2203914","2022-03-09 17:00","2022","03","09","17:00","-24.6","","-27.8","","75","","","M","30","","9","","","","103.67","","","","-32","","NA"
"-133.02","69.43","TUKTOYAKTUK","2203914","2022-03-09 18:00","2022","03","09","18:00","-24.8","","-27.8","","76","","","M","32","","7","","","","103.67","","","","-31","","NA"
"-133.02","69.43","TUKTOYAKTUK","2203914","2022-03-09 19:00","2022","03","09","19:00","-25.9","","-28.8","","77","","","M","31","","9","","","","103.64","","","","-34","","NA"
"-133.02","69.43","TUKTOYAKTUK","2203914","2022-03-09 20:00","2022","03","09","20:00","-27.5","","-30.4","","76","","","M","29","","10","","","","103.64","","","","-36","","NA"
"-133.02","69.43","TUKTOYAKTUK","2203914","2022-03-09 21:00","2022","03","09","21:00","-27.2","","-30.0","","77","","","M","30","","10","","","","103.62","","","","-36","","NA"
"-133.02","69.43","TUKTOYAKTUK","2203914","2022-03-09 22:00","2022","03","09","22:00","-27.1","","-30.0","","77","","","M","31","","9","","","","103.65","","","","-35","","NA"
"-133.02","69.43","TUKTOYAKTUK","2203914","2022-03-09 23:00","2022","03","09","23:00","-27.8","","-30.7","","76","","","M","29","","10","","","","103.62","","","","-37","","NA"
"-133.02","69.43","TUKTOYAKTUK","2203914","2022-03-10 00:00","2022","03","10","00:00","-28.4","","-31.4","","76","","","M","29","","8","","","","103.63","","","","-36","","NA"
"-133.02","69.43","TUKTOYAKTUK","2203914","2022-03-10 01:00","2022","03","10","01:00","-28.7","","-31.7","","75","","","M","30","","2","","","","103.62","","","","-31","","NA"
"-133.02","69.43","TUKTOYAKTUK","2203914","2022-03-10 02:00","2022","03","10","02:00","-29.7","","-32.7","","75","","","M","27","","7","","","","103.61","","","","-37","","NA"
"-133.02","69.43","TUKTOYAKTUK","2203914","2022-03-10 03:00","2022","03","10","03:00","-30.1","","-33.1","","75","","","M","23","","8","","","","103.59","","","","-38","","NA"
"-133.02","69.43","TUKTOYAKTUK","2203914","2022-03-10 04:00","2022","03","10","04:00","-29.8","","-32.8","","75","","","M","24","","7","","","","103.57","","","","-37","","NA"
"-133.02","69.43","TUKTOYAKTUK","2203914","2022-03-10 05:00","2022","03","10","05:00","-30.7","","-33.9","","74","","","M","24","","5","","","","103.53","","","","-36","","NA"
"-133.02","69.43","TUKTOYAKTUK","2203914","2022-03-10 06:00","2022","03","10","06:00","-30.1","","-33.2","","75","","","M","24","","6","","","","103.50","","","","-37","","NA"
"-133.02","69.43","TUKTOYAKTUK","2203914","2022-03-10 07:00","2022","03","10","07:00","-30.9","","-34.1","","74","","","M","22","","4","","","","103.46","","","","-35","","NA"
"-133.02","69.43","TUKTOYAKTUK","2203914","2022-03-10 08:00","2022","03","10","08:00","-32.0","","-35.2","","73","","","M","22","","6","","","","103.42","","","","-39","","NA"
"-133.02","69.43","TUKTOYAKTUK","2203914","2022-03-10 09:00","2022","03","10","09:00","-31.4","","-34.6","","73","","","M","24","","6","","","","103.38","","","","-38","","NA"
"-133.02","69.43","TUKTOYAKTUK","2203914","2022-03-10 10:00","2022","03","10","10:00","-30.1","","-33.3","","73","","","M","24","","5","","","","103.35","","","","-36","","NA"
"-133.02","69.43","TUKTOYAKTUK","2203914","2022-03-10 11:00","2022","03","10","11:00","-29.4","","-32.7","","73","","","M","26","","8","","","","103.37","","","","-37","","NA"
"-133.02","69.43","TUKTOYAKTUK","2203914","2022-03-10 12:00","2022","03","10","12:00","-28.3","","-31.6","","73","","","M","21","","2","","","","103.35","","","","-30","","NA"
"-133.02","69.43","TUKTOYAKTUK","2203914","2022-03-10 13:00","2022","03","10","13:00","-28.3","","-31.6","","73","","","M","19","","5","","","","103.35","","","","-34","","NA"
"-133.02","69.43","TUKTOYAKTUK","2203914","2022-03-10 14:00","2022","03","10","14:00","-27.2","","-30.6","","73","","","M","20","","5","","","","103.32","","","","-32","","NA"
"-133.02","69.43","TUKTOYAKTUK","2203914","2022-03-10 15:00","2022","03","10","15:00","-26.8","","-30.1","","73","","","M","20","","7","","","","103.27","","","","-34","","NA"
"-133.02","69.43","TUKTOYAKTUK","2203914","2022-03-10 16:00","2022","03","10","16:00","-26.1","","-29.6","","73","","","M","20","","7","","","","103.22","","","","-33","","NA"
"-133.02","69.43","TUKTOYAKTUK","2203914","2022-03-10 17:00","2022","03","10","17:00","-26.8","","-30.1","","74","","","M","22","","8","","","","103.17","","","","-34","","NA"
"-133.02","69.43","TUKTOYAKTUK","2203914","2022-03-10 18:00","2022","03","10","18:00","-26.7","","-29.9","","74","","","M","24","","10","","","","103.11","","","","-35","","NA"
"-133.02","69.43","TUKTOYAKTUK","2203914","2022-03-10 19:00","2022","03","10","19:00","-29.0","","-32.2","","74","","","M","22","","10","","","","103.02","","","","-38","","NA"
"-133.02","69.43","TUKTOYAKTUK","2203914","2022-03-10 20:00","2022","03","10","20:00","-30.0","","-33.1","","74","","","M","23","","11","","","","102.95","","","","-40","","NA"
"-133.02","69.43","TUKTOYAKTUK","2203914","2022-03-10 21:00","2022","03","10","21:00","-28.3","","-31.3","","76","","","M","22","","8","","","","102.90","","","","-36","","NA"
"-133.02","69.43","TUKTOYAKTUK","2203914","2022-03-10 22:00","2022","03","10","22:00","-28.9","","-32.0","","75","","","M","23","","8","","","","102.82","","","","-37","","NA"
"-133.02","69.43","TUKTOYAKTUK","2203914","2022-03-10 23:00","2022","03","10","23:00","-30.5","","-33.6","","74","","","M","22","","11","","","","102.74","","","","-40","","NA"
"-133.02","69.43","TUKTOYAKTUK","2203914","2022-03-11 00:00","2022","03","11","00:00","-29.6","","-32.7","","75","","","M","22","","9","","","","102.66","","","","-38","","NA"
"-133.02","69.43","TUKTOYAKTUK","2203914","2022-03-11 01:00","2022","03","11","01:00","-28.5","","-31.5","","76","","","M","21","","8","","","","102.60","","","","-36","","NA"
"-133.02","69.43","TUKTOYAKTUK","2203914","2022-03-11 02:00","2022","03","11","02:00","-27.4","","-30.4","","76","","","M","21","","7","","","","102.53","","","","-34","","NA"
"-133.02","69.43","TUKTOYAKTUK","2203914","2022-03-11 03:00","2022","03","11","03:00","-26.7","","-29.6","","77","","","M","22","","11","","","","102.46","","","","-36","","NA"
"-133.02","69.43","TUKTOYAKTUK","2203914","2022-03-11 04:00","2022","03","11","04:00","-26.4","","-29.3","","77","","","M","23","","11","","","","102.38","","","","-35","","NA"
"-133.02","69.43","TUKTOYAKTUK","2203914","2022-03-11 05:00","2022","03","11","05:00","-25.2","","-28.0","","78","","","M","23","","13","","","","102.29","","","","-35","","NA"
"-133.02","69.43","TUKTOYAKTUK","2203914","2022-03-11 06:00","2022","03","11","06:00","-24.5","","-27.2","","78","","","M","23","","16","","","","102.19","","","","-35","","NA"
"-133.02","69.43","TUKTOYAKTUK","2203914","2022-03-11 07:00","2022","03","11","07:00","-23.7","","-26.3","","79","","","M","24","","16","","","","102.10","","","","-34","","NA"
"-133.02","69.43","TUKTOYAKTUK","2203914","2022-03-11 08:00","2022","03","11","08:00","-23.2","","-25.8","","79","","","M","24","","15","","","","102.00","","","","-33","","NA"
"-133.02","69.43","TUKTOYAKTUK","2203914","2022-03-11 09:00","2022","03","11","09:00","-22.6","","-25.2","","79","","","M","24","","15","","","","101.94","","","","-32","","NA"
"-133.02","69.43","TUKTOYAKTUK","2203914","2022-03-11 10:00","2022","03","11","10:00","-22.7","","-25.3","","79","","","M","24","","17","","","","101.87","","","","-33","","NA"
"-133.02","69.43","TUKTOYAKTUK","2203914","2022-03-11 11:00","2022","03","11","11:00","-21.9","","-24.5","","79","","","M","25","","15","","","","101.81","","","","-31","","NA"
"-133.02","69.43","TUKTOYAKTUK","2203914","2022-03-11 12:00","2022","03","11","12:00","-20.2","","-22.8","","80","","","M","27","","17","","","","101.77","","","","-30","","NA"
"-133.02","69.43","TUKTOYAKTUK","2203914","2022-03-11 13:00","2022","03","11","13:00","-19.7","","-22.3","","80","","","M","27","","15","","","","101.75","","","","-29","","NA"
"-133.02","69.43","TUKTOYAKTUK","2203914","2022-03-11 14:00","2022","03","11","14:00","-19.2","","-21.7","","80","","","M","27","","18","","","","101.72","","","","-29","","NA"
"-133.02","69.43","TUKTOYAKTUK","2203914","2022-03-11 15:00","2022","03","11","15:00","-18.6","","-21.1","","81","","","M","27","","18","","","","101.65","","","","-28","","NA"
"-133.02","69.43","TUKTOYAKTUK","2203914","2022-03-11 16:00","2022","03","11","16:00","-18.5","","-20.9","","81","","","M","27","","23","","","","101.63","","","","-29","","NA"
"-133.02","69.43","TUKTOYAKTUK","2203914","2022-03-11 17:00","2022","03","11","17:00","-19.2","","-21.7","","80","","","M","29","","14","","","","101.62","","","","-28","","NA"
"-133.02","69.43","TUKTOYAKTUK","2203914","2022-03-11 18:00","2022","03","11","18:00","-20.0","","-22.4","","81","","","M","30","","19","","","","101.61","","","","-30","","NA"
"-133.02","69.43","TUKTOYAKTUK","2203914","2022-03-11 19:00","2022","03","11","19:00","-20.0","","-22.3","","82","","","M","30","","16","","","","101.62","","","","-29","","NA"
"-133.02","69.43","TUKTOYAKTUK","2203914","2022-03-11 20:00","2022","03","11","20:00","-20.0","","-22.2","","82","","","M","29","","12","","","","101.63","","","","-28","","NA"
"-133.02","69.43","TUKTOYAKTUK","2203914","2022-03-11 21:00","2022","03","11","21:00","-20.3","","-22.6","","82","","","M","28","","5","","","","101.65","","","","-25","","NA"
"-133.02","69.43","TUKTOYAKTUK","2203914","2022-03-11 22:00","2022","03","11","22:00","-20.6","","-22.9","","82","","","M","30","","9","","","","101.67","","","","-27","","NA"
"-133.02","69.43","TUKTOYAKTUK","2203914","2022-03-11 23:00","2022","03","11","23:00","-21.1","","-23.5","","81","","","M","32","","7","","","","101.78","","","","-27","","NA"
"-133.02","69.43","TUKTOYAKTUK","2203914","2022-03-12 00:00","2022","03","12","00:00","-23.2","","-25.8","","80","","","M","34","","13","","","","101.85","","","","-32","","NA"
"-133.02","69.43","TUKTOYAKTUK","2203914","2022-03-12 01:00","2022","03","12","01:00","-24.2","","-26.8","","79","","","M","33","","14","","","","101.93","","","","-34","","NA"
"-133.02","69.43","TUKTOYAKTUK","2203914","2022-03-12 02:00","2022","03","12","02:00","-25.0","","-27.7","","78","","","M","33","","19","","","","102.03","","","","-37","","NA"
"-133.02","69.43","TUKTOYAKTUK","2203914","2022-03-12 03:00","2022","03","12","03:00","-25.8","","-28.6","","78","","","M","35","","15","","","","102.12","","","","-36","","NA"
"-133.02","69.43","TUKTOYAKTUK","2203914","2022-03-12 04:00","2022","03","12","04:00","-26.3","","-29.1","","77","","","M","35","","15","","","","102.21","","","","-37","","NA"
"-133.02","69.43","TUKTOYAKTUK","2203914","2022-03-12 05:00","2022","03","12","05:00","-26.6","","-29.4","","77","","","M","35","","13","","","","102.29","","","","-36","","NA"
"-133.02","69.43","TUKTOYAKTUK","2203914","2022-03-12 06:00","2022","03","12","06:00","-26.1","","-28.9","","77","","","M","34","","15","","","","102.35","","","","-37","","NA"
"-133.02","69.43","TUKTOYAKTUK","2203914","2022-03-12 07:00","2022","03","12","07:00","-26.0","","-28.8","","77","","","M","33","","14","","","","102.41","","","","-36","","NA"
"-133.02","69.43","TUKTOYAKTUK","2203914","2022-03-12 08:00","2022","03","12","08:00","-25.8","","-28.6","","77","","","M","32","","19","","","","102.45","","","","-38","","NA"
"-133.02","69.43","TUKTOYAKTUK","2203914","2022-03-12 09:00","2022","03","12","09:00","-25.2","","-27.9","","78","","","M","32","","17","","","","102.50","","","","-36","","NA"
"-133.02","69.43","TUKTOYAKTUK","2203914","2022-03-12 10:00","2022","03","12","10:00","-26.1","","-29.0","","76","","","M","33","","19","","","","102.58","","","","-38","","NA"
"-133.02","69.43","TUKTOYAKTUK","2203914","2022-03-12 11:00","2022","03","12","11:00","-26.2","","-29.4","","74","","","M","33","","19","","","","102.65","","","","-38","","NA"
"-133.02","69.43","TUKTOYAKTUK","2203914","2022-03-12 12:00","2022","03","12","12:00","-26.1","","-29.2","","75","","","M","34","","27","","","","102.73","","","","-40","","NA"
"-133.02","69.43","TUKTOYAKTUK","2203914","2022-03-12 13:00","2022","03","12","13:00","-26.0","","-29.2","","75","","","M","34","","24","","","","102.79","","","","-39","","NA"
"-133.02","69.43","TUKTOYAKTUK","2203914","2022-03-12 14:00","2022","03","12","14:00","-25.7","","-28.9","","74","","","M","33","","21","","","","102.85","","","","-38","","NA"
"-133.02","69.43","TUKTOYAKTUK","2203914","2022-03-12 15:00","2022","03","12","15:00","-25.7","","-28.9","","75","","","M","32","","18","","","","102.92","","","","-37","","NA"
"-133.02","69.43","TUKTOYAKTUK","2203914","2022-03-12 16:00","2022","03","12","16:00","-25.4","","-28.6","","74","","","M","30","","19","","","","102.92","","","","-37","","NA"
"-133.02","69.43","TUKTOYAKTUK","2203914","2022-03-12 17:00","2022","03","12","17:00","-25.6","","-28.7","","75","","","M","29","","20","","","","102.95","","","","-38","","NA"
"-133.02","69.43","TUKTOYAKTUK","2203914","2022-03-12 18:00","2022","03","12","18:00","-25.4","","-28.5","","75","","","M","28","","19","","","","102.93","","","","-37","","NA"
"-133.02","69.43","TUKTOYAKTUK","2203914","2022-03-12 19:00","2022","03","12","19:00","-25.6","","-28.5","","77","","","M","28","","18","","","","102.91","","","","-37","","NA"
"-133.02","69.43","TUKTOYAKTUK","2203914","2022-03-12 20:00","2022","03","12","20:00","-25.3","","-28.0","","78","","","M","28","","21","","","","102.90","","","","-37","","NA"
"-133.02","69.43","TUKTOYAKTUK","2203914","2022-03-12 21:00","2022","03","12","21:00","-25.2","","-27.9","","78","","","M","29","","19","","","","102.87","","","","-37","","NA"
"-133.02","69.43","TUKTOYAKTUK","2203914","2022-03-12 22:00","2022","03","12","22:00","-24.6","","-27.3","","78","","","M","28","","22","","","","102.86","","","","-37","","NA"
"-133.02","69.43","TUKTOYAKTUK","2203914","2022-03-12 23:00","2022","03","12","23:00","-24.8","","-27.5","","78","","","M","28","","21","","","","102.85","","","","-37","","NA"
"-133.02","69.43","TUKTOYAKTUK","2203914","2022-03-13 00:00","2022","03","13","00:00","-25.5","","-28.3","","78","","","M","27","","18","","","","102.82","","","","-37","","NA"
"-133.02","69.43","TUKTOYAKTUK","2203914","2022-03-13 01:00","2022","03","13","01:00","-26.4","","-29.2","","77","","","M","27","","18","","","","102.79","","","","-38","","NA"
"-133.02","69.43","TUKTOYAKTUK","2203914","2022-03-13 02:00","2022","03","13","02:00","-26.9","","-29.8","","77","","","M","27","","19","","","","102.77","","","","-39","","NA"
"-133.02","69.43","TUKTOYAKTUK","2203914","2022-03-13 03:00","2022","03","13","03:00","-27.7","","-30.6","","76","","","M","26","","19","","","","102.73","","","","-40","","NA"
"-133.02","69.43","TUKTOYAKTUK","2203914","2022-03-13 04:00","2022","03","13","04:00","-28.2","","-31.1","","76","","","M","26","","16","","","","102.69","","","","-40","","NA"
"-133.02","69.43","TUKTOYAKTUK","2203914","2022-03-13 05:00","2022","03","13","05:00","-28.8","","-31.8","","75","","","M","25","","15","","","","102.62","","","","-40","","NA"
"-133.02","69.43","TUKTOYAKTUK","2203914","2022-03-13 06:00","2022","03","13","06:00","-29.0","","-32.0","","75","","","M","23","","15","","","","102.56","","","","-40","","NA"
"-133.02","69.43","TUKTOYAKTUK","2203914","2022-03-13 07:00","2022","03","13","07:00","-29.9","","-33.0","","75","","","M","23","","12","","","","102.49","","","","-40","","NA"
"-133.02","69.43","TUKTOYAKTUK","2203914","2022-03-13 08:00","2022","03","13","08:00","-29.8","","-32.8","","75","","","M","24","","13","","","","102.39","","","","-40","","NA"
"-133.02","69.43","TUKTOYAKTUK","2203914","2022-03-13 09:00","2022","03","13","09:00","-29.6","","-32.7","","74","","","M","24","","14","","","","102.32","","","","-41","","NA"
"-133.02","69.43","TUKTOYAKTUK","2203914","2022-03-13 10:00","2022","03","13","10:00","-29.0","","-32.1","","74","","","M","24","","11","","","","102.23","","","","-38","","NA"
"-133.02","69.43","TUKTOYAKTUK","2203914","2022-03-13 11:00","2022","03","13","11:00","-28.7","","-32.1","","73","","","M","21","","10","","","","102.15","","","","-38","","NA"
"-133.02","69.43","TUKTOYAKTUK","2203914","2022-03-13 12:00","2022","03","13","12:00","-27.1","","-30.4","","73","","","M","20","","10","","","","102.04","","","","-36","","NA"
"-133.02","69.43","TUKTOYAKTUK","2203914","2022-03-13 13:00","2022","03","13","13:00","-25.1","","-28.5","","73","","","M","21","","8","","","","101.94","","","","-32","","NA"
"-133.02","69.43","TUKTOYAKTUK","2203914","2022-03-13 14:00","2022","03","13","14:00","-23.6","","-26.8","","75","","","M","20","","16","","","","101.84","","","","-34","","NA"
"-133.02","69.43","TUKTOYAKTUK","2203914","2022-03-13 15:00","2022","03","13","15:00","-22.8","","-26.0","","75","","","M","20","","17","","","","101.70","","","","-33","","NA"
"-133.02","69.43","TUKTOYAKTUK","2203914","2022-03-13 16:00","2022","03","13","16:00","-22.8","","-25.7","","77","","","M","19","","18","","","","101.53","","","","-33","","NA"
"-133.02","69.43","TUKTOYAKTUK","2203914","2022-03-13 17:00","2022","03","13","17:00","-22.2","","-25.2","","77","","","M","21","","15","","","","101.45","","","","-32","","NA"
"-133.02","69.43","TUKTOYAKTUK","2203914","2022-03-13 18:00","2022","03","13","18:00","-22.6","","-25.3","","78","","","M","20","","16","","","","101.29","","","","-33","","NA"
"-133.02","69.43","TUKTOYAKTUK","2203914","2022-03-13 19:00","2022","03","13","19:00","-21.9","","-24.4","","80","","","M","19","","20","","","","101.13","","","","-33","","NA"
"-133.02","69.43","TUKTOYAKTUK","2203914","2022-03-13 20:00","2022","03","13","20:00","-22.3","","-24.9","","79","","","M","21","","17","","","","100.99","","","","-33","","NA"
"-133.02","69.43","TUKTOYAKTUK","2203914","2022-03-13 21:00","2022","03","13","21:00","-22.5","","-25.1","","79","","","M","20","","17","","","","100.89","","","","-33","","NA"
"-133.02","69.43","TUKTOYAKTUK","2203914","2022-03-13 22:00","2022","03","13","22:00","-23.1","","-25.7","","79","","","M","21","","17","","","","100.75","","","","-34","","NA"
"-133.02","69.43","TUKTOYAKTUK","2203914","2022-03-13 23:00","2022","03","13","23:00","-23.1","","-25.7","","79","","","M","22","","17","","","","100.65","","","","-34","","NA"
"-133.02","69.43","TUKTOYAKTUK","2203914","2022-03-14 00:00","2022","03","14","00:00","-22.8","","-25.4","","79","","","M","22","","14","","","","100.56","","","","-32","","NA"
"-133.02","69.43","TUKTOYAKTUK","2203914","2022-03-14 01:00","2022","03","14","01:00","-21.2","","-23.8","","80","","","M","25","","25","","","","100.52","","","","-33","","NA"
"-133.02","69.43","TUKTOYAKTUK","2203914","2022-03-14 02:00","2022","03","14","02:00","-21.2","","-23.8","","80","","","M","26","","25","","","","100.46","","","","-33","","NA"
"-133.02","69.43","TUKTOYAKTUK","2203914","2022-03-14 03:00","2022","03","14","03:00","-19.4","","-21.8","","81","","","M","27","","31","","","","100.40","","","","-32","","NA"
"-133.02","69.43","TUKTOYAKTUK","2203914","2022-03-14 04:00","2022","03","14","04:00","-18.5","","-20.8","","82","","","M","27","","34","","","","100.35","","","","-31","","NA"
"-133.02","69.43","TUKTOYAKTUK","2203914","2022-03-14 05:00","2022","03","14","05:00","-19.4","","-21.8","","82","","","M","29","","28","","","","100.35","","","","-31","","NA"
"-133.02","69.43","TUKTOYAKTUK","2203914","2022-03-14 06:00","2022","03","14","06:00","-19.7","","-22.2","","81","","","M","31","","27","","","","100.35","","","","-32","","NA"
"-133.02","69.43","TUKTOYAKTUK","2203914","2022-03-14 07:00","2022","03","14","07:00","-19.6","","-22.0","","82","","","M","30","","26","","","","100.31","","","","-31","","NA"
"-133.02","69.43","TUKTOYAKTUK","2203914","2022-03-14 08:00","2022","03","14","08:00","-19.8","","-22.2","","81","","","M","30","","22","","","","100.33","","","","-31","","NA"
"-133.02","69.43","TUKTOYAKTUK","2203914","2022-03-14 09:00","2022","03","14","09:00","-19.9","","-22.3","","81","","","M","29","","19","","","","100.35","","","","-30","","NA"
"-133.02","69.43","TUKTOYAKTUK","2203914","2022-03-14 10:00","2022","03","14","10:00","-19.5","","-21.9","","81","","","M","28","","16","","","","100.37","","","","-29","","NA"
"-133.02","69.43","TUKTOYAKTUK","2203914","2022-03-14 11:00","2022","03","14","11:00","-19.1","","-21.6","","81","","","M","27","","21","","","","100.39","","","","-30","","NA"
"-133.02","69.43","TUKTOYAKTUK","2203914","2022-03-14 12:00","2022","03","14","12:00","-18.7","","-21.3","","80","","","M","28","","20","","","","100.43","","","","-29","","NA"
"-133.02","69.43","TUKTOYAKTUK","2203914","2022-03-14 13:00","2022","03","14","13:00","-18.7","","-21.3","","80","","","M","29","","19","","","","100.47","","","","-29","","NA"
"-133.02","69.43","TUKTOYAKTUK","2203914","2022-03-14 14:00","2022","03","14","14:00","-18.9","","-21.8","","78","","","M","27","","24","","","","100.52","","","","-30","","NA"
"-133.02","69.43","TUKTOYAKTUK","2203914","2022-03-14 15:00","2022","03","14","15:00","-19.7","","-22.7","","77","","","M","31","","20","","","","100.55","","","","-30","","NA"
"-133.02","69.43","TUKTOYAKTUK","2203914","2022-03-14 16:00","2022","03","14","16:00","-19.9","","-23.1","","76","","","M","31","","20","","","","100.58","","","","-30","","NA"
"-133.02","69.43","TUKTOYAKTUK","2203914","2022-03-14 17:00","2022","03","14","17:00","-20.1","","-23.4","","75","","","M","31","","17","","","","100.60","","","","-30","","NA"
"-133.02","69.43","TUKTOYAKTUK","2203914","2022-03-14 18:00","2022","03","14","18:00","-20.0","","-22.8","","78","","","M","30","","15","","","","100.61","","","","-29","","NA"
"-133.02","69.43","TUKTOYAKTUK","2203914","2022-03-14 19:00","2022","03","14","19:00","-20.2","","-22.9","","79","","","M","30","","11","","","","100.66","","","","-28","","NA"
"-133.02","69.43","TUKTOYAKTUK","2203914","2022-03-14 20:00","2022","03","14","20:00","-19.8","","-22.4","","80","","","M","27","","9","","","","100.68","","","","-27","","NA"
"-133.02","69.43","TUKTOYAKTUK","2203914","2022-03-14 21:00","2022","03","14","21:00","-19.6","","-22.2","","80","","","M","28","","11","","","","100.69","","","","-27","","NA"
"-133.02","69.43","TUKTOYAKTUK","2203914","2022-03-14 22:00","2022","03","14","22:00","-19.7","","-22.2","","81","","","M","25","","11","","","","100.76","","","","-27","","NA"
"-133.02","69.43","TUKTOYAKTUK","2203914","2022-03-14 23:00","2022","03","14","23:00","-19.7","","-22.1","","81","","","M","26","","10","","","","100.77","","","","-27","","NA"
"-133.02","69.43","TUKTOYAKTUK","2203914","2022-03-15 00:00","2022","03","15","00:00","-19.1","","-21.6","","80","","","M","29","","16","","","","100.80","","","","-28","","NA"
"-133.02","69.43","TUKTOYAKTUK","2203914","2022-03-15 01:00","2022","03","15","01:00","-19.6","","-22.1","","81","","","M","29","","14","","","","100.85","","","","-28","","NA"
"-133.02","69.43","TUKTOYAKTUK","2203914","2022-03-15 02:00","2022","03","15","02:00","-21.6","","-24.2","","80","","","M","30","","13","","","","100.89","","","","-30","","NA"
"-133.02","69.43","TUKTOYAKTUK","2203914","2022-03-15 03:00","2022","03","15","03:00","-23.7","","-26.2","","79","","","M","29","","13","","","","100.93","","","","-33","","NA"
"-133.02","69.43","TUKTOYAKTUK","2203914","2022-03-15 04:00","2022","03","15","04:00","-24.4","","-27.1","","78","","","M","31","","15","","","","100.93","","","","-35","","NA"
"-133.02","69.43","TUKTOYAKTUK","2203914","2022-03-15 05:00","2022","03","15","05:00","-25.1","","-27.8","","78","","","M","30","","16","","","","100.98","","","","-36","","NA"
"-133.02","69.43","TUKTOYAKTUK","2203914","2022-03-15 06:00","2022","03","15","06:00","-25.6","","-28.4","","78","","","M","30","","19","","","","101.01","","","","-37","","NA"
"-133.02","69.43","TUKTOYAKTUK","2203914","2022-03-15 07:00","2022","03","15","07:00","-26.4","","-29.2","","77","","","M","29","","15","","","","101.05","","","","-37","","NA"
"-133.02","69.43","TUKTOYAKTUK","2203914","2022-03-15 08:00","2022","03","15","08:00","-27.1","","-29.9","","77","","","M","28","","16","","","","101.07","","","","-38","","NA"
"-133.02","69.43","TUKTOYAKTUK","2203914","2022-03-15 09:00","2022","03","15","09:00","-27.1","","-30.1","","76","","","M","28","","14","","","","101.08","","","","-37","","NA"
"-133.02","69.43","TUKTOYAKTUK","2203914","2022-03-15 10:00","2022","03","15","10:00","-26.6","","-29.7","","75","","","M","28","","15","","","","101.11","","","","-37","","NA"
"-133.02","69.43","TUKTOYAKTUK","2203914","2022-03-15 11:00","2022","03","15","11:00","-26.1","","-29.4","","74","","","M","27","","15","","","","101.15","","","","-37","","NA"
"-133.02","69.43","TUKTOYAKTUK","2203914","2022-03-15 12:00","2022","03","15","12:00","-25.2","","-28.7","","73","","","M","27","","17","","","","101.17","","","","-36","","NA"
"-133.02","69.43","TUKTOYAKTUK","2203914","2022-03-15 13:00","2022","03","15","13:00","-24.4","","-28.0","","72","","","M","28","","17","","","","101.20","","","","-35","","NA"
"-133.02","69.43","TUKTOYAKTUK","2203914","2022-03-15 14:00","2022","03","15","14:00","-24.0","","-27.7","","71","","","M","28","","19","","","","101.21","","","","-35","","NA"
"-133.02","69.43","TUKTOYAKTUK","2203914","2022-03-15 15:00","2022","03","15","15:00","-23.6","","-27.4","","71","","","M","28","","19","","","","101.25","","","","-35","","NA"
"-133.02","69.43","TUKTOYAKTUK","2203914","2022-03-15 16:00","2022","03","15","16:00","-23.5","","-27.3","","71","","","M","27","","20","","","","101.22","","","","-35","","NA"
"-133.02","69.43","TUKTOYAKTUK","2203914","2022-03-15 17:00","2022","03","15","17:00","-23.6","","-27.2","","72","","","M","26","","17","","","","101.22","","","","-34","","NA"
"-133.02","69.43","TUKTOYAKTUK","2203914","2022-03-15 18:00","2022","03","15","18:00","-23.7","","-27.1","","73","","","M","26","","20","","","","101.22","","","","-35","","NA"
"-133.02","69.43","TUKTOYAKTUK","2203914","2022-03-15 19:00","2022","03","15","19:00","-24.4","","-27.6","","75","","","M","26","","18","","","","101.19","","","","-35","","NA"
"-133.02","69.43","TUKTOYAKTUK","2203914","2022-03-15 20:00","2022","03","15","20:00","-25.9","","-28.8","","77","","","M","25","","14","","","","101.17","","","","-36","","NA"
"-133.02","69.43","TUKTOYAKTUK","2203914","2022-03-15 21:00","2022","03","15","21:00","-26.7","","-29.5","","77","","","M","25","","16","","","","101.16","","","","-38","","NA"
"-133.02","69.43","TUKTOYAKTUK","2203914","2022-03-15 22:00","2022","03","15","22:00","-27.3","","-30.2","","77","","","M","24","","14","","","","101.16","","","","-38","","NA"
"-133.02","69.43","TUKTOYAKTUK","2203914","2022-03-15 23:00","2022","03","15","23:00","-27.8","","-30.6","","77","","","M","24","","13","","","","101.16","","","","-38","","NA"
"-133.02","69.43","TUKTOYAKTUK","2203914","2022-03-16 00:00","2022","03","16","00:00","-28.1","","-31.0","","77","","","M","25","","15","","","","101.17","","","","-39","","NA"
"-133.02","69.43","TUKTOYAKTUK","2203914","2022-03-16 01:00","2022","03","16","01:00","-28.6","","-31.4","","76","","","M","24","","14","","","","101.17","","","","-39","","NA"
"-133.02","69.43","TUKTOYAKTUK","2203914","2022-03-16 02:00","2022","03","16","02:00","-28.8","","-31.7","","76","","","M","25","","14","","","","101.17","","","","-40","","NA"
"-133.02","69.43","TUKTOYAKTUK","2203914","2022-03-16 03:00","2022","03","16","03:00","-28.9","","-31.8","","76","","","M","23","","14","","","","101.19","","","","-40","","NA"
"-133.02","69.43","TUKTOYAKTUK","2203914","2022-03-16 04:00","2022","03","16","04:00","-29.0","","-31.9","","76","","","M","24","","15","","","","101.18","","","","-40","","NA"
"-133.02","69.43","TUKTOYAKTUK","2203914","2022-03-16 05:00","2022","03","16","05:00","-28.9","","-32.0","","75","","","M","24","","17","","","","101.19","","","","-41","","NA"
"-133.02","69.43","TUKTOYAKTUK","2203914","2022-03-16 06:00","2022","03","16","06:00","-29.2","","-32.3","","74","","","M","24","","15","","","","101.21","","","","-40","","NA"
"-133.02","69.43","TUKTOYAKTUK","2203914","2022-03-16 07:00","2022","03","16","07:00","-29.0","","-32.1","","74","","","M","25","","19","","","","101.17","","","","-42","","NA"
"-133.02","69.43","TUKTOYAKTUK","2203914","2022-03-16 08:00","2022","03","16","08:00","-28.8","","-32.0","","74","","","M","25","","20","","","","101.17","","","","-42","","NA"
"-133.02","69.43","TUKTOYAKTUK","2203914","2022-03-16 09:00","2022","03","16","09:00","-29.1","","-32.5","","72","","","M","24","","17","","","","101.16","","","","-41","","NA"
"-133.02","69.43","TUKTOYAKTUK","2203914","2022-03-16 10:00","2022","03","16","10:00","-28.4","","-31.9","","72","","","M","24","","21","","","","101.19","","","","-41","","NA"
"-133.02","69.43","TUKTOYAKTUK","2203914","2022-03-16 11:00","2022","03","16","11:00","-27.3","","-31.1","","70","","","M","24","","20","","","","101.18","","","","-40","","NA"
"-133.02","69.43","TUKTOYAKTUK","2203914","2022-03-16 12:00","2022","03","16","12:00","-26.3","","-30.4","","68","","","M","23","","16","","","","101.18","","","","-37","","NA"
"-133.02","69.43","TUKTOYAKTUK","2203914","2022-03-16 13:00","2022","03","16","13:00","-24.5","","-28.5","","69","","","M","24","","25","","","","101.17","","","","-37","","NA"
"-133.02","69.43","TUKTOYAKTUK","2203914","2022-03-16 14:00","2022","03","16","14:00","-23.8","","-28.5","","66","","","M","24","","22","","","","101.19","","","","-36","","NA"
"-133.02","69.43","TUKTOYAKTUK","2203914","2022-03-16 15:00","2022","03","16","15:00","-23.5","","-28.3","","65","","","M","24","","22","","","","101.16","","","","-35","","NA"
"-133.02","69.43","TUKTOYAKTUK","2203914","2022-03-16 16:00","2022","03","16","16:00","-22.9","","-26.9","","70","","","M","25","","22","","","","101.14","","","","-35","","NA"
"-133.02","69.43","TUKTOYAKTUK","2203914","2022-03-16 17:00","2022","03","16","17:00","-22.8","","-27.1","","68","","","M","26","","25","","","","101.09","","","","-35","","NA"
"-133.02","69.43","TUKTOYAKTUK","2203914","2022-03-16 18:00","2022","03","16","18:00","-23.2","","-27.3","","69","","","M","25","","22","","","","101.07","","","","-35","","NA"
"-133.02","69.43","TUKTOYAKTUK","2203914","2022-03-16 19:00","2022","03","16","19:00","-23.4","","-27.1","","71","","","M","25","","20","","","","101.02","","","","-35","","NA"
"-133.02","69.43","TUKTOYAKTUK","2203914","2022-03-16 20:00","2022","03","16","20:00","-24.1","","-27.5","","73","","","M","25","","17","","","","101.02","","","","-35","","NA"
"-133.02","69.43","TUKTOYAKTUK","2203914","2022-03-16 21:00","2022","03","16","21:00","-23.7","","-27.2","","73","","","M","25","","18","","","","101.00","","","","-35","","NA"
"-133.02","69.43","TUKTOYAKTUK","2203914","2022-03-16 22:00","2022","03","16","22:00","-22.9","","-26.1","","75","","","M","25","","18","","","","100.97","","","","-34","","NA"
"-133.02","69.43","TUKTOYAKTUK","2203914","2022-03-16 23:00","2022","03","16","23:00","-21.4","","-24.2","","78","","","M","25","","18","","","","100.97","","","","-32","","NA"
"-133.02","69.43","TUKTOYAKTUK","2203914","2022-03-17 00:00","2022","03","17","00:00","-21.0","","-23.5","","80","","","M","25","","17","","","","100.98","","","","-31","","NA"
"-133.02","69.43","TUKTOYAKTUK","2203914","2022-03-17 01:00","2022","03","17","01:00","-20.4","","-22.9","","80","","","M","25","","17","","","","100.97","","","","-30","","NA"
"-133.02","69.43","TUKTOYAKTUK","2203914","2022-03-17 02:00","2022","03","17","02:00","-19.7","","-22.1","","81","","","M","26","","22","","","","100.95","","","","-31","","NA"
"-133.02","69.43","TUKTOYAKTUK","2203914","2022-03-17 03:00","2022","03","17","03:00","-19.8","","-22.3","","80","","","M","28","","18","","","","100.97","","","","-30","","NA"
"-133.02","69.43","TUKTOYAKTUK","2203914","2022-03-17 04:00","2022","03","17","04:00","-20.5","","-23.0","","81","","","M","27","","17","","","","100.97","","","","-30","","NA"
"-133.02","69.43","TUKTOYAKTUK","2203914","2022-03-17 05:00","2022","03","17","05:00","-20.5","","-23.0","","80","","","M","28","","16","","","","100.97","","","","-30","","NA"
"-133.02","69.43","TUKTOYAKTUK","2203914","2022-03-17 06:00","2022","03","17","06:00","-20.2","","-22.9","","79","","","M","29","","18","","","","100.97","","","","-30","","NA"
"-133.02","69.43","TUKTOYAKTUK","2203914","2022-03-17 07:00","2022","03","17","07:00","-20.3","","-23.1","","78","","","M","28","","21","","","","100.96","","","","-31","","NA"
"-133.02","69.43","TUKTOYAKTUK","2203914","2022-03-17 08:00","2022","03","17","08:00","-20.4","","-22.6","","83","","","M","29","","17","","","","101.00","","","","-30","","NA"
"-133.02","69.43","TUKTOYAKTUK","2203914","2022-03-17 09:00","2022","03","17","09:00","-20.5","","-23.3","","79","","","M","29","","18","","","","101.02","","","","-31","","NA"
"-133.02","69.43","TUKTOYAKTUK","2203914","2022-03-17 10:00","2022","03","17","10:00","-20.5","","-23.4","","77","","","M","28","","16","","","","101.02","","","","-30","","NA"
"-133.02","69.43","TUKTOYAKTUK","2203914","2022-03-17 11:00","2022","03","17","11:00","-20.2","","-23.6","","75","","","M","30","","14","","","","101.05","","","","-29","","NA"
"-133.02","69.43","TUKTOYAKTUK","2203914","2022-03-17 12:00","2022","03","17","12:00","-20.0","","-23.6","","73","","","M","28","","13","","","","101.07","","","","-28","","NA"
"-133.02","69.43","TUKTOYAKTUK","2203914","2022-03-17 13:00","2022","03","17","13:00","-19.6","","-23.3","","72","","","M","28","","11","","","","101.07","","","","-27","","NA"
"-133.02","69.43","TUKTOYAKTUK","2203914","2022-03-17 14:00","2022","03","17","14:00","-19.9","","-23.7","","72","","","M","30","","12","","","","101.12","","","","-28","","NA"
"-133.02","69.43","TUKTOYAKTUK","2203914","2022-03-17 15:00","2022","03","17","15:00","-20.2","","-24.5","","69","","","M","27","","11","","","","101.13","","","","-28","","NA"
"-133.02","69.43","TUKTOYAKTUK","2203914","2022-03-17 16:00","2022","03","17","16:00","-20.5","","-24.7","","69","","","M","26","","9","","","","101.15","","","","-27","","NA"
"-133.02","69.43","TUKTOYAKTUK","2203914","2022-03-17 17:00","2022","03","17","17:00","-21.0","","-24.9","","71","","","M","26","","9","","","","101.12","","","","-28","","NA"
"-133.02","69.43","TUKTOYAKTUK","2203914","2022-03-17 18:00","2022","03","17","18:00","-21.1","","-25.3","","69","","","M","22","","5","","","","101.14","","","","-26","","NA"
"-133.02","69.43","TUKTOYAKTUK","2203914","2022-03-17 19:00","2022","03","17","19:00","-22.8","","-25.7","","77","","","M","21","","7","","","","101.13","","","","-29","","NA"
"-133.02","69.43","TUKTOYAKTUK","2203914","2022-03-17 20:00","2022","03","17","20:00","-24.7","","-27.4","","79","","","M","15","","7","","","","101.09","","","","-31","","NA"
"-133.02","69.43","TUKTOYAKTUK","2203914","2022-03-17 21:00","2022","03","17","21:00","-24.6","","-27.0","","81","","","M","14","","6","","","","101.08","","","","-30","","NA"
"-133.02","69.43","TUKTOYAKTUK","2203914","2022-03-17 22:00","2022","03","17","22:00","-23.4","","-25.9","","80","","","M","13","","6","","","","101.08","","","","-29","","NA"
"-133.02","69.43","TUKTOYAKTUK","2203914","2022-03-17 23:00","2022","03","17","23:00","-23.1","","-25.8","","79","","","M","13","","6","","","","101.08","","","","-29","","NA"
"-133.02","69.43","TUKTOYAKTUK","2203914","2022-03-18 00:00","2022","03","18","00:00","-24.2","","-26.8","","79","","","M","15","","7","","","","101.07","","","","-31","","NA"
"-133.02","69.43","TUKTOYAKTUK","2203914","2022-03-18 01:00","2022","03","18","01:00","-23.1","","-25.7","","79","","","M","13","","10","","","","101.08","","","","-31","","NA"
"-133.02","69.43","TUKTOYAKTUK","2203914","2022-03-18 02:00","2022","03","18","02:00","-24.9","","-27.3","","80","","","M","14","","7","","","","101.09","","","","-31","","NA"
"-133.02","69.43","TUKTOYAKTUK","2203914","2022-03-18 03:00","2022","03","18","03:00","-25.9","","-28.6","","78","","","M","11","","7","","","","101.09","","","","-33","","NA"
"-133.02","69.43","TUKTOYAKTUK","2203914","2022-03-18 04:00","2022","03","18","04:00","-26.7","","-29.4","","78","","","M","10","","7","","","","101.09","","","","-33","","NA"
"-133.02","69.43","TUKTOYAKTUK","2203914","2022-03-18 05:00","2022","03","18","05:00","-27.3","","-30.0","","78","","","M","9","","6","","","","101.09","","","","-33","","NA"
"-133.02","69.43","TUKTOYAKTUK","2203914","2022-03-18 06:00","2022","03","18","06:00","-28.0","","-30.6","","78","","","M","12","","5","","","","101.11","","","","-33","","NA"
"-133.02","69.43","TUKTOYAKTUK","2203914","2022-03-18 07:00","2022","03","18","07:00","-28.0","","-30.6","","78","","","M","18","","5","","","","101.12","","","","-33","","NA"
"-133.02","69.43","TUKTOYAKTUK","2203914","2022-03-18 08:00","2022","03","18","08:00","-28.3","","-31.1","","77","","","M","18","","5","","","","101.14","","","","-34","","NA"
"-133.02","69.43","TUKTOYAKTUK","2203914","2022-03-18 09:00","2022","03","18","09:00","-28.3","","-31.2","","77","","","M","20","","6","","","","101.14","","","","-35","","NA"
"-133.02","69.43","TUKTOYAKTUK","2203914","2022-03-18 10:00","2022","03","18","10:00","-26.9","","-30.0","","75","","","M","23","","3","","","","101.18","","","","-30","","NA"
"-133.02","69.43","TUKTOYAKTUK","2203914","2022-03-18 11:00","2022","03","18","11:00","-25.3","","-28.6","","74","","","M","25","","6","","","","101.21","","","","-31","","NA"
"-133.02","69.43","TUKTOYAKTUK","2203914","2022-03-18 12:00","2022","03","18","12:00","-23.4","","-26.4","","77","","","M","27","","6","","","","101.24","","","","-29","","NA"
"-133.02","69.43","TUKTOYAKTUK","2203914","2022-03-18 13:00","2022","03","18","13:00","-21.7","","-24.6","","77","","","M","26","","9","","","","101.29","","","","-29","","NA"
"-133.02","69.43","TUKTOYAKTUK","2203914","2022-03-18 14:00","2022","03","18","14:00","-21.0","","-23.7","","78","","","M","26","","10","","","","101.31","","","","-28","","NA"
"-133.02","69.43","TUKTOYAKTUK","2203914","2022-03-18 15:00","2022","03","18","15:00","-20.4","","-23.4","","77","","","M","28","","14","","","","101.33","","","","-29","","NA"
"-133.02","69.43","TUKTOYAKTUK","2203914","2022-03-18 16:00","2022","03","18","16:00","-20.2","","-23.5","","75","","","M","28","","16","","","","101.34","","","","-30","","NA"
"-133.02","69.43","TUKTOYAKTUK","2203914","2022-03-18 17:00","2022","03","18","17:00","-20.3","","-23.6","","75","","","M","28","","16","","","","101.34","","","","-30","","NA"
"-133.02","69.43","TUKTOYAKTUK","2203914","2022-03-18 18:00","2022","03","18","18:00","-21.9","","-25.3","","74","","","M","27","","21","","","","101.34","","","","-33","","NA"
"-133.02","69.43","TUKTOYAKTUK","2203914","2022-03-18 19:00","2022","03","18","19:00","-22.4","","-25.6","","75","","","M","29","","16","","","","101.35","","","","-32","","NA"
"-133.02","69.43","TUKTOYAKTUK","2203914","2022-03-18 20:00","2022","03","18","20:00","-22.3","","-25.4","","76","","","M","28","","17","","","","101.34","","","","-33","","NA"
"-133.02","69.43","TUKTOYAKTUK","2203914","2022-03-18 21:00","2022","03","18","21:00","-22.5","","-25.8","","75","","","M","28","","21","","","","101.37","","","","-34","","NA"
"-133.02","69.43","TUKTOYAKTUK","2203914","2022-03-18 22:00","2022","03","18","22:00","-23.3","","-26.3","","76","","","M","29","","17","","","","101.39","","","","-34","","NA"
"-133.02","69.43","TUKTOYAKTUK","2203914","2022-03-18 23:00","2022","03","18","23:00","-23.4","","-26.5","","76","","","M","28","","18","","","","101.39","","","","-34","","NA"
"-133.02","69.43","TUKTOYAKTUK","2203914","2022-03-19 00:00","2022","03","19","00:00","-23.9","","-27.0","","76","","","M","29","","20","","","","101.46","","","","-35","","NA"
"-133.02","69.43","TUKTOYAKTUK","2203914","2022-03-19 01:00","2022","03","19","01:00","-25.4","","-28.4","","76","","","M","28","","18","","","","101.46","","","","-37","","NA"
"-133.02","69.43","TUKTOYAKTUK","2203914","2022-03-19 02:00","2022","03","19","02:00","-26.4","","-29.4","","76","","","M","27","","15","","","","101.49","","","","-37","","NA"
"-133.02","69.43","TUKTOYAKTUK","2203914","2022-03-19 03:00","2022","03","19","03:00","-26.8","","-29.7","","76","","","M","26","","13","","","","101.52","","","","-37","","NA"
"-133.02","69.43","TUKTOYAKTUK","2203914","2022-03-19 04:00","2022","03","19","04:00","-25.9","","-28.8","","76","","","M","28","","19","","","","101.56","","","","-38","","NA"
"-133.02","69.43","TUKTOYAKTUK","2203914","2022-03-19 05:00","2022","03","19","05:00","-25.5","","-28.3","","77","","","M","28","","17","","","","101.60","","","","-37","","NA"
"-133.02","69.43","TUKTOYAKTUK","2203914","2022-03-19 06:00","2022","03","19","06:00","-25.7","","-28.6","","77","","","M","29","","17","","","","101.60","","","","-37","","NA"
"-133.02","69.43","TUKTOYAKTUK","2203914","2022-03-19 07:00","2022","03","19","07:00","-25.3","","-28.2","","77","","","M","29","","15","","","","101.64","","","","-36","","NA"
"-133.02","69.43","TUKTOYAKTUK","2203914","2022-03-19 08:00","2022","03","19","08:00","-24.0","","-27.0","","76","","","M","31","","24","","","","101.68","","","","-37","","NA"
"-133.02","69.43","TUKTOYAKTUK","2203914","2022-03-19 09:00","2022","03","19","09:00","-24.6","","-27.7","","75","","","M","31","","25","","","","101.75","","","","-38","","NA"
"-133.02","69.43","TUKTOYAKTUK","2203914","2022-03-19 10:00","2022","03","19","10:00","-25.0","","-28.4","","74","","","M","31","","22","","","","101.79","","","","-37","","NA"
"-133.02","69.43","TUKTOYAKTUK","2203914","2022-03-19 11:00","2022","03","19","11:00","-24.9","","-28.5","","72","","","M","30","","22","","","","101.86","","","","-37","","NA"
"-133.02","69.43","TUKTOYAKTUK","2203914","2022-03-19 12:00","2022","03","19","12:00","-25.1","","-28.7","","72","","","M","30","","22","","","","101.90","","","","-37","","NA"
"-133.02","69.43","TUKTOYAKTUK","2203914","2022-03-19 13:00","2022","03","19","13:00","-24.9","","-28.9","","69","","","M","30","","22","","","","101.96","","","","-37","","NA"
"-133.02","69.43","TUKTOYAKTUK","2203914","2022-03-19 14:00","2022","03","19","14:00","-24.6","","-28.9","","67","","","M","29","","20","","","","101.98","","","","-36","","NA"
"-133.02","69.43","TUKTOYAKTUK","2203914","2022-03-19 15:00","2022","03","19","15:00","-24.4","","-28.8","","67","","","M","29","","17","","","","102.02","","","","-35","","NA"
"-133.02","69.43","TUKTOYAKTUK","2203914","2022-03-19 16:00","2022","03","19","16:00","-24.3","","-28.4","","69","","","M","29","","15","","","","102.03","","","","-34","","NA"
"-133.02","69.43","TUKTOYAKTUK","2203914","2022-03-19 17:00","2022","03","19","17:00","-24.3","","-28.5","","68","","","M","28","","16","","","","102.05","","","","-35","","NA"
"-133.02","69.43","TUKTOYAKTUK","2203914","2022-03-19 18:00","2022","03","19","18:00","-24.5","","-28.4","","70","","","M","28","","13","","","","102.05","","","","-34","","NA"
"-133.02","69.43","TUKTOYAKTUK","2203914","2022-03-19 19:00","2022","03","19","19:00","-25.0","","-28.3","","74","","","M","30","","12","","","","102.06","","","","-34","","NA"
"-133.02","69.43","TUKTOYAKTUK","2203914","2022-03-19 20:00","2022","03","19","20:00","-26.2","","-29.4","","75","","","M","26","","9","","","","102.10","","","","-34","","NA"
"-133.02","69.43","TUKTOYAKTUK","2203914","2022-03-19 21:00","2022","03","19","21:00","-27.3","","-30.0","","77","","","M","25","","7","","","","102.11","","","","-34","","NA"
"-133.02","69.43","TUKTOYAKTUK","2203914","2022-03-19 22:00","2022","03","19","22:00","-28.0","","-30.7","","78","","","M","23","","11","","","","102.15","","","","-37","","NA"
"-133.02","69.43","TUKTOYAKTUK","2203914","2022-03-19 23:00","2022","03","19","23:00","-28.3","","-31.1","","77","","","M","24","","10","","","","102.16","","","","-37","","NA"
"-133.02","69.43","TUKTOYAKTUK","2203914","2022-03-20 00:00","2022","03","20","00:00","-29.1","","-31.9","","76","","","M","22","","9","","","","102.20","","","","-38","","NA"
"-133.02","69.43","TUKTOYAKTUK","2203914","2022-03-20 01:00","2022","03","20","01:00","-29.0","","-31.8","","77","","","M","24","","10","","","","102.22","","","","-38","","NA"
"-133.02","69.43","TUKTOYAKTUK","2203914","2022-03-20 02:00","2022","03","20","02:00","-29.3","","-32.1","","77","","","M","26","","9","","","","102.24","","","","-38","","NA"
"-133.02","69.43","TUKTOYAKTUK","2203914","2022-03-20 03:00","2022","03","20","03:00","-29.2","","-32.0","","77","","","M","23","","8","","","","102.25","","","","-37","","NA"
"-133.02","69.43","TUKTOYAKTUK","2203914","2022-03-20 04:00","2022","03","20","04:00","-30.0","","-32.8","","76","","","M","22","","6","","","","102.25","","","","-37","","NA"
"-133.02","69.43","TUKTOYAKTUK","2203914","2022-03-20 05:00","2022","03","20","05:00","-29.2","","-32.1","","76","","","M","23","","6","","","","102.27","","","","-36","","NA"
"-133.02","69.43","TUKTOYAKTUK","2203914","2022-03-20 06:00","2022","03","20","06:00","-27.7","","-30.5","","77","","","M","24","","5","","","","102.27","","","","-33","","NA"
"-133.02","69.43","TUKTOYAKTUK","2203914","2022-03-20 07:00","2022","03","20","07:00","-27.0","","-29.8","","77","","","M","23","","7","","","","102.29","","","","-34","","NA"
"-133.02","69.43","TUKTOYAKTUK","2203914","2022-03-20 08:00","2022","03","20","08:00","-26.7","","-29.6","","77","","","M","25","","9","","","","102.29","","","","-35","","NA"
"-133.02","69.43","TUKTOYAKTUK","2203914","2022-03-20 09:00","2022","03","20","09:00","-25.9","","-28.8","","77","","","M","25","","9","","","","102.33","","","","-34","","NA"
"-133.02","69.43","TUKTOYAKTUK","2203914","2022-03-20 10:00","2022","03","20","10:00","-24.3","","-27.2","","77","","","M","28","","12","","","","102.37","","","","-33","","NA"
"-133.02","69.43","TUKTOYAKTUK","2203914","2022-03-20 11:00","2022","03","20","11:00","-23.8","","-26.8","","77","","","M","28","","12","","","","102.40","","","","-33","","NA"
"-133.02","69.43","TUKTOYAKTUK","2203914","2022-03-20 12:00","2022","03","20","12:00","-23.4","","-26.6","","75","","","M","29","","15","","","","102.42","","","","-33","","NA"
"-133.02","69.43","TUKTOYAKTUK","2203914","2022-03-20 13:00","2022","03","20","13:00","-22.8","","-26.2","","73","","","M","29","","14","","","","102.46","","","","-32","","NA"
"-133.02","69.43","TUKTOYAKTUK","2203914","2022-03-20 14:00","2022","03","20","14:00","-22.3","","-25.9","","72","","","M","30","","16","","","","102.48","","","","-32","","NA"
"-133.02","69.43","TUKTOYAKTUK","2203914","2022-03-20 15:00","2022","03","20","15:00","-21.9","","-25.7","","71","","","M","32","","14","","","","102.50","","","","-31","","NA"
"-133.02","69.43","TUKTOYAKTUK","2203914","2022-03-20 16:00","2022","03","20","16:00","-22.3","","-26.0","","71","","","M","32","","13","","","","102.51","","","","-31","","NA"
"-133.02","69.43","TUKTOYAKTUK","2203914","2022-03-20 17:00","2022","03","20","17:00","-22.2","","-25.8","","73","","","M","31","","14","","","","102.53","","","","-31","","NA"
"-133.02","69.43","TUKTOYAKTUK","2203914","2022-03-20 18:00","2022","03","20","18:00","-22.4","","-25.8","","74","","","M","31","","14","","","","102.57","","","","-32","","NA"
"-133.02","69.43","TUKTOYAKTUK","2203914","2022-03-20 19:00","2022","03","20","19:00","-22.8","","-26.0","","75","","","M","30","","14","","","","102.58","","","","-32","","NA"
"-133.02","69.43","TUKTOYAKTUK","2203914","2022-03-20 20:00","2022","03","20","20:00","-23.3","","-26.1","","77","","","M","29","","14","","","","102.59","","","","-33","","NA"
"-133.02","69.43","TUKTOYAKTUK","2203914","2022-03-20 21:00","2022","03","20","21:00","-23.7","","-26.5","","78","","","M","30","","14","","","","102.62","","","","-33","","NA"
"-133.02","69.43","TUKTOYAKTUK","2203914","2022-03-20 22:00","2022","03","20","22:00","-24.8","","-27.6","","78","","","M","29","","14","","","","102.63","","","","-35","","NA"
"-133.02","69.43","TUKTOYAKTUK","2203914","2022-03-20 23:00","2022","03","20","23:00","-26.7","","-29.5","","77","","","M","25","","10","","","","102.66","","","","-35","","NA"
"-133.02","69.43","TUKTOYAKTUK","2203914","2022-03-21 00:00","2022","03","21","00:00","-27.1","","-29.8","","77","","","M","26","","10","","","","102.67","","","","-36","","NA"
"-133.02","69.43","TUKTOYAKTUK","2203914","2022-03-21 01:00","2022","03","21","01:00","-27.9","","-30.6","","78","","","M","26","","11","","","","102.70","","","","-37","","NA"
"-133.02","69.43","TUKTOYAKTUK","2203914","2022-03-21 02:00","2022","03","21","02:00","-28.2","","-31.0","","77","","","M","27","","12","","","","102.72","","","","-38","","NA"
"-133.02","69.43","TUKTOYAKTUK","2203914","2022-03-21 03:00","2022","03","21","03:00","-28.8","","-31.4","","78","","","M","25","","9","","","","102.74","","","","-37","","NA"
"-133.02","69.43","TUKTOYAKTUK","2203914","2022-03-21 04:00","2022","03","21","04:00","-29.6","","-32.4","","76","","","M","26","","10","","","","102.74","","","","-39","","NA"
"-133.02","69.43","TUKTOYAKTUK","2203914","2022-03-21 05:00","2022","03","21","05:00","-29.3","","-32.1","","77","","","M","26","","10","","","","102.75","","","","-38","","NA"
"-133.02","69.43","TUKTOYAKTUK","2203914","2022-03-21 06:00","2022","03","21","06:00","-30.0","","-32.7","","77","","","M","24","","8","","","","102.75","","","","-38","","NA"
"-133.02","69.43","TUKTOYAKTUK","2203914","2022-03-21 07:00","2022","03","21","07:00","-30.1","","-32.9","","77","","","M","25","","9","","","","102.77","","","","-39","","NA"
"-133.02","69.43","TUKTOYAKTUK","2203914","2022-03-21 08:00","2022","03","21","08:00","-31.5","","-34.3","","76","","","M","20","","7","","","","102.79","","","","-39","","NA"
"-133.02","69.43","TUKTOYAKTUK","2203914","2022-03-21 09:00","2022","03","21","09:00","-31.5","","-34.7","","73","","","M","21","","6","","","","102.81","","","","-38","","NA"
"-133.02","69.43","TUKTOYAKTUK","2203914","2022-03-21 10:00","2022","03","21","10:00","-30.2","","-33.5","","72","","","M","18","","6","","","","102.84","","","","-37","","NA"
"-133.02","69.43","TUKTOYAKTUK","2203914","2022-03-21 11:00","2022","03","21","11:00","-28.8","","-32.4","","71","","","M","17","","6","","","","102.88","","","","-35","","NA"
"-133.02","69.43","TUKTOYAKTUK","2203914","2022-03-21 12:00","2022","03","21","12:00","-27.2","","-30.8","","71","","","M","23","","4","","","","102.90","","","","-31","","NA"
"-133.02","69.43","TUKTOYAKTUK","2203914","2022-03-21 13:00","2022","03","21","13:00","-25.8","","-29.7","","70","","","M","0","","1","","","","102.91","","","","-27","","NA"
"-133.02","69.43","TUKTOYAKTUK","2203914","2022-03-21 14:00","2022","03","21","14:00","-25.1","","-29.5","","67","","","M","17","","3","","","","102.93","","","","-28","","NA"
"-133.02","69.43","TUKTOYAKTUK","2203914","2022-03-21 15:00","2022","03","21","15:00","-24.6","","-28.7","","69","","","M","20","","3","","","","102.96","","","","-28","","NA"
"-133.02","69.43","TUKTOYAKTUK","2203914","2022-03-21 16:00","2022","03","21","16:00","-23.7","","-28.4","","65","","","M","18","","2","","","","102.96","","","","-26","","NA"
"-133.02","69.43","TUKTOYAKTUK","2203914","2022-03-21 17:00","2022","03","21","17:00","-23.3","","-28.3","","64","","","M","13","","2","","","","102.95","","","","-25","","NA"
"-133.02","69.43","TUKTOYAKTUK","2203914","2022-03-21 18:00","2022","03","21","18:00","-22.9","","-28.3","","61","","","M","","","0","","","","102.98","","","","","","NA"
"-133.02","69.43","TUKTOYAKTUK","2203914","2022-03-21 19:00","2022","03","21","19:00","-26.2","","-29.5","","74","","","M","","","0","","","","103.00","","","","","","NA"
"-133.02","69.43","TUKTOYAKTUK","2203914","2022-03-21 20:00","2022","03","21","20:00","-26.0","","-29.1","","76","","","M","8","","3","","","","103.00","","","","-29","","NA"
"-133.02","69.43","TUKTOYAKTUK","2203914","2022-03-21 21:00","2022","03","21","21:00","-26.0","","-28.8","","77","","","M","11","","2","","","","103.03","","","","-28","","NA"
"-133.02","69.43","TUKTOYAKTUK","2203914","2022-03-21 22:00","2022","03","21","22:00","-26.0","","-28.9","","77","","","M","5","","5","","","","103.02","","","","-31","","NA"
"-133.02","69.43","TUKTOYAKTUK","2203914","2022-03-21 23:00","2022","03","21","23:00","-27.7","","-30.4","","77","","","M","13","","3","","","","103.06","","","","-31","","NA"
"-133.02","69.43","TUKTOYAKTUK","2203914","2022-03-22 00:00","2022","03","22","00:00","-27.6","","-30.3","","78","","","M","6","","7","","","","103.07","","","","-34","","NA"
"-133.02","69.43","TUKTOYAKTUK","2203914","2022-03-22 01:00","2022","03","22","01:00","-27.8","","-30.6","","77","","","M","8","","6","","","","103.09","","","","-34","","NA"
"-133.02","69.43","TUKTOYAKTUK","2203914","2022-03-22 02:00","2022","03","22","02:00","-28.1","","-31.1","","76","","","M","10","","4","","","","103.09","","","","-32","","NA"
"-133.02","69.43","TUKTOYAKTUK","2203914","2022-03-22 03:00","2022","03","22","03:00","-28.6","","-31.4","","77","","","M","8","","11","","","","103.09","","","","-38","","NA"
"-133.02","69.43","TUKTOYAKTUK","2203914","2022-03-22 04:00","2022","03","22","04:00","-29.0","","-31.8","","77","","","M","6","","4","","","","103.08","","","","-33","","NA"
"-133.02","69.43","TUKTOYAKTUK","2203914","2022-03-22 05:00","2022","03","22","05:00","-28.4","","-31.3","","76","","","M","","","0","","","","103.08","","","","","","NA"
"-133.02","69.43","TUKTOYAKTUK","2203914","2022-03-22 06:00","2022","03","22","06:00","-27.0","","-29.8","","77","","","M","4","","9","","","","103.05","","","","-35","","NA"
"-133.02","69.43","TUKTOYAKTUK","2203914","2022-03-22 07:00","2022","03","22","07:00","-26.6","","-29.4","","77","","","M","7","","6","","","","103.06","","","","-33","","NA"
"-133.02","69.43","TUKTOYAKTUK","2203914","2022-03-22 08:00","2022","03","22","08:00","-27.0","","-29.9","","76","","","M","9","","11","","","","103.01","","","","-36","","NA"
"-133.02","69.43","TUKTOYAKTUK","2203914","2022-03-22 09:00","2022","03","22","09:00","-27.2","","-30.3","","75","","","M","9","","10","","","","103.03","","","","-36","","NA"
"-133.02","69.43","TUKTOYAKTUK","2203914","2022-03-22 10:00","2022","03","22","10:00","-25.9","","-29.2","","74","","","M","7","","8","","","","103.01","","","","-33","","NA"
"-133.02","69.43","TUKTOYAKTUK","2203914","2022-03-22 11:00","2022","03","22","11:00","-24.8","","-27.9","","76","","","M","6","","13","","","","102.98","","","","-34","","NA"
"-133.02","69.43","TUKTOYAKTUK","2203914","2022-03-22 12:00","2022","03","22","12:00","-23.6","","-26.9","","75","","","M","6","","13","","","","102.96","","","","-33","","NA"
"-133.02","69.43","TUKTOYAKTUK","2203914","2022-03-22 13:00","2022","03","22","13:00","-22.8","","-26.2","","74","","","M","4","","14","","","","102.90","","","","-32","","NA"
"-133.02","69.43","TUKTOYAKTUK","2203914","2022-03-22 14:00","2022","03","22","14:00","-22.6","","-26.1","","73","","","M","6","","17","","","","102.87","","","","-33","","NA"
"-133.02","69.43","TUKTOYAKTUK","2203914","2022-03-22 15:00","2022","03","22","15:00","-22.0","","-25.2","","75","","","M","6","","18","","","","102.80","","","","-32","","NA"
"-133.02","69.43","TUKTOYAKTUK","2203914","2022-03-22 16:00","2022","03","22","16:00","-23.3","","-26.6","","74","","","M","5","","22","","","","102.73","","","","-35","","NA"
"-133.02","69.43","TUKTOYAKTUK","2203914","2022-03-22 17:00","2022","03","22","17:00","-24.1","","-27.4","","74","","","M","4","","20","","","","102.64","","","","-36","","NA"
"-133.02","69.43","TUKTOYAKTUK","2203914","2022-03-22 18:00","2022","03","22","18:00","-23.9","","-27.4","","73","","","M","5","","23","","","","102.58","","","","-36","","NA"
"-133.02","69.43","TUKTOYAKTUK","2203914","2022-03-22 19:00","2022","03","22","19:00","-24.6","","-27.9","","74","","","M","5","","25","","","","102.64","","","","-38","","NA"
"-133.02","69.43","TUKTOYAKTUK","2203914","2022-03-22 20:00","2022","03","22","20:00","-25.4","","-28.5","","75","","","M","5","","24","","","","102.67","","","","-38","","NA"
"-133.02","69.43","TUKTOYAKTUK","2203914","2022-03-22 21:00","2022","03","22","21:00","-25.9","","-29.0","","75","","","M","5","","26","","","","102.64","","","","-39","","NA"
"-133.02","69.43","TUKTOYAKTUK","2203914","2022-03-22 22:00","2022","03","22","22:00","-26.4","","-29.4","","76","","","M","5","","29","","","","102.57","","","","-41","","NA"
"-133.02","69.43","TUKTOYAKTUK","2203914","2022-03-22 23:00","2022","03","22","23:00","-26.6","","-29.7","","76","","","M","5","","24","","","","102.60","","","","-40","","NA"
"-133.02","69.43","TUKTOYAKTUK","2203914","2022-03-23 00:00","2022","03","23","00:00","-26.8","","-29.8","","76","","","M","5","","25","","","","102.57","","","","-40","","NA"
"-133.02","69.43","TUKTOYAKTUK","2203914","2022-03-23 01:00","2022","03","23","01:00","-27.4","","-30.5","","75","","","M","5","","19","","","","102.62","","","","-40","","NA"
"-133.02","69.43","TUKTOYAKTUK","2203914","2022-03-23 02:00","2022","03","23","02:00","-27.8","","-30.9","","75","","","M","4","","24","","","","102.63","","","","-41","","NA"
"-133.02","69.43","TUKTOYAKTUK","2203914","2022-03-23 03:00","2022","03","23","03:00","-27.8","","-30.9","","75","","","M","4","","23","","","","102.60","","","","-41","","NA"
"-133.02","69.43","TUKTOYAKTUK","2203914","2022-03-23 04:00","2022","03","23","04:00","-28.1","","-31.2","","75","","","M","3","","27","","","","102.55","","","","-42","","NA"
"-133.02","69.43","TUKTOYAKTUK","2203914","2022-03-23 05:00","2022","03","23","05:00","-28.0","","-31.1","","75","","","M","4","","30","","","","102.57","","","","-43","","NA"
"-133.02","69.43","TUKTOYAKTUK","2203914","2022-03-23 06:00","2022","03","23","06:00","-28.3","","-31.4","","75","","","M","4","","27","","","","102.59","","","","-43","","NA"
"-133.02","69.43","TUKTOYAKTUK","2203914","2022-03-23 07:00","2022","03","23","07:00","-28.6","","-31.6","","75","","","M","4","","31","","","","102.62","","","","-44","","NA"
"-133.02","69.43","TUKTOYAKTUK","2203914","2022-03-23 08:00","2022","03","23","08:00","-28.9","","-32.0","","75","","","M","5","","30","","","","102.64","","","","-44","","NA"
"-133.02","69.43","TUKTOYAKTUK","2203914","2022-03-23 09:00","2022","03","23","09:00","-28.8","","-32.0","","74","","","M","5","","26","","","","102.69","","","","-43","","NA"
"-133.02","69.43","TUKTOYAKTUK","2203914","2022-03-23 10:00","2022","03","23","10:00","-27.8","","-31.1","","73","","","M","5","","34","","","","102.72","","","","-44","","NA"
"-133.02","69.43","TUKTOYAKTUK","2203914","2022-03-23 11:00","2022","03","23","11:00","-26.7","","-30.2","","73","","","M","4","","38","","","","102.74","","","","-43","","NA"
"-133.02","69.43","TUKTOYAKTUK","2203914","2022-03-23 12:00","2022","03","23","12:00","-25.9","","-29.5","","72","","","M","5","","30","","","","102.80","","","","-40","","NA"
"-133.02","69.43","TUKTOYAKTUK","2203914","2022-03-23 13:00","2022","03","23","13:00","-25.9","","-29.5","","72","","","M","5","","34","","","","102.84","","","","-41","","NA"
"-133.02","69.43","TUKTOYAKTUK","2203914","2022-03-23 14:00","2022","03","23","14:00","-25.6","","-29.3","","71","","","M","5","","32","","","","102.86","","","","-40","","NA"
"-133.02","69.43","TUKTOYAKTUK","2203914","2022-03-23 15:00","2022","03","23","15:00","-25.0","","-28.7","","72","","","M","4","","34","","","","102.89","","","","-40","","NA"
"-133.02","69.43","TUKTOYAKTUK","2203914","2022-03-23 16:00","2022","03","23","16:00","-24.7","","-28.2","","72","","","M","5","","33","","","","102.96","","","","-39","","NA"
"-133.02","69.43","TUKTOYAKTUK","2203914","2022-03-23 17:00","2022","03","23","17:00","-24.5","","-28.0","","73","","","M","5","","31","","","","102.99","","","","-39","","NA"
"-133.02","69.43","TUKTOYAKTUK","2203914","2022-03-23 18:00","2022","03","23","18:00","-24.4","","-27.9","","73","","","M","6","","23","","","","103.07","","","","-37","","NA"
"-133.02","69.43","TUKTOYAKTUK","2203914","2022-03-23 19:00","2022","03","23","19:00","-25.1","","-28.4","","74","","","M","5","","29","","","","103.12","","","","-39","","NA"
"-133.02","69.43","TUKTOYAKTUK","2203914","2022-03-23 20:00","2022","03","23","20:00","-25.6","","-28.6","","76","","","M","6","","27","","","","103.16","","","","-39","","NA"
"-133.02","69.43","TUKTOYAKTUK","2203914","2022-03-23 21:00","2022","03","23","21:00","-26.3","","-29.3","","76","","","M","6","","26","","","","103.24","","","","-40","","NA"
"-133.02","69.43","TUKTOYAKTUK","2203914","2022-03-23 22:00","2022","03","23","22:00","-27.1","","-30.2","","75","","","M","7","","21","","","","103.30","","","","-40","","NA"
"-133.02","69.43","TUKTOYAKTUK","2203914","2022-03-23 23:00","2022","03","23","23:00","-27.4","","-30.5","","75","","","M","6","","17","","","","103.34","","","","-39","","NA"
"-133.02","69.43","TUKTOYAKTUK","2203914","2022-03-24 00:00","2022","03","24","00:00","-27.9","","-31.0","","75","","","M","6","","26","","","","103.39","","","","-42","","NA"
"-133.02","69.43","TUKTOYAKTUK","2203914","2022-03-24 01:00","2022","03","24","01:00","-28.3","","-31.4","","74","","","M","6","","22","","","","103.42","","","","-42","","NA"
"-133.02","69.43","TUKTOYAKTUK","2203914","2022-03-24 02:00","2022","03","24","02:00","-28.1","","-31.2","","75","","","M","8","","18","","","","103.48","","","","-40","","NA"
"-133.02","69.43","TUKTOYAKTUK","2203914","2022-03-24 03:00","2022","03","24","03:00","-28.9","","-32.1","","74","","","M","8","","14","","","","103.51","","","","-40","","NA"
"-133.02","69.43","TUKTOYAKTUK","2203914","2022-03-24 04:00","2022","03","24","04:00","-28.9","","-32.0","","74","","","M","8","","17","","","","103.54","","","","-41","","NA"
"-133.02","69.43","TUKTOYAKTUK","2203914","2022-03-24 05:00","2022","03","24","05:00","-29.5","","-32.6","","74","","","M","8","","17","","","","103.58","","","","-42","","NA"
"-133.02","69.43","TUKTOYAKTUK","2203914","2022-03-24 06:00","2022","03","24","06:00","-29.3","","-32.4","","74","","","M","9","","15","","","","103.62","","","","-41","","NA"
"-133.02","69.43","TUKTOYAKTUK","2203914","2022-03-24 07:00","2022","03","24","07:00","-29.0","","-32.1","","74","","","M","9","","19","","","","103.66","","","","-42","","NA"
"-133.02","69.43","TUKTOYAKTUK","2203914","2022-03-24 08:00","2022","03","24","08:00","-29.2","","-32.5","","73","","","M","8","","19","","","","103.67","","","","-42","","NA"
"-133.02","69.43","TUKTOYAKTUK","2203914","2022-03-24 09:00","2022","03","24","09:00","-28.3","","-31.8","","72","","","M","10","","18","","","","103.73","","","","-40","","NA"
"-133.02","69.43","TUKTOYAKTUK","2203914","2022-03-24 10:00","2022","03","24","10:00","-27.7","","-31.6","","69","","","M","9","","22","","","","103.74","","","","-41","","NA"
"-133.02","69.43","TUKTOYAKTUK","2203914","2022-03-24 11:00","2022","03","24","11:00","-26.4","","-30.8","","66","","","M","10","","15","","","","103.78","","","","-37","","NA"
"-133.02","69.43","TUKTOYAKTUK","2203914","2022-03-24 12:00","2022","03","24","12:00","-25.5","","-29.9","","67","","","M","9","","21","","","","103.78","","","","-38","","NA"
"-133.02","69.43","TUKTOYAKTUK","2203914","2022-03-24 13:00","2022","03","24","13:00","-24.3","","-29.0","","65","","","M","10","","14","","","","103.77","","","","-34","","NA"
"-133.02","69.43","TUKTOYAKTUK","2203914","2022-03-24 14:00","2022","03","24","14:00","-24.2","","-28.8","","66","","","M","9","","20","","","","103.75","","","","-36","","NA"
"-133.02","69.43","TUKTOYAKTUK","2203914","2022-03-24 15:00","2022","03","24","15:00","-23.8","","-28.3","","66","","","M","9","","20","","","","103.75","","","","-35","","NA"
"-133.02","69.43","TUKTOYAKTUK","2203914","2022-03-24 16:00","2022","03","24","16:00","-23.6","","-28.1","","67","","","M","9","","22","","","","103.72","","","","-36","","NA"
"-133.02","69.43","TUKTOYAKTUK","2203914","2022-03-24 17:00","2022","03","24","17:00","-23.8","","-28.0","","68","","","M","9","","21","","","","103.70","","","","-36","","NA"
"-133.02","69.43","TUKTOYAKTUK","2203914","2022-03-24 18:00","2022","03","24","18:00","-24.2","","-28.3","","68","","","M","9","","17","","","","103.68","","","","-35","","NA"
"-133.02","69.43","TUKTOYAKTUK","2203914","2022-03-24 19:00","2022","03","24","19:00","-24.8","","-28.7","","70","","","M","8","","18","","","","103.66","","","","-36","","NA"
"-133.02","69.43","TUKTOYAKTUK","2203914","2022-03-24 20:00","2022","03","24","20:00","-25.8","","-29.5","","71","","","M","9","","25","","","","103.61","","","","-39","","NA"
"-133.02","69.43","TUKTOYAKTUK","2203914","2022-03-24 21:00","2022","03","24","21:00","-26.6","","-30.1","","72","","","M","9","","23","","","","103.58","","","","-40","","NA"
"-133.02","69.43","TUKTOYAKTUK","2203914","2022-03-24 22:00","2022","03","24","22:00","-27.0","","-30.7","","71","","","M","9","","21","","","","103.54","","","","-40","","NA"
"-133.02","69.43","TUKTOYAKTUK","2203914","2022-03-24 23:00","2022","03","24","23:00","-27.5","","-31.1","","71","","","M","9","","20","","","","103.50","","","","-40","","NA"
"-133.02","69.43","TUKTOYAKTUK","2203914","2022-03-25 00:00","2022","03","25","00:00","-26.9","","-30.6","","71","","","M","9","","24","","","","103.45","","","","-40","","NA"
"-133.02","69.43","TUKTOYAKTUK","2203914","2022-03-25 01:00","2022","03","25","01:00","-25.7","","-29.6","","70","","","M","11","","23","","","","103.44","","","","-38","","NA"
"-133.02","69.43","TUKTOYAKTUK","2203914","2022-03-25 02:00","2022","03","25","02:00","-26.2","","-30.2","","69","","","M","10","","19","","","","103.45","","","","-38","","NA"
"-133.02","69.43","TUKTOYAKTUK","2203914","2022-03-25 03:00","2022","03","25","03:00","-26.1","","-30.0","","70","","","M","10","","24","","","","103.41","","","","-39","","NA"
"-133.02","69.43","TUKTOYAKTUK","2203914","2022-03-25 04:00","2022","03","25","04:00","-26.2","","-30.0","","70","","","M","10","","18","","","","103.36","","","","-38","","NA"
"-133.02","69.43","TUKTOYAKTUK","2203914","2022-03-25 05:00","2022","03","25","05:00","-26.4","","-30.2","","71","","","M","10","","22","","","","103.33","","","","-39","","NA"
"-133.02","69.43","TUKTOYAKTUK","2203914","2022-03-25 06:00","2022","03","25","06:00","-26.6","","-30.4","","70","","","M","10","","21","","","","103.32","","","","-39","","NA"
"-133.02","69.43","TUKTOYAKTUK","2203914","2022-03-25 07:00","2022","03","25","07:00","-26.7","","-30.5","","71","","","M","10","","24","","","","103.29","","","","-40","","NA"
"-133.02","69.43","TUKTOYAKTUK","2203914","2022-03-25 08:00","2022","03","25","08:00","-27.0","","-30.8","","70","","","M","11","","24","","","","103.27","","","","-40","","NA"
"-133.02","69.43","TUKTOYAKTUK","2203914","2022-03-25 09:00","2022","03","25","09:00","-26.4","","-30.3","","69","","","M","11","","24","","","","103.26","","","","-40","","NA"
"-133.02","69.43","TUKTOYAKTUK","2203914","2022-03-25 10:00","2022","03","25","10:00","-25.4","","-29.5","","68","","","M","11","","23","","","","103.25","","","","-38","","NA"
"-133.02","69.43","TUKTOYAKTUK","2203914","2022-03-25 11:00","2022","03","25","11:00","-24.4","","-28.8","","67","","","M","11","","26","","","","103.21","","","","-37","","NA"
"-133.02","69.43","TUKTOYAKTUK","2203914","2022-03-25 12:00","2022","03","25","12:00","-23.4","","-28.1","","65","","","M","11","","22","","","","103.20","","","","-35","","NA"
"-133.02","69.43","TUKTOYAKTUK","2203914","2022-03-25 13:00","2022","03","25","13:00","-22.5","","-27.5","","64","","","M","10","","29","","","","103.16","","","","-36","","NA"
"-133.02","69.43","TUKTOYAKTUK","2203914","2022-03-25 14:00","2022","03","25","14:00","-21.5","","-26.7","","63","","","M","10","","30","","","","103.14","","","","-35","","NA"
"-133.02","69.43","TUKTOYAKTUK","2203914","2022-03-25 15:00","2022","03","25","15:00","-21.3","","-26.3","","64","","","M","9","","34","","","","103.13","","","","-35","","NA"
"-133.02","69.43","TUKTOYAKTUK","2203914","2022-03-25 16:00","2022","03","25","16:00","-20.5","","-25.5","","64","","","M","10","","22","","","","103.09","","","","-32","","NA"
"-133.02","69.43","TUKTOYAKTUK","2203914","2022-03-25 17:00","2022","03","25","17:00","-20.9","","-25.6","","66","","","M","9","","28","","","","103.03","","","","-33","","NA"
"-133.02","69.43","TUKTOYAKTUK","2203914","2022-03-25 18:00","2022","03","25","18:00","-21.3","","-25.9","","66","","","M","8","","27","","","","103.00","","","","-34","","NA"
"-133.02","69.43","TUKTOYAKTUK","2203914","2022-03-25 19:00","2022","03","25","19:00","-21.9","","-26.4","","67","","","M","9","","27","","","","102.96","","","","-34","","NA"
"-133.02","69.43","TUKTOYAKTUK","2203914","2022-03-25 20:00","2022","03","25","20:00","-23.0","","-27.2","","69","","","M","9","","23","","","","102.93","","","","-35","","NA"
"-133.02","69.43","TUKTOYAKTUK","2203914","2022-03-25 21:00","2022","03","25","21:00","-24.0","","-27.9","","70","","","M","10","","23","","","","102.92","","","","-36","","NA"
"-133.02","69.43","TUKTOYAKTUK","2203914","2022-03-25 22:00","2022","03","25","22:00","-24.8","","-28.6","","70","","","M","9","","23","","","","102.88","","","","-37","","NA"
"-133.02","69.43","TUKTOYAKTUK","2203914","2022-03-25 23:00","2022","03","25","23:00","-25.3","","-29.0","","71","","","M","9","","18","","","","102.88","","","","-37","","NA"
"-133.02","69.43","TUKTOYAKTUK","2203914","2022-03-26 00:00","2022","03","26","00:00","-25.2","","-28.9","","71","","","M","9","","19","","","","102.85","","","","-37","","NA"
"-133.02","69.43","TUKTOYAKTUK","2203914","2022-03-26 01:00","2022","03","26","01:00","-26.1","","-29.7","","72","","","M","9","","18","","","","102.84","","","","-38","","NA"
"-133.02","69.43","TUKTOYAKTUK","2203914","2022-03-26 02:00","2022","03","26","02:00","-26.3","","-29.9","","71","","","M","9","","20","","","","102.81","","","","-38","","NA"
"-133.02","69.43","TUKTOYAKTUK","2203914","2022-03-26 03:00","2022","03","26","03:00","-25.8","","-29.5","","71","","","M","10","","19","","","","102.80","","","","-38","","NA"
"-133.02","69.43","TUKTOYAKTUK","2203914","2022-03-26 04:00","2022","03","26","04:00","-26.2","","-30.0","","70","","","M","8","","13","","","","102.79","","","","-36","","NA"
"-133.02","69.43","TUKTOYAKTUK","2203914","2022-03-26 05:00","2022","03","26","05:00","-26.6","","-30.3","","71","","","M","9","","16","","","","102.78","","","","-38","","NA"
"-133.02","69.43","TUKTOYAKTUK","2203914","2022-03-26 06:00","2022","03","26","06:00","-26.5","","-30.1","","71","","","M","8","","20","","","","102.77","","","","-39","","NA"
"-133.02","69.43","TUKTOYAKTUK","2203914","2022-03-26 07:00","2022","03","26","07:00","-26.5","","-30.0","","72","","","M","9","","16","","","","102.73","","","","-37","","NA"
"-133.02","69.43","TUKTOYAKTUK","2203914","2022-03-26 08:00","2022","03","26","08:00","-26.5","","-30.2","","71","","","M","10","","18","","","","102.71","","","","-38","","NA"
"-133.02","69.43","TUKTOYAKTUK","2203914","2022-03-26 09:00","2022","03","26","09:00","-25.5","","-29.5","","69","","","M","10","","23","","","","102.69","","","","-38","","NA"
"-133.02","69.43","TUKTOYAKTUK","2203914","2022-03-26 10:00","2022","03","26","10:00","-24.9","","-29.3","","67","","","M","10","","18","","","","102.69","","","","-36","","NA"
"-133.02","69.43","TUKTOYAKTUK","2203914","2022-03-26 11:00","2022","03","26","11:00","-24.0","","-28.8","","65","","","M","10","","19","","","","102.69","","","","-35","","NA"
"-133.02","69.43","TUKTOYAKTUK","2203914","2022-03-26 12:00","2022","03","26","12:00","-23.1","","-28.1","","63","","","M","10","","17","","","","102.69","","","","-34","","NA"
"-133.02","69.43","TUKTOYAKTUK","2203914","2022-03-26 13:00","2022","03","26","13:00","-22.2","","-27.4","","63","","","M","10","","16","","","","102.67","","","","-32","","NA"
"-133.02","69.43","TUKTOYAKTUK","2203914","2022-03-26 14:00","2022","03","26","14:00","-21.9","","-26.8","","65","","","M","9","","23","","","","102.65","","","","-34","","NA"
"-133.02","69.43","TUKTOYAKTUK","2203914","2022-03-26 15:00","2022","03","26","15:00","-20.8","","-25.7","","65","","","M","9","","22","","","","102.63","","","","-32","","NA"
"-133.02","69.43","TUKTOYAKTUK","2203914","2022-03-26 16:00","2022","03","26","16:00","-20.4","","-24.9","","67","","","M","8","","25","","","","102.60","","","","-32","","NA"
"-133.02","69.43","TUKTOYAKTUK","2203914","2022-03-26 17:00","2022","03","26","17:00","-20.7","","-24.9","","69","","","M","8","","23","","","","102.58","","","","-32","","NA"
"-133.02","69.43","TUKTOYAKTUK","2203914","2022-03-26 18:00","2022","03","26","18:00","-21.1","","-25.2","","69","","","M","7","","22","","","","102.55","","","","-32","","NA"
"-133.02","69.43","TUKTOYAKTUK","2203914","2022-03-26 19:00","2022","03","26","19:00","-21.8","","-25.8","","70","","","M","8","","19","","","","102.54","","","","-32","","NA"
"-133.02","69.43","TUKTOYAKTUK","2203914","2022-03-26 20:00","2022","03","26","20:00","-23.3","","-26.9","","72","","","M","7","","19","","","","102.49","","","","-34","","NA"
"-133.02","69.43","TUKTOYAKTUK","2203914","2022-03-26 21:00","2022","03","26","21:00","-24.5","","-27.9","","73","","","M","8","","12","","","","102.47","","","","-33","","NA"
"-133.02","69.43","TUKTOYAKTUK","2203914","2022-03-26 22:00","2022","03","26","22:00","-25.3","","-28.7","","74","","","M","7","","12","","","","102.46","","","","-34","","NA"
"-133.02","69.43","TUKTOYAKTUK","2203914","2022-03-26 23:00","2022","03","26","23:00","-25.4","","-28.9","","73","","","M","9","","19","","","","102.43","","","","-37","","NA"
"-133.02","69.43","TUKTOYAKTUK","2203914","2022-03-27 00:00","2022","03","27","00:00","-26.3","","-29.9","","72","","","M","9","","14","","","","102.41","","","","-36","","NA"
"-133.02","69.43","TUKTOYAKTUK","2203914","2022-03-27 01:00","2022","03","27","01:00","-27.0","","-30.5","","72","","","M","8","","13","","","","102.40","","","","-37","","NA"
"-133.02","69.43","TUKTOYAKTUK","2203914","2022-03-27 02:00","2022","03","27","02:00","-27.1","","-30.7","","71","","","M","8","","16","","","","102.38","","","","-38","","NA"
"-133.02","69.43","TUKTOYAKTUK","2203914","2022-03-27 03:00","2022","03","27","03:00","-27.3","","-30.9","","71","","","M","8","","17","","","","102.35","","","","-39","","NA"
"-133.02","69.43","TUKTOYAKTUK","2203914","2022-03-27 04:00","2022","03","27","04:00","-27.4","","-31.0","","71","","","M","9","","12","","","","102.32","","","","-37","","NA"
"-133.02","69.43","TUKTOYAKTUK","2203914","2022-03-27 05:00","2022","03","27","05:00","-28.3","","-31.9","","71","","","M","10","","10","","","","102.30","","","","-37","","NA"
"-133.02","69.43","TUKTOYAKTUK","2203914","2022-03-27 06:00","2022","03","27","06:00","-28.4","","-31.8","","72","","","M","8","","17","","","","102.28","","","","-40","","NA"
"-133.02","69.43","TUKTOYAKTUK","2203914","2022-03-27 07:00","2022","03","27","07:00","-29.0","","-32.5","","72","","","M","9","","11","","","","102.23","","","","-38","","NA"
"-133.02","69.43","TUKTOYAKTUK","2203914","2022-03-27 08:00","2022","03","27","08:00","-28.2","","-31.8","","71","","","M","9","","9","","","","102.21","","","","-36","","NA"
"-133.02","69.43","TUKTOYAKTUK","2203914","2022-03-27 09:00","2022","03","27","09:00","-28.2","","-32.3","","68","","","M","9","","4","","","","102.21","","","","-33","","NA"
"-133.02","69.43","TUKTOYAKTUK","2203914","2022-03-27 10:00","2022","03","27","10:00","-27.1","","-31.6","","66","","","M","8","","13","","","","102.19","","","","-37","","NA"
"-133.02","69.43","TUKTOYAKTUK","2203914","2022-03-27 11:00","2022","03","27","11:00","-26.0","","-30.6","","65","","","M","7","","13","","","","102.17","","","","-36","","NA"
"-133.02","69.43","TUKTOYAKTUK","2203914","2022-03-27 12:00","2022","03","27","12:00","-24.3","","-29.7","","61","","","M","10","","7","","","","102.13","","","","-31","","NA"
"-133.02","69.43","TUKTOYAKTUK","2203914","2022-03-27 13:00","2022","03","27","13:00","-23.4","","-28.4","","64","","","M","6","","12","","","","102.15","","","","-32","","NA"
"-133.02","69.43","TUKTOYAKTUK","2203914","2022-03-27 14:00","2022","03","27","14:00","-23.4","","-28.4","","64","","","M","7","","19","","","","102.13","","","","-34","","NA"
"-133.02","69.43","TUKTOYAKTUK","2203914","2022-03-27 15:00","2022","03","27","15:00","-21.8","","-27.4","","61","","","M","9","","13","","","","102.11","","","","-31","","NA"
"-133.02","69.43","TUKTOYAKTUK","2203914","2022-03-27 16:00","2022","03","27","16:00","-21.0","","-26.6","","61","","","M","9","","12","","","","102.11","","","","-29","","NA"
"-133.02","69.43","TUKTOYAKTUK","2203914","2022-03-27 17:00","2022","03","27","17:00","-20.9","","-26.0","","63","","","M","7","","13","","","","102.10","","","","-30","","NA"
"-133.02","69.43","TUKTOYAKTUK","2203914","2022-03-27 18:00","2022","03","27","18:00","-21.0","","-25.4","","68","","","M","4","","12","","","","102.10","","","","-29","","NA"
"-133.02","69.43","TUKTOYAKTUK","2203914","2022-03-27 19:00","2022","03","27","19:00","-21.2","","-25.0","","72","","","M","5","","16","","","","102.09","","","","-31","","NA"
"-133.02","69.43","TUKTOYAKTUK","2203914","2022-03-27 20:00","2022","03","27","20:00","-23.0","","-26.2","","75","","","M","5","","18","","","","102.09","","","","-34","","NA"
"-133.02","69.43","TUKTOYAKTUK","2203914","2022-03-27 21:00","2022","03","27","21:00","-24.6","","-27.5","","77","","","M","5","","17","","","","102.07","","","","-35","","NA"
"-133.02","69.43","TUKTOYAKTUK","2203914","2022-03-27 22:00","2022","03","27","22:00","-25.5","","-28.3","","77","","","M","5","","21","","","","102.07","","","","-38","","NA"
"-133.02","69.43","TUKTOYAKTUK","2203914","2022-03-27 23:00","2022","03","27","23:00","-26.3","","-29.1","","77","","","M","5","","16","","","","102.05","","","","-37","","NA"
"-133.02","69.43","TUKTOYAKTUK","2203914","2022-03-28 00:00","2022","03","28","00:00","-26.6","","-29.4","","78","","","M","5","","17","","","","102.05","","","","-38","","NA"
"-133.02","69.43","TUKTOYAKTUK","2203914","2022-03-28 01:00","2022","03","28","01:00","-27.0","","-29.7","","78","","","M","5","","14","","","","102.07","","","","-37","","NA"
"-133.02","69.43","TUKTOYAKTUK","2203914","2022-03-28 02:00","2022","03","28","02:00","-27.2","","-29.9","","78","","","M","5","","16","","","","102.06","","","","-38","","NA"
"-133.02","69.43","TUKTOYAKTUK","2203914","2022-03-28 03:00","2022","03","28","03:00","-27.7","","-30.5","","77","","","M","5","","16","","","","102.05","","","","-39","","NA"
"-133.02","69.43","TUKTOYAKTUK","2203914","2022-03-28 04:00","2022","03","28","04:00","-28.0","","-30.9","","77","","","M","6","","15","","","","102.04","","","","-39","","NA"
"-133.02","69.43","TUKTOYAKTUK","2203914","2022-03-28 05:00","2022","03","28","05:00","-29.0","","-31.9","","76","","","M","8","","13","","","","102.06","","","","-39","","NA"
"-133.02","69.43","TUKTOYAKTUK","2203914","2022-03-28 06:00","2022","03","28","06:00","-28.7","","-31.6","","76","","","M","10","","11","","","","102.07","","","","-38","","NA"
"-133.02","69.43","TUKTOYAKTUK","2203914","2022-03-28 07:00","2022","03","28","07:00","-28.0","","-30.8","","77","","","M","7","","16","","","","102.06","","","","-39","","NA"
"-133.02","69.43","TUKTOYAKTUK","2203914","2022-03-28 08:00","2022","03","28","08:00","-27.9","","-31.0","","75","","","M","9","","10","","","","102.10","","","","-37","","NA"
"-133.02","69.43","TUKTOYAKTUK","2203914","2022-03-28 09:00","2022","03","28","09:00","-27.2","","-30.3","","75","","","M","9","","12","","","","102.13","","","","-37","","NA"
"-133.02","69.43","TUKTOYAKTUK","2203914","2022-03-28 10:00","2022","03","28","10:00","-26.2","","-29.5","","74","","","M","8","","8","","","","102.15","","","","-34","","NA"
"-133.02","69.43","TUKTOYAKTUK","2203914","2022-03-28 11:00","2022","03","28","11:00","-25.5","","-29.0","","72","","","M","8","","14","","","","102.14","","","","-35","","NA"
"-133.02","69.43","TUKTOYAKTUK","2203914","2022-03-28 12:00","2022","03","28","12:00","-24.4","","-28.0","","72","","","M","7","","14","","","","102.11","","","","-34","","NA"
"-133.02","69.43","TUKTOYAKTUK","2203914","2022-03-28 13:00","2022","03","28","13:00","-23.6","","-27.5","","71","","","M","9","","14","","","","102.11","","","","-33","","NA"
"-133.02","69.43","TUKTOYAKTUK","2203914","2022-03-28 14:00","2022","03","28","14:00","-22.7","","-26.9","","69","","","M","7","","18","","","","102.09","","","","-33","","NA"
"-133.02","69.43","TUKTOYAKTUK","2203914","2022-03-28 15:00","2022","03","28","15:00","-21.9","","-26.1","","69","","","M","7","","14","","","","102.07","","","","-31","","NA"
"-133.02","69.43","TUKTOYAKTUK","2203914","2022-03-28 16:00","2022","03","28","16:00","-21.3","","-25.7","","68","","","M","8","","16","","","","102.05","","","","-31","","NA"
"-133.02","69.43","TUKTOYAKTUK","2203914","2022-03-28 17:00","2022","03","28","17:00","-21.4","","-25.5","","69","","","M","8","","15","","","","102.02","","","","-31","","NA"
"-133.02","69.43","TUKTOYAKTUK","2203914","2022-03-28 18:00","2022","03","28","18:00","-21.8","","-25.7","","71","","","M","7","","19","","","","101.99","","","","-32","","NA"
"-133.02","69.43","TUKTOYAKTUK","2203914","2022-03-28 19:00","2022","03","28","19:00","-22.6","","-26.3","","72","","","M","8","","17","","","","101.98","","","","-33","","NA"
"-133.02","69.43","TUKTOYAKTUK","2203914","2022-03-28 20:00","2022","03","28","20:00","-24.0","","-27.2","","74","","","M","8","","15","","","","101.93","","","","-34","","NA"
"-133.02","69.43","TUKTOYAKTUK","2203914","2022-03-28 21:00","2022","03","28","21:00","-25.4","","-28.4","","76","","","M","9","","13","","","","101.91","","","","-35","","NA"
"-133.02","69.43","TUKTOYAKTUK","2203914","2022-03-28 22:00","2022","03","28","22:00","-26.9","","-29.8","","76","","","M","8","","15","","","","101.88","","","","-38","","NA"
"-133.02","69.43","TUKTOYAKTUK","2203914","2022-03-28 23:00","2022","03","28","23:00","-27.5","","-30.3","","77","","","M","8","","16","","","","101.83","","","","-39","","NA"
"-133.02","69.43","TUKTOYAKTUK","2203914","2022-03-29 00:00","2022","03","29","00:00","-28.1","","-31.0","","76","","","M","7","","16","","","","101.81","","","","-39","","NA"
"-133.02","69.43","TUKTOYAKTUK","2203914","2022-03-29 01:00","2022","03","29","01:00","-27.9","","-30.7","","77","","","M","8","","21","","","","101.81","","","","-41","","NA"
"-133.02","69.43","TUKTOYAKTUK","2203914","2022-03-29 02:00","2022","03","29","02:00","-28.6","","-31.5","","76","","","M","8","","16","","","","101.78","","","","-40","","NA"
"-133.02","69.43","TUKTOYAKTUK","2203914","2022-03-29 03:00","2022","03","29","03:00","-28.4","","-31.3","","76","","","M","7","","20","","","","101.76","","","","-41","","NA"
"-133.02","69.43","TUKTOYAKTUK","2203914","2022-03-29 04:00","2022","03","29","04:00","-29.6","","-32.5","","76","","","M","7","","13","","","","101.74","","","","-40","","NA"
"-133.02","69.43","TUKTOYAKTUK","2203914","2022-03-29 05:00","2022","03","29","05:00","-29.8","","-32.8","","75","","","M","8","","10","","","","101.74","","","","-39","","NA"
"-133.02","69.43","TUKTOYAKTUK","2203914","2022-03-29 06:00","2022","03","29","06:00","-31.2","","-34.3","","75","","","M","7","","11","","","","101.75","","","","-41","","NA"
"-133.02","69.43","TUKTOYAKTUK","2203914","2022-03-29 07:00","2022","03","29","07:00","-31.5","","-34.6","","75","","","M","7","","12","","","","101.73","","","","-42","","NA"
"-133.02","69.43","TUKTOYAKTUK","2203914","2022-03-29 08:00","2022","03","29","08:00","-30.4","","-33.4","","75","","","M","6","","11","","","","101.75","","","","-40","","NA"
"-133.02","69.43","TUKTOYAKTUK","2203914","2022-03-29 09:00","2022","03","29","09:00","-30.3","","-33.6","","73","","","M","5","","9","","","","101.75","","","","-39","","NA"
"-133.02","69.43","TUKTOYAKTUK","2203914","2022-03-29 10:00","2022","03","29","10:00","-29.3","","-32.7","","72","","","M","6","","6","","","","101.78","","","","-36","","NA"
"-133.02","69.43","TUKTOYAKTUK","2203914","2022-03-29 11:00","2022","03","29","11:00","-28.4","","-31.9","","72","","","M","7","","11","","","","101.78","","","","-38","","NA"
"-133.02","69.43","TUKTOYAKTUK","2203914","2022-03-29 12:00","2022","03","29","12:00","-28.1","","-31.9","","70","","","M","4","","10","","","","101.82","","","","-37","","NA"
"-133.02","69.43","TUKTOYAKTUK","2203914","2022-03-29 13:00","2022","03","29","13:00","-27.0","","-30.7","","71","","","M","4","","12","","","","101.84","","","","-37","","NA"
"-133.02","69.43","TUKTOYAKTUK","2203914","2022-03-29 14:00","2022","03","29","14:00","-26.2","","-30.0","","70","","","M","4","","11","","","","101.88","","","","-35","","NA"
"-133.02","69.43","TUKTOYAKTUK","2203914","2022-03-29 15:00","2022","03","29","15:00","-25.3","","-29.2","","70","","","M","4","","11","","","","101.90","","","","-34","","NA"
"-133.02","69.43","TUKTOYAKTUK","2203914","2022-03-29 16:00","2022","03","29","16:00","-24.8","","-28.7","","70","","","M","3","","13","","","","101.93","","","","-34","","NA"
"-133.02","69.43","TUKTOYAKTUK","2203914","2022-03-29 17:00","2022","03","29","17:00","-24.4","","-28.3","","70","","","M","3","","11","","","","101.95","","","","-33","","NA"
"-133.02","69.43","TUKTOYAKTUK","2203914","2022-03-29 18:00","2022","03","29","18:00","-24.4","","-28.1","","72","","","M","2","","10","","","","101.96","","","","-32","","NA"
"-133.02","69.43","TUKTOYAKTUK","2203914","2022-03-29 19:00","2022","03","29","19:00","-25.0","","-28.4","","73","","","M","3","","9","","","","101.98","","","","-33","","NA"
"-133.02","69.43","TUKTOYAKTUK","2203914","2022-03-29 20:00","2022","03","29","20:00","-25.7","","-28.8","","76","","","M","1","","6","","","","102.02","","","","-32","","NA"
"-133.02","69.43","TUKTOYAKTUK","2203914","2022-03-29 21:00","2022","03","29","21:00","-27.1","","-29.9","","77","","","M","36","","5","","","","102.05","","","","-32","","NA"
"-133.02","69.43","TUKTOYAKTUK","2203914","2022-03-29 22:00","2022","03","29","22:00","-28.2","","-31.1","","76","","","M","1","","5","","","","102.04","","","","-34","","NA"
"-133.02","69.43","TUKTOYAKTUK","2203914","2022-03-29 23:00","2022","03","29","23:00","-28.4","","-31.2","","76","","","M","35","","4","","","","102.04","","","","-33","","NA"
"-133.02","69.43","TUKTOYAKTUK","2203914","2022-03-30 00:00","2022","03","30","00:00","-27.9","","-30.6","","77","","","M","35","","8","","","","102.06","","","","-36","","NA"
"-133.02","69.43","TUKTOYAKTUK","2203914","2022-03-30 01:00","2022","03","30","01:00","-27.8","","-30.6","","77","","","M","33","","15","","","","102.08","","","","-39","","NA"
"-133.02","69.43","TUKTOYAKTUK","2203914","2022-03-30 02:00","2022","03","30","02:00","-28.0","","-30.9","","76","","","M","32","","15","","","","102.09","","","","-39","","NA"
"-133.02","69.43","TUKTOYAKTUK","2203914","2022-03-30 03:00","2022","03","30","03:00","-28.1","","-31.1","","76","","","M","32","","14","","","","102.11","","","","-39","","NA"
"-133.02","69.43","TUKTOYAKTUK","2203914","2022-03-30 04:00","2022","03","30","04:00","-29.1","","-32.1","","75","","","M","30","","13","","","","102.11","","","","-39","","NA"
"-133.02","69.43","TUKTOYAKTUK","2203914","2022-03-30 05:00","2022","03","30","05:00","-30.3","","-33.4","","74","","","M","29","","11","","","","102.09","","","","-40","","NA"
"-133.02","69.43","TUKTOYAKTUK","2203914","2022-03-30 06:00","2022","03","30","06:00","-31.2","","-34.3","","74","","","M","29","","11","","","","102.11","","","","-41","","NA"
"-133.02","69.43","TUKTOYAKTUK","2203914","2022-03-30 07:00","2022","03","30","07:00","-30.9","","-34.0","","74","","","M","29","","13","","","","102.11","","","","-42","","NA"
"-133.02","69.43","TUKTOYAKTUK","2203914","2022-03-30 08:00","2022","03","30","08:00","-30.5","","-33.7","","73","","","M","30","","15","","","","102.11","","","","-42","","NA"
"-133.02","69.43","TUKTOYAKTUK","2203914","2022-03-30 09:00","2022","03","30","09:00","-29.7","","-33.0","","73","","","M","31","","16","","","","102.13","","","","-41","","NA"
"-133.02","69.43","TUKTOYAKTUK","2203914","2022-03-30 10:00","2022","03","30","10:00","-28.7","","-32.0","","73","","","M","32","","15","","","","102.14","","","","-40","","NA"
"-133.02","69.43","TUKTOYAKTUK","2203914","2022-03-30 11:00","2022","03","30","11:00","-28.0","","-31.5","","72","","","M","32","","14","","","","102.18","","","","-39","","NA"
"-133.02","69.43","TUKTOYAKTUK","2203914","2022-03-30 12:00","2022","03","30","12:00","-27.4","","-30.9","","72","","","M","32","","15","","","","102.21","","","","-38","","NA"
"-133.02","69.43","TUKTOYAKTUK","2203914","2022-03-30 13:00","2022","03","30","13:00","-26.5","","-30.1","","71","","","M","32","","14","","","","102.26","","","","-37","","NA"
"-133.02","69.43","TUKTOYAKTUK","2203914","2022-03-30 14:00","2022","03","30","14:00","-26.0","","-29.7","","71","","","M","32","","16","","","","102.30","","","","-37","","NA"
"-133.02","69.43","TUKTOYAKTUK","2203914","2022-03-30 15:00","2022","03","30","15:00","-25.5","","-29.5","","70","","","M","34","","15","","","","102.34","","","","-36","","NA"
"-133.02","69.43","TUKTOYAKTUK","2203914","2022-03-30 16:00","2022","03","30","16:00","-25.4","","-29.8","","67","","","M","33","","15","","","","102.39","","","","-36","","NA"
"-133.02","69.43","TUKTOYAKTUK","2203914","2022-03-30 17:00","2022","03","30","17:00","-25.3","","-29.8","","66","","","M","34","","15","","","","102.43","","","","-36","","NA"
"-133.02","69.43","TUKTOYAKTUK","2203914","2022-03-30 18:00","2022","03","30","18:00","-25.3","","-30.0","","65","","","M","34","","15","","","","102.49","","","","-36","","NA"
"-133.02","69.43","TUKTOYAKTUK","2203914","2022-03-30 19:00","2022","03","30","19:00","-25.7","","-29.8","","69","","","M","33","","13","","","","102.55","","","","-35","","NA"
"-133.02","69.43","TUKTOYAKTUK","2203914","2022-03-30 20:00","2022","03","30","20:00","-26.6","","-30.1","","72","","","M","32","","12","","","","102.59","","","","-36","","NA"
"-133.02","69.43","TUKTOYAKTUK","2203914","2022-03-30 21:00","2022","03","30","21:00","-27.6","","-30.7","","75","","","M","32","","15","","","","102.63","","","","-38","","NA"
"-133.02","69.43","TUKTOYAKTUK","2203914","2022-03-30 22:00","2022","03","30","22:00","-28.0","","-31.0","","75","","","M","32","","18","","","","102.66","","","","-40","","NA"
"-133.02","69.43","TUKTOYAKTUK","2203914","2022-03-30 23:00","2022","03","30","23:00","-28.8","","-31.8","","75","","","M","32","","15","","","","102.70","","","","-40","","NA"
"-133.02","69.43","TUKTOYAKTUK","2203914","2022-03-31 00:00","2022","03","31","00:00","-29.3","","-32.3","","75","","","M","31","","15","","","","102.73","","","","-41","","NA"
"-133.02","69.43","TUKTOYAKTUK","2203914","2022-03-31 01:00","2022","03","31","01:00","-29.7","","-32.8","","75","","","M","31","","14","","","","102.77","","","","-41","","NA"
"-133.02","69.43","TUKTOYAKTUK","2203914","2022-03-31 02:00","2022","03","31","02:00","-29.6","","-32.7","","75","","","M","33","","16","","","","102.80","","","","-41","","NA"
"-133.02","69.43","TUKTOYAKTUK","2203914","2022-03-31 03:00","2022","03","31","03:00","-30.1","","-33.2","","75","","","M","33","","14","","","","102.83","","","","-41","","NA"
"-133.02","69.43","TUKTOYAKTUK","2203914","2022-03-31 04:00","2022","03","31","04:00","-30.1","","-33.2","","75","","","M","32","","12","","","","102.88","","","","-40","","NA"
"-133.02","69.43","TUKTOYAKTUK","2203914","2022-03-31 05:00","2022","03","31","05:00","-30.2","","-33.3","","74","","","M","33","","15","","","","102.90","","","","-42","","NA"
"-133.02","69.43","TUKTOYAKTUK","2203914","2022-03-31 06:00","2022","03","31","06:00","-30.7","","-33.9","","74","","","M","33","","14","","","","102.94","","","","-42","","NA"
"-133.02","69.43","TUKTOYAKTUK","2203914","2022-03-31 07:00","2022","03","31","07:00","-30.5","","-33.7","","74","","","M","32","","15","","","","102.97","","","","-42","","NA"
"-133.02","69.43","TUKTOYAKTUK","2203914","2022-03-31 08:00","2022","03","31","08:00","-30.7","","-34.0","","73","","","M","32","","13","","","","103.00","","","","-41","","NA"
"-133.02","69.43","TUKTOYAKTUK","2203914","2022-03-31 09:00","2022","03","31","09:00","-30.7","","-34.1","","72","","","M","31","","13","","","","103.03","","","","-41","","NA"
"-133.02","69.43","TUKTOYAKTUK","2203914","2022-03-31 10:00","2022","03","31","10:00","-29.9","","-33.5","","71","","","M","31","","12","","","","103.07","","","","-40","","NA"
"-133.02","69.43","TUKTOYAKTUK","2203914","2022-03-31 11:00","2022","03","31","11:00","-29.0","","-32.6","","71","","","M","31","","14","","","","103.10","","","","-40","","NA"
"-133.02","69.43","TUKTOYAKTUK","2203914","2022-03-31 12:00","2022","03","31","12:00","-28.6","","-32.4","","70","","","M","29","","15","","","","103.12","","","","-40","","NA"
"-133.02","69.43","TUKTOYAKTUK","2203914","2022-03-31 13:00","2022","03","31","13:00","-28.1","","-31.9","","70","","","M","29","","14","","","","103.14","","","","-39","","NA"
"-133.02","69.43","TUKTOYAKTUK","2203914","2022-03-31 14:00","2022","03","31","14:00","-27.8","","-31.6","","70","","","M","30","","16","","","","103.18","","","","-39","","NA"
"-133.02","69.43","TUKTOYAKTUK","2203914","2022-03-31 15:00","2022","03","31","15:00","-27.1","","-30.9","","70","","","M","30","","16","","","","103.19","","","","-38","","NA"
"-133.02","69.43","TUKTOYAKTUK","2203914","2022-03-31 16:00","2022","03","31","16:00","-26.5","","-30.4","","70","","","M","30","","14","","","","103.18","","","","-37","","NA"
"-133.02","69.43","TUKTOYAKTUK","2203914","2022-03-31 17:00","2022","03","31","17:00","-26.1","","-30.1","","69","","","M","30","","15","","","","103.15","","","","-37","","NA"
"-133.02","69.43","TUKTOYAKTUK","2203914","2022-03-31 18:00","2022","03","31","18:00","-25.7","","-29.5","","70","","","M","30","","14","","","","103.18","","","","-36","","NA"
"-133.02","69.43","TUKTOYAKTUK","2203914","2022-03-31 19:00","2022","03","31","19:00","-25.9","","-29.6","","71","","","M","29","","12","","","","103.17","","","","-35","","NA"
"-133.02","69.43","TUKTOYAKTUK","2203914","2022-03-31 20:00","2022","03","31","20:00","-27.2","","-30.6","","73","","","M","28","","11","","","","103.15","","","","-36","","NA"
"-133.02","69.43","TUKTOYAKTUK","2203914","2022-03-31 21:00","2022","03","31","21:00","-28.6","","-31.5","","76","","","M","27","","11","","","","103.14","","","","-38","","NA"
"-133.02","69.43","TUKTOYAKTUK","2203914","2022-03-31 22:00","2022","03","31","22:00","-29.2","","-32.1","","76","","","M","29","","11","","","","103.10","","","","-39","","NA"
"-133.02","69.43","TUKTOYAKTUK","2203914","2022-03-31 23:00","2022","03","31","23:00","-28.5","","-31.2","","78","","","M","33","","10","","","","103.07","","","","-37","","NA"
