"Longitude (x)","Latitude (y)","Station Name","Climate ID","Date/Time (LST)","Year","Month","Day","Time (LST)","Temp (°C)","Temp Flag","Dew Point Temp (°C)","Dew Point Temp Flag","Rel Hum (%)","Rel Hum Flag","Precip. Amount (mm)","Precip. Amount Flag","Wind Dir (10s deg)","Wind Dir Flag","Wind Spd (km/h)","Wind Spd Flag","Visibility (km)","Visibility Flag","Stn Press (kPa)","Stn Press Flag","Hmdx","Hmdx Flag","Wind Chill","Wind Chill Flag","Weather"
"-61.70","49.09","HEATH POINT","7053038","2019-07-01 00:00","2019","07","01","00:00","11.4","","9.9","","91","","0.0","","1","","28","","","","100.83","","","","","","NA"
"-61.70","49.09","HEATH POINT","7053038","2019-07-01 01:00","2019","07","01","01:00","11.2","","9.9","","92","","0.0","","1","","28","","","","100.81","","","","","","NA"
"-61.70","49.09","HEATH POINT","7053038","2019-07-01 02:00","2019","07","01","02:00","10.8","","9.8","","94","","0.0","","2","","26","","","","100.80","","","","","","NA"
"-61.70","49.09","HEATH POINT","7053038","2019-07-01 03:00","2019","07","01","03:00","10.4","","9.6","","95","","0.0","","3","","21","","","","100.84","","","","","","NA"
"-61.70","49.09","HEATH POINT","7053038","2019-07-01 04:00","2019","07","01","04:00","10.4","","9.6","","95","","0.0","","3","","23","","","","100.88","","","","","","NA"
"-61.70","49.09","HEATH POINT","7053038","2019-07-01 05:00","2019","07","01","05:00","10.4","","9.5","","94","","0.0","","3","","22","","","","100.90","","","","","","NA"
"-61.70","49.09","HEATH POINT","7053038","2019-07-01 06:00","2019","07","01","06:00","10.7","","9.6","","93","","0.0","","4","","25","","","","100.94","","","","","","NA"
"-61.70","49.09","HEATH POINT","7053038","2019-07-01 07:00","2019","07","01","07:00","10.8","","9.6","","93","","0.0","","4","","28","","","","100.93","","","","","","NA"
"-61.70","49.09","HEATH POINT","7053038","2019-07-01 08:00","2019","07","01","08:00","10.8","","9.5","","92","","0.0","","5","","26","","","","100.93","","","","","","NA"
"-61.70","49.09","HEATH POINT","7053038","2019-07-01 09:00","2019","07","01","09:00","10.7","","9.5","","92","","0.0","","4","","27","","","","100.96","","","","","","NA"
"-61.70","49.09","HEATH POINT","7053038","2019-07-01 10:00","2019","07","01","10:00","10.6","","9.3","","92","","0.0","","4","","27","","","","101.01","","","","","","NA"
"-61.70","49.09","HEATH POINT","7053038","2019-07-01 11:00","2019","07","01","11:00","10.7","","9.5","","92","","0.0","","3","","26","","","","101.01","","","","","","NA"
"-61.70","49.09","HEATH POINT","7053038","2019-07-01 12:00","2019","07","01","12:00","10.7","","9.2","","90","","0.0","","3","","27","","","","100.96","","","","","","NA"
"-61.70","49.09","HEATH POINT","7053038","2019-07-01 13:00","2019","07","01","13:00","10.7","","9.3","","91","","0.0","","4","","25","","","","100.94","","","","","","NA"
"-61.70","49.09","HEATH POINT","7053038","2019-07-01 14:00","2019","07","01","14:00","11.1","","9.3","","89","","0.0","","3","","20","","","","100.89","","","","","","NA"
"-61.70","49.09","HEATH POINT","7053038","2019-07-01 15:00","2019","07","01","15:00","11.7","","9.3","","86","","0.0","","3","","21","","","","100.85","","","","","","NA"
"-61.70","49.09","HEATH POINT","7053038","2019-07-01 16:00","2019","07","01","16:00","11.8","","9.6","","86","","0.0","","3","","25","","","","100.82","","","","","","NA"
"-61.70","49.09","HEATH POINT","7053038","2019-07-01 17:00","2019","07","01","17:00","11.7","","9.4","","86","","0.0","","2","","21","","","","100.78","","","","","","NA"
"-61.70","49.09","HEATH POINT","7053038","2019-07-01 18:00","2019","07","01","18:00","11.5","","9.6","","88","","0.0","","2","","21","","","","100.81","","","","","","NA"
"-61.70","49.09","HEATH POINT","7053038","2019-07-01 19:00","2019","07","01","19:00","11.3","","9.5","","89","","0.0","","1","","22","","","","100.80","","","","","","NA"
"-61.70","49.09","HEATH POINT","7053038","2019-07-01 20:00","2019","07","01","20:00","11.1","","9.4","","89","","0.0","","2","","18","","","","100.79","","","","","","NA"
"-61.70","49.09","HEATH POINT","7053038","2019-07-01 21:00","2019","07","01","21:00","10.9","","9.5","","91","","0.0","","1","","18","","","","100.75","","","","","","NA"
"-61.70","49.09","HEATH POINT","7053038","2019-07-01 22:00","2019","07","01","22:00","10.8","","9.4","","91","","0.0","","1","","20","","","","100.73","","","","","","NA"
"-61.70","49.09","HEATH POINT","7053038","2019-07-01 23:00","2019","07","01","23:00","10.6","","9.4","","92","","0.0","","1","","22","","","","100.71","","","","","","NA"
"-61.70","49.09","HEATH POINT","7053038","2019-07-02 00:00","2019","07","02","00:00","10.5","","9.4","","93","","0.0","","1","","26","","","","100.65","","","","","","NA"
"-61.70","49.09","HEATH POINT","7053038","2019-07-02 01:00","2019","07","02","01:00","10.4","","9.4","","94","","0.0","","1","","26","","","","100.61","","","","","","NA"
"-61.70","49.09","HEATH POINT","7053038","2019-07-02 02:00","2019","07","02","02:00","10.1","","9.0","","93","","0.0","","3","","28","","","","100.57","","","","","","NA"
"-61.70","49.09","HEATH POINT","7053038","2019-07-02 03:00","2019","07","02","03:00","9.9","","8.8","","93","","0.0","","4","","31","","","","100.55","","","","","","NA"
"-61.70","49.09","HEATH POINT","7053038","2019-07-02 04:00","2019","07","02","04:00","9.8","","8.7","","93","","0.0","","4","","34","","","","100.55","","","","","","NA"
"-61.70","49.09","HEATH POINT","7053038","2019-07-02 05:00","2019","07","02","05:00","9.4","","8.5","","94","","0.0","","5","","36","","","","100.52","","","","","","NA"
"-61.70","49.09","HEATH POINT","7053038","2019-07-02 06:00","2019","07","02","06:00","8.8","","7.9","","94","","0.0","","5","","40","","","","100.50","","","","","","NA"
"-61.70","49.09","HEATH POINT","7053038","2019-07-02 07:00","2019","07","02","07:00","8.7","","7.7","","94","","0.0","","4","","39","","","","100.52","","","","","","NA"
"-61.70","49.09","HEATH POINT","7053038","2019-07-02 08:00","2019","07","02","08:00","8.5","","7.6","","94","","0.0","","3","","40","","","","100.51","","","","","","NA"
"-61.70","49.09","HEATH POINT","7053038","2019-07-02 09:00","2019","07","02","09:00","8.6","","7.6","","94","","0.0","","3","","40","","","","100.52","","","","","","NA"
"-61.70","49.09","HEATH POINT","7053038","2019-07-02 10:00","2019","07","02","10:00","8.3","","7.4","","94","","0.0","","3","","43","","","","100.54","","","","","","NA"
"-61.70","49.09","HEATH POINT","7053038","2019-07-02 11:00","2019","07","02","11:00","8.3","","7.4","","94","","0.0","","4","","43","","","","100.52","","","","","","NA"
"-61.70","49.09","HEATH POINT","7053038","2019-07-02 12:00","2019","07","02","12:00","7.9","","7.3","","96","","0.0","","3","","46","","","","100.53","","","","","","NA"
"-61.70","49.09","HEATH POINT","7053038","2019-07-02 13:00","2019","07","02","13:00","8.1","","7.6","","97","","0.0","","4","","45","","","","100.49","","","","","","NA"
"-61.70","49.09","HEATH POINT","7053038","2019-07-02 14:00","2019","07","02","14:00","8.4","","7.7","","96","","0.0","","4","","44","","","","100.46","","","","","","NA"
"-61.70","49.09","HEATH POINT","7053038","2019-07-02 15:00","2019","07","02","15:00","8.6","","7.9","","95","","0.0","","4","","44","","","","100.42","","","","","","NA"
"-61.70","49.09","HEATH POINT","7053038","2019-07-02 16:00","2019","07","02","16:00","8.5","","7.6","","94","","0.0","","5","","50","","","","100.41","","","","","","NA"
"-61.70","49.09","HEATH POINT","7053038","2019-07-02 17:00","2019","07","02","17:00","8.7","","7.7","","93","","0.0","","5","","52","","","","100.42","","","","","","NA"
"-61.70","49.09","HEATH POINT","7053038","2019-07-02 18:00","2019","07","02","18:00","8.7","","7.8","","94","","0.0","","4","","49","","","","100.43","","","","","","NA"
"-61.70","49.09","HEATH POINT","7053038","2019-07-02 19:00","2019","07","02","19:00","8.4","","7.7","","95","","0.0","","4","","47","","","","100.46","","","","","","NA"
"-61.70","49.09","HEATH POINT","7053038","2019-07-02 20:00","2019","07","02","20:00","8.6","","7.3","","92","","0.0","","5","","46","","","","100.49","","","","","","NA"
"-61.70","49.09","HEATH POINT","7053038","2019-07-02 21:00","2019","07","02","21:00","8.4","","7.3","","93","","0.0","","4","","39","","","","100.51","","","","","","NA"
"-61.70","49.09","HEATH POINT","7053038","2019-07-02 22:00","2019","07","02","22:00","8.3","","7.5","","95","","0.0","","4","","41","","","","100.51","","","","","","NA"
"-61.70","49.09","HEATH POINT","7053038","2019-07-02 23:00","2019","07","02","23:00","8.2","","7.6","","96","","0.0","","4","","37","","","","100.53","","","","","","NA"
"-61.70","49.09","HEATH POINT","7053038","2019-07-03 00:00","2019","07","03","00:00","8.4","","7.6","","95","","0.0","","3","","31","","","","100.52","","","","","","NA"
"-61.70","49.09","HEATH POINT","7053038","2019-07-03 01:00","2019","07","03","01:00","8.3","","7.8","","97","","0.0","","4","","26","","","","100.52","","","","","","NA"
"-61.70","49.09","HEATH POINT","7053038","2019-07-03 02:00","2019","07","03","02:00","8.8","","8.4","","97","","0.0","","1","","20","","","","100.52","","","","","","NA"
"-61.70","49.09","HEATH POINT","7053038","2019-07-03 03:00","2019","07","03","03:00","8.7","","8.1","","96","","0.0","","2","","28","","","","100.57","","","","","","NA"
"-61.70","49.09","HEATH POINT","7053038","2019-07-03 04:00","2019","07","03","04:00","8.8","","8.1","","95","","0.0","","3","","17","","","","100.57","","","","","","NA"
"-61.70","49.09","HEATH POINT","7053038","2019-07-03 05:00","2019","07","03","05:00","9.0","","8.0","","93","","0.0","","1","","13","","","","100.60","","","","","","NA"
"-61.70","49.09","HEATH POINT","7053038","2019-07-03 06:00","2019","07","03","06:00","9.4","","8.4","","93","","0.0","","1","","8","","","","100.67","","","","","","NA"
"-61.70","49.09","HEATH POINT","7053038","2019-07-03 07:00","2019","07","03","07:00","10.2","","8.8","","91","","0.0","","33","","8","","","","100.69","","","","","","NA"
"-61.70","49.09","HEATH POINT","7053038","2019-07-03 08:00","2019","07","03","08:00","10.0","","8.3","","90","","0.0","","3","","6","","","","100.70","","","","","","NA"
"-61.70","49.09","HEATH POINT","7053038","2019-07-03 09:00","2019","07","03","09:00","9.7","","8.4","","91","","0.0","","23","","9","","","","100.72","","","","","","NA"
"-61.70","49.09","HEATH POINT","7053038","2019-07-03 10:00","2019","07","03","10:00","9.6","","8.1","","90","","0.0","","9","","10","","","","100.73","","","","","","NA"
"-61.70","49.09","HEATH POINT","7053038","2019-07-03 11:00","2019","07","03","11:00","9.3","","7.5","","89","","0.0","","8","","12","","","","100.74","","","","","","NA"
"-61.70","49.09","HEATH POINT","7053038","2019-07-03 12:00","2019","07","03","12:00","9.5","","7.7","","89","","0.0","","12","","11","","","","100.73","","","","","","NA"
"-61.70","49.09","HEATH POINT","7053038","2019-07-03 13:00","2019","07","03","13:00","9.4","","7.6","","89","","0.0","","14","","11","","","","100.70","","","","","","NA"
"-61.70","49.09","HEATH POINT","7053038","2019-07-03 14:00","2019","07","03","14:00","10.0","","8.3","","89","","0.0","","18","","15","","","","100.71","","","","","","NA"
"-61.70","49.09","HEATH POINT","7053038","2019-07-03 15:00","2019","07","03","15:00","9.6","","8.0","","90","","0.0","","16","","18","","","","100.74","","","","","","NA"
"-61.70","49.09","HEATH POINT","7053038","2019-07-03 16:00","2019","07","03","16:00","9.7","","8.3","","92","","0.0","","17","","20","","","","100.74","","","","","","NA"
"-61.70","49.09","HEATH POINT","7053038","2019-07-03 17:00","2019","07","03","17:00","9.6","","8.5","","93","","0.0","","17","","20","","","","100.74","","","","","","NA"
"-61.70","49.09","HEATH POINT","7053038","2019-07-03 18:00","2019","07","03","18:00","9.6","","8.7","","94","","0.0","","18","","18","","","","100.76","","","","","","NA"
"-61.70","49.09","HEATH POINT","7053038","2019-07-03 19:00","2019","07","03","19:00","9.7","","9.0","","95","","0.0","","18","","14","","","","100.79","","","","","","NA"
"-61.70","49.09","HEATH POINT","7053038","2019-07-03 20:00","2019","07","03","20:00","9.7","","9.0","","96","","0.0","","20","","12","","","","100.84","","","","","","NA"
"-61.70","49.09","HEATH POINT","7053038","2019-07-03 21:00","2019","07","03","21:00","9.5","","8.9","","96","","0.0","","26","","4","","","","100.86","","","","","","NA"
"-61.70","49.09","HEATH POINT","7053038","2019-07-03 22:00","2019","07","03","22:00","9.9","","9.3","","96","","0.0","","5","","3","","","","100.90","","","","","","NA"
"-61.70","49.09","HEATH POINT","7053038","2019-07-03 23:00","2019","07","03","23:00","9.3","","8.7","","96","","0.0","","4","","5","","","","100.95","","","","","","NA"
"-61.70","49.09","HEATH POINT","7053038","2019-07-04 00:00","2019","07","04","00:00","10.3","","9.8","","96","","0.0","","2","","9","","","","100.97","","","","","","NA"
"-61.70","49.09","HEATH POINT","7053038","2019-07-04 01:00","2019","07","04","01:00","9.9","","8.6","","92","","0.0","","2","","20","","","","101.01","","","","","","NA"
"-61.70","49.09","HEATH POINT","7053038","2019-07-04 02:00","2019","07","04","02:00","9.4","","8.2","","92","","0.0","","3","","15","","","","101.04","","","","","","NA"
"-61.70","49.09","HEATH POINT","7053038","2019-07-04 03:00","2019","07","04","03:00","9.4","","8.1","","92","","0.0","","3","","15","","","","101.06","","","","","","NA"
"-61.70","49.09","HEATH POINT","7053038","2019-07-04 04:00","2019","07","04","04:00","9.6","","7.8","","88","","0.0","","3","","11","","","","101.09","","","","","","NA"
"-61.70","49.09","HEATH POINT","7053038","2019-07-04 05:00","2019","07","04","05:00","10.5","","7.9","","84","","0.0","","2","","6","","","","101.15","","","","","","NA"
"-61.70","49.09","HEATH POINT","7053038","2019-07-04 06:00","2019","07","04","06:00","11.6","","7.9","","78","","0.0","","6","","3","","","","101.25","","","","","","NA"
"-61.70","49.09","HEATH POINT","7053038","2019-07-04 07:00","2019","07","04","07:00","10.5","","7.4","","81","","0.0","","20","","5","","","","101.28","","","","","","NA"
"-61.70","49.09","HEATH POINT","7053038","2019-07-04 08:00","2019","07","04","08:00","11.1","","7.6","","79","","0.0","","21","","9","","","","101.26","","","","","","NA"
"-61.70","49.09","HEATH POINT","7053038","2019-07-04 09:00","2019","07","04","09:00","11.5","","7.8","","78","","0.0","","17","","9","","","","101.24","","","","","","NA"
"-61.70","49.09","HEATH POINT","7053038","2019-07-04 10:00","2019","07","04","10:00","12.0","","9.4","","84","","0.0","","23","","16","","","","101.29","","","","","","NA"
"-61.70","49.09","HEATH POINT","7053038","2019-07-04 11:00","2019","07","04","11:00","12.8","","9.5","","80","","0.0","","22","","9","","","","101.30","","","","","","NA"
"-61.70","49.09","HEATH POINT","7053038","2019-07-04 12:00","2019","07","04","12:00","12.0","","9.0","","82","","0.0","","19","","8","","","","101.32","","","","","","NA"
"-61.70","49.09","HEATH POINT","7053038","2019-07-04 13:00","2019","07","04","13:00","12.1","","9.3","","83","","0.0","","19","","15","","","","101.30","","","","","","NA"
"-61.70","49.09","HEATH POINT","7053038","2019-07-04 14:00","2019","07","04","14:00","12.3","","9.7","","85","","0.0","","20","","20","","","","101.31","","","","","","NA"
"-61.70","49.09","HEATH POINT","7053038","2019-07-04 15:00","2019","07","04","15:00","12.4","","10.0","","85","","0.0","","21","","22","","","","101.31","","","","","","NA"
"-61.70","49.09","HEATH POINT","7053038","2019-07-04 16:00","2019","07","04","16:00","12.2","","9.9","","86","","0.0","","21","","20","","","","101.31","","","","","","NA"
"-61.70","49.09","HEATH POINT","7053038","2019-07-04 17:00","2019","07","04","17:00","12.0","","9.9","","87","","0.0","","21","","19","","","","101.33","","","","","","NA"
"-61.70","49.09","HEATH POINT","7053038","2019-07-04 18:00","2019","07","04","18:00","11.2","","9.7","","91","","0.0","","23","","18","","","","101.32","","","","","","NA"
"-61.70","49.09","HEATH POINT","7053038","2019-07-04 19:00","2019","07","04","19:00","10.8","","9.7","","93","","0.0","","24","","16","","","","101.37","","","","","","NA"
"-61.70","49.09","HEATH POINT","7053038","2019-07-04 20:00","2019","07","04","20:00","10.2","","9.4","","95","","0.0","","24","","21","","","","101.48","","","","","","NA"
"-61.70","49.09","HEATH POINT","7053038","2019-07-04 21:00","2019","07","04","21:00","10.3","","9.6","","95","","0.0","","24","","18","","","","101.50","","","","","","NA"
"-61.70","49.09","HEATH POINT","7053038","2019-07-04 22:00","2019","07","04","22:00","10.5","","9.8","","96","","0.0","","24","","18","","","","101.48","","","","","","NA"
"-61.70","49.09","HEATH POINT","7053038","2019-07-04 23:00","2019","07","04","23:00","10.3","","9.7","","96","","0.0","","25","","14","","","","101.48","","","","","","NA"
"-61.70","49.09","HEATH POINT","7053038","2019-07-05 00:00","2019","07","05","00:00","10.4","","9.9","","97","","0.0","","22","","7","","","","101.47","","","","","","NA"
"-61.70","49.09","HEATH POINT","7053038","2019-07-05 01:00","2019","07","05","01:00","10.1","","9.6","","97","","0.0","","24","","9","","","","101.48","","","","","","NA"
"-61.70","49.09","HEATH POINT","7053038","2019-07-05 02:00","2019","07","05","02:00","10.2","","9.7","","97","","0.0","","23","","5","","","","101.49","","","","","","NA"
"-61.70","49.09","HEATH POINT","7053038","2019-07-05 03:00","2019","07","05","03:00","10.0","","9.6","","97","","0.0","","23","","6","","","","101.51","","","","","","NA"
"-61.70","49.09","HEATH POINT","7053038","2019-07-05 04:00","2019","07","05","04:00","10.1","","9.7","","97","","0.0","","25","","10","","","","101.52","","","","","","NA"
"-61.70","49.09","HEATH POINT","7053038","2019-07-05 05:00","2019","07","05","05:00","10.4","","9.8","","96","","0.0","","23","","7","","","","101.52","","","","","","NA"
"-61.70","49.09","HEATH POINT","7053038","2019-07-05 06:00","2019","07","05","06:00","11.3","","10.6","","95","","0.0","","24","","11","","","","101.56","","","","","","NA"
"-61.70","49.09","HEATH POINT","7053038","2019-07-05 07:00","2019","07","05","07:00","12.2","","10.8","","91","","0.0","","23","","9","","","","101.59","","","","","","NA"
"-61.70","49.09","HEATH POINT","7053038","2019-07-05 08:00","2019","07","05","08:00","12.4","","10.6","","89","","0.0","","21","","8","","","","101.57","","","","","","NA"
"-61.70","49.09","HEATH POINT","7053038","2019-07-05 09:00","2019","07","05","09:00","12.2","","10.4","","89","","0.0","","16","","7","","","","101.57","","","","","","NA"
"-61.70","49.09","HEATH POINT","7053038","2019-07-05 10:00","2019","07","05","10:00","12.7","","10.6","","87","","0.0","","15","","7","","","","101.53","","","","","","NA"
"-61.70","49.09","HEATH POINT","7053038","2019-07-05 11:00","2019","07","05","11:00","12.6","","10.3","","86","","0.0","","18","","9","","","","101.48","","","","","","NA"
"-61.70","49.09","HEATH POINT","7053038","2019-07-05 12:00","2019","07","05","12:00","12.9","","10.6","","86","","0.0","","18","","6","","","","101.47","","","","","","NA"
"-61.70","49.09","HEATH POINT","7053038","2019-07-05 13:00","2019","07","05","13:00","12.5","","10.2","","86","","0.0","","18","","8","","","","101.42","","","","","","NA"
"-61.70","49.09","HEATH POINT","7053038","2019-07-05 14:00","2019","07","05","14:00","13.1","","11.0","","87","","0.0","","20","","11","","","","101.38","","","","","","NA"
"-61.70","49.09","HEATH POINT","7053038","2019-07-05 15:00","2019","07","05","15:00","12.5","","10.8","","89","","0.0","","23","","13","","","","101.34","","","","","","NA"
"-61.70","49.09","HEATH POINT","7053038","2019-07-05 16:00","2019","07","05","16:00","12.3","","10.9","","91","","0.0","","23","","11","","","","101.27","","","","","","NA"
"-61.70","49.09","HEATH POINT","7053038","2019-07-05 17:00","2019","07","05","17:00","12.0","","10.7","","92","","0.0","","21","","9","","","","101.25","","","","","","NA"
"-61.70","49.09","HEATH POINT","7053038","2019-07-05 18:00","2019","07","05","18:00","11.5","","10.4","","93","","0.0","","19","","11","","","","101.21","","","","","","NA"
"-61.70","49.09","HEATH POINT","7053038","2019-07-05 19:00","2019","07","05","19:00","11.5","","10.7","","95","","0.0","","20","","14","","","","101.17","","","","","","NA"
"-61.70","49.09","HEATH POINT","7053038","2019-07-05 20:00","2019","07","05","20:00","11.3","","10.6","","95","","0.0","","22","","11","","","","101.17","","","","","","NA"
"-61.70","49.09","HEATH POINT","7053038","2019-07-05 21:00","2019","07","05","21:00","11.0","","10.3","","96","","0.0","","21","","13","","","","101.09","","","","","","NA"
"-61.70","49.09","HEATH POINT","7053038","2019-07-05 22:00","2019","07","05","22:00","11.1","","10.4","","96","","0.0","","19","","16","","","","101.02","","","","","","NA"
"-61.70","49.09","HEATH POINT","7053038","2019-07-05 23:00","2019","07","05","23:00","10.8","","10.3","","97","","0.0","","23","","12","","","","100.96","","","","","","NA"
"-61.70","49.09","HEATH POINT","7053038","2019-07-06 00:00","2019","07","06","00:00","11.3","","10.8","","97","","0.0","","24","","14","","","","100.90","","","","","","NA"
"-61.70","49.09","HEATH POINT","7053038","2019-07-06 01:00","2019","07","06","01:00","11.2","","10.7","","97","","0.0","","23","","11","","","","100.80","","","","","","NA"
"-61.70","49.09","HEATH POINT","7053038","2019-07-06 02:00","2019","07","06","02:00","11.1","","10.6","","97","","0.0","","21","","22","","","","100.71","","","","","","NA"
"-61.70","49.09","HEATH POINT","7053038","2019-07-06 03:00","2019","07","06","03:00","11.6","","11.1","","97","","0.0","","22","","13","","","","100.60","","","","","","NA"
"-61.70","49.09","HEATH POINT","7053038","2019-07-06 04:00","2019","07","06","04:00","12.2","","11.6","","96","","0.0","","24","","14","","","","100.57","","","","","","NA"
"-61.70","49.09","HEATH POINT","7053038","2019-07-06 05:00","2019","07","06","05:00","12.7","","12.0","","96","","0.0","","24","","17","","","","100.52","","","","","","NA"
"-61.70","49.09","HEATH POINT","7053038","2019-07-06 06:00","2019","07","06","06:00","11.8","","10.9","","94","","0.0","","22","","15","","","","100.45","","","","","","NA"
"-61.70","49.09","HEATH POINT","7053038","2019-07-06 07:00","2019","07","06","07:00","12.4","","11.3","","93","","0.0","","21","","17","","","","100.37","","","","","","NA"
"-61.70","49.09","HEATH POINT","7053038","2019-07-06 08:00","2019","07","06","08:00","13.1","","11.8","","92","","0.0","","21","","16","","","","100.30","","","","","","NA"
"-61.70","49.09","HEATH POINT","7053038","2019-07-06 09:00","2019","07","06","09:00","13.8","","12.1","","90","","0.0","","20","","24","","","","100.23","","","","","","NA"
"-61.70","49.09","HEATH POINT","7053038","2019-07-06 10:00","2019","07","06","10:00","14.2","","12.5","","90","","0.0","","22","","21","","","","100.18","","","","","","NA"
"-61.70","49.09","HEATH POINT","7053038","2019-07-06 11:00","2019","07","06","11:00","13.3","","12.1","","93","","0.0","","23","","23","","","","100.12","","","","","","NA"
"-61.70","49.09","HEATH POINT","7053038","2019-07-06 12:00","2019","07","06","12:00","12.5","","11.5","","94","","0.0","","24","","22","","","","100.11","","","","","","NA"
"-61.70","49.09","HEATH POINT","7053038","2019-07-06 13:00","2019","07","06","13:00","12.3","","11.6","","95","","0.0","","24","","17","","","","100.08","","","","","","NA"
"-61.70","49.09","HEATH POINT","7053038","2019-07-06 14:00","2019","07","06","14:00","12.5","","11.8","","96","","0.0","","24","","16","","","","99.99","","","","","","NA"
"-61.70","49.09","HEATH POINT","7053038","2019-07-06 15:00","2019","07","06","15:00","12.6","","11.9","","96","","0.0","","24","","17","","","","99.97","","","","","","NA"
"-61.70","49.09","HEATH POINT","7053038","2019-07-06 16:00","2019","07","06","16:00","11.8","","11.3","","97","","0.0","","24","","14","","","","99.89","","","","","","NA"
"-61.70","49.09","HEATH POINT","7053038","2019-07-06 17:00","2019","07","06","17:00","11.8","","11.4","","97","","0.0","","24","","15","","","","99.81","","","","","","NA"
"-61.70","49.09","HEATH POINT","7053038","2019-07-06 18:00","2019","07","06","18:00","11.8","","11.2","","96","","0.0","","23","","16","","","","99.78","","","","","","NA"
"-61.70","49.09","HEATH POINT","7053038","2019-07-06 19:00","2019","07","06","19:00","11.6","","11.3","","98","","0.0","","23","","21","","","","99.75","","","","","","NA"
"-61.70","49.09","HEATH POINT","7053038","2019-07-06 20:00","2019","07","06","20:00","11.5","","11.2","","98","","0.0","","24","","22","","","","99.73","","","","","","NA"
"-61.70","49.09","HEATH POINT","7053038","2019-07-06 21:00","2019","07","06","21:00","11.9","","11.6","","99","","0.0","","25","","24","","","","99.65","","","","","","NA"
"-61.70","49.09","HEATH POINT","7053038","2019-07-06 22:00","2019","07","06","22:00","12.5","","12.1","","97","","0.0","","26","","27","","","","99.66","","","","","","NA"
"-61.70","49.09","HEATH POINT","7053038","2019-07-06 23:00","2019","07","06","23:00","14.0","","12.9","","93","","0.0","","30","","21","","","","99.72","","","","","","NA"
"-61.70","49.09","HEATH POINT","7053038","2019-07-07 00:00","2019","07","07","00:00","14.5","","10.4","","76","","0.0","","31","","27","","","","99.79","","","","","","NA"
"-61.70","49.09","HEATH POINT","7053038","2019-07-07 01:00","2019","07","07","01:00","13.7","","7.9","","68","","0.0","","31","","27","","","","99.87","","","","","","NA"
"-61.70","49.09","HEATH POINT","7053038","2019-07-07 02:00","2019","07","07","02:00","12.9","","6.7","","66","","0.0","","31","","26","","","","99.95","","","","","","NA"
"-61.70","49.09","HEATH POINT","7053038","2019-07-07 03:00","2019","07","07","03:00","11.6","","6.8","","72","","0.0","","31","","29","","","","100.01","","","","","","NA"
"-61.70","49.09","HEATH POINT","7053038","2019-07-07 04:00","2019","07","07","04:00","10.2","","6.8","","80","","0.0","","27","","19","","","","100.08","","","","","","NA"
"-61.70","49.09","HEATH POINT","7053038","2019-07-07 05:00","2019","07","07","05:00","10.8","","8.0","","83","","0.0","","27","","16","","","","100.14","","","","","","NA"
"-61.70","49.09","HEATH POINT","7053038","2019-07-07 06:00","2019","07","07","06:00","13.1","","9.5","","79","","0.0","","26","","21","","","","100.20","","","","","","NA"
"-61.70","49.09","HEATH POINT","7053038","2019-07-07 07:00","2019","07","07","07:00","16.6","","9.3","","62","","0.0","","31","","29","","","","100.16","","","","","","NA"
"-61.70","49.09","HEATH POINT","7053038","2019-07-07 08:00","2019","07","07","08:00","18.0","","8.3","","53","","0.0","","32","","37","","","","100.14","","","","","","NA"
"-61.70","49.09","HEATH POINT","7053038","2019-07-07 09:00","2019","07","07","09:00"
"-61.70","49.09","HEATH POINT","7053038","2019-07-07 10:00","2019","07","07","10:00","20.0","","8.5","","48","","0.0","","33","","33","","","","100.17","","","","","","NA"
"-61.70","49.09","HEATH POINT","7053038","2019-07-07 11:00","2019","07","07","11:00","13.7","","9.6","","76","","0.0","","24","","32","","","","100.19","","","","","","NA"
"-61.70","49.09","HEATH POINT","7053038","2019-07-07 12:00","2019","07","07","12:00","14.4","","9.6","","73","","0.0","","25","","29","","","","100.19","","","","","","NA"
"-61.70","49.09","HEATH POINT","7053038","2019-07-07 13:00","2019","07","07","13:00","13.4","","9.3","","76","","0.0","","25","","36","","","","100.17","","","","","","NA"
"-61.70","49.09","HEATH POINT","7053038","2019-07-07 14:00","2019","07","07","14:00","13.9","","9.2","","73","","0.0","","26","","36","","","","100.20","","","","","","NA"
"-61.70","49.09","HEATH POINT","7053038","2019-07-07 15:00","2019","07","07","15:00","13.8","","9.0","","73","","0.0","","25","","41","","","","100.21","","","","","","NA"
"-61.70","49.09","HEATH POINT","7053038","2019-07-07 16:00","2019","07","07","16:00","14.1","","9.0","","71","","0.0","","25","","33","","","","100.24","","","","","","NA"
"-61.70","49.09","HEATH POINT","7053038","2019-07-07 17:00","2019","07","07","17:00","12.8","","8.8","","77","","0.0","","25","","33","","","","100.26","","","","","","NA"
"-61.70","49.09","HEATH POINT","7053038","2019-07-07 18:00","2019","07","07","18:00","12.2","","8.8","","80","","0.0","","26","","24","","","","100.30","","","","","","NA"
"-61.70","49.09","HEATH POINT","7053038","2019-07-07 19:00","2019","07","07","19:00","11.1","","8.5","","85","","0.0","","25","","22","","","","100.35","","","","","","NA"
"-61.70","49.09","HEATH POINT","7053038","2019-07-07 20:00","2019","07","07","20:00","10.3","","8.6","","89","","0.0","","26","","21","","","","100.40","","","","","","NA"
"-61.70","49.09","HEATH POINT","7053038","2019-07-07 21:00","2019","07","07","21:00","10.0","","8.5","","91","","0.0","","26","","20","","","","100.41","","","","","","NA"
"-61.70","49.09","HEATH POINT","7053038","2019-07-07 22:00","2019","07","07","22:00","9.9","","7.9","","88","","0.0","","27","","19","","","","100.41","","","","","","NA"
"-61.70","49.09","HEATH POINT","7053038","2019-07-07 23:00","2019","07","07","23:00","9.7","","7.4","","86","","0.0","","26","","20","","","","100.44","","","","","","NA"
"-61.70","49.09","HEATH POINT","7053038","2019-07-08 00:00","2019","07","08","00:00","9.0","","7.4","","89","","0.0","","26","","20","","","","100.47","","","","","","NA"
"-61.70","49.09","HEATH POINT","7053038","2019-07-08 01:00","2019","07","08","01:00"
"-61.70","49.09","HEATH POINT","7053038","2019-07-08 02:00","2019","07","08","02:00","8.7","","7.8","","94","","0.0","","25","","17","","","","100.44","","","","","","NA"
"-61.70","49.09","HEATH POINT","7053038","2019-07-08 03:00","2019","07","08","03:00","9.0","","7.9","","93","","0.0","","26","","18","","","","100.43","","","","","","NA"
"-61.70","49.09","HEATH POINT","7053038","2019-07-08 04:00","2019","07","08","04:00","10.0","","8.8","","92","","0.0","","25","","28","","","","100.44","","","","","","NA"
"-61.70","49.09","HEATH POINT","7053038","2019-07-08 05:00","2019","07","08","05:00","10.9","","9.5","","91","","0.0","","26","","26","","","","100.42","","","","","","NA"
"-61.70","49.09","HEATH POINT","7053038","2019-07-08 06:00","2019","07","08","06:00","12.2","","9.9","","86","","0.0","","25","","26","","","","100.40","","","","","","NA"
"-61.70","49.09","HEATH POINT","7053038","2019-07-08 07:00","2019","07","08","07:00","13.5","","9.6","","77","","0.0","","25","","35","","","","100.37","","","","","","NA"
"-61.70","49.09","HEATH POINT","7053038","2019-07-08 08:00","2019","07","08","08:00","13.7","","10.1","","79","","0.0","","25","","32","","","","100.32","","","","","","NA"
"-61.70","49.09","HEATH POINT","7053038","2019-07-08 09:00","2019","07","08","09:00","13.7","","9.8","","77","","0.0","","25","","35","","","","100.28","","","","","","NA"
"-61.70","49.09","HEATH POINT","7053038","2019-07-08 10:00","2019","07","08","10:00","14.4","","10.0","","75","","0.0","","25","","40","","","","100.25","","","","","","NA"
"-61.70","49.09","HEATH POINT","7053038","2019-07-08 11:00","2019","07","08","11:00","14.1","","10.4","","79","","0.0","","24","","38","","","","100.23","","","","","","NA"
"-61.70","49.09","HEATH POINT","7053038","2019-07-08 12:00","2019","07","08","12:00","14.9","","10.8","","76","","0.0","","24","","37","","","","100.22","","","","","","NA"
"-61.70","49.09","HEATH POINT","7053038","2019-07-08 13:00","2019","07","08","13:00","14.4","","11.0","","80","","0.0","","23","","33","","","","100.18","","","","","","NA"
"-61.70","49.09","HEATH POINT","7053038","2019-07-08 14:00","2019","07","08","14:00","14.8","","10.8","","77","","0.0","","23","","34","","","","100.13","","","","","","NA"
"-61.70","49.09","HEATH POINT","7053038","2019-07-08 15:00","2019","07","08","15:00","15.5","","10.6","","72","","0.0","","24","","35","","","","100.10","","","","","","NA"
"-61.70","49.09","HEATH POINT","7053038","2019-07-08 16:00","2019","07","08","16:00","15.1","","10.5","","74","","0.0","","24","","35","","","","100.11","","","","","","NA"
"-61.70","49.09","HEATH POINT","7053038","2019-07-08 17:00","2019","07","08","17:00"
"-61.70","49.09","HEATH POINT","7053038","2019-07-08 18:00","2019","07","08","18:00","13.0","","10.4","","84","","0.0","","25","","28","","","","100.11","","","","","","NA"
"-61.70","49.09","HEATH POINT","7053038","2019-07-08 19:00","2019","07","08","19:00","13.4","","10.4","","82","","0.0","","25","","29","","","","100.14","","","","","","NA"
"-61.70","49.09","HEATH POINT","7053038","2019-07-08 20:00","2019","07","08","20:00","12.4","","10.1","","86","","0.0","","25","","27","","","","100.15","","","","","","NA"
"-61.70","49.09","HEATH POINT","7053038","2019-07-08 21:00","2019","07","08","21:00","12.2","","10.1","","87","","0.0","","25","","28","","","","100.12","","","","","","NA"
"-61.70","49.09","HEATH POINT","7053038","2019-07-08 22:00","2019","07","08","22:00","11.7","","9.9","","88","","0.0","","25","","26","","","","100.11","","","","","","NA"
"-61.70","49.09","HEATH POINT","7053038","2019-07-08 23:00","2019","07","08","23:00","11.5","","10.0","","90","","0.0","","25","","24","","","","100.03","","","","","","NA"
"-61.70","49.09","HEATH POINT","7053038","2019-07-09 00:00","2019","07","09","00:00","10.7","","9.5","","93","","0.0","","26","","24","","","","100.02","","","","","","NA"
"-61.70","49.09","HEATH POINT","7053038","2019-07-09 01:00","2019","07","09","01:00","10.5","","9.2","","92","","0.0","","26","","24","","","","100.07","","","","","","NA"
"-61.70","49.09","HEATH POINT","7053038","2019-07-09 02:00","2019","07","09","02:00","8.8","","7.3","","90","","0.0","","29","","15","","","","100.07","","","","","","NA"
"-61.70","49.09","HEATH POINT","7053038","2019-07-09 03:00","2019","07","09","03:00","11.5","","8.4","","81","","0.0","","32","","20","","","","100.11","","","","","","NA"
"-61.70","49.09","HEATH POINT","7053038","2019-07-09 04:00","2019","07","09","04:00","11.9","","8.8","","82","","0.0","","32","","18","","","","100.20","","","","","","NA"
"-61.70","49.09","HEATH POINT","7053038","2019-07-09 05:00","2019","07","09","05:00","12.8","","9.0","","78","","0.0","","32","","18","","","","100.24","","","","","","NA"
"-61.70","49.09","HEATH POINT","7053038","2019-07-09 06:00","2019","07","09","06:00","14.3","","9.0","","70","","0.0","","33","","21","","","","100.29","","","","","","NA"
"-61.70","49.09","HEATH POINT","7053038","2019-07-09 07:00","2019","07","09","07:00","14.4","","7.8","","64","","0.0","","33","","25","","","","100.32","","","","","","NA"
"-61.70","49.09","HEATH POINT","7053038","2019-07-09 08:00","2019","07","09","08:00","15.2","","8.4","","64","","0.0","","33","","23","","","","100.34","","","","","","NA"
"-61.70","49.09","HEATH POINT","7053038","2019-07-09 09:00","2019","07","09","09:00","15.9","","8.6","","62","","0.0","","32","","25","","","","100.37","","","","","","NA"
"-61.70","49.09","HEATH POINT","7053038","2019-07-09 10:00","2019","07","09","10:00","16.2","","7.9","","58","","0.0","","33","","26","","","","100.42","","","","","","NA"
"-61.70","49.09","HEATH POINT","7053038","2019-07-09 11:00","2019","07","09","11:00","17.0","","7.8","","54","","0.0","","32","","28","","","","100.47","","","","","","NA"
"-61.70","49.09","HEATH POINT","7053038","2019-07-09 12:00","2019","07","09","12:00","17.0","","7.7","","54","","0.0","","34","","15","","","","100.49","","","","","","NA"
"-61.70","49.09","HEATH POINT","7053038","2019-07-09 13:00","2019","07","09","13:00","15.4","","9.3","","67","","0.0","","1","","31","","","","100.50","","","","","","NA"
"-61.70","49.09","HEATH POINT","7053038","2019-07-09 14:00","2019","07","09","14:00","15.5","","8.1","","61","","0.0","","32","","29","","","","100.56","","","","","","NA"
"-61.70","49.09","HEATH POINT","7053038","2019-07-09 15:00","2019","07","09","15:00","15.6","","7.7","","60","","0.0","","34","","22","","","","100.60","","","","","","NA"
"-61.70","49.09","HEATH POINT","7053038","2019-07-09 16:00","2019","07","09","16:00","16.2","","6.8","","54","","0.0","","34","","27","","","","100.64","","","","","","NA"
"-61.70","49.09","HEATH POINT","7053038","2019-07-09 17:00","2019","07","09","17:00","15.5","","7.1","","57","","0.0","","34","","21","","","","100.71","","","","","","NA"
"-61.70","49.09","HEATH POINT","7053038","2019-07-09 18:00","2019","07","09","18:00","15.0","","7.1","","59","","0.0","","32","","22","","","","100.80","","","","","","NA"
"-61.70","49.09","HEATH POINT","7053038","2019-07-09 19:00","2019","07","09","19:00","13.6","","7.3","","65","","0.0","","33","","18","","","","100.87","","","","","","NA"
"-61.70","49.09","HEATH POINT","7053038","2019-07-09 20:00","2019","07","09","20:00","11.0","","7.3","","78","","0.0","","31","","14","","","","100.91","","","","","","NA"
"-61.70","49.09","HEATH POINT","7053038","2019-07-09 21:00","2019","07","09","21:00","9.5","","7.2","","86","","0.0","","31","","11","","","","100.90","","","","","","NA"
"-61.70","49.09","HEATH POINT","7053038","2019-07-09 22:00","2019","07","09","22:00","7.9","","6.0","","88","","0.0","","32","","12","","","","100.92","","","","","","NA"
"-61.70","49.09","HEATH POINT","7053038","2019-07-09 23:00","2019","07","09","23:00","9.7","","6.9","","83","","0.0","","33","","17","","","","100.93","","","","","","NA"
"-61.70","49.09","HEATH POINT","7053038","2019-07-10 00:00","2019","07","10","00:00","10.1","","7.4","","83","","0.0","","34","","21","","","","100.95","","","","","","NA"
"-61.70","49.09","HEATH POINT","7053038","2019-07-10 01:00","2019","07","10","01:00","10.5","","7.2","","80","","0.0","","35","","22","","","","100.99","","","","","","NA"
"-61.70","49.09","HEATH POINT","7053038","2019-07-10 02:00","2019","07","10","02:00","10.4","","6.3","","76","","0.0","","35","","15","","","","101.03","","","","","","NA"
"-61.70","49.09","HEATH POINT","7053038","2019-07-10 03:00","2019","07","10","03:00","7.7","","6.0","","89","","0.0","","28","","12","","","","101.06","","","","","","NA"
"-61.70","49.09","HEATH POINT","7053038","2019-07-10 04:00","2019","07","10","04:00","7.0","","5.5","","90","","0.0","","28","","14","","","","101.06","","","","","","NA"
"-61.70","49.09","HEATH POINT","7053038","2019-07-10 05:00","2019","07","10","05:00","8.5","","7.1","","91","","0.0","","29","","12","","","","101.07","","","","","","NA"
"-61.70","49.09","HEATH POINT","7053038","2019-07-10 06:00","2019","07","10","06:00","12.1","","7.7","","75","","0.0","","34","","26","","","","101.11","","","","","","NA"
"-61.70","49.09","HEATH POINT","7053038","2019-07-10 07:00","2019","07","10","07:00","12.3","","6.9","","69","","0.0","","35","","32","","","","101.14","","","","","","NA"
"-61.70","49.09","HEATH POINT","7053038","2019-07-10 08:00","2019","07","10","08:00","12.7","","7.0","","68","","0.0","","36","","35","","","","101.19","","","","","","NA"
"-61.70","49.09","HEATH POINT","7053038","2019-07-10 09:00","2019","07","10","09:00","13.1","","6.8","","66","","0.0","","35","","36","","","","101.20","","","","","","NA"
"-61.70","49.09","HEATH POINT","7053038","2019-07-10 10:00","2019","07","10","10:00","13.6","","7.5","","67","","0.0","","35","","36","","","","101.24","","","","","","NA"
"-61.70","49.09","HEATH POINT","7053038","2019-07-10 11:00","2019","07","10","11:00","14.4","","7.3","","63","","0.0","","35","","35","","","","101.24","","","","","","NA"
"-61.70","49.09","HEATH POINT","7053038","2019-07-10 12:00","2019","07","10","12:00","13.8","","7.1","","64","","0.0","","35","","34","","","","101.28","","","","","","NA"
"-61.70","49.09","HEATH POINT","7053038","2019-07-10 13:00","2019","07","10","13:00","14.6","","8.0","","65","","0.0","","35","","28","","","","101.27","","","","","","NA"
"-61.70","49.09","HEATH POINT","7053038","2019-07-10 14:00","2019","07","10","14:00","14.9","","7.9","","63","","0.0","","36","","28","","","","101.29","","","","","","NA"
"-61.70","49.09","HEATH POINT","7053038","2019-07-10 15:00","2019","07","10","15:00","15.1","","8.6","","65","","0.0","","1","","25","","","","101.29","","","","","","NA"
"-61.70","49.09","HEATH POINT","7053038","2019-07-10 16:00","2019","07","10","16:00","13.8","","9.8","","77","","0.0","","1","","24","","","","101.34","","","","","","NA"
"-61.70","49.09","HEATH POINT","7053038","2019-07-10 17:00","2019","07","10","17:00","13.2","","10.4","","83","","0.0","","2","","18","","","","101.40","","","","","","NA"
"-61.70","49.09","HEATH POINT","7053038","2019-07-10 18:00","2019","07","10","18:00","13.8","","9.1","","73","","0.0","","1","","20","","","","101.46","","","","","","NA"
"-61.70","49.09","HEATH POINT","7053038","2019-07-10 19:00","2019","07","10","19:00","12.9","","9.5","","80","","0.0","","3","","14","","","","101.52","","","","","","NA"
"-61.70","49.09","HEATH POINT","7053038","2019-07-10 20:00","2019","07","10","20:00","12.9","","9.1","","78","","0.0","","2","","10","","","","101.60","","","","","","NA"
"-61.70","49.09","HEATH POINT","7053038","2019-07-10 21:00","2019","07","10","21:00","12.6","","8.8","","77","","0.0","","36","","15","","","","101.63","","","","","","NA"
"-61.70","49.09","HEATH POINT","7053038","2019-07-10 22:00","2019","07","10","22:00","12.6","","8.9","","78","","0.0","","1","","19","","","","101.66","","","","","","NA"
"-61.70","49.09","HEATH POINT","7053038","2019-07-10 23:00","2019","07","10","23:00","12.4","","8.8","","79","","0.0","","36","","24","","","","101.68","","","","","","NA"
"-61.70","49.09","HEATH POINT","7053038","2019-07-11 00:00","2019","07","11","00:00","12.3","","8.9","","80","","0.0","","1","","29","","","","101.65","","","","","","NA"
"-61.70","49.09","HEATH POINT","7053038","2019-07-11 01:00","2019","07","11","01:00","12.0","","8.5","","79","","0.0","","2","","36","","","","101.62","","","","","","NA"
"-61.70","49.09","HEATH POINT","7053038","2019-07-11 02:00","2019","07","11","02:00","11.4","","8.3","","81","","0.0","","1","","26","","","","101.64","","","","","","NA"
"-61.70","49.09","HEATH POINT","7053038","2019-07-11 03:00","2019","07","11","03:00","11.1","","8.4","","83","","0.0","","1","","23","","","","101.65","","","","","","NA"
"-61.70","49.09","HEATH POINT","7053038","2019-07-11 04:00","2019","07","11","04:00","11.2","","8.3","","82","","0.0","","2","","28","","","","101.75","","","","","","NA"
"-61.70","49.09","HEATH POINT","7053038","2019-07-11 05:00","2019","07","11","05:00","11.5","","7.9","","79","","0.0","","1","","20","","","","101.81","","","","","","NA"
"-61.70","49.09","HEATH POINT","7053038","2019-07-11 06:00","2019","07","11","06:00","11.9","","8.0","","77","","0.0","","1","","26","","","","101.84","","","","","","NA"
"-61.70","49.09","HEATH POINT","7053038","2019-07-11 07:00","2019","07","11","07:00","12.2","","7.6","","74","","0.0","","1","","20","","","","101.88","","","","","","NA"
"-61.70","49.09","HEATH POINT","7053038","2019-07-11 08:00","2019","07","11","08:00","12.1","","7.8","","75","","0.0","","3","","19","","","","101.87","","","","","","NA"
"-61.70","49.09","HEATH POINT","7053038","2019-07-11 09:00","2019","07","11","09:00","11.9","","7.9","","77","","0.0","","4","","15","","","","101.83","","","","","","NA"
"-61.70","49.09","HEATH POINT","7053038","2019-07-11 10:00","2019","07","11","10:00","11.6","","8.1","","79","","0.0","","5","","18","","","","101.79","","","","","","NA"
"-61.70","49.09","HEATH POINT","7053038","2019-07-11 11:00","2019","07","11","11:00","12.0","","8.3","","78","","0.0","","7","","12","","","","101.76","","","","","","NA"
"-61.70","49.09","HEATH POINT","7053038","2019-07-11 12:00","2019","07","11","12:00","12.5","","8.8","","78","","0.0","","9","","11","","","","101.74","","","","","","NA"
"-61.70","49.09","HEATH POINT","7053038","2019-07-11 13:00","2019","07","11","13:00","12.2","","8.5","","78","","0.0","","14","","11","","","","101.72","","","","","","NA"
"-61.70","49.09","HEATH POINT","7053038","2019-07-11 14:00","2019","07","11","14:00","12.4","","8.4","","76","","0.0","","18","","13","","","","101.71","","","","","","NA"
"-61.70","49.09","HEATH POINT","7053038","2019-07-11 15:00","2019","07","11","15:00","12.5","","9.0","","79","","0.0","","19","","17","","","","101.66","","","","","","NA"
"-61.70","49.09","HEATH POINT","7053038","2019-07-11 16:00","2019","07","11","16:00","12.2","","9.2","","82","","0.0","","18","","18","","","","101.62","","","","","","NA"
"-61.70","49.09","HEATH POINT","7053038","2019-07-11 17:00","2019","07","11","17:00","11.8","","9.2","","84","","0.0","","17","","20","","","","101.60","","","","","","NA"
"-61.70","49.09","HEATH POINT","7053038","2019-07-11 18:00","2019","07","11","18:00","12.0","","9.6","","85","","0.0","","21","","20","","","","101.65","","","","","","NA"
"-61.70","49.09","HEATH POINT","7053038","2019-07-11 19:00","2019","07","11","19:00","11.8","","9.3","","85","","0.0","","21","","16","","","","101.57","","","","","","NA"
"-61.70","49.09","HEATH POINT","7053038","2019-07-11 20:00","2019","07","11","20:00","11.6","","9.6","","88","","0.0","","22","","17","","","","101.61","","","","","","NA"
"-61.70","49.09","HEATH POINT","7053038","2019-07-11 21:00","2019","07","11","21:00","11.7","","9.8","","88","","0.0","","21","","19","","","","101.60","","","","","","NA"
"-61.70","49.09","HEATH POINT","7053038","2019-07-11 22:00","2019","07","11","22:00","11.7","","9.9","","88","","0.0","","19","","17","","","","101.54","","","","","","NA"
"-61.70","49.09","HEATH POINT","7053038","2019-07-11 23:00","2019","07","11","23:00","11.6","","9.8","","88","","0.0","","20","","15","","","","101.52","","","","","","NA"
"-61.70","49.09","HEATH POINT","7053038","2019-07-12 00:00","2019","07","12","00:00","11.7","","9.9","","89","","0.0","","19","","16","","","","101.49","","","","","","NA"
"-61.70","49.09","HEATH POINT","7053038","2019-07-12 01:00","2019","07","12","01:00","11.7","","9.8","","88","","0.0","","18","","18","","","","101.48","","","","","","NA"
"-61.70","49.09","HEATH POINT","7053038","2019-07-12 02:00","2019","07","12","02:00","11.6","","9.7","","88","","0.0","","17","","20","","","","101.48","","","","","","NA"
"-61.70","49.09","HEATH POINT","7053038","2019-07-12 03:00","2019","07","12","03:00","11.6","","10.1","","91","","0.0","","17","","22","","","","101.46","","","","","","NA"
"-61.70","49.09","HEATH POINT","7053038","2019-07-12 04:00","2019","07","12","04:00","11.5","","10.2","","92","","0.0","","16","","24","","","","101.45","","","","","","NA"
"-61.70","49.09","HEATH POINT","7053038","2019-07-12 05:00","2019","07","12","05:00","11.6","","10.3","","92","","0.0","","16","","25","","","","101.41","","","","","","NA"
"-61.70","49.09","HEATH POINT","7053038","2019-07-12 06:00","2019","07","12","06:00","11.6","","10.2","","91","","0.0","","16","","27","","","","101.42","","","","","","NA"
"-61.70","49.09","HEATH POINT","7053038","2019-07-12 07:00","2019","07","12","07:00","11.7","","10.1","","90","","0.0","","16","","27","","","","101.42","","","","","","NA"
"-61.70","49.09","HEATH POINT","7053038","2019-07-12 08:00","2019","07","12","08:00","11.9","","9.5","","85","","0.0","","15","","28","","","","101.42","","","","","","NA"
"-61.70","49.09","HEATH POINT","7053038","2019-07-12 09:00","2019","07","12","09:00","11.7","","9.6","","87","","0.0","","14","","25","","","","101.44","","","","","","NA"
"-61.70","49.09","HEATH POINT","7053038","2019-07-12 10:00","2019","07","12","10:00","11.8","","9.7","","87","","0.0","","15","","27","","","","101.40","","","","","","NA"
"-61.70","49.09","HEATH POINT","7053038","2019-07-12 11:00","2019","07","12","11:00","11.9","","10.2","","89","","0.0","","15","","36","","","","101.35","","","","","","NA"
"-61.70","49.09","HEATH POINT","7053038","2019-07-12 12:00","2019","07","12","12:00","12.0","","10.4","","90","","0.0","","16","","36","","","","101.35","","","","","","NA"
"-61.70","49.09","HEATH POINT","7053038","2019-07-12 13:00","2019","07","12","13:00","12.2","","10.7","","91","","0.0","","17","","34","","","","101.38","","","","","","NA"
"-61.70","49.09","HEATH POINT","7053038","2019-07-12 14:00","2019","07","12","14:00","12.2","","11.1","","93","","0.0","","17","","33","","","","101.37","","","","","","NA"
"-61.70","49.09","HEATH POINT","7053038","2019-07-12 15:00","2019","07","12","15:00","12.3","","11.3","","94","","0.0","","16","","33","","","","101.31","","","","","","NA"
"-61.70","49.09","HEATH POINT","7053038","2019-07-12 16:00","2019","07","12","16:00","12.4","","11.4","","94","","0.0","","17","","30","","","","101.32","","","","","","NA"
"-61.70","49.09","HEATH POINT","7053038","2019-07-12 17:00","2019","07","12","17:00","12.3","","11.4","","94","","0.0","","17","","28","","","","101.31","","","","","","NA"
"-61.70","49.09","HEATH POINT","7053038","2019-07-12 18:00","2019","07","12","18:00","12.1","","11.3","","95","","0.0","","16","","22","","","","101.31","","","","","","NA"
"-61.70","49.09","HEATH POINT","7053038","2019-07-12 19:00","2019","07","12","19:00","11.9","","11.1","","95","","0.0","","16","","23","","","","101.34","","","","","","NA"
"-61.70","49.09","HEATH POINT","7053038","2019-07-12 20:00","2019","07","12","20:00","11.8","","11.0","","95","","0.0","","15","","23","","","","101.36","","","","","","NA"
"-61.70","49.09","HEATH POINT","7053038","2019-07-12 21:00","2019","07","12","21:00","11.8","","11.0","","95","","0.0","","16","","25","","","","101.34","","","","","","NA"
"-61.70","49.09","HEATH POINT","7053038","2019-07-12 22:00","2019","07","12","22:00","11.6","","10.8","","95","","0.0","","15","","24","","","","101.27","","","","","","NA"
"-61.70","49.09","HEATH POINT","7053038","2019-07-12 23:00","2019","07","12","23:00","11.6","","10.9","","95","","0.0","","15","","30","","","","101.21","","","","","","NA"
"-61.70","49.09","HEATH POINT","7053038","2019-07-13 00:00","2019","07","13","00:00","11.5","","10.8","","96","","0.0","","15","","27","","","","101.15","","","","","","NA"
"-61.70","49.09","HEATH POINT","7053038","2019-07-13 01:00","2019","07","13","01:00","11.5","","10.8","","96","","0.0","","14","","27","","","","101.09","","","","","","NA"
"-61.70","49.09","HEATH POINT","7053038","2019-07-13 02:00","2019","07","13","02:00","11.8","","11.0","","95","","0.0","","14","","33","","","","101.06","","","","","","NA"
"-61.70","49.09","HEATH POINT","7053038","2019-07-13 03:00","2019","07","13","03:00","11.8","","11.0","","95","","0.0","","15","","37","","","","101.00","","","","","","NA"
"-61.70","49.09","HEATH POINT","7053038","2019-07-13 04:00","2019","07","13","04:00","11.9","","11.0","","94","","0.0","","15","","42","","","","100.98","","","","","","NA"
"-61.70","49.09","HEATH POINT","7053038","2019-07-13 05:00","2019","07","13","05:00","11.9","","11.2","","95","","0.0","","15","","43","","","","100.98","","","","","","NA"
"-61.70","49.09","HEATH POINT","7053038","2019-07-13 06:00","2019","07","13","06:00","11.9","","11.2","","96","","0.0","","16","","41","","","","101.00","","","","","","NA"
"-61.70","49.09","HEATH POINT","7053038","2019-07-13 07:00","2019","07","13","07:00","11.9","","11.3","","97","","0.0","","16","","39","","","","101.03","","","","","","NA"
"-61.70","49.09","HEATH POINT","7053038","2019-07-13 08:00","2019","07","13","08:00","12.0","","11.6","","97","","0.0","","16","","39","","","","101.03","","","","","","NA"
"-61.70","49.09","HEATH POINT","7053038","2019-07-13 09:00","2019","07","13","09:00","12.0","","11.6","","97","","0.0","","16","","40","","","","101.03","","","","","","NA"
"-61.70","49.09","HEATH POINT","7053038","2019-07-13 10:00","2019","07","13","10:00","12.0","","11.6","","98","","0.0","","16","","36","","","","101.05","","","","","","NA"
"-61.70","49.09","HEATH POINT","7053038","2019-07-13 11:00","2019","07","13","11:00","12.2","","11.6","","96","","0.0","","16","","34","","","","101.06","","","","","","NA"
"-61.70","49.09","HEATH POINT","7053038","2019-07-13 12:00","2019","07","13","12:00","12.0","","11.4","","96","","0.0","","16","","33","","","","101.08","","","","","","NA"
"-61.70","49.09","HEATH POINT","7053038","2019-07-13 13:00","2019","07","13","13:00","12.0","","11.1","","94","","0.0","","17","","27","","","","101.08","","","","","","NA"
"-61.70","49.09","HEATH POINT","7053038","2019-07-13 14:00","2019","07","13","14:00","11.9","","10.9","","94","","0.0","","16","","26","","","","101.09","","","","","","NA"
"-61.70","49.09","HEATH POINT","7053038","2019-07-13 15:00","2019","07","13","15:00","12.2","","10.7","","90","","0.0","","16","","30","","","","101.06","","","","","","NA"
"-61.70","49.09","HEATH POINT","7053038","2019-07-13 16:00","2019","07","13","16:00","12.1","","10.7","","91","","0.0","","15","","28","","","","101.04","","","","","","NA"
"-61.70","49.09","HEATH POINT","7053038","2019-07-13 17:00","2019","07","13","17:00","12.0","","10.8","","93","","0.0","","16","","32","","","","101.03","","","","","","NA"
"-61.70","49.09","HEATH POINT","7053038","2019-07-13 18:00","2019","07","13","18:00","12.2","","10.9","","92","","0.0","","16","","31","","","","101.04","","","","","","NA"
"-61.70","49.09","HEATH POINT","7053038","2019-07-13 19:00","2019","07","13","19:00","12.3","","11.4","","94","","0.0","","16","","30","","","","101.06","","","","","","NA"
"-61.70","49.09","HEATH POINT","7053038","2019-07-13 20:00","2019","07","13","20:00","12.0","","11.2","","95","","0.0","","17","","33","","","","101.09","","","","","","NA"
"-61.70","49.09","HEATH POINT","7053038","2019-07-13 21:00","2019","07","13","21:00","11.9","","11.1","","95","","0.0","","15","","30","","","","101.05","","","","","","NA"
"-61.70","49.09","HEATH POINT","7053038","2019-07-13 22:00","2019","07","13","22:00","11.9","","11.0","","94","","0.0","","16","","27","","","","101.05","","","","","","NA"
"-61.70","49.09","HEATH POINT","7053038","2019-07-13 23:00","2019","07","13","23:00","11.9","","11.0","","94","","0.0","","17","","32","","","","101.03","","","","","","NA"
"-61.70","49.09","HEATH POINT","7053038","2019-07-14 00:00","2019","07","14","00:00","11.8","","11.0","","95","","0.0","","17","","25","","","","101.01","","","","","","NA"
"-61.70","49.09","HEATH POINT","7053038","2019-07-14 01:00","2019","07","14","01:00","11.8","","11.0","","95","","0.0","","17","","24","","","","100.99","","","","","","NA"
"-61.70","49.09","HEATH POINT","7053038","2019-07-14 02:00","2019","07","14","02:00","11.9","","11.1","","95","","0.0","","18","","21","","","","100.99","","","","","","NA"
"-61.70","49.09","HEATH POINT","7053038","2019-07-14 03:00","2019","07","14","03:00","11.9","","11.2","","96","","0.0","","18","","22","","","","100.98","","","","","","NA"
"-61.70","49.09","HEATH POINT","7053038","2019-07-14 04:00","2019","07","14","04:00","11.9","","11.3","","96","","0.0","","17","","23","","","","100.97","","","","","","NA"
"-61.70","49.09","HEATH POINT","7053038","2019-07-14 05:00","2019","07","14","05:00","11.8","","11.3","","97","","0.0","","15","","16","","","","100.97","","","","","","NA"
"-61.70","49.09","HEATH POINT","7053038","2019-07-14 06:00","2019","07","14","06:00","12.0","","11.4","","96","","0.0","","15","","18","","","","100.97","","","","","","NA"
"-61.70","49.09","HEATH POINT","7053038","2019-07-14 07:00","2019","07","14","07:00","11.9","","11.3","","96","","0.0","","14","","17","","","","100.96","","","","","","NA"
"-61.70","49.09","HEATH POINT","7053038","2019-07-14 08:00","2019","07","14","08:00","11.6","","10.9","","96","","0.0","","15","","25","","","","100.94","","","","","","NA"
"-61.70","49.09","HEATH POINT","7053038","2019-07-14 09:00","2019","07","14","09:00","11.0","","10.5","","97","","0.0","","14","","22","","","","100.89","","","","","","NA"
"-61.70","49.09","HEATH POINT","7053038","2019-07-14 10:00","2019","07","14","10:00","10.8","","10.2","","97","","0.0","","13","","19","","","","100.88","","","","","","NA"
"-61.70","49.09","HEATH POINT","7053038","2019-07-14 11:00","2019","07","14","11:00","11.3","","10.7","","96","","0.0","","13","","12","","","","100.84","","","","","","NA"
"-61.70","49.09","HEATH POINT","7053038","2019-07-14 12:00","2019","07","14","12:00","11.7","","11.1","","96","","0.0","","13","","20","","","","100.78","","","","","","NA"
"-61.70","49.09","HEATH POINT","7053038","2019-07-14 13:00","2019","07","14","13:00","11.8","","11.1","","96","","0.0","","13","","18","","","","100.74","","","","","","NA"
"-61.70","49.09","HEATH POINT","7053038","2019-07-14 14:00","2019","07","14","14:00","11.9","","11.3","","96","","0.0","","13","","24","","","","100.67","","","","","","NA"
"-61.70","49.09","HEATH POINT","7053038","2019-07-14 15:00","2019","07","14","15:00","11.8","","11.3","","97","","0.0","","13","","19","","","","100.70","","","","","","NA"
"-61.70","49.09","HEATH POINT","7053038","2019-07-14 16:00","2019","07","14","16:00","11.7","","11.3","","97","","0.0","","11","","20","","","","100.61","","","","","","NA"
"-61.70","49.09","HEATH POINT","7053038","2019-07-14 17:00","2019","07","14","17:00","11.9","","11.4","","97","","0.0","","12","","19","","","","100.56","","","","","","NA"
"-61.70","49.09","HEATH POINT","7053038","2019-07-14 18:00","2019","07","14","18:00","11.9","","11.4","","97","","0.0","","12","","24","","","","100.52","","","","","","NA"
"-61.70","49.09","HEATH POINT","7053038","2019-07-14 19:00","2019","07","14","19:00","12.1","","11.7","","97","","0.0","","13","","16","","","","100.50","","","","","","NA"
"-61.70","49.09","HEATH POINT","7053038","2019-07-14 20:00","2019","07","14","20:00","12.6","","12.2","","98","","0.0","","16","","24","","","","100.50","","","","","","NA"
"-61.70","49.09","HEATH POINT","7053038","2019-07-14 21:00","2019","07","14","21:00","12.9","","12.5","","97","","0.0","","16","","32","","","","100.45","","","","","","NA"
"-61.70","49.09","HEATH POINT","7053038","2019-07-14 22:00","2019","07","14","22:00","12.2","","11.7","","97","","0.0","","15","","26","","","","100.40","","","","","","NA"
"-61.70","49.09","HEATH POINT","7053038","2019-07-14 23:00","2019","07","14","23:00","12.2","","11.8","","97","","0.0","","16","","24","","","","100.36","","","","","","NA"
"-61.70","49.09","HEATH POINT","7053038","2019-07-15 00:00","2019","07","15","00:00","12.1","","11.7","","98","","0.0","","17","","19","","","","100.34","","","","","","NA"
"-61.70","49.09","HEATH POINT","7053038","2019-07-15 01:00","2019","07","15","01:00","11.6","","11.3","","98","","0.0","","15","","4","","","","100.28","","","","","","NA"
"-61.70","49.09","HEATH POINT","7053038","2019-07-15 02:00","2019","07","15","02:00","10.8","","10.6","","99","","0.0","","9","","7","","","","100.28","","","","","","NA"
"-61.70","49.09","HEATH POINT","7053038","2019-07-15 03:00","2019","07","15","03:00","11.6","","11.4","","99","","0.0","","13","","7","","","","100.27","","","","","","NA"
"-61.70","49.09","HEATH POINT","7053038","2019-07-15 04:00","2019","07","15","04:00","11.6","","11.5","","99","","0.0","","14","","5","","","","100.27","","","","","","NA"
"-61.70","49.09","HEATH POINT","7053038","2019-07-15 05:00","2019","07","15","05:00","11.8","","11.7","","99","","0.0","","15","","1","","","","100.29","","","","","","NA"
"-61.70","49.09","HEATH POINT","7053038","2019-07-15 06:00","2019","07","15","06:00","11.9","","11.8","","99","","0.0","","19","","8","","","","100.31","","","","","","NA"
"-61.70","49.09","HEATH POINT","7053038","2019-07-15 07:00","2019","07","15","07:00","12.5","","12.3","","99","","0.0","","22","","7","","","","100.33","","","","","","NA"
"-61.70","49.09","HEATH POINT","7053038","2019-07-15 08:00","2019","07","15","08:00","12.3","","12.2","","99","","0.0","","22","","7","","","","100.36","","","","","","NA"
"-61.70","49.09","HEATH POINT","7053038","2019-07-15 09:00","2019","07","15","09:00","13.1","","13.0","","99","","0.0","","23","","7","","","","100.36","","","","","","NA"
"-61.70","49.09","HEATH POINT","7053038","2019-07-15 10:00","2019","07","15","10:00","12.9","","12.8","","99","","0.0","","22","","9","","","","100.37","","","","","","NA"
"-61.70","49.09","HEATH POINT","7053038","2019-07-15 11:00","2019","07","15","11:00","13.6","","13.4","","99","","0.0","","29","","10","","","","100.39","","","","","","NA"
"-61.70","49.09","HEATH POINT","7053038","2019-07-15 12:00","2019","07","15","12:00","11.8","","11.5","","98","","0.0","","3","","14","","","","100.42","","","","","","NA"
"-61.70","49.09","HEATH POINT","7053038","2019-07-15 13:00","2019","07","15","13:00","12.9","","12.4","","97","","0.0","","2","","21","","","","100.41","","","","","","NA"
"-61.70","49.09","HEATH POINT","7053038","2019-07-15 14:00","2019","07","15","14:00","14.0","","13.1","","94","","0.0","","1","","15","","","","100.45","","","","","","NA"
"-61.70","49.09","HEATH POINT","7053038","2019-07-15 15:00","2019","07","15","15:00","12.5","","11.6","","94","","0.0","","1","","18","","","","100.48","","","","","","NA"
"-61.70","49.09","HEATH POINT","7053038","2019-07-15 16:00","2019","07","15","16:00","14.5","","13.4","","93","","0.0","","34","","14","","","","100.49","","","","","","NA"
"-61.70","49.09","HEATH POINT","7053038","2019-07-15 17:00","2019","07","15","17:00","13.8","","12.5","","92","","0.0","","34","","18","","","","100.52","","","","","","NA"
"-61.70","49.09","HEATH POINT","7053038","2019-07-15 18:00","2019","07","15","18:00","13.2","","12.4","","95","","0.0","","35","","16","","","","100.59","","","","","","NA"
"-61.70","49.09","HEATH POINT","7053038","2019-07-15 19:00","2019","07","15","19:00","13.4","","12.8","","96","","0.0","","34","","19","","","","100.65","","","","","","NA"
"-61.70","49.09","HEATH POINT","7053038","2019-07-15 20:00","2019","07","15","20:00","13.1","","12.1","","94","","0.0","","35","","14","","","","100.71","","","","","","NA"
"-61.70","49.09","HEATH POINT","7053038","2019-07-15 21:00","2019","07","15","21:00","12.9","","12.3","","96","","0.0","","33","","9","","","","100.74","","","","","","NA"
"-61.70","49.09","HEATH POINT","7053038","2019-07-15 22:00","2019","07","15","22:00","12.4","","11.7","","96","","0.0","","29","","3","","","","100.74","","","","","","NA"
"-61.70","49.09","HEATH POINT","7053038","2019-07-15 23:00","2019","07","15","23:00","12.4","","12.0","","98","","0.0","","25","","12","","","","100.76","","","","","","NA"
"-61.70","49.09","HEATH POINT","7053038","2019-07-16 00:00","2019","07","16","00:00","13.3","","13.0","","98","","0.0","","28","","8","","","","100.78","","","","","","NA"
"-61.70","49.09","HEATH POINT","7053038","2019-07-16 01:00","2019","07","16","01:00","12.6","","12.2","","98","","0.0","","27","","11","","","","100.75","","","","","","NA"
"-61.70","49.09","HEATH POINT","7053038","2019-07-16 02:00","2019","07","16","02:00","12.3","","12.0","","98","","0.0","","25","","7","","","","100.76","","","","","","NA"
"-61.70","49.09","HEATH POINT","7053038","2019-07-16 03:00","2019","07","16","03:00","12.2","","11.8","","98","","0.0","","22","","9","","","","100.76","","","","","","NA"
"-61.70","49.09","HEATH POINT","7053038","2019-07-16 04:00","2019","07","16","04:00","11.8","","11.5","","98","","0.0","","24","","12","","","","100.84","","","","","","NA"
"-61.70","49.09","HEATH POINT","7053038","2019-07-16 05:00","2019","07","16","05:00","11.8","","11.5","","98","","0.0","","25","","10","","","","100.87","","","","","","NA"
"-61.70","49.09","HEATH POINT","7053038","2019-07-16 06:00","2019","07","16","06:00","13.7","","13.4","","98","","0.0","","27","","4","","","","100.93","","","","","","NA"
"-61.70","49.09","HEATH POINT","7053038","2019-07-16 07:00","2019","07","16","07:00","16.6","","15.3","","92","","0.0","","2","","8","","","","100.97","","","","","","NA"
"-61.70","49.09","HEATH POINT","7053038","2019-07-16 08:00","2019","07","16","08:00","18.1","","14.3","","78","","0.0","","35","","20","","","","101.00","","","","","","NA"
"-61.70","49.09","HEATH POINT","7053038","2019-07-16 09:00","2019","07","16","09:00","15.2","","12.0","","81","","0.0","","3","","23","","","","101.01","","","","","","NA"
"-61.70","49.09","HEATH POINT","7053038","2019-07-16 10:00","2019","07","16","10:00","15.2","","12.5","","84","","0.0","","2","","22","","","","101.04","","","","","","NA"
"-61.70","49.09","HEATH POINT","7053038","2019-07-16 11:00","2019","07","16","11:00","15.9","","13.8","","88","","0.0","","22","","20","","","","101.03","","","","","","NA"
"-61.70","49.09","HEATH POINT","7053038","2019-07-16 12:00","2019","07","16","12:00","13.5","","11.6","","88","","0.0","","17","","17","","","","101.05","","","","","","NA"
"-61.70","49.09","HEATH POINT","7053038","2019-07-16 13:00","2019","07","16","13:00","13.4","","11.3","","87","","0.0","","13","","13","","","","101.05","","","","","","NA"
"-61.70","49.09","HEATH POINT","7053038","2019-07-16 14:00","2019","07","16","14:00","14.0","","12.5","","90","","0.0","","15","","12","","","","101.03","","","","","","NA"
"-61.70","49.09","HEATH POINT","7053038","2019-07-16 15:00","2019","07","16","15:00","14.5","","13.2","","92","","0.0","","16","","11","","","","101.01","","","","","","NA"
"-61.70","49.09","HEATH POINT","7053038","2019-07-16 16:00","2019","07","16","16:00","14.3","","13.0","","92","","0.0","","17","","20","","","","101.01","","","","","","NA"
"-61.70","49.09","HEATH POINT","7053038","2019-07-16 17:00","2019","07","16","17:00","14.5","","13.3","","93","","0.0","","19","","20","","","","101.01","","","","","","NA"
"-61.70","49.09","HEATH POINT","7053038","2019-07-16 18:00","2019","07","16","18:00","14.7","","13.0","","90","","0.0","","20","","21","","","","101.00","","","","","","NA"
"-61.70","49.09","HEATH POINT","7053038","2019-07-16 19:00","2019","07","16","19:00","14.2","","13.1","","93","","0.0","","19","","20","","","","101.00","","","","","","NA"
"-61.70","49.09","HEATH POINT","7053038","2019-07-16 20:00","2019","07","16","20:00","14.2","","13.3","","94","","0.0","","20","","18","","","","100.99","","","","","","NA"
"-61.70","49.09","HEATH POINT","7053038","2019-07-16 21:00","2019","07","16","21:00","14.0","","13.2","","95","","0.0","","20","","15","","","","100.99","","","","","","NA"
"-61.70","49.09","HEATH POINT","7053038","2019-07-16 22:00","2019","07","16","22:00","13.7","","12.8","","94","","0.0","","20","","15","","","","100.95","","","","","","NA"
"-61.70","49.09","HEATH POINT","7053038","2019-07-16 23:00","2019","07","16","23:00","13.3","","12.3","","94","","0.0","","18","","14","","","","100.93","","","","","","NA"
"-61.70","49.09","HEATH POINT","7053038","2019-07-17 00:00","2019","07","17","00:00","12.0","","11.1","","94","","0.0","","13","","11","","","","100.85","","","","","","NA"
"-61.70","49.09","HEATH POINT","7053038","2019-07-17 01:00","2019","07","17","01:00","13.8","","12.6","","92","","0.0","","24","","4","","","","100.81","","","","","","NA"
"-61.70","49.09","HEATH POINT","7053038","2019-07-17 02:00","2019","07","17","02:00","14.6","","13.0","","90","","0.0","","18","","24","","","","100.70","","","","","","NA"
"-61.70","49.09","HEATH POINT","7053038","2019-07-17 03:00","2019","07","17","03:00","13.7","","12.4","","92","","0.0","","20","","11","","","","100.70","","","","","","NA"
"-61.70","49.09","HEATH POINT","7053038","2019-07-17 04:00","2019","07","17","04:00","14.1","","12.9","","93","","0.0","","21","","22","","","","100.67","","","","","","NA"
"-61.70","49.09","HEATH POINT","7053038","2019-07-17 05:00","2019","07","17","05:00","14.1","","13.0","","93","","0.0","","23","","16","","","","100.68","","","","","","NA"
"-61.70","49.09","HEATH POINT","7053038","2019-07-17 06:00","2019","07","17","06:00","15.1","","14.0","","93","","0.0","","23","","17","","","","100.71","","","","","","NA"
"-61.70","49.09","HEATH POINT","7053038","2019-07-17 07:00","2019","07","17","07:00","14.6","","13.2","","91","","0.0","","20","","28","","","","100.65","","","","","","NA"
"-61.70","49.09","HEATH POINT","7053038","2019-07-17 08:00","2019","07","17","08:00","15.1","","13.0","","88","","0.0","","19","","28","","","","100.64","","","","","","NA"
"-61.70","49.09","HEATH POINT","7053038","2019-07-17 09:00","2019","07","17","09:00","14.7","","12.6","","88","","0.0","","19","","32","","","","100.59","","","","","","NA"
"-61.70","49.09","HEATH POINT","7053038","2019-07-17 10:00","2019","07","17","10:00","14.7","","12.6","","87","","0.0","","19","","36","","","","100.53","","","","","","NA"
"-61.70","49.09","HEATH POINT","7053038","2019-07-17 11:00","2019","07","17","11:00","14.7","","12.9","","89","","0.0","","19","","34","","","","100.45","","","","","","NA"
"-61.70","49.09","HEATH POINT","7053038","2019-07-17 12:00","2019","07","17","12:00","14.8","","12.9","","89","","0.0","","19","","31","","","","100.39","","","","","","NA"
"-61.70","49.09","HEATH POINT","7053038","2019-07-17 13:00","2019","07","17","13:00","14.4","","12.8","","90","","0.0","","19","","24","","","","100.37","","","","","","NA"
"-61.70","49.09","HEATH POINT","7053038","2019-07-17 14:00","2019","07","17","14:00","15.0","","13.2","","89","","0.0","","20","","16","","","","100.32","","","","","","NA"
"-61.70","49.09","HEATH POINT","7053038","2019-07-17 15:00","2019","07","17","15:00","14.9","","13.5","","92","","0.0","","21","","29","","","","100.25","","","","","","NA"
"-61.70","49.09","HEATH POINT","7053038","2019-07-17 16:00","2019","07","17","16:00","15.1","","13.9","","93","","0.0","","25","","19","","","","100.24","","","","","","NA"
"-61.70","49.09","HEATH POINT","7053038","2019-07-17 17:00","2019","07","17","17:00","14.9","","13.8","","93","","0.0","","24","","21","","","","100.26","","","","","","NA"
"-61.70","49.09","HEATH POINT","7053038","2019-07-17 18:00","2019","07","17","18:00","14.2","","13.5","","96","","0.0","","24","","19","","","","100.24","","","","","","NA"
"-61.70","49.09","HEATH POINT","7053038","2019-07-17 19:00","2019","07","17","19:00","14.7","","14.1","","96","","0.0","","26","","22","","","","100.21","","","","","","NA"
"-61.70","49.09","HEATH POINT","7053038","2019-07-17 20:00","2019","07","17","20:00","14.1","","13.6","","97","","0.0","","25","","20","","","","100.22","","","","","","NA"
"-61.70","49.09","HEATH POINT","7053038","2019-07-17 21:00","2019","07","17","21:00","16.0","","14.1","","89","","0.0","","28","","15","","","","100.26","","","","","","NA"
"-61.70","49.09","HEATH POINT","7053038","2019-07-17 22:00","2019","07","17","22:00","16.8","","8.5","","58","","0.0","","31","","30","","","","100.33","","","","","","NA"
"-61.70","49.09","HEATH POINT","7053038","2019-07-17 23:00","2019","07","17","23:00","15.9","","7.6","","58","","0.0","","32","","32","","","","100.35","","","","","","NA"
"-61.70","49.09","HEATH POINT","7053038","2019-07-18 00:00","2019","07","18","00:00","14.1","","8.5","","69","","0.0","","32","","21","","","","100.42","","","","","","NA"
"-61.70","49.09","HEATH POINT","7053038","2019-07-18 01:00","2019","07","18","01:00","13.4","","7.0","","65","","0.0","","32","","29","","","","100.46","","","","","","NA"
"-61.70","49.09","HEATH POINT","7053038","2019-07-18 02:00","2019","07","18","02:00","13.3","","6.4","","63","","0.0","","33","","32","","","","100.50","","","","","","NA"
"-61.70","49.09","HEATH POINT","7053038","2019-07-18 03:00","2019","07","18","03:00","12.5","","7.0","","69","","0.0","","32","","26","","","","100.63","","","","","","NA"
"-61.70","49.09","HEATH POINT","7053038","2019-07-18 04:00","2019","07","18","04:00","11.5","","6.4","","71","","0.0","","30","","22","","","","100.71","","","","","","NA"
"-61.70","49.09","HEATH POINT","7053038","2019-07-18 05:00","2019","07","18","05:00","13.5","","7.1","","65","","0.0","","30","","30","","","","100.71","","","","","","NA"
"-61.70","49.09","HEATH POINT","7053038","2019-07-18 06:00","2019","07","18","06:00","15.4","","7.9","","61","","0.0","","31","","32","","","","100.78","","","","","","NA"
"-61.70","49.09","HEATH POINT","7053038","2019-07-18 07:00","2019","07","18","07:00","17.0","","7.8","","55","","0.0","","31","","28","","","","100.78","","","","","","NA"
"-61.70","49.09","HEATH POINT","7053038","2019-07-18 08:00","2019","07","18","08:00","17.8","","8.0","","53","","0.0","","32","","30","","","","100.75","","","","","","NA"
"-61.70","49.09","HEATH POINT","7053038","2019-07-18 09:00","2019","07","18","09:00","19.2","","8.1","","49","","0.0","","30","","24","","","","100.72","","","","","","NA"
"-61.70","49.09","HEATH POINT","7053038","2019-07-18 10:00","2019","07","18","10:00","15.2","","10.8","","75","","0.0","","25","","33","","","","100.71","","","","","","NA"
"-61.70","49.09","HEATH POINT","7053038","2019-07-18 11:00","2019","07","18","11:00","17.8","","9.9","","60","","0.0","","29","","16","","","","100.70","","","","","","NA"
"-61.70","49.09","HEATH POINT","7053038","2019-07-18 12:00","2019","07","18","12:00","19.7","","8.0","","47","","0.0","","32","","27","","","","100.67","","","","","","NA"
"-61.70","49.09","HEATH POINT","7053038","2019-07-18 13:00","2019","07","18","13:00","18.7","","8.0","","50","","0.0","","30","","18","","","","100.68","","","","","","NA"
"-61.70","49.09","HEATH POINT","7053038","2019-07-18 14:00","2019","07","18","14:00","17.2","","11.4","","68","","0.0","","26","","32","","","","100.68","","","","","","NA"
"-61.70","49.09","HEATH POINT","7053038","2019-07-18 15:00","2019","07","18","15:00","16.1","","10.7","","70","","0.0","","25","","38","","","","100.66","","","","","","NA"
"-61.70","49.09","HEATH POINT","7053038","2019-07-18 16:00","2019","07","18","16:00","16.1","","10.6","","70","","0.0","","26","","36","","","","100.69","","","","","","NA"
"-61.70","49.09","HEATH POINT","7053038","2019-07-18 17:00","2019","07","18","17:00","16.3","","10.7","","70","","0.0","","25","","30","","","","100.73","","","","","","NA"
"-61.70","49.09","HEATH POINT","7053038","2019-07-18 18:00","2019","07","18","18:00","13.9","","10.6","","81","","0.0","","25","","27","","","","100.77","","","","","","NA"
"-61.70","49.09","HEATH POINT","7053038","2019-07-18 19:00","2019","07","18","19:00","12.9","","10.6","","86","","0.0","","26","","22","","","","100.78","","","","","","NA"
"-61.70","49.09","HEATH POINT","7053038","2019-07-18 20:00","2019","07","18","20:00","12.3","","10.6","","90","","0.0","","26","","16","","","","100.83","","","","","","NA"
"-61.70","49.09","HEATH POINT","7053038","2019-07-18 21:00","2019","07","18","21:00","11.8","","10.3","","91","","0.0","","26","","15","","","","100.86","","","","","","NA"
"-61.70","49.09","HEATH POINT","7053038","2019-07-18 22:00","2019","07","18","22:00","11.7","","10.5","","92","","0.0","","25","","20","","","","100.85","","","","","","NA"
"-61.70","49.09","HEATH POINT","7053038","2019-07-18 23:00","2019","07","18","23:00","11.9","","10.2","","89","","0.0","","26","","22","","","","100.84","","","","","","NA"
"-61.70","49.09","HEATH POINT","7053038","2019-07-19 00:00","2019","07","19","00:00","12.0","","10.1","","88","","0.0","","26","","20","","","","100.83","","","","","","NA"
"-61.70","49.09","HEATH POINT","7053038","2019-07-19 01:00","2019","07","19","01:00","11.8","","9.9","","88","","0.0","","26","","21","","","","100.82","","","","","","NA"
"-61.70","49.09","HEATH POINT","7053038","2019-07-19 02:00","2019","07","19","02:00","11.7","","9.7","","88","","0.0","","27","","24","","","","100.82","","","","","","NA"
"-61.70","49.09","HEATH POINT","7053038","2019-07-19 03:00","2019","07","19","03:00","11.4","","9.4","","88","","0.0","","28","","19","","","","100.80","","","","","","NA"
"-61.70","49.09","HEATH POINT","7053038","2019-07-19 04:00","2019","07","19","04:00","12.4","","9.8","","84","","0.0","","28","","18","","","","100.79","","","","","","NA"
"-61.70","49.09","HEATH POINT","7053038","2019-07-19 05:00","2019","07","19","05:00","12.8","","10.6","","87","","0.0","","25","","11","","","","100.80","","","","","","NA"
"-61.70","49.09","HEATH POINT","7053038","2019-07-19 06:00","2019","07","19","06:00","14.8","","11.4","","80","","0.0","","26","","5","","","","100.82","","","","","","NA"
"-61.70","49.09","HEATH POINT","7053038","2019-07-19 07:00","2019","07","19","07:00","14.1","","11.4","","84","","0.0","","22","","7","","","","100.82","","","","","","NA"
"-61.70","49.09","HEATH POINT","7053038","2019-07-19 08:00","2019","07","19","08:00","14.9","","11.9","","82","","0.0","","22","","8","","","","100.79","","","","","","NA"
"-61.70","49.09","HEATH POINT","7053038","2019-07-19 09:00","2019","07","19","09:00","16.4","","11.5","","73","","0.0","","22","","7","","","","100.77","","","","","","NA"
"-61.70","49.09","HEATH POINT","7053038","2019-07-19 10:00","2019","07","19","10:00","15.6","","12.7","","83","","0.0","","20","","8","","","","100.71","","","","","","NA"
"-61.70","49.09","HEATH POINT","7053038","2019-07-19 11:00","2019","07","19","11:00","15.4","","12.7","","84","","0.0","","22","","17","","","","100.61","","","","","","NA"
"-61.70","49.09","HEATH POINT","7053038","2019-07-19 12:00","2019","07","19","12:00","16.3","","13.5","","84","","0.0","","22","","13","","","","100.54","","","","","","NA"
"-61.70","49.09","HEATH POINT","7053038","2019-07-19 13:00","2019","07","19","13:00","15.5","","13.2","","86","","0.0","","22","","18","","","","100.45","","","","","","NA"
"-61.70","49.09","HEATH POINT","7053038","2019-07-19 14:00","2019","07","19","14:00","15.3","","13.2","","87","","0.0","","22","","20","","","","100.41","","","","","","NA"
"-61.70","49.09","HEATH POINT","7053038","2019-07-19 15:00","2019","07","19","15:00","15.2","","12.6","","85","","0.0","","23","","19","","","","100.35","","","","","","NA"
"-61.70","49.09","HEATH POINT","7053038","2019-07-19 16:00","2019","07","19","16:00","16.0","","13.7","","86","","0.0","","24","","10","","","","100.30","","","","","","NA"
"-61.70","49.09","HEATH POINT","7053038","2019-07-19 17:00","2019","07","19","17:00","14.8","","13.1","","90","","0.0","","24","","12","","","","100.23","","","","","","NA"
"-61.70","49.09","HEATH POINT","7053038","2019-07-19 18:00","2019","07","19","18:00","14.2","","12.9","","92","","0.0","","24","","16","","","","100.22","","","","","","NA"
"-61.70","49.09","HEATH POINT","7053038","2019-07-19 19:00","2019","07","19","19:00","14.0","","12.9","","93","","0.0","","24","","12","","","","100.22","","","","","","NA"
"-61.70","49.09","HEATH POINT","7053038","2019-07-19 20:00","2019","07","19","20:00","14.1","","12.9","","93","","0.0","","24","","9","","","","100.20","","","","","","NA"
"-61.70","49.09","HEATH POINT","7053038","2019-07-19 21:00","2019","07","19","21:00","14.0","","13.3","","96","","0.0","","24","","10","","","","100.15","","","","","","NA"
"-61.70","49.09","HEATH POINT","7053038","2019-07-19 22:00","2019","07","19","22:00","14.5","","13.6","","94","","0.0","","21","","6","","","","100.10","","","","","","NA"
"-61.70","49.09","HEATH POINT","7053038","2019-07-19 23:00","2019","07","19","23:00","14.7","","13.6","","93","","0.0","","22","","12","","","","100.05","","","","","","NA"
"-61.70","49.09","HEATH POINT","7053038","2019-07-20 00:00","2019","07","20","00:00","14.2","","13.4","","95","","0.0","","22","","11","","","","100.00","","","","","","NA"
"-61.70","49.09","HEATH POINT","7053038","2019-07-20 01:00","2019","07","20","01:00","14.0","","13.3","","96","","0.0","","22","","9","","","","99.95","","","","","","NA"
"-61.70","49.09","HEATH POINT","7053038","2019-07-20 02:00","2019","07","20","02:00","13.8","","13.3","","97","","0.0","","20","","15","","","","99.96","","","","","","NA"
"-61.70","49.09","HEATH POINT","7053038","2019-07-20 03:00","2019","07","20","03:00","13.9","","13.4","","97","","0.0","","23","","13","","","","99.97","","","","","","NA"
"-61.70","49.09","HEATH POINT","7053038","2019-07-20 04:00","2019","07","20","04:00","14.1","","13.7","","98","","0.0","","24","","6","","","","100.00","","","","","","NA"
"-61.70","49.09","HEATH POINT","7053038","2019-07-20 05:00","2019","07","20","05:00","14.1","","13.7","","98","","0.0","","19","","10","","","","99.98","","","","","","NA"
"-61.70","49.09","HEATH POINT","7053038","2019-07-20 06:00","2019","07","20","06:00","14.2","","13.9","","98","","0.0","","20","","9","","","","99.99","","","","","","NA"
"-61.70","49.09","HEATH POINT","7053038","2019-07-20 07:00","2019","07","20","07:00","13.6","","13.2","","97","","0.0","","17","","13","","","","100.06","","","","","","NA"
"-61.70","49.09","HEATH POINT","7053038","2019-07-20 08:00","2019","07","20","08:00","13.7","","13.1","","96","","0.0","","16","","9","","","","100.08","","","","","","NA"
"-61.70","49.09","HEATH POINT","7053038","2019-07-20 09:00","2019","07","20","09:00","14.0","","13.3","","96","","0.0","","18","","10","","","","100.09","","","","","","NA"
"-61.70","49.09","HEATH POINT","7053038","2019-07-20 10:00","2019","07","20","10:00","13.9","","13.5","","97","","0.0","","18","","7","","","","100.13","","","","","","NA"
"-61.70","49.09","HEATH POINT","7053038","2019-07-20 11:00","2019","07","20","11:00","14.2","","13.4","","95","","0.0","","20","","5","","","","100.12","","","","","","NA"
"-61.70","49.09","HEATH POINT","7053038","2019-07-20 12:00","2019","07","20","12:00","14.9","","13.9","","94","","0.0","","23","","11","","","","100.12","","","","","","NA"
"-61.70","49.09","HEATH POINT","7053038","2019-07-20 13:00","2019","07","20","13:00","15.1","","13.8","","92","","0.0","","22","","9","","","","100.13","","","","","","NA"
"-61.70","49.09","HEATH POINT","7053038","2019-07-20 14:00","2019","07","20","14:00","15.5","","13.8","","90","","0.0","","22","","6","","","","100.13","","","","","","NA"
"-61.70","49.09","HEATH POINT","7053038","2019-07-20 15:00","2019","07","20","15:00","14.8","","13.4","","91","","0.0","","13","","5","","","","100.10","","","","","","NA"
"-61.70","49.09","HEATH POINT","7053038","2019-07-20 16:00","2019","07","20","16:00","14.8","","13.6","","93","","0.0","","10","","5","","","","100.11","","","","","","NA"
"-61.70","49.09","HEATH POINT","7053038","2019-07-20 17:00","2019","07","20","17:00","13.9","","13.4","","97","","0.0","","20","","8","","","","100.16","","","","","","NA"
"-61.70","49.09","HEATH POINT","7053038","2019-07-20 18:00","2019","07","20","18:00","14.0","","13.7","","98","","0.0","","18","","8","","","","100.12","","","","","","NA"
"-61.70","49.09","HEATH POINT","7053038","2019-07-20 19:00","2019","07","20","19:00","13.9","","13.7","","98","","0.0","","18","","10","","","","100.17","","","","","","NA"
"-61.70","49.09","HEATH POINT","7053038","2019-07-20 20:00","2019","07","20","20:00","14.0","","13.7","","98","","0.0","","20","","16","","","","100.21","","","","","","NA"
"-61.70","49.09","HEATH POINT","7053038","2019-07-20 21:00","2019","07","20","21:00","13.8","","13.3","","97","","0.0","","20","","12","","","","100.17","","","","","","NA"
"-61.70","49.09","HEATH POINT","7053038","2019-07-20 22:00","2019","07","20","22:00","14.1","","13.7","","97","","0.0","","24","","14","","","","100.15","","","","","","NA"
"-61.70","49.09","HEATH POINT","7053038","2019-07-20 23:00","2019","07","20","23:00","14.3","","13.8","","97","","0.0","","23","","15","","","","100.07","","","","","","NA"
"-61.70","49.09","HEATH POINT","7053038","2019-07-21 00:00","2019","07","21","00:00","14.1","","13.6","","97","","0.0","","22","","13","","","","100.08","","","","","","NA"
"-61.70","49.09","HEATH POINT","7053038","2019-07-21 01:00","2019","07","21","01:00","14.1","","13.7","","97","","0.0","","22","","16","","","","100.06","","","","","","NA"
"-61.70","49.09","HEATH POINT","7053038","2019-07-21 02:00","2019","07","21","02:00","14.3","","13.9","","97","","0.0","","32","","10","","","","100.05","","","","","","NA"
"-61.70","49.09","HEATH POINT","7053038","2019-07-21 03:00","2019","07","21","03:00","14.9","","14.4","","97","","0.0","","27","","6","","","","100.07","","","","","","NA"
"-61.70","49.09","HEATH POINT","7053038","2019-07-21 04:00","2019","07","21","04:00","14.3","","13.8","","97","","0.0","","36","","7","","","","100.07","","","","","","NA"
"-61.70","49.09","HEATH POINT","7053038","2019-07-21 05:00","2019","07","21","05:00","14.8","","14.5","","98","","0.0","","2","","3","","","","100.12","","","","","","NA"
"-61.70","49.09","HEATH POINT","7053038","2019-07-21 06:00","2019","07","21","06:00","14.0","","13.3","","96","","0.0","","14","","10","","","","100.15","","","","","","NA"
"-61.70","49.09","HEATH POINT","7053038","2019-07-21 07:00","2019","07","21","07:00","14.9","","13.7","","93","","0.0","","9","","3","","","","100.13","","","","","","NA"
"-61.70","49.09","HEATH POINT","7053038","2019-07-21 08:00","2019","07","21","08:00","13.9","","13.5","","97","","0.0","","18","","11","","","","100.16","","","","","","NA"
"-61.70","49.09","HEATH POINT","7053038","2019-07-21 09:00","2019","07","21","09:00","14.3","","13.8","","97","","0.0","","16","","10","","","","100.15","","","","","","NA"
"-61.70","49.09","HEATH POINT","7053038","2019-07-21 10:00","2019","07","21","10:00","14.9","","13.8","","93","","0.0","","20","","11","","","","100.18","","","","","","NA"
"-61.70","49.09","HEATH POINT","7053038","2019-07-21 11:00","2019","07","21","11:00","15.5","","14.3","","93","","0.0","","16","","12","","","","100.14","","","","","","NA"
"-61.70","49.09","HEATH POINT","7053038","2019-07-21 12:00","2019","07","21","12:00","15.5","","14.4","","93","","0.0","","18","","14","","","","100.13","","","","","","NA"
"-61.70","49.09","HEATH POINT","7053038","2019-07-21 13:00","2019","07","21","13:00","15.8","","14.5","","92","","0.0","","18","","13","","","","100.12","","","","","","NA"
"-61.70","49.09","HEATH POINT","7053038","2019-07-21 14:00","2019","07","21","14:00","16.0","","14.7","","92","","0.0","","22","","16","","","","100.15","","","","","","NA"
"-61.70","49.09","HEATH POINT","7053038","2019-07-21 15:00","2019","07","21","15:00","16.0","","15.0","","93","","0.0","","23","","10","","","","100.18","","","","","","NA"
"-61.70","49.09","HEATH POINT","7053038","2019-07-21 16:00","2019","07","21","16:00","14.8","","14.3","","97","","0.0","","17","","7","","","","100.17","","","","","","NA"
"-61.70","49.09","HEATH POINT","7053038","2019-07-21 17:00","2019","07","21","17:00","15.0","","13.8","","93","","0.0","","21","","12","","","","100.15","","","","","","NA"
"-61.70","49.09","HEATH POINT","7053038","2019-07-21 18:00","2019","07","21","18:00","15.2","","14.1","","94","","0.0","","20","","12","","","","100.16","","","","","","NA"
"-61.70","49.09","HEATH POINT","7053038","2019-07-21 19:00","2019","07","21","19:00","14.7","","13.9","","95","","0.0","","24","","15","","","","100.20","","","","","","NA"
"-61.70","49.09","HEATH POINT","7053038","2019-07-21 20:00","2019","07","21","20:00","14.6","","14.0","","96","","0.0","","27","","13","","","","100.21","","","","","","NA"
"-61.70","49.09","HEATH POINT","7053038","2019-07-21 21:00","2019","07","21","21:00","14.6","","14.1","","97","","0.0","","35","","14","","","","100.21","","","","","","NA"
"-61.70","49.09","HEATH POINT","7053038","2019-07-21 22:00","2019","07","21","22:00","14.6","","14.1","","97","","0.0","","34","","16","","","","100.18","","","","","","NA"
"-61.70","49.09","HEATH POINT","7053038","2019-07-21 23:00","2019","07","21","23:00","14.1","","13.7","","98","","0.0","","35","","16","","","","100.18","","","","","","NA"
"-61.70","49.09","HEATH POINT","7053038","2019-07-22 00:00","2019","07","22","00:00","13.8","","13.5","","99","","0.0","","33","","12","","","","100.22","","","","","","NA"
"-61.70","49.09","HEATH POINT","7053038","2019-07-22 01:00","2019","07","22","01:00","13.7","","13.5","","99","","0.0","","36","","10","","","","100.23","","","","","","NA"
"-61.70","49.09","HEATH POINT","7053038","2019-07-22 02:00","2019","07","22","02:00","13.3","","13.1","","99","","0.0","","35","","9","","","","100.25","","","","","","NA"
"-61.70","49.09","HEATH POINT","7053038","2019-07-22 03:00","2019","07","22","03:00","12.7","","12.5","","99","","0.0","","36","","3","","","","100.30","","","","","","NA"
"-61.70","49.09","HEATH POINT","7053038","2019-07-22 04:00","2019","07","22","04:00","12.8","","12.6","","99","","0.0","","24","","7","","","","100.32","","","","","","NA"
"-61.70","49.09","HEATH POINT","7053038","2019-07-22 05:00","2019","07","22","05:00","12.5","","12.3","","99","","0.0","","25","","13","","","","100.31","","","","","","NA"
"-61.70","49.09","HEATH POINT","7053038","2019-07-22 06:00","2019","07","22","06:00","13.4","","13.3","","99","","0.0","","26","","13","","","","100.36","","","","","","NA"
"-61.70","49.09","HEATH POINT","7053038","2019-07-22 07:00","2019","07","22","07:00","13.3","","13.2","","99","","0.0","","23","","8","","","","100.36","","","","","","NA"
"-61.70","49.09","HEATH POINT","7053038","2019-07-22 08:00","2019","07","22","08:00","15.6","","15.0","","96","","0.0","","24","","10","","","","100.36","","","","","","NA"
"-61.70","49.09","HEATH POINT","7053038","2019-07-22 09:00","2019","07","22","09:00","13.2","","12.6","","97","","0.0","","4","","18","","","","100.44","","","","","","NA"
"-61.70","49.09","HEATH POINT","7053038","2019-07-22 10:00","2019","07","22","10:00","13.1","","12.5","","96","","0.0","","6","","17","","","","100.48","","","","","","NA"
"-61.70","49.09","HEATH POINT","7053038","2019-07-22 11:00","2019","07","22","11:00","14.0","","13.0","","94","","0.0","","7","","20","","","","100.52","","","","","","NA"
"-61.70","49.09","HEATH POINT","7053038","2019-07-22 12:00","2019","07","22","12:00","17.1","","14.3","","84","","0.0","","25","","8","","","","100.56","","","","","","NA"
"-61.70","49.09","HEATH POINT","7053038","2019-07-22 13:00","2019","07","22","13:00","15.0","","13.1","","88","","0.0","","14","","7","","","","100.60","","","","","","NA"
"-61.70","49.09","HEATH POINT","7053038","2019-07-22 14:00","2019","07","22","14:00","14.9","","13.5","","91","","0.0","","18","","9","","","","100.66","","","","","","NA"
"-61.70","49.09","HEATH POINT","7053038","2019-07-22 15:00","2019","07","22","15:00","15.1","","13.2","","89","","0.0","","19","","9","","","","100.70","","","","","","NA"
"-61.70","49.09","HEATH POINT","7053038","2019-07-22 16:00","2019","07","22","16:00","15.2","","13.6","","90","","0.0","","18","","13","","","","100.69","","","","","","NA"
"-61.70","49.09","HEATH POINT","7053038","2019-07-22 17:00","2019","07","22","17:00","15.5","","14.3","","93","","0.0","","21","","11","","","","100.72","","","","","","NA"
"-61.70","49.09","HEATH POINT","7053038","2019-07-22 18:00","2019","07","22","18:00","15.5","","13.5","","88","","0.0","","24","","15","","","","100.77","","","","","","NA"
"-61.70","49.09","HEATH POINT","7053038","2019-07-22 19:00","2019","07","22","19:00","14.4","","13.0","","91","","0.0","","25","","14","","","","100.79","","","","","","NA"
"-61.70","49.09","HEATH POINT","7053038","2019-07-22 20:00","2019","07","22","20:00","13.6","","12.6","","94","","0.0","","29","","7","","","","100.83","","","","","","NA"
"-61.70","49.09","HEATH POINT","7053038","2019-07-22 21:00","2019","07","22","21:00","13.6","","12.9","","96","","0.0","","27","","5","","","","100.85","","","","","","NA"
"-61.70","49.09","HEATH POINT","7053038","2019-07-22 22:00","2019","07","22","22:00","14.4","","13.5","","94","","0.0","","15","","3","","","","100.83","","","","","","NA"
"-61.70","49.09","HEATH POINT","7053038","2019-07-22 23:00","2019","07","22","23:00","10.9","","10.2","","95","","0.0","","30","","10","","","","100.89","","","","","","NA"
"-61.70","49.09","HEATH POINT","7053038","2019-07-23 00:00","2019","07","23","00:00","12.5","","11.3","","92","","0.0","","32","","4","","","","100.90","","","","","","NA"
"-61.70","49.09","HEATH POINT","7053038","2019-07-23 01:00","2019","07","23","01:00","13.7","","11.2","","85","","0.0","","17","","5","","","","100.91","","","","","","NA"
"-61.70","49.09","HEATH POINT","7053038","2019-07-23 02:00","2019","07","23","02:00","13.9","","11.3","","84","","0.0","","19","","1","","","","100.92","","","","","","NA"
"-61.70","49.09","HEATH POINT","7053038","2019-07-23 03:00","2019","07","23","03:00","13.5","","12.0","","90","","0.0","","20","","7","","","","100.92","","","","","","NA"
"-61.70","49.09","HEATH POINT","7053038","2019-07-23 04:00","2019","07","23","04:00","13.3","","11.1","","87","","0.0","","24","","10","","","","100.92","","","","","","NA"
"-61.70","49.09","HEATH POINT","7053038","2019-07-23 05:00","2019","07","23","05:00","12.8","","11.3","","90","","0.0","","26","","7","","","","100.92","","","","","","NA"
"-61.70","49.09","HEATH POINT","7053038","2019-07-23 06:00","2019","07","23","06:00","14.6","","12.5","","87","","0.0","","26","","6","","","","100.94","","","","","","NA"
"-61.70","49.09","HEATH POINT","7053038","2019-07-23 07:00","2019","07","23","07:00","14.7","","12.6","","87","","0.0","","23","","4","","","","100.97","","","","","","NA"
"-61.70","49.09","HEATH POINT","7053038","2019-07-23 08:00","2019","07","23","08:00","15.3","","12.8","","85","","0.0","","20","","3","","","","100.98","","","","","","NA"
"-61.70","49.09","HEATH POINT","7053038","2019-07-23 09:00","2019","07","23","09:00","16.1","","11.8","","76","","0.0","","","","0","","","","100.98","","","","","","NA"
"-61.70","49.09","HEATH POINT","7053038","2019-07-23 10:00","2019","07","23","10:00","15.3","","12.4","","83","","0.0","","9","","11","","","","100.93","","","","","","NA"
"-61.70","49.09","HEATH POINT","7053038","2019-07-23 11:00","2019","07","23","11:00","15.3","","13.2","","87","","0.0","","12","","5","","","","100.93","","","","","","NA"
"-61.70","49.09","HEATH POINT","7053038","2019-07-23 12:00","2019","07","23","12:00","15.7","","12.1","","79","","0.0","","8","","8","","","","100.91","","","","","","NA"
"-61.70","49.09","HEATH POINT","7053038","2019-07-23 13:00","2019","07","23","13:00","15.2","","13.5","","90","","0.0","","10","","11","","","","100.90","","","","","","NA"
"-61.70","49.09","HEATH POINT","7053038","2019-07-23 14:00","2019","07","23","14:00","14.8","","13.7","","93","","0.0","","9","","13","","","","100.87","","","","","","NA"
"-61.70","49.09","HEATH POINT","7053038","2019-07-23 15:00","2019","07","23","15:00","15.1","","14.1","","94","","0.0","","6","","9","","","","100.90","","","","","","NA"
"-61.70","49.09","HEATH POINT","7053038","2019-07-23 16:00","2019","07","23","16:00","14.9","","14.2","","96","","0.0","","11","","10","","","","100.88","","","","","","NA"
"-61.70","49.09","HEATH POINT","7053038","2019-07-23 17:00","2019","07","23","17:00","14.7","","14.4","","98","","0.0","","13","","6","","","","100.92","","","","","","NA"
"-61.70","49.09","HEATH POINT","7053038","2019-07-23 18:00","2019","07","23","18:00","14.7","","14.2","","97","","0.0","","16","","9","","","","100.91","","","","","","NA"
"-61.70","49.09","HEATH POINT","7053038","2019-07-23 19:00","2019","07","23","19:00","14.8","","14.4","","97","","0.0","","18","","16","","","","100.93","","","","","","NA"
"-61.70","49.09","HEATH POINT","7053038","2019-07-23 20:00","2019","07","23","20:00","14.6","","14.4","","98","","0.0","","20","","15","","","","101.02","","","","","","NA"
"-61.70","49.09","HEATH POINT","7053038","2019-07-23 21:00","2019","07","23","21:00","14.3","","13.9","","97","","0.0","","17","","26","","","","100.96","","","","","","NA"
"-61.70","49.09","HEATH POINT","7053038","2019-07-23 22:00","2019","07","23","22:00","14.4","","13.9","","97","","0.0","","19","","21","","","","100.92","","","","","","NA"
"-61.70","49.09","HEATH POINT","7053038","2019-07-23 23:00","2019","07","23","23:00","14.4","","13.9","","97","","0.0","","18","","13","","","","100.95","","","","","","NA"
"-61.70","49.09","HEATH POINT","7053038","2019-07-24 00:00","2019","07","24","00:00","14.2","","13.8","","98","","0.0","","18","","11","","","","100.92","","","","","","NA"
"-61.70","49.09","HEATH POINT","7053038","2019-07-24 01:00","2019","07","24","01:00","14.1","","13.8","","98","","0.0","","19","","10","","","","100.92","","","","","","NA"
"-61.70","49.09","HEATH POINT","7053038","2019-07-24 02:00","2019","07","24","02:00","13.9","","13.7","","99","","0.0","","22","","7","","","","100.94","","","","","","NA"
"-61.70","49.09","HEATH POINT","7053038","2019-07-24 03:00","2019","07","24","03:00","13.9","","13.7","","99","","0.0","","20","","9","","","","100.95","","","","","","NA"
"-61.70","49.09","HEATH POINT","7053038","2019-07-24 04:00","2019","07","24","04:00","13.8","","13.6","","99","","0.0","","20","","3","","","","100.93","","","","","","NA"
"-61.70","49.09","HEATH POINT","7053038","2019-07-24 05:00","2019","07","24","05:00","13.8","","13.5","","99","","0.0","","18","","5","","","","100.98","","","","","","NA"
"-61.70","49.09","HEATH POINT","7053038","2019-07-24 06:00","2019","07","24","06:00","13.7","","13.5","","99","","0.0","","18","","5","","","","101.03","","","","","","NA"
"-61.70","49.09","HEATH POINT","7053038","2019-07-24 07:00","2019","07","24","07:00","13.9","","13.5","","98","","0.0","","18","","9","","","","101.05","","","","","","NA"
"-61.70","49.09","HEATH POINT","7053038","2019-07-24 08:00","2019","07","24","08:00","14.2","","13.6","","96","","0.0","","21","","9","","","","101.07","","","","","","NA"
"-61.70","49.09","HEATH POINT","7053038","2019-07-24 09:00","2019","07","24","09:00","14.4","","13.8","","96","","0.0","","22","","10","","","","101.06","","","","","","NA"
"-61.70","49.09","HEATH POINT","7053038","2019-07-24 10:00","2019","07","24","10:00","14.7","","13.8","","95","","0.0","","21","","11","","","","101.07","","","","","","NA"
"-61.70","49.09","HEATH POINT","7053038","2019-07-24 11:00","2019","07","24","11:00","15.8","","14.1","","90","","0.0","","21","","16","","","","101.07","","","","","","NA"
"-61.70","49.09","HEATH POINT","7053038","2019-07-24 12:00","2019","07","24","12:00","15.0","","13.9","","93","","0.0","","21","","19","","","","101.06","","","","","","NA"
"-61.70","49.09","HEATH POINT","7053038","2019-07-24 13:00","2019","07","24","13:00","15.2","","14.3","","95","","0.0","","20","","17","","","","101.07","","","","","","NA"
"-61.70","49.09","HEATH POINT","7053038","2019-07-24 14:00","2019","07","24","14:00","15.1","","14.3","","95","","0.0","","21","","22","","","","101.03","","","","","","NA"
"-61.70","49.09","HEATH POINT","7053038","2019-07-24 15:00","2019","07","24","15:00","16.8","","15.3","","91","","0.0","","22","","17","","","","101.03","","","","","","NA"
"-61.70","49.09","HEATH POINT","7053038","2019-07-24 16:00","2019","07","24","16:00","16.7","","15.0","","90","","0.0","","24","","16","","","","101.03","","","","","","NA"
"-61.70","49.09","HEATH POINT","7053038","2019-07-24 17:00","2019","07","24","17:00","16.1","","14.7","","92","","0.0","","23","","17","","","","101.05","","","","","","NA"
"-61.70","49.09","HEATH POINT","7053038","2019-07-24 18:00","2019","07","24","18:00","15.5","","14.3","","92","","0.0","","23","","17","","","","101.08","","","","","","NA"
"-61.70","49.09","HEATH POINT","7053038","2019-07-24 19:00","2019","07","24","19:00","14.9","","14.2","","95","","0.0","","23","","13","","","","101.10","","","","","","NA"
"-61.70","49.09","HEATH POINT","7053038","2019-07-24 20:00","2019","07","24","20:00","14.8","","14.2","","96","","0.0","","22","","13","","","","101.14","","","","","","NA"
"-61.70","49.09","HEATH POINT","7053038","2019-07-24 21:00","2019","07","24","21:00","14.1","","13.4","","95","","0.0","","25","","14","","","","101.16","","","","","","NA"
"-61.70","49.09","HEATH POINT","7053038","2019-07-24 22:00","2019","07","24","22:00","12.0","","11.4","","96","","0.0","","31","","10","","","","101.20","","","","","","NA"
"-61.70","49.09","HEATH POINT","7053038","2019-07-24 23:00","2019","07","24","23:00","11.7","","11.3","","97","","0.0","","31","","9","","","","101.20","","","","","","NA"
"-61.70","49.09","HEATH POINT","7053038","2019-07-25 00:00","2019","07","25","00:00","11.9","","11.6","","98","","0.0","","33","","11","","","","101.18","","","","","","NA"
"-61.70","49.09","HEATH POINT","7053038","2019-07-25 01:00","2019","07","25","01:00","12.7","","11.7","","94","","0.0","","1","","6","","","","101.18","","","","","","NA"
"-61.70","49.09","HEATH POINT","7053038","2019-07-25 02:00","2019","07","25","02:00","11.8","","11.2","","96","","0.0","","27","","5","","","","101.18","","","","","","NA"
"-61.70","49.09","HEATH POINT","7053038","2019-07-25 03:00","2019","07","25","03:00","9.9","","8.7","","92","","0.0","","28","","11","","","","101.20","","","","","","NA"
"-61.70","49.09","HEATH POINT","7053038","2019-07-25 04:00","2019","07","25","04:00","10.9","","9.7","","92","","0.0","","24","","11","","","","101.20","","","","","","NA"
"-61.70","49.09","HEATH POINT","7053038","2019-07-25 05:00","2019","07","25","05:00","12.6","","10.2","","85","","0.0","","25","","17","","","","101.25","","","","","","NA"
"-61.70","49.09","HEATH POINT","7053038","2019-07-25 06:00","2019","07","25","06:00","13.8","","11.6","","87","","0.0","","27","","16","","","","101.30","","","","","","NA"
"-61.70","49.09","HEATH POINT","7053038","2019-07-25 07:00","2019","07","25","07:00","15.9","","12.4","","80","","0.0","","26","","15","","","","101.32","","","","","","NA"
"-61.70","49.09","HEATH POINT","7053038","2019-07-25 08:00","2019","07","25","08:00","16.0","","13.0","","82","","0.0","","24","","23","","","","101.34","","","","","","NA"
"-61.70","49.09","HEATH POINT","7053038","2019-07-25 09:00","2019","07","25","09:00","16.6","","12.7","","78","","0.0","","1","","13","","","","101.41","","","","","","NA"
"-61.70","49.09","HEATH POINT","7053038","2019-07-25 10:00","2019","07","25","10:00"
"-61.70","49.09","HEATH POINT","7053038","2019-07-25 11:00","2019","07","25","11:00","15.7","","12.7","","82","","0.0","","10","","6","","","","101.46","","","","","","NA"
"-61.70","49.09","HEATH POINT","7053038","2019-07-25 12:00","2019","07","25","12:00","16.2","","13.4","","84","","0.0","","14","","5","","","","101.44","","","","","","NA"
"-61.70","49.09","HEATH POINT","7053038","2019-07-25 13:00","2019","07","25","13:00","16.2","","13.5","","84","","0.0","","19","","9","","","","101.44","","","","","","NA"
"-61.70","49.09","HEATH POINT","7053038","2019-07-25 14:00","2019","07","25","14:00","16.4","","13.8","","84","","0.0","","21","","13","","","","101.42","","","","","","NA"
"-61.70","49.09","HEATH POINT","7053038","2019-07-25 15:00","2019","07","25","15:00","16.3","","13.8","","85","","0.0","","21","","13","","","","101.46","","","","","","NA"
"-61.70","49.09","HEATH POINT","7053038","2019-07-25 16:00","2019","07","25","16:00","16.0","","13.8","","87","","0.0","","24","","16","","","","101.49","","","","","","NA"
"-61.70","49.09","HEATH POINT","7053038","2019-07-25 17:00","2019","07","25","17:00","16.1","","13.5","","84","","0.0","","24","","18","","","","101.51","","","","","","NA"
"-61.70","49.09","HEATH POINT","7053038","2019-07-25 18:00","2019","07","25","18:00","15.3","","13.1","","87","","0.0","","25","","15","","","","101.53","","","","","","NA"
"-61.70","49.09","HEATH POINT","7053038","2019-07-25 19:00","2019","07","25","19:00","16.2","","12.5","","79","","0.0","","1","","6","","","","101.60","","","","","","NA"
"-61.70","49.09","HEATH POINT","7053038","2019-07-25 20:00","2019","07","25","20:00","15.4","","11.0","","75","","0.0","","33","","20","","","","101.63","","","","","","NA"
"-61.70","49.09","HEATH POINT","7053038","2019-07-25 21:00","2019","07","25","21:00","15.6","","10.0","","69","","0.0","","33","","20","","","","101.65","","","","","","NA"
"-61.70","49.09","HEATH POINT","7053038","2019-07-25 22:00","2019","07","25","22:00","14.8","","9.4","","70","","0.0","","32","","16","","","","101.64","","","","","","NA"
"-61.70","49.09","HEATH POINT","7053038","2019-07-25 23:00","2019","07","25","23:00","14.4","","10.7","","78","","0.0","","22","","10","","","","101.68","","","","","","NA"
"-61.70","49.09","HEATH POINT","7053038","2019-07-26 00:00","2019","07","26","00:00","13.5","","11.4","","87","","0.0","","23","","11","","","","101.69","","","","","","NA"
"-61.70","49.09","HEATH POINT","7053038","2019-07-26 01:00","2019","07","26","01:00","12.3","","9.7","","85","","0.0","","27","","8","","","","101.73","","","","","","NA"
"-61.70","49.09","HEATH POINT","7053038","2019-07-26 02:00","2019","07","26","02:00"
"-61.70","49.09","HEATH POINT","7053038","2019-07-26 03:00","2019","07","26","03:00","11.3","","9.3","","88","","0.0","","27","","18","","","","101.81","","","","","","NA"
"-61.70","49.09","HEATH POINT","7053038","2019-07-26 04:00","2019","07","26","04:00","11.3","","8.5","","83","","0.0","","27","","16","","","","101.83","","","","","","NA"
"-61.70","49.09","HEATH POINT","7053038","2019-07-26 05:00","2019","07","26","05:00","13.1","","10.0","","81","","0.0","","27","","13","","","","101.89","","","","","","NA"
"-61.70","49.09","HEATH POINT","7053038","2019-07-26 06:00","2019","07","26","06:00","15.0","","11.3","","78","","0.0","","25","","11","","","","101.96","","","","","","NA"
"-61.70","49.09","HEATH POINT","7053038","2019-07-26 07:00","2019","07","26","07:00","15.5","","12.3","","81","","0.0","","23","","11","","","","101.97","","","","","","NA"
"-61.70","49.09","HEATH POINT","7053038","2019-07-26 08:00","2019","07","26","08:00","15.9","","13.1","","84","","0.0","","23","","13","","","","101.98","","","","","","NA"
"-61.70","49.09","HEATH POINT","7053038","2019-07-26 09:00","2019","07","26","09:00","16.3","","13.6","","84","","0.0","","24","","15","","","","102.00","","","","","","NA"
"-61.70","49.09","HEATH POINT","7053038","2019-07-26 10:00","2019","07","26","10:00","17.1","","14.3","","84","","0.0","","24","","17","","","","102.01","","","","","","NA"
"-61.70","49.09","HEATH POINT","7053038","2019-07-26 11:00","2019","07","26","11:00","17.8","","14.2","","79","","0.0","","24","","20","","","","102.02","","","","","","NA"
"-61.70","49.09","HEATH POINT","7053038","2019-07-26 12:00","2019","07","26","12:00","17.5","","13.8","","79","","0.0","","23","","15","","","","102.04","","","","","","NA"
"-61.70","49.09","HEATH POINT","7053038","2019-07-26 13:00","2019","07","26","13:00","17.7","","14.1","","80","","0.0","","24","","22","","","","102.02","","","","","","NA"
"-61.70","49.09","HEATH POINT","7053038","2019-07-26 14:00","2019","07","26","14:00","17.7","","13.6","","77","","0.0","","24","","25","","","","102.02","","","","","","NA"
"-61.70","49.09","HEATH POINT","7053038","2019-07-26 15:00","2019","07","26","15:00","17.5","","14.3","","82","","0.0","","24","","22","","","","102.02","","","","","","NA"
"-61.70","49.09","HEATH POINT","7053038","2019-07-26 16:00","2019","07","26","16:00","17.0","","14.9","","87","","0.0","","24","","18","","","","102.03","","","","","","NA"
"-61.70","49.09","HEATH POINT","7053038","2019-07-26 17:00","2019","07","26","17:00","16.7","","15.1","","91","","0.0","","25","","15","","","","102.05","","","","","","NA"
"-61.70","49.09","HEATH POINT","7053038","2019-07-26 18:00","2019","07","26","18:00"
"-61.70","49.09","HEATH POINT","7053038","2019-07-26 19:00","2019","07","26","19:00","15.7","","15.2","","97","","0.0","","24","","13","","","","102.10","","","","","","NA"
"-61.70","49.09","HEATH POINT","7053038","2019-07-26 20:00","2019","07","26","20:00","15.3","","14.9","","98","","0.0","","23","","15","","","","102.12","","","","","","NA"
"-61.70","49.09","HEATH POINT","7053038","2019-07-26 21:00","2019","07","26","21:00","15.5","","15.1","","98","","0.0","","22","","16","","","","102.13","","","","","","NA"
"-61.70","49.09","HEATH POINT","7053038","2019-07-26 22:00","2019","07","26","22:00","15.5","","15.1","","98","","0.0","","22","","17","","","","102.11","","","","","","NA"
"-61.70","49.09","HEATH POINT","7053038","2019-07-26 23:00","2019","07","26","23:00","15.5","","15.2","","98","","0.0","","22","","16","","","","102.10","","","","","","NA"
"-61.70","49.09","HEATH POINT","7053038","2019-07-27 00:00","2019","07","27","00:00","15.1","","14.7","","98","","0.0","","20","","9","","","","102.09","","","","","","NA"
"-61.70","49.09","HEATH POINT","7053038","2019-07-27 01:00","2019","07","27","01:00","15.3","","14.5","","95","","0.0","","21","","6","","","","102.07","","","","","","NA"
"-61.70","49.09","HEATH POINT","7053038","2019-07-27 02:00","2019","07","27","02:00","14.8","","13.9","","94","","0.0","","24","","12","","","","102.04","","","","","","NA"
"-61.70","49.09","HEATH POINT","7053038","2019-07-27 03:00","2019","07","27","03:00","15.2","","13.8","","91","","0.0","","23","","11","","","","102.04","","","","","","NA"
"-61.70","49.09","HEATH POINT","7053038","2019-07-27 04:00","2019","07","27","04:00","15.2","","14.2","","94","","0.0","","24","","14","","","","102.05","","","","","","NA"
"-61.70","49.09","HEATH POINT","7053038","2019-07-27 05:00","2019","07","27","05:00","16.0","","14.9","","93","","0.0","","22","","16","","","","102.03","","","","","","NA"
"-61.70","49.09","HEATH POINT","7053038","2019-07-27 06:00","2019","07","27","06:00","16.5","","15.4","","93","","0.0","","21","","17","","","","102.04","","","","","","NA"
"-61.70","49.09","HEATH POINT","7053038","2019-07-27 07:00","2019","07","27","07:00","17.0","","15.7","","92","","0.0","","22","","18","","","","102.02","","","","","","NA"
"-61.70","49.09","HEATH POINT","7053038","2019-07-27 08:00","2019","07","27","08:00","17.4","","15.9","","91","","0.0","","23","","18","","","","102.01","","","","","","NA"
"-61.70","49.09","HEATH POINT","7053038","2019-07-27 09:00","2019","07","27","09:00","17.4","","15.8","","90","","0.0","","23","","17","","","","102.00","","","","","","NA"
"-61.70","49.09","HEATH POINT","7053038","2019-07-27 10:00","2019","07","27","10:00","17.9","","16.0","","89","","0.0","","22","","22","","","","101.99","","","","","","NA"
"-61.70","49.09","HEATH POINT","7053038","2019-07-27 11:00","2019","07","27","11:00","18.4","","16.4","","88","","0.0","","22","","22","","","","101.96","","","","","","NA"
"-61.70","49.09","HEATH POINT","7053038","2019-07-27 12:00","2019","07","27","12:00","18.5","","16.3","","87","","0.0","","22","","26","","","","101.93","","","","","","NA"
"-61.70","49.09","HEATH POINT","7053038","2019-07-27 13:00","2019","07","27","13:00","19.0","","17.0","","88","","0.0","","22","","22","","","","101.90","","","","","","NA"
"-61.70","49.09","HEATH POINT","7053038","2019-07-27 14:00","2019","07","27","14:00","18.8","","16.9","","89","","0.0","","23","","17","","","","101.89","","","","","","NA"
"-61.70","49.09","HEATH POINT","7053038","2019-07-27 15:00","2019","07","27","15:00","18.4","","16.6","","89","","0.0","","24","","18","","","","101.84","","","","","","NA"
"-61.70","49.09","HEATH POINT","7053038","2019-07-27 16:00","2019","07","27","16:00","18.1","","16.6","","91","","0.0","","23","","18","","","","101.82","","","","","","NA"
"-61.70","49.09","HEATH POINT","7053038","2019-07-27 17:00","2019","07","27","17:00","17.6","","16.5","","93","","0.0","","23","","18","","","","101.76","","","","","","NA"
"-61.70","49.09","HEATH POINT","7053038","2019-07-27 18:00","2019","07","27","18:00","17.1","","16.3","","95","","0.0","","23","","14","","","","101.73","","","","","","NA"
"-61.70","49.09","HEATH POINT","7053038","2019-07-27 19:00","2019","07","27","19:00","16.6","","16.0","","96","","0.0","","23","","13","","","","101.73","","","","","","NA"
"-61.70","49.09","HEATH POINT","7053038","2019-07-27 20:00","2019","07","27","20:00","16.4","","15.9","","97","","0.0","","21","","13","","","","101.71","","","","","","NA"
"-61.70","49.09","HEATH POINT","7053038","2019-07-27 21:00","2019","07","27","21:00","16.9","","16.1","","95","","0.0","","25","","15","","","","101.69","","","","","","NA"
"-61.70","49.09","HEATH POINT","7053038","2019-07-27 22:00","2019","07","27","22:00","17.3","","16.0","","93","","0.0","","25","","18","","","","101.65","","","","","","NA"
"-61.70","49.09","HEATH POINT","7053038","2019-07-27 23:00","2019","07","27","23:00","17.5","","16.2","","92","","0.0","","25","","19","","","","101.63","","","","","","NA"
"-61.70","49.09","HEATH POINT","7053038","2019-07-28 00:00","2019","07","28","00:00","18.3","","16.2","","88","","0.0","","24","","22","","","","101.59","","","","","","NA"
"-61.70","49.09","HEATH POINT","7053038","2019-07-28 01:00","2019","07","28","01:00","17.2","","15.6","","90","","0.0","","27","","13","","","","101.57","","","","","","NA"
"-61.70","49.09","HEATH POINT","7053038","2019-07-28 02:00","2019","07","28","02:00","17.6","","15.6","","88","","0.0","","23","","16","","","","101.53","","","","","","NA"
"-61.70","49.09","HEATH POINT","7053038","2019-07-28 03:00","2019","07","28","03:00","16.1","","15.1","","94","","0.0","","19","","18","","","","101.51","","","","","","NA"
"-61.70","49.09","HEATH POINT","7053038","2019-07-28 04:00","2019","07","28","04:00","16.0","","14.9","","93","","0.0","","21","","18","","","","101.49","","","","","","NA"
"-61.70","49.09","HEATH POINT","7053038","2019-07-28 05:00","2019","07","28","05:00","16.4","","15.2","","93","","0.0","","21","","19","","","","101.47","","","","","","NA"
"-61.70","49.09","HEATH POINT","7053038","2019-07-28 06:00","2019","07","28","06:00","16.8","","15.1","","90","","0.0","","22","","21","","","","101.43","","","","","","NA"
"-61.70","49.09","HEATH POINT","7053038","2019-07-28 07:00","2019","07","28","07:00","16.8","","15.2","","91","","0.0","","21","","18","","","","101.43","","","","","","NA"
"-61.70","49.09","HEATH POINT","7053038","2019-07-28 08:00","2019","07","28","08:00","16.9","","15.1","","90","","0.0","","20","","22","","","","101.41","","","","","","NA"
"-61.70","49.09","HEATH POINT","7053038","2019-07-28 09:00","2019","07","28","09:00","17.3","","15.5","","89","","0.0","","21","","23","","","","101.40","","","","","","NA"
"-61.70","49.09","HEATH POINT","7053038","2019-07-28 10:00","2019","07","28","10:00","17.9","","15.7","","87","","0.0","","21","","26","","","","101.39","","","","","","NA"
"-61.70","49.09","HEATH POINT","7053038","2019-07-28 11:00","2019","07","28","11:00","18.0","","15.7","","86","","0.0","","21","","29","","","","101.33","","","","","","NA"
"-61.70","49.09","HEATH POINT","7053038","2019-07-28 12:00","2019","07","28","12:00","17.9","","15.6","","86","","0.0","","21","","28","","","","101.31","","","","","","NA"
"-61.70","49.09","HEATH POINT","7053038","2019-07-28 13:00","2019","07","28","13:00","18.5","","16.1","","86","","0.0","","22","","21","","","","101.29","","","","","","NA"
"-61.70","49.09","HEATH POINT","7053038","2019-07-28 14:00","2019","07","28","14:00","18.1","","15.9","","87","","0.0","","21","","21","","","","101.24","","","","","","NA"
"-61.70","49.09","HEATH POINT","7053038","2019-07-28 15:00","2019","07","28","15:00","18.2","","15.5","","84","","0.0","","21","","26","","","","101.18","","","","","","NA"
"-61.70","49.09","HEATH POINT","7053038","2019-07-28 16:00","2019","07","28","16:00","18.0","","15.5","","86","","0.0","","22","","24","","","","101.16","","","","","","NA"
"-61.70","49.09","HEATH POINT","7053038","2019-07-28 17:00","2019","07","28","17:00","17.6","","15.4","","87","","0.0","","21","","22","","","","101.13","","","","","","NA"
"-61.70","49.09","HEATH POINT","7053038","2019-07-28 18:00","2019","07","28","18:00","17.0","","15.2","","89","","0.0","","20","","22","","","","101.11","","","","","","NA"
"-61.70","49.09","HEATH POINT","7053038","2019-07-28 19:00","2019","07","28","19:00","17.1","","15.1","","88","","0.0","","18","","22","","","","101.08","","","","","","NA"
"-61.70","49.09","HEATH POINT","7053038","2019-07-28 20:00","2019","07","28","20:00","17.1","","15.0","","88","","0.0","","20","","28","","","","101.08","","","","","","NA"
"-61.70","49.09","HEATH POINT","7053038","2019-07-28 21:00","2019","07","28","21:00","16.8","","15.0","","89","","0.0","","20","","20","","","","101.03","","","","","","NA"
"-61.70","49.09","HEATH POINT","7053038","2019-07-28 22:00","2019","07","28","22:00","16.7","","14.9","","89","","0.0","","20","","27","","","","100.96","","","","","","NA"
"-61.70","49.09","HEATH POINT","7053038","2019-07-28 23:00","2019","07","28","23:00","16.2","","14.8","","91","","0.0","","23","","11","","","","100.97","","","","","","NA"
"-61.70","49.09","HEATH POINT","7053038","2019-07-29 00:00","2019","07","29","00:00","16.6","","14.9","","90","","0.0","","20","","27","","","","100.87","","","","","","NA"
"-61.70","49.09","HEATH POINT","7053038","2019-07-29 01:00","2019","07","29","01:00","16.2","","14.9","","92","","0.0","","22","","19","","","","100.84","","","","","","NA"
"-61.70","49.09","HEATH POINT","7053038","2019-07-29 02:00","2019","07","29","02:00","16.6","","15.3","","93","","0.0","","21","","24","","","","100.82","","","","","","NA"
"-61.70","49.09","HEATH POINT","7053038","2019-07-29 03:00","2019","07","29","03:00","16.2","","15.3","","95","","0.0","","21","","17","","","","100.79","","","","","","NA"
"-61.70","49.09","HEATH POINT","7053038","2019-07-29 04:00","2019","07","29","04:00","16.0","","15.2","","95","","0.0","","21","","20","","","","100.82","","","","","","NA"
"-61.70","49.09","HEATH POINT","7053038","2019-07-29 05:00","2019","07","29","05:00","16.0","","15.3","","96","","0.0","","20","","25","","","","100.80","","","","","","NA"
"-61.70","49.09","HEATH POINT","7053038","2019-07-29 06:00","2019","07","29","06:00","15.9","","15.3","","96","","0.0","","20","","24","","","","100.78","","","","","","NA"
"-61.70","49.09","HEATH POINT","7053038","2019-07-29 07:00","2019","07","29","07:00","15.9","","15.2","","96","","0.0","","20","","28","","","","100.79","","","","","","NA"
"-61.70","49.09","HEATH POINT","7053038","2019-07-29 08:00","2019","07","29","08:00","16.4","","15.4","","94","","0.0","","21","","29","","","","100.75","","","","","","NA"
"-61.70","49.09","HEATH POINT","7053038","2019-07-29 09:00","2019","07","29","09:00","16.6","","15.1","","91","","0.0","","21","","21","","","","100.77","","","","","","NA"
"-61.70","49.09","HEATH POINT","7053038","2019-07-29 10:00","2019","07","29","10:00","17.2","","15.4","","90","","0.0","","22","","22","","","","100.76","","","","","","NA"
"-61.70","49.09","HEATH POINT","7053038","2019-07-29 11:00","2019","07","29","11:00","17.9","","15.8","","88","","0.0","","22","","23","","","","100.74","","","","","","NA"
"-61.70","49.09","HEATH POINT","7053038","2019-07-29 12:00","2019","07","29","12:00","18.2","","15.9","","86","","0.0","","22","","24","","","","100.73","","","","","","NA"
"-61.70","49.09","HEATH POINT","7053038","2019-07-29 13:00","2019","07","29","13:00","18.6","","15.9","","85","","0.0","","22","","23","","","","100.72","","","","","","NA"
"-61.70","49.09","HEATH POINT","7053038","2019-07-29 14:00","2019","07","29","14:00","18.4","","16.0","","86","","0.0","","22","","25","","","","100.71","","","","","","NA"
"-61.70","49.09","HEATH POINT","7053038","2019-07-29 15:00","2019","07","29","15:00","17.9","","15.8","","88","","0.0","","22","","24","","","","100.71","","","","","","NA"
"-61.70","49.09","HEATH POINT","7053038","2019-07-29 16:00","2019","07","29","16:00","17.6","","15.6","","88","","0.0","","23","","21","","","","100.71","","","","","","NA"
"-61.70","49.09","HEATH POINT","7053038","2019-07-29 17:00","2019","07","29","17:00","17.1","","15.3","","90","","0.0","","23","","20","","","","100.73","","","","","","NA"
"-61.70","49.09","HEATH POINT","7053038","2019-07-29 18:00","2019","07","29","18:00","16.4","","15.5","","95","","0.0","","22","","18","","","","100.75","","","","","","NA"
"-61.70","49.09","HEATH POINT","7053038","2019-07-29 19:00","2019","07","29","19:00","16.0","","15.3","","96","","0.0","","21","","23","","","","100.82","","","","","","NA"
"-61.70","49.09","HEATH POINT","7053038","2019-07-29 20:00","2019","07","29","20:00","15.6","","14.8","","95","","0.0","","22","","19","","","","100.88","","","","","","NA"
"-61.70","49.09","HEATH POINT","7053038","2019-07-29 21:00","2019","07","29","21:00","15.2","","14.2","","94","","0.0","","25","","17","","","","100.87","","","","","","NA"
"-61.70","49.09","HEATH POINT","7053038","2019-07-29 22:00","2019","07","29","22:00","15.6","","14.8","","95","","0.0","","24","","19","","","","100.86","","","","","","NA"
"-61.70","49.09","HEATH POINT","7053038","2019-07-29 23:00","2019","07","29","23:00","15.6","","14.9","","96","","0.0","","25","","13","","","","100.86","","","","","","NA"
"-61.70","49.09","HEATH POINT","7053038","2019-07-30 00:00","2019","07","30","00:00","15.4","","14.8","","96","","0.0","","25","","15","","","","100.86","","","","","","NA"
"-61.70","49.09","HEATH POINT","7053038","2019-07-30 01:00","2019","07","30","01:00","15.5","","15.0","","97","","0.0","","25","","10","","","","100.85","","","","","","NA"
"-61.70","49.09","HEATH POINT","7053038","2019-07-30 02:00","2019","07","30","02:00","15.2","","14.8","","97","","0.0","","26","","16","","","","100.88","","","","","","NA"
"-61.70","49.09","HEATH POINT","7053038","2019-07-30 03:00","2019","07","30","03:00","14.3","","13.9","","97","","0.0","","25","","13","","","","100.90","","","","","","NA"
"-61.70","49.09","HEATH POINT","7053038","2019-07-30 04:00","2019","07","30","04:00","15.2","","14.9","","98","","0.0","","25","","18","","","","100.92","","","","","","NA"
"-61.70","49.09","HEATH POINT","7053038","2019-07-30 05:00","2019","07","30","05:00","16.0","","15.5","","97","","0.0","","26","","18","","","","100.98","","","","","","NA"
"-61.70","49.09","HEATH POINT","7053038","2019-07-30 06:00","2019","07","30","06:00","16.7","","15.3","","92","","0.0","","26","","9","","","","101.01","","","","","","NA"
"-61.70","49.09","HEATH POINT","7053038","2019-07-30 07:00","2019","07","30","07:00","16.7","","15.1","","91","","0.0","","23","","18","","","","101.05","","","","","","NA"
"-61.70","49.09","HEATH POINT","7053038","2019-07-30 08:00","2019","07","30","08:00","16.7","","14.4","","86","","0.0","","21","","12","","","","101.08","","","","","","NA"
"-61.70","49.09","HEATH POINT","7053038","2019-07-30 09:00","2019","07","30","09:00","18.7","","15.8","","83","","0.0","","20","","4","","","","101.12","","","","","","NA"
"-61.70","49.09","HEATH POINT","7053038","2019-07-30 10:00","2019","07","30","10:00","19.4","","16.7","","84","","0.0","","23","","13","","","","101.15","","","","","","NA"
"-61.70","49.09","HEATH POINT","7053038","2019-07-30 11:00","2019","07","30","11:00","18.0","","15.3","","84","","0.0","","20","","10","","","","101.15","","","","","","NA"
"-61.70","49.09","HEATH POINT","7053038","2019-07-30 12:00","2019","07","30","12:00","17.1","","14.5","","85","","0.0","","16","","10","","","","101.17","","","","","","NA"
"-61.70","49.09","HEATH POINT","7053038","2019-07-30 13:00","2019","07","30","13:00","19.3","","16.5","","84","","0.0","","21","","13","","","","101.19","","","","","","NA"
"-61.70","49.09","HEATH POINT","7053038","2019-07-30 14:00","2019","07","30","14:00","17.7","","15.3","","86","","0.0","","19","","12","","","","101.18","","","","","","NA"
"-61.70","49.09","HEATH POINT","7053038","2019-07-30 15:00","2019","07","30","15:00","17.3","","15.4","","89","","0.0","","19","","16","","","","101.17","","","","","","NA"
"-61.70","49.09","HEATH POINT","7053038","2019-07-30 16:00","2019","07","30","16:00","17.2","","16.0","","93","","0.0","","17","","14","","","","101.19","","","","","","NA"
"-61.70","49.09","HEATH POINT","7053038","2019-07-30 17:00","2019","07","30","17:00","16.8","","15.9","","95","","0.0","","16","","13","","","","101.23","","","","","","NA"
"-61.70","49.09","HEATH POINT","7053038","2019-07-30 18:00","2019","07","30","18:00","17.2","","16.5","","96","","0.0","","16","","14","","","","101.22","","","","","","NA"
"-61.70","49.09","HEATH POINT","7053038","2019-07-30 19:00","2019","07","30","19:00","16.9","","16.3","","96","","0.0","","13","","12","","","","101.27","","","","","","NA"
"-61.70","49.09","HEATH POINT","7053038","2019-07-30 20:00","2019","07","30","20:00","16.6","","16.2","","97","","0.0","","14","","16","","","","101.30","","","","","","NA"
"-61.70","49.09","HEATH POINT","7053038","2019-07-30 21:00","2019","07","30","21:00","16.2","","15.8","","97","","0.0","","15","","18","","","","101.31","","","","","","NA"
"-61.70","49.09","HEATH POINT","7053038","2019-07-30 22:00","2019","07","30","22:00","16.5","","16.1","","98","","0.0","","14","","16","","","","101.28","","","","","","NA"
"-61.70","49.09","HEATH POINT","7053038","2019-07-30 23:00","2019","07","30","23:00","16.7","","16.3","","98","","0.0","","14","","17","","","","101.23","","","","","","NA"
"-61.70","49.09","HEATH POINT","7053038","2019-07-31 00:00","2019","07","31","00:00","16.8","","16.4","","98","","0.0","","15","","10","","","","101.21","","","","","","NA"
"-61.70","49.09","HEATH POINT","7053038","2019-07-31 01:00","2019","07","31","01:00","17.3","","16.8","","97","","0.0","","20","","7","","","","101.19","","","","","","NA"
"-61.70","49.09","HEATH POINT","7053038","2019-07-31 02:00","2019","07","31","02:00","17.2","","16.3","","95","","0.0","","21","","14","","","","101.16","","","","","","NA"
"-61.70","49.09","HEATH POINT","7053038","2019-07-31 03:00","2019","07","31","03:00","17.3","","16.4","","95","","0.0","","21","","20","","","","101.12","","","","","","NA"
"-61.70","49.09","HEATH POINT","7053038","2019-07-31 04:00","2019","07","31","04:00","16.4","","15.7","","96","","0.0","","21","","19","","","","101.12","","","","","","NA"
"-61.70","49.09","HEATH POINT","7053038","2019-07-31 05:00","2019","07","31","05:00","17.1","","16.3","","96","","0.0","","23","","14","","","","101.12","","","","","","NA"
"-61.70","49.09","HEATH POINT","7053038","2019-07-31 06:00","2019","07","31","06:00","18.5","","17.3","","93","","0.0","","25","","17","","","","101.17","","","","","","NA"
"-61.70","49.09","HEATH POINT","7053038","2019-07-31 07:00","2019","07","31","07:00","18.5","","17.1","","92","","0.0","","24","","18","","","","101.17","","","","","","NA"
"-61.70","49.09","HEATH POINT","7053038","2019-07-31 08:00","2019","07","31","08:00","18.3","","16.5","","90","","0.0","","23","","14","","","","101.16","","","","","","NA"
"-61.70","49.09","HEATH POINT","7053038","2019-07-31 09:00","2019","07","31","09:00","18.9","","16.9","","88","","0.0","","24","","17","","","","101.19","","","","","","NA"
"-61.70","49.09","HEATH POINT","7053038","2019-07-31 10:00","2019","07","31","10:00","19.5","","17.1","","86","","0.0","","24","","16","","","","101.17","","","","","","NA"
"-61.70","49.09","HEATH POINT","7053038","2019-07-31 11:00","2019","07","31","11:00","19.2","","16.9","","87","","0.0","","22","","17","","","","101.16","","","","","","NA"
"-61.70","49.09","HEATH POINT","7053038","2019-07-31 12:00","2019","07","31","12:00","18.9","","16.7","","87","","0.0","","21","","21","","","","101.13","","","","","","NA"
"-61.70","49.09","HEATH POINT","7053038","2019-07-31 13:00","2019","07","31","13:00","18.9","","16.7","","87","","0.0","","21","","18","","","","101.13","","","","","","NA"
"-61.70","49.09","HEATH POINT","7053038","2019-07-31 14:00","2019","07","31","14:00","18.6","","16.9","","90","","0.0","","20","","18","","","","101.12","","","","","","NA"
"-61.70","49.09","HEATH POINT","7053038","2019-07-31 15:00","2019","07","31","15:00","18.6","","17.1","","91","","0.0","","20","","21","","","","101.11","","","","","","NA"
"-61.70","49.09","HEATH POINT","7053038","2019-07-31 16:00","2019","07","31","16:00","18.7","","17.1","","90","","0.0","","23","","15","","","","101.10","","","","","","NA"
"-61.70","49.09","HEATH POINT","7053038","2019-07-31 17:00","2019","07","31","17:00","19.5","","18.3","","93","","0.0","","25","","14","","","","101.14","","","","","","NA"
"-61.70","49.09","HEATH POINT","7053038","2019-07-31 18:00","2019","07","31","18:00","17.6","","16.8","","95","","0.0","","22","","11","","","","101.12","","","","","","NA"
"-61.70","49.09","HEATH POINT","7053038","2019-07-31 19:00","2019","07","31","19:00","17.2","","16.8","","98","","0.0","","23","","7","","","","101.12","","","","","","NA"
"-61.70","49.09","HEATH POINT","7053038","2019-07-31 20:00","2019","07","31","20:00","16.0","","15.6","","97","","0.0","","16","","6","","","","101.14","","","","","","NA"
"-61.70","49.09","HEATH POINT","7053038","2019-07-31 21:00","2019","07","31","21:00","15.8","","15.5","","98","","0.0","","16","","16","","","","101.09","","","","","","NA"
"-61.70","49.09","HEATH POINT","7053038","2019-07-31 22:00","2019","07","31","22:00","15.9","","15.7","","99","","0.0","","18","","13","","","","101.04","","","","","","NA"
"-61.70","49.09","HEATH POINT","7053038","2019-07-31 23:00","2019","07","31","23:00","15.9","","15.6","","98","","0.0","","17","","22","","","","101.02","","","","","","NA"
