"Longitude (x)","Latitude (y)","Station Name","Climate ID","Date/Time (LST)","Year","Month","Day","Time (LST)","Temp (°C)","Temp Flag","Dew Point Temp (°C)","Dew Point Temp Flag","Rel Hum (%)","Rel Hum Flag","Precip. Amount (mm)","Precip. Amount Flag","Wind Dir (10s deg)","Wind Dir Flag","Wind Spd (km/h)","Wind Spd Flag","Visibility (km)","Visibility Flag","Stn Press (kPa)","Stn Press Flag","Hmdx","Hmdx Flag","Wind Chill","Wind Chill Flag","Weather"
"-77.53","44.12","TRENTON A","6158875","2021-01-01 00:00","2021","01","01","00:00"
"-77.53","44.12","TRENTON A","6158875","2021-01-01 01:00","2021","01","01","01:00"
"-77.53","44.12","TRENTON A","6158875","2021-01-01 02:00","2021","01","01","02:00"
"-77.53","44.12","TRENTON A","6158875","2021-01-01 03:00","2021","01","01","03:00"
"-77.53","44.12","TRENTON A","6158875","2021-01-01 04:00","2021","01","01","04:00"
"-77.53","44.12","TRENTON A","6158875","2021-01-01 05:00","2021","01","01","05:00"
"-77.53","44.12","TRENTON A","6158875","2021-01-01 06:00","2021","01","01","06:00","-4.0","","-5.1","","91","","","","5","","4","","24.1","","102.10","","","","-6","","Mostly Cloudy"
"-77.53","44.12","TRENTON A","6158875","2021-01-01 07:00","2021","01","01","07:00","-4.2","","-5.3","","91","","","","","","0","","24.1","","102.11","","","","","","Mostly Cloudy"
"-77.53","44.12","TRENTON A","6158875","2021-01-01 08:00","2021","01","01","08:00","-3.6","","-4.6","","92","","","","1","","5","","24.1","","102.14","","","","-6","","Mostly Cloudy"
"-77.53","44.12","TRENTON A","6158875","2021-01-01 09:00","2021","01","01","09:00","-1.7","","-2.7","","92","","","","1","","4","","24.1","","102.17","","","","-3","","Mostly Cloudy"
"-77.53","44.12","TRENTON A","6158875","2021-01-01 10:00","2021","01","01","10:00","-0.4","","-2.2","","86","","","","8","","5","","24.1","","102.11","","","","-2","","Cloudy"
"-77.53","44.12","TRENTON A","6158875","2021-01-01 11:00","2021","01","01","11:00","0.5","","-2.5","","78","","","","7","","5","","24.1","","102.01","","","","","","Cloudy"
"-77.53","44.12","TRENTON A","6158875","2021-01-01 12:00","2021","01","01","12:00","1.6","","-2.6","","72","","","","7","","11","","24.1","","101.85","","","","","","Cloudy"
"-77.53","44.12","TRENTON A","6158875","2021-01-01 13:00","2021","01","01","13:00","1.8","","-2.3","","73","","","","10","","11","","24.1","","101.70","","","","","","Cloudy"
"-77.53","44.12","TRENTON A","6158875","2021-01-01 14:00","2021","01","01","14:00","2.0","","-2.5","","70","","","","12","","8","","24.1","","101.65","","","","","","Cloudy"
"-77.53","44.12","TRENTON A","6158875","2021-01-01 15:00","2021","01","01","15:00","1.9","","-3.6","","65","","","","10","","13","","24.1","","101.44","","","","","","Cloudy"
"-77.53","44.12","TRENTON A","6158875","2021-01-01 16:00","2021","01","01","16:00","1.5","","-4.2","","63","","","","11","","15","","24.1","","101.39","","","","","","Cloudy"
"-77.53","44.12","TRENTON A","6158875","2021-01-01 17:00","2021","01","01","17:00","1.0","","-4.1","","66","","","","10","","15","","24.1","","101.33","","","","","","Cloudy"
"-77.53","44.12","TRENTON A","6158875","2021-01-01 18:00","2021","01","01","18:00","0.9","","-4.8","","63","","","","8","","8","","24.1","","101.25","","","","","","Cloudy"
"-77.53","44.12","TRENTON A","6158875","2021-01-01 19:00","2021","01","01","19:00","-0.2","","-3.1","","78","","","","9","","11","","6.4","","100.98","","","","-4","","Snow"
"-77.53","44.12","TRENTON A","6158875","2021-01-01 20:00","2021","01","01","20:00","-0.5","","-1.7","","91","","","","9","","11","","4.8","","100.85","","","","-4","","Snow"
"-77.53","44.12","TRENTON A","6158875","2021-01-01 21:00","2021","01","01","21:00","-0.7","","-1.2","","96","","","","8","","11","","3.2","","100.65","","","","-4","","Snow"
"-77.53","44.12","TRENTON A","6158875","2021-01-01 22:00","2021","01","01","22:00"
"-77.53","44.12","TRENTON A","6158875","2021-01-01 23:00","2021","01","01","23:00"
"-77.53","44.12","TRENTON A","6158875","2021-01-02 00:00","2021","01","02","00:00"
"-77.53","44.12","TRENTON A","6158875","2021-01-02 01:00","2021","01","02","01:00"
"-77.53","44.12","TRENTON A","6158875","2021-01-02 02:00","2021","01","02","02:00"
"-77.53","44.12","TRENTON A","6158875","2021-01-02 03:00","2021","01","02","03:00"
"-77.53","44.12","TRENTON A","6158875","2021-01-02 04:00","2021","01","02","04:00"
"-77.53","44.12","TRENTON A","6158875","2021-01-02 05:00","2021","01","02","05:00"
"-77.53","44.12","TRENTON A","6158875","2021-01-02 06:00","2021","01","02","06:00","-1.9","","-2.9","","92","","","","1","","17","","1.2","","99.69","","","","-7","","Snow"
"-77.53","44.12","TRENTON A","6158875","2021-01-02 07:00","2021","01","02","07:00","-2.1","","-3.5","","89","","","","36","","15","","8.1","","99.77","","","","-7","","Snow"
"-77.53","44.12","TRENTON A","6158875","2021-01-02 08:00","2021","01","02","08:00","-2.5","","-4.5","","84","","","","35","","15","","24.1","","100.01","","","","-7","","Mainly Clear"
"-77.53","44.12","TRENTON A","6158875","2021-01-02 09:00","2021","01","02","09:00","-2.5","","-4.8","","82","","","","33","","13","","24.1","","100.27","","","","-7","","Clear"
"-77.53","44.12","TRENTON A","6158875","2021-01-02 10:00","2021","01","02","10:00","-2.1","","-4.7","","80","","","","31","","11","","24.1","","100.37","","","","-6","","Clear"
"-77.53","44.12","TRENTON A","6158875","2021-01-02 11:00","2021","01","02","11:00","-1.4","","-4.4","","78","","","","32","","13","","24.1","","100.48","","","","-6","","Clear"
"-77.53","44.12","TRENTON A","6158875","2021-01-02 12:00","2021","01","02","12:00","-0.5","","-4.0","","75","","","","27","","9","","24.1","","100.49","","","","-4","","Mainly Clear"
"-77.53","44.12","TRENTON A","6158875","2021-01-02 13:00","2021","01","02","13:00","0.2","","-3.6","","73","","","","26","","9","","24.1","","100.55","","","","","","Mainly Clear"
"-77.53","44.12","TRENTON A","6158875","2021-01-02 14:00","2021","01","02","14:00","0.6","","-3.4","","72","","","","29","","9","","24.1","","100.63","","","","","","Mainly Clear"
"-77.53","44.12","TRENTON A","6158875","2021-01-02 15:00","2021","01","02","15:00","1.3","","-3.3","","69","","","","31","","11","","24.1","","100.71","","","","","","Mainly Clear"
"-77.53","44.12","TRENTON A","6158875","2021-01-02 16:00","2021","01","02","16:00","0.4","","-3.3","","74","","","","28","","8","","24.1","","100.79","","","","","","Mainly Clear"
"-77.53","44.12","TRENTON A","6158875","2021-01-02 17:00","2021","01","02","17:00","-0.7","","-3.5","","79","","","","27","","9","","24.1","","100.88","","","","-4","","Mostly Cloudy"
"-77.53","44.12","TRENTON A","6158875","2021-01-02 18:00","2021","01","02","18:00","0.2","","-2.8","","78","","","","26","","5","","24.1","","100.92","","","","","","Cloudy"
"-77.53","44.12","TRENTON A","6158875","2021-01-02 19:00","2021","01","02","19:00","-2.5","","-3.6","","91","","","","","","0","","24.1","","100.98","","","","","","Mainly Clear"
"-77.53","44.12","TRENTON A","6158875","2021-01-02 20:00","2021","01","02","20:00","-4.0","","-4.6","","95","","","","19","","5","","24.1","","101.04","","","","-6","","Mainly Clear"
"-77.53","44.12","TRENTON A","6158875","2021-01-02 21:00","2021","01","02","21:00","-3.0","","-3.8","","93","","","","32","","4","","24.1","","101.04","","","","-5","","Mostly Cloudy"
"-77.53","44.12","TRENTON A","6158875","2021-01-02 22:00","2021","01","02","22:00"
"-77.53","44.12","TRENTON A","6158875","2021-01-02 23:00","2021","01","02","23:00"
"-77.53","44.12","TRENTON A","6158875","2021-01-03 00:00","2021","01","03","00:00"
"-77.53","44.12","TRENTON A","6158875","2021-01-03 01:00","2021","01","03","01:00"
"-77.53","44.12","TRENTON A","6158875","2021-01-03 02:00","2021","01","03","02:00"
"-77.53","44.12","TRENTON A","6158875","2021-01-03 03:00","2021","01","03","03:00"
"-77.53","44.12","TRENTON A","6158875","2021-01-03 04:00","2021","01","03","04:00"
"-77.53","44.12","TRENTON A","6158875","2021-01-03 05:00","2021","01","03","05:00"
"-77.53","44.12","TRENTON A","6158875","2021-01-03 06:00","2021","01","03","06:00","-1.4","","-3.2","","86","","","","","","0","","24.1","","100.75","","","","","","Cloudy"
"-77.53","44.12","TRENTON A","6158875","2021-01-03 07:00","2021","01","03","07:00","-0.8","","-2.6","","86","","","","7","","11","","24.1","","100.75","","","","-5","","Cloudy"
"-77.53","44.12","TRENTON A","6158875","2021-01-03 08:00","2021","01","03","08:00","-0.8","","-2.8","","85","","","","9","","13","","24.1","","100.70","","","","-5","","Cloudy"
"-77.53","44.12","TRENTON A","6158875","2021-01-03 09:00","2021","01","03","09:00","-0.8","","-2.7","","85","","","","8","","11","","24.1","","100.65","","","","-5","","Cloudy"
"-77.53","44.12","TRENTON A","6158875","2021-01-03 10:00","2021","01","03","10:00","-0.8","","-2.7","","85","","","","8","","13","","24.1","","100.57","","","","-5","","Cloudy"
"-77.53","44.12","TRENTON A","6158875","2021-01-03 11:00","2021","01","03","11:00","-0.7","","-2.7","","85","","","","8","","11","","24.1","","100.50","","","","-4","","Cloudy"
"-77.53","44.12","TRENTON A","6158875","2021-01-03 12:00","2021","01","03","12:00","-0.2","","-2.1","","85","","","","8","","9","","24.1","","100.37","","","","-3","","Snow"
"-77.53","44.12","TRENTON A","6158875","2021-01-03 13:00","2021","01","03","13:00","0.6","","-1.4","","85","","","","9","","8","","19.3","","100.27","","","","","","Snow"
"-77.53","44.12","TRENTON A","6158875","2021-01-03 14:00","2021","01","03","14:00","0.2","","-1.4","","88","","","","8","","8","","4.8","","100.28","","","","","","Snow"
"-77.53","44.12","TRENTON A","6158875","2021-01-03 15:00","2021","01","03","15:00","-0.7","","-1.4","","94","","","","5","","17","","2.4","","100.31","","","","-6","","Snow"
"-77.53","44.12","TRENTON A","6158875","2021-01-03 16:00","2021","01","03","16:00","-1.0","","-1.7","","94","","","","7","","9","","3.2","","100.32","","","","-4","","Snow"
"-77.53","44.12","TRENTON A","6158875","2021-01-03 17:00","2021","01","03","17:00","-1.1","","-2.1","","92","","","","6","","13","","8.1","","100.35","","","","-5","","Snow"
"-77.53","44.12","TRENTON A","6158875","2021-01-03 18:00","2021","01","03","18:00","-1.1","","-2.1","","92","","","","6","","13","","4.8","","100.37","","","","-5","","Snow"
"-77.53","44.12","TRENTON A","6158875","2021-01-03 19:00","2021","01","03","19:00","-1.2","","-2.1","","93","","","","3","","13","","3.2","","100.41","","","","-5","","Snow"
"-77.53","44.12","TRENTON A","6158875","2021-01-03 20:00","2021","01","03","20:00","-1.2","","-2.0","","94","","","","3","","11","","3.2","","100.43","","","","-5","","Snow"
"-77.53","44.12","TRENTON A","6158875","2021-01-03 21:00","2021","01","03","21:00","-1.3","","-2.0","","94","","","","5","","9","","3.2","","100.42","","","","-5","","Freezing Drizzle,Snow"
"-77.53","44.12","TRENTON A","6158875","2021-01-03 22:00","2021","01","03","22:00"
"-77.53","44.12","TRENTON A","6158875","2021-01-03 23:00","2021","01","03","23:00"
"-77.53","44.12","TRENTON A","6158875","2021-01-04 00:00","2021","01","04","00:00"
"-77.53","44.12","TRENTON A","6158875","2021-01-04 01:00","2021","01","04","01:00"
"-77.53","44.12","TRENTON A","6158875","2021-01-04 02:00","2021","01","04","02:00"
"-77.53","44.12","TRENTON A","6158875","2021-01-04 03:00","2021","01","04","03:00"
"-77.53","44.12","TRENTON A","6158875","2021-01-04 04:00","2021","01","04","04:00"
"-77.53","44.12","TRENTON A","6158875","2021-01-04 05:00","2021","01","04","05:00"
"-77.53","44.12","TRENTON A","6158875","2021-01-04 06:00","2021","01","04","06:00","-1.3","","-3.0","","87","","","","35","","8","","24.1","","100.60","","","","-4","","Cloudy"
"-77.53","44.12","TRENTON A","6158875","2021-01-04 07:00","2021","01","04","07:00","-1.4","","-3.3","","85","","","","34","","9","","24.1","","100.66","","","","-5","","Cloudy"
"-77.53","44.12","TRENTON A","6158875","2021-01-04 08:00","2021","01","04","08:00","-1.3","","-3.4","","84","","","","35","","5","","24.1","","100.73","","","","-3","","Cloudy"
"-77.53","44.12","TRENTON A","6158875","2021-01-04 09:00","2021","01","04","09:00","-1.2","","-3.3","","84","","","","33","","5","","24.1","","100.80","","","","-3","","Cloudy"
"-77.53","44.12","TRENTON A","6158875","2021-01-04 10:00","2021","01","04","10:00","-1.1","","-3.1","","85","","","","36","","5","","24.1","","100.79","","","","-3","","Cloudy"
"-77.53","44.12","TRENTON A","6158875","2021-01-04 11:00","2021","01","04","11:00","-0.8","","-2.8","","85","","","","34","","5","","24.1","","100.73","","","","-2","","Cloudy"
"-77.53","44.12","TRENTON A","6158875","2021-01-04 12:00","2021","01","04","12:00","-0.1","","-2.7","","81","","","","34","","4","","24.1","","100.64","","","","-1","","Cloudy"
"-77.53","44.12","TRENTON A","6158875","2021-01-04 13:00","2021","01","04","13:00","0.0","","-2.7","","80","","","","32","","5","","24.1","","100.57","","","","-2","","Cloudy"
"-77.53","44.12","TRENTON A","6158875","2021-01-04 14:00","2021","01","04","14:00","0.0","","-2.7","","80","","","","36","","8","","24.1","","100.55","","","","-3","","Cloudy"
"-77.53","44.12","TRENTON A","6158875","2021-01-04 15:00","2021","01","04","15:00","0.0","","-2.7","","80","","","","1","","5","","24.1","","100.57","","","","-2","","Cloudy"
"-77.53","44.12","TRENTON A","6158875","2021-01-04 16:00","2021","01","04","16:00","0.1","","-2.5","","81","","","","","","0","","24.1","","100.60","","","","","","Cloudy"
"-77.53","44.12","TRENTON A","6158875","2021-01-04 17:00","2021","01","04","17:00","-0.3","","-2.2","","85","","","","10","","4","","24.1","","100.61","","","","-2","","Cloudy"
"-77.53","44.12","TRENTON A","6158875","2021-01-04 18:00","2021","01","04","18:00","-0.3","","-1.9","","88","","","","","","0","","24.1","","100.60","","","","","","Cloudy"
"-77.53","44.12","TRENTON A","6158875","2021-01-04 19:00","2021","01","04","19:00","-0.6","","-1.9","","90","","","","","","0","","24.1","","100.59","","","","","","Cloudy"
"-77.53","44.12","TRENTON A","6158875","2021-01-04 20:00","2021","01","04","20:00","-0.6","","-1.9","","90","","","","","","0","","24.1","","100.56","","","","","","Cloudy"
"-77.53","44.12","TRENTON A","6158875","2021-01-04 21:00","2021","01","04","21:00","-0.6","","-2.2","","88","","","","","","0","","24.1","","100.54","","","","","","Cloudy"
"-77.53","44.12","TRENTON A","6158875","2021-01-04 22:00","2021","01","04","22:00"
"-77.53","44.12","TRENTON A","6158875","2021-01-04 23:00","2021","01","04","23:00"
"-77.53","44.12","TRENTON A","6158875","2021-01-05 00:00","2021","01","05","00:00"
"-77.53","44.12","TRENTON A","6158875","2021-01-05 01:00","2021","01","05","01:00"
"-77.53","44.12","TRENTON A","6158875","2021-01-05 02:00","2021","01","05","02:00"
"-77.53","44.12","TRENTON A","6158875","2021-01-05 03:00","2021","01","05","03:00"
"-77.53","44.12","TRENTON A","6158875","2021-01-05 04:00","2021","01","05","04:00"
"-77.53","44.12","TRENTON A","6158875","2021-01-05 05:00","2021","01","05","05:00"
"-77.53","44.12","TRENTON A","6158875","2021-01-05 06:00","2021","01","05","06:00","-1.2","","-2.2","","92","","","","34","","4","","9.7","","100.43","","","","-3","","Fog"
"-77.53","44.12","TRENTON A","6158875","2021-01-05 07:00","2021","01","05","07:00","-1.5","","-2.4","","93","","","","3","","4","","9.7","","100.47","","","","-3","","Fog"
"-77.53","44.12","TRENTON A","6158875","2021-01-05 08:00","2021","01","05","08:00","-1.3","","-2.2","","93","","","","1","","4","","8.1","","100.52","","","","-3","","Fog"
"-77.53","44.12","TRENTON A","6158875","2021-01-05 09:00","2021","01","05","09:00","-1.0","","-2.3","","90","","","","3","","9","","8.1","","100.56","","","","-4","","Fog"
"-77.53","44.12","TRENTON A","6158875","2021-01-05 10:00","2021","01","05","10:00","-0.7","","-2.3","","88","","","","1","","5","","6.4","","100.58","","","","-2","","Fog"
"-77.53","44.12","TRENTON A","6158875","2021-01-05 11:00","2021","01","05","11:00","-0.5","","-2.0","","88","","","","1","","5","","8.1","","100.54","","","","-2","","Fog"
"-77.53","44.12","TRENTON A","6158875","2021-01-05 12:00","2021","01","05","12:00","-0.1","","-1.8","","87","","","","3","","11","","9.7","","100.48","","","","-4","","Fog"
"-77.53","44.12","TRENTON A","6158875","2021-01-05 13:00","2021","01","05","13:00","0.2","","-2.1","","83","","","","3","","5","","11.3","","100.44","","","","","","Cloudy"
"-77.53","44.12","TRENTON A","6158875","2021-01-05 14:00","2021","01","05","14:00","0.8","","-2.4","","77","","","","36","","5","","11.3","","100.47","","","","","","Cloudy"
"-77.53","44.12","TRENTON A","6158875","2021-01-05 15:00","2021","01","05","15:00","0.3","","-2.1","","82","","","","33","","11","","9.7","","100.52","","","","","","Snow,Fog"
"-77.53","44.12","TRENTON A","6158875","2021-01-05 16:00","2021","01","05","16:00","0.2","","-1.6","","86","","","","34","","13","","9.7","","100.61","","","","","","Fog"
"-77.53","44.12","TRENTON A","6158875","2021-01-05 17:00","2021","01","05","17:00","0.0","","-1.2","","91","","","","33","","5","","6.4","","100.69","","","","-2","","Snow,Fog"
"-77.53","44.12","TRENTON A","6158875","2021-01-05 18:00","2021","01","05","18:00","0.2","","-1.4","","88","","","","36","","8","","9.7","","100.73","","","","","","Snow,Fog"
"-77.53","44.12","TRENTON A","6158875","2021-01-05 19:00","2021","01","05","19:00","0.2","","-1.5","","87","","","","3","","9","","11.3","","100.77","","","","","","Snow"
"-77.53","44.12","TRENTON A","6158875","2021-01-05 20:00","2021","01","05","20:00","-0.1","","-2.3","","83","","","","6","","5","","24.1","","100.80","","","","-2","","Cloudy"
"-77.53","44.12","TRENTON A","6158875","2021-01-05 21:00","2021","01","05","21:00","-0.3","","-2.4","","84","","","","2","","4","","24.1","","100.82","","","","-2","","Cloudy"
"-77.53","44.12","TRENTON A","6158875","2021-01-05 22:00","2021","01","05","22:00"
"-77.53","44.12","TRENTON A","6158875","2021-01-05 23:00","2021","01","05","23:00"
"-77.53","44.12","TRENTON A","6158875","2021-01-06 00:00","2021","01","06","00:00"
"-77.53","44.12","TRENTON A","6158875","2021-01-06 01:00","2021","01","06","01:00"
"-77.53","44.12","TRENTON A","6158875","2021-01-06 02:00","2021","01","06","02:00"
"-77.53","44.12","TRENTON A","6158875","2021-01-06 03:00","2021","01","06","03:00"
"-77.53","44.12","TRENTON A","6158875","2021-01-06 04:00","2021","01","06","04:00"
"-77.53","44.12","TRENTON A","6158875","2021-01-06 05:00","2021","01","06","05:00"
"-77.53","44.12","TRENTON A","6158875","2021-01-06 06:00","2021","01","06","06:00","-0.6","","-2.7","","84","","","","30","","4","","24.1","","101.03","","","","-2","","Cloudy"
"-77.53","44.12","TRENTON A","6158875","2021-01-06 07:00","2021","01","06","07:00","-0.7","","-2.9","","83","","","","30","","8","","24.1","","101.07","","","","-4","","Cloudy"
"-77.53","44.12","TRENTON A","6158875","2021-01-06 08:00","2021","01","06","08:00","-1.6","","-3.4","","86","","","","30","","5","","24.1","","101.10","","","","-3","","Mainly Clear"
"-77.53","44.12","TRENTON A","6158875","2021-01-06 09:00","2021","01","06","09:00","-1.4","","-3.8","","82","","","","34","","8","","24.1","","101.18","","","","-4","","Mostly Cloudy"
"-77.53","44.12","TRENTON A","6158875","2021-01-06 10:00","2021","01","06","10:00","-0.6","","-4.6","","71","","","","34","","13","","24.1","","101.17","","","","-5","","Cloudy"
"-77.53","44.12","TRENTON A","6158875","2021-01-06 11:00","2021","01","06","11:00","-0.5","","-4.3","","73","","","","35","","15","","24.1","","101.16","","","","-5","","Cloudy"
"-77.53","44.12","TRENTON A","6158875","2021-01-06 12:00","2021","01","06","12:00","-0.2","","-4.7","","69","","","","36","","17","","24.1","","101.13","","","","-5","","Cloudy"
"-77.53","44.12","TRENTON A","6158875","2021-01-06 13:00","2021","01","06","13:00","-0.1","","-4.4","","70","","","","36","","15","","24.1","","101.10","","","","-5","","Cloudy"
"-77.53","44.12","TRENTON A","6158875","2021-01-06 14:00","2021","01","06","14:00","-0.1","","-4.4","","70","","","","1","","18","","24.1","","101.10","","","","-5","","Cloudy"
"-77.53","44.12","TRENTON A","6158875","2021-01-06 15:00","2021","01","06","15:00","0.3","","-4.4","","68","","","","34","","17","","24.1","","101.15","","","","","","Cloudy"
"-77.53","44.12","TRENTON A","6158875","2021-01-06 16:00","2021","01","06","16:00","0.1","","-4.3","","69","","","","36","","13","","24.1","","101.23","","","","","","Cloudy"
"-77.53","44.12","TRENTON A","6158875","2021-01-06 17:00","2021","01","06","17:00","0.1","","-4.4","","69","","","","34","","5","","24.1","","101.25","","","","","","Cloudy"
"-77.53","44.12","TRENTON A","6158875","2021-01-06 18:00","2021","01","06","18:00","-0.1","","-4.6","","69","","","","1","","17","","24.1","","101.33","","","","-5","","Cloudy"
"-77.53","44.12","TRENTON A","6158875","2021-01-06 19:00","2021","01","06","19:00","-0.5","","-4.6","","71","","","","36","","13","","24.1","","101.36","","","","-5","","Cloudy"
"-77.53","44.12","TRENTON A","6158875","2021-01-06 20:00","2021","01","06","20:00","-0.8","","-5.2","","69","","","","1","","15","","24.1","","101.42","","","","-5","","Cloudy"
"-77.53","44.12","TRENTON A","6158875","2021-01-06 21:00","2021","01","06","21:00","-0.9","","-5.6","","67","","","","1","","21","","24.1","","101.41","","","","-7","","Cloudy"
"-77.53","44.12","TRENTON A","6158875","2021-01-06 22:00","2021","01","06","22:00"
"-77.53","44.12","TRENTON A","6158875","2021-01-06 23:00","2021","01","06","23:00"
"-77.53","44.12","TRENTON A","6158875","2021-01-07 00:00","2021","01","07","00:00"
"-77.53","44.12","TRENTON A","6158875","2021-01-07 01:00","2021","01","07","01:00"
"-77.53","44.12","TRENTON A","6158875","2021-01-07 02:00","2021","01","07","02:00"
"-77.53","44.12","TRENTON A","6158875","2021-01-07 03:00","2021","01","07","03:00"
"-77.53","44.12","TRENTON A","6158875","2021-01-07 04:00","2021","01","07","04:00"
"-77.53","44.12","TRENTON A","6158875","2021-01-07 05:00","2021","01","07","05:00"
"-77.53","44.12","TRENTON A","6158875","2021-01-07 06:00","2021","01","07","06:00","-2.7","","-5.9","","76","","","","35","","9","","24.1","","101.56","","","","-6","","Cloudy"
"-77.53","44.12","TRENTON A","6158875","2021-01-07 07:00","2021","01","07","07:00","-2.9","","-6.5","","74","","","","35","","9","","24.1","","101.61","","","","-6","","Cloudy"
"-77.53","44.12","TRENTON A","6158875","2021-01-07 08:00","2021","01","07","08:00","-2.9","","-6.3","","75","","","","35","","9","","24.1","","101.63","","","","-6","","Cloudy"
"-77.53","44.12","TRENTON A","6158875","2021-01-07 09:00","2021","01","07","09:00","-2.9","","-6.4","","74","","","","1","","13","","24.1","","101.66","","","","-8","","Cloudy"
"-77.53","44.12","TRENTON A","6158875","2021-01-07 10:00","2021","01","07","10:00","-2.7","","-6.2","","74","","","","35","","9","","24.1","","101.64","","","","-6","","Cloudy"
"-77.53","44.12","TRENTON A","6158875","2021-01-07 11:00","2021","01","07","11:00","-2.9","","-6.5","","74","","","","34","","11","","24.1","","101.61","","","","-7","","Cloudy"
"-77.53","44.12","TRENTON A","6158875","2021-01-07 12:00","2021","01","07","12:00","-2.8","","-6.6","","72","","","","35","","13","","24.1","","101.55","","","","-7","","Cloudy"
"-77.53","44.12","TRENTON A","6158875","2021-01-07 13:00","2021","01","07","13:00","-2.6","","-6.6","","71","","","","31","","5","","24.1","","101.49","","","","-5","","Cloudy"
"-77.53","44.12","TRENTON A","6158875","2021-01-07 14:00","2021","01","07","14:00","-2.8","","-6.9","","70","","","","35","","8","","24.1","","101.51","","","","-6","","Cloudy"
"-77.53","44.12","TRENTON A","6158875","2021-01-07 15:00","2021","01","07","15:00","-2.8","","-7.0","","70","","","","33","","9","","24.1","","101.52","","","","-6","","Cloudy"
"-77.53","44.12","TRENTON A","6158875","2021-01-07 16:00","2021","01","07","16:00","-3.1","","-7.4","","69","","","","34","","5","","24.1","","101.57","","","","-5","","Cloudy"
"-77.53","44.12","TRENTON A","6158875","2021-01-07 17:00","2021","01","07","17:00","-3.0","","-7.2","","70","","","","36","","5","","24.1","","101.57","","","","-5","","Mostly Cloudy"
"-77.53","44.12","TRENTON A","6158875","2021-01-07 18:00","2021","01","07","18:00","-4.8","","-7.7","","78","","","","","","0","","24.1","","101.58","","","","","","Mainly Clear"
"-77.53","44.12","TRENTON A","6158875","2021-01-07 19:00","2021","01","07","19:00","-7.2","","-9.3","","83","","","","36","","5","","24.1","","101.61","","","","-10","","Clear"
"-77.53","44.12","TRENTON A","6158875","2021-01-07 20:00","2021","01","07","20:00","-7.0","","-9.5","","80","","","","2","","11","","24.1","","101.61","","","","-12","","Clear"
"-77.53","44.12","TRENTON A","6158875","2021-01-07 21:00","2021","01","07","21:00","-8.4","","-10.6","","82","","","","3","","9","","24.1","","101.60","","","","-13","","Clear"
"-77.53","44.12","TRENTON A","6158875","2021-01-07 22:00","2021","01","07","22:00"
"-77.53","44.12","TRENTON A","6158875","2021-01-07 23:00","2021","01","07","23:00"
"-77.53","44.12","TRENTON A","6158875","2021-01-08 00:00","2021","01","08","00:00"
"-77.53","44.12","TRENTON A","6158875","2021-01-08 01:00","2021","01","08","01:00"
"-77.53","44.12","TRENTON A","6158875","2021-01-08 02:00","2021","01","08","02:00"
"-77.53","44.12","TRENTON A","6158875","2021-01-08 03:00","2021","01","08","03:00"
"-77.53","44.12","TRENTON A","6158875","2021-01-08 04:00","2021","01","08","04:00"
"-77.53","44.12","TRENTON A","6158875","2021-01-08 05:00","2021","01","08","05:00"
"-77.53","44.12","TRENTON A","6158875","2021-01-08 06:00","2021","01","08","06:00","-8.2","","-10.4","","82","","","","3","","15","","24.1","","101.36","","","","-15","","Cloudy"
"-77.53","44.12","TRENTON A","6158875","2021-01-08 07:00","2021","01","08","07:00","-8.3","","-10.4","","83","","","","36","","11","","24.1","","101.34","","","","-14","","Cloudy"
"-77.53","44.12","TRENTON A","6158875","2021-01-08 08:00","2021","01","08","08:00","-8.8","","-10.9","","83","","","","35","","9","","24.1","","101.38","","","","-13","","Cloudy"
"-77.53","44.12","TRENTON A","6158875","2021-01-08 09:00","2021","01","08","09:00","-8.8","","-11.2","","81","","","","3","","11","","24.1","","101.39","","","","-14","","Cloudy"
"-77.53","44.12","TRENTON A","6158875","2021-01-08 10:00","2021","01","08","10:00","-8.6","","-11.4","","78","","","","2","","8","","24.1","","101.35","","","","-13","","Snow"
"-77.53","44.12","TRENTON A","6158875","2021-01-08 11:00","2021","01","08","11:00","-8.3","","-12.7","","68","","","","5","","15","","24.1","","101.25","","","","-15","","Mainly Clear"
"-77.53","44.12","TRENTON A","6158875","2021-01-08 12:00","2021","01","08","12:00","-7.1","","-12.5","","62","","","","4","","8","","24.1","","101.15","","","","-11","","Clear"
"-77.53","44.12","TRENTON A","6158875","2021-01-08 13:00","2021","01","08","13:00","-6.3","","-12.4","","58","","","","31","","11","","24.1","","101.08","","","","-11","","Clear"
"-77.53","44.12","TRENTON A","6158875","2021-01-08 14:00","2021","01","08","14:00","-5.2","","-12.5","","53","","","","34","","9","","24.1","","101.05","","","","-9","","Clear"
"-77.53","44.12","TRENTON A","6158875","2021-01-08 15:00","2021","01","08","15:00","-3.8","","-12.6","","46","","","","24","","4","","24.1","","101.04","","","","-5","","Clear"
"-77.53","44.12","TRENTON A","6158875","2021-01-08 16:00","2021","01","08","16:00","-4.5","","-11.0","","57","","","","20","","5","","24.1","","101.01","","","","-7","","Clear"
"-77.53","44.12","TRENTON A","6158875","2021-01-08 17:00","2021","01","08","17:00","-4.9","","-11.4","","57","","","","24","","5","","24.1","","100.99","","","","-7","","Clear"
"-77.53","44.12","TRENTON A","6158875","2021-01-08 18:00","2021","01","08","18:00","-7.2","","-11.5","","68","","","","30","","4","","24.1","","101.00","","","","-9","","Clear"
"-77.53","44.12","TRENTON A","6158875","2021-01-08 19:00","2021","01","08","19:00","-8.9","","-11.9","","77","","","","","","0","","24.1","","101.01","","","","","","Clear"
"-77.53","44.12","TRENTON A","6158875","2021-01-08 20:00","2021","01","08","20:00","-10.4","","-12.9","","80","","","","1","","8","","24.1","","101.01","","","","-15","","Clear"
"-77.53","44.12","TRENTON A","6158875","2021-01-08 21:00","2021","01","08","21:00","-8.2","","-13.8","","61","","","","34","","5","","24.1","","101.01","","","","-11","","Clear"
"-77.53","44.12","TRENTON A","6158875","2021-01-08 22:00","2021","01","08","22:00"
"-77.53","44.12","TRENTON A","6158875","2021-01-08 23:00","2021","01","08","23:00"
"-77.53","44.12","TRENTON A","6158875","2021-01-09 00:00","2021","01","09","00:00"
"-77.53","44.12","TRENTON A","6158875","2021-01-09 01:00","2021","01","09","01:00"
"-77.53","44.12","TRENTON A","6158875","2021-01-09 02:00","2021","01","09","02:00"
"-77.53","44.12","TRENTON A","6158875","2021-01-09 03:00","2021","01","09","03:00"
"-77.53","44.12","TRENTON A","6158875","2021-01-09 04:00","2021","01","09","04:00"
"-77.53","44.12","TRENTON A","6158875","2021-01-09 05:00","2021","01","09","05:00"
"-77.53","44.12","TRENTON A","6158875","2021-01-09 06:00","2021","01","09","06:00","-6.8","","-14.0","","53","","","","32","","13","","24.1","","100.92","","","","-12","","Mainly Clear"
"-77.53","44.12","TRENTON A","6158875","2021-01-09 07:00","2021","01","09","07:00","-7.2","","-14.1","","54","","","","35","","11","","24.1","","100.98","","","","-12","","Mainly Clear"
"-77.53","44.12","TRENTON A","6158875","2021-01-09 08:00","2021","01","09","08:00","-5.7","","-14.0","","48","","","","34","","15","","24.1","","101.02","","","","-11","","Mostly Cloudy"
"-77.53","44.12","TRENTON A","6158875","2021-01-09 09:00","2021","01","09","09:00","-5.7","","-13.6","","50","","","","34","","15","","24.1","","101.07","","","","-11","","Mostly Cloudy"
"-77.53","44.12","TRENTON A","6158875","2021-01-09 10:00","2021","01","09","10:00","-5.4","","-13.3","","50","","","","34","","8","","24.1","","101.09","","","","-9","","Mostly Cloudy"
"-77.53","44.12","TRENTON A","6158875","2021-01-09 11:00","2021","01","09","11:00","-4.0","","-12.8","","46","","","","","","0","","24.1","","101.05","","","","","","Mostly Cloudy"
"-77.53","44.12","TRENTON A","6158875","2021-01-09 12:00","2021","01","09","12:00","-1.4","","-11.6","","41","","","","30","","8","","24.1","","100.96","","","","-4","","Mostly Cloudy"
"-77.53","44.12","TRENTON A","6158875","2021-01-09 13:00","2021","01","09","13:00","-0.8","","-12.6","","36","","","","30","","15","","24.1","","100.91","","","","-5","","Mostly Cloudy"
"-77.53","44.12","TRENTON A","6158875","2021-01-09 14:00","2021","01","09","14:00","0.5","","-11.2","","37","","","","32","","9","","24.1","","100.90","","","","","","Cloudy"
"-77.53","44.12","TRENTON A","6158875","2021-01-09 15:00","2021","01","09","15:00","1.1","","-11.4","","35","","","","31","","11","","24.1","","100.89","","","","","","Cloudy"
"-77.53","44.12","TRENTON A","6158875","2021-01-09 16:00","2021","01","09","16:00","-0.1","","-9.9","","43","","","","30","","9","","24.1","","100.91","","","","-3","","Cloudy"
"-77.53","44.12","TRENTON A","6158875","2021-01-09 17:00","2021","01","09","17:00","-0.8","","-10.1","","45","","","","27","","4","","24.1","","100.94","","","","-2","","Cloudy"
"-77.53","44.12","TRENTON A","6158875","2021-01-09 18:00","2021","01","09","18:00","-1.6","","-10.1","","48","","","","28","","5","","24.1","","100.99","","","","-3","","Mostly Cloudy"
"-77.53","44.12","TRENTON A","6158875","2021-01-09 19:00","2021","01","09","19:00","-2.2","","-9.9","","51","","","","34","","9","","24.1","","101.04","","","","-6","","Mostly Cloudy"
"-77.53","44.12","TRENTON A","6158875","2021-01-09 20:00","2021","01","09","20:00","-5.0","","-9.7","","66","","","","1","","8","","24.1","","101.08","","","","-9","","Mostly Cloudy"
"-77.53","44.12","TRENTON A","6158875","2021-01-09 21:00","2021","01","09","21:00","-2.8","","-8.1","","63","","","","36","","15","","24.1","","101.12","","","","-8","","Cloudy"
"-77.53","44.12","TRENTON A","6158875","2021-01-09 22:00","2021","01","09","22:00"
"-77.53","44.12","TRENTON A","6158875","2021-01-09 23:00","2021","01","09","23:00"
"-77.53","44.12","TRENTON A","6158875","2021-01-10 00:00","2021","01","10","00:00"
"-77.53","44.12","TRENTON A","6158875","2021-01-10 01:00","2021","01","10","01:00"
"-77.53","44.12","TRENTON A","6158875","2021-01-10 02:00","2021","01","10","02:00"
"-77.53","44.12","TRENTON A","6158875","2021-01-10 03:00","2021","01","10","03:00"
"-77.53","44.12","TRENTON A","6158875","2021-01-10 04:00","2021","01","10","04:00"
"-77.53","44.12","TRENTON A","6158875","2021-01-10 05:00","2021","01","10","05:00"
"-77.53","44.12","TRENTON A","6158875","2021-01-10 06:00","2021","01","10","06:00","-13.8","","-15.2","","88","","","","","","0","","24.1","","101.46","","","","","","Clear"
"-77.53","44.12","TRENTON A","6158875","2021-01-10 07:00","2021","01","10","07:00","-14.4","","-16.0","","86","","","","5","","5","","24.1","","101.48","","","","-18","","Mainly Clear"
"-77.53","44.12","TRENTON A","6158875","2021-01-10 08:00","2021","01","10","08:00","-14.6","","-16.3","","85","","","","","","0","","24.1","","101.53","","","","","","Mainly Clear"
"-77.53","44.12","TRENTON A","6158875","2021-01-10 09:00","2021","01","10","09:00","-12.6","","-14.1","","87","","","","4","","5","","24.1","","101.63","","","","-16","","Mostly Cloudy"
"-77.53","44.12","TRENTON A","6158875","2021-01-10 10:00","2021","01","10","10:00","-9.3","","-11.4","","83","","","","","","0","","24.1","","101.70","","","","","","Mostly Cloudy"
"-77.53","44.12","TRENTON A","6158875","2021-01-10 11:00","2021","01","10","11:00","-7.7","","-11.0","","75","","","","10","","5","","24.1","","101.66","","","","-10","","Mostly Cloudy"
"-77.53","44.12","TRENTON A","6158875","2021-01-10 12:00","2021","01","10","12:00","-5.9","","-10.4","","67","","","","","","0","","24.1","","101.59","","","","","","Mostly Cloudy"
"-77.53","44.12","TRENTON A","6158875","2021-01-10 13:00","2021","01","10","13:00","-5.2","","-9.7","","68","","","","","","0","","24.1","","101.51","","","","","","Mostly Cloudy"
"-77.53","44.12","TRENTON A","6158875","2021-01-10 14:00","2021","01","10","14:00","-3.6","","-8.5","","66","","","","19","","4","","24.1","","101.50","","","","-5","","Cloudy"
"-77.53","44.12","TRENTON A","6158875","2021-01-10 15:00","2021","01","10","15:00","-1.7","","-6.4","","67","","","","","","0","","24.1","","101.51","","","","","","Cloudy"
"-77.53","44.12","TRENTON A","6158875","2021-01-10 16:00","2021","01","10","16:00","-1.9","","-5.8","","72","","","","","","0","","24.1","","101.52","","","","","","Cloudy"
"-77.53","44.12","TRENTON A","6158875","2021-01-10 17:00","2021","01","10","17:00","-1.4","","-4.5","","77","","","","","","0","","24.1","","101.53","","","","","","Cloudy"
"-77.53","44.12","TRENTON A","6158875","2021-01-10 18:00","2021","01","10","18:00","-0.1","","-3.3","","77","","","","23","","11","","24.1","","101.53","","","","-4","","Cloudy"
"-77.53","44.12","TRENTON A","6158875","2021-01-10 19:00","2021","01","10","19:00","-0.1","","-3.4","","76","","","","22","","15","","24.1","","101.56","","","","-5","","Cloudy"
"-77.53","44.12","TRENTON A","6158875","2021-01-10 20:00","2021","01","10","20:00","0.1","","-3.7","","73","","","","22","","11","","24.1","","101.57","","","","","","Cloudy"
"-77.53","44.12","TRENTON A","6158875","2021-01-10 21:00","2021","01","10","21:00","-0.1","","-3.5","","75","","","","19","","4","","24.1","","101.55","","","","-1","","Cloudy"
"-77.53","44.12","TRENTON A","6158875","2021-01-10 22:00","2021","01","10","22:00"
"-77.53","44.12","TRENTON A","6158875","2021-01-10 23:00","2021","01","10","23:00"
"-77.53","44.12","TRENTON A","6158875","2021-01-11 00:00","2021","01","11","00:00"
"-77.53","44.12","TRENTON A","6158875","2021-01-11 01:00","2021","01","11","01:00"
"-77.53","44.12","TRENTON A","6158875","2021-01-11 02:00","2021","01","11","02:00"
"-77.53","44.12","TRENTON A","6158875","2021-01-11 03:00","2021","01","11","03:00"
"-77.53","44.12","TRENTON A","6158875","2021-01-11 04:00","2021","01","11","04:00"
"-77.53","44.12","TRENTON A","6158875","2021-01-11 05:00","2021","01","11","05:00"
"-77.53","44.12","TRENTON A","6158875","2021-01-11 06:00","2021","01","11","06:00","-7.5","","-8.8","","89","","","","","","0","","11.3","","101.42","","","","","","Mostly Cloudy"
"-77.53","44.12","TRENTON A","6158875","2021-01-11 07:00","2021","01","11","07:00","-6.9","","-8.4","","88","","","","","","0","","11.3","","101.39","","","","","","Cloudy"
"-77.53","44.12","TRENTON A","6158875","2021-01-11 08:00","2021","01","11","08:00","-6.1","","-7.5","","89","","","","","","0","","11.3","","101.38","","","","","","Cloudy"
"-77.53","44.12","TRENTON A","6158875","2021-01-11 09:00","2021","01","11","09:00","-4.7","","-6.2","","88","","","","","","0","","11.3","","101.36","","","","","","Cloudy"
"-77.53","44.12","TRENTON A","6158875","2021-01-11 10:00","2021","01","11","10:00","-2.6","","-4.8","","83","","","","","","0","","11.3","","101.36","","","","","","Cloudy"
"-77.53","44.12","TRENTON A","6158875","2021-01-11 11:00","2021","01","11","11:00","-0.1","","-3.0","","79","","","","21","","9","","19.3","","101.27","","","","-3","","Cloudy"
"-77.53","44.12","TRENTON A","6158875","2021-01-11 12:00","2021","01","11","12:00","1.6","","-1.1","","81","","","","22","","17","","19.3","","101.13","","","","","","Mostly Cloudy"
"-77.53","44.12","TRENTON A","6158875","2021-01-11 13:00","2021","01","11","13:00","1.6","","-0.8","","83","","","","23","","11","","11.3","","101.05","","","","","","Snow Showers"
"-77.53","44.12","TRENTON A","6158875","2021-01-11 14:00","2021","01","11","14:00","1.6","","-0.8","","83","","","","23","","11","","12.9","","100.98","","","","","","Rain Showers,Snow Showers"
"-77.53","44.12","TRENTON A","6158875","2021-01-11 15:00","2021","01","11","15:00","1.5","","-0.7","","85","","","","26","","8","","12.9","","100.97","","","","","","Cloudy"
"-77.53","44.12","TRENTON A","6158875","2021-01-11 16:00","2021","01","11","16:00","1.6","","-0.9","","83","","","","22","","9","","12.9","","100.96","","","","","","Cloudy"
"-77.53","44.12","TRENTON A","6158875","2021-01-11 17:00","2021","01","11","17:00","1.5","","-1.2","","81","","","","23","","9","","12.9","","100.93","","","","","","Cloudy"
"-77.53","44.12","TRENTON A","6158875","2021-01-11 18:00","2021","01","11","18:00","1.0","","-1.6","","82","","","","24","","15","","9.7","","100.92","","","","","","Snow Showers"
"-77.53","44.12","TRENTON A","6158875","2021-01-11 19:00","2021","01","11","19:00","0.9","","-3.0","","73","","","","25","","15","","12.9","","100.89","","","","","","Cloudy"
"-77.53","44.12","TRENTON A","6158875","2021-01-11 20:00","2021","01","11","20:00","1.1","","-3.7","","68","","","","26","","21","","16.1","","100.86","","","","","","Cloudy"
"-77.53","44.12","TRENTON A","6158875","2021-01-11 21:00","2021","01","11","21:00","0.2","","-5.0","","65","","","","27","","17","","19.3","","100.86","","","","","","Cloudy"
"-77.53","44.12","TRENTON A","6158875","2021-01-11 22:00","2021","01","11","22:00"
"-77.53","44.12","TRENTON A","6158875","2021-01-11 23:00","2021","01","11","23:00"
"-77.53","44.12","TRENTON A","6158875","2021-01-12 00:00","2021","01","12","00:00"
"-77.53","44.12","TRENTON A","6158875","2021-01-12 01:00","2021","01","12","01:00"
"-77.53","44.12","TRENTON A","6158875","2021-01-12 02:00","2021","01","12","02:00"
"-77.53","44.12","TRENTON A","6158875","2021-01-12 03:00","2021","01","12","03:00"
"-77.53","44.12","TRENTON A","6158875","2021-01-12 04:00","2021","01","12","04:00"
"-77.53","44.12","TRENTON A","6158875","2021-01-12 05:00","2021","01","12","05:00"
"-77.53","44.12","TRENTON A","6158875","2021-01-12 06:00","2021","01","12","06:00","-0.2","","-4.6","","69","","","","26","","13","","11.3","","100.85","","","","-4","","Cloudy"
"-77.53","44.12","TRENTON A","6158875","2021-01-12 07:00","2021","01","12","07:00","-0.5","","-4.4","","72","","","","27","","9","","11.3","","100.87","","","","-4","","Cloudy"
"-77.53","44.12","TRENTON A","6158875","2021-01-12 08:00","2021","01","12","08:00","-0.5","","-4.4","","72","","","","28","","9","","11.3","","100.88","","","","-4","","Cloudy"
"-77.53","44.12","TRENTON A","6158875","2021-01-12 09:00","2021","01","12","09:00","-0.5","","-4.4","","72","","","","26","","5","","11.3","","100.91","","","","-2","","Cloudy"
"-77.53","44.12","TRENTON A","6158875","2021-01-12 10:00","2021","01","12","10:00","0.1","","-4.6","","68","","","","26","","5","","16.1","","100.95","","","","","","Cloudy"
"-77.53","44.12","TRENTON A","6158875","2021-01-12 11:00","2021","01","12","11:00","0.4","","-4.5","","67","","","","29","","9","","19.3","","100.92","","","","","","Cloudy"
"-77.53","44.12","TRENTON A","6158875","2021-01-12 12:00","2021","01","12","12:00","0.6","","-4.4","","66","","","","28","","8","","19.3","","100.81","","","","","","Cloudy"
"-77.53","44.12","TRENTON A","6158875","2021-01-12 13:00","2021","01","12","13:00","0.9","","-4.4","","65","","","","26","","11","","19.3","","100.76","","","","","","Cloudy"
"-77.53","44.12","TRENTON A","6158875","2021-01-12 14:00","2021","01","12","14:00","0.9","","-4.4","","65","","","","26","","11","","19.3","","100.74","","","","","","Cloudy"
"-77.53","44.12","TRENTON A","6158875","2021-01-12 15:00","2021","01","12","15:00","0.6","","-3.4","","72","","","","25","","15","","19.3","","100.73","","","","","","Cloudy"
"-77.53","44.12","TRENTON A","6158875","2021-01-12 16:00","2021","01","12","16:00","0.2","","-3.1","","76","","","","25","","15","","16.1","","100.72","","","","","","Snow Showers"
"-77.53","44.12","TRENTON A","6158875","2021-01-12 17:00","2021","01","12","17:00","0.1","","-3.8","","72","","","","26","","11","","16.1","","100.71","","","","","","Snow Showers"
"-77.53","44.12","TRENTON A","6158875","2021-01-12 18:00","2021","01","12","18:00","-0.1","","-3.2","","77","","","","24","","9","","16.1","","100.72","","","","-3","","Snow Showers"
"-77.53","44.12","TRENTON A","6158875","2021-01-12 19:00","2021","01","12","19:00","-0.2","","-3.1","","78","","","","27","","5","","12.9","","100.73","","","","-2","","Cloudy"
"-77.53","44.12","TRENTON A","6158875","2021-01-12 20:00","2021","01","12","20:00","-0.3","","-3.4","","77","","","","27","","9","","12.9","","100.76","","","","-3","","Cloudy"
"-77.53","44.12","TRENTON A","6158875","2021-01-12 21:00","2021","01","12","21:00","-0.6","","-3.8","","76","","","","29","","5","","12.9","","100.72","","","","-2","","Cloudy"
"-77.53","44.12","TRENTON A","6158875","2021-01-12 22:00","2021","01","12","22:00"
"-77.53","44.12","TRENTON A","6158875","2021-01-12 23:00","2021","01","12","23:00"
"-77.53","44.12","TRENTON A","6158875","2021-01-13 00:00","2021","01","13","00:00"
"-77.53","44.12","TRENTON A","6158875","2021-01-13 01:00","2021","01","13","01:00"
"-77.53","44.12","TRENTON A","6158875","2021-01-13 02:00","2021","01","13","02:00"
"-77.53","44.12","TRENTON A","6158875","2021-01-13 03:00","2021","01","13","03:00"
"-77.53","44.12","TRENTON A","6158875","2021-01-13 04:00","2021","01","13","04:00"
"-77.53","44.12","TRENTON A","6158875","2021-01-13 05:00","2021","01","13","05:00"
"-77.53","44.12","TRENTON A","6158875","2021-01-13 06:00","2021","01","13","06:00","0.6","","-2.1","","80","","","","24","","8","","11.3","","100.37","","","","","","Cloudy"
"-77.53","44.12","TRENTON A","6158875","2021-01-13 07:00","2021","01","13","07:00","0.9","","-2.8","","74","","","","25","","18","","12.9","","100.34","","","","","","Cloudy"
"-77.53","44.12","TRENTON A","6158875","2021-01-13 08:00","2021","01","13","08:00","0.6","","-2.3","","79","","","","21","","11","","8.1","","100.25","","","","","","Snow Showers"
"-77.53","44.12","TRENTON A","6158875","2021-01-13 09:00","2021","01","13","09:00","0.9","","-0.4","","91","","","","21","","21","","8.1","","100.24","","","","","","Snow Showers,Fog"
"-77.53","44.12","TRENTON A","6158875","2021-01-13 10:00","2021","01","13","10:00","1.2","","-0.5","","88","","","","21","","18","","8.1","","100.22","","","","","","Snow Showers,Fog"
"-77.53","44.12","TRENTON A","6158875","2021-01-13 11:00","2021","01","13","11:00","1.3","","-0.4","","88","","","","21","","21","","4.8","","100.17","","","","","","Rain Showers,Snow Showers,Fog"
"-77.53","44.12","TRENTON A","6158875","2021-01-13 12:00","2021","01","13","12:00","1.2","","-0.2","","90","","","","21","","17","","4.8","","100.01","","","","","","Rain Showers,Snow Showers,Fog"
"-77.53","44.12","TRENTON A","6158875","2021-01-13 13:00","2021","01","13","13:00","1.8","","-0.9","","82","","","","21","","18","","6.4","","99.89","","","","","","Rain Showers,Snow Showers,Fog"
"-77.53","44.12","TRENTON A","6158875","2021-01-13 14:00","2021","01","13","14:00","2.1","","-0.6","","82","","","","21","","15","","9.7","","99.82","","","","","","Fog"
"-77.53","44.12","TRENTON A","6158875","2021-01-13 15:00","2021","01","13","15:00","2.2","","-0.5","","82","","","","22","","21","","11.3","","99.79","","","","","","Cloudy"
"-77.53","44.12","TRENTON A","6158875","2021-01-13 16:00","2021","01","13","16:00","2.5","","-0.5","","80","","","","22","","18","","11.3","","99.78","","","","","","Cloudy"
"-77.53","44.12","TRENTON A","6158875","2021-01-13 17:00","2021","01","13","17:00","2.5","","-0.3","","82","","","","22","","15","","11.3","","99.76","","","","","","Cloudy"
"-77.53","44.12","TRENTON A","6158875","2021-01-13 18:00","2021","01","13","18:00","2.7","","-0.6","","78","","","","23","","17","","11.3","","99.74","","","","","","Cloudy"
"-77.53","44.12","TRENTON A","6158875","2021-01-13 19:00","2021","01","13","19:00","2.7","","-0.3","","80","","","","23","","15","","9.7","","99.73","","","","","","Fog"
"-77.53","44.12","TRENTON A","6158875","2021-01-13 20:00","2021","01","13","20:00","2.5","","0.0","","84","","","","24","","13","","9.7","","99.74","","","","","","Fog"
"-77.53","44.12","TRENTON A","6158875","2021-01-13 21:00","2021","01","13","21:00","2.7","","0.1","","83","","","","23","","9","","8.1","","99.72","","","","","","Fog"
"-77.53","44.12","TRENTON A","6158875","2021-01-13 22:00","2021","01","13","22:00"
"-77.53","44.12","TRENTON A","6158875","2021-01-13 23:00","2021","01","13","23:00"
"-77.53","44.12","TRENTON A","6158875","2021-01-14 00:00","2021","01","14","00:00"
"-77.53","44.12","TRENTON A","6158875","2021-01-14 01:00","2021","01","14","01:00"
"-77.53","44.12","TRENTON A","6158875","2021-01-14 02:00","2021","01","14","02:00"
"-77.53","44.12","TRENTON A","6158875","2021-01-14 03:00","2021","01","14","03:00"
"-77.53","44.12","TRENTON A","6158875","2021-01-14 04:00","2021","01","14","04:00"
"-77.53","44.12","TRENTON A","6158875","2021-01-14 05:00","2021","01","14","05:00"
"-77.53","44.12","TRENTON A","6158875","2021-01-14 06:00","2021","01","14","06:00","0.7","","-0.3","","93","","","","5","","4","","8.1","","99.71","","","","","","Fog"
"-77.53","44.12","TRENTON A","6158875","2021-01-14 07:00","2021","01","14","07:00","0.6","","-0.4","","93","","","","4","","8","","6.4","","99.74","","","","","","Fog"
"-77.53","44.12","TRENTON A","6158875","2021-01-14 08:00","2021","01","14","08:00","0.7","","-0.3","","93","","","","","","0","","6.4","","99.80","","","","","","Fog"
"-77.53","44.12","TRENTON A","6158875","2021-01-14 09:00","2021","01","14","09:00","1.0","","-0.1","","92","","","","","","0","","6.4","","99.85","","","","","","Fog"
"-77.53","44.12","TRENTON A","6158875","2021-01-14 10:00","2021","01","14","10:00","1.7","","0.0","","89","","","","","","0","","6.4","","99.91","","","","","","Fog"
"-77.53","44.12","TRENTON A","6158875","2021-01-14 11:00","2021","01","14","11:00","2.1","","0.1","","87","","","","4","","4","","8.1","","99.91","","","","","","Fog"
"-77.53","44.12","TRENTON A","6158875","2021-01-14 12:00","2021","01","14","12:00","3.4","","0.0","","78","","","","","","0","","9.7","","99.82","","","","","","Fog"
"-77.53","44.12","TRENTON A","6158875","2021-01-14 13:00","2021","01","14","13:00","4.2","","-0.4","","72","","","","","","0","","11.3","","99.77","","","","","","Mostly Cloudy"
"-77.53","44.12","TRENTON A","6158875","2021-01-14 14:00","2021","01","14","14:00","3.6","","-0.1","","77","","","","13","","4","","11.3","","99.82","","","","","","Mostly Cloudy"
"-77.53","44.12","TRENTON A","6158875","2021-01-14 15:00","2021","01","14","15:00","3.7","","-0.5","","74","","","","11","","5","","11.3","","99.88","","","","","","Cloudy"
"-77.53","44.12","TRENTON A","6158875","2021-01-14 16:00","2021","01","14","16:00","3.8","","-0.5","","73","","","","","","0","","11.3","","99.91","","","","","","Cloudy"
"-77.53","44.12","TRENTON A","6158875","2021-01-14 17:00","2021","01","14","17:00","2.8","","-0.5","","79","","","","9","","4","","11.3","","99.94","","","","","","Cloudy"
"-77.53","44.12","TRENTON A","6158875","2021-01-14 18:00","2021","01","14","18:00","1.9","","-0.6","","83","","","","6","","4","","9.7","","100.02","","","","","","Fog"
"-77.53","44.12","TRENTON A","6158875","2021-01-14 19:00","2021","01","14","19:00","2.3","","-0.6","","81","","","","7","","4","","9.7","","100.08","","","","","","Fog"
"-77.53","44.12","TRENTON A","6158875","2021-01-14 20:00","2021","01","14","20:00","1.8","","-0.7","","83","","","","6","","9","","8.1","","100.11","","","","","","Fog"
"-77.53","44.12","TRENTON A","6158875","2021-01-14 21:00","2021","01","14","21:00","2.0","","-0.9","","80","","","","7","","5","","8.1","","100.17","","","","","","Fog"
"-77.53","44.12","TRENTON A","6158875","2021-01-14 22:00","2021","01","14","22:00"
"-77.53","44.12","TRENTON A","6158875","2021-01-14 23:00","2021","01","14","23:00"
"-77.53","44.12","TRENTON A","6158875","2021-01-15 00:00","2021","01","15","00:00"
"-77.53","44.12","TRENTON A","6158875","2021-01-15 01:00","2021","01","15","01:00"
"-77.53","44.12","TRENTON A","6158875","2021-01-15 02:00","2021","01","15","02:00"
"-77.53","44.12","TRENTON A","6158875","2021-01-15 03:00","2021","01","15","03:00"
"-77.53","44.12","TRENTON A","6158875","2021-01-15 04:00","2021","01","15","04:00"
"-77.53","44.12","TRENTON A","6158875","2021-01-15 05:00","2021","01","15","05:00"
"-77.53","44.12","TRENTON A","6158875","2021-01-15 06:00","2021","01","15","06:00","-0.3","","-1.3","","92","","","","7","","13","","4.8","","100.24","","","","-4","","Fog"
"-77.53","44.12","TRENTON A","6158875","2021-01-15 07:00","2021","01","15","07:00","-0.5","","-1.5","","92","","","","9","","11","","6.4","","100.21","","","","-4","","Fog"
"-77.53","44.12","TRENTON A","6158875","2021-01-15 08:00","2021","01","15","08:00","-0.5","","-1.2","","94","","","","7","","17","","4.8","","100.20","","","","-5","","Fog"
"-77.53","44.12","TRENTON A","6158875","2021-01-15 09:00","2021","01","15","09:00","-0.3","","-0.5","","98","","","","9","","11","","3.2","","100.23","","","","-4","","Fog"
"-77.53","44.12","TRENTON A","6158875","2021-01-15 10:00","2021","01","15","10:00","0.2","","-1.0","","91","","","","8","","11","","6.4","","100.17","","","","","","Fog"
"-77.53","44.12","TRENTON A","6158875","2021-01-15 11:00","2021","01","15","11:00","1.3","","-0.7","","86","","","","7","","21","","6.4","","100.06","","","","","","Fog"
"-77.53","44.12","TRENTON A","6158875","2021-01-15 12:00","2021","01","15","12:00","2.0","","-0.3","","85","","","","8","","11","","11.3","","99.97","","","","","","Cloudy"
"-77.53","44.12","TRENTON A","6158875","2021-01-15 13:00","2021","01","15","13:00","2.9","","-0.4","","79","","","","9","","13","","11.3","","99.93","","","","","","Cloudy"
"-77.53","44.12","TRENTON A","6158875","2021-01-15 14:00","2021","01","15","14:00","3.5","","-0.9","","72","","","","9","","18","","12.9","","99.84","","","","","","Cloudy"
"-77.53","44.12","TRENTON A","6158875","2021-01-15 15:00","2021","01","15","15:00","3.2","","-1.2","","72","","","","7","","15","","16.1","","99.79","","","","","","Mostly Cloudy"
"-77.53","44.12","TRENTON A","6158875","2021-01-15 16:00","2021","01","15","16:00","3.2","","-1.1","","73","","","","9","","13","","19.3","","99.85","","","","","","Cloudy"
"-77.53","44.12","TRENTON A","6158875","2021-01-15 17:00","2021","01","15","17:00","3.1","","-1.0","","74","","","","9","","17","","19.3","","99.82","","","","","","Cloudy"
"-77.53","44.12","TRENTON A","6158875","2021-01-15 18:00","2021","01","15","18:00","3.1","","-0.7","","76","","","","9","","17","","19.3","","99.83","","","","","","Cloudy"
"-77.53","44.12","TRENTON A","6158875","2021-01-15 19:00","2021","01","15","19:00","3.8","","-0.4","","74","","","","11","","17","","16.1","","99.78","","","","","","Cloudy"
"-77.53","44.12","TRENTON A","6158875","2021-01-15 20:00","2021","01","15","20:00","3.2","","-0.3","","78","","","","11","","13","","16.1","","99.72","","","","","","Cloudy"
"-77.53","44.12","TRENTON A","6158875","2021-01-15 21:00","2021","01","15","21:00","3.0","","0.6","","84","","","","12","","15","","12.9","","99.69","","","","","","Rain Showers"
"-77.53","44.12","TRENTON A","6158875","2021-01-15 22:00","2021","01","15","22:00"
"-77.53","44.12","TRENTON A","6158875","2021-01-15 23:00","2021","01","15","23:00"
"-77.53","44.12","TRENTON A","6158875","2021-01-16 00:00","2021","01","16","00:00"
"-77.53","44.12","TRENTON A","6158875","2021-01-16 01:00","2021","01","16","01:00"
"-77.53","44.12","TRENTON A","6158875","2021-01-16 02:00","2021","01","16","02:00"
"-77.53","44.12","TRENTON A","6158875","2021-01-16 03:00","2021","01","16","03:00"
"-77.53","44.12","TRENTON A","6158875","2021-01-16 04:00","2021","01","16","04:00"
"-77.53","44.12","TRENTON A","6158875","2021-01-16 05:00","2021","01","16","05:00"
"-77.53","44.12","TRENTON A","6158875","2021-01-16 06:00","2021","01","16","06:00","2.0","","1.5","","96","","","","18","","5","","4.8","","99.13","","","","","","Rain,Fog"
"-77.53","44.12","TRENTON A","6158875","2021-01-16 07:00","2021","01","16","07:00","2.2","","0.9","","91","","","","22","","13","","9.7","","99.13","","","","","","Rain,Fog"
"-77.53","44.12","TRENTON A","6158875","2021-01-16 08:00","2021","01","16","08:00","1.8","","0.7","","92","","","","26","","11","","8.1","","99.04","","","","","","Fog"
"-77.53","44.12","TRENTON A","6158875","2021-01-16 09:00","2021","01","16","09:00","2.1","","0.5","","89","","","","28","","9","","11.3","","98.98","","","","","","Mostly Cloudy"
"-77.53","44.12","TRENTON A","6158875","2021-01-16 10:00","2021","01","16","10:00","2.3","","0.5","","88","","","","28","","15","","12.9","","98.92","","","","","","Cloudy"
"-77.53","44.12","TRENTON A","6158875","2021-01-16 11:00","2021","01","16","11:00","2.5","","0.5","","87","","","","28","","17","","19.3","","98.82","","","","","","Cloudy"
"-77.53","44.12","TRENTON A","6158875","2021-01-16 12:00","2021","01","16","12:00","2.5","","0.9","","89","","","","29","","17","","24.1","","98.68","","","","","","Cloudy"
"-77.53","44.12","TRENTON A","6158875","2021-01-16 13:00","2021","01","16","13:00","2.6","","0.8","","88","","","","29","","18","","24.1","","98.58","","","","","","Cloudy"
"-77.53","44.12","TRENTON A","6158875","2021-01-16 14:00","2021","01","16","14:00","2.7","","0.5","","85","","","","29","","17","","24.1","","98.52","","","","","","Cloudy"
"-77.53","44.12","TRENTON A","6158875","2021-01-16 15:00","2021","01","16","15:00","2.8","","-0.1","","81","","","","28","","21","","24.1","","98.51","","","","","","Cloudy"
"-77.53","44.12","TRENTON A","6158875","2021-01-16 16:00","2021","01","16","16:00","2.7","","-0.1","","82","","","","27","","24","","24.1","","98.53","","","","","","Cloudy"
"-77.53","44.12","TRENTON A","6158875","2021-01-16 17:00","2021","01","16","17:00","2.5","","-0.9","","78","","","","28","","22","","19.3","","98.53","","","","","","Rain Showers"
"-77.53","44.12","TRENTON A","6158875","2021-01-16 18:00","2021","01","16","18:00","1.5","","-0.3","","88","","","","27","","24","","9.7","","98.55","","","","","","Rain Showers,Snow Showers,Fog"
"-77.53","44.12","TRENTON A","6158875","2021-01-16 19:00","2021","01","16","19:00","1.5","","-0.9","","83","","","","27","","24","","11.3","","98.49","","","","","","Rain Showers,Snow Showers"
"-77.53","44.12","TRENTON A","6158875","2021-01-16 20:00","2021","01","16","20:00","1.7","","-1.4","","79","","","","26","","21","","19.3","","98.47","","","","","","Cloudy"
"-77.53","44.12","TRENTON A","6158875","2021-01-16 21:00","2021","01","16","21:00","1.4","","-1.4","","81","","","","27","","26","","19.3","","98.42","","","","","","Rain Showers"
"-77.53","44.12","TRENTON A","6158875","2021-01-16 22:00","2021","01","16","22:00"
"-77.53","44.12","TRENTON A","6158875","2021-01-16 23:00","2021","01","16","23:00"
"-77.53","44.12","TRENTON A","6158875","2021-01-17 00:00","2021","01","17","00:00"
"-77.53","44.12","TRENTON A","6158875","2021-01-17 01:00","2021","01","17","01:00"
"-77.53","44.12","TRENTON A","6158875","2021-01-17 02:00","2021","01","17","02:00"
"-77.53","44.12","TRENTON A","6158875","2021-01-17 03:00","2021","01","17","03:00"
"-77.53","44.12","TRENTON A","6158875","2021-01-17 04:00","2021","01","17","04:00"
"-77.53","44.12","TRENTON A","6158875","2021-01-17 05:00","2021","01","17","05:00"
"-77.53","44.12","TRENTON A","6158875","2021-01-17 06:00","2021","01","17","06:00","0.7","","-2.3","","79","","","","27","","22","","24.1","","98.53","","","","","","Cloudy"
"-77.53","44.12","TRENTON A","6158875","2021-01-17 07:00","2021","01","17","07:00","0.0","","-3.0","","78","","","","29","","21","","24.1","","98.63","","","","-5","","Cloudy"
"-77.53","44.12","TRENTON A","6158875","2021-01-17 08:00","2021","01","17","08:00","-0.1","","-4.1","","72","","","","27","","18","","24.1","","98.73","","","","-5","","Cloudy"
"-77.53","44.12","TRENTON A","6158875","2021-01-17 09:00","2021","01","17","09:00","0.5","","-3.6","","71","","","","27","","21","","24.1","","98.80","","","","","","Mostly Cloudy"
"-77.53","44.12","TRENTON A","6158875","2021-01-17 10:00","2021","01","17","10:00","0.3","","-3.9","","71","","","","29","","30","","24.1","","98.88","","","","","","Cloudy"
"-77.53","44.12","TRENTON A","6158875","2021-01-17 11:00","2021","01","17","11:00","0.0","","-3.9","","72","","","","29","","34","","24.1","","98.97","","","","-7","","Cloudy"
"-77.53","44.12","TRENTON A","6158875","2021-01-17 12:00","2021","01","17","12:00","0.3","","-3.6","","72","","","","30","","31","","22.5","","98.93","","","","","","Cloudy"
"-77.53","44.12","TRENTON A","6158875","2021-01-17 13:00","2021","01","17","13:00","0.9","","-3.3","","71","","","","28","","31","","24.1","","98.94","","","","","","Cloudy"
"-77.53","44.12","TRENTON A","6158875","2021-01-17 14:00","2021","01","17","14:00","0.9","","-3.3","","71","","","","28","","28","","24.1","","99.00","","","","","","Cloudy"
"-77.53","44.12","TRENTON A","6158875","2021-01-17 15:00","2021","01","17","15:00","0.9","","-3.5","","70","","","","28","","22","","24.1","","99.07","","","","","","Mostly Cloudy"
"-77.53","44.12","TRENTON A","6158875","2021-01-17 16:00","2021","01","17","16:00","0.8","","-4.2","","66","","","","28","","21","","24.1","","99.13","","","","","","Mostly Cloudy"
"-77.53","44.12","TRENTON A","6158875","2021-01-17 17:00","2021","01","17","17:00","0.1","","-4.3","","69","","","","30","","13","","24.1","","99.19","","","","","","Mainly Clear"
"-77.53","44.12","TRENTON A","6158875","2021-01-17 18:00","2021","01","17","18:00","-1.0","","-5.0","","71","","","","31","","11","","24.1","","99.25","","","","-5","","Mainly Clear"
"-77.53","44.12","TRENTON A","6158875","2021-01-17 19:00","2021","01","17","19:00","-1.5","","-5.3","","73","","","","31","","8","","24.1","","99.31","","","","-5","","Mostly Cloudy"
"-77.53","44.12","TRENTON A","6158875","2021-01-17 20:00","2021","01","17","20:00","-1.5","","-5.7","","70","","","","34","","18","","24.1","","99.28","","","","-7","","Mostly Cloudy"
"-77.53","44.12","TRENTON A","6158875","2021-01-17 21:00","2021","01","17","21:00","-1.8","","-5.9","","71","","","","32","","9","","24.1","","99.31","","","","-5","","Mostly Cloudy"
"-77.53","44.12","TRENTON A","6158875","2021-01-17 22:00","2021","01","17","22:00"
"-77.53","44.12","TRENTON A","6158875","2021-01-17 23:00","2021","01","17","23:00"
"-77.53","44.12","TRENTON A","6158875","2021-01-18 00:00","2021","01","18","00:00"
"-77.53","44.12","TRENTON A","6158875","2021-01-18 01:00","2021","01","18","01:00"
"-77.53","44.12","TRENTON A","6158875","2021-01-18 02:00","2021","01","18","02:00"
"-77.53","44.12","TRENTON A","6158875","2021-01-18 03:00","2021","01","18","03:00"
"-77.53","44.12","TRENTON A","6158875","2021-01-18 04:00","2021","01","18","04:00"
"-77.53","44.12","TRENTON A","6158875","2021-01-18 05:00","2021","01","18","05:00"
"-77.53","44.12","TRENTON A","6158875","2021-01-18 06:00","2021","01","18","06:00","-4.0","","-6.7","","79","","","","32","","11","","12.9","","99.47","","","","-8","","Snow Showers"
"-77.53","44.12","TRENTON A","6158875","2021-01-18 07:00","2021","01","18","07:00","-4.4","","-6.6","","83","","","","32","","9","","12.9","","99.55","","","","-8","","Snow Showers"
"-77.53","44.12","TRENTON A","6158875","2021-01-18 08:00","2021","01","18","08:00","-4.7","","-7.1","","81","","","","32","","9","","24.1","","99.59","","","","-9","","Cloudy"
"-77.53","44.12","TRENTON A","6158875","2021-01-18 09:00","2021","01","18","09:00","-4.2","","-7.2","","77","","","","30","","8","","24.1","","99.65","","","","-8","","Mostly Cloudy"
"-77.53","44.12","TRENTON A","6158875","2021-01-18 10:00","2021","01","18","10:00","-3.9","","-7.8","","71","","","","30","","11","","24.1","","99.71","","","","-8","","Mostly Cloudy"
"-77.53","44.12","TRENTON A","6158875","2021-01-18 11:00","2021","01","18","11:00","-3.0","","-8.1","","65","","","","32","","13","","24.1","","99.75","","","","-8","","Mostly Cloudy"
"-77.53","44.12","TRENTON A","6158875","2021-01-18 12:00","2021","01","18","12:00","-2.8","","-8.1","","63","","","","31","","13","","24.1","","99.72","","","","-7","","Mostly Cloudy"
"-77.53","44.12","TRENTON A","6158875","2021-01-18 13:00","2021","01","18","13:00","-2.1","","-8.2","","59","","","","30","","11","","24.1","","99.72","","","","-6","","Mainly Clear"
"-77.53","44.12","TRENTON A","6158875","2021-01-18 14:00","2021","01","18","14:00","-1.9","","-8.4","","57","","","","30","","13","","24.1","","99.76","","","","-6","","Mainly Clear"
"-77.53","44.12","TRENTON A","6158875","2021-01-18 15:00","2021","01","18","15:00","-1.3","","-8.3","","55","","","","31","","17","","24.1","","99.84","","","","-6","","Mainly Clear"
"-77.53","44.12","TRENTON A","6158875","2021-01-18 16:00","2021","01","18","16:00","-2.1","","-8.5","","58","","","","32","","9","","24.1","","99.92","","","","-6","","Mostly Cloudy"
"-77.53","44.12","TRENTON A","6158875","2021-01-18 17:00","2021","01","18","17:00","-3.2","","-8.6","","63","","","","32","","8","","24.1","","100.01","","","","-6","","Mostly Cloudy"
"-77.53","44.12","TRENTON A","6158875","2021-01-18 18:00","2021","01","18","18:00","-3.7","","-9.0","","63","","","","33","","4","","24.1","","100.08","","","","-5","","Mostly Cloudy"
"-77.53","44.12","TRENTON A","6158875","2021-01-18 19:00","2021","01","18","19:00","-4.4","","-9.0","","67","","","","30","","4","","24.1","","100.15","","","","-6","","Mostly Cloudy"
"-77.53","44.12","TRENTON A","6158875","2021-01-18 20:00","2021","01","18","20:00","-6.3","","-9.1","","78","","","","32","","4","","24.1","","100.20","","","","-8","","Cloudy"
"-77.53","44.12","TRENTON A","6158875","2021-01-18 21:00","2021","01","18","21:00","-6.2","","-8.6","","81","","","","4","","5","","24.1","","100.24","","","","-9","","Cloudy"
"-77.53","44.12","TRENTON A","6158875","2021-01-18 22:00","2021","01","18","22:00"
"-77.53","44.12","TRENTON A","6158875","2021-01-18 23:00","2021","01","18","23:00"
"-77.53","44.12","TRENTON A","6158875","2021-01-19 00:00","2021","01","19","00:00"
"-77.53","44.12","TRENTON A","6158875","2021-01-19 01:00","2021","01","19","01:00"
"-77.53","44.12","TRENTON A","6158875","2021-01-19 02:00","2021","01","19","02:00"
"-77.53","44.12","TRENTON A","6158875","2021-01-19 03:00","2021","01","19","03:00"
"-77.53","44.12","TRENTON A","6158875","2021-01-19 04:00","2021","01","19","04:00"
"-77.53","44.12","TRENTON A","6158875","2021-01-19 05:00","2021","01","19","05:00"
"-77.53","44.12","TRENTON A","6158875","2021-01-19 06:00","2021","01","19","06:00","-7.0","","-9.6","","80","","","","7","","8","","8.1","","100.42","","","","-11","","Snow"
"-77.53","44.12","TRENTON A","6158875","2021-01-19 07:00","2021","01","19","07:00","-7.0","","-8.8","","85","","","","4","","9","","6.4","","100.40","","","","-11","","Snow"
"-77.53","44.12","TRENTON A","6158875","2021-01-19 08:00","2021","01","19","08:00","-6.9","","-8.7","","85","","","","4","","9","","6.4","","100.40","","","","-11","","Snow"
"-77.53","44.12","TRENTON A","6158875","2021-01-19 09:00","2021","01","19","09:00","-6.5","","-8.4","","85","","","","4","","5","","8.1","","100.42","","","","-9","","Snow"
"-77.53","44.12","TRENTON A","6158875","2021-01-19 10:00","2021","01","19","10:00","-6.1","","-8.2","","83","","","","","","0","","4.0","","100.44","","","","","","Snow"
"-77.53","44.12","TRENTON A","6158875","2021-01-19 11:00","2021","01","19","11:00","-4.6","","-7.2","","80","","","","","","0","","16.1","","100.40","","","","","","Snow"
"-77.53","44.12","TRENTON A","6158875","2021-01-19 12:00","2021","01","19","12:00","-3.2","","-5.9","","79","","","","20","","5","","24.1","","100.32","","","","-5","","Mostly Cloudy"
"-77.53","44.12","TRENTON A","6158875","2021-01-19 13:00","2021","01","19","13:00","-0.8","","-3.8","","78","","","","23","","9","","24.1","","100.26","","","","-4","","Mostly Cloudy"
"-77.53","44.12","TRENTON A","6158875","2021-01-19 14:00","2021","01","19","14:00","2.1","","-4.1","","61","","","","25","","22","","24.1","","100.23","","","","","","Mostly Cloudy"
"-77.53","44.12","TRENTON A","6158875","2021-01-19 15:00","2021","01","19","15:00","2.0","","-4.9","","57","","","","25","","17","","24.1","","100.25","","","","","","Mostly Cloudy"
"-77.53","44.12","TRENTON A","6158875","2021-01-19 16:00","2021","01","19","16:00","-0.5","","-2.8","","83","","","","23","","18","","19.3","","100.33","","","","-6","","Mostly Cloudy"
"-77.53","44.12","TRENTON A","6158875","2021-01-19 17:00","2021","01","19","17:00","0.3","","-4.1","","69","","","","26","","11","","19.3","","100.40","","","","","","Cloudy"
"-77.53","44.12","TRENTON A","6158875","2021-01-19 18:00","2021","01","19","18:00","0.1","","-5.9","","60","","","","26","","22","","24.1","","100.43","","","","","","Mostly Cloudy"
"-77.53","44.12","TRENTON A","6158875","2021-01-19 19:00","2021","01","19","19:00","-0.8","","-6.6","","61","","","","25","","26","","24.1","","100.48","","","","-7","","Mostly Cloudy"
"-77.53","44.12","TRENTON A","6158875","2021-01-19 20:00","2021","01","19","20:00","-1.8","","-7.6","","61","","","","25","","21","","24.1","","100.47","","","","-8","","Mostly Cloudy"
"-77.53","44.12","TRENTON A","6158875","2021-01-19 21:00","2021","01","19","21:00","-2.3","","-9.2","","55","","","","26","","17","","24.1","","100.45","","","","-8","","Cloudy"
"-77.53","44.12","TRENTON A","6158875","2021-01-19 22:00","2021","01","19","22:00"
"-77.53","44.12","TRENTON A","6158875","2021-01-19 23:00","2021","01","19","23:00"
"-77.53","44.12","TRENTON A","6158875","2021-01-20 00:00","2021","01","20","00:00"
"-77.53","44.12","TRENTON A","6158875","2021-01-20 01:00","2021","01","20","01:00"
"-77.53","44.12","TRENTON A","6158875","2021-01-20 02:00","2021","01","20","02:00"
"-77.53","44.12","TRENTON A","6158875","2021-01-20 03:00","2021","01","20","03:00"
"-77.53","44.12","TRENTON A","6158875","2021-01-20 04:00","2021","01","20","04:00"
"-77.53","44.12","TRENTON A","6158875","2021-01-20 05:00","2021","01","20","05:00"
"-77.53","44.12","TRENTON A","6158875","2021-01-20 06:00","2021","01","20","06:00","-5.0","","-8.5","","74","","","","32","","11","","24.1","","100.28","","","","-10","","Cloudy"
"-77.53","44.12","TRENTON A","6158875","2021-01-20 07:00","2021","01","20","07:00","-4.6","","-9.4","","66","","","","31","","22","","24.1","","100.35","","","","-11","","Cloudy"
"-77.53","44.12","TRENTON A","6158875","2021-01-20 08:00","2021","01","20","08:00","-6.1","","-11.9","","60","","","","31","","28","","24.1","","100.43","","","","-14","","Mostly Cloudy"
"-77.53","44.12","TRENTON A","6158875","2021-01-20 09:00","2021","01","20","09:00","-6.9","","-13.2","","57","","","","32","","30","","24.1","","100.52","","","","-15","","Clear"
"-77.53","44.12","TRENTON A","6158875","2021-01-20 10:00","2021","01","20","10:00","-7.4","","-14.0","","55","","","","32","","24","","24.1","","100.65","","","","-15","","Clear"
"-77.53","44.12","TRENTON A","6158875","2021-01-20 11:00","2021","01","20","11:00","-7.5","","-13.6","","58","","","","32","","22","","24.1","","100.74","","","","-15","","Clear"
"-77.53","44.12","TRENTON A","6158875","2021-01-20 12:00","2021","01","20","12:00","-7.2","","-14.2","","54","","","","30","","26","","24.1","","100.79","","","","-15","","Clear"
"-77.53","44.12","TRENTON A","6158875","2021-01-20 13:00","2021","01","20","13:00","-6.9","","-14.5","","51","","","","29","","24","","24.1","","100.80","","","","-15","","Mainly Clear"
"-77.53","44.12","TRENTON A","6158875","2021-01-20 14:00","2021","01","20","14:00","-7.0","","-14.9","","49","","","","31","","24","","24.1","","100.85","","","","-15","","Mostly Cloudy"
"-77.53","44.12","TRENTON A","6158875","2021-01-20 15:00","2021","01","20","15:00","-6.7","","-16.3","","42","","","","28","","22","","24.1","","100.86","","","","-14","","Mostly Cloudy"
"-77.53","44.12","TRENTON A","6158875","2021-01-20 16:00","2021","01","20","16:00","-7.3","","-16.3","","44","","","","30","","21","","24.1","","100.87","","","","-15","","Mostly Cloudy"
"-77.53","44.12","TRENTON A","6158875","2021-01-20 17:00","2021","01","20","17:00","-7.8","","-15.0","","52","","","","27","","13","","24.1","","100.83","","","","-14","","Cloudy"
"-77.53","44.12","TRENTON A","6158875","2021-01-20 18:00","2021","01","20","18:00","-7.8","","-14.5","","55","","","","29","","4","","24.1","","100.71","","","","-10","","Cloudy"
"-77.53","44.12","TRENTON A","6158875","2021-01-20 19:00","2021","01","20","19:00","-7.9","","-13.9","","58","","","","7","","4","","24.1","","100.68","","","","-10","","Cloudy"
"-77.53","44.12","TRENTON A","6158875","2021-01-20 20:00","2021","01","20","20:00","-8.2","","-14.2","","58","","","","9","","5","","24.1","","100.54","","","","-11","","Cloudy"
"-77.53","44.12","TRENTON A","6158875","2021-01-20 21:00","2021","01","20","21:00","-8.0","","-13.9","","59","","","","14","","4","","24.1","","100.52","","","","-10","","Mostly Cloudy"
"-77.53","44.12","TRENTON A","6158875","2021-01-20 22:00","2021","01","20","22:00"
"-77.53","44.12","TRENTON A","6158875","2021-01-20 23:00","2021","01","20","23:00"
"-77.53","44.12","TRENTON A","6158875","2021-01-21 00:00","2021","01","21","00:00"
"-77.53","44.12","TRENTON A","6158875","2021-01-21 01:00","2021","01","21","01:00"
"-77.53","44.12","TRENTON A","6158875","2021-01-21 02:00","2021","01","21","02:00"
"-77.53","44.12","TRENTON A","6158875","2021-01-21 03:00","2021","01","21","03:00"
"-77.53","44.12","TRENTON A","6158875","2021-01-21 04:00","2021","01","21","04:00"
"-77.53","44.12","TRENTON A","6158875","2021-01-21 05:00","2021","01","21","05:00"
"-77.53","44.12","TRENTON A","6158875","2021-01-21 06:00","2021","01","21","06:00","-1.8","","-5.0","","76","","","","20","","18","","11.3","","99.11","","","","-7","","Snow"
"-77.53","44.12","TRENTON A","6158875","2021-01-21 07:00","2021","01","21","07:00","-0.1","","-4.0","","72","","","","21","","18","","11.3","","99.00","","","","-5","","Snow"
"-77.53","44.12","TRENTON A","6158875","2021-01-21 08:00","2021","01","21","08:00","0.4","","-2.1","","82","","","","22","","18","","16.1","","98.95","","","","","","Snow"
"-77.53","44.12","TRENTON A","6158875","2021-01-21 09:00","2021","01","21","09:00","1.6","","-2.7","","71","","","","25","","22","","24.1","","98.88","","","","","","Mostly Cloudy"
"-77.53","44.12","TRENTON A","6158875","2021-01-21 10:00","2021","01","21","10:00","2.0","","-2.7","","69","","","","24","","24","","24.1","","98.87","","","","","","Snow"
"-77.53","44.12","TRENTON A","6158875","2021-01-21 11:00","2021","01","21","11:00","2.0","","-2.7","","69","","","","24","","26","","24.1","","98.85","","","","","","Snow"
"-77.53","44.12","TRENTON A","6158875","2021-01-21 12:00","2021","01","21","12:00","2.5","","-2.1","","70","","","","24","","22","","24.1","","98.76","","","","","","Cloudy"
"-77.53","44.12","TRENTON A","6158875","2021-01-21 13:00","2021","01","21","13:00","3.0","","-2.1","","68","","","","23","","30","","24.1","","98.66","","","","","","Cloudy"
"-77.53","44.12","TRENTON A","6158875","2021-01-21 14:00","2021","01","21","14:00","3.2","","-1.8","","69","","","","24","","28","","24.1","","98.63","","","","","","Mostly Cloudy"
"-77.53","44.12","TRENTON A","6158875","2021-01-21 15:00","2021","01","21","15:00","3.0","","-1.9","","69","","","","23","","18","","24.1","","98.63","","","","","","Cloudy"
"-77.53","44.12","TRENTON A","6158875","2021-01-21 16:00","2021","01","21","16:00","3.0","","-1.8","","69","","","","25","","31","","24.1","","98.64","","","","","","Mostly Cloudy"
"-77.53","44.12","TRENTON A","6158875","2021-01-21 17:00","2021","01","21","17:00","2.9","","-1.8","","70","","","","26","","26","","24.1","","98.67","","","","","","Mostly Cloudy"
"-77.53","44.12","TRENTON A","6158875","2021-01-21 18:00","2021","01","21","18:00","3.0","","-2.0","","68","","","","25","","28","","24.1","","98.71","","","","","","Cloudy"
"-77.53","44.12","TRENTON A","6158875","2021-01-21 19:00","2021","01","21","19:00","2.5","","-2.1","","70","","","","24","","18","","24.1","","98.73","","","","","","Cloudy"
"-77.53","44.12","TRENTON A","6158875","2021-01-21 20:00","2021","01","21","20:00","2.6","","-1.6","","73","","","","24","","22","","24.1","","98.75","","","","","","Cloudy"
"-77.53","44.12","TRENTON A","6158875","2021-01-21 21:00","2021","01","21","21:00","2.1","","-1.1","","79","","","","25","","22","","24.1","","98.76","","","","","","Cloudy"
"-77.53","44.12","TRENTON A","6158875","2021-01-21 22:00","2021","01","21","22:00"
"-77.53","44.12","TRENTON A","6158875","2021-01-21 23:00","2021","01","21","23:00"
"-77.53","44.12","TRENTON A","6158875","2021-01-22 00:00","2021","01","22","00:00"
"-77.53","44.12","TRENTON A","6158875","2021-01-22 01:00","2021","01","22","01:00"
"-77.53","44.12","TRENTON A","6158875","2021-01-22 02:00","2021","01","22","02:00"
"-77.53","44.12","TRENTON A","6158875","2021-01-22 03:00","2021","01","22","03:00"
"-77.53","44.12","TRENTON A","6158875","2021-01-22 04:00","2021","01","22","04:00"
"-77.53","44.12","TRENTON A","6158875","2021-01-22 05:00","2021","01","22","05:00"
"-77.53","44.12","TRENTON A","6158875","2021-01-22 06:00","2021","01","22","06:00","0.0","","-2.2","","83","","","","30","","13","","24.1","","99.06","","","","-4","","Cloudy"
"-77.53","44.12","TRENTON A","6158875","2021-01-22 07:00","2021","01","22","07:00","-0.8","","-5.2","","69","","","","32","","21","","24.1","","99.16","","","","-6","","Cloudy"
"-77.53","44.12","TRENTON A","6158875","2021-01-22 08:00","2021","01","22","08:00","-1.6","","-6.0","","69","","","","31","","13","","24.1","","99.26","","","","-6","","Cloudy"
"-77.53","44.12","TRENTON A","6158875","2021-01-22 09:00","2021","01","22","09:00","-2.0","","-6.0","","71","","","","32","","11","","24.1","","99.38","","","","-6","","Cloudy"
"-77.53","44.12","TRENTON A","6158875","2021-01-22 10:00","2021","01","22","10:00","-2.1","","-7.0","","66","","","","32","","18","","24.1","","99.49","","","","-8","","Cloudy"
"-77.53","44.12","TRENTON A","6158875","2021-01-22 11:00","2021","01","22","11:00","-2.3","","-7.1","","66","","","","30","","15","","24.1","","99.58","","","","-7","","Snow Showers"
"-77.53","44.12","TRENTON A","6158875","2021-01-22 12:00","2021","01","22","12:00","-2.1","","-6.8","","67","","","","30","","8","","19.3","","99.59","","","","-5","","Snow Showers"
"-77.53","44.12","TRENTON A","6158875","2021-01-22 13:00","2021","01","22","13:00","-2.4","","-6.4","","71","","","","30","","13","","19.3","","99.65","","","","-7","","Snow Showers"
"-77.53","44.12","TRENTON A","6158875","2021-01-22 14:00","2021","01","22","14:00","-2.0","","-6.5","","68","","","","29","","11","","24.1","","99.71","","","","-6","","Snow Showers"
"-77.53","44.12","TRENTON A","6158875","2021-01-22 15:00","2021","01","22","15:00","-2.1","","-6.7","","68","","","","29","","21","","24.1","","99.80","","","","-8","","Cloudy"
"-77.53","44.12","TRENTON A","6158875","2021-01-22 16:00","2021","01","22","16:00","-2.4","","-7.7","","64","","","","30","","17","","24.1","","99.89","","","","-8","","Mostly Cloudy"
"-77.53","44.12","TRENTON A","6158875","2021-01-22 17:00","2021","01","22","17:00","-3.0","","-8.9","","60","","","","30","","22","","24.1","","99.99","","","","-9","","Mostly Cloudy"
"-77.53","44.12","TRENTON A","6158875","2021-01-22 18:00","2021","01","22","18:00","-3.9","","-11.3","","52","","","","30","","26","","24.1","","100.09","","","","-11","","Mostly Cloudy"
"-77.53","44.12","TRENTON A","6158875","2021-01-22 19:00","2021","01","22","19:00","-4.7","","-10.8","","59","","","","30","","15","","24.1","","100.17","","","","-10","","Cloudy"
"-77.53","44.12","TRENTON A","6158875","2021-01-22 20:00","2021","01","22","20:00","-5.4","","-10.8","","62","","","","31","","21","","24.1","","100.24","","","","-12","","Cloudy"
"-77.53","44.12","TRENTON A","6158875","2021-01-22 21:00","2021","01","22","21:00","-6.0","","-11.0","","64","","","","32","","13","","24.1","","100.34","","","","-11","","Cloudy"
"-77.53","44.12","TRENTON A","6158875","2021-01-22 22:00","2021","01","22","22:00"
"-77.53","44.12","TRENTON A","6158875","2021-01-22 23:00","2021","01","22","23:00"
"-77.53","44.12","TRENTON A","6158875","2021-01-23 00:00","2021","01","23","00:00"
"-77.53","44.12","TRENTON A","6158875","2021-01-23 01:00","2021","01","23","01:00"
"-77.53","44.12","TRENTON A","6158875","2021-01-23 02:00","2021","01","23","02:00"
"-77.53","44.12","TRENTON A","6158875","2021-01-23 03:00","2021","01","23","03:00"
"-77.53","44.12","TRENTON A","6158875","2021-01-23 04:00","2021","01","23","04:00"
"-77.53","44.12","TRENTON A","6158875","2021-01-23 05:00","2021","01","23","05:00"
"-77.53","44.12","TRENTON A","6158875","2021-01-23 06:00","2021","01","23","06:00","-12.8","","-16.1","","74","","","","32","","9","","24.1","","100.96","","","","-18","","Clear"
"-77.53","44.12","TRENTON A","6158875","2021-01-23 07:00","2021","01","23","07:00","-13.8","","-16.8","","76","","","","36","","5","","24.1","","101.08","","","","-17","","Clear"
"-77.53","44.12","TRENTON A","6158875","2021-01-23 08:00","2021","01","23","08:00","-14.2","","-16.8","","79","","","","32","","4","","24.1","","101.17","","","","-17","","Clear"
"-77.53","44.12","TRENTON A","6158875","2021-01-23 09:00","2021","01","23","09:00","-13.5","","-17.2","","71","","","","33","","13","","24.1","","101.26","","","","-20","","Clear"
"-77.53","44.12","TRENTON A","6158875","2021-01-23 10:00","2021","01","23","10:00","-13.0","","-17.4","","67","","","","32","","18","","24.1","","101.33","","","","-21","","Clear"
"-77.53","44.12","TRENTON A","6158875","2021-01-23 11:00","2021","01","23","11:00","-12.0","","-17.6","","60","","","","30","","13","","24.1","","101.35","","","","-19","","Clear"
"-77.53","44.12","TRENTON A","6158875","2021-01-23 12:00","2021","01","23","12:00","-10.8","","-17.7","","53","","","","34","","15","","24.1","","101.33","","","","-18","","Clear"
"-77.53","44.12","TRENTON A","6158875","2021-01-23 13:00","2021","01","23","13:00","-9.2","","-16.7","","51","","","","34","","11","","24.1","","101.29","","","","-15","","Clear"
"-77.53","44.12","TRENTON A","6158875","2021-01-23 14:00","2021","01","23","14:00","-8.1","","-16.8","","45","","","","32","","15","","24.1","","101.32","","","","-14","","Clear"
"-77.53","44.12","TRENTON A","6158875","2021-01-23 15:00","2021","01","23","15:00","-7.3","","-16.7","","43","","","","28","","13","","24.1","","101.35","","","","-13","","Clear"
"-77.53","44.12","TRENTON A","6158875","2021-01-23 16:00","2021","01","23","16:00","-7.1","","-16.7","","42","","","","31","","17","","24.1","","101.34","","","","-14","","Clear"
"-77.53","44.12","TRENTON A","6158875","2021-01-23 17:00","2021","01","23","17:00","-8.2","","-17.0","","45","","","","30","","21","","24.1","","101.41","","","","-16","","Clear"
"-77.53","44.12","TRENTON A","6158875","2021-01-23 18:00","2021","01","23","18:00","-9.1","","-18.0","","44","","","","31","","17","","24.1","","101.45","","","","-16","","Clear"
"-77.53","44.12","TRENTON A","6158875","2021-01-23 19:00","2021","01","23","19:00","-9.7","","-17.5","","49","","","","32","","15","","24.1","","101.53","","","","-16","","Clear"
"-77.53","44.12","TRENTON A","6158875","2021-01-23 20:00","2021","01","23","20:00","-10.3","","-16.9","","55","","","","31","","18","","24.1","","101.58","","","","-18","","Clear"
"-77.53","44.12","TRENTON A","6158875","2021-01-23 21:00","2021","01","23","21:00","-10.9","","-17.2","","56","","","","31","","17","","24.1","","101.62","","","","-18","","Clear"
"-77.53","44.12","TRENTON A","6158875","2021-01-23 22:00","2021","01","23","22:00"
"-77.53","44.12","TRENTON A","6158875","2021-01-23 23:00","2021","01","23","23:00"
"-77.53","44.12","TRENTON A","6158875","2021-01-24 00:00","2021","01","24","00:00"
"-77.53","44.12","TRENTON A","6158875","2021-01-24 01:00","2021","01","24","01:00"
"-77.53","44.12","TRENTON A","6158875","2021-01-24 02:00","2021","01","24","02:00"
"-77.53","44.12","TRENTON A","6158875","2021-01-24 03:00","2021","01","24","03:00"
"-77.53","44.12","TRENTON A","6158875","2021-01-24 04:00","2021","01","24","04:00"
"-77.53","44.12","TRENTON A","6158875","2021-01-24 05:00","2021","01","24","05:00"
"-77.53","44.12","TRENTON A","6158875","2021-01-24 06:00","2021","01","24","06:00","-14.7","","-19.9","","61","","","","34","","9","","24.1","","101.70","","","","-20","","Clear"
"-77.53","44.12","TRENTON A","6158875","2021-01-24 07:00","2021","01","24","07:00","-14.7","","-19.7","","63","","","","35","","8","","24.1","","101.74","","","","-20","","Mainly Clear"
"-77.53","44.12","TRENTON A","6158875","2021-01-24 08:00","2021","01","24","08:00","-14.5","","-19.1","","65","","","","","","0","","24.1","","101.71","","","","","","Mainly Clear"
"-77.53","44.12","TRENTON A","6158875","2021-01-24 09:00","2021","01","24","09:00","-12.8","","-18.7","","58","","","","31","","9","","24.1","","101.74","","","","-18","","Mostly Cloudy"
"-77.53","44.12","TRENTON A","6158875","2021-01-24 10:00","2021","01","24","10:00","-11.3","","-18.9","","50","","","","32","","9","","24.1","","101.73","","","","-16","","Mostly Cloudy"
"-77.53","44.12","TRENTON A","6158875","2021-01-24 11:00","2021","01","24","11:00","-10.2","","-18.2","","48","","","","34","","5","","24.1","","101.68","","","","-13","","Cloudy"
"-77.53","44.12","TRENTON A","6158875","2021-01-24 12:00","2021","01","24","12:00","-7.7","","-15.5","","50","","","","28","","4","","24.1","","101.57","","","","-10","","Cloudy"
"-77.53","44.12","TRENTON A","6158875","2021-01-24 13:00","2021","01","24","13:00","-6.7","","-15.6","","45","","","","18","","4","","24.1","","101.47","","","","-9","","Cloudy"
"-77.53","44.12","TRENTON A","6158875","2021-01-24 14:00","2021","01","24","14:00","-6.5","","-15.0","","47","","","","21","","9","","24.1","","101.39","","","","-11","","Mostly Cloudy"
"-77.53","44.12","TRENTON A","6158875","2021-01-24 15:00","2021","01","24","15:00","-6.1","","-14.2","","49","","","","17","","5","","24.1","","101.34","","","","-9","","Mostly Cloudy"
"-77.53","44.12","TRENTON A","6158875","2021-01-24 16:00","2021","01","24","16:00","-6.4","","-14.2","","50","","","","22","","11","","24.1","","101.35","","","","-11","","Mostly Cloudy"
"-77.53","44.12","TRENTON A","6158875","2021-01-24 17:00","2021","01","24","17:00","-6.3","","-11.5","","63","","","","21","","9","","24.1","","101.32","","","","-11","","Mostly Cloudy"
"-77.53","44.12","TRENTON A","6158875","2021-01-24 18:00","2021","01","24","18:00","-6.1","","-10.8","","66","","","","21","","9","","24.1","","101.29","","","","-10","","Mostly Cloudy"
"-77.53","44.12","TRENTON A","6158875","2021-01-24 19:00","2021","01","24","19:00","-6.0","","-10.2","","69","","","","","","0","","24.1","","101.27","","","","","","Mostly Cloudy"
"-77.53","44.12","TRENTON A","6158875","2021-01-24 20:00","2021","01","24","20:00","-6.1","","-9.9","","72","","","","","","0","","24.1","","101.20","","","","","","Cloudy"
"-77.53","44.12","TRENTON A","6158875","2021-01-24 21:00","2021","01","24","21:00","-6.1","","-9.7","","73","","","","13","","4","","24.1","","101.16","","","","-8","","Cloudy"
"-77.53","44.12","TRENTON A","6158875","2021-01-24 22:00","2021","01","24","22:00"
"-77.53","44.12","TRENTON A","6158875","2021-01-24 23:00","2021","01","24","23:00"
"-77.53","44.12","TRENTON A","6158875","2021-01-25 00:00","2021","01","25","00:00"
"-77.53","44.12","TRENTON A","6158875","2021-01-25 01:00","2021","01","25","01:00"
"-77.53","44.12","TRENTON A","6158875","2021-01-25 02:00","2021","01","25","02:00"
"-77.53","44.12","TRENTON A","6158875","2021-01-25 03:00","2021","01","25","03:00"
"-77.53","44.12","TRENTON A","6158875","2021-01-25 04:00","2021","01","25","04:00"
"-77.53","44.12","TRENTON A","6158875","2021-01-25 05:00","2021","01","25","05:00"
"-77.53","44.12","TRENTON A","6158875","2021-01-25 06:00","2021","01","25","06:00","-7.2","","-9.3","","83","","","","4","","4","","24.1","","101.08","","","","-9","","Cloudy"
"-77.53","44.12","TRENTON A","6158875","2021-01-25 07:00","2021","01","25","07:00","-7.0","","-9.0","","84","","","","","","0","","24.1","","101.09","","","","","","Snow Showers"
"-77.53","44.12","TRENTON A","6158875","2021-01-25 08:00","2021","01","25","08:00","-6.7","","-8.8","","83","","","","","","0","","24.1","","101.06","","","","","","Snow"
"-77.53","44.12","TRENTON A","6158875","2021-01-25 09:00","2021","01","25","09:00","-5.7","","-8.0","","82","","","","","","0","","24.1","","101.00","","","","","","Snow"
"-77.53","44.12","TRENTON A","6158875","2021-01-25 10:00","2021","01","25","10:00","-2.5","","-6.4","","72","","","","","","0","","24.1","","101.00","","","","","","Snow"
"-77.53","44.12","TRENTON A","6158875","2021-01-25 11:00","2021","01","25","11:00","-1.1","","-6.7","","62","","","","21","","9","","24.1","","101.01","","","","-4","","Mostly Cloudy"
"-77.53","44.12","TRENTON A","6158875","2021-01-25 12:00","2021","01","25","12:00","0.1","","-6.6","","57","","","","21","","9","","24.1","","101.00","","","","","","Mostly Cloudy"
"-77.53","44.12","TRENTON A","6158875","2021-01-25 13:00","2021","01","25","13:00","0.3","","-6.8","","55","","","","21","","11","","24.1","","100.88","","","","","","Mostly Cloudy"
"-77.53","44.12","TRENTON A","6158875","2021-01-25 14:00","2021","01","25","14:00","0.6","","-6.4","","56","","","","22","","9","","24.1","","100.86","","","","","","Mostly Cloudy"
"-77.53","44.12","TRENTON A","6158875","2021-01-25 15:00","2021","01","25","15:00","0.2","","-6.7","","56","","","","22","","9","","24.1","","100.85","","","","","","Mostly Cloudy"
"-77.53","44.12","TRENTON A","6158875","2021-01-25 16:00","2021","01","25","16:00","-0.2","","-6.7","","58","","","","21","","5","","24.1","","100.80","","","","-2","","Mostly Cloudy"
"-77.53","44.12","TRENTON A","6158875","2021-01-25 17:00","2021","01","25","17:00","-1.2","","-6.7","","63","","","","22","","8","","24.1","","100.86","","","","-4","","Mostly Cloudy"
"-77.53","44.12","TRENTON A","6158875","2021-01-25 18:00","2021","01","25","18:00","-2.4","","-6.6","","70","","","","","","0","","24.1","","100.92","","","","","","Mostly Cloudy"
"-77.53","44.12","TRENTON A","6158875","2021-01-25 19:00","2021","01","25","19:00","-3.5","","-6.6","","77","","","","5","","4","","24.1","","100.90","","","","-5","","Mostly Cloudy"
"-77.53","44.12","TRENTON A","6158875","2021-01-25 20:00","2021","01","25","20:00","-4.5","","-7.1","","80","","","","7","","4","","24.1","","100.87","","","","-6","","Mostly Cloudy"
"-77.53","44.12","TRENTON A","6158875","2021-01-25 21:00","2021","01","25","21:00","-5.7","","-7.6","","85","","","","4","","5","","24.1","","100.83","","","","-8","","Cloudy"
"-77.53","44.12","TRENTON A","6158875","2021-01-25 22:00","2021","01","25","22:00"
"-77.53","44.12","TRENTON A","6158875","2021-01-25 23:00","2021","01","25","23:00"
"-77.53","44.12","TRENTON A","6158875","2021-01-26 00:00","2021","01","26","00:00"
"-77.53","44.12","TRENTON A","6158875","2021-01-26 01:00","2021","01","26","01:00"
"-77.53","44.12","TRENTON A","6158875","2021-01-26 02:00","2021","01","26","02:00"
"-77.53","44.12","TRENTON A","6158875","2021-01-26 03:00","2021","01","26","03:00"
"-77.53","44.12","TRENTON A","6158875","2021-01-26 04:00","2021","01","26","04:00"
"-77.53","44.12","TRENTON A","6158875","2021-01-26 05:00","2021","01","26","05:00"
"-77.53","44.12","TRENTON A","6158875","2021-01-26 06:00","2021","01","26","06:00","-7.1","","-8.5","","88","","","","5","","11","","24.1","","100.48","","","","-12","","Clear"
"-77.53","44.12","TRENTON A","6158875","2021-01-26 07:00","2021","01","26","07:00","-7.6","","-9.3","","86","","","","5","","11","","24.1","","100.50","","","","-13","","Mainly Clear"
"-77.53","44.12","TRENTON A","6158875","2021-01-26 08:00","2021","01","26","08:00","-6.0","","-8.1","","83","","","","5","","15","","24.1","","100.44","","","","-12","","Mostly Cloudy"
"-77.53","44.12","TRENTON A","6158875","2021-01-26 09:00","2021","01","26","09:00","-4.2","","-7.7","","74","","","","7","","18","","24.1","","100.39","","","","-10","","Mostly Cloudy"
"-77.53","44.12","TRENTON A","6158875","2021-01-26 10:00","2021","01","26","10:00","-2.9","","-7.0","","70","","","","7","","21","","24.1","","100.31","","","","-9","","Mostly Cloudy"
"-77.53","44.12","TRENTON A","6158875","2021-01-26 11:00","2021","01","26","11:00","-2.3","","-7.1","","66","","","","7","","18","","24.1","","100.26","","","","-8","","Cloudy"
"-77.53","44.12","TRENTON A","6158875","2021-01-26 12:00","2021","01","26","12:00","-1.9","","-6.9","","65","","","","5","","18","","9.7","","100.17","","","","-7","","Snow"
"-77.53","44.12","TRENTON A","6158875","2021-01-26 13:00","2021","01","26","13:00","-3.0","","-4.3","","90","","","","7","","18","","0.8","","100.08","","","","-9","","Moderate Snow"
"-77.53","44.12","TRENTON A","6158875","2021-01-26 14:00","2021","01","26","14:00","-2.8","","-4.2","","89","","","","7","","24","","1.6","","99.94","","","","-9","","Snow"
"-77.53","44.12","TRENTON A","6158875","2021-01-26 15:00","2021","01","26","15:00","-2.5","","-4.6","","84","","","","8","","17","","6.4","","99.87","","","","-8","","Snow"
"-77.53","44.12","TRENTON A","6158875","2021-01-26 16:00","2021","01","26","16:00","-2.5","","-4.7","","83","","","","7","","18","","4.0","","99.86","","","","-8","","Snow"
"-77.53","44.12","TRENTON A","6158875","2021-01-26 17:00","2021","01","26","17:00","-2.9","","-4.4","","88","","","","6","","18","","1.2","","99.84","","","","-9","","Snow"
"-77.53","44.12","TRENTON A","6158875","2021-01-26 18:00","2021","01","26","18:00","-2.7","","-4.2","","88","","","","6","","17","","1.6","","99.86","","","","-8","","Snow"
"-77.53","44.12","TRENTON A","6158875","2021-01-26 19:00","2021","01","26","19:00","-3.0","","-4.9","","85","","","","5","","18","","3.2","","99.89","","","","-9","","Snow"
"-77.53","44.12","TRENTON A","6158875","2021-01-26 20:00","2021","01","26","20:00","-3.1","","-5.4","","82","","","","4","","24","","6.4","","99.93","","","","-10","","Snow"
"-77.53","44.12","TRENTON A","6158875","2021-01-26 21:00","2021","01","26","21:00","-3.6","","-5.3","","87","","","","3","","22","","4.0","","99.96","","","","-10","","Freezing Rain,Snow"
"-77.53","44.12","TRENTON A","6158875","2021-01-26 22:00","2021","01","26","22:00"
"-77.53","44.12","TRENTON A","6158875","2021-01-26 23:00","2021","01","26","23:00"
"-77.53","44.12","TRENTON A","6158875","2021-01-27 00:00","2021","01","27","00:00"
"-77.53","44.12","TRENTON A","6158875","2021-01-27 01:00","2021","01","27","01:00"
"-77.53","44.12","TRENTON A","6158875","2021-01-27 02:00","2021","01","27","02:00"
"-77.53","44.12","TRENTON A","6158875","2021-01-27 03:00","2021","01","27","03:00"
"-77.53","44.12","TRENTON A","6158875","2021-01-27 04:00","2021","01","27","04:00"
"-77.53","44.12","TRENTON A","6158875","2021-01-27 05:00","2021","01","27","05:00"
"-77.53","44.12","TRENTON A","6158875","2021-01-27 06:00","2021","01","27","06:00","-6.0","","-9.2","","76","","","","34","","11","","24.1","","100.83","","","","-11","","Mostly Cloudy"
"-77.53","44.12","TRENTON A","6158875","2021-01-27 07:00","2021","01","27","07:00","-6.7","","-9.8","","76","","","","33","","18","","24.1","","100.90","","","","-13","","Mainly Clear"
"-77.53","44.12","TRENTON A","6158875","2021-01-27 08:00","2021","01","27","08:00","-7.7","","-10.5","","78","","","","34","","4","","24.1","","101.04","","","","-10","","Clear"
"-77.53","44.12","TRENTON A","6158875","2021-01-27 09:00","2021","01","27","09:00","-7.5","","-10.7","","75","","","","34","","8","","24.1","","101.07","","","","-12","","Clear"
"-77.53","44.12","TRENTON A","6158875","2021-01-27 10:00","2021","01","27","10:00","-6.4","","-10.8","","68","","","","33","","15","","24.1","","101.09","","","","-12","","Clear"
"-77.53","44.12","TRENTON A","6158875","2021-01-27 11:00","2021","01","27","11:00","-5.2","","-10.2","","65","","","","31","","15","","24.1","","101.16","","","","-11","","Clear"
"-77.53","44.12","TRENTON A","6158875","2021-01-27 12:00","2021","01","27","12:00","-3.8","","-10.2","","57","","","","36","","9","","24.1","","101.13","","","","-8","","Mainly Clear"
"-77.53","44.12","TRENTON A","6158875","2021-01-27 13:00","2021","01","27","13:00","-3.2","","-10.6","","53","","","","31","","13","","24.1","","101.08","","","","-8","","Mostly Cloudy"
"-77.53","44.12","TRENTON A","6158875","2021-01-27 14:00","2021","01","27","14:00","-2.7","","-10.7","","50","","","","35","","8","","24.1","","101.09","","","","-6","","Mostly Cloudy"
"-77.53","44.12","TRENTON A","6158875","2021-01-27 15:00","2021","01","27","15:00","-2.3","","-10.6","","49","","","","33","","9","","24.1","","101.10","","","","-6","","Mostly Cloudy"
"-77.53","44.12","TRENTON A","6158875","2021-01-27 16:00","2021","01","27","16:00","-3.4","","-10.7","","53","","","","31","","8","","24.1","","101.14","","","","-7","","Cloudy"
"-77.53","44.12","TRENTON A","6158875","2021-01-27 17:00","2021","01","27","17:00","-3.3","","-9.9","","56","","","","30","","5","","24.1","","101.18","","","","-5","","Snow Showers"
"-77.53","44.12","TRENTON A","6158875","2021-01-27 18:00","2021","01","27","18:00","-4.1","","-9.3","","64","","","","31","","15","","24.1","","101.21","","","","-9","","Snow Showers"
"-77.53","44.12","TRENTON A","6158875","2021-01-27 19:00","2021","01","27","19:00","-4.3","","-9.0","","67","","","","3","","11","","24.1","","101.23","","","","-9","","Snow Showers"
"-77.53","44.12","TRENTON A","6158875","2021-01-27 20:00","2021","01","27","20:00","-5.6","","-10.7","","64","","","","36","","9","","24.1","","101.28","","","","-10","","Mostly Cloudy"
"-77.53","44.12","TRENTON A","6158875","2021-01-27 21:00","2021","01","27","21:00","-5.7","","-10.0","","69","","","","35","","9","","24.1","","101.31","","","","-10","","Snow Showers"
"-77.53","44.12","TRENTON A","6158875","2021-01-27 22:00","2021","01","27","22:00"
"-77.53","44.12","TRENTON A","6158875","2021-01-27 23:00","2021","01","27","23:00"
"-77.53","44.12","TRENTON A","6158875","2021-01-28 00:00","2021","01","28","00:00"
"-77.53","44.12","TRENTON A","6158875","2021-01-28 01:00","2021","01","28","01:00"
"-77.53","44.12","TRENTON A","6158875","2021-01-28 02:00","2021","01","28","02:00"
"-77.53","44.12","TRENTON A","6158875","2021-01-28 03:00","2021","01","28","03:00"
"-77.53","44.12","TRENTON A","6158875","2021-01-28 04:00","2021","01","28","04:00"
"-77.53","44.12","TRENTON A","6158875","2021-01-28 05:00","2021","01","28","05:00"
"-77.53","44.12","TRENTON A","6158875","2021-01-28 06:00","2021","01","28","06:00","-14.1","","-16.5","","80","","","","31","","9","","24.1","","101.54","","","","-20","","Clear"
"-77.53","44.12","TRENTON A","6158875","2021-01-28 07:00","2021","01","28","07:00","-14.2","","-16.3","","82","","","","31","","5","","24.1","","101.61","","","","-18","","Clear"
"-77.53","44.12","TRENTON A","6158875","2021-01-28 08:00","2021","01","28","08:00","-15.6","","-17.1","","87","","","","","","0","","24.1","","101.67","","","","","","Clear"
"-77.53","44.12","TRENTON A","6158875","2021-01-28 09:00","2021","01","28","09:00","-14.1","","-16.7","","79","","","","31","","9","","24.1","","101.72","","","","-20","","Clear"
"-77.53","44.12","TRENTON A","6158875","2021-01-28 10:00","2021","01","28","10:00","-12.7","","-16.4","","71","","","","32","","9","","24.1","","101.72","","","","-18","","Clear"
"-77.53","44.12","TRENTON A","6158875","2021-01-28 11:00","2021","01","28","11:00","-12.2","","-16.8","","66","","","","32","","18","","24.1","","101.72","","","","-20","","Clear"
"-77.53","44.12","TRENTON A","6158875","2021-01-28 12:00","2021","01","28","12:00","-12.0","","-16.7","","65","","","","30","","22","","24.1","","101.66","","","","-21","","Clear"
"-77.53","44.12","TRENTON A","6158875","2021-01-28 13:00","2021","01","28","13:00","-11.5","","-16.6","","63","","","","31","","22","","24.1","","101.60","","","","-20","","Clear"
"-77.53","44.12","TRENTON A","6158875","2021-01-28 14:00","2021","01","28","14:00","-10.8","","-17.3","","55","","","","28","","22","","24.1","","101.57","","","","-19","","Clear"
"-77.53","44.12","TRENTON A","6158875","2021-01-28 15:00","2021","01","28","15:00","-9.9","","-17.0","","52","","","","30","","24","","24.1","","101.56","","","","-18","","Clear"
"-77.53","44.12","TRENTON A","6158875","2021-01-28 16:00","2021","01","28","16:00","-10.0","","-17.4","","51","","","","29","","26","","24.1","","101.57","","","","-19","","Clear"
"-77.53","44.12","TRENTON A","6158875","2021-01-28 17:00","2021","01","28","17:00","-10.8","","-18.2","","51","","","","29","","21","","24.1","","101.64","","","","-19","","Clear"
"-77.53","44.12","TRENTON A","6158875","2021-01-28 18:00","2021","01","28","18:00","-11.8","","-20.2","","46","","","","28","","15","","24.1","","101.63","","","","-19","","Clear"
"-77.53","44.12","TRENTON A","6158875","2021-01-28 19:00","2021","01","28","19:00","-11.8","","-19.8","","48","","","","30","","15","","24.1","","101.62","","","","-19","","Clear"
"-77.53","44.12","TRENTON A","6158875","2021-01-28 20:00","2021","01","28","20:00","-12.3","","-19.5","","51","","","","32","","21","","24.1","","101.58","","","","-21","","Clear"
"-77.53","44.12","TRENTON A","6158875","2021-01-28 21:00","2021","01","28","21:00","-13.1","","-19.6","","55","","","","32","","17","","24.1","","101.58","","","","-21","","Clear"
"-77.53","44.12","TRENTON A","6158875","2021-01-28 22:00","2021","01","28","22:00"
"-77.53","44.12","TRENTON A","6158875","2021-01-28 23:00","2021","01","28","23:00"
"-77.53","44.12","TRENTON A","6158875","2021-01-29 00:00","2021","01","29","00:00"
"-77.53","44.12","TRENTON A","6158875","2021-01-29 01:00","2021","01","29","01:00"
"-77.53","44.12","TRENTON A","6158875","2021-01-29 02:00","2021","01","29","02:00"
"-77.53","44.12","TRENTON A","6158875","2021-01-29 03:00","2021","01","29","03:00"
"-77.53","44.12","TRENTON A","6158875","2021-01-29 04:00","2021","01","29","04:00"
"-77.53","44.12","TRENTON A","6158875","2021-01-29 05:00","2021","01","29","05:00"
"-77.53","44.12","TRENTON A","6158875","2021-01-29 06:00","2021","01","29","06:00","-16.5","","-22.1","","59","","","","31","","15","","24.1","","101.60","","","","-25","","Mostly Cloudy"
"-77.53","44.12","TRENTON A","6158875","2021-01-29 07:00","2021","01","29","07:00","-16.8","","-22.0","","61","","","","9","","4","","24.1","","101.63","","","","-20","","Mostly Cloudy"
"-77.53","44.12","TRENTON A","6158875","2021-01-29 08:00","2021","01","29","08:00","-16.1","","-21.5","","60","","","","32","","13","","24.1","","101.66","","","","-24","","Mostly Cloudy"
"-77.53","44.12","TRENTON A","6158875","2021-01-29 09:00","2021","01","29","09:00","-15.1","","-20.8","","58","","","","33","","17","","24.1","","101.65","","","","-24","","Mostly Cloudy"
"-77.53","44.12","TRENTON A","6158875","2021-01-29 10:00","2021","01","29","10:00","-14.2","","-20.3","","56","","","","34","","17","","24.1","","101.65","","","","-22","","Mostly Cloudy"
"-77.53","44.12","TRENTON A","6158875","2021-01-29 11:00","2021","01","29","11:00","-12.9","","-19.6","","54","","","","33","","11","","24.1","","101.63","","","","-19","","Mostly Cloudy"
"-77.53","44.12","TRENTON A","6158875","2021-01-29 12:00","2021","01","29","12:00","-11.7","","-18.8","","52","","","","34","","11","","24.1","","101.58","","","","-18","","Mostly Cloudy"
"-77.53","44.12","TRENTON A","6158875","2021-01-29 13:00","2021","01","29","13:00","-11.1","","-18.1","","53","","","","32","","17","","24.1","","101.50","","","","-19","","Mostly Cloudy"
"-77.53","44.12","TRENTON A","6158875","2021-01-29 14:00","2021","01","29","14:00","-10.3","","-17.9","","50","","","","34","","17","","24.1","","101.48","","","","-18","","Mostly Cloudy"
"-77.53","44.12","TRENTON A","6158875","2021-01-29 15:00","2021","01","29","15:00","-9.7","","-17.9","","47","","","","34","","13","","24.1","","101.49","","","","-16","","Mostly Cloudy"
"-77.53","44.12","TRENTON A","6158875","2021-01-29 16:00","2021","01","29","16:00","-9.7","","-18.0","","47","","","","33","","15","","24.1","","101.51","","","","-16","","Mostly Cloudy"
"-77.53","44.12","TRENTON A","6158875","2021-01-29 17:00","2021","01","29","17:00","-9.7","","-17.5","","49","","","","32","","11","","24.1","","101.53","","","","-15","","Mostly Cloudy"
"-77.53","44.12","TRENTON A","6158875","2021-01-29 18:00","2021","01","29","18:00","-9.7","","-17.1","","51","","","","32","","5","","24.1","","101.58","","","","-13","","Mostly Cloudy"
"-77.53","44.12","TRENTON A","6158875","2021-01-29 19:00","2021","01","29","19:00","-9.7","","-16.6","","53","","","","34","","8","","24.1","","101.61","","","","-14","","Cloudy"
"-77.53","44.12","TRENTON A","6158875","2021-01-29 20:00","2021","01","29","20:00","-9.7","","-17.0","","51","","","","32","","11","","24.1","","101.63","","","","-15","","Cloudy"
"-77.53","44.12","TRENTON A","6158875","2021-01-29 21:00","2021","01","29","21:00","-10.1","","-16.7","","55","","","","33","","9","","24.1","","101.64","","","","-15","","Cloudy"
"-77.53","44.12","TRENTON A","6158875","2021-01-29 22:00","2021","01","29","22:00"
"-77.53","44.12","TRENTON A","6158875","2021-01-29 23:00","2021","01","29","23:00"
"-77.53","44.12","TRENTON A","6158875","2021-01-30 00:00","2021","01","30","00:00"
"-77.53","44.12","TRENTON A","6158875","2021-01-30 01:00","2021","01","30","01:00"
"-77.53","44.12","TRENTON A","6158875","2021-01-30 02:00","2021","01","30","02:00"
"-77.53","44.12","TRENTON A","6158875","2021-01-30 03:00","2021","01","30","03:00"
"-77.53","44.12","TRENTON A","6158875","2021-01-30 04:00","2021","01","30","04:00"
"-77.53","44.12","TRENTON A","6158875","2021-01-30 05:00","2021","01","30","05:00"
"-77.53","44.12","TRENTON A","6158875","2021-01-30 06:00","2021","01","30","06:00","-19.0","","-21.8","","76","","","","","","0","","24.1","","101.72","","","","","","Clear"
"-77.53","44.12","TRENTON A","6158875","2021-01-30 07:00","2021","01","30","07:00","-18.1","","-21.7","","71","","","","34","","5","","24.1","","101.81","","","","-22","","Clear"
"-77.53","44.12","TRENTON A","6158875","2021-01-30 08:00","2021","01","30","08:00","-17.8","","-21.3","","72","","","","","","0","","24.1","","101.82","","","","","","Clear"
"-77.53","44.12","TRENTON A","6158875","2021-01-30 09:00","2021","01","30","09:00","-14.6","","-18.9","","67","","","","","","0","","24.1","","101.87","","","","","","Clear"
"-77.53","44.12","TRENTON A","6158875","2021-01-30 10:00","2021","01","30","10:00","-12.9","","-18.2","","61","","","","32","","8","","24.1","","101.88","","","","-18","","Clear"
"-77.53","44.12","TRENTON A","6158875","2021-01-30 11:00","2021","01","30","11:00","-11.3","","-18.0","","54","","","","31","","9","","24.1","","101.85","","","","-16","","Clear"
"-77.53","44.12","TRENTON A","6158875","2021-01-30 12:00","2021","01","30","12:00","-9.9","","-16.4","","55","","","","33","","9","","24.1","","101.84","","","","-15","","Clear"
"-77.53","44.12","TRENTON A","6158875","2021-01-30 13:00","2021","01","30","13:00","-8.8","","-16.4","","50","","","","20","","9","","24.1","","101.77","","","","-13","","Clear"
"-77.53","44.12","TRENTON A","6158875","2021-01-30 14:00","2021","01","30","14:00","-7.5","","-15.7","","48","","","","33","","9","","24.1","","101.69","","","","-12","","Mainly Clear"
"-77.53","44.12","TRENTON A","6158875","2021-01-30 15:00","2021","01","30","15:00","-6.1","","-16.1","","41","","","","25","","4","","24.1","","101.70","","","","-8","","Mainly Clear"
"-77.53","44.12","TRENTON A","6158875","2021-01-30 16:00","2021","01","30","16:00","-5.7","","-16.2","","39","","","","","","0","","24.1","","101.70","","","","","","Mainly Clear"
"-77.53","44.12","TRENTON A","6158875","2021-01-30 17:00","2021","01","30","17:00","-6.7","","-16.2","","43","","","","12","","4","","24.1","","101.71","","","","-9","","Mainly Clear"
"-77.53","44.12","TRENTON A","6158875","2021-01-30 18:00","2021","01","30","18:00","-9.5","","-16.5","","53","","","","","","0","","24.1","","101.72","","","","","","Mainly Clear"
"-77.53","44.12","TRENTON A","6158875","2021-01-30 19:00","2021","01","30","19:00","-12.2","","-18.0","","59","","","","4","","4","","24.1","","101.74","","","","-15","","Mainly Clear"
"-77.53","44.12","TRENTON A","6158875","2021-01-30 20:00","2021","01","30","20:00","-14.1","","-18.9","","64","","","","4","","4","","24.1","","101.74","","","","-17","","Mainly Clear"
"-77.53","44.12","TRENTON A","6158875","2021-01-30 21:00","2021","01","30","21:00","-15.2","","-19.6","","66","","","","4","","5","","24.1","","101.72","","","","-19","","Mainly Clear"
"-77.53","44.12","TRENTON A","6158875","2021-01-30 22:00","2021","01","30","22:00"
"-77.53","44.12","TRENTON A","6158875","2021-01-30 23:00","2021","01","30","23:00"
"-77.53","44.12","TRENTON A","6158875","2021-01-31 00:00","2021","01","31","00:00"
"-77.53","44.12","TRENTON A","6158875","2021-01-31 01:00","2021","01","31","01:00"
"-77.53","44.12","TRENTON A","6158875","2021-01-31 02:00","2021","01","31","02:00"
"-77.53","44.12","TRENTON A","6158875","2021-01-31 03:00","2021","01","31","03:00"
"-77.53","44.12","TRENTON A","6158875","2021-01-31 04:00","2021","01","31","04:00"
"-77.53","44.12","TRENTON A","6158875","2021-01-31 05:00","2021","01","31","05:00"
"-77.53","44.12","TRENTON A","6158875","2021-01-31 06:00","2021","01","31","06:00","-16.6","","-19.9","","73","","","","5","","11","","24.1","","101.65","","","","-24","","Clear"
"-77.53","44.12","TRENTON A","6158875","2021-01-31 07:00","2021","01","31","07:00","-17.1","","-20.8","","70","","","","5","","11","","24.1","","101.69","","","","-24","","Mainly Clear"
"-77.53","44.12","TRENTON A","6158875","2021-01-31 08:00","2021","01","31","08:00","-17.0","","-20.8","","70","","","","4","","11","","24.1","","101.70","","","","-24","","Mostly Cloudy"
"-77.53","44.12","TRENTON A","6158875","2021-01-31 09:00","2021","01","31","09:00","-15.9","","-20.0","","68","","","","4","","13","","24.1","","101.71","","","","-23","","Cloudy"
"-77.53","44.12","TRENTON A","6158875","2021-01-31 10:00","2021","01","31","10:00","-13.6","","-18.8","","62","","","","6","","17","","24.1","","101.65","","","","-22","","Cloudy"
"-77.53","44.12","TRENTON A","6158875","2021-01-31 11:00","2021","01","31","11:00","-11.7","","-17.4","","59","","","","5","","15","","24.1","","101.61","","","","-19","","Cloudy"
"-77.53","44.12","TRENTON A","6158875","2021-01-31 12:00","2021","01","31","12:00","-9.5","","-17.1","","50","","","","7","","15","","24.1","","101.54","","","","-16","","Cloudy"
"-77.53","44.12","TRENTON A","6158875","2021-01-31 13:00","2021","01","31","13:00","-8.6","","-16.7","","48","","","","6","","17","","24.1","","101.44","","","","-15","","Cloudy"
"-77.53","44.12","TRENTON A","6158875","2021-01-31 14:00","2021","01","31","14:00","-8.3","","-16.2","","49","","","","5","","21","","24.1","","101.39","","","","-16","","Cloudy"
"-77.53","44.12","TRENTON A","6158875","2021-01-31 15:00","2021","01","31","15:00","-7.5","","-16.5","","44","","","","6","","13","","24.1","","101.37","","","","-13","","Cloudy"
"-77.53","44.12","TRENTON A","6158875","2021-01-31 16:00","2021","01","31","16:00","-7.7","","-16.5","","45","","","","5","","15","","24.1","","101.35","","","","-14","","Cloudy"
"-77.53","44.12","TRENTON A","6158875","2021-01-31 17:00","2021","01","31","17:00","-8.3","","-17.6","","43","","","","6","","13","","24.1","","101.34","","","","-14","","Cloudy"
"-77.53","44.12","TRENTON A","6158875","2021-01-31 18:00","2021","01","31","18:00","-9.9","","-18.2","","47","","","","6","","18","","24.1","","101.34","","","","-17","","Mostly Cloudy"
"-77.53","44.12","TRENTON A","6158875","2021-01-31 19:00","2021","01","31","19:00","-10.9","","-18.6","","49","","","","6","","21","","24.1","","101.34","","","","-19","","Mostly Cloudy"
"-77.53","44.12","TRENTON A","6158875","2021-01-31 20:00","2021","01","31","20:00","-11.7","","-19.2","","50","","","","6","","21","","24.1","","101.34","","","","-20","","Mainly Clear"
"-77.53","44.12","TRENTON A","6158875","2021-01-31 21:00","2021","01","31","21:00","-12.7","","-19.9","","51","","","","5","","17","","24.1","","101.32","","","","-21","","Mainly Clear"
"-77.53","44.12","TRENTON A","6158875","2021-01-31 22:00","2021","01","31","22:00"
"-77.53","44.12","TRENTON A","6158875","2021-01-31 23:00","2021","01","31","23:00"
