"Longitude (x)","Latitude (y)","Station Name","Climate ID","Date/Time (LST)","Year","Month","Day","Time (LST)","Temp (°C)","Temp Flag","Dew Point Temp (°C)","Dew Point Temp Flag","Rel Hum (%)","Rel Hum Flag","Precip. Amount (mm)","Precip. Amount Flag","Wind Dir (10s deg)","Wind Dir Flag","Wind Spd (km/h)","Wind Spd Flag","Visibility (km)","Visibility Flag","Stn Press (kPa)","Stn Press Flag","Hmdx","Hmdx Flag","Wind Chill","Wind Chill Flag","Weather"
"-63.58","44.66","HALIFAX DOCKYARD","8202240","2022-08-01 00:00","2022","08","01","00:00","20.9","","15.1","","70","","","","32","","8","","","","101.65","","25","","","","NA"
"-63.58","44.66","HALIFAX DOCKYARD","8202240","2022-08-01 01:00","2022","08","01","01:00","20.0","","15.5","","75","","","","33","","6","","","","101.67","","","","","","NA"
"-63.58","44.66","HALIFAX DOCKYARD","8202240","2022-08-01 02:00","2022","08","01","02:00","19.7","","14.9","","74","","","","30","","4","","","","101.67","","","","","","NA"
"-63.58","44.66","HALIFAX DOCKYARD","8202240","2022-08-01 03:00","2022","08","01","03:00","18.8","","15.3","","80","","","","32","","9","","","","101.67","","","","","","NA"
"-63.58","44.66","HALIFAX DOCKYARD","8202240","2022-08-01 04:00","2022","08","01","04:00","18.5","","15.0","","80","","","","34","","2","","","","101.61","","","","","","NA"
"-63.58","44.66","HALIFAX DOCKYARD","8202240","2022-08-01 05:00","2022","08","01","05:00","16.1","","14.1","","88","","","","14","","4","","","","101.65","","","","","","NA"
"-63.58","44.66","HALIFAX DOCKYARD","8202240","2022-08-01 06:00","2022","08","01","06:00","18.6","","14.3","","76","","","","24","","7","","","","101.69","","","","","","NA"
"-63.58","44.66","HALIFAX DOCKYARD","8202240","2022-08-01 07:00","2022","08","01","07:00","16.4","","13.9","","85","","","","9","","3","","","","101.69","","","","","","NA"
"-63.58","44.66","HALIFAX DOCKYARD","8202240","2022-08-01 08:00","2022","08","01","08:00","18.1","","14.2","","78","","","","5","","3","","","","101.68","","","","","","NA"
"-63.58","44.66","HALIFAX DOCKYARD","8202240","2022-08-01 09:00","2022","08","01","09:00","21.4","","14.8","","66","","","","22","","8","","","","101.64","","25","","","","NA"
"-63.58","44.66","HALIFAX DOCKYARD","8202240","2022-08-01 10:00","2022","08","01","10:00","23.2","","14.3","","57","","","","22","","8","","","","101.60","","27","","","","NA"
"-63.58","44.66","HALIFAX DOCKYARD","8202240","2022-08-01 11:00","2022","08","01","11:00","24.8","","13.0","","48","","","","20","","8","","","","101.59","","28","","","","NA"
"-63.58","44.66","HALIFAX DOCKYARD","8202240","2022-08-01 12:00","2022","08","01","12:00","23.4","","16.1","","63","","","","22","","10","","","","101.57","","28","","","","NA"
"-63.58","44.66","HALIFAX DOCKYARD","8202240","2022-08-01 13:00","2022","08","01","13:00","23.2","","16.3","","65","","","","20","","9","","","","101.56","","28","","","","NA"
"-63.58","44.66","HALIFAX DOCKYARD","8202240","2022-08-01 14:00","2022","08","01","14:00","22.8","","16.1","","66","","","","23","","16","","","","101.51","","27","","","","NA"
"-63.58","44.66","HALIFAX DOCKYARD","8202240","2022-08-01 15:00","2022","08","01","15:00","22.0","","16.6","","72","","","","18","","10","","","","101.44","","27","","","","NA"
"-63.58","44.66","HALIFAX DOCKYARD","8202240","2022-08-01 16:00","2022","08","01","16:00","22.7","","17.4","","72","","","","20","","13","","","","101.46","","28","","","","NA"
"-63.58","44.66","HALIFAX DOCKYARD","8202240","2022-08-01 17:00","2022","08","01","17:00","20.9","","17.7","","82","","","","22","","8","","","","101.44","","27","","","","NA"
"-63.58","44.66","HALIFAX DOCKYARD","8202240","2022-08-01 18:00","2022","08","01","18:00","20.6","","17.9","","84","","","","19","","10","","","","101.39","","27","","","","NA"
"-63.58","44.66","HALIFAX DOCKYARD","8202240","2022-08-01 19:00","2022","08","01","19:00","20.4","","17.6","","84","","","","22","","4","","","","101.37","","26","","","","NA"
"-63.58","44.66","HALIFAX DOCKYARD","8202240","2022-08-01 20:00","2022","08","01","20:00","20.2","","17.6","","85","","","","22","","12","","","","101.34","","26","","","","NA"
"-63.58","44.66","HALIFAX DOCKYARD","8202240","2022-08-01 21:00","2022","08","01","21:00","19.3","","17.6","","90","","","","23","","15","","","","101.37","","","","","","NA"
"-63.58","44.66","HALIFAX DOCKYARD","8202240","2022-08-01 22:00","2022","08","01","22:00","18.9","","17.1","","90","","","","23","","15","","","","101.37","","","","","","NA"
"-63.58","44.66","HALIFAX DOCKYARD","8202240","2022-08-01 23:00","2022","08","01","23:00","18.6","","16.6","","88","","","","23","","9","","","","101.36","","","","","","NA"
"-63.58","44.66","HALIFAX DOCKYARD","8202240","2022-08-02 00:00","2022","08","02","00:00","18.4","","17.5","","94","","","","24","","13","","","","101.32","","","","","","NA"
"-63.58","44.66","HALIFAX DOCKYARD","8202240","2022-08-02 01:00","2022","08","02","01:00","18.6","","18.0","","96","","","","25","","4","","","","101.28","","","","","","NA"
"-63.58","44.66","HALIFAX DOCKYARD","8202240","2022-08-02 02:00","2022","08","02","02:00","16.5","","16.1","","97","","","","12","","4","","","","101.25","","","","","","NA"
"-63.58","44.66","HALIFAX DOCKYARD","8202240","2022-08-02 03:00","2022","08","02","03:00","16.3","","16.1","","99","","","","14","","12","","","","101.23","","","","","","NA"
"-63.58","44.66","HALIFAX DOCKYARD","8202240","2022-08-02 04:00","2022","08","02","04:00","14.3","","14.1","","99","","","","14","","13","","","","101.23","","","","","","NA"
"-63.58","44.66","HALIFAX DOCKYARD","8202240","2022-08-02 05:00","2022","08","02","05:00","14.7","","14.5","","99","","","","13","","10","","","","101.24","","","","","","NA"
"-63.58","44.66","HALIFAX DOCKYARD","8202240","2022-08-02 06:00","2022","08","02","06:00","15.5","","15.3","","99","","","","14","","11","","","","101.24","","","","","","NA"
"-63.58","44.66","HALIFAX DOCKYARD","8202240","2022-08-02 07:00","2022","08","02","07:00","17.1","","16.9","","99","","","","15","","8","","","","101.22","","","","","","NA"
"-63.58","44.66","HALIFAX DOCKYARD","8202240","2022-08-02 08:00","2022","08","02","08:00","17.9","","17.7","","99","","","","15","","12","","","","101.18","","","","","","NA"
"-63.58","44.66","HALIFAX DOCKYARD","8202240","2022-08-02 09:00","2022","08","02","09:00","17.7","","17.5","","99","","","","15","","13","","","","101.07","","","","","","NA"
"-63.58","44.66","HALIFAX DOCKYARD","8202240","2022-08-02 10:00","2022","08","02","10:00","18.9","","18.4","","97","","","","15","","14","","","","101.06","","","","","","NA"
"-63.58","44.66","HALIFAX DOCKYARD","8202240","2022-08-02 11:00","2022","08","02","11:00","19.8","","18.3","","91","","","","14","","17","","","","100.99","","","","","","NA"
"-63.58","44.66","HALIFAX DOCKYARD","8202240","2022-08-02 12:00","2022","08","02","12:00","20.3","","18.9","","92","","","","15","","20","","","","100.92","","27","","","","NA"
"-63.58","44.66","HALIFAX DOCKYARD","8202240","2022-08-02 13:00","2022","08","02","13:00","19.8","","18.9","","95","","","","15","","13","","","","100.84","","","","","","NA"
"-63.58","44.66","HALIFAX DOCKYARD","8202240","2022-08-02 14:00","2022","08","02","14:00","19.3","","19.0","","98","","","","14","","11","","","","100.79","","","","","","NA"
"-63.58","44.66","HALIFAX DOCKYARD","8202240","2022-08-02 15:00","2022","08","02","15:00","18.7","","18.3","","98","","","","13","","12","","","","100.74","","","","","","NA"
"-63.58","44.66","HALIFAX DOCKYARD","8202240","2022-08-02 16:00","2022","08","02","16:00","18.5","","18.3","","99","","","","13","","10","","","","100.67","","","","","","NA"
"-63.58","44.66","HALIFAX DOCKYARD","8202240","2022-08-02 17:00","2022","08","02","17:00","19.1","","18.9","","99","","","","12","","7","","","","100.64","","","","","","NA"
"-63.58","44.66","HALIFAX DOCKYARD","8202240","2022-08-02 18:00","2022","08","02","18:00","16.7","","16.4","","98","","","","13","","9","","","","100.66","","","","","","NA"
"-63.58","44.66","HALIFAX DOCKYARD","8202240","2022-08-02 19:00","2022","08","02","19:00","17.5","","17.3","","99","","","","13","","10","","","","100.68","","","","","","NA"
"-63.58","44.66","HALIFAX DOCKYARD","8202240","2022-08-02 20:00","2022","08","02","20:00","16.3","","16.0","","98","","","","13","","3","","","","100.71","","","","","","NA"
"-63.58","44.66","HALIFAX DOCKYARD","8202240","2022-08-02 21:00","2022","08","02","21:00","16.0","","15.9","","99","","","","15","","6","","","","100.86","","","","","","NA"
"-63.58","44.66","HALIFAX DOCKYARD","8202240","2022-08-02 22:00","2022","08","02","22:00","17.7","","17.6","","99","","","","26","","6","","","","100.88","","","","","","NA"
"-63.58","44.66","HALIFAX DOCKYARD","8202240","2022-08-02 23:00","2022","08","02","23:00","19.0","","18.8","","99","","","","26","","8","","","","100.89","","","","","","NA"
"-63.58","44.66","HALIFAX DOCKYARD","8202240","2022-08-03 00:00","2022","08","03","00:00","18.6","","18.4","","99","","","","26","","12","","","","100.88","","","","","","NA"
"-63.58","44.66","HALIFAX DOCKYARD","8202240","2022-08-03 01:00","2022","08","03","01:00","19.1","","18.2","","95","","","","25","","9","","","","100.91","","","","","","NA"
"-63.58","44.66","HALIFAX DOCKYARD","8202240","2022-08-03 02:00","2022","08","03","02:00","18.4","","17.7","","96","","","","34","","3","","","","100.95","","","","","","NA"
"-63.58","44.66","HALIFAX DOCKYARD","8202240","2022-08-03 03:00","2022","08","03","03:00","16.8","","16.6","","98","","","","14","","9","","","","100.99","","","","","","NA"
"-63.58","44.66","HALIFAX DOCKYARD","8202240","2022-08-03 04:00","2022","08","03","04:00","17.6","","17.4","","99","","","","22","","4","","","","101.01","","","","","","NA"
"-63.58","44.66","HALIFAX DOCKYARD","8202240","2022-08-03 05:00","2022","08","03","05:00","16.0","","15.5","","97","","","","15","","6","","","","101.06","","","","","","NA"
"-63.58","44.66","HALIFAX DOCKYARD","8202240","2022-08-03 06:00","2022","08","03","06:00","15.9","","15.7","","99","","","","12","","2","","","","101.13","","","","","","NA"
"-63.58","44.66","HALIFAX DOCKYARD","8202240","2022-08-03 07:00","2022","08","03","07:00","15.9","","15.8","","99","","","","14","","11","","","","101.19","","","","","","NA"
"-63.58","44.66","HALIFAX DOCKYARD","8202240","2022-08-03 08:00","2022","08","03","08:00","16.8","","16.6","","99","","","","14","","14","","","","101.21","","","","","","NA"
"-63.58","44.66","HALIFAX DOCKYARD","8202240","2022-08-03 09:00","2022","08","03","09:00","17.2","","17.0","","99","","","","13","","11","","","","101.22","","","","","","NA"
"-63.58","44.66","HALIFAX DOCKYARD","8202240","2022-08-03 10:00","2022","08","03","10:00","17.1","","16.9","","99","","","","13","","9","","","","101.23","","","","","","NA"
"-63.58","44.66","HALIFAX DOCKYARD","8202240","2022-08-03 11:00","2022","08","03","11:00","18.6","","18.1","","97","","","","13","","8","","","","101.27","","","","","","NA"
"-63.58","44.66","HALIFAX DOCKYARD","8202240","2022-08-03 12:00","2022","08","03","12:00","20.4","","18.9","","91","","","","14","","13","","","","101.27","","27","","","","NA"
"-63.58","44.66","HALIFAX DOCKYARD","8202240","2022-08-03 13:00","2022","08","03","13:00","19.0","","17.6","","92","","","","14","","18","","","","101.27","","","","","","NA"
"-63.58","44.66","HALIFAX DOCKYARD","8202240","2022-08-03 14:00","2022","08","03","14:00","21.1","","19.1","","88","","","","15","","19","","","","101.32","","28","","","","NA"
"-63.58","44.66","HALIFAX DOCKYARD","8202240","2022-08-03 15:00","2022","08","03","15:00","19.8","","18.0","","89","","","","13","","19","","","","101.33","","","","","","NA"
"-63.58","44.66","HALIFAX DOCKYARD","8202240","2022-08-03 16:00","2022","08","03","16:00","19.9","","17.6","","87","","","","14","","17","","","","101.38","","","","","","NA"
"-63.58","44.66","HALIFAX DOCKYARD","8202240","2022-08-03 17:00","2022","08","03","17:00","26.0","","19.9","","69","","","","20","","8","","","","101.38","","33","","","","NA"
"-63.58","44.66","HALIFAX DOCKYARD","8202240","2022-08-03 18:00","2022","08","03","18:00","24.5","","18.6","","70","","","","23","","7","","","","101.39","","31","","","","NA"
"-63.58","44.66","HALIFAX DOCKYARD","8202240","2022-08-03 19:00","2022","08","03","19:00","22.2","","18.9","","82","","","","15","","6","","","","101.42","","29","","","","NA"
"-63.58","44.66","HALIFAX DOCKYARD","8202240","2022-08-03 20:00","2022","08","03","20:00","17.5","","16.6","","94","","","","14","","13","","","","101.44","","","","","","NA"
"-63.58","44.66","HALIFAX DOCKYARD","8202240","2022-08-03 21:00","2022","08","03","21:00","17.6","","16.4","","93","","","","14","","14","","","","101.52","","","","","","NA"
"-63.58","44.66","HALIFAX DOCKYARD","8202240","2022-08-03 22:00","2022","08","03","22:00","16.2","","15.8","","98","","","","13","","7","","","","101.57","","","","","","NA"
"-63.58","44.66","HALIFAX DOCKYARD","8202240","2022-08-03 23:00","2022","08","03","23:00","15.7","","15.6","","99","","","","14","","10","","","","101.60","","","","","","NA"
"-63.58","44.66","HALIFAX DOCKYARD","8202240","2022-08-04 00:00","2022","08","04","00:00","16.1","","15.9","","99","","","","15","","9","","","","101.62","","","","","","NA"
"-63.58","44.66","HALIFAX DOCKYARD","8202240","2022-08-04 01:00","2022","08","04","01:00","14.1","","13.9","","99","","","","9","","2","","","","101.68","","","","","","NA"
"-63.58","44.66","HALIFAX DOCKYARD","8202240","2022-08-04 02:00","2022","08","04","02:00","14.2","","14.0","","99","","","","13","","3","","","","101.70","","","","","","NA"
"-63.58","44.66","HALIFAX DOCKYARD","8202240","2022-08-04 03:00","2022","08","04","03:00","13.8","","13.6","","99","","","","0","","1","","","","101.75","","","","","","NA"
"-63.58","44.66","HALIFAX DOCKYARD","8202240","2022-08-04 04:00","2022","08","04","04:00","13.8","","13.7","","99","","","","14","","5","","","","101.76","","","","","","NA"
"-63.58","44.66","HALIFAX DOCKYARD","8202240","2022-08-04 05:00","2022","08","04","05:00","13.6","","13.5","","99","","","","14","","8","","","","101.81","","","","","","NA"
"-63.58","44.66","HALIFAX DOCKYARD","8202240","2022-08-04 06:00","2022","08","04","06:00","13.9","","13.7","","99","","","","14","","11","","","","101.84","","","","","","NA"
"-63.58","44.66","HALIFAX DOCKYARD","8202240","2022-08-04 07:00","2022","08","04","07:00","14.7","","14.4","","98","","","","12","","6","","","","101.86","","","","","","NA"
"-63.58","44.66","HALIFAX DOCKYARD","8202240","2022-08-04 08:00","2022","08","04","08:00","16.0","","15.4","","96","","","","13","","3","","","","101.87","","","","","","NA"
"-63.58","44.66","HALIFAX DOCKYARD","8202240","2022-08-04 09:00","2022","08","04","09:00","16.1","","15.0","","93","","","","14","","13","","","","101.85","","","","","","NA"
"-63.58","44.66","HALIFAX DOCKYARD","8202240","2022-08-04 10:00","2022","08","04","10:00","19.1","","16.1","","82","","","","14","","15","","","","101.85","","","","","","NA"
"-63.58","44.66","HALIFAX DOCKYARD","8202240","2022-08-04 11:00","2022","08","04","11:00","20.1","","15.2","","74","","","","14","","19","","","","101.84","","","","","","NA"
"-63.58","44.66","HALIFAX DOCKYARD","8202240","2022-08-04 12:00","2022","08","04","12:00","21.1","","15.4","","70","","","","18","","9","","","","101.79","","25","","","","NA"
"-63.58","44.66","HALIFAX DOCKYARD","8202240","2022-08-04 13:00","2022","08","04","13:00"
"-63.58","44.66","HALIFAX DOCKYARD","8202240","2022-08-04 14:00","2022","08","04","14:00","26.7","","17.6","","58","","","","23","","16","","","","101.82","","32","","","","NA"
"-63.58","44.66","HALIFAX DOCKYARD","8202240","2022-08-04 15:00","2022","08","04","15:00","25.9","","18.8","","65","","","","20","","12","","","","101.78","","33","","","","NA"
"-63.58","44.66","HALIFAX DOCKYARD","8202240","2022-08-04 16:00","2022","08","04","16:00","25.6","","18.3","","64","","","","22","","16","","","","101.80","","32","","","","NA"
"-63.58","44.66","HALIFAX DOCKYARD","8202240","2022-08-04 17:00","2022","08","04","17:00","22.8","","18.7","","78","","","","17","","9","","","","101.80","","29","","","","NA"
"-63.58","44.66","HALIFAX DOCKYARD","8202240","2022-08-04 18:00","2022","08","04","18:00","23.6","","18.6","","73","","","","18","","10","","","","101.78","","30","","","","NA"
"-63.58","44.66","HALIFAX DOCKYARD","8202240","2022-08-04 19:00","2022","08","04","19:00","22.6","","18.2","","76","","","","20","","9","","","","101.79","","29","","","","NA"
"-63.58","44.66","HALIFAX DOCKYARD","8202240","2022-08-04 20:00","2022","08","04","20:00","18.8","","17.4","","92","","","","14","","13","","","","101.82","","","","","","NA"
"-63.58","44.66","HALIFAX DOCKYARD","8202240","2022-08-04 21:00","2022","08","04","21:00","18.4","","16.9","","91","","","","6","","4","","","","101.87","","","","","","NA"
"-63.58","44.66","HALIFAX DOCKYARD","8202240","2022-08-04 22:00","2022","08","04","22:00","17.8","","16.7","","94","","","","7","","5","","","","101.85","","","","","","NA"
"-63.58","44.66","HALIFAX DOCKYARD","8202240","2022-08-04 23:00","2022","08","04","23:00","18.2","","16.9","","92","","","","11","","2","","","","101.86","","","","","","NA"
"-63.58","44.66","HALIFAX DOCKYARD","8202240","2022-08-05 00:00","2022","08","05","00:00","17.9","","16.4","","91","","","","17","","1","","","","101.89","","","","","","NA"
"-63.58","44.66","HALIFAX DOCKYARD","8202240","2022-08-05 01:00","2022","08","05","01:00","17.0","","15.8","","93","","","","13","","6","","","","101.87","","","","","","NA"
"-63.58","44.66","HALIFAX DOCKYARD","8202240","2022-08-05 02:00","2022","08","05","02:00","19.0","","16.2","","84","","","","24","","6","","","","101.85","","","","","","NA"
"-63.58","44.66","HALIFAX DOCKYARD","8202240","2022-08-05 03:00","2022","08","05","03:00","17.5","","15.9","","90","","","","23","","3","","","","101.86","","","","","","NA"
"-63.58","44.66","HALIFAX DOCKYARD","8202240","2022-08-05 04:00","2022","08","05","04:00","16.9","","16.0","","95","","","","17","","5","","","","101.85","","","","","","NA"
"-63.58","44.66","HALIFAX DOCKYARD","8202240","2022-08-05 05:00","2022","08","05","05:00","16.5","","16.0","","97","","","","12","","3","","","","101.91","","","","","","NA"
"-63.58","44.66","HALIFAX DOCKYARD","8202240","2022-08-05 06:00","2022","08","05","06:00","18.3","","17.7","","97","","","","23","","9","","","","101.95","","","","","","NA"
"-63.58","44.66","HALIFAX DOCKYARD","8202240","2022-08-05 07:00","2022","08","05","07:00","19.3","","18.1","","92","","","","23","","9","","","","101.91","","","","","","NA"
"-63.58","44.66","HALIFAX DOCKYARD","8202240","2022-08-05 08:00","2022","08","05","08:00","19.9","","18.9","","94","","","","17","","3","","","","101.94","","","","","","NA"
"-63.58","44.66","HALIFAX DOCKYARD","8202240","2022-08-05 09:00","2022","08","05","09:00","22.0","","19.5","","86","","","","21","","10","","","","101.93","","29","","","","NA"
"-63.58","44.66","HALIFAX DOCKYARD","8202240","2022-08-05 10:00","2022","08","05","10:00","22.5","","20.3","","88","","","","20","","6","","","","101.96","","30","","","","NA"
"-63.58","44.66","HALIFAX DOCKYARD","8202240","2022-08-05 11:00","2022","08","05","11:00","19.1","","18.5","","96","","","","13","","10","","","","101.94","","","","","","NA"
"-63.58","44.66","HALIFAX DOCKYARD","8202240","2022-08-05 12:00","2022","08","05","12:00","20.0","","19.2","","95","","","","15","","10","","","","101.91","","27","","","","NA"
"-63.58","44.66","HALIFAX DOCKYARD","8202240","2022-08-05 13:00","2022","08","05","13:00","25.3","","22.0","","82","","","","19","","13","","","","101.88","","35","","","","NA"
"-63.58","44.66","HALIFAX DOCKYARD","8202240","2022-08-05 14:00","2022","08","05","14:00","26.2","","21.9","","78","","","","21","","12","","","","101.82","","35","","","","NA"
"-63.58","44.66","HALIFAX DOCKYARD","8202240","2022-08-05 15:00","2022","08","05","15:00","26.5","","20.5","","70","","","","22","","9","","","","101.76","","34","","","","NA"
"-63.58","44.66","HALIFAX DOCKYARD","8202240","2022-08-05 16:00","2022","08","05","16:00","21.4","","19.1","","86","","","","14","","19","","","","101.76","","28","","","","NA"
"-63.58","44.66","HALIFAX DOCKYARD","8202240","2022-08-05 17:00","2022","08","05","17:00","25.5","","20.5","","74","","","","24","","9","","","","101.84","","33","","","","NA"
"-63.58","44.66","HALIFAX DOCKYARD","8202240","2022-08-05 18:00","2022","08","05","18:00","23.6","","19.1","","76","","","","5","","1","","","","101.83","","30","","","","NA"
"-63.58","44.66","HALIFAX DOCKYARD","8202240","2022-08-05 19:00","2022","08","05","19:00","22.4","","19.7","","84","","","","32","","11","","","","101.83","","30","","","","NA"
"-63.58","44.66","HALIFAX DOCKYARD","8202240","2022-08-05 20:00","2022","08","05","20:00","18.9","","17.9","","94","","","","14","","8","","","","101.93","","","","","","NA"
"-63.58","44.66","HALIFAX DOCKYARD","8202240","2022-08-05 21:00","2022","08","05","21:00","17.8","","17.1","","95","","","","10","","2","","","","101.98","","","","","","NA"
"-63.58","44.66","HALIFAX DOCKYARD","8202240","2022-08-05 22:00","2022","08","05","22:00","18.1","","17.5","","96","","","","","","0","","","","101.98","","","","","","NA"
"-63.58","44.66","HALIFAX DOCKYARD","8202240","2022-08-05 23:00","2022","08","05","23:00","17.9","","17.5","","97","","","","13","","3","","","","102.01","","","","","","NA"
"-63.58","44.66","HALIFAX DOCKYARD","8202240","2022-08-06 00:00","2022","08","06","00:00","19.9","","18.8","","94","","","","27","","1","","","","102.02","","","","","","NA"
"-63.58","44.66","HALIFAX DOCKYARD","8202240","2022-08-06 01:00","2022","08","06","01:00","18.4","","18.1","","98","","","","14","","7","","","","102.04","","","","","","NA"
"-63.58","44.66","HALIFAX DOCKYARD","8202240","2022-08-06 02:00","2022","08","06","02:00","19.6","","19.2","","98","","","","29","","2","","","","102.06","","","","","","NA"
"-63.58","44.66","HALIFAX DOCKYARD","8202240","2022-08-06 03:00","2022","08","06","03:00","19.8","","18.9","","94","","","","31","","2","","","","102.11","","","","","","NA"
"-63.58","44.66","HALIFAX DOCKYARD","8202240","2022-08-06 04:00","2022","08","06","04:00","20.0","","19.5","","97","","","","32","","4","","","","102.13","","27","","","","NA"
"-63.58","44.66","HALIFAX DOCKYARD","8202240","2022-08-06 05:00","2022","08","06","05:00","20.3","","19.8","","97","","","","30","","4","","","","102.17","","28","","","","NA"
"-63.58","44.66","HALIFAX DOCKYARD","8202240","2022-08-06 06:00","2022","08","06","06:00","20.2","","19.3","","95","","","","32","","9","","","","102.24","","27","","","","NA"
"-63.58","44.66","HALIFAX DOCKYARD","8202240","2022-08-06 07:00","2022","08","06","07:00","21.2","","19.7","","91","","","","32","","11","","","","102.27","","29","","","","NA"
"-63.58","44.66","HALIFAX DOCKYARD","8202240","2022-08-06 08:00","2022","08","06","08:00","21.8","","20.4","","92","","","","32","","7","","","","102.27","","30","","","","NA"
"-63.58","44.66","HALIFAX DOCKYARD","8202240","2022-08-06 09:00","2022","08","06","09:00","22.6","","21.1","","91","","","","33","","4","","","","102.25","","31","","","","NA"
"-63.58","44.66","HALIFAX DOCKYARD","8202240","2022-08-06 10:00","2022","08","06","10:00","23.0","","20.7","","87","","","","14","","6","","","","102.27","","31","","","","NA"
"-63.58","44.66","HALIFAX DOCKYARD","8202240","2022-08-06 11:00","2022","08","06","11:00","22.7","","20.0","","85","","","","15","","16","","","","102.26","","30","","","","NA"
"-63.58","44.66","HALIFAX DOCKYARD","8202240","2022-08-06 12:00","2022","08","06","12:00","21.4","","19.3","","88","","","","15","","15","","","","102.27","","28","","","","NA"
"-63.58","44.66","HALIFAX DOCKYARD","8202240","2022-08-06 13:00","2022","08","06","13:00","22.3","","19.6","","85","","","","16","","16","","","","102.24","","30","","","","NA"
"-63.58","44.66","HALIFAX DOCKYARD","8202240","2022-08-06 14:00","2022","08","06","14:00","22.3","","19.9","","86","","","","15","","17","","","","102.18","","30","","","","NA"
"-63.58","44.66","HALIFAX DOCKYARD","8202240","2022-08-06 15:00","2022","08","06","15:00","18.4","","17.9","","97","","","","15","","22","","","","102.16","","","","","","NA"
"-63.58","44.66","HALIFAX DOCKYARD","8202240","2022-08-06 16:00","2022","08","06","16:00","18.3","","18.0","","98","","","","14","","20","","","","102.13","","","","","","NA"
"-63.58","44.66","HALIFAX DOCKYARD","8202240","2022-08-06 17:00","2022","08","06","17:00","19.1","","18.5","","96","","","","15","","15","","","","102.10","","","","","","NA"
"-63.58","44.66","HALIFAX DOCKYARD","8202240","2022-08-06 18:00","2022","08","06","18:00","18.2","","17.8","","98","","","","14","","13","","","","102.08","","","","","","NA"
"-63.58","44.66","HALIFAX DOCKYARD","8202240","2022-08-06 19:00","2022","08","06","19:00","21.1","","20.1","","94","","","","18","","4","","","","102.06","","29","","","","NA"
"-63.58","44.66","HALIFAX DOCKYARD","8202240","2022-08-06 20:00","2022","08","06","20:00","21.0","","20.1","","94","","","","13","","9","","","","102.06","","29","","","","NA"
"-63.58","44.66","HALIFAX DOCKYARD","8202240","2022-08-06 21:00","2022","08","06","21:00","18.9","","18.6","","98","","","","14","","15","","","","102.06","","","","","","NA"
"-63.58","44.66","HALIFAX DOCKYARD","8202240","2022-08-06 22:00","2022","08","06","22:00","18.0","","17.6","","98","","","","14","","11","","","","102.06","","","","","","NA"
"-63.58","44.66","HALIFAX DOCKYARD","8202240","2022-08-06 23:00","2022","08","06","23:00","18.1","","17.9","","99","","","","15","","6","","","","102.06","","","","","","NA"
"-63.58","44.66","HALIFAX DOCKYARD","8202240","2022-08-07 00:00","2022","08","07","00:00","17.5","","17.2","","98","","","","13","","6","","","","102.02","","","","","","NA"
"-63.58","44.66","HALIFAX DOCKYARD","8202240","2022-08-07 01:00","2022","08","07","01:00","17.2","","16.9","","99","","","","14","","11","","","","102.01","","","","","","NA"
"-63.58","44.66","HALIFAX DOCKYARD","8202240","2022-08-07 02:00","2022","08","07","02:00","18.3","","18.0","","99","","","","15","","5","","","","101.97","","","","","","NA"
"-63.58","44.66","HALIFAX DOCKYARD","8202240","2022-08-07 03:00","2022","08","07","03:00","16.8","","16.2","","96","","","","14","","10","","","","101.93","","","","","","NA"
"-63.58","44.66","HALIFAX DOCKYARD","8202240","2022-08-07 04:00","2022","08","07","04:00","17.3","","16.9","","98","","","","11","","6","","","","101.90","","","","","","NA"
"-63.58","44.66","HALIFAX DOCKYARD","8202240","2022-08-07 05:00","2022","08","07","05:00","19.8","","19.5","","98","","","","24","","3","","","","101.89","","","","","","NA"
"-63.58","44.66","HALIFAX DOCKYARD","8202240","2022-08-07 06:00","2022","08","07","06:00","20.3","","20.0","","98","","","","21","","3","","","","101.84","","28","","","","NA"
"-63.58","44.66","HALIFAX DOCKYARD","8202240","2022-08-07 07:00","2022","08","07","07:00","20.7","","19.7","","94","","","","24","","10","","","","101.82","","28","","","","NA"
"-63.58","44.66","HALIFAX DOCKYARD","8202240","2022-08-07 08:00","2022","08","07","08:00","21.1","","19.6","","91","","","","23","","11","","","","101.78","","28","","","","NA"
"-63.58","44.66","HALIFAX DOCKYARD","8202240","2022-08-07 09:00","2022","08","07","09:00","21.8","","19.8","","89","","","","24","","11","","","","101.75","","29","","","","NA"
"-63.58","44.66","HALIFAX DOCKYARD","8202240","2022-08-07 10:00","2022","08","07","10:00","22.8","","20.1","","85","","","","24","","13","","","","101.71","","30","","","","NA"
"-63.58","44.66","HALIFAX DOCKYARD","8202240","2022-08-07 11:00","2022","08","07","11:00","25.0","","20.9","","78","","","","24","","13","","","","101.65","","33","","","","NA"
"-63.58","44.66","HALIFAX DOCKYARD","8202240","2022-08-07 12:00","2022","08","07","12:00","26.8","","21.5","","73","","","","24","","18","","","","101.56","","36","","","","NA"
"-63.58","44.66","HALIFAX DOCKYARD","8202240","2022-08-07 13:00","2022","08","07","13:00","28.5","","22.0","","68","","","","24","","17","","","","101.48","","38","","","","NA"
"-63.58","44.66","HALIFAX DOCKYARD","8202240","2022-08-07 14:00","2022","08","07","14:00","28.5","","21.8","","67","","","","23","","21","","","","101.41","","38","","","","NA"
"-63.58","44.66","HALIFAX DOCKYARD","8202240","2022-08-07 15:00","2022","08","07","15:00","28.3","","21.7","","68","","","","22","","19","","","","101.34","","37","","","","NA"
"-63.58","44.66","HALIFAX DOCKYARD","8202240","2022-08-07 16:00","2022","08","07","16:00","28.8","","21.4","","65","","","","22","","16","","","","101.30","","38","","","","NA"
"-63.58","44.66","HALIFAX DOCKYARD","8202240","2022-08-07 17:00","2022","08","07","17:00","28.1","","21.0","","66","","","","22","","18","","","","101.27","","37","","","","NA"
"-63.58","44.66","HALIFAX DOCKYARD","8202240","2022-08-07 18:00","2022","08","07","18:00","27.0","","20.4","","67","","","","23","","10","","","","101.25","","35","","","","NA"
"-63.58","44.66","HALIFAX DOCKYARD","8202240","2022-08-07 19:00","2022","08","07","19:00","24.5","","19.1","","72","","","","24","","21","","","","101.28","","31","","","","NA"
"-63.58","44.66","HALIFAX DOCKYARD","8202240","2022-08-07 20:00","2022","08","07","20:00","23.5","","18.9","","76","","","","23","","18","","","","101.30","","30","","","","NA"
"-63.58","44.66","HALIFAX DOCKYARD","8202240","2022-08-07 21:00","2022","08","07","21:00","23.4","","19.2","","77","","","","24","","7","","","","101.33","","30","","","","NA"
"-63.58","44.66","HALIFAX DOCKYARD","8202240","2022-08-07 22:00","2022","08","07","22:00","23.6","","20.0","","80","","","","23","","11","","","","101.27","","31","","","","NA"
"-63.58","44.66","HALIFAX DOCKYARD","8202240","2022-08-07 23:00","2022","08","07","23:00","23.2","","20.6","","85","","","","23","","17","","","","101.22","","31","","","","NA"
"-63.58","44.66","HALIFAX DOCKYARD","8202240","2022-08-08 00:00","2022","08","08","00:00","21.6","","19.9","","90","","","","27","","3","","","","101.25","","29","","","","NA"
"-63.58","44.66","HALIFAX DOCKYARD","8202240","2022-08-08 01:00","2022","08","08","01:00","22.2","","20.5","","90","","","","29","","6","","","","101.21","","30","","","","NA"
"-63.58","44.66","HALIFAX DOCKYARD","8202240","2022-08-08 02:00","2022","08","08","02:00","21.8","","20.4","","92","","","","24","","4","","","","101.22","","30","","","","NA"
"-63.58","44.66","HALIFAX DOCKYARD","8202240","2022-08-08 03:00","2022","08","08","03:00","20.7","","19.5","","93","","","","34","","5","","","","101.24","","28","","","","NA"
"-63.58","44.66","HALIFAX DOCKYARD","8202240","2022-08-08 04:00","2022","08","08","04:00","20.0","","19.1","","95","","","","33","","11","","","","101.26","","27","","","","NA"
"-63.58","44.66","HALIFAX DOCKYARD","8202240","2022-08-08 05:00","2022","08","08","05:00","20.9","","19.8","","94","","","","33","","2","","","","101.27","","28","","","","NA"
"-63.58","44.66","HALIFAX DOCKYARD","8202240","2022-08-08 06:00","2022","08","08","06:00","21.4","","20.1","","93","","","","31","","7","","","","101.34","","29","","","","NA"
"-63.58","44.66","HALIFAX DOCKYARD","8202240","2022-08-08 07:00","2022","08","08","07:00","22.0","","19.5","","86","","","","32","","11","","","","101.44","","29","","","","NA"
"-63.58","44.66","HALIFAX DOCKYARD","8202240","2022-08-08 08:00","2022","08","08","08:00","20.7","","17.4","","81","","","","1","","18","","","","101.48","","26","","","","NA"
"-63.58","44.66","HALIFAX DOCKYARD","8202240","2022-08-08 09:00","2022","08","08","09:00","20.9","","17.3","","80","","","","3","","14","","","","101.50","","26","","","","NA"
"-63.58","44.66","HALIFAX DOCKYARD","8202240","2022-08-08 10:00","2022","08","08","10:00","22.1","","17.4","","75","","","","0","","1","","","","101.49","","28","","","","NA"
"-63.58","44.66","HALIFAX DOCKYARD","8202240","2022-08-08 11:00","2022","08","08","11:00","23.3","","17.7","","71","","","","0","","1","","","","101.48","","29","","","","NA"
"-63.58","44.66","HALIFAX DOCKYARD","8202240","2022-08-08 12:00","2022","08","08","12:00","24.9","","18.2","","66","","","","","","0","","","","101.46","","31","","","","NA"
"-63.58","44.66","HALIFAX DOCKYARD","8202240","2022-08-08 13:00","2022","08","08","13:00","20.6","","17.4","","82","","","","15","","20","","","","101.45","","26","","","","NA"
"-63.58","44.66","HALIFAX DOCKYARD","8202240","2022-08-08 14:00","2022","08","08","14:00","19.9","","17.2","","84","","","","15","","17","","","","101.45","","","","","","NA"
"-63.58","44.66","HALIFAX DOCKYARD","8202240","2022-08-08 15:00","2022","08","08","15:00","20.2","","17.0","","82","","","","15","","16","","","","101.45","","25","","","","NA"
"-63.58","44.66","HALIFAX DOCKYARD","8202240","2022-08-08 16:00","2022","08","08","16:00","19.2","","17.2","","88","","","","15","","13","","","","101.46","","","","","","NA"
"-63.58","44.66","HALIFAX DOCKYARD","8202240","2022-08-08 17:00","2022","08","08","17:00","19.5","","17.8","","90","","","","16","","16","","","","101.45","","","","","","NA"
"-63.58","44.66","HALIFAX DOCKYARD","8202240","2022-08-08 18:00","2022","08","08","18:00","18.4","","16.7","","90","","","","15","","9","","","","101.42","","","","","","NA"
"-63.58","44.66","HALIFAX DOCKYARD","8202240","2022-08-08 19:00","2022","08","08","19:00","18.1","","16.8","","92","","","","14","","17","","","","101.39","","","","","","NA"
"-63.58","44.66","HALIFAX DOCKYARD","8202240","2022-08-08 20:00","2022","08","08","20:00","17.8","","17.0","","95","","","","14","","21","","","","101.38","","","","","","NA"
"-63.58","44.66","HALIFAX DOCKYARD","8202240","2022-08-08 21:00","2022","08","08","21:00","17.6","","17.2","","98","","","","13","","21","","","","101.37","","","","","","NA"
"-63.58","44.66","HALIFAX DOCKYARD","8202240","2022-08-08 22:00","2022","08","08","22:00","17.7","","17.3","","98","","","","13","","20","","","","101.32","","","","","","NA"
"-63.58","44.66","HALIFAX DOCKYARD","8202240","2022-08-08 23:00","2022","08","08","23:00","17.6","","17.3","","99","","","","16","","11","","","","101.30","","","","","","NA"
"-63.58","44.66","HALIFAX DOCKYARD","8202240","2022-08-09 00:00","2022","08","09","00:00","16.8","","16.7","","99","","","","14","","8","","","","101.25","","","","","","NA"
"-63.58","44.66","HALIFAX DOCKYARD","8202240","2022-08-09 01:00","2022","08","09","01:00","16.7","","16.5","","99","","","","14","","10","","","","101.16","","","","","","NA"
"-63.58","44.66","HALIFAX DOCKYARD","8202240","2022-08-09 02:00","2022","08","09","02:00","16.4","","16.2","","99","","","","15","","13","","","","101.09","","","","","","NA"
"-63.58","44.66","HALIFAX DOCKYARD","8202240","2022-08-09 03:00","2022","08","09","03:00","18.0","","17.8","","99","","","","20","","6","","","","101.05","","","","","","NA"
"-63.58","44.66","HALIFAX DOCKYARD","8202240","2022-08-09 04:00","2022","08","09","04:00","17.9","","17.8","","99","","","","17","","7","","","","100.98","","","","","","NA"
"-63.58","44.66","HALIFAX DOCKYARD","8202240","2022-08-09 05:00","2022","08","09","05:00","18.3","","18.1","","99","","","","17","","9","","","","100.93","","","","","","NA"
"-63.58","44.66","HALIFAX DOCKYARD","8202240","2022-08-09 06:00","2022","08","09","06:00","18.7","","18.5","","99","","","","20","","10","","","","100.89","","","","","","NA"
"-63.58","44.66","HALIFAX DOCKYARD","8202240","2022-08-09 07:00","2022","08","09","07:00","18.9","","18.6","","98","","","","21","","11","","","","100.86","","","","","","NA"
"-63.58","44.66","HALIFAX DOCKYARD","8202240","2022-08-09 08:00","2022","08","09","08:00","19.4","","18.8","","96","","","","21","","10","","","","100.84","","","","","","NA"
"-63.58","44.66","HALIFAX DOCKYARD","8202240","2022-08-09 09:00","2022","08","09","09:00","19.6","","18.9","","96","","","","22","","8","","","","100.82","","","","","","NA"
"-63.58","44.66","HALIFAX DOCKYARD","8202240","2022-08-09 10:00","2022","08","09","10:00","21.0","","19.5","","91","","","","23","","18","","","","100.83","","28","","","","NA"
"-63.58","44.66","HALIFAX DOCKYARD","8202240","2022-08-09 11:00","2022","08","09","11:00","21.7","","19.9","","89","","","","25","","15","","","","100.85","","29","","","","NA"
"-63.58","44.66","HALIFAX DOCKYARD","8202240","2022-08-09 12:00","2022","08","09","12:00","22.9","","20.9","","88","","","","25","","11","","","","100.89","","31","","","","NA"
"-63.58","44.66","HALIFAX DOCKYARD","8202240","2022-08-09 13:00","2022","08","09","13:00","24.3","","21.4","","84","","","","27","","16","","","","100.91","","33","","","","NA"
"-63.58","44.66","HALIFAX DOCKYARD","8202240","2022-08-09 14:00","2022","08","09","14:00","24.0","","20.5","","81","","","","29","","17","","","","100.90","","32","","","","NA"
"-63.58","44.66","HALIFAX DOCKYARD","8202240","2022-08-09 15:00","2022","08","09","15:00","20.9","","18.2","","85","","","","31","","18","","","","101.01","","27","","","","NA"
"-63.58","44.66","HALIFAX DOCKYARD","8202240","2022-08-09 16:00","2022","08","09","16:00","20.7","","17.4","","82","","","","33","","23","","","","101.07","","26","","","","NA"
"-63.58","44.66","HALIFAX DOCKYARD","8202240","2022-08-09 17:00","2022","08","09","17:00","20.2","","17.6","","85","","","","32","","18","","","","101.13","","26","","","","NA"
"-63.58","44.66","HALIFAX DOCKYARD","8202240","2022-08-09 18:00","2022","08","09","18:00","20.2","","17.3","","83","","","","36","","24","","","","101.19","","26","","","","NA"
"-63.58","44.66","HALIFAX DOCKYARD","8202240","2022-08-09 19:00","2022","08","09","19:00","19.7","","16.6","","82","","","","36","","17","","","","101.27","","","","","","NA"
"-63.58","44.66","HALIFAX DOCKYARD","8202240","2022-08-09 20:00","2022","08","09","20:00","19.4","","16.5","","84","","","","34","","17","","","","101.34","","","","","","NA"
"-63.58","44.66","HALIFAX DOCKYARD","8202240","2022-08-09 21:00","2022","08","09","21:00","19.1","","16.4","","85","","","","33","","17","","","","101.39","","","","","","NA"
"-63.58","44.66","HALIFAX DOCKYARD","8202240","2022-08-09 22:00","2022","08","09","22:00","18.8","","16.5","","86","","","","35","","14","","","","101.45","","","","","","NA"
"-63.58","44.66","HALIFAX DOCKYARD","8202240","2022-08-09 23:00","2022","08","09","23:00","18.5","","15.8","","84","","","","2","","14","","","","101.48","","","","","","NA"
"-63.58","44.66","HALIFAX DOCKYARD","8202240","2022-08-10 00:00","2022","08","10","00:00","18.2","","15.7","","86","","","","35","","14","","","","101.49","","","","","","NA"
"-63.58","44.66","HALIFAX DOCKYARD","8202240","2022-08-10 01:00","2022","08","10","01:00","17.6","","15.4","","87","","","","34","","10","","","","101.51","","","","","","NA"
"-63.58","44.66","HALIFAX DOCKYARD","8202240","2022-08-10 02:00","2022","08","10","02:00","17.3","","15.4","","89","","","","34","","9","","","","101.52","","","","","","NA"
"-63.58","44.66","HALIFAX DOCKYARD","8202240","2022-08-10 03:00","2022","08","10","03:00","16.9","","15.3","","91","","","","32","","12","","","","101.56","","","","","","NA"
"-63.58","44.66","HALIFAX DOCKYARD","8202240","2022-08-10 04:00","2022","08","10","04:00","16.1","","15.1","","94","","","","33","","10","","","","101.56","","","","","","NA"
"-63.58","44.66","HALIFAX DOCKYARD","8202240","2022-08-10 05:00","2022","08","10","05:00","16.1","","15.0","","93","","","","33","","9","","","","101.60","","","","","","NA"
"-63.58","44.66","HALIFAX DOCKYARD","8202240","2022-08-10 06:00","2022","08","10","06:00","16.7","","15.0","","90","","","","32","","7","","","","101.67","","","","","","NA"
"-63.58","44.66","HALIFAX DOCKYARD","8202240","2022-08-10 07:00","2022","08","10","07:00","17.2","","15.2","","88","","","","1","","11","","","","101.70","","","","","","NA"
"-63.58","44.66","HALIFAX DOCKYARD","8202240","2022-08-10 08:00","2022","08","10","08:00","17.6","","15.3","","86","","","","1","","11","","","","101.72","","","","","","NA"
"-63.58","44.66","HALIFAX DOCKYARD","8202240","2022-08-10 09:00","2022","08","10","09:00","18.7","","15.7","","82","","","","6","","6","","","","101.70","","","","","","NA"
"-63.58","44.66","HALIFAX DOCKYARD","8202240","2022-08-10 10:00","2022","08","10","10:00","18.7","","15.8","","83","","","","11","","10","","","","101.71","","","","","","NA"
"-63.58","44.66","HALIFAX DOCKYARD","8202240","2022-08-10 11:00","2022","08","10","11:00","17.0","","15.4","","90","","","","15","","15","","","","101.75","","","","","","NA"
"-63.58","44.66","HALIFAX DOCKYARD","8202240","2022-08-10 12:00","2022","08","10","12:00","18.0","","14.5","","80","","","","15","","14","","","","101.74","","","","","","NA"
"-63.58","44.66","HALIFAX DOCKYARD","8202240","2022-08-10 13:00","2022","08","10","13:00","19.0","","14.8","","77","","","","15","","19","","","","101.70","","","","","","NA"
"-63.58","44.66","HALIFAX DOCKYARD","8202240","2022-08-10 14:00","2022","08","10","14:00","19.4","","15.0","","76","","","","15","","19","","","","101.68","","","","","","NA"
"-63.58","44.66","HALIFAX DOCKYARD","8202240","2022-08-10 15:00","2022","08","10","15:00","18.9","","14.9","","77","","","","14","","18","","","","101.66","","","","","","NA"
"-63.58","44.66","HALIFAX DOCKYARD","8202240","2022-08-10 16:00","2022","08","10","16:00","18.5","","15.4","","82","","","","15","","16","","","","101.66","","","","","","NA"
"-63.58","44.66","HALIFAX DOCKYARD","8202240","2022-08-10 17:00","2022","08","10","17:00","17.8","","15.3","","85","","","","15","","16","","","","101.66","","","","","","NA"
"-63.58","44.66","HALIFAX DOCKYARD","8202240","2022-08-10 18:00","2022","08","10","18:00","18.0","","15.4","","85","","","","15","","16","","","","101.64","","","","","","NA"
"-63.58","44.66","HALIFAX DOCKYARD","8202240","2022-08-10 19:00","2022","08","10","19:00","17.4","","15.4","","88","","","","14","","13","","","","101.65","","","","","","NA"
"-63.58","44.66","HALIFAX DOCKYARD","8202240","2022-08-10 20:00","2022","08","10","20:00","16.7","","15.3","","91","","","","13","","8","","","","101.66","","","","","","NA"
"-63.58","44.66","HALIFAX DOCKYARD","8202240","2022-08-10 21:00","2022","08","10","21:00","16.8","","15.6","","92","","","","14","","12","","","","101.64","","","","","","NA"
"-63.58","44.66","HALIFAX DOCKYARD","8202240","2022-08-10 22:00","2022","08","10","22:00","17.2","","15.9","","92","","","","14","","4","","","","101.62","","","","","","NA"
"-63.58","44.66","HALIFAX DOCKYARD","8202240","2022-08-10 23:00","2022","08","10","23:00","17.2","","16.0","","93","","","","15","","7","","","","101.59","","","","","","NA"
"-63.58","44.66","HALIFAX DOCKYARD","8202240","2022-08-11 00:00","2022","08","11","00:00","16.6","","15.2","","91","","","","13","","4","","","","101.61","","","","","","NA"
"-63.58","44.66","HALIFAX DOCKYARD","8202240","2022-08-11 01:00","2022","08","11","01:00","15.4","","15.1","","98","","","","13","","8","","","","101.59","","","","","","NA"
"-63.58","44.66","HALIFAX DOCKYARD","8202240","2022-08-11 02:00","2022","08","11","02:00","16.7","","16.0","","96","","","","15","","5","","","","101.55","","","","","","NA"
"-63.58","44.66","HALIFAX DOCKYARD","8202240","2022-08-11 03:00","2022","08","11","03:00","15.9","","14.9","","94","","","","12","","3","","","","101.56","","","","","","NA"
"-63.58","44.66","HALIFAX DOCKYARD","8202240","2022-08-11 04:00","2022","08","11","04:00","15.2","","14.8","","98","","","","13","","9","","","","101.50","","","","","","NA"
"-63.58","44.66","HALIFAX DOCKYARD","8202240","2022-08-11 05:00","2022","08","11","05:00","15.9","","15.7","","98","","","","15","","4","","","","101.48","","","","","","NA"
"-63.58","44.66","HALIFAX DOCKYARD","8202240","2022-08-11 06:00","2022","08","11","06:00","16.5","","15.9","","96","","","","14","","7","","","","101.47","","","","","","NA"
"-63.58","44.66","HALIFAX DOCKYARD","8202240","2022-08-11 07:00","2022","08","11","07:00","16.6","","15.7","","95","","","","14","","7","","","","101.49","","","","","","NA"
"-63.58","44.66","HALIFAX DOCKYARD","8202240","2022-08-11 08:00","2022","08","11","08:00","16.5","","15.9","","96","","","","14","","9","","","","101.48","","","","","","NA"
"-63.58","44.66","HALIFAX DOCKYARD","8202240","2022-08-11 09:00","2022","08","11","09:00","17.6","","16.0","","91","","","","15","","14","","","","101.45","","","","","","NA"
"-63.58","44.66","HALIFAX DOCKYARD","8202240","2022-08-11 10:00","2022","08","11","10:00","18.3","","15.8","","86","","","","15","","14","","","","101.39","","","","","","NA"
"-63.58","44.66","HALIFAX DOCKYARD","8202240","2022-08-11 11:00","2022","08","11","11:00","18.8","","15.6","","82","","","","15","","15","","","","101.38","","","","","","NA"
"-63.58","44.66","HALIFAX DOCKYARD","8202240","2022-08-11 12:00","2022","08","11","12:00","19.1","","15.0","","77","","","","15","","18","","","","101.34","","","","","","NA"
"-63.58","44.66","HALIFAX DOCKYARD","8202240","2022-08-11 13:00","2022","08","11","13:00","19.2","","15.3","","78","","","","14","","20","","","","101.34","","","","","","NA"
"-63.58","44.66","HALIFAX DOCKYARD","8202240","2022-08-11 14:00","2022","08","11","14:00","19.1","","16.3","","84","","","","15","","21","","","","101.33","","","","","","NA"
"-63.58","44.66","HALIFAX DOCKYARD","8202240","2022-08-11 15:00","2022","08","11","15:00","19.1","","16.1","","83","","","","14","","20","","","","101.31","","","","","","NA"
"-63.58","44.66","HALIFAX DOCKYARD","8202240","2022-08-11 16:00","2022","08","11","16:00","19.1","","16.2","","83","","","","15","","14","","","","101.32","","","","","","NA"
"-63.58","44.66","HALIFAX DOCKYARD","8202240","2022-08-11 17:00","2022","08","11","17:00","19.0","","16.6","","86","","","","15","","15","","","","101.28","","","","","","NA"
"-63.58","44.66","HALIFAX DOCKYARD","8202240","2022-08-11 18:00","2022","08","11","18:00","18.3","","16.5","","89","","","","14","","14","","","","101.24","","","","","","NA"
"-63.58","44.66","HALIFAX DOCKYARD","8202240","2022-08-11 19:00","2022","08","11","19:00","17.8","","16.4","","91","","","","12","","9","","","","101.22","","","","","","NA"
"-63.58","44.66","HALIFAX DOCKYARD","8202240","2022-08-11 20:00","2022","08","11","20:00","17.7","","16.4","","92","","","","12","","8","","","","101.27","","","","","","NA"
"-63.58","44.66","HALIFAX DOCKYARD","8202240","2022-08-11 21:00","2022","08","11","21:00","18.8","","17.2","","90","","","","15","","9","","","","101.32","","","","","","NA"
"-63.58","44.66","HALIFAX DOCKYARD","8202240","2022-08-11 22:00","2022","08","11","22:00","18.4","","17.2","","93","","","","12","","3","","","","101.28","","","","","","NA"
"-63.58","44.66","HALIFAX DOCKYARD","8202240","2022-08-11 23:00","2022","08","11","23:00","18.6","","17.0","","91","","","","4","","1","","","","101.22","","","","","","NA"
"-63.58","44.66","HALIFAX DOCKYARD","8202240","2022-08-12 00:00","2022","08","12","00:00","18.4","","16.8","","90","","","","6","","4","","","","101.21","","","","","","NA"
"-63.58","44.66","HALIFAX DOCKYARD","8202240","2022-08-12 01:00","2022","08","12","01:00","18.2","","17.2","","94","","","","35","","5","","","","101.21","","","","","","NA"
"-63.58","44.66","HALIFAX DOCKYARD","8202240","2022-08-12 02:00","2022","08","12","02:00","18.2","","17.5","","96","","","","33","","3","","","","101.22","","","","","","NA"
"-63.58","44.66","HALIFAX DOCKYARD","8202240","2022-08-12 03:00","2022","08","12","03:00","18.2","","17.9","","98","","","","28","","2","","","","101.22","","","","","","NA"
"-63.58","44.66","HALIFAX DOCKYARD","8202240","2022-08-12 04:00","2022","08","12","04:00","17.8","","17.3","","97","","","","33","","8","","","","101.16","","","","","","NA"
"-63.58","44.66","HALIFAX DOCKYARD","8202240","2022-08-12 05:00","2022","08","12","05:00","17.8","","17.4","","97","","","","32","","8","","","","101.17","","","","","","NA"
"-63.58","44.66","HALIFAX DOCKYARD","8202240","2022-08-12 06:00","2022","08","12","06:00","17.5","","17.0","","97","","","","32","","10","","","","101.18","","","","","","NA"
"-63.58","44.66","HALIFAX DOCKYARD","8202240","2022-08-12 07:00","2022","08","12","07:00","18.5","","17.5","","94","","","","32","","8","","","","101.18","","","","","","NA"
"-63.58","44.66","HALIFAX DOCKYARD","8202240","2022-08-12 08:00","2022","08","12","08:00","17.9","","16.9","","94","","","","32","","10","","","","101.21","","","","","","NA"
"-63.58","44.66","HALIFAX DOCKYARD","8202240","2022-08-12 09:00","2022","08","12","09:00","18.6","","17.2","","92","","","","32","","11","","","","101.24","","","","","","NA"
"-63.58","44.66","HALIFAX DOCKYARD","8202240","2022-08-12 10:00","2022","08","12","10:00","19.1","","16.9","","87","","","","32","","12","","","","101.27","","","","","","NA"
"-63.58","44.66","HALIFAX DOCKYARD","8202240","2022-08-12 11:00","2022","08","12","11:00","19.0","","16.8","","87","","","","32","","12","","","","101.26","","","","","","NA"
"-63.58","44.66","HALIFAX DOCKYARD","8202240","2022-08-12 12:00","2022","08","12","12:00","20.5","","17.3","","82","","","","2","","8","","","","101.27","","26","","","","NA"
"-63.58","44.66","HALIFAX DOCKYARD","8202240","2022-08-12 13:00","2022","08","12","13:00","20.7","","17.0","","80","","","","32","","15","","","","101.27","","26","","","","NA"
"-63.58","44.66","HALIFAX DOCKYARD","8202240","2022-08-12 14:00","2022","08","12","14:00","22.5","","17.1","","72","","","","32","","10","","","","101.25","","28","","","","NA"
"-63.58","44.66","HALIFAX DOCKYARD","8202240","2022-08-12 15:00","2022","08","12","15:00","22.8","","16.8","","69","","","","35","","6","","","","101.22","","28","","","","NA"
"-63.58","44.66","HALIFAX DOCKYARD","8202240","2022-08-12 16:00","2022","08","12","16:00","18.1","","16.5","","90","","","","14","","16","","","","101.23","","","","","","NA"
"-63.58","44.66","HALIFAX DOCKYARD","8202240","2022-08-12 17:00","2022","08","12","17:00","21.4","","17.5","","79","","","","14","","13","","","","101.22","","27","","","","NA"
"-63.58","44.66","HALIFAX DOCKYARD","8202240","2022-08-12 18:00","2022","08","12","18:00","20.4","","17.3","","82","","","","17","","5","","","","101.23","","26","","","","NA"
"-63.58","44.66","HALIFAX DOCKYARD","8202240","2022-08-12 19:00","2022","08","12","19:00","21.9","","17.7","","77","","","","24","","11","","","","101.28","","28","","","","NA"
"-63.58","44.66","HALIFAX DOCKYARD","8202240","2022-08-12 20:00","2022","08","12","20:00","21.0","","17.1","","79","","","","24","","5","","","","101.35","","26","","","","NA"
"-63.58","44.66","HALIFAX DOCKYARD","8202240","2022-08-12 21:00","2022","08","12","21:00","19.9","","16.9","","83","","","","31","","4","","","","101.43","","","","","","NA"
"-63.58","44.66","HALIFAX DOCKYARD","8202240","2022-08-12 22:00","2022","08","12","22:00","19.7","","17.3","","86","","","","31","","8","","","","101.42","","","","","","NA"
"-63.58","44.66","HALIFAX DOCKYARD","8202240","2022-08-12 23:00","2022","08","12","23:00","19.8","","17.3","","86","","","","30","","6","","","","101.41","","","","","","NA"
"-63.58","44.66","HALIFAX DOCKYARD","8202240","2022-08-13 00:00","2022","08","13","00:00","19.6","","17.5","","87","","","","32","","5","","","","101.41","","","","","","NA"
"-63.58","44.66","HALIFAX DOCKYARD","8202240","2022-08-13 01:00","2022","08","13","01:00","18.9","","17.2","","90","","","","30","","4","","","","101.40","","","","","","NA"
"-63.58","44.66","HALIFAX DOCKYARD","8202240","2022-08-13 02:00","2022","08","13","02:00","18.3","","16.6","","90","","","","31","","7","","","","101.43","","","","","","NA"
"-63.58","44.66","HALIFAX DOCKYARD","8202240","2022-08-13 03:00","2022","08","13","03:00","17.9","","16.2","","90","","","","31","","7","","","","101.42","","","","","","NA"
"-63.58","44.66","HALIFAX DOCKYARD","8202240","2022-08-13 04:00","2022","08","13","04:00","17.3","","15.9","","91","","","","33","","7","","","","101.45","","","","","","NA"
"-63.58","44.66","HALIFAX DOCKYARD","8202240","2022-08-13 05:00","2022","08","13","05:00","17.4","","16.0","","92","","","","31","","3","","","","101.45","","","","","","NA"
"-63.58","44.66","HALIFAX DOCKYARD","8202240","2022-08-13 06:00","2022","08","13","06:00","17.3","","15.7","","90","","","","31","","8","","","","101.52","","","","","","NA"
"-63.58","44.66","HALIFAX DOCKYARD","8202240","2022-08-13 07:00","2022","08","13","07:00","17.3","","15.4","","89","","","","32","","11","","","","101.58","","","","","","NA"
"-63.58","44.66","HALIFAX DOCKYARD","8202240","2022-08-13 08:00","2022","08","13","08:00","19.6","","16.7","","84","","","","32","","9","","","","101.56","","","","","","NA"
"-63.58","44.66","HALIFAX DOCKYARD","8202240","2022-08-13 09:00","2022","08","13","09:00","21.8","","16.8","","73","","","","11","","1","","","","101.57","","27","","","","NA"
"-63.58","44.66","HALIFAX DOCKYARD","8202240","2022-08-13 10:00","2022","08","13","10:00","21.2","","16.7","","76","","","","11","","9","","","","101.58","","26","","","","NA"
"-63.58","44.66","HALIFAX DOCKYARD","8202240","2022-08-13 11:00","2022","08","13","11:00","20.9","","17.0","","79","","","","14","","15","","","","101.58","","26","","","","NA"
"-63.58","44.66","HALIFAX DOCKYARD","8202240","2022-08-13 12:00","2022","08","13","12:00","21.8","","17.5","","77","","","","15","","17","","","","101.54","","27","","","","NA"
"-63.58","44.66","HALIFAX DOCKYARD","8202240","2022-08-13 13:00","2022","08","13","13:00","21.1","","16.7","","76","","","","14","","21","","","","101.55","","26","","","","NA"
"-63.58","44.66","HALIFAX DOCKYARD","8202240","2022-08-13 14:00","2022","08","13","14:00","21.0","","16.9","","78","","","","15","","20","","","","101.53","","26","","","","NA"
"-63.58","44.66","HALIFAX DOCKYARD","8202240","2022-08-13 15:00","2022","08","13","15:00","21.6","","17.2","","76","","","","14","","21","","","","101.51","","27","","","","NA"
"-63.58","44.66","HALIFAX DOCKYARD","8202240","2022-08-13 16:00","2022","08","13","16:00","19.8","","16.5","","81","","","","14","","21","","","","101.48","","","","","","NA"
"-63.58","44.66","HALIFAX DOCKYARD","8202240","2022-08-13 17:00","2022","08","13","17:00","19.9","","16.8","","82","","","","14","","16","","","","101.47","","","","","","NA"
"-63.58","44.66","HALIFAX DOCKYARD","8202240","2022-08-13 18:00","2022","08","13","18:00","19.7","","17.8","","89","","","","15","","13","","","","101.50","","","","","","NA"
"-63.58","44.66","HALIFAX DOCKYARD","8202240","2022-08-13 19:00","2022","08","13","19:00","19.5","","18.0","","91","","","","13","","11","","","","101.54","","","","","","NA"
"-63.58","44.66","HALIFAX DOCKYARD","8202240","2022-08-13 20:00","2022","08","13","20:00","18.7","","17.8","","95","","","","13","","13","","","","101.54","","","","","","NA"
"-63.58","44.66","HALIFAX DOCKYARD","8202240","2022-08-13 21:00","2022","08","13","21:00","18.3","","17.6","","96","","","","13","","5","","","","101.52","","","","","","NA"
"-63.58","44.66","HALIFAX DOCKYARD","8202240","2022-08-13 22:00","2022","08","13","22:00","18.5","","17.9","","96","","","","10","","2","","","","101.51","","","","","","NA"
"-63.58","44.66","HALIFAX DOCKYARD","8202240","2022-08-13 23:00","2022","08","13","23:00","20.1","","18.4","","90","","","","17","","1","","","","101.50","","26","","","","NA"
"-63.58","44.66","HALIFAX DOCKYARD","8202240","2022-08-14 00:00","2022","08","14","00:00","19.1","","18.3","","95","","","","","","0","","","","101.42","","","","","","NA"
"-63.58","44.66","HALIFAX DOCKYARD","8202240","2022-08-14 01:00","2022","08","14","01:00","19.9","","18.7","","93","","","","4","","4","","","","101.39","","","","","","NA"
"-63.58","44.66","HALIFAX DOCKYARD","8202240","2022-08-14 02:00","2022","08","14","02:00","19.3","","18.7","","96","","","","11","","3","","","","101.30","","","","","","NA"
"-63.58","44.66","HALIFAX DOCKYARD","8202240","2022-08-14 03:00","2022","08","14","03:00","19.3","","18.5","","95","","","","6","","6","","","","101.22","","","","","","NA"
"-63.58","44.66","HALIFAX DOCKYARD","8202240","2022-08-14 04:00","2022","08","14","04:00","19.4","","18.5","","95","","","","9","","14","","","","101.16","","","","","","NA"
"-63.58","44.66","HALIFAX DOCKYARD","8202240","2022-08-14 05:00","2022","08","14","05:00","19.5","","18.5","","94","","","","7","","5","","","","101.16","","","","","","NA"
"-63.58","44.66","HALIFAX DOCKYARD","8202240","2022-08-14 06:00","2022","08","14","06:00","19.1","","18.7","","98","","","","32","","8","","","","101.14","","","","","","NA"
"-63.58","44.66","HALIFAX DOCKYARD","8202240","2022-08-14 07:00","2022","08","14","07:00","19.1","","18.8","","98","","","","34","","6","","","","101.15","","","","","","NA"
"-63.58","44.66","HALIFAX DOCKYARD","8202240","2022-08-14 08:00","2022","08","14","08:00","19.0","","18.6","","98","","","","34","","8","","","","101.12","","","","","","NA"
"-63.58","44.66","HALIFAX DOCKYARD","8202240","2022-08-14 09:00","2022","08","14","09:00","20.0","","18.5","","91","","","","35","","8","","","","101.08","","26","","","","NA"
"-63.58","44.66","HALIFAX DOCKYARD","8202240","2022-08-14 10:00","2022","08","14","10:00","20.8","","18.6","","87","","","","32","","5","","","","101.09","","27","","","","NA"
"-63.58","44.66","HALIFAX DOCKYARD","8202240","2022-08-14 11:00","2022","08","14","11:00","21.8","","18.4","","81","","","","33","","7","","","","101.03","","28","","","","NA"
"-63.58","44.66","HALIFAX DOCKYARD","8202240","2022-08-14 12:00","2022","08","14","12:00","21.8","","17.8","","78","","","","33","","14","","","","101.02","","28","","","","NA"
"-63.58","44.66","HALIFAX DOCKYARD","8202240","2022-08-14 13:00","2022","08","14","13:00","22.1","","18.8","","81","","","","31","","21","","","","101.04","","29","","","","NA"
"-63.58","44.66","HALIFAX DOCKYARD","8202240","2022-08-14 14:00","2022","08","14","14:00","21.7","","18.0","","79","","","","31","","21","","","","101.06","","28","","","","NA"
"-63.58","44.66","HALIFAX DOCKYARD","8202240","2022-08-14 15:00","2022","08","14","15:00","22.1","","17.2","","74","","","","32","","22","","","","101.08","","28","","","","NA"
"-63.58","44.66","HALIFAX DOCKYARD","8202240","2022-08-14 16:00","2022","08","14","16:00","21.8","","17.1","","74","","","","32","","23","","","","101.12","","27","","","","NA"
"-63.58","44.66","HALIFAX DOCKYARD","8202240","2022-08-14 17:00","2022","08","14","17:00","20.4","","16.4","","78","","","","32","","24","","","","101.23","","25","","","","NA"
"-63.58","44.66","HALIFAX DOCKYARD","8202240","2022-08-14 18:00","2022","08","14","18:00","20.1","","16.6","","80","","","","31","","19","","","","101.27","","25","","","","NA"
"-63.58","44.66","HALIFAX DOCKYARD","8202240","2022-08-14 19:00","2022","08","14","19:00","19.5","","16.2","","81","","","","31","","20","","","","101.33","","","","","","NA"
"-63.58","44.66","HALIFAX DOCKYARD","8202240","2022-08-14 20:00","2022","08","14","20:00","19.3","","15.8","","80","","","","31","","14","","","","101.42","","","","","","NA"
"-63.58","44.66","HALIFAX DOCKYARD","8202240","2022-08-14 21:00","2022","08","14","21:00","18.7","","15.7","","83","","","","31","","14","","","","101.49","","","","","","NA"
"-63.58","44.66","HALIFAX DOCKYARD","8202240","2022-08-14 22:00","2022","08","14","22:00","18.3","","15.5","","84","","","","32","","14","","","","101.53","","","","","","NA"
"-63.58","44.66","HALIFAX DOCKYARD","8202240","2022-08-14 23:00","2022","08","14","23:00","17.9","","15.6","","87","","","","31","","11","","","","101.56","","","","","","NA"
"-63.58","44.66","HALIFAX DOCKYARD","8202240","2022-08-15 00:00","2022","08","15","00:00","17.9","","15.5","","85","","","","28","","6","","","","101.59","","","","","","NA"
"-63.58","44.66","HALIFAX DOCKYARD","8202240","2022-08-15 01:00","2022","08","15","01:00","17.6","","15.5","","87","","","","29","","6","","","","101.58","","","","","","NA"
"-63.58","44.66","HALIFAX DOCKYARD","8202240","2022-08-15 02:00","2022","08","15","02:00","16.8","","15.3","","91","","","","25","","12","","","","101.59","","","","","","NA"
"-63.58","44.66","HALIFAX DOCKYARD","8202240","2022-08-15 03:00","2022","08","15","03:00","16.9","","15.1","","89","","","","29","","7","","","","101.59","","","","","","NA"
"-63.58","44.66","HALIFAX DOCKYARD","8202240","2022-08-15 04:00","2022","08","15","04:00","16.5","","15.1","","92","","","","33","","4","","","","101.60","","","","","","NA"
"-63.58","44.66","HALIFAX DOCKYARD","8202240","2022-08-15 05:00","2022","08","15","05:00","16.3","","15.1","","93","","","","32","","6","","","","101.62","","","","","","NA"
"-63.58","44.66","HALIFAX DOCKYARD","8202240","2022-08-15 06:00","2022","08","15","06:00","17.5","","14.8","","84","","","","32","","1","","","","101.66","","","","","","NA"
"-63.58","44.66","HALIFAX DOCKYARD","8202240","2022-08-15 07:00","2022","08","15","07:00","16.6","","14.8","","89","","","","32","","15","","","","101.67","","","","","","NA"
"-63.58","44.66","HALIFAX DOCKYARD","8202240","2022-08-15 08:00","2022","08","15","08:00","17.8","","15.0","","84","","","","33","","7","","","","101.69","","","","","","NA"
"-63.58","44.66","HALIFAX DOCKYARD","8202240","2022-08-15 09:00","2022","08","15","09:00","19.3","","15.0","","76","","","","34","","6","","","","101.68","","","","","","NA"
"-63.58","44.66","HALIFAX DOCKYARD","8202240","2022-08-15 10:00","2022","08","15","10:00","18.9","","15.8","","82","","","","7","","7","","","","101.70","","","","","","NA"
"-63.58","44.66","HALIFAX DOCKYARD","8202240","2022-08-15 11:00","2022","08","15","11:00","19.7","","15.6","","77","","","","15","","18","","","","101.68","","","","","","NA"
"-63.58","44.66","HALIFAX DOCKYARD","8202240","2022-08-15 12:00","2022","08","15","12:00","19.2","","15.6","","80","","","","14","","24","","","","101.67","","","","","","NA"
"-63.58","44.66","HALIFAX DOCKYARD","8202240","2022-08-15 13:00","2022","08","15","13:00","20.4","","15.5","","73","","","","14","","23","","","","101.67","","25","","","","NA"
"-63.58","44.66","HALIFAX DOCKYARD","8202240","2022-08-15 14:00","2022","08","15","14:00","20.5","","15.9","","75","","","","14","","19","","","","101.65","","25","","","","NA"
"-63.58","44.66","HALIFAX DOCKYARD","8202240","2022-08-15 15:00","2022","08","15","15:00","21.0","","15.8","","72","","","","15","","21","","","","101.63","","25","","","","NA"
"-63.58","44.66","HALIFAX DOCKYARD","8202240","2022-08-15 16:00","2022","08","15","16:00","23.8","","14.9","","58","","","","20","","11","","","","101.65","","28","","","","NA"
"-63.58","44.66","HALIFAX DOCKYARD","8202240","2022-08-15 17:00","2022","08","15","17:00","23.3","","14.9","","59","","","","18","","11","","","","101.65","","27","","","","NA"
"-63.58","44.66","HALIFAX DOCKYARD","8202240","2022-08-15 18:00","2022","08","15","18:00","23.4","","15.3","","60","","","","22","","4","","","","101.68","","28","","","","NA"
"-63.58","44.66","HALIFAX DOCKYARD","8202240","2022-08-15 19:00","2022","08","15","19:00","21.6","","14.9","","66","","","","23","","13","","","","101.73","","26","","","","NA"
"-63.58","44.66","HALIFAX DOCKYARD","8202240","2022-08-15 20:00","2022","08","15","20:00","20.0","","15.4","","75","","","","24","","4","","","","101.77","","","","","","NA"
"-63.58","44.66","HALIFAX DOCKYARD","8202240","2022-08-15 21:00","2022","08","15","21:00","19.0","","15.0","","77","","","","30","","3","","","","101.79","","","","","","NA"
"-63.58","44.66","HALIFAX DOCKYARD","8202240","2022-08-15 22:00","2022","08","15","22:00","18.2","","15.7","","85","","","","32","","7","","","","101.81","","","","","","NA"
"-63.58","44.66","HALIFAX DOCKYARD","8202240","2022-08-15 23:00","2022","08","15","23:00","17.9","","15.8","","88","","","","34","","5","","","","101.81","","","","","","NA"
"-63.58","44.66","HALIFAX DOCKYARD","8202240","2022-08-16 00:00","2022","08","16","00:00","17.5","","15.9","","90","","","","35","","3","","","","101.80","","","","","","NA"
"-63.58","44.66","HALIFAX DOCKYARD","8202240","2022-08-16 01:00","2022","08","16","01:00","17.7","","16.1","","91","","","","14","","5","","","","101.79","","","","","","NA"
"-63.58","44.66","HALIFAX DOCKYARD","8202240","2022-08-16 02:00","2022","08","16","02:00","17.5","","16.3","","93","","","","36","","2","","","","101.80","","","","","","NA"
"-63.58","44.66","HALIFAX DOCKYARD","8202240","2022-08-16 03:00","2022","08","16","03:00","17.4","","15.8","","90","","","","31","","6","","","","101.81","","","","","","NA"
"-63.58","44.66","HALIFAX DOCKYARD","8202240","2022-08-16 04:00","2022","08","16","04:00","17.4","","15.8","","90","","","","31","","5","","","","101.81","","","","","","NA"
"-63.58","44.66","HALIFAX DOCKYARD","8202240","2022-08-16 05:00","2022","08","16","05:00","17.2","","15.9","","92","","","","33","","3","","","","101.83","","","","","","NA"
"-63.58","44.66","HALIFAX DOCKYARD","8202240","2022-08-16 06:00","2022","08","16","06:00","17.2","","15.8","","92","","","","31","","9","","","","101.89","","","","","","NA"
"-63.58","44.66","HALIFAX DOCKYARD","8202240","2022-08-16 07:00","2022","08","16","07:00","17.8","","15.8","","88","","","","32","","5","","","","101.91","","","","","","NA"
"-63.58","44.66","HALIFAX DOCKYARD","8202240","2022-08-16 08:00","2022","08","16","08:00","19.3","","15.7","","80","","","","","","0","","","","101.89","","","","","","NA"
"-63.58","44.66","HALIFAX DOCKYARD","8202240","2022-08-16 09:00","2022","08","16","09:00","20.5","","14.5","","69","","","","6","","6","","","","101.88","","","","","","NA"
"-63.58","44.66","HALIFAX DOCKYARD","8202240","2022-08-16 10:00","2022","08","16","10:00","21.1","","15.1","","69","","","","8","","15","","","","101.87","","25","","","","NA"
"-63.58","44.66","HALIFAX DOCKYARD","8202240","2022-08-16 11:00","2022","08","16","11:00","21.7","","14.7","","64","","","","8","","24","","","","101.85","","25","","","","NA"
"-63.58","44.66","HALIFAX DOCKYARD","8202240","2022-08-16 12:00","2022","08","16","12:00","22.8","","13.0","","54","","","","8","","27","","","","101.83","","26","","","","NA"
"-63.58","44.66","HALIFAX DOCKYARD","8202240","2022-08-16 13:00","2022","08","16","13:00","22.1","","13.8","","59","","","","8","","29","","","","101.83","","25","","","","NA"
"-63.58","44.66","HALIFAX DOCKYARD","8202240","2022-08-16 14:00","2022","08","16","14:00","22.3","","15.3","","65","","","","12","","30","","","","101.81","","26","","","","NA"
"-63.58","44.66","HALIFAX DOCKYARD","8202240","2022-08-16 15:00","2022","08","16","15:00","21.7","","14.9","","65","","","","11","","29","","","","101.85","","26","","","","NA"
"-63.58","44.66","HALIFAX DOCKYARD","8202240","2022-08-16 16:00","2022","08","16","16:00","21.9","","14.8","","64","","","","11","","25","","","","101.86","","26","","","","NA"
"-63.58","44.66","HALIFAX DOCKYARD","8202240","2022-08-16 17:00","2022","08","16","17:00","21.6","","13.8","","61","","","","11","","24","","","","101.85","","25","","","","NA"
"-63.58","44.66","HALIFAX DOCKYARD","8202240","2022-08-16 18:00","2022","08","16","18:00","21.3","","13.7","","62","","","","11","","28","","","","101.84","","","","","","NA"
"-63.58","44.66","HALIFAX DOCKYARD","8202240","2022-08-16 19:00","2022","08","16","19:00","20.6","","13.9","","65","","","","10","","24","","","","101.80","","","","","","NA"
"-63.58","44.66","HALIFAX DOCKYARD","8202240","2022-08-16 20:00","2022","08","16","20:00","20.0","","14.9","","72","","","","9","","15","","","","101.82","","","","","","NA"
"-63.58","44.66","HALIFAX DOCKYARD","8202240","2022-08-16 21:00","2022","08","16","21:00","19.6","","15.6","","78","","","","8","","14","","","","101.78","","","","","","NA"
"-63.58","44.66","HALIFAX DOCKYARD","8202240","2022-08-16 22:00","2022","08","16","22:00","19.4","","15.2","","77","","","","6","","12","","","","101.75","","","","","","NA"
"-63.58","44.66","HALIFAX DOCKYARD","8202240","2022-08-16 23:00","2022","08","16","23:00","19.5","","15.4","","77","","","","5","","15","","","","101.67","","","","","","NA"
"-63.58","44.66","HALIFAX DOCKYARD","8202240","2022-08-17 00:00","2022","08","17","00:00","19.0","","16.0","","83","","","","5","","15","","","","101.59","","","","","","NA"
"-63.58","44.66","HALIFAX DOCKYARD","8202240","2022-08-17 01:00","2022","08","17","01:00","19.2","","16.2","","83","","","","5","","15","","","","101.55","","","","","","NA"
"-63.58","44.66","HALIFAX DOCKYARD","8202240","2022-08-17 02:00","2022","08","17","02:00","18.5","","16.6","","89","","","","3","","14","","","","101.50","","","","","","NA"
"-63.58","44.66","HALIFAX DOCKYARD","8202240","2022-08-17 03:00","2022","08","17","03:00","17.9","","16.7","","92","","","","3","","15","","","","101.45","","","","","","NA"
"-63.58","44.66","HALIFAX DOCKYARD","8202240","2022-08-17 04:00","2022","08","17","04:00","17.7","","16.6","","94","","","","4","","18","","","","101.37","","","","","","NA"
"-63.58","44.66","HALIFAX DOCKYARD","8202240","2022-08-17 05:00","2022","08","17","05:00","17.8","","16.7","","93","","","","4","","16","","","","101.31","","","","","","NA"
"-63.58","44.66","HALIFAX DOCKYARD","8202240","2022-08-17 06:00","2022","08","17","06:00","18.0","","16.7","","92","","","","4","","20","","","","101.30","","","","","","NA"
"-63.58","44.66","HALIFAX DOCKYARD","8202240","2022-08-17 07:00","2022","08","17","07:00","18.3","","16.7","","91","","","","5","","21","","","","101.31","","","","","","NA"
"-63.58","44.66","HALIFAX DOCKYARD","8202240","2022-08-17 08:00","2022","08","17","08:00","18.2","","16.9","","92","","","","7","","23","","","","101.29","","","","","","NA"
"-63.58","44.66","HALIFAX DOCKYARD","8202240","2022-08-17 09:00","2022","08","17","09:00","18.5","","17.1","","92","","","","8","","29","","","","101.21","","","","","","NA"
"-63.58","44.66","HALIFAX DOCKYARD","8202240","2022-08-17 10:00","2022","08","17","10:00","18.7","","17.5","","93","","","","8","","30","","","","101.21","","","","","","NA"
"-63.58","44.66","HALIFAX DOCKYARD","8202240","2022-08-17 11:00","2022","08","17","11:00","19.6","","18.1","","92","","","","8","","30","","","","101.15","","","","","","NA"
"-63.58","44.66","HALIFAX DOCKYARD","8202240","2022-08-17 12:00","2022","08","17","12:00","21.2","","19.2","","89","","","","8","","29","","","","101.06","","28","","","","NA"
"-63.58","44.66","HALIFAX DOCKYARD","8202240","2022-08-17 13:00","2022","08","17","13:00","21.2","","19.7","","91","","","","8","","29","","","","101.04","","29","","","","NA"
"-63.58","44.66","HALIFAX DOCKYARD","8202240","2022-08-17 14:00","2022","08","17","14:00","20.7","","19.8","","95","","","","9","","36","","","","101.06","","28","","","","NA"
"-63.58","44.66","HALIFAX DOCKYARD","8202240","2022-08-17 15:00","2022","08","17","15:00","21.0","","20.0","","94","","","","9","","31","","","","101.00","","29","","","","NA"
"-63.58","44.66","HALIFAX DOCKYARD","8202240","2022-08-17 16:00","2022","08","17","16:00","21.0","","20.4","","96","","","","9","","33","","","","100.90","","29","","","","NA"
"-63.58","44.66","HALIFAX DOCKYARD","8202240","2022-08-17 17:00","2022","08","17","17:00","20.9","","20.4","","97","","","","10","","31","","","","100.86","","29","","","","NA"
"-63.58","44.66","HALIFAX DOCKYARD","8202240","2022-08-17 18:00","2022","08","17","18:00","20.9","","20.5","","97","","","","10","","40","","","","100.83","","29","","","","NA"
"-63.58","44.66","HALIFAX DOCKYARD","8202240","2022-08-17 19:00","2022","08","17","19:00","20.8","","20.1","","96","","","","13","","31","","","","100.90","","28","","","","NA"
"-63.58","44.66","HALIFAX DOCKYARD","8202240","2022-08-17 20:00","2022","08","17","20:00","20.9","","20.2","","96","","","","15","","18","","","","100.98","","29","","","","NA"
"-63.58","44.66","HALIFAX DOCKYARD","8202240","2022-08-17 21:00","2022","08","17","21:00","20.0","","19.2","","95","","","","15","","16","","","","101.03","","27","","","","NA"
"-63.58","44.66","HALIFAX DOCKYARD","8202240","2022-08-17 22:00","2022","08","17","22:00","19.4","","18.7","","96","","","","14","","17","","","","101.02","","","","","","NA"
"-63.58","44.66","HALIFAX DOCKYARD","8202240","2022-08-17 23:00","2022","08","17","23:00","19.2","","18.9","","98","","","","14","","10","","","","100.99","","","","","","NA"
"-63.58","44.66","HALIFAX DOCKYARD","8202240","2022-08-18 00:00","2022","08","18","00:00","19.7","","18.9","","95","","","","15","","13","","","","100.97","","","","","","NA"
"-63.58","44.66","HALIFAX DOCKYARD","8202240","2022-08-18 01:00","2022","08","18","01:00","20.2","","17.9","","87","","","","15","","10","","","","100.95","","26","","","","NA"
"-63.58","44.66","HALIFAX DOCKYARD","8202240","2022-08-18 02:00","2022","08","18","02:00","19.7","","17.0","","84","","","","16","","9","","","","100.96","","","","","","NA"
"-63.58","44.66","HALIFAX DOCKYARD","8202240","2022-08-18 03:00","2022","08","18","03:00","19.2","","17.0","","87","","","","16","","9","","","","100.98","","","","","","NA"
"-63.58","44.66","HALIFAX DOCKYARD","8202240","2022-08-18 04:00","2022","08","18","04:00","18.2","","16.7","","91","","","","18","","12","","","","100.98","","","","","","NA"
"-63.58","44.66","HALIFAX DOCKYARD","8202240","2022-08-18 05:00","2022","08","18","05:00","17.5","","16.3","","93","","","","18","","6","","","","101.02","","","","","","NA"
"-63.58","44.66","HALIFAX DOCKYARD","8202240","2022-08-18 06:00","2022","08","18","06:00","17.4","","16.1","","92","","","","15","","8","","","","101.06","","","","","","NA"
"-63.58","44.66","HALIFAX DOCKYARD","8202240","2022-08-18 07:00","2022","08","18","07:00","18.0","","15.9","","87","","","","17","","9","","","","101.05","","","","","","NA"
"-63.58","44.66","HALIFAX DOCKYARD","8202240","2022-08-18 08:00","2022","08","18","08:00","17.9","","16.3","","90","","","","17","","11","","","","101.07","","","","","","NA"
"-63.58","44.66","HALIFAX DOCKYARD","8202240","2022-08-18 09:00","2022","08","18","09:00","19.3","","15.8","","81","","","","17","","10","","","","101.04","","","","","","NA"
"-63.58","44.66","HALIFAX DOCKYARD","8202240","2022-08-18 10:00","2022","08","18","10:00","19.5","","15.8","","79","","","","19","","14","","","","101.06","","","","","","NA"
"-63.58","44.66","HALIFAX DOCKYARD","8202240","2022-08-18 11:00","2022","08","18","11:00","19.4","","16.4","","83","","","","17","","11","","","","101.06","","","","","","NA"
"-63.58","44.66","HALIFAX DOCKYARD","8202240","2022-08-18 12:00","2022","08","18","12:00","19.9","","15.8","","77","","","","19","","21","","","","101.05","","","","","","NA"
"-63.58","44.66","HALIFAX DOCKYARD","8202240","2022-08-18 13:00","2022","08","18","13:00","20.7","","15.1","","70","","","","18","","16","","","","101.05","","25","","","","NA"
"-63.58","44.66","HALIFAX DOCKYARD","8202240","2022-08-18 14:00","2022","08","18","14:00","20.7","","15.3","","71","","","","17","","13","","","","101.03","","25","","","","NA"
"-63.58","44.66","HALIFAX DOCKYARD","8202240","2022-08-18 15:00","2022","08","18","15:00","21.2","","15.0","","68","","","","19","","16","","","","101.01","","25","","","","NA"
"-63.58","44.66","HALIFAX DOCKYARD","8202240","2022-08-18 16:00","2022","08","18","16:00","21.0","","15.2","","70","","","","20","","15","","","","101.01","","25","","","","NA"
"-63.58","44.66","HALIFAX DOCKYARD","8202240","2022-08-18 17:00","2022","08","18","17:00","20.6","","15.8","","74","","","","16","","13","","","","101.00","","25","","","","NA"
"-63.58","44.66","HALIFAX DOCKYARD","8202240","2022-08-18 18:00","2022","08","18","18:00","20.1","","16.0","","78","","","","18","","19","","","","100.98","","25","","","","NA"
"-63.58","44.66","HALIFAX DOCKYARD","8202240","2022-08-18 19:00","2022","08","18","19:00","19.7","","16.4","","82","","","","19","","7","","","","100.97","","","","","","NA"
"-63.58","44.66","HALIFAX DOCKYARD","8202240","2022-08-18 20:00","2022","08","18","20:00","19.5","","16.8","","85","","","","18","","6","","","","100.98","","","","","","NA"
"-63.58","44.66","HALIFAX DOCKYARD","8202240","2022-08-18 21:00","2022","08","18","21:00","18.9","","15.9","","82","","","","19","","6","","","","100.99","","","","","","NA"
"-63.58","44.66","HALIFAX DOCKYARD","8202240","2022-08-18 22:00","2022","08","18","22:00","19.0","","16.0","","83","","","","21","","10","","","","100.98","","","","","","NA"
"-63.58","44.66","HALIFAX DOCKYARD","8202240","2022-08-18 23:00","2022","08","18","23:00","18.9","","15.7","","82","","","","23","","13","","","","100.97","","","","","","NA"
"-63.58","44.66","HALIFAX DOCKYARD","8202240","2022-08-19 00:00","2022","08","19","00:00","19.1","","16.1","","83","","","","21","","7","","","","100.95","","","","","","NA"
"-63.58","44.66","HALIFAX DOCKYARD","8202240","2022-08-19 01:00","2022","08","19","01:00","19.1","","16.2","","83","","","","21","","7","","","","100.93","","","","","","NA"
"-63.58","44.66","HALIFAX DOCKYARD","8202240","2022-08-19 02:00","2022","08","19","02:00","19.0","","16.4","","85","","","","21","","8","","","","100.93","","","","","","NA"
"-63.58","44.66","HALIFAX DOCKYARD","8202240","2022-08-19 03:00","2022","08","19","03:00","18.6","","16.4","","87","","","","21","","8","","","","100.93","","","","","","NA"
"-63.58","44.66","HALIFAX DOCKYARD","8202240","2022-08-19 04:00","2022","08","19","04:00","18.4","","16.2","","87","","","","22","","12","","","","100.91","","","","","","NA"
"-63.58","44.66","HALIFAX DOCKYARD","8202240","2022-08-19 05:00","2022","08","19","05:00","18.0","","16.1","","88","","","","21","","8","","","","100.94","","","","","","NA"
"-63.58","44.66","HALIFAX DOCKYARD","8202240","2022-08-19 06:00","2022","08","19","06:00","18.3","","15.9","","86","","","","22","","8","","","","100.97","","","","","","NA"
"-63.58","44.66","HALIFAX DOCKYARD","8202240","2022-08-19 07:00","2022","08","19","07:00","19.3","","15.7","","80","","","","24","","14","","","","100.98","","","","","","NA"
"-63.58","44.66","HALIFAX DOCKYARD","8202240","2022-08-19 08:00","2022","08","19","08:00","20.0","","15.4","","75","","","","25","","14","","","","101.00","","","","","","NA"
"-63.58","44.66","HALIFAX DOCKYARD","8202240","2022-08-19 09:00","2022","08","19","09:00","21.1","","15.7","","71","","","","23","","16","","","","101.01","","26","","","","NA"
"-63.58","44.66","HALIFAX DOCKYARD","8202240","2022-08-19 10:00","2022","08","19","10:00","22.5","","16.0","","67","","","","26","","13","","","","101.04","","27","","","","NA"
"-63.58","44.66","HALIFAX DOCKYARD","8202240","2022-08-19 11:00","2022","08","19","11:00","22.4","","16.2","","68","","","","26","","16","","","","101.06","","27","","","","NA"
"-63.58","44.66","HALIFAX DOCKYARD","8202240","2022-08-19 12:00","2022","08","19","12:00","23.2","","16.6","","67","","","","26","","16","","","","101.06","","28","","","","NA"
"-63.58","44.66","HALIFAX DOCKYARD","8202240","2022-08-19 13:00","2022","08","19","13:00","24.1","","16.5","","63","","","","25","","20","","","","101.06","","29","","","","NA"
"-63.58","44.66","HALIFAX DOCKYARD","8202240","2022-08-19 14:00","2022","08","19","14:00","24.9","","16.3","","59","","","","25","","20","","","","101.08","","30","","","","NA"
"-63.58","44.66","HALIFAX DOCKYARD","8202240","2022-08-19 15:00","2022","08","19","15:00","25.2","","16.6","","59","","","","26","","19","","","","101.08","","30","","","","NA"
"-63.58","44.66","HALIFAX DOCKYARD","8202240","2022-08-19 16:00","2022","08","19","16:00","25.4","","15.5","","54","","","","27","","22","","","","101.12","","30","","","","NA"
"-63.58","44.66","HALIFAX DOCKYARD","8202240","2022-08-19 17:00","2022","08","19","17:00","24.8","","15.3","","55","","","","28","","14","","","","101.16","","29","","","","NA"
"-63.58","44.66","HALIFAX DOCKYARD","8202240","2022-08-19 18:00","2022","08","19","18:00","24.0","","15.8","","60","","","","30","","15","","","","101.23","","28","","","","NA"
"-63.58","44.66","HALIFAX DOCKYARD","8202240","2022-08-19 19:00","2022","08","19","19:00","23.5","","16.1","","63","","","","27","","10","","","","101.29","","28","","","","NA"
"-63.58","44.66","HALIFAX DOCKYARD","8202240","2022-08-19 20:00","2022","08","19","20:00","22.7","","16.2","","67","","","","28","","7","","","","101.37","","27","","","","NA"
"-63.58","44.66","HALIFAX DOCKYARD","8202240","2022-08-19 21:00","2022","08","19","21:00","21.9","","16.1","","70","","","","26","","12","","","","101.43","","27","","","","NA"
"-63.58","44.66","HALIFAX DOCKYARD","8202240","2022-08-19 22:00","2022","08","19","22:00","20.8","","16.3","","75","","","","26","","12","","","","101.50","","26","","","","NA"
"-63.58","44.66","HALIFAX DOCKYARD","8202240","2022-08-19 23:00","2022","08","19","23:00","20.3","","16.5","","79","","","","25","","14","","","","101.51","","25","","","","NA"
"-63.58","44.66","HALIFAX DOCKYARD","8202240","2022-08-20 00:00","2022","08","20","00:00","19.7","","16.6","","82","","","","28","","9","","","","101.57","","","","","","NA"
"-63.58","44.66","HALIFAX DOCKYARD","8202240","2022-08-20 01:00","2022","08","20","01:00","19.4","","16.4","","83","","","","27","","8","","","","101.59","","","","","","NA"
"-63.58","44.66","HALIFAX DOCKYARD","8202240","2022-08-20 02:00","2022","08","20","02:00","19.2","","16.1","","83","","","","27","","8","","","","101.60","","","","","","NA"
"-63.58","44.66","HALIFAX DOCKYARD","8202240","2022-08-20 03:00","2022","08","20","03:00","19.2","","16.0","","82","","","","28","","8","","","","101.63","","","","","","NA"
"-63.58","44.66","HALIFAX DOCKYARD","8202240","2022-08-20 04:00","2022","08","20","04:00","18.8","","16.1","","84","","","","32","","12","","","","101.65","","","","","","NA"
"-63.58","44.66","HALIFAX DOCKYARD","8202240","2022-08-20 05:00","2022","08","20","05:00","19.2","","15.8","","81","","","","30","","6","","","","101.68","","","","","","NA"
"-63.58","44.66","HALIFAX DOCKYARD","8202240","2022-08-20 06:00","2022","08","20","06:00","19.1","","15.6","","80","","","","28","","9","","","","101.74","","","","","","NA"
"-63.58","44.66","HALIFAX DOCKYARD","8202240","2022-08-20 07:00","2022","08","20","07:00","20.5","","15.6","","73","","","","28","","10","","","","101.77","","25","","","","NA"
"-63.58","44.66","HALIFAX DOCKYARD","8202240","2022-08-20 08:00","2022","08","20","08:00","20.0","","16.2","","79","","","","32","","15","","","","101.81","","25","","","","NA"
"-63.58","44.66","HALIFAX DOCKYARD","8202240","2022-08-20 09:00","2022","08","20","09:00","21.3","","16.3","","73","","","","33","","19","","","","101.81","","26","","","","NA"
"-63.58","44.66","HALIFAX DOCKYARD","8202240","2022-08-20 10:00","2022","08","20","10:00","22.9","","16.7","","68","","","","32","","16","","","","101.82","","28","","","","NA"
"-63.58","44.66","HALIFAX DOCKYARD","8202240","2022-08-20 11:00","2022","08","20","11:00","25.9","","14.9","","51","","","","32","","18","","","","101.83","","30","","","","NA"
"-63.58","44.66","HALIFAX DOCKYARD","8202240","2022-08-20 12:00","2022","08","20","12:00","26.7","","13.2","","43","","","","31","","20","","","","101.84","","30","","","","NA"
"-63.58","44.66","HALIFAX DOCKYARD","8202240","2022-08-20 13:00","2022","08","20","13:00","27.2","","14.1","","45","","","","32","","19","","","","101.86","","31","","","","NA"
"-63.58","44.66","HALIFAX DOCKYARD","8202240","2022-08-20 14:00","2022","08","20","14:00","26.4","","14.7","","49","","","","32","","19","","","","101.87","","30","","","","NA"
"-63.58","44.66","HALIFAX DOCKYARD","8202240","2022-08-20 15:00","2022","08","20","15:00","27.6","","13.8","","43","","","","36","","17","","","","101.87","","31","","","","NA"
"-63.58","44.66","HALIFAX DOCKYARD","8202240","2022-08-20 16:00","2022","08","20","16:00","29.1","","11.1","","33","","","","31","","13","","","","101.88","","31","","","","NA"
"-63.58","44.66","HALIFAX DOCKYARD","8202240","2022-08-20 17:00","2022","08","20","17:00","28.8","","12.8","","37","","","","32","","12","","","","101.90","","31","","","","NA"
"-63.58","44.66","HALIFAX DOCKYARD","8202240","2022-08-20 18:00","2022","08","20","18:00","27.5","","13.7","","43","","","","32","","13","","","","101.92","","31","","","","NA"
"-63.58","44.66","HALIFAX DOCKYARD","8202240","2022-08-20 19:00","2022","08","20","19:00","27.8","","12.4","","39","","","","31","","7","","","","101.98","","30","","","","NA"
"-63.58","44.66","HALIFAX DOCKYARD","8202240","2022-08-20 20:00","2022","08","20","20:00","25.4","","13.5","","48","","","","29","","4","","","","102.01","","28","","","","NA"
"-63.58","44.66","HALIFAX DOCKYARD","8202240","2022-08-20 21:00","2022","08","20","21:00","21.6","","16.3","","72","","","","2","","1","","","","102.05","","26","","","","NA"
"-63.58","44.66","HALIFAX DOCKYARD","8202240","2022-08-20 22:00","2022","08","20","22:00","21.3","","16.3","","73","","","","32","","9","","","","102.05","","26","","","","NA"
"-63.58","44.66","HALIFAX DOCKYARD","8202240","2022-08-20 23:00","2022","08","20","23:00","20.6","","16.0","","75","","","","32","","7","","","","102.11","","25","","","","NA"
"-63.58","44.66","HALIFAX DOCKYARD","8202240","2022-08-21 00:00","2022","08","21","00:00","20.1","","16.9","","82","","","","30","","5","","","","102.12","","25","","","","NA"
"-63.58","44.66","HALIFAX DOCKYARD","8202240","2022-08-21 01:00","2022","08","21","01:00","19.4","","16.4","","83","","","","32","","8","","","","102.12","","","","","","NA"
"-63.58","44.66","HALIFAX DOCKYARD","8202240","2022-08-21 02:00","2022","08","21","02:00","18.6","","16.7","","88","","","","32","","9","","","","102.12","","","","","","NA"
"-63.58","44.66","HALIFAX DOCKYARD","8202240","2022-08-21 03:00","2022","08","21","03:00","18.5","","16.7","","89","","","","31","","6","","","","102.12","","","","","","NA"
"-63.58","44.66","HALIFAX DOCKYARD","8202240","2022-08-21 04:00","2022","08","21","04:00","18.2","","16.7","","91","","","","32","","9","","","","102.14","","","","","","NA"
"-63.58","44.66","HALIFAX DOCKYARD","8202240","2022-08-21 05:00","2022","08","21","05:00","17.8","","16.3","","91","","","","31","","7","","","","102.17","","","","","","NA"
"-63.58","44.66","HALIFAX DOCKYARD","8202240","2022-08-21 06:00","2022","08","21","06:00","17.8","","16.1","","90","","","","32","","9","","","","102.20","","","","","","NA"
"-63.58","44.66","HALIFAX DOCKYARD","8202240","2022-08-21 07:00","2022","08","21","07:00","18.4","","16.3","","88","","","","33","","11","","","","102.23","","","","","","NA"
"-63.58","44.66","HALIFAX DOCKYARD","8202240","2022-08-21 08:00","2022","08","21","08:00","20.1","","16.3","","79","","","","30","","4","","","","102.25","","25","","","","NA"
"-63.58","44.66","HALIFAX DOCKYARD","8202240","2022-08-21 09:00","2022","08","21","09:00","20.6","","16.2","","76","","","","13","","5","","","","102.27","","25","","","","NA"
"-63.58","44.66","HALIFAX DOCKYARD","8202240","2022-08-21 10:00","2022","08","21","10:00","22.1","","16.0","","69","","","","14","","21","","","","102.28","","27","","","","NA"
"-63.58","44.66","HALIFAX DOCKYARD","8202240","2022-08-21 11:00","2022","08","21","11:00","23.2","","15.5","","62","","","","15","","20","","","","102.29","","27","","","","NA"
"-63.58","44.66","HALIFAX DOCKYARD","8202240","2022-08-21 12:00","2022","08","21","12:00","22.5","","16.3","","68","","","","15","","20","","","","102.27","","27","","","","NA"
"-63.58","44.66","HALIFAX DOCKYARD","8202240","2022-08-21 13:00","2022","08","21","13:00","23.0","","15.1","","61","","","","15","","23","","","","102.23","","27","","","","NA"
"-63.58","44.66","HALIFAX DOCKYARD","8202240","2022-08-21 14:00","2022","08","21","14:00","22.4","","16.9","","71","","","","15","","21","","","","102.20","","28","","","","NA"
"-63.58","44.66","HALIFAX DOCKYARD","8202240","2022-08-21 15:00","2022","08","21","15:00","23.3","","17.4","","69","","","","14","","21","","","","102.16","","29","","","","NA"
"-63.58","44.66","HALIFAX DOCKYARD","8202240","2022-08-21 16:00","2022","08","21","16:00","22.7","","17.0","","70","","","","14","","23","","","","102.16","","28","","","","NA"
"-63.58","44.66","HALIFAX DOCKYARD","8202240","2022-08-21 17:00","2022","08","21","17:00","21.8","","19.2","","85","","","","15","","19","","","","102.15","","29","","","","NA"
"-63.58","44.66","HALIFAX DOCKYARD","8202240","2022-08-21 18:00","2022","08","21","18:00","21.4","","19.8","","91","","","","14","","22","","","","102.15","","29","","","","NA"
"-63.58","44.66","HALIFAX DOCKYARD","8202240","2022-08-21 19:00","2022","08","21","19:00","21.1","","19.6","","91","","","","14","","16","","","","102.16","","28","","","","NA"
"-63.58","44.66","HALIFAX DOCKYARD","8202240","2022-08-21 20:00","2022","08","21","20:00","20.3","","19.3","","94","","","","14","","12","","","","102.21","","27","","","","NA"
"-63.58","44.66","HALIFAX DOCKYARD","8202240","2022-08-21 21:00","2022","08","21","21:00","20.6","","19.4","","93","","","","14","","10","","","","102.21","","28","","","","NA"
"-63.58","44.66","HALIFAX DOCKYARD","8202240","2022-08-21 22:00","2022","08","21","22:00","19.8","","19.2","","96","","","","13","","7","","","","102.21","","","","","","NA"
"-63.58","44.66","HALIFAX DOCKYARD","8202240","2022-08-21 23:00","2022","08","21","23:00","19.8","","18.7","","93","","","","14","","8","","","","102.21","","","","","","NA"
"-63.58","44.66","HALIFAX DOCKYARD","8202240","2022-08-22 00:00","2022","08","22","00:00","19.6","","18.9","","96","","","","14","","8","","","","102.20","","","","","","NA"
"-63.58","44.66","HALIFAX DOCKYARD","8202240","2022-08-22 01:00","2022","08","22","01:00","19.3","","18.9","","98","","","","13","","8","","","","102.16","","","","","","NA"
"-63.58","44.66","HALIFAX DOCKYARD","8202240","2022-08-22 02:00","2022","08","22","02:00","19.0","","18.8","","99","","","","13","","7","","","","102.17","","","","","","NA"
"-63.58","44.66","HALIFAX DOCKYARD","8202240","2022-08-22 03:00","2022","08","22","03:00","19.4","","19.2","","99","","","","14","","8","","","","102.14","","","","","","NA"
"-63.58","44.66","HALIFAX DOCKYARD","8202240","2022-08-22 04:00","2022","08","22","04:00","19.4","","19.2","","99","","","","14","","6","","","","102.15","","","","","","NA"
"-63.58","44.66","HALIFAX DOCKYARD","8202240","2022-08-22 05:00","2022","08","22","05:00","19.1","","18.9","","99","","","","13","","7","","","","102.14","","","","","","NA"
"-63.58","44.66","HALIFAX DOCKYARD","8202240","2022-08-22 06:00","2022","08","22","06:00","18.9","","18.7","","99","","","","14","","9","","","","102.15","","","","","","NA"
"-63.58","44.66","HALIFAX DOCKYARD","8202240","2022-08-22 07:00","2022","08","22","07:00","19.3","","18.9","","98","","","","15","","17","","","","102.16","","","","","","NA"
"-63.58","44.66","HALIFAX DOCKYARD","8202240","2022-08-22 08:00","2022","08","22","08:00","18.8","","17.6","","93","","","","14","","16","","","","102.16","","","","","","NA"
"-63.58","44.66","HALIFAX DOCKYARD","8202240","2022-08-22 09:00","2022","08","22","09:00","18.9","","17.4","","91","","","","14","","15","","","","102.15","","","","","","NA"
"-63.58","44.66","HALIFAX DOCKYARD","8202240","2022-08-22 10:00","2022","08","22","10:00","20.0","","17.7","","87","","","","14","","16","","","","102.13","","26","","","","NA"
"-63.58","44.66","HALIFAX DOCKYARD","8202240","2022-08-22 11:00","2022","08","22","11:00","20.2","","18.0","","87","","","","14","","18","","","","102.11","","26","","","","NA"
"-63.58","44.66","HALIFAX DOCKYARD","8202240","2022-08-22 12:00","2022","08","22","12:00","20.1","","18.1","","88","","","","14","","20","","","","102.08","","26","","","","NA"
"-63.58","44.66","HALIFAX DOCKYARD","8202240","2022-08-22 13:00","2022","08","22","13:00","20.5","","17.9","","85","","","","15","","22","","","","102.07","","26","","","","NA"
"-63.58","44.66","HALIFAX DOCKYARD","8202240","2022-08-22 14:00","2022","08","22","14:00","20.0","","17.4","","85","","","","14","","22","","","","102.03","","26","","","","NA"
"-63.58","44.66","HALIFAX DOCKYARD","8202240","2022-08-22 15:00","2022","08","22","15:00","20.0","","17.5","","85","","","","14","","21","","","","101.99","","26","","","","NA"
"-63.58","44.66","HALIFAX DOCKYARD","8202240","2022-08-22 16:00","2022","08","22","16:00","20.4","","17.7","","85","","","","15","","19","","","","101.92","","26","","","","NA"
"-63.58","44.66","HALIFAX DOCKYARD","8202240","2022-08-22 17:00","2022","08","22","17:00","20.3","","17.9","","86","","","","14","","21","","","","101.88","","26","","","","NA"
"-63.58","44.66","HALIFAX DOCKYARD","8202240","2022-08-22 18:00","2022","08","22","18:00","20.5","","17.9","","85","","","","15","","17","","","","101.86","","26","","","","NA"
"-63.58","44.66","HALIFAX DOCKYARD","8202240","2022-08-22 19:00","2022","08","22","19:00","20.3","","18.7","","91","","","","14","","14","","","","101.84","","27","","","","NA"
"-63.58","44.66","HALIFAX DOCKYARD","8202240","2022-08-22 20:00","2022","08","22","20:00","20.3","","19.0","","92","","","","13","","16","","","","101.82","","27","","","","NA"
"-63.58","44.66","HALIFAX DOCKYARD","8202240","2022-08-22 21:00","2022","08","22","21:00","20.6","","19.3","","93","","","","12","","20","","","","101.79","","28","","","","NA"
"-63.58","44.66","HALIFAX DOCKYARD","8202240","2022-08-22 22:00","2022","08","22","22:00","20.6","","19.6","","94","","","","13","","19","","","","101.73","","28","","","","NA"
"-63.58","44.66","HALIFAX DOCKYARD","8202240","2022-08-22 23:00","2022","08","22","23:00","20.7","","19.7","","94","","","","12","","21","","","","101.68","","28","","","","NA"
"-63.58","44.66","HALIFAX DOCKYARD","8202240","2022-08-23 00:00","2022","08","23","00:00","20.6","","19.8","","95","","","","13","","19","","","","101.64","","28","","","","NA"
"-63.58","44.66","HALIFAX DOCKYARD","8202240","2022-08-23 01:00","2022","08","23","01:00","20.8","","19.6","","93","","","","11","","18","","","","101.59","","28","","","","NA"
"-63.58","44.66","HALIFAX DOCKYARD","8202240","2022-08-23 02:00","2022","08","23","02:00","20.8","","19.8","","94","","","","12","","11","","","","101.55","","28","","","","NA"
"-63.58","44.66","HALIFAX DOCKYARD","8202240","2022-08-23 03:00","2022","08","23","03:00","21.0","","19.7","","93","","","","10","","20","","","","101.46","","28","","","","NA"
"-63.58","44.66","HALIFAX DOCKYARD","8202240","2022-08-23 04:00","2022","08","23","04:00","21.1","","19.8","","93","","","","9","","10","","","","101.46","","29","","","","NA"
"-63.58","44.66","HALIFAX DOCKYARD","8202240","2022-08-23 05:00","2022","08","23","05:00","20.8","","19.8","","94","","","","7","","16","","","","101.34","","28","","","","NA"
"-63.58","44.66","HALIFAX DOCKYARD","8202240","2022-08-23 06:00","2022","08","23","06:00","19.7","","16.5","","82","","","","11","","25","","","","101.31","","","","","","NA"
"-63.58","44.66","HALIFAX DOCKYARD","8202240","2022-08-23 07:00","2022","08","23","07:00","18.1","","16.8","","92","","","","8","","4","","","","101.33","","","","","","NA"
"-63.58","44.66","HALIFAX DOCKYARD","8202240","2022-08-23 08:00","2022","08","23","08:00","18.8","","16.7","","88","","","","8","","14","","","","101.25","","","","","","NA"
"-63.58","44.66","HALIFAX DOCKYARD","8202240","2022-08-23 09:00","2022","08","23","09:00","19.3","","17.2","","88","","","","12","","6","","","","101.21","","","","","","NA"
"-63.58","44.66","HALIFAX DOCKYARD","8202240","2022-08-23 10:00","2022","08","23","10:00","20.3","","18.6","","90","","","","13","","8","","","","101.22","","27","","","","NA"
"-63.58","44.66","HALIFAX DOCKYARD","8202240","2022-08-23 11:00","2022","08","23","11:00","21.2","","19.5","","90","","","","12","","10","","","","101.19","","28","","","","NA"
"-63.58","44.66","HALIFAX DOCKYARD","8202240","2022-08-23 12:00","2022","08","23","12:00","21.1","","19.9","","93","","","","14","","14","","","","101.17","","29","","","","NA"
"-63.58","44.66","HALIFAX DOCKYARD","8202240","2022-08-23 13:00","2022","08","23","13:00","21.7","","20.1","","91","","","","13","","10","","","","101.14","","29","","","","NA"
"-63.58","44.66","HALIFAX DOCKYARD","8202240","2022-08-23 14:00","2022","08","23","14:00","24.9","","20.8","","78","","","","19","","9","","","","101.16","","33","","","","NA"
"-63.58","44.66","HALIFAX DOCKYARD","8202240","2022-08-23 15:00","2022","08","23","15:00","24.6","","20.6","","79","","","","22","","13","","","","101.13","","33","","","","NA"
"-63.58","44.66","HALIFAX DOCKYARD","8202240","2022-08-23 16:00","2022","08","23","16:00","23.4","","20.7","","85","","","","20","","11","","","","101.13","","32","","","","NA"
"-63.58","44.66","HALIFAX DOCKYARD","8202240","2022-08-23 17:00","2022","08","23","17:00","23.1","","20.8","","87","","","","20","","10","","","","101.15","","31","","","","NA"
"-63.58","44.66","HALIFAX DOCKYARD","8202240","2022-08-23 18:00","2022","08","23","18:00","21.7","","20.6","","94","","","","18","","7","","","","101.11","","30","","","","NA"
"-63.58","44.66","HALIFAX DOCKYARD","8202240","2022-08-23 19:00","2022","08","23","19:00","21.5","","20.6","","95","","","","16","","4","","","","101.12","","30","","","","NA"
"-63.58","44.66","HALIFAX DOCKYARD","8202240","2022-08-23 20:00","2022","08","23","20:00","21.0","","20.4","","97","","","","14","","13","","","","101.15","","29","","","","NA"
"-63.58","44.66","HALIFAX DOCKYARD","8202240","2022-08-23 21:00","2022","08","23","21:00","21.1","","20.6","","97","","","","18","","9","","","","101.17","","29","","","","NA"
"-63.58","44.66","HALIFAX DOCKYARD","8202240","2022-08-23 22:00","2022","08","23","22:00","21.0","","20.5","","97","","","","20","","6","","","","101.15","","29","","","","NA"
"-63.58","44.66","HALIFAX DOCKYARD","8202240","2022-08-23 23:00","2022","08","23","23:00","21.1","","20.4","","96","","","","22","","9","","","","101.11","","29","","","","NA"
"-63.58","44.66","HALIFAX DOCKYARD","8202240","2022-08-24 00:00","2022","08","24","00:00","21.2","","20.3","","95","","","","22","","8","","","","101.10","","29","","","","NA"
"-63.58","44.66","HALIFAX DOCKYARD","8202240","2022-08-24 01:00","2022","08","24","01:00","20.9","","20.0","","95","","","","22","","7","","","","101.10","","28","","","","NA"
"-63.58","44.66","HALIFAX DOCKYARD","8202240","2022-08-24 02:00","2022","08","24","02:00","20.8","","19.9","","95","","","","20","","4","","","","101.10","","28","","","","NA"
"-63.58","44.66","HALIFAX DOCKYARD","8202240","2022-08-24 03:00","2022","08","24","03:00","20.8","","19.8","","94","","","","23","","11","","","","101.16","","28","","","","NA"
"-63.58","44.66","HALIFAX DOCKYARD","8202240","2022-08-24 04:00","2022","08","24","04:00","21.1","","19.6","","91","","","","24","","10","","","","101.16","","28","","","","NA"
"-63.58","44.66","HALIFAX DOCKYARD","8202240","2022-08-24 05:00","2022","08","24","05:00","21.2","","19.5","","90","","","","26","","6","","","","101.20","","28","","","","NA"
"-63.58","44.66","HALIFAX DOCKYARD","8202240","2022-08-24 06:00","2022","08","24","06:00","21.0","","19.5","","91","","","","25","","6","","","","101.24","","28","","","","NA"
"-63.58","44.66","HALIFAX DOCKYARD","8202240","2022-08-24 07:00","2022","08","24","07:00","21.4","","19.3","","88","","","","26","","4","","","","101.23","","28","","","","NA"
"-63.58","44.66","HALIFAX DOCKYARD","8202240","2022-08-24 08:00","2022","08","24","08:00","21.3","","19.5","","90","","","","24","","9","","","","101.28","","28","","","","NA"
"-63.58","44.66","HALIFAX DOCKYARD","8202240","2022-08-24 09:00","2022","08","24","09:00","21.6","","19.7","","89","","","","22","","8","","","","101.30","","29","","","","NA"
"-63.58","44.66","HALIFAX DOCKYARD","8202240","2022-08-24 10:00","2022","08","24","10:00","21.9","","19.9","","89","","","","22","","6","","","","101.31","","29","","","","NA"
"-63.58","44.66","HALIFAX DOCKYARD","8202240","2022-08-24 11:00","2022","08","24","11:00","22.2","","19.9","","87","","","","24","","8","","","","101.33","","30","","","","NA"
"-63.58","44.66","HALIFAX DOCKYARD","8202240","2022-08-24 12:00","2022","08","24","12:00","23.0","","20.4","","86","","","","19","","7","","","","101.34","","31","","","","NA"
"-63.58","44.66","HALIFAX DOCKYARD","8202240","2022-08-24 13:00","2022","08","24","13:00","23.3","","20.4","","84","","","","25","","10","","","","101.35","","31","","","","NA"
"-63.58","44.66","HALIFAX DOCKYARD","8202240","2022-08-24 14:00","2022","08","24","14:00","23.3","","20.5","","84","","","","20","","15","","","","101.34","","31","","","","NA"
"-63.58","44.66","HALIFAX DOCKYARD","8202240","2022-08-24 15:00","2022","08","24","15:00","23.6","","20.6","","84","","","","18","","10","","","","101.28","","32","","","","NA"
"-63.58","44.66","HALIFAX DOCKYARD","8202240","2022-08-24 16:00","2022","08","24","16:00","23.6","","20.8","","84","","","","18","","11","","","","101.26","","32","","","","NA"
"-63.58","44.66","HALIFAX DOCKYARD","8202240","2022-08-24 17:00","2022","08","24","17:00","23.0","","20.7","","87","","","","19","","9","","","","101.26","","31","","","","NA"
"-63.58","44.66","HALIFAX DOCKYARD","8202240","2022-08-24 18:00","2022","08","24","18:00","22.1","","20.4","","90","","","","22","","8","","","","101.25","","30","","","","NA"
"-63.58","44.66","HALIFAX DOCKYARD","8202240","2022-08-24 19:00","2022","08","24","19:00","21.2","","20.1","","93","","","","22","","8","","","","101.29","","29","","","","NA"
"-63.58","44.66","HALIFAX DOCKYARD","8202240","2022-08-24 20:00","2022","08","24","20:00","20.7","","19.9","","95","","","","23","","13","","","","101.32","","28","","","","NA"
"-63.58","44.66","HALIFAX DOCKYARD","8202240","2022-08-24 21:00","2022","08","24","21:00","21.0","","20.1","","95","","","","24","","7","","","","101.33","","29","","","","NA"
"-63.58","44.66","HALIFAX DOCKYARD","8202240","2022-08-24 22:00","2022","08","24","22:00","21.4","","20.2","","93","","","","26","","3","","","","101.34","","29","","","","NA"
"-63.58","44.66","HALIFAX DOCKYARD","8202240","2022-08-24 23:00","2022","08","24","23:00","21.0","","19.9","","94","","","","22","","12","","","","101.33","","28","","","","NA"
"-63.58","44.66","HALIFAX DOCKYARD","8202240","2022-08-25 00:00","2022","08","25","00:00","20.7","","19.9","","95","","","","23","","10","","","","101.34","","28","","","","NA"
"-63.58","44.66","HALIFAX DOCKYARD","8202240","2022-08-25 01:00","2022","08","25","01:00","20.5","","19.9","","96","","","","23","","11","","","","101.32","","28","","","","NA"
"-63.58","44.66","HALIFAX DOCKYARD","8202240","2022-08-25 02:00","2022","08","25","02:00","20.5","","19.8","","96","","","","25","","8","","","","101.31","","28","","","","NA"
"-63.58","44.66","HALIFAX DOCKYARD","8202240","2022-08-25 03:00","2022","08","25","03:00","20.5","","19.7","","95","","","","23","","9","","","","101.31","","28","","","","NA"
"-63.58","44.66","HALIFAX DOCKYARD","8202240","2022-08-25 04:00","2022","08","25","04:00","20.2","","19.4","","95","","","","28","","2","","","","101.31","","27","","","","NA"
"-63.58","44.66","HALIFAX DOCKYARD","8202240","2022-08-25 05:00","2022","08","25","05:00","20.3","","19.3","","94","","","","16","","5","","","","101.28","","27","","","","NA"
"-63.58","44.66","HALIFAX DOCKYARD","8202240","2022-08-25 06:00","2022","08","25","06:00","20.1","","19.2","","94","","","","22","","2","","","","101.29","","27","","","","NA"
"-63.58","44.66","HALIFAX DOCKYARD","8202240","2022-08-25 07:00","2022","08","25","07:00","20.4","","19.5","","94","","","","30","","6","","","","101.33","","28","","","","NA"
"-63.58","44.66","HALIFAX DOCKYARD","8202240","2022-08-25 08:00","2022","08","25","08:00","20.6","","19.7","","94","","","","10","","1","","","","101.36","","28","","","","NA"
"-63.58","44.66","HALIFAX DOCKYARD","8202240","2022-08-25 09:00","2022","08","25","09:00","21.4","","19.9","","92","","","","32","","8","","","","101.37","","29","","","","NA"
"-63.58","44.66","HALIFAX DOCKYARD","8202240","2022-08-25 10:00","2022","08","25","10:00","21.9","","20.0","","89","","","","13","","9","","","","101.38","","29","","","","NA"
"-63.58","44.66","HALIFAX DOCKYARD","8202240","2022-08-25 11:00","2022","08","25","11:00","21.3","","19.8","","91","","","","14","","14","","","","101.41","","29","","","","NA"
"-63.58","44.66","HALIFAX DOCKYARD","8202240","2022-08-25 12:00","2022","08","25","12:00","21.7","","19.9","","90","","","","14","","18","","","","101.40","","29","","","","NA"
"-63.58","44.66","HALIFAX DOCKYARD","8202240","2022-08-25 13:00","2022","08","25","13:00","21.8","","20.2","","91","","","","14","","20","","","","101.39","","30","","","","NA"
"-63.58","44.66","HALIFAX DOCKYARD","8202240","2022-08-25 14:00","2022","08","25","14:00","23.2","","20.0","","82","","","","14","","13","","","","101.38","","31","","","","NA"
"-63.58","44.66","HALIFAX DOCKYARD","8202240","2022-08-25 15:00","2022","08","25","15:00","23.6","","20.2","","81","","","","14","","13","","","","101.37","","31","","","","NA"
"-63.58","44.66","HALIFAX DOCKYARD","8202240","2022-08-25 16:00","2022","08","25","16:00","26.4","","20.2","","69","","","","24","","11","","","","101.37","","34","","","","NA"
"-63.58","44.66","HALIFAX DOCKYARD","8202240","2022-08-25 17:00","2022","08","25","17:00","25.1","","19.9","","73","","","","23","","15","","","","101.39","","33","","","","NA"
"-63.58","44.66","HALIFAX DOCKYARD","8202240","2022-08-25 18:00","2022","08","25","18:00","24.5","","19.8","","75","","","","23","","16","","","","101.43","","32","","","","NA"
"-63.58","44.66","HALIFAX DOCKYARD","8202240","2022-08-25 19:00","2022","08","25","19:00","23.8","","19.9","","79","","","","24","","14","","","","101.47","","31","","","","NA"
"-63.58","44.66","HALIFAX DOCKYARD","8202240","2022-08-25 20:00","2022","08","25","20:00","22.7","","19.8","","84","","","","0","","1","","","","101.52","","30","","","","NA"
"-63.58","44.66","HALIFAX DOCKYARD","8202240","2022-08-25 21:00","2022","08","25","21:00","22.3","","20.0","","86","","","","28","","1","","","","101.57","","30","","","","NA"
"-63.58","44.66","HALIFAX DOCKYARD","8202240","2022-08-25 22:00","2022","08","25","22:00","21.7","","19.9","","90","","","","31","","4","","","","101.60","","29","","","","NA"
"-63.58","44.66","HALIFAX DOCKYARD","8202240","2022-08-25 23:00","2022","08","25","23:00","21.4","","19.7","","90","","","","30","","5","","","","101.61","","29","","","","NA"
"-63.58","44.66","HALIFAX DOCKYARD","8202240","2022-08-26 00:00","2022","08","26","00:00","20.8","","19.3","","91","","","","34","","7","","","","101.64","","28","","","","NA"
"-63.58","44.66","HALIFAX DOCKYARD","8202240","2022-08-26 01:00","2022","08","26","01:00","20.4","","18.5","","89","","","","32","","8","","","","101.67","","27","","","","NA"
"-63.58","44.66","HALIFAX DOCKYARD","8202240","2022-08-26 02:00","2022","08","26","02:00","20.2","","18.2","","89","","","","33","","5","","","","101.68","","26","","","","NA"
"-63.58","44.66","HALIFAX DOCKYARD","8202240","2022-08-26 03:00","2022","08","26","03:00","19.8","","18.0","","89","","","","0","","1","","","","101.67","","","","","","NA"
"-63.58","44.66","HALIFAX DOCKYARD","8202240","2022-08-26 04:00","2022","08","26","04:00","19.5","","17.7","","89","","","","3","","4","","","","101.66","","","","","","NA"
"-63.58","44.66","HALIFAX DOCKYARD","8202240","2022-08-26 05:00","2022","08","26","05:00","19.2","","17.1","","88","","","","2","","2","","","","101.67","","","","","","NA"
"-63.58","44.66","HALIFAX DOCKYARD","8202240","2022-08-26 06:00","2022","08","26","06:00","19.2","","17.1","","88","","","","33","","4","","","","101.70","","","","","","NA"
"-63.58","44.66","HALIFAX DOCKYARD","8202240","2022-08-26 07:00","2022","08","26","07:00","19.6","","17.5","","87","","","","33","","6","","","","101.70","","","","","","NA"
"-63.58","44.66","HALIFAX DOCKYARD","8202240","2022-08-26 08:00","2022","08","26","08:00","19.9","","18.3","","90","","","","15","","10","","","","101.66","","","","","","NA"
"-63.58","44.66","HALIFAX DOCKYARD","8202240","2022-08-26 09:00","2022","08","26","09:00","19.9","","18.4","","91","","","","12","","7","","","","101.73","","","","","","NA"
"-63.58","44.66","HALIFAX DOCKYARD","8202240","2022-08-26 10:00","2022","08","26","10:00","20.3","","18.5","","89","","","","12","","9","","","","101.72","","27","","","","NA"
"-63.58","44.66","HALIFAX DOCKYARD","8202240","2022-08-26 11:00","2022","08","26","11:00","20.9","","18.9","","89","","","","14","","13","","","","101.71","","28","","","","NA"
"-63.58","44.66","HALIFAX DOCKYARD","8202240","2022-08-26 12:00","2022","08","26","12:00","20.8","","19.0","","90","","","","14","","14","","","","101.65","","28","","","","NA"
"-63.58","44.66","HALIFAX DOCKYARD","8202240","2022-08-26 13:00","2022","08","26","13:00","22.0","","19.1","","83","","","","15","","16","","","","101.61","","29","","","","NA"
"-63.58","44.66","HALIFAX DOCKYARD","8202240","2022-08-26 14:00","2022","08","26","14:00","21.9","","19.4","","86","","","","15","","20","","","","101.54","","29","","","","NA"
"-63.58","44.66","HALIFAX DOCKYARD","8202240","2022-08-26 15:00","2022","08","26","15:00","21.2","","19.7","","91","","","","15","","23","","","","101.49","","29","","","","NA"
"-63.58","44.66","HALIFAX DOCKYARD","8202240","2022-08-26 16:00","2022","08","26","16:00","21.3","","19.8","","92","","","","15","","22","","","","101.44","","29","","","","NA"
"-63.58","44.66","HALIFAX DOCKYARD","8202240","2022-08-26 17:00","2022","08","26","17:00","21.9","","19.7","","87","","","","15","","18","","","","101.44","","29","","","","NA"
"-63.58","44.66","HALIFAX DOCKYARD","8202240","2022-08-26 18:00","2022","08","26","18:00","22.1","","19.1","","83","","","","18","","12","","","","101.42","","29","","","","NA"
"-63.58","44.66","HALIFAX DOCKYARD","8202240","2022-08-26 19:00","2022","08","26","19:00","20.4","","18.1","","87","","","","18","","10","","","","101.44","","26","","","","NA"
"-63.58","44.66","HALIFAX DOCKYARD","8202240","2022-08-26 20:00","2022","08","26","20:00","20.0","","18.2","","89","","","","20","","10","","","","101.50","","26","","","","NA"
"-63.58","44.66","HALIFAX DOCKYARD","8202240","2022-08-26 21:00","2022","08","26","21:00","20.3","","18.4","","89","","","","18","","10","","","","101.50","","27","","","","NA"
"-63.58","44.66","HALIFAX DOCKYARD","8202240","2022-08-26 22:00","2022","08","26","22:00","20.6","","18.1","","86","","","","20","","8","","","","101.47","","27","","","","NA"
"-63.58","44.66","HALIFAX DOCKYARD","8202240","2022-08-26 23:00","2022","08","26","23:00","20.6","","18.1","","86","","","","21","","6","","","","101.40","","27","","","","NA"
"-63.58","44.66","HALIFAX DOCKYARD","8202240","2022-08-27 00:00","2022","08","27","00:00","20.3","","17.9","","86","","","","21","","5","","","","101.39","","26","","","","NA"
"-63.58","44.66","HALIFAX DOCKYARD","8202240","2022-08-27 01:00","2022","08","27","01:00","20.2","","18.4","","90","","","","23","","8","","","","101.37","","27","","","","NA"
"-63.58","44.66","HALIFAX DOCKYARD","8202240","2022-08-27 02:00","2022","08","27","02:00","19.9","","19.0","","95","","","","22","","5","","","","101.30","","","","","","NA"
"-63.58","44.66","HALIFAX DOCKYARD","8202240","2022-08-27 03:00","2022","08","27","03:00","20.2","","19.0","","93","","","","23","","7","","","","101.29","","27","","","","NA"
"-63.58","44.66","HALIFAX DOCKYARD","8202240","2022-08-27 04:00","2022","08","27","04:00","20.1","","19.3","","95","","","","24","","5","","","","101.26","","27","","","","NA"
"-63.58","44.66","HALIFAX DOCKYARD","8202240","2022-08-27 05:00","2022","08","27","05:00","20.1","","19.5","","96","","","","16","","5","","","","101.22","","27","","","","NA"
"-63.58","44.66","HALIFAX DOCKYARD","8202240","2022-08-27 06:00","2022","08","27","06:00","20.6","","19.2","","92","","","","19","","8","","","","101.27","","28","","","","NA"
"-63.58","44.66","HALIFAX DOCKYARD","8202240","2022-08-27 07:00","2022","08","27","07:00","20.9","","19.2","","90","","","","23","","6","","","","101.30","","28","","","","NA"
"-63.58","44.66","HALIFAX DOCKYARD","8202240","2022-08-27 08:00","2022","08","27","08:00","21.7","","19.0","","84","","","","25","","4","","","","101.32","","28","","","","NA"
"-63.58","44.66","HALIFAX DOCKYARD","8202240","2022-08-27 09:00","2022","08","27","09:00","22.3","","18.7","","80","","","","23","","3","","","","101.35","","29","","","","NA"
"-63.58","44.66","HALIFAX DOCKYARD","8202240","2022-08-27 10:00","2022","08","27","10:00","22.4","","18.5","","79","","","","32","","8","","","","101.39","","29","","","","NA"
"-63.58","44.66","HALIFAX DOCKYARD","8202240","2022-08-27 11:00","2022","08","27","11:00","23.3","","17.5","","70","","","","31","","4","","","","101.38","","29","","","","NA"
"-63.58","44.66","HALIFAX DOCKYARD","8202240","2022-08-27 12:00","2022","08","27","12:00","24.7","","17.7","","65","","","","31","","10","","","","101.35","","30","","","","NA"
"-63.58","44.66","HALIFAX DOCKYARD","8202240","2022-08-27 13:00","2022","08","27","13:00","24.9","","17.8","","65","","","","32","","12","","","","101.34","","31","","","","NA"
"-63.58","44.66","HALIFAX DOCKYARD","8202240","2022-08-27 14:00","2022","08","27","14:00","24.4","","18.4","","69","","","","33","","11","","","","101.34","","31","","","","NA"
"-63.58","44.66","HALIFAX DOCKYARD","8202240","2022-08-27 15:00","2022","08","27","15:00","23.5","","18.5","","73","","","","35","","24","","","","101.38","","30","","","","NA"
"-63.58","44.66","HALIFAX DOCKYARD","8202240","2022-08-27 16:00","2022","08","27","16:00","23.4","","17.9","","71","","","","36","","21","","","","101.41","","29","","","","NA"
"-63.58","44.66","HALIFAX DOCKYARD","8202240","2022-08-27 17:00","2022","08","27","17:00","22.6","","17.5","","73","","","","36","","25","","","","101.47","","28","","","","NA"
"-63.58","44.66","HALIFAX DOCKYARD","8202240","2022-08-27 18:00","2022","08","27","18:00","21.3","","17.2","","78","","","","1","","20","","","","101.54","","27","","","","NA"
"-63.58","44.66","HALIFAX DOCKYARD","8202240","2022-08-27 19:00","2022","08","27","19:00","20.7","","16.5","","77","","","","1","","15","","","","101.63","","26","","","","NA"
"-63.58","44.66","HALIFAX DOCKYARD","8202240","2022-08-27 20:00","2022","08","27","20:00","20.1","","16.2","","79","","","","5","","8","","","","101.74","","25","","","","NA"
"-63.58","44.66","HALIFAX DOCKYARD","8202240","2022-08-27 21:00","2022","08","27","21:00","19.5","","16.2","","81","","","","4","","12","","","","101.82","","","","","","NA"
"-63.58","44.66","HALIFAX DOCKYARD","8202240","2022-08-27 22:00","2022","08","27","22:00","19.1","","15.9","","82","","","","4","","12","","","","101.87","","","","","","NA"
"-63.58","44.66","HALIFAX DOCKYARD","8202240","2022-08-27 23:00","2022","08","27","23:00","18.6","","15.8","","84","","","","4","","8","","","","101.91","","","","","","NA"
"-63.58","44.66","HALIFAX DOCKYARD","8202240","2022-08-28 00:00","2022","08","28","00:00","18.3","","15.4","","83","","","","5","","6","","","","101.94","","","","","","NA"
"-63.58","44.66","HALIFAX DOCKYARD","8202240","2022-08-28 01:00","2022","08","28","01:00","18.2","","15.2","","83","","","","4","","7","","","","101.97","","","","","","NA"
"-63.58","44.66","HALIFAX DOCKYARD","8202240","2022-08-28 02:00","2022","08","28","02:00","17.9","","14.7","","81","","","","4","","4","","","","101.98","","","","","","NA"
"-63.58","44.66","HALIFAX DOCKYARD","8202240","2022-08-28 03:00","2022","08","28","03:00","17.8","","14.8","","82","","","","1","","7","","","","102.00","","","","","","NA"
"-63.58","44.66","HALIFAX DOCKYARD","8202240","2022-08-28 04:00","2022","08","28","04:00","17.5","","14.7","","83","","","","33","","5","","","","102.05","","","","","","NA"
"-63.58","44.66","HALIFAX DOCKYARD","8202240","2022-08-28 05:00","2022","08","28","05:00","17.1","","14.4","","84","","","","36","","7","","","","102.10","","","","","","NA"
"-63.58","44.66","HALIFAX DOCKYARD","8202240","2022-08-28 06:00","2022","08","28","06:00","17.2","","14.4","","84","","","","32","","6","","","","102.16","","","","","","NA"
"-63.58","44.66","HALIFAX DOCKYARD","8202240","2022-08-28 07:00","2022","08","28","07:00","17.6","","14.0","","79","","","","36","","6","","","","102.21","","","","","","NA"
"-63.58","44.66","HALIFAX DOCKYARD","8202240","2022-08-28 08:00","2022","08","28","08:00","18.3","","13.4","","73","","","","1","","7","","","","102.24","","","","","","NA"
"-63.58","44.66","HALIFAX DOCKYARD","8202240","2022-08-28 09:00","2022","08","28","09:00","20.1","","10.7","","55","","","","10","","7","","","","102.25","","","","","","NA"
"-63.58","44.66","HALIFAX DOCKYARD","8202240","2022-08-28 10:00","2022","08","28","10:00","20.8","","11.0","","54","","","","9","","8","","","","102.28","","","","","","NA"
"-63.58","44.66","HALIFAX DOCKYARD","8202240","2022-08-28 11:00","2022","08","28","11:00","21.1","","11.9","","55","","","","15","","14","","","","102.27","","","","","","NA"
"-63.58","44.66","HALIFAX DOCKYARD","8202240","2022-08-28 12:00","2022","08","28","12:00","20.9","","13.2","","61","","","","15","","16","","","","102.26","","","","","","NA"
"-63.58","44.66","HALIFAX DOCKYARD","8202240","2022-08-28 13:00","2022","08","28","13:00","21.4","","13.2","","60","","","","16","","15","","","","102.25","","","","","","NA"
"-63.58","44.66","HALIFAX DOCKYARD","8202240","2022-08-28 14:00","2022","08","28","14:00","20.5","","11.9","","58","","","","14","","18","","","","102.18","","","","","","NA"
"-63.58","44.66","HALIFAX DOCKYARD","8202240","2022-08-28 15:00","2022","08","28","15:00","21.4","","10.0","","48","","","","15","","17","","","","102.16","","","","","","NA"
"-63.58","44.66","HALIFAX DOCKYARD","8202240","2022-08-28 16:00","2022","08","28","16:00","20.5","","12.7","","61","","","","15","","20","","","","102.11","","","","","","NA"
"-63.58","44.66","HALIFAX DOCKYARD","8202240","2022-08-28 17:00","2022","08","28","17:00","20.2","","16.2","","77","","","","15","","20","","","","102.09","","25","","","","NA"
"-63.58","44.66","HALIFAX DOCKYARD","8202240","2022-08-28 18:00","2022","08","28","18:00","20.1","","17.1","","83","","","","15","","19","","","","102.09","","25","","","","NA"
"-63.58","44.66","HALIFAX DOCKYARD","8202240","2022-08-28 19:00","2022","08","28","19:00","20.4","","17.3","","83","","","","17","","7","","","","102.08","","26","","","","NA"
"-63.58","44.66","HALIFAX DOCKYARD","8202240","2022-08-28 20:00","2022","08","28","20:00","20.2","","17.5","","84","","","","18","","5","","","","102.10","","26","","","","NA"
"-63.58","44.66","HALIFAX DOCKYARD","8202240","2022-08-28 21:00","2022","08","28","21:00","20.1","","17.8","","87","","","","20","","4","","","","102.12","","26","","","","NA"
"-63.58","44.66","HALIFAX DOCKYARD","8202240","2022-08-28 22:00","2022","08","28","22:00","20.0","","18.2","","89","","","","15","","5","","","","102.08","","26","","","","NA"
"-63.58","44.66","HALIFAX DOCKYARD","8202240","2022-08-28 23:00","2022","08","28","23:00","20.3","","18.0","","87","","","","16","","4","","","","102.05","","26","","","","NA"
"-63.58","44.66","HALIFAX DOCKYARD","8202240","2022-08-29 00:00","2022","08","29","00:00","20.3","","18.3","","88","","","","15","","6","","","","102.00","","27","","","","NA"
"-63.58","44.66","HALIFAX DOCKYARD","8202240","2022-08-29 01:00","2022","08","29","01:00","20.3","","18.1","","87","","","","17","","5","","","","101.99","","26","","","","NA"
"-63.58","44.66","HALIFAX DOCKYARD","8202240","2022-08-29 02:00","2022","08","29","02:00","20.1","","18.5","","90","","","","15","","8","","","","101.96","","26","","","","NA"
"-63.58","44.66","HALIFAX DOCKYARD","8202240","2022-08-29 03:00","2022","08","29","03:00","20.1","","18.5","","91","","","","16","","7","","","","101.94","","26","","","","NA"
"-63.58","44.66","HALIFAX DOCKYARD","8202240","2022-08-29 04:00","2022","08","29","04:00","20.2","","18.9","","92","","","","15","","3","","","","101.94","","27","","","","NA"
"-63.58","44.66","HALIFAX DOCKYARD","8202240","2022-08-29 05:00","2022","08","29","05:00","20.2","","19.1","","94","","","","24","","3","","","","101.94","","27","","","","NA"
"-63.58","44.66","HALIFAX DOCKYARD","8202240","2022-08-29 06:00","2022","08","29","06:00","19.9","","17.7","","88","","","","31","","12","","","","101.99","","","","","","NA"
"-63.58","44.66","HALIFAX DOCKYARD","8202240","2022-08-29 07:00","2022","08","29","07:00","19.4","","16.4","","83","","","","32","","11","","","","102.02","","","","","","NA"
"-63.58","44.66","HALIFAX DOCKYARD","8202240","2022-08-29 08:00","2022","08","29","08:00","20.7","","14.2","","67","","","","31","","9","","","","101.99","","","","","","NA"
"-63.58","44.66","HALIFAX DOCKYARD","8202240","2022-08-29 09:00","2022","08","29","09:00","20.7","","14.4","","67","","","","33","","8","","","","101.94","","","","","","NA"
"-63.58","44.66","HALIFAX DOCKYARD","8202240","2022-08-29 10:00","2022","08","29","10:00","21.6","","14.6","","64","","","","3","","6","","","","101.93","","25","","","","NA"
"-63.58","44.66","HALIFAX DOCKYARD","8202240","2022-08-29 11:00","2022","08","29","11:00","23.1","","13.9","","56","","","","13","","8","","","","101.89","","26","","","","NA"
"-63.58","44.66","HALIFAX DOCKYARD","8202240","2022-08-29 12:00","2022","08","29","12:00","24.8","","12.7","","47","","","","18","","4","","","","101.87","","27","","","","NA"
"-63.58","44.66","HALIFAX DOCKYARD","8202240","2022-08-29 13:00","2022","08","29","13:00","25.8","","13.7","","47","","","","21","","5","","","","101.80","","29","","","","NA"
"-63.58","44.66","HALIFAX DOCKYARD","8202240","2022-08-29 14:00","2022","08","29","14:00","26.2","","14.3","","48","","","","23","","11","","","","101.74","","30","","","","NA"
"-63.58","44.66","HALIFAX DOCKYARD","8202240","2022-08-29 15:00","2022","08","29","15:00","25.5","","14.7","","51","","","","22","","17","","","","101.68","","29","","","","NA"
"-63.58","44.66","HALIFAX DOCKYARD","8202240","2022-08-29 16:00","2022","08","29","16:00","24.1","","14.2","","54","","","","22","","16","","","","101.64","","28","","","","NA"
"-63.58","44.66","HALIFAX DOCKYARD","8202240","2022-08-29 17:00","2022","08","29","17:00","23.5","","14.6","","57","","","","22","","9","","","","101.61","","27","","","","NA"
"-63.58","44.66","HALIFAX DOCKYARD","8202240","2022-08-29 18:00","2022","08","29","18:00","22.7","","15.2","","62","","","","23","","13","","","","101.62","","27","","","","NA"
"-63.58","44.66","HALIFAX DOCKYARD","8202240","2022-08-29 19:00","2022","08","29","19:00","21.6","","16.3","","72","","","","22","","12","","","","101.58","","26","","","","NA"
"-63.58","44.66","HALIFAX DOCKYARD","8202240","2022-08-29 20:00","2022","08","29","20:00","21.0","","17.4","","80","","","","19","","2","","","","101.60","","27","","","","NA"
"-63.58","44.66","HALIFAX DOCKYARD","8202240","2022-08-29 21:00","2022","08","29","21:00","20.9","","18.1","","84","","","","25","","5","","","","101.60","","27","","","","NA"
"-63.58","44.66","HALIFAX DOCKYARD","8202240","2022-08-29 22:00","2022","08","29","22:00","21.6","","18.2","","81","","","","24","","13","","","","101.57","","28","","","","NA"
"-63.58","44.66","HALIFAX DOCKYARD","8202240","2022-08-29 23:00","2022","08","29","23:00","21.0","","17.3","","80","","","","24","","15","","","","101.56","","26","","","","NA"
"-63.58","44.66","HALIFAX DOCKYARD","8202240","2022-08-30 00:00","2022","08","30","00:00","20.0","","17.1","","84","","","","25","","10","","","","101.60","","25","","","","NA"
"-63.58","44.66","HALIFAX DOCKYARD","8202240","2022-08-30 01:00","2022","08","30","01:00","19.4","","17.3","","88","","","","27","","6","","","","101.60","","","","","","NA"
"-63.58","44.66","HALIFAX DOCKYARD","8202240","2022-08-30 02:00","2022","08","30","02:00","19.3","","17.4","","88","","","","27","","8","","","","101.58","","","","","","NA"
"-63.58","44.66","HALIFAX DOCKYARD","8202240","2022-08-30 03:00","2022","08","30","03:00","19.9","","17.8","","88","","","","24","","4","","","","101.55","","","","","","NA"
"-63.58","44.66","HALIFAX DOCKYARD","8202240","2022-08-30 04:00","2022","08","30","04:00","19.7","","17.9","","89","","","","23","","6","","","","101.53","","","","","","NA"
"-63.58","44.66","HALIFAX DOCKYARD","8202240","2022-08-30 05:00","2022","08","30","05:00","19.4","","18.1","","92","","","","21","","5","","","","101.49","","","","","","NA"
"-63.58","44.66","HALIFAX DOCKYARD","8202240","2022-08-30 06:00","2022","08","30","06:00","19.0","","18.0","","94","","","","24","","7","","","","101.47","","","","","","NA"
"-63.58","44.66","HALIFAX DOCKYARD","8202240","2022-08-30 07:00","2022","08","30","07:00","19.0","","18.0","","94","","","","24","","5","","","","101.47","","","","","","NA"
"-63.58","44.66","HALIFAX DOCKYARD","8202240","2022-08-30 08:00","2022","08","30","08:00","19.4","","18.3","","93","","","","18","","8","","","","101.48","","","","","","NA"
"-63.58","44.66","HALIFAX DOCKYARD","8202240","2022-08-30 09:00","2022","08","30","09:00","19.8","","18.3","","91","","","","21","","6","","","","101.50","","","","","","NA"
"-63.58","44.66","HALIFAX DOCKYARD","8202240","2022-08-30 10:00","2022","08","30","10:00","20.8","","18.4","","86","","","","25","","11","","","","101.50","","27","","","","NA"
"-63.58","44.66","HALIFAX DOCKYARD","8202240","2022-08-30 11:00","2022","08","30","11:00","22.0","","18.9","","83","","","","23","","9","","","","101.51","","29","","","","NA"
"-63.58","44.66","HALIFAX DOCKYARD","8202240","2022-08-30 12:00","2022","08","30","12:00","22.7","","19.1","","80","","","","23","","14","","","","101.44","","30","","","","NA"
"-63.58","44.66","HALIFAX DOCKYARD","8202240","2022-08-30 13:00","2022","08","30","13:00","23.4","","19.5","","79","","","","23","","11","","","","101.40","","31","","","","NA"
"-63.58","44.66","HALIFAX DOCKYARD","8202240","2022-08-30 14:00","2022","08","30","14:00","24.4","","19.8","","76","","","","24","","14","","","","101.32","","32","","","","NA"
"-63.58","44.66","HALIFAX DOCKYARD","8202240","2022-08-30 15:00","2022","08","30","15:00","24.4","","20.0","","76","","","","22","","10","","","","101.32","","32","","","","NA"
"-63.58","44.66","HALIFAX DOCKYARD","8202240","2022-08-30 16:00","2022","08","30","16:00","24.0","","19.9","","78","","","","21","","14","","","","101.30","","31","","","","NA"
"-63.58","44.66","HALIFAX DOCKYARD","8202240","2022-08-30 17:00","2022","08","30","17:00","23.8","","20.1","","80","","","","22","","17","","","","101.28","","31","","","","NA"
"-63.58","44.66","HALIFAX DOCKYARD","8202240","2022-08-30 18:00","2022","08","30","18:00","22.8","","20.0","","85","","","","21","","12","","","","101.28","","30","","","","NA"
"-63.58","44.66","HALIFAX DOCKYARD","8202240","2022-08-30 19:00","2022","08","30","19:00","22.1","","19.8","","87","","","","22","","9","","","","101.28","","30","","","","NA"
"-63.58","44.66","HALIFAX DOCKYARD","8202240","2022-08-30 20:00","2022","08","30","20:00","21.8","","19.8","","89","","","","21","","12","","","","101.32","","29","","","","NA"
"-63.58","44.66","HALIFAX DOCKYARD","8202240","2022-08-30 21:00","2022","08","30","21:00","21.7","","19.7","","89","","","","18","","10","","","","101.34","","29","","","","NA"
"-63.58","44.66","HALIFAX DOCKYARD","8202240","2022-08-30 22:00","2022","08","30","22:00","21.4","","19.6","","89","","","","18","","9","","","","101.37","","29","","","","NA"
"-63.58","44.66","HALIFAX DOCKYARD","8202240","2022-08-30 23:00","2022","08","30","23:00","21.1","","19.6","","91","","","","20","","10","","","","101.39","","28","","","","NA"
"-63.58","44.66","HALIFAX DOCKYARD","8202240","2022-08-31 00:00","2022","08","31","00:00","21.3","","19.3","","89","","","","18","","5","","","","101.38","","28","","","","NA"
"-63.58","44.66","HALIFAX DOCKYARD","8202240","2022-08-31 01:00","2022","08","31","01:00","21.4","","19.6","","90","","","","18","","8","","","","101.36","","29","","","","NA"
"-63.58","44.66","HALIFAX DOCKYARD","8202240","2022-08-31 02:00","2022","08","31","02:00","21.5","","19.9","","91","","","","19","","8","","","","101.33","","29","","","","NA"
"-63.58","44.66","HALIFAX DOCKYARD","8202240","2022-08-31 03:00","2022","08","31","03:00","22.0","","20.4","","91","","","","18","","9","","","","101.31","","30","","","","NA"
"-63.58","44.66","HALIFAX DOCKYARD","8202240","2022-08-31 04:00","2022","08","31","04:00","21.8","","20.4","","92","","","","18","","10","","","","101.29","","30","","","","NA"
"-63.58","44.66","HALIFAX DOCKYARD","8202240","2022-08-31 05:00","2022","08","31","05:00","21.8","","20.1","","90","","","","18","","9","","","","101.28","","29","","","","NA"
"-63.58","44.66","HALIFAX DOCKYARD","8202240","2022-08-31 06:00","2022","08","31","06:00","21.4","","19.6","","89","","","","17","","6","","","","101.30","","29","","","","NA"
"-63.58","44.66","HALIFAX DOCKYARD","8202240","2022-08-31 07:00","2022","08","31","07:00","22.4","","19.5","","84","","","","18","","10","","","","101.29","","30","","","","NA"
"-63.58","44.66","HALIFAX DOCKYARD","8202240","2022-08-31 08:00","2022","08","31","08:00","22.5","","19.7","","84","","","","15","","17","","","","101.27","","30","","","","NA"
"-63.58","44.66","HALIFAX DOCKYARD","8202240","2022-08-31 09:00","2022","08","31","09:00","21.3","","19.8","","91","","","","14","","23","","","","101.24","","29","","","","NA"
"-63.58","44.66","HALIFAX DOCKYARD","8202240","2022-08-31 10:00","2022","08","31","10:00","21.0","","19.9","","93","","","","15","","22","","","","101.22","","28","","","","NA"
"-63.58","44.66","HALIFAX DOCKYARD","8202240","2022-08-31 11:00","2022","08","31","11:00","22.2","","18.9","","81","","","","15","","28","","","","101.16","","29","","","","NA"
"-63.58","44.66","HALIFAX DOCKYARD","8202240","2022-08-31 12:00","2022","08","31","12:00","21.8","","17.7","","77","","","","15","","24","","","","101.10","","28","","","","NA"
"-63.58","44.66","HALIFAX DOCKYARD","8202240","2022-08-31 13:00","2022","08","31","13:00","21.5","","19.0","","86","","","","15","","23","","","","101.03","","28","","","","NA"
"-63.58","44.66","HALIFAX DOCKYARD","8202240","2022-08-31 14:00","2022","08","31","14:00","21.6","","19.6","","89","","","","14","","35","","","","100.89","","29","","","","NA"
"-63.58","44.66","HALIFAX DOCKYARD","8202240","2022-08-31 15:00","2022","08","31","15:00","21.9","","19.9","","89","","","","14","","36","","","","100.83","","29","","","","NA"
"-63.58","44.66","HALIFAX DOCKYARD","8202240","2022-08-31 16:00","2022","08","31","16:00","21.5","","20.1","","92","","","","14","","32","","","","100.74","","29","","","","NA"
"-63.58","44.66","HALIFAX DOCKYARD","8202240","2022-08-31 17:00","2022","08","31","17:00","22.1","","20.5","","91","","","","15","","32","","","","100.61","","30","","","","NA"
"-63.58","44.66","HALIFAX DOCKYARD","8202240","2022-08-31 18:00","2022","08","31","18:00","22.2","","20.6","","91","","","","15","","30","","","","100.52","","30","","","","NA"
"-63.58","44.66","HALIFAX DOCKYARD","8202240","2022-08-31 19:00","2022","08","31","19:00","22.6","","21.5","","93","","","","16","","18","","","","100.54","","31","","","","NA"
"-63.58","44.66","HALIFAX DOCKYARD","8202240","2022-08-31 20:00","2022","08","31","20:00","22.3","","21.4","","95","","","","18","","12","","","","100.62","","31","","","","NA"
"-63.58","44.66","HALIFAX DOCKYARD","8202240","2022-08-31 21:00","2022","08","31","21:00","21.5","","20.7","","96","","","","19","","10","","","","100.65","","30","","","","NA"
"-63.58","44.66","HALIFAX DOCKYARD","8202240","2022-08-31 22:00","2022","08","31","22:00","21.1","","20.4","","96","","","","18","","9","","","","100.64","","29","","","","NA"
"-63.58","44.66","HALIFAX DOCKYARD","8202240","2022-08-31 23:00","2022","08","31","23:00","21.0","","20.4","","97","","","","18","","7","","","","100.63","","29","","","","NA"
