"Longitude (x)","Latitude (y)","Station Name","Climate ID","Date/Time (LST)","Year","Month","Day","Time (LST)","Temp (°C)","Temp Flag","Dew Point Temp (°C)","Dew Point Temp Flag","Rel Hum (%)","Rel Hum Flag","Precip. Amount (mm)","Precip. Amount Flag","Wind Dir (10s deg)","Wind Dir Flag","Wind Spd (km/h)","Wind Spd Flag","Visibility (km)","Visibility Flag","Stn Press (kPa)","Stn Press Flag","Hmdx","Hmdx Flag","Wind Chill","Wind Chill Flag","Weather"
"-90.73","63.35","CHESTERFIELD INLET A","2300710","2021-11-01 00:00","2021","11","01","00:00","-7.2","","-9.3","","85","","","M","34","","22","","","M","102.06","","","","-15","","NA"
"-90.73","63.35","CHESTERFIELD INLET A","2300710","2021-11-01 01:00","2021","11","01","01:00","-7.3","","-9.7","","83","","","M","35","","23","","","M","102.10","","","","-15","","NA"
"-90.73","63.35","CHESTERFIELD INLET A","2300710","2021-11-01 02:00","2021","11","01","02:00","-7.3","","-9.8","","83","","","M","35","","23","","","M","102.11","","","","-15","","NA"
"-90.73","63.35","CHESTERFIELD INLET A","2300710","2021-11-01 03:00","2021","11","01","03:00","-7.3","","-9.8","","82","","","M","35","","25","","","M","102.12","","","","-15","","NA"
"-90.73","63.35","CHESTERFIELD INLET A","2300710","2021-11-01 04:00","2021","11","01","04:00","-7.7","","-9.7","","86","","","M","34","","22","","","M","102.12","","","","-15","","NA"
"-90.73","63.35","CHESTERFIELD INLET A","2300710","2021-11-01 05:00","2021","11","01","05:00","-7.8","","-10.2","","83","","","M","33","","26","","","M","102.13","","","","-16","","NA"
"-90.73","63.35","CHESTERFIELD INLET A","2300710","2021-11-01 06:00","2021","11","01","06:00","-8.0","","-10.5","","82","","","M","33","","28","","","M","102.11","","","","-17","","NA"
"-90.73","63.35","CHESTERFIELD INLET A","2300710","2021-11-01 07:00","2021","11","01","07:00","-8.2","","-10.3","","85","","","M","34","","27","","","M","102.12","","","","-17","","NA"
"-90.73","63.35","CHESTERFIELD INLET A","2300710","2021-11-01 08:00","2021","11","01","08:00","-8.4","","-11.0","","82","","","M","34","","25","","","M","102.13","","","","-17","","NA"
"-90.73","63.35","CHESTERFIELD INLET A","2300710","2021-11-01 09:00","2021","11","01","09:00","-8.4","","-11.1","","81","","","M","33","","30","","","M","102.12","","","","-17","","NA"
"-90.73","63.35","CHESTERFIELD INLET A","2300710","2021-11-01 10:00","2021","11","01","10:00","-8.5","","-11.1","","82","","","M","35","","26","","","M","102.15","","","","-17","","NA"
"-90.73","63.35","CHESTERFIELD INLET A","2300710","2021-11-01 11:00","2021","11","01","11:00","-8.5","","-11.4","","80","","","M","36","","23","","","M","102.15","","","","-17","","NA"
"-90.73","63.35","CHESTERFIELD INLET A","2300710","2021-11-01 12:00","2021","11","01","12:00","-8.2","","-11.1","","80","","","M","35","","24","","","M","102.14","","","","-16","","NA"
"-90.73","63.35","CHESTERFIELD INLET A","2300710","2021-11-01 13:00","2021","11","01","13:00","-7.8","","-11.0","","78","","","M","34","","23","","","M","102.12","","","","-16","","NA"
"-90.73","63.35","CHESTERFIELD INLET A","2300710","2021-11-01 14:00","2021","11","01","14:00","-7.6","","-10.7","","79","","","M","34","","21","","","M","102.10","","","","-15","","NA"
"-90.73","63.35","CHESTERFIELD INLET A","2300710","2021-11-01 15:00","2021","11","01","15:00","-7.8","","-11.0","","78","","","M","34","","19","","","M","102.10","","","","-15","","NA"
"-90.73","63.35","CHESTERFIELD INLET A","2300710","2021-11-01 16:00","2021","11","01","16:00","-7.9","","-11.1","","78","","","M","33","","24","","","M","102.11","","","","-16","","NA"
"-90.73","63.35","CHESTERFIELD INLET A","2300710","2021-11-01 17:00","2021","11","01","17:00","-8.0","","-11.3","","77","","","M","35","","22","","","M","102.13","","","","-16","","NA"
"-90.73","63.35","CHESTERFIELD INLET A","2300710","2021-11-01 18:00","2021","11","01","18:00","-8.1","","-11.3","","78","","","M","35","","22","","","M","102.14","","","","-16","","NA"
"-90.73","63.35","CHESTERFIELD INLET A","2300710","2021-11-01 19:00","2021","11","01","19:00","-8.3","","-11.6","","78","","","M","35","","21","","","M","102.13","","","","-16","","NA"
"-90.73","63.35","CHESTERFIELD INLET A","2300710","2021-11-01 20:00","2021","11","01","20:00","-8.5","","-11.8","","77","","","M","34","","22","","","M","102.08","","","","-16","","NA"
"-90.73","63.35","CHESTERFIELD INLET A","2300710","2021-11-01 21:00","2021","11","01","21:00","-8.6","","-12.0","","77","","","M","34","","23","","","M","102.05","","","","-17","","NA"
"-90.73","63.35","CHESTERFIELD INLET A","2300710","2021-11-01 22:00","2021","11","01","22:00","-8.6","","-11.5","","79","","","M","35","","24","","","M","102.03","","","","-17","","NA"
"-90.73","63.35","CHESTERFIELD INLET A","2300710","2021-11-01 23:00","2021","11","01","23:00","-9.1","","-11.7","","81","","","M","36","","22","","","M","102.02","","","","-17","","NA"
"-90.73","63.35","CHESTERFIELD INLET A","2300710","2021-11-02 00:00","2021","11","02","00:00","-8.5","","-11.1","","82","","","M","36","","26","","","M","102.01","","","","-17","","NA"
"-90.73","63.35","CHESTERFIELD INLET A","2300710","2021-11-02 01:00","2021","11","02","01:00","-8.3","","-11.3","","79","","","M","36","","27","","","M","102.00","","","","-17","","NA"
"-90.73","63.35","CHESTERFIELD INLET A","2300710","2021-11-02 02:00","2021","11","02","02:00","-7.8","","-10.9","","78","","","M","36","","23","","","M","101.98","","","","-16","","NA"
"-90.73","63.35","CHESTERFIELD INLET A","2300710","2021-11-02 03:00","2021","11","02","03:00","-7.4","","-10.2","","80","","","M","34","","26","","","M","101.97","","","","-16","","NA"
"-90.73","63.35","CHESTERFIELD INLET A","2300710","2021-11-02 04:00","2021","11","02","04:00","-7.6","","-10.0","","83","","","M","34","","22","","","M","101.95","","","","-15","","NA"
"-90.73","63.35","CHESTERFIELD INLET A","2300710","2021-11-02 05:00","2021","11","02","05:00","-7.3","","-9.9","","82","","","M","32","","20","","","M","101.91","","","","-14","","NA"
"-90.73","63.35","CHESTERFIELD INLET A","2300710","2021-11-02 06:00","2021","11","02","06:00","-6.5","","-9.2","","81","","","M","32","","26","","","M","101.87","","","","-14","","NA"
"-90.73","63.35","CHESTERFIELD INLET A","2300710","2021-11-02 07:00","2021","11","02","07:00","-6.5","","-9.2","","82","","","M","32","","30","","","M","101.85","","","","-15","","NA"
"-90.73","63.35","CHESTERFIELD INLET A","2300710","2021-11-02 08:00","2021","11","02","08:00","-6.9","","-9.7","","81","","","M","32","","30","","","M","101.82","","","","-15","","NA"
"-90.73","63.35","CHESTERFIELD INLET A","2300710","2021-11-02 09:00","2021","11","02","09:00","-7.0","","-9.8","","80","","","M","30","","34","","","M","101.78","","","","-16","","NA"
"-90.73","63.35","CHESTERFIELD INLET A","2300710","2021-11-02 10:00","2021","11","02","10:00","-7.8","","-9.7","","86","","","M","28","","24","","","M","101.79","","","","-16","","NA"
"-90.73","63.35","CHESTERFIELD INLET A","2300710","2021-11-02 11:00","2021","11","02","11:00","-6.4","","-7.9","","89","","","M","30","","31","","","M","101.77","","","","-15","","NA"
"-90.73","63.35","CHESTERFIELD INLET A","2300710","2021-11-02 12:00","2021","11","02","12:00","-6.4","","-7.6","","91","","","M","31","","31","","","M","101.74","","","","-15","","NA"
"-90.73","63.35","CHESTERFIELD INLET A","2300710","2021-11-02 13:00","2021","11","02","13:00","-6.4","","-8.1","","88","","","M","29","","27","","","M","101.69","","","","-14","","NA"
"-90.73","63.35","CHESTERFIELD INLET A","2300710","2021-11-02 14:00","2021","11","02","14:00","-5.6","","-7.5","","87","","","M","29","","27","","","M","101.66","","","","-13","","NA"
"-90.73","63.35","CHESTERFIELD INLET A","2300710","2021-11-02 15:00","2021","11","02","15:00","-6.3","","-8.2","","86","","","M","28","","21","","","M","101.69","","","","-13","","NA"
"-90.73","63.35","CHESTERFIELD INLET A","2300710","2021-11-02 16:00","2021","11","02","16:00","-6.7","","-7.4","","95","","","M","29","","26","","","M","101.69","","","","-15","","NA"
"-90.73","63.35","CHESTERFIELD INLET A","2300710","2021-11-02 17:00","2021","11","02","17:00","-6.8","","-7.8","","92","","","M","28","","25","","","M","101.68","","","","-15","","NA"
"-90.73","63.35","CHESTERFIELD INLET A","2300710","2021-11-02 18:00","2021","11","02","18:00","-8.0","","-9.2","","91","","","M","26","","18","","","M","101.68","","","","-15","","NA"
"-90.73","63.35","CHESTERFIELD INLET A","2300710","2021-11-02 19:00","2021","11","02","19:00","-8.9","","-10.1","","91","","","M","25","","16","","","M","101.64","","","","-16","","NA"
"-90.73","63.35","CHESTERFIELD INLET A","2300710","2021-11-02 20:00","2021","11","02","20:00","-8.9","","-10.3","","90","","","M","25","","14","","","M","101.60","","","","-15","","NA"
"-90.73","63.35","CHESTERFIELD INLET A","2300710","2021-11-02 21:00","2021","11","02","21:00","-8.5","","-10.1","","88","","","M","26","","22","","","M","101.54","","","","-16","","NA"
"-90.73","63.35","CHESTERFIELD INLET A","2300710","2021-11-02 22:00","2021","11","02","22:00","-7.5","","-9.1","","88","","","M","26","","23","","","M","101.50","","","","-15","","NA"
"-90.73","63.35","CHESTERFIELD INLET A","2300710","2021-11-02 23:00","2021","11","02","23:00","-7.4","","-9.0","","89","","","M","26","","18","","","M","101.49","","","","-14","","NA"
"-90.73","63.35","CHESTERFIELD INLET A","2300710","2021-11-03 00:00","2021","11","03","00:00","-7.9","","-9.3","","89","","","M","26","","21","","","M","101.43","","","","-15","","NA"
"-90.73","63.35","CHESTERFIELD INLET A","2300710","2021-11-03 01:00","2021","11","03","01:00","-7.1","","-8.7","","88","","","M","25","","19","","","M","101.41","","","","-14","","NA"
"-90.73","63.35","CHESTERFIELD INLET A","2300710","2021-11-03 02:00","2021","11","03","02:00","-6.7","","-8.3","","89","","","M","26","","18","","","M","101.39","","","","-13","","NA"
"-90.73","63.35","CHESTERFIELD INLET A","2300710","2021-11-03 03:00","2021","11","03","03:00","-6.5","","-7.5","","93","","","M","27","","16","","","M","101.33","","","","-13","","NA"
"-90.73","63.35","CHESTERFIELD INLET A","2300710","2021-11-03 04:00","2021","11","03","04:00","-6.2","","-7.7","","90","","","M","28","","22","","","M","101.32","","","","-13","","NA"
"-90.73","63.35","CHESTERFIELD INLET A","2300710","2021-11-03 05:00","2021","11","03","05:00","-6.5","","-8.1","","89","","","M","27","","22","","","M","101.27","","","","-14","","NA"
"-90.73","63.35","CHESTERFIELD INLET A","2300710","2021-11-03 06:00","2021","11","03","06:00","-6.5","","-7.5","","92","","","M","28","","17","","","M","101.27","","","","-13","","NA"
"-90.73","63.35","CHESTERFIELD INLET A","2300710","2021-11-03 07:00","2021","11","03","07:00","-6.3","","-7.6","","91","","","M","27","","14","","","M","101.21","","","","-12","","NA"
"-90.73","63.35","CHESTERFIELD INLET A","2300710","2021-11-03 08:00","2021","11","03","08:00","-6.1","","-7.5","","90","","","M","28","","15","","","M","101.21","","","","-12","","NA"
"-90.73","63.35","CHESTERFIELD INLET A","2300710","2021-11-03 09:00","2021","11","03","09:00","-5.7","","-6.3","","96","","","M","26","","21","","","M","101.19","","","","-13","","NA"
"-90.73","63.35","CHESTERFIELD INLET A","2300710","2021-11-03 10:00","2021","11","03","10:00","-6.0","","-6.5","","96","","","M","27","","20","","","M","101.18","","","","-13","","NA"
"-90.73","63.35","CHESTERFIELD INLET A","2300710","2021-11-03 11:00","2021","11","03","11:00","-5.7","","-6.2","","96","","","M","27","","22","","","M","101.19","","","","-13","","NA"
"-90.73","63.35","CHESTERFIELD INLET A","2300710","2021-11-03 12:00","2021","11","03","12:00","-5.8","","-6.3","","96","","","M","27","","21","","","M","101.19","","","","-13","","NA"
"-90.73","63.35","CHESTERFIELD INLET A","2300710","2021-11-03 13:00","2021","11","03","13:00","-5.2","","-5.9","","95","","","M","28","","19","","","M","101.18","","","","-12","","NA"
"-90.73","63.35","CHESTERFIELD INLET A","2300710","2021-11-03 14:00","2021","11","03","14:00","-5.1","","-5.8","","95","","","M","27","","17","","","M","101.19","","","","-11","","NA"
"-90.73","63.35","CHESTERFIELD INLET A","2300710","2021-11-03 15:00","2021","11","03","15:00","-4.5","","-5.5","","93","","","M","33","","13","","","M","101.20","","","","-10","","NA"
"-90.73","63.35","CHESTERFIELD INLET A","2300710","2021-11-03 16:00","2021","11","03","16:00","-4.9","","-5.7","","94","","","M","34","","13","","","M","101.20","","","","-10","","NA"
"-90.73","63.35","CHESTERFIELD INLET A","2300710","2021-11-03 17:00","2021","11","03","17:00","-5.7","","-6.4","","95","","","M","1","","13","","","M","101.24","","","","-11","","NA"
"-90.73","63.35","CHESTERFIELD INLET A","2300710","2021-11-03 18:00","2021","11","03","18:00","-5.9","","-6.7","","94","","","M","36","","9","","","M","101.24","","","","-10","","NA"
"-90.73","63.35","CHESTERFIELD INLET A","2300710","2021-11-03 19:00","2021","11","03","19:00","-5.7","","-6.4","","95","","","M","27","","9","","","M","101.25","","","","-10","","NA"
"-90.73","63.35","CHESTERFIELD INLET A","2300710","2021-11-03 20:00","2021","11","03","20:00","-5.7","","-6.3","","95","","","M","27","","10","","","M","101.22","","","","-10","","NA"
"-90.73","63.35","CHESTERFIELD INLET A","2300710","2021-11-03 21:00","2021","11","03","21:00","-5.4","","-6.2","","94","","","M","26","","8","","","M","101.21","","","","-9","","NA"
"-90.73","63.35","CHESTERFIELD INLET A","2300710","2021-11-03 22:00","2021","11","03","22:00","-5.7","","-6.5","","94","","","M","26","","12","","","M","101.20","","","","-11","","NA"
"-90.73","63.35","CHESTERFIELD INLET A","2300710","2021-11-03 23:00","2021","11","03","23:00","-5.7","","-6.5","","94","","","M","28","","11","","","M","101.16","","","","-10","","NA"
"-90.73","63.35","CHESTERFIELD INLET A","2300710","2021-11-04 00:00","2021","11","04","00:00","-5.5","","-6.4","","94","","","M","28","","9","","","M","101.17","","","","-10","","NA"
"-90.73","63.35","CHESTERFIELD INLET A","2300710","2021-11-04 01:00","2021","11","04","01:00","-5.3","","-6.1","","94","","","M","26","","8","","","M","101.14","","","","-9","","NA"
"-90.73","63.35","CHESTERFIELD INLET A","2300710","2021-11-04 02:00","2021","11","04","02:00","-4.8","","-5.7","","93","","","M","21","","6","","","M","101.11","","","","-8","","NA"
"-90.73","63.35","CHESTERFIELD INLET A","2300710","2021-11-04 03:00","2021","11","04","03:00","-4.8","","-5.8","","93","","","M","22","","5","","","M","101.08","","","","-7","","NA"
"-90.73","63.35","CHESTERFIELD INLET A","2300710","2021-11-04 04:00","2021","11","04","04:00","-5.4","","-6.0","","95","","","M","25","","19","","","M","101.05","","","","-12","","NA"
"-90.73","63.35","CHESTERFIELD INLET A","2300710","2021-11-04 05:00","2021","11","04","05:00","-6.5","","-7.4","","93","","","M","28","","14","","","M","101.05","","","","-12","","NA"
"-90.73","63.35","CHESTERFIELD INLET A","2300710","2021-11-04 06:00","2021","11","04","06:00","-6.3","","-7.4","","92","","","M","28","","10","","","M","101.02","","","","-11","","NA"
"-90.73","63.35","CHESTERFIELD INLET A","2300710","2021-11-04 07:00","2021","11","04","07:00","-5.9","","-7.3","","90","","","M","24","","10","","","M","101.00","","","","-10","","NA"
"-90.73","63.35","CHESTERFIELD INLET A","2300710","2021-11-04 08:00","2021","11","04","08:00","-5.8","","-7.2","","90","","","M","21","","14","","","M","100.96","","","","-11","","NA"
"-90.73","63.35","CHESTERFIELD INLET A","2300710","2021-11-04 09:00","2021","11","04","09:00","-5.1","","-6.5","","90","","","M","20","","8","","","M","100.93","","","","-9","","NA"
"-90.73","63.35","CHESTERFIELD INLET A","2300710","2021-11-04 10:00","2021","11","04","10:00","-4.8","","-6.1","","90","","","M","22","","7","","","M","100.86","","","","-8","","NA"
"-90.73","63.35","CHESTERFIELD INLET A","2300710","2021-11-04 11:00","2021","11","04","11:00","-3.9","","-5.8","","87","","","M","18","","8","","","M","100.81","","","","-7","","NA"
"-90.73","63.35","CHESTERFIELD INLET A","2300710","2021-11-04 12:00","2021","11","04","12:00","-3.4","","-5.7","","84","","","M","19","","15","","","M","100.78","","","","-9","","NA"
"-90.73","63.35","CHESTERFIELD INLET A","2300710","2021-11-04 13:00","2021","11","04","13:00","-3.0","","-5.5","","83","","","M","18","","14","","","M","100.76","","","","-8","","NA"
"-90.73","63.35","CHESTERFIELD INLET A","2300710","2021-11-04 14:00","2021","11","04","14:00","-2.9","","-5.5","","82","","","M","18","","9","","","M","100.71","","","","-6","","NA"
"-90.73","63.35","CHESTERFIELD INLET A","2300710","2021-11-04 15:00","2021","11","04","15:00","-2.7","","-5.2","","83","","","M","10","","3","","","M","100.67","","","","-4","","NA"
"-90.73","63.35","CHESTERFIELD INLET A","2300710","2021-11-04 16:00","2021","11","04","16:00","-2.3","","-4.8","","83","","","M","9","","7","","","M","100.62","","","","-5","","NA"
"-90.73","63.35","CHESTERFIELD INLET A","2300710","2021-11-04 17:00","2021","11","04","17:00","-1.7","","-4.3","","82","","","M","12","","17","","","M","100.60","","","","-7","","NA"
"-90.73","63.35","CHESTERFIELD INLET A","2300710","2021-11-04 18:00","2021","11","04","18:00","-1.3","","-4.0","","82","","","M","12","","14","","","M","100.55","","","","-6","","NA"
"-90.73","63.35","CHESTERFIELD INLET A","2300710","2021-11-04 19:00","2021","11","04","19:00","-1.2","","-4.6","","78","","","M","13","","12","","","M","100.50","","","","-5","","NA"
"-90.73","63.35","CHESTERFIELD INLET A","2300710","2021-11-04 20:00","2021","11","04","20:00","-1.1","","-4.2","","80","","","M","12","","19","","","M","100.49","","","","-6","","NA"
"-90.73","63.35","CHESTERFIELD INLET A","2300710","2021-11-04 21:00","2021","11","04","21:00","-1.3","","-3.8","","83","","","M","11","","22","","","M","100.45","","","","-7","","NA"
"-90.73","63.35","CHESTERFIELD INLET A","2300710","2021-11-04 22:00","2021","11","04","22:00","-1.2","","-4.1","","81","","","M","11","","30","","","M","100.44","","","","-8","","NA"
"-90.73","63.35","CHESTERFIELD INLET A","2300710","2021-11-04 23:00","2021","11","04","23:00","-1.0","","-4.0","","81","","","M","11","","24","","","M","100.42","","","","-7","","NA"
"-90.73","63.35","CHESTERFIELD INLET A","2300710","2021-11-05 00:00","2021","11","05","00:00","-0.9","","-4.1","","79","","","M","11","","23","","","M","100.39","","","","-7","","NA"
"-90.73","63.35","CHESTERFIELD INLET A","2300710","2021-11-05 01:00","2021","11","05","01:00","-0.8","","-3.6","","82","","","M","11","","25","","","M","100.39","","","","-7","","NA"
"-90.73","63.35","CHESTERFIELD INLET A","2300710","2021-11-05 02:00","2021","11","05","02:00","-0.8","","-3.6","","81","","","M","12","","28","","","M","100.35","","","","-7","","NA"
"-90.73","63.35","CHESTERFIELD INLET A","2300710","2021-11-05 03:00","2021","11","05","03:00","-0.6","","-3.3","","82","","","M","11","","27","","","M","100.30","","","","-7","","NA"
"-90.73","63.35","CHESTERFIELD INLET A","2300710","2021-11-05 04:00","2021","11","05","04:00","-0.2","","-2.6","","84","","","M","12","","30","","","M","100.28","","","","-7","","NA"
"-90.73","63.35","CHESTERFIELD INLET A","2300710","2021-11-05 05:00","2021","11","05","05:00","0.0","","-2.3","","84","","","M","12","","26","","","M","100.27","","","","-6","","NA"
"-90.73","63.35","CHESTERFIELD INLET A","2300710","2021-11-05 06:00","2021","11","05","06:00","0.2","","-2.8","","80","","","M","13","","26","","","M","100.26","","","","","","NA"
"-90.73","63.35","CHESTERFIELD INLET A","2300710","2021-11-05 07:00","2021","11","05","07:00","0.0","","-3.2","","79","","","M","13","","25","","","M","100.28","","","","-6","","NA"
"-90.73","63.35","CHESTERFIELD INLET A","2300710","2021-11-05 08:00","2021","11","05","08:00","-0.1","","-3.9","","75","","","M","13","","22","","","M","100.26","","","","-6","","NA"
"-90.73","63.35","CHESTERFIELD INLET A","2300710","2021-11-05 09:00","2021","11","05","09:00","-0.4","","-2.7","","84","","","M","13","","26","","","M","100.26","","","","-7","","NA"
"-90.73","63.35","CHESTERFIELD INLET A","2300710","2021-11-05 10:00","2021","11","05","10:00","-0.4","","-3.2","","81","","","M","14","","28","","","M","100.24","","","","-7","","NA"
"-90.73","63.35","CHESTERFIELD INLET A","2300710","2021-11-05 11:00","2021","11","05","11:00","-0.6","","-2.6","","86","","","M","12","","21","","","M","100.20","","","","-6","","NA"
"-90.73","63.35","CHESTERFIELD INLET A","2300710","2021-11-05 12:00","2021","11","05","12:00","-0.3","","-2.7","","84","","","M","14","","25","","","M","100.19","","","","-6","","NA"
"-90.73","63.35","CHESTERFIELD INLET A","2300710","2021-11-05 13:00","2021","11","05","13:00","-0.2","","-2.5","","85","","","M","14","","18","","","M","100.21","","","","-5","","NA"
"-90.73","63.35","CHESTERFIELD INLET A","2300710","2021-11-05 14:00","2021","11","05","14:00","0.0","","-2.8","","82","","","M","14","","15","","","M","100.20","","","","-4","","NA"
"-90.73","63.35","CHESTERFIELD INLET A","2300710","2021-11-05 15:00","2021","11","05","15:00","-0.1","","-2.2","","86","","","M","14","","15","","","M","100.22","","","","-5","","NA"
"-90.73","63.35","CHESTERFIELD INLET A","2300710","2021-11-05 16:00","2021","11","05","16:00","-0.2","","-2.2","","86","","","M","13","","15","","","M","100.21","","","","-5","","NA"
"-90.73","63.35","CHESTERFIELD INLET A","2300710","2021-11-05 17:00","2021","11","05","17:00","-0.2","","-1.4","","92","","","M","11","","20","","","M","100.25","","","","-5","","NA"
"-90.73","63.35","CHESTERFIELD INLET A","2300710","2021-11-05 18:00","2021","11","05","18:00","-0.1","","-0.8","","95","","","M","10","","19","","","M","100.24","","","","-5","","NA"
"-90.73","63.35","CHESTERFIELD INLET A","2300710","2021-11-05 19:00","2021","11","05","19:00","-0.5","","-1.4","","94","","","M","16","","10","","","M","100.26","","","","-4","","NA"
"-90.73","63.35","CHESTERFIELD INLET A","2300710","2021-11-05 20:00","2021","11","05","20:00","0.1","","-1.2","","91","","","M","15","","17","","","M","100.28","","","","","","NA"
"-90.73","63.35","CHESTERFIELD INLET A","2300710","2021-11-05 21:00","2021","11","05","21:00","0.1","","-1.2","","92","","","M","14","","18","","","M","100.32","","","","","","NA"
"-90.73","63.35","CHESTERFIELD INLET A","2300710","2021-11-05 22:00","2021","11","05","22:00","0.0","","-1.3","","91","","","M","13","","25","","","M","100.38","","","","-6","","NA"
"-90.73","63.35","CHESTERFIELD INLET A","2300710","2021-11-05 23:00","2021","11","05","23:00","-0.1","","-1.5","","91","","","M","14","","22","","","M","100.42","","","","-6","","NA"
"-90.73","63.35","CHESTERFIELD INLET A","2300710","2021-11-06 00:00","2021","11","06","00:00","-0.3","","-1.6","","91","","","M","13","","19","","","M","100.47","","","","-5","","NA"
"-90.73","63.35","CHESTERFIELD INLET A","2300710","2021-11-06 01:00","2021","11","06","01:00","-0.1","","-3.0","","81","","","M","14","","22","","","M","100.52","","","","-6","","NA"
"-90.73","63.35","CHESTERFIELD INLET A","2300710","2021-11-06 02:00","2021","11","06","02:00","-0.2","","-3.6","","78","","","M","13","","21","","","M","100.58","","","","-6","","NA"
"-90.73","63.35","CHESTERFIELD INLET A","2300710","2021-11-06 03:00","2021","11","06","03:00","-0.4","","-4.1","","76","","","M","14","","21","","","M","100.64","","","","-6","","NA"
"-90.73","63.35","CHESTERFIELD INLET A","2300710","2021-11-06 04:00","2021","11","06","04:00","-0.4","","-3.8","","78","","","M","13","","16","","","M","100.68","","","","-5","","NA"
"-90.73","63.35","CHESTERFIELD INLET A","2300710","2021-11-06 05:00","2021","11","06","05:00","-0.8","","-4.3","","77","","","M","11","","19","","","M","100.70","","","","-6","","NA"
"-90.73","63.35","CHESTERFIELD INLET A","2300710","2021-11-06 06:00","2021","11","06","06:00","-0.8","","-4.3","","77","","","M","12","","19","","","M","100.75","","","","-6","","NA"
"-90.73","63.35","CHESTERFIELD INLET A","2300710","2021-11-06 07:00","2021","11","06","07:00","-0.9","","-4.6","","76","","","M","11","","22","","","M","100.77","","","","-7","","NA"
"-90.73","63.35","CHESTERFIELD INLET A","2300710","2021-11-06 08:00","2021","11","06","08:00","-1.1","","-5.0","","75","","","M","11","","24","","","M","100.81","","","","-7","","NA"
"-90.73","63.35","CHESTERFIELD INLET A","2300710","2021-11-06 09:00","2021","11","06","09:00","-1.1","","-5.2","","74","","","M","11","","22","","","M","100.85","","","","-7","","NA"
"-90.73","63.35","CHESTERFIELD INLET A","2300710","2021-11-06 10:00","2021","11","06","10:00","-1.4","","-5.7","","73","","","M","11","","21","","","M","100.89","","","","-7","","NA"
"-90.73","63.35","CHESTERFIELD INLET A","2300710","2021-11-06 11:00","2021","11","06","11:00","-1.4","","-6.0","","71","","","M","12","","21","","","M","100.91","","","","-7","","NA"
"-90.73","63.35","CHESTERFIELD INLET A","2300710","2021-11-06 12:00","2021","11","06","12:00","-1.6","","-6.1","","72","","","M","13","","16","","","M","100.94","","","","-7","","NA"
"-90.73","63.35","CHESTERFIELD INLET A","2300710","2021-11-06 13:00","2021","11","06","13:00","-1.6","","-6.1","","72","","","M","11","","17","","","M","100.95","","","","-7","","NA"
"-90.73","63.35","CHESTERFIELD INLET A","2300710","2021-11-06 14:00","2021","11","06","14:00","-1.8","","-6.4","","71","","","M","9","","10","","","M","100.95","","","","-5","","NA"
"-90.73","63.35","CHESTERFIELD INLET A","2300710","2021-11-06 15:00","2021","11","06","15:00","-1.8","","-6.2","","72","","","M","10","","9","","","M","100.98","","","","-5","","NA"
"-90.73","63.35","CHESTERFIELD INLET A","2300710","2021-11-06 16:00","2021","11","06","16:00","-2.1","","-6.8","","70","","","M","9","","10","","","M","101.00","","","","-6","","NA"
"-90.73","63.35","CHESTERFIELD INLET A","2300710","2021-11-06 17:00","2021","11","06","17:00","-2.5","","-6.3","","75","","","M","12","","12","","","M","101.03","","","","-7","","NA"
"-90.73","63.35","CHESTERFIELD INLET A","2300710","2021-11-06 18:00","2021","11","06","18:00","-2.2","","-4.1","","87","","","M","9","","9","","","M","101.04","","","","-6","","NA"
"-90.73","63.35","CHESTERFIELD INLET A","2300710","2021-11-06 19:00","2021","11","06","19:00","-1.8","","-2.6","","94","","","M","7","","15","","","M","101.02","","","","-7","","NA"
"-90.73","63.35","CHESTERFIELD INLET A","2300710","2021-11-06 20:00","2021","11","06","20:00","-0.7","","-1.2","","97","","","M","9","","22","","","M","100.99","","","","-6","","NA"
"-90.73","63.35","CHESTERFIELD INLET A","2300710","2021-11-06 21:00","2021","11","06","21:00","0.1","","-2.1","","85","","","M","13","","32","","","M","101.00","","","","","","NA"
"-90.73","63.35","CHESTERFIELD INLET A","2300710","2021-11-06 22:00","2021","11","06","22:00","-0.5","","-1.5","","93","","","M","13","","30","","","M","101.02","","","","-7","","NA"
"-90.73","63.35","CHESTERFIELD INLET A","2300710","2021-11-06 23:00","2021","11","06","23:00","-0.4","","-2.1","","89","","","M","13","","30","","","M","101.03","","","","-7","","NA"
"-90.73","63.35","CHESTERFIELD INLET A","2300710","2021-11-07 00:00","2021","11","07","00:00","-0.1","","-3.1","","80","","","M","12","","29","","","M","101.04","","","","-6","","NA"
"-90.73","63.35","CHESTERFIELD INLET A","2300710","2021-11-07 01:00","2021","11","07","01:00","-0.1","","-2.8","","82","","","M","13","","27","","","M","101.05","","","","-6","","NA"
"-90.73","63.35","CHESTERFIELD INLET A","2300710","2021-11-07 02:00","2021","11","07","02:00","0.0","","-2.9","","81","","","M","13","","24","","","M","101.07","","","","-6","","NA"
"-90.73","63.35","CHESTERFIELD INLET A","2300710","2021-11-07 03:00","2021","11","07","03:00","0.1","","-2.9","","80","","","M","13","","25","","","M","101.08","","","","","","NA"
"-90.73","63.35","CHESTERFIELD INLET A","2300710","2021-11-07 04:00","2021","11","07","04:00","0.1","","-1.4","","90","","","M","12","","29","","","M","101.07","","","","","","NA"
"-90.73","63.35","CHESTERFIELD INLET A","2300710","2021-11-07 05:00","2021","11","07","05:00","0.1","","-1.4","","90","","","M","12","","26","","","M","101.06","","","","","","NA"
"-90.73","63.35","CHESTERFIELD INLET A","2300710","2021-11-07 06:00","2021","11","07","06:00","0.2","","-1.1","","91","","","M","11","","27","","","M","101.06","","","","","","NA"
"-90.73","63.35","CHESTERFIELD INLET A","2300710","2021-11-07 07:00","2021","11","07","07:00","0.1","","-0.6","","95","","","M","11","","27","","","M","101.08","","","","","","NA"
"-90.73","63.35","CHESTERFIELD INLET A","2300710","2021-11-07 08:00","2021","11","07","08:00","0.1","","-0.5","","95","","","M","10","","26","","","M","101.08","","","","","","NA"
"-90.73","63.35","CHESTERFIELD INLET A","2300710","2021-11-07 09:00","2021","11","07","09:00","0.2","","-1.9","","86","","","M","10","","31","","","M","101.07","","","","","","NA"
"-90.73","63.35","CHESTERFIELD INLET A","2300710","2021-11-07 10:00","2021","11","07","10:00","0.1","","-0.9","","93","","","M","9","","27","","","M","101.07","","","","","","NA"
"-90.73","63.35","CHESTERFIELD INLET A","2300710","2021-11-07 11:00","2021","11","07","11:00","0.7","","-0.2","","94","","","M","10","","17","","","M","101.06","","","","","","NA"
"-90.73","63.35","CHESTERFIELD INLET A","2300710","2021-11-07 12:00","2021","11","07","12:00","0.4","","-0.4","","94","","","M","16","","31","","","M","101.06","","","","","","NA"
"-90.73","63.35","CHESTERFIELD INLET A","2300710","2021-11-07 13:00","2021","11","07","13:00","0.4","","-1.7","","86","","","M","14","","39","","","M","101.09","","","","","","NA"
"-90.73","63.35","CHESTERFIELD INLET A","2300710","2021-11-07 14:00","2021","11","07","14:00","0.5","","-2.6","","80","","","M","14","","28","","","M","101.11","","","","","","NA"
"-90.73","63.35","CHESTERFIELD INLET A","2300710","2021-11-07 15:00","2021","11","07","15:00","0.4","","-3.5","","75","","","M","14","","30","","","M","101.13","","","","","","NA"
"-90.73","63.35","CHESTERFIELD INLET A","2300710","2021-11-07 16:00","2021","11","07","16:00","0.4","","-3.3","","76","","","M","13","","28","","","M","101.15","","","","","","NA"
"-90.73","63.35","CHESTERFIELD INLET A","2300710","2021-11-07 17:00","2021","11","07","17:00","0.2","","-3.1","","79","","","M","12","","27","","","M","101.16","","","","","","NA"
"-90.73","63.35","CHESTERFIELD INLET A","2300710","2021-11-07 18:00","2021","11","07","18:00","-0.2","","-2.7","","83","","","M","12","","33","","","M","101.16","","","","-7","","NA"
"-90.73","63.35","CHESTERFIELD INLET A","2300710","2021-11-07 19:00","2021","11","07","19:00","-0.2","","-4.0","","76","","","M","13","","36","","","M","101.16","","","","-7","","NA"
"-90.73","63.35","CHESTERFIELD INLET A","2300710","2021-11-07 20:00","2021","11","07","20:00","-0.3","","-3.2","","81","","","M","13","","38","","","M","101.14","","","","-8","","NA"
"-90.73","63.35","CHESTERFIELD INLET A","2300710","2021-11-07 21:00","2021","11","07","21:00","-0.8","","-3.2","","83","","","M","12","","36","","","M","101.14","","","","-8","","NA"
"-90.73","63.35","CHESTERFIELD INLET A","2300710","2021-11-07 22:00","2021","11","07","22:00","-0.7","","-3.4","","82","","","M","11","","37","","","M","101.11","","","","-8","","NA"
"-90.73","63.35","CHESTERFIELD INLET A","2300710","2021-11-07 23:00","2021","11","07","23:00","-0.9","","-3.2","","85","","","M","11","","42","","","M","101.12","","","","-9","","NA"
"-90.73","63.35","CHESTERFIELD INLET A","2300710","2021-11-08 00:00","2021","11","08","00:00","-1.0","","-4.1","","80","","","M","11","","35","","","M","101.11","","","","-8","","NA"
"-90.73","63.35","CHESTERFIELD INLET A","2300710","2021-11-08 01:00","2021","11","08","01:00","-0.8","","-5.1","","72","","","M","11","","35","","","M","101.08","","","","-8","","NA"
"-90.73","63.35","CHESTERFIELD INLET A","2300710","2021-11-08 02:00","2021","11","08","02:00","-1.0","","-3.6","","82","","","M","10","","38","","","M","101.04","","","","-9","","NA"
"-90.73","63.35","CHESTERFIELD INLET A","2300710","2021-11-08 03:00","2021","11","08","03:00","-0.8","","-3.9","","80","","","M","10","","34","","","M","101.02","","","","-8","","NA"
"-90.73","63.35","CHESTERFIELD INLET A","2300710","2021-11-08 04:00","2021","11","08","04:00","-0.7","","-4.5","","75","","","M","11","","34","","","M","100.97","","","","-8","","NA"
"-90.73","63.35","CHESTERFIELD INLET A","2300710","2021-11-08 05:00","2021","11","08","05:00","-0.6","","-4.5","","75","","","M","10","","28","","","M","100.93","","","","-7","","NA"
"-90.73","63.35","CHESTERFIELD INLET A","2300710","2021-11-08 06:00","2021","11","08","06:00","-0.4","","-4.0","","76","","","M","11","","30","","","M","100.90","","","","-7","","NA"
"-90.73","63.35","CHESTERFIELD INLET A","2300710","2021-11-08 07:00","2021","11","08","07:00","-0.3","","-4.1","","76","","","M","11","","38","","","M","100.88","","","","-8","","NA"
"-90.73","63.35","CHESTERFIELD INLET A","2300710","2021-11-08 08:00","2021","11","08","08:00","-0.6","","-2.7","","86","","","M","11","","36","","","M","100.88","","","","-8","","NA"
"-90.73","63.35","CHESTERFIELD INLET A","2300710","2021-11-08 09:00","2021","11","08","09:00","-0.9","","-2.5","","89","","","M","10","","28","","","M","100.86","","","","-7","","NA"
"-90.73","63.35","CHESTERFIELD INLET A","2300710","2021-11-08 10:00","2021","11","08","10:00","-0.4","","-2.2","","88","","","M","10","","35","","","M","100.83","","","","-7","","NA"
"-90.73","63.35","CHESTERFIELD INLET A","2300710","2021-11-08 11:00","2021","11","08","11:00","-0.2","","-1.5","","91","","","M","10","","36","","","M","100.81","","","","-7","","NA"
"-90.73","63.35","CHESTERFIELD INLET A","2300710","2021-11-08 12:00","2021","11","08","12:00","-0.7","","-1.7","","93","","","M","12","","35","","","M","100.81","","","","-8","","NA"
"-90.73","63.35","CHESTERFIELD INLET A","2300710","2021-11-08 13:00","2021","11","08","13:00","-0.1","","-2.4","","84","","","M","12","","31","","","M","100.79","","","","-7","","NA"
"-90.73","63.35","CHESTERFIELD INLET A","2300710","2021-11-08 14:00","2021","11","08","14:00","0.0","","-2.1","","86","","","M","10","","39","","","M","100.80","","","","-7","","NA"
"-90.73","63.35","CHESTERFIELD INLET A","2300710","2021-11-08 15:00","2021","11","08","15:00","-0.3","","-1.9","","89","","","M","11","","38","","","M","100.78","","","","-8","","NA"
"-90.73","63.35","CHESTERFIELD INLET A","2300710","2021-11-08 16:00","2021","11","08","16:00","-0.2","","-1.7","","90","","","M","11","","34","","","M","100.79","","","","-7","","NA"
"-90.73","63.35","CHESTERFIELD INLET A","2300710","2021-11-08 17:00","2021","11","08","17:00","-0.1","","-3.2","","79","","","M","10","","40","","","M","100.79","","","","-8","","NA"
"-90.73","63.35","CHESTERFIELD INLET A","2300710","2021-11-08 18:00","2021","11","08","18:00","-0.3","","-3.0","","82","","","M","10","","37","","","M","100.81","","","","-8","","NA"
"-90.73","63.35","CHESTERFIELD INLET A","2300710","2021-11-08 19:00","2021","11","08","19:00","-0.8","","-1.6","","94","","","M","12","","38","","","M","100.81","","","","-8","","NA"
"-90.73","63.35","CHESTERFIELD INLET A","2300710","2021-11-08 20:00","2021","11","08","20:00","-0.3","","-2.1","","87","","","M","9","","28","","","M","100.81","","","","-7","","NA"
"-90.73","63.35","CHESTERFIELD INLET A","2300710","2021-11-08 21:00","2021","11","08","21:00","-0.4","","-2.3","","87","","","M","9","","28","","","M","100.81","","","","-7","","NA"
"-90.73","63.35","CHESTERFIELD INLET A","2300710","2021-11-08 22:00","2021","11","08","22:00","-0.6","","-1.6","","93","","","M","9","","41","","","M","100.79","","","","-8","","NA"
"-90.73","63.35","CHESTERFIELD INLET A","2300710","2021-11-08 23:00","2021","11","08","23:00","-0.5","","-1.8","","91","","","M","8","","36","","","M","100.82","","","","-8","","NA"
"-90.73","63.35","CHESTERFIELD INLET A","2300710","2021-11-09 00:00","2021","11","09","00:00","-0.6","","-1.6","","93","","","M","9","","33","","","M","100.84","","","","-8","","NA"
"-90.73","63.35","CHESTERFIELD INLET A","2300710","2021-11-09 01:00","2021","11","09","01:00","-0.2","","-2.8","","82","","","M","8","","39","","","M","100.84","","","","-8","","NA"
"-90.73","63.35","CHESTERFIELD INLET A","2300710","2021-11-09 02:00","2021","11","09","02:00","-0.2","","-3.1","","81","","","M","8","","40","","","M","100.88","","","","-8","","NA"
"-90.73","63.35","CHESTERFIELD INLET A","2300710","2021-11-09 03:00","2021","11","09","03:00","-0.2","","-4.2","","74","","","M","8","","38","","","M","100.93","","","","-7","","NA"
"-90.73","63.35","CHESTERFIELD INLET A","2300710","2021-11-09 04:00","2021","11","09","04:00","-0.7","","-3.0","","85","","","M","7","","35","","","M","100.99","","","","-8","","NA"
"-90.73","63.35","CHESTERFIELD INLET A","2300710","2021-11-09 05:00","2021","11","09","05:00","-1.1","","-4.7","","76","","","M","7","","34","","","M","101.03","","","","-8","","NA"
"-90.73","63.35","CHESTERFIELD INLET A","2300710","2021-11-09 06:00","2021","11","09","06:00","-1.3","","-3.7","","84","","","M","8","","35","","","M","101.09","","","","-9","","NA"
"-90.73","63.35","CHESTERFIELD INLET A","2300710","2021-11-09 07:00","2021","11","09","07:00","-1.8","","-4.2","","84","","","M","7","","34","","","M","101.13","","","","-9","","NA"
"-90.73","63.35","CHESTERFIELD INLET A","2300710","2021-11-09 08:00","2021","11","09","08:00","-2.2","","-5.1","","80","","","M","7","","27","","","M","101.18","","","","-9","","NA"
"-90.73","63.35","CHESTERFIELD INLET A","2300710","2021-11-09 09:00","2021","11","09","09:00","-2.2","","-5.1","","81","","","M","6","","29","","","M","101.22","","","","-9","","NA"
"-90.73","63.35","CHESTERFIELD INLET A","2300710","2021-11-09 10:00","2021","11","09","10:00","-1.9","","-5.5","","76","","","M","6","","24","","","M","101.28","","","","-8","","NA"
"-90.73","63.35","CHESTERFIELD INLET A","2300710","2021-11-09 11:00","2021","11","09","11:00","-2.0","","-5.5","","77","","","M","5","","24","","","M","101.32","","","","-8","","NA"
"-90.73","63.35","CHESTERFIELD INLET A","2300710","2021-11-09 12:00","2021","11","09","12:00","-2.5","","-4.0","","89","","","M","2","","31","","","M","101.37","","","","-10","","NA"
"-90.73","63.35","CHESTERFIELD INLET A","2300710","2021-11-09 13:00","2021","11","09","13:00","-3.3","","-4.2","","93","","","M","1","","31","","","M","101.42","","","","-11","","NA"
"-90.73","63.35","CHESTERFIELD INLET A","2300710","2021-11-09 14:00","2021","11","09","14:00","-3.6","","-4.6","","93","","","M","2","","26","","","M","101.49","","","","-11","","NA"
"-90.73","63.35","CHESTERFIELD INLET A","2300710","2021-11-09 15:00","2021","11","09","15:00","-4.7","","-5.8","","91","","","M","36","","28","","","M","101.57","","","","-12","","NA"
"-90.73","63.35","CHESTERFIELD INLET A","2300710","2021-11-09 16:00","2021","11","09","16:00","-5.4","","-6.3","","94","","","M","36","","26","","","M","101.62","","","","-13","","NA"
"-90.73","63.35","CHESTERFIELD INLET A","2300710","2021-11-09 17:00","2021","11","09","17:00","-5.9","","-7.2","","90","","","M","36","","26","","","M","101.66","","","","-14","","NA"
"-90.73","63.35","CHESTERFIELD INLET A","2300710","2021-11-09 18:00","2021","11","09","18:00","-6.4","","-8.0","","88","","","M","36","","24","","","M","101.68","","","","-14","","NA"
"-90.73","63.35","CHESTERFIELD INLET A","2300710","2021-11-09 19:00","2021","11","09","19:00","-6.6","","-8.2","","88","","","M","35","","22","","","M","101.68","","","","-14","","NA"
"-90.73","63.35","CHESTERFIELD INLET A","2300710","2021-11-09 20:00","2021","11","09","20:00","-6.5","","-8.1","","89","","","M","35","","21","","","M","101.74","","","","-14","","NA"
"-90.73","63.35","CHESTERFIELD INLET A","2300710","2021-11-09 21:00","2021","11","09","21:00","-6.8","","-8.4","","88","","","M","36","","22","","","M","101.74","","","","-14","","NA"
"-90.73","63.35","CHESTERFIELD INLET A","2300710","2021-11-09 22:00","2021","11","09","22:00","-6.7","","-8.4","","88","","","M","36","","18","","","M","101.78","","","","-13","","NA"
"-90.73","63.35","CHESTERFIELD INLET A","2300710","2021-11-09 23:00","2021","11","09","23:00","-6.6","","-8.2","","89","","","M","1","","17","","","M","101.80","","","","-13","","NA"
"-90.73","63.35","CHESTERFIELD INLET A","2300710","2021-11-10 00:00","2021","11","10","00:00","-6.4","","-8.0","","89","","","M","36","","22","","","M","101.85","","","","-14","","NA"
"-90.73","63.35","CHESTERFIELD INLET A","2300710","2021-11-10 01:00","2021","11","10","01:00","-6.3","","-8.1","","88","","","M","36","","18","","","M","101.87","","","","-13","","NA"
"-90.73","63.35","CHESTERFIELD INLET A","2300710","2021-11-10 02:00","2021","11","10","02:00","-7.0","","-8.8","","87","","","M","34","","20","","","M","101.92","","","","-14","","NA"
"-90.73","63.35","CHESTERFIELD INLET A","2300710","2021-11-10 03:00","2021","11","10","03:00","-7.3","","-8.8","","89","","","M","35","","23","","","M","101.97","","","","-15","","NA"
"-90.73","63.35","CHESTERFIELD INLET A","2300710","2021-11-10 04:00","2021","11","10","04:00","-7.2","","-8.6","","90","","","M","35","","18","","","M","102.00","","","","-14","","NA"
"-90.73","63.35","CHESTERFIELD INLET A","2300710","2021-11-10 05:00","2021","11","10","05:00","-7.2","","-8.9","","88","","","M","1","","26","","","M","102.03","","","","-15","","NA"
"-90.73","63.35","CHESTERFIELD INLET A","2300710","2021-11-10 06:00","2021","11","10","06:00","-7.7","","-9.3","","88","","","M","36","","23","","","M","102.07","","","","-15","","NA"
"-90.73","63.35","CHESTERFIELD INLET A","2300710","2021-11-10 07:00","2021","11","10","07:00","-7.7","","-9.8","","85","","","M","36","","23","","","M","102.09","","","","-15","","NA"
"-90.73","63.35","CHESTERFIELD INLET A","2300710","2021-11-10 08:00","2021","11","10","08:00","-8.7","","-10.9","","84","","","M","36","","26","","","M","102.11","","","","-17","","NA"
"-90.73","63.35","CHESTERFIELD INLET A","2300710","2021-11-10 09:00","2021","11","10","09:00","-8.7","","-10.9","","84","","","M","35","","26","","","M","102.14","","","","-17","","NA"
"-90.73","63.35","CHESTERFIELD INLET A","2300710","2021-11-10 10:00","2021","11","10","10:00","-9.3","","-11.4","","85","","","M","35","","25","","","M","102.19","","","","-18","","NA"
"-90.73","63.35","CHESTERFIELD INLET A","2300710","2021-11-10 11:00","2021","11","10","11:00","-9.8","","-11.4","","88","","","M","36","","27","","","M","102.23","","","","-19","","NA"
"-90.73","63.35","CHESTERFIELD INLET A","2300710","2021-11-10 12:00","2021","11","10","12:00","-8.5","","-10.3","","87","","","M","1","","25","","","M","102.28","","","","-17","","NA"
"-90.73","63.35","CHESTERFIELD INLET A","2300710","2021-11-10 13:00","2021","11","10","13:00","-8.8","","-10.9","","85","","","M","1","","32","","","M","102.34","","","","-18","","NA"
"-90.73","63.35","CHESTERFIELD INLET A","2300710","2021-11-10 14:00","2021","11","10","14:00","-9.1","","-11.2","","85","","","M","1","","27","","","M","102.41","","","","-18","","NA"
"-90.73","63.35","CHESTERFIELD INLET A","2300710","2021-11-10 15:00","2021","11","10","15:00","-9.8","","-11.7","","86","","","M","36","","28","","","M","102.48","","","","-19","","NA"
"-90.73","63.35","CHESTERFIELD INLET A","2300710","2021-11-10 16:00","2021","11","10","16:00","-9.3","","-10.8","","89","","","M","36","","34","","","M","102.55","","","","-19","","NA"
"-90.73","63.35","CHESTERFIELD INLET A","2300710","2021-11-10 17:00","2021","11","10","17:00","-9.3","","-10.8","","89","","","M","1","","28","","","M","102.64","","","","-18","","NA"
"-90.73","63.35","CHESTERFIELD INLET A","2300710","2021-11-10 18:00","2021","11","10","18:00","-9.7","","-11.4","","87","","","M","1","","34","","","M","102.68","","","","-20","","NA"
"-90.73","63.35","CHESTERFIELD INLET A","2300710","2021-11-10 19:00","2021","11","10","19:00","-9.5","","-11.3","","87","","","M","1","","27","","","M","102.74","","","","-18","","NA"
"-90.73","63.35","CHESTERFIELD INLET A","2300710","2021-11-10 20:00","2021","11","10","20:00","-9.4","","-11.2","","87","","","M","2","","28","","","M","102.78","","","","-18","","NA"
"-90.73","63.35","CHESTERFIELD INLET A","2300710","2021-11-10 21:00","2021","11","10","21:00","-9.3","","-10.6","","90","","","M","1","","27","","","M","102.81","","","","-18","","NA"
"-90.73","63.35","CHESTERFIELD INLET A","2300710","2021-11-10 22:00","2021","11","10","22:00","-10.5","","-12.0","","89","","","M","1","","30","","","M","102.87","","","","-20","","NA"
"-90.73","63.35","CHESTERFIELD INLET A","2300710","2021-11-10 23:00","2021","11","10","23:00","-10.4","","-11.6","","90","","","M","1","","26","","","M","102.93","","","","-19","","NA"
"-90.73","63.35","CHESTERFIELD INLET A","2300710","2021-11-11 00:00","2021","11","11","00:00","-10.6","","-12.1","","89","","","M","1","","26","","","M","103.01","","","","-20","","NA"
"-90.73","63.35","CHESTERFIELD INLET A","2300710","2021-11-11 01:00","2021","11","11","01:00","-11.1","","-12.5","","89","","","M","1","","25","","","M","103.04","","","","-20","","NA"
"-90.73","63.35","CHESTERFIELD INLET A","2300710","2021-11-11 02:00","2021","11","11","02:00","-10.9","","-12.3","","89","","","M","1","","26","","","M","103.09","","","","-20","","NA"
"-90.73","63.35","CHESTERFIELD INLET A","2300710","2021-11-11 03:00","2021","11","11","03:00","-11.7","","-13.4","","87","","","M","1","","27","","","M","103.14","","","","-21","","NA"
"-90.73","63.35","CHESTERFIELD INLET A","2300710","2021-11-11 04:00","2021","11","11","04:00","-11.6","","-13.6","","86","","","M","1","","24","","","M","103.17","","","","-21","","NA"
"-90.73","63.35","CHESTERFIELD INLET A","2300710","2021-11-11 05:00","2021","11","11","05:00","-12.2","","-14.3","","84","","","M","36","","23","","","M","103.23","","","","-21","","NA"
"-90.73","63.35","CHESTERFIELD INLET A","2300710","2021-11-11 06:00","2021","11","11","06:00","-11.9","","-13.9","","85","","","M","1","","25","","","M","103.29","","","","-21","","NA"
"-90.73","63.35","CHESTERFIELD INLET A","2300710","2021-11-11 07:00","2021","11","11","07:00","-12.5","","-14.7","","84","","","M","36","","27","","","M","103.28","","","","-22","","NA"
"-90.73","63.35","CHESTERFIELD INLET A","2300710","2021-11-11 08:00","2021","11","11","08:00","-12.3","","-14.4","","84","","","M","1","","21","","","M","103.34","","","","-21","","NA"
"-90.73","63.35","CHESTERFIELD INLET A","2300710","2021-11-11 09:00","2021","11","11","09:00","-11.6","","-13.6","","86","","","M","36","","21","","","M","103.39","","","","-20","","NA"
"-90.73","63.35","CHESTERFIELD INLET A","2300710","2021-11-11 10:00","2021","11","11","10:00","-11.3","","-13.2","","86","","","M","35","","22","","","M","103.40","","","","-20","","NA"
"-90.73","63.35","CHESTERFIELD INLET A","2300710","2021-11-11 11:00","2021","11","11","11:00","-10.8","","-12.2","","90","","","M","35","","21","","","M","103.44","","","","-19","","NA"
"-90.73","63.35","CHESTERFIELD INLET A","2300710","2021-11-11 12:00","2021","11","11","12:00","-9.9","","-11.2","","91","","","M","36","","19","","","M","103.47","","","","-18","","NA"
"-90.73","63.35","CHESTERFIELD INLET A","2300710","2021-11-11 13:00","2021","11","11","13:00","-9.7","","-11.4","","88","","","M","36","","21","","","M","103.51","","","","-18","","NA"
"-90.73","63.35","CHESTERFIELD INLET A","2300710","2021-11-11 14:00","2021","11","11","14:00","-10.1","","-12.0","","87","","","M","36","","22","","","M","103.55","","","","-18","","NA"
"-90.73","63.35","CHESTERFIELD INLET A","2300710","2021-11-11 15:00","2021","11","11","15:00","-10.6","","-12.4","","87","","","M","34","","13","","","M","103.60","","","","-17","","NA"
"-90.73","63.35","CHESTERFIELD INLET A","2300710","2021-11-11 16:00","2021","11","11","16:00","-11.8","","-13.8","","85","","","M","35","","14","","","M","103.62","","","","-19","","NA"
"-90.73","63.35","CHESTERFIELD INLET A","2300710","2021-11-11 17:00","2021","11","11","17:00","-12.1","","-14.6","","82","","","M","34","","14","","","M","103.67","","","","-19","","NA"
"-90.73","63.35","CHESTERFIELD INLET A","2300710","2021-11-11 18:00","2021","11","11","18:00","-14.6","","-16.5","","86","","","M","28","","16","","","M","103.70","","","","-23","","NA"
"-90.73","63.35","CHESTERFIELD INLET A","2300710","2021-11-11 19:00","2021","11","11","19:00","-14.9","","-16.7","","86","","","M","28","","17","","","M","103.72","","","","-23","","NA"
"-90.73","63.35","CHESTERFIELD INLET A","2300710","2021-11-11 20:00","2021","11","11","20:00","-12.8","","-14.7","","86","","","M","27","","19","","","M","103.69","","","","-21","","NA"
"-90.73","63.35","CHESTERFIELD INLET A","2300710","2021-11-11 21:00","2021","11","11","21:00","-14.9","","-16.8","","86","","","M","27","","22","","","M","103.68","","","","-24","","NA"
"-90.73","63.35","CHESTERFIELD INLET A","2300710","2021-11-11 22:00","2021","11","11","22:00","-15.4","","-17.0","","88","","","M","28","","17","","","M","103.71","","","","-24","","NA"
"-90.73","63.35","CHESTERFIELD INLET A","2300710","2021-11-11 23:00","2021","11","11","23:00","-16.1","","-18.0","","85","","","M","26","","24","","","M","103.73","","","","-26","","NA"
"-90.73","63.35","CHESTERFIELD INLET A","2300710","2021-11-12 00:00","2021","11","12","00:00","-16.8","","-18.4","","88","","","M","28","","24","","","M","103.75","","","","-27","","NA"
"-90.73","63.35","CHESTERFIELD INLET A","2300710","2021-11-12 01:00","2021","11","12","01:00","-16.5","","-18.2","","87","","","M","28","","22","","","M","103.74","","","","-27","","NA"
"-90.73","63.35","CHESTERFIELD INLET A","2300710","2021-11-12 02:00","2021","11","12","02:00","-16.4","","-18.3","","86","","","M","28","","23","","","M","103.75","","","","-27","","NA"
"-90.73","63.35","CHESTERFIELD INLET A","2300710","2021-11-12 03:00","2021","11","12","03:00","-15.6","","-17.5","","85","","","M","28","","22","","","M","103.71","","","","-25","","NA"
"-90.73","63.35","CHESTERFIELD INLET A","2300710","2021-11-12 04:00","2021","11","12","04:00","-15.3","","-17.3","","85","","","M","29","","24","","","M","103.68","","","","-25","","NA"
"-90.73","63.35","CHESTERFIELD INLET A","2300710","2021-11-12 05:00","2021","11","12","05:00","-14.7","","-16.6","","86","","","M","29","","21","","","M","103.65","","","","-24","","NA"
"-90.73","63.35","CHESTERFIELD INLET A","2300710","2021-11-12 06:00","2021","11","12","06:00","-15.3","","-17.2","","85","","","M","29","","25","","","M","103.68","","","","-26","","NA"
"-90.73","63.35","CHESTERFIELD INLET A","2300710","2021-11-12 07:00","2021","11","12","07:00","-15.7","","-17.7","","85","","","M","29","","23","","","M","103.63","","","","-26","","NA"
"-90.73","63.35","CHESTERFIELD INLET A","2300710","2021-11-12 08:00","2021","11","12","08:00","-15.8","","-17.8","","84","","","M","29","","26","","","M","103.61","","","","-26","","NA"
"-90.73","63.35","CHESTERFIELD INLET A","2300710","2021-11-12 09:00","2021","11","12","09:00","-14.9","","-16.9","","85","","","M","28","","22","","","M","103.57","","","","-24","","NA"
"-90.73","63.35","CHESTERFIELD INLET A","2300710","2021-11-12 10:00","2021","11","12","10:00","-15.0","","-17.0","","85","","","M","29","","22","","","M","103.56","","","","-25","","NA"
"-90.73","63.35","CHESTERFIELD INLET A","2300710","2021-11-12 11:00","2021","11","12","11:00","-16.1","","-18.3","","84","","","M","28","","20","","","M","103.52","","","","-26","","NA"
"-90.73","63.35","CHESTERFIELD INLET A","2300710","2021-11-12 12:00","2021","11","12","12:00","-15.7","","-17.8","","84","","","M","28","","19","","","M","103.47","","","","-25","","NA"
"-90.73","63.35","CHESTERFIELD INLET A","2300710","2021-11-12 13:00","2021","11","12","13:00","-16.2","","-18.3","","84","","","M","28","","21","","","M","103.41","","","","-26","","NA"
"-90.73","63.35","CHESTERFIELD INLET A","2300710","2021-11-12 14:00","2021","11","12","14:00","-15.5","","-17.6","","84","","","M","28","","18","","","M","103.36","","","","-24","","NA"
"-90.73","63.35","CHESTERFIELD INLET A","2300710","2021-11-12 15:00","2021","11","12","15:00","-15.2","","-17.2","","85","","","M","28","","16","","","M","103.34","","","","-23","","NA"
"-90.73","63.35","CHESTERFIELD INLET A","2300710","2021-11-12 16:00","2021","11","12","16:00","-14.8","","-16.9","","85","","","M","28","","14","","","M","103.29","","","","-22","","NA"
"-90.73","63.35","CHESTERFIELD INLET A","2300710","2021-11-12 17:00","2021","11","12","17:00","-14.9","","-16.8","","85","","","M","28","","14","","","M","103.20","","","","-22","","NA"
"-90.73","63.35","CHESTERFIELD INLET A","2300710","2021-11-12 18:00","2021","11","12","18:00","-14.9","","-16.8","","85","","","M","28","","16","","","M","103.13","","","","-23","","NA"
"-90.73","63.35","CHESTERFIELD INLET A","2300710","2021-11-12 19:00","2021","11","12","19:00","-15.0","","-17.0","","85","","","M","27","","13","","","M","103.06","","","","-22","","NA"
"-90.73","63.35","CHESTERFIELD INLET A","2300710","2021-11-12 20:00","2021","11","12","20:00","-14.5","","-16.4","","86","","","M","29","","13","","","M","103.01","","","","-22","","NA"
"-90.73","63.35","CHESTERFIELD INLET A","2300710","2021-11-12 21:00","2021","11","12","21:00","-14.8","","-16.8","","85","","","M","28","","12","","","M","102.93","","","","-22","","NA"
"-90.73","63.35","CHESTERFIELD INLET A","2300710","2021-11-12 22:00","2021","11","12","22:00","-14.5","","-16.5","","85","","","M","28","","10","","","M","102.88","","","","-21","","NA"
"-90.73","63.35","CHESTERFIELD INLET A","2300710","2021-11-12 23:00","2021","11","12","23:00","-16.2","","-18.3","","84","","","M","28","","11","","","M","102.82","","","","-23","","NA"
"-90.73","63.35","CHESTERFIELD INLET A","2300710","2021-11-13 00:00","2021","11","13","00:00","-15.5","","-17.5","","85","","","M","30","","11","","","M","102.78","","","","-22","","NA"
"-90.73","63.35","CHESTERFIELD INLET A","2300710","2021-11-13 01:00","2021","11","13","01:00","-17.6","","-19.8","","83","","","M","28","","12","","","M","102.73","","","","-25","","NA"
"-90.73","63.35","CHESTERFIELD INLET A","2300710","2021-11-13 02:00","2021","11","13","02:00","-17.2","","-19.4","","83","","","M","28","","11","","","M","102.69","","","","-24","","NA"
"-90.73","63.35","CHESTERFIELD INLET A","2300710","2021-11-13 03:00","2021","11","13","03:00","-16.7","","-18.9","","83","","","M","29","","10","","","M","102.61","","","","-23","","NA"
"-90.73","63.35","CHESTERFIELD INLET A","2300710","2021-11-13 04:00","2021","11","13","04:00","-17.1","","-19.4","","83","","","M","29","","9","","","M","102.55","","","","-23","","NA"
"-90.73","63.35","CHESTERFIELD INLET A","2300710","2021-11-13 05:00","2021","11","13","05:00","-16.9","","-19.0","","83","","","M","30","","9","","","M","102.51","","","","-23","","NA"
"-90.73","63.35","CHESTERFIELD INLET A","2300710","2021-11-13 06:00","2021","11","13","06:00","-17.2","","-19.4","","83","","","M","29","","13","","","M","102.49","","","","-25","","NA"
"-90.73","63.35","CHESTERFIELD INLET A","2300710","2021-11-13 07:00","2021","11","13","07:00","-18.0","","-20.3","","83","","","M","30","","9","","","M","102.44","","","","-24","","NA"
"-90.73","63.35","CHESTERFIELD INLET A","2300710","2021-11-13 08:00","2021","11","13","08:00","-16.9","","-19.1","","83","","","M","30","","9","","","M","102.40","","","","-23","","NA"
"-90.73","63.35","CHESTERFIELD INLET A","2300710","2021-11-13 09:00","2021","11","13","09:00","-18.0","","-20.3","","82","","","M","29","","13","","","M","102.39","","","","-26","","NA"
"-90.73","63.35","CHESTERFIELD INLET A","2300710","2021-11-13 10:00","2021","11","13","10:00","-15.2","","-17.2","","85","","","M","30","","12","","","M","102.39","","","","-22","","NA"
"-90.73","63.35","CHESTERFIELD INLET A","2300710","2021-11-13 11:00","2021","11","13","11:00","-13.2","","-14.9","","87","","","M","30","","10","","","M","102.33","","","","-19","","NA"
"-90.73","63.35","CHESTERFIELD INLET A","2300710","2021-11-13 12:00","2021","11","13","12:00","-12.0","","-13.7","","88","","","M","29","","9","","","M","102.31","","","","-17","","NA"
"-90.73","63.35","CHESTERFIELD INLET A","2300710","2021-11-13 13:00","2021","11","13","13:00","-11.7","","-13.3","","88","","","M","35","","13","","","M","102.27","","","","-18","","NA"
"-90.73","63.35","CHESTERFIELD INLET A","2300710","2021-11-13 14:00","2021","11","13","14:00","-12.4","","-14.1","","87","","","M","1","","8","","","M","102.25","","","","-17","","NA"
"-90.73","63.35","CHESTERFIELD INLET A","2300710","2021-11-13 15:00","2021","11","13","15:00","-10.2","","-11.6","","90","","","M","36","","5","","","M","102.22","","","","-13","","NA"
"-90.73","63.35","CHESTERFIELD INLET A","2300710","2021-11-13 16:00","2021","11","13","16:00","-11.3","","-12.9","","88","","","M","28","","12","","","M","102.20","","","","-17","","NA"
"-90.73","63.35","CHESTERFIELD INLET A","2300710","2021-11-13 17:00","2021","11","13","17:00","-11.3","","-12.9","","88","","","M","29","","10","","","M","102.18","","","","-17","","NA"
"-90.73","63.35","CHESTERFIELD INLET A","2300710","2021-11-13 18:00","2021","11","13","18:00","-10.7","","-12.2","","89","","","M","29","","7","","","M","102.16","","","","-15","","NA"
"-90.73","63.35","CHESTERFIELD INLET A","2300710","2021-11-13 19:00","2021","11","13","19:00","-10.6","","-12.1","","89","","","M","11","","5","","","M","102.14","","","","-14","","NA"
"-90.73","63.35","CHESTERFIELD INLET A","2300710","2021-11-13 20:00","2021","11","13","20:00","-13.4","","-15.1","","87","","","M","27","","11","","","M","102.12","","","","-20","","NA"
"-90.73","63.35","CHESTERFIELD INLET A","2300710","2021-11-13 21:00","2021","11","13","21:00","-14.3","","-16.1","","86","","","M","30","","9","","","M","102.08","","","","-20","","NA"
"-90.73","63.35","CHESTERFIELD INLET A","2300710","2021-11-13 22:00","2021","11","13","22:00","-15.0","","-17.0","","85","","","M","30","","11","","","M","102.06","","","","-22","","NA"
"-90.73","63.35","CHESTERFIELD INLET A","2300710","2021-11-13 23:00","2021","11","13","23:00","-13.8","","-15.6","","86","","","M","30","","10","","","M","102.00","","","","-20","","NA"
"-90.73","63.35","CHESTERFIELD INLET A","2300710","2021-11-14 00:00","2021","11","14","00:00","-13.0","","-14.8","","87","","","M","30","","7","","","M","101.99","","","","-18","","NA"
"-90.73","63.35","CHESTERFIELD INLET A","2300710","2021-11-14 01:00","2021","11","14","01:00","-10.6","","-12.0","","90","","","M","3","","7","","","M","101.95","","","","-15","","NA"
"-90.73","63.35","CHESTERFIELD INLET A","2300710","2021-11-14 02:00","2021","11","14","02:00","-9.3","","-10.6","","91","","","M","35","","7","","","M","101.94","","","","-13","","NA"
"-90.73","63.35","CHESTERFIELD INLET A","2300710","2021-11-14 03:00","2021","11","14","03:00","-8.0","","-9.1","","92","","","M","1","","10","","","M","101.89","","","","-13","","NA"
"-90.73","63.35","CHESTERFIELD INLET A","2300710","2021-11-14 04:00","2021","11","14","04:00","-8.1","","-9.2","","92","","","M","32","","14","","","M","101.86","","","","-14","","NA"
"-90.73","63.35","CHESTERFIELD INLET A","2300710","2021-11-14 05:00","2021","11","14","05:00","-9.4","","-10.8","","90","","","M","29","","13","","","M","101.83","","","","-15","","NA"
"-90.73","63.35","CHESTERFIELD INLET A","2300710","2021-11-14 06:00","2021","11","14","06:00","-7.7","","-8.7","","92","","","M","35","","5","","","M","101.79","","","","-10","","NA"
"-90.73","63.35","CHESTERFIELD INLET A","2300710","2021-11-14 07:00","2021","11","14","07:00","-8.7","","-9.9","","91","","","M","29","","6","","","M","101.74","","","","-12","","NA"
"-90.73","63.35","CHESTERFIELD INLET A","2300710","2021-11-14 08:00","2021","11","14","08:00","-7.6","","-8.7","","92","","","M","30","","3","","","M","101.70","","","","-9","","NA"
"-90.73","63.35","CHESTERFIELD INLET A","2300710","2021-11-14 09:00","2021","11","14","09:00","-7.0","","-8.0","","93","","","M","25","","4","","","M","101.66","","","","-9","","NA"
"-90.73","63.35","CHESTERFIELD INLET A","2300710","2021-11-14 10:00","2021","11","14","10:00","-7.4","","-8.5","","92","","","M","26","","3","","","M","101.62","","","","-9","","NA"
"-90.73","63.35","CHESTERFIELD INLET A","2300710","2021-11-14 11:00","2021","11","14","11:00","-4.5","","-5.1","","95","","","M","18","","15","","","M","101.57","","","","-10","","NA"
"-90.73","63.35","CHESTERFIELD INLET A","2300710","2021-11-14 12:00","2021","11","14","12:00","-7.1","","-8.1","","93","","","M","23","","11","","","M","101.55","","","","-12","","NA"
"-90.73","63.35","CHESTERFIELD INLET A","2300710","2021-11-14 13:00","2021","11","14","13:00","-7.5","","-8.5","","92","","","M","23","","13","","","M","101.56","","","","-13","","NA"
"-90.73","63.35","CHESTERFIELD INLET A","2300710","2021-11-14 14:00","2021","11","14","14:00","-7.0","","-7.9","","93","","","M","20","","12","","","M","101.56","","","","-12","","NA"
"-90.73","63.35","CHESTERFIELD INLET A","2300710","2021-11-14 15:00","2021","11","14","15:00","-6.7","","-7.7","","93","","","M","19","","7","","","M","101.54","","","","-10","","NA"
"-90.73","63.35","CHESTERFIELD INLET A","2300710","2021-11-14 16:00","2021","11","14","16:00","-6.3","","-7.2","","93","","","M","12","","3","","","M","101.52","","","","-8","","NA"
"-90.73","63.35","CHESTERFIELD INLET A","2300710","2021-11-14 17:00","2021","11","14","17:00","-5.7","","-6.5","","94","","","M","10","","9","","","M","101.49","","","","-10","","NA"
"-90.73","63.35","CHESTERFIELD INLET A","2300710","2021-11-14 18:00","2021","11","14","18:00","-5.5","","-6.2","","95","","","M","11","","12","","","M","101.46","","","","-10","","NA"
"-90.73","63.35","CHESTERFIELD INLET A","2300710","2021-11-14 19:00","2021","11","14","19:00","-5.1","","-5.9","","94","","","M","17","","16","","","M","101.43","","","","-11","","NA"
"-90.73","63.35","CHESTERFIELD INLET A","2300710","2021-11-14 20:00","2021","11","14","20:00","-9.8","","-11.0","","91","","","M","21","","16","","","M","101.44","","","","-17","","NA"
"-90.73","63.35","CHESTERFIELD INLET A","2300710","2021-11-14 21:00","2021","11","14","21:00","-7.1","","-7.8","","95","","","M","20","","23","","","M","101.40","","","","-15","","NA"
"-90.73","63.35","CHESTERFIELD INLET A","2300710","2021-11-14 22:00","2021","11","14","22:00","-5.0","","-6.7","","88","","","M","17","","14","","","M","101.39","","","","-10","","NA"
"-90.73","63.35","CHESTERFIELD INLET A","2300710","2021-11-14 23:00","2021","11","14","23:00","-4.4","","-6.2","","88","","","M","17","","16","","","M","101.37","","","","-10","","NA"
"-90.73","63.35","CHESTERFIELD INLET A","2300710","2021-11-15 00:00","2021","11","15","00:00","-3.8","","-6.0","","85","","","M","18","","17","","","M","101.39","","","","-10","","NA"
"-90.73","63.35","CHESTERFIELD INLET A","2300710","2021-11-15 01:00","2021","11","15","01:00","-4.0","","-6.2","","85","","","M","18","","13","","","M","101.40","","","","-9","","NA"
"-90.73","63.35","CHESTERFIELD INLET A","2300710","2021-11-15 02:00","2021","11","15","02:00","-6.6","","-8.0","","90","","","M","19","","11","","","M","101.41","","","","-12","","NA"
"-90.73","63.35","CHESTERFIELD INLET A","2300710","2021-11-15 03:00","2021","11","15","03:00","-7.3","","-8.6","","90","","","M","17","","10","","","M","101.40","","","","-12","","NA"
"-90.73","63.35","CHESTERFIELD INLET A","2300710","2021-11-15 04:00","2021","11","15","04:00","-5.4","","-7.3","","87","","","M","23","","11","","","M","101.37","","","","-10","","NA"
"-90.73","63.35","CHESTERFIELD INLET A","2300710","2021-11-15 05:00","2021","11","15","05:00","-5.2","","-7.4","","84","","","M","19","","12","","","M","101.36","","","","-10","","NA"
"-90.73","63.35","CHESTERFIELD INLET A","2300710","2021-11-15 06:00","2021","11","15","06:00","-6.6","","-8.4","","87","","","M","16","","17","","","M","101.38","","","","-13","","NA"
"-90.73","63.35","CHESTERFIELD INLET A","2300710","2021-11-15 07:00","2021","11","15","07:00","-5.7","","-7.0","","91","","","M","17","","15","","","M","101.37","","","","-11","","NA"
"-90.73","63.35","CHESTERFIELD INLET A","2300710","2021-11-15 08:00","2021","11","15","08:00","-4.0","","-5.3","","90","","","M","15","","14","","","M","101.34","","","","-9","","NA"
"-90.73","63.35","CHESTERFIELD INLET A","2300710","2021-11-15 09:00","2021","11","15","09:00","-3.0","","-5.6","","82","","","M","16","","19","","","M","101.32","","","","-9","","NA"
"-90.73","63.35","CHESTERFIELD INLET A","2300710","2021-11-15 10:00","2021","11","15","10:00","-2.9","","-4.2","","91","","","M","18","","18","","","M","101.32","","","","-9","","NA"
"-90.73","63.35","CHESTERFIELD INLET A","2300710","2021-11-15 11:00","2021","11","15","11:00","-3.2","","-5.4","","84","","","M","19","","14","","","M","101.31","","","","-8","","NA"
"-90.73","63.35","CHESTERFIELD INLET A","2300710","2021-11-15 12:00","2021","11","15","12:00","-2.5","","-4.6","","86","","","M","18","","18","","","M","101.31","","","","-8","","NA"
"-90.73","63.35","CHESTERFIELD INLET A","2300710","2021-11-15 13:00","2021","11","15","13:00","-2.8","","-5.5","","82","","","M","18","","15","","","M","101.29","","","","-8","","NA"
"-90.73","63.35","CHESTERFIELD INLET A","2300710","2021-11-15 14:00","2021","11","15","14:00","-3.0","","-5.5","","83","","","M","18","","13","","","M","101.30","","","","-8","","NA"
"-90.73","63.35","CHESTERFIELD INLET A","2300710","2021-11-15 15:00","2021","11","15","15:00","-2.8","","-5.6","","81","","","M","18","","17","","","M","101.29","","","","-8","","NA"
"-90.73","63.35","CHESTERFIELD INLET A","2300710","2021-11-15 16:00","2021","11","15","16:00","-2.5","","-5.2","","82","","","M","18","","21","","","M","101.30","","","","-9","","NA"
"-90.73","63.35","CHESTERFIELD INLET A","2300710","2021-11-15 17:00","2021","11","15","17:00","-2.8","","-5.2","","84","","","M","18","","17","","","M","101.28","","","","-8","","NA"
"-90.73","63.35","CHESTERFIELD INLET A","2300710","2021-11-15 18:00","2021","11","15","18:00","-3.0","","-5.1","","86","","","M","18","","12","","","M","101.27","","","","-7","","NA"
"-90.73","63.35","CHESTERFIELD INLET A","2300710","2021-11-15 19:00","2021","11","15","19:00","-2.7","","-4.0","","91","","","M","17","","21","","","M","101.26","","","","-9","","NA"
"-90.73","63.35","CHESTERFIELD INLET A","2300710","2021-11-15 20:00","2021","11","15","20:00","-2.4","","-3.4","","93","","","M","17","","23","","","M","101.23","","","","-9","","NA"
"-90.73","63.35","CHESTERFIELD INLET A","2300710","2021-11-15 21:00","2021","11","15","21:00","-2.5","","-3.7","","92","","","M","17","","19","","","M","101.21","","","","-8","","NA"
"-90.73","63.35","CHESTERFIELD INLET A","2300710","2021-11-15 22:00","2021","11","15","22:00","-2.4","","-3.4","","93","","","M","16","","18","","","M","101.20","","","","-8","","NA"
"-90.73","63.35","CHESTERFIELD INLET A","2300710","2021-11-15 23:00","2021","11","15","23:00","-2.3","","-2.9","","95","","","M","18","","18","","","M","101.22","","","","-8","","NA"
"-90.73","63.35","CHESTERFIELD INLET A","2300710","2021-11-16 00:00","2021","11","16","00:00","-2.3","","-3.3","","92","","","M","19","","20","","","M","101.24","","","","-8","","NA"
"-90.73","63.35","CHESTERFIELD INLET A","2300710","2021-11-16 01:00","2021","11","16","01:00","-2.8","","-4.0","","91","","","M","20","","10","","","M","101.24","","","","-7","","NA"
"-90.73","63.35","CHESTERFIELD INLET A","2300710","2021-11-16 02:00","2021","11","16","02:00","-3.4","","-4.4","","93","","","M","16","","9","","","M","101.26","","","","-7","","NA"
"-90.73","63.35","CHESTERFIELD INLET A","2300710","2021-11-16 03:00","2021","11","16","03:00","-3.2","","-4.6","","90","","","M","17","","11","","","M","101.28","","","","-7","","NA"
"-90.73","63.35","CHESTERFIELD INLET A","2300710","2021-11-16 04:00","2021","11","16","04:00","-3.1","","-4.2","","92","","","M","17","","9","","","M","101.30","","","","-7","","NA"
"-90.73","63.35","CHESTERFIELD INLET A","2300710","2021-11-16 05:00","2021","11","16","05:00","-3.0","","-3.8","","94","","","M","18","","9","","","M","101.33","","","","-7","","NA"
"-90.73","63.35","CHESTERFIELD INLET A","2300710","2021-11-16 06:00","2021","11","16","06:00","-3.4","","-4.0","","95","","","M","16","","6","","","M","101.36","","","","-6","","NA"
"-90.73","63.35","CHESTERFIELD INLET A","2300710","2021-11-16 07:00","2021","11","16","07:00","-3.2","","-4.0","","95","","","M","18","","9","","","M","101.39","","","","-7","","NA"
"-90.73","63.35","CHESTERFIELD INLET A","2300710","2021-11-16 08:00","2021","11","16","08:00","-3.3","","-4.1","","94","","","M","17","","9","","","M","101.40","","","","-7","","NA"
"-90.73","63.35","CHESTERFIELD INLET A","2300710","2021-11-16 09:00","2021","11","16","09:00","-3.2","","-4.1","","93","","","M","17","","12","","","M","101.41","","","","-8","","NA"
"-90.73","63.35","CHESTERFIELD INLET A","2300710","2021-11-16 10:00","2021","11","16","10:00","-3.4","","-4.3","","94","","","M","21","","8","","","M","101.45","","","","-7","","NA"
"-90.73","63.35","CHESTERFIELD INLET A","2300710","2021-11-16 11:00","2021","11","16","11:00","-4.5","","-5.5","","93","","","M","29","","9","","","M","101.48","","","","-8","","NA"
"-90.73","63.35","CHESTERFIELD INLET A","2300710","2021-11-16 12:00","2021","11","16","12:00","-4.5","","-5.8","","91","","","M","29","","13","","","M","101.49","","","","-10","","NA"
"-90.73","63.35","CHESTERFIELD INLET A","2300710","2021-11-16 13:00","2021","11","16","13:00","-5.7","","-7.0","","91","","","M","29","","13","","","M","101.55","","","","-11","","NA"
"-90.73","63.35","CHESTERFIELD INLET A","2300710","2021-11-16 14:00","2021","11","16","14:00","-6.2","","-7.5","","90","","","M","29","","19","","","M","101.59","","","","-13","","NA"
"-90.73","63.35","CHESTERFIELD INLET A","2300710","2021-11-16 15:00","2021","11","16","15:00","-7.0","","-8.4","","90","","","M","29","","20","","","M","101.62","","","","-14","","NA"
"-90.73","63.35","CHESTERFIELD INLET A","2300710","2021-11-16 16:00","2021","11","16","16:00","-7.7","","-8.9","","91","","","M","29","","19","","","M","101.67","","","","-15","","NA"
"-90.73","63.35","CHESTERFIELD INLET A","2300710","2021-11-16 17:00","2021","11","16","17:00","-8.0","","-9.4","","90","","","M","29","","23","","","M","101.72","","","","-16","","NA"
"-90.73","63.35","CHESTERFIELD INLET A","2300710","2021-11-16 18:00","2021","11","16","18:00","-8.5","","-9.8","","90","","","M","30","","25","","","M","101.74","","","","-17","","NA"
"-90.73","63.35","CHESTERFIELD INLET A","2300710","2021-11-16 19:00","2021","11","16","19:00","-10.0","","-11.3","","90","","","M","30","","27","","","M","101.78","","","","-19","","NA"
"-90.73","63.35","CHESTERFIELD INLET A","2300710","2021-11-16 20:00","2021","11","16","20:00","-10.2","","-11.6","","90","","","M","29","","28","","","M","101.83","","","","-19","","NA"
"-90.73","63.35","CHESTERFIELD INLET A","2300710","2021-11-16 21:00","2021","11","16","21:00","-10.3","","-11.6","","90","","","M","29","","27","","","M","101.85","","","","-19","","NA"
"-90.73","63.35","CHESTERFIELD INLET A","2300710","2021-11-16 22:00","2021","11","16","22:00","-10.7","","-12.1","","90","","","M","29","","26","","","M","101.84","","","","-20","","NA"
"-90.73","63.35","CHESTERFIELD INLET A","2300710","2021-11-16 23:00","2021","11","16","23:00","-10.9","","-12.4","","89","","","M","28","","20","","","M","101.90","","","","-19","","NA"
"-90.73","63.35","CHESTERFIELD INLET A","2300710","2021-11-17 00:00","2021","11","17","00:00","-11.9","","-13.4","","89","","","M","28","","18","","","M","101.92","","","","-20","","NA"
"-90.73","63.35","CHESTERFIELD INLET A","2300710","2021-11-17 01:00","2021","11","17","01:00","-13.0","","-14.7","","87","","","M","28","","23","","","M","101.97","","","","-22","","NA"
"-90.73","63.35","CHESTERFIELD INLET A","2300710","2021-11-17 02:00","2021","11","17","02:00","-13.4","","-15.1","","87","","","M","28","","26","","","M","101.97","","","","-23","","NA"
"-90.73","63.35","CHESTERFIELD INLET A","2300710","2021-11-17 03:00","2021","11","17","03:00","-13.8","","-15.5","","87","","","M","29","","25","","","M","102.00","","","","-24","","NA"
"-90.73","63.35","CHESTERFIELD INLET A","2300710","2021-11-17 04:00","2021","11","17","04:00","-14.7","","-16.6","","86","","","M","28","","26","","","M","101.99","","","","-25","","NA"
"-90.73","63.35","CHESTERFIELD INLET A","2300710","2021-11-17 05:00","2021","11","17","05:00","-14.8","","-16.8","","85","","","M","29","","24","","","M","102.00","","","","-25","","NA"
"-90.73","63.35","CHESTERFIELD INLET A","2300710","2021-11-17 06:00","2021","11","17","06:00","-10.7","","-12.5","","87","","","M","34","","22","","","M","102.01","","","","-19","","NA"
"-90.73","63.35","CHESTERFIELD INLET A","2300710","2021-11-17 07:00","2021","11","17","07:00","-10.3","","-12.7","","83","","","M","36","","26","","","M","102.03","","","","-19","","NA"
"-90.73","63.35","CHESTERFIELD INLET A","2300710","2021-11-17 08:00","2021","11","17","08:00","-10.7","","-13.0","","83","","","M","36","","29","","","M","102.05","","","","-20","","NA"
"-90.73","63.35","CHESTERFIELD INLET A","2300710","2021-11-17 09:00","2021","11","17","09:00","-10.5","","-12.8","","84","","","M","36","","27","","","M","102.05","","","","-20","","NA"
"-90.73","63.35","CHESTERFIELD INLET A","2300710","2021-11-17 10:00","2021","11","17","10:00","-10.8","","-13.3","","81","","","M","36","","27","","","M","102.07","","","","-20","","NA"
"-90.73","63.35","CHESTERFIELD INLET A","2300710","2021-11-17 11:00","2021","11","17","11:00","-11.5","","-13.9","","83","","","M","36","","30","","","M","102.11","","","","-21","","NA"
"-90.73","63.35","CHESTERFIELD INLET A","2300710","2021-11-17 12:00","2021","11","17","12:00","-12.6","","-15.8","","77","","","M","36","","23","","","M","102.11","","","","-22","","NA"
"-90.73","63.35","CHESTERFIELD INLET A","2300710","2021-11-17 13:00","2021","11","17","13:00","-13.6","","-16.7","","78","","","M","33","","18","","","M","102.13","","","","-22","","NA"
"-90.73","63.35","CHESTERFIELD INLET A","2300710","2021-11-17 14:00","2021","11","17","14:00","-13.5","","-16.6","","78","","","M","33","","15","","","M","102.14","","","","-21","","NA"
"-90.73","63.35","CHESTERFIELD INLET A","2300710","2021-11-17 15:00","2021","11","17","15:00","-12.8","","-16.3","","75","","","M","35","","24","","","M","102.16","","","","-22","","NA"
"-90.73","63.35","CHESTERFIELD INLET A","2300710","2021-11-17 16:00","2021","11","17","16:00","-12.8","","-16.3","","76","","","M","1","","27","","","M","102.17","","","","-23","","NA"
"-90.73","63.35","CHESTERFIELD INLET A","2300710","2021-11-17 17:00","2021","11","17","17:00","-12.2","","-15.6","","76","","","M","34","","22","","","M","102.17","","","","-21","","NA"
"-90.73","63.35","CHESTERFIELD INLET A","2300710","2021-11-17 18:00","2021","11","17","18:00","-12.2","","-15.2","","78","","","M","34","","21","","","M","102.19","","","","-21","","NA"
"-90.73","63.35","CHESTERFIELD INLET A","2300710","2021-11-17 19:00","2021","11","17","19:00","-12.0","","-15.1","","78","","","M","35","","21","","","M","102.18","","","","-21","","NA"
"-90.73","63.35","CHESTERFIELD INLET A","2300710","2021-11-17 20:00","2021","11","17","20:00","-12.3","","-14.8","","82","","","M","34","","24","","","M","102.17","","","","-22","","NA"
"-90.73","63.35","CHESTERFIELD INLET A","2300710","2021-11-17 21:00","2021","11","17","21:00","-12.9","","-15.8","","79","","","M","34","","22","","","M","102.14","","","","-22","","NA"
"-90.73","63.35","CHESTERFIELD INLET A","2300710","2021-11-17 22:00","2021","11","17","22:00","-12.9","","-16.1","","77","","","M","32","","22","","","M","102.11","","","","-22","","NA"
"-90.73","63.35","CHESTERFIELD INLET A","2300710","2021-11-17 23:00","2021","11","17","23:00","-12.6","","-15.3","","81","","","M","32","","23","","","M","102.08","","","","-22","","NA"
"-90.73","63.35","CHESTERFIELD INLET A","2300710","2021-11-18 00:00","2021","11","18","00:00","-13.2","","-15.1","","86","","","M","33","","28","","","M","102.06","","","","-23","","NA"
"-90.73","63.35","CHESTERFIELD INLET A","2300710","2021-11-18 01:00","2021","11","18","01:00","-13.5","","-15.1","","88","","","M","33","","26","","","M","102.04","","","","-23","","NA"
"-90.73","63.35","CHESTERFIELD INLET A","2300710","2021-11-18 02:00","2021","11","18","02:00","-13.8","","-15.6","","87","","","M","33","","33","","","M","102.02","","","","-25","","NA"
"-90.73","63.35","CHESTERFIELD INLET A","2300710","2021-11-18 03:00","2021","11","18","03:00","-14.4","","-16.2","","86","","","M","33","","27","","","M","102.00","","","","-25","","NA"
"-90.73","63.35","CHESTERFIELD INLET A","2300710","2021-11-18 04:00","2021","11","18","04:00","-15.2","","-17.1","","86","","","M","34","","22","","","M","101.97","","","","-25","","NA"
"-90.73","63.35","CHESTERFIELD INLET A","2300710","2021-11-18 05:00","2021","11","18","05:00","-15.1","","-17.1","","85","","","M","35","","27","","","M","101.95","","","","-26","","NA"
"-90.73","63.35","CHESTERFIELD INLET A","2300710","2021-11-18 06:00","2021","11","18","06:00","-14.7","","-16.6","","86","","","M","35","","24","","","M","101.93","","","","-25","","NA"
"-90.73","63.35","CHESTERFIELD INLET A","2300710","2021-11-18 07:00","2021","11","18","07:00","-14.6","","-16.6","","85","","","M","36","","29","","","M","101.92","","","","-25","","NA"
"-90.73","63.35","CHESTERFIELD INLET A","2300710","2021-11-18 08:00","2021","11","18","08:00","-15.3","","-17.2","","85","","","M","33","","27","","","M","101.92","","","","-26","","NA"
"-90.73","63.35","CHESTERFIELD INLET A","2300710","2021-11-18 09:00","2021","11","18","09:00","-16.6","","-18.9","","83","","","M","33","","25","","","M","101.89","","","","-27","","NA"
"-90.73","63.35","CHESTERFIELD INLET A","2300710","2021-11-18 10:00","2021","11","18","10:00","-16.8","","-19.1","","83","","","M","34","","27","","","M","101.85","","","","-28","","NA"
"-90.73","63.35","CHESTERFIELD INLET A","2300710","2021-11-18 11:00","2021","11","18","11:00","-16.2","","-18.1","","85","","","M","33","","28","","","M","101.83","","","","-27","","NA"
"-90.73","63.35","CHESTERFIELD INLET A","2300710","2021-11-18 12:00","2021","11","18","12:00","-15.8","","-17.8","","84","","","M","32","","26","","","M","101.80","","","","-26","","NA"
"-90.73","63.35","CHESTERFIELD INLET A","2300710","2021-11-18 13:00","2021","11","18","13:00","-15.7","","-17.4","","87","","","M","33","","27","","","M","101.76","","","","-26","","NA"
"-90.73","63.35","CHESTERFIELD INLET A","2300710","2021-11-18 14:00","2021","11","18","14:00","-18.6","","-20.8","","83","","","M","29","","25","","","M","101.78","","","","-30","","NA"
"-90.73","63.35","CHESTERFIELD INLET A","2300710","2021-11-18 15:00","2021","11","18","15:00","-17.7","","-19.9","","83","","","M","29","","28","","","M","101.75","","","","-29","","NA"
"-90.73","63.35","CHESTERFIELD INLET A","2300710","2021-11-18 16:00","2021","11","18","16:00","-17.0","","-19.0","","85","","","M","31","","23","","","M","101.73","","","","-27","","NA"
"-90.73","63.35","CHESTERFIELD INLET A","2300710","2021-11-18 17:00","2021","11","18","17:00","-17.8","","-20.0","","83","","","M","28","","22","","","M","101.73","","","","-28","","NA"
"-90.73","63.35","CHESTERFIELD INLET A","2300710","2021-11-18 18:00","2021","11","18","18:00","-17.6","","-19.8","","83","","","M","28","","26","","","M","101.69","","","","-29","","NA"
"-90.73","63.35","CHESTERFIELD INLET A","2300710","2021-11-18 19:00","2021","11","18","19:00","-16.7","","-18.9","","84","","","M","29","","23","","","M","101.66","","","","-27","","NA"
"-90.73","63.35","CHESTERFIELD INLET A","2300710","2021-11-18 20:00","2021","11","18","20:00","-16.7","","-18.8","","84","","","M","30","","26","","","M","101.64","","","","-28","","NA"
"-90.73","63.35","CHESTERFIELD INLET A","2300710","2021-11-18 21:00","2021","11","18","21:00","-14.1","","-16.1","","86","","","M","35","","25","","","M","101.61","","","","-24","","NA"
"-90.73","63.35","CHESTERFIELD INLET A","2300710","2021-11-18 22:00","2021","11","18","22:00","-13.9","","-15.8","","86","","","M","34","","28","","","M","101.54","","","","-24","","NA"
"-90.73","63.35","CHESTERFIELD INLET A","2300710","2021-11-18 23:00","2021","11","18","23:00","-14.1","","-16.0","","86","","","M","1","","26","","","M","101.50","","","","-24","","NA"
"-90.73","63.35","CHESTERFIELD INLET A","2300710","2021-11-19 00:00","2021","11","19","00:00","-14.6","","-16.5","","86","","","M","1","","25","","","M","101.52","","","","-25","","NA"
"-90.73","63.35","CHESTERFIELD INLET A","2300710","2021-11-19 01:00","2021","11","19","01:00","-15.0","","-16.9","","85","","","M","1","","20","","","M","101.53","","","","-24","","NA"
"-90.73","63.35","CHESTERFIELD INLET A","2300710","2021-11-19 02:00","2021","11","19","02:00","-14.0","","-15.8","","87","","","M","2","","21","","","M","101.51","","","","-23","","NA"
"-90.73","63.35","CHESTERFIELD INLET A","2300710","2021-11-19 03:00","2021","11","19","03:00","-13.3","","-15.1","","87","","","M","36","","20","","","M","101.49","","","","-22","","NA"
"-90.73","63.35","CHESTERFIELD INLET A","2300710","2021-11-19 04:00","2021","11","19","04:00","-13.0","","-14.6","","88","","","M","35","","18","","","M","101.46","","","","-21","","NA"
"-90.73","63.35","CHESTERFIELD INLET A","2300710","2021-11-19 05:00","2021","11","19","05:00","-12.5","","-14.2","","87","","","M","3","","23","","","M","101.43","","","","-22","","NA"
"-90.73","63.35","CHESTERFIELD INLET A","2300710","2021-11-19 06:00","2021","11","19","06:00","-11.9","","-13.5","","88","","","M","2","","21","","","M","101.41","","","","-20","","NA"
"-90.73","63.35","CHESTERFIELD INLET A","2300710","2021-11-19 07:00","2021","11","19","07:00","-11.5","","-13.0","","89","","","M","2","","22","","","M","101.37","","","","-20","","NA"
"-90.73","63.35","CHESTERFIELD INLET A","2300710","2021-11-19 08:00","2021","11","19","08:00","-12.1","","-13.7","","88","","","M","1","","23","","","M","101.37","","","","-21","","NA"
"-90.73","63.35","CHESTERFIELD INLET A","2300710","2021-11-19 09:00","2021","11","19","09:00","-12.6","","-14.2","","88","","","M","2","","23","","","M","101.33","","","","-22","","NA"
"-90.73","63.35","CHESTERFIELD INLET A","2300710","2021-11-19 10:00","2021","11","19","10:00","-10.8","","-12.3","","89","","","M","3","","23","","","M","101.29","","","","-19","","NA"
"-90.73","63.35","CHESTERFIELD INLET A","2300710","2021-11-19 11:00","2021","11","19","11:00","-10.3","","-11.7","","89","","","M","2","","28","","","M","101.27","","","","-20","","NA"
"-90.73","63.35","CHESTERFIELD INLET A","2300710","2021-11-19 12:00","2021","11","19","12:00","-9.3","","-10.6","","90","","","M","5","","23","","","M","101.26","","","","-18","","NA"
"-90.73","63.35","CHESTERFIELD INLET A","2300710","2021-11-19 13:00","2021","11","19","13:00","-9.0","","-10.4","","90","","","M","7","","24","","","M","101.24","","","","-17","","NA"
"-90.73","63.35","CHESTERFIELD INLET A","2300710","2021-11-19 14:00","2021","11","19","14:00","-8.7","","-10.2","","88","","","M","7","","26","","","M","101.19","","","","-17","","NA"
"-90.73","63.35","CHESTERFIELD INLET A","2300710","2021-11-19 15:00","2021","11","19","15:00","-8.0","","-9.9","","87","","","M","9","","21","","","M","101.19","","","","-16","","NA"
"-90.73","63.35","CHESTERFIELD INLET A","2300710","2021-11-19 16:00","2021","11","19","16:00","-7.5","","-8.9","","90","","","M","11","","30","","","M","101.19","","","","-16","","NA"
"-90.73","63.35","CHESTERFIELD INLET A","2300710","2021-11-19 17:00","2021","11","19","17:00","-7.2","","-8.8","","88","","","M","15","","20","","","M","101.18","","","","-14","","NA"
"-90.73","63.35","CHESTERFIELD INLET A","2300710","2021-11-19 18:00","2021","11","19","18:00","-6.5","","-10.7","","73","","","M","12","","28","","","M","101.14","","","","-15","","NA"
"-90.73","63.35","CHESTERFIELD INLET A","2300710","2021-11-19 19:00","2021","11","19","19:00","-6.4","","-11.5","","67","","","M","12","","26","","","M","101.13","","","","-14","","NA"
"-90.73","63.35","CHESTERFIELD INLET A","2300710","2021-11-19 20:00","2021","11","19","20:00","-6.5","","-11.6","","67","","","M","11","","28","","","M","101.09","","","","-15","","NA"
"-90.73","63.35","CHESTERFIELD INLET A","2300710","2021-11-19 21:00","2021","11","19","21:00","-6.7","","-11.6","","68","","","M","12","","28","","","M","101.09","","","","-15","","NA"
"-90.73","63.35","CHESTERFIELD INLET A","2300710","2021-11-19 22:00","2021","11","19","22:00","-6.7","","-11.2","","70","","","M","11","","30","","","M","101.06","","","","-15","","NA"
"-90.73","63.35","CHESTERFIELD INLET A","2300710","2021-11-19 23:00","2021","11","19","23:00","-6.8","","-11.9","","67","","","M","10","","29","","","M","101.04","","","","-15","","NA"
"-90.73","63.35","CHESTERFIELD INLET A","2300710","2021-11-20 00:00","2021","11","20","00:00","-6.9","","-11.1","","72","","","M","10","","32","","","M","101.04","","","","-16","","NA"
"-90.73","63.35","CHESTERFIELD INLET A","2300710","2021-11-20 01:00","2021","11","20","01:00","-7.3","","-11.3","","74","","","M","9","","30","","","M","101.04","","","","-16","","NA"
"-90.73","63.35","CHESTERFIELD INLET A","2300710","2021-11-20 02:00","2021","11","20","02:00","-7.5","","-11.2","","75","","","M","8","","29","","","M","101.03","","","","-16","","NA"
"-90.73","63.35","CHESTERFIELD INLET A","2300710","2021-11-20 03:00","2021","11","20","03:00","-7.7","","-11.3","","75","","","M","8","","35","","","M","101.02","","","","-17","","NA"
"-90.73","63.35","CHESTERFIELD INLET A","2300710","2021-11-20 04:00","2021","11","20","04:00","-7.8","","-11.5","","75","","","M","7","","34","","","M","100.97","","","","-17","","NA"
"-90.73","63.35","CHESTERFIELD INLET A","2300710","2021-11-20 05:00","2021","11","20","05:00","-7.8","","-12.4","","70","","","M","7","","34","","","M","100.94","","","","-17","","NA"
"-90.73","63.35","CHESTERFIELD INLET A","2300710","2021-11-20 06:00","2021","11","20","06:00","-7.8","","-13.0","","66","","","M","7","","36","","","M","100.92","","","","-17","","NA"
"-90.73","63.35","CHESTERFIELD INLET A","2300710","2021-11-20 07:00","2021","11","20","07:00","-8.0","","-12.6","","70","","","M","7","","26","","","M","100.86","","","","-16","","NA"
"-90.73","63.35","CHESTERFIELD INLET A","2300710","2021-11-20 08:00","2021","11","20","08:00","-7.7","","-13.3","","64","","","M","7","","31","","","M","100.84","","","","-17","","NA"
"-90.73","63.35","CHESTERFIELD INLET A","2300710","2021-11-20 09:00","2021","11","20","09:00","-7.5","","-12.7","","67","","","M","7","","29","","","M","100.85","","","","-16","","NA"
"-90.73","63.35","CHESTERFIELD INLET A","2300710","2021-11-20 10:00","2021","11","20","10:00","-7.2","","-12.6","","65","","","M","7","","28","","","M","100.83","","","","-16","","NA"
"-90.73","63.35","CHESTERFIELD INLET A","2300710","2021-11-20 11:00","2021","11","20","11:00","-6.7","","-10.3","","76","","","M","7","","28","","","M","100.79","","","","-15","","NA"
"-90.73","63.35","CHESTERFIELD INLET A","2300710","2021-11-20 12:00","2021","11","20","12:00","-6.4","","-9.5","","79","","","M","6","","34","","","M","100.75","","","","-15","","NA"
"-90.73","63.35","CHESTERFIELD INLET A","2300710","2021-11-20 13:00","2021","11","20","13:00","-6.4","","-8.2","","87","","","M","6","","35","","","M","100.73","","","","-15","","NA"
"-90.73","63.35","CHESTERFIELD INLET A","2300710","2021-11-20 14:00","2021","11","20","14:00","-6.0","","-7.8","","87","","","M","5","","37","","","M","100.74","","","","-15","","NA"
"-90.73","63.35","CHESTERFIELD INLET A","2300710","2021-11-20 15:00","2021","11","20","15:00","-5.2","","-6.8","","88","","","M","5","","44","","","M","100.71","","","","-15","","NA"
"-90.73","63.35","CHESTERFIELD INLET A","2300710","2021-11-20 16:00","2021","11","20","16:00","-4.1","","-6.3","","85","","","M","7","","30","","","M","100.72","","","","-12","","NA"
"-90.73","63.35","CHESTERFIELD INLET A","2300710","2021-11-20 17:00","2021","11","20","17:00","-3.9","","-5.5","","89","","","M","7","","36","","","M","100.74","","","","-12","","NA"
"-90.73","63.35","CHESTERFIELD INLET A","2300710","2021-11-20 18:00","2021","11","20","18:00","-3.9","","-5.3","","90","","","M","7","","36","","","M","100.77","","","","-12","","NA"
"-90.73","63.35","CHESTERFIELD INLET A","2300710","2021-11-20 19:00","2021","11","20","19:00","-4.2","","-5.4","","91","","","M","6","","48","","","M","100.79","","","","-14","","NA"
"-90.73","63.35","CHESTERFIELD INLET A","2300710","2021-11-20 20:00","2021","11","20","20:00","-4.7","","-6.1","","90","","","M","6","","44","","","M","100.83","","","","-14","","NA"
"-90.73","63.35","CHESTERFIELD INLET A","2300710","2021-11-20 21:00","2021","11","20","21:00","-5.3","","-6.9","","89","","","M","5","","50","","","M","100.85","","","","-15","","NA"
"-90.73","63.35","CHESTERFIELD INLET A","2300710","2021-11-20 22:00","2021","11","20","22:00","-5.3","","-6.9","","88","","","M","6","","44","","","M","100.88","","","","-15","","NA"
"-90.73","63.35","CHESTERFIELD INLET A","2300710","2021-11-20 23:00","2021","11","20","23:00","-5.2","","-6.6","","90","","","M","5","","46","","","M","100.92","","","","-15","","NA"
"-90.73","63.35","CHESTERFIELD INLET A","2300710","2021-11-21 00:00","2021","11","21","00:00","-5.1","","-6.5","","90","","","M","5","","45","","","M","100.97","","","","-15","","NA"
"-90.73","63.35","CHESTERFIELD INLET A","2300710","2021-11-21 01:00","2021","11","21","01:00","-5.5","","-6.5","","92","","","M","4","","46","","","M","101.00","","","","-15","","NA"
"-90.73","63.35","CHESTERFIELD INLET A","2300710","2021-11-21 02:00","2021","11","21","02:00","-6.1","","-7.2","","92","","","M","4","","46","","","M","101.04","","","","-16","","NA"
"-90.73","63.35","CHESTERFIELD INLET A","2300710","2021-11-21 03:00","2021","11","21","03:00","-5.7","","-7.0","","91","","","M","5","","41","","","M","101.07","","","","-15","","NA"
"-90.73","63.35","CHESTERFIELD INLET A","2300710","2021-11-21 04:00","2021","11","21","04:00","-5.7","","-7.3","","89","","","M","4","","41","","","M","101.11","","","","-15","","NA"
"-90.73","63.35","CHESTERFIELD INLET A","2300710","2021-11-21 05:00","2021","11","21","05:00","-6.2","","-7.5","","91","","","M","4","","40","","","M","101.16","","","","-16","","NA"
"-90.73","63.35","CHESTERFIELD INLET A","2300710","2021-11-21 06:00","2021","11","21","06:00","-6.6","","-7.9","","91","","","M","4","","40","","","M","101.19","","","","-16","","NA"
"-90.73","63.35","CHESTERFIELD INLET A","2300710","2021-11-21 07:00","2021","11","21","07:00","-6.8","","-8.9","","85","","","M","5","","36","","","M","101.22","","","","-16","","NA"
"-90.73","63.35","CHESTERFIELD INLET A","2300710","2021-11-21 08:00","2021","11","21","08:00","-8.1","","-9.2","","92","","","M","2","","31","","","M","101.23","","","","-17","","NA"
"-90.73","63.35","CHESTERFIELD INLET A","2300710","2021-11-21 09:00","2021","11","21","09:00","-9.3","","-10.6","","91","","","M","2","","33","","","M","101.26","","","","-19","","NA"
"-90.73","63.35","CHESTERFIELD INLET A","2300710","2021-11-21 10:00","2021","11","21","10:00","-9.2","","-10.3","","92","","","M","3","","27","","","M","101.23","","","","-18","","NA"
"-90.73","63.35","CHESTERFIELD INLET A","2300710","2021-11-21 11:00","2021","11","21","11:00","-11.2","","-12.6","","90","","","M","36","","27","","","M","101.26","","","","-21","","NA"
"-90.73","63.35","CHESTERFIELD INLET A","2300710","2021-11-21 12:00","2021","11","21","12:00","-11.2","","-12.6","","90","","","M","35","","27","","","M","101.26","","","","-21","","NA"
"-90.73","63.35","CHESTERFIELD INLET A","2300710","2021-11-21 13:00","2021","11","21","13:00","-11.4","","-12.9","","89","","","M","36","","34","","","M","101.25","","","","-22","","NA"
"-90.73","63.35","CHESTERFIELD INLET A","2300710","2021-11-21 14:00","2021","11","21","14:00","-11.0","","-12.4","","89","","","M","1","","34","","","M","101.27","","","","-21","","NA"
"-90.73","63.35","CHESTERFIELD INLET A","2300710","2021-11-21 15:00","2021","11","21","15:00","-10.8","","-12.2","","89","","","M","36","","31","","","M","101.30","","","","-21","","NA"
"-90.73","63.35","CHESTERFIELD INLET A","2300710","2021-11-21 16:00","2021","11","21","16:00","-9.9","","-11.4","","89","","","M","1","","36","","","M","101.33","","","","-20","","NA"
"-90.73","63.35","CHESTERFIELD INLET A","2300710","2021-11-21 17:00","2021","11","21","17:00","-9.6","","-11.0","","90","","","M","1","","33","","","M","101.33","","","","-19","","NA"
"-90.73","63.35","CHESTERFIELD INLET A","2300710","2021-11-21 18:00","2021","11","21","18:00","-10.3","","-11.8","","89","","","M","1","","29","","","M","101.34","","","","-20","","NA"
"-90.73","63.35","CHESTERFIELD INLET A","2300710","2021-11-21 19:00","2021","11","21","19:00","-10.0","","-11.4","","89","","","M","33","","18","","","M","101.35","","","","-17","","NA"
"-90.73","63.35","CHESTERFIELD INLET A","2300710","2021-11-21 20:00","2021","11","21","20:00","-10.3","","-12.0","","88","","","M","32","","27","","","M","101.35","","","","-19","","NA"
"-90.73","63.35","CHESTERFIELD INLET A","2300710","2021-11-21 21:00","2021","11","21","21:00","-10.8","","-12.5","","88","","","M","33","","23","","","M","101.34","","","","-19","","NA"
"-90.73","63.35","CHESTERFIELD INLET A","2300710","2021-11-21 22:00","2021","11","21","22:00","-11.5","","-13.3","","87","","","M","32","","28","","","M","101.33","","","","-21","","NA"
"-90.73","63.35","CHESTERFIELD INLET A","2300710","2021-11-21 23:00","2021","11","21","23:00","-11.4","","-13.2","","87","","","M","32","","26","","","M","101.31","","","","-21","","NA"
"-90.73","63.35","CHESTERFIELD INLET A","2300710","2021-11-22 00:00","2021","11","22","00:00","-10.9","","-12.3","","90","","","M","34","","22","","","M","101.27","","","","-19","","NA"
"-90.73","63.35","CHESTERFIELD INLET A","2300710","2021-11-22 01:00","2021","11","22","01:00","-11.7","","-13.2","","89","","","M","33","","29","","","M","101.26","","","","-22","","NA"
"-90.73","63.35","CHESTERFIELD INLET A","2300710","2021-11-22 02:00","2021","11","22","02:00","-11.7","","-13.4","","87","","","M","32","","33","","","M","101.28","","","","-22","","NA"
"-90.73","63.35","CHESTERFIELD INLET A","2300710","2021-11-22 03:00","2021","11","22","03:00","-12.0","","-13.8","","87","","","M","32","","31","","","M","101.28","","","","-22","","NA"
"-90.73","63.35","CHESTERFIELD INLET A","2300710","2021-11-22 04:00","2021","11","22","04:00","-11.9","","-13.8","","86","","","M","32","","35","","","M","101.27","","","","-23","","NA"
"-90.73","63.35","CHESTERFIELD INLET A","2300710","2021-11-22 05:00","2021","11","22","05:00","-12.2","","-14.1","","86","","","M","33","","34","","","M","101.28","","","","-23","","NA"
"-90.73","63.35","CHESTERFIELD INLET A","2300710","2021-11-22 06:00","2021","11","22","06:00","-13.1","","-15.0","","86","","","M","32","","37","","","M","101.27","","","","-25","","NA"
"-90.73","63.35","CHESTERFIELD INLET A","2300710","2021-11-22 07:00","2021","11","22","07:00","-14.6","","-16.7","","84","","","M","30","","38","","","M","101.28","","","","-27","","NA"
"-90.73","63.35","CHESTERFIELD INLET A","2300710","2021-11-22 08:00","2021","11","22","08:00","-14.6","","-16.7","","85","","","M","31","","38","","","M","101.24","","","","-27","","NA"
"-90.73","63.35","CHESTERFIELD INLET A","2300710","2021-11-22 09:00","2021","11","22","09:00","-15.1","","-17.2","","84","","","M","31","","39","","","M","101.22","","","","-27","","NA"
"-90.73","63.35","CHESTERFIELD INLET A","2300710","2021-11-22 10:00","2021","11","22","10:00","-16.1","","-18.6","","81","","","M","31","","40","","","M","101.18","","","","-29","","NA"
"-90.73","63.35","CHESTERFIELD INLET A","2300710","2021-11-22 11:00","2021","11","22","11:00","-16.7","","-19.5","","79","","","M","31","","43","","","M","101.15","","","","-30","","NA"
"-90.73","63.35","CHESTERFIELD INLET A","2300710","2021-11-22 12:00","2021","11","22","12:00","-18.5","","-21.1","","80","","","M","29","","37","","","M","101.12","","","","-32","","NA"
"-90.73","63.35","CHESTERFIELD INLET A","2300710","2021-11-22 13:00","2021","11","22","13:00","-18.7","","-21.4","","80","","","M","29","","42","","","M","101.08","","","","-33","","NA"
"-90.73","63.35","CHESTERFIELD INLET A","2300710","2021-11-22 14:00","2021","11","22","14:00","-19.1","","-21.7","","80","","","M","29","","40","","","M","101.07","","","","-33","","NA"
"-90.73","63.35","CHESTERFIELD INLET A","2300710","2021-11-22 15:00","2021","11","22","15:00","-20.4","","-23.2","","78","","","M","29","","49","","","M","101.08","","","","-36","","NA"
"-90.73","63.35","CHESTERFIELD INLET A","2300710","2021-11-22 16:00","2021","11","22","16:00","-21.9","","-24.8","","78","","","M","29","","45","","","M","101.06","","","","-37","","NA"
"-90.73","63.35","CHESTERFIELD INLET A","2300710","2021-11-22 17:00","2021","11","22","17:00","-23.8","","-26.8","","77","","","M","29","","46","","","M","100.99","","","","-40","","NA"
"-90.73","63.35","CHESTERFIELD INLET A","2300710","2021-11-22 18:00","2021","11","22","18:00","-25.1","","-28.2","","76","","","M","29","","42","","","M","100.93","","","","-41","","NA"
"-90.73","63.35","CHESTERFIELD INLET A","2300710","2021-11-22 19:00","2021","11","22","19:00","-26.4","","-29.7","","75","","","M","28","","40","","","M","100.89","","","","-43","","NA"
"-90.73","63.35","CHESTERFIELD INLET A","2300710","2021-11-22 20:00","2021","11","22","20:00","-27.2","","-30.4","","74","","","M","28","","42","","","M","100.83","","","","-44","","NA"
"-90.73","63.35","CHESTERFIELD INLET A","2300710","2021-11-22 21:00","2021","11","22","21:00","-27.5","","-30.8","","74","","","M","28","","46","","","M","100.77","","","","-45","","NA"
"-90.73","63.35","CHESTERFIELD INLET A","2300710","2021-11-22 22:00","2021","11","22","22:00","-27.9","","-31.2","","74","","","M","28","","45","","","M","100.67","","","","-45","","NA"
"-90.73","63.35","CHESTERFIELD INLET A","2300710","2021-11-22 23:00","2021","11","22","23:00","-28.5","","-31.9","","73","","","M","28","","44","","","M","100.60","","","","-46","","NA"
"-90.73","63.35","CHESTERFIELD INLET A","2300710","2021-11-23 00:00","2021","11","23","00:00","-28.8","","-32.2","","73","","","M","28","","44","","","M","100.56","","","","-47","","NA"
"-90.73","63.35","CHESTERFIELD INLET A","2300710","2021-11-23 01:00","2021","11","23","01:00","-29.0","","-32.4","","73","","","M","28","","48","","","M","100.47","","","","-47","","NA"
"-90.73","63.35","CHESTERFIELD INLET A","2300710","2021-11-23 02:00","2021","11","23","02:00","-29.5","","-32.9","","73","","","M","28","","48","","","M","100.44","","","","-48","","NA"
"-90.73","63.35","CHESTERFIELD INLET A","2300710","2021-11-23 03:00","2021","11","23","03:00","-29.8","","-33.3","","72","","","M","28","","43","","","M","100.38","","","","-48","","NA"
"-90.73","63.35","CHESTERFIELD INLET A","2300710","2021-11-23 04:00","2021","11","23","04:00","-30.2","","-33.6","","72","","","M","28","","43","","","M","100.27","","","","-48","","NA"
"-90.73","63.35","CHESTERFIELD INLET A","2300710","2021-11-23 05:00","2021","11","23","05:00","-30.5","","-34.0","","72","","","M","28","","44","","","M","100.16","","","","-49","","NA"
"-90.73","63.35","CHESTERFIELD INLET A","2300710","2021-11-23 06:00","2021","11","23","06:00","-30.1","","-33.5","","73","","","M","28","","41","","","M","100.04","","","","-48","","NA"
"-90.73","63.35","CHESTERFIELD INLET A","2300710","2021-11-23 07:00","2021","11","23","07:00","-30.1","","-33.5","","72","","","M","28","","48","","","M","99.89","","","","-49","","NA"
"-90.73","63.35","CHESTERFIELD INLET A","2300710","2021-11-23 08:00","2021","11","23","08:00","-29.8","","-33.2","","73","","","M","27","","46","","","M","99.76","","","","-48","","NA"
"-90.73","63.35","CHESTERFIELD INLET A","2300710","2021-11-23 09:00","2021","11","23","09:00","-29.8","","-33.2","","72","","","M","27","","42","","","M","99.69","","","","-48","","NA"
"-90.73","63.35","CHESTERFIELD INLET A","2300710","2021-11-23 10:00","2021","11","23","10:00","-29.5","","-33.0","","72","","","M","27","","40","","","M","99.56","","","","-47","","NA"
"-90.73","63.35","CHESTERFIELD INLET A","2300710","2021-11-23 11:00","2021","11","23","11:00","-29.3","","-33.0","","71","","","M","26","","39","","","M","99.46","","","","-46","","NA"
"-90.73","63.35","CHESTERFIELD INLET A","2300710","2021-11-23 12:00","2021","11","23","12:00","-29.0","","-32.8","","71","","","M","25","","37","","","M","99.38","","","","-46","","NA"
"-90.73","63.35","CHESTERFIELD INLET A","2300710","2021-11-23 13:00","2021","11","23","13:00","-29.2","","-33.0","","70","","","M","24","","30","","","M","99.29","","","","-45","","NA"
"-90.73","63.35","CHESTERFIELD INLET A","2300710","2021-11-23 14:00","2021","11","23","14:00","-29.8","","-33.7","","70","","","M","23","","28","","","M","99.21","","","","-45","","NA"
"-90.73","63.35","CHESTERFIELD INLET A","2300710","2021-11-23 15:00","2021","11","23","15:00","-30.0","","-34.0","","69","","","M","23","","26","","","M","99.13","","","","-45","","NA"
"-90.73","63.35","CHESTERFIELD INLET A","2300710","2021-11-23 16:00","2021","11","23","16:00","-29.6","","-33.5","","69","","","M","22","","30","","","M","99.03","","","","-45","","NA"
"-90.73","63.35","CHESTERFIELD INLET A","2300710","2021-11-23 17:00","2021","11","23","17:00","-29.3","","-33.3","","69","","","M","22","","13","","","M","98.96","","","","-40","","NA"
"-90.73","63.35","CHESTERFIELD INLET A","2300710","2021-11-23 18:00","2021","11","23","18:00","-28.7","","-32.5","","70","","","M","20","","15","","","M","98.88","","","","-40","","NA"
"-90.73","63.35","CHESTERFIELD INLET A","2300710","2021-11-23 19:00","2021","11","23","19:00","-28.6","","-32.3","","71","","","M","27","","4","","","M","98.82","","","","-33","","NA"
"-90.73","63.35","CHESTERFIELD INLET A","2300710","2021-11-23 20:00","2021","11","23","20:00","-28.3","","-31.6","","74","","","M","31","","6","","","M","98.71","","","","-35","","NA"
"-90.73","63.35","CHESTERFIELD INLET A","2300710","2021-11-23 21:00","2021","11","23","21:00","-24.4","","-27.0","","80","","","M","34","","7","","","M","98.65","","","","-31","","NA"
"-90.73","63.35","CHESTERFIELD INLET A","2300710","2021-11-23 22:00","2021","11","23","22:00","-20.9","","-23.3","","81","","","M","36","","26","","","M","98.63","","","","-33","","NA"
"-90.73","63.35","CHESTERFIELD INLET A","2300710","2021-11-23 23:00","2021","11","23","23:00","-20.8","","-23.3","","81","","","M","1","","35","","","M","98.62","","","","-34","","NA"
"-90.73","63.35","CHESTERFIELD INLET A","2300710","2021-11-24 00:00","2021","11","24","00:00","-20.7","","-23.3","","80","","","M","2","","47","","","M","98.63","","","","-36","","NA"
"-90.73","63.35","CHESTERFIELD INLET A","2300710","2021-11-24 01:00","2021","11","24","01:00","-20.2","","-22.8","","80","","","M","1","","46","","","M","98.63","","","","-35","","NA"
"-90.73","63.35","CHESTERFIELD INLET A","2300710","2021-11-24 02:00","2021","11","24","02:00","-19.3","","-21.7","","82","","","M","2","","49","","","M","98.66","","","","-34","","NA"
"-90.73","63.35","CHESTERFIELD INLET A","2300710","2021-11-24 03:00","2021","11","24","03:00","-19.0","","-21.4","","82","","","M","1","","51","","","M","98.70","","","","-34","","NA"
"-90.73","63.35","CHESTERFIELD INLET A","2300710","2021-11-24 04:00","2021","11","24","04:00","-17.8","","-20.1","","83","","","M","1","","53","","","M","98.74","","","","-33","","NA"
"-90.73","63.35","CHESTERFIELD INLET A","2300710","2021-11-24 05:00","2021","11","24","05:00","-17.8","","-20.1","","82","","","M","1","","52","","","M","98.79","","","","-33","","NA"
"-90.73","63.35","CHESTERFIELD INLET A","2300710","2021-11-24 06:00","2021","11","24","06:00","-17.5","","-19.8","","83","","","M","1","","56","","","M","98.84","","","","-33","","NA"
"-90.73","63.35","CHESTERFIELD INLET A","2300710","2021-11-24 07:00","2021","11","24","07:00","-16.8","","-19.1","","83","","","M","1","","60","","","M","98.94","","","","-32","","NA"
"-90.73","63.35","CHESTERFIELD INLET A","2300710","2021-11-24 08:00","2021","11","24","08:00","-16.2","","-18.4","","84","","","M","1","","52","","","M","99.06","","","","-30","","NA"
"-90.73","63.35","CHESTERFIELD INLET A","2300710","2021-11-24 09:00","2021","11","24","09:00","-16.2","","-18.5","","83","","","M","1","","47","","","M","99.15","","","","-30","","NA"
"-90.73","63.35","CHESTERFIELD INLET A","2300710","2021-11-24 10:00","2021","11","24","10:00","-16.3","","-18.7","","82","","","M","34","","43","","","M","99.27","","","","-30","","NA"
"-90.73","63.35","CHESTERFIELD INLET A","2300710","2021-11-24 11:00","2021","11","24","11:00","-13.9","","-17.2","","77","","","M","34","","42","","","M","99.33","","","","-26","","NA"
"-90.73","63.35","CHESTERFIELD INLET A","2300710","2021-11-24 12:00","2021","11","24","12:00","-13.3","","-18.5","","65","","","M","33","","39","","","M","99.43","","","","-25","","NA"
"-90.73","63.35","CHESTERFIELD INLET A","2300710","2021-11-24 13:00","2021","11","24","13:00","-18.6","","-21.4","","79","","","M","30","","30","","","M","99.55","","","","-31","","NA"
"-90.73","63.35","CHESTERFIELD INLET A","2300710","2021-11-24 14:00","2021","11","24","14:00","-19.8","","-22.9","","77","","","M","29","","32","","","M","99.65","","","","-33","","NA"
"-90.73","63.35","CHESTERFIELD INLET A","2300710","2021-11-24 15:00","2021","11","24","15:00","-20.6","","-23.7","","76","","","M","29","","31","","","M","99.74","","","","-34","","NA"
"-90.73","63.35","CHESTERFIELD INLET A","2300710","2021-11-24 16:00","2021","11","24","16:00","-21.5","","-24.4","","78","","","M","29","","33","","","M","99.80","","","","-35","","NA"
"-90.73","63.35","CHESTERFIELD INLET A","2300710","2021-11-24 17:00","2021","11","24","17:00","-21.6","","-24.4","","79","","","M","28","","34","","","M","99.85","","","","-35","","NA"
"-90.73","63.35","CHESTERFIELD INLET A","2300710","2021-11-24 18:00","2021","11","24","18:00","-21.3","","-24.0","","79","","","M","29","","35","","","M","99.87","","","","-35","","NA"
"-90.73","63.35","CHESTERFIELD INLET A","2300710","2021-11-24 19:00","2021","11","24","19:00","-20.7","","-23.3","","79","","","M","29","","32","","","M","99.93","","","","-34","","NA"
"-90.73","63.35","CHESTERFIELD INLET A","2300710","2021-11-24 20:00","2021","11","24","20:00","-19.7","","-22.2","","81","","","M","29","","33","","","M","99.93","","","","-33","","NA"
"-90.73","63.35","CHESTERFIELD INLET A","2300710","2021-11-24 21:00","2021","11","24","21:00","-19.5","","-22.1","","81","","","M","28","","28","","","M","99.94","","","","-32","","NA"
"-90.73","63.35","CHESTERFIELD INLET A","2300710","2021-11-24 22:00","2021","11","24","22:00","-18.0","","-20.3","","82","","","M","29","","32","","","M","99.98","","","","-30","","NA"
"-90.73","63.35","CHESTERFIELD INLET A","2300710","2021-11-24 23:00","2021","11","24","23:00","-16.3","","-18.4","","84","","","M","29","","31","","","M","100.02","","","","-28","","NA"
"-90.73","63.35","CHESTERFIELD INLET A","2300710","2021-11-25 00:00","2021","11","25","00:00","-14.3","","-16.3","","85","","","M","29","","30","","","M","100.09","","","","-25","","NA"
"-90.73","63.35","CHESTERFIELD INLET A","2300710","2021-11-25 01:00","2021","11","25","01:00","-13.5","","-15.5","","85","","","M","29","","28","","","M","100.17","","","","-24","","NA"
"-90.73","63.35","CHESTERFIELD INLET A","2300710","2021-11-25 02:00","2021","11","25","02:00","-13.2","","-15.3","","84","","","M","28","","29","","","M","100.27","","","","-24","","NA"
"-90.73","63.35","CHESTERFIELD INLET A","2300710","2021-11-25 03:00","2021","11","25","03:00","-12.7","","-14.8","","84","","","M","30","","40","","","M","100.32","","","","-24","","NA"
"-90.73","63.35","CHESTERFIELD INLET A","2300710","2021-11-25 04:00","2021","11","25","04:00","-10.9","","-13.4","","82","","","M","30","","40","","","M","100.37","","","","-22","","NA"
"-90.73","63.35","CHESTERFIELD INLET A","2300710","2021-11-25 05:00","2021","11","25","05:00","-11.3","","-14.1","","80","","","M","31","","41","","","M","100.43","","","","-23","","NA"
"-90.73","63.35","CHESTERFIELD INLET A","2300710","2021-11-25 06:00","2021","11","25","06:00","-12.8","","-15.1","","83","","","M","29","","39","","","M","100.53","","","","-24","","NA"
"-90.73","63.35","CHESTERFIELD INLET A","2300710","2021-11-25 07:00","2021","11","25","07:00","-13.5","","-15.9","","82","","","M","29","","40","","","M","100.60","","","","-25","","NA"
"-90.73","63.35","CHESTERFIELD INLET A","2300710","2021-11-25 08:00","2021","11","25","08:00","-14.4","","-17.0","","81","","","M","29","","42","","","M","100.64","","","","-27","","NA"
"-90.73","63.35","CHESTERFIELD INLET A","2300710","2021-11-25 09:00","2021","11","25","09:00","-15.0","","-17.7","","80","","","M","29","","43","","","M","100.67","","","","-28","","NA"
"-90.73","63.35","CHESTERFIELD INLET A","2300710","2021-11-25 10:00","2021","11","25","10:00","-15.5","","-18.3","","80","","","M","29","","43","","","M","100.74","","","","-28","","NA"
"-90.73","63.35","CHESTERFIELD INLET A","2300710","2021-11-25 11:00","2021","11","25","11:00","-15.7","","-18.4","","80","","","M","29","","37","","","M","100.78","","","","-28","","NA"
"-90.73","63.35","CHESTERFIELD INLET A","2300710","2021-11-25 12:00","2021","11","25","12:00","-15.5","","-18.2","","80","","","M","29","","41","","","M","100.81","","","","-28","","NA"
"-90.73","63.35","CHESTERFIELD INLET A","2300710","2021-11-25 13:00","2021","11","25","13:00","-15.5","","-18.2","","80","","","M","29","","37","","","M","100.86","","","","-28","","NA"
"-90.73","63.35","CHESTERFIELD INLET A","2300710","2021-11-25 14:00","2021","11","25","14:00","-16.0","","-18.7","","80","","","M","29","","36","","","M","100.94","","","","-28","","NA"
"-90.73","63.35","CHESTERFIELD INLET A","2300710","2021-11-25 15:00","2021","11","25","15:00","-16.4","","-19.2","","80","","","M","29","","39","","","M","101.01","","","","-29","","NA"
"-90.73","63.35","CHESTERFIELD INLET A","2300710","2021-11-25 16:00","2021","11","25","16:00","-16.1","","-19.0","","79","","","M","30","","43","","","M","101.05","","","","-29","","NA"
"-90.73","63.35","CHESTERFIELD INLET A","2300710","2021-11-25 17:00","2021","11","25","17:00","-17.0","","-19.7","","80","","","M","30","","46","","","M","101.04","","","","-31","","NA"
"-90.73","63.35","CHESTERFIELD INLET A","2300710","2021-11-25 18:00","2021","11","25","18:00","-17.5","","-20.2","","80","","","M","29","","38","","","M","101.08","","","","-31","","NA"
"-90.73","63.35","CHESTERFIELD INLET A","2300710","2021-11-25 19:00","2021","11","25","19:00","-17.9","","-20.7","","79","","","M","29","","41","","","M","101.10","","","","-31","","NA"
"-90.73","63.35","CHESTERFIELD INLET A","2300710","2021-11-25 20:00","2021","11","25","20:00","-18.8","","-21.5","","80","","","M","29","","36","","","M","101.13","","","","-32","","NA"
"-90.73","63.35","CHESTERFIELD INLET A","2300710","2021-11-25 21:00","2021","11","25","21:00","-18.8","","-21.6","","79","","","M","29","","35","","","M","101.15","","","","-32","","NA"
"-90.73","63.35","CHESTERFIELD INLET A","2300710","2021-11-25 22:00","2021","11","25","22:00","-19.2","","-22.0","","79","","","M","29","","35","","","M","101.16","","","","-32","","NA"
"-90.73","63.35","CHESTERFIELD INLET A","2300710","2021-11-25 23:00","2021","11","25","23:00","-19.7","","-22.5","","79","","","M","29","","30","","","M","101.21","","","","-32","","NA"
"-90.73","63.35","CHESTERFIELD INLET A","2300710","2021-11-26 00:00","2021","11","26","00:00","-19.8","","-22.6","","79","","","M","29","","38","","","M","101.22","","","","-34","","NA"
"-90.73","63.35","CHESTERFIELD INLET A","2300710","2021-11-26 01:00","2021","11","26","01:00","-20.1","","-22.9","","79","","","M","29","","37","","","M","101.23","","","","-34","","NA"
"-90.73","63.35","CHESTERFIELD INLET A","2300710","2021-11-26 02:00","2021","11","26","02:00","-20.6","","-23.4","","78","","","M","29","","29","","","M","101.31","","","","-33","","NA"
"-90.73","63.35","CHESTERFIELD INLET A","2300710","2021-11-26 03:00","2021","11","26","03:00","-21.3","","-24.2","","78","","","M","28","","30","","","M","101.36","","","","-34","","NA"
"-90.73","63.35","CHESTERFIELD INLET A","2300710","2021-11-26 04:00","2021","11","26","04:00","-21.8","","-24.8","","77","","","M","28","","28","","","M","101.37","","","","-35","","NA"
"-90.73","63.35","CHESTERFIELD INLET A","2300710","2021-11-26 05:00","2021","11","26","05:00","-21.9","","-24.8","","78","","","M","29","","23","","","M","101.41","","","","-34","","NA"
"-90.73","63.35","CHESTERFIELD INLET A","2300710","2021-11-26 06:00","2021","11","26","06:00","-22.3","","-25.2","","78","","","M","30","","26","","","M","101.43","","","","-35","","NA"
"-90.73","63.35","CHESTERFIELD INLET A","2300710","2021-11-26 07:00","2021","11","26","07:00","-22.8","","-25.8","","77","","","M","29","","29","","","M","101.46","","","","-36","","NA"
"-90.73","63.35","CHESTERFIELD INLET A","2300710","2021-11-26 08:00","2021","11","26","08:00","-23.0","","-25.9","","77","","","M","30","","25","","","M","101.47","","","","-35","","NA"
"-90.73","63.35","CHESTERFIELD INLET A","2300710","2021-11-26 09:00","2021","11","26","09:00","-23.0","","-25.9","","78","","","M","30","","25","","","M","101.50","","","","-35","","NA"
"-90.73","63.35","CHESTERFIELD INLET A","2300710","2021-11-26 10:00","2021","11","26","10:00","-23.2","","-26.1","","78","","","M","29","","20","","","M","101.54","","","","-35","","NA"
"-90.73","63.35","CHESTERFIELD INLET A","2300710","2021-11-26 11:00","2021","11","26","11:00","-23.3","","-26.4","","77","","","M","29","","22","","","M","101.57","","","","-35","","NA"
"-90.73","63.35","CHESTERFIELD INLET A","2300710","2021-11-26 12:00","2021","11","26","12:00","-22.8","","-25.9","","77","","","M","30","","20","","","M","101.59","","","","-34","","NA"
"-90.73","63.35","CHESTERFIELD INLET A","2300710","2021-11-26 13:00","2021","11","26","13:00","-22.7","","-25.1","","82","","","M","28","","20","","","M","101.61","","","","-34","","NA"
"-90.73","63.35","CHESTERFIELD INLET A","2300710","2021-11-26 14:00","2021","11","26","14:00","-22.9","","-24.8","","85","","","M","27","","15","","","M","101.64","","","","-33","","NA"
"-90.73","63.35","CHESTERFIELD INLET A","2300710","2021-11-26 15:00","2021","11","26","15:00","-22.3","","-24.9","","80","","","M","27","","13","","","M","101.71","","","","-31","","NA"
"-90.73","63.35","CHESTERFIELD INLET A","2300710","2021-11-26 16:00","2021","11","26","16:00","-22.5","","-25.1","","80","","","M","29","","13","","","M","101.75","","","","-31","","NA"
"-90.73","63.35","CHESTERFIELD INLET A","2300710","2021-11-26 17:00","2021","11","26","17:00","-23.2","","-25.8","","79","","","M","30","","10","","","M","101.75","","","","-31","","NA"
"-90.73","63.35","CHESTERFIELD INLET A","2300710","2021-11-26 18:00","2021","11","26","18:00","-23.2","","-25.9","","79","","","M","28","","13","","","M","101.75","","","","-32","","NA"
"-90.73","63.35","CHESTERFIELD INLET A","2300710","2021-11-26 19:00","2021","11","26","19:00","-23.2","","-25.9","","80","","","M","28","","12","","","M","101.76","","","","-32","","NA"
"-90.73","63.35","CHESTERFIELD INLET A","2300710","2021-11-26 20:00","2021","11","26","20:00","-23.2","","-25.8","","80","","","M","26","","10","","","M","101.75","","","","-31","","NA"
"-90.73","63.35","CHESTERFIELD INLET A","2300710","2021-11-26 21:00","2021","11","26","21:00","-23.3","","-25.9","","80","","","M","26","","7","","","M","101.75","","","","-29","","NA"
"-90.73","63.35","CHESTERFIELD INLET A","2300710","2021-11-26 22:00","2021","11","26","22:00","-22.4","","-25.0","","80","","","M","32","","10","","","M","101.74","","","","-30","","NA"
"-90.73","63.35","CHESTERFIELD INLET A","2300710","2021-11-26 23:00","2021","11","26","23:00","-19.9","","-22.2","","82","","","M","27","","8","","","M","101.75","","","","-26","","NA"
"-90.73","63.35","CHESTERFIELD INLET A","2300710","2021-11-27 00:00","2021","11","27","00:00","-18.5","","-20.4","","85","","","M","31","","9","","","M","101.73","","","","-25","","NA"
"-90.73","63.35","CHESTERFIELD INLET A","2300710","2021-11-27 01:00","2021","11","27","01:00","-17.1","","-19.2","","84","","","M","29","","11","","","M","101.72","","","","-24","","NA"
"-90.73","63.35","CHESTERFIELD INLET A","2300710","2021-11-27 02:00","2021","11","27","02:00","-16.1","","-18.1","","85","","","M","31","","10","","","M","101.71","","","","-23","","NA"
"-90.73","63.35","CHESTERFIELD INLET A","2300710","2021-11-27 03:00","2021","11","27","03:00","-13.0","","-14.7","","88","","","M","6","","10","","","M","101.70","","","","-19","","NA"
"-90.73","63.35","CHESTERFIELD INLET A","2300710","2021-11-27 04:00","2021","11","27","04:00","-13.3","","-15.1","","87","","","M","5","","10","","","M","101.71","","","","-19","","NA"
"-90.73","63.35","CHESTERFIELD INLET A","2300710","2021-11-27 05:00","2021","11","27","05:00","-13.0","","-14.6","","88","","","M","4","","14","","","M","101.68","","","","-20","","NA"
"-90.73","63.35","CHESTERFIELD INLET A","2300710","2021-11-27 06:00","2021","11","27","06:00","-11.5","","-13.0","","89","","","M","3","","6","","","M","101.65","","","","-15","","NA"
"-90.73","63.35","CHESTERFIELD INLET A","2300710","2021-11-27 07:00","2021","11","27","07:00","-10.9","","-12.4","","89","","","M","6","","15","","","M","101.61","","","","-18","","NA"
"-90.73","63.35","CHESTERFIELD INLET A","2300710","2021-11-27 08:00","2021","11","27","08:00","-9.5","","-10.8","","90","","","M","10","","13","","","M","101.58","","","","-16","","NA"
"-90.73","63.35","CHESTERFIELD INLET A","2300710","2021-11-27 09:00","2021","11","27","09:00","-9.3","","-10.8","","89","","","M","9","","15","","","M","101.56","","","","-16","","NA"
"-90.73","63.35","CHESTERFIELD INLET A","2300710","2021-11-27 10:00","2021","11","27","10:00","-8.3","","-10.2","","86","","","M","10","","12","","","M","101.57","","","","-14","","NA"
"-90.73","63.35","CHESTERFIELD INLET A","2300710","2021-11-27 11:00","2021","11","27","11:00","-7.0","","-10.4","","77","","","M","10","","18","","","M","101.54","","","","-14","","NA"
"-90.73","63.35","CHESTERFIELD INLET A","2300710","2021-11-27 12:00","2021","11","27","12:00","-6.5","","-11.0","","70","","","M","13","","15","","","M","101.54","","","","-12","","NA"
"-90.73","63.35","CHESTERFIELD INLET A","2300710","2021-11-27 13:00","2021","11","27","13:00","-6.6","","-11.0","","71","","","M","12","","12","","","M","101.53","","","","-12","","NA"
"-90.73","63.35","CHESTERFIELD INLET A","2300710","2021-11-27 14:00","2021","11","27","14:00","-6.9","","-11.6","","69","","","M","9","","7","","","M","101.51","","","","-10","","NA"
"-90.73","63.35","CHESTERFIELD INLET A","2300710","2021-11-27 15:00","2021","11","27","15:00","-7.1","","-11.8","","69","","","M","8","","9","","","M","101.50","","","","-11","","NA"
"-90.73","63.35","CHESTERFIELD INLET A","2300710","2021-11-27 16:00","2021","11","27","16:00","-7.2","","-9.1","","87","","","M","5","","18","","","M","101.51","","","","-14","","NA"
"-90.73","63.35","CHESTERFIELD INLET A","2300710","2021-11-27 17:00","2021","11","27","17:00","-6.7","","-8.9","","84","","","M","9","","16","","","M","101.49","","","","-13","","NA"
"-90.73","63.35","CHESTERFIELD INLET A","2300710","2021-11-27 18:00","2021","11","27","18:00","-6.1","","-7.7","","88","","","M","10","","21","","","M","101.50","","","","-13","","NA"
"-90.73","63.35","CHESTERFIELD INLET A","2300710","2021-11-27 19:00","2021","11","27","19:00","-6.4","","-8.5","","85","","","M","8","","18","","","M","101.47","","","","-13","","NA"
"-90.73","63.35","CHESTERFIELD INLET A","2300710","2021-11-27 20:00","2021","11","27","20:00","-6.5","","-8.2","","88","","","M","13","","10","","","M","101.46","","","","-11","","NA"
"-90.73","63.35","CHESTERFIELD INLET A","2300710","2021-11-27 21:00","2021","11","27","21:00","-6.2","","-9.9","","75","","","M","9","","11","","","M","101.43","","","","-11","","NA"
"-90.73","63.35","CHESTERFIELD INLET A","2300710","2021-11-27 22:00","2021","11","27","22:00","-5.9","","-10.2","","72","","","M","10","","16","","","M","101.42","","","","-12","","NA"
"-90.73","63.35","CHESTERFIELD INLET A","2300710","2021-11-27 23:00","2021","11","27","23:00","-6.5","","-10.6","","73","","","M","7","","21","","","M","101.39","","","","-14","","NA"
"-90.73","63.35","CHESTERFIELD INLET A","2300710","2021-11-28 00:00","2021","11","28","00:00","-6.7","","-10.5","","74","","","M","7","","19","","","M","101.36","","","","-14","","NA"
"-90.73","63.35","CHESTERFIELD INLET A","2300710","2021-11-28 01:00","2021","11","28","01:00","-6.7","","-9.4","","81","","","M","8","","19","","","M","101.36","","","","-14","","NA"
"-90.73","63.35","CHESTERFIELD INLET A","2300710","2021-11-28 02:00","2021","11","28","02:00","-6.8","","-9.9","","78","","","M","8","","16","","","M","101.35","","","","-13","","NA"
"-90.73","63.35","CHESTERFIELD INLET A","2300710","2021-11-28 03:00","2021","11","28","03:00","-7.0","","-10.7","","75","","","M","6","","14","","","M","101.32","","","","-13","","NA"
"-90.73","63.35","CHESTERFIELD INLET A","2300710","2021-11-28 04:00","2021","11","28","04:00","-6.8","","-10.8","","73","","","M","8","","14","","","M","101.30","","","","-13","","NA"
"-90.73","63.35","CHESTERFIELD INLET A","2300710","2021-11-28 05:00","2021","11","28","05:00","-6.8","","-11.0","","72","","","M","8","","14","","","M","101.27","","","","-13","","NA"
"-90.73","63.35","CHESTERFIELD INLET A","2300710","2021-11-28 06:00","2021","11","28","06:00","-7.2","","-11.1","","74","","","M","8","","11","","","M","101.24","","","","-12","","NA"
"-90.73","63.35","CHESTERFIELD INLET A","2300710","2021-11-28 07:00","2021","11","28","07:00","-7.4","","-11.4","","73","","","M","10","","7","","","M","101.24","","","","-11","","NA"
"-90.73","63.35","CHESTERFIELD INLET A","2300710","2021-11-28 08:00","2021","11","28","08:00","-6.9","","-11.5","","70","","","M","7","","3","","","M","101.20","","","","-8","","NA"
"-90.73","63.35","CHESTERFIELD INLET A","2300710","2021-11-28 09:00","2021","11","28","09:00","-8.1","","-11.6","","76","","","M","14","","3","","","M","101.16","","","","-10","","NA"
"-90.73","63.35","CHESTERFIELD INLET A","2300710","2021-11-28 10:00","2021","11","28","10:00","-10.4","","-12.8","","83","","","M","20","","5","","","M","101.11","","","","-13","","NA"
"-90.73","63.35","CHESTERFIELD INLET A","2300710","2021-11-28 11:00","2021","11","28","11:00","-11.3","","-13.4","","85","","","M","20","","2","","","M","101.08","","","","-13","","NA"
"-90.73","63.35","CHESTERFIELD INLET A","2300710","2021-11-28 12:00","2021","11","28","12:00","-12.5","","-14.8","","84","","","M","28","","4","","","M","101.07","","","","-15","","NA"
"-90.73","63.35","CHESTERFIELD INLET A","2300710","2021-11-28 13:00","2021","11","28","13:00","-10.5","","-12.6","","85","","","M","2","","1","","","M","101.02","","","","-11","","NA"
"-90.73","63.35","CHESTERFIELD INLET A","2300710","2021-11-28 14:00","2021","11","28","14:00","-10.0","","-11.8","","87","","","M","29","","2","","","M","101.01","","","","-11","","NA"
"-90.73","63.35","CHESTERFIELD INLET A","2300710","2021-11-28 15:00","2021","11","28","15:00","-8.9","","-11.5","","82","","","M","7","","11","","","M","100.97","","","","-14","","NA"
"-90.73","63.35","CHESTERFIELD INLET A","2300710","2021-11-28 16:00","2021","11","28","16:00","-9.0","","-11.2","","84","","","M","8","","12","","","M","100.91","","","","-15","","NA"
"-90.73","63.35","CHESTERFIELD INLET A","2300710","2021-11-28 17:00","2021","11","28","17:00","-8.5","","-11.3","","81","","","M","8","","14","","","M","100.86","","","","-15","","NA"
"-90.73","63.35","CHESTERFIELD INLET A","2300710","2021-11-28 18:00","2021","11","28","18:00","-7.5","","-11.3","","74","","","M","7","","14","","","M","100.82","","","","-13","","NA"
"-90.73","63.35","CHESTERFIELD INLET A","2300710","2021-11-28 19:00","2021","11","28","19:00","-11.9","","-13.9","","85","","","M","29","","22","","","M","100.80","","","","-21","","NA"
"-90.73","63.35","CHESTERFIELD INLET A","2300710","2021-11-28 20:00","2021","11","28","20:00","-13.6","","-15.9","","83","","","M","28","","25","","","M","100.78","","","","-23","","NA"
"-90.73","63.35","CHESTERFIELD INLET A","2300710","2021-11-28 21:00","2021","11","28","21:00","-14.8","","-17.2","","82","","","M","29","","27","","","M","100.73","","","","-25","","NA"
"-90.73","63.35","CHESTERFIELD INLET A","2300710","2021-11-28 22:00","2021","11","28","22:00","-15.5","","-18.0","","81","","","M","29","","27","","","M","100.69","","","","-26","","NA"
"-90.73","63.35","CHESTERFIELD INLET A","2300710","2021-11-28 23:00","2021","11","28","23:00","-15.2","","-17.7","","82","","","M","29","","28","","","M","100.68","","","","-26","","NA"
"-90.73","63.35","CHESTERFIELD INLET A","2300710","2021-11-29 00:00","2021","11","29","00:00","-15.5","","-17.9","","82","","","M","29","","26","","","M","100.66","","","","-26","","NA"
"-90.73","63.35","CHESTERFIELD INLET A","2300710","2021-11-29 01:00","2021","11","29","01:00","-16.1","","-18.5","","81","","","M","29","","31","","","M","100.64","","","","-28","","NA"
"-90.73","63.35","CHESTERFIELD INLET A","2300710","2021-11-29 02:00","2021","11","29","02:00","-16.4","","-18.9","","81","","","M","29","","28","","","M","100.63","","","","-28","","NA"
"-90.73","63.35","CHESTERFIELD INLET A","2300710","2021-11-29 03:00","2021","11","29","03:00","-16.4","","-18.8","","81","","","M","30","","27","","","M","100.58","","","","-27","","NA"
"-90.73","63.35","CHESTERFIELD INLET A","2300710","2021-11-29 04:00","2021","11","29","04:00","-18.5","","-21.3","","79","","","M","29","","30","","","M","100.56","","","","-31","","NA"
"-90.73","63.35","CHESTERFIELD INLET A","2300710","2021-11-29 05:00","2021","11","29","05:00","-18.3","","-21.2","","78","","","M","30","","30","","","M","100.54","","","","-30","","NA"
"-90.73","63.35","CHESTERFIELD INLET A","2300710","2021-11-29 06:00","2021","11","29","06:00","-18.1","","-20.8","","80","","","M","30","","28","","","M","100.50","","","","-30","","NA"
"-90.73","63.35","CHESTERFIELD INLET A","2300710","2021-11-29 07:00","2021","11","29","07:00","-17.8","","-20.4","","80","","","M","30","","26","","","M","100.45","","","","-29","","NA"
"-90.73","63.35","CHESTERFIELD INLET A","2300710","2021-11-29 08:00","2021","11","29","08:00","-19.0","","-21.3","","82","","","M","30","","29","","","M","100.42","","","","-31","","NA"
"-90.73","63.35","CHESTERFIELD INLET A","2300710","2021-11-29 09:00","2021","11","29","09:00","-18.6","","-20.9","","82","","","M","30","","25","","","M","100.39","","","","-30","","NA"
"-90.73","63.35","CHESTERFIELD INLET A","2300710","2021-11-29 10:00","2021","11","29","10:00","-18.0","","-20.2","","84","","","M","30","","24","","","M","100.36","","","","-29","","NA"
"-90.73","63.35","CHESTERFIELD INLET A","2300710","2021-11-29 11:00","2021","11","29","11:00","-18.9","","-20.9","","84","","","M","30","","26","","","M","100.32","","","","-30","","NA"
"-90.73","63.35","CHESTERFIELD INLET A","2300710","2021-11-29 12:00","2021","11","29","12:00","-18.7","","-20.4","","87","","","M","29","","25","","","M","100.30","","","","-30","","NA"
"-90.73","63.35","CHESTERFIELD INLET A","2300710","2021-11-29 13:00","2021","11","29","13:00","-18.6","","-20.4","","86","","","M","30","","22","","","M","100.28","","","","-29","","NA"
"-90.73","63.35","CHESTERFIELD INLET A","2300710","2021-11-29 14:00","2021","11","29","14:00","-19.8","","-21.9","","83","","","M","30","","16","","","M","100.26","","","","-29","","NA"
"-90.73","63.35","CHESTERFIELD INLET A","2300710","2021-11-29 15:00","2021","11","29","15:00","-19.5","","-22.0","","81","","","M","29","","13","","","M","100.26","","","","-28","","NA"
"-90.73","63.35","CHESTERFIELD INLET A","2300710","2021-11-29 16:00","2021","11","29","16:00","-17.9","","-20.3","","82","","","M","30","","11","","","M","100.25","","","","-25","","NA"
"-90.73","63.35","CHESTERFIELD INLET A","2300710","2021-11-29 17:00","2021","11","29","17:00","-17.5","","-19.8","","82","","","M","30","","13","","","M","100.23","","","","-25","","NA"
"-90.73","63.35","CHESTERFIELD INLET A","2300710","2021-11-29 18:00","2021","11","29","18:00","-17.9","","-20.1","","83","","","M","29","","13","","","M","100.23","","","","-26","","NA"
"-90.73","63.35","CHESTERFIELD INLET A","2300710","2021-11-29 19:00","2021","11","29","19:00","-17.8","","-19.9","","83","","","M","29","","10","","","M","100.19","","","","-25","","NA"
"-90.73","63.35","CHESTERFIELD INLET A","2300710","2021-11-29 20:00","2021","11","29","20:00","-19.2","","-21.5","","82","","","M","28","","9","","","M","100.16","","","","-26","","NA"
"-90.73","63.35","CHESTERFIELD INLET A","2300710","2021-11-29 21:00","2021","11","29","21:00","-18.8","","-20.7","","85","","","M","29","","7","","","M","100.15","","","","-24","","NA"
"-90.73","63.35","CHESTERFIELD INLET A","2300710","2021-11-29 22:00","2021","11","29","22:00","-20.1","","-22.4","","82","","","M","30","","6","","","M","100.14","","","","-25","","NA"
"-90.73","63.35","CHESTERFIELD INLET A","2300710","2021-11-29 23:00","2021","11","29","23:00","-20.6","","-23.0","","81","","","M","31","","4","","","M","100.15","","","","-24","","NA"
"-90.73","63.35","CHESTERFIELD INLET A","2300710","2021-11-30 00:00","2021","11","30","00:00","-19.4","","-21.7","","82","","","M","0","","1","","","M","100.09","","","","-20","","NA"
"-90.73","63.35","CHESTERFIELD INLET A","2300710","2021-11-30 01:00","2021","11","30","01:00","-21.0","","-23.6","","80","","","M","20","","1","","","M","100.08","","","","-22","","NA"
"-90.73","63.35","CHESTERFIELD INLET A","2300710","2021-11-30 02:00","2021","11","30","02:00","-18.9","","-21.4","","81","","","M","29","","5","","","M","100.06","","","","-23","","NA"
"-90.73","63.35","CHESTERFIELD INLET A","2300710","2021-11-30 03:00","2021","11","30","03:00","-19.6","","-22.1","","81","","","M","30","","9","","","M","100.05","","","","-26","","NA"
"-90.73","63.35","CHESTERFIELD INLET A","2300710","2021-11-30 04:00","2021","11","30","04:00","-18.9","","-21.2","","82","","","M","30","","12","","","M","100.02","","","","-27","","NA"
"-90.73","63.35","CHESTERFIELD INLET A","2300710","2021-11-30 05:00","2021","11","30","05:00","-19.6","","-21.9","","82","","","M","31","","9","","","M","100.02","","","","-26","","NA"
"-90.73","63.35","CHESTERFIELD INLET A","2300710","2021-11-30 06:00","2021","11","30","06:00","-18.7","","-21.1","","82","","","M","31","","10","","","M","99.99","","","","-26","","NA"
"-90.73","63.35","CHESTERFIELD INLET A","2300710","2021-11-30 07:00","2021","11","30","07:00","-17.7","","-20.0","","82","","","M","31","","11","","","M","99.97","","","","-25","","NA"
"-90.73","63.35","CHESTERFIELD INLET A","2300710","2021-11-30 08:00","2021","11","30","08:00","-17.4","","-19.8","","82","","","M","30","","16","","","M","99.96","","","","-26","","NA"
"-90.73","63.35","CHESTERFIELD INLET A","2300710","2021-11-30 09:00","2021","11","30","09:00","-15.8","","-17.9","","84","","","M","30","","15","","","M","99.96","","","","-24","","NA"
"-90.73","63.35","CHESTERFIELD INLET A","2300710","2021-11-30 10:00","2021","11","30","10:00","-11.9","","-13.5","","88","","","M","33","","13","","","M","99.93","","","","-19","","NA"
"-90.73","63.35","CHESTERFIELD INLET A","2300710","2021-11-30 11:00","2021","11","30","11:00","-10.4","","-11.9","","89","","","M","30","","11","","","M","99.89","","","","-16","","NA"
"-90.73","63.35","CHESTERFIELD INLET A","2300710","2021-11-30 12:00","2021","11","30","12:00","-11.1","","-12.8","","88","","","M","30","","15","","","M","99.88","","","","-18","","NA"
"-90.73","63.35","CHESTERFIELD INLET A","2300710","2021-11-30 13:00","2021","11","30","13:00","-10.8","","-12.3","","89","","","M","1","","17","","","M","99.85","","","","-18","","NA"
"-90.73","63.35","CHESTERFIELD INLET A","2300710","2021-11-30 14:00","2021","11","30","14:00","-11.5","","-13.1","","88","","","M","1","","16","","","M","99.82","","","","-19","","NA"
"-90.73","63.35","CHESTERFIELD INLET A","2300710","2021-11-30 15:00","2021","11","30","15:00","-11.5","","-13.1","","88","","","M","33","","18","","","M","99.82","","","","-19","","NA"
"-90.73","63.35","CHESTERFIELD INLET A","2300710","2021-11-30 16:00","2021","11","30","16:00","-11.3","","-12.8","","88","","","M","36","","17","","","M","99.79","","","","-19","","NA"
"-90.73","63.35","CHESTERFIELD INLET A","2300710","2021-11-30 17:00","2021","11","30","17:00","-11.2","","-12.8","","88","","","M","36","","17","","","M","99.76","","","","-19","","NA"
"-90.73","63.35","CHESTERFIELD INLET A","2300710","2021-11-30 18:00","2021","11","30","18:00","-11.1","","-12.6","","89","","","M","32","","18","","","M","99.72","","","","-19","","NA"
"-90.73","63.35","CHESTERFIELD INLET A","2300710","2021-11-30 19:00","2021","11","30","19:00","-14.3","","-16.2","","86","","","M","30","","33","","","M","99.66","","","","-26","","NA"
"-90.73","63.35","CHESTERFIELD INLET A","2300710","2021-11-30 20:00","2021","11","30","20:00","-13.4","","-15.2","","86","","","M","31","","35","","","M","99.57","","","","-25","","NA"
"-90.73","63.35","CHESTERFIELD INLET A","2300710","2021-11-30 21:00","2021","11","30","21:00","-12.1","","-13.7","","88","","","M","32","","37","","","M","99.45","","","","-23","","NA"
"-90.73","63.35","CHESTERFIELD INLET A","2300710","2021-11-30 22:00","2021","11","30","22:00","-11.2","","-12.7","","89","","","M","32","","34","","","M","99.35","","","","-22","","NA"
"-90.73","63.35","CHESTERFIELD INLET A","2300710","2021-11-30 23:00","2021","11","30","23:00","-11.7","","-13.4","","87","","","M","29","","43","","","M","99.22","","","","-23","","NA"
